<?xml version="1.0" encoding="UTF-8"?>
<osm generator="osmapis" version="0.6">
	<node id="-1533" lat="59.8305555555" lon="10.8491722173">
		<tag k="alt_name" v="Klemetsrud kapell" />
		<tag k="amenity" v="place_of_worship" />
		<tag k="denomination" v="lutheran" />
		<tag k="name" v="Klemetsrud kirke" />
		<tag k="religion" v="christian" />
		<tag k="ssr:stedsnr" v="672192" />
	</node>
	<node id="-2041" lat="59.952794447" lon="10.7873361155">
		<tag k="name" v="Vestre Grefsen" />
		<tag k="place" v="locality" />
		<tag k="ssr:stedsnr" v="934776" />
	</node>
	<node id="-2039" lat="59.9169277758" lon="10.7743777708">
		<tag k="name" v="Munchmuseet" />
		<tag k="ssr:stedsnr" v="934774" />
		<tag k="tourism" v="attraction" />
	</node>
	<node id="-1525" lat="59.922116666" lon="10.8196249937">
		<tag k="alt_name" v="Østre Aker" />
		<tag k="amenity" v="place_of_worship" />
		<tag k="denomination" v="lutheran" />
		<tag k="name" v="Østre Aker kirke" />
		<tag k="old_name" v="Ø.Aker" />
		<tag k="religion" v="christian" />
		<tag k="ssr:stedsnr" v="672099" />
	</node>
	<node id="-3571" lat="59.9214194483" lon="10.7842083324">
		<tag k="amenity" v="place_of_worship" />
		<tag k="denomination" v="lutheran" />
		<tag k="name" v="Hasle kirke" />
		<tag k="religion" v="christian" />
		<tag k="ssr:stedsnr" v="873699" />
	</node>
	<node id="-3669" lat="59.9321623644" lon="10.7441495014">
		<tag k="amenity" v="place_of_worship" />
		<tag k="denomination" v="lutheran" />
		<tag k="name" v="Lovisenberg kirke" />
		<tag k="religion" v="christian" />
		<tag k="ssr:stedsnr" v="991009" />
	</node>
	<node id="-2131" lat="59.9493361117" lon="10.6430916636">
		<tag k="alt_name" v="Røa" />
		<tag k="amenity" v="place_of_worship" />
		<tag k="denomination" v="lutheran" />
		<tag k="name" v="Røa kirke" />
		<tag k="religion" v="christian" />
		<tag k="ssr:stedsnr" v="914986" />
	</node>
	<node id="-2045" lat="59.9667055545" lon="10.7357472165">
		<tag k="name" v="Riksarkivet" />
		<tag k="place" v="locality" />
		<tag k="ssr:stedsnr" v="934800" />
	</node>
	<node id="-3562" lat="59.9062055596" lon="10.7692833315">
		<tag k="name" v="Bispegården" />
		<tag k="place" v="locality" />
		<tag k="ssr:stedsnr" v="873743" />
	</node>
	<node id="-3561" lat="59.91595556" lon="10.748047221">
		<tag k="alt_name" v="Hovedbrannst." />
		<tag k="name" v="Hovedbrannstasjon" />
		<tag k="place" v="locality" />
		<tag k="ssr:stedsnr" v="873734" />
	</node>
	<node id="-1511" lat="59.971575004" lon="10.6274611175">
		<tag k="name" v="Bogstad" />
		<tag k="ssr:stedsnr" v="671048" />
		<tag k="tourism" v="attraction" />
	</node>
	<node id="-993" lat="59.9475489552" lon="10.7011914531">
		<tag k="alt_name" v="Ris" />
		<tag k="amenity" v="place_of_worship" />
		<tag k="denomination" v="lutheran" />
		<tag k="name" v="Ris kirke" />
		<tag k="religion" v="christian" />
		<tag k="ssr:stedsnr" v="247974" />
	</node>
	<node id="-3040" lat="59.9211583363" lon="10.8576527739">
		<tag k="alt_name" v="Haugerud" />
		<tag k="amenity" v="place_of_worship" />
		<tag k="denomination" v="lutheran" />
		<tag k="name" v="Haugerud kirke" />
		<tag k="religion" v="christian" />
		<tag k="ssr:stedsnr" v="550036" />
	</node>
	<node id="-3037" lat="59.9237166704" lon="10.7469944497">
		<tag k="alt_name" v="Gamle Aker" />
		<tag k="amenity" v="place_of_worship" />
		<tag k="denomination" v="lutheran" />
		<tag k="name" v="Gamle Aker kirke" />
		<tag k="religion" v="christian" />
		<tag k="ssr:stedsnr" v="550006" />
	</node>
	<node id="-3028" lat="59.9227638863" lon="10.7000694457">
		<tag k="name" v="Vigelandsmuseet" />
		<tag k="ssr:stedsnr" v="544783" />
		<tag k="tourism" v="museum" />
	</node>
	<node id="-3026" lat="59.9242749985" lon="10.6802888901">
		<tag k="name" v="Amalienborg" />
		<tag k="place" v="locality" />
		<tag k="ssr:stedsnr" v="544763" />
	</node>
	<node id="-977" lat="59.9288138906" lon="10.672913897">
		<tag k="name" v="Haugen" />
		<tag k="place" v="locality" />
		<tag k="ssr:stedsnr" v="241740" />
	</node>
	<node id="-1272" lat="59.9278638877" lon="10.650016658">
		<tag k="name" v="Øvre Ullern" />
		<tag k="place" v="locality" />
		<tag k="ssr:stedsnr" v="302754" />
	</node>
	<node id="-2508" lat="59.9102861099" lon="10.6923999918">
		<tag k="name" v="Oscarshall" />
		<tag k="ssr:stedsnr" v="125890" />
		<tag k="tourism" v="museum" />
	</node>
	<node id="-1482" lat="59.9419416626" lon="10.8283166704">
		<tag k="name" v="Lunden kloster" />
		<tag k="place" v="locality" />
		<tag k="ssr:stedsnr" v="448832" />
	</node>
	<node id="-1480" lat="59.9043916681" lon="10.7407805486">
		<tag k="name" v="Forsvarsmuseet" />
		<tag k="old_name" v="Armémuseum" />
		<tag k="ssr:stedsnr" v="448824" />
		<tag k="tourism" v="museum" />
	</node>
	<node id="-1478" lat="59.9317833325" lon="10.7513888942">
		<tag k="name" v="Iladalen" />
		<tag k="place" v="locality" />
		<tag k="ssr:stedsnr" v="448814" />
	</node>
	<node id="-1477" lat="59.9150611072" lon="10.7564361189">
		<tag k="name" v="Prinds Christian Augusts Minde" />
		<tag k="place" v="locality" />
		<tag k="ssr:stedsnr" v="448805" />
	</node>
	<node id="-1476" lat="59.9104138911" lon="10.745741665">
		<tag k="name" v="Gamle posthuset" />
		<tag k="old_name" v="Posthuset" />
		<tag k="place" v="locality" />
		<tag k="ssr:stedsnr" v="448804" />
	</node>
	<node id="-2494" lat="59.9055416636" lon="10.6745666714">
		<tag k="name" v="Strømsborg" />
		<tag k="ssr:stedsnr" v="120802" />
		<tag k="tourism" v="museum" />
	</node>
	<node id="-2492" lat="59.9388749987" lon="10.6414000069">
		<tag k="name" v="Sandbakken" />
		<tag k="place" v="locality" />
		<tag k="ssr:stedsnr" v="120767" />
	</node>
	<node id="-2491" lat="59.9308861086" lon="10.6682944387">
		<tag k="name" v="Ekebakken" />
		<tag k="place" v="locality" />
		<tag k="ssr:stedsnr" v="120740" />
	</node>
	<node id="-2488" lat="59.9033805583" lon="10.6995611082">
		<tag k="name" v="Framhuset" />
		<tag k="ssr:stedsnr" v="119688" />
		<tag k="tourism" v="museum" />
	</node>
	<node id="-3510" lat="59.9249111132" lon="10.6833444404">
		<tag k="name" v="Solbakken" />
		<tag k="place" v="locality" />
		<tag k="ssr:stedsnr" v="848762" />
	</node>
	<node id="-3509" lat="59.9276749979" lon="10.6989249918">
		<tag k="name" v="Monolitten" />
		<tag k="ssr:stedsnr" v="848759" />
		<tag k="tourism" v="attraction" />
	</node>
	<node id="-1452" lat="59.900863889" lon="10.6927277704">
		<tag k="amenity" v="place_of_worship" />
		<tag k="fixme" v="specify religion=*, denomination=*, building=* etc" />
		<tag k="name" v="Sjømannskirken" />
		<tag k="ssr:stedsnr" v="423811" />
	</node>
	<node id="-1451" lat="59.937905554" lon="10.6414222175">
		<tag k="name" v="Rønningen" />
		<tag k="place" v="locality" />
		<tag k="ssr:stedsnr" v="423802" />
	</node>
	<node id="-938" lat="59.874238886" lon="10.8199388817">
		<tag k="name" v="Grotten" />
		<tag k="place" v="locality" />
		<tag k="ssr:stedsnr" v="24503" />
	</node>
	<node id="-3496" lat="60.033336111" lon="10.7601583377">
		<tag k="name" v="Skarsbråten" />
		<tag k="place" v="locality" />
		<tag k="ssr:stedsnr" v="844124" />
	</node>
	<node id="-1447" lat="59.9857166628" lon="10.6935111169">
		<tag k="name" v="Frønsvollstråkka" />
		<tag k="place" v="locality" />
		<tag k="ssr:stedsnr" v="422843" />
	</node>
	<node id="-1952" lat="59.9256666667" lon="10.6547027689">
		<tag k="alt_name" v="Ullern" />
		<tag k="amenity" v="place_of_worship" />
		<tag k="denomination" v="lutheran" />
		<tag k="name" v="Ullern kirke" />
		<tag k="religion" v="christian" />
		<tag k="ssr:stedsnr" v="914927" />
	</node>
	<node id="-1776" lat="59.9102138918" lon="10.736588882">
		<tag k="name" v="Kontraskjæret" />
		<tag k="place" v="locality" />
		<tag k="ssr:stedsnr" v="630704" />
	</node>
	<node id="-2459" lat="60.0515916693" lon="10.5822472253">
		<tag k="name" v="Ullandhogget" />
		<tag k="place" v="locality" />
		<tag k="ssr:stedsnr" v="100340" />
	</node>
	<node id="-2967" lat="59.9171250017" lon="10.7276305485">
		<tag k="alt_name" v="Det kgl.slott;Det Kgl. Slott" />
		<tag k="name" v="Det kongelige slott" />
		<tag k="ssr:stedsnr" v="429090" />
		<tag k="tourism" v="attraction" />
	</node>
	<node id="-2965" lat="59.9366361119" lon="10.728780547">
		<tag k="alt_name" v="Vestre Aker" />
		<tag k="amenity" v="place_of_worship" />
		<tag k="denomination" v="lutheran" />
		<tag k="name" v="Vestre Aker kirke" />
		<tag k="old_name" v="V.Aker" />
		<tag k="religion" v="christian" />
		<tag k="ssr:stedsnr" v="429057" />
	</node>
	<node id="-2964" lat="59.9656408751" lon="10.6723757419">
		<tag k="alt_name" v="Holmenkollen" />
		<tag k="amenity" v="place_of_worship" />
		<tag k="denomination" v="lutheran" />
		<tag k="name" v="Holmenkollen kapell" />
		<tag k="religion" v="christian" />
		<tag k="ssr:stedsnr" v="428044" />
	</node>
	<node id="-2449" lat="59.9491166635" lon="10.7742416609">
		<tag k="name" v="Renholdsverket" />
		<tag k="place" v="locality" />
		<tag k="ssr:stedsnr" v="84842" />
	</node>
	<node id="-2960" lat="60.0268277759" lon="10.6282249965">
		<tag k="name" v="Åsløkka" />
		<tag k="place" v="locality" />
		<tag k="ssr:stedsnr" v="423476" />
	</node>
	<node id="-3471" lat="59.9065666703" lon="10.91303056">
		<tag k="name" v="Pillarene" />
		<tag k="place" v="locality" />
		<tag k="ssr:stedsnr" v="813793" />
	</node>
	<node id="-2442" lat="59.9182249978" lon="10.770502785">
		<tag k="name" v="Tøyen hovedgård" />
		<tag k="place" v="locality" />
		<tag k="ssr:stedsnr" v="84798" />
	</node>
	<node id="-1417" lat="59.9099499999" lon="10.7395750045">
		<tag k="name" v="Teatermuseum" />
		<tag k="ssr:stedsnr" v="509756" />
		<tag k="tourism" v="attraction" />
	</node>
	<node id="-1927" lat="59.942563888" lon="10.8051444375">
		<tag k="alt_name" v="Tonsen" />
		<tag k="amenity" v="place_of_worship" />
		<tag k="denomination" v="lutheran" />
		<tag k="name" v="Tonsen kirke" />
		<tag k="religion" v="christian" />
		<tag k="ssr:stedsnr" v="915031" />
	</node>
	<node id="-2437" lat="59.9263805599" lon="10.7582861092">
		<tag k="amenity" v="place_of_worship" />
		<tag k="denomination" v="lutheran" />
		<tag k="name" v="Paulus kirke" />
		<tag k="religion" v="christian" />
		<tag k="ssr:stedsnr" v="84745" />
	</node>
	<node id="-3455" lat="59.9426583299" lon="10.7206027739">
		<tag k="name" v="Meteorologisk institutt" />
		<tag k="place" v="locality" />
		<tag k="ssr:stedsnr" v="812839" />
	</node>
	<node id="-3454" lat="59.9303555555" lon="10.7895416601">
		<tag k="name" v="Fellesslakteriet" />
		<tag k="place" v="locality" />
		<tag k="ssr:stedsnr" v="812832" />
	</node>
	<node id="-1917" lat="60.0030499986" lon="10.698469451">
		<tag k="name" v="Utsikten" />
		<tag k="ssr:stedsnr" v="907778" />
		<tag k="tourism" v="viewpoint" />
	</node>
	<node id="-1404" lat="59.9958555517" lon="10.7650972246">
		<tag k="amenity" v="place_of_worship" />
		<tag k="denomination" v="lutheran" />
		<tag k="name" v="Margaretakirken" />
		<tag k="religion" v="christian" />
		<tag k="ssr:stedsnr" v="509174" />
	</node>
	<node id="-1513" lat="59.9541388865" lon="10.7791611092">
		<tag k="alt_name" v="Grefsen" />
		<tag k="amenity" v="place_of_worship" />
		<tag k="denomination" v="lutheran" />
		<tag k="name" v="Grefsen kirke" />
		<tag k="religion" v="christian" />
		<tag k="ssr:stedsnr" v="671524" />
	</node>
	<node id="-3447" lat="59.9328500004" lon="10.7529277696">
		<tag k="amenity" v="place_of_worship" />
		<tag k="denomination" v="lutheran" />
		<tag k="name" v="Ila kirke" />
		<tag k="religion" v="christian" />
		<tag k="ssr:stedsnr" v="812781" />
	</node>
	<node id="-2934" lat="59.9603444417" lon="10.6461333346">
		<tag k="name" v="Grindbakken" />
		<tag k="place" v="locality" />
		<tag k="ssr:stedsnr" v="404838" />
	</node>
	<node id="-1001" lat="59.8767555555" lon="10.7623361068">
		<tag k="amenity" v="place_of_worship" />
		<tag k="denomination" v="lutheran" />
		<tag k="name" v="Ormøy kirke" />
		<tag k="religion" v="christian" />
		<tag k="ssr:stedsnr" v="247178" />
	</node>
	<node id="-1895" lat="59.9184416693" lon="10.6793138916">
		<tag k="name" v="Smedsbråten" />
		<tag k="place" v="locality" />
		<tag k="ssr:stedsnr" v="726819" />
	</node>
	<node id="-2918" lat="59.9249583307" lon="10.7507388967">
		<tag k="name" v="Oslo Lysverker" />
		<tag k="place" v="locality" />
		<tag k="ssr:stedsnr" v="387824" />
	</node>
	<node id="-1380" lat="59.9191638884" lon="10.7771388964">
		<tag k="name" v="Bellevue" />
		<tag k="place" v="locality" />
		<tag k="ssr:stedsnr" v="387805" />
	</node>
	<node id="-1377" lat="59.9373305584" lon="10.7896861186">
		<tag k="name" v="Nordre Sinsen" />
		<tag k="place" v="locality" />
		<tag k="ssr:stedsnr" v="387774" />
	</node>
	<node id="-1376" lat="59.9110000028" lon="10.7710194383">
		<tag k="name" v="Politihuset" />
		<tag k="place" v="locality" />
		<tag k="ssr:stedsnr" v="387771" />
	</node>
	<node id="-1373" lat="59.9223861126" lon="10.7660666731">
		<tag k="alt_name" v="Sofienberg" />
		<tag k="amenity" v="place_of_worship" />
		<tag k="denomination" v="lutheran" />
		<tag k="name" v="Sofienberg kirke" />
		<tag k="religion" v="christian" />
		<tag k="ssr:stedsnr" v="387764" />
	</node>
	<node id="-2396" lat="59.9556847202" lon="10.9260305134">
		<tag k="alt_name" v="Stovner" />
		<tag k="amenity" v="place_of_worship" />
		<tag k="denomination" v="lutheran" />
		<tag k="name" v="Stovner kirke" />
		<tag k="religion" v="christian" />
		<tag k="ssr:stedsnr" v="65495" />
	</node>
	<node id="-2395" lat="59.957563892" lon="10.8846222168">
		<tag k="alt_name" v="Grorud" />
		<tag k="amenity" v="place_of_worship" />
		<tag k="denomination" v="lutheran" />
		<tag k="name" v="Grorud kirke" />
		<tag k="religion" v="christian" />
		<tag k="ssr:stedsnr" v="65491" />
	</node>
	<node id="-2906" lat="59.9073805567" lon="10.7462555492">
		<tag k="name" v="Oslo Havnelager A/S" />
		<tag k="place" v="locality" />
		<tag k="ssr:stedsnr" v="387780" />
	</node>
	<node id="-1867" lat="60.1223999978" lon="10.6042722134">
		<tag k="name" v="Fururød" />
		<tag k="place" v="locality" />
		<tag k="ssr:stedsnr" v="890615" />
	</node>
	<node id="-1866" lat="59.9404277768" lon="10.6849000063">
		<tag k="name" v="Øvre Smestad" />
		<tag k="place" v="locality" />
		<tag k="ssr:stedsnr" v="889866" />
	</node>
	<node id="-1353" lat="59.9066555572" lon="10.6843500004">
		<tag k="name" v="Norsk folkemuseum" />
		<tag k="ssr:stedsnr" v="359377" />
		<tag k="tourism" v="museum" />
	</node>
	<node id="-3382" lat="59.9314777744" lon="10.6972388893">
		<tag k="cemetery" v="grave" />
		<tag k="name" v="Vestre gravlund" />
		<tag k="old_name" v="Gravlund, vestre" />
		<tag k="place" v="locality" />
		<tag k="ssr:stedsnr" v="793955" />
	</node>
	<node id="-3390" lat="59.8964027812" lon="10.810822224">
		<tag k="alt_name" v="Manglerud" />
		<tag k="amenity" v="place_of_worship" />
		<tag k="denomination" v="lutheran" />
		<tag k="name" v="Manglerud kirke" />
		<tag k="religion" v="christian" />
		<tag k="ssr:stedsnr" v="794093" />
	</node>
	<node id="-1930" lat="59.8590138861" lon="10.802650006">
		<tag k="alt_name" v="Nordstrand" />
		<tag k="amenity" v="place_of_worship" />
		<tag k="denomination" v="lutheran" />
		<tag k="name" v="Nordstrand kirke" />
		<tag k="religion" v="christian" />
		<tag k="ssr:stedsnr" v="915148" />
	</node>
	<node id="-2361" lat="60.0314249961" lon="10.5537499989">
		<tag k="name" v="Engebonn" />
		<tag k="place" v="locality" />
		<tag k="ssr:stedsnr" v="55439" />
	</node>
	<node id="-1334" lat="59.8462361142" lon="10.78418612">
		<tag k="amenity" v="place_of_worship" />
		<tag k="denomination" v="lutheran" />
		<tag k="name" v="Ljan kirke" />
		<tag k="old_name" v="Ljan kapell" />
		<tag k="religion" v="christian" />
		<tag k="ssr:stedsnr" v="490236" />
	</node>
	<node id="-2869" lat="59.9072833341" lon="10.7379166613">
		<tag k="alt_name" v="Akershus slott og festning;Akershus festning" />
		<tag k="name" v="Akershus slott" />
		<tag k="ssr:stedsnr" v="369113" />
		<tag k="tourism" v="attraction" />
	</node>
	<node id="-1844" lat="59.9774083333" lon="10.6632333326">
		<tag k="name" v="Voksentoppen" />
		<tag k="place" v="locality" />
		<tag k="ssr:stedsnr" v="664874" />
	</node>
	<node id="-3375" lat="59.869788891" lon="10.8133250061">
		<tag k="alt_name" v="Lambertseter" />
		<tag k="amenity" v="place_of_worship" />
		<tag k="denomination" v="lutheran" />
		<tag k="name" v="Lambertseter kirke" />
		<tag k="religion" v="christian" />
		<tag k="ssr:stedsnr" v="793135" />
	</node>
	<node id="-1838" lat="60.0176241606" lon="10.663331432">
		<tag k="amenity" v="place_of_worship" />
		<tag k="denomination" v="lutheran" />
		<tag k="name" v="Nordmarkskapellet" />
		<tag k="religion" v="christian" />
		<tag k="ssr:stedsnr" v="734885" />
	</node>
	<node id="-1322" lat="59.9995388879" lon="10.7710027845">
		<tag k="amenity" v="place_of_worship" />
		<tag k="denomination" v="lutheran" />
		<tag k="name" v="Maridalen kirke" />
		<tag k="old_name" v="Maridal;Maridalen kapell" />
		<tag k="religion" v="christian" />
		<tag k="ssr:stedsnr" v="489622" />
	</node>
	<node id="-2854" lat="59.8849722254" lon="10.7880444441">
		<tag k="alt_name" v="Bekkelaget" />
		<tag k="amenity" v="place_of_worship" />
		<tag k="denomination" v="lutheran" />
		<tag k="name" v="Bekkelaget kirke" />
		<tag k="religion" v="christian" />
		<tag k="ssr:stedsnr" v="368185" />
	</node>
	<node id="-2852" lat="59.9324583334" lon="10.858105558">
		<tag k="amenity" v="place_of_worship" />
		<tag k="denomination" v="lutheran" />
		<tag k="name" v="Alfaset kapell" />
		<tag k="religion" v="christian" />
		<tag k="ssr:stedsnr" v="368059" />
	</node>
	<node id="-3361" lat="59.9128083368" lon="10.7178055494">
		<tag k="name" v="Observatoriet" />
		<tag k="ssr:stedsnr" v="787776" />
		<tag k="tourism" v="museum" />
	</node>
	<node id="-3360" lat="59.9210888885" lon="10.7031694387">
		<tag k="name" v="Schafteløkken" />
		<tag k="place" v="locality" />
		<tag k="ssr:stedsnr" v="787767" />
	</node>
	<node id="-2333" lat="59.9340416676" lon="10.8040166715">
		<tag k="name" v="Torghallen" />
		<tag k="place" v="locality" />
		<tag k="ssr:stedsnr" v="24821" />
	</node>
	<node id="-2330" lat="59.9155305598" lon="10.7215166635">
		<tag k="name" v="Nobelinstituttet" />
		<tag k="place" v="locality" />
		<tag k="ssr:stedsnr" v="24794" />
	</node>
	<node id="-2329" lat="59.911283336" lon="10.7560888974">
		<tag k="name" v="Postterminal" />
		<tag k="place" v="locality" />
		<tag k="ssr:stedsnr" v="24778" />
	</node>
	<node id="-2328" lat="59.9084500019" lon="10.7387416611">
		<tag k="name" v="Oslo Militære Samfund" />
		<tag k="place" v="locality" />
		<tag k="ssr:stedsnr" v="24773" />
	</node>
	<node id="-2824" lat="59.912980559" lon="10.7299055542">
		<tag k="name" v="Oslo konserthus" />
		<tag k="place" v="locality" />
		<tag k="ssr:stedsnr" v="327786" />
	</node>
	<node id="-2823" lat="59.9091916628" lon="10.7250194382">
		<tag k="name" v="Koøyet" />
		<tag k="place" v="locality" />
		<tag k="ssr:stedsnr" v="327775" />
	</node>
	<node id="-2177" lat="59.9313194481" lon="10.7212055497">
		<tag k="amenity" v="place_of_worship" />
		<tag k="denomination" v="lutheran" />
		<tag k="name" v="Majorstuen kirke" />
		<tag k="religion" v="christian" />
		<tag k="ssr:stedsnr" v="934739" />
	</node>
	<node id="-2304" lat="59.903455555" lon="10.7621111153">
		<tag k="amenity" v="place_of_worship" />
		<tag k="denomination" v="lutheran" />
		<tag k="name" v="Mariakirkens ruiner" />
		<tag k="religion" v="christian" />
		<tag k="ssr:stedsnr" v="23790" />
	</node>
	<node id="-2303" lat="59.9273027794" lon="10.7297083409">
		<tag k="amenity" v="place_of_worship" />
		<tag k="denomination" v="lutheran" />
		<tag k="name" v="Fagerborg kirke" />
		<tag k="religion" v="christian" />
		<tag k="ssr:stedsnr" v="23787" />
	</node>
	<node id="-3326" lat="59.9101833318" lon="10.7402388876">
		<tag k="name" v="Rådmannsgården" />
		<tag k="place" v="locality" />
		<tag k="ssr:stedsnr" v="752766" />
	</node>
	<node id="-1784" lat="59.9084944486" lon="10.740944443">
		<tag k="name" v="Museet for samtidskunst" />
		<tag k="ssr:stedsnr" v="630754" />
		<tag k="tourism" v="attraction" />
	</node>
	<node id="-2295" lat="59.9574055596" lon="10.8687277748">
		<tag k="amenity" v="place_of_worship" />
		<tag k="denomination" v="lutheran" />
		<tag k="name" v="Rødtvet kirke" />
		<tag k="religion" v="christian" />
		<tag k="ssr:stedsnr" v="23777" />
	</node>
	<node id="-2294" lat="59.9319972212" lon="10.7874527773">
		<tag k="amenity" v="place_of_worship" />
		<tag k="denomination" v="lutheran" />
		<tag k="name" v="Sinsen kirke" />
		<tag k="religion" v="christian" />
		<tag k="ssr:stedsnr" v="23772" />
	</node>
	<node id="-3313" lat="59.9128527741" lon="10.7547388931">
		<tag k="name" v="Oslo Spektrum" />
		<tag k="place" v="locality" />
		<tag k="ssr:stedsnr" v="751807" />
	</node>
	<node id="-3312" lat="59.9239204673" lon="10.7396343438">
		<tag k="amenity" v="place_of_worship" />
		<tag k="denomination" v="lutheran" />
		<tag k="name" v="Markus kirke" />
		<tag k="religion" v="christian" />
		<tag k="ssr:stedsnr" v="751795" />
	</node>
	<node id="-2799" lat="60.0061611075" lon="10.7627333249">
		<tag k="name" v="Løva" />
		<tag k="place" v="locality" />
		<tag k="ssr:stedsnr" v="327175" />
	</node>
	<node id="-3310" lat="59.9167861083" lon="10.7452083405">
		<tag k="amenity" v="place_of_worship" />
		<tag k="denomination" v="lutheran" />
		<tag k="name" v="Trefoldighetskirken" />
		<tag k="religion" v="christian" />
		<tag k="ssr:stedsnr" v="751792" />
	</node>
	<node id="-2285" lat="59.8297388871" lon="10.7710111179">
		<tag k="name" v="Motorsenteret" />
		<tag k="place" v="locality" />
		<tag k="ssr:stedsnr" v="23020" />
	</node>
	<node id="-3307" lat="59.9468138883" lon="10.8593388847">
		<tag k="alt_name" v="Breidtvet;Bredtvet" />
		<tag k="amenity" v="place_of_worship" />
		<tag k="denomination" v="lutheran" />
		<tag k="name" v="Bredtvet kirke" />
		<tag k="religion" v="christian" />
		<tag k="ssr:stedsnr" v="751774" />
	</node>
	<node id="-3306" lat="59.9067749982" lon="10.788011105">
		<tag k="alt_name" v="Vålerenga" />
		<tag k="amenity" v="place_of_worship" />
		<tag k="denomination" v="lutheran" />
		<tag k="name" v="Vålerenga kirke" />
		<tag k="religion" v="christian" />
		<tag k="ssr:stedsnr" v="751765" />
	</node>
	<node id="-3305" lat="59.9296750015" lon="10.7264499934">
		<tag k="amenity" v="place_of_worship" />
		<tag k="denomination" v="lutheran" />
		<tag k="name" v="De døves kirke" />
		<tag k="religion" v="christian" />
		<tag k="ssr:stedsnr" v="751761" />
	</node>
	<node id="-3302" lat="59.9113583334" lon="10.7424305603">
		<tag k="name" v="Televerket" />
		<tag k="place" v="locality" />
		<tag k="ssr:stedsnr" v="751734" />
	</node>
	<node id="-3299" lat="59.9119472251" lon="10.7819861064">
		<tag k="amenity" v="place_of_worship" />
		<tag k="denomination" v="lutheran" />
		<tag k="name" v="Kampen kirke" />
		<tag k="religion" v="christian" />
		<tag k="ssr:stedsnr" v="751718" />
	</node>
	<node id="-1247" lat="59.9306777759" lon="10.8060361039">
		<tag k="name" v="Økernly" />
		<tag k="place" v="locality" />
		<tag k="ssr:stedsnr" v="267806" />
	</node>
	<node id="-3621" lat="59.9200805547" lon="10.6754250059">
		<tag k="name" v="Sjølyst" />
		<tag k="place" v="locality" />
		<tag k="ssr:stedsnr" v="969782" />
	</node>
	<node id="-1754" lat="59.9135666623" lon="10.6457472186">
		<tag k="name" v="Franzebråten" />
		<tag k="place" v="locality" />
		<tag k="ssr:stedsnr" v="726785" />
	</node>
	<node id="-1749" lat="60.0176666657" lon="10.6398500075">
		<tag k="name" v="Heggedal" />
		<tag k="place" v="locality" />
		<tag k="ssr:stedsnr" v="725026" />
	</node>
	<node id="-2936" lat="59.9415111126" lon="10.7159250047">
		<tag k="name" v="Gaustadhaugen" />
		<tag k="place" v="locality" />
		<tag k="ssr:stedsnr" v="404844" />
	</node>
	<node id="-3668" lat="59.9371317047" lon="10.9164195615">
		<tag k="amenity" v="place_of_worship" />
		<tag k="denomination" v="lutheran" />
		<tag k="name" v="Ellingsrud kirke" />
		<tag k="religion" v="christian" />
		<tag k="ssr:stedsnr" v="991006" />
	</node>
	<node id="-1227" lat="59.9261833311" lon="10.7802388861">
		<tag k="name" v="Furulund" />
		<tag k="ssr:stedsnr" v="448800" />
		<tag k="tourism" v="museum" />
	</node>
	<node id="-1226" lat="59.9110666655" lon="10.7676749946">
		<tag k="alt_name" v="Grønland" />
		<tag k="amenity" v="place_of_worship" />
		<tag k="denomination" v="lutheran" />
		<tag k="name" v="Grønland kirke" />
		<tag k="religion" v="christian" />
		<tag k="ssr:stedsnr" v="448783" />
	</node>
	<node id="-2761" lat="59.91263333" lon="10.7464749945">
		<tag k="alt_name" v="Domkirken" />
		<tag k="amenity" v="place_of_worship" />
		<tag k="denomination" v="lutheran" />
		<tag k="name" v="Oslo domkirke" />
		<tag k="religion" v="christian" />
		<tag k="ssr:stedsnr" v="308088" />
	</node>
	<node id="-2760" lat="59.9135972187" lon="10.8076861123">
		<tag k="cemetery" v="grave" />
		<tag k="name" v="Østre gravlund" />
		<tag k="place" v="locality" />
		<tag k="ssr:stedsnr" v="308081" />
	</node>
	<node id="-2758" lat="59.94429167" lon="10.909369438">
		<tag k="alt_name" v="Høybråten kapell" />
		<tag k="amenity" v="place_of_worship" />
		<tag k="denomination" v="lutheran" />
		<tag k="name" v="Høybråten kirke" />
		<tag k="religion" v="christian" />
		<tag k="ssr:stedsnr" v="308048" />
	</node>
	<node id="-3268" lat="59.9150583347" lon="10.8107888961">
		<tag k="name" v="Timms reperbane" />
		<tag k="place" v="locality" />
		<tag k="ssr:stedsnr" v="631823" />
	</node>
	<node id="-3267" lat="59.9535138868" lon="10.8560194458">
		<tag k="name" v="Rødtvet daghjem" />
		<tag k="place" v="locality" />
		<tag k="ssr:stedsnr" v="631812" />
	</node>
	<node id="-2336" lat="59.9323027752" lon="10.7467000084">
		<tag k="name" v="Diakonissehuset" />
		<tag k="place" v="locality" />
		<tag k="ssr:stedsnr" v="24839" />
	</node>
	<node id="-1726" lat="59.9038055525" lon="10.6768222218">
		<tag k="name" v="Sverresborg" />
		<tag k="place" v="locality" />
		<tag k="ssr:stedsnr" v="605806" />
	</node>
	<node id="-3261" lat="59.9070333311" lon="10.7417111067">
		<tag k="name" v="Gamle Logen" />
		<tag k="old_name" v="Den gamle losje" />
		<tag k="place" v="locality" />
		<tag k="ssr:stedsnr" v="630741" />
	</node>
	<node id="-3260" lat="59.9086002262" lon="10.7433593047">
		<tag k="name" v="Norges Bank" />
		<tag k="place" v="locality" />
		<tag k="ssr:stedsnr" v="630740" />
	</node>
	<node id="-3259" lat="59.9145000015" lon="10.7441805615">
		<tag k="name" v="Oslo tinghus" />
		<tag k="place" v="locality" />
		<tag k="ssr:stedsnr" v="630726" />
	</node>
	<node id="-2746" lat="59.9030000037" lon="10.6872944508">
		<tag k="name" v="Fredriksborg" />
		<tag k="place" v="locality" />
		<tag k="ssr:stedsnr" v="302787" />
	</node>
	<node id="-1721" lat="59.9383500005" lon="10.7005833322">
		<tag k="name" v="Store Borgen" />
		<tag k="place" v="locality" />
		<tag k="ssr:stedsnr" v="603966" />
	</node>
	<node id="-3256" lat="59.9369444429" lon="10.7442805485">
		<tag k="name" v="Geitmyra" />
		<tag k="place" v="locality" />
		<tag k="ssr:stedsnr" v="630787" />
	</node>
	<node id="-3255" lat="59.9185027775" lon="10.7310444377">
		<tag k="name" v="Grotten" />
		<tag k="place" v="locality" />
		<tag k="ssr:stedsnr" v="630786" />
	</node>
	<node id="-1225" lat="59.9181749961" lon="10.7544305587">
		<tag k="amenity" v="place_of_worship" />
		<tag k="denomination" v="lutheran" />
		<tag k="name" v="Jacob kirke" />
		<tag k="religion" v="christian" />
		<tag k="ssr:stedsnr" v="448782" />
	</node>
	<node id="-3244" lat="59.9386472211" lon="10.773327771">
		<tag k="amenity" v="place_of_worship" />
		<tag k="denomination" v="lutheran" />
		<tag k="name" v="Torshov kirke" />
		<tag k="religion" v="christian" />
		<tag k="ssr:stedsnr" v="630685" />
	</node>
	<node id="-2731" lat="59.9213833347" lon="10.8179777797">
		<tag k="name" v="Østre Aker prestegård" />
		<tag k="place" v="locality" />
		<tag k="ssr:stedsnr" v="206816" />
	</node>
	<node id="-2730" lat="59.9507333316" lon="10.7851361136">
		<tag k="name" v="Grefsenhjemmet" />
		<tag k="place" v="locality" />
		<tag k="ssr:stedsnr" v="206814" />
	</node>
	<node id="-2729" lat="59.9194027792" lon="10.7791333383">
		<tag k="name" v="Tøyen bad" />
		<tag k="place" v="locality" />
		<tag k="ssr:stedsnr" v="206810" />
	</node>
	<node id="-2728" lat="59.9076361084" lon="10.7354277829">
		<tag k="name" v="Norges Hjemmefrontmuseum" />
		<tag k="ssr:stedsnr" v="206793" />
		<tag k="tourism" v="attraction" />
	</node>
	<node id="-1189" lat="59.9443888849" lon="10.8478888821">
		<tag k="amenity" v="community_centre" />
		<tag k="name" v="Kulturhuset Veitvet" />
		<tag k="ssr:stedsnr" v="242271" />
	</node>
	<node id="-1188" lat="59.9343638911" lon="10.7107750035">
		<tag k="name" v="Lille Frøen" />
		<tag k="place" v="locality" />
		<tag k="ssr:stedsnr" v="241753" />
	</node>
	<node id="-1692" lat="59.940683335" lon="10.7007555473">
		<tag k="name" v="Lille Borgen" />
		<tag k="place" v="locality" />
		<tag k="ssr:stedsnr" v="707859" />
	</node>
	<node id="-2358" lat="59.9174972254" lon="10.7066555548">
		<tag k="alt_name" v="Frogner" />
		<tag k="amenity" v="place_of_worship" />
		<tag k="denomination" v="lutheran" />
		<tag k="name" v="Frogner kirke" />
		<tag k="religion" v="christian" />
		<tag k="ssr:stedsnr" v="51445" />
	</node>
	<node id="-1681" lat="59.9333527759" lon="10.8580750071">
		<tag k="cemetery" v="grave" />
		<tag k="name" v="Alfaset gravlund" />
		<tag k="place" v="locality" />
		<tag k="ssr:stedsnr" v="692795" />
	</node>
	<node id="-2190" lat="60.0218805569" lon="10.6009416654">
		<tag k="name" v="Bjørnebråten" />
		<tag k="place" v="locality" />
		<tag k="ssr:stedsnr" v="967014" />
	</node>
	<node id="-1165" lat="59.8987583355" lon="10.6762277745">
		<tag k="name" v="Fredensborg" />
		<tag k="place" v="locality" />
		<tag k="ssr:stedsnr" v="180811" />
	</node>
	<node id="-1673" lat="59.9362777797" lon="10.8519388943">
		<tag k="name" v="Grav" />
		<tag k="place" v="locality" />
		<tag k="ssr:stedsnr" v="691952" />
	</node>
	<node id="-2181" lat="59.9279416635" lon="10.7747972238">
		<tag k="name" v="Kronprinsesse Märthas institutt" />
		<tag k="place" v="locality" />
		<tag k="ssr:stedsnr" v="934806" />
	</node>
	<node id="-1556" lat="59.9526611137" lon="10.6679916608">
		<tag k="name" v="Lybekk" />
		<tag k="place" v="locality" />
		<tag k="ssr:stedsnr" v="482955" />
	</node>
	<node id="-2689" lat="59.8933722185" lon="10.8828750038">
		<tag k="name" v="Nedre Utsikten" />
		<tag k="ssr:stedsnr" v="205355" />
		<tag k="tourism" v="viewpoint" />
	</node>
	<node id="-1664" lat="59.9601194475" lon="10.7452611104">
		<tag k="name" v="Nordberghjemmet" />
		<tag k="place" v="locality" />
		<tag k="ssr:stedsnr" v="691813" />
	</node>
	<node id="-1659" lat="59.9166555532" lon="10.7354083342">
		<tag k="name" v="Historisk museum" />
		<tag k="ssr:stedsnr" v="691781" />
		<tag k="tourism" v="attraction" />
	</node>
	<node id="-2170" lat="59.9061361141" lon="10.6787277719">
		<tag k="amenity" v="place_of_worship" />
		<tag k="denomination" v="lutheran" />
		<tag k="name" v="Bygdøy kirke" />
		<tag k="old_name" v="Bygdøy kapell" />
		<tag k="religion" v="christian" />
		<tag k="ssr:stedsnr" v="934313" />
	</node>
	<node id="-1656" lat="59.9040000002" lon="10.7712194473">
		<tag k="cemetery" v="grave" />
		<tag k="name" v="Gamlebyen gravlund" />
		<tag k="place" v="locality" />
		<tag k="ssr:stedsnr" v="691757" />
	</node>
	<node id="-1655" lat="59.9166366284" lon="10.7463513001">
		<tag k="name" v="Deichmanske bibliotek" />
		<tag k="ssr:stedsnr" v="691752" />
		<tag k="tourism" v="museum" />
	</node>
	<node id="-3448" lat="59.9060694457" lon="10.7675916678">
		<tag k="name" v="Oslo Ladegård" />
		<tag k="place" v="locality" />
		<tag k="ssr:stedsnr" v="812785" />
	</node>
	<node id="-1652" lat="59.9511333357" lon="10.8735777836">
		<tag k="amenity" v="community_centre" />
		<tag k="name" v="Grorud samfunnshus" />
		<tag k="ssr:stedsnr" v="691723" />
	</node>
	<node id="-1128" lat="59.9289611092" lon="10.7724694452">
		<tag k="alt_name" v="Rodeløkka kolonihager" />
		<tag k="name" v="Rodeløkkens kolonihager" />
		<tag k="place" v="locality" />
		<tag k="ssr:stedsnr" v="266838" />
	</node>
	<node id="-1725" lat="59.9225500045" lon="10.6804166698">
		<tag k="name" v="Sofienlund" />
		<tag k="place" v="locality" />
		<tag k="ssr:stedsnr" v="605768" />
	</node>
	<node id="-2665" lat="59.8506472225" lon="10.8808833353">
		<tag k="amenity" v="place_of_worship" />
		<tag k="denomination" v="lutheran" />
		<tag k="name" v="Østmarkskapellet" />
		<tag k="religion" v="christian" />
		<tag k="ssr:stedsnr" v="187227" />
	</node>
	<node id="-3176" lat="60.0341527775" lon="10.521674994">
		<tag k="name" v="Hvileberget" />
		<tag k="place" v="locality" />
		<tag k="ssr:stedsnr" v="601473" />
	</node>
	<node id="-2151" lat="59.9627434851" lon="10.9247950213">
		<tag k="alt_name" v="Fossum" />
		<tag k="amenity" v="place_of_worship" />
		<tag k="denomination" v="lutheran" />
		<tag k="name" v="Fossum kirke" />
		<tag k="religion" v="christian" />
		<tag k="ssr:stedsnr" v="915524" />
	</node>
	<node id="-1382" lat="59.9433305593" lon="10.8012888815">
		<tag k="name" v="Disenstua" />
		<tag k="place" v="locality" />
		<tag k="ssr:stedsnr" v="387808" />
	</node>
	<node id="-2747" lat="59.9022861069" lon="10.6818583272">
		<tag k="name" v="Bygdøyhus" />
		<tag k="place" v="locality" />
		<tag k="ssr:stedsnr" v="302788" />
	</node>
	<node id="-2656" lat="59.8997000019" lon="10.843108342">
		<tag k="alt_name" v="Oppsal" />
		<tag k="amenity" v="place_of_worship" />
		<tag k="denomination" v="lutheran" />
		<tag k="name" v="Oppsal kirke" />
		<tag k="religion" v="christian" />
		<tag k="ssr:stedsnr" v="187087" />
	</node>
	<node id="-1119" lat="59.9115972238" lon="10.7542694422">
		<tag k="name" v="Posthuset" />
		<tag k="old_name" v="Postgiro" />
		<tag k="place" v="locality" />
		<tag k="ssr:stedsnr" v="266776" />
	</node>
	<node id="-1118" lat="59.9175111119" lon="10.7432944427">
		<tag k="name" v="Frelsesarmeen" />
		<tag k="place" v="locality" />
		<tag k="ssr:stedsnr" v="266771" />
	</node>
	<node id="-1117" lat="59.9184972221" lon="10.7441472139">
		<tag k="amenity" v="place_of_worship" />
		<tag k="denomination" v="lutheran" />
		<tag k="name" v="St. Olavs domkirke" />
		<tag k="religion" v="christian" />
		<tag k="ssr:stedsnr" v="266760" />
	</node>
	<node id="-1116" lat="59.9376722202" lon="10.753072228">
		<tag k="amenity" v="place_of_worship" />
		<tag k="denomination" v="lutheran" />
		<tag k="name" v="Sagene kirke" />
		<tag k="religion" v="christian" />
		<tag k="ssr:stedsnr" v="266756" />
	</node>
	<node id="-3675" lat="59.9149413053" lon="10.7680393445">
		<tag k="amenity" v="place_of_worship" />
		<tag k="denomination" v="lutheran" />
		<tag k="name" v="Tøyen kirke" />
		<tag k="religion" v="christian" />
		<tag k="ssr:stedsnr" v="991017" />
	</node>
	<node id="-3674" lat="59.9292617308" lon="10.6873922163">
		<tag k="amenity" v="place_of_worship" />
		<tag k="denomination" v="lutheran" />
		<tag k="name" v="Skøyen kirke" />
		<tag k="religion" v="christian" />
		<tag k="ssr:stedsnr" v="991015" />
	</node>
	<node id="-3673" lat="59.8359883187" lon="10.7929859338">
		<tag k="amenity" v="place_of_worship" />
		<tag k="denomination" v="lutheran" />
		<tag k="name" v="Holmlia kirke" />
		<tag k="religion" v="christian" />
		<tag k="ssr:stedsnr" v="991013" />
	</node>
	<node id="-3671" lat="59.942091493" lon="10.8889859202">
		<tag k="amenity" v="place_of_worship" />
		<tag k="denomination" v="lutheran" />
		<tag k="name" v="Furuset kirke" />
		<tag k="religion" v="christian" />
		<tag k="ssr:stedsnr" v="991011" />
	</node>
	<node id="-3670" lat="59.8471374595" lon="10.8319410142">
		<tag k="amenity" v="place_of_worship" />
		<tag k="denomination" v="lutheran" />
		<tag k="name" v="Mortensrud kirke" />
		<tag k="religion" v="christian" />
		<tag k="ssr:stedsnr" v="991010" />
	</node>
	<node id="-3157" lat="60.0874194486" lon="10.6241305552">
		<tag k="name" v="Askenga" />
		<tag k="place" v="locality" />
		<tag k="ssr:stedsnr" v="585613" />
	</node>
	<node id="-2132" lat="59.9115861073" lon="10.7287750047">
		<tag k="alt_name" v="Oslo V." />
		<tag k="name" v="Oslo V" />
		<tag k="place" v="locality" />
		<tag k="ssr:stedsnr" v="915103" />
	</node>
	<node id="-3155" lat="59.9352416644" lon="10.8063777818">
		<tag k="name" v="Gartnerhall" />
		<tag k="place" v="locality" />
		<tag k="ssr:stedsnr" v="570805" />
	</node>
	<node id="-2128" lat="60.0213138927" lon="10.5688500031">
		<tag k="name" v="Støypern" />
		<tag k="place" v="locality" />
		<tag k="ssr:stedsnr" v="907027" />
	</node>
	<node id="-2632" lat="59.9389958621" lon="10.7215301939">
		<tag k="name" v="Universitetsbiblioteket" />
		<tag k="ssr:stedsnr" v="180790" />
		<tag k="tourism" v="museum" />
	</node>
	<node id="-1607" lat="59.9088027764" lon="10.7477527723">
		<tag k="name" v="Børsen" />
		<tag k="place" v="locality" />
		<tag k="ssr:stedsnr" v="509729" />
	</node>
	<node id="-1605" lat="59.9211833367" lon="10.7198555516">
		<tag k="alt_name" v="Uranienborg" />
		<tag k="amenity" v="place_of_worship" />
		<tag k="denomination" v="lutheran" />
		<tag k="name" v="Uranienborg kirke" />
		<tag k="religion" v="christian" />
		<tag k="ssr:stedsnr" v="509718" />
	</node>
	<node id="-2628" lat="59.9902027817" lon="10.6348861029">
		<tag k="name" v="Holen" />
		<tag k="place" v="locality" />
		<tag k="ssr:stedsnr" v="179969" />
	</node>
	<node id="-2144" lat="59.8824194433" lon="10.8397111165">
		<tag k="alt_name" v="Bøler" />
		<tag k="amenity" v="place_of_worship" />
		<tag k="denomination" v="lutheran" />
		<tag k="name" v="Bøler kirke" />
		<tag k="religion" v="christian" />
		<tag k="ssr:stedsnr" v="915155" />
	</node>
	<node id="-2108" lat="59.9692888925" lon="10.890394437">
		<tag k="amenity" v="place_of_worship" />
		<tag k="denomination" v="lutheran" />
		<tag k="name" v="Romsås kirke" />
		<tag k="religion" v="christian" />
		<tag k="ssr:stedsnr" v="873707" />
	</node>
	<node id="-3131" lat="59.9143964906" lon="10.7342529008">
		<tag k="amenity" v="community_centre" />
		<tag k="name" v="Nationaltheatret" />
		<tag k="ssr:stedsnr" v="569756" />
	</node>
	<node id="-3130" lat="59.9154500046" lon="10.7196249956">
		<tag k="name" v="Oslo Lysverker" />
		<tag k="place" v="locality" />
		<tag k="ssr:stedsnr" v="569755" />
	</node>
	<node id="-2103" lat="59.9410138934" lon="10.7346277722">
		<tag k="name" v="Store Ullevål" />
		<tag k="place" v="locality" />
		<tag k="ssr:stedsnr" v="873811" />
	</node>
	<node id="-3638" lat="59.9569968602" lon="10.6493620582">
		<tag k="amenity" v="place_of_worship" />
		<tag k="denomination" v="lutheran" />
		<tag k="name" v="Voksen kirke" />
		<tag k="religion" v="christian" />
		<tag k="ssr:stedsnr" v="987802" />
	</node>
	<node id="-2116" lat="60.0534361103" lon="10.6358055484">
		<tag k="alt_name" v="Pålsbråten" />
		<tag k="name" v="Pålsbråtan" />
		<tag k="place" v="locality" />
		<tag k="ssr:stedsnr" v="950344" />
	</node>
	<node id="-1211" lat="59.9315666645" lon="10.7656527706">
		<tag k="amenity" v="place_of_worship" />
		<tag k="denomination" v="lutheran" />
		<tag k="name" v="Lilleborg kirke" />
		<tag k="religion" v="christian" />
		<tag k="ssr:stedsnr" v="448762" />
	</node>
	<node id="-1127" lat="59.9212944488" lon="10.7439888959">
		<tag k="cemetery" v="grave" />
		<tag k="name" v="Vår Frelsers gravlund" />
		<tag k="place" v="locality" />
		<tag k="ssr:stedsnr" v="266834" />
	</node>
	<node id="-1144" lat="59.947074998" lon="10.7284583398">
		<tag k="name" v="Sogn hagekoloni" />
		<tag k="place" v="locality" />
		<tag k="ssr:stedsnr" v="145817" />
	</node>
	<node id="-2604" lat="60.1168472231" lon="10.7231333324">
		<tag k="name" v="Elgfallet" />
		<tag k="place" v="locality" />
		<tag k="ssr:stedsnr" v="161596" />
	</node>
	<node id="-3113" lat="59.9628499995" lon="10.7424861133">
		<tag k="amenity" v="place_of_worship" />
		<tag k="denomination" v="lutheran" />
		<tag k="name" v="Nordberg kapell" />
		<tag k="religion" v="christian" />
		<tag k="ssr:stedsnr" v="569687" />
	</node>
	<node id="-3622" lat="59.9179750024" lon="10.6656944511">
		<tag k="name" v="Maritim" />
		<tag k="place" v="locality" />
		<tag k="ssr:stedsnr" v="969786" />
	</node>
	<node id="-1604" lat="59.9030527767" lon="10.7677083396">
		<tag k="alt_name" v="Gamlebyen" />
		<tag k="amenity" v="place_of_worship" />
		<tag k="denomination" v="lutheran" />
		<tag k="name" v="Gamlebyen kirke" />
		<tag k="religion" v="christian" />
		<tag k="ssr:stedsnr" v="509716" />
	</node>
	<node id="-1883" lat="59.9389361104" lon="10.7477222199">
		<tag k="cemetery" v="grave" />
		<tag k="name" v="Nordre gravlund" />
		<tag k="place" v="locality" />
		<tag k="ssr:stedsnr" v="714809" />
	</node>
	<node id="-1056" lat="59.9177583323" lon="10.7701305539">
		<tag k="name" v="Botanisk hage og museum" />
		<tag k="ssr:stedsnr" v="84813" />
		<tag k="tourism" v="attraction" />
	</node>
	<node id="-1055" lat="59.9164166651" lon="10.7368555552">
		<tag k="name" v="Nasjonalgalleriet" />
		<tag k="ssr:stedsnr" v="84811" />
		<tag k="tourism" v="attraction" />
	</node>
	<node id="-3612" lat="59.9325277802" lon="10.712541659">
		<tag k="amenity" v="community_centre" />
		<tag k="name" v="Chateau Neuf" />
		<tag k="ssr:stedsnr" v="968972" />
	</node>
	<node id="-3162" lat="59.956880558" lon="10.7142277709">
		<tag k="name" v="Tuggerud" />
		<tag k="place" v="locality" />
		<tag k="ssr:stedsnr" v="585742" />
	</node>
	<node id="-3608" lat="59.8990388901" lon="10.6780305582">
		<tag k="name" v="Grande" />
		<tag k="ssr:stedsnr" v="968735" />
		<tag k="tourism" v="museum" />
	</node>
	<node id="-2814" lat="59.9198138876" lon="10.7710833264">
		<tag k="name" v="Zoologisk og Geologisk museum" />
		<tag k="ssr:stedsnr" v="327677" />
		<tag k="tourism" v="attraction" />
	</node>
	<node id="-2580" lat="59.948908333" lon="10.7541027803">
		<tag k="amenity" v="place_of_worship" />
		<tag k="denomination" v="lutheran" />
		<tag k="name" v="Bakkehaugen kirke" />
		<tag k="religion" v="christian" />
		<tag k="ssr:stedsnr" v="144733" />
	</node>
	<node id="-2579" lat="59.9127499988" lon="10.7691083335">
		<tag k="amenity" v="place_of_worship" />
		<tag k="denomination" v="lutheran" />
		<tag k="name" v="St. Hallvards kirke" />
		<tag k="religion" v="christian" />
		<tag k="ssr:stedsnr" v="144728" />
	</node>
	<node id="-3601" lat="60.0627277761" lon="10.817580562">
		<tag k="name" v="Skjerpet" />
		<tag k="place" v="locality" />
		<tag k="ssr:stedsnr" v="965500" />
	</node>
	<node id="-2576" lat="59.9553833376" lon="10.7710527781">
		<tag k="amenity" v="place_of_worship" />
		<tag k="denomination" v="lutheran" />
		<tag k="name" v="Grefsen kapell" />
		<tag k="religion" v="christian" />
		<tag k="ssr:stedsnr" v="144704" />
	</node>
	<node id="-2058" lat="59.9540805553" lon="10.9079888905">
		<tag k="name" v="Motorsenter N" />
		<tag k="place" v="locality" />
		<tag k="ssr:stedsnr" v="935797" />
	</node>
	<node id="-1033" lat="60.0155194485" lon="10.616544451">
		<tag k="amenity" v="place_of_worship" />
		<tag k="denomination" v="lutheran" />
		<tag k="name" v="Sørkedalen kirke" />
		<tag k="old_name" v="Sørkedal;Sørkedalen kapell" />
		<tag k="religion" v="christian" />
		<tag k="ssr:stedsnr" v="248904" />
	</node>
</osm>
