<?xml version="1.0" encoding="UTF-8"?>
<osm generator="osmapis" version="0.6">
	<node id="-1024" lat="60.1323555535" lon="10.6448694463">
		<tag k="name" v="Kutangen" />
		<tag k="natural" v="cape" />
		<tag k="ssr:stedsnr" v="248394" />
	</node>
	<node id="-1535" lat="59.8514445942" lon="10.8759568756">
		<tag k="alt_name" v="Rundvann" />
		<tag k="name" v="Rundvannet" />
		<tag k="natural" v="water" />
		<tag k="ssr:stedsnr" v="672215" />
	</node>
	<node id="-1532" lat="60.0458333295" lon="10.5565277689">
		<tag k="alt_name" v="Lysedammen, midtre" />
		<tag k="name" v="Midtre Lysedammen" />
		<tag k="natural" v="water" />
		<tag k="ssr:stedsnr" v="672178" />
		<tag k="water" v="lake" />
	</node>
	<node id="-1531" lat="60.1148242251" lon="10.6629209394">
		<tag k="alt_name" v="Hadelandstjern" />
		<tag k="name" v="Hadelandstjernet" />
		<tag k="natural" v="water" />
		<tag k="ssr:stedsnr" v="672167" />
	</node>
	<node id="-1018" lat="60.0685685741" lon="10.6427101656">
		<tag k="alt_name" v="Fyllingen, østre" />
		<tag k="name" v="Østre Fyllingen" />
		<tag k="natural" v="water" />
		<tag k="ssr:stedsnr" v="248227" />
		<tag k="water" v="lake" />
	</node>
	<node id="-1016" lat="60.0458249994" lon="10.6001083406">
		<tag k="name" v="Langlielva" />
		<tag k="ssr:stedsnr" v="248189" />
		<tag k="waterway" v="river" />
	</node>
	<node id="-1527" lat="59.8899750003" lon="10.8274027749">
		<tag k="name" v="Østensjøvannet" />
		<tag k="natural" v="water" />
		<tag k="old_name" v="Østensjøvatnet" />
		<tag k="ssr:stedsnr" v="672141" />
		<tag k="water" v="lake" />
	</node>
	<node id="-1014" lat="59.8991943767" lon="10.8611389687">
		<tag k="name" v="Skøyenputten" />
		<tag k="natural" v="water" />
		<tag k="ssr:stedsnr" v="248085" />
	</node>
	<node id="-1278" lat="59.9973944481" lon="10.6702027808">
		<tag k="name" v="Store Tryvannet" />
		<tag k="natural" v="water" />
		<tag k="ssr:stedsnr" v="307113" />
	</node>
	<node id="-936" lat="59.9747300362" lon="10.812496438">
		<tag k="name" v="Søndre Putt" />
		<tag k="natural" v="water" />
		<tag k="ssr:stedsnr" v="24611" />
	</node>
	<node id="-1362" lat="60.081805558" lon="10.7110750025">
		<tag k="name" v="Helgeren" />
		<tag k="natural" v="water" />
		<tag k="ssr:stedsnr" v="368260" />
		<tag k="water" v="lake" />
	</node>
	<node id="-1514" lat="59.9932123173" lon="10.7826784704">
		<tag k="name" v="Nesbukta" />
		<tag k="natural" v="bay" />
		<tag k="ssr:stedsnr" v="671625" />
	</node>
	<node id="-1509" lat="60.0896250028" lon="10.7465083274">
		<tag k="name" v="Froskeputten" />
		<tag k="natural" v="water" />
		<tag k="ssr:stedsnr" v="466705" />
		<tag k="water" v="pond" />
	</node>
	<node id="-1508" lat="60.1188638926" lon="10.6255166731">
		<tag k="name" v="Haraldstangen" />
		<tag k="natural" v="cape" />
		<tag k="ssr:stedsnr" v="465576" />
	</node>
	<node id="-1504" lat="60.0726055516" lon="10.7091972172">
		<tag k="name" v="Helgerendammen" />
		<tag k="ssr:stedsnr" v="464657" />
		<tag k="waterway" v="dam" />
	</node>
	<node id="-991" lat="59.9999865028" lon="10.5672157691">
		<tag k="alt_name" v="Blekkevann" />
		<tag k="name" v="Blekkevannet" />
		<tag k="natural" v="water" />
		<tag k="ssr:stedsnr" v="246087" />
	</node>
	<node id="-990" lat="60.0754758067" lon="10.7706208389">
		<tag k="name" v="Manntjern" />
		<tag k="natural" v="water" />
		<tag k="ssr:stedsnr" v="66509" />
	</node>
	<node id="-989" lat="60.0517542264" lon="10.7282864966">
		<tag k="name" v="Gåslungen" />
		<tag k="natural" v="water" />
		<tag k="ssr:stedsnr" v="66434" />
		<tag k="water" v="lake" />
	</node>
	<node id="-988" lat="60.036804039" lon="10.8144180267">
		<tag k="name" v="Søndre Movann" />
		<tag k="natural" v="water" />
		<tag k="ssr:stedsnr" v="66408" />
		<tag k="water" v="lake" />
	</node>
	<node id="-987" lat="60.0644305551" lon="10.6643944437">
		<tag k="name" v="Åbukttangen" />
		<tag k="natural" v="cape" />
		<tag k="ssr:stedsnr" v="66201" />
	</node>
	<node id="-1498" lat="59.9596298625" lon="10.8608423637">
		<tag k="alt_name" v="Lilletjern" />
		<tag k="name" v="Vesletjern" />
		<tag k="natural" v="water" />
		<tag k="ssr:stedsnr" v="665562" />
	</node>
	<node id="-984" lat="59.9603611144" lon="10.6889027764">
		<tag k="name" v="Skådalsbekken" />
		<tag k="ssr:stedsnr" v="65001" />
		<tag k="waterway" v="stream" />
	</node>
	<node id="-2005" lat="60.0262277816" lon="10.7448472257">
		<tag k="name" v="Fagervann" />
		<tag k="natural" v="water" />
		<tag k="ssr:stedsnr" v="794375" />
		<tag k="water" v="lake" />
	</node>
	<node id="-2003" lat="60.0128388891" lon="10.7264833421">
		<tag k="name" v="Skjersjødammen" />
		<tag k="ssr:stedsnr" v="794353" />
		<tag k="waterway" v="dam" />
	</node>
	<node id="-2002" lat="60.0526683436" lon="10.7766291933">
		<tag k="name" v="Svartvann" />
		<tag k="natural" v="water" />
		<tag k="ssr:stedsnr" v="794451" />
	</node>
	<node id="-2000" lat="60.0389499982" lon="10.7807555564">
		<tag k="name" v="Dølebråtbekken" />
		<tag k="ssr:stedsnr" v="794430" />
		<tag k="waterway" v="stream" />
	</node>
	<node id="-1486" lat="59.9876611152" lon="10.7588833369">
		<tag k="name" v="Skjervenodden" />
		<tag k="natural" v="cape" />
		<tag k="ssr:stedsnr" v="449235" />
	</node>
	<node id="-1997" lat="60.10048752" lon="10.643022518">
		<tag k="alt_name" v="Sandungskroktjernet" />
		<tag k="fixme" v="multiple name tags, choose one and add the other to alt_name" />
		<tag k="name" v="Store Sandungskroktjern;Sandungskroktjern" />
		<tag k="natural" v="water" />
		<tag k="ssr:stedsnr" v="794138" />
	</node>
	<node id="-972" lat="59.980899997" lon="10.6563999941">
		<tag k="name" v="Lillevann" />
		<tag k="natural" v="water" />
		<tag k="ssr:stedsnr" v="240821" />
	</node>
	<node id="-1995" lat="60.1254277734" lon="10.6913416691">
		<tag k="alt_name" v="Lomtjernet" />
		<tag k="name" v="Lomtjern" />
		<tag k="natural" v="water" />
		<tag k="ssr:stedsnr" v="794069" />
	</node>
	<node id="-1015" lat="60.0477086151" lon="10.6305307698">
		<tag k="alt_name" v="Øyvann" />
		<tag k="name" v="Øyvannet" />
		<tag k="natural" v="water" />
		<tag k="ssr:stedsnr" v="248187" />
	</node>
	<node id="-1990" lat="59.9758387421" lon="10.8053843028">
		<tag k="name" v="Kringla" />
		<tag k="natural" v="water" />
		<tag k="ssr:stedsnr" v="793572" />
	</node>
	<node id="-1989" lat="59.8306183381" lon="10.8809776233">
		<tag k="name" v="Trollvanna" />
		<tag k="natural" v="water" />
		<tag k="old_name" v="Trollvatna" />
		<tag k="ssr:stedsnr" v="793230" />
		<tag k="water" v="lake" />
	</node>
	<node id="-1475" lat="59.9117472229" lon="10.8757361062">
		<tag k="name" v="Sydholmen" />
		<tag k="place" v="islet" />
		<tag k="ssr:stedsnr" v="448717" />
	</node>
	<node id="-959" lat="60.0099972191" lon="10.5957916615">
		<tag k="name" v="Skolebekken" />
		<tag k="ssr:stedsnr" v="239011" />
		<tag k="waterway" v="stream" />
	</node>
	<node id="-951" lat="60.0638083369" lon="10.6632138947">
		<tag k="name" v="Åbukta" />
		<tag k="natural" v="bay" />
		<tag k="ssr:stedsnr" v="55253" />
	</node>
	<node id="-949" lat="60.0386277739" lon="10.5538000057">
		<tag k="name" v="Skådammen" />
		<tag k="ssr:stedsnr" v="237446" />
		<tag k="waterway" v="dam" />
	</node>
	<node id="-948" lat="60.0642083329" lon="10.6777333377">
		<tag k="name" v="Heggevika" />
		<tag k="natural" v="bay" />
		<tag k="ssr:stedsnr" v="237258" />
	</node>
	<node id="-947" lat="60.0519749977" lon="10.7410333388">
		<tag k="name" v="Tangen" />
		<tag k="natural" v="cape" />
		<tag k="ssr:stedsnr" v="237254" />
	</node>
	<node id="-946" lat="60.0744063174" lon="10.6957205097">
		<tag k="alt_name" v="Fortjernet" />
		<tag k="name" v="Fortjern" />
		<tag k="natural" v="water" />
		<tag k="ssr:stedsnr" v="236246" />
	</node>
	<node id="-1457" lat="60.085311112" lon="10.7163805646">
		<tag k="name" v="Brannodden" />
		<tag k="natural" v="cape" />
		<tag k="ssr:stedsnr" v="430115" />
	</node>
	<node id="-1968" lat="60.0121851966" lon="10.6724356512">
		<tag k="name" v="Lortkulp" />
		<tag k="natural" v="water" />
		<tag k="ssr:stedsnr" v="916902" />
	</node>
	<node id="-1967" lat="60.1123080601" lon="10.7329003957">
		<tag k="alt_name" v="Gunnerskulpen" />
		<tag k="name" v="Gunnarskulp" />
		<tag k="natural" v="water" />
		<tag k="ssr:stedsnr" v="916596" />
	</node>
	<node id="-1454" lat="59.9933384273" lon="10.7062998036">
		<tag k="fixme" v="multiple name tags, choose one and add the other to alt_name" />
		<tag k="name" v="Lorttjern;Svarttjern" />
		<tag k="natural" v="water" />
		<tag k="ssr:stedsnr" v="429102" />
	</node>
	<node id="-1963" lat="60.0431859213" lon="10.5947978331">
		<tag k="fixme" v="multiple name tags, choose one and add the other to alt_name" />
		<tag k="name" v="Kjelsåsputten;Kjelsåskulpene" />
		<tag k="natural" v="water" />
		<tag k="old_name" v="Kjelsaaskulpene" />
		<tag k="ssr:stedsnr" v="915945" />
		<tag k="water" v="lake" />
	</node>
	<node id="-1960" lat="60.0410916703" lon="10.7540833375">
		<tag k="name" v="Øyungsdammen" />
		<tag k="ssr:stedsnr" v="915420" />
		<tag k="waterway" v="dam" />
	</node>
	<node id="-1443" lat="60.0231555574" lon="10.5868805594">
		<tag k="name" v="Kvernhusfossen" />
		<tag k="natural" v="waterfall" />
		<tag k="ssr:stedsnr" v="421016" />
	</node>
	<node id="-1954" lat="60.1159194487" lon="10.577791658">
		<tag k="name" v="Sandbekken" />
		<tag k="ssr:stedsnr" v="915170" />
		<tag k="waterway" v="stream" />
	</node>
	<node id="-1440" lat="60.0208333345" lon="10.5027416698">
		<tag k="name" v="Karidalsbekken" />
		<tag k="ssr:stedsnr" v="421002" />
		<tag k="waterway" v="stream" />
	</node>
	<node id="-1439" lat="60.0375589443" lon="10.6665598151">
		<tag k="alt_name" v="Kopperhaugtjern;Kobberhaugtjern" />
		<tag k="name" v="Kopperhaugtjernet" />
		<tag k="natural" v="water" />
		<tag k="ssr:stedsnr" v="418935" />
	</node>
	<node id="-1948" lat="60.0765277776" lon="10.7192500089">
		<tag k="name" v="Lamyrvika" />
		<tag k="natural" v="bay" />
		<tag k="ssr:stedsnr" v="770654" />
	</node>
	<node id="-1944" lat="60.0760833365" lon="10.6860111041">
		<tag k="name" v="Hakkloelva" />
		<tag k="ssr:stedsnr" v="768696" />
		<tag k="waterway" v="river" />
	</node>
	<node id="-1940" lat="59.9905517352" lon="10.716018569">
		<tag k="alt_name" v="Åklungen, lille" />
		<tag k="name" v="Lille Åklungen" />
		<tag k="natural" v="water" />
		<tag k="ssr:stedsnr" v="914122" />
		<tag k="water" v="lake" />
	</node>
	<node id="-1939" lat="59.9810972205" lon="10.6162999956">
		<tag k="name" v="Sørkedalselva" />
		<tag k="ssr:stedsnr" v="914009" />
		<tag k="waterway" v="river" />
	</node>
	<node id="-1426" lat="59.8988583314" lon="10.8866138871">
		<tag k="name" v="Kroktjernbekken" />
		<tag k="ssr:stedsnr" v="509601" />
		<tag k="waterway" v="stream" />
	</node>
	<node id="-912" lat="59.9461999999" lon="10.6801805507">
		<tag k="name" v="Holmendammen" />
		<tag k="natural" v="water" />
		<tag k="ssr:stedsnr" v="222850" />
	</node>
	<node id="-1934" lat="60.0267527778" lon="10.653130549">
		<tag k="name" v="Kjellertjern" />
		<tag k="natural" v="water" />
		<tag k="ssr:stedsnr" v="909425" />
	</node>
	<node id="-908" lat="60.1104250005" lon="10.6008666624">
		<tag k="name" v="Storøya" />
		<tag k="place" v="islet" />
		<tag k="ssr:stedsnr" v="222591" />
	</node>
	<node id="-907" lat="60.110922219" lon="10.6445555468">
		<tag k="name" v="Persvika" />
		<tag k="natural" v="bay" />
		<tag k="ssr:stedsnr" v="222579" />
	</node>
	<node id="-904" lat="60.1158833288" lon="10.6149694517">
		<tag k="name" v="Sandungssmalet" />
		<tag k="natural" v="strait" />
		<tag k="ssr:stedsnr" v="222546" />
	</node>
	<node id="-902" lat="59.9882358815" lon="10.8377519193">
		<tag k="alt_name" v="Revtjern" />
		<tag k="name" v="Revlitjern" />
		<tag k="natural" v="water" />
		<tag k="old_name" v="Rævtjern" />
		<tag k="ssr:stedsnr" v="4558" />
	</node>
	<node id="-901" lat="59.9870722218" lon="10.7903000029">
		<tag k="name" v="Geitøya" />
		<tag k="place" v="islet" />
		<tag k="ssr:stedsnr" v="4556" />
	</node>
	<node id="-1923" lat="60.0359861099" lon="10.7164777768">
		<tag k="name" v="Svarttjern" />
		<tag k="natural" v="water" />
		<tag k="ssr:stedsnr" v="908446" />
	</node>
	<node id="-1003" lat="59.8350900304" lon="10.9347193736">
		<tag k="name" v="Eriksvannet" />
		<tag k="natural" v="water" />
		<tag k="ssr:stedsnr" v="247211" />
	</node>
	<node id="-1406" lat="59.9935611114" lon="10.7875333286">
		<tag k="name" v="Sandertangen" />
		<tag k="natural" v="cape" />
		<tag k="ssr:stedsnr" v="509199" />
	</node>
	<node id="-1915" lat="60.0289361143" lon="10.8061583411">
		<tag k="name" v="Torbjørntjern" />
		<tag k="natural" v="water" />
		<tag k="ssr:stedsnr" v="907063" />
	</node>
	<node id="-1910" lat="60.0040856895" lon="10.6841695629">
		<tag k="name" v="Skjennungen" />
		<tag k="natural" v="water" />
		<tag k="ssr:stedsnr" v="733915" />
	</node>
	<node id="-1908" lat="60.0649166681" lon="10.6741388902">
		<tag k="name" v="Brenteøya" />
		<tag k="place" v="islet" />
		<tag k="ssr:stedsnr" v="733217" />
	</node>
	<node id="-1907" lat="60.0723998343" lon="10.6658519027">
		<tag k="name" v="Bjørnsjøen" />
		<tag k="natural" v="water" />
		<tag k="ssr:stedsnr" v="733216" />
		<tag k="water" v="lake" />
	</node>
	<node id="-1906" lat="60.066433332" lon="10.6499222272">
		<tag k="name" v="Damtangen" />
		<tag k="natural" v="cape" />
		<tag k="ssr:stedsnr" v="733214" />
	</node>
	<node id="-1904" lat="60.0954993984" lon="10.6433625648">
		<tag k="alt_name" v="Lille Sandungskroktjern" />
		<tag k="fixme" v="multiple name tags, choose one and add the other to alt_name" />
		<tag k="name" v="Kroktjernet;Vesle Sandungskroktjern" />
		<tag k="natural" v="water" />
		<tag k="ssr:stedsnr" v="733153" />
	</node>
	<node id="-1390" lat="60.0837361089" lon="10.6810805632">
		<tag k="name" v="Hakklodammen" />
		<tag k="ssr:stedsnr" v="404669" />
		<tag k="waterway" v="dam" />
	</node>
	<node id="-1389" lat="60.1055999984" lon="10.7357500024">
		<tag k="name" v="Øytangen" />
		<tag k="natural" v="cape" />
		<tag k="ssr:stedsnr" v="404619" />
	</node>
	<node id="-1388" lat="60.00580238" lon="10.8371378872">
		<tag k="name" v="Granbergsputtene" />
		<tag k="natural" v="water" />
		<tag k="ssr:stedsnr" v="403818" />
	</node>
	<node id="-1899" lat="59.9817255797" lon="10.6475588991">
		<tag k="alt_name" v="Strømsdammene" />
		<tag k="name" v="Strømsdammen" />
		<tag k="natural" v="water" />
		<tag k="ssr:stedsnr" v="732007" />
	</node>
	<node id="-1898" lat="60.0356638905" lon="10.6129166617">
		<tag k="name" v="Bjørnebekken" />
		<tag k="ssr:stedsnr" v="727417" />
		<tag k="waterway" v="stream" />
	</node>
	<node id="-1897" lat="60.0471079413" lon="10.6450494724">
		<tag k="name" v="Glåmputten" />
		<tag k="natural" v="water" />
		<tag k="ssr:stedsnr" v="727406" />
	</node>
	<node id="-1889" lat="60.0297305587" lon="10.5882916609">
		<tag k="name" v="Kvernhusbekken" />
		<tag k="ssr:stedsnr" v="722435" />
		<tag k="waterway" v="stream" />
	</node>
	<node id="-1876" lat="60.1079166638" lon="10.6623249925">
		<tag k="name" v="Sandungsdammen" />
		<tag k="ssr:stedsnr" v="890676" />
		<tag k="waterway" v="dam" />
	</node>
	<node id="-1875" lat="60.0982638922" lon="10.7375583371">
		<tag k="name" v="Nilsevika" />
		<tag k="natural" v="bay" />
		<tag k="ssr:stedsnr" v="890674" />
	</node>
	<node id="-1874" lat="60.0930948336" lon="10.6279183781">
		<tag k="name" v="Askengtjern" />
		<tag k="natural" v="water" />
		<tag k="ssr:stedsnr" v="890667" />
	</node>
	<node id="-1361" lat="59.8361055585" lon="10.7838361067">
		<tag k="name" v="Lusetjernbekken" />
		<tag k="ssr:stedsnr" v="368218" />
		<tag k="waterway" v="stream" />
	</node>
	<node id="-1036" lat="60.0004988691" lon="10.5296495397">
		<tag k="name" v="Lille Hvitsteinvann" />
		<tag k="natural" v="water" />
		<tag k="ssr:stedsnr" v="248940" />
	</node>
	<node id="-1870" lat="60.131477774" lon="10.6006638944">
		<tag k="name" v="Målfossen" />
		<tag k="natural" v="waterfall" />
		<tag k="ssr:stedsnr" v="890626" />
	</node>
	<node id="-1869" lat="60.1187194435" lon="10.6218027841">
		<tag k="name" v="Båthustangen" />
		<tag k="natural" v="cape" />
		<tag k="ssr:stedsnr" v="890623" />
	</node>
	<node id="-1868" lat="60.1265833319" lon="10.6373444394">
		<tag k="name" v="Sandvikstangen" />
		<tag k="natural" v="cape" />
		<tag k="ssr:stedsnr" v="890619" />
	</node>
	<node id="-1355" lat="60.0242416659" lon="10.5725583393">
		<tag k="name" v="Linkulp" />
		<tag k="natural" v="water" />
		<tag k="ssr:stedsnr" v="360021" />
		<tag k="water" v="pond" />
	</node>
	<node id="-1865" lat="59.940761111" lon="10.6806583249">
		<tag k="name" v="Holmenbekken" />
		<tag k="ssr:stedsnr" v="889865" />
		<tag k="waterway" v="stream" />
	</node>
	<node id="-1863" lat="60.0705805594" lon="10.632088881">
		<tag k="name" v="Sørkedalsvika" />
		<tag k="natural" v="bay" />
		<tag k="ssr:stedsnr" v="889627" />
	</node>
	<node id="-1860" lat="60.0567222191" lon="10.635913887">
		<tag k="name" v="Hellefoss" />
		<tag k="natural" v="waterfall" />
		<tag k="ssr:stedsnr" v="889337" />
	</node>
	<node id="-1858" lat="60.0537555549" lon="10.6853388809">
		<tag k="name" v="Båthusvika" />
		<tag k="natural" v="bay" />
		<tag k="ssr:stedsnr" v="889319" />
	</node>
	<node id="-1345" lat="60.0599472265" lon="10.6920861131">
		<tag k="name" v="Lønåsputta" />
		<tag k="natural" v="water" />
		<tag k="ssr:stedsnr" v="491209" />
		<tag k="water" v="lake" />
	</node>
	<node id="-1855" lat="59.9773898788" lon="10.8825728387">
		<tag k="alt_name" v="Steinbruvann" />
		<tag k="name" v="Steinbruvannet" />
		<tag k="natural" v="water" />
		<tag k="old_name" v="Steinbruvatn" />
		<tag k="ssr:stedsnr" v="672509" />
		<tag k="water" v="lake" />
	</node>
	<node id="-1341" lat="59.923897226" lon="10.7535694442">
		<tag k="name" v="Akerselva" />
		<tag k="ssr:stedsnr" v="490506" />
		<tag k="waterway" v="river" />
	</node>
	<node id="-1340" lat="60.0577841908" lon="10.7855382505">
		<tag k="alt_name" v="Damputtane" />
		<tag k="name" v="Damputtene" />
		<tag k="natural" v="water" />
		<tag k="ssr:stedsnr" v="490470" />
		<tag k="water" v="lake" />
	</node>
	<node id="-914" lat="60.0244861139" lon="10.7167083297">
		<tag k="name" v="Pjolterbekken" />
		<tag k="ssr:stedsnr" v="224234" />
		<tag k="waterway" v="stream" />
	</node>
	<node id="-1839" lat="60.0627444486" lon="10.7196833398">
		<tag k="name" v="Myrtjernsdammen" />
		<tag k="ssr:stedsnr" v="662511" />
		<tag k="waterway" v="dam" />
	</node>
	<node id="-1836" lat="60.0572669301" lon="10.660558352">
		<tag k="alt_name" v="Åbortjernet" />
		<tag k="name" v="Åbortjern" />
		<tag k="natural" v="water" />
		<tag k="ssr:stedsnr" v="734230" />
	</node>
	<node id="-1323" lat="59.9970979548" lon="10.841750424">
		<tag k="name" v="Griseputten" />
		<tag k="natural" v="water" />
		<tag k="ssr:stedsnr" v="489647" />
	</node>
	<node id="-1833" lat="60.0786055521" lon="10.6869305634">
		<tag k="name" v="Hakkloløken" />
		<tag k="natural" v="water" />
		<tag k="ssr:stedsnr" v="646661" />
	</node>
	<node id="-1319" lat="60.1229305576" lon="10.6084722178">
		<tag k="name" v="Kvernhusfossen" />
		<tag k="natural" v="waterfall" />
		<tag k="ssr:stedsnr" v="490076" />
	</node>
	<node id="-1827" lat="60.0497166706" lon="10.6976305608">
		<tag k="alt_name" v="Åbortjernet" />
		<tag k="name" v="Åbortjern" />
		<tag k="natural" v="water" />
		<tag k="ssr:stedsnr" v="733953" />
	</node>
	<node id="-1314" lat="59.9206273449" lon="10.8916648828">
		<tag k="alt_name" v="Puttjern, nordre" />
		<tag k="name" v="Nordre Puttjern" />
		<tag k="natural" v="water" />
		<tag k="ssr:stedsnr" v="490039" />
	</node>
	<node id="-1311" lat="59.9998803019" lon="10.5205265164">
		<tag k="name" v="Store Hvitsteinvann" />
		<tag k="natural" v="water" />
		<tag k="ssr:stedsnr" v="489102" />
	</node>
	<node id="-1822" lat="59.9899055549" lon="10.7806805578">
		<tag k="name" v="Nestangen" />
		<tag k="natural" v="cape" />
		<tag k="ssr:stedsnr" v="733531" />
	</node>
	<node id="-1821" lat="59.9654872277" lon="10.8512850051">
		<tag k="name" v="Alnsjøen" />
		<tag k="natural" v="water" />
		<tag k="old_name" v="Alun Sjøen" />
		<tag k="ssr:stedsnr" v="733527" />
		<tag k="water" v="lake" />
	</node>
	<node id="-986" lat="59.9825416647" lon="10.582761114">
		<tag k="alt_name" v="Åbortjernbekken" />
		<tag k="name" v="Åborbekken" />
		<tag k="ssr:stedsnr" v="65006" />
		<tag k="waterway" v="stream" />
	</node>
	<node id="-1816" lat="60.0853027764" lon="10.7732805504">
		<tag k="name" v="Holmetjern" />
		<tag k="natural" v="water" />
		<tag k="ssr:stedsnr" v="733472" />
	</node>
	<node id="-1815" lat="60.035133332" lon="10.7654583393">
		<tag k="name" v="Skarselva" />
		<tag k="ssr:stedsnr" v="733400" />
		<tag k="waterway" v="river" />
	</node>
	<node id="-1302" lat="60.0215944455" lon="10.5868250008">
		<tag k="name" v="Ødegårdsbekken" />
		<tag k="ssr:stedsnr" v="482029" />
		<tag k="waterway" v="stream" />
	</node>
	<node id="-1812" lat="60.0088951415" lon="10.7897610834">
		<tag k="name" v="Dausjøen" />
		<tag k="natural" v="water" />
		<tag k="ssr:stedsnr" v="733324" />
		<tag k="water" v="lake" />
	</node>
	<node id="-1808" lat="60.051274646" lon="10.5569987542">
		<tag k="alt_name" v="Lyse-dammen, øvre;Øvre Lysedam" />
		<tag k="name" v="Øvre Lysedammen" />
		<tag k="natural" v="water" />
		<tag k="ssr:stedsnr" v="733189" />
		<tag k="water" v="lake" />
	</node>
	<node id="-2093" lat="60.1199503705" lon="10.7254686737">
		<tag k="alt_name" v="Anderstjernet, s" />
		<tag k="name" v="Søndre Anderstjernet" />
		<tag k="natural" v="water" />
		<tag k="ssr:stedsnr" v="855706" />
	</node>
	<node id="-2072" lat="59.9994361071" lon="10.6659305525">
		<tag k="name" v="Lille Tryvannet" />
		<tag k="natural" v="water" />
		<tag k="ssr:stedsnr" v="854083" />
	</node>
	<node id="-1802" lat="60.0816916705" lon="10.5974222172">
		<tag k="alt_name" v="Langsmaltjernet" />
		<tag k="name" v="Langsmaltjern" />
		<tag k="natural" v="water" />
		<tag k="ssr:stedsnr" v="732255" />
	</node>
	<node id="-1791" lat="60.0097333361" lon="10.7424249999">
		<tag k="name" v="Horndalsbekken" />
		<tag k="ssr:stedsnr" v="631210" />
		<tag k="waterway" v="stream" />
	</node>
	<node id="-1790" lat="60.0020388921" lon="10.7687749994">
		<tag k="name" v="Lautabekken" />
		<tag k="ssr:stedsnr" v="631205" />
		<tag k="waterway" v="stream" />
	</node>
	<node id="-981" lat="59.8692901126" lon="10.8512048029">
		<tag k="name" v="Skraperudtjern" />
		<tag k="natural" v="water" />
		<tag k="ssr:stedsnr" v="65117" />
	</node>
	<node id="-1264" lat="60.0040916677" lon="10.7054999949">
		<tag k="name" v="Gaustadkulpene" />
		<tag k="natural" v="water" />
		<tag k="ssr:stedsnr" v="300823" />
		<tag k="water" v="lake" />
	</node>
	<node id="-1775" lat="59.965230555" lon="10.8384888908">
		<tag k="name" v="Disenbekken" />
		<tag k="ssr:stedsnr" v="630579" />
		<tag k="waterway" v="stream" />
	</node>
	<node id="-1772" lat="59.9742192133" lon="10.9336217034">
		<tag k="name" v="Tokerudtjern" />
		<tag k="natural" v="water" />
		<tag k="ssr:stedsnr" v="630414" />
	</node>
	<node id="-1256" lat="60.0149611114" lon="10.6729583318">
		<tag k="name" v="Lortkulpbekken" />
		<tag k="ssr:stedsnr" v="466228" />
		<tag k="waterway" v="stream" />
	</node>
	<node id="-2156" lat="60.0487846975" lon="10.7151054886">
		<tag k="name" v="Rottungen" />
		<tag k="natural" v="water" />
		<tag k="ssr:stedsnr" v="915962" />
		<tag k="water" v="lake" />
	</node>
	<node id="-1488" lat="60.0368944402" lon="10.5313861193">
		<tag k="name" v="Lille Otertjern" />
		<tag k="natural" v="water" />
		<tag k="ssr:stedsnr" v="662481" />
	</node>
	<node id="-1244" lat="60.1089249962" lon="10.7395027792">
		<tag k="name" v="Badstuvika" />
		<tag k="natural" v="bay" />
		<tag k="ssr:stedsnr" v="248605" />
	</node>
	<node id="-1242" lat="60.068502053" lon="10.7521355655">
		<tag k="name" v="Kalvsjøen" />
		<tag k="natural" v="water" />
		<tag k="ssr:stedsnr" v="248552" />
		<tag k="water" v="lake" />
	</node>
	<node id="-1752" lat="60.0314972191" lon="10.7031250068">
		<tag k="name" v="Sarakulpen" />
		<tag k="place" v="locality" />
		<tag k="ssr:stedsnr" v="726439" />
	</node>
	<node id="-1748" lat="60.0191305567" lon="10.5220055596">
		<tag k="name" v="Gryta" />
		<tag k="place" v="locality" />
		<tag k="ssr:stedsnr" v="725001" />
	</node>
	<node id="-1744" lat="60.0281361134" lon="10.724075002">
		<tag k="name" v="Kamphaugtjern" />
		<tag k="natural" v="water" />
		<tag k="ssr:stedsnr" v="722138" />
	</node>
	<node id="-1485" lat="60.0166524784" lon="10.8268439541">
		<tag k="name" v="Jomfruputten" />
		<tag k="natural" v="water" />
		<tag k="ssr:stedsnr" v="449223" />
	</node>
	<node id="-1739" lat="60.1051988651" lon="10.6348374171">
		<tag k="name" v="Skillebekkputten" />
		<tag k="natural" v="water" />
		<tag k="ssr:stedsnr" v="612180" />
	</node>
	<node id="-1738" lat="60.0889694415" lon="10.6791166694">
		<tag k="loc_name" v="Hakloa" />
		<tag k="name" v="Hakkloa" />
		<tag k="natural" v="water" />
		<tag k="ssr:stedsnr" v="612163" />
		<tag k="water" v="lake" />
	</node>
	<node id="-1736" lat="59.9752615333" lon="10.8475373569">
		<tag k="name" v="Svartkulp" />
		<tag k="natural" v="water" />
		<tag k="ssr:stedsnr" v="611554" />
	</node>
	<node id="-1734" lat="60.001485343" lon="10.7209069501">
		<tag k="alt_name" v="Åklungen, store" />
		<tag k="name" v="Store Åklungen" />
		<tag k="natural" v="water" />
		<tag k="ssr:stedsnr" v="611603" />
		<tag k="water" v="lake" />
	</node>
	<node id="-1733" lat="59.8296072866" lon="10.9309810201">
		<tag k="alt_name" v="Griseputtene" />
		<tag k="name" v="Griseputten" />
		<tag k="natural" v="water" />
		<tag k="ssr:stedsnr" v="611212" />
	</node>
	<node id="-1214" lat="59.9712333324" lon="10.7961972232">
		<tag k="name" v="Søndre Småvann" />
		<tag k="natural" v="water" />
		<tag k="ssr:stedsnr" v="448660" />
	</node>
	<node id="-1213" lat="59.970786107" lon="10.7345444512">
		<tag k="name" v="Valhallabekken" />
		<tag k="ssr:stedsnr" v="448659" />
		<tag k="waterway" v="stream" />
	</node>
	<node id="-1200" lat="59.8610888868" lon="10.9003666617">
		<tag k="name" v="Langvannsbekken" />
		<tag k="ssr:stedsnr" v="448262" />
		<tag k="waterway" v="stream" />
	</node>
	<node id="-2120" lat="60.0320027737" lon="10.7805666662">
		<tag k="name" v="Jondalsbekken" />
		<tag k="ssr:stedsnr" v="905111" />
		<tag k="waterway" v="stream" />
	</node>
	<node id="-1703" lat="60.0146083364" lon="10.7069388801">
		<tag k="name" v="Parafinbekken" />
		<tag k="ssr:stedsnr" v="709229" />
		<tag k="waterway" v="stream" />
	</node>
	<node id="-1701" lat="59.9878666647" lon="10.6551888959">
		<tag k="name" v="Rødkleivbekken" />
		<tag k="ssr:stedsnr" v="709185" />
		<tag k="waterway" v="stream" />
	</node>
	<node id="-1700" lat="60.001666663" lon="10.6417472226">
		<tag k="name" v="Hadelandsputten" />
		<tag k="natural" v="water" />
		<tag k="ssr:stedsnr" v="709176" />
	</node>
	<node id="-1187" lat="60.0325083332" lon="10.6510138932">
		<tag k="name" v="Kobberhaugtjernbekken" />
		<tag k="ssr:stedsnr" v="241408" />
		<tag k="waterway" v="stream" />
	</node>
	<node id="-1186" lat="60.0433388848" lon="10.6561166612">
		<tag k="name" v="Glåmkulpen" />
		<tag k="natural" v="water" />
		<tag k="ssr:stedsnr" v="241403" />
	</node>
	<node id="-1819" lat="59.968558217" lon="10.8986197766">
		<tag k="name" v="Svarttjern" />
		<tag k="natural" v="water" />
		<tag k="ssr:stedsnr" v="733517" />
	</node>
	<node id="-1696" lat="60.1142194482" lon="10.6487888925">
		<tag k="name" v="Lauvtangen" />
		<tag k="place" v="islet" />
		<tag k="ssr:stedsnr" v="708603" />
	</node>
	<node id="-1392" lat="60.1204611068" lon="10.5862166751">
		<tag k="name" v="Velodalsbekken" />
		<tag k="ssr:stedsnr" v="404577" />
		<tag k="waterway" v="stream" />
	</node>
	<node id="-1694" lat="59.9261527774" lon="10.6617944488">
		<tag k="name" v="Mærradalsbekken" />
		<tag k="ssr:stedsnr" v="707872" />
		<tag k="waterway" v="stream" />
	</node>
	<node id="-1181" lat="60.0872083321" lon="10.6770861052">
		<tag k="name" v="Myrdammen" />
		<tag k="ssr:stedsnr" v="222663" />
		<tag k="waterway" v="dam" />
	</node>
	<node id="-1178" lat="60.0498583344" lon="10.7719750052">
		<tag k="name" v="Svartputten" />
		<tag k="natural" v="water" />
		<tag k="ssr:stedsnr" v="298229" />
	</node>
	<node id="-1011" lat="59.9846861094" lon="10.760736118">
		<tag k="name" v="Kutangen" />
		<tag k="natural" v="cape" />
		<tag k="ssr:stedsnr" v="247540" />
	</node>
	<node id="-1167" lat="60.0810638912" lon="10.7226666583">
		<tag k="name" v="Fiskedrevvika" />
		<tag k="natural" v="bay" />
		<tag k="ssr:stedsnr" v="285666" />
	</node>
	<node id="-2153" lat="59.9836015428" lon="10.8817927468">
		<tag k="alt_name" v="Stokkvann" />
		<tag k="name" v="Stokkevann" />
		<tag k="natural" v="water" />
		<tag k="old_name" v="Stokkevatn" />
		<tag k="ssr:stedsnr" v="915561" />
	</node>
	<node id="-1159" lat="60.0738694476" lon="10.6771277766">
		<tag k="name" v="Kutangen" />
		<tag k="natural" v="cape" />
		<tag k="ssr:stedsnr" v="283655" />
	</node>
	<node id="-2070" lat="59.9108448762" lon="10.903976613">
		<tag k="alt_name" v="Svartputten" />
		<tag k="name" v="Svartputt" />
		<tag k="natural" v="water" />
		<tag k="ssr:stedsnr" v="854070" />
	</node>
	<node id="-1307" lat="59.9827606277" lon="10.6718112518">
		<tag k="name" v="Øvresetertjern" />
		<tag k="natural" v="water" />
		<tag k="ssr:stedsnr" v="489004" />
	</node>
	<node id="-1149" lat="60.1148361124" lon="10.6192361112">
		<tag k="name" v="Fyllingstangen" />
		<tag k="natural" v="cape" />
		<tag k="ssr:stedsnr" v="161563" />
	</node>
	<node id="-2169" lat="59.8790198944" lon="10.8341121338">
		<tag k="name" v="Klopptjern" />
		<tag k="natural" v="water" />
		<tag k="ssr:stedsnr" v="934310" />
	</node>
	<node id="-2166" lat="60.0012472231" lon="10.7297083353">
		<tag k="name" v="Merraputten" />
		<tag k="natural" v="water" />
		<tag k="ssr:stedsnr" v="934211" />
		<tag k="water" v="pond" />
	</node>
	<node id="-2165" lat="59.8442499996" lon="10.7865388941">
		<tag k="name" v="Ljanselva" />
		<tag k="ssr:stedsnr" v="934005" />
		<tag k="waterway" v="river" />
	</node>
	<node id="-2164" lat="60.0241096251" lon="10.6471293911">
		<tag k="alt_name" v="Setertjern" />
		<tag k="name" v="Setertjernet" />
		<tag k="natural" v="water" />
		<tag k="old_name" v="Sætertjern" />
		<tag k="ssr:stedsnr" v="916969" />
	</node>
	<node id="-2162" lat="60.0585076796" lon="10.7783058025">
		<tag k="name" v="Masteputten" />
		<tag k="natural" v="water" />
		<tag k="ssr:stedsnr" v="916510" />
	</node>
	<node id="-2161" lat="60.1014291392" lon="10.7490895833">
		<tag k="name" v="Askeren" />
		<tag k="natural" v="water" />
		<tag k="ssr:stedsnr" v="916613" />
	</node>
	<node id="-2157" lat="60.103061113" lon="10.6661805523">
		<tag k="name" v="Fløtmyrvika" />
		<tag k="natural" v="bay" />
		<tag k="ssr:stedsnr" v="916163" />
	</node>
	<node id="-1644" lat="59.9790916678" lon="10.72166667">
		<tag k="name" v="Pinabekken" />
		<tag k="ssr:stedsnr" v="691674" />
		<tag k="waterway" v="stream" />
	</node>
	<node id="-1641" lat="59.969716668" lon="10.9200111121">
		<tag k="name" v="Tokerudbekken" />
		<tag k="ssr:stedsnr" v="691635" />
		<tag k="waterway" v="stream" />
	</node>
	<node id="-1633" lat="59.8863666635" lon="10.8795527854">
		<tag k="name" v="Hareholmen" />
		<tag k="place" v="islet" />
		<tag k="ssr:stedsnr" v="691376" />
	</node>
	<node id="-1629" lat="60.0024581405" lon="10.821240453">
		<tag k="name" v="Styggedalsputtene" />
		<tag k="natural" v="water" />
		<tag k="ssr:stedsnr" v="691263" />
	</node>
	<node id="-1038" lat="60.0516814535" lon="10.6481022678">
		<tag k="alt_name" v="Fiskelitetjernet" />
		<tag k="name" v="Fiskelitetjern" />
		<tag k="natural" v="water" />
		<tag k="ssr:stedsnr" v="248969" />
	</node>
	<node id="-2130" lat="59.9939250002" lon="10.6844472215">
		<tag k="name" v="Frønsetertjern" />
		<tag k="natural" v="water" />
		<tag k="ssr:stedsnr" v="907810" />
	</node>
	<node id="-2127" lat="60.022502779" lon="10.5563277781">
		<tag k="name" v="Raskebekken" />
		<tag k="ssr:stedsnr" v="907026" />
		<tag k="waterway" v="stream" />
	</node>
	<node id="-2124" lat="60.0591185668" lon="10.7838878362">
		<tag k="name" v="Nordre Damputt" />
		<tag k="natural" v="water" />
		<tag k="ssr:stedsnr" v="905517" />
	</node>
	<node id="-1098" lat="59.9698428941" lon="10.8145322037">
		<tag k="alt_name" v="Kapteinsputten" />
		<tag k="name" v="Svartputten" />
		<tag k="natural" v="water" />
		<tag k="ssr:stedsnr" v="266620" />
	</node>
	<node id="-2141" lat="59.8529779643" lon="10.8819849938">
		<tag k="alt_name" v="Smalvann" />
		<tag k="name" v="Smalvannet" />
		<tag k="natural" v="water" />
		<tag k="old_name" v="Smalvatn" />
		<tag k="ssr:stedsnr" v="915214" />
	</node>
	<node id="-1608" lat="59.8443277761" lon="10.9262416615">
		<tag k="alt_name" v="Svanefoss" />
		<tag k="name" v="Svanefossen" />
		<tag k="natural" v="waterfall" />
		<tag k="ssr:stedsnr" v="509902" />
	</node>
	<node id="-2119" lat="60.0226834252" lon="10.6866321677">
		<tag k="alt_name" v="Lørensetertjernet" />
		<tag k="name" v="Lørensetertjern" />
		<tag k="natural" v="water" />
		<tag k="old_name" v="Lørensætertj" />
		<tag k="ssr:stedsnr" v="903967" />
	</node>
	<node id="-2118" lat="60.0652833326" lon="10.6537833405">
		<tag k="name" v="Løken" />
		<tag k="natural" v="water" />
		<tag k="ssr:stedsnr" v="950347" />
	</node>
	<node id="-2114" lat="60.0585833293" lon="10.7171666744">
		<tag k="name" v="Gryteputten" />
		<tag k="natural" v="water" />
		<tag k="ssr:stedsnr" v="950331" />
		<tag k="water" v="pond" />
	</node>
	<node id="-1089" lat="59.8925138895" lon="10.9082138922">
		<tag k="name" v="Mariholtvika" />
		<tag k="natural" v="bay" />
		<tag k="ssr:stedsnr" v="266292" />
	</node>
	<node id="-1086" lat="59.8583111126" lon="10.8975138802">
		<tag k="name" v="Langvannsvika" />
		<tag k="natural" v="bay" />
		<tag k="ssr:stedsnr" v="266252" />
	</node>
	<node id="-2101" lat="59.8318722225" lon="10.882827775">
		<tag k="alt_name" v="Trollvann" />
		<tag k="name" v="Nordre Trollvann" />
		<tag k="natural" v="water" />
		<tag k="ssr:stedsnr" v="873176" />
	</node>
	<node id="-1587" lat="59.8302861146" lon="10.8934222227">
		<tag k="name" v="Slora" />
		<tag k="natural" v="water" />
		<tag k="ssr:stedsnr" v="509137" />
		<tag k="water" v="lake" />
	</node>
	<node id="-2096" lat="59.9721793828" lon="10.8815730231">
		<tag k="name" v="Badedammen" />
		<tag k="natural" v="water" />
		<tag k="ssr:stedsnr" v="872921" />
	</node>
	<node id="-1582" lat="59.9045928161" lon="10.8855733485">
		<tag k="name" v="Kroktjern" />
		<tag k="natural" v="water" />
		<tag k="ssr:stedsnr" v="490108" />
	</node>
	<node id="-1069" lat="60.0679222197" lon="10.5870888953">
		<tag k="name" v="Gransvika" />
		<tag k="natural" v="bay" />
		<tag k="ssr:stedsnr" v="100315" />
	</node>
	<node id="-1580" lat="59.8437660233" lon="10.8795408814">
		<tag k="name" v="Sølvdobla" />
		<tag k="natural" v="water" />
		<tag k="ssr:stedsnr" v="489215" />
	</node>
	<node id="-2091" lat="60.0616833322" lon="10.7670361089">
		<tag k="name" v="Finntjern" />
		<tag k="natural" v="water" />
		<tag k="ssr:stedsnr" v="855472" />
	</node>
	<node id="-2088" lat="59.8099027795" lon="10.8570027856">
		<tag k="alt_name" v="Elgtjernet;Elgsrudtj." />
		<tag k="name" v="Elgsrudtjernet" />
		<tag k="natural" v="water" />
		<tag k="ssr:stedsnr" v="855275" />
	</node>
	<node id="-2087" lat="60.1112696806" lon="10.754859774">
		<tag k="name" v="Nedre Øyvann" />
		<tag k="natural" v="water" />
		<tag k="ssr:stedsnr" v="855570" />
	</node>
	<node id="-1572" lat="60.0142" lon="10.5234472213">
		<tag k="name" v="Fløyta" />
		<tag k="ssr:stedsnr" v="673912" />
		<tag k="waterway" v="stream" />
	</node>
	<node id="-1571" lat="60.0144777791" lon="10.5449833386">
		<tag k="name" v="Kolabekken" />
		<tag k="ssr:stedsnr" v="673908" />
		<tag k="waterway" v="stream" />
	</node>
	<node id="-2082" lat="60.1038444426" lon="10.5991416683">
		<tag k="name" v="Bystøa" />
		<tag k="natural" v="bay" />
		<tag k="ssr:stedsnr" v="855162" />
	</node>
	<node id="-1569" lat="60.0182090631" lon="10.6819201725">
		<tag k="alt_name" v="Aurtjernet;Aurtjern" />
		<tag k="name" v="Vestre Aurtjern" />
		<tag k="natural" v="water" />
		<tag k="ssr:stedsnr" v="673893" />
	</node>
	<node id="-1565" lat="60.0439750011" lon="10.7434472222">
		<tag k="name" v="Storholmen" />
		<tag k="place" v="islet" />
		<tag k="ssr:stedsnr" v="673452" />
	</node>
	<node id="-2076" lat="59.9814888895" lon="10.7382249942">
		<tag k="alt_name" v="Blanksjø, nedre;Blanksjø nedre" />
		<tag k="name" v="Nedre Blanksjø" />
		<tag k="natural" v="water" />
		<tag k="ssr:stedsnr" v="854564" />
	</node>
	<node id="-2075" lat="59.975867336" lon="10.7388248938">
		<tag k="alt_name" v="Svartkulpen" />
		<tag k="name" v="Svartkulp" />
		<tag k="natural" v="water" />
		<tag k="ssr:stedsnr" v="854563" />
	</node>
	<node id="-1562" lat="60.067522218" lon="10.7120249927">
		<tag k="alt_name" v="Myrtjernet" />
		<tag k="name" v="Myrtjern" />
		<tag k="natural" v="water" />
		<tag k="ssr:stedsnr" v="673236" />
	</node>
	<node id="-1561" lat="60.0589934263" lon="10.6490993504">
		<tag k="alt_name" v="Kalven" />
		<tag k="name" v="Fyllingskalven" />
		<tag k="natural" v="bay" />
		<tag k="ssr:stedsnr" v="673231" />
	</node>
	<node id="-1048" lat="59.9678555526" lon="10.8509027857">
		<tag k="name" v="Larsentangen" />
		<tag k="natural" v="cape" />
		<tag k="ssr:stedsnr" v="84662" />
	</node>
	<node id="-1047" lat="59.9755861071" lon="10.9325638806">
		<tag k="name" v="Skillebekken" />
		<tag k="ssr:stedsnr" v="84659" />
		<tag k="waterway" v="stream" />
	</node>
	<node id="-1046" lat="59.9732027819" lon="10.7183638916">
		<tag k="name" v="Mysmerbekken" />
		<tag k="ssr:stedsnr" v="84655" />
		<tag k="waterway" v="stream" />
	</node>
	<node id="-2068" lat="59.8771499988" lon="10.9091111148">
		<tag k="alt_name" v="Nordre Elvåga" />
		<tag k="name" v="Nord-Elvåga" />
		<tag k="natural" v="water" />
		<tag k="ssr:stedsnr" v="854169" />
		<tag k="water" v="lake" />
	</node>
	<node id="-1555" lat="60.0899098005" lon="10.6423333015">
		<tag k="name" v="Kikuttjernet" />
		<tag k="natural" v="water" />
		<tag k="ssr:stedsnr" v="673144" />
	</node>
	<node id="-2066" lat="59.8887388907" lon="10.8996055548">
		<tag k="name" v="Igletjern" />
		<tag k="natural" v="water" />
		<tag k="ssr:stedsnr" v="854159" />
	</node>
	<node id="-2064" lat="59.9742775374" lon="10.6312987498">
		<tag k="name" v="Jegersborgdammen" />
		<tag k="natural" v="water" />
		<tag k="ssr:stedsnr" v="847821" />
	</node>
	<node id="-1550" lat="60.0302194481" lon="10.5144222179">
		<tag k="name" v="Heggelielva" />
		<tag k="ssr:stedsnr" v="672962" />
		<tag k="waterway" v="stream" />
	</node>
	<node id="-1548" lat="60.0659225654" lon="10.7300751087">
		<tag k="name" v="Fiskelitetjern" />
		<tag k="natural" v="water" />
		<tag k="ssr:stedsnr" v="480508" />
	</node>
	<node id="-1546" lat="60.0521472214" lon="10.7333555614">
		<tag k="name" v="Gåslungsdammen" />
		<tag k="ssr:stedsnr" v="480216" />
		<tag k="waterway" v="dam" />
	</node>
	<node id="-2057" lat="60.0506138885" lon="10.6874249985">
		<tag k="name" v="Bjørnsjødammen" />
		<tag k="ssr:stedsnr" v="829353" />
		<tag k="waterway" v="dam" />
	</node>
	<node id="-1544" lat="59.9874361125" lon="10.8265527852">
		<tag k="alt_name" v="Gryta, store" />
		<tag k="name" v="Store Gryta" />
		<tag k="natural" v="water" />
		<tag k="ssr:stedsnr" v="672526" />
	</node>
	<node id="-1543" lat="59.9836805541" lon="10.8149388965">
		<tag k="name" v="Grytebekken" />
		<tag k="ssr:stedsnr" v="672522" />
		<tag k="waterway" v="stream" />
	</node>
	<node id="-1029" lat="60.0197083316" lon="10.6761583285">
		<tag k="alt_name" v="Holbekken" />
		<tag k="name" v="Hølbekken" />
		<tag k="ssr:stedsnr" v="248895" />
		<tag k="waterway" v="stream" />
	</node>
	<node id="-1537" lat="59.8129261703" lon="10.8682242547">
		<tag k="name" v="Gjeddetjernet" />
		<tag k="natural" v="water" />
		<tag k="ssr:stedsnr" v="672250" />
	</node>
</osm>
