<?xml version="1.0" encoding="UTF-8"?>
<osm generator="osmapis" version="0.6">
	<node id="-2048" lat="59.9272916622" lon="10.8673972258">
		<tag k="name" v="Bjerkly" />
		<tag k="place" v="farm" />
		<tag k="ssr:stedsnr" v="934944" />
	</node>
	<node id="-2047" lat="59.9662088107" lon="10.9081252025">
		<tag k="alt_name" v="Rommen øv." />
		<tag k="name" v="Øvre Rommen" />
		<tag k="place" v="farm" />
		<tag k="ssr:stedsnr" v="934930" />
	</node>
	<node id="-2044" lat="59.9188305548" lon="10.7498972184">
		<tag k="amenity" v="school" />
		<tag k="name" v="Møllergata skole" />
		<tag k="ssr:stedsnr" v="934783" />
	</node>
	<node id="-2043" lat="59.9407249961" lon="10.8083583398">
		<tag k="fixme" v="consider place=suburb, village or hamlet" />
		<tag k="name" v="Bjerke" />
		<tag k="place" v="quarter" />
		<tag k="ssr:stedsnr" v="934778" />
	</node>
	<node id="-2042" lat="59.9148472228" lon="10.7678472282">
		<tag k="name" v="Tøyen" />
		<tag k="place" v="suburb" />
		<tag k="ssr:stedsnr" v="934777" />
	</node>
	<node id="-2040" lat="59.9471638854" lon="10.7550861102">
		<tag k="name" v="Bakkehaug" />
		<tag k="place" v="farm" />
		<tag k="ssr:stedsnr" v="934775" />
	</node>
	<node id="-2038" lat="59.9391027763" lon="10.7211083332">
		<tag k="name" v="Øvre Blindern" />
		<tag k="place" v="quarter" />
		<tag k="ssr:stedsnr" v="934764" />
	</node>
	<node id="-2035" lat="59.9782333306" lon="10.7230111048">
		<tag k="name" v="Pina" />
		<tag k="place" v="locality" />
		<tag k="ssr:stedsnr" v="934689" />
	</node>
	<node id="-2034" lat="59.9004416657" lon="10.9100055597">
		<tag k="name" v="Grønnevollen" />
		<tag k="place" v="locality" />
		<tag k="ssr:stedsnr" v="934688" />
	</node>
	<node id="-2031" lat="59.9350388901" lon="10.8947805644">
		<tag k="name" v="Sørliløkka" />
		<tag k="place" v="farm" />
		<tag k="ssr:stedsnr" v="934656" />
	</node>
	<node id="-2028" lat="59.9098111141" lon="10.8160861159">
		<tag k="name" v="Bryn hovedgård" />
		<tag k="place" v="farm" />
		<tag k="ssr:stedsnr" v="934636" />
	</node>
	<node id="-2026" lat="59.8957777817" lon="10.8118111155">
		<tag k="name" v="Manglerud" />
		<tag k="place" v="suburb" />
		<tag k="ssr:stedsnr" v="934393" />
	</node>
	<node id="-2024" lat="59.8761750034" lon="10.8826750071">
		<tag k="name" v="Bremsrud" />
		<tag k="place" v="locality" />
		<tag k="ssr:stedsnr" v="934270" />
	</node>
	<node id="-2023" lat="59.8781083324" lon="10.8584166683">
		<tag k="name" v="Skredderstua" />
		<tag k="place" v="locality" />
		<tag k="ssr:stedsnr" v="934267" />
	</node>
	<node id="-2022" lat="60.0223611155" lon="10.7786333339">
		<tag k="name" v="Sandbo" />
		<tag k="place" v="farm" />
		<tag k="ssr:stedsnr" v="934190" />
	</node>
	<node id="-2021" lat="60.0253444427" lon="10.8085944391">
		<tag k="name" v="Snippen" />
		<tag k="place" v="farm" />
		<tag k="ssr:stedsnr" v="934189" />
	</node>
	<node id="-2020" lat="60.000147225" lon="10.7186722165">
		<tag k="name" v="Lynhytta (Huldreheim)" />
		<tag k="place" v="isolated_dwelling" />
		<tag k="ssr:stedsnr" v="934165" />
	</node>
	<node id="-2015" lat="59.8727444411" lon="10.8565194476">
		<tag k="name" v="Sagstua" />
		<tag k="place" v="farm" />
		<tag k="ssr:stedsnr" v="934250" />
	</node>
	<node id="-2014" lat="59.8382194485" lon="10.8137111161">
		<tag k="amenity" v="school" />
		<tag k="name" v="Hauketo skole" />
		<tag k="old_name" v="Hauketo ungd.skole" />
		<tag k="ssr:stedsnr" v="934083" />
	</node>
	<node id="-2013" lat="59.8370388928" lon="10.7899888853">
		<tag k="name" v="Holmlia" />
		<tag k="place" v="suburb" />
		<tag k="ssr:stedsnr" v="934075" />
	</node>
	<node id="-2011" lat="60.0162950225" lon="10.6104884778">
		<tag k="fixme" v="consider place=hamlet" />
		<tag k="name" v="Sørkedalen" />
		<tag k="place" v="village" />
		<tag k="ssr:stedsnr" v="817456" />
	</node>
	<node id="-2010" lat="60.0509444458" lon="10.6895972143">
		<tag k="name" v="Bjørnholt" />
		<tag k="place" v="farm" />
		<tag k="ssr:stedsnr" v="794972" />
	</node>
	<node id="-2008" lat="60.0313777734" lon="10.5166805642">
		<tag k="name" v="Nedre Fjølhytta" />
		<tag k="place" v="isolated_dwelling" />
		<tag k="ssr:stedsnr" v="794955" />
	</node>
	<node id="-2004" lat="60.0152361087" lon="10.7887027766">
		<tag k="alt_name" v="Sørbråten" />
		<tag k="name" v="Sørbråtan" />
		<tag k="place" v="farm" />
		<tag k="ssr:stedsnr" v="794358" />
	</node>
	<node id="-1994" lat="59.9966222257" lon="10.7723277864">
		<tag k="alt_name" v="Ødegården" />
		<tag k="name" v="Øgården" />
		<tag k="place" v="farm" />
		<tag k="ssr:stedsnr" v="793649" />
	</node>
	<node id="-1992" lat="59.9968012692" lon="10.7647408323">
		<tag k="fixme" v="consider place=hamlet" />
		<tag k="name" v="Kirkeby" />
		<tag k="place" v="farm" />
		<tag k="ssr:stedsnr" v="793623" />
	</node>
	<node id="-1991" lat="59.9779499956" lon="10.7700305544">
		<tag k="alt_name" v="Brennenga, lille;Brennengen lille" />
		<tag k="name" v="Lille Brennenga" />
		<tag k="place" v="farm" />
		<tag k="ssr:stedsnr" v="793573" />
	</node>
	<node id="-1988" lat="59.8308527783" lon="10.8540999974">
		<tag k="alt_name" v="Gjersrud, øvre" />
		<tag k="name" v="Øvre Gjersrud" />
		<tag k="place" v="farm" />
		<tag k="ssr:stedsnr" v="793217" />
	</node>
	<node id="-1987" lat="59.8308027777" lon="10.7960944398">
		<tag k="name" v="Holm" />
		<tag k="place" v="farm" />
		<tag k="ssr:stedsnr" v="793210" />
	</node>
	<node id="-1986" lat="59.8437" lon="10.8714861049">
		<tag k="alt_name" v="Langbråten" />
		<tag k="name" v="Langbråtan" />
		<tag k="place" v="farm" />
		<tag k="ssr:stedsnr" v="793206" />
	</node>
	<node id="-1985" lat="59.841412659" lon="10.8661489698">
		<tag k="name" v="Skogen" />
		<tag k="place" v="locality" />
		<tag k="ssr:stedsnr" v="793204" />
	</node>
	<node id="-1981" lat="59.9381999993" lon="10.7900777704">
		<tag k="amenity" v="hospital" />
		<tag k="name" v="Aker sykehus" />
		<tag k="ssr:stedsnr" v="793021" />
	</node>
	<node id="-1972" lat="59.981944151" lon="10.6115428062">
		<tag k="name" v="Nordre Tangen" />
		<tag k="place" v="farm" />
		<tag k="ssr:stedsnr" v="786817" />
	</node>
	<node id="-1971" lat="59.9788266372" lon="10.6081115891">
		<tag k="alt_name" v="Bjørnsgård" />
		<tag k="name" v="Bjørnsgard" />
		<tag k="place" v="farm" />
		<tag k="ssr:stedsnr" v="786815" />
	</node>
	<node id="-1969" lat="60.0226805549" lon="10.6199638881">
		<tag k="name" v="Elveli" />
		<tag k="place" v="farm" />
		<tag k="ssr:stedsnr" v="916984" />
	</node>
	<node id="-1959" lat="59.8296750015" lon="10.7912694371">
		<tag k="alt_name" v="Ås, nordre" />
		<tag k="name" v="Nordre Ås" />
		<tag k="place" v="farm" />
		<tag k="ssr:stedsnr" v="915294" />
	</node>
	<node id="-1958" lat="59.824924999" lon="10.8866388896">
		<tag k="name" v="Solbakken" />
		<tag k="place" v="farm" />
		<tag k="ssr:stedsnr" v="915289" />
	</node>
	<node id="-1957" lat="59.8493555576" lon="10.8333861147">
		<tag k="name" v="Mortensrud" />
		<tag k="place" v="farm" />
		<tag k="ssr:stedsnr" v="915202" />
	</node>
	<node id="-1956" lat="59.8314111148" lon="10.8391805562">
		<tag k="alt_name" v="Slime, nordre" />
		<tag k="name" v="Nordre Slime" />
		<tag k="place" v="farm" />
		<tag k="ssr:stedsnr" v="915192" />
	</node>
	<node id="-1953" lat="59.9134499989" lon="10.817255548">
		<tag k="name" v="Teisen" />
		<tag k="place" v="suburb" />
		<tag k="ssr:stedsnr" v="915100" />
	</node>
	<node id="-1951" lat="59.9207426898" lon="10.6567731759">
		<tag k="name" v="Bestum" />
		<tag k="place" v="quarter" />
		<tag k="ssr:stedsnr" v="914918" />
	</node>
	<node id="-1946" lat="59.9457194449" lon="10.7957027696">
		<tag k="name" v="Lofthus" />
		<tag k="place" v="suburb" />
		<tag k="ssr:stedsnr" v="914543" />
	</node>
	<node id="-1945" lat="59.9525638919" lon="10.7324583395">
		<tag k="name" v="Sogn" />
		<tag k="place" v="suburb" />
		<tag k="ssr:stedsnr" v="914541" />
	</node>
	<node id="-1937" lat="59.9148277807" lon="10.7179277805">
		<tag k="name" v="Lapsetorvet" />
		<tag k="place" v="square" />
		<tag k="ssr:stedsnr" v="909777" />
	</node>
	<node id="-1936" lat="59.9276583296" lon="10.6890833267">
		<tag k="name" v="Søndre Skøyen" />
		<tag k="place" v="farm" />
		<tag k="ssr:stedsnr" v="909742" />
	</node>
	<node id="-1929" lat="59.8724083312" lon="10.8568000036">
		<tag k="amenity" v="cafe" />
		<tag k="name" v="Rustadsaga" />
		<tag k="ssr:stedsnr" v="915135" />
	</node>
	<node id="-1928" lat="59.9306722208" lon="10.7497305472">
		<tag k="name" v="Ila" />
		<tag k="place" v="suburb" />
		<tag k="ssr:stedsnr" v="915044" />
	</node>
	<node id="-1926" lat="59.9398222213" lon="10.8027416586">
		<tag k="name" v="Refstad" />
		<tag k="place" v="suburb" />
		<tag k="ssr:stedsnr" v="915030" />
	</node>
	<node id="-1921" lat="59.8781972256" lon="10.7710222271">
		<tag k="name" v="Alvheim" />
		<tag k="place" v="farm" />
		<tag k="ssr:stedsnr" v="751513" />
	</node>
	<node id="-1920" lat="59.877576856" lon="10.7663661357">
		<tag k="name" v="Dalheim" />
		<tag k="place" v="farm" />
		<tag k="ssr:stedsnr" v="751506" />
	</node>
	<node id="-1918" lat="59.9676361102" lon="10.6469777708">
		<tag k="amenity" v="school" />
		<tag k="name" v="Grindbakken skole" />
		<tag k="ssr:stedsnr" v="907786" />
	</node>
	<node id="-1902" lat="59.9097249978" lon="10.794188896">
		<tag k="name" v="Etterstad" />
		<tag k="place" v="suburb" />
		<tag k="ssr:stedsnr" v="733131" />
	</node>
	<node id="-1901" lat="59.9075305543" lon="10.8273555542">
		<tag k="alt_name" v="Skøyen, nordre" />
		<tag k="name" v="Nordre Skøyen hovedgård" />
		<tag k="place" v="farm" />
		<tag k="ssr:stedsnr" v="733128" />
	</node>
	<node id="-1900" lat="59.9923249972" lon="10.7939888852">
		<tag k="name" v="Sander" />
		<tag k="place" v="farm" />
		<tag k="ssr:stedsnr" v="732646" />
	</node>
	<node id="-1890" lat="60.0253388902" lon="10.6584083375">
		<tag k="alt_name" v="Studenthytta" />
		<tag k="name" v="Studenterhytta" />
		<tag k="place" v="isolated_dwelling" />
		<tag k="ssr:stedsnr" v="723008" />
	</node>
	<node id="-1880" lat="60.009466666" lon="10.6728055583">
		<tag k="name" v="Glimthytta" />
		<tag k="place" v="isolated_dwelling" />
		<tag k="ssr:stedsnr" v="709279" />
	</node>
	<node id="-1857" lat="59.9893462732" lon="10.668123244">
		<tag k="landuse" v="winter_sports" />
		<tag k="name" v="Oslo Vinterpark" />
		<tag k="old_name" v="Tryvann skisenter" />
		<tag k="piste:type" v="downhill" />
		<tag k="ssr:stedsnr" v="692866" />
	</node>
	<node id="-1852" lat="59.9493916694" lon="10.9020277863">
		<tag k="name" v="Haugen" />
		<tag k="place" v="farm" />
		<tag k="ssr:stedsnr" v="672484" />
	</node>
	<node id="-1851" lat="59.9521361109" lon="10.8545611085">
		<tag k="name" v="Rødtvet" />
		<tag k="place" v="farm" />
		<tag k="ssr:stedsnr" v="672479" />
	</node>
	<node id="-1848" lat="60.0270499955" lon="10.6226916751">
		<tag k="name" v="Storefjellhytta" />
		<tag k="place" v="isolated_dwelling" />
		<tag k="ssr:stedsnr" v="666435" />
	</node>
	<node id="-1846" lat="59.9209805534" lon="10.7137555539">
		<tag k="name" v="Arno Bergs plass" />
		<tag k="place" v="square" />
		<tag k="ssr:stedsnr" v="665812" />
	</node>
	<node id="-1845" lat="59.9287583364" lon="10.6423472293">
		<tag k="amenity" v="school" />
		<tag k="name" v="Bjørnsletta skole" />
		<tag k="ssr:stedsnr" v="665805" />
	</node>
	<node id="-1831" lat="60.0362361126" lon="10.663819451">
		<tag k="fixme" v="consider tourism=alpine_hut or tourism=chalet" />
		<tag k="name" v="Kobberhaughytta" />
		<tag k="old_name" v="Kopperhaughytta" />
		<tag k="ssr:stedsnr" v="733992" />
		<tag k="tourism" v="wilderness_hut" />
	</node>
	<node id="-1830" lat="60.0288638863" lon="10.5827027719">
		<tag k="name" v="Bergendal" />
		<tag k="place" v="farm" />
		<tag k="ssr:stedsnr" v="733972" />
	</node>
	<node id="-1829" lat="60.0262972222" lon="10.5897583417">
		<tag k="name" v="Granli" />
		<tag k="place" v="farm" />
		<tag k="ssr:stedsnr" v="733971" />
	</node>
	<node id="-1828" lat="60.0210222242" lon="10.5788277868">
		<tag k="alt_name" v="Lyse, nedre" />
		<tag k="name" v="Nedre Lyse" />
		<tag k="place" v="farm" />
		<tag k="ssr:stedsnr" v="733970" />
	</node>
	<node id="-1813" lat="60.0012777811" lon="10.7873750076">
		<tag k="name" v="Sittpå" />
		<tag k="place" v="farm" />
		<tag k="ssr:stedsnr" v="733338" />
	</node>
	<node id="-1811" lat="59.8261500039" lon="10.7889055555">
		<tag k="alt_name" v="Ås, søndre" />
		<tag k="name" v="Søndre Ås" />
		<tag k="place" v="farm" />
		<tag k="ssr:stedsnr" v="733296" />
	</node>
	<node id="-1810" lat="59.8241972235" lon="10.8952333369">
		<tag k="name" v="Hanåa" />
		<tag k="place" v="farm" />
		<tag k="ssr:stedsnr" v="733285" />
	</node>
	<node id="-1809" lat="59.814763885" lon="10.847277772">
		<tag k="name" v="Myrer" />
		<tag k="place" v="farm" />
		<tag k="ssr:stedsnr" v="733258" />
	</node>
	<node id="-1807" lat="59.9070138871" lon="10.8928416596">
		<tag k="name" v="Ulvenseter" />
		<tag k="place" v="isolated_dwelling" />
		<tag k="ssr:stedsnr" v="733089" />
	</node>
	<node id="-1806" lat="59.9505749992" lon="10.6763833261">
		<tag k="leisure" v="pitch" />
		<tag k="name" v="Gressbanen" />
		<tag k="ssr:stedsnr" v="732993" />
	</node>
	<node id="-1805" lat="59.9256861127" lon="10.7047833254">
		<tag k="leisure" v="park" />
		<tag k="name" v="Frognerparken" />
		<tag k="ssr:stedsnr" v="732927" />
	</node>
	<node id="-1801" lat="59.8309345353" lon="10.8143422437">
		<tag k="alt_name" v="Prinsdal, øvre" />
		<tag k="name" v="Øvre Prinsdal" />
		<tag k="place" v="farm" />
		<tag k="ssr:stedsnr" v="732225" />
	</node>
	<node id="-1800" lat="59.8378111094" lon="10.8299055626">
		<tag k="name" v="Bjørndal" />
		<tag k="place" v="farm" />
		<tag k="ssr:stedsnr" v="732219" />
	</node>
	<node id="-1798" lat="59.8876241986" lon="10.8329684589">
		<tag k="fixme" v="consider place=hamlet" />
		<tag k="name" v="Østensjø" />
		<tag k="place" v="farm" />
		<tag k="ssr:stedsnr" v="732179" />
	</node>
	<node id="-1795" lat="59.9360527745" lon="10.8522750087">
		<tag k="fixme" v="consider place=suburb, village or hamlet" />
		<tag k="name" v="Kjelsrud" />
		<tag k="place" v="quarter" />
		<tag k="ssr:stedsnr" v="732059" />
	</node>
	<node id="-1787" lat="59.9275111137" lon="10.7451305534">
		<tag k="amenity" v="school" />
		<tag k="name" v="Ila skole" />
		<tag k="ssr:stedsnr" v="630770" />
	</node>
	<node id="-1786" lat="59.9337611153" lon="10.7303194486">
		<tag k="amenity" v="school" />
		<tag k="name" v="Fagerborg videregående skole" />
		<tag k="ssr:stedsnr" v="630768" />
	</node>
	<node id="-1785" lat="59.9319944456" lon="10.738538893">
		<tag k="amenity" v="school" />
		<tag k="name" v="Veterinærhøgskole" />
		<tag k="ssr:stedsnr" v="630757" />
	</node>
	<node id="-1780" lat="59.9709166634" lon="10.7740444492">
		<tag k="building" v="industrial" />
		<tag k="industrial" v="factory" />
		<tag k="name" v="Brekke bruk" />
		<tag k="ssr:stedsnr" v="630666" />
	</node>
	<node id="-1779" lat="59.9647527769" lon="10.8294305531">
		<tag k="name" v="Badstubråten" />
		<tag k="place" v="locality" />
		<tag k="ssr:stedsnr" v="630664" />
	</node>
	<node id="-1778" lat="59.9701027747" lon="10.7904277833">
		<tag k="name" v="Langset" />
		<tag k="place" v="isolated_dwelling" />
		<tag k="ssr:stedsnr" v="630615" />
	</node>
	<node id="-1777" lat="59.965744442" lon="10.882200004">
		<tag k="name" v="Fjellhøy" />
		<tag k="place" v="farm" />
		<tag k="ssr:stedsnr" v="630605" />
	</node>
	<node id="-1773" lat="59.8899120351" lon="10.7760885487">
		<tag k="leisure" v="park" />
		<tag k="name" v="Ekebergparken" />
		<tag k="ssr:stedsnr" v="630353" />
	</node>
	<node id="-1771" lat="59.8948361154" lon="10.8227416653">
		<tag k="amenity" v="school" />
		<tag k="name" v="Manglerud skoler" />
		<tag k="ssr:stedsnr" v="630409" />
	</node>
	<node id="-1770" lat="59.8764972193" lon="10.8270500029">
		<tag k="leisure" v="park" />
		<tag k="name" v="Multehaug" />
		<tag k="ssr:stedsnr" v="630406" />
	</node>
	<node id="-1767" lat="59.8496305587" lon="10.8432444457">
		<tag k="name" v="Karlsrud" />
		<tag k="place" v="farm" />
		<tag k="ssr:stedsnr" v="630228" />
	</node>
	<node id="-1766" lat="59.8354555584" lon="10.8355916672">
		<tag k="name" v="Bjørnholt" />
		<tag k="place" v="locality" />
		<tag k="ssr:stedsnr" v="630216" />
	</node>
	<node id="-1763" lat="59.8829777798" lon="10.8455555601">
		<tag k="building" v="commercial" />
		<tag k="name" v="Bøler senter" />
		<tag k="ssr:stedsnr" v="630319" />
	</node>
	<node id="-1761" lat="59.9987696798" lon="10.7765767812">
		<tag k="name" v="Solbakken" />
		<tag k="place" v="locality" />
		<tag k="ssr:stedsnr" v="630174" />
	</node>
	<node id="-1758" lat="59.9236305522" lon="10.6949444471">
		<tag k="name" v="Madserud" />
		<tag k="place" v="farm" />
		<tag k="ssr:stedsnr" v="726801" />
	</node>
	<node id="-1757" lat="59.935919447" lon="10.6537083311">
		<tag k="amenity" v="school" />
		<tag k="name" v="Ullerntoppen skole" />
		<tag k="ssr:stedsnr" v="726799" />
	</node>
	<node id="-1755" lat="59.9240111108" lon="10.6542805558">
		<tag k="amenity" v="school" />
		<tag k="name" v="Bestum skole" />
		<tag k="ssr:stedsnr" v="726793" />
	</node>
	<node id="-1741" lat="60.0266500031" lon="10.6060166586">
		<tag k="name" v="Haga" />
		<tag k="place" v="farm" />
		<tag k="ssr:stedsnr" v="612978" />
	</node>
	<node id="-1735" lat="59.9927555536" lon="10.8042388823">
		<tag k="alt_name" v="Slåttebråten" />
		<tag k="name" v="Slåttebråtan" />
		<tag k="place" v="locality" />
		<tag k="ssr:stedsnr" v="611633" />
	</node>
	<node id="-1732" lat="59.829127776" lon="10.8490472236">
		<tag k="alt_name" v="Gjersrud, nedre" />
		<tag k="name" v="Nedre Gjersrud" />
		<tag k="place" v="farm" />
		<tag k="ssr:stedsnr" v="611202" />
	</node>
	<node id="-1730" lat="59.918088889" lon="10.8045111129">
		<tag k="leisure" v="pitch" />
		<tag k="name" v="Valle Hovin" />
		<tag k="old_name" v="Valle-Hovin" />
		<tag k="ssr:stedsnr" v="611026" />
	</node>
	<node id="-1728" lat="59.9796453995" lon="10.6354726046">
		<tag k="name" v="Strømsbråtan" />
		<tag k="old_name" v="Strømsbråten" />
		<tag k="place" v="farm" />
		<tag k="ssr:stedsnr" v="610007" />
	</node>
	<node id="-1720" lat="59.9735249997" lon="10.6636833296">
		<tag k="name" v="Solstua" />
		<tag k="ssr:stedsnr" v="603810" />
		<tag k="tourism" v="guest_house" />
	</node>
	<node id="-1719" lat="60.019644447" lon="10.583177777">
		<tag k="name" v="Sagtomta" />
		<tag k="place" v="locality" />
		<tag k="ssr:stedsnr" v="603010" />
	</node>
	<node id="-1716" lat="60.0183638893" lon="10.5954055469">
		<tag k="name" v="Nordre Venner" />
		<tag k="place" v="farm" />
		<tag k="ssr:stedsnr" v="603005" />
	</node>
	<node id="-1706" lat="59.94923611" lon="10.6588833369">
		<tag k="amenity" v="school" />
		<tag k="name" v="Steinerskolen" />
		<tag k="ssr:stedsnr" v="585869" />
	</node>
	<node id="-1705" lat="59.9496722238" lon="10.6557194443">
		<tag k="amenity" v="school" />
		<tag k="name" v="Hovseter skole" />
		<tag k="ssr:stedsnr" v="585867" />
	</node>
	<node id="-1682" lat="60.0242944471" lon="10.6108388928">
		<tag k="name" v="Nordre Åmot" />
		<tag k="place" v="farm" />
		<tag k="ssr:stedsnr" v="542212" />
	</node>
	<node id="-1680" lat="59.8983098971" lon="10.7995057029">
		<tag k="name" v="Ryen" />
		<tag k="place" v="farm" />
		<tag k="ssr:stedsnr" v="692678" />
	</node>
	<node id="-1678" lat="59.9051277743" lon="10.6773527815">
		<tag k="amenity" v="school" />
		<tag k="name" v="Bygdøy skole" />
		<tag k="ssr:stedsnr" v="692304" />
	</node>
	<node id="-1674" lat="59.9336833365" lon="10.8199638874">
		<tag k="name" v="Risløkka" />
		<tag k="place" v="suburb" />
		<tag k="ssr:stedsnr" v="691966" />
	</node>
	<node id="-1672" lat="59.9659818434" lon="10.8835064194">
		<tag k="name" v="Frankrig" />
		<tag k="place" v="isolated_dwelling" />
		<tag k="ssr:stedsnr" v="691937" />
	</node>
	<node id="-1670" lat="59.9652749989" lon="10.9059750032">
		<tag k="alt_name" v="Rommen s." />
		<tag k="name" v="Søndre Rommen" />
		<tag k="place" v="farm" />
		<tag k="ssr:stedsnr" v="691929" />
	</node>
	<node id="-1668" lat="59.9489861088" lon="10.9029666719">
		<tag k="alt_name" v="Haugen østre" />
		<tag k="name" v="Østre Haugen" />
		<tag k="place" v="farm" />
		<tag k="ssr:stedsnr" v="691921" />
	</node>
	<node id="-1667" lat="59.9222611134" lon="10.7892555497">
		<tag k="amenity" v="school" />
		<tag k="name" v="Hasle skole" />
		<tag k="ssr:stedsnr" v="691846" />
	</node>
	<node id="-1666" lat="59.9214194466" lon="10.7398499959">
		<tag k="amenity" v="hospital" />
		<tag k="name" v="Barneklinikken" />
		<tag k="ssr:stedsnr" v="691837" />
	</node>
	<node id="-1665" lat="59.9231666656" lon="10.8461888914">
		<tag k="building" v="commercial" />
		<tag k="name" v="Obs Bygg Alnabru" />
		<tag k="old_name" v="Nora Mineralvann A/S" />
		<tag k="ssr:stedsnr" v="691825" />
	</node>
	<node id="-1663" lat="59.9505611071" lon="10.7679861198">
		<tag k="name" v="Gullhaug" />
		<tag k="place" v="isolated_dwelling" />
		<tag k="ssr:stedsnr" v="691812" />
	</node>
	<node id="-1662" lat="59.9566944413" lon="10.7435305469">
		<tag k="building" v="commercial" />
		<tag k="name" v="Nordberg" />
		<tag k="ssr:stedsnr" v="691805" />
	</node>
	<node id="-1661" lat="59.9363583344" lon="10.7258249967">
		<tag k="amenity" v="school" />
		<tag k="name" v="Jernbaneskolen" />
		<tag k="ssr:stedsnr" v="691785" />
	</node>
	<node id="-1660" lat="59.9493083327" lon="10.8426750035">
		<tag k="name" v="Linderudplassen" />
		<tag k="place" v="locality" />
		<tag k="ssr:stedsnr" v="691783" />
	</node>
	<node id="-1658" lat="59.9370083323" lon="10.7248749924">
		<tag k="fixme" v="consider place=suburb, village or hamlet" />
		<tag k="name" v="Nedre Blindern" />
		<tag k="place" v="quarter" />
		<tag k="ssr:stedsnr" v="691774" />
	</node>
	<node id="-1653" lat="59.9156111129" lon="10.7454055589">
		<tag k="building" v="commercial" />
		<tag k="name" v="Regjeringskvartalet" />
		<tag k="ssr:stedsnr" v="691731" />
	</node>
	<node id="-1646" lat="59.9606805541" lon="10.8811972142">
		<tag k="building" v="commercial" />
		<tag k="name" v="Grorud senter" />
		<tag k="ssr:stedsnr" v="691686" />
	</node>
	<node id="-1643" lat="59.9209138856" lon="10.8551666665">
		<tag k="name" v="Haugerud" />
		<tag k="place" v="farm" />
		<tag k="ssr:stedsnr" v="691650" />
	</node>
	<node id="-1640" lat="59.9518777741" lon="10.8620611022">
		<tag k="alt_name" v="Øvre Kaldbakken" />
		<tag k="name" v="Øvre Kalbakken" />
		<tag k="place" v="locality" />
		<tag k="ssr:stedsnr" v="691620" />
	</node>
	<node id="-1639" lat="59.8588333367" lon="10.8113222256">
		<tag k="amenity" v="school" />
		<tag k="name" v="Munkerud skole" />
		<tag k="ssr:stedsnr" v="691556" />
	</node>
	<node id="-1638" lat="59.8603527792" lon="10.7945138884">
		<tag k="amenity" v="school" />
		<tag k="name" v="Nordstrand skole" />
		<tag k="ssr:stedsnr" v="691555" />
	</node>
	<node id="-1637" lat="59.8673277797" lon="10.7568916703">
		<tag k="name" v="Husvik" />
		<tag k="place" v="isolated_dwelling" />
		<tag k="ssr:stedsnr" v="691549" />
	</node>
	<node id="-1636" lat="59.8868540946" lon="10.8077660368">
		<tag k="name" v="Søndre Østli" />
		<tag k="place" v="farm" />
		<tag k="ssr:stedsnr" v="691430" />
	</node>
	<node id="-1634" lat="59.8914805536" lon="10.8518888891">
		<tag k="name" v="Ulsrud" />
		<tag k="place" v="suburb" />
		<tag k="ssr:stedsnr" v="691379" />
	</node>
	<node id="-1630" lat="59.8536138849" lon="10.833302774">
		<tag k="name" v="Stendal" />
		<tag k="place" v="locality" />
		<tag k="ssr:stedsnr" v="691264" />
	</node>
	<node id="-1628" lat="60.0043305562" lon="10.7690333344">
		<tag k="name" v="Skredderstua" />
		<tag k="place" v="farm" />
		<tag k="ssr:stedsnr" v="691258" />
	</node>
	<node id="-1627" lat="60.0209694411" lon="10.7877750059">
		<tag k="name" v="Granum" />
		<tag k="place" v="farm" />
		<tag k="ssr:stedsnr" v="691241" />
	</node>
	<node id="-1626" lat="60.0091833339" lon="10.7655694493">
		<tag k="alt_name" v="Glitrehaug" />
		<tag k="name" v="Glitreheim" />
		<tag k="place" v="farm" />
		<tag k="ssr:stedsnr" v="691217" />
	</node>
	<node id="-1625" lat="60.0002555574" lon="10.7546388869">
		<tag k="name" v="Vesternløkka" />
		<tag k="place" v="locality" />
		<tag k="ssr:stedsnr" v="691207" />
	</node>
	<node id="-1619" lat="59.8345694406" lon="10.7765666598">
		<tag k="name" v="Stubljan campingplass" />
		<tag k="ssr:stedsnr" v="691010" />
		<tag k="tourism" v="camp_site" />
	</node>
	<node id="-1612" lat="60.1250666708" lon="10.6696694377">
		<tag k="name" v="Bjørnputthytta" />
		<tag k="place" v="isolated_dwelling" />
		<tag k="ssr:stedsnr" v="525609" />
	</node>
	<node id="-1609" lat="59.9455018685" lon="10.9122917372">
		<tag k="name" v="Øvre Høybråten" />
		<tag k="place" v="farm" />
		<tag k="ssr:stedsnr" v="509914" />
	</node>
	<node id="-1603" lat="59.936972225" lon="10.7368194474">
		<tag k="amenity" v="hospital" />
		<tag k="name" v="Ullevål sykehus" />
		<tag k="ssr:stedsnr" v="509709" />
	</node>
	<node id="-1598" lat="59.8709638856" lon="10.8160861145">
		<tag k="amenity" v="school" />
		<tag k="name" v="Lambertseter skole" />
		<tag k="ssr:stedsnr" v="509535" />
	</node>
	<node id="-1597" lat="59.8563555551" lon="10.8189111135">
		<tag k="name" v="Leirskallbråten" />
		<tag k="place" v="farm" />
		<tag k="ssr:stedsnr" v="509523" />
	</node>
	<node id="-1593" lat="59.8552666695" lon="10.8399194509">
		<tag k="name" v="Lille Dal" />
		<tag k="place" v="quarter" />
		<tag k="ssr:stedsnr" v="509269" />
	</node>
	<node id="-1591" lat="59.8719722238" lon="10.8456916712">
		<tag k="name" v="Rustad" />
		<tag k="place" v="farm" />
		<tag k="ssr:stedsnr" v="509257" />
	</node>
	<node id="-1584" lat="60.0025694458" lon="10.6908000077">
		<tag k="amenity" v="cafe" />
		<tag k="name" v="Skjennungstua" />
		<tag k="ssr:stedsnr" v="490918" />
	</node>
	<node id="-1581" lat="59.904677776" lon="10.851797224">
		<tag k="name" v="Trasopp" />
		<tag k="old_name" v="Trasop" />
		<tag k="place" v="suburb" />
		<tag k="ssr:stedsnr" v="490107" />
	</node>
	<node id="-1576" lat="60.0216555594" lon="10.5708555484">
		<tag k="alt_name" v="Lysebråten" />
		<tag k="name" v="Lysebråtan" />
		<tag k="place" v="farm" />
		<tag k="ssr:stedsnr" v="673976" />
	</node>
	<node id="-1568" lat="60.064111115" lon="10.8172055512">
		<tag k="name" v="Skjerpeløkka" />
		<tag k="place" v="isolated_dwelling" />
		<tag k="ssr:stedsnr" v="673572" />
	</node>
	<node id="-1567" lat="60.0569083328" lon="10.7401972246">
		<tag k="name" v="Liggeren" />
		<tag k="place" v="farm" />
		<tag k="ssr:stedsnr" v="673504" />
	</node>
	<node id="-1563" lat="60.0231499968" lon="10.7236666749">
		<tag k="name" v="Kamphaug" />
		<tag k="place" v="farm" />
		<tag k="ssr:stedsnr" v="673418" />
	</node>
	<node id="-1549" lat="60.0073388897" lon="10.5955694375">
		<tag k="name" v="Lønnås" />
		<tag k="place" v="farm" />
		<tag k="ssr:stedsnr" v="672943" />
	</node>
	<node id="-1541" lat="59.9665250007" lon="10.9359749926">
		<tag k="name" v="Liastua" />
		<tag k="place" v="isolated_dwelling" />
		<tag k="ssr:stedsnr" v="672517" />
	</node>
	<node id="-1540" lat="59.9999416669" lon="10.7664638903">
		<tag k="name" v="Kallerud" />
		<tag k="place" v="farm" />
		<tag k="ssr:stedsnr" v="672305" />
	</node>
	<node id="-1521" lat="59.9313138913" lon="10.8257750031">
		<tag k="alt_name" v="Hovin, nordre" />
		<tag k="name" v="Nordre Hovin" />
		<tag k="place" v="farm" />
		<tag k="ssr:stedsnr" v="672050" />
	</node>
	<node id="-1520" lat="59.9345738953" lon="10.8278512807">
		<tag k="name" v="Vollebekk" />
		<tag k="place" v="farm" />
		<tag k="ssr:stedsnr" v="672039" />
	</node>
	<node id="-1517" lat="59.9111388861" lon="10.6662777712">
		<tag k="fixme" v="consider natural=beach + surface=sand" />
		<tag k="leisure" v="swimming_area" />
		<tag k="name" v="Bygdøy sjøbad" />
		<tag k="place" v="locality" />
		<tag k="ssr:stedsnr" v="671908" />
	</node>
	<node id="-1516" lat="59.9094250043" lon="10.7020499982">
		<tag k="building" v="commercial" />
		<tag k="name" v="Kongen" />
		<tag k="ssr:stedsnr" v="671878" />
	</node>
	<node id="-1512" lat="59.9992527795" lon="10.6830805563">
		<tag k="name" v="Maristua" />
		<tag k="place" v="isolated_dwelling" />
		<tag k="ssr:stedsnr" v="671116" />
	</node>
	<node id="-1505" lat="59.9412361079" lon="10.6715333278">
		<tag k="leisure" v="pitch" />
		<tag k="name" v="Njårdhallen" />
		<tag k="ssr:stedsnr" v="464865" />
	</node>
	<node id="-1503" lat="60.0713555553" lon="10.5793472283">
		<tag k="name" v="Salthølen" />
		<tag k="place" v="isolated_dwelling" />
		<tag k="ssr:stedsnr" v="464652" />
	</node>
	<node id="-1500" lat="59.9270416694" lon="10.706819436">
		<tag k="leisure" v="pitch" />
		<tag k="name" v="Frognerbadet" />
		<tag k="ssr:stedsnr" v="665779" />
	</node>
	<node id="-1499" lat="59.9211499986" lon="10.7165722154">
		<tag k="name" v="Briskeby" />
		<tag k="place" v="suburb" />
		<tag k="ssr:stedsnr" v="665774" />
	</node>
	<node id="-1495" lat="59.9813194476" lon="10.6357027768">
		<tag k="name" v="Jordbråten" />
		<tag k="place" v="farm" />
		<tag k="ssr:stedsnr" v="664820" />
	</node>
	<node id="-1491" lat="60.022619445" lon="10.5962583339">
		<tag k="name" v="Nedre Gran" />
		<tag k="place" v="isolated_dwelling" />
		<tag k="ssr:stedsnr" v="664016" />
	</node>
	<node id="-1490" lat="60.0230388847" lon="10.5934972196">
		<tag k="name" v="Øvre Gran" />
		<tag k="place" v="farm" />
		<tag k="ssr:stedsnr" v="664013" />
	</node>
	<node id="-1489" lat="60.0173111098" lon="10.5364555513">
		<tag k="name" v="Svensbruhytta" />
		<tag k="place" v="locality" />
		<tag k="ssr:stedsnr" v="664001" />
	</node>
	<node id="-1483" lat="59.9596444425" lon="10.7221527798">
		<tag k="building" v="industrial" />
		<tag k="name" v="Holtet" />
		<tag k="ssr:stedsnr" v="448843" />
	</node>
	<node id="-1481" lat="59.9204500035" lon="10.7902055497">
		<tag k="building" v="commercial" />
		<tag k="name" v="Narvesen A/S" />
		<tag k="ssr:stedsnr" v="448830" />
	</node>
	<node id="-1479" lat="59.9494816405" lon="10.7644288937">
		<tag k="name" v="Bakke" />
		<tag k="place" v="isolated_dwelling" />
		<tag k="ssr:stedsnr" v="448817" />
	</node>
	<node id="-1474" lat="59.9716527774" lon="10.7652916669">
		<tag k="name" v="Engelsrud" />
		<tag k="place" v="farm" />
		<tag k="ssr:stedsnr" v="448708" />
	</node>
	<node id="-1473" lat="59.8645027804" lon="10.8083444362">
		<tag k="amenity" v="sports_centre" />
		<tag k="name" v="Nordstrandhallen" />
		<tag k="ssr:stedsnr" v="448614" />
	</node>
	<node id="-1470" lat="59.8770355349" lon="10.7607008007">
		<tag k="name" v="Godheim" />
		<tag k="place" v="hamlet" />
		<tag k="ssr:stedsnr" v="448533" />
	</node>
	<node id="-1469" lat="59.883455552" lon="10.8623305597">
		<tag k="name" v="Østensjøbråten" />
		<tag k="place" v="locality" />
		<tag k="ssr:stedsnr" v="448338" />
	</node>
	<node id="-1463" lat="59.9315249966" lon="10.6614194394">
		<tag k="amenity" v="hospital" />
		<tag k="name" v="Radiumhospitalet" />
		<tag k="ssr:stedsnr" v="447214" />
	</node>
	<node id="-1462" lat="60.0360555566" lon="10.8069777849">
		<tag k="alt_name" v="Sørbråtaskogen" />
		<tag k="fixme" v="consider place=suburb, village or hamlet" />
		<tag k="name" v="Sørbråten" />
		<tag k="place" v="quarter" />
		<tag k="ssr:stedsnr" v="430409" />
	</node>
	<node id="-1461" lat="59.8604999992" lon="10.8209555529">
		<tag k="name" v="Leirskallen" />
		<tag k="place" v="locality" />
		<tag k="ssr:stedsnr" v="430137" />
	</node>
	<node id="-1456" lat="60.0771111069" lon="10.6580250062">
		<tag k="name" v="Bonna" />
		<tag k="place" v="farm" />
		<tag k="ssr:stedsnr" v="429222" />
	</node>
	<node id="-1455" lat="59.8286805517" lon="10.9166472159">
		<tag k="amenity" v="cafe" />
		<tag k="name" v="Sandbakken" />
		<tag k="ssr:stedsnr" v="429208" />
	</node>
	<node id="-1453" lat="59.9312500027" lon="10.922813893">
		<tag k="name" v="Ellingsrud" />
		<tag k="place" v="farm" />
		<tag k="ssr:stedsnr" v="429012" />
	</node>
	<node id="-1450" lat="59.9111510963" lon="10.6780765419">
		<tag k="alt_name" v="Bygdø Kongsgård" />
		<tag k="fixme" v="consider place=hamlet" />
		<tag k="name" v="Bygdøy kongsgard" />
		<tag k="place" v="farm" />
		<tag k="ssr:stedsnr" v="422914" />
	</node>
	<node id="-1449" lat="59.9936055546" lon="10.6793749938">
		<tag k="name" v="Mortenstua" />
		<tag k="place" v="isolated_dwelling" />
		<tag k="ssr:stedsnr" v="422850" />
	</node>
	<node id="-1445" lat="59.9798416649" lon="10.6118305492">
		<tag k="name" v="Søndre Tangen" />
		<tag k="place" v="farm" />
		<tag k="ssr:stedsnr" v="422825" />
	</node>
	<node id="-1434" lat="59.9047749977" lon="10.8497611135">
		<tag k="amenity" v="school" />
		<tag k="name" v="Trasop skole" />
		<tag k="ssr:stedsnr" v="509833" />
	</node>
	<node id="-1433" lat="59.9294222249" lon="10.7860833258">
		<tag k="amenity" v="school" />
		<tag k="name" v="Fjellhaug skoler" />
		<tag k="ssr:stedsnr" v="509827" />
	</node>
	<node id="-1432" lat="59.9392055599" lon="10.8910027721">
		<tag k="amenity" v="school" />
		<tag k="name" v="Furuset skole" />
		<tag k="ssr:stedsnr" v="509818" />
	</node>
	<node id="-1431" lat="59.9350527784" lon="10.9175277713">
		<tag k="amenity" v="school" />
		<tag k="name" v="Ellingsrud skole" />
		<tag k="ssr:stedsnr" v="509817" />
	</node>
	<node id="-1430" lat="59.921088885" lon="10.7389500042">
		<tag k="amenity" v="hospital" />
		<tag k="name" v="Kvinneklinikken" />
		<tag k="ssr:stedsnr" v="509812" />
	</node>
	<node id="-1429" lat="59.9713333332" lon="10.927852775">
		<tag k="amenity" v="school" />
		<tag k="name" v="Vestli skole" />
		<tag k="ssr:stedsnr" v="509806" />
	</node>
	<node id="-1428" lat="59.967774998" lon="10.8928333412">
		<tag k="amenity" v="school" />
		<tag k="name" v="Ravnkollen skole" />
		<tag k="ssr:stedsnr" v="509805" />
	</node>
	<node id="-1424" lat="59.8709861091" lon="10.8060555548">
		<tag k="alt_name" v="Hellerud s." />
		<tag k="name" v="Søndre Hellerud" />
		<tag k="place" v="farm" />
		<tag k="ssr:stedsnr" v="509538" />
	</node>
	<node id="-1422" lat="59.9198972267" lon="10.7678055566">
		<tag k="amenity" v="school" />
		<tag k="name" v="Lakkegata skole" />
		<tag k="ssr:stedsnr" v="509789" />
	</node>
	<node id="-1421" lat="59.9548888888" lon="10.7736055496">
		<tag k="amenity" v="school" />
		<tag k="name" v="Grefsen skole" />
		<tag k="ssr:stedsnr" v="509776" />
	</node>
	<node id="-1420" lat="59.940691668" lon="10.7883944488">
		<tag k="name" v="Haraldsheim Oslo vandrerhjem" />
		<tag k="old_name" v="Haraldsheim Ungd.herberge" />
		<tag k="ssr:stedsnr" v="509773" />
		<tag k="tourism" v="guest_house" />
	</node>
	<node id="-1419" lat="59.9482472213" lon="10.7937972271">
		<tag k="name" v="Østre Grefsen" />
		<tag k="place" v="neighbourhood" />
		<tag k="ssr:stedsnr" v="509763" />
	</node>
	<node id="-1418" lat="59.952530558" lon="10.7284638963">
		<tag k="name" v="Vestre Sogn" />
		<tag k="place" v="neighbourhood" />
		<tag k="ssr:stedsnr" v="509759" />
	</node>
	<node id="-1416" lat="59.9383749998" lon="10.8276166687">
		<tag k="name" v="Øvre Vollebekk" />
		<tag k="place" v="quarter" />
		<tag k="ssr:stedsnr" v="509744" />
	</node>
	<node id="-1415" lat="59.9290611074" lon="10.8302333391">
		<tag k="name" v="Alna" />
		<tag k="place" v="quarter" />
		<tag k="ssr:stedsnr" v="509740" />
	</node>
	<node id="-1414" lat="59.9728305552" lon="10.7634583305">
		<tag k="name" v="Bekken" />
		<tag k="place" v="locality" />
		<tag k="ssr:stedsnr" v="509694" />
	</node>
	<node id="-1410" lat="59.9991916669" lon="10.7450083386">
		<tag k="name" v="Steinsrud" />
		<tag k="place" v="farm" />
		<tag k="ssr:stedsnr" v="509209" />
	</node>
	<node id="-1405" lat="59.8406944489" lon="10.8662861144">
		<tag k="alt_name" v="Skogen søndre" />
		<tag k="name" v="Søndre Skogen" />
		<tag k="place" v="locality" />
		<tag k="ssr:stedsnr" v="509191" />
	</node>
	<node id="-1403" lat="60.0044361153" lon="10.7634472232">
		<tag k="amenity" v="school" />
		<tag k="name" v="Maridalen skole" />
		<tag k="ssr:stedsnr" v="509172" />
	</node>
	<node id="-1401" lat="59.8823222195" lon="10.7849888915">
		<tag k="amenity" v="school" />
		<tag k="name" v="Bekkelaget skole" />
		<tag k="ssr:stedsnr" v="509411" />
	</node>
	<node id="-1396" lat="59.8283888894" lon="10.8659388875">
		<tag k="name" v="Nordengen" />
		<tag k="place" v="farm" />
		<tag k="ssr:stedsnr" v="509160" />
	</node>
	<node id="-1395" lat="59.9978194474" lon="10.7449611071">
		<tag k="name" v="Bakken" />
		<tag k="place" v="locality" />
		<tag k="ssr:stedsnr" v="509156" />
	</node>
	<node id="-1394" lat="59.9967388849" lon="10.7483138798">
		<tag k="name" v="Bråten" />
		<tag k="place" v="locality" />
		<tag k="ssr:stedsnr" v="509154" />
	</node>
	<node id="-1393" lat="59.9443499988" lon="10.6546472294">
		<tag k="landuse" v="military" />
		<tag k="name" v="Gardeleiren" />
		<tag k="ssr:stedsnr" v="404863" />
	</node>
	<node id="-1391" lat="60.1190111097" lon="10.6096333374">
		<tag k="name" v="Meidelhytta" />
		<tag k="place" v="isolated_dwelling" />
		<tag k="ssr:stedsnr" v="404576" />
	</node>
	<node id="-1386" lat="59.9148888929" lon="10.8398361058">
		<tag k="amenity" v="school" />
		<tag k="name" v="Hellerud videregående skole" />
		<tag k="ssr:stedsnr" v="387866" />
	</node>
	<node id="-1385" lat="59.9544333297" lon="10.8886777688">
		<tag k="amenity" v="school" />
		<tag k="name" v="Groruddalen skole" />
		<tag k="ssr:stedsnr" v="387861" />
	</node>
	<node id="-1384" lat="59.9313805553" lon="10.8024388939">
		<tag k="amenity" v="school" />
		<tag k="name" v="Løren skole" />
		<tag k="ssr:stedsnr" v="387858" />
	</node>
	<node id="-1383" lat="59.9461944441" lon="10.8294888897">
		<tag k="amenity" v="school" />
		<tag k="name" v="Tonsenhagen skole" />
		<tag k="ssr:stedsnr" v="387852" />
	</node>
	<node id="-1381" lat="59.9244083301" lon="10.7557861121">
		<tag k="amenity" v="school" />
		<tag k="name" v="Kofoed sk." />
		<tag k="ssr:stedsnr" v="387807" />
	</node>
	<node id="-1379" lat="59.930941665" lon="10.7591694363">
		<tag k="amenity" v="school" />
		<tag k="name" v="Sagene skole" />
		<tag k="ssr:stedsnr" v="387803" />
	</node>
	<node id="-1378" lat="59.9227414666" lon="10.8371087987">
		<tag k="name" v="Nedre Breivoll" />
		<tag k="place" v="quarter" />
		<tag k="ssr:stedsnr" v="387961" />
	</node>
	<node id="-1375" lat="59.9218472196" lon="10.7827277688">
		<tag k="name" v="Keyserløkka" />
		<tag k="place" v="suburb" />
		<tag k="ssr:stedsnr" v="387770" />
	</node>
	<node id="-1368" lat="59.8714777806" lon="10.8256805482">
		<tag k="name" v="Granli" />
		<tag k="place" v="locality" />
		<tag k="ssr:stedsnr" v="387559" />
	</node>
	<node id="-1367" lat="59.906216671" lon="10.800372214">
		<tag k="name" v="Nygård" />
		<tag k="place" v="farm" />
		<tag k="ssr:stedsnr" v="387664" />
	</node>
	<node id="-1359" lat="59.9927888888" lon="10.6969027861">
		<tag k="name" v="Rakkeseterhytta" />
		<tag k="place" v="isolated_dwelling" />
		<tag k="ssr:stedsnr" v="361861" />
	</node>
	<node id="-1350" lat="60.0243027737" lon="10.5070805574">
		<tag k="alt_name" v="Storbekkhytta" />
		<tag k="name" v="Storebekkhytta" />
		<tag k="place" v="isolated_dwelling" />
		<tag k="ssr:stedsnr" v="491992" />
	</node>
	<node id="-1349" lat="60.018144446" lon="10.5830333379">
		<tag k="name" v="Skansebakken" />
		<tag k="place" v="farm" />
		<tag k="ssr:stedsnr" v="491900" />
	</node>
	<node id="-1347" lat="60.0292388904" lon="10.7831111108">
		<tag k="name" v="Halvorsrud" />
		<tag k="place" v="farm" />
		<tag k="ssr:stedsnr" v="491450" />
	</node>
	<node id="-1346" lat="60.0347555524" lon="10.77744166">
		<tag k="alt_name" v="Holet" />
		<tag k="name" v="Hølet" />
		<tag k="place" v="locality" />
		<tag k="ssr:stedsnr" v="491447" />
	</node>
	<node id="-1342" lat="59.9634138849" lon="10.9304805576">
		<tag k="name" v="Jesperud" />
		<tag k="place" v="farm" />
		<tag k="ssr:stedsnr" v="490533" />
	</node>
	<node id="-1336" lat="60.0057655236" lon="10.7621127152">
		<tag k="alt_name" v="Petersberg" />
		<tag k="name" v="Petersborg" />
		<tag k="place" v="isolated_dwelling" />
		<tag k="ssr:stedsnr" v="490333" />
	</node>
	<node id="-1332" lat="59.8697777788" lon="10.8840277832">
		<tag k="alt_name" v="Ødegården" />
		<tag k="name" v="Øgården" />
		<tag k="place" v="locality" />
		<tag k="ssr:stedsnr" v="490140" />
	</node>
	<node id="-1330" lat="59.9126777788" lon="10.7803333352">
		<tag k="name" v="Kampen" />
		<tag k="place" v="suburb" />
		<tag k="ssr:stedsnr" v="490097" />
	</node>
	<node id="-1328" lat="59.9443027745" lon="10.6834833368">
		<tag k="alt_name" v="Holmen, østre" />
		<tag k="name" v="Østre Holmen" />
		<tag k="place" v="farm" />
		<tag k="ssr:stedsnr" v="489980" />
	</node>
	<node id="-1325" lat="59.9974777758" lon="10.7957833319">
		<tag k="alt_name" v="Sanderberg" />
		<tag k="name" v="Sanderberget" />
		<tag k="place" v="farm" />
		<tag k="ssr:stedsnr" v="489653" />
	</node>
	<node id="-1324" lat="59.996630559" lon="10.786047224">
		<tag k="name" v="Bakken" />
		<tag k="place" v="farm" />
		<tag k="ssr:stedsnr" v="489650" />
	</node>
	<node id="-1321" lat="59.9451749992" lon="10.9123111143">
		<tag k="name" v="Høybråten" />
		<tag k="place" v="suburb" />
		<tag k="ssr:stedsnr" v="489547" />
	</node>
	<node id="-1320" lat="59.9495750013" lon="10.8742388914">
		<tag k="name" v="Nordtvet" />
		<tag k="place" v="farm" />
		<tag k="ssr:stedsnr" v="489543" />
	</node>
	<node id="-1317" lat="59.9358527814" lon="10.7206222223">
		<tag k="alt_name" v="Fjernsynshuset NRK" />
		<tag k="building" v="commercial" />
		<tag k="name" v="Norsk Rikskringkasting" />
		<tag k="ssr:stedsnr" v="490067" />
	</node>
	<node id="-1316" lat="59.9355222256" lon="10.7671499979">
		<tag k="name" v="Torshov" />
		<tag k="place" v="suburb" />
		<tag k="ssr:stedsnr" v="490055" />
	</node>
	<node id="-1313" lat="59.9872055577" lon="10.6260388836">
		<tag k="alt_name" v="Ødegarden" />
		<tag k="name" v="Øgarden" />
		<tag k="place" v="farm" />
		<tag k="ssr:stedsnr" v="489133" />
	</node>
	<node id="-1309" lat="59.9283575428" lon="10.8736419654">
		<tag k="amenity" v="school" />
		<tag k="name" v="Holtet" />
		<tag k="ssr:stedsnr" v="489060" />
	</node>
	<node id="-1308" lat="59.9751722192" lon="10.665377776">
		<tag k="name" v="Voksenåsen" />
		<tag k="ssr:stedsnr" v="489047" />
		<tag k="tourism" v="hotel" />
	</node>
	<node id="-1304" lat="60.0392055545" lon="10.6150472158">
		<tag k="name" v="Gransetervollen" />
		<tag k="place" v="isolated_dwelling" />
		<tag k="ssr:stedsnr" v="484386" />
	</node>
	<node id="-1298" lat="59.9244722231" lon="10.8349694464">
		<tag k="name" v="Nordre Alna" />
		<tag k="place" v="quarter" />
		<tag k="ssr:stedsnr" v="327934" />
	</node>
	<node id="-1295" lat="59.9335361097" lon="10.871119442">
		<tag k="leisure" v="pitch" />
		<tag k="name" v="Furuset stadion" />
		<tag k="ssr:stedsnr" v="327709" />
	</node>
	<node id="-1294" lat="59.9070083353" lon="10.7899555531">
		<tag k="amenity" v="school" />
		<tag k="name" v="Vålerenga skole" />
		<tag k="ssr:stedsnr" v="327804" />
	</node>
	<node id="-1293" lat="59.9125027736" lon="10.7831222261">
		<tag k="amenity" v="school" />
		<tag k="name" v="Kampen skole" />
		<tag k="ssr:stedsnr" v="327802" />
	</node>
	<node id="-1292" lat="59.9228194404" lon="10.763769452">
		<tag k="leisure" v="park" />
		<tag k="name" v="Sofienbergparken" />
		<tag k="ssr:stedsnr" v="327618" />
	</node>
	<node id="-1291" lat="59.9515250005" lon="10.729375008">
		<tag k="name" v="Studenterbyen" />
		<tag k="place" v="quarter" />
		<tag k="ssr:stedsnr" v="327610" />
	</node>
	<node id="-1289" lat="59.8956055574" lon="10.8264694522">
		<tag k="amenity" v="sports_centre" />
		<tag k="name" v="Manglerudhallen" />
		<tag k="ssr:stedsnr" v="327430" />
	</node>
	<node id="-1286" lat="60.0505194472" lon="10.7570861025">
		<tag k="fixme" v="consider tourism=alpine_hut or tourism=chalet" />
		<tag k="name" v="Sellanrå" />
		<tag k="ssr:stedsnr" v="473318" />
		<tag k="tourism" v="wilderness_hut" />
	</node>
	<node id="-1282" lat="59.9127277735" lon="10.7460916649">
		<tag k="name" v="Oslo" />
		<tag k="place" v="town" />
		<tag k="ssr:stedsnr" v="307915" />
	</node>
	<node id="-1280" lat="59.9142999981" lon="10.6730944366">
		<tag k="name" v="Hengsenga" />
		<tag k="place" v="farm" />
		<tag k="ssr:stedsnr" v="307910" />
	</node>
	<node id="-1277" lat="59.9808753484" lon="10.612021131">
		<tag k="fixme" v="consider place=hamlet" />
		<tag k="name" v="Tangen" />
		<tag k="place" v="farm" />
		<tag k="ssr:stedsnr" v="307011" />
	</node>
	<node id="-1276" lat="59.9795861103" lon="10.6224277839">
		<tag k="name" v="Strøm" />
		<tag k="place" v="farm" />
		<tag k="ssr:stedsnr" v="307007" />
	</node>
	<node id="-1274" lat="59.977255552" lon="10.6554833415">
		<tag k="name" v="Lysebu" />
		<tag k="ssr:stedsnr" v="307003" />
		<tag k="tourism" v="hotel" />
	</node>
	<node id="-1271" lat="59.922405557" lon="10.6455750038">
		<tag k="name" v="Lilleaker" />
		<tag k="place" v="farm" />
		<tag k="ssr:stedsnr" v="302753" />
	</node>
	<node id="-1265" lat="59.9625611066" lon="10.6419972274">
		<tag k="name" v="Bogstad Camping" />
		<tag k="ssr:stedsnr" v="300825" />
		<tag k="tourism" v="camp_site" />
	</node>
	<node id="-1261" lat="60.0186999963" lon="10.5032388854">
		<tag k="name" v="Lomåshytta" />
		<tag k="place" v="isolated_dwelling" />
		<tag k="ssr:stedsnr" v="300058" />
	</node>
	<node id="-1253" lat="59.9412750037" lon="10.6340166657">
		<tag k="name" v="Nedre Luggerud" />
		<tag k="place" v="farm" />
		<tag k="ssr:stedsnr" v="464885" />
	</node>
	<node id="-1239" lat="59.9629194467" lon="10.7838333401">
		<tag k="name" v="Kjelsås" />
		<tag k="place" v="suburb" />
		<tag k="ssr:stedsnr" v="449598" />
	</node>
	<node id="-1236" lat="59.9226361106" lon="10.7046972281">
		<tag k="name" v="Frogner" />
		<tag k="place" v="suburb" />
		<tag k="ssr:stedsnr" v="247919" />
	</node>
	<node id="-1235" lat="59.825708334" lon="10.8103749963">
		<tag k="alt_name" v="Prinsdalsbråten" />
		<tag k="name" v="Prinsdalsbråtan" />
		<tag k="place" v="farm" />
		<tag k="ssr:stedsnr" v="247288" />
	</node>
	<node id="-1234" lat="59.826983337" lon="10.8660972276">
		<tag k="name" v="Store Stensrud" />
		<tag k="place" v="farm" />
		<tag k="ssr:stedsnr" v="247281" />
	</node>
	<node id="-1233" lat="59.8244388917" lon="10.8482666688">
		<tag k="alt_name" v="Langbråten" />
		<tag k="name" v="Langbråtan" />
		<tag k="old_name" v="Langebråten" />
		<tag k="place" v="farm" />
		<tag k="ssr:stedsnr" v="247276" />
	</node>
	<node id="-1232" lat="59.9436209523" lon="10.8890757191">
		<tag k="name" v="Soleglad" />
		<tag k="place" v="isolated_dwelling" />
		<tag k="ssr:stedsnr" v="448962" />
	</node>
	<node id="-1231" lat="59.9535140503" lon="10.8891668108">
		<tag k="name" v="Vestby" />
		<tag k="place" v="isolated_dwelling" />
		<tag k="ssr:stedsnr" v="448961" />
	</node>
	<node id="-1230" lat="59.9639527808" lon="10.8719611072">
		<tag k="name" v="Ammerud" />
		<tag k="place" v="suburb" />
		<tag k="ssr:stedsnr" v="448959" />
	</node>
	<node id="-1228" lat="59.9500194442" lon="10.8993166595">
		<tag k="alt_name" v="Haugen vestre" />
		<tag k="name" v="Vestre Haugen" />
		<tag k="place" v="farm" />
		<tag k="ssr:stedsnr" v="448952" />
	</node>
	<node id="-1224" lat="59.9250666636" lon="10.7328944421">
		<tag k="alt_name" v="Bislett idrettsplass" />
		<tag k="leisure" v="pitch" />
		<tag k="name" v="Bislett stadion" />
		<tag k="ssr:stedsnr" v="448771" />
	</node>
	<node id="-1223" lat="59.9712990144" lon="10.8142254719">
		<tag k="leisure" v="pitch" />
		<tag k="name" v="Linderudkollen idrettsanlegg" />
		<tag k="ssr:stedsnr" v="448769" />
	</node>
	<node id="-1222" lat="59.9232444436" lon="10.8634888811">
		<tag k="amenity" v="school" />
		<tag k="name" v="Haukåsen skole" />
		<tag k="ssr:stedsnr" v="448885" />
	</node>
	<node id="-1221" lat="59.9583027775" lon="10.8836666721">
		<tag k="amenity" v="school" />
		<tag k="name" v="Grorud skole" />
		<tag k="ssr:stedsnr" v="448881" />
	</node>
	<node id="-1220" lat="59.9485911804" lon="10.7813742229">
		<tag k="amenity" v="school" />
		<tag k="name" v="Morellbakken skole" />
		<tag k="old_name" v="Grefsen videregående skole" />
		<tag k="ssr:stedsnr" v="448875" />
	</node>
	<node id="-1219" lat="59.8990527805" lon="10.8022611062">
		<tag k="amenity" v="school" />
		<tag k="name" v="Ryenberget skole" />
		<tag k="ssr:stedsnr" v="448870" />
	</node>
	<node id="-1218" lat="59.9154777737" lon="10.7353305642">
		<tag k="alt_name" v="Universitetet" />
		<tag k="amenity" v="university" />
		<tag k="name" v="Universitetet i Oslo" />
		<tag k="ssr:stedsnr" v="448855" />
	</node>
	<node id="-1217" lat="59.9348222183" lon="10.8742777845">
		<tag k="name" v="Kaggen" />
		<tag k="place" v="farm" />
		<tag k="ssr:stedsnr" v="448700" />
	</node>
	<node id="-1216" lat="59.9214749967" lon="10.7210333328">
		<tag k="leisure" v="park" />
		<tag k="name" v="Uranienborgparken" />
		<tag k="ssr:stedsnr" v="448693" />
	</node>
	<node id="-1215" lat="59.9058027788" lon="10.7687222282">
		<tag k="leisure" v="park" />
		<tag k="name" v="Minneparken" />
		<tag k="ssr:stedsnr" v="448691" />
	</node>
	<node id="-1210" lat="59.9241472245" lon="10.8807638825">
		<tag k="name" v="Plassen" />
		<tag k="place" v="isolated_dwelling" />
		<tag k="ssr:stedsnr" v="448761" />
	</node>
	<node id="-1206" lat="59.9651583356" lon="10.7323638879">
		<tag k="name" v="Studentbyen" />
		<tag k="place" v="quarter" />
		<tag k="ssr:stedsnr" v="448731" />
	</node>
	<node id="-1205" lat="59.9639250024" lon="10.7526444424">
		<tag k="amenity" v="school" />
		<tag k="name" v="Korsvoll skole" />
		<tag k="ssr:stedsnr" v="448728" />
	</node>
	<node id="-1204" lat="59.8837249964" lon="10.8490305558">
		<tag k="amenity" v="school" />
		<tag k="name" v="Bøler skole" />
		<tag k="ssr:stedsnr" v="448394" />
	</node>
	<node id="-1203" lat="59.8954027755" lon="10.8401249919">
		<tag k="name" v="Oppsal" />
		<tag k="place" v="suburb" />
		<tag k="ssr:stedsnr" v="448392" />
	</node>
	<node id="-1202" lat="59.8636472238" lon="10.9086888967">
		<tag k="name" v="Pettersbråtan" />
		<tag k="place" v="locality" />
		<tag k="ssr:stedsnr" v="448279" />
	</node>
	<node id="-1198" lat="59.8532111129" lon="10.8388722241">
		<tag k="name" v="Nordre Dal" />
		<tag k="place" v="farm" />
		<tag k="ssr:stedsnr" v="448248" />
	</node>
	<node id="-1195" lat="60.0184583352" lon="10.792850006">
		<tag k="name" v="Myrvoll" />
		<tag k="place" v="farm" />
		<tag k="ssr:stedsnr" v="448224" />
	</node>
	<node id="-1192" lat="59.8353277734" lon="10.8127138875">
		<tag k="name" v="Høydal" />
		<tag k="place" v="farm" />
		<tag k="ssr:stedsnr" v="448093" />
	</node>
	<node id="-1191" lat="59.8474047999" lon="10.801742321">
		<tag k="name" v="Ljosheim" />
		<tag k="place" v="isolated_dwelling" />
		<tag k="ssr:stedsnr" v="448088" />
	</node>
	<node id="-1190" lat="59.8407666636" lon="10.7821277854">
		<tag k="name" v="Øvre Ljan" />
		<tag k="place" v="farm" />
		<tag k="ssr:stedsnr" v="448084" />
	</node>
	<node id="-1184" lat="60.0225444439" lon="10.6151666705">
		<tag k="name" v="Søndre Åmot" />
		<tag k="place" v="farm" />
		<tag k="ssr:stedsnr" v="239213" />
	</node>
	<node id="-1182" lat="59.9288277749" lon="10.7132111145">
		<tag k="alt_name" v="Majorstua skole" />
		<tag k="amenity" v="school" />
		<tag k="name" v="Majorstuen skole" />
		<tag k="ssr:stedsnr" v="229854" />
	</node>
	<node id="-1176" lat="59.9831777786" lon="10.8189166736">
		<tag k="name" v="Myrvang" />
		<tag k="place" v="locality" />
		<tag k="ssr:stedsnr" v="206177" />
	</node>
	<node id="-1172" lat="59.993600004" lon="10.6230250028">
		<tag k="name" v="Bakk" />
		<tag k="place" v="farm" />
		<tag k="ssr:stedsnr" v="186118" />
	</node>
	<node id="-1171" lat="59.9138611116" lon="10.7315750086">
		<tag k="name" v="Vika" />
		<tag k="place" v="suburb" />
		<tag k="ssr:stedsnr" v="186103" />
	</node>
	<node id="-1170" lat="59.998080553" lon="10.6683777745">
		<tag k="amenity" v="cafe" />
		<tag k="name" v="Tryvannsstua" />
		<tag k="old_name" v="Tryvannstua" />
		<tag k="ssr:stedsnr" v="186102" />
	</node>
	<node id="-1168" lat="59.8710750032" lon="10.7957166597">
		<tag k="name" v="Nordseter" />
		<tag k="place" v="suburb" />
		<tag k="ssr:stedsnr" v="286019" />
	</node>
	<node id="-1162" lat="60.0271027781" lon="10.7988972181">
		<tag k="name" v="Lauvlund" />
		<tag k="place" v="isolated_dwelling" />
		<tag k="ssr:stedsnr" v="178056" />
	</node>
	<node id="-1161" lat="60.0239555552" lon="10.7029694396">
		<tag k="name" v="Skjersjøhytta" />
		<tag k="place" v="isolated_dwelling" />
		<tag k="ssr:stedsnr" v="284247" />
	</node>
	<node id="-1160" lat="59.9857111084" lon="10.630525003">
		<tag k="name" v="Mælum" />
		<tag k="place" v="farm" />
		<tag k="ssr:stedsnr" v="284229" />
	</node>
	<node id="-1153" lat="59.9410194401" lon="10.7094361181">
		<tag k="fixme" v="consider place=hamlet" />
		<tag k="name" v="Vinderen" />
		<tag k="old_name" v="Vindern" />
		<tag k="place" v="farm" />
		<tag k="ssr:stedsnr" v="282846" />
	</node>
	<node id="-1152" lat="59.959600001" lon="10.6539583314">
		<tag k="name" v="Voksen" />
		<tag k="place" v="village" />
		<tag k="ssr:stedsnr" v="282839" />
	</node>
	<node id="-1146" lat="59.9027138906" lon="10.7403749969">
		<tag k="building" v="commercial" />
		<tag k="name" v="Fiskehallen" />
		<tag k="ssr:stedsnr" v="145760" />
	</node>
	<node id="-1145" lat="59.9232527808" lon="10.7683999934">
		<tag k="amenity" v="nursing_home" />
		<tag k="name" v="Sofienberghjemmet" />
		<tag k="ssr:stedsnr" v="145820" />
	</node>
	<node id="-1143" lat="59.927455558" lon="10.7942944434">
		<tag k="building" v="commercial" />
		<tag k="name" v="A/S Vinmonopolet" />
		<tag k="ssr:stedsnr" v="145816" />
	</node>
	<node id="-1141" lat="59.8318361097" lon="10.8004611086">
		<tag k="amenity" v="school" />
		<tag k="name" v="Toppåsen skole" />
		<tag k="ssr:stedsnr" v="144036" />
	</node>
	<node id="-1140" lat="59.9488916665" lon="10.8591694508">
		<tag k="amenity" v="prison" />
		<tag k="name" v="Bredtveit fengsel, forvarings- og sikringsanstalt" />
		<tag k="ssr:stedsnr" v="267792" />
	</node>
	<node id="-1138" lat="60.0159833329" lon="10.7955555586">
		<tag k="name" v="Hagaløkka" />
		<tag k="place" v="farm" />
		<tag k="ssr:stedsnr" v="267154" />
	</node>
	<node id="-1137" lat="60.006800003" lon="10.7640722304">
		<tag k="name" v="Sagbakken" />
		<tag k="place" v="farm" />
		<tag k="ssr:stedsnr" v="267146" />
	</node>
	<node id="-1136" lat="59.9049037197" lon="10.7974573371">
		<tag k="name" v="Nygård" />
		<tag k="place" v="farm" />
		<tag k="ssr:stedsnr" v="266970" />
	</node>
	<node id="-1135" lat="59.9141926656" lon="10.7968805879">
		<tag k="building" v="commercial" />
		<tag k="name" v="Grønvoll" />
		<tag k="ssr:stedsnr" v="266968" />
	</node>
	<node id="-1134" lat="59.9287861076" lon="10.837697225">
		<tag k="name" v="Alnabru" />
		<tag k="place" v="quarter" />
		<tag k="ssr:stedsnr" v="266963" />
	</node>
	<node id="-1133" lat="59.9169888907" lon="10.8013611044">
		<tag k="name" v="Valle" />
		<tag k="place" v="suburb" />
		<tag k="ssr:stedsnr" v="266960" />
	</node>
	<node id="-1131" lat="59.9286472183" lon="10.8773388966">
		<tag k="amenity" v="school" />
		<tag k="name" v="Skjønnhaug skole" />
		<tag k="ssr:stedsnr" v="266871" />
	</node>
	<node id="-1130" lat="59.8996499996" lon="10.8139694517">
		<tag k="amenity" v="school" />
		<tag k="name" v="Høyenhall skole" />
		<tag k="ssr:stedsnr" v="266862" />
	</node>
	<node id="-1129" lat="59.9164972206" lon="10.758330557">
		<tag k="amenity" v="hospital" />
		<tag k="name" v="Krohgstøtten sykehus" />
		<tag k="ssr:stedsnr" v="266856" />
	</node>
	<node id="-1126" lat="59.979852777" lon="10.7565388884">
		<tag k="name" v="Berg" />
		<tag k="place" v="isolated_dwelling" />
		<tag k="ssr:stedsnr" v="266824" />
	</node>
	<node id="-1125" lat="59.927005559" lon="10.8178277701">
		<tag k="building" v="industrial" />
		<tag k="industrial" v="factory" />
		<tag k="name" v="Standard Telefon og Kabelfabrik A/S" />
		<tag k="ssr:stedsnr" v="266821" />
	</node>
	<node id="-1124" lat="59.9537861135" lon="10.7513083406">
		<tag k="amenity" v="school" />
		<tag k="name" v="Tåsen skole" />
		<tag k="ssr:stedsnr" v="266817" />
	</node>
	<node id="-1123" lat="59.9334555589" lon="10.7726611086">
		<tag k="amenity" v="school" />
		<tag k="name" v="Torshov skole" />
		<tag k="ssr:stedsnr" v="266802" />
	</node>
	<node id="-1122" lat="59.9595277801" lon="10.7205083275">
		<tag k="name" v="Tangerud" />
		<tag k="place" v="farm" />
		<tag k="ssr:stedsnr" v="266796" />
	</node>
	<node id="-1105" lat="59.9348527804" lon="10.9109000036">
		<tag k="landuse" v="military" />
		<tag k="name" v="Skansen" />
		<tag k="ssr:stedsnr" v="266686" />
	</node>
	<node id="-1104" lat="59.9625888934" lon="10.7702722162">
		<tag k="name" v="Svensenga" />
		<tag k="place" v="farm" />
		<tag k="ssr:stedsnr" v="266662" />
	</node>
	<node id="-1103" lat="59.9113055599" lon="10.806508326">
		<tag k="name" v="Helsfyr industrifelt" />
		<tag k="place" v="quarter" />
		<tag k="ssr:stedsnr" v="266647" />
	</node>
	<node id="-1102" lat="59.9155361149" lon="10.7806972158">
		<tag k="leisure" v="park" />
		<tag k="name" v="Kampen park" />
		<tag k="ssr:stedsnr" v="266646" />
	</node>
	<node id="-1101" lat="59.9407805588" lon="10.7562833257">
		<tag k="leisure" v="park" />
		<tag k="name" v="Bjølsenparken" />
		<tag k="ssr:stedsnr" v="266644" />
	</node>
	<node id="-1100" lat="59.9697694473" lon="10.7797750034">
		<tag k="name" v="Brekkestranda" />
		<tag k="place" v="locality" />
		<tag k="ssr:stedsnr" v="266643" />
	</node>
	<node id="-1097" lat="59.8598166629" lon="10.795033331">
		<tag k="amenity" v="school" />
		<tag k="name" v="Nordstrand videregående skole" />
		<tag k="ssr:stedsnr" v="266565" />
	</node>
	<node id="-1096" lat="59.8687583367" lon="10.7820416742">
		<tag k="fixme" v="consider natural=beach + surface=sand" />
		<tag k="leisure" v="swimming_area" />
		<tag k="name" v="Nordstrand bad" />
		<tag k="place" v="locality" />
		<tag k="ssr:stedsnr" v="266514" />
	</node>
	<node id="-1088" lat="59.8714472186" lon="10.8384833265">
		<tag k="amenity" v="school" />
		<tag k="name" v="Rustad skole" />
		<tag k="ssr:stedsnr" v="266291" />
	</node>
	<node id="-1081" lat="60.025813886" lon="10.7783972285">
		<tag k="name" v="Dalheim" />
		<tag k="place" v="farm" />
		<tag k="ssr:stedsnr" v="266214" />
	</node>
	<node id="-1080" lat="59.8254472198" lon="10.8366666681">
		<tag k="amenity" v="school" />
		<tag k="name" v="Bjørndal skole" />
		<tag k="ssr:stedsnr" v="266182" />
	</node>
	<node id="-1079" lat="59.8511722266" lon="10.8385944494">
		<tag k="name" v="Søndre Dal" />
		<tag k="place" v="farm" />
		<tag k="ssr:stedsnr" v="266159" />
	</node>
	<node id="-1077" lat="59.8108888856" lon="10.8575055533">
		<tag k="name" v="Elgesrud" />
		<tag k="place" v="locality" />
		<tag k="ssr:stedsnr" v="266137" />
	</node>
	<node id="-1076" lat="60.0181472177" lon="10.5776888958">
		<tag k="alt_name" v="Berger søndre" />
		<tag k="name" v="Søndre Berger" />
		<tag k="place" v="farm" />
		<tag k="ssr:stedsnr" v="127904" />
	</node>
	<node id="-1074" lat="60.0274249992" lon="10.7731416618">
		<tag k="alt_name" v="Steinbråten" />
		<tag k="name" v="Steinbråtan" />
		<tag k="place" v="farm" />
		<tag k="ssr:stedsnr" v="127424" />
	</node>
	<node id="-1068" lat="59.9602527798" lon="10.8814083355">
		<tag k="name" v="Grorud" />
		<tag k="place" v="suburb" />
		<tag k="ssr:stedsnr" v="86955" />
	</node>
	<node id="-1067" lat="59.956611113" lon="10.8774888848">
		<tag k="name" v="Nedre Grorud" />
		<tag k="place" v="quarter" />
		<tag k="ssr:stedsnr" v="86812" />
	</node>
	<node id="-1064" lat="59.9072166692" lon="10.7797999963">
		<tag k="name" v="Galgeberg" />
		<tag k="place" v="suburb" />
		<tag k="ssr:stedsnr" v="84975" />
	</node>
	<node id="-1061" lat="59.9099277757" lon="10.725041662">
		<tag k="name" v="Aker brygge" />
		<tag k="place" v="suburb" />
		<tag k="ssr:stedsnr" v="84762" />
	</node>
	<node id="-1059" lat="59.9060305541" lon="10.8464416651">
		<tag k="amenity" v="sports_centre" />
		<tag k="name" v="Trasopphallen" />
		<tag k="ssr:stedsnr" v="84754" />
	</node>
	<node id="-1058" lat="59.937497222" lon="10.7190472211">
		<tag k="alt_name" v="Universitetet" />
		<tag k="amenity" v="university" />
		<tag k="name" v="Universitetet i Oslo" />
		<tag k="ssr:stedsnr" v="84823" />
	</node>
	<node id="-1057" lat="59.9332611138" lon="10.7431388893">
		<tag k="amenity" v="school" />
		<tag k="name" v="Tannlegehøgskole" />
		<tag k="ssr:stedsnr" v="84821" />
	</node>
	<node id="-1051" lat="59.9270861119" lon="10.8128666595">
		<tag k="name" v="Mellom-Hovin" />
		<tag k="place" v="quarter" />
		<tag k="ssr:stedsnr" v="84802" />
	</node>
	<node id="-1050" lat="59.9187749961" lon="10.7282388803">
		<tag k="leisure" v="park" />
		<tag k="name" v="Slottsparken" />
		<tag k="ssr:stedsnr" v="84675" />
	</node>
	<node id="-1049" lat="59.979205558" lon="10.9237222244">
		<tag k="name" v="Franzefoss bruk" />
		<tag k="place" v="quarter" />
		<tag k="ssr:stedsnr" v="84670" />
	</node>
	<node id="-1041" lat="59.8714194447" lon="10.9024555557">
		<tag k="name" v="Gamle Gullsmeden" />
		<tag k="place" v="locality" />
		<tag k="ssr:stedsnr" v="84274" />
	</node>
	<node id="-1040" lat="59.8330951714" lon="10.8585364028">
		<tag k="name" v="Solli" />
		<tag k="place" v="isolated_dwelling" />
		<tag k="ssr:stedsnr" v="84210" />
	</node>
	<node id="-1039" lat="60.0367722185" lon="10.5993277713">
		<tag k="name" v="Kjelsås" />
		<tag k="place" v="farm" />
		<tag k="ssr:stedsnr" v="248994" />
	</node>
	<node id="-1035" lat="60.020244447" lon="10.5559333275">
		<tag k="alt_name" v="Lyse, øvre" />
		<tag k="name" v="Øvre Lyse" />
		<tag k="place" v="farm" />
		<tag k="ssr:stedsnr" v="248915" />
	</node>
	<node id="-1034" lat="60.0186194441" lon="10.5763444529">
		<tag k="name" v="Venneråsen" />
		<tag k="place" v="farm" />
		<tag k="ssr:stedsnr" v="248911" />
	</node>
	<node id="-1032" lat="60.0141083375" lon="10.6387222208">
		<tag k="name" v="Grøttum" />
		<tag k="place" v="farm" />
		<tag k="ssr:stedsnr" v="248901" />
	</node>
	<node id="-1031" lat="60.017097219" lon="10.6212333253">
		<tag k="name" v="Brenna" />
		<tag k="place" v="farm" />
		<tag k="ssr:stedsnr" v="248898" />
	</node>
	<node id="-1030" lat="60.0162055567" lon="10.633638897">
		<tag k="alt_name" v="Grøttumsbråten" />
		<tag k="name" v="Grøttumsbråtan" />
		<tag k="old_name" v="Gröttomsbraatan" />
		<tag k="place" v="farm" />
		<tag k="ssr:stedsnr" v="248897" />
	</node>
	<node id="-1026" lat="60.0473444478" lon="10.8134861174">
		<tag k="name" v="Lørenskog" />
		<tag k="place" v="farm" />
		<tag k="ssr:stedsnr" v="248449" />
	</node>
	<node id="-1021" lat="60.0264055514" lon="10.7805333255">
		<tag k="name" v="Hallset" />
		<tag k="place" v="isolated_dwelling" />
		<tag k="ssr:stedsnr" v="248386" />
	</node>
	<node id="-1020" lat="60.0118694438" lon="10.7703916657">
		<tag k="name" v="Turter" />
		<tag k="place" v="locality" />
		<tag k="ssr:stedsnr" v="248353" />
	</node>
	<node id="-1019" lat="60.0007111088" lon="10.7912888807">
		<tag k="fixme" v="multiple name tags, choose one and add the other to alt_name" />
		<tag k="name" v="Berntsberg;Sagstua" />
		<tag k="place" v="farm" />
		<tag k="ssr:stedsnr" v="248337" />
	</node>
	<node id="-1012" lat="59.9981083351" lon="10.7791722217">
		<tag k="name" v="Nes" />
		<tag k="place" v="farm" />
		<tag k="ssr:stedsnr" v="247602" />
	</node>
	<node id="-1010" lat="59.9689749991" lon="10.9247583333">
		<tag k="alt_name" v="Holen, nordre" />
		<tag k="name" v="Nordre Holen" />
		<tag k="place" v="locality" />
		<tag k="ssr:stedsnr" v="247523" />
	</node>
	<node id="-1009" lat="59.9616555515" lon="10.8059861084">
		<tag k="amenity" v="cafe" />
		<tag k="loc_name" v="Trollvannstua" />
		<tag k="name" v="Trollvannsstua" />
		<tag k="old_name" v="Trollvasstua" />
		<tag k="ssr:stedsnr" v="247492" />
	</node>
	<node id="-1007" lat="59.9587583342" lon="10.8037777863">
		<tag k="alt_name" v="Grefsenkollen Sportsstue" />
		<tag k="amenity" v="cafe" />
		<tag k="name" v="Grefsenkollen" />
		<tag k="ssr:stedsnr" v="247476" />
	</node>
	<node id="-1006" lat="59.9560776972" lon="10.848503649">
		<tag k="name" v="Sandås" />
		<tag k="place" v="locality" />
		<tag k="ssr:stedsnr" v="247474" />
	</node>
	<node id="-1005" lat="59.842214377" lon="10.828592802">
		<tag k="name" v="Fagerli" />
		<tag k="place" v="quarter" />
		<tag k="ssr:stedsnr" v="247235" />
	</node>
	<node id="-1004" lat="59.8451222255" lon="10.8346638979">
		<tag k="name" v="Lofsrud" />
		<tag k="place" v="farm" />
		<tag k="ssr:stedsnr" v="247234" />
	</node>
	<node id="-1000" lat="59.8712833294" lon="10.7955277718">
		<tag k="alt_name" v="Nordsæter" />
		<tag k="name" v="Nordseter" />
		<tag k="place" v="farm" />
		<tag k="ssr:stedsnr" v="247126" />
	</node>
	<node id="-997" lat="59.9121777753" lon="10.7628138859">
		<tag k="name" v="Grønland" />
		<tag k="place" v="suburb" />
		<tag k="ssr:stedsnr" v="247082" />
	</node>
	<node id="-995" lat="59.9406250013" lon="10.7230722234">
		<tag k="name" v="Blindern" />
		<tag k="place" v="suburb" />
		<tag k="ssr:stedsnr" v="247038" />
	</node>
	<node id="-994" lat="59.9271972264" lon="10.7415222305">
		<tag k="alt_name" v="St Hanshaugen" />
		<tag k="leisure" v="park" />
		<tag k="name" v="St. Hanshaugen" />
		<tag k="ssr:stedsnr" v="247005" />
	</node>
	<node id="-985" lat="59.9746750002" lon="10.6303222271">
		<tag k="name" v="Jegersborg" />
		<tag k="place" v="farm" />
		<tag k="ssr:stedsnr" v="65005" />
	</node>
	<node id="-983" lat="59.8691777787" lon="10.8549027744">
		<tag k="alt_name" v="Hullet" />
		<tag k="name" v="Holet" />
		<tag k="place" v="farm" />
		<tag k="ssr:stedsnr" v="65124" />
	</node>
	<node id="-980" lat="59.9921527803" lon="10.6186861174">
		<tag k="name" v="Årnes" />
		<tag k="place" v="farm" />
		<tag k="ssr:stedsnr" v="65107" />
	</node>
	<node id="-974" lat="59.9741083371" lon="10.639127779">
		<tag k="name" v="Nordre Skuggen" />
		<tag k="place" v="farm" />
		<tag k="ssr:stedsnr" v="240825" />
	</node>
	<node id="-969" lat="59.9313416699" lon="10.7138777866">
		<tag k="amenity" v="university" />
		<tag k="name" v="Politihøgskolen" />
		<tag k="old_name" v="Politiskolen" />
		<tag k="ssr:stedsnr" v="239976" />
	</node>
	<node id="-968" lat="59.9147111108" lon="10.7006249972">
		<tag k="leisure" v="park" />
		<tag k="name" v="Skarpsnoparkene" />
		<tag k="ssr:stedsnr" v="59780" />
	</node>
	<node id="-967" lat="59.9373305553" lon="10.6385305619">
		<tag k="amenity" v="school" />
		<tag k="name" v="Lysejordet skole" />
		<tag k="ssr:stedsnr" v="59762" />
	</node>
	<node id="-965" lat="59.925913886" lon="10.6386111059">
		<tag k="amenity" v="school" />
		<tag k="name" v="Øraker skole" />
		<tag k="ssr:stedsnr" v="59758" />
	</node>
	<node id="-961" lat="60.0111777766" lon="10.6147916671">
		<tag k="name" v="Harehaugen" />
		<tag k="place" v="farm" />
		<tag k="ssr:stedsnr" v="239027" />
	</node>
	<node id="-958" lat="59.9747416675" lon="10.6970361191">
		<tag k="name" v="Bloksbjerg" />
		<tag k="place" v="isolated_dwelling" />
		<tag k="ssr:stedsnr" v="58886" />
	</node>
	<node id="-956" lat="59.9129500025" lon="10.7399361035">
		<tag k="amenity" v="townhall" />
		<tag k="name" v="Stortinget" />
		<tag k="ssr:stedsnr" v="238370" />
	</node>
	<node id="-953" lat="59.9168055574" lon="10.6857944421">
		<tag k="alt_name" v="Seterhytten" />
		<tag k="name" v="Seterhytta" />
		<tag k="place" v="isolated_dwelling" />
		<tag k="ssr:stedsnr" v="56313" />
	</node>
	<node id="-941" lat="59.9096277741" lon="10.7749027791">
		<tag k="amenity" v="prison" />
		<tag k="name" v="Oslo fengsel" />
		<tag k="ssr:stedsnr" v="233213" />
	</node>
	<node id="-937" lat="59.9230972189" lon="10.7955666706">
		<tag k="name" v="Teglverkstomta" />
		<tag k="place" v="quarter" />
		<tag k="ssr:stedsnr" v="24640" />
	</node>
	<node id="-935" lat="59.9880722216" lon="10.8069944503">
		<tag k="name" v="Gresstua" />
		<tag k="place" v="locality" />
		<tag k="ssr:stedsnr" v="24142" />
	</node>
	<node id="-934" lat="59.9880250013" lon="10.8002805643">
		<tag k="alt_name" v="Sanderstua (nedl.)" />
		<tag k="name" v="Sanderstua" />
		<tag k="place" v="locality" />
		<tag k="ssr:stedsnr" v="24140" />
	</node>
	<node id="-932" lat="59.9750194406" lon="10.7613472238">
		<tag k="name" v="Skogly" />
		<tag k="place" v="isolated_dwelling" />
		<tag k="ssr:stedsnr" v="23726" />
	</node>
	<node id="-931" lat="59.9598027776" lon="10.7491472237">
		<tag k="name" v="Nilserud" />
		<tag k="place" v="locality" />
		<tag k="ssr:stedsnr" v="23826" />
	</node>
	<node id="-930" lat="59.9422027794" lon="10.7528250016">
		<tag k="leisure" v="pitch" />
		<tag k="name" v="Voldsløkka" />
		<tag k="ssr:stedsnr" v="23818" />
	</node>
	<node id="-928" lat="59.8814638891" lon="10.8261250066">
		<tag k="amenity" v="school" />
		<tag k="name" v="Abildsø skole" />
		<tag k="ssr:stedsnr" v="23523" />
	</node>
	<node id="-927" lat="59.8878444471" lon="10.7822222174">
		<tag k="amenity" v="school" />
		<tag k="name" v="Brannfjell skole" />
		<tag k="ssr:stedsnr" v="23519" />
	</node>
	<node id="-926" lat="59.8793166673" lon="10.8096250069">
		<tag k="amenity" v="school" />
		<tag k="name" v="Lambertseter videregående skole" />
		<tag k="ssr:stedsnr" v="23516" />
	</node>
	<node id="-925" lat="59.8949777817" lon="10.7840499914">
		<tag k="amenity" v="school" />
		<tag k="name" v="Ekeberg skole" />
		<tag k="ssr:stedsnr" v="23515" />
	</node>
	<node id="-924" lat="59.8765138904" lon="10.8316055587">
		<tag k="name" v="Bakkehavn" />
		<tag k="place" v="farm" />
		<tag k="ssr:stedsnr" v="23513" />
	</node>
	<node id="-922" lat="59.8639472196" lon="10.904572223">
		<tag k="name" v="Bakken" />
		<tag k="place" v="locality" />
		<tag k="ssr:stedsnr" v="23306" />
	</node>
	<node id="-919" lat="59.8887861155" lon="10.8614777788">
		<tag k="name" v="Bjerke" />
		<tag k="place" v="farm" />
		<tag k="ssr:stedsnr" v="23412" />
	</node>
	<node id="-917" lat="59.8302305547" lon="10.8469888875">
		<tag k="name" v="Nedre Gjersrud" />
		<tag k="place" v="farm" />
		<tag k="ssr:stedsnr" v="23219" />
	</node>
	<node id="-913" lat="60.0516500015" lon="10.6891666698">
		<tag k="alt_name" v="Bjørnholt skole" />
		<tag k="amenity" v="school" />
		<tag k="name" v="Nordmarka skole" />
		<tag k="ssr:stedsnr" v="223828" />
	</node>
	<node id="-911" lat="59.9550527776" lon="10.6527638933">
		<tag k="amenity" v="school" />
		<tag k="name" v="Voksen skole" />
		<tag k="ssr:stedsnr" v="222844" />
	</node>
	<node id="-2202" lat="59.9060954528" lon="10.7376704103">
		<tag k="name" v="Akershus" />
		<tag k="place" v="suburb" />
		<tag k="ssr:stedsnr" v="985387" />
	</node>
	<node id="-2198" lat="59.9462052584" lon="10.7029687741">
		<tag k="name" v="Ris" />
		<tag k="place" v="quarter" />
		<tag k="ssr:stedsnr" v="984370" />
	</node>
	<node id="-2196" lat="59.9180511455" lon="10.638446305">
		<tag k="name" v="Hareåsen" />
		<tag k="place" v="farm" />
		<tag k="ssr:stedsnr" v="976384" />
	</node>
	<node id="-2195" lat="59.9161019984" lon="10.6410835089">
		<tag k="name" v="Kirkehaugen" />
		<tag k="place" v="farm" />
		<tag k="ssr:stedsnr" v="976383" />
	</node>
	<node id="-2194" lat="59.9161505128" lon="10.6378589781">
		<tag k="name" v="Granbakken" />
		<tag k="place" v="farm" />
		<tag k="ssr:stedsnr" v="976382" />
	</node>
	<node id="-2193" lat="59.9364138931" lon="10.7044749993">
		<tag k="alt_name" v="Diakonhjemmets sykehus" />
		<tag k="amenity" v="hospital" />
		<tag k="name" v="Diakonhjemmet sykehus" />
		<tag k="ssr:stedsnr" v="969757" />
	</node>
	<node id="-2184" lat="59.9466777821" lon="10.925519448">
		<tag k="amenity" v="school" />
		<tag k="name" v="Høybråten skole" />
		<tag k="ssr:stedsnr" v="934829" />
	</node>
	<node id="-2183" lat="59.916786108" lon="10.7587777724">
		<tag k="amenity" v="hospital" />
		<tag k="name" v="Legevakten" />
		<tag k="ssr:stedsnr" v="934825" />
	</node>
	<node id="-2182" lat="59.9623611079" lon="10.894097229">
		<tag k="amenity" v="school" />
		<tag k="name" v="Tiurleiken skole" />
		<tag k="ssr:stedsnr" v="934819" />
	</node>
	<node id="-2180" lat="60.0512999959" lon="10.7612555489">
		<tag k="fixme" v="consider tourism=alpine_hut or tourism=chalet" />
		<tag k="name" v="Tømtehytta" />
		<tag k="ssr:stedsnr" v="934805" />
		<tag k="tourism" v="wilderness_hut" />
	</node>
	<node id="-2179" lat="59.9204666699" lon="10.820777777">
		<tag k="name" v="Nordre Fjellhus" />
		<tag k="place" v="farm" />
		<tag k="ssr:stedsnr" v="934752" />
	</node>
	<node id="-2178" lat="59.9393222258" lon="10.7799166645">
		<tag k="amenity" v="nursing_home" />
		<tag k="name" v="Åsen" />
		<tag k="ssr:stedsnr" v="934748" />
	</node>
	<node id="-2175" lat="59.9309027755" lon="10.8087305616">
		<tag k="amenity" v="nursing_home" />
		<tag k="name" v="Økern alders- og sykehjem" />
		<tag k="ssr:stedsnr" v="934728" />
	</node>
	<node id="-2173" lat="59.9453277785" lon="10.8768083266">
		<tag k="name" v="Brubak" />
		<tag k="place" v="farm" />
		<tag k="ssr:stedsnr" v="934620" />
	</node>
	<node id="-2172" lat="59.92884167" lon="10.7307138885">
		<tag k="leisure" v="park" />
		<tag k="name" v="Stensparken" />
		<tag k="ssr:stedsnr" v="934616" />
	</node>
	<node id="-2171" lat="59.8834333375" lon="10.843752783">
		<tag k="name" v="Bøler" />
		<tag k="place" v="suburb" />
		<tag k="ssr:stedsnr" v="934319" />
	</node>
	<node id="-2168" lat="59.8693777796" lon="10.8954499984">
		<tag k="name" v="Høyås" />
		<tag k="place" v="locality" />
		<tag k="ssr:stedsnr" v="934223" />
	</node>
	<node id="-2167" lat="59.8342500003" lon="10.8460222275">
		<tag k="name" v="Tjernli" />
		<tag k="place" v="isolated_dwelling" />
		<tag k="ssr:stedsnr" v="934212" />
	</node>
	<node id="-2150" lat="59.9750722196" lon="10.9215749947">
		<tag k="name" v="Bånkall" />
		<tag k="place" v="farm" />
		<tag k="ssr:stedsnr" v="915519" />
	</node>
	<node id="-2149" lat="59.9504361108" lon="10.9457222292">
		<tag k="name" v="Tangerud" />
		<tag k="place" v="farm" />
		<tag k="ssr:stedsnr" v="915507" />
	</node>
	<node id="-2147" lat="60.0034111145" lon="10.7716361191">
		<tag k="name" v="Kasa" />
		<tag k="place" v="farm" />
		<tag k="ssr:stedsnr" v="915327" />
	</node>
	<node id="-2146" lat="60.0010638848" lon="10.7846000057">
		<tag k="name" v="Vestby" />
		<tag k="place" v="farm" />
		<tag k="ssr:stedsnr" v="915326" />
	</node>
	<node id="-2145" lat="60.0068166691" lon="10.7682888944">
		<tag k="name" v="Mosan" />
		<tag k="place" v="farm" />
		<tag k="ssr:stedsnr" v="915324" />
	</node>
	<node id="-2143" lat="59.8176555525" lon="10.8458777828">
		<tag k="name" v="Åsland" />
		<tag k="place" v="isolated_dwelling" />
		<tag k="ssr:stedsnr" v="915264" />
	</node>
	<node id="-2142" lat="59.8427361071" lon="10.8167222257">
		<tag k="name" v="Bjørnerud" />
		<tag k="place" v="farm" />
		<tag k="ssr:stedsnr" v="915216" />
	</node>
	<node id="-2137" lat="59.9404120742" lon="10.9019095557">
		<tag k="fixme" v="consider place=hamlet" />
		<tag k="name" v="Gran" />
		<tag k="place" v="farm" />
		<tag k="ssr:stedsnr" v="915057" />
	</node>
	<node id="-2136" lat="59.8713777747" lon="10.8566888886">
		<tag k="alt_name" v="Løkken" />
		<tag k="name" v="Løkka" />
		<tag k="place" v="farm" />
		<tag k="ssr:stedsnr" v="915131" />
	</node>
	<node id="-2134" lat="59.9023555522" lon="10.7717722136">
		<tag k="name" v="Gamlebyen" />
		<tag k="place" v="suburb" />
		<tag k="ssr:stedsnr" v="915111" />
	</node>
	<node id="-2133" lat="59.90786389" lon="10.7887138964">
		<tag k="name" v="Vålerenga" />
		<tag k="place" v="suburb" />
		<tag k="ssr:stedsnr" v="915110" />
	</node>
	<node id="-2115" lat="60.0499888924" lon="10.6400888835">
		<tag k="name" v="Sakariashytta" />
		<tag k="place" v="isolated_dwelling" />
		<tag k="ssr:stedsnr" v="950342" />
	</node>
	<node id="-2110" lat="59.9596147041" lon="10.8857799674">
		<tag k="name" v="Grorudhaugen" />
		<tag k="place" v="quarter" />
		<tag k="ssr:stedsnr" v="873953" />
	</node>
	<node id="-2106" lat="59.9669055575" lon="10.789105552">
		<tag k="name" v="Østli" />
		<tag k="place" v="farm" />
		<tag k="ssr:stedsnr" v="873665" />
	</node>
	<node id="-2105" lat="59.9371888891" lon="10.9075972189">
		<tag k="name" v="Sørli" />
		<tag k="place" v="farm" />
		<tag k="ssr:stedsnr" v="873661" />
	</node>
	<node id="-2102" lat="59.9382333298" lon="10.7649472165">
		<tag k="building" v="industrial" />
		<tag k="industrial" v="factory" />
		<tag k="name" v="De-No-Fa og Lilleborg Fabrikker A/S" />
		<tag k="ssr:stedsnr" v="873805" />
	</node>
	<node id="-2098" lat="59.8620750014" lon="10.8468999971">
		<tag k="name" v="Passerud" />
		<tag k="place" v="locality" />
		<tag k="ssr:stedsnr" v="873269" />
	</node>
	<node id="-2095" lat="60.0249111077" lon="10.6879416605">
		<tag k="alt_name" v="Lørensæter" />
		<tag k="name" v="Lørenseter" />
		<tag k="place" v="farm" />
		<tag k="ssr:stedsnr" v="855976" />
	</node>
	<node id="-2090" lat="60.0506388903" lon="10.720866661">
		<tag k="name" v="Gåslungen" />
		<tag k="place" v="farm" />
		<tag k="ssr:stedsnr" v="855455" />
	</node>
	<node id="-2086" lat="59.9683221024" lon="10.7232858226">
		<tag k="name" v="Løkka" />
		<tag k="place" v="isolated_dwelling" />
		<tag k="ssr:stedsnr" v="855557" />
	</node>
	<node id="-2085" lat="60.0110027794" lon="10.7802388824">
		<tag k="name" v="Hauger" />
		<tag k="place" v="farm" />
		<tag k="ssr:stedsnr" v="855374" />
	</node>
	<node id="-2084" lat="60.0173777773" lon="10.783550008">
		<tag k="name" v="Haugen" />
		<tag k="place" v="locality" />
		<tag k="ssr:stedsnr" v="855373" />
	</node>
	<node id="-2078" lat="59.9147123257" lon="10.6547257626">
		<tag k="building" v="commercial" />
		<tag k="name" v="Vækerø" />
		<tag k="ssr:stedsnr" v="854905" />
	</node>
	<node id="-2074" lat="59.9787888867" lon="10.8133638969">
		<tag k="name" v="Solemskogen" />
		<tag k="place" v="quarter" />
		<tag k="ssr:stedsnr" v="854514" />
	</node>
	<node id="-2073" lat="59.9119895735" lon="10.7335996393">
		<tag k="amenity" v="townhall" />
		<tag k="name" v="Rådhuset" />
		<tag k="ssr:stedsnr" v="854084" />
	</node>
	<node id="-2071" lat="59.9121472193" lon="10.9137388907">
		<tag k="alt_name" v="Bråten" />
		<tag k="name" v="Bråtan" />
		<tag k="place" v="isolated_dwelling" />
		<tag k="ssr:stedsnr" v="854076" />
	</node>
	<node id="-2069" lat="59.8401722218" lon="10.8894500049">
		<tag k="name" v="Dølerud" />
		<tag k="place" v="isolated_dwelling" />
		<tag k="ssr:stedsnr" v="854177" />
	</node>
	<node id="-2051" lat="60.0515000023" lon="10.5497361128">
		<tag k="fixme" v="consider tourism=alpine_hut or tourism=chalet" />
		<tag k="name" v="Smedmyrkoia" />
		<tag k="ssr:stedsnr" v="935090" />
		<tag k="tourism" v="wilderness_hut" />
	</node>
	<node id="-2050" lat="59.9336861153" lon="10.8859333355">
		<tag k="amenity" v="school" />
		<tag k="name" v="Jeriko skole" />
		<tag k="ssr:stedsnr" v="934846" />
	</node>
</osm>
