<?xml version="1.0" encoding="UTF-8"?>
<osm generator="osmapis" version="0.6">
	<node id="-47613" lat="59.841472223" lon="10.8694166693">
		<tag k="name" v="Steinkirken" />
		<tag k="natural" v="stone" />
		<tag k="ssr:stedsnr" v="751239" />
	</node>
	<node id="-46587" lat="60.0737555545" lon="10.6001111037">
		<tag k="name" v="Smedmyra" />
		<tag k="natural" v="wetland" />
		<tag k="ssr:stedsnr" v="248225" />
	</node>
	<node id="-46073" lat="60.0407833353" lon="10.6428083344">
		<tag k="name" v="Femmyra" />
		<tag k="natural" v="wetland" />
		<tag k="ssr:stedsnr" v="59435" />
	</node>
	<node id="-47608" lat="59.9823888845" lon="10.8526138939">
		<tag k="name" v="Småmosene" />
		<tag k="natural" v="wetland" />
		<tag k="ssr:stedsnr" v="751660" />
	</node>
	<node id="-47607" lat="59.968849997" lon="10.736038884">
		<tag k="name" v="Sandåsmyra" />
		<tag k="natural" v="wetland" />
		<tag k="ssr:stedsnr" v="751654" />
	</node>
	<node id="-48116" lat="59.9991083358" lon="10.8477277703">
		<tag k="name" v="Stormåsan" />
		<tag k="natural" v="wetland" />
		<tag k="ssr:stedsnr" v="934140" />
	</node>
	<node id="-46067" lat="59.9749000022" lon="10.6862222201">
		<tag k="name" v="Delemyr" />
		<tag k="natural" v="wetland" />
		<tag k="ssr:stedsnr" v="58837" />
	</node>
	<node id="-47602" lat="60.0897666712" lon="10.6354638851">
		<tag k="alt_name" v="Kloppmyr" />
		<tag k="name" v="Kloppmyra" />
		<tag k="natural" v="wetland" />
		<tag k="ssr:stedsnr" v="734141" />
	</node>
	<node id="-47089" lat="59.8684305518" lon="10.866255547">
		<tag k="name" v="Fjellstadmåsan" />
		<tag k="natural" v="wetland" />
		<tag k="ssr:stedsnr" v="569279" />
	</node>
	<node id="-45552" lat="60.1116166646" lon="10.7412666644">
		<tag k="name" v="Vivangsmyra" />
		<tag k="natural" v="wetland" />
		<tag k="ssr:stedsnr" v="343666" />
	</node>
	<node id="-47086" lat="60.0124055562" lon="10.8140111029">
		<tag k="name" v="Blåmyra" />
		<tag k="natural" v="wetland" />
		<tag k="ssr:stedsnr" v="569228" />
	</node>
	<node id="-46845" lat="60.0875527735" lon="10.7428749924">
		<tag k="name" v="Fuglemyr" />
		<tag k="natural" v="wetland" />
		<tag k="ssr:stedsnr" v="466706" />
	</node>
	<node id="-47594" lat="60.0454086316" lon="10.6487923159">
		<tag k="name" v="Glåmene" />
		<tag k="natural" v="wetland" />
		<tag k="ssr:stedsnr" v="733941" />
	</node>
	<node id="-48102" lat="60.0029361073" lon="10.7266916586">
		<tag k="alt_name" v="Taraldrudmyr" />
		<tag k="name" v="Taraldrudmyra" />
		<tag k="natural" v="wetland" />
		<tag k="ssr:stedsnr" v="916373" />
	</node>
	<node id="-46929" lat="60.0043222208" lon="10.7766833286">
		<tag k="name" v="Styggmyra" />
		<tag k="natural" v="wetland" />
		<tag k="ssr:stedsnr" v="509203" />
	</node>
	<node id="-47587" lat="59.9715305514" lon="10.7476305526">
		<tag k="name" v="Langmyr" />
		<tag k="natural" v="wetland" />
		<tag k="ssr:stedsnr" v="733525" />
	</node>
	<node id="-46562" lat="59.9016249961" lon="10.8772027703">
		<tag k="historic" v="shieling" />
		<tag k="name" v="Lutvangen" />
		<tag k="place" v="locality" />
		<tag k="ssr:stedsnr" v="247101" />
	</node>
	<node id="-47585" lat="59.9796833309" lon="10.838294443">
		<tag k="name" v="Evensetermyra" />
		<tag k="natural" v="wetland" />
		<tag k="ssr:stedsnr" v="733509" />
	</node>
	<node id="-47067" lat="60.0790416622" lon="10.7248083366">
		<tag k="alt_name" v="Lamyr, nordre" />
		<tag k="name" v="Nordre Lamyr" />
		<tag k="natural" v="wetland" />
		<tag k="ssr:stedsnr" v="551511" />
	</node>
	<node id="-46554" lat="59.9051055599" lon="10.6671777696">
		<tag k="name" v="Kongeskogen" />
		<tag k="place" v="locality" />
		<tag k="ssr:stedsnr" v="241789" />
	</node>
	<node id="-47577" lat="59.8515499965" lon="10.8576555524">
		<tag k="name" v="Raudmyr" />
		<tag k="natural" v="wetland" />
		<tag k="ssr:stedsnr" v="733220" />
	</node>
	<node id="-46756" lat="60.0548777757" lon="10.6742249981">
		<tag k="alt_name" v="Fuglemyr" />
		<tag k="name" v="Fuglemyra" />
		<tag k="natural" v="wetland" />
		<tag k="ssr:stedsnr" v="430969" />
	</node>
	<node id="-46038" lat="60.0992333376" lon="10.6955222185">
		<tag k="name" v="Blinkeveimyrene" />
		<tag k="natural" v="wetland" />
		<tag k="ssr:stedsnr" v="40626" />
	</node>
	<node id="-46549" lat="59.9933277735" lon="10.6960694504">
		<tag k="name" v="Rakkesetermyr" />
		<tag k="natural" v="wetland" />
		<tag k="ssr:stedsnr" v="240853" />
	</node>
	<node id="-46545" lat="60.0045611108" lon="10.6758777865">
		<tag k="alt_name" v="Slavemyr" />
		<tag k="name" v="Stavemyr" />
		<tag k="natural" v="wetland" />
		<tag k="ssr:stedsnr" v="240823" />
	</node>
	<node id="-46072" lat="60.0390083369" lon="10.6178555473">
		<tag k="name" v="Oremyra" />
		<tag k="natural" v="wetland" />
		<tag k="ssr:stedsnr" v="59436" />
	</node>
	<node id="-45515" lat="59.8369444459" lon="10.8749972209">
		<tag k="name" v="Fugleleiken" />
		<tag k="natural" v="wetland" />
		<tag k="ssr:stedsnr" v="327224" />
	</node>
	<node id="-46537" lat="60.0425944419" lon="10.80288333">
		<tag k="name" v="Rundmyra" />
		<tag k="natural" v="wetland" />
		<tag k="ssr:stedsnr" v="239057" />
	</node>
	<node id="-46536" lat="60.024716665" lon="10.5467416638">
		<tag k="name" v="Raskemyra" />
		<tag k="natural" v="wetland" />
		<tag k="ssr:stedsnr" v="239031" />
	</node>
	<node id="-45511" lat="60.0215277763" lon="10.7436249964">
		<tag k="name" v="Båhusmyr" />
		<tag k="natural" v="wetland" />
		<tag k="ssr:stedsnr" v="327203" />
	</node>
	<node id="-47046" lat="59.979208334" lon="10.8351611132">
		<tag k="name" v="Lillomarka" />
		<tag k="place" v="locality" />
		<tag k="ssr:stedsnr" v="550578" />
	</node>
	<node id="-45506" lat="59.9836055596" lon="10.8703361168">
		<tag k="name" v="Krokmyra" />
		<tag k="natural" v="wetland" />
		<tag k="ssr:stedsnr" v="327154" />
	</node>
	<node id="-45642" lat="59.9036444411" lon="10.9026722162">
		<tag k="name" v="Langmyrene" />
		<tag k="natural" v="wetland" />
		<tag k="ssr:stedsnr" v="387637" />
	</node>
	<node id="-45641" lat="59.9012305593" lon="10.8963222216">
		<tag k="name" v="Prekestolmyra" />
		<tag k="natural" v="wetland" />
		<tag k="ssr:stedsnr" v="387633" />
	</node>
	<node id="-47024" lat="59.9796083327" lon="10.6979999972">
		<tag k="name" v="Fuglemyra" />
		<tag k="natural" v="wetland" />
		<tag k="ssr:stedsnr" v="550001" />
	</node>
	<node id="-45487" lat="60.0071166641" lon="10.5527888918">
		<tag k="alt_name" v="Bestemorsmyrane" />
		<tag k="name" v="Bestemorsmyrene" />
		<tag k="natural" v="wetland" />
		<tag k="ssr:stedsnr" v="308936" />
	</node>
	<node id="-47021" lat="59.9953111078" lon="10.5923250066">
		<tag k="name" v="Stormyra" />
		<tag k="natural" v="wetland" />
		<tag k="ssr:stedsnr" v="549094" />
	</node>
	<node id="-47532" lat="60.0092583345" lon="10.5773888943">
		<tag k="name" v="Stormyra" />
		<tag k="natural" v="wetland" />
		<tag k="ssr:stedsnr" v="725007" />
	</node>
	<node id="-47526" lat="60.0585694436" lon="10.7517833286">
		<tag k="name" v="Nedre Korsmyr" />
		<tag k="natural" v="wetland" />
		<tag k="ssr:stedsnr" v="722268" />
	</node>
	<node id="-45477" lat="60.048197221" lon="10.7845277823">
		<tag k="name" v="Sjuputtmyra" />
		<tag k="natural" v="wetland" />
		<tag k="ssr:stedsnr" v="308415" />
	</node>
	<node id="-47012" lat="60.0338861152" lon="10.6792111146">
		<tag k="name" v="Vestre Merramyr" />
		<tag k="natural" v="wetland" />
		<tag k="ssr:stedsnr" v="544418" />
	</node>
	<node id="-47515" lat="60.0159833354" lon="10.6667138878">
		<tag k="name" v="Langmyra" />
		<tag k="natural" v="wetland" />
		<tag k="ssr:stedsnr" v="709225" />
	</node>
	<node id="-48025" lat="60.0415444452" lon="10.5848555573">
		<tag k="name" v="Løkebergdammen" />
		<tag k="natural" v="wetland" />
		<tag k="ssr:stedsnr" v="905468" />
	</node>
	<node id="-48024" lat="60.0364111146" lon="10.5734777765">
		<tag k="name" v="Roterudmyra" />
		<tag k="natural" v="wetland" />
		<tag k="ssr:stedsnr" v="905462" />
	</node>
	<node id="-46999" lat="60.0492333299" lon="10.7948583349">
		<tag k="name" v="Bubbelinsmyr" />
		<tag k="natural" v="wetland" />
		<tag k="ssr:stedsnr" v="540496" />
	</node>
	<node id="-47508" lat="59.8573388917" lon="10.8743583334">
		<tag k="alt_name" v="Karismyra" />
		<tag k="loc_name" v="Karussmyr" />
		<tag k="name" v="Karismyr" />
		<tag k="natural" v="wetland" />
		<tag k="ssr:stedsnr" v="708177" />
	</node>
	<node id="-45550" lat="60.1198416695" lon="10.701927778">
		<tag k="name" v="Måsjømyra" />
		<tag k="natural" v="wetland" />
		<tag k="ssr:stedsnr" v="343633" />
	</node>
	<node id="-46147" lat="59.9820722214" lon="10.8481972288">
		<tag k="name" v="Bronsmyra" />
		<tag k="natural" v="wetland" />
		<tag k="ssr:stedsnr" v="84648" />
	</node>
	<node id="-47512" lat="60.0988777777" lon="10.6350888809">
		<tag k="name" v="Korsmyr" />
		<tag k="natural" v="wetland" />
		<tag k="ssr:stedsnr" v="708628" />
	</node>
	<node id="-46989" lat="60.0035388874" lon="10.587752778">
		<tag k="name" v="Ulvehimyra" />
		<tag k="natural" v="wetland" />
		<tag k="ssr:stedsnr" v="527225" />
	</node>
	<node id="-46988" lat="60.0031888917" lon="10.6464305492">
		<tag k="name" v="Kastemyr" />
		<tag k="natural" v="wetland" />
		<tag k="ssr:stedsnr" v="527184" />
	</node>
	<node id="-46146" lat="59.9064722182" lon="10.8834222232">
		<tag k="name" v="Rundmyr" />
		<tag k="natural" v="wetland" />
		<tag k="ssr:stedsnr" v="84649" />
	</node>
	<node id="-46981" lat="60.1128833372" lon="10.7073611031">
		<tag k="name" v="Jonsmyra" />
		<tag k="natural" v="wetland" />
		<tag k="ssr:stedsnr" v="525604" />
	</node>
	<node id="-46465" lat="59.9107944487" lon="10.8681388859">
		<tag k="name" v="Stormyr" />
		<tag k="natural" v="wetland" />
		<tag k="ssr:stedsnr" v="205669" />
	</node>
	<node id="-46464" lat="59.9680722257" lon="10.8159249916">
		<tag k="name" v="Kapteinsmyra" />
		<tag k="natural" v="wetland" />
		<tag k="ssr:stedsnr" v="205664" />
	</node>
	<node id="-45439" lat="60.0458361069" lon="10.6453583339">
		<tag k="name" v="Vinterglåmene" />
		<tag k="natural" v="wetland" />
		<tag k="ssr:stedsnr" v="302428" />
	</node>
	<node id="-45438" lat="59.8399500024" lon="10.8594222216">
		<tag k="alt_name" v="Grønmo" />
		<tag k="landuse" v="landfill" />
		<tag k="name" v="Grønmo gjenbruksstasjon" />
		<tag k="ssr:stedsnr" v="301504" />
	</node>
	<node id="-45945" lat="60.0298277744" lon="10.5642444356">
		<tag k="name" v="Vassmyra" />
		<tag k="natural" v="wetland" />
		<tag k="ssr:stedsnr" v="5967" />
	</node>
	<node id="-46456" lat="59.8624944413" lon="10.8670777862">
		<tag k="name" v="Dokkemåsan" />
		<tag k="natural" v="wetland" />
		<tag k="ssr:stedsnr" v="205315" />
	</node>
	<node id="-46488" lat="59.964144694" lon="10.8586237761">
		<tag k="name" v="Rosentorpmyra" />
		<tag k="natural" v="wetland" />
		<tag k="ssr:stedsnr" v="206648" />
	</node>
	<node id="-45429" lat="60.0325083297" lon="10.7891222208">
		<tag k="name" v="Stormyra" />
		<tag k="natural" v="wetland" />
		<tag k="ssr:stedsnr" v="300067" />
	</node>
	<node id="-46739" lat="60.0493055596" lon="10.6217000015">
		<tag k="alt_name" v="Hansemyr" />
		<tag k="name" v="Hansemyra" />
		<tag k="natural" v="wetland" />
		<tag k="ssr:stedsnr" v="430184" />
	</node>
	<node id="-47979" lat="59.9824500032" lon="10.7264861086">
		<tag k="historic" v="shieling" />
		<tag k="name" v="Seteren" />
		<tag k="place" v="locality" />
		<tag k="ssr:stedsnr" v="873642" />
	</node>
	<node id="-47976" lat="59.9698055557" lon="10.7435416668">
		<tag k="name" v="Kjerringmyra" />
		<tag k="natural" v="wetland" />
		<tag k="ssr:stedsnr" v="873599" />
	</node>
	<node id="-46439" lat="60.0727222241" lon="10.7320805552">
		<tag k="name" v="Brattbakkmyr" />
		<tag k="natural" v="wetland" />
		<tag k="ssr:stedsnr" v="187508" />
	</node>
	<node id="-46950" lat="59.9577138913" lon="10.8232416661">
		<tag k="name" v="Micheletmyra" />
		<tag k="natural" v="wetland" />
		<tag k="ssr:stedsnr" v="509636" />
	</node>
	<node id="-46948" lat="59.9230694413" lon="10.8922083388">
		<tag k="name" v="Kjerringmyra" />
		<tag k="natural" v="wetland" />
		<tag k="ssr:stedsnr" v="509592" />
	</node>
	<node id="-47970" lat="59.8560083291" lon="10.8612527801">
		<tag k="name" v="Småmyr" />
		<tag k="natural" v="wetland" />
		<tag k="ssr:stedsnr" v="873278" />
	</node>
	<node id="-46139" lat="60.0038583348" lon="10.7922111035">
		<tag k="name" v="Dausjømyra" />
		<tag k="natural" v="wetland" />
		<tag k="ssr:stedsnr" v="84232" />
	</node>
	<node id="-47967" lat="60.0191916708" lon="10.7856749923">
		<tag k="name" v="Gata" />
		<tag k="place" v="locality" />
		<tag k="ssr:stedsnr" v="873225" />
	</node>
	<node id="-47966" lat="60.0025194415" lon="10.7767916633">
		<tag k="name" v="Ødegårdshagen" />
		<tag k="place" v="locality" />
		<tag k="ssr:stedsnr" v="873226" />
	</node>
	<node id="-47965" lat="60.0088083375" lon="10.8113694461">
		<tag k="name" v="Raudmyra" />
		<tag k="natural" v="wetland" />
		<tag k="ssr:stedsnr" v="873221" />
	</node>
	<node id="-45404" lat="60.0490944466" lon="10.5813555565">
		<tag k="name" v="Orrhanemyr" />
		<tag k="natural" v="wetland" />
		<tag k="ssr:stedsnr" v="282335" />
	</node>
	<node id="-46937" lat="59.8678999959" lon="10.8784833306">
		<tag k="name" v="Katismyr" />
		<tag k="natural" v="wetland" />
		<tag k="ssr:stedsnr" v="509267" />
	</node>
	<node id="-46935" lat="59.8543749981" lon="10.8765194521">
		<tag k="name" v="Rundvannsmåsan" />
		<tag k="natural" v="wetland" />
		<tag k="ssr:stedsnr" v="509255" />
	</node>
	<node id="-46934" lat="59.8552416702" lon="10.8727833347">
		<tag k="name" v="Molteringen" />
		<tag k="natural" v="wetland" />
		<tag k="ssr:stedsnr" v="509254" />
	</node>
	<node id="-46933" lat="59.8602555576" lon="10.870238896">
		<tag k="name" v="Fugleleiken" />
		<tag k="natural" v="wetland" />
		<tag k="ssr:stedsnr" v="509250" />
	</node>
	<node id="-46419" lat="59.994652777" lon="10.7412750037">
		<tag k="name" v="Skjervenmarka" />
		<tag k="place" v="locality" />
		<tag k="ssr:stedsnr" v="186647" />
	</node>
	<node id="-47441" lat="59.9948333331" lon="10.8480861161">
		<tag k="name" v="Tryggdalsmåsan" />
		<tag k="natural" v="wetland" />
		<tag k="ssr:stedsnr" v="691190" />
	</node>
	<node id="-46927" lat="60.0005027818" lon="10.734991668">
		<tag k="name" v="Korsmyr" />
		<tag k="natural" v="wetland" />
		<tag k="ssr:stedsnr" v="509200" />
	</node>
	<node id="-45965" lat="59.8560583325" lon="10.8531388842">
		<tag k="name" v="Bjørnemyrene" />
		<tag k="natural" v="wetland" />
		<tag k="ssr:stedsnr" v="23324" />
	</node>
	<node id="-47946" lat="60.1175611122" lon="10.7354944501">
		<tag k="name" v="Stormyra" />
		<tag k="natural" v="wetland" />
		<tag k="ssr:stedsnr" v="855705" />
	</node>
	<node id="-47159" lat="59.999666667" lon="10.6056416619">
		<tag k="name" v="Smalmyra" />
		<tag k="natural" v="wetland" />
		<tag k="ssr:stedsnr" v="587188" />
	</node>
	<node id="-47432" lat="60.0337094756" lon="10.6822086325">
		<tag k="name" v="Merramyra" />
		<tag k="natural" v="wetland" />
		<tag k="ssr:stedsnr" v="673998" />
	</node>
	<node id="-47427" lat="60.0135666695" lon="10.5341472199">
		<tag k="name" v="Tømmermyra" />
		<tag k="natural" v="wetland" />
		<tag k="ssr:stedsnr" v="673918" />
	</node>
	<node id="-46913" lat="60.0770305533" lon="10.7260333295">
		<tag k="alt_name" v="Lamyr, s" />
		<tag k="name" v="Søndre Lamyr" />
		<tag k="natural" v="wetland" />
		<tag k="ssr:stedsnr" v="491563" />
	</node>
	<node id="-47936" lat="60.0153499959" lon="10.7657083336">
		<tag k="name" v="Turtermarka" />
		<tag k="place" v="locality" />
		<tag k="ssr:stedsnr" v="855371" />
	</node>
	<node id="-47423" lat="60.013783337" lon="10.6620611051">
		<tag k="name" v="Rundmyr" />
		<tag k="natural" v="wetland" />
		<tag k="ssr:stedsnr" v="673896" />
	</node>
	<node id="-46907" lat="60.0030833299" lon="10.5981138885">
		<tag k="alt_name" v="Galemyr" />
		<tag k="name" v="Galemyra" />
		<tag k="natural" v="wetland" />
		<tag k="ssr:stedsnr" v="490914" />
	</node>
	<node id="-46389" lat="59.9786138871" lon="10.7109083405">
		<tag k="name" v="Mysmermyrene" />
		<tag k="natural" v="wetland" />
		<tag k="ssr:stedsnr" v="179880" />
	</node>
	<node id="-46384" lat="60.006788888" lon="10.5353583262">
		<tag k="name" v="Seterhogget" />
		<tag k="place" v="locality" />
		<tag k="ssr:stedsnr" v="178069" />
	</node>
	<node id="-47913" lat="59.8313527745" lon="10.9224999922">
		<tag k="name" v="Fjøsmåsan" />
		<tag k="natural" v="wetland" />
		<tag k="old_name" v="Fjøsmosen" />
		<tag k="ssr:stedsnr" v="854200" />
	</node>
	<node id="-47396" lat="59.8234555527" lon="10.8840861107">
		<tag k="name" v="Stupinnmåsan" />
		<tag k="natural" v="wetland" />
		<tag k="old_name" v="Stupinnmosen" />
		<tag k="ssr:stedsnr" v="672267" />
	</node>
	<node id="-47395" lat="59.8530277736" lon="10.9062805497">
		<tag k="name" v="Fingerbølmyrene" />
		<tag k="natural" v="wetland" />
		<tag k="ssr:stedsnr" v="672223" />
	</node>
	<node id="-46881" lat="60.0388611086" lon="10.7253333379">
		<tag k="alt_name" v="Nygårdsmyra" />
		<tag k="name" v="Nygardsmyr" />
		<tag k="natural" v="wetland" />
		<tag k="ssr:stedsnr" v="490429" />
	</node>
	<node id="-46368" lat="60.0001805591" lon="10.6158166673">
		<tag k="name" v="Solberghagan" />
		<tag k="place" v="locality" />
		<tag k="ssr:stedsnr" v="163152" />
	</node>
	<node id="-46843" lat="60.014552778" lon="10.6676472249">
		<tag k="name" v="Moltemyra" />
		<tag k="natural" v="wetland" />
		<tag k="ssr:stedsnr" v="466282" />
	</node>
	<node id="-46360" lat="60.0570111089" lon="10.6145694411">
		<tag k="name" v="Kvilemyr" />
		<tag k="natural" v="wetland" />
		<tag k="ssr:stedsnr" v="161341" />
	</node>
	<node id="-47893" lat="60.0342055529" lon="10.663969437">
		<tag k="name" v="Langsmalmyr" />
		<tag k="natural" v="wetland" />
		<tag k="ssr:stedsnr" v="848432" />
	</node>
	<node id="-47892" lat="60.0166972267" lon="10.6742666616">
		<tag k="name" v="Gamlevollsmyra" />
		<tag k="natural" v="wetland" />
		<tag k="ssr:stedsnr" v="847966" />
	</node>
	<node id="-46864" lat="60.0336944419" lon="10.6845500069">
		<tag k="name" v="Østre Merramyr" />
		<tag k="natural" v="wetland" />
		<tag k="ssr:stedsnr" v="483456" />
	</node>
	<node id="-47886" lat="60.0135666665" lon="10.5557083346">
		<tag k="name" v="Søvennerhogget" />
		<tag k="place" v="locality" />
		<tag k="ssr:stedsnr" v="846009" />
	</node>
	<node id="-47885" lat="60.0168527754" lon="10.5076388853">
		<tag k="name" v="Lommyra" />
		<tag k="natural" v="wetland" />
		<tag k="ssr:stedsnr" v="846007" />
	</node>
	<node id="-47369" lat="60.0456250036" lon="10.5643111033">
		<tag k="name" v="Andtjernsmyra" />
		<tag k="natural" v="wetland" />
		<tag k="ssr:stedsnr" v="666446" />
	</node>
	<node id="-46344" lat="60.0070305537" lon="10.7812444414">
		<tag k="name" v="Haugermarka" />
		<tag k="place" v="locality" />
		<tag k="ssr:stedsnr" v="145208" />
	</node>
	<node id="-47366" lat="60.0333277805" lon="10.6580555513">
		<tag k="name" v="Hestemyra" />
		<tag k="natural" v="wetland" />
		<tag k="ssr:stedsnr" v="666431" />
	</node>
	<node id="-45410" lat="60.1079305589" lon="10.6235388942">
		<tag k="name" v="Gråbeinmyra" />
		<tag k="natural" v="wetland" />
		<tag k="ssr:stedsnr" v="283582" />
	</node>
	<node id="-45440" lat="60.0473999984" lon="10.5773416584">
		<tag k="name" v="Orrhønemyr" />
		<tag k="natural" v="wetland" />
		<tag k="ssr:stedsnr" v="302444" />
	</node>
	<node id="-47357" lat="59.9929527774" lon="10.6697500016">
		<tag k="name" v="Rundmyr" />
		<tag k="natural" v="wetland" />
		<tag k="ssr:stedsnr" v="664857" />
	</node>
	<node id="-47356" lat="60.0027999994" lon="10.675177769">
		<tag k="name" v="Marimyr" />
		<tag k="natural" v="wetland" />
		<tag k="ssr:stedsnr" v="664847" />
	</node>
	<node id="-47355" lat="60.0025000017" lon="10.6875722228">
		<tag k="name" v="Nedre Skjennungsmyr" />
		<tag k="natural" v="wetland" />
		<tag k="ssr:stedsnr" v="664845" />
	</node>
	<node id="-46841" lat="60.1121500018" lon="10.6967249931">
		<tag k="name" v="Hellebekkmyra" />
		<tag k="natural" v="wetland" />
		<tag k="ssr:stedsnr" v="465638" />
	</node>
	<node id="-47352" lat="60.0228888914" lon="10.6454555588">
		<tag k="name" v="Setermyra" />
		<tag k="natural" v="wetland" />
		<tag k="ssr:stedsnr" v="664209" />
	</node>
	<node id="-46839" lat="60.1297972258" lon="10.6067944486">
		<tag k="name" v="Ringeriksmyra" />
		<tag k="natural" v="wetland" />
		<tag k="ssr:stedsnr" v="465578" />
	</node>
	<node id="-47350" lat="60.0101888881" lon="10.5381861143">
		<tag k="name" v="Solberghogget" />
		<tag k="place" v="locality" />
		<tag k="ssr:stedsnr" v="664052" />
	</node>
	<node id="-45811" lat="60.0035955765" lon="10.6930041325">
		<tag k="name" v="Øvre Skjennungsmyr" />
		<tag k="natural" v="wetland" />
		<tag k="ssr:stedsnr" v="989715" />
	</node>
	<node id="-45810" lat="59.9397044652" lon="10.662689394">
		<tag k="name" v="Husebyskogen" />
		<tag k="place" v="locality" />
		<tag k="ssr:stedsnr" v="989714" />
	</node>
	<node id="-46321" lat="59.9351972205" lon="10.8683972148">
		<tag k="name" v="Leirdal" />
		<tag k="place" v="locality" />
		<tag k="ssr:stedsnr" v="144650" />
	</node>
	<node id="-46830" lat="60.049705556" lon="10.61789444">
		<tag k="name" v="Bjørnemyr" />
		<tag k="natural" v="wetland" />
		<tag k="ssr:stedsnr" v="464345" />
	</node>
	<node id="-47341" lat="60.0623833358" lon="10.7293999954">
		<tag k="name" v="Lukemyr" />
		<tag k="natural" v="wetland" />
		<tag k="ssr:stedsnr" v="662233" />
	</node>
	<node id="-47850" lat="60.0981972195" lon="10.5989416688">
		<tag k="name" v="Sleamyr" />
		<tag k="natural" v="wetland" />
		<tag k="ssr:stedsnr" v="829636" />
	</node>
	<node id="-46823" lat="60.0083583338" lon="10.7738166619">
		<tag k="name" v="Haugermåsan" />
		<tag k="natural" v="wetland" />
		<tag k="ssr:stedsnr" v="449207" />
	</node>
	<node id="-46125" lat="59.9996083289" lon="10.5444194475">
		<tag k="name" v="Korsmyra" />
		<tag k="natural" v="wetland" />
		<tag k="ssr:stedsnr" v="66913" />
	</node>
	<node id="-46304" lat="59.8782638925" lon="10.8937611102">
		<tag k="name" v="Slettfjellmyra" />
		<tag k="natural" v="wetland" />
		<tag k="ssr:stedsnr" v="144318" />
	</node>
	<node id="-47326" lat="60.0504111149" lon="10.6799777868">
		<tag k="name" v="Sprutstokkmyra" />
		<tag k="natural" v="wetland" />
		<tag k="ssr:stedsnr" v="646336" />
	</node>
	<node id="-47325" lat="60.0515750006" lon="10.6198000051">
		<tag k="name" v="Treskoningsmyr" />
		<tag k="natural" v="wetland" />
		<tag k="ssr:stedsnr" v="646328" />
	</node>
	<node id="-46227" lat="60.0324388854" lon="10.8040166645">
		<tag k="name" v="Kulpemyra" />
		<tag k="natural" v="wetland" />
		<tag k="ssr:stedsnr" v="118058" />
	</node>
	<node id="-46295" lat="59.8374083358" lon="10.9052194385">
		<tag k="name" v="Mellommyra" />
		<tag k="natural" v="wetland" />
		<tag k="ssr:stedsnr" v="144186" />
	</node>
	<node id="-46294" lat="59.8484222266" lon="10.9180444494">
		<tag k="name" v="Torshølet" />
		<tag k="natural" v="wetland" />
		<tag k="ssr:stedsnr" v="144178" />
	</node>
	<node id="-46786" lat="59.8835805547" lon="10.9024888857">
		<tag k="name" v="Dalbakkmåsan" />
		<tag k="natural" v="wetland" />
		<tag k="ssr:stedsnr" v="448330" />
	</node>
	<node id="-46880" lat="60.0551583356" lon="10.6430555533">
		<tag k="name" v="Smedmyra" />
		<tag k="natural" v="wetland" />
		<tag k="ssr:stedsnr" v="490405" />
	</node>
	<node id="-46781" lat="59.8327250007" lon="10.8765472274">
		<tag k="name" v="Sandmåsan" />
		<tag k="natural" v="wetland" />
		<tag k="ssr:stedsnr" v="448260" />
	</node>
	<node id="-46268" lat="60.0685916674" lon="10.6052888856">
		<tag k="name" v="Stormyra" />
		<tag k="natural" v="wetland" />
		<tag k="ssr:stedsnr" v="126214" />
	</node>
	<node id="-45561" lat="60.0506055552" lon="10.7878388875">
		<tag k="name" v="Gladhogget" />
		<tag k="place" v="locality" />
		<tag k="ssr:stedsnr" v="358500" />
	</node>
	<node id="-46775" lat="59.8329055549" lon="10.9278166707">
		<tag k="name" v="Eriksvannsmåsan" />
		<tag k="natural" v="wetland" />
		<tag k="ssr:stedsnr" v="448186" />
	</node>
	<node id="-47798" lat="59.8943305577" lon="10.895577773">
		<tag k="name" v="Gråbeinmåsan" />
		<tag k="natural" v="wetland" />
		<tag k="ssr:stedsnr" v="812304" />
	</node>
	<node id="-47795" lat="59.864872225" lon="10.9019083341">
		<tag k="name" v="Kilemyrene" />
		<tag k="natural" v="wetland" />
		<tag k="ssr:stedsnr" v="812259" />
	</node>
	<node id="-45512" lat="60.0128222238" lon="10.788775006">
		<tag k="name" v="Sørbråtmyra" />
		<tag k="natural" v="wetland" />
		<tag k="ssr:stedsnr" v="327206" />
	</node>
	<node id="-47276" lat="59.9643916653" lon="10.8203666666">
		<tag k="name" v="Merramyra" />
		<tag k="natural" v="wetland" />
		<tag k="ssr:stedsnr" v="630573" />
	</node>
	<node id="-47163" lat="60.0039750002" lon="10.5170416621">
		<tag k="alt_name" v="Blyhogga" />
		<tag k="name" v="Byhogga" />
		<tag k="place" v="locality" />
		<tag k="ssr:stedsnr" v="587255" />
	</node>
	<node id="-47268" lat="59.8831055586" lon="10.886069436">
		<tag k="name" v="Helgesmyr" />
		<tag k="natural" v="wetland" />
		<tag k="ssr:stedsnr" v="630318" />
	</node>
	<node id="-46755" lat="60.0383416629" lon="10.6303555583">
		<tag k="alt_name" v="Tømmermyra" />
		<tag k="name" v="Tømmermyr" />
		<tag k="natural" v="wetland" />
		<tag k="ssr:stedsnr" v="430948" />
	</node>
	<node id="-47265" lat="59.8915888931" lon="10.8930444491">
		<tag k="name" v="Fugleleikmyr" />
		<tag k="natural" v="wetland" />
		<tag k="ssr:stedsnr" v="630273" />
	</node>
	<node id="-47264" lat="59.8780388912" lon="10.8994444405">
		<tag k="name" v="Delemyrene" />
		<tag k="natural" v="wetland" />
		<tag k="ssr:stedsnr" v="630272" />
	</node>
	<node id="-45725" lat="60.1189722249" lon="10.6857027802">
		<tag k="name" v="Magovikmyra" />
		<tag k="natural" v="wetland" />
		<tag k="ssr:stedsnr" v="890644" />
	</node>
	<node id="-47255" lat="59.9892222232" lon="10.8443277842">
		<tag k="name" v="Slengfemosen" />
		<tag k="natural" v="wetland" />
		<tag k="ssr:stedsnr" v="630164" />
	</node>
	<node id="-45715" lat="60.0599666674" lon="10.5733972168">
		<tag k="name" v="Pinslibonnmyr" />
		<tag k="natural" v="wetland" />
		<tag k="ssr:stedsnr" v="889359" />
	</node>
	<node id="-45714" lat="60.0585138907" lon="10.5619027815">
		<tag k="name" v="Huldermyra" />
		<tag k="natural" v="wetland" />
		<tag k="ssr:stedsnr" v="889357" />
	</node>
	<node id="-46737" lat="60.0934833319" lon="10.6048611114">
		<tag k="alt_name" v="Langlimyr" />
		<tag k="name" v="Langlimyra" />
		<tag k="natural" v="wetland" />
		<tag k="ssr:stedsnr" v="430133" />
	</node>
	<node id="-47247" lat="60.0321750032" lon="10.5639249938">
		<tag k="name" v="Stormyra" />
		<tag k="natural" v="wetland" />
		<tag k="ssr:stedsnr" v="612950" />
	</node>
	<node id="-46701" lat="60.0043999959" lon="10.6637444373">
		<tag k="name" v="Middagsmyra" />
		<tag k="natural" v="wetland" />
		<tag k="ssr:stedsnr" v="422831" />
	</node>
	<node id="-46429" lat="59.8614638863" lon="10.8602694531">
		<tag k="name" v="Skullerudmåsan" />
		<tag k="natural" v="wetland" />
		<tag k="old_name" v="Skullerudmosen" />
		<tag k="ssr:stedsnr" v="187154" />
	</node>
	<node id="-45705" lat="59.9993194475" lon="10.5718249969">
		<tag k="name" v="Blekkevannsmyra" />
		<tag k="natural" v="wetland" />
		<tag k="ssr:stedsnr" v="406228" />
	</node>
	<node id="-46212" lat="60.0117861095" lon="10.6713805481">
		<tag k="name" v="Lortkulpmyra" />
		<tag k="natural" v="wetland" />
		<tag k="ssr:stedsnr" v="102301" />
	</node>
	<node id="-46723" lat="59.8797250029" lon="10.8882611156">
		<tag k="name" v="Langmyr" />
		<tag k="natural" v="wetland" />
		<tag k="ssr:stedsnr" v="429170" />
	</node>
	<node id="-46210" lat="60.0023361121" lon="10.5801444495">
		<tag k="name" v="Trettestykkmyra" />
		<tag k="natural" v="wetland" />
		<tag k="ssr:stedsnr" v="102253" />
	</node>
	<node id="-46207" lat="60.0860694453" lon="10.6562638961">
		<tag k="name" v="Puttmyr" />
		<tag k="natural" v="wetland" />
		<tag k="ssr:stedsnr" v="101672" />
	</node>
	<node id="-45693" lat="60.1020361099" lon="10.6288611134">
		<tag k="name" v="Middagsmyr" />
		<tag k="natural" v="wetland" />
		<tag k="ssr:stedsnr" v="404597" />
	</node>
	<node id="-45559" lat="60.0465861078" lon="10.6981916589">
		<tag k="name" v="Kremmermyra" />
		<tag k="natural" v="wetland" />
		<tag k="ssr:stedsnr" v="358121" />
	</node>
	<node id="-45689" lat="60.0524222233" lon="10.6595333324">
		<tag k="name" v="Sulutjernmyr" />
		<tag k="natural" v="wetland" />
		<tag k="ssr:stedsnr" v="404333" />
	</node>
	<node id="-45688" lat="60.0416694486" lon="10.5577499934">
		<tag k="name" v="Storsteinmyra" />
		<tag k="natural" v="wetland" />
		<tag k="ssr:stedsnr" v="237455" />
	</node>
	<node id="-46708" lat="60.0448694484" lon="10.652205547">
		<tag k="name" v="Sommerglåmene" />
		<tag k="natural" v="wetland" />
		<tag k="ssr:stedsnr" v="423466" />
	</node>
	<node id="-47725" lat="59.8412111136" lon="10.9123055615">
		<tag k="name" v="Torsmåsan" />
		<tag k="natural" v="wetland" />
		<tag k="old_name" v="Torsmosen" />
		<tag k="ssr:stedsnr" v="793202" />
	</node>
	<node id="-47209" lat="59.927958335" lon="10.892891662">
		<tag k="name" v="Evensmåsan" />
		<tag k="natural" v="wetland" />
		<tag k="old_name" v="Evensmosen" />
		<tag k="ssr:stedsnr" v="611055" />
	</node>
	<node id="-47720" lat="59.8652027751" lon="10.8959305528">
		<tag k="name" v="Øgårdsmåsan" />
		<tag k="natural" v="wetland" />
		<tag k="old_name" v="Øgårdsmosen" />
		<tag k="ssr:stedsnr" v="793136" />
	</node>
	<node id="-46693" lat="60.0058972241" lon="10.5761722288">
		<tag k="name" v="Buksemyra" />
		<tag k="natural" v="wetland" />
		<tag k="ssr:stedsnr" v="421010" />
	</node>
	<node id="-47715" lat="59.9839944409" lon="10.6793166745">
		<tag k="name" v="Nikulpmyrene" />
		<tag k="natural" v="wetland" />
		<tag k="old_name" v="Nikulpmyrane" />
		<tag k="ssr:stedsnr" v="793102" />
	</node>
	<node id="-46688" lat="60.0306027745" lon="10.5896611169">
		<tag k="name" v="Trollmyra" />
		<tag k="natural" v="wetland" />
		<tag k="ssr:stedsnr" v="419448" />
	</node>
	<node id="-47199" lat="59.9958666708" lon="10.6864999983">
		<tag k="name" v="Frønsvollsmyrene" />
		<tag k="natural" v="wetland" />
		<tag k="ssr:stedsnr" v="610124" />
	</node>
	<node id="-48220" lat="60.0420583371" lon="10.6333749912">
		<tag k="name" v="Kløftmyra" />
		<tag k="natural" v="wetland" />
		<tag k="ssr:stedsnr" v="969442" />
	</node>
	<node id="-48218" lat="60.0330194432" lon="10.6901166594">
		<tag k="name" v="Svartormyra" />
		<tag k="natural" v="wetland" />
		<tag k="ssr:stedsnr" v="969431" />
	</node>
	<node id="-48217" lat="60.0592444416" lon="10.6095222174">
		<tag k="name" v="Trekønnmyr" />
		<tag k="natural" v="wetland" />
		<tag k="ssr:stedsnr" v="968974" />
	</node>
	<node id="-47704" lat="60.0390361129" lon="10.649024999">
		<tag k="name" v="Kulpmyr" />
		<tag k="natural" v="wetland" />
		<tag k="ssr:stedsnr" v="787442" />
	</node>
	<node id="-47460" lat="59.9707666623" lon="10.8212027802">
		<tag k="historic" v="shieling" />
		<tag k="name" v="Linderudsetra" />
		<tag k="place" v="locality" />
		<tag k="ssr:stedsnr" v="691642" />
	</node>
	<node id="-47702" lat="60.0281472241" lon="10.6820777825">
		<tag k="name" v="Slåttemyra" />
		<tag k="natural" v="wetland" />
		<tag k="ssr:stedsnr" v="787432" />
	</node>
	<node id="-48213" lat="59.9939944431" lon="10.6784805628">
		<tag k="name" v="Skådalsmyr" />
		<tag k="natural" v="wetland" />
		<tag k="ssr:stedsnr" v="968854" />
	</node>
	<node id="-47075" lat="60.0542999994" lon="10.654975001">
		<tag k="name" v="Osmarka" />
		<tag k="place" v="locality" />
		<tag k="ssr:stedsnr" v="551967" />
	</node>
	<node id="-48207" lat="60.0427694453" lon="10.813180549">
		<tag k="name" v="Lørenskoghagan" />
		<tag k="place" v="locality" />
		<tag k="ssr:stedsnr" v="967051" />
	</node>
	<node id="-47180" lat="60.0094916659" lon="10.5818500013">
		<tag k="name" v="Orremyra" />
		<tag k="natural" v="wetland" />
		<tag k="ssr:stedsnr" v="603009" />
	</node>
	<node id="-45643" lat="59.9103083322" lon="10.8918555481">
		<tag k="name" v="Lauvtjernmåsan" />
		<tag k="natural" v="wetland" />
		<tag k="ssr:stedsnr" v="387639" />
	</node>
	<node id="-47178" lat="60.0118833337" lon="10.5697666628">
		<tag k="name" v="Elvehogget" />
		<tag k="place" v="locality" />
		<tag k="ssr:stedsnr" v="603006" />
	</node>
	<node id="-47689" lat="60.006174996" lon="10.600844443">
		<tag k="name" v="Furumyr" />
		<tag k="natural" v="wetland" />
		<tag k="ssr:stedsnr" v="785014" />
	</node>
	<node id="-48200" lat="60.0314499968" lon="10.5961999992">
		<tag k="name" v="Slåttmyra" />
		<tag k="natural" v="wetland" />
		<tag k="ssr:stedsnr" v="965447" />
	</node>
	<node id="-47175" lat="60.0602138893" lon="10.6725000076">
		<tag k="name" v="Kumyr" />
		<tag k="natural" v="wetland" />
		<tag k="ssr:stedsnr" v="601219" />
	</node>
	<node id="-47171" lat="60.0405638864" lon="10.7159805518">
		<tag k="name" v="Lendemyr" />
		<tag k="natural" v="wetland" />
		<tag k="ssr:stedsnr" v="604423" />
	</node>
	<node id="-47170" lat="60.0409166676" lon="10.7047055507">
		<tag k="name" v="Smiumyra" />
		<tag k="natural" v="wetland" />
		<tag k="ssr:stedsnr" v="604422" />
	</node>
	<node id="-45633" lat="60.0097166659" lon="10.7514388806">
		<tag k="name" v="Kirkebymarka" />
		<tag k="place" v="locality" />
		<tag k="ssr:stedsnr" v="387239" />
	</node>
	<node id="-48189" lat="59.8567111119" lon="10.8831805583">
		<tag k="alt_name" v="Smalvassmåsan" />
		<tag k="name" v="Smalvannsmåsan" />
		<tag k="natural" v="wetland" />
		<tag k="old_name" v="Smalvassmosen" />
		<tag k="ssr:stedsnr" v="951160" />
	</node>
	<node id="-47676" lat="60.085144443" lon="10.7306666746">
		<tag k="name" v="Slettmyr" />
		<tag k="natural" v="wetland" />
		<tag k="ssr:stedsnr" v="770658" />
	</node>
	<node id="-47675" lat="60.0773027744" lon="10.7299138974">
		<tag k="name" v="Sleppmyr" />
		<tag k="natural" v="wetland" />
		<tag k="ssr:stedsnr" v="770655" />
	</node>
	<node id="-47162" lat="60.0217972225" lon="10.7011166577">
		<tag k="name" v="Vindernsetermåsan" />
		<tag k="natural" v="wetland" />
		<tag k="ssr:stedsnr" v="587251" />
	</node>
	<node id="-48185" lat="60.1095861099" lon="10.7053750035">
		<tag k="name" v="Sørkedalsmyra" />
		<tag k="natural" v="wetland" />
		<tag k="ssr:stedsnr" v="950620" />
	</node>
	<node id="-48183" lat="60.0545055555" lon="10.5620888884">
		<tag k="name" v="Geitekleivmyra" />
		<tag k="natural" v="wetland" />
		<tag k="ssr:stedsnr" v="950353" />
	</node>
	<node id="-46132" lat="59.836072219" lon="10.9103666711">
		<tag k="name" v="Klokkerudmyrene" />
		<tag k="natural" v="wetland" />
		<tag k="ssr:stedsnr" v="84189" />
	</node>
	<node id="-47663" lat="60.0497972217" lon="10.5881055473">
		<tag k="name" v="Stormyra" />
		<tag k="natural" v="wetland" />
		<tag k="ssr:stedsnr" v="768328" />
	</node>
	<node id="-45613" lat="59.8475750024" lon="10.8685250045">
		<tag k="alt_name" v="Olasmyr" />
		<tag k="name" v="Olavsmyr" />
		<tag k="natural" v="wetland" />
		<tag k="ssr:stedsnr" v="369216" />
	</node>
	<node id="-46635" lat="59.9315555578" lon="10.8647583349">
		<tag k="name" v="Stubberudmyra" />
		<tag k="place" v="locality" />
		<tag k="ssr:stedsnr" v="266631" />
	</node>
	<node id="-46115" lat="60.0512777754" lon="10.552472228">
		<tag k="name" v="Smedmyra" />
		<tag k="natural" v="wetland" />
		<tag k="ssr:stedsnr" v="66388" />
	</node>
	<node id="-46401" lat="59.9270611108" lon="10.9116027724">
		<tag k="name" v="Kjerringmyr" />
		<tag k="natural" v="wetland" />
		<tag k="ssr:stedsnr" v="186009" />
	</node>
	<node id="-46620" lat="60.0056111114" lon="10.8150388821">
		<tag k="name" v="Barlindmyra" />
		<tag k="natural" v="wetland" />
		<tag k="ssr:stedsnr" v="266230" />
	</node>
	<node id="-46619" lat="60.0238388857" lon="10.7319416603">
		<tag k="name" v="Rundmyra" />
		<tag k="natural" v="wetland" />
		<tag k="ssr:stedsnr" v="266225" />
	</node>
	<node id="-46618" lat="59.9980805575" lon="10.7189166664">
		<tag k="name" v="Arnehogstmyr" />
		<tag k="natural" v="wetland" />
		<tag k="ssr:stedsnr" v="266222" />
	</node>
	<node id="-45692" lat="60.1138916645" lon="10.7099861089">
		<tag k="name" v="Hakklomyra" />
		<tag k="natural" v="wetland" />
		<tag k="ssr:stedsnr" v="404593" />
	</node>
	<node id="-46749" lat="60.0706555573" lon="10.7253416587">
		<tag k="name" v="Raudmyr" />
		<tag k="natural" v="wetland" />
		<tag k="ssr:stedsnr" v="430552" />
	</node>
	<node id="-46783" lat="59.860852777" lon="10.891899991">
		<tag k="name" v="Kruggmyra" />
		<tag k="natural" v="wetland" />
		<tag k="ssr:stedsnr" v="448264" />
	</node>
	<node id="-47857" lat="60.070641668" lon="10.7462222177">
		<tag k="name" v="Bikkjemyr" />
		<tag k="natural" v="wetland" />
		<tag k="ssr:stedsnr" v="831628" />
	</node>
	<node id="-48215" lat="60.0170777742" lon="10.676852785">
		<tag k="name" v="Trostemyra" />
		<tag k="natural" v="wetland" />
		<tag k="ssr:stedsnr" v="968969" />
	</node>
	<node id="-47626" lat="59.9058888873" lon="10.8971138887">
		<tag k="name" v="Ulvensetermyra" />
		<tag k="natural" v="wetland" />
		<tag k="ssr:stedsnr" v="751702" />
	</node>
	<node id="-45911" lat="60.0792916645" lon="10.667463882">
		<tag k="name" v="Bonnamyra" />
		<tag k="natural" v="wetland" />
		<tag k="ssr:stedsnr" v="4242" />
	</node>
	<node id="-45576" lat="60.0301305594" lon="10.6765805499">
		<tag k="name" v="Ospestokkmyra" />
		<tag k="natural" v="wetland" />
		<tag k="ssr:stedsnr" v="362438" />
	</node>
	<node id="-47788" lat="59.8422638874" lon="10.7876194361">
		<tag k="name" v="Hallagerjordet" />
		<tag k="place" v="locality" />
		<tag k="ssr:stedsnr" v="812074" />
	</node>
	<node id="-45573" lat="59.9959694489" lon="10.6931583304">
		<tag k="name" v="Langmyrene" />
		<tag k="natural" v="wetland" />
		<tag k="ssr:stedsnr" v="361854" />
	</node>
	<node id="-46596" lat="60.0616763933" lon="10.748697605">
		<tag k="fixme" v="multiple name tags, choose one and add the other to alt_name" />
		<tag k="name" v="Korsmomyra;Øvre Korsmyr" />
		<tag k="natural" v="wetland" />
		<tag k="ssr:stedsnr" v="248483" />
	</node>
	<node id="-47328" lat="60.1324777813" lon="10.6335527863">
		<tag k="name" v="Sørensmyra" />
		<tag k="natural" v="wetland" />
		<tag k="ssr:stedsnr" v="646599" />
	</node>
</osm>
