<?xml version="1.0" encoding="UTF-8"?>
<osm generator="osmapis" version="0.6">
	<node id="-2560" lat="59.8858861072" lon="10.7590888863">
		<tag k="alt_name" v="Tankskipsutstikker" />
		<tag k="man_made" v="quay" />
		<tag k="name" v="Tankskipsutstikkeren" />
		<tag k="place" v="locality" />
		<tag k="ssr:stedsnr" v="144490" />
	</node>
	<node id="-3581" lat="59.8950694486" lon="10.8046083368">
		<tag k="junction" v="yes" />
		<tag k="name" v="Ryenkrysset" />
		<tag k="place" v="locality" />
		<tag k="ssr:stedsnr" v="874385" />
	</node>
	<node id="-1530" lat="59.8760361079" lon="10.842180564">
		<tag k="name" v="Bogerud" />
		<tag k="railway" v="halt" />
		<tag k="ssr:stedsnr" v="672164" />
		<tag k="train" v="yes" />
	</node>
	<node id="-1529" lat="59.875175002" lon="10.7870277704">
		<tag k="name" v="Sørli" />
		<tag k="railway" v="halt" />
		<tag k="ssr:stedsnr" v="672160" />
		<tag k="train" v="yes" />
	</node>
	<node id="-1528" lat="59.8800750044" lon="10.8055694516">
		<tag k="name" v="Karlsrud" />
		<tag k="railway" v="halt" />
		<tag k="ssr:stedsnr" v="672159" />
		<tag k="train" v="yes" />
	</node>
	<node id="-3412" lat="59.9345416628" lon="10.6964666596">
		<tag k="name" v="Borgen" />
		<tag k="railway" v="halt" />
		<tag k="ssr:stedsnr" v="811210" />
		<tag k="train" v="yes" />
	</node>
	<node id="-2036" lat="59.9076861111" lon="10.7330888805">
		<tag k="alt_name" v="Akershusutstikkeren" />
		<tag k="man_made" v="quay" />
		<tag k="name" v="Akershus utstikker" />
		<tag k="place" v="locality" />
		<tag k="ssr:stedsnr" v="934690" />
	</node>
	<node id="-3059" lat="59.9269749976" lon="10.6402666658">
		<tag k="name" v="Bjørnsletta" />
		<tag k="railway" v="halt" />
		<tag k="ssr:stedsnr" v="550925" />
		<tag k="train" v="yes" />
	</node>
	<node id="-1522" lat="59.9596861106" lon="10.6958722202">
		<tag k="name" v="Vettakollen" />
		<tag k="railway" v="halt" />
		<tag k="ssr:stedsnr" v="672060" />
		<tag k="train" v="yes" />
	</node>
	<node id="-3568" lat="59.9557305593" lon="10.7512138918">
		<tag k="name" v="Østhorn" />
		<tag k="railway" v="halt" />
		<tag k="ssr:stedsnr" v="873690" />
		<tag k="train" v="yes" />
	</node>
	<node id="-3055" lat="59.9498069699" lon="10.88792977">
		<tag k="name" v="Grorud stasjon" />
		<tag k="railway" v="station" />
		<tag k="ssr:stedsnr" v="550502" />
		<tag k="train" v="yes" />
	</node>
	<node id="-3566" lat="59.9016923587" lon="10.7413880456">
		<tag k="man_made" v="quay" />
		<tag k="name" v="Utstikker 3" />
		<tag k="place" v="locality" />
		<tag k="ssr:stedsnr" v="873683" />
	</node>
	<node id="-3565" lat="59.9036694424" lon="10.7446027804">
		<tag k="man_made" v="quay" />
		<tag k="name" v="Utstikker 1" />
		<tag k="place" v="locality" />
		<tag k="ssr:stedsnr" v="873682" />
	</node>
	<node id="-1618" lat="59.9463388862" lon="10.6550166581">
		<tag k="name" v="Hovseter" />
		<tag k="old_name" v="Hovsætra" />
		<tag k="railway" v="halt" />
		<tag k="ssr:stedsnr" v="690282" />
		<tag k="train" v="yes" />
	</node>
	<node id="-3048" lat="59.8885222207" lon="10.7706833403">
		<tag k="name" v="Jomfrubråten" />
		<tag k="railway" v="halt" />
		<tag k="ssr:stedsnr" v="550167" />
		<tag k="train" v="yes" />
	</node>
	<node id="-3045" lat="59.9059722183" lon="10.819583339">
		<tag k="name" v="Høyenhall" />
		<tag k="railway" v="station" />
		<tag k="ssr:stedsnr" v="550124" />
		<tag k="train" v="yes" />
	</node>
	<node id="-2062" lat="59.9416638847" lon="10.6741500047">
		<tag k="bridge" v="yes" />
		<tag k="layer" v="1" />
		<tag k="name" v="Sørkedalsveien" />
		<tag k="ssr:stedsnr" v="835876" />
	</node>
	<node id="-1502" lat="59.937272225" lon="10.6837555544">
		<tag k="name" v="Smestad" />
		<tag k="railway" v="halt" />
		<tag k="ssr:stedsnr" v="665790" />
		<tag k="train" v="yes" />
	</node>
	<node id="-2012" lat="59.9246916639" lon="10.6652805512">
		<tag k="name" v="Abbediengen" />
		<tag k="railway" v="halt" />
		<tag k="ssr:stedsnr" v="933246" />
		<tag k="train" v="yes" />
	</node>
	<node id="-3547" lat="59.8840888889" lon="10.844569451">
		<tag k="name" v="Bøler" />
		<tag k="railway" v="halt" />
		<tag k="ssr:stedsnr" v="873337" />
		<tag k="train" v="yes" />
	</node>
	<node id="-1448" lat="59.9915166665" lon="10.6979138882">
		<tag k="fixme" v="consider highway=path" />
		<tag k="highway" v="track" />
		<tag k="name" v="Skjennungsveien" />
		<tag k="ssr:stedsnr" v="422845" />
	</node>
	<node id="-3031" lat="59.9103750037" lon="10.7073416608">
		<tag k="man_made" v="quay" />
		<tag k="name" v="Framnes" />
		<tag k="place" v="locality" />
		<tag k="ssr:stedsnr" v="547397" />
	</node>
	<node id="-982" lat="59.8662638915" lon="10.840122221">
		<tag k="name" v="Skullerud" />
		<tag k="railway" v="halt" />
		<tag k="ssr:stedsnr" v="65118" />
		<tag k="train" v="yes" />
	</node>
	<node id="-2514" lat="59.8610833372" lon="10.7987388802">
		<tag k="name" v="Sæter" />
		<tag k="railway" v="halt" />
		<tag k="ssr:stedsnr" v="126141" />
		<tag k="train" v="yes" />
	</node>
	<node id="-1166" lat="59.9329861118" lon="10.7041722138">
		<tag k="name" v="Volvat" />
		<tag k="railway" v="halt" />
		<tag k="ssr:stedsnr" v="180761" />
		<tag k="train" v="yes" />
	</node>
	<node id="-2509" lat="59.9416688179" lon="10.7805884595">
		<tag k="name" v="Grefsen stasjon" />
		<tag k="railway" v="station" />
		<tag k="ssr:stedsnr" v="126041" />
		<tag k="train" v="yes" />
	</node>
	<node id="-971" lat="59.9003249993" lon="10.7558500037">
		<tag k="man_made" v="quay" />
		<tag k="name" v="Grønlikaia" />
		<tag k="place" v="locality" />
		<tag k="ssr:stedsnr" v="240559" />
	</node>
	<node id="-3530" lat="59.8540811308" lon="10.8004522963">
		<tag k="name" v="Ljabru" />
		<tag k="railway" v="halt" />
		<tag k="ssr:stedsnr" v="855239" />
		<tag k="train" v="yes" />
	</node>
	<node id="-2505" lat="59.8893749966" lon="10.8498194453">
		<tag k="name" v="Ulsrud" />
		<tag k="railway" v="halt" />
		<tag k="ssr:stedsnr" v="125175" />
		<tag k="train" v="yes" />
	</node>
	<node id="-3527" lat="59.9299194407" lon="10.7148777741">
		<tag k="alt_name" v="Majorstua" />
		<tag k="name" v="Majorstuen" />
		<tag k="railway" v="station" />
		<tag k="ssr:stedsnr" v="854920" />
		<tag k="train" v="yes" />
	</node>
	<node id="-3010" lat="59.9480999982" lon="10.9462249925">
		<tag k="bridge" v="yes" />
		<tag k="layer" v="1" />
		<tag k="name" v="Tangerud" />
		<tag k="ssr:stedsnr" v="531871" />
	</node>
	<node id="-2635" lat="59.9669527779" lon="10.6549166675">
		<tag k="name" v="Voksenlia" />
		<tag k="railway" v="halt" />
		<tag k="ssr:stedsnr" v="185046" />
		<tag k="train" v="yes" />
	</node>
	<node id="-1983" lat="59.8814333349" lon="10.784130552">
		<tag k="name" v="Holtet" />
		<tag k="railway" v="halt" />
		<tag k="ssr:stedsnr" v="793182" />
		<tag k="train" v="yes" />
	</node>
	<node id="-1982" lat="59.943609609" lon="10.8708241989">
		<tag k="name" v="Nyland holdeplass" />
		<tag k="railway" v="halt" />
		<tag k="ssr:stedsnr" v="793025" />
		<tag k="train" v="yes" />
	</node>
	<node id="-3005" lat="59.9402249998" lon="10.7061722169">
		<tag k="highway" v="path" />
		<tag k="name" v="Sverrestien" />
		<tag k="ssr:stedsnr" v="525850" />
	</node>
	<node id="-1980" lat="59.9747472252" lon="10.6476722217">
		<tag k="name" v="Skogen" />
		<tag k="railway" v="halt" />
		<tag k="ssr:stedsnr" v="793006" />
		<tag k="train" v="yes" />
	</node>
	<node id="-1466" lat="59.8259668762" lon="10.7700778713">
		<tag k="junction" v="yes" />
		<tag k="name" v="Ingierstrand" />
		<tag k="place" v="locality" />
		<tag k="ssr:stedsnr" v="448023" />
	</node>
	<node id="-3513" lat="59.8899777752" lon="10.7066166753">
		<tag k="man_made" v="quay" />
		<tag k="name" v="Romerbrygga" />
		<tag k="place" v="locality" />
		<tag k="ssr:stedsnr" v="848794" />
	</node>
	<node id="-1973" lat="59.9618000003" lon="10.6908750072">
		<tag k="name" v="Skådalen" />
		<tag k="railway" v="halt" />
		<tag k="ssr:stedsnr" v="786829" />
		<tag k="train" v="yes" />
	</node>
	<node id="-1523" lat="59.8927416684" lon="10.8401749953">
		<tag k="name" v="Oppsal" />
		<tag k="railway" v="halt" />
		<tag k="ssr:stedsnr" v="672088" />
		<tag k="train" v="yes" />
	</node>
	<node id="-1966" lat="59.9360861103" lon="10.8580555551">
		<tag k="bridge" v="yes" />
		<tag k="layer" v="1" />
		<tag k="name" v="Alfasetveien" />
		<tag k="ssr:stedsnr" v="774879" />
	</node>
	<node id="-1965" lat="59.8265833338" lon="10.7772611042">
		<tag k="bridge" v="yes" />
		<tag k="layer" v="1" />
		<tag k="name" v="Mastemyr" />
		<tag k="ssr:stedsnr" v="774868" />
	</node>
	<node id="-1617" lat="59.9182057465" lon="10.6304003699">
		<tag k="bridge" v="yes" />
		<tag k="layer" v="1" />
		<tag k="name" v="Fåbru" />
		<tag k="old_name" v="Flåbru" />
		<tag k="ssr:stedsnr" v="689102" />
	</node>
	<node id="-2474" lat="59.9235833311" lon="10.8322333359">
		<tag k="bridge" v="yes" />
		<tag k="layer" v="1" />
		<tag k="name" v="Strømsveien-Lodalsbr" />
		<tag k="ssr:stedsnr" v="107881" />
	</node>
	<node id="-2473" lat="59.9362777796" lon="10.7821861121">
		<tag k="bridge" v="yes" />
		<tag k="layer" v="1" />
		<tag k="name" v="Sinsen" />
		<tag k="ssr:stedsnr" v="107878" />
	</node>
	<node id="-2472" lat="59.9304333358" lon="10.8664305528">
		<tag k="bridge" v="yes" />
		<tag k="layer" v="1" />
		<tag k="name" v="Stubberudmyra" />
		<tag k="ssr:stedsnr" v="107873" />
	</node>
	<node id="-2471" lat="59.827527781" lon="10.7775722257">
		<tag k="bridge" v="yes" />
		<tag k="layer" v="1" />
		<tag k="name" v="Mastemyr" />
		<tag k="ssr:stedsnr" v="107606" />
	</node>
	<node id="-933" lat="60.003549996" lon="10.7622749946">
		<tag k="junction" v="yes" />
		<tag k="name" v="Hønefoten" />
		<tag k="place" v="locality" />
		<tag k="ssr:stedsnr" v="24136" />
	</node>
	<node id="-3491" lat="59.8464944436" lon="10.8127638881">
		<tag k="bridge" v="yes" />
		<tag k="layer" v="1" />
		<tag k="name" v="Bjørndal" />
		<tag k="ssr:stedsnr" v="835885" />
	</node>
	<node id="-2978" lat="59.9508861114" lon="10.6945555478">
		<tag k="name" v="Slemdal" />
		<tag k="railway" v="halt" />
		<tag k="ssr:stedsnr" v="429999" />
		<tag k="train" v="yes" />
	</node>
	<node id="-2977" lat="59.941886109" lon="10.6736000031">
		<tag k="name" v="Makrellbekken" />
		<tag k="railway" v="halt" />
		<tag k="ssr:stedsnr" v="429982" />
		<tag k="train" v="yes" />
	</node>
	<node id="-1008" lat="59.9637000044" lon="10.7347472303">
		<tag k="name" v="Kringsjå" />
		<tag k="railway" v="halt" />
		<tag k="ssr:stedsnr" v="247490" />
		<tag k="train" v="yes" />
	</node>
	<node id="-1093" lat="59.8907138867" lon="10.7581138888">
		<tag k="man_made" v="quay" />
		<tag k="name" v="Søndre Kongshavnkai" />
		<tag k="place" v="locality" />
		<tag k="ssr:stedsnr" v="266463" />
	</node>
	<node id="-1519" lat="59.9421499969" lon="10.7045888843">
		<tag k="name" v="Vinderen" />
		<tag k="old_name" v="Vindern" />
		<tag k="railway" v="halt" />
		<tag k="ssr:stedsnr" v="671976" />
		<tag k="train" v="yes" />
	</node>
	<node id="-3480" lat="59.948061113" lon="10.7045361194">
		<tag k="name" v="Ris" />
		<tag k="railway" v="halt" />
		<tag k="ssr:stedsnr" v="829765" />
		<tag k="train" v="yes" />
	</node>
	<node id="-916" lat="59.9564805598" lon="10.6958000008">
		<tag k="name" v="Gulleråsen" />
		<tag k="railway" v="halt" />
		<tag k="ssr:stedsnr" v="22202" />
		<tag k="train" v="yes" />
	</node>
	<node id="-3054" lat="59.8346461796" lon="10.7970222453">
		<tag k="name" v="Holmlia holdeplass" />
		<tag k="railway" v="halt" />
		<tag k="ssr:stedsnr" v="550212" />
		<tag k="train" v="yes" />
	</node>
	<node id="-3474" lat="60.1169944434" lon="10.5877777867">
		<tag k="name" v="Kistevelta" />
		<tag k="place" v="locality" />
		<tag k="ssr:stedsnr" v="829599" />
	</node>
	<node id="-2438" lat="59.9626027744" lon="10.8934111131">
		<tag k="name" v="Romsås" />
		<tag k="railway" v="halt" />
		<tag k="ssr:stedsnr" v="84764" />
		<tag k="train" v="yes" />
	</node>
	<node id="-2435" lat="59.9585527755" lon="10.7448083247">
		<tag k="name" v="Nordberg" />
		<tag k="railway" v="halt" />
		<tag k="ssr:stedsnr" v="84735" />
		<tag k="train" v="yes" />
	</node>
	<node id="-1922" lat="59.873563887" lon="10.8102194467">
		<tag k="name" v="Lambertseter" />
		<tag k="railway" v="halt" />
		<tag k="ssr:stedsnr" v="751550" />
		<tag k="train" v="yes" />
	</node>
	<node id="-1411" lat="59.8664388867" lon="10.894700002">
		<tag k="highway" v="path" />
		<tag k="name" v="Plankeveien" />
		<tag k="ssr:stedsnr" v="509223" />
	</node>
	<node id="-2430" lat="59.8695916623" lon="10.757799997">
		<tag k="highway" v="path" />
		<tag k="name" v="Tertitten" />
		<tag k="ssr:stedsnr" v="84582" />
	</node>
	<node id="-1914" lat="59.9091499982" lon="10.7103000068">
		<tag k="man_made" v="quay" />
		<tag k="name" v="Hjortneskaia" />
		<tag k="place" v="locality" />
		<tag k="ssr:stedsnr" v="906475" />
	</node>
	<node id="-2937" lat="59.9457444443" lon="10.7101444408">
		<tag k="name" v="Gaustad" />
		<tag k="railway" v="halt" />
		<tag k="ssr:stedsnr" v="404846" />
		<tag k="train" v="yes" />
	</node>
	<node id="-3445" lat="59.951302777" lon="10.8584833298">
		<tag k="name" v="Rødtvet" />
		<tag k="railway" v="halt" />
		<tag k="ssr:stedsnr" v="812770" />
		<tag k="train" v="yes" />
	</node>
	<node id="-3444" lat="59.9579527812" lon="10.8712111137">
		<tag k="name" v="Ammerud" />
		<tag k="railway" v="halt" />
		<tag k="ssr:stedsnr" v="812769" />
		<tag k="train" v="yes" />
	</node>
	<node id="-3443" lat="59.9640777783" lon="10.7849638838">
		<tag k="name" v="Kjelsås" />
		<tag k="railway" v="halt" />
		<tag k="ssr:stedsnr" v="812748" />
		<tag k="train" v="yes" />
	</node>
	<node id="-3440" lat="59.9663027769" lon="10.7538638881">
		<tag k="name" v="Grinden" />
		<tag k="place" v="locality" />
		<tag k="ssr:stedsnr" v="812736" />
	</node>
	<node id="-2536" lat="60.0240611107" lon="10.809947225">
		<tag k="alt_name" v="Snippen" />
		<tag k="name" v="Snippen holdeplass" />
		<tag k="railway" v="halt" />
		<tag k="ssr:stedsnr" v="127430" />
		<tag k="train" v="yes" />
	</node>
	<node id="-1938" lat="59.903038888" lon="10.6673444518">
		<tag k="fixme" v="consider highway=path" />
		<tag k="highway" v="track" />
		<tag k="name" v="Frølichs vei" />
		<tag k="ssr:stedsnr" v="909801" />
	</node>
	<node id="-3430" lat="59.8863250033" lon="10.751383338">
		<tag k="man_made" v="quay" />
		<tag k="name" v="Søndre Sjursøykai" />
		<tag k="place" v="locality" />
		<tag k="ssr:stedsnr" v="812508" />
	</node>
	<node id="-3429" lat="59.8887000008" lon="10.7517277821">
		<tag k="man_made" v="quay" />
		<tag k="name" v="Nordre Sjursøykai" />
		<tag k="place" v="locality" />
		<tag k="ssr:stedsnr" v="812504" />
	</node>
	<node id="-3428" lat="59.884111094" lon="10.7624312082">
		<tag k="alt_name" v="Kneppeskjærutstikker" />
		<tag k="man_made" v="quay" />
		<tag k="name" v="Kneppeskjærutstikkeren" />
		<tag k="place" v="locality" />
		<tag k="ssr:stedsnr" v="812493" />
	</node>
	<node id="-3427" lat="59.8860250014" lon="10.7741749985">
		<tag k="name" v="Sportsplassen" />
		<tag k="railway" v="halt" />
		<tag k="ssr:stedsnr" v="812491" />
		<tag k="train" v="yes" />
	</node>
	<node id="-2753" lat="59.9550611106" lon="10.7016638851">
		<tag k="name" v="Gråkammen" />
		<tag k="railway" v="halt" />
		<tag k="ssr:stedsnr" v="307995" />
		<tag k="train" v="yes" />
	</node>
	<node id="-2912" lat="59.9411916625" lon="10.8392611165">
		<tag k="name" v="Linderud" />
		<tag k="railway" v="halt" />
		<tag k="ssr:stedsnr" v="387749" />
		<tag k="train" v="yes" />
	</node>
	<node id="-2911" lat="59.9444111137" lon="10.8467749993">
		<tag k="name" v="Veitvet" />
		<tag k="railway" v="halt" />
		<tag k="ssr:stedsnr" v="387745" />
		<tag k="train" v="yes" />
	</node>
	<node id="-1886" lat="59.9206499976" lon="10.6902888811">
		<tag k="bridge" v="yes" />
		<tag k="layer" v="1" />
		<tag k="name" v="Drammensveien" />
		<tag k="ssr:stedsnr" v="896891" />
	</node>
	<node id="-2909" lat="59.9064250017" lon="10.7349444363">
		<tag k="alt_name" v="Akershuskai søndre;Søndre Akershuskai" />
		<tag k="man_made" v="quay" />
		<tag k="name" v="Søndre Akershuskaia" />
		<tag k="place" v="locality" />
		<tag k="ssr:stedsnr" v="387715" />
	</node>
	<node id="-2908" lat="59.9322166691" lon="10.8606027813">
		<tag k="junction" v="yes" />
		<tag k="name" v="Blåsbort" />
		<tag k="place" v="locality" />
		<tag k="ssr:stedsnr" v="387708" />
	</node>
	<node id="-1371" lat="59.8978333309" lon="10.8124222291">
		<tag k="name" v="Manglerud" />
		<tag k="railway" v="halt" />
		<tag k="ssr:stedsnr" v="387754" />
		<tag k="train" v="yes" />
	</node>
	<node id="-1370" lat="59.9015055582" lon="10.7559999951">
		<tag k="alt_name" v="Lohavna" />
		<tag k="landuse" v="harbour" />
		<tag k="name" v="Lohavn" />
		<tag k="seamark:type" v="harbour" />
		<tag k="ssr:stedsnr" v="387705" />
	</node>
	<node id="-1369" lat="59.9772611092" lon="10.8411027781">
		<tag k="ford" v="yes" />
		<tag k="name" v="Evensetervadet" />
		<tag k="place" v="locality" />
		<tag k="ssr:stedsnr" v="387704" />
	</node>
	<node id="-2927" lat="59.9127916643" lon="10.7418916665">
		<tag k="name" v="Stortinget" />
		<tag k="railway" v="station" />
		<tag k="ssr:stedsnr" v="390648" />
		<tag k="train" v="yes" />
	</node>
	<node id="-2388" lat="59.9092444418" lon="10.812027777">
		<tag k="name" v="Brynseng" />
		<tag k="railway" v="station" />
		<tag k="ssr:stedsnr" v="65099" />
		<tag k="train" v="yes" />
	</node>
	<node id="-3411" lat="59.9403555559" lon="10.7163638974">
		<tag k="name" v="Blindern" />
		<tag k="old_name" v="Blindernveien" />
		<tag k="railway" v="halt" />
		<tag k="ssr:stedsnr" v="811209" />
		<tag k="train" v="yes" />
	</node>
	<node id="-2384" lat="59.8868500025" lon="10.8005666673">
		<tag k="name" v="Brattlikollen" />
		<tag k="railway" v="halt" />
		<tag k="ssr:stedsnr" v="65156" />
		<tag k="train" v="yes" />
	</node>
	<node id="-3402" lat="59.967105554" lon="10.7338166712">
		<tag k="name" v="Sognsvann" />
		<tag k="old_name" v="Sognsvatn" />
		<tag k="railway" v="halt" />
		<tag k="ssr:stedsnr" v="794548" />
		<tag k="train" v="yes" />
	</node>
	<node id="-2884" lat="60.0378166704" lon="10.8127833286">
		<tag k="alt_name" v="Movatn" />
		<tag k="name" v="Movatn stasjon" />
		<tag k="railway" v="station" />
		<tag k="ssr:stedsnr" v="369388" />
		<tag k="train" v="yes" />
	</node>
	<node id="-1853" lat="59.9479337917" lon="10.9273512842">
		<tag k="name" v="Høybråten stasjon" />
		<tag k="railway" v="station" />
		<tag k="ssr:stedsnr" v="672485" />
		<tag k="train" v="yes" />
	</node>
	<node id="-1903" lat="59.8713305554" lon="10.7900555586">
		<tag k="name" v="Kastellet" />
		<tag k="railway" v="halt" />
		<tag k="ssr:stedsnr" v="733143" />
		<tag k="train" v="yes" />
	</node>
	<node id="-2100" lat="59.8864472238" lon="10.725391668">
		<tag k="man_made" v="quay" />
		<tag k="name" v="Nordre brygge" />
		<tag k="place" v="locality" />
		<tag k="ssr:stedsnr" v="873453" />
	</node>
	<node id="-2357" lat="59.923675004" lon="10.8356777826">
		<tag k="bridge" v="yes" />
		<tag k="layer" v="1" />
		<tag k="name" v="Alna" />
		<tag k="ssr:stedsnr" v="46885" />
	</node>
	<node id="-2868" lat="59.9106666642" lon="10.7522583411">
		<tag k="alt_name" v="Oslo S" />
		<tag k="name" v="Oslo sentralstasjon" />
		<tag k="railway" v="station" />
		<tag k="ssr:stedsnr" v="369108" />
		<tag k="train" v="yes" />
	</node>
	<node id="-1331" lat="59.86683333" lon="10.821202783">
		<tag k="name" v="Bergkrystallen" />
		<tag k="railway" v="halt" />
		<tag k="ssr:stedsnr" v="490133" />
		<tag k="train" v="yes" />
	</node>
	<node id="-1329" lat="59.8957194463" lon="10.8054805597">
		<tag k="name" v="Ryen" />
		<tag k="railway" v="halt" />
		<tag k="ssr:stedsnr" v="490092" />
		<tag k="train" v="yes" />
	</node>
	<node id="-3374" lat="59.866899999" lon="10.7925000008">
		<tag k="name" v="Bråten" />
		<tag k="railway" v="halt" />
		<tag k="ssr:stedsnr" v="793132" />
		<tag k="train" v="yes" />
	</node>
	<node id="-2861" lat="59.9223696454" lon="10.6783778821">
		<tag k="name" v="Skøyen stasjon" />
		<tag k="railway" v="station" />
		<tag k="ssr:stedsnr" v="368927" />
		<tag k="train" v="yes" />
	</node>
	<node id="-3122" lat="59.9621277789" lon="10.9087611134">
		<tag k="name" v="Rommen" />
		<tag k="railway" v="halt" />
		<tag k="ssr:stedsnr" v="569725" />
		<tag k="train" v="yes" />
	</node>
	<node id="-1374" lat="59.9450972224" lon="10.778247214">
		<tag k="name" v="Storo bru" />
		<tag k="railway" v="halt" />
		<tag k="ssr:stedsnr" v="387765" />
		<tag k="train" v="yes" />
	</node>
	<node id="-1841" lat="59.8823805542" lon="10.7658194422">
		<tag k="man_made" v="quay" />
		<tag k="name" v="Ormsundkaia" />
		<tag k="place" v="locality" />
		<tag k="ssr:stedsnr" v="663262" />
	</node>
	<node id="-3362" lat="59.9249277796" lon="10.6748833316">
		<tag k="name" v="Hoff" />
		<tag k="railway" v="halt" />
		<tag k="ssr:stedsnr" v="787746" />
		<tag k="train" v="yes" />
	</node>
	<node id="-2847" lat="59.9790472251" lon="10.6765416649">
		<tag k="name" v="Frognerseteren" />
		<tag k="old_name" v="Frognersætra" />
		<tag k="railway" v="halt" />
		<tag k="ssr:stedsnr" v="368001" />
		<tag k="train" v="yes" />
	</node>
	<node id="-2844" lat="59.9243583341" lon="10.6588222281">
		<tag k="name" v="Ullern" />
		<tag k="railway" v="halt" />
		<tag k="ssr:stedsnr" v="362792" />
		<tag k="train" v="yes" />
	</node>
	<node id="-1885" lat="59.9259000024" lon="10.8534722187">
		<tag k="bridge" v="yes" />
		<tag k="layer" v="1" />
		<tag k="name" v="Terminalveien" />
		<tag k="ssr:stedsnr" v="896884" />
	</node>
	<node id="-2601" lat="59.9088672251" lon="10.7204641387">
		<tag k="loc_name" v="Follumkaia" />
		<tag k="man_made" v="quay" />
		<tag k="name" v="Filipstadkaia" />
		<tag k="place" v="locality" />
		<tag k="ssr:stedsnr" v="160931" />
	</node>
	<node id="-1305" lat="59.931277776" lon="10.6557138838">
		<tag k="name" v="Ullernåsen" />
		<tag k="railway" v="halt" />
		<tag k="ssr:stedsnr" v="484761" />
		<tag k="train" v="yes" />
	</node>
	<node id="-2327" lat="59.9464499983" lon="10.7885666748">
		<tag k="name" v="Disen" />
		<tag k="railway" v="halt" />
		<tag k="ssr:stedsnr" v="24771" />
		<tag k="train" v="yes" />
	</node>
	<node id="-2838" lat="59.9675249966" lon="10.6890361091">
		<tag k="fixme" v="consider highway=path" />
		<tag k="highway" v="track" />
		<tag k="name" v="Skådalsveien" />
		<tag k="ssr:stedsnr" v="361835" />
	</node>
	<node id="-2325" lat="59.9260166668" lon="10.7796250039">
		<tag k="name" v="Carl Berners pl." />
		<tag k="railway" v="halt" />
		<tag k="ssr:stedsnr" v="24766" />
		<tag k="train" v="yes" />
	</node>
	<node id="-2324" lat="59.926916665" lon="10.8632666681">
		<tag k="name" v="Trosterud" />
		<tag k="railway" v="halt" />
		<tag k="ssr:stedsnr" v="24760" />
		<tag k="train" v="yes" />
	</node>
	<node id="-2323" lat="59.9328368585" lon="10.8820313237">
		<tag k="name" v="Lindeberg" />
		<tag k="railway" v="halt" />
		<tag k="ssr:stedsnr" v="24759" />
		<tag k="train" v="yes" />
	</node>
	<node id="-1297" lat="59.9137388901" lon="10.8417416705">
		<tag k="name" v="Tveita" />
		<tag k="railway" v="halt" />
		<tag k="ssr:stedsnr" v="327716" />
		<tag k="train" v="yes" />
	</node>
	<node id="-1296" lat="59.9542944443" lon="10.8665583369">
		<tag k="name" v="Kalbakken" />
		<tag k="old_name" v="Kaldbakken" />
		<tag k="railway" v="halt" />
		<tag k="ssr:stedsnr" v="327715" />
		<tag k="train" v="yes" />
	</node>
	<node id="-3248" lat="59.9126361132" lon="10.8017222252">
		<tag k="name" v="Helsfyr" />
		<tag k="railway" v="halt" />
		<tag k="ssr:stedsnr" v="630718" />
		<tag k="train" v="yes" />
	</node>
	<node id="-2317" lat="59.9075166695" lon="10.7528611034">
		<tag k="man_made" v="quay" />
		<tag k="name" v="Krankaia" />
		<tag k="place" v="locality" />
		<tag k="ssr:stedsnr" v="24729" />
	</node>
	<node id="-1290" lat="59.8848305519" lon="10.7660388806">
		<tag k="man_made" v="quay" />
		<tag k="name" v="Søndre Bekkelagskai" />
		<tag k="place" v="locality" />
		<tag k="ssr:stedsnr" v="327431" />
	</node>
	<node id="-3336" lat="60.1223999978" lon="10.6042722134">
		<tag k="highway" v="path" />
		<tag k="name" v="Fururød" />
		<tag k="ssr:stedsnr" v="768586" />
	</node>
	<node id="-1285" lat="59.9060750017" lon="10.7656694453">
		<tag k="bridge" v="yes" />
		<tag k="layer" v="1" />
		<tag k="name" v="Bispegt. bru o/jernbane" />
		<tag k="ssr:stedsnr" v="471868" />
	</node>
	<node id="-1284" lat="59.9094138881" lon="10.7935333321">
		<tag k="bridge" v="yes" />
		<tag k="layer" v="1" />
		<tag k="name" v="Strømsveien kulvert" />
		<tag k="ssr:stedsnr" v="471864" />
	</node>
	<node id="-2819" lat="59.962694441" lon="10.7838361087">
		<tag k="name" v="Kjelsåsalleen" />
		<tag k="railway" v="halt" />
		<tag k="ssr:stedsnr" v="327698" />
		<tag k="train" v="yes" />
	</node>
	<node id="-2818" lat="59.9119138896" lon="10.7500722231">
		<tag k="loc_name" v="Plata" />
		<tag k="name" v="Jernbanetorget" />
		<tag k="railway" v="halt" />
		<tag k="ssr:stedsnr" v="327696" />
		<tag k="train" v="yes" />
	</node>
	<node id="-1281" lat="59.9251333367" lon="10.6295333246">
		<tag k="name" v="Øraker" />
		<tag k="railway" v="halt" />
		<tag k="ssr:stedsnr" v="307914" />
		<tag k="train" v="yes" />
	</node>
	<node id="-2816" lat="59.9018833358" lon="10.7436111191">
		<tag k="man_made" v="quay" />
		<tag k="name" v="Utstikker 2" />
		<tag k="place" v="locality" />
		<tag k="ssr:stedsnr" v="327682" />
	</node>
	<node id="-2815" lat="59.9071480299" lon="10.7152427463">
		<tag k="man_made" v="quay" />
		<tag k="name" v="Filipstadkaia" />
		<tag k="place" v="locality" />
		<tag k="ssr:stedsnr" v="327679" />
	</node>
	<node id="-1237" lat="59.9287361143" lon="10.6472611063">
		<tag k="name" v="Åsjordet" />
		<tag k="railway" v="halt" />
		<tag k="ssr:stedsnr" v="247927" />
		<tag k="train" v="yes" />
	</node>
	<node id="-1275" lat="59.9808055524" lon="10.6524527769">
		<tag k="name" v="Lillevann" />
		<tag k="old_name" v="Lillevatn" />
		<tag k="railway" v="halt" />
		<tag k="ssr:stedsnr" v="307005" />
		<tag k="train" v="yes" />
	</node>
	<node id="-1781" lat="59.9083222196" lon="10.7514583375">
		<tag k="man_made" v="quay" />
		<tag k="name" v="Palékaia" />
		<tag k="place" v="locality" />
		<tag k="ssr:stedsnr" v="630671" />
	</node>
	<node id="-3311" lat="59.9519333297" lon="10.7854249923">
		<tag k="name" v="Glads vei" />
		<tag k="railway" v="halt" />
		<tag k="ssr:stedsnr" v="751794" />
		<tag k="train" v="yes" />
	</node>
	<node id="-1372" lat="59.9363527776" lon="10.8313777728">
		<tag k="name" v="Vollebekk" />
		<tag k="railway" v="halt" />
		<tag k="ssr:stedsnr" v="387756" />
		<tag k="train" v="yes" />
	</node>
	<node id="-3308" lat="59.962194447" lon="10.9233861087">
		<tag k="name" v="Stovner" />
		<tag k="railway" v="halt" />
		<tag k="ssr:stedsnr" v="751778" />
		<tag k="train" v="yes" />
	</node>
	<node id="-2795" lat="59.9393444445" lon="10.7043361092">
		<tag k="name" v="Steinerud" />
		<tag k="railway" v="halt" />
		<tag k="ssr:stedsnr" v="326220" />
		<tag k="train" v="yes" />
	</node>
	<node id="-1258" lat="59.9095749972" lon="10.6954805537">
		<tag k="leisure" v="marina" />
		<tag k="name" v="Dronninghavna" />
		<tag k="ssr:stedsnr" v="299403" />
	</node>
	<node id="-3303" lat="59.9065166632" lon="10.7582583416">
		<tag k="man_made" v="quay" />
		<tag k="name" v="Bispekaia" />
		<tag k="place" v="locality" />
		<tag k="ssr:stedsnr" v="751750" />
	</node>
	<node id="-3301" lat="59.9114972222" lon="10.757544444">
		<tag k="bridge" v="yes" />
		<tag k="layer" v="1" />
		<tag k="name" v="Schweigaards bru" />
		<tag k="ssr:stedsnr" v="751733" />
	</node>
	<node id="-1251" lat="59.907623206" lon="10.7092180141">
		<tag k="man_made" v="quay" />
		<tag k="name" v="Brannskjærutstikkeren" />
		<tag k="old_name" v="Brannskjær utstikker" />
		<tag k="place" v="locality" />
		<tag k="ssr:stedsnr" v="464931" />
	</node>
	<node id="-1249" lat="59.9226555583" lon="10.8267777701">
		<tag k="bridge" v="yes" />
		<tag k="layer" v="1" />
		<tag k="name" v="Haslesplitten" />
		<tag k="ssr:stedsnr" v="289909" />
	</node>
	<node id="-1759" lat="60.0454305554" lon="10.6009138848">
		<tag k="bridge" v="yes" />
		<tag k="layer" v="1" />
		<tag k="name" v="Trofosskloppa" />
		<tag k="ssr:stedsnr" v="727422" />
	</node>
	<node id="-1756" lat="59.9261166658" lon="10.6301583374">
		<tag k="name" v="Lysakerelva" />
		<tag k="railway" v="halt" />
		<tag k="ssr:stedsnr" v="726797" />
		<tag k="train" v="yes" />
	</node>
	<node id="-1402" lat="59.8906250004" lon="10.7196694524">
		<tag k="man_made" v="quay" />
		<tag k="name" v="Skytterbrygga" />
		<tag k="place" v="locality" />
		<tag k="ssr:stedsnr" v="509414" />
	</node>
	<node id="-3288" lat="59.9203388859" lon="10.6504749928">
		<tag k="name" v="Furulund" />
		<tag k="railway" v="halt" />
		<tag k="ssr:stedsnr" v="751261" />
		<tag k="train" v="yes" />
	</node>
	<node id="-2326" lat="59.9498972186" lon="10.7901499963">
		<tag k="name" v="Sanatoriet" />
		<tag k="railway" v="halt" />
		<tag k="ssr:stedsnr" v="24769" />
		<tag k="train" v="yes" />
	</node>
	<node id="-1155" lat="59.9097500032" lon="10.7071305498">
		<tag k="man_made" v="quay" />
		<tag k="name" v="Framnesbrygga" />
		<tag k="place" v="locality" />
		<tag k="ssr:stedsnr" v="282940" />
	</node>
	<node id="-2773" lat="59.9661083325" lon="10.7831666724">
		<tag k="alt_name" v="Kjelsås" />
		<tag k="name" v="Kjelsås stasjon" />
		<tag k="old_name" v="Kjelsaas" />
		<tag k="railway" v="station" />
		<tag k="ssr:stedsnr" v="308526" />
		<tag k="train" v="yes" />
	</node>
	<node id="-3633" lat="59.9056307286" lon="10.7099592396">
		<tag k="man_made" v="quay" />
		<tag k="name" v="Filipstadutstikkeren" />
		<tag k="place" v="locality" />
		<tag k="ssr:stedsnr" v="985804" />
	</node>
	<node id="-2762" lat="59.9100027791" lon="10.8306666582">
		<tag k="name" v="Hellerud" />
		<tag k="railway" v="halt" />
		<tag k="ssr:stedsnr" v="308093" />
		<tag k="train" v="yes" />
	</node>
	<node id="-2248" lat="59.9346611154" lon="10.7089416591">
		<tag k="alt_name" v="Frøen" />
		<tag k="name" v="Frøn" />
		<tag k="railway" v="halt" />
		<tag k="ssr:stedsnr" v="4954" />
		<tag k="train" v="yes" />
	</node>
	<node id="-2759" lat="59.8978995531" lon="10.7592988329">
		<tag k="alt_name" v="Sjømannskolen" />
		<tag k="name" v="Sjømannsskolen" />
		<tag k="railway" v="station" />
		<tag k="ssr:stedsnr" v="308053" />
		<tag k="train" v="yes" />
	</node>
	<node id="-1731" lat="59.9208554859" lon="10.7807214513">
		<tag k="name" v="Tøyen holdeplass" />
		<tag k="railway" v="halt" />
		<tag k="ssr:stedsnr" v="611028" />
		<tag k="train" v="yes" />
	</node>
	<node id="-3531" lat="59.8525519888" lon="10.7848988061">
		<tag k="name" v="Ljan stasjon" />
		<tag k="railway" v="station" />
		<tag k="ssr:stedsnr" v="855240" />
		<tag k="train" v="yes" />
	</node>
	<node id="-2751" lat="59.9513424724" lon="10.9086747167">
		<tag k="name" v="Haugenstua holdeplass" />
		<tag k="railway" v="halt" />
		<tag k="ssr:stedsnr" v="307534" />
		<tag k="train" v="yes" />
	</node>
	<node id="-2232" lat="59.8688277755" lon="10.8126833271">
		<tag k="name" v="Munkelia" />
		<tag k="railway" v="halt" />
		<tag k="ssr:stedsnr" v="4128" />
		<tag k="train" v="yes" />
	</node>
	<node id="-1207" lat="59.9056833317" lon="10.7596583267">
		<tag k="man_made" v="quay" />
		<tag k="name" v="Trebrygga" />
		<tag k="place" v="locality" />
		<tag k="ssr:stedsnr" v="448755" />
	</node>
	<node id="-2741" lat="59.9886999996" lon="10.6681194499">
		<tag k="man_made" v="tower" />
		<tag k="name" v="Tryvannstårnet" />
		<tag k="ssr:stedsnr" v="300844" />
		<tag k="tower:type" v="communications" />
	</node>
	<node id="-1139" lat="59.9108222195" lon="10.7325805613">
		<tag k="alt_name" v="Rådhusbrygga" />
		<tag k="man_made" v="quay" />
		<tag k="name" v="Rådhusbrygge" />
		<tag k="place" v="locality" />
		<tag k="ssr:stedsnr" v="267321" />
	</node>
	<node id="-1712" lat="59.9220805581" lon="10.6787833404">
		<tag k="bridge" v="yes" />
		<tag k="layer" v="1" />
		<tag k="name" v="Skøyen" />
		<tag k="ssr:stedsnr" v="714868" />
	</node>
	<node id="-1711" lat="59.833825004" lon="10.8402555561">
		<tag k="bridge" v="yes" />
		<tag k="layer" v="1" />
		<tag k="name" v="Klemetsrud" />
		<tag k="ssr:stedsnr" v="714860" />
	</node>
	<node id="-1197" lat="59.9345166634" lon="10.6658444523">
		<tag k="name" v="Montebello" />
		<tag k="railway" v="halt" />
		<tag k="ssr:stedsnr" v="448234" />
		<tag k="train" v="yes" />
	</node>
	<node id="-2726" lat="59.9224111095" lon="10.8548666729">
		<tag k="name" v="Haugerud" />
		<tag k="railway" v="halt" />
		<tag k="ssr:stedsnr" v="206749" />
		<tag k="train" v="yes" />
	</node>
	<node id="-2724" lat="59.9076916708" lon="10.7485694365">
		<tag k="man_made" v="quay" />
		<tag k="name" v="Langkaia" />
		<tag k="place" v="locality" />
		<tag k="ssr:stedsnr" v="206718" />
	</node>
	<node id="-2723" lat="59.9096222264" lon="10.7274277734">
		<tag k="man_made" v="quay" />
		<tag k="name" v="Tingvallakaia" />
		<tag k="place" v="locality" />
		<tag k="ssr:stedsnr" v="206711" />
	</node>
	<node id="-2722" lat="59.9533277756" lon="10.7635805632">
		<tag k="bridge" v="yes" />
		<tag k="layer" v="1" />
		<tag k="name" v="Nydalsbrua" />
		<tag k="ssr:stedsnr" v="206701" />
	</node>
	<node id="-3229" lat="59.9210249986" lon="10.6431749945">
		<tag k="name" v="Sollerud" />
		<tag k="railway" v="halt" />
		<tag k="ssr:stedsnr" v="629233" />
		<tag k="train" v="yes" />
	</node>
	<node id="-1691" lat="59.9461388924" lon="10.667252773">
		<tag k="name" v="Holmen" />
		<tag k="railway" v="halt" />
		<tag k="ssr:stedsnr" v="707854" />
		<tag k="train" v="yes" />
	</node>
	<node id="-2415" lat="59.9505083304" lon="10.6368250039">
		<tag k="name" v="Ekraveien stasjon" />
		<tag k="railway" v="halt" />
		<tag k="ssr:stedsnr" v="83243" />
		<tag k="train" v="yes" />
	</node>
	<node id="-1175" lat="59.9165333309" lon="10.6553277724">
		<tag k="bridge" v="yes" />
		<tag k="layer" v="1" />
		<tag k="name" v="Vækerøveien" />
		<tag k="ssr:stedsnr" v="289900" />
	</node>
	<node id="-1684" lat="59.9626055538" lon="10.7028833409">
		<tag k="fixme" v="consider highway=path" />
		<tag k="highway" v="track" />
		<tag k="name" v="Båntjernveien" />
		<tag k="ssr:stedsnr" v="543806" />
	</node>
	<node id="-3214" lat="59.951088889" lon="10.7435027855">
		<tag k="name" v="Berg" />
		<tag k="railway" v="halt" />
		<tag k="ssr:stedsnr" v="611528" />
		<tag k="train" v="yes" />
	</node>
	<node id="-1645" lat="59.9290500023" lon="10.801933329">
		<tag k="junction" v="yes" />
		<tag k="name" v="Økernkrysset" />
		<tag k="place" v="locality" />
		<tag k="ssr:stedsnr" v="691682" />
	</node>
	<node id="-2700" lat="59.9647722231" lon="10.7096027757">
		<tag k="highway" v="path" />
		<tag k="name" v="Ankerveien" />
		<tag k="ssr:stedsnr" v="205720" />
	</node>
	<node id="-3205" lat="59.8471265849" lon="10.8033401738">
		<tag k="name" v="Hauketo stasjon" />
		<tag k="railway" v="station" />
		<tag k="ssr:stedsnr" v="611241" />
		<tag k="train" v="yes" />
	</node>
	<node id="-3350" lat="59.9801916638" lon="10.7544499925">
		<tag k="amenity" v="parking" />
		<tag k="name" v="Låkeberget" />
		<tag k="ssr:stedsnr" v="783650" />
	</node>
	<node id="-2176" lat="59.9325472192" lon="10.8231472202">
		<tag k="name" v="Risløkka" />
		<tag k="railway" v="halt" />
		<tag k="ssr:stedsnr" v="934734" />
		<tag k="train" v="yes" />
	</node>
	<node id="-2174" lat="59.8990944442" lon="10.8366527753">
		<tag k="name" v="Skøyenåsen" />
		<tag k="railway" v="halt" />
		<tag k="ssr:stedsnr" v="934726" />
		<tag k="train" v="yes" />
	</node>
	<node id="-1045" lat="59.9063250032" lon="10.7562416698">
		<tag k="man_made" v="quay" />
		<tag k="name" v="Paulsenkaia" />
		<tag k="place" v="locality" />
		<tag k="ssr:stedsnr" v="84725" />
	</node>
	<node id="-1727" lat="59.9801777799" lon="10.6644111188">
		<tag k="name" v="Voksenkollen" />
		<tag k="railway" v="halt" />
		<tag k="ssr:stedsnr" v="610005" />
		<tag k="train" v="yes" />
	</node>
	<node id="-1654" lat="59.9601666659" lon="10.7847333315">
		<tag k="name" v="Grefsen stadion" />
		<tag k="railway" v="halt" />
		<tag k="ssr:stedsnr" v="691741" />
		<tag k="train" v="yes" />
	</node>
	<node id="-1651" lat="59.9152472227" lon="10.7319305599">
		<tag k="name" v="Nationaltheatret stasjon" />
		<tag k="railway" v="station" />
		<tag k="ssr:stedsnr" v="691710" />
		<tag k="train" v="yes" />
	</node>
	<node id="-1650" lat="59.9050785348" lon="10.7528864107">
		<tag k="man_made" v="quay" />
		<tag k="name" v="Bjørviksutstikkeren" />
		<tag k="place" v="locality" />
		<tag k="ssr:stedsnr" v="691707" />
	</node>
	<node id="-1648" lat="59.9033583362" lon="10.7386833282">
		<tag k="man_made" v="quay" />
		<tag k="name" v="Vippetangkaia" />
		<tag k="place" v="locality" />
		<tag k="ssr:stedsnr" v="691702" />
	</node>
	<node id="-2493" lat="59.9022500037" lon="10.6713277795">
		<tag k="fixme" v="consider highway=path" />
		<tag k="highway" v="track" />
		<tag k="name" v="Rideveien" />
		<tag k="ssr:stedsnr" v="120796" />
	</node>
	<node id="-3173" lat="59.9177722246" lon="10.6905555535">
		<tag k="bridge" v="yes" />
		<tag k="layer" v="1" />
		<tag k="name" v="Drammensveien" />
		<tag k="ssr:stedsnr" v="592910" />
	</node>
	<node id="-3172" lat="59.9577638919" lon="10.8732583329">
		<tag k="bridge" v="yes" />
		<tag k="layer" v="1" />
		<tag k="name" v="Burulla" />
		<tag k="ssr:stedsnr" v="592909" />
	</node>
	<node id="-2659" lat="59.9083666675" lon="10.818630758">
		<tag k="name" v="Bryn stasjon" />
		<tag k="railway" v="station" />
		<tag k="ssr:stedsnr" v="187119" />
		<tag k="train" v="yes" />
	</node>
	<node id="-2658" lat="59.9068555598" lon="10.8360833404">
		<tag k="name" v="Godlia" />
		<tag k="railway" v="station" />
		<tag k="ssr:stedsnr" v="187106" />
		<tag k="train" v="yes" />
	</node>
	<node id="-2661" lat="59.8637112829" lon="10.7859160822">
		<tag k="name" v="Nordstrand stasjon" />
		<tag k="railway" v="station" />
		<tag k="ssr:stedsnr" v="187158" />
		<tag k="train" v="yes" />
	</node>
	<node id="-3164" lat="60.1137083289" lon="10.6579750033">
		<tag k="junction" v="yes" />
		<tag k="name" v="Måsjøkrysset" />
		<tag k="place" v="locality" />
		<tag k="ssr:stedsnr" v="586589" />
	</node>
	<node id="-1115" lat="59.9281555549" lon="10.8051555595">
		<tag k="name" v="Økern" />
		<tag k="railway" v="halt" />
		<tag k="ssr:stedsnr" v="266755" />
		<tag k="train" v="yes" />
	</node>
	<node id="-2138" lat="59.9576999982" lon="10.6735277811">
		<tag k="name" v="Besserud" />
		<tag k="railway" v="halt" />
		<tag k="ssr:stedsnr" v="915058" />
		<tag k="train" v="yes" />
	</node>
	<node id="-1112" lat="59.961041666" lon="10.7389249979">
		<tag k="name" v="Holstein" />
		<tag k="railway" v="halt" />
		<tag k="ssr:stedsnr" v="266723" />
		<tag k="train" v="yes" />
	</node>
	<node id="-2647" lat="59.9521222257" lon="10.7523722236">
		<tag k="name" v="Tåsen" />
		<tag k="railway" v="halt" />
		<tag k="ssr:stedsnr" v="186574" />
		<tag k="train" v="yes" />
	</node>
	<node id="-1977" lat="60.0217999994" lon="10.5203361166">
		<tag k="name" v="Brattvelta" />
		<tag k="place" v="locality" />
		<tag k="ssr:stedsnr" v="786985" />
	</node>
	<node id="-1107" lat="59.9617472216" lon="10.8230416708">
		<tag k="highway" v="path" />
		<tag k="name" v="Hadelandsveien" />
		<tag k="ssr:stedsnr" v="266695" />
	</node>
	<node id="-2642" lat="59.9612611144" lon="10.6829666619">
		<tag k="name" v="Midtstuen" />
		<tag k="old_name" v="Midtstua" />
		<tag k="railway" v="halt" />
		<tag k="ssr:stedsnr" v="186059" />
		<tag k="train" v="yes" />
	</node>
	<node id="-3171" lat="59.8375611119" lon="10.7792111086">
		<tag k="bridge" v="yes" />
		<tag k="layer" v="1" />
		<tag k="name" v="Ljansbrua" />
		<tag k="ssr:stedsnr" v="592904" />
	</node>
	<node id="-1208" lat="59.8975500037" lon="10.7533055507">
		<tag k="man_made" v="quay" />
		<tag k="name" v="Grønliutstikker" />
		<tag k="place" v="locality" />
		<tag k="ssr:stedsnr" v="448756" />
	</node>
	<node id="-3659" lat="59.951908879" lon="10.7709823127">
		<tag k="name" v="Nydalen holdeplass" />
		<tag k="railway" v="halt" />
		<tag k="ssr:stedsnr" v="989980" />
		<tag k="train" v="yes" />
	</node>
	<node id="-2122" lat="60.0336444452" lon="10.5552527815">
		<tag k="name" v="Bergveltene" />
		<tag k="place" v="locality" />
		<tag k="ssr:stedsnr" v="905463" />
	</node>
	<node id="-1094" lat="59.8921972197" lon="10.7579583344">
		<tag k="man_made" v="quay" />
		<tag k="name" v="Nordre Kongshavnkai" />
		<tag k="place" v="locality" />
		<tag k="ssr:stedsnr" v="266468" />
	</node>
	<node id="-2117" lat="60.0600916657" lon="10.6451333317">
		<tag k="name" v="Tømtevelta" />
		<tag k="place" v="locality" />
		<tag k="ssr:stedsnr" v="950346" />
	</node>
	<node id="-1092" lat="59.8883194433" lon="10.7600055506">
		<tag k="man_made" v="quay" />
		<tag k="name" v="Østre Sjursøykai" />
		<tag k="place" v="locality" />
		<tag k="ssr:stedsnr" v="266454" />
	</node>
	<node id="-1602" lat="59.9105460162" lon="10.7324450734">
		<tag k="man_made" v="quay" />
		<tag k="name" v="Honnørbrygga" />
		<tag k="place" v="locality" />
		<tag k="ssr:stedsnr" v="509689" />
	</node>
	<node id="-1601" lat="59.9092049441" lon="10.7344476296">
		<tag k="alt_name" v="Akershuskai nordre;Nordre Akershuskaia" />
		<tag k="man_made" v="quay" />
		<tag k="name" v="Nordre Akershuskai" />
		<tag k="place" v="locality" />
		<tag k="ssr:stedsnr" v="509681" />
	</node>
	<node id="-2109" lat="59.9460305596" lon="10.7853638939">
		<tag k="name" v="Lettvinten" />
		<tag k="railway" v="halt" />
		<tag k="ssr:stedsnr" v="873728" />
		<tag k="train" v="yes" />
	</node>
	<node id="-1283" lat="59.9379583292" lon="10.8908444492">
		<tag k="bridge" v="yes" />
		<tag k="layer" v="1" />
		<tag k="name" v="Furuset påkjøringsrampe" />
		<tag k="ssr:stedsnr" v="471861" />
	</node>
	<node id="-1887" lat="59.9174944412" lon="10.8114722249">
		<tag k="bridge" v="yes" />
		<tag k="layer" v="1" />
		<tag k="name" v="Strømsveien-Teisenkrysset" />
		<tag k="ssr:stedsnr" v="896893" />
	</node>
	<node id="-2104" lat="59.9712638891" lon="10.8417638922">
		<tag k="highway" v="path" />
		<tag k="name" v="Gamlegruveveien" />
		<tag k="ssr:stedsnr" v="873658" />
	</node>
	<node id="-3125" lat="59.9239805557" lon="10.7928361175">
		<tag k="name" v="Hasle" />
		<tag k="railway" v="halt" />
		<tag k="ssr:stedsnr" v="569734" />
		<tag k="train" v="yes" />
	</node>
	<node id="-3124" lat="59.9134194461" lon="10.7888083299">
		<tag k="name" v="Ensjø" />
		<tag k="railway" v="halt" />
		<tag k="ssr:stedsnr" v="569733" />
		<tag k="train" v="yes" />
	</node>
	<node id="-3635" lat="59.9011887234" lon="10.7515544628">
		<tag k="man_made" v="quay" />
		<tag k="name" v="Sørengutstikkeren" />
		<tag k="place" v="locality" />
		<tag k="ssr:stedsnr" v="985823" />
	</node>
	<node id="-3634" lat="59.9081597165" lon="10.7224597652">
		<tag k="man_made" v="quay" />
		<tag k="name" v="Tjuvholmutstikkeren" />
		<tag k="place" v="locality" />
		<tag k="ssr:stedsnr" v="985805" />
	</node>
	<node id="-1585" lat="59.9017452702" lon="10.7570839033">
		<tag k="man_made" v="quay" />
		<tag k="name" v="Loengkaia" />
		<tag k="place" v="locality" />
		<tag k="ssr:stedsnr" v="299383" />
	</node>
	<node id="-3632" lat="59.9088912784" lon="10.7087884308">
		<tag k="man_made" v="quay" />
		<tag k="name" v="Vestre Hjortneskai" />
		<tag k="place" v="locality" />
		<tag k="ssr:stedsnr" v="985802" />
	</node>
	<node id="-3118" lat="59.9469083327" lon="10.7323888906">
		<tag k="name" v="Ullevål stadion" />
		<tag k="railway" v="halt" />
		<tag k="ssr:stedsnr" v="569708" />
		<tag k="train" v="yes" />
	</node>
	<node id="-3117" lat="59.9060527736" lon="10.7549416594">
		<tag k="man_made" v="quay" />
		<tag k="name" v="Tomtekaia" />
		<tag k="place" v="locality" />
		<tag k="ssr:stedsnr" v="569707" />
	</node>
	<node id="-3116" lat="59.8972861134" lon="10.7548666674">
		<tag k="man_made" v="quay" />
		<tag k="name" v="Ekebergkaia" />
		<tag k="place" v="locality" />
		<tag k="ssr:stedsnr" v="569705" />
	</node>
	<node id="-3115" lat="59.9055805532" lon="10.7464305471">
		<tag k="man_made" v="quay" />
		<tag k="name" v="Revierkaia" />
		<tag k="place" v="locality" />
		<tag k="ssr:stedsnr" v="569702" />
	</node>
	<node id="-3114" lat="59.9055861074" lon="10.7434805482">
		<tag k="man_made" v="quay" />
		<tag k="name" v="Festningskaia" />
		<tag k="place" v="locality" />
		<tag k="ssr:stedsnr" v="569701" />
	</node>
	<node id="-3625" lat="59.8932218796" lon="10.7614324393">
		<tag k="layer" v="-1" />
		<tag k="name" v="Kongshavntunnelen" />
		<tag k="ssr:stedsnr" v="976281" />
		<tag k="tunnel" v="yes" />
	</node>
	<node id="-1884" lat="59.9173166693" lon="10.6550999945">
		<tag k="bridge" v="yes" />
		<tag k="layer" v="1" />
		<tag k="name" v="Vækerøveien" />
		<tag k="ssr:stedsnr" v="896611" />
	</node>
	<node id="-1060" lat="59.9413666651" lon="10.8971277734">
		<tag k="name" v="Furuset" />
		<tag k="railway" v="halt" />
		<tag k="ssr:stedsnr" v="84758" />
		<tag k="train" v="yes" />
	</node>
	<node id="-2139" lat="59.9600999983" lon="10.6640472208">
		<tag k="name" v="Holmenkollen" />
		<tag k="railway" v="halt" />
		<tag k="ssr:stedsnr" v="915059" />
		<tag k="train" v="yes" />
	</node>
	<node id="-2080" lat="59.9028805559" lon="10.7555527709">
		<tag k="man_made" v="quay" />
		<tag k="name" v="Sørengkaia" />
		<tag k="place" v="locality" />
		<tag k="ssr:stedsnr" v="855058" />
	</node>
	<node id="-2079" lat="59.8940020245" lon="10.7552871022">
		<tag k="man_made" v="quay" />
		<tag k="name" v="Kongshavn" />
		<tag k="place" v="locality" />
		<tag k="ssr:stedsnr" v="855057" />
	</node>
	<node id="-1052" lat="59.9021805542" lon="10.7641611134">
		<tag k="name" v="Loenga stasjon" />
		<tag k="railway" v="station" />
		<tag k="ssr:stedsnr" v="84805" />
		<tag k="train" v="yes" />
	</node>
	<node id="-1114" lat="59.9614361103" lon="10.8820333397">
		<tag k="name" v="Grorud" />
		<tag k="railway" v="halt" />
		<tag k="ssr:stedsnr" v="266742" />
		<tag k="train" v="yes" />
	</node>
	<node id="-3121" lat="59.9719749989" lon="10.9296833364">
		<tag k="name" v="Vestli" />
		<tag k="railway" v="halt" />
		<tag k="ssr:stedsnr" v="569723" />
		<tag k="train" v="yes" />
	</node>
	<node id="-2581" lat="59.9553916676" lon="10.7856749916">
		<tag k="name" v="Grefsenplatået" />
		<tag k="railway" v="halt" />
		<tag k="ssr:stedsnr" v="144763" />
		<tag k="train" v="yes" />
	</node>
	<node id="-1044" lat="59.9374833305" lon="10.7845388954">
		<tag k="junction" v="yes" />
		<tag k="name" v="Sinsenkrysset" />
		<tag k="place" v="locality" />
		<tag k="ssr:stedsnr" v="84723" />
	</node>
	<node id="-3603" lat="60.0188583351" lon="10.5224611062">
		<tag k="ford" v="yes" />
		<tag k="name" v="Vadet" />
		<tag k="old_name" v="Vaaet" />
		<tag k="place" v="locality" />
		<tag k="ssr:stedsnr" v="967001" />
	</node>
	<node id="-2577" lat="59.9553416631" lon="10.8087750014">
		<tag k="highway" v="path" />
		<tag k="name" v="Grefsenkleiva" />
		<tag k="ssr:stedsnr" v="144710" />
	</node>
	<node id="-3598" lat="59.8840222248" lon="10.7694638825">
		<tag k="bridge" v="yes" />
		<tag k="layer" v="1" />
		<tag k="name" v="Bekkelaget" />
		<tag k="ssr:stedsnr" v="956875" />
	</node>
	<node id="-2061" lat="59.9159888899" lon="10.650886114">
		<tag k="bridge" v="yes" />
		<tag k="layer" v="1" />
		<tag k="name" v="Drammensveien" />
		<tag k="ssr:stedsnr" v="835873" />
	</node>
	<node id="-1111" lat="59.9444722196" lon="10.7249972131">
		<tag k="name" v="Vestgrensa" />
		<tag k="railway" v="halt" />
		<tag k="ssr:stedsnr" v="266715" />
		<tag k="train" v="yes" />
	</node>
	<node id="-1586" lat="59.8235292379" lon="10.7979900635">
		<tag k="name" v="Rosenholm holdeplass" />
		<tag k="railway" v="halt" />
		<tag k="ssr:stedsnr" v="507913" />
		<tag k="train" v="yes" />
	</node>
	<node id="-2567" lat="59.8722916664" lon="10.7717944491">
		<tag k="highway" v="path" />
		<tag k="name" v="Seilerstien" />
		<tag k="ssr:stedsnr" v="144587" />
	</node>
	<node id="-2566" lat="59.8687555594" lon="10.7626166695">
		<tag k="man_made" v="quay" />
		<tag k="name" v="Malmøya brygge" />
		<tag k="place" v="locality" />
		<tag k="ssr:stedsnr" v="144586" />
	</node>
	<node id="-1279" lat="59.9206861139" lon="10.6354694393">
		<tag k="name" v="Lilleaker" />
		<tag k="railway" v="halt" />
		<tag k="ssr:stedsnr" v="307905" />
		<tag k="train" v="yes" />
	</node>
	<node id="-2562" lat="59.8891944416" lon="10.7613833384">
		<tag k="man_made" v="quay" />
		<tag k="name" v="Nordre Bekkelagskai" />
		<tag k="place" v="locality" />
		<tag k="ssr:stedsnr" v="144499" />
	</node>
</osm>
