<?xml version="1.0" encoding="UTF-8"?>
<osm generator="osmapis" version="0.6">
	<node id="-469755" lat="60.4064555542" lon="5.79088888743">
		<tag k="bridge" v="yes" />
		<tag k="layer" v="1" />
		<tag k="name" v="Vetle" />
		<tag k="ssr:stedsnr" v="472226" />
	</node>
	<node id="-469880" lat="60.4009888929" lon="5.75522778411">
		<tag k="bridge" v="yes" />
		<tag k="layer" v="1" />
		<tag k="name" v="Aldal" />
		<tag k="ssr:stedsnr" v="593200" />
	</node>
	<node id="-469879" lat="60.4017000025" lon="5.75374444609">
		<tag k="layer" v="-1" />
		<tag k="name" v="Haukanes" />
		<tag k="ssr:stedsnr" v="590477" />
		<tag k="tunnel" v="yes" />
	</node>
	<node id="-469366" lat="60.3913083341" lon="5.76736388546">
		<tag k="man_made" v="breakwater" />
		<tag k="name" v="Gjerdsmoloen" />
		<tag k="place" v="locality" />
		<tag k="ssr:stedsnr" v="345417" />
	</node>
	<node id="-470004" lat="60.3916194467" lon="5.84086665913">
		<tag k="bridge" v="yes" />
		<tag k="layer" v="1" />
		<tag k="name" v="Mørkhøl" />
		<tag k="ssr:stedsnr" v="715238" />
	</node>
	<node id="-470131" lat="60.3306694403" lon="5.68816111862">
		<tag k="bridge" v="yes" />
		<tag k="layer" v="1" />
		<tag k="name" v="Sævild" />
		<tag k="ssr:stedsnr" v="836190" />
	</node>
	<node id="-470130" lat="60.4480972238" lon="5.86221389165">
		<tag k="bridge" v="yes" />
		<tag k="layer" v="1" />
		<tag k="name" v="Tverrelva" />
		<tag k="ssr:stedsnr" v="836189" />
	</node>
	<node id="-470129" lat="60.3793805566" lon="5.78411666275">
		<tag k="layer" v="-1" />
		<tag k="name" v="Hagaås" />
		<tag k="ssr:stedsnr" v="833483" />
		<tag k="tunnel" v="yes" />
	</node>
	<node id="-470128" lat="60.3957388853" lon="5.69656944939">
		<tag k="layer" v="-1" />
		<tag k="name" v="Raunekleiv" />
		<tag k="ssr:stedsnr" v="833382" />
		<tag k="tunnel" v="yes" />
	</node>
	<node id="-469487" lat="60.377477782" lon="5.80919722646">
		<tag k="bridge" v="yes" />
		<tag k="layer" v="1" />
		<tag k="name" v="Frøland" />
		<tag k="ssr:stedsnr" v="47232" />
	</node>
	<node id="-469596" lat="60.4505638854" lon="5.87320556039">
		<tag k="bridge" v="yes" />
		<tag k="layer" v="1" />
		<tag k="name" v="Kleivane" />
		<tag k="ssr:stedsnr" v="168225" />
	</node>
	<node id="-469595" lat="60.3821500027" lon="5.89131110504">
		<tag k="layer" v="-1" />
		<tag k="name" v="Fossenbratte" />
		<tag k="ssr:stedsnr" v="165448" />
		<tag k="tunnel" v="yes" />
	</node>
	<node id="-470231" lat="60.3672888885" lon="5.74753611679">
		<tag k="layer" v="-1" />
		<tag k="name" v="Tyssetunellen" />
		<tag k="ssr:stedsnr" v="967037" />
		<tag k="tunnel" v="yes" />
	</node>
	<node id="-470228" lat="60.3878222209" lon="5.84838888268">
		<tag k="bridge" v="yes" />
		<tag k="layer" v="1" />
		<tag k="name" v="Verka" />
		<tag k="ssr:stedsnr" v="958240" />
	</node>
	<node id="-470227" lat="60.3773222235" lon="5.65305833064">
		<tag k="bridge" v="yes" />
		<tag k="layer" v="1" />
		<tag k="name" v="Nordbø" />
		<tag k="ssr:stedsnr" v="958237" />
	</node>
	<node id="-469367" lat="60.3454472259" lon="5.68449721976">
		<tag k="bridge" v="yes" />
		<tag k="layer" v="1" />
		<tag k="name" v="Juvik" />
		<tag k="ssr:stedsnr" v="350203" />
	</node>
	<node id="-469821" lat="60.3959777781" lon="5.70276666343">
		<tag k="bridge" v="yes" />
		<tag k="layer" v="1" />
		<tag k="name" v="Storkleiv" />
		<tag k="ssr:stedsnr" v="533234" />
	</node>
	<node id="-469820" lat="60.4548666698" lon="5.88461389163">
		<tag k="bridge" v="yes" />
		<tag k="layer" v="1" />
		<tag k="name" v="Kvernelv" />
		<tag k="ssr:stedsnr" v="533232" />
	</node>
	<node id="-469819" lat="60.4015499975" lon="5.75455554781">
		<tag k="bridge" v="yes" />
		<tag k="layer" v="1" />
		<tag k="name" v="Aldalselva" />
		<tag k="ssr:stedsnr" v="533221" />
	</node>
	<node id="-469432" lat="60.2964111128" lon="5.61610000556">
		<tag k="bridge" v="yes" />
		<tag k="layer" v="1" />
		<tag k="name" v="Solberg" />
		<tag k="ssr:stedsnr" v="897219" />
	</node>
	<node id="-469431" lat="60.3673250023" lon="5.72428888359">
		<tag k="bridge" v="yes" />
		<tag k="layer" v="1" />
		<tag k="name" v="Gaupholm" />
		<tag k="ssr:stedsnr" v="897214" />
	</node>
	<node id="-469430" lat="60.4042611082" lon="5.72699166435">
		<tag k="bridge" v="yes" />
		<tag k="layer" v="1" />
		<tag k="name" v="Reistadvika" />
		<tag k="ssr:stedsnr" v="897215" />
	</node>
	<node id="-469429" lat="60.3928888851" lon="5.66949444502">
		<tag k="layer" v="-1" />
		<tag k="name" v="Hisdal" />
		<tag k="ssr:stedsnr" v="894523" />
		<tag k="tunnel" v="yes" />
	</node>
	<node id="-469491" lat="60.3961694414" lon="5.76371388187">
		<tag k="bridge" v="yes" />
		<tag k="layer" v="1" />
		<tag k="name" v="Vika" />
		<tag k="ssr:stedsnr" v="47241" />
	</node>
	<node id="-469935" lat="60.3737611096" lon="5.75366111536">
		<tag k="bridge" v="yes" />
		<tag k="layer" v="1" />
		<tag k="name" v="Tysse Ytre" />
		<tag k="ssr:stedsnr" v="654238" />
	</node>
	<node id="-469934" lat="60.3981111124" lon="5.79836389415">
		<tag k="bridge" v="yes" />
		<tag k="layer" v="1" />
		<tag k="name" v="Langeland" />
		<tag k="ssr:stedsnr" v="654233" />
	</node>
	<node id="-469933" lat="60.4000027766" lon="5.70871665917">
		<tag k="bridge" v="yes" />
		<tag k="layer" v="1" />
		<tag k="name" v="Kvernbekk" />
		<tag k="ssr:stedsnr" v="654231" />
	</node>
	<node id="-469932" lat="60.4013277759" lon="5.75515000815">
		<tag k="bridge" v="yes" />
		<tag k="layer" v="1" />
		<tag k="name" v="Aldalen" />
		<tag k="ssr:stedsnr" v="654220" />
	</node>
	<node id="-470059" lat="60.3928361154" lon="5.7665999918">
		<tag k="bridge" v="yes" />
		<tag k="layer" v="1" />
		<tag k="name" v="Nesodden" />
		<tag k="ssr:stedsnr" v="775208" />
	</node>
	<node id="-470058" lat="60.4247388858" lon="5.82344721941">
		<tag k="bridge" v="yes" />
		<tag k="layer" v="1" />
		<tag k="name" v="Fiske" />
		<tag k="ssr:stedsnr" v="775206" />
	</node>
	<node id="-470057" lat="60.3918333345" lon="5.76917221435">
		<tag k="bridge" v="yes" />
		<tag k="layer" v="1" />
		<tag k="name" v="Hagaåsen" />
		<tag k="ssr:stedsnr" v="775202" />
	</node>
	<node id="-469490" lat="60.3890361114" lon="5.66665833087">
		<tag k="bridge" v="yes" />
		<tag k="layer" v="1" />
		<tag k="name" v="Store" />
		<tag k="ssr:stedsnr" v="47237" />
	</node>
	<node id="-469489" lat="60.3812583329" lon="5.86023333284">
		<tag k="bridge" v="yes" />
		<tag k="layer" v="1" />
		<tag k="name" v="Kuholm" />
		<tag k="ssr:stedsnr" v="47236" />
	</node>
	<node id="-469665" lat="60.3925361108" lon="5.66208610859">
		<tag k="layer" v="-1" />
		<tag k="name" v="Grasdal" />
		<tag k="ssr:stedsnr" v="226493" />
		<tag k="tunnel" v="yes" />
	</node>
	<node id="-469488" lat="60.3845166703" lon="5.80553611433">
		<tag k="bridge" v="yes" />
		<tag k="layer" v="1" />
		<tag k="name" v="Frølandskanalen" />
		<tag k="ssr:stedsnr" v="47233" />
	</node>
	<node id="-470172" lat="60.3291583359" lon="5.61424443731">
		<tag k="highway" v="path" />
		<tag k="name" v="Bykleiva" />
		<tag k="ssr:stedsnr" v="879912" />
	</node>
	<node id="-469657" lat="60.4283499968" lon="5.83703610611">
		<tag k="ford" v="yes" />
		<tag k="name" v="Dyravadet" />
		<tag k="place" v="locality" />
		<tag k="ssr:stedsnr" v="213426" />
	</node>
	<node id="-469550" lat="60.3339638845" lon="5.62672499525">
		<tag k="bridge" v="yes" />
		<tag k="layer" v="1" />
		<tag k="name" v="Våge" />
		<tag k="ssr:stedsnr" v="108235" />
	</node>
	<node id="-469548" lat="60.369033336" lon="5.74796665775">
		<tag k="bridge" v="yes" />
		<tag k="layer" v="1" />
		<tag k="name" v="Barmstøl" />
		<tag k="ssr:stedsnr" v="108219" />
	</node>
	<node id="-469549" lat="60.3241888914" lon="5.62387499235">
		<tag k="bridge" v="yes" />
		<tag k="layer" v="1" />
		<tag k="name" v="Bykleiva" />
		<tag k="ssr:stedsnr" v="108223" />
	</node>
	<node id="-470060" lat="60.3606222184" lon="5.63263889346">
		<tag k="bridge" v="yes" />
		<tag k="layer" v="1" />
		<tag k="name" v="Sagelva" />
		<tag k="ssr:stedsnr" v="775215" />
	</node>
	<node id="-469931" lat="60.3836972212" lon="5.83728611165">
		<tag k="layer" v="-1" />
		<tag k="name" v="Liaros" />
		<tag k="ssr:stedsnr" v="650293" />
		<tag k="tunnel" v="yes" />
	</node>
</osm>
