<?xml version="1.0" encoding="UTF-8"?>
<osm generator="osmapis" version="0.6">
	<node id="-470847" lat="60.3683027783" lon="5.78311111171">
		<tag k="name" v="Grøna lii" />
		<tag k="natural" v="slope" />
		<tag k="place" v="locality" />
		<tag k="ssr:stedsnr" v="969043" />
	</node>
	<node id="-470844" lat="60.3387361071" lon="5.70291388643">
		<tag k="name" v="Stemmedalen" />
		<tag k="natural" v="valley" />
		<tag k="place" v="locality" />
		<tag k="ssr:stedsnr" v="965022" />
	</node>
	<node id="-470841" lat="60.3689472204" lon="5.82659167264">
		<tag k="name" v="Tørrnakken" />
		<tag k="place" v="locality" />
		<tag k="ssr:stedsnr" v="950963" />
	</node>
	<node id="-470839" lat="60.4371333364" lon="5.82980277728">
		<tag k="name" v="Ospelia" />
		<tag k="natural" v="slope" />
		<tag k="place" v="locality" />
		<tag k="ssr:stedsnr" v="941954" />
	</node>
	<node id="-470838" lat="60.4534888848" lon="5.88093055527">
		<tag k="name" v="Veståslia" />
		<tag k="natural" v="slope" />
		<tag k="place" v="locality" />
		<tag k="ssr:stedsnr" v="941941" />
	</node>
	<node id="-470835" lat="60.3950361081" lon="5.84502222254">
		<tag k="name" v="Tømmerskarshaugen" />
		<tag k="natural" v="hill" />
		<tag k="place" v="locality" />
		<tag k="ssr:stedsnr" v="941411" />
	</node>
	<node id="-470834" lat="60.4240083337" lon="5.83848055856">
		<tag k="name" v="Vardabrotet" />
		<tag k="natural" v="hill" />
		<tag k="place" v="locality" />
		<tag k="ssr:stedsnr" v="941353" />
	</node>
	<node id="-470833" lat="60.4191472233" lon="5.84758889343">
		<tag k="name" v="Storhoggene" />
		<tag k="natural" v="slope" />
		<tag k="place" v="locality" />
		<tag k="ssr:stedsnr" v="941239" />
	</node>
	<node id="-470832" lat="60.3893055585" lon="5.77451666545">
		<tag k="name" v="Haugane" />
		<tag k="natural" v="hill" />
		<tag k="place" v="locality" />
		<tag k="ssr:stedsnr" v="941208" />
	</node>
	<node id="-470831" lat="60.3802027738" lon="5.84054999365">
		<tag k="name" v="Liarosnova" />
		<tag k="natural" v="hill" />
		<tag k="place" v="locality" />
		<tag k="ssr:stedsnr" v="940527" />
	</node>
	<node id="-470829" lat="60.3958722204" lon="5.70121944823">
		<tag k="name" v="Storkleiva" />
		<tag k="natural" v="slope" />
		<tag k="place" v="locality" />
		<tag k="ssr:stedsnr" v="939987" />
	</node>
	<node id="-470826" lat="60.295555559" lon="5.59283333988">
		<tag k="name" v="Rotveltedalen" />
		<tag k="natural" v="valley" />
		<tag k="place" v="locality" />
		<tag k="ssr:stedsnr" v="939640" />
	</node>
	<node id="-470825" lat="60.3597000024" lon="5.62176944769">
		<tag k="name" v="Storebrekken" />
		<tag k="natural" v="slope" />
		<tag k="place" v="locality" />
		<tag k="ssr:stedsnr" v="939635" />
	</node>
	<node id="-470824" lat="60.3514250013" lon="5.62202500031">
		<tag k="name" v="Lomahaugen" />
		<tag k="natural" v="hill" />
		<tag k="place" v="locality" />
		<tag k="ssr:stedsnr" v="939632" />
	</node>
	<node id="-470814" lat="60.4156361107" lon="5.84040555522">
		<tag k="name" v="Florhaugen" />
		<tag k="natural" v="hill" />
		<tag k="place" v="locality" />
		<tag k="ssr:stedsnr" v="916095" />
	</node>
	<node id="-470812" lat="60.3422305519" lon="5.85669166815">
		<tag k="name" v="Grashaugen" />
		<tag k="natural" v="hill" />
		<tag k="place" v="locality" />
		<tag k="ssr:stedsnr" v="915559" />
	</node>
	<node id="-470811" lat="60.4000805553" lon="5.85032223035">
		<tag k="name" v="Svartabergslia" />
		<tag k="natural" v="slope" />
		<tag k="place" v="locality" />
		<tag k="ssr:stedsnr" v="915470" />
	</node>
	<node id="-470810" lat="60.4015305528" lon="5.87308055729">
		<tag k="fixme" v="consider natural=peak for the most distinct mountains in the district" />
		<tag k="name" v="Utløbottsfjellet" />
		<tag k="natural" v="hill" />
		<tag k="place" v="locality" />
		<tag k="ssr:stedsnr" v="915464" />
	</node>
	<node id="-470808" lat="60.4600611151" lon="5.9308722154">
		<tag k="name" v="Sotabotnen" />
		<tag k="natural" v="valley" />
		<tag k="place" v="locality" />
		<tag k="ssr:stedsnr" v="915380" />
	</node>
	<node id="-470807" lat="60.4517916676" lon="5.94593055221">
		<tag k="name" v="Fangaskorgjelet" />
		<tag k="natural" v="valley" />
		<tag k="place" v="locality" />
		<tag k="ssr:stedsnr" v="915357" />
	</node>
	<node id="-470806" lat="60.3550916646" lon="5.83293888442">
		<tag k="name" v="Kikenosbotnen" />
		<tag k="natural" v="valley" />
		<tag k="place" v="locality" />
		<tag k="ssr:stedsnr" v="915175" />
	</node>
	<node id="-470801" lat="60.352999998" lon="5.74889999916">
		<tag k="name" v="Dyrhaugane" />
		<tag k="natural" v="hill" />
		<tag k="place" v="locality" />
		<tag k="ssr:stedsnr" v="908038" />
	</node>
	<node id="-470800" lat="60.3525611114" lon="5.72463333983">
		<tag k="name" v="Tøleitet" />
		<tag k="place" v="locality" />
		<tag k="ssr:stedsnr" v="908035" />
	</node>
	<node id="-470798" lat="60.3482083296" lon="5.80674167455">
		<tag k="name" v="Kalvabotnen" />
		<tag k="natural" v="valley" />
		<tag k="place" v="locality" />
		<tag k="ssr:stedsnr" v="905954" />
	</node>
	<node id="-470797" lat="60.3374222188" lon="5.72712500181">
		<tag k="name" v="Austerdalane" />
		<tag k="natural" v="valley" />
		<tag k="place" v="locality" />
		<tag k="ssr:stedsnr" v="905029" />
	</node>
	<node id="-470796" lat="60.3507888912" lon="5.76974443633">
		<tag k="name" v="Bjørkesmettet" />
		<tag k="natural" v="hill" />
		<tag k="place" v="locality" />
		<tag k="ssr:stedsnr" v="905024" />
	</node>
	<node id="-470795" lat="60.3991499974" lon="5.8348916637">
		<tag k="name" v="Steingjelet" />
		<tag k="natural" v="gorge" />
		<tag k="ssr:stedsnr" v="880507" />
	</node>
	<node id="-470793" lat="60.4067277738" lon="5.85205000262">
		<tag k="name" v="Toskahovgjelet" />
		<tag k="natural" v="gorge" />
		<tag k="ssr:stedsnr" v="880500" />
	</node>
	<node id="-470792" lat="60.4171666671" lon="5.80240834132">
		<tag k="name" v="Kjørslehaugen" />
		<tag k="natural" v="hill" />
		<tag k="place" v="locality" />
		<tag k="ssr:stedsnr" v="880484" />
	</node>
	<node id="-470791" lat="60.3826138901" lon="5.77524443701">
		<tag k="name" v="Kampaliane" />
		<tag k="natural" v="slope" />
		<tag k="place" v="locality" />
		<tag k="ssr:stedsnr" v="880316" />
	</node>
	<node id="-470790" lat="60.416836107" lon="5.82279444855">
		<tag k="name" v="Dalahaugen" />
		<tag k="natural" v="ridge" />
		<tag k="place" v="locality" />
		<tag k="ssr:stedsnr" v="880292" />
	</node>
	<node id="-470789" lat="60.380036107" lon="5.7747249922">
		<tag k="fixme" v="consider natural=peak for the most distinct mountains in the district" />
		<tag k="name" v="Kampen" />
		<tag k="natural" v="hill" />
		<tag k="ssr:stedsnr" v="880247" />
	</node>
	<node id="-470788" lat="60.3877888894" lon="5.7734500023">
		<tag k="name" v="Tømmerløypet" />
		<tag k="place" v="locality" />
		<tag k="ssr:stedsnr" v="880145" />
	</node>
	<node id="-470783" lat="60.3138694444" lon="5.60166111623">
		<tag k="name" v="Høgehaugen" />
		<tag k="natural" v="hill" />
		<tag k="place" v="locality" />
		<tag k="ssr:stedsnr" v="879571" />
	</node>
	<node id="-470779" lat="60.4102888911" lon="5.78671111822">
		<tag k="name" v="Gaupeskaret" />
		<tag k="natural" v="valley" />
		<tag k="place" v="locality" />
		<tag k="ssr:stedsnr" v="879190" />
	</node>
	<node id="-470773" lat="60.3835861137" lon="5.84665556155">
		<tag k="fixme" v="consider natural=peak for the most distinct mountains in the district" />
		<tag k="name" v="Bergsenden" />
		<tag k="natural" v="hill" />
		<tag k="place" v="locality" />
		<tag k="ssr:stedsnr" v="855733" />
	</node>
	<node id="-470771" lat="60.4778055583" lon="5.9499833285">
		<tag k="fixme" v="consider natural=peak for the most distinct mountains in the district" />
		<tag k="name" v="Trollskarnuten" />
		<tag k="natural" v="hill" />
		<tag k="place" v="locality" />
		<tag k="ssr:stedsnr" v="855363" />
	</node>
	<node id="-470770" lat="60.4635527819" lon="5.90584721476">
		<tag k="name" v="Vedlia" />
		<tag k="natural" v="slope" />
		<tag k="place" v="locality" />
		<tag k="ssr:stedsnr" v="855336" />
	</node>
	<node id="-470759" lat="60.3988388852" lon="5.62098888767">
		<tag k="fixme" v="multiple name tags, choose one and add the other to alt_name; consider natural=peak for the most distinct mountains in the district" />
		<tag k="name" v="Kråfjellet;Mannaleitnipa" />
		<tag k="natural" v="hill" />
		<tag k="place" v="locality" />
		<tag k="ssr:stedsnr" v="855105" />
	</node>
	<node id="-470758" lat="60.414955556" lon="5.82505833811">
		<tag k="fixme" v="consider natural=peak for the most distinct mountains in the district" />
		<tag k="name" v="Svensdalsåsen" />
		<tag k="natural" v="hill" />
		<tag k="place" v="locality" />
		<tag k="ssr:stedsnr" v="855094" />
	</node>
	<node id="-470757" lat="60.4051916665" lon="5.68912499544">
		<tag k="fixme" v="consider natural=peak for the most distinct mountains in the district" />
		<tag k="name" v="Hisdalsfjellet" />
		<tag k="natural" v="hill" />
		<tag k="place" v="locality" />
		<tag k="ssr:stedsnr" v="855084" />
	</node>
	<node id="-470754" lat="60.3509972236" lon="5.71075833017">
		<tag k="name" v="Saualego" />
		<tag k="place" v="locality" />
		<tag k="ssr:stedsnr" v="848041" />
	</node>
	<node id="-470753" lat="60.3509166694" lon="5.71298888604">
		<tag k="name" v="Fluheiane" />
		<tag k="natural" v="hill" />
		<tag k="place" v="locality" />
		<tag k="ssr:stedsnr" v="848036" />
	</node>
	<node id="-470752" lat="60.3503222177" lon="5.72432499238">
		<tag k="name" v="Utløhaugen" />
		<tag k="natural" v="hill" />
		<tag k="place" v="locality" />
		<tag k="ssr:stedsnr" v="848029" />
	</node>
	<node id="-470743" lat="60.360794445" lon="5.88151666738">
		<tag k="name" v="Plytten" />
		<tag k="natural" v="hill" />
		<tag k="place" v="locality" />
		<tag k="ssr:stedsnr" v="829966" />
	</node>
	<node id="-470742" lat="60.3630861091" lon="5.85675278424">
		<tag k="name" v="Moltemyrkultane" />
		<tag k="natural" v="hill" />
		<tag k="place" v="locality" />
		<tag k="ssr:stedsnr" v="829963" />
	</node>
	<node id="-470741" lat="60.3509916653" lon="5.88042222755">
		<tag k="fixme" v="consider natural=peak for the most distinct mountains in the district" />
		<tag k="name" v="Storagrøet" />
		<tag k="natural" v="hill" />
		<tag k="place" v="locality" />
		<tag k="ssr:stedsnr" v="829961" />
	</node>
	<node id="-470739" lat="60.4380250038" lon="5.84327221794">
		<tag k="fixme" v="consider natural=peak for the most distinct mountains in the district" />
		<tag k="name" v="Storåsen" />
		<tag k="natural" v="hill" />
		<tag k="place" v="locality" />
		<tag k="ssr:stedsnr" v="820982" />
	</node>
	<node id="-470737" lat="60.4500222193" lon="5.87394167184">
		<tag k="name" v="Kriken" />
		<tag k="natural" v="slope" />
		<tag k="place" v="locality" />
		<tag k="ssr:stedsnr" v="820552" />
	</node>
	<node id="-470731" lat="60.4036222263" lon="5.90987778091">
		<tag k="name" v="Kråkedalane" />
		<tag k="natural" v="valley" />
		<tag k="place" v="locality" />
		<tag k="ssr:stedsnr" v="819458" />
	</node>
	<node id="-470730" lat="60.3947305551" lon="5.86900000495">
		<tag k="name" v="Grøna Lia" />
		<tag k="natural" v="slope" />
		<tag k="place" v="locality" />
		<tag k="ssr:stedsnr" v="819426" />
	</node>
	<node id="-470729" lat="60.4200527744" lon="5.84046667387">
		<tag k="name" v="Heiabruna" />
		<tag k="natural" v="hill" />
		<tag k="place" v="locality" />
		<tag k="ssr:stedsnr" v="819400" />
	</node>
	<node id="-470728" lat="60.4237999967" lon="5.87451665835">
		<tag k="fixme" v="consider natural=peak for the most distinct mountains in the district" />
		<tag k="name" v="Skarsrusta" />
		<tag k="natural" v="hill" />
		<tag k="place" v="locality" />
		<tag k="ssr:stedsnr" v="819393" />
	</node>
	<node id="-470725" lat="60.3879944427" lon="5.5906944427">
		<tag k="fixme" v="consider natural=peak for the most distinct mountains in the district" />
		<tag k="name" v="Rundamanen" />
		<tag k="natural" v="hill" />
		<tag k="place" v="locality" />
		<tag k="ssr:stedsnr" v="818999" />
	</node>
	<node id="-470723" lat="60.3385861088" lon="5.61493333128">
		<tag k="name" v="Øykjadalen" />
		<tag k="natural" v="valley" />
		<tag k="place" v="locality" />
		<tag k="ssr:stedsnr" v="818918" />
	</node>
	<node id="-470721" lat="60.3956861112" lon="5.77304722968">
		<tag k="name" v="Himmelhaugen" />
		<tag k="natural" v="hill" />
		<tag k="place" v="locality" />
		<tag k="ssr:stedsnr" v="818825" />
	</node>
	<node id="-470720" lat="60.3999277794" lon="5.76312500682">
		<tag k="name" v="Kjerikakulten" />
		<tag k="natural" v="hill" />
		<tag k="place" v="locality" />
		<tag k="ssr:stedsnr" v="818261" />
	</node>
	<node id="-470719" lat="60.3975000025" lon="5.77353888533">
		<tag k="name" v="Bolstadhaugen" />
		<tag k="natural" v="hill" />
		<tag k="place" v="locality" />
		<tag k="ssr:stedsnr" v="818260" />
	</node>
	<node id="-470713" lat="60.4057777745" lon="5.85500277532">
		<tag k="name" v="Utløbotnen" />
		<tag k="natural" v="valley" />
		<tag k="place" v="locality" />
		<tag k="ssr:stedsnr" v="794457" />
	</node>
	<node id="-470712" lat="60.4190055556" lon="5.90211388347">
		<tag k="fixme" v="consider natural=peak for the most distinct mountains in the district" />
		<tag k="name" v="Grøet" />
		<tag k="natural" v="hill" />
		<tag k="place" v="locality" />
		<tag k="ssr:stedsnr" v="794438" />
	</node>
	<node id="-470711" lat="60.4379861153" lon="5.8588555552">
		<tag k="name" v="Klentangliane" />
		<tag k="natural" v="slope" />
		<tag k="place" v="locality" />
		<tag k="ssr:stedsnr" v="794420" />
	</node>
	<node id="-470708" lat="60.4588750043" lon="5.91179444891">
		<tag k="name" v="Fossagjelet" />
		<tag k="natural" v="gorge" />
		<tag k="ssr:stedsnr" v="794374" />
	</node>
	<node id="-470706" lat="60.4642250028" lon="5.91940556142">
		<tag k="name" v="Botnane" />
		<tag k="natural" v="valley" />
		<tag k="place" v="locality" />
		<tag k="ssr:stedsnr" v="794325" />
	</node>
	<node id="-470705" lat="60.4975361096" lon="5.92013054938">
		<tag k="name" v="Gjetlo" />
		<tag k="natural" v="hill" />
		<tag k="place" v="locality" />
		<tag k="ssr:stedsnr" v="794318" />
	</node>
	<node id="-470703" lat="60.4913083378" lon="5.88770277718">
		<tag k="name" v="Herfangsgjelet" />
		<tag k="natural" v="valley" />
		<tag k="place" v="locality" />
		<tag k="ssr:stedsnr" v="794317" />
	</node>
	<node id="-470699" lat="60.3338888848" lon="5.70479723166">
		<tag k="fixme" v="consider natural=peak for the most distinct mountains in the district" />
		<tag k="name" v="Fløyen" />
		<tag k="natural" v="hill" />
		<tag k="place" v="locality" />
		<tag k="ssr:stedsnr" v="794198" />
	</node>
	<node id="-470698" lat="60.3365555546" lon="5.76553611857">
		<tag k="fixme" v="consider natural=peak for the most distinct mountains in the district" />
		<tag k="name" v="Burlifjellet" />
		<tag k="natural" v="hill" />
		<tag k="place" v="locality" />
		<tag k="ssr:stedsnr" v="794196" />
	</node>
	<node id="-470694" lat="60.3586249979" lon="5.6407138868">
		<tag k="fixme" v="consider natural=peak for the most distinct mountains in the district" />
		<tag k="name" v="Store Sundhaugen" />
		<tag k="natural" v="hill" />
		<tag k="place" v="locality" />
		<tag k="ssr:stedsnr" v="794168" />
	</node>
	<node id="-470690" lat="60.4030194418" lon="5.84199722571">
		<tag k="name" v="Børdalen" />
		<tag k="natural" v="valley" />
		<tag k="place" v="locality" />
		<tag k="ssr:stedsnr" v="794115" />
	</node>
	<node id="-470689" lat="60.4106000001" lon="5.81042500661">
		<tag k="name" v="Svensdalen" />
		<tag k="natural" v="valley" />
		<tag k="place" v="locality" />
		<tag k="ssr:stedsnr" v="794096" />
	</node>
	<node id="-470686" lat="60.4231333305" lon="5.83011943843">
		<tag k="name" v="Høysetelia" />
		<tag k="natural" v="slope" />
		<tag k="place" v="locality" />
		<tag k="ssr:stedsnr" v="794071" />
	</node>
	<node id="-470685" lat="60.4270138861" lon="5.7430916662">
		<tag k="fixme" v="consider natural=peak for the most distinct mountains in the district" />
		<tag k="name" v="Høgåsen" />
		<tag k="natural" v="hill" />
		<tag k="place" v="locality" />
		<tag k="ssr:stedsnr" v="794062" />
	</node>
	<node id="-470684" lat="60.4228527738" lon="5.76473333339">
		<tag k="fixme" v="consider natural=peak for the most distinct mountains in the district" />
		<tag k="name" v="Gjerdssåta" />
		<tag k="natural" v="hill" />
		<tag k="place" v="locality" />
		<tag k="ssr:stedsnr" v="794058" />
	</node>
	<node id="-470681" lat="60.4402749976" lon="5.73210832743">
		<tag k="fixme" v="consider natural=peak for the most distinct mountains in the district" />
		<tag k="name" v="Geitanipa" />
		<tag k="natural" v="hill" />
		<tag k="place" v="locality" />
		<tag k="ssr:stedsnr" v="794039" />
	</node>
	<node id="-470680" lat="60.361319441" lon="5.71871111752">
		<tag k="name" v="Rabbane" />
		<tag k="natural" v="hill" />
		<tag k="place" v="locality" />
		<tag k="ssr:stedsnr" v="787051" />
	</node>
	<node id="-470679" lat="60.3565138911" lon="5.72570833877">
		<tag k="name" v="Åsabrekkena" />
		<tag k="natural" v="slope" />
		<tag k="place" v="locality" />
		<tag k="ssr:stedsnr" v="787031" />
	</node>
	<node id="-470672" lat="60.3683055514" lon="5.84300277494">
		<tag k="name" v="Dyrvasslii" />
		<tag k="natural" v="slope" />
		<tag k="place" v="locality" />
		<tag k="ssr:stedsnr" v="768961" />
	</node>
	<node id="-470669" lat="60.3844527768" lon="5.89549444632">
		<tag k="name" v="Eikedalen" />
		<tag k="natural" v="valley" />
		<tag k="place" v="locality" />
		<tag k="ssr:stedsnr" v="759610" />
	</node>
	<node id="-470668" lat="60.4280888901" lon="5.84302776939">
		<tag k="name" v="Vårsvoa" />
		<tag k="natural" v="slope" />
		<tag k="place" v="locality" />
		<tag k="ssr:stedsnr" v="759405" />
	</node>
	<node id="-470667" lat="60.4163111074" lon="5.83003888368">
		<tag k="name" v="Smogaholene" />
		<tag k="natural" v="valley" />
		<tag k="place" v="locality" />
		<tag k="ssr:stedsnr" v="759278" />
	</node>
	<node id="-470666" lat="60.4238333304" lon="5.90766389454">
		<tag k="name" v="Grøbotnen" />
		<tag k="natural" v="valley" />
		<tag k="place" v="locality" />
		<tag k="ssr:stedsnr" v="759120" />
	</node>
	<node id="-470665" lat="60.4050555521" lon="5.82897223119">
		<tag k="name" v="Dyrhaugane" />
		<tag k="natural" v="hill" />
		<tag k="place" v="locality" />
		<tag k="ssr:stedsnr" v="758538" />
	</node>
	<node id="-470664" lat="60.3834250014" lon="5.60390554958">
		<tag k="name" v="Maribrautene" />
		<tag k="natural" v="slope" />
		<tag k="place" v="locality" />
		<tag k="ssr:stedsnr" v="757981" />
	</node>
	<node id="-470662" lat="60.3968583317" lon="5.68044167569">
		<tag k="name" v="Hisdalen" />
		<tag k="natural" v="valley" />
		<tag k="place" v="locality" />
		<tag k="ssr:stedsnr" v="757878" />
	</node>
	<node id="-470659" lat="60.3649638935" lon="5.7015750085">
		<tag k="name" v="Berrhaug" />
		<tag k="natural" v="hill" />
		<tag k="place" v="locality" />
		<tag k="ssr:stedsnr" v="757581" />
	</node>
	<node id="-470657" lat="60.4009194481" lon="5.77434444443">
		<tag k="name" v="Storemyra" />
		<tag k="natural" v="valley" />
		<tag k="place" v="locality" />
		<tag k="ssr:stedsnr" v="757242" />
	</node>
	<node id="-470653" lat="60.345805558" lon="5.85235555266">
		<tag k="name" v="Ramnagjelet" />
		<tag k="natural" v="valley" />
		<tag k="place" v="locality" />
		<tag k="ssr:stedsnr" v="734658" />
	</node>
	<node id="-470652" lat="60.4989416677" lon="5.91456943976">
		<tag k="name" v="Heimsta Hestagjelet" />
		<tag k="natural" v="valley" />
		<tag k="place" v="locality" />
		<tag k="ssr:stedsnr" v="734377" />
	</node>
	<node id="-470651" lat="60.4859750007" lon="5.89214721364">
		<tag k="name" v="Glupagjelet" />
		<tag k="natural" v="valley" />
		<tag k="place" v="locality" />
		<tag k="ssr:stedsnr" v="734359" />
	</node>
	<node id="-470648" lat="60.3995916703" lon="5.80075000514">
		<tag k="name" v="Bjørndalen" />
		<tag k="natural" v="valley" />
		<tag k="place" v="locality" />
		<tag k="ssr:stedsnr" v="734120" />
	</node>
	<node id="-470646" lat="60.3796555546" lon="5.90026943609">
		<tag k="name" v="Rabalhei" />
		<tag k="natural" v="hill" />
		<tag k="place" v="locality" />
		<tag k="ssr:stedsnr" v="733671" />
	</node>
	<node id="-470645" lat="60.3625583349" lon="5.85792778365">
		<tag k="fixme" v="consider natural=peak for the most distinct mountains in the district" />
		<tag k="name" v="Grøet" />
		<tag k="natural" v="hill" />
		<tag k="place" v="locality" />
		<tag k="ssr:stedsnr" v="733632" />
	</node>
	<node id="-470644" lat="60.4243416677" lon="5.88916388013">
		<tag k="name" v="Middagsskaret" />
		<tag k="natural" v="valley" />
		<tag k="place" v="locality" />
		<tag k="ssr:stedsnr" v="733394" />
	</node>
	<node id="-470638" lat="60.4667583374" lon="5.89718333136">
		<tag k="fixme" v="consider natural=peak for the most distinct mountains in the district" />
		<tag k="name" v="Bergsnipa" />
		<tag k="natural" v="hill" />
		<tag k="place" v="locality" />
		<tag k="ssr:stedsnr" v="733322" />
	</node>
	<node id="-470633" lat="60.4048888897" lon="5.67033333818">
		<tag k="fixme" v="consider natural=peak for the most distinct mountains in the district" />
		<tag k="name" v="Holdhusfjellet" />
		<tag k="natural" v="hill" />
		<tag k="place" v="locality" />
		<tag k="ssr:stedsnr" v="733095" />
	</node>
	<node id="-470632" lat="60.4302861137" lon="5.79582499559">
		<tag k="name" v="Snilshaugen" />
		<tag k="natural" v="hill" />
		<tag k="place" v="locality" />
		<tag k="ssr:stedsnr" v="733080" />
	</node>
	<node id="-470630" lat="60.4642583315" lon="5.84632500096">
		<tag k="fixme" v="consider natural=peak for the most distinct mountains in the district" />
		<tag k="name" v="Gråfjellet" />
		<tag k="natural" v="hill" />
		<tag k="place" v="locality" />
		<tag k="ssr:stedsnr" v="733038" />
	</node>
	<node id="-470629" lat="60.3649472256" lon="5.72082777809">
		<tag k="name" v="Raudskoltane" />
		<tag k="natural" v="hill" />
		<tag k="place" v="locality" />
		<tag k="ssr:stedsnr" v="726051" />
	</node>
	<node id="-470628" lat="60.3655472179" lon="5.71611110717">
		<tag k="name" v="Trollabotn" />
		<tag k="natural" v="valley" />
		<tag k="place" v="locality" />
		<tag k="ssr:stedsnr" v="726049" />
	</node>
	<node id="-470627" lat="60.3690611125" lon="5.79775277984">
		<tag k="name" v="Norddalane" />
		<tag k="natural" v="valley" />
		<tag k="place" v="locality" />
		<tag k="ssr:stedsnr" v="726046" />
	</node>
	<node id="-470626" lat="60.3545416662" lon="5.81754999859">
		<tag k="name" v="Leitet" />
		<tag k="natural" v="hill" />
		<tag k="place" v="locality" />
		<tag k="ssr:stedsnr" v="726043" />
	</node>
	<node id="-470625" lat="60.3473611111" lon="5.79500000005">
		<tag k="name" v="Trælaflatane" />
		<tag k="place" v="locality" />
		<tag k="ssr:stedsnr" v="723924" />
	</node>
	<node id="-470624" lat="60.338966669" lon="5.79044167286">
		<tag k="name" v="Haugssteinen" />
		<tag k="natural" v="hill" />
		<tag k="place" v="locality" />
		<tag k="ssr:stedsnr" v="723923" />
	</node>
	<node id="-470623" lat="60.3570027739" lon="5.82088055179">
		<tag k="name" v="Ospebotnen" />
		<tag k="natural" v="valley" />
		<tag k="place" v="locality" />
		<tag k="ssr:stedsnr" v="723904" />
	</node>
	<node id="-470622" lat="60.3283027786" lon="5.67013610643">
		<tag k="name" v="Olderbakkane" />
		<tag k="natural" v="slope" />
		<tag k="place" v="locality" />
		<tag k="ssr:stedsnr" v="722117" />
	</node>
	<node id="-470619" lat="60.3703999978" lon="5.90571110886">
		<tag k="name" v="Bjørnagjelet" />
		<tag k="natural" v="valley" />
		<tag k="place" v="locality" />
		<tag k="ssr:stedsnr" v="707976" />
	</node>
	<node id="-470618" lat="60.365322225" lon="5.82529444931">
		<tag k="name" v="Bølingahaugen" />
		<tag k="natural" v="hill" />
		<tag k="place" v="locality" />
		<tag k="ssr:stedsnr" v="707947" />
	</node>
	<node id="-470616" lat="60.4407972193" lon="5.86653889078">
		<tag k="name" v="Stigane" />
		<tag k="natural" v="hill" />
		<tag k="place" v="locality" />
		<tag k="ssr:stedsnr" v="698954" />
	</node>
	<node id="-470615" lat="60.3883638848" lon="5.90891389328">
		<tag k="name" v="Haugen" />
		<tag k="natural" v="hill" />
		<tag k="place" v="locality" />
		<tag k="ssr:stedsnr" v="698578" />
	</node>
	<node id="-470614" lat="60.4526305553" lon="5.85035555901">
		<tag k="name" v="Skoradalen" />
		<tag k="natural" v="valley" />
		<tag k="place" v="locality" />
		<tag k="ssr:stedsnr" v="698535" />
	</node>
	<node id="-470609" lat="60.4174388897" lon="5.72539722081">
		<tag k="fixme" v="consider natural=peak for the most distinct mountains in the district" />
		<tag k="name" v="Bjørnåsen" />
		<tag k="natural" v="hill" />
		<tag k="place" v="locality" />
		<tag k="ssr:stedsnr" v="698251" />
	</node>
	<node id="-470608" lat="60.4195888887" lon="5.83606110404">
		<tag k="name" v="Leitet" />
		<tag k="natural" v="hill" />
		<tag k="place" v="locality" />
		<tag k="ssr:stedsnr" v="698244" />
	</node>
	<node id="-470607" lat="60.4166388876" lon="5.85597222204">
		<tag k="name" v="Kuhaugen" />
		<tag k="natural" v="hill" />
		<tag k="place" v="locality" />
		<tag k="ssr:stedsnr" v="698232" />
	</node>
	<node id="-470603" lat="60.4067416689" lon="5.72260277254">
		<tag k="name" v="Ormarinden" />
		<tag k="natural" v="ridge" />
		<tag k="place" v="locality" />
		<tag k="ssr:stedsnr" v="696960" />
	</node>
	<node id="-470601" lat="60.3959027771" lon="5.79555555437">
		<tag k="name" v="Hjellane" />
		<tag k="natural" v="hill" />
		<tag k="place" v="locality" />
		<tag k="ssr:stedsnr" v="696774" />
	</node>
	<node id="-470596" lat="60.4113861099" lon="5.78354445092">
		<tag k="fixme" v="consider natural=peak for the most distinct mountains in the district" />
		<tag k="name" v="Vinsjansen" />
		<tag k="natural" v="hill" />
		<tag k="place" v="locality" />
		<tag k="ssr:stedsnr" v="696206" />
	</node>
	<node id="-470592" lat="60.3658749959" lon="5.66758888405">
		<tag k="name" v="Lialandet" />
		<tag k="natural" v="ridge" />
		<tag k="place" v="locality" />
		<tag k="ssr:stedsnr" v="692275" />
	</node>
	<node id="-470588" lat="60.4606777769" lon="5.91771111629">
		<tag k="name" v="Renneberget" />
		<tag k="natural" v="hill" />
		<tag k="place" v="locality" />
		<tag k="ssr:stedsnr" v="673419" />
	</node>
	<node id="-470587" lat="60.4871138879" lon="5.88661110257">
		<tag k="name" v="Lavransskaret" />
		<tag k="natural" v="valley" />
		<tag k="place" v="locality" />
		<tag k="ssr:stedsnr" v="673349" />
	</node>
	<node id="-470583" lat="60.3504333338" lon="5.71139723012">
		<tag k="fixme" v="consider natural=peak for the most distinct mountains in the district" />
		<tag k="name" v="Steinafjellet" />
		<tag k="natural" v="hill" />
		<tag k="place" v="locality" />
		<tag k="ssr:stedsnr" v="673206" />
	</node>
	<node id="-470582" lat="60.3595277821" lon="5.61948888706">
		<tag k="name" v="Brekkekleiva" />
		<tag k="natural" v="slope" />
		<tag k="place" v="locality" />
		<tag k="ssr:stedsnr" v="673199" />
	</node>
	<node id="-470580" lat="60.3841722219" lon="5.67638054766">
		<tag k="fixme" v="consider natural=peak for the most distinct mountains in the district" />
		<tag k="name" v="Einaråsen" />
		<tag k="natural" v="hill" />
		<tag k="place" v="locality" />
		<tag k="ssr:stedsnr" v="673149" />
	</node>
	<node id="-470571" lat="60.4501749991" lon="5.90120554908">
		<tag k="name" v="Stortoberget" />
		<tag k="natural" v="hill" />
		<tag k="place" v="locality" />
		<tag k="ssr:stedsnr" v="672356" />
	</node>
	<node id="-470570" lat="60.4479583325" lon="5.85405278374">
		<tag k="name" v="Hjellane" />
		<tag k="natural" v="hill" />
		<tag k="place" v="locality" />
		<tag k="ssr:stedsnr" v="672353" />
	</node>
	<node id="-470569" lat="60.4488361069" lon="5.91470834066">
		<tag k="fixme" v="consider natural=peak for the most distinct mountains in the district" />
		<tag k="name" v="Aksla" />
		<tag k="natural" v="hill" />
		<tag k="place" v="locality" />
		<tag k="ssr:stedsnr" v="672351" />
	</node>
	<node id="-470567" lat="60.4708861112" lon="5.89617777214">
		<tag k="name" v="Geitaberget" />
		<tag k="natural" v="hill" />
		<tag k="place" v="locality" />
		<tag k="ssr:stedsnr" v="672330" />
	</node>
	<node id="-470566" lat="60.4694944421" lon="5.89860277627">
		<tag k="fixme" v="consider natural=peak for the most distinct mountains in the district" />
		<tag k="name" v="Nova" />
		<tag k="natural" v="hill" />
		<tag k="place" v="locality" />
		<tag k="ssr:stedsnr" v="672327" />
	</node>
	<node id="-470565" lat="60.3645694464" lon="5.60473888254">
		<tag k="name" v="Purkedalsgjelet" />
		<tag k="natural" v="valley" />
		<tag k="place" v="locality" />
		<tag k="ssr:stedsnr" v="672140" />
	</node>
	<node id="-470560" lat="60.3587444454" lon="5.73840832506">
		<tag k="name" v="Florhaugen" />
		<tag k="natural" v="hill" />
		<tag k="place" v="locality" />
		<tag k="ssr:stedsnr" v="665062" />
	</node>
	<node id="-470559" lat="60.3550666656" lon="5.73188888131">
		<tag k="name" v="Fossabrekka" />
		<tag k="natural" v="slope" />
		<tag k="place" v="locality" />
		<tag k="ssr:stedsnr" v="665038" />
	</node>
	<node id="-470555" lat="60.3397916631" lon="5.68794721612">
		<tag k="name" v="Skifteshaugen" />
		<tag k="natural" v="hill" />
		<tag k="place" v="locality" />
		<tag k="ssr:stedsnr" v="661076" />
	</node>
	<node id="-470554" lat="60.351613889" lon="5.76241388993">
		<tag k="name" v="Blåheien" />
		<tag k="natural" v="slope" />
		<tag k="place" v="locality" />
		<tag k="ssr:stedsnr" v="661023" />
	</node>
	<node id="-470553" lat="60.3496861085" lon="5.78304721708">
		<tag k="fixme" v="consider natural=peak for the most distinct mountains in the district" />
		<tag k="name" v="Ullandsfjellet" />
		<tag k="natural" v="hill" />
		<tag k="place" v="locality" />
		<tag k="ssr:stedsnr" v="661018" />
	</node>
	<node id="-470552" lat="60.3280638931" lon="5.69835277592">
		<tag k="name" v="Stongahjellen" />
		<tag k="place" v="locality" />
		<tag k="ssr:stedsnr" v="661011" />
	</node>
	<node id="-470546" lat="60.3649111142" lon="5.9107833359">
		<tag k="name" v="Bjørnahiet" />
		<tag k="natural" v="valley" />
		<tag k="place" v="locality" />
		<tag k="ssr:stedsnr" v="646977" />
	</node>
	<node id="-470543" lat="60.4039361075" lon="5.84870276969">
		<tag k="name" v="Kleiva" />
		<tag k="natural" v="slope" />
		<tag k="place" v="locality" />
		<tag k="ssr:stedsnr" v="637541" />
	</node>
	<node id="-470541" lat="60.4223305519" lon="5.71766943785">
		<tag k="name" v="Setralia" />
		<tag k="natural" v="hill" />
		<tag k="place" v="locality" />
		<tag k="ssr:stedsnr" v="637310" />
	</node>
	<node id="-470540" lat="60.4162805576" lon="5.77894723063">
		<tag k="name" v="Halsen" />
		<tag k="natural" v="valley" />
		<tag k="place" v="locality" />
		<tag k="ssr:stedsnr" v="636490" />
	</node>
	<node id="-470539" lat="60.4156527796" lon="5.7804416741">
		<tag k="name" v="Kalvadalshaugane" />
		<tag k="natural" v="hill" />
		<tag k="place" v="locality" />
		<tag k="ssr:stedsnr" v="636488" />
	</node>
	<node id="-470538" lat="60.3991333353" lon="5.87835555247">
		<tag k="fixme" v="consider natural=peak for the most distinct mountains in the district" />
		<tag k="name" v="Flatafjellet" />
		<tag k="natural" v="hill" />
		<tag k="place" v="locality" />
		<tag k="ssr:stedsnr" v="636439" />
	</node>
	<node id="-470537" lat="60.4016999964" lon="5.85361389498">
		<tag k="name" v="Rinden" />
		<tag k="natural" v="hill" />
		<tag k="place" v="locality" />
		<tag k="ssr:stedsnr" v="636411" />
	</node>
	<node id="-470536" lat="60.3860833331" lon="5.77826110263">
		<tag k="name" v="Hagabotnane" />
		<tag k="natural" v="valley" />
		<tag k="place" v="locality" />
		<tag k="ssr:stedsnr" v="636157" />
	</node>
	<node id="-470535" lat="60.3928305529" lon="5.70107221687">
		<tag k="name" v="Masterskaret" />
		<tag k="natural" v="valley" />
		<tag k="place" v="locality" />
		<tag k="ssr:stedsnr" v="635984" />
	</node>
	<node id="-470534" lat="60.3799527757" lon="5.64008333394">
		<tag k="name" v="Dysjemyrhaugen" />
		<tag k="natural" v="hill" />
		<tag k="place" v="locality" />
		<tag k="ssr:stedsnr" v="635966" />
	</node>
	<node id="-470532" lat="60.3328694455" lon="5.6180694434">
		<tag k="name" v="Raudsteinshaugen" />
		<tag k="natural" v="hill" />
		<tag k="place" v="locality" />
		<tag k="ssr:stedsnr" v="635908" />
	</node>
	<node id="-470531" lat="60.405080552" lon="5.64813611845">
		<tag k="name" v="Halsen" />
		<tag k="natural" v="valley" />
		<tag k="place" v="locality" />
		<tag k="ssr:stedsnr" v="635865" />
	</node>
	<node id="-470530" lat="60.3507916703" lon="5.63118055271">
		<tag k="name" v="Vasslia" />
		<tag k="natural" v="slope" />
		<tag k="place" v="locality" />
		<tag k="ssr:stedsnr" v="635609" />
	</node>
	<node id="-470529" lat="60.3494750006" lon="5.59718056366">
		<tag k="name" v="Brekkedalen" />
		<tag k="natural" v="valley" />
		<tag k="place" v="locality" />
		<tag k="ssr:stedsnr" v="635606" />
	</node>
	<node id="-470528" lat="60.3036277753" lon="5.59953889616">
		<tag k="name" v="Lauvlidalen" />
		<tag k="natural" v="valley" />
		<tag k="place" v="locality" />
		<tag k="ssr:stedsnr" v="635586" />
	</node>
	<node id="-470526" lat="60.3554444442" lon="5.66160554704">
		<tag k="fixme" v="consider natural=peak for the most distinct mountains in the district" />
		<tag k="name" v="Storafjellet" />
		<tag k="natural" v="hill" />
		<tag k="place" v="locality" />
		<tag k="ssr:stedsnr" v="635579" />
	</node>
	<node id="-470525" lat="60.4034027752" lon="5.79036110359">
		<tag k="name" v="Haugen" />
		<tag k="natural" v="hill" />
		<tag k="place" v="locality" />
		<tag k="ssr:stedsnr" v="635252" />
	</node>
	<node id="-470523" lat="60.3485194438" lon="5.85520000307">
		<tag k="name" v="Austebotnane" />
		<tag k="natural" v="valley" />
		<tag k="place" v="locality" />
		<tag k="ssr:stedsnr" v="612633" />
	</node>
	<node id="-470522" lat="60.3345444414" lon="5.87494166915">
		<tag k="name" v="Raudehaugen" />
		<tag k="natural" v="hill" />
		<tag k="place" v="locality" />
		<tag k="ssr:stedsnr" v="612573" />
	</node>
	<node id="-470521" lat="60.4640888932" lon="5.94377500546">
		<tag k="fixme" v="consider natural=peak for the most distinct mountains in the district" />
		<tag k="name" v="Sotabottsnipa" />
		<tag k="natural" v="hill" />
		<tag k="place" v="locality" />
		<tag k="ssr:stedsnr" v="612382" />
	</node>
	<node id="-470518" lat="60.3340416656" lon="5.71902778385">
		<tag k="fixme" v="consider natural=peak for the most distinct mountains in the district" />
		<tag k="name" v="Såta" />
		<tag k="natural" v="hill" />
		<tag k="place" v="locality" />
		<tag k="ssr:stedsnr" v="612227" />
	</node>
	<node id="-470516" lat="60.3602388869" lon="5.83848055736">
		<tag k="fixme" v="consider natural=peak for the most distinct mountains in the district" />
		<tag k="name" v="Storenipen" />
		<tag k="natural" v="hill" />
		<tag k="place" v="locality" />
		<tag k="ssr:stedsnr" v="612206" />
	</node>
	<node id="-470512" lat="60.4240027809" lon="5.8143722239">
		<tag k="name" v="Fiskekampen" />
		<tag k="natural" v="hill" />
		<tag k="place" v="locality" />
		<tag k="ssr:stedsnr" v="612076" />
	</node>
	<node id="-470511" lat="60.3335194447" lon="5.85814721319">
		<tag k="name" v="Bjørnakultane" />
		<tag k="natural" v="hill" />
		<tag k="place" v="locality" />
		<tag k="ssr:stedsnr" v="611585" />
	</node>
	<node id="-470509" lat="60.4409722211" lon="5.93172499154">
		<tag k="fixme" v="consider natural=peak for the most distinct mountains in the district" />
		<tag k="name" v="Røyrfjellet" />
		<tag k="natural" v="hill" />
		<tag k="place" v="locality" />
		<tag k="ssr:stedsnr" v="611438" />
	</node>
	<node id="-470508" lat="60.450555555" lon="5.87823611252">
		<tag k="name" v="Vetleåsen" />
		<tag k="natural" v="hill" />
		<tag k="place" v="locality" />
		<tag k="ssr:stedsnr" v="611399" />
	</node>
	<node id="-470507" lat="60.476550003" lon="5.89798889274">
		<tag k="fixme" v="consider natural=peak for the most distinct mountains in the district" />
		<tag k="name" v="Fonnanipa" />
		<tag k="natural" v="hill" />
		<tag k="place" v="locality" />
		<tag k="ssr:stedsnr" v="611380" />
	</node>
	<node id="-470504" lat="60.36233056" lon="5.80143611812">
		<tag k="name" v="Kollhaugen" />
		<tag k="natural" v="hill" />
		<tag k="place" v="locality" />
		<tag k="ssr:stedsnr" v="604037" />
	</node>
	<node id="-470502" lat="60.3494055599" lon="5.8278583396">
		<tag k="name" v="Skyttarglikka" />
		<tag k="place" v="locality" />
		<tag k="ssr:stedsnr" v="601923" />
	</node>
	<node id="-470501" lat="60.3332361125" lon="5.68315555666">
		<tag k="name" v="Hedda" />
		<tag k="natural" v="hill" />
		<tag k="place" v="locality" />
		<tag k="ssr:stedsnr" v="601106" />
	</node>
	<node id="-470499" lat="60.3418722242" lon="5.6949333388">
		<tag k="name" v="Telleberglia" />
		<tag k="natural" v="slope" />
		<tag k="place" v="locality" />
		<tag k="ssr:stedsnr" v="601076" />
	</node>
	<node id="-470498" lat="60.3317694483" lon="5.77601389703">
		<tag k="name" v="Fagerdalen" />
		<tag k="natural" v="valley" />
		<tag k="place" v="locality" />
		<tag k="ssr:stedsnr" v="601059" />
	</node>
	<node id="-470491" lat="60.4439666688" lon="5.83440278041">
		<tag k="name" v="Svartaberget" />
		<tag k="natural" v="hill" />
		<tag k="place" v="locality" />
		<tag k="ssr:stedsnr" v="577563" />
	</node>
	<node id="-470490" lat="60.443611107" lon="5.86352777021">
		<tag k="fixme" v="consider natural=peak for the most distinct mountains in the district" />
		<tag k="name" v="Høghaugen" />
		<tag k="natural" v="hill" />
		<tag k="place" v="locality" />
		<tag k="ssr:stedsnr" v="577521" />
	</node>
	<node id="-470489" lat="60.3991833364" lon="5.84430556205">
		<tag k="name" v="Kråna" />
		<tag k="natural" v="valley" />
		<tag k="place" v="locality" />
		<tag k="ssr:stedsnr" v="576513" />
	</node>
	<node id="-470488" lat="60.4234722192" lon="5.79900000157">
		<tag k="fixme" v="consider natural=peak for the most distinct mountains in the district" />
		<tag k="name" v="Bjørnåsen" />
		<tag k="natural" v="hill" />
		<tag k="place" v="locality" />
		<tag k="ssr:stedsnr" v="576473" />
	</node>
	<node id="-470486" lat="60.4339611137" lon="5.82312500081">
		<tag k="name" v="Seterhaugen" />
		<tag k="natural" v="hill" />
		<tag k="place" v="locality" />
		<tag k="ssr:stedsnr" v="576446" />
	</node>
	<node id="-470485" lat="60.4299722254" lon="5.80617777927">
		<tag k="name" v="Bjørnspetthaugen" />
		<tag k="natural" v="hill" />
		<tag k="place" v="locality" />
		<tag k="ssr:stedsnr" v="576445" />
	</node>
	<node id="-470484" lat="60.4232416666" lon="5.83601665913">
		<tag k="name" v="Kjerringarinden" />
		<tag k="natural" v="ridge" />
		<tag k="place" v="locality" />
		<tag k="ssr:stedsnr" v="576378" />
	</node>
	<node id="-470481" lat="60.4188555552" lon="5.87452500137">
		<tag k="name" v="Fureskolten" />
		<tag k="natural" v="ridge" />
		<tag k="place" v="locality" />
		<tag k="ssr:stedsnr" v="576259" />
	</node>
	<node id="-470480" lat="60.382444444" lon="5.66211666918">
		<tag k="name" v="Krossaleitet" />
		<tag k="natural" v="hill" />
		<tag k="place" v="locality" />
		<tag k="ssr:stedsnr" v="575982" />
	</node>
	<node id="-470479" lat="60.3867305521" lon="5.63778333516">
		<tag k="name" v="Kvitlabrekka" />
		<tag k="natural" v="slope" />
		<tag k="place" v="locality" />
		<tag k="ssr:stedsnr" v="575971" />
	</node>
	<node id="-470478" lat="60.3869194418" lon="5.62887778132">
		<tag k="name" v="Lyningshaugen" />
		<tag k="natural" v="hill" />
		<tag k="place" v="locality" />
		<tag k="ssr:stedsnr" v="575969" />
	</node>
	<node id="-470477" lat="60.4033972232" lon="5.7380027765">
		<tag k="name" v="Høgeskolten" />
		<tag k="natural" v="hill" />
		<tag k="place" v="locality" />
		<tag k="ssr:stedsnr" v="575961" />
	</node>
	<node id="-470475" lat="60.3531333296" lon="5.69211943799">
		<tag k="name" v="Storlia" />
		<tag k="natural" v="slope" />
		<tag k="place" v="locality" />
		<tag k="ssr:stedsnr" v="575914" />
	</node>
	<node id="-470473" lat="60.3437083298" lon="5.60100278288">
		<tag k="name" v="Austrelia" />
		<tag k="natural" v="slope" />
		<tag k="place" v="locality" />
		<tag k="ssr:stedsnr" v="575898" />
	</node>
	<node id="-470472" lat="60.3592861105" lon="5.66781110396">
		<tag k="name" v="Sauahaugen" />
		<tag k="natural" v="hill" />
		<tag k="place" v="locality" />
		<tag k="ssr:stedsnr" v="575575" />
	</node>
	<node id="-470471" lat="60.3603888851" lon="5.69946943656">
		<tag k="name" v="Storekampen" />
		<tag k="natural" v="hill" />
		<tag k="place" v="locality" />
		<tag k="ssr:stedsnr" v="575573" />
	</node>
	<node id="-470469" lat="60.3728999983" lon="5.88583611409">
		<tag k="name" v="Raunebotnen" />
		<tag k="natural" v="valley" />
		<tag k="place" v="locality" />
		<tag k="ssr:stedsnr" v="551696" />
	</node>
	<node id="-470468" lat="60.3707055559" lon="5.88325833868">
		<tag k="name" v="Plitten" />
		<tag k="natural" v="gorge" />
		<tag k="ssr:stedsnr" v="551658" />
	</node>
	<node id="-470467" lat="60.4048333364" lon="5.87975556233">
		<tag k="name" v="Huldabottsgjelet" />
		<tag k="natural" v="gorge" />
		<tag k="ssr:stedsnr" v="551473" />
	</node>
	<node id="-470466" lat="60.4282972253" lon="5.89468055513">
		<tag k="name" v="Flatheiane" />
		<tag k="natural" v="hill" />
		<tag k="place" v="locality" />
		<tag k="ssr:stedsnr" v="551435" />
	</node>
	<node id="-470464" lat="60.4312361122" lon="5.8715166657">
		<tag k="name" v="Renneberget" />
		<tag k="natural" v="hill" />
		<tag k="place" v="locality" />
		<tag k="ssr:stedsnr" v="551404" />
	</node>
	<node id="-470462" lat="60.4687277743" lon="5.92676945363">
		<tag k="fixme" v="consider natural=peak for the most distinct mountains in the district" />
		<tag k="name" v="Lurafjellet" />
		<tag k="natural" v="hill" />
		<tag k="place" v="locality" />
		<tag k="ssr:stedsnr" v="551337" />
	</node>
	<node id="-470461" lat="60.4989166678" lon="5.92245834185">
		<tag k="name" v="Insta Hestagjelet" />
		<tag k="natural" v="valley" />
		<tag k="place" v="locality" />
		<tag k="ssr:stedsnr" v="551332" />
	</node>
	<node id="-470460" lat="60.4871361144" lon="5.89141665733">
		<tag k="name" v="Tunga" />
		<tag k="natural" v="hill" />
		<tag k="place" v="locality" />
		<tag k="ssr:stedsnr" v="551318" />
	</node>
	<node id="-470459" lat="60.2929527783" lon="5.574650006">
		<tag k="name" v="Baggeskaret" />
		<tag k="natural" v="valley" />
		<tag k="place" v="locality" />
		<tag k="ssr:stedsnr" v="551294" />
	</node>
	<node id="-470454" lat="60.3849000044" lon="5.62110834024">
		<tag k="name" v="Fagerbotnen" />
		<tag k="natural" v="valley" />
		<tag k="place" v="locality" />
		<tag k="ssr:stedsnr" v="551151" />
	</node>
	<node id="-470452" lat="60.3958249997" lon="5.82259999477">
		<tag k="fixme" v="consider natural=peak for the most distinct mountains in the district" />
		<tag k="name" v="Totlandsfjellet" />
		<tag k="natural" v="hill" />
		<tag k="place" v="locality" />
		<tag k="ssr:stedsnr" v="551142" />
	</node>
	<node id="-470448" lat="60.4446888852" lon="5.78903888169">
		<tag k="fixme" v="consider natural=peak for the most distinct mountains in the district" />
		<tag k="name" v="Vardane" />
		<tag k="natural" v="hill" />
		<tag k="place" v="locality" />
		<tag k="ssr:stedsnr" v="551042" />
	</node>
	<node id="-470446" lat="60.3637138933" lon="5.71265833854">
		<tag k="name" v="Trollabotshaugen" />
		<tag k="natural" v="hill" />
		<tag k="place" v="locality" />
		<tag k="ssr:stedsnr" v="544049" />
	</node>
	<node id="-470443" lat="60.359588885" lon="5.77125000298">
		<tag k="name" v="Heggelii" />
		<tag k="natural" v="slope" />
		<tag k="place" v="locality" />
		<tag k="ssr:stedsnr" v="544032" />
	</node>
	<node id="-470442" lat="60.3398888849" lon="5.81571110523">
		<tag k="name" v="Kvanndalsbakkane" />
		<tag k="natural" v="slope" />
		<tag k="place" v="locality" />
		<tag k="ssr:stedsnr" v="540941" />
	</node>
	<node id="-470441" lat="60.3474222252" lon="5.77967221952">
		<tag k="name" v="Tangafjellet" />
		<tag k="natural" v="hill" />
		<tag k="place" v="locality" />
		<tag k="ssr:stedsnr" v="540940" />
	</node>
	<node id="-470440" lat="60.3477416652" lon="5.77399999802">
		<tag k="name" v="Setrabotnen" />
		<tag k="natural" v="valley" />
		<tag k="place" v="locality" />
		<tag k="ssr:stedsnr" v="540938" />
	</node>
	<node id="-470438" lat="60.3400555545" lon="5.72651666883">
		<tag k="name" v="Fagerdalen" />
		<tag k="natural" v="valley" />
		<tag k="place" v="locality" />
		<tag k="ssr:stedsnr" v="540027" />
	</node>
	<node id="-470434" lat="60.3661555522" lon="5.89831111107">
		<tag k="name" v="Ingebriktstegen" />
		<tag k="place" v="locality" />
		<tag k="ssr:stedsnr" v="525953" />
	</node>
	<node id="-470433" lat="60.3666888897" lon="5.84983610293">
		<tag k="name" v="Vardenovi" />
		<tag k="natural" v="hill" />
		<tag k="place" v="locality" />
		<tag k="ssr:stedsnr" v="525943" />
	</node>
	<node id="-470432" lat="60.4411333343" lon="5.86884443657">
		<tag k="name" v="Tverrligjelet" />
		<tag k="natural" v="gorge" />
		<tag k="ssr:stedsnr" v="516948" />
	</node>
	<node id="-470431" lat="60.3845472236" lon="5.89172500453">
		<tag k="name" v="Gråsida" />
		<tag k="natural" v="slope" />
		<tag k="place" v="locality" />
		<tag k="ssr:stedsnr" v="516588" />
	</node>
	<node id="-470429" lat="60.4483749976" lon="5.8741638927">
		<tag k="name" v="Geitaryggen" />
		<tag k="natural" v="ridge" />
		<tag k="place" v="locality" />
		<tag k="ssr:stedsnr" v="516548" />
	</node>
	<node id="-470427" lat="60.4073555555" lon="5.83066388927">
		<tag k="name" v="Trollhaugen" />
		<tag k="natural" v="hill" />
		<tag k="place" v="locality" />
		<tag k="ssr:stedsnr" v="516488" />
	</node>
	<node id="-470425" lat="60.4312055534" lon="5.8129027701">
		<tag k="name" v="Setrarinden" />
		<tag k="natural" v="ridge" />
		<tag k="place" v="locality" />
		<tag k="ssr:stedsnr" v="516448" />
	</node>
	<node id="-470424" lat="60.4120138857" lon="5.88541665857">
		<tag k="name" v="Gjela" />
		<tag k="natural" v="gorge" />
		<tag k="ssr:stedsnr" v="516418" />
	</node>
	<node id="-470423" lat="60.3926305591" lon="5.82822500748">
		<tag k="name" v="Fjellhaugen" />
		<tag k="natural" v="hill" />
		<tag k="place" v="locality" />
		<tag k="ssr:stedsnr" v="516405" />
	</node>
	<node id="-470422" lat="60.3967861133" lon="5.83358333593">
		<tag k="name" v="Engjalia" />
		<tag k="natural" v="slope" />
		<tag k="place" v="locality" />
		<tag k="ssr:stedsnr" v="516396" />
	</node>
	<node id="-470420" lat="60.3823749996" lon="5.7729638903">
		<tag k="name" v="Skavdalen" />
		<tag k="natural" v="valley" />
		<tag k="place" v="locality" />
		<tag k="ssr:stedsnr" v="516321" />
	</node>
	<node id="-470419" lat="60.4179944472" lon="5.85561944569">
		<tag k="name" v="Liane" />
		<tag k="natural" v="slope" />
		<tag k="place" v="locality" />
		<tag k="ssr:stedsnr" v="516268" />
	</node>
	<node id="-470413" lat="60.3510472236" lon="5.66529999381">
		<tag k="fixme" v="consider natural=peak for the most distinct mountains in the district" />
		<tag k="name" v="Vardane" />
		<tag k="natural" v="hill" />
		<tag k="place" v="locality" />
		<tag k="ssr:stedsnr" v="514929" />
	</node>
	<node id="-470412" lat="60.3377666654" lon="5.61679166315">
		<tag k="name" v="Halsane" />
		<tag k="natural" v="ridge" />
		<tag k="place" v="locality" />
		<tag k="ssr:stedsnr" v="514910" />
	</node>
	<node id="-470411" lat="60.3458444449" lon="5.63883055154">
		<tag k="name" v="Langedalen" />
		<tag k="natural" v="valley" />
		<tag k="place" v="locality" />
		<tag k="ssr:stedsnr" v="514903" />
	</node>
	<node id="-470410" lat="60.4063083363" lon="5.69724166066">
		<tag k="name" v="Nysetebotnen" />
		<tag k="natural" v="valley" />
		<tag k="place" v="locality" />
		<tag k="ssr:stedsnr" v="514873" />
	</node>
	<node id="-470409" lat="60.3596583365" lon="5.63380000134">
		<tag k="name" v="Tjørndalshaugane" />
		<tag k="natural" v="hill" />
		<tag k="place" v="locality" />
		<tag k="ssr:stedsnr" v="514650" />
	</node>
	<node id="-470407" lat="60.4076611153" lon="5.7922861076">
		<tag k="name" v="Saghaugen" />
		<tag k="natural" v="hill" />
		<tag k="place" v="locality" />
		<tag k="ssr:stedsnr" v="514224" />
	</node>
	<node id="-470403" lat="60.3555972222" lon="5.91759722408">
		<tag k="fixme" v="consider natural=peak for the most distinct mountains in the district" />
		<tag k="name" v="Bjørnahinova" />
		<tag k="natural" v="hill" />
		<tag k="place" v="locality" />
		<tag k="ssr:stedsnr" v="491647" />
	</node>
	<node id="-470402" lat="60.4825388895" lon="5.90962778558">
		<tag k="fixme" v="consider natural=peak for the most distinct mountains in the district" />
		<tag k="name" v="Hjellafjellet" />
		<tag k="natural" v="hill" />
		<tag k="place" v="locality" />
		<tag k="ssr:stedsnr" v="491345" />
	</node>
	<node id="-470401" lat="60.3806380921" lon="5.77579203117">
		<tag k="fixme" v="consider natural=peak for the most distinct mountains in the district" />
		<tag k="name" v="Hagåsen" />
		<tag k="natural" v="hill" />
		<tag k="place" v="locality" />
		<tag k="ssr:stedsnr" v="491154" />
	</node>
	<node id="-470395" lat="60.3236944432" lon="5.60360556005">
		<tag k="fixme" v="consider natural=peak for the most distinct mountains in the district" />
		<tag k="name" v="Fossafjellet" />
		<tag k="natural" v="hill" />
		<tag k="place" v="locality" />
		<tag k="ssr:stedsnr" v="491222" />
	</node>
	<node id="-470393" lat="60.4286583355" lon="5.86844444233">
		<tag k="name" v="Ruken" />
		<tag k="natural" v="hill" />
		<tag k="place" v="locality" />
		<tag k="ssr:stedsnr" v="490401" />
	</node>
	<node id="-470392" lat="60.4255999974" lon="5.86406944023">
		<tag k="name" v="Lyningen" />
		<tag k="natural" v="hill" />
		<tag k="place" v="locality" />
		<tag k="ssr:stedsnr" v="490400" />
	</node>
	<node id="-470389" lat="60.4433083308" lon="5.8849250084">
		<tag k="fixme" v="consider natural=peak for the most distinct mountains in the district" />
		<tag k="name" v="Tverrliegga" />
		<tag k="natural" v="hill" />
		<tag k="place" v="locality" />
		<tag k="ssr:stedsnr" v="490371" />
	</node>
	<node id="-470387" lat="60.4740055536" lon="5.8916722231">
		<tag k="name" v="Klungerdalen" />
		<tag k="natural" v="valley" />
		<tag k="place" v="locality" />
		<tag k="ssr:stedsnr" v="490345" />
	</node>
	<node id="-470384" lat="60.3637694426" lon="5.83707500506">
		<tag k="fixme" v="consider natural=peak for the most distinct mountains in the district" />
		<tag k="name" v="Vetlenipen" />
		<tag k="natural" v="hill" />
		<tag k="place" v="locality" />
		<tag k="ssr:stedsnr" v="490169" />
	</node>
	<node id="-470383" lat="60.3847771481" lon="5.81490702625">
		<tag k="name" v="Vetlebotnen" />
		<tag k="natural" v="valley" />
		<tag k="place" v="locality" />
		<tag k="ssr:stedsnr" v="490165" />
	</node>
	<node id="-470381" lat="60.4092750025" lon="5.74934166427">
		<tag k="fixme" v="consider natural=peak for the most distinct mountains in the district" />
		<tag k="name" v="Merkesåsen" />
		<tag k="natural" v="hill" />
		<tag k="place" v="locality" />
		<tag k="ssr:stedsnr" v="490089" />
	</node>
	<node id="-470379" lat="60.407566669" lon="5.8446694508">
		<tag k="fixme" v="consider natural=peak for the most distinct mountains in the district" />
		<tag k="name" v="Geitafjellet" />
		<tag k="natural" v="hill" />
		<tag k="place" v="locality" />
		<tag k="ssr:stedsnr" v="490419" />
	</node>
	<node id="-470376" lat="60.3596472181" lon="5.75296665857">
		<tag k="name" v="Preikestolen" />
		<tag k="natural" v="hill" />
		<tag k="place" v="locality" />
		<tag k="ssr:stedsnr" v="483067" />
	</node>
	<node id="-470375" lat="60.3589916636" lon="5.71160277255">
		<tag k="name" v="Kultane" />
		<tag k="natural" v="hill" />
		<tag k="place" v="locality" />
		<tag k="ssr:stedsnr" v="483063" />
	</node>
	<node id="-470373" lat="60.3562944423" lon="5.73261389071">
		<tag k="name" v="Ormadalen" />
		<tag k="natural" v="valley" />
		<tag k="place" v="locality" />
		<tag k="ssr:stedsnr" v="483046" />
	</node>
	<node id="-470372" lat="60.3376305578" lon="5.79437778111">
		<tag k="name" v="Trælagjelet" />
		<tag k="natural" v="valley" />
		<tag k="place" v="locality" />
		<tag k="ssr:stedsnr" v="480953" />
	</node>
	<node id="-470370" lat="60.3507166661" lon="5.87368332913">
		<tag k="name" v="Bjørnabakkane" />
		<tag k="natural" v="slope" />
		<tag k="place" v="locality" />
		<tag k="ssr:stedsnr" v="465958" />
	</node>
	<node id="-470368" lat="60.4437861144" lon="5.83702223014">
		<tag k="name" v="Svartabergslia" />
		<tag k="natural" v="slope" />
		<tag k="place" v="locality" />
		<tag k="ssr:stedsnr" v="456553" />
	</node>
	<node id="-470366" lat="60.3776027767" lon="5.83695833805">
		<tag k="name" v="Dal" />
		<tag k="natural" v="valley" />
		<tag k="place" v="locality" />
		<tag k="ssr:stedsnr" v="456493" />
	</node>
	<node id="-470364" lat="60.4284722183" lon="5.79952499416">
		<tag k="name" v="Kampane" />
		<tag k="natural" v="hill" />
		<tag k="place" v="locality" />
		<tag k="ssr:stedsnr" v="455417" />
	</node>
	<node id="-470363" lat="60.4239472234" lon="5.83479721926">
		<tag k="name" v="Instalia" />
		<tag k="natural" v="slope" />
		<tag k="place" v="locality" />
		<tag k="ssr:stedsnr" v="455407" />
	</node>
	<node id="-470360" lat="60.3887499973" lon="5.59947778456">
		<tag k="fixme" v="consider natural=peak for the most distinct mountains in the district" />
		<tag k="name" v="Gullnipa" />
		<tag k="natural" v="hill" />
		<tag k="place" v="locality" />
		<tag k="ssr:stedsnr" v="454999" />
	</node>
	<node id="-470359" lat="60.3824722194" lon="5.64775555978">
		<tag k="name" v="Nordbøhaugen" />
		<tag k="natural" v="hill" />
		<tag k="place" v="locality" />
		<tag k="ssr:stedsnr" v="454991" />
	</node>
	<node id="-470358" lat="60.4105277801" lon="5.77578611835">
		<tag k="fixme" v="consider natural=peak for the most distinct mountains in the district" />
		<tag k="name" v="Høgåsen" />
		<tag k="natural" v="hill" />
		<tag k="place" v="locality" />
		<tag k="ssr:stedsnr" v="454971" />
	</node>
	<node id="-470357" lat="60.400591668" lon="5.75965000161">
		<tag k="name" v="Helgatona" />
		<tag k="place" v="locality" />
		<tag k="ssr:stedsnr" v="454967" />
	</node>
	<node id="-470353" lat="60.3926777781" lon="5.78110833632">
		<tag k="name" v="Kolalia" />
		<tag k="natural" v="slope" />
		<tag k="place" v="locality" />
		<tag k="ssr:stedsnr" v="454805" />
	</node>
	<node id="-470347" lat="60.3562222191" lon="5.8463583285">
		<tag k="fixme" v="consider natural=peak for the most distinct mountains in the district" />
		<tag k="name" v="Gråfjellet" />
		<tag k="natural" v="hill" />
		<tag k="place" v="locality" />
		<tag k="ssr:stedsnr" v="431635" />
	</node>
	<node id="-470345" lat="60.3723694409" lon="5.91685277564">
		<tag k="name" v="Kvamsbotnen" />
		<tag k="natural" v="valley" />
		<tag k="place" v="locality" />
		<tag k="ssr:stedsnr" v="430677" />
	</node>
	<node id="-470344" lat="60.4313249984" lon="5.93100000497">
		<tag k="name" v="Hyttebotnen" />
		<tag k="natural" v="valley" />
		<tag k="place" v="locality" />
		<tag k="ssr:stedsnr" v="430396" />
	</node>
	<node id="-470341" lat="60.4539611124" lon="5.91523332926">
		<tag k="name" v="Sotabottshjellane" />
		<tag k="natural" v="hill" />
		<tag k="place" v="locality" />
		<tag k="ssr:stedsnr" v="430382" />
	</node>
	<node id="-470340" lat="60.4813138925" lon="5.97530833937">
		<tag k="name" v="Vestra Trongasmoget" />
		<tag k="natural" v="valley" />
		<tag k="place" v="locality" />
		<tag k="ssr:stedsnr" v="430358" />
	</node>
	<node id="-470339" lat="60.2974416667" lon="5.57420833002">
		<tag k="fixme" v="consider natural=peak for the most distinct mountains in the district" />
		<tag k="name" v="Selsfjellet" />
		<tag k="natural" v="hill" />
		<tag k="place" v="locality" />
		<tag k="ssr:stedsnr" v="430276" />
	</node>
	<node id="-470338" lat="60.3398083355" lon="5.84289443842">
		<tag k="name" v="Fagerdalen" />
		<tag k="natural" v="valley" />
		<tag k="place" v="locality" />
		<tag k="ssr:stedsnr" v="430224" />
	</node>
	<node id="-470332" lat="60.3789666684" lon="5.89242222638">
		<tag k="name" v="Raunebottsdalen" />
		<tag k="natural" v="valley" />
		<tag k="place" v="locality" />
		<tag k="ssr:stedsnr" v="430654" />
	</node>
	<node id="-470330" lat="60.3561833336" lon="5.86771943599">
		<tag k="name" v="Storagrøbotnen" />
		<tag k="natural" v="valley" />
		<tag k="old_name" v="Storegrøbotnen" />
		<tag k="place" v="locality" />
		<tag k="ssr:stedsnr" v="430635" />
	</node>
	<node id="-470328" lat="60.3613249998" lon="5.77137499866">
		<tag k="name" v="Høgehaugen" />
		<tag k="natural" v="hill" />
		<tag k="place" v="locality" />
		<tag k="ssr:stedsnr" v="423039" />
	</node>
	<node id="-470324" lat="60.3400583341" lon="5.77836944191">
		<tag k="name" v="Klypehaugen" />
		<tag k="natural" v="hill" />
		<tag k="place" v="locality" />
		<tag k="ssr:stedsnr" v="419082" />
	</node>
	<node id="-470322" lat="60.3439722226" lon="5.70770278346">
		<tag k="name" v="Moltemyrhaugane" />
		<tag k="natural" v="hill" />
		<tag k="place" v="locality" />
		<tag k="ssr:stedsnr" v="419035" />
	</node>
	<node id="-470320" lat="60.3312444472" lon="5.7021638894">
		<tag k="name" v="Lømønet" />
		<tag k="place" v="locality" />
		<tag k="ssr:stedsnr" v="419016" />
	</node>
	<node id="-470315" lat="60.5157194432" lon="5.96252499773">
		<tag k="fixme" v="consider natural=peak for the most distinct mountains in the district" />
		<tag k="name" v="Småbrekkebukken" />
		<tag k="natural" v="hill" />
		<tag k="place" v="locality" />
		<tag k="ssr:stedsnr" v="249982" />
	</node>
	<node id="-470313" lat="60.3941888849" lon="5.85420555858">
		<tag k="fixme" v="consider natural=peak for the most distinct mountains in the district" />
		<tag k="name" v="Kinna" />
		<tag k="natural" v="hill" />
		<tag k="place" v="locality" />
		<tag k="ssr:stedsnr" v="248754" />
	</node>
	<node id="-470310" lat="60.3403166646" lon="5.91314722444">
		<tag k="name" v="Kjebotnen" />
		<tag k="natural" v="valley" />
		<tag k="place" v="locality" />
		<tag k="ssr:stedsnr" v="248598" />
	</node>
	<node id="-470309" lat="60.3916444418" lon="5.88233055776">
		<tag k="fixme" v="consider natural=peak for the most distinct mountains in the district" />
		<tag k="name" v="Børdalsfjellet" />
		<tag k="natural" v="hill" />
		<tag k="place" v="locality" />
		<tag k="ssr:stedsnr" v="248473" />
	</node>
	<node id="-470308" lat="60.405997226" lon="5.89773055308">
		<tag k="fixme" v="consider natural=peak for the most distinct mountains in the district" />
		<tag k="name" v="Vorefjellet" />
		<tag k="natural" v="hill" />
		<tag k="place" v="locality" />
		<tag k="ssr:stedsnr" v="248433" />
	</node>
	<node id="-470306" lat="60.4271194484" lon="5.84862777212">
		<tag k="name" v="Tøgjelet" />
		<tag k="natural" v="gorge" />
		<tag k="ssr:stedsnr" v="248402" />
	</node>
	<node id="-470302" lat="60.4816166689" lon="5.91558054928">
		<tag k="name" v="Holegjelet" />
		<tag k="natural" v="valley" />
		<tag k="place" v="locality" />
		<tag k="ssr:stedsnr" v="248309" />
	</node>
	<node id="-470300" lat="60.3292111107" lon="5.80036944692">
		<tag k="fixme" v="consider natural=peak for the most distinct mountains in the district" />
		<tag k="name" v="Trælen" />
		<tag k="natural" v="hill" />
		<tag k="place" v="locality" />
		<tag k="ssr:stedsnr" v="248229" />
	</node>
	<node id="-470294" lat="60.43133889" lon="5.82737499524">
		<tag k="name" v="Helleberget" />
		<tag k="natural" v="hill" />
		<tag k="place" v="locality" />
		<tag k="ssr:stedsnr" v="248066" />
	</node>
	<node id="-470293" lat="60.3589194474" lon="5.76049165913">
		<tag k="fixme" v="consider natural=peak for the most distinct mountains in the district" />
		<tag k="name" v="Skaråsen" />
		<tag k="natural" v="hill" />
		<tag k="place" v="locality" />
		<tag k="ssr:stedsnr" v="241051" />
	</node>
	<node id="-470290" lat="60.3624972196" lon="5.77354166513">
		<tag k="name" v="Bjørkhilderhaugen" />
		<tag k="natural" v="hill" />
		<tag k="place" v="locality" />
		<tag k="ssr:stedsnr" v="241029" />
	</node>
	<node id="-470289" lat="60.3437083347" lon="5.81352778248">
		<tag k="name" v="Kvanndalsgjelet" />
		<tag k="natural" v="valley" />
		<tag k="place" v="locality" />
		<tag k="ssr:stedsnr" v="237946" />
	</node>
	<node id="-470285" lat="60.3528277792" lon="5.79167500665">
		<tag k="name" v="Haugslii" />
		<tag k="natural" v="slope" />
		<tag k="place" v="locality" />
		<tag k="ssr:stedsnr" v="237019" />
	</node>
	<node id="-470282" lat="60.3352972191" lon="5.66913333916">
		<tag k="name" v="Barlindehaugen" />
		<tag k="natural" v="hill" />
		<tag k="place" v="locality" />
		<tag k="ssr:stedsnr" v="237104" />
	</node>
	<node id="-470280" lat="60.3565166681" lon="5.88497221959">
		<tag k="name" v="Alsheller" />
		<tag k="place" v="locality" />
		<tag k="ssr:stedsnr" v="222953" />
	</node>
	<node id="-470279" lat="60.3629083315" lon="5.84200278422">
		<tag k="name" v="Krærna" />
		<tag k="natural" v="valley" />
		<tag k="place" v="locality" />
		<tag k="ssr:stedsnr" v="222949" />
	</node>
	<node id="-470277" lat="60.4518555578" lon="5.88782500228">
		<tag k="name" v="Osdalen" />
		<tag k="natural" v="valley" />
		<tag k="place" v="locality" />
		<tag k="ssr:stedsnr" v="213945" />
	</node>
	<node id="-470275" lat="60.4512694459" lon="5.87194721511">
		<tag k="name" v="Elvadalen" />
		<tag k="natural" v="valley" />
		<tag k="place" v="locality" />
		<tag k="ssr:stedsnr" v="213592" />
	</node>
	<node id="-470274" lat="60.4485972233" lon="5.84910833683">
		<tag k="name" v="Storurhjellane" />
		<tag k="natural" v="hill" />
		<tag k="place" v="locality" />
		<tag k="ssr:stedsnr" v="213591" />
	</node>
	<node id="-470272" lat="60.42200833" lon="5.82921944615">
		<tag k="name" v="Ytstalia" />
		<tag k="natural" v="slope" />
		<tag k="place" v="locality" />
		<tag k="ssr:stedsnr" v="213385" />
	</node>
	<node id="-470271" lat="60.4250694487" lon="5.84589999224">
		<tag k="name" v="Sauadalen" />
		<tag k="natural" v="valley" />
		<tag k="place" v="locality" />
		<tag k="ssr:stedsnr" v="213344" />
	</node>
	<node id="-470270" lat="60.426658332" lon="5.84295833548">
		<tag k="name" v="Skavhilderane" />
		<tag k="place" v="locality" />
		<tag k="ssr:stedsnr" v="213342" />
	</node>
	<node id="-470268" lat="60.4629694478" lon="5.88178888392">
		<tag k="name" v="Leinane" />
		<tag k="natural" v="hill" />
		<tag k="place" v="locality" />
		<tag k="ssr:stedsnr" v="213098" />
	</node>
	<node id="-470266" lat="60.4010777743" lon="5.83418889248">
		<tag k="name" v="Høghaugen" />
		<tag k="natural" v="hill" />
		<tag k="place" v="locality" />
		<tag k="ssr:stedsnr" v="212493" />
	</node>
	<node id="-470265" lat="60.4026805582" lon="5.82635833503">
		<tag k="name" v="Stigane" />
		<tag k="natural" v="hill" />
		<tag k="place" v="locality" />
		<tag k="ssr:stedsnr" v="212487" />
	</node>
	<node id="-470264" lat="60.3931222245" lon="5.84944167378">
		<tag k="name" v="Kinnapresten" />
		<tag k="place" v="locality" />
		<tag k="ssr:stedsnr" v="212424" />
	</node>
	<node id="-470263" lat="60.3965527785" lon="5.84346944705">
		<tag k="name" v="Geitaryggen" />
		<tag k="natural" v="ridge" />
		<tag k="place" v="locality" />
		<tag k="ssr:stedsnr" v="212419" />
	</node>
	<node id="-470262" lat="60.3871972247" lon="5.77430000378">
		<tag k="name" v="Neverhaugen" />
		<tag k="natural" v="hill" />
		<tag k="place" v="locality" />
		<tag k="ssr:stedsnr" v="212141" />
	</node>
	<node id="-470260" lat="60.3344555577" lon="5.60104721649">
		<tag k="name" v="Eikelunden" />
		<tag k="natural" v="slope" />
		<tag k="place" v="locality" />
		<tag k="ssr:stedsnr" v="211914" />
	</node>
	<node id="-470259" lat="60.3444833307" lon="5.63477499457">
		<tag k="name" v="Skaret" />
		<tag k="natural" v="valley" />
		<tag k="place" v="locality" />
		<tag k="ssr:stedsnr" v="211908" />
	</node>
	<node id="-470257" lat="60.3547888913" lon="5.62911667165">
		<tag k="name" v="Hestastigane" />
		<tag k="natural" v="slope" />
		<tag k="place" v="locality" />
		<tag k="ssr:stedsnr" v="210658" />
	</node>
	<node id="-470255" lat="60.3521388905" lon="5.86351945018">
		<tag k="name" v="Holmavasskultane" />
		<tag k="natural" v="hill" />
		<tag k="place" v="locality" />
		<tag k="ssr:stedsnr" v="188667" />
	</node>
	<node id="-470254" lat="60.4839555568" lon="5.98441943563">
		<tag k="fixme" v="consider natural=peak for the most distinct mountains in the district" />
		<tag k="name" v="Bjørnaknausen" />
		<tag k="natural" v="hill" />
		<tag k="place" v="locality" />
		<tag k="ssr:stedsnr" v="188358" />
	</node>
	<node id="-470252" lat="60.3806083303" lon="5.63430833877">
		<tag k="fixme" v="consider natural=peak for the most distinct mountains in the district" />
		<tag k="name" v="Rennebrotet" />
		<tag k="natural" v="hill" />
		<tag k="place" v="locality" />
		<tag k="ssr:stedsnr" v="188187" />
	</node>
	<node id="-470250" lat="60.391202778" lon="5.78413056042">
		<tag k="name" v="Tysselandsdalen" />
		<tag k="natural" v="valley" />
		<tag k="place" v="locality" />
		<tag k="ssr:stedsnr" v="188158" />
	</node>
	<node id="-470249" lat="60.3867805513" lon="5.85653610404">
		<tag k="name" v="Røssebotnen" />
		<tag k="natural" v="valley" />
		<tag k="place" v="locality" />
		<tag k="ssr:stedsnr" v="187683" />
	</node>
	<node id="-470247" lat="60.3707416673" lon="5.85199166149">
		<tag k="fixme" v="consider natural=peak for the most distinct mountains in the district" />
		<tag k="name" v="Vardanova" />
		<tag k="natural" v="hill" />
		<tag k="place" v="locality" />
		<tag k="ssr:stedsnr" v="187631" />
	</node>
	<node id="-470245" lat="60.3704611147" lon="5.9149944477">
		<tag k="fixme" v="consider natural=peak for the most distinct mountains in the district" />
		<tag k="name" v="Kvamsbottshorga" />
		<tag k="natural" v="hill" />
		<tag k="place" v="locality" />
		<tag k="ssr:stedsnr" v="187622" />
	</node>
	<node id="-470244" lat="60.338436112" lon="5.90378889701">
		<tag k="name" v="Danielsslåtten" />
		<tag k="place" v="locality" />
		<tag k="ssr:stedsnr" v="187548" />
	</node>
	<node id="-470243" lat="60.4783027798" lon="5.91456389597">
		<tag k="name" v="Holene" />
		<tag k="natural" v="valley" />
		<tag k="place" v="locality" />
		<tag k="ssr:stedsnr" v="187339" />
	</node>
	<node id="-470242" lat="60.4704527814" lon="5.91020000716">
		<tag k="name" v="Lavranshola" />
		<tag k="natural" v="valley" />
		<tag k="place" v="locality" />
		<tag k="ssr:stedsnr" v="187337" />
	</node>
	<node id="-470241" lat="60.4601555594" lon="5.95648056198">
		<tag k="name" v="Fagerdalen" />
		<tag k="natural" v="valley" />
		<tag k="place" v="locality" />
		<tag k="ssr:stedsnr" v="187327" />
	</node>
	<node id="-470239" lat="60.4323591363" lon="5.91264592672">
		<tag k="name" v="Kalvagjela" />
		<tag k="natural" v="gorge" />
		<tag k="ssr:stedsnr" v="187385" />
	</node>
	<node id="-470235" lat="60.3390277786" lon="5.80156667326">
		<tag k="alt_name" v="Tindafjell" />
		<tag k="fixme" v="consider natural=peak for the most distinct mountains in the district" />
		<tag k="name" v="Tindafjellet" />
		<tag k="natural" v="hill" />
		<tag k="place" v="locality" />
		<tag k="ssr:stedsnr" v="187219" />
	</node>
	<node id="-470234" lat="60.3852388929" lon="5.79065833235">
		<tag k="name" v="Snauhaugen" />
		<tag k="natural" v="hill" />
		<tag k="place" v="locality" />
		<tag k="ssr:stedsnr" v="187147" />
	</node>
	<node id="-470232" lat="60.364833329" lon="5.66852499563">
		<tag k="fixme" v="consider natural=peak for the most distinct mountains in the district" />
		<tag k="name" v="Liahædda" />
		<tag k="natural" v="hill" />
		<tag k="place" v="locality" />
		<tag k="ssr:stedsnr" v="187171" />
	</node>
	<node id="-470229" lat="60.4366361122" lon="5.69579722417">
		<tag k="fixme" v="multiple name tags, choose one and add the other to alt_name; consider natural=peak for the most distinct mountains in the district" />
		<tag k="name" v="Raudnipa;Trollabotsvarden" />
		<tag k="natural" v="hill" />
		<tag k="place" v="locality" />
		<tag k="ssr:stedsnr" v="187042" />
	</node>
	<node id="-470226" lat="60.3409444447" lon="5.89526665977">
		<tag k="fixme" v="consider natural=peak for the most distinct mountains in the district" />
		<tag k="name" v="Frølandsfjellet" />
		<tag k="natural" v="hill" />
		<tag k="place" v="locality" />
		<tag k="ssr:stedsnr" v="180751" />
	</node>
	<node id="-470225" lat="60.3639694471" lon="5.75633055968">
		<tag k="name" v="Hovda" />
		<tag k="natural" v="hill" />
		<tag k="place" v="locality" />
		<tag k="ssr:stedsnr" v="180055" />
	</node>
	<node id="-470224" lat="60.3620333314" lon="5.74560555001">
		<tag k="name" v="Løypehaugen" />
		<tag k="natural" v="hill" />
		<tag k="place" v="locality" />
		<tag k="ssr:stedsnr" v="180049" />
	</node>
	<node id="-470223" lat="60.3685916648" lon="5.80203054776">
		<tag k="name" v="Storemyrhaugen" />
		<tag k="natural" v="hill" />
		<tag k="place" v="locality" />
		<tag k="ssr:stedsnr" v="180033" />
	</node>
	<node id="-470222" lat="60.3536694403" lon="5.74314445172">
		<tag k="name" v="Dyråsgjelet" />
		<tag k="natural" v="valley" />
		<tag k="place" v="locality" />
		<tag k="ssr:stedsnr" v="180022" />
	</node>
	<node id="-470221" lat="60.3365666696" lon="5.68256389356">
		<tag k="name" v="Tjørndalen" />
		<tag k="natural" v="valley" />
		<tag k="place" v="locality" />
		<tag k="ssr:stedsnr" v="176138" />
	</node>
	<node id="-470220" lat="60.3325472207" lon="5.66838055759">
		<tag k="name" v="Lyningshaugen" />
		<tag k="natural" v="hill" />
		<tag k="place" v="locality" />
		<tag k="ssr:stedsnr" v="176119" />
	</node>
	<node id="-470218" lat="60.3446222244" lon="5.70178054857">
		<tag k="name" v="Høgaløypet" />
		<tag k="natural" v="valley" />
		<tag k="place" v="locality" />
		<tag k="ssr:stedsnr" v="176099" />
	</node>
	<node id="-470216" lat="60.3420972195" lon="5.71958610716">
		<tag k="name" v="Geitalia" />
		<tag k="natural" v="slope" />
		<tag k="place" v="locality" />
		<tag k="ssr:stedsnr" v="176031" />
	</node>
	<node id="-470213" lat="60.3621611098" lon="5.65392499658">
		<tag k="name" v="Øyahaugen" />
		<tag k="natural" v="hill" />
		<tag k="place" v="locality" />
		<tag k="ssr:stedsnr" v="172166" />
	</node>
	<node id="-470209" lat="60.4459805537" lon="5.85615554846">
		<tag k="name" v="Åridalen" />
		<tag k="natural" v="valley" />
		<tag k="place" v="locality" />
		<tag k="ssr:stedsnr" v="152545" />
	</node>
	<node id="-470208" lat="60.4278833337" lon="5.83162777673">
		<tag k="name" v="Brennehaugen" />
		<tag k="natural" v="hill" />
		<tag k="place" v="locality" />
		<tag k="ssr:stedsnr" v="152433" />
	</node>
	<node id="-470207" lat="60.3973027763" lon="5.87216110559">
		<tag k="name" v="Eriksmuren" />
		<tag k="natural" v="hill" />
		<tag k="place" v="locality" />
		<tag k="ssr:stedsnr" v="151447" />
	</node>
	<node id="-470206" lat="60.3810527737" lon="5.77116110571">
		<tag k="name" v="Gryvlet" />
		<tag k="natural" v="gorge" />
		<tag k="ssr:stedsnr" v="151340" />
	</node>
	<node id="-470203" lat="60.4122999986" lon="5.77014444337">
		<tag k="name" v="Terhaugane" />
		<tag k="natural" v="hill" />
		<tag k="place" v="locality" />
		<tag k="ssr:stedsnr" v="150958" />
	</node>
	<node id="-470200" lat="60.3496027786" lon="5.6967416672">
		<tag k="name" v="Lyninghaugane" />
		<tag k="natural" v="hill" />
		<tag k="place" v="locality" />
		<tag k="ssr:stedsnr" v="150896" />
	</node>
	<node id="-470199" lat="60.3630027797" lon="5.64408611075">
		<tag k="name" v="Skreiddalen" />
		<tag k="natural" v="valley" />
		<tag k="place" v="locality" />
		<tag k="ssr:stedsnr" v="150606" />
	</node>
	<node id="-470193" lat="60.383374997" lon="5.58923332714">
		<tag k="fixme" v="consider natural=peak for the most distinct mountains in the district" />
		<tag k="name" v="Blåmanen" />
		<tag k="natural" v="hill" />
		<tag k="place" v="locality" />
		<tag k="ssr:stedsnr" v="127143" />
	</node>
	<node id="-470192" lat="60.3885833337" lon="5.67455277003">
		<tag k="name" v="Haugalia" />
		<tag k="natural" v="slope" />
		<tag k="place" v="locality" />
		<tag k="ssr:stedsnr" v="127142" />
	</node>
	<node id="-470191" lat="60.3935361068" lon="5.79067222354">
		<tag k="fixme" v="consider natural=peak for the most distinct mountains in the district" />
		<tag k="name" v="Solåsen" />
		<tag k="natural" v="hill" />
		<tag k="place" v="locality" />
		<tag k="ssr:stedsnr" v="127134" />
	</node>
	<node id="-470189" lat="60.3272055548" lon="5.8447444385">
		<tag k="name" v="Høganova" />
		<tag k="natural" v="hill" />
		<tag k="place" v="locality" />
		<tag k="ssr:stedsnr" v="126550" />
	</node>
	<node id="-470188" lat="60.4027611101" lon="5.88711389296">
		<tag k="fixme" v="consider natural=peak for the most distinct mountains in the district" />
		<tag k="name" v="Huldabottsfjellet" />
		<tag k="natural" v="hill" />
		<tag k="place" v="locality" />
		<tag k="ssr:stedsnr" v="126484" />
	</node>
	<node id="-470181" lat="60.4761250034" lon="5.92790277223">
		<tag k="name" v="Dukabotnen" />
		<tag k="natural" v="valley" />
		<tag k="place" v="locality" />
		<tag k="ssr:stedsnr" v="126370" />
	</node>
	<node id="-470175" lat="60.4586916692" lon="5.79693610364">
		<tag k="fixme" v="consider natural=peak for the most distinct mountains in the district" />
		<tag k="name" v="Stabben" />
		<tag k="natural" v="hill" />
		<tag k="place" v="locality" />
		<tag k="ssr:stedsnr" v="126021" />
	</node>
	<node id="-470172" lat="60.3383694413" lon="5.69539443697">
		<tag k="name" v="Aksla" />
		<tag k="place" v="locality" />
		<tag k="ssr:stedsnr" v="116127" />
	</node>
	<node id="-470171" lat="60.3379499999" lon="5.67747221644">
		<tag k="name" v="Skjenet" />
		<tag k="natural" v="hill" />
		<tag k="place" v="locality" />
		<tag k="ssr:stedsnr" v="116111" />
	</node>
	<node id="-470170" lat="60.3235277802" lon="5.77077499442">
		<tag k="name" v="Skodvasshaugen" />
		<tag k="natural" v="hill" />
		<tag k="place" v="locality" />
		<tag k="ssr:stedsnr" v="116080" />
	</node>
	<node id="-470169" lat="60.327880553" lon="5.71924444142">
		<tag k="name" v="Seterdalen" />
		<tag k="natural" v="valley" />
		<tag k="place" v="locality" />
		<tag k="ssr:stedsnr" v="116042" />
	</node>
	<node id="-470167" lat="60.3554833329" lon="5.84723610372">
		<tag k="name" v="Vigrabotnen" />
		<tag k="natural" v="valley" />
		<tag k="place" v="locality" />
		<tag k="ssr:stedsnr" v="116921" />
	</node>
	<node id="-470163" lat="60.3590083379" lon="5.88504167453">
		<tag k="name" v="Helvetesbotnen" />
		<tag k="natural" v="valley" />
		<tag k="place" v="locality" />
		<tag k="ssr:stedsnr" v="101964" />
	</node>
	<node id="-470160" lat="60.3820944443" lon="5.89753889098">
		<tag k="name" v="Storstova" />
		<tag k="natural" v="slope" />
		<tag k="place" v="locality" />
		<tag k="ssr:stedsnr" v="92616" />
	</node>
	<node id="-470159" lat="60.4522888864" lon="5.86524445127">
		<tag k="name" v="Hilderen" />
		<tag k="place" v="locality" />
		<tag k="ssr:stedsnr" v="92560" />
	</node>
	<node id="-470157" lat="60.4050499977" lon="5.84902222381">
		<tag k="name" v="Fossabrekka" />
		<tag k="natural" v="slope" />
		<tag k="place" v="locality" />
		<tag k="ssr:stedsnr" v="91523" />
	</node>
	<node id="-470156" lat="60.4065416667" lon="5.83877777689">
		<tag k="name" v="Kleivane" />
		<tag k="natural" v="slope" />
		<tag k="place" v="locality" />
		<tag k="ssr:stedsnr" v="91517" />
	</node>
	<node id="-470155" lat="60.4190333355" lon="5.80888056278">
		<tag k="name" v="Vetlebotnen" />
		<tag k="natural" v="valley" />
		<tag k="place" v="locality" />
		<tag k="ssr:stedsnr" v="91510" />
	</node>
	<node id="-470153" lat="60.4227833299" lon="5.83571110851">
		<tag k="name" v="Kjerringadalen" />
		<tag k="natural" v="valley" />
		<tag k="place" v="locality" />
		<tag k="ssr:stedsnr" v="91400" />
	</node>
	<node id="-470152" lat="60.3776972209" lon="5.81384444127">
		<tag k="name" v="Apalluren" />
		<tag k="natural" v="hill" />
		<tag k="place" v="locality" />
		<tag k="ssr:stedsnr" v="91387" />
	</node>
	<node id="-470151" lat="60.3760333293" lon="5.79279445007">
		<tag k="fixme" v="consider natural=peak for the most distinct mountains in the district" />
		<tag k="name" v="Såta" />
		<tag k="natural" v="hill" />
		<tag k="ssr:stedsnr" v="91278" />
	</node>
	<node id="-470147" lat="60.3836250039" lon="5.61773610703">
		<tag k="name" v="Namnlausehaugen" />
		<tag k="natural" v="hill" />
		<tag k="place" v="locality" />
		<tag k="ssr:stedsnr" v="90997" />
	</node>
	<node id="-470146" lat="60.3777222243" lon="5.64422500391">
		<tag k="name" v="Rindastølshaugen" />
		<tag k="natural" v="hill" />
		<tag k="place" v="locality" />
		<tag k="ssr:stedsnr" v="90959" />
	</node>
	<node id="-470141" lat="60.3611499984" lon="5.69605277957">
		<tag k="name" v="Kampalia" />
		<tag k="natural" v="slope" />
		<tag k="place" v="locality" />
		<tag k="ssr:stedsnr" v="90582" />
	</node>
	<node id="-470140" lat="60.3533861154" lon="5.66632221888">
		<tag k="name" v="Furehaugen" />
		<tag k="natural" v="hill" />
		<tag k="place" v="locality" />
		<tag k="ssr:stedsnr" v="90579" />
	</node>
	<node id="-470139" lat="60.4076416626" lon="5.78274166265">
		<tag k="name" v="Gjelet" />
		<tag k="natural" v="gorge" />
		<tag k="ssr:stedsnr" v="90160" />
	</node>
	<node id="-470137" lat="60.5196666702" lon="5.91126666789">
		<tag k="fixme" v="consider natural=peak for the most distinct mountains in the district" />
		<tag k="name" v="Tverrberget" />
		<tag k="natural" v="hill" />
		<tag k="place" v="locality" />
		<tag k="ssr:stedsnr" v="67755" />
	</node>
	<node id="-470136" lat="60.350719443" lon="5.89832776956">
		<tag k="name" v="Stutabotnen" />
		<tag k="natural" v="valley" />
		<tag k="place" v="locality" />
		<tag k="ssr:stedsnr" v="66623" />
	</node>
	<node id="-470135" lat="60.3544277816" lon="5.87668333013">
		<tag k="fixme" v="consider natural=peak for the most distinct mountains in the district" />
		<tag k="name" v="Storagrønova" />
		<tag k="natural" v="hill" />
		<tag k="place" v="locality" />
		<tag k="ssr:stedsnr" v="66622" />
	</node>
	<node id="-470134" lat="60.3482083287" lon="5.93254721549">
		<tag k="fixme" v="consider natural=peak for the most distinct mountains in the district" />
		<tag k="name" v="Høganova" />
		<tag k="natural" v="hill" />
		<tag k="place" v="locality" />
		<tag k="ssr:stedsnr" v="66575" />
	</node>
	<node id="-470130" lat="60.2977611099" lon="5.60300555825">
		<tag k="fixme" v="consider natural=peak for the most distinct mountains in the district" />
		<tag k="name" v="Solbjørgfjellet" />
		<tag k="natural" v="hill" />
		<tag k="place" v="locality" />
		<tag k="ssr:stedsnr" v="66269" />
	</node>
	<node id="-470129" lat="60.3405722233" lon="5.83413056372">
		<tag k="fixme" v="consider natural=peak for the most distinct mountains in the district" />
		<tag k="name" v="Geitaloftet" />
		<tag k="natural" v="hill" />
		<tag k="place" v="locality" />
		<tag k="ssr:stedsnr" v="66222" />
	</node>
	<node id="-470122" lat="60.3863638882" lon="5.77521388621">
		<tag k="name" v="Raudskolten" />
		<tag k="natural" v="hill" />
		<tag k="place" v="locality" />
		<tag k="ssr:stedsnr" v="66133" />
	</node>
	<node id="-470114" lat="60.3670166636" lon="5.77468055741">
		<tag k="name" v="Slåtten" />
		<tag k="natural" v="hill" />
		<tag k="place" v="locality" />
		<tag k="ssr:stedsnr" v="59030" />
	</node>
	<node id="-470113" lat="60.3562527772" lon="5.81069722881">
		<tag k="name" v="Floren" />
		<tag k="natural" v="hill" />
		<tag k="place" v="locality" />
		<tag k="ssr:stedsnr" v="59008" />
	</node>
	<node id="-470112" lat="60.3445416639" lon="5.71680555222">
		<tag k="name" v="Utløhaugane" />
		<tag k="natural" v="hill" />
		<tag k="place" v="locality" />
		<tag k="ssr:stedsnr" v="55037" />
	</node>
	<node id="-470111" lat="60.3316166698" lon="5.69312223089">
		<tag k="name" v="Høgehaugen" />
		<tag k="natural" v="hill" />
		<tag k="place" v="locality" />
		<tag k="ssr:stedsnr" v="55125" />
	</node>
	<node id="-470109" lat="60.3309638899" lon="5.65904443809">
		<tag k="name" v="Jonadalen" />
		<tag k="natural" v="valley" />
		<tag k="place" v="locality" />
		<tag k="ssr:stedsnr" v="55100" />
	</node>
	<node id="-470108" lat="60.3475999996" lon="5.69286667027">
		<tag k="name" v="Rinden" />
		<tag k="place" v="locality" />
		<tag k="ssr:stedsnr" v="55094" />
	</node>
	<node id="-470102" lat="60.3658472254" lon="5.88054165993">
		<tag k="name" v="Plyttagjeldet" />
		<tag k="natural" v="valley" />
		<tag k="place" v="locality" />
		<tag k="ssr:stedsnr" v="40984" />
	</node>
	<node id="-470101" lat="60.4397555562" lon="5.84685833379">
		<tag k="fixme" v="consider natural=peak for the most distinct mountains in the district" />
		<tag k="name" v="Vetlåsen" />
		<tag k="natural" v="hill" />
		<tag k="place" v="locality" />
		<tag k="ssr:stedsnr" v="31979" />
	</node>
	<node id="-470098" lat="60.4403138925" lon="5.82658610681">
		<tag k="name" v="Fossane" />
		<tag k="natural" v="ridge" />
		<tag k="place" v="locality" />
		<tag k="ssr:stedsnr" v="31528" />
	</node>
	<node id="-470097" lat="60.4446388893" lon="5.86012222869">
		<tag k="name" v="Dyralia" />
		<tag k="natural" v="slope" />
		<tag k="place" v="locality" />
		<tag k="ssr:stedsnr" v="31510" />
	</node>
	<node id="-470096" lat="60.4311944478" lon="5.87995833485">
		<tag k="name" v="Vierkleiva" />
		<tag k="natural" v="hill" />
		<tag k="place" v="locality" />
		<tag k="ssr:stedsnr" v="31112" />
	</node>
	<node id="-470095" lat="60.4630777755" lon="5.88945833968">
		<tag k="name" v="Høghaugen" />
		<tag k="natural" v="hill" />
		<tag k="place" v="locality" />
		<tag k="ssr:stedsnr" v="31077" />
	</node>
	<node id="-470094" lat="60.4106750039" lon="5.84183610403">
		<tag k="name" v="Sørlia" />
		<tag k="natural" v="slope" />
		<tag k="place" v="locality" />
		<tag k="ssr:stedsnr" v="30496" />
	</node>
	<node id="-470091" lat="60.4268666694" lon="5.7267527729">
		<tag k="name" v="Tjørndalen" />
		<tag k="natural" v="valley" />
		<tag k="place" v="locality" />
		<tag k="ssr:stedsnr" v="30305" />
	</node>
	<node id="-470089" lat="60.3395472238" lon="5.62317777524">
		<tag k="name" v="Mørkedalen" />
		<tag k="natural" v="valley" />
		<tag k="place" v="locality" />
		<tag k="ssr:stedsnr" v="29907" />
	</node>
	<node id="-470086" lat="60.397949998" lon="5.67034445002">
		<tag k="name" v="Akselskaret" />
		<tag k="natural" v="valley" />
		<tag k="place" v="locality" />
		<tag k="ssr:stedsnr" v="29871" />
	</node>
	<node id="-470079" lat="60.5063333337" lon="5.98146388516">
		<tag k="name" v="Høgda" />
		<tag k="natural" v="hill" />
		<tag k="place" v="locality" />
		<tag k="ssr:stedsnr" v="6983" />
	</node>
	<node id="-470077" lat="60.3770055599" lon="5.64477777298">
		<tag k="name" v="Rindane" />
		<tag k="natural" v="slope" />
		<tag k="place" v="locality" />
		<tag k="ssr:stedsnr" v="6160" />
	</node>
	<node id="-470075" lat="60.3660472206" lon="5.88246389099">
		<tag k="name" v="Rauneskarnovene" />
		<tag k="natural" v="hill" />
		<tag k="place" v="locality" />
		<tag k="ssr:stedsnr" v="5645" />
	</node>
	<node id="-470074" lat="60.4085361136" lon="5.88349167306">
		<tag k="name" v="Huldabotnen" />
		<tag k="natural" v="valley" />
		<tag k="place" v="locality" />
		<tag k="ssr:stedsnr" v="5425" />
	</node>
	<node id="-470073" lat="60.4142222181" lon="5.84894444664">
		<tag k="fixme" v="consider natural=peak for the most distinct mountains in the district" />
		<tag k="name" v="Åsane" />
		<tag k="natural" v="hill" />
		<tag k="place" v="locality" />
		<tag k="ssr:stedsnr" v="5422" />
	</node>
	<node id="-470072" lat="60.4371805557" lon="5.91817500294">
		<tag k="name" v="Kvanndalsbotnane" />
		<tag k="natural" v="valley" />
		<tag k="place" v="locality" />
		<tag k="ssr:stedsnr" v="5412" />
	</node>
	<node id="-470067" lat="60.3448222206" lon="5.83973611668">
		<tag k="fixme" v="consider natural=peak for the most distinct mountains in the district" />
		<tag k="name" v="Jarlandsfjellet" />
		<tag k="natural" v="hill" />
		<tag k="place" v="locality" />
		<tag k="ssr:stedsnr" v="5227" />
	</node>
	<node id="-470066" lat="60.3418472246" lon="5.6168444504">
		<tag k="name" v="Hildersbotnen" />
		<tag k="natural" v="valley" />
		<tag k="place" v="locality" />
		<tag k="ssr:stedsnr" v="5219" />
	</node>
	<node id="-470065" lat="60.339591667" lon="5.6042916727">
		<tag k="name" v="Elvane" />
		<tag k="natural" v="valley" />
		<tag k="place" v="locality" />
		<tag k="ssr:stedsnr" v="5211" />
	</node>
	<node id="-470062" lat="60.3879694412" lon="5.63466667137">
		<tag k="name" v="Nordbøbotnen" />
		<tag k="natural" v="valley" />
		<tag k="place" v="locality" />
		<tag k="ssr:stedsnr" v="5137" />
	</node>
	<node id="-470061" lat="60.3940138883" lon="5.65600832682">
		<tag k="name" v="Grasdalen" />
		<tag k="natural" v="valley" />
		<tag k="place" v="locality" />
		<tag k="ssr:stedsnr" v="5134" />
	</node>
	<node id="-470057" lat="60.4052611144" lon="5.76846389516">
		<tag k="name" v="Raudaberget" />
		<tag k="natural" v="hill" />
		<tag k="place" v="locality" />
		<tag k="ssr:stedsnr" v="5081" />
	</node>
	<node id="-470054" lat="60.4324166648" lon="5.78389445251">
		<tag k="name" v="Breilia" />
		<tag k="natural" v="slope" />
		<tag k="place" v="locality" />
		<tag k="ssr:stedsnr" v="5034" />
	</node>
	<node id="-470048" lat="60.3181944481" lon="5.54984167434">
		<tag k="fixme" v="consider natural=peak for the most distinct mountains in the district" />
		<tag k="name" v="Sveningen" />
		<tag k="natural" v="hill" />
		<tag k="place" v="locality" />
		<tag k="ssr:stedsnr" v="248241" />
	</node>
	<node id="-470043" lat="60.367547224" lon="5.82442499224">
		<tag k="name" v="Haraskori" />
		<tag k="natural" v="valley" />
		<tag k="place" v="locality" />
		<tag k="ssr:stedsnr" v="890978" />
	</node>
	<node id="-470037" lat="60.357872219" lon="5.77681110258">
		<tag k="name" v="Krossdalen" />
		<tag k="natural" v="valley" />
		<tag k="place" v="locality" />
		<tag k="ssr:stedsnr" v="479019" />
	</node>
	<node id="-470036" lat="60.3620388886" lon="5.85012221912">
		<tag k="name" v="Moltemyrnakken" />
		<tag k="place" v="locality" />
		<tag k="ssr:stedsnr" v="404957" />
	</node>
	<node id="-470035" lat="60.3916666699" lon="5.9097138888">
		<tag k="name" v="Skarhaugen" />
		<tag k="natural" v="hill" />
		<tag k="place" v="locality" />
		<tag k="ssr:stedsnr" v="395627" />
	</node>
	<node id="-470034" lat="60.4464499999" lon="5.84776111132">
		<tag k="name" v="Kvernaholene" />
		<tag k="natural" v="valley" />
		<tag k="place" v="locality" />
		<tag k="ssr:stedsnr" v="395576" />
	</node>
	<node id="-470033" lat="60.3785972181" lon="5.84143056014">
		<tag k="name" v="Liaros" />
		<tag k="natural" v="slope" />
		<tag k="place" v="locality" />
		<tag k="ssr:stedsnr" v="395332" />
	</node>
	<node id="-470032" lat="60.4195666686" lon="5.91531943729">
		<tag k="name" v="Eikedalshilderen" />
		<tag k="place" v="locality" />
		<tag k="ssr:stedsnr" v="395117" />
	</node>
	<node id="-470030" lat="60.4687055536" lon="5.91220554893">
		<tag k="name" v="Dyralia" />
		<tag k="natural" v="slope" />
		<tag k="place" v="locality" />
		<tag k="ssr:stedsnr" v="395090" />
	</node>
	<node id="-470028" lat="60.4151805597" lon="5.80059166359">
		<tag k="name" v="Verkane" />
		<tag k="natural" v="valley" />
		<tag k="place" v="locality" />
		<tag k="ssr:stedsnr" v="394498" />
	</node>
	<node id="-470027" lat="60.3996194464" lon="5.85391666563">
		<tag k="name" v="Flatheiane" />
		<tag k="natural" v="hill" />
		<tag k="place" v="locality" />
		<tag k="ssr:stedsnr" v="394414" />
	</node>
	<node id="-470026" lat="60.4327138903" lon="5.85060834029">
		<tag k="name" v="Storhilderen" />
		<tag k="natural" v="slope" />
		<tag k="place" v="locality" />
		<tag k="ssr:stedsnr" v="394374" />
	</node>
	<node id="-470023" lat="60.3792388933" lon="5.65880000837">
		<tag k="name" v="Fitaheiane" />
		<tag k="natural" v="hill" />
		<tag k="place" v="locality" />
		<tag k="ssr:stedsnr" v="393979" />
	</node>
	<node id="-470022" lat="60.4092111144" lon="5.73016111739">
		<tag k="name" v="Heiane" />
		<tag k="natural" v="hill" />
		<tag k="place" v="locality" />
		<tag k="ssr:stedsnr" v="393961" />
	</node>
	<node id="-470021" lat="60.4003944403" lon="5.75562778629">
		<tag k="name" v="Aldalen" />
		<tag k="natural" v="valley" />
		<tag k="place" v="locality" />
		<tag k="ssr:stedsnr" v="393957" />
	</node>
	<node id="-470019" lat="60.3547138854" lon="5.66951388154">
		<tag k="name" v="Djupedalen" />
		<tag k="natural" v="valley" />
		<tag k="place" v="locality" />
		<tag k="ssr:stedsnr" v="393919" />
	</node>
	<node id="-470018" lat="60.344336114" lon="5.62490554843">
		<tag k="name" v="Stordalen" />
		<tag k="natural" v="valley" />
		<tag k="place" v="locality" />
		<tag k="ssr:stedsnr" v="393903" />
	</node>
	<node id="-470016" lat="60.3679805586" lon="5.69601388067">
		<tag k="name" v="Hovda" />
		<tag k="natural" v="hill" />
		<tag k="place" v="locality" />
		<tag k="ssr:stedsnr" v="393571" />
	</node>
	<node id="-470015" lat="60.3937777774" lon="5.77895832934">
		<tag k="fixme" v="consider natural=peak for the most distinct mountains in the district" />
		<tag k="name" v="Åsen" />
		<tag k="natural" v="hill" />
		<tag k="place" v="locality" />
		<tag k="ssr:stedsnr" v="393249" />
	</node>
	<node id="-470009" lat="60.5083555524" lon="5.91130555732">
		<tag k="name" v="Tjørnadalen" />
		<tag k="natural" v="valley" />
		<tag k="place" v="locality" />
		<tag k="ssr:stedsnr" v="371021" />
	</node>
	<node id="-470005" lat="60.4206111141" lon="5.91702777907">
		<tag k="fixme" v="consider natural=peak for the most distinct mountains in the district" />
		<tag k="name" v="Flæfjellet" />
		<tag k="natural" v="hill" />
		<tag k="place" v="locality" />
		<tag k="ssr:stedsnr" v="369408" />
	</node>
	<node id="-470004" lat="60.4231916701" lon="5.88405555493">
		<tag k="fixme" v="consider natural=peak for the most distinct mountains in the district" />
		<tag k="name" v="Tøfjellet" />
		<tag k="natural" v="hill" />
		<tag k="place" v="locality" />
		<tag k="ssr:stedsnr" v="369406" />
	</node>
	<node id="-470001" lat="60.4840666635" lon="5.93772221533">
		<tag k="name" v="Skredene" />
		<tag k="natural" v="slope" />
		<tag k="place" v="locality" />
		<tag k="ssr:stedsnr" v="369307" />
	</node>
	<node id="-470000" lat="60.4815972249" lon="5.94596944393">
		<tag k="name" v="Trollskaret" />
		<tag k="natural" v="valley" />
		<tag k="place" v="locality" />
		<tag k="ssr:stedsnr" v="369306" />
	</node>
	<node id="-469999" lat="60.4849666633" lon="5.88621666303">
		<tag k="name" v="Røyrlia" />
		<tag k="natural" v="slope" />
		<tag k="place" v="locality" />
		<tag k="ssr:stedsnr" v="369302" />
	</node>
	<node id="-469998" lat="60.3349222187" lon="5.80152499342">
		<tag k="alt_name" v="Haugsfjell" />
		<tag k="fixme" v="consider natural=peak for the most distinct mountains in the district" />
		<tag k="name" v="Haugsfjellet" />
		<tag k="natural" v="hill" />
		<tag k="place" v="locality" />
		<tag k="ssr:stedsnr" v="369215" />
	</node>
	<node id="-469996" lat="60.3536027763" lon="5.61362499734">
		<tag k="fixme" v="consider natural=peak for the most distinct mountains in the district" />
		<tag k="name" v="Sauafjellet" />
		<tag k="natural" v="hill" />
		<tag k="place" v="locality" />
		<tag k="ssr:stedsnr" v="369188" />
	</node>
	<node id="-469995" lat="60.3586111126" lon="5.74205833062">
		<tag k="fixme" v="consider natural=peak for the most distinct mountains in the district" />
		<tag k="name" v="Førøyåsen" />
		<tag k="natural" v="hill" />
		<tag k="place" v="locality" />
		<tag k="ssr:stedsnr" v="369164" />
	</node>
	<node id="-469991" lat="60.3874138904" lon="5.69948056238">
		<tag k="name" v="Høgåsen" />
		<tag k="natural" v="hill" />
		<tag k="place" v="locality" />
		<tag k="ssr:stedsnr" v="369125" />
	</node>
	<node id="-469990" lat="60.4011666649" lon="5.83932223026">
		<tag k="name" v="Brannhaugen" />
		<tag k="natural" v="hill" />
		<tag k="place" v="locality" />
		<tag k="ssr:stedsnr" v="369109" />
	</node>
	<node id="-469985" lat="60.3393749975" lon="5.67874166974">
		<tag k="name" v="Mørkedalen" />
		<tag k="natural" v="valley" />
		<tag k="place" v="locality" />
		<tag k="ssr:stedsnr" v="358113" />
	</node>
	<node id="-469983" lat="60.3299027823" lon="5.78685556038">
		<tag k="name" v="Østerdalseggena" />
		<tag k="natural" v="ridge" />
		<tag k="place" v="locality" />
		<tag k="ssr:stedsnr" v="358076" />
	</node>
	<node id="-469977" lat="60.4225527812" lon="5.80766666747">
		<tag k="name" v="Stofarinden" />
		<tag k="natural" v="ridge" />
		<tag k="place" v="locality" />
		<tag k="ssr:stedsnr" v="334433" />
	</node>
	<node id="-469975" lat="60.4229611072" lon="5.92493889453">
		<tag k="name" v="Læghildrane" />
		<tag k="place" v="locality" />
		<tag k="ssr:stedsnr" v="334113" />
	</node>
	<node id="-469974" lat="60.3895388885" lon="5.78233054804">
		<tag k="name" v="Furhaugen" />
		<tag k="natural" v="hill" />
		<tag k="place" v="locality" />
		<tag k="ssr:stedsnr" v="333273" />
	</node>
	<node id="-469972" lat="60.3870444453" lon="5.59088888684">
		<tag k="fixme" v="consider natural=peak for the most distinct mountains in the district" />
		<tag k="name" v="Gullfjelltoppen" />
		<tag k="natural" v="hill" />
		<tag k="place" v="locality" />
		<tag k="ssr:stedsnr" v="333000" />
	</node>
	<node id="-469971" lat="60.3840944409" lon="5.58931666256">
		<tag k="name" v="Middagsdalen" />
		<tag k="natural" v="valley" />
		<tag k="place" v="locality" />
		<tag k="ssr:stedsnr" v="332993" />
	</node>
	<node id="-469965" lat="60.399008332" lon="5.66723055682">
		<tag k="name" v="Revabakken" />
		<tag k="natural" v="slope" />
		<tag k="place" v="locality" />
		<tag k="ssr:stedsnr" v="332865" />
	</node>
	<node id="-469964" lat="60.3937749971" lon="5.81454167301">
		<tag k="name" v="Vardadalen" />
		<tag k="natural" v="valley" />
		<tag k="place" v="locality" />
		<tag k="ssr:stedsnr" v="332820" />
	</node>
	<node id="-469963" lat="60.3637888869" lon="5.69269443943">
		<tag k="name" v="Lindhaugen" />
		<tag k="natural" v="hill" />
		<tag k="place" v="locality" />
		<tag k="ssr:stedsnr" v="332599" />
	</node>
	<node id="-469962" lat="60.3572750025" lon="5.65805278501">
		<tag k="name" v="Stutaskora" />
		<tag k="natural" v="valley" />
		<tag k="place" v="locality" />
		<tag k="ssr:stedsnr" v="332597" />
	</node>
	<node id="-469961" lat="60.4097888886" lon="5.79275833244">
		<tag k="name" v="Ørnahushaugen" />
		<tag k="natural" v="hill" />
		<tag k="place" v="locality" />
		<tag k="ssr:stedsnr" v="332191" />
	</node>
	<node id="-469957" lat="60.3605972185" lon="5.85521389655">
		<tag k="name" v="Kvannevikskulten" />
		<tag k="natural" v="hill" />
		<tag k="place" v="locality" />
		<tag k="ssr:stedsnr" v="309656" />
	</node>
	<node id="-469955" lat="60.3164555555" lon="5.61026945178">
		<tag k="name" v="Skorahaugen" />
		<tag k="natural" v="hill" />
		<tag k="place" v="locality" />
		<tag k="ssr:stedsnr" v="309280" />
	</node>
	<node id="-469952" lat="60.373294442" lon="5.60559443919">
		<tag k="fixme" v="consider natural=peak for the most distinct mountains in the district" />
		<tag k="name" v="Kofta" />
		<tag k="natural" v="hill" />
		<tag k="place" v="locality" />
		<tag k="ssr:stedsnr" v="309189" />
	</node>
	<node id="-469948" lat="60.3886499999" lon="5.62579166034">
		<tag k="name" v="Brualeitet" />
		<tag k="natural" v="hill" />
		<tag k="place" v="locality" />
		<tag k="ssr:stedsnr" v="309160" />
	</node>
	<node id="-469943" lat="60.3664666637" lon="5.86137778697">
		<tag k="name" v="Setrabotnen" />
		<tag k="natural" v="valley" />
		<tag k="place" v="locality" />
		<tag k="ssr:stedsnr" v="308636" />
	</node>
	<node id="-469939" lat="60.4308479262" lon="5.89870535088">
		<tag k="name" v="Tungegjelet" />
		<tag k="natural" v="gorge" />
		<tag k="ssr:stedsnr" v="308375" />
	</node>
	<node id="-469938" lat="60.4269944468" lon="5.90903055046">
		<tag k="fixme" v="consider natural=peak for the most distinct mountains in the district" />
		<tag k="name" v="Bukkanakken" />
		<tag k="natural" v="hill" />
		<tag k="place" v="locality" />
		<tag k="ssr:stedsnr" v="308373" />
	</node>
	<node id="-469935" lat="60.4063861083" lon="5.8004416681">
		<tag k="name" v="Totlandskampen" />
		<tag k="natural" v="hill" />
		<tag k="place" v="locality" />
		<tag k="ssr:stedsnr" v="308077" />
	</node>
	<node id="-469933" lat="60.4493055555" lon="5.79206389798">
		<tag k="name" v="Bogaskaret" />
		<tag k="natural" v="valley" />
		<tag k="place" v="locality" />
		<tag k="ssr:stedsnr" v="308019" />
	</node>
	<node id="-469932" lat="60.3538638874" lon="5.75801388015">
		<tag k="name" v="Nedre Skaråsdalen" />
		<tag k="natural" v="valley" />
		<tag k="place" v="locality" />
		<tag k="ssr:stedsnr" v="301049" />
	</node>
	<node id="-469930" lat="60.3521972254" lon="5.8367083301">
		<tag k="name" v="Kikenosi" />
		<tag k="place" v="locality" />
		<tag k="ssr:stedsnr" v="298913" />
	</node>
	<node id="-469929" lat="60.3299000019" lon="5.67917500366">
		<tag k="name" v="Botnen" />
		<tag k="natural" v="valley" />
		<tag k="place" v="locality" />
		<tag k="ssr:stedsnr" v="298115" />
	</node>
	<node id="-469927" lat="60.3485583333" lon="5.6625750084">
		<tag k="name" v="Skipet" />
		<tag k="natural" v="hill" />
		<tag k="place" v="locality" />
		<tag k="ssr:stedsnr" v="298097" />
	</node>
	<node id="-469926" lat="60.3392749963" lon="5.6827055554">
		<tag k="fixme" v="consider natural=peak for the most distinct mountains in the district" />
		<tag k="name" v="Djuvvikåsen" />
		<tag k="natural" v="hill" />
		<tag k="place" v="locality" />
		<tag k="ssr:stedsnr" v="298088" />
	</node>
	<node id="-469925" lat="60.3420916693" lon="5.77448611043">
		<tag k="name" v="Grønabrekka" />
		<tag k="natural" v="slope" />
		<tag k="place" v="locality" />
		<tag k="ssr:stedsnr" v="298066" />
	</node>
	<node id="-469922" lat="60.3972249965" lon="5.76750278118">
		<tag k="name" v="Heia" />
		<tag k="natural" v="hill" />
		<tag k="place" v="locality" />
		<tag k="ssr:stedsnr" v="29801" />
	</node>
	<node id="-469904" lat="60.4496500032" lon="5.84488611856">
		<tag k="name" v="Småtjørnahjellane" />
		<tag k="natural" v="hill" />
		<tag k="place" v="locality" />
		<tag k="ssr:stedsnr" v="274529" />
	</node>
	<node id="-469903" lat="60.4168694426" lon="5.88689723007">
		<tag k="name" v="Vorekleiva" />
		<tag k="natural" v="hill" />
		<tag k="place" v="locality" />
		<tag k="ssr:stedsnr" v="274109" />
	</node>
	<node id="-469902" lat="60.4625777809" lon="5.92268332623">
		<tag k="name" v="Neverkleiva" />
		<tag k="natural" v="slope" />
		<tag k="place" v="locality" />
		<tag k="ssr:stedsnr" v="274085" />
	</node>
	<node id="-469901" lat="60.4096777803" lon="5.83443889579">
		<tag k="name" v="Smoget" />
		<tag k="natural" v="valley" />
		<tag k="place" v="locality" />
		<tag k="ssr:stedsnr" v="273482" />
	</node>
	<node id="-469898" lat="60.4312277792" lon="5.7152694412">
		<tag k="name" v="Lynten" />
		<tag k="natural" v="hill" />
		<tag k="place" v="locality" />
		<tag k="ssr:stedsnr" v="273278" />
	</node>
	<node id="-469896" lat="60.3888164086" lon="5.59296906406">
		<tag k="name" v="Gullfjellhalsen" />
		<tag k="natural" v="ridge" />
		<tag k="place" v="locality" />
		<tag k="ssr:stedsnr" v="272972" />
	</node>
	<node id="-469895" lat="60.4048555523" lon="5.72918889163">
		<tag k="name" v="Storhaugen" />
		<tag k="natural" v="hill" />
		<tag k="place" v="locality" />
		<tag k="ssr:stedsnr" v="272965" />
	</node>
	<node id="-469893" lat="60.3515472257" lon="5.65750556268">
		<tag k="name" v="Bekkene" />
		<tag k="natural" v="slope" />
		<tag k="place" v="locality" />
		<tag k="ssr:stedsnr" v="272926" />
	</node>
	<node id="-469892" lat="60.3400083337" lon="5.59979444519">
		<tag k="name" v="Rundehaugen" />
		<tag k="natural" v="hill" />
		<tag k="place" v="locality" />
		<tag k="ssr:stedsnr" v="272905" />
	</node>
	<node id="-469891" lat="60.3427166674" lon="5.60491666147">
		<tag k="name" v="Fonnadalen" />
		<tag k="natural" v="valley" />
		<tag k="place" v="locality" />
		<tag k="ssr:stedsnr" v="272904" />
	</node>
	<node id="-469888" lat="60.3024305592" lon="5.60369722932">
		<tag k="name" v="Revadalen" />
		<tag k="natural" v="valley" />
		<tag k="place" v="locality" />
		<tag k="ssr:stedsnr" v="272586" />
	</node>
	<node id="-469887" lat="60.3482999986" lon="5.62697221792">
		<tag k="name" v="Heiane" />
		<tag k="natural" v="hill" />
		<tag k="place" v="locality" />
		<tag k="ssr:stedsnr" v="272582" />
	</node>
	<node id="-469886" lat="60.3684499963" lon="5.66485834018">
		<tag k="name" v="Senabrekka" />
		<tag k="natural" v="slope" />
		<tag k="place" v="locality" />
		<tag k="ssr:stedsnr" v="272538" />
	</node>
</osm>
