<?xml version="1.0" encoding="UTF-8"?>
<osm generator="osmapis" version="0.6">
	<node id="-470013" lat="60.3405555599" lon="5.67028332898">
		<tag k="alt_name" v="Fagerlia" />
		<tag k="name" v="Fagerli" />
		<tag k="place" v="farm" />
		<tag k="ssr:stedsnr" v="388277" />
	</node>
	<node id="-470524" lat="60.3441055582" lon="5.68072777015">
		<tag k="alt_name" v="Bjørkelund" />
		<tag k="name" v="Bjørkeland" />
		<tag k="place" v="farm" />
		<tag k="ssr:stedsnr" v="631283" />
	</node>
	<node id="-470011" lat="60.3598805569" lon="5.68984444304">
		<tag k="name" v="Solbakken" />
		<tag k="place" v="farm" />
		<tag k="ssr:stedsnr" v="388269" />
	</node>
	<node id="-470008" lat="60.3967416646" lon="5.85534999513">
		<tag k="historic" v="shieling" />
		<tag k="name" v="Børdalssetret" />
		<tag k="place" v="locality" />
		<tag k="ssr:stedsnr" v="369711" />
	</node>
	<node id="-470517" lat="60.3517888898" lon="5.66978055735">
		<tag k="name" v="Brattli" />
		<tag k="place" v="locality" />
		<tag k="ssr:stedsnr" v="612215" />
	</node>
	<node id="-470515" lat="60.3957715431" lon="5.74785284484">
		<tag k="fixme" v="consider place=hamlet" />
		<tag k="name" v="Haukaneset" />
		<tag k="place" v="farm" />
		<tag k="ssr:stedsnr" v="612130" />
	</node>
	<node id="-470513" lat="60.4216472224" lon="5.71785832729">
		<tag k="historic" v="shieling" />
		<tag k="name" v="Heiasetret" />
		<tag k="place" v="locality" />
		<tag k="ssr:stedsnr" v="612082" />
	</node>
	<node id="-470510" lat="60.4351281697" lon="5.89501738054">
		<tag k="historic" v="shieling" />
		<tag k="name" v="Kvanndalen" />
		<tag k="place" v="locality" />
		<tag k="ssr:stedsnr" v="611440" />
	</node>
	<node id="-470506" lat="60.3682333363" lon="5.7324111085">
		<tag k="name" v="Barmen" />
		<tag k="place" v="farm" />
		<tag k="ssr:stedsnr" v="611150" />
	</node>
	<node id="-469993" lat="60.3740305593" lon="5.75952777209">
		<tag k="name" v="Tysse" />
		<tag k="place" v="village" />
		<tag k="ssr:stedsnr" v="369145" />
	</node>
	<node id="-469992" lat="60.3856925591" lon="5.79569518771">
		<tag k="fixme" v="consider place=hamlet" />
		<tag k="name" v="Tysseland" />
		<tag k="place" v="farm" />
		<tag k="ssr:stedsnr" v="369130" />
	</node>
	<node id="-470012" lat="60.3692166692" lon="5.72922222614">
		<tag k="name" v="Nymark" />
		<tag k="place" v="farm" />
		<tag k="ssr:stedsnr" v="388275" />
	</node>
	<node id="-470492" lat="60.3796944405" lon="5.89319722932">
		<tag k="name" v="Fossen" />
		<tag k="place" v="locality" />
		<tag k="ssr:stedsnr" v="577609" />
	</node>
	<node id="-469973" lat="60.386362998" lon="5.76694516665">
		<tag k="name" v="Haga" />
		<tag k="place" v="farm" />
		<tag k="ssr:stedsnr" v="333174" />
	</node>
	<node id="-470483" lat="60.419233329" lon="5.7137999929">
		<tag k="historic" v="shieling" />
		<tag k="name" v="Utgjerdesetret" />
		<tag k="place" v="locality" />
		<tag k="ssr:stedsnr" v="576282" />
	</node>
	<node id="-469970" lat="60.3989333311" lon="5.71138055868">
		<tag k="fixme" v="consider place=hamlet" />
		<tag k="name" v="Ådland" />
		<tag k="place" v="farm" />
		<tag k="ssr:stedsnr" v="332963" />
	</node>
	<node id="-469958" lat="60.404108333" lon="5.72313333683">
		<tag k="fixme" v="consider place=hamlet" />
		<tag k="name" v="Samnanger" />
		<tag k="place" v="village" />
		<tag k="ssr:stedsnr" v="328266" />
	</node>
	<node id="-469951" lat="60.3815060281" lon="5.64722779841">
		<tag k="fixme" v="consider place=hamlet" />
		<tag k="name" v="Nordbø" />
		<tag k="place" v="farm" />
		<tag k="ssr:stedsnr" v="309183" />
	</node>
	<node id="-469949" lat="60.383236312" lon="5.76700930442">
		<tag k="alt_name" v="Haga;Ytra Haga" />
		<tag k="name" v="Ytre Haga" />
		<tag k="place" v="farm" />
		<tag k="ssr:stedsnr" v="309170" />
	</node>
	<node id="-469947" lat="60.4042750002" lon="5.78933889586">
		<tag k="name" v="Tveit" />
		<tag k="place" v="farm" />
		<tag k="ssr:stedsnr" v="309117" />
	</node>
	<node id="-469946" lat="60.3999169142" lon="5.74080196802">
		<tag k="fixme" v="consider place=hamlet" />
		<tag k="name" v="Lauskar" />
		<tag k="place" v="farm" />
		<tag k="ssr:stedsnr" v="309112" />
	</node>
	<node id="-470457" lat="60.3549223276" lon="5.69657380102">
		<tag k="name" v="Kampen" />
		<tag k="place" v="farm" />
		<tag k="ssr:stedsnr" v="551218" />
	</node>
	<node id="-470455" lat="60.3856075481" lon="5.79999824729">
		<tag k="fixme" v="consider place=hamlet" />
		<tag k="name" v="Totland" />
		<tag k="place" v="farm" />
		<tag k="ssr:stedsnr" v="551153" />
	</node>
	<node id="-470453" lat="60.3905361092" lon="5.65523611821">
		<tag k="name" v="Oppheim" />
		<tag k="place" v="farm" />
		<tag k="ssr:stedsnr" v="551145" />
	</node>
	<node id="-469940" lat="60.3989527814" lon="5.84420554704">
		<tag k="name" v="Kråni" />
		<tag k="place" v="farm" />
		<tag k="ssr:stedsnr" v="308443" />
	</node>
	<node id="-470451" lat="60.4036367231" lon="5.79246426653">
		<tag k="fixme" v="consider place=hamlet" />
		<tag k="name" v="Langeland" />
		<tag k="place" v="farm" />
		<tag k="ssr:stedsnr" v="551119" />
	</node>
	<node id="-470450" lat="60.4133111152" lon="5.78686665878">
		<tag k="name" v="Nygård" />
		<tag k="place" v="farm" />
		<tag k="ssr:stedsnr" v="551100" />
	</node>
	<node id="-469936" lat="60.3560583364" lon="5.68886666255">
		<tag k="alt_name" v="Nygård" />
		<tag k="name" v="Nygard" />
		<tag k="place" v="farm" />
		<tag k="ssr:stedsnr" v="308152" />
	</node>
	<node id="-469934" lat="60.4372944437" lon="5.74768333677">
		<tag k="historic" v="shieling" />
		<tag k="name" v="Nordvikasetret" />
		<tag k="place" v="locality" />
		<tag k="ssr:stedsnr" v="308044" />
	</node>
	<node id="-470426" lat="60.4279416662" lon="5.80880555625">
		<tag k="name" v="Nyutløtræ" />
		<tag k="place" v="farm" />
		<tag k="ssr:stedsnr" v="516479" />
	</node>
	<node id="-470717" lat="60.3470500038" lon="5.68887777154">
		<tag k="name" v="Lundebø" />
		<tag k="place" v="farm" />
		<tag k="ssr:stedsnr" v="813275" />
	</node>
	<node id="-470421" lat="60.394461109" lon="5.83808054764">
		<tag k="historic" v="shieling" />
		<tag k="name" v="Engjalistølen" />
		<tag k="place" v="locality" />
		<tag k="ssr:stedsnr" v="516394" />
	</node>
	<node id="-469905" lat="60.4425333377" lon="5.9210583329">
		<tag k="historic" v="shieling" />
		<tag k="name" v="Bjørkestølane" />
		<tag k="place" v="locality" />
		<tag k="ssr:stedsnr" v="274695" />
	</node>
	<node id="-470414" lat="60.4120555528" lon="5.81418889807">
		<tag k="fixme" v="consider place=hamlet" />
		<tag k="name" v="Svensdalen" />
		<tag k="place" v="farm" />
		<tag k="ssr:stedsnr" v="514937" />
	</node>
	<node id="-470253" lat="60.3199439936" lon="5.62608273541">
		<tag k="fixme" v="consider place=hamlet" />
		<tag k="name" v="Rolsvåg" />
		<tag k="place" v="farm" />
		<tag k="ssr:stedsnr" v="188271" />
	</node>
	<node id="-470406" lat="60.3963333331" lon="5.76898889207">
		<tag k="fixme" v="consider place=hamlet" />
		<tag k="name" v="Gjerde" />
		<tag k="place" v="farm" />
		<tag k="ssr:stedsnr" v="510347" />
	</node>
	<node id="-470081" lat="60.3578666701" lon="5.60994443741">
		<tag k="historic" v="shieling" />
		<tag k="name" v="Brekkesetret" />
		<tag k="place" v="locality" />
		<tag k="ssr:stedsnr" v="28653" />
	</node>
	<node id="-470400" lat="60.3922644379" lon="5.77001988983">
		<tag k="fixme" v="consider place=hamlet" />
		<tag k="name" v="Steinsland" />
		<tag k="place" v="farm" />
		<tag k="ssr:stedsnr" v="491142" />
	</node>
	<node id="-469885" lat="60.366580553" lon="5.67968333337">
		<tag k="name" v="Oldervollen" />
		<tag k="place" v="farm" />
		<tag k="ssr:stedsnr" v="272535" />
	</node>
	<node id="-469994" lat="60.363392472" lon="5.67621663687">
		<tag k="fixme" v="consider place=hamlet" />
		<tag k="name" v="Li" />
		<tag k="place" v="farm" />
		<tag k="ssr:stedsnr" v="369163" />
	</node>
	<node id="-470388" lat="60.4479361113" lon="5.86947777973">
		<tag k="name" v="Steinhushaugen" />
		<tag k="place" v="farm" />
		<tag k="ssr:stedsnr" v="490367" />
	</node>
	<node id="-470385" lat="60.3737329125" lon="5.816649444">
		<tag k="fixme" v="consider place=hamlet" />
		<tag k="name" v="Jarland" />
		<tag k="place" v="farm" />
		<tag k="ssr:stedsnr" v="490180" />
	</node>
	<node id="-470382" lat="60.3742265767" lon="5.80847350116">
		<tag k="fixme" v="consider place=hamlet" />
		<tag k="name" v="Haug" />
		<tag k="place" v="farm" />
		<tag k="ssr:stedsnr" v="490155" />
	</node>
	<node id="-470380" lat="60.415183332" lon="5.8438944423">
		<tag k="name" v="Haugen" />
		<tag k="place" v="farm" />
		<tag k="ssr:stedsnr" v="490434" />
	</node>
	<node id="-470377" lat="60.3685749998" lon="5.74544999362">
		<tag k="name" v="Barmen" />
		<tag k="place" v="hamlet" />
		<tag k="ssr:stedsnr" v="483068" />
	</node>
	<node id="-470374" lat="60.3683944422" lon="5.73668611868">
		<tag k="name" v="Ytste Barmen" />
		<tag k="place" v="farm" />
		<tag k="ssr:stedsnr" v="483060" />
	</node>
	<node id="-470362" lat="60.3783049781" lon="5.80151119216">
		<tag k="fixme" v="consider place=hamlet" />
		<tag k="name" v="Ulland" />
		<tag k="place" v="farm" />
		<tag k="ssr:stedsnr" v="455330" />
	</node>
	<node id="-470361" lat="60.4140222251" lon="5.76081945159">
		<tag k="historic" v="shieling" />
		<tag k="name" v="Heimasetret" />
		<tag k="place" v="locality" />
		<tag k="ssr:stedsnr" v="455263" />
	</node>
	<node id="-470355" lat="60.4130932056" lon="5.73347146147">
		<tag k="fixme" v="consider place=hamlet" />
		<tag k="name" v="Nordvika" />
		<tag k="place" v="farm" />
		<tag k="ssr:stedsnr" v="454960" />
	</node>
	<node id="-470351" lat="60.3969333332" lon="5.78626110207">
		<tag k="name" v="Nytveit" />
		<tag k="place" v="farm" />
		<tag k="ssr:stedsnr" v="454254" />
	</node>
	<node id="-470348" lat="60.3694388894" lon="5.74721389774">
		<tag k="name" v="Indre Barmen" />
		<tag k="place" v="farm" />
		<tag k="ssr:stedsnr" v="449300" />
	</node>
	<node id="-470346" lat="60.3807222222" lon="5.87658610422">
		<tag k="name" v="Storlia" />
		<tag k="place" v="farm" />
		<tag k="ssr:stedsnr" v="430704" />
	</node>
	<node id="-470848" lat="60.3540805555" lon="5.7549222188">
		<tag k="name" v="Skaråstølen" />
		<tag k="place" v="locality" />
		<tag k="ssr:stedsnr" v="969062" />
	</node>
	<node id="-470099" lat="60.4424138869" lon="5.85517778014">
		<tag k="historic" v="shieling" />
		<tag k="name" v="Geitastølen" />
		<tag k="place" v="locality" />
		<tag k="ssr:stedsnr" v="31580" />
	</node>
	<node id="-470333" lat="60.3996537411" lon="5.78360632009">
		<tag k="fixme" v="consider place=hamlet" />
		<tag k="name" v="Tveitarås" />
		<tag k="place" v="farm" />
		<tag k="ssr:stedsnr" v="430105" />
	</node>
	<node id="-470049" lat="60.5007750018" lon="5.96058055876">
		<tag k="fixme" v="consider tourism=alpine_hut or tourism=chalet" />
		<tag k="name" v="Gullhorgabu" />
		<tag k="ssr:stedsnr" v="648007" />
		<tag k="tourism" v="wilderness_hut" />
	</node>
	<node id="-470327" lat="60.3509305596" lon="5.75368610668">
		<tag k="name" v="Steinstølen" />
		<tag k="place" v="locality" />
		<tag k="ssr:stedsnr" v="423032" />
	</node>
	<node id="-470837" lat="60.4185999977" lon="5.78234166464">
		<tag k="name" v="Totræna" />
		<tag k="place" v="farm" />
		<tag k="ssr:stedsnr" v="941474" />
	</node>
	<node id="-470830" lat="60.3869785397" lon="5.76741457502">
		<tag k="fixme" v="consider place=hamlet" />
		<tag k="name" v="Haga" />
		<tag k="place" v="farm" />
		<tag k="ssr:stedsnr" v="940156" />
	</node>
	<node id="-470317" lat="60.3867468813" lon="5.76504619934">
		<tag k="alt_name" v="Indra Haga" />
		<tag k="name" v="Indre Haga" />
		<tag k="place" v="farm" />
		<tag k="ssr:stedsnr" v="267260" />
	</node>
	<node id="-470828" lat="60.3959472236" lon="5.76513888881">
		<tag k="historic" v="shieling" />
		<tag k="name" v="Stølen" />
		<tag k="place" v="locality" />
		<tag k="ssr:stedsnr" v="939807" />
	</node>
	<node id="-470827" lat="60.4103194416" lon="5.78913056229">
		<tag k="historic" v="shieling" />
		<tag k="name" v="Kloppastølen" />
		<tag k="place" v="locality" />
		<tag k="ssr:stedsnr" v="939208" />
	</node>
	<node id="-470817" lat="60.345478269" lon="5.68338854813">
		<tag k="alt_name" v="Djuvvik" />
		<tag k="fixme" v="consider place=hamlet" />
		<tag k="name" v="Djupviki" />
		<tag k="place" v="farm" />
		<tag k="ssr:stedsnr" v="916232" />
	</node>
	<node id="-470816" lat="60.3762035193" lon="5.69437386999">
		<tag k="fixme" v="consider place=hamlet" />
		<tag k="name" v="Nedre-Kvernes" />
		<tag k="place" v="farm" />
		<tag k="ssr:stedsnr" v="916155" />
	</node>
	<node id="-470815" lat="60.3748200009" lon="5.68645753237">
		<tag k="fixme" v="consider place=hamlet" />
		<tag k="name" v="Skar" />
		<tag k="place" v="farm" />
		<tag k="ssr:stedsnr" v="916154" />
	</node>
	<node id="-470813" lat="60.4190999998" lon="5.72468610828">
		<tag k="name" v="Bjørnåsen" />
		<tag k="place" v="farm" />
		<tag k="ssr:stedsnr" v="916089" />
	</node>
	<node id="-470299" lat="60.347805555" lon="5.68597221474">
		<tag k="name" v="Bakke" />
		<tag k="place" v="farm" />
		<tag k="ssr:stedsnr" v="248209" />
	</node>
	<node id="-470809" lat="60.4129166656" lon="5.91350278561">
		<tag k="historic" v="shieling" />
		<tag k="name" v="Svensdalssetret" />
		<tag k="place" v="locality" />
		<tag k="ssr:stedsnr" v="915424" />
	</node>
	<node id="-470296" lat="60.3769229151" lon="5.69791875284">
		<tag k="fixme" v="consider place=hamlet" />
		<tag k="name" v="Øvre-Kvernes" />
		<tag k="place" v="farm" />
		<tag k="ssr:stedsnr" v="248144" />
	</node>
	<node id="-470295" lat="60.3944611096" lon="5.67430000811">
		<tag k="name" v="Holdhus" />
		<tag k="place" v="farm" />
		<tag k="ssr:stedsnr" v="248099" />
	</node>
	<node id="-470804" lat="60.3687750008" lon="5.72255832581">
		<tag k="name" v="Sætreviki" />
		<tag k="place" v="farm" />
		<tag k="ssr:stedsnr" v="915153" />
	</node>
	<node id="-470291" lat="60.3539666682" lon="5.79773889735">
		<tag k="name" v="Haugssetret" />
		<tag k="place" v="isolated_dwelling" />
		<tag k="ssr:stedsnr" v="241035" />
	</node>
	<node id="-470144" lat="60.3551666668" lon="5.69655277926">
		<tag k="name" v="Ytste-Kampen" />
		<tag k="place" v="farm" />
		<tag k="ssr:stedsnr" v="90913" />
	</node>
	<node id="-470780" lat="60.4036527813" lon="5.76394444632">
		<tag k="name" v="Myra" />
		<tag k="place" v="farm" />
		<tag k="ssr:stedsnr" v="879249" />
	</node>
	<node id="-470778" lat="60.3740277812" lon="5.66352222062">
		<tag k="name" v="Skarsvågen" />
		<tag k="place" v="farm" />
		<tag k="ssr:stedsnr" v="878962" />
	</node>
	<node id="-470777" lat="60.3172388848" lon="5.62381388867">
		<tag k="name" v="Berget" />
		<tag k="place" v="farm" />
		<tag k="ssr:stedsnr" v="874825" />
	</node>
	<node id="-470775" lat="60.3680750019" lon="5.67977500283">
		<tag k="name" v="Oldervik" />
		<tag k="place" v="farm" />
		<tag k="ssr:stedsnr" v="874307" />
	</node>
	<node id="-470772" lat="60.4434277756" lon="5.86616111714">
		<tag k="name" v="Røyrbotnen" />
		<tag k="place" v="farm" />
		<tag k="ssr:stedsnr" v="855376" />
	</node>
	<node id="-470769" lat="60.3142777787" lon="5.62195276972">
		<tag k="name" v="Rinden" />
		<tag k="place" v="farm" />
		<tag k="ssr:stedsnr" v="855250" />
	</node>
	<node id="-470767" lat="60.3245555533" lon="5.61413610796">
		<tag k="name" v="Nymark" />
		<tag k="place" v="farm" />
		<tag k="ssr:stedsnr" v="855224" />
	</node>
	<node id="-470766" lat="60.3459638852" lon="5.69105555249">
		<tag k="alt_name" v="Øvstebø" />
		<tag k="name" v="Øpstebø" />
		<tag k="old_name" v="Øystebø" />
		<tag k="place" v="farm" />
		<tag k="ssr:stedsnr" v="855210" />
	</node>
	<node id="-470765" lat="60.3502579835" lon="5.68388103616">
		<tag k="name" v="Sagi" />
		<tag k="place" v="farm" />
		<tag k="ssr:stedsnr" v="855201" />
	</node>
	<node id="-470764" lat="60.3510125801" lon="5.68563377729">
		<tag k="fixme" v="consider place=hamlet" />
		<tag k="name" v="Sandvika" />
		<tag k="place" v="farm" />
		<tag k="ssr:stedsnr" v="855200" />
	</node>
	<node id="-470762" lat="60.3755579214" lon="5.7838589832">
		<tag k="fixme" v="consider place=hamlet" />
		<tag k="name" v="Gåsdalen" />
		<tag k="place" v="farm" />
		<tag k="ssr:stedsnr" v="855156" />
	</node>
	<node id="-470761" lat="60.4000777761" lon="5.79077777406">
		<tag k="name" v="Austbø" />
		<tag k="place" v="farm" />
		<tag k="ssr:stedsnr" v="855111" />
	</node>
	<node id="-470748" lat="60.3563805523" lon="5.77316943896">
		<tag k="name" v="Dunsengi" />
		<tag k="place" v="isolated_dwelling" />
		<tag k="ssr:stedsnr" v="844023" />
	</node>
	<node id="-470233" lat="60.3634138888" lon="5.81261111427">
		<tag k="name" v="Holmane" />
		<tag k="place" v="farm" />
		<tag k="ssr:stedsnr" v="187182" />
	</node>
	<node id="-470231" lat="60.4080805569" lon="5.7690583389">
		<tag k="name" v="Dalane" />
		<tag k="place" v="farm" />
		<tag k="ssr:stedsnr" v="187086" />
	</node>
	<node id="-470740" lat="60.4407833366" lon="5.84541666931">
		<tag k="historic" v="shieling" />
		<tag k="name" v="Storemyrstølen" />
		<tag k="place" v="locality" />
		<tag k="ssr:stedsnr" v="820981" />
	</node>
	<node id="-470733" lat="60.4271138931" lon="5.78984166307">
		<tag k="historic" v="shieling" />
		<tag k="name" v="Tosetret" />
		<tag k="place" v="locality" />
		<tag k="ssr:stedsnr" v="819463" />
	</node>
	<node id="-470732" lat="60.4300666634" lon="5.78442500003">
		<tag k="historic" v="shieling" />
		<tag k="name" v="Steinslandssetret" />
		<tag k="place" v="locality" />
		<tag k="ssr:stedsnr" v="819460" />
	</node>
	<node id="-470727" lat="60.4196499962" lon="5.75666666018">
		<tag k="name" v="Hildersmark" />
		<tag k="place" v="farm" />
		<tag k="ssr:stedsnr" v="819311" />
	</node>
	<node id="-470305" lat="60.4518166671" lon="5.86531388219">
		<tag k="name" v="Kleivane" />
		<tag k="place" v="farm" />
		<tag k="ssr:stedsnr" v="248380" />
	</node>
	<node id="-470722" lat="60.4047416712" lon="5.67526944705">
		<tag k="historic" v="shieling" />
		<tag k="name" v="Huldastølen" />
		<tag k="place" v="locality" />
		<tag k="ssr:stedsnr" v="818889" />
	</node>
	<node id="-470718" lat="60.4080245486" lon="5.78851905193">
		<tag k="fixme" v="consider place=hamlet" />
		<tag k="name" v="Tveit" />
		<tag k="place" v="farm" />
		<tag k="ssr:stedsnr" v="818200" />
	</node>
	<node id="-470205" lat="60.4180055533" lon="5.7557194468">
		<tag k="name" v="Myrland" />
		<tag k="place" v="farm" />
		<tag k="ssr:stedsnr" v="151301" />
	</node>
	<node id="-470198" lat="60.3301437495" lon="5.69365490567">
		<tag k="fixme" v="consider place=hamlet" />
		<tag k="name" v="Sævell" />
		<tag k="place" v="farm" />
		<tag k="ssr:stedsnr" v="145481" />
	</node>
	<node id="-470709" lat="60.4297361149" lon="5.85133332411">
		<tag k="name" v="Tøene" />
		<tag k="place" v="farm" />
		<tag k="ssr:stedsnr" v="794405" />
	</node>
	<node id="-470190" lat="60.3764866299" lon="5.65063631282">
		<tag k="fixme" v="consider place=hamlet" />
		<tag k="name" v="Trengereid" />
		<tag k="place" v="farm" />
		<tag k="ssr:stedsnr" v="127158" />
	</node>
	<node id="-470701" lat="60.3454222228" lon="5.64205277184">
		<tag k="name" v="Sagi" />
		<tag k="place" v="farm" />
		<tag k="ssr:stedsnr" v="794204" />
	</node>
	<node id="-470185" lat="60.3407583331" lon="5.6357527852">
		<tag k="name" v="Austavik" />
		<tag k="place" v="farm" />
		<tag k="ssr:stedsnr" v="126205" />
	</node>
	<node id="-470184" lat="60.3318061892" lon="5.6260277772">
		<tag k="fixme" v="consider place=hamlet" />
		<tag k="name" v="Våga" />
		<tag k="place" v="farm" />
		<tag k="ssr:stedsnr" v="126201" />
	</node>
	<node id="-470182" lat="60.4414951894" lon="5.84768548241">
		<tag k="fixme" v="consider place=hamlet" />
		<tag k="name" v="Grønsdalen" />
		<tag k="place" v="farm" />
		<tag k="ssr:stedsnr" v="126382" />
	</node>
	<node id="-470692" lat="60.3921055533" lon="5.71431110853">
		<tag k="alt_name" v="Sørvika" />
		<tag k="name" v="Søvik" />
		<tag k="place" v="farm" />
		<tag k="ssr:stedsnr" v="794132" />
	</node>
	<node id="-470178" lat="60.4295388849" lon="5.80832222983">
		<tag k="name" v="Øvrebø" />
		<tag k="place" v="farm" />
		<tag k="ssr:stedsnr" v="126064" />
	</node>
	<node id="-470177" lat="60.365986755" lon="5.69662179227">
		<tag k="fixme" v="consider place=hamlet" />
		<tag k="name" v="Gaupholm" />
		<tag k="place" v="farm" />
		<tag k="ssr:stedsnr" v="126147" />
	</node>
	<node id="-470687" lat="60.4136694458" lon="5.73205278027">
		<tag k="fixme" v="consider place=hamlet" />
		<tag k="name" v="Nordbygda" />
		<tag k="place" v="village" />
		<tag k="ssr:stedsnr" v="794074" />
	</node>
	<node id="-470682" lat="60.4348527766" lon="5.81472777869">
		<tag k="name" v="Dyrhovden" />
		<tag k="place" v="farm" />
		<tag k="ssr:stedsnr" v="794041" />
	</node>
	<node id="-470297" lat="60.3783413919" lon="5.69194683215">
		<tag k="fixme" v="consider place=hamlet" />
		<tag k="name" v="Kleppe" />
		<tag k="place" v="farm" />
		<tag k="ssr:stedsnr" v="248145" />
	</node>
	<node id="-470663" lat="60.3744555585" lon="5.66203055306">
		<tag k="name" v="Nordbøfeta" />
		<tag k="place" v="locality" />
		<tag k="ssr:stedsnr" v="757970" />
	</node>
	<node id="-470661" lat="60.3959472236" lon="5.76513888881">
		<tag k="historic" v="shieling" />
		<tag k="name" v="Stølen" />
		<tag k="place" v="locality" />
		<tag k="ssr:stedsnr" v="757785" />
	</node>
	<node id="-470145" lat="60.3518861142" lon="5.66936667441">
		<tag k="name" v="Stykket" />
		<tag k="place" v="farm" />
		<tag k="ssr:stedsnr" v="90919" />
	</node>
	<node id="-470656" lat="60.3996972193" lon="5.73674443875">
		<tag k="name" v="Myrvang" />
		<tag k="place" v="farm" />
		<tag k="ssr:stedsnr" v="752319" />
	</node>
	<node id="-470649" lat="60.3765153716" lon="5.66343975791">
		<tag k="fixme" v="consider place=hamlet" />
		<tag k="name" v="Skjeljåna" />
		<tag k="place" v="farm" />
		<tag k="ssr:stedsnr" v="734162" />
	</node>
	<node id="-470647" lat="60.402613887" lon="5.75609722881">
		<tag k="name" v="Slåtta" />
		<tag k="place" v="farm" />
		<tag k="ssr:stedsnr" v="734117" />
	</node>
	<node id="-470131" lat="60.2993427225" lon="5.61886894288">
		<tag k="fixme" v="consider place=hamlet" />
		<tag k="name" v="Solbjørg" />
		<tag k="place" v="farm" />
		<tag k="ssr:stedsnr" v="66271" />
	</node>
	<node id="-470128" lat="60.3359824213" lon="5.65709977012">
		<tag k="fixme" v="consider place=hamlet" />
		<tag k="name" v="Utskot" />
		<tag k="place" v="farm" />
		<tag k="ssr:stedsnr" v="66202" />
	</node>
	<node id="-470127" lat="60.3522305564" lon="5.7310555584">
		<tag k="name" v="Fossåsen" />
		<tag k="place" v="farm" />
		<tag k="ssr:stedsnr" v="66184" />
	</node>
	<node id="-470126" lat="60.3800731292" lon="5.80798777652">
		<tag k="fixme" v="consider place=hamlet" />
		<tag k="name" v="Frøland" />
		<tag k="place" v="farm" />
		<tag k="ssr:stedsnr" v="66156" />
	</node>
	<node id="-470637" lat="60.294624998" lon="5.61743889634">
		<tag k="name" v="Træet" />
		<tag k="place" v="farm" />
		<tag k="ssr:stedsnr" v="733260" />
	</node>
	<node id="-470123" lat="60.3830833363" lon="5.65890555792">
		<tag k="name" v="Krossaleitet" />
		<tag k="place" v="farm" />
		<tag k="ssr:stedsnr" v="66135" />
	</node>
	<node id="-470121" lat="60.3928144261" lon="5.67708278396">
		<tag k="fixme" v="consider place=hamlet" />
		<tag k="name" v="Haugen" />
		<tag k="place" v="farm" />
		<tag k="ssr:stedsnr" v="66130" />
	</node>
	<node id="-470120" lat="60.4005944464" lon="5.75420834011">
		<tag k="alt_name" v="Aldal" />
		<tag k="name" v="Alldalen" />
		<tag k="place" v="farm" />
		<tag k="ssr:stedsnr" v="66114" />
	</node>
	<node id="-470119" lat="60.4055795568" lon="5.73909294723">
		<tag k="fixme" v="consider place=hamlet" />
		<tag k="name" v="Rødne" />
		<tag k="place" v="farm" />
		<tag k="ssr:stedsnr" v="66097" />
	</node>
	<node id="-469945" lat="60.4116656682" lon="5.73873788308">
		<tag k="fixme" v="consider place=hamlet" />
		<tag k="name" v="Steintveit" />
		<tag k="place" v="farm" />
		<tag k="ssr:stedsnr" v="309081" />
	</node>
	<node id="-470612" lat="60.4169722218" lon="5.78916111283">
		<tag k="name" v="Nordtveit" />
		<tag k="place" v="farm" />
		<tag k="ssr:stedsnr" v="698453" />
	</node>
	<node id="-470611" lat="60.4286138894" lon="5.7895388868">
		<tag k="historic" v="shieling" />
		<tag k="name" v="Hagasetret" />
		<tag k="place" v="locality" />
		<tag k="ssr:stedsnr" v="698414" />
	</node>
	<node id="-470610" lat="60.4283222218" lon="5.79184722483">
		<tag k="historic" v="shieling" />
		<tag k="name" v="Tveitasetret" />
		<tag k="place" v="locality" />
		<tag k="ssr:stedsnr" v="698411" />
	</node>
	<node id="-470606" lat="60.3776899411" lon="5.66243427252">
		<tag k="name" v="Stolpane" />
		<tag k="place" v="farm" />
		<tag k="ssr:stedsnr" v="696980" />
	</node>
	<node id="-470602" lat="60.3947027772" lon="5.76686944211">
		<tag k="name" v="Neset" />
		<tag k="place" v="farm" />
		<tag k="ssr:stedsnr" v="696814" />
	</node>
	<node id="-470600" lat="60.3160388849" lon="5.62263611512">
		<tag k="name" v="Øvenane" />
		<tag k="place" v="locality" />
		<tag k="ssr:stedsnr" v="696615" />
	</node>
	<node id="-470598" lat="60.3569861112" lon="5.69874444901">
		<tag k="name" v="Espeli" />
		<tag k="place" v="farm" />
		<tag k="ssr:stedsnr" v="696604" />
	</node>
	<node id="-470597" lat="60.4245527774" lon="5.82065000322">
		<tag k="name" v="Fisket" />
		<tag k="place" v="farm" />
		<tag k="ssr:stedsnr" v="698361" />
	</node>
	<node id="-470084" lat="60.3220277802" lon="5.60054166942">
		<tag k="historic" v="shieling" />
		<tag k="name" v="Vågasetret" />
		<tag k="place" v="locality" />
		<tag k="ssr:stedsnr" v="29609" />
	</node>
	<node id="-470595" lat="60.2980138923" lon="5.61844722634">
		<tag k="name" v="Hagen" />
		<tag k="place" v="farm" />
		<tag k="ssr:stedsnr" v="692818" />
	</node>
	<node id="-470082" lat="60.3268222257" lon="5.61858333291">
		<tag k="name" v="Gryvlet" />
		<tag k="place" v="farm" />
		<tag k="ssr:stedsnr" v="28551" />
	</node>
	<node id="-470593" lat="60.3363499958" lon="5.66094166485">
		<tag k="name" v="Stølen" />
		<tag k="place" v="farm" />
		<tag k="ssr:stedsnr" v="692278" />
	</node>
	<node id="-470590" lat="60.3903249988" lon="5.90748610672">
		<tag k="fixme" v="consider place=hamlet" />
		<tag k="name" v="Eikedalen" />
		<tag k="place" v="village" />
		<tag k="ssr:stedsnr" v="673732" />
	</node>
	<node id="-470585" lat="60.3387083292" lon="5.66530000174">
		<tag k="name" v="Yndestad" />
		<tag k="place" v="farm" />
		<tag k="ssr:stedsnr" v="673230" />
	</node>
	<node id="-470584" lat="60.3479333369" lon="5.59571388414">
		<tag k="name" v="Brekkehytta" />
		<tag k="place" v="isolated_dwelling" />
		<tag k="ssr:stedsnr" v="673215" />
	</node>
	<node id="-470070" lat="60.4635855912" lon="5.89406463844">
		<tag k="fixme" v="consider place=hamlet" />
		<tag k="name" v="Kvitingen" />
		<tag k="place" v="farm" />
		<tag k="ssr:stedsnr" v="5330" />
	</node>
	<node id="-470069" lat="60.2895805533" lon="5.61519166866">
		<tag k="name" v="Skiftesvika" />
		<tag k="place" v="farm" />
		<tag k="ssr:stedsnr" v="5264" />
	</node>
	<node id="-470578" lat="60.4183750045" lon="5.7550750004">
		<tag k="historic" v="shieling" />
		<tag k="name" v="Myrland" />
		<tag k="place" v="locality" />
		<tag k="ssr:stedsnr" v="673095" />
	</node>
	<node id="-470577" lat="60.420161115" lon="5.71516944318">
		<tag k="historic" v="shieling" />
		<tag k="name" v="Reistadsetret" />
		<tag k="place" v="locality" />
		<tag k="ssr:stedsnr" v="673092" />
	</node>
	<node id="-470575" lat="60.4043593538" lon="5.8434404631">
		<tag k="fixme" v="consider place=hamlet" />
		<tag k="name" v="Børdalen" />
		<tag k="place" v="farm" />
		<tag k="ssr:stedsnr" v="672441" />
	</node>
	<node id="-470573" lat="60.4402888845" lon="5.88174443834">
		<tag k="name" v="Tverrlia" />
		<tag k="place" v="farm" />
		<tag k="ssr:stedsnr" v="672410" />
	</node>
	<node id="-470060" lat="60.3985380928" lon="5.67982431408">
		<tag k="alt_name" v="Hisdalen" />
		<tag k="name" v="Hisdal" />
		<tag k="place" v="hamlet" />
		<tag k="ssr:stedsnr" v="5101" />
	</node>
	<node id="-470059" lat="60.4012500007" lon="5.72889999717">
		<tag k="name" v="Bjørkheim" />
		<tag k="place" v="farm" />
		<tag k="ssr:stedsnr" v="5102" />
	</node>
	<node id="-470058" lat="60.3967888888" lon="5.68847777278">
		<tag k="name" v="Leitet" />
		<tag k="place" v="farm" />
		<tag k="ssr:stedsnr" v="5100" />
	</node>
	<node id="-470055" lat="60.4334277816" lon="5.75791943781">
		<tag k="historic" v="shieling" />
		<tag k="name" v="Rødssetret" />
		<tag k="place" v="locality" />
		<tag k="ssr:stedsnr" v="5035" />
	</node>
	<node id="-470564" lat="60.4001638866" lon="5.71084722095">
		<tag k="fixme" v="consider place=hamlet" />
		<tag k="name" v="Ådland" />
		<tag k="place" v="village" />
		<tag k="ssr:stedsnr" v="672103" />
	</node>
	<node id="-470563" lat="60.4096353769" lon="5.72392069861">
		<tag k="fixme" v="consider place=hamlet" />
		<tag k="name" v="Reistad" />
		<tag k="place" v="farm" />
		<tag k="ssr:stedsnr" v="672089" />
	</node>
	<node id="-470561" lat="60.4161802852" lon="5.83472866377">
		<tag k="fixme" v="consider place=hamlet" />
		<tag k="name" v="Høyseter" />
		<tag k="place" v="farm" />
		<tag k="ssr:stedsnr" v="674620" />
	</node>
	<node id="-470041" lat="60.3360277755" lon="5.69170833169">
		<tag k="name" v="Liabøen" />
		<tag k="place" v="farm" />
		<tag k="ssr:stedsnr" v="479128" />
	</node>
	<node id="-470545" lat="60.3760325865" lon="5.75995611547">
		<tag k="fixme" v="consider place=hamlet" />
		<tag k="name" v="Indre-Tysse" />
		<tag k="place" v="farm" />
		<tag k="ssr:stedsnr" v="638198" />
	</node>
	<node id="-470025" lat="60.3736454633" lon="5.75583998251">
		<tag k="fixme" v="consider place=hamlet" />
		<tag k="name" v="Ytre-Tysse" />
		<tag k="place" v="farm" />
		<tag k="ssr:stedsnr" v="394236" />
	</node>
	<node id="-470533" lat="60.3654360986" lon="5.6554667716">
		<tag k="fixme" v="consider place=hamlet" />
		<tag k="name" v="Liøyna" />
		<tag k="place" v="farm" />
		<tag k="ssr:stedsnr" v="635920" />
	</node>
	<node id="-470017" lat="60.3670555538" lon="5.6793527756">
		<tag k="name" v="Litangen" />
		<tag k="place" v="farm" />
		<tag k="ssr:stedsnr" v="393574" />
	</node>
</osm>
