<?xml version="1.0" encoding="UTF-8"?>
<osm generator="osmapis" version="0.6">
	<node id="-470850" lat="60.386106616" lon="5.76779145966">
		<tag k="amenity" v="place_of_worship" />
		<tag k="denomination" v="lutheran" />
		<tag k="name" v="Haga kyrkje" />
		<tag k="religion" v="christian" />
		<tag k="ssr:stedsnr" v="976276" />
	</node>
	<node id="-470848" lat="60.3540805555" lon="5.7549222188">
		<tag k="name" v="Skaråstølen" />
		<tag k="place" v="locality" />
		<tag k="ssr:stedsnr" v="969062" />
	</node>
	<node id="-470847" lat="60.3683027783" lon="5.78311111171">
		<tag k="name" v="Grøna lii" />
		<tag k="natural" v="slope" />
		<tag k="place" v="locality" />
		<tag k="ssr:stedsnr" v="969043" />
	</node>
	<node id="-470846" lat="60.3672888885" lon="5.74753611679">
		<tag k="layer" v="-1" />
		<tag k="name" v="Tyssetunellen" />
		<tag k="ssr:stedsnr" v="967037" />
		<tag k="tunnel" v="yes" />
	</node>
	<node id="-470845" lat="60.3396805516" lon="5.6629916738">
		<tag k="name" v="Furnesbukta" />
		<tag k="natural" v="bay" />
		<tag k="ssr:stedsnr" v="965110" />
	</node>
	<node id="-470844" lat="60.3387361071" lon="5.70291388643">
		<tag k="name" v="Stemmedalen" />
		<tag k="natural" v="valley" />
		<tag k="place" v="locality" />
		<tag k="ssr:stedsnr" v="965022" />
	</node>
	<node id="-470843" lat="60.3878222209" lon="5.84838888268">
		<tag k="bridge" v="yes" />
		<tag k="layer" v="1" />
		<tag k="name" v="Verka" />
		<tag k="ssr:stedsnr" v="958240" />
	</node>
	<node id="-470842" lat="60.3773222235" lon="5.65305833064">
		<tag k="bridge" v="yes" />
		<tag k="layer" v="1" />
		<tag k="name" v="Nordbø" />
		<tag k="ssr:stedsnr" v="958237" />
	</node>
	<node id="-470841" lat="60.3689472204" lon="5.82659167264">
		<tag k="name" v="Tørrnakken" />
		<tag k="place" v="locality" />
		<tag k="ssr:stedsnr" v="950963" />
	</node>
	<node id="-470840" lat="60.4402722217" lon="5.83888055071">
		<tag k="name" v="Storemyrbekken" />
		<tag k="ssr:stedsnr" v="941977" />
		<tag k="waterway" v="stream" />
	</node>
	<node id="-470839" lat="60.4371333364" lon="5.82980277728">
		<tag k="name" v="Ospelia" />
		<tag k="natural" v="slope" />
		<tag k="place" v="locality" />
		<tag k="ssr:stedsnr" v="941954" />
	</node>
	<node id="-470838" lat="60.4534888848" lon="5.88093055527">
		<tag k="name" v="Veståslia" />
		<tag k="natural" v="slope" />
		<tag k="place" v="locality" />
		<tag k="ssr:stedsnr" v="941941" />
	</node>
	<node id="-470837" lat="60.4185999977" lon="5.78234166464">
		<tag k="name" v="Totræna" />
		<tag k="place" v="farm" />
		<tag k="ssr:stedsnr" v="941474" />
	</node>
	<node id="-470836" lat="60.4301805529" lon="5.84256110779">
		<tag k="landuse" v="meadow" />
		<tag k="name" v="Vassenden" />
		<tag k="ssr:stedsnr" v="941448" />
	</node>
	<node id="-470835" lat="60.3950361081" lon="5.84502222254">
		<tag k="name" v="Tømmerskarshaugen" />
		<tag k="natural" v="hill" />
		<tag k="place" v="locality" />
		<tag k="ssr:stedsnr" v="941411" />
	</node>
	<node id="-470834" lat="60.4240083337" lon="5.83848055856">
		<tag k="name" v="Vardabrotet" />
		<tag k="natural" v="hill" />
		<tag k="place" v="locality" />
		<tag k="ssr:stedsnr" v="941353" />
	</node>
	<node id="-470833" lat="60.4191472233" lon="5.84758889343">
		<tag k="name" v="Storhoggene" />
		<tag k="natural" v="slope" />
		<tag k="place" v="locality" />
		<tag k="ssr:stedsnr" v="941239" />
	</node>
	<node id="-470832" lat="60.3893055585" lon="5.77451666545">
		<tag k="name" v="Haugane" />
		<tag k="natural" v="hill" />
		<tag k="place" v="locality" />
		<tag k="ssr:stedsnr" v="941208" />
	</node>
	<node id="-470831" lat="60.3802027738" lon="5.84054999365">
		<tag k="name" v="Liarosnova" />
		<tag k="natural" v="hill" />
		<tag k="place" v="locality" />
		<tag k="ssr:stedsnr" v="940527" />
	</node>
	<node id="-470830" lat="60.3869785397" lon="5.76741457502">
		<tag k="fixme" v="consider place=hamlet" />
		<tag k="name" v="Haga" />
		<tag k="place" v="farm" />
		<tag k="ssr:stedsnr" v="940156" />
	</node>
	<node id="-470829" lat="60.3958722204" lon="5.70121944823">
		<tag k="name" v="Storkleiva" />
		<tag k="natural" v="slope" />
		<tag k="place" v="locality" />
		<tag k="ssr:stedsnr" v="939987" />
	</node>
	<node id="-470828" lat="60.3959472236" lon="5.76513888881">
		<tag k="historic" v="shieling" />
		<tag k="name" v="Stølen" />
		<tag k="place" v="locality" />
		<tag k="ssr:stedsnr" v="939807" />
	</node>
	<node id="-470827" lat="60.4103194416" lon="5.78913056229">
		<tag k="historic" v="shieling" />
		<tag k="name" v="Kloppastølen" />
		<tag k="place" v="locality" />
		<tag k="ssr:stedsnr" v="939208" />
	</node>
	<node id="-470826" lat="60.295555559" lon="5.59283333988">
		<tag k="name" v="Rotveltedalen" />
		<tag k="natural" v="valley" />
		<tag k="place" v="locality" />
		<tag k="ssr:stedsnr" v="939640" />
	</node>
	<node id="-470825" lat="60.3597000024" lon="5.62176944769">
		<tag k="name" v="Storebrekken" />
		<tag k="natural" v="slope" />
		<tag k="place" v="locality" />
		<tag k="ssr:stedsnr" v="939635" />
	</node>
	<node id="-470824" lat="60.3514250013" lon="5.62202500031">
		<tag k="name" v="Lomahaugen" />
		<tag k="natural" v="hill" />
		<tag k="place" v="locality" />
		<tag k="ssr:stedsnr" v="939632" />
	</node>
	<node id="-470823" lat="60.3227944422" lon="5.62723334242">
		<tag k="fixme" v="multiple name tags, choose one and add the other to alt_name" />
		<tag k="name" v="Rolsvågen;Vågen" />
		<tag k="natural" v="bay" />
		<tag k="ssr:stedsnr" v="939623" />
	</node>
	<node id="-470821" lat="60.5020634105" lon="5.96062668884">
		<tag k="name" v="Nedre Gulltjørna" />
		<tag k="natural" v="water" />
		<tag k="ssr:stedsnr" v="917976" />
	</node>
	<node id="-470820" lat="60.3452138865" lon="5.86773888984">
		<tag k="name" v="Holmavatnet" />
		<tag k="natural" v="water" />
		<tag k="ssr:stedsnr" v="916652" />
		<tag k="water" v="lake" />
	</node>
	<node id="-470819" lat="60.3440617018" lon="5.91193770299">
		<tag k="name" v="Nedsta Botnavatnet" />
		<tag k="natural" v="water" />
		<tag k="ssr:stedsnr" v="916624" />
	</node>
	<node id="-470818" lat="60.4971749988" lon="5.92200556125">
		<tag k="name" v="Elvakrokane" />
		<tag k="place" v="locality" />
		<tag k="ssr:stedsnr" v="916338" />
	</node>
	<node id="-470817" lat="60.345478269" lon="5.68338854813">
		<tag k="alt_name" v="Djuvvik" />
		<tag k="fixme" v="consider place=hamlet" />
		<tag k="name" v="Djupviki" />
		<tag k="place" v="farm" />
		<tag k="ssr:stedsnr" v="916232" />
	</node>
	<node id="-470816" lat="60.3762035193" lon="5.69437386999">
		<tag k="fixme" v="consider place=hamlet" />
		<tag k="name" v="Nedre-Kvernes" />
		<tag k="place" v="farm" />
		<tag k="ssr:stedsnr" v="916155" />
	</node>
	<node id="-470815" lat="60.3748200009" lon="5.68645753237">
		<tag k="fixme" v="consider place=hamlet" />
		<tag k="name" v="Skar" />
		<tag k="place" v="farm" />
		<tag k="ssr:stedsnr" v="916154" />
	</node>
	<node id="-470814" lat="60.4156361107" lon="5.84040555522">
		<tag k="name" v="Florhaugen" />
		<tag k="natural" v="hill" />
		<tag k="place" v="locality" />
		<tag k="ssr:stedsnr" v="916095" />
	</node>
	<node id="-470813" lat="60.4190999998" lon="5.72468610828">
		<tag k="name" v="Bjørnåsen" />
		<tag k="place" v="farm" />
		<tag k="ssr:stedsnr" v="916089" />
	</node>
	<node id="-470812" lat="60.3422305519" lon="5.85669166815">
		<tag k="name" v="Grashaugen" />
		<tag k="natural" v="hill" />
		<tag k="place" v="locality" />
		<tag k="ssr:stedsnr" v="915559" />
	</node>
	<node id="-470811" lat="60.4000805553" lon="5.85032223035">
		<tag k="name" v="Svartabergslia" />
		<tag k="natural" v="slope" />
		<tag k="place" v="locality" />
		<tag k="ssr:stedsnr" v="915470" />
	</node>
	<node id="-470810" lat="60.4015305528" lon="5.87308055729">
		<tag k="fixme" v="consider natural=peak for the most distinct mountains in the district" />
		<tag k="name" v="Utløbottsfjellet" />
		<tag k="natural" v="hill" />
		<tag k="place" v="locality" />
		<tag k="ssr:stedsnr" v="915464" />
	</node>
	<node id="-470809" lat="60.4129166656" lon="5.91350278561">
		<tag k="historic" v="shieling" />
		<tag k="name" v="Svensdalssetret" />
		<tag k="place" v="locality" />
		<tag k="ssr:stedsnr" v="915424" />
	</node>
	<node id="-470808" lat="60.4600611151" lon="5.9308722154">
		<tag k="name" v="Sotabotnen" />
		<tag k="natural" v="valley" />
		<tag k="place" v="locality" />
		<tag k="ssr:stedsnr" v="915380" />
	</node>
	<node id="-470807" lat="60.4517916676" lon="5.94593055221">
		<tag k="name" v="Fangaskorgjelet" />
		<tag k="natural" v="valley" />
		<tag k="place" v="locality" />
		<tag k="ssr:stedsnr" v="915357" />
	</node>
	<node id="-470806" lat="60.3550916646" lon="5.83293888442">
		<tag k="name" v="Kikenosbotnen" />
		<tag k="natural" v="valley" />
		<tag k="place" v="locality" />
		<tag k="ssr:stedsnr" v="915175" />
	</node>
	<node id="-470805" lat="60.3644472241" lon="5.65502499447">
		<tag k="name" v="Liøyna" />
		<tag k="place" v="islet" />
		<tag k="ssr:stedsnr" v="915167" />
	</node>
	<node id="-470804" lat="60.3687750008" lon="5.72255832581">
		<tag k="name" v="Sætreviki" />
		<tag k="place" v="farm" />
		<tag k="ssr:stedsnr" v="915153" />
	</node>
	<node id="-470803" lat="60.3688666674" lon="5.71703888777">
		<tag k="name" v="Ospeviki" />
		<tag k="natural" v="bay" />
		<tag k="ssr:stedsnr" v="908053" />
	</node>
	<node id="-470802" lat="60.3690972221" lon="5.74011944699">
		<tag k="name" v="Kleppsviki" />
		<tag k="natural" v="bay" />
		<tag k="ssr:stedsnr" v="908051" />
	</node>
	<node id="-470801" lat="60.352999998" lon="5.74889999916">
		<tag k="name" v="Dyrhaugane" />
		<tag k="natural" v="hill" />
		<tag k="place" v="locality" />
		<tag k="ssr:stedsnr" v="908038" />
	</node>
	<node id="-470800" lat="60.3525611114" lon="5.72463333983">
		<tag k="name" v="Tøleitet" />
		<tag k="place" v="locality" />
		<tag k="ssr:stedsnr" v="908035" />
	</node>
	<node id="-470799" lat="60.3878250005" lon="5.8483916639">
		<tag k="name" v="Verkafossen" />
		<tag k="natural" v="waterfall" />
		<tag k="ssr:stedsnr" v="907425" />
	</node>
	<node id="-470798" lat="60.3482083296" lon="5.80674167455">
		<tag k="name" v="Kalvabotnen" />
		<tag k="natural" v="valley" />
		<tag k="place" v="locality" />
		<tag k="ssr:stedsnr" v="905954" />
	</node>
	<node id="-470797" lat="60.3374222188" lon="5.72712500181">
		<tag k="name" v="Austerdalane" />
		<tag k="natural" v="valley" />
		<tag k="place" v="locality" />
		<tag k="ssr:stedsnr" v="905029" />
	</node>
	<node id="-470796" lat="60.3507888912" lon="5.76974443633">
		<tag k="name" v="Bjørkesmettet" />
		<tag k="natural" v="hill" />
		<tag k="place" v="locality" />
		<tag k="ssr:stedsnr" v="905024" />
	</node>
	<node id="-470795" lat="60.3991499974" lon="5.8348916637">
		<tag k="name" v="Steingjelet" />
		<tag k="natural" v="gorge" />
		<tag k="ssr:stedsnr" v="880507" />
	</node>
	<node id="-470794" lat="60.4051499994" lon="5.8332555547">
		<tag k="name" v="Svartatjørnsbekken" />
		<tag k="ssr:stedsnr" v="880503" />
		<tag k="waterway" v="stream" />
	</node>
	<node id="-470793" lat="60.4067277738" lon="5.85205000262">
		<tag k="name" v="Toskahovgjelet" />
		<tag k="natural" v="gorge" />
		<tag k="ssr:stedsnr" v="880500" />
	</node>
	<node id="-470792" lat="60.4171666671" lon="5.80240834132">
		<tag k="name" v="Kjørslehaugen" />
		<tag k="natural" v="hill" />
		<tag k="place" v="locality" />
		<tag k="ssr:stedsnr" v="880484" />
	</node>
	<node id="-470791" lat="60.3826138901" lon="5.77524443701">
		<tag k="name" v="Kampaliane" />
		<tag k="natural" v="slope" />
		<tag k="place" v="locality" />
		<tag k="ssr:stedsnr" v="880316" />
	</node>
	<node id="-470790" lat="60.416836107" lon="5.82279444855">
		<tag k="name" v="Dalahaugen" />
		<tag k="natural" v="ridge" />
		<tag k="place" v="locality" />
		<tag k="ssr:stedsnr" v="880292" />
	</node>
	<node id="-470789" lat="60.380036107" lon="5.7747249922">
		<tag k="fixme" v="consider natural=peak for the most distinct mountains in the district" />
		<tag k="name" v="Kampen" />
		<tag k="natural" v="hill" />
		<tag k="ssr:stedsnr" v="880247" />
	</node>
	<node id="-470788" lat="60.3877888894" lon="5.7734500023">
		<tag k="name" v="Tømmerløypet" />
		<tag k="place" v="locality" />
		<tag k="ssr:stedsnr" v="880145" />
	</node>
	<node id="-470787" lat="60.3291583359" lon="5.61424443731">
		<tag k="highway" v="path" />
		<tag k="name" v="Bykleiva" />
		<tag k="ssr:stedsnr" v="879912" />
	</node>
	<node id="-470786" lat="60.3886805533" lon="5.71740000554">
		<tag k="name" v="Tranholmavågen" />
		<tag k="natural" v="bay" />
		<tag k="ssr:stedsnr" v="879761" />
	</node>
	<node id="-470785" lat="60.3920805528" lon="5.76562500051">
		<tag k="name" v="Nesodden" />
		<tag k="natural" v="cape" />
		<tag k="ssr:stedsnr" v="879759" />
	</node>
	<node id="-470784" lat="60.368255555" lon="5.64492499148">
		<tag k="name" v="Ytsta Trovika" />
		<tag k="natural" v="bay" />
		<tag k="ssr:stedsnr" v="879605" />
	</node>
	<node id="-470783" lat="60.3138694444" lon="5.60166111623">
		<tag k="name" v="Høgehaugen" />
		<tag k="natural" v="hill" />
		<tag k="place" v="locality" />
		<tag k="ssr:stedsnr" v="879571" />
	</node>
	<node id="-470782" lat="60.3597972246" lon="5.65550278343">
		<tag k="name" v="Ytstevågen" />
		<tag k="natural" v="bay" />
		<tag k="ssr:stedsnr" v="879567" />
	</node>
	<node id="-470781" lat="60.3693027736" lon="5.67432500017">
		<tag k="name" v="Husnovemyra" />
		<tag k="natural" v="wetland" />
		<tag k="ssr:stedsnr" v="879545" />
	</node>
	<node id="-470780" lat="60.4036527813" lon="5.76394444632">
		<tag k="name" v="Myra" />
		<tag k="place" v="farm" />
		<tag k="ssr:stedsnr" v="879249" />
	</node>
	<node id="-470779" lat="60.4102888911" lon="5.78671111822">
		<tag k="name" v="Gaupeskaret" />
		<tag k="natural" v="valley" />
		<tag k="place" v="locality" />
		<tag k="ssr:stedsnr" v="879190" />
	</node>
	<node id="-470778" lat="60.3740277812" lon="5.66352222062">
		<tag k="name" v="Skarsvågen" />
		<tag k="place" v="farm" />
		<tag k="ssr:stedsnr" v="878962" />
	</node>
	<node id="-470777" lat="60.3172388848" lon="5.62381388867">
		<tag k="name" v="Berget" />
		<tag k="place" v="farm" />
		<tag k="ssr:stedsnr" v="874825" />
	</node>
	<node id="-470776" lat="60.3601777763" lon="5.6557444486">
		<tag k="name" v="Ytstevågen" />
		<tag k="natural" v="bay" />
		<tag k="ssr:stedsnr" v="874312" />
	</node>
	<node id="-470775" lat="60.3680750019" lon="5.67977500283">
		<tag k="name" v="Oldervik" />
		<tag k="place" v="farm" />
		<tag k="ssr:stedsnr" v="874307" />
	</node>
	<node id="-470774" lat="60.3342527774" lon="5.63061110861">
		<tag k="name" v="Insteflua" />
		<tag k="natural" v="shoal" />
		<tag k="place" v="locality" />
		<tag k="ssr:stedsnr" v="874178" />
	</node>
	<node id="-470773" lat="60.3835861137" lon="5.84665556155">
		<tag k="fixme" v="consider natural=peak for the most distinct mountains in the district" />
		<tag k="name" v="Bergsenden" />
		<tag k="natural" v="hill" />
		<tag k="place" v="locality" />
		<tag k="ssr:stedsnr" v="855733" />
	</node>
	<node id="-470772" lat="60.4434277756" lon="5.86616111714">
		<tag k="name" v="Røyrbotnen" />
		<tag k="place" v="farm" />
		<tag k="ssr:stedsnr" v="855376" />
	</node>
	<node id="-470771" lat="60.4778055583" lon="5.9499833285">
		<tag k="fixme" v="consider natural=peak for the most distinct mountains in the district" />
		<tag k="name" v="Trollskarnuten" />
		<tag k="natural" v="hill" />
		<tag k="place" v="locality" />
		<tag k="ssr:stedsnr" v="855363" />
	</node>
	<node id="-470770" lat="60.4635527819" lon="5.90584721476">
		<tag k="name" v="Vedlia" />
		<tag k="natural" v="slope" />
		<tag k="place" v="locality" />
		<tag k="ssr:stedsnr" v="855336" />
	</node>
	<node id="-470769" lat="60.3142777787" lon="5.62195276972">
		<tag k="name" v="Rinden" />
		<tag k="place" v="farm" />
		<tag k="ssr:stedsnr" v="855250" />
	</node>
	<node id="-470768" lat="60.3273388844" lon="5.67966944306">
		<tag k="name" v="Botnavatnet" />
		<tag k="natural" v="water" />
		<tag k="ssr:stedsnr" v="855229" />
	</node>
	<node id="-470767" lat="60.3245555533" lon="5.61413610796">
		<tag k="name" v="Nymark" />
		<tag k="place" v="farm" />
		<tag k="ssr:stedsnr" v="855224" />
	</node>
	<node id="-470766" lat="60.3459638852" lon="5.69105555249">
		<tag k="alt_name" v="Øvstebø" />
		<tag k="name" v="Øpstebø" />
		<tag k="old_name" v="Øystebø" />
		<tag k="place" v="farm" />
		<tag k="ssr:stedsnr" v="855210" />
	</node>
	<node id="-470765" lat="60.3502579835" lon="5.68388103616">
		<tag k="name" v="Sagi" />
		<tag k="place" v="farm" />
		<tag k="ssr:stedsnr" v="855201" />
	</node>
	<node id="-470764" lat="60.3510125801" lon="5.68563377729">
		<tag k="fixme" v="consider place=hamlet" />
		<tag k="name" v="Sandvika" />
		<tag k="place" v="farm" />
		<tag k="ssr:stedsnr" v="855200" />
	</node>
	<node id="-470763" lat="60.3604840584" lon="5.70581473316">
		<tag k="name" v="Kampatjørna" />
		<tag k="natural" v="water" />
		<tag k="ssr:stedsnr" v="855169" />
	</node>
	<node id="-470762" lat="60.3755579214" lon="5.7838589832">
		<tag k="fixme" v="consider place=hamlet" />
		<tag k="name" v="Gåsdalen" />
		<tag k="place" v="farm" />
		<tag k="ssr:stedsnr" v="855156" />
	</node>
	<node id="-470761" lat="60.4000777761" lon="5.79077777406">
		<tag k="name" v="Austbø" />
		<tag k="place" v="farm" />
		<tag k="ssr:stedsnr" v="855111" />
	</node>
	<node id="-470760" lat="60.3956759489" lon="5.68950135273">
		<tag k="name" v="Instatjørna" />
		<tag k="natural" v="water" />
		<tag k="ssr:stedsnr" v="855107" />
	</node>
	<node id="-470759" lat="60.3988388852" lon="5.62098888767">
		<tag k="fixme" v="multiple name tags, choose one and add the other to alt_name; consider natural=peak for the most distinct mountains in the district" />
		<tag k="name" v="Kråfjellet;Mannaleitnipa" />
		<tag k="natural" v="hill" />
		<tag k="place" v="locality" />
		<tag k="ssr:stedsnr" v="855105" />
	</node>
	<node id="-470758" lat="60.414955556" lon="5.82505833811">
		<tag k="fixme" v="consider natural=peak for the most distinct mountains in the district" />
		<tag k="name" v="Svensdalsåsen" />
		<tag k="natural" v="hill" />
		<tag k="place" v="locality" />
		<tag k="ssr:stedsnr" v="855094" />
	</node>
	<node id="-470757" lat="60.4051916665" lon="5.68912499544">
		<tag k="fixme" v="consider natural=peak for the most distinct mountains in the district" />
		<tag k="name" v="Hisdalsfjellet" />
		<tag k="natural" v="hill" />
		<tag k="place" v="locality" />
		<tag k="ssr:stedsnr" v="855084" />
	</node>
	<node id="-470756" lat="60.4347235909" lon="5.73288595636">
		<tag k="name" v="Langatjørna" />
		<tag k="natural" v="water" />
		<tag k="ssr:stedsnr" v="855040" />
	</node>
	<node id="-470755" lat="60.4328027776" lon="5.74294443832">
		<tag k="name" v="Tronivatnet" />
		<tag k="natural" v="water" />
		<tag k="ssr:stedsnr" v="855039" />
		<tag k="water" v="lake" />
	</node>
	<node id="-470754" lat="60.3509972236" lon="5.71075833017">
		<tag k="name" v="Saualego" />
		<tag k="place" v="locality" />
		<tag k="ssr:stedsnr" v="848041" />
	</node>
	<node id="-470753" lat="60.3509166694" lon="5.71298888604">
		<tag k="name" v="Fluheiane" />
		<tag k="natural" v="hill" />
		<tag k="place" v="locality" />
		<tag k="ssr:stedsnr" v="848036" />
	</node>
	<node id="-470752" lat="60.3503222177" lon="5.72432499238">
		<tag k="name" v="Utløhaugen" />
		<tag k="natural" v="hill" />
		<tag k="place" v="locality" />
		<tag k="ssr:stedsnr" v="848029" />
	</node>
	<node id="-470750" lat="60.337967051" lon="5.68517283792">
		<tag k="name" v="Tjørndalstjørna" />
		<tag k="natural" v="water" />
		<tag k="ssr:stedsnr" v="844125" />
	</node>
	<node id="-470749" lat="60.3420527812" lon="5.68960277911">
		<tag k="name" v="Borddalstjørna" />
		<tag k="natural" v="water" />
		<tag k="ssr:stedsnr" v="844086" />
	</node>
	<node id="-470748" lat="60.3563805523" lon="5.77316943896">
		<tag k="name" v="Dunsengi" />
		<tag k="place" v="isolated_dwelling" />
		<tag k="ssr:stedsnr" v="844023" />
	</node>
	<node id="-470747" lat="60.3306694403" lon="5.68816111862">
		<tag k="bridge" v="yes" />
		<tag k="layer" v="1" />
		<tag k="name" v="Sævild" />
		<tag k="ssr:stedsnr" v="836190" />
	</node>
	<node id="-470746" lat="60.4480972238" lon="5.86221389165">
		<tag k="bridge" v="yes" />
		<tag k="layer" v="1" />
		<tag k="name" v="Tverrelva" />
		<tag k="ssr:stedsnr" v="836189" />
	</node>
	<node id="-470745" lat="60.3793805566" lon="5.78411666275">
		<tag k="layer" v="-1" />
		<tag k="name" v="Hagaås" />
		<tag k="ssr:stedsnr" v="833483" />
		<tag k="tunnel" v="yes" />
	</node>
	<node id="-470744" lat="60.3957388853" lon="5.69656944939">
		<tag k="layer" v="-1" />
		<tag k="name" v="Raunekleiv" />
		<tag k="ssr:stedsnr" v="833382" />
		<tag k="tunnel" v="yes" />
	</node>
	<node id="-470743" lat="60.360794445" lon="5.88151666738">
		<tag k="name" v="Plytten" />
		<tag k="natural" v="hill" />
		<tag k="place" v="locality" />
		<tag k="ssr:stedsnr" v="829966" />
	</node>
	<node id="-470742" lat="60.3630861091" lon="5.85675278424">
		<tag k="name" v="Moltemyrkultane" />
		<tag k="natural" v="hill" />
		<tag k="place" v="locality" />
		<tag k="ssr:stedsnr" v="829963" />
	</node>
	<node id="-470741" lat="60.3509916653" lon="5.88042222755">
		<tag k="fixme" v="consider natural=peak for the most distinct mountains in the district" />
		<tag k="name" v="Storagrøet" />
		<tag k="natural" v="hill" />
		<tag k="place" v="locality" />
		<tag k="ssr:stedsnr" v="829961" />
	</node>
	<node id="-470740" lat="60.4407833366" lon="5.84541666931">
		<tag k="historic" v="shieling" />
		<tag k="name" v="Storemyrstølen" />
		<tag k="place" v="locality" />
		<tag k="ssr:stedsnr" v="820981" />
	</node>
	<node id="-470739" lat="60.4380250038" lon="5.84327221794">
		<tag k="fixme" v="consider natural=peak for the most distinct mountains in the district" />
		<tag k="name" v="Storåsen" />
		<tag k="natural" v="hill" />
		<tag k="place" v="locality" />
		<tag k="ssr:stedsnr" v="820982" />
	</node>
	<node id="-470738" lat="60.4539194468" lon="5.88577777076">
		<tag k="name" v="Kvernaelva" />
		<tag k="ssr:stedsnr" v="820952" />
		<tag k="waterway" v="river" />
	</node>
	<node id="-470737" lat="60.4500222193" lon="5.87394167184">
		<tag k="name" v="Kriken" />
		<tag k="natural" v="slope" />
		<tag k="place" v="locality" />
		<tag k="ssr:stedsnr" v="820552" />
	</node>
	<node id="-470736" lat="60.4492777791" lon="5.87237778285">
		<tag k="name" v="Gavlen" />
		<tag k="place" v="locality" />
		<tag k="ssr:stedsnr" v="820550" />
	</node>
	<node id="-470735" lat="60.4219500015" lon="5.81553611476">
		<tag k="name" v="Ytstafisket" />
		<tag k="place" v="locality" />
		<tag k="ssr:stedsnr" v="819498" />
	</node>
	<node id="-470734" lat="60.4332305548" lon="5.80843333863">
		<tag k="name" v="Setrafeta" />
		<tag k="place" v="locality" />
		<tag k="ssr:stedsnr" v="819465" />
	</node>
	<node id="-470733" lat="60.4271138931" lon="5.78984166307">
		<tag k="historic" v="shieling" />
		<tag k="name" v="Tosetret" />
		<tag k="place" v="locality" />
		<tag k="ssr:stedsnr" v="819463" />
	</node>
	<node id="-470732" lat="60.4300666634" lon="5.78442500003">
		<tag k="historic" v="shieling" />
		<tag k="name" v="Steinslandssetret" />
		<tag k="place" v="locality" />
		<tag k="ssr:stedsnr" v="819460" />
	</node>
	<node id="-470731" lat="60.4036222263" lon="5.90987778091">
		<tag k="name" v="Kråkedalane" />
		<tag k="natural" v="valley" />
		<tag k="place" v="locality" />
		<tag k="ssr:stedsnr" v="819458" />
	</node>
	<node id="-470730" lat="60.3947305551" lon="5.86900000495">
		<tag k="name" v="Grøna Lia" />
		<tag k="natural" v="slope" />
		<tag k="place" v="locality" />
		<tag k="ssr:stedsnr" v="819426" />
	</node>
	<node id="-470729" lat="60.4200527744" lon="5.84046667387">
		<tag k="name" v="Heiabruna" />
		<tag k="natural" v="hill" />
		<tag k="place" v="locality" />
		<tag k="ssr:stedsnr" v="819400" />
	</node>
	<node id="-470728" lat="60.4237999967" lon="5.87451665835">
		<tag k="fixme" v="consider natural=peak for the most distinct mountains in the district" />
		<tag k="name" v="Skarsrusta" />
		<tag k="natural" v="hill" />
		<tag k="place" v="locality" />
		<tag k="ssr:stedsnr" v="819393" />
	</node>
	<node id="-470727" lat="60.4196499962" lon="5.75666666018">
		<tag k="name" v="Hildersmark" />
		<tag k="place" v="farm" />
		<tag k="ssr:stedsnr" v="819311" />
	</node>
	<node id="-470726" lat="60.3740361133" lon="5.75288055882">
		<tag k="name" v="Nordneset" />
		<tag k="natural" v="cape" />
		<tag k="ssr:stedsnr" v="819267" />
	</node>
	<node id="-470725" lat="60.3879944427" lon="5.5906944427">
		<tag k="fixme" v="consider natural=peak for the most distinct mountains in the district" />
		<tag k="name" v="Rundamanen" />
		<tag k="natural" v="hill" />
		<tag k="place" v="locality" />
		<tag k="ssr:stedsnr" v="818999" />
	</node>
	<node id="-470724" lat="60.3344805545" lon="5.62796943606">
		<tag k="name" v="Furneset" />
		<tag k="natural" v="cape" />
		<tag k="ssr:stedsnr" v="818921" />
	</node>
	<node id="-470723" lat="60.3385861088" lon="5.61493333128">
		<tag k="name" v="Øykjadalen" />
		<tag k="natural" v="valley" />
		<tag k="place" v="locality" />
		<tag k="ssr:stedsnr" v="818918" />
	</node>
	<node id="-470722" lat="60.4047416712" lon="5.67526944705">
		<tag k="historic" v="shieling" />
		<tag k="name" v="Huldastølen" />
		<tag k="place" v="locality" />
		<tag k="ssr:stedsnr" v="818889" />
	</node>
	<node id="-470721" lat="60.3956861112" lon="5.77304722968">
		<tag k="name" v="Himmelhaugen" />
		<tag k="natural" v="hill" />
		<tag k="place" v="locality" />
		<tag k="ssr:stedsnr" v="818825" />
	</node>
	<node id="-470720" lat="60.3999277794" lon="5.76312500682">
		<tag k="name" v="Kjerikakulten" />
		<tag k="natural" v="hill" />
		<tag k="place" v="locality" />
		<tag k="ssr:stedsnr" v="818261" />
	</node>
	<node id="-470719" lat="60.3975000025" lon="5.77353888533">
		<tag k="name" v="Bolstadhaugen" />
		<tag k="natural" v="hill" />
		<tag k="place" v="locality" />
		<tag k="ssr:stedsnr" v="818260" />
	</node>
	<node id="-470718" lat="60.4080245486" lon="5.78851905193">
		<tag k="fixme" v="consider place=hamlet" />
		<tag k="name" v="Tveit" />
		<tag k="place" v="farm" />
		<tag k="ssr:stedsnr" v="818200" />
	</node>
	<node id="-470717" lat="60.3470500038" lon="5.68887777154">
		<tag k="name" v="Lundebø" />
		<tag k="place" v="farm" />
		<tag k="ssr:stedsnr" v="813275" />
	</node>
	<node id="-470716" lat="60.380634191" lon="5.65459492933">
		<tag k="name" v="Nordbøvatnet" />
		<tag k="natural" v="water" />
		<tag k="ssr:stedsnr" v="795186" />
	</node>
	<node id="-470715" lat="60.3786248769" lon="5.68429293842">
		<tag k="name" v="Skarsvatnet" />
		<tag k="natural" v="water" />
		<tag k="ssr:stedsnr" v="795184" />
	</node>
	<node id="-470714" lat="60.3881750017" lon="5.91703888574">
		<tag k="name" v="Eikedalsvatnet" />
		<tag k="natural" v="water" />
		<tag k="ssr:stedsnr" v="794737" />
		<tag k="water" v="lake" />
	</node>
	<node id="-470713" lat="60.4057777745" lon="5.85500277532">
		<tag k="name" v="Utløbotnen" />
		<tag k="natural" v="valley" />
		<tag k="place" v="locality" />
		<tag k="ssr:stedsnr" v="794457" />
	</node>
	<node id="-470712" lat="60.4190055556" lon="5.90211388347">
		<tag k="fixme" v="consider natural=peak for the most distinct mountains in the district" />
		<tag k="name" v="Grøet" />
		<tag k="natural" v="hill" />
		<tag k="place" v="locality" />
		<tag k="ssr:stedsnr" v="794438" />
	</node>
	<node id="-470711" lat="60.4379861153" lon="5.8588555552">
		<tag k="name" v="Klentangliane" />
		<tag k="natural" v="slope" />
		<tag k="place" v="locality" />
		<tag k="ssr:stedsnr" v="794420" />
	</node>
	<node id="-470710" lat="60.4421764923" lon="5.93711968379">
		<tag k="name" v="Røyrfjellstjørna" />
		<tag k="natural" v="water" />
		<tag k="ssr:stedsnr" v="794415" />
	</node>
	<node id="-470709" lat="60.4297361149" lon="5.85133332411">
		<tag k="name" v="Tøene" />
		<tag k="place" v="farm" />
		<tag k="ssr:stedsnr" v="794405" />
	</node>
	<node id="-470708" lat="60.4588750043" lon="5.91179444891">
		<tag k="name" v="Fossagjelet" />
		<tag k="natural" v="gorge" />
		<tag k="ssr:stedsnr" v="794374" />
	</node>
	<node id="-470707" lat="60.4571583325" lon="5.87483610556">
		<tag k="name" v="Ytstebekken" />
		<tag k="ssr:stedsnr" v="794373" />
		<tag k="waterway" v="stream" />
	</node>
	<node id="-470706" lat="60.4642250028" lon="5.91940556142">
		<tag k="name" v="Botnane" />
		<tag k="natural" v="valley" />
		<tag k="place" v="locality" />
		<tag k="ssr:stedsnr" v="794325" />
	</node>
	<node id="-470705" lat="60.4975361096" lon="5.92013054938">
		<tag k="name" v="Gjetlo" />
		<tag k="natural" v="hill" />
		<tag k="place" v="locality" />
		<tag k="ssr:stedsnr" v="794318" />
	</node>
	<node id="-470704" lat="60.4667305519" lon="5.88998332634">
		<tag k="name" v="Kloppabekken" />
		<tag k="ssr:stedsnr" v="794319" />
		<tag k="waterway" v="stream" />
	</node>
	<node id="-470703" lat="60.4913083378" lon="5.88770277718">
		<tag k="name" v="Herfangsgjelet" />
		<tag k="natural" v="valley" />
		<tag k="place" v="locality" />
		<tag k="ssr:stedsnr" v="794317" />
	</node>
	<node id="-470702" lat="60.4910111102" lon="5.89374167502">
		<tag k="name" v="Vestelva" />
		<tag k="ssr:stedsnr" v="794315" />
		<tag k="waterway" v="stream" />
	</node>
	<node id="-470701" lat="60.3454222228" lon="5.64205277184">
		<tag k="name" v="Sagi" />
		<tag k="place" v="farm" />
		<tag k="ssr:stedsnr" v="794204" />
	</node>
	<node id="-470700" lat="60.3505857102" lon="5.81633870361">
		<tag k="name" v="Kikedalsvatnet" />
		<tag k="natural" v="water" />
		<tag k="ssr:stedsnr" v="794205" />
	</node>
	<node id="-470699" lat="60.3338888848" lon="5.70479723166">
		<tag k="fixme" v="consider natural=peak for the most distinct mountains in the district" />
		<tag k="name" v="Fløyen" />
		<tag k="natural" v="hill" />
		<tag k="place" v="locality" />
		<tag k="ssr:stedsnr" v="794198" />
	</node>
	<node id="-470698" lat="60.3365555546" lon="5.76553611857">
		<tag k="fixme" v="consider natural=peak for the most distinct mountains in the district" />
		<tag k="name" v="Burlifjellet" />
		<tag k="natural" v="hill" />
		<tag k="place" v="locality" />
		<tag k="ssr:stedsnr" v="794196" />
	</node>
	<node id="-470697" lat="60.3504572912" lon="5.63650817198">
		<tag k="name" v="Sagavatnet" />
		<tag k="natural" v="water" />
		<tag k="ssr:stedsnr" v="794189" />
	</node>
	<node id="-470696" lat="60.2861632734" lon="5.62616396805">
		<tag k="bay" v="fjord" />
		<tag k="name" v="Samnangerfjorden" />
		<tag k="natural" v="bay" />
		<tag k="ssr:stedsnr" v="794176" />
	</node>
	<node id="-470695" lat="60.3585194459" lon="5.80514999691">
		<tag k="name" v="Haugselva" />
		<tag k="ssr:stedsnr" v="794175" />
		<tag k="waterway" v="stream" />
	</node>
	<node id="-470694" lat="60.3586249979" lon="5.6407138868">
		<tag k="fixme" v="consider natural=peak for the most distinct mountains in the district" />
		<tag k="name" v="Store Sundhaugen" />
		<tag k="natural" v="hill" />
		<tag k="place" v="locality" />
		<tag k="ssr:stedsnr" v="794168" />
	</node>
	<node id="-470693" lat="60.3858805553" lon="5.8376638803">
		<tag k="name" v="Frølandselva" />
		<tag k="ssr:stedsnr" v="794134" />
		<tag k="waterway" v="river" />
	</node>
	<node id="-470692" lat="60.3921055533" lon="5.71431110853">
		<tag k="alt_name" v="Sørvika" />
		<tag k="name" v="Søvik" />
		<tag k="place" v="farm" />
		<tag k="ssr:stedsnr" v="794132" />
	</node>
	<node id="-470691" lat="60.3923749961" lon="5.74137500419">
		<tag k="name" v="Haukanesodden" />
		<tag k="natural" v="cape" />
		<tag k="ssr:stedsnr" v="794129" />
	</node>
	<node id="-470690" lat="60.4030194418" lon="5.84199722571">
		<tag k="name" v="Børdalen" />
		<tag k="natural" v="valley" />
		<tag k="place" v="locality" />
		<tag k="ssr:stedsnr" v="794115" />
	</node>
	<node id="-470689" lat="60.4106000001" lon="5.81042500661">
		<tag k="name" v="Svensdalen" />
		<tag k="natural" v="valley" />
		<tag k="place" v="locality" />
		<tag k="ssr:stedsnr" v="794096" />
	</node>
	<node id="-470688" lat="60.4126349818" lon="5.83437909153">
		<tag k="name" v="Høysetetjørna" />
		<tag k="natural" v="water" />
		<tag k="ssr:stedsnr" v="794095" />
	</node>
	<node id="-470687" lat="60.4136694458" lon="5.73205278027">
		<tag k="fixme" v="consider place=hamlet" />
		<tag k="name" v="Nordbygda" />
		<tag k="place" v="village" />
		<tag k="ssr:stedsnr" v="794074" />
	</node>
	<node id="-470686" lat="60.4231333305" lon="5.83011943843">
		<tag k="name" v="Høysetelia" />
		<tag k="natural" v="slope" />
		<tag k="place" v="locality" />
		<tag k="ssr:stedsnr" v="794071" />
	</node>
	<node id="-470685" lat="60.4270138861" lon="5.7430916662">
		<tag k="fixme" v="consider natural=peak for the most distinct mountains in the district" />
		<tag k="name" v="Høgåsen" />
		<tag k="natural" v="hill" />
		<tag k="place" v="locality" />
		<tag k="ssr:stedsnr" v="794062" />
	</node>
	<node id="-470684" lat="60.4228527738" lon="5.76473333339">
		<tag k="fixme" v="consider natural=peak for the most distinct mountains in the district" />
		<tag k="name" v="Gjerdssåta" />
		<tag k="natural" v="hill" />
		<tag k="place" v="locality" />
		<tag k="ssr:stedsnr" v="794058" />
	</node>
	<node id="-470683" lat="60.4286411341" lon="5.69968243691">
		<tag k="name" v="Raudvatnet" />
		<tag k="natural" v="water" />
		<tag k="ssr:stedsnr" v="794052" />
	</node>
	<node id="-470682" lat="60.4348527766" lon="5.81472777869">
		<tag k="name" v="Dyrhovden" />
		<tag k="place" v="farm" />
		<tag k="ssr:stedsnr" v="794041" />
	</node>
	<node id="-470681" lat="60.4402749976" lon="5.73210832743">
		<tag k="fixme" v="consider natural=peak for the most distinct mountains in the district" />
		<tag k="name" v="Geitanipa" />
		<tag k="natural" v="hill" />
		<tag k="place" v="locality" />
		<tag k="ssr:stedsnr" v="794039" />
	</node>
	<node id="-470680" lat="60.361319441" lon="5.71871111752">
		<tag k="name" v="Rabbane" />
		<tag k="natural" v="hill" />
		<tag k="place" v="locality" />
		<tag k="ssr:stedsnr" v="787051" />
	</node>
	<node id="-470679" lat="60.3565138911" lon="5.72570833877">
		<tag k="name" v="Åsabrekkena" />
		<tag k="natural" v="slope" />
		<tag k="place" v="locality" />
		<tag k="ssr:stedsnr" v="787031" />
	</node>
	<node id="-470678" lat="60.3437305591" lon="5.78799444807">
		<tag k="name" v="Spongatjørni" />
		<tag k="natural" v="water" />
		<tag k="ssr:stedsnr" v="783056" />
	</node>
	<node id="-470677" lat="60.3501222206" lon="5.80470277835">
		<tag k="name" v="Setrauri" />
		<tag k="natural" v="scree" />
		<tag k="ssr:stedsnr" v="783014" />
	</node>
	<node id="-470676" lat="60.3606222184" lon="5.63263889346">
		<tag k="bridge" v="yes" />
		<tag k="layer" v="1" />
		<tag k="name" v="Sagelva" />
		<tag k="ssr:stedsnr" v="775215" />
	</node>
	<node id="-470675" lat="60.3928361154" lon="5.7665999918">
		<tag k="bridge" v="yes" />
		<tag k="layer" v="1" />
		<tag k="name" v="Nesodden" />
		<tag k="ssr:stedsnr" v="775208" />
	</node>
	<node id="-470674" lat="60.4247388858" lon="5.82344721941">
		<tag k="bridge" v="yes" />
		<tag k="layer" v="1" />
		<tag k="name" v="Fiske" />
		<tag k="ssr:stedsnr" v="775206" />
	</node>
	<node id="-470673" lat="60.3918333345" lon="5.76917221435">
		<tag k="bridge" v="yes" />
		<tag k="layer" v="1" />
		<tag k="name" v="Hagaåsen" />
		<tag k="ssr:stedsnr" v="775202" />
	</node>
	<node id="-470672" lat="60.3683055514" lon="5.84300277494">
		<tag k="name" v="Dyrvasslii" />
		<tag k="natural" v="slope" />
		<tag k="place" v="locality" />
		<tag k="ssr:stedsnr" v="768961" />
	</node>
	<node id="-470671" lat="60.4411583353" lon="5.85605832609">
		<tag k="name" v="Rotavikneset" />
		<tag k="natural" v="cape" />
		<tag k="ssr:stedsnr" v="759973" />
	</node>
	<node id="-470670" lat="60.438566668" lon="5.90523611985">
		<tag k="name" v="Kvanndalsmarka" />
		<tag k="place" v="locality" />
		<tag k="ssr:stedsnr" v="759714" />
	</node>
	<node id="-470669" lat="60.3844527768" lon="5.89549444632">
		<tag k="name" v="Eikedalen" />
		<tag k="natural" v="valley" />
		<tag k="place" v="locality" />
		<tag k="ssr:stedsnr" v="759610" />
	</node>
	<node id="-470668" lat="60.4280888901" lon="5.84302776939">
		<tag k="name" v="Vårsvoa" />
		<tag k="natural" v="slope" />
		<tag k="place" v="locality" />
		<tag k="ssr:stedsnr" v="759405" />
	</node>
	<node id="-470667" lat="60.4163111074" lon="5.83003888368">
		<tag k="name" v="Smogaholene" />
		<tag k="natural" v="valley" />
		<tag k="place" v="locality" />
		<tag k="ssr:stedsnr" v="759278" />
	</node>
	<node id="-470666" lat="60.4238333304" lon="5.90766389454">
		<tag k="name" v="Grøbotnen" />
		<tag k="natural" v="valley" />
		<tag k="place" v="locality" />
		<tag k="ssr:stedsnr" v="759120" />
	</node>
	<node id="-470665" lat="60.4050555521" lon="5.82897223119">
		<tag k="name" v="Dyrhaugane" />
		<tag k="natural" v="hill" />
		<tag k="place" v="locality" />
		<tag k="ssr:stedsnr" v="758538" />
	</node>
	<node id="-470664" lat="60.3834250014" lon="5.60390554958">
		<tag k="name" v="Maribrautene" />
		<tag k="natural" v="slope" />
		<tag k="place" v="locality" />
		<tag k="ssr:stedsnr" v="757981" />
	</node>
	<node id="-470663" lat="60.3744555585" lon="5.66203055306">
		<tag k="name" v="Nordbøfeta" />
		<tag k="place" v="locality" />
		<tag k="ssr:stedsnr" v="757970" />
	</node>
	<node id="-470662" lat="60.3968583317" lon="5.68044167569">
		<tag k="name" v="Hisdalen" />
		<tag k="natural" v="valley" />
		<tag k="place" v="locality" />
		<tag k="ssr:stedsnr" v="757878" />
	</node>
	<node id="-470661" lat="60.3959472236" lon="5.76513888881">
		<tag k="historic" v="shieling" />
		<tag k="name" v="Stølen" />
		<tag k="place" v="locality" />
		<tag k="ssr:stedsnr" v="757785" />
	</node>
	<node id="-470660" lat="60.3531722241" lon="5.64303054936">
		<tag k="name" v="Askevika" />
		<tag k="natural" v="bay" />
		<tag k="ssr:stedsnr" v="757598" />
	</node>
	<node id="-470659" lat="60.3649638935" lon="5.7015750085">
		<tag k="name" v="Berrhaug" />
		<tag k="natural" v="hill" />
		<tag k="place" v="locality" />
		<tag k="ssr:stedsnr" v="757581" />
	</node>
	<node id="-470658" lat="60.3604888844" lon="5.67444721943">
		<tag k="name" v="Liasjøen" />
		<tag k="natural" v="beach" />
		<tag k="place" v="locality" />
		<tag k="ssr:stedsnr" v="757577" />
	</node>
	<node id="-470657" lat="60.4009194481" lon="5.77434444443">
		<tag k="name" v="Storemyra" />
		<tag k="natural" v="valley" />
		<tag k="place" v="locality" />
		<tag k="ssr:stedsnr" v="757242" />
	</node>
	<node id="-470656" lat="60.3996972193" lon="5.73674443875">
		<tag k="name" v="Myrvang" />
		<tag k="place" v="farm" />
		<tag k="ssr:stedsnr" v="752319" />
	</node>
	<node id="-470655" lat="60.3315194454" lon="5.65545277332">
		<tag k="name" v="Haugolavika" />
		<tag k="natural" v="bay" />
		<tag k="ssr:stedsnr" v="752281" />
	</node>
	<node id="-470654" lat="60.3374749988" lon="5.63214444748">
		<tag k="name" v="Hattavika" />
		<tag k="natural" v="bay" />
		<tag k="ssr:stedsnr" v="752279" />
	</node>
	<node id="-470653" lat="60.345805558" lon="5.85235555266">
		<tag k="name" v="Ramnagjelet" />
		<tag k="natural" v="valley" />
		<tag k="place" v="locality" />
		<tag k="ssr:stedsnr" v="734658" />
	</node>
	<node id="-470652" lat="60.4989416677" lon="5.91456943976">
		<tag k="name" v="Heimsta Hestagjelet" />
		<tag k="natural" v="valley" />
		<tag k="place" v="locality" />
		<tag k="ssr:stedsnr" v="734377" />
	</node>
	<node id="-470651" lat="60.4859750007" lon="5.89214721364">
		<tag k="name" v="Glupagjelet" />
		<tag k="natural" v="valley" />
		<tag k="place" v="locality" />
		<tag k="ssr:stedsnr" v="734359" />
	</node>
	<node id="-470650" lat="60.3735111115" lon="5.6485500083">
		<tag k="name" v="Træsfjæra" />
		<tag k="natural" v="bay" />
		<tag k="ssr:stedsnr" v="734165" />
	</node>
	<node id="-470649" lat="60.3765153716" lon="5.66343975791">
		<tag k="fixme" v="consider place=hamlet" />
		<tag k="name" v="Skjeljåna" />
		<tag k="place" v="farm" />
		<tag k="ssr:stedsnr" v="734162" />
	</node>
	<node id="-470648" lat="60.3995916703" lon="5.80075000514">
		<tag k="name" v="Bjørndalen" />
		<tag k="natural" v="valley" />
		<tag k="place" v="locality" />
		<tag k="ssr:stedsnr" v="734120" />
	</node>
	<node id="-470647" lat="60.402613887" lon="5.75609722881">
		<tag k="name" v="Slåtta" />
		<tag k="place" v="farm" />
		<tag k="ssr:stedsnr" v="734117" />
	</node>
	<node id="-470646" lat="60.3796555546" lon="5.90026943609">
		<tag k="name" v="Rabalhei" />
		<tag k="natural" v="hill" />
		<tag k="place" v="locality" />
		<tag k="ssr:stedsnr" v="733671" />
	</node>
	<node id="-470645" lat="60.3625583349" lon="5.85792778365">
		<tag k="fixme" v="consider natural=peak for the most distinct mountains in the district" />
		<tag k="name" v="Grøet" />
		<tag k="natural" v="hill" />
		<tag k="place" v="locality" />
		<tag k="ssr:stedsnr" v="733632" />
	</node>
	<node id="-470644" lat="60.4243416677" lon="5.88916388013">
		<tag k="name" v="Middagsskaret" />
		<tag k="natural" v="valley" />
		<tag k="place" v="locality" />
		<tag k="ssr:stedsnr" v="733394" />
	</node>
	<node id="-470643" lat="60.4529305521" lon="5.85342500122">
		<tag k="name" v="Tverrelva" />
		<tag k="ssr:stedsnr" v="733373" />
		<tag k="waterway" v="river" />
	</node>
	<node id="-470642" lat="60.459403068" lon="5.94598781316">
		<tag k="name" v="Insta Sotabottsvatnet" />
		<tag k="natural" v="water" />
		<tag k="ssr:stedsnr" v="733368" />
	</node>
	<node id="-470641" lat="60.4451371074" lon="5.91021250265">
		<tag k="name" v="Tjørnane" />
		<tag k="natural" v="water" />
		<tag k="ssr:stedsnr" v="733355" />
		<tag k="water" v="lake" />
	</node>
	<node id="-470640" lat="60.4750000026" lon="5.92448889647">
		<tag k="name" v="Dukabottsvatnet" />
		<tag k="natural" v="water" />
		<tag k="ssr:stedsnr" v="733348" />
		<tag k="water" v="lake" />
	</node>
	<node id="-470639" lat="60.4655249994" lon="5.94103610786">
		<tag k="name" v="Setrabekken" />
		<tag k="ssr:stedsnr" v="733327" />
		<tag k="waterway" v="stream" />
	</node>
	<node id="-470638" lat="60.4667583374" lon="5.89718333136">
		<tag k="fixme" v="consider natural=peak for the most distinct mountains in the district" />
		<tag k="name" v="Bergsnipa" />
		<tag k="natural" v="hill" />
		<tag k="place" v="locality" />
		<tag k="ssr:stedsnr" v="733322" />
	</node>
	<node id="-470637" lat="60.294624998" lon="5.61743889634">
		<tag k="name" v="Træet" />
		<tag k="place" v="farm" />
		<tag k="ssr:stedsnr" v="733260" />
	</node>
	<node id="-470636" lat="60.3720638858" lon="5.84198055794">
		<tag k="name" v="Kvannevikselva" />
		<tag k="ssr:stedsnr" v="733167" />
		<tag k="waterway" v="river" />
	</node>
	<node id="-470635" lat="60.3726972236" lon="5.74430278552">
		<tag k="name" v="Førøyna" />
		<tag k="place" v="island" />
		<tag k="ssr:stedsnr" v="733164" />
	</node>
	<node id="-470634" lat="60.4100311427" lon="5.73147871159">
		<tag k="name" v="Nordvikavatnet" />
		<tag k="natural" v="water" />
		<tag k="ssr:stedsnr" v="733103" />
	</node>
	<node id="-470633" lat="60.4048888897" lon="5.67033333818">
		<tag k="fixme" v="consider natural=peak for the most distinct mountains in the district" />
		<tag k="name" v="Holdhusfjellet" />
		<tag k="natural" v="hill" />
		<tag k="place" v="locality" />
		<tag k="ssr:stedsnr" v="733095" />
	</node>
	<node id="-470632" lat="60.4302861137" lon="5.79582499559">
		<tag k="name" v="Snilshaugen" />
		<tag k="natural" v="hill" />
		<tag k="place" v="locality" />
		<tag k="ssr:stedsnr" v="733080" />
	</node>
	<node id="-470631" lat="60.4358138903" lon="5.72591665916">
		<tag k="fixme" v="multiple name tags, choose one and add the other to alt_name" />
		<tag k="name" v="Godmortjørnane;Bjørkerindtjørna" />
		<tag k="natural" v="water" />
		<tag k="ssr:stedsnr" v="733064" />
		<tag k="water" v="lake" />
	</node>
	<node id="-470630" lat="60.4642583315" lon="5.84632500096">
		<tag k="fixme" v="consider natural=peak for the most distinct mountains in the district" />
		<tag k="name" v="Gråfjellet" />
		<tag k="natural" v="hill" />
		<tag k="place" v="locality" />
		<tag k="ssr:stedsnr" v="733038" />
	</node>
	<node id="-470629" lat="60.3649472256" lon="5.72082777809">
		<tag k="name" v="Raudskoltane" />
		<tag k="natural" v="hill" />
		<tag k="place" v="locality" />
		<tag k="ssr:stedsnr" v="726051" />
	</node>
	<node id="-470628" lat="60.3655472179" lon="5.71611110717">
		<tag k="name" v="Trollabotn" />
		<tag k="natural" v="valley" />
		<tag k="place" v="locality" />
		<tag k="ssr:stedsnr" v="726049" />
	</node>
	<node id="-470627" lat="60.3690611125" lon="5.79775277984">
		<tag k="name" v="Norddalane" />
		<tag k="natural" v="valley" />
		<tag k="place" v="locality" />
		<tag k="ssr:stedsnr" v="726046" />
	</node>
	<node id="-470626" lat="60.3545416662" lon="5.81754999859">
		<tag k="name" v="Leitet" />
		<tag k="natural" v="hill" />
		<tag k="place" v="locality" />
		<tag k="ssr:stedsnr" v="726043" />
	</node>
	<node id="-470625" lat="60.3473611111" lon="5.79500000005">
		<tag k="name" v="Trælaflatane" />
		<tag k="place" v="locality" />
		<tag k="ssr:stedsnr" v="723924" />
	</node>
	<node id="-470624" lat="60.338966669" lon="5.79044167286">
		<tag k="name" v="Haugssteinen" />
		<tag k="natural" v="hill" />
		<tag k="place" v="locality" />
		<tag k="ssr:stedsnr" v="723923" />
	</node>
	<node id="-470623" lat="60.3570027739" lon="5.82088055179">
		<tag k="name" v="Ospebotnen" />
		<tag k="natural" v="valley" />
		<tag k="place" v="locality" />
		<tag k="ssr:stedsnr" v="723904" />
	</node>
	<node id="-470622" lat="60.3283027786" lon="5.67013610643">
		<tag k="name" v="Olderbakkane" />
		<tag k="natural" v="slope" />
		<tag k="place" v="locality" />
		<tag k="ssr:stedsnr" v="722117" />
	</node>
	<node id="-470621" lat="60.3420194465" lon="5.77772221384">
		<tag k="name" v="Tangatjørnane" />
		<tag k="natural" v="water" />
		<tag k="ssr:stedsnr" v="722087" />
		<tag k="water" v="lake" />
	</node>
	<node id="-470620" lat="60.3916194467" lon="5.84086665913">
		<tag k="bridge" v="yes" />
		<tag k="layer" v="1" />
		<tag k="name" v="Mørkhøl" />
		<tag k="ssr:stedsnr" v="715238" />
	</node>
	<node id="-470619" lat="60.3703999978" lon="5.90571110886">
		<tag k="name" v="Bjørnagjelet" />
		<tag k="natural" v="valley" />
		<tag k="place" v="locality" />
		<tag k="ssr:stedsnr" v="707976" />
	</node>
	<node id="-470618" lat="60.365322225" lon="5.82529444931">
		<tag k="name" v="Bølingahaugen" />
		<tag k="natural" v="hill" />
		<tag k="place" v="locality" />
		<tag k="ssr:stedsnr" v="707947" />
	</node>
	<node id="-470617" lat="60.4466333361" lon="5.86812222537">
		<tag k="name" v="Geitabekken" />
		<tag k="ssr:stedsnr" v="699504" />
		<tag k="waterway" v="stream" />
	</node>
	<node id="-470616" lat="60.4407972193" lon="5.86653889078">
		<tag k="name" v="Stigane" />
		<tag k="natural" v="hill" />
		<tag k="place" v="locality" />
		<tag k="ssr:stedsnr" v="698954" />
	</node>
	<node id="-470615" lat="60.3883638848" lon="5.90891389328">
		<tag k="name" v="Haugen" />
		<tag k="natural" v="hill" />
		<tag k="place" v="locality" />
		<tag k="ssr:stedsnr" v="698578" />
	</node>
	<node id="-470614" lat="60.4526305553" lon="5.85035555901">
		<tag k="name" v="Skoradalen" />
		<tag k="natural" v="valley" />
		<tag k="place" v="locality" />
		<tag k="ssr:stedsnr" v="698535" />
	</node>
	<node id="-470613" lat="60.4076999985" lon="5.82233332602">
		<tag k="name" v="Svensdalstjørna" />
		<tag k="natural" v="water" />
		<tag k="ssr:stedsnr" v="698461" />
	</node>
	<node id="-470612" lat="60.4169722218" lon="5.78916111283">
		<tag k="name" v="Nordtveit" />
		<tag k="place" v="farm" />
		<tag k="ssr:stedsnr" v="698453" />
	</node>
	<node id="-470611" lat="60.4286138894" lon="5.7895388868">
		<tag k="historic" v="shieling" />
		<tag k="name" v="Hagasetret" />
		<tag k="place" v="locality" />
		<tag k="ssr:stedsnr" v="698414" />
	</node>
	<node id="-470610" lat="60.4283222218" lon="5.79184722483">
		<tag k="historic" v="shieling" />
		<tag k="name" v="Tveitasetret" />
		<tag k="place" v="locality" />
		<tag k="ssr:stedsnr" v="698411" />
	</node>
	<node id="-470609" lat="60.4174388897" lon="5.72539722081">
		<tag k="fixme" v="consider natural=peak for the most distinct mountains in the district" />
		<tag k="name" v="Bjørnåsen" />
		<tag k="natural" v="hill" />
		<tag k="place" v="locality" />
		<tag k="ssr:stedsnr" v="698251" />
	</node>
	<node id="-470608" lat="60.4195888887" lon="5.83606110404">
		<tag k="name" v="Leitet" />
		<tag k="natural" v="hill" />
		<tag k="place" v="locality" />
		<tag k="ssr:stedsnr" v="698244" />
	</node>
	<node id="-470607" lat="60.4166388876" lon="5.85597222204">
		<tag k="name" v="Kuhaugen" />
		<tag k="natural" v="hill" />
		<tag k="place" v="locality" />
		<tag k="ssr:stedsnr" v="698232" />
	</node>
	<node id="-470606" lat="60.3776899411" lon="5.66243427252">
		<tag k="name" v="Stolpane" />
		<tag k="place" v="farm" />
		<tag k="ssr:stedsnr" v="696980" />
	</node>
	<node id="-470605" lat="60.3743564846" lon="5.67417018569">
		<tag k="name" v="Skarselva" />
		<tag k="ssr:stedsnr" v="696978" />
		<tag k="waterway" v="river" />
	</node>
	<node id="-470604" lat="60.4091777759" lon="5.72391943916">
		<tag k="historic" v="shieling" />
		<tag k="name" v="Stølen" />
		<tag k="place" v="locality" />
		<tag k="ssr:stedsnr" v="696961" />
	</node>
	<node id="-470603" lat="60.4067416689" lon="5.72260277254">
		<tag k="name" v="Ormarinden" />
		<tag k="natural" v="ridge" />
		<tag k="place" v="locality" />
		<tag k="ssr:stedsnr" v="696960" />
	</node>
	<node id="-470602" lat="60.3947027772" lon="5.76686944211">
		<tag k="name" v="Neset" />
		<tag k="place" v="farm" />
		<tag k="ssr:stedsnr" v="696814" />
	</node>
	<node id="-470601" lat="60.3959027771" lon="5.79555555437">
		<tag k="name" v="Hjellane" />
		<tag k="natural" v="hill" />
		<tag k="place" v="locality" />
		<tag k="ssr:stedsnr" v="696774" />
	</node>
	<node id="-470600" lat="60.3160388849" lon="5.62263611512">
		<tag k="name" v="Øvenane" />
		<tag k="place" v="locality" />
		<tag k="ssr:stedsnr" v="696615" />
	</node>
	<node id="-470599" lat="60.3641083288" lon="5.68928888702">
		<tag k="name" v="Jambrokaklumpen" />
		<tag k="natural" v="cape" />
		<tag k="ssr:stedsnr" v="696613" />
	</node>
	<node id="-470598" lat="60.3569861112" lon="5.69874444901">
		<tag k="name" v="Espeli" />
		<tag k="place" v="farm" />
		<tag k="ssr:stedsnr" v="696604" />
	</node>
	<node id="-470597" lat="60.4245527774" lon="5.82065000322">
		<tag k="name" v="Fisket" />
		<tag k="place" v="farm" />
		<tag k="ssr:stedsnr" v="698361" />
	</node>
	<node id="-470596" lat="60.4113861099" lon="5.78354445092">
		<tag k="fixme" v="consider natural=peak for the most distinct mountains in the district" />
		<tag k="name" v="Vinsjansen" />
		<tag k="natural" v="hill" />
		<tag k="place" v="locality" />
		<tag k="ssr:stedsnr" v="696206" />
	</node>
	<node id="-470595" lat="60.2980138923" lon="5.61844722634">
		<tag k="name" v="Hagen" />
		<tag k="place" v="farm" />
		<tag k="ssr:stedsnr" v="692818" />
	</node>
	<node id="-470594" lat="60.3918583335" lon="5.7653111191">
		<tag k="name" v="Nesodden" />
		<tag k="natural" v="cape" />
		<tag k="ssr:stedsnr" v="692308" />
	</node>
	<node id="-470593" lat="60.3363499958" lon="5.66094166485">
		<tag k="name" v="Stølen" />
		<tag k="place" v="farm" />
		<tag k="ssr:stedsnr" v="692278" />
	</node>
	<node id="-470592" lat="60.3658749959" lon="5.66758888405">
		<tag k="name" v="Lialandet" />
		<tag k="natural" v="ridge" />
		<tag k="place" v="locality" />
		<tag k="ssr:stedsnr" v="692275" />
	</node>
	<node id="-470591" lat="60.5056704042" lon="5.95279894532">
		<tag k="name" v="Gulltjørna" />
		<tag k="natural" v="water" />
		<tag k="ssr:stedsnr" v="674976" />
	</node>
	<node id="-470590" lat="60.3903249988" lon="5.90748610672">
		<tag k="fixme" v="consider place=hamlet" />
		<tag k="name" v="Eikedalen" />
		<tag k="place" v="village" />
		<tag k="ssr:stedsnr" v="673732" />
	</node>
	<node id="-470589" lat="60.3354611109" lon="5.92569722394">
		<tag k="name" v="Krokvatnet" />
		<tag k="natural" v="water" />
		<tag k="ssr:stedsnr" v="673562" />
		<tag k="water" v="lake" />
	</node>
	<node id="-470588" lat="60.4606777769" lon="5.91771111629">
		<tag k="name" v="Renneberget" />
		<tag k="natural" v="hill" />
		<tag k="place" v="locality" />
		<tag k="ssr:stedsnr" v="673419" />
	</node>
	<node id="-470587" lat="60.4871138879" lon="5.88661110257">
		<tag k="name" v="Lavransskaret" />
		<tag k="natural" v="valley" />
		<tag k="place" v="locality" />
		<tag k="ssr:stedsnr" v="673349" />
	</node>
	<node id="-470586" lat="60.3242138864" lon="5.6318916752">
		<tag k="name" v="Rolsvågneset" />
		<tag k="natural" v="cape" />
		<tag k="ssr:stedsnr" v="673245" />
	</node>
	<node id="-470585" lat="60.3387083292" lon="5.66530000174">
		<tag k="name" v="Yndestad" />
		<tag k="place" v="farm" />
		<tag k="ssr:stedsnr" v="673230" />
	</node>
	<node id="-470584" lat="60.3479333369" lon="5.59571388414">
		<tag k="name" v="Brekkehytta" />
		<tag k="place" v="isolated_dwelling" />
		<tag k="ssr:stedsnr" v="673215" />
	</node>
	<node id="-470583" lat="60.3504333338" lon="5.71139723012">
		<tag k="fixme" v="consider natural=peak for the most distinct mountains in the district" />
		<tag k="name" v="Steinafjellet" />
		<tag k="natural" v="hill" />
		<tag k="place" v="locality" />
		<tag k="ssr:stedsnr" v="673206" />
	</node>
	<node id="-470582" lat="60.3595277821" lon="5.61948888706">
		<tag k="name" v="Brekkekleiva" />
		<tag k="natural" v="slope" />
		<tag k="place" v="locality" />
		<tag k="ssr:stedsnr" v="673199" />
	</node>
	<node id="-470581" lat="60.3850333316" lon="5.71936111527">
		<tag k="name" v="Notaholmane" />
		<tag k="place" v="islet" />
		<tag k="ssr:stedsnr" v="673159" />
	</node>
	<node id="-470580" lat="60.3841722219" lon="5.67638054766">
		<tag k="fixme" v="consider natural=peak for the most distinct mountains in the district" />
		<tag k="name" v="Einaråsen" />
		<tag k="natural" v="hill" />
		<tag k="place" v="locality" />
		<tag k="ssr:stedsnr" v="673149" />
	</node>
	<node id="-470579" lat="60.4186361138" lon="5.83504999414">
		<tag k="name" v="Helgeland" />
		<tag k="place" v="locality" />
		<tag k="ssr:stedsnr" v="673099" />
	</node>
	<node id="-470578" lat="60.4183750045" lon="5.7550750004">
		<tag k="historic" v="shieling" />
		<tag k="name" v="Myrland" />
		<tag k="place" v="locality" />
		<tag k="ssr:stedsnr" v="673095" />
	</node>
	<node id="-470577" lat="60.420161115" lon="5.71516944318">
		<tag k="historic" v="shieling" />
		<tag k="name" v="Reistadsetret" />
		<tag k="place" v="locality" />
		<tag k="ssr:stedsnr" v="673092" />
	</node>
	<node id="-470576" lat="60.4308416209" lon="5.71179851788">
		<tag k="name" v="Lomsvatnet" />
		<tag k="natural" v="water" />
		<tag k="ssr:stedsnr" v="673064" />
	</node>
	<node id="-470575" lat="60.4043593538" lon="5.8434404631">
		<tag k="fixme" v="consider place=hamlet" />
		<tag k="name" v="Børdalen" />
		<tag k="place" v="farm" />
		<tag k="ssr:stedsnr" v="672441" />
	</node>
	<node id="-470574" lat="60.4398363552" lon="5.90851418756">
		<tag k="name" v="Gamlafetelva" />
		<tag k="ssr:stedsnr" v="672412" />
		<tag k="waterway" v="river" />
	</node>
	<node id="-470573" lat="60.4402888845" lon="5.88174443834">
		<tag k="name" v="Tverrlia" />
		<tag k="place" v="farm" />
		<tag k="ssr:stedsnr" v="672410" />
	</node>
	<node id="-470572" lat="60.448686113" lon="5.88509722728">
		<tag k="name" v="Breivika" />
		<tag k="natural" v="bay" />
		<tag k="ssr:stedsnr" v="672357" />
	</node>
	<node id="-470571" lat="60.4501749991" lon="5.90120554908">
		<tag k="name" v="Stortoberget" />
		<tag k="natural" v="hill" />
		<tag k="place" v="locality" />
		<tag k="ssr:stedsnr" v="672356" />
	</node>
	<node id="-470570" lat="60.4479583325" lon="5.85405278374">
		<tag k="name" v="Hjellane" />
		<tag k="natural" v="hill" />
		<tag k="place" v="locality" />
		<tag k="ssr:stedsnr" v="672353" />
	</node>
	<node id="-470569" lat="60.4488361069" lon="5.91470834066">
		<tag k="fixme" v="consider natural=peak for the most distinct mountains in the district" />
		<tag k="name" v="Aksla" />
		<tag k="natural" v="hill" />
		<tag k="place" v="locality" />
		<tag k="ssr:stedsnr" v="672351" />
	</node>
	<node id="-470568" lat="60.4775027732" lon="5.92849443901">
		<tag k="name" v="Dukafossen" />
		<tag k="natural" v="waterfall" />
		<tag k="ssr:stedsnr" v="672337" />
	</node>
	<node id="-470567" lat="60.4708861112" lon="5.89617777214">
		<tag k="name" v="Geitaberget" />
		<tag k="natural" v="hill" />
		<tag k="place" v="locality" />
		<tag k="ssr:stedsnr" v="672330" />
	</node>
	<node id="-470566" lat="60.4694944421" lon="5.89860277627">
		<tag k="fixme" v="consider natural=peak for the most distinct mountains in the district" />
		<tag k="name" v="Nova" />
		<tag k="natural" v="hill" />
		<tag k="place" v="locality" />
		<tag k="ssr:stedsnr" v="672327" />
	</node>
	<node id="-470565" lat="60.3645694464" lon="5.60473888254">
		<tag k="name" v="Purkedalsgjelet" />
		<tag k="natural" v="valley" />
		<tag k="place" v="locality" />
		<tag k="ssr:stedsnr" v="672140" />
	</node>
	<node id="-470564" lat="60.4001638866" lon="5.71084722095">
		<tag k="fixme" v="consider place=hamlet" />
		<tag k="name" v="Ådland" />
		<tag k="place" v="village" />
		<tag k="ssr:stedsnr" v="672103" />
	</node>
	<node id="-470563" lat="60.4096353769" lon="5.72392069861">
		<tag k="fixme" v="consider place=hamlet" />
		<tag k="name" v="Reistad" />
		<tag k="place" v="farm" />
		<tag k="ssr:stedsnr" v="672089" />
	</node>
	<node id="-470562" lat="60.4353705086" lon="5.71062736243">
		<tag k="name" v="Krokvatnet" />
		<tag k="natural" v="water" />
		<tag k="ssr:stedsnr" v="672054" />
	</node>
	<node id="-470561" lat="60.4161802852" lon="5.83472866377">
		<tag k="fixme" v="consider place=hamlet" />
		<tag k="name" v="Høyseter" />
		<tag k="place" v="farm" />
		<tag k="ssr:stedsnr" v="674620" />
	</node>
	<node id="-470560" lat="60.3587444454" lon="5.73840832506">
		<tag k="name" v="Florhaugen" />
		<tag k="natural" v="hill" />
		<tag k="place" v="locality" />
		<tag k="ssr:stedsnr" v="665062" />
	</node>
	<node id="-470559" lat="60.3550666656" lon="5.73188888131">
		<tag k="name" v="Fossabrekka" />
		<tag k="natural" v="slope" />
		<tag k="place" v="locality" />
		<tag k="ssr:stedsnr" v="665038" />
	</node>
	<node id="-470558" lat="60.2985666647" lon="5.58487222907">
		<tag k="name" v="Botnahytto" />
		<tag k="place" v="locality" />
		<tag k="ssr:stedsnr" v="664102" />
	</node>
	<node id="-470557" lat="60.3393722244" lon="5.66211666127">
		<tag k="name" v="Hunaneset" />
		<tag k="natural" v="cape" />
		<tag k="ssr:stedsnr" v="661102" />
	</node>
	<node id="-470556" lat="60.3425805565" lon="5.67580555425">
		<tag k="name" v="Rangesvika" />
		<tag k="natural" v="bay" />
		<tag k="ssr:stedsnr" v="661099" />
	</node>
	<node id="-470555" lat="60.3397916631" lon="5.68794721612">
		<tag k="name" v="Skifteshaugen" />
		<tag k="natural" v="hill" />
		<tag k="place" v="locality" />
		<tag k="ssr:stedsnr" v="661076" />
	</node>
	<node id="-470554" lat="60.351613889" lon="5.76241388993">
		<tag k="name" v="Blåheien" />
		<tag k="natural" v="slope" />
		<tag k="place" v="locality" />
		<tag k="ssr:stedsnr" v="661023" />
	</node>
	<node id="-470553" lat="60.3496861085" lon="5.78304721708">
		<tag k="fixme" v="consider natural=peak for the most distinct mountains in the district" />
		<tag k="name" v="Ullandsfjellet" />
		<tag k="natural" v="hill" />
		<tag k="place" v="locality" />
		<tag k="ssr:stedsnr" v="661018" />
	</node>
	<node id="-470552" lat="60.3280638931" lon="5.69835277592">
		<tag k="name" v="Stongahjellen" />
		<tag k="place" v="locality" />
		<tag k="ssr:stedsnr" v="661011" />
	</node>
	<node id="-470551" lat="60.3737611096" lon="5.75366111536">
		<tag k="bridge" v="yes" />
		<tag k="layer" v="1" />
		<tag k="name" v="Tysse Ytre" />
		<tag k="ssr:stedsnr" v="654238" />
	</node>
	<node id="-470550" lat="60.3981111124" lon="5.79836389415">
		<tag k="bridge" v="yes" />
		<tag k="layer" v="1" />
		<tag k="name" v="Langeland" />
		<tag k="ssr:stedsnr" v="654233" />
	</node>
	<node id="-470549" lat="60.4000027766" lon="5.70871665917">
		<tag k="bridge" v="yes" />
		<tag k="layer" v="1" />
		<tag k="name" v="Kvernbekk" />
		<tag k="ssr:stedsnr" v="654231" />
	</node>
	<node id="-470548" lat="60.4013277759" lon="5.75515000815">
		<tag k="bridge" v="yes" />
		<tag k="layer" v="1" />
		<tag k="name" v="Aldalen" />
		<tag k="ssr:stedsnr" v="654220" />
	</node>
	<node id="-470547" lat="60.3836972212" lon="5.83728611165">
		<tag k="layer" v="-1" />
		<tag k="name" v="Liaros" />
		<tag k="ssr:stedsnr" v="650293" />
		<tag k="tunnel" v="yes" />
	</node>
	<node id="-470546" lat="60.3649111142" lon="5.9107833359">
		<tag k="name" v="Bjørnahiet" />
		<tag k="natural" v="valley" />
		<tag k="place" v="locality" />
		<tag k="ssr:stedsnr" v="646977" />
	</node>
	<node id="-470545" lat="60.3760325865" lon="5.75995611547">
		<tag k="fixme" v="consider place=hamlet" />
		<tag k="name" v="Indre-Tysse" />
		<tag k="place" v="farm" />
		<tag k="ssr:stedsnr" v="638198" />
	</node>
	<node id="-470544" lat="60.4470500009" lon="5.89066388873">
		<tag k="name" v="Gadden" />
		<tag k="place" v="locality" />
		<tag k="ssr:stedsnr" v="637938" />
	</node>
	<node id="-470543" lat="60.4039361075" lon="5.84870276969">
		<tag k="name" v="Kleiva" />
		<tag k="natural" v="slope" />
		<tag k="place" v="locality" />
		<tag k="ssr:stedsnr" v="637541" />
	</node>
	<node id="-470542" lat="60.4278305529" lon="5.82233334131">
		<tag k="name" v="Matsekkelva" />
		<tag k="ssr:stedsnr" v="637408" />
		<tag k="waterway" v="river" />
	</node>
	<node id="-470541" lat="60.4223305519" lon="5.71766943785">
		<tag k="name" v="Setralia" />
		<tag k="natural" v="hill" />
		<tag k="place" v="locality" />
		<tag k="ssr:stedsnr" v="637310" />
	</node>
	<node id="-470540" lat="60.4162805576" lon="5.77894723063">
		<tag k="name" v="Halsen" />
		<tag k="natural" v="valley" />
		<tag k="place" v="locality" />
		<tag k="ssr:stedsnr" v="636490" />
	</node>
	<node id="-470539" lat="60.4156527796" lon="5.7804416741">
		<tag k="name" v="Kalvadalshaugane" />
		<tag k="natural" v="hill" />
		<tag k="place" v="locality" />
		<tag k="ssr:stedsnr" v="636488" />
	</node>
	<node id="-470538" lat="60.3991333353" lon="5.87835555247">
		<tag k="fixme" v="consider natural=peak for the most distinct mountains in the district" />
		<tag k="name" v="Flatafjellet" />
		<tag k="natural" v="hill" />
		<tag k="place" v="locality" />
		<tag k="ssr:stedsnr" v="636439" />
	</node>
	<node id="-470537" lat="60.4016999964" lon="5.85361389498">
		<tag k="name" v="Rinden" />
		<tag k="natural" v="hill" />
		<tag k="place" v="locality" />
		<tag k="ssr:stedsnr" v="636411" />
	</node>
	<node id="-470536" lat="60.3860833331" lon="5.77826110263">
		<tag k="name" v="Hagabotnane" />
		<tag k="natural" v="valley" />
		<tag k="place" v="locality" />
		<tag k="ssr:stedsnr" v="636157" />
	</node>
	<node id="-470535" lat="60.3928305529" lon="5.70107221687">
		<tag k="name" v="Masterskaret" />
		<tag k="natural" v="valley" />
		<tag k="place" v="locality" />
		<tag k="ssr:stedsnr" v="635984" />
	</node>
	<node id="-470534" lat="60.3799527757" lon="5.64008333394">
		<tag k="name" v="Dysjemyrhaugen" />
		<tag k="natural" v="hill" />
		<tag k="place" v="locality" />
		<tag k="ssr:stedsnr" v="635966" />
	</node>
	<node id="-470533" lat="60.3654360986" lon="5.6554667716">
		<tag k="fixme" v="consider place=hamlet" />
		<tag k="name" v="Liøyna" />
		<tag k="place" v="farm" />
		<tag k="ssr:stedsnr" v="635920" />
	</node>
	<node id="-470532" lat="60.3328694455" lon="5.6180694434">
		<tag k="name" v="Raudsteinshaugen" />
		<tag k="natural" v="hill" />
		<tag k="place" v="locality" />
		<tag k="ssr:stedsnr" v="635908" />
	</node>
	<node id="-470531" lat="60.405080552" lon="5.64813611845">
		<tag k="name" v="Halsen" />
		<tag k="natural" v="valley" />
		<tag k="place" v="locality" />
		<tag k="ssr:stedsnr" v="635865" />
	</node>
	<node id="-470530" lat="60.3507916703" lon="5.63118055271">
		<tag k="name" v="Vasslia" />
		<tag k="natural" v="slope" />
		<tag k="place" v="locality" />
		<tag k="ssr:stedsnr" v="635609" />
	</node>
	<node id="-470529" lat="60.3494750006" lon="5.59718056366">
		<tag k="name" v="Brekkedalen" />
		<tag k="natural" v="valley" />
		<tag k="place" v="locality" />
		<tag k="ssr:stedsnr" v="635606" />
	</node>
	<node id="-470528" lat="60.3036277753" lon="5.59953889616">
		<tag k="name" v="Lauvlidalen" />
		<tag k="natural" v="valley" />
		<tag k="place" v="locality" />
		<tag k="ssr:stedsnr" v="635586" />
	</node>
	<node id="-470527" lat="60.3595694448" lon="5.68884165954">
		<tag k="name" v="Steinastykket" />
		<tag k="place" v="locality" />
		<tag k="ssr:stedsnr" v="635581" />
	</node>
	<node id="-470526" lat="60.3554444442" lon="5.66160554704">
		<tag k="fixme" v="consider natural=peak for the most distinct mountains in the district" />
		<tag k="name" v="Storafjellet" />
		<tag k="natural" v="hill" />
		<tag k="place" v="locality" />
		<tag k="ssr:stedsnr" v="635579" />
	</node>
	<node id="-470525" lat="60.4034027752" lon="5.79036110359">
		<tag k="name" v="Haugen" />
		<tag k="natural" v="hill" />
		<tag k="place" v="locality" />
		<tag k="ssr:stedsnr" v="635252" />
	</node>
	<node id="-470524" lat="60.3441055582" lon="5.68072777015">
		<tag k="alt_name" v="Bjørkelund" />
		<tag k="name" v="Bjørkeland" />
		<tag k="place" v="farm" />
		<tag k="ssr:stedsnr" v="631283" />
	</node>
	<node id="-470523" lat="60.3485194438" lon="5.85520000307">
		<tag k="name" v="Austebotnane" />
		<tag k="natural" v="valley" />
		<tag k="place" v="locality" />
		<tag k="ssr:stedsnr" v="612633" />
	</node>
	<node id="-470522" lat="60.3345444414" lon="5.87494166915">
		<tag k="name" v="Raudehaugen" />
		<tag k="natural" v="hill" />
		<tag k="place" v="locality" />
		<tag k="ssr:stedsnr" v="612573" />
	</node>
	<node id="-470521" lat="60.4640888932" lon="5.94377500546">
		<tag k="fixme" v="consider natural=peak for the most distinct mountains in the district" />
		<tag k="name" v="Sotabottsnipa" />
		<tag k="natural" v="hill" />
		<tag k="place" v="locality" />
		<tag k="ssr:stedsnr" v="612382" />
	</node>
	<node id="-470520" lat="60.3129138856" lon="5.6160499942">
		<tag k="fixme" v="multiple name tags, choose one and add the other to alt_name" />
		<tag k="name" v="Rolsvågvatnet;Storavatnet" />
		<tag k="natural" v="water" />
		<tag k="ssr:stedsnr" v="612259" />
	</node>
	<node id="-470519" lat="60.34122008" lon="5.71194198209">
		<tag k="name" v="Stemmevatnet" />
		<tag k="natural" v="water" />
		<tag k="ssr:stedsnr" v="612241" />
	</node>
	<node id="-470518" lat="60.3340416656" lon="5.71902778385">
		<tag k="fixme" v="consider natural=peak for the most distinct mountains in the district" />
		<tag k="name" v="Såta" />
		<tag k="natural" v="hill" />
		<tag k="place" v="locality" />
		<tag k="ssr:stedsnr" v="612227" />
	</node>
	<node id="-470517" lat="60.3517888898" lon="5.66978055735">
		<tag k="name" v="Brattli" />
		<tag k="place" v="locality" />
		<tag k="ssr:stedsnr" v="612215" />
	</node>
	<node id="-470516" lat="60.3602388869" lon="5.83848055736">
		<tag k="fixme" v="consider natural=peak for the most distinct mountains in the district" />
		<tag k="name" v="Storenipen" />
		<tag k="natural" v="hill" />
		<tag k="place" v="locality" />
		<tag k="ssr:stedsnr" v="612206" />
	</node>
	<node id="-470515" lat="60.3957715431" lon="5.74785284484">
		<tag k="fixme" v="consider place=hamlet" />
		<tag k="name" v="Haukaneset" />
		<tag k="place" v="farm" />
		<tag k="ssr:stedsnr" v="612130" />
	</node>
	<node id="-470513" lat="60.4216472224" lon="5.71785832729">
		<tag k="historic" v="shieling" />
		<tag k="name" v="Heiasetret" />
		<tag k="place" v="locality" />
		<tag k="ssr:stedsnr" v="612082" />
	</node>
	<node id="-470512" lat="60.4240027809" lon="5.8143722239">
		<tag k="name" v="Fiskekampen" />
		<tag k="natural" v="hill" />
		<tag k="place" v="locality" />
		<tag k="ssr:stedsnr" v="612076" />
	</node>
	<node id="-470511" lat="60.3335194447" lon="5.85814721319">
		<tag k="name" v="Bjørnakultane" />
		<tag k="natural" v="hill" />
		<tag k="place" v="locality" />
		<tag k="ssr:stedsnr" v="611585" />
	</node>
	<node id="-470510" lat="60.4351281697" lon="5.89501738054">
		<tag k="historic" v="shieling" />
		<tag k="name" v="Kvanndalen" />
		<tag k="place" v="locality" />
		<tag k="ssr:stedsnr" v="611440" />
	</node>
	<node id="-470509" lat="60.4409722211" lon="5.93172499154">
		<tag k="fixme" v="consider natural=peak for the most distinct mountains in the district" />
		<tag k="name" v="Røyrfjellet" />
		<tag k="natural" v="hill" />
		<tag k="place" v="locality" />
		<tag k="ssr:stedsnr" v="611438" />
	</node>
	<node id="-470508" lat="60.450555555" lon="5.87823611252">
		<tag k="name" v="Vetleåsen" />
		<tag k="natural" v="hill" />
		<tag k="place" v="locality" />
		<tag k="ssr:stedsnr" v="611399" />
	</node>
	<node id="-470507" lat="60.476550003" lon="5.89798889274">
		<tag k="fixme" v="consider natural=peak for the most distinct mountains in the district" />
		<tag k="name" v="Fonnanipa" />
		<tag k="natural" v="hill" />
		<tag k="place" v="locality" />
		<tag k="ssr:stedsnr" v="611380" />
	</node>
	<node id="-470506" lat="60.3682333363" lon="5.7324111085">
		<tag k="name" v="Barmen" />
		<tag k="place" v="farm" />
		<tag k="ssr:stedsnr" v="611150" />
	</node>
	<node id="-470505" lat="60.3514388862" lon="5.79820000794">
		<tag k="name" v="Setramyrane" />
		<tag k="natural" v="wetland" />
		<tag k="ssr:stedsnr" v="604040" />
	</node>
	<node id="-470504" lat="60.36233056" lon="5.80143611812">
		<tag k="name" v="Kollhaugen" />
		<tag k="natural" v="hill" />
		<tag k="place" v="locality" />
		<tag k="ssr:stedsnr" v="604037" />
	</node>
	<node id="-470503" lat="60.3434583307" lon="5.76931110503">
		<tag k="name" v="Langafonni" />
		<tag k="place" v="locality" />
		<tag k="ssr:stedsnr" v="601938" />
	</node>
	<node id="-470502" lat="60.3494055599" lon="5.8278583396">
		<tag k="name" v="Skyttarglikka" />
		<tag k="place" v="locality" />
		<tag k="ssr:stedsnr" v="601923" />
	</node>
	<node id="-470501" lat="60.3332361125" lon="5.68315555666">
		<tag k="name" v="Hedda" />
		<tag k="natural" v="hill" />
		<tag k="place" v="locality" />
		<tag k="ssr:stedsnr" v="601106" />
	</node>
	<node id="-470500" lat="60.3456361069" lon="5.65498610328">
		<tag k="name" v="Flæa" />
		<tag k="natural" v="bay" />
		<tag k="ssr:stedsnr" v="601079" />
	</node>
	<node id="-470499" lat="60.3418722242" lon="5.6949333388">
		<tag k="name" v="Telleberglia" />
		<tag k="natural" v="slope" />
		<tag k="place" v="locality" />
		<tag k="ssr:stedsnr" v="601076" />
	</node>
	<node id="-470498" lat="60.3317694483" lon="5.77601389703">
		<tag k="name" v="Fagerdalen" />
		<tag k="natural" v="valley" />
		<tag k="place" v="locality" />
		<tag k="ssr:stedsnr" v="601059" />
	</node>
	<node id="-470497" lat="60.3361920882" lon="5.7061849337">
		<tag k="name" v="Lomatjørna" />
		<tag k="natural" v="water" />
		<tag k="ssr:stedsnr" v="601032" />
	</node>
	<node id="-470496" lat="60.4009888929" lon="5.75522778411">
		<tag k="bridge" v="yes" />
		<tag k="layer" v="1" />
		<tag k="name" v="Aldal" />
		<tag k="ssr:stedsnr" v="593200" />
	</node>
	<node id="-470495" lat="60.4017000025" lon="5.75374444609">
		<tag k="layer" v="-1" />
		<tag k="name" v="Haukanes" />
		<tag k="ssr:stedsnr" v="590477" />
		<tag k="tunnel" v="yes" />
	</node>
	<node id="-470494" lat="60.3247593987" lon="5.76688420084">
		<tag k="name" v="Svartatjørni" />
		<tag k="natural" v="water" />
		<tag k="ssr:stedsnr" v="583664" />
	</node>
	<node id="-470493" lat="60.4553637688" lon="5.82406100807">
		<tag k="name" v="Kløvsteinstjørna" />
		<tag k="natural" v="water" />
		<tag k="ssr:stedsnr" v="577618" />
	</node>
	<node id="-470492" lat="60.3796944405" lon="5.89319722932">
		<tag k="name" v="Fossen" />
		<tag k="place" v="locality" />
		<tag k="ssr:stedsnr" v="577609" />
	</node>
	<node id="-470491" lat="60.4439666688" lon="5.83440278041">
		<tag k="name" v="Svartaberget" />
		<tag k="natural" v="hill" />
		<tag k="place" v="locality" />
		<tag k="ssr:stedsnr" v="577563" />
	</node>
	<node id="-470490" lat="60.443611107" lon="5.86352777021">
		<tag k="fixme" v="consider natural=peak for the most distinct mountains in the district" />
		<tag k="name" v="Høghaugen" />
		<tag k="natural" v="hill" />
		<tag k="place" v="locality" />
		<tag k="ssr:stedsnr" v="577521" />
	</node>
	<node id="-470489" lat="60.3991833364" lon="5.84430556205">
		<tag k="name" v="Kråna" />
		<tag k="natural" v="valley" />
		<tag k="place" v="locality" />
		<tag k="ssr:stedsnr" v="576513" />
	</node>
	<node id="-470488" lat="60.4234722192" lon="5.79900000157">
		<tag k="fixme" v="consider natural=peak for the most distinct mountains in the district" />
		<tag k="name" v="Bjørnåsen" />
		<tag k="natural" v="hill" />
		<tag k="place" v="locality" />
		<tag k="ssr:stedsnr" v="576473" />
	</node>
	<node id="-470487" lat="60.4344361101" lon="5.80668611501">
		<tag k="name" v="Setraelva" />
		<tag k="ssr:stedsnr" v="576450" />
		<tag k="waterway" v="river" />
	</node>
	<node id="-470486" lat="60.4339611137" lon="5.82312500081">
		<tag k="name" v="Seterhaugen" />
		<tag k="natural" v="hill" />
		<tag k="place" v="locality" />
		<tag k="ssr:stedsnr" v="576446" />
	</node>
	<node id="-470485" lat="60.4299722254" lon="5.80617777927">
		<tag k="name" v="Bjørnspetthaugen" />
		<tag k="natural" v="hill" />
		<tag k="place" v="locality" />
		<tag k="ssr:stedsnr" v="576445" />
	</node>
	<node id="-470484" lat="60.4232416666" lon="5.83601665913">
		<tag k="name" v="Kjerringarinden" />
		<tag k="natural" v="ridge" />
		<tag k="place" v="locality" />
		<tag k="ssr:stedsnr" v="576378" />
	</node>
	<node id="-470483" lat="60.419233329" lon="5.7137999929">
		<tag k="historic" v="shieling" />
		<tag k="name" v="Utgjerdesetret" />
		<tag k="place" v="locality" />
		<tag k="ssr:stedsnr" v="576282" />
	</node>
	<node id="-470482" lat="60.4264138883" lon="5.7255249954">
		<tag k="name" v="Tjørndalstjørnane" />
		<tag k="natural" v="water" />
		<tag k="ssr:stedsnr" v="576279" />
	</node>
	<node id="-470481" lat="60.4188555552" lon="5.87452500137">
		<tag k="name" v="Fureskolten" />
		<tag k="natural" v="ridge" />
		<tag k="place" v="locality" />
		<tag k="ssr:stedsnr" v="576259" />
	</node>
	<node id="-470480" lat="60.382444444" lon="5.66211666918">
		<tag k="name" v="Krossaleitet" />
		<tag k="natural" v="hill" />
		<tag k="place" v="locality" />
		<tag k="ssr:stedsnr" v="575982" />
	</node>
	<node id="-470479" lat="60.3867305521" lon="5.63778333516">
		<tag k="name" v="Kvitlabrekka" />
		<tag k="natural" v="slope" />
		<tag k="place" v="locality" />
		<tag k="ssr:stedsnr" v="575971" />
	</node>
	<node id="-470478" lat="60.3869194418" lon="5.62887778132">
		<tag k="name" v="Lyningshaugen" />
		<tag k="natural" v="hill" />
		<tag k="place" v="locality" />
		<tag k="ssr:stedsnr" v="575969" />
	</node>
	<node id="-470477" lat="60.4033972232" lon="5.7380027765">
		<tag k="name" v="Høgeskolten" />
		<tag k="natural" v="hill" />
		<tag k="place" v="locality" />
		<tag k="ssr:stedsnr" v="575961" />
	</node>
	<node id="-470476" lat="60.4072888844" lon="5.72599166236">
		<tag k="name" v="Utgjerdet" />
		<tag k="place" v="locality" />
		<tag k="ssr:stedsnr" v="575941" />
	</node>
	<node id="-470475" lat="60.3531333296" lon="5.69211943799">
		<tag k="name" v="Storlia" />
		<tag k="natural" v="slope" />
		<tag k="place" v="locality" />
		<tag k="ssr:stedsnr" v="575914" />
	</node>
	<node id="-470474" lat="60.328594442" lon="5.62502221545">
		<tag k="name" v="Vågasanden" />
		<tag k="natural" v="beach" />
		<tag k="place" v="locality" />
		<tag k="ssr:stedsnr" v="575906" />
	</node>
	<node id="-470473" lat="60.3437083298" lon="5.60100278288">
		<tag k="name" v="Austrelia" />
		<tag k="natural" v="slope" />
		<tag k="place" v="locality" />
		<tag k="ssr:stedsnr" v="575898" />
	</node>
	<node id="-470472" lat="60.3592861105" lon="5.66781110396">
		<tag k="name" v="Sauahaugen" />
		<tag k="natural" v="hill" />
		<tag k="place" v="locality" />
		<tag k="ssr:stedsnr" v="575575" />
	</node>
	<node id="-470471" lat="60.3603888851" lon="5.69946943656">
		<tag k="name" v="Storekampen" />
		<tag k="natural" v="hill" />
		<tag k="place" v="locality" />
		<tag k="ssr:stedsnr" v="575573" />
	</node>
	<node id="-470470" lat="60.3613138854" lon="5.6469333418">
		<tag k="name" v="Hytteneset" />
		<tag k="natural" v="cape" />
		<tag k="ssr:stedsnr" v="575549" />
	</node>
	<node id="-470469" lat="60.3728999983" lon="5.88583611409">
		<tag k="name" v="Raunebotnen" />
		<tag k="natural" v="valley" />
		<tag k="place" v="locality" />
		<tag k="ssr:stedsnr" v="551696" />
	</node>
	<node id="-470468" lat="60.3707055559" lon="5.88325833868">
		<tag k="name" v="Plitten" />
		<tag k="natural" v="gorge" />
		<tag k="ssr:stedsnr" v="551658" />
	</node>
	<node id="-470467" lat="60.4048333364" lon="5.87975556233">
		<tag k="name" v="Huldabottsgjelet" />
		<tag k="natural" v="gorge" />
		<tag k="ssr:stedsnr" v="551473" />
	</node>
	<node id="-470466" lat="60.4282972253" lon="5.89468055513">
		<tag k="name" v="Flatheiane" />
		<tag k="natural" v="hill" />
		<tag k="place" v="locality" />
		<tag k="ssr:stedsnr" v="551435" />
	</node>
	<node id="-470465" lat="60.4354166712" lon="5.92324722916">
		<tag k="name" v="Røyrfjellelva" />
		<tag k="ssr:stedsnr" v="551415" />
		<tag k="waterway" v="river" />
	</node>
	<node id="-470464" lat="60.4312361122" lon="5.8715166657">
		<tag k="name" v="Renneberget" />
		<tag k="natural" v="hill" />
		<tag k="place" v="locality" />
		<tag k="ssr:stedsnr" v="551404" />
	</node>
	<node id="-470463" lat="60.4450611116" lon="5.89496110404">
		<tag k="name" v="Kvanndalselva" />
		<tag k="ssr:stedsnr" v="551399" />
		<tag k="waterway" v="river" />
	</node>
	<node id="-470462" lat="60.4687277743" lon="5.92676945363">
		<tag k="fixme" v="consider natural=peak for the most distinct mountains in the district" />
		<tag k="name" v="Lurafjellet" />
		<tag k="natural" v="hill" />
		<tag k="place" v="locality" />
		<tag k="ssr:stedsnr" v="551337" />
	</node>
	<node id="-470461" lat="60.4989166678" lon="5.92245834185">
		<tag k="name" v="Insta Hestagjelet" />
		<tag k="natural" v="valley" />
		<tag k="place" v="locality" />
		<tag k="ssr:stedsnr" v="551332" />
	</node>
	<node id="-470460" lat="60.4871361144" lon="5.89141665733">
		<tag k="name" v="Tunga" />
		<tag k="natural" v="hill" />
		<tag k="place" v="locality" />
		<tag k="ssr:stedsnr" v="551318" />
	</node>
	<node id="-470459" lat="60.2929527783" lon="5.574650006">
		<tag k="name" v="Baggeskaret" />
		<tag k="natural" v="valley" />
		<tag k="place" v="locality" />
		<tag k="ssr:stedsnr" v="551294" />
	</node>
	<node id="-470458" lat="60.3213414635" lon="5.60032656751">
		<tag k="name" v="Fossavatnet" />
		<tag k="natural" v="water" />
		<tag k="ssr:stedsnr" v="551249" />
	</node>
	<node id="-470457" lat="60.3549223276" lon="5.69657380102">
		<tag k="name" v="Kampen" />
		<tag k="place" v="farm" />
		<tag k="ssr:stedsnr" v="551218" />
	</node>
	<node id="-470456" lat="60.3811583328" lon="5.72049721378">
		<tag k="name" v="Flesjane" />
		<tag k="place" v="islet" />
		<tag k="ssr:stedsnr" v="551157" />
	</node>
	<node id="-470455" lat="60.3856075481" lon="5.79999824729">
		<tag k="fixme" v="consider place=hamlet" />
		<tag k="name" v="Totland" />
		<tag k="place" v="farm" />
		<tag k="ssr:stedsnr" v="551153" />
	</node>
	<node id="-470454" lat="60.3849000044" lon="5.62110834024">
		<tag k="name" v="Fagerbotnen" />
		<tag k="natural" v="valley" />
		<tag k="place" v="locality" />
		<tag k="ssr:stedsnr" v="551151" />
	</node>
	<node id="-470453" lat="60.3905361092" lon="5.65523611821">
		<tag k="name" v="Oppheim" />
		<tag k="place" v="farm" />
		<tag k="ssr:stedsnr" v="551145" />
	</node>
	<node id="-470452" lat="60.3958249997" lon="5.82259999477">
		<tag k="fixme" v="consider natural=peak for the most distinct mountains in the district" />
		<tag k="name" v="Totlandsfjellet" />
		<tag k="natural" v="hill" />
		<tag k="place" v="locality" />
		<tag k="ssr:stedsnr" v="551142" />
	</node>
	<node id="-470451" lat="60.4036367231" lon="5.79246426653">
		<tag k="fixme" v="consider place=hamlet" />
		<tag k="name" v="Langeland" />
		<tag k="place" v="farm" />
		<tag k="ssr:stedsnr" v="551119" />
	</node>
	<node id="-470450" lat="60.4133111152" lon="5.78686665878">
		<tag k="name" v="Nygård" />
		<tag k="place" v="farm" />
		<tag k="ssr:stedsnr" v="551100" />
	</node>
	<node id="-470449" lat="60.4292290704" lon="5.73462284145">
		<tag k="name" v="Slåttetjørna" />
		<tag k="natural" v="water" />
		<tag k="ssr:stedsnr" v="551062" />
	</node>
	<node id="-470448" lat="60.4446888852" lon="5.78903888169">
		<tag k="fixme" v="consider natural=peak for the most distinct mountains in the district" />
		<tag k="name" v="Vardane" />
		<tag k="natural" v="hill" />
		<tag k="place" v="locality" />
		<tag k="ssr:stedsnr" v="551042" />
	</node>
	<node id="-470447" lat="60.4450461056" lon="5.74349381894">
		<tag k="name" v="Futivatnet" />
		<tag k="natural" v="water" />
		<tag k="ssr:stedsnr" v="551039" />
	</node>
	<node id="-470446" lat="60.3637138933" lon="5.71265833854">
		<tag k="name" v="Trollabotshaugen" />
		<tag k="natural" v="hill" />
		<tag k="place" v="locality" />
		<tag k="ssr:stedsnr" v="544049" />
	</node>
	<node id="-470445" lat="60.3696416626" lon="5.80258888255">
		<tag k="name" v="Storemyri" />
		<tag k="natural" v="wetland" />
		<tag k="ssr:stedsnr" v="544041" />
	</node>
	<node id="-470444" lat="60.3490017629" lon="5.71517585982">
		<tag k="name" v="Skorvetjørni" />
		<tag k="natural" v="water" />
		<tag k="ssr:stedsnr" v="544034" />
	</node>
	<node id="-470443" lat="60.359588885" lon="5.77125000298">
		<tag k="name" v="Heggelii" />
		<tag k="natural" v="slope" />
		<tag k="place" v="locality" />
		<tag k="ssr:stedsnr" v="544032" />
	</node>
	<node id="-470442" lat="60.3398888849" lon="5.81571110523">
		<tag k="name" v="Kvanndalsbakkane" />
		<tag k="natural" v="slope" />
		<tag k="place" v="locality" />
		<tag k="ssr:stedsnr" v="540941" />
	</node>
	<node id="-470441" lat="60.3474222252" lon="5.77967221952">
		<tag k="name" v="Tangafjellet" />
		<tag k="natural" v="hill" />
		<tag k="place" v="locality" />
		<tag k="ssr:stedsnr" v="540940" />
	</node>
	<node id="-470440" lat="60.3477416652" lon="5.77399999802">
		<tag k="name" v="Setrabotnen" />
		<tag k="natural" v="valley" />
		<tag k="place" v="locality" />
		<tag k="ssr:stedsnr" v="540938" />
	</node>
	<node id="-470439" lat="60.3446777804" lon="5.68638055372">
		<tag k="name" v="Djuvvikelva" />
		<tag k="ssr:stedsnr" v="540112" />
		<tag k="waterway" v="stream" />
	</node>
	<node id="-470438" lat="60.3400555545" lon="5.72651666883">
		<tag k="name" v="Fagerdalen" />
		<tag k="natural" v="valley" />
		<tag k="place" v="locality" />
		<tag k="ssr:stedsnr" v="540027" />
	</node>
	<node id="-470437" lat="60.3959777781" lon="5.70276666343">
		<tag k="bridge" v="yes" />
		<tag k="layer" v="1" />
		<tag k="name" v="Storkleiv" />
		<tag k="ssr:stedsnr" v="533234" />
	</node>
	<node id="-470436" lat="60.4548666698" lon="5.88461389163">
		<tag k="bridge" v="yes" />
		<tag k="layer" v="1" />
		<tag k="name" v="Kvernelv" />
		<tag k="ssr:stedsnr" v="533232" />
	</node>
	<node id="-470435" lat="60.4015499975" lon="5.75455554781">
		<tag k="bridge" v="yes" />
		<tag k="layer" v="1" />
		<tag k="name" v="Aldalselva" />
		<tag k="ssr:stedsnr" v="533221" />
	</node>
	<node id="-470434" lat="60.3661555522" lon="5.89831111107">
		<tag k="name" v="Ingebriktstegen" />
		<tag k="place" v="locality" />
		<tag k="ssr:stedsnr" v="525953" />
	</node>
	<node id="-470433" lat="60.3666888897" lon="5.84983610293">
		<tag k="name" v="Vardenovi" />
		<tag k="natural" v="hill" />
		<tag k="place" v="locality" />
		<tag k="ssr:stedsnr" v="525943" />
	</node>
	<node id="-470432" lat="60.4411333343" lon="5.86884443657">
		<tag k="name" v="Tverrligjelet" />
		<tag k="natural" v="gorge" />
		<tag k="ssr:stedsnr" v="516948" />
	</node>
	<node id="-470431" lat="60.3845472236" lon="5.89172500453">
		<tag k="name" v="Gråsida" />
		<tag k="natural" v="slope" />
		<tag k="place" v="locality" />
		<tag k="ssr:stedsnr" v="516588" />
	</node>
	<node id="-470430" lat="60.3709743498" lon="5.82826966217">
		<tag k="name" v="Åsatjørnane" />
		<tag k="natural" v="water" />
		<tag k="ssr:stedsnr" v="516585" />
		<tag k="water" v="lake" />
	</node>
	<node id="-470429" lat="60.4483749976" lon="5.8741638927">
		<tag k="name" v="Geitaryggen" />
		<tag k="natural" v="ridge" />
		<tag k="place" v="locality" />
		<tag k="ssr:stedsnr" v="516548" />
	</node>
	<node id="-470428" lat="60.4490027813" lon="5.83231945106">
		<tag k="name" v="Tosteinen" />
		<tag k="natural" v="stone" />
		<tag k="ssr:stedsnr" v="516543" />
	</node>
	<node id="-470427" lat="60.4073555555" lon="5.83066388927">
		<tag k="name" v="Trollhaugen" />
		<tag k="natural" v="hill" />
		<tag k="place" v="locality" />
		<tag k="ssr:stedsnr" v="516488" />
	</node>
	<node id="-470426" lat="60.4279416662" lon="5.80880555625">
		<tag k="name" v="Nyutløtræ" />
		<tag k="place" v="farm" />
		<tag k="ssr:stedsnr" v="516479" />
	</node>
	<node id="-470425" lat="60.4312055534" lon="5.8129027701">
		<tag k="name" v="Setrarinden" />
		<tag k="natural" v="ridge" />
		<tag k="place" v="locality" />
		<tag k="ssr:stedsnr" v="516448" />
	</node>
	<node id="-470424" lat="60.4120138857" lon="5.88541665857">
		<tag k="name" v="Gjela" />
		<tag k="natural" v="gorge" />
		<tag k="ssr:stedsnr" v="516418" />
	</node>
	<node id="-470423" lat="60.3926305591" lon="5.82822500748">
		<tag k="name" v="Fjellhaugen" />
		<tag k="natural" v="hill" />
		<tag k="place" v="locality" />
		<tag k="ssr:stedsnr" v="516405" />
	</node>
	<node id="-470422" lat="60.3967861133" lon="5.83358333593">
		<tag k="name" v="Engjalia" />
		<tag k="natural" v="slope" />
		<tag k="place" v="locality" />
		<tag k="ssr:stedsnr" v="516396" />
	</node>
	<node id="-470421" lat="60.394461109" lon="5.83808054764">
		<tag k="historic" v="shieling" />
		<tag k="name" v="Engjalistølen" />
		<tag k="place" v="locality" />
		<tag k="ssr:stedsnr" v="516394" />
	</node>
	<node id="-470420" lat="60.3823749996" lon="5.7729638903">
		<tag k="name" v="Skavdalen" />
		<tag k="natural" v="valley" />
		<tag k="place" v="locality" />
		<tag k="ssr:stedsnr" v="516321" />
	</node>
	<node id="-470419" lat="60.4179944472" lon="5.85561944569">
		<tag k="name" v="Liane" />
		<tag k="natural" v="slope" />
		<tag k="place" v="locality" />
		<tag k="ssr:stedsnr" v="516268" />
	</node>
	<node id="-470418" lat="60.378111107" lon="5.71583610595">
		<tag k="name" v="Lauvneset" />
		<tag k="natural" v="cape" />
		<tag k="ssr:stedsnr" v="516078" />
	</node>
	<node id="-470417" lat="60.3724611083" lon="5.75081111104">
		<tag k="name" v="Utløneset" />
		<tag k="natural" v="cape" />
		<tag k="ssr:stedsnr" v="515252" />
	</node>
	<node id="-470416" lat="60.3992309689" lon="5.73305897707">
		<tag k="alt_name" v="Vågen" />
		<tag k="name" v="Grunnavågen" />
		<tag k="natural" v="bay" />
		<tag k="ssr:stedsnr" v="514966" />
	</node>
	<node id="-470415" lat="60.4024000013" lon="5.72284721558">
		<tag k="name" v="Notaholmen" />
		<tag k="place" v="islet" />
		<tag k="ssr:stedsnr" v="514965" />
	</node>
	<node id="-470414" lat="60.4120555528" lon="5.81418889807">
		<tag k="fixme" v="consider place=hamlet" />
		<tag k="name" v="Svensdalen" />
		<tag k="place" v="farm" />
		<tag k="ssr:stedsnr" v="514937" />
	</node>
	<node id="-470413" lat="60.3510472236" lon="5.66529999381">
		<tag k="fixme" v="consider natural=peak for the most distinct mountains in the district" />
		<tag k="name" v="Vardane" />
		<tag k="natural" v="hill" />
		<tag k="place" v="locality" />
		<tag k="ssr:stedsnr" v="514929" />
	</node>
	<node id="-470412" lat="60.3377666654" lon="5.61679166315">
		<tag k="name" v="Halsane" />
		<tag k="natural" v="ridge" />
		<tag k="place" v="locality" />
		<tag k="ssr:stedsnr" v="514910" />
	</node>
	<node id="-470411" lat="60.3458444449" lon="5.63883055154">
		<tag k="name" v="Langedalen" />
		<tag k="natural" v="valley" />
		<tag k="place" v="locality" />
		<tag k="ssr:stedsnr" v="514903" />
	</node>
	<node id="-470410" lat="60.4063083363" lon="5.69724166066">
		<tag k="name" v="Nysetebotnen" />
		<tag k="natural" v="valley" />
		<tag k="place" v="locality" />
		<tag k="ssr:stedsnr" v="514873" />
	</node>
	<node id="-470409" lat="60.3596583365" lon="5.63380000134">
		<tag k="name" v="Tjørndalshaugane" />
		<tag k="natural" v="hill" />
		<tag k="place" v="locality" />
		<tag k="ssr:stedsnr" v="514650" />
	</node>
	<node id="-470408" lat="60.3633888912" lon="5.65906388289">
		<tag k="name" v="Øyaelva" />
		<tag k="ssr:stedsnr" v="514633" />
		<tag k="waterway" v="river" />
	</node>
	<node id="-470407" lat="60.4076611153" lon="5.7922861076">
		<tag k="name" v="Saghaugen" />
		<tag k="natural" v="hill" />
		<tag k="place" v="locality" />
		<tag k="ssr:stedsnr" v="514224" />
	</node>
	<node id="-470406" lat="60.3963333331" lon="5.76898889207">
		<tag k="fixme" v="consider place=hamlet" />
		<tag k="name" v="Gjerde" />
		<tag k="place" v="farm" />
		<tag k="ssr:stedsnr" v="510347" />
	</node>
	<node id="-470405" lat="60.3809777768" lon="5.76234444411">
		<tag k="name" v="Hagamulen" />
		<tag k="natural" v="cape" />
		<tag k="ssr:stedsnr" v="510283" />
	</node>
	<node id="-470404" lat="60.3954138911" lon="5.79907778435">
		<tag k="name" v="Storelva" />
		<tag k="ssr:stedsnr" v="492556" />
		<tag k="waterway" v="river" />
	</node>
	<node id="-470403" lat="60.3555972222" lon="5.91759722408">
		<tag k="fixme" v="consider natural=peak for the most distinct mountains in the district" />
		<tag k="name" v="Bjørnahinova" />
		<tag k="natural" v="hill" />
		<tag k="place" v="locality" />
		<tag k="ssr:stedsnr" v="491647" />
	</node>
	<node id="-470402" lat="60.4825388895" lon="5.90962778558">
		<tag k="fixme" v="consider natural=peak for the most distinct mountains in the district" />
		<tag k="name" v="Hjellafjellet" />
		<tag k="natural" v="hill" />
		<tag k="place" v="locality" />
		<tag k="ssr:stedsnr" v="491345" />
	</node>
	<node id="-470401" lat="60.3806380921" lon="5.77579203117">
		<tag k="fixme" v="consider natural=peak for the most distinct mountains in the district" />
		<tag k="name" v="Hagåsen" />
		<tag k="natural" v="hill" />
		<tag k="place" v="locality" />
		<tag k="ssr:stedsnr" v="491154" />
	</node>
	<node id="-470400" lat="60.3922644379" lon="5.77001988983">
		<tag k="fixme" v="consider place=hamlet" />
		<tag k="name" v="Steinsland" />
		<tag k="place" v="farm" />
		<tag k="ssr:stedsnr" v="491142" />
	</node>
	<node id="-470399" lat="60.39969701" lon="5.71062795961">
		<tag k="amenity" v="place_of_worship" />
		<tag k="denomination" v="lutheran" />
		<tag k="name" v="Ådland kyrkje" />
		<tag k="old_name" v="Samnanger;Samnanger kyrkje" />
		<tag k="religion" v="christian" />
		<tag k="ssr:stedsnr" v="491110" />
	</node>
	<node id="-470398" lat="60.3847083353" lon="5.85772499431">
		<tag k="name" v="Lona" />
		<tag k="natural" v="water" />
		<tag k="ssr:stedsnr" v="490721" />
		<tag k="water" v="lake" />
	</node>
	<node id="-470397" lat="60.3178361118" lon="5.65343055064">
		<tag k="name" v="Erevika" />
		<tag k="natural" v="bay" />
		<tag k="ssr:stedsnr" v="491251" />
	</node>
	<node id="-470396" lat="60.3227833369" lon="5.6211666666">
		<tag k="name" v="Træet" />
		<tag k="place" v="locality" />
		<tag k="ssr:stedsnr" v="491223" />
	</node>
	<node id="-470395" lat="60.3236944432" lon="5.60360556005">
		<tag k="fixme" v="consider natural=peak for the most distinct mountains in the district" />
		<tag k="name" v="Fossafjellet" />
		<tag k="natural" v="hill" />
		<tag k="place" v="locality" />
		<tag k="ssr:stedsnr" v="491222" />
	</node>
	<node id="-470394" lat="60.3335583339" lon="5.59631666531">
		<tag k="name" v="Eikelundsbekken" />
		<tag k="ssr:stedsnr" v="491203" />
		<tag k="waterway" v="stream" />
	</node>
	<node id="-470393" lat="60.4286583355" lon="5.86844444233">
		<tag k="name" v="Ruken" />
		<tag k="natural" v="hill" />
		<tag k="place" v="locality" />
		<tag k="ssr:stedsnr" v="490401" />
	</node>
	<node id="-470392" lat="60.4255999974" lon="5.86406944023">
		<tag k="name" v="Lyningen" />
		<tag k="natural" v="hill" />
		<tag k="place" v="locality" />
		<tag k="ssr:stedsnr" v="490400" />
	</node>
	<node id="-470391" lat="60.4554750021" lon="5.89822777527">
		<tag k="name" v="Kvitingsvatnet" />
		<tag k="natural" v="water" />
		<tag k="ssr:stedsnr" v="490383" />
		<tag k="water" v="lake" />
	</node>
	<node id="-470390" lat="60.4563666664" lon="5.91560277502">
		<tag k="name" v="Nedsta Sotabottsvatnet" />
		<tag k="natural" v="water" />
		<tag k="ssr:stedsnr" v="490379" />
		<tag k="water" v="lake" />
	</node>
	<node id="-470389" lat="60.4433083308" lon="5.8849250084">
		<tag k="fixme" v="consider natural=peak for the most distinct mountains in the district" />
		<tag k="name" v="Tverrliegga" />
		<tag k="natural" v="hill" />
		<tag k="place" v="locality" />
		<tag k="ssr:stedsnr" v="490371" />
	</node>
	<node id="-470388" lat="60.4479361113" lon="5.86947777973">
		<tag k="name" v="Steinhushaugen" />
		<tag k="place" v="farm" />
		<tag k="ssr:stedsnr" v="490367" />
	</node>
	<node id="-470387" lat="60.4740055536" lon="5.8916722231">
		<tag k="name" v="Klungerdalen" />
		<tag k="natural" v="valley" />
		<tag k="place" v="locality" />
		<tag k="ssr:stedsnr" v="490345" />
	</node>
	<node id="-470386" lat="60.4639583342" lon="5.88363611275">
		<tag k="name" v="Grøneviksbekken" />
		<tag k="ssr:stedsnr" v="490329" />
		<tag k="waterway" v="stream" />
	</node>
	<node id="-470385" lat="60.3737329125" lon="5.816649444">
		<tag k="fixme" v="consider place=hamlet" />
		<tag k="name" v="Jarland" />
		<tag k="place" v="farm" />
		<tag k="ssr:stedsnr" v="490180" />
	</node>
	<node id="-470384" lat="60.3637694426" lon="5.83707500506">
		<tag k="fixme" v="consider natural=peak for the most distinct mountains in the district" />
		<tag k="name" v="Vetlenipen" />
		<tag k="natural" v="hill" />
		<tag k="place" v="locality" />
		<tag k="ssr:stedsnr" v="490169" />
	</node>
	<node id="-470383" lat="60.3847771481" lon="5.81490702625">
		<tag k="name" v="Vetlebotnen" />
		<tag k="natural" v="valley" />
		<tag k="place" v="locality" />
		<tag k="ssr:stedsnr" v="490165" />
	</node>
	<node id="-470382" lat="60.3742265767" lon="5.80847350116">
		<tag k="fixme" v="consider place=hamlet" />
		<tag k="name" v="Haug" />
		<tag k="place" v="farm" />
		<tag k="ssr:stedsnr" v="490155" />
	</node>
	<node id="-470381" lat="60.4092750025" lon="5.74934166427">
		<tag k="fixme" v="consider natural=peak for the most distinct mountains in the district" />
		<tag k="name" v="Merkesåsen" />
		<tag k="natural" v="hill" />
		<tag k="place" v="locality" />
		<tag k="ssr:stedsnr" v="490089" />
	</node>
	<node id="-470380" lat="60.415183332" lon="5.8438944423">
		<tag k="name" v="Haugen" />
		<tag k="place" v="farm" />
		<tag k="ssr:stedsnr" v="490434" />
	</node>
	<node id="-470379" lat="60.407566669" lon="5.8446694508">
		<tag k="fixme" v="consider natural=peak for the most distinct mountains in the district" />
		<tag k="name" v="Geitafjellet" />
		<tag k="natural" v="hill" />
		<tag k="place" v="locality" />
		<tag k="ssr:stedsnr" v="490419" />
	</node>
	<node id="-470378" lat="60.3664472201" lon="5.74823055523">
		<tag k="name" v="Stølaelvi" />
		<tag k="ssr:stedsnr" v="483069" />
		<tag k="waterway" v="stream" />
	</node>
	<node id="-470377" lat="60.3685749998" lon="5.74544999362">
		<tag k="name" v="Barmen" />
		<tag k="place" v="hamlet" />
		<tag k="ssr:stedsnr" v="483068" />
	</node>
	<node id="-470376" lat="60.3596472181" lon="5.75296665857">
		<tag k="name" v="Preikestolen" />
		<tag k="natural" v="hill" />
		<tag k="place" v="locality" />
		<tag k="ssr:stedsnr" v="483067" />
	</node>
	<node id="-470375" lat="60.3589916636" lon="5.71160277255">
		<tag k="name" v="Kultane" />
		<tag k="natural" v="hill" />
		<tag k="place" v="locality" />
		<tag k="ssr:stedsnr" v="483063" />
	</node>
	<node id="-470374" lat="60.3683944422" lon="5.73668611868">
		<tag k="name" v="Ytste Barmen" />
		<tag k="place" v="farm" />
		<tag k="ssr:stedsnr" v="483060" />
	</node>
	<node id="-470373" lat="60.3562944423" lon="5.73261389071">
		<tag k="name" v="Ormadalen" />
		<tag k="natural" v="valley" />
		<tag k="place" v="locality" />
		<tag k="ssr:stedsnr" v="483046" />
	</node>
	<node id="-470372" lat="60.3376305578" lon="5.79437778111">
		<tag k="name" v="Trælagjelet" />
		<tag k="natural" v="valley" />
		<tag k="place" v="locality" />
		<tag k="ssr:stedsnr" v="480953" />
	</node>
	<node id="-470371" lat="60.4064555542" lon="5.79088888743">
		<tag k="bridge" v="yes" />
		<tag k="layer" v="1" />
		<tag k="name" v="Vetle" />
		<tag k="ssr:stedsnr" v="472226" />
	</node>
	<node id="-470370" lat="60.3507166661" lon="5.87368332913">
		<tag k="name" v="Bjørnabakkane" />
		<tag k="natural" v="slope" />
		<tag k="place" v="locality" />
		<tag k="ssr:stedsnr" v="465958" />
	</node>
	<node id="-470369" lat="60.4363249992" lon="5.85131111599">
		<tag k="name" v="Klentangen" />
		<tag k="natural" v="cape" />
		<tag k="ssr:stedsnr" v="456965" />
	</node>
	<node id="-470368" lat="60.4437861144" lon="5.83702223014">
		<tag k="name" v="Svartabergslia" />
		<tag k="natural" v="slope" />
		<tag k="place" v="locality" />
		<tag k="ssr:stedsnr" v="456553" />
	</node>
	<node id="-470367" lat="60.4536361117" lon="5.87564167186">
		<tag k="name" v="Storholmen" />
		<tag k="place" v="islet" />
		<tag k="ssr:stedsnr" v="456548" />
	</node>
	<node id="-470366" lat="60.3776027767" lon="5.83695833805">
		<tag k="name" v="Dal" />
		<tag k="natural" v="valley" />
		<tag k="place" v="locality" />
		<tag k="ssr:stedsnr" v="456493" />
	</node>
	<node id="-470365" lat="60.4766944491" lon="5.91362500713">
		<tag k="name" v="Holebekken" />
		<tag k="ssr:stedsnr" v="456115" />
		<tag k="waterway" v="stream" />
	</node>
	<node id="-470364" lat="60.4284722183" lon="5.79952499416">
		<tag k="name" v="Kampane" />
		<tag k="natural" v="hill" />
		<tag k="place" v="locality" />
		<tag k="ssr:stedsnr" v="455417" />
	</node>
	<node id="-470363" lat="60.4239472234" lon="5.83479721926">
		<tag k="name" v="Instalia" />
		<tag k="natural" v="slope" />
		<tag k="place" v="locality" />
		<tag k="ssr:stedsnr" v="455407" />
	</node>
	<node id="-470362" lat="60.3783049781" lon="5.80151119216">
		<tag k="fixme" v="consider place=hamlet" />
		<tag k="name" v="Ulland" />
		<tag k="place" v="farm" />
		<tag k="ssr:stedsnr" v="455330" />
	</node>
	<node id="-470361" lat="60.4140222251" lon="5.76081945159">
		<tag k="historic" v="shieling" />
		<tag k="name" v="Heimasetret" />
		<tag k="place" v="locality" />
		<tag k="ssr:stedsnr" v="455263" />
	</node>
	<node id="-470360" lat="60.3887499973" lon="5.59947778456">
		<tag k="fixme" v="consider natural=peak for the most distinct mountains in the district" />
		<tag k="name" v="Gullnipa" />
		<tag k="natural" v="hill" />
		<tag k="place" v="locality" />
		<tag k="ssr:stedsnr" v="454999" />
	</node>
	<node id="-470359" lat="60.3824722194" lon="5.64775555978">
		<tag k="name" v="Nordbøhaugen" />
		<tag k="natural" v="hill" />
		<tag k="place" v="locality" />
		<tag k="ssr:stedsnr" v="454991" />
	</node>
	<node id="-470358" lat="60.4105277801" lon="5.77578611835">
		<tag k="fixme" v="consider natural=peak for the most distinct mountains in the district" />
		<tag k="name" v="Høgåsen" />
		<tag k="natural" v="hill" />
		<tag k="place" v="locality" />
		<tag k="ssr:stedsnr" v="454971" />
	</node>
	<node id="-470357" lat="60.400591668" lon="5.75965000161">
		<tag k="name" v="Helgatona" />
		<tag k="place" v="locality" />
		<tag k="ssr:stedsnr" v="454967" />
	</node>
	<node id="-470356" lat="60.3710527793" lon="5.66478888652">
		<tag k="name" v="Mørkevågen" />
		<tag k="natural" v="bay" />
		<tag k="ssr:stedsnr" v="454965" />
	</node>
	<node id="-470355" lat="60.4130932056" lon="5.73347146147">
		<tag k="fixme" v="consider place=hamlet" />
		<tag k="name" v="Nordvika" />
		<tag k="place" v="farm" />
		<tag k="ssr:stedsnr" v="454960" />
	</node>
	<node id="-470354" lat="60.3544194475" lon="5.69879167098">
		<tag k="name" v="Lonane" />
		<tag k="natural" v="wetland" />
		<tag k="ssr:stedsnr" v="454935" />
	</node>
	<node id="-470353" lat="60.3926777781" lon="5.78110833632">
		<tag k="name" v="Kolalia" />
		<tag k="natural" v="slope" />
		<tag k="place" v="locality" />
		<tag k="ssr:stedsnr" v="454805" />
	</node>
	<node id="-470352" lat="60.3660805534" lon="5.6440999957">
		<tag k="name" v="Jakthavnen" />
		<tag k="natural" v="bay" />
		<tag k="ssr:stedsnr" v="454645" />
	</node>
	<node id="-470351" lat="60.3969333332" lon="5.78626110207">
		<tag k="name" v="Nytveit" />
		<tag k="place" v="farm" />
		<tag k="ssr:stedsnr" v="454254" />
	</node>
	<node id="-470350" lat="60.3532194469" lon="5.60564443959">
		<tag k="name" v="Stora Brekkevatnet" />
		<tag k="natural" v="water" />
		<tag k="ssr:stedsnr" v="453653" />
		<tag k="water" v="lake" />
	</node>
	<node id="-470348" lat="60.3694388894" lon="5.74721389774">
		<tag k="name" v="Indre Barmen" />
		<tag k="place" v="farm" />
		<tag k="ssr:stedsnr" v="449300" />
	</node>
	<node id="-470347" lat="60.3562222191" lon="5.8463583285">
		<tag k="fixme" v="consider natural=peak for the most distinct mountains in the district" />
		<tag k="name" v="Gråfjellet" />
		<tag k="natural" v="hill" />
		<tag k="place" v="locality" />
		<tag k="ssr:stedsnr" v="431635" />
	</node>
	<node id="-470346" lat="60.3807222222" lon="5.87658610422">
		<tag k="name" v="Storlia" />
		<tag k="place" v="farm" />
		<tag k="ssr:stedsnr" v="430704" />
	</node>
	<node id="-470345" lat="60.3723694409" lon="5.91685277564">
		<tag k="name" v="Kvamsbotnen" />
		<tag k="natural" v="valley" />
		<tag k="place" v="locality" />
		<tag k="ssr:stedsnr" v="430677" />
	</node>
	<node id="-470344" lat="60.4313249984" lon="5.93100000497">
		<tag k="name" v="Hyttebotnen" />
		<tag k="natural" v="valley" />
		<tag k="place" v="locality" />
		<tag k="ssr:stedsnr" v="430396" />
	</node>
	<node id="-470343" lat="60.4575805923" lon="5.84610962031">
		<tag k="name" v="Skoradalstjørna" />
		<tag k="natural" v="water" />
		<tag k="ssr:stedsnr" v="430387" />
	</node>
	<node id="-470342" lat="60.4588027746" lon="5.95591667102">
		<tag k="name" v="Fagerdalsvatnet" />
		<tag k="natural" v="water" />
		<tag k="ssr:stedsnr" v="430383" />
	</node>
	<node id="-470341" lat="60.4539611124" lon="5.91523332926">
		<tag k="name" v="Sotabottshjellane" />
		<tag k="natural" v="hill" />
		<tag k="place" v="locality" />
		<tag k="ssr:stedsnr" v="430382" />
	</node>
	<node id="-470340" lat="60.4813138925" lon="5.97530833937">
		<tag k="name" v="Vestra Trongasmoget" />
		<tag k="natural" v="valley" />
		<tag k="place" v="locality" />
		<tag k="ssr:stedsnr" v="430358" />
	</node>
	<node id="-470339" lat="60.2974416667" lon="5.57420833002">
		<tag k="fixme" v="consider natural=peak for the most distinct mountains in the district" />
		<tag k="name" v="Selsfjellet" />
		<tag k="natural" v="hill" />
		<tag k="place" v="locality" />
		<tag k="ssr:stedsnr" v="430276" />
	</node>
	<node id="-470338" lat="60.3398083355" lon="5.84289443842">
		<tag k="name" v="Fagerdalen" />
		<tag k="natural" v="valley" />
		<tag k="place" v="locality" />
		<tag k="ssr:stedsnr" v="430224" />
	</node>
	<node id="-470337" lat="60.3396055549" lon="5.63241111797">
		<tag k="name" v="Hatlevika" />
		<tag k="natural" v="bay" />
		<tag k="ssr:stedsnr" v="430214" />
	</node>
	<node id="-470336" lat="60.3609875095" lon="5.72913744806">
		<tag k="name" v="Setratjørnane" />
		<tag k="natural" v="water" />
		<tag k="ssr:stedsnr" v="430170" />
		<tag k="water" v="lake" />
	</node>
	<node id="-470335" lat="60.3700805577" lon="5.70206667311">
		<tag k="name" v="Gaupholmen" />
		<tag k="place" v="islet" />
		<tag k="ssr:stedsnr" v="430153" />
	</node>
	<node id="-470334" lat="60.3717527772" lon="5.65809166493">
		<tag k="name" v="Skarsvåg" />
		<tag k="natural" v="bay" />
		<tag k="ssr:stedsnr" v="430149" />
	</node>
	<node id="-470333" lat="60.3996537411" lon="5.78360632009">
		<tag k="fixme" v="consider place=hamlet" />
		<tag k="name" v="Tveitarås" />
		<tag k="place" v="farm" />
		<tag k="ssr:stedsnr" v="430105" />
	</node>
	<node id="-470332" lat="60.3789666684" lon="5.89242222638">
		<tag k="name" v="Raunebottsdalen" />
		<tag k="natural" v="valley" />
		<tag k="place" v="locality" />
		<tag k="ssr:stedsnr" v="430654" />
	</node>
	<node id="-470331" lat="60.3564472236" lon="5.85639164493">
		<tag k="name" v="Kvanneviksvatnet" />
		<tag k="natural" v="water" />
		<tag k="ssr:stedsnr" v="430637" />
	</node>
	<node id="-470330" lat="60.3561833336" lon="5.86771943599">
		<tag k="name" v="Storagrøbotnen" />
		<tag k="natural" v="valley" />
		<tag k="old_name" v="Storegrøbotnen" />
		<tag k="place" v="locality" />
		<tag k="ssr:stedsnr" v="430635" />
	</node>
	<node id="-470329" lat="60.3662916641" lon="5.73159444977">
		<tag k="name" v="Porsmyra" />
		<tag k="natural" v="wetland" />
		<tag k="ssr:stedsnr" v="423062" />
	</node>
	<node id="-470328" lat="60.3613249998" lon="5.77137499866">
		<tag k="name" v="Høgehaugen" />
		<tag k="natural" v="hill" />
		<tag k="place" v="locality" />
		<tag k="ssr:stedsnr" v="423039" />
	</node>
	<node id="-470327" lat="60.3509305596" lon="5.75368610668">
		<tag k="name" v="Steinstølen" />
		<tag k="place" v="locality" />
		<tag k="ssr:stedsnr" v="423032" />
	</node>
	<node id="-470326" lat="60.3476333362" lon="5.70042499148">
		<tag k="name" v="Nevramyr" />
		<tag k="natural" v="wetland" />
		<tag k="ssr:stedsnr" v="419108" />
	</node>
	<node id="-470325" lat="60.3449555549" lon="5.65763056062">
		<tag k="name" v="Liodden" />
		<tag k="natural" v="cape" />
		<tag k="ssr:stedsnr" v="419099" />
	</node>
	<node id="-470324" lat="60.3400583341" lon="5.77836944191">
		<tag k="name" v="Klypehaugen" />
		<tag k="natural" v="hill" />
		<tag k="place" v="locality" />
		<tag k="ssr:stedsnr" v="419082" />
	</node>
	<node id="-470323" lat="60.3328333327" lon="5.70546388946">
		<tag k="name" v="Svartetjørna" />
		<tag k="natural" v="water" />
		<tag k="ssr:stedsnr" v="419037" />
	</node>
	<node id="-470322" lat="60.3439722226" lon="5.70770278346">
		<tag k="name" v="Moltemyrhaugane" />
		<tag k="natural" v="hill" />
		<tag k="place" v="locality" />
		<tag k="ssr:stedsnr" v="419035" />
	</node>
	<node id="-470321" lat="60.3410499976" lon="5.72305832804">
		<tag k="name" v="Geitalibekken" />
		<tag k="ssr:stedsnr" v="419030" />
		<tag k="waterway" v="stream" />
	</node>
	<node id="-470320" lat="60.3312444472" lon="5.7021638894">
		<tag k="name" v="Lømønet" />
		<tag k="place" v="locality" />
		<tag k="ssr:stedsnr" v="419016" />
	</node>
	<node id="-470319" lat="60.3917527775" lon="5.76791943628">
		<tag k="name" v="Steinslandsfjæra" />
		<tag k="natural" v="bay" />
		<tag k="ssr:stedsnr" v="267313" />
	</node>
	<node id="-470317" lat="60.3867468813" lon="5.76504619934">
		<tag k="alt_name" v="Indra Haga" />
		<tag k="name" v="Indre Haga" />
		<tag k="place" v="farm" />
		<tag k="ssr:stedsnr" v="267260" />
	</node>
	<node id="-470316" lat="60.4024861109" lon="5.72075277943">
		<tag k="fixme" v="multiple name tags, choose one and add the other to alt_name" />
		<tag k="name" v="Gubbevikneset;Nikkeneset;Framnes" />
		<tag k="natural" v="cape" />
		<tag k="ssr:stedsnr" v="267252" />
	</node>
	<node id="-470315" lat="60.5157194432" lon="5.96252499773">
		<tag k="fixme" v="consider natural=peak for the most distinct mountains in the district" />
		<tag k="name" v="Småbrekkebukken" />
		<tag k="natural" v="hill" />
		<tag k="place" v="locality" />
		<tag k="ssr:stedsnr" v="249982" />
	</node>
	<node id="-470314" lat="60.3834916708" lon="5.6655527797">
		<tag k="name" v="Storelva" />
		<tag k="ssr:stedsnr" v="249582" />
		<tag k="waterway" v="river" />
	</node>
	<node id="-470313" lat="60.3941888849" lon="5.85420555858">
		<tag k="fixme" v="consider natural=peak for the most distinct mountains in the district" />
		<tag k="name" v="Kinna" />
		<tag k="natural" v="hill" />
		<tag k="place" v="locality" />
		<tag k="ssr:stedsnr" v="248754" />
	</node>
	<node id="-470312" lat="60.3976618548" lon="5.88878552552">
		<tag k="name" v="Setratjørna" />
		<tag k="natural" v="water" />
		<tag k="ssr:stedsnr" v="248753" />
	</node>
	<node id="-470311" lat="60.3634294709" lon="5.91011562178">
		<tag k="name" v="Langatjørna" />
		<tag k="natural" v="water" />
		<tag k="ssr:stedsnr" v="248672" />
	</node>
	<node id="-470310" lat="60.3403166646" lon="5.91314722444">
		<tag k="name" v="Kjebotnen" />
		<tag k="natural" v="valley" />
		<tag k="place" v="locality" />
		<tag k="ssr:stedsnr" v="248598" />
	</node>
	<node id="-470309" lat="60.3916444418" lon="5.88233055776">
		<tag k="fixme" v="consider natural=peak for the most distinct mountains in the district" />
		<tag k="name" v="Børdalsfjellet" />
		<tag k="natural" v="hill" />
		<tag k="place" v="locality" />
		<tag k="ssr:stedsnr" v="248473" />
	</node>
	<node id="-470308" lat="60.405997226" lon="5.89773055308">
		<tag k="fixme" v="consider natural=peak for the most distinct mountains in the district" />
		<tag k="name" v="Vorefjellet" />
		<tag k="natural" v="hill" />
		<tag k="place" v="locality" />
		<tag k="ssr:stedsnr" v="248433" />
	</node>
	<node id="-470307" lat="60.4335694465" lon="5.84640833957">
		<tag k="name" v="Grønsdalsvatnet" />
		<tag k="natural" v="water" />
		<tag k="ssr:stedsnr" v="248415" />
		<tag k="water" v="lake" />
	</node>
	<node id="-470306" lat="60.4271194484" lon="5.84862777212">
		<tag k="name" v="Tøgjelet" />
		<tag k="natural" v="gorge" />
		<tag k="ssr:stedsnr" v="248402" />
	</node>
	<node id="-470305" lat="60.4518166671" lon="5.86531388219">
		<tag k="name" v="Kleivane" />
		<tag k="place" v="farm" />
		<tag k="ssr:stedsnr" v="248380" />
	</node>
	<node id="-470304" lat="60.4768472216" lon="5.89007778571">
		<tag k="name" v="Klungerdalsvatnet" />
		<tag k="natural" v="water" />
		<tag k="ssr:stedsnr" v="248342" />
	</node>
	<node id="-470303" lat="60.473480558" lon="5.89694722511">
		<tag k="name" v="Fonnabekken" />
		<tag k="ssr:stedsnr" v="248340" />
		<tag k="waterway" v="stream" />
	</node>
	<node id="-470302" lat="60.4816166689" lon="5.91558054928">
		<tag k="name" v="Holegjelet" />
		<tag k="natural" v="valley" />
		<tag k="place" v="locality" />
		<tag k="ssr:stedsnr" v="248309" />
	</node>
	<node id="-470301" lat="60.4913805553" lon="5.94834444474">
		<tag k="name" v="Lonane" />
		<tag k="place" v="locality" />
		<tag k="ssr:stedsnr" v="248300" />
	</node>
	<node id="-470300" lat="60.3292111107" lon="5.80036944692">
		<tag k="fixme" v="consider natural=peak for the most distinct mountains in the district" />
		<tag k="name" v="Trælen" />
		<tag k="natural" v="hill" />
		<tag k="place" v="locality" />
		<tag k="ssr:stedsnr" v="248229" />
	</node>
	<node id="-470299" lat="60.347805555" lon="5.68597221474">
		<tag k="name" v="Bakke" />
		<tag k="place" v="farm" />
		<tag k="ssr:stedsnr" v="248209" />
	</node>
	<node id="-470298" lat="60.3354638923" lon="5.62900555748">
		<tag k="name" v="Hildersvika" />
		<tag k="natural" v="bay" />
		<tag k="ssr:stedsnr" v="248206" />
	</node>
	<node id="-470297" lat="60.3783413919" lon="5.69194683215">
		<tag k="fixme" v="consider place=hamlet" />
		<tag k="name" v="Kleppe" />
		<tag k="place" v="farm" />
		<tag k="ssr:stedsnr" v="248145" />
	</node>
	<node id="-470296" lat="60.3769229151" lon="5.69791875284">
		<tag k="fixme" v="consider place=hamlet" />
		<tag k="name" v="Øvre-Kvernes" />
		<tag k="place" v="farm" />
		<tag k="ssr:stedsnr" v="248144" />
	</node>
	<node id="-470295" lat="60.3944611096" lon="5.67430000811">
		<tag k="name" v="Holdhus" />
		<tag k="place" v="farm" />
		<tag k="ssr:stedsnr" v="248099" />
	</node>
	<node id="-470294" lat="60.43133889" lon="5.82737499524">
		<tag k="name" v="Helleberget" />
		<tag k="natural" v="hill" />
		<tag k="place" v="locality" />
		<tag k="ssr:stedsnr" v="248066" />
	</node>
	<node id="-470293" lat="60.3589194474" lon="5.76049165913">
		<tag k="fixme" v="consider natural=peak for the most distinct mountains in the district" />
		<tag k="name" v="Skaråsen" />
		<tag k="natural" v="hill" />
		<tag k="place" v="locality" />
		<tag k="ssr:stedsnr" v="241051" />
	</node>
	<node id="-470292" lat="60.3681111073" lon="5.70502500583">
		<tag k="name" v="Hetleviki" />
		<tag k="natural" v="bay" />
		<tag k="ssr:stedsnr" v="241041" />
	</node>
	<node id="-470291" lat="60.3539666682" lon="5.79773889735">
		<tag k="name" v="Haugssetret" />
		<tag k="place" v="isolated_dwelling" />
		<tag k="ssr:stedsnr" v="241035" />
	</node>
	<node id="-470290" lat="60.3624972196" lon="5.77354166513">
		<tag k="name" v="Bjørkhilderhaugen" />
		<tag k="natural" v="hill" />
		<tag k="place" v="locality" />
		<tag k="ssr:stedsnr" v="241029" />
	</node>
	<node id="-470289" lat="60.3437083347" lon="5.81352778248">
		<tag k="name" v="Kvanndalsgjelet" />
		<tag k="natural" v="valley" />
		<tag k="place" v="locality" />
		<tag k="ssr:stedsnr" v="237946" />
	</node>
	<node id="-470288" lat="60.3335750044" lon="5.65571388885">
		<tag k="name" v="Ylstevika" />
		<tag k="natural" v="bay" />
		<tag k="ssr:stedsnr" v="237101" />
	</node>
	<node id="-470287" lat="60.3380888868" lon="5.71141666943">
		<tag k="name" v="Grytena" />
		<tag k="place" v="islet" />
		<tag k="ssr:stedsnr" v="237033" />
	</node>
	<node id="-470286" lat="60.3459919591" lon="5.71473913658">
		<tag k="name" v="Utløhaugtjørni" />
		<tag k="natural" v="water" />
		<tag k="ssr:stedsnr" v="237024" />
	</node>
	<node id="-470285" lat="60.3528277792" lon="5.79167500665">
		<tag k="name" v="Haugslii" />
		<tag k="natural" v="slope" />
		<tag k="place" v="locality" />
		<tag k="ssr:stedsnr" v="237019" />
	</node>
	<node id="-470284" lat="60.3578777801" lon="5.76925555164">
		<tag k="historic" v="shieling" />
		<tag k="name" v="Gamlasetret" />
		<tag k="place" v="locality" />
		<tag k="ssr:stedsnr" v="237020" />
	</node>
	<node id="-470283" lat="60.3333388866" lon="5.72512223096">
		<tag k="name" v="Heimsta Brunetjørna" />
		<tag k="natural" v="water" />
		<tag k="ssr:stedsnr" v="237002" />
		<tag k="water" v="pond" />
	</node>
	<node id="-470282" lat="60.3352972191" lon="5.66913333916">
		<tag k="name" v="Barlindehaugen" />
		<tag k="natural" v="hill" />
		<tag k="place" v="locality" />
		<tag k="ssr:stedsnr" v="237104" />
	</node>
	<node id="-470281" lat="60.3925361108" lon="5.66208610859">
		<tag k="layer" v="-1" />
		<tag k="name" v="Grasdal" />
		<tag k="ssr:stedsnr" v="226493" />
		<tag k="tunnel" v="yes" />
	</node>
	<node id="-470280" lat="60.3565166681" lon="5.88497221959">
		<tag k="name" v="Alsheller" />
		<tag k="place" v="locality" />
		<tag k="ssr:stedsnr" v="222953" />
	</node>
	<node id="-470279" lat="60.3629083315" lon="5.84200278422">
		<tag k="name" v="Krærna" />
		<tag k="natural" v="valley" />
		<tag k="place" v="locality" />
		<tag k="ssr:stedsnr" v="222949" />
	</node>
	<node id="-470278" lat="60.3632888883" lon="5.82141111596">
		<tag k="name" v="Tverrelvi" />
		<tag k="ssr:stedsnr" v="222948" />
		<tag k="waterway" v="stream" />
	</node>
	<node id="-470277" lat="60.4518555578" lon="5.88782500228">
		<tag k="name" v="Osdalen" />
		<tag k="natural" v="valley" />
		<tag k="place" v="locality" />
		<tag k="ssr:stedsnr" v="213945" />
	</node>
	<node id="-470276" lat="60.4444083308" lon="5.83304166354">
		<tag k="name" v="Svartabergstjørna" />
		<tag k="natural" v="water" />
		<tag k="ssr:stedsnr" v="213594" />
	</node>
	<node id="-470275" lat="60.4512694459" lon="5.87194721511">
		<tag k="name" v="Elvadalen" />
		<tag k="natural" v="valley" />
		<tag k="place" v="locality" />
		<tag k="ssr:stedsnr" v="213592" />
	</node>
	<node id="-470274" lat="60.4485972233" lon="5.84910833683">
		<tag k="name" v="Storurhjellane" />
		<tag k="natural" v="hill" />
		<tag k="place" v="locality" />
		<tag k="ssr:stedsnr" v="213591" />
	</node>
	<node id="-470273" lat="60.4283499968" lon="5.83703610611">
		<tag k="ford" v="yes" />
		<tag k="name" v="Dyravadet" />
		<tag k="place" v="locality" />
		<tag k="ssr:stedsnr" v="213426" />
	</node>
	<node id="-470272" lat="60.42200833" lon="5.82921944615">
		<tag k="name" v="Ytstalia" />
		<tag k="natural" v="slope" />
		<tag k="place" v="locality" />
		<tag k="ssr:stedsnr" v="213385" />
	</node>
	<node id="-470271" lat="60.4250694487" lon="5.84589999224">
		<tag k="name" v="Sauadalen" />
		<tag k="natural" v="valley" />
		<tag k="place" v="locality" />
		<tag k="ssr:stedsnr" v="213344" />
	</node>
	<node id="-470270" lat="60.426658332" lon="5.84295833548">
		<tag k="name" v="Skavhilderane" />
		<tag k="place" v="locality" />
		<tag k="ssr:stedsnr" v="213342" />
	</node>
	<node id="-470269" lat="60.4650888868" lon="5.89050000235">
		<tag k="name" v="Stølabekken" />
		<tag k="ssr:stedsnr" v="213101" />
		<tag k="waterway" v="stream" />
	</node>
	<node id="-470268" lat="60.4629694478" lon="5.88178888392">
		<tag k="name" v="Leinane" />
		<tag k="natural" v="hill" />
		<tag k="place" v="locality" />
		<tag k="ssr:stedsnr" v="213098" />
	</node>
	<node id="-470267" lat="60.4018080719" lon="5.83163724341">
		<tag k="name" v="Svartatjørna" />
		<tag k="natural" v="water" />
		<tag k="ssr:stedsnr" v="212494" />
	</node>
	<node id="-470266" lat="60.4010777743" lon="5.83418889248">
		<tag k="name" v="Høghaugen" />
		<tag k="natural" v="hill" />
		<tag k="place" v="locality" />
		<tag k="ssr:stedsnr" v="212493" />
	</node>
	<node id="-470265" lat="60.4026805582" lon="5.82635833503">
		<tag k="name" v="Stigane" />
		<tag k="natural" v="hill" />
		<tag k="place" v="locality" />
		<tag k="ssr:stedsnr" v="212487" />
	</node>
	<node id="-470264" lat="60.3931222245" lon="5.84944167378">
		<tag k="name" v="Kinnapresten" />
		<tag k="place" v="locality" />
		<tag k="ssr:stedsnr" v="212424" />
	</node>
	<node id="-470263" lat="60.3965527785" lon="5.84346944705">
		<tag k="name" v="Geitaryggen" />
		<tag k="natural" v="ridge" />
		<tag k="place" v="locality" />
		<tag k="ssr:stedsnr" v="212419" />
	</node>
	<node id="-470262" lat="60.3871972247" lon="5.77430000378">
		<tag k="name" v="Neverhaugen" />
		<tag k="natural" v="hill" />
		<tag k="place" v="locality" />
		<tag k="ssr:stedsnr" v="212141" />
	</node>
	<node id="-470261" lat="60.3488083315" lon="5.65574722085">
		<tag k="name" v="Knurren" />
		<tag k="natural" v="bay" />
		<tag k="ssr:stedsnr" v="211931" />
	</node>
	<node id="-470260" lat="60.3344555577" lon="5.60104721649">
		<tag k="name" v="Eikelunden" />
		<tag k="natural" v="slope" />
		<tag k="place" v="locality" />
		<tag k="ssr:stedsnr" v="211914" />
	</node>
	<node id="-470259" lat="60.3444833307" lon="5.63477499457">
		<tag k="name" v="Skaret" />
		<tag k="natural" v="valley" />
		<tag k="place" v="locality" />
		<tag k="ssr:stedsnr" v="211908" />
	</node>
	<node id="-470258" lat="60.3645555552" lon="5.63848611342">
		<tag k="name" v="Hatlefloten" />
		<tag k="place" v="locality" />
		<tag k="ssr:stedsnr" v="211627" />
	</node>
	<node id="-470257" lat="60.3547888913" lon="5.62911667165">
		<tag k="name" v="Hestastigane" />
		<tag k="natural" v="slope" />
		<tag k="place" v="locality" />
		<tag k="ssr:stedsnr" v="210658" />
	</node>
	<node id="-470256" lat="60.3958144132" lon="5.73722946017">
		<tag k="name" v="Bjelkarvika" />
		<tag k="natural" v="bay" />
		<tag k="ssr:stedsnr" v="206320" />
	</node>
	<node id="-470255" lat="60.3521388905" lon="5.86351945018">
		<tag k="name" v="Holmavasskultane" />
		<tag k="natural" v="hill" />
		<tag k="place" v="locality" />
		<tag k="ssr:stedsnr" v="188667" />
	</node>
	<node id="-470254" lat="60.4839555568" lon="5.98441943563">
		<tag k="fixme" v="consider natural=peak for the most distinct mountains in the district" />
		<tag k="name" v="Bjørnaknausen" />
		<tag k="natural" v="hill" />
		<tag k="place" v="locality" />
		<tag k="ssr:stedsnr" v="188358" />
	</node>
	<node id="-470253" lat="60.3199439936" lon="5.62608273541">
		<tag k="fixme" v="consider place=hamlet" />
		<tag k="name" v="Rolsvåg" />
		<tag k="place" v="farm" />
		<tag k="ssr:stedsnr" v="188271" />
	</node>
	<node id="-470252" lat="60.3806083303" lon="5.63430833877">
		<tag k="fixme" v="consider natural=peak for the most distinct mountains in the district" />
		<tag k="name" v="Rennebrotet" />
		<tag k="natural" v="hill" />
		<tag k="place" v="locality" />
		<tag k="ssr:stedsnr" v="188187" />
	</node>
	<node id="-470251" lat="60.3885972185" lon="5.72038332834">
		<tag k="name" v="Tranholmen" />
		<tag k="place" v="islet" />
		<tag k="ssr:stedsnr" v="188162" />
	</node>
	<node id="-470250" lat="60.391202778" lon="5.78413056042">
		<tag k="name" v="Tysselandsdalen" />
		<tag k="natural" v="valley" />
		<tag k="place" v="locality" />
		<tag k="ssr:stedsnr" v="188158" />
	</node>
	<node id="-470249" lat="60.3867805513" lon="5.85653610404">
		<tag k="name" v="Røssebotnen" />
		<tag k="natural" v="valley" />
		<tag k="place" v="locality" />
		<tag k="ssr:stedsnr" v="187683" />
	</node>
	<node id="-470248" lat="60.3810583307" lon="5.88556110732">
		<tag k="name" v="Fossen bratte" />
		<tag k="natural" v="waterfall" />
		<tag k="ssr:stedsnr" v="187681" />
	</node>
	<node id="-470247" lat="60.3707416673" lon="5.85199166149">
		<tag k="fixme" v="consider natural=peak for the most distinct mountains in the district" />
		<tag k="name" v="Vardanova" />
		<tag k="natural" v="hill" />
		<tag k="place" v="locality" />
		<tag k="ssr:stedsnr" v="187631" />
	</node>
	<node id="-470246" lat="60.3627916695" lon="5.8908666725">
		<tag k="name" v="Stutabottselva" />
		<tag k="ssr:stedsnr" v="187626" />
		<tag k="waterway" v="stream" />
	</node>
	<node id="-470245" lat="60.3704611147" lon="5.9149944477">
		<tag k="fixme" v="consider natural=peak for the most distinct mountains in the district" />
		<tag k="name" v="Kvamsbottshorga" />
		<tag k="natural" v="hill" />
		<tag k="place" v="locality" />
		<tag k="ssr:stedsnr" v="187622" />
	</node>
	<node id="-470244" lat="60.338436112" lon="5.90378889701">
		<tag k="name" v="Danielsslåtten" />
		<tag k="place" v="locality" />
		<tag k="ssr:stedsnr" v="187548" />
	</node>
	<node id="-470243" lat="60.4783027798" lon="5.91456389597">
		<tag k="name" v="Holene" />
		<tag k="natural" v="valley" />
		<tag k="place" v="locality" />
		<tag k="ssr:stedsnr" v="187339" />
	</node>
	<node id="-470242" lat="60.4704527814" lon="5.91020000716">
		<tag k="name" v="Lavranshola" />
		<tag k="natural" v="valley" />
		<tag k="place" v="locality" />
		<tag k="ssr:stedsnr" v="187337" />
	</node>
	<node id="-470241" lat="60.4601555594" lon="5.95648056198">
		<tag k="name" v="Fagerdalen" />
		<tag k="natural" v="valley" />
		<tag k="place" v="locality" />
		<tag k="ssr:stedsnr" v="187327" />
	</node>
	<node id="-470240" lat="60.4396666643" lon="5.89339166736">
		<tag k="name" v="Kvanndalsvatnet" />
		<tag k="natural" v="water" />
		<tag k="ssr:stedsnr" v="187403" />
		<tag k="water" v="lake" />
	</node>
	<node id="-470239" lat="60.4323591363" lon="5.91264592672">
		<tag k="name" v="Kalvagjela" />
		<tag k="natural" v="gorge" />
		<tag k="ssr:stedsnr" v="187385" />
	</node>
	<node id="-470238" lat="60.4532472224" lon="5.87458888206">
		<tag k="name" v="Kleivavatnet" />
		<tag k="natural" v="water" />
		<tag k="ssr:stedsnr" v="187367" />
		<tag k="water" v="lake" />
	</node>
	<node id="-470237" lat="60.4614771476" lon="5.95463078802">
		<tag k="name" v="Fagerdalstjørna" />
		<tag k="natural" v="water" />
		<tag k="ssr:stedsnr" v="187363" />
	</node>
	<node id="-470236" lat="60.2980823862" lon="5.58377074212">
		<tag k="name" v="Botnavatnet" />
		<tag k="natural" v="water" />
		<tag k="ssr:stedsnr" v="187271" />
	</node>
	<node id="-470235" lat="60.3390277786" lon="5.80156667326">
		<tag k="alt_name" v="Tindafjell" />
		<tag k="fixme" v="consider natural=peak for the most distinct mountains in the district" />
		<tag k="name" v="Tindafjellet" />
		<tag k="natural" v="hill" />
		<tag k="place" v="locality" />
		<tag k="ssr:stedsnr" v="187219" />
	</node>
	<node id="-470234" lat="60.3852388929" lon="5.79065833235">
		<tag k="name" v="Snauhaugen" />
		<tag k="natural" v="hill" />
		<tag k="place" v="locality" />
		<tag k="ssr:stedsnr" v="187147" />
	</node>
	<node id="-470233" lat="60.3634138888" lon="5.81261111427">
		<tag k="name" v="Holmane" />
		<tag k="place" v="farm" />
		<tag k="ssr:stedsnr" v="187182" />
	</node>
	<node id="-470232" lat="60.364833329" lon="5.66852499563">
		<tag k="fixme" v="consider natural=peak for the most distinct mountains in the district" />
		<tag k="name" v="Liahædda" />
		<tag k="natural" v="hill" />
		<tag k="place" v="locality" />
		<tag k="ssr:stedsnr" v="187171" />
	</node>
	<node id="-470231" lat="60.4080805569" lon="5.7690583389">
		<tag k="name" v="Dalane" />
		<tag k="place" v="farm" />
		<tag k="ssr:stedsnr" v="187086" />
	</node>
	<node id="-470230" lat="60.4279388851" lon="5.72492778321">
		<tag k="name" v="Instatjørna" />
		<tag k="natural" v="water" />
		<tag k="ssr:stedsnr" v="187063" />
		<tag k="water" v="lake" />
	</node>
	<node id="-470229" lat="60.4366361122" lon="5.69579722417">
		<tag k="fixme" v="multiple name tags, choose one and add the other to alt_name; consider natural=peak for the most distinct mountains in the district" />
		<tag k="name" v="Raudnipa;Trollabotsvarden" />
		<tag k="natural" v="hill" />
		<tag k="place" v="locality" />
		<tag k="ssr:stedsnr" v="187042" />
	</node>
	<node id="-470228" lat="60.429799998" lon="5.75308610326">
		<tag k="name" v="Fitjavatnet" />
		<tag k="natural" v="water" />
		<tag k="ssr:stedsnr" v="187039" />
		<tag k="water" v="lake" />
	</node>
	<node id="-470227" lat="60.4579386303" lon="5.80758371202">
		<tag k="name" v="Rossatjørna" />
		<tag k="natural" v="water" />
		<tag k="ssr:stedsnr" v="187018" />
	</node>
	<node id="-470226" lat="60.3409444447" lon="5.89526665977">
		<tag k="fixme" v="consider natural=peak for the most distinct mountains in the district" />
		<tag k="name" v="Frølandsfjellet" />
		<tag k="natural" v="hill" />
		<tag k="place" v="locality" />
		<tag k="ssr:stedsnr" v="180751" />
	</node>
	<node id="-470225" lat="60.3639694471" lon="5.75633055968">
		<tag k="name" v="Hovda" />
		<tag k="natural" v="hill" />
		<tag k="place" v="locality" />
		<tag k="ssr:stedsnr" v="180055" />
	</node>
	<node id="-470224" lat="60.3620333314" lon="5.74560555001">
		<tag k="name" v="Løypehaugen" />
		<tag k="natural" v="hill" />
		<tag k="place" v="locality" />
		<tag k="ssr:stedsnr" v="180049" />
	</node>
	<node id="-470223" lat="60.3685916648" lon="5.80203054776">
		<tag k="name" v="Storemyrhaugen" />
		<tag k="natural" v="hill" />
		<tag k="place" v="locality" />
		<tag k="ssr:stedsnr" v="180033" />
	</node>
	<node id="-470222" lat="60.3536694403" lon="5.74314445172">
		<tag k="name" v="Dyråsgjelet" />
		<tag k="natural" v="valley" />
		<tag k="place" v="locality" />
		<tag k="ssr:stedsnr" v="180022" />
	</node>
	<node id="-470221" lat="60.3365666696" lon="5.68256389356">
		<tag k="name" v="Tjørndalen" />
		<tag k="natural" v="valley" />
		<tag k="place" v="locality" />
		<tag k="ssr:stedsnr" v="176138" />
	</node>
	<node id="-470220" lat="60.3325472207" lon="5.66838055759">
		<tag k="name" v="Lyningshaugen" />
		<tag k="natural" v="hill" />
		<tag k="place" v="locality" />
		<tag k="ssr:stedsnr" v="176119" />
	</node>
	<node id="-470219" lat="60.3468944489" lon="5.69313611423">
		<tag k="name" v="Øpstebøelva" />
		<tag k="ssr:stedsnr" v="176105" />
		<tag k="waterway" v="stream" />
	</node>
	<node id="-470218" lat="60.3446222244" lon="5.70178054857">
		<tag k="name" v="Høgaløypet" />
		<tag k="natural" v="valley" />
		<tag k="place" v="locality" />
		<tag k="ssr:stedsnr" v="176099" />
	</node>
	<node id="-470217" lat="60.3403833341" lon="5.71024722015">
		<tag k="name" v="Kvalen" />
		<tag k="place" v="islet" />
		<tag k="ssr:stedsnr" v="176033" />
	</node>
	<node id="-470216" lat="60.3420972195" lon="5.71958610716">
		<tag k="name" v="Geitalia" />
		<tag k="natural" v="slope" />
		<tag k="place" v="locality" />
		<tag k="ssr:stedsnr" v="176031" />
	</node>
	<node id="-470215" lat="60.3425527805" lon="5.71745000826">
		<tag k="name" v="Geitaliholmen" />
		<tag k="place" v="islet" />
		<tag k="ssr:stedsnr" v="176029" />
	</node>
	<node id="-470214" lat="60.3474861073" lon="5.71058055745">
		<tag k="name" v="Gamlasetertjørni" />
		<tag k="natural" v="water" />
		<tag k="ssr:stedsnr" v="176027" />
	</node>
	<node id="-470213" lat="60.3621611098" lon="5.65392499658">
		<tag k="name" v="Øyahaugen" />
		<tag k="natural" v="hill" />
		<tag k="place" v="locality" />
		<tag k="ssr:stedsnr" v="172166" />
	</node>
	<node id="-470212" lat="60.4505638854" lon="5.87320556039">
		<tag k="bridge" v="yes" />
		<tag k="layer" v="1" />
		<tag k="name" v="Kleivane" />
		<tag k="ssr:stedsnr" v="168225" />
	</node>
	<node id="-470211" lat="60.3821500027" lon="5.89131110504">
		<tag k="layer" v="-1" />
		<tag k="name" v="Fossenbratte" />
		<tag k="ssr:stedsnr" v="165448" />
		<tag k="tunnel" v="yes" />
	</node>
	<node id="-470210" lat="60.3624111144" lon="5.85253611886">
		<tag k="name" v="Moltemyri" />
		<tag k="natural" v="wetland" />
		<tag k="ssr:stedsnr" v="161945" />
	</node>
	<node id="-470209" lat="60.4459805537" lon="5.85615554846">
		<tag k="name" v="Åridalen" />
		<tag k="natural" v="valley" />
		<tag k="place" v="locality" />
		<tag k="ssr:stedsnr" v="152545" />
	</node>
	<node id="-470208" lat="60.4278833337" lon="5.83162777673">
		<tag k="name" v="Brennehaugen" />
		<tag k="natural" v="hill" />
		<tag k="place" v="locality" />
		<tag k="ssr:stedsnr" v="152433" />
	</node>
	<node id="-470207" lat="60.3973027763" lon="5.87216110559">
		<tag k="name" v="Eriksmuren" />
		<tag k="natural" v="hill" />
		<tag k="place" v="locality" />
		<tag k="ssr:stedsnr" v="151447" />
	</node>
	<node id="-470206" lat="60.3810527737" lon="5.77116110571">
		<tag k="name" v="Gryvlet" />
		<tag k="natural" v="gorge" />
		<tag k="ssr:stedsnr" v="151340" />
	</node>
	<node id="-470205" lat="60.4180055533" lon="5.7557194468">
		<tag k="name" v="Myrland" />
		<tag k="place" v="farm" />
		<tag k="ssr:stedsnr" v="151301" />
	</node>
	<node id="-470204" lat="60.3942603648" lon="5.69648507439">
		<tag k="name" v="Raunekleivtjørna" />
		<tag k="natural" v="water" />
		<tag k="ssr:stedsnr" v="150980" />
	</node>
	<node id="-470203" lat="60.4122999986" lon="5.77014444337">
		<tag k="name" v="Terhaugane" />
		<tag k="natural" v="hill" />
		<tag k="place" v="locality" />
		<tag k="ssr:stedsnr" v="150958" />
	</node>
	<node id="-470202" lat="60.3706999992" lon="5.6986861044">
		<tag k="name" v="Skutevika" />
		<tag k="natural" v="bay" />
		<tag k="ssr:stedsnr" v="150942" />
	</node>
	<node id="-470201" lat="60.353905559" lon="5.68522777339">
		<tag k="name" v="Sandvikasanden" />
		<tag k="place" v="islet" />
		<tag k="ssr:stedsnr" v="150915" />
	</node>
	<node id="-470200" lat="60.3496027786" lon="5.6967416672">
		<tag k="name" v="Lyninghaugane" />
		<tag k="natural" v="hill" />
		<tag k="place" v="locality" />
		<tag k="ssr:stedsnr" v="150896" />
	</node>
	<node id="-470199" lat="60.3630027797" lon="5.64408611075">
		<tag k="name" v="Skreiddalen" />
		<tag k="natural" v="valley" />
		<tag k="place" v="locality" />
		<tag k="ssr:stedsnr" v="150606" />
	</node>
	<node id="-470198" lat="60.3301437495" lon="5.69365490567">
		<tag k="fixme" v="consider place=hamlet" />
		<tag k="name" v="Sævell" />
		<tag k="place" v="farm" />
		<tag k="ssr:stedsnr" v="145481" />
	</node>
	<node id="-470196" lat="60.4868142437" lon="5.8999886307">
		<tag k="name" v="Kvanngrøtjørna" />
		<tag k="natural" v="water" />
		<tag k="ssr:stedsnr" v="127346" />
	</node>
	<node id="-470195" lat="60.4945361083" lon="5.96304999645">
		<tag k="name" v="Øvsta Dukavatnet" />
		<tag k="natural" v="water" />
		<tag k="ssr:stedsnr" v="127335" />
		<tag k="water" v="lake" />
	</node>
	<node id="-470194" lat="60.4905333332" lon="5.90331388757">
		<tag k="name" v="Hytteelva" />
		<tag k="ssr:stedsnr" v="127370" />
		<tag k="waterway" v="stream" />
	</node>
	<node id="-470193" lat="60.383374997" lon="5.58923332714">
		<tag k="fixme" v="consider natural=peak for the most distinct mountains in the district" />
		<tag k="name" v="Blåmanen" />
		<tag k="natural" v="hill" />
		<tag k="place" v="locality" />
		<tag k="ssr:stedsnr" v="127143" />
	</node>
	<node id="-470192" lat="60.3885833337" lon="5.67455277003">
		<tag k="name" v="Haugalia" />
		<tag k="natural" v="slope" />
		<tag k="place" v="locality" />
		<tag k="ssr:stedsnr" v="127142" />
	</node>
	<node id="-470191" lat="60.3935361068" lon="5.79067222354">
		<tag k="fixme" v="consider natural=peak for the most distinct mountains in the district" />
		<tag k="name" v="Solåsen" />
		<tag k="natural" v="hill" />
		<tag k="place" v="locality" />
		<tag k="ssr:stedsnr" v="127134" />
	</node>
	<node id="-470190" lat="60.3764866299" lon="5.65063631282">
		<tag k="fixme" v="consider place=hamlet" />
		<tag k="name" v="Trengereid" />
		<tag k="place" v="farm" />
		<tag k="ssr:stedsnr" v="127158" />
	</node>
	<node id="-470189" lat="60.3272055548" lon="5.8447444385">
		<tag k="name" v="Høganova" />
		<tag k="natural" v="hill" />
		<tag k="place" v="locality" />
		<tag k="ssr:stedsnr" v="126550" />
	</node>
	<node id="-470188" lat="60.4027611101" lon="5.88711389296">
		<tag k="fixme" v="consider natural=peak for the most distinct mountains in the district" />
		<tag k="name" v="Huldabottsfjellet" />
		<tag k="natural" v="hill" />
		<tag k="place" v="locality" />
		<tag k="ssr:stedsnr" v="126484" />
	</node>
	<node id="-470187" lat="60.4078850104" lon="5.85447294615">
		<tag k="name" v="Smistabbatjørna" />
		<tag k="natural" v="water" />
		<tag k="ssr:stedsnr" v="126442" />
	</node>
	<node id="-470186" lat="60.4128861104" lon="5.86133054862">
		<tag k="name" v="Lonatjørna" />
		<tag k="natural" v="water" />
		<tag k="ssr:stedsnr" v="126441" />
	</node>
	<node id="-470185" lat="60.3407583331" lon="5.6357527852">
		<tag k="name" v="Austavik" />
		<tag k="place" v="farm" />
		<tag k="ssr:stedsnr" v="126205" />
	</node>
	<node id="-470184" lat="60.3318061892" lon="5.6260277772">
		<tag k="fixme" v="consider place=hamlet" />
		<tag k="name" v="Våga" />
		<tag k="place" v="farm" />
		<tag k="ssr:stedsnr" v="126201" />
	</node>
	<node id="-470183" lat="60.4170750013" lon="5.8469499964">
		<tag k="landuse" v="meadow" />
		<tag k="name" v="Slåtta" />
		<tag k="ssr:stedsnr" v="126472" />
	</node>
	<node id="-470182" lat="60.4414951894" lon="5.84768548241">
		<tag k="fixme" v="consider place=hamlet" />
		<tag k="name" v="Grønsdalen" />
		<tag k="place" v="farm" />
		<tag k="ssr:stedsnr" v="126382" />
	</node>
	<node id="-470181" lat="60.4761250034" lon="5.92790277223">
		<tag k="name" v="Dukabotnen" />
		<tag k="natural" v="valley" />
		<tag k="place" v="locality" />
		<tag k="ssr:stedsnr" v="126370" />
	</node>
	<node id="-470180" lat="60.2940499434" lon="5.58355192849">
		<tag k="name" v="Sætertjørna" />
		<tag k="natural" v="water" />
		<tag k="ssr:stedsnr" v="126254" />
	</node>
	<node id="-470179" lat="60.4215944457" lon="5.81789445308">
		<tag k="name" v="Fiskevatnet" />
		<tag k="natural" v="water" />
		<tag k="ssr:stedsnr" v="126073" />
		<tag k="water" v="lake" />
	</node>
	<node id="-470178" lat="60.4295388849" lon="5.80832222983">
		<tag k="name" v="Øvrebø" />
		<tag k="place" v="farm" />
		<tag k="ssr:stedsnr" v="126064" />
	</node>
	<node id="-470177" lat="60.365986755" lon="5.69662179227">
		<tag k="fixme" v="consider place=hamlet" />
		<tag k="name" v="Gaupholm" />
		<tag k="place" v="farm" />
		<tag k="ssr:stedsnr" v="126147" />
	</node>
	<node id="-470176" lat="60.3943228471" lon="5.64728619802">
		<tag k="name" v="Måsatjørna" />
		<tag k="natural" v="water" />
		<tag k="ssr:stedsnr" v="126102" />
	</node>
	<node id="-470175" lat="60.4586916692" lon="5.79693610364">
		<tag k="fixme" v="consider natural=peak for the most distinct mountains in the district" />
		<tag k="name" v="Stabben" />
		<tag k="natural" v="hill" />
		<tag k="place" v="locality" />
		<tag k="ssr:stedsnr" v="126021" />
	</node>
	<node id="-470174" lat="60.3533249977" lon="5.81904443589">
		<tag k="name" v="Myrane" />
		<tag k="natural" v="wetland" />
		<tag k="ssr:stedsnr" v="119042" />
	</node>
	<node id="-470173" lat="60.3572638919" lon="5.81418888877">
		<tag k="name" v="Kikedalselvi" />
		<tag k="ssr:stedsnr" v="119043" />
		<tag k="waterway" v="river" />
	</node>
	<node id="-470172" lat="60.3383694413" lon="5.69539443697">
		<tag k="name" v="Aksla" />
		<tag k="place" v="locality" />
		<tag k="ssr:stedsnr" v="116127" />
	</node>
	<node id="-470171" lat="60.3379499999" lon="5.67747221644">
		<tag k="name" v="Skjenet" />
		<tag k="natural" v="hill" />
		<tag k="place" v="locality" />
		<tag k="ssr:stedsnr" v="116111" />
	</node>
	<node id="-470170" lat="60.3235277802" lon="5.77077499442">
		<tag k="name" v="Skodvasshaugen" />
		<tag k="natural" v="hill" />
		<tag k="place" v="locality" />
		<tag k="ssr:stedsnr" v="116080" />
	</node>
	<node id="-470169" lat="60.327880553" lon="5.71924444142">
		<tag k="name" v="Seterdalen" />
		<tag k="natural" v="valley" />
		<tag k="place" v="locality" />
		<tag k="ssr:stedsnr" v="116042" />
	</node>
	<node id="-470168" lat="60.3340583339" lon="5.70221388656">
		<tag k="name" v="Skonholtet" />
		<tag k="place" v="locality" />
		<tag k="ssr:stedsnr" v="116015" />
	</node>
	<node id="-470167" lat="60.3554833329" lon="5.84723610372">
		<tag k="name" v="Vigrabotnen" />
		<tag k="natural" v="valley" />
		<tag k="place" v="locality" />
		<tag k="ssr:stedsnr" v="116921" />
	</node>
	<node id="-470166" lat="60.3339638845" lon="5.62672499525">
		<tag k="bridge" v="yes" />
		<tag k="layer" v="1" />
		<tag k="name" v="Våge" />
		<tag k="ssr:stedsnr" v="108235" />
	</node>
	<node id="-470165" lat="60.3241888914" lon="5.62387499235">
		<tag k="bridge" v="yes" />
		<tag k="layer" v="1" />
		<tag k="name" v="Bykleiva" />
		<tag k="ssr:stedsnr" v="108223" />
	</node>
	<node id="-470164" lat="60.369033336" lon="5.74796665775">
		<tag k="bridge" v="yes" />
		<tag k="layer" v="1" />
		<tag k="name" v="Barmstøl" />
		<tag k="ssr:stedsnr" v="108219" />
	</node>
	<node id="-470163" lat="60.3590083379" lon="5.88504167453">
		<tag k="name" v="Helvetesbotnen" />
		<tag k="natural" v="valley" />
		<tag k="place" v="locality" />
		<tag k="ssr:stedsnr" v="101964" />
	</node>
	<node id="-470162" lat="60.43966111" lon="5.85014722588">
		<tag k="name" v="Vetlåsneset" />
		<tag k="natural" v="cape" />
		<tag k="ssr:stedsnr" v="92969" />
	</node>
	<node id="-470161" lat="60.4406944425" lon="5.85133888744">
		<tag k="name" v="Nausttangen" />
		<tag k="natural" v="cape" />
		<tag k="ssr:stedsnr" v="92968" />
	</node>
	<node id="-470160" lat="60.3820944443" lon="5.89753889098">
		<tag k="name" v="Storstova" />
		<tag k="natural" v="slope" />
		<tag k="place" v="locality" />
		<tag k="ssr:stedsnr" v="92616" />
	</node>
	<node id="-470159" lat="60.4522888864" lon="5.86524445127">
		<tag k="name" v="Hilderen" />
		<tag k="place" v="locality" />
		<tag k="ssr:stedsnr" v="92560" />
	</node>
	<node id="-470158" lat="60.4019166699" lon="5.91699722806">
		<tag k="name" v="Teigaelva" />
		<tag k="ssr:stedsnr" v="91636" />
		<tag k="waterway" v="river" />
	</node>
	<node id="-470157" lat="60.4050499977" lon="5.84902222381">
		<tag k="name" v="Fossabrekka" />
		<tag k="natural" v="slope" />
		<tag k="place" v="locality" />
		<tag k="ssr:stedsnr" v="91523" />
	</node>
	<node id="-470156" lat="60.4065416667" lon="5.83877777689">
		<tag k="name" v="Kleivane" />
		<tag k="natural" v="slope" />
		<tag k="place" v="locality" />
		<tag k="ssr:stedsnr" v="91517" />
	</node>
	<node id="-470155" lat="60.4190333355" lon="5.80888056278">
		<tag k="name" v="Vetlebotnen" />
		<tag k="natural" v="valley" />
		<tag k="place" v="locality" />
		<tag k="ssr:stedsnr" v="91510" />
	</node>
	<node id="-470154" lat="60.4057222233" lon="5.83074723056">
		<tag k="name" v="Smogabekken" />
		<tag k="ssr:stedsnr" v="91453" />
		<tag k="waterway" v="stream" />
	</node>
	<node id="-470153" lat="60.4227833299" lon="5.83571110851">
		<tag k="name" v="Kjerringadalen" />
		<tag k="natural" v="valley" />
		<tag k="place" v="locality" />
		<tag k="ssr:stedsnr" v="91400" />
	</node>
	<node id="-470152" lat="60.3776972209" lon="5.81384444127">
		<tag k="name" v="Apalluren" />
		<tag k="natural" v="hill" />
		<tag k="place" v="locality" />
		<tag k="ssr:stedsnr" v="91387" />
	</node>
	<node id="-470151" lat="60.3760333293" lon="5.79279445007">
		<tag k="fixme" v="consider natural=peak for the most distinct mountains in the district" />
		<tag k="name" v="Såta" />
		<tag k="natural" v="hill" />
		<tag k="ssr:stedsnr" v="91278" />
	</node>
	<node id="-470150" lat="60.4170277774" lon="5.83478888825">
		<tag k="name" v="Sjurane" />
		<tag k="place" v="locality" />
		<tag k="ssr:stedsnr" v="91217" />
	</node>
	<node id="-470149" lat="60.3708500037" lon="5.74870555397">
		<tag k="name" v="Grønevika" />
		<tag k="natural" v="bay" />
		<tag k="ssr:stedsnr" v="91209" />
	</node>
	<node id="-470148" lat="60.4688138922" lon="5.89111944594">
		<tag k="historic" v="shieling" />
		<tag k="name" v="Smalastølen" />
		<tag k="place" v="locality" />
		<tag k="ssr:stedsnr" v="91094" />
	</node>
	<node id="-470147" lat="60.3836250039" lon="5.61773610703">
		<tag k="name" v="Namnlausehaugen" />
		<tag k="natural" v="hill" />
		<tag k="place" v="locality" />
		<tag k="ssr:stedsnr" v="90997" />
	</node>
	<node id="-470146" lat="60.3777222243" lon="5.64422500391">
		<tag k="name" v="Rindastølshaugen" />
		<tag k="natural" v="hill" />
		<tag k="place" v="locality" />
		<tag k="ssr:stedsnr" v="90959" />
	</node>
	<node id="-470145" lat="60.3518861142" lon="5.66936667441">
		<tag k="name" v="Stykket" />
		<tag k="place" v="farm" />
		<tag k="ssr:stedsnr" v="90919" />
	</node>
	<node id="-470144" lat="60.3551666668" lon="5.69655277926">
		<tag k="name" v="Ytste-Kampen" />
		<tag k="place" v="farm" />
		<tag k="ssr:stedsnr" v="90913" />
	</node>
	<node id="-470143" lat="60.3610999997" lon="5.64958056193">
		<tag k="name" v="Sundet" />
		<tag k="natural" v="strait" />
		<tag k="ssr:stedsnr" v="90587" />
	</node>
	<node id="-470142" lat="60.3648972199" lon="5.69023332756">
		<tag k="name" v="Ålavika" />
		<tag k="natural" v="bay" />
		<tag k="ssr:stedsnr" v="90586" />
	</node>
	<node id="-470141" lat="60.3611499984" lon="5.69605277957">
		<tag k="name" v="Kampalia" />
		<tag k="natural" v="slope" />
		<tag k="place" v="locality" />
		<tag k="ssr:stedsnr" v="90582" />
	</node>
	<node id="-470140" lat="60.3533861154" lon="5.66632221888">
		<tag k="name" v="Furehaugen" />
		<tag k="natural" v="hill" />
		<tag k="place" v="locality" />
		<tag k="ssr:stedsnr" v="90579" />
	</node>
	<node id="-470139" lat="60.4076416626" lon="5.78274166265">
		<tag k="name" v="Gjelet" />
		<tag k="natural" v="gorge" />
		<tag k="ssr:stedsnr" v="90160" />
	</node>
	<node id="-470138" lat="60.3570638848" lon="5.64488332675">
		<tag k="name" v="Sundvika" />
		<tag k="natural" v="bay" />
		<tag k="ssr:stedsnr" v="89645" />
	</node>
	<node id="-470137" lat="60.5196666702" lon="5.91126666789">
		<tag k="fixme" v="consider natural=peak for the most distinct mountains in the district" />
		<tag k="name" v="Tverrberget" />
		<tag k="natural" v="hill" />
		<tag k="place" v="locality" />
		<tag k="ssr:stedsnr" v="67755" />
	</node>
	<node id="-470136" lat="60.350719443" lon="5.89832776956">
		<tag k="name" v="Stutabotnen" />
		<tag k="natural" v="valley" />
		<tag k="place" v="locality" />
		<tag k="ssr:stedsnr" v="66623" />
	</node>
	<node id="-470135" lat="60.3544277816" lon="5.87668333013">
		<tag k="fixme" v="consider natural=peak for the most distinct mountains in the district" />
		<tag k="name" v="Storagrønova" />
		<tag k="natural" v="hill" />
		<tag k="place" v="locality" />
		<tag k="ssr:stedsnr" v="66622" />
	</node>
	<node id="-470134" lat="60.3482083287" lon="5.93254721549">
		<tag k="fixme" v="consider natural=peak for the most distinct mountains in the district" />
		<tag k="name" v="Høganova" />
		<tag k="natural" v="hill" />
		<tag k="place" v="locality" />
		<tag k="ssr:stedsnr" v="66575" />
	</node>
	<node id="-470133" lat="60.344358501" lon="5.92163988475">
		<tag k="name" v="Botnavatnet" />
		<tag k="natural" v="water" />
		<tag k="ssr:stedsnr" v="66566" />
	</node>
	<node id="-470132" lat="60.4705138927" lon="5.91421389086">
		<tag k="name" v="Lavransfossen" />
		<tag k="natural" v="waterfall" />
		<tag k="ssr:stedsnr" v="66339" />
	</node>
	<node id="-470131" lat="60.2993427225" lon="5.61886894288">
		<tag k="fixme" v="consider place=hamlet" />
		<tag k="name" v="Solbjørg" />
		<tag k="place" v="farm" />
		<tag k="ssr:stedsnr" v="66271" />
	</node>
	<node id="-470130" lat="60.2977611099" lon="5.60300555825">
		<tag k="fixme" v="consider natural=peak for the most distinct mountains in the district" />
		<tag k="name" v="Solbjørgfjellet" />
		<tag k="natural" v="hill" />
		<tag k="place" v="locality" />
		<tag k="ssr:stedsnr" v="66269" />
	</node>
	<node id="-470129" lat="60.3405722233" lon="5.83413056372">
		<tag k="fixme" v="consider natural=peak for the most distinct mountains in the district" />
		<tag k="name" v="Geitaloftet" />
		<tag k="natural" v="hill" />
		<tag k="place" v="locality" />
		<tag k="ssr:stedsnr" v="66222" />
	</node>
	<node id="-470128" lat="60.3359824213" lon="5.65709977012">
		<tag k="fixme" v="consider place=hamlet" />
		<tag k="name" v="Utskot" />
		<tag k="place" v="farm" />
		<tag k="ssr:stedsnr" v="66202" />
	</node>
	<node id="-470127" lat="60.3522305564" lon="5.7310555584">
		<tag k="name" v="Fossåsen" />
		<tag k="place" v="farm" />
		<tag k="ssr:stedsnr" v="66184" />
	</node>
	<node id="-470126" lat="60.3800731292" lon="5.80798777652">
		<tag k="fixme" v="consider place=hamlet" />
		<tag k="name" v="Frøland" />
		<tag k="place" v="farm" />
		<tag k="ssr:stedsnr" v="66156" />
	</node>
	<node id="-470125" lat="60.374027778" lon="5.70184722599">
		<tag k="name" v="Straumsneset" />
		<tag k="natural" v="cape" />
		<tag k="ssr:stedsnr" v="66152" />
	</node>
	<node id="-470124" lat="60.3738027779" lon="5.76033056348">
		<tag k="name" v="Tysseelva" />
		<tag k="ssr:stedsnr" v="66148" />
		<tag k="waterway" v="river" />
	</node>
	<node id="-470123" lat="60.3830833363" lon="5.65890555792">
		<tag k="name" v="Krossaleitet" />
		<tag k="place" v="farm" />
		<tag k="ssr:stedsnr" v="66135" />
	</node>
	<node id="-470122" lat="60.3863638882" lon="5.77521388621">
		<tag k="name" v="Raudskolten" />
		<tag k="natural" v="hill" />
		<tag k="place" v="locality" />
		<tag k="ssr:stedsnr" v="66133" />
	</node>
	<node id="-470121" lat="60.3928144261" lon="5.67708278396">
		<tag k="fixme" v="consider place=hamlet" />
		<tag k="name" v="Haugen" />
		<tag k="place" v="farm" />
		<tag k="ssr:stedsnr" v="66130" />
	</node>
	<node id="-470120" lat="60.4005944464" lon="5.75420834011">
		<tag k="alt_name" v="Aldal" />
		<tag k="name" v="Alldalen" />
		<tag k="place" v="farm" />
		<tag k="ssr:stedsnr" v="66114" />
	</node>
	<node id="-470119" lat="60.4055795568" lon="5.73909294723">
		<tag k="fixme" v="consider place=hamlet" />
		<tag k="name" v="Rødne" />
		<tag k="place" v="farm" />
		<tag k="ssr:stedsnr" v="66097" />
	</node>
	<node id="-470118" lat="60.4257361086" lon="5.6887222295">
		<tag k="name" v="Holmavatnet" />
		<tag k="natural" v="water" />
		<tag k="ssr:stedsnr" v="66064" />
		<tag k="water" v="lake" />
	</node>
	<node id="-470117" lat="60.4266264214" lon="5.70973102346">
		<tag k="name" v="Kalivatnet" />
		<tag k="natural" v="water" />
		<tag k="ssr:stedsnr" v="66063" />
	</node>
	<node id="-470116" lat="60.4452082292" lon="5.77733180687">
		<tag k="name" v="Øyskrøvatnet" />
		<tag k="natural" v="water" />
		<tag k="ssr:stedsnr" v="66037" />
	</node>
	<node id="-470115" lat="60.367663891" lon="5.72680278198">
		<tag k="name" v="Insta Setervikselvi" />
		<tag k="ssr:stedsnr" v="59048" />
		<tag k="waterway" v="stream" />
	</node>
	<node id="-470114" lat="60.3670166636" lon="5.77468055741">
		<tag k="name" v="Slåtten" />
		<tag k="natural" v="hill" />
		<tag k="place" v="locality" />
		<tag k="ssr:stedsnr" v="59030" />
	</node>
	<node id="-470113" lat="60.3562527772" lon="5.81069722881">
		<tag k="name" v="Floren" />
		<tag k="natural" v="hill" />
		<tag k="place" v="locality" />
		<tag k="ssr:stedsnr" v="59008" />
	</node>
	<node id="-470112" lat="60.3445416639" lon="5.71680555222">
		<tag k="name" v="Utløhaugane" />
		<tag k="natural" v="hill" />
		<tag k="place" v="locality" />
		<tag k="ssr:stedsnr" v="55037" />
	</node>
	<node id="-470111" lat="60.3316166698" lon="5.69312223089">
		<tag k="name" v="Høgehaugen" />
		<tag k="natural" v="hill" />
		<tag k="place" v="locality" />
		<tag k="ssr:stedsnr" v="55125" />
	</node>
	<node id="-470110" lat="60.3317557432" lon="5.67514305358">
		<tag k="name" v="Vetlavatnet" />
		<tag k="natural" v="water" />
		<tag k="ssr:stedsnr" v="55104" />
	</node>
	<node id="-470109" lat="60.3309638899" lon="5.65904443809">
		<tag k="name" v="Jonadalen" />
		<tag k="natural" v="valley" />
		<tag k="place" v="locality" />
		<tag k="ssr:stedsnr" v="55100" />
	</node>
	<node id="-470108" lat="60.3475999996" lon="5.69286667027">
		<tag k="name" v="Rinden" />
		<tag k="place" v="locality" />
		<tag k="ssr:stedsnr" v="55094" />
	</node>
	<node id="-470107" lat="60.3961694414" lon="5.76371388187">
		<tag k="bridge" v="yes" />
		<tag k="layer" v="1" />
		<tag k="name" v="Vika" />
		<tag k="ssr:stedsnr" v="47241" />
	</node>
	<node id="-470106" lat="60.3890361114" lon="5.66665833087">
		<tag k="bridge" v="yes" />
		<tag k="layer" v="1" />
		<tag k="name" v="Store" />
		<tag k="ssr:stedsnr" v="47237" />
	</node>
	<node id="-470105" lat="60.3812583329" lon="5.86023333284">
		<tag k="bridge" v="yes" />
		<tag k="layer" v="1" />
		<tag k="name" v="Kuholm" />
		<tag k="ssr:stedsnr" v="47236" />
	</node>
	<node id="-470104" lat="60.3845166703" lon="5.80553611433">
		<tag k="bridge" v="yes" />
		<tag k="layer" v="1" />
		<tag k="name" v="Frølandskanalen" />
		<tag k="ssr:stedsnr" v="47233" />
	</node>
	<node id="-470103" lat="60.377477782" lon="5.80919722646">
		<tag k="bridge" v="yes" />
		<tag k="layer" v="1" />
		<tag k="name" v="Frøland" />
		<tag k="ssr:stedsnr" v="47232" />
	</node>
	<node id="-470102" lat="60.3658472254" lon="5.88054165993">
		<tag k="name" v="Plyttagjeldet" />
		<tag k="natural" v="valley" />
		<tag k="place" v="locality" />
		<tag k="ssr:stedsnr" v="40984" />
	</node>
	<node id="-470101" lat="60.4397555562" lon="5.84685833379">
		<tag k="fixme" v="consider natural=peak for the most distinct mountains in the district" />
		<tag k="name" v="Vetlåsen" />
		<tag k="natural" v="hill" />
		<tag k="place" v="locality" />
		<tag k="ssr:stedsnr" v="31979" />
	</node>
	<node id="-470100" lat="60.4564027761" lon="5.88494722997">
		<tag k="name" v="Neset" />
		<tag k="natural" v="cape" />
		<tag k="ssr:stedsnr" v="31950" />
	</node>
	<node id="-470099" lat="60.4424138869" lon="5.85517778014">
		<tag k="historic" v="shieling" />
		<tag k="name" v="Geitastølen" />
		<tag k="place" v="locality" />
		<tag k="ssr:stedsnr" v="31580" />
	</node>
	<node id="-470098" lat="60.4403138925" lon="5.82658610681">
		<tag k="name" v="Fossane" />
		<tag k="natural" v="ridge" />
		<tag k="place" v="locality" />
		<tag k="ssr:stedsnr" v="31528" />
	</node>
	<node id="-470097" lat="60.4446388893" lon="5.86012222869">
		<tag k="name" v="Dyralia" />
		<tag k="natural" v="slope" />
		<tag k="place" v="locality" />
		<tag k="ssr:stedsnr" v="31510" />
	</node>
	<node id="-470096" lat="60.4311944478" lon="5.87995833485">
		<tag k="name" v="Vierkleiva" />
		<tag k="natural" v="hill" />
		<tag k="place" v="locality" />
		<tag k="ssr:stedsnr" v="31112" />
	</node>
	<node id="-470095" lat="60.4630777755" lon="5.88945833968">
		<tag k="name" v="Høghaugen" />
		<tag k="natural" v="hill" />
		<tag k="place" v="locality" />
		<tag k="ssr:stedsnr" v="31077" />
	</node>
	<node id="-470094" lat="60.4106750039" lon="5.84183610403">
		<tag k="name" v="Sørlia" />
		<tag k="natural" v="slope" />
		<tag k="place" v="locality" />
		<tag k="ssr:stedsnr" v="30496" />
	</node>
	<node id="-470093" lat="60.4259035722" lon="5.81285877156">
		<tag k="name" v="Larstjørna" />
		<tag k="natural" v="water" />
		<tag k="ssr:stedsnr" v="30443" />
	</node>
	<node id="-470092" lat="60.4323709672" lon="5.7993607118">
		<tag k="name" v="Kampatjørna" />
		<tag k="natural" v="water" />
		<tag k="ssr:stedsnr" v="30441" />
	</node>
	<node id="-470091" lat="60.4268666694" lon="5.7267527729">
		<tag k="name" v="Tjørndalen" />
		<tag k="natural" v="valley" />
		<tag k="place" v="locality" />
		<tag k="ssr:stedsnr" v="30305" />
	</node>
	<node id="-470090" lat="60.39850278" lon="5.72948889488">
		<tag k="name" v="Klubben" />
		<tag k="natural" v="cape" />
		<tag k="ssr:stedsnr" v="29975" />
	</node>
	<node id="-470089" lat="60.3395472238" lon="5.62317777524">
		<tag k="name" v="Mørkedalen" />
		<tag k="natural" v="valley" />
		<tag k="place" v="locality" />
		<tag k="ssr:stedsnr" v="29907" />
	</node>
	<node id="-470088" lat="60.3468138891" lon="5.63622778292">
		<tag k="name" v="Ospeskogen" />
		<tag k="place" v="locality" />
		<tag k="ssr:stedsnr" v="29901" />
	</node>
	<node id="-470087" lat="60.4019249997" lon="5.67918611805">
		<tag k="historic" v="shieling" />
		<tag k="name" v="Stallen" />
		<tag k="place" v="locality" />
		<tag k="ssr:stedsnr" v="29873" />
	</node>
	<node id="-470086" lat="60.397949998" lon="5.67034445002">
		<tag k="name" v="Akselskaret" />
		<tag k="natural" v="valley" />
		<tag k="place" v="locality" />
		<tag k="ssr:stedsnr" v="29871" />
	</node>
	<node id="-470085" lat="60.3693083351" lon="5.70218056231">
		<tag k="name" v="Træsvika" />
		<tag k="natural" v="bay" />
		<tag k="ssr:stedsnr" v="29578" />
	</node>
	<node id="-470084" lat="60.3220277802" lon="5.60054166942">
		<tag k="historic" v="shieling" />
		<tag k="name" v="Vågasetret" />
		<tag k="place" v="locality" />
		<tag k="ssr:stedsnr" v="29609" />
	</node>
	<node id="-470083" lat="60.3253722223" lon="5.62537221335">
		<tag k="name" v="Pøyleholmen" />
		<tag k="place" v="islet" />
		<tag k="ssr:stedsnr" v="28552" />
	</node>
	<node id="-470082" lat="60.3268222257" lon="5.61858333291">
		<tag k="name" v="Gryvlet" />
		<tag k="place" v="farm" />
		<tag k="ssr:stedsnr" v="28551" />
	</node>
	<node id="-470081" lat="60.3578666701" lon="5.60994443741">
		<tag k="historic" v="shieling" />
		<tag k="name" v="Brekkesetret" />
		<tag k="place" v="locality" />
		<tag k="ssr:stedsnr" v="28653" />
	</node>
	<node id="-470080" lat="60.3694416709" lon="5.72238610604">
		<tag k="name" v="Setervika" />
		<tag k="natural" v="bay" />
		<tag k="ssr:stedsnr" v="24280" />
	</node>
	<node id="-470079" lat="60.5063333337" lon="5.98146388516">
		<tag k="name" v="Høgda" />
		<tag k="natural" v="hill" />
		<tag k="place" v="locality" />
		<tag k="ssr:stedsnr" v="6983" />
	</node>
	<node id="-470078" lat="60.4840361124" lon="5.92993055862">
		<tag k="name" v="Nedsta Dukavatnet" />
		<tag k="natural" v="water" />
		<tag k="ssr:stedsnr" v="6346" />
		<tag k="water" v="lake" />
	</node>
	<node id="-470077" lat="60.3770055599" lon="5.64477777298">
		<tag k="name" v="Rindane" />
		<tag k="natural" v="slope" />
		<tag k="place" v="locality" />
		<tag k="ssr:stedsnr" v="6160" />
	</node>
	<node id="-470076" lat="60.3817249991" lon="5.79305555294">
		<tag k="name" v="Frølandsvatnet" />
		<tag k="natural" v="water" />
		<tag k="ssr:stedsnr" v="6151" />
		<tag k="water" v="lake" />
	</node>
	<node id="-470075" lat="60.3660472206" lon="5.88246389099">
		<tag k="name" v="Rauneskarnovene" />
		<tag k="natural" v="hill" />
		<tag k="place" v="locality" />
		<tag k="ssr:stedsnr" v="5645" />
	</node>
	<node id="-470074" lat="60.4085361136" lon="5.88349167306">
		<tag k="name" v="Huldabotnen" />
		<tag k="natural" v="valley" />
		<tag k="place" v="locality" />
		<tag k="ssr:stedsnr" v="5425" />
	</node>
	<node id="-470073" lat="60.4142222181" lon="5.84894444664">
		<tag k="fixme" v="consider natural=peak for the most distinct mountains in the district" />
		<tag k="name" v="Åsane" />
		<tag k="natural" v="hill" />
		<tag k="place" v="locality" />
		<tag k="ssr:stedsnr" v="5422" />
	</node>
	<node id="-470072" lat="60.4371805557" lon="5.91817500294">
		<tag k="name" v="Kvanndalsbotnane" />
		<tag k="natural" v="valley" />
		<tag k="place" v="locality" />
		<tag k="ssr:stedsnr" v="5412" />
	</node>
	<node id="-470071" lat="60.4634500023" lon="5.90746666304">
		<tag k="name" v="Dukaelva" />
		<tag k="ssr:stedsnr" v="5331" />
		<tag k="waterway" v="stream" />
	</node>
	<node id="-470070" lat="60.4635855912" lon="5.89406463844">
		<tag k="fixme" v="consider place=hamlet" />
		<tag k="name" v="Kvitingen" />
		<tag k="place" v="farm" />
		<tag k="ssr:stedsnr" v="5330" />
	</node>
	<node id="-470069" lat="60.2895805533" lon="5.61519166866">
		<tag k="name" v="Skiftesvika" />
		<tag k="place" v="farm" />
		<tag k="ssr:stedsnr" v="5264" />
	</node>
	<node id="-470068" lat="60.3012011323" lon="5.59145183368">
		<tag k="name" v="Langavatnet" />
		<tag k="natural" v="water" />
		<tag k="ssr:stedsnr" v="5242" />
	</node>
	<node id="-470067" lat="60.3448222206" lon="5.83973611668">
		<tag k="fixme" v="consider natural=peak for the most distinct mountains in the district" />
		<tag k="name" v="Jarlandsfjellet" />
		<tag k="natural" v="hill" />
		<tag k="place" v="locality" />
		<tag k="ssr:stedsnr" v="5227" />
	</node>
	<node id="-470066" lat="60.3418472246" lon="5.6168444504">
		<tag k="name" v="Hildersbotnen" />
		<tag k="natural" v="valley" />
		<tag k="place" v="locality" />
		<tag k="ssr:stedsnr" v="5219" />
	</node>
	<node id="-470065" lat="60.339591667" lon="5.6042916727">
		<tag k="name" v="Elvane" />
		<tag k="natural" v="valley" />
		<tag k="place" v="locality" />
		<tag k="ssr:stedsnr" v="5211" />
	</node>
	<node id="-470064" lat="60.3710166685" lon="5.65301111259">
		<tag k="bay" v="fjord" />
		<tag k="name" v="Trengereidfjorden" />
		<tag k="natural" v="bay" />
		<tag k="ssr:stedsnr" v="5209" />
	</node>
	<node id="-470063" lat="60.3603029706" lon="5.76746135248">
		<tag k="name" v="Smådalsvatnet" />
		<tag k="natural" v="water" />
		<tag k="ssr:stedsnr" v="5182" />
	</node>
	<node id="-470062" lat="60.3879694412" lon="5.63466667137">
		<tag k="name" v="Nordbøbotnen" />
		<tag k="natural" v="valley" />
		<tag k="place" v="locality" />
		<tag k="ssr:stedsnr" v="5137" />
	</node>
	<node id="-470061" lat="60.3940138883" lon="5.65600832682">
		<tag k="name" v="Grasdalen" />
		<tag k="natural" v="valley" />
		<tag k="place" v="locality" />
		<tag k="ssr:stedsnr" v="5134" />
	</node>
	<node id="-470060" lat="60.3985380928" lon="5.67982431408">
		<tag k="alt_name" v="Hisdalen" />
		<tag k="name" v="Hisdal" />
		<tag k="place" v="hamlet" />
		<tag k="ssr:stedsnr" v="5101" />
	</node>
	<node id="-470059" lat="60.4012500007" lon="5.72889999717">
		<tag k="name" v="Bjørkheim" />
		<tag k="place" v="farm" />
		<tag k="ssr:stedsnr" v="5102" />
	</node>
	<node id="-470058" lat="60.3967888888" lon="5.68847777278">
		<tag k="name" v="Leitet" />
		<tag k="place" v="farm" />
		<tag k="ssr:stedsnr" v="5100" />
	</node>
	<node id="-470057" lat="60.4052611144" lon="5.76846389516">
		<tag k="name" v="Raudaberget" />
		<tag k="natural" v="hill" />
		<tag k="place" v="locality" />
		<tag k="ssr:stedsnr" v="5081" />
	</node>
	<node id="-470055" lat="60.4334277816" lon="5.75791943781">
		<tag k="historic" v="shieling" />
		<tag k="name" v="Rødssetret" />
		<tag k="place" v="locality" />
		<tag k="ssr:stedsnr" v="5035" />
	</node>
	<node id="-470054" lat="60.4324166648" lon="5.78389445251">
		<tag k="name" v="Breilia" />
		<tag k="natural" v="slope" />
		<tag k="place" v="locality" />
		<tag k="ssr:stedsnr" v="5034" />
	</node>
	<node id="-470053" lat="60.4845091531" lon="5.97096352138">
		<tag k="name" v="Vestra Trongasmogtjørni" />
		<tag k="natural" v="water" />
		<tag k="ssr:stedsnr" v="991139" />
	</node>
	<node id="-470052" lat="60.4777585333" lon="5.98203655005">
		<tag k="name" v="Trongasmogtjørna" />
		<tag k="natural" v="water" />
		<tag k="ssr:stedsnr" v="308339" />
	</node>
	<node id="-470051" lat="60.3853250762" lon="5.73077701771">
		<tag k="bay" v="fjord" />
		<tag k="name" v="Indre Samnangerfjorden" />
		<tag k="natural" v="bay" />
		<tag k="ssr:stedsnr" v="991038" />
	</node>
	<node id="-470049" lat="60.5007750018" lon="5.96058055876">
		<tag k="fixme" v="consider tourism=alpine_hut or tourism=chalet" />
		<tag k="name" v="Gullhorgabu" />
		<tag k="ssr:stedsnr" v="648007" />
		<tag k="tourism" v="wilderness_hut" />
	</node>
	<node id="-470048" lat="60.3181944481" lon="5.54984167434">
		<tag k="fixme" v="consider natural=peak for the most distinct mountains in the district" />
		<tag k="name" v="Sveningen" />
		<tag k="natural" v="hill" />
		<tag k="place" v="locality" />
		<tag k="ssr:stedsnr" v="248241" />
	</node>
	<node id="-470047" lat="60.2964111128" lon="5.61610000556">
		<tag k="bridge" v="yes" />
		<tag k="layer" v="1" />
		<tag k="name" v="Solberg" />
		<tag k="ssr:stedsnr" v="897219" />
	</node>
	<node id="-470046" lat="60.3673250023" lon="5.72428888359">
		<tag k="bridge" v="yes" />
		<tag k="layer" v="1" />
		<tag k="name" v="Gaupholm" />
		<tag k="ssr:stedsnr" v="897214" />
	</node>
	<node id="-470045" lat="60.4042611082" lon="5.72699166435">
		<tag k="bridge" v="yes" />
		<tag k="layer" v="1" />
		<tag k="name" v="Reistadvika" />
		<tag k="ssr:stedsnr" v="897215" />
	</node>
	<node id="-470044" lat="60.3928888851" lon="5.66949444502">
		<tag k="layer" v="-1" />
		<tag k="name" v="Hisdal" />
		<tag k="ssr:stedsnr" v="894523" />
		<tag k="tunnel" v="yes" />
	</node>
	<node id="-470043" lat="60.367547224" lon="5.82442499224">
		<tag k="name" v="Haraskori" />
		<tag k="natural" v="valley" />
		<tag k="place" v="locality" />
		<tag k="ssr:stedsnr" v="890978" />
	</node>
	<node id="-470042" lat="60.3604361119" lon="5.84730278632">
		<tag k="name" v="Kvannevikselvi" />
		<tag k="ssr:stedsnr" v="890965" />
		<tag k="waterway" v="river" />
	</node>
	<node id="-470041" lat="60.3360277755" lon="5.69170833169">
		<tag k="name" v="Liabøen" />
		<tag k="place" v="farm" />
		<tag k="ssr:stedsnr" v="479128" />
	</node>
	<node id="-470040" lat="60.3277166668" lon="5.69125277908">
		<tag k="name" v="Rømmaholken" />
		<tag k="natural" v="cape" />
		<tag k="ssr:stedsnr" v="479129" />
	</node>
	<node id="-470039" lat="60.3294222191" lon="5.69094444022">
		<tag k="name" v="Loggneset" />
		<tag k="natural" v="cape" />
		<tag k="ssr:stedsnr" v="479126" />
	</node>
	<node id="-470038" lat="60.3344777814" lon="5.67718333234">
		<tag k="name" v="Storavatnet" />
		<tag k="natural" v="water" />
		<tag k="ssr:stedsnr" v="479123" />
	</node>
	<node id="-470037" lat="60.357872219" lon="5.77681110258">
		<tag k="name" v="Krossdalen" />
		<tag k="natural" v="valley" />
		<tag k="place" v="locality" />
		<tag k="ssr:stedsnr" v="479019" />
	</node>
	<node id="-470036" lat="60.3620388886" lon="5.85012221912">
		<tag k="name" v="Moltemyrnakken" />
		<tag k="place" v="locality" />
		<tag k="ssr:stedsnr" v="404957" />
	</node>
	<node id="-470035" lat="60.3916666699" lon="5.9097138888">
		<tag k="name" v="Skarhaugen" />
		<tag k="natural" v="hill" />
		<tag k="place" v="locality" />
		<tag k="ssr:stedsnr" v="395627" />
	</node>
	<node id="-470034" lat="60.4464499999" lon="5.84776111132">
		<tag k="name" v="Kvernaholene" />
		<tag k="natural" v="valley" />
		<tag k="place" v="locality" />
		<tag k="ssr:stedsnr" v="395576" />
	</node>
	<node id="-470033" lat="60.3785972181" lon="5.84143056014">
		<tag k="name" v="Liaros" />
		<tag k="natural" v="slope" />
		<tag k="place" v="locality" />
		<tag k="ssr:stedsnr" v="395332" />
	</node>
	<node id="-470032" lat="60.4195666686" lon="5.91531943729">
		<tag k="name" v="Eikedalshilderen" />
		<tag k="place" v="locality" />
		<tag k="ssr:stedsnr" v="395117" />
	</node>
	<node id="-470031" lat="60.4606999975" lon="5.89661110694">
		<tag k="name" v="Halsen" />
		<tag k="natural" v="cape" />
		<tag k="ssr:stedsnr" v="395104" />
	</node>
	<node id="-470030" lat="60.4687055536" lon="5.91220554893">
		<tag k="name" v="Dyralia" />
		<tag k="natural" v="slope" />
		<tag k="place" v="locality" />
		<tag k="ssr:stedsnr" v="395090" />
	</node>
	<node id="-470029" lat="60.3895944445" lon="5.84041387986">
		<tag k="name" v="Mørkhølen" />
		<tag k="place" v="locality" />
		<tag k="ssr:stedsnr" v="394715" />
	</node>
	<node id="-470028" lat="60.4151805597" lon="5.80059166359">
		<tag k="name" v="Verkane" />
		<tag k="natural" v="valley" />
		<tag k="place" v="locality" />
		<tag k="ssr:stedsnr" v="394498" />
	</node>
	<node id="-470027" lat="60.3996194464" lon="5.85391666563">
		<tag k="name" v="Flatheiane" />
		<tag k="natural" v="hill" />
		<tag k="place" v="locality" />
		<tag k="ssr:stedsnr" v="394414" />
	</node>
	<node id="-470026" lat="60.4327138903" lon="5.85060834029">
		<tag k="name" v="Storhilderen" />
		<tag k="natural" v="slope" />
		<tag k="place" v="locality" />
		<tag k="ssr:stedsnr" v="394374" />
	</node>
	<node id="-470025" lat="60.3736454633" lon="5.75583998251">
		<tag k="fixme" v="consider place=hamlet" />
		<tag k="name" v="Ytre-Tysse" />
		<tag k="place" v="farm" />
		<tag k="ssr:stedsnr" v="394236" />
	</node>
	<node id="-470024" lat="60.3945576927" lon="5.67885753814">
		<tag k="name" v="Vossatjørna" />
		<tag k="natural" v="water" />
		<tag k="ssr:stedsnr" v="393993" />
	</node>
	<node id="-470023" lat="60.3792388933" lon="5.65880000837">
		<tag k="name" v="Fitaheiane" />
		<tag k="natural" v="hill" />
		<tag k="place" v="locality" />
		<tag k="ssr:stedsnr" v="393979" />
	</node>
	<node id="-470022" lat="60.4092111144" lon="5.73016111739">
		<tag k="name" v="Heiane" />
		<tag k="natural" v="hill" />
		<tag k="place" v="locality" />
		<tag k="ssr:stedsnr" v="393961" />
	</node>
	<node id="-470021" lat="60.4003944403" lon="5.75562778629">
		<tag k="name" v="Aldalen" />
		<tag k="natural" v="valley" />
		<tag k="place" v="locality" />
		<tag k="ssr:stedsnr" v="393957" />
	</node>
	<node id="-470020" lat="60.3978277818" lon="5.73285000426">
		<tag k="name" v="Vågaholmen" />
		<tag k="place" v="islet" />
		<tag k="ssr:stedsnr" v="393955" />
	</node>
	<node id="-470019" lat="60.3547138854" lon="5.66951388154">
		<tag k="name" v="Djupedalen" />
		<tag k="natural" v="valley" />
		<tag k="place" v="locality" />
		<tag k="ssr:stedsnr" v="393919" />
	</node>
	<node id="-470018" lat="60.344336114" lon="5.62490554843">
		<tag k="name" v="Stordalen" />
		<tag k="natural" v="valley" />
		<tag k="place" v="locality" />
		<tag k="ssr:stedsnr" v="393903" />
	</node>
	<node id="-470017" lat="60.3670555538" lon="5.6793527756">
		<tag k="name" v="Litangen" />
		<tag k="place" v="farm" />
		<tag k="ssr:stedsnr" v="393574" />
	</node>
	<node id="-470016" lat="60.3679805586" lon="5.69601388067">
		<tag k="name" v="Hovda" />
		<tag k="natural" v="hill" />
		<tag k="place" v="locality" />
		<tag k="ssr:stedsnr" v="393571" />
	</node>
	<node id="-470015" lat="60.3937777774" lon="5.77895832934">
		<tag k="fixme" v="consider natural=peak for the most distinct mountains in the district" />
		<tag k="name" v="Åsen" />
		<tag k="natural" v="hill" />
		<tag k="place" v="locality" />
		<tag k="ssr:stedsnr" v="393249" />
	</node>
	<node id="-470014" lat="60.3253027773" lon="5.62360000276">
		<tag k="name" v="Pøyla" />
		<tag k="natural" v="bay" />
		<tag k="ssr:stedsnr" v="392601" />
	</node>
	<node id="-470013" lat="60.3405555599" lon="5.67028332898">
		<tag k="alt_name" v="Fagerlia" />
		<tag k="name" v="Fagerli" />
		<tag k="place" v="farm" />
		<tag k="ssr:stedsnr" v="388277" />
	</node>
	<node id="-470012" lat="60.3692166692" lon="5.72922222614">
		<tag k="name" v="Nymark" />
		<tag k="place" v="farm" />
		<tag k="ssr:stedsnr" v="388275" />
	</node>
	<node id="-470011" lat="60.3598805569" lon="5.68984444304">
		<tag k="name" v="Solbakken" />
		<tag k="place" v="farm" />
		<tag k="ssr:stedsnr" v="388269" />
	</node>
	<node id="-470010" lat="60.3309861097" lon="5.62904443991">
		<tag k="name" v="Lensmannsflua" />
		<tag k="natural" v="shoal" />
		<tag k="place" v="locality" />
		<tag k="ssr:stedsnr" v="388149" />
	</node>
	<node id="-470009" lat="60.5083555524" lon="5.91130555732">
		<tag k="name" v="Tjørnadalen" />
		<tag k="natural" v="valley" />
		<tag k="place" v="locality" />
		<tag k="ssr:stedsnr" v="371021" />
	</node>
	<node id="-470008" lat="60.3967416646" lon="5.85534999513">
		<tag k="historic" v="shieling" />
		<tag k="name" v="Børdalssetret" />
		<tag k="place" v="locality" />
		<tag k="ssr:stedsnr" v="369711" />
	</node>
	<node id="-470007" lat="60.3891583379" lon="5.89781111476">
		<tag k="name" v="Storebekken" />
		<tag k="ssr:stedsnr" v="369675" />
		<tag k="waterway" v="stream" />
	</node>
	<node id="-470006" lat="60.4027611132" lon="5.84591111734">
		<tag k="name" v="Storelva" />
		<tag k="ssr:stedsnr" v="369418" />
		<tag k="waterway" v="stream" />
	</node>
	<node id="-470005" lat="60.4206111141" lon="5.91702777907">
		<tag k="fixme" v="consider natural=peak for the most distinct mountains in the district" />
		<tag k="name" v="Flæfjellet" />
		<tag k="natural" v="hill" />
		<tag k="place" v="locality" />
		<tag k="ssr:stedsnr" v="369408" />
	</node>
	<node id="-470004" lat="60.4231916701" lon="5.88405555493">
		<tag k="fixme" v="consider natural=peak for the most distinct mountains in the district" />
		<tag k="name" v="Tøfjellet" />
		<tag k="natural" v="hill" />
		<tag k="place" v="locality" />
		<tag k="ssr:stedsnr" v="369406" />
	</node>
	<node id="-470003" lat="60.4277837072" lon="5.93469206484">
		<tag k="name" v="Skeisskartjørna" />
		<tag k="natural" v="water" />
		<tag k="ssr:stedsnr" v="369367" />
	</node>
	<node id="-470002" lat="60.4657833351" lon="5.90241388361">
		<tag k="name" v="Lammatræmyra" />
		<tag k="natural" v="wetland" />
		<tag k="ssr:stedsnr" v="369319" />
	</node>
	<node id="-470001" lat="60.4840666635" lon="5.93772221533">
		<tag k="name" v="Skredene" />
		<tag k="natural" v="slope" />
		<tag k="place" v="locality" />
		<tag k="ssr:stedsnr" v="369307" />
	</node>
	<node id="-470000" lat="60.4815972249" lon="5.94596944393">
		<tag k="name" v="Trollskaret" />
		<tag k="natural" v="valley" />
		<tag k="place" v="locality" />
		<tag k="ssr:stedsnr" v="369306" />
	</node>
	<node id="-469999" lat="60.4849666633" lon="5.88621666303">
		<tag k="name" v="Røyrlia" />
		<tag k="natural" v="slope" />
		<tag k="place" v="locality" />
		<tag k="ssr:stedsnr" v="369302" />
	</node>
	<node id="-469998" lat="60.3349222187" lon="5.80152499342">
		<tag k="alt_name" v="Haugsfjell" />
		<tag k="fixme" v="consider natural=peak for the most distinct mountains in the district" />
		<tag k="name" v="Haugsfjellet" />
		<tag k="natural" v="hill" />
		<tag k="place" v="locality" />
		<tag k="ssr:stedsnr" v="369215" />
	</node>
	<node id="-469997" lat="60.3451444404" lon="5.65659443857">
		<tag k="name" v="Nordreodden" />
		<tag k="natural" v="cape" />
		<tag k="ssr:stedsnr" v="369198" />
	</node>
	<node id="-469996" lat="60.3536027763" lon="5.61362499734">
		<tag k="fixme" v="consider natural=peak for the most distinct mountains in the district" />
		<tag k="name" v="Sauafjellet" />
		<tag k="natural" v="hill" />
		<tag k="place" v="locality" />
		<tag k="ssr:stedsnr" v="369188" />
	</node>
	<node id="-469995" lat="60.3586111126" lon="5.74205833062">
		<tag k="fixme" v="consider natural=peak for the most distinct mountains in the district" />
		<tag k="name" v="Førøyåsen" />
		<tag k="natural" v="hill" />
		<tag k="place" v="locality" />
		<tag k="ssr:stedsnr" v="369164" />
	</node>
	<node id="-469994" lat="60.363392472" lon="5.67621663687">
		<tag k="fixme" v="consider place=hamlet" />
		<tag k="name" v="Li" />
		<tag k="place" v="farm" />
		<tag k="ssr:stedsnr" v="369163" />
	</node>
	<node id="-469993" lat="60.3740305593" lon="5.75952777209">
		<tag k="name" v="Tysse" />
		<tag k="place" v="village" />
		<tag k="ssr:stedsnr" v="369145" />
	</node>
	<node id="-469992" lat="60.3856925591" lon="5.79569518771">
		<tag k="fixme" v="consider place=hamlet" />
		<tag k="name" v="Tysseland" />
		<tag k="place" v="farm" />
		<tag k="ssr:stedsnr" v="369130" />
	</node>
	<node id="-469991" lat="60.3874138904" lon="5.69948056238">
		<tag k="name" v="Høgåsen" />
		<tag k="natural" v="hill" />
		<tag k="place" v="locality" />
		<tag k="ssr:stedsnr" v="369125" />
	</node>
	<node id="-469990" lat="60.4011666649" lon="5.83932223026">
		<tag k="name" v="Brannhaugen" />
		<tag k="natural" v="hill" />
		<tag k="place" v="locality" />
		<tag k="ssr:stedsnr" v="369109" />
	</node>
	<node id="-469989" lat="60.4016375951" lon="5.6497571325">
		<tag k="name" v="Langavatnet" />
		<tag k="natural" v="water" />
		<tag k="ssr:stedsnr" v="369096" />
		<tag k="water" v="lake" />
	</node>
	<node id="-469988" lat="60.3992361135" lon="5.68023332686">
		<tag k="name" v="Dalaelva" />
		<tag k="ssr:stedsnr" v="369077" />
		<tag k="waterway" v="stream" />
	</node>
	<node id="-469987" lat="60.3696611076" lon="5.73630556118">
		<tag k="name" v="Barmaneset" />
		<tag k="natural" v="cape" />
		<tag k="ssr:stedsnr" v="362050" />
	</node>
	<node id="-469985" lat="60.3393749975" lon="5.67874166974">
		<tag k="name" v="Mørkedalen" />
		<tag k="natural" v="valley" />
		<tag k="place" v="locality" />
		<tag k="ssr:stedsnr" v="358113" />
	</node>
	<node id="-469984" lat="60.3454805589" lon="5.66417777948">
		<tag k="name" v="Raudaneset" />
		<tag k="natural" v="cape" />
		<tag k="ssr:stedsnr" v="358093" />
	</node>
	<node id="-469983" lat="60.3299027823" lon="5.78685556038">
		<tag k="name" v="Østerdalseggena" />
		<tag k="natural" v="ridge" />
		<tag k="place" v="locality" />
		<tag k="ssr:stedsnr" v="358076" />
	</node>
	<node id="-469982" lat="60.3454472259" lon="5.68449721976">
		<tag k="bridge" v="yes" />
		<tag k="layer" v="1" />
		<tag k="name" v="Juvik" />
		<tag k="ssr:stedsnr" v="350203" />
	</node>
	<node id="-469981" lat="60.3913083341" lon="5.76736388546">
		<tag k="man_made" v="breakwater" />
		<tag k="name" v="Gjerdsmoloen" />
		<tag k="place" v="locality" />
		<tag k="ssr:stedsnr" v="345417" />
	</node>
	<node id="-469980" lat="60.4565111149" lon="5.90744444766">
		<tag k="name" v="Fossaneset" />
		<tag k="natural" v="cape" />
		<tag k="ssr:stedsnr" v="334941" />
	</node>
	<node id="-469979" lat="60.4533333367" lon="5.9081305643">
		<tag k="name" v="Matsekken" />
		<tag k="ssr:stedsnr" v="334931" />
		<tag k="waterway" v="stream" />
	</node>
	<node id="-469978" lat="60.4460416692" lon="5.8619138901">
		<tag k="name" v="Åritangen" />
		<tag k="natural" v="cape" />
		<tag k="ssr:stedsnr" v="334493" />
	</node>
	<node id="-469977" lat="60.4225527812" lon="5.80766666747">
		<tag k="name" v="Stofarinden" />
		<tag k="natural" v="ridge" />
		<tag k="place" v="locality" />
		<tag k="ssr:stedsnr" v="334433" />
	</node>
	<node id="-469976" lat="60.3836777751" lon="5.80984721692">
		<tag k="name" v="Stemmebakkane" />
		<tag k="place" v="locality" />
		<tag k="ssr:stedsnr" v="334308" />
	</node>
	<node id="-469975" lat="60.4229611072" lon="5.92493889453">
		<tag k="name" v="Læghildrane" />
		<tag k="place" v="locality" />
		<tag k="ssr:stedsnr" v="334113" />
	</node>
	<node id="-469974" lat="60.3895388885" lon="5.78233054804">
		<tag k="name" v="Furhaugen" />
		<tag k="natural" v="hill" />
		<tag k="place" v="locality" />
		<tag k="ssr:stedsnr" v="333273" />
	</node>
	<node id="-469973" lat="60.386362998" lon="5.76694516665">
		<tag k="name" v="Haga" />
		<tag k="place" v="farm" />
		<tag k="ssr:stedsnr" v="333174" />
	</node>
	<node id="-469972" lat="60.3870444453" lon="5.59088888684">
		<tag k="fixme" v="consider natural=peak for the most distinct mountains in the district" />
		<tag k="name" v="Gullfjelltoppen" />
		<tag k="natural" v="hill" />
		<tag k="place" v="locality" />
		<tag k="ssr:stedsnr" v="333000" />
	</node>
	<node id="-469971" lat="60.3840944409" lon="5.58931666256">
		<tag k="name" v="Middagsdalen" />
		<tag k="natural" v="valley" />
		<tag k="place" v="locality" />
		<tag k="ssr:stedsnr" v="332993" />
	</node>
	<node id="-469970" lat="60.3989333311" lon="5.71138055868">
		<tag k="fixme" v="consider place=hamlet" />
		<tag k="name" v="Ådland" />
		<tag k="place" v="farm" />
		<tag k="ssr:stedsnr" v="332963" />
	</node>
	<node id="-469969" lat="60.4058666683" lon="5.7206138934">
		<tag k="name" v="Småmyrane" />
		<tag k="natural" v="wetland" />
		<tag k="ssr:stedsnr" v="332959" />
	</node>
	<node id="-469968" lat="60.3982276331" lon="5.74270596706">
		<tag k="name" v="Lauskartjørna" />
		<tag k="natural" v="water" />
		<tag k="ssr:stedsnr" v="332953" />
	</node>
	<node id="-469967" lat="60.3728416643" lon="5.66250277957">
		<tag k="name" v="Skjeljåvågen" />
		<tag k="natural" v="bay" />
		<tag k="ssr:stedsnr" v="332952" />
	</node>
	<node id="-469966" lat="60.3413194418" lon="5.63838054718">
		<tag k="name" v="Langevika" />
		<tag k="natural" v="bay" />
		<tag k="ssr:stedsnr" v="332899" />
	</node>
	<node id="-469965" lat="60.399008332" lon="5.66723055682">
		<tag k="name" v="Revabakken" />
		<tag k="natural" v="slope" />
		<tag k="place" v="locality" />
		<tag k="ssr:stedsnr" v="332865" />
	</node>
	<node id="-469964" lat="60.3937749971" lon="5.81454167301">
		<tag k="name" v="Vardadalen" />
		<tag k="natural" v="valley" />
		<tag k="place" v="locality" />
		<tag k="ssr:stedsnr" v="332820" />
	</node>
	<node id="-469963" lat="60.3637888869" lon="5.69269443943">
		<tag k="name" v="Lindhaugen" />
		<tag k="natural" v="hill" />
		<tag k="place" v="locality" />
		<tag k="ssr:stedsnr" v="332599" />
	</node>
	<node id="-469962" lat="60.3572750025" lon="5.65805278501">
		<tag k="name" v="Stutaskora" />
		<tag k="natural" v="valley" />
		<tag k="place" v="locality" />
		<tag k="ssr:stedsnr" v="332597" />
	</node>
	<node id="-469961" lat="60.4097888886" lon="5.79275833244">
		<tag k="name" v="Ørnahushaugen" />
		<tag k="natural" v="hill" />
		<tag k="place" v="locality" />
		<tag k="ssr:stedsnr" v="332191" />
	</node>
	<node id="-469960" lat="60.3720027754" lon="5.66041111148">
		<tag k="name" v="Fetaneset" />
		<tag k="natural" v="cape" />
		<tag k="ssr:stedsnr" v="328283" />
	</node>
	<node id="-469959" lat="60.3250083306" lon="5.65635554779">
		<tag k="name" v="Børisanden" />
		<tag k="natural" v="bay" />
		<tag k="ssr:stedsnr" v="328282" />
	</node>
	<node id="-469958" lat="60.404108333" lon="5.72313333683">
		<tag k="fixme" v="consider place=hamlet" />
		<tag k="name" v="Samnanger" />
		<tag k="place" v="village" />
		<tag k="ssr:stedsnr" v="328266" />
	</node>
	<node id="-469957" lat="60.3605972185" lon="5.85521389655">
		<tag k="name" v="Kvannevikskulten" />
		<tag k="natural" v="hill" />
		<tag k="place" v="locality" />
		<tag k="ssr:stedsnr" v="309656" />
	</node>
	<node id="-469956" lat="60.3114500007" lon="5.62213888733">
		<tag k="name" v="Myra" />
		<tag k="place" v="locality" />
		<tag k="ssr:stedsnr" v="309283" />
	</node>
	<node id="-469955" lat="60.3164555555" lon="5.61026945178">
		<tag k="name" v="Skorahaugen" />
		<tag k="natural" v="hill" />
		<tag k="place" v="locality" />
		<tag k="ssr:stedsnr" v="309280" />
	</node>
	<node id="-469954" lat="60.3224419413" lon="5.61767908098">
		<tag k="name" v="Vetlavatnet" />
		<tag k="natural" v="water" />
		<tag k="ssr:stedsnr" v="309254" />
	</node>
	<node id="-469953" lat="60.3299666699" lon="5.61665832422">
		<tag k="name" v="Sandelva" />
		<tag k="ssr:stedsnr" v="309236" />
		<tag k="waterway" v="river" />
	</node>
	<node id="-469952" lat="60.373294442" lon="5.60559443919">
		<tag k="fixme" v="consider natural=peak for the most distinct mountains in the district" />
		<tag k="name" v="Kofta" />
		<tag k="natural" v="hill" />
		<tag k="place" v="locality" />
		<tag k="ssr:stedsnr" v="309189" />
	</node>
	<node id="-469951" lat="60.3815060281" lon="5.64722779841">
		<tag k="fixme" v="consider place=hamlet" />
		<tag k="name" v="Nordbø" />
		<tag k="place" v="farm" />
		<tag k="ssr:stedsnr" v="309183" />
	</node>
	<node id="-469950" lat="60.3824305574" lon="5.70876388806">
		<tag k="name" v="Kvernesvatnet" />
		<tag k="natural" v="water" />
		<tag k="ssr:stedsnr" v="309173" />
		<tag k="water" v="lake" />
	</node>
	<node id="-469949" lat="60.383236312" lon="5.76700930442">
		<tag k="alt_name" v="Haga;Ytra Haga" />
		<tag k="name" v="Ytre Haga" />
		<tag k="place" v="farm" />
		<tag k="ssr:stedsnr" v="309170" />
	</node>
	<node id="-469948" lat="60.3886499999" lon="5.62579166034">
		<tag k="name" v="Brualeitet" />
		<tag k="natural" v="hill" />
		<tag k="place" v="locality" />
		<tag k="ssr:stedsnr" v="309160" />
	</node>
	<node id="-469947" lat="60.4042750002" lon="5.78933889586">
		<tag k="name" v="Tveit" />
		<tag k="place" v="farm" />
		<tag k="ssr:stedsnr" v="309117" />
	</node>
	<node id="-469946" lat="60.3999169142" lon="5.74080196802">
		<tag k="fixme" v="consider place=hamlet" />
		<tag k="name" v="Lauskar" />
		<tag k="place" v="farm" />
		<tag k="ssr:stedsnr" v="309112" />
	</node>
	<node id="-469945" lat="60.4116656682" lon="5.73873788308">
		<tag k="fixme" v="consider place=hamlet" />
		<tag k="name" v="Steintveit" />
		<tag k="place" v="farm" />
		<tag k="ssr:stedsnr" v="309081" />
	</node>
	<node id="-469944" lat="60.3825591921" lon="5.91572840889">
		<tag k="name" v="Skiftesberget" />
		<tag k="natural" v="cape" />
		<tag k="ssr:stedsnr" v="308685" />
	</node>
	<node id="-469943" lat="60.3664666637" lon="5.86137778697">
		<tag k="name" v="Setrabotnen" />
		<tag k="natural" v="valley" />
		<tag k="place" v="locality" />
		<tag k="ssr:stedsnr" v="308636" />
	</node>
	<node id="-469942" lat="60.3269915913" lon="5.85095220409">
		<tag k="name" v="Hestaskovatnet" />
		<tag k="natural" v="water" />
		<tag k="ssr:stedsnr" v="308519" />
	</node>
	<node id="-469941" lat="60.3346337006" lon="5.87915350751">
		<tag k="name" v="Bessavatnet" />
		<tag k="natural" v="water" />
		<tag k="ssr:stedsnr" v="308517" />
	</node>
	<node id="-469940" lat="60.3989527814" lon="5.84420554704">
		<tag k="name" v="Kråni" />
		<tag k="place" v="farm" />
		<tag k="ssr:stedsnr" v="308443" />
	</node>
	<node id="-469939" lat="60.4308479262" lon="5.89870535088">
		<tag k="name" v="Tungegjelet" />
		<tag k="natural" v="gorge" />
		<tag k="ssr:stedsnr" v="308375" />
	</node>
	<node id="-469938" lat="60.4269944468" lon="5.90903055046">
		<tag k="fixme" v="consider natural=peak for the most distinct mountains in the district" />
		<tag k="name" v="Bukkanakken" />
		<tag k="natural" v="hill" />
		<tag k="place" v="locality" />
		<tag k="ssr:stedsnr" v="308373" />
	</node>
	<node id="-469937" lat="60.3727944449" lon="5.75530278108">
		<tag k="name" v="Smådalselva" />
		<tag k="ssr:stedsnr" v="308156" />
		<tag k="waterway" v="river" />
	</node>
	<node id="-469936" lat="60.3560583364" lon="5.68886666255">
		<tag k="alt_name" v="Nygård" />
		<tag k="name" v="Nygard" />
		<tag k="place" v="farm" />
		<tag k="ssr:stedsnr" v="308152" />
	</node>
	<node id="-469935" lat="60.4063861083" lon="5.8004416681">
		<tag k="name" v="Totlandskampen" />
		<tag k="natural" v="hill" />
		<tag k="place" v="locality" />
		<tag k="ssr:stedsnr" v="308077" />
	</node>
	<node id="-469934" lat="60.4372944437" lon="5.74768333677">
		<tag k="historic" v="shieling" />
		<tag k="name" v="Nordvikasetret" />
		<tag k="place" v="locality" />
		<tag k="ssr:stedsnr" v="308044" />
	</node>
	<node id="-469933" lat="60.4493055555" lon="5.79206389798">
		<tag k="name" v="Bogaskaret" />
		<tag k="natural" v="valley" />
		<tag k="place" v="locality" />
		<tag k="ssr:stedsnr" v="308019" />
	</node>
	<node id="-469932" lat="60.3538638874" lon="5.75801388015">
		<tag k="name" v="Nedre Skaråsdalen" />
		<tag k="natural" v="valley" />
		<tag k="place" v="locality" />
		<tag k="ssr:stedsnr" v="301049" />
	</node>
	<node id="-469931" lat="60.3637552727" lon="5.78243440022">
		<tag k="name" v="Stemmetjørnane" />
		<tag k="natural" v="water" />
		<tag k="ssr:stedsnr" v="301031" />
		<tag k="water" v="lake" />
	</node>
	<node id="-469930" lat="60.3521972254" lon="5.8367083301">
		<tag k="name" v="Kikenosi" />
		<tag k="place" v="locality" />
		<tag k="ssr:stedsnr" v="298913" />
	</node>
	<node id="-469929" lat="60.3299000019" lon="5.67917500366">
		<tag k="name" v="Botnen" />
		<tag k="natural" v="valley" />
		<tag k="place" v="locality" />
		<tag k="ssr:stedsnr" v="298115" />
	</node>
	<node id="-469928" lat="60.3276444479" lon="5.65537778067">
		<tag k="name" v="Tjøregruva" />
		<tag k="natural" v="bay" />
		<tag k="ssr:stedsnr" v="298112" />
	</node>
	<node id="-469927" lat="60.3485583333" lon="5.6625750084">
		<tag k="name" v="Skipet" />
		<tag k="natural" v="hill" />
		<tag k="place" v="locality" />
		<tag k="ssr:stedsnr" v="298097" />
	</node>
	<node id="-469926" lat="60.3392749963" lon="5.6827055554">
		<tag k="fixme" v="consider natural=peak for the most distinct mountains in the district" />
		<tag k="name" v="Djuvvikåsen" />
		<tag k="natural" v="hill" />
		<tag k="place" v="locality" />
		<tag k="ssr:stedsnr" v="298088" />
	</node>
	<node id="-469925" lat="60.3420916693" lon="5.77448611043">
		<tag k="name" v="Grønabrekka" />
		<tag k="natural" v="slope" />
		<tag k="place" v="locality" />
		<tag k="ssr:stedsnr" v="298066" />
	</node>
	<node id="-469924" lat="60.3321499991" lon="5.72425834128">
		<tag k="historic" v="shieling" />
		<tag k="name" v="Brunestølen" />
		<tag k="place" v="locality" />
		<tag k="ssr:stedsnr" v="298001" />
	</node>
	<node id="-469922" lat="60.3972249965" lon="5.76750278118">
		<tag k="name" v="Heia" />
		<tag k="natural" v="hill" />
		<tag k="place" v="locality" />
		<tag k="ssr:stedsnr" v="29801" />
	</node>
	<node id="-469906" lat="60.4396861111" lon="5.86038888323">
		<tag k="name" v="Vikane" />
		<tag k="natural" v="bay" />
		<tag k="ssr:stedsnr" v="274949" />
	</node>
	<node id="-469905" lat="60.4425333377" lon="5.9210583329">
		<tag k="historic" v="shieling" />
		<tag k="name" v="Bjørkestølane" />
		<tag k="place" v="locality" />
		<tag k="ssr:stedsnr" v="274695" />
	</node>
	<node id="-469904" lat="60.4496500032" lon="5.84488611856">
		<tag k="name" v="Småtjørnahjellane" />
		<tag k="natural" v="hill" />
		<tag k="place" v="locality" />
		<tag k="ssr:stedsnr" v="274529" />
	</node>
	<node id="-469903" lat="60.4168694426" lon="5.88689723007">
		<tag k="name" v="Vorekleiva" />
		<tag k="natural" v="hill" />
		<tag k="place" v="locality" />
		<tag k="ssr:stedsnr" v="274109" />
	</node>
	<node id="-469902" lat="60.4625777809" lon="5.92268332623">
		<tag k="name" v="Neverkleiva" />
		<tag k="natural" v="slope" />
		<tag k="place" v="locality" />
		<tag k="ssr:stedsnr" v="274085" />
	</node>
	<node id="-469901" lat="60.4096777803" lon="5.83443889579">
		<tag k="name" v="Smoget" />
		<tag k="natural" v="valley" />
		<tag k="place" v="locality" />
		<tag k="ssr:stedsnr" v="273482" />
	</node>
	<node id="-469900" lat="60.4340424008" lon="5.82851018458">
		<tag k="name" v="Setratjørna" />
		<tag k="natural" v="water" />
		<tag k="ssr:stedsnr" v="273435" />
	</node>
	<node id="-469899" lat="60.3664749966" lon="5.81798056376">
		<tag k="name" v="Jarlandselva" />
		<tag k="ssr:stedsnr" v="273374" />
		<tag k="waterway" v="river" />
	</node>
	<node id="-469898" lat="60.4312277792" lon="5.7152694412">
		<tag k="name" v="Lynten" />
		<tag k="natural" v="hill" />
		<tag k="place" v="locality" />
		<tag k="ssr:stedsnr" v="273278" />
	</node>
	<node id="-469897" lat="60.3949258401" lon="5.6821122682">
		<tag k="name" v="Midttjørna" />
		<tag k="natural" v="water" />
		<tag k="ssr:stedsnr" v="272990" />
	</node>
	<node id="-469896" lat="60.3888164086" lon="5.59296906406">
		<tag k="name" v="Gullfjellhalsen" />
		<tag k="natural" v="ridge" />
		<tag k="place" v="locality" />
		<tag k="ssr:stedsnr" v="272972" />
	</node>
	<node id="-469895" lat="60.4048555523" lon="5.72918889163">
		<tag k="name" v="Storhaugen" />
		<tag k="natural" v="hill" />
		<tag k="place" v="locality" />
		<tag k="ssr:stedsnr" v="272965" />
	</node>
	<node id="-469894" lat="60.3930671238" lon="5.71503595524">
		<tag k="name" v="Søvika" />
		<tag k="natural" v="bay" />
		<tag k="ssr:stedsnr" v="272961" />
	</node>
	<node id="-469893" lat="60.3515472257" lon="5.65750556268">
		<tag k="name" v="Bekkene" />
		<tag k="natural" v="slope" />
		<tag k="place" v="locality" />
		<tag k="ssr:stedsnr" v="272926" />
	</node>
	<node id="-469892" lat="60.3400083337" lon="5.59979444519">
		<tag k="name" v="Rundehaugen" />
		<tag k="natural" v="hill" />
		<tag k="place" v="locality" />
		<tag k="ssr:stedsnr" v="272905" />
	</node>
	<node id="-469891" lat="60.3427166674" lon="5.60491666147">
		<tag k="name" v="Fonnadalen" />
		<tag k="natural" v="valley" />
		<tag k="place" v="locality" />
		<tag k="ssr:stedsnr" v="272904" />
	</node>
	<node id="-469890" lat="60.3489999998" lon="5.6835805575">
		<tag k="name" v="Knarrdalsneset" />
		<tag k="natural" v="cape" />
		<tag k="ssr:stedsnr" v="272900" />
	</node>
	<node id="-469889" lat="60.3428358854" lon="5.59193730926">
		<tag k="name" v="Vetlabrekkvatnet" />
		<tag k="natural" v="water" />
		<tag k="ssr:stedsnr" v="272897" />
		<tag k="water" v="lake" />
	</node>
	<node id="-469888" lat="60.3024305592" lon="5.60369722932">
		<tag k="name" v="Revadalen" />
		<tag k="natural" v="valley" />
		<tag k="place" v="locality" />
		<tag k="ssr:stedsnr" v="272586" />
	</node>
	<node id="-469887" lat="60.3482999986" lon="5.62697221792">
		<tag k="name" v="Heiane" />
		<tag k="natural" v="hill" />
		<tag k="place" v="locality" />
		<tag k="ssr:stedsnr" v="272582" />
	</node>
	<node id="-469886" lat="60.3684499963" lon="5.66485834018">
		<tag k="name" v="Senabrekka" />
		<tag k="natural" v="slope" />
		<tag k="place" v="locality" />
		<tag k="ssr:stedsnr" v="272538" />
	</node>
	<node id="-469885" lat="60.366580553" lon="5.67968333337">
		<tag k="name" v="Oldervollen" />
		<tag k="place" v="farm" />
		<tag k="ssr:stedsnr" v="272535" />
	</node>
	<node id="-469884" lat="60.4063944427" lon="5.79115277706">
		<tag k="name" v="Kvernelva" />
		<tag k="ssr:stedsnr" v="272196" />
		<tag k="waterway" v="river" />
	</node>
</osm>
