<?xml version="1.0" encoding="UTF-8"?>
<osm generator="osmapis" version="0.6">
	<node id="-470015" lat="60.4358138903" lon="5.72591665916">
		<tag k="fixme" v="multiple name tags, choose one and add the other to alt_name" />
		<tag k="name" v="Godmortjørnane;Bjørkerindtjørna" />
		<tag k="natural" v="water" />
		<tag k="ssr:stedsnr" v="733064" />
		<tag k="water" v="lake" />
	</node>
	<node id="-469502" lat="60.4257361086" lon="5.6887222295">
		<tag k="name" v="Holmavatnet" />
		<tag k="natural" v="water" />
		<tag k="ssr:stedsnr" v="66064" />
		<tag k="water" v="lake" />
	</node>
	<node id="-469501" lat="60.4266264214" lon="5.70973102346">
		<tag k="name" v="Kalivatnet" />
		<tag k="natural" v="water" />
		<tag k="ssr:stedsnr" v="66063" />
	</node>
	<node id="-469500" lat="60.4452082292" lon="5.77733180687">
		<tag k="name" v="Øyskrøvatnet" />
		<tag k="natural" v="water" />
		<tag k="ssr:stedsnr" v="66037" />
	</node>
	<node id="-469499" lat="60.367663891" lon="5.72680278198">
		<tag k="name" v="Insta Setervikselvi" />
		<tag k="ssr:stedsnr" v="59048" />
		<tag k="waterway" v="stream" />
	</node>
	<node id="-469588" lat="60.3942603648" lon="5.69648507439">
		<tag k="name" v="Raunekleivtjørna" />
		<tag k="natural" v="water" />
		<tag k="ssr:stedsnr" v="150980" />
	</node>
	<node id="-469494" lat="60.3317557432" lon="5.67514305358">
		<tag k="name" v="Vetlavatnet" />
		<tag k="natural" v="water" />
		<tag k="ssr:stedsnr" v="55104" />
	</node>
	<node id="-470005" lat="60.3420194465" lon="5.77772221384">
		<tag k="name" v="Tangatjørnane" />
		<tag k="natural" v="water" />
		<tag k="ssr:stedsnr" v="722087" />
		<tag k="water" v="lake" />
	</node>
	<node id="-470001" lat="60.4466333361" lon="5.86812222537">
		<tag k="name" v="Geitabekken" />
		<tag k="ssr:stedsnr" v="699504" />
		<tag k="waterway" v="stream" />
	</node>
	<node id="-469997" lat="60.4076999985" lon="5.82233332602">
		<tag k="name" v="Svensdalstjørna" />
		<tag k="natural" v="water" />
		<tag k="ssr:stedsnr" v="698461" />
	</node>
	<node id="-469484" lat="60.4564027761" lon="5.88494722997">
		<tag k="name" v="Neset" />
		<tag k="natural" v="cape" />
		<tag k="ssr:stedsnr" v="31950" />
	</node>
	<node id="-469989" lat="60.3743564846" lon="5.67417018569">
		<tag k="name" v="Skarselva" />
		<tag k="ssr:stedsnr" v="696978" />
		<tag k="waterway" v="river" />
	</node>
	<node id="-469476" lat="60.4323709672" lon="5.7993607118">
		<tag k="name" v="Kampatjørna" />
		<tag k="natural" v="water" />
		<tag k="ssr:stedsnr" v="30441" />
	</node>
	<node id="-469414" lat="60.3895944445" lon="5.84041387986">
		<tag k="name" v="Mørkhølen" />
		<tag k="place" v="locality" />
		<tag k="ssr:stedsnr" v="394715" />
	</node>
	<node id="-469391" lat="60.4027611132" lon="5.84591111734">
		<tag k="name" v="Storelva" />
		<tag k="ssr:stedsnr" v="369418" />
		<tag k="waterway" v="stream" />
	</node>
	<node id="-469560" lat="60.3943228471" lon="5.64728619802">
		<tag k="name" v="Måsatjørna" />
		<tag k="natural" v="water" />
		<tag k="ssr:stedsnr" v="126102" />
	</node>
	<node id="-469975" lat="60.5056704042" lon="5.95279894532">
		<tag k="name" v="Gulltjørna" />
		<tag k="natural" v="water" />
		<tag k="ssr:stedsnr" v="674976" />
	</node>
	<node id="-469462" lat="60.4840361124" lon="5.92993055862">
		<tag k="name" v="Nedsta Dukavatnet" />
		<tag k="natural" v="water" />
		<tag k="ssr:stedsnr" v="6346" />
		<tag k="water" v="lake" />
	</node>
	<node id="-469973" lat="60.3354611109" lon="5.92569722394">
		<tag k="name" v="Krokvatnet" />
		<tag k="natural" v="water" />
		<tag k="ssr:stedsnr" v="673562" />
		<tag k="water" v="lake" />
	</node>
	<node id="-469460" lat="60.3817249991" lon="5.79305555294">
		<tag k="name" v="Frølandsvatnet" />
		<tag k="natural" v="water" />
		<tag k="ssr:stedsnr" v="6151" />
		<tag k="water" v="lake" />
	</node>
	<node id="-469667" lat="60.3333388866" lon="5.72512223096">
		<tag k="name" v="Heimsta Brunetjørna" />
		<tag k="natural" v="water" />
		<tag k="ssr:stedsnr" v="237002" />
		<tag k="water" v="pond" />
	</node>
	<node id="-469455" lat="60.4634500023" lon="5.90746666304">
		<tag k="name" v="Dukaelva" />
		<tag k="ssr:stedsnr" v="5331" />
		<tag k="waterway" v="stream" />
	</node>
	<node id="-469452" lat="60.3012011323" lon="5.59145183368">
		<tag k="name" v="Langavatnet" />
		<tag k="natural" v="water" />
		<tag k="ssr:stedsnr" v="5242" />
	</node>
	<node id="-469960" lat="60.4308416209" lon="5.71179851788">
		<tag k="name" v="Lomsvatnet" />
		<tag k="natural" v="water" />
		<tag k="ssr:stedsnr" v="673064" />
	</node>
	<node id="-469447" lat="60.3603029706" lon="5.76746135248">
		<tag k="name" v="Smådalsvatnet" />
		<tag k="natural" v="water" />
		<tag k="ssr:stedsnr" v="5182" />
	</node>
	<node id="-469958" lat="60.4398363552" lon="5.90851418756">
		<tag k="name" v="Gamlafetelva" />
		<tag k="ssr:stedsnr" v="672412" />
		<tag k="waterway" v="river" />
	</node>
	<node id="-469956" lat="60.448686113" lon="5.88509722728">
		<tag k="name" v="Breivika" />
		<tag k="natural" v="bay" />
		<tag k="ssr:stedsnr" v="672357" />
	</node>
	<node id="-469579" lat="60.4945361083" lon="5.96304999645">
		<tag k="name" v="Øvsta Dukavatnet" />
		<tag k="natural" v="water" />
		<tag k="ssr:stedsnr" v="127335" />
		<tag k="water" v="lake" />
	</node>
	<node id="-469952" lat="60.4775027732" lon="5.92849443901">
		<tag k="name" v="Dukafossen" />
		<tag k="natural" v="waterfall" />
		<tag k="ssr:stedsnr" v="672337" />
	</node>
	<node id="-469437" lat="60.4845091531" lon="5.97096352138">
		<tag k="name" v="Vestra Trongasmogtjørni" />
		<tag k="natural" v="water" />
		<tag k="ssr:stedsnr" v="991139" />
	</node>
	<node id="-469436" lat="60.4777585333" lon="5.98203655005">
		<tag k="name" v="Trongasmogtjørna" />
		<tag k="natural" v="water" />
		<tag k="ssr:stedsnr" v="308339" />
	</node>
	<node id="-469946" lat="60.4353705086" lon="5.71062736243">
		<tag k="name" v="Krokvatnet" />
		<tag k="natural" v="water" />
		<tag k="ssr:stedsnr" v="672054" />
	</node>
	<node id="-469427" lat="60.3604361119" lon="5.84730278632">
		<tag k="name" v="Kvannevikselvi" />
		<tag k="ssr:stedsnr" v="890965" />
		<tag k="waterway" v="river" />
	</node>
	<node id="-469425" lat="60.3277166668" lon="5.69125277908">
		<tag k="name" v="Rømmaholken" />
		<tag k="natural" v="cape" />
		<tag k="ssr:stedsnr" v="479129" />
	</node>
	<node id="-469424" lat="60.3294222191" lon="5.69094444022">
		<tag k="name" v="Loggneset" />
		<tag k="natural" v="cape" />
		<tag k="ssr:stedsnr" v="479126" />
	</node>
	<node id="-469423" lat="60.3344777814" lon="5.67718333234">
		<tag k="name" v="Storavatnet" />
		<tag k="natural" v="water" />
		<tag k="ssr:stedsnr" v="479123" />
	</node>
	<node id="-469416" lat="60.4606999975" lon="5.89661110694">
		<tag k="name" v="Halsen" />
		<tag k="natural" v="cape" />
		<tag k="ssr:stedsnr" v="395104" />
	</node>
	<node id="-469926" lat="60.4278305529" lon="5.82233334131">
		<tag k="name" v="Matsekkelva" />
		<tag k="ssr:stedsnr" v="637408" />
		<tag k="waterway" v="river" />
	</node>
	<node id="-469409" lat="60.3945576927" lon="5.67885753814">
		<tag k="name" v="Vossatjørna" />
		<tag k="natural" v="water" />
		<tag k="ssr:stedsnr" v="393993" />
	</node>
	<node id="-469316" lat="60.3637552727" lon="5.78243440022">
		<tag k="name" v="Stemmetjørnane" />
		<tag k="natural" v="water" />
		<tag k="ssr:stedsnr" v="301031" />
		<tag k="water" v="lake" />
	</node>
	<node id="-469904" lat="60.3129138856" lon="5.6160499942">
		<tag k="fixme" v="multiple name tags, choose one and add the other to alt_name" />
		<tag k="name" v="Rolsvågvatnet;Storavatnet" />
		<tag k="natural" v="water" />
		<tag k="ssr:stedsnr" v="612259" />
	</node>
	<node id="-469903" lat="60.34122008" lon="5.71194198209">
		<tag k="name" v="Stemmevatnet" />
		<tag k="natural" v="water" />
		<tag k="ssr:stedsnr" v="612241" />
	</node>
	<node id="-469388" lat="60.4277837072" lon="5.93469206484">
		<tag k="name" v="Skeisskartjørna" />
		<tag k="natural" v="water" />
		<tag k="ssr:stedsnr" v="369367" />
	</node>
	<node id="-469374" lat="60.4016375951" lon="5.6497571325">
		<tag k="name" v="Langavatnet" />
		<tag k="natural" v="water" />
		<tag k="ssr:stedsnr" v="369096" />
	</node>
	<node id="-469373" lat="60.3992361135" lon="5.68023332686">
		<tag k="name" v="Dalaelva" />
		<tag k="ssr:stedsnr" v="369077" />
		<tag k="waterway" v="stream" />
	</node>
	<node id="-469881" lat="60.3361920882" lon="5.7061849337">
		<tag k="name" v="Lomatjørna" />
		<tag k="natural" v="water" />
		<tag k="ssr:stedsnr" v="601032" />
	</node>
	<node id="-469878" lat="60.3247593987" lon="5.76688420084">
		<tag k="name" v="Svartatjørni" />
		<tag k="natural" v="water" />
		<tag k="ssr:stedsnr" v="583664" />
	</node>
	<node id="-469877" lat="60.4553637688" lon="5.82406100807">
		<tag k="name" v="Kløvsteinstjørna" />
		<tag k="natural" v="water" />
		<tag k="ssr:stedsnr" v="577618" />
	</node>
	<node id="-469364" lat="60.4533333367" lon="5.9081305643">
		<tag k="name" v="Matsekken" />
		<tag k="ssr:stedsnr" v="334931" />
		<tag k="waterway" v="stream" />
	</node>
	<node id="-469363" lat="60.4460416692" lon="5.8619138901">
		<tag k="name" v="Åritangen" />
		<tag k="natural" v="cape" />
		<tag k="ssr:stedsnr" v="334493" />
	</node>
	<node id="-469871" lat="60.4344361101" lon="5.80668611501">
		<tag k="name" v="Setraelva" />
		<tag k="ssr:stedsnr" v="576450" />
		<tag k="waterway" v="river" />
	</node>
	<node id="-469866" lat="60.4264138883" lon="5.7255249954">
		<tag k="name" v="Tjørndalstjørnane" />
		<tag k="natural" v="water" />
		<tag k="ssr:stedsnr" v="576279" />
	</node>
	<node id="-469353" lat="60.3982276331" lon="5.74270596706">
		<tag k="name" v="Lauskartjørna" />
		<tag k="natural" v="water" />
		<tag k="ssr:stedsnr" v="332953" />
	</node>
	<node id="-469392" lat="60.3891583379" lon="5.89781111476">
		<tag k="name" v="Storebekken" />
		<tag k="ssr:stedsnr" v="369675" />
		<tag k="waterway" v="stream" />
	</node>
	<node id="-469477" lat="60.4259035722" lon="5.81285877156">
		<tag k="name" v="Larstjørna" />
		<tag k="natural" v="water" />
		<tag k="ssr:stedsnr" v="30443" />
	</node>
	<node id="-469339" lat="60.3224419413" lon="5.61767908098">
		<tag k="name" v="Vetlavatnet" />
		<tag k="natural" v="water" />
		<tag k="ssr:stedsnr" v="309254" />
	</node>
	<node id="-469338" lat="60.3299666699" lon="5.61665832422">
		<tag k="name" v="Sandelva" />
		<tag k="ssr:stedsnr" v="309236" />
		<tag k="waterway" v="river" />
	</node>
	<node id="-469849" lat="60.4354166712" lon="5.92324722916">
		<tag k="name" v="Røyrfjellelva" />
		<tag k="ssr:stedsnr" v="551415" />
		<tag k="waterway" v="river" />
	</node>
	<node id="-469335" lat="60.3824305574" lon="5.70876388806">
		<tag k="name" v="Kvernesvatnet" />
		<tag k="natural" v="water" />
		<tag k="ssr:stedsnr" v="309173" />
		<tag k="water" v="lake" />
	</node>
	<node id="-469842" lat="60.3213414635" lon="5.60032656751">
		<tag k="name" v="Fossavatnet" />
		<tag k="natural" v="water" />
		<tag k="ssr:stedsnr" v="551249" />
	</node>
	<node id="-469329" lat="60.3825591921" lon="5.91572840889">
		<tag k="name" v="Skiftesberget" />
		<tag k="natural" v="cape" />
		<tag k="ssr:stedsnr" v="308685" />
	</node>
	<node id="-469327" lat="60.3269915913" lon="5.85095220409">
		<tag k="name" v="Hestaskovatnet" />
		<tag k="natural" v="water" />
		<tag k="ssr:stedsnr" v="308519" />
	</node>
	<node id="-469326" lat="60.3346337006" lon="5.87915350751">
		<tag k="name" v="Bessavatnet" />
		<tag k="natural" v="water" />
		<tag k="ssr:stedsnr" v="308517" />
	</node>
	<node id="-469322" lat="60.3727944449" lon="5.75530278108">
		<tag k="name" v="Smådalselva" />
		<tag k="ssr:stedsnr" v="308156" />
		<tag k="waterway" v="river" />
	</node>
	<node id="-469833" lat="60.4292290704" lon="5.73462284145">
		<tag k="name" v="Slåttetjørna" />
		<tag k="natural" v="water" />
		<tag k="ssr:stedsnr" v="551062" />
	</node>
	<node id="-469831" lat="60.4450461056" lon="5.74349381894">
		<tag k="name" v="Futivatnet" />
		<tag k="natural" v="water" />
		<tag k="ssr:stedsnr" v="551039" />
	</node>
	<node id="-469828" lat="60.3490017629" lon="5.71517585982">
		<tag k="name" v="Skorvetjørni" />
		<tag k="natural" v="water" />
		<tag k="ssr:stedsnr" v="544034" />
	</node>
	<node id="-469823" lat="60.3446777804" lon="5.68638055372">
		<tag k="name" v="Djuvvikelva" />
		<tag k="ssr:stedsnr" v="540112" />
		<tag k="waterway" v="stream" />
	</node>
	<node id="-469557" lat="60.3572638919" lon="5.81418888877">
		<tag k="name" v="Kikedalselvi" />
		<tag k="ssr:stedsnr" v="119043" />
		<tag k="waterway" v="river" />
	</node>
	<node id="-469814" lat="60.3709743498" lon="5.82826966217">
		<tag k="name" v="Åsatjørnane" />
		<tag k="natural" v="water" />
		<tag k="ssr:stedsnr" v="516585" />
		<tag k="water" v="lake" />
	</node>
	<node id="-469291" lat="60.4396861111" lon="5.86038888323">
		<tag k="name" v="Vikane" />
		<tag k="natural" v="bay" />
		<tag k="ssr:stedsnr" v="274949" />
	</node>
	<node id="-469285" lat="60.4340424008" lon="5.82851018458">
		<tag k="name" v="Setratjørna" />
		<tag k="natural" v="water" />
		<tag k="ssr:stedsnr" v="273435" />
	</node>
	<node id="-469284" lat="60.3664749966" lon="5.81798056376">
		<tag k="name" v="Jarlandselva" />
		<tag k="ssr:stedsnr" v="273374" />
		<tag k="waterway" v="river" />
	</node>
	<node id="-469282" lat="60.3949258401" lon="5.6821122682">
		<tag k="name" v="Midttjørna" />
		<tag k="natural" v="water" />
		<tag k="ssr:stedsnr" v="272990" />
	</node>
	<node id="-469792" lat="60.3633888912" lon="5.65906388289">
		<tag k="name" v="Øyaelva" />
		<tag k="ssr:stedsnr" v="514633" />
		<tag k="waterway" v="river" />
	</node>
	<node id="-469788" lat="60.3954138911" lon="5.79907778435">
		<tag k="name" v="Storelva" />
		<tag k="ssr:stedsnr" v="492556" />
		<tag k="waterway" v="river" />
	</node>
	<node id="-469274" lat="60.3428358854" lon="5.59193730926">
		<tag k="name" v="Vetlabrekkvatnet" />
		<tag k="natural" v="water" />
		<tag k="ssr:stedsnr" v="272897" />
		<tag k="water" v="lake" />
	</node>
	<node id="-469782" lat="60.3847083353" lon="5.85772499431">
		<tag k="name" v="Lona" />
		<tag k="natural" v="water" />
		<tag k="ssr:stedsnr" v="490721" />
		<tag k="water" v="lake" />
	</node>
	<node id="-469269" lat="60.4063944427" lon="5.79115277706">
		<tag k="name" v="Kvernelva" />
		<tag k="ssr:stedsnr" v="272196" />
		<tag k="waterway" v="river" />
	</node>
	<node id="-469778" lat="60.3335583339" lon="5.59631666531">
		<tag k="name" v="Eikelundsbekken" />
		<tag k="ssr:stedsnr" v="491203" />
		<tag k="waterway" v="stream" />
	</node>
	<node id="-469775" lat="60.4554750021" lon="5.89822777527">
		<tag k="name" v="Kvitingsvatnet" />
		<tag k="natural" v="water" />
		<tag k="ssr:stedsnr" v="490383" />
		<tag k="water" v="lake" />
	</node>
	<node id="-469774" lat="60.4563666664" lon="5.91560277502">
		<tag k="name" v="Nedsta Sotabottsvatnet" />
		<tag k="natural" v="water" />
		<tag k="ssr:stedsnr" v="490379" />
		<tag k="water" v="lake" />
	</node>
	<node id="-469770" lat="60.4639583342" lon="5.88363611275">
		<tag k="name" v="Grøneviksbekken" />
		<tag k="ssr:stedsnr" v="490329" />
		<tag k="waterway" v="stream" />
	</node>
	<node id="-469621" lat="60.4614771476" lon="5.95463078802">
		<tag k="name" v="Fagerdalstjørna" />
		<tag k="natural" v="water" />
		<tag k="ssr:stedsnr" v="187363" />
	</node>
	<node id="-469762" lat="60.3664472201" lon="5.74823055523">
		<tag k="name" v="Stølaelvi" />
		<tag k="ssr:stedsnr" v="483069" />
		<tag k="waterway" v="stream" />
	</node>
	<node id="-469632" lat="60.3810583307" lon="5.88556110732">
		<tag k="name" v="Fossen bratte" />
		<tag k="natural" v="waterfall" />
		<tag k="ssr:stedsnr" v="187681" />
	</node>
	<node id="-469753" lat="60.4363249992" lon="5.85131111599">
		<tag k="name" v="Klentangen" />
		<tag k="natural" v="cape" />
		<tag k="ssr:stedsnr" v="456965" />
	</node>
	<node id="-469751" lat="60.4536361117" lon="5.87564167186">
		<tag k="name" v="Storholmen" />
		<tag k="place" v="islet" />
		<tag k="ssr:stedsnr" v="456548" />
	</node>
	<node id="-469749" lat="60.4766944491" lon="5.91362500713">
		<tag k="name" v="Holebekken" />
		<tag k="ssr:stedsnr" v="456115" />
		<tag k="waterway" v="stream" />
	</node>
	<node id="-469734" lat="60.3532194469" lon="5.60564443959">
		<tag k="name" v="Stora Brekkevatnet" />
		<tag k="natural" v="water" />
		<tag k="ssr:stedsnr" v="453653" />
		<tag k="water" v="lake" />
	</node>
	<node id="-469727" lat="60.4575805923" lon="5.84610962031">
		<tag k="name" v="Skoradalstjørna" />
		<tag k="natural" v="water" />
		<tag k="ssr:stedsnr" v="430387" />
	</node>
	<node id="-469726" lat="60.4588027746" lon="5.95591667102">
		<tag k="name" v="Fagerdalsvatnet" />
		<tag k="natural" v="water" />
		<tag k="ssr:stedsnr" v="430383" />
	</node>
	<node id="-469720" lat="60.3609875095" lon="5.72913744806">
		<tag k="name" v="Setratjørnane" />
		<tag k="natural" v="water" />
		<tag k="ssr:stedsnr" v="430170" />
		<tag k="water" v="lake" />
	</node>
	<node id="-469715" lat="60.3564472236" lon="5.85639164493">
		<tag k="name" v="Kvanneviksvatnet" />
		<tag k="natural" v="water" />
		<tag k="ssr:stedsnr" v="430637" />
	</node>
	<node id="-470225" lat="60.4402722217" lon="5.83888055071">
		<tag k="name" v="Storemyrbekken" />
		<tag k="ssr:stedsnr" v="941977" />
		<tag k="waterway" v="stream" />
	</node>
	<node id="-469707" lat="60.3328333327" lon="5.70546388946">
		<tag k="name" v="Svartetjørna" />
		<tag k="natural" v="water" />
		<tag k="ssr:stedsnr" v="419037" />
	</node>
	<node id="-469705" lat="60.3410499976" lon="5.72305832804">
		<tag k="name" v="Geitalibekken" />
		<tag k="ssr:stedsnr" v="419030" />
		<tag k="waterway" v="stream" />
	</node>
	<node id="-469622" lat="60.4532472224" lon="5.87458888206">
		<tag k="name" v="Kleivavatnet" />
		<tag k="natural" v="water" />
		<tag k="ssr:stedsnr" v="187367" />
		<tag k="water" v="lake" />
	</node>
	<node id="-469698" lat="60.3834916708" lon="5.6655527797">
		<tag k="name" v="Storelva" />
		<tag k="ssr:stedsnr" v="249582" />
		<tag k="waterway" v="river" />
	</node>
	<node id="-469696" lat="60.3976618548" lon="5.88878552552">
		<tag k="name" v="Setratjørna" />
		<tag k="natural" v="water" />
		<tag k="ssr:stedsnr" v="248753" />
	</node>
	<node id="-469695" lat="60.3634294709" lon="5.91011562178">
		<tag k="name" v="Langatjørna" />
		<tag k="natural" v="water" />
		<tag k="ssr:stedsnr" v="248672" />
	</node>
	<node id="-470206" lat="60.5020634105" lon="5.96062668884">
		<tag k="name" v="Nedre Gulltjørna" />
		<tag k="natural" v="water" />
		<tag k="ssr:stedsnr" v="917976" />
	</node>
	<node id="-469365" lat="60.4565111149" lon="5.90744444766">
		<tag k="name" v="Fossaneset" />
		<tag k="natural" v="cape" />
		<tag k="ssr:stedsnr" v="334941" />
	</node>
	<node id="-470204" lat="60.3440617018" lon="5.91193770299">
		<tag k="name" v="Nedsta Botnavatnet" />
		<tag k="natural" v="water" />
		<tag k="ssr:stedsnr" v="916624" />
	</node>
	<node id="-470203" lat="60.4971749988" lon="5.92200556125">
		<tag k="name" v="Elvakrokane" />
		<tag k="place" v="locality" />
		<tag k="ssr:stedsnr" v="916338" />
	</node>
	<node id="-469688" lat="60.4768472216" lon="5.89007778571">
		<tag k="name" v="Klungerdalsvatnet" />
		<tag k="natural" v="water" />
		<tag k="ssr:stedsnr" v="248342" />
	</node>
	<node id="-469687" lat="60.473480558" lon="5.89694722511">
		<tag k="name" v="Fonnabekken" />
		<tag k="ssr:stedsnr" v="248340" />
		<tag k="waterway" v="stream" />
	</node>
	<node id="-469685" lat="60.4913805553" lon="5.94834444474">
		<tag k="name" v="Lonane" />
		<tag k="place" v="locality" />
		<tag k="ssr:stedsnr" v="248300" />
	</node>
	<node id="-470184" lat="60.3878250005" lon="5.8483916639">
		<tag k="name" v="Verkafossen" />
		<tag k="natural" v="waterfall" />
		<tag k="ssr:stedsnr" v="907425" />
	</node>
	<node id="-469671" lat="60.3380888868" lon="5.71141666943">
		<tag k="name" v="Grytena" />
		<tag k="place" v="islet" />
		<tag k="ssr:stedsnr" v="237033" />
	</node>
	<node id="-469670" lat="60.3459919591" lon="5.71473913658">
		<tag k="name" v="Utløhaugtjørni" />
		<tag k="natural" v="water" />
		<tag k="ssr:stedsnr" v="237024" />
	</node>
	<node id="-470179" lat="60.4051499994" lon="5.8332555547">
		<tag k="name" v="Svartatjørnsbekken" />
		<tag k="ssr:stedsnr" v="880503" />
		<tag k="waterway" v="stream" />
	</node>
	<node id="-469662" lat="60.3632888883" lon="5.82141111596">
		<tag k="name" v="Tverrelvi" />
		<tag k="ssr:stedsnr" v="222948" />
		<tag k="waterway" v="stream" />
	</node>
	<node id="-469660" lat="60.4444083308" lon="5.83304166354">
		<tag k="name" v="Svartabergstjørna" />
		<tag k="natural" v="water" />
		<tag k="ssr:stedsnr" v="213594" />
	</node>
	<node id="-469653" lat="60.4650888868" lon="5.89050000235">
		<tag k="name" v="Stølabekken" />
		<tag k="ssr:stedsnr" v="213101" />
		<tag k="waterway" v="stream" />
	</node>
	<node id="-469651" lat="60.4018080719" lon="5.83163724341">
		<tag k="name" v="Svartatjørna" />
		<tag k="natural" v="water" />
		<tag k="ssr:stedsnr" v="212494" />
	</node>
	<node id="-470152" lat="60.3273388844" lon="5.67966944306">
		<tag k="name" v="Botnavatnet" />
		<tag k="natural" v="water" />
		<tag k="ssr:stedsnr" v="855229" />
	</node>
	<node id="-470147" lat="60.3604840584" lon="5.70581473316">
		<tag k="name" v="Kampatjørna" />
		<tag k="natural" v="water" />
		<tag k="ssr:stedsnr" v="855169" />
	</node>
	<node id="-470144" lat="60.3956759489" lon="5.68950135273">
		<tag k="name" v="Instatjørna" />
		<tag k="natural" v="water" />
		<tag k="ssr:stedsnr" v="855107" />
	</node>
	<node id="-469630" lat="60.3627916695" lon="5.8908666725">
		<tag k="name" v="Stutabottselva" />
		<tag k="ssr:stedsnr" v="187626" />
		<tag k="waterway" v="stream" />
	</node>
	<node id="-470140" lat="60.4347235909" lon="5.73288595636">
		<tag k="name" v="Langatjørna" />
		<tag k="natural" v="water" />
		<tag k="ssr:stedsnr" v="855040" />
	</node>
	<node id="-470139" lat="60.4328027776" lon="5.74294443832">
		<tag k="name" v="Tronivatnet" />
		<tag k="natural" v="water" />
		<tag k="ssr:stedsnr" v="855039" />
		<tag k="water" v="lake" />
	</node>
	<node id="-469624" lat="60.4396666643" lon="5.89339166736">
		<tag k="name" v="Kvanndalsvatnet" />
		<tag k="natural" v="water" />
		<tag k="ssr:stedsnr" v="187403" />
		<tag k="water" v="lake" />
	</node>
	<node id="-470134" lat="60.337967051" lon="5.68517283792">
		<tag k="name" v="Tjørndalstjørna" />
		<tag k="natural" v="water" />
		<tag k="ssr:stedsnr" v="844125" />
	</node>
	<node id="-470133" lat="60.3420527812" lon="5.68960277911">
		<tag k="name" v="Borddalstjørna" />
		<tag k="natural" v="water" />
		<tag k="ssr:stedsnr" v="844086" />
	</node>
	<node id="-469620" lat="60.2980823862" lon="5.58377074212">
		<tag k="name" v="Botnavatnet" />
		<tag k="natural" v="water" />
		<tag k="ssr:stedsnr" v="187271" />
	</node>
	<node id="-469614" lat="60.4279388851" lon="5.72492778321">
		<tag k="name" v="Instatjørna" />
		<tag k="natural" v="water" />
		<tag k="ssr:stedsnr" v="187063" />
		<tag k="water" v="lake" />
	</node>
	<node id="-470205" lat="60.3452138865" lon="5.86773888984">
		<tag k="name" v="Holmavatnet" />
		<tag k="natural" v="water" />
		<tag k="ssr:stedsnr" v="916652" />
		<tag k="water" v="lake" />
	</node>
	<node id="-469612" lat="60.429799998" lon="5.75308610326">
		<tag k="name" v="Fitjavatnet" />
		<tag k="natural" v="water" />
		<tag k="ssr:stedsnr" v="187039" />
		<tag k="water" v="lake" />
	</node>
	<node id="-469611" lat="60.4579386303" lon="5.80758371202">
		<tag k="name" v="Rossatjørna" />
		<tag k="natural" v="water" />
		<tag k="ssr:stedsnr" v="187018" />
	</node>
	<node id="-470122" lat="60.4539194468" lon="5.88577777076">
		<tag k="name" v="Kvernaelva" />
		<tag k="ssr:stedsnr" v="820952" />
		<tag k="waterway" v="river" />
	</node>
	<node id="-469603" lat="60.3468944489" lon="5.69313611423">
		<tag k="name" v="Øpstebøelva" />
		<tag k="ssr:stedsnr" v="176105" />
		<tag k="waterway" v="stream" />
	</node>
	<node id="-469691" lat="60.4335694465" lon="5.84640833957">
		<tag k="name" v="Grønsdalsvatnet" />
		<tag k="natural" v="water" />
		<tag k="ssr:stedsnr" v="248415" />
		<tag k="water" v="lake" />
	</node>
	<node id="-469599" lat="60.3425527805" lon="5.71745000826">
		<tag k="name" v="Geitaliholmen" />
		<tag k="place" v="islet" />
		<tag k="ssr:stedsnr" v="176029" />
	</node>
	<node id="-469598" lat="60.3474861073" lon="5.71058055745">
		<tag k="name" v="Gamlasetertjørni" />
		<tag k="natural" v="water" />
		<tag k="ssr:stedsnr" v="176027" />
	</node>
	<node id="-470100" lat="60.380634191" lon="5.65459492933">
		<tag k="name" v="Nordbøvatnet" />
		<tag k="natural" v="water" />
		<tag k="ssr:stedsnr" v="795186" />
	</node>
	<node id="-470099" lat="60.3786248769" lon="5.68429293842">
		<tag k="name" v="Skarsvatnet" />
		<tag k="natural" v="water" />
		<tag k="ssr:stedsnr" v="795184" />
	</node>
	<node id="-470098" lat="60.3881750017" lon="5.91703888574">
		<tag k="name" v="Eikedalsvatnet" />
		<tag k="natural" v="water" />
		<tag k="ssr:stedsnr" v="794737" />
		<tag k="water" v="lake" />
	</node>
	<node id="-470094" lat="60.4421764923" lon="5.93711968379">
		<tag k="name" v="Røyrfjellstjørna" />
		<tag k="natural" v="water" />
		<tag k="ssr:stedsnr" v="794415" />
	</node>
	<node id="-469580" lat="60.4868142437" lon="5.8999886307">
		<tag k="name" v="Kvanngrøtjørna" />
		<tag k="natural" v="water" />
		<tag k="ssr:stedsnr" v="127346" />
	</node>
	<node id="-470091" lat="60.4571583325" lon="5.87483610556">
		<tag k="name" v="Ytstebekken" />
		<tag k="ssr:stedsnr" v="794373" />
		<tag k="waterway" v="stream" />
	</node>
	<node id="-469578" lat="60.4905333332" lon="5.90331388757">
		<tag k="name" v="Hytteelva" />
		<tag k="ssr:stedsnr" v="127370" />
		<tag k="waterway" v="stream" />
	</node>
	<node id="-470088" lat="60.4667305519" lon="5.88998332634">
		<tag k="name" v="Kloppabekken" />
		<tag k="ssr:stedsnr" v="794319" />
		<tag k="waterway" v="stream" />
	</node>
	<node id="-470086" lat="60.4910111102" lon="5.89374167502">
		<tag k="name" v="Vestelva" />
		<tag k="ssr:stedsnr" v="794315" />
		<tag k="waterway" v="stream" />
	</node>
	<node id="-469601" lat="60.3403833341" lon="5.71024722015">
		<tag k="name" v="Kvalen" />
		<tag k="place" v="islet" />
		<tag k="ssr:stedsnr" v="176033" />
	</node>
	<node id="-470084" lat="60.3505857102" lon="5.81633870361">
		<tag k="name" v="Kikedalsvatnet" />
		<tag k="natural" v="water" />
		<tag k="ssr:stedsnr" v="794205" />
	</node>
	<node id="-469571" lat="60.4078850104" lon="5.85447294615">
		<tag k="name" v="Smistabbatjørna" />
		<tag k="natural" v="water" />
		<tag k="ssr:stedsnr" v="126442" />
	</node>
	<node id="-469570" lat="60.4128861104" lon="5.86133054862">
		<tag k="name" v="Lonatjørna" />
		<tag k="natural" v="water" />
		<tag k="ssr:stedsnr" v="126441" />
	</node>
	<node id="-470081" lat="60.3504572912" lon="5.63650817198">
		<tag k="name" v="Sagavatnet" />
		<tag k="natural" v="water" />
		<tag k="ssr:stedsnr" v="794189" />
	</node>
	<node id="-470079" lat="60.3585194459" lon="5.80514999691">
		<tag k="name" v="Haugselva" />
		<tag k="ssr:stedsnr" v="794175" />
		<tag k="waterway" v="stream" />
	</node>
	<node id="-470077" lat="60.3858805553" lon="5.8376638803">
		<tag k="name" v="Frølandselva" />
		<tag k="ssr:stedsnr" v="794134" />
		<tag k="waterway" v="river" />
	</node>
	<node id="-469564" lat="60.2940499434" lon="5.58355192849">
		<tag k="name" v="Sætertjørna" />
		<tag k="natural" v="water" />
		<tag k="ssr:stedsnr" v="126254" />
	</node>
	<node id="-469563" lat="60.4215944457" lon="5.81789445308">
		<tag k="name" v="Fiskevatnet" />
		<tag k="natural" v="water" />
		<tag k="ssr:stedsnr" v="126073" />
		<tag k="water" v="lake" />
	</node>
	<node id="-470072" lat="60.4126349818" lon="5.83437909153">
		<tag k="name" v="Høysetetjørna" />
		<tag k="natural" v="water" />
		<tag k="ssr:stedsnr" v="794095" />
	</node>
	<node id="-470025" lat="60.4451371074" lon="5.91021250265">
		<tag k="name" v="Tjørnane" />
		<tag k="natural" v="water" />
		<tag k="ssr:stedsnr" v="733355" />
		<tag k="water" v="lake" />
	</node>
	<node id="-470067" lat="60.4286411341" lon="5.69968243691">
		<tag k="name" v="Raudvatnet" />
		<tag k="natural" v="water" />
		<tag k="ssr:stedsnr" v="794052" />
	</node>
	<node id="-470062" lat="60.3437305591" lon="5.78799444807">
		<tag k="name" v="Spongatjørni" />
		<tag k="natural" v="water" />
		<tag k="ssr:stedsnr" v="783056" />
	</node>
	<node id="-469546" lat="60.43966111" lon="5.85014722588">
		<tag k="name" v="Vetlåsneset" />
		<tag k="natural" v="cape" />
		<tag k="ssr:stedsnr" v="92969" />
	</node>
	<node id="-469545" lat="60.4406944425" lon="5.85133888744">
		<tag k="name" v="Nausttangen" />
		<tag k="natural" v="cape" />
		<tag k="ssr:stedsnr" v="92968" />
	</node>
	<node id="-470055" lat="60.4411583353" lon="5.85605832609">
		<tag k="name" v="Rotavikneset" />
		<tag k="natural" v="cape" />
		<tag k="ssr:stedsnr" v="759973" />
	</node>
	<node id="-469542" lat="60.4019166699" lon="5.91699722806">
		<tag k="name" v="Teigaelva" />
		<tag k="ssr:stedsnr" v="91636" />
		<tag k="waterway" v="river" />
	</node>
	<node id="-469538" lat="60.4057222233" lon="5.83074723056">
		<tag k="name" v="Smogabekken" />
		<tag k="ssr:stedsnr" v="91453" />
		<tag k="waterway" v="stream" />
	</node>
	<node id="-469508" lat="60.3738027779" lon="5.76033056348">
		<tag k="name" v="Tysseelva" />
		<tag k="ssr:stedsnr" v="66148" />
		<tag k="waterway" v="river" />
	</node>
	<node id="-469517" lat="60.344358501" lon="5.92163988475">
		<tag k="name" v="Botnavatnet" />
		<tag k="natural" v="water" />
		<tag k="ssr:stedsnr" v="66566" />
	</node>
	<node id="-469516" lat="60.4705138927" lon="5.91421389086">
		<tag k="name" v="Lavransfossen" />
		<tag k="natural" v="waterfall" />
		<tag k="ssr:stedsnr" v="66339" />
	</node>
	<node id="-470027" lat="60.4529305521" lon="5.85342500122">
		<tag k="name" v="Tverrelva" />
		<tag k="ssr:stedsnr" v="733373" />
		<tag k="waterway" v="river" />
	</node>
	<node id="-470026" lat="60.459403068" lon="5.94598781316">
		<tag k="name" v="Insta Sotabottsvatnet" />
		<tag k="natural" v="water" />
		<tag k="ssr:stedsnr" v="733368" />
	</node>
	<node id="-469847" lat="60.4450611116" lon="5.89496110404">
		<tag k="name" v="Kvanndalselva" />
		<tag k="ssr:stedsnr" v="551399" />
		<tag k="waterway" v="river" />
	</node>
	<node id="-470024" lat="60.4750000026" lon="5.92448889647">
		<tag k="name" v="Dukabottsvatnet" />
		<tag k="natural" v="water" />
		<tag k="ssr:stedsnr" v="733348" />
		<tag k="water" v="lake" />
	</node>
	<node id="-470023" lat="60.4655249994" lon="5.94103610786">
		<tag k="name" v="Setrabekken" />
		<tag k="ssr:stedsnr" v="733327" />
		<tag k="waterway" v="stream" />
	</node>
	<node id="-470020" lat="60.3720638858" lon="5.84198055794">
		<tag k="name" v="Kvannevikselva" />
		<tag k="ssr:stedsnr" v="733167" />
		<tag k="waterway" v="river" />
	</node>
	<node id="-470018" lat="60.4100311427" lon="5.73147871159">
		<tag k="name" v="Nordvikavatnet" />
		<tag k="natural" v="water" />
		<tag k="ssr:stedsnr" v="733103" />
	</node>
</osm>
