<?xml version="1.0" encoding="UTF-8"?>
<osm version="0.6" generator="osmapis">
	<node lat="61.871074105562066" lon="6.531389348936657" id="-32874">
		<tag k="fixme" v="consider place=hamlet" />
		<tag k="name" v="Teigen" />
		<tag k="place" v="farm" />
		<tag k="ssr:date" v="2019-12-27" />
		<tag k="ssr:gruppe" v="gardsbebyggelse" />
		<tag k="ssr:hovedgruppe" v="bebyggelse" />
		<tag k="ssr:stedsnr" v="10009" />
		<tag k="ssr:type" v="gard" />
	</node>
	<node lat="61.691068551070934" lon="6.8169510101662" id="-32875">
		<tag k="name" v="Oldedalen" />
		<tag k="natural" v="valley" />
		<tag k="place" v="locality" />
		<tag k="ssr:date" v="2019-12-27" />
		<tag k="ssr:gruppe" v="senkninger" />
		<tag k="ssr:hovedgruppe" v="terreng" />
		<tag k="ssr:stedsnr" v="9909" />
		<tag k="ssr:type" v="dal" />
	</node>
	<node lat="61.6817999988227" lon="6.772477768736335" id="-32876">
		<tag k="fixme" v="consider natural=peak for the most distinct mountains in the district" />
		<tag k="name" v="Flatefjellet" />
		<tag k="natural" v="hill" />
		<tag k="place" v="locality" />
		<tag k="ssr:date" v="2019-12-27" />
		<tag k="ssr:gruppe" v="høyder" />
		<tag k="ssr:hovedgruppe" v="terreng" />
		<tag k="ssr:stedsnr" v="9911" />
		<tag k="ssr:type" v="fjell" />
	</node>
	<node lat="61.869255558859535" lon="6.317352777658259" id="-32877">
		<tag k="name" v="Hoplandselva" />
		<tag k="ssr:date" v="2019-12-27" />
		<tag k="ssr:gruppe" v="rennendeVann" />
		<tag k="ssr:hovedgruppe" v="ferskvann" />
		<tag k="ssr:stedsnr" v="10040" />
		<tag k="ssr:type" v="bekk" />
		<tag k="waterway" v="stream" />
	</node>
	<node lat="61.87314444365903" lon="6.335786116345814" id="-32878">
		<tag k="name" v="Dyrstigen" />
		<tag k="natural" v="hill" />
		<tag k="place" v="locality" />
		<tag k="ssr:date" v="2019-12-27" />
		<tag k="ssr:gruppe" v="høyder" />
		<tag k="ssr:hovedgruppe" v="terreng" />
		<tag k="ssr:stedsnr" v="10042" />
		<tag k="ssr:type" v="haug" />
	</node>
	<node lat="61.80510833591695" lon="6.494811115900562" id="-32879">
		<tag k="name" v="Fransøyra" />
		<tag k="place" v="locality" />
		<tag k="ssr:date" v="2019-12-27" />
		<tag k="ssr:gruppe" v="løsmasseavsetninger" />
		<tag k="ssr:hovedgruppe" v="markslag" />
		<tag k="ssr:stedsnr" v="10089" />
		<tag k="ssr:type" v="øyr" />
	</node>
	<node lat="61.97208333762862" lon="6.928777778221719" id="-32880">
		<tag k="name" v="Tverrelva" />
		<tag k="ssr:date" v="2019-12-27" />
		<tag k="ssr:gruppe" v="rennendeVann" />
		<tag k="ssr:hovedgruppe" v="ferskvann" />
		<tag k="ssr:stedsnr" v="10202" />
		<tag k="ssr:type" v="bekk" />
		<tag k="waterway" v="stream" />
	</node>
	<node lat="61.93827499908424" lon="6.820494450216439" id="-32881">
		<tag k="name" v="Ørnereirfjellet" />
		<tag k="natural" v="hill" />
		<tag k="place" v="locality" />
		<tag k="ssr:date" v="2019-12-27" />
		<tag k="ssr:gruppe" v="høyder" />
		<tag k="ssr:hovedgruppe" v="terreng" />
		<tag k="ssr:stedsnr" v="10205" />
		<tag k="ssr:type" v="berg" />
	</node>
	<node lat="61.94367414526952" lon="6.929761697576103" id="-32882">
		<tag k="fixme" v="consider place=hamlet" />
		<tag k="name" v="Ljåstad" />
		<tag k="place" v="farm" />
		<tag k="ssr:date" v="2019-12-27" />
		<tag k="ssr:gruppe" v="gardsbebyggelse" />
		<tag k="ssr:hovedgruppe" v="bebyggelse" />
		<tag k="ssr:stedsnr" v="10284" />
		<tag k="ssr:type" v="gard" />
	</node>
	<node lat="61.92219013273143" lon="6.617781549211527" id="-32883">
		<tag k="fixme" v="consider place=hamlet" />
		<tag k="name" v="Svingeset" />
		<tag k="place" v="farm" />
		<tag k="ssr:date" v="2019-12-27" />
		<tag k="ssr:gruppe" v="gardsbebyggelse" />
		<tag k="ssr:hovedgruppe" v="bebyggelse" />
		<tag k="ssr:stedsnr" v="10291" />
		<tag k="ssr:type" v="gard" />
	</node>
	<node lat="61.80667599479892" lon="6.615439732308091" id="-32884">
		<tag k="fixme" v="consider natural=peak for the most distinct mountains in the district" />
		<tag k="name" v="Middagsfjellet" />
		<tag k="natural" v="hill" />
		<tag k="place" v="locality" />
		<tag k="ssr:date" v="2019-12-27" />
		<tag k="ssr:gruppe" v="høyder" />
		<tag k="ssr:hovedgruppe" v="terreng" />
		<tag k="ssr:stedsnr" v="10303" />
		<tag k="ssr:type" v="fjell" />
	</node>
	<node lat="61.79659401196397" lon="6.828477622019456" id="-32885">
		<tag k="fixme" v="consider place=hamlet" />
		<tag k="name" v="Sandnes" />
		<tag k="place" v="farm" />
		<tag k="ssr:date" v="2019-12-27" />
		<tag k="ssr:gruppe" v="gardsbebyggelse" />
		<tag k="ssr:hovedgruppe" v="bebyggelse" />
		<tag k="ssr:stedsnr" v="10308" />
		<tag k="ssr:type" v="gard" />
	</node>
	<node lat="61.79590278192692" lon="6.84226112020346" id="-32886">
		<tag k="name" v="Teigagrova" />
		<tag k="ssr:date" v="2021-06-08" />
		<tag k="ssr:gruppe" v="rennendeVann" />
		<tag k="ssr:hovedgruppe" v="ferskvann" />
		<tag k="ssr:stedsnr" v="10310" />
		<tag k="ssr:type" v="bekk" />
		<tag k="waterway" v="stream" />
	</node>
	<node lat="61.83673055764148" lon="6.595783327007886" id="-32887">
		<tag k="name" v="Heggdalselva" />
		<tag k="ssr:date" v="2021-06-08" />
		<tag k="ssr:gruppe" v="rennendeVann" />
		<tag k="ssr:hovedgruppe" v="ferskvann" />
		<tag k="ssr:stedsnr" v="10314" />
		<tag k="ssr:type" v="bekk" />
		<tag k="waterway" v="stream" />
	</node>
	<node lat="61.82747545588459" lon="6.8120174977442485" id="-32888">
		<tag k="fixme" v="consider place=hamlet" />
		<tag k="name" v="Brynestad" />
		<tag k="place" v="farm" />
		<tag k="ssr:date" v="2019-12-27" />
		<tag k="ssr:gruppe" v="gardsbebyggelse" />
		<tag k="ssr:hovedgruppe" v="bebyggelse" />
		<tag k="ssr:stedsnr" v="10322" />
		<tag k="ssr:type" v="gard" />
	</node>
	<node lat="61.84177158790205" lon="6.60421179772879" id="-32889">
		<tag k="fixme" v="consider place=hamlet" />
		<tag k="name" v="Lyslo" />
		<tag k="place" v="farm" />
		<tag k="ssr:date" v="2019-12-27" />
		<tag k="ssr:gruppe" v="gardsbebyggelse" />
		<tag k="ssr:hovedgruppe" v="bebyggelse" />
		<tag k="ssr:stedsnr" v="10331" />
		<tag k="ssr:type" v="gard" />
	</node>
	<node lat="61.86211723899089" lon="6.7534426342842675" id="-32890">
		<tag k="fixme" v="consider place=hamlet" />
		<tag k="name" v="Vangberg" />
		<tag k="place" v="farm" />
		<tag k="ssr:date" v="2021-06-08" />
		<tag k="ssr:gruppe" v="gardsbebyggelse" />
		<tag k="ssr:hovedgruppe" v="bebyggelse" />
		<tag k="ssr:stedsnr" v="10342" />
		<tag k="ssr:type" v="gard" />
	</node>
	<node lat="61.84701702598374" lon="6.813199486438215" id="-32891">
		<tag k="name" v="Muristranda" />
		<tag k="natural" v="beach" />
		<tag k="ssr:date" v="2021-03-12" />
		<tag k="ssr:gruppe" v="kystkontur" />
		<tag k="ssr:hovedgruppe" v="sjø" />
		<tag k="ssr:stedsnr" v="10348" />
		<tag k="ssr:type" v="strandISjø" />
	</node>
	<node lat="61.99182305925304" lon="7.362331249275411" id="-32892">
		<tag k="name" v="Oppljosvatnet" />
		<tag k="natural" v="water" />
		<tag k="ssr:date" v="2019-12-27" />
		<tag k="ssr:gruppe" v="stilleståendeVann" />
		<tag k="ssr:hovedgruppe" v="ferskvann" />
		<tag k="ssr:stedsnr" v="10404" />
		<tag k="ssr:type" v="vann" />
		<tag k="water" v="lake" />
	</node>
	<node lat="61.83360000430573" lon="7.1832638891681535" id="-32893">
		<tag k="name" v="Storedalen" />
		<tag k="natural" v="valley" />
		<tag k="place" v="locality" />
		<tag k="ssr:date" v="2021-06-08" />
		<tag k="ssr:gruppe" v="senkninger" />
		<tag k="ssr:hovedgruppe" v="terreng" />
		<tag k="ssr:stedsnr" v="10439" />
		<tag k="ssr:type" v="dal" />
	</node>
	<node lat="61.85381111240358" lon="7.220311109947551" id="-32894">
		<tag k="fixme" v="consider natural=peak for the most distinct mountains in the district" />
		<tag k="name" v="Seltuftefjellet" />
		<tag k="natural" v="hill" />
		<tag k="place" v="locality" />
		<tag k="ssr:date" v="2019-12-27" />
		<tag k="ssr:gruppe" v="høyder" />
		<tag k="ssr:hovedgruppe" v="terreng" />
		<tag k="ssr:stedsnr" v="10440" />
		<tag k="ssr:type" v="ås" />
	</node>
	<node lat="61.78001389230135" lon="7.1741250032362345" id="-32895">
		<tag k="name" v="Ståleskaret" />
		<tag k="natural" v="valley" />
		<tag k="place" v="locality" />
		<tag k="ssr:date" v="2021-06-08" />
		<tag k="ssr:gruppe" v="senkninger" />
		<tag k="ssr:hovedgruppe" v="terreng" />
		<tag k="ssr:stedsnr" v="10582" />
		<tag k="ssr:type" v="skar" />
	</node>
	<node lat="61.896577779568325" lon="6.3343388850491475" id="-32896">
		<tag k="name" v="Skadevatnet" />
		<tag k="natural" v="water" />
		<tag k="ssr:date" v="2019-12-27" />
		<tag k="ssr:gruppe" v="stilleståendeVann" />
		<tag k="ssr:hovedgruppe" v="ferskvann" />
		<tag k="ssr:stedsnr" v="10986" />
		<tag k="ssr:type" v="tjern" />
	</node>
	<node lat="61.907499997584196" lon="6.532180548154358" id="-32897">
		<tag k="historic" v="shieling" />
		<tag k="name" v="Florestøylane" />
		<tag k="place" v="isolated_dwelling" />
		<tag k="ssr:date" v="2021-06-08" />
		<tag k="ssr:gruppe" v="gardsbebyggelse" />
		<tag k="ssr:hovedgruppe" v="bebyggelse" />
		<tag k="ssr:stedsnr" v="10996" />
		<tag k="ssr:type" v="seterStøl" />
	</node>
	<node lat="61.89148888681682" lon="6.259602786579191" id="-32898">
		<tag k="name" v="Kvanndalsvatnet" />
		<tag k="natural" v="water" />
		<tag k="ssr:date" v="2021-06-08" />
		<tag k="ssr:gruppe" v="stilleståendeVann" />
		<tag k="ssr:hovedgruppe" v="ferskvann" />
		<tag k="ssr:stedsnr" v="10999" />
		<tag k="ssr:type" v="tjern" />
	</node>
	<node lat="61.97797499957538" lon="7.16193610739211" id="-32899">
		<tag k="name" v="Stolskaret" />
		<tag k="natural" v="valley" />
		<tag k="place" v="locality" />
		<tag k="ssr:date" v="2021-06-08" />
		<tag k="ssr:gruppe" v="senkninger" />
		<tag k="ssr:hovedgruppe" v="terreng" />
		<tag k="ssr:stedsnr" v="20497" />
		<tag k="ssr:type" v="dal" />
	</node>
	<node lat="61.65665833764429" lon="6.827102776669965" id="-32900">
		<tag k="name" v="Sauskåra" />
		<tag k="natural" v="hill" />
		<tag k="place" v="locality" />
		<tag k="ssr:date" v="2019-12-27" />
		<tag k="ssr:gruppe" v="høyder" />
		<tag k="ssr:hovedgruppe" v="terreng" />
		<tag k="ssr:stedsnr" v="33005" />
		<tag k="ssr:type" v="berg" />
	</node>
	<node lat="61.648980557751365" lon="6.82539444781676" id="-32901">
		<tag k="name" v="Melkevollbreen" />
		<tag k="natural" v="glacier" />
		<tag k="ssr:date" v="2019-12-27" />
		<tag k="ssr:gruppe" v="isOgPermafrost" />
		<tag k="ssr:hovedgruppe" v="markslag" />
		<tag k="ssr:stedsnr" v="33007" />
		<tag k="ssr:type" v="isbre" />
	</node>
	<node lat="61.697582070441165" lon="6.809771008166803" id="-32902">
		<tag k="fixme" v="consider place=hamlet" />
		<tag k="name" v="Mykløy" />
		<tag k="place" v="farm" />
		<tag k="ssr:date" v="2019-12-27" />
		<tag k="ssr:gruppe" v="gardsbebyggelse" />
		<tag k="ssr:hovedgruppe" v="bebyggelse" />
		<tag k="ssr:stedsnr" v="33010" />
		<tag k="ssr:type" v="gard" />
	</node>
	<node lat="61.92334167096471" lon="6.772033323829649" id="-32903">
		<tag k="name" v="Skuten" />
		<tag k="natural" v="hill" />
		<tag k="place" v="locality" />
		<tag k="ssr:date" v="2019-12-27" />
		<tag k="ssr:gruppe" v="høyder" />
		<tag k="ssr:hovedgruppe" v="terreng" />
		<tag k="ssr:stedsnr" v="33017" />
		<tag k="ssr:type" v="haug" />
	</node>
	<node lat="61.92316944853367" lon="6.757547214617131" id="-32904">
		<tag k="name" v="Ytreeide" />
		<tag k="natural" v="slope" />
		<tag k="place" v="locality" />
		<tag k="ssr:date" v="2019-12-27" />
		<tag k="ssr:gruppe" v="skråninger" />
		<tag k="ssr:hovedgruppe" v="terreng" />
		<tag k="ssr:stedsnr" v="33021" />
		<tag k="ssr:type" v="bakke" />
	</node>
	<node lat="61.77265555865792" lon="6.832941672833164" id="-32905">
		<tag k="name" v="Årnes" />
		<tag k="natural" v="cape" />
		<tag k="ssr:date" v="2019-12-27" />
		<tag k="ssr:gruppe" v="ferskvannskontur" />
		<tag k="ssr:hovedgruppe" v="ferskvann" />
		<tag k="ssr:stedsnr" v="33106" />
		<tag k="ssr:type" v="nes" />
	</node>
	<node lat="61.852077775097996" lon="6.891855548445501" id="-32906">
		<tag k="name" v="Fureneset" />
		<tag k="natural" v="cape" />
		<tag k="ssr:date" v="2019-12-27" />
		<tag k="ssr:gruppe" v="ferskvannskontur" />
		<tag k="ssr:hovedgruppe" v="ferskvann" />
		<tag k="ssr:stedsnr" v="33171" />
		<tag k="ssr:type" v="nes" />
	</node>
	<node lat="61.86679797819449" lon="6.303732875154184" id="-32907">
		<tag k="name" v="Oskeberg" />
		<tag k="natural" v="hill" />
		<tag k="old_name" v="Okseberg" />
		<tag k="place" v="locality" />
		<tag k="ssr:date" v="2020-01-22" />
		<tag k="ssr:gruppe" v="høyder" />
		<tag k="ssr:hovedgruppe" v="terreng" />
		<tag k="ssr:stedsnr" v="33172" />
		<tag k="ssr:type" v="berg" />
	</node>
	<node lat="61.84941944410591" lon="6.8611444383769875" id="-32908">
		<tag k="name" v="Treføttingen" />
		<tag k="natural" v="hill" />
		<tag k="place" v="locality" />
		<tag k="ssr:date" v="2019-12-27" />
		<tag k="ssr:gruppe" v="høyder" />
		<tag k="ssr:hovedgruppe" v="terreng" />
		<tag k="ssr:stedsnr" v="33173" />
		<tag k="ssr:type" v="høyde" />
	</node>
	<node lat="61.91618611368965" lon="6.788713895342598" id="-32909">
		<tag k="name" v="Heggeøyna" />
		<tag k="place" v="islet" />
		<tag k="ssr:date" v="2019-12-27" />
		<tag k="ssr:gruppe" v="ferskvannskontur" />
		<tag k="ssr:hovedgruppe" v="ferskvann" />
		<tag k="ssr:stedsnr" v="33175" />
		<tag k="ssr:type" v="holme" />
	</node>
	<node lat="61.918611107491266" lon="6.800669437540787" id="-32910">
		<tag k="name" v="Stauriøyna" />
		<tag k="natural" v="water" />
		<tag k="ssr:date" v="2019-12-27" />
		<tag k="ssr:gruppe" v="rennendeVann" />
		<tag k="ssr:hovedgruppe" v="ferskvann" />
		<tag k="ssr:stedsnr" v="33178" />
		<tag k="ssr:type" v="lon" />
		<tag k="water" v="lake" />
	</node>
	<node lat="61.948833333951974" lon="7.012977776507914" id="-32911">
		<tag k="name" v="Kolstoda" />
		<tag k="natural" v="slope" />
		<tag k="place" v="locality" />
		<tag k="ssr:date" v="2019-12-27" />
		<tag k="ssr:gruppe" v="skråninger" />
		<tag k="ssr:hovedgruppe" v="terreng" />
		<tag k="ssr:stedsnr" v="33305" />
		<tag k="ssr:type" v="li" />
	</node>
	<node lat="61.83788055490996" lon="6.4988361054548465" id="-32912">
		<tag k="name" v="Skogane" />
		<tag k="place" v="locality" />
		<tag k="ssr:date" v="2019-12-27" />
		<tag k="ssr:gruppe" v="flater" />
		<tag k="ssr:hovedgruppe" v="terreng" />
		<tag k="ssr:stedsnr" v="33308" />
		<tag k="ssr:type" v="slette" />
	</node>
	<node lat="61.95286666845196" lon="6.965147223553665" id="-32913">
		<tag k="name" v="Snytta" />
		<tag k="ssr:date" v="2019-12-27" />
		<tag k="ssr:gruppe" v="rennendeVann" />
		<tag k="ssr:hovedgruppe" v="ferskvann" />
		<tag k="ssr:stedsnr" v="33311" />
		<tag k="ssr:type" v="bekk" />
		<tag k="waterway" v="stream" />
	</node>
	<node lat="61.84524722329856" lon="6.446538885968323" id="-32914">
		<tag k="name" v="Resene" />
		<tag k="natural" v="water" />
		<tag k="ssr:date" v="2019-12-27" />
		<tag k="ssr:gruppe" v="rennendeVann" />
		<tag k="ssr:hovedgruppe" v="ferskvann" />
		<tag k="ssr:stedsnr" v="33313" />
		<tag k="ssr:type" v="lon" />
		<tag k="water" v="lake" />
	</node>
	<node lat="61.912805558835416" lon="7.0370722144941515" id="-32915">
		<tag k="name" v="Kviene" />
		<tag k="natural" v="slope" />
		<tag k="place" v="locality" />
		<tag k="ssr:date" v="2019-12-27" />
		<tag k="ssr:gruppe" v="skråninger" />
		<tag k="ssr:hovedgruppe" v="terreng" />
		<tag k="ssr:stedsnr" v="33363" />
		<tag k="ssr:type" v="bakke" />
	</node>
	<node lat="61.861561112913684" lon="7.135319441274689" id="-32916">
		<tag k="name" v="Furehaugen" />
		<tag k="natural" v="hill" />
		<tag k="place" v="locality" />
		<tag k="ssr:date" v="2019-12-27" />
		<tag k="ssr:gruppe" v="høyder" />
		<tag k="ssr:hovedgruppe" v="terreng" />
		<tag k="ssr:stedsnr" v="33366" />
		<tag k="ssr:type" v="haug" />
	</node>
	<node lat="61.922569448457" lon="7.1996805493286615" id="-32917">
		<tag k="name" v="Dragholen" />
		<tag k="natural" v="hill" />
		<tag k="place" v="locality" />
		<tag k="ssr:date" v="2019-12-27" />
		<tag k="ssr:gruppe" v="høyder" />
		<tag k="ssr:hovedgruppe" v="terreng" />
		<tag k="ssr:stedsnr" v="33205" />
		<tag k="ssr:type" v="haug" />
	</node>
	<node lat="61.867666668381304" lon="6.867524998097056" id="-32918">
		<tag k="name" v="Lofossen" />
		<tag k="natural" v="waterfall" />
		<tag k="ssr:date" v="2019-12-27" />
		<tag k="ssr:gruppe" v="rennendeVann" />
		<tag k="ssr:hovedgruppe" v="ferskvann" />
		<tag k="ssr:stedsnr" v="33208" />
		<tag k="ssr:type" v="foss" />
	</node>
	<node lat="61.88031666838257" lon="6.297327785238772" id="-32919">
		<tag k="name" v="Skjerdalen" />
		<tag k="natural" v="valley" />
		<tag k="place" v="locality" />
		<tag k="ssr:date" v="2019-12-27" />
		<tag k="ssr:gruppe" v="senkninger" />
		<tag k="ssr:hovedgruppe" v="terreng" />
		<tag k="ssr:stedsnr" v="33210" />
		<tag k="ssr:type" v="dal" />
	</node>
	<node lat="61.844211114652296" lon="6.408169437247342" id="-32920">
		<tag k="name" v="Brendehaugane" />
		<tag k="natural" v="hill" />
		<tag k="place" v="locality" />
		<tag k="ssr:date" v="2019-12-27" />
		<tag k="ssr:gruppe" v="høyder" />
		<tag k="ssr:hovedgruppe" v="terreng" />
		<tag k="ssr:stedsnr" v="33214" />
		<tag k="ssr:type" v="haug" />
	</node>
	<node lat="61.77776111151362" lon="6.980983329467453" id="-32921">
		<tag k="name" v="Lida" />
		<tag k="natural" v="slope" />
		<tag k="place" v="locality" />
		<tag k="ssr:date" v="2019-12-27" />
		<tag k="ssr:gruppe" v="skråninger" />
		<tag k="ssr:hovedgruppe" v="terreng" />
		<tag k="ssr:stedsnr" v="33215" />
		<tag k="ssr:type" v="li" />
	</node>
	<node lat="61.81384444489174" lon="6.949177773406131" id="-32922">
		<tag k="name" v="Stingenda" />
		<tag k="natural" v="hill" />
		<tag k="place" v="locality" />
		<tag k="ssr:date" v="2019-12-27" />
		<tag k="ssr:gruppe" v="høyder" />
		<tag k="ssr:hovedgruppe" v="terreng" />
		<tag k="ssr:stedsnr" v="33220" />
		<tag k="ssr:type" v="haug" />
	</node>
	<node lat="61.817499995466804" lon="6.949674993350578" id="-32923">
		<tag k="name" v="Stingendevika" />
		<tag k="natural" v="bay" />
		<tag k="ssr:date" v="2019-12-27" />
		<tag k="ssr:gruppe" v="ferskvannskontur" />
		<tag k="ssr:hovedgruppe" v="ferskvann" />
		<tag k="ssr:stedsnr" v="33221" />
		<tag k="ssr:type" v="vik" />
	</node>
	<node lat="61.81540278004192" lon="6.9380972248952935" id="-32924">
		<tag k="name" v="Brennenatgjølet" />
		<tag k="natural" v="gorge" />
		<tag k="ssr:date" v="2019-12-27" />
		<tag k="ssr:gruppe" v="senkninger" />
		<tag k="ssr:hovedgruppe" v="terreng" />
		<tag k="ssr:stedsnr" v="33225" />
		<tag k="ssr:type" v="juv" />
	</node>
	<node lat="61.872686107518085" lon="6.366763891310726" id="-32925">
		<tag k="name" v="Strengemerke" />
		<tag k="natural" v="hill" />
		<tag k="place" v="locality" />
		<tag k="ssr:date" v="2019-12-27" />
		<tag k="ssr:gruppe" v="høyder" />
		<tag k="ssr:hovedgruppe" v="terreng" />
		<tag k="ssr:stedsnr" v="33263" />
		<tag k="ssr:type" v="haug" />
	</node>
	<node lat="61.93193888995086" lon="6.832158337663218" id="-32926">
		<tag k="name" v="Skorgjølet" />
		<tag k="natural" v="valley" />
		<tag k="place" v="locality" />
		<tag k="ssr:date" v="2021-06-08" />
		<tag k="ssr:gruppe" v="senkninger" />
		<tag k="ssr:hovedgruppe" v="terreng" />
		<tag k="ssr:stedsnr" v="33264" />
		<tag k="ssr:type" v="skar" />
	</node>
	<node lat="61.8355083370153" lon="6.344719448483018" id="-32927">
		<tag k="name" v="Nautevika" />
		<tag k="natural" v="bay" />
		<tag k="ssr:date" v="2019-12-27" />
		<tag k="ssr:gruppe" v="kystkontur" />
		<tag k="ssr:hovedgruppe" v="sjø" />
		<tag k="ssr:stedsnr" v="33266" />
		<tag k="ssr:type" v="vikISjø" />
	</node>
	<node lat="61.839608329483966" lon="6.296850005505222" id="-32928">
		<tag k="name" v="Fosserabben" />
		<tag k="natural" v="hill" />
		<tag k="place" v="locality" />
		<tag k="ssr:date" v="2019-12-27" />
		<tag k="ssr:gruppe" v="høyder" />
		<tag k="ssr:hovedgruppe" v="terreng" />
		<tag k="ssr:stedsnr" v="33270" />
		<tag k="ssr:type" v="haug" />
	</node>
	<node lat="61.88087500092441" lon="6.804197225287905" id="-32929">
		<tag k="name" v="Lessebakken" />
		<tag k="natural" v="slope" />
		<tag k="place" v="locality" />
		<tag k="ssr:date" v="2019-12-27" />
		<tag k="ssr:gruppe" v="skråninger" />
		<tag k="ssr:hovedgruppe" v="terreng" />
		<tag k="ssr:stedsnr" v="33271" />
		<tag k="ssr:type" v="bakke" />
	</node>
	<node lat="61.84192500118861" lon="6.379352779118063" id="-32930">
		<tag k="name" v="Nosanaustet" />
		<tag k="natural" v="bay" />
		<tag k="ssr:date" v="2019-12-27" />
		<tag k="ssr:gruppe" v="kystkontur" />
		<tag k="ssr:hovedgruppe" v="sjø" />
		<tag k="ssr:stedsnr" v="33273" />
		<tag k="ssr:type" v="vikISjø" />
	</node>
	<node lat="61.852733331439396" lon="6.531883326889575" id="-32931">
		<tag k="name" v="Øyestadberget" />
		<tag k="natural" v="hill" />
		<tag k="place" v="locality" />
		<tag k="ssr:date" v="2019-12-27" />
		<tag k="ssr:gruppe" v="høyder" />
		<tag k="ssr:hovedgruppe" v="terreng" />
		<tag k="ssr:stedsnr" v="33283" />
		<tag k="ssr:type" v="berg" />
	</node>
	<node lat="61.80011666552533" lon="7.027405562992835" id="-32932">
		<tag k="name" v="Kvilebakken" />
		<tag k="natural" v="slope" />
		<tag k="place" v="locality" />
		<tag k="ssr:date" v="2019-12-27" />
		<tag k="ssr:gruppe" v="skråninger" />
		<tag k="ssr:hovedgruppe" v="terreng" />
		<tag k="ssr:stedsnr" v="33412" />
		<tag k="ssr:type" v="bakke" />
	</node>
	<node lat="61.81652222337194" lon="6.5515111098902015" id="-32933">
		<tag k="fixme" v="consider natural=peak for the most distinct mountains in the district" />
		<tag k="name" v="Tyttebæråsen" />
		<tag k="natural" v="hill" />
		<tag k="place" v="locality" />
		<tag k="ssr:date" v="2019-12-27" />
		<tag k="ssr:gruppe" v="høyder" />
		<tag k="ssr:hovedgruppe" v="terreng" />
		<tag k="ssr:stedsnr" v="33417" />
		<tag k="ssr:type" v="ås" />
	</node>
	<node lat="61.778922225026314" lon="7.024583330952903" id="-32934">
		<tag k="fixme" v="consider natural=peak for the most distinct mountains in the district" />
		<tag k="name" v="Kvitefjellet" />
		<tag k="natural" v="hill" />
		<tag k="place" v="locality" />
		<tag k="ssr:date" v="2019-12-27" />
		<tag k="ssr:gruppe" v="høyder" />
		<tag k="ssr:hovedgruppe" v="terreng" />
		<tag k="ssr:stedsnr" v="33418" />
		<tag k="ssr:type" v="fjell" />
	</node>
	<node lat="61.825663887682225" lon="6.641977768622489" id="-32935">
		<tag k="name" v="Hamrane" />
		<tag k="natural" v="hill" />
		<tag k="place" v="locality" />
		<tag k="ssr:date" v="2019-12-27" />
		<tag k="ssr:gruppe" v="høyder" />
		<tag k="ssr:hovedgruppe" v="terreng" />
		<tag k="ssr:stedsnr" v="33402" />
		<tag k="ssr:type" v="berg" />
	</node>
	<node lat="61.896083336425434" lon="6.607536104451315" id="-32936">
		<tag k="name" v="Gamlehella" />
		<tag k="place" v="locality" />
		<tag k="ssr:date" v="2019-12-27" />
		<tag k="ssr:gruppe" v="terrengdetaljer" />
		<tag k="ssr:hovedgruppe" v="terreng" />
		<tag k="ssr:stedsnr" v="33423" />
		<tag k="ssr:type" v="heller" />
	</node>
	<node lat="61.91754722616291" lon="7.1082305588838715" id="-32937">
		<tag k="name" v="Vaulhammaren" />
		<tag k="natural" v="hill" />
		<tag k="place" v="locality" />
		<tag k="ssr:date" v="2019-12-27" />
		<tag k="ssr:gruppe" v="høyder" />
		<tag k="ssr:hovedgruppe" v="terreng" />
		<tag k="ssr:stedsnr" v="33424" />
		<tag k="ssr:type" v="berg" />
	</node>
	<node lat="61.870583335942754" lon="6.703188889071349" id="-32938">
		<tag k="name" v="Areneset" />
		<tag k="natural" v="cape" />
		<tag k="ssr:date" v="2019-12-27" />
		<tag k="ssr:gruppe" v="kystkontur" />
		<tag k="ssr:hovedgruppe" v="sjø" />
		<tag k="ssr:stedsnr" v="33516" />
		<tag k="ssr:type" v="nesISjø" />
	</node>
	<node lat="61.864561112344255" lon="6.693591673514766" id="-32939">
		<tag k="name" v="Nonsfurhaugen" />
		<tag k="natural" v="hill" />
		<tag k="place" v="locality" />
		<tag k="ssr:date" v="2019-12-27" />
		<tag k="ssr:gruppe" v="høyder" />
		<tag k="ssr:hovedgruppe" v="terreng" />
		<tag k="ssr:stedsnr" v="33520" />
		<tag k="ssr:type" v="haug" />
	</node>
	<node lat="61.743883332010036" lon="6.77672499591619" id="-32940">
		<tag k="name" v="Nedre Holten" />
		<tag k="natural" v="hill" />
		<tag k="place" v="locality" />
		<tag k="ssr:date" v="2019-12-27" />
		<tag k="ssr:gruppe" v="høyder" />
		<tag k="ssr:hovedgruppe" v="terreng" />
		<tag k="ssr:stedsnr" v="33521" />
		<tag k="ssr:type" v="haug" />
	</node>
	<node lat="61.869158334860636" lon="6.690433334681551" id="-32941">
		<tag k="name" v="Merkingshaugen" />
		<tag k="natural" v="hill" />
		<tag k="place" v="locality" />
		<tag k="ssr:date" v="2019-12-27" />
		<tag k="ssr:gruppe" v="høyder" />
		<tag k="ssr:hovedgruppe" v="terreng" />
		<tag k="ssr:stedsnr" v="33523" />
		<tag k="ssr:type" v="haug" />
	</node>
	<node lat="61.79037499997697" lon="6.469747229102312" id="-32942">
		<tag k="name" v="Austre Stilleranten" />
		<tag k="natural" v="hill" />
		<tag k="place" v="locality" />
		<tag k="ssr:date" v="2019-12-27" />
		<tag k="ssr:gruppe" v="høyder" />
		<tag k="ssr:hovedgruppe" v="terreng" />
		<tag k="ssr:stedsnr" v="33524" />
		<tag k="ssr:type" v="haug" />
	</node>
	<node lat="61.82614166428386" lon="6.827547225746992" id="-32943">
		<tag k="loc_name" v="Meleidalen" />
		<tag k="name" v="Melheimsdalen" />
		<tag k="natural" v="valley" />
		<tag k="place" v="locality" />
		<tag k="ssr:date" v="2019-12-27" />
		<tag k="ssr:gruppe" v="senkninger" />
		<tag k="ssr:hovedgruppe" v="terreng" />
		<tag k="ssr:stedsnr" v="33561" />
		<tag k="ssr:type" v="dal" />
	</node>
	<node lat="61.840686111414215" lon="7.185975009335699" id="-32944">
		<tag k="name" v="Vesledalsgrandane" />
		<tag k="place" v="locality" />
		<tag k="ssr:date" v="2019-12-27" />
		<tag k="ssr:gruppe" v="flater" />
		<tag k="ssr:hovedgruppe" v="terreng" />
		<tag k="ssr:stedsnr" v="33564" />
		<tag k="ssr:type" v="slette" />
	</node>
	<node lat="61.84765000312712" lon="7.155358342216262" id="-32945">
		<tag k="name" v="Guriholtjørna" />
		<tag k="natural" v="water" />
		<tag k="ssr:date" v="2019-12-27" />
		<tag k="ssr:gruppe" v="stilleståendeVann" />
		<tag k="ssr:hovedgruppe" v="ferskvann" />
		<tag k="ssr:stedsnr" v="33568" />
		<tag k="ssr:type" v="tjern" />
	</node>
	<node lat="61.85069444544726" lon="7.160300007876925" id="-32946">
		<tag k="name" v="Sandane" />
		<tag k="place" v="locality" />
		<tag k="ssr:date" v="2019-12-27" />
		<tag k="ssr:gruppe" v="flater" />
		<tag k="ssr:hovedgruppe" v="terreng" />
		<tag k="ssr:stedsnr" v="33570" />
		<tag k="ssr:type" v="slette" />
	</node>
	<node lat="61.89361666377739" lon="7.060397223176273" id="-32947">
		<tag k="name" v="Breisvadet" />
		<tag k="natural" v="gorge" />
		<tag k="ssr:date" v="2019-12-27" />
		<tag k="ssr:gruppe" v="senkninger" />
		<tag k="ssr:hovedgruppe" v="terreng" />
		<tag k="ssr:stedsnr" v="33466" />
		<tag k="ssr:type" v="juv" />
	</node>
	<node lat="61.837249997605426" lon="6.470055551992333" id="-32948">
		<tag k="name" v="Lillejord" />
		<tag k="old_name" v="Litlejordet" />
		<tag k="place" v="farm" />
		<tag k="ssr:date" v="2019-12-27" />
		<tag k="ssr:gruppe" v="gardsbebyggelse" />
		<tag k="ssr:hovedgruppe" v="bebyggelse" />
		<tag k="ssr:stedsnr" v="53124" />
		<tag k="ssr:type" v="bruk" />
	</node>
	<node lat="61.883672222666725" lon="7.297505549615956" id="-32949">
		<tag k="name" v="Kupene" />
		<tag k="natural" v="hill" />
		<tag k="place" v="locality" />
		<tag k="ssr:date" v="2019-12-27" />
		<tag k="ssr:gruppe" v="høyder" />
		<tag k="ssr:hovedgruppe" v="terreng" />
		<tag k="ssr:stedsnr" v="60081" />
		<tag k="ssr:type" v="haug" />
	</node>
	<node lat="61.90109444236875" lon="7.256086106419439" id="-32950">
		<tag k="name" v="Svorahammaren" />
		<tag k="natural" v="hill" />
		<tag k="place" v="locality" />
		<tag k="ssr:date" v="2019-12-27" />
		<tag k="ssr:gruppe" v="høyder" />
		<tag k="ssr:hovedgruppe" v="terreng" />
		<tag k="ssr:stedsnr" v="60676" />
		<tag k="ssr:type" v="berg" />
	</node>
	<node lat="61.904652776807076" lon="7.228763894555896" id="-32951">
		<tag k="name" v="Myntebakken" />
		<tag k="natural" v="slope" />
		<tag k="place" v="locality" />
		<tag k="ssr:date" v="2019-12-27" />
		<tag k="ssr:gruppe" v="skråninger" />
		<tag k="ssr:hovedgruppe" v="terreng" />
		<tag k="ssr:stedsnr" v="241747" />
		<tag k="ssr:type" v="bakke" />
	</node>
	<node lat="61.82162778188744" lon="6.360833324035756" id="-32952">
		<tag k="name" v="Storøyelva" />
		<tag k="ssr:date" v="2019-12-27" />
		<tag k="ssr:gruppe" v="rennendeVann" />
		<tag k="ssr:hovedgruppe" v="ferskvann" />
		<tag k="ssr:stedsnr" v="70107" />
		<tag k="ssr:type" v="bekk" />
		<tag k="waterway" v="stream" />
	</node>
	<node lat="61.96036110886385" lon="6.776897226011247" id="-32953">
		<tag k="loc_name" v="Skoraskaret;Skorskaret" />
		<tag k="name" v="Knutsdalsskaret" />
		<tag k="natural" v="valley" />
		<tag k="place" v="locality" />
		<tag k="ssr:date" v="2021-06-08" />
		<tag k="ssr:gruppe" v="senkninger" />
		<tag k="ssr:hovedgruppe" v="terreng" />
		<tag k="ssr:stedsnr" v="70175" />
		<tag k="ssr:type" v="skar" />
	</node>
	<node lat="61.96087499833142" lon="6.647788894093674" id="-32954">
		<tag k="name" v="Holskaret" />
		<tag k="natural" v="valley" />
		<tag k="place" v="locality" />
		<tag k="ssr:date" v="2021-06-08" />
		<tag k="ssr:gruppe" v="senkninger" />
		<tag k="ssr:hovedgruppe" v="terreng" />
		<tag k="ssr:stedsnr" v="70178" />
		<tag k="ssr:type" v="skar" />
	</node>
	<node lat="61.88850832955024" lon="6.526402770557167" id="-32955">
		<tag k="name" v="Robjørgdemma" />
		<tag k="natural" v="water" />
		<tag k="ssr:date" v="2019-12-27" />
		<tag k="ssr:gruppe" v="stilleståendeVann" />
		<tag k="ssr:hovedgruppe" v="ferskvann" />
		<tag k="ssr:stedsnr" v="70028" />
		<tag k="ssr:type" v="tjern" />
	</node>
	<node lat="61.83172222276342" lon="6.467430547590765" id="-32956">
		<tag k="name" v="Bergsetnausta" />
		<tag k="place" v="locality" />
		<tag k="ssr:date" v="2019-12-27" />
		<tag k="ssr:gruppe" v="gardsbebyggelse" />
		<tag k="ssr:hovedgruppe" v="bebyggelse" />
		<tag k="ssr:stedsnr" v="70096" />
		<tag k="ssr:type" v="byggForJordbrukFiskeOgFangst" />
	</node>
	<node lat="61.84797777425815" lon="7.178199996629222" id="-32957">
		<tag k="name" v="Reset" />
		<tag k="natural" v="slope" />
		<tag k="place" v="locality" />
		<tag k="ssr:date" v="2019-12-27" />
		<tag k="ssr:gruppe" v="skråninger" />
		<tag k="ssr:hovedgruppe" v="terreng" />
		<tag k="ssr:stedsnr" v="70431" />
		<tag k="ssr:type" v="bakke" />
	</node>
	<node lat="61.89384444223914" lon="7.268755564964381" id="-32958">
		<tag k="name" v="Brattestigen" />
		<tag k="natural" v="slope" />
		<tag k="place" v="locality" />
		<tag k="ssr:date" v="2019-12-27" />
		<tag k="ssr:gruppe" v="skråninger" />
		<tag k="ssr:hovedgruppe" v="terreng" />
		<tag k="ssr:stedsnr" v="242652" />
		<tag k="ssr:type" v="bakke" />
	</node>
	<node lat="61.986252780984564" lon="7.039347226122903" id="-32959">
		<tag k="name" v="Stigholvatnet" />
		<tag k="natural" v="water" />
		<tag k="ssr:date" v="2021-06-08" />
		<tag k="ssr:gruppe" v="stilleståendeVann" />
		<tag k="ssr:hovedgruppe" v="ferskvann" />
		<tag k="ssr:stedsnr" v="70376" />
		<tag k="ssr:type" v="vann" />
		<tag k="water" v="lake" />
	</node>
	<node lat="61.743353071862714" lon="6.788208037240421" id="-32960">
		<tag k="fixme" v="consider place=hamlet" />
		<tag k="name" v="Gytri" />
		<tag k="place" v="farm" />
		<tag k="ssr:date" v="2019-12-27" />
		<tag k="ssr:gruppe" v="gardsbebyggelse" />
		<tag k="ssr:hovedgruppe" v="bebyggelse" />
		<tag k="ssr:stedsnr" v="70880" />
		<tag k="ssr:type" v="gard" />
	</node>
	<node lat="61.86044730197523" lon="6.2655225147980875" id="-32961">
		<tag k="name" v="Kvalsvika" />
		<tag k="natural" v="bay" />
		<tag k="ssr:date" v="2021-06-08" />
		<tag k="ssr:gruppe" v="kystkontur" />
		<tag k="ssr:hovedgruppe" v="sjø" />
		<tag k="ssr:stedsnr" v="71005" />
		<tag k="ssr:type" v="vikISjø" />
	</node>
	<node lat="61.865152777453346" lon="6.404436119251207" id="-32962">
		<tag k="name" v="Høgenakkane" />
		<tag k="natural" v="hill" />
		<tag k="place" v="locality" />
		<tag k="ssr:date" v="2021-06-08" />
		<tag k="ssr:gruppe" v="høyder" />
		<tag k="ssr:hovedgruppe" v="terreng" />
		<tag k="ssr:stedsnr" v="71008" />
		<tag k="ssr:type" v="haug" />
	</node>
	<node lat="61.873977777545186" lon="6.303116660061285" id="-32963">
		<tag k="name" v="Brekkene" />
		<tag k="place" v="locality" />
		<tag k="ssr:date" v="2019-12-27" />
		<tag k="ssr:gruppe" v="gardsbebyggelse" />
		<tag k="ssr:hovedgruppe" v="bebyggelse" />
		<tag k="ssr:stedsnr" v="71033" />
		<tag k="ssr:type" v="byggForJordbrukFiskeOgFangst" />
	</node>
	<node lat="61.72083611552427" lon="6.743786108448273" id="-32964">
		<tag k="fixme" v="consider natural=peak for the most distinct mountains in the district" />
		<tag k="name" v="Yrifjellet" />
		<tag k="natural" v="hill" />
		<tag k="place" v="locality" />
		<tag k="ssr:date" v="2019-12-27" />
		<tag k="ssr:gruppe" v="høyder" />
		<tag k="ssr:hovedgruppe" v="terreng" />
		<tag k="ssr:stedsnr" v="70903" />
		<tag k="ssr:type" v="fjell" />
	</node>
	<node lat="61.70543332995538" lon="6.755225006368131" id="-32965">
		<tag k="fixme" v="consider natural=peak for the most distinct mountains in the district" />
		<tag k="name" v="Rustøyfjellet" />
		<tag k="natural" v="hill" />
		<tag k="place" v="locality" />
		<tag k="ssr:date" v="2019-12-27" />
		<tag k="ssr:gruppe" v="høyder" />
		<tag k="ssr:hovedgruppe" v="terreng" />
		<tag k="ssr:stedsnr" v="70906" />
		<tag k="ssr:type" v="fjell" />
	</node>
	<node lat="61.70506697650382" lon="6.802720700871829" id="-32966">
		<tag k="fixme" v="consider place=hamlet" />
		<tag k="name" v="Rustøyane" />
		<tag k="place" v="farm" />
		<tag k="ssr:date" v="2021-06-08" />
		<tag k="ssr:gruppe" v="gardsbebyggelse" />
		<tag k="ssr:hovedgruppe" v="bebyggelse" />
		<tag k="ssr:stedsnr" v="70908" />
		<tag k="ssr:type" v="gard" />
	</node>
	<node lat="61.70806944173762" lon="6.863927779459513" id="-32967">
		<tag k="fixme" v="consider natural=peak for the most distinct mountains in the district" />
		<tag k="name" v="Høgefjellet" />
		<tag k="natural" v="hill" />
		<tag k="place" v="locality" />
		<tag k="ssr:date" v="2019-12-27" />
		<tag k="ssr:gruppe" v="høyder" />
		<tag k="ssr:hovedgruppe" v="terreng" />
		<tag k="ssr:stedsnr" v="70909" />
		<tag k="ssr:type" v="fjell" />
	</node>
	<node lat="61.89845833411945" lon="6.519336113714606" id="-32968">
		<tag k="name" v="Storevatnet" />
		<tag k="natural" v="water" />
		<tag k="ssr:date" v="2019-12-27" />
		<tag k="ssr:gruppe" v="stilleståendeVann" />
		<tag k="ssr:hovedgruppe" v="ferskvann" />
		<tag k="ssr:stedsnr" v="70980" />
		<tag k="ssr:type" v="tjern" />
	</node>
	<node lat="61.89694166328969" lon="6.584013885873228" id="-32969">
		<tag k="name" v="Fossedalen" />
		<tag k="natural" v="valley" />
		<tag k="place" v="locality" />
		<tag k="ssr:date" v="2019-12-27" />
		<tag k="ssr:gruppe" v="senkninger" />
		<tag k="ssr:hovedgruppe" v="terreng" />
		<tag k="ssr:stedsnr" v="70981" />
		<tag k="ssr:type" v="dal" />
	</node>
	<node lat="61.89551389157845" lon="6.552602774274911" id="-32970">
		<tag k="name" v="Storvasselva" />
		<tag k="ssr:date" v="2019-12-27" />
		<tag k="ssr:gruppe" v="rennendeVann" />
		<tag k="ssr:hovedgruppe" v="ferskvann" />
		<tag k="ssr:stedsnr" v="70982" />
		<tag k="ssr:type" v="bekk" />
		<tag k="waterway" v="stream" />
	</node>
	<node lat="62.02277888077185" lon="7.223298551621908" id="-32971">
		<tag k="name" v="Skjerdingdalsvatna" />
		<tag k="natural" v="water" />
		<tag k="ssr:date" v="2020-08-24" />
		<tag k="ssr:gruppe" v="stilleståendeVann" />
		<tag k="ssr:hovedgruppe" v="ferskvann" />
		<tag k="ssr:stedsnr" v="71181" />
		<tag k="ssr:type" v="gruppeAvVann" />
		<tag k="water" v="lake" />
	</node>
	<node lat="61.913544790256516" lon="6.752555318008897" id="-32972">
		<tag k="alt_name" v="Ytre Rise;Inste Rise" />
		<tag k="fixme" v="consider place=hamlet" />
		<tag k="name" v="Rise" />
		<tag k="place" v="farm" />
		<tag k="ssr:date" v="2019-12-27" />
		<tag k="ssr:gruppe" v="gardsbebyggelse" />
		<tag k="ssr:hovedgruppe" v="bebyggelse" />
		<tag k="ssr:stedsnr" v="71321" />
		<tag k="ssr:type" v="gard" />
	</node>
	<node lat="61.94105277361161" lon="7.109849990840916" id="-32973">
		<tag k="name" v="Nøkkvatnet" />
		<tag k="natural" v="water" />
		<tag k="ssr:date" v="2019-12-27" />
		<tag k="ssr:gruppe" v="stilleståendeVann" />
		<tag k="ssr:hovedgruppe" v="ferskvann" />
		<tag k="ssr:stedsnr" v="71423" />
		<tag k="ssr:type" v="tjern" />
	</node>
	<node lat="61.889636113544626" lon="7.1934527773844" id="-32974">
		<tag k="name" v="Skipedalsskaret" />
		<tag k="natural" v="valley" />
		<tag k="place" v="locality" />
		<tag k="ssr:date" v="2021-06-08" />
		<tag k="ssr:gruppe" v="senkninger" />
		<tag k="ssr:hovedgruppe" v="terreng" />
		<tag k="ssr:stedsnr" v="71496" />
		<tag k="ssr:type" v="skar" />
	</node>
	<node lat="61.88887967990013" lon="7.10640213764388" id="-32975">
		<tag k="fixme" v="consider place=hamlet" />
		<tag k="name" v="Rygg" />
		<tag k="place" v="farm" />
		<tag k="ssr:date" v="2019-12-27" />
		<tag k="ssr:gruppe" v="gardsbebyggelse" />
		<tag k="ssr:hovedgruppe" v="bebyggelse" />
		<tag k="ssr:stedsnr" v="71502" />
		<tag k="ssr:type" v="gard" />
	</node>
	<node lat="61.8883555601468" lon="6.968991675676748" id="-32976">
		<tag k="name" v="Tyvadalen" />
		<tag k="natural" v="valley" />
		<tag k="place" v="locality" />
		<tag k="ssr:date" v="2019-12-27" />
		<tag k="ssr:gruppe" v="senkninger" />
		<tag k="ssr:hovedgruppe" v="terreng" />
		<tag k="ssr:stedsnr" v="71506" />
		<tag k="ssr:type" v="dal" />
	</node>
	<node lat="61.89965599316338" lon="7.239337139825605" id="-32977">
		<tag k="historic" v="shieling" />
		<tag k="name" v="Sunndalen" />
		<tag k="place" v="isolated_dwelling" />
		<tag k="ssr:date" v="2019-12-27" />
		<tag k="ssr:gruppe" v="gardsbebyggelse" />
		<tag k="ssr:hovedgruppe" v="bebyggelse" />
		<tag k="ssr:stedsnr" v="71507" />
		<tag k="ssr:type" v="seterStøl" />
	</node>
	<node lat="61.90448610953511" lon="7.006024999502092" id="-32978">
		<tag k="fixme" v="consider natural=peak for the most distinct mountains in the district" />
		<tag k="name" v="Veslehyrna" />
		<tag k="natural" v="hill" />
		<tag k="place" v="locality" />
		<tag k="ssr:date" v="2019-12-27" />
		<tag k="ssr:gruppe" v="høyder" />
		<tag k="ssr:hovedgruppe" v="terreng" />
		<tag k="ssr:stedsnr" v="71517" />
		<tag k="ssr:type" v="ås" />
	</node>
	<node lat="61.90228888711692" lon="7.252652771956325" id="-32979">
		<tag k="name" v="Svoragrova" />
		<tag k="ssr:date" v="2019-12-27" />
		<tag k="ssr:gruppe" v="rennendeVann" />
		<tag k="ssr:hovedgruppe" v="ferskvann" />
		<tag k="ssr:stedsnr" v="71518" />
		<tag k="ssr:type" v="bekk" />
		<tag k="waterway" v="stream" />
	</node>
	<node lat="61.91812071344456" lon="7.092044515696597" id="-32980">
		<tag k="fixme" v="consider place=hamlet" />
		<tag k="name" v="Glomnes" />
		<tag k="place" v="farm" />
		<tag k="ssr:date" v="2019-12-27" />
		<tag k="ssr:gruppe" v="gardsbebyggelse" />
		<tag k="ssr:hovedgruppe" v="bebyggelse" />
		<tag k="ssr:stedsnr" v="71523" />
		<tag k="ssr:type" v="gard" />
	</node>
	<node lat="62.00542500314457" lon="7.193227776220782" id="-32981">
		<tag k="name" v="Skjerdingsdalsbotnen" />
		<tag k="natural" v="valley" />
		<tag k="place" v="locality" />
		<tag k="ssr:date" v="2019-12-27" />
		<tag k="ssr:gruppe" v="senkninger" />
		<tag k="ssr:hovedgruppe" v="terreng" />
		<tag k="ssr:stedsnr" v="71527" />
		<tag k="ssr:type" v="botn" />
	</node>
	<node lat="61.92921110771927" lon="6.454044449131379" id="-32982">
		<tag k="name" v="Steffanakken" />
		<tag k="natural" v="hill" />
		<tag k="place" v="locality" />
		<tag k="ssr:date" v="2019-12-27" />
		<tag k="ssr:gruppe" v="høyder" />
		<tag k="ssr:hovedgruppe" v="terreng" />
		<tag k="ssr:stedsnr" v="71939" />
		<tag k="ssr:type" v="haug" />
	</node>
	<node lat="61.918447221694834" lon="6.559436110943759" id="-32983">
		<tag k="name" v="Kvitetjønna" />
		<tag k="natural" v="water" />
		<tag k="ssr:date" v="2021-06-08" />
		<tag k="ssr:gruppe" v="stilleståendeVann" />
		<tag k="ssr:hovedgruppe" v="ferskvann" />
		<tag k="ssr:stedsnr" v="71969" />
		<tag k="ssr:type" v="tjern" />
	</node>
	<node lat="61.91290555941414" lon="6.5041361027309685" id="-32984">
		<tag k="name" v="Mosehaugane" />
		<tag k="natural" v="hill" />
		<tag k="place" v="locality" />
		<tag k="ssr:date" v="2019-12-27" />
		<tag k="ssr:gruppe" v="høyder" />
		<tag k="ssr:hovedgruppe" v="terreng" />
		<tag k="ssr:stedsnr" v="71971" />
		<tag k="ssr:type" v="haug" />
	</node>
	<node lat="61.919891665241515" lon="6.495686110890291" id="-32985">
		<tag k="name" v="Pynten" />
		<tag k="natural" v="hill" />
		<tag k="place" v="locality" />
		<tag k="ssr:date" v="2019-12-27" />
		<tag k="ssr:gruppe" v="høyder" />
		<tag k="ssr:hovedgruppe" v="terreng" />
		<tag k="ssr:stedsnr" v="71976" />
		<tag k="ssr:type" v="haug" />
	</node>
	<node lat="61.92363333734463" lon="6.469008340872305" id="-32986">
		<tag k="name" v="Nakkane" />
		<tag k="natural" v="hill" />
		<tag k="place" v="locality" />
		<tag k="ssr:date" v="2019-12-27" />
		<tag k="ssr:gruppe" v="høyder" />
		<tag k="ssr:hovedgruppe" v="terreng" />
		<tag k="ssr:stedsnr" v="71985" />
		<tag k="ssr:type" v="haug" />
	</node>
	<node lat="61.79617222511989" lon="6.507813884404156" id="-32987">
		<tag k="name" v="Brulandselva" />
		<tag k="ssr:date" v="2021-06-08" />
		<tag k="ssr:gruppe" v="rennendeVann" />
		<tag k="ssr:hovedgruppe" v="ferskvann" />
		<tag k="ssr:stedsnr" v="88902" />
		<tag k="ssr:type" v="bekk" />
		<tag k="waterway" v="stream" />
	</node>
	<node lat="61.86058889331817" lon="6.3504500069827845" id="-32988">
		<tag k="name" v="Tvinnefossen" />
		<tag k="natural" v="waterfall" />
		<tag k="ssr:date" v="2021-06-08" />
		<tag k="ssr:gruppe" v="rennendeVann" />
		<tag k="ssr:hovedgruppe" v="ferskvann" />
		<tag k="ssr:stedsnr" v="88903" />
		<tag k="ssr:type" v="foss" />
	</node>
	<node lat="61.925677781038786" lon="6.765977770424002" id="-32989">
		<tag k="name" v="Styggerashamrane" />
		<tag k="natural" v="hill" />
		<tag k="place" v="locality" />
		<tag k="ssr:date" v="2019-12-27" />
		<tag k="ssr:gruppe" v="høyder" />
		<tag k="ssr:hovedgruppe" v="terreng" />
		<tag k="ssr:stedsnr" v="94011" />
		<tag k="ssr:type" v="berg" />
	</node>
	<node lat="61.65586944255506" lon="6.8182666672127" id="-32990">
		<tag k="name" v="Melkevolldalen" />
		<tag k="natural" v="valley" />
		<tag k="place" v="locality" />
		<tag k="ssr:date" v="2019-12-27" />
		<tag k="ssr:gruppe" v="senkninger" />
		<tag k="ssr:hovedgruppe" v="terreng" />
		<tag k="ssr:stedsnr" v="94013" />
		<tag k="ssr:type" v="dal" />
	</node>
	<node lat="61.9232750037915" lon="6.702111113242972" id="-32991">
		<tag k="name" v="Fehammaren" />
		<tag k="natural" v="hill" />
		<tag k="place" v="locality" />
		<tag k="ssr:date" v="2019-12-27" />
		<tag k="ssr:gruppe" v="høyder" />
		<tag k="ssr:hovedgruppe" v="terreng" />
		<tag k="ssr:stedsnr" v="94021" />
		<tag k="ssr:type" v="berg" />
	</node>
	<node lat="61.87938610803245" lon="6.777116660433144" id="-32992">
		<tag k="fixme" v="consider natural=peak for the most distinct mountains in the district" />
		<tag k="name" v="Marsåfjellet" />
		<tag k="natural" v="hill" />
		<tag k="place" v="locality" />
		<tag k="ssr:date" v="2019-12-27" />
		<tag k="ssr:gruppe" v="høyder" />
		<tag k="ssr:hovedgruppe" v="terreng" />
		<tag k="ssr:stedsnr" v="94024" />
		<tag k="ssr:type" v="fjell" />
	</node>
	<node lat="61.913919443887885" lon="6.7629694386078985" id="-32993">
		<tag k="name" v="Sætre" />
		<tag k="place" v="locality" />
		<tag k="ssr:date" v="2019-12-27" />
		<tag k="ssr:gruppe" v="flater" />
		<tag k="ssr:hovedgruppe" v="terreng" />
		<tag k="ssr:stedsnr" v="94060" />
		<tag k="ssr:type" v="slette" />
	</node>
	<node lat="61.90164722251112" lon="6.7229583330241525" id="-32994">
		<tag k="name" v="Bruagrenda" />
		<tag k="place" v="hamlet" />
		<tag k="ssr:date" v="2019-12-27" />
		<tag k="ssr:gruppe" v="bebyggelsesområder" />
		<tag k="ssr:hovedgruppe" v="bebyggelse" />
		<tag k="ssr:stedsnr" v="94066" />
		<tag k="ssr:type" v="grend" />
	</node>
	<node lat="61.909724569213445" lon="6.7437187336057205" id="-32995">
		<tag k="alt_name" v="Sundeløkken" />
		<tag k="name" v="Sundeløken" />
		<tag k="natural" v="water" />
		<tag k="ssr:date" v="2019-12-27" />
		<tag k="ssr:gruppe" v="rennendeVann" />
		<tag k="ssr:hovedgruppe" v="ferskvann" />
		<tag k="ssr:stedsnr" v="94067" />
		<tag k="ssr:type" v="lon" />
		<tag k="water" v="lake" />
	</node>
	<node lat="61.799866663373955" lon="6.823583330873473" id="-32996">
		<tag k="name" v="Osneset" />
		<tag k="natural" v="cape" />
		<tag k="ssr:date" v="2019-12-27" />
		<tag k="ssr:gruppe" v="ferskvannskontur" />
		<tag k="ssr:hovedgruppe" v="ferskvann" />
		<tag k="ssr:stedsnr" v="94070" />
		<tag k="ssr:type" v="nes" />
	</node>
	<node lat="61.79766389080097" lon="6.82091387947121" id="-32997">
		<tag k="name" v="Storøyra" />
		<tag k="natural" v="cape" />
		<tag k="ssr:date" v="2019-12-27" />
		<tag k="ssr:gruppe" v="ferskvannskontur" />
		<tag k="ssr:hovedgruppe" v="ferskvann" />
		<tag k="ssr:stedsnr" v="94075" />
		<tag k="ssr:type" v="nes" />
	</node>
	<node lat="61.806824998835054" lon="6.807586105944446" id="-32998">
		<tag k="name" v="Instesvora" />
		<tag k="place" v="locality" />
		<tag k="ssr:date" v="2019-12-27" />
		<tag k="ssr:gruppe" v="flater" />
		<tag k="ssr:hovedgruppe" v="terreng" />
		<tag k="ssr:stedsnr" v="94083" />
		<tag k="ssr:type" v="slette" />
	</node>
	<node lat="61.7800916661202" lon="6.847897214436783" id="-32999">
		<tag k="name" v="Høghammaren" />
		<tag k="natural" v="hill" />
		<tag k="place" v="locality" />
		<tag k="ssr:date" v="2019-12-27" />
		<tag k="ssr:gruppe" v="høyder" />
		<tag k="ssr:hovedgruppe" v="terreng" />
		<tag k="ssr:stedsnr" v="94106" />
		<tag k="ssr:type" v="berg" />
	</node>
	<node lat="61.78611666549492" lon="6.843602772379425" id="-33000">
		<tag k="name" v="Stølen" />
		<tag k="natural" v="hill" />
		<tag k="place" v="locality" />
		<tag k="ssr:date" v="2019-12-27" />
		<tag k="ssr:gruppe" v="høyder" />
		<tag k="ssr:hovedgruppe" v="terreng" />
		<tag k="ssr:stedsnr" v="94107" />
		<tag k="ssr:type" v="haug" />
	</node>
	<node lat="61.786794445257115" lon="6.83718332983826" id="-33001">
		<tag k="name" v="Veltegjølet" />
		<tag k="natural" v="valley" />
		<tag k="place" v="locality" />
		<tag k="ssr:date" v="2019-12-27" />
		<tag k="ssr:gruppe" v="senkninger" />
		<tag k="ssr:hovedgruppe" v="terreng" />
		<tag k="ssr:stedsnr" v="94116" />
		<tag k="ssr:type" v="dal" />
	</node>
	<node lat="61.771883333389674" lon="6.814616670767596" id="-33002">
		<tag k="fixme" v="consider natural=peak for the most distinct mountains in the district" />
		<tag k="name" v="Kvitefjellet" />
		<tag k="natural" v="hill" />
		<tag k="place" v="locality" />
		<tag k="ssr:date" v="2019-12-27" />
		<tag k="ssr:gruppe" v="høyder" />
		<tag k="ssr:hovedgruppe" v="terreng" />
		<tag k="ssr:stedsnr" v="94118" />
		<tag k="ssr:type" v="fjell" />
	</node>
	<node lat="61.83232222364438" lon="6.342222228999438" id="-33003">
		<tag k="name" v="Kleiva" />
		<tag k="natural" v="slope" />
		<tag k="place" v="locality" />
		<tag k="ssr:date" v="2019-12-27" />
		<tag k="ssr:gruppe" v="skråninger" />
		<tag k="ssr:hovedgruppe" v="terreng" />
		<tag k="ssr:stedsnr" v="94161" />
		<tag k="ssr:type" v="bakke" />
	</node>
	<node lat="61.82721388623541" lon="6.346913892639163" id="-33004">
		<tag k="name" v="Liabakkane" />
		<tag k="natural" v="slope" />
		<tag k="place" v="locality" />
		<tag k="ssr:date" v="2019-12-27" />
		<tag k="ssr:gruppe" v="skråninger" />
		<tag k="ssr:hovedgruppe" v="terreng" />
		<tag k="ssr:stedsnr" v="94164" />
		<tag k="ssr:type" v="bakke" />
	</node>
	<node lat="61.92351944291792" lon="6.809916668014957" id="-33005">
		<tag k="name" v="Bolthammaren" />
		<tag k="natural" v="hill" />
		<tag k="place" v="locality" />
		<tag k="ssr:date" v="2019-12-27" />
		<tag k="ssr:gruppe" v="høyder" />
		<tag k="ssr:hovedgruppe" v="terreng" />
		<tag k="ssr:stedsnr" v="94278" />
		<tag k="ssr:type" v="berg" />
	</node>
	<node lat="61.86681944674169" lon="6.318547225097665" id="-33006">
		<tag k="name" v="Lindahaug" />
		<tag k="natural" v="hill" />
		<tag k="place" v="locality" />
		<tag k="ssr:date" v="2019-12-27" />
		<tag k="ssr:gruppe" v="høyder" />
		<tag k="ssr:hovedgruppe" v="terreng" />
		<tag k="ssr:stedsnr" v="94279" />
		<tag k="ssr:type" v="haug" />
	</node>
	<node lat="61.93283333281615" lon="6.8499805629308455" id="-33007">
		<tag k="name" v="Haugane" />
		<tag k="natural" v="hill" />
		<tag k="place" v="locality" />
		<tag k="ssr:date" v="2019-12-27" />
		<tag k="ssr:gruppe" v="høyder" />
		<tag k="ssr:hovedgruppe" v="terreng" />
		<tag k="ssr:stedsnr" v="94281" />
		<tag k="ssr:type" v="haug" />
	</node>
	<node lat="61.93184999586807" lon="6.845188886437219" id="-33008">
		<tag k="name" v="Laugeberget" />
		<tag k="natural" v="hill" />
		<tag k="place" v="locality" />
		<tag k="ssr:date" v="2019-12-27" />
		<tag k="ssr:gruppe" v="høyder" />
		<tag k="ssr:hovedgruppe" v="terreng" />
		<tag k="ssr:stedsnr" v="94282" />
		<tag k="ssr:type" v="berg" />
	</node>
	<node lat="61.87449166244577" lon="6.376147227081608" id="-33009">
		<tag k="name" v="Skrestølsnakken" />
		<tag k="natural" v="hill" />
		<tag k="place" v="locality" />
		<tag k="ssr:date" v="2019-12-27" />
		<tag k="ssr:gruppe" v="høyder" />
		<tag k="ssr:hovedgruppe" v="terreng" />
		<tag k="ssr:stedsnr" v="94283" />
		<tag k="ssr:type" v="høyde" />
	</node>
	<node lat="61.84245277833937" lon="6.304977785028322" id="-33010">
		<tag k="fixme" v="consider natural=peak for the most distinct mountains in the district" />
		<tag k="name" v="Stegfjellet" />
		<tag k="natural" v="hill" />
		<tag k="place" v="locality" />
		<tag k="ssr:date" v="2019-12-27" />
		<tag k="ssr:gruppe" v="høyder" />
		<tag k="ssr:hovedgruppe" v="terreng" />
		<tag k="ssr:stedsnr" v="94291" />
		<tag k="ssr:type" v="fjell" />
	</node>
	<node lat="61.83681389081531" lon="6.314433337501565" id="-33011">
		<tag k="fixme" v="consider natural=peak for the most distinct mountains in the district" />
		<tag k="name" v="Tverrfjellet" />
		<tag k="natural" v="hill" />
		<tag k="place" v="locality" />
		<tag k="ssr:date" v="2019-12-27" />
		<tag k="ssr:gruppe" v="høyder" />
		<tag k="ssr:hovedgruppe" v="terreng" />
		<tag k="ssr:stedsnr" v="94293" />
		<tag k="ssr:type" v="fjell" />
	</node>
	<node lat="61.883274998356306" lon="6.802163879582253" id="-33012">
		<tag k="name" v="Kopehammaren" />
		<tag k="natural" v="hill" />
		<tag k="place" v="locality" />
		<tag k="ssr:date" v="2019-12-27" />
		<tag k="ssr:gruppe" v="høyder" />
		<tag k="ssr:hovedgruppe" v="terreng" />
		<tag k="ssr:stedsnr" v="94294" />
		<tag k="ssr:type" v="berg" />
	</node>
	<node lat="61.91625555543023" lon="7.139811105775037" id="-33013">
		<tag k="name" v="Hesthola" />
		<tag k="natural" v="valley" />
		<tag k="place" v="locality" />
		<tag k="ssr:date" v="2019-12-27" />
		<tag k="ssr:gruppe" v="senkninger" />
		<tag k="ssr:hovedgruppe" v="terreng" />
		<tag k="ssr:stedsnr" v="94403" />
		<tag k="ssr:type" v="søkk" />
	</node>
	<node lat="61.91030277565967" lon="7.1280527822682895" id="-33014">
		<tag k="name" v="Uksen" />
		<tag k="natural" v="hill" />
		<tag k="place" v="locality" />
		<tag k="ssr:date" v="2019-12-27" />
		<tag k="ssr:gruppe" v="høyder" />
		<tag k="ssr:hovedgruppe" v="terreng" />
		<tag k="ssr:stedsnr" v="94407" />
		<tag k="ssr:type" v="haug" />
	</node>
	<node lat="61.89135833327873" lon="7.028936103426457" id="-33015">
		<tag k="name" v="Tverrbotnen" />
		<tag k="natural" v="valley" />
		<tag k="place" v="locality" />
		<tag k="ssr:date" v="2019-12-27" />
		<tag k="ssr:gruppe" v="senkninger" />
		<tag k="ssr:hovedgruppe" v="terreng" />
		<tag k="ssr:stedsnr" v="94408" />
		<tag k="ssr:type" v="botn" />
	</node>
	<node lat="61.92113610888534" lon="7.139819435922104" id="-33016">
		<tag k="name" v="Haugen" />
		<tag k="natural" v="hill" />
		<tag k="place" v="locality" />
		<tag k="ssr:date" v="2019-12-27" />
		<tag k="ssr:gruppe" v="høyder" />
		<tag k="ssr:hovedgruppe" v="terreng" />
		<tag k="ssr:stedsnr" v="94461" />
		<tag k="ssr:type" v="haug" />
	</node>
	<node lat="61.92367500015143" lon="7.136911109630736" id="-33017">
		<tag k="name" v="Skuten" />
		<tag k="natural" v="hill" />
		<tag k="place" v="locality" />
		<tag k="ssr:date" v="2019-12-27" />
		<tag k="ssr:gruppe" v="høyder" />
		<tag k="ssr:hovedgruppe" v="terreng" />
		<tag k="ssr:stedsnr" v="94462" />
		<tag k="ssr:type" v="haug" />
	</node>
	<node lat="61.89000555210657" lon="6.658586102136367" id="-33018">
		<tag k="name" v="Øykjeberget" />
		<tag k="natural" v="hill" />
		<tag k="place" v="locality" />
		<tag k="ssr:date" v="2019-12-27" />
		<tag k="ssr:gruppe" v="høyder" />
		<tag k="ssr:hovedgruppe" v="terreng" />
		<tag k="ssr:stedsnr" v="94467" />
		<tag k="ssr:type" v="berg" />
	</node>
	<node lat="61.92974999619927" lon="6.592811110352935" id="-33019">
		<tag k="name" v="Sauetjørna" />
		<tag k="natural" v="water" />
		<tag k="ssr:date" v="2019-12-27" />
		<tag k="ssr:gruppe" v="stilleståendeVann" />
		<tag k="ssr:hovedgruppe" v="ferskvann" />
		<tag k="ssr:stedsnr" v="94470" />
		<tag k="ssr:type" v="tjern" />
	</node>
	<node lat="61.85745833555433" lon="7.160833324457252" id="-33020">
		<tag k="name" v="Bolleberget" />
		<tag k="natural" v="hill" />
		<tag k="place" v="locality" />
		<tag k="ssr:date" v="2019-12-27" />
		<tag k="ssr:gruppe" v="høyder" />
		<tag k="ssr:hovedgruppe" v="terreng" />
		<tag k="ssr:stedsnr" v="94471" />
		<tag k="ssr:type" v="berg" />
	</node>
	<node lat="61.85364166508644" lon="7.16739999639067" id="-33021">
		<tag k="name" v="Lidasvadene" />
		<tag k="natural" v="hill" />
		<tag k="place" v="locality" />
		<tag k="ssr:date" v="2019-12-27" />
		<tag k="ssr:gruppe" v="høyder" />
		<tag k="ssr:hovedgruppe" v="terreng" />
		<tag k="ssr:stedsnr" v="94473" />
		<tag k="ssr:type" v="berg" />
	</node>
	<node lat="61.85122778204518" lon="6.374477786336091" id="-33022">
		<tag k="name" v="Fagrehaugen" />
		<tag k="natural" v="hill" />
		<tag k="place" v="locality" />
		<tag k="ssr:date" v="2019-12-27" />
		<tag k="ssr:gruppe" v="høyder" />
		<tag k="ssr:hovedgruppe" v="terreng" />
		<tag k="ssr:stedsnr" v="94304" />
		<tag k="ssr:type" v="haug" />
	</node>
	<node lat="61.944619443788746" lon="6.885297226962947" id="-33023">
		<tag k="fixme" v="consider natural=peak for the most distinct mountains in the district" />
		<tag k="name" v="Kjølingefjellet" />
		<tag k="natural" v="hill" />
		<tag k="place" v="locality" />
		<tag k="ssr:date" v="2019-12-27" />
		<tag k="ssr:gruppe" v="høyder" />
		<tag k="ssr:hovedgruppe" v="terreng" />
		<tag k="ssr:stedsnr" v="94305" />
		<tag k="ssr:type" v="fjell" />
	</node>
	<node lat="61.84688610699764" lon="6.522227770058688" id="-33024">
		<tag k="name" v="Løypet" />
		<tag k="natural" v="slope" />
		<tag k="place" v="locality" />
		<tag k="ssr:date" v="2019-12-27" />
		<tag k="ssr:gruppe" v="skråninger" />
		<tag k="ssr:hovedgruppe" v="terreng" />
		<tag k="ssr:stedsnr" v="94309" />
		<tag k="ssr:type" v="bakke" />
	</node>
	<node lat="61.94649721916104" lon="6.931008335161019" id="-33025">
		<tag k="name" v="Storesteinane" />
		<tag k="natural" v="stone" />
		<tag k="ssr:date" v="2019-12-27" />
		<tag k="ssr:gruppe" v="løsmasseavsetninger" />
		<tag k="ssr:hovedgruppe" v="markslag" />
		<tag k="ssr:stedsnr" v="94311" />
		<tag k="ssr:type" v="stein" />
	</node>
	<node lat="61.941680555255424" lon="6.928725006271831" id="-33026">
		<tag k="name" v="Vegaskitmyrane" />
		<tag k="natural" v="wetland" />
		<tag k="ssr:date" v="2019-12-27" />
		<tag k="ssr:gruppe" v="våtmark" />
		<tag k="ssr:hovedgruppe" v="markslag" />
		<tag k="ssr:stedsnr" v="94312" />
		<tag k="ssr:type" v="myr" />
	</node>
	<node lat="61.836761108192064" lon="6.505266671068882" id="-33027">
		<tag k="name" v="Nylendene" />
		<tag k="natural" v="slope" />
		<tag k="place" v="locality" />
		<tag k="ssr:date" v="2019-12-27" />
		<tag k="ssr:gruppe" v="skråninger" />
		<tag k="ssr:hovedgruppe" v="terreng" />
		<tag k="ssr:stedsnr" v="94315" />
		<tag k="ssr:type" v="bakke" />
	</node>
	<node lat="61.84787221873369" lon="6.630183340389321" id="-33028">
		<tag k="name" v="Småbakken" />
		<tag k="natural" v="slope" />
		<tag k="place" v="locality" />
		<tag k="ssr:date" v="2019-12-27" />
		<tag k="ssr:gruppe" v="skråninger" />
		<tag k="ssr:hovedgruppe" v="terreng" />
		<tag k="ssr:stedsnr" v="94394" />
		<tag k="ssr:type" v="bakke" />
	</node>
	<node lat="61.80460833253465" lon="7.098236110469026" id="-33029">
		<tag k="name" v="Skålelva" />
		<tag k="ssr:date" v="2019-12-27" />
		<tag k="ssr:gruppe" v="rennendeVann" />
		<tag k="ssr:hovedgruppe" v="ferskvann" />
		<tag k="ssr:stedsnr" v="94397" />
		<tag k="ssr:type" v="elv" />
		<tag k="waterway" v="river" />
	</node>
	<node lat="61.84382500407047" lon="6.622358332580759" id="-33030">
		<tag k="name" v="Einebakk" />
		<tag k="place" v="farm" />
		<tag k="ssr:date" v="2019-12-27" />
		<tag k="ssr:gruppe" v="gardsbebyggelse" />
		<tag k="ssr:hovedgruppe" v="bebyggelse" />
		<tag k="ssr:stedsnr" v="94400" />
		<tag k="ssr:type" v="bruk" />
	</node>
	<node lat="61.91413333655974" lon="6.5573694408345595" id="-33031">
		<tag k="name" v="Sagemyra" />
		<tag k="natural" v="wetland" />
		<tag k="ssr:date" v="2019-12-27" />
		<tag k="ssr:gruppe" v="våtmark" />
		<tag k="ssr:hovedgruppe" v="markslag" />
		<tag k="ssr:stedsnr" v="94504" />
		<tag k="ssr:type" v="myr" />
	</node>
	<node lat="61.946158337701426" lon="7.112327769882841" id="-33032">
		<tag k="name" v="Øykeskargrova" />
		<tag k="ssr:date" v="2019-12-27" />
		<tag k="ssr:gruppe" v="rennendeVann" />
		<tag k="ssr:hovedgruppe" v="ferskvann" />
		<tag k="ssr:stedsnr" v="94505" />
		<tag k="ssr:type" v="bekk" />
		<tag k="waterway" v="stream" />
	</node>
	<node lat="61.955119446339324" lon="7.038441659126798" id="-33033">
		<tag k="name" v="Oppigardselva" />
		<tag k="ssr:date" v="2019-12-27" />
		<tag k="ssr:gruppe" v="rennendeVann" />
		<tag k="ssr:hovedgruppe" v="ferskvann" />
		<tag k="ssr:stedsnr" v="94507" />
		<tag k="ssr:type" v="bekk" />
		<tag k="waterway" v="stream" />
	</node>
	<node lat="61.93407777336383" lon="7.057638882937388" id="-33034">
		<tag k="name" v="Kvernhammaren" />
		<tag k="natural" v="hill" />
		<tag k="place" v="locality" />
		<tag k="ssr:date" v="2019-12-27" />
		<tag k="ssr:gruppe" v="høyder" />
		<tag k="ssr:hovedgruppe" v="terreng" />
		<tag k="ssr:stedsnr" v="94509" />
		<tag k="ssr:type" v="berg" />
	</node>
	<node lat="61.935633331088475" lon="7.05408889429054" id="-33035">
		<tag k="name" v="Jutulen" />
		<tag k="natural" v="slope" />
		<tag k="place" v="locality" />
		<tag k="ssr:date" v="2019-12-27" />
		<tag k="ssr:gruppe" v="skråninger" />
		<tag k="ssr:hovedgruppe" v="terreng" />
		<tag k="ssr:stedsnr" v="94510" />
		<tag k="ssr:type" v="bakke" />
	</node>
	<node lat="61.92612222650301" lon="7.07726110247754" id="-33036">
		<tag k="name" v="Æveskora" />
		<tag k="natural" v="hill" />
		<tag k="place" v="locality" />
		<tag k="ssr:date" v="2019-12-27" />
		<tag k="ssr:gruppe" v="høyder" />
		<tag k="ssr:hovedgruppe" v="terreng" />
		<tag k="ssr:stedsnr" v="94515" />
		<tag k="ssr:type" v="berg" />
	</node>
	<node lat="61.85170832961906" lon="7.14811944865135" id="-33037">
		<tag k="name" v="Muren" />
		<tag k="place" v="locality" />
		<tag k="ssr:date" v="2019-12-27" />
		<tag k="ssr:gruppe" v="flater" />
		<tag k="ssr:hovedgruppe" v="terreng" />
		<tag k="ssr:stedsnr" v="94522" />
		<tag k="ssr:type" v="slette" />
	</node>
	<node lat="61.830725004047615" lon="6.9761194383181415" id="-33038">
		<tag k="name" v="Glæra" />
		<tag k="ssr:date" v="2019-12-27" />
		<tag k="ssr:gruppe" v="rennendeVann" />
		<tag k="ssr:hovedgruppe" v="ferskvann" />
		<tag k="ssr:stedsnr" v="94525" />
		<tag k="ssr:type" v="bekk" />
		<tag k="waterway" v="stream" />
	</node>
	<node lat="61.84749999576083" lon="6.293419444616461" id="-33039">
		<tag k="name" v="Linda" />
		<tag k="natural" v="cape" />
		<tag k="ssr:date" v="2019-12-27" />
		<tag k="ssr:gruppe" v="kystkontur" />
		<tag k="ssr:hovedgruppe" v="sjø" />
		<tag k="ssr:stedsnr" v="99908" />
		<tag k="ssr:type" v="nesISjø" />
	</node>
	<node lat="61.8975444418653" lon="7.246930563561244" id="-33040">
		<tag k="name" v="Grønebakksteinen" />
		<tag k="natural" v="stone" />
		<tag k="ssr:date" v="2019-12-27" />
		<tag k="ssr:gruppe" v="løsmasseavsetninger" />
		<tag k="ssr:hovedgruppe" v="markslag" />
		<tag k="ssr:stedsnr" v="120678" />
		<tag k="ssr:type" v="stein" />
	</node>
	<node lat="61.874377776508936" lon="6.3298388937696535" id="-33041">
		<tag k="name" v="Randaelva" />
		<tag k="ssr:date" v="2019-12-27" />
		<tag k="ssr:gruppe" v="rennendeVann" />
		<tag k="ssr:hovedgruppe" v="ferskvann" />
		<tag k="ssr:stedsnr" v="252038" />
		<tag k="ssr:type" v="bekk" />
		<tag k="waterway" v="stream" />
	</node>
	<node lat="61.81817500023875" lon="6.558613894261341" id="-33042">
		<tag k="name" v="Kårstadmarka" />
		<tag k="place" v="locality" />
		<tag k="ssr:date" v="2019-12-27" />
		<tag k="ssr:gruppe" v="vegetasjon" />
		<tag k="ssr:hovedgruppe" v="markslag" />
		<tag k="ssr:stedsnr" v="252071" />
		<tag k="ssr:type" v="skog" />
	</node>
	<node lat="61.955797226309144" lon="6.841674990541112" id="-33043">
		<tag k="name" v="Tennafjellet" />
		<tag k="natural" v="hill" />
		<tag k="place" v="locality" />
		<tag k="ssr:date" v="2019-12-27" />
		<tag k="ssr:gruppe" v="høyder" />
		<tag k="ssr:hovedgruppe" v="terreng" />
		<tag k="ssr:stedsnr" v="252147" />
		<tag k="ssr:type" v="berg" />
	</node>
	<node lat="61.836741669613666" lon="6.488555563116404" id="-33044">
		<tag k="fixme" v="consider natural=peak for the most distinct mountains in the district" />
		<tag k="name" v="Åsane" />
		<tag k="natural" v="hill" />
		<tag k="place" v="locality" />
		<tag k="ssr:date" v="2019-12-27" />
		<tag k="ssr:gruppe" v="høyder" />
		<tag k="ssr:hovedgruppe" v="terreng" />
		<tag k="ssr:stedsnr" v="252099" />
		<tag k="ssr:type" v="ås" />
	</node>
	<node lat="61.83041666348261" lon="6.314366671561279" id="-33045">
		<tag k="name" v="Strupen" />
		<tag k="natural" v="valley" />
		<tag k="place" v="locality" />
		<tag k="ssr:date" v="2019-12-27" />
		<tag k="ssr:gruppe" v="senkninger" />
		<tag k="ssr:hovedgruppe" v="terreng" />
		<tag k="ssr:stedsnr" v="252100" />
		<tag k="ssr:type" v="skar" />
	</node>
	<node lat="61.96338888546467" lon="6.8533861055224845" id="-33046">
		<tag k="name" v="Aksletjønna" />
		<tag k="natural" v="water" />
		<tag k="ssr:date" v="2021-06-08" />
		<tag k="ssr:gruppe" v="stilleståendeVann" />
		<tag k="ssr:hovedgruppe" v="ferskvann" />
		<tag k="ssr:stedsnr" v="252160" />
		<tag k="ssr:type" v="tjern" />
	</node>
	<node lat="61.96673333328958" lon="6.918627777990026" id="-33047">
		<tag k="name" v="Breiskarelva" />
		<tag k="ssr:date" v="2021-06-08" />
		<tag k="ssr:gruppe" v="rennendeVann" />
		<tag k="ssr:hovedgruppe" v="ferskvann" />
		<tag k="ssr:stedsnr" v="252164" />
		<tag k="ssr:type" v="bekk" />
		<tag k="waterway" v="stream" />
	</node>
	<node lat="61.87154303769396" lon="6.857662775478138" id="-33048">
		<tag k="alt_name" v="Loen;Loen kirke" />
		<tag k="amenity" v="place_of_worship" />
		<tag k="denomination" v="lutheran" />
		<tag k="name" v="Loen kyrkje" />
		<tag k="religion" v="christian" />
		<tag k="ssr:date" v="2019-12-27" />
		<tag k="ssr:gruppe" v="kulturinstitusjoner" />
		<tag k="ssr:hovedgruppe" v="kultur" />
		<tag k="ssr:stedsnr" v="252239" />
		<tag k="ssr:type" v="kirke" />
	</node>
	<node lat="61.86364722615371" lon="6.617483336111259" id="-33049">
		<tag k="fixme" v="consider natural=peak for the most distinct mountains in the district" />
		<tag k="name" v="Hildahalsen" />
		<tag k="natural" v="hill" />
		<tag k="place" v="locality" />
		<tag k="ssr:date" v="2021-06-08" />
		<tag k="ssr:gruppe" v="høyder" />
		<tag k="ssr:hovedgruppe" v="terreng" />
		<tag k="ssr:stedsnr" v="252340" />
		<tag k="ssr:type" v="ås" />
	</node>
	<node lat="61.842993894659074" lon="6.634011392383127" id="-33050">
		<tag k="fixme" v="consider place=hamlet" />
		<tag k="name" v="Taraldset" />
		<tag k="place" v="farm" />
		<tag k="ssr:date" v="2019-12-27" />
		<tag k="ssr:gruppe" v="gardsbebyggelse" />
		<tag k="ssr:hovedgruppe" v="bebyggelse" />
		<tag k="ssr:stedsnr" v="252318" />
		<tag k="ssr:type" v="gard" />
	</node>
	<node lat="61.854090180673985" lon="6.6231224550957135" id="-33051">
		<tag k="fixme" v="consider place=hamlet" />
		<tag k="name" v="Hilde" />
		<tag k="place" v="farm" />
		<tag k="ssr:date" v="2021-06-08" />
		<tag k="ssr:gruppe" v="gardsbebyggelse" />
		<tag k="ssr:hovedgruppe" v="bebyggelse" />
		<tag k="ssr:stedsnr" v="252345" />
		<tag k="ssr:type" v="gard" />
	</node>
	<node lat="61.86809331676377" lon="6.966990235514151" id="-33052">
		<tag k="fixme" v="consider natural=peak for the most distinct mountains in the district" />
		<tag k="loc_name" v="Loskåla" />
		<tag k="name" v="Skåla" />
		<tag k="natural" v="hill" />
		<tag k="place" v="locality" />
		<tag k="ssr:date" v="2019-12-27" />
		<tag k="ssr:gruppe" v="høyder" />
		<tag k="ssr:hovedgruppe" v="terreng" />
		<tag k="ssr:stedsnr" v="252346" />
		<tag k="ssr:type" v="fjell" />
	</node>
	<node lat="61.98950000406008" lon="7.066961117630353" id="-33053">
		<tag k="name" v="Vesledalen" />
		<tag k="natural" v="valley" />
		<tag k="place" v="locality" />
		<tag k="ssr:date" v="2019-12-27" />
		<tag k="ssr:gruppe" v="senkninger" />
		<tag k="ssr:hovedgruppe" v="terreng" />
		<tag k="ssr:stedsnr" v="252366" />
		<tag k="ssr:type" v="dal" />
	</node>
	<node lat="61.826106024618355" lon="6.968920256071879" id="-33054">
		<tag k="fixme" v="consider place=hamlet" />
		<tag k="name" v="Hellsete" />
		<tag k="place" v="farm" />
		<tag k="ssr:date" v="2021-06-08" />
		<tag k="ssr:gruppe" v="gardsbebyggelse" />
		<tag k="ssr:hovedgruppe" v="bebyggelse" />
		<tag k="ssr:stedsnr" v="252409" />
		<tag k="ssr:type" v="gard" />
	</node>
	<node lat="61.85215555623504" lon="7.3320833370455" id="-33055">
		<tag k="name" v="Sygneskarsbreen" />
		<tag k="natural" v="glacier" />
		<tag k="ssr:date" v="2021-06-08" />
		<tag k="ssr:gruppe" v="isOgPermafrost" />
		<tag k="ssr:hovedgruppe" v="markslag" />
		<tag k="ssr:stedsnr" v="252414" />
		<tag k="ssr:type" v="isbre" />
	</node>
	<node lat="61.841100000901896" lon="7.039888887415706" id="-33056">
		<tag k="fixme" v="consider natural=peak for the most distinct mountains in the district" />
		<tag k="name" v="Tungefjellet" />
		<tag k="natural" v="hill" />
		<tag k="place" v="locality" />
		<tag k="ssr:date" v="2019-12-27" />
		<tag k="ssr:gruppe" v="høyder" />
		<tag k="ssr:hovedgruppe" v="terreng" />
		<tag k="ssr:stedsnr" v="252418" />
		<tag k="ssr:type" v="fjell" />
	</node>
	<node lat="61.853665368978525" lon="6.973830354136006" id="-33057">
		<tag k="name" v="Brengsdalen" />
		<tag k="natural" v="valley" />
		<tag k="place" v="locality" />
		<tag k="ssr:date" v="2020-08-21" />
		<tag k="ssr:gruppe" v="senkninger" />
		<tag k="ssr:hovedgruppe" v="terreng" />
		<tag k="ssr:stedsnr" v="252422" />
		<tag k="ssr:type" v="dal" />
	</node>
	<node lat="61.796031347064876" lon="7.102821049996962" id="-33058">
		<tag k="name" v="Sætrevatnet" />
		<tag k="natural" v="water" />
		<tag k="ssr:date" v="2019-12-27" />
		<tag k="ssr:gruppe" v="stilleståendeVann" />
		<tag k="ssr:hovedgruppe" v="ferskvann" />
		<tag k="ssr:stedsnr" v="252527" />
		<tag k="ssr:type" v="tjern" />
	</node>
	<node lat="61.8844416675864" lon="7.34718056309082" id="-33059">
		<tag k="name" v="Kamperhamrane" />
		<tag k="natural" v="valley" />
		<tag k="place" v="locality" />
		<tag k="ssr:date" v="2019-12-27" />
		<tag k="ssr:gruppe" v="senkninger" />
		<tag k="ssr:hovedgruppe" v="terreng" />
		<tag k="ssr:stedsnr" v="252534" />
		<tag k="ssr:type" v="dal" />
	</node>
	<node lat="61.65261111354663" lon="6.836300001931822" id="-33060">
		<tag k="fixme" v="consider natural=peak for the most distinct mountains in the district" />
		<tag k="name" v="Kattanakken" />
		<tag k="natural" v="hill" />
		<tag k="place" v="locality" />
		<tag k="ssr:date" v="2019-12-27" />
		<tag k="ssr:gruppe" v="høyder" />
		<tag k="ssr:hovedgruppe" v="terreng" />
		<tag k="ssr:stedsnr" v="130789" />
		<tag k="ssr:type" v="fjell" />
	</node>
	<node lat="61.70266398379849" lon="6.817872850123171" id="-33061">
		<tag k="fixme" v="consider place=hamlet" />
		<tag k="name" v="Kvame" />
		<tag k="place" v="farm" />
		<tag k="ssr:date" v="2021-06-08" />
		<tag k="ssr:gruppe" v="gardsbebyggelse" />
		<tag k="ssr:hovedgruppe" v="bebyggelse" />
		<tag k="ssr:stedsnr" v="130903" />
		<tag k="ssr:type" v="gard" />
	</node>
	<node lat="61.690655552059305" lon="6.906313897447655" id="-33062">
		<tag k="fixme" v="consider natural=peak for the most distinct mountains in the district" />
		<tag k="name" v="Brenndalsnibba" />
		<tag k="natural" v="hill" />
		<tag k="place" v="locality" />
		<tag k="ssr:date" v="2019-12-27" />
		<tag k="ssr:gruppe" v="høyder" />
		<tag k="ssr:hovedgruppe" v="terreng" />
		<tag k="ssr:stedsnr" v="130914" />
		<tag k="ssr:type" v="fjell" />
	</node>
	<node lat="61.68221388707673" lon="6.831916669568783" id="-33063">
		<tag k="name" v="Brenna" />
		<tag k="ssr:date" v="2019-12-27" />
		<tag k="ssr:gruppe" v="rennendeVann" />
		<tag k="ssr:hovedgruppe" v="ferskvann" />
		<tag k="ssr:stedsnr" v="130917" />
		<tag k="ssr:type" v="bekk" />
		<tag k="waterway" v="stream" />
	</node>
	<node lat="61.66058055637253" lon="6.807177784543765" id="-33064">
		<tag k="name" v="Volefossen" />
		<tag k="natural" v="waterfall" />
		<tag k="ssr:date" v="2021-06-08" />
		<tag k="ssr:gruppe" v="rennendeVann" />
		<tag k="ssr:hovedgruppe" v="ferskvann" />
		<tag k="ssr:stedsnr" v="130924" />
		<tag k="ssr:type" v="foss" />
	</node>
	<node lat="61.86738055275405" lon="6.425400001219391" id="-33065">
		<tag k="fixme" v="consider natural=peak for the most distinct mountains in the district" />
		<tag k="name" v="Heida" />
		<tag k="natural" v="hill" />
		<tag k="place" v="locality" />
		<tag k="ssr:date" v="2021-06-08" />
		<tag k="ssr:gruppe" v="høyder" />
		<tag k="ssr:hovedgruppe" v="terreng" />
		<tag k="ssr:stedsnr" v="131003" />
		<tag k="ssr:type" v="ås" />
	</node>
	<node lat="61.87191666681706" lon="6.542899996366189" id="-33066">
		<tag k="alt_name" v="Svartesvedene" />
		<tag k="name" v="Svartsvedene" />
		<tag k="natural" v="slope" />
		<tag k="place" v="locality" />
		<tag k="ssr:date" v="2019-12-27" />
		<tag k="ssr:gruppe" v="skråninger" />
		<tag k="ssr:hovedgruppe" v="terreng" />
		<tag k="ssr:stedsnr" v="131006" />
		<tag k="ssr:type" v="li" />
	</node>
	<node lat="61.87499392992727" lon="6.522713981243576" id="-33067">
		<tag k="name" v="Mothammaren" />
		<tag k="natural" v="hill" />
		<tag k="place" v="locality" />
		<tag k="ssr:date" v="2021-06-08" />
		<tag k="ssr:gruppe" v="høyder" />
		<tag k="ssr:hovedgruppe" v="terreng" />
		<tag k="ssr:stedsnr" v="131011" />
		<tag k="ssr:type" v="berg" />
	</node>
	<node lat="61.95803055738087" lon="6.774338896479757" id="-33068">
		<tag k="fixme" v="consider natural=peak for the most distinct mountains in the district" />
		<tag k="name" v="Steindalsegga" />
		<tag k="natural" v="hill" />
		<tag k="place" v="locality" />
		<tag k="ssr:date" v="2020-06-11" />
		<tag k="ssr:gruppe" v="høyder" />
		<tag k="ssr:hovedgruppe" v="terreng" />
		<tag k="ssr:stedsnr" v="131183" />
		<tag k="ssr:type" v="fjell" />
	</node>
	<node lat="61.80689444365471" lon="6.714036103904579" id="-33069">
		<tag k="fixme" v="consider natural=peak for the most distinct mountains in the district" />
		<tag k="name" v="Torvfjellet" />
		<tag k="natural" v="hill" />
		<tag k="place" v="locality" />
		<tag k="ssr:date" v="2019-12-27" />
		<tag k="ssr:gruppe" v="høyder" />
		<tag k="ssr:hovedgruppe" v="terreng" />
		<tag k="ssr:stedsnr" v="131305" />
		<tag k="ssr:type" v="fjell" />
	</node>
	<node lat="61.82720833387833" lon="6.679741662726694" id="-33070">
		<tag k="alt_name" v="Dragesetstølen" />
		<tag k="historic" v="shieling" />
		<tag k="name" v="Dragesetstøylen" />
		<tag k="place" v="isolated_dwelling" />
		<tag k="ssr:date" v="2019-12-27" />
		<tag k="ssr:gruppe" v="gardsbebyggelse" />
		<tag k="ssr:hovedgruppe" v="bebyggelse" />
		<tag k="ssr:stedsnr" v="131316" />
		<tag k="ssr:type" v="seterStøl" />
	</node>
	<node lat="61.864855783013866" lon="6.521874267175522" id="-33071">
		<tag k="alt_name" v="Nygard" />
		<tag k="fixme" v="consider place=hamlet" />
		<tag k="name" v="Nygård" />
		<tag k="place" v="farm" />
		<tag k="ssr:date" v="2019-12-27" />
		<tag k="ssr:gruppe" v="gardsbebyggelse" />
		<tag k="ssr:hovedgruppe" v="bebyggelse" />
		<tag k="ssr:stedsnr" v="131020" />
		<tag k="ssr:type" v="gard" />
	</node>
	<node lat="61.8052916649804" lon="6.464691670028605" id="-33072">
		<tag k="alt_name" v="Uspasete" />
		<tag k="name" v="Uspaset" />
		<tag k="natural" v="cape" />
		<tag k="ssr:date" v="2019-12-27" />
		<tag k="ssr:gruppe" v="kystkontur" />
		<tag k="ssr:hovedgruppe" v="sjø" />
		<tag k="ssr:stedsnr" v="131083" />
		<tag k="ssr:type" v="nesISjø" />
	</node>
	<node lat="61.78969444662207" lon="6.466172229195332" id="-33073">
		<tag k="name" v="Svinåna" />
		<tag k="ssr:date" v="2021-06-08" />
		<tag k="ssr:gruppe" v="rennendeVann" />
		<tag k="ssr:hovedgruppe" v="ferskvann" />
		<tag k="ssr:stedsnr" v="131096" />
		<tag k="ssr:type" v="bekk" />
		<tag k="waterway" v="stream" />
	</node>
	<node lat="61.955977774992334" lon="6.93669722349729" id="-33074">
		<tag k="name" v="Fureelva" />
		<tag k="ssr:date" v="2021-06-08" />
		<tag k="ssr:gruppe" v="rennendeVann" />
		<tag k="ssr:hovedgruppe" v="ferskvann" />
		<tag k="ssr:stedsnr" v="131204" />
		<tag k="ssr:type" v="bekk" />
		<tag k="waterway" v="stream" />
	</node>
	<node lat="61.9579138914604" lon="6.938911109910437" id="-33075">
		<tag k="name" v="Furedalen" />
		<tag k="natural" v="valley" />
		<tag k="place" v="locality" />
		<tag k="ssr:date" v="2021-06-08" />
		<tag k="ssr:gruppe" v="senkninger" />
		<tag k="ssr:hovedgruppe" v="terreng" />
		<tag k="ssr:stedsnr" v="131206" />
		<tag k="ssr:type" v="dal" />
	</node>
	<node lat="61.78858610749861" lon="6.535711102171834" id="-33076">
		<tag k="name" v="Tverrelva" />
		<tag k="ssr:date" v="2020-06-02" />
		<tag k="ssr:gruppe" v="rennendeVann" />
		<tag k="ssr:hovedgruppe" v="ferskvann" />
		<tag k="ssr:stedsnr" v="131209" />
		<tag k="ssr:type" v="bekk" />
		<tag k="waterway" v="stream" />
	</node>
	<node lat="61.84630000336126" lon="7.265341661255646" id="-33077">
		<tag k="name" v="Vesledalsbreen" />
		<tag k="natural" v="glacier" />
		<tag k="ssr:date" v="2021-06-08" />
		<tag k="ssr:gruppe" v="isOgPermafrost" />
		<tag k="ssr:hovedgruppe" v="markslag" />
		<tag k="ssr:stedsnr" v="131211" />
		<tag k="ssr:type" v="isbre" />
	</node>
	<node lat="61.859849998756886" lon="6.530994439857254" id="-33078">
		<tag k="name" v="Blakset" />
		<tag k="place" v="farm" />
		<tag k="ssr:date" v="2021-06-08" />
		<tag k="ssr:gruppe" v="gardsbebyggelse" />
		<tag k="ssr:hovedgruppe" v="bebyggelse" />
		<tag k="ssr:stedsnr" v="131218" />
		<tag k="ssr:type" v="bruk" />
	</node>
	<node lat="61.90376944043189" lon="6.84482777484009" id="-33079">
		<tag k="name" v="Lundedalen" />
		<tag k="natural" v="valley" />
		<tag k="place" v="locality" />
		<tag k="ssr:date" v="2019-12-27" />
		<tag k="ssr:gruppe" v="senkninger" />
		<tag k="ssr:hovedgruppe" v="terreng" />
		<tag k="ssr:stedsnr" v="131268" />
		<tag k="ssr:type" v="dal" />
	</node>
	<node lat="61.8887666674783" lon="6.61739722310896" id="-33080">
		<tag k="fixme" v="consider place=hamlet" />
		<tag k="name" v="Faleide" />
		<tag k="place" v="village" />
		<tag k="ssr:date" v="2019-12-27" />
		<tag k="ssr:gruppe" v="bebyggelsesområder" />
		<tag k="ssr:hovedgruppe" v="bebyggelse" />
		<tag k="ssr:stedsnr" v="131271" />
		<tag k="ssr:type" v="bygdelagBygd" />
	</node>
	<node lat="61.91523055876606" lon="6.603791673924388" id="-33081">
		<tag k="alt_name" v="Lunnahaugane" />
		<tag k="name" v="Lunnahaugen" />
		<tag k="natural" v="hill" />
		<tag k="place" v="locality" />
		<tag k="ssr:date" v="2019-12-27" />
		<tag k="ssr:gruppe" v="høyder" />
		<tag k="ssr:hovedgruppe" v="terreng" />
		<tag k="ssr:stedsnr" v="131272" />
		<tag k="ssr:type" v="haug" />
	</node>
	<node lat="61.920202775076696" lon="6.89817222398577" id="-33082">
		<tag k="alt_name" v="Rasdøla" />
		<tag k="name" v="Råsdøla" />
		<tag k="ssr:date" v="2019-12-27" />
		<tag k="ssr:gruppe" v="rennendeVann" />
		<tag k="ssr:hovedgruppe" v="ferskvann" />
		<tag k="ssr:stedsnr" v="131277" />
		<tag k="ssr:type" v="bekk" />
		<tag k="waterway" v="stream" />
	</node>
	<node lat="61.92733055411609" lon="6.598802783910319" id="-33083">
		<tag k="name" v="Bakkevoll" />
		<tag k="place" v="farm" />
		<tag k="ssr:date" v="2019-12-27" />
		<tag k="ssr:gruppe" v="gardsbebyggelse" />
		<tag k="ssr:hovedgruppe" v="bebyggelse" />
		<tag k="ssr:stedsnr" v="131292" />
		<tag k="ssr:type" v="bruk" />
	</node>
	<node lat="61.666799996855744" lon="6.789352783874715" id="-33084">
		<tag k="fixme" v="consider natural=peak for the most distinct mountains in the district" />
		<tag k="name" v="Blåfjellet" />
		<tag k="natural" v="hill" />
		<tag k="place" v="locality" />
		<tag k="ssr:date" v="2019-12-27" />
		<tag k="ssr:gruppe" v="høyder" />
		<tag k="ssr:hovedgruppe" v="terreng" />
		<tag k="ssr:stedsnr" v="252690" />
		<tag k="ssr:type" v="fjell" />
	</node>
	<node lat="62.001619447250036" lon="7.147294434766884" id="-33085">
		<tag k="name" v="Glomsdalen" />
		<tag k="natural" v="valley" />
		<tag k="place" v="locality" />
		<tag k="ssr:date" v="2019-12-27" />
		<tag k="ssr:gruppe" v="senkninger" />
		<tag k="ssr:hovedgruppe" v="terreng" />
		<tag k="ssr:stedsnr" v="131468" />
		<tag k="ssr:type" v="dal" />
	</node>
	<node lat="61.96323611248597" lon="6.9690749924690705" id="-33086">
		<tag k="fixme" v="consider natural=peak for the most distinct mountains in the district" />
		<tag k="name" v="Marsåhyrna" />
		<tag k="natural" v="hill" />
		<tag k="place" v="locality" />
		<tag k="ssr:date" v="2019-12-27" />
		<tag k="ssr:gruppe" v="høyder" />
		<tag k="ssr:hovedgruppe" v="terreng" />
		<tag k="ssr:stedsnr" v="131368" />
		<tag k="ssr:type" v="ås" />
	</node>
	<node lat="61.97452499904269" lon="7.05150000145937" id="-33087">
		<tag k="historic" v="shieling" />
		<tag k="name" v="Øvre-Flosætra" />
		<tag k="place" v="isolated_dwelling" />
		<tag k="ssr:date" v="2021-06-08" />
		<tag k="ssr:gruppe" v="gardsbebyggelse" />
		<tag k="ssr:hovedgruppe" v="bebyggelse" />
		<tag k="ssr:stedsnr" v="131372" />
		<tag k="ssr:type" v="seterStøl" />
	</node>
	<node lat="61.97852500400528" lon="7.146574996428359" id="-33088">
		<tag k="historic" v="shieling" />
		<tag k="name" v="Stol" />
		<tag k="place" v="isolated_dwelling" />
		<tag k="ssr:date" v="2021-06-08" />
		<tag k="ssr:gruppe" v="gardsbebyggelse" />
		<tag k="ssr:hovedgruppe" v="bebyggelse" />
		<tag k="ssr:stedsnr" v="131374" />
		<tag k="ssr:type" v="seterStøl" />
	</node>
	<node lat="61.74644722572364" lon="7.0456083333091355" id="-33089">
		<tag k="name" v="Kruneelva" />
		<tag k="ssr:date" v="2019-12-27" />
		<tag k="ssr:gruppe" v="rennendeVann" />
		<tag k="ssr:hovedgruppe" v="ferskvann" />
		<tag k="ssr:stedsnr" v="252657" />
		<tag k="ssr:type" v="elv" />
		<tag k="waterway" v="river" />
	</node>
	<node lat="61.731919443378594" lon="7.075480557888225" id="-33090">
		<tag k="fixme" v="consider natural=peak for the most distinct mountains in the district" />
		<tag k="name" v="Kjenndalskruna" />
		<tag k="natural" v="hill" />
		<tag k="place" v="locality" />
		<tag k="ssr:date" v="2019-12-27" />
		<tag k="ssr:gruppe" v="høyder" />
		<tag k="ssr:hovedgruppe" v="terreng" />
		<tag k="ssr:stedsnr" v="252660" />
		<tag k="ssr:type" v="fjell" />
	</node>
	<node lat="61.737650000821446" lon="7.087427782717074" id="-33091">
		<tag k="name" v="Krunebreen" />
		<tag k="natural" v="glacier" />
		<tag k="ssr:date" v="2019-12-27" />
		<tag k="ssr:gruppe" v="isOgPermafrost" />
		<tag k="ssr:hovedgruppe" v="markslag" />
		<tag k="ssr:stedsnr" v="252661" />
		<tag k="ssr:type" v="isbre" />
	</node>
	<node lat="61.913036113228166" lon="6.535430550973184" id="-33092">
		<tag k="name" v="Ospholtjønna" />
		<tag k="place" v="locality" />
		<tag k="ssr:date" v="2021-06-08" />
		<tag k="ssr:gruppe" v="rennendeVann" />
		<tag k="ssr:hovedgruppe" v="ferskvann" />
		<tag k="ssr:stedsnr" v="131963" />
		<tag k="ssr:type" v="høl" />
	</node>
	<node lat="61.73916110697595" lon="6.946899998625147" id="-33093">
		<tag k="name" v="Ruteflotdalen" />
		<tag k="natural" v="valley" />
		<tag k="place" v="locality" />
		<tag k="ssr:date" v="2021-06-08" />
		<tag k="ssr:gruppe" v="senkninger" />
		<tag k="ssr:hovedgruppe" v="terreng" />
		<tag k="ssr:stedsnr" v="252880" />
		<tag k="ssr:type" v="dal" />
	</node>
	<node lat="61.89974166429126" lon="6.465119450416046" id="-33094">
		<tag k="fixme" v="consider natural=peak for the most distinct mountains in the district" />
		<tag k="name" v="Kvanngrøskaregga" />
		<tag k="natural" v="hill" />
		<tag k="place" v="locality" />
		<tag k="ssr:date" v="2021-06-08" />
		<tag k="ssr:gruppe" v="høyder" />
		<tag k="ssr:hovedgruppe" v="terreng" />
		<tag k="ssr:stedsnr" v="252983" />
		<tag k="ssr:type" v="ås" />
	</node>
	<node lat="61.89875832970444" lon="6.426150004911724" id="-33095">
		<tag k="fixme" v="consider natural=peak for the most distinct mountains in the district" />
		<tag k="name" v="Blåegga" />
		<tag k="natural" v="hill" />
		<tag k="place" v="locality" />
		<tag k="ssr:date" v="2019-12-27" />
		<tag k="ssr:gruppe" v="høyder" />
		<tag k="ssr:hovedgruppe" v="terreng" />
		<tag k="ssr:stedsnr" v="252986" />
		<tag k="ssr:type" v="fjell" />
	</node>
	<node lat="61.886941667213286" lon="6.512711119330091" id="-33096">
		<tag k="name" v="Rosentjønna" />
		<tag k="natural" v="water" />
		<tag k="ssr:date" v="2021-06-08" />
		<tag k="ssr:gruppe" v="stilleståendeVann" />
		<tag k="ssr:hovedgruppe" v="ferskvann" />
		<tag k="ssr:stedsnr" v="252965" />
		<tag k="ssr:type" v="tjern" />
	</node>
	<node lat="61.855811109162104" lon="6.44515554690196" id="-33097">
		<tag k="historic" v="shieling" />
		<tag k="name" v="Indre Sølvbergsstøylen" />
		<tag k="place" v="isolated_dwelling" />
		<tag k="ssr:date" v="2021-06-08" />
		<tag k="ssr:gruppe" v="gardsbebyggelse" />
		<tag k="ssr:hovedgruppe" v="bebyggelse" />
		<tag k="ssr:stedsnr" v="253028" />
		<tag k="ssr:type" v="seterStøl" />
	</node>
	<node lat="61.80074139050968" lon="6.513146783300047" id="-33098">
		<tag k="alt_name" v="Valaker" />
		<tag k="fixme" v="consider place=hamlet" />
		<tag k="name" v="Valåker" />
		<tag k="place" v="farm" />
		<tag k="ssr:date" v="2019-12-27" />
		<tag k="ssr:gruppe" v="gardsbebyggelse" />
		<tag k="ssr:hovedgruppe" v="bebyggelse" />
		<tag k="ssr:stedsnr" v="253089" />
		<tag k="ssr:type" v="gard" />
	</node>
	<node lat="61.86770277720471" lon="6.347405549061996" id="-33099">
		<tag k="name" v="Heidavatnet" />
		<tag k="natural" v="water" />
		<tag k="ssr:date" v="2021-06-08" />
		<tag k="ssr:gruppe" v="stilleståendeVann" />
		<tag k="ssr:hovedgruppe" v="ferskvann" />
		<tag k="ssr:stedsnr" v="253056" />
		<tag k="ssr:type" v="tjern" />
	</node>
	<node lat="61.93094167110234" lon="6.902216661426803" id="-33100">
		<tag k="loc_name" v="Gjerdane" />
		<tag k="name" v="Gjerane" />
		<tag k="place" v="farm" />
		<tag k="ssr:date" v="2021-03-11" />
		<tag k="ssr:gruppe" v="gardsbebyggelse" />
		<tag k="ssr:hovedgruppe" v="bebyggelse" />
		<tag k="ssr:stedsnr" v="253365" />
		<tag k="ssr:type" v="bruk" />
	</node>
	<node lat="62.01873889009706" lon="7.24051667488601" id="-33101">
		<tag k="fixme" v="consider natural=peak for the most distinct mountains in the district" />
		<tag k="name" v="Blåtind" />
		<tag k="natural" v="hill" />
		<tag k="place" v="locality" />
		<tag k="ssr:date" v="2019-12-27" />
		<tag k="ssr:gruppe" v="høyder" />
		<tag k="ssr:hovedgruppe" v="terreng" />
		<tag k="ssr:stedsnr" v="253175" />
		<tag k="ssr:type" v="fjell" />
	</node>
	<node lat="61.792205557481736" lon="6.835669450614965" id="-33102">
		<tag k="name" v="Einaelva" />
		<tag k="ssr:date" v="2021-06-08" />
		<tag k="ssr:gruppe" v="rennendeVann" />
		<tag k="ssr:hovedgruppe" v="ferskvann" />
		<tag k="ssr:stedsnr" v="253380" />
		<tag k="ssr:type" v="elv" />
		<tag k="waterway" v="river" />
	</node>
	<node lat="61.79439166659043" lon="6.900569440946737" id="-33103">
		<tag k="name" v="Ramnefjellbreen" />
		<tag k="natural" v="glacier" />
		<tag k="ssr:date" v="2019-12-27" />
		<tag k="ssr:gruppe" v="isOgPermafrost" />
		<tag k="ssr:hovedgruppe" v="markslag" />
		<tag k="ssr:stedsnr" v="253381" />
		<tag k="ssr:type" v="isbre" />
	</node>
	<node lat="61.80128055463489" lon="6.934369442472361" id="-33104">
		<tag k="name" v="Helsetbreen" />
		<tag k="natural" v="glacier" />
		<tag k="ssr:date" v="2019-12-27" />
		<tag k="ssr:gruppe" v="isOgPermafrost" />
		<tag k="ssr:hovedgruppe" v="markslag" />
		<tag k="ssr:stedsnr" v="253386" />
		<tag k="ssr:type" v="isbre" />
	</node>
	<node lat="61.83280000056596" lon="6.808038880736988" id="-33105">
		<tag k="fixme" v="consider place=hamlet" />
		<tag k="name" v="Olden" />
		<tag k="place" v="village" />
		<tag k="ssr:date" v="2019-12-27" />
		<tag k="ssr:gruppe" v="bebyggelsesområder" />
		<tag k="ssr:hovedgruppe" v="bebyggelse" />
		<tag k="ssr:stedsnr" v="253391" />
		<tag k="ssr:type" v="bygdelagBygd" />
	</node>
	<node lat="61.83352500408304" lon="6.700255550152423" id="-33106">
		<tag k="name" v="Blåloftet" />
		<tag k="natural" v="hill" />
		<tag k="place" v="locality" />
		<tag k="ssr:date" v="2019-12-27" />
		<tag k="ssr:gruppe" v="høyder" />
		<tag k="ssr:hovedgruppe" v="terreng" />
		<tag k="ssr:stedsnr" v="253394" />
		<tag k="ssr:type" v="berg" />
	</node>
	<node lat="61.84783611050619" lon="6.7470972166638585" id="-33107">
		<tag k="name" v="Vangbergselva" />
		<tag k="ssr:date" v="2021-06-08" />
		<tag k="ssr:gruppe" v="rennendeVann" />
		<tag k="ssr:hovedgruppe" v="ferskvann" />
		<tag k="ssr:stedsnr" v="253415" />
		<tag k="ssr:type" v="bekk" />
		<tag k="waterway" v="stream" />
	</node>
	<node lat="61.76903333569816" lon="6.843383326446148" id="-33108">
		<tag k="name" v="Reidåna" />
		<tag k="ssr:date" v="2019-12-27" />
		<tag k="ssr:gruppe" v="rennendeVann" />
		<tag k="ssr:hovedgruppe" v="ferskvann" />
		<tag k="ssr:stedsnr" v="253478" />
		<tag k="ssr:type" v="bekk" />
		<tag k="waterway" v="stream" />
	</node>
	<node lat="61.78940555973775" lon="6.966636120157743" id="-33109">
		<tag k="name" v="Ramnefjellfossen" />
		<tag k="natural" v="waterfall" />
		<tag k="ssr:date" v="2019-12-27" />
		<tag k="ssr:gruppe" v="rennendeVann" />
		<tag k="ssr:hovedgruppe" v="ferskvann" />
		<tag k="ssr:stedsnr" v="253483" />
		<tag k="ssr:type" v="foss" />
	</node>
	<node lat="61.75860750821779" lon="6.82865641700723" id="-33110">
		<tag k="fixme" v="consider place=hamlet" />
		<tag k="loc_name" v="Gjærde" />
		<tag k="name" v="Gjerdane" />
		<tag k="place" v="farm" />
		<tag k="ssr:date" v="2021-06-08" />
		<tag k="ssr:gruppe" v="gardsbebyggelse" />
		<tag k="ssr:hovedgruppe" v="bebyggelse" />
		<tag k="ssr:stedsnr" v="253472" />
		<tag k="ssr:type" v="gard" />
	</node>
	<node lat="62.00925000257388" lon="7.073602770549873" id="-33111">
		<tag k="fixme" v="consider natural=peak for the most distinct mountains in the district" />
		<tag k="name" v="Vollsetskåla" />
		<tag k="natural" v="hill" />
		<tag k="place" v="locality" />
		<tag k="ssr:date" v="2019-12-27" />
		<tag k="ssr:gruppe" v="høyder" />
		<tag k="ssr:hovedgruppe" v="terreng" />
		<tag k="ssr:stedsnr" v="253528" />
		<tag k="ssr:type" v="fjell" />
	</node>
	<node lat="61.923733307418324" lon="6.54268138640094" id="-33112">
		<tag k="name" v="Sindretjønna" />
		<tag k="natural" v="water" />
		<tag k="ssr:date" v="2021-06-08" />
		<tag k="ssr:gruppe" v="stilleståendeVann" />
		<tag k="ssr:hovedgruppe" v="ferskvann" />
		<tag k="ssr:stedsnr" v="253957" />
		<tag k="ssr:type" v="tjern" />
	</node>
	<node lat="61.92475702663442" lon="6.561571922828728" id="-33113">
		<tag k="fixme" v="consider place=hamlet" />
		<tag k="name" v="Hatledal" />
		<tag k="place" v="farm" />
		<tag k="ssr:date" v="2019-12-27" />
		<tag k="ssr:gruppe" v="gardsbebyggelse" />
		<tag k="ssr:hovedgruppe" v="bebyggelse" />
		<tag k="ssr:stedsnr" v="253963" />
		<tag k="ssr:type" v="gard" />
	</node>
	<node lat="61.928847220672914" lon="7.2506250008672914" id="-33114">
		<tag k="name" v="Napefonna" />
		<tag k="natural" v="glacier" />
		<tag k="ssr:date" v="2021-06-08" />
		<tag k="ssr:gruppe" v="isOgPermafrost" />
		<tag k="ssr:hovedgruppe" v="markslag" />
		<tag k="ssr:stedsnr" v="141482" />
		<tag k="ssr:type" v="isbre" />
	</node>
	<node lat="61.9511861081178" lon="7.241724998905507" id="-33115">
		<tag k="highway" v="path" />
		<tag k="name" v="Glæra" />
		<tag k="ssr:date" v="2021-06-08" />
		<tag k="ssr:gruppe" v="veg" />
		<tag k="ssr:hovedgruppe" v="infrastruktur" />
		<tag k="ssr:stedsnr" v="141483" />
		<tag k="ssr:type" v="sti" />
	</node>
	<node lat="61.93375555564076" lon="7.079791660870474" id="-33116">
		<tag k="name" v="Lægdene" />
		<tag k="natural" v="slope" />
		<tag k="place" v="locality" />
		<tag k="ssr:date" v="2021-06-08" />
		<tag k="ssr:gruppe" v="skråninger" />
		<tag k="ssr:hovedgruppe" v="terreng" />
		<tag k="ssr:stedsnr" v="141484" />
		<tag k="ssr:type" v="li" />
	</node>
	<node lat="61.71277778156544" lon="6.983130564580722" id="-33118">
		<tag k="fixme" v="consider natural=peak for the most distinct mountains in the district" />
		<tag k="name" v="Nordfjordvarden" />
		<tag k="natural" v="hill" />
		<tag k="place" v="locality" />
		<tag k="ssr:date" v="2019-12-27" />
		<tag k="ssr:gruppe" v="høyder" />
		<tag k="ssr:hovedgruppe" v="terreng" />
		<tag k="ssr:stedsnr" v="146111" />
		<tag k="ssr:type" v="fjell" />
	</node>
	<node lat="61.94038888845941" lon="6.579994450097198" id="-33119">
		<tag k="name" v="Moshammarene" />
		<tag k="natural" v="hill" />
		<tag k="place" v="locality" />
		<tag k="ssr:date" v="2019-12-27" />
		<tag k="ssr:gruppe" v="høyder" />
		<tag k="ssr:hovedgruppe" v="terreng" />
		<tag k="ssr:stedsnr" v="153410" />
		<tag k="ssr:type" v="berg" />
	</node>
	<node lat="61.90380555780413" lon="6.797594451121161" id="-33120">
		<tag k="name" v="Blåsvedene" />
		<tag k="natural" v="hill" />
		<tag k="place" v="locality" />
		<tag k="ssr:date" v="2019-12-27" />
		<tag k="ssr:gruppe" v="høyder" />
		<tag k="ssr:hovedgruppe" v="terreng" />
		<tag k="ssr:stedsnr" v="154151" />
		<tag k="ssr:type" v="haug" />
	</node>
	<node lat="61.910358330274896" lon="6.813080555417503" id="-33121">
		<tag k="name" v="Nedsetra" />
		<tag k="place" v="farm" />
		<tag k="ssr:date" v="2019-12-27" />
		<tag k="ssr:gruppe" v="gardsbebyggelse" />
		<tag k="ssr:hovedgruppe" v="bebyggelse" />
		<tag k="ssr:stedsnr" v="154158" />
		<tag k="ssr:type" v="bruk" />
	</node>
	<node lat="61.815141669008085" lon="6.3244083329542065" id="-33122">
		<tag k="name" v="Bjørnabakkane" />
		<tag k="natural" v="slope" />
		<tag k="place" v="locality" />
		<tag k="ssr:date" v="2019-12-27" />
		<tag k="ssr:gruppe" v="skråninger" />
		<tag k="ssr:hovedgruppe" v="terreng" />
		<tag k="ssr:stedsnr" v="154159" />
		<tag k="ssr:type" v="bakke" />
	</node>
	<node lat="61.903841665060526" lon="6.82611388952162" id="-33123">
		<tag k="name" v="Lynghammaren" />
		<tag k="natural" v="hill" />
		<tag k="place" v="locality" />
		<tag k="ssr:date" v="2019-12-27" />
		<tag k="ssr:gruppe" v="høyder" />
		<tag k="ssr:hovedgruppe" v="terreng" />
		<tag k="ssr:stedsnr" v="154160" />
		<tag k="ssr:type" v="berg" />
	</node>
	<node lat="61.83200555429136" lon="6.3363888818041785" id="-33124">
		<tag k="historic" v="shieling" />
		<tag k="name" v="Nerstølen" />
		<tag k="place" v="isolated_dwelling" />
		<tag k="ssr:date" v="2019-12-27" />
		<tag k="ssr:gruppe" v="gardsbebyggelse" />
		<tag k="ssr:hovedgruppe" v="bebyggelse" />
		<tag k="ssr:stedsnr" v="154164" />
		<tag k="ssr:type" v="seterStøl" />
	</node>
	<node lat="61.9267166623559" lon="6.8596722295914905" id="-33125">
		<tag k="name" v="Bjørgane" />
		<tag k="natural" v="hill" />
		<tag k="place" v="locality" />
		<tag k="ssr:date" v="2019-12-27" />
		<tag k="ssr:gruppe" v="høyder" />
		<tag k="ssr:hovedgruppe" v="terreng" />
		<tag k="ssr:stedsnr" v="154312" />
		<tag k="ssr:type" v="haug" />
	</node>
	<node lat="61.8366472226406" lon="6.335444437141235" id="-33126">
		<tag k="name" v="Buskora" />
		<tag k="place" v="locality" />
		<tag k="ssr:date" v="2020-02-13" />
		<tag k="ssr:gruppe" v="terrengdetaljer" />
		<tag k="ssr:hovedgruppe" v="terreng" />
		<tag k="ssr:stedsnr" v="154318" />
		<tag k="ssr:type" v="hylle" />
	</node>
	<node lat="61.848519441454286" lon="6.379855547282338" id="-33127">
		<tag k="name" v="Torvehola" />
		<tag k="natural" v="valley" />
		<tag k="place" v="locality" />
		<tag k="ssr:date" v="2019-12-27" />
		<tag k="ssr:gruppe" v="senkninger" />
		<tag k="ssr:hovedgruppe" v="terreng" />
		<tag k="ssr:stedsnr" v="154323" />
		<tag k="ssr:type" v="søkk" />
	</node>
	<node lat="61.92941111318064" lon="6.463286101953014" id="-33128">
		<tag k="name" v="Kupegrova" />
		<tag k="ssr:date" v="2019-12-27" />
		<tag k="ssr:gruppe" v="rennendeVann" />
		<tag k="ssr:hovedgruppe" v="ferskvann" />
		<tag k="ssr:stedsnr" v="154339" />
		<tag k="ssr:type" v="bekk" />
		<tag k="waterway" v="stream" />
	</node>
	<node lat="61.95477221796826" lon="6.939786109726192" id="-33129">
		<tag k="name" v="Nakken" />
		<tag k="natural" v="hill" />
		<tag k="place" v="locality" />
		<tag k="ssr:date" v="2019-12-27" />
		<tag k="ssr:gruppe" v="høyder" />
		<tag k="ssr:hovedgruppe" v="terreng" />
		<tag k="ssr:stedsnr" v="154340" />
		<tag k="ssr:type" v="høyde" />
	</node>
	<node lat="61.92677222594271" lon="6.465358342479937" id="-33130">
		<tag k="name" v="Demma" />
		<tag k="natural" v="water" />
		<tag k="ssr:date" v="2019-12-27" />
		<tag k="ssr:gruppe" v="rennendeVann" />
		<tag k="ssr:hovedgruppe" v="ferskvann" />
		<tag k="ssr:stedsnr" v="154341" />
		<tag k="ssr:type" v="lon" />
		<tag k="water" v="lake" />
	</node>
	<node lat="61.91352777798853" lon="6.536383342626682" id="-33131">
		<tag k="fixme" v="consider natural=peak for the most distinct mountains in the district" />
		<tag k="name" v="Osphella" />
		<tag k="natural" v="hill" />
		<tag k="place" v="locality" />
		<tag k="ssr:date" v="2019-12-27" />
		<tag k="ssr:gruppe" v="høyder" />
		<tag k="ssr:hovedgruppe" v="terreng" />
		<tag k="ssr:stedsnr" v="154344" />
		<tag k="ssr:type" v="ås" />
	</node>
	<node lat="61.91131388849153" lon="6.697711116567607" id="-33132">
		<tag k="name" v="Busvadet" />
		<tag k="natural" v="water" />
		<tag k="ssr:date" v="2019-12-27" />
		<tag k="ssr:gruppe" v="rennendeVann" />
		<tag k="ssr:hovedgruppe" v="ferskvann" />
		<tag k="ssr:stedsnr" v="154052" />
		<tag k="ssr:type" v="lon" />
		<tag k="water" v="lake" />
	</node>
	<node lat="61.86392777495229" lon="6.893199996330117" id="-33133">
		<tag k="fixme" v="consider natural=peak for the most distinct mountains in the district" />
		<tag k="name" v="Sandsåsen" />
		<tag k="natural" v="hill" />
		<tag k="place" v="locality" />
		<tag k="ssr:date" v="2019-12-27" />
		<tag k="ssr:gruppe" v="høyder" />
		<tag k="ssr:hovedgruppe" v="terreng" />
		<tag k="ssr:stedsnr" v="154206" />
		<tag k="ssr:type" v="ås" />
	</node>
	<node lat="61.92794722352942" lon="7.149544453340081" id="-33134">
		<tag k="name" v="Sørdalsgjølet" />
		<tag k="natural" v="gorge" />
		<tag k="ssr:date" v="2019-12-27" />
		<tag k="ssr:gruppe" v="senkninger" />
		<tag k="ssr:hovedgruppe" v="terreng" />
		<tag k="ssr:stedsnr" v="154224" />
		<tag k="ssr:type" v="juv" />
	</node>
	<node lat="61.92426389131879" lon="7.203594444959906" id="-33135">
		<tag k="name" v="Bjorkhaugen" />
		<tag k="natural" v="hill" />
		<tag k="place" v="locality" />
		<tag k="ssr:date" v="2019-12-27" />
		<tag k="ssr:gruppe" v="høyder" />
		<tag k="ssr:hovedgruppe" v="terreng" />
		<tag k="ssr:stedsnr" v="154249" />
		<tag k="ssr:type" v="haug" />
	</node>
	<node lat="61.87361111144664" lon="6.85034999630343" id="-33136">
		<tag k="name" v="Apalhola" />
		<tag k="natural" v="valley" />
		<tag k="place" v="locality" />
		<tag k="ssr:date" v="2019-12-27" />
		<tag k="ssr:gruppe" v="senkninger" />
		<tag k="ssr:hovedgruppe" v="terreng" />
		<tag k="ssr:stedsnr" v="154250" />
		<tag k="ssr:type" v="søkk" />
	</node>
	<node lat="61.916852775914585" lon="7.203352785632441" id="-33137">
		<tag k="name" v="Kvannsvorhammaren" />
		<tag k="natural" v="hill" />
		<tag k="place" v="locality" />
		<tag k="ssr:date" v="2019-12-27" />
		<tag k="ssr:gruppe" v="høyder" />
		<tag k="ssr:hovedgruppe" v="terreng" />
		<tag k="ssr:stedsnr" v="154251" />
		<tag k="ssr:type" v="berg" />
	</node>
	<node lat="61.92078055178116" lon="7.196011112603081" id="-33138">
		<tag k="name" v="Djupedalsgjølet" />
		<tag k="natural" v="gorge" />
		<tag k="ssr:date" v="2019-12-27" />
		<tag k="ssr:gruppe" v="senkninger" />
		<tag k="ssr:hovedgruppe" v="terreng" />
		<tag k="ssr:stedsnr" v="154254" />
		<tag k="ssr:type" v="juv" />
	</node>
	<node lat="61.77293888606541" lon="6.965991661486317" id="-33139">
		<tag k="name" v="Kvandalen" />
		<tag k="natural" v="valley" />
		<tag k="place" v="locality" />
		<tag k="ssr:date" v="2019-12-27" />
		<tag k="ssr:gruppe" v="senkninger" />
		<tag k="ssr:hovedgruppe" v="terreng" />
		<tag k="ssr:stedsnr" v="154255" />
		<tag k="ssr:type" v="dal" />
	</node>
	<node lat="61.81974444087489" lon="6.926338886515373" id="-33140">
		<tag k="name" v="Seglenska" />
		<tag k="natural" v="hill" />
		<tag k="place" v="locality" />
		<tag k="ssr:date" v="2019-12-27" />
		<tag k="ssr:gruppe" v="høyder" />
		<tag k="ssr:hovedgruppe" v="terreng" />
		<tag k="ssr:stedsnr" v="154266" />
		<tag k="ssr:type" v="haug" />
	</node>
	<node lat="61.88767499549872" lon="6.346283329266331" id="-33141">
		<tag k="fixme" v="consider natural=peak for the most distinct mountains in the district" />
		<tag k="name" v="Djupegrovrenden" />
		<tag k="natural" v="hill" />
		<tag k="place" v="locality" />
		<tag k="ssr:date" v="2019-12-27" />
		<tag k="ssr:gruppe" v="høyder" />
		<tag k="ssr:hovedgruppe" v="terreng" />
		<tag k="ssr:stedsnr" v="154269" />
		<tag k="ssr:type" v="ås" />
	</node>
	<node lat="61.82774444069475" lon="6.932238890680843" id="-33142">
		<tag k="name" v="Auresvadet" />
		<tag k="natural" v="hill" />
		<tag k="place" v="locality" />
		<tag k="ssr:date" v="2019-12-27" />
		<tag k="ssr:gruppe" v="høyder" />
		<tag k="ssr:hovedgruppe" v="terreng" />
		<tag k="ssr:stedsnr" v="154270" />
		<tag k="ssr:type" v="berg" />
	</node>
	<node lat="61.88097499940596" lon="6.337091663820335" id="-33143">
		<tag k="name" v="Langerusta" />
		<tag k="natural" v="ridge" />
		<tag k="place" v="locality" />
		<tag k="ssr:date" v="2019-12-27" />
		<tag k="ssr:gruppe" v="høyder" />
		<tag k="ssr:hovedgruppe" v="terreng" />
		<tag k="ssr:stedsnr" v="154271" />
		<tag k="ssr:type" v="rygg" />
	</node>
	<node lat="61.85744444266903" lon="6.347113884075164" id="-33144">
		<tag k="name" v="Trollfossen" />
		<tag k="natural" v="waterfall" />
		<tag k="ssr:date" v="2019-12-27" />
		<tag k="ssr:gruppe" v="rennendeVann" />
		<tag k="ssr:hovedgruppe" v="ferskvann" />
		<tag k="ssr:stedsnr" v="154298" />
		<tag k="ssr:type" v="foss" />
	</node>
	<node lat="61.91753333445407" lon="6.560622216814194" id="-33145">
		<tag k="name" v="Tangane" />
		<tag k="place" v="locality" />
		<tag k="ssr:date" v="2019-12-27" />
		<tag k="ssr:gruppe" v="flater" />
		<tag k="ssr:hovedgruppe" v="terreng" />
		<tag k="ssr:stedsnr" v="154498" />
		<tag k="ssr:type" v="slette" />
	</node>
	<node lat="61.9199027816306" lon="6.576550000210618" id="-33146">
		<tag k="name" v="Bjørnamyra" />
		<tag k="natural" v="wetland" />
		<tag k="ssr:date" v="2019-12-27" />
		<tag k="ssr:gruppe" v="våtmark" />
		<tag k="ssr:hovedgruppe" v="markslag" />
		<tag k="ssr:stedsnr" v="154399" />
		<tag k="ssr:type" v="myr" />
	</node>
	<node lat="61.93517778082417" lon="7.053011112052827" id="-33147">
		<tag k="name" v="Høgesvedene" />
		<tag k="natural" v="slope" />
		<tag k="place" v="locality" />
		<tag k="ssr:date" v="2019-12-27" />
		<tag k="ssr:gruppe" v="skråninger" />
		<tag k="ssr:hovedgruppe" v="terreng" />
		<tag k="ssr:stedsnr" v="154505" />
		<tag k="ssr:type" v="bakke" />
	</node>
	<node lat="61.93169722423553" lon="7.096019447265615" id="-33148">
		<tag k="name" v="Storeskreda" />
		<tag k="natural" v="scree" />
		<tag k="place" v="locality" />
		<tag k="ssr:date" v="2019-12-27" />
		<tag k="ssr:gruppe" v="løsmasseavsetninger" />
		<tag k="ssr:hovedgruppe" v="markslag" />
		<tag k="ssr:stedsnr" v="154506" />
		<tag k="ssr:type" v="skredområde" />
	</node>
	<node lat="61.79719721955234" lon="6.507747213674293" id="-33149">
		<tag k="name" v="Brulandselva" />
		<tag k="ssr:date" v="2020-06-02" />
		<tag k="ssr:gruppe" v="rennendeVann" />
		<tag k="ssr:hovedgruppe" v="ferskvann" />
		<tag k="ssr:stedsnr" v="154515" />
		<tag k="ssr:type" v="elv" />
		<tag k="waterway" v="river" />
	</node>
	<node lat="61.85901944264149" lon="6.490550003370144" id="-33150">
		<tag k="name" v="Kjerringeskarelva" />
		<tag k="ssr:date" v="2019-12-27" />
		<tag k="ssr:gruppe" v="rennendeVann" />
		<tag k="ssr:hovedgruppe" v="ferskvann" />
		<tag k="ssr:stedsnr" v="154516" />
		<tag k="ssr:type" v="bekk" />
		<tag k="waterway" v="stream" />
	</node>
	<node lat="61.911738887939244" lon="6.7070111129084315" id="-33151">
		<tag k="name" v="Langårsmyra" />
		<tag k="natural" v="wetland" />
		<tag k="ssr:date" v="2019-12-27" />
		<tag k="ssr:gruppe" v="våtmark" />
		<tag k="ssr:hovedgruppe" v="markslag" />
		<tag k="ssr:stedsnr" v="154517" />
		<tag k="ssr:type" v="myr" />
	</node>
	<node lat="61.907413887500546" lon="6.7133611071800114" id="-33152">
		<tag k="name" v="Tonningsbakkane" />
		<tag k="natural" v="slope" />
		<tag k="place" v="locality" />
		<tag k="ssr:date" v="2019-12-27" />
		<tag k="ssr:gruppe" v="skråninger" />
		<tag k="ssr:hovedgruppe" v="terreng" />
		<tag k="ssr:stedsnr" v="154520" />
		<tag k="ssr:type" v="bakke" />
	</node>
	<node lat="61.81291110855016" lon="6.8002638908456445" id="-33153">
		<tag k="name" v="Hushammaren" />
		<tag k="natural" v="hill" />
		<tag k="place" v="locality" />
		<tag k="ssr:date" v="2019-12-27" />
		<tag k="ssr:gruppe" v="høyder" />
		<tag k="ssr:hovedgruppe" v="terreng" />
		<tag k="ssr:stedsnr" v="154554" />
		<tag k="ssr:type" v="berg" />
	</node>
	<node lat="61.92127499651425" lon="6.57067221743707" id="-33154">
		<tag k="name" v="Geilane" />
		<tag k="natural" v="hill" />
		<tag k="place" v="locality" />
		<tag k="ssr:date" v="2019-12-27" />
		<tag k="ssr:gruppe" v="høyder" />
		<tag k="ssr:hovedgruppe" v="terreng" />
		<tag k="ssr:stedsnr" v="154557" />
		<tag k="ssr:type" v="haug" />
	</node>
	<node lat="61.81345555205676" lon="6.827380551658584" id="-33155">
		<tag k="name" v="Stegane" />
		<tag k="natural" v="slope" />
		<tag k="place" v="locality" />
		<tag k="ssr:date" v="2019-12-27" />
		<tag k="ssr:gruppe" v="skråninger" />
		<tag k="ssr:hovedgruppe" v="terreng" />
		<tag k="ssr:stedsnr" v="154558" />
		<tag k="ssr:type" v="bakke" />
	</node>
	<node lat="61.92710000235337" lon="6.557436114538689" id="-33156">
		<tag k="name" v="Mattistjørna" />
		<tag k="natural" v="water" />
		<tag k="ssr:date" v="2019-12-27" />
		<tag k="ssr:gruppe" v="stilleståendeVann" />
		<tag k="ssr:hovedgruppe" v="ferskvann" />
		<tag k="ssr:stedsnr" v="154561" />
		<tag k="ssr:type" v="tjern" />
	</node>
	<node lat="61.92423888693123" lon="6.589736102575097" id="-33157">
		<tag k="name" v="Storehaugen" />
		<tag k="natural" v="hill" />
		<tag k="place" v="locality" />
		<tag k="ssr:date" v="2019-12-27" />
		<tag k="ssr:gruppe" v="høyder" />
		<tag k="ssr:hovedgruppe" v="terreng" />
		<tag k="ssr:stedsnr" v="154564" />
		<tag k="ssr:type" v="haug" />
	</node>
	<node lat="61.92218610942161" lon="6.57833054979764" id="-33158">
		<tag k="name" v="Merkingshaugen" />
		<tag k="natural" v="hill" />
		<tag k="place" v="locality" />
		<tag k="ssr:date" v="2019-12-27" />
		<tag k="ssr:gruppe" v="høyder" />
		<tag k="ssr:hovedgruppe" v="terreng" />
		<tag k="ssr:stedsnr" v="154565" />
		<tag k="ssr:type" v="haug" />
	</node>
	<node lat="61.9229166668083" lon="6.58038332459029" id="-33159">
		<tag k="name" v="Marsteinstrupen" />
		<tag k="natural" v="hill" />
		<tag k="place" v="locality" />
		<tag k="ssr:date" v="2019-12-27" />
		<tag k="ssr:gruppe" v="høyder" />
		<tag k="ssr:hovedgruppe" v="terreng" />
		<tag k="ssr:stedsnr" v="154567" />
		<tag k="ssr:type" v="høyde" />
	</node>
	<node lat="61.9680416661653" lon="7.259416665029739" id="-33160">
		<tag k="name" v="Storesteinane" />
		<tag k="natural" v="stone" />
		<tag k="ssr:date" v="2019-12-27" />
		<tag k="ssr:gruppe" v="løsmasseavsetninger" />
		<tag k="ssr:hovedgruppe" v="markslag" />
		<tag k="ssr:stedsnr" v="181553" />
		<tag k="ssr:type" v="stein" />
	</node>
	<node lat="61.74839444154423" lon="6.781494445443676" id="-33161">
		<tag k="alt_name" v="Heimefonna" />
		<tag k="name" v="Heimgrova" />
		<tag k="ssr:date" v="2019-12-27" />
		<tag k="ssr:gruppe" v="rennendeVann" />
		<tag k="ssr:hovedgruppe" v="ferskvann" />
		<tag k="ssr:stedsnr" v="191857" />
		<tag k="ssr:type" v="bekk" />
		<tag k="waterway" v="stream" />
	</node>
	<node lat="61.67493611371755" lon="6.807480550681738" id="-33162">
		<tag k="alt_name" v="Blåfossen" />
		<tag k="name" v="Melkevollfossen" />
		<tag k="natural" v="waterfall" />
		<tag k="ssr:date" v="2019-12-27" />
		<tag k="ssr:gruppe" v="rennendeVann" />
		<tag k="ssr:hovedgruppe" v="ferskvann" />
		<tag k="ssr:stedsnr" v="191901" />
		<tag k="ssr:type" v="foss" />
	</node>
	<node lat="61.86952227281195" lon="6.540983900202715" id="-33163">
		<tag k="fixme" v="consider place=hamlet" />
		<tag k="name" v="Dokset" />
		<tag k="place" v="farm" />
		<tag k="ssr:date" v="2019-12-27" />
		<tag k="ssr:gruppe" v="gardsbebyggelse" />
		<tag k="ssr:hovedgruppe" v="bebyggelse" />
		<tag k="ssr:stedsnr" v="192006" />
		<tag k="ssr:type" v="gard" />
	</node>
	<node lat="61.857316670526565" lon="6.360102786588197" id="-33164">
		<tag k="name" v="Stegen" />
		<tag k="natural" v="slope" />
		<tag k="place" v="locality" />
		<tag k="ssr:date" v="2019-12-27" />
		<tag k="ssr:gruppe" v="skråninger" />
		<tag k="ssr:hovedgruppe" v="terreng" />
		<tag k="ssr:stedsnr" v="192012" />
		<tag k="ssr:type" v="li" />
	</node>
	<node lat="61.86321668064341" lon="6.3299501825968765" id="-33165">
		<tag k="fixme" v="consider place=hamlet" />
		<tag k="name" v="Hammar" />
		<tag k="place" v="farm" />
		<tag k="ssr:date" v="2019-12-27" />
		<tag k="ssr:gruppe" v="gardsbebyggelse" />
		<tag k="ssr:hovedgruppe" v="bebyggelse" />
		<tag k="ssr:stedsnr" v="192014" />
		<tag k="ssr:type" v="gard" />
	</node>
	<node lat="61.85387500384165" lon="6.331394446312111" id="-33166">
		<tag k="bay" v="fjord" />
		<tag k="name" v="Utvikfjorden" />
		<tag k="natural" v="bay" />
		<tag k="ssr:date" v="2019-12-27" />
		<tag k="ssr:gruppe" v="farvann" />
		<tag k="ssr:hovedgruppe" v="sjø" />
		<tag k="ssr:stedsnr" v="192024" />
		<tag k="ssr:type" v="fjord" />
	</node>
	<node lat="61.67477777451302" lon="6.845516675041087" id="-33167">
		<tag k="fixme" v="consider natural=peak for the most distinct mountains in the district" />
		<tag k="name" v="Storeskaret" />
		<tag k="natural" v="hill" />
		<tag k="place" v="locality" />
		<tag k="ssr:date" v="2021-06-08" />
		<tag k="ssr:gruppe" v="høyder" />
		<tag k="ssr:hovedgruppe" v="terreng" />
		<tag k="ssr:stedsnr" v="191906" />
		<tag k="ssr:type" v="ås" />
	</node>
	<node lat="61.988208331135866" lon="7.331216668302578" id="-33168">
		<tag k="fixme" v="consider natural=peak for the most distinct mountains in the district" />
		<tag k="name" v="Kvitenova" />
		<tag k="natural" v="hill" />
		<tag k="place" v="locality" />
		<tag k="ssr:date" v="2021-06-08" />
		<tag k="ssr:gruppe" v="høyder" />
		<tag k="ssr:hovedgruppe" v="terreng" />
		<tag k="ssr:stedsnr" v="263531" />
		<tag k="ssr:type" v="topp" />
	</node>
</osm>
