<?xml version="1.0" encoding="UTF-8"?>
<osm version="0.6" generator="osmapis">
	<node lat="61.903602776205425" lon="6.718699996155523" id="-80053">
		<tag k="alt_name" v="Stryn" />
		<tag k="name" v="Stryn kommune" />
		<tag k="ssr:date" v="2019-12-27" />
		<tag k="ssr:gruppe" v="administrativeIndelinger" />
		<tag k="ssr:hovedgruppe" v="offentligAdministrasjon" />
		<tag k="ssr:stedsnr" v="146204" />
		<tag k="ssr:type" v="kommune" />
	</node>
	<node lat="61.87541110692534" lon="6.836150008474836" id="-80665">
		<tag k="name" v="Toskehola" />
		<tag k="ssr:date" v="2019-12-27" />
		<tag k="ssr:gruppe" v="sjøbunn" />
		<tag k="ssr:hovedgruppe" v="sjø" />
		<tag k="ssr:stedsnr" v="579192" />
		<tag k="ssr:type" v="bakkeISjø" />
	</node>
	<node lat="61.82381487780565" lon="6.6877018718609795" id="-81217">
		<tag k="name" v="Dragesetvegen" />
		<tag k="ssr:date" v="2019-12-27" />
		<tag k="ssr:gruppe" v="veg" />
		<tag k="ssr:hovedgruppe" v="infrastruktur" />
		<tag k="ssr:stedsnr" v="975114" />
		<tag k="ssr:type" v="adressenavn" />
	</node>
	<node lat="61.84760336143101" lon="6.62342299349308" id="-81218">
		<tag k="name" v="Morskogen" />
		<tag k="ssr:date" v="2019-12-27" />
		<tag k="ssr:gruppe" v="veg" />
		<tag k="ssr:hovedgruppe" v="infrastruktur" />
		<tag k="ssr:stedsnr" v="975115" />
		<tag k="ssr:type" v="adressenavn" />
	</node>
	<node lat="61.87059485497094" lon="6.8016009917182245" id="-81219">
		<tag k="name" v="Oppheimsvegen" />
		<tag k="ssr:date" v="2019-12-27" />
		<tag k="ssr:gruppe" v="veg" />
		<tag k="ssr:hovedgruppe" v="infrastruktur" />
		<tag k="ssr:stedsnr" v="975116" />
		<tag k="ssr:type" v="adressenavn" />
	</node>
	<node lat="61.8722370250267" lon="6.7933593099110885" id="-81220">
		<tag k="name" v="Marsåvegen" />
		<tag k="ssr:date" v="2019-12-27" />
		<tag k="ssr:gruppe" v="veg" />
		<tag k="ssr:hovedgruppe" v="infrastruktur" />
		<tag k="ssr:stedsnr" v="975117" />
		<tag k="ssr:type" v="adressenavn" />
	</node>
	<node lat="61.80420277970479" lon="6.509005791869201" id="-81224">
		<tag k="name" v="Brulandsvegen" />
		<tag k="ssr:date" v="2019-12-27" />
		<tag k="ssr:gruppe" v="veg" />
		<tag k="ssr:hovedgruppe" v="infrastruktur" />
		<tag k="ssr:stedsnr" v="975121" />
		<tag k="ssr:type" v="adressenavn" />
	</node>
	<node lat="61.80408303985886" lon="6.495750329081695" id="-81225">
		<tag k="name" v="Brulandsstranda" />
		<tag k="ssr:date" v="2019-12-27" />
		<tag k="ssr:gruppe" v="veg" />
		<tag k="ssr:hovedgruppe" v="infrastruktur" />
		<tag k="ssr:stedsnr" v="975122" />
		<tag k="ssr:type" v="adressenavn" />
	</node>
	<node lat="61.81506427927403" lon="6.381168670708356" id="-81226">
		<tag k="name" v="Frøysetvegen" />
		<tag k="ssr:date" v="2019-12-27" />
		<tag k="ssr:gruppe" v="veg" />
		<tag k="ssr:hovedgruppe" v="infrastruktur" />
		<tag k="ssr:stedsnr" v="975123" />
		<tag k="ssr:type" v="adressenavn" />
	</node>
	<node lat="61.7864421855824" lon="6.500255577848331" id="-81228">
		<tag k="name" v="Haningehovden" />
		<tag k="ssr:date" v="2019-12-27" />
		<tag k="ssr:gruppe" v="veg" />
		<tag k="ssr:hovedgruppe" v="infrastruktur" />
		<tag k="ssr:stedsnr" v="975125" />
		<tag k="ssr:type" v="adressenavn" />
	</node>
	<node lat="61.786122126894774" lon="6.500235866046927" id="-81232">
		<tag k="name" v="Mosemyrane" />
		<tag k="ssr:date" v="2019-12-27" />
		<tag k="ssr:gruppe" v="veg" />
		<tag k="ssr:hovedgruppe" v="infrastruktur" />
		<tag k="ssr:stedsnr" v="975129" />
		<tag k="ssr:type" v="adressenavn" />
	</node>
	<node lat="61.92665499584576" lon="6.690102611596978" id="-81233">
		<tag k="name" v="Lidene" />
		<tag k="ssr:date" v="2019-12-27" />
		<tag k="ssr:gruppe" v="veg" />
		<tag k="ssr:hovedgruppe" v="infrastruktur" />
		<tag k="ssr:stedsnr" v="975130" />
		<tag k="ssr:type" v="adressenavn" />
	</node>
	<node lat="61.92177077960945" lon="6.677733739430171" id="-81234">
		<tag k="name" v="Hydlavegen" />
		<tag k="ssr:date" v="2019-12-27" />
		<tag k="ssr:gruppe" v="veg" />
		<tag k="ssr:hovedgruppe" v="infrastruktur" />
		<tag k="ssr:stedsnr" v="975131" />
		<tag k="ssr:type" v="adressenavn" />
	</node>
	<node lat="61.9271666264238" lon="6.684544299194086" id="-81236">
		<tag k="name" v="Gamlehjellvegen" />
		<tag k="ssr:date" v="2019-12-27" />
		<tag k="ssr:gruppe" v="veg" />
		<tag k="ssr:hovedgruppe" v="infrastruktur" />
		<tag k="ssr:stedsnr" v="975133" />
		<tag k="ssr:type" v="adressenavn" />
	</node>
	<node lat="61.7967075524436" lon="6.541509480046811" id="-81240">
		<tag k="name" v="Bergsvegen" />
		<tag k="ssr:date" v="2019-12-27" />
		<tag k="ssr:gruppe" v="veg" />
		<tag k="ssr:hovedgruppe" v="infrastruktur" />
		<tag k="ssr:stedsnr" v="975137" />
		<tag k="ssr:type" v="adressenavn" />
	</node>
	<node lat="61.80434733033477" lon="6.527073690410655" id="-81241">
		<tag k="name" v="Kårstadvegen" />
		<tag k="ssr:date" v="2019-12-27" />
		<tag k="ssr:gruppe" v="veg" />
		<tag k="ssr:hovedgruppe" v="infrastruktur" />
		<tag k="ssr:stedsnr" v="975138" />
		<tag k="ssr:type" v="adressenavn" />
	</node>
	<node lat="61.91573784544658" lon="7.115602704865636" id="-81242">
		<tag k="name" v="Glomnesvegen" />
		<tag k="ssr:date" v="2019-12-27" />
		<tag k="ssr:gruppe" v="veg" />
		<tag k="ssr:hovedgruppe" v="infrastruktur" />
		<tag k="ssr:stedsnr" v="975139" />
		<tag k="ssr:type" v="adressenavn" />
	</node>
	<node lat="61.79045523357154" lon="6.820362288019746" id="-81248">
		<tag k="name" v="Beinnesvegen" />
		<tag k="ssr:date" v="2019-12-27" />
		<tag k="ssr:gruppe" v="veg" />
		<tag k="ssr:hovedgruppe" v="infrastruktur" />
		<tag k="ssr:stedsnr" v="975168" />
		<tag k="ssr:type" v="adressenavn" />
	</node>
	<node lat="61.82926908925338" lon="6.809545329034101" id="-81249">
		<tag k="name" v="Brynestadvegen" />
		<tag k="ssr:date" v="2019-12-27" />
		<tag k="ssr:gruppe" v="veg" />
		<tag k="ssr:hovedgruppe" v="infrastruktur" />
		<tag k="ssr:stedsnr" v="975169" />
		<tag k="ssr:type" v="adressenavn" />
	</node>
	<node lat="61.86604867532372" lon="6.724104240968948" id="-81250">
		<tag k="name" v="Agjeldsvegen" />
		<tag k="ssr:date" v="2019-12-27" />
		<tag k="ssr:gruppe" v="veg" />
		<tag k="ssr:hovedgruppe" v="infrastruktur" />
		<tag k="ssr:stedsnr" v="975170" />
		<tag k="ssr:type" v="adressenavn" />
	</node>
	<node lat="61.9249890912228" lon="7.019266372356465" id="-81252">
		<tag k="name" v="Brekkevegen" />
		<tag k="ssr:date" v="2019-12-27" />
		<tag k="ssr:gruppe" v="veg" />
		<tag k="ssr:hovedgruppe" v="infrastruktur" />
		<tag k="ssr:stedsnr" v="975172" />
		<tag k="ssr:type" v="adressenavn" />
	</node>
	<node lat="61.91943084906862" lon="7.023155226664412" id="-81253">
		<tag k="name" v="Nesjevegen" />
		<tag k="ssr:date" v="2019-12-27" />
		<tag k="ssr:gruppe" v="veg" />
		<tag k="ssr:hovedgruppe" v="infrastruktur" />
		<tag k="ssr:stedsnr" v="975173" />
		<tag k="ssr:type" v="adressenavn" />
	</node>
	<node lat="61.90707398922565" lon="7.057483560374183" id="-81254">
		<tag k="name" v="Fosnestunet" />
		<tag k="ssr:date" v="2019-12-27" />
		<tag k="ssr:gruppe" v="veg" />
		<tag k="ssr:hovedgruppe" v="infrastruktur" />
		<tag k="ssr:stedsnr" v="975174" />
		<tag k="ssr:type" v="adressenavn" />
	</node>
	<node lat="61.96055078851084" lon="7.388233924212217" id="-81255">
		<tag k="name" v="Gamle Strynefjellsvegen" />
		<tag k="ssr:date" v="2019-12-27" />
		<tag k="ssr:gruppe" v="veg" />
		<tag k="ssr:hovedgruppe" v="infrastruktur" />
		<tag k="ssr:stedsnr" v="975175" />
		<tag k="ssr:type" v="adressenavn" />
	</node>
	<node lat="61.918776027299145" lon="7.160930924177351" id="-81256">
		<tag k="name" v="Bolstadvegen" />
		<tag k="ssr:date" v="2019-12-27" />
		<tag k="ssr:gruppe" v="veg" />
		<tag k="ssr:hovedgruppe" v="infrastruktur" />
		<tag k="ssr:stedsnr" v="975176" />
		<tag k="ssr:type" v="adressenavn" />
	</node>
	<node lat="61.87149720828987" lon="7.125480434078243" id="-81257">
		<tag k="name" v="Erdalen" />
		<tag k="ssr:date" v="2019-12-27" />
		<tag k="ssr:gruppe" v="veg" />
		<tag k="ssr:hovedgruppe" v="infrastruktur" />
		<tag k="ssr:stedsnr" v="975177" />
		<tag k="ssr:type" v="adressenavn" />
	</node>
	<node lat="61.89588872768218" lon="7.105843264294215" id="-81258">
		<tag k="name" v="Hjellevegen" />
		<tag k="ssr:date" v="2019-12-27" />
		<tag k="ssr:gruppe" v="veg" />
		<tag k="ssr:hovedgruppe" v="infrastruktur" />
		<tag k="ssr:stedsnr" v="975178" />
		<tag k="ssr:type" v="adressenavn" />
	</node>
	<node lat="61.66334710568386" lon="6.823513609773931" id="-81261">
		<tag k="name" v="Oldedalsvegen" />
		<tag k="ssr:date" v="2019-12-27" />
		<tag k="ssr:gruppe" v="veg" />
		<tag k="ssr:hovedgruppe" v="infrastruktur" />
		<tag k="ssr:stedsnr" v="975181" />
		<tag k="ssr:type" v="adressenavn" />
	</node>
	<node lat="61.83656347318846" lon="6.800612586269923" id="-81265">
		<tag k="name" v="Skarsteinvegen" />
		<tag k="ssr:date" v="2019-12-27" />
		<tag k="ssr:gruppe" v="veg" />
		<tag k="ssr:hovedgruppe" v="infrastruktur" />
		<tag k="ssr:stedsnr" v="975185" />
		<tag k="ssr:type" v="adressenavn" />
	</node>
	<node lat="61.826115738267404" lon="6.80344785435938" id="-81269">
		<tag k="name" v="Bruvollsvegen" />
		<tag k="ssr:date" v="2019-12-27" />
		<tag k="ssr:gruppe" v="veg" />
		<tag k="ssr:hovedgruppe" v="infrastruktur" />
		<tag k="ssr:stedsnr" v="975189" />
		<tag k="ssr:type" v="adressenavn" />
	</node>
	<node lat="61.87335149802133" lon="6.321565246186535" id="-81270">
		<tag k="name" v="Ålandsleitet" />
		<tag k="ssr:date" v="2019-12-27" />
		<tag k="ssr:gruppe" v="veg" />
		<tag k="ssr:hovedgruppe" v="infrastruktur" />
		<tag k="ssr:stedsnr" v="975190" />
		<tag k="ssr:type" v="adressenavn" />
	</node>
	<node lat="61.86997807376529" lon="6.325278413951925" id="-81273">
		<tag k="name" v="Randavegen" />
		<tag k="ssr:date" v="2019-12-27" />
		<tag k="ssr:gruppe" v="veg" />
		<tag k="ssr:hovedgruppe" v="infrastruktur" />
		<tag k="ssr:stedsnr" v="975193" />
		<tag k="ssr:type" v="adressenavn" />
	</node>
	<node lat="61.84688533270805" lon="6.813355566363513" id="-81277">
		<tag k="name" v="Solstrandvegen" />
		<tag k="ssr:date" v="2019-12-27" />
		<tag k="ssr:gruppe" v="veg" />
		<tag k="ssr:hovedgruppe" v="infrastruktur" />
		<tag k="ssr:stedsnr" v="975197" />
		<tag k="ssr:type" v="adressenavn" />
	</node>
	<node lat="61.83699818066177" lon="6.809954783281206" id="-81280">
		<tag k="name" v="Flintavegen" />
		<tag k="ssr:date" v="2019-12-27" />
		<tag k="ssr:gruppe" v="veg" />
		<tag k="ssr:hovedgruppe" v="infrastruktur" />
		<tag k="ssr:stedsnr" v="975200" />
		<tag k="ssr:type" v="adressenavn" />
	</node>
	<node lat="61.86871445992457" lon="6.3261512341398864" id="-81281">
		<tag k="name" v="Ålandsvegen" />
		<tag k="ssr:date" v="2019-12-27" />
		<tag k="ssr:gruppe" v="veg" />
		<tag k="ssr:hovedgruppe" v="infrastruktur" />
		<tag k="ssr:stedsnr" v="975201" />
		<tag k="ssr:type" v="adressenavn" />
	</node>
	<node lat="61.86379651498207" lon="6.316424122805069" id="-81283">
		<tag k="name" v="Hoplandsvegen" />
		<tag k="ssr:date" v="2019-12-27" />
		<tag k="ssr:gruppe" v="veg" />
		<tag k="ssr:hovedgruppe" v="infrastruktur" />
		<tag k="ssr:stedsnr" v="975203" />
		<tag k="ssr:type" v="adressenavn" />
	</node>
	<node lat="61.843444201026834" lon="6.46770672272491" id="-81286">
		<tag k="name" v="Bergsettunet" />
		<tag k="ssr:date" v="2019-12-27" />
		<tag k="ssr:gruppe" v="veg" />
		<tag k="ssr:hovedgruppe" v="infrastruktur" />
		<tag k="ssr:stedsnr" v="975206" />
		<tag k="ssr:type" v="adressenavn" />
	</node>
	<node lat="61.86752359955991" lon="6.533201261597265" id="-81291">
		<tag k="name" v="Teigavegen" />
		<tag k="ssr:date" v="2019-12-27" />
		<tag k="ssr:gruppe" v="veg" />
		<tag k="ssr:hovedgruppe" v="infrastruktur" />
		<tag k="ssr:stedsnr" v="975213" />
		<tag k="ssr:type" v="adressenavn" />
	</node>
	<node lat="61.861081828129784" lon="6.533649203510372" id="-81292">
		<tag k="name" v="Steinset" />
		<tag k="ssr:date" v="2019-12-27" />
		<tag k="ssr:gruppe" v="veg" />
		<tag k="ssr:hovedgruppe" v="infrastruktur" />
		<tag k="ssr:stedsnr" v="975214" />
		<tag k="ssr:type" v="adressenavn" />
	</node>
	<node lat="61.859724880281604" lon="6.531880843094094" id="-81293">
		<tag k="name" v="Øyestadvegen" />
		<tag k="ssr:date" v="2019-12-27" />
		<tag k="ssr:gruppe" v="veg" />
		<tag k="ssr:hovedgruppe" v="infrastruktur" />
		<tag k="ssr:stedsnr" v="975215" />
		<tag k="ssr:type" v="adressenavn" />
	</node>
	<node lat="61.85928055591762" lon="6.526174018907996" id="-81294">
		<tag k="name" v="Nygårdsvegen" />
		<tag k="old_name" v="Leitevegen" />
		<tag k="ssr:date" v="2019-12-27" />
		<tag k="ssr:gruppe" v="veg" />
		<tag k="ssr:hovedgruppe" v="infrastruktur" />
		<tag k="ssr:stedsnr" v="975216" />
		<tag k="ssr:type" v="adressenavn" />
	</node>
	<node lat="61.84865138346863" lon="6.520015343197951" id="-81295">
		<tag k="name" v="Rosetvegen" />
		<tag k="ssr:date" v="2019-12-27" />
		<tag k="ssr:gruppe" v="veg" />
		<tag k="ssr:hovedgruppe" v="infrastruktur" />
		<tag k="ssr:stedsnr" v="975217" />
		<tag k="ssr:type" v="adressenavn" />
	</node>
	<node lat="61.849024587835224" lon="6.512483666621646" id="-81296">
		<tag k="name" v="Rosetmarka" />
		<tag k="ssr:date" v="2019-12-27" />
		<tag k="ssr:gruppe" v="veg" />
		<tag k="ssr:hovedgruppe" v="infrastruktur" />
		<tag k="ssr:stedsnr" v="975218" />
		<tag k="ssr:type" v="adressenavn" />
	</node>
	<node lat="61.83956741535272" lon="6.4659840662332995" id="-81297">
		<tag k="name" v="Sagehaugen" />
		<tag k="ssr:date" v="2019-12-27" />
		<tag k="ssr:gruppe" v="veg" />
		<tag k="ssr:hovedgruppe" v="infrastruktur" />
		<tag k="ssr:stedsnr" v="975219" />
		<tag k="ssr:type" v="adressenavn" />
	</node>
	<node lat="61.84008799289652" lon="6.465887655128844" id="-81298">
		<tag k="name" v="Bergsetvegen" />
		<tag k="ssr:date" v="2019-12-27" />
		<tag k="ssr:gruppe" v="veg" />
		<tag k="ssr:hovedgruppe" v="infrastruktur" />
		<tag k="ssr:stedsnr" v="975220" />
		<tag k="ssr:type" v="adressenavn" />
	</node>
	<node lat="61.785934151788936" lon="6.985756159123786" id="-81301">
		<tag k="name" v="Nesdal" />
		<tag k="ssr:date" v="2019-12-27" />
		<tag k="ssr:gruppe" v="veg" />
		<tag k="ssr:hovedgruppe" v="infrastruktur" />
		<tag k="ssr:stedsnr" v="975223" />
		<tag k="ssr:type" v="adressenavn" />
	</node>
	<node lat="61.89603144588347" lon="6.623415070050195" id="-81304">
		<tag k="name" v="Skarsmyrvegen" />
		<tag k="ssr:date" v="2019-12-27" />
		<tag k="ssr:gruppe" v="veg" />
		<tag k="ssr:hovedgruppe" v="infrastruktur" />
		<tag k="ssr:stedsnr" v="975226" />
		<tag k="ssr:type" v="adressenavn" />
	</node>
	<node lat="61.928616862922134" lon="6.57942577163296" id="-81307">
		<tag k="name" v="Maursetvegen" />
		<tag k="ssr:date" v="2019-12-27" />
		<tag k="ssr:gruppe" v="veg" />
		<tag k="ssr:hovedgruppe" v="infrastruktur" />
		<tag k="ssr:stedsnr" v="975229" />
		<tag k="ssr:type" v="adressenavn" />
	</node>
	<node lat="61.928946902261096" lon="6.607264462177433" id="-81308">
		<tag k="name" v="Demmemyrvegen" />
		<tag k="ssr:date" v="2019-12-27" />
		<tag k="ssr:gruppe" v="veg" />
		<tag k="ssr:hovedgruppe" v="infrastruktur" />
		<tag k="ssr:stedsnr" v="975230" />
		<tag k="ssr:type" v="adressenavn" />
	</node>
	<node lat="61.88272681433651" lon="6.555330370690711" id="-81309">
		<tag k="name" v="Robjørgane" />
		<tag k="ssr:date" v="2019-12-27" />
		<tag k="ssr:gruppe" v="veg" />
		<tag k="ssr:hovedgruppe" v="infrastruktur" />
		<tag k="ssr:stedsnr" v="975231" />
		<tag k="ssr:type" v="adressenavn" />
	</node>
	<node lat="61.74741576498454" lon="7.035187814560409" id="-81312">
		<tag k="name" v="Lodalsvegen" />
		<tag k="ssr:date" v="2019-12-27" />
		<tag k="ssr:gruppe" v="veg" />
		<tag k="ssr:hovedgruppe" v="infrastruktur" />
		<tag k="ssr:stedsnr" v="975234" />
		<tag k="ssr:type" v="adressenavn" />
	</node>
	<node lat="61.865517950724445" lon="6.857740461795809" id="-81314">
		<tag k="name" v="Lovikvegen" />
		<tag k="ssr:date" v="2019-12-27" />
		<tag k="ssr:gruppe" v="veg" />
		<tag k="ssr:hovedgruppe" v="infrastruktur" />
		<tag k="ssr:stedsnr" v="975236" />
		<tag k="ssr:type" v="adressenavn" />
	</node>
	<node lat="61.865847121393145" lon="6.867135612026141" id="-81315">
		<tag k="name" v="Kvitefjell" />
		<tag k="ssr:date" v="2019-12-27" />
		<tag k="ssr:gruppe" v="veg" />
		<tag k="ssr:hovedgruppe" v="infrastruktur" />
		<tag k="ssr:stedsnr" v="975237" />
		<tag k="ssr:type" v="adressenavn" />
	</node>
	<node lat="61.86554131788168" lon="6.861730474804855" id="-81316">
		<tag k="name" v="Brennhaugen" />
		<tag k="ssr:date" v="2019-12-27" />
		<tag k="ssr:gruppe" v="veg" />
		<tag k="ssr:hovedgruppe" v="infrastruktur" />
		<tag k="ssr:stedsnr" v="975238" />
		<tag k="ssr:type" v="adressenavn" />
	</node>
	<node lat="61.86919444483815" lon="6.7937805493052545" id="-81577">
		<tag k="alt_name" v="Rakenes" />
		<tag k="name" v="Rakenes lykt" />
		<tag k="ssr:date" v="2019-12-27" />
		<tag k="ssr:gruppe" v="navigasjon" />
		<tag k="ssr:hovedgruppe" v="infrastruktur" />
		<tag k="ssr:stedsnr" v="100480" />
		<tag k="ssr:type" v="fyrlykt" />
	</node>
	<node lat="61.86090833184005" lon="6.787208342249928" id="-82145">
		<tag k="name" v="Djupekjegla" />
		<tag k="ssr:date" v="2019-12-27" />
		<tag k="ssr:gruppe" v="sjøbunn" />
		<tag k="ssr:hovedgruppe" v="sjø" />
		<tag k="ssr:stedsnr" v="403547" />
		<tag k="ssr:type" v="havdyp" />
	</node>
	<node lat="61.90596239597542" lon="6.701249945481263" id="-82376">
		<tag k="name" v="Sandbakken" />
		<tag k="ssr:date" v="2019-12-27" />
		<tag k="ssr:gruppe" v="veg" />
		<tag k="ssr:hovedgruppe" v="infrastruktur" />
		<tag k="ssr:stedsnr" v="586923" />
		<tag k="ssr:type" v="adressenavn" />
	</node>
	<node lat="61.84290833052074" lon="6.51679445293602" id="-82563">
		<tag k="name" v="Gamlevegen" />
		<tag k="ssr:date" v="2019-12-27" />
		<tag k="ssr:gruppe" v="veg" />
		<tag k="ssr:hovedgruppe" v="infrastruktur" />
		<tag k="ssr:stedsnr" v="785297" />
		<tag k="ssr:type" v="vegstrekning" />
	</node>
	<node lat="61.88720464656695" lon="6.669099824929261" id="-82899">
		<tag k="name" v="Nordfjordvegen" />
		<tag k="ssr:date" v="2019-12-27" />
		<tag k="ssr:gruppe" v="veg" />
		<tag k="ssr:hovedgruppe" v="infrastruktur" />
		<tag k="ssr:stedsnr" v="975112" />
		<tag k="ssr:type" v="adressenavn" />
	</node>
	<node lat="61.91390513055714" lon="7.116415617573709" id="-82900">
		<tag k="name" v="Hjellebakkane" />
		<tag k="ssr:date" v="2019-12-27" />
		<tag k="ssr:gruppe" v="veg" />
		<tag k="ssr:hovedgruppe" v="infrastruktur" />
		<tag k="ssr:stedsnr" v="975159" />
		<tag k="ssr:type" v="adressenavn" />
	</node>
	<node lat="61.93449697427771" lon="6.8785515089987905" id="-82902">
		<tag k="name" v="Flovegen" />
		<tag k="ssr:date" v="2019-12-27" />
		<tag k="ssr:gruppe" v="veg" />
		<tag k="ssr:hovedgruppe" v="infrastruktur" />
		<tag k="ssr:stedsnr" v="975161" />
		<tag k="ssr:type" v="adressenavn" />
	</node>
	<node lat="61.92977177250076" lon="6.909149773292924" id="-82903">
		<tag k="name" v="Dispavegen" />
		<tag k="ssr:date" v="2019-12-27" />
		<tag k="ssr:gruppe" v="veg" />
		<tag k="ssr:hovedgruppe" v="infrastruktur" />
		<tag k="ssr:stedsnr" v="975162" />
		<tag k="ssr:type" v="adressenavn" />
	</node>
	<node lat="61.859829228666584" lon="6.888265859443826" id="-82904">
		<tag k="name" v="Nesbøvegen" />
		<tag k="ssr:date" v="2019-12-27" />
		<tag k="ssr:gruppe" v="veg" />
		<tag k="ssr:hovedgruppe" v="infrastruktur" />
		<tag k="ssr:stedsnr" v="975242" />
		<tag k="ssr:type" v="adressenavn" />
	</node>
	<node lat="61.83340813101398" lon="6.4467189939590845" id="-82905">
		<tag k="name" v="Sølvbergstunet" />
		<tag k="ssr:date" v="2019-12-27" />
		<tag k="ssr:gruppe" v="veg" />
		<tag k="ssr:hovedgruppe" v="infrastruktur" />
		<tag k="ssr:stedsnr" v="975243" />
		<tag k="ssr:type" v="adressenavn" />
	</node>
	<node lat="61.78851460461074" lon="6.500146521035557" id="-82907">
		<tag k="name" v="Fjordvegen" />
		<tag k="ssr:date" v="2019-12-27" />
		<tag k="ssr:gruppe" v="veg" />
		<tag k="ssr:hovedgruppe" v="infrastruktur" />
		<tag k="ssr:stedsnr" v="975110" />
		<tag k="ssr:type" v="adressenavn" />
	</node>
	<node lat="61.893746967379734" lon="7.103087476812659" id="-82908">
		<tag k="name" v="Strynevegen" />
		<tag k="ssr:date" v="2019-12-27" />
		<tag k="ssr:gruppe" v="veg" />
		<tag k="ssr:hovedgruppe" v="infrastruktur" />
		<tag k="ssr:stedsnr" v="975111" />
		<tag k="ssr:type" v="adressenavn" />
	</node>
	<node lat="61.94035496165318" lon="6.9406260656893854" id="-82910">
		<tag k="name" v="Nestun" />
		<tag k="ssr:date" v="2019-12-27" />
		<tag k="ssr:gruppe" v="veg" />
		<tag k="ssr:hovedgruppe" v="infrastruktur" />
		<tag k="ssr:stedsnr" v="975289" />
		<tag k="ssr:type" v="adressenavn" />
	</node>
	<node lat="61.8884103267764" lon="6.6786668489446885" id="-82911">
		<tag k="name" v="Arnekvia" />
		<tag k="ssr:date" v="2019-12-27" />
		<tag k="ssr:gruppe" v="veg" />
		<tag k="ssr:hovedgruppe" v="infrastruktur" />
		<tag k="ssr:stedsnr" v="975290" />
		<tag k="ssr:type" v="adressenavn" />
	</node>
	<node lat="61.90249748219207" lon="6.718254790347734" id="-82935">
		<tag k="name" v="Perhusvegen" />
		<tag k="ssr:date" v="2019-12-27" />
		<tag k="ssr:gruppe" v="veg" />
		<tag k="ssr:hovedgruppe" v="infrastruktur" />
		<tag k="ssr:stedsnr" v="1053236" />
		<tag k="ssr:type" v="adressenavn" />
	</node>
	<node lat="61.90041031773221" lon="6.716163705365911" id="-82936">
		<tag k="name" v="Bruagrenda" />
		<tag k="ssr:date" v="2019-12-27" />
		<tag k="ssr:gruppe" v="veg" />
		<tag k="ssr:hovedgruppe" v="infrastruktur" />
		<tag k="ssr:stedsnr" v="1053238" />
		<tag k="ssr:type" v="adressenavn" />
	</node>
	<node lat="61.90164477048964" lon="6.722899150862895" id="-82937">
		<tag k="name" v="Aarheimsvegen" />
		<tag k="ssr:date" v="2019-12-27" />
		<tag k="ssr:gruppe" v="veg" />
		<tag k="ssr:hovedgruppe" v="infrastruktur" />
		<tag k="ssr:stedsnr" v="1053241" />
		<tag k="ssr:type" v="adressenavn" />
	</node>
	<node lat="61.90462877137219" lon="6.723509851761915" id="-82939">
		<tag k="name" v="Myrane" />
		<tag k="ssr:date" v="2019-12-27" />
		<tag k="ssr:gruppe" v="veg" />
		<tag k="ssr:hovedgruppe" v="infrastruktur" />
		<tag k="ssr:stedsnr" v="1053246" />
		<tag k="ssr:type" v="adressenavn" />
	</node>
	<node lat="61.9051478586044" lon="6.725041889186901" id="-82940">
		<tag k="name" v="Tonningsgata" />
		<tag k="ssr:date" v="2019-12-27" />
		<tag k="ssr:gruppe" v="veg" />
		<tag k="ssr:hovedgruppe" v="infrastruktur" />
		<tag k="ssr:stedsnr" v="1053248" />
		<tag k="ssr:type" v="adressenavn" />
	</node>
	<node lat="61.89549826306827" lon="6.707955424455009" id="-82941">
		<tag k="name" v="Prestestegen" />
		<tag k="ssr:date" v="2019-12-27" />
		<tag k="ssr:gruppe" v="veg" />
		<tag k="ssr:hovedgruppe" v="infrastruktur" />
		<tag k="ssr:stedsnr" v="1053251" />
		<tag k="ssr:type" v="adressenavn" />
	</node>
	<node lat="61.897520533787706" lon="6.70958560145687" id="-82942">
		<tag k="name" v="Bjørkevegen" />
		<tag k="ssr:date" v="2019-12-27" />
		<tag k="ssr:gruppe" v="veg" />
		<tag k="ssr:hovedgruppe" v="infrastruktur" />
		<tag k="ssr:stedsnr" v="1053253" />
		<tag k="ssr:type" v="adressenavn" />
	</node>
	<node lat="61.902283000922104" lon="6.717710167708819" id="-82943">
		<tag k="name" v="Visnesvegen" />
		<tag k="ssr:date" v="2019-12-27" />
		<tag k="ssr:gruppe" v="veg" />
		<tag k="ssr:hovedgruppe" v="infrastruktur" />
		<tag k="ssr:stedsnr" v="1053258" />
		<tag k="ssr:type" v="adressenavn" />
	</node>
	<node lat="61.896847987921205" lon="6.7102435019744995" id="-82944">
		<tag k="name" v="Strandavegen" />
		<tag k="ssr:date" v="2019-12-27" />
		<tag k="ssr:gruppe" v="veg" />
		<tag k="ssr:hovedgruppe" v="infrastruktur" />
		<tag k="ssr:stedsnr" v="1053260" />
		<tag k="ssr:type" v="adressenavn" />
	</node>
	<node lat="61.9003984285198" lon="6.715755776980124" id="-82945">
		<tag k="name" v="Seljevegen" />
		<tag k="ssr:date" v="2019-12-27" />
		<tag k="ssr:gruppe" v="veg" />
		<tag k="ssr:hovedgruppe" v="infrastruktur" />
		<tag k="ssr:stedsnr" v="1053262" />
		<tag k="ssr:type" v="adressenavn" />
	</node>
	<node lat="61.89968840882324" lon="6.712606943619653" id="-82946">
		<tag k="name" v="Klypestegen" />
		<tag k="ssr:date" v="2019-12-27" />
		<tag k="ssr:gruppe" v="veg" />
		<tag k="ssr:hovedgruppe" v="infrastruktur" />
		<tag k="ssr:stedsnr" v="1053264" />
		<tag k="ssr:type" v="adressenavn" />
	</node>
	<node lat="61.89646184464826" lon="6.708953412368946" id="-82947">
		<tag k="name" v="Kipervegen" />
		<tag k="ssr:date" v="2019-12-27" />
		<tag k="ssr:gruppe" v="veg" />
		<tag k="ssr:hovedgruppe" v="infrastruktur" />
		<tag k="ssr:stedsnr" v="1053267" />
		<tag k="ssr:type" v="adressenavn" />
	</node>
	<node lat="61.90951062521142" lon="6.72296641144157" id="-82948">
		<tag k="name" v="Kjeldevegen" />
		<tag k="ssr:date" v="2019-12-27" />
		<tag k="ssr:gruppe" v="veg" />
		<tag k="ssr:hovedgruppe" v="infrastruktur" />
		<tag k="ssr:stedsnr" v="1053269" />
		<tag k="ssr:type" v="adressenavn" />
	</node>
	<node lat="61.90892361808236" lon="6.715027163231037" id="-82949">
		<tag k="name" v="Kreklingevegen" />
		<tag k="ssr:date" v="2019-12-27" />
		<tag k="ssr:gruppe" v="veg" />
		<tag k="ssr:hovedgruppe" v="infrastruktur" />
		<tag k="ssr:stedsnr" v="1053271" />
		<tag k="ssr:type" v="adressenavn" />
	</node>
	<node lat="61.90840343269565" lon="6.7201427308517" id="-82950">
		<tag k="name" v="Lansevegen" />
		<tag k="ssr:date" v="2019-12-27" />
		<tag k="ssr:gruppe" v="veg" />
		<tag k="ssr:hovedgruppe" v="infrastruktur" />
		<tag k="ssr:stedsnr" v="1053273" />
		<tag k="ssr:type" v="adressenavn" />
	</node>
	<node lat="61.909583606000645" lon="6.7260676273208055" id="-82951">
		<tag k="name" v="Geilevegen" />
		<tag k="ssr:date" v="2019-12-27" />
		<tag k="ssr:gruppe" v="veg" />
		<tag k="ssr:hovedgruppe" v="infrastruktur" />
		<tag k="ssr:stedsnr" v="1053275" />
		<tag k="ssr:type" v="adressenavn" />
	</node>
	<node lat="61.91029073947124" lon="6.729806538692953" id="-82952">
		<tag k="name" v="Geilehamaren" />
		<tag k="ssr:date" v="2019-12-27" />
		<tag k="ssr:gruppe" v="veg" />
		<tag k="ssr:hovedgruppe" v="infrastruktur" />
		<tag k="ssr:stedsnr" v="1053277" />
		<tag k="ssr:type" v="adressenavn" />
	</node>
	<node lat="61.91097707916689" lon="6.731670498334192" id="-82953">
		<tag k="name" v="Stegen" />
		<tag k="ssr:date" v="2019-12-27" />
		<tag k="ssr:gruppe" v="veg" />
		<tag k="ssr:hovedgruppe" v="infrastruktur" />
		<tag k="ssr:stedsnr" v="1053279" />
		<tag k="ssr:type" v="adressenavn" />
	</node>
	<node lat="61.909484424637725" lon="6.714426143262453" id="-82954">
		<tag k="name" v="Hokelstegen" />
		<tag k="ssr:date" v="2019-12-27" />
		<tag k="ssr:gruppe" v="veg" />
		<tag k="ssr:hovedgruppe" v="infrastruktur" />
		<tag k="ssr:stedsnr" v="1053281" />
		<tag k="ssr:type" v="adressenavn" />
	</node>
	<node lat="61.902839331867874" lon="6.722394383714114" id="-82955">
		<tag k="name" v="Tinggata" />
		<tag k="ssr:date" v="2019-12-27" />
		<tag k="ssr:gruppe" v="veg" />
		<tag k="ssr:hovedgruppe" v="infrastruktur" />
		<tag k="ssr:stedsnr" v="1053234" />
		<tag k="ssr:type" v="adressenavn" />
	</node>
	<node lat="61.90954683182363" lon="6.725394252534069" id="-82961">
		<tag k="name" v="Smieberget" />
		<tag k="ssr:date" v="2019-12-27" />
		<tag k="ssr:gruppe" v="veg" />
		<tag k="ssr:hovedgruppe" v="infrastruktur" />
		<tag k="ssr:stedsnr" v="1053282" />
		<tag k="ssr:type" v="adressenavn" />
	</node>
	<node lat="61.91013605960887" lon="6.741893903326585" id="-82962">
		<tag k="name" v="Riisevegen" />
		<tag k="ssr:date" v="2019-12-27" />
		<tag k="ssr:gruppe" v="veg" />
		<tag k="ssr:hovedgruppe" v="infrastruktur" />
		<tag k="ssr:stedsnr" v="1053283" />
		<tag k="ssr:type" v="adressenavn" />
	</node>
	<node lat="61.908700982631544" lon="6.739825105263624" id="-82963">
		<tag k="name" v="Skjoldevegen" />
		<tag k="ssr:date" v="2019-12-27" />
		<tag k="ssr:gruppe" v="veg" />
		<tag k="ssr:hovedgruppe" v="infrastruktur" />
		<tag k="ssr:stedsnr" v="1053285" />
		<tag k="ssr:type" v="adressenavn" />
	</node>
	<node lat="61.90359785364948" lon="6.716749716580448" id="-82964">
		<tag k="name" v="Rognehaugen" />
		<tag k="ssr:date" v="2019-12-27" />
		<tag k="ssr:gruppe" v="veg" />
		<tag k="ssr:hovedgruppe" v="infrastruktur" />
		<tag k="ssr:stedsnr" v="1053287" />
		<tag k="ssr:type" v="adressenavn" />
	</node>
	<node lat="61.90566764444915" lon="6.726621644259777" id="-82965">
		<tag k="name" v="Bøavegen" />
		<tag k="ssr:date" v="2019-12-27" />
		<tag k="ssr:gruppe" v="veg" />
		<tag k="ssr:hovedgruppe" v="infrastruktur" />
		<tag k="ssr:stedsnr" v="1053289" />
		<tag k="ssr:type" v="adressenavn" />
	</node>
	<node lat="61.906003075611096" lon="6.715770590627277" id="-82966">
		<tag k="name" v="Tonningsbakkane" />
		<tag k="ssr:date" v="2019-12-27" />
		<tag k="ssr:gruppe" v="veg" />
		<tag k="ssr:hovedgruppe" v="infrastruktur" />
		<tag k="ssr:stedsnr" v="1053291" />
		<tag k="ssr:type" v="adressenavn" />
	</node>
	<node lat="61.90634104326005" lon="6.715521551167203" id="-82967">
		<tag k="name" v="Urastegen" />
		<tag k="ssr:date" v="2019-12-27" />
		<tag k="ssr:gruppe" v="veg" />
		<tag k="ssr:hovedgruppe" v="infrastruktur" />
		<tag k="ssr:stedsnr" v="1053294" />
		<tag k="ssr:type" v="adressenavn" />
	</node>
	<node lat="61.90246240417661" lon="6.715961390066565" id="-82968">
		<tag k="name" v="Setrevegen" />
		<tag k="ssr:date" v="2019-12-27" />
		<tag k="ssr:gruppe" v="veg" />
		<tag k="ssr:hovedgruppe" v="infrastruktur" />
		<tag k="ssr:stedsnr" v="1053296" />
		<tag k="ssr:type" v="adressenavn" />
	</node>
	<node lat="61.911477137117544" lon="6.733131545748207" id="-82969">
		<tag k="name" v="Hareflåten" />
		<tag k="ssr:date" v="2019-12-27" />
		<tag k="ssr:gruppe" v="veg" />
		<tag k="ssr:hovedgruppe" v="infrastruktur" />
		<tag k="ssr:stedsnr" v="1053297" />
		<tag k="ssr:type" v="adressenavn" />
	</node>
	<node lat="61.90452357864904" lon="6.711449335872525" id="-82970">
		<tag k="name" v="Vipevegen" />
		<tag k="ssr:date" v="2019-12-27" />
		<tag k="ssr:gruppe" v="veg" />
		<tag k="ssr:hovedgruppe" v="infrastruktur" />
		<tag k="ssr:stedsnr" v="1053299" />
		<tag k="ssr:type" v="adressenavn" />
	</node>
	<node lat="61.90681485451427" lon="6.700140816521914" id="-82971">
		<tag k="name" v="Stampevegen" />
		<tag k="ssr:date" v="2019-12-27" />
		<tag k="ssr:gruppe" v="veg" />
		<tag k="ssr:hovedgruppe" v="infrastruktur" />
		<tag k="ssr:stedsnr" v="1053300" />
		<tag k="ssr:type" v="adressenavn" />
	</node>
	<node lat="61.905452890544176" lon="6.7239231480244745" id="-82972">
		<tag k="name" v="Nybøvegen" />
		<tag k="ssr:date" v="2019-12-27" />
		<tag k="ssr:gruppe" v="veg" />
		<tag k="ssr:hovedgruppe" v="infrastruktur" />
		<tag k="ssr:stedsnr" v="1053302" />
		<tag k="ssr:type" v="adressenavn" />
	</node>
	<node lat="61.90234158487066" lon="6.708709041695536" id="-82975">
		<tag k="name" v="Hegrevegen" />
		<tag k="ssr:date" v="2019-12-27" />
		<tag k="ssr:gruppe" v="veg" />
		<tag k="ssr:hovedgruppe" v="infrastruktur" />
		<tag k="ssr:stedsnr" v="1053308" />
		<tag k="ssr:type" v="adressenavn" />
	</node>
	<node lat="61.899578504457324" lon="6.698753242387085" id="-82976">
		<tag k="name" v="Naustvegen" />
		<tag k="ssr:date" v="2019-12-27" />
		<tag k="ssr:gruppe" v="veg" />
		<tag k="ssr:hovedgruppe" v="infrastruktur" />
		<tag k="ssr:stedsnr" v="1053310" />
		<tag k="ssr:type" v="adressenavn" />
	</node>
	<node lat="61.905788022867476" lon="6.7145310877570425" id="-82977">
		<tag k="name" v="Vikavegen" />
		<tag k="ssr:date" v="2019-12-27" />
		<tag k="ssr:gruppe" v="veg" />
		<tag k="ssr:hovedgruppe" v="infrastruktur" />
		<tag k="ssr:stedsnr" v="1053312" />
		<tag k="ssr:type" v="adressenavn" />
	</node>
	<node lat="61.902078628301645" lon="6.705385808810523" id="-82978">
		<tag k="name" v="Øyravegen" />
		<tag k="ssr:date" v="2019-12-27" />
		<tag k="ssr:gruppe" v="veg" />
		<tag k="ssr:hovedgruppe" v="infrastruktur" />
		<tag k="ssr:stedsnr" v="1053314" />
		<tag k="ssr:type" v="adressenavn" />
	</node>
	<node lat="61.911262155312265" lon="6.729829411184203" id="-82979">
		<tag k="name" v="Gløshamaren" />
		<tag k="ssr:date" v="2019-12-27" />
		<tag k="ssr:gruppe" v="veg" />
		<tag k="ssr:hovedgruppe" v="infrastruktur" />
		<tag k="ssr:stedsnr" v="1053316" />
		<tag k="ssr:type" v="adressenavn" />
	</node>
	<node lat="61.91185837710857" lon="6.7310287709423955" id="-82980">
		<tag k="name" v="Tårnsteinen" />
		<tag k="ssr:date" v="2019-12-27" />
		<tag k="ssr:gruppe" v="veg" />
		<tag k="ssr:hovedgruppe" v="infrastruktur" />
		<tag k="ssr:stedsnr" v="1053318" />
		<tag k="ssr:type" v="adressenavn" />
	</node>
	<node lat="61.9053794315482" lon="6.701266163838418" id="-82981">
		<tag k="name" v="Holevegen" />
		<tag k="ssr:date" v="2019-12-27" />
		<tag k="ssr:gruppe" v="veg" />
		<tag k="ssr:hovedgruppe" v="infrastruktur" />
		<tag k="ssr:stedsnr" v="1053320" />
		<tag k="ssr:type" v="adressenavn" />
	</node>
	<node lat="61.9064017440707" lon="6.700881752305662" id="-82982">
		<tag k="name" v="Humleteigen" />
		<tag k="ssr:date" v="2019-12-27" />
		<tag k="ssr:gruppe" v="veg" />
		<tag k="ssr:hovedgruppe" v="infrastruktur" />
		<tag k="ssr:stedsnr" v="1053322" />
		<tag k="ssr:type" v="adressenavn" />
	</node>
	<node lat="61.9025594221016" lon="6.7026243356467905" id="-82983">
		<tag k="name" v="Grandevegen" />
		<tag k="ssr:date" v="2019-12-27" />
		<tag k="ssr:gruppe" v="veg" />
		<tag k="ssr:hovedgruppe" v="infrastruktur" />
		<tag k="ssr:stedsnr" v="1053324" />
		<tag k="ssr:type" v="adressenavn" />
	</node>
	<node lat="61.905207144690756" lon="6.699977582646606" id="-82984">
		<tag k="name" v="Vikalida" />
		<tag k="ssr:date" v="2019-12-27" />
		<tag k="ssr:gruppe" v="veg" />
		<tag k="ssr:hovedgruppe" v="infrastruktur" />
		<tag k="ssr:stedsnr" v="1053326" />
		<tag k="ssr:type" v="adressenavn" />
	</node>
	<node lat="61.8384385608567" lon="6.47164357258023" id="-82989">
		<tag k="name" v="Lillejordvegen" />
		<tag k="old_name" v="Veg 1203" />
		<tag k="ssr:date" v="2019-12-27" />
		<tag k="ssr:gruppe" v="veg" />
		<tag k="ssr:hovedgruppe" v="infrastruktur" />
		<tag k="ssr:stedsnr" v="1053554" />
		<tag k="ssr:type" v="adressenavn" />
	</node>
	<node lat="61.8654641361213" lon="6.330736927055096" id="-82990">
		<tag k="name" v="Skredevegen" />
		<tag k="old_name" v="Veg 1216" />
		<tag k="ssr:date" v="2019-12-27" />
		<tag k="ssr:gruppe" v="veg" />
		<tag k="ssr:hovedgruppe" v="infrastruktur" />
		<tag k="ssr:stedsnr" v="1053557" />
		<tag k="ssr:type" v="adressenavn" />
	</node>
	<node lat="61.7890576139136" lon="6.496075265364647" id="-82999">
		<tag k="name" v="Dauremålshammaren" />
		<tag k="old_name" v="Veg 1249" />
		<tag k="ssr:date" v="2019-12-27" />
		<tag k="ssr:gruppe" v="veg" />
		<tag k="ssr:hovedgruppe" v="infrastruktur" />
		<tag k="ssr:stedsnr" v="1053571" />
		<tag k="ssr:type" v="adressenavn" />
	</node>
	<node lat="61.888758332300554" lon="6.617427256872609" id="-83003">
		<tag k="name" v="Faleidsvegen" />
		<tag k="old_name" v="Veg 1136" />
		<tag k="ssr:date" v="2019-12-27" />
		<tag k="ssr:gruppe" v="veg" />
		<tag k="ssr:hovedgruppe" v="infrastruktur" />
		<tag k="ssr:stedsnr" v="1053578" />
		<tag k="ssr:type" v="adressenavn" />
	</node>
	<node lat="61.89423711635655" lon="6.622560192992894" id="-83006">
		<tag k="name" v="Bleksvingen" />
		<tag k="old_name" v="Veg 1140" />
		<tag k="ssr:date" v="2019-12-27" />
		<tag k="ssr:gruppe" v="veg" />
		<tag k="ssr:hovedgruppe" v="infrastruktur" />
		<tag k="ssr:stedsnr" v="1053581" />
		<tag k="ssr:type" v="adressenavn" />
	</node>
	<node lat="61.89001808038627" lon="6.685336323561586" id="-83007">
		<tag k="name" v="Bergsida" />
		<tag k="old_name" v="Veg 1131" />
		<tag k="ssr:date" v="2020-03-23" />
		<tag k="ssr:gruppe" v="veg" />
		<tag k="ssr:hovedgruppe" v="infrastruktur" />
		<tag k="ssr:stedsnr" v="1053584" />
		<tag k="ssr:type" v="adressenavn" />
	</node>
	<node lat="61.928633808950046" lon="6.606945264585849" id="-83009">
		<tag k="name" v="Turrhaugvegen" />
		<tag k="old_name" v="Veg 1143" />
		<tag k="ssr:date" v="2019-12-27" />
		<tag k="ssr:gruppe" v="veg" />
		<tag k="ssr:hovedgruppe" v="infrastruktur" />
		<tag k="ssr:stedsnr" v="1053588" />
		<tag k="ssr:type" v="adressenavn" />
	</node>
	<node lat="61.874047751323566" lon="6.791057049198535" id="-83013">
		<tag k="name" v="Briseldehaugen" />
		<tag k="old_name" v="Veg 1171" />
		<tag k="ssr:date" v="2019-12-27" />
		<tag k="ssr:gruppe" v="veg" />
		<tag k="ssr:hovedgruppe" v="infrastruktur" />
		<tag k="ssr:stedsnr" v="1053594" />
		<tag k="ssr:type" v="adressenavn" />
	</node>
	<node lat="61.90783416780262" lon="7.057710394706888" id="-83022">
		<tag k="name" v="Fosnesvegen" />
		<tag k="old_name" v="Veg 1075" />
		<tag k="ssr:date" v="2021-11-04" />
		<tag k="ssr:gruppe" v="veg" />
		<tag k="ssr:hovedgruppe" v="infrastruktur" />
		<tag k="ssr:stedsnr" v="1053606" />
		<tag k="ssr:type" v="adressenavn" />
	</node>
	<node lat="61.85909083654908" lon="6.598734194960873" id="-83031">
		<tag k="name" v="Koparberget" />
		<tag k="old_name" v="Veg 1110" />
		<tag k="ssr:date" v="2020-06-16" />
		<tag k="ssr:gruppe" v="veg" />
		<tag k="ssr:hovedgruppe" v="infrastruktur" />
		<tag k="ssr:stedsnr" v="1053619" />
		<tag k="ssr:type" v="adressenavn" />
	</node>
	<node lat="61.82618274366728" lon="6.596847071188828" id="-83036">
		<tag k="name" v="Heggdalsvegen" />
		<tag k="old_name" v="Veg 1119;Liavegen" />
		<tag k="ssr:date" v="2020-03-31" />
		<tag k="ssr:gruppe" v="veg" />
		<tag k="ssr:hovedgruppe" v="infrastruktur" />
		<tag k="ssr:stedsnr" v="1053627" />
		<tag k="ssr:type" v="adressenavn" />
	</node>
</osm>
