<?xml version="1.0" encoding="UTF-8"?>
<osm generator="osmapis" version="0.6">
	<node id="-145407" lat="60.5508277758" lon="9.72369721893">
		<tag k="name" v="Dundremoen" />
		<tag k="place" v="locality" />
		<tag k="ssr:stedsnr" v="706669" />
	</node>
	<node id="-143355" lat="60.6643666683" lon="9.61386110653">
		<tag k="name" v="Stubbebosolia" />
		<tag k="natural" v="slope" />
		<tag k="place" v="locality" />
		<tag k="ssr:stedsnr" v="282278" />
	</node>
	<node id="-143354" lat="60.6324916629" lon="9.68992777682">
		<tag k="name" v="Høglofthaugen" />
		<tag k="natural" v="hill" />
		<tag k="place" v="locality" />
		<tag k="ssr:stedsnr" v="282275" />
	</node>
	<node id="-145401" lat="60.6495583307" lon="9.49916111288">
		<tag k="name" v="Brennskarkollen" />
		<tag k="natural" v="hill" />
		<tag k="place" v="locality" />
		<tag k="ssr:stedsnr" v="706277" />
	</node>
	<node id="-145400" lat="60.6590999988" lon="9.70350555254">
		<tag k="name" v="Brennkastet" />
		<tag k="natural" v="slope" />
		<tag k="place" v="locality" />
		<tag k="ssr:stedsnr" v="706275" />
	</node>
	<node id="-145397" lat="60.715500004" lon="9.67411388687">
		<tag k="name" v="Garthuslie" />
		<tag k="natural" v="slope" />
		<tag k="place" v="locality" />
		<tag k="ssr:stedsnr" v="706202" />
	</node>
	<node id="-145394" lat="60.7432055594" lon="9.69915555353">
		<tag k="name" v="Klubbeberget" />
		<tag k="place" v="locality" />
		<tag k="ssr:stedsnr" v="706118" />
	</node>
	<node id="-145393" lat="60.5899583336" lon="9.81522778551">
		<tag k="name" v="Bræen" />
		<tag k="natural" v="hill" />
		<tag k="place" v="locality" />
		<tag k="ssr:stedsnr" v="701717" />
	</node>
	<node id="-145381" lat="60.7842361101" lon="9.59123333006">
		<tag k="fixme" v="consider natural=peak for the most distinct mountains in the district" />
		<tag k="name" v="Dølvesknatten" />
		<tag k="natural" v="hill" />
		<tag k="place" v="locality" />
		<tag k="ssr:stedsnr" v="676785" />
	</node>
	<node id="-145377" lat="60.8444749981" lon="9.43455000224">
		<tag k="fixme" v="consider natural=peak for the most distinct mountains in the district" />
		<tag k="name" v="Bølesåsen" />
		<tag k="natural" v="hill" />
		<tag k="place" v="locality" />
		<tag k="ssr:stedsnr" v="676625" />
	</node>
	<node id="-145370" lat="60.6141833332" lon="9.79320556259">
		<tag k="name" v="Gamlesæterpiggen" />
		<tag k="natural" v="hill" />
		<tag k="place" v="locality" />
		<tag k="ssr:stedsnr" v="675907" />
	</node>
	<node id="-145369" lat="60.6150361141" lon="9.81564167441">
		<tag k="name" v="Tamburhaugen" />
		<tag k="natural" v="hill" />
		<tag k="place" v="locality" />
		<tag k="ssr:stedsnr" v="675905" />
	</node>
	<node id="-145368" lat="60.6201305545" lon="9.78987777766">
		<tag k="name" v="Veslegardshøgda" />
		<tag k="natural" v="hill" />
		<tag k="place" v="locality" />
		<tag k="ssr:stedsnr" v="675906" />
	</node>
	<node id="-145361" lat="60.6704388864" lon="9.42665277118">
		<tag k="fixme" v="consider natural=peak for the most distinct mountains in the district" />
		<tag k="loc_name" v="Lauvhøgda" />
		<tag k="name" v="Lauvhøgdi" />
		<tag k="natural" v="hill" />
		<tag k="place" v="locality" />
		<tag k="ssr:stedsnr" v="675775" />
	</node>
	<node id="-143352" lat="60.654319441" lon="9.5423138817">
		<tag k="name" v="Østre Skålevasskollen" />
		<tag k="natural" v="hill" />
		<tag k="place" v="locality" />
		<tag k="ssr:stedsnr" v="282259" />
	</node>
	<node id="-145357" lat="60.6296694489" lon="9.87857776903">
		<tag k="fixme" v="consider natural=peak for the most distinct mountains in the district" />
		<tag k="name" v="Sørumsåsen" />
		<tag k="natural" v="hill" />
		<tag k="place" v="locality" />
		<tag k="ssr:stedsnr" v="674999" />
	</node>
	<node id="-145356" lat="60.7034138925" lon="9.73360277277">
		<tag k="alt_name" v="Rustbakkekollen" />
		<tag k="name" v="Rustebakkollen" />
		<tag k="natural" v="hill" />
		<tag k="place" v="locality" />
		<tag k="ssr:stedsnr" v="674993" />
	</node>
	<node id="-145355" lat="60.6198776092" lon="9.771792302">
		<tag k="alt_name" v="Jennlisfjellet" />
		<tag k="fixme" v="consider natural=peak for the most distinct mountains in the district" />
		<tag k="name" v="Jevnlisfjellet" />
		<tag k="natural" v="hill" />
		<tag k="place" v="locality" />
		<tag k="ssr:stedsnr" v="674989" />
	</node>
	<node id="-145352" lat="60.7135777818" lon="9.64445276913">
		<tag k="alt_name" v="Garthusvasshaugatn" />
		<tag k="name" v="Garthusvasshaugen" />
		<tag k="natural" v="hill" />
		<tag k="place" v="locality" />
		<tag k="ssr:stedsnr" v="674973" />
	</node>
	<node id="-145347" lat="60.7359027816" lon="9.62426943688">
		<tag k="alt_name" v="Køllehøgde" />
		<tag k="name" v="Kollehøgdi" />
		<tag k="natural" v="hill" />
		<tag k="place" v="locality" />
		<tag k="ssr:stedsnr" v="674940" />
	</node>
	<node id="-145346" lat="60.6559361075" lon="9.72102778268">
		<tag k="name" v="Langbråtaberget" />
		<tag k="natural" v="hill" />
		<tag k="place" v="locality" />
		<tag k="ssr:stedsnr" v="674938" />
	</node>
	<node id="-145343" lat="60.6651555556" lon="9.81136666116">
		<tag k="name" v="Ospeligjuvet" />
		<tag k="natural" v="valley" />
		<tag k="place" v="locality" />
		<tag k="ssr:stedsnr" v="674919" />
	</node>
	<node id="-145342" lat="60.6715055583" lon="9.83308333184">
		<tag k="name" v="Skardsæterkollen" />
		<tag k="natural" v="hill" />
		<tag k="place" v="locality" />
		<tag k="ssr:stedsnr" v="674916" />
	</node>
	<node id="-143349" lat="60.6442972201" lon="9.55031110855">
		<tag k="fixme" v="consider natural=peak for the most distinct mountains in the district" />
		<tag k="name" v="Petatskarven" />
		<tag k="natural" v="hill" />
		<tag k="place" v="locality" />
		<tag k="ssr:stedsnr" v="282236" />
	</node>
	<node id="-145339" lat="60.6011055586" lon="9.85800556428">
		<tag k="name" v="Merraleggdalen" />
		<tag k="natural" v="valley" />
		<tag k="place" v="locality" />
		<tag k="ssr:stedsnr" v="674902" />
	</node>
	<node id="-145333" lat="60.5423805519" lon="9.68583332889">
		<tag k="fixme" v="consider natural=peak for the most distinct mountains in the district" />
		<tag k="name" v="Mana" />
		<tag k="natural" v="hill" />
		<tag k="place" v="locality" />
		<tag k="ssr:stedsnr" v="674884" />
	</node>
	<node id="-143688" lat="60.7398611071" lon="9.78062500319">
		<tag k="name" v="Tverrberget" />
		<tag k="natural" v="hill" />
		<tag k="place" v="locality" />
		<tag k="ssr:stedsnr" v="403481" />
	</node>
	<node id="-145316" lat="60.743205552" lon="9.74348056221">
		<tag k="alt_name" v="Huldravasslie" />
		<tag k="name" v="Huldrevasslii" />
		<tag k="natural" v="slope" />
		<tag k="place" v="locality" />
		<tag k="ssr:stedsnr" v="674802" />
	</node>
	<node id="-145315" lat="60.5015111139" lon="9.73672778155">
		<tag k="alt_name" v="Storrustefjellet" />
		<tag k="fixme" v="consider natural=peak for the most distinct mountains in the district" />
		<tag k="name" v="Storrustefjell" />
		<tag k="natural" v="hill" />
		<tag k="place" v="locality" />
		<tag k="ssr:stedsnr" v="674755" />
	</node>
	<node id="-145305" lat="60.7709338256" lon="9.31467092861">
		<tag k="fixme" v="consider natural=peak for the most distinct mountains in the district" />
		<tag k="name" v="Flaget" />
		<tag k="natural" v="hill" />
		<tag k="ssr:stedsnr" v="665793" />
	</node>
	<node id="-145303" lat="60.7891555555" lon="9.3210694505">
		<tag k="name" v="Sangevieratn" />
		<tag k="natural" v="slope" />
		<tag k="place" v="locality" />
		<tag k="ssr:stedsnr" v="665788" />
	</node>
	<node id="-145302" lat="60.6734249996" lon="9.84131388295">
		<tag k="name" v="Hyttehalla" />
		<tag k="natural" v="slope" />
		<tag k="place" v="locality" />
		<tag k="ssr:stedsnr" v="665714" />
	</node>
	<node id="-144025" lat="60.7941638887" lon="9.61799722334">
		<tag k="fixme" v="consider natural=peak for the most distinct mountains in the district" />
		<tag k="name" v="Leiteberget" />
		<tag k="natural" v="hill" />
		<tag k="place" v="locality" />
		<tag k="ssr:stedsnr" v="70212" />
	</node>
	<node id="-145291" lat="60.7537055566" lon="9.63190833341">
		<tag k="name" v="Trøllestugu" />
		<tag k="place" v="locality" />
		<tag k="ssr:stedsnr" v="665227" />
	</node>
	<node id="-145289" lat="60.708697225" lon="9.55652499092">
		<tag k="name" v="Varpet" />
		<tag k="place" v="locality" />
		<tag k="ssr:stedsnr" v="665187" />
	</node>
	<node id="-145288" lat="60.7033722223" lon="9.60057778291">
		<tag k="name" v="Fluruskaret" />
		<tag k="natural" v="valley" />
		<tag k="place" v="locality" />
		<tag k="ssr:stedsnr" v="665178" />
	</node>
	<node id="-145287" lat="60.7686944403" lon="9.68406666429">
		<tag k="name" v="Skålin" />
		<tag k="place" v="locality" />
		<tag k="ssr:stedsnr" v="665176" />
	</node>
	<node id="-145286" lat="60.7907583351" lon="9.57183333824">
		<tag k="name" v="Køll" />
		<tag k="place" v="locality" />
		<tag k="ssr:stedsnr" v="665103" />
	</node>
	<node id="-145284" lat="60.7663694434" lon="9.57903888655">
		<tag k="name" v="Reset" />
		<tag k="natural" v="slope" />
		<tag k="place" v="locality" />
		<tag k="ssr:stedsnr" v="665091" />
	</node>
	<node id="-145283" lat="60.7476638916" lon="9.55296665898">
		<tag k="name" v="Struntebrøtin" />
		<tag k="natural" v="slope" />
		<tag k="place" v="locality" />
		<tag k="ssr:stedsnr" v="665074" />
	</node>
	<node id="-145282" lat="60.74706667" lon="9.59652222511">
		<tag k="name" v="Båleli" />
		<tag k="natural" v="slope" />
		<tag k="place" v="locality" />
		<tag k="ssr:stedsnr" v="665073" />
	</node>
	<node id="-145281" lat="60.76541111" lon="9.34584722132">
		<tag k="name" v="Tjernberget" />
		<tag k="natural" v="hill" />
		<tag k="old_name" v="Tjednberget" />
		<tag k="place" v="locality" />
		<tag k="ssr:stedsnr" v="664963" />
	</node>
	<node id="-145279" lat="60.8371666672" lon="9.4547222244">
		<tag k="name" v="Skinnrudbakkatn" />
		<tag k="natural" v="slope" />
		<tag k="place" v="locality" />
		<tag k="ssr:stedsnr" v="664852" />
	</node>
	<node id="-145277" lat="60.7243249977" lon="9.3329888814">
		<tag k="name" v="Raudalsveiro" />
		<tag k="place" v="locality" />
		<tag k="ssr:stedsnr" v="664846" />
	</node>
	<node id="-145275" lat="60.7029222217" lon="9.40848610648">
		<tag k="name" v="Geitryggen" />
		<tag k="natural" v="ridge" />
		<tag k="place" v="locality" />
		<tag k="ssr:stedsnr" v="664840" />
	</node>
	<node id="-145272" lat="60.7982916662" lon="9.39937500853">
		<tag k="name" v="Grønekinnhaugen" />
		<tag k="natural" v="hill" />
		<tag k="place" v="locality" />
		<tag k="ssr:stedsnr" v="664635" />
	</node>
	<node id="-145270" lat="60.8062333356" lon="9.39249722643">
		<tag k="name" v="Husehalle" />
		<tag k="natural" v="slope" />
		<tag k="place" v="locality" />
		<tag k="ssr:stedsnr" v="664625" />
	</node>
	<node id="-145269" lat="60.8081722211" lon="9.40918610587">
		<tag k="name" v="Karistølhalle" />
		<tag k="natural" v="slope" />
		<tag k="place" v="locality" />
		<tag k="ssr:stedsnr" v="664622" />
	</node>
	<node id="-145267" lat="60.8082805539" lon="9.436894451">
		<tag k="name" v="Kvannehufse" />
		<tag k="natural" v="slope" />
		<tag k="place" v="locality" />
		<tag k="ssr:stedsnr" v="664619" />
	</node>
	<node id="-145266" lat="60.8214194404" lon="9.35191111376">
		<tag k="name" v="Kavlebrennitn" />
		<tag k="natural" v="ridge" />
		<tag k="place" v="locality" />
		<tag k="ssr:stedsnr" v="664617" />
	</node>
	<node id="-145261" lat="60.8229444431" lon="9.62050834031">
		<tag k="name" v="Harabrennskaret" />
		<tag k="natural" v="valley" />
		<tag k="place" v="locality" />
		<tag k="ssr:stedsnr" v="660124" />
	</node>
	<node id="-145253" lat="60.8042277748" lon="9.6173499959">
		<tag k="name" v="Kleivitn" />
		<tag k="natural" v="slope" />
		<tag k="place" v="locality" />
		<tag k="ssr:stedsnr" v="645983" />
	</node>
	<node id="-145249" lat="60.76422222" lon="9.61736943831">
		<tag k="name" v="Veslesæterkøllin" />
		<tag k="natural" v="hill" />
		<tag k="place" v="locality" />
		<tag k="ssr:stedsnr" v="645908" />
	</node>
	<node id="-145248" lat="60.7647722256" lon="9.60445276972">
		<tag k="name" v="Kyrujellhaugatn" />
		<tag k="natural" v="hill" />
		<tag k="place" v="locality" />
		<tag k="ssr:stedsnr" v="645907" />
	</node>
	<node id="-145246" lat="60.7728888899" lon="9.61491389454">
		<tag k="name" v="Høgberget" />
		<tag k="place" v="locality" />
		<tag k="ssr:stedsnr" v="645878" />
	</node>
	<node id="-145244" lat="60.4901944489" lon="9.80318888172">
		<tag k="name" v="Dansarhaugen" />
		<tag k="natural" v="hill" />
		<tag k="place" v="locality" />
		<tag k="ssr:stedsnr" v="645814" />
	</node>
	<node id="-145239" lat="60.5740000013" lon="9.75886110466">
		<tag k="name" v="Lusedalen" />
		<tag k="natural" v="valley" />
		<tag k="place" v="locality" />
		<tag k="ssr:stedsnr" v="645692" />
	</node>
	<node id="-145233" lat="60.713738887" lon="9.80214443532">
		<tag k="name" v="Bergavasskaret" />
		<tag k="natural" v="valley" />
		<tag k="place" v="locality" />
		<tag k="ssr:stedsnr" v="645516" />
	</node>
	<node id="-145230" lat="60.6077222264" lon="9.55996666359">
		<tag k="name" v="Gohaug" />
		<tag k="natural" v="hill" />
		<tag k="place" v="locality" />
		<tag k="ssr:stedsnr" v="645360" />
	</node>
	<node id="-145229" lat="60.6871000013" lon="9.59010832684">
		<tag k="name" v="Gulslia" />
		<tag k="natural" v="slope" />
		<tag k="place" v="locality" />
		<tag k="ssr:stedsnr" v="645346" />
	</node>
	<node id="-145227" lat="60.6279027749" lon="9.70594999478">
		<tag k="fixme" v="consider natural=peak for the most distinct mountains in the district" />
		<tag k="name" v="Skartjernkollen" />
		<tag k="natural" v="hill" />
		<tag k="place" v="locality" />
		<tag k="ssr:stedsnr" v="645290" />
	</node>
	<node id="-145225" lat="60.6655083354" lon="9.71264999107">
		<tag k="fixme" v="consider natural=peak for the most distinct mountains in the district" />
		<tag k="name" v="Faksehaugkollen" />
		<tag k="natural" v="hill" />
		<tag k="place" v="locality" />
		<tag k="ssr:stedsnr" v="645266" />
	</node>
	<node id="-145223" lat="60.6384083328" lon="9.50716666001">
		<tag k="fixme" v="consider natural=peak for the most distinct mountains in the district" />
		<tag k="name" v="Klemetsrudhaugkollen" />
		<tag k="natural" v="hill" />
		<tag k="place" v="locality" />
		<tag k="ssr:stedsnr" v="645249" />
	</node>
	<node id="-145221" lat="60.727025004" lon="9.69968610665">
		<tag k="name" v="Haugaberget" />
		<tag k="place" v="locality" />
		<tag k="ssr:stedsnr" v="645195" />
	</node>
	<node id="-145217" lat="60.7611222237" lon="9.45091389642">
		<tag k="name" v="Nysæterberget" />
		<tag k="natural" v="hill" />
		<tag k="place" v="locality" />
		<tag k="ssr:stedsnr" v="645161" />
	</node>
	<node id="-145216" lat="60.762497222" lon="9.46402221524">
		<tag k="name" v="Ljøtemyrhaugen" />
		<tag k="natural" v="hill" />
		<tag k="place" v="locality" />
		<tag k="ssr:stedsnr" v="645158" />
	</node>
	<node id="-145214" lat="60.7075611108" lon="9.9281611175">
		<tag k="name" v="Gorotangen" />
		<tag k="place" v="locality" />
		<tag k="ssr:stedsnr" v="645105" />
	</node>
	<node id="-145207" lat="60.8160027736" lon="9.38339445202">
		<tag k="alt_name" v="Brendehaugen" />
		<tag k="name" v="Brennehaugen" />
		<tag k="natural" v="hill" />
		<tag k="place" v="locality" />
		<tag k="ssr:stedsnr" v="615845" />
	</node>
	<node id="-145200" lat="60.8502916672" lon="9.55210000811">
		<tag k="alt_name" v="Knatten" />
		<tag k="fixme" v="consider natural=peak for the most distinct mountains in the district" />
		<tag k="name" v="Jukamsknatten" />
		<tag k="natural" v="hill" />
		<tag k="place" v="locality" />
		<tag k="ssr:stedsnr" v="615634" />
	</node>
	<node id="-145195" lat="60.8245805593" lon="9.64050556199">
		<tag k="alt_name" v="Høgbrenne" />
		<tag k="fixme" v="consider natural=peak for the most distinct mountains in the district" />
		<tag k="name" v="Høgbrenni" />
		<tag k="natural" v="hill" />
		<tag k="place" v="locality" />
		<tag k="ssr:stedsnr" v="615169" />
	</node>
	<node id="-145190" lat="60.6758361152" lon="9.49393333789">
		<tag k="fixme" v="consider natural=peak for the most distinct mountains in the district" />
		<tag k="name" v="Hovdekollen" />
		<tag k="natural" v="hill" />
		<tag k="place" v="locality" />
		<tag k="ssr:stedsnr" v="614782" />
	</node>
	<node id="-145188" lat="60.6640972213" lon="9.56269722843">
		<tag k="alt_name" v="Kløftesteinåsen" />
		<tag k="fixme" v="consider natural=peak for the most distinct mountains in the district" />
		<tag k="name" v="Klovsteinåsen" />
		<tag k="natural" v="hill" />
		<tag k="place" v="locality" />
		<tag k="ssr:stedsnr" v="614771" />
	</node>
	<node id="-145181" lat="60.718998771" lon="9.9715869217">
		<tag k="name" v="Høgbrenna" />
		<tag k="natural" v="hill" />
		<tag k="place" v="locality" />
		<tag k="ssr:stedsnr" v="613984" />
	</node>
	<node id="-145178" lat="60.7139444456" lon="9.79692777934">
		<tag k="fixme" v="consider natural=peak for the most distinct mountains in the district" />
		<tag k="name" v="Storbråtasæterbrenna" />
		<tag k="natural" v="hill" />
		<tag k="place" v="locality" />
		<tag k="ssr:stedsnr" v="613978" />
	</node>
	<node id="-145175" lat="60.7201999986" lon="9.61870556015">
		<tag k="name" v="Havskollen" />
		<tag k="natural" v="hill" />
		<tag k="place" v="locality" />
		<tag k="ssr:stedsnr" v="613968" />
	</node>
	<node id="-144003" lat="60.5896499968" lon="9.53716110632">
		<tag k="fixme" v="consider natural=peak for the most distinct mountains in the district" />
		<tag k="name" v="Svartvikfjellet" />
		<tag k="natural" v="hill" />
		<tag k="place" v="locality" />
		<tag k="ssr:stedsnr" v="68810" />
	</node>
	<node id="-145168" lat="60.7276361139" lon="9.661324993">
		<tag k="name" v="Storliberget" />
		<tag k="natural" v="hill" />
		<tag k="place" v="locality" />
		<tag k="ssr:stedsnr" v="613932" />
	</node>
	<node id="-145164" lat="60.6760277776" lon="9.76175000727">
		<tag k="name" v="Rundhauglia" />
		<tag k="natural" v="slope" />
		<tag k="place" v="locality" />
		<tag k="ssr:stedsnr" v="613925" />
	</node>
	<node id="-145156" lat="60.6115833334" lon="9.63177221777">
		<tag k="alt_name" v="Knatten, s" />
		<tag k="name" v="Søre Knatten" />
		<tag k="natural" v="hill" />
		<tag k="place" v="locality" />
		<tag k="ssr:stedsnr" v="613891" />
	</node>
	<node id="-145153" lat="60.6236138931" lon="9.87779166223">
		<tag k="alt_name" v="Møllberget" />
		<tag k="name" v="Moldberget" />
		<tag k="natural" v="hill" />
		<tag k="place" v="locality" />
		<tag k="ssr:stedsnr" v="613886" />
	</node>
	<node id="-145151" lat="60.6161638892" lon="9.62340278493">
		<tag k="alt_name" v="Knatten, nordre" />
		<tag k="name" v="Nordre Knatten" />
		<tag k="natural" v="hill" />
		<tag k="place" v="locality" />
		<tag k="ssr:stedsnr" v="613880" />
	</node>
	<node id="-145145" lat="60.5575833373" lon="9.79291388902">
		<tag k="alt_name" v="Tølleberget" />
		<tag k="name" v="Tolleberget" />
		<tag k="natural" v="hill" />
		<tag k="place" v="locality" />
		<tag k="ssr:stedsnr" v="613827" />
	</node>
	<node id="-145134" lat="60.6142055589" lon="9.5442361193">
		<tag k="fixme" v="consider natural=peak for the most distinct mountains in the district" />
		<tag k="name" v="Høgbrenna" />
		<tag k="natural" v="hill" />
		<tag k="place" v="locality" />
		<tag k="ssr:stedsnr" v="613666" />
	</node>
	<node id="-145133" lat="60.6366888867" lon="9.4803250026">
		<tag k="fixme" v="consider natural=peak for the most distinct mountains in the district" />
		<tag k="name" v="Skjenfjellet" />
		<tag k="natural" v="hill" />
		<tag k="place" v="locality" />
		<tag k="ssr:stedsnr" v="613635" />
	</node>
	<node id="-145131" lat="60.6231166658" lon="9.54959722351">
		<tag k="fixme" v="consider natural=peak for the most distinct mountains in the district" />
		<tag k="name" v="Skurveknatten" />
		<tag k="natural" v="hill" />
		<tag k="place" v="locality" />
		<tag k="ssr:stedsnr" v="613619" />
	</node>
	<node id="-145129" lat="60.628249996" lon="9.52466111766">
		<tag k="alt_name" v="Helsenningsberget" />
		<tag k="fixme" v="consider natural=peak for the most distinct mountains in the district" />
		<tag k="name" v="Hellsenningsberget" />
		<tag k="natural" v="hill" />
		<tag k="place" v="locality" />
		<tag k="ssr:stedsnr" v="613616" />
	</node>
	<node id="-145124" lat="60.7754222196" lon="9.40990833699">
		<tag k="name" v="Vardetinden" />
		<tag k="natural" v="hill" />
		<tag k="place" v="locality" />
		<tag k="ssr:stedsnr" v="604956" />
	</node>
	<node id="-145120" lat="60.6492972202" lon="9.40779721444">
		<tag k="name" v="Endresæterlia" />
		<tag k="natural" v="slope" />
		<tag k="place" v="locality" />
		<tag k="ssr:stedsnr" v="604800" />
	</node>
	<node id="-145119" lat="60.5923249996" lon="9.66451111619">
		<tag k="name" v="Brennsæterhaugen" />
		<tag k="natural" v="hill" />
		<tag k="place" v="locality" />
		<tag k="ssr:stedsnr" v="604777" />
	</node>
	<node id="-145117" lat="60.591544447" lon="9.62560834095">
		<tag k="name" v="Sletten" />
		<tag k="place" v="locality" />
		<tag k="ssr:stedsnr" v="604769" />
	</node>
	<node id="-145116" lat="60.8177694434" lon="9.41943334092">
		<tag k="name" v="Haraslette" />
		<tag k="place" v="locality" />
		<tag k="ssr:stedsnr" v="604681" />
	</node>
	<node id="-145115" lat="60.8149527773" lon="9.35765278094">
		<tag k="name" v="Kavlelie" />
		<tag k="natural" v="slope" />
		<tag k="place" v="locality" />
		<tag k="ssr:stedsnr" v="604672" />
	</node>
	<node id="-145114" lat="60.8333694449" lon="9.3726250051">
		<tag k="fixme" v="consider natural=peak for the most distinct mountains in the district" />
		<tag k="name" v="Skardafjellet" />
		<tag k="natural" v="hill" />
		<tag k="place" v="locality" />
		<tag k="ssr:stedsnr" v="604653" />
	</node>
	<node id="-145113" lat="60.8270777739" lon="9.34401110467">
		<tag k="name" v="Styggehalle" />
		<tag k="natural" v="slope" />
		<tag k="place" v="locality" />
		<tag k="ssr:stedsnr" v="604651" />
	</node>
	<node id="-145110" lat="60.6255805553" lon="9.77973889345">
		<tag k="name" v="Gjuvet" />
		<tag k="natural" v="gorge" />
		<tag k="ssr:stedsnr" v="604514" />
	</node>
	<node id="-145109" lat="60.5924722184" lon="9.70646388629">
		<tag k="name" v="Bragerbergene" />
		<tag k="place" v="locality" />
		<tag k="ssr:stedsnr" v="604483" />
	</node>
	<node id="-145107" lat="60.7500111101" lon="9.53685278133">
		<tag k="name" v="Sjuputthøgde" />
		<tag k="natural" v="hill" />
		<tag k="place" v="locality" />
		<tag k="ssr:stedsnr" v="604456" />
	</node>
	<node id="-145106" lat="60.7383944429" lon="9.51819722828">
		<tag k="name" v="Køllaslette" />
		<tag k="place" v="locality" />
		<tag k="ssr:stedsnr" v="604450" />
	</node>
	<node id="-145105" lat="60.6964111129" lon="9.54083611686">
		<tag k="name" v="Reinsjødalen" />
		<tag k="natural" v="valley" />
		<tag k="place" v="locality" />
		<tag k="ssr:stedsnr" v="604449" />
	</node>
	<node id="-145104" lat="60.7027583308" lon="9.50993332674">
		<tag k="name" v="Gråberget" />
		<tag k="natural" v="hill" />
		<tag k="place" v="locality" />
		<tag k="ssr:stedsnr" v="604447" />
	</node>
	<node id="-145100" lat="60.7081388911" lon="9.55341389347">
		<tag k="name" v="Kvilaren" />
		<tag k="natural" v="hill" />
		<tag k="place" v="locality" />
		<tag k="ssr:stedsnr" v="604195" />
	</node>
	<node id="-145098" lat="60.7694388886" lon="9.68620555574">
		<tag k="name" v="Gølleiksrenna" />
		<tag k="natural" v="valley" />
		<tag k="place" v="locality" />
		<tag k="ssr:stedsnr" v="604187" />
	</node>
	<node id="-145096" lat="60.7916027773" lon="9.71617500245">
		<tag k="name" v="Høgøydgardshaugen" />
		<tag k="natural" v="hill" />
		<tag k="place" v="locality" />
		<tag k="ssr:stedsnr" v="604180" />
	</node>
	<node id="-145093" lat="60.7537083293" lon="9.73421944425">
		<tag k="fixme" v="consider natural=peak for the most distinct mountains in the district" />
		<tag k="name" v="Gråskallin" />
		<tag k="natural" v="hill" />
		<tag k="place" v="locality" />
		<tag k="ssr:stedsnr" v="604151" />
	</node>
	<node id="-145088" lat="60.8228388932" lon="9.66497778501">
		<tag k="name" v="Smetbakhalle" />
		<tag k="natural" v="slope" />
		<tag k="place" v="locality" />
		<tag k="ssr:stedsnr" v="604088" />
	</node>
	<node id="-145081" lat="60.7278222227" lon="9.34476666656">
		<tag k="name" v="Gråberget" />
		<tag k="natural" v="hill" />
		<tag k="place" v="locality" />
		<tag k="ssr:stedsnr" v="603830" />
	</node>
	<node id="-145077" lat="60.571558337" lon="9.80082499489">
		<tag k="name" v="Bukollen" />
		<tag k="natural" v="hill" />
		<tag k="place" v="locality" />
		<tag k="ssr:stedsnr" v="603720" />
	</node>
	<node id="-145066" lat="60.8228000032" lon="9.58022222893">
		<tag k="name" v="Jordesberget" />
		<tag k="place" v="locality" />
		<tag k="ssr:stedsnr" v="585968" />
	</node>
	<node id="-145065" lat="60.8099805543" lon="9.57239166016">
		<tag k="name" v="Gudbrandberget" />
		<tag k="natural" v="slope" />
		<tag k="place" v="locality" />
		<tag k="ssr:stedsnr" v="585964" />
	</node>
	<node id="-145063" lat="60.7763583298" lon="9.63057222937">
		<tag k="name" v="Øylundberget" />
		<tag k="place" v="locality" />
		<tag k="ssr:stedsnr" v="585882" />
	</node>
	<node id="-145055" lat="60.5174083309" lon="9.81219722584">
		<tag k="name" v="Geitryggen" />
		<tag k="natural" v="hill" />
		<tag k="place" v="locality" />
		<tag k="ssr:stedsnr" v="585770" />
	</node>
	<node id="-145051" lat="60.864636111" lon="9.48322500368">
		<tag k="name" v="Ereksbrøtatn" />
		<tag k="natural" v="slope" />
		<tag k="place" v="locality" />
		<tag k="ssr:stedsnr" v="585720" />
	</node>
	<node id="-145048" lat="60.7919361067" lon="9.3568111069">
		<tag k="name" v="Vieratn" />
		<tag k="place" v="locality" />
		<tag k="ssr:stedsnr" v="585547" />
	</node>
	<node id="-145043" lat="60.6583833301" lon="9.46940000569">
		<tag k="fixme" v="consider natural=peak for the most distinct mountains in the district" />
		<tag k="name" v="Muggedalshøgda" />
		<tag k="natural" v="hill" />
		<tag k="place" v="locality" />
		<tag k="ssr:stedsnr" v="585269" />
	</node>
	<node id="-145035" lat="60.6448916661" lon="9.70671389597">
		<tag k="fixme" v="consider natural=peak for the most distinct mountains in the district" />
		<tag k="name" v="Bergekollen" />
		<tag k="natural" v="hill" />
		<tag k="place" v="locality" />
		<tag k="ssr:stedsnr" v="585243" />
	</node>
	<node id="-145033" lat="60.6259472206" lon="9.58245555958">
		<tag k="name" v="Svartskarberga" />
		<tag k="place" v="locality" />
		<tag k="ssr:stedsnr" v="585232" />
	</node>
	<node id="-145032" lat="60.7334722222" lon="9.69291943542">
		<tag k="name" v="Skaret" />
		<tag k="natural" v="valley" />
		<tag k="place" v="locality" />
		<tag k="ssr:stedsnr" v="585204" />
	</node>
	<node id="-143637" lat="60.6885249989" lon="9.92705834025">
		<tag k="alt_name" v="Godhaug, s" />
		<tag k="name" v="Søre Godhaug" />
		<tag k="natural" v="hill" />
		<tag k="place" v="locality" />
		<tag k="ssr:stedsnr" v="371927" />
	</node>
	<node id="-145019" lat="60.7659333323" lon="9.29561110779">
		<tag k="alt_name" v="Syningen, lille" />
		<tag k="fixme" v="multiple name tags, choose one and add the other to alt_name; consider natural=peak for the most distinct mountains in the district" />
		<tag k="name" v="Heimre Syningen;Vesle Syningen" />
		<tag k="natural" v="hill" />
		<tag k="old_name" v="Lille Syningen" />
		<tag k="place" v="locality" />
		<tag k="ssr:stedsnr" v="555789" />
	</node>
	<node id="-145014" lat="60.7518888855" lon="9.30338611536">
		<tag k="name" v="Rabalskardet" />
		<tag k="natural" v="valley" />
		<tag k="place" v="locality" />
		<tag k="ssr:stedsnr" v="555724" />
	</node>
	<node id="-144988" lat="60.7217499982" lon="9.79057499453">
		<tag k="alt_name" v="Tjuvhanskøllin" />
		<tag k="name" v="Tjuvhanskollen" />
		<tag k="natural" v="hill" />
		<tag k="place" v="locality" />
		<tag k="ssr:stedsnr" v="553950" />
	</node>
	<node id="-144984" lat="60.6277361082" lon="9.83820554894">
		<tag k="fixme" v="consider natural=peak for the most distinct mountains in the district" />
		<tag k="name" v="Skurveknatten" />
		<tag k="natural" v="hill" />
		<tag k="place" v="locality" />
		<tag k="ssr:stedsnr" v="553896" />
	</node>
	<node id="-144981" lat="60.512436111" lon="9.65823332826">
		<tag k="alt_name" v="Dyttholknatten" />
		<tag k="fixme" v="consider natural=peak for the most distinct mountains in the district" />
		<tag k="name" v="Søre Dyttholknatten" />
		<tag k="natural" v="hill" />
		<tag k="place" v="locality" />
		<tag k="ssr:stedsnr" v="553873" />
	</node>
	<node id="-144976" lat="60.5603194456" lon="9.62558889133">
		<tag k="fixme" v="consider natural=peak for the most distinct mountains in the district" />
		<tag k="name" v="Langtjernkollen" />
		<tag k="natural" v="hill" />
		<tag k="place" v="locality" />
		<tag k="ssr:stedsnr" v="553822" />
	</node>
	<node id="-144975" lat="60.5928851429" lon="9.46320678928">
		<tag k="alt_name" v="Slapiggen" />
		<tag k="fixme" v="consider natural=peak for the most distinct mountains in the district" />
		<tag k="name" v="Slakollen" />
		<tag k="natural" v="hill" />
		<tag k="place" v="locality" />
		<tag k="ssr:stedsnr" v="553818" />
	</node>
	<node id="-144974" lat="60.5833972207" lon="9.56045556416">
		<tag k="fixme" v="consider natural=peak for the most distinct mountains in the district" />
		<tag k="name" v="Trevasskolla" />
		<tag k="natural" v="hill" />
		<tag k="place" v="locality" />
		<tag k="ssr:stedsnr" v="553817" />
	</node>
	<node id="-143627" lat="60.5528027775" lon="9.63178889538">
		<tag k="name" v="Hestehøgda" />
		<tag k="natural" v="hill" />
		<tag k="place" v="locality" />
		<tag k="ssr:stedsnr" v="371835" />
	</node>
	<node id="-144958" lat="60.7407000029" lon="9.35391389202">
		<tag k="fixme" v="multiple name tags, choose one and add the other to alt_name" />
		<tag k="name" v="Revshaugen;Røvshøvda" />
		<tag k="natural" v="hill" />
		<tag k="place" v="locality" />
		<tag k="ssr:stedsnr" v="553502" />
	</node>
	<node id="-144940" lat="60.4993750041" lon="9.73265277794">
		<tag k="fixme" v="consider natural=peak for the most distinct mountains in the district" />
		<tag k="name" v="Storekrakkollen" />
		<tag k="natural" v="hill" />
		<tag k="place" v="locality" />
		<tag k="ssr:stedsnr" v="552858" />
	</node>
	<node id="-144939" lat="60.5835666654" lon="9.77181110684">
		<tag k="fixme" v="consider natural=peak for the most distinct mountains in the district" />
		<tag k="name" v="Gråskallen" />
		<tag k="natural" v="hill" />
		<tag k="place" v="locality" />
		<tag k="ssr:stedsnr" v="552844" />
	</node>
	<node id="-144937" lat="60.6863611087" lon="9.33367221565">
		<tag k="alt_name" v="Rivoppknatten" />
		<tag k="fixme" v="consider natural=peak for the most distinct mountains in the district" />
		<tag k="name" v="Rivoppkollen" />
		<tag k="natural" v="hill" />
		<tag k="place" v="locality" />
		<tag k="ssr:stedsnr" v="552734" />
	</node>
	<node id="-144933" lat="60.6777583367" lon="9.33176943652">
		<tag k="name" v="Valdreslie" />
		<tag k="natural" v="slope" />
		<tag k="place" v="locality" />
		<tag k="ssr:stedsnr" v="544877" />
	</node>
	<node id="-144932" lat="60.6392861126" lon="9.82561389436">
		<tag k="name" v="Rustelia" />
		<tag k="natural" v="slope" />
		<tag k="place" v="locality" />
		<tag k="ssr:stedsnr" v="544718" />
	</node>
	<node id="-143963" lat="60.79021111" lon="9.63540556178">
		<tag k="name" v="Kølskåledalen" />
		<tag k="natural" v="valley" />
		<tag k="place" v="locality" />
		<tag k="ssr:stedsnr" v="58905" />
	</node>
	<node id="-144925" lat="60.7694777777" lon="9.38154999701">
		<tag k="fixme" v="consider natural=peak for the most distinct mountains in the district" />
		<tag k="name" v="Heimskarknatten" />
		<tag k="natural" v="hill" />
		<tag k="place" v="locality" />
		<tag k="ssr:stedsnr" v="543986" />
	</node>
	<node id="-144923" lat="60.7324388921" lon="9.41715555124">
		<tag k="name" v="Heggebulie" />
		<tag k="natural" v="slope" />
		<tag k="place" v="locality" />
		<tag k="ssr:stedsnr" v="543912" />
	</node>
	<node id="-144920" lat="60.8373527765" lon="9.51935277514">
		<tag k="name" v="Klovoberget" />
		<tag k="natural" v="hill" />
		<tag k="place" v="locality" />
		<tag k="ssr:stedsnr" v="543818" />
	</node>
	<node id="-144918" lat="60.757741668" lon="9.30163056123">
		<tag k="name" v="Vassvøllviero" />
		<tag k="natural" v="slope" />
		<tag k="place" v="locality" />
		<tag k="ssr:stedsnr" v="543764" />
	</node>
	<node id="-144916" lat="60.8274361115" lon="9.40630555294">
		<tag k="fixme" v="consider natural=peak for the most distinct mountains in the district" />
		<tag k="name" v="Vestretempelen" />
		<tag k="natural" v="hill" />
		<tag k="place" v="locality" />
		<tag k="ssr:stedsnr" v="543747" />
	</node>
	<node id="-144913" lat="60.6223055571" lon="9.77638054728">
		<tag k="name" v="Skartjernkollen" />
		<tag k="natural" v="hill" />
		<tag k="place" v="locality" />
		<tag k="ssr:stedsnr" v="543495" />
	</node>
	<node id="-144911" lat="60.6037166656" lon="9.77124721975">
		<tag k="fixme" v="consider natural=peak for the most distinct mountains in the district" />
		<tag k="name" v="Brakahaugkollen" />
		<tag k="natural" v="hill" />
		<tag k="place" v="locality" />
		<tag k="ssr:stedsnr" v="543449" />
	</node>
	<node id="-144905" lat="60.6251333345" lon="9.7098916712">
		<tag k="name" v="Skarshaug" />
		<tag k="natural" v="hill" />
		<tag k="place" v="locality" />
		<tag k="ssr:stedsnr" v="543367" />
	</node>
	<node id="-144895" lat="60.7192694434" lon="9.97746944418">
		<tag k="name" v="Brenna" />
		<tag k="natural" v="hill" />
		<tag k="place" v="locality" />
		<tag k="ssr:stedsnr" v="543100" />
	</node>
	<node id="-144894" lat="60.7845472239" lon="9.56047221898">
		<tag k="name" v="Sæterberget" />
		<tag k="natural" v="hill" />
		<tag k="place" v="locality" />
		<tag k="ssr:stedsnr" v="543092" />
	</node>
	<node id="-144891" lat="60.6590083325" lon="9.90591388942">
		<tag k="name" v="Hauga" />
		<tag k="natural" v="hill" />
		<tag k="place" v="locality" />
		<tag k="ssr:stedsnr" v="543009" />
	</node>
	<node id="-144885" lat="60.8267666652" lon="9.64657499602">
		<tag k="name" v="Liabekkdalen" />
		<tag k="natural" v="valley" />
		<tag k="place" v="locality" />
		<tag k="ssr:stedsnr" v="524995" />
	</node>
	<node id="-144883" lat="60.8008111077" lon="9.58861111983">
		<tag k="name" v="Ørnekøllin" />
		<tag k="place" v="locality" />
		<tag k="ssr:stedsnr" v="524989" />
	</node>
	<node id="-144880" lat="60.8083444405" lon="9.59887221739">
		<tag k="name" v="Leirdikibrenna" />
		<tag k="natural" v="slope" />
		<tag k="place" v="locality" />
		<tag k="ssr:stedsnr" v="524957" />
	</node>
	<node id="-144879" lat="60.814186114" lon="9.57294166732">
		<tag k="name" v="Skyttarberget" />
		<tag k="natural" v="slope" />
		<tag k="place" v="locality" />
		<tag k="ssr:stedsnr" v="524955" />
	</node>
	<node id="-144878" lat="60.7239722212" lon="9.45320554867">
		<tag k="name" v="Sengitn" />
		<tag k="natural" v="hill" />
		<tag k="place" v="locality" />
		<tag k="ssr:stedsnr" v="524902" />
	</node>
	<node id="-144876" lat="60.5001138885" lon="9.68917223001">
		<tag k="name" v="Nysæterkvelven" />
		<tag k="natural" v="slope" />
		<tag k="old_name" v="Nyæterkvelven" />
		<tag k="place" v="locality" />
		<tag k="ssr:stedsnr" v="524811" />
	</node>
	<node id="-143954" lat="60.5648527744" lon="9.78643055057">
		<tag k="name" v="Stillingsdalen" />
		<tag k="natural" v="valley" />
		<tag k="place" v="locality" />
		<tag k="ssr:stedsnr" v="58745" />
	</node>
	<node id="-144874" lat="60.5704277809" lon="9.77901111993">
		<tag k="name" v="Tøllehaugen" />
		<tag k="natural" v="hill" />
		<tag k="place" v="locality" />
		<tag k="ssr:stedsnr" v="524665" />
	</node>
	<node id="-144870" lat="60.7258805573" lon="9.86274722538">
		<tag k="name" v="Tverrvasspiggen" />
		<tag k="natural" v="hill" />
		<tag k="place" v="locality" />
		<tag k="ssr:stedsnr" v="524486" />
	</node>
	<node id="-144868" lat="60.8010027795" lon="9.79370832821">
		<tag k="name" v="Løkhøgda" />
		<tag k="natural" v="hill" />
		<tag k="place" v="locality" />
		<tag k="ssr:stedsnr" v="524432" />
	</node>
	<node id="-144867" lat="60.7650888907" lon="9.7917749968">
		<tag k="name" v="Bjønnaåte" />
		<tag k="place" v="locality" />
		<tag k="ssr:stedsnr" v="524422" />
	</node>
	<node id="-144865" lat="60.6144527769" lon="9.61938888261">
		<tag k="name" v="Sæterknatten" />
		<tag k="natural" v="hill" />
		<tag k="place" v="locality" />
		<tag k="ssr:stedsnr" v="524399" />
	</node>
	<node id="-144862" lat="60.6263666648" lon="9.68833332877">
		<tag k="name" v="Bergsbakken" />
		<tag k="natural" v="slope" />
		<tag k="place" v="locality" />
		<tag k="ssr:stedsnr" v="524277" />
	</node>
	<node id="-144859" lat="60.6544277751" lon="9.70747500844">
		<tag k="name" v="Bergeslette" />
		<tag k="place" v="locality" />
		<tag k="ssr:stedsnr" v="524251" />
	</node>
	<node id="-144857" lat="60.6443305518" lon="9.55349444769">
		<tag k="name" v="Nybrenn" />
		<tag k="natural" v="slope" />
		<tag k="place" v="locality" />
		<tag k="ssr:stedsnr" v="524243" />
	</node>
	<node id="-144854" lat="60.7305888881" lon="9.67418888639">
		<tag k="name" v="Sæterbrøtin" />
		<tag k="natural" v="slope" />
		<tag k="place" v="locality" />
		<tag k="ssr:stedsnr" v="524183" />
	</node>
	<node id="-144853" lat="60.7229166671" lon="9.67557500627">
		<tag k="name" v="Gråberget" />
		<tag k="natural" v="hill" />
		<tag k="place" v="locality" />
		<tag k="ssr:stedsnr" v="524180" />
	</node>
	<node id="-144845" lat="60.7895083333" lon="9.61359166908">
		<tag k="name" v="Bjørnaskardet" />
		<tag k="natural" v="valley" />
		<tag k="place" v="locality" />
		<tag k="ssr:stedsnr" v="495166" />
	</node>
	<node id="-144841" lat="60.7996361088" lon="9.50337499636">
		<tag k="name" v="Ranangsknatten" />
		<tag k="natural" v="hill" />
		<tag k="place" v="locality" />
		<tag k="ssr:stedsnr" v="494827" />
	</node>
	<node id="-143948" lat="60.7769527779" lon="9.38928889594">
		<tag k="name" v="Steinvasshøgde" />
		<tag k="natural" v="hill" />
		<tag k="place" v="locality" />
		<tag k="ssr:stedsnr" v="58679" />
	</node>
	<node id="-143606" lat="60.6018833292" lon="9.91546111419">
		<tag k="name" v="Strømshaugen" />
		<tag k="natural" v="hill" />
		<tag k="place" v="locality" />
		<tag k="ssr:stedsnr" v="370926" />
	</node>
	<node id="-144831" lat="60.7621861078" lon="9.3794833351">
		<tag k="name" v="Bjødalen" />
		<tag k="natural" v="valley" />
		<tag k="place" v="locality" />
		<tag k="ssr:stedsnr" v="494737" />
	</node>
	<node id="-144830" lat="60.7579370266" lon="9.35397954478">
		<tag k="fixme" v="multiple name tags, choose one and add the other to alt_name" />
		<tag k="name" v="Kvanneskardet;Øytjernskaret" />
		<tag k="natural" v="valley" />
		<tag k="old_name" v="Øytjednskaret" />
		<tag k="place" v="locality" />
		<tag k="ssr:stedsnr" v="494726" />
	</node>
	<node id="-144827" lat="60.7827694473" lon="9.37581111403">
		<tag k="fixme" v="consider natural=peak for the most distinct mountains in the district" />
		<tag k="name" v="Bjødalskampen" />
		<tag k="natural" v="hill" />
		<tag k="place" v="locality" />
		<tag k="ssr:stedsnr" v="494566" />
	</node>
	<node id="-144821" lat="60.7723138876" lon="9.68061944735">
		<tag k="name" v="Liabekkdalen" />
		<tag k="natural" v="valley" />
		<tag k="place" v="locality" />
		<tag k="ssr:stedsnr" v="494118" />
	</node>
	<node id="-144819" lat="60.6346916631" lon="9.92090555614">
		<tag k="name" v="Puttekollen" />
		<tag k="natural" v="hill" />
		<tag k="place" v="locality" />
		<tag k="ssr:stedsnr" v="492998" />
	</node>
	<node id="-144818" lat="60.6405638923" lon="9.90911389124">
		<tag k="name" v="Saglia" />
		<tag k="natural" v="slope" />
		<tag k="place" v="locality" />
		<tag k="ssr:stedsnr" v="492981" />
	</node>
	<node id="-144814" lat="60.7259333349" lon="9.67333610686">
		<tag k="alt_name" v="Hovdeknatten" />
		<tag k="name" v="Hovdhøgdi" />
		<tag k="natural" v="hill" />
		<tag k="place" v="locality" />
		<tag k="ssr:stedsnr" v="492966" />
	</node>
	<node id="-144812" lat="60.7325277797" lon="9.89112500639">
		<tag k="name" v="Fiskebudalen" />
		<tag k="natural" v="valley" />
		<tag k="place" v="locality" />
		<tag k="ssr:stedsnr" v="492959" />
	</node>
	<node id="-144810" lat="60.6627861117" lon="9.87267222101">
		<tag k="name" v="Knebergskollen" />
		<tag k="natural" v="hill" />
		<tag k="place" v="locality" />
		<tag k="ssr:stedsnr" v="492944" />
	</node>
	<node id="-144809" lat="60.6616194425" lon="9.89962777014">
		<tag k="name" v="Gurohytthøgda" />
		<tag k="natural" v="hill" />
		<tag k="place" v="locality" />
		<tag k="ssr:stedsnr" v="492943" />
	</node>
	<node id="-144807" lat="60.7290777777" lon="9.70103056136">
		<tag k="alt_name" v="Lauvlie" />
		<tag k="name" v="Lauvlii" />
		<tag k="natural" v="slope" />
		<tag k="place" v="locality" />
		<tag k="ssr:stedsnr" v="492941" />
	</node>
	<node id="-144802" lat="60.6058416657" lon="9.90777499475">
		<tag k="name" v="Kaldebrenna" />
		<tag k="natural" v="slope" />
		<tag k="place" v="locality" />
		<tag k="ssr:stedsnr" v="492912" />
	</node>
	<node id="-144793" lat="60.5186805562" lon="9.62777777514">
		<tag k="alt_name" v="Dyttholknatten, nordre" />
		<tag k="fixme" v="consider natural=peak for the most distinct mountains in the district" />
		<tag k="name" v="Nordre Dyttholknatten" />
		<tag k="natural" v="hill" />
		<tag k="place" v="locality" />
		<tag k="ssr:stedsnr" v="492860" />
	</node>
	<node id="-144789" lat="60.7394805512" lon="9.75402500425">
		<tag k="alt_name" v="Gravvasskøllin" />
		<tag k="name" v="Gravvasskollen" />
		<tag k="natural" v="hill" />
		<tag k="place" v="locality" />
		<tag k="ssr:stedsnr" v="492799" />
	</node>
	<node id="-144780" lat="60.6793638852" lon="9.55606111374">
		<tag k="fixme" v="consider natural=peak for the most distinct mountains in the district" />
		<tag k="name" v="Bjørnsonvollkollen" />
		<tag k="natural" v="hill" />
		<tag k="place" v="locality" />
		<tag k="ssr:stedsnr" v="492670" />
	</node>
	<node id="-144773" lat="60.7301166663" lon="9.33230000686">
		<tag k="fixme" v="consider natural=peak for the most distinct mountains in the district" />
		<tag k="name" v="Kvilingberget" />
		<tag k="natural" v="hill" />
		<tag k="place" v="locality" />
		<tag k="ssr:stedsnr" v="492508" />
	</node>
	<node id="-144770" lat="60.7742111073" lon="9.3199388822">
		<tag k="name" v="Kyrkjehaugatn" />
		<tag k="natural" v="hill" />
		<tag k="place" v="locality" />
		<tag k="ssr:stedsnr" v="483810" />
	</node>
	<node id="-144768" lat="60.5837416642" lon="9.65512222949">
		<tag k="name" v="Storseilen" />
		<tag k="natural" v="valley" />
		<tag k="place" v="locality" />
		<tag k="ssr:stedsnr" v="483803" />
	</node>
	<node id="-144767" lat="60.7440777811" lon="9.33808056447">
		<tag k="name" v="Røvshøvdavieratn" />
		<tag k="place" v="locality" />
		<tag k="ssr:stedsnr" v="483990" />
	</node>
	<node id="-144763" lat="60.7838805572" lon="9.63853888331">
		<tag k="name" v="Sveinedokke" />
		<tag k="natural" v="slope" />
		<tag k="place" v="locality" />
		<tag k="ssr:stedsnr" v="483914" />
	</node>
	<node id="-144758" lat="60.8298444477" lon="9.3856805592">
		<tag k="name" v="Kavlelie" />
		<tag k="natural" v="slope" />
		<tag k="place" v="locality" />
		<tag k="ssr:stedsnr" v="483794" />
	</node>
	<node id="-143593" lat="60.7866916632" lon="9.61024444905">
		<tag k="name" v="Vikeberget" />
		<tag k="place" v="locality" />
		<tag k="ssr:stedsnr" v="361902" />
	</node>
	<node id="-144753" lat="60.7963916665" lon="9.41209999633">
		<tag k="name" v="Bergahalle" />
		<tag k="natural" v="slope" />
		<tag k="place" v="locality" />
		<tag k="ssr:stedsnr" v="483687" />
	</node>
	<node id="-144752" lat="60.8074472187" lon="9.41473055439">
		<tag k="name" v="Roahaugen" />
		<tag k="natural" v="hill" />
		<tag k="place" v="locality" />
		<tag k="ssr:stedsnr" v="483678" />
	</node>
	<node id="-144748" lat="60.5908833295" lon="9.69268054638">
		<tag k="name" v="Maribrennhøgda" />
		<tag k="natural" v="hill" />
		<tag k="place" v="locality" />
		<tag k="ssr:stedsnr" v="483508" />
	</node>
	<node id="-144746" lat="60.6027277821" lon="9.759427776">
		<tag k="name" v="Gråbeindalen" />
		<tag k="natural" v="valley" />
		<tag k="place" v="locality" />
		<tag k="ssr:stedsnr" v="483504" />
	</node>
	<node id="-144744" lat="60.7483944427" lon="9.54635000238">
		<tag k="name" v="Steinbrøtaleet" />
		<tag k="place" v="locality" />
		<tag k="ssr:stedsnr" v="483481" />
	</node>
	<node id="-144743" lat="60.7294555557" lon="9.50613333106">
		<tag k="name" v="Kloppmyrhaugatn" />
		<tag k="natural" v="hill" />
		<tag k="place" v="locality" />
		<tag k="ssr:stedsnr" v="483475" />
	</node>
	<node id="-144741" lat="60.7341444436" lon="9.52822222545">
		<tag k="name" v="Seseldørra" />
		<tag k="place" v="locality" />
		<tag k="ssr:stedsnr" v="483472" />
	</node>
	<node id="-143590" lat="60.8289888855" lon="9.54392778542">
		<tag k="name" v="Kleivabrøtin" />
		<tag k="natural" v="slope" />
		<tag k="place" v="locality" />
		<tag k="ssr:stedsnr" v="361811" />
	</node>
	<node id="-144734" lat="60.7536722232" lon="9.49736667047">
		<tag k="name" v="Flishøvlen" />
		<tag k="place" v="locality" />
		<tag k="ssr:stedsnr" v="483245" />
	</node>
	<node id="-143589" lat="60.6302138892" lon="9.39751111108">
		<tag k="name" v="Høgdehaugen" />
		<tag k="natural" v="hill" />
		<tag k="place" v="locality" />
		<tag k="ssr:stedsnr" v="361793" />
	</node>
	<node id="-144732" lat="60.783533337" lon="9.69127777345">
		<tag k="name" v="Tømtebakkin" />
		<tag k="natural" v="slope" />
		<tag k="place" v="locality" />
		<tag k="ssr:stedsnr" v="483190" />
	</node>
	<node id="-144731" lat="60.7717111091" lon="9.753538881">
		<tag k="name" v="Primtorslette" />
		<tag k="place" v="locality" />
		<tag k="ssr:stedsnr" v="483185" />
	</node>
	<node id="-144727" lat="60.7508555557" lon="9.7602194446">
		<tag k="name" v="Øyvassdalen" />
		<tag k="natural" v="valley" />
		<tag k="place" v="locality" />
		<tag k="ssr:stedsnr" v="483148" />
	</node>
	<node id="-144723" lat="60.8066333297" lon="9.76124722573">
		<tag k="name" v="Skjærsteinlie" />
		<tag k="natural" v="slope" />
		<tag k="place" v="locality" />
		<tag k="ssr:stedsnr" v="483095" />
	</node>
	<node id="-144722" lat="60.7443166662" lon="9.55598611527">
		<tag k="name" v="Kølaplassen" />
		<tag k="place" v="locality" />
		<tag k="ssr:stedsnr" v="483077" />
	</node>
	<node id="-144720" lat="60.774722225" lon="9.42662221361">
		<tag k="name" v="Steinbukampen" />
		<tag k="natural" v="hill" />
		<tag k="place" v="locality" />
		<tag k="ssr:stedsnr" v="482935" />
	</node>
	<node id="-144716" lat="60.8348916683" lon="9.50168333446">
		<tag k="name" v="Høvshaugen" />
		<tag k="natural" v="hill" />
		<tag k="place" v="locality" />
		<tag k="ssr:stedsnr" v="482825" />
	</node>
	<node id="-144715" lat="60.8202805576" lon="9.5451944394">
		<tag k="name" v="Leistrudbakkin" />
		<tag k="natural" v="slope" />
		<tag k="place" v="locality" />
		<tag k="ssr:stedsnr" v="482792" />
	</node>
	<node id="-144711" lat="60.8085499988" lon="9.51986112024">
		<tag k="name" v="Ørmeskarhalle" />
		<tag k="place" v="locality" />
		<tag k="ssr:stedsnr" v="482231" />
	</node>
	<node id="-144710" lat="60.7972722253" lon="9.52247222327">
		<tag k="name" v="Dugurdsslette" />
		<tag k="place" v="locality" />
		<tag k="ssr:stedsnr" v="482229" />
	</node>
	<node id="-144702" lat="60.7476361144" lon="9.40513611478">
		<tag k="name" v="Venelia" />
		<tag k="natural" v="slope" />
		<tag k="place" v="locality" />
		<tag k="ssr:stedsnr" v="464986" />
	</node>
	<node id="-144701" lat="60.829377777" lon="9.57592499577">
		<tag k="name" v="Brøtin" />
		<tag k="natural" v="slope" />
		<tag k="place" v="locality" />
		<tag k="ssr:stedsnr" v="464972" />
	</node>
	<node id="-144699" lat="60.8146555568" lon="9.47413332755">
		<tag k="name" v="Bakhallitn" />
		<tag k="natural" v="slope" />
		<tag k="place" v="locality" />
		<tag k="ssr:stedsnr" v="464836" />
	</node>
	<node id="-143924" lat="60.7652972262" lon="9.73428334104">
		<tag k="name" v="Laddelie" />
		<tag k="natural" v="slope" />
		<tag k="place" v="locality" />
		<tag k="ssr:stedsnr" v="58174" />
	</node>
	<node id="-144691" lat="60.719425002" lon="9.79225278252">
		<tag k="name" v="Rundputtskaret" />
		<tag k="natural" v="valley" />
		<tag k="place" v="locality" />
		<tag k="ssr:stedsnr" v="464557" />
	</node>
	<node id="-144688" lat="60.75416111" lon="9.79372222714">
		<tag k="name" v="Bjøllehaugatn" />
		<tag k="natural" v="hill" />
		<tag k="place" v="locality" />
		<tag k="ssr:stedsnr" v="464502" />
	</node>
	<node id="-144685" lat="60.6689861123" lon="9.58342499528">
		<tag k="name" v="Utsikten" />
		<tag k="natural" v="hill" />
		<tag k="place" v="locality" />
		<tag k="ssr:stedsnr" v="464378" />
	</node>
	<node id="-144683" lat="60.6587194414" lon="9.61798611599">
		<tag k="name" v="Ulakollen" />
		<tag k="natural" v="hill" />
		<tag k="place" v="locality" />
		<tag k="ssr:stedsnr" v="464304" />
	</node>
	<node id="-144679" lat="60.6864777781" lon="9.70736110769">
		<tag k="name" v="Svartfjell" />
		<tag k="place" v="locality" />
		<tag k="ssr:stedsnr" v="464286" />
	</node>
	<node id="-144677" lat="60.6247749961" lon="9.57745832525">
		<tag k="name" v="Skriuåshøgda" />
		<tag k="natural" v="hill" />
		<tag k="place" v="locality" />
		<tag k="ssr:stedsnr" v="464265" />
	</node>
	<node id="-144673" lat="60.7680972191" lon="9.48231112006">
		<tag k="name" v="Skrivarberget" />
		<tag k="natural" v="hill" />
		<tag k="place" v="locality" />
		<tag k="ssr:stedsnr" v="464191" />
	</node>
	<node id="-144671" lat="60.7027805574" lon="9.9163027759">
		<tag k="name" v="Storhaug" />
		<tag k="natural" v="hill" />
		<tag k="place" v="locality" />
		<tag k="ssr:stedsnr" v="464128" />
	</node>
	<node id="-144670" lat="60.873008335" lon="9.45096389233">
		<tag k="name" v="Kvisleflata" />
		<tag k="place" v="locality" />
		<tag k="ssr:stedsnr" v="463766" />
	</node>
	<node id="-144669" lat="60.5635722215" lon="9.78422500623">
		<tag k="name" v="Klubberhaugen" />
		<tag k="natural" v="hill" />
		<tag k="place" v="locality" />
		<tag k="ssr:stedsnr" v="464710" />
	</node>
	<node id="-144667" lat="60.5844083295" lon="9.88038056351">
		<tag k="fixme" v="consider natural=peak for the most distinct mountains in the district" />
		<tag k="name" v="Veslefjellet" />
		<tag k="natural" v="hill" />
		<tag k="place" v="locality" />
		<tag k="ssr:stedsnr" v="454982" />
	</node>
	<node id="-144657" lat="60.8208583322" lon="9.4794750064">
		<tag k="name" v="Endrelii" />
		<tag k="natural" v="slope" />
		<tag k="place" v="locality" />
		<tag k="ssr:stedsnr" v="434835" />
	</node>
	<node id="-144654" lat="60.815700002" lon="9.702775001">
		<tag k="fixme" v="consider natural=peak for the most distinct mountains in the district" />
		<tag k="name" v="Heggehærin" />
		<tag k="natural" v="hill" />
		<tag k="place" v="locality" />
		<tag k="ssr:stedsnr" v="434212" />
	</node>
	<node id="-144643" lat="60.8392888918" lon="9.48481111247">
		<tag k="alt_name" v="Høvdaknatten" />
		<tag k="fixme" v="consider natural=peak for the most distinct mountains in the district" />
		<tag k="name" v="Hollaknatten" />
		<tag k="natural" v="hill" />
		<tag k="place" v="locality" />
		<tag k="ssr:stedsnr" v="433615" />
	</node>
	<node id="-144642" lat="60.6361416635" lon="9.77730833908">
		<tag k="alt_name" v="Tollefsrudgjuvet" />
		<tag k="name" v="Gjuvet" />
		<tag k="natural" v="gorge" />
		<tag k="ssr:stedsnr" v="433000" />
	</node>
	<node id="-143571" lat="60.8478277788" lon="9.39919165758">
		<tag k="name" v="Tverrberget" />
		<tag k="natural" v="hill" />
		<tag k="place" v="locality" />
		<tag k="ssr:stedsnr" v="361394" />
	</node>
	<node id="-143594" lat="60.7760638922" lon="9.33219723096">
		<tag k="name" v="Hesjahølet" />
		<tag k="natural" v="valley" />
		<tag k="place" v="locality" />
		<tag k="ssr:stedsnr" v="361969" />
	</node>
	<node id="-143911" lat="60.8306166629" lon="9.64289721444">
		<tag k="name" v="Liabekksletten" />
		<tag k="place" v="locality" />
		<tag k="ssr:stedsnr" v="39997" />
	</node>
	<node id="-144615" lat="60.5716583345" lon="9.85750000843">
		<tag k="name" v="Liahaugen" />
		<tag k="natural" v="hill" />
		<tag k="place" v="locality" />
		<tag k="ssr:stedsnr" v="432815" />
	</node>
	<node id="-144614" lat="60.7439277766" lon="9.62703055278">
		<tag k="alt_name" v="Ivarskøllin" />
		<tag k="name" v="Ivarskollen" />
		<tag k="natural" v="hill" />
		<tag k="place" v="locality" />
		<tag k="ssr:stedsnr" v="432793" />
	</node>
	<node id="-144612" lat="60.5307777815" lon="9.49050833243">
		<tag k="name" v="Høghaugen" />
		<tag k="natural" v="hill" />
		<tag k="place" v="locality" />
		<tag k="ssr:stedsnr" v="432757" />
	</node>
	<node id="-143568" lat="60.7443611082" lon="9.45578888608">
		<tag k="name" v="Blåberghaugen" />
		<tag k="natural" v="hill" />
		<tag k="place" v="locality" />
		<tag k="ssr:stedsnr" v="361240" />
	</node>
	<node id="-144600" lat="60.668644443" lon="9.93463056372">
		<tag k="name" v="Klinkebrenna" />
		<tag k="natural" v="hill" />
		<tag k="place" v="locality" />
		<tag k="ssr:stedsnr" v="431939" />
	</node>
	<node id="-144591" lat="60.6403166673" lon="9.55228332883">
		<tag k="fixme" v="consider natural=peak for the most distinct mountains in the district" />
		<tag k="name" v="Petatkollen" />
		<tag k="natural" v="hill" />
		<tag k="place" v="locality" />
		<tag k="ssr:stedsnr" v="431667" />
	</node>
	<node id="-144590" lat="60.6377555589" lon="9.99183611356">
		<tag k="name" v="Tørrsjølia" />
		<tag k="natural" v="slope" />
		<tag k="place" v="locality" />
		<tag k="ssr:stedsnr" v="432612" />
	</node>
	<node id="-144589" lat="60.6212361125" lon="9.56977222802">
		<tag k="fixme" v="consider natural=peak for the most distinct mountains in the district" />
		<tag k="name" v="Rundhaugen" />
		<tag k="natural" v="hill" />
		<tag k="place" v="locality" />
		<tag k="ssr:stedsnr" v="432606" />
	</node>
	<node id="-144588" lat="60.6830694455" lon="9.85722777287">
		<tag k="name" v="Bjørnestillinga" />
		<tag k="natural" v="valley" />
		<tag k="place" v="locality" />
		<tag k="ssr:stedsnr" v="423701" />
	</node>
	<node id="-144583" lat="60.70212222" lon="9.59170277939">
		<tag k="name" v="Heimskaret" />
		<tag k="natural" v="valley" />
		<tag k="place" v="locality" />
		<tag k="ssr:stedsnr" v="423182" />
	</node>
	<node id="-144582" lat="60.7582833338" lon="9.76370277474">
		<tag k="name" v="Søre Øyvassli" />
		<tag k="natural" v="slope" />
		<tag k="place" v="locality" />
		<tag k="ssr:stedsnr" v="423135" />
	</node>
	<node id="-144581" lat="60.733175003" lon="9.35317222228">
		<tag k="name" v="Flåe" />
		<tag k="place" v="locality" />
		<tag k="ssr:stedsnr" v="422936" />
	</node>
	<node id="-144575" lat="60.8232222258" lon="9.41264166125">
		<tag k="name" v="Vårsæterhøgde" />
		<tag k="natural" v="hill" />
		<tag k="place" v="locality" />
		<tag k="ssr:stedsnr" v="422760" />
	</node>
	<node id="-144574" lat="60.5639305534" lon="9.80855556214">
		<tag k="name" v="Kølskålhaugen" />
		<tag k="natural" v="hill" />
		<tag k="place" v="locality" />
		<tag k="ssr:stedsnr" v="422756" />
	</node>
	<node id="-144573" lat="60.5513249971" lon="9.61845278522">
		<tag k="name" v="Aurdalsæterberga" />
		<tag k="place" v="locality" />
		<tag k="ssr:stedsnr" v="422751" />
	</node>
	<node id="-144572" lat="60.7813000041" lon="9.42209999839">
		<tag k="fixme" v="consider natural=peak for the most distinct mountains in the district" />
		<tag k="name" v="Blomstølfjellet" />
		<tag k="natural" v="hill" />
		<tag k="place" v="locality" />
		<tag k="ssr:stedsnr" v="422661" />
	</node>
	<node id="-144571" lat="60.814074997" lon="9.42357777699">
		<tag k="name" v="Teljerothalle" />
		<tag k="natural" v="slope" />
		<tag k="place" v="locality" />
		<tag k="ssr:stedsnr" v="422653" />
	</node>
	<node id="-144570" lat="60.8313750002" lon="9.35526389675">
		<tag k="name" v="Stygghalle" />
		<tag k="natural" v="slope" />
		<tag k="place" v="locality" />
		<tag k="ssr:stedsnr" v="422628" />
	</node>
	<node id="-144569" lat="60.6228722265" lon="9.75254445303">
		<tag k="name" v="Sagbenkhøgda" />
		<tag k="natural" v="hill" />
		<tag k="place" v="locality" />
		<tag k="ssr:stedsnr" v="422514" />
	</node>
	<node id="-144567" lat="60.5981555523" lon="9.70818333386">
		<tag k="name" v="Flaget" />
		<tag k="place" v="locality" />
		<tag k="ssr:stedsnr" v="422474" />
	</node>
	<node id="-144563" lat="60.6112972211" lon="9.71666388892">
		<tag k="name" v="Svarvermohaugen" />
		<tag k="natural" v="hill" />
		<tag k="place" v="locality" />
		<tag k="ssr:stedsnr" v="422437" />
	</node>
	<node id="-144561" lat="60.7447027763" lon="9.54986667478">
		<tag k="name" v="Steinbrøtin" />
		<tag k="natural" v="slope" />
		<tag k="place" v="locality" />
		<tag k="ssr:stedsnr" v="422430" />
	</node>
	<node id="-143901" lat="60.8185944406" lon="9.45504165888">
		<tag k="name" v="Vesmelie" />
		<tag k="natural" v="slope" />
		<tag k="place" v="locality" />
		<tag k="ssr:stedsnr" v="39787" />
	</node>
	<node id="-144554" lat="60.7537527741" lon="9.62778055531">
		<tag k="name" v="Kjelen" />
		<tag k="natural" v="gorge" />
		<tag k="ssr:stedsnr" v="422193" />
	</node>
	<node id="-144553" lat="60.7454916698" lon="9.6385333364">
		<tag k="name" v="Veslesæterberget" />
		<tag k="natural" v="hill" />
		<tag k="place" v="locality" />
		<tag k="ssr:stedsnr" v="422191" />
	</node>
	<node id="-144552" lat="60.733775003" lon="9.64790833464">
		<tag k="name" v="Kattuldalen" />
		<tag k="natural" v="valley" />
		<tag k="place" v="locality" />
		<tag k="ssr:stedsnr" v="422190" />
	</node>
	<node id="-144549" lat="60.7879555558" lon="9.57562500319">
		<tag k="fixme" v="consider natural=peak for the most distinct mountains in the district" />
		<tag k="name" v="Knatteberget" />
		<tag k="natural" v="hill" />
		<tag k="place" v="locality" />
		<tag k="ssr:stedsnr" v="422102" />
	</node>
	<node id="-144548" lat="60.7942861078" lon="9.55433333527">
		<tag k="name" v="Lagmannshaugen" />
		<tag k="natural" v="hill" />
		<tag k="place" v="locality" />
		<tag k="ssr:stedsnr" v="422099" />
	</node>
	<node id="-144545" lat="60.7977111077" lon="9.34475278112">
		<tag k="fixme" v="consider natural=peak for the most distinct mountains in the district" />
		<tag k="name" v="Fiskebufjellet" />
		<tag k="natural" v="hill" />
		<tag k="place" v="locality" />
		<tag k="ssr:stedsnr" v="252813" />
	</node>
	<node id="-144540" lat="60.7507416631" lon="9.32013055439">
		<tag k="fixme" v="consider natural=peak for the most distinct mountains in the district" />
		<tag k="name" v="Rabalsfjellet" />
		<tag k="natural" v="hill" />
		<tag k="place" v="locality" />
		<tag k="ssr:stedsnr" v="252728" />
	</node>
	<node id="-143898" lat="60.8472555597" lon="9.47256945337">
		<tag k="name" v="Storurdknatten" />
		<tag k="natural" v="hill" />
		<tag k="place" v="locality" />
		<tag k="ssr:stedsnr" v="39704" />
	</node>
	<node id="-144535" lat="60.8255972236" lon="9.60130000004">
		<tag k="fixme" v="consider natural=peak for the most distinct mountains in the district" />
		<tag k="name" v="Bagnsåsen" />
		<tag k="natural" v="hill" />
		<tag k="place" v="locality" />
		<tag k="ssr:stedsnr" v="252150" />
	</node>
	<node id="-144528" lat="60.8136861133" lon="9.51457778623">
		<tag k="name" v="Langeberget" />
		<tag k="place" v="locality" />
		<tag k="ssr:stedsnr" v="251861" />
	</node>
	<node id="-144524" lat="60.85822778" lon="9.39902499158">
		<tag k="fixme" v="consider natural=peak for the most distinct mountains in the district" />
		<tag k="name" v="Liastølfjellet" />
		<tag k="natural" v="hill" />
		<tag k="place" v="locality" />
		<tag k="ssr:stedsnr" v="251695" />
	</node>
	<node id="-144520" lat="60.7088238241" lon="9.68302945024">
		<tag k="name" v="Storberget" />
		<tag k="natural" v="hill" />
		<tag k="place" v="locality" />
		<tag k="ssr:stedsnr" v="250990" />
	</node>
	<node id="-144518" lat="60.6914888878" lon="9.83806944211">
		<tag k="name" v="Jørnskollen" />
		<tag k="natural" v="hill" />
		<tag k="place" v="locality" />
		<tag k="ssr:stedsnr" v="250890" />
	</node>
	<node id="-144517" lat="60.6905250001" lon="9.79162500335">
		<tag k="fixme" v="consider natural=peak for the most distinct mountains in the district" />
		<tag k="name" v="Heimsætermana" />
		<tag k="natural" v="hill" />
		<tag k="place" v="locality" />
		<tag k="ssr:stedsnr" v="250891" />
	</node>
	<node id="-144512" lat="60.557433331" lon="9.7741444443">
		<tag k="alt_name" v="Korpekløvet" />
		<tag k="name" v="Korpeklyvet" />
		<tag k="natural" v="hill" />
		<tag k="place" v="locality" />
		<tag k="ssr:stedsnr" v="250813" />
	</node>
	<node id="-144509" lat="60.576849996" lon="9.51673055599">
		<tag k="fixme" v="consider natural=peak for the most distinct mountains in the district" />
		<tag k="name" v="Surtind" />
		<tag k="natural" v="hill" />
		<tag k="place" v="locality" />
		<tag k="ssr:stedsnr" v="250806" />
	</node>
	<node id="-144503" lat="60.7208749966" lon="9.86416944125">
		<tag k="name" v="Høgberget" />
		<tag k="natural" v="hill" />
		<tag k="place" v="locality" />
		<tag k="ssr:stedsnr" v="249986" />
	</node>
	<node id="-143891" lat="60.7711166638" lon="9.77981944218">
		<tag k="name" v="Overkjøringa" />
		<tag k="place" v="locality" />
		<tag k="ssr:stedsnr" v="39451" />
	</node>
	<node id="-144496" lat="60.7161666675" lon="9.72349444753">
		<tag k="name" v="Begnadalen" />
		<tag k="natural" v="valley" />
		<tag k="place" v="locality" />
		<tag k="ssr:stedsnr" v="249957" />
	</node>
	<node id="-144495" lat="60.6610027803" lon="9.80608334119">
		<tag k="name" v="Skrukkelia" />
		<tag k="natural" v="slope" />
		<tag k="place" v="locality" />
		<tag k="ssr:stedsnr" v="249952" />
	</node>
	<node id="-144494" lat="60.7355138879" lon="9.71995000155">
		<tag k="alt_name" v="Olavsbrøtakøllin" />
		<tag k="name" v="Olasbråtekollen" />
		<tag k="natural" v="hill" />
		<tag k="place" v="locality" />
		<tag k="ssr:stedsnr" v="249948" />
	</node>
	<node id="-144492" lat="60.5842527783" lon="9.61810832877">
		<tag k="name" v="Fledda" />
		<tag k="natural" v="slope" />
		<tag k="place" v="locality" />
		<tag k="ssr:stedsnr" v="249930" />
	</node>
	<node id="-144487" lat="60.6798999964" lon="9.81251111329">
		<tag k="fixme" v="consider natural=peak for the most distinct mountains in the district" />
		<tag k="name" v="Svarttjernbrenna" />
		<tag k="natural" v="hill" />
		<tag k="place" v="locality" />
		<tag k="ssr:stedsnr" v="249910" />
	</node>
	<node id="-144486" lat="60.6819000011" lon="9.84223333209">
		<tag k="name" v="Sjåberget" />
		<tag k="natural" v="hill" />
		<tag k="place" v="locality" />
		<tag k="ssr:stedsnr" v="249911" />
	</node>
	<node id="-143547" lat="60.8060111095" lon="9.45958332458">
		<tag k="name" v="Snufferinkji" />
		<tag k="place" v="locality" />
		<tag k="ssr:stedsnr" v="342788" />
	</node>
	<node id="-144479" lat="60.5103166673" lon="9.76371389572">
		<tag k="alt_name" v="Middagsknatten, s;Middagsknatten" />
		<tag k="name" v="Søre Middagsknatten" />
		<tag k="natural" v="hill" />
		<tag k="place" v="locality" />
		<tag k="ssr:stedsnr" v="249866" />
	</node>
	<node id="-144476" lat="60.6533499979" lon="9.4701055508">
		<tag k="alt_name" v="Teinevassåsen" />
		<tag k="fixme" v="consider natural=peak for the most distinct mountains in the district" />
		<tag k="name" v="Teinvassåsen" />
		<tag k="natural" v="hill" />
		<tag k="place" v="locality" />
		<tag k="ssr:stedsnr" v="249705" />
	</node>
	<node id="-144475" lat="60.6948222235" lon="9.44708611141">
		<tag k="alt_name" v="Veneslettlie" />
		<tag k="name" v="Veneslettlii" />
		<tag k="natural" v="slope" />
		<tag k="place" v="locality" />
		<tag k="ssr:stedsnr" v="249687" />
	</node>
	<node id="-144474" lat="60.6977249981" lon="9.52982500321">
		<tag k="fixme" v="consider natural=peak for the most distinct mountains in the district" />
		<tag k="name" v="Roparhaugen" />
		<tag k="natural" v="hill" />
		<tag k="place" v="locality" />
		<tag k="ssr:stedsnr" v="249688" />
	</node>
	<node id="-144471" lat="60.737969449" lon="9.34281110442">
		<tag k="name" v="Høvresliflåe" />
		<tag k="natural" v="slope" />
		<tag k="place" v="locality" />
		<tag k="ssr:stedsnr" v="240993" />
	</node>
	<node id="-144469" lat="60.7743250006" lon="9.4043111097">
		<tag k="name" v="Signaltoppen" />
		<tag k="natural" v="hill" />
		<tag k="place" v="locality" />
		<tag k="ssr:stedsnr" v="240952" />
	</node>
	<node id="-144468" lat="60.8271027792" lon="9.44701388793">
		<tag k="name" v="Øygardsbakken" />
		<tag k="natural" v="slope" />
		<tag k="place" v="locality" />
		<tag k="ssr:stedsnr" v="240854" />
	</node>
	<node id="-144467" lat="60.7172166637" lon="9.33653611435">
		<tag k="name" v="Lauvhaugen" />
		<tag k="natural" v="hill" />
		<tag k="place" v="locality" />
		<tag k="ssr:stedsnr" v="240850" />
	</node>
	<node id="-144465" lat="60.8408749994" lon="9.59265555146">
		<tag k="name" v="Villhaugdalen" />
		<tag k="natural" v="valley" />
		<tag k="place" v="locality" />
		<tag k="ssr:stedsnr" v="240842" />
	</node>
	<node id="-144462" lat="60.6317472228" lon="9.36995000677">
		<tag k="name" v="Haukehaugen" />
		<tag k="natural" v="hill" />
		<tag k="place" v="locality" />
		<tag k="ssr:stedsnr" v="240782" />
	</node>
	<node id="-144460" lat="60.5822000029" lon="9.63647221726">
		<tag k="name" v="Sandpynten" />
		<tag k="natural" v="slope" />
		<tag k="place" v="locality" />
		<tag k="ssr:stedsnr" v="240765" />
	</node>
	<node id="-143543" lat="60.6576861156" lon="9.88819167082">
		<tag k="name" v="Kvernlia" />
		<tag k="natural" v="slope" />
		<tag k="place" v="locality" />
		<tag k="ssr:stedsnr" v="342627" />
	</node>
	<node id="-144452" lat="60.6746861142" lon="9.8656305498">
		<tag k="name" v="Buvasslia" />
		<tag k="natural" v="slope" />
		<tag k="place" v="locality" />
		<tag k="ssr:stedsnr" v="240677" />
	</node>
	<node id="-144451" lat="60.6721888871" lon="9.8431222255">
		<tag k="name" v="Skarsætermyra" />
		<tag k="natural" v="slope" />
		<tag k="place" v="locality" />
		<tag k="ssr:stedsnr" v="240675" />
	</node>
	<node id="-144450" lat="60.6921944468" lon="9.84566943913">
		<tag k="name" v="Jørnslia" />
		<tag k="natural" v="slope" />
		<tag k="place" v="locality" />
		<tag k="ssr:stedsnr" v="240671" />
	</node>
	<node id="-144448" lat="60.6918777796" lon="9.89621944648">
		<tag k="name" v="Hakakrokbakken" />
		<tag k="natural" v="slope" />
		<tag k="place" v="locality" />
		<tag k="ssr:stedsnr" v="240668" />
	</node>
	<node id="-144447" lat="60.8290166696" lon="9.35635000256">
		<tag k="name" v="Rugleiksknatten" />
		<tag k="natural" v="hill" />
		<tag k="place" v="locality" />
		<tag k="ssr:stedsnr" v="240652" />
	</node>
	<node id="-144444" lat="60.7525166658" lon="9.52729443625">
		<tag k="name" v="Purkefeten" />
		<tag k="place" v="locality" />
		<tag k="ssr:stedsnr" v="240479" />
	</node>
	<node id="-144439" lat="60.7031499959" lon="9.54184721865">
		<tag k="name" v="Liasæterhalle" />
		<tag k="natural" v="slope" />
		<tag k="place" v="locality" />
		<tag k="ssr:stedsnr" v="240462" />
	</node>
	<node id="-144435" lat="60.6165527776" lon="9.46427500539">
		<tag k="name" v="Helserfjellet" />
		<tag k="natural" v="hill" />
		<tag k="place" v="locality" />
		<tag k="ssr:stedsnr" v="240388" />
	</node>
	<node id="-144433" lat="60.7679333312" lon="9.69005277358">
		<tag k="name" v="Teinongrenna" />
		<tag k="natural" v="valley" />
		<tag k="place" v="locality" />
		<tag k="ssr:stedsnr" v="240187" />
	</node>
	<node id="-144429" lat="60.7610500045" lon="9.69698888386">
		<tag k="name" v="Vesldalsrenna" />
		<tag k="natural" v="valley" />
		<tag k="old_name" v="Lilledalsrenna" />
		<tag k="place" v="locality" />
		<tag k="ssr:stedsnr" v="240158" />
	</node>
	<node id="-143538" lat="60.7678944428" lon="9.79551110925">
		<tag k="name" v="Båslie" />
		<tag k="natural" v="slope" />
		<tag k="place" v="locality" />
		<tag k="ssr:stedsnr" v="342442" />
	</node>
	<node id="-143879" lat="60.5983444469" lon="9.51101944775">
		<tag k="name" v="Bakvendthauga" />
		<tag k="natural" v="hill" />
		<tag k="place" v="locality" />
		<tag k="ssr:stedsnr" v="39196" />
	</node>
	<node id="-144422" lat="60.7161166703" lon="9.97369443858">
		<tag k="name" v="Høgbrenndalen" />
		<tag k="natural" v="valley" />
		<tag k="place" v="locality" />
		<tag k="ssr:stedsnr" v="240092" />
	</node>
	<node id="-144421" lat="60.8124083353" lon="9.70907222863">
		<tag k="name" v="Heggjehærin" />
		<tag k="natural" v="hill" />
		<tag k="place" v="locality" />
		<tag k="ssr:stedsnr" v="240087" />
	</node>
	<node id="-144411" lat="60.8271111143" lon="9.5955111163">
		<tag k="name" v="Ruhalle" />
		<tag k="natural" v="slope" />
		<tag k="place" v="locality" />
		<tag k="ssr:stedsnr" v="221953" />
	</node>
	<node id="-143535" lat="60.6713444459" lon="9.62624444215">
		<tag k="name" v="Haraldsethaugen" />
		<tag k="natural" v="hill" />
		<tag k="place" v="locality" />
		<tag k="ssr:stedsnr" v="342301" />
	</node>
	<node id="-144405" lat="60.498669449" lon="9.78042221875">
		<tag k="name" v="Stordalen" />
		<tag k="natural" v="valley" />
		<tag k="place" v="locality" />
		<tag k="ssr:stedsnr" v="221808" />
	</node>
	<node id="-144401" lat="60.8715277808" lon="9.47791945352">
		<tag k="name" v="Purkekleive" />
		<tag k="natural" v="slope" />
		<tag k="place" v="locality" />
		<tag k="ssr:stedsnr" v="221706" />
	</node>
	<node id="-144389" lat="60.650202778" lon="9.4426916588">
		<tag k="name" v="Kråketjernhøgda" />
		<tag k="natural" v="hill" />
		<tag k="place" v="locality" />
		<tag k="ssr:stedsnr" v="221237" />
	</node>
	<node id="-144388" lat="60.6391388885" lon="9.5611027743">
		<tag k="name" v="Kvernhushauga" />
		<tag k="natural" v="hill" />
		<tag k="place" v="locality" />
		<tag k="ssr:stedsnr" v="221236" />
	</node>
	<node id="-144387" lat="60.6282666644" lon="9.5558833277">
		<tag k="name" v="Hølia" />
		<tag k="natural" v="slope" />
		<tag k="place" v="locality" />
		<tag k="ssr:stedsnr" v="221231" />
	</node>
	<node id="-144380" lat="60.7143916702" lon="9.62955833195">
		<tag k="name" v="Reset" />
		<tag k="place" v="locality" />
		<tag k="ssr:stedsnr" v="221144" />
	</node>
	<node id="-144367" lat="60.7639027806" lon="9.67830000097">
		<tag k="alt_name" v="Fønhusknatten" />
		<tag k="fixme" v="consider natural=peak for the most distinct mountains in the district" />
		<tag k="name" v="Fønnhusknatten" />
		<tag k="natural" v="hill" />
		<tag k="place" v="locality" />
		<tag k="ssr:stedsnr" v="191149" />
	</node>
	<node id="-144364" lat="60.771422226" lon="9.67256110392">
		<tag k="name" v="Høgeberget" />
		<tag k="natural" v="hill" />
		<tag k="place" v="locality" />
		<tag k="ssr:stedsnr" v="191104" />
	</node>
	<node id="-144360" lat="60.8465500005" lon="9.46801110584">
		<tag k="name" v="Brenneknatten" />
		<tag k="natural" v="hill" />
		<tag k="place" v="locality" />
		<tag k="ssr:stedsnr" v="190660" />
	</node>
	<node id="-144354" lat="60.7236250031" lon="9.87590000365">
		<tag k="alt_name" v="Meisdalen" />
		<tag k="name" v="Meisedalen" />
		<tag k="natural" v="valley" />
		<tag k="place" v="locality" />
		<tag k="ssr:stedsnr" v="189976" />
	</node>
	<node id="-144347" lat="60.6574527799" lon="9.63883888501">
		<tag k="fixme" v="consider natural=peak for the most distinct mountains in the district" />
		<tag k="name" v="Graslihøgda" />
		<tag k="natural" v="hill" />
		<tag k="place" v="locality" />
		<tag k="ssr:stedsnr" v="189938" />
	</node>
	<node id="-144346" lat="60.7358555563" lon="9.64583333612">
		<tag k="alt_name" v="Kattulhøgde" />
		<tag k="name" v="Kattuglehøgdi" />
		<tag k="natural" v="hill" />
		<tag k="place" v="locality" />
		<tag k="ssr:stedsnr" v="189936" />
	</node>
	<node id="-144344" lat="60.5940749999" lon="9.85685000045">
		<tag k="fixme" v="consider natural=peak for the most distinct mountains in the district" />
		<tag k="name" v="Strømsåsen" />
		<tag k="natural" v="hill" />
		<tag k="place" v="locality" />
		<tag k="ssr:stedsnr" v="189902" />
	</node>
	<node id="-144339" lat="60.6836249985" lon="9.73345277493">
		<tag k="alt_name" v="Hesjabakkkollen" />
		<tag k="fixme" v="consider natural=peak for the most distinct mountains in the district" />
		<tag k="name" v="Hesjebakkollen" />
		<tag k="natural" v="hill" />
		<tag k="place" v="locality" />
		<tag k="ssr:stedsnr" v="189886" />
	</node>
	<node id="-144327" lat="60.5571416667" lon="9.57920278453">
		<tag k="fixme" v="consider natural=peak for the most distinct mountains in the district" />
		<tag k="name" v="Sæterknatten" />
		<tag k="natural" v="hill" />
		<tag k="place" v="locality" />
		<tag k="ssr:stedsnr" v="189826" />
	</node>
	<node id="-144324" lat="60.5631194415" lon="9.64112777629">
		<tag k="fixme" v="consider natural=peak for the most distinct mountains in the district" />
		<tag k="name" v="Manfjellet" />
		<tag k="natural" v="hill" />
		<tag k="place" v="locality" />
		<tag k="ssr:stedsnr" v="189788" />
	</node>
	<node id="-144323" lat="60.7436555558" lon="9.66197221604">
		<tag k="alt_name" v="Furuhaugen" />
		<tag k="name" v="Furuberget" />
		<tag k="natural" v="hill" />
		<tag k="place" v="locality" />
		<tag k="ssr:stedsnr" v="189774" />
	</node>
	<node id="-144316" lat="60.6103249967" lon="9.56793611461">
		<tag k="alt_name" v="Gudbjørhøgd" />
		<tag k="name" v="Gudbjørghøgda" />
		<tag k="natural" v="hill" />
		<tag k="place" v="locality" />
		<tag k="ssr:stedsnr" v="189636" />
	</node>
	<node id="-144315" lat="60.606916665" lon="9.49683611404">
		<tag k="alt_name" v="Møltefjell" />
		<tag k="fixme" v="consider natural=peak for the most distinct mountains in the district" />
		<tag k="name" v="Moltefjellet" />
		<tag k="natural" v="hill" />
		<tag k="place" v="locality" />
		<tag k="ssr:stedsnr" v="189631" />
	</node>
	<node id="-144313" lat="60.6323361145" lon="9.4486055572">
		<tag k="fixme" v="consider natural=peak for the most distinct mountains in the district" />
		<tag k="name" v="Høgdefjellet" />
		<tag k="natural" v="hill" />
		<tag k="place" v="locality" />
		<tag k="ssr:stedsnr" v="189595" />
	</node>
	<node id="-144309" lat="60.6670388921" lon="9.75977499131">
		<tag k="name" v="Grimsrudkollen" />
		<tag k="natural" v="hill" />
		<tag k="place" v="locality" />
		<tag k="ssr:stedsnr" v="188942" />
	</node>
	<node id="-144308" lat="60.6670888931" lon="9.85002499755">
		<tag k="name" v="Midtknatten" />
		<tag k="natural" v="hill" />
		<tag k="place" v="locality" />
		<tag k="ssr:stedsnr" v="188940" />
	</node>
	<node id="-144307" lat="60.6676916682" lon="9.87483610361">
		<tag k="name" v="Buvasskollen" />
		<tag k="natural" v="hill" />
		<tag k="place" v="locality" />
		<tag k="ssr:stedsnr" v="188938" />
	</node>
	<node id="-144304" lat="60.6626749988" lon="9.65909999267">
		<tag k="name" v="Bukkeberget" />
		<tag k="natural" v="hill" />
		<tag k="place" v="locality" />
		<tag k="ssr:stedsnr" v="188929" />
	</node>
	<node id="-144298" lat="60.7082944468" lon="9.57225555679">
		<tag k="name" v="Kollsæterhøgde" />
		<tag k="natural" v="hill" />
		<tag k="place" v="locality" />
		<tag k="ssr:stedsnr" v="180179" />
	</node>
	<node id="-144293" lat="60.7760527754" lon="9.3399805467">
		<tag k="name" v="Løypa" />
		<tag k="natural" v="valley" />
		<tag k="place" v="locality" />
		<tag k="ssr:stedsnr" v="179967" />
	</node>
	<node id="-144292" lat="60.732438886" lon="9.33291666955">
		<tag k="name" v="Jølihaugen" />
		<tag k="natural" v="hill" />
		<tag k="place" v="locality" />
		<tag k="ssr:stedsnr" v="179940" />
	</node>
	<node id="-144291" lat="60.7257055516" lon="9.36756111165">
		<tag k="name" v="Kyrkjehaugatn" />
		<tag k="place" v="locality" />
		<tag k="ssr:stedsnr" v="179934" />
	</node>
	<node id="-144289" lat="60.7784999978" lon="9.60933333905">
		<tag k="name" v="Bølesknatten" />
		<tag k="natural" v="hill" />
		<tag k="place" v="locality" />
		<tag k="ssr:stedsnr" v="179895" />
	</node>
	<node id="-144286" lat="60.7754777746" lon="9.29097777852">
		<tag k="fixme" v="consider natural=peak for the most distinct mountains in the district" />
		<tag k="name" v="Rauskreoberget" />
		<tag k="natural" v="hill" />
		<tag k="place" v="locality" />
		<tag k="ssr:stedsnr" v="179762" />
	</node>
	<node id="-144284" lat="60.5655499984" lon="9.56286666255">
		<tag k="name" v="Vieren" />
		<tag k="place" v="locality" />
		<tag k="ssr:stedsnr" v="179739" />
	</node>
	<node id="-144282" lat="60.8097694415" lon="9.4057277733">
		<tag k="name" v="Fjellstølhaugen" />
		<tag k="natural" v="hill" />
		<tag k="place" v="locality" />
		<tag k="ssr:stedsnr" v="179638" />
	</node>
	<node id="-144278" lat="60.615808334" lon="9.75396111172">
		<tag k="name" v="Bråtågardshøgda" />
		<tag k="natural" v="hill" />
		<tag k="place" v="locality" />
		<tag k="ssr:stedsnr" v="179503" />
	</node>
	<node id="-144276" lat="60.5969527758" lon="9.70703333775">
		<tag k="name" v="Sjurskorta" />
		<tag k="place" v="locality" />
		<tag k="ssr:stedsnr" v="179469" />
	</node>
	<node id="-144275" lat="60.6143888857" lon="9.71106944122">
		<tag k="name" v="Kallemoen" />
		<tag k="place" v="locality" />
		<tag k="ssr:stedsnr" v="179440" />
	</node>
	<node id="-144271" lat="60.6205333376" lon="9.48152499696">
		<tag k="name" v="Helserkollen" />
		<tag k="natural" v="hill" />
		<tag k="place" v="locality" />
		<tag k="ssr:stedsnr" v="179367" />
	</node>
	<node id="-144266" lat="60.7308222198" lon="9.63229999864">
		<tag k="name" v="Kyrdalen" />
		<tag k="natural" v="valley" />
		<tag k="place" v="locality" />
		<tag k="ssr:stedsnr" v="179190" />
	</node>
	<node id="-144265" lat="60.768791664" lon="9.70019167153">
		<tag k="name" v="Busjøknatten" />
		<tag k="natural" v="hill" />
		<tag k="place" v="locality" />
		<tag k="ssr:stedsnr" v="179178" />
	</node>
	<node id="-144264" lat="60.7660416693" lon="9.67059167395">
		<tag k="name" v="Kyrstrupen" />
		<tag k="natural" v="valley" />
		<tag k="place" v="locality" />
		<tag k="ssr:stedsnr" v="179172" />
	</node>
	<node id="-144263" lat="60.7800750003" lon="9.57792500755">
		<tag k="name" v="Islandsjuve" />
		<tag k="natural" v="gorge" />
		<tag k="ssr:stedsnr" v="179088" />
	</node>
	<node id="-144253" lat="60.7675583377" lon="9.63123610505">
		<tag k="name" v="Ørmelandhøgde" />
		<tag k="natural" v="hill" />
		<tag k="place" v="locality" />
		<tag k="ssr:stedsnr" v="160905" />
	</node>
	<node id="-144252" lat="60.7601499968" lon="9.64407499647">
		<tag k="name" v="Purkekleive" />
		<tag k="natural" v="slope" />
		<tag k="place" v="locality" />
		<tag k="ssr:stedsnr" v="160899" />
	</node>
	<node id="-144249" lat="60.7681944461" lon="9.60472778177">
		<tag k="name" v="Kakhusberget" />
		<tag k="natural" v="slope" />
		<tag k="place" v="locality" />
		<tag k="ssr:stedsnr" v="160882" />
	</node>
	<node id="-144247" lat="60.8237722259" lon="9.46300833372">
		<tag k="name" v="Vestsida" />
		<tag k="natural" v="slope" />
		<tag k="place" v="locality" />
		<tag k="ssr:stedsnr" v="160824" />
	</node>
	<node id="-144246" lat="60.4915055558" lon="9.80076943819">
		<tag k="name" v="Godmatdalen" />
		<tag k="natural" v="valley" />
		<tag k="place" v="locality" />
		<tag k="ssr:stedsnr" v="160807" />
	</node>
	<node id="-144245" lat="60.8182138925" lon="9.48682222586">
		<tag k="name" v="Bjødnaskaret" />
		<tag k="natural" v="valley" />
		<tag k="place" v="locality" />
		<tag k="ssr:stedsnr" v="160795" />
	</node>
	<node id="-144243" lat="60.8004333331" lon="9.46893055915">
		<tag k="name" v="Soglaremmo" />
		<tag k="natural" v="slope" />
		<tag k="place" v="locality" />
		<tag k="ssr:stedsnr" v="160791" />
	</node>
	<node id="-144240" lat="60.5586249987" lon="9.78396666972">
		<tag k="fixme" v="consider natural=peak for the most distinct mountains in the district" />
		<tag k="name" v="Øvre Primbråtekollen" />
		<tag k="natural" v="hill" />
		<tag k="place" v="locality" />
		<tag k="ssr:stedsnr" v="160660" />
	</node>
	<node id="-144236" lat="60.7858138908" lon="9.35464444935">
		<tag k="name" v="Vinterlisbet" />
		<tag k="place" v="locality" />
		<tag k="ssr:stedsnr" v="160545" />
	</node>
	<node id="-144233" lat="60.718908329" lon="9.78393055776">
		<tag k="name" v="Lusehatthølet" />
		<tag k="natural" v="valley" />
		<tag k="place" v="locality" />
		<tag k="ssr:stedsnr" v="160483" />
	</node>
	<node id="-144232" lat="60.7219888883" lon="9.82081665931">
		<tag k="name" v="Haukedalen" />
		<tag k="natural" v="valley" />
		<tag k="place" v="locality" />
		<tag k="ssr:stedsnr" v="160475" />
	</node>
	<node id="-144229" lat="60.609977775" lon="9.57188333976">
		<tag k="name" v="Busukollen" />
		<tag k="natural" v="hill" />
		<tag k="place" v="locality" />
		<tag k="ssr:stedsnr" v="160335" />
	</node>
	<node id="-144227" lat="60.638713885" lon="9.68300276955">
		<tag k="fixme" v="consider natural=peak for the most distinct mountains in the district" />
		<tag k="name" v="Bakliberget" />
		<tag k="natural" v="hill" />
		<tag k="place" v="locality" />
		<tag k="ssr:stedsnr" v="160279" />
	</node>
	<node id="-144226" lat="60.6316944483" lon="9.68670000431">
		<tag k="name" v="Bakkedalen" />
		<tag k="natural" v="valley" />
		<tag k="place" v="locality" />
		<tag k="ssr:stedsnr" v="160275" />
	</node>
	<node id="-143504" lat="60.8001916673" lon="9.45329722691">
		<tag k="alt_name" v="Skibrekklie" />
		<tag k="name" v="Skibrekklii" />
		<tag k="natural" v="slope" />
		<tag k="place" v="locality" />
		<tag k="ssr:stedsnr" v="312819" />
	</node>
	<node id="-144220" lat="60.6383583303" lon="9.5342500007">
		<tag k="name" v="Aurtjernlia" />
		<tag k="natural" v="slope" />
		<tag k="place" v="locality" />
		<tag k="ssr:stedsnr" v="160222" />
	</node>
	<node id="-144214" lat="60.7185833344" lon="9.6384694438">
		<tag k="name" v="Rødningslia" />
		<tag k="natural" v="slope" />
		<tag k="place" v="locality" />
		<tag k="ssr:stedsnr" v="160138" />
	</node>
	<node id="-144211" lat="60.6508249995" lon="9.51520277488">
		<tag k="name" v="Brennhala" />
		<tag k="natural" v="slope" />
		<tag k="place" v="locality" />
		<tag k="ssr:stedsnr" v="134344" />
	</node>
	<node id="-144204" lat="60.7936999965" lon="9.48583056374">
		<tag k="alt_name" v="Tjuehaugen" />
		<tag k="name" v="Tjuvehaugen" />
		<tag k="natural" v="hill" />
		<tag k="place" v="locality" />
		<tag k="ssr:stedsnr" v="130803" />
	</node>
	<node id="-144199" lat="60.7775583315" lon="9.37309445225">
		<tag k="fixme" v="consider natural=peak for the most distinct mountains in the district" />
		<tag k="name" v="Bjødalsfjellet" />
		<tag k="natural" v="hill" />
		<tag k="place" v="locality" />
		<tag k="ssr:stedsnr" v="130743" />
	</node>
	<node id="-144198" lat="60.7589527736" lon="9.36509166373">
		<tag k="alt_name" v="Tempelhøgde" />
		<tag k="fixme" v="consider natural=peak for the most distinct mountains in the district" />
		<tag k="name" v="Tempelhaugen" />
		<tag k="natural" v="hill" />
		<tag k="place" v="locality" />
		<tag k="ssr:stedsnr" v="130710" />
	</node>
	<node id="-144195" lat="60.8348750018" lon="9.39351111003">
		<tag k="alt_name" v="Stavedalen" />
		<tag k="name" v="Stavadalen" />
		<tag k="natural" v="valley" />
		<tag k="place" v="locality" />
		<tag k="ssr:stedsnr" v="130611" />
	</node>
	<node id="-144185" lat="60.7855638932" lon="9.66484999147">
		<tag k="alt_name" v="Skogstadhøgde" />
		<tag k="fixme" v="consider natural=peak for the most distinct mountains in the district" />
		<tag k="name" v="Skogstadknatten" />
		<tag k="natural" v="hill" />
		<tag k="place" v="locality" />
		<tag k="ssr:stedsnr" v="130130" />
	</node>
	<node id="-144178" lat="60.7088833324" lon="9.74485834167">
		<tag k="name" v="Veslesæterhøgda" />
		<tag k="natural" v="hill" />
		<tag k="place" v="locality" />
		<tag k="ssr:stedsnr" v="128993" />
	</node>
	<node id="-144177" lat="60.704855554" lon="9.69046388377">
		<tag k="alt_name" v="Rundkøllen" />
		<tag k="name" v="Rundekollen" />
		<tag k="natural" v="hill" />
		<tag k="place" v="locality" />
		<tag k="ssr:stedsnr" v="128989" />
	</node>
	<node id="-144167" lat="60.7266999991" lon="9.77601388708">
		<tag k="alt_name" v="Gulmosehøgda" />
		<tag k="name" v="Gulmosahøgda" />
		<tag k="natural" v="hill" />
		<tag k="place" v="locality" />
		<tag k="ssr:stedsnr" v="128954" />
	</node>
	<node id="-144165" lat="60.6433694449" lon="9.80156389476">
		<tag k="name" v="Bakvendt" />
		<tag k="natural" v="slope" />
		<tag k="place" v="locality" />
		<tag k="ssr:stedsnr" v="128947" />
	</node>
	<node id="-144162" lat="60.6637472209" lon="9.84435555755">
		<tag k="fixme" v="consider natural=peak for the most distinct mountains in the district" />
		<tag k="name" v="Ryggåsen" />
		<tag k="natural" v="hill" />
		<tag k="place" v="locality" />
		<tag k="ssr:stedsnr" v="128940" />
	</node>
	<node id="-144161" lat="60.6578055592" lon="9.94483611176">
		<tag k="name" v="Benkehøgda" />
		<tag k="natural" v="hill" />
		<tag k="place" v="locality" />
		<tag k="ssr:stedsnr" v="128936" />
	</node>
	<node id="-144157" lat="60.6739416675" lon="9.92730277307">
		<tag k="name" v="Hansehytthøgda" />
		<tag k="natural" v="hill" />
		<tag k="place" v="locality" />
		<tag k="ssr:stedsnr" v="128921" />
	</node>
	<node id="-144151" lat="60.7025000042" lon="9.75401388017">
		<tag k="name" v="Bjørkedalen" />
		<tag k="natural" v="valley" />
		<tag k="place" v="locality" />
		<tag k="ssr:stedsnr" v="128893" />
	</node>
	<node id="-144150" lat="60.6917111082" lon="9.76456667256">
		<tag k="name" v="Hansebakkberget" />
		<tag k="natural" v="hill" />
		<tag k="place" v="locality" />
		<tag k="ssr:stedsnr" v="128891" />
	</node>
	<node id="-144149" lat="60.6958861067" lon="9.60797778272">
		<tag k="name" v="Prestbakken" />
		<tag k="natural" v="slope" />
		<tag k="place" v="locality" />
		<tag k="ssr:stedsnr" v="128880" />
	</node>
	<node id="-144144" lat="60.5651305548" lon="9.42714999647">
		<tag k="name" v="Suluvasslia" />
		<tag k="natural" v="slope" />
		<tag k="place" v="locality" />
		<tag k="ssr:stedsnr" v="128846" />
	</node>
	<node id="-143832" lat="60.6136500019" lon="9.76670277199">
		<tag k="alt_name" v="Åmsrudkollen" />
		<tag k="name" v="Omsrudkollen" />
		<tag k="natural" v="hill" />
		<tag k="place" v="locality" />
		<tag k="ssr:stedsnr" v="7904" />
	</node>
	<node id="-144142" lat="60.570400003" lon="9.81048611172">
		<tag k="alt_name" v="Trettebråtåhøgda" />
		<tag k="name" v="Trettebråthøgda" />
		<tag k="natural" v="hill" />
		<tag k="place" v="locality" />
		<tag k="ssr:stedsnr" v="128822" />
	</node>
	<node id="-144140" lat="60.6764111152" lon="9.78336943598">
		<tag k="name" v="Varpet" />
		<tag k="natural" v="slope" />
		<tag k="place" v="locality" />
		<tag k="ssr:stedsnr" v="128902" />
	</node>
	<node id="-144132" lat="60.7047583303" lon="9.58482500138">
		<tag k="alt_name" v="Kollsætertinden" />
		<tag k="fixme" v="consider natural=peak for the most distinct mountains in the district" />
		<tag k="name" v="Kollsætertind" />
		<tag k="natural" v="hill" />
		<tag k="place" v="locality" />
		<tag k="ssr:stedsnr" v="128684" />
	</node>
	<node id="-144130" lat="60.6839277774" lon="9.58914999414">
		<tag k="fixme" v="consider natural=peak for the most distinct mountains in the district" />
		<tag k="name" v="Elgvassæterhøgda" />
		<tag k="natural" v="hill" />
		<tag k="place" v="locality" />
		<tag k="ssr:stedsnr" v="128676" />
	</node>
	<node id="-143829" lat="60.6875333306" lon="9.70616944959">
		<tag k="fixme" v="consider natural=peak for the most distinct mountains in the district" />
		<tag k="name" v="Svartfjellkollen" />
		<tag k="natural" v="hill" />
		<tag k="place" v="locality" />
		<tag k="ssr:stedsnr" v="7897" />
	</node>
	<node id="-144122" lat="60.660088889" lon="10.0247249969">
		<tag k="name" v="Råsæterlia" />
		<tag k="natural" v="slope" />
		<tag k="place" v="locality" />
		<tag k="ssr:stedsnr" v="128625" />
	</node>
	<node id="-144119" lat="60.7144250001" lon="9.43418054899">
		<tag k="alt_name" v="Hølervasshøgde" />
		<tag k="fixme" v="consider natural=peak for the most distinct mountains in the district" />
		<tag k="name" v="Hølervassåsen" />
		<tag k="natural" v="hill" />
		<tag k="place" v="locality" />
		<tag k="ssr:stedsnr" v="128515" />
	</node>
	<node id="-144118" lat="60.4898750023" lon="9.78696111349">
		<tag k="alt_name" v="Matapikknatten" />
		<tag k="fixme" v="consider natural=peak for the most distinct mountains in the district" />
		<tag k="name" v="Matapiggknatten" />
		<tag k="natural" v="hill" />
		<tag k="place" v="locality" />
		<tag k="ssr:stedsnr" v="127941" />
	</node>
	<node id="-144114" lat="60.7656444419" lon="9.33626665799">
		<tag k="name" v="Gråberget" />
		<tag k="natural" v="hill" />
		<tag k="place" v="locality" />
		<tag k="ssr:stedsnr" v="119968" />
	</node>
	<node id="-144113" lat="60.7741222205" lon="9.37886666973">
		<tag k="name" v="Vergesteindokke" />
		<tag k="natural" v="valley" />
		<tag k="place" v="locality" />
		<tag k="ssr:stedsnr" v="119967" />
	</node>
	<node id="-144103" lat="60.7969416629" lon="9.42096943705">
		<tag k="name" v="Fleinskallin" />
		<tag k="natural" v="hill" />
		<tag k="place" v="locality" />
		<tag k="ssr:stedsnr" v="119683" />
	</node>
	<node id="-144101" lat="60.7057166679" lon="9.843688889">
		<tag k="name" v="Kjeldlia" />
		<tag k="natural" v="slope" />
		<tag k="place" v="locality" />
		<tag k="ssr:stedsnr" v="119674" />
	</node>
	<node id="-144100" lat="60.6996250013" lon="9.83599999129">
		<tag k="fixme" v="consider natural=peak for the most distinct mountains in the district" />
		<tag k="name" v="Sollihøgda" />
		<tag k="natural" v="hill" />
		<tag k="place" v="locality" />
		<tag k="ssr:stedsnr" v="119669" />
	</node>
	<node id="-144098" lat="60.8037805546" lon="9.33856111165">
		<tag k="name" v="Soglahallitn" />
		<tag k="natural" v="slope" />
		<tag k="place" v="locality" />
		<tag k="ssr:stedsnr" v="119654" />
	</node>
	<node id="-144097" lat="60.6213361103" lon="9.75596943849">
		<tag k="name" v="Slettmyrhøgda" />
		<tag k="natural" v="hill" />
		<tag k="place" v="locality" />
		<tag k="ssr:stedsnr" v="119539" />
	</node>
	<node id="-144096" lat="60.5879416674" lon="9.68012777256">
		<tag k="name" v="Skardalen" />
		<tag k="natural" v="valley" />
		<tag k="place" v="locality" />
		<tag k="ssr:stedsnr" v="119513" />
	</node>
	<node id="-144084" lat="60.7487472187" lon="9.65131667376">
		<tag k="name" v="Gutulyberget" />
		<tag k="natural" v="hill" />
		<tag k="place" v="locality" />
		<tag k="ssr:stedsnr" v="119201" />
	</node>
	<node id="-144083" lat="60.7354861141" lon="9.63544165862">
		<tag k="fixme" v="consider natural=peak for the most distinct mountains in the district" />
		<tag k="name" v="Kroneputthøgda" />
		<tag k="natural" v="hill" />
		<tag k="place" v="locality" />
		<tag k="ssr:stedsnr" v="119191" />
	</node>
	<node id="-144081" lat="60.7596722215" lon="9.70106943948">
		<tag k="name" v="Saglirenna" />
		<tag k="natural" v="valley" />
		<tag k="place" v="locality" />
		<tag k="ssr:stedsnr" v="119158" />
	</node>
	<node id="-146127" lat="60.6320552472" lon="10.0353172506">
		<tag k="fixme" v="consider natural=peak for the most distinct mountains in the district" />
		<tag k="name" v="Øyvasskollen" />
		<tag k="natural" v="hill" />
		<tag k="place" v="locality" />
		<tag k="ssr:stedsnr" v="917607" />
	</node>
	<node id="-146124" lat="60.7498416623" lon="9.34190000007">
		<tag k="name" v="Rabalshall" />
		<tag k="natural" v="slope" />
		<tag k="place" v="locality" />
		<tag k="ssr:stedsnr" v="968992" />
	</node>
	<node id="-146123" lat="60.7619444422" lon="9.39171944855">
		<tag k="name" v="Drevhaugen" />
		<tag k="natural" v="hill" />
		<tag k="place" v="locality" />
		<tag k="ssr:stedsnr" v="968960" />
	</node>
	<node id="-146122" lat="60.7752166711" lon="9.38249722651">
		<tag k="name" v="Kiselguldokke" />
		<tag k="natural" v="valley" />
		<tag k="place" v="locality" />
		<tag k="ssr:stedsnr" v="968959" />
	</node>
	<node id="-146121" lat="60.7946277787" lon="9.63009722999">
		<tag k="name" v="Rugskarberget" />
		<tag k="place" v="locality" />
		<tag k="ssr:stedsnr" v="968907" />
	</node>
	<node id="-146120" lat="60.7966138925" lon="9.62703611084">
		<tag k="name" v="Kardalen" />
		<tag k="natural" v="valley" />
		<tag k="place" v="locality" />
		<tag k="ssr:stedsnr" v="968905" />
	</node>
	<node id="-144071" lat="60.8133472259" lon="9.631699997">
		<tag k="name" v="Klypekøllin" />
		<tag k="natural" v="hill" />
		<tag k="place" v="locality" />
		<tag k="ssr:stedsnr" v="100991" />
	</node>
	<node id="-146118" lat="60.7096583375" lon="9.33440833283">
		<tag k="name" v="Bualandhøla" />
		<tag k="natural" v="valley" />
		<tag k="place" v="locality" />
		<tag k="ssr:stedsnr" v="968864" />
	</node>
	<node id="-146116" lat="60.8352777756" lon="9.45993611416">
		<tag k="name" v="Høgbrennhalle" />
		<tag k="natural" v="slope" />
		<tag k="place" v="locality" />
		<tag k="ssr:stedsnr" v="968863" />
	</node>
	<node id="-144066" lat="60.6212499987" lon="9.57999444901">
		<tag k="name" v="Eneberghaugen" />
		<tag k="natural" v="hill" />
		<tag k="place" v="locality" />
		<tag k="ssr:stedsnr" v="100869" />
	</node>
	<node id="-144064" lat="60.4850500007" lon="9.80842778304">
		<tag k="name" v="Grojuvet" />
		<tag k="natural" v="gorge" />
		<tag k="ssr:stedsnr" v="100802" />
	</node>
	<node id="-144063" lat="60.8098944456" lon="9.49436667475">
		<tag k="name" v="Halle" />
		<tag k="natural" v="valley" />
		<tag k="place" v="locality" />
		<tag k="ssr:stedsnr" v="100788" />
	</node>
	<node id="-146110" lat="60.8282055524" lon="9.5304972204">
		<tag k="name" v="Maraberget" />
		<tag k="natural" v="slope" />
		<tag k="place" v="locality" />
		<tag k="ssr:stedsnr" v="968813" />
	</node>
	<node id="-146109" lat="60.8344416628" lon="9.54145834014">
		<tag k="name" v="Gråbeinhølet" />
		<tag k="natural" v="valley" />
		<tag k="place" v="locality" />
		<tag k="ssr:stedsnr" v="968810" />
	</node>
	<node id="-146105" lat="60.5867750033" lon="9.64737500545">
		<tag k="name" v="Skrikkerbakken" />
		<tag k="natural" v="slope" />
		<tag k="place" v="locality" />
		<tag k="ssr:stedsnr" v="968774" />
	</node>
	<node id="-144054" lat="60.7837777784" lon="9.80533055032">
		<tag k="fixme" v="consider natural=peak for the most distinct mountains in the district" />
		<tag k="name" v="Øyvassknatten" />
		<tag k="natural" v="hill" />
		<tag k="place" v="locality" />
		<tag k="ssr:stedsnr" v="100477" />
	</node>
	<node id="-146101" lat="60.7979527781" lon="9.42632778073">
		<tag k="name" v="Gråeberget" />
		<tag k="natural" v="hill" />
		<tag k="place" v="locality" />
		<tag k="ssr:stedsnr" v="968687" />
	</node>
	<node id="-144052" lat="60.685202775" lon="9.65194445196">
		<tag k="name" v="Kventrudhøllia" />
		<tag k="natural" v="slope" />
		<tag k="place" v="locality" />
		<tag k="ssr:stedsnr" v="100343" />
	</node>
	<node id="-146099" lat="60.818313886" lon="9.40899444655">
		<tag k="name" v="Vårsæterlie" />
		<tag k="natural" v="slope" />
		<tag k="place" v="locality" />
		<tag k="ssr:stedsnr" v="968676" />
	</node>
	<node id="-144050" lat="60.6662361116" lon="9.67904444748">
		<tag k="name" v="Skarsæterdalen" />
		<tag k="natural" v="valley" />
		<tag k="place" v="locality" />
		<tag k="ssr:stedsnr" v="100271" />
	</node>
	<node id="-144049" lat="60.6630583354" lon="9.73330278399">
		<tag k="fixme" v="consider natural=peak for the most distinct mountains in the district" />
		<tag k="name" v="Kristiansmokollen" />
		<tag k="natural" v="hill" />
		<tag k="place" v="locality" />
		<tag k="ssr:stedsnr" v="100268" />
	</node>
	<node id="-146094" lat="60.5730611087" lon="9.69174999765">
		<tag k="name" v="Bruskerudberga" />
		<tag k="place" v="locality" />
		<tag k="ssr:stedsnr" v="968505" />
	</node>
	<node id="-146093" lat="60.601830554" lon="9.72051666591">
		<tag k="name" v="Flintehaugen" />
		<tag k="natural" v="hill" />
		<tag k="place" v="locality" />
		<tag k="ssr:stedsnr" v="968501" />
	</node>
	<node id="-146091" lat="60.7395361097" lon="9.54416111298">
		<tag k="name" v="Steinmoen" />
		<tag k="place" v="locality" />
		<tag k="ssr:stedsnr" v="968470" />
	</node>
	<node id="-144042" lat="60.7097055542" lon="9.72864722704">
		<tag k="alt_name" v="Matabytdalen" />
		<tag k="name" v="Matabitdalen" />
		<tag k="natural" v="valley" />
		<tag k="place" v="locality" />
		<tag k="ssr:stedsnr" v="100180" />
	</node>
	<node id="-144041" lat="60.7964055559" lon="9.48758333469">
		<tag k="name" v="Ranangsberget" />
		<tag k="place" v="locality" />
		<tag k="ssr:stedsnr" v="100173" />
	</node>
	<node id="-146087" lat="60.8587500004" lon="9.44373610228">
		<tag k="name" v="Dugurdshaugen" />
		<tag k="natural" v="hill" />
		<tag k="place" v="locality" />
		<tag k="ssr:stedsnr" v="968366" />
	</node>
	<node id="-146083" lat="60.7506500013" lon="9.65609444468">
		<tag k="name" v="Sæterberget" />
		<tag k="natural" v="hill" />
		<tag k="place" v="locality" />
		<tag k="ssr:stedsnr" v="968227" />
	</node>
	<node id="-146082" lat="60.7430305542" lon="9.63825000616">
		<tag k="name" v="Halvorshalle" />
		<tag k="natural" v="slope" />
		<tag k="place" v="locality" />
		<tag k="ssr:stedsnr" v="968218" />
	</node>
	<node id="-146081" lat="60.7001055578" lon="9.56276945167">
		<tag k="name" v="Reinsjødalhalle" />
		<tag k="natural" v="slope" />
		<tag k="place" v="locality" />
		<tag k="ssr:stedsnr" v="968196" />
	</node>
	<node id="-146080" lat="60.6993472238" lon="9.64398610747">
		<tag k="name" v="Bjønnehaugen" />
		<tag k="natural" v="hill" />
		<tag k="place" v="locality" />
		<tag k="ssr:stedsnr" v="968189" />
	</node>
	<node id="-143472" lat="60.7305166686" lon="9.64506666917">
		<tag k="name" v="Ledalen" />
		<tag k="natural" v="valley" />
		<tag k="place" v="locality" />
		<tag k="ssr:stedsnr" v="310930" />
	</node>
	<node id="-144030" lat="60.8091111096" lon="9.60867500687">
		<tag k="fixme" v="consider natural=peak for the most distinct mountains in the district" />
		<tag k="name" v="Kjeldeknatten" />
		<tag k="natural" v="hill" />
		<tag k="place" v="locality" />
		<tag k="ssr:stedsnr" v="70233" />
	</node>
	<node id="-144028" lat="60.8116527785" lon="9.70952223121">
		<tag k="fixme" v="consider natural=peak for the most distinct mountains in the district" />
		<tag k="name" v="Kviteberget" />
		<tag k="natural" v="hill" />
		<tag k="place" v="locality" />
		<tag k="ssr:stedsnr" v="70221" />
	</node>
	<node id="-146075" lat="60.756825003" lon="9.71761389742">
		<tag k="name" v="Klemma" />
		<tag k="natural" v="valley" />
		<tag k="place" v="locality" />
		<tag k="ssr:stedsnr" v="968154" />
	</node>
	<node id="-146073" lat="60.7464777823" lon="9.68236388523">
		<tag k="name" v="Gaupeskaret" />
		<tag k="natural" v="valley" />
		<tag k="place" v="locality" />
		<tag k="ssr:stedsnr" v="968142" />
	</node>
	<node id="-146072" lat="60.753575004" lon="9.74797777998">
		<tag k="name" v="Svarthamaratn" />
		<tag k="natural" v="hill" />
		<tag k="place" v="locality" />
		<tag k="ssr:stedsnr" v="968138" />
	</node>
	<node id="-146071" lat="60.7721944445" lon="9.57798610962">
		<tag k="name" v="Svølkopp" />
		<tag k="place" v="locality" />
		<tag k="ssr:stedsnr" v="968098" />
	</node>
	<node id="-146063" lat="60.7541388915" lon="9.41385278361">
		<tag k="name" v="Tetebrenne" />
		<tag k="natural" v="hill" />
		<tag k="place" v="locality" />
		<tag k="ssr:stedsnr" v="949984" />
	</node>
	<node id="-146062" lat="60.8052027778" lon="9.58375276941">
		<tag k="name" v="Nordre Renna" />
		<tag k="natural" v="valley" />
		<tag k="place" v="locality" />
		<tag k="ssr:stedsnr" v="949958" />
	</node>
	<node id="-146061" lat="60.8283083346" lon="9.55487499469">
		<tag k="name" v="Spangrudberget" />
		<tag k="place" v="locality" />
		<tag k="ssr:stedsnr" v="949949" />
	</node>
	<node id="-146060" lat="60.7297694474" lon="9.48882500805">
		<tag k="name" v="Hallingfeten" />
		<tag k="place" v="locality" />
		<tag k="ssr:stedsnr" v="949913" />
	</node>
	<node id="-146059" lat="60.7061583365" lon="9.61059165898">
		<tag k="name" v="Benkene" />
		<tag k="natural" v="hill" />
		<tag k="place" v="locality" />
		<tag k="ssr:stedsnr" v="949869" />
	</node>
	<node id="-146056" lat="60.5051777759" lon="9.77297222731">
		<tag k="name" v="Gullbotdalen" />
		<tag k="natural" v="valley" />
		<tag k="place" v="locality" />
		<tag k="ssr:stedsnr" v="949816" />
	</node>
	<node id="-146053" lat="60.4985250015" lon="9.79966111109">
		<tag k="name" v="Stuttefjellia" />
		<tag k="natural" v="slope" />
		<tag k="place" v="locality" />
		<tag k="ssr:stedsnr" v="949808" />
	</node>
	<node id="-146051" lat="60.8536861102" lon="9.48984166443">
		<tag k="name" v="Torsteinbrøtin" />
		<tag k="natural" v="hill" />
		<tag k="place" v="locality" />
		<tag k="ssr:stedsnr" v="949729" />
	</node>
	<node id="-144001" lat="60.7463249994" lon="9.74757222045">
		<tag k="name" v="Gravasslii" />
		<tag k="natural" v="slope" />
		<tag k="place" v="locality" />
		<tag k="ssr:stedsnr" v="68798" />
	</node>
	<node id="-146047" lat="60.7956055575" lon="9.36838333523">
		<tag k="name" v="Fiskebuhallitn" />
		<tag k="natural" v="slope" />
		<tag k="place" v="locality" />
		<tag k="ssr:stedsnr" v="949526" />
	</node>
	<node id="-146041" lat="60.6269138906" lon="9.47262222057">
		<tag k="name" v="Klypefjell" />
		<tag k="natural" v="hill" />
		<tag k="place" v="locality" />
		<tag k="ssr:stedsnr" v="949261" />
	</node>
	<node id="-146040" lat="60.7902500015" lon="9.51225277153">
		<tag k="name" v="Islandsbakkatn" />
		<tag k="natural" v="slope" />
		<tag k="place" v="locality" />
		<tag k="ssr:stedsnr" v="949222" />
	</node>
	<node id="-143991" lat="60.6259861127" lon="9.47527777974">
		<tag k="name" v="Klypa" />
		<tag k="natural" v="valley" />
		<tag k="place" v="locality" />
		<tag k="ssr:stedsnr" v="68642" />
	</node>
	<node id="-146037" lat="60.723711108" lon="9.67388056338">
		<tag k="name" v="Skaret" />
		<tag k="natural" v="valley" />
		<tag k="place" v="locality" />
		<tag k="ssr:stedsnr" v="949212" />
	</node>
	<node id="-146036" lat="60.7302277793" lon="9.71849999375">
		<tag k="name" v="Køldokke" />
		<tag k="place" v="locality" />
		<tag k="ssr:stedsnr" v="949208" />
	</node>
	<node id="-143987" lat="60.6482638879" lon="9.9172861092">
		<tag k="name" v="Lisæterhøgda" />
		<tag k="natural" v="hill" />
		<tag k="place" v="locality" />
		<tag k="ssr:stedsnr" v="67978" />
	</node>
	<node id="-146033" lat="60.7751666655" lon="9.47127499085">
		<tag k="name" v="Bufarhalle" />
		<tag k="natural" v="slope" />
		<tag k="place" v="locality" />
		<tag k="ssr:stedsnr" v="949181" />
	</node>
	<node id="-146032" lat="60.7557749987" lon="9.52823610192">
		<tag k="name" v="Svartsæterflåe" />
		<tag k="place" v="locality" />
		<tag k="ssr:stedsnr" v="949177" />
	</node>
	<node id="-146030" lat="60.765800003" lon="9.49433611649">
		<tag k="name" v="Lyarberget" />
		<tag k="natural" v="hill" />
		<tag k="place" v="locality" />
		<tag k="ssr:stedsnr" v="949169" />
	</node>
	<node id="-143976" lat="60.4993333328" lon="9.63823333014">
		<tag k="fixme" v="consider natural=peak for the most distinct mountains in the district" />
		<tag k="name" v="Dyttholfjellet" />
		<tag k="natural" v="hill" />
		<tag k="place" v="locality" />
		<tag k="ssr:stedsnr" v="67939" />
	</node>
	<node id="-146021" lat="60.8123499992" lon="9.49673610213">
		<tag k="alt_name" v="Høghaugen" />
		<tag k="name" v="Høgehaugen" />
		<tag k="natural" v="hill" />
		<tag k="place" v="locality" />
		<tag k="ssr:stedsnr" v="919808" />
	</node>
	<node id="-143970" lat="60.6788888896" lon="9.40912221395">
		<tag k="alt_name" v="Vangslie" />
		<tag k="name" v="Vangslii" />
		<tag k="natural" v="slope" />
		<tag k="place" v="locality" />
		<tag k="ssr:stedsnr" v="67700" />
	</node>
	<node id="-143803" lat="60.7062472198" lon="9.5397249977">
		<tag k="alt_name" v="Gamlesæterhøgda" />
		<tag k="fixme" v="consider natural=peak for the most distinct mountains in the district" />
		<tag k="name" v="Gamlesæterhøgdi" />
		<tag k="natural" v="hill" />
		<tag k="place" v="locality" />
		<tag k="ssr:stedsnr" v="7527" />
	</node>
	<node id="-146016" lat="60.7673499963" lon="9.51709443789">
		<tag k="alt_name" v="Kattuglehøgda" />
		<tag k="fixme" v="consider natural=peak for the most distinct mountains in the district" />
		<tag k="name" v="Kattuglehøgdi" />
		<tag k="natural" v="hill" />
		<tag k="place" v="locality" />
		<tag k="ssr:stedsnr" v="919771" />
	</node>
	<node id="-143965" lat="60.7663583355" lon="9.41123332876">
		<tag k="fixme" v="consider natural=peak for the most distinct mountains in the district" />
		<tag k="name" v="Vøllsberget" />
		<tag k="natural" v="hill" />
		<tag k="place" v="locality" />
		<tag k="ssr:stedsnr" v="58956" />
	</node>
	<node id="-146011" lat="60.8143000009" lon="9.67607499108">
		<tag k="fixme" v="consider natural=peak for the most distinct mountains in the district" />
		<tag k="name" v="Damtjernhøgdi" />
		<tag k="natural" v="hill" />
		<tag k="place" v="locality" />
		<tag k="ssr:stedsnr" v="919181" />
	</node>
	<node id="-146010" lat="60.8189383842" lon="9.67951188106">
		<tag k="fixme" v="multiple name tags, choose one and add the other to alt_name; consider natural=peak for the most distinct mountains in the district" />
		<tag k="name" v="Knaldreåsen;Svarttjernknatten" />
		<tag k="natural" v="hill" />
		<tag k="place" v="locality" />
		<tag k="ssr:stedsnr" v="919176" />
	</node>
	<node id="-146006" lat="60.7850666703" lon="9.78541110708">
		<tag k="name" v="Skilnadknatten" />
		<tag k="natural" v="hill" />
		<tag k="place" v="locality" />
		<tag k="ssr:stedsnr" v="919137" />
	</node>
	<node id="-143956" lat="60.7731388891" lon="9.2983249947">
		<tag k="fixme" v="consider natural=peak for the most distinct mountains in the district" />
		<tag k="name" v="Gamlestølfjellet" />
		<tag k="natural" v="hill" />
		<tag k="place" v="locality" />
		<tag k="ssr:stedsnr" v="58777" />
	</node>
	<node id="-146003" lat="60.7061027811" lon="9.61205556155">
		<tag k="name" v="Benkane" />
		<tag k="natural" v="hill" />
		<tag k="place" v="locality" />
		<tag k="ssr:stedsnr" v="917997" />
	</node>
	<node id="-146002" lat="60.7017611095" lon="9.63892500364">
		<tag k="alt_name" v="Sjenalihøgda" />
		<tag k="name" v="Skjenalihøgda" />
		<tag k="natural" v="hill" />
		<tag k="place" v="locality" />
		<tag k="ssr:stedsnr" v="917988" />
	</node>
	<node id="-143950" lat="60.7936166709" lon="9.42859444394">
		<tag k="name" v="Bådnfeten" />
		<tag k="place" v="locality" />
		<tag k="ssr:stedsnr" v="58681" />
	</node>
	<node id="-145997" lat="60.7326888876" lon="9.8824583341">
		<tag k="alt_name" v="Snipphaugatn" />
		<tag k="name" v="Snipphøgda" />
		<tag k="natural" v="hill" />
		<tag k="place" v="locality" />
		<tag k="ssr:stedsnr" v="917962" />
	</node>
	<node id="-145996" lat="60.7250972254" lon="9.95087222542">
		<tag k="name" v="Gråhatten" />
		<tag k="natural" v="hill" />
		<tag k="place" v="locality" />
		<tag k="ssr:stedsnr" v="917958" />
	</node>
	<node id="-143947" lat="60.8185611144" lon="9.3661805538">
		<tag k="name" v="Kvanneslette" />
		<tag k="place" v="locality" />
		<tag k="ssr:stedsnr" v="58663" />
	</node>
	<node id="-143943" lat="60.7464722242" lon="9.52466111786">
		<tag k="name" v="Bøvahalle" />
		<tag k="natural" v="slope" />
		<tag k="place" v="locality" />
		<tag k="ssr:stedsnr" v="58478" />
	</node>
	<node id="-145990" lat="60.6576111126" lon="9.85078054883">
		<tag k="fixme" v="consider natural=peak for the most distinct mountains in the district" />
		<tag k="name" v="Stamskollen" />
		<tag k="natural" v="hill" />
		<tag k="place" v="locality" />
		<tag k="ssr:stedsnr" v="917939" />
	</node>
	<node id="-144005" lat="60.5117083311" lon="9.74633610337">
		<tag k="alt_name" v="Middagsknatten, nordre" />
		<tag k="name" v="Nordre Middagsknatten" />
		<tag k="natural" v="hill" />
		<tag k="place" v="locality" />
		<tag k="ssr:stedsnr" v="68868" />
	</node>
	<node id="-143936" lat="60.6833138932" lon="9.52719166734">
		<tag k="name" v="Fintoppkollen" />
		<tag k="natural" v="hill" />
		<tag k="place" v="locality" />
		<tag k="ssr:stedsnr" v="58469" />
	</node>
	<node id="-145983" lat="60.5979444472" lon="9.77726667408">
		<tag k="name" v="Rugåkerbrenna" />
		<tag k="natural" v="hill" />
		<tag k="place" v="locality" />
		<tag k="ssr:stedsnr" v="917897" />
	</node>
	<node id="-145982" lat="60.5934388897" lon="9.70938888352">
		<tag k="fixme" v="consider natural=peak for the most distinct mountains in the district" />
		<tag k="name" v="Skurveknatten" />
		<tag k="natural" v="hill" />
		<tag k="place" v="locality" />
		<tag k="ssr:stedsnr" v="917895" />
	</node>
	<node id="-143932" lat="60.7515694428" lon="9.66130832952">
		<tag k="name" v="Gråskallin" />
		<tag k="natural" v="hill" />
		<tag k="place" v="locality" />
		<tag k="ssr:stedsnr" v="58238" />
	</node>
	<node id="-143930" lat="60.7382833331" lon="9.64825277179">
		<tag k="name" v="Høglie" />
		<tag k="natural" v="slope" />
		<tag k="place" v="locality" />
		<tag k="ssr:stedsnr" v="58226" />
	</node>
	<node id="-143929" lat="60.7257083318" lon="9.61284721858">
		<tag k="name" v="Liasæterhallitn" />
		<tag k="natural" v="slope" />
		<tag k="place" v="locality" />
		<tag k="ssr:stedsnr" v="58216" />
	</node>
	<node id="-143927" lat="60.6950194422" lon="9.57646389408">
		<tag k="fixme" v="consider natural=peak for the most distinct mountains in the district" />
		<tag k="name" v="Larsbølkollen" />
		<tag k="natural" v="hill" />
		<tag k="place" v="locality" />
		<tag k="ssr:stedsnr" v="58207" />
	</node>
	<node id="-145974" lat="60.5726694433" lon="9.64768333174">
		<tag k="fixme" v="consider natural=peak for the most distinct mountains in the district" />
		<tag k="name" v="Bruskerudfjellet" />
		<tag k="natural" v="hill" />
		<tag k="place" v="locality" />
		<tag k="ssr:stedsnr" v="917809" />
	</node>
	<node id="-143925" lat="60.7784500008" lon="9.76603889592">
		<tag k="name" v="Mortebekkhøgde" />
		<tag k="natural" v="hill" />
		<tag k="place" v="locality" />
		<tag k="ssr:stedsnr" v="58182" />
	</node>
	<node id="-145972" lat="60.7377638906" lon="9.65146944468">
		<tag k="name" v="Høgliberget" />
		<tag k="natural" v="hill" />
		<tag k="place" v="locality" />
		<tag k="ssr:stedsnr" v="917790" />
	</node>
	<node id="-145969" lat="60.7047277792" lon="9.56313055117">
		<tag k="fixme" v="consider natural=peak for the most distinct mountains in the district" />
		<tag k="name" v="Reinsjødalshøgdi" />
		<tag k="natural" v="hill" />
		<tag k="place" v="locality" />
		<tag k="ssr:stedsnr" v="917690" />
	</node>
	<node id="-145966" lat="60.6248250002" lon="9.58511388993">
		<tag k="alt_name" v="Skriuåshøgda" />
		<tag k="fixme" v="consider natural=peak for the most distinct mountains in the district" />
		<tag k="name" v="Skriuåsen" />
		<tag k="natural" v="hill" />
		<tag k="place" v="locality" />
		<tag k="ssr:stedsnr" v="917666" />
	</node>
	<node id="-145962" lat="60.4841777741" lon="9.68418332953">
		<tag k="name" v="Ørneflag" />
		<tag k="place" v="locality" />
		<tag k="ssr:stedsnr" v="916939" />
	</node>
	<node id="-143912" lat="60.5306833302" lon="9.48090832575">
		<tag k="name" v="Vinterstøberget" />
		<tag k="natural" v="hill" />
		<tag k="place" v="locality" />
		<tag k="ssr:stedsnr" v="41205" />
	</node>
	<node id="-145959" lat="60.7590083357" lon="9.38115277845">
		<tag k="name" v="Tempelen" />
		<tag k="natural" v="hill" />
		<tag k="place" v="locality" />
		<tag k="ssr:stedsnr" v="908993" />
	</node>
	<node id="-143908" lat="60.8563305574" lon="9.49355833057">
		<tag k="name" v="Høvsrenna" />
		<tag k="natural" v="slope" />
		<tag k="place" v="locality" />
		<tag k="ssr:stedsnr" v="39907" />
	</node>
	<node id="-145955" lat="60.8315750013" lon="9.41195277548">
		<tag k="name" v="Veslelyu" />
		<tag k="natural" v="slope" />
		<tag k="place" v="locality" />
		<tag k="ssr:stedsnr" v="908801" />
	</node>
	<node id="-145953" lat="60.8094000016" lon="9.43145555034">
		<tag k="name" v="Lyuslette" />
		<tag k="place" v="locality" />
		<tag k="ssr:stedsnr" v="908684" />
	</node>
	<node id="-143904" lat="60.5328749981" lon="9.69033333098">
		<tag k="name" v="Fiskebråten" />
		<tag k="place" v="locality" />
		<tag k="ssr:stedsnr" v="39802" />
	</node>
	<node id="-145950" lat="60.8284805531" lon="9.37323055402">
		<tag k="name" v="Bruslette" />
		<tag k="place" v="locality" />
		<tag k="ssr:stedsnr" v="908666" />
	</node>
	<node id="-145949" lat="60.7618333313" lon="9.29126388389">
		<tag k="fixme" v="consider natural=peak for the most distinct mountains in the district" />
		<tag k="name" v="Vestre Syningen" />
		<tag k="natural" v="hill" />
		<tag k="place" v="locality" />
		<tag k="ssr:stedsnr" v="908667" />
	</node>
	<node id="-145946" lat="60.5857138857" lon="9.67065555588">
		<tag k="fixme" v="consider natural=peak for the most distinct mountains in the district" />
		<tag k="name" v="Torkel" />
		<tag k="natural" v="hill" />
		<tag k="place" v="locality" />
		<tag k="ssr:stedsnr" v="908511" />
	</node>
	<node id="-143895" lat="60.7949555586" lon="9.34996110889">
		<tag k="name" v="Røvslihallitn" />
		<tag k="natural" v="slope" />
		<tag k="place" v="locality" />
		<tag k="ssr:stedsnr" v="39522" />
	</node>
	<node id="-145942" lat="60.7302944475" lon="9.54278333755">
		<tag k="name" v="Smørhøllie" />
		<tag k="natural" v="slope" />
		<tag k="place" v="locality" />
		<tag k="ssr:stedsnr" v="908478" />
	</node>
	<node id="-145939" lat="60.864727775" lon="9.43693888036">
		<tag k="name" v="Turtebakklie" />
		<tag k="natural" v="slope" />
		<tag k="place" v="locality" />
		<tag k="ssr:stedsnr" v="908368" />
	</node>
	<node id="-143889" lat="60.6120444457" lon="9.66448610415">
		<tag k="name" v="Busujuvet" />
		<tag k="natural" v="gorge" />
		<tag k="ssr:stedsnr" v="39409" />
	</node>
	<node id="-145935" lat="60.7522055544" lon="9.61738055714">
		<tag k="name" v="Hausemyrkøllin" />
		<tag k="natural" v="hill" />
		<tag k="place" v="locality" />
		<tag k="ssr:stedsnr" v="908195" />
	</node>
	<node id="-145934" lat="60.7335388868" lon="9.64333610396">
		<tag k="name" v="Ledalen" />
		<tag k="natural" v="valley" />
		<tag k="place" v="locality" />
		<tag k="ssr:stedsnr" v="908194" />
	</node>
	<node id="-143885" lat="60.6454694465" lon="9.53086666634">
		<tag k="fixme" v="consider natural=peak for the most distinct mountains in the district" />
		<tag k="name" v="Bjørnlikollen" />
		<tag k="natural" v="hill" />
		<tag k="place" v="locality" />
		<tag k="ssr:stedsnr" v="39239" />
	</node>
	<node id="-143882" lat="60.6305166646" lon="9.46569166275">
		<tag k="fixme" v="consider natural=peak for the most distinct mountains in the district" />
		<tag k="name" v="Godvasskollen" />
		<tag k="natural" v="hill" />
		<tag k="place" v="locality" />
		<tag k="ssr:stedsnr" v="39232" />
	</node>
	<node id="-145929" lat="60.7865638857" lon="9.75716666023">
		<tag k="name" v="Skilnadknatten" />
		<tag k="natural" v="hill" />
		<tag k="place" v="locality" />
		<tag k="ssr:stedsnr" v="908170" />
	</node>
	<node id="-145928" lat="60.763422222" lon="9.72744444108">
		<tag k="name" v="Studenterlund" />
		<tag k="place" v="locality" />
		<tag k="ssr:stedsnr" v="908166" />
	</node>
	<node id="-145927" lat="60.7494083371" lon="9.7400916649">
		<tag k="name" v="Pavebakkin" />
		<tag k="natural" v="slope" />
		<tag k="place" v="locality" />
		<tag k="ssr:stedsnr" v="908149" />
	</node>
	<node id="-143877" lat="60.7257333343" lon="9.66599166432">
		<tag k="name" v="Hovdedalatn" />
		<tag k="natural" v="valley" />
		<tag k="place" v="locality" />
		<tag k="ssr:stedsnr" v="39167" />
	</node>
	<node id="-143876" lat="60.7162944442" lon="9.72754443722">
		<tag k="name" v="Skilnarenna" />
		<tag k="natural" v="slope" />
		<tag k="place" v="locality" />
		<tag k="ssr:stedsnr" v="39168" />
	</node>
	<node id="-145923" lat="60.757424998" lon="9.57842223094">
		<tag k="name" v="Føldokke" />
		<tag k="natural" v="slope" />
		<tag k="place" v="locality" />
		<tag k="ssr:stedsnr" v="908103" />
	</node>
	<node id="-145922" lat="60.8093555568" lon="9.75159443756">
		<tag k="name" v="Mebendflate" />
		<tag k="place" v="locality" />
		<tag k="ssr:stedsnr" v="908098" />
	</node>
	<node id="-145918" lat="60.7468499972" lon="9.57934721842">
		<tag k="name" v="Gunhildbrøtin" />
		<tag k="natural" v="slope" />
		<tag k="place" v="locality" />
		<tag k="ssr:stedsnr" v="908073" />
	</node>
	<node id="-145915" lat="60.8245944429" lon="9.54156389771">
		<tag k="name" v="Saudalsberget" />
		<tag k="natural" v="hill" />
		<tag k="place" v="locality" />
		<tag k="ssr:stedsnr" v="907755" />
	</node>
	<node id="-145914" lat="60.6701749958" lon="9.91393611366">
		<tag k="name" v="Reisenbein" />
		<tag k="place" v="locality" />
		<tag k="ssr:stedsnr" v="907010" />
	</node>
	<node id="-145912" lat="60.834033332" lon="9.60072777946">
		<tag k="name" v="Mikkelstjennhaugen" />
		<tag k="natural" v="hill" />
		<tag k="place" v="locality" />
		<tag k="ssr:stedsnr" v="903126" />
	</node>
	<node id="-143862" lat="60.8318999962" lon="9.4036250036">
		<tag k="alt_name" v="Tempelen" />
		<tag k="fixme" v="consider natural=peak for the most distinct mountains in the district" />
		<tag k="name" v="Heimretempelen" />
		<tag k="natural" v="hill" />
		<tag k="place" v="locality" />
		<tag k="ssr:stedsnr" v="9638" />
	</node>
	<node id="-143857" lat="60.7627416684" lon="9.64676111634">
		<tag k="fixme" v="consider natural=peak for the most distinct mountains in the district" />
		<tag k="name" v="Olmhusknatten" />
		<tag k="natural" v="hill" />
		<tag k="place" v="locality" />
		<tag k="ssr:stedsnr" v="9156" />
	</node>
	<node id="-143846" lat="60.7079194465" lon="9.67781388299">
		<tag k="alt_name" v="Garthusberga" />
		<tag k="name" v="Garthusberget" />
		<tag k="natural" v="hill" />
		<tag k="place" v="locality" />
		<tag k="ssr:stedsnr" v="7984" />
	</node>
	<node id="-143845" lat="60.7055111113" lon="9.65973610211">
		<tag k="name" v="Johanskollen" />
		<tag k="natural" v="hill" />
		<tag k="place" v="locality" />
		<tag k="ssr:stedsnr" v="7981" />
	</node>
	<node id="-143842" lat="60.715130559" lon="9.73869999235">
		<tag k="alt_name" v="Eidskøllin" />
		<tag k="name" v="Eidskollen" />
		<tag k="natural" v="hill" />
		<tag k="place" v="locality" />
		<tag k="ssr:stedsnr" v="7973" />
	</node>
	<node id="-143841" lat="60.6449527786" lon="9.59753610892">
		<tag k="alt_name" v="Høgeberget" />
		<tag k="name" v="Høgberget" />
		<tag k="natural" v="hill" />
		<tag k="place" v="locality" />
		<tag k="ssr:stedsnr" v="7964" />
	</node>
	<node id="-145887" lat="60.7142027757" lon="9.85262500572">
		<tag k="name" v="Kjeldelia" />
		<tag k="natural" v="slope" />
		<tag k="place" v="locality" />
		<tag k="ssr:stedsnr" v="857997" />
	</node>
	<node id="-143835" lat="60.5926277775" lon="9.78857778154">
		<tag k="alt_name" v="Smørhølbakka" />
		<tag k="name" v="Smørholbakkane" />
		<tag k="natural" v="hill" />
		<tag k="place" v="locality" />
		<tag k="ssr:stedsnr" v="7921" />
	</node>
	<node id="-145880" lat="60.6343111097" lon="9.75827500011">
		<tag k="name" v="Sanddiket" />
		<tag k="natural" v="slope" />
		<tag k="place" v="locality" />
		<tag k="ssr:stedsnr" v="857970" />
	</node>
	<node id="-145879" lat="60.7314638866" lon="9.9279111124">
		<tag k="name" v="Langbergshøgda" />
		<tag k="natural" v="hill" />
		<tag k="place" v="locality" />
		<tag k="ssr:stedsnr" v="857960" />
	</node>
	<node id="-143830" lat="60.6952750003" lon="9.92289444695">
		<tag k="alt_name" v="Godhaug, nordre" />
		<tag k="name" v="Nordre Godhaug" />
		<tag k="natural" v="hill" />
		<tag k="place" v="locality" />
		<tag k="ssr:stedsnr" v="7900" />
	</node>
	<node id="-145877" lat="60.6937666651" lon="9.69096110875">
		<tag k="fixme" v="consider natural=peak for the most distinct mountains in the district" />
		<tag k="name" v="Mana" />
		<tag k="natural" v="hill" />
		<tag k="place" v="locality" />
		<tag k="ssr:stedsnr" v="857880" />
	</node>
	<node id="-145875" lat="60.5146166639" lon="9.66778333628">
		<tag k="name" v="Hammersborg" />
		<tag k="natural" v="hill" />
		<tag k="place" v="locality" />
		<tag k="ssr:stedsnr" v="857870" />
	</node>
	<node id="-143824" lat="60.6927638869" lon="9.63130834178">
		<tag k="name" v="Valdreshaugkollen" />
		<tag k="natural" v="hill" />
		<tag k="place" v="locality" />
		<tag k="ssr:stedsnr" v="7879" />
	</node>
	<node id="-143819" lat="60.5271527778" lon="9.61317499202">
		<tag k="name" v="Fjellelvdalen" />
		<tag k="natural" v="valley" />
		<tag k="place" v="locality" />
		<tag k="ssr:stedsnr" v="7862" />
	</node>
	<node id="-143817" lat="60.5587583372" lon="9.65541389807">
		<tag k="name" v="Storbekkseilen" />
		<tag k="natural" v="valley" />
		<tag k="place" v="locality" />
		<tag k="ssr:stedsnr" v="7822" />
	</node>
	<node id="-145864" lat="60.6004666642" lon="9.51725555027">
		<tag k="fixme" v="consider natural=peak for the most distinct mountains in the district" />
		<tag k="name" v="Mathaugen" />
		<tag k="natural" v="hill" />
		<tag k="place" v="locality" />
		<tag k="ssr:stedsnr" v="857654" />
	</node>
	<node id="-145863" lat="60.7452777738" lon="9.48891111475">
		<tag k="alt_name" v="Øytjennåsen" />
		<tag k="fixme" v="consider natural=peak for the most distinct mountains in the district" />
		<tag k="name" v="Øytjernåsen" />
		<tag k="natural" v="hill" />
		<tag k="place" v="locality" />
		<tag k="ssr:stedsnr" v="857577" />
	</node>
	<node id="-143810" lat="60.6970999971" lon="9.38708056213">
		<tag k="fixme" v="consider natural=peak for the most distinct mountains in the district" />
		<tag k="name" v="Gutusæteråsen" />
		<tag k="natural" v="hill" />
		<tag k="place" v="locality" />
		<tag k="ssr:stedsnr" v="7689" />
	</node>
	<node id="-145852" lat="60.6785944458" lon="9.82795833337">
		<tag k="fixme" v="consider natural=peak for the most distinct mountains in the district" />
		<tag k="name" v="Vesleåsen" />
		<tag k="natural" v="hill" />
		<tag k="place" v="locality" />
		<tag k="ssr:stedsnr" v="856933" />
	</node>
	<node id="-145851" lat="60.6762611082" lon="9.95066389715">
		<tag k="name" v="Øyvassæterhøgda" />
		<tag k="natural" v="hill" />
		<tag k="place" v="locality" />
		<tag k="ssr:stedsnr" v="856931" />
	</node>
	<node id="-143801" lat="60.7201305568" lon="9.58480832977">
		<tag k="alt_name" v="Øyvassæterhøgde" />
		<tag k="fixme" v="consider natural=peak for the most distinct mountains in the district" />
		<tag k="name" v="Øyvasshøgdi" />
		<tag k="natural" v="hill" />
		<tag k="place" v="locality" />
		<tag k="ssr:stedsnr" v="7519" />
	</node>
	<node id="-145846" lat="60.6516361113" lon="9.56286388529">
		<tag k="fixme" v="consider natural=peak for the most distinct mountains in the district" />
		<tag k="name" v="Hytteåsen" />
		<tag k="natural" v="hill" />
		<tag k="place" v="locality" />
		<tag k="ssr:stedsnr" v="856731" />
	</node>
	<node id="-143797" lat="60.4927166659" lon="9.77603610852">
		<tag k="alt_name" v="Stuttfjell" />
		<tag k="fixme" v="consider natural=peak for the most distinct mountains in the district" />
		<tag k="name" v="Stutfjell" />
		<tag k="natural" v="hill" />
		<tag k="place" v="locality" />
		<tag k="ssr:stedsnr" v="6955" />
	</node>
	<node id="-145843" lat="60.6470323187" lon="9.44502359621">
		<tag k="fixme" v="multiple name tags, choose one and add the other to alt_name; consider natural=peak for the most distinct mountains in the district" />
		<tag k="name" v="Kråketjernfjellet;Varden" />
		<tag k="natural" v="hill" />
		<tag k="place" v="locality" />
		<tag k="ssr:stedsnr" v="856674" />
	</node>
	<node id="-145842" lat="60.7487611096" lon="9.37108055393">
		<tag k="name" v="Øytjernhaugane" />
		<tag k="natural" v="hill" />
		<tag k="old_name" v="Øytjednhaugatn" />
		<tag k="place" v="locality" />
		<tag k="ssr:stedsnr" v="847990" />
	</node>
	<node id="-143793" lat="60.4804611082" lon="9.78937500399">
		<tag k="alt_name" v="Gråfjell" />
		<tag k="fixme" v="consider natural=peak for the most distinct mountains in the district" />
		<tag k="name" v="Grofjell" />
		<tag k="natural" v="hill" />
		<tag k="place" v="locality" />
		<tag k="ssr:stedsnr" v="6943" />
	</node>
	<node id="-145840" lat="60.7751388889" lon="9.32973055092">
		<tag k="name" v="Bøleshalliten" />
		<tag k="natural" v="slope" />
		<tag k="place" v="locality" />
		<tag k="ssr:stedsnr" v="847958" />
	</node>
	<node id="-145837" lat="60.7741333295" lon="9.27295277592">
		<tag k="name" v="Rauskreolie" />
		<tag k="natural" v="slope" />
		<tag k="place" v="locality" />
		<tag k="ssr:stedsnr" v="847778" />
	</node>
	<node id="-145836" lat="60.792091664" lon="9.31169722205">
		<tag k="fixme" v="consider natural=peak for the most distinct mountains in the district" />
		<tag k="name" v="Vestre Sangeknatten" />
		<tag k="natural" v="hill" />
		<tag k="place" v="locality" />
		<tag k="ssr:stedsnr" v="847773" />
	</node>
	<node id="-145835" lat="60.796852778" lon="9.29558056175">
		<tag k="name" v="Lauvhalle" />
		<tag k="natural" v="valley" />
		<tag k="place" v="locality" />
		<tag k="ssr:stedsnr" v="847771" />
	</node>
	<node id="-145834" lat="60.7795555597" lon="9.28073888645">
		<tag k="fixme" v="consider natural=peak for the most distinct mountains in the district" />
		<tag k="name" v="Langehallfjellet" />
		<tag k="natural" v="hill" />
		<tag k="place" v="locality" />
		<tag k="ssr:stedsnr" v="847769" />
	</node>
	<node id="-145830" lat="60.7934083324" lon="9.43795277594">
		<tag k="name" v="Sauberget" />
		<tag k="place" v="locality" />
		<tag k="ssr:stedsnr" v="847671" />
	</node>
	<node id="-145828" lat="60.7792305558" lon="9.43174445154">
		<tag k="name" v="Søljulie" />
		<tag k="natural" v="slope" />
		<tag k="place" v="locality" />
		<tag k="ssr:stedsnr" v="847664" />
	</node>
	<node id="-145827" lat="60.7829333302" lon="9.43808610214">
		<tag k="name" v="Grovkløvskaret" />
		<tag k="natural" v="valley" />
		<tag k="place" v="locality" />
		<tag k="ssr:stedsnr" v="847665" />
	</node>
	<node id="-145818" lat="60.8099694465" lon="9.51761110416">
		<tag k="name" v="Skørre" />
		<tag k="natural" v="valley" />
		<tag k="place" v="locality" />
		<tag k="ssr:stedsnr" v="847277" />
	</node>
	<node id="-145817" lat="60.8032166638" lon="9.51485833585">
		<tag k="name" v="Fethalle" />
		<tag k="natural" v="slope" />
		<tag k="place" v="locality" />
		<tag k="ssr:stedsnr" v="847274" />
	</node>
	<node id="-145816" lat="60.7384222256" lon="9.60601111517">
		<tag k="name" v="Luvebladet" />
		<tag k="place" v="locality" />
		<tag k="ssr:stedsnr" v="847213" />
	</node>
	<node id="-145813" lat="60.6991499996" lon="9.6505305536">
		<tag k="name" v="Tamburhaugen" />
		<tag k="natural" v="hill" />
		<tag k="place" v="locality" />
		<tag k="ssr:stedsnr" v="847200" />
	</node>
	<node id="-145812" lat="60.6906277738" lon="9.58050000664">
		<tag k="name" v="Larsebøle" />
		<tag k="place" v="locality" />
		<tag k="ssr:stedsnr" v="847197" />
	</node>
	<node id="-145811" lat="60.6915166654" lon="9.59427221839">
		<tag k="name" v="Brennhøl" />
		<tag k="natural" v="valley" />
		<tag k="place" v="locality" />
		<tag k="ssr:stedsnr" v="847191" />
	</node>
	<node id="-145810" lat="60.7621944445" lon="9.67913889403">
		<tag k="name" v="Meddagsskørre" />
		<tag k="natural" v="valley" />
		<tag k="place" v="locality" />
		<tag k="ssr:stedsnr" v="847190" />
	</node>
	<node id="-143427" lat="60.7680472266" lon="9.35757777499">
		<tag k="name" v="Bjødalsknatten" />
		<tag k="natural" v="hill" />
		<tag k="place" v="locality" />
		<tag k="ssr:stedsnr" v="301993" />
	</node>
	<node id="-145808" lat="60.7916250039" lon="9.69316666479">
		<tag k="name" v="Neshaugen" />
		<tag k="natural" v="hill" />
		<tag k="place" v="locality" />
		<tag k="ssr:stedsnr" v="847179" />
	</node>
	<node id="-145804" lat="60.7681194417" lon="9.58005834011">
		<tag k="name" v="Smettbak" />
		<tag k="place" v="locality" />
		<tag k="ssr:stedsnr" v="847107" />
	</node>
	<node id="-145800" lat="60.8189888893" lon="9.67950278491">
		<tag k="name" v="Svartetjernknatten" />
		<tag k="natural" v="hill" />
		<tag k="old_name" v="Svartetjednknatten" />
		<tag k="place" v="locality" />
		<tag k="ssr:stedsnr" v="847090" />
	</node>
	<node id="-143751" lat="60.7694833305" lon="9.32683332853">
		<tag k="name" v="Myljohaugatn" />
		<tag k="natural" v="hill" />
		<tag k="place" v="locality" />
		<tag k="ssr:stedsnr" v="891128" />
	</node>
	<node id="-145798" lat="60.726819442" lon="9.60183054961">
		<tag k="name" v="Kjerringseiga" />
		<tag k="place" v="locality" />
		<tag k="ssr:stedsnr" v="847084" />
	</node>
	<node id="-145794" lat="60.7115861105" lon="9.38288334199">
		<tag k="name" v="Marabrenn" />
		<tag k="natural" v="hill" />
		<tag k="place" v="locality" />
		<tag k="ssr:stedsnr" v="847840" />
	</node>
	<node id="-145793" lat="60.8398555574" lon="9.4799138939">
		<tag k="name" v="Flisebanin" />
		<tag k="natural" v="valley" />
		<tag k="place" v="locality" />
		<tag k="ssr:stedsnr" v="847841" />
	</node>
	<node id="-143740" lat="60.4797138851" lon="9.81274444089">
		<tag k="name" v="Brunnehaugen" />
		<tag k="natural" v="hill" />
		<tag k="place" v="locality" />
		<tag k="ssr:stedsnr" v="889831" />
	</node>
	<node id="-145787" lat="60.8001944488" lon="9.55850833437">
		<tag k="name" v="Faralie" />
		<tag k="natural" v="slope" />
		<tag k="place" v="locality" />
		<tag k="ssr:stedsnr" v="828995" />
	</node>
	<node id="-143738" lat="60.5195666707" lon="9.81288055648">
		<tag k="name" v="Festningen" />
		<tag k="place" v="locality" />
		<tag k="ssr:stedsnr" v="889803" />
	</node>
	<node id="-145785" lat="60.8046805557" lon="9.60909167502">
		<tag k="name" v="Finhertberget" />
		<tag k="natural" v="hill" />
		<tag k="place" v="locality" />
		<tag k="ssr:stedsnr" v="828987" />
	</node>
	<node id="-145783" lat="60.8139555593" lon="9.63598056031">
		<tag k="name" v="Mørkedalen" />
		<tag k="natural" v="valley" />
		<tag k="place" v="locality" />
		<tag k="ssr:stedsnr" v="828984" />
	</node>
	<node id="-143649" lat="60.632383331" lon="9.8778999944">
		<tag k="name" v="Sørumsberga" />
		<tag k="place" v="locality" />
		<tag k="ssr:stedsnr" v="372724" />
	</node>
	<node id="-143731" lat="60.6394833297" lon="9.9429777699">
		<tag k="name" v="Fuglehaugdalen" />
		<tag k="natural" v="valley" />
		<tag k="place" v="locality" />
		<tag k="ssr:stedsnr" v="889505" />
	</node>
	<node id="-145776" lat="60.4588416667" lon="9.82568611377">
		<tag k="name" v="Gravvasshaugen" />
		<tag k="natural" v="hill" />
		<tag k="place" v="locality" />
		<tag k="ssr:stedsnr" v="828803" />
	</node>
	<node id="-143726" lat="60.6598888849" lon="9.52287221637">
		<tag k="name" v="Åborputtkollen" />
		<tag k="natural" v="hill" />
		<tag k="old_name" v="Øbberputtkollen" />
		<tag k="place" v="locality" />
		<tag k="ssr:stedsnr" v="889304" />
	</node>
	<node id="-145773" lat="60.5141805557" lon="9.79448334066">
		<tag k="name" v="Storrustelia" />
		<tag k="natural" v="slope" />
		<tag k="place" v="locality" />
		<tag k="ssr:stedsnr" v="828777" />
	</node>
	<node id="-143905" lat="60.7725055581" lon="9.635822219">
		<tag k="name" v="Øyhusbakkatn" />
		<tag k="natural" v="slope" />
		<tag k="place" v="locality" />
		<tag k="ssr:stedsnr" v="39870" />
	</node>
	<node id="-143720" lat="60.6317388873" lon="9.53567776983">
		<tag k="fixme" v="consider natural=peak for the most distinct mountains in the district" />
		<tag k="name" v="Gaukebergkollen" />
		<tag k="natural" v="hill" />
		<tag k="place" v="locality" />
		<tag k="ssr:stedsnr" v="889282" />
	</node>
	<node id="-143719" lat="60.6357249956" lon="9.63783333895">
		<tag k="name" v="Ørneberget" />
		<tag k="natural" v="hill" />
		<tag k="place" v="locality" />
		<tag k="ssr:stedsnr" v="889277" />
	</node>
	<node id="-145764" lat="60.7885944455" lon="9.32949999409">
		<tag k="fixme" v="consider natural=peak for the most distinct mountains in the district" />
		<tag k="name" v="Øytjernhøgde" />
		<tag k="natural" v="hill" />
		<tag k="old_name" v="Øytjednhøgde" />
		<tag k="place" v="locality" />
		<tag k="ssr:stedsnr" v="828540" />
	</node>
	<node id="-145763" lat="60.7975499998" lon="9.39279444659">
		<tag k="name" v="Rolehaug" />
		<tag k="natural" v="hill" />
		<tag k="place" v="locality" />
		<tag k="ssr:stedsnr" v="828538" />
	</node>
	<node id="-145762" lat="60.7147750012" lon="9.83043610661">
		<tag k="fixme" v="consider natural=peak for the most distinct mountains in the district" />
		<tag k="name" v="Elvemellom" />
		<tag k="natural" v="hill" />
		<tag k="place" v="locality" />
		<tag k="ssr:stedsnr" v="828520" />
	</node>
	<node id="-145761" lat="60.6406388868" lon="9.92308333004">
		<tag k="fixme" v="consider natural=peak for the most distinct mountains in the district" />
		<tag k="name" v="Putteåsen" />
		<tag k="natural" v="hill" />
		<tag k="place" v="locality" />
		<tag k="ssr:stedsnr" v="828482" />
	</node>
	<node id="-145760" lat="60.7830250026" lon="9.81089721547">
		<tag k="name" v="Storskaret" />
		<tag k="natural" v="valley" />
		<tag k="place" v="locality" />
		<tag k="ssr:stedsnr" v="828471" />
	</node>
	<node id="-143711" lat="60.7572972191" lon="9.49422499235">
		<tag k="name" v="Skålelie" />
		<tag k="natural" v="slope" />
		<tag k="place" v="locality" />
		<tag k="ssr:stedsnr" v="889190" />
	</node>
	<node id="-145758" lat="60.6510777806" lon="9.65506943581">
		<tag k="name" v="Frøstjernhauga" />
		<tag k="natural" v="hill" />
		<tag k="place" v="locality" />
		<tag k="ssr:stedsnr" v="828309" />
	</node>
	<node id="-145757" lat="60.6550388858" lon="9.60489166725">
		<tag k="name" v="Rundhaug" />
		<tag k="natural" v="hill" />
		<tag k="place" v="locality" />
		<tag k="ssr:stedsnr" v="828306" />
	</node>
	<node id="-145752" lat="60.654955554" lon="9.52769166751">
		<tag k="name" v="Vestre Skålevasskollen" />
		<tag k="natural" v="hill" />
		<tag k="place" v="locality" />
		<tag k="ssr:stedsnr" v="828278" />
	</node>
	<node id="-145750" lat="60.6448416693" lon="9.48998888254">
		<tag k="fixme" v="consider natural=peak for the most distinct mountains in the district" />
		<tag k="name" v="Djupedalsberget" />
		<tag k="natural" v="hill" />
		<tag k="place" v="locality" />
		<tag k="ssr:stedsnr" v="828264" />
	</node>
	<node id="-143699" lat="60.8281722191" lon="9.57333889636">
		<tag k="name" v="Renneskaret" />
		<tag k="natural" v="valley" />
		<tag k="place" v="locality" />
		<tag k="ssr:stedsnr" v="403974" />
	</node>
	<node id="-145745" lat="60.7369333293" lon="9.669325005">
		<tag k="name" v="Storlie" />
		<tag k="natural" v="slope" />
		<tag k="place" v="locality" />
		<tag k="ssr:stedsnr" v="828190" />
	</node>
	<node id="-143696" lat="60.7648666625" lon="9.62593333371">
		<tag k="name" v="Styggdikikøllin" />
		<tag k="natural" v="hill" />
		<tag k="place" v="locality" />
		<tag k="ssr:stedsnr" v="403911" />
	</node>
	<node id="-143695" lat="60.523608334" lon="9.75099722458">
		<tag k="name" v="Flein" />
		<tag k="place" v="locality" />
		<tag k="ssr:stedsnr" v="403838" />
	</node>
	<node id="-145742" lat="60.7802805511" lon="9.44466388942">
		<tag k="fixme" v="consider natural=peak for the most distinct mountains in the district" />
		<tag k="name" v="Grokløvknatten" />
		<tag k="natural" v="hill" />
		<tag k="place" v="locality" />
		<tag k="ssr:stedsnr" v="828167" />
	</node>
	<node id="-145741" lat="60.7705555559" lon="9.46098889582">
		<tag k="name" v="Gråberget" />
		<tag k="natural" v="hill" />
		<tag k="place" v="locality" />
		<tag k="ssr:stedsnr" v="828156" />
	</node>
	<node id="-143692" lat="60.8430250024" lon="9.53255278335">
		<tag k="name" v="Puttekøllin" />
		<tag k="natural" v="hill" />
		<tag k="place" v="locality" />
		<tag k="ssr:stedsnr" v="403733" />
	</node>
	<node id="-145736" lat="60.7809249978" lon="9.28292776943">
		<tag k="fixme" v="consider natural=peak for the most distinct mountains in the district" />
		<tag k="name" v="Hollastølsfjellet" />
		<tag k="natural" v="hill" />
		<tag k="place" v="locality" />
		<tag k="ssr:stedsnr" v="798739" />
	</node>
	<node id="-145734" lat="60.752647225" lon="9.53616389263">
		<tag k="fixme" v="consider natural=peak for the most distinct mountains in the district" />
		<tag k="name" v="Svartsæteråsen" />
		<tag k="natural" v="hill" />
		<tag k="place" v="locality" />
		<tag k="ssr:stedsnr" v="798708" />
	</node>
	<node id="-143685" lat="60.6200111097" lon="9.59684166282">
		<tag k="name" v="Rundbrenna" />
		<tag k="place" v="locality" />
		<tag k="ssr:stedsnr" v="403360" />
	</node>
	<node id="-143684" lat="60.6696972186" lon="9.65116111521">
		<tag k="name" v="Svartetjennsbrennene" />
		<tag k="natural" v="hill" />
		<tag k="place" v="locality" />
		<tag k="ssr:stedsnr" v="403293" />
	</node>
	<node id="-145726" lat="60.8458055549" lon="9.41292778303">
		<tag k="alt_name" v="Norddalatn" />
		<tag k="name" v="Norddalen" />
		<tag k="natural" v="valley" />
		<tag k="place" v="locality" />
		<tag k="ssr:stedsnr" v="797628" />
	</node>
	<node id="-143675" lat="60.7960333367" lon="9.51739721481">
		<tag k="fixme" v="consider natural=peak for the most distinct mountains in the district" />
		<tag k="name" v="Brøtaberget" />
		<tag k="natural" v="hill" />
		<tag k="place" v="locality" />
		<tag k="ssr:stedsnr" v="403207" />
	</node>
	<node id="-143674" lat="60.6921111077" lon="9.68225000049">
		<tag k="name" v="Gåsatjennberget" />
		<tag k="natural" v="slope" />
		<tag k="place" v="locality" />
		<tag k="ssr:stedsnr" v="403178" />
	</node>
	<node id="-145721" lat="60.7218249972" lon="9.7442027814">
		<tag k="fixme" v="consider natural=peak for the most distinct mountains in the district" />
		<tag k="name" v="Litjernåsen" />
		<tag k="natural" v="hill" />
		<tag k="place" v="locality" />
		<tag k="ssr:stedsnr" v="796960" />
	</node>
	<node id="-143672" lat="60.7757999968" lon="9.49937778376">
		<tag k="name" v="Herkopphaugen" />
		<tag k="natural" v="hill" />
		<tag k="place" v="locality" />
		<tag k="ssr:stedsnr" v="403167" />
	</node>
	<node id="-143671" lat="60.7925111145" lon="9.47095832541">
		<tag k="fixme" v="consider natural=peak for the most distinct mountains in the district" />
		<tag k="name" v="Blåbergberget" />
		<tag k="natural" v="hill" />
		<tag k="place" v="locality" />
		<tag k="ssr:stedsnr" v="403166" />
	</node>
	<node id="-145717" lat="60.6131749993" lon="9.60993054686">
		<tag k="alt_name" v="Jøshøgda" />
		<tag k="name" v="Ljoshaugen" />
		<tag k="natural" v="hill" />
		<tag k="place" v="locality" />
		<tag k="ssr:stedsnr" v="796908" />
	</node>
	<node id="-145714" lat="60.6941666664" lon="9.64776389409">
		<tag k="name" v="Bringen" />
		<tag k="natural" v="hill" />
		<tag k="place" v="locality" />
		<tag k="ssr:stedsnr" v="796899" />
	</node>
	<node id="-143664" lat="60.7889388899" lon="9.30785000677">
		<tag k="fixme" v="consider natural=peak for the most distinct mountains in the district" />
		<tag k="name" v="Sangeknatten" />
		<tag k="natural" v="hill" />
		<tag k="place" v="locality" />
		<tag k="ssr:stedsnr" v="373824" />
	</node>
	<node id="-143662" lat="60.7881361128" lon="9.44431110349">
		<tag k="fixme" v="consider natural=peak for the most distinct mountains in the district" />
		<tag k="name" v="Ølnessæterfjellet" />
		<tag k="natural" v="hill" />
		<tag k="place" v="locality" />
		<tag k="ssr:stedsnr" v="373785" />
	</node>
	<node id="-143657" lat="60.7580305573" lon="9.6323500019">
		<tag k="alt_name" v="Sveinekøllin" />
		<tag k="fixme" v="consider natural=peak for the most distinct mountains in the district" />
		<tag k="name" v="Sveinskollen" />
		<tag k="natural" v="hill" />
		<tag k="place" v="locality" />
		<tag k="ssr:stedsnr" v="373156" />
	</node>
	<node id="-145702" lat="60.6719027751" lon="9.40595554873">
		<tag k="alt_name" v="Vangshøgde" />
		<tag k="fixme" v="consider natural=peak for the most distinct mountains in the district" />
		<tag k="name" v="Vangsåsen" />
		<tag k="natural" v="hill" />
		<tag k="place" v="locality" />
		<tag k="ssr:stedsnr" v="796766" />
	</node>
	<node id="-143750" lat="60.7967388859" lon="9.55453888752">
		<tag k="name" v="Brenne" />
		<tag k="natural" v="hill" />
		<tag k="place" v="locality" />
		<tag k="ssr:stedsnr" v="889995" />
	</node>
	<node id="-145697" lat="60.7248861124" lon="9.49432499998">
		<tag k="fixme" v="consider natural=peak for the most distinct mountains in the district" />
		<tag k="name" v="Fløtasæteråsen" />
		<tag k="natural" v="hill" />
		<tag k="place" v="locality" />
		<tag k="ssr:stedsnr" v="796533" />
	</node>
	<node id="-145694" lat="60.6598166631" lon="9.76344444182">
		<tag k="name" v="Kariholet" />
		<tag k="natural" v="hill" />
		<tag k="place" v="locality" />
		<tag k="ssr:stedsnr" v="795962" />
	</node>
	<node id="-143645" lat="60.7100361131" lon="9.85123333632">
		<tag k="name" v="Midtlikula" />
		<tag k="natural" v="hill" />
		<tag k="place" v="locality" />
		<tag k="ssr:stedsnr" v="371992" />
	</node>
	<node id="-143643" lat="60.6436111091" lon="9.6042333335">
		<tag k="fixme" v="consider natural=peak for the most distinct mountains in the district" />
		<tag k="name" v="Kaputåsen" />
		<tag k="natural" v="hill" />
		<tag k="place" v="locality" />
		<tag k="ssr:stedsnr" v="371960" />
	</node>
	<node id="-145689" lat="60.4917079922" lon="9.82125488187">
		<tag k="name" v="Vidalen" />
		<tag k="natural" v="valley" />
		<tag k="place" v="locality" />
		<tag k="ssr:stedsnr" v="795928" />
	</node>
	<node id="-145685" lat="60.4981499969" lon="9.75741666246">
		<tag k="name" v="Midtodden" />
		<tag k="natural" v="hill" />
		<tag k="place" v="locality" />
		<tag k="ssr:stedsnr" v="795912" />
	</node>
	<node id="-145683" lat="60.6814666706" lon="9.93448055878">
		<tag k="fixme" v="consider natural=peak for the most distinct mountains in the district" />
		<tag k="name" v="Øyvasskollen" />
		<tag k="natural" v="hill" />
		<tag k="place" v="locality" />
		<tag k="ssr:stedsnr" v="795909" />
	</node>
	<node id="-145679" lat="60.70221667" lon="9.76003610543">
		<tag k="name" v="Høghaug" />
		<tag k="natural" v="hill" />
		<tag k="place" v="locality" />
		<tag k="ssr:stedsnr" v="795905" />
	</node>
	<node id="-145677" lat="60.5582472223" lon="9.5245138942">
		<tag k="fixme" v="consider natural=peak for the most distinct mountains in the district" />
		<tag k="name" v="Brennkollen" />
		<tag k="natural" v="hill" />
		<tag k="place" v="locality" />
		<tag k="ssr:stedsnr" v="795868" />
	</node>
	<node id="-145675" lat="60.552824999" lon="9.44764999187">
		<tag k="fixme" v="consider natural=peak for the most distinct mountains in the district" />
		<tag k="name" v="Vassfarkollen" />
		<tag k="natural" v="hill" />
		<tag k="place" v="locality" />
		<tag k="ssr:stedsnr" v="795862" />
	</node>
	<node id="-143745" lat="60.8641611153" lon="9.39834443684">
		<tag k="name" v="Hallitn" />
		<tag k="natural" v="slope" />
		<tag k="place" v="locality" />
		<tag k="ssr:stedsnr" v="889953" />
	</node>
	<node id="-143617" lat="60.5963500028" lon="9.58706944098">
		<tag k="name" v="Busufjellet" />
		<tag k="natural" v="hill" />
		<tag k="place" v="locality" />
		<tag k="ssr:stedsnr" v="371647" />
	</node>
	<node id="-143608" lat="60.4941666627" lon="9.70816943536">
		<tag k="name" v="Bogen" />
		<tag k="natural" v="slope" />
		<tag k="place" v="locality" />
		<tag k="ssr:stedsnr" v="370940" />
	</node>
	<node id="-145654" lat="60.8350805565" lon="9.35305833641">
		<tag k="name" v="Hengenberg" />
		<tag k="place" v="locality" />
		<tag k="ssr:stedsnr" v="786663" />
	</node>
	<node id="-143605" lat="60.6029638856" lon="9.88701943878">
		<tag k="name" v="Midtsæterhøgda" />
		<tag k="natural" v="hill" />
		<tag k="place" v="locality" />
		<tag k="ssr:stedsnr" v="370925" />
	</node>
	<node id="-145647" lat="60.8572861127" lon="9.40070277548">
		<tag k="name" v="Møllbakkhøgde" />
		<tag k="natural" v="hill" />
		<tag k="place" v="locality" />
		<tag k="ssr:stedsnr" v="786359" />
	</node>
	<node id="-143597" lat="60.6834722209" lon="9.52740832881">
		<tag k="fixme" v="consider natural=peak for the most distinct mountains in the district" />
		<tag k="name" v="Muggedalsåsen" />
		<tag k="natural" v="hill" />
		<tag k="place" v="locality" />
		<tag k="ssr:stedsnr" v="370698" />
	</node>
	<node id="-143595" lat="60.7572527759" lon="9.35615278357">
		<tag k="name" v="Feten" />
		<tag k="place" v="locality" />
		<tag k="ssr:stedsnr" v="361995" />
	</node>
	<node id="-145642" lat="60.550102782" lon="9.43518611589">
		<tag k="fixme" v="consider natural=peak for the most distinct mountains in the district" />
		<tag k="name" v="Veslesæterhøgda" />
		<tag k="natural" v="hill" />
		<tag k="place" v="locality" />
		<tag k="ssr:stedsnr" v="786347" />
	</node>
	<node id="-145641" lat="60.8042111102" lon="9.5194472275">
		<tag k="name" v="Fethaugen" />
		<tag k="natural" v="hill" />
		<tag k="place" v="locality" />
		<tag k="ssr:stedsnr" v="786250" />
	</node>
	<node id="-145640" lat="60.8106611117" lon="9.51004721419">
		<tag k="name" v="Vardetoppen" />
		<tag k="natural" v="hill" />
		<tag k="place" v="locality" />
		<tag k="ssr:stedsnr" v="786245" />
	</node>
	<node id="-143591" lat="60.83288611" lon="9.51213055517">
		<tag k="name" v="Roahaugen" />
		<tag k="natural" v="hill" />
		<tag k="place" v="locality" />
		<tag k="ssr:stedsnr" v="361849" />
	</node>
	<node id="-145638" lat="60.7452305551" lon="9.61622499219">
		<tag k="name" v="Faksollie" />
		<tag k="natural" v="slope" />
		<tag k="place" v="locality" />
		<tag k="ssr:stedsnr" v="786195" />
	</node>
	<node id="-145637" lat="60.7379583357" lon="9.63598054845">
		<tag k="name" v="Maradalen" />
		<tag k="natural" v="valley" />
		<tag k="place" v="locality" />
		<tag k="ssr:stedsnr" v="786189" />
	</node>
	<node id="-145634" lat="60.7055944434" lon="9.65619445117">
		<tag k="name" v="Jehanskøllen" />
		<tag k="natural" v="hill" />
		<tag k="place" v="locality" />
		<tag k="ssr:stedsnr" v="786175" />
	</node>
	<node id="-143739" lat="60.8051194472" lon="9.49648056247">
		<tag k="name" v="Fugeldalo" />
		<tag k="natural" v="valley" />
		<tag k="place" v="locality" />
		<tag k="ssr:stedsnr" v="889823" />
	</node>
	<node id="-143584" lat="60.830819442" lon="9.407627772">
		<tag k="name" v="Skørre" />
		<tag k="place" v="locality" />
		<tag k="ssr:stedsnr" v="361767" />
	</node>
	<node id="-143582" lat="60.6497694416" lon="9.84585277333">
		<tag k="name" v="Bymoen" />
		<tag k="place" v="locality" />
		<tag k="ssr:stedsnr" v="361717" />
	</node>
	<node id="-143396" lat="60.7630499989" lon="9.69345832833">
		<tag k="name" v="Sølvbergrenna" />
		<tag k="natural" v="valley" />
		<tag k="place" v="locality" />
		<tag k="ssr:stedsnr" v="301162" />
	</node>
	<node id="-143573" lat="60.6192583324" lon="9.49130832556">
		<tag k="name" v="Helserberget" />
		<tag k="natural" v="hill" />
		<tag k="place" v="locality" />
		<tag k="ssr:stedsnr" v="361401" />
	</node>
	<node id="-145619" lat="60.8142444426" lon="9.62521944124">
		<tag k="name" v="Kringledalen" />
		<tag k="natural" v="valley" />
		<tag k="place" v="locality" />
		<tag k="ssr:stedsnr" v="767985" />
	</node>
	<node id="-143569" lat="60.8053916652" lon="9.53352499648">
		<tag k="name" v="Sylvsmedskørre" />
		<tag k="natural" v="valley" />
		<tag k="place" v="locality" />
		<tag k="ssr:stedsnr" v="361276" />
	</node>
	<node id="-145616" lat="60.7205583307" lon="9.47364999849">
		<tag k="name" v="Odelsfeten" />
		<tag k="place" v="locality" />
		<tag k="ssr:stedsnr" v="767920" />
	</node>
	<node id="-145613" lat="60.8169111151" lon="9.48034721953">
		<tag k="name" v="Ranangsbakkin" />
		<tag k="natural" v="slope" />
		<tag k="place" v="locality" />
		<tag k="ssr:stedsnr" v="767818" />
	</node>
	<node id="-145611" lat="60.8140666689" lon="9.340997218">
		<tag k="name" v="Fjellstølhaugatn" />
		<tag k="natural" v="hill" />
		<tag k="place" v="locality" />
		<tag k="ssr:stedsnr" v="767765" />
	</node>
	<node id="-143562" lat="60.7923027803" lon="9.70779722234">
		<tag k="name" v="Brenninge" />
		<tag k="place" v="locality" />
		<tag k="ssr:stedsnr" v="361174" />
	</node>
	<node id="-145609" lat="60.852044441" lon="9.45633888357">
		<tag k="name" v="Austegardsfeten" />
		<tag k="place" v="locality" />
		<tag k="ssr:stedsnr" v="767744" />
	</node>
	<node id="-145602" lat="60.7811555592" lon="9.35824999315">
		<tag k="name" v="Fuglberget" />
		<tag k="natural" v="hill" />
		<tag k="place" v="locality" />
		<tag k="ssr:stedsnr" v="767582" />
	</node>
	<node id="-144075" lat="60.7476611151" lon="9.56096110718">
		<tag k="name" v="Blæstredalen" />
		<tag k="natural" v="hill" />
		<tag k="place" v="locality" />
		<tag k="ssr:stedsnr" v="119069" />
	</node>
	<node id="-145600" lat="60.7266305557" lon="9.85226388883">
		<tag k="fixme" v="consider natural=peak for the most distinct mountains in the district" />
		<tag k="name" v="Tverrvassåsen" />
		<tag k="natural" v="hill" />
		<tag k="place" v="locality" />
		<tag k="ssr:stedsnr" v="767537" />
	</node>
	<node id="-145597" lat="60.7456000027" lon="9.78357500499">
		<tag k="name" v="Gamlesæterkøllin" />
		<tag k="natural" v="hill" />
		<tag k="place" v="locality" />
		<tag k="ssr:stedsnr" v="767494" />
	</node>
	<node id="-143548" lat="60.5317499984" lon="9.73401389646">
		<tag k="name" v="Aspholtlia" />
		<tag k="natural" v="slope" />
		<tag k="place" v="locality" />
		<tag k="ssr:stedsnr" v="342793" />
	</node>
	<node id="-145595" lat="60.6534888891" lon="9.62823888437">
		<tag k="name" v="Merarudalen" />
		<tag k="natural" v="valley" />
		<tag k="place" v="locality" />
		<tag k="ssr:stedsnr" v="767299" />
	</node>
	<node id="-143545" lat="60.8417166633" lon="9.54291666398">
		<tag k="name" v="Brenno" />
		<tag k="natural" v="slope" />
		<tag k="place" v="locality" />
		<tag k="ssr:stedsnr" v="342692" />
	</node>
	<node id="-145591" lat="60.6651555596" lon="9.54297778623">
		<tag k="fixme" v="consider natural=peak for the most distinct mountains in the district" />
		<tag k="name" v="Skålevassåsen" />
		<tag k="natural" v="hill" />
		<tag k="place" v="locality" />
		<tag k="ssr:stedsnr" v="767271" />
	</node>
	<node id="-145590" lat="60.6401000024" lon="9.72022499469">
		<tag k="name" v="Høgda" />
		<tag k="natural" v="hill" />
		<tag k="place" v="locality" />
		<tag k="ssr:stedsnr" v="767270" />
	</node>
	<node id="-145587" lat="60.7617500026" lon="9.54840833437">
		<tag k="name" v="Flåe" />
		<tag k="place" v="locality" />
		<tag k="ssr:stedsnr" v="767207" />
	</node>
	<node id="-145586" lat="60.7290833353" lon="9.66637499373">
		<tag k="name" v="Langeberg" />
		<tag k="natural" v="hill" />
		<tag k="place" v="locality" />
		<tag k="ssr:stedsnr" v="767197" />
	</node>
	<node id="-145585" lat="60.7325194427" lon="9.70316110658">
		<tag k="name" v="Hølakøllin" />
		<tag k="natural" v="hill" />
		<tag k="place" v="locality" />
		<tag k="ssr:stedsnr" v="767195" />
	</node>
	<node id="-145584" lat="60.7227861109" lon="9.70273610364">
		<tag k="name" v="Kyrkja" />
		<tag k="place" v="locality" />
		<tag k="ssr:stedsnr" v="767192" />
	</node>
	<node id="-145583" lat="60.7308777798" lon="9.76814999786">
		<tag k="name" v="Gravasskaret" />
		<tag k="natural" v="valley" />
		<tag k="place" v="locality" />
		<tag k="ssr:stedsnr" v="767185" />
	</node>
	<node id="-143534" lat="60.6546749972" lon="9.52473610625">
		<tag k="name" v="Traudalen" />
		<tag k="natural" v="valley" />
		<tag k="place" v="locality" />
		<tag k="ssr:stedsnr" v="342278" />
	</node>
	<node id="-145577" lat="60.5927305511" lon="9.68517500249">
		<tag k="name" v="Onsknatten" />
		<tag k="natural" v="hill" />
		<tag k="place" v="locality" />
		<tag k="ssr:stedsnr" v="750142" />
	</node>
	<node id="-143528" lat="60.6347027801" lon="9.52929722346">
		<tag k="name" v="Vasshølhaugen" />
		<tag k="natural" v="hill" />
		<tag k="place" v="locality" />
		<tag k="ssr:stedsnr" v="342261" />
	</node>
	<node id="-145573" lat="60.806130553" lon="9.50695000533">
		<tag k="alt_name" v="Fugelberget" />
		<tag k="fixme" v="consider natural=peak for the most distinct mountains in the district" />
		<tag k="name" v="Fuglaberget" />
		<tag k="natural" v="hill" />
		<tag k="place" v="locality" />
		<tag k="ssr:stedsnr" v="737818" />
	</node>
	<node id="-145571" lat="60.7703677623" lon="9.3139386683">
		<tag k="alt_name" v="Myljohaugen" />
		<tag k="fixme" v="consider natural=peak for the most distinct mountains in the district" />
		<tag k="name" v="Miljomhaugen" />
		<tag k="natural" v="hill" />
		<tag k="place" v="locality" />
		<tag k="ssr:stedsnr" v="737803" />
	</node>
	<node id="-145567" lat="60.7751333334" lon="9.55329721484">
		<tag k="alt_name" v="Grånlie" />
		<tag k="name" v="Granlii" />
		<tag k="natural" v="slope" />
		<tag k="place" v="locality" />
		<tag k="ssr:stedsnr" v="737783" />
	</node>
	<node id="-143515" lat="60.838108337" lon="9.57978611709">
		<tag k="name" v="Bjødnahølet" />
		<tag k="natural" v="valley" />
		<tag k="place" v="locality" />
		<tag k="ssr:stedsnr" v="342926" />
	</node>
	<node id="-145561" lat="60.7977111142" lon="9.63896388728">
		<tag k="name" v="Korberget" />
		<tag k="place" v="locality" />
		<tag k="ssr:stedsnr" v="737208" />
	</node>
	<node id="-143512" lat="60.7508249974" lon="9.49213611103">
		<tag k="name" v="Flishøvelen" />
		<tag k="place" v="locality" />
		<tag k="ssr:stedsnr" v="313761" />
	</node>
	<node id="-144068" lat="60.7275916706" lon="9.4518416646">
		<tag k="name" v="Geiteryggen" />
		<tag k="natural" v="ridge" />
		<tag k="place" v="locality" />
		<tag k="ssr:stedsnr" v="100892" />
	</node>
	<node id="-145558" lat="60.7497527784" lon="9.68108332642">
		<tag k="alt_name" v="Trondhusknatten" />
		<tag k="fixme" v="consider natural=peak for the most distinct mountains in the district" />
		<tag k="name" v="Tronhusknatten" />
		<tag k="natural" v="hill" />
		<tag k="place" v="locality" />
		<tag k="ssr:stedsnr" v="737148" />
	</node>
	<node id="-143505" lat="60.7924972185" lon="9.45357500473">
		<tag k="alt_name" v="Rundepiggen" />
		<tag k="name" v="Rundeknatten" />
		<tag k="natural" v="hill" />
		<tag k="place" v="locality" />
		<tag k="ssr:stedsnr" v="312820" />
	</node>
	<node id="-145552" lat="60.780338885" lon="9.64836110721">
		<tag k="name" v="Langedragsberget" />
		<tag k="natural" v="hill" />
		<tag k="place" v="locality" />
		<tag k="ssr:stedsnr" v="737115" />
	</node>
	<node id="-143503" lat="60.7984583329" lon="9.50593056219">
		<tag k="name" v="Fjøsdalen" />
		<tag k="natural" v="valley" />
		<tag k="place" v="locality" />
		<tag k="ssr:stedsnr" v="312816" />
	</node>
	<node id="-143725" lat="60.6699527764" lon="9.70581389215">
		<tag k="fixme" v="consider natural=peak for the most distinct mountains in the district" />
		<tag k="name" v="Faksehaugen" />
		<tag k="natural" v="hill" />
		<tag k="place" v="locality" />
		<tag k="ssr:stedsnr" v="889301" />
	</node>
	<node id="-145541" lat="60.6309694466" lon="9.78964999546">
		<tag k="alt_name" v="Sjutjerndalen" />
		<tag k="name" v="Syntjerndalen" />
		<tag k="natural" v="valley" />
		<tag k="place" v="locality" />
		<tag k="ssr:stedsnr" v="735999" />
	</node>
	<node id="-143722" lat="60.6536222259" lon="9.50474999635">
		<tag k="name" v="Trestikkfjell" />
		<tag k="natural" v="hill" />
		<tag k="place" v="locality" />
		<tag k="ssr:stedsnr" v="889294" />
	</node>
	<node id="-143474" lat="60.6400055547" lon="9.815741672">
		<tag k="fixme" v="multiple name tags, choose one and add the other to alt_name" />
		<tag k="name" v="Engejuvet;Rusteligjuvet" />
		<tag k="natural" v="gorge" />
		<tag k="ssr:stedsnr" v="310943" />
	</node>
	<node id="-145520" lat="60.5814861151" lon="9.72445833562">
		<tag k="name" v="Hedalen" />
		<tag k="natural" v="valley" />
		<tag k="place" v="locality" />
		<tag k="ssr:stedsnr" v="735932" />
	</node>
	<node id="-144061" lat="60.5277277801" lon="9.80030555582">
		<tag k="name" v="Storrustelia" />
		<tag k="natural" v="slope" />
		<tag k="place" v="locality" />
		<tag k="ssr:stedsnr" v="100759" />
	</node>
	<node id="-145505" lat="60.5344611128" lon="9.48946666012">
		<tag k="name" v="Vassfaret" />
		<tag k="natural" v="valley" />
		<tag k="place" v="locality" />
		<tag k="ssr:stedsnr" v="735876" />
	</node>
	<node id="-145504" lat="60.5683416696" lon="9.46774999243">
		<tag k="fixme" v="consider natural=peak for the most distinct mountains in the district" />
		<tag k="name" v="Slafjellet" />
		<tag k="natural" v="hill" />
		<tag k="place" v="locality" />
		<tag k="ssr:stedsnr" v="735837" />
	</node>
	<node id="-145501" lat="60.7473555541" lon="9.64163054751">
		<tag k="alt_name" v="Køllyberget" />
		<tag k="name" v="Kolliberget" />
		<tag k="natural" v="hill" />
		<tag k="place" v="locality" />
		<tag k="ssr:stedsnr" v="735781" />
	</node>
	<node id="-143450" lat="60.5766138865" lon="9.82862223114">
		<tag k="alt_name" v="Storskarhøgda" />
		<tag k="name" v="Storskardhøgda" />
		<tag k="natural" v="hill" />
		<tag k="place" v="locality" />
		<tag k="ssr:stedsnr" v="310818" />
	</node>
	<node id="-143716" lat="60.7956055592" lon="9.52557221825">
		<tag k="name" v="Haugalien" />
		<tag k="natural" v="slope" />
		<tag k="place" v="locality" />
		<tag k="ssr:stedsnr" v="889231" />
	</node>
	<node id="-144057" lat="60.7873000027" lon="9.38463610764">
		<tag k="name" v="Storevieratn" />
		<tag k="place" v="locality" />
		<tag k="ssr:stedsnr" v="100560" />
	</node>
	<node id="-143442" lat="60.6899805569" lon="9.46652499432">
		<tag k="alt_name" v="Bråtasæterhøgdi" />
		<tag k="fixme" v="consider natural=peak for the most distinct mountains in the district" />
		<tag k="name" v="Bråtasæterhøgde" />
		<tag k="natural" v="hill" />
		<tag k="place" v="locality" />
		<tag k="ssr:stedsnr" v="310702" />
	</node>
	<node id="-143440" lat="60.6838583368" lon="9.55064722726">
		<tag k="name" v="Muggedalen" />
		<tag k="natural" v="valley" />
		<tag k="place" v="locality" />
		<tag k="ssr:stedsnr" v="310695" />
	</node>
	<node id="-143827" lat="60.7046999958" lon="9.78303056382">
		<tag k="name" v="Høghaug" />
		<tag k="natural" v="hill" />
		<tag k="place" v="locality" />
		<tag k="ssr:stedsnr" v="7891" />
	</node>
	<node id="-143425" lat="60.7855194478" lon="9.65253054699">
		<tag k="name" v="Haugatn" />
		<tag k="natural" v="hill" />
		<tag k="place" v="locality" />
		<tag k="ssr:stedsnr" v="301908" />
	</node>
	<node id="-143424" lat="60.7887083344" lon="9.61726111848">
		<tag k="name" v="Homleeikro" />
		<tag k="natural" v="slope" />
		<tag k="place" v="locality" />
		<tag k="ssr:stedsnr" v="301904" />
	</node>
	<node id="-143422" lat="60.7848166664" lon="9.64669723089">
		<tag k="name" v="Skarabrøto" />
		<tag k="natural" v="slope" />
		<tag k="place" v="locality" />
		<tag k="ssr:stedsnr" v="301903" />
	</node>
	<node id="-143456" lat="60.5435166676" lon="9.48792777523">
		<tag k="fixme" v="consider natural=peak for the most distinct mountains in the district" />
		<tag k="name" v="Nevlingkollen" />
		<tag k="natural" v="hill" />
		<tag k="place" v="locality" />
		<tag k="ssr:stedsnr" v="310866" />
	</node>
	<node id="-145468" lat="60.6223138921" lon="9.69801667076">
		<tag k="name" v="Jørandbyberga" />
		<tag k="natural" v="slope" />
		<tag k="place" v="locality" />
		<tag k="ssr:stedsnr" v="726462" />
	</node>
	<node id="-143419" lat="60.7788055521" lon="9.32251389246">
		<tag k="fixme" v="consider natural=peak for the most distinct mountains in the district" />
		<tag k="name" v="Bufarknatten" />
		<tag k="natural" v="hill" />
		<tag k="place" v="locality" />
		<tag k="ssr:stedsnr" v="301768" />
	</node>
	<node id="-145465" lat="60.7035388896" lon="9.48157500078">
		<tag k="name" v="Brøtasæterlie" />
		<tag k="natural" v="slope" />
		<tag k="place" v="locality" />
		<tag k="ssr:stedsnr" v="726451" />
	</node>
	<node id="-143416" lat="60.8187027757" lon="9.33273611457">
		<tag k="name" v="Høganhaug" />
		<tag k="natural" v="hill" />
		<tag k="place" v="locality" />
		<tag k="ssr:stedsnr" v="301641" />
	</node>
	<node id="-145463" lat="60.7339666673" lon="9.49258055079">
		<tag k="name" v="Vieratn" />
		<tag k="place" v="locality" />
		<tag k="ssr:stedsnr" v="726245" />
	</node>
	<node id="-143414" lat="60.807852778" lon="9.35525277086">
		<tag k="name" v="Øytjernhaugen" />
		<tag k="natural" v="hill" />
		<tag k="old_name" v="Øytjednhaugen" />
		<tag k="place" v="locality" />
		<tag k="ssr:stedsnr" v="301637" />
	</node>
	<node id="-143413" lat="60.8385138916" lon="9.38321111009">
		<tag k="name" v="Bufarshalle" />
		<tag k="natural" v="slope" />
		<tag k="place" v="locality" />
		<tag k="ssr:stedsnr" v="301633" />
	</node>
	<node id="-145460" lat="60.761497219" lon="9.67585833132">
		<tag k="name" v="Klevrabben" />
		<tag k="place" v="locality" />
		<tag k="ssr:stedsnr" v="726188" />
	</node>
	<node id="-143411" lat="60.6089027794" lon="9.77726666824">
		<tag k="name" v="Bakkhalla" />
		<tag k="natural" v="slope" />
		<tag k="place" v="locality" />
		<tag k="ssr:stedsnr" v="301514" />
	</node>
	<node id="-145458" lat="60.7649805514" lon="9.71005555506">
		<tag k="name" v="Veslesæterknatten" />
		<tag k="natural" v="hill" />
		<tag k="place" v="locality" />
		<tag k="ssr:stedsnr" v="726183" />
	</node>
	<node id="-145457" lat="60.7617250014" lon="9.70085833389">
		<tag k="name" v="Kamperudkøllin" />
		<tag k="natural" v="hill" />
		<tag k="place" v="locality" />
		<tag k="ssr:stedsnr" v="726182" />
	</node>
	<node id="-145455" lat="60.7841555531" lon="9.6869805544">
		<tag k="fixme" v="consider natural=peak for the most distinct mountains in the district" />
		<tag k="name" v="Marabeinhøgde" />
		<tag k="natural" v="hill" />
		<tag k="place" v="locality" />
		<tag k="ssr:stedsnr" v="726173" />
	</node>
	<node id="-143405" lat="60.5554611109" lon="9.50094722568">
		<tag k="name" v="Bakkomkjellera" />
		<tag k="natural" v="valley" />
		<tag k="place" v="locality" />
		<tag k="ssr:stedsnr" v="301362" />
	</node>
	<node id="-145452" lat="60.7672638845" lon="9.76295833938">
		<tag k="name" v="Nordre Øyvassli" />
		<tag k="natural" v="slope" />
		<tag k="place" v="locality" />
		<tag k="ssr:stedsnr" v="726165" />
	</node>
	<node id="-145451" lat="60.7932722249" lon="9.77152778093">
		<tag k="name" v="Veslesæterknatten" />
		<tag k="natural" v="hill" />
		<tag k="place" v="locality" />
		<tag k="ssr:stedsnr" v="726148" />
	</node>
	<node id="-145450" lat="60.7686000025" lon="9.7742777694">
		<tag k="name" v="Krokputtknatten" />
		<tag k="natural" v="hill" />
		<tag k="place" v="locality" />
		<tag k="ssr:stedsnr" v="726125" />
	</node>
	<node id="-143401" lat="60.86805" lon="9.44247777441">
		<tag k="name" v="Liaberge" />
		<tag k="place" v="locality" />
		<tag k="ssr:stedsnr" v="301330" />
	</node>
	<node id="-143399" lat="60.7403722193" lon="9.62808889144">
		<tag k="name" v="Lunningshaugen" />
		<tag k="natural" v="hill" />
		<tag k="place" v="locality" />
		<tag k="ssr:stedsnr" v="301185" />
	</node>
	<node id="-145444" lat="60.7455111123" lon="9.56226945023">
		<tag k="name" v="Styggdikidalen" />
		<tag k="natural" v="valley" />
		<tag k="place" v="locality" />
		<tag k="ssr:stedsnr" v="726054" />
	</node>
	<node id="-143392" lat="60.7596138873" lon="9.76777222628">
		<tag k="name" v="Sjuputtknatten" />
		<tag k="natural" v="hill" />
		<tag k="place" v="locality" />
		<tag k="ssr:stedsnr" v="301123" />
	</node>
	<node id="-143391" lat="60.7629722252" lon="9.77180000558">
		<tag k="name" v="Bergenden" />
		<tag k="natural" v="hill" />
		<tag k="place" v="locality" />
		<tag k="ssr:stedsnr" v="301125" />
	</node>
	<node id="-145437" lat="60.839174996" lon="9.38865554856">
		<tag k="fixme" v="consider natural=peak for the most distinct mountains in the district" />
		<tag k="name" v="Skalafjellet" />
		<tag k="natural" v="hill" />
		<tag k="place" v="locality" />
		<tag k="ssr:stedsnr" v="725717" />
	</node>
	<node id="-143387" lat="60.7283555558" lon="9.38607221971">
		<tag k="name" v="Storfeten" />
		<tag k="place" v="locality" />
		<tag k="ssr:stedsnr" v="300982" />
	</node>
	<node id="-145433" lat="60.8327055553" lon="9.3833444496">
		<tag k="name" v="Røaslette" />
		<tag k="place" v="locality" />
		<tag k="ssr:stedsnr" v="725575" />
	</node>
	<node id="-143384" lat="60.8224305593" lon="9.51845556381">
		<tag k="name" v="Buraslie" />
		<tag k="natural" v="slope" />
		<tag k="place" v="locality" />
		<tag k="ssr:stedsnr" v="300838" />
	</node>
	<node id="-145430" lat="60.7216277771" lon="9.96064999915">
		<tag k="name" v="Nerbrenna" />
		<tag k="natural" v="hill" />
		<tag k="place" v="locality" />
		<tag k="ssr:stedsnr" v="725079" />
	</node>
	<node id="-143381" lat="60.803191665" lon="9.50820555269">
		<tag k="name" v="Fugldekko" />
		<tag k="place" v="locality" />
		<tag k="ssr:stedsnr" v="300246" />
	</node>
	<node id="-145447" lat="60.774544447" lon="9.58408889789">
		<tag k="name" v="Furukøllin" />
		<tag k="natural" v="hill" />
		<tag k="place" v="locality" />
		<tag k="ssr:stedsnr" v="726074" />
	</node>
	<node id="-144046" lat="60.638611113" lon="9.57197778378">
		<tag k="name" v="Engesletta" />
		<tag k="place" v="locality" />
		<tag k="ssr:stedsnr" v="100247" />
	</node>
	<node id="-143378" lat="60.6661638844" lon="9.9397527867">
		<tag k="name" v="Granskaret" />
		<tag k="natural" v="valley" />
		<tag k="place" v="locality" />
		<tag k="ssr:stedsnr" v="300004" />
	</node>
	<node id="-145423" lat="60.8137305556" lon="9.6129249924">
		<tag k="fixme" v="consider natural=peak for the most distinct mountains in the district" />
		<tag k="name" v="Snaufjellet" />
		<tag k="natural" v="hill" />
		<tag k="place" v="locality" />
		<tag k="ssr:stedsnr" v="706992" />
	</node>
	<node id="-145418" lat="60.7469250028" lon="9.63793332854">
		<tag k="name" v="Ledalen" />
		<tag k="natural" v="valley" />
		<tag k="place" v="locality" />
		<tag k="ssr:stedsnr" v="706901" />
	</node>
	<node id="-143369" lat="60.831972224" lon="9.58633055323">
		<tag k="name" v="Russhaug" />
		<tag k="natural" v="hill" />
		<tag k="place" v="locality" />
		<tag k="ssr:stedsnr" v="282964" />
	</node>
	<node id="-145416" lat="60.5156555562" lon="9.7582999956">
		<tag k="name" v="Torkildsdalen" />
		<tag k="natural" v="valley" />
		<tag k="place" v="locality" />
		<tag k="ssr:stedsnr" v="706829" />
	</node>
	<node id="-143367" lat="60.7627777815" lon="9.6294361148">
		<tag k="name" v="Hersjabrøtin" />
		<tag k="natural" v="slope" />
		<tag k="place" v="locality" />
		<tag k="ssr:stedsnr" v="282909" />
	</node>
	<node id="-143365" lat="60.5591944435" lon="9.80666666427">
		<tag k="name" v="Vatneberget" />
		<tag k="natural" v="hill" />
		<tag k="place" v="locality" />
		<tag k="ssr:stedsnr" v="282754" />
	</node>
	<node id="-143364" lat="60.8509611141" lon="9.51217499401">
		<tag k="fixme" v="consider natural=peak for the most distinct mountains in the district" />
		<tag k="name" v="Bølesbergo" />
		<tag k="natural" v="hill" />
		<tag k="place" v="locality" />
		<tag k="ssr:stedsnr" v="282753" />
	</node>
	<node id="-143363" lat="60.8769666671" lon="9.47013333691">
		<tag k="name" v="Svarthølbakkatn" />
		<tag k="natural" v="slope" />
		<tag k="place" v="locality" />
		<tag k="ssr:stedsnr" v="282726" />
	</node>
	<node id="-143362" lat="60.5655111151" lon="9.73941943729">
		<tag k="name" v="Falihøl" />
		<tag k="natural" v="valley" />
		<tag k="place" v="locality" />
		<tag k="ssr:stedsnr" v="282687" />
	</node>
	<node id="-144043" lat="60.7161138921" lon="9.76963054777">
		<tag k="name" v="Svarthøllie" />
		<tag k="natural" v="slope" />
		<tag k="place" v="locality" />
		<tag k="ssr:stedsnr" v="100193" />
	</node>
</osm>
