<?xml version="1.0" encoding="UTF-8"?>
<osm generator="osmapis" version="0.6">
	<node id="-143360" lat="60.7259861148" lon="9.70833333634">
		<tag k="name" v="Garthushaugen" />
		<tag k="place" v="farm" />
		<tag k="ssr:stedsnr" v="310944" />
	</node>
	<node id="-145407" lat="60.7236805595" lon="9.68145000744">
		<tag k="name" v="Hesjadalen" />
		<tag k="place" v="farm" />
		<tag k="ssr:stedsnr" v="735964" />
	</node>
	<node id="-145406" lat="60.6409249989" lon="9.64625555143">
		<tag k="fixme" v="consider place=hamlet" />
		<tag k="name" v="Nordby" />
		<tag k="place" v="farm" />
		<tag k="ssr:stedsnr" v="735954" />
	</node>
	<node id="-143701" lat="60.6964361089" lon="9.72700555278">
		<tag k="name" v="Flagtun" />
		<tag k="place" v="farm" />
		<tag k="ssr:stedsnr" v="7876" />
	</node>
	<node id="-143356" lat="60.7291027738" lon="9.72704999098">
		<tag k="alt_name" v="Eidsbakkatn" />
		<tag k="historic" v="shieling" />
		<tag k="name" v="Eidsbakken" />
		<tag k="place" v="locality" />
		<tag k="ssr:stedsnr" v="310931" />
	</node>
	<node id="-145403" lat="60.6518083334" lon="9.63985278055">
		<tag k="name" v="Veabrenna" />
		<tag k="place" v="farm" />
		<tag k="ssr:stedsnr" v="735942" />
	</node>
	<node id="-143354" lat="60.6495454932" lon="9.78905484667">
		<tag k="name" v="Nedre Tollefsrud" />
		<tag k="place" v="farm" />
		<tag k="ssr:stedsnr" v="310926" />
	</node>
	<node id="-145401" lat="60.5893888909" lon="9.68361667013">
		<tag k="alt_name" v="Skarsætra" />
		<tag k="historic" v="shieling" />
		<tag k="name" v="Skardsætra" />
		<tag k="place" v="locality" />
		<tag k="ssr:stedsnr" v="735934" />
	</node>
	<node id="-145400" lat="60.6551326152" lon="9.7711934742">
		<tag k="name" v="Piltingsrud" />
		<tag k="place" v="hamlet" />
		<tag k="ssr:stedsnr" v="735935" />
	</node>
	<node id="-143351" lat="60.6681555563" lon="9.88753056471">
		<tag k="name" v="Damvassbu" />
		<tag k="place" v="isolated_dwelling" />
		<tag k="ssr:stedsnr" v="310916" />
	</node>
	<node id="-145397" lat="60.5841166631" lon="9.80553889701">
		<tag k="alt_name" v="Fekjærsætrene" />
		<tag k="name" v="Fetjarsætra" />
		<tag k="place" v="hamlet" />
		<tag k="ssr:stedsnr" v="735918" />
	</node>
	<node id="-143348" lat="60.6177499959" lon="9.92098334001">
		<tag k="alt_name" v="Strømmen, nordre;Strømmen" />
		<tag k="name" v="Nordre Strømmen" />
		<tag k="place" v="farm" />
		<tag k="ssr:stedsnr" v="310891" />
	</node>
	<node id="-145394" lat="60.6935611071" lon="9.74369999177">
		<tag k="name" v="Odden" />
		<tag k="place" v="farm" />
		<tag k="ssr:stedsnr" v="735903" />
	</node>
	<node id="-145393" lat="60.6111555572" lon="9.93523332721">
		<tag k="name" v="Bråtasletta" />
		<tag k="place" v="farm" />
		<tag k="ssr:stedsnr" v="735901" />
	</node>
	<node id="-145392" lat="60.693091664" lon="9.81329723046">
		<tag k="alt_name" v="Smørhølet" />
		<tag k="name" v="Smørholet" />
		<tag k="place" v="isolated_dwelling" />
		<tag k="ssr:stedsnr" v="735900" />
	</node>
	<node id="-145391" lat="60.6970888892" lon="9.86121943858">
		<tag k="historic" v="shieling" />
		<tag k="name" v="Nystøl" />
		<tag k="place" v="locality" />
		<tag k="ssr:stedsnr" v="735897" />
	</node>
	<node id="-145390" lat="60.6999555548" lon="9.67636666263">
		<tag k="historic" v="shieling" />
		<tag k="name" v="Kleiva" />
		<tag k="place" v="locality" />
		<tag k="ssr:stedsnr" v="735892" />
	</node>
	<node id="-143340" lat="60.5420444459" lon="9.80820556408">
		<tag k="name" v="Storrustemoen" />
		<tag k="place" v="farm" />
		<tag k="ssr:stedsnr" v="310839" />
	</node>
	<node id="-145385" lat="60.6223666708" lon="9.85549166212">
		<tag k="name" v="Lomtjernsætra" />
		<tag k="place" v="locality" />
		<tag k="ssr:stedsnr" v="735881" />
	</node>
	<node id="-143336" lat="60.5790583306" lon="9.74864167159">
		<tag k="alt_name" v="Skredderhuset" />
		<tag k="name" v="Skreddarhuset" />
		<tag k="place" v="farm" />
		<tag k="ssr:stedsnr" v="310823" />
	</node>
	<node id="-143334" lat="60.5748222183" lon="9.74214721514">
		<tag k="name" v="Slettebråten" />
		<tag k="place" v="farm" />
		<tag k="ssr:stedsnr" v="310809" />
	</node>
	<node id="-145381" lat="60.7421888852" lon="9.6769833318">
		<tag k="alt_name" v="Iversbrøtin" />
		<tag k="name" v="Ivarsbråten" />
		<tag k="place" v="farm" />
		<tag k="ssr:stedsnr" v="735791" />
	</node>
	<node id="-143331" lat="60.7478166657" lon="9.66884166965">
		<tag k="name" v="Solhaug" />
		<tag k="place" v="farm" />
		<tag k="ssr:stedsnr" v="310787" />
	</node>
	<node id="-143330" lat="60.6598749974" lon="9.40490832752">
		<tag k="alt_name" v="Driftsætra" />
		<tag k="historic" v="shieling" />
		<tag k="name" v="Driftesætri" />
		<tag k="place" v="locality" />
		<tag k="ssr:stedsnr" v="310742" />
	</node>
	<node id="-145377" lat="60.6663527218" lon="9.38864639687">
		<tag k="alt_name" v="Vangensætra" />
		<tag k="historic" v="shieling" />
		<tag k="name" v="Vangen" />
		<tag k="place" v="locality" />
		<tag k="ssr:stedsnr" v="735726" />
	</node>
	<node id="-143324" lat="60.6808138884" lon="9.36635555002">
		<tag k="alt_name" v="Erstad Rødningen" />
		<tag k="name" v="Rydningen" />
		<tag k="place" v="isolated_dwelling" />
		<tag k="ssr:stedsnr" v="310691" />
	</node>
	<node id="-145371" lat="60.6458166646" lon="9.57452499777">
		<tag k="name" v="Hytten" />
		<tag k="place" v="isolated_dwelling" />
		<tag k="ssr:stedsnr" v="735635" />
	</node>
	<node id="-145369" lat="60.6228833325" lon="9.45266667076">
		<tag k="alt_name" v="Godvasskardsætra, austre;Søre Godvasskarsætra" />
		<tag k="historic" v="shieling" />
		<tag k="name" v="Austre Godvasskardsætra" />
		<tag k="place" v="locality" />
		<tag k="ssr:stedsnr" v="735617" />
	</node>
	<node id="-145368" lat="60.6256111102" lon="9.44457777414">
		<tag k="alt_name" v="Godvasskardsætra, vestre" />
		<tag k="historic" v="shieling" />
		<tag k="name" v="Vestre Godvasskardsætra" />
		<tag k="place" v="locality" />
		<tag k="ssr:stedsnr" v="735616" />
	</node>
	<node id="-143319" lat="60.6470527747" lon="9.48582221867">
		<tag k="historic" v="shieling" />
		<tag k="name" v="Kringletjernsætra" />
		<tag k="place" v="locality" />
		<tag k="ssr:stedsnr" v="310654" />
	</node>
	<node id="-145366" lat="60.7327666631" lon="9.52142778215">
		<tag k="alt_name" v="Bukfyll, vesle;Veslebukfyll" />
		<tag k="historic" v="shieling" />
		<tag k="name" v="Vesle Bukfyll" />
		<tag k="place" v="locality" />
		<tag k="ssr:stedsnr" v="735538" />
	</node>
	<node id="-145365" lat="60.7407472239" lon="9.54652221698">
		<tag k="alt_name" v="Bøvaenge" />
		<tag k="name" v="Engan" />
		<tag k="place" v="isolated_dwelling" />
		<tag k="ssr:stedsnr" v="735532" />
	</node>
	<node id="-145364" lat="60.7416111129" lon="9.45362500613">
		<tag k="historic" v="shieling" />
		<tag k="name" v="Bukfyll" />
		<tag k="place" v="locality" />
		<tag k="ssr:stedsnr" v="735533" />
	</node>
	<node id="-145362" lat="60.7067250009" lon="9.42598888763">
		<tag k="alt_name" v="Hølervassætero" />
		<tag k="name" v="Hølervassætri" />
		<tag k="place" v="hamlet" />
		<tag k="ssr:stedsnr" v="735520" />
	</node>
	<node id="-143313" lat="60.4656472265" lon="9.82724445293">
		<tag k="name" v="Goplerudhytta" />
		<tag k="place" v="isolated_dwelling" />
		<tag k="ssr:stedsnr" v="309882" />
	</node>
	<node id="-145359" lat="60.7182722213" lon="9.48647221435">
		<tag k="alt_name" v="Fløtasætere" />
		<tag k="historic" v="shieling" />
		<tag k="name" v="Fløtasætri" />
		<tag k="place" v="locality" />
		<tag k="ssr:stedsnr" v="735516" />
	</node>
	<node id="-143693" lat="60.7461083332" lon="9.70084166367">
		<tag k="name" v="Tørstad" />
		<tag k="place" v="farm" />
		<tag k="ssr:stedsnr" v="7791" />
	</node>
	<node id="-145356" lat="60.8446055533" lon="9.48674999189">
		<tag k="name" v="Plassen" />
		<tag k="place" v="farm" />
		<tag k="ssr:stedsnr" v="736621" />
	</node>
	<node id="-145355" lat="60.8458472181" lon="9.45384999313">
		<tag k="alt_name" v="Knutstølvøllen" />
		<tag k="name" v="Knutsvollen" />
		<tag k="place" v="isolated_dwelling" />
		<tag k="ssr:stedsnr" v="736618" />
	</node>
	<node id="-145352" lat="60.6084194403" lon="9.7425527718">
		<tag k="name" v="Fjellstad" />
		<tag k="place" v="isolated_dwelling" />
		<tag k="ssr:stedsnr" v="726544" />
	</node>
	<node id="-145351" lat="60.6123888902" lon="9.73651667418">
		<tag k="name" v="Åmundplass" />
		<tag k="place" v="farm" />
		<tag k="ssr:stedsnr" v="726541" />
	</node>
	<node id="-143297" lat="60.6560749976" lon="9.83984722879">
		<tag k="name" v="Arnegård" />
		<tag k="place" v="isolated_dwelling" />
		<tag k="ssr:stedsnr" v="301628" />
	</node>
	<node id="-143349" lat="60.6098583357" lon="9.93734999468">
		<tag k="name" v="Galilea" />
		<tag k="place" v="isolated_dwelling" />
		<tag k="ssr:stedsnr" v="310908" />
	</node>
	<node id="-143288" lat="60.5980972188" lon="9.43630000898">
		<tag k="name" v="Damhytta" />
		<tag k="place" v="isolated_dwelling" />
		<tag k="ssr:stedsnr" v="301358" />
	</node>
	<node id="-145335" lat="60.7967666631" lon="9.70831945017">
		<tag k="name" v="Stanfinmarke" />
		<tag k="place" v="farm" />
		<tag k="ssr:stedsnr" v="726180" />
	</node>
	<node id="-143285" lat="60.7510833319" lon="9.60887222127">
		<tag k="name" v="Gaukeby" />
		<tag k="place" v="isolated_dwelling" />
		<tag k="ssr:stedsnr" v="301186" />
	</node>
	<node id="-143274" lat="60.7860638847" lon="9.57798611857">
		<tag k="name" v="Knatten" />
		<tag k="place" v="locality" />
		<tag k="ssr:stedsnr" v="301073" />
	</node>
	<node id="-143271" lat="60.8258638916" lon="9.50388888515">
		<tag k="name" v="Godvannstad" />
		<tag k="place" v="isolated_dwelling" />
		<tag k="ssr:stedsnr" v="300842" />
	</node>
	<node id="-145318" lat="60.8324472258" lon="9.51527777854">
		<tag k="name" v="Roabergo" />
		<tag k="place" v="isolated_dwelling" />
		<tag k="ssr:stedsnr" v="725808" />
	</node>
	<node id="-145317" lat="60.8233083338" lon="9.5036694361">
		<tag k="name" v="Nybrøtin" />
		<tag k="place" v="farm" />
		<tag k="ssr:stedsnr" v="725804" />
	</node>
	<node id="-145315" lat="60.8390027747" lon="9.39951944963">
		<tag k="name" v="Fjellstad" />
		<tag k="place" v="farm" />
		<tag k="ssr:stedsnr" v="725715" />
	</node>
	<node id="-145311" lat="60.809864207" lon="9.54337665289">
		<tag k="fixme" v="consider place=hamlet" />
		<tag k="name" v="Veglingsrud" />
		<tag k="place" v="farm" />
		<tag k="ssr:stedsnr" v="725232" />
	</node>
	<node id="-145310" lat="60.8151583349" lon="9.53650278086">
		<tag k="name" v="Brattrudberget" />
		<tag k="place" v="farm" />
		<tag k="ssr:stedsnr" v="725233" />
	</node>
	<node id="-143685" lat="60.6217750004" lon="9.59215833565">
		<tag k="name" v="Skriuåsen" />
		<tag k="place" v="locality" />
		<tag k="ssr:stedsnr" v="7655" />
	</node>
	<node id="-145308" lat="60.7511305522" lon="9.43861665808">
		<tag k="name" v="Venelia" />
		<tag k="place" v="farm" />
		<tag k="ssr:stedsnr" v="724781" />
	</node>
	<node id="-143344" lat="60.6240388926" lon="9.90146388104">
		<tag k="name" v="Myrvoll" />
		<tag k="place" v="farm" />
		<tag k="ssr:stedsnr" v="310875" />
	</node>
	<node id="-143343" lat="60.6974027734" lon="9.73030832499">
		<tag k="alt_name" v="Rustmo" />
		<tag k="name" v="Rustmoen" />
		<tag k="place" v="farm" />
		<tag k="ssr:stedsnr" v="310871" />
	</node>
	<node id="-145304" lat="60.7600388882" lon="9.80281666837">
		<tag k="name" v="Einebu" />
		<tag k="place" v="isolated_dwelling" />
		<tag k="ssr:stedsnr" v="707495" />
	</node>
	<node id="-145303" lat="60.7996944409" lon="9.65962499992">
		<tag k="name" v="Plassen" />
		<tag k="place" v="farm" />
		<tag k="ssr:stedsnr" v="706995" />
	</node>
	<node id="-145300" lat="60.8233972195" lon="9.5827555511">
		<tag k="name" v="London" />
		<tag k="place" v="locality" />
		<tag k="ssr:stedsnr" v="706976" />
	</node>
	<node id="-143342" lat="60.5481694477" lon="9.54275277081">
		<tag k="alt_name" v="Hansesprangsætera;Hansespranget" />
		<tag k="fixme" v="multiple name tags, choose one and add the other to alt_name" />
		<tag k="historic" v="shieling" />
		<tag k="name" v="Hansesprang;Hansesprangsætra" />
		<tag k="place" v="locality" />
		<tag k="ssr:stedsnr" v="310867" />
	</node>
	<node id="-143373" lat="60.8631805586" lon="9.41228610235">
		<tag k="alt_name" v="Rustehaugen" />
		<tag k="historic" v="shieling" />
		<tag k="name" v="Rudstøhaugen" />
		<tag k="place" v="locality" />
		<tag k="ssr:stedsnr" v="311712" />
	</node>
	<node id="-143541" lat="60.7549013662" lon="9.68268829263">
		<tag k="fixme" v="consider place=hamlet" />
		<tag k="name" v="Tronhus" />
		<tag k="place" v="farm" />
		<tag k="ssr:stedsnr" v="373147" />
	</node>
	<node id="-143245" lat="60.5564444411" lon="9.75743332629">
		<tag k="name" v="Høgaset" />
		<tag k="place" v="isolated_dwelling" />
		<tag k="ssr:stedsnr" v="282658" />
	</node>
	<node id="-145778" lat="60.8228750019" lon="9.48890277946">
		<tag k="name" v="Austheim" />
		<tag k="place" v="farm" />
		<tag k="ssr:stedsnr" v="858881" />
	</node>
	<node id="-145291" lat="60.5638888899" lon="9.74801944284">
		<tag k="name" v="Bråten" />
		<tag k="place" v="locality" />
		<tag k="ssr:stedsnr" v="706699" />
	</node>
	<node id="-145290" lat="60.5540388906" lon="9.75890833854">
		<tag k="name" v="Nordre Ospholt" />
		<tag k="place" v="farm" />
		<tag k="ssr:stedsnr" v="706688" />
	</node>
	<node id="-145289" lat="60.5498194411" lon="9.77893610763">
		<tag k="amenity" v="school" />
		<tag k="name" v="Storruste" />
		<tag k="ssr:stedsnr" v="706685" />
	</node>
	<node id="-145284" lat="60.573758329" lon="9.73927778649">
		<tag k="name" v="Bekkevoll" />
		<tag k="place" v="isolated_dwelling" />
		<tag k="ssr:stedsnr" v="706502" />
	</node>
	<node id="-143235" lat="60.6403611152" lon="9.64842499706">
		<tag k="name" v="Søre Nordby" />
		<tag k="place" v="farm" />
		<tag k="ssr:stedsnr" v="282248" />
	</node>
	<node id="-145282" lat="60.6300361072" lon="9.69497499928">
		<tag k="name" v="Bergum" />
		<tag k="place" v="farm" />
		<tag k="ssr:stedsnr" v="706295" />
	</node>
	<node id="-143233" lat="60.6360527752" lon="9.52040832835">
		<tag k="historic" v="shieling" />
		<tag k="name" v="Storvollen" />
		<tag k="place" v="locality" />
		<tag k="ssr:stedsnr" v="282232" />
	</node>
	<node id="-145275" lat="60.7078944421" lon="9.71917776965">
		<tag k="name" v="Lundstad" />
		<tag k="place" v="isolated_dwelling" />
		<tag k="ssr:stedsnr" v="706175" />
	</node>
	<node id="-145271" lat="60.7603722261" lon="9.53575556297">
		<tag k="alt_name" v="Svartsætrene" />
		<tag k="historic" v="shieling" />
		<tag k="name" v="Svartsætrin" />
		<tag k="place" v="locality" />
		<tag k="ssr:stedsnr" v="677770" />
	</node>
	<node id="-145270" lat="60.7659333317" lon="9.37032777987">
		<tag k="historic" v="shieling" />
		<tag k="name" v="Hagasætri" />
		<tag k="place" v="locality" />
		<tag k="ssr:stedsnr" v="677764" />
	</node>
	<node id="-145269" lat="60.8026500006" lon="9.66263054678">
		<tag k="name" v="Dalen" />
		<tag k="place" v="farm" />
		<tag k="ssr:stedsnr" v="677235" />
	</node>
	<node id="-145266" lat="60.8288334744" lon="9.47333518856">
		<tag k="fixme" v="consider place=hamlet" />
		<tag k="name" v="Skinnrud" />
		<tag k="place" v="farm" />
		<tag k="ssr:stedsnr" v="676861" />
	</node>
	<node id="-145265" lat="60.8219750036" lon="9.52634166719">
		<tag k="alt_name" v="Eldebakko" />
		<tag k="name" v="Eldebakken" />
		<tag k="place" v="farm" />
		<tag k="ssr:stedsnr" v="676857" />
	</node>
	<node id="-145262" lat="60.7683638887" lon="9.35075277756">
		<tag k="alt_name" v="Bønsætere" />
		<tag k="historic" v="shieling" />
		<tag k="name" v="Bøensætri" />
		<tag k="place" v="locality" />
		<tag k="ssr:stedsnr" v="676799" />
	</node>
	<node id="-145261" lat="60.7725583366" lon="9.43928333607">
		<tag k="alt_name" v="Blomstølen" />
		<tag k="historic" v="shieling" />
		<tag k="name" v="Blomstølan" />
		<tag k="place" v="locality" />
		<tag k="ssr:stedsnr" v="676787" />
	</node>
	<node id="-145259" lat="60.7821083378" lon="9.57629167491">
		<tag k="alt_name" v="Marke" />
		<tag k="name" v="Marki" />
		<tag k="place" v="farm" />
		<tag k="ssr:stedsnr" v="676778" />
	</node>
	<node id="-145257" lat="60.7755944483" lon="9.47517223029">
		<tag k="alt_name" v="Jartrudsætre" />
		<tag k="historic" v="shieling" />
		<tag k="name" v="Jartrudsætri" />
		<tag k="place" v="locality" />
		<tag k="ssr:stedsnr" v="676772" />
	</node>
	<node id="-145255" lat="60.8395638886" lon="9.41441667213">
		<tag k="name" v="Bøleshaugen" />
		<tag k="place" v="farm" />
		<tag k="ssr:stedsnr" v="676626" />
	</node>
	<node id="-145254" lat="60.7580277815" lon="9.65922500238">
		<tag k="name" v="Gladhaug" />
		<tag k="place" v="farm" />
		<tag k="ssr:stedsnr" v="676185" />
	</node>
	<node id="-145252" lat="60.7781888845" lon="9.59355833147">
		<tag k="alt_name" v="Brenn, nordre;Nørdre Brenne" />
		<tag k="name" v="Nordre Brenn" />
		<tag k="place" v="farm" />
		<tag k="ssr:stedsnr" v="676136" />
	</node>
	<node id="-145250" lat="60.6926833321" lon="9.85357500131">
		<tag k="name" v="Oserud" />
		<tag k="place" v="isolated_dwelling" />
		<tag k="ssr:stedsnr" v="675908" />
	</node>
	<node id="-145245" lat="60.7011277779" lon="9.847002771">
		<tag k="name" v="Kjørekula" />
		<tag k="place" v="isolated_dwelling" />
		<tag k="ssr:stedsnr" v="675890" />
	</node>
	<node id="-145243" lat="60.5693555556" lon="9.41665832542">
		<tag k="name" v="Suluvasshytta" />
		<tag k="place" v="isolated_dwelling" />
		<tag k="ssr:stedsnr" v="675848" />
	</node>
	<node id="-143410" lat="60.6434694476" lon="9.5753694396">
		<tag k="name" v="Guttormsbråten" />
		<tag k="place" v="locality" />
		<tag k="ssr:stedsnr" v="342252" />
	</node>
	<node id="-145238" lat="60.6690972258" lon="9.50817776957">
		<tag k="historic" v="shieling" />
		<tag k="name" v="Nysætra" />
		<tag k="place" v="locality" />
		<tag k="ssr:stedsnr" v="675772" />
	</node>
	<node id="-145233" lat="60.641055559" lon="9.96641111404">
		<tag k="fixme" v="multiple name tags, choose one and add the other to alt_name" />
		<tag k="name" v="Hysa;Nystugu" />
		<tag k="place" v="isolated_dwelling" />
		<tag k="ssr:stedsnr" v="674985" />
	</node>
	<node id="-145232" lat="60.7133916638" lon="9.78234444814">
		<tag k="alt_name" v="Svarthølsætra" />
		<tag k="historic" v="shieling" />
		<tag k="name" v="Svartholsætra" />
		<tag k="place" v="locality" />
		<tag k="ssr:stedsnr" v="674977" />
	</node>
	<node id="-145230" lat="60.727627776" lon="9.61052776972">
		<tag k="alt_name" v="Liasætere" />
		<tag k="name" v="Liasætri" />
		<tag k="place" v="locality" />
		<tag k="ssr:stedsnr" v="674971" />
	</node>
	<node id="-145228" lat="60.7258250025" lon="9.69028888486">
		<tag k="fixme" v="multiple name tags, choose one and add the other to alt_name" />
		<tag k="name" v="Sveinsbråten;Åsheim" />
		<tag k="place" v="farm" />
		<tag k="ssr:stedsnr" v="674951" />
	</node>
	<node id="-145378" lat="60.6755333347" lon="9.48357222868">
		<tag k="alt_name" v="Hovdasæter" />
		<tag k="historic" v="shieling" />
		<tag k="name" v="Hovda" />
		<tag k="place" v="locality" />
		<tag k="ssr:stedsnr" v="735731" />
	</node>
	<node id="-145223" lat="60.5922999998" lon="9.75608888335">
		<tag k="name" v="Hagen" />
		<tag k="place" v="farm" />
		<tag k="ssr:stedsnr" v="674924" />
	</node>
	<node id="-143329" lat="60.6596972247" lon="9.41963333047">
		<tag k="name" v="Nybusætra" />
		<tag k="place" v="isolated_dwelling" />
		<tag k="ssr:stedsnr" v="310729" />
	</node>
	<node id="-145217" lat="60.60671111" lon="9.85499999381">
		<tag k="alt_name" v="Solskindamhytta" />
		<tag k="name" v="Solskindammen" />
		<tag k="place" v="isolated_dwelling" />
		<tag k="ssr:stedsnr" v="674899" />
	</node>
	<node id="-145214" lat="60.5969444437" lon="9.74784999303">
		<tag k="name" v="Nordli" />
		<tag k="place" v="farm" />
		<tag k="ssr:stedsnr" v="674890" />
	</node>
	<node id="-145211" lat="60.6161611068" lon="9.74291944708">
		<tag k="alt_name" v="Klemmetsrud, s" />
		<tag k="name" v="Søre Klemmetsrud" />
		<tag k="place" v="farm" />
		<tag k="ssr:stedsnr" v="674883" />
	</node>
	<node id="-145206" lat="60.5480361106" lon="9.45406665972">
		<tag k="name" v="Vassfarplassen" />
		<tag k="place" v="locality" />
		<tag k="ssr:stedsnr" v="674863" />
	</node>
	<node id="-145204" lat="60.5273833314" lon="9.72942777351">
		<tag k="alt_name" v="Bogsætra" />
		<tag k="historic" v="shieling" />
		<tag k="name" v="Ospholtbogsætra" />
		<tag k="place" v="locality" />
		<tag k="ssr:stedsnr" v="674859" />
	</node>
	<node id="-145202" lat="60.551480552" lon="9.69391943608">
		<tag k="historic" v="shieling" />
		<tag k="name" v="Mansætra" />
		<tag k="place" v="locality" />
		<tag k="ssr:stedsnr" v="674834" />
	</node>
	<node id="-145201" lat="60.553384009" lon="9.76280211389">
		<tag k="fixme" v="consider place=hamlet" />
		<tag k="name" v="Ospholt" />
		<tag k="place" v="farm" />
		<tag k="ssr:stedsnr" v="674831" />
	</node>
	<node id="-145200" lat="60.5644222264" lon="9.72419166575">
		<tag k="name" v="Skålebråten" />
		<tag k="place" v="farm" />
		<tag k="ssr:stedsnr" v="674823" />
	</node>
	<node id="-145199" lat="60.563700118" lon="9.74021130175">
		<tag k="name" v="Landsenden" />
		<tag k="place" v="hamlet" />
		<tag k="ssr:stedsnr" v="674821" />
	</node>
	<node id="-145198" lat="60.5718888926" lon="9.73991389569">
		<tag k="alt_name" v="Nedre Gunderhuset" />
		<tag k="name" v="Nedre Gunnerhuset" />
		<tag k="old_name" v="Gunnerhuset, nordre" />
		<tag k="place" v="farm" />
		<tag k="ssr:stedsnr" v="674818" />
	</node>
	<node id="-145196" lat="60.5678027757" lon="9.74564167469">
		<tag k="name" v="Haugebråten" />
		<tag k="place" v="farm" />
		<tag k="ssr:stedsnr" v="674814" />
	</node>
	<node id="-145193" lat="60.645275001" lon="9.51563055886">
		<tag k="name" v="Bergesætra" />
		<tag k="place" v="isolated_dwelling" />
		<tag k="ssr:stedsnr" v="674656" />
	</node>
	<node id="-145192" lat="60.7400250026" lon="9.4395888929">
		<tag k="alt_name" v="Skrikkervøllatn" />
		<tag k="historic" v="shieling" />
		<tag k="name" v="Skrikkarvollen" />
		<tag k="place" v="locality" />
		<tag k="ssr:stedsnr" v="674559" />
	</node>
	<node id="-145188" lat="60.6298916637" lon="9.55632778196">
		<tag k="alt_name" v="Hølsætrene" />
		<tag k="historic" v="shieling" />
		<tag k="name" v="Holsætra" />
		<tag k="place" v="locality" />
		<tag k="ssr:stedsnr" v="674627" />
	</node>
	<node id="-143345" lat="60.6115777749" lon="9.94890833455">
		<tag k="name" v="Tørrisplassen" />
		<tag k="place" v="farm" />
		<tag k="ssr:stedsnr" v="310884" />
	</node>
	<node id="-145183" lat="60.7734861145" lon="9.31716388273">
		<tag k="alt_name" v="Lennerstølen" />
		<tag k="historic" v="shieling" />
		<tag k="name" v="Lenerstølen" />
		<tag k="place" v="locality" />
		<tag k="ssr:stedsnr" v="665791" />
	</node>
	<node id="-145180" lat="60.7110833321" lon="9.86995554721">
		<tag k="name" v="Saubekkhytta" />
		<tag k="place" v="isolated_dwelling" />
		<tag k="ssr:stedsnr" v="665709" />
	</node>
	<node id="-145176" lat="60.5936166689" lon="9.75198055849">
		<tag k="name" v="Lyngstad" />
		<tag k="place" v="farm" />
		<tag k="ssr:stedsnr" v="665511" />
	</node>
	<node id="-145175" lat="60.7258444488" lon="9.52369445332">
		<tag k="name" v="Bergakula" />
		<tag k="place" v="isolated_dwelling" />
		<tag k="ssr:stedsnr" v="665488" />
	</node>
	<node id="-145174" lat="60.6244444476" lon="9.6891972289">
		<tag k="name" v="Solbakken" />
		<tag k="place" v="isolated_dwelling" />
		<tag k="ssr:stedsnr" v="665486" />
	</node>
	<node id="-145173" lat="60.622366664" lon="9.6805333385">
		<tag k="name" v="Sandaker" />
		<tag k="place" v="isolated_dwelling" />
		<tag k="ssr:stedsnr" v="665485" />
	</node>
	<node id="-145172" lat="60.624852782" lon="9.68618887984">
		<tag k="name" v="Haugerud" />
		<tag k="place" v="isolated_dwelling" />
		<tag k="ssr:stedsnr" v="665483" />
	</node>
	<node id="-143662" lat="60.5909957938" lon="9.74731366303">
		<tag k="fixme" v="consider place=hamlet" />
		<tag k="name" v="Kjensrud" />
		<tag k="place" v="farm" />
		<tag k="ssr:stedsnr" v="987206" />
	</node>
	<node id="-143898" lat="60.6293833293" lon="9.89491388001">
		<tag k="alt_name" v="Søgård" />
		<tag k="name" v="Sørgard" />
		<tag k="place" v="farm" />
		<tag k="ssr:stedsnr" v="68998" />
	</node>
	<node id="-145159" lat="60.8280805555" lon="9.45736110789">
		<tag k="name" v="Hagen" />
		<tag k="place" v="farm" />
		<tag k="ssr:stedsnr" v="664855" />
	</node>
	<node id="-145155" lat="60.7256916689" lon="9.36627221462">
		<tag k="historic" v="shieling" />
		<tag k="name" v="Høvstrøe" />
		<tag k="place" v="locality" />
		<tag k="ssr:stedsnr" v="664843" />
	</node>
	<node id="-143317" lat="60.7464472242" lon="9.51577499198">
		<tag k="alt_name" v="Bjørkeslette" />
		<tag k="name" v="Bjørkesletti" />
		<tag k="place" v="locality" />
		<tag k="ssr:stedsnr" v="310557" />
	</node>
	<node id="-145147" lat="60.7997416673" lon="9.40482223089">
		<tag k="name" v="Myrstølen" />
		<tag k="place" v="isolated_dwelling" />
		<tag k="ssr:stedsnr" v="664620" />
	</node>
	<node id="-145142" lat="60.7406750007" lon="9.39684166456">
		<tag k="name" v="Hellebekk Turistseter" />
		<tag k="old_name" v="Hellebekk turistsæter;Hellebekk Ride og Turistseter;Hellebekksætri" />
		<tag k="ssr:stedsnr" v="664500" />
		<tag k="tourism" v="guest_house" />
	</node>
	<node id="-143543" lat="60.8120027739" lon="9.67782500083">
		<tag k="alt_name" v="Skarsætere" />
		<tag k="historic" v="shieling" />
		<tag k="name" v="Skardsætri" />
		<tag k="place" v="locality" />
		<tag k="ssr:stedsnr" v="373179" />
	</node>
	<node id="-145135" lat="60.8403999996" lon="9.40666559032">
		<tag k="alt_name" v="Stavedal" />
		<tag k="name" v="Stavadalen" />
		<tag k="place" v="hamlet" />
		<tag k="ssr:stedsnr" v="649210" />
	</node>
	<node id="-145133" lat="60.7341833336" lon="9.43521388819">
		<tag k="historic" v="shieling" />
		<tag k="name" v="Leisterudbukfyll" />
		<tag k="place" v="locality" />
		<tag k="ssr:stedsnr" v="645989" />
	</node>
	<node id="-145131" lat="60.8140333337" lon="9.55743611477">
		<tag k="name" v="Bjørke" />
		<tag k="place" v="farm" />
		<tag k="ssr:stedsnr" v="645963" />
	</node>
	<node id="-145130" lat="60.832833329" lon="9.48020832985">
		<tag k="name" v="Kveatn" />
		<tag k="place" v="farm" />
		<tag k="ssr:stedsnr" v="645920" />
	</node>
	<node id="-143655" lat="60.6745504163" lon="9.75055621102">
		<tag k="fixme" v="consider place=hamlet" />
		<tag k="name" v="Grimsrud" />
		<tag k="place" v="farm" />
		<tag k="ssr:stedsnr" v="987191" />
	</node>
	<node id="-145124" lat="60.7753888849" lon="9.64277223115">
		<tag k="name" v="Nordre Øyhus" />
		<tag k="place" v="farm" />
		<tag k="ssr:stedsnr" v="645871" />
	</node>
	<node id="-143654" lat="60.7902668383" lon="9.59802255041">
		<tag k="fixme" v="consider place=hamlet" />
		<tag k="name" v="Leitet" />
		<tag k="place" v="farm" />
		<tag k="ssr:stedsnr" v="987187" />
	</node>
	<node id="-145120" lat="60.8689666679" lon="9.46605278114">
		<tag k="alt_name" v="Rustøebakkin" />
		<tag k="name" v="Rustøbakken" />
		<tag k="place" v="farm" />
		<tag k="ssr:stedsnr" v="645735" />
	</node>
	<node id="-145119" lat="60.5658527806" lon="9.74198055649">
		<tag k="name" v="Grindheim" />
		<tag k="place" v="isolated_dwelling" />
		<tag k="ssr:stedsnr" v="645697" />
	</node>
	<node id="-145117" lat="60.5522277746" lon="9.76535833917">
		<tag k="name" v="Steinkjær" />
		<tag k="place" v="isolated_dwelling" />
		<tag k="ssr:stedsnr" v="645673" />
	</node>
	<node id="-145116" lat="60.5545500034" lon="9.76007777149">
		<tag k="name" v="Badstuguhaugen" />
		<tag k="place" v="isolated_dwelling" />
		<tag k="ssr:stedsnr" v="645671" />
	</node>
	<node id="-145114" lat="60.8020222181" lon="9.41299445099">
		<tag k="name" v="Brubakkeberget" />
		<tag k="place" v="isolated_dwelling" />
		<tag k="ssr:stedsnr" v="645540" />
	</node>
	<node id="-143652" lat="60.7977923923" lon="9.67423871224">
		<tag k="fixme" v="consider place=hamlet" />
		<tag k="name" v="Nerøydegarden" />
		<tag k="place" v="farm" />
		<tag k="ssr:stedsnr" v="987185" />
	</node>
	<node id="-145101" lat="60.6352944482" lon="9.50801110785">
		<tag k="historic" v="shieling" />
		<tag k="name" v="Søre Lissætra" />
		<tag k="place" v="locality" />
		<tag k="ssr:stedsnr" v="645241" />
	</node>
	<node id="-143308" lat="60.7926194458" lon="9.62151388471">
		<tag k="name" v="Bjødnaskaret" />
		<tag k="place" v="isolated_dwelling" />
		<tag k="ssr:stedsnr" v="301906" />
	</node>
	<node id="-145094" lat="60.7445333352" lon="9.67589722174">
		<tag k="name" v="Haugen" />
		<tag k="place" v="locality" />
		<tag k="ssr:stedsnr" v="645122" />
	</node>
	<node id="-145091" lat="60.7996583342" lon="9.70040276913">
		<tag k="alt_name" v="Tomtin, øvre" />
		<tag k="name" v="Øvre Tomtin" />
		<tag k="place" v="farm" />
		<tag k="ssr:stedsnr" v="616209" />
	</node>
	<node id="-145090" lat="60.7971083355" lon="9.65408334059">
		<tag k="name" v="Leiteplassen" />
		<tag k="place" v="farm" />
		<tag k="ssr:stedsnr" v="616204" />
	</node>
	<node id="-145089" lat="60.7968989157" lon="9.67715104258">
		<tag k="name" v="Søre Nerøygard" />
		<tag k="place" v="farm" />
		<tag k="ssr:stedsnr" v="616202" />
	</node>
	<node id="-145088" lat="60.8254750015" lon="9.45420554953">
		<tag k="name" v="Huset" />
		<tag k="place" v="farm" />
		<tag k="ssr:stedsnr" v="615857" />
	</node>
	<node id="-145087" lat="60.8241638907" lon="9.57284722152">
		<tag k="name" v="Jordet" />
		<tag k="place" v="farm" />
		<tag k="ssr:stedsnr" v="615847" />
	</node>
	<node id="-145085" lat="60.8138722209" lon="9.44369165776">
		<tag k="alt_name" v="Vesmevøllatn" />
		<tag k="name" v="Vesmevollen" />
		<tag k="place" v="isolated_dwelling" />
		<tag k="ssr:stedsnr" v="615844" />
	</node>
	<node id="-145084" lat="60.8353333365" lon="9.52848889436">
		<tag k="alt_name" v="Jukam, nordre;Øvre Juvkam" />
		<tag k="fixme" v="multiple name tags, choose one and add the other to alt_name" />
		<tag k="name" v="Nordre Jukam;Øvre Jukam" />
		<tag k="place" v="farm" />
		<tag k="ssr:stedsnr" v="615835" />
	</node>
	<node id="-145083" lat="60.8310333348" lon="9.55422499655">
		<tag k="alt_name" v="Bergatn" />
		<tag k="name" v="Bergan" />
		<tag k="place" v="isolated_dwelling" />
		<tag k="ssr:stedsnr" v="615829" />
	</node>
	<node id="-145082" lat="60.765119449" lon="9.42743333548">
		<tag k="historic" v="shieling" />
		<tag k="name" v="Valhall" />
		<tag k="place" v="locality" />
		<tag k="ssr:stedsnr" v="615791" />
	</node>
	<node id="-145080" lat="60.7836666653" lon="9.56340278038">
		<tag k="alt_name" v="Juve" />
		<tag k="name" v="Gjuvi" />
		<tag k="place" v="isolated_dwelling" />
		<tag k="ssr:stedsnr" v="615771" />
	</node>
	<node id="-145078" lat="60.846202777" lon="9.4930249945">
		<tag k="alt_name" v="Brenninge" />
		<tag k="name" v="Brennengi" />
		<tag k="place" v="farm" />
		<tag k="ssr:stedsnr" v="615628" />
	</node>
	<node id="-145077" lat="60.831625002" lon="9.43324167355">
		<tag k="alt_name" v="Bøle, s" />
		<tag k="name" v="Søre Bøle" />
		<tag k="place" v="farm" />
		<tag k="ssr:stedsnr" v="615629" />
	</node>
	<node id="-145076" lat="60.838249998" lon="9.52197222775">
		<tag k="alt_name" v="Berg" />
		<tag k="name" v="Bergli" />
		<tag k="place" v="farm" />
		<tag k="ssr:stedsnr" v="615615" />
	</node>
	<node id="-145070" lat="60.7441138909" lon="9.70649722822">
		<tag k="alt_name" v="Engen" />
		<tag k="name" v="Engi" />
		<tag k="place" v="farm" />
		<tag k="ssr:stedsnr" v="614827" />
	</node>
	<node id="-145065" lat="60.8589888905" lon="9.4747527827">
		<tag k="alt_name" v="Sofiebrøtin" />
		<tag k="name" v="Sofiebråten" />
		<tag k="place" v="farm" />
		<tag k="ssr:stedsnr" v="614698" />
	</node>
	<node id="-145064" lat="60.7172472184" lon="9.91781111864">
		<tag k="alt_name" v="Helgedamseter" />
		<tag k="name" v="Helgedamsætra" />
		<tag k="place" v="isolated_dwelling" />
		<tag k="ssr:stedsnr" v="613998" />
	</node>
	<node id="-145063" lat="60.62183752" lon="9.69322643356">
		<tag k="alt_name" v="Iljarnstad;Ildjarnstad" />
		<tag k="fixme" v="consider place=hamlet" />
		<tag k="name" v="Iljanstad" />
		<tag k="place" v="farm" />
		<tag k="ssr:stedsnr" v="613992" />
	</node>
	<node id="-145061" lat="60.6214148215" lon="9.71839397759">
		<tag k="alt_name" v="Øvreby" />
		<tag k="fixme" v="consider place=hamlet" />
		<tag k="name" v="Øverby" />
		<tag k="place" v="farm" />
		<tag k="ssr:stedsnr" v="613987" />
	</node>
	<node id="-145058" lat="60.6381361091" lon="9.65646666724">
		<tag k="name" v="Bondli" />
		<tag k="place" v="farm" />
		<tag k="ssr:stedsnr" v="613980" />
	</node>
	<node id="-145055" lat="60.7110977152" lon="9.70687981911">
		<tag k="alt_name" v="Garthus, nordre" />
		<tag k="fixme" v="consider place=hamlet" />
		<tag k="name" v="Nordre Garthus" />
		<tag k="place" v="farm" />
		<tag k="ssr:stedsnr" v="613969" />
	</node>
	<node id="-145053" lat="60.6474527785" lon="9.89929445137">
		<tag k="name" v="Kverna" />
		<tag k="place" v="farm" />
		<tag k="ssr:stedsnr" v="613966" />
	</node>
	<node id="-145052" lat="60.7210972224" lon="9.7635472261">
		<tag k="name" v="Berlin" />
		<tag k="place" v="isolated_dwelling" />
		<tag k="ssr:stedsnr" v="613957" />
	</node>
	<node id="-145050" lat="60.7216138853" lon="9.81134167256">
		<tag k="alt_name" v="Bergavassætre" />
		<tag k="historic" v="shieling" />
		<tag k="name" v="Bergvassætri" />
		<tag k="place" v="locality" />
		<tag k="ssr:stedsnr" v="613953" />
	</node>
	<node id="-145049" lat="60.6585361146" lon="9.74337221932">
		<tag k="name" v="Rynning" />
		<tag k="place" v="farm" />
		<tag k="ssr:stedsnr" v="613946" />
	</node>
	<node id="-145046" lat="60.667844443" lon="9.81816666261">
		<tag k="name" v="Flaghytta" />
		<tag k="place" v="isolated_dwelling" />
		<tag k="ssr:stedsnr" v="613928" />
	</node>
	<node id="-145044" lat="60.6689805567" lon="9.78269443868">
		<tag k="name" v="Nyhytta" />
		<tag k="place" v="isolated_dwelling" />
		<tag k="ssr:stedsnr" v="613924" />
	</node>
	<node id="-145042" lat="60.5973472255" lon="9.90816944764">
		<tag k="name" v="Svarttjernkula" />
		<tag k="place" v="isolated_dwelling" />
		<tag k="ssr:stedsnr" v="613923" />
	</node>
	<node id="-145041" lat="60.5805638854" lon="9.74684443974">
		<tag k="name" v="Jordet" />
		<tag k="place" v="farm" />
		<tag k="ssr:stedsnr" v="613922" />
	</node>
	<node id="-145040" lat="60.6628277749" lon="9.74353332413">
		<tag k="name" v="Kristiansmoen" />
		<tag k="place" v="farm" />
		<tag k="ssr:stedsnr" v="613919" />
	</node>
	<node id="-145036" lat="60.6010388921" lon="9.7433972309">
		<tag k="name" v="Jonsrud" />
		<tag k="place" v="farm" />
		<tag k="ssr:stedsnr" v="613906" />
	</node>
	<node id="-145034" lat="60.6864194453" lon="9.7931527736">
		<tag k="historic" v="shieling" />
		<tag k="name" v="Heimsætra" />
		<tag k="place" v="locality" />
		<tag k="ssr:stedsnr" v="613890" />
	</node>
	<node id="-145031" lat="60.6207977935" lon="9.730068394">
		<tag k="alt_name" v="Lie" />
		<tag k="fixme" v="consider place=hamlet" />
		<tag k="name" v="Li" />
		<tag k="place" v="farm" />
		<tag k="ssr:stedsnr" v="613885" />
	</node>
	<node id="-145029" lat="60.6203190257" lon="9.69694550735">
		<tag k="fixme" v="consider place=hamlet" />
		<tag k="name" v="Jørenby" />
		<tag k="place" v="farm" />
		<tag k="ssr:stedsnr" v="613876" />
	</node>
	<node id="-145025" lat="60.5668388919" lon="9.71744166496">
		<tag k="name" v="Vestrom" />
		<tag k="place" v="farm" />
		<tag k="ssr:stedsnr" v="613832" />
	</node>
	<node id="-145023" lat="60.5731388889" lon="9.7428305641">
		<tag k="alt_name" v="Gunnerhuset, øvre;Øvre Gunderhuset" />
		<tag k="name" v="Øvre Gunnerhuset" />
		<tag k="place" v="farm" />
		<tag k="ssr:stedsnr" v="613821" />
	</node>
	<node id="-145021" lat="60.7374499989" lon="9.80022222241">
		<tag k="name" v="Sandodden" />
		<tag k="place" v="isolated_dwelling" />
		<tag k="ssr:stedsnr" v="613797" />
	</node>
	<node id="-145018" lat="60.6506277747" lon="9.46090277649">
		<tag k="alt_name" v="Teinevassæter" />
		<tag k="historic" v="shieling" />
		<tag k="name" v="Teinvassætra" />
		<tag k="old_name" v="Teinvasssætra" />
		<tag k="place" v="locality" />
		<tag k="ssr:stedsnr" v="613710" />
	</node>
	<node id="-145017" lat="60.6518361075" lon="9.48166111781">
		<tag k="historic" v="shieling" />
		<tag k="name" v="Dekaren" />
		<tag k="place" v="locality" />
		<tag k="ssr:stedsnr" v="613707" />
	</node>
	<node id="-145014" lat="60.675722219" lon="9.51332221625">
		<tag k="historic" v="shieling" />
		<tag k="name" v="Holvollen" />
		<tag k="place" v="locality" />
		<tag k="ssr:stedsnr" v="613676" />
	</node>
	<node id="-145009" lat="60.6267611071" lon="9.57515278585">
		<tag k="alt_name" v="Svartskaret" />
		<tag k="name" v="Svartskardsætra" />
		<tag k="place" v="isolated_dwelling" />
		<tag k="ssr:stedsnr" v="613618" />
	</node>
	<node id="-145007" lat="60.7359749975" lon="9.41433888456">
		<tag k="alt_name" v="Hellebekksætrene" />
		<tag k="historic" v="shieling" />
		<tag k="name" v="Hellebekksætri" />
		<tag k="place" v="locality" />
		<tag k="ssr:stedsnr" v="613554" />
	</node>
	<node id="-145006" lat="60.7470999987" lon="9.56772499673">
		<tag k="alt_name" v="Hølersætere" />
		<tag k="historic" v="shieling" />
		<tag k="name" v="Hølersætri" />
		<tag k="place" v="locality" />
		<tag k="ssr:stedsnr" v="613545" />
	</node>
	<node id="-143293" lat="60.5914472262" lon="9.75372499412">
		<tag k="name" v="Søreid" />
		<tag k="place" v="isolated_dwelling" />
		<tag k="ssr:stedsnr" v="301461" />
	</node>
	<node id="-145000" lat="60.7772555576" lon="9.61859166171">
		<tag k="name" v="Nordre Lundo" />
		<tag k="place" v="farm" />
		<tag k="ssr:stedsnr" v="604883" />
	</node>
	<node id="-143633" lat="60.8012777771" lon="9.56566943861">
		<tag k="name" v="Odden" />
		<tag k="place" v="isolated_dwelling" />
		<tag k="ssr:stedsnr" v="889994" />
	</node>
	<node id="-144990" lat="60.6163611125" lon="9.73376388826">
		<tag k="name" v="Lisbråten" />
		<tag k="place" v="farm" />
		<tag k="ssr:stedsnr" v="604516" />
	</node>
	<node id="-144982" lat="60.7086444437" lon="9.47312222283">
		<tag k="name" v="Føssehaugen" />
		<tag k="place" v="isolated_dwelling" />
		<tag k="ssr:stedsnr" v="604442" />
	</node>
	<node id="-144981" lat="60.6470944462" lon="9.87537499478">
		<tag k="name" v="Elseng" />
		<tag k="place" v="isolated_dwelling" />
		<tag k="ssr:stedsnr" v="604720" />
	</node>
	<node id="-144976" lat="60.6895194449" lon="9.59813055413">
		<tag k="name" v="Sukkekula" />
		<tag k="place" v="isolated_dwelling" />
		<tag k="ssr:stedsnr" v="604186" />
	</node>
	<node id="-144971" lat="60.7935972209" lon="9.57105278455">
		<tag k="name" v="Koldokke" />
		<tag k="place" v="farm" />
		<tag k="ssr:stedsnr" v="604110" />
	</node>
	<node id="-144970" lat="60.7952444477" lon="9.58019443693">
		<tag k="name" v="Søre Dølvesætere" />
		<tag k="place" v="farm" />
		<tag k="ssr:stedsnr" v="604108" />
	</node>
	<node id="-143287" lat="60.8624499996" lon="9.40629723113">
		<tag k="historic" v="shieling" />
		<tag k="name" v="Haugatrøe" />
		<tag k="place" v="locality" />
		<tag k="ssr:stedsnr" v="301337" />
	</node>
	<node id="-143439" lat="60.8107944459" lon="9.55338333434">
		<tag k="name" v="Austflate" />
		<tag k="place" v="farm" />
		<tag k="ssr:stedsnr" v="342965" />
	</node>
	<node id="-144966" lat="60.8142444483" lon="9.7726138871">
		<tag k="name" v="Jemteland" />
		<tag k="place" v="locality" />
		<tag k="ssr:stedsnr" v="604085" />
	</node>
	<node id="-144963" lat="60.7516000031" lon="9.58255277045">
		<tag k="barrier" v="fence" />
		<tag k="name" v="Hølersætergrinde" />
		<tag k="ssr:stedsnr" v="604064" />
	</node>
	<node id="-144961" lat="60.7056333316" lon="9.35251389504">
		<tag k="name" v="Fristaden" />
		<tag k="place" v="locality" />
		<tag k="ssr:stedsnr" v="603837" />
	</node>
	<node id="-145333" lat="60.794811109" lon="9.73467778434">
		<tag k="name" v="Fjelleng" />
		<tag k="place" v="farm" />
		<tag k="ssr:stedsnr" v="726169" />
	</node>
	<node id="-144954" lat="60.8161777823" lon="9.53174166563">
		<tag k="name" v="Lijordhaugen" />
		<tag k="place" v="isolated_dwelling" />
		<tag k="ssr:stedsnr" v="603199" />
	</node>
	<node id="-144953" lat="60.7467166658" lon="9.42767500705">
		<tag k="historic" v="shieling" />
		<tag k="name" v="Venelia fellesseter" />
		<tag k="place" v="locality" />
		<tag k="ssr:stedsnr" v="602790" />
	</node>
	<node id="-144952" lat="60.6051111136" lon="9.54694722726">
		<tag k="alt_name" v="Søbekksætrene" />
		<tag k="historic" v="shieling" />
		<tag k="name" v="Sørbekksætra" />
		<tag k="old_name" v="Søebæk Sr" />
		<tag k="place" v="locality" />
		<tag k="ssr:stedsnr" v="601673" />
	</node>
	<node id="-144941" lat="60.7742833297" lon="9.6204555567">
		<tag k="name" v="Øvre Lundo" />
		<tag k="place" v="farm" />
		<tag k="ssr:stedsnr" v="585879" />
	</node>
	<node id="-144940" lat="60.8308583349" lon="9.48021388598">
		<tag k="alt_name" v="Vestreim" />
		<tag k="name" v="Westerheim" />
		<tag k="place" v="farm" />
		<tag k="ssr:stedsnr" v="585824" />
	</node>
	<node id="-144938" lat="60.8232666639" lon="9.50206944222">
		<tag k="name" v="Velomshaugen" />
		<tag k="place" v="farm" />
		<tag k="ssr:stedsnr" v="585816" />
	</node>
	<node id="-144937" lat="60.8260583298" lon="9.50194445256">
		<tag k="name" v="Kjørom" />
		<tag k="place" v="farm" />
		<tag k="ssr:stedsnr" v="585814" />
	</node>
	<node id="-144932" lat="60.547091663" lon="9.79541666213">
		<tag k="name" v="Veistad" />
		<tag k="place" v="isolated_dwelling" />
		<tag k="ssr:stedsnr" v="585756" />
	</node>
	<node id="-144931" lat="60.8659749994" lon="9.46306110884">
		<tag k="name" v="Hermundsplassen" />
		<tag k="place" v="farm" />
		<tag k="ssr:stedsnr" v="585729" />
	</node>
	<node id="-143536" lat="60.8310722202" lon="9.43896389276">
		<tag k="alt_name" v="Urdeberg" />
		<tag k="name" v="Uleberg" />
		<tag k="place" v="farm" />
		<tag k="ssr:stedsnr" v="372875" />
	</node>
	<node id="-144925" lat="60.772613891" lon="9.80414721394">
		<tag k="name" v="Stallheim" />
		<tag k="place" v="locality" />
		<tag k="ssr:stedsnr" v="585461" />
	</node>
	<node id="-144924" lat="60.7621027769" lon="9.79883333173">
		<tag k="name" v="Navarhytta" />
		<tag k="place" v="isolated_dwelling" />
		<tag k="ssr:stedsnr" v="585441" />
	</node>
	<node id="-144919" lat="60.6265" lon="9.67767777381">
		<tag k="name" v="Grøndal" />
		<tag k="place" v="farm" />
		<tag k="ssr:stedsnr" v="585259" />
	</node>
	<node id="-144915" lat="60.6448861071" lon="9.68620555923">
		<tag k="name" v="Kokkestad" />
		<tag k="place" v="locality" />
		<tag k="ssr:stedsnr" v="585245" />
	</node>
	<node id="-144910" lat="60.7932777752" lon="9.50857777901">
		<tag k="name" v="Fjøs" />
		<tag k="place" v="isolated_dwelling" />
		<tag k="ssr:stedsnr" v="585201" />
	</node>
	<node id="-144907" lat="60.7886277739" lon="9.4747750033">
		<tag k="historic" v="shieling" />
		<tag k="name" v="Bøhnsætere" />
		<tag k="place" v="locality" />
		<tag k="ssr:stedsnr" v="585179" />
	</node>
	<node id="-144905" lat="60.7912361069" lon="9.58274167177">
		<tag k="name" v="Søreng" />
		<tag k="place" v="isolated_dwelling" />
		<tag k="ssr:stedsnr" v="585115" />
	</node>
	<node id="-144903" lat="60.6098710436" lon="9.43173804975">
		<tag k="fixme" v="consider tourism=alpine_hut or tourism=chalet" />
		<tag k="name" v="Fønhuskoia" />
		<tag k="ssr:stedsnr" v="584788" />
		<tag k="tourism" v="wilderness_hut" />
	</node>
	<node id="-144902" lat="60.6144861123" lon="9.93985833984">
		<tag k="name" v="Strømsmoen" />
		<tag k="place" v="farm" />
		<tag k="ssr:stedsnr" v="570027" />
	</node>
	<node id="-144901" lat="60.8032777734" lon="9.54117778426">
		<tag k="name" v="Bøle" />
		<tag k="place" v="farm" />
		<tag k="ssr:stedsnr" v="555798" />
	</node>
	<node id="-144900" lat="60.8082138913" lon="9.56021944191">
		<tag k="alt_name" v="Turidbrøtin" />
		<tag k="name" v="Turidbråten" />
		<tag k="place" v="farm" />
		<tag k="ssr:stedsnr" v="555796" />
	</node>
	<node id="-144897" lat="60.7717138846" lon="9.53748887999">
		<tag k="alt_name" v="Grånlisætrene" />
		<tag k="historic" v="shieling" />
		<tag k="name" v="Granlisætrin" />
		<tag k="place" v="locality" />
		<tag k="ssr:stedsnr" v="555783" />
	</node>
	<node id="-144896" lat="60.7888583349" lon="9.48199165822">
		<tag k="alt_name" v="Felesætere" />
		<tag k="historic" v="shieling" />
		<tag k="name" v="Felesætri" />
		<tag k="place" v="locality" />
		<tag k="ssr:stedsnr" v="555772" />
	</node>
	<node id="-144894" lat="60.7606027791" lon="9.44618610975">
		<tag k="alt_name" v="Bøven" />
		<tag k="historic" v="shieling" />
		<tag k="name" v="Bøvi" />
		<tag k="place" v="locality" />
		<tag k="ssr:stedsnr" v="555732" />
	</node>
	<node id="-144892" lat="60.797636113" lon="9.66206666301">
		<tag k="name" v="Joplassen" />
		<tag k="place" v="farm" />
		<tag k="ssr:stedsnr" v="555189" />
	</node>
	<node id="-144888" lat="60.7733000006" lon="9.6244166581">
		<tag k="name" v="Søreng" />
		<tag k="place" v="farm" />
		<tag k="ssr:stedsnr" v="555101" />
	</node>
	<node id="-144887" lat="60.822113888" lon="9.51217499205">
		<tag k="name" v="Nygard" />
		<tag k="place" v="farm" />
		<tag k="ssr:stedsnr" v="554888" />
	</node>
	<node id="-144886" lat="60.8256027806" lon="9.5102222138">
		<tag k="name" v="Klavabråten" />
		<tag k="place" v="farm" />
		<tag k="ssr:stedsnr" v="554887" />
	</node>
	<node id="-144885" lat="60.8140444464" lon="9.55357776903">
		<tag k="alt_name" v="Kind" />
		<tag k="name" v="Kinn" />
		<tag k="place" v="farm" />
		<tag k="ssr:stedsnr" v="554855" />
	</node>
	<node id="-144883" lat="60.8561305544" lon="9.4840388972">
		<tag k="name" v="Song" />
		<tag k="place" v="farm" />
		<tag k="ssr:stedsnr" v="554712" />
	</node>
	<node id="-144881" lat="60.8420722221" lon="9.48973888428">
		<tag k="alt_name" v="Høllabrøtin" />
		<tag k="name" v="Hollabråten" />
		<tag k="place" v="farm" />
		<tag k="ssr:stedsnr" v="554673" />
	</node>
	<node id="-144879" lat="60.7914777178" lon="9.72078117915">
		<tag k="fixme" v="consider place=hamlet" />
		<tag k="name" v="Hafton" />
		<tag k="place" v="farm" />
		<tag k="ssr:stedsnr" v="554157" />
	</node>
	<node id="-144878" lat="60.7844750045" lon="9.62968888145">
		<tag k="name" v="Granum" />
		<tag k="place" v="farm" />
		<tag k="ssr:stedsnr" v="554148" />
	</node>
	<node id="-143613" lat="60.6801583376" lon="9.6361749941">
		<tag k="name" v="Trekkop" />
		<tag k="place" v="isolated_dwelling" />
		<tag k="ssr:stedsnr" v="889315" />
	</node>
	<node id="-144876" lat="60.7780361128" lon="9.63410278492">
		<tag k="fixme" v="multiple name tags, choose one and add the other to alt_name" />
		<tag k="name" v="Langedrag;Smedlund" />
		<tag k="place" v="hamlet" />
		<tag k="ssr:stedsnr" v="554130" />
	</node>
	<node id="-144874" lat="60.705263885" lon="9.71577500805">
		<tag k="alt_name" v="Garthus, midtre;Garthus" />
		<tag k="name" v="Midtre Garthus" />
		<tag k="place" v="farm" />
		<tag k="ssr:stedsnr" v="553985" />
	</node>
	<node id="-144872" lat="60.6298918203" lon="9.68283121389">
		<tag k="fixme" v="consider place=hamlet" />
		<tag k="name" v="Bakke" />
		<tag k="place" v="farm" />
		<tag k="ssr:stedsnr" v="553969" />
	</node>
	<node id="-144869" lat="60.727944441" lon="9.63977778078">
		<tag k="name" v="Åsheimsætri" />
		<tag k="place" v="locality" />
		<tag k="ssr:stedsnr" v="553958" />
	</node>
	<node id="-144868" lat="60.7234444483" lon="9.64686110648">
		<tag k="name" v="Hytteplassen" />
		<tag k="place" v="isolated_dwelling" />
		<tag k="ssr:stedsnr" v="553956" />
	</node>
	<node id="-144865" lat="60.6123138883" lon="9.73803056365">
		<tag k="alt_name" v="Ingridrud" />
		<tag k="name" v="Ingrirud" />
		<tag k="place" v="farm" />
		<tag k="ssr:stedsnr" v="553910" />
	</node>
	<node id="-144862" lat="60.6152999966" lon="9.72981943953">
		<tag k="name" v="Lia" />
		<tag k="place" v="farm" />
		<tag k="ssr:stedsnr" v="553891" />
	</node>
	<node id="-144861" lat="60.6195805571" lon="9.73596667371">
		<tag k="alt_name" v="Sørli, nordre" />
		<tag k="name" v="Sørli" />
		<tag k="place" v="farm" />
		<tag k="ssr:stedsnr" v="553889" />
	</node>
	<node id="-144858" lat="60.5404805598" lon="9.64747777213">
		<tag k="historic" v="shieling" />
		<tag k="name" v="Aurdalsætra" />
		<tag k="place" v="locality" />
		<tag k="ssr:stedsnr" v="553849" />
	</node>
	<node id="-144857" lat="60.5492361118" lon="9.78850000674">
		<tag k="alt_name" v="Storruste" />
		<tag k="name" v="Nordre Storruste" />
		<tag k="place" v="farm" />
		<tag k="ssr:stedsnr" v="553846" />
	</node>
	<node id="-143609" lat="60.6444194483" lon="9.50642500565">
		<tag k="historic" v="shieling" />
		<tag k="name" v="Heggeberg" />
		<tag k="place" v="locality" />
		<tag k="ssr:stedsnr" v="889300" />
	</node>
	<node id="-144849" lat="60.696711107" lon="9.38784722417">
		<tag k="alt_name" v="Gutusæter" />
		<tag k="historic" v="shieling" />
		<tag k="name" v="Gutusætri" />
		<tag k="place" v="locality" />
		<tag k="ssr:stedsnr" v="553736" />
	</node>
	<node id="-144848" lat="60.6584416683" lon="9.97157778423">
		<tag k="name" v="Åmot" />
		<tag k="place" v="farm" />
		<tag k="ssr:stedsnr" v="553659" />
	</node>
	<node id="-144844" lat="60.630344441" lon="9.54454721365">
		<tag k="alt_name" v="Umundsæter" />
		<tag k="historic" v="shieling" />
		<tag k="name" v="Umundsætra" />
		<tag k="place" v="locality" />
		<tag k="ssr:stedsnr" v="553628" />
	</node>
	<node id="-144840" lat="60.7260472198" lon="9.5549611092">
		<tag k="alt_name" v="Smørhølsætere;Smørhølet" />
		<tag k="historic" v="shieling" />
		<tag k="name" v="Smørholet" />
		<tag k="place" v="locality" />
		<tag k="ssr:stedsnr" v="553532" />
	</node>
	<node id="-144835" lat="60.647899999" lon="9.79529444629">
		<tag k="alt_name" v="Veigård" />
		<tag k="name" v="Veigardstrand" />
		<tag k="place" v="farm" />
		<tag k="ssr:stedsnr" v="552975" />
	</node>
	<node id="-144832" lat="60.6497999966" lon="9.77138888343">
		<tag k="alt_name" v="Dokken" />
		<tag k="name" v="Dokka" />
		<tag k="place" v="farm" />
		<tag k="ssr:stedsnr" v="552959" />
	</node>
	<node id="-144830" lat="60.5882027793" lon="9.75434722068">
		<tag k="name" v="Ruste" />
		<tag k="place" v="farm" />
		<tag k="ssr:stedsnr" v="552956" />
	</node>
	<node id="-144828" lat="60.6714972213" lon="9.8877972262">
		<tag k="alt_name" v="Berghamar" />
		<tag k="name" v="Berghammar" />
		<tag k="place" v="isolated_dwelling" />
		<tag k="ssr:stedsnr" v="552951" />
	</node>
	<node id="-144827" lat="60.5886027755" lon="9.84182777665">
		<tag k="name" v="Finnevollhytta" />
		<tag k="place" v="isolated_dwelling" />
		<tag k="ssr:stedsnr" v="552948" />
	</node>
	<node id="-144825" lat="60.686236108" lon="9.95613888667">
		<tag k="name" v="Storøyvasshytta" />
		<tag k="place" v="locality" />
		<tag k="ssr:stedsnr" v="552939" />
	</node>
	<node id="-144824" lat="60.6757222258" lon="9.7321083313">
		<tag k="alt_name" v="Skaret" />
		<tag k="name" v="Skardet" />
		<tag k="place" v="farm" />
		<tag k="ssr:stedsnr" v="552936" />
	</node>
	<node id="-144823" lat="60.5998805581" lon="9.75067778558">
		<tag k="alt_name" v="Nygård" />
		<tag k="name" v="Nygard" />
		<tag k="place" v="farm" />
		<tag k="ssr:stedsnr" v="552928" />
	</node>
	<node id="-144821" lat="60.6122000033" lon="9.72203889209">
		<tag k="alt_name" v="Nerbyengen" />
		<tag k="name" v="Nerbyenga" />
		<tag k="place" v="farm" />
		<tag k="ssr:stedsnr" v="552914" />
	</node>
	<node id="-144820" lat="60.552330558" lon="9.54658888421">
		<tag k="name" v="Fjellhytta" />
		<tag k="place" v="isolated_dwelling" />
		<tag k="ssr:stedsnr" v="552884" />
	</node>
	<node id="-144814" lat="60.6764999987" lon="9.52850276891">
		<tag k="historic" v="shieling" />
		<tag k="name" v="Fetvollen" />
		<tag k="place" v="locality" />
		<tag k="ssr:stedsnr" v="552725" />
	</node>
	<node id="-144809" lat="60.7048722224" lon="9.82321944857">
		<tag k="name" v="Gravvassætra" />
		<tag k="place" v="isolated_dwelling" />
		<tag k="ssr:stedsnr" v="544668" />
	</node>
	<node id="-144801" lat="60.724447224" lon="9.36962221668">
		<tag k="historic" v="shieling" />
		<tag k="name" v="Hølatrøe" />
		<tag k="place" v="locality" />
		<tag k="ssr:stedsnr" v="543910" />
	</node>
	<node id="-143600" lat="60.7187472201" lon="9.70978888504">
		<tag k="name" v="Lynes" />
		<tag k="place" v="isolated_dwelling" />
		<tag k="ssr:stedsnr" v="889228" />
	</node>
	<node id="-144798" lat="60.8323861114" lon="9.52226110719">
		<tag k="name" v="Rosenlund" />
		<tag k="place" v="farm" />
		<tag k="ssr:stedsnr" v="543785" />
	</node>
	<node id="-144794" lat="60.804738891" lon="9.40143333255">
		<tag k="fixme" v="consider tourism=alpine_hut or tourism=chalet" />
		<tag k="name" v="Fjellstølen turisthytte" />
		<tag k="ssr:stedsnr" v="543633" />
		<tag k="tourism" v="wilderness_hut" />
	</node>
	<node id="-144791" lat="60.6029750006" lon="9.7366555539">
		<tag k="name" v="Engelien" />
		<tag k="place" v="farm" />
		<tag k="ssr:stedsnr" v="543456" />
	</node>
	<node id="-143395" lat="60.805486108" lon="9.74381111088">
		<tag k="alt_name" v="Bøle" />
		<tag k="name" v="Bøler" />
		<tag k="place" v="farm" />
		<tag k="ssr:stedsnr" v="313216" />
	</node>
	<node id="-144789" lat="60.5860916678" lon="9.7491027756">
		<tag k="name" v="Hardhaug" />
		<tag k="place" v="farm" />
		<tag k="ssr:stedsnr" v="543447" />
	</node>
	<node id="-144787" lat="60.7074277752" lon="9.51829999651">
		<tag k="name" v="Bergabu" />
		<tag k="place" v="isolated_dwelling" />
		<tag k="ssr:stedsnr" v="543427" />
	</node>
	<node id="-144785" lat="60.8656694479" lon="9.41000554696">
		<tag k="historic" v="shieling" />
		<tag k="name" v="Nystølen" />
		<tag k="place" v="locality" />
		<tag k="ssr:stedsnr" v="543369" />
	</node>
	<node id="-143256" lat="60.7427027806" lon="9.43737777042">
		<tag k="name" v="Blåsopp" />
		<tag k="place" v="isolated_dwelling" />
		<tag k="ssr:stedsnr" v="282988" />
	</node>
	<node id="-143597" lat="60.7018333357" lon="9.72372499125">
		<tag k="name" v="Garnes" />
		<tag k="place" v="farm" />
		<tag k="ssr:stedsnr" v="889203" />
	</node>
	<node id="-144779" lat="60.7566472259" lon="9.68007222057">
		<tag k="name" v="Nordre Fønhus" />
		<tag k="place" v="farm" />
		<tag k="ssr:stedsnr" v="543181" />
	</node>
	<node id="-143255" lat="60.8076946134" lon="9.55406539656">
		<tag k="fixme" v="consider place=hamlet" />
		<tag k="name" v="Øvre Sørflate" />
		<tag k="place" v="farm" />
		<tag k="ssr:stedsnr" v="282978" />
	</node>
	<node id="-144776" lat="60.7890055545" lon="9.58726667398">
		<tag k="name" v="Øvre Bergatn" />
		<tag k="place" v="farm" />
		<tag k="ssr:stedsnr" v="543127" />
	</node>
	<node id="-144775" lat="60.7924277782" lon="9.55420000764">
		<tag k="name" v="Haugli" />
		<tag k="place" v="farm" />
		<tag k="ssr:stedsnr" v="543121" />
	</node>
	<node id="-144771" lat="60.6636583359" lon="10.015202784">
		<tag k="name" v="Damli" />
		<tag k="place" v="isolated_dwelling" />
		<tag k="ssr:stedsnr" v="543066" />
	</node>
	<node id="-144769" lat="60.7430111112" lon="9.39708054748">
		<tag k="name" v="Røde Kors hytta" />
		<tag k="place" v="isolated_dwelling" />
		<tag k="ssr:stedsnr" v="538984" />
	</node>
	<node id="-143394" lat="60.8303782028" lon="9.50949214">
		<tag k="fixme" v="multiple name tags, choose one and add the other to alt_name; consider place=hamlet" />
		<tag k="name" v="Roo;Rødang" />
		<tag k="place" v="farm" />
		<tag k="ssr:stedsnr" v="312836" />
	</node>
	<node id="-145299" lat="60.8017944462" lon="9.55156111989">
		<tag k="name" v="Rundbrøtin" />
		<tag k="place" v="isolated_dwelling" />
		<tag k="ssr:stedsnr" v="706971" />
	</node>
	<node id="-144752" lat="60.5471972209" lon="9.75732500828">
		<tag k="name" v="Kolhus" />
		<tag k="place" v="isolated_dwelling" />
		<tag k="ssr:stedsnr" v="524661" />
	</node>
	<node id="-144745" lat="60.6336194411" lon="9.65842499133">
		<tag k="name" v="Melby" />
		<tag k="place" v="isolated_dwelling" />
		<tag k="ssr:stedsnr" v="524407" />
	</node>
	<node id="-144743" lat="60.675283333" lon="9.54590000576">
		<tag k="name" v="Kristofferhovda" />
		<tag k="place" v="isolated_dwelling" />
		<tag k="ssr:stedsnr" v="524345" />
	</node>
	<node id="-144742" lat="60.6293777785" lon="9.67961389553">
		<tag k="name" v="Bakkom" />
		<tag k="place" v="farm" />
		<tag k="ssr:stedsnr" v="524278" />
	</node>
	<node id="-143257" lat="60.7978861132" lon="9.56875000555">
		<tag k="name" v="Sparkevik" />
		<tag k="place" v="farm" />
		<tag k="ssr:stedsnr" v="282994" />
	</node>
	<node id="-144740" lat="60.629272226" lon="9.68544443677">
		<tag k="name" v="Bergli" />
		<tag k="place" v="isolated_dwelling" />
		<tag k="ssr:stedsnr" v="524275" />
	</node>
	<node id="-144739" lat="60.6576388866" lon="9.44331667238">
		<tag k="historic" v="shieling" />
		<tag k="name" v="Søre Åslisæter" />
		<tag k="place" v="locality" />
		<tag k="ssr:stedsnr" v="524274" />
	</node>
	<node id="-144737" lat="60.6381833335" lon="9.59116388745">
		<tag k="name" v="Solheim" />
		<tag k="place" v="isolated_dwelling" />
		<tag k="ssr:stedsnr" v="524246" />
	</node>
	<node id="-144734" lat="60.794711109" lon="9.52069166763">
		<tag k="name" v="Erstadbråten" />
		<tag k="place" v="isolated_dwelling" />
		<tag k="ssr:stedsnr" v="524188" />
	</node>
	<node id="-144728" lat="60.7968000013" lon="9.5858499988">
		<tag k="name" v="Sørli" />
		<tag k="place" v="farm" />
		<tag k="ssr:stedsnr" v="524084" />
	</node>
	<node id="-144723" lat="60.8223165773" lon="9.53865615229">
		<tag k="fixme" v="consider place=hamlet" />
		<tag k="name" v="Leisterud" />
		<tag k="place" v="farm" />
		<tag k="ssr:stedsnr" v="494865" />
	</node>
	<node id="-144722" lat="60.8347694457" lon="9.49169443804">
		<tag k="alt_name" v="Slette" />
		<tag k="name" v="Sletti" />
		<tag k="place" v="farm" />
		<tag k="ssr:stedsnr" v="494850" />
	</node>
	<node id="-144719" lat="60.7951694431" lon="9.52274721912">
		<tag k="alt_name" v="Gjerdingen" />
		<tag k="name" v="Gjerdingi" />
		<tag k="place" v="farm" />
		<tag k="ssr:stedsnr" v="494822" />
	</node>
	<node id="-144718" lat="60.7986166683" lon="9.55358889188">
		<tag k="alt_name" v="Prestbrøtin" />
		<tag k="name" v="Prestbråten" />
		<tag k="place" v="farm" />
		<tag k="ssr:stedsnr" v="494820" />
	</node>
	<node id="-144717" lat="60.8177035496" lon="9.5438301842">
		<tag k="fixme" v="consider place=hamlet" />
		<tag k="name" v="Torsrud" />
		<tag k="place" v="farm" />
		<tag k="ssr:stedsnr" v="494809" />
	</node>
	<node id="-144716" lat="60.7671722217" lon="9.37695000802">
		<tag k="historic" v="shieling" />
		<tag k="name" v="Liasætri" />
		<tag k="place" v="locality" />
		<tag k="ssr:stedsnr" v="494787" />
	</node>
	<node id="-144715" lat="60.790455558" lon="9.58574445253">
		<tag k="alt_name" v="Nedre Bergatn" />
		<tag k="name" v="Bergan" />
		<tag k="place" v="farm" />
		<tag k="ssr:stedsnr" v="494772" />
	</node>
	<node id="-144714" lat="60.7915388889" lon="9.53504723069">
		<tag k="alt_name" v="Raneisætere" />
		<tag k="name" v="Raneisætri" />
		<tag k="place" v="isolated_dwelling" />
		<tag k="ssr:stedsnr" v="494770" />
	</node>
	<node id="-144713" lat="60.7735138847" lon="9.45683054884">
		<tag k="alt_name" v="Hallkinn" />
		<tag k="historic" v="shieling" />
		<tag k="name" v="Hallkinnsætri" />
		<tag k="place" v="locality" />
		<tag k="ssr:stedsnr" v="494764" />
	</node>
	<node id="-144712" lat="60.7747666706" lon="9.51227499101">
		<tag k="alt_name" v="Krokeslette" />
		<tag k="historic" v="shieling" />
		<tag k="name" v="Krokaslettsætri" />
		<tag k="place" v="locality" />
		<tag k="ssr:stedsnr" v="494762" />
	</node>
	<node id="-144711" lat="60.7623777734" lon="9.5659611032">
		<tag k="historic" v="shieling" />
		<tag k="name" v="Myrvang" />
		<tag k="place" v="locality" />
		<tag k="ssr:stedsnr" v="494742" />
	</node>
	<node id="-143585" lat="60.8158166665" lon="9.58107778416">
		<tag k="name" v="Brøtin" />
		<tag k="place" v="farm" />
		<tag k="ssr:stedsnr" v="403977" />
	</node>
	<node id="-144708" lat="60.8575944463" lon="9.53566665899">
		<tag k="alt_name" v="Grolie" />
		<tag k="name" v="Grolii" />
		<tag k="place" v="locality" />
		<tag k="ssr:stedsnr" v="494627" />
	</node>
	<node id="-144707" lat="60.8424638862" lon="9.50748055846">
		<tag k="alt_name" v="Nordre Rugbrøtin" />
		<tag k="name" v="Rugbråten" />
		<tag k="place" v="isolated_dwelling" />
		<tag k="ssr:stedsnr" v="494604" />
	</node>
	<node id="-144704" lat="60.7625222246" lon="9.66687222133">
		<tag k="alt_name" v="Guldberg" />
		<tag k="name" v="Gullberget" />
		<tag k="place" v="farm" />
		<tag k="ssr:stedsnr" v="494161" />
	</node>
	<node id="-144702" lat="60.7553555522" lon="9.66780278523">
		<tag k="alt_name" v="Tolebråten" />
		<tag k="name" v="Tordebråten" />
		<tag k="place" v="farm" />
		<tag k="ssr:stedsnr" v="494139" />
	</node>
	<node id="-144701" lat="60.7864444437" lon="9.67187221456">
		<tag k="alt_name" v="Liaplassatn" />
		<tag k="name" v="Liabygdi" />
		<tag k="place" v="hamlet" />
		<tag k="ssr:stedsnr" v="494134" />
	</node>
	<node id="-144696" lat="60.6440777801" lon="9.87893333667">
		<tag k="building" v="industrial" />
		<tag k="industrial" v="factory" />
		<tag k="name" v="Begna bruk" />
		<tag k="ssr:stedsnr" v="492978" />
	</node>
	<node id="-144695" lat="60.6341777782" lon="9.62863889451">
		<tag k="name" v="Gjørud" />
		<tag k="place" v="farm" />
		<tag k="ssr:stedsnr" v="492976" />
	</node>
	<node id="-144694" lat="60.6326498714" lon="9.66607957588">
		<tag k="alt_name" v="Sukke, øvre;Sukke" />
		<tag k="name" v="Øvre Sukke" />
		<tag k="place" v="farm" />
		<tag k="ssr:stedsnr" v="492970" />
	</node>
	<node id="-144690" lat="60.6581810099" lon="9.8253136484">
		<tag k="alt_name" v="Haugsrud" />
		<tag k="name" v="Nordre Haugsrud" />
		<tag k="place" v="farm" />
		<tag k="ssr:stedsnr" v="492946" />
	</node>
	<node id="-144687" lat="60.7319805546" lon="9.70922500098">
		<tag k="alt_name" v="Helland" />
		<tag k="name" v="Heland" />
		<tag k="place" v="farm" />
		<tag k="ssr:stedsnr" v="492942" />
	</node>
	<node id="-144682" lat="60.6757083347" lon="9.6128333399">
		<tag k="alt_name" v="Ulevassætrene" />
		<tag k="historic" v="shieling" />
		<tag k="name" v="Urdevassætra" />
		<tag k="place" v="locality" />
		<tag k="ssr:stedsnr" v="492918" />
	</node>
	<node id="-144680" lat="60.6805388872" lon="9.7538472258">
		<tag k="alt_name" v="Grimsrud, nordre" />
		<tag k="name" v="Nordre Grimsrud" />
		<tag k="place" v="farm" />
		<tag k="ssr:stedsnr" v="492908" />
	</node>
	<node id="-144679" lat="60.6784694488" lon="9.71208332607">
		<tag k="fixme" v="multiple name tags, choose one and add the other to alt_name" />
		<tag k="name" v="Evjehytta;Molihytta" />
		<tag k="place" v="isolated_dwelling" />
		<tag k="ssr:stedsnr" v="492907" />
	</node>
	<node id="-144678" lat="60.6075305527" lon="9.83352500454">
		<tag k="alt_name" v="Iversætre" />
		<tag k="name" v="Iversætra" />
		<tag k="place" v="isolated_dwelling" />
		<tag k="ssr:stedsnr" v="492901" />
	</node>
	<node id="-144677" lat="60.6934861142" lon="9.74582499847">
		<tag k="name" v="Bråten" />
		<tag k="place" v="farm" />
		<tag k="ssr:stedsnr" v="492896" />
	</node>
	<node id="-144674" lat="60.7093416689" lon="9.79639166805">
		<tag k="name" v="Storbråtasætra" />
		<tag k="place" v="isolated_dwelling" />
		<tag k="ssr:stedsnr" v="492882" />
	</node>
	<node id="-144670" lat="60.5641166653" lon="9.71610555988">
		<tag k="name" v="Vestromhagen" />
		<tag k="place" v="farm" />
		<tag k="ssr:stedsnr" v="492829" />
	</node>
	<node id="-143391" lat="60.7984666641" lon="9.32673611805">
		<tag k="alt_name" v="Røysang" />
		<tag k="historic" v="shieling" />
		<tag k="name" v="Røysvang" />
		<tag k="place" v="locality" />
		<tag k="ssr:stedsnr" v="312825" />
	</node>
	<node id="-144665" lat="60.5392027768" lon="9.53388332758">
		<tag k="name" v="Bjørke" />
		<tag k="place" v="isolated_dwelling" />
		<tag k="ssr:stedsnr" v="492737" />
	</node>
	<node id="-144664" lat="60.6693194483" lon="9.99978610598">
		<tag k="name" v="Tornekula" />
		<tag k="place" v="isolated_dwelling" />
		<tag k="ssr:stedsnr" v="492713" />
	</node>
	<node id="-144660" lat="60.6811416587" lon="9.56532905628">
		<tag k="alt_name" v="Bjørnsvollen" />
		<tag k="name" v="Bjørnsonvollen" />
		<tag k="place" v="isolated_dwelling" />
		<tag k="ssr:stedsnr" v="492676" />
	</node>
	<node id="-144654" lat="60.6365166671" lon="9.37065278051">
		<tag k="name" v="Tjernsvollen" />
		<tag k="place" v="isolated_dwelling" />
		<tag k="ssr:stedsnr" v="492608" />
	</node>
	<node id="-144653" lat="60.7314833319" lon="9.37601388357">
		<tag k="alt_name" v="Briskevøllen" />
		<tag k="historic" v="shieling" />
		<tag k="name" v="Briskevollen" />
		<tag k="place" v="locality" />
		<tag k="ssr:stedsnr" v="492515" />
	</node>
	<node id="-144645" lat="60.7714944409" lon="9.32864999436">
		<tag k="historic" v="shieling" />
		<tag k="name" v="Bekkivøllen" />
		<tag k="place" v="locality" />
		<tag k="ssr:stedsnr" v="483962" />
	</node>
	<node id="-144644" lat="60.7172666662" lon="9.41069999805">
		<tag k="historic" v="shieling" />
		<tag k="name" v="Gråberget" />
		<tag k="place" v="locality" />
		<tag k="ssr:stedsnr" v="483935" />
	</node>
	<node id="-144641" lat="60.7765833336" lon="9.61994167313">
		<tag k="name" v="Lundebygda" />
		<tag k="place" v="hamlet" />
		<tag k="ssr:stedsnr" v="483910" />
	</node>
	<node id="-143355" lat="60.6505722236" lon="9.74765278143">
		<tag k="alt_name" v="Veimotet" />
		<tag k="name" v="Vegamotet" />
		<tag k="place" v="farm" />
		<tag k="ssr:stedsnr" v="310928" />
	</node>
	<node id="-144636" lat="60.8397472261" lon="9.40086666096">
		<tag k="name" v="Bjørnstad" />
		<tag k="place" v="farm" />
		<tag k="ssr:stedsnr" v="483791" />
	</node>
	<node id="-144630" lat="60.650750004" lon="9.83951943954">
		<tag k="name" v="Plassen" />
		<tag k="place" v="farm" />
		<tag k="ssr:stedsnr" v="483659" />
	</node>
	<node id="-144629" lat="60.6541166696" lon="9.78292778185">
		<tag k="name" v="Roa" />
		<tag k="place" v="isolated_dwelling" />
		<tag k="ssr:stedsnr" v="483657" />
	</node>
	<node id="-144628" lat="60.5624888901" lon="9.72507222966">
		<tag k="name" v="Landsendbrenna" />
		<tag k="place" v="isolated_dwelling" />
		<tag k="ssr:stedsnr" v="483520" />
	</node>
	<node id="-144619" lat="60.6244944416" lon="9.6875722309">
		<tag k="name" v="Solvang" />
		<tag k="place" v="isolated_dwelling" />
		<tag k="ssr:stedsnr" v="483471" />
	</node>
	<node id="-144608" lat="60.7594194403" lon="9.75928611321">
		<tag k="name" v="Øyvasshytta" />
		<tag k="place" v="isolated_dwelling" />
		<tag k="ssr:stedsnr" v="483154" />
	</node>
	<node id="-143568" lat="60.6323194412" lon="9.69082777097">
		<tag k="name" v="Høgloft" />
		<tag k="place" v="farm" />
		<tag k="ssr:stedsnr" v="403284" />
	</node>
	<node id="-145780" lat="60.799427781" lon="9.72062500866">
		<tag k="name" v="Halde" />
		<tag k="place" v="farm" />
		<tag k="ssr:stedsnr" v="859213" />
	</node>
	<node id="-144598" lat="60.7260555526" lon="9.35341666042">
		<tag k="historic" v="shieling" />
		<tag k="name" v="Tronrudsætere" />
		<tag k="place" v="locality" />
		<tag k="ssr:stedsnr" v="482831" />
	</node>
	<node id="-144597" lat="60.7244361092" lon="9.35775000013">
		<tag k="historic" v="shieling" />
		<tag k="name" v="Kollsgårdsætere" />
		<tag k="place" v="locality" />
		<tag k="ssr:stedsnr" v="482830" />
	</node>
	<node id="-144596" lat="60.8371361111" lon="9.50608333753">
		<tag k="name" v="Klauvrud" />
		<tag k="place" v="isolated_dwelling" />
		<tag k="ssr:stedsnr" v="482827" />
	</node>
	<node id="-144592" lat="60.8279833301" lon="9.53663054787">
		<tag k="name" v="Hølvegen" />
		<tag k="place" v="farm" />
		<tag k="ssr:stedsnr" v="482787" />
	</node>
	<node id="-144584" lat="60.5299638889" lon="9.48133333543">
		<tag k="name" v="Damhytta" />
		<tag k="place" v="isolated_dwelling" />
		<tag k="ssr:stedsnr" v="466224" />
	</node>
	<node id="-144579" lat="60.6345944413" lon="9.60963888439">
		<tag k="name" v="Åslie" />
		<tag k="place" v="farm" />
		<tag k="ssr:stedsnr" v="464900" />
	</node>
	<node id="-144576" lat="60.811497219" lon="9.57355000514">
		<tag k="name" v="Vabrøtin" />
		<tag k="place" v="isolated_dwelling" />
		<tag k="ssr:stedsnr" v="464960" />
	</node>
	<node id="-144575" lat="60.8123527816" lon="9.57712222069">
		<tag k="name" v="Larsbrøtin" />
		<tag k="place" v="locality" />
		<tag k="ssr:stedsnr" v="464959" />
	</node>
	<node id="-144574" lat="60.7189083307" lon="9.48337777086">
		<tag k="historic" v="shieling" />
		<tag k="name" v="Timannsvøllen" />
		<tag k="place" v="locality" />
		<tag k="ssr:stedsnr" v="464918" />
	</node>
	<node id="-144573" lat="60.7607166644" lon="9.65770278291">
		<tag k="name" v="Hagen" />
		<tag k="place" v="farm" />
		<tag k="ssr:stedsnr" v="464913" />
	</node>
	<node id="-144568" lat="60.6261250032" lon="9.90356666502">
		<tag k="name" v="Myrheim" />
		<tag k="place" v="locality" />
		<tag k="ssr:stedsnr" v="464515" />
	</node>
	<node id="-144566" lat="60.7396472207" lon="9.78746944043">
		<tag k="name" v="Glimmerhytta" />
		<tag k="place" v="isolated_dwelling" />
		<tag k="ssr:stedsnr" v="464500" />
	</node>
	<node id="-144561" lat="60.6342888916" lon="9.69001666659">
		<tag k="name" v="Bakkehagen" />
		<tag k="place" v="locality" />
		<tag k="ssr:stedsnr" v="464303" />
	</node>
	<node id="-144560" lat="60.6277166635" lon="9.68414165931">
		<tag k="name" v="Nedre Berg" />
		<tag k="place" v="farm" />
		<tag k="ssr:stedsnr" v="464297" />
	</node>
	<node id="-144559" lat="60.6290055567" lon="9.6686805537">
		<tag k="name" v="Dokken" />
		<tag k="place" v="farm" />
		<tag k="ssr:stedsnr" v="464295" />
	</node>
	<node id="-144557" lat="60.643263885" lon="9.69362222366">
		<tag k="name" v="Gunvaldheimen" />
		<tag k="place" v="locality" />
		<tag k="ssr:stedsnr" v="464280" />
	</node>
	<node id="-145774" lat="60.8287361087" lon="9.53032222919">
		<tag k="alt_name" v="Jukam, s" />
		<tag k="name" v="Søre Jukam" />
		<tag k="place" v="farm" />
		<tag k="ssr:stedsnr" v="858860" />
	</node>
	<node id="-143558" lat="60.7819111101" lon="9.4493611135">
		<tag k="historic" v="shieling" />
		<tag k="name" v="Turibrøtasætere" />
		<tag k="place" v="locality" />
		<tag k="ssr:stedsnr" v="403171" />
	</node>
	<node id="-144545" lat="60.8413638906" lon="9.51038611597">
		<tag k="name" v="Søre Rugbrøtin" />
		<tag k="place" v="locality" />
		<tag k="ssr:stedsnr" v="452773" />
	</node>
	<node id="-144543" lat="60.817719444" lon="9.58018333954">
		<tag k="name" v="Lykkja" />
		<tag k="place" v="farm" />
		<tag k="ssr:stedsnr" v="434777" />
	</node>
	<node id="-144542" lat="60.8070305576" lon="9.54541111659">
		<tag k="alt_name" v="Gjuven" />
		<tag k="name" v="Gjuvi" />
		<tag k="place" v="farm" />
		<tag k="ssr:stedsnr" v="434769" />
	</node>
	<node id="-144540" lat="60.7783138883" lon="9.44605278494">
		<tag k="historic" v="shieling" />
		<tag k="name" v="Grovkløv" />
		<tag k="place" v="locality" />
		<tag k="ssr:stedsnr" v="434745" />
	</node>
	<node id="-144539" lat="60.7758250038" lon="9.44786666986">
		<tag k="alt_name" v="Tangehølet" />
		<tag k="historic" v="shieling" />
		<tag k="name" v="Tangeholet" />
		<tag k="place" v="locality" />
		<tag k="ssr:stedsnr" v="434742" />
	</node>
	<node id="-144538" lat="60.7570138899" lon="9.46902222133">
		<tag k="alt_name" v="Vøllesætere" />
		<tag k="historic" v="shieling" />
		<tag k="name" v="Vollsætri" />
		<tag k="place" v="locality" />
		<tag k="ssr:stedsnr" v="434716" />
	</node>
	<node id="-144537" lat="60.8241888875" lon="9.53224722823">
		<tag k="name" v="Smedsrud" />
		<tag k="place" v="farm" />
		<tag k="ssr:stedsnr" v="434839" />
	</node>
	<node id="-144534" lat="60.8026833372" lon="9.62285833183">
		<tag k="alt_name" v="Milevatnet" />
		<tag k="name" v="Myllevatn" />
		<tag k="place" v="farm" />
		<tag k="ssr:stedsnr" v="434221" />
	</node>
	<node id="-143897" lat="60.6351472217" lon="9.84314445145">
		<tag k="alt_name" v="Holoa" />
		<tag k="historic" v="shieling" />
		<tag k="name" v="Hola" />
		<tag k="place" v="locality" />
		<tag k="ssr:stedsnr" v="68996" />
	</node>
	<node id="-144532" lat="60.827163889" lon="9.66691111447">
		<tag k="alt_name" v="Knaldre" />
		<tag k="name" v="Knaldresætri" />
		<tag k="place" v="locality" />
		<tag k="ssr:stedsnr" v="434191" />
	</node>
	<node id="-144531" lat="60.814561108" lon="9.65278333042">
		<tag k="alt_name" v="Liabekksæter" />
		<tag k="historic" v="shieling" />
		<tag k="name" v="Liabekksætri" />
		<tag k="place" v="locality" />
		<tag k="ssr:stedsnr" v="434184" />
	</node>
	<node id="-144529" lat="60.7942833337" lon="9.80861944352">
		<tag k="alt_name" v="Gravsætrene" />
		<tag k="historic" v="shieling" />
		<tag k="name" v="Gravesætrin" />
		<tag k="place" v="locality" />
		<tag k="ssr:stedsnr" v="434125" />
	</node>
	<node id="-144527" lat="60.8257472261" lon="9.49077776936">
		<tag k="alt_name" v="Møllbakkin" />
		<tag k="name" v="Moldbakken" />
		<tag k="place" v="farm" />
		<tag k="ssr:stedsnr" v="433877" />
	</node>
	<node id="-144526" lat="60.833272225" lon="9.52975278301">
		<tag k="alt_name" v="Jukam, midtre;Jukam" />
		<tag k="name" v="Midtre Jukam" />
		<tag k="place" v="farm" />
		<tag k="ssr:stedsnr" v="433852" />
	</node>
	<node id="-143318" lat="60.6349972254" lon="9.52504999414">
		<tag k="historic" v="shieling" />
		<tag k="name" v="Kloveberg" />
		<tag k="place" v="locality" />
		<tag k="ssr:stedsnr" v="310641" />
	</node>
	<node id="-144524" lat="60.8549083336" lon="9.53064167474">
		<tag k="name" v="Moen" />
		<tag k="place" v="isolated_dwelling" />
		<tag k="ssr:stedsnr" v="433638" />
	</node>
	<node id="-144523" lat="60.8368694409" lon="9.42013333371">
		<tag k="alt_name" v="Bøle, nordre" />
		<tag k="name" v="Nordre Bøle" />
		<tag k="place" v="isolated_dwelling" />
		<tag k="ssr:stedsnr" v="433623" />
	</node>
	<node id="-144520" lat="60.7126388908" lon="9.90962776922">
		<tag k="name" v="Gjeddebu" />
		<tag k="place" v="isolated_dwelling" />
		<tag k="ssr:stedsnr" v="432999" />
	</node>
	<node id="-144519" lat="60.7131888934" lon="9.92681666024">
		<tag k="name" v="Bakkekula" />
		<tag k="place" v="isolated_dwelling" />
		<tag k="ssr:stedsnr" v="432998" />
	</node>
	<node id="-144517" lat="60.7137749969" lon="9.59937499135">
		<tag k="alt_name" v="Nysæter" />
		<tag k="historic" v="shieling" />
		<tag k="name" v="Nysætri" />
		<tag k="place" v="locality" />
		<tag k="ssr:stedsnr" v="432984" />
	</node>
	<node id="-144515" lat="60.6370083353" lon="9.66111389746">
		<tag k="name" v="Roa" />
		<tag k="place" v="farm" />
		<tag k="ssr:stedsnr" v="432978" />
	</node>
	<node id="-144514" lat="60.6349000032" lon="9.6078166665">
		<tag k="name" v="Åsli" />
		<tag k="place" v="isolated_dwelling" />
		<tag k="ssr:stedsnr" v="432976" />
	</node>
	<node id="-144512" lat="60.6349982577" lon="9.65695925279">
		<tag k="fixme" v="consider place=hamlet" />
		<tag k="name" v="Flaten" />
		<tag k="place" v="farm" />
		<tag k="ssr:stedsnr" v="432969" />
	</node>
	<node id="-144511" lat="60.6511555518" lon="9.9643000047">
		<tag k="alt_name" v="Hølsætra" />
		<tag k="historic" v="shieling" />
		<tag k="name" v="Holsætra" />
		<tag k="place" v="locality" />
		<tag k="ssr:stedsnr" v="432962" />
	</node>
	<node id="-144510" lat="60.6386094292" lon="9.59734931904">
		<tag k="name" v="Åsli" />
		<tag k="place" v="farm" />
		<tag k="ssr:stedsnr" v="432960" />
	</node>
	<node id="-144509" lat="60.7215416651" lon="9.6904611162">
		<tag k="alt_name" v="Nybrøtin" />
		<tag k="name" v="Nybråten" />
		<tag k="place" v="farm" />
		<tag k="ssr:stedsnr" v="432952" />
	</node>
	<node id="-144508" lat="60.6482944489" lon="9.75931389026">
		<tag k="name" v="Nordhagen" />
		<tag k="place" v="farm" />
		<tag k="ssr:stedsnr" v="432933" />
	</node>
	<node id="-144507" lat="60.594155558" lon="9.66053054951">
		<tag k="alt_name" v="Brennsætrene" />
		<tag k="historic" v="shieling" />
		<tag k="name" v="Brennsætra" />
		<tag k="place" v="locality" />
		<tag k="ssr:stedsnr" v="432927" />
	</node>
	<node id="-144506" lat="60.579066671" lon="9.74964167047">
		<tag k="name" v="Skoglund" />
		<tag k="place" v="farm" />
		<tag k="ssr:stedsnr" v="432923" />
	</node>
	<node id="-143705" lat="60.6268055528" lon="9.86478055008">
		<tag k="name" v="Snertheim" />
		<tag k="place" v="isolated_dwelling" />
		<tag k="ssr:stedsnr" v="7884" />
	</node>
	<node id="-144501" lat="60.6195888894" lon="9.74071943801">
		<tag k="alt_name" v="Klemmetsrud, nordre" />
		<tag k="name" v="Nordre Klemmetsrud" />
		<tag k="place" v="farm" />
		<tag k="ssr:stedsnr" v="432887" />
	</node>
	<node id="-144500" lat="60.6180583373" lon="9.65893888363">
		<tag k="alt_name" v="Grøslia;Torsbråten" />
		<tag k="name" v="Grøvslia" />
		<tag k="place" v="farm" />
		<tag k="ssr:stedsnr" v="432886" />
	</node>
	<node id="-143550" lat="60.7921305528" lon="9.57705555744">
		<tag k="alt_name" v="Øvre Kamben" />
		<tag k="name" v="Kamben" />
		<tag k="place" v="farm" />
		<tag k="ssr:stedsnr" v="373828" />
	</node>
	<node id="-144498" lat="60.5262500035" lon="9.79160555697">
		<tag k="name" v="Braskerud" />
		<tag k="place" v="isolated_dwelling" />
		<tag k="ssr:stedsnr" v="432870" />
	</node>
	<node id="-144496" lat="60.5566084015" lon="9.8037779682">
		<tag k="fixme" v="consider place=hamlet" />
		<tag k="name" v="Goplerud" />
		<tag k="place" v="farm" />
		<tag k="ssr:stedsnr" v="432830" />
	</node>
	<node id="-143845" lat="60.7648611108" lon="9.42735000307">
		<tag k="historic" v="shieling" />
		<tag k="name" v="Koparviksætere" />
		<tag k="place" v="locality" />
		<tag k="ssr:stedsnr" v="58957" />
	</node>
	<node id="-143385" lat="60.8110865343" lon="9.55178886663">
		<tag k="alt_name" v="Nedre Sørflate" />
		<tag k="fixme" v="consider place=hamlet" />
		<tag k="name" v="Sørflati" />
		<tag k="place" v="farm" />
		<tag k="ssr:stedsnr" v="312796" />
	</node>
	<node id="-144486" lat="60.6210638872" lon="9.50980000178">
		<tag k="historic" v="shieling" />
		<tag k="name" v="Bubekksætra" />
		<tag k="place" v="locality" />
		<tag k="ssr:stedsnr" v="432661" />
	</node>
	<node id="-143889" lat="60.6232777767" lon="9.91037777274">
		<tag k="name" v="Høneren" />
		<tag k="place" v="farm" />
		<tag k="ssr:stedsnr" v="68886" />
	</node>
	<node id="-144482" lat="60.6590222239" lon="9.86935555846">
		<tag k="name" v="Trollhytta" />
		<tag k="place" v="locality" />
		<tag k="ssr:stedsnr" v="431958" />
	</node>
	<node id="-143521" lat="60.6803555525" lon="9.88344999472">
		<tag k="name" v="Perskula" />
		<tag k="place" v="isolated_dwelling" />
		<tag k="ssr:stedsnr" v="371918" />
	</node>
	<node id="-143546" lat="60.8005333302" lon="9.67546667496">
		<tag k="fixme" v="consider place=hamlet" />
		<tag k="name" v="Øvregard" />
		<tag k="place" v="farm" />
		<tag k="ssr:stedsnr" v="373238" />
	</node>
	<node id="-144474" lat="60.6137361127" lon="9.94337499631">
		<tag k="fixme" v="multiple name tags, choose one and add the other to alt_name" />
		<tag k="name" v="Enga;Ågjerdsodden" />
		<tag k="place" v="farm" />
		<tag k="ssr:stedsnr" v="431906" />
	</node>
	<node id="-143887" lat="60.6187361093" lon="9.73750278645">
		<tag k="alt_name" v="Sørli, midtre" />
		<tag k="name" v="Sørli" />
		<tag k="place" v="farm" />
		<tag k="ssr:stedsnr" v="68874" />
	</node>
	<node id="-144471" lat="60.6916972208" lon="9.55970277735">
		<tag k="alt_name" v="Reinsjødalen" />
		<tag k="name" v="Reinsjødalsætra" />
		<tag k="place" v="locality" />
		<tag k="ssr:stedsnr" v="431716" />
	</node>
	<node id="-144466" lat="60.6576833364" lon="9.8292888837">
		<tag k="name" v="Søre Haugsrud" />
		<tag k="place" v="farm" />
		<tag k="ssr:stedsnr" v="423672" />
	</node>
	<node id="-144465" lat="60.6561694483" lon="9.83243888737">
		<tag k="name" v="Olerud" />
		<tag k="place" v="isolated_dwelling" />
		<tag k="ssr:stedsnr" v="423671" />
	</node>
	<node id="-144459" lat="60.7319777735" lon="9.37203333049">
		<tag k="historic" v="shieling" />
		<tag k="name" v="Leistrudtrøe" />
		<tag k="place" v="locality" />
		<tag k="ssr:stedsnr" v="422928" />
	</node>
	<node id="-144458" lat="60.6927305574" lon="9.34079444507">
		<tag k="name" v="Ellingbu" />
		<tag k="place" v="locality" />
		<tag k="ssr:stedsnr" v="422855" />
	</node>
	<node id="-144457" lat="60.6927083357" lon="9.32651389147">
		<tag k="name" v="Borghildvern" />
		<tag k="place" v="isolated_dwelling" />
		<tag k="ssr:stedsnr" v="422844" />
	</node>
	<node id="-143381" lat="60.7920166701" lon="9.5213305493">
		<tag k="name" v="Island" />
		<tag k="place" v="isolated_dwelling" />
		<tag k="ssr:stedsnr" v="312759" />
	</node>
	<node id="-144447" lat="60.570366667" lon="9.71501667503">
		<tag k="name" v="Nordre Skimten" />
		<tag k="place" v="farm" />
		<tag k="ssr:stedsnr" v="422476" />
	</node>
	<node id="-144445" lat="60.5835583361" lon="9.74018611261">
		<tag k="name" v="Granholt" />
		<tag k="place" v="isolated_dwelling" />
		<tag k="ssr:stedsnr" v="422464" />
	</node>
	<node id="-144443" lat="60.5998749957" lon="9.74377777723">
		<tag k="name" v="Bautahagen" />
		<tag k="place" v="isolated_dwelling" />
		<tag k="ssr:stedsnr" v="422459" />
	</node>
	<node id="-144441" lat="60.6129638885" lon="9.71619166261">
		<tag k="name" v="Svarvermoen" />
		<tag k="place" v="locality" />
		<tag k="ssr:stedsnr" v="422435" />
	</node>
	<node id="-143540" lat="60.7677749958" lon="9.63919166818">
		<tag k="name" v="Olmhusplassen" />
		<tag k="old_name" v="Ormhusplassen" />
		<tag k="place" v="farm" />
		<tag k="ssr:stedsnr" v="373115" />
	</node>
	<node id="-144437" lat="60.6198444431" lon="9.7170361176">
		<tag k="name" v="Vestby" />
		<tag k="place" v="farm" />
		<tag k="ssr:stedsnr" v="422340" />
	</node>
	<node id="-143656" lat="60.648770364" lon="9.78858641827">
		<tag k="fixme" v="consider place=hamlet" />
		<tag k="name" v="Tollevsrud" />
		<tag k="place" v="farm" />
		<tag k="ssr:stedsnr" v="987193" />
	</node>
	<node id="-144435" lat="60.814169442" lon="9.54732778111">
		<tag k="name" v="Torshaug" />
		<tag k="place" v="isolated_dwelling" />
		<tag k="ssr:stedsnr" v="422231" />
	</node>
	<node id="-144434" lat="60.8096944466" lon="9.53853055771">
		<tag k="name" v="Hegedokke" />
		<tag k="place" v="farm" />
		<tag k="ssr:stedsnr" v="422229" />
	</node>
	<node id="-143538" lat="60.8295542069" lon="9.4836751286">
		<tag k="fixme" v="consider place=hamlet" />
		<tag k="name" v="Bøen" />
		<tag k="place" v="farm" />
		<tag k="ssr:stedsnr" v="372877" />
	</node>
	<node id="-144423" lat="60.80247222" lon="9.57833888582">
		<tag k="name" v="Nyvegen" />
		<tag k="place" v="farm" />
		<tag k="ssr:stedsnr" v="252814" />
	</node>
	<node id="-144422" lat="60.7948249989" lon="9.55844721679">
		<tag k="alt_name" v="Skørre" />
		<tag k="name" v="Skørri" />
		<tag k="place" v="farm" />
		<tag k="ssr:stedsnr" v="252808" />
	</node>
	<node id="-144421" lat="60.7824194229" lon="9.58008425957">
		<tag k="alt_name" v="Dølvi" />
		<tag k="fixme" v="consider place=hamlet" />
		<tag k="name" v="Dølve" />
		<tag k="place" v="farm" />
		<tag k="ssr:stedsnr" v="252768" />
	</node>
	<node id="-144420" lat="60.7631277781" lon="9.41999999179">
		<tag k="alt_name" v="Brattrudsætrene" />
		<tag k="historic" v="shieling" />
		<tag k="name" v="Brattrudsætrin" />
		<tag k="place" v="locality" />
		<tag k="ssr:stedsnr" v="252735" />
	</node>
	<node id="-144418" lat="60.801005552" lon="9.72575832901">
		<tag k="alt_name" v="Braka, nedre" />
		<tag k="name" v="Nedre Braka" />
		<tag k="place" v="farm" />
		<tag k="ssr:stedsnr" v="252205" />
	</node>
	<node id="-144417" lat="60.7971972242" lon="9.73771665778">
		<tag k="name" v="Brenn" />
		<tag k="place" v="isolated_dwelling" />
		<tag k="ssr:stedsnr" v="252204" />
	</node>
	<node id="-144415" lat="60.8192833369" lon="9.5947277707">
		<tag k="name" v="Breidablikk" />
		<tag k="place" v="farm" />
		<tag k="ssr:stedsnr" v="252152" />
	</node>
	<node id="-144413" lat="60.7709333345" lon="9.6312694446">
		<tag k="alt_name" v="Sveriplassen" />
		<tag k="name" v="Sverreplassen" />
		<tag k="place" v="farm" />
		<tag k="ssr:stedsnr" v="252105" />
	</node>
	<node id="-144412" lat="60.7717777807" lon="9.66394444609">
		<tag k="alt_name" v="Tommasbrøtin" />
		<tag k="name" v="Tomasbråten" />
		<tag k="place" v="isolated_dwelling" />
		<tag k="ssr:stedsnr" v="252104" />
	</node>
	<node id="-144411" lat="60.8350277789" lon="9.46991111898">
		<tag k="alt_name" v="Hellinge" />
		<tag k="name" v="Hellingi" />
		<tag k="place" v="farm" />
		<tag k="ssr:stedsnr" v="251892" />
	</node>
	<node id="-144410" lat="60.832047224" lon="9.56244722189">
		<tag k="name" v="Dalen" />
		<tag k="place" v="isolated_dwelling" />
		<tag k="ssr:stedsnr" v="251886" />
	</node>
	<node id="-144408" lat="60.818452775" lon="9.51352500469">
		<tag k="name" v="Raneilii" />
		<tag k="place" v="isolated_dwelling" />
		<tag k="ssr:stedsnr" v="251864" />
	</node>
	<node id="-143876" lat="60.7060527766" lon="9.46520000725">
		<tag k="name" v="Lundehaugen" />
		<tag k="place" v="isolated_dwelling" />
		<tag k="ssr:stedsnr" v="68555" />
	</node>
	<node id="-144406" lat="60.8153611086" lon="9.55937221381">
		<tag k="alt_name" v="Erstad" />
		<tag k="name" v="Øvre Erstad" />
		<tag k="place" v="farm" />
		<tag k="ssr:stedsnr" v="251858" />
	</node>
	<node id="-144405" lat="60.8110575494" lon="9.56544974121">
		<tag k="alt_name" v="Hestehagen" />
		<tag k="fixme" v="consider place=hamlet" />
		<tag k="name" v="Haga" />
		<tag k="place" v="farm" />
		<tag k="ssr:stedsnr" v="251857" />
	</node>
	<node id="-144404" lat="60.8696027822" lon="9.46276111842">
		<tag k="alt_name" v="Dokke" />
		<tag k="name" v="Dokki" />
		<tag k="place" v="farm" />
		<tag k="ssr:stedsnr" v="251714" />
	</node>
	<node id="-144402" lat="60.7779250037" lon="9.59741945107">
		<tag k="alt_name" v="Brenn, s;Brenn;Søre Brenne" />
		<tag k="name" v="Søre Brenn" />
		<tag k="place" v="farm" />
		<tag k="ssr:stedsnr" v="251143" />
	</node>
	<node id="-144401" lat="60.7740583305" lon="9.62820833039">
		<tag k="alt_name" v="Øylund" />
		<tag k="name" v="Øyland" />
		<tag k="place" v="farm" />
		<tag k="ssr:stedsnr" v="251140" />
	</node>
	<node id="-144400" lat="60.7106000015" lon="9.63081665849">
		<tag k="alt_name" v="Branesætere" />
		<tag k="name" v="Branessætra" />
		<tag k="place" v="isolated_dwelling" />
		<tag k="ssr:stedsnr" v="250999" />
	</node>
	<node id="-144398" lat="60.6262250034" lon="9.72770834225">
		<tag k="name" v="Gran" />
		<tag k="place" v="farm" />
		<tag k="ssr:stedsnr" v="250979" />
	</node>
	<node id="-144395" lat="60.6204638902" lon="9.90589999788">
		<tag k="name" v="Skogheim" />
		<tag k="place" v="farm" />
		<tag k="ssr:stedsnr" v="250883" />
	</node>
	<node id="-144392" lat="60.5672888905" lon="9.74175555623">
		<tag k="name" v="Haugen" />
		<tag k="place" v="farm" />
		<tag k="ssr:stedsnr" v="250815" />
	</node>
	<node id="-143532" lat="60.8540249972" lon="9.51889999197">
		<tag k="alt_name" v="Myre" />
		<tag k="name" v="Myri" />
		<tag k="place" v="farm" />
		<tag k="ssr:stedsnr" v="372671" />
	</node>
	<node id="-144386" lat="60.744775003" lon="9.63751943907">
		<tag k="alt_name" v="Vesle sætere" />
		<tag k="historic" v="shieling" />
		<tag k="name" v="Veslesætri" />
		<tag k="place" v="locality" />
		<tag k="ssr:stedsnr" v="250783" />
	</node>
	<node id="-144383" lat="60.704824996" lon="9.53937499099">
		<tag k="historic" v="shieling" />
		<tag k="name" v="Gamlesætri" />
		<tag k="place" v="locality" />
		<tag k="ssr:stedsnr" v="250531" />
	</node>
	<node id="-143927" lat="60.6443250038" lon="9.71726111875">
		<tag k="name" v="Augensrud" />
		<tag k="place" v="locality" />
		<tag k="ssr:stedsnr" v="100261" />
	</node>
	<node id="-144380" lat="60.6521083328" lon="9.93331111701">
		<tag k="historic" v="shieling" />
		<tag k="name" v="Skyttland" />
		<tag k="place" v="locality" />
		<tag k="ssr:stedsnr" v="249972" />
	</node>
	<node id="-144377" lat="60.6449000007" lon="9.68470555796">
		<tag k="name" v="Solli" />
		<tag k="place" v="farm" />
		<tag k="ssr:stedsnr" v="249964" />
	</node>
	<node id="-144369" lat="60.581883329" lon="9.71272499263">
		<tag k="name" v="Kulterud" />
		<tag k="place" v="farm" />
		<tag k="ssr:stedsnr" v="249923" />
	</node>
	<node id="-144368" lat="60.5899499957" lon="9.75873333998">
		<tag k="alt_name" v="Teigrud" />
		<tag k="name" v="Teigerud" />
		<tag k="place" v="farm" />
		<tag k="ssr:stedsnr" v="249919" />
	</node>
	<node id="-144367" lat="60.6079805599" lon="9.86967499738">
		<tag k="fixme" v="multiple name tags, choose one and add the other to alt_name" />
		<tag k="name" v="Jonsonkula;Solabu" />
		<tag k="place" v="isolated_dwelling" />
		<tag k="ssr:stedsnr" v="249912" />
	</node>
	<node id="-144364" lat="60.5950222204" lon="9.75261388971">
		<tag k="name" v="Nordhagen" />
		<tag k="place" v="farm" />
		<tag k="ssr:stedsnr" v="249905" />
	</node>
	<node id="-144362" lat="60.6874450076" lon="9.74847540696">
		<tag k="fixme" v="consider place=hamlet" />
		<tag k="name" v="Steinsrud" />
		<tag k="place" v="farm" />
		<tag k="ssr:stedsnr" v="249888" />
	</node>
	<node id="-144361" lat="60.6051694417" lon="9.625580556">
		<tag k="historic" v="shieling" />
		<tag k="name" v="Fledda" />
		<tag k="place" v="locality" />
		<tag k="ssr:stedsnr" v="249885" />
	</node>
	<node id="-144359" lat="60.6890083347" lon="9.83063611333">
		<tag k="alt_name" v="Kapteinshytta" />
		<tag k="name" v="Kapteinskula" />
		<tag k="place" v="isolated_dwelling" />
		<tag k="ssr:stedsnr" v="249882" />
	</node>
	<node id="-144349" lat="60.7731666677" lon="9.33174443986">
		<tag k="historic" v="shieling" />
		<tag k="name" v="Nordre Bjødalen" />
		<tag k="place" v="locality" />
		<tag k="ssr:stedsnr" v="240964" />
	</node>
	<node id="-143653" lat="60.5967828041" lon="9.7423452896">
		<tag k="fixme" v="consider place=hamlet" />
		<tag k="name" v="Brakar" />
		<tag k="place" v="farm" />
		<tag k="ssr:stedsnr" v="987186" />
	</node>
	<node id="-144332" lat="60.6876611119" lon="9.86766666553">
		<tag k="name" v="Fredens hjem" />
		<tag k="place" v="isolated_dwelling" />
		<tag k="ssr:stedsnr" v="240679" />
	</node>
	<node id="-143857" lat="60.5859833363" lon="9.74191944746">
		<tag k="alt_name" v="Hallom" />
		<tag k="name" v="Hallum" />
		<tag k="place" v="farm" />
		<tag k="ssr:stedsnr" v="67942" />
	</node>
	<node id="-144325" lat="60.6132583359" lon="9.73771111839">
		<tag k="name" v="Grant" />
		<tag k="place" v="isolated_dwelling" />
		<tag k="ssr:stedsnr" v="240542" />
	</node>
	<node id="-145227" lat="60.7278186426" lon="9.71579620404">
		<tag k="fixme" v="consider place=hamlet" />
		<tag k="name" v="Eid" />
		<tag k="place" v="farm" />
		<tag k="ssr:stedsnr" v="674948" />
	</node>
	<node id="-144320" lat="60.6192611119" lon="9.70624165914">
		<tag k="name" v="Skogstad" />
		<tag k="place" v="isolated_dwelling" />
		<tag k="ssr:stedsnr" v="240471" />
	</node>
	<node id="-144319" lat="60.6200305534" lon="9.71067500624">
		<tag k="name" v="Haugtun" />
		<tag k="place" v="farm" />
		<tag k="ssr:stedsnr" v="240465" />
	</node>
	<node id="-144317" lat="60.558038893" lon="9.4875833286">
		<tag k="name" v="Leina" />
		<tag k="place" v="isolated_dwelling" />
		<tag k="ssr:stedsnr" v="240401" />
	</node>
	<node id="-145766" lat="60.7030870712" lon="9.71822360835">
		<tag k="alt_name" v="Garthus, s" />
		<tag k="fixme" v="consider place=hamlet" />
		<tag k="name" v="Søre Garthus" />
		<tag k="place" v="farm" />
		<tag k="ssr:stedsnr" v="857989" />
	</node>
	<node id="-144311" lat="60.7622694465" lon="9.66222221497">
		<tag k="name" v="Åmot" />
		<tag k="place" v="isolated_dwelling" />
		<tag k="ssr:stedsnr" v="240185" />
	</node>
	<node id="-144306" lat="60.7915694465" lon="9.5555333253">
		<tag k="name" v="Plassåsen" />
		<tag k="place" v="locality" />
		<tag k="ssr:stedsnr" v="240107" />
	</node>
	<node id="-144304" lat="60.8168555543" lon="9.54459444167">
		<tag k="name" v="Torsrudgrenda" />
		<tag k="place" v="hamlet" />
		<tag k="ssr:stedsnr" v="240247" />
	</node>
	<node id="-143386" lat="60.8109027815" lon="9.52925833891">
		<tag k="alt_name" v="Brattbakken" />
		<tag k="name" v="Bakken" />
		<tag k="place" v="farm" />
		<tag k="ssr:stedsnr" v="312800" />
	</node>
	<node id="-144297" lat="60.6676694405" lon="9.91780277984">
		<tag k="name" v="Reisenbein" />
		<tag k="place" v="isolated_dwelling" />
		<tag k="ssr:stedsnr" v="240005" />
	</node>
	<node id="-144296" lat="60.6357527762" lon="9.65778332933">
		<tag k="name" v="Søre Flaten" />
		<tag k="place" v="farm" />
		<tag k="ssr:stedsnr" v="232828" />
	</node>
	<node id="-144295" lat="60.6267194433" lon="9.67616666175">
		<tag k="name" v="Midtgrøv" />
		<tag k="place" v="farm" />
		<tag k="ssr:stedsnr" v="231691" />
	</node>
	<node id="-144294" lat="60.8367083294" lon="9.60089166059">
		<tag k="name" v="Myre" />
		<tag k="place" v="isolated_dwelling" />
		<tag k="ssr:stedsnr" v="221999" />
	</node>
	<node id="-144293" lat="60.7394583332" lon="9.43228610237">
		<tag k="name" v="Myrstølen" />
		<tag k="place" v="isolated_dwelling" />
		<tag k="ssr:stedsnr" v="221990" />
	</node>
	<node id="-144291" lat="60.7344722209" lon="9.43031110384">
		<tag k="historic" v="shieling" />
		<tag k="name" v="Eivindslette" />
		<tag k="place" v="locality" />
		<tag k="ssr:stedsnr" v="221987" />
	</node>
	<node id="-144289" lat="60.803830553" lon="9.55475832766">
		<tag k="name" v="Sand" />
		<tag k="place" v="farm" />
		<tag k="ssr:stedsnr" v="221949" />
	</node>
	<node id="-144285" lat="60.8300898907" lon="9.49804666307">
		<tag k="alt_name" v="Kolsgard;Kollsgard" />
		<tag k="fixme" v="consider place=hamlet" />
		<tag k="name" v="Framgard" />
		<tag k="place" v="farm" />
		<tag k="ssr:stedsnr" v="221816" />
	</node>
	<node id="-144282" lat="60.54750278" lon="9.79401944426">
		<tag k="name" v="Rustad" />
		<tag k="place" v="isolated_dwelling" />
		<tag k="ssr:stedsnr" v="221728" />
	</node>
	<node id="-143378" lat="60.8391833303" lon="9.39831110667">
		<tag k="name" v="Nordstad" />
		<tag k="old_name" v="Nerstad;Søndre Stavedalen" />
		<tag k="place" v="farm" />
		<tag k="ssr:stedsnr" v="312613" />
	</node>
	<node id="-144278" lat="60.5660722266" lon="9.74120832772">
		<tag k="name" v="Haugland" />
		<tag k="place" v="isolated_dwelling" />
		<tag k="ssr:stedsnr" v="221657" />
	</node>
	<node id="-144277" lat="60.5467305533" lon="9.78112222446">
		<tag k="name" v="Elvely" />
		<tag k="place" v="farm" />
		<tag k="ssr:stedsnr" v="221641" />
	</node>
	<node id="-143854" lat="60.6570305599" lon="9.71675000825">
		<tag k="name" v="Leggahytta" />
		<tag k="place" v="isolated_dwelling" />
		<tag k="ssr:stedsnr" v="67928" />
	</node>
	<node id="-144274" lat="60.6894916667" lon="9.65151110759">
		<tag k="name" v="Tuttanrud" />
		<tag k="place" v="locality" />
		<tag k="ssr:stedsnr" v="221299" />
	</node>
	<node id="-144273" lat="60.6629083361" lon="9.58766389716">
		<tag k="historic" v="shieling" />
		<tag k="name" v="Skålevassætrene" />
		<tag k="place" v="locality" />
		<tag k="ssr:stedsnr" v="221296" />
	</node>
	<node id="-144272" lat="60.6440611114" lon="9.49326943668">
		<tag k="historic" v="shieling" />
		<tag k="name" v="Djupedalssæter" />
		<tag k="place" v="locality" />
		<tag k="ssr:stedsnr" v="221261" />
	</node>
	<node id="-144269" lat="60.6412055515" lon="9.64625833398">
		<tag k="name" v="Nordre Nordby" />
		<tag k="place" v="farm" />
		<tag k="ssr:stedsnr" v="221250" />
	</node>
	<node id="-144265" lat="60.6365666679" lon="9.51138055474">
		<tag k="historic" v="shieling" />
		<tag k="name" v="Midtre Lissætra" />
		<tag k="place" v="locality" />
		<tag k="ssr:stedsnr" v="221230" />
	</node>
	<node id="-144264" lat="60.715052778" lon="9.71157221517">
		<tag k="name" v="Sandvoll" />
		<tag k="place" v="isolated_dwelling" />
		<tag k="ssr:stedsnr" v="221186" />
	</node>
	<node id="-144263" lat="60.7288111127" lon="9.67969166763">
		<tag k="name" v="Hovde" />
		<tag k="place" v="locality" />
		<tag k="ssr:stedsnr" v="221179" />
	</node>
	<node id="-144261" lat="60.7105833371" lon="9.71535833928">
		<tag k="name" v="Furuheim" />
		<tag k="place" v="isolated_dwelling" />
		<tag k="ssr:stedsnr" v="221171" />
	</node>
	<node id="-144260" lat="60.7828083305" lon="9.45284165828">
		<tag k="historic" v="shieling" />
		<tag k="name" v="Store Ølnessætere" />
		<tag k="place" v="locality" />
		<tag k="ssr:stedsnr" v="221163" />
	</node>
	<node id="-144258" lat="60.7987250003" lon="9.58427777369">
		<tag k="alt_name" v="Lindelie" />
		<tag k="name" v="Lindelii" />
		<tag k="place" v="isolated_dwelling" />
		<tag k="ssr:stedsnr" v="191799" />
	</node>
	<node id="-144257" lat="60.7958583323" lon="9.57828055745">
		<tag k="alt_name" v="Nørdre Dølvesætere" />
		<tag k="name" v="Dølvesætrin" />
		<tag k="place" v="farm" />
		<tag k="ssr:stedsnr" v="191797" />
	</node>
	<node id="-144255" lat="60.8145158614" lon="9.53569490832">
		<tag k="fixme" v="consider place=hamlet" />
		<tag k="name" v="Brattrud" />
		<tag k="place" v="farm" />
		<tag k="ssr:stedsnr" v="191786" />
	</node>
	<node id="-144253" lat="60.7672333328" lon="9.36068888837">
		<tag k="historic" v="shieling" />
		<tag k="name" v="Kinnsætri" />
		<tag k="place" v="locality" />
		<tag k="ssr:stedsnr" v="191767" />
	</node>
	<node id="-144252" lat="60.7885111135" lon="9.49875556044">
		<tag k="alt_name" v="Skrubblia" />
		<tag k="name" v="Skrubbelii" />
		<tag k="place" v="isolated_dwelling" />
		<tag k="ssr:stedsnr" v="191752" />
	</node>
	<node id="-143850" lat="60.601158335" lon="9.75109722318">
		<tag k="name" v="Skogbråten" />
		<tag k="place" v="farm" />
		<tag k="ssr:stedsnr" v="67911" />
	</node>
	<node id="-144249" lat="60.8151521541" lon="9.7570367225">
		<tag k="alt_name" v="Skjærstein" />
		<tag k="fixme" v="consider place=hamlet" />
		<tag k="name" v="Skjerstein" />
		<tag k="place" v="farm" />
		<tag k="ssr:stedsnr" v="191205" />
	</node>
	<node id="-144247" lat="60.7572454935" lon="9.68170927648">
		<tag k="fixme" v="consider place=hamlet" />
		<tag k="name" v="Fønnhus" />
		<tag k="place" v="farm" />
		<tag k="ssr:stedsnr" v="191150" />
	</node>
	<node id="-144244" lat="60.7891194475" lon="9.67896112032">
		<tag k="name" v="Skogheim" />
		<tag k="place" v="farm" />
		<tag k="ssr:stedsnr" v="191119" />
	</node>
	<node id="-144242" lat="60.8308527785" lon="9.47136667299">
		<tag k="name" v="Brøtatn" />
		<tag k="place" v="farm" />
		<tag k="ssr:stedsnr" v="190875" />
	</node>
	<node id="-144241" lat="60.8659805576" lon="9.45388610631">
		<tag k="alt_name" v="Liagrende" />
		<tag k="name" v="Liagrendi" />
		<tag k="place" v="hamlet" />
		<tag k="ssr:stedsnr" v="190700" />
	</node>
	<node id="-144238" lat="60.8407722266" lon="9.52426945107">
		<tag k="name" v="Henga" />
		<tag k="place" v="locality" />
		<tag k="ssr:stedsnr" v="190632" />
	</node>
	<node id="-143513" lat="60.5254805526" lon="9.80511667002">
		<tag k="name" v="Slåttehytta" />
		<tag k="place" v="isolated_dwelling" />
		<tag k="ssr:stedsnr" v="371861" />
	</node>
	<node id="-144236" lat="60.6338722254" lon="9.90208888448">
		<tag k="name" v="Seigen" />
		<tag k="place" v="farm" />
		<tag k="ssr:stedsnr" v="189993" />
	</node>
	<node id="-144235" lat="60.6271638845" lon="9.66252500491">
		<tag k="alt_name" v="Grov, vestre;Vestgrøv" />
		<tag k="name" v="Vestre Grov" />
		<tag k="place" v="farm" />
		<tag k="ssr:stedsnr" v="189985" />
	</node>
	<node id="-144234" lat="60.7059611134" lon="9.62255554665">
		<tag k="name" v="Lomeldra" />
		<tag k="place" v="isolated_dwelling" />
		<tag k="ssr:stedsnr" v="189982" />
	</node>
	<node id="-144232" lat="60.6307666696" lon="9.66412222086">
		<tag k="alt_name" v="Sukke, nordre" />
		<tag k="name" v="Nedre Sukke" />
		<tag k="place" v="farm" />
		<tag k="ssr:stedsnr" v="189971" />
	</node>
	<node id="-144230" lat="60.6281186324" lon="9.68819561329">
		<tag k="fixme" v="consider place=hamlet" />
		<tag k="name" v="Berg" />
		<tag k="place" v="farm" />
		<tag k="ssr:stedsnr" v="189965" />
	</node>
	<node id="-144229" lat="60.6348666638" lon="9.69094443955">
		<tag k="alt_name" v="Østal" />
		<tag k="name" v="Østdal" />
		<tag k="place" v="farm" />
		<tag k="ssr:stedsnr" v="189962" />
	</node>
	<node id="-144228" lat="60.6498944436" lon="9.80561111258">
		<tag k="name" v="Enga" />
		<tag k="place" v="farm" />
		<tag k="ssr:stedsnr" v="189961" />
	</node>
	<node id="-143504" lat="60.6840888894" lon="9.99657499864">
		<tag k="name" v="Nysætra" />
		<tag k="place" v="isolated_dwelling" />
		<tag k="ssr:stedsnr" v="371697" />
	</node>
	<node id="-144221" lat="60.6187111137" lon="9.91248332758">
		<tag k="name" v="Modalen" />
		<tag k="place" v="farm" />
		<tag k="ssr:stedsnr" v="189897" />
	</node>
	<node id="-144220" lat="60.6920583342" lon="9.90245555131">
		<tag k="name" v="Fanteplaga" />
		<tag k="place" v="isolated_dwelling" />
		<tag k="ssr:stedsnr" v="189891" />
	</node>
	<node id="-145739" lat="60.7348777769" lon="9.61143332864">
		<tag k="alt_name" v="Bakken" />
		<tag k="name" v="Bakkesætri" />
		<tag k="place" v="isolated_dwelling" />
		<tag k="ssr:stedsnr" v="856967" />
	</node>
	<node id="-144215" lat="60.619194443" lon="9.72421111419">
		<tag k="alt_name" v="Digenes" />
		<tag k="name" v="Digene" />
		<tag k="place" v="farm" />
		<tag k="ssr:stedsnr" v="189879" />
	</node>
	<node id="-144211" lat="60.5479638896" lon="9.45660000319">
		<tag k="name" v="Amundheimen" />
		<tag k="place" v="isolated_dwelling" />
		<tag k="ssr:stedsnr" v="189861" />
	</node>
	<node id="-144209" lat="60.5538972216" lon="9.47262221481">
		<tag k="name" v="Fjellsætra" />
		<tag k="place" v="locality" />
		<tag k="ssr:stedsnr" v="189838" />
	</node>
	<node id="-144205" lat="60.5596972234" lon="9.75403055694">
		<tag k="alt_name" v="Fossholt, øvre;Fossholt" />
		<tag k="name" v="Øvre Fossholt" />
		<tag k="place" v="farm" />
		<tag k="ssr:stedsnr" v="189809" />
	</node>
	<node id="-144204" lat="60.5753000014" lon="9.80061388395">
		<tag k="alt_name" v="Fintoppen" />
		<tag k="name" v="Finntopphytta" />
		<tag k="place" v="isolated_dwelling" />
		<tag k="ssr:stedsnr" v="189795" />
	</node>
	<node id="-144201" lat="60.6679972259" lon="9.49904721613">
		<tag k="historic" v="shieling" />
		<tag k="name" v="Vierlia" />
		<tag k="place" v="locality" />
		<tag k="ssr:stedsnr" v="189721" />
	</node>
	<node id="-144200" lat="60.6746972221" lon="9.52030834197">
		<tag k="historic" v="shieling" />
		<tag k="name" v="Gamlevollen" />
		<tag k="place" v="locality" />
		<tag k="ssr:stedsnr" v="189712" />
	</node>
	<node id="-144199" lat="60.6718305511" lon="9.5278249988">
		<tag k="name" v="Veslesætra" />
		<tag k="place" v="locality" />
		<tag k="ssr:stedsnr" v="189711" />
	</node>
	<node id="-144197" lat="60.6953805593" lon="9.40617776929">
		<tag k="alt_name" v="Øylundrødningen" />
		<tag k="historic" v="shieling" />
		<tag k="name" v="Rydningen" />
		<tag k="place" v="locality" />
		<tag k="ssr:stedsnr" v="189665" />
	</node>
	<node id="-144193" lat="60.6432388905" lon="9.5193916741">
		<tag k="alt_name" v="Tufsa" />
		<tag k="historic" v="shieling" />
		<tag k="name" v="Tyfsa" />
		<tag k="place" v="locality" />
		<tag k="ssr:stedsnr" v="189604" />
	</node>
	<node id="-143840" lat="60.7268333301" lon="9.35736389362">
		<tag k="alt_name" v="Høvreslii" />
		<tag k="historic" v="shieling" />
		<tag k="name" v="Høvreslie" />
		<tag k="place" v="locality" />
		<tag k="ssr:stedsnr" v="58852" />
	</node>
	<node id="-143375" lat="60.7696003409" lon="9.65200057303">
		<tag k="fixme" v="consider place=hamlet" />
		<tag k="name" v="Olmhus" />
		<tag k="place" v="farm" />
		<tag k="ssr:stedsnr" v="312113" />
	</node>
	<node id="-143498" lat="60.7278095209" lon="9.47875597386">
		<tag k="alt_name" v="Bukfyll, store;Store Bukfyllsætrene;Bukfyll" />
		<tag k="historic" v="shieling" />
		<tag k="name" v="Store Bukfyll" />
		<tag k="place" v="locality" />
		<tag k="ssr:stedsnr" v="371516" />
	</node>
	<node id="-144182" lat="60.61141111" lon="9.79001388632">
		<tag k="alt_name" v="Gamlesætre" />
		<tag k="historic" v="shieling" />
		<tag k="name" v="Gamlesæter" />
		<tag k="place" v="locality" />
		<tag k="ssr:stedsnr" v="188905" />
	</node>
	<node id="-143497" lat="60.6623055587" lon="9.7603944502">
		<tag k="historic" v="shieling" />
		<tag k="name" v="Ospelia" />
		<tag k="place" v="locality" />
		<tag k="ssr:stedsnr" v="370961" />
	</node>
	<node id="-144180" lat="60.5096583292" lon="9.79630555549">
		<tag k="alt_name" v="Mansætrene" />
		<tag k="historic" v="shieling" />
		<tag k="name" v="Mansætra" />
		<tag k="place" v="locality" />
		<tag k="ssr:stedsnr" v="188779" />
	</node>
	<node id="-144178" lat="60.6569527815" lon="9.81533888262">
		<tag k="name" v="Stokkedalen" />
		<tag k="place" v="farm" />
		<tag k="ssr:stedsnr" v="180662" />
	</node>
	<node id="-144175" lat="60.7698111096" lon="9.76023888777">
		<tag k="name" v="Grauthytta" />
		<tag k="place" v="isolated_dwelling" />
		<tag k="ssr:stedsnr" v="180158" />
	</node>
	<node id="-144173" lat="60.6209722219" lon="9.69523333849">
		<tag k="name" v="Nedre Jørandby" />
		<tag k="place" v="farm" />
		<tag k="ssr:stedsnr" v="179991" />
	</node>
	<node id="-144169" lat="60.729586113" lon="9.37734999298">
		<tag k="historic" v="shieling" />
		<tag k="name" v="Listrøe" />
		<tag k="place" v="locality" />
		<tag k="ssr:stedsnr" v="179932" />
	</node>
	<node id="-143494" lat="60.6560749996" lon="9.61641389226">
		<tag k="alt_name" v="Elsebakken" />
		<tag k="historic" v="shieling" />
		<tag k="name" v="Elsebakksætra" />
		<tag k="place" v="locality" />
		<tag k="ssr:stedsnr" v="370953" />
	</node>
	<node id="-144160" lat="60.8075222258" lon="9.39042499565">
		<tag k="name" v="Husetrøe" />
		<tag k="place" v="isolated_dwelling" />
		<tag k="ssr:stedsnr" v="179637" />
	</node>
	<node id="-144158" lat="60.6112083373" lon="9.73246111372">
		<tag k="name" v="Hansrud" />
		<tag k="place" v="farm" />
		<tag k="ssr:stedsnr" v="179507" />
	</node>
	<node id="-144156" lat="60.5835833343" lon="9.71325555546">
		<tag k="name" v="Nore" />
		<tag k="place" v="farm" />
		<tag k="ssr:stedsnr" v="179476" />
	</node>
	<node id="-144153" lat="60.6199388924" lon="9.71279443841">
		<tag k="name" v="Bertelrud" />
		<tag k="place" v="farm" />
		<tag k="ssr:stedsnr" v="179426" />
	</node>
	<node id="-144152" lat="60.6251472251" lon="9.68601666235">
		<tag k="name" v="Lundberg" />
		<tag k="place" v="farm" />
		<tag k="ssr:stedsnr" v="179420" />
	</node>
	<node id="-144149" lat="60.6202361124" lon="9.71992777134">
		<tag k="name" v="Solhaug" />
		<tag k="place" v="isolated_dwelling" />
		<tag k="ssr:stedsnr" v="179346" />
	</node>
	<node id="-143832" lat="60.6475083329" lon="9.78655555946">
		<tag k="name" v="Øvre Tollefsrud" />
		<tag k="place" v="farm" />
		<tag k="ssr:stedsnr" v="58731" />
	</node>
	<node id="-144139" lat="60.6602749999" lon="9.96891944682">
		<tag k="name" v="Skaugum" />
		<tag k="place" v="isolated_dwelling" />
		<tag k="ssr:stedsnr" v="179007" />
	</node>
	<node id="-144138" lat="60.7414000029" lon="9.40394444494">
		<tag k="name" v="Bjørnebu" />
		<tag k="place" v="isolated_dwelling" />
		<tag k="ssr:stedsnr" v="173010" />
	</node>
	<node id="-143831" lat="60.6549916662" lon="9.84311389297">
		<tag k="name" v="Stamsrud" />
		<tag k="place" v="isolated_dwelling" />
		<tag k="ssr:stedsnr" v="58719" />
	</node>
	<node id="-144136" lat="60.6208277808" lon="9.69404166322">
		<tag k="name" v="Ildjarntunet" />
		<tag k="ssr:stedsnr" v="161587" />
		<tag k="tourism" v="guest_house" />
	</node>
	<node id="-144134" lat="60.8167555596" lon="9.55968889025">
		<tag k="name" v="Rosenberg" />
		<tag k="place" v="farm" />
		<tag k="ssr:stedsnr" v="160983" />
	</node>
	<node id="-144133" lat="60.7644472185" lon="9.65836943889">
		<tag k="name" v="Sørbu" />
		<tag k="place" v="isolated_dwelling" />
		<tag k="ssr:stedsnr" v="160907" />
	</node>
	<node id="-143830" lat="60.6531388902" lon="9.84369445155">
		<tag k="name" v="Hjørnegård" />
		<tag k="place" v="farm" />
		<tag k="ssr:stedsnr" v="58715" />
	</node>
	<node id="-144129" lat="60.7703833317" lon="9.63743610408">
		<tag k="name" v="Kølplassen" />
		<tag k="place" v="locality" />
		<tag k="ssr:stedsnr" v="160881" />
	</node>
	<node id="-144127" lat="60.8281083312" lon="9.46982499099">
		<tag k="name" v="Nylende" />
		<tag k="place" v="farm" />
		<tag k="ssr:stedsnr" v="160834" />
	</node>
	<node id="-144121" lat="60.5009638863" lon="9.81476945069">
		<tag k="name" v="Høgløft" />
		<tag k="place" v="isolated_dwelling" />
		<tag k="ssr:stedsnr" v="160775" />
	</node>
	<node id="-144117" lat="60.5496666645" lon="9.78271388593">
		<tag k="name" v="Storrustehuset" />
		<tag k="place" v="isolated_dwelling" />
		<tag k="ssr:stedsnr" v="160655" />
	</node>
	<node id="-144116" lat="60.5418555513" lon="9.69440277874">
		<tag k="name" v="Skogshusvær" />
		<tag k="place" v="isolated_dwelling" />
		<tag k="ssr:stedsnr" v="160638" />
	</node>
	<node id="-144103" lat="60.6269003745" lon="9.67951673673">
		<tag k="fixme" v="consider place=hamlet" />
		<tag k="name" v="Søre Grøv" />
		<tag k="place" v="farm" />
		<tag k="ssr:stedsnr" v="160264" />
	</node>
	<node id="-144101" lat="60.6214555594" lon="9.50356666573">
		<tag k="name" v="Lokkerhaugen" />
		<tag k="place" v="isolated_dwelling" />
		<tag k="ssr:stedsnr" v="160236" />
	</node>
	<node id="-144100" lat="60.6391507555" lon="9.59782715091">
		<tag k="fixme" v="consider place=hamlet" />
		<tag k="name" v="Åsli" />
		<tag k="place" v="farm" />
		<tag k="ssr:stedsnr" v="160230" />
	</node>
	<node id="-144098" lat="60.63598889" lon="9.51404722263">
		<tag k="historic" v="shieling" />
		<tag k="name" v="Klemmetsrudhaugen" />
		<tag k="place" v="locality" />
		<tag k="ssr:stedsnr" v="160211" />
	</node>
	<node id="-144095" lat="60.7901138884" lon="9.47111666692">
		<tag k="historic" v="shieling" />
		<tag k="name" v="Jordesvøllen" />
		<tag k="place" v="locality" />
		<tag k="ssr:stedsnr" v="160154" />
	</node>
	<node id="-144091" lat="60.6342777797" lon="9.65213610381">
		<tag k="name" v="Flatshaugen" />
		<tag k="place" v="farm" />
		<tag k="ssr:stedsnr" v="160409" />
	</node>
	<node id="-144089" lat="60.7833972212" lon="9.59847778543">
		<tag k="name" v="Islandsmoen" />
		<tag k="place" v="farm" />
		<tag k="ssr:stedsnr" v="131141" />
	</node>
	<node id="-144088" lat="60.8276890656" lon="9.45494872156">
		<tag k="alt_name" v="Øygarden" />
		<tag k="fixme" v="consider place=hamlet" />
		<tag k="name" v="Øygard" />
		<tag k="place" v="farm" />
		<tag k="ssr:stedsnr" v="130846" />
	</node>
	<node id="-144087" lat="60.8237083322" lon="9.50502221752">
		<tag k="alt_name" v="Haslebrøtin" />
		<tag k="name" v="Haslo" />
		<tag k="place" v="farm" />
		<tag k="ssr:stedsnr" v="130844" />
	</node>
	<node id="-144086" lat="60.8259999997" lon="9.56901666555">
		<tag k="name" v="Erlendshaugen" />
		<tag k="place" v="farm" />
		<tag k="ssr:stedsnr" v="130838" />
	</node>
	<node id="-143481" lat="60.6790861094" lon="9.52927499977">
		<tag k="historic" v="shieling" />
		<tag k="name" v="Barbroholet" />
		<tag k="place" v="locality" />
		<tag k="ssr:stedsnr" v="370697" />
	</node>
	<node id="-144084" lat="60.8041749995" lon="9.57123888859">
		<tag k="name" v="Plassen" />
		<tag k="place" v="farm" />
		<tag k="ssr:stedsnr" v="130808" />
	</node>
	<node id="-144081" lat="60.8180416694" lon="9.52812222455">
		<tag k="alt_name" v="Liagardatn" />
		<tag k="name" v="Lii" />
		<tag k="place" v="hamlet" />
		<tag k="ssr:stedsnr" v="130787" />
	</node>
	<node id="-144080" lat="60.8116222254" lon="9.33509166402">
		<tag k="alt_name" v="Fjellstølen, nordre" />
		<tag k="historic" v="shieling" />
		<tag k="name" v="Nordre Fjellstølen" />
		<tag k="place" v="locality" />
		<tag k="ssr:stedsnr" v="130780" />
	</node>
	<node id="-144079" lat="60.8015373295" lon="9.53240947324">
		<tag k="fixme" v="consider place=hamlet" />
		<tag k="name" v="Skard" />
		<tag k="place" v="farm" />
		<tag k="ssr:stedsnr" v="130777" />
	</node>
	<node id="-144076" lat="60.7607472205" lon="9.43846110342">
		<tag k="historic" v="shieling" />
		<tag k="name" v="Preststølen" />
		<tag k="place" v="locality" />
		<tag k="ssr:stedsnr" v="130707" />
	</node>
	<node id="-144073" lat="60.813927774" lon="9.76417222033">
		<tag k="name" v="Kolbu" />
		<tag k="place" v="farm" />
		<tag k="ssr:stedsnr" v="130215" />
	</node>
	<node id="-144072" lat="60.7932777765" lon="9.66771667494">
		<tag k="alt_name" v="Skarasæter" />
		<tag k="name" v="Skarasætri" />
		<tag k="place" v="farm" />
		<tag k="ssr:stedsnr" v="130201" />
	</node>
	<node id="-144067" lat="60.8207944472" lon="9.63326388352">
		<tag k="historic" v="shieling" />
		<tag k="name" v="Mørkedalen" />
		<tag k="place" v="locality" />
		<tag k="ssr:stedsnr" v="130164" />
	</node>
	<node id="-144066" lat="60.7779055579" lon="9.6233777725">
		<tag k="alt_name" v="Søre Lundo" />
		<tag k="name" v="Lundo" />
		<tag k="place" v="farm" />
		<tag k="ssr:stedsnr" v="130099" />
	</node>
	<node id="-144065" lat="60.7775296567" lon="9.64262584449">
		<tag k="fixme" v="consider place=hamlet" />
		<tag k="name" v="Langedrag" />
		<tag k="place" v="farm" />
		<tag k="ssr:stedsnr" v="130095" />
	</node>
	<node id="-144063" lat="60.7894871465" lon="9.6430244468">
		<tag k="alt_name" v="Skaro" />
		<tag k="fixme" v="consider place=hamlet" />
		<tag k="name" v="Skaran" />
		<tag k="place" v="farm" />
		<tag k="ssr:stedsnr" v="130113" />
	</node>
	<node id="-144062" lat="60.7799166647" lon="9.74857777461">
		<tag k="historic" v="shieling" />
		<tag k="name" v="Huken" />
		<tag k="place" v="locality" />
		<tag k="ssr:stedsnr" v="130111" />
	</node>
	<node id="-144061" lat="60.7777749973" lon="9.60884999915">
		<tag k="name" v="Bøle" />
		<tag k="place" v="farm" />
		<tag k="ssr:stedsnr" v="130102" />
	</node>
	<node id="-144060" lat="60.859013887" lon="9.43816944348">
		<tag k="name" v="Gamlestølen" />
		<tag k="place" v="isolated_dwelling" />
		<tag k="ssr:stedsnr" v="129673" />
	</node>
	<node id="-143818" lat="60.857486115" lon="9.40978055746">
		<tag k="historic" v="shieling" />
		<tag k="name" v="Høllatrøe" />
		<tag k="place" v="locality" />
		<tag k="ssr:stedsnr" v="58378" />
	</node>
	<node id="-144058" lat="60.6322111069" lon="9.81334723051">
		<tag k="name" v="Jugerud" />
		<tag k="place" v="isolated_dwelling" />
		<tag k="ssr:stedsnr" v="128999" />
	</node>
	<node id="-144055" lat="60.623647226" lon="9.68483888118">
		<tag k="alt_name" v="Nedre Haugen" />
		<tag k="name" v="Haugen" />
		<tag k="place" v="farm" />
		<tag k="ssr:stedsnr" v="128988" />
	</node>
	<node id="-144049" lat="60.6556277781" lon="9.77997499346">
		<tag k="name" v="Solbakken" />
		<tag k="place" v="farm" />
		<tag k="ssr:stedsnr" v="128964" />
	</node>
	<node id="-144047" lat="60.6561277753" lon="9.88151111046">
		<tag k="name" v="Snarbråtan" />
		<tag k="place" v="locality" />
		<tag k="ssr:stedsnr" v="128961" />
	</node>
	<node id="-144043" lat="60.6422693994" lon="9.87028739352">
		<tag k="fixme" v="consider place=hamlet" />
		<tag k="name" v="Sørum" />
		<tag k="place" v="farm" />
		<tag k="ssr:stedsnr" v="128944" />
	</node>
	<node id="-144042" lat="60.7352361138" lon="9.59667499825">
		<tag k="name" v="Dytthol" />
		<tag k="place" v="isolated_dwelling" />
		<tag k="ssr:stedsnr" v="128943" />
	</node>
	<node id="-144037" lat="60.6703333351" lon="9.74244723094">
		<tag k="name" v="Muggedalen" />
		<tag k="place" v="farm" />
		<tag k="ssr:stedsnr" v="128924" />
	</node>
	<node id="-144034" lat="60.6676999971" lon="9.9662027709">
		<tag k="alt_name" v="Nuppebua" />
		<tag k="name" v="Nypebua" />
		<tag k="place" v="isolated_dwelling" />
		<tag k="ssr:stedsnr" v="128916" />
	</node>
	<node id="-143813" lat="60.6230527793" lon="9.6892055479">
		<tag k="name" v="Søre Haugen" />
		<tag k="place" v="farm" />
		<tag k="ssr:stedsnr" v="58468" />
	</node>
	<node id="-144027" lat="60.5050111111" lon="9.70827500355">
		<tag k="name" v="Nystøl" />
		<tag k="place" v="isolated_dwelling" />
		<tag k="ssr:stedsnr" v="128870" />
	</node>
	<node id="-144026" lat="60.5177138931" lon="9.70352500557">
		<tag k="historic" v="shieling" />
		<tag k="name" v="Haugebogsætra" />
		<tag k="place" v="locality" />
		<tag k="ssr:stedsnr" v="128871" />
	</node>
	<node id="-144020" lat="60.6777333353" lon="9.67776388102">
		<tag k="alt_name" v="Øyvassæter" />
		<tag k="historic" v="shieling" />
		<tag k="name" v="Øyvassætra" />
		<tag k="place" v="locality" />
		<tag k="ssr:stedsnr" v="128905" />
	</node>
	<node id="-144018" lat="60.6669237549" lon="9.58465445841">
		<tag k="alt_name" v="Skålevassætra" />
		<tag k="historic" v="shieling" />
		<tag k="name" v="Skålevassvollen" />
		<tag k="place" v="locality" />
		<tag k="ssr:stedsnr" v="128727" />
	</node>
	<node id="-144012" lat="60.652350003" lon="9.43823055316">
		<tag k="alt_name" v="Åslisæter;Nordre Åslisæter" />
		<tag k="historic" v="shieling" />
		<tag k="name" v="Åslisætra" />
		<tag k="place" v="locality" />
		<tag k="ssr:stedsnr" v="128697" />
	</node>
	<node id="-144010" lat="60.6999222188" lon="9.54465833249">
		<tag k="name" v="Liasætri" />
		<tag k="place" v="locality" />
		<tag k="ssr:stedsnr" v="128677" />
	</node>
	<node id="-144008" lat="60.6787250005" lon="9.53232777351">
		<tag k="alt_name" v="Vergevollen" />
		<tag k="historic" v="shieling" />
		<tag k="name" v="Bergevollen" />
		<tag k="place" v="locality" />
		<tag k="ssr:stedsnr" v="128669" />
	</node>
	<node id="-144007" lat="60.6795500033" lon="9.50530277445">
		<tag k="alt_name" v="Skarsætra" />
		<tag k="historic" v="shieling" />
		<tag k="name" v="Skardsætra" />
		<tag k="place" v="locality" />
		<tag k="ssr:stedsnr" v="128667" />
	</node>
	<node id="-144006" lat="60.6173499962" lon="9.50876665834">
		<tag k="name" v="Helseboden" />
		<tag k="place" v="isolated_dwelling" />
		<tag k="ssr:stedsnr" v="128658" />
	</node>
	<node id="-144004" lat="60.5689361147" lon="9.71597222031">
		<tag k="alt_name" v="Søre Skimten" />
		<tag k="name" v="Skimten" />
		<tag k="place" v="farm" />
		<tag k="ssr:stedsnr" v="128804" />
	</node>
	<node id="-144003" lat="60.7423416667" lon="9.80258611195">
		<tag k="alt_name" v="Drengsprengsætri, nordre;Drengsprengsætri;Nørdre Drengsprengsæter" />
		<tag k="historic" v="shieling" />
		<tag k="name" v="Nordre Drengsprengsætri" />
		<tag k="place" v="locality" />
		<tag k="ssr:stedsnr" v="128803" />
	</node>
	<node id="-144000" lat="60.6318722252" lon="9.54574166071">
		<tag k="alt_name" v="Blautemyr" />
		<tag k="historic" v="shieling" />
		<tag k="name" v="Blautmyrsætra" />
		<tag k="place" v="locality" />
		<tag k="ssr:stedsnr" v="128618" />
	</node>
	<node id="-143995" lat="60.4964628316" lon="9.71141533081">
		<tag k="fixme" v="consider tourism=alpine_hut or tourism=chalet" />
		<tag k="name" v="Storekrakkoia" />
		<tag k="ssr:stedsnr" v="127922" />
		<tag k="tourism" v="wilderness_hut" />
	</node>
	<node id="-143990" lat="60.7262388928" lon="9.43308610714">
		<tag k="historic" v="shieling" />
		<tag k="name" v="Bukfyllhaugatn" />
		<tag k="place" v="locality" />
		<tag k="ssr:stedsnr" v="119934" />
	</node>
	<node id="-143986" lat="60.5423944478" lon="9.6040750001">
		<tag k="name" v="Haraldsbråten" />
		<tag k="place" v="locality" />
		<tag k="ssr:stedsnr" v="119770" />
	</node>
	<node id="-143983" lat="60.6476055555" lon="9.7939027847">
		<tag k="name" v="Veigård" />
		<tag k="place" v="isolated_dwelling" />
		<tag k="ssr:stedsnr" v="119717" />
	</node>
	<node id="-143973" lat="60.5844111076" lon="9.73386388904">
		<tag k="name" v="Granlund" />
		<tag k="place" v="farm" />
		<tag k="ssr:stedsnr" v="119500" />
	</node>
	<node id="-143971" lat="60.5905333324" lon="9.75860556098">
		<tag k="name" v="Nordheim" />
		<tag k="place" v="isolated_dwelling" />
		<tag k="ssr:stedsnr" v="119497" />
	</node>
	<node id="-143970" lat="60.598177778" lon="9.74494444884">
		<tag k="name" v="Hauglien" />
		<tag k="place" v="farm" />
		<tag k="ssr:stedsnr" v="119496" />
	</node>
	<node id="-143969" lat="60.5850083302" lon="9.74931944523">
		<tag k="name" v="Lund" />
		<tag k="place" v="isolated_dwelling" />
		<tag k="ssr:stedsnr" v="119493" />
	</node>
	<node id="-143968" lat="60.6237666659" lon="9.68991389646">
		<tag k="name" v="Haugvang" />
		<tag k="place" v="isolated_dwelling" />
		<tag k="ssr:stedsnr" v="119465" />
	</node>
	<node id="-143967" lat="60.70701667" lon="9.44293888868">
		<tag k="historic" v="shieling" />
		<tag k="name" v="Solvangen" />
		<tag k="place" v="locality" />
		<tag k="ssr:stedsnr" v="119461" />
	</node>
	<node id="-143964" lat="60.6224944457" lon="9.70873333124">
		<tag k="name" v="Skinningsrud" />
		<tag k="place" v="farm" />
		<tag k="ssr:stedsnr" v="119370" />
	</node>
	<node id="-143959" lat="60.7561999996" lon="9.66530000316">
		<tag k="name" v="Nissebakkin" />
		<tag k="place" v="farm" />
		<tag k="ssr:stedsnr" v="119151" />
	</node>
	<node id="-143956" lat="60.790477782" lon="9.5788444483">
		<tag k="name" v="Kambabygde" />
		<tag k="place" v="hamlet" />
		<tag k="ssr:stedsnr" v="119110" />
	</node>
	<node id="-143953" lat="60.7421861128" lon="9.57142777211">
		<tag k="name" v="Haugen" />
		<tag k="place" v="isolated_dwelling" />
		<tag k="ssr:stedsnr" v="119065" />
	</node>
	<node id="-143951" lat="60.8263416709" lon="9.62370278132">
		<tag k="name" v="Kølskålin" />
		<tag k="place" v="isolated_dwelling" />
		<tag k="ssr:stedsnr" v="100998" />
	</node>
	<node id="-145995" lat="60.7280138909" lon="9.35177222226">
		<tag k="historic" v="shieling" />
		<tag k="name" v="Karlsgotrøe" />
		<tag k="place" v="locality" />
		<tag k="ssr:stedsnr" v="968856" />
	</node>
	<node id="-145994" lat="60.7006638872" lon="9.41370555744">
		<tag k="historic" v="shieling" />
		<tag k="name" v="Brufeten" />
		<tag k="place" v="locality" />
		<tag k="ssr:stedsnr" v="968848" />
	</node>
	<node id="-145993" lat="60.8223277771" lon="9.50273611241">
		<tag k="name" v="Svartlie" />
		<tag k="place" v="farm" />
		<tag k="ssr:stedsnr" v="968846" />
	</node>
	<node id="-145991" lat="60.8216249959" lon="9.53750277742">
		<tag k="name" v="Leistrudgardatn" />
		<tag k="place" v="hamlet" />
		<tag k="ssr:stedsnr" v="968814" />
	</node>
	<node id="-143941" lat="60.7983611142" lon="9.49101111801">
		<tag k="name" v="Ranangshite" />
		<tag k="place" v="isolated_dwelling" />
		<tag k="ssr:stedsnr" v="100781" />
	</node>
	<node id="-145987" lat="60.596816666" lon="9.56746111001">
		<tag k="name" v="Fiskebu" />
		<tag k="place" v="isolated_dwelling" />
		<tag k="ssr:stedsnr" v="968775" />
	</node>
	<node id="-145986" lat="60.6031166624" lon="9.64794721476">
		<tag k="name" v="Storebekkhytta" />
		<tag k="place" v="isolated_dwelling" />
		<tag k="ssr:stedsnr" v="968773" />
	</node>
	<node id="-145984" lat="60.6755027759" lon="9.87411665908">
		<tag k="name" v="Fiskebua" />
		<tag k="place" v="isolated_dwelling" />
		<tag k="ssr:stedsnr" v="968697" />
	</node>
	<node id="-145983" lat="60.6724694439" lon="9.8968083424">
		<tag k="name" v="Sandbekkhytta" />
		<tag k="place" v="isolated_dwelling" />
		<tag k="ssr:stedsnr" v="968696" />
	</node>
	<node id="-143932" lat="60.6372194432" lon="9.64302778163">
		<tag k="building" v="industrial" />
		<tag k="name" v="Nordbysaga" />
		<tag k="ssr:stedsnr" v="100453" />
	</node>
	<node id="-145976" lat="60.8312416646" lon="9.37987777702">
		<tag k="historic" v="shieling" />
		<tag k="name" v="Heggeruste" />
		<tag k="place" v="locality" />
		<tag k="ssr:stedsnr" v="968663" />
	</node>
	<node id="-145975" lat="60.609786108" lon="9.74041111964">
		<tag k="name" v="Kantom" />
		<tag k="place" v="farm" />
		<tag k="ssr:stedsnr" v="968538" />
	</node>
	<node id="-143795" lat="60.4964555519" lon="9.69465554701">
		<tag k="alt_name" v="Nysætra" />
		<tag k="historic" v="shieling" />
		<tag k="name" v="Kroksætra" />
		<tag k="place" v="locality" />
		<tag k="ssr:stedsnr" v="50455" />
	</node>
	<node id="-143919" lat="60.6820000031" lon="9.75338333742">
		<tag k="name" v="Rundhaug" />
		<tag k="place" v="isolated_dwelling" />
		<tag k="ssr:stedsnr" v="86294" />
	</node>
	<node id="-143917" lat="60.7979972187" lon="9.30843333641">
		<tag k="alt_name" v="Sangatn" />
		<tag k="historic" v="shieling" />
		<tag k="name" v="Sangan" />
		<tag k="place" v="locality" />
		<tag k="ssr:stedsnr" v="70826" />
	</node>
	<node id="-145964" lat="60.735436115" lon="9.45864443674">
		<tag k="historic" v="shieling" />
		<tag k="name" v="Storefeten" />
		<tag k="place" v="locality" />
		<tag k="ssr:stedsnr" v="968232" />
	</node>
	<node id="-143915" lat="60.7720500012" lon="9.34058610554">
		<tag k="historic" v="shieling" />
		<tag k="name" v="Haugasætri" />
		<tag k="place" v="locality" />
		<tag k="ssr:stedsnr" v="70798" />
	</node>
	<node id="-143912" lat="60.7750305535" lon="9.61655832851">
		<tag k="alt_name" v="Tronsplassen" />
		<tag k="name" v="Trondplassen" />
		<tag k="place" v="farm" />
		<tag k="ssr:stedsnr" v="70121" />
	</node>
	<node id="-143911" lat="60.8104333318" lon="9.69874723124">
		<tag k="alt_name" v="Sletto" />
		<tag k="historic" v="shieling" />
		<tag k="name" v="Sletten" />
		<tag k="place" v="locality" />
		<tag k="ssr:stedsnr" v="70237" />
	</node>
	<node id="-143910" lat="60.802291668" lon="9.62759444257">
		<tag k="name" v="Komperud" />
		<tag k="place" v="farm" />
		<tag k="ssr:stedsnr" v="70234" />
	</node>
	<node id="-144525" lat="60.8202416684" lon="9.36742500499">
		<tag k="alt_name" v="Kavlatn" />
		<tag k="historic" v="shieling" />
		<tag k="name" v="Kavlan" />
		<tag k="place" v="locality" />
		<tag k="ssr:stedsnr" v="433846" />
	</node>
	<node id="-143908" lat="60.8122250008" lon="9.72521389706">
		<tag k="alt_name" v="Haugrud" />
		<tag k="name" v="Haugerudvollen" />
		<tag k="place" v="locality" />
		<tag k="ssr:stedsnr" v="70222" />
	</node>
	<node id="-143906" lat="60.7972416666" lon="9.69873888113">
		<tag k="alt_name" v="Tomtin, nedre;Tomtin;Nedre Tomten" />
		<tag k="name" v="Nedre Tomtin" />
		<tag k="place" v="farm" />
		<tag k="ssr:stedsnr" v="70215" />
	</node>
	<node id="-143905" lat="60.7977845961" lon="9.68510491275">
		<tag k="name" v="Langøydegarden" />
		<tag k="place" v="farm" />
		<tag k="ssr:stedsnr" v="70216" />
	</node>
	<node id="-143902" lat="60.8238999986" lon="9.49378332948">
		<tag k="alt_name" v="Pålelie" />
		<tag k="name" v="Pålelii" />
		<tag k="place" v="farm" />
		<tag k="ssr:stedsnr" v="69886" />
	</node>
	<node id="-145949" lat="60.7841166697" lon="9.57390833695">
		<tag k="name" v="Dølvesbrøtin" />
		<tag k="place" v="farm" />
		<tag k="ssr:stedsnr" v="968087" />
	</node>
	<node id="-143900" lat="60.8686722231" lon="9.47355277713">
		<tag k="alt_name" v="Ruste" />
		<tag k="name" v="Rudstøi" />
		<tag k="place" v="farm" />
		<tag k="ssr:stedsnr" v="69719" />
	</node>
	<node id="-143899" lat="60.8624805561" lon="9.46901666796">
		<tag k="alt_name" v="Liabrenne" />
		<tag k="name" v="Liabrenn" />
		<tag k="place" v="farm" />
		<tag k="ssr:stedsnr" v="69706" />
	</node>
	<node id="-145946" lat="60.7513722182" lon="9.43768332832">
		<tag k="name" v="Venebu" />
		<tag k="place" v="isolated_dwelling" />
		<tag k="ssr:stedsnr" v="967754" />
	</node>
	<node id="-145945" lat="60.5840555588" lon="9.75414165904">
		<tag k="name" v="Nordre Fekjær" />
		<tag k="place" v="farm" />
		<tag k="ssr:stedsnr" v="960688" />
	</node>
	<node id="-143896" lat="60.6271388912" lon="9.69085277442">
		<tag k="name" v="Bergheim" />
		<tag k="place" v="farm" />
		<tag k="ssr:stedsnr" v="68990" />
	</node>
	<node id="-143895" lat="60.6271105466" lon="9.6717615916">
		<tag k="alt_name" v="Nordgrøv" />
		<tag k="fixme" v="consider place=hamlet" />
		<tag k="name" v="Grov" />
		<tag k="place" v="farm" />
		<tag k="ssr:stedsnr" v="68986" />
	</node>
	<node id="-143893" lat="60.6225861077" lon="9.7198083333">
		<tag k="name" v="Østby" />
		<tag k="place" v="farm" />
		<tag k="ssr:stedsnr" v="68979" />
	</node>
	<node id="-143892" lat="60.6344861113" lon="9.66152221981">
		<tag k="alt_name" v="Mellgard, øvre" />
		<tag k="name" v="Øvre Melgård" />
		<tag k="place" v="farm" />
		<tag k="ssr:stedsnr" v="68967" />
	</node>
	<node id="-143891" lat="60.7190916683" lon="9.66648332919">
		<tag k="alt_name" v="Plassnokk" />
		<tag k="name" v="Plassnok" />
		<tag k="place" v="isolated_dwelling" />
		<tag k="ssr:stedsnr" v="68963" />
	</node>
	<node id="-145938" lat="60.7804805573" lon="9.6285777742">
		<tag k="name" v="Øymo" />
		<tag k="place" v="farm" />
		<tag k="ssr:stedsnr" v="949864" />
	</node>
	<node id="-145937" lat="60.7714658628" lon="9.65409139363">
		<tag k="fixme" v="consider place=hamlet" />
		<tag k="name" v="Steinsætere" />
		<tag k="place" v="farm" />
		<tag k="ssr:stedsnr" v="949859" />
	</node>
	<node id="-143888" lat="60.6186222182" lon="9.74076389404">
		<tag k="alt_name" v="Klemmetsrud, midtre" />
		<tag k="name" v="Midtre Klemmetsrud" />
		<tag k="place" v="farm" />
		<tag k="ssr:stedsnr" v="68876" />
	</node>
	<node id="-145935" lat="60.5187666669" lon="9.70476666939">
		<tag k="historic" v="shieling" />
		<tag k="name" v="Bogsætra" />
		<tag k="place" v="locality" />
		<tag k="ssr:stedsnr" v="949812" />
	</node>
	<node id="-145934" lat="60.5231638868" lon="9.7104916616">
		<tag k="name" v="Boghytta" />
		<tag k="place" v="isolated_dwelling" />
		<tag k="ssr:stedsnr" v="949811" />
	</node>
	<node id="-143885" lat="60.6185351346" lon="9.71822379438">
		<tag k="fixme" v="consider place=hamlet" />
		<tag k="name" v="Nerby" />
		<tag k="place" v="farm" />
		<tag k="ssr:stedsnr" v="68870" />
	</node>
	<node id="-145932" lat="60.5486111132" lon="9.78941389525">
		<tag k="name" v="Søre Storruste" />
		<tag k="place" v="farm" />
		<tag k="ssr:stedsnr" v="949758" />
	</node>
	<node id="-143883" lat="60.5315861108" lon="9.77950278368">
		<tag k="alt_name" v="Gamlebråten" />
		<tag k="historic" v="shieling" />
		<tag k="name" v="Gammalbråtasætra" />
		<tag k="place" v="locality" />
		<tag k="ssr:stedsnr" v="68843" />
	</node>
	<node id="-145930" lat="60.5650500009" lon="9.72780000615">
		<tag k="name" v="Nybråten" />
		<tag k="place" v="farm" />
		<tag k="ssr:stedsnr" v="949683" />
	</node>
	<node id="-145928" lat="60.5483222233" lon="9.77794167513">
		<tag k="name" v="Skogly" />
		<tag k="place" v="farm" />
		<tag k="ssr:stedsnr" v="949660" />
	</node>
	<node id="-143879" lat="60.7484166649" lon="9.70123055536">
		<tag k="fixme" v="multiple name tags, choose one and add the other to alt_name" />
		<tag k="name" v="Holt;Storsvei" />
		<tag k="place" v="farm" />
		<tag k="ssr:stedsnr" v="68794" />
	</node>
	<node id="-145924" lat="60.6175333342" lon="9.66070832726">
		<tag k="name" v="Vestheim" />
		<tag k="place" v="isolated_dwelling" />
		<tag k="ssr:stedsnr" v="949395" />
	</node>
	<node id="-143875" lat="60.7053388899" lon="9.52022222015">
		<tag k="alt_name" v="Nysæter" />
		<tag k="historic" v="shieling" />
		<tag k="name" v="Nysætri" />
		<tag k="place" v="locality" />
		<tag k="ssr:stedsnr" v="68549" />
	</node>
	<node id="-143871" lat="60.7023277816" lon="9.32921944963">
		<tag k="name" v="Bualandet" />
		<tag k="place" v="isolated_dwelling" />
		<tag k="ssr:stedsnr" v="68732" />
	</node>
	<node id="-143868" lat="60.6259131923" lon="9.39976094374">
		<tag k="alt_name" v="Kvitursætra" />
		<tag k="name" v="Kviturdsætra" />
		<tag k="old_name" v="Kviturhøgda" />
		<tag k="place" v="locality" />
		<tag k="ssr:stedsnr" v="68640" />
	</node>
	<node id="-143867" lat="60.6269027759" lon="9.53048888087">
		<tag k="alt_name" v="Helsenningssætra" />
		<tag k="historic" v="shieling" />
		<tag k="name" v="Hellsenningssætra" />
		<tag k="place" v="locality" />
		<tag k="ssr:stedsnr" v="68635" />
	</node>
	<node id="-145914" lat="60.6907111095" lon="9.67647500763">
		<tag k="name" v="Maurkula" />
		<tag k="place" v="isolated_dwelling" />
		<tag k="ssr:stedsnr" v="949187" />
	</node>
	<node id="-143863" lat="60.7234833371" lon="9.69056388303">
		<tag k="name" v="Moen" />
		<tag k="place" v="farm" />
		<tag k="ssr:stedsnr" v="67970" />
	</node>
	<node id="-145907" lat="60.681038887" lon="9.96329167492">
		<tag k="name" v="Tronsehaugfløten" />
		<tag k="place" v="isolated_dwelling" />
		<tag k="ssr:stedsnr" v="949098" />
	</node>
	<node id="-143858" lat="60.6540111137" lon="9.61735555781">
		<tag k="alt_name" v="Haugevolla" />
		<tag k="historic" v="shieling" />
		<tag k="name" v="Haugevollsætra" />
		<tag k="place" v="locality" />
		<tag k="ssr:stedsnr" v="67951" />
	</node>
	<node id="-145905" lat="60.7835722227" lon="9.60725000632">
		<tag k="alt_name" v="Sandvike" />
		<tag k="name" v="Sandviki" />
		<tag k="place" v="farm" />
		<tag k="ssr:stedsnr" v="920148" />
	</node>
	<node id="-145904" lat="60.8348861152" lon="9.48822223052">
		<tag k="name" v="Hagen" />
		<tag k="place" v="farm" />
		<tag k="ssr:stedsnr" v="919848" />
	</node>
	<node id="-145903" lat="60.7976499968" lon="9.54145833177">
		<tag k="alt_name" v="Personsætere" />
		<tag k="name" v="Personsætri" />
		<tag k="place" v="farm" />
		<tag k="ssr:stedsnr" v="919819" />
	</node>
	<node id="-145902" lat="60.7928777755" lon="9.55647777372">
		<tag k="name" v="Bjørnstad" />
		<tag k="place" v="farm" />
		<tag k="ssr:stedsnr" v="919817" />
	</node>
	<node id="-143853" lat="60.5997138902" lon="9.8383916614">
		<tag k="name" v="Elverum" />
		<tag k="place" v="isolated_dwelling" />
		<tag k="ssr:stedsnr" v="67916" />
	</node>
	<node id="-145900" lat="60.8033166691" lon="9.55749443723">
		<tag k="name" v="Dalen" />
		<tag k="place" v="farm" />
		<tag k="ssr:stedsnr" v="919786" />
	</node>
	<node id="-145899" lat="60.7699722216" lon="9.3432805488">
		<tag k="historic" v="shieling" />
		<tag k="name" v="Eldebakken" />
		<tag k="place" v="locality" />
		<tag k="ssr:stedsnr" v="919780" />
	</node>
	<node id="-145898" lat="60.7730749999" lon="9.32761667387">
		<tag k="historic" v="shieling" />
		<tag k="name" v="Haslasætri" />
		<tag k="place" v="locality" />
		<tag k="ssr:stedsnr" v="919778" />
	</node>
	<node id="-143848" lat="60.6440500043" lon="9.50000276944">
		<tag k="alt_name" v="Djupedalssætrene" />
		<tag k="name" v="Djupedalen" />
		<tag k="place" v="hamlet" />
		<tag k="ssr:stedsnr" v="67666" />
	</node>
	<node id="-143500" lat="60.725399996" lon="9.3494944474">
		<tag k="alt_name" v="Bekkjivøllen" />
		<tag k="historic" v="shieling" />
		<tag k="name" v="Bekkevollen" />
		<tag k="place" v="locality" />
		<tag k="ssr:stedsnr" v="371537" />
	</node>
	<node id="-143846" lat="60.7620361125" lon="9.41063610728">
		<tag k="historic" v="shieling" />
		<tag k="name" v="Knutstølen" />
		<tag k="place" v="locality" />
		<tag k="ssr:stedsnr" v="58959" />
	</node>
	<node id="-145893" lat="60.8442833331" lon="9.52069721857">
		<tag k="alt_name" v="Homleberg" />
		<tag k="name" v="Humleberg" />
		<tag k="place" v="locality" />
		<tag k="ssr:stedsnr" v="919616" />
	</node>
	<node id="-145892" lat="60.8379373987" lon="9.49356496795">
		<tag k="fixme" v="consider place=hamlet" />
		<tag k="name" v="Holli" />
		<tag k="place" v="farm" />
		<tag k="ssr:stedsnr" v="919614" />
	</node>
	<node id="-143841" lat="60.8344583322" lon="9.48465278694">
		<tag k="fixme" v="consider place=hamlet" />
		<tag k="name" v="Hagagrende" />
		<tag k="place" v="village" />
		<tag k="ssr:stedsnr" v="58855" />
	</node>
	<node id="-145888" lat="60.7589638881" lon="9.60752499363">
		<tag k="historic" v="shieling" />
		<tag k="name" v="Lio" />
		<tag k="place" v="locality" />
		<tag k="ssr:stedsnr" v="919153" />
	</node>
	<node id="-145887" lat="60.753161108" lon="9.6937944374">
		<tag k="alt_name" v="Storsvee" />
		<tag k="name" v="Storsvei" />
		<tag k="place" v="farm" />
		<tag k="ssr:stedsnr" v="919142" />
	</node>
	<node id="-143838" lat="60.8542944429" lon="9.55274999388">
		<tag k="name" v="Knattebu" />
		<tag k="place" v="isolated_dwelling" />
		<tag k="ssr:stedsnr" v="58850" />
	</node>
	<node id="-145885" lat="60.7819972217" lon="9.60434444881">
		<tag k="alt_name" v="Koparvike" />
		<tag k="name" v="Koparviki" />
		<tag k="place" v="farm" />
		<tag k="ssr:stedsnr" v="919124" />
	</node>
	<node id="-145881" lat="60.6374194469" lon="9.66003610508">
		<tag k="name" v="Oppheim" />
		<tag k="place" v="farm" />
		<tag k="ssr:stedsnr" v="917984" />
	</node>
	<node id="-145880" lat="60.7112694406" lon="9.73226944464">
		<tag k="name" v="Veslesætra" />
		<tag k="place" v="isolated_dwelling" />
		<tag k="ssr:stedsnr" v="917977" />
	</node>
	<node id="-145879" lat="60.7116222249" lon="9.71596665979">
		<tag k="name" v="Morud" />
		<tag k="place" v="farm" />
		<tag k="ssr:stedsnr" v="917975" />
	</node>
	<node id="-145878" lat="60.7253249971" lon="9.68396389664">
		<tag k="alt_name" v="Brøtalie" />
		<tag k="name" v="Bråtalii" />
		<tag k="place" v="farm" />
		<tag k="ssr:stedsnr" v="917965" />
	</node>
	<node id="-143825" lat="60.8012222195" lon="9.36728611419">
		<tag k="name" v="Fjellmyrskålin" />
		<tag k="place" v="isolated_dwelling" />
		<tag k="ssr:stedsnr" v="58659" />
	</node>
	<node id="-143824" lat="60.6052222227" lon="9.74346944558">
		<tag k="amenity" v="school" />
		<tag k="name" v="Hedalen" />
		<tag k="ssr:stedsnr" v="58546" />
	</node>
	<node id="-143823" lat="60.573049996" lon="9.71989443602">
		<tag k="name" v="Nordre Brenden" />
		<tag k="place" v="farm" />
		<tag k="ssr:stedsnr" v="58508" />
	</node>
	<node id="-145868" lat="60.7372583334" lon="9.8081083269">
		<tag k="alt_name" v="Drengsprengsætri, s;Søre Drengsprengsæter" />
		<tag k="historic" v="shieling" />
		<tag k="name" v="Søre Drengsprengsætri" />
		<tag k="place" v="locality" />
		<tag k="ssr:stedsnr" v="917932" />
	</node>
	<node id="-145867" lat="60.5917333339" lon="9.74614166456">
		<tag k="alt_name" v="Tjernsrud" />
		<tag k="name" v="Nedre Kjensrud" />
		<tag k="place" v="farm" />
		<tag k="ssr:stedsnr" v="917926" />
	</node>
	<node id="-145866" lat="60.5803888873" lon="9.73739999864">
		<tag k="name" v="Nerstad" />
		<tag k="place" v="farm" />
		<tag k="ssr:stedsnr" v="917920" />
	</node>
	<node id="-143817" lat="60.8636027777" lon="9.40673888562">
		<tag k="historic" v="shieling" />
		<tag k="name" v="Brennahaugen" />
		<tag k="place" v="locality" />
		<tag k="ssr:stedsnr" v="58375" />
	</node>
	<node id="-145864" lat="60.5963527739" lon="9.89033888767">
		<tag k="name" v="Strømshytta" />
		<tag k="place" v="isolated_dwelling" />
		<tag k="ssr:stedsnr" v="917901" />
	</node>
	<node id="-143436" lat="60.7151944423" lon="9.47879999607">
		<tag k="historic" v="shieling" />
		<tag k="name" v="Liarvøllen" />
		<tag k="place" v="locality" />
		<tag k="ssr:stedsnr" v="342881" />
	</node>
	<node id="-143814" lat="60.6210027775" lon="9.69789444089">
		<tag k="name" v="Øvre Jørandby" />
		<tag k="place" v="farm" />
		<tag k="ssr:stedsnr" v="58470" />
	</node>
	<node id="-145861" lat="60.6088333363" lon="9.7353638961">
		<tag k="name" v="Bjørke" />
		<tag k="place" v="farm" />
		<tag k="ssr:stedsnr" v="917889" />
	</node>
	<node id="-143812" lat="60.7401277817" lon="9.4463527809">
		<tag k="historic" v="shieling" />
		<tag k="name" v="Hasletrøe" />
		<tag k="place" v="locality" />
		<tag k="ssr:stedsnr" v="58240" />
	</node>
	<node id="-145859" lat="60.6228916622" lon="9.90251389317">
		<tag k="name" v="Myra" />
		<tag k="place" v="farm" />
		<tag k="ssr:stedsnr" v="917885" />
	</node>
	<node id="-145858" lat="60.7001888871" lon="9.71852222319">
		<tag k="name" v="Bergtun" />
		<tag k="place" v="farm" />
		<tag k="ssr:stedsnr" v="917879" />
	</node>
	<node id="-145857" lat="60.5462000036" lon="9.76337500419">
		<tag k="name" v="Purkeskinnet" />
		<tag k="place" v="locality" />
		<tag k="ssr:stedsnr" v="917851" />
	</node>
	<node id="-145856" lat="60.5802750026" lon="9.59257499912">
		<tag k="name" v="Tubba" />
		<tag k="place" v="isolated_dwelling" />
		<tag k="ssr:stedsnr" v="917823" />
	</node>
	<node id="-143776" lat="60.5551833367" lon="9.74204722555">
		<tag k="name" v="Gudbrandheimen" />
		<tag k="place" v="locality" />
		<tag k="ssr:stedsnr" v="39628" />
	</node>
	<node id="-143805" lat="60.7970805561" lon="9.69503055947">
		<tag k="name" v="Mikkelsgard" />
		<tag k="place" v="farm" />
		<tag k="ssr:stedsnr" v="58196" />
	</node>
	<node id="-143434" lat="60.7657527783" lon="9.62887777442">
		<tag k="name" v="Ørmeland" />
		<tag k="place" v="locality" />
		<tag k="ssr:stedsnr" v="342873" />
	</node>
	<node id="-145850" lat="60.6632361084" lon="9.57514722258">
		<tag k="historic" v="shieling" />
		<tag k="name" v="Bjørgansætra" />
		<tag k="place" v="locality" />
		<tag k="ssr:stedsnr" v="917718" />
	</node>
	<node id="-145848" lat="60.700847221" lon="9.47812500846">
		<tag k="alt_name" v="Bråtasæter" />
		<tag k="historic" v="shieling" />
		<tag k="name" v="Bråtasætri" />
		<tag k="place" v="locality" />
		<tag k="ssr:stedsnr" v="917686" />
	</node>
	<node id="-143796" lat="60.6875972203" lon="9.95056389237">
		<tag k="name" v="Øyvasshytta" />
		<tag k="place" v="isolated_dwelling" />
		<tag k="ssr:stedsnr" v="58013" />
	</node>
	<node id="-145843" lat="60.7172249966" lon="9.5818055505">
		<tag k="alt_name" v="Øyvassætere" />
		<tag k="historic" v="shieling" />
		<tag k="name" v="Øyvassætri" />
		<tag k="place" v="locality" />
		<tag k="ssr:stedsnr" v="917523" />
	</node>
	<node id="-145838" lat="60.7631583326" lon="9.4200111094">
		<tag k="historic" v="shieling" />
		<tag k="name" v="Haugrudtrøe" />
		<tag k="place" v="locality" />
		<tag k="ssr:stedsnr" v="908966" />
	</node>
	<node id="-143789" lat="60.8010000012" lon="9.57414721484">
		<tag k="name" v="Biribakken" />
		<tag k="place" v="farm" />
		<tag k="ssr:stedsnr" v="39990" />
	</node>
	<node id="-143788" lat="60.8179388931" lon="9.5709861138">
		<tag k="name" v="Søre Øygarden" />
		<tag k="place" v="farm" />
		<tag k="ssr:stedsnr" v="39982" />
	</node>
	<node id="-145834" lat="60.644786112" lon="9.87468611412">
		<tag k="name" v="Snøvika" />
		<tag k="place" v="farm" />
		<tag k="ssr:stedsnr" v="908728" />
	</node>
	<node id="-145832" lat="60.808569443" lon="9.39573054683">
		<tag k="historic" v="shieling" />
		<tag k="name" v="Nordre Stølen" />
		<tag k="place" v="locality" />
		<tag k="ssr:stedsnr" v="908685" />
	</node>
	<node id="-143772" lat="60.5811111073" lon="9.74046111927">
		<tag k="name" v="Oppen" />
		<tag k="place" v="isolated_dwelling" />
		<tag k="ssr:stedsnr" v="39483" />
	</node>
	<node id="-143782" lat="60.8011166633" lon="9.48877221381">
		<tag k="name" v="Bøkasæle" />
		<tag k="place" v="locality" />
		<tag k="ssr:stedsnr" v="39794" />
	</node>
	<node id="-143781" lat="60.6319888899" lon="9.67143333599">
		<tag k="name" v="Jordet" />
		<tag k="place" v="farm" />
		<tag k="ssr:stedsnr" v="39793" />
	</node>
	<node id="-145828" lat="60.6140166635" lon="9.74077500475">
		<tag k="name" v="Bjørkeby" />
		<tag k="place" v="isolated_dwelling" />
		<tag k="ssr:stedsnr" v="908547" />
	</node>
	<node id="-145827" lat="60.6196861133" lon="9.72683055145">
		<tag k="name" v="Brustad" />
		<tag k="place" v="isolated_dwelling" />
		<tag k="ssr:stedsnr" v="908541" />
	</node>
	<node id="-143778" lat="60.8419083372" lon="9.50003055195">
		<tag k="name" v="Høgbrenne" />
		<tag k="place" v="isolated_dwelling" />
		<tag k="ssr:stedsnr" v="39708" />
	</node>
	<node id="-145824" lat="60.6146250022" lon="9.72346388681">
		<tag k="name" v="Børtnes" />
		<tag k="place" v="locality" />
		<tag k="ssr:stedsnr" v="908485" />
	</node>
	<node id="-143775" lat="60.6506666707" lon="9.86124165826">
		<tag k="name" v="Kolsrud" />
		<tag k="place" v="isolated_dwelling" />
		<tag k="ssr:stedsnr" v="39625" />
	</node>
	<node id="-145820" lat="60.5476888864" lon="9.45672223067">
		<tag k="name" v="Amundheimen" />
		<tag k="place" v="isolated_dwelling" />
		<tag k="ssr:stedsnr" v="908416" />
	</node>
	<node id="-143771" lat="60.6287805543" lon="9.90326111844">
		<tag k="name" v="Slimsa" />
		<tag k="place" v="isolated_dwelling" />
		<tag k="ssr:stedsnr" v="39454" />
	</node>
	<node id="-143769" lat="60.637433336" lon="9.64589167057">
		<tag k="name" v="Nytun" />
		<tag k="place" v="isolated_dwelling" />
		<tag k="ssr:stedsnr" v="39419" />
	</node>
	<node id="-145816" lat="60.8127500044" lon="9.53619722815">
		<tag k="name" v="Brattrudgrenda" />
		<tag k="place" v="hamlet" />
		<tag k="ssr:stedsnr" v="908279" />
	</node>
	<node id="-143767" lat="60.6695999971" lon="9.63148055956">
		<tag k="name" v="Haraldset" />
		<tag k="place" v="isolated_dwelling" />
		<tag k="ssr:stedsnr" v="39267" />
	</node>
	<node id="-143766" lat="60.6585888922" lon="9.4448305555">
		<tag k="historic" v="shieling" />
		<tag k="name" v="Nordre Liesæter" />
		<tag k="place" v="locality" />
		<tag k="ssr:stedsnr" v="39254" />
	</node>
	<node id="-145811" lat="60.7958444481" lon="9.71328888772">
		<tag k="name" v="Søre Stanfinmarke" />
		<tag k="place" v="farm" />
		<tag k="ssr:stedsnr" v="908177" />
	</node>
	<node id="-145810" lat="60.7930138927" lon="9.69730832517">
		<tag k="name" v="Lauvrud" />
		<tag k="place" v="locality" />
		<tag k="ssr:stedsnr" v="908175" />
	</node>
	<node id="-143427" lat="60.6484972189" lon="9.87579445347">
		<tag k="name" v="Kjenset" />
		<tag k="place" v="farm" />
		<tag k="ssr:stedsnr" v="342625" />
	</node>
	<node id="-143759" lat="60.632627777" lon="9.52085556223">
		<tag k="historic" v="shieling" />
		<tag k="name" v="Skinningsrudsætra" />
		<tag k="place" v="locality" />
		<tag k="ssr:stedsnr" v="39209" />
	</node>
	<node id="-143754" lat="60.7642944473" lon="9.49703334134">
		<tag k="historic" v="shieling" />
		<tag k="name" v="Bækkjeivøllen" />
		<tag k="place" v="locality" />
		<tag k="ssr:stedsnr" v="39143" />
	</node>
	<node id="-145801" lat="60.8014499962" lon="9.72095556051">
		<tag k="name" v="Øvre Braka" />
		<tag k="place" v="farm" />
		<tag k="ssr:stedsnr" v="908096" />
	</node>
	<node id="-143752" lat="60.7900749984" lon="9.58338888541">
		<tag k="name" v="Søreid" />
		<tag k="place" v="isolated_dwelling" />
		<tag k="ssr:stedsnr" v="39095" />
	</node>
	<node id="-143751" lat="60.7884222244" lon="9.5979361172">
		<tag k="alt_name" v="Leite, s" />
		<tag k="name" v="Søre Leite" />
		<tag k="place" v="farm" />
		<tag k="ssr:stedsnr" v="10153" />
	</node>
	<node id="-143750" lat="60.8221312407" lon="9.42755639159">
		<tag k="historic" v="shieling" />
		<tag k="name" v="Storstølen" />
		<tag k="place" v="locality" />
		<tag k="ssr:stedsnr" v="9857" />
	</node>
	<node id="-143749" lat="60.8224861071" lon="9.55206110217">
		<tag k="name" v="Bagn" />
		<tag k="place" v="village" />
		<tag k="ssr:stedsnr" v="9850" />
	</node>
	<node id="-143748" lat="60.82877222" lon="9.5050111068">
		<tag k="name" v="Haslo" />
		<tag k="place" v="farm" />
		<tag k="ssr:stedsnr" v="9837" />
	</node>
	<node id="-143747" lat="60.8129361172" lon="9.54312888528">
		<tag k="alt_name" v="Karlsgor" />
		<tag k="fixme" v="consider place=hamlet" />
		<tag k="name" v="Karlsgot" />
		<tag k="place" v="farm" />
		<tag k="ssr:stedsnr" v="9813" />
	</node>
	<node id="-145793" lat="60.6575805578" lon="9.97015278443">
		<tag k="name" v="Åmot" />
		<tag k="place" v="isolated_dwelling" />
		<tag k="ssr:stedsnr" v="907007" />
	</node>
	<node id="-143744" lat="60.7660611114" lon="9.4513083321">
		<tag k="alt_name" v="Nysætere" />
		<tag k="historic" v="shieling" />
		<tag k="name" v="Nysætri" />
		<tag k="place" v="locality" />
		<tag k="ssr:stedsnr" v="9789" />
	</node>
	<node id="-143743" lat="60.7626611095" lon="9.44480833739">
		<tag k="alt_name" v="Ellingsætere" />
		<tag k="historic" v="shieling" />
		<tag k="name" v="Ellingsætri" />
		<tag k="place" v="locality" />
		<tag k="ssr:stedsnr" v="9758" />
	</node>
	<node id="-145789" lat="60.7945750025" lon="9.51806666624">
		<tag k="name" v="Bråten" />
		<tag k="place" v="isolated_dwelling" />
		<tag k="ssr:stedsnr" v="859815" />
	</node>
	<node id="-143740" lat="60.8335055567" lon="9.38577500549">
		<tag k="historic" v="shieling" />
		<tag k="name" v="Sletti" />
		<tag k="place" v="locality" />
		<tag k="ssr:stedsnr" v="9636" />
	</node>
	<node id="-143739" lat="60.8380709998" lon="9.39406695615">
		<tag k="alt_name" v="Skaret" />
		<tag k="fixme" v="consider place=hamlet" />
		<tag k="name" v="Skardet" />
		<tag k="place" v="farm" />
		<tag k="ssr:stedsnr" v="9634" />
	</node>
	<node id="-143738" lat="60.8037416623" lon="9.64170833714">
		<tag k="name" v="Bjørkelund" />
		<tag k="place" v="farm" />
		<tag k="ssr:stedsnr" v="9213" />
	</node>
	<node id="-143737" lat="60.8007583342" lon="9.5994499953">
		<tag k="alt_name" v="Finhert" />
		<tag k="name" v="Finnhert" />
		<tag k="place" v="farm" />
		<tag k="ssr:stedsnr" v="9188" />
	</node>
	<node id="-145784" lat="60.77454167" lon="9.3144861053">
		<tag k="alt_name" v="Høllastølen" />
		<tag k="historic" v="shieling" />
		<tag k="name" v="Hollastølen" />
		<tag k="place" v="locality" />
		<tag k="ssr:stedsnr" v="859763" />
	</node>
	<node id="-145783" lat="60.7583472254" lon="9.50476667023">
		<tag k="alt_name" v="Skålesætere" />
		<tag k="historic" v="shieling" />
		<tag k="name" v="Skålesætri" />
		<tag k="place" v="locality" />
		<tag k="ssr:stedsnr" v="859743" />
	</node>
	<node id="-143734" lat="60.7612750017" lon="9.59965834184">
		<tag k="name" v="Gråbeinrud" />
		<tag k="place" v="isolated_dwelling" />
		<tag k="ssr:stedsnr" v="9143" />
	</node>
	<node id="-145781" lat="60.7944944407" lon="9.73564445267">
		<tag k="name" v="Myrvang" />
		<tag k="place" v="farm" />
		<tag k="ssr:stedsnr" v="859212" />
	</node>
	<node id="-143732" lat="60.774622226" lon="9.6091999976">
		<tag k="alt_name" v="Lundelia" />
		<tag k="name" v="Lii" />
		<tag k="place" v="farm" />
		<tag k="ssr:stedsnr" v="9102" />
	</node>
	<node id="-143731" lat="60.8658527758" lon="9.40436667466">
		<tag k="alt_name" v="Myrstølen" />
		<tag k="historic" v="shieling" />
		<tag k="name" v="Myrestølen" />
		<tag k="place" v="locality" />
		<tag k="ssr:stedsnr" v="8720" />
	</node>
	<node id="-143730" lat="60.8584749976" lon="9.3918666655">
		<tag k="alt_name" v="Nystølen" />
		<tag k="historic" v="shieling" />
		<tag k="name" v="Nyesætri" />
		<tag k="place" v="locality" />
		<tag k="ssr:stedsnr" v="8698" />
	</node>
	<node id="-145777" lat="60.8225970427" lon="9.55544300874">
		<tag k="alt_name" v="Voll, nordre" />
		<tag k="fixme" v="consider place=hamlet" />
		<tag k="name" v="Nordre Voll" />
		<tag k="place" v="farm" />
		<tag k="ssr:stedsnr" v="858872" />
	</node>
	<node id="-145776" lat="60.8318277822" lon="9.46461388834">
		<tag k="name" v="Bråten" />
		<tag k="place" v="farm" />
		<tag k="ssr:stedsnr" v="858868" />
	</node>
	<node id="-143727" lat="60.7031805599" lon="9.76713056383">
		<tag k="name" v="Frydenlundskula" />
		<tag k="place" v="isolated_dwelling" />
		<tag k="ssr:stedsnr" v="7991" />
	</node>
	<node id="-143726" lat="60.7031833346" lon="9.67293333319">
		<tag k="historic" v="shieling" />
		<tag k="name" v="Kleiva" />
		<tag k="place" v="locality" />
		<tag k="ssr:stedsnr" v="7985" />
	</node>
	<node id="-145773" lat="60.8651277919" lon="9.4576103281">
		<tag k="alt_name" v="Lien" />
		<tag k="fixme" v="consider place=hamlet" />
		<tag k="name" v="Lii" />
		<tag k="place" v="farm" />
		<tag k="ssr:stedsnr" v="858712" />
	</node>
	<node id="-145771" lat="60.855922226" lon="9.47759167469">
		<tag k="name" v="Torsteinsbrenn" />
		<tag k="place" v="farm" />
		<tag k="ssr:stedsnr" v="858696" />
	</node>
	<node id="-143722" lat="60.6325749997" lon="9.61710833583">
		<tag k="name" v="Aslebakken" />
		<tag k="place" v="farm" />
		<tag k="ssr:stedsnr" v="7975" />
	</node>
	<node id="-145768" lat="60.7743790137" lon="9.64596813009">
		<tag k="name" v="Søre Øyhus" />
		<tag k="place" v="farm" />
		<tag k="ssr:stedsnr" v="858129" />
	</node>
	<node id="-143719" lat="60.6431916682" lon="9.70641944007">
		<tag k="alt_name" v="Berge" />
		<tag k="name" v="Berget" />
		<tag k="place" v="farm" />
		<tag k="ssr:stedsnr" v="7959" />
	</node>
	<node id="-143718" lat="60.6473694467" lon="9.85848054955">
		<tag k="alt_name" v="Tronshaugen" />
		<tag k="name" v="Tronsehaugen" />
		<tag k="old_name" v="Tronshaugene" />
		<tag k="place" v="isolated_dwelling" />
		<tag k="ssr:stedsnr" v="7958" />
	</node>
	<node id="-143267" lat="60.798302776" lon="9.52816666367">
		<tag k="name" v="Haugen" />
		<tag k="place" v="farm" />
		<tag k="ssr:stedsnr" v="300258" />
	</node>
	<node id="-145764" lat="60.7272583321" lon="9.83889444468">
		<tag k="name" v="Tverrvassætra" />
		<tag k="place" v="locality" />
		<tag k="ssr:stedsnr" v="857977" />
	</node>
	<node id="-145762" lat="60.7182027778" lon="9.71391111857">
		<tag k="alt_name" v="Eidsmoen;Eid, s" />
		<tag k="name" v="Søre Eid" />
		<tag k="place" v="farm" />
		<tag k="ssr:stedsnr" v="857971" />
	</node>
	<node id="-143712" lat="60.6159444426" lon="9.92383888656">
		<tag k="alt_name" v="Strømmen, s" />
		<tag k="name" v="Søre Strømmen" />
		<tag k="place" v="farm" />
		<tag k="ssr:stedsnr" v="7906" />
	</node>
	<node id="-143710" lat="60.6142794069" lon="9.74628473265">
		<tag k="fixme" v="consider place=hamlet" />
		<tag k="name" v="Ruste" />
		<tag k="place" v="farm" />
		<tag k="ssr:stedsnr" v="7905" />
	</node>
	<node id="-145756" lat="60.6130000039" lon="9.61930000685">
		<tag k="alt_name" v="Olasætra" />
		<tag k="historic" v="shieling" />
		<tag k="name" v="Olasæter" />
		<tag k="place" v="locality" />
		<tag k="ssr:stedsnr" v="857877" />
	</node>
	<node id="-145754" lat="60.5489833328" lon="9.75366388271">
		<tag k="name" v="Brubråten" />
		<tag k="place" v="farm" />
		<tag k="ssr:stedsnr" v="857837" />
	</node>
	<node id="-145753" lat="60.555899997" lon="9.76162222777">
		<tag k="name" v="Kornbråten" />
		<tag k="place" v="farm" />
		<tag k="ssr:stedsnr" v="857831" />
	</node>
	<node id="-143704" lat="60.6912083308" lon="9.60029167031">
		<tag k="name" v="Åsehytta" />
		<tag k="place" v="isolated_dwelling" />
		<tag k="ssr:stedsnr" v="7883" />
	</node>
	<node id="-145750" lat="60.5747583378" lon="9.71177777504">
		<tag k="name" v="Bruskerud" />
		<tag k="place" v="farm" />
		<tag k="ssr:stedsnr" v="857811" />
	</node>
	<node id="-145749" lat="60.5724083324" lon="9.71933054962">
		<tag k="alt_name" v="Søre Brenden" />
		<tag k="name" v="Brenna" />
		<tag k="place" v="farm" />
		<tag k="ssr:stedsnr" v="857809" />
	</node>
	<node id="-143700" lat="60.6204388862" lon="9.70398889328">
		<tag k="name" v="Huset" />
		<tag k="place" v="farm" />
		<tag k="ssr:stedsnr" v="7874" />
	</node>
	<node id="-143699" lat="60.6955277752" lon="9.72919444579">
		<tag k="name" v="Elvemoen" />
		<tag k="place" v="farm" />
		<tag k="ssr:stedsnr" v="7873" />
	</node>
	<node id="-145746" lat="60.617494441" lon="9.43267777026">
		<tag k="name" v="Sandvika" />
		<tag k="place" v="isolated_dwelling" />
		<tag k="ssr:stedsnr" v="857678" />
	</node>
	<node id="-145742" lat="60.7442638921" lon="9.54201389484">
		<tag k="alt_name" v="Hølersæterbrøtin" />
		<tag k="name" v="Hølersæterbråten" />
		<tag k="place" v="isolated_dwelling" />
		<tag k="ssr:stedsnr" v="857573" />
	</node>
	<node id="-145741" lat="60.640338887" lon="9.8823250023">
		<tag k="name" v="Fenøya" />
		<tag k="place" v="farm" />
		<tag k="ssr:stedsnr" v="856985" />
	</node>
	<node id="-145740" lat="60.6506055522" lon="9.82380277781">
		<tag k="name" v="Ruste" />
		<tag k="place" v="farm" />
		<tag k="ssr:stedsnr" v="856975" />
	</node>
	<node id="-143691" lat="60.6594083369" lon="9.45315000216">
		<tag k="alt_name" v="Tommasvollen" />
		<tag k="historic" v="shieling" />
		<tag k="name" v="Tomasvollen" />
		<tag k="place" v="locality" />
		<tag k="ssr:stedsnr" v="7705" />
	</node>
	<node id="-145736" lat="60.6673777781" lon="9.66642221343">
		<tag k="alt_name" v="Tjyrubua" />
		<tag k="name" v="Kyribua" />
		<tag k="place" v="isolated_dwelling" />
		<tag k="ssr:stedsnr" v="856954" />
	</node>
	<node id="-143686" lat="60.6811222265" lon="9.34980000101">
		<tag k="alt_name" v="Skarasætrene" />
		<tag k="name" v="Skardasætri" />
		<tag k="place" v="isolated_dwelling" />
		<tag k="ssr:stedsnr" v="7674" />
	</node>
	<node id="-145733" lat="60.6814055529" lon="9.59348054935">
		<tag k="historic" v="shieling" />
		<tag k="name" v="Elgvassætra" />
		<tag k="place" v="locality" />
		<tag k="ssr:stedsnr" v="856936" />
	</node>
	<node id="-143684" lat="60.7349722266" lon="9.5055722205">
		<tag k="name" v="Tanterhaug" />
		<tag k="place" v="isolated_dwelling" />
		<tag k="ssr:stedsnr" v="7548" />
	</node>
	<node id="-145730" lat="60.677433336" lon="9.89933611309">
		<tag k="historic" v="shieling" />
		<tag k="name" v="Sandgardsætra" />
		<tag k="place" v="locality" />
		<tag k="ssr:stedsnr" v="856930" />
	</node>
	<node id="-145729" lat="60.5976666656" lon="9.74344721391">
		<tag k="alt_name" v="Brakar, nordre;Brakar;Nordre Brager" />
		<tag k="name" v="Nordre Brakar" />
		<tag k="place" v="farm" />
		<tag k="ssr:stedsnr" v="856927" />
	</node>
	<node id="-145728" lat="60.6114284736" lon="9.74582347161">
		<tag k="fixme" v="consider place=hamlet" />
		<tag k="name" v="Omsrud" />
		<tag k="place" v="farm" />
		<tag k="ssr:stedsnr" v="856916" />
	</node>
	<node id="-145727" lat="60.608227774" lon="9.74555277365">
		<tag k="name" v="Bergsrud" />
		<tag k="place" v="farm" />
		<tag k="ssr:stedsnr" v="856915" />
	</node>
	<node id="-143678" lat="60.6653805599" lon="9.7476444438">
		<tag k="alt_name" v="Grimsrud, s" />
		<tag k="name" v="Søre Grimsrud" />
		<tag k="place" v="farm" />
		<tag k="ssr:stedsnr" v="6965" />
	</node>
	<node id="-145724" lat="60.7025499986" lon="9.52422499899">
		<tag k="historic" v="shieling" />
		<tag k="name" v="Lundevollen" />
		<tag k="place" v="locality" />
		<tag k="ssr:stedsnr" v="856714" />
	</node>
	<node id="-143675" lat="60.6673027801" lon="9.74065278563">
		<tag k="name" v="Midtmoen" />
		<tag k="place" v="farm" />
		<tag k="ssr:stedsnr" v="6954" />
	</node>
	<node id="-145721" lat="60.7665694422" lon="9.36105555798">
		<tag k="historic" v="shieling" />
		<tag k="name" v="Søre Bjødalen" />
		<tag k="place" v="locality" />
		<tag k="ssr:stedsnr" v="847989" />
	</node>
	<node id="-143412" lat="60.6310083315" lon="9.54146388237">
		<tag k="name" v="Gaukeberg" />
		<tag k="place" v="isolated_dwelling" />
		<tag k="ssr:stedsnr" v="342259" />
	</node>
	<node id="-143664" lat="60.7741975396" lon="9.64288772861">
		<tag k="fixme" v="consider place=hamlet" />
		<tag k="name" v="Øyhus" />
		<tag k="place" v="farm" />
		<tag k="ssr:stedsnr" v="987188" />
	</node>
	<node id="-143663" lat="60.5479582772" lon="9.78576822184">
		<tag k="fixme" v="consider place=hamlet" />
		<tag k="name" v="Storruste" />
		<tag k="place" v="farm" />
		<tag k="ssr:stedsnr" v="987207" />
	</node>
	<node id="-145710" lat="60.650461112" lon="9.85433611732">
		<tag k="name" v="Haravika" />
		<tag k="place" v="isolated_dwelling" />
		<tag k="ssr:stedsnr" v="847704" />
	</node>
	<node id="-143661" lat="60.8012581622" lon="9.72328837196">
		<tag k="fixme" v="consider place=hamlet" />
		<tag k="name" v="Braka" />
		<tag k="place" v="farm" />
		<tag k="ssr:stedsnr" v="987205" />
	</node>
	<node id="-143660" lat="60.6182303227" lon="9.74317427227">
		<tag k="fixme" v="consider place=hamlet" />
		<tag k="name" v="Klemmetsrud" />
		<tag k="place" v="farm" />
		<tag k="ssr:stedsnr" v="987204" />
	</node>
	<node id="-143659" lat="60.632098876" lon="9.66510795487">
		<tag k="fixme" v="consider place=hamlet" />
		<tag k="name" v="Sukke" />
		<tag k="place" v="farm" />
		<tag k="ssr:stedsnr" v="987200" />
	</node>
	<node id="-143658" lat="60.6329266142" lon="9.66060298089">
		<tag k="fixme" v="consider place=hamlet" />
		<tag k="name" v="Melgård" />
		<tag k="place" v="farm" />
		<tag k="ssr:stedsnr" v="987198" />
	</node>
	<node id="-143657" lat="60.6574606871" lon="9.8256768761">
		<tag k="fixme" v="consider place=hamlet" />
		<tag k="name" v="Haugsrud" />
		<tag k="place" v="farm" />
		<tag k="ssr:stedsnr" v="987195" />
	</node>
	<node id="-145704" lat="60.6135638867" lon="9.73026944215">
		<tag k="name" v="Lundstad" />
		<tag k="place" v="farm" />
		<tag k="ssr:stedsnr" v="847526" />
	</node>
	<node id="-145703" lat="60.5678055555" lon="9.72051110492">
		<tag k="name" v="Lundby" />
		<tag k="place" v="farm" />
		<tag k="ssr:stedsnr" v="847494" />
	</node>
	<node id="-145702" lat="60.6022055585" lon="9.74314166982">
		<tag k="name" v="Bjørnstad" />
		<tag k="place" v="farm" />
		<tag k="ssr:stedsnr" v="847489" />
	</node>
	<node id="-145701" lat="60.5996638889" lon="9.74785554871">
		<tag k="name" v="Bragerhaug" />
		<tag k="place" v="farm" />
		<tag k="ssr:stedsnr" v="847486" />
	</node>
	<node id="-145700" lat="60.5930444447" lon="9.75473333303">
		<tag k="name" v="Midthagen" />
		<tag k="place" v="farm" />
		<tag k="ssr:stedsnr" v="847483" />
	</node>
	<node id="-143651" lat="60.8229243805" lon="9.56537384898">
		<tag k="name" v="Bagn" />
		<tag k="place" v="hamlet" />
		<tag k="ssr:stedsnr" v="987184" />
	</node>
	<node id="-143650" lat="60.8335736957" lon="9.52676091638">
		<tag k="fixme" v="consider place=hamlet" />
		<tag k="name" v="Jukam" />
		<tag k="place" v="farm" />
		<tag k="ssr:stedsnr" v="987183" />
	</node>
	<node id="-143649" lat="60.815789707" lon="9.55750199412">
		<tag k="fixme" v="consider place=hamlet" />
		<tag k="name" v="Erstad" />
		<tag k="place" v="farm" />
		<tag k="ssr:stedsnr" v="987181" />
	</node>
	<node id="-143648" lat="60.8202669878" lon="9.55661420819">
		<tag k="name" v="Søre Voll" />
		<tag k="place" v="locality" />
		<tag k="ssr:stedsnr" v="987180" />
	</node>
	<node id="-143647" lat="60.7714319768" lon="9.33691208099">
		<tag k="name" v="Bjødalen" />
		<tag k="place" v="locality" />
		<tag k="ssr:stedsnr" v="987178" />
	</node>
	<node id="-143646" lat="60.8311972932" lon="9.49959516124">
		<tag k="alt_name" v="Austegard" />
		<tag k="fixme" v="consider place=hamlet" />
		<tag k="name" v="Austegarden" />
		<tag k="place" v="farm" />
		<tag k="ssr:stedsnr" v="987177" />
	</node>
	<node id="-143645" lat="60.8300787269" lon="9.4763142026">
		<tag k="fixme" v="consider place=hamlet" />
		<tag k="name" v="Kvål" />
		<tag k="place" v="farm" />
		<tag k="ssr:stedsnr" v="987176" />
	</node>
	<node id="-143639" lat="60.7569834243" lon="9.68428540377">
		<tag k="name" v="Søre Fønhus" />
		<tag k="place" v="farm" />
		<tag k="ssr:stedsnr" v="982349" />
	</node>
	<node id="-145686" lat="60.7975194426" lon="9.73700277783">
		<tag k="name" v="Grenden" />
		<tag k="place" v="isolated_dwelling" />
		<tag k="ssr:stedsnr" v="847160" />
	</node>
	<node id="-145685" lat="60.7495277821" lon="9.77289721431">
		<tag k="historic" v="shieling" />
		<tag k="name" v="Bringelie" />
		<tag k="place" v="locality" />
		<tag k="ssr:stedsnr" v="847143" />
	</node>
	<node id="-145684" lat="60.7900944484" lon="9.55408332759">
		<tag k="name" v="Bergaplassen" />
		<tag k="place" v="locality" />
		<tag k="ssr:stedsnr" v="847120" />
	</node>
	<node id="-143634" lat="60.7358777782" lon="9.41347222034">
		<tag k="name" v="Heggebu" />
		<tag k="place" v="isolated_dwelling" />
		<tag k="ssr:stedsnr" v="889993" />
	</node>
	<node id="-145681" lat="60.7663722211" lon="9.59535000104">
		<tag k="name" v="Tetebu" />
		<tag k="place" v="locality" />
		<tag k="ssr:stedsnr" v="847100" />
	</node>
	<node id="-143631" lat="60.8136444446" lon="9.5800527789">
		<tag k="name" v="Matbrøtin" />
		<tag k="place" v="farm" />
		<tag k="ssr:stedsnr" v="889956" />
	</node>
	<node id="-145678" lat="60.7221888867" lon="9.58174443742">
		<tag k="name" v="Sjåvidt" />
		<tag k="place" v="isolated_dwelling" />
		<tag k="ssr:stedsnr" v="847086" />
	</node>
	<node id="-143629" lat="60.7409888845" lon="9.44632499253">
		<tag k="name" v="Tørget" />
		<tag k="place" v="isolated_dwelling" />
		<tag k="ssr:stedsnr" v="889917" />
	</node>
	<node id="-145674" lat="60.8419944407" lon="9.57871110244">
		<tag k="name" v="Tøgbanin" />
		<tag k="place" v="isolated_dwelling" />
		<tag k="ssr:stedsnr" v="847843" />
	</node>
	<node id="-143622" lat="60.5662027733" lon="9.75165277787">
		<tag k="name" v="Bakkeru" />
		<tag k="place" v="locality" />
		<tag k="ssr:stedsnr" v="889698" />
	</node>
	<node id="-145668" lat="60.7420249987" lon="9.40303611914">
		<tag k="name" v="Jotobu" />
		<tag k="place" v="isolated_dwelling" />
		<tag k="ssr:stedsnr" v="834320" />
	</node>
	<node id="-143614" lat="60.6782194464" lon="9.58542222569">
		<tag k="name" v="Flatskoghytta" />
		<tag k="place" v="isolated_dwelling" />
		<tag k="ssr:stedsnr" v="889351" />
	</node>
	<node id="-145661" lat="60.81654722" lon="9.55846667242">
		<tag k="name" v="Nedre Erstad" />
		<tag k="place" v="farm" />
		<tag k="ssr:stedsnr" v="828975" />
	</node>
	<node id="-143612" lat="60.6664666628" lon="9.57967222216">
		<tag k="historic" v="shieling" />
		<tag k="name" v="Kristenvollen" />
		<tag k="place" v="locality" />
		<tag k="ssr:stedsnr" v="889312" />
	</node>
	<node id="-145658" lat="60.7627527745" lon="9.66034443991">
		<tag k="name" v="Hølera" />
		<tag k="place" v="hamlet" />
		<tag k="ssr:stedsnr" v="828898" />
	</node>
	<node id="-145657" lat="60.8169694464" lon="9.5807249943">
		<tag k="name" v="Brubakklykkja" />
		<tag k="place" v="farm" />
		<tag k="ssr:stedsnr" v="828876" />
	</node>
	<node id="-143608" lat="60.647763887" lon="9.77819444692">
		<tag k="name" v="Granheim" />
		<tag k="place" v="isolated_dwelling" />
		<tag k="ssr:stedsnr" v="889293" />
	</node>
	<node id="-145654" lat="60.7970944428" lon="9.71822499888">
		<tag k="name" v="Sveo" />
		<tag k="place" v="farm" />
		<tag k="ssr:stedsnr" v="828801" />
	</node>
	<node id="-145449" lat="60.7655777744" lon="9.54335000846">
		<tag k="historic" v="shieling" />
		<tag k="name" v="Tobakkbrenna" />
		<tag k="place" v="locality" />
		<tag k="ssr:stedsnr" v="737799" />
	</node>
	<node id="-145648" lat="60.8461333354" lon="9.50578889069">
		<tag k="name" v="Kristenbrøtin" />
		<tag k="place" v="isolated_dwelling" />
		<tag k="ssr:stedsnr" v="828720" />
	</node>
	<node id="-145646" lat="60.5493611096" lon="9.78011666117">
		<tag k="name" v="Solheim" />
		<tag k="place" v="isolated_dwelling" />
		<tag k="ssr:stedsnr" v="828671" />
	</node>
	<node id="-145645" lat="60.5551333356" lon="9.75747222055">
		<tag k="name" v="Fredtun" />
		<tag k="place" v="isolated_dwelling" />
		<tag k="ssr:stedsnr" v="828661" />
	</node>
	<node id="-143595" lat="60.7155194489" lon="9.61948333226">
		<tag k="name" v="Fjellro" />
		<tag k="place" v="isolated_dwelling" />
		<tag k="ssr:stedsnr" v="889172" />
	</node>
	<node id="-143594" lat="60.71374444" lon="9.626211102">
		<tag k="name" v="Andebu" />
		<tag k="place" v="isolated_dwelling" />
		<tag k="ssr:stedsnr" v="889171" />
	</node>
	<node id="-143399" lat="60.6875499962" lon="9.7526861021">
		<tag k="name" v="Hansebakken" />
		<tag k="place" v="isolated_dwelling" />
		<tag k="ssr:stedsnr" v="328237" />
	</node>
	<node id="-143591" lat="60.6414166653" lon="9.96891943839">
		<tag k="name" v="Tørrsjøhytta" />
		<tag k="place" v="isolated_dwelling" />
		<tag k="ssr:stedsnr" v="889077" />
	</node>
	<node id="-143589" lat="60.6363166679" lon="9.65649722295">
		<tag k="name" v="Nordre Flaten" />
		<tag k="place" v="farm" />
		<tag k="ssr:stedsnr" v="475839" />
	</node>
	<node id="-143588" lat="60.4971719007" lon="9.71251732046">
		<tag k="historic" v="shieling" />
		<tag k="name" v="Storekrak" />
		<tag k="place" v="locality" />
		<tag k="ssr:stedsnr" v="475469" />
	</node>
	<node id="-145635" lat="60.6450805529" lon="9.67327499661">
		<tag k="name" v="Kullmyrbråten" />
		<tag k="place" v="locality" />
		<tag k="ssr:stedsnr" v="828301" />
	</node>
	<node id="-145634" lat="60.6311972252" lon="9.66674444358">
		<tag k="name" v="Steinsrud" />
		<tag k="place" v="isolated_dwelling" />
		<tag k="ssr:stedsnr" v="828298" />
	</node>
	<node id="-145787" lat="60.7900416695" lon="9.56892221907">
		<tag k="alt_name" v="Skaret" />
		<tag k="name" v="Skardet" />
		<tag k="place" v="farm" />
		<tag k="ssr:stedsnr" v="859773" />
	</node>
	<node id="-145632" lat="60.6300000032" lon="9.66720556295">
		<tag k="name" v="Haglund" />
		<tag k="place" v="farm" />
		<tag k="ssr:stedsnr" v="828284" />
	</node>
	<node id="-143583" lat="60.8090472264" lon="9.56722777726">
		<tag k="name" v="Bergsund" />
		<tag k="place" v="farm" />
		<tag k="ssr:stedsnr" v="403968" />
	</node>
	<node id="-143582" lat="60.7269694425" lon="9.47892499781">
		<tag k="historic" v="shieling" />
		<tag k="name" v="Lialykkja" />
		<tag k="place" v="locality" />
		<tag k="ssr:stedsnr" v="403917" />
	</node>
	<node id="-145628" lat="60.6335083296" lon="9.53983611231">
		<tag k="historic" v="shieling" />
		<tag k="name" v="Kolvebergsæter" />
		<tag k="place" v="locality" />
		<tag k="ssr:stedsnr" v="828255" />
	</node>
	<node id="-145627" lat="60.6353361082" lon="9.60588332441">
		<tag k="amenity" v="school" />
		<tag k="name" v="Åsli" />
		<tag k="ssr:stedsnr" v="828243" />
	</node>
	<node id="-143578" lat="60.5376388857" lon="9.80989721526">
		<tag k="name" v="Sko" />
		<tag k="place" v="locality" />
		<tag k="ssr:stedsnr" v="403790" />
	</node>
	<node id="-143396" lat="60.8048138914" lon="9.70641111842">
		<tag k="alt_name" v="Brattebakke" />
		<tag k="name" v="Brattebakken" />
		<tag k="place" v="farm" />
		<tag k="ssr:stedsnr" v="313242" />
	</node>
	<node id="-145622" lat="60.6951999987" lon="9.76916944432">
		<tag k="name" v="Storbekkmoen" />
		<tag k="place" v="isolated_dwelling" />
		<tag k="ssr:stedsnr" v="828169" />
	</node>
	<node id="-143572" lat="60.637252778" lon="9.6494055554">
		<tag k="name" v="Flatner" />
		<tag k="place" v="farm" />
		<tag k="ssr:stedsnr" v="403456" />
	</node>
	<node id="-145618" lat="60.8131333302" lon="9.52781110579">
		<tag k="alt_name" v="Haugrud" />
		<tag k="name" v="Haugerud" />
		<tag k="place" v="farm" />
		<tag k="ssr:stedsnr" v="798782" />
	</node>
	<node id="-145617" lat="60.8068833317" lon="9.40389999436">
		<tag k="alt_name" v="Fjellstølen, s" />
		<tag k="historic" v="shieling" />
		<tag k="name" v="Søre Fjellstølen" />
		<tag k="old_name" v="Søndre Fjellstølen" />
		<tag k="place" v="locality" />
		<tag k="ssr:stedsnr" v="798771" />
	</node>
	<node id="-145616" lat="60.7709722194" lon="9.29794722937">
		<tag k="historic" v="shieling" />
		<tag k="name" v="Gamlestølen" />
		<tag k="place" v="locality" />
		<tag k="ssr:stedsnr" v="798753" />
	</node>
	<node id="-143567" lat="60.6293694417" lon="9.66916110204">
		<tag k="name" v="Bjerklund" />
		<tag k="place" v="farm" />
		<tag k="ssr:stedsnr" v="403280" />
	</node>
	<node id="-143566" lat="60.6519194424" lon="9.75671666629">
		<tag k="name" v="Strandbråten" />
		<tag k="place" v="isolated_dwelling" />
		<tag k="ssr:stedsnr" v="403265" />
	</node>
	<node id="-143565" lat="60.646622225" lon="9.68333333704">
		<tag k="name" v="Solbu" />
		<tag k="place" v="isolated_dwelling" />
		<tag k="ssr:stedsnr" v="403263" />
	</node>
	<node id="-143564" lat="60.6463861118" lon="9.68167778246">
		<tag k="name" v="Persbråten" />
		<tag k="place" v="isolated_dwelling" />
		<tag k="ssr:stedsnr" v="403261" />
	</node>
	<node id="-143563" lat="60.6340194405" lon="9.61280000239">
		<tag k="name" v="Søre Åslie" />
		<tag k="place" v="farm" />
		<tag k="ssr:stedsnr" v="403251" />
	</node>
	<node id="-143314" lat="60.4809833356" lon="9.82490000486">
		<tag k="alt_name" v="Goplerudsætre" />
		<tag k="historic" v="shieling" />
		<tag k="name" v="Goplerudsætra" />
		<tag k="place" v="locality" />
		<tag k="ssr:stedsnr" v="309889" />
	</node>
	<node id="-145607" lat="60.7667027774" lon="9.7150499973">
		<tag k="alt_name" v="Veslesætere" />
		<tag k="historic" v="shieling" />
		<tag k="name" v="Veslesætri" />
		<tag k="place" v="locality" />
		<tag k="ssr:stedsnr" v="798166" />
	</node>
	<node id="-145606" lat="60.7837916632" lon="9.6735166612">
		<tag k="alt_name" v="Liabekklie" />
		<tag k="name" v="Liabekklii" />
		<tag k="place" v="farm" />
		<tag k="ssr:stedsnr" v="798143" />
	</node>
	<node id="-143393" lat="60.8328962707" lon="9.50251846112">
		<tag k="alt_name" v="Høve" />
		<tag k="fixme" v="consider place=hamlet" />
		<tag k="name" v="Hove" />
		<tag k="place" v="farm" />
		<tag k="ssr:stedsnr" v="312832" />
	</node>
	<node id="-145604" lat="60.637980554" lon="9.88460556251">
		<tag k="name" v="Sørenga" />
		<tag k="place" v="farm" />
		<tag k="ssr:stedsnr" v="797000" />
	</node>
	<node id="-145603" lat="60.6231333318" lon="9.72804444838">
		<tag k="alt_name" v="Gjermundplassen" />
		<tag k="name" v="Gjermundsplass" />
		<tag k="place" v="farm" />
		<tag k="ssr:stedsnr" v="796981" />
	</node>
	<node id="-145602" lat="60.6358055593" lon="9.60400556098">
		<tag k="name" v="Bråten" />
		<tag k="place" v="farm" />
		<tag k="ssr:stedsnr" v="796976" />
	</node>
	<node id="-143553" lat="60.8236583307" lon="9.51594721649">
		<tag k="name" v="Haug" />
		<tag k="place" v="farm" />
		<tag k="ssr:stedsnr" v="373867" />
	</node>
	<node id="-143551" lat="60.7946250035" lon="9.50443611795">
		<tag k="alt_name" v="Brattrudfjøs" />
		<tag k="name" v="Fjøs" />
		<tag k="place" v="isolated_dwelling" />
		<tag k="ssr:stedsnr" v="373831" />
	</node>
	<node id="-145598" lat="60.6972277813" lon="9.89743610304">
		<tag k="name" v="Vinterhytta" />
		<tag k="place" v="locality" />
		<tag k="ssr:stedsnr" v="796916" />
	</node>
	<node id="-143733" lat="60.7655083343" lon="9.66092221966">
		<tag k="alt_name" v="Grasvee" />
		<tag k="name" v="Grosvei" />
		<tag k="place" v="farm" />
		<tag k="ssr:stedsnr" v="9108" />
	</node>
	<node id="-145594" lat="60.6153611067" lon="9.72723889494">
		<tag k="name" v="Haug" />
		<tag k="place" v="farm" />
		<tag k="ssr:stedsnr" v="796903" />
	</node>
	<node id="-143545" lat="60.8058972247" lon="9.63667500521">
		<tag k="alt_name" v="Milevasslia" />
		<tag k="name" v="Milevasslii" />
		<tag k="place" v="isolated_dwelling" />
		<tag k="ssr:stedsnr" v="373236" />
	</node>
	<node id="-145591" lat="60.6138277757" lon="9.69156388591">
		<tag k="name" v="Brenna" />
		<tag k="place" v="farm" />
		<tag k="ssr:stedsnr" v="796897" />
	</node>
	<node id="-145589" lat="60.5567888877" lon="9.75392499659">
		<tag k="alt_name" v="Fossholt, nedre" />
		<tag k="name" v="Nedre Fossholt" />
		<tag k="place" v="farm" />
		<tag k="ssr:stedsnr" v="796850" />
	</node>
	<node id="-145588" lat="60.5741055524" lon="9.85250833832">
		<tag k="name" v="Strømsbråtan" />
		<tag k="place" v="locality" />
		<tag k="ssr:stedsnr" v="796836" />
	</node>
	<node id="-143539" lat="60.8279237369" lon="9.4628958173">
		<tag k="alt_name" v="Røang" />
		<tag k="fixme" v="consider place=hamlet" />
		<tag k="name" v="Rødang" />
		<tag k="place" v="farm" />
		<tag k="ssr:stedsnr" v="372887" />
	</node>
	<node id="-145586" lat="60.5893999957" lon="9.46180278294">
		<tag k="historic" v="shieling" />
		<tag k="name" v="Slasætra" />
		<tag k="place" v="locality" />
		<tag k="ssr:stedsnr" v="796826" />
	</node>
	<node id="-145585" lat="60.7403749971" lon="9.62323889621">
		<tag k="alt_name" v="Faksolatn" />
		<tag k="name" v="Fakshola" />
		<tag k="place" v="isolated_dwelling" />
		<tag k="ssr:stedsnr" v="796816" />
	</node>
	<node id="-145584" lat="60.7463638919" lon="9.65540555613">
		<tag k="alt_name" v="Sæterbygda" />
		<tag k="name" v="Sæterbygdi" />
		<tag k="place" v="hamlet" />
		<tag k="ssr:stedsnr" v="796808" />
	</node>
	<node id="-145583" lat="60.7486555573" lon="9.6573166719">
		<tag k="alt_name" v="Sætri, øvre" />
		<tag k="name" v="Øvre Sætri" />
		<tag k="place" v="farm" />
		<tag k="ssr:stedsnr" v="796802" />
	</node>
	<node id="-145582" lat="60.5367611151" lon="9.47108333248">
		<tag k="name" v="Skjerberget" />
		<tag k="place" v="farm" />
		<tag k="ssr:stedsnr" v="796770" />
	</node>
	<node id="-143533" lat="60.8691749967" lon="9.44649166197">
		<tag k="alt_name" v="Sagbrøtin" />
		<tag k="name" v="Sagbråten" />
		<tag k="place" v="farm" />
		<tag k="ssr:stedsnr" v="372704" />
	</node>
	<node id="-145580" lat="60.6352249963" lon="9.50839722758">
		<tag k="historic" v="shieling" />
		<tag k="name" v="Aurtjernåsen" />
		<tag k="place" v="locality" />
		<tag k="ssr:stedsnr" v="796638" />
	</node>
	<node id="-145579" lat="60.6452888917" lon="10.0022444373">
		<tag k="name" v="Storbråtåsætra" />
		<tag k="place" v="isolated_dwelling" />
		<tag k="ssr:stedsnr" v="796636" />
	</node>
	<node id="-143353" lat="60.6484583329" lon="9.76451666636">
		<tag k="name" v="Heia" />
		<tag k="place" v="farm" />
		<tag k="ssr:stedsnr" v="310925" />
	</node>
	<node id="-145575" lat="60.6481833306" lon="9.7751472307">
		<tag k="name" v="Jordet" />
		<tag k="place" v="farm" />
		<tag k="ssr:stedsnr" v="795968" />
	</node>
	<node id="-143729" lat="60.8502250023" lon="9.4857305593">
		<tag k="alt_name" v="Rusehøgde" />
		<tag k="name" v="Rusehøgda" />
		<tag k="place" v="isolated_dwelling" />
		<tag k="ssr:stedsnr" v="8675" />
	</node>
	<node id="-143523" lat="60.7300757034" lon="9.68809761774">
		<tag k="fixme" v="consider place=hamlet" />
		<tag k="name" v="Åsen" />
		<tag k="place" v="farm" />
		<tag k="ssr:stedsnr" v="371937" />
	</node>
	<node id="-145570" lat="60.6681333374" lon="9.84101111502">
		<tag k="alt_name" v="Skarsætra" />
		<tag k="historic" v="shieling" />
		<tag k="name" v="Skardsætra" />
		<tag k="place" v="locality" />
		<tag k="ssr:stedsnr" v="795942" />
	</node>
	<node id="-145569" lat="60.5823746507" lon="9.75609870595">
		<tag k="alt_name" v="Søre Fekjær;Fekjær søndre" />
		<tag k="fixme" v="consider place=hamlet" />
		<tag k="name" v="Fetjar" />
		<tag k="place" v="farm" />
		<tag k="ssr:stedsnr" v="795938" />
	</node>
	<node id="-143728" lat="60.6369750031" lon="9.90310832846">
		<tag k="alt_name" v="Jenserud" />
		<tag k="name" v="Jensrud" />
		<tag k="place" v="farm" />
		<tag k="ssr:stedsnr" v="7994" />
	</node>
	<node id="-145566" lat="60.6767666709" lon="9.74729999976">
		<tag k="alt_name" v="Hesjebakken" />
		<tag k="name" v="Hesjabakken" />
		<tag k="place" v="farm" />
		<tag k="ssr:stedsnr" v="795915" />
	</node>
	<node id="-145565" lat="60.6043500014" lon="9.88112499397">
		<tag k="historic" v="shieling" />
		<tag k="name" v="Midtsætra" />
		<tag k="place" v="locality" />
		<tag k="ssr:stedsnr" v="795914" />
	</node>
	<node id="-143516" lat="60.619050004" lon="9.70845276917">
		<tag k="fixme" v="multiple name tags, choose one and add the other to alt_name" />
		<tag k="name" v="Børthus;Midtby" />
		<tag k="place" v="farm" />
		<tag k="ssr:stedsnr" v="371880" />
	</node>
	<node id="-143515" lat="60.701466877" lon="9.73217663301">
		<tag k="alt_name" v="Rustbakke" />
		<tag k="fixme" v="consider place=hamlet" />
		<tag k="name" v="Rustebakke" />
		<tag k="place" v="farm" />
		<tag k="ssr:stedsnr" v="371879" />
	</node>
	<node id="-143514" lat="60.5204777793" lon="9.74019999763">
		<tag k="name" v="Fjellsætra" />
		<tag k="place" v="locality" />
		<tag k="ssr:stedsnr" v="371874" />
	</node>
	<node id="-145561" lat="60.5962361095" lon="9.7453333289">
		<tag k="alt_name" v="Brakar, s;Søre Brager" />
		<tag k="name" v="Søre Brakar" />
		<tag k="place" v="farm" />
		<tag k="ssr:stedsnr" v="795908" />
	</node>
	<node id="-145560" lat="60.6781111119" lon="9.859208325">
		<tag k="name" v="Ruglihytta" />
		<tag k="place" v="isolated_dwelling" />
		<tag k="ssr:stedsnr" v="795906" />
	</node>
	<node id="-145559" lat="60.5991277738" lon="9.74315000309">
		<tag k="building" v="commercial" />
		<tag k="name" v="Nordby" />
		<tag k="ssr:stedsnr" v="795907" />
	</node>
	<node id="-143510" lat="60.5519555539" lon="9.76616943579">
		<tag k="name" v="Beinstigen" />
		<tag k="place" v="farm" />
		<tag k="ssr:stedsnr" v="371834" />
	</node>
	<node id="-143509" lat="60.557497224" lon="9.7178777736">
		<tag k="alt_name" v="Pinihjel" />
		<tag k="name" v="Pinihel" />
		<tag k="place" v="isolated_dwelling" />
		<tag k="ssr:stedsnr" v="371833" />
	</node>
	<node id="-145555" lat="60.5509222245" lon="9.5828305625">
		<tag k="alt_name" v="Hangensætra" />
		<tag k="name" v="Hangen" />
		<tag k="place" v="isolated_dwelling" />
		<tag k="ssr:stedsnr" v="795864" />
	</node>
	<node id="-143506" lat="60.74724444" lon="9.67250832669">
		<tag k="alt_name" v="Hansebrøtin" />
		<tag k="name" v="Hansebråten" />
		<tag k="place" v="farm" />
		<tag k="ssr:stedsnr" v="371795" />
	</node>
	<node id="-145552" lat="60.6897583308" lon="9.32868056009">
		<tag k="alt_name" v="Øvre Rivopp" />
		<tag k="name" v="Rivopp" />
		<tag k="place" v="isolated_dwelling" />
		<tag k="ssr:stedsnr" v="795715" />
	</node>
	<node id="-145551" lat="60.6398499971" lon="9.58763333459">
		<tag k="name" v="Åslibråten" />
		<tag k="place" v="farm" />
		<tag k="ssr:stedsnr" v="795673" />
	</node>
	<node id="-145549" lat="60.6393388882" lon="9.39203888808">
		<tag k="historic" v="shieling" />
		<tag k="name" v="Endresætra" />
		<tag k="place" v="locality" />
		<tag k="ssr:stedsnr" v="795668" />
	</node>
	<node id="-145548" lat="60.7405833292" lon="9.38034999715">
		<tag k="name" v="Musebu" />
		<tag k="place" v="isolated_dwelling" />
		<tag k="ssr:stedsnr" v="787982" />
	</node>
	<node id="-145547" lat="60.7616388918" lon="9.4225305583">
		<tag k="historic" v="shieling" />
		<tag k="name" v="Haugasætere" />
		<tag k="place" v="locality" />
		<tag k="ssr:stedsnr" v="786971" />
	</node>
	<node id="-145546" lat="60.7651666655" lon="9.4120388818">
		<tag k="historic" v="shieling" />
		<tag k="name" v="Vøllstrøe" />
		<tag k="place" v="locality" />
		<tag k="ssr:stedsnr" v="786966" />
	</node>
	<node id="-145545" lat="60.7322777765" lon="9.43667221562">
		<tag k="historic" v="shieling" />
		<tag k="name" v="Brattrudbukfyll" />
		<tag k="place" v="locality" />
		<tag k="ssr:stedsnr" v="786932" />
	</node>
	<node id="-143496" lat="60.6581916646" lon="9.73904722646">
		<tag k="alt_name" v="Urholt" />
		<tag k="name" v="Urdholt" />
		<tag k="place" v="farm" />
		<tag k="ssr:stedsnr" v="370960" />
	</node>
	<node id="-145542" lat="60.8301888923" lon="9.50607777926">
		<tag k="name" v="Haslo" />
		<tag k="place" v="farm" />
		<tag k="ssr:stedsnr" v="786837" />
	</node>
	<node id="-145541" lat="60.707302776" lon="9.39272778088">
		<tag k="name" v="Dampsaga" />
		<tag k="place" v="locality" />
		<tag k="ssr:stedsnr" v="786836" />
	</node>
	<node id="-143492" lat="60.6697999988" lon="9.89460277979">
		<tag k="fixme" v="multiple name tags, choose one and add the other to alt_name" />
		<tag k="name" v="Buheim;Damvassbu" />
		<tag k="place" v="isolated_dwelling" />
		<tag k="ssr:stedsnr" v="370935" />
	</node>
	<node id="-143489" lat="60.6047527761" lon="9.8702500054">
		<tag k="name" v="Gudbrandsdammen" />
		<tag k="place" v="isolated_dwelling" />
		<tag k="ssr:stedsnr" v="370923" />
	</node>
	<node id="-145536" lat="60.6527111109" lon="9.84716388125">
		<tag k="name" v="Bjørke" />
		<tag k="place" v="isolated_dwelling" />
		<tag k="ssr:stedsnr" v="786724" />
	</node>
	<node id="-143488" lat="60.6057582541" lon="9.74792354678">
		<tag k="fixme" v="consider place=hamlet" />
		<tag k="name" v="Brunbakke" />
		<tag k="place" v="farm" />
		<tag k="ssr:stedsnr" v="370906" />
	</node>
	<node id="-143485" lat="60.6976361098" lon="9.58113888872">
		<tag k="alt_name" v="Kollsæter" />
		<tag k="name" v="Kollsætri" />
		<tag k="place" v="locality" />
		<tag k="ssr:stedsnr" v="370713" />
	</node>
	<node id="-143483" lat="60.701197222" lon="9.46032500044">
		<tag k="alt_name" v="Veneslette" />
		<tag k="historic" v="shieling" />
		<tag k="name" v="Venesletti" />
		<tag k="place" v="locality" />
		<tag k="ssr:stedsnr" v="370706" />
	</node>
	<node id="-145529" lat="60.6209499992" lon="9.71117499506">
		<tag k="name" v="Solberg" />
		<tag k="place" v="isolated_dwelling" />
		<tag k="ssr:stedsnr" v="786459" />
	</node>
	<node id="-145528" lat="60.6229972181" lon="9.68648610261">
		<tag k="name" v="Haug" />
		<tag k="place" v="farm" />
		<tag k="ssr:stedsnr" v="786452" />
	</node>
	<node id="-145527" lat="60.6783944487" lon="9.52314166935">
		<tag k="name" v="Smørhølet" />
		<tag k="place" v="isolated_dwelling" />
		<tag k="ssr:stedsnr" v="786450" />
	</node>
	<node id="-145775" lat="60.8336694487" lon="9.56448056481">
		<tag k="alt_name" v="Gubberud, nordre" />
		<tag k="name" v="Nordre Gubberud" />
		<tag k="place" v="isolated_dwelling" />
		<tag k="ssr:stedsnr" v="858861" />
	</node>
	<node id="-145525" lat="60.8647527739" lon="9.40557777277">
		<tag k="name" v="Torsteinsvøll" />
		<tag k="place" v="isolated_dwelling" />
		<tag k="ssr:stedsnr" v="786357" />
	</node>
	<node id="-145524" lat="60.8596500039" lon="9.43204443594">
		<tag k="name" v="Kakhus" />
		<tag k="place" v="locality" />
		<tag k="ssr:stedsnr" v="786355" />
	</node>
	<node id="-143379" lat="60.8519694484" lon="9.48450277284">
		<tag k="name" v="Brenna" />
		<tag k="place" v="farm" />
		<tag k="ssr:stedsnr" v="312631" />
	</node>
	<node id="-143468" lat="60.8404750023" lon="9.4090749922">
		<tag k="amenity" v="school" />
		<tag k="name" v="Stavadalen" />
		<tag k="ssr:stedsnr" v="361764" />
	</node>
	<node id="-145734" lat="60.5886694409" lon="9.76055833652">
		<tag k="name" v="Perlesteinbakken" />
		<tag k="place" v="farm" />
		<tag k="ssr:stedsnr" v="856939" />
	</node>
	<node id="-143463" lat="60.6167055555" lon="9.73780832518">
		<tag k="name" v="Sørlibakken" />
		<tag k="place" v="farm" />
		<tag k="ssr:stedsnr" v="361544" />
	</node>
	<node id="-145510" lat="60.7918388878" lon="9.57965555256">
		<tag k="name" v="Nedre Kamben" />
		<tag k="place" v="farm" />
		<tag k="ssr:stedsnr" v="786098" />
	</node>
	<node id="-145507" lat="60.6624027781" lon="9.93956943926">
		<tag k="name" v="Hansenhytta" />
		<tag k="place" v="locality" />
		<tag k="ssr:stedsnr" v="786004" />
	</node>
	<node id="-145506" lat="60.6051111136" lon="9.54694722726">
		<tag k="name" v="Søbekksæter Fjellstue" />
		<tag k="ssr:stedsnr" v="783696" />
		<tag k="tourism" v="guest_house" />
	</node>
	<node id="-145504" lat="60.5627944468" lon="9.74452499214">
		<tag k="name" v="Søre Landsenden" />
		<tag k="place" v="farm" />
		<tag k="ssr:stedsnr" v="778677" />
	</node>
	<node id="-145503" lat="60.5913527771" lon="9.75015000403">
		<tag k="name" v="Øvre Kjensrud" />
		<tag k="place" v="farm" />
		<tag k="ssr:stedsnr" v="778558" />
	</node>
	<node id="-143555" lat="60.7610027809" lon="9.44591943647">
		<tag k="name" v="Ellingsæter" />
		<tag k="ssr:stedsnr" v="388287" />
		<tag k="tourism" v="guest_house" />
	</node>
	<node id="-145497" lat="60.8144750035" lon="9.59977777672">
		<tag k="name" v="Skogli" />
		<tag k="place" v="locality" />
		<tag k="ssr:stedsnr" v="767969" />
	</node>
	<node id="-145496" lat="60.7127083364" lon="9.46655277733">
		<tag k="name" v="Saghytta" />
		<tag k="place" v="isolated_dwelling" />
		<tag k="ssr:stedsnr" v="767923" />
	</node>
	<node id="-143716" lat="60.735388892" lon="9.70778055983">
		<tag k="alt_name" v="Nedre Helland" />
		<tag k="name" v="Helandshølen" />
		<tag k="place" v="farm" />
		<tag k="ssr:stedsnr" v="7946" />
	</node>
	<node id="-143444" lat="60.7500055575" lon="9.66532221706">
		<tag k="name" v="Nedre Sæteren" />
		<tag k="place" v="farm" />
		<tag k="ssr:stedsnr" v="361138" />
	</node>
	<node id="-145489" lat="60.5474694489" lon="9.79959721426">
		<tag k="name" v="Nybrenne" />
		<tag k="place" v="isolated_dwelling" />
		<tag k="ssr:stedsnr" v="767748" />
	</node>
	<node id="-145487" lat="60.8574388859" lon="9.47751388398">
		<tag k="name" v="Skogly" />
		<tag k="place" v="farm" />
		<tag k="ssr:stedsnr" v="767741" />
	</node>
	<node id="-145486" lat="60.8624333312" lon="9.47372778584">
		<tag k="name" v="Nerli" />
		<tag k="place" v="isolated_dwelling" />
		<tag k="ssr:stedsnr" v="767736" />
	</node>
	<node id="-145485" lat="60.5654666652" lon="9.74292222575">
		<tag k="name" v="Ospebakken" />
		<tag k="place" v="farm" />
		<tag k="ssr:stedsnr" v="767700" />
	</node>
	<node id="-145484" lat="60.5416638862" lon="9.76018611601">
		<tag k="name" v="Bekkestua" />
		<tag k="place" v="isolated_dwelling" />
		<tag k="ssr:stedsnr" v="767686" />
	</node>
	<node id="-145483" lat="60.549024998" lon="9.77959723126">
		<tag k="name" v="Neråker" />
		<tag k="place" v="isolated_dwelling" />
		<tag k="ssr:stedsnr" v="767679" />
	</node>
	<node id="-145482" lat="60.5559694453" lon="9.7577916622">
		<tag k="name" v="Fossholthagen" />
		<tag k="place" v="farm" />
		<tag k="ssr:stedsnr" v="767668" />
	</node>
	<node id="-145873" lat="60.6431027744" lon="9.64233888942">
		<tag k="name" v="Nordbyhagen" />
		<tag k="place" v="farm" />
		<tag k="ssr:stedsnr" v="917954" />
	</node>
	<node id="-145478" lat="60.6196805565" lon="9.91373889791">
		<tag k="name" v="Bjerknes" />
		<tag k="place" v="isolated_dwelling" />
		<tag k="ssr:stedsnr" v="767508" />
	</node>
	<node id="-145475" lat="60.6279861086" lon="9.66339722559">
		<tag k="name" v="Dokkehaug" />
		<tag k="place" v="farm" />
		<tag k="ssr:stedsnr" v="767467" />
	</node>
	<node id="-145471" lat="60.653983332" lon="9.43917499544">
		<tag k="historic" v="shieling" />
		<tag k="name" v="Nordgardssæter" />
		<tag k="place" v="locality" />
		<tag k="ssr:stedsnr" v="767292" />
	</node>
	<node id="-143606" lat="60.6470166699" lon="9.68215000098">
		<tag k="name" v="Sollie" />
		<tag k="place" v="isolated_dwelling" />
		<tag k="ssr:stedsnr" v="889289" />
	</node>
	<node id="-143416" lat="60.6498083375" lon="9.73654166954">
		<tag k="name" v="Blekkelien" />
		<tag k="place" v="locality" />
		<tag k="ssr:stedsnr" v="342268" />
	</node>
	<node id="-143414" lat="60.6412166686" lon="9.64209166102">
		<tag k="name" v="Nordbyhaugen" />
		<tag k="place" v="farm" />
		<tag k="ssr:stedsnr" v="342262" />
	</node>
	<node id="-145461" lat="60.7085833339" lon="9.7035138868">
		<tag k="name" v="Høgsrudhytta" />
		<tag k="place" v="isolated_dwelling" />
		<tag k="ssr:stedsnr" v="767175" />
	</node>
	<node id="-145460" lat="60.7063638863" lon="9.71160833352">
		<tag k="name" v="Haugtun" />
		<tag k="place" v="isolated_dwelling" />
		<tag k="ssr:stedsnr" v="767174" />
	</node>
	<node id="-143411" lat="60.641874998" lon="9.58310278131">
		<tag k="name" v="Frekheimen" />
		<tag k="place" v="locality" />
		<tag k="ssr:stedsnr" v="342256" />
	</node>
	<node id="-145458" lat="60.7422833315" lon="9.70919444189">
		<tag k="name" v="Nedre Eid" />
		<tag k="place" v="isolated_dwelling" />
		<tag k="ssr:stedsnr" v="767127" />
	</node>
	<node id="-145457" lat="60.7460583345" lon="9.70744443544">
		<tag k="name" v="Heiebrøtin" />
		<tag k="place" v="farm" />
		<tag k="ssr:stedsnr" v="767125" />
	</node>
	<node id="-143408" lat="60.6398888848" lon="9.59435833971">
		<tag k="name" v="Heiene" />
		<tag k="place" v="farm" />
		<tag k="ssr:stedsnr" v="342244" />
	</node>
	<node id="-145455" lat="60.6470166643" lon="9.87157499397">
		<tag k="name" v="Odden" />
		<tag k="place" v="isolated_dwelling" />
		<tag k="ssr:stedsnr" v="748727" />
	</node>
	<node id="-145454" lat="60.8311749993" lon="9.46210276964">
		<tag k="name" v="Slottet" />
		<tag k="place" v="farm" />
		<tag k="ssr:stedsnr" v="737857" />
	</node>
	<node id="-145453" lat="60.8348499978" lon="9.47304999132">
		<tag k="name" v="Navrud" />
		<tag k="place" v="farm" />
		<tag k="ssr:stedsnr" v="737854" />
	</node>
	<node id="-145451" lat="60.804681296" lon="9.53944003387">
		<tag k="alt_name" v="Tronrud" />
		<tag k="fixme" v="consider place=hamlet" />
		<tag k="name" v="Trondrud" />
		<tag k="place" v="farm" />
		<tag k="ssr:stedsnr" v="737817" />
	</node>
	<node id="-145872" lat="60.719769449" lon="9.70986665827">
		<tag k="name" v="Lybekk" />
		<tag k="place" v="farm" />
		<tag k="ssr:stedsnr" v="917947" />
	</node>
	<node id="-145448" lat="60.7653666674" lon="9.48850277753">
		<tag k="alt_name" v="Høvssætrene" />
		<tag k="historic" v="shieling" />
		<tag k="name" v="Hovsætrin" />
		<tag k="place" v="locality" />
		<tag k="ssr:stedsnr" v="737798" />
	</node>
	<node id="-145447" lat="60.7832972184" lon="9.45822221823">
		<tag k="fixme" v="multiple name tags, choose one and add the other to alt_name" />
		<tag k="historic" v="shieling" />
		<tag k="name" v="Ølnessætere;Ølnessætrin" />
		<tag k="place" v="locality" />
		<tag k="ssr:stedsnr" v="737787" />
	</node>
	<node id="-143398" lat="60.7595899141" lon="9.4672568884">
		<tag k="alt_name" v="Huldrabakke" />
		<tag k="historic" v="shieling" />
		<tag k="name" v="Huldrebakkesætri" />
		<tag k="place" v="locality" />
		<tag k="ssr:stedsnr" v="313781" />
	</node>
	<node id="-145444" lat="60.6464749959" lon="9.85140833259">
		<tag k="name" v="Skåne" />
		<tag k="place" v="isolated_dwelling" />
		<tag k="ssr:stedsnr" v="737683" />
	</node>
	<node id="-145443" lat="60.8011111074" lon="9.71267500786">
		<tag k="name" v="Bergseng" />
		<tag k="place" v="farm" />
		<tag k="ssr:stedsnr" v="737230" />
	</node>
	<node id="-145442" lat="60.8048750026" lon="9.72082222194">
		<tag k="name" v="Nybråten" />
		<tag k="place" v="farm" />
		<tag k="ssr:stedsnr" v="737229" />
	</node>
	<node id="-145441" lat="60.7937083333" lon="9.64775554637">
		<tag k="alt_name" v="Skaran;Skaran, øvre" />
		<tag k="name" v="Øvre Skaran" />
		<tag k="place" v="farm" />
		<tag k="ssr:stedsnr" v="737207" />
	</node>
	<node id="-143392" lat="60.8312722249" lon="9.56756389416">
		<tag k="alt_name" v="Gubberud, s" />
		<tag k="name" v="Søre Gubberud" />
		<tag k="place" v="isolated_dwelling" />
		<tag k="ssr:stedsnr" v="312830" />
	</node>
	<node id="-145439" lat="60.8030414577" lon="9.72796818971">
		<tag k="alt_name" v="Leikebakken" />
		<tag k="fixme" v="consider place=hamlet" />
		<tag k="name" v="Leikebakke" />
		<tag k="place" v="farm" />
		<tag k="ssr:stedsnr" v="737199" />
	</node>
	<node id="-145438" lat="60.7559805586" lon="9.66120832495">
		<tag k="name" v="Kløvstad" />
		<tag k="place" v="farm" />
		<tag k="ssr:stedsnr" v="737151" />
	</node>
	<node id="-145436" lat="60.7884972193" lon="9.67297500138">
		<tag k="alt_name" v="Lii, øvre" />
		<tag k="name" v="Øvre Lii" />
		<tag k="place" v="farm" />
		<tag k="ssr:stedsnr" v="737145" />
	</node>
	<node id="-143387" lat="60.7954666708" lon="9.54754999108">
		<tag k="alt_name" v="Gjuvesætere" />
		<tag k="name" v="Gjuvesætri" />
		<tag k="place" v="farm" />
		<tag k="ssr:stedsnr" v="312814" />
	</node>
	<node id="-145434" lat="60.7909055521" lon="9.59558889427">
		<tag k="alt_name" v="Leite, nordre" />
		<tag k="name" v="Nordre Leite" />
		<tag k="place" v="farm" />
		<tag k="ssr:stedsnr" v="737138" />
	</node>
	<node id="-145433" lat="60.7880472195" lon="9.66552500468">
		<tag k="alt_name" v="Liamyra" />
		<tag k="name" v="Liamyri" />
		<tag k="place" v="farm" />
		<tag k="ssr:stedsnr" v="737134" />
	</node>
	<node id="-143384" lat="60.8053444401" lon="9.54629166749">
		<tag k="alt_name" v="Tosteinbrøtin" />
		<tag k="name" v="Torsteinbråten" />
		<tag k="place" v="farm" />
		<tag k="ssr:stedsnr" v="312785" />
	</node>
	<node id="-143383" lat="60.8078250019" lon="9.57985556092">
		<tag k="alt_name" v="Bergabrøtin" />
		<tag k="name" v="Bergabråten" />
		<tag k="place" v="farm" />
		<tag k="ssr:stedsnr" v="312782" />
	</node>
	<node id="-143382" lat="60.7689249992" lon="9.4428749947">
		<tag k="alt_name" v="Langsætrene" />
		<tag k="historic" v="shieling" />
		<tag k="name" v="Langsætrin" />
		<tag k="place" v="locality" />
		<tag k="ssr:stedsnr" v="312768" />
	</node>
	<node id="-145429" lat="60.8350537009" lon="9.42497613021">
		<tag k="fixme" v="consider place=hamlet" />
		<tag k="name" v="Bøle" />
		<tag k="place" v="farm" />
		<tag k="ssr:stedsnr" v="737637" />
	</node>
	<node id="-145428" lat="60.8310416655" lon="9.3513083368">
		<tag k="alt_name" v="Jonsrud" />
		<tag k="name" v="Jonsrudsætri" />
		<tag k="place" v="locality" />
		<tag k="ssr:stedsnr" v="737636" />
	</node>
	<node id="-145427" lat="60.8733611141" lon="9.45636944426">
		<tag k="alt_name" v="Tøilehaugen" />
		<tag k="name" v="Tollevshaugen" />
		<tag k="place" v="farm" />
		<tag k="ssr:stedsnr" v="736728" />
	</node>
	<node id="-145426" lat="60.8700194459" lon="9.45436111848">
		<tag k="alt_name" v="Rugbrøtin" />
		<tag k="name" v="Rugbråten" />
		<tag k="place" v="farm" />
		<tag k="ssr:stedsnr" v="736701" />
	</node>
	<node id="-145425" lat="60.8609445738" lon="9.40710623904">
		<tag k="alt_name" v="Liastølatn" />
		<tag k="historic" v="shieling" />
		<tag k="name" v="Liastølen" />
		<tag k="place" v="locality" />
		<tag k="ssr:stedsnr" v="736681" />
	</node>
	<node id="-145424" lat="60.8591638869" lon="9.44440000137">
		<tag k="name" v="Dugurdshaugen" />
		<tag k="place" v="isolated_dwelling" />
		<tag k="ssr:stedsnr" v="736679" />
	</node>
	<node id="-145423" lat="60.8491425339" lon="9.51702167806">
		<tag k="alt_name" v="Kirkeberg" />
		<tag k="fixme" v="consider place=hamlet" />
		<tag k="name" v="Kyrkjebjørgo" />
		<tag k="place" v="farm" />
		<tag k="ssr:stedsnr" v="736657" />
	</node>
	<node id="-143374" lat="60.7757055592" lon="9.59518888089">
		<tag k="alt_name" v="Brenn, øvre;Øvre Brenne" />
		<tag k="name" v="Øvre Brenn" />
		<tag k="place" v="farm" />
		<tag k="ssr:stedsnr" v="312109" />
	</node>
	<node id="-145421" lat="60.634219444" lon="9.88742499681">
		<tag k="name" v="Molstad" />
		<tag k="place" v="farm" />
		<tag k="ssr:stedsnr" v="736000" />
	</node>
	<node id="-143371" lat="60.6230861082" lon="9.64286943936">
		<tag k="name" v="Maurlia" />
		<tag k="place" v="isolated_dwelling" />
		<tag k="ssr:stedsnr" v="310988" />
	</node>
	<node id="-143367" lat="60.6363333364" lon="9.62341110433">
		<tag k="name" v="Åsheim" />
		<tag k="place" v="farm" />
		<tag k="ssr:stedsnr" v="310978" />
	</node>
	<node id="-143366" lat="60.6312667471" lon="9.67601226152">
		<tag k="alt_name" v="Stugård" />
		<tag k="fixme" v="consider place=hamlet" />
		<tag k="name" v="Stugarden" />
		<tag k="place" v="farm" />
		<tag k="ssr:stedsnr" v="310976" />
	</node>
	<node id="-143365" lat="60.6318361095" lon="9.66014165778">
		<tag k="alt_name" v="Mellgard, nordre" />
		<tag k="name" v="Nedre Melgård" />
		<tag k="place" v="farm" />
		<tag k="ssr:stedsnr" v="310974" />
	</node>
	<node id="-143364" lat="60.6328027747" lon="9.69296944795">
		<tag k="name" v="Bjørgan" />
		<tag k="place" v="farm" />
		<tag k="ssr:stedsnr" v="310970" />
	</node>
	<node id="-143363" lat="60.650802782" lon="9.83269999111">
		<tag k="name" v="Oppheim" />
		<tag k="place" v="farm" />
		<tag k="ssr:stedsnr" v="310965" />
	</node>
	<node id="-145410" lat="60.6334611098" lon="9.6570750017">
		<tag k="alt_name" v="Flaten, nordre" />
		<tag k="name" v="Nedre Flaten" />
		<tag k="place" v="farm" />
		<tag k="ssr:stedsnr" v="735975" />
	</node>
</osm>
