<?xml version="1.0" encoding="UTF-8"?>
<osm generator="osmapis" version="0.6">
	<node id="-144704" lat="60.8314194421" lon="9.49305000765">
		<tag k="amenity" v="place_of_worship" />
		<tag k="denomination" v="lutheran" />
		<tag k="name" v="Reinli stavkyrkje" />
		<tag k="religion" v="christian" />
		<tag k="ssr:stedsnr" v="465385" />
	</node>
	<node id="-145919" lat="60.7831333359" lon="9.59911388055">
		<tag k="name" v="Bagn bygdesamling" />
		<tag k="ssr:stedsnr" v="908091" />
		<tag k="tourism" v="museum" />
	</node>
	<node id="-144926" lat="60.8202138915" lon="9.56356945004">
		<tag k="amenity" v="place_of_worship" />
		<tag k="denomination" v="lutheran" />
		<tag k="name" v="Bagn kyrkje" />
		<tag k="religion" v="christian" />
		<tag k="ssr:stedsnr" v="544197" />
	</node>
	<node id="-144093" lat="60.5993277735" lon="9.74386943879">
		<tag k="amenity" v="community_centre" />
		<tag k="name" v="Solheim" />
		<tag k="ssr:stedsnr" v="119499" />
	</node>
	<node id="-144708" lat="60.74008333" lon="9.43604166405">
		<tag k="amenity" v="place_of_worship" />
		<tag k="denomination" v="lutheran" />
		<tag k="name" v="Veståskapellet" />
		<tag k="religion" v="christian" />
		<tag k="ssr:stedsnr" v="481782" />
	</node>
	<node id="-145183" lat="60.622461112" lon="9.69073333206">
		<tag k="alt_name" v="Hedalen" />
		<tag k="amenity" v="place_of_worship" />
		<tag k="denomination" v="lutheran" />
		<tag k="name" v="Hedalen stavkirke" />
		<tag k="old_name" v="Hedal" />
		<tag k="religion" v="christian" />
		<tag k="ssr:stedsnr" v="613991" />
	</node>
	<node id="-144884" lat="60.7400916709" lon="9.43604722408">
		<tag k="amenity" v="community_centre" />
		<tag k="name" v="Veståskapellet" />
		<tag k="ssr:stedsnr" v="524993" />
	</node>
	<node id="-145365" lat="60.7089194459" lon="9.89572777473">
		<tag k="alt_name" v="Hestdalsæter" />
		<tag k="name" v="Hestedalsætra" />
		<tag k="place" v="locality" />
		<tag k="ssr:stedsnr" v="675889" />
	</node>
	<node id="-145236" lat="60.5591083308" lon="9.75119165966">
		<tag k="amenity" v="community_centre" />
		<tag k="name" v="Sør-Hedalen ungdomslokale" />
		<tag k="ssr:stedsnr" v="645668" />
	</node>
	<node id="-145169" lat="60.648519444" lon="9.73157500686">
		<tag k="name" v="Kvilestein" />
		<tag k="place" v="locality" />
		<tag k="ssr:stedsnr" v="613934" />
	</node>
	<node id="-145389" lat="60.7977472247" lon="9.68234166148">
		<tag k="amenity" v="place_of_worship" />
		<tag k="denomination" v="lutheran" />
		<tag k="name" v="Leirskogen kyrkje" />
		<tag k="religion" v="christian" />
		<tag k="ssr:stedsnr" v="677215" />
	</node>
	<node id="-144599" lat="60.6584666687" lon="9.71586944116">
		<tag k="name" v="Søre Skardsætra" />
		<tag k="place" v="locality" />
		<tag k="ssr:stedsnr" v="431936" />
	</node>
	<node id="-144872" lat="60.556958334" lon="9.75656110848">
		<tag k="amenity" v="community_centre" />
		<tag k="name" v="Bjørnerud" />
		<tag k="ssr:stedsnr" v="524648" />
	</node>
	<node id="-144166" lat="60.6476833296" lon="9.78353611455">
		<tag k="amenity" v="place_of_worship" />
		<tag k="denomination" v="lutheran" />
		<tag k="name" v="Begnadalen kirke" />
		<tag k="old_name" v="Begndal;Begndalen kirke" />
		<tag k="religion" v="christian" />
		<tag k="ssr:stedsnr" v="128951" />
	</node>
	<node id="-145220" lat="60.6908055533" lon="9.99440000447">
		<tag k="name" v="Landheim" />
		<tag k="place" v="locality" />
		<tag k="ssr:stedsnr" v="645102" />
	</node>
	<node id="-145385" lat="60.830908331" lon="9.49274722766">
		<tag k="amenity" v="place_of_worship" />
		<tag k="denomination" v="lutheran" />
		<tag k="name" v="Reinli kapell" />
		<tag k="religion" v="christian" />
		<tag k="ssr:stedsnr" v="676841" />
	</node>
</osm>
