<?xml version="1.0" encoding="UTF-8"?>
<osm version="0.6" generator="osmapis">
	<node id="288088959" lat="64.4451504" lon="13.7159574" version="2" timestamp="2022-06-15T11:14:02Z" changeset="122412992" uid="3497659" user="NKA">
		<tag k="name" v="Holand" />
		<tag k="place" v="hamlet" />
		<tag k="ssr:stedsnr" v="559123" />
	</node>
	<node id="288088960" lat="64.2480778" lon="13.7517758" version="2" timestamp="2022-06-15T11:14:02Z" changeset="122412992" uid="3497659" user="NKA">
		<tag k="name" v="Devika" />
		<tag k="place" v="quarter" />
		<tag k="ssr:stedsnr" v="485917" />
	</node>
	<node id="288088961" lat="64.2241193" lon="13.8340413" version="2" timestamp="2022-06-15T11:14:02Z" changeset="122412992" uid="3497659" user="NKA">
		<tag k="name" v="Sørli" />
		<tag k="place" v="village" />
		<tag k="ssr:stedsnr" v="195888" />
	</node>
	<node id="288088962" lat="64.1762095" lon="13.8358349" version="2" timestamp="2022-06-15T11:14:02Z" changeset="122412992" uid="3497659" user="NKA">
		<tag k="name" v="Jule" />
		<tag k="place" v="hamlet" />
		<tag k="ssr:stedsnr" v="196958" />
	</node>
	<node id="288088963" lat="64.164465" lon="13.8728039" version="2" timestamp="2022-06-15T11:14:02Z" changeset="122412992" uid="3497659" user="NKA">
		<tag k="name" v="Skåle" />
		<tag k="place" v="hamlet" />
		<tag k="ssr:stedsnr" v="75970" />
	</node>
	<node id="1954840562" lat="64.6443701" lon="13.7001176" version="3" timestamp="2022-06-15T11:14:02Z" changeset="122412992" uid="3497659" user="NKA">
		<tag k="loc_name" v="Tunnsjøsenter" />
		<tag k="name" v="Tunnsjø senter" />
		<tag k="place" v="village" />
		<tag k="ssr:stedsnr" v="560379" />
	</node>
	<node id="2354942405" lat="64.723036" lon="13.405997" version="2" timestamp="2018-05-02T17:04:09Z" changeset="58620907" uid="3497659" user="NKA">
		<tag k="name" v="Setern" />
		<tag k="natural" v="cape" />
		<tag k="source" v="Kartverket" />
		<tag k="ssr:stedsnr" v="776143" />
	</node>
	<node id="2619387693" lat="64.4415556" lon="13.6391056" version="2" timestamp="2022-06-15T11:14:02Z" changeset="122412992" uid="3497659" user="NKA">
		<tag k="name" v="Eidet" />
		<tag k="place" v="hamlet" />
		<tag k="ssr:stedsnr" v="377159" />
	</node>
	<node id="2619387700" lat="64.4486297" lon="13.6538333" version="2" timestamp="2022-06-15T11:14:02Z" changeset="122412992" uid="3497659" user="NKA">
		<tag k="name" v="Eidesmoen" />
		<tag k="place" v="hamlet" />
		<tag k="ssr:stedsnr" v="863162" />
	</node>
	<node id="2619387842" lat="64.4461039" lon="13.6775506" version="2" timestamp="2022-06-15T11:14:02Z" changeset="122412992" uid="3497659" user="NKA">
		<tag k="name" v="Leirbekknes" />
		<tag k="place" v="farm" />
		<tag k="ssr:stedsnr" v="632846" />
	</node>
	<node id="2619387902" lat="64.4636996" lon="13.5914003" version="7" timestamp="2022-06-15T11:14:02Z" changeset="122412992" uid="3497659" user="NKA">
		<tag k="alt_name" v="Nordli" />
		<tag k="name" v="Sandvika" />
		<tag k="place" v="village" />
		<tag k="population" v="222" />
		<tag k="population:date" v="2021-01-01" />
		<tag k="ref:ssb_tettsted" v="7111" />
		<tag k="source:population" v="SSB - befolkning i tettstedet" />
		<tag k="ssr:stedsnr" v="924134" />
	</node>
	<node id="2619389977" lat="64.4698146" lon="13.5405705" version="2" timestamp="2022-06-15T11:14:02Z" changeset="122412992" uid="3497659" user="NKA">
		<tag k="name" v="Støvika" />
		<tag k="place" v="hamlet" />
		<tag k="ssr:stedsnr" v="499158" />
	</node>
	<node id="2619390295" lat="64.4687531" lon="13.5515107" version="2" timestamp="2022-06-15T11:14:02Z" changeset="122412992" uid="3497659" user="NKA">
		<tag k="name" v="Støbakken" />
		<tag k="place" v="hamlet" />
		<tag k="ssr:stedsnr" v="75205" />
	</node>
	<node id="2619390590" lat="64.4887674" lon="13.4926344" version="2" timestamp="2022-06-15T11:14:02Z" changeset="122412992" uid="3497659" user="NKA">
		<tag k="name" v="Hegglund" />
		<tag k="place" v="farm" />
		<tag k="ssr:stedsnr" v="378238" />
	</node>
	<node id="2619390912" lat="64.4897928" lon="13.4562726" version="2" timestamp="2022-06-15T11:14:02Z" changeset="122412992" uid="3497659" user="NKA">
		<tag k="alt_name" v="Bratland" />
		<tag k="name" v="Brattland" />
		<tag k="place" v="hamlet" />
		<tag k="ssr:stedsnr" v="135229" />
	</node>
	<node id="2619391536" lat="64.490183" lon="13.4455779" version="2" timestamp="2022-06-15T11:14:02Z" changeset="122412992" uid="3497659" user="NKA">
		<tag k="alt_name" v="Haugen" />
		<tag k="name" v="Brattlandseidet" />
		<tag k="place" v="hamlet" />
		<tag k="ssr:stedsnr" v="742232" />
	</node>
	<node id="2619392369" lat="64.4930074" lon="13.4076654" version="2" timestamp="2022-06-15T11:14:02Z" changeset="122412992" uid="3497659" user="NKA">
		<tag k="name" v="Skjeldbreia" />
		<tag k="place" v="hamlet" />
		<tag k="ssr:stedsnr" v="559210" />
	</node>
	<node id="2619393389" lat="64.481521" lon="13.3143378" version="2" timestamp="2022-06-15T11:14:02Z" changeset="122412992" uid="3497659" user="NKA">
		<tag k="name" v="Sandmoen" />
		<tag k="place" v="hamlet" />
		<tag k="ssr:stedsnr" v="936696" />
	</node>
	<node id="3285832361" lat="64.5217506" lon="13.6867633" version="2" timestamp="2022-06-15T11:14:02Z" changeset="122412992" uid="3497659" user="NKA">
		<tag k="name" v="Kvelia" />
		<tag k="place" v="quarter" />
		<tag k="ssr:stedsnr" v="728574" />
	</node>
	<node id="3446396081" lat="64.5627084" lon="13.5463972" version="2" timestamp="2022-06-15T11:14:02Z" changeset="122412992" uid="3497659" user="NKA">
		<tag k="name" v="Nordbakk" />
		<tag k="place" v="hamlet" />
		<tag k="ssr:stedsnr" v="621070" />
	</node>
	<node id="3448513200" lat="64.5097049" lon="13.8177959" version="2" timestamp="2022-06-15T11:14:02Z" changeset="122412992" uid="3497659" user="NKA">
		<tag k="name" v="Kvemoen" />
		<tag k="place" v="hamlet" />
		<tag k="ssr:stedsnr" v="378212" />
	</node>
	<node id="3448524189" lat="64.5102647" lon="13.750767" version="3" timestamp="2022-06-15T11:14:02Z" changeset="122412992" uid="3497659" user="NKA">
		<tag k="name" v="Kvetangen" />
		<tag k="place" v="hamlet" />
		<tag k="ssr:stedsnr" v="560218" />
	</node>
	<node id="9819653850" lat="64.4430769" lon="13.4971817" version="1" timestamp="2022-06-15T11:14:02Z" changeset="122412992" uid="3497659" user="NKA">
		<tag k="name" v="Nesset" />
		<tag k="place" v="hamlet" />
		<tag k="ssr:stedsnr" v="438160" />
	</node>
	<node id="9819653851" lat="64.6715026" lon="13.6748946" version="1" timestamp="2022-06-15T11:14:02Z" changeset="122412992" uid="3497659" user="NKA">
		<tag k="name" v="Solberg" />
		<tag k="place" v="farm" />
		<tag k="ssr:stedsnr" v="378468" />
	</node>
	<node id="9819653852" lat="64.42225" lon="13.869464" version="1" timestamp="2022-06-15T11:14:02Z" changeset="122412992" uid="3497659" user="NKA">
		<tag k="name" v="Hestkjøldalsstua" />
		<tag k="place" v="isolated_dwelling" />
		<tag k="ssr:stedsnr" v="196769" />
	</node>
	<node id="9819653853" lat="64.2638055" lon="13.8987583" version="1" timestamp="2022-06-15T11:14:02Z" changeset="122412992" uid="3497659" user="NKA">
		<tag k="historic" v="shieling" />
		<tag k="name" v="Vestgårdsseteren" />
		<tag k="place" v="isolated_dwelling" />
		<tag k="ssr:stedsnr" v="377809" />
	</node>
	<node id="9819653854" lat="64.553289" lon="13.6730012" version="1" timestamp="2022-06-15T11:14:02Z" changeset="122412992" uid="3497659" user="NKA">
		<tag k="name" v="Brennseteren" />
		<tag k="place" v="locality" />
		<tag k="ssr:stedsnr" v="378043" />
	</node>
	<node id="9819653855" lat="64.4470084" lon="13.7126551" version="1" timestamp="2022-06-15T11:14:02Z" changeset="122412992" uid="3497659" user="NKA">
		<tag k="name" v="Brattvoll" />
		<tag k="place" v="farm" />
		<tag k="ssr:stedsnr" v="134154" />
	</node>
	<node id="9819653856" lat="64.6673098" lon="13.4937733" version="1" timestamp="2022-06-15T11:14:02Z" changeset="122412992" uid="3497659" user="NKA">
		<tag k="name" v="Austre Ingelsvatnet" />
		<tag k="place" v="locality" />
		<tag k="ssr:stedsnr" v="196378" />
	</node>
	<node id="9819653857" lat="64.5804861" lon="13.5030306" version="1" timestamp="2022-06-15T11:14:02Z" changeset="122412992" uid="3497659" user="NKA">
		<tag k="name" v="Norddalshytta" />
		<tag k="place" v="isolated_dwelling" />
		<tag k="ssr:stedsnr" v="75082" />
	</node>
	<node id="9819653858" lat="64.1720745" lon="13.7572006" version="1" timestamp="2022-06-15T11:14:02Z" changeset="122412992" uid="3497659" user="NKA">
		<tag k="name" v="Tovemoen" />
		<tag k="place" v="farm" />
		<tag k="ssr:stedsnr" v="924952" />
	</node>
	<node id="9819653859" lat="64.6229074" lon="13.6146807" version="1" timestamp="2022-06-15T11:14:02Z" changeset="122412992" uid="3497659" user="NKA">
		<tag k="name" v="Skogsseteren" />
		<tag k="place" v="isolated_dwelling" />
		<tag k="ssr:stedsnr" v="621394" />
	</node>
	<node id="9819653860" lat="64.3607833" lon="13.7394334" version="1" timestamp="2022-06-15T11:14:02Z" changeset="122412992" uid="3497659" user="NKA">
		<tag k="name" v="Nyseteren" />
		<tag k="place" v="locality" />
		<tag k="ssr:stedsnr" v="620759" />
	</node>
	<node id="9819653861" lat="64.4468511" lon="13.6843621" version="1" timestamp="2022-06-15T11:14:02Z" changeset="122412992" uid="3497659" user="NKA">
		<tag k="name" v="Bruvoll" />
		<tag k="place" v="farm" />
		<tag k="ssr:stedsnr" v="195196" />
	</node>
	<node id="9819653862" lat="64.2379695" lon="13.7795362" version="1" timestamp="2022-06-15T11:14:02Z" changeset="122412992" uid="3497659" user="NKA">
		<tag k="name" v="Kvilås" />
		<tag k="place" v="farm" />
		<tag k="ssr:stedsnr" v="742862" />
	</node>
	<node id="9819653863" lat="64.4465861" lon="13.7095001" version="1" timestamp="2022-06-15T11:14:02Z" changeset="122412992" uid="3497659" user="NKA">
		<tag k="name" v="Vestre Holand" />
		<tag k="place" v="farm" />
		<tag k="ssr:stedsnr" v="545925" />
	</node>
	<node id="9819653864" lat="64.3881056" lon="13.7145862" version="1" timestamp="2022-06-15T11:14:02Z" changeset="122412992" uid="3497659" user="NKA">
		<tag k="historic" v="shieling" />
		<tag k="name" v="Hovdseteren" />
		<tag k="place" v="isolated_dwelling" />
		<tag k="ssr:stedsnr" v="499075" />
	</node>
	<node id="9819653865" lat="64.2102194" lon="13.6091667" version="1" timestamp="2022-06-15T11:14:02Z" changeset="122412992" uid="3497659" user="NKA">
		<tag k="name" v="Myrvoll" />
		<tag k="place" v="farm" />
		<tag k="ssr:stedsnr" v="681792" />
	</node>
	<node id="9819653866" lat="64.2582377" lon="13.7124598" version="1" timestamp="2022-06-15T11:14:02Z" changeset="122412992" uid="3497659" user="NKA">
		<tag k="alt_name" v="Totland østre" />
		<tag k="name" v="Østre Totland" />
		<tag k="place" v="farm" />
		<tag k="ssr:stedsnr" v="511827" />
	</node>
	<node id="9819653867" lat="64.516625" lon="13.7185166" version="1" timestamp="2022-06-15T11:14:02Z" changeset="122412992" uid="3497659" user="NKA">
		<tag k="name" v="Kvebrenna" />
		<tag k="place" v="farm" />
		<tag k="ssr:stedsnr" v="378219" />
	</node>
	<node id="9819653868" lat="64.4463802" lon="13.6967632" version="1" timestamp="2022-06-15T11:14:02Z" changeset="122412992" uid="3497659" user="NKA">
		<tag k="name" v="Brenna" />
		<tag k="place" v="farm" />
		<tag k="ssr:stedsnr" v="377157" />
	</node>
	<node id="9819653869" lat="64.4785361" lon="13.8917668" version="1" timestamp="2022-06-15T11:14:02Z" changeset="122412992" uid="3497659" user="NKA">
		<tag k="name" v="Limannvika" />
		<tag k="place" v="farm" />
		<tag k="ssr:stedsnr" v="377023" />
	</node>
	<node id="9819653870" lat="64.2143584" lon="13.5848556" version="1" timestamp="2022-06-15T11:14:02Z" changeset="122412992" uid="3497659" user="NKA">
		<tag k="name" v="Bergset" />
		<tag k="place" v="farm" />
		<tag k="ssr:stedsnr" v="499752" />
	</node>
	<node id="9819653871" lat="64.2432495" lon="13.7655825" version="1" timestamp="2022-06-15T11:14:02Z" changeset="122412992" uid="3497659" user="NKA">
		<tag k="name" v="Granheim" />
		<tag k="place" v="farm" />
		<tag k="ssr:stedsnr" v="439884" />
	</node>
	<node id="9819653872" lat="64.4749528" lon="13.8849166" version="1" timestamp="2022-06-15T11:14:02Z" changeset="122412992" uid="3497659" user="NKA">
		<tag k="name" v="Vegset" />
		<tag k="place" v="farm" />
		<tag k="ssr:stedsnr" v="317017" />
	</node>
	<node id="9819653873" lat="64.2693" lon="13.6033334" version="1" timestamp="2022-06-15T11:14:02Z" changeset="122412992" uid="3497659" user="NKA">
		<tag k="historic" v="shieling" />
		<tag k="name" v="Ullandseteren" />
		<tag k="place" v="isolated_dwelling" />
		<tag k="ssr:stedsnr" v="438004" />
	</node>
	<node id="9819653874" lat="64.4395467" lon="13.6329716" version="1" timestamp="2022-06-15T11:14:02Z" changeset="122412992" uid="3497659" user="NKA">
		<tag k="name" v="Sørbakken" />
		<tag k="place" v="farm" />
		<tag k="ssr:stedsnr" v="318126" />
	</node>
	<node id="9819653875" lat="64.1677361" lon="13.7035027" version="1" timestamp="2022-06-15T11:14:02Z" changeset="122412992" uid="3497659" user="NKA">
		<tag k="alt_name" v="John-Berntsasetern" />
		<tag k="name" v="Jonberntsasætra" />
		<tag k="place" v="locality" />
		<tag k="ssr:stedsnr" v="499809" />
	</node>
	<node id="9819653876" lat="64.2202861" lon="13.8305667" version="1" timestamp="2022-06-15T11:14:02Z" changeset="122412992" uid="3497659" user="NKA">
		<tag k="name" v="Ness" />
		<tag k="place" v="farm" />
		<tag k="ssr:stedsnr" v="378912" />
	</node>
	<node id="9819653877" lat="64.2256277" lon="13.8350556" version="1" timestamp="2022-06-15T11:14:02Z" changeset="122412992" uid="3497659" user="NKA">
		<tag k="name" v="Estil" />
		<tag k="place" v="hamlet" />
		<tag k="ssr:stedsnr" v="439861" />
	</node>
	<node id="9819653878" lat="64.5290666" lon="13.6910139" version="1" timestamp="2022-06-15T11:14:02Z" changeset="122412992" uid="3497659" user="NKA">
		<tag k="name" v="Homo" />
		<tag k="place" v="farm" />
		<tag k="ssr:stedsnr" v="136065" />
	</node>
	<node id="9819653879" lat="64.3787917" lon="13.6290971" version="1" timestamp="2022-06-15T11:14:02Z" changeset="122412992" uid="3497659" user="NKA">
		<tag k="name" v="Åsen" />
		<tag k="place" v="farm" />
		<tag k="ssr:stedsnr" v="48619" />
	</node>
	<node id="9819653880" lat="64.4256853" lon="13.8165465" version="1" timestamp="2022-06-15T11:14:02Z" changeset="122412992" uid="3497659" user="NKA">
		<tag k="alt_name" v="Nyork" />
		<tag k="name" v="Nyjork" />
		<tag k="place" v="isolated_dwelling" />
		<tag k="ssr:stedsnr" v="863746" />
	</node>
	<node id="9819653881" lat="64.4643694" lon="13.8220138" version="1" timestamp="2022-06-15T11:14:02Z" changeset="122412992" uid="3497659" user="NKA">
		<tag k="name" v="Nyseteren" />
		<tag k="place" v="locality" />
		<tag k="ssr:stedsnr" v="924009" />
	</node>
	<node id="9819653882" lat="64.51645" lon="13.7227638" version="1" timestamp="2022-06-15T11:14:02Z" changeset="122412992" uid="3497659" user="NKA">
		<tag k="name" v="Brønnbu" />
		<tag k="place" v="farm" />
		<tag k="ssr:stedsnr" v="439206" />
	</node>
	<node id="9819653883" lat="64.4395389" lon="13.8966029" version="1" timestamp="2022-06-15T11:14:02Z" changeset="122412992" uid="3497659" user="NKA">
		<tag k="name" v="Jakthuset" />
		<tag k="place" v="isolated_dwelling" />
		<tag k="ssr:stedsnr" v="742742" />
	</node>
	<node id="9819653884" lat="64.2230584" lon="13.8256744" version="1" timestamp="2022-06-15T11:14:02Z" changeset="122412992" uid="3497659" user="NKA">
		<tag k="name" v="Midtre Østnor" />
		<tag k="place" v="farm" />
		<tag k="ssr:stedsnr" v="328924" />
	</node>
	<node id="9819653885" lat="64.507925" lon="13.8552944" version="1" timestamp="2022-06-15T11:14:02Z" changeset="122412992" uid="3497659" user="NKA">
		<tag k="name" v="Firsnortangen" />
		<tag k="place" v="isolated_dwelling" />
		<tag k="ssr:stedsnr" v="500243" />
	</node>
	<node id="9819653886" lat="64.3799583" lon="13.7087001" version="1" timestamp="2022-06-15T11:14:02Z" changeset="122412992" uid="3497659" user="NKA">
		<tag k="name" v="Gamseteren" />
		<tag k="place" v="locality" />
		<tag k="ssr:stedsnr" v="256069" />
	</node>
	<node id="9819653887" lat="64.4779784" lon="13.5143344" version="1" timestamp="2022-06-15T11:14:02Z" changeset="122412992" uid="3497659" user="NKA">
		<tag k="name" v="Gran" />
		<tag k="place" v="farm" />
		<tag k="ssr:stedsnr" v="317193" />
	</node>
	<node id="9819653888" lat="64.1823916" lon="13.72715" version="1" timestamp="2022-06-15T11:14:02Z" changeset="122412992" uid="3497659" user="NKA">
		<tag k="name" v="Moen" />
		<tag k="place" v="farm" />
		<tag k="ssr:stedsnr" v="256894" />
	</node>
	<node id="9819653889" lat="64.3698813" lon="13.6371903" version="1" timestamp="2022-06-15T11:14:02Z" changeset="122412992" uid="3497659" user="NKA">
		<tag k="name" v="Økstjønnåsen" />
		<tag k="place" v="farm" />
		<tag k="ssr:stedsnr" v="74082" />
	</node>
	<node id="9819653890" lat="64.1816806" lon="13.7181001" version="1" timestamp="2022-06-15T11:14:02Z" changeset="122412992" uid="3497659" user="NKA">
		<tag k="name" v="Ytterdalen" />
		<tag k="place" v="farm" />
		<tag k="ssr:stedsnr" v="256879" />
	</node>
	<node id="9819653891" lat="64.518575" lon="13.6676249" version="1" timestamp="2022-06-15T11:14:02Z" changeset="122412992" uid="3497659" user="NKA">
		<tag k="name" v="Berg" />
		<tag k="place" v="farm" />
		<tag k="ssr:stedsnr" v="318032" />
	</node>
	<node id="9819653892" lat="64.2045744" lon="13.6433409" version="1" timestamp="2022-06-15T11:14:02Z" changeset="122412992" uid="3497659" user="NKA">
		<tag k="name" v="Gjertsgård" />
		<tag k="place" v="farm" />
		<tag k="ssr:stedsnr" v="974306" />
	</node>
	<node id="9819653893" lat="64.4910611" lon="13.9220251" version="1" timestamp="2022-06-15T11:14:02Z" changeset="122412992" uid="3497659" user="NKA">
		<tag k="name" v="Hammer" />
		<tag k="place" v="farm" />
		<tag k="ssr:stedsnr" v="377032" />
	</node>
	<node id="9819653894" lat="64.4454114" lon="13.6972567" version="1" timestamp="2022-06-15T11:14:02Z" changeset="122412992" uid="3497659" user="NKA">
		<tag k="name" v="Risberg" />
		<tag k="place" v="farm" />
		<tag k="ssr:stedsnr" v="802208" />
	</node>
	<node id="9819653895" lat="64.1751417" lon="13.7856223" version="1" timestamp="2022-06-15T11:14:02Z" changeset="122412992" uid="3497659" user="NKA">
		<tag k="name" v="Våkliseteren" />
		<tag k="place" v="isolated_dwelling" />
		<tag k="ssr:stedsnr" v="135948" />
	</node>
	<node id="9819653896" lat="64.5175286" lon="13.6685725" version="1" timestamp="2022-06-15T11:14:02Z" changeset="122412992" uid="3497659" user="NKA">
		<tag k="alt_name" v="Skogmo" />
		<tag k="name" v="Skogmoen" />
		<tag k="place" v="farm" />
		<tag k="ssr:stedsnr" v="197036" />
	</node>
	<node id="9819653897" lat="64.5214861" lon="13.6888973" version="1" timestamp="2022-06-15T11:14:02Z" changeset="122412992" uid="3497659" user="NKA">
		<tag k="alt_name" v="Vestgården" />
		<tag k="name" v="Jevrum" />
		<tag k="place" v="farm" />
		<tag k="ssr:stedsnr" v="865059" />
	</node>
	<node id="9819653898" lat="64.2247203" lon="13.8310292" version="1" timestamp="2022-06-15T11:14:02Z" changeset="122412992" uid="3497659" user="NKA">
		<tag k="name" v="Mebygda" />
		<tag k="place" v="hamlet" />
		<tag k="ssr:stedsnr" v="135880" />
	</node>
	<node id="9819653899" lat="64.2129305" lon="13.5910583" version="1" timestamp="2022-06-15T11:14:02Z" changeset="122412992" uid="3497659" user="NKA">
		<tag k="name" v="Forberg" />
		<tag k="place" v="farm" />
		<tag k="ssr:stedsnr" v="134789" />
	</node>
	<node id="9819653900" lat="64.2037388" lon="13.6430638" version="1" timestamp="2022-06-15T11:14:02Z" changeset="122412992" uid="3497659" user="NKA">
		<tag k="name" v="Fjellheim" />
		<tag k="place" v="farm" />
		<tag k="ssr:stedsnr" v="134785" />
	</node>
	<node id="9819653901" lat="64.507025" lon="13.6837806" version="1" timestamp="2022-06-15T11:14:02Z" changeset="122412992" uid="3497659" user="NKA">
		<tag k="name" v="Harrbekkvollen" />
		<tag k="place" v="hamlet" />
		<tag k="ssr:stedsnr" v="865004" />
	</node>
	<node id="9819653902" lat="64.2210349" lon="13.8429508" version="1" timestamp="2022-06-15T11:14:02Z" changeset="122412992" uid="3497659" user="NKA">
		<tag k="name" v="Skogenget" />
		<tag k="place" v="farm" />
		<tag k="ssr:stedsnr" v="924879" />
	</node>
	<node id="9819653903" lat="64.4463796" lon="13.6683997" version="1" timestamp="2022-06-15T11:14:02Z" changeset="122412992" uid="3497659" user="NKA">
		<tag k="alt_name" v="Treviken" />
		<tag k="name" v="Trevika" />
		<tag k="place" v="farm" />
		<tag k="ssr:stedsnr" v="863189" />
	</node>
	<node id="9819653904" lat="64.2269807" lon="13.8170881" version="1" timestamp="2022-06-15T11:14:02Z" changeset="122412992" uid="3497659" user="NKA">
		<tag k="name" v="Freland" />
		<tag k="place" v="farm" />
		<tag k="ssr:stedsnr" v="815928" />
	</node>
	<node id="9819653905" lat="64.2702416" lon="13.5754001" version="1" timestamp="2022-06-15T11:14:02Z" changeset="122412992" uid="3497659" user="NKA">
		<tag k="historic" v="shieling" />
		<tag k="name" v="Gusliseteren" />
		<tag k="place" v="isolated_dwelling" />
		<tag k="ssr:stedsnr" v="802016" />
	</node>
	<node id="9819653906" lat="64.2072695" lon="13.5546972" version="1" timestamp="2022-06-15T11:14:02Z" changeset="122412992" uid="3497659" user="NKA">
		<tag k="historic" v="shieling" />
		<tag k="name" v="Bjørvollsetern" />
		<tag k="place" v="isolated_dwelling" />
		<tag k="ssr:stedsnr" v="48864" />
	</node>
	<node id="9819653907" lat="64.5599333" lon="13.7094" version="1" timestamp="2022-06-15T11:14:02Z" changeset="122412992" uid="3497659" user="NKA">
		<tag k="historic" v="shieling" />
		<tag k="name" v="Austgårdsseteren" />
		<tag k="place" v="isolated_dwelling" />
		<tag k="ssr:stedsnr" v="714907" />
	</node>
	<node id="9819653908" lat="64.2357574" lon="13.7780916" version="1" timestamp="2022-06-15T11:14:02Z" changeset="122412992" uid="3497659" user="NKA">
		<tag k="alt_name" v="Køysletta" />
		<tag k="name" v="Koisletta" />
		<tag k="place" v="isolated_dwelling" />
		<tag k="ssr:stedsnr" v="14841" />
	</node>
	<node id="9819653909" lat="64.4091421" lon="13.6518293" version="1" timestamp="2022-06-15T11:14:02Z" changeset="122412992" uid="3497659" user="NKA">
		<tag k="alt_name" v="Halset" />
		<tag k="name" v="Hallset" />
		<tag k="place" v="isolated_dwelling" />
		<tag k="ssr:stedsnr" v="620103" />
	</node>
	<node id="9819653910" lat="64.0295834" lon="13.8349911" version="1" timestamp="2022-06-15T11:14:02Z" changeset="122412992" uid="3497659" user="NKA">
		<tag k="name" v="Arvasslia" />
		<tag k="place" v="locality" />
		<tag k="ssr:stedsnr" v="802830" />
	</node>
	<node id="9819653911" lat="64.2217277" lon="13.7911027" version="1" timestamp="2022-06-15T11:14:02Z" changeset="122412992" uid="3497659" user="NKA">
		<tag k="historic" v="shieling" />
		<tag k="name" v="Frelandseteren" />
		<tag k="place" v="isolated_dwelling" />
		<tag k="ssr:stedsnr" v="14885" />
	</node>
	<node id="9819653912" lat="64.2425493" lon="13.7110094" version="1" timestamp="2022-06-15T11:14:02Z" changeset="122412992" uid="3497659" user="NKA">
		<tag k="name" v="Tangen" />
		<tag k="place" v="farm" />
		<tag k="ssr:stedsnr" v="864831" />
	</node>
	<node id="9819653913" lat="64.1239612" lon="13.630111" version="1" timestamp="2022-06-15T11:14:02Z" changeset="122412992" uid="3497659" user="NKA">
		<tag k="name" v="Tjønndalshytta" />
		<tag k="place" v="isolated_dwelling" />
		<tag k="ssr:stedsnr" v="559817" />
	</node>
	<node id="9819653914" lat="64.1558433" lon="13.8835893" version="1" timestamp="2022-06-15T11:14:02Z" changeset="122412992" uid="3497659" user="NKA">
		<tag k="name" v="Brenna" />
		<tag k="place" v="farm" />
		<tag k="ssr:stedsnr" v="742960" />
	</node>
	<node id="9819653915" lat="64.3902528" lon="13.6926694" version="1" timestamp="2022-06-15T11:14:02Z" changeset="122412992" uid="3497659" user="NKA">
		<tag k="name" v="Nyheim" />
		<tag k="place" v="farm" />
		<tag k="ssr:stedsnr" v="776672" />
	</node>
	<node id="9819653916" lat="64.2287666" lon="13.811286" version="1" timestamp="2022-06-15T11:14:02Z" changeset="122412992" uid="3497659" user="NKA">
		<tag k="name" v="Friberg" />
		<tag k="place" v="farm" />
		<tag k="ssr:stedsnr" v="742834" />
	</node>
	<node id="9819665417" lat="64.2438584" lon="13.7635502" version="1" timestamp="2022-06-15T11:14:02Z" changeset="122412992" uid="3497659" user="NKA">
		<tag k="name" v="Kvam" />
		<tag k="place" v="farm" />
		<tag k="ssr:stedsnr" v="875888" />
	</node>
	<node id="9819665418" lat="64.2121806" lon="13.5868888" version="1" timestamp="2022-06-15T11:14:02Z" changeset="122412992" uid="3497659" user="NKA">
		<tag k="name" v="Bergli" />
		<tag k="place" v="farm" />
		<tag k="ssr:stedsnr" v="13790" />
	</node>
	<node id="9819665419" lat="64.5077321" lon="13.6981711" version="1" timestamp="2022-06-15T11:14:02Z" changeset="122412992" uid="3497659" user="NKA">
		<tag k="name" v="Sandstad" />
		<tag k="place" v="farm" />
		<tag k="ssr:stedsnr" v="560007" />
	</node>
	<node id="9819665420" lat="64.2912722" lon="13.6156972" version="1" timestamp="2022-06-15T11:14:02Z" changeset="122412992" uid="3497659" user="NKA">
		<tag k="historic" v="shieling" />
		<tag k="name" v="Nerseteren" />
		<tag k="place" v="isolated_dwelling" />
		<tag k="ssr:stedsnr" v="560044" />
	</node>
	<node id="9819665421" lat="64.2730389" lon="13.5879861" version="1" timestamp="2022-06-15T11:14:02Z" changeset="122412992" uid="3497659" user="NKA">
		<tag k="historic" v="shieling" />
		<tag k="name" v="Mattisseteren" />
		<tag k="place" v="isolated_dwelling" />
		<tag k="ssr:stedsnr" v="559011" />
	</node>
	<node id="9819665422" lat="64.1877972" lon="13.7374222" version="1" timestamp="2022-06-15T11:14:02Z" changeset="122412992" uid="3497659" user="NKA">
		<tag k="alt_name" v="Inderdalen øvre" />
		<tag k="name" v="Øvre Inderdalen" />
		<tag k="place" v="farm" />
		<tag k="ssr:stedsnr" v="715729" />
	</node>
	<node id="9819665423" lat="64.2257794" lon="13.8199874" version="1" timestamp="2022-06-15T11:14:02Z" changeset="122412992" uid="3497659" user="NKA">
		<tag k="name" v="Ånes" />
		<tag k="place" v="farm" />
		<tag k="ssr:stedsnr" v="632918" />
	</node>
	<node id="9819665424" lat="64.1866932" lon="13.7372299" version="1" timestamp="2022-06-15T11:14:02Z" changeset="122412992" uid="3497659" user="NKA">
		<tag k="name" v="Inderdalen" />
		<tag k="place" v="farm" />
		<tag k="ssr:stedsnr" v="849905" />
	</node>
	<node id="9819665425" lat="64.2138355" lon="13.5855514" version="1" timestamp="2022-06-15T11:14:02Z" changeset="122412992" uid="3497659" user="NKA">
		<tag k="name" v="Berglia" />
		<tag k="place" v="hamlet" />
		<tag k="ssr:stedsnr" v="559780" />
	</node>
	<node id="9819665426" lat="64.2493076" lon="13.7425758" version="1" timestamp="2022-06-15T11:14:02Z" changeset="122412992" uid="3497659" user="NKA">
		<tag k="name" v="Bjørkås" />
		<tag k="place" v="farm" />
		<tag k="ssr:stedsnr" v="571846" />
	</node>
	<node id="9819665427" lat="64.5200917" lon="13.6331861" version="1" timestamp="2022-06-15T11:14:02Z" changeset="122412992" uid="3497659" user="NKA">
		<tag k="name" v="Liberg" />
		<tag k="place" v="farm" />
		<tag k="ssr:stedsnr" v="318014" />
	</node>
	<node id="9819665428" lat="64.2207611" lon="13.9624278" version="1" timestamp="2022-06-15T11:14:02Z" changeset="122412992" uid="3497659" user="NKA">
		<tag k="historic" v="shieling" />
		<tag k="name" v="Gravklumpseteren" />
		<tag k="place" v="isolated_dwelling" />
		<tag k="ssr:stedsnr" v="499883" />
	</node>
	<node id="9819665429" lat="64.4721625" lon="13.6314672" version="1" timestamp="2022-06-15T11:14:02Z" changeset="122412992" uid="3497659" user="NKA">
		<tag k="name" v="Prestgårdsseteren" />
		<tag k="place" v="isolated_dwelling" />
		<tag k="ssr:stedsnr" v="317205" />
	</node>
	<node id="9819665430" lat="64.2088666" lon="13.618661" version="1" timestamp="2022-06-15T11:14:02Z" changeset="122412992" uid="3497659" user="NKA">
		<tag k="name" v="Jersåsen" />
		<tag k="place" v="farm" />
		<tag k="ssr:stedsnr" v="620767" />
	</node>
	<node id="9819665431" lat="64.223408" lon="13.8238909" version="1" timestamp="2022-06-15T11:14:02Z" changeset="122412992" uid="3497659" user="NKA">
		<tag k="name" v="Vestre Østnor" />
		<tag k="place" v="farm" />
		<tag k="ssr:stedsnr" v="464434" />
	</node>
	<node id="9819665432" lat="64.2227058" lon="13.8297422" version="1" timestamp="2022-06-15T11:14:02Z" changeset="122412992" uid="3497659" user="NKA">
		<tag k="name" v="Sletten" />
		<tag k="place" v="farm" />
		<tag k="ssr:stedsnr" v="439909" />
	</node>
	<node id="9819665433" lat="64.4474389" lon="13.7142138" version="1" timestamp="2022-06-15T11:14:02Z" changeset="122412992" uid="3497659" user="NKA">
		<tag k="name" v="Østre Holand" />
		<tag k="place" v="farm" />
		<tag k="ssr:stedsnr" v="290808" />
	</node>
	<node id="9819665434" lat="64.208797" lon="13.937509" version="1" timestamp="2022-06-15T11:14:02Z" changeset="122412992" uid="3497659" user="NKA">
		<tag k="historic" v="shieling" />
		<tag k="name" v="Gårdtjønnseteren" />
		<tag k="place" v="isolated_dwelling" />
		<tag k="ssr:stedsnr" v="438930" />
	</node>
	<node id="9819665435" lat="64.5512473" lon="13.6185721" version="1" timestamp="2022-06-15T11:14:02Z" changeset="122412992" uid="3497659" user="NKA">
		<tag k="historic" v="shieling" />
		<tag k="name" v="Rømmervasseteren" />
		<tag k="place" v="isolated_dwelling" />
		<tag k="ssr:stedsnr" v="804092" />
	</node>
	<node id="9819665436" lat="64.1664333" lon="13.7144472" version="1" timestamp="2022-06-15T11:14:02Z" changeset="122412992" uid="3497659" user="NKA">
		<tag k="alt_name" v="Bengtsetern" />
		<tag k="name" v="Bengtsætra" />
		<tag k="place" v="isolated_dwelling" />
		<tag k="ssr:stedsnr" v="438843" />
	</node>
	<node id="9819665437" lat="64.5046184" lon="13.3471079" version="1" timestamp="2022-06-15T11:14:02Z" changeset="122412992" uid="3497659" user="NKA">
		<tag k="alt_name" v="Ågård vestre" />
		<tag k="name" v="Vestre Ågård" />
		<tag k="place" v="farm" />
		<tag k="ssr:stedsnr" v="814739" />
	</node>
	<node id="9819665438" lat="64.2277528" lon="13.4561639" version="1" timestamp="2022-06-15T11:14:02Z" changeset="122412992" uid="3497659" user="NKA">
		<tag k="name" v="Pe-Jakobsakoia" />
		<tag k="place" v="isolated_dwelling" />
		<tag k="ssr:stedsnr" v="533825" />
	</node>
	<node id="9819665439" lat="64.4001611" lon="13.5001499" version="1" timestamp="2022-06-15T11:14:02Z" changeset="122412992" uid="3497659" user="NKA">
		<tag k="name" v="Tissvassetran" />
		<tag k="place" v="locality" />
		<tag k="ssr:stedsnr" v="803091" />
	</node>
	<node id="9819665440" lat="64.2417445" lon="13.7321168" version="1" timestamp="2022-06-15T11:14:02Z" changeset="122412992" uid="3497659" user="NKA">
		<tag k="name" v="Sørstrand" />
		<tag k="place" v="farm" />
		<tag k="ssr:stedsnr" v="378887" />
	</node>
	<node id="9819665441" lat="64.4440076" lon="13.7186971" version="1" timestamp="2022-06-15T11:14:02Z" changeset="122412992" uid="3497659" user="NKA">
		<tag k="name" v="Movik" />
		<tag k="place" v="farm" />
		<tag k="ssr:stedsnr" v="229833" />
	</node>
	<node id="9819665442" lat="64.507475" lon="13.6935834" version="1" timestamp="2022-06-15T11:14:02Z" changeset="122412992" uid="3497659" user="NKA">
		<tag k="alt_name" v="Vestum" />
		<tag k="name" v="Vestem" />
		<tag k="place" v="farm" />
		<tag k="ssr:stedsnr" v="136007" />
	</node>
	<node id="9819665443" lat="64.6539262" lon="13.4910032" version="1" timestamp="2022-06-15T11:14:02Z" changeset="122412992" uid="3497659" user="NKA">
		<tag k="name" v="Sandtangen" />
		<tag k="place" v="isolated_dwelling" />
		<tag k="ssr:stedsnr" v="776230" />
	</node>
	<node id="9819665444" lat="64.5121389" lon="13.6824055" version="1" timestamp="2022-06-15T11:14:02Z" changeset="122412992" uid="3497659" user="NKA">
		<tag k="name" v="Framnes" />
		<tag k="place" v="farm" />
		<tag k="ssr:stedsnr" v="136004" />
	</node>
	<node id="9819665445" lat="64.1758361" lon="13.7584416" version="1" timestamp="2022-06-15T11:14:02Z" changeset="122412992" uid="3497659" user="NKA">
		<tag k="name" v="Ingeldalsbrenna" />
		<tag k="place" v="farm" />
		<tag k="ssr:stedsnr" v="317952" />
	</node>
	<node id="9819665446" lat="64.5122444" lon="13.7366888" version="1" timestamp="2022-06-15T11:14:02Z" changeset="122412992" uid="3497659" user="NKA">
		<tag k="name" v="Skogset" />
		<tag k="place" v="farm" />
		<tag k="ssr:stedsnr" v="135206" />
	</node>
	<node id="9819665447" lat="64.363475" lon="13.7709112" version="1" timestamp="2022-06-15T11:14:02Z" changeset="122412992" uid="3497659" user="NKA">
		<tag k="name" v="Bengtseteren" />
		<tag k="place" v="isolated_dwelling" />
		<tag k="ssr:stedsnr" v="317729" />
	</node>
	<node id="9819665448" lat="64.1906386" lon="13.6289525" version="1" timestamp="2022-06-15T11:14:02Z" changeset="122412992" uid="3497659" user="NKA">
		<tag k="alt_name" v="Øversetern;Jersåssætra, øvre" />
		<tag k="historic" v="shieling" />
		<tag k="loc_name" v="Øvre Jersåsseteren" />
		<tag k="name" v="Øvre Jersåssætra" />
		<tag k="place" v="isolated_dwelling" />
		<tag k="ssr:stedsnr" v="317725" />
	</node>
	<node id="9819665449" lat="64.5260139" lon="13.5527" version="1" timestamp="2022-06-15T11:14:02Z" changeset="122412992" uid="3497659" user="NKA">
		<tag k="name" v="Skutbakk" />
		<tag k="place" v="farm" />
		<tag k="ssr:stedsnr" v="743048" />
	</node>
	<node id="9819665450" lat="64.4711722" lon="13.5854499" version="1" timestamp="2022-06-15T11:14:02Z" changeset="122412992" uid="3497659" user="NKA">
		<tag k="name" v="Krokslåtten" />
		<tag k="place" v="locality" />
		<tag k="ssr:stedsnr" v="681206" />
	</node>
	<node id="9819665451" lat="64.2537075" lon="13.7221788" version="1" timestamp="2022-06-15T11:14:02Z" changeset="122412992" uid="3497659" user="NKA">
		<tag k="name" v="Brennmoen" />
		<tag k="place" v="farm" />
		<tag k="ssr:stedsnr" v="268831" />
	</node>
	<node id="9819665452" lat="64.3600833" lon="13.5326806" version="1" timestamp="2022-06-15T11:14:02Z" changeset="122412992" uid="3497659" user="NKA">
		<tag k="name" v="Storbuslåtten" />
		<tag k="place" v="locality" />
		<tag k="ssr:stedsnr" v="681065" />
	</node>
	<node id="9819665453" lat="64.2238087" lon="13.8289269" version="1" timestamp="2022-06-15T11:14:02Z" changeset="122412992" uid="3497659" user="NKA">
		<tag k="alt_name" v="Østnor" />
		<tag k="name" v="Østre Østnor" />
		<tag k="place" v="farm" />
		<tag k="ssr:stedsnr" v="207907" />
	</node>
	<node id="9819665454" lat="64.6472306" lon="13.5726695" version="1" timestamp="2022-06-15T11:14:02Z" changeset="122412992" uid="3497659" user="NKA">
		<tag k="name" v="Grubbmoen" />
		<tag k="place" v="farm" />
		<tag k="ssr:stedsnr" v="560436" />
	</node>
	<node id="9819665455" lat="64.2298639" lon="13.801725" version="1" timestamp="2022-06-15T11:14:02Z" changeset="122412992" uid="3497659" user="NKA">
		<tag k="name" v="Høgsnesbakken" />
		<tag k="place" v="farm" />
		<tag k="ssr:stedsnr" v="135829" />
	</node>
	<node id="9819665456" lat="64.2505929" lon="13.7382511" version="1" timestamp="2022-06-15T11:14:02Z" changeset="122412992" uid="3497659" user="NKA">
		<tag k="name" v="Rydningen" />
		<tag k="place" v="farm" />
		<tag k="ssr:stedsnr" v="146814" />
	</node>
	<node id="9819665457" lat="64.4910374" lon="13.423225" version="1" timestamp="2022-06-15T11:14:02Z" changeset="122412992" uid="3497659" user="NKA">
		<tag k="name" v="Skjelstad" />
		<tag k="place" v="farm" />
		<tag k="ssr:stedsnr" v="499178" />
	</node>
	<node id="9819665458" lat="64.1108833" lon="13.8417918" version="1" timestamp="2022-06-15T11:14:02Z" changeset="122412992" uid="3497659" user="NKA">
		<tag k="name" v="Tobakksgrubba" />
		<tag k="place" v="locality" />
		<tag k="ssr:stedsnr" v="499975" />
	</node>
	<node id="9819665459" lat="64.2541641" lon="13.7209759" version="1" timestamp="2022-06-15T11:14:02Z" changeset="122412992" uid="3497659" user="NKA">
		<tag k="name" v="Rydningen" />
		<tag k="place" v="farm" />
		<tag k="ssr:stedsnr" v="146816" />
	</node>
	<node id="9819665460" lat="64.1551139" lon="14.0609417" version="1" timestamp="2022-06-15T11:14:02Z" changeset="122412992" uid="3497659" user="NKA">
		<tag k="name" v="Brenna" />
		<tag k="place" v="farm" />
		<tag k="ssr:stedsnr" v="74999" />
	</node>
	<node id="9819665461" lat="64.2608894" lon="13.7072456" version="1" timestamp="2022-06-15T11:14:02Z" changeset="122412992" uid="3497659" user="NKA">
		<tag k="alt_name" v="Totland vestre" />
		<tag k="name" v="Vestre Totland" />
		<tag k="place" v="farm" />
		<tag k="ssr:stedsnr" v="146808" />
	</node>
	<node id="9819665462" lat="64.4647277" lon="13.3724805" version="1" timestamp="2022-06-15T11:14:02Z" changeset="122412992" uid="3497659" user="NKA">
		<tag k="historic" v="shieling" />
		<tag k="name" v="Storbakkseteren" />
		<tag k="place" v="isolated_dwelling" />
		<tag k="ssr:stedsnr" v="390774" />
	</node>
	<node id="9819665463" lat="64.19105" lon="13.8652416" version="1" timestamp="2022-06-15T11:14:02Z" changeset="122412992" uid="3497659" user="NKA">
		<tag k="name" v="Julesseteren" />
		<tag k="place" v="locality" />
		<tag k="ssr:stedsnr" v="317893" />
	</node>
	<node id="9819665464" lat="64.2016028" lon="13.8542389" version="1" timestamp="2022-06-15T11:14:02Z" changeset="122412992" uid="3497659" user="NKA">
		<tag k="name" v="Nordåkeren" />
		<tag k="place" v="locality" />
		<tag k="ssr:stedsnr" v="134945" />
	</node>
	<node id="9819665465" lat="64.1737424" lon="13.6387784" version="1" timestamp="2022-06-15T11:14:02Z" changeset="122412992" uid="3497659" user="NKA">
		<tag k="name" v="Håløldalstuggu" />
		<tag k="place" v="isolated_dwelling" />
		<tag k="ssr:stedsnr" v="108759" />
	</node>
	<node id="9819665466" lat="64.1327111" lon="14.0888556" version="1" timestamp="2022-06-15T11:14:02Z" changeset="122412992" uid="3497659" user="NKA">
		<tag k="name" v="Rødmo" />
		<tag k="place" v="farm" />
		<tag k="ssr:stedsnr" v="14977" />
	</node>
	<node id="9819665467" lat="64.2259639" lon="13.4760862" version="1" timestamp="2022-06-15T11:14:02Z" changeset="122412992" uid="3497659" user="NKA">
		<tag k="name" v="Tjalsætra" />
		<tag k="place" v="locality" />
		<tag k="ssr:stedsnr" v="14779" />
	</node>
	<node id="9819665468" lat="64.2409584" lon="13.8566778" version="1" timestamp="2022-06-15T11:14:02Z" changeset="122412992" uid="3497659" user="NKA">
		<tag k="historic" v="shieling" />
		<tag k="name" v="Estilseteren" />
		<tag k="place" v="isolated_dwelling" />
		<tag k="ssr:stedsnr" v="803859" />
	</node>
	<node id="9819665469" lat="64.2564611" lon="13.6425221" version="1" timestamp="2022-06-15T11:14:02Z" changeset="122412992" uid="3497659" user="NKA">
		<tag k="name" v="Totlandsetran" />
		<tag k="place" v="locality" />
		<tag k="ssr:stedsnr" v="74002" />
	</node>
	<node id="9819665470" lat="64.2663667" lon="13.6895055" version="1" timestamp="2022-06-15T11:14:02Z" changeset="122412992" uid="3497659" user="NKA">
		<tag k="name" v="Pe-piltabygget" />
		<tag k="place" v="locality" />
		<tag k="ssr:stedsnr" v="86844" />
	</node>
	<node id="9819665471" lat="64.2714793" lon="13.6840058" version="1" timestamp="2022-06-15T11:14:02Z" changeset="122412992" uid="3497659" user="NKA">
		<tag k="alt_name" v="Myrmo" />
		<tag k="name" v="Myrmoen" />
		<tag k="place" v="farm" />
		<tag k="ssr:stedsnr" v="802008" />
	</node>
	<node id="9819665472" lat="64.4472833" lon="13.4118667" version="1" timestamp="2022-06-15T11:14:02Z" changeset="122412992" uid="3497659" user="NKA">
		<tag k="name" v="Sørsetran" />
		<tag k="place" v="isolated_dwelling" />
		<tag k="ssr:stedsnr" v="317168" />
	</node>
	<node id="9819665473" lat="64.2529861" lon="13.7276527" version="1" timestamp="2022-06-15T11:14:02Z" changeset="122412992" uid="3497659" user="NKA">
		<tag k="name" v="Skogstad" />
		<tag k="place" v="farm" />
		<tag k="ssr:stedsnr" v="14807" />
	</node>
	<node id="9819665474" lat="64.1633862" lon="13.8712444" version="1" timestamp="2022-06-15T11:14:02Z" changeset="122412992" uid="3497659" user="NKA">
		<tag k="name" v="Sveet" />
		<tag k="place" v="farm" />
		<tag k="ssr:stedsnr" v="863953" />
	</node>
	<node id="9819665475" lat="64.2130406" lon="13.8427558" version="1" timestamp="2022-06-15T11:14:02Z" changeset="122412992" uid="3497659" user="NKA">
		<tag k="name" v="Lyngstad" />
		<tag k="place" v="farm" />
		<tag k="ssr:stedsnr" v="620869" />
	</node>
	<node id="9819665476" lat="64.226375" lon="13.842375" version="1" timestamp="2022-06-15T11:14:02Z" changeset="122412992" uid="3497659" user="NKA">
		<tag k="name" v="Estilrønningen" />
		<tag k="place" v="farm" />
		<tag k="ssr:stedsnr" v="378908" />
	</node>
	<node id="9819665477" lat="64.3211694" lon="13.7757805" version="1" timestamp="2022-06-15T11:14:02Z" changeset="122412992" uid="3497659" user="NKA">
		<tag k="name" v="Langlihytta" />
		<tag k="place" v="isolated_dwelling" />
		<tag k="ssr:stedsnr" v="802844" />
	</node>
	<node id="9819665478" lat="64.292" lon="13.4573527" version="1" timestamp="2022-06-15T11:14:02Z" changeset="122412992" uid="3497659" user="NKA">
		<tag k="name" v="Guslihytta" />
		<tag k="place" v="isolated_dwelling" />
		<tag k="ssr:stedsnr" v="803045" />
	</node>
	<node id="9819665479" lat="64.4042117" lon="13.4676893" version="1" timestamp="2022-06-15T11:14:02Z" changeset="122412992" uid="3497659" user="NKA">
		<tag k="name" v="Gammpålseteren" />
		<tag k="place" v="isolated_dwelling" />
		<tag k="ssr:stedsnr" v="715146" />
	</node>
	<node id="9819665480" lat="64.2851154" lon="13.6546385" version="1" timestamp="2022-06-15T11:14:02Z" changeset="122412992" uid="3497659" user="NKA">
		<tag k="name" v="Storbakken" />
		<tag k="place" v="farm" />
		<tag k="ssr:stedsnr" v="754830" />
	</node>
	<node id="9819665481" lat="64.1685888" lon="13.8541673" version="1" timestamp="2022-06-15T11:14:02Z" changeset="122412992" uid="3497659" user="NKA">
		<tag k="name" v="Jule" />
		<tag k="place" v="quarter" />
		<tag k="ssr:stedsnr" v="181915" />
	</node>
	<node id="9819665482" lat="64.2795444" lon="13.8532862" version="1" timestamp="2022-06-15T11:14:02Z" changeset="122412992" uid="3497659" user="NKA">
		<tag k="historic" v="shieling" />
		<tag k="name" v="Estilrønningseteren" />
		<tag k="place" v="isolated_dwelling" />
		<tag k="ssr:stedsnr" v="256803" />
	</node>
	<node id="9819665483" lat="64.2847083" lon="13.6578176" version="1" timestamp="2022-06-15T11:14:02Z" changeset="122412992" uid="3497659" user="NKA">
		<tag k="name" v="Ullandsmo" />
		<tag k="place" v="farm" />
		<tag k="ssr:stedsnr" v="512866" />
	</node>
	<node id="9819665484" lat="64.2208416" lon="13.7925806" version="1" timestamp="2022-06-15T11:14:02Z" changeset="122412992" uid="3497659" user="NKA">
		<tag k="historic" v="shieling" />
		<tag k="name" v="Høgsnesseteren" />
		<tag k="place" v="isolated_dwelling" />
		<tag k="ssr:stedsnr" v="499893" />
	</node>
	<node id="9819665485" lat="64.5045258" lon="13.3503966" version="1" timestamp="2022-06-15T11:14:02Z" changeset="122412992" uid="3497659" user="NKA">
		<tag k="alt_name" v="Østre Ågård;Ågård østre" />
		<tag k="name" v="Ågarden" />
		<tag k="place" v="hamlet" />
		<tag k="ssr:stedsnr" v="925039" />
	</node>
	<node id="9819665486" lat="64.4818869" lon="13.2903937" version="1" timestamp="2022-06-15T11:14:02Z" changeset="122412992" uid="3497659" user="NKA">
		<tag k="historic" v="shieling" />
		<tag k="name" v="Sandmoseteren" />
		<tag k="place" v="isolated_dwelling" />
		<tag k="ssr:stedsnr" v="814719" />
	</node>
	<node id="9819665487" lat="64.4618889" lon="13.4344861" version="1" timestamp="2022-06-15T11:14:02Z" changeset="122412992" uid="3497659" user="NKA">
		<tag k="alt_name" v="Laksjøli" />
		<tag k="name" v="Laksjølia" />
		<tag k="place" v="farm" />
		<tag k="ssr:stedsnr" v="75165" />
	</node>
	<node id="9819665488" lat="64.1997028" lon="13.6260029" version="1" timestamp="2022-06-15T11:14:02Z" changeset="122412992" uid="3497659" user="NKA">
		<tag k="alt_name" v="Nersetern;Jersåssætra, nedre" />
		<tag k="name" v="Nedre Jersåssætra" />
		<tag k="place" v="locality" />
		<tag k="ssr:stedsnr" v="559770" />
	</node>
	<node id="9819665489" lat="64.270975" lon="13.5057695" version="1" timestamp="2022-06-15T11:14:02Z" changeset="122412992" uid="3497659" user="NKA">
		<tag k="historic" v="shieling" />
		<tag k="name" v="Storvikseteren" />
		<tag k="place" v="isolated_dwelling" />
		<tag k="ssr:stedsnr" v="620009" />
	</node>
	<node id="9819665490" lat="64.4215334" lon="13.5484999" version="1" timestamp="2022-06-15T11:14:02Z" changeset="122412992" uid="3497659" user="NKA">
		<tag k="historic" v="shieling" />
		<tag k="name" v="Djupvassetran" />
		<tag k="place" v="isolated_dwelling" />
		<tag k="ssr:stedsnr" v="925166" />
	</node>
	<node id="9819665491" lat="64.489175" lon="13.4619944" version="1" timestamp="2022-06-15T11:14:02Z" changeset="122412992" uid="3497659" user="NKA">
		<tag k="name" v="Rønningen" />
		<tag k="place" v="farm" />
		<tag k="ssr:stedsnr" v="14197" />
	</node>
	<node id="9819665492" lat="64.3039556" lon="13.7720334" version="1" timestamp="2022-06-15T11:14:02Z" changeset="122412992" uid="3497659" user="NKA">
		<tag k="historic" v="shieling" />
		<tag k="name" v="Godtjønnseteren" />
		<tag k="place" v="isolated_dwelling" />
		<tag k="ssr:stedsnr" v="317771" />
	</node>
	<node id="9819665493" lat="64.4519953" lon="13.8187622" version="1" timestamp="2022-06-15T11:14:02Z" changeset="122412992" uid="3497659" user="NKA">
		<tag k="name" v="Setervollen" />
		<tag k="place" v="farm" />
		<tag k="ssr:stedsnr" v="742751" />
	</node>
	<node id="9819665494" lat="64.4907917" lon="13.4387972" version="1" timestamp="2022-06-15T11:14:02Z" changeset="122412992" uid="3497659" user="NKA">
		<tag k="name" v="Småvollan" />
		<tag k="place" v="farm" />
		<tag k="ssr:stedsnr" v="803251" />
	</node>
	<node id="9819665495" lat="64.2899195" lon="13.599925" version="1" timestamp="2022-06-15T11:14:02Z" changeset="122412992" uid="3497659" user="NKA">
		<tag k="historic" v="shieling" />
		<tag k="name" v="Ullandseteren" />
		<tag k="place" v="isolated_dwelling" />
		<tag k="ssr:stedsnr" v="14036" />
	</node>
	<node id="9819665496" lat="64.4997695" lon="13.3615014" version="1" timestamp="2022-06-15T11:14:02Z" changeset="122412992" uid="3497659" user="NKA">
		<tag k="name" v="Åstrand" />
		<tag k="place" v="farm" />
		<tag k="ssr:stedsnr" v="257025" />
	</node>
	<node id="9819665497" lat="64.2891209" lon="13.6507909" version="1" timestamp="2022-06-15T11:14:02Z" changeset="122412992" uid="3497659" user="NKA">
		<tag k="name" v="Aspli" />
		<tag k="place" v="farm" />
		<tag k="ssr:stedsnr" v="571805" />
	</node>
	<node id="9819665498" lat="64.4910661" lon="13.4262543" version="1" timestamp="2022-06-15T11:14:02Z" changeset="122412992" uid="3497659" user="NKA">
		<tag k="alt_name" v="Bratlandsmoen" />
		<tag k="name" v="Brattlandsmoen" />
		<tag k="place" v="farm" />
		<tag k="ssr:stedsnr" v="481016" />
	</node>
	<node id="9819665499" lat="64.2806722" lon="13.7414889" version="1" timestamp="2022-06-15T11:14:02Z" changeset="122412992" uid="3497659" user="NKA">
		<tag k="historic" v="shieling" />
		<tag k="name" v="Lemenvasseteren" />
		<tag k="place" v="isolated_dwelling" />
		<tag k="ssr:stedsnr" v="559812" />
	</node>
	<node id="9819665500" lat="64.4415111" lon="13.5042584" version="1" timestamp="2022-06-15T11:14:02Z" changeset="122412992" uid="3497659" user="NKA">
		<tag k="name" v="Lia" />
		<tag k="place" v="farm" />
		<tag k="ssr:stedsnr" v="317161" />
	</node>
	<node id="9819665501" lat="64.5088917" lon="13.2998999" version="1" timestamp="2022-06-15T11:14:02Z" changeset="122412992" uid="3497659" user="NKA">
		<tag k="name" v="Fredheim" />
		<tag k="place" v="farm" />
		<tag k="ssr:stedsnr" v="197060" />
	</node>
	<node id="9819665502" lat="64.4681929" lon="13.5688751" version="1" timestamp="2022-06-15T11:14:02Z" changeset="122412992" uid="3497659" user="NKA">
		<tag k="name" v="Strand" />
		<tag k="place" v="farm" />
		<tag k="ssr:stedsnr" v="378205" />
	</node>
	<node id="9819665503" lat="64.4610528" lon="13.4197083" version="1" timestamp="2022-06-15T11:14:02Z" changeset="122412992" uid="3497659" user="NKA">
		<tag k="name" v="Nordset" />
		<tag k="place" v="farm" />
		<tag k="ssr:stedsnr" v="864152" />
	</node>
	<node id="9819665504" lat="64.2897707" lon="13.648571" version="1" timestamp="2022-06-15T11:14:02Z" changeset="122412992" uid="3497659" user="NKA">
		<tag k="name" v="Botnvik" />
		<tag k="place" v="farm" />
		<tag k="ssr:stedsnr" v="207850" />
	</node>
	<node id="9819665505" lat="64.4450295" lon="13.702578" version="1" timestamp="2022-06-15T11:14:02Z" changeset="122412992" uid="3497659" user="NKA">
		<tag k="alt_name" v="Nybo" />
		<tag k="name" v="Nybu" />
		<tag k="place" v="farm" />
		<tag k="ssr:stedsnr" v="802210" />
	</node>
	<node id="9819665506" lat="64.4997196" lon="13.3662534" version="1" timestamp="2022-06-15T11:14:02Z" changeset="122412992" uid="3497659" user="NKA">
		<tag k="name" v="Fagervik" />
		<tag k="place" v="farm" />
		<tag k="ssr:stedsnr" v="632745" />
	</node>
	<node id="9819665507" lat="64.2416222" lon="13.3650195" version="1" timestamp="2022-06-15T11:14:02Z" changeset="122412992" uid="3497659" user="NKA">
		<tag k="name" v="Malenakoia" />
		<tag k="place" v="isolated_dwelling" />
		<tag k="ssr:stedsnr" v="654829" />
	</node>
	<node id="9819665508" lat="64.2899161" lon="13.6010469" version="1" timestamp="2022-06-15T11:14:02Z" changeset="122412992" uid="3497659" user="NKA">
		<tag k="name" v="Peseteren" />
		<tag k="place" v="isolated_dwelling" />
		<tag k="ssr:stedsnr" v="109855" />
	</node>
	<node id="9819665509" lat="64.2777546" lon="13.6717552" version="1" timestamp="2022-06-15T11:14:02Z" changeset="122412992" uid="3497659" user="NKA">
		<tag k="name" v="Bruem" />
		<tag k="place" v="isolated_dwelling" />
		<tag k="ssr:stedsnr" v="87835" />
	</node>
	<node id="9819665510" lat="64.4815417" lon="13.3056834" version="1" timestamp="2022-06-15T11:14:02Z" changeset="122412992" uid="3497659" user="NKA">
		<tag k="name" v="Fjelly" />
		<tag k="place" v="farm" />
		<tag k="ssr:stedsnr" v="620183" />
	</node>
	<node id="9819665511" lat="64.4891972" lon="13.3299473" version="1" timestamp="2022-06-15T11:14:02Z" changeset="122412992" uid="3497659" user="NKA">
		<tag k="historic" v="shieling" />
		<tag k="name" v="Oternesseteren" />
		<tag k="place" v="isolated_dwelling" />
		<tag k="ssr:stedsnr" v="559222" />
	</node>
	<node id="9819665512" lat="64.4886194" lon="13.1660305" version="1" timestamp="2022-06-15T11:14:02Z" changeset="122412992" uid="3497659" user="NKA">
		<tag k="name" v="Gosen" />
		<tag k="place" v="locality" />
		<tag k="ssr:stedsnr" v="681318" />
	</node>
	<node id="9819665513" lat="64.52205" lon="13.3263556" version="1" timestamp="2022-06-15T11:14:02Z" changeset="122412992" uid="3497659" user="NKA">
		<tag k="name" v="Tovvollen" />
		<tag k="place" v="locality" />
		<tag k="ssr:stedsnr" v="500074" />
	</node>
	<node id="9819665514" lat="64.4864819" lon="13.1870982" version="1" timestamp="2022-06-15T11:14:02Z" changeset="122412992" uid="3497659" user="NKA">
		<tag k="name" v="Ny Gosen" />
		<tag k="place" v="isolated_dwelling" />
		<tag k="ssr:stedsnr" v="109264" />
	</node>
	<node id="9819665515" lat="64.6514778" lon="13.6650001" version="1" timestamp="2022-06-15T11:14:02Z" changeset="122412992" uid="3497659" user="NKA">
		<tag k="alt_name" v="Tjønnmoen" />
		<tag k="name" v="Tjørnmoen" />
		<tag k="place" v="farm" />
		<tag k="ssr:stedsnr" v="925477" />
	</node>
	<node id="9819665516" lat="64.6514834" lon="13.6807139" version="1" timestamp="2022-06-15T11:14:02Z" changeset="122412992" uid="3497659" user="NKA">
		<tag k="name" v="Nynes" />
		<tag k="place" v="farm" />
		<tag k="ssr:stedsnr" v="925476" />
	</node>
	<node id="9819665517" lat="64.6466648" lon="13.710157" version="1" timestamp="2022-06-15T11:14:02Z" changeset="122412992" uid="3497659" user="NKA">
		<tag k="name" v="Vollmoen" />
		<tag k="place" v="farm" />
		<tag k="ssr:stedsnr" v="925472" />
	</node>
	<node id="9819665518" lat="64.5321667" lon="13.3228167" version="1" timestamp="2022-06-15T11:14:02Z" changeset="122412992" uid="3497659" user="NKA">
		<tag k="name" v="Arnbygget" />
		<tag k="place" v="farm" />
		<tag k="ssr:stedsnr" v="257048" />
	</node>
	<node id="9819665519" lat="64.5016068" lon="13.3565899" version="1" timestamp="2022-06-15T11:14:02Z" changeset="122412992" uid="3497659" user="NKA">
		<tag k="name" v="Ringstad" />
		<tag k="place" v="farm" />
		<tag k="ssr:stedsnr" v="257028" />
	</node>
	<node id="9819665520" lat="64.4960223" lon="13.3434" version="1" timestamp="2022-06-15T11:14:02Z" changeset="122412992" uid="3497659" user="NKA">
		<tag k="historic" v="shieling" />
		<tag k="name" v="Finnvollen" />
		<tag k="place" v="isolated_dwelling" />
		<tag k="ssr:stedsnr" v="146706" />
	</node>
	<node id="9819665521" lat="64.6840889" lon="13.7473917" version="1" timestamp="2022-06-15T11:14:02Z" changeset="122412992" uid="3497659" user="NKA">
		<tag k="name" v="Limingdalsplassen" />
		<tag k="place" v="locality" />
		<tag k="ssr:stedsnr" v="776500" />
	</node>
	<node id="9819665522" lat="64.6539551" lon="13.6732437" version="1" timestamp="2022-06-15T11:14:02Z" changeset="122412992" uid="3497659" user="NKA">
		<tag k="name" v="Norheim" />
		<tag k="place" v="farm" />
		<tag k="ssr:stedsnr" v="754888" />
	</node>
	<node id="9819665523" lat="64.7515194" lon="13.7188806" version="1" timestamp="2022-06-15T11:14:02Z" changeset="122412992" uid="3497659" user="NKA">
		<tag k="name" v="Deviktangen" />
		<tag k="place" v="farm" />
		<tag k="ssr:stedsnr" v="378280" />
	</node>
	<node id="9819665524" lat="64.5288111" lon="13.3354389" version="1" timestamp="2022-06-15T11:14:02Z" changeset="122412992" uid="3497659" user="NKA">
		<tag k="name" v="Åttem" />
		<tag k="place" v="farm" />
		<tag k="ssr:stedsnr" v="560040" />
	</node>
	<node id="9819665525" lat="64.2810805" lon="13.522711" version="1" timestamp="2022-06-15T11:14:02Z" changeset="122412992" uid="3497659" user="NKA">
		<tag k="name" v="Bergslåtten" />
		<tag k="place" v="locality" />
		<tag k="ssr:stedsnr" v="924042" />
	</node>
	<node id="9819665526" lat="64.6539534" lon="13.7121395" version="1" timestamp="2022-06-15T11:14:02Z" changeset="122412992" uid="3497659" user="NKA">
		<tag k="name" v="Nymoseteren" />
		<tag k="place" v="locality" />
		<tag k="ssr:stedsnr" v="439416" />
	</node>
	<node id="9819665527" lat="64.7868167" lon="13.6932861" version="1" timestamp="2022-06-15T11:14:02Z" changeset="122412992" uid="3497659" user="NKA">
		<tag k="historic" v="shieling" />
		<tag k="name" v="Devikseteren" />
		<tag k="place" v="isolated_dwelling" />
		<tag k="ssr:stedsnr" v="76343" />
	</node>
	<node id="9819665528" lat="64.2780334" lon="13.7296334" version="1" timestamp="2022-06-15T11:14:02Z" changeset="122412992" uid="3497659" user="NKA">
		<tag k="historic" v="shieling" />
		<tag k="name" v="Gamnausterliseteren" />
		<tag k="place" v="isolated_dwelling" />
		<tag k="ssr:stedsnr" v="377824" />
	</node>
	<node id="9819665529" lat="64.6318" lon="13.6897916" version="1" timestamp="2022-06-15T11:14:02Z" changeset="122412992" uid="3497659" user="NKA">
		<tag k="name" v="Rydning" />
		<tag k="place" v="farm" />
		<tag k="ssr:stedsnr" v="439367" />
	</node>
	<node id="9819665530" lat="64.6490328" lon="13.624348" version="1" timestamp="2022-06-15T11:14:02Z" changeset="122412992" uid="3497659" user="NKA">
		<tag k="name" v="Fjellmoen" />
		<tag k="place" v="farm" />
		<tag k="ssr:stedsnr" v="378448" />
	</node>
	<node id="9819665531" lat="64.5088057" lon="13.8148988" version="1" timestamp="2022-06-15T11:14:02Z" changeset="122412992" uid="3497659" user="NKA">
		<tag k="name" v="Melbo" />
		<tag k="place" v="farm" />
		<tag k="ssr:stedsnr" v="958842" />
	</node>
	<node id="9819665532" lat="64.1532167" lon="13.7604306" version="1" timestamp="2022-06-15T11:14:02Z" changeset="122412992" uid="3497659" user="NKA">
		<tag k="historic" v="shieling" />
		<tag k="name" v="Julesseteren" />
		<tag k="place" v="isolated_dwelling" />
		<tag k="ssr:stedsnr" v="14922" />
	</node>
	<node id="9819665533" lat="64.643193" lon="13.7033745" version="1" timestamp="2022-06-15T11:14:02Z" changeset="122412992" uid="3497659" user="NKA">
		<tag k="name" v="Østnes" />
		<tag k="place" v="farm" />
		<tag k="ssr:stedsnr" v="318384" />
	</node>
	<node id="9819665534" lat="64.281625" lon="13.7819722" version="1" timestamp="2022-06-15T11:14:02Z" changeset="122412992" uid="3497659" user="NKA">
		<tag k="historic" v="shieling" />
		<tag k="name" v="Møkkeltjønnseteren" />
		<tag k="place" v="isolated_dwelling" />
		<tag k="ssr:stedsnr" v="924799" />
	</node>
	<node id="9819665535" lat="64.1836889" lon="13.7329167" version="1" timestamp="2022-06-15T11:14:02Z" changeset="122412992" uid="3497659" user="NKA">
		<tag k="name" v="Brennmoen" />
		<tag k="place" v="farm" />
		<tag k="ssr:stedsnr" v="924896" />
	</node>
	<node id="9819665536" lat="64.30525" lon="13.6397472" version="1" timestamp="2022-06-15T11:14:02Z" changeset="122412992" uid="3497659" user="NKA">
		<tag k="historic" v="shieling" />
		<tag k="name" v="Storbakkseteren" />
		<tag k="place" v="isolated_dwelling" />
		<tag k="ssr:stedsnr" v="924047" />
	</node>
	<node id="9819665537" lat="64.6450166" lon="13.6094028" version="1" timestamp="2022-06-15T11:14:02Z" changeset="122412992" uid="3497659" user="NKA">
		<tag k="name" v="Fagernes" />
		<tag k="place" v="farm" />
		<tag k="ssr:stedsnr" v="257477" />
	</node>
	<node id="9819665538" lat="64.4745972" lon="13.5795638" version="1" timestamp="2022-06-15T11:14:02Z" changeset="122412992" uid="3497659" user="NKA">
		<tag k="historic" v="shieling" />
		<tag k="name" v="Knutgårdsseteren" />
		<tag k="place" v="isolated_dwelling" />
		<tag k="ssr:stedsnr" v="75208" />
	</node>
	<node id="9819665539" lat="64.6474777" lon="13.6831695" version="1" timestamp="2022-06-15T11:14:02Z" changeset="122412992" uid="3497659" user="NKA">
		<tag k="name" v="Solheim" />
		<tag k="place" v="farm" />
		<tag k="ssr:stedsnr" v="136457" />
	</node>
	<node id="9819665540" lat="64.6383328" lon="13.7027465" version="1" timestamp="2022-06-15T11:14:02Z" changeset="122412992" uid="3497659" user="NKA">
		<tag k="name" v="Linmoen" />
		<tag k="place" v="farm" />
		<tag k="ssr:stedsnr" v="75409" />
	</node>
	<node id="9819665541" lat="64.1435601" lon="13.9433015" version="1" timestamp="2022-06-15T11:14:02Z" changeset="122412992" uid="3497659" user="NKA">
		<tag k="historic" v="shieling" />
		<tag k="name" v="Skålseteren" />
		<tag k="place" v="isolated_dwelling" />
		<tag k="ssr:stedsnr" v="803989" />
	</node>
	<node id="9819665542" lat="64.2205408" lon="13.8399256" version="1" timestamp="2022-06-15T11:14:02Z" changeset="122412992" uid="3497659" user="NKA">
		<tag k="name" v="Bruheim" />
		<tag k="place" v="farm" />
		<tag k="ssr:stedsnr" v="803894" />
	</node>
	<node id="9819665543" lat="64.4324758" lon="13.812078" version="1" timestamp="2022-06-15T11:14:02Z" changeset="122412992" uid="3497659" user="NKA">
		<tag k="alt_name" v="Kalldal" />
		<tag k="name" v="Kaldal" />
		<tag k="place" v="farm" />
		<tag k="ssr:stedsnr" v="256723" />
	</node>
	<node id="9819665544" lat="64.2770417" lon="13.6736333" version="1" timestamp="2022-06-15T11:14:02Z" changeset="122412992" uid="3497659" user="NKA">
		<tag k="name" v="Ulland" />
		<tag k="place" v="farm" />
		<tag k="ssr:stedsnr" v="815849" />
	</node>
	<node id="9819665545" lat="64.4898833" lon="13.4641056" version="1" timestamp="2022-06-15T11:14:02Z" changeset="122412992" uid="3497659" user="NKA">
		<tag k="name" v="Grande" />
		<tag k="place" v="farm" />
		<tag k="ssr:stedsnr" v="693796" />
	</node>
	<node id="9819665546" lat="64.2570861" lon="13.8557472" version="1" timestamp="2022-06-15T11:14:02Z" changeset="122412992" uid="3497659" user="NKA">
		<tag k="historic" v="shieling" />
		<tag k="name" v="Arntsetran" />
		<tag k="place" v="isolated_dwelling" />
		<tag k="ssr:stedsnr" v="803835" />
	</node>
	<node id="9819665547" lat="64.1834977" lon="13.7302857" version="1" timestamp="2022-06-15T11:14:02Z" changeset="122412992" uid="3497659" user="NKA">
		<tag k="name" v="Inderdal" />
		<tag k="place" v="hamlet" />
		<tag k="ssr:stedsnr" v="788895" />
	</node>
	<node id="9819665548" lat="64.4533694" lon="13.826239" version="1" timestamp="2022-06-15T11:14:02Z" changeset="122412992" uid="3497659" user="NKA">
		<tag k="name" v="Vollan" />
		<tag k="place" v="farm" />
		<tag k="ssr:stedsnr" v="803773" />
	</node>
	<node id="9819665549" lat="64.2271578" lon="13.8313" version="1" timestamp="2022-06-15T11:14:02Z" changeset="122412992" uid="3497659" user="NKA">
		<tag k="alt_name" v="Estil nordre" />
		<tag k="name" v="Nordre Estil" />
		<tag k="place" v="farm" />
		<tag k="ssr:stedsnr" v="754922" />
	</node>
	<node id="9819665550" lat="64.2787666" lon="13.6705527" version="1" timestamp="2022-06-15T11:14:02Z" changeset="122412992" uid="3497659" user="NKA">
		<tag k="name" v="Sandmoen" />
		<tag k="place" v="farm" />
		<tag k="ssr:stedsnr" v="802019" />
	</node>
	<node id="9819665551" lat="64.226188" lon="13.8265116" version="1" timestamp="2022-06-15T11:14:02Z" changeset="122412992" uid="3497659" user="NKA">
		<tag k="name" v="Østnor" />
		<tag k="place" v="hamlet" />
		<tag k="ssr:stedsnr" v="742797" />
	</node>
	<node id="9819665552" lat="64.6352667" lon="13.6988416" version="1" timestamp="2022-06-15T11:14:02Z" changeset="122412992" uid="3497659" user="NKA">
		<tag k="name" v="Skogen" />
		<tag k="place" v="farm" />
		<tag k="ssr:stedsnr" v="15421" />
	</node>
	<node id="9819665553" lat="64.2731167" lon="13.6801695" version="1" timestamp="2022-06-15T11:14:02Z" changeset="122412992" uid="3497659" user="NKA">
		<tag k="name" v="Ulland" />
		<tag k="place" v="hamlet" />
		<tag k="ssr:stedsnr" v="741015" />
	</node>
	<node id="9819665554" lat="64.518225" lon="13.6737833" version="1" timestamp="2022-06-15T11:14:02Z" changeset="122412992" uid="3497659" user="NKA">
		<tag k="name" v="Haugen" />
		<tag k="place" v="farm" />
		<tag k="ssr:stedsnr" v="865044" />
	</node>
	<node id="9819665555" lat="64.1483778" lon="13.7176639" version="1" timestamp="2022-06-15T11:14:02Z" changeset="122412992" uid="3497659" user="NKA">
		<tag k="alt_name" v="Skraptjønnsætra" />
		<tag k="historic" v="shieling" />
		<tag k="name" v="Skraptjønnseteren" />
		<tag k="old_name" v="Skraptjønnsetern" />
		<tag k="place" v="isolated_dwelling" />
		<tag k="ssr:stedsnr" v="681840" />
	</node>
	<node id="9819665556" lat="64.2295889" lon="13.7443305" version="1" timestamp="2022-06-15T11:14:02Z" changeset="122412992" uid="3497659" user="NKA">
		<tag k="name" v="Devikseteren" />
		<tag k="place" v="locality" />
		<tag k="ssr:stedsnr" v="681868" />
	</node>
	<node id="9819665557" lat="64.4962" lon="13.3848055" version="1" timestamp="2022-06-15T11:14:02Z" changeset="122412992" uid="3497659" user="NKA">
		<tag k="name" v="Storaunet" />
		<tag k="place" v="farm" />
		<tag k="ssr:stedsnr" v="317218" />
	</node>
	<node id="9819665558" lat="64.2573194" lon="13.8554222" version="1" timestamp="2022-06-15T11:14:02Z" changeset="122412992" uid="3497659" user="NKA">
		<tag k="historic" v="shieling" />
		<tag k="name" v="Langpluttsetern" />
		<tag k="place" v="isolated_dwelling" />
		<tag k="ssr:stedsnr" v="776370" />
	</node>
	<node id="9819665559" lat="64.1658278" lon="13.70355" version="1" timestamp="2022-06-15T11:14:02Z" changeset="122412992" uid="3497659" user="NKA">
		<tag k="alt_name" v="Vollmosetern" />
		<tag k="historic" v="shieling" />
		<tag k="loc_name" v="Vollmoseteren" />
		<tag k="name" v="Vollmosætra" />
		<tag k="place" v="isolated_dwelling" />
		<tag k="ssr:stedsnr" v="559837" />
	</node>
	<node id="9819665560" lat="64.6427333" lon="13.607064" version="1" timestamp="2022-06-15T11:14:02Z" changeset="122412992" uid="3497659" user="NKA">
		<tag k="name" v="Lyngås" />
		<tag k="place" v="farm" />
		<tag k="ssr:stedsnr" v="621459" />
	</node>
	<node id="9819665561" lat="64.4703889" lon="13.6949055" version="1" timestamp="2022-06-15T11:14:02Z" changeset="122412992" uid="3497659" user="NKA">
		<tag k="name" v="Storkringla" />
		<tag k="place" v="locality" />
		<tag k="ssr:stedsnr" v="742201" />
	</node>
	<node id="9819665562" lat="64.5485972" lon="13.5054445" version="1" timestamp="2022-06-15T11:14:02Z" changeset="122412992" uid="3497659" user="NKA">
		<tag k="name" v="Leirlia" />
		<tag k="place" v="hamlet" />
		<tag k="ssr:stedsnr" v="500101" />
	</node>
	<node id="9819665563" lat="64.2227" lon="13.8390055" version="1" timestamp="2022-06-15T11:14:02Z" changeset="122412992" uid="3497659" user="NKA">
		<tag k="name" v="Mebygda boligfelt" />
		<tag k="place" v="neighbourhood" />
		<tag k="ssr:stedsnr" v="525445" />
	</node>
	<node id="9819665564" lat="64.2496432" lon="13.740209" version="1" timestamp="2022-06-15T11:14:02Z" changeset="122412992" uid="3497659" user="NKA">
		<tag k="name" v="Solstad" />
		<tag k="place" v="farm" />
		<tag k="ssr:stedsnr" v="511853" />
	</node>
	<node id="9819665565" lat="64.256562" lon="13.7177964" version="1" timestamp="2022-06-15T11:14:02Z" changeset="122412992" uid="3497659" user="NKA">
		<tag k="alt_name" v="Totland midtre" />
		<tag k="name" v="Midtre Totland" />
		<tag k="place" v="farm" />
		<tag k="ssr:stedsnr" v="693832" />
	</node>
	<node id="9819665566" lat="64.7435081" lon="13.732351" version="1" timestamp="2022-06-15T11:14:02Z" changeset="122412992" uid="3497659" user="NKA">
		<tag k="name" v="Austvika" />
		<tag k="place" v="farm" />
		<tag k="ssr:stedsnr" v="925019" />
	</node>
	<node id="9819665567" lat="64.5019015" lon="13.911852" version="1" timestamp="2022-06-15T11:14:02Z" changeset="122412992" uid="3497659" user="NKA">
		<tag k="name" v="Musurvika" />
		<tag k="place" v="isolated_dwelling" />
		<tag k="ssr:stedsnr" v="594377" />
	</node>
	<node id="9819665568" lat="64.6656959" lon="13.4972788" version="1" timestamp="2022-06-15T11:14:02Z" changeset="122412992" uid="3497659" user="NKA">
		<tag k="name" v="Nedre Ingelsvatnet" />
		<tag k="old_name" v="Ingelsvandet Østre" />
		<tag k="place" v="farm" />
		<tag k="ssr:stedsnr" v="742427" />
	</node>
	<node id="9819665569" lat="64.6262226" lon="13.6835093" version="1" timestamp="2022-06-15T11:14:02Z" changeset="122412992" uid="3497659" user="NKA">
		<tag k="alt_name" v="Sagmo" />
		<tag k="name" v="Sagmoen" />
		<tag k="place" v="farm" />
		<tag k="ssr:stedsnr" v="925447" />
	</node>
	<node id="9819665570" lat="64.5202534" lon="13.6060439" version="1" timestamp="2022-06-15T11:14:02Z" changeset="122412992" uid="3497659" user="NKA">
		<tag k="name" v="Ivabygget" />
		<tag k="place" v="locality" />
		<tag k="ssr:stedsnr" v="654096" />
	</node>
	<node id="9819665571" lat="64.4554556" lon="13.8340417" version="1" timestamp="2022-06-15T11:14:02Z" changeset="122412992" uid="3497659" user="NKA">
		<tag k="name" v="Vangen" />
		<tag k="place" v="farm" />
		<tag k="ssr:stedsnr" v="135744" />
	</node>
	<node id="9819665572" lat="64.127385" lon="13.889665" version="1" timestamp="2022-06-15T11:14:02Z" changeset="122412992" uid="3497659" user="NKA">
		<tag k="name" v="Sundvika" />
		<tag k="place" v="hamlet" />
		<tag k="ssr:stedsnr" v="378986" />
	</node>
	<node id="9819665573" lat="64.666618" lon="13.4879959" version="1" timestamp="2022-06-15T11:14:02Z" changeset="122412992" uid="3497659" user="NKA">
		<tag k="name" v="Ingelsvatnet" />
		<tag k="place" v="hamlet" />
		<tag k="ssr:stedsnr" v="257513" />
	</node>
	<node id="9819665574" lat="64.6841661" lon="13.6470264" version="1" timestamp="2022-06-15T11:14:02Z" changeset="122412992" uid="3497659" user="NKA">
		<tag k="name" v="Tunnsjøen" />
		<tag k="place" v="hamlet" />
		<tag k="ssr:stedsnr" v="379464" />
	</node>
	<node id="9819665575" lat="64.1797417" lon="13.7378751" version="1" timestamp="2022-06-15T11:14:02Z" changeset="122412992" uid="3497659" user="NKA">
		<tag k="name" v="Lundemo" />
		<tag k="place" v="farm" />
		<tag k="ssr:stedsnr" v="256961" />
	</node>
	<node id="9819665576" lat="64.7061978" lon="13.7417543" version="1" timestamp="2022-06-15T11:14:02Z" changeset="122412992" uid="3497659" user="NKA">
		<tag k="name" v="Limingen" />
		<tag k="place" v="hamlet" />
		<tag k="ssr:stedsnr" v="257274" />
	</node>
	<node id="9819665577" lat="64.7313028" lon="13.7715916" version="1" timestamp="2022-06-15T11:14:02Z" changeset="122412992" uid="3497659" user="NKA">
		<tag k="name" v="Limingseteren" />
		<tag k="place" v="locality" />
		<tag k="ssr:stedsnr" v="257014" />
	</node>
	<node id="9819665578" lat="64.52498" lon="13.8026849" version="1" timestamp="2022-06-15T11:14:02Z" changeset="122412992" uid="3497659" user="NKA">
		<tag k="alt_name" v="Nessan" />
		<tag k="name" v="Nesan" />
		<tag k="place" v="locality" />
		<tag k="ssr:stedsnr" v="317212" />
	</node>
	<node id="9819665579" lat="64.2904142" lon="13.6401505" version="1" timestamp="2022-06-15T11:14:02Z" changeset="122412992" uid="3497659" user="NKA">
		<tag k="name" v="Bruvoll" />
		<tag k="place" v="farm" />
		<tag k="ssr:stedsnr" v="135038" />
	</node>
	<node id="9819665580" lat="64.6394805" lon="13.5922556" version="1" timestamp="2022-06-15T11:14:02Z" changeset="122412992" uid="3497659" user="NKA">
		<tag k="name" v="Storbakken" />
		<tag k="place" v="farm" />
		<tag k="ssr:stedsnr" v="136455" />
	</node>
	<node id="9819665581" lat="64.4890834" lon="13.7859555" version="1" timestamp="2022-06-15T11:14:02Z" changeset="122412992" uid="3497659" user="NKA">
		<tag k="name" v="Kvemohytta" />
		<tag k="place" v="isolated_dwelling" />
		<tag k="ssr:stedsnr" v="620021" />
	</node>
	<node id="9819665582" lat="64.7070028" lon="13.5888228" version="1" timestamp="2022-06-15T11:14:02Z" changeset="122412992" uid="3497659" user="NKA">
		<tag k="name" v="Sandnes" />
		<tag k="place" v="hamlet" />
		<tag k="ssr:stedsnr" v="136488" />
	</node>
	<node id="9819665583" lat="64.7773384" lon="13.6777902" version="1" timestamp="2022-06-15T11:14:02Z" changeset="122412992" uid="3497659" user="NKA">
		<tag k="name" v="Devika" />
		<tag k="place" v="hamlet" />
		<tag k="ssr:stedsnr" v="136373" />
	</node>
	<node id="9819665584" lat="64.7460055" lon="13.77265" version="1" timestamp="2022-06-15T11:14:02Z" changeset="122412992" uid="3497659" user="NKA">
		<tag k="name" v="Nymyrhytta" />
		<tag k="place" v="isolated_dwelling" />
		<tag k="ssr:stedsnr" v="136015" />
	</node>
	<node id="9819665585" lat="64.1705639" lon="13.8507361" version="1" timestamp="2022-06-15T11:14:02Z" changeset="122412992" uid="3497659" user="NKA">
		<tag k="name" v="Strand" />
		<tag k="place" v="farm" />
		<tag k="ssr:stedsnr" v="75969" />
	</node>
	<node id="9819665586" lat="64.6844639" lon="13.75235" version="1" timestamp="2022-06-15T11:14:02Z" changeset="122412992" uid="3497659" user="NKA">
		<tag k="name" v="Limingdalen" />
		<tag k="place" v="isolated_dwelling" />
		<tag k="ssr:stedsnr" v="14196" />
	</node>
	<node id="9819665587" lat="64.4312667" lon="13.8112278" version="1" timestamp="2022-06-15T11:14:02Z" changeset="122412992" uid="3497659" user="NKA">
		<tag k="name" v="Lauvtangen" />
		<tag k="place" v="farm" />
		<tag k="ssr:stedsnr" v="75801" />
	</node>
	<node id="9819665588" lat="64.5120806" lon="13.8221751" version="1" timestamp="2022-06-15T11:14:02Z" changeset="122412992" uid="3497659" user="NKA">
		<tag k="name" v="Trøa" />
		<tag k="place" v="farm" />
		<tag k="ssr:stedsnr" v="135201" />
	</node>
	<node id="9819665589" lat="64.6630758" lon="13.6618887" version="1" timestamp="2022-06-15T11:14:02Z" changeset="122412992" uid="3497659" user="NKA">
		<tag k="name" v="Sørmoen" />
		<tag k="place" v="farm" />
		<tag k="ssr:stedsnr" v="14332" />
	</node>
	<node id="9819665590" lat="64.6807635" lon="13.6531834" version="1" timestamp="2022-06-15T11:14:02Z" changeset="122412992" uid="3497659" user="NKA">
		<tag k="name" v="Strandmoen" />
		<tag k="place" v="farm" />
		<tag k="ssr:stedsnr" v="560451" />
	</node>
	<node id="9819665591" lat="64.7117139" lon="13.7346584" version="1" timestamp="2022-06-15T11:14:02Z" changeset="122412992" uid="3497659" user="NKA">
		<tag k="name" v="Liminglia" />
		<tag k="place" v="farm" />
		<tag k="ssr:stedsnr" v="196230" />
	</node>
	<node id="9819665592" lat="64.2841806" lon="13.6406305" version="1" timestamp="2022-06-15T11:14:02Z" changeset="122412992" uid="3497659" user="NKA">
		<tag k="name" v="Botnmoen" />
		<tag k="place" v="farm" />
		<tag k="ssr:stedsnr" v="13059" />
	</node>
	<node id="9819665593" lat="64.2572139" lon="13.7149611" version="1" timestamp="2022-06-15T11:14:02Z" changeset="122412992" uid="3497659" user="NKA">
		<tag k="name" v="Totland" />
		<tag k="place" v="hamlet" />
		<tag k="ssr:stedsnr" v="815108" />
	</node>
	<node id="9819665594" lat="64.5224527" lon="13.5920418" version="1" timestamp="2022-06-15T11:14:02Z" changeset="122412992" uid="3497659" user="NKA">
		<tag k="name" v="Skogli" />
		<tag k="place" v="farm" />
		<tag k="ssr:stedsnr" v="925048" />
	</node>
	<node id="9819665595" lat="64.2258568" lon="13.9378125" version="1" timestamp="2022-06-15T11:14:02Z" changeset="122412992" uid="3497659" user="NKA">
		<tag k="historic" v="shieling" />
		<tag k="name" v="Gravtjønnseteren" />
		<tag k="place" v="isolated_dwelling" />
		<tag k="ssr:stedsnr" v="196883" />
	</node>
	<node id="9819665596" lat="64.2268483" lon="13.8227503" version="1" timestamp="2022-06-15T11:14:02Z" changeset="122412992" uid="3497659" user="NKA">
		<tag k="name" v="Vestnor" />
		<tag k="place" v="farm" />
		<tag k="ssr:stedsnr" v="196840" />
	</node>
	<node id="9819665597" lat="64.2358611" lon="13.6426972" version="1" timestamp="2022-06-15T11:14:02Z" changeset="122412992" uid="3497659" user="NKA">
		<tag k="alt_name" v="Tangsetern" />
		<tag k="name" v="Tangsætra" />
		<tag k="place" v="locality" />
		<tag k="ssr:stedsnr" v="196796" />
	</node>
	<node id="9819665598" lat="64.240839" lon="13.7697483" version="1" timestamp="2022-06-15T11:14:02Z" changeset="122412992" uid="3497659" user="NKA">
		<tag k="alt_name" v="Gåsbakk" />
		<tag k="name" v="Gåsbakken" />
		<tag k="place" v="quarter" />
		<tag k="ssr:stedsnr" v="754912" />
	</node>
	<node id="9819665599" lat="64.729075" lon="13.4869834" version="1" timestamp="2022-06-15T11:14:02Z" changeset="122412992" uid="3497659" user="NKA">
		<tag k="name" v="Granli" />
		<tag k="place" v="farm" />
		<tag k="ssr:stedsnr" v="560270" />
	</node>
	<node id="9819665600" lat="64.2166167" lon="13.5049194" version="1" timestamp="2022-06-15T11:14:02Z" changeset="122412992" uid="3497659" user="NKA">
		<tag k="historic" v="shieling" />
		<tag k="loc_name" v="Bergliseteren" />
		<tag k="name" v="Berglisætra" />
		<tag k="place" v="isolated_dwelling" />
		<tag k="ssr:stedsnr" v="741828" />
	</node>
	<node id="9819665601" lat="64.6938806" lon="13.7321279" version="1" timestamp="2022-06-15T11:14:02Z" changeset="122412992" uid="3497659" user="NKA">
		<tag k="name" v="Fjellvang" />
		<tag k="place" v="farm" />
		<tag k="ssr:stedsnr" v="560233" />
	</node>
	<node id="9819665602" lat="64.2069166" lon="13.553511" version="1" timestamp="2022-06-15T11:14:02Z" changeset="122412992" uid="3497659" user="NKA">
		<tag k="historic" v="shieling" />
		<tag k="name" v="Berglisætra" />
		<tag k="place" v="isolated_dwelling" />
		<tag k="ssr:stedsnr" v="499751" />
	</node>
	<node id="9819665603" lat="64.2332639" lon="13.8581916" version="1" timestamp="2022-06-15T11:14:02Z" changeset="122412992" uid="3497659" user="NKA">
		<tag k="historic" v="shieling" />
		<tag k="name" v="Gambrennseteren" />
		<tag k="place" v="isolated_dwelling" />
		<tag k="ssr:stedsnr" v="439871" />
	</node>
	<node id="9819665604" lat="64.0797917" lon="13.9192361" version="1" timestamp="2022-06-15T11:14:02Z" changeset="122412992" uid="3497659" user="NKA">
		<tag k="historic" v="shieling" />
		<tag k="name" v="Pederseteren" />
		<tag k="place" v="isolated_dwelling" />
		<tag k="ssr:stedsnr" v="377739" />
	</node>
	<node id="9819665605" lat="64.1987639" lon="13.8496361" version="1" timestamp="2022-06-15T11:14:02Z" changeset="122412992" uid="3497659" user="NKA">
		<tag k="historic" v="shieling" />
		<tag k="name" v="Åsaseteren" />
		<tag k="place" v="isolated_dwelling" />
		<tag k="ssr:stedsnr" v="377923" />
	</node>
	<node id="9819665606" lat="64.18795" lon="13.834886" version="1" timestamp="2022-06-15T11:14:02Z" changeset="122412992" uid="3497659" user="NKA">
		<tag k="alt_name" v="Strømsmoen" />
		<tag k="name" v="Straumsmoen" />
		<tag k="place" v="farm" />
		<tag k="ssr:stedsnr" v="256891" />
	</node>
	<node id="9819665607" lat="64.1072861" lon="14.0433195" version="1" timestamp="2022-06-15T11:14:02Z" changeset="122412992" uid="3497659" user="NKA">
		<tag k="historic" v="shieling" />
		<tag k="name" v="Gamseteren" />
		<tag k="place" v="isolated_dwelling" />
		<tag k="ssr:stedsnr" v="317720" />
	</node>
	<node id="9819665608" lat="64.1887278" lon="13.8946639" version="1" timestamp="2022-06-15T11:14:02Z" changeset="122412992" uid="3497659" user="NKA">
		<tag k="historic" v="shieling" />
		<tag k="name" v="Juleshaugseteren" />
		<tag k="place" v="isolated_dwelling" />
		<tag k="ssr:stedsnr" v="559908" />
	</node>
	<node id="9819665609" lat="64.2126111" lon="13.7854971" version="1" timestamp="2022-06-15T11:14:02Z" changeset="122412992" uid="3497659" user="NKA">
		<tag k="historic" v="shieling" />
		<tag k="name" v="Danelseteren" />
		<tag k="place" v="isolated_dwelling" />
		<tag k="ssr:stedsnr" v="559893" />
	</node>
	<node id="9819665610" lat="64.1223256" lon="13.8902262" version="1" timestamp="2022-06-15T11:14:02Z" changeset="122412992" uid="3497659" user="NKA">
		<tag k="historic" v="shieling" />
		<tag k="name" v="Sørsundseteren" />
		<tag k="place" v="isolated_dwelling" />
		<tag k="ssr:stedsnr" v="48063" />
	</node>
	<node id="9819665611" lat="64.5459139" lon="13.5073611" version="1" timestamp="2022-06-15T11:14:02Z" changeset="122412992" uid="3497659" user="NKA">
		<tag k="name" v="Leirmoen" />
		<tag k="place" v="farm" />
		<tag k="ssr:stedsnr" v="318072" />
	</node>
	<node id="9819665612" lat="64.183136" lon="13.7221139" version="1" timestamp="2022-06-15T11:14:02Z" changeset="122412992" uid="3497659" user="NKA">
		<tag k="name" v="Eikdal" />
		<tag k="place" v="farm" />
		<tag k="ssr:stedsnr" v="654732" />
	</node>
	<node id="9819665613" lat="64.1822" lon="13.705039" version="1" timestamp="2022-06-15T11:14:02Z" changeset="122412992" uid="3497659" user="NKA">
		<tag k="name" v="Setern" />
		<tag k="place" v="isolated_dwelling" />
		<tag k="ssr:stedsnr" v="472707" />
	</node>
	<node id="9819665614" lat="64.1695444" lon="13.8492167" version="1" timestamp="2022-06-15T11:14:02Z" changeset="122412992" uid="3497659" user="NKA">
		<tag k="name" v="Ness" />
		<tag k="place" v="farm" />
		<tag k="ssr:stedsnr" v="14945" />
	</node>
	<node id="9819665615" lat="64.5004333" lon="13.2104668" version="1" timestamp="2022-06-15T11:14:02Z" changeset="122412992" uid="3497659" user="NKA">
		<tag k="name" v="Båsdalen" />
		<tag k="place" v="locality" />
		<tag k="ssr:stedsnr" v="728557" />
	</node>
	<node id="9819665616" lat="64.2262056" lon="13.8266695" version="1" timestamp="2022-06-15T11:14:02Z" changeset="122412992" uid="3497659" user="NKA">
		<tag k="name" v="Grinde" />
		<tag k="place" v="farm" />
		<tag k="ssr:stedsnr" v="450930" />
	</node>
	<node id="9819665617" lat="64.5175238" lon="13.1917259" version="1" timestamp="2022-06-15T11:14:02Z" changeset="122412992" uid="3497659" user="NKA">
		<tag k="name" v="Kviltjønnhytta" />
		<tag k="place" v="locality" />
		<tag k="ssr:stedsnr" v="981788" />
	</node>
	<node id="9819665618" lat="64.18556" lon="13.7370122" version="1" timestamp="2022-06-15T11:14:02Z" changeset="122412992" uid="3497659" user="NKA">
		<tag k="alt_name" v="Inderdalen østre" />
		<tag k="name" v="Østre Inderdalen" />
		<tag k="place" v="farm" />
		<tag k="ssr:stedsnr" v="533740" />
	</node>
	<node id="9819665619" lat="64.5714861" lon="13.5418778" version="1" timestamp="2022-06-15T11:14:02Z" changeset="122412992" uid="3497659" user="NKA">
		<tag k="name" v="Nordbua" />
		<tag k="place" v="locality" />
		<tag k="ssr:stedsnr" v="197114" />
	</node>
	<node id="9819665620" lat="64.6575861" lon="13.6897444" version="1" timestamp="2022-06-15T11:14:02Z" changeset="122412992" uid="3497659" user="NKA">
		<tag k="name" v="Tilberg" />
		<tag k="place" v="farm" />
		<tag k="ssr:stedsnr" v="682464" />
	</node>
	<node id="9819665621" lat="64.4628556" lon="13.592514" version="1" timestamp="2022-06-15T11:14:02Z" changeset="122412992" uid="3497659" user="NKA">
		<tag k="name" v="Heggvollen" />
		<tag k="place" v="farm" />
		<tag k="ssr:stedsnr" v="742153" />
	</node>
	<node id="9819665622" lat="64.5081305" lon="13.6788778" version="1" timestamp="2022-06-15T11:14:02Z" changeset="122412992" uid="3497659" user="NKA">
		<tag k="name" v="Harmoen" />
		<tag k="place" v="farm" />
		<tag k="ssr:stedsnr" v="594981" />
	</node>
	<node id="9819665623" lat="64.6473444" lon="13.5412611" version="1" timestamp="2022-06-15T11:14:02Z" changeset="122412992" uid="3497659" user="NKA">
		<tag k="name" v="Ingstad" />
		<tag k="place" v="farm" />
		<tag k="ssr:stedsnr" v="682452" />
	</node>
	<node id="9819665624" lat="64.1989611" lon="13.8040416" version="1" timestamp="2022-06-15T11:14:02Z" changeset="122412992" uid="3497659" user="NKA">
		<tag k="historic" v="shieling" />
		<tag k="name" v="Larsarntsa-seteren" />
		<tag k="place" v="isolated_dwelling" />
		<tag k="ssr:stedsnr" v="620900" />
	</node>
	<node id="9819665625" lat="64.1838305" lon="13.7201112" version="1" timestamp="2022-06-15T11:14:02Z" changeset="122412992" uid="3497659" user="NKA">
		<tag k="name" v="Vollmoen" />
		<tag k="place" v="farm" />
		<tag k="ssr:stedsnr" v="620894" />
	</node>
	<node id="9819665626" lat="64.3878806" lon="13.627725" version="1" timestamp="2022-06-15T11:14:02Z" changeset="122412992" uid="3497659" user="NKA">
		<tag k="name" v="Vestre Løvsjølia hyttefelt" />
		<tag k="place" v="neighbourhood" />
		<tag k="ssr:stedsnr" v="525447" />
	</node>
	<node id="9819665627" lat="64.5271779" lon="13.5476123" version="1" timestamp="2022-06-15T11:14:02Z" changeset="122412992" uid="3497659" user="NKA">
		<tag k="name" v="Lunde" />
		<tag k="place" v="farm" />
		<tag k="ssr:stedsnr" v="533178" />
	</node>
	<node id="9819665628" lat="64.5367778" lon="13.6739584" version="1" timestamp="2022-06-15T11:14:02Z" changeset="122412992" uid="3497659" user="NKA">
		<tag k="name" v="Nesmoen" />
		<tag k="place" v="farm" />
		<tag k="ssr:stedsnr" v="440089" />
	</node>
	<node id="9819665629" lat="64.4992889" lon="13.372111" version="1" timestamp="2022-06-15T11:14:02Z" changeset="122412992" uid="3497659" user="NKA">
		<tag k="name" v="Fagerstrand" />
		<tag k="place" v="farm" />
		<tag k="ssr:stedsnr" v="438220" />
	</node>
	<node id="9819665630" lat="64.5300084" lon="13.5425751" version="1" timestamp="2022-06-15T11:14:02Z" changeset="122412992" uid="3497659" user="NKA">
		<tag k="name" v="Leirbakken" />
		<tag k="place" v="hamlet" />
		<tag k="ssr:stedsnr" v="621054" />
	</node>
	<node id="9819665631" lat="64.5231556" lon="13.3649528" version="1" timestamp="2022-06-15T11:14:02Z" changeset="122412992" uid="3497659" user="NKA">
		<tag k="historic" v="shieling" />
		<tag k="name" v="Ringstadseteren" />
		<tag k="place" v="isolated_dwelling" />
		<tag k="ssr:stedsnr" v="318040" />
	</node>
	<node id="9819665632" lat="64.5283889" lon="13.5385445" version="1" timestamp="2022-06-15T11:14:02Z" changeset="122412992" uid="3497659" user="NKA">
		<tag k="name" v="Nergården" />
		<tag k="place" v="farm" />
		<tag k="ssr:stedsnr" v="621036" />
	</node>
	<node id="9819665633" lat="64.6676889" lon="13.6699833" version="1" timestamp="2022-06-15T11:14:02Z" changeset="122412992" uid="3497659" user="NKA">
		<tag k="name" v="Seterhaugen" />
		<tag k="place" v="farm" />
		<tag k="ssr:stedsnr" v="318466" />
	</node>
	<node id="9819665634" lat="64.4857139" lon="13.3698944" version="1" timestamp="2022-06-15T11:14:02Z" changeset="122412992" uid="3497659" user="NKA">
		<tag k="name" v="Hallvardsetran" />
		<tag k="place" v="isolated_dwelling" />
		<tag k="ssr:stedsnr" v="317226" />
	</node>
	<node id="9819665635" lat="64.4125555" lon="13.7073111" version="1" timestamp="2022-06-15T11:14:02Z" changeset="122412992" uid="3497659" user="NKA">
		<tag k="name" v="Luternessetran" />
		<tag k="place" v="isolated_dwelling" />
		<tag k="ssr:stedsnr" v="135095" />
	</node>
	<node id="9819665636" lat="64.4253417" lon="13.4803444" version="1" timestamp="2022-06-15T11:14:02Z" changeset="122412992" uid="3497659" user="NKA">
		<tag k="name" v="Sørnes" />
		<tag k="place" v="farm" />
		<tag k="ssr:stedsnr" v="135134" />
	</node>
	<node id="9819665637" lat="64.6563084" lon="13.4940916" version="1" timestamp="2022-06-15T11:14:02Z" changeset="122412992" uid="3497659" user="NKA">
		<tag k="name" v="Geitseteren" />
		<tag k="place" v="isolated_dwelling" />
		<tag k="ssr:stedsnr" v="75481" />
	</node>
	<node id="9819665638" lat="64.5616643" lon="13.5502674" version="1" timestamp="2022-06-15T11:14:02Z" changeset="122412992" uid="3497659" user="NKA">
		<tag k="alt_name" v="Nordmo" />
		<tag k="name" v="Nordmoen" />
		<tag k="place" v="farm" />
		<tag k="ssr:stedsnr" v="197098" />
	</node>
	<node id="9819665639" lat="64.4849139" lon="13.4042029" version="1" timestamp="2022-06-15T11:14:02Z" changeset="122412992" uid="3497659" user="NKA">
		<tag k="name" v="Kvennhusmoan hyttefelt" />
		<tag k="place" v="neighbourhood" />
		<tag k="ssr:stedsnr" v="829458" />
	</node>
	<node id="9819665640" lat="64.158175" lon="13.8805084" version="1" timestamp="2022-06-15T11:14:02Z" changeset="122412992" uid="3497659" user="NKA">
		<tag k="name" v="Bringebærbakken" />
		<tag k="place" v="farm" />
		<tag k="ssr:stedsnr" v="742959" />
	</node>
	<node id="9819665641" lat="64.2862366" lon="13.6559245" version="1" timestamp="2022-06-15T11:14:02Z" changeset="122412992" uid="3497659" user="NKA">
		<tag k="name" v="Aspneset" />
		<tag k="place" v="hamlet" />
		<tag k="ssr:stedsnr" v="269848" />
	</node>
	<node id="9819665642" lat="64.1392583" lon="13.8794862" version="1" timestamp="2022-06-15T11:14:02Z" changeset="122412992" uid="3497659" user="NKA">
		<tag k="name" v="Strømnes" />
		<tag k="place" v="hamlet" />
		<tag k="ssr:stedsnr" v="803998" />
	</node>
	<node id="9819665643" lat="64.4506278" lon="13.4034583" version="1" timestamp="2022-06-15T11:14:02Z" changeset="122412992" uid="3497659" user="NKA">
		<tag k="name" v="Nesåsen" />
		<tag k="place" v="farm" />
		<tag k="ssr:stedsnr" v="742160" />
	</node>
	<node id="9819665644" lat="64.1673739" lon="13.8660821" version="1" timestamp="2022-06-15T11:14:02Z" changeset="122412992" uid="3497659" user="NKA">
		<tag k="name" v="Juleshaugen" />
		<tag k="place" v="farm" />
		<tag k="ssr:stedsnr" v="499952" />
	</node>
	<node id="9819665645" lat="64.4350362" lon="13.4603889" version="1" timestamp="2022-06-15T11:14:02Z" changeset="122412992" uid="3497659" user="NKA">
		<tag k="alt_name" v="Åness" />
		<tag k="name" v="Ånes" />
		<tag k="place" v="farm" />
		<tag k="ssr:stedsnr" v="742120" />
	</node>
	<node id="9819665646" lat="64.1609333" lon="13.8751834" version="1" timestamp="2022-06-15T11:14:02Z" changeset="122412992" uid="3497659" user="NKA">
		<tag k="name" v="Svebakken" />
		<tag k="place" v="farm" />
		<tag k="ssr:stedsnr" v="438950" />
	</node>
	<node id="9819665647" lat="64.4829083" lon="13.4177389" version="1" timestamp="2022-06-15T11:14:02Z" changeset="122412992" uid="3497659" user="NKA">
		<tag k="name" v="Myrvoll" />
		<tag k="place" v="farm" />
		<tag k="ssr:stedsnr" v="681233" />
	</node>
	<node id="9819665648" lat="64.1395055" lon="13.8772889" version="1" timestamp="2022-06-15T11:14:02Z" changeset="122412992" uid="3497659" user="NKA">
		<tag k="historic" v="shieling" />
		<tag k="name" v="Skålseteren" />
		<tag k="place" v="isolated_dwelling" />
		<tag k="ssr:stedsnr" v="256995" />
	</node>
	<node id="9819665649" lat="64.1384922" lon="13.8756818" version="1" timestamp="2022-06-15T11:14:02Z" changeset="122412992" uid="3497659" user="NKA">
		<tag k="name" v="Sundvikskogen" />
		<tag k="place" v="farm" />
		<tag k="ssr:stedsnr" v="875938" />
	</node>
	<node id="9819665650" lat="64.1479267" lon="13.9534361" version="1" timestamp="2022-06-15T11:14:02Z" changeset="122412992" uid="3497659" user="NKA">
		<tag k="name" v="Skålseteren" />
		<tag k="place" v="farm" />
		<tag k="ssr:stedsnr" v="974250" />
	</node>
	<node id="9819665651" lat="64.4584111" lon="13.4702418" version="1" timestamp="2022-06-15T11:14:02Z" changeset="122412992" uid="3497659" user="NKA">
		<tag k="name" v="Brennmoen" />
		<tag k="place" v="farm" />
		<tag k="ssr:stedsnr" v="499120" />
	</node>
	<node id="9819665652" lat="64.1510944" lon="14.0172444" version="1" timestamp="2022-06-15T11:14:02Z" changeset="122412992" uid="3497659" user="NKA">
		<tag k="alt_name" v="Sørneset" />
		<tag k="loc_name" v="Stugguneset" />
		<tag k="name" v="Stugguneset" />
		<tag k="place" v="hamlet" />
		<tag k="ssr:stedsnr" v="499994" />
	</node>
	<node id="9819665653" lat="64.2366527" lon="13.9664166" version="1" timestamp="2022-06-15T11:14:02Z" changeset="122412992" uid="3497659" user="NKA">
		<tag k="name" v="Strivasshytta" />
		<tag k="place" v="isolated_dwelling" />
		<tag k="ssr:stedsnr" v="924842" />
	</node>
	<node id="9819665654" lat="64.4685769" lon="13.5590909" version="1" timestamp="2022-06-15T11:14:02Z" changeset="122412992" uid="3497659" user="NKA">
		<tag k="name" v="Lund" />
		<tag k="place" v="farm" />
		<tag k="ssr:stedsnr" v="439185" />
	</node>
	<node id="9819665655" lat="64.4912643" lon="13.4098203" version="1" timestamp="2022-06-15T11:14:02Z" changeset="122412992" uid="3497659" user="NKA">
		<tag k="alt_name" v="Skjeldbreia" />
		<tag k="name" v="Brattlandsmoen" />
		<tag k="place" v="farm" />
		<tag k="ssr:stedsnr" v="438230" />
	</node>
	<node id="9819665656" lat="64.4184445" lon="13.4510777" version="1" timestamp="2022-06-15T11:14:02Z" changeset="122412992" uid="3497659" user="NKA">
		<tag k="name" v="Nerslåtten" />
		<tag k="place" v="locality" />
		<tag k="ssr:stedsnr" v="378130" />
	</node>
	<node id="9819665657" lat="64.1195667" lon="13.919186" version="1" timestamp="2022-06-15T11:14:02Z" changeset="122412992" uid="3497659" user="NKA">
		<tag k="historic" v="shieling" />
		<tag k="name" v="Sundseteren" />
		<tag k="place" v="isolated_dwelling" />
		<tag k="ssr:stedsnr" v="803979" />
	</node>
	<node id="9819665658" lat="64.0634416" lon="14.0168362" version="1" timestamp="2022-06-15T11:14:02Z" changeset="122412992" uid="3497659" user="NKA">
		<tag k="name" v="Brenna" />
		<tag k="place" v="farm" />
		<tag k="ssr:stedsnr" v="776679" />
	</node>
	<node id="9819665659" lat="64.1010669" lon="14.008769" version="1" timestamp="2022-06-15T11:14:02Z" changeset="122412992" uid="3497659" user="NKA">
		<tag k="name" v="Sandnes" />
		<tag k="place" v="farm" />
		<tag k="ssr:stedsnr" v="776666" />
	</node>
	<node id="9819665660" lat="64.1028666" lon="14.0136751" version="1" timestamp="2022-06-15T11:14:02Z" changeset="122412992" uid="3497659" user="NKA">
		<tag k="name" v="Vestvik" />
		<tag k="place" v="farm" />
		<tag k="ssr:stedsnr" v="776663" />
	</node>
	<node id="9819665661" lat="64.1526389" lon="14.018925" version="1" timestamp="2022-06-15T11:14:02Z" changeset="122412992" uid="3497659" user="NKA">
		<tag k="alt_name" v="Vestnes" />
		<tag k="name" v="Vestneset" />
		<tag k="place" v="farm" />
		<tag k="ssr:stedsnr" v="559994" />
	</node>
	<node id="9819665662" lat="64.1588456" lon="14.0511355" version="1" timestamp="2022-06-15T11:14:02Z" changeset="122412992" uid="3497659" user="NKA">
		<tag k="name" v="Bakken" />
		<tag k="place" v="farm" />
		<tag k="ssr:stedsnr" v="559944" />
	</node>
	<node id="9819665663" lat="64.4790768" lon="13.5081579" version="1" timestamp="2022-06-15T11:14:02Z" changeset="122412992" uid="3497659" user="NKA">
		<tag k="name" v="Kvernaunet" />
		<tag k="place" v="farm" />
		<tag k="ssr:stedsnr" v="317188" />
	</node>
	<node id="9819665664" lat="64.0628444" lon="14.0075669" version="1" timestamp="2022-06-15T11:14:02Z" changeset="122412992" uid="3497659" user="NKA">
		<tag k="name" v="Sagmo" />
		<tag k="place" v="farm" />
		<tag k="ssr:stedsnr" v="654696" />
	</node>
	<node id="9819665665" lat="64.4917194" lon="13.4284667" version="1" timestamp="2022-06-15T11:14:02Z" changeset="122412992" uid="3497659" user="NKA">
		<tag k="name" v="Brattli" />
		<tag k="place" v="farm" />
		<tag k="ssr:stedsnr" v="317216" />
	</node>
	<node id="9819665666" lat="64.4788778" lon="13.5291112" version="1" timestamp="2022-06-15T11:14:02Z" changeset="122412992" uid="3497659" user="NKA">
		<tag k="name" v="Hesjivollen" />
		<tag k="place" v="locality" />
		<tag k="ssr:stedsnr" v="256191" />
	</node>
	<node id="9819665667" lat="64.4373278" lon="13.4569583" version="1" timestamp="2022-06-15T11:14:02Z" changeset="122412992" uid="3497659" user="NKA">
		<tag k="name" v="Surtmyrbrenna" />
		<tag k="place" v="locality" />
		<tag k="ssr:stedsnr" v="257130" />
	</node>
	<node id="9819665668" lat="64.4711953" lon="13.42346" version="1" timestamp="2022-06-15T11:14:02Z" changeset="122412992" uid="3497659" user="NKA">
		<tag k="name" v="Heia" />
		<tag k="place" v="farm" />
		<tag k="ssr:stedsnr" v="256201" />
	</node>
	<node id="9819665669" lat="64.1322" lon="14.0871167" version="1" timestamp="2022-06-15T11:14:02Z" changeset="122412992" uid="3497659" user="NKA">
		<tag k="name" v="Eidet" />
		<tag k="place" v="farm" />
		<tag k="ssr:stedsnr" v="620971" />
	</node>
	<node id="9819665670" lat="64.4868344" lon="13.4950984" version="1" timestamp="2022-06-15T11:14:02Z" changeset="122412992" uid="3497659" user="NKA">
		<tag k="alt_name" v="Storeng" />
		<tag k="name" v="Storenga" />
		<tag k="place" v="farm" />
		<tag k="ssr:stedsnr" v="135233" />
	</node>
	<node id="9819665671" lat="64.495275" lon="13.3977416" version="1" timestamp="2022-06-15T11:14:02Z" changeset="122412992" uid="3497659" user="NKA">
		<tag k="name" v="Vestgården" />
		<tag k="place" v="farm" />
		<tag k="ssr:stedsnr" v="135212" />
	</node>
	<node id="9819665672" lat="64.0638153" lon="14.0233617" version="1" timestamp="2022-06-15T11:14:02Z" changeset="122412992" uid="3497659" user="NKA">
		<tag k="name" v="Linnmo" />
		<tag k="place" v="farm" />
		<tag k="ssr:stedsnr" v="351683" />
	</node>
	<node id="9819665673" lat="64.10725" lon="14.0421334" version="1" timestamp="2022-06-15T11:14:02Z" changeset="122412992" uid="3497659" user="NKA">
		<tag k="historic" v="shieling" />
		<tag k="name" v="Brennseteren" />
		<tag k="place" v="isolated_dwelling" />
		<tag k="ssr:stedsnr" v="351261" />
	</node>
	<node id="9819665674" lat="64.1041805" lon="13.9249334" version="1" timestamp="2022-06-15T11:14:02Z" changeset="122412992" uid="3497659" user="NKA">
		<tag k="name" v="Skogmo" />
		<tag k="place" v="farm" />
		<tag k="ssr:stedsnr" v="499723" />
	</node>
	<node id="9819665675" lat="64.4456105" lon="13.6158357" version="1" timestamp="2022-06-15T11:14:02Z" changeset="122412992" uid="3497659" user="NKA">
		<tag k="name" v="Breistrand hyttefelt" />
		<tag k="place" v="neighbourhood" />
		<tag k="ssr:stedsnr" v="39386" />
	</node>
	<node id="9819665676" lat="64.1542306" lon="14.0209668" version="1" timestamp="2022-06-15T11:14:02Z" changeset="122412992" uid="3497659" user="NKA">
		<tag k="alt_name" v="Nordnes" />
		<tag k="name" v="Nordneset" />
		<tag k="place" v="farm" />
		<tag k="ssr:stedsnr" v="438996" />
	</node>
	<node id="9819665677" lat="64.4100667" lon="13.4626084" version="1" timestamp="2022-06-15T11:14:02Z" changeset="122412992" uid="3497659" user="NKA">
		<tag k="name" v="Åslåtten" />
		<tag k="place" v="locality" />
		<tag k="ssr:stedsnr" v="75096" />
	</node>
	<node id="9819665678" lat="64.5055038" lon="13.2837092" version="1" timestamp="2022-06-15T11:14:02Z" changeset="122412992" uid="3497659" user="NKA">
		<tag k="name" v="Godfarbua" />
		<tag k="place" v="locality" />
		<tag k="ssr:stedsnr" v="500037" />
	</node>
	<node id="9819665679" lat="64.1021838" lon="14.0153823" version="1" timestamp="2022-06-15T11:14:02Z" changeset="122412992" uid="3497659" user="NKA">
		<tag k="name" v="Sagvika" />
		<tag k="place" v="farm" />
		<tag k="ssr:stedsnr" v="439786" />
	</node>
	<node id="9819665680" lat="64.10995" lon="13.9812139" version="1" timestamp="2022-06-15T11:14:02Z" changeset="122412992" uid="3497659" user="NKA">
		<tag k="name" v="Oppgard" />
		<tag k="place" v="farm" />
		<tag k="ssr:stedsnr" v="378813" />
	</node>
	<node id="9819665681" lat="64.24255" lon="13.9036971" version="1" timestamp="2022-06-15T11:14:02Z" changeset="122412992" uid="3497659" user="NKA">
		<tag k="name" v="Gamjoseteren" />
		<tag k="place" v="locality" />
		<tag k="ssr:stedsnr" v="378866" />
	</node>
	<node id="9819665682" lat="64.4905917" lon="13.4792973" version="1" timestamp="2022-06-15T11:14:02Z" changeset="122412992" uid="3497659" user="NKA">
		<tag k="alt_name" v="Lønset" />
		<tag k="name" v="Lønnset" />
		<tag k="place" v="farm" />
		<tag k="ssr:stedsnr" v="14199" />
	</node>
	<node id="9819665683" lat="64.1738777" lon="14.0295194" version="1" timestamp="2022-06-15T11:14:02Z" changeset="122412992" uid="3497659" user="NKA">
		<tag k="historic" v="shieling" />
		<tag k="name" v="Stuggunesseteran" />
		<tag k="place" v="isolated_dwelling" />
		<tag k="ssr:stedsnr" v="317947" />
	</node>
	<node id="9819665684" lat="64.4364973" lon="13.5773334" version="1" timestamp="2022-06-15T11:14:02Z" changeset="122412992" uid="3497659" user="NKA">
		<tag k="name" v="Hevlan" />
		<tag k="place" v="locality" />
		<tag k="ssr:stedsnr" v="14121" />
	</node>
	<node id="9819665685" lat="64.1511" lon="14.0247445" version="1" timestamp="2022-06-15T11:14:02Z" changeset="122412992" uid="3497659" user="NKA">
		<tag k="name" v="Austneset" />
		<tag k="place" v="farm" />
		<tag k="ssr:stedsnr" v="317990" />
	</node>
	<node id="9819665686" lat="64.4964369" lon="13.4018457" version="1" timestamp="2022-06-15T11:14:02Z" changeset="122412992" uid="3497659" user="NKA">
		<tag k="name" v="Fagerlia" />
		<tag k="place" v="farm" />
		<tag k="ssr:stedsnr" v="863228" />
	</node>
	<node id="9819665687" lat="64.4577306" lon="13.5970172" version="1" timestamp="2022-06-15T11:14:02Z" changeset="122412992" uid="3497659" user="NKA">
		<tag k="name" v="Engan" />
		<tag k="place" v="farm" />
		<tag k="ssr:stedsnr" v="13179" />
	</node>
	<node id="9819665688" lat="64.1084667" lon="13.9835639" version="1" timestamp="2022-06-15T11:14:02Z" changeset="122412992" uid="3497659" user="NKA">
		<tag k="name" v="Linneset" />
		<tag k="place" v="farm" />
		<tag k="ssr:stedsnr" v="681781" />
	</node>
	<node id="9819665689" lat="64.2249333" lon="13.9263194" version="1" timestamp="2022-06-15T11:14:02Z" changeset="122412992" uid="3497659" user="NKA">
		<tag k="name" v="Sommarvadet" />
		<tag k="place" v="locality" />
		<tag k="ssr:stedsnr" v="317868" />
	</node>
	<node id="9819665690" lat="64.1086129" lon="13.9759414" version="1" timestamp="2022-06-15T11:14:02Z" changeset="122412992" uid="3497659" user="NKA">
		<tag k="name" v="Nergård" />
		<tag k="place" v="farm" />
		<tag k="ssr:stedsnr" v="439795" />
	</node>
	<node id="9819665691" lat="64.102425" lon="13.9261834" version="1" timestamp="2022-06-15T11:14:02Z" changeset="122412992" uid="3497659" user="NKA">
		<tag k="name" v="Skogli" />
		<tag k="place" v="farm" />
		<tag k="ssr:stedsnr" v="257801" />
	</node>
	<node id="9819665692" lat="64.4946249" lon="13.4101491" version="1" timestamp="2022-06-15T11:14:02Z" changeset="122412992" uid="3497659" user="NKA">
		<tag k="name" v="Trøbakk" />
		<tag k="place" v="farm" />
		<tag k="ssr:stedsnr" v="875758" />
	</node>
	<node id="9819665693" lat="64.1134834" lon="13.6377861" version="1" timestamp="2022-06-15T11:14:02Z" changeset="122412992" uid="3497659" user="NKA">
		<tag k="name" v="Holmtjønnhytta" />
		<tag k="place" v="isolated_dwelling" />
		<tag k="ssr:stedsnr" v="377792" />
	</node>
	<node id="9819665694" lat="64.454125" lon="13.6019834" version="1" timestamp="2022-06-15T11:14:02Z" changeset="122412992" uid="3497659" user="NKA">
		<tag k="name" v="Lindal" />
		<tag k="place" v="farm" />
		<tag k="ssr:stedsnr" v="863164" />
	</node>
	<node id="9819665695" lat="64.1344944" lon="14.0940249" version="1" timestamp="2022-06-15T11:14:02Z" changeset="122412992" uid="3497659" user="NKA">
		<tag k="name" v="Solvika" />
		<tag k="place" v="farm" />
		<tag k="ssr:stedsnr" v="256974" />
	</node>
	<node id="9819665696" lat="64.1772778" lon="14.0465445" version="1" timestamp="2022-06-15T11:14:02Z" changeset="122412992" uid="3497659" user="NKA">
		<tag k="historic" v="shieling" />
		<tag k="name" v="Bakkeseteren" />
		<tag k="place" v="isolated_dwelling" />
		<tag k="ssr:stedsnr" v="169288" />
	</node>
	<node id="9819665697" lat="64.4908336" lon="13.45492" version="1" timestamp="2022-06-15T11:14:02Z" changeset="122412992" uid="3497659" user="NKA">
		<tag k="name" v="Brattenga" />
		<tag k="place" v="farm" />
		<tag k="ssr:stedsnr" v="620239" />
	</node>
	<node id="9819665698" lat="64.1563275" lon="14.0563813" version="1" timestamp="2022-06-15T11:14:02Z" changeset="122412992" uid="3497659" user="NKA">
		<tag k="name" v="Brennmoen" />
		<tag k="place" v="farm" />
		<tag k="ssr:stedsnr" v="169258" />
	</node>
	<node id="9819665699" lat="64.4349069" lon="13.4604193" version="1" timestamp="2022-06-15T11:14:02Z" changeset="122412992" uid="3497659" user="NKA">
		<tag k="name" v="Ånesseteren" />
		<tag k="place" v="farm" />
		<tag k="ssr:stedsnr" v="653133" />
	</node>
	<node id="9819665700" lat="64.1573417" lon="14.1092499" version="1" timestamp="2022-06-15T11:14:02Z" changeset="122412992" uid="3497659" user="NKA">
		<tag k="historic" v="shieling" />
		<tag k="name" v="Eidesseteren" />
		<tag k="place" v="isolated_dwelling" />
		<tag k="ssr:stedsnr" v="135930" />
	</node>
	<node id="9819665701" lat="64.1790195" lon="14.0672278" version="1" timestamp="2022-06-15T11:14:02Z" changeset="122412992" uid="3497659" user="NKA">
		<tag k="name" v="Gammelheimen" />
		<tag k="place" v="locality" />
		<tag k="ssr:stedsnr" v="135958" />
	</node>
	<node id="9819665702" lat="64.0434361" lon="13.9867249" version="1" timestamp="2022-06-15T11:14:02Z" changeset="122412992" uid="3497659" user="NKA">
		<tag k="name" v="Nyborg" />
		<tag k="place" v="hamlet" />
		<tag k="ssr:stedsnr" v="134824" />
	</node>
	<node id="9819665703" lat="64.1737611" lon="14.0875722" version="1" timestamp="2022-06-15T11:14:02Z" changeset="122412992" uid="3497659" user="NKA">
		<tag k="historic" v="shieling" />
		<tag k="name" v="Eidesseteren" />
		<tag k="place" v="isolated_dwelling" />
		<tag k="ssr:stedsnr" v="196946" />
	</node>
	<node id="9819665704" lat="64.156828" lon="14.0566225" version="1" timestamp="2022-06-15T11:14:02Z" changeset="122412992" uid="3497659" user="NKA">
		<tag k="name" v="Endset" />
		<tag k="place" v="hamlet" />
		<tag k="ssr:stedsnr" v="121917" />
	</node>
	<node id="9819665705" lat="64.4585954" lon="13.46206" version="1" timestamp="2022-06-15T11:14:02Z" changeset="122412992" uid="3497659" user="NKA">
		<tag k="name" v="Tossåsen" />
		<tag k="place" v="hamlet" />
		<tag k="ssr:stedsnr" v="620151" />
	</node>
	<node id="9819665706" lat="64.10825" lon="13.980475" version="1" timestamp="2022-06-15T11:14:02Z" changeset="122412992" uid="3497659" user="NKA">
		<tag k="name" v="Rengen" />
		<tag k="place" v="farm" />
		<tag k="ssr:stedsnr" v="196767" />
	</node>
	<node id="9819665707" lat="64.3981139" lon="13.4786805" version="1" timestamp="2022-06-15T11:14:02Z" changeset="122412992" uid="3497659" user="NKA">
		<tag k="alt_name" v="Tisvasseteren" />
		<tag k="name" v="Skogenga" />
		<tag k="place" v="isolated_dwelling" />
		<tag k="ssr:stedsnr" v="620097" />
	</node>
	<node id="9819665708" lat="64.0908167" lon="13.9612333" version="1" timestamp="2022-06-15T11:14:02Z" changeset="122412992" uid="3497659" user="NKA">
		<tag k="name" v="Blåbærtorpet" />
		<tag k="place" v="isolated_dwelling" />
		<tag k="ssr:stedsnr" v="864780" />
	</node>
	<node id="9819665709" lat="64.4673627" lon="13.4970742" version="1" timestamp="2022-06-15T11:14:02Z" changeset="122412992" uid="3497659" user="NKA">
		<tag k="name" v="Kvernvika" />
		<tag k="place" v="isolated_dwelling" />
		<tag k="ssr:stedsnr" v="196205" />
	</node>
	<node id="9819665710" lat="64.7336445" lon="13.4806528" version="1" timestamp="2022-06-15T11:14:02Z" changeset="122412992" uid="3497659" user="NKA">
		<tag k="name" v="Furutangvika" />
		<tag k="place" v="farm" />
		<tag k="ssr:stedsnr" v="682306" />
	</node>
	<node id="9819665711" lat="64.4798026" lon="13.5101924" version="1" timestamp="2022-06-15T11:14:02Z" changeset="122412992" uid="3497659" user="NKA">
		<tag k="historic" v="shieling" />
		<tag k="name" v="Småvollseteren" />
		<tag k="place" v="isolated_dwelling" />
		<tag k="ssr:stedsnr" v="87796" />
	</node>
	<node id="9819665712" lat="64.4705945" lon="13.5309306" version="1" timestamp="2022-06-15T11:14:02Z" changeset="122412992" uid="3497659" user="NKA">
		<tag k="name" v="Støvika hyttefelt" />
		<tag k="place" v="neighbourhood" />
		<tag k="ssr:stedsnr" v="403427" />
	</node>
	<node id="9819665713" lat="64.5010222" lon="13.7227889" version="1" timestamp="2022-06-15T11:14:02Z" changeset="122412992" uid="3497659" user="NKA">
		<tag k="historic" v="shieling" />
		<tag k="name" v="Kveseteren" />
		<tag k="place" v="isolated_dwelling" />
		<tag k="ssr:stedsnr" v="925242" />
	</node>
	<node id="9819665714" lat="64.1982595" lon="14.0119894" version="1" timestamp="2022-06-15T11:14:02Z" changeset="122412992" uid="3497659" user="NKA">
		<tag k="historic" v="shieling" />
		<tag k="name" v="Bakkesseteren" />
		<tag k="place" v="isolated_dwelling" />
		<tag k="ssr:stedsnr" v="620895" />
	</node>
	<node id="9819665715" lat="64.1071778" lon="13.9893556" version="1" timestamp="2022-06-15T11:14:02Z" changeset="122412992" uid="3497659" user="NKA">
		<tag k="name" v="Brenna" />
		<tag k="place" v="farm" />
		<tag k="ssr:stedsnr" v="620755" />
	</node>
	<node id="9819665716" lat="64.1423611" lon="13.5883138" version="1" timestamp="2022-06-15T11:14:02Z" changeset="122412992" uid="3497659" user="NKA">
		<tag k="name" v="Torvkoian" />
		<tag k="place" v="locality" />
		<tag k="ssr:stedsnr" v="317783" />
	</node>
	<node id="9819665717" lat="64.063904" lon="14.0146513" version="1" timestamp="2022-06-15T11:14:02Z" changeset="122412992" uid="3497659" user="NKA">
		<tag k="name" v="Linneset" />
		<tag k="place" v="hamlet" />
		<tag k="ssr:stedsnr" v="620776" />
	</node>
	<node id="9819665718" lat="64.1209722" lon="13.5590639" version="1" timestamp="2022-06-15T11:14:02Z" changeset="122412992" uid="3497659" user="NKA">
		<tag k="name" v="Trivasshytta" />
		<tag k="place" v="isolated_dwelling" />
		<tag k="ssr:stedsnr" v="317770" />
	</node>
	<node id="9819665719" lat="64.1625722" lon="13.6577222" version="1" timestamp="2022-06-15T11:14:02Z" changeset="122412992" uid="3497659" user="NKA">
		<tag k="alt_name" v="Nysætern" />
		<tag k="historic" v="shieling" />
		<tag k="loc_name" v="Nyseteren" />
		<tag k="name" v="Nysætran" />
		<tag k="place" v="isolated_dwelling" />
		<tag k="ssr:stedsnr" v="256812" />
	</node>
	<node id="9819665720" lat="64.1017267" lon="14.0099423" version="1" timestamp="2022-06-15T11:14:02Z" changeset="122412992" uid="3497659" user="NKA">
		<tag k="name" v="Storbergvika" />
		<tag k="place" v="hamlet" />
		<tag k="ssr:stedsnr" v="620738" />
	</node>
	<node id="9819665721" lat="64.6516333" lon="13.6752611" version="1" timestamp="2022-06-15T11:14:02Z" changeset="122412992" uid="3497659" user="NKA">
		<tag k="name" v="Vollheim" />
		<tag k="place" v="farm" />
		<tag k="ssr:stedsnr" v="682482" />
	</node>
	<node id="9819665722" lat="64.1491556" lon="13.7731639" version="1" timestamp="2022-06-15T11:14:02Z" changeset="122412992" uid="3497659" user="NKA">
		<tag k="historic" v="shieling" />
		<tag k="name" v="Haugseteren" />
		<tag k="place" v="isolated_dwelling" />
		<tag k="ssr:stedsnr" v="135934" />
	</node>
	<node id="9819665723" lat="64.1571914" lon="14.0544093" version="1" timestamp="2022-06-15T11:14:02Z" changeset="122412992" uid="3497659" user="NKA">
		<tag k="name" v="Bakkmoen" />
		<tag k="place" v="farm" />
		<tag k="ssr:stedsnr" v="230263" />
	</node>
	<node id="9819665724" lat="64.4374837" lon="13.6245941" version="1" timestamp="2022-06-15T11:14:02Z" changeset="122412992" uid="3497659" user="NKA">
		<tag k="name" v="Alveland" />
		<tag k="place" v="farm" />
		<tag k="ssr:stedsnr" v="682162" />
	</node>
	<node id="9819665725" lat="64.4560374" lon="13.5989732" version="1" timestamp="2022-06-15T11:14:02Z" changeset="122412992" uid="3497659" user="NKA">
		<tag k="name" v="Nordstrand" />
		<tag k="place" v="farm" />
		<tag k="ssr:stedsnr" v="499125" />
	</node>
	<node id="9819665726" lat="64.1462369" lon="13.6913627" version="1" timestamp="2022-06-15T11:14:02Z" changeset="122412992" uid="3497659" user="NKA">
		<tag k="alt_name" v="Brennmosetern" />
		<tag k="historic" v="shieling" />
		<tag k="loc_name" v="Brennmoseteren" />
		<tag k="name" v="Brennmosætra" />
		<tag k="place" v="isolated_dwelling" />
		<tag k="ssr:stedsnr" v="196826" />
	</node>
	<node id="9819665727" lat="64.0967516" lon="14.0372689" version="1" timestamp="2022-06-15T11:14:02Z" changeset="122412992" uid="3497659" user="NKA">
		<tag k="name" v="Ny-Rengen" />
		<tag k="place" v="farm" />
		<tag k="ssr:stedsnr" v="109646" />
	</node>
	<node id="9819665728" lat="64.6100389" lon="13.6580084" version="1" timestamp="2022-06-15T11:14:02Z" changeset="122412992" uid="3497659" user="NKA">
		<tag k="loc_name" v="Rydningsseteren" />
		<tag k="name" v="Rydningsætra" />
		<tag k="place" v="isolated_dwelling" />
		<tag k="ssr:stedsnr" v="439378" />
	</node>
	<node id="9819665729" lat="64.6655081" lon="13.6615738" version="1" timestamp="2022-06-15T11:14:02Z" changeset="122412992" uid="3497659" user="NKA">
		<tag k="name" v="Østmoen" />
		<tag k="place" v="farm" />
		<tag k="ssr:stedsnr" v="318467" />
	</node>
	<node id="9819665730" lat="64.6355533" lon="13.6977459" version="1" timestamp="2022-06-15T11:14:02Z" changeset="122412992" uid="3497659" user="NKA">
		<tag k="name" v="Nordgård" />
		<tag k="place" v="farm" />
		<tag k="ssr:stedsnr" v="378393" />
	</node>
	<node id="9819665731" lat="64.5175556" lon="13.7041084" version="1" timestamp="2022-06-15T11:14:02Z" changeset="122412992" uid="3497659" user="NKA">
		<tag k="name" v="Nygård" />
		<tag k="place" v="farm" />
		<tag k="ssr:stedsnr" v="318033" />
	</node>
	<node id="9819665732" lat="64.4180222" lon="13.627875" version="1" timestamp="2022-06-15T11:14:02Z" changeset="122412992" uid="3497659" user="NKA">
		<tag k="alt_name" v="Bygset" />
		<tag k="name" v="Byggset" />
		<tag k="place" v="locality" />
		<tag k="ssr:stedsnr" v="378144" />
	</node>
	<node id="9819665733" lat="64.5221806" lon="13.6913972" version="1" timestamp="2022-06-15T11:14:02Z" changeset="122412992" uid="3497659" user="NKA">
		<tag k="name" v="Ny-Kvelia" />
		<tag k="place" v="farm" />
		<tag k="ssr:stedsnr" v="257042" />
	</node>
	<node id="9819665734" lat="64.3939278" lon="13.6666028" version="1" timestamp="2022-06-15T11:14:02Z" changeset="122412992" uid="3497659" user="NKA">
		<tag k="loc_name" v="Lauvsjølia" />
		<tag k="name" v="Løvsjølia" />
		<tag k="place" v="hamlet" />
		<tag k="ssr:stedsnr" v="317093" />
	</node>
	<node id="9819665735" lat="64.3342111" lon="13.6113306" version="1" timestamp="2022-06-15T11:14:02Z" changeset="122412992" uid="3497659" user="NKA">
		<tag k="name" v="Jenssetran" />
		<tag k="place" v="isolated_dwelling" />
		<tag k="ssr:stedsnr" v="378069" />
	</node>
	<node id="9819665736" lat="64.3259333" lon="13.5946436" version="1" timestamp="2022-06-15T11:14:02Z" changeset="122412992" uid="3497659" user="NKA">
		<tag k="name" v="Kveaunet" />
		<tag k="place" v="farm" />
		<tag k="ssr:stedsnr" v="742028" />
	</node>
	<node id="9819665737" lat="64.51715" lon="13.6348166" version="1" timestamp="2022-06-15T11:14:02Z" changeset="122412992" uid="3497659" user="NKA">
		<tag k="name" v="Oldernes" />
		<tag k="place" v="locality" />
		<tag k="ssr:stedsnr" v="136040" />
	</node>
	<node id="9819665738" lat="64.1507722" lon="13.6838973" version="1" timestamp="2022-06-15T11:14:02Z" changeset="122412992" uid="3497659" user="NKA">
		<tag k="alt_name" v="Sæterruet" />
		<tag k="name" v="Seterruet" />
		<tag k="place" v="locality" />
		<tag k="ssr:stedsnr" v="742815" />
	</node>
	<node id="9819665739" lat="64.3428972" lon="13.6187389" version="1" timestamp="2022-06-15T11:14:02Z" changeset="122412992" uid="3497659" user="NKA">
		<tag k="name" v="Fagvollsetran" />
		<tag k="place" v="hamlet" />
		<tag k="ssr:stedsnr" v="378064" />
	</node>
	<node id="9819665740" lat="64.2299222" lon="13.8046084" version="1" timestamp="2022-06-15T11:14:02Z" changeset="122412992" uid="3497659" user="NKA">
		<tag k="name" v="Høgsneset" />
		<tag k="place" v="farm" />
		<tag k="ssr:stedsnr" v="317799" />
	</node>
	<node id="9819665741" lat="64.3298788" lon="13.5907037" version="1" timestamp="2022-06-15T11:14:02Z" changeset="122412992" uid="3497659" user="NKA">
		<tag k="name" v="Aunet" />
		<tag k="place" v="hamlet" />
		<tag k="ssr:stedsnr" v="135031" />
	</node>
	<node id="9819665742" lat="64.6331685" lon="13.6279429" version="1" timestamp="2022-06-15T11:14:02Z" changeset="122412992" uid="3497659" user="NKA">
		<tag k="historic" v="shieling" />
		<tag k="name" v="Linmoseteren" />
		<tag k="place" v="isolated_dwelling" />
		<tag k="ssr:stedsnr" v="925416" />
	</node>
	<node id="9819665743" lat="64.1087914" lon="13.9820067" version="1" timestamp="2022-06-15T11:14:02Z" changeset="122412992" uid="3497659" user="NKA">
		<tag k="name" v="Østborg" />
		<tag k="place" v="hamlet" />
		<tag k="ssr:stedsnr" v="242920" />
	</node>
	<node id="9819665744" lat="64.1727334" lon="13.8458389" version="1" timestamp="2022-06-15T11:14:02Z" changeset="122412992" uid="3497659" user="NKA">
		<tag k="name" v="Trøberg" />
		<tag k="place" v="farm" />
		<tag k="ssr:stedsnr" v="135944" />
	</node>
	<node id="9819665745" lat="64.6249111" lon="13.6912" version="1" timestamp="2022-06-15T11:14:02Z" changeset="122412992" uid="3497659" user="NKA">
		<tag k="alt_name" v="Veium" />
		<tag k="name" v="Veiem" />
		<tag k="place" v="farm" />
		<tag k="ssr:stedsnr" v="864441" />
	</node>
	<node id="9819665746" lat="64.5070416" lon="13.8795138" version="1" timestamp="2022-06-15T11:14:02Z" changeset="122412992" uid="3497659" user="NKA">
		<tag k="name" v="Harrtangen" />
		<tag k="place" v="isolated_dwelling" />
		<tag k="ssr:stedsnr" v="257237" />
	</node>
	<node id="9819665747" lat="64.4851111" lon="14.0266527" version="1" timestamp="2022-06-15T11:14:02Z" changeset="122412992" uid="3497659" user="NKA">
		<tag k="name" v="Murumoen" />
		<tag k="place" v="hamlet" />
		<tag k="ssr:stedsnr" v="499020" />
	</node>
	<node id="9819665748" lat="64.5017862" lon="13.9111666" version="1" timestamp="2022-06-15T11:14:02Z" changeset="122412992" uid="3497659" user="NKA">
		<tag k="name" v="Viklund" />
		<tag k="place" v="isolated_dwelling" />
		<tag k="ssr:stedsnr" v="742206" />
	</node>
	<node id="9819665749" lat="64.4927361" lon="13.9082668" version="1" timestamp="2022-06-15T11:14:02Z" changeset="122412992" uid="3497659" user="NKA">
		<tag k="name" v="Bjørkås" />
		<tag k="place" v="farm" />
		<tag k="ssr:stedsnr" v="256043" />
	</node>
	<node id="9819665750" lat="64.51815" lon="13.6730471" version="1" timestamp="2022-06-15T11:14:02Z" changeset="122412992" uid="3497659" user="NKA">
		<tag k="name" v="Kveliaunet" />
		<tag k="place" v="farm" />
		<tag k="ssr:stedsnr" v="594957" />
	</node>
	<node id="9819665751" lat="64.4475639" lon="13.6721473" version="1" timestamp="2022-06-15T11:14:02Z" changeset="122412992" uid="3497659" user="NKA">
		<tag k="name" v="Solum" />
		<tag k="place" v="farm" />
		<tag k="ssr:stedsnr" v="620174" />
	</node>
	<node id="9819665752" lat="64.3926305" lon="13.6503638" version="1" timestamp="2022-06-15T11:14:02Z" changeset="122412992" uid="3497659" user="NKA">
		<tag k="name" v="Løvsjølia hyttefelt" />
		<tag k="place" v="neighbourhood" />
		<tag k="ssr:stedsnr" v="646433" />
	</node>
	<node id="9819665753" lat="64.4700055" lon="14.0094666" version="1" timestamp="2022-06-15T11:14:02Z" changeset="122412992" uid="3497659" user="NKA">
		<tag k="name" v="Murubekkhytta" />
		<tag k="place" v="isolated_dwelling" />
		<tag k="ssr:stedsnr" v="620016" />
	</node>
	<node id="9819665754" lat="64.4406242" lon="13.6394824" version="1" timestamp="2022-06-15T11:14:02Z" changeset="122412992" uid="3497659" user="NKA">
		<tag k="name" v="Sørgården" />
		<tag k="place" v="farm" />
		<tag k="ssr:stedsnr" v="974251" />
	</node>
	<node id="9819665755" lat="64.4374528" lon="13.6359779" version="1" timestamp="2022-06-15T11:14:02Z" changeset="122412992" uid="3497659" user="NKA">
		<tag k="alt_name" v="Strømvollen" />
		<tag k="name" v="Straumvollen" />
		<tag k="place" v="isolated_dwelling" />
		<tag k="ssr:stedsnr" v="560127" />
	</node>
	<node id="9819665756" lat="64.4457139" lon="13.71815" version="1" timestamp="2022-06-15T11:14:02Z" changeset="122412992" uid="3497659" user="NKA">
		<tag k="name" v="Moen" />
		<tag k="place" v="farm" />
		<tag k="ssr:stedsnr" v="741157" />
	</node>
	<node id="9819665757" lat="64.5367611" lon="13.782275" version="1" timestamp="2022-06-15T11:14:02Z" changeset="122412992" uid="3497659" user="NKA">
		<tag k="name" v="Fossdalsseteren" />
		<tag k="place" v="locality" />
		<tag k="ssr:stedsnr" v="742215" />
	</node>
	<node id="9819665758" lat="64.4180916" lon="14.004196" version="1" timestamp="2022-06-15T11:14:02Z" changeset="122412992" uid="3497659" user="NKA">
		<tag k="name" v="Fiskløyshytta" />
		<tag k="place" v="isolated_dwelling" />
		<tag k="ssr:stedsnr" v="75829" />
	</node>
</osm>
