<?xml version="1.0" encoding="UTF-8"?>
<osm generator="osmapis" version="0.6">
	<node id="-441334" lat="59.7980750041" lon="5.25183611896">
		<tag k="historic" v="shieling" />
		<tag k="name" v="Brendesæter" />
		<tag k="place" v="locality" />
		<tag k="ssr:stedsnr" v="827989" />
	</node>
	<node id="-439017" lat="59.6548027774" lon="5.16741388294">
		<tag k="name" v="Stormyra" />
		<tag k="natural" v="wetland" />
		<tag k="ssr:stedsnr" v="888783" />
	</node>
	<node id="-440564" lat="59.8439611114" lon="5.17364166096">
		<tag k="historic" v="shieling" />
		<tag k="name" v="Sisselsætret" />
		<tag k="place" v="locality" />
		<tag k="ssr:stedsnr" v="584849" />
	</node>
	<node id="-438897" lat="59.6374888856" lon="5.17629721562">
		<tag k="name" v="Bruamyra" />
		<tag k="natural" v="wetland" />
		<tag k="ssr:stedsnr" v="401774" />
	</node>
	<node id="-441325" lat="59.8012833332" lon="5.05157778014">
		<tag k="name" v="Klovskjersteinen" />
		<tag k="natural" v="stone" />
		<tag k="ssr:stedsnr" v="827913" />
	</node>
	<node id="-440169" lat="59.8295694456" lon="5.20432222314">
		<tag k="historic" v="shieling" />
		<tag k="name" v="Nilsasætret" />
		<tag k="place" v="locality" />
		<tag k="ssr:stedsnr" v="464333" />
	</node>
	<node id="-440935" lat="59.8162527757" lon="5.19079999535">
		<tag k="name" v="Storhaugmarka" />
		<tag k="place" v="locality" />
		<tag k="ssr:stedsnr" v="705874" />
	</node>
	<node id="-441317" lat="59.8108833333" lon="5.16105278367">
		<tag k="name" v="Rundesteinen" />
		<tag k="natural" v="stone" />
		<tag k="ssr:stedsnr" v="827879" />
	</node>
	<node id="-440927" lat="59.6390111084" lon="5.17054721583">
		<tag k="name" v="Stormyra" />
		<tag k="natural" v="wetland" />
		<tag k="ssr:stedsnr" v="705845" />
	</node>
	<node id="-439515" lat="59.8895249966" lon="5.14180833584">
		<tag k="name" v="Jakobsjorda" />
		<tag k="place" v="locality" />
		<tag k="ssr:stedsnr" v="118616" />
	</node>
	<node id="-439249" lat="59.7842250039" lon="5.18055833355">
		<tag k="historic" v="shieling" />
		<tag k="name" v="Kvernastølane" />
		<tag k="place" v="locality" />
		<tag k="ssr:stedsnr" v="38853" />
	</node>
	<node id="-438989" lat="59.8002611099" lon="5.30048055772">
		<tag k="historic" v="shieling" />
		<tag k="name" v="Høgestølen" />
		<tag k="place" v="locality" />
		<tag k="ssr:stedsnr" v="887789" />
	</node>
	<node id="-438946" lat="59.7474138933" lon="5.27386111403">
		<tag k="landuse" v="quarry" />
		<tag k="name" v="Sletten" />
		<tag k="ssr:stedsnr" v="404745" />
	</node>
	<node id="-440646" lat="59.6160250016" lon="5.188477779">
		<tag k="name" v="Stormyra" />
		<tag k="natural" v="wetland" />
		<tag k="ssr:stedsnr" v="609801" />
	</node>
	<node id="-441155" lat="59.6592805513" lon="5.15851666918">
		<tag k="name" v="Ternurda" />
		<tag k="natural" v="scree" />
		<tag k="ssr:stedsnr" v="768887" />
	</node>
	<node id="-439873" lat="59.6803166673" lon="5.34428333021">
		<tag k="name" v="Ramnsurda" />
		<tag k="natural" v="scree" />
		<tag k="ssr:stedsnr" v="223290" />
	</node>
	<node id="-438495" lat="59.7985277761" lon="5.25857500383">
		<tag k="historic" v="shieling" />
		<tag k="name" v="Brendeseter" />
		<tag k="place" v="locality" />
		<tag k="ssr:stedsnr" v="281829" />
	</node>
	<node id="-439223" lat="59.6693388924" lon="5.24657221769">
		<tag k="name" v="Leirfjellsmyra" />
		<tag k="natural" v="wetland" />
		<tag k="ssr:stedsnr" v="27188" />
	</node>
	<node id="-441139" lat="59.6242083356" lon="5.24265555932">
		<tag k="name" v="Danielsurda" />
		<tag k="natural" v="scree" />
		<tag k="ssr:stedsnr" v="767939" />
	</node>
	<node id="-441138" lat="59.8013861088" lon="5.21836667273">
		<tag k="historic" v="shieling" />
		<tag k="name" v="Hagastølen" />
		<tag k="place" v="locality" />
		<tag k="ssr:stedsnr" v="766981" />
	</node>
	<node id="-438701" lat="59.8166555568" lon="5.08741945224">
		<tag k="historic" v="shieling" />
		<tag k="name" v="Rogøysætre" />
		<tag k="place" v="locality" />
		<tag k="ssr:stedsnr" v="341848" />
	</node>
	<node id="-440354" lat="59.7981194439" lon="5.21852777307">
		<tag k="name" v="Blindingestølen" />
		<tag k="place" v="locality" />
		<tag k="ssr:stedsnr" v="523979" />
	</node>
	<node id="-441120" lat="59.8212027765" lon="5.17061943919">
		<tag k="historic" v="shieling" />
		<tag k="name" v="Laurhammarsetre" />
		<tag k="place" v="locality" />
		<tag k="ssr:stedsnr" v="766856" />
	</node>
	<node id="-439320" lat="59.62565" lon="5.19235833354">
		<tag k="name" v="Luddemyra" />
		<tag k="natural" v="wetland" />
		<tag k="ssr:stedsnr" v="42983" />
	</node>
	<node id="-439702" lat="59.6198777811" lon="5.18435278015">
		<tag k="name" v="Trollmyra" />
		<tag k="natural" v="wetland" />
		<tag k="ssr:stedsnr" v="163999" />
	</node>
	<node id="-439829" lat="59.642702774" lon="5.17048333057">
		<tag k="name" v="Lakreimyra" />
		<tag k="natural" v="wetland" />
		<tag k="ssr:stedsnr" v="219827" />
	</node>
	<node id="-440340" lat="59.6556611104" lon="5.16570000098">
		<tag k="name" v="Kløypersmyra" />
		<tag k="natural" v="wetland" />
		<tag k="ssr:stedsnr" v="523831" />
	</node>
	<node id="-440327" lat="59.8285611075" lon="5.24475278099">
		<tag k="name" v="Djupamyra" />
		<tag k="natural" v="wetland" />
		<tag k="ssr:stedsnr" v="522164" />
	</node>
</osm>
