<?xml version="1.0" encoding="UTF-8"?>
<osm generator="osmapis" version="0.6">
	<node id="-439808" lat="59.7394277744" lon="5.20533612024">
		<tag k="name" v="Vordnes" />
		<tag k="place" v="farm" />
		<tag k="ssr:stedsnr" v="208332" />
	</node>
	<node id="-439806" lat="59.7902916677" lon="5.12023888681">
		<tag k="name" v="Holo" />
		<tag k="place" v="farm" />
		<tag k="ssr:stedsnr" v="207961" />
	</node>
	<node id="-439800" lat="59.702219535" lon="5.35974045668">
		<tag k="name" v="Skimmeland" />
		<tag k="place" v="hamlet" />
		<tag k="ssr:stedsnr" v="207698" />
	</node>
	<node id="-439286" lat="59.719433332" lon="5.24091945182">
		<tag k="historic" v="shieling" />
		<tag k="name" v="Bjørnavikstølen" />
		<tag k="place" v="locality" />
		<tag k="ssr:stedsnr" v="40741" />
	</node>
	<node id="-439294" lat="59.6979666626" lon="5.38434444598">
		<tag k="fixme" v="consider place=suburb, village or hamlet" />
		<tag k="name" v="Hamradalen" />
		<tag k="place" v="quarter" />
		<tag k="ssr:stedsnr" v="41317" />
	</node>
	<node id="-439280" lat="59.7632784936" lon="5.30206515405">
		<tag k="fixme" v="consider place=hamlet" />
		<tag k="name" v="Kyrkjeteigen" />
		<tag k="place" v="farm" />
		<tag k="ssr:stedsnr" v="40728" />
	</node>
	<node id="-438765" lat="59.5912416667" lon="5.19033055533">
		<tag k="historic" v="shieling" />
		<tag k="name" v="Nesjastølen" />
		<tag k="place" v="locality" />
		<tag k="ssr:stedsnr" v="360562" />
	</node>
	<node id="-440297" lat="59.5964294873" lon="5.23090223001">
		<tag k="fixme" v="consider place=hamlet" />
		<tag k="name" v="Bømlahamn" />
		<tag k="place" v="farm" />
		<tag k="ssr:stedsnr" v="506689" />
	</node>
	<node id="-438755" lat="59.6061867515" lon="5.2084215793">
		<tag k="fixme" v="consider place=hamlet" />
		<tag k="name" v="Hillestveit" />
		<tag k="place" v="farm" />
		<tag k="ssr:stedsnr" v="345729" />
	</node>
	<node id="-438754" lat="59.7074194462" lon="5.17518056388">
		<tag k="name" v="Nymark" />
		<tag k="place" v="farm" />
		<tag k="ssr:stedsnr" v="345709" />
	</node>
	<node id="-438753" lat="59.5985888862" lon="5.23168611101">
		<tag k="fixme" v="consider place=hamlet" />
		<tag k="name" v="Løningsneset" />
		<tag k="place" v="farm" />
		<tag k="ssr:stedsnr" v="345706" />
	</node>
	<node id="-438752" lat="59.6025999985" lon="5.2196027826">
		<tag k="name" v="Hovland" />
		<tag k="place" v="hamlet" />
		<tag k="ssr:stedsnr" v="345666" />
	</node>
	<node id="-439773" lat="59.7597144847" lon="5.20444497759">
		<tag k="alt_name" v="Arnanes" />
		<tag k="fixme" v="consider place=hamlet" />
		<tag k="name" v="Ådnanes" />
		<tag k="place" v="farm" />
		<tag k="ssr:stedsnr" v="186671" />
	</node>
	<node id="-439772" lat="59.7664930649" lon="5.12534647439">
		<tag k="fixme" v="consider place=hamlet" />
		<tag k="name" v="Mehus" />
		<tag k="place" v="farm" />
		<tag k="ssr:stedsnr" v="186668" />
	</node>
	<node id="-439119" lat="59.7648933921" lon="5.28513281783">
		<tag k="fixme" v="consider place=hamlet" />
		<tag k="name" v="Sølvrusten" />
		<tag k="place" v="farm" />
		<tag k="ssr:stedsnr" v="990368" />
	</node>
	<node id="-440791" lat="59.7070356326" lon="5.34979678582">
		<tag k="fixme" v="consider place=hamlet" />
		<tag k="name" v="Espeland" />
		<tag k="place" v="farm" />
		<tag k="ssr:stedsnr" v="731514" />
	</node>
	<node id="-440057" lat="59.765194012" lon="5.13165048331">
		<tag k="alt_name" v="Synstabø" />
		<tag k="fixme" v="consider place=hamlet" />
		<tag k="name" v="Sønstabø" />
		<tag k="place" v="farm" />
		<tag k="ssr:stedsnr" v="428577" />
	</node>
	<node id="-440276" lat="59.7941790747" lon="5.27432225941">
		<tag k="fixme" v="consider place=hamlet" />
		<tag k="name" v="Mækjebakken" />
		<tag k="place" v="farm" />
		<tag k="ssr:stedsnr" v="489532" />
	</node>
	<node id="-438667" lat="59.735328938" lon="5.222707806">
		<tag k="fixme" v="consider place=hamlet" />
		<tag k="name" v="Steinsvåg" />
		<tag k="place" v="farm" />
		<tag k="ssr:stedsnr" v="330429" />
	</node>
	<node id="-439758" lat="59.6978354326" lon="5.26179533471">
		<tag k="alt_name" v="Børøy" />
		<tag k="fixme" v="consider place=hamlet" />
		<tag k="name" v="Børøya" />
		<tag k="place" v="farm" />
		<tag k="ssr:stedsnr" v="185955" />
	</node>
	<node id="-439117" lat="59.8189567355" lon="5.28567459106">
		<tag k="fixme" v="consider place=hamlet" />
		<tag k="name" v="Osparøya" />
		<tag k="place" v="farm" />
		<tag k="ssr:stedsnr" v="990365" />
	</node>
	<node id="-438729" lat="59.6988249986" lon="5.38359444345">
		<tag k="name" v="Vestra Mosterhamn" />
		<tag k="place" v="village" />
		<tag k="ssr:stedsnr" v="344304" />
	</node>
	<node id="-439752" lat="59.8989328549" lon="5.09812644492">
		<tag k="alt_name" v="Eidet" />
		<tag k="fixme" v="consider place=hamlet" />
		<tag k="name" v="Eide" />
		<tag k="place" v="farm" />
		<tag k="ssr:stedsnr" v="185860" />
	</node>
	<node id="-439628" lat="59.7890333309" lon="5.11993889104">
		<tag k="name" v="Nedranese" />
		<tag k="place" v="hamlet" />
		<tag k="ssr:stedsnr" v="158210" />
	</node>
	<node id="-438829" lat="59.8382086851" lon="5.09567630675">
		<tag k="fixme" v="consider place=hamlet" />
		<tag k="name" v="Katla" />
		<tag k="place" v="farm" />
		<tag k="ssr:stedsnr" v="367864" />
	</node>
	<node id="-440201" lat="59.7119638883" lon="5.17063889663">
		<tag k="name" v="Verket" />
		<tag k="place" v="locality" />
		<tag k="ssr:stedsnr" v="466726" />
	</node>
	<node id="-440054" lat="59.7704840041" lon="5.22358886338">
		<tag k="fixme" v="consider place=hamlet" />
		<tag k="name" v="Sætre" />
		<tag k="place" v="farm" />
		<tag k="ssr:stedsnr" v="428562" />
	</node>
	<node id="-441281" lat="59.7449689531" lon="5.2596634015">
		<tag k="fixme" v="consider place=hamlet" />
		<tag k="name" v="Finnås" />
		<tag k="place" v="farm" />
		<tag k="ssr:stedsnr" v="815392" />
	</node>
	<node id="-440256" lat="59.5923077008" lon="5.19882633389">
		<tag k="fixme" v="consider place=hamlet" />
		<tag k="name" v="Kalavåg" />
		<tag k="place" v="farm" />
		<tag k="ssr:stedsnr" v="488774" />
	</node>
	<node id="-441278" lat="59.7344111998" lon="5.20280585616">
		<tag k="fixme" v="consider place=hamlet" />
		<tag k="name" v="Selvåg" />
		<tag k="place" v="farm" />
		<tag k="ssr:stedsnr" v="815332" />
	</node>
	<node id="-440765" lat="59.7638805545" lon="5.25266944943">
		<tag k="name" v="Stautland" />
		<tag k="place" v="farm" />
		<tag k="ssr:stedsnr" v="646890" />
	</node>
	<node id="-439739" lat="59.7750499972" lon="5.16673610473">
		<tag k="name" v="Øygard" />
		<tag k="place" v="farm" />
		<tag k="ssr:stedsnr" v="185541" />
	</node>
	<node id="-439738" lat="59.731091665" lon="5.30574445154">
		<tag k="name" v="Tunge" />
		<tag k="place" v="farm" />
		<tag k="ssr:stedsnr" v="185539" />
	</node>
	<node id="-439737" lat="59.7317576197" lon="5.33183658979">
		<tag k="alt_name" v="Røyksund, yt;Røyksund Yt;Røyksund" />
		<tag k="fixme" v="consider place=hamlet" />
		<tag k="name" v="Ytre Røyksund" />
		<tag k="place" v="farm" />
		<tag k="ssr:stedsnr" v="185538" />
	</node>
	<node id="-439736" lat="59.7438972206" lon="5.27200555671">
		<tag k="name" v="Grønevik" />
		<tag k="place" v="farm" />
		<tag k="ssr:stedsnr" v="185533" />
	</node>
	<node id="-440759" lat="59.7634133056" lon="5.26881319265">
		<tag k="fixme" v="consider place=hamlet" />
		<tag k="name" v="Oldereid" />
		<tag k="place" v="farm" />
		<tag k="ssr:stedsnr" v="646678" />
	</node>
	<node id="-441270" lat="59.8480174612" lon="5.15428990839">
		<tag k="fixme" v="consider place=hamlet" />
		<tag k="name" v="Krunenes" />
		<tag k="place" v="farm" />
		<tag k="ssr:stedsnr" v="814847" />
	</node>
	<node id="-439221" lat="59.7004111147" lon="5.36745000685">
		<tag k="name" v="Notland" />
		<tag k="place" v="farm" />
		<tag k="ssr:stedsnr" v="26425" />
	</node>
	<node id="-438708" lat="59.8215888904" lon="5.15766666333">
		<tag k="name" v="Steganesgarden" />
		<tag k="place" v="locality" />
		<tag k="ssr:stedsnr" v="341871" />
	</node>
	<node id="-440242" lat="59.7190027735" lon="5.35140832835">
		<tag k="name" v="Naustbakken" />
		<tag k="place" v="farm" />
		<tag k="ssr:stedsnr" v="488510" />
	</node>
	<node id="-439728" lat="59.7020055576" lon="5.18248610398">
		<tag k="fixme" v="consider place=hamlet" />
		<tag k="name" v="Lykling" />
		<tag k="place" v="village" />
		<tag k="ssr:stedsnr" v="185488" />
	</node>
	<node id="-439368" lat="59.7613784587" lon="5.18156047938">
		<tag k="fixme" v="consider place=hamlet" />
		<tag k="name" v="Fylkesneset" />
		<tag k="place" v="farm" />
		<tag k="ssr:stedsnr" v="64611" />
	</node>
	<node id="-439211" lat="59.865338643" lon="5.0823855986">
		<tag k="fixme" v="consider place=hamlet" />
		<tag k="name" v="Skinnhuveneset" />
		<tag k="place" v="farm" />
		<tag k="ssr:stedsnr" v="25814" />
	</node>
	<node id="-439209" lat="59.8335833306" lon="5.24772500132">
		<tag k="name" v="Monsvik" />
		<tag k="place" v="farm" />
		<tag k="ssr:stedsnr" v="25759" />
	</node>
	<node id="-439719" lat="59.7356499988" lon="5.204661106">
		<tag k="name" v="Nygård" />
		<tag k="place" v="farm" />
		<tag k="ssr:stedsnr" v="181994" />
	</node>
	<node id="-441251" lat="59.8354583336" lon="5.24049167413">
		<tag k="alt_name" v="Krabbvik" />
		<tag k="name" v="Krabbavika" />
		<tag k="place" v="isolated_dwelling" />
		<tag k="ssr:stedsnr" v="792998" />
	</node>
	<node id="-438689" lat="59.7463527809" lon="5.32105277701">
		<tag k="historic" v="shieling" />
		<tag k="name" v="Trappestølen" />
		<tag k="place" v="locality" />
		<tag k="ssr:stedsnr" v="341509" />
	</node>
	<node id="-440735" lat="59.7664027778" lon="5.18162777955">
		<tag k="name" v="Fylkesnes" />
		<tag k="place" v="farm" />
		<tag k="ssr:stedsnr" v="644840" />
	</node>
	<node id="-438853" lat="59.6759020211" lon="5.16957650087">
		<tag k="fixme" v="consider place=hamlet" />
		<tag k="name" v="Grutle" />
		<tag k="place" v="farm" />
		<tag k="ssr:stedsnr" v="384785" />
	</node>
	<node id="-439194" lat="59.7654361071" lon="5.32203332501">
		<tag k="fixme" v="consider place=hamlet" />
		<tag k="name" v="Stokka" />
		<tag k="place" v="farm" />
		<tag k="ssr:stedsnr" v="4613" />
	</node>
	<node id="-438681" lat="59.6414095457" lon="5.19444457144">
		<tag k="name" v="Leite" />
		<tag k="place" v="farm" />
		<tag k="ssr:stedsnr" v="340803" />
	</node>
	<node id="-438596" lat="59.6498045179" lon="5.16364489179">
		<tag k="fixme" v="consider place=hamlet" />
		<tag k="name" v="Holme" />
		<tag k="place" v="farm" />
		<tag k="ssr:stedsnr" v="306877" />
	</node>
	<node id="-440217" lat="59.5918888854" lon="5.19405277992">
		<tag k="historic" v="shieling" />
		<tag k="name" v="Alvastølen" />
		<tag k="place" v="locality" />
		<tag k="ssr:stedsnr" v="482575" />
	</node>
	<node id="-438936" lat="59.896118184" lon="5.09741571814">
		<tag k="fixme" v="consider place=hamlet" />
		<tag k="name" v="Torget" />
		<tag k="place" v="farm" />
		<tag k="ssr:stedsnr" v="404561" />
	</node>
	<node id="-439693" lat="59.7500750022" lon="5.26437221681">
		<tag k="historic" v="shieling" />
		<tag k="name" v="Finnåsstølen" />
		<tag k="place" v="locality" />
		<tag k="ssr:stedsnr" v="163685" />
	</node>
	<node id="-441228" lat="59.866888888" lon="5.11734999567">
		<tag k="alt_name" v="Myro" />
		<tag k="name" v="Myra" />
		<tag k="place" v="farm" />
		<tag k="ssr:stedsnr" v="792800" />
	</node>
	<node id="-441227" lat="59.5896706274" lon="5.15093720032">
		<tag k="fixme" v="consider place=hamlet" />
		<tag k="name" v="Espevær" />
		<tag k="place" v="farm" />
		<tag k="ssr:stedsnr" v="792758" />
	</node>
	<node id="-439177" lat="59.8050896864" lon="5.17140210498">
		<tag k="fixme" v="consider place=hamlet" />
		<tag k="name" v="Urang" />
		<tag k="place" v="farm" />
		<tag k="ssr:stedsnr" v="3950" />
	</node>
	<node id="-440712" lat="59.8525583339" lon="5.22291110598">
		<tag k="name" v="Agasøster" />
		<tag k="place" v="isolated_dwelling" />
		<tag k="ssr:stedsnr" v="639119" />
	</node>
	<node id="-439174" lat="59.8661067112" lon="5.09767272481">
		<tag k="alt_name" v="Skålavik" />
		<tag k="fixme" v="consider place=hamlet" />
		<tag k="name" v="Skålavika" />
		<tag k="place" v="farm" />
		<tag k="ssr:stedsnr" v="3934" />
	</node>
	<node id="-440709" lat="59.7679777772" lon="5.19173888835">
		<tag k="name" v="Sletto" />
		<tag k="place" v="farm" />
		<tag k="ssr:stedsnr" v="632372" />
	</node>
	<node id="-440708" lat="59.7318750009" lon="5.19170000492">
		<tag k="name" v="Selvågseter" />
		<tag k="place" v="locality" />
		<tag k="ssr:stedsnr" v="632365" />
	</node>
	<node id="-440706" lat="59.7443055555" lon="5.26916666257">
		<tag k="name" v="Roaldsplassen" />
		<tag k="place" v="isolated_dwelling" />
		<tag k="ssr:stedsnr" v="632359" />
	</node>
	<node id="-441217" lat="59.7693614411" lon="5.12965858624">
		<tag k="fixme" v="consider place=hamlet" />
		<tag k="name" v="Nordtun" />
		<tag k="place" v="farm" />
		<tag k="ssr:stedsnr" v="792507" />
	</node>
	<node id="-438656" lat="59.7391305521" lon="5.23156388899">
		<tag k="name" v="Finnås" />
		<tag k="place" v="farm" />
		<tag k="ssr:stedsnr" v="329337" />
	</node>
	<node id="-441215" lat="59.7802443537" lon="5.12241485836">
		<tag k="fixme" v="consider place=hamlet" />
		<tag k="name" v="Meling" />
		<tag k="place" v="farm" />
		<tag k="ssr:stedsnr" v="792494" />
	</node>
	<node id="-439678" lat="59.6957249963" lon="5.35572499737">
		<tag k="fixme" v="consider place=suburb, village or hamlet" />
		<tag k="name" v="Nedra Grindeim" />
		<tag k="place" v="quarter" />
		<tag k="ssr:stedsnr" v="162265" />
	</node>
	<node id="-438653" lat="59.8691416652" lon="5.15699166579">
		<tag k="name" v="Kolameiso" />
		<tag k="place" v="farm" />
		<tag k="ssr:stedsnr" v="328836" />
	</node>
	<node id="-439676" lat="59.6945611117" lon="5.34135832737">
		<tag k="fixme" v="consider place=suburb, village or hamlet" />
		<tag k="name" v="Totlandssjøen" />
		<tag k="place" v="quarter" />
		<tag k="ssr:stedsnr" v="162255" />
	</node>
	<node id="-440183" lat="59.7458324529" lon="5.269669409">
		<tag k="name" v="Nedrebø" />
		<tag k="place" v="farm" />
		<tag k="ssr:stedsnr" v="465779" />
	</node>
	<node id="-438643" lat="59.7024111074" lon="5.37089722678">
		<tag k="name" v="Vestre Grønås" />
		<tag k="place" v="hamlet" />
		<tag k="ssr:stedsnr" v="102708" />
	</node>
	<node id="-440176" lat="59.7226557206" lon="5.22162752492">
		<tag k="fixme" v="consider place=hamlet" />
		<tag k="name" v="Våge" />
		<tag k="place" v="farm" />
		<tag k="ssr:stedsnr" v="466522" />
	</node>
	<node id="-439150" lat="59.733635946" lon="5.29551170606">
		<tag k="alt_name" v="Håvik, yt" />
		<tag k="fixme" v="consider place=hamlet" />
		<tag k="name" v="Ytra Håvik" />
		<tag k="place" v="farm" />
		<tag k="ssr:stedsnr" v="3549" />
	</node>
	<node id="-438636" lat="59.8725583339" lon="5.16853610873">
		<tag k="name" v="Myra" />
		<tag k="place" v="farm" />
		<tag k="ssr:stedsnr" v="307922" />
	</node>
	<node id="-441195" lat="59.7338444424" lon="5.20219443839">
		<tag k="historic" v="shieling" />
		<tag k="name" v="Selvågsætre" />
		<tag k="place" v="locality" />
		<tag k="ssr:stedsnr" v="787985" />
	</node>
	<node id="-441706" lat="59.7181472263" lon="5.17740555712">
		<tag k="fixme" v="consider place=hamlet" />
		<tag k="name" v="Øvra Tverborgvika" />
		<tag k="place" v="village" />
		<tag k="ssr:stedsnr" v="967705" />
	</node>
	<node id="-438503" lat="59.7904416663" lon="5.16664721696">
		<tag k="name" v="Maldivo" />
		<tag k="place" v="locality" />
		<tag k="ssr:stedsnr" v="282271" />
	</node>
	<node id="-441188" lat="59.6128249994" lon="5.17614167376">
		<tag k="name" v="Sætre" />
		<tag k="place" v="farm" />
		<tag k="ssr:stedsnr" v="785713" />
	</node>
	<node id="-441403" lat="59.7195083308" lon="5.24541388298">
		<tag k="alt_name" v="Bjørnavik" />
		<tag k="fixme" v="consider place=hamlet" />
		<tag k="name" v="Bjørnavika" />
		<tag k="place" v="farm" />
		<tag k="ssr:stedsnr" v="852507" />
	</node>
	<node id="-439135" lat="59.8822681572" lon="5.09412336626">
		<tag k="fixme" v="consider place=hamlet" />
		<tag k="name" v="Ylvesund" />
		<tag k="place" v="farm" />
		<tag k="ssr:stedsnr" v="990392" />
	</node>
	<node id="-440670" lat="59.5888901969" lon="5.18898395863">
		<tag k="fixme" v="consider place=hamlet" />
		<tag k="name" v="Vestvik" />
		<tag k="place" v="farm" />
		<tag k="ssr:stedsnr" v="610779" />
	</node>
	<node id="-439133" lat="59.6787509288" lon="5.16057643305">
		<tag k="fixme" v="consider place=hamlet" />
		<tag k="name" v="Stokkvika" />
		<tag k="place" v="farm" />
		<tag k="ssr:stedsnr" v="990389" />
	</node>
	<node id="-439132" lat="59.6990685613" lon="5.18305797454">
		<tag k="name" v="Nese" />
		<tag k="place" v="hamlet" />
		<tag k="ssr:stedsnr" v="990388" />
	</node>
	<node id="-439131" lat="59.7072660412" lon="5.15253961105">
		<tag k="name" v="Lyklingholmen" />
		<tag k="place" v="hamlet" />
		<tag k="ssr:stedsnr" v="990387" />
	</node>
	<node id="-439130" lat="59.6924735184" lon="5.12607027252">
		<tag k="fixme" v="consider place=hamlet" />
		<tag k="name" v="Geitung" />
		<tag k="place" v="farm" />
		<tag k="ssr:stedsnr" v="990386" />
	</node>
	<node id="-439129" lat="59.7290360662" lon="5.13978827402">
		<tag k="fixme" v="consider place=hamlet" />
		<tag k="name" v="Hiskholmen" />
		<tag k="place" v="farm" />
		<tag k="ssr:stedsnr" v="990385" />
	</node>
	<node id="-439128" lat="59.7551438886" lon="5.22296425626">
		<tag k="fixme" v="consider place=hamlet" />
		<tag k="name" v="Lindøya" />
		<tag k="place" v="farm" />
		<tag k="ssr:stedsnr" v="990384" />
	</node>
	<node id="-439127" lat="59.799882035" lon="5.14557376338">
		<tag k="fixme" v="consider place=hamlet" />
		<tag k="name" v="Sæverud" />
		<tag k="place" v="farm" />
		<tag k="ssr:stedsnr" v="990383" />
	</node>
	<node id="-439126" lat="59.8039958653" lon="5.181451922">
		<tag k="fixme" v="consider place=hamlet" />
		<tag k="name" v="Laurhammar" />
		<tag k="place" v="farm" />
		<tag k="ssr:stedsnr" v="990381" />
	</node>
	<node id="-439125" lat="59.8050114208" lon="5.18025094898">
		<tag k="fixme" v="consider place=hamlet" />
		<tag k="name" v="Særstein" />
		<tag k="place" v="farm" />
		<tag k="ssr:stedsnr" v="990379" />
	</node>
	<node id="-439124" lat="59.8236492072" lon="5.25265844154">
		<tag k="fixme" v="consider place=hamlet" />
		<tag k="name" v="Langholmen" />
		<tag k="place" v="farm" />
		<tag k="ssr:stedsnr" v="990378" />
	</node>
	<node id="-439123" lat="59.8831788133" lon="5.17638159297">
		<tag k="fixme" v="consider place=hamlet" />
		<tag k="name" v="Røyrøya" />
		<tag k="place" v="farm" />
		<tag k="ssr:stedsnr" v="990373" />
	</node>
	<node id="-439122" lat="59.8302601464" lon="5.13680838472">
		<tag k="fixme" v="consider place=hamlet" />
		<tag k="name" v="Helgeplass" />
		<tag k="place" v="farm" />
		<tag k="ssr:stedsnr" v="990372" />
	</node>
	<node id="-439121" lat="59.8699113299" lon="5.08292999225">
		<tag k="fixme" v="consider place=hamlet" />
		<tag k="name" v="Utslættøya" />
		<tag k="place" v="farm" />
		<tag k="ssr:stedsnr" v="990371" />
	</node>
	<node id="-439120" lat="59.5973008112" lon="5.23860596988">
		<tag k="fixme" v="consider place=hamlet" />
		<tag k="name" v="Luten" />
		<tag k="place" v="farm" />
		<tag k="ssr:stedsnr" v="990369" />
	</node>
	<node id="-441679" lat="59.5920305536" lon="5.1561305545">
		<tag k="alt_name" v="Østre Garviken" />
		<tag k="name" v="Austra Gardvika" />
		<tag k="place" v="farm" />
		<tag k="ssr:stedsnr" v="950965" />
	</node>
	<node id="-439118" lat="59.8095489179" lon="5.28233248611">
		<tag k="fixme" v="consider place=hamlet" />
		<tag k="name" v="Tangane" />
		<tag k="place" v="farm" />
		<tag k="ssr:stedsnr" v="990366" />
	</node>
	<node id="-440653" lat="59.6907694405" lon="5.3556222231">
		<tag k="fixme" v="consider place=hamlet" />
		<tag k="name" v="Totland" />
		<tag k="place" v="farm" />
		<tag k="ssr:stedsnr" v="609947" />
	</node>
	<node id="-439116" lat="59.7949043442" lon="5.2996352302">
		<tag k="fixme" v="consider place=hamlet" />
		<tag k="name" v="Folderøy" />
		<tag k="place" v="farm" />
		<tag k="ssr:stedsnr" v="990364" />
	</node>
	<node id="-439115" lat="59.7987887444" lon="5.31045808029">
		<tag k="fixme" v="consider place=hamlet" />
		<tag k="name" v="Folderøyholmen" />
		<tag k="place" v="farm" />
		<tag k="ssr:stedsnr" v="990361" />
	</node>
	<node id="-439114" lat="59.7682917649" lon="5.31635994053">
		<tag k="fixme" v="consider place=hamlet" />
		<tag k="name" v="Siggjarvågen" />
		<tag k="place" v="farm" />
		<tag k="ssr:stedsnr" v="990358" />
	</node>
	<node id="-439113" lat="59.7242502231" lon="5.42882519321">
		<tag k="fixme" v="consider place=hamlet" />
		<tag k="name" v="Otterøya" />
		<tag k="place" v="farm" />
		<tag k="ssr:stedsnr" v="990343" />
	</node>
	<node id="-439624" lat="59.7935972216" lon="5.1593027863">
		<tag k="name" v="Blokkebærhaugen" />
		<tag k="place" v="isolated_dwelling" />
		<tag k="ssr:stedsnr" v="152885" />
	</node>
	<node id="-439111" lat="59.6877463281" lon="5.25312763156">
		<tag k="fixme" v="consider place=hamlet" />
		<tag k="name" v="Straumøya" />
		<tag k="place" v="farm" />
		<tag k="ssr:stedsnr" v="990340" />
	</node>
	<node id="-439110" lat="59.7397198398" lon="5.20431427241">
		<tag k="fixme" v="consider place=hamlet" />
		<tag k="name" v="Vornes" />
		<tag k="place" v="farm" />
		<tag k="ssr:stedsnr" v="990338" />
	</node>
	<node id="-441156" lat="59.7311815966" lon="5.13620476956">
		<tag k="alt_name" v="Hisken" />
		<tag k="fixme" v="consider place=hamlet" />
		<tag k="name" v="Hiskjo" />
		<tag k="place" v="farm" />
		<tag k="ssr:stedsnr" v="769245" />
	</node>
	<node id="-439617" lat="59.7503888867" lon="5.26467499574">
		<tag k="historic" v="shieling" />
		<tag k="name" v="Stølen" />
		<tag k="place" v="locality" />
		<tag k="ssr:stedsnr" v="147353" />
	</node>
	<node id="-438592" lat="59.5991777803" lon="5.20141944731">
		<tag k="name" v="Vespestad" />
		<tag k="place" v="farm" />
		<tag k="ssr:stedsnr" v="306746" />
	</node>
	<node id="-440127" lat="59.6971117775" lon="5.35292568167">
		<tag k="name" v="Grindheim" />
		<tag k="place" v="hamlet" />
		<tag k="ssr:stedsnr" v="451422" />
	</node>
	<node id="-438590" lat="59.7470750007" lon="5.27432500605">
		<tag k="alt_name" v="Kolasletto" />
		<tag k="name" v="Sletta" />
		<tag k="place" v="farm" />
		<tag k="ssr:stedsnr" v="306545" />
	</node>
	<node id="-438837" lat="59.6360407118" lon="5.19569192464">
		<tag k="fixme" v="consider place=hamlet" />
		<tag k="name" v="Berge" />
		<tag k="place" v="farm" />
		<tag k="ssr:stedsnr" v="367923" />
	</node>
	<node id="-439099" lat="59.8920700567" lon="5.0948917396">
		<tag k="fixme" v="consider place=hamlet" />
		<tag k="name" v="Solheim" />
		<tag k="place" v="village" />
		<tag k="ssr:stedsnr" v="982252" />
	</node>
	<node id="-439608" lat="59.8675895519" lon="5.10136812449">
		<tag k="fixme" v="consider place=hamlet" />
		<tag k="name" v="Pollen" />
		<tag k="place" v="farm" />
		<tag k="ssr:stedsnr" v="146801" />
	</node>
	<node id="-439606" lat="59.8550627695" lon="5.2101102993">
		<tag k="alt_name" v="Brakadalen" />
		<tag k="fixme" v="consider place=hamlet" />
		<tag k="name" v="Brakadal" />
		<tag k="place" v="farm" />
		<tag k="ssr:stedsnr" v="146731" />
	</node>
	<node id="-440117" lat="59.8576694462" lon="5.20651666331">
		<tag k="name" v="Kverno" />
		<tag k="place" v="locality" />
		<tag k="ssr:stedsnr" v="450742" />
	</node>
	<node id="-438580" lat="59.7475166657" lon="5.23687221707">
		<tag k="name" v="Vestre Sakseid" />
		<tag k="place" v="hamlet" />
		<tag k="ssr:stedsnr" v="302993" />
	</node>
	<node id="-438579" lat="59.7325916663" lon="5.24236110599">
		<tag k="name" v="Hillesjøen" />
		<tag k="place" v="hamlet" />
		<tag k="ssr:stedsnr" v="302983" />
	</node>
	<node id="-440716" lat="59.7880027747" lon="5.12524444913">
		<tag k="name" v="Øvrenese" />
		<tag k="place" v="hamlet" />
		<tag k="ssr:stedsnr" v="643206" />
	</node>
	<node id="-438573" lat="59.677194446" lon="5.22189167084">
		<tag k="historic" v="shieling" />
		<tag k="name" v="Barastølane" />
		<tag k="place" v="locality" />
		<tag k="ssr:stedsnr" v="302128" />
	</node>
	<node id="-440455" lat="59.7488328934" lon="5.23936505865">
		<tag k="name" v="Sakseid" />
		<tag k="place" v="hamlet" />
		<tag k="ssr:stedsnr" v="549668" />
	</node>
	<node id="-440613" lat="59.5927027819" lon="5.1998111111">
		<tag k="fixme" v="consider place=suburb, village or hamlet" />
		<tag k="name" v="Kalavåg" />
		<tag k="place" v="quarter" />
		<tag k="ssr:stedsnr" v="603675" />
	</node>
	<node id="-439588" lat="59.8031580523" lon="5.16584721008">
		<tag k="fixme" v="consider place=hamlet" />
		<tag k="name" v="Steinsbø" />
		<tag k="place" v="farm" />
		<tag k="ssr:stedsnr" v="125955" />
	</node>
	<node id="-440609" lat="59.6271264378" lon="5.18624139202">
		<tag k="fixme" v="consider place=hamlet" />
		<tag k="name" v="Skipavika" />
		<tag k="place" v="farm" />
		<tag k="ssr:stedsnr" v="588988" />
	</node>
	<node id="-440095" lat="59.6313472856" lon="5.18681581581">
		<tag k="name" v="Vestre Vika" />
		<tag k="place" v="farm" />
		<tag k="ssr:stedsnr" v="445709" />
	</node>
	<node id="-440197" lat="59.7024361079" lon="5.38507222608">
		<tag k="name" v="Austra Mosterhamn" />
		<tag k="place" v="village" />
		<tag k="ssr:stedsnr" v="466683" />
	</node>
	<node id="-439580" lat="59.7640890767" lon="5.25286574875">
		<tag k="fixme" v="consider place=hamlet" />
		<tag k="name" v="Stautland" />
		<tag k="place" v="farm" />
		<tag k="ssr:stedsnr" v="125621" />
	</node>
	<node id="-439579" lat="59.7872416703" lon="5.11962499467">
		<tag k="name" v="Dalen" />
		<tag k="place" v="farm" />
		<tag k="ssr:stedsnr" v="125555" />
	</node>
	<node id="-441113" lat="59.801358334" lon="5.29834444319">
		<tag k="name" v="Gamlestølen" />
		<tag k="place" v="isolated_dwelling" />
		<tag k="ssr:stedsnr" v="766804" />
	</node>
	<node id="-441220" lat="59.7477340362" lon="5.31968727271">
		<tag k="alt_name" v="Håvik, in;Håvik" />
		<tag k="fixme" v="consider place=hamlet" />
		<tag k="name" v="Indra Håvik" />
		<tag k="place" v="farm" />
		<tag k="ssr:stedsnr" v="792545" />
	</node>
	<node id="-440598" lat="59.7018138847" lon="5.36066388546">
		<tag k="name" v="Nedra Skimmeland" />
		<tag k="place" v="hamlet" />
		<tag k="ssr:stedsnr" v="587659" />
	</node>
	<node id="-441618" lat="59.7968472211" lon="5.25059167033">
		<tag k="name" v="Brotanes" />
		<tag k="place" v="farm" />
		<tag k="ssr:stedsnr" v="936815" />
	</node>
	<node id="-441616" lat="59.7400055591" lon="5.30499443563">
		<tag k="name" v="Dalen" />
		<tag k="place" v="farm" />
		<tag k="ssr:stedsnr" v="936625" />
	</node>
	<node id="-440591" lat="59.6986565078" lon="5.36236478647">
		<tag k="name" v="Killing" />
		<tag k="place" v="farm" />
		<tag k="ssr:stedsnr" v="587299" />
	</node>
	<node id="-439189" lat="59.8041720409" lon="5.24299778728">
		<tag k="fixme" v="consider place=hamlet" />
		<tag k="name" v="Innvær" />
		<tag k="place" v="farm" />
		<tag k="ssr:stedsnr" v="4527" />
	</node>
	<node id="-438540" lat="59.6816694457" lon="5.22524722736">
		<tag k="historic" v="shieling" />
		<tag k="name" v="Barastølane" />
		<tag k="place" v="locality" />
		<tag k="ssr:stedsnr" v="285510" />
	</node>
	<node id="-441611" lat="59.7261463712" lon="5.37333819756">
		<tag k="name" v="Spyssøya" />
		<tag k="place" v="hamlet" />
		<tag k="ssr:stedsnr" v="936385" />
	</node>
	<node id="-440074" lat="59.8067027752" lon="5.17940555609">
		<tag k="name" v="Urangsvågen" />
		<tag k="place" v="farm" />
		<tag k="ssr:stedsnr" v="428937" />
	</node>
	<node id="-441609" lat="59.6128583326" lon="5.22098611666">
		<tag k="name" v="Vorland" />
		<tag k="place" v="farm" />
		<tag k="ssr:stedsnr" v="936367" />
	</node>
	<node id="-439046" lat="59.7019694419" lon="5.36724722684">
		<tag k="name" v="Notland" />
		<tag k="place" v="hamlet" />
		<tag k="ssr:stedsnr" v="891659" />
	</node>
	<node id="-441092" lat="59.6026355409" lon="5.2223006811">
		<tag k="name" v="Hovland" />
		<tag k="place" v="hamlet" />
		<tag k="ssr:stedsnr" v="754428" />
	</node>
	<node id="-440579" lat="59.7313500041" lon="5.34285277028">
		<tag k="name" v="Indre Røksund" />
		<tag k="place" v="hamlet" />
		<tag k="ssr:stedsnr" v="586440" />
	</node>
	<node id="-440047" lat="59.7028222193" lon="5.37953332758">
		<tag k="fixme" v="consider place=hamlet" />
		<tag k="name" v="Teigland" />
		<tag k="place" v="farm" />
		<tag k="ssr:stedsnr" v="428518" />
	</node>
	<node id="-439037" lat="59.697041668" lon="5.36424166338">
		<tag k="fixme" v="consider place=suburb, village or hamlet" />
		<tag k="name" v="Øvra Skimmeland" />
		<tag k="place" v="quarter" />
		<tag k="ssr:stedsnr" v="891317" />
	</node>
	<node id="-438826" lat="59.8915020355" lon="5.11532065878">
		<tag k="alt_name" v="Kvernenes" />
		<tag k="fixme" v="consider place=hamlet" />
		<tag k="name" v="Kvernanes" />
		<tag k="place" v="farm" />
		<tag k="ssr:stedsnr" v="367813" />
	</node>
	<node id="-441593" lat="59.8850833329" lon="5.0996999917">
		<tag k="name" v="Vonheim" />
		<tag k="place" v="isolated_dwelling" />
		<tag k="ssr:stedsnr" v="935316" />
	</node>
	<node id="-439032" lat="59.895205558" lon="5.09028054879">
		<tag k="name" v="Gisøysund" />
		<tag k="place" v="hamlet" />
		<tag k="ssr:stedsnr" v="890601" />
	</node>
	<node id="-441590" lat="59.6319720566" lon="5.18277180535">
		<tag k="name" v="Vestre Vika" />
		<tag k="place" v="farm" />
		<tag k="ssr:stedsnr" v="931813" />
	</node>
	<node id="-441589" lat="59.6327758775" lon="5.18728092423">
		<tag k="name" v="Vestre Vika" />
		<tag k="place" v="farm" />
		<tag k="ssr:stedsnr" v="931720" />
	</node>
	<node id="-440052" lat="59.7751567192" lon="5.14341504413">
		<tag k="fixme" v="consider place=hamlet" />
		<tag k="name" v="Hallaråker" />
		<tag k="place" v="farm" />
		<tag k="ssr:stedsnr" v="428553" />
	</node>
	<node id="-441583" lat="59.8155989438" lon="5.26809392677">
		<tag k="name" v="Rubbestadneset" />
		<tag k="place" v="village" />
		<tag k="ssr:stedsnr" v="914957" />
	</node>
	<node id="-439534" lat="59.7211861082" lon="5.22089444264">
		<tag k="name" v="Våge" />
		<tag k="place" v="farm" />
		<tag k="ssr:stedsnr" v="124449" />
	</node>
	<node id="-438509" lat="59.8479916677" lon="5.21163888886">
		<tag k="name" v="Gjøsætret" />
		<tag k="place" v="farm" />
		<tag k="ssr:stedsnr" v="283279" />
	</node>
	<node id="-441575" lat="59.8495408981" lon="5.21087360599">
		<tag k="fixme" v="consider place=hamlet" />
		<tag k="name" v="Gjøsætre" />
		<tag k="place" v="farm" />
		<tag k="ssr:stedsnr" v="914877" />
	</node>
	<node id="-441062" lat="59.8234218413" lon="5.23993968764">
		<tag k="alt_name" v="Stangarvågen;Stongarvåg;Stangarvåg" />
		<tag k="fixme" v="consider place=hamlet" />
		<tag k="name" v="Stongarvågen" />
		<tag k="old_name" v="Stangaråvågen" />
		<tag k="place" v="farm" />
		<tag k="ssr:stedsnr" v="732965" />
	</node>
	<node id="-440036" lat="59.7236314224" lon="5.18533183659">
		<tag k="fixme" v="consider place=hamlet" />
		<tag k="name" v="Hellvika" />
		<tag k="place" v="farm" />
		<tag k="ssr:stedsnr" v="427609" />
	</node>
	<node id="-441057" lat="59.8032555522" lon="5.17600556223">
		<tag k="name" v="Stølo" />
		<tag k="place" v="hamlet" />
		<tag k="ssr:stedsnr" v="732951" />
	</node>
	<node id="-439520" lat="59.8800666693" lon="5.10390000711">
		<tag k="name" v="Sørvik" />
		<tag k="place" v="isolated_dwelling" />
		<tag k="ssr:stedsnr" v="119728" />
	</node>
	<node id="-441055" lat="59.8701249968" lon="5.16327778291">
		<tag k="fixme" v="consider place=hamlet" />
		<tag k="name" v="Rolvsnes" />
		<tag k="place" v="village" />
		<tag k="ssr:stedsnr" v="732926" />
	</node>
	<node id="-441565" lat="59.7665160731" lon="5.23344617001">
		<tag k="fixme" v="consider place=hamlet" />
		<tag k="name" v="Tormodsætre" />
		<tag k="place" v="farm" />
		<tag k="ssr:stedsnr" v="914623" />
	</node>
	<node id="-441564" lat="59.7742872514" lon="5.18325464377">
		<tag k="alt_name" v="Mæland" />
		<tag k="name" v="Meland" />
		<tag k="place" v="hamlet" />
		<tag k="ssr:stedsnr" v="914620" />
	</node>
	<node id="-441051" lat="59.8770569645" lon="5.10303835152">
		<tag k="fixme" v="consider place=hamlet" />
		<tag k="name" v="Sørvik" />
		<tag k="place" v="farm" />
		<tag k="ssr:stedsnr" v="732832" />
	</node>
	<node id="-441050" lat="59.8677209819" lon="5.10888703298">
		<tag k="fixme" v="consider place=hamlet" />
		<tag k="name" v="Klubbo" />
		<tag k="place" v="farm" />
		<tag k="ssr:stedsnr" v="732819" />
	</node>
	<node id="-440025" lat="59.8809388926" lon="5.10544444756">
		<tag k="name" v="Midtvik" />
		<tag k="place" v="isolated_dwelling" />
		<tag k="ssr:stedsnr" v="423745" />
	</node>
	<node id="-440536" lat="59.6622242205" lon="5.1764611649">
		<tag k="fixme" v="consider place=hamlet" />
		<tag k="name" v="Husa" />
		<tag k="place" v="farm" />
		<tag k="ssr:stedsnr" v="572398" />
	</node>
	<node id="-440022" lat="59.6755166668" lon="5.2598694485">
		<tag k="name" v="Slaktingevik" />
		<tag k="place" v="farm" />
		<tag k="ssr:stedsnr" v="423117" />
	</node>
	<node id="-441043" lat="59.7982188361" lon="5.15203949584">
		<tag k="alt_name" v="Sørvoll" />
		<tag k="fixme" v="consider place=hamlet" />
		<tag k="name" v="Søvoll" />
		<tag k="place" v="farm" />
		<tag k="ssr:stedsnr" v="732574" />
	</node>
	<node id="-441042" lat="59.7886999986" lon="5.31063888986">
		<tag k="name" v="Skogadalen" />
		<tag k="place" v="farm" />
		<tag k="ssr:stedsnr" v="732562" />
	</node>
	<node id="-441548" lat="59.600730552" lon="5.21280832792">
		<tag k="alt_name" v="Vold" />
		<tag k="fixme" v="consider place=hamlet" />
		<tag k="name" v="Voll" />
		<tag k="place" v="farm" />
		<tag k="ssr:stedsnr" v="913846" />
	</node>
	<node id="-441719" lat="59.7479694485" lon="5.24136388933">
		<tag k="name" v="Austre Sakseid" />
		<tag k="place" v="hamlet" />
		<tag k="ssr:stedsnr" v="969927" />
	</node>
	<node id="-441032" lat="59.6401972187" lon="5.2339027707">
		<tag k="name" v="Tollevika" />
		<tag k="place" v="isolated_dwelling" />
		<tag k="ssr:stedsnr" v="731927" />
	</node>
	<node id="-440006" lat="59.8704027807" lon="5.10606944192">
		<tag k="alt_name" v="Austvika" />
		<tag k="name" v="Austvik" />
		<tag k="place" v="farm" />
		<tag k="ssr:stedsnr" v="268824" />
	</node>
	<node id="-438469" lat="59.7602138919" lon="5.19968055483">
		<tag k="name" v="Metropol" />
		<tag k="place" v="isolated_dwelling" />
		<tag k="ssr:stedsnr" v="280959" />
	</node>
	<node id="-440516" lat="59.7887083293" lon="5.12245787535">
		<tag k="alt_name" v="Neset" />
		<tag k="name" v="Nese" />
		<tag k="place" v="hamlet" />
		<tag k="ssr:stedsnr" v="570953" />
	</node>
	<node id="-440000" lat="59.7968666633" lon="5.13249721886">
		<tag k="fixme" v="consider place=hamlet" />
		<tag k="name" v="Øklandsvåg" />
		<tag k="place" v="village" />
		<tag k="ssr:stedsnr" v="267974" />
	</node>
	<node id="-440511" lat="59.6746848267" lon="5.16679735651">
		<tag k="name" v="Grutle" />
		<tag k="place" v="farm" />
		<tag k="ssr:stedsnr" v="566808" />
	</node>
	<node id="-440510" lat="59.6324009926" lon="5.18186567747">
		<tag k="name" v="Vestre Vika" />
		<tag k="place" v="farm" />
		<tag k="ssr:stedsnr" v="566792" />
	</node>
	<node id="-438973" lat="59.5916361152" lon="5.22408055384">
		<tag k="name" v="Stølen" />
		<tag k="place" v="locality" />
		<tag k="ssr:stedsnr" v="406662" />
	</node>
	<node id="-439484" lat="59.6989111088" lon="5.368752772">
		<tag k="fixme" v="consider place=hamlet" />
		<tag k="name" v="Notland" />
		<tag k="place" v="farm" />
		<tag k="ssr:stedsnr" v="102326" />
	</node>
	<node id="-441019" lat="59.6934440688" lon="5.17481440599">
		<tag k="fixme" v="consider place=hamlet" />
		<tag k="name" v="Sele" />
		<tag k="place" v="farm" />
		<tag k="ssr:stedsnr" v="731507" />
	</node>
	<node id="-441545" lat="59.5964926922" lon="5.22433568177">
		<tag k="fixme" v="consider place=hamlet" />
		<tag k="name" v="Løning" />
		<tag k="place" v="farm" />
		<tag k="ssr:stedsnr" v="913751" />
	</node>
	<node id="-439988" lat="59.8001108318" lon="5.16863632468">
		<tag k="fixme" v="consider place=hamlet" />
		<tag k="name" v="Gåsland" />
		<tag k="place" v="farm" />
		<tag k="ssr:stedsnr" v="247514" />
	</node>
	<node id="-439987" lat="59.7909691407" lon="5.25785534686">
		<tag k="alt_name" v="Ekornsæter;Ikornesæteret" />
		<tag k="fixme" v="consider place=hamlet" />
		<tag k="name" v="Ekornsætre" />
		<tag k="place" v="farm" />
		<tag k="ssr:stedsnr" v="247493" />
	</node>
	<node id="-438962" lat="59.7046419826" lon="5.36789342298">
		<tag k="name" v="Vestra Grønås" />
		<tag k="place" v="farm" />
		<tag k="ssr:stedsnr" v="405723" />
	</node>
	<node id="-440496" lat="59.7688361151" lon="5.31616388346">
		<tag k="name" v="Haugen" />
		<tag k="place" v="farm" />
		<tag k="ssr:stedsnr" v="550599" />
	</node>
	<node id="-441517" lat="59.6360315769" lon="5.23938235427">
		<tag k="fixme" v="consider place=hamlet" />
		<tag k="name" v="Andal" />
		<tag k="place" v="farm" />
		<tag k="ssr:stedsnr" v="913932" />
	</node>
	<node id="-439468" lat="59.771255552" lon="5.19457500644">
		<tag k="name" v="Gilje" />
		<tag k="place" v="farm" />
		<tag k="ssr:stedsnr" v="99850" />
	</node>
	<node id="-440491" lat="59.796741776" lon="5.1301916531">
		<tag k="fixme" v="consider place=hamlet" />
		<tag k="name" v="Økland" />
		<tag k="place" v="farm" />
		<tag k="ssr:stedsnr" v="550517" />
	</node>
	<node id="-440489" lat="59.8009329363" lon="5.18418331132">
		<tag k="alt_name" v="Hollund" />
		<tag k="fixme" v="consider place=hamlet" />
		<tag k="name" v="Holland" />
		<tag k="place" v="farm" />
		<tag k="ssr:stedsnr" v="550510" />
	</node>
	<node id="-439976" lat="59.6616356773" lon="5.23238390787">
		<tag k="fixme" v="consider place=hamlet" />
		<tag k="name" v="Hjartnes" />
		<tag k="place" v="farm" />
		<tag k="ssr:stedsnr" v="246970" />
	</node>
	<node id="-440995" lat="59.8863508419" lon="5.15109554197">
		<tag k="fixme" v="consider place=hamlet" />
		<tag k="name" v="Risøy" />
		<tag k="place" v="farm" />
		<tag k="ssr:stedsnr" v="725615" />
	</node>
	<node id="-441505" lat="59.720319442" lon="5.17635833148">
		<tag k="name" v="Nedra Tverborgvika" />
		<tag k="place" v="hamlet" />
		<tag k="ssr:stedsnr" v="907691" />
	</node>
	<node id="-438628" lat="59.7542583314" lon="5.34386943595">
		<tag k="alt_name" v="Illestigen" />
		<tag k="name" v="Idlesteigen" />
		<tag k="place" v="farm" />
		<tag k="ssr:stedsnr" v="307602" />
	</node>
	<node id="-441501" lat="59.5888055592" lon="5.18727499652">
		<tag k="fixme" v="consider place=hamlet" />
		<tag k="name" v="Vestvik" />
		<tag k="place" v="village" />
		<tag k="ssr:stedsnr" v="907530" />
	</node>
	<node id="-439964" lat="59.6430471473" lon="5.19797328249">
		<tag k="fixme" v="consider place=hamlet" />
		<tag k="name" v="Tjong" />
		<tag k="place" v="farm" />
		<tag k="ssr:stedsnr" v="246863" />
	</node>
	<node id="-441499" lat="59.7009073024" lon="5.38224171481">
		<tag k="fixme" v="consider place=hamlet" />
		<tag k="name" v="Moster" />
		<tag k="place" v="village" />
		<tag k="ssr:stedsnr" v="876441" />
	</node>
	<node id="-439134" lat="59.8270237289" lon="5.27160168615">
		<tag k="fixme" v="consider place=hamlet" />
		<tag k="name" v="Veøy" />
		<tag k="place" v="farm" />
		<tag k="ssr:stedsnr" v="990390" />
	</node>
	<node id="-439960" lat="59.6009166333" lon="5.19941493734">
		<tag k="fixme" v="consider place=hamlet" />
		<tag k="name" v="Eide" />
		<tag k="place" v="farm" />
		<tag k="ssr:stedsnr" v="246834" />
	</node>
	<node id="-439959" lat="59.6021527769" lon="5.20817777357">
		<tag k="name" v="Langevåg" />
		<tag k="place" v="village" />
		<tag k="ssr:stedsnr" v="246833" />
	</node>
	<node id="-439958" lat="59.8913138926" lon="5.1042638883">
		<tag k="alt_name" v="Kverno;Kverne" />
		<tag k="name" v="Kverna" />
		<tag k="place" v="isolated_dwelling" />
		<tag k="ssr:stedsnr" v="246818" />
	</node>
	<node id="-439577" lat="59.8508539265" lon="5.09338924303">
		<tag k="alt_name" v="Klovan" />
		<tag k="fixme" v="consider place=hamlet" />
		<tag k="name" v="Kloven" />
		<tag k="place" v="farm" />
		<tag k="ssr:stedsnr" v="125246" />
	</node>
	<node id="-440466" lat="59.8450988337" lon="5.2487552106">
		<tag k="fixme" v="consider place=hamlet" />
		<tag k="name" v="Aga" />
		<tag k="place" v="farm" />
		<tag k="ssr:stedsnr" v="549882" />
	</node>
	<node id="-438537" lat="59.7041583337" lon="5.17549999231">
		<tag k="historic" v="shieling" />
		<tag k="name" v="Urdastølen" />
		<tag k="place" v="locality" />
		<tag k="ssr:stedsnr" v="285294" />
	</node>
	<node id="-439951" lat="59.7281193706" lon="5.38096084654">
		<tag k="fixme" v="consider place=hamlet" />
		<tag k="name" v="Spyssøyhamn" />
		<tag k="place" v="farm" />
		<tag k="ssr:stedsnr" v="246590" />
	</node>
	<node id="-438926" lat="59.6357194442" lon="5.23756667408">
		<tag k="fixme" v="consider place=hamlet" />
		<tag k="name" v="Andal" />
		<tag k="place" v="village" />
		<tag k="ssr:stedsnr" v="403939" />
	</node>
	<node id="-440460" lat="59.8820822323" lon="5.10437751025">
		<tag k="fixme" v="consider place=hamlet" />
		<tag k="name" v="Nordvik" />
		<tag k="place" v="farm" />
		<tag k="ssr:stedsnr" v="549823" />
	</node>
	<node id="-441479" lat="59.6272861072" lon="5.18590556322">
		<tag k="name" v="Skipavik" />
		<tag k="place" v="farm" />
		<tag k="ssr:stedsnr" v="874897" />
	</node>
	<node id="-440965" lat="59.8933916637" lon="5.0972750037">
		<tag k="fixme" v="consider place=hamlet" />
		<tag k="name" v="Kvarven" />
		<tag k="place" v="farm" />
		<tag k="ssr:stedsnr" v="708583" />
	</node>
	<node id="-439940" lat="59.7859611116" lon="5.31427499881">
		<tag k="name" v="Bakken" />
		<tag k="place" v="farm" />
		<tag k="ssr:stedsnr" v="246491" />
	</node>
	<node id="-438806" lat="59.7155560699" lon="5.34146093228">
		<tag k="fixme" v="consider place=hamlet" />
		<tag k="name" v="Eikeland" />
		<tag k="place" v="farm" />
		<tag k="ssr:stedsnr" v="367462" />
	</node>
	<node id="-440463" lat="59.8404433506" lon="5.15337653523">
		<tag k="fixme" v="consider place=hamlet" />
		<tag k="name" v="Erevik" />
		<tag k="place" v="farm" />
		<tag k="ssr:stedsnr" v="549873" />
	</node>
	<node id="-439423" lat="59.8614919232" lon="5.08494265298">
		<tag k="alt_name" v="Seiavågen" />
		<tag k="fixme" v="consider place=hamlet" />
		<tag k="name" v="Seivåg" />
		<tag k="place" v="farm" />
		<tag k="ssr:stedsnr" v="86827" />
	</node>
	<node id="-440958" lat="59.7597305601" lon="5.20673611286">
		<tag k="name" v="Ådnanes" />
		<tag k="place" v="farm" />
		<tag k="ssr:stedsnr" v="707867" />
	</node>
	<node id="-438451" lat="59.7928444485" lon="5.17225832888">
		<tag k="name" v="Svortland" />
		<tag k="place" v="village" />
		<tag k="ssr:stedsnr" v="270575" />
	</node>
	<node id="-441464" lat="59.7995090018" lon="5.30263890997">
		<tag k="name" v="Folderøyhamn" />
		<tag k="place" v="farm" />
		<tag k="ssr:stedsnr" v="854531" />
	</node>
	<node id="-441461" lat="59.802945618" lon="5.21053734542">
		<tag k="fixme" v="consider place=hamlet" />
		<tag k="name" v="Rubbestad" />
		<tag k="place" v="farm" />
		<tag k="ssr:stedsnr" v="854512" />
	</node>
	<node id="-438553" lat="59.702752782" lon="5.18403888613">
		<tag k="fixme" v="consider place=hamlet" />
		<tag k="name" v="Lykling" />
		<tag k="place" v="farm" />
		<tag k="ssr:stedsnr" v="298271" />
	</node>
	<node id="-438892" lat="59.7976055532" lon="5.13497221847">
		<tag k="name" v="Økland" />
		<tag k="place" v="farm" />
		<tag k="ssr:stedsnr" v="401203" />
	</node>
	<node id="-440053" lat="59.7329583322" lon="5.23485833126">
		<tag k="name" v="Anskår" />
		<tag k="place" v="farm" />
		<tag k="ssr:stedsnr" v="428558" />
	</node>
	<node id="-439398" lat="59.7943529321" lon="5.30669051253">
		<tag k="fixme" v="consider place=hamlet" />
		<tag k="name" v="Ørevika" />
		<tag k="place" v="farm" />
		<tag k="ssr:stedsnr" v="65503" />
	</node>
	<node id="-439395" lat="59.8935693682" lon="5.09014292446">
		<tag k="fixme" v="consider place=hamlet" />
		<tag k="name" v="Brandasund" />
		<tag k="place" v="farm" />
		<tag k="ssr:stedsnr" v="65198" />
	</node>
	<node id="-438882" lat="59.6081249958" lon="5.21612500503">
		<tag k="name" v="Vorland" />
		<tag k="place" v="farm" />
		<tag k="ssr:stedsnr" v="390367" />
	</node>
	<node id="-439568" lat="59.6733726307" lon="5.17070361677">
		<tag k="fixme" v="consider place=hamlet" />
		<tag k="name" v="Hope" />
		<tag k="place" v="farm" />
		<tag k="ssr:stedsnr" v="124991" />
	</node>
	<node id="-438877" lat="59.8396222185" lon="5.08641389541">
		<tag k="name" v="Drageid" />
		<tag k="place" v="farm" />
		<tag k="ssr:stedsnr" v="389891" />
	</node>
	<node id="-438876" lat="59.6305111096" lon="5.18521944989">
		<tag k="name" v="Vika" />
		<tag k="place" v="farm" />
		<tag k="ssr:stedsnr" v="389875" />
	</node>
	<node id="-439386" lat="59.8170027813" lon="5.17594166324">
		<tag k="alt_name" v="Urangsæter" />
		<tag k="name" v="Urangsætre" />
		<tag k="place" v="farm" />
		<tag k="ssr:stedsnr" v="64971" />
	</node>
	<node id="-439541" lat="59.7449777772" lon="5.31174722611">
		<tag k="name" v="Steinsland" />
		<tag k="place" v="farm" />
		<tag k="ssr:stedsnr" v="124522" />
	</node>
	<node id="-439383" lat="59.859449998" lon="5.13694929842">
		<tag k="alt_name" v="Åno" />
		<tag k="fixme" v="consider place=hamlet" />
		<tag k="name" v="Ådnarå" />
		<tag k="place" v="farm" />
		<tag k="ssr:stedsnr" v="64927" />
	</node>
	<node id="-438518" lat="59.7455111083" lon="5.26928055897">
		<tag k="name" v="Solberg" />
		<tag k="place" v="hamlet" />
		<tag k="ssr:stedsnr" v="283766" />
	</node>
	<node id="-440403" lat="59.61093855" lon="5.21660156309">
		<tag k="fixme" v="consider place=hamlet" />
		<tag k="name" v="Vorland" />
		<tag k="place" v="farm" />
		<tag k="ssr:stedsnr" v="527876" />
	</node>
	<node id="-441426" lat="59.7189305591" lon="5.33326667313">
		<tag k="alt_name" v="Onglavik" />
		<tag k="fixme" v="consider place=hamlet" />
		<tag k="name" v="Onglavika" />
		<tag k="place" v="farm" />
		<tag k="ssr:stedsnr" v="853505" />
	</node>
	<node id="-438865" lat="59.8878777771" lon="5.12248333128">
		<tag k="name" v="Nygard" />
		<tag k="place" v="locality" />
		<tag k="ssr:stedsnr" v="389377" />
	</node>
	<node id="-440077" lat="59.6941083378" lon="5.34279444534">
		<tag k="name" v="Totlandsjøen" />
		<tag k="place" v="isolated_dwelling" />
		<tag k="ssr:stedsnr" v="428956" />
	</node>
	<node id="-438860" lat="59.8082680358" lon="5.28739456717">
		<tag k="alt_name" v="Juskevika" />
		<tag k="fixme" v="consider place=hamlet" />
		<tag k="name" v="Juskevik" />
		<tag k="place" v="farm" />
		<tag k="ssr:stedsnr" v="389232" />
	</node>
	<node id="-441416" lat="59.8397194423" lon="5.09116943782">
		<tag k="name" v="Berget" />
		<tag k="place" v="farm" />
		<tag k="ssr:stedsnr" v="853178" />
	</node>
	<node id="-440703" lat="59.7930222261" lon="5.17844443781">
		<tag k="name" v="Leirdal" />
		<tag k="place" v="farm" />
		<tag k="ssr:stedsnr" v="631974" />
	</node>
	<node id="-439366" lat="59.7704826443" lon="5.24845558272">
		<tag k="fixme" v="consider place=hamlet" />
		<tag k="name" v="Ersland" />
		<tag k="place" v="farm" />
		<tag k="ssr:stedsnr" v="64599" />
	</node>
	<node id="-440901" lat="59.702981228" lon="5.17625017863">
		<tag k="fixme" v="consider place=hamlet" />
		<tag k="name" v="Urdo" />
		<tag k="place" v="farm" />
		<tag k="ssr:stedsnr" v="694228" />
	</node>
	<node id="-439876" lat="59.8230805518" lon="5.24005278223">
		<tag k="name" v="Stangarvåg" />
		<tag k="place" v="hamlet" />
		<tag k="ssr:stedsnr" v="223418" />
	</node>
	<node id="-439875" lat="59.6975444405" lon="5.37268888663">
		<tag k="name" v="Notland" />
		<tag k="place" v="hamlet" />
		<tag k="ssr:stedsnr" v="223330" />
	</node>
	<node id="-438847" lat="59.7957861111" lon="5.30391944315">
		<tag k="fixme" v="consider place=hamlet" />
		<tag k="name" v="Folderøy" />
		<tag k="place" v="village" />
		<tag k="ssr:stedsnr" v="368539" />
	</node>
	<node id="-439870" lat="59.6963361133" lon="5.34729999749">
		<tag k="fixme" v="consider place=suburb, village or hamlet" />
		<tag k="name" v="Øvra Grindeim" />
		<tag k="place" v="quarter" />
		<tag k="ssr:stedsnr" v="223274" />
	</node>
	<node id="-439869" lat="59.5977138869" lon="5.2235388832">
		<tag k="name" v="Løning" />
		<tag k="place" v="isolated_dwelling" />
		<tag k="ssr:stedsnr" v="222876" />
	</node>
	<node id="-440586" lat="59.5999852157" lon="5.20615798909">
		<tag k="fixme" v="consider place=hamlet" />
		<tag k="name" v="Vespestad" />
		<tag k="place" v="farm" />
		<tag k="ssr:stedsnr" v="586883" />
	</node>
	<node id="-439540" lat="59.7038826258" lon="5.36879947779">
		<tag k="fixme" v="consider place=hamlet" />
		<tag k="name" v="Grønås" />
		<tag k="place" v="farm" />
		<tag k="ssr:stedsnr" v="124496" />
	</node>
	<node id="-438623" lat="59.7912821792" lon="5.15822461666">
		<tag k="fixme" v="consider place=hamlet" />
		<tag k="name" v="Stavland" />
		<tag k="place" v="farm" />
		<tag k="ssr:stedsnr" v="307563" />
	</node>
	<node id="-438840" lat="59.6967250027" lon="5.34869721835">
		<tag k="name" v="Kubbåsen" />
		<tag k="place" v="farm" />
		<tag k="ssr:stedsnr" v="367961" />
	</node>
	<node id="-439220" lat="59.7318707639" lon="5.33968285857">
		<tag k="alt_name" v="Røyksund, in;Røyksund" />
		<tag k="fixme" v="consider place=hamlet" />
		<tag k="name" v="Indre Røyksund" />
		<tag k="place" v="farm" />
		<tag k="ssr:stedsnr" v="26418" />
	</node>
	<node id="-441398" lat="59.8826388887" lon="5.09791110401">
		<tag k="name" v="Ulversøy" />
		<tag k="place" v="hamlet" />
		<tag k="ssr:stedsnr" v="848711" />
	</node>
	<node id="-440073" lat="59.809490994" lon="5.20267705296">
		<tag k="fixme" v="consider place=hamlet" />
		<tag k="name" v="Sele" />
		<tag k="place" v="farm" />
		<tag k="ssr:stedsnr" v="428935" />
	</node>
	<node id="-439860" lat="59.8337444485" lon="5.23447500214">
		<tag k="name" v="Indra Klubbo" />
		<tag k="place" v="hamlet" />
		<tag k="ssr:stedsnr" v="222345" />
	</node>
	<node id="-441182" lat="59.8708327129" lon="5.16298386802">
		<tag k="fixme" v="consider place=hamlet" />
		<tag k="name" v="Rolvsnes" />
		<tag k="place" v="farm" />
		<tag k="ssr:stedsnr" v="784327" />
	</node>
	<node id="-441394" lat="59.6679085464" lon="5.25663740753">
		<tag k="name" v="Solvik" />
		<tag k="place" v="farm" />
		<tag k="ssr:stedsnr" v="848119" />
	</node>
	<node id="-441393" lat="59.6762333341" lon="5.21965555658">
		<tag k="name" v="Semmastova" />
		<tag k="place" v="isolated_dwelling" />
		<tag k="ssr:stedsnr" v="848097" />
	</node>
	<node id="-439344" lat="59.7406944415" lon="5.31736389797">
		<tag k="alt_name" v="Kallevik" />
		<tag k="name" v="Kallevika" />
		<tag k="place" v="farm" />
		<tag k="ssr:stedsnr" v="63598" />
	</node>
	<node id="-441391" lat="59.8856666643" lon="5.15552777447">
		<tag k="name" v="Lunde" />
		<tag k="place" v="isolated_dwelling" />
		<tag k="ssr:stedsnr" v="846640" />
	</node>
	<node id="-439341" lat="59.7403519216" lon="5.22774544048">
		<tag k="fixme" v="consider place=hamlet" />
		<tag k="name" v="Kuleseid" />
		<tag k="place" v="farm" />
		<tag k="ssr:stedsnr" v="63575" />
	</node>
	<node id="-440874" lat="59.834495478" lon="5.23421478483">
		<tag k="fixme" v="consider place=hamlet" />
		<tag k="name" v="Klubben" />
		<tag k="place" v="farm" />
		<tag k="ssr:stedsnr" v="672525" />
	</node>
	<node id="-440359" lat="59.761408332" lon="5.17937222819">
		<tag k="name" v="Fylkesnes" />
		<tag k="place" v="farm" />
		<tag k="ssr:stedsnr" v="524163" />
	</node>
	<node id="-438820" lat="59.7665664627" lon="5.16880059171">
		<tag k="fixme" v="consider place=hamlet" />
		<tag k="name" v="Alsvåg" />
		<tag k="place" v="farm" />
		<tag k="ssr:stedsnr" v="367585" />
	</node>
	<node id="-438619" lat="59.7819472534" lon="5.30878625933">
		<tag k="fixme" v="consider place=hamlet" />
		<tag k="name" v="Sætre" />
		<tag k="place" v="farm" />
		<tag k="ssr:stedsnr" v="307542" />
	</node>
	<node id="-438816" lat="59.7740320271" lon="5.19872596218">
		<tag k="fixme" v="consider place=hamlet" />
		<tag k="name" v="Gilje" />
		<tag k="place" v="farm" />
		<tag k="ssr:stedsnr" v="367557" />
	</node>
	<node id="-440903" lat="59.6991944427" lon="5.38584722998">
		<tag k="fixme" v="consider place=suburb, village or hamlet" />
		<tag k="name" v="Mosterhamn" />
		<tag k="place" v="quarter" />
		<tag k="ssr:stedsnr" v="694369" />
	</node>
	<node id="-440860" lat="59.7751944414" lon="5.31303889805">
		<tag k="alt_name" v="Myro" />
		<tag k="name" v="Myra" />
		<tag k="place" v="farm" />
		<tag k="ssr:stedsnr" v="671589" />
	</node>
	<node id="-438811" lat="59.7038722186" lon="5.19011666908">
		<tag k="alt_name" v="Myro" />
		<tag k="name" v="Myra" />
		<tag k="place" v="farm" />
		<tag k="ssr:stedsnr" v="367480" />
	</node>
	<node id="-440857" lat="59.7967277814" lon="5.23242499388">
		<tag k="name" v="Blindingestølen" />
		<tag k="place" v="farm" />
		<tag k="ssr:stedsnr" v="671541" />
	</node>
	<node id="-440856" lat="59.7897922341" lon="5.1731642424">
		<tag k="fixme" v="consider place=hamlet" />
		<tag k="name" v="Svortland" />
		<tag k="place" v="farm" />
		<tag k="ssr:stedsnr" v="671539" />
	</node>
	<node id="-439044" lat="59.7038361096" lon="5.37230832958">
		<tag k="name" v="Austre Grønås" />
		<tag k="place" v="farm" />
		<tag k="ssr:stedsnr" v="891628" />
	</node>
	<node id="-440854" lat="59.8007497198" lon="5.13941900308">
		<tag k="fixme" v="consider place=hamlet" />
		<tag k="name" v="Brekke" />
		<tag k="place" v="farm" />
		<tag k="ssr:stedsnr" v="671529" />
	</node>
	<node id="-440853" lat="59.7974553552" lon="5.16042272561">
		<tag k="name" v="Habbastad" />
		<tag k="place" v="hamlet" />
		<tag k="ssr:stedsnr" v="671530" />
	</node>
	<node id="-438584" lat="59.7191328685" lon="5.17949023884">
		<tag k="name" v="Tverrborgvika" />
		<tag k="place" v="hamlet" />
		<tag k="ssr:stedsnr" v="306482" />
	</node>
	<node id="-441056" lat="59.8037999966" lon="5.14531944974">
		<tag k="name" v="Øyjorda" />
		<tag k="place" v="isolated_dwelling" />
		<tag k="ssr:stedsnr" v="732943" />
	</node>
	<node id="-439692" lat="59.6011277773" lon="5.20887777376">
		<tag k="name" v="Langevåg" />
		<tag k="place" v="hamlet" />
		<tag k="ssr:stedsnr" v="163663" />
	</node>
	<node id="-438652" lat="59.8639999996" lon="5.09594999371">
		<tag k="alt_name" v="Plassen" />
		<tag k="fixme" v="consider place=hamlet" />
		<tag k="name" v="Monsaplasset" />
		<tag k="place" v="farm" />
		<tag k="ssr:stedsnr" v="328828" />
	</node>
	<node id="-439639" lat="59.762052782" lon="5.18056389689">
		<tag k="name" v="Fylkesneset" />
		<tag k="place" v="farm" />
		<tag k="ssr:stedsnr" v="159221" />
	</node>
	<node id="-438792" lat="59.7281876972" lon="5.28159478825">
		<tag k="name" v="Klubben" />
		<tag k="place" v="farm" />
		<tag k="ssr:stedsnr" v="362963" />
	</node>
	<node id="-440676" lat="59.8426277784" lon="5.1570111144">
		<tag k="name" v="Krossen" />
		<tag k="place" v="farm" />
		<tag k="ssr:stedsnr" v="610902" />
	</node>
	<node id="-439112" lat="59.6997137281" lon="5.38173110585">
		<tag k="name" v="Mosterhamn" />
		<tag k="place" v="hamlet" />
		<tag k="ssr:stedsnr" v="990342" />
	</node>
	<node id="-440835" lat="59.7323192466" lon="5.23982487991">
		<tag k="alt_name" v="Hille" />
		<tag k="fixme" v="consider place=hamlet" />
		<tag k="name" v="Hidle" />
		<tag k="place" v="farm" />
		<tag k="ssr:stedsnr" v="670580" />
	</node>
	<node id="-439810" lat="59.76606389" lon="5.19610832475">
		<tag k="name" v="Korsnes" />
		<tag k="place" v="farm" />
		<tag k="ssr:stedsnr" v="208342" />
	</node>
</osm>
