<?xml version="1.0" encoding="UTF-8"?>
<osm generator="osmapis" version="0.6">
	<node id="-438549" lat="59.8916583308" lon="5.10257500537">
		<tag k="bridge" v="yes" />
		<tag k="layer" v="1" />
		<tag k="name" v="Tronko" />
		<tag k="ssr:stedsnr" v="290886" />
	</node>
	<node id="-441724" lat="59.6080440624" lon="5.23645257088">
		<tag k="amenity" v="ferry_terminal" />
		<tag k="name" v="Langevåg ferjekai" />
		<tag k="ssr:stedsnr" v="978662" />
	</node>
	<node id="-438523" lat="59.6998638888" lon="5.38632776996">
		<tag k="landuse" v="harbour" />
		<tag k="name" v="Mosterhamn" />
		<tag k="seamark:type" v="harbour" />
		<tag k="ssr:stedsnr" v="284317" />
	</node>
	<node id="-438761" lat="59.8709166649" lon="5.10167500405">
		<tag k="bridge" v="yes" />
		<tag k="layer" v="1" />
		<tag k="name" v="Klubbasund" />
		<tag k="ssr:stedsnr" v="350885" />
	</node>
	<node id="-438760" lat="59.7501666697" lon="5.26741666436">
		<tag k="bridge" v="yes" />
		<tag k="layer" v="1" />
		<tag k="name" v="Åreid" />
		<tag k="ssr:stedsnr" v="350880" />
	</node>
	<node id="-441700" lat="59.7477722261" lon="5.33557222663">
		<tag k="bridge" v="yes" />
		<tag k="layer" v="1" />
		<tag k="name" v="Klongervika" />
		<tag k="ssr:stedsnr" v="957901" />
	</node>
	<node id="-441699" lat="59.7297638907" lon="5.33480277182">
		<tag k="bridge" v="yes" />
		<tag k="layer" v="1" />
		<tag k="name" v="Røyksund" />
		<tag k="ssr:stedsnr" v="957898" />
	</node>
	<node id="-441181" lat="59.7448472217" lon="5.27274166094">
		<tag k="bridge" v="yes" />
		<tag k="layer" v="1" />
		<tag k="name" v="Grønevik" />
		<tag k="ssr:stedsnr" v="775906" />
	</node>
	<node id="-440796" lat="59.7365277769" lon="5.34673054882">
		<tag k="bridge" v="yes" />
		<tag k="layer" v="1" />
		<tag k="name" v="Purkehola" />
		<tag k="ssr:stedsnr" v="654919" />
	</node>
	<node id="-439512" lat="59.8839083334" lon="5.09557777703">
		<tag k="bridge" v="yes" />
		<tag k="layer" v="1" />
		<tag k="name" v="Djupasund" />
		<tag k="ssr:stedsnr" v="108908" />
	</node>
	<node id="-439511" lat="59.8113027798" lon="5.25079166539">
		<tag k="bridge" v="yes" />
		<tag k="layer" v="1" />
		<tag k="name" v="Lessinger" />
		<tag k="ssr:stedsnr" v="108902" />
	</node>
	<node id="-439510" lat="59.8189583318" lon="5.24875000294">
		<tag k="bridge" v="yes" />
		<tag k="layer" v="1" />
		<tag k="name" v="Stongarvåg" />
		<tag k="ssr:stedsnr" v="108897" />
	</node>
	<node id="-438977" lat="59.7514027742" lon="5.32184445253">
		<tag k="bridge" v="yes" />
		<tag k="layer" v="1" />
		<tag k="name" v="Håvikdalen" />
		<tag k="ssr:stedsnr" v="411912" />
	</node>
	<node id="-440890" lat="59.7623861125" lon="5.31482222311">
		<tag k="layer" v="-1" />
		<tag k="name" v="Stokkajuvtunnelen" />
		<tag k="ssr:stedsnr" v="693331" />
		<tag k="tunnel" v="yes" />
	</node>
	<node id="-440879" lat="59.7151305598" lon="5.44618610934">
		<tag k="layer" v="-1" />
		<tag k="name" v="Bømlafjordtunnelen" />
		<tag k="ssr:stedsnr" v="689286" />
		<tag k="tunnel" v="yes" />
	</node>
	<node id="-441126" lat="59.8710916686" lon="5.17026388382">
		<tag k="man_made" v="cairn" />
		<tag k="name" v="Kremandevarden" />
		<tag k="place" v="locality" />
		<tag k="ssr:stedsnr" v="766882" />
	</node>
	<node id="-439581" lat="59.7662972232" lon="5.32031111068">
		<tag k="alt_name" v="Siggjavågen" />
		<tag k="man_made" v="quay" />
		<tag k="name" v="Siggjarvågen" />
		<tag k="place" v="locality" />
		<tag k="ssr:stedsnr" v="125632" />
	</node>
	<node id="-439322" lat="59.8988694438" lon="5.09327778302">
		<tag k="bridge" v="yes" />
		<tag k="layer" v="1" />
		<tag k="name" v="Brandasund" />
		<tag k="ssr:stedsnr" v="47907" />
	</node>
	<node id="-439321" lat="59.7533027797" lon="5.31894165805">
		<tag k="bridge" v="yes" />
		<tag k="layer" v="1" />
		<tag k="name" v="Grøvlet" />
		<tag k="ssr:stedsnr" v="47903" />
	</node>
	<node id="-439703" lat="59.7396861137" lon="5.23243610946">
		<tag k="bridge" v="yes" />
		<tag k="layer" v="1" />
		<tag k="name" v="Kulleseid" />
		<tag k="ssr:stedsnr" v="168912" />
	</node>
	<node id="-438550" lat="59.7322138892" lon="5.35891389518">
		<tag k="bridge" v="yes" />
		<tag k="layer" v="1" />
		<tag k="name" v="Kobbarvågen" />
		<tag k="ssr:stedsnr" v="290889" />
	</node>
	<node id="-439061" lat="59.8379611101" lon="5.23390278344">
		<tag k="bridge" v="yes" />
		<tag k="layer" v="1" />
		<tag k="name" v="Aga" />
		<tag k="ssr:stedsnr" v="897884" />
	</node>
	<node id="-440212" lat="59.701011113" lon="5.18549999119">
		<tag k="bridge" v="yes" />
		<tag k="layer" v="1" />
		<tag k="name" v="Lykling" />
		<tag k="ssr:stedsnr" v="472901" />
	</node>
	<node id="-439306" lat="59.8115388908" lon="5.26173611348">
		<tag k="layer" v="-1" />
		<tag k="name" v="Raunhildetunellen" />
		<tag k="ssr:stedsnr" v="41768" />
		<tag k="tunnel" v="yes" />
	</node>
	<node id="-438551" lat="59.8325361093" lon="5.14579999293">
		<tag k="bridge" v="yes" />
		<tag k="layer" v="1" />
		<tag k="name" v="Kinnestraumen" />
		<tag k="ssr:stedsnr" v="290891" />
	</node>
</osm>
