<?xml version="1.0" encoding="UTF-8"?>
<osm generator="osmapis" version="0.6">
	<node id="-439930" lat="59.7020138878" lon="5.18954722268">
		<tag k="name" v="Trea" />
		<tag k="ssr:stedsnr" v="42290" />
		<tag k="tourism" v="attraction" />
	</node>
	<node id="-441081" lat="59.6045267585" lon="5.21069850491">
		<tag k="alt_name" v="Bømlo" />
		<tag k="amenity" v="place_of_worship" />
		<tag k="denomination" v="lutheran" />
		<tag k="name" v="Bømlo kyrkje" />
		<tag k="religion" v="christian" />
		<tag k="ssr:stedsnr" v="549837" />
	</node>
	<node id="-442231" lat="59.7016333332" lon="5.38204444325">
		<tag k="amenity" v="place_of_worship" />
		<tag k="denomination" v="lutheran" />
		<tag k="name" v="Moster gamle kyrkje" />
		<tag k="religion" v="christian" />
		<tag k="ssr:stedsnr" v="936386" />
	</node>
	<node id="-441401" lat="59.72606667" lon="5.22830277636">
		<tag k="name" v="Plasset" />
		<tag k="place" v="locality" />
		<tag k="ssr:stedsnr" v="648536" />
	</node>
	<node id="-439427" lat="59.7179241806" lon="5.3460909165">
		<tag k="alt_name" v="Moster" />
		<tag k="amenity" v="place_of_worship" />
		<tag k="denomination" v="lutheran" />
		<tag k="name" v="Moster kyrkje" />
		<tag k="religion" v="christian" />
		<tag k="ssr:stedsnr" v="367461" />
	</node>
	<node id="-441968" lat="59.6631722247" lon="5.20110277265">
		<tag k="name" v="Øykjasteinen" />
		<tag k="place" v="locality" />
		<tag k="ssr:stedsnr" v="829852" />
	</node>
	<node id="-439757" lat="59.6088847206" lon="5.21459168176">
		<tag k="amenity" v="place_of_worship" />
		<tag k="denomination" v="lutheran" />
		<tag k="name" v="Bømlo gamle kyrkje" />
		<tag k="religion" v="christian" />
		<tag k="ssr:stedsnr" v="990730" />
	</node>
	<node id="-441323" lat="59.7953617557" lon="5.17430658673">
		<tag k="alt_name" v="Bremnes" />
		<tag k="amenity" v="place_of_worship" />
		<tag k="denomination" v="lutheran" />
		<tag k="name" v="Bremnes kyrkje" />
		<tag k="religion" v="christian" />
		<tag k="ssr:stedsnr" v="632131" />
	</node>
	<node id="-441226" lat="59.6036972189" lon="5.21938888089">
		<tag k="name" v="Ranasteinen" />
		<tag k="place" v="locality" />
		<tag k="ssr:stedsnr" v="588683" />
	</node>
	<node id="-442313" lat="59.6057277789" lon="5.21988888205">
		<tag k="name" v="Prestasteinen" />
		<tag k="place" v="locality" />
		<tag k="ssr:stedsnr" v="952728" />
	</node>
	<node id="-441380" lat="59.6678083294" lon="5.1624611156">
		<tag k="name" v="Gygrastol" />
		<tag k="place" v="locality" />
		<tag k="ssr:stedsnr" v="646832" />
	</node>
	<node id="-440153" lat="59.7064356662" lon="5.19860618459">
		<tag k="alt_name" v="Lykling" />
		<tag k="amenity" v="place_of_worship" />
		<tag k="denomination" v="lutheran" />
		<tag k="name" v="Lykling kyrkje" />
		<tag k="religion" v="christian" />
		<tag k="ssr:stedsnr" v="124443" />
	</node>
</osm>
