<?xml version="1.0" encoding="UTF-8"?>
<osm generator="osmapis" version="0.6">
	<node id="-440827" lat="59.693207016" lon="5.18499739442">
		<tag k="alt_name" v="Trolldalsvatnet" />
		<tag k="name" v="Trolladalstjørna" />
		<tag k="natural" v="water" />
		<tag k="ssr:stedsnr" v="670515" />
	</node>
	<node id="-441338" lat="59.7002083317" lon="5.37437500634">
		<tag k="name" v="Gamlesynken" />
		<tag k="natural" v="water" />
		<tag k="ssr:stedsnr" v="829300" />
		<tag k="water" v="lake" />
	</node>
	<node id="-439947" lat="59.6917394525" lon="5.1811447961">
		<tag k="name" v="Kristentjørna" />
		<tag k="natural" v="water" />
		<tag k="ssr:stedsnr" v="246523" />
	</node>
	<node id="-441332" lat="59.7910166642" lon="5.21871666762">
		<tag k="name" v="Ulvavatnet" />
		<tag k="natural" v="water" />
		<tag k="ssr:stedsnr" v="827982" />
		<tag k="water" v="lake" />
	</node>
	<node id="-440819" lat="59.8097821905" lon="5.08128295907">
		<tag k="name" v="Hyttevikvatnet" />
		<tag k="natural" v="water" />
		<tag k="ssr:stedsnr" v="671225" />
	</node>
	<node id="-441324" lat="59.81720278" lon="5.07596943913">
		<tag k="name" v="Rogøyvatnet" />
		<tag k="natural" v="water" />
		<tag k="ssr:stedsnr" v="827907" />
		<tag k="water" v="lake" />
	</node>
	<node id="-440425" lat="59.8518944471" lon="5.19732777677">
		<tag k="name" v="Laukkjærtjørna" />
		<tag k="natural" v="water" />
		<tag k="ssr:stedsnr" v="544338" />
	</node>
	<node id="-441320" lat="59.8581833311" lon="5.19165833235">
		<tag k="name" v="Bjørndalsvatnet" />
		<tag k="natural" v="water" />
		<tag k="ssr:stedsnr" v="827895" />
		<tag k="water" v="lake" />
	</node>
	<node id="-438758" lat="59.6177030115" lon="5.20859788947">
		<tag k="name" v="Kvernavatnet" />
		<tag k="natural" v="water" />
		<tag k="ssr:stedsnr" v="345964" />
		<tag k="water" v="lake" />
	</node>
	<node id="-440293" lat="59.8157839747" lon="5.15197058324">
		<tag k="name" v="Haldorsvatnet" />
		<tag k="natural" v="water" />
		<tag k="ssr:stedsnr" v="489959" />
	</node>
	<node id="-440290" lat="59.8605343593" lon="5.12659812575">
		<tag k="name" v="Langavatnet" />
		<tag k="natural" v="water" />
		<tag k="ssr:stedsnr" v="489907" />
	</node>
	<node id="-440289" lat="59.8629656646" lon="5.19575844276">
		<tag k="alt_name" v="Øykjadalsvatnet, nordre;Nordre Øykjadalsvatnet" />
		<tag k="name" v="Nordra Øykjadalsvatnet" />
		<tag k="natural" v="water" />
		<tag k="ssr:stedsnr" v="489903" />
	</node>
	<node id="-440287" lat="59.8417919373" lon="5.13934196543">
		<tag k="name" v="Araskårvatnet" />
		<tag k="natural" v="water" />
		<tag k="ssr:stedsnr" v="489876" />
	</node>
	<node id="-440286" lat="59.8425141006" lon="5.20823539491">
		<tag k="name" v="Mosavatnet" />
		<tag k="natural" v="water" />
		<tag k="ssr:stedsnr" v="489871" />
	</node>
	<node id="-440795" lat="59.7327726967" lon="5.28125052247">
		<tag k="name" v="Myratjørna" />
		<tag k="natural" v="water" />
		<tag k="ssr:stedsnr" v="731543" />
	</node>
	<node id="-441306" lat="59.7830767101" lon="5.20577902718">
		<tag k="name" v="Grimstjørna" />
		<tag k="natural" v="water" />
		<tag k="ssr:stedsnr" v="827822" />
	</node>
	<node id="-440280" lat="59.7684635621" lon="5.14551610754">
		<tag k="name" v="Krokavatnet" />
		<tag k="natural" v="water" />
		<tag k="ssr:stedsnr" v="489630" />
	</node>
	<node id="-440277" lat="59.7887664218" lon="5.24046937422">
		<tag k="name" v="Kvernavatnet" />
		<tag k="natural" v="water" />
		<tag k="ssr:stedsnr" v="489538" />
	</node>
	<node id="-440788" lat="59.6326583312" lon="5.19749165964">
		<tag k="name" v="Bergesvatnet" />
		<tag k="natural" v="water" />
		<tag k="ssr:stedsnr" v="648995" />
		<tag k="water" v="lake" />
	</node>
	<node id="-439762" lat="59.6694611111" lon="5.20501111928">
		<tag k="name" v="Sagvasstangen" />
		<tag k="natural" v="cape" />
		<tag k="ssr:stedsnr" v="185965" />
	</node>
	<node id="-438947" lat="59.6762500009" lon="5.19173055577">
		<tag k="name" v="Laureidtjørna" />
		<tag k="natural" v="water" />
		<tag k="ssr:stedsnr" v="404818" />
		<tag k="water" v="lake" />
	</node>
	<node id="-441296" lat="59.7711388884" lon="5.14610277235">
		<tag k="name" v="Raugavatnet" />
		<tag k="natural" v="water" />
		<tag k="ssr:stedsnr" v="827117" />
		<tag k="water" v="lake" />
	</node>
	<node id="-439247" lat="59.6501833346" lon="5.1803916597">
		<tag k="name" v="Djuvavatnet" />
		<tag k="natural" v="water" />
		<tag k="ssr:stedsnr" v="38828" />
		<tag k="water" v="lake" />
	</node>
	<node id="-440909" lat="59.8087777766" lon="5.22776110435">
		<tag k="name" v="Skiftesvika" />
		<tag k="natural" v="bay" />
		<tag k="ssr:stedsnr" v="705160" />
	</node>
	<node id="-441292" lat="59.7915444461" lon="5.16685276916">
		<tag k="name" v="Svortlandselva" />
		<tag k="ssr:stedsnr" v="826233" />
		<tag k="waterway" v="stream" />
	</node>
	<node id="-439243" lat="59.7699826403" lon="5.21662329075">
		<tag k="name" v="Bergetjørna" />
		<tag k="natural" v="water" />
		<tag k="ssr:stedsnr" v="38819" />
	</node>
	<node id="-440775" lat="59.6786305523" lon="5.16854722863">
		<tag k="name" v="Hundatjørna" />
		<tag k="natural" v="water" />
		<tag k="ssr:stedsnr" v="648061" />
		<tag k="water" v="lake" />
	</node>
	<node id="-439238" lat="59.780203699" lon="5.14968769064">
		<tag k="name" v="Hundatjørna" />
		<tag k="natural" v="water" />
		<tag k="ssr:stedsnr" v="38126" />
	</node>
	<node id="-441284" lat="59.8084972248" lon="5.20834166179">
		<tag k="name" v="Rundeholmen" />
		<tag k="place" v="islet" />
		<tag k="ssr:stedsnr" v="826170" />
	</node>
	<node id="-440258" lat="59.6491555526" lon="5.1700999992">
		<tag k="name" v="Kattatjørna" />
		<tag k="natural" v="water" />
		<tag k="ssr:stedsnr" v="488877" />
	</node>
	<node id="-439456" lat="59.7951722257" lon="5.16308888149">
		<tag k="name" v="Stavlandsøya" />
		<tag k="place" v="island" />
		<tag k="ssr:stedsnr" v="98963" />
	</node>
	<node id="-438717" lat="59.8036583374" lon="5.23882777286">
		<tag k="name" v="Aunavatnet" />
		<tag k="natural" v="water" />
		<tag k="ssr:stedsnr" v="341986" />
		<tag k="water" v="lake" />
	</node>
	<node id="-440251" lat="59.6264231821" lon="5.21482183259">
		<tag k="name" v="Gåsavatnet" />
		<tag k="natural" v="water" />
		<tag k="ssr:stedsnr" v="488917" />
	</node>
	<node id="-439225" lat="59.8091166667" lon="5.21129167299">
		<tag k="name" v="Langholmen" />
		<tag k="place" v="islet" />
		<tag k="ssr:stedsnr" v="37179" />
	</node>
	<node id="-438710" lat="59.8204219478" lon="5.17379027398">
		<tag k="name" v="Ramnaflogstjørna" />
		<tag k="natural" v="water" />
		<tag k="ssr:stedsnr" v="341882" />
	</node>
	<node id="-438601" lat="59.6801614829" lon="5.18444482584">
		<tag k="name" v="Lindesnes" />
		<tag k="natural" v="cape" />
		<tag k="ssr:stedsnr" v="306945" />
	</node>
	<node id="-439730" lat="59.6891779987" lon="5.17054497207">
		<tag k="name" v="Svartavatnet" />
		<tag k="natural" v="water" />
		<tag k="ssr:stedsnr" v="185496" />
	</node>
	<node id="-440237" lat="59.7119677263" lon="5.19421917917">
		<tag k="alt_name" v="Krokavatnet, l;Litle Krokavatnet" />
		<tag k="name" v="Litla Krokavatnet" />
		<tag k="natural" v="water" />
		<tag k="ssr:stedsnr" v="488472" />
	</node>
	<node id="-441257" lat="59.7990848932" lon="5.2954474777">
		<tag k="name" v="Folderøyvatnet" />
		<tag k="natural" v="water" />
		<tag k="ssr:stedsnr" v="793593" />
	</node>
	<node id="-441256" lat="59.7981826244" lon="5.14463945032">
		<tag k="name" v="Øyjordsvatnet" />
		<tag k="natural" v="water" />
		<tag k="ssr:stedsnr" v="793563" />
	</node>
	<node id="-441247" lat="59.6689938485" lon="5.19148311042">
		<tag k="fixme" v="multiple name tags, choose one and add the other to alt_name" />
		<tag k="name" v="Fisketjørna;Syningstjørna" />
		<tag k="natural" v="water" />
		<tag k="ssr:stedsnr" v="792977" />
	</node>
	<node id="-439197" lat="59.8280273568" lon="5.16747184273">
		<tag k="name" v="Stølavatnet" />
		<tag k="natural" v="water" />
		<tag k="ssr:stedsnr" v="4971" />
	</node>
	<node id="-441244" lat="59.6802330501" lon="5.17144338769">
		<tag k="name" v="Arnehaugtjørna" />
		<tag k="natural" v="water" />
		<tag k="ssr:stedsnr" v="792943" />
	</node>
	<node id="-441243" lat="59.8724083376" lon="5.15723610941">
		<tag k="alt_name" v="Oksaviketjørna" />
		<tag k="name" v="Oksaviktjørna" />
		<tag k="natural" v="water" />
		<tag k="ssr:stedsnr" v="792920" />
	</node>
	<node id="-440730" lat="59.6373749994" lon="5.23947778199">
		<tag k="name" v="Stampebekken" />
		<tag k="ssr:stedsnr" v="644806" />
		<tag k="waterway" v="stream" />
	</node>
	<node id="-441240" lat="59.8595750034" lon="5.19809167108">
		<tag k="alt_name" v="Øykjadalsvatnet, s;Søre Øykjadalsvatnet" />
		<tag k="name" v="Søra Øykjadalsvatnet" />
		<tag k="natural" v="water" />
		<tag k="ssr:stedsnr" v="792893" />
	</node>
	<node id="-441239" lat="59.853698393" lon="5.09431726611">
		<tag k="alt_name" v="Holmvatnet" />
		<tag k="name" v="Holmavatnet" />
		<tag k="natural" v="water" />
		<tag k="ssr:stedsnr" v="792884" />
	</node>
	<node id="-439190" lat="59.794136108" lon="5.23583612024">
		<tag k="name" v="Åsvatnet" />
		<tag k="natural" v="water" />
		<tag k="ssr:stedsnr" v="4541" />
	</node>
	<node id="-440473" lat="59.8127695075" lon="5.18143690452">
		<tag k="alt_name" v="Sandvikvatnet" />
		<tag k="name" v="Sandviksvatnet" />
		<tag k="natural" v="water" />
		<tag k="ssr:stedsnr" v="549945" />
	</node>
	<node id="-438676" lat="59.8422722221" lon="5.09655277856">
		<tag k="name" v="Litla Katlavatnet" />
		<tag k="natural" v="water" />
		<tag k="ssr:stedsnr" v="340223" />
		<tag k="water" v="lake" />
	</node>
	<node id="-440719" lat="59.8857611104" lon="5.06478888349">
		<tag k="name" v="Skramlevågsvatnet" />
		<tag k="natural" v="water" />
		<tag k="ssr:stedsnr" v="643943" />
		<tag k="water" v="lake" />
	</node>
	<node id="-438670" lat="59.8120388853" lon="5.2286083422">
		<tag k="name" v="Otrastokken" />
		<tag k="natural" v="cape" />
		<tag k="ssr:stedsnr" v="340164" />
	</node>
	<node id="-438669" lat="59.8098472264" lon="5.22926943534">
		<tag k="name" v="Innværholmen" />
		<tag k="place" v="islet" />
		<tag k="ssr:stedsnr" v="340158" />
	</node>
	<node id="-440713" lat="59.8222111139" lon="5.23042221445">
		<tag k="name" v="Kvernavatnet" />
		<tag k="natural" v="water" />
		<tag k="ssr:stedsnr" v="643176" />
		<tag k="water" v="lake" />
	</node>
	<node id="-439176" lat="59.6830374818" lon="5.17525078692">
		<tag k="name" v="Fuglatjørna" />
		<tag k="natural" v="water" />
		<tag k="ssr:stedsnr" v="3949" />
	</node>
	<node id="-441223" lat="59.7697043596" lon="5.29211856212">
		<tag k="name" v="Holmedalsvatnet" />
		<tag k="natural" v="water" />
		<tag k="ssr:stedsnr" v="792592" />
	</node>
	<node id="-441222" lat="59.7681598869" lon="5.2301713276">
		<tag k="name" v="Smietjørna" />
		<tag k="natural" v="water" />
		<tag k="ssr:stedsnr" v="792586" />
	</node>
	<node id="-441219" lat="59.7842012835" lon="5.24213666268">
		<tag k="name" v="Hatlebærvatnet" />
		<tag k="natural" v="water" />
		<tag k="ssr:stedsnr" v="792514" />
	</node>
	<node id="-439170" lat="59.8566388895" lon="5.13332500439">
		<tag k="alt_name" v="Ånovatnet" />
		<tag k="name" v="Ånavatnet" />
		<tag k="natural" v="water" />
		<tag k="ssr:stedsnr" v="3894" />
	</node>
	<node id="-439169" lat="59.8581444462" lon="5.17587778253">
		<tag k="name" v="Tollaksvatnet" />
		<tag k="natural" v="water" />
		<tag k="ssr:stedsnr" v="3889" />
	</node>
	<node id="-440192" lat="59.6959583351" lon="5.22913054779">
		<tag k="name" v="Skjenahellertjørna" />
		<tag k="natural" v="water" />
		<tag k="ssr:stedsnr" v="466407" />
		<tag k="water" v="lake" />
	</node>
	<node id="-439674" lat="59.7643777746" lon="5.24176110558">
		<tag k="name" v="Erslandsvatnet" />
		<tag k="natural" v="water" />
		<tag k="ssr:stedsnr" v="161875" />
		<tag k="water" v="lake" />
	</node>
	<node id="-441208" lat="59.6764121981" lon="5.1887344917">
		<tag k="name" v="Fisketjørnane" />
		<tag k="natural" v="water" />
		<tag k="ssr:stedsnr" v="791989" />
	</node>
	<node id="-439671" lat="59.7583861154" lon="5.28234721651">
		<tag k="name" v="Dromsdalsvika" />
		<tag k="natural" v="bay" />
		<tag k="ssr:stedsnr" v="161671" />
	</node>
	<node id="-441205" lat="59.584701442" lon="5.19293660229">
		<tag k="name" v="Kvernavatnet" />
		<tag k="natural" v="water" />
		<tag k="ssr:stedsnr" v="791750" />
	</node>
	<node id="-438642" lat="59.8563527804" lon="5.12023610544">
		<tag k="name" v="Holmvatnet" />
		<tag k="natural" v="water" />
		<tag k="ssr:stedsnr" v="308539" />
	</node>
	<node id="-438640" lat="59.8242638896" lon="5.24623889571">
		<tag k="alt_name" v="Litlatjørna" />
		<tag k="name" v="Litlatjørn" />
		<tag k="natural" v="water" />
		<tag k="ssr:stedsnr" v="307973" />
	</node>
	<node id="-441711" lat="59.6763444483" lon="5.20704166813">
		<tag k="name" v="Mørketjørnsbekken" />
		<tag k="ssr:stedsnr" v="969094" />
		<tag k="waterway" v="stream" />
	</node>
	<node id="-438638" lat="59.8088963814" lon="5.23493912155">
		<tag k="alt_name" v="Drivildetjørna" />
		<tag k="name" v="Drivilletjørna" />
		<tag k="natural" v="water" />
		<tag k="ssr:stedsnr" v="307953" />
	</node>
	<node id="-438634" lat="59.8550583354" lon="5.2008388949">
		<tag k="name" v="Brakadalsvatnet" />
		<tag k="natural" v="water" />
		<tag k="ssr:stedsnr" v="307882" />
	</node>
	<node id="-438633" lat="59.8499111137" lon="5.17925554878">
		<tag k="alt_name" v="Aulesvatnet" />
		<tag k="name" v="Auilsvatnet" />
		<tag k="natural" v="water" />
		<tag k="ssr:stedsnr" v="307881" />
	</node>
	<node id="-440679" lat="59.8497881017" lon="5.14367804805">
		<tag k="name" v="Jodalsvatnet" />
		<tag k="natural" v="water" />
		<tag k="ssr:stedsnr" v="610920" />
	</node>
	<node id="-438629" lat="59.7718869058" lon="5.17191894843">
		<tag k="name" v="Alsvågvatnet" />
		<tag k="natural" v="water" />
		<tag k="ssr:stedsnr" v="307618" />
	</node>
	<node id="-439651" lat="59.8641249979" lon="5.18357777678">
		<tag k="name" v="Viervatnet" />
		<tag k="natural" v="water" />
		<tag k="ssr:stedsnr" v="159890" />
		<tag k="water" v="lake" />
	</node>
	<node id="-441184" lat="59.8765250032" lon="5.17283889123">
		<tag k="name" v="Hisøyvatnet" />
		<tag k="natural" v="water" />
		<tag k="ssr:stedsnr" v="785640" />
	</node>
	<node id="-439646" lat="59.8261737558" lon="5.15117773842">
		<tag k="name" v="Steganestjørna" />
		<tag k="natural" v="water" />
		<tag k="ssr:stedsnr" v="159864" />
	</node>
	<node id="-438621" lat="59.7889539211" lon="5.20858171998">
		<tag k="name" v="Raunavatnet" />
		<tag k="natural" v="water" />
		<tag k="ssr:stedsnr" v="307557" />
	</node>
	<node id="-439865" lat="59.7652249968" lon="5.29440000222">
		<tag k="name" v="Kyrkjeteigstjørna" />
		<tag k="natural" v="water" />
		<tag k="ssr:stedsnr" v="222692" />
		<tag k="water" v="lake" />
	</node>
	<node id="-439694" lat="59.7115666679" lon="5.17651943552">
		<tag k="name" v="Styllarstemma" />
		<tag k="ssr:stedsnr" v="163713" />
		<tag k="waterway" v="dam" />
	</node>
	<node id="-440658" lat="59.7823055531" lon="5.13578333425">
		<tag k="name" v="Melingsvatnet" />
		<tag k="natural" v="water" />
		<tag k="ssr:stedsnr" v="610545" />
	</node>
	<node id="-440656" lat="59.6698194475" lon="5.22546110266">
		<tag k="name" v="Kverneidet" />
		<tag k="natural" v="strait" />
		<tag k="ssr:stedsnr" v="609981" />
	</node>
	<node id="-439631" lat="59.8161777781" lon="5.18690000022">
		<tag k="name" v="Perabekken" />
		<tag k="ssr:stedsnr" v="158244" />
		<tag k="waterway" v="stream" />
	</node>
	<node id="-441678" lat="59.6257777773" lon="5.24258611557">
		<tag k="name" v="Sagbekken" />
		<tag k="ssr:stedsnr" v="950931" />
		<tag k="waterway" v="stream" />
	</node>
	<node id="-441164" lat="59.8619722254" lon="5.08819999223">
		<tag k="name" v="Brattebekken" />
		<tag k="ssr:stedsnr" v="769721" />
		<tag k="waterway" v="stream" />
	</node>
	<node id="-439627" lat="59.7912090759" lon="5.13813732032">
		<tag k="alt_name" v="Morketjørna" />
		<tag k="name" v="Mørketjørna" />
		<tag k="natural" v="water" />
		<tag k="ssr:stedsnr" v="158204" />
	</node>
	<node id="-440138" lat="59.8463750039" lon="5.13017776977">
		<tag k="name" v="Gamlasætertjørna" />
		<tag k="natural" v="water" />
		<tag k="ssr:stedsnr" v="462182" />
	</node>
	<node id="-440649" lat="59.6097750041" lon="5.23343055765">
		<tag k="name" v="Langetangen" />
		<tag k="place" v="locality" />
		<tag k="ssr:stedsnr" v="609852" />
	</node>
	<node id="-438598" lat="59.6324135953" lon="5.2382397357">
		<tag k="name" v="Andalstjørna" />
		<tag k="natural" v="water" />
		<tag k="ssr:stedsnr" v="306921" />
	</node>
	<node id="-441157" lat="59.8387525949" lon="5.14362261937">
		<tag k="name" v="Araskarsvatnet" />
		<tag k="natural" v="water" />
		<tag k="ssr:stedsnr" v="769267" />
	</node>
	<node id="-440132" lat="59.8207888915" lon="5.22320278054">
		<tag k="name" v="Midtfjellvatnet" />
		<tag k="natural" v="water" />
		<tag k="ssr:stedsnr" v="462142" />
		<tag k="water" v="lake" />
	</node>
	<node id="-438935" lat="59.8987472201" lon="5.0826694391">
		<tag k="name" v="Såtemyrsvatnet" />
		<tag k="natural" v="water" />
		<tag k="ssr:stedsnr" v="404559" />
		<tag k="water" v="lake" />
	</node>
	<node id="-441144" lat="59.8386027758" lon="5.22369167144">
		<tag k="name" v="Litla Klubbevatnet" />
		<tag k="natural" v="water" />
		<tag k="ssr:stedsnr" v="768315" />
	</node>
	<node id="-441654" lat="59.7966985524" lon="5.20542213653">
		<tag k="name" v="Stavlandstjørna" />
		<tag k="natural" v="water" />
		<tag k="ssr:stedsnr" v="948985" />
	</node>
	<node id="-441652" lat="59.8045282349" lon="5.15199758373">
		<tag k="name" v="Løtjørna" />
		<tag k="natural" v="water" />
		<tag k="ssr:stedsnr" v="948953" />
	</node>
	<node id="-440542" lat="59.8119027741" lon="5.2056694398">
		<tag k="name" v="Selselva" />
		<tag k="ssr:stedsnr" v="583152" />
		<tag k="waterway" v="stream" />
	</node>
	<node id="-438764" lat="59.5839583355" lon="5.19677499324">
		<tag k="name" v="Løkene" />
		<tag k="natural" v="water" />
		<tag k="ssr:stedsnr" v="360554" />
		<tag k="water" v="lake" />
	</node>
	<node id="-439244" lat="59.7687005393" lon="5.22147505234">
		<tag k="name" v="Tomastjørna" />
		<tag k="natural" v="water" />
		<tag k="ssr:stedsnr" v="38820" />
	</node>
	<node id="-441236" lat="59.8421142792" lon="5.10291924461">
		<tag k="alt_name" v="Stora Katlavatnet" />
		<tag k="name" v="Katlavatnet" />
		<tag k="natural" v="water" />
		<tag k="ssr:stedsnr" v="792862" />
	</node>
	<node id="-441134" lat="59.7949083338" lon="5.15734722906">
		<tag k="name" v="Dueholmen" />
		<tag k="place" v="islet" />
		<tag k="ssr:stedsnr" v="766967" />
	</node>
	<node id="-439517" lat="59.7204722255" lon="5.18317499216">
		<tag k="name" v="Visebekken" />
		<tag k="ssr:stedsnr" v="118713" />
		<tag k="waterway" v="stream" />
	</node>
	<node id="-439687" lat="59.7135055556" lon="5.35156389236">
		<tag k="name" v="Søratjørna" />
		<tag k="natural" v="water" />
		<tag k="ssr:stedsnr" v="163611" />
		<tag k="water" v="lake" />
	</node>
	<node id="-439980" lat="59.8234444467" lon="5.18048611603">
		<tag k="name" v="Krokavatnet" />
		<tag k="natural" v="water" />
		<tag k="ssr:stedsnr" v="246978" />
	</node>
	<node id="-439077" lat="59.728478752" lon="5.3369103008">
		<tag k="name" v="Seierstad" />
		<tag k="natural" v="cape" />
		<tag k="ssr:stedsnr" v="981432" />
	</node>
	<node id="-439586" lat="59.8599095561" lon="5.09881028768">
		<tag k="alt_name" v="Skålavikevatnet" />
		<tag k="name" v="Skålavikvatnet" />
		<tag k="natural" v="water" />
		<tag k="ssr:stedsnr" v="125921" />
		<tag k="water" v="lake" />
	</node>
	<node id="-438747" lat="59.691086108" lon="5.19772499512">
		<tag k="name" v="Sæbjørnsvatnet" />
		<tag k="natural" v="water" />
		<tag k="ssr:stedsnr" v="345448" />
		<tag k="water" v="lake" />
	</node>
	<node id="-439582" lat="59.8049318154" lon="5.28821654807">
		<tag k="alt_name" v="Krokvatnet" />
		<tag k="name" v="Krokavatnet" />
		<tag k="natural" v="water" />
		<tag k="ssr:stedsnr" v="125563" />
	</node>
	<node id="-439066" lat="59.7843009003" lon="5.28896023972">
		<tag k="name" v="Steinsåstjørna" />
		<tag k="natural" v="water" />
		<tag k="ssr:stedsnr" v="1071933" />
		<tag k="water" v="lake" />
	</node>
	<node id="-438831" lat="59.8398194421" lon="5.11376944134">
		<tag k="alt_name" v="Gamlasætervatnet" />
		<tag k="name" v="Gammalsætervatnet" />
		<tag k="natural" v="water" />
		<tag k="ssr:stedsnr" v="367868" />
	</node>
	<node id="-440088" lat="59.7995999965" lon="5.2322583385">
		<tag k="name" v="Stokkavatnet" />
		<tag k="natural" v="water" />
		<tag k="ssr:stedsnr" v="429507" />
	</node>
	<node id="-440086" lat="59.7969158337" lon="5.279407792">
		<tag k="name" v="Mækjebakkvatnet" />
		<tag k="natural" v="water" />
		<tag k="ssr:stedsnr" v="429486" />
	</node>
	<node id="-440082" lat="59.8369562319" lon="5.21208967643">
		<tag k="alt_name" v="Hollandvatnet" />
		<tag k="name" v="Hollandsvatnet" />
		<tag k="natural" v="water" />
		<tag k="ssr:stedsnr" v="428992" />
	</node>
	<node id="-441100" lat="59.8082444404" lon="5.22204445104">
		<tag k="name" v="Larsavika" />
		<tag k="natural" v="bay" />
		<tag k="ssr:stedsnr" v="765155" />
	</node>
	<node id="-440585" lat="59.7592944457" lon="5.27819999873">
		<tag k="name" v="Finnåsvatnet" />
		<tag k="natural" v="water" />
		<tag k="ssr:stedsnr" v="586707" />
		<tag k="water" v="lake" />
	</node>
	<node id="-439047" lat="59.7124388902" lon="5.35904722172">
		<tag k="name" v="Ølkonebekken" />
		<tag k="ssr:stedsnr" v="891663" />
		<tag k="waterway" v="stream" />
	</node>
	<node id="-440070" lat="59.8561675029" lon="5.16792683625">
		<tag k="alt_name" v="Måsatjørna" />
		<tag k="name" v="Mosatjørna" />
		<tag k="natural" v="water" />
		<tag k="ssr:stedsnr" v="428899" />
	</node>
	<node id="-441093" lat="59.70750278" lon="5.23455556172">
		<tag k="name" v="Eriksvatnet" />
		<tag k="natural" v="water" />
		<tag k="ssr:stedsnr" v="754440" />
	</node>
	<node id="-440580" lat="59.763238891" lon="5.3346944435">
		<tag k="name" v="Saltkarvika" />
		<tag k="natural" v="bay" />
		<tag k="ssr:stedsnr" v="586495" />
	</node>
	<node id="-439043" lat="59.7255666626" lon="5.23035277187">
		<tag k="name" v="Fuglatjørna" />
		<tag k="natural" v="water" />
		<tag k="ssr:stedsnr" v="891554" />
		<tag k="water" v="lake" />
	</node>
	<node id="-440066" lat="59.8434288711" lon="5.21456205778">
		<tag k="name" v="Kvigetjørna" />
		<tag k="natural" v="water" />
		<tag k="ssr:stedsnr" v="428885" />
	</node>
	<node id="-439041" lat="59.6927194457" lon="5.20440555044">
		<tag k="name" v="Askosnvatnet" />
		<tag k="natural" v="water" />
		<tag k="ssr:stedsnr" v="891416" />
		<tag k="water" v="lake" />
	</node>
	<node id="-439168" lat="59.6439246775" lon="5.18839335796">
		<tag k="name" v="Heiartjørna" />
		<tag k="natural" v="water" />
		<tag k="ssr:stedsnr" v="3876" />
	</node>
	<node id="-439550" lat="59.623583337" lon="5.18966111885">
		<tag k="name" v="Stampevatnet" />
		<tag k="natural" v="water" />
		<tag k="ssr:stedsnr" v="124806" />
	</node>
	<node id="-440573" lat="59.677483332" lon="5.19514444349">
		<tag k="name" v="Hovdatjørna" />
		<tag k="natural" v="water" />
		<tag k="ssr:stedsnr" v="585842" />
		<tag k="water" v="lake" />
	</node>
	<node id="-440571" lat="59.8328083374" lon="5.21315000134">
		<tag k="name" v="Nordra Vardafjellstjørna" />
		<tag k="natural" v="water" />
		<tag k="ssr:stedsnr" v="585295" />
	</node>
	<node id="-440569" lat="59.8433472251" lon="5.19984167481">
		<tag k="name" v="Langavatnet" />
		<tag k="natural" v="water" />
		<tag k="ssr:stedsnr" v="585271" />
	</node>
	<node id="-440568" lat="59.8269312708" lon="5.17555046542">
		<tag k="name" v="Lomstjørna" />
		<tag k="natural" v="water" />
		<tag k="ssr:stedsnr" v="584884" />
	</node>
	<node id="-441079" lat="59.8647305525" lon="5.19696945052">
		<tag k="name" v="Russebekken" />
		<tag k="ssr:stedsnr" v="753717" />
		<tag k="waterway" v="stream" />
	</node>
	<node id="-439663" lat="59.7936138865" lon="5.16398610474">
		<tag k="name" v="Årosen" />
		<tag k="natural" v="bay" />
		<tag k="ssr:stedsnr" v="159973" />
	</node>
	<node id="-439027" lat="59.623911115" lon="5.23731110553">
		<tag k="name" v="Grytene" />
		<tag k="natural" v="water" />
		<tag k="ssr:stedsnr" v="889932" />
		<tag k="water" v="lake" />
	</node>
	<node id="-439026" lat="59.6631916694" lon="5.18907223024">
		<tag k="name" v="Røyrtjørna" />
		<tag k="natural" v="water" />
		<tag k="ssr:stedsnr" v="889854" />
		<tag k="water" v="lake" />
	</node>
	<node id="-439536" lat="59.697639376" lon="5.21013670698">
		<tag k="name" v="Sætravatnet" />
		<tag k="natural" v="water" />
		<tag k="ssr:stedsnr" v="124477" />
	</node>
	<node id="-441582" lat="59.8068315163" lon="5.15856016934">
		<tag k="name" v="Pøyletjørna" />
		<tag k="natural" v="water" />
		<tag k="ssr:stedsnr" v="914952" />
	</node>
	<node id="-440044" lat="59.7866604934" lon="5.19123591289">
		<tag k="name" v="Grindavatnet" />
		<tag k="natural" v="water" />
		<tag k="ssr:stedsnr" v="428488" />
	</node>
	<node id="-438738" lat="59.7061444402" lon="5.21793333318">
		<tag k="name" v="Søra Lyklingvatnet" />
		<tag k="natural" v="water" />
		<tag k="ssr:stedsnr" v="344737" />
		<tag k="water" v="lake" />
	</node>
	<node id="-440296" lat="59.8352610908" lon="5.22297132573">
		<tag k="fixme" v="multiple name tags, choose one and add the other to alt_name" />
		<tag k="name" v="Klubbavatnet;Stora Klubbevatnet" />
		<tag k="natural" v="water" />
		<tag k="ssr:stedsnr" v="489996" />
	</node>
	<node id="-438505" lat="59.6632669493" lon="5.18068924821">
		<tag k="alt_name" v="Stampe" />
		<tag k="name" v="Stampevatnet" />
		<tag k="natural" v="water" />
		<tag k="ssr:stedsnr" v="282841" />
		<tag k="water" v="lake" />
	</node>
	<node id="-441576" lat="59.8484801157" lon="5.20247714118">
		<tag k="name" v="Vindingsvatnet" />
		<tag k="natural" v="water" />
		<tag k="ssr:stedsnr" v="914889" />
	</node>
	<node id="-438502" lat="59.8201244137" lon="5.18084998206">
		<tag k="name" v="Sætratjørna" />
		<tag k="natural" v="water" />
		<tag k="ssr:stedsnr" v="281892" />
	</node>
	<node id="-441061" lat="59.8179333346" lon="5.19066665917">
		<tag k="alt_name" v="Øvre Søljevatnet" />
		<tag k="name" v="Søljevatnet" />
		<tag k="natural" v="water" />
		<tag k="ssr:stedsnr" v="732964" />
	</node>
	<node id="-441567" lat="59.7649700829" lon="5.2623597779">
		<tag k="name" v="Oldereidtjørna" />
		<tag k="natural" v="water" />
		<tag k="ssr:stedsnr" v="914628" />
	</node>
	<node id="-441566" lat="59.7675805583" lon="5.24293055074">
		<tag k="alt_name" v="Erlandsvatnet" />
		<tag k="name" v="Erslandsvatnet" />
		<tag k="natural" v="water" />
		<tag k="ssr:stedsnr" v="914626" />
		<tag k="water" v="lake" />
	</node>
	<node id="-440541" lat="59.822816936" lon="5.21674604352">
		<tag k="name" v="Molbotjørna" />
		<tag k="natural" v="water" />
		<tag k="ssr:stedsnr" v="583149" />
	</node>
	<node id="-439003" lat="59.786175004" lon="5.17228333468">
		<tag k="name" v="Tverråvatnet" />
		<tag k="natural" v="water" />
		<tag k="ssr:stedsnr" v="887956" />
		<tag k="water" v="lake" />
	</node>
	<node id="-439784" lat="59.8363583364" lon="5.10886944004">
		<tag k="name" v="Langavatnet" />
		<tag k="natural" v="water" />
		<tag k="ssr:stedsnr" v="186983" />
	</node>
	<node id="-439001" lat="59.7961777776" lon="5.1733444483">
		<tag k="name" v="Kyrkjeneset" />
		<tag k="natural" v="cape" />
		<tag k="ssr:stedsnr" v="887945" />
	</node>
	<node id="-441520" lat="59.6814716546" lon="5.22066736237">
		<tag k="name" v="Askedalstjørna" />
		<tag k="natural" v="water" />
		<tag k="ssr:stedsnr" v="913943" />
	</node>
	<node id="-441047" lat="59.7787098947" lon="5.29819859837">
		<tag k="name" v="Sætravatnet" />
		<tag k="natural" v="water" />
		<tag k="ssr:stedsnr" v="732637" />
	</node>
	<node id="-441556" lat="59.8959222202" lon="5.07389443627">
		<tag k="name" v="Såtemyrvatnet" />
		<tag k="natural" v="water" />
		<tag k="ssr:stedsnr" v="914207" />
	</node>
	<node id="-440018" lat="59.5931918448" lon="5.15046314773">
		<tag k="name" v="Brunntjørna" />
		<tag k="natural" v="water" />
		<tag k="ssr:stedsnr" v="421761" />
	</node>
	<node id="-441552" lat="59.6781583321" lon="5.20855833556">
		<tag k="alt_name" v="Mørkatjørna" />
		<tag k="name" v="Mørketjørna" />
		<tag k="natural" v="water" />
		<tag k="ssr:stedsnr" v="913991" />
	</node>
	<node id="-441551" lat="59.6452750005" lon="5.22282222004">
		<tag k="name" v="Bergeseidet" />
		<tag k="natural" v="strait" />
		<tag k="ssr:stedsnr" v="913881" />
	</node>
	<node id="-439499" lat="59.6810944402" lon="5.18798055315">
		<tag k="name" v="Bukkholmen" />
		<tag k="place" v="islet" />
		<tag k="ssr:stedsnr" v="103058" />
	</node>
	<node id="-438472" lat="59.7988249968" lon="5.17138333782">
		<tag k="name" v="Gåslandsneset" />
		<tag k="natural" v="cape" />
		<tag k="ssr:stedsnr" v="280970" />
	</node>
	<node id="-441031" lat="59.6285525257" lon="5.20412603722">
		<tag k="name" v="Ramnabergtjørna" />
		<tag k="natural" v="water" />
		<tag k="ssr:stedsnr" v="731911" />
	</node>
	<node id="-438466" lat="59.7986366654" lon="5.1562420505">
		<tag k="name" v="Holetjørna" />
		<tag k="natural" v="water" />
		<tag k="ssr:stedsnr" v="280941" />
	</node>
	<node id="-438534" lat="59.6808072803" lon="5.18082582397">
		<tag k="name" v="Vassneset" />
		<tag k="natural" v="cape" />
		<tag k="ssr:stedsnr" v="285054" />
	</node>
	<node id="-439157" lat="59.7684249966" lon="5.21034445289">
		<tag k="name" v="Krokavatnet" />
		<tag k="natural" v="water" />
		<tag k="ssr:stedsnr" v="3578" />
	</node>
	<node id="-440504" lat="59.856101404" lon="5.09037218305">
		<tag k="name" v="Eiriksvatnet" />
		<tag k="natural" v="water" />
		<tag k="ssr:stedsnr" v="610261" />
	</node>
	<node id="-439991" lat="59.8424672217" lon="5.1224761392">
		<tag k="alt_name" v="Tresstjørna" />
		<tag k="name" v="Træstjørna" />
		<tag k="natural" v="water" />
		<tag k="ssr:stedsnr" v="247537" />
	</node>
	<node id="-439474" lat="59.6573305532" lon="5.18686110587">
		<tag k="name" v="Kolakjosen" />
		<tag k="natural" v="water" />
		<tag k="ssr:stedsnr" v="100852" />
		<tag k="water" v="lake" />
	</node>
	<node id="-440260" lat="59.653158411" lon="5.16621493952">
		<tag k="name" v="Bøtjørna" />
		<tag k="natural" v="water" />
		<tag k="ssr:stedsnr" v="488887" />
	</node>
	<node id="-441008" lat="59.6691583365" lon="5.21908333134">
		<tag k="name" v="Sagelva" />
		<tag k="ssr:stedsnr" v="727103" />
		<tag k="waterway" v="river" />
	</node>
	<node id="-441007" lat="59.7481055572" lon="5.23008888483">
		<tag k="name" v="Ingetjørna" />
		<tag k="natural" v="water" />
		<tag k="ssr:stedsnr" v="726999" />
		<tag k="water" v="lake" />
	</node>
	<node id="-441518" lat="59.686217336" lon="5.21087645906">
		<tag k="name" v="Smikketjørnane" />
		<tag k="natural" v="water" />
		<tag k="ssr:stedsnr" v="913938" />
		<tag k="water" v="lake" />
	</node>
	<node id="-440652" lat="59.6575916637" lon="5.18723889107">
		<tag k="name" v="Hagardsvatnet" />
		<tag k="natural" v="water" />
		<tag k="old_name" v="Hagagardsvatnet" />
		<tag k="ssr:stedsnr" v="609884" />
		<tag k="water" v="lake" />
	</node>
	<node id="-441516" lat="59.6407910989" lon="5.17847818392">
		<tag k="name" v="Vikavatnet" />
		<tag k="natural" v="water" />
		<tag k="ssr:stedsnr" v="913928" />
	</node>
	<node id="-439467" lat="59.7761888862" lon="5.20729445241">
		<tag k="name" v="Kvernavatnet" />
		<tag k="natural" v="water" />
		<tag k="ssr:stedsnr" v="99816" />
		<tag k="water" v="lake" />
	</node>
	<node id="-440490" lat="59.8028805527" lon="5.20569999673">
		<tag k="name" v="Lauvåstjørna" />
		<tag k="natural" v="water" />
		<tag k="ssr:stedsnr" v="550512" />
	</node>
	<node id="-438727" lat="59.6209083374" lon="5.21181110444">
		<tag k="name" v="Steinloppetjørna" />
		<tag k="natural" v="water" />
		<tag k="ssr:stedsnr" v="343956" />
		<tag k="water" v="lake" />
	</node>
	<node id="-440488" lat="59.891871901" lon="5.08055431553">
		<tag k="name" v="Krokavatnet" />
		<tag k="natural" v="water" />
		<tag k="ssr:stedsnr" v="550207" />
	</node>
	<node id="-440487" lat="59.8937316859" lon="5.06147344315">
		<tag k="alt_name" v="Langøyvatnet" />
		<tag k="name" v="Langavatnet" />
		<tag k="natural" v="water" />
		<tag k="ssr:stedsnr" v="550202" />
	</node>
	<node id="-438948" lat="59.6628111122" lon="5.16369165852">
		<tag k="name" v="Kvernabekkjen" />
		<tag k="ssr:stedsnr" v="404853" />
		<tag k="waterway" v="stream" />
	</node>
	<node id="-439971" lat="59.6577027767" lon="5.2295611145">
		<tag k="alt_name" v="Rysseid2" />
		<tag k="name" v="Rysseid" />
		<tag k="natural" v="strait" />
		<tag k="ssr:stedsnr" v="246889" />
	</node>
	<node id="-440480" lat="59.6610749973" lon="5.17781944671">
		<tag k="name" v="Husavatnet" />
		<tag k="natural" v="water" />
		<tag k="ssr:stedsnr" v="549974" />
	</node>
	<node id="-438942" lat="59.759722218" lon="5.27523055792">
		<tag k="name" v="Brandaneset" />
		<tag k="natural" v="cape" />
		<tag k="ssr:stedsnr" v="404691" />
	</node>
	<node id="-441500" lat="59.7643472267" lon="5.26876388842">
		<tag k="name" v="Oldereidet" />
		<tag k="natural" v="strait" />
		<tag k="ssr:stedsnr" v="905854" />
	</node>
	<node id="-438939" lat="59.7006833355" lon="5.25723610724">
		<tag k="name" v="Hagatjørna" />
		<tag k="natural" v="water" />
		<tag k="ssr:stedsnr" v="404662" />
		<tag k="water" v="lake" />
	</node>
	<node id="-439978" lat="59.8284777822" lon="5.2099250032">
		<tag k="name" v="Nilsasætervatnet" />
		<tag k="natural" v="water" />
		<tag k="ssr:stedsnr" v="246976" />
	</node>
	<node id="-441199" lat="59.7222474481" lon="5.19207711333">
		<tag k="name" v="Forevatnet" />
		<tag k="natural" v="water" />
		<tag k="ssr:stedsnr" v="791496" />
	</node>
	<node id="-440471" lat="59.6366042731" lon="5.20804743042">
		<tag k="alt_name" v="Lervika" />
		<tag k="name" v="Leirvika" />
		<tag k="natural" v="bay" />
		<tag k="ssr:stedsnr" v="549927" />
	</node>
	<node id="-440982" lat="59.8504000024" lon="5.09817222636">
		<tag k="name" v="Revurdetjørna" />
		<tag k="natural" v="water" />
		<tag k="ssr:stedsnr" v="709684" />
	</node>
	<node id="-438933" lat="59.7520583358" lon="5.33510277416">
		<tag k="name" v="Søra Klungerviktjørna" />
		<tag k="natural" v="water" />
		<tag k="ssr:stedsnr" v="404451" />
	</node>
	<node id="-439955" lat="59.5918472201" lon="5.21492499608">
		<tag k="name" v="Løningsvatnet" />
		<tag k="natural" v="water" />
		<tag k="ssr:stedsnr" v="246736" />
		<tag k="water" v="lake" />
	</node>
	<node id="-438520" lat="59.6024583307" lon="5.23777777456">
		<tag k="name" v="Mekjeretjørna" />
		<tag k="natural" v="water" />
		<tag k="ssr:stedsnr" v="283892" />
	</node>
	<node id="-440992" lat="59.7130277766" lon="5.18407778344">
		<tag k="name" v="Vikahillarsstemma" />
		<tag k="ssr:stedsnr" v="724717" />
		<tag k="waterway" v="dam" />
	</node>
	<node id="-440459" lat="59.6169354935" lon="5.20527219183">
		<tag k="alt_name" v="Kroketjørna" />
		<tag k="name" v="Kroketetjørnane" />
		<tag k="natural" v="water" />
		<tag k="ssr:stedsnr" v="549819" />
	</node>
	<node id="-439433" lat="59.8872944401" lon="5.07457499636">
		<tag k="name" v="Lomatjørna" />
		<tag k="natural" v="water" />
		<tag k="ssr:stedsnr" v="97936" />
	</node>
	<node id="-438639" lat="59.821030553" lon="5.22745000611">
		<tag k="name" v="Kråvatnet" />
		<tag k="natural" v="water" />
		<tag k="ssr:stedsnr" v="307967" />
	</node>
	<node id="-439943" lat="59.7841483047" lon="5.26674469885">
		<tag k="alt_name" v="Bjørkåsvatnet, østre;Østre Bjørkåsvatnet" />
		<tag k="name" v="Austre Bjørkåsvatnet" />
		<tag k="natural" v="water" />
		<tag k="ssr:stedsnr" v="246500" />
	</node>
	<node id="-439942" lat="59.7131687079" lon="5.25981263599">
		<tag k="name" v="Storavatnet" />
		<tag k="natural" v="water" />
		<tag k="ssr:stedsnr" v="246496" />
	</node>
	<node id="-439941" lat="59.7855112661" lon="5.25880230141">
		<tag k="alt_name" v="Bjørkåsvatnet, vestre" />
		<tag k="name" v="Vestre Bjørkåsvatnet" />
		<tag k="natural" v="water" />
		<tag k="ssr:stedsnr" v="246495" />
	</node>
	<node id="-440452" lat="59.6953305534" lon="5.22078889021">
		<tag k="name" v="Døsvikvatnet" />
		<tag k="natural" v="water" />
		<tag k="ssr:stedsnr" v="549532" />
	</node>
	<node id="-439939" lat="59.7781972268" lon="5.15008334049">
		<tag k="name" v="Træstjørna" />
		<tag k="natural" v="water" />
		<tag k="ssr:stedsnr" v="246468" />
	</node>
	<node id="-440446" lat="59.7108416625" lon="5.21946388905">
		<tag k="name" v="Lyklingvatnet" />
		<tag k="natural" v="water" />
		<tag k="ssr:stedsnr" v="549498" />
		<tag k="water" v="lake" />
	</node>
	<node id="-439764" lat="59.6721000022" lon="5.21045276888">
		<tag k="name" v="Sagvatnet" />
		<tag k="natural" v="water" />
		<tag k="ssr:stedsnr" v="185984" />
		<tag k="water" v="lake" />
	</node>
	<node id="-439781" lat="59.8207944482" lon="5.21247778">
		<tag k="name" v="Vadet" />
		<tag k="natural" v="water" />
		<tag k="ssr:stedsnr" v="186960" />
	</node>
	<node id="-440959" lat="59.6611555587" lon="5.1740611157">
		<tag k="name" v="Kinnbekken" />
		<tag k="ssr:stedsnr" v="707880" />
		<tag k="waterway" v="stream" />
	</node>
	<node id="-441470" lat="59.8138888893" lon="5.23471111869">
		<tag k="alt_name" v="Vassbotnen" />
		<tag k="name" v="Vassbotn" />
		<tag k="natural" v="water" />
		<tag k="ssr:stedsnr" v="854948" />
	</node>
	<node id="-438908" lat="59.654861113" lon="5.19041110944">
		<tag k="name" v="Hagardsvatnet" />
		<tag k="natural" v="water" />
		<tag k="ssr:stedsnr" v="402829" />
		<tag k="water" v="lake" />
	</node>
	<node id="-440955" lat="59.7603583366" lon="5.26569999497">
		<tag k="name" v="Vestra Nonshaugtjørna" />
		<tag k="natural" v="water" />
		<tag k="ssr:stedsnr" v="707696" />
		<tag k="water" v="lake" />
	</node>
	<node id="-441463" lat="59.7904291398" lon="5.15173652005">
		<tag k="name" v="Ulvsvatnet" />
		<tag k="natural" v="water" />
		<tag k="ssr:stedsnr" v="854528" />
	</node>
	<node id="-440437" lat="59.6814143973" lon="5.19917257823">
		<tag k="name" v="Stemmevatnet" />
		<tag k="natural" v="water" />
		<tag k="ssr:stedsnr" v="548927" />
		<tag k="water" v="lake" />
	</node>
	<node id="-440946" lat="59.7963377547" lon="5.24388721644">
		<tag k="name" v="Kverntjørna" />
		<tag k="natural" v="water" />
		<tag k="ssr:stedsnr" v="705985" />
	</node>
	<node id="-441457" lat="59.8348893367" lon="5.11710579618">
		<tag k="name" v="Goddevågsvatnet" />
		<tag k="natural" v="water" />
		<tag k="ssr:stedsnr" v="853992" />
	</node>
	<node id="-438896" lat="59.6459277757" lon="5.17814167248">
		<tag k="name" v="Kvernabekken" />
		<tag k="ssr:stedsnr" v="401763" />
		<tag k="waterway" v="stream" />
	</node>
	<node id="-439917" lat="59.8800249995" lon="5.11651388337">
		<tag k="name" v="Larsavatnet" />
		<tag k="natural" v="water" />
		<tag k="ssr:stedsnr" v="241701" />
	</node>
	<node id="-440940" lat="59.7942944419" lon="5.14918056423">
		<tag k="name" v="Olatjørna" />
		<tag k="natural" v="water" />
		<tag k="ssr:stedsnr" v="705939" />
	</node>
	<node id="-440939" lat="59.7943555579" lon="5.17019444147">
		<tag k="name" v="Kjølpa" />
		<tag k="natural" v="bay" />
		<tag k="ssr:stedsnr" v="705935" />
	</node>
	<node id="-439401" lat="59.7955555554" lon="5.16828611308">
		<tag k="name" v="Storavatnet" />
		<tag k="natural" v="water" />
		<tag k="ssr:stedsnr" v="65527" />
		<tag k="water" v="lake" />
	</node>
	<node id="-441448" lat="59.6866462319" lon="5.18180863675">
		<tag k="name" v="Holmavatnet" />
		<tag k="natural" v="water" />
		<tag k="ssr:stedsnr" v="853942" />
	</node>
	<node id="-438886" lat="59.8106722208" lon="5.21073056087">
		<tag k="name" v="Lamburdspollen" />
		<tag k="natural" v="bay" />
		<tag k="ssr:stedsnr" v="401171" />
	</node>
	<node id="-441445" lat="59.8618617521" lon="5.10631728083">
		<tag k="name" v="Kjeravatnet" />
		<tag k="natural" v="water" />
		<tag k="ssr:stedsnr" v="853919" />
	</node>
	<node id="-440419" lat="59.6769472191" lon="5.214847224">
		<tag k="name" v="Pikåsbekken" />
		<tag k="ssr:stedsnr" v="544089" />
		<tag k="waterway" v="stream" />
	</node>
	<node id="-441442" lat="59.64805781" lon="5.17631484804">
		<tag k="name" v="Tjongevatnet" />
		<tag k="natural" v="water" />
		<tag k="ssr:stedsnr" v="853883" />
	</node>
	<node id="-438554" lat="59.851949999" lon="5.13510278395">
		<tag k="name" v="Lauvkjer" />
		<tag k="place" v="islet" />
		<tag k="ssr:stedsnr" v="298623" />
	</node>
	<node id="-441439" lat="59.5981055587" lon="5.18310000687">
		<tag k="name" v="Eidesvatnet" />
		<tag k="natural" v="water" />
		<tag k="ssr:stedsnr" v="853859" />
	</node>
	<node id="-440410" lat="59.7132500002" lon="5.18551110403">
		<tag k="name" v="Salastemma" />
		<tag k="ssr:stedsnr" v="542733" />
		<tag k="waterway" v="dam" />
	</node>
	<node id="-440921" lat="59.7879219834" lon="5.2744769738">
		<tag k="name" v="Langåstjørna" />
		<tag k="natural" v="water" />
		<tag k="ssr:stedsnr" v="705827" />
	</node>
	<node id="-439558" lat="59.6310523632" lon="5.22290628337">
		<tag k="alt_name" v="Sætradalstjørna2" />
		<tag k="name" v="Sætradalstjørna" />
		<tag k="natural" v="water" />
		<tag k="ssr:stedsnr" v="124906" />
	</node>
	<node id="-440917" lat="59.8457055601" lon="5.11860277886">
		<tag k="name" v="Mosavatnet" />
		<tag k="natural" v="water" />
		<tag k="ssr:stedsnr" v="705243" />
		<tag k="water" v="lake" />
	</node>
	<node id="-439962" lat="59.8425671707" lon="5.18438701433">
		<tag k="name" v="Langavatnet" />
		<tag k="natural" v="water" />
		<tag k="ssr:stedsnr" v="246859" />
	</node>
	<node id="-438910" lat="59.7648584346" lon="5.19357818649">
		<tag k="name" v="Korstjørna" />
		<tag k="natural" v="water" />
		<tag k="ssr:stedsnr" v="402845" />
	</node>
	<node id="-441424" lat="59.7121083294" lon="5.22400277603">
		<tag k="name" v="Kjosen" />
		<tag k="natural" v="bay" />
		<tag k="ssr:stedsnr" v="853500" />
	</node>
	<node id="-441423" lat="59.7077865231" lon="5.26195355354">
		<tag k="name" v="Kobbatjørna" />
		<tag k="natural" v="water" />
		<tag k="ssr:stedsnr" v="853498" />
	</node>
	<node id="-440910" lat="59.8086638877" lon="5.22406665799">
		<tag k="name" v="Dyrdalsvika" />
		<tag k="natural" v="bay" />
		<tag k="ssr:stedsnr" v="705161" />
	</node>
	<node id="-440470" lat="59.8640535447" lon="5.16373566464">
		<tag k="name" v="Kvernavatnet" />
		<tag k="natural" v="water" />
		<tag k="ssr:stedsnr" v="549912" />
	</node>
	<node id="-439882" lat="59.7170055521" lon="5.20803889776">
		<tag k="name" v="Kvernatjørna" />
		<tag k="natural" v="water" />
		<tag k="ssr:stedsnr" v="223740" />
		<tag k="water" v="lake" />
	</node>
	<node id="-439367" lat="59.773492313" lon="5.26264885729">
		<tag k="name" v="Rotavatnet" />
		<tag k="natural" v="water" />
		<tag k="ssr:stedsnr" v="64602" />
	</node>
	<node id="-438850" lat="59.8076305591" lon="5.21052777505">
		<tag k="name" v="Selsvatnet" />
		<tag k="natural" v="water" />
		<tag k="ssr:stedsnr" v="368954" />
		<tag k="water" v="lake" />
	</node>
	<node id="-438849" lat="59.7602999961" lon="5.27990277184">
		<tag k="alt_name" v="Finnasvatnet" />
		<tag k="name" v="Finnåsvatnet" />
		<tag k="natural" v="water" />
		<tag k="ssr:stedsnr" v="368599" />
		<tag k="water" v="lake" />
	</node>
	<node id="-438848" lat="59.7957108703" lon="5.13552261386">
		<tag k="name" v="Øklandsvatnet" />
		<tag k="natural" v="water" />
		<tag k="ssr:stedsnr" v="368560" />
	</node>
	<node id="-438807" lat="59.7206079811" lon="5.34477320496">
		<tag k="name" v="Eikelandtjørna" />
		<tag k="natural" v="water" />
		<tag k="ssr:stedsnr" v="367464" />
	</node>
	<node id="-439354" lat="59.709935287" lon="5.19234420985">
		<tag k="name" v="Krokavatnet" />
		<tag k="natural" v="water" />
		<tag k="ssr:stedsnr" v="64497" />
	</node>
	<node id="-440377" lat="59.7034611105" lon="5.21035555823">
		<tag k="name" v="Nedra Teigatjørna" />
		<tag k="natural" v="water" />
		<tag k="ssr:stedsnr" v="526723" />
		<tag k="water" v="lake" />
	</node>
	<node id="-438839" lat="59.6876472243" lon="5.34776666106">
		<tag k="name" v="Totlandstjørna" />
		<tag k="natural" v="water" />
		<tag k="ssr:stedsnr" v="367948" />
	</node>
	<node id="-439858" lat="59.8480166674" lon="5.19375278533">
		<tag k="name" v="Vindingsvatn" />
		<tag k="natural" v="water" />
		<tag k="ssr:stedsnr" v="222319" />
	</node>
	<node id="-438960" lat="59.8508805569" lon="5.1220222265">
		<tag k="name" v="Holmavatnet" />
		<tag k="natural" v="water" />
		<tag k="ssr:stedsnr" v="405661" />
		<tag k="water" v="lake" />
	</node>
	<node id="-439343" lat="59.7376958976" lon="5.33155019692">
		<tag k="name" v="Sundatjørna" />
		<tag k="natural" v="water" />
		<tag k="ssr:stedsnr" v="63597" />
	</node>
	<node id="-440365" lat="59.6596527447" lon="5.24471643575">
		<tag k="name" v="Sønninga" />
		<tag k="natural" v="strait" />
		<tag k="ssr:stedsnr" v="525815" />
	</node>
	<node id="-440364" lat="59.6602444434" lon="5.23478056029">
		<tag k="name" v="Tjørna" />
		<tag k="natural" v="water" />
		<tag k="ssr:stedsnr" v="525808" />
		<tag k="water" v="lake" />
	</node>
	<node id="-439851" lat="59.7894440168" lon="5.14426916014">
		<tag k="name" v="Barnartjørna" />
		<tag k="natural" v="water" />
		<tag k="ssr:stedsnr" v="220941" />
	</node>
	<node id="-441125" lat="59.8674305518" lon="5.17596388467">
		<tag k="name" v="Dyrvikvatnet" />
		<tag k="natural" v="water" />
		<tag k="ssr:stedsnr" v="766879" />
		<tag k="water" v="lake" />
	</node>
	<node id="-439495" lat="59.7119138878" lon="5.17265555482">
		<tag k="name" v="Blyttastemma" />
		<tag k="ssr:stedsnr" v="102739" />
		<tag k="waterway" v="dam" />
	</node>
	<node id="-440871" lat="59.6827555526" lon="5.18791389597">
		<tag k="name" v="Grutlevatnet" />
		<tag k="natural" v="water" />
		<tag k="ssr:stedsnr" v="671944" />
		<tag k="water" v="lake" />
	</node>
	<node id="-441382" lat="59.6952166691" lon="5.19720278496">
		<tag k="name" v="Flogatjørna" />
		<tag k="natural" v="water" />
		<tag k="ssr:stedsnr" v="831448" />
		<tag k="water" v="lake" />
	</node>
	<node id="-441009" lat="59.6773027765" lon="5.21971111227">
		<tag k="name" v="Askedalsbekken" />
		<tag k="ssr:stedsnr" v="727109" />
		<tag k="waterway" v="stream" />
	</node>
	<node id="-439778" lat="59.813023119" lon="5.18761623261">
		<tag k="name" v="Dyrvatnet" />
		<tag k="natural" v="water" />
		<tag k="ssr:stedsnr" v="186942" />
	</node>
	<node id="-440867" lat="59.8520000027" lon="5.12903611204">
		<tag k="alt_name" v="Trædstjørna" />
		<tag k="name" v="Træstjørna" />
		<tag k="natural" v="water" />
		<tag k="ssr:stedsnr" v="671896" />
	</node>
	<node id="-438818" lat="59.772722762" lon="5.27090495056">
		<tag k="name" v="Langavatnet" />
		<tag k="natural" v="water" />
		<tag k="ssr:stedsnr" v="367563" />
	</node>
	<node id="-438817" lat="59.7329172634" lon="5.21935392313">
		<tag k="name" v="Steinvågtjørna" />
		<tag k="natural" v="water" />
		<tag k="ssr:stedsnr" v="367559" />
	</node>
	<node id="-439840" lat="59.7744836259" lon="5.17482065772">
		<tag k="name" v="Hopatjørna" />
		<tag k="natural" v="water" />
		<tag k="ssr:stedsnr" v="220855" />
	</node>
	<node id="-440863" lat="59.7640499999" lon="5.27105554864">
		<tag k="alt_name" v="Oldereid" />
		<tag k="name" v="Oldereidet" />
		<tag k="natural" v="strait" />
		<tag k="ssr:stedsnr" v="671612" />
	</node>
	<node id="-441373" lat="59.7076055548" lon="5.22470554949">
		<tag k="name" v="Mørkatjørna" />
		<tag k="natural" v="water" />
		<tag k="ssr:stedsnr" v="830732" />
		<tag k="water" v="lake" />
	</node>
	<node id="-438810" lat="59.694264201" lon="5.11540367275">
		<tag k="alt_name" v="Vatnet, nordra" />
		<tag k="name" v="Nordra Vatnet" />
		<tag k="natural" v="water" />
		<tag k="ssr:stedsnr" v="367479" />
	</node>
	<node id="-440495" lat="59.7676574995" lon="5.30419274047">
		<tag k="name" v="Åstjørna" />
		<tag k="natural" v="water" />
		<tag k="ssr:stedsnr" v="550598" />
	</node>
	<node id="-440912" lat="59.8261609628" lon="5.21027215123">
		<tag k="name" v="Rundetjørna" />
		<tag k="natural" v="water" />
		<tag k="ssr:stedsnr" v="705185" />
	</node>
	<node id="-440068" lat="59.8489914846" lon="5.11259009254">
		<tag k="name" v="Krokavatnet" />
		<tag k="natural" v="water" />
		<tag k="ssr:stedsnr" v="428896" />
	</node>
	<node id="-439317" lat="59.6169750009" lon="5.21814444573">
		<tag k="name" v="Kvernabekken" />
		<tag k="ssr:stedsnr" v="42945" />
		<tag k="waterway" v="stream" />
	</node>
	<node id="-440852" lat="59.7808088408" lon="5.28698785402">
		<tag k="name" v="Steinsåsvatnet" />
		<tag k="natural" v="water" />
		<tag k="ssr:stedsnr" v="671522" />
	</node>
	<node id="-440849" lat="59.679630125" lon="5.21427500602">
		<tag k="name" v="Pikatjørna" />
		<tag k="natural" v="water" />
		<tag k="ssr:stedsnr" v="670990" />
	</node>
	<node id="-440845" lat="59.6352374639" lon="5.22293850314">
		<tag k="name" v="Andersvatnet" />
		<tag k="natural" v="water" />
		<tag k="ssr:stedsnr" v="670921" />
	</node>
	<node id="-440332" lat="59.6423888864" lon="5.20230278193">
		<tag k="name" v="Aurabekken" />
		<tag k="ssr:stedsnr" v="522796" />
		<tag k="waterway" v="stream" />
	</node>
	<node id="-440843" lat="59.6619084402" lon="5.16641972485">
		<tag k="name" v="Eriksvatnet" />
		<tag k="natural" v="water" />
		<tag k="ssr:stedsnr" v="670887" />
	</node>
	<node id="-440840" lat="59.6212633823" lon="5.18303761083">
		<tag k="name" v="Lenutetjørna" />
		<tag k="natural" v="water" />
		<tag k="ssr:stedsnr" v="670820" />
	</node>
	<node id="-440839" lat="59.6260271144" lon="5.23448924538">
		<tag k="alt_name" v="Vevikevatnet" />
		<tag k="name" v="Vedvikevatnet" />
		<tag k="natural" v="water" />
		<tag k="ssr:stedsnr" v="670817" />
	</node>
	<node id="-440834" lat="59.7291631621" lon="5.23889888895">
		<tag k="name" v="Hidletjørna" />
		<tag k="natural" v="water" />
		<tag k="ssr:stedsnr" v="670574" />
	</node>
</osm>
