<?xml version="1.0" encoding="UTF-8"?>
<osm version="0.6" generator="osmapis">
	<node lat="66.51000833147815" lon="13.01815834286056" id="-17086">
		<tag k="landuse" v="harbour" />
		<tag k="name" v="Hamna" />
		<tag k="seamark:type" v="harbour" />
		<tag k="ssr:stedsnr" v="227505" />
	</node>
	<node lat="66.40134020769369" lon="12.879246457090693" id="-17210">
		<tag k="bridge" v="yes" />
		<tag k="layer" v="1" />
		<tag k="name" v="Valbrua" />
		<tag k="ssr:stedsnr" v="470352" />
	</node>
	<node lat="66.36481389009634" lon="12.612872221484308" id="-17294">
		<tag k="landuse" v="harbour" />
		<tag k="name" v="Slenesvika" />
		<tag k="seamark:type" v="harbour" />
		<tag k="ssr:stedsnr" v="409814" />
	</node>
	<node lat="66.39824444375203" lon="13.134783331886407" id="-17436">
		<tag k="man_made" v="quay" />
		<tag k="name" v="Åsnes" />
		<tag k="place" v="locality" />
		<tag k="ssr:stedsnr" v="531992" />
	</node>
	<node lat="66.53132222570152" lon="12.836866673499733" id="-17659">
		<tag k="highway" v="path" />
		<tag k="name" v="Setervegen" />
		<tag k="ssr:stedsnr" v="773607" />
	</node>
	<node lat="66.40129444835023" lon="13.093375003441812" id="-17710">
		<tag k="highway" v="path" />
		<tag k="name" v="Skarvegen" />
		<tag k="ssr:stedsnr" v="835886" />
	</node>
	<node lat="66.35870555833013" lon="12.672777786470471" id="-17813">
		<tag k="landuse" v="harbour" />
		<tag k="name" v="Reløyhamna" />
		<tag k="seamark:type" v="harbour" />
		<tag k="ssr:stedsnr" v="955647" />
	</node>
	<node lat="66.41749999779934" lon="12.841438892781927" id="-17900">
		<tag k="landuse" v="harbour" />
		<tag k="name" v="Lurøysjyen" />
		<tag k="seamark:type" v="harbour" />
		<tag k="ssr:stedsnr" v="46609" />
	</node>
	<node lat="66.39866944692594" lon="12.850113890719628" id="-17978">
		<tag k="landuse" v="harbour" />
		<tag k="name" v="Hundberget" />
		<tag k="seamark:type" v="harbour" />
		<tag k="ssr:stedsnr" v="107405" />
	</node>
	<node lat="66.30555961932082" lon="13.205218568526004" id="-18037">
		<tag k="layer" v="-1" />
		<tag k="name" v="Silatunnelen" />
		<tag k="ssr:stedsnr" v="165798" />
		<tag k="tunnel" v="yes" />
	</node>
	<node lat="66.40131944867545" lon="13.118213881285548" id="-18044">
		<tag k="man_made" v="quay" />
		<tag k="name" v="Aldersjøen" />
		<tag k="place" v="locality" />
		<tag k="ssr:stedsnr" v="167882" />
	</node>
	<node lat="66.37840555627211" lon="12.591055545137102" id="-18322">
		<tag k="man_made" v="cairn" />
		<tag k="name" v="Kvitvarden" />
		<tag k="place" v="locality" />
		<tag k="ssr:stedsnr" v="409864" />
	</node>
	<node lat="66.57147777508179" lon="12.628747215692993" id="-18809">
		<tag k="man_made" v="quay" />
		<tag k="name" v="Holmen" />
		<tag k="place" v="locality" />
		<tag k="ssr:stedsnr" v="834674" />
	</node>
	<node lat="66.40053055411896" lon="13.148177771683407" id="-18830">
		<tag k="man_made" v="quay" />
		<tag k="name" v="Skjåstad" />
		<tag k="place" v="locality" />
		<tag k="ssr:stedsnr" v="835862" />
	</node>
	<node lat="66.36990277590893" lon="12.365313891664199" id="-18930">
		<tag k="landuse" v="harbour" />
		<tag k="name" v="Heimerhamna" />
		<tag k="seamark:type" v="harbour" />
		<tag k="ssr:stedsnr" v="956928" />
	</node>
</osm>
