<?xml version="1.0" encoding="UTF-8"?>
<osm version="0.6" generator="osmapis">
	<node lat="66.40145277370218" lon="13.170552780153617" id="-16577">
		<tag k="name" v="Åsmyran" />
		<tag k="natural" v="wetland" />
		<tag k="ssr:stedsnr" v="46878" />
	</node>
	<node lat="66.37180833517864" lon="12.345244448724964" id="-16628">
		<tag k="name" v="Trongsmogsteinan" />
		<tag k="natural" v="stone" />
		<tag k="ssr:stedsnr" v="107182" />
	</node>
	<node lat="66.52847500208894" lon="12.806097227272732" id="-16698">
		<tag k="name" v="Bukksteinen" />
		<tag k="natural" v="stone" />
		<tag k="ssr:stedsnr" v="166611" />
	</node>
	<node lat="66.35060555232337" lon="12.997097217576751" id="-16751">
		<tag k="name" v="Kobbvikmyran" />
		<tag k="natural" v="wetland" />
		<tag k="ssr:stedsnr" v="227205" />
	</node>
	<node lat="66.36048611026108" lon="12.310094441684523" id="-16758">
		<tag k="name" v="Vedsteinen" />
		<tag k="natural" v="stone" />
		<tag k="ssr:stedsnr" v="228190" />
	</node>
	<node lat="66.41026389310204" lon="12.915283342094346" id="-16765">
		<tag k="name" v="Stormyra" />
		<tag k="natural" v="wetland" />
		<tag k="ssr:stedsnr" v="228586" />
	</node>
	<node lat="66.51687222188659" lon="13.028780565028157" id="-16819">
		<tag k="name" v="Svaan" />
		<tag k="place" v="locality" />
		<tag k="ssr:stedsnr" v="288426" />
	</node>
	<node lat="66.30361666440255" lon="13.126833321838436" id="-16849">
		<tag k="name" v="Finnsteinan" />
		<tag k="natural" v="stone" />
		<tag k="ssr:stedsnr" v="319540" />
	</node>
	<node lat="66.3373083347381" lon="13.017391669467923" id="-16871">
		<tag k="name" v="Stokkvågmyra" />
		<tag k="natural" v="wetland" />
		<tag k="ssr:stedsnr" v="470177" />
	</node>
	<node lat="66.41898055989023" lon="12.901941673834699" id="-16887">
		<tag k="name" v="Møsbrømsteinen" />
		<tag k="natural" v="stone" />
		<tag k="ssr:stedsnr" v="470509" />
	</node>
	<node lat="66.50174167055005" lon="13.075986112615995" id="-16903">
		<tag k="name" v="Svartdalsmyra" />
		<tag k="natural" v="wetland" />
		<tag k="ssr:stedsnr" v="348579" />
	</node>
	<node lat="66.37056944780404" lon="12.33887776997848" id="-16963">
		<tag k="name" v="Lundmyra" />
		<tag k="natural" v="wetland" />
		<tag k="ssr:stedsnr" v="410203" />
	</node>
	<node lat="66.44151666367245" lon="13.159061101582491" id="-16973">
		<tag k="name" v="Liamyra" />
		<tag k="natural" v="wetland" />
		<tag k="ssr:stedsnr" v="410842" />
	</node>
	<node lat="66.4895444472368" lon="12.937597230281552" id="-17089">
		<tag k="name" v="Vassmyra" />
		<tag k="natural" v="wetland" />
		<tag k="ssr:stedsnr" v="530308" />
	</node>
	<node lat="66.41604999969499" lon="12.90753334294998" id="-17124">
		<tag k="name" v="Storsteinmyra" />
		<tag k="natural" v="wetland" />
		<tag k="ssr:stedsnr" v="591506" />
	</node>
	<node lat="66.43698055858509" lon="12.84616110149871" id="-17126">
		<tag k="name" v="Hagaura" />
		<tag k="natural" v="scree" />
		<tag k="ssr:stedsnr" v="591566" />
	</node>
	<node lat="66.44443333489873" lon="13.16259722960084" id="-17130">
		<tag k="name" v="Bakliholtan" />
		<tag k="place" v="locality" />
		<tag k="ssr:stedsnr" v="591810" />
	</node>
	<node lat="66.48906388828905" lon="12.945641676159969" id="-17233">
		<tag k="name" v="Kråksteinen" />
		<tag k="natural" v="stone" />
		<tag k="ssr:stedsnr" v="895247" />
	</node>
	<node lat="66.53337222267757" lon="12.864819448952199" id="-17243">
		<tag k="name" v="Storskogen" />
		<tag k="place" v="locality" />
		<tag k="ssr:stedsnr" v="895631" />
	</node>
	<node lat="66.3649055575595" lon="13.156013879643439" id="-17336">
		<tag k="name" v="Sauurda" />
		<tag k="natural" v="scree" />
		<tag k="ssr:stedsnr" v="774912" />
	</node>
	<node lat="66.425888888459" lon="13.054208332325054" id="-17362">
		<tag k="name" v="Geitstimyra" />
		<tag k="natural" v="wetland" />
		<tag k="ssr:stedsnr" v="835133" />
	</node>
	<node lat="66.43966110901066" lon="12.843097230432514" id="-17367">
		<tag k="name" v="Oksbåsura" />
		<tag k="natural" v="scree" />
		<tag k="ssr:stedsnr" v="835634" />
	</node>
	<node lat="66.42531111529898" lon="12.915211103201301" id="-17369">
		<tag k="name" v="Klippervågmyran" />
		<tag k="natural" v="wetland" />
		<tag k="ssr:stedsnr" v="835588" />
	</node>
	<node lat="66.44747222663095" lon="13.191394437169615" id="-17373">
		<tag k="name" v="Snikjemyra" />
		<tag k="natural" v="wetland" />
		<tag k="ssr:stedsnr" v="835829" />
	</node>
	<node lat="66.44288055794604" lon="13.188869435751165" id="-17374">
		<tag k="name" v="Finnura" />
		<tag k="natural" v="scree" />
		<tag k="ssr:stedsnr" v="835831" />
	</node>
	<node lat="66.37688888583929" lon="12.835594442744686" id="-17430">
		<tag k="name" v="Yttervollen" />
		<tag k="natural" v="wetland" />
		<tag k="ssr:stedsnr" v="895423" />
	</node>
	<node lat="66.37007777377795" lon="12.345327776386501" id="-17486">
		<tag k="name" v="Lundsteinen" />
		<tag k="natural" v="stone" />
		<tag k="ssr:stedsnr" v="956222" />
	</node>
	<node lat="66.48974167021171" lon="12.904874993921725" id="-17497">
		<tag k="name" v="Vollen" />
		<tag k="place" v="locality" />
		<tag k="ssr:stedsnr" v="956661" />
	</node>
	<node lat="66.39268610813377" lon="13.151622216668336" id="-17506">
		<tag k="name" v="Bjørnstimyra" />
		<tag k="natural" v="wetland" />
		<tag k="ssr:stedsnr" v="956996" />
	</node>
	<node lat="66.3923583371744" lon="12.861772223320338" id="-17545">
		<tag k="name" v="De leberske myrer" />
		<tag k="natural" v="wetland" />
		<tag k="ssr:stedsnr" v="45440" />
	</node>
	<node lat="66.32568333702108" lon="13.044772214731687" id="-17615">
		<tag k="alt_name" v="Varpet" />
		<tag k="name" v="Varpa" />
		<tag k="place" v="locality" />
		<tag k="ssr:stedsnr" v="86961" />
	</node>
	<node lat="66.39643611007455" lon="12.85681389963176" id="-17644">
		<tag k="name" v="Jarvollen" />
		<tag k="place" v="locality" />
		<tag k="ssr:stedsnr" v="107404" />
	</node>
	<node lat="66.42745833648603" lon="12.84765000239495" id="-17650">
		<tag k="name" v="Einvollen" />
		<tag k="place" v="locality" />
		<tag k="ssr:stedsnr" v="107567" />
	</node>
	<node lat="66.46202222052517" lon="13.15369445042598" id="-17742">
		<tag k="name" v="Grønnesholten" />
		<tag k="place" v="locality" />
		<tag k="ssr:stedsnr" v="167846" />
	</node>
	<node lat="66.41602500455042" lon="12.903838883058224" id="-17822">
		<tag k="name" v="Møsbrømsteinmyra" />
		<tag k="natural" v="wetland" />
		<tag k="ssr:stedsnr" v="228580" />
	</node>
	<node lat="66.41119166636365" lon="12.927224990524945" id="-17913">
		<tag k="name" v="Skarmyra" />
		<tag k="natural" v="wetland" />
		<tag k="ssr:stedsnr" v="349578" />
	</node>
	<node lat="66.44644166954525" lon="13.154477768302124" id="-17947">
		<tag k="name" v="Almliurda" />
		<tag k="natural" v="scree" />
		<tag k="ssr:stedsnr" v="380447" />
	</node>
	<node lat="66.48274444169698" lon="12.94663055785427" id="-17981">
		<tag k="name" v="Høgåsmyra" />
		<tag k="natural" v="wetland" />
		<tag k="ssr:stedsnr" v="409347" />
	</node>
	<node lat="66.44210555388278" lon="13.18852777218064" id="-18067">
		<tag k="name" v="Finnurda" />
		<tag k="natural" v="scree" />
		<tag k="ssr:stedsnr" v="501379" />
	</node>
	<node lat="66.39498333670139" lon="13.180094455036437" id="-18093">
		<tag k="name" v="Vassura" />
		<tag k="natural" v="scree" />
		<tag k="ssr:stedsnr" v="530943" />
	</node>
	<node lat="66.36838333762385" lon="12.880352779657214" id="-18096">
		<tag k="name" v="Taket" />
		<tag k="place" v="locality" />
		<tag k="ssr:stedsnr" v="530437" />
	</node>
	<node lat="66.40166666291289" lon="12.936108327486144" id="-18107">
		<tag k="name" v="Ørnstolmyra" />
		<tag k="natural" v="wetland" />
		<tag k="ssr:stedsnr" v="531158" />
	</node>
	<node lat="66.47325000334875" lon="13.134230553239904" id="-18111">
		<tag k="name" v="Kvinura" />
		<tag k="natural" v="scree" />
		<tag k="ssr:stedsnr" v="531705" />
	</node>
	<node lat="66.51325278006651" lon="13.094486115511986" id="-18191">
		<tag k="name" v="Skolvassmyra" />
		<tag k="natural" v="wetland" />
		<tag k="ssr:stedsnr" v="590586" />
	</node>
	<node lat="66.4909361072397" lon="12.955208333683482" id="-18203">
		<tag k="name" v="Nordmyra" />
		<tag k="natural" v="wetland" />
		<tag k="ssr:stedsnr" v="591458" />
	</node>
	<node lat="66.57186111246429" lon="12.659869443318048" id="-18208">
		<tag k="name" v="Botnan" />
		<tag k="place" v="locality" />
		<tag k="ssr:stedsnr" v="591640" />
	</node>
	<node lat="66.36810833504175" lon="12.335286111995703" id="-18231">
		<tag k="name" v="Lundurda" />
		<tag k="natural" v="scree" />
		<tag k="ssr:stedsnr" v="622159" />
	</node>
	<node lat="66.37979166897026" lon="13.109091666924806" id="-18292">
		<tag k="name" v="Krekkmyra" />
		<tag k="natural" v="wetland" />
		<tag k="ssr:stedsnr" v="652978" />
	</node>
	<node lat="66.47987222355485" lon="12.944888887858518" id="-18295">
		<tag k="name" v="Båtvikmyra" />
		<tag k="natural" v="wetland" />
		<tag k="ssr:stedsnr" v="712328" />
	</node>
	<node lat="66.51912777501889" lon="13.011224988621676" id="-18376">
		<tag k="name" v="Urda" />
		<tag k="natural" v="scree" />
		<tag k="ssr:stedsnr" v="773441" />
	</node>
	<node lat="66.45351111506318" lon="12.946886106685795" id="-18465">
		<tag k="name" v="Brennmyra" />
		<tag k="natural" v="wetland" />
		<tag k="ssr:stedsnr" v="834348" />
	</node>
	<node lat="66.47070278179385" lon="13.175502776513747" id="-18496">
		<tag k="name" v="Kamsmyra" />
		<tag k="natural" v="wetland" />
		<tag k="ssr:stedsnr" v="835722" />
	</node>
	<node lat="66.53284721806544" lon="12.875399989519382" id="-18587">
		<tag k="name" v="Stormyra" />
		<tag k="natural" v="wetland" />
		<tag k="ssr:stedsnr" v="955661" />
	</node>
	<node lat="66.46260833200441" lon="13.187249992178094" id="-18595">
		<tag k="name" v="Skavsteinen" />
		<tag k="natural" v="stone" />
		<tag k="ssr:stedsnr" v="956830" />
	</node>
</osm>
