<?xml version="1.0" encoding="UTF-8"?>
<osm version="0.6" generator="osmapis">
	<node lat="66.39882499662494" lon="13.0719027797191" id="-9102">
		<tag k="fixme" v="consider natural=peak for the most distinct mountains in the district" />
		<tag k="name" v="Kardaksfjellet" />
		<tag k="natural" v="hill" />
		<tag k="place" v="locality" />
		<tag k="ssr:stedsnr" v="16560" />
	</node>
	<node lat="66.38562221929267" lon="12.882041663419113" id="-9104">
		<tag k="name" v="Fitjan" />
		<tag k="place" v="locality" />
		<tag k="ssr:stedsnr" v="16569" />
	</node>
	<node lat="66.55498888761193" lon="12.625172214390082" id="-9113">
		<tag k="name" v="Brygghågen" />
		<tag k="natural" v="hill" />
		<tag k="place" v="locality" />
		<tag k="ssr:stedsnr" v="44732" />
	</node>
	<node lat="66.49080277542502" lon="12.93908611014466" id="-9116">
		<tag k="name" v="Ytterhella" />
		<tag k="place" v="locality" />
		<tag k="ssr:stedsnr" v="45273" />
	</node>
	<node lat="66.47147500018502" lon="13.152299999072431" id="-9118">
		<tag k="name" v="Stibakkan" />
		<tag k="natural" v="slope" />
		<tag k="place" v="locality" />
		<tag k="ssr:stedsnr" v="45609" />
	</node>
	<node lat="66.39131666589778" lon="13.157555550777507" id="-9122">
		<tag k="name" v="Vasslia" />
		<tag k="natural" v="slope" />
		<tag k="place" v="locality" />
		<tag k="ssr:stedsnr" v="45924" />
	</node>
	<node lat="66.36063611223835" lon="13.041397217065553" id="-9124">
		<tag k="name" v="Hauglandsfjellet" />
		<tag k="natural" v="cliff" />
		<tag k="ssr:stedsnr" v="46184" />
	</node>
	<node lat="66.41346388832312" lon="12.923302781255744" id="-9127">
		<tag k="name" v="Strupen" />
		<tag k="natural" v="valley" />
		<tag k="place" v="locality" />
		<tag k="ssr:stedsnr" v="46571" />
	</node>
	<node lat="66.32886666392918" lon="13.194466668023404" id="-9145">
		<tag k="name" v="Silagrova" />
		<tag k="natural" v="valley" />
		<tag k="place" v="locality" />
		<tag k="ssr:stedsnr" v="76554" />
	</node>
	<node lat="66.35625832935523" lon="13.255686105521313" id="-9148">
		<tag k="fixme" v="consider natural=peak for the most distinct mountains in the district" />
		<tag k="name" v="Polltinden" />
		<tag k="natural" v="hill" />
		<tag k="place" v="locality" />
		<tag k="ssr:stedsnr" v="76804" />
	</node>
	<node lat="66.58096944011504" lon="12.621916666482662" id="-9169">
		<tag k="name" v="Seljedalen" />
		<tag k="natural" v="valley" />
		<tag k="place" v="locality" />
		<tag k="ssr:stedsnr" v="92564" />
	</node>
	<node lat="66.51711389189325" lon="13.11191111023432" id="-9170">
		<tag k="name" v="Finnsihågen" />
		<tag k="natural" v="hill" />
		<tag k="place" v="locality" />
		<tag k="ssr:stedsnr" v="105598" />
	</node>
	<node lat="66.49521111547895" lon="13.075080552904165" id="-9175">
		<tag k="name" v="Neshågen" />
		<tag k="natural" v="hill" />
		<tag k="place" v="locality" />
		<tag k="ssr:stedsnr" v="106581" />
	</node>
	<node lat="66.49982222346488" lon="13.09628334019581" id="-9176">
		<tag k="name" v="Glasshågen" />
		<tag k="natural" v="hill" />
		<tag k="place" v="locality" />
		<tag k="ssr:stedsnr" v="106583" />
	</node>
	<node lat="66.51221666855635" lon="13.027197220895507" id="-9177">
		<tag k="name" v="Trolldalen" />
		<tag k="natural" v="valley" />
		<tag k="place" v="locality" />
		<tag k="ssr:stedsnr" v="106437" />
	</node>
	<node lat="66.53312222409988" lon="12.857938879826797" id="-9178">
		<tag k="name" v="Oterrevna" />
		<tag k="natural" v="valley" />
		<tag k="place" v="locality" />
		<tag k="ssr:stedsnr" v="106621" />
	</node>
	<node lat="66.57353055449501" lon="12.658188879553878" id="-9179">
		<tag k="fixme" v="consider natural=peak for the most distinct mountains in the district" />
		<tag k="name" v="Grønnåsen" />
		<tag k="natural" v="hill" />
		<tag k="place" v="locality" />
		<tag k="ssr:stedsnr" v="106675" />
	</node>
	<node lat="66.57413610740772" lon="12.682352786091377" id="-9180">
		<tag k="name" v="Korsvikhågen" />
		<tag k="natural" v="hill" />
		<tag k="place" v="locality" />
		<tag k="ssr:stedsnr" v="106677" />
	</node>
	<node lat="66.37007222624271" lon="12.3316500054747" id="-9186">
		<tag k="name" v="Hørlan" />
		<tag k="natural" v="slope" />
		<tag k="place" v="locality" />
		<tag k="ssr:stedsnr" v="107185" />
	</node>
	<node lat="66.52650277503976" lon="12.868741659286204" id="-9187">
		<tag k="name" v="Novikbergan" />
		<tag k="natural" v="ridge" />
		<tag k="place" v="locality" />
		<tag k="ssr:stedsnr" v="107681" />
	</node>
	<node lat="66.3764000001112" lon="12.553191672876864" id="-9189">
		<tag k="name" v="Ullhågen" />
		<tag k="natural" v="hill" />
		<tag k="place" v="locality" />
		<tag k="ssr:stedsnr" v="107914" />
	</node>
	<node lat="66.40894721938055" lon="13.046902770213155" id="-9205">
		<tag k="fixme" v="consider natural=peak for the most distinct mountains in the district" />
		<tag k="name" v="Ørnestinden" />
		<tag k="natural" v="hill" />
		<tag k="place" v="locality" />
		<tag k="ssr:stedsnr" v="137361" />
	</node>
	<node lat="66.35842499600027" lon="12.338786102518416" id="-9232">
		<tag k="name" v="Kalvdalen" />
		<tag k="natural" v="valley" />
		<tag k="place" v="locality" />
		<tag k="ssr:stedsnr" v="258377" />
	</node>
	<node lat="66.44333611403384" lon="12.901205559754757" id="-9233">
		<tag k="name" v="Fagertun" />
		<tag k="place" v="locality" />
		<tag k="ssr:stedsnr" v="258437" />
	</node>
	<node lat="66.38408055412974" lon="13.010841657955126" id="-9234">
		<tag k="fixme" v="consider natural=peak for the most distinct mountains in the district" />
		<tag k="name" v="Hjartnebben" />
		<tag k="natural" v="hill" />
		<tag k="place" v="locality" />
		<tag k="ssr:stedsnr" v="258607" />
	</node>
	<node lat="66.4092472269615" lon="13.1011444361165" id="-9237">
		<tag k="fixme" v="consider natural=peak for the most distinct mountains in the district" />
		<tag k="name" v="Aldertinden" />
		<tag k="natural" v="hill" />
		<tag k="place" v="locality" />
		<tag k="ssr:stedsnr" v="259369" />
	</node>
	<node lat="66.49239999925487" lon="13.108922225281804" id="-9243">
		<tag k="alt_name" v="Medtinden" />
		<tag k="fixme" v="consider natural=peak for the most distinct mountains in the district" />
		<tag k="name" v="Meltinden" />
		<tag k="natural" v="hill" />
		<tag k="place" v="locality" />
		<tag k="ssr:stedsnr" v="259483" />
	</node>
	<node lat="66.38599444035756" lon="13.047991659279962" id="-9254">
		<tag k="name" v="Dalene" />
		<tag k="natural" v="valley" />
		<tag k="place" v="locality" />
		<tag k="ssr:stedsnr" v="166202" />
	</node>
	<node lat="66.53425555757065" lon="12.855291661348314" id="-9256">
		<tag k="name" v="Kvithågbergan" />
		<tag k="natural" v="hill" />
		<tag k="place" v="locality" />
		<tag k="ssr:stedsnr" v="166614" />
	</node>
	<node lat="66.36637222328554" lon="12.685122227333888" id="-9257">
		<tag k="name" v="Durmålshågen" />
		<tag k="natural" v="hill" />
		<tag k="place" v="locality" />
		<tag k="ssr:stedsnr" v="166617" />
	</node>
	<node lat="66.52754999886693" lon="12.837261116741667" id="-9258">
		<tag k="name" v="Limahågen" />
		<tag k="natural" v="hill" />
		<tag k="place" v="locality" />
		<tag k="ssr:stedsnr" v="166642" />
	</node>
	<node lat="66.58165833408734" lon="12.635269444415158" id="-9259">
		<tag k="name" v="Vikerlia" />
		<tag k="natural" v="slope" />
		<tag k="place" v="locality" />
		<tag k="ssr:stedsnr" v="166649" />
	</node>
	<node lat="66.5820500011962" lon="12.63270833742168" id="-9260">
		<tag k="loc_name" v="Okshallen" />
		<tag k="name" v="Okshallan" />
		<tag k="natural" v="slope" />
		<tag k="place" v="locality" />
		<tag k="ssr:stedsnr" v="166651" />
	</node>
	<node lat="66.48921944766718" lon="13.118455549667999" id="-9261">
		<tag k="fixme" v="consider natural=peak for the most distinct mountains in the district" />
		<tag k="name" v="Litlultinden" />
		<tag k="natural" v="hill" />
		<tag k="place" v="locality" />
		<tag k="ssr:stedsnr" v="166580" />
	</node>
	<node lat="66.33829444507418" lon="13.004216665392455" id="-9263">
		<tag k="name" v="Sjyhågen" />
		<tag k="natural" v="hill" />
		<tag k="place" v="locality" />
		<tag k="ssr:stedsnr" v="167207" />
	</node>
	<node lat="66.36868055540052" lon="12.356930554158286" id="-9264">
		<tag k="name" v="Vardhågen" />
		<tag k="natural" v="hill" />
		<tag k="place" v="locality" />
		<tag k="ssr:stedsnr" v="167216" />
	</node>
	<node lat="66.34078055548122" lon="13.011761115639494" id="-9266">
		<tag k="name" v="Buberget" />
		<tag k="natural" v="ridge" />
		<tag k="place" v="locality" />
		<tag k="ssr:stedsnr" v="167206" />
	</node>
	<node lat="66.38893888978372" lon="12.856722217606933" id="-9267">
		<tag k="name" v="Tosdalen" />
		<tag k="natural" v="valley" />
		<tag k="place" v="locality" />
		<tag k="ssr:stedsnr" v="167416" />
	</node>
	<node lat="66.42946944175024" lon="12.86690556270062" id="-9269">
		<tag k="name" v="Hetta" />
		<tag k="natural" v="ridge" />
		<tag k="place" v="locality" />
		<tag k="ssr:stedsnr" v="167602" />
	</node>
	<node lat="66.42284166639472" lon="12.891388881241836" id="-9270">
		<tag k="name" v="Småskogan" />
		<tag k="natural" v="slope" />
		<tag k="place" v="locality" />
		<tag k="ssr:stedsnr" v="167607" />
	</node>
	<node lat="66.41812777692526" lon="12.88475555457489" id="-9271">
		<tag k="name" v="Lauklihumpen" />
		<tag k="natural" v="ridge" />
		<tag k="place" v="locality" />
		<tag k="ssr:stedsnr" v="167569" />
	</node>
	<node lat="66.4756916649134" lon="13.108255547265482" id="-9272">
		<tag k="name" v="Kvalkjeften" />
		<tag k="natural" v="ridge" />
		<tag k="place" v="locality" />
		<tag k="ssr:stedsnr" v="167719" />
	</node>
	<node lat="66.39985000170076" lon="13.10461666097759" id="-9273">
		<tag k="name" v="Skrapteigen" />
		<tag k="natural" v="valley" />
		<tag k="place" v="locality" />
		<tag k="ssr:stedsnr" v="167870" />
	</node>
	<node lat="66.36405277938611" lon="12.319908323438728" id="-9278">
		<tag k="name" v="Skogen" />
		<tag k="natural" v="slope" />
		<tag k="place" v="locality" />
		<tag k="ssr:stedsnr" v="197172" />
	</node>
	<node lat="66.51785833538165" lon="13.002569435132877" id="-9285">
		<tag k="name" v="Bulia" />
		<tag k="natural" v="slope" />
		<tag k="place" v="locality" />
		<tag k="ssr:stedsnr" v="198073" />
	</node>
	<node lat="66.49959722302336" lon="13.070147230520256" id="-9286">
		<tag k="alt_name" v="Nibba" />
		<tag k="fixme" v="consider natural=peak for the most distinct mountains in the district" />
		<tag k="name" v="Nebba" />
		<tag k="natural" v="hill" />
		<tag k="place" v="locality" />
		<tag k="ssr:stedsnr" v="198218" />
	</node>
	<node lat="66.49132777716548" lon="13.150597232179035" id="-9293">
		<tag k="name" v="Holtan" />
		<tag k="natural" v="hill" />
		<tag k="place" v="locality" />
		<tag k="ssr:stedsnr" v="198477" />
	</node>
	<node lat="66.33841110662094" lon="13.12736667014692" id="-9296">
		<tag k="fixme" v="consider natural=peak for the most distinct mountains in the district" />
		<tag k="name" v="Bogafjellet" />
		<tag k="natural" v="hill" />
		<tag k="place" v="locality" />
		<tag k="ssr:stedsnr" v="198505" />
	</node>
	<node lat="66.33445000080356" lon="13.025538895870227" id="-9297">
		<tag k="name" v="Brenna" />
		<tag k="place" v="locality" />
		<tag k="ssr:stedsnr" v="198507" />
	</node>
	<node lat="66.40336389040996" lon="13.02933887969017" id="-9298">
		<tag k="fixme" v="consider natural=peak for the most distinct mountains in the district" />
		<tag k="name" v="Risaksla" />
		<tag k="natural" v="hill" />
		<tag k="place" v="locality" />
		<tag k="ssr:stedsnr" v="198566" />
	</node>
	<node lat="66.39680000165224" lon="12.937261106597239" id="-9300">
		<tag k="fixme" v="consider natural=peak for the most distinct mountains in the district" />
		<tag k="name" v="Nakkan" />
		<tag k="natural" v="hill" />
		<tag k="place" v="locality" />
		<tag k="ssr:stedsnr" v="267972" />
	</node>
	<node lat="66.49842222408861" lon="13.1188666638842" id="-9312">
		<tag k="name" v="Esjberget" />
		<tag k="natural" v="ridge" />
		<tag k="place" v="locality" />
		<tag k="ssr:stedsnr" v="227590" />
	</node>
	<node lat="66.35048333504653" lon="13.019294440109618" id="-9316">
		<tag k="name" v="Bjørndalslia" />
		<tag k="natural" v="slope" />
		<tag k="place" v="locality" />
		<tag k="ssr:stedsnr" v="228191" />
	</node>
	<node lat="66.35113610763617" lon="13.004394434378453" id="-9317">
		<tag k="name" v="Kleivhalsbakkan" />
		<tag k="natural" v="slope" />
		<tag k="place" v="locality" />
		<tag k="ssr:stedsnr" v="228194" />
	</node>
	<node lat="66.36733610821638" lon="12.353961109622622" id="-9319">
		<tag k="name" v="Jenshågen" />
		<tag k="natural" v="hill" />
		<tag k="place" v="locality" />
		<tag k="ssr:stedsnr" v="228201" />
	</node>
	<node lat="66.43207777946039" lon="12.851499990950805" id="-9320">
		<tag k="name" v="Kattlistrupen" />
		<tag k="natural" v="valley" />
		<tag k="place" v="locality" />
		<tag k="ssr:stedsnr" v="228602" />
	</node>
	<node lat="66.4389277796613" lon="12.86574166216583" id="-9321">
		<tag k="fixme" v="consider natural=peak for the most distinct mountains in the district" />
		<tag k="name" v="Vasstindan" />
		<tag k="natural" v="hill" />
		<tag k="place" v="locality" />
		<tag k="ssr:stedsnr" v="228606" />
	</node>
	<node lat="66.46992221980577" lon="13.174269442414872" id="-9323">
		<tag k="name" v="Kamshammaren" />
		<tag k="natural" v="hill" />
		<tag k="place" v="locality" />
		<tag k="ssr:stedsnr" v="228733" />
	</node>
	<node lat="66.47119444388014" lon="13.169758341008608" id="-9324">
		<tag k="name" v="Bulia" />
		<tag k="natural" v="slope" />
		<tag k="place" v="locality" />
		<tag k="ssr:stedsnr" v="228736" />
	</node>
	<node lat="66.31629167012201" lon="13.155422225165882" id="-9334">
		<tag k="fixme" v="consider natural=peak for the most distinct mountains in the district" />
		<tag k="name" v="Silavangen" />
		<tag k="natural" v="hill" />
		<tag k="place" v="locality" />
		<tag k="ssr:stedsnr" v="258560" />
	</node>
	<node lat="66.34216666271773" lon="13.233605554572954" id="-9339">
		<tag k="fixme" v="consider natural=peak for the most distinct mountains in the district" />
		<tag k="name" v="Tortenviktinden" />
		<tag k="natural" v="hill" />
		<tag k="place" v="locality" />
		<tag k="ssr:stedsnr" v="258867" />
	</node>
	<node lat="66.50695555440575" lon="13.083616656822201" id="-9345">
		<tag k="name" v="Tussen" />
		<tag k="natural" v="hill" />
		<tag k="place" v="locality" />
		<tag k="ssr:stedsnr" v="259152" />
	</node>
	<node lat="66.32977500292961" lon="13.10418333993538" id="-9354">
		<tag k="name" v="Strupdalen" />
		<tag k="natural" v="valley" />
		<tag k="place" v="locality" />
		<tag k="ssr:stedsnr" v="259525" />
	</node>
	<node lat="66.58675000244963" lon="12.632383340168241" id="-9359">
		<tag k="fixme" v="consider natural=peak for the most distinct mountains in the district" />
		<tag k="name" v="Nordfjellet" />
		<tag k="natural" v="hill" />
		<tag k="place" v="locality" />
		<tag k="ssr:stedsnr" v="259825" />
	</node>
	<node lat="66.56426666957199" lon="12.640761119742356" id="-9366">
		<tag k="name" v="Vallerskarfjellet" />
		<tag k="natural" v="cliff" />
		<tag k="ssr:stedsnr" v="287697" />
	</node>
	<node lat="66.33680278178085" lon="13.013691661611356" id="-9371">
		<tag k="name" v="Skarhågen" />
		<tag k="natural" v="hill" />
		<tag k="place" v="locality" />
		<tag k="ssr:stedsnr" v="288208" />
	</node>
	<node lat="66.3652583336691" lon="12.866608339345962" id="-9374">
		<tag k="name" v="Storhågen" />
		<tag k="natural" v="hill" />
		<tag k="place" v="locality" />
		<tag k="ssr:stedsnr" v="288390" />
	</node>
	<node lat="66.51494722560454" lon="13.017038893052897" id="-9375">
		<tag k="name" v="Smihågen" />
		<tag k="natural" v="hill" />
		<tag k="place" v="locality" />
		<tag k="ssr:stedsnr" v="288402" />
	</node>
	<node lat="66.35546389190519" lon="12.350908342059054" id="-9383">
		<tag k="name" v="Geitbergklubben" />
		<tag k="natural" v="ridge" />
		<tag k="place" v="locality" />
		<tag k="ssr:stedsnr" v="289184" />
	</node>
	<node lat="66.3578111113402" lon="12.345733338035778" id="-9384">
		<tag k="name" v="Skurdalen" />
		<tag k="natural" v="valley" />
		<tag k="place" v="locality" />
		<tag k="ssr:stedsnr" v="289187" />
	</node>
	<node lat="66.3944555587428" lon="12.87156665933191" id="-9385">
		<tag k="fixme" v="consider natural=peak for the most distinct mountains in the district" />
		<tag k="name" v="Skutan" />
		<tag k="natural" v="hill" />
		<tag k="place" v="locality" />
		<tag k="ssr:stedsnr" v="293579" />
	</node>
	<node lat="66.31723610948691" lon="13.179136114387727" id="-9407">
		<tag k="fixme" v="consider natural=peak for the most distinct mountains in the district" />
		<tag k="name" v="Brensla" />
		<tag k="natural" v="hill" />
		<tag k="place" v="locality" />
		<tag k="ssr:stedsnr" v="319547" />
	</node>
	<node lat="66.36311111105478" lon="13.196750003724874" id="-9410">
		<tag k="fixme" v="consider natural=peak for the most distinct mountains in the district" />
		<tag k="name" v="Grønfjellet" />
		<tag k="natural" v="hill" />
		<tag k="place" v="locality" />
		<tag k="ssr:stedsnr" v="319491" />
	</node>
	<node lat="66.55282777914766" lon="12.63900833738631" id="-9412">
		<tag k="name" v="Skjåhaugen" />
		<tag k="natural" v="hill" />
		<tag k="place" v="locality" />
		<tag k="ssr:stedsnr" v="319804" />
	</node>
	<node lat="66.32533611006976" lon="13.104249994920284" id="-9420">
		<tag k="name" v="Nøva" />
		<tag k="natural" v="ridge" />
		<tag k="place" v="locality" />
		<tag k="ssr:stedsnr" v="469240" />
	</node>
	<node lat="66.45146389353056" lon="12.966169436158872" id="-9421">
		<tag k="name" v="Kalvdalen" />
		<tag k="natural" v="valley" />
		<tag k="place" v="locality" />
		<tag k="ssr:stedsnr" v="469352" />
	</node>
	<node lat="66.36884999832861" lon="12.353683337706368" id="-9429">
		<tag k="name" v="Vollen" />
		<tag k="place" v="locality" />
		<tag k="ssr:stedsnr" v="470183" />
	</node>
	<node lat="66.32530833007749" lon="13.054969446678527" id="-9432">
		<tag k="name" v="Lakkomnakkan" />
		<tag k="natural" v="ridge" />
		<tag k="place" v="locality" />
		<tag k="ssr:stedsnr" v="470198" />
	</node>
	<node lat="66.38946944833351" lon="12.861547231172239" id="-9437">
		<tag k="name" v="De leberske hauger" />
		<tag k="natural" v="ridge" />
		<tag k="place" v="locality" />
		<tag k="ssr:stedsnr" v="470407" />
	</node>
	<node lat="66.39143333563783" lon="12.877644439356128" id="-9438">
		<tag k="fixme" v="consider natural=peak for the most distinct mountains in the district" />
		<tag k="name" v="Pisåsen" />
		<tag k="natural" v="hill" />
		<tag k="place" v="locality" />
		<tag k="ssr:stedsnr" v="470409" />
	</node>
	<node lat="66.43458888979406" lon="12.858925010452108" id="-9439">
		<tag k="name" v="Slettloftstrupen" />
		<tag k="natural" v="valley" />
		<tag k="place" v="locality" />
		<tag k="ssr:stedsnr" v="470547" />
	</node>
	<node lat="66.42421666971345" lon="12.868033330410752" id="-9440">
		<tag k="name" v="Helvetet" />
		<tag k="place" v="locality" />
		<tag k="ssr:stedsnr" v="470551" />
	</node>
	<node lat="66.50846666323145" lon="13.034755564237873" id="-9442">
		<tag k="fixme" v="consider natural=peak for the most distinct mountains in the district" />
		<tag k="name" v="Sveanakkan" />
		<tag k="natural" v="hill" />
		<tag k="place" v="locality" />
		<tag k="ssr:stedsnr" v="470493" />
	</node>
	<node lat="66.50620555788919" lon="13.096588881533947" id="-9445">
		<tag k="name" v="Åneshågen" />
		<tag k="natural" v="hill" />
		<tag k="place" v="locality" />
		<tag k="ssr:stedsnr" v="470642" />
	</node>
	<node lat="66.50359722178939" lon="13.075750003717411" id="-9446">
		<tag k="name" v="Svartdalen" />
		<tag k="natural" v="valley" />
		<tag k="place" v="locality" />
		<tag k="ssr:stedsnr" v="470644" />
	</node>
	<node lat="66.503900004445" lon="13.103611111278903" id="-9447">
		<tag k="name" v="Gunnarlia" />
		<tag k="natural" v="slope" />
		<tag k="place" v="locality" />
		<tag k="ssr:stedsnr" v="470655" />
	</node>
	<node lat="66.50036388956057" lon="13.128811122064278" id="-9449">
		<tag k="name" v="Skolsbakkan" />
		<tag k="natural" v="slope" />
		<tag k="place" v="locality" />
		<tag k="ssr:stedsnr" v="470726" />
	</node>
	<node lat="66.44562777453712" lon="13.12878888908764" id="-9451">
		<tag k="name" v="Djupdalen" />
		<tag k="natural" v="valley" />
		<tag k="place" v="locality" />
		<tag k="ssr:stedsnr" v="470833" />
	</node>
	<node lat="66.31880000126098" lon="13.084430564416662" id="-9455">
		<tag k="name" v="Larsholet" />
		<tag k="natural" v="valley" />
		<tag k="place" v="locality" />
		<tag k="ssr:stedsnr" v="348005" />
	</node>
	<node lat="66.51694999610335" lon="13.121936109658131" id="-9458">
		<tag k="name" v="Storbjynndalen" />
		<tag k="natural" v="valley" />
		<tag k="place" v="locality" />
		<tag k="ssr:stedsnr" v="348563" />
	</node>
	<node lat="66.49997222231582" lon="13.083522222923978" id="-9460">
		<tag k="name" v="Olderhola" />
		<tag k="natural" v="valley" />
		<tag k="place" v="locality" />
		<tag k="ssr:stedsnr" v="348581" />
	</node>
	<node lat="66.55493889200648" lon="12.63316667169842" id="-9461">
		<tag k="name" v="Innerdyrdalen" />
		<tag k="natural" v="valley" />
		<tag k="place" v="locality" />
		<tag k="ssr:stedsnr" v="348704" />
	</node>
	<node lat="66.52884167032497" lon="12.802358342253084" id="-9463">
		<tag k="name" v="Hella" />
		<tag k="place" v="locality" />
		<tag k="ssr:stedsnr" v="348607" />
	</node>
	<node lat="66.52386666677216" lon="12.819247221409668" id="-9464">
		<tag k="name" v="Grøvja" />
		<tag k="natural" v="valley" />
		<tag k="place" v="locality" />
		<tag k="ssr:stedsnr" v="348626" />
	</node>
	<node lat="66.43124999689212" lon="12.88222777307068" id="-9467">
		<tag k="name" v="Slagfjellet" />
		<tag k="natural" v="cliff" />
		<tag k="ssr:stedsnr" v="349605" />
	</node>
	<node lat="66.42174999736352" lon="12.876241676338632" id="-9468">
		<tag k="name" v="Jordlia" />
		<tag k="natural" v="slope" />
		<tag k="place" v="locality" />
		<tag k="ssr:stedsnr" v="349612" />
	</node>
	<node lat="66.47754444459014" lon="13.073477773600466" id="-9470">
		<tag k="name" v="Osen" />
		<tag k="place" v="locality" />
		<tag k="ssr:stedsnr" v="349723" />
	</node>
	<node lat="66.53174444037835" lon="12.813094451796005" id="-9482">
		<tag k="fixme" v="multiple name tags, choose one and add the other to alt_name; consider natural=peak for the most distinct mountains in the district" />
		<tag k="name" v="Hestmonkallen;Hestmannen" />
		<tag k="natural" v="hill" />
		<tag k="place" v="locality" />
		<tag k="ssr:stedsnr" v="380112" />
	</node>
	<node lat="66.36084444360331" lon="13.158638896483598" id="-9493">
		<tag k="alt_name" v="Silskaret" />
		<tag k="name" v="Silaskardet" />
		<tag k="natural" v="valley" />
		<tag k="place" v="locality" />
		<tag k="ssr:stedsnr" v="380532" />
	</node>
	<node lat="66.36121388581094" lon="13.080588897939268" id="-9494">
		<tag k="fixme" v="consider natural=peak for the most distinct mountains in the district" />
		<tag k="name" v="Nonstinden" />
		<tag k="natural" v="hill" />
		<tag k="place" v="locality" />
		<tag k="ssr:stedsnr" v="380541" />
	</node>
	<node lat="66.49139166239934" lon="12.900519437172514" id="-9522">
		<tag k="name" v="Skaret" />
		<tag k="natural" v="valley" />
		<tag k="place" v="locality" />
		<tag k="ssr:stedsnr" v="410610" />
	</node>
	<node lat="66.47603333652877" lon="13.163375002655965" id="-9524">
		<tag k="name" v="Storhågen" />
		<tag k="natural" v="hill" />
		<tag k="place" v="locality" />
		<tag k="ssr:stedsnr" v="410642" />
	</node>
	<node lat="66.46629167050507" lon="13.176138889053606" id="-9526">
		<tag k="name" v="Stortuva" />
		<tag k="natural" v="hill" />
		<tag k="place" v="locality" />
		<tag k="ssr:stedsnr" v="410649" />
	</node>
	<node lat="66.39996388525675" lon="13.14638888391147" id="-9530">
		<tag k="name" v="Åsbergan" />
		<tag k="natural" v="ridge" />
		<tag k="place" v="locality" />
		<tag k="ssr:stedsnr" v="410851" />
	</node>
	<node lat="66.33945832964432" lon="13.14186112018826" id="-9531">
		<tag k="name" v="Slåttelia" />
		<tag k="natural" v="slope" />
		<tag k="place" v="locality" />
		<tag k="ssr:stedsnr" v="410892" />
	</node>
	<node lat="66.35273055868831" lon="13.141527779553273" id="-9532">
		<tag k="name" v="Reinhagen" />
		<tag k="natural" v="valley" />
		<tag k="place" v="locality" />
		<tag k="ssr:stedsnr" v="410894" />
	</node>
	<node lat="66.3729111137893" lon="13.173247216213824" id="-9534">
		<tag k="fixme" v="consider natural=peak for the most distinct mountains in the district" />
		<tag k="name" v="Urdlandhågen" />
		<tag k="natural" v="hill" />
		<tag k="place" v="locality" />
		<tag k="ssr:stedsnr" v="410899" />
	</node>
	<node lat="66.4234250028605" lon="12.867036102917996" id="-9545">
		<tag k="alt_name" v="Borga" />
		<tag k="fixme" v="consider natural=peak for the most distinct mountains in the district" />
		<tag k="name" v="Børja" />
		<tag k="natural" v="hill" />
		<tag k="place" v="locality" />
		<tag k="ssr:stedsnr" v="441411" />
	</node>
	<node lat="66.48900555107761" lon="12.931463893586551" id="-9550">
		<tag k="alt_name" v="Kjerravikklubben" />
		<tag k="name" v="Tjæravikklubben" />
		<tag k="natural" v="hill" />
		<tag k="place" v="locality" />
		<tag k="ssr:stedsnr" v="441486" />
	</node>
	<node lat="66.40151944163875" lon="12.930674997431693" id="-9552">
		<tag k="name" v="Mølndalen" />
		<tag k="natural" v="valley" />
		<tag k="place" v="locality" />
		<tag k="ssr:stedsnr" v="441384" />
	</node>
	<node lat="66.5026444489819" lon="13.04636943931392" id="-9558">
		<tag k="name" v="Stordalen" />
		<tag k="natural" v="valley" />
		<tag k="place" v="locality" />
		<tag k="ssr:stedsnr" v="469376" />
	</node>
	<node lat="66.5111833355469" lon="13.020191672769506" id="-9560">
		<tag k="name" v="Hamnberget" />
		<tag k="natural" v="slope" />
		<tag k="place" v="locality" />
		<tag k="ssr:stedsnr" v="470427" />
	</node>
	<node lat="66.41291666585497" lon="12.859641670432904" id="-9562">
		<tag k="name" v="Olavhågen" />
		<tag k="natural" v="hill" />
		<tag k="place" v="locality" />
		<tag k="ssr:stedsnr" v="470521" />
	</node>
	<node lat="66.40579444144566" lon="12.883088893024814" id="-9563">
		<tag k="fixme" v="consider natural=peak for the most distinct mountains in the district" />
		<tag k="name" v="Storsteinhågen" />
		<tag k="natural" v="hill" />
		<tag k="place" v="locality" />
		<tag k="ssr:stedsnr" v="470529" />
	</node>
	<node lat="66.40821666616503" lon="12.876227774097465" id="-9564">
		<tag k="name" v="Karihågen" />
		<tag k="natural" v="hill" />
		<tag k="place" v="locality" />
		<tag k="ssr:stedsnr" v="470531" />
	</node>
	<node lat="66.40929999900041" lon="12.866700004803295" id="-9565">
		<tag k="name" v="Storvikinghågen" />
		<tag k="natural" v="hill" />
		<tag k="place" v="locality" />
		<tag k="ssr:stedsnr" v="470532" />
	</node>
	<node lat="66.47344444850535" lon="13.16661110439027" id="-9567">
		<tag k="name" v="Raudkringla" />
		<tag k="natural" v="hill" />
		<tag k="place" v="locality" />
		<tag k="ssr:stedsnr" v="470622" />
	</node>
	<node lat="66.5307833358341" lon="12.828349992976337" id="-9568">
		<tag k="name" v="Raudtinden" />
		<tag k="natural" v="hill" />
		<tag k="place" v="locality" />
		<tag k="ssr:stedsnr" v="470627" />
	</node>
	<node lat="66.48252222454768" lon="13.10658610872011" id="-9570">
		<tag k="name" v="Bjørndalen" />
		<tag k="natural" v="valley" />
		<tag k="place" v="locality" />
		<tag k="ssr:stedsnr" v="470668" />
	</node>
	<node lat="66.57621666870466" lon="12.636641677832923" id="-9572">
		<tag k="loc_name" v="Geitryggen" />
		<tag k="name" v="Geiteryggen" />
		<tag k="natural" v="ridge" />
		<tag k="place" v="locality" />
		<tag k="ssr:stedsnr" v="470674" />
	</node>
	<node lat="66.52043888488373" lon="13.05385832803629" id="-9591">
		<tag k="name" v="Baklia" />
		<tag k="natural" v="slope" />
		<tag k="place" v="locality" />
		<tag k="ssr:stedsnr" v="501084" />
	</node>
	<node lat="66.43957499580863" lon="12.837158340660803" id="-9593">
		<tag k="alt_name" v="Dyrskaret" />
		<tag k="name" v="Dyrskardet" />
		<tag k="natural" v="valley" />
		<tag k="place" v="locality" />
		<tag k="ssr:stedsnr" v="501430" />
	</node>
	<node lat="66.42908055313552" lon="12.843658328019773" id="-9595">
		<tag k="name" v="Einvollen" />
		<tag k="natural" v="hill" />
		<tag k="place" v="locality" />
		<tag k="ssr:stedsnr" v="501388" />
	</node>
	<node lat="66.43653611029161" lon="13.187144440307403" id="-9597">
		<tag k="fixme" v="consider natural=peak for the most distinct mountains in the district" />
		<tag k="name" v="Snøfjellet" />
		<tag k="natural" v="hill" />
		<tag k="place" v="locality" />
		<tag k="ssr:stedsnr" v="501396" />
	</node>
	<node lat="66.49226110758138" lon="13.133041656748194" id="-9605">
		<tag k="fixme" v="consider natural=peak for the most distinct mountains in the district" />
		<tag k="name" v="Lågfjellet" />
		<tag k="natural" v="hill" />
		<tag k="place" v="locality" />
		<tag k="ssr:stedsnr" v="744451" />
	</node>
	<node lat="66.52344444308632" lon="13.099041671065724" id="-9606">
		<tag k="alt_name" v="Foreliåsen" />
		<tag k="fixme" v="consider natural=peak for the most distinct mountains in the district" />
		<tag k="name" v="Foraliåsen" />
		<tag k="natural" v="hill" />
		<tag k="place" v="locality" />
		<tag k="ssr:stedsnr" v="683071" />
	</node>
	<node lat="66.45883055603589" lon="13.181580546308737" id="-9623">
		<tag k="fixme" v="consider natural=peak for the most distinct mountains in the district" />
		<tag k="name" v="Bufjellet" />
		<tag k="natural" v="hill" />
		<tag k="place" v="locality" />
		<tag k="ssr:stedsnr" v="683427" />
	</node>
	<node lat="66.39758333376773" lon="13.164369438593353" id="-9629">
		<tag k="fixme" v="consider natural=peak for the most distinct mountains in the district" />
		<tag k="name" v="Bjørnstigbergan" />
		<tag k="natural" v="hill" />
		<tag k="place" v="locality" />
		<tag k="ssr:stedsnr" v="683547" />
	</node>
	<node lat="66.58041110689" lon="12.62725000090536" id="-9630">
		<tag k="fixme" v="consider natural=peak for the most distinct mountains in the district" />
		<tag k="name" v="Danmark" />
		<tag k="natural" v="hill" />
		<tag k="place" v="locality" />
		<tag k="ssr:stedsnr" v="683765" />
	</node>
	<node lat="66.40377777650012" lon="13.238269455009663" id="-9636">
		<tag k="fixme" v="consider natural=peak for the most distinct mountains in the district" />
		<tag k="name" v="Strandtindan" />
		<tag k="natural" v="hill" />
		<tag k="place" v="locality" />
		<tag k="ssr:stedsnr" v="684841" />
	</node>
	<node lat="66.55599999729768" lon="12.629291656175504" id="-9648">
		<tag k="name" v="Ytterdyrdalen" />
		<tag k="natural" v="valley" />
		<tag k="place" v="locality" />
		<tag k="ssr:stedsnr" v="530716" />
	</node>
	<node lat="66.38951667063324" lon="13.147472226291626" id="-9650">
		<tag k="name" v="Langdalen" />
		<tag k="natural" v="valley" />
		<tag k="place" v="locality" />
		<tag k="ssr:stedsnr" v="530916" />
	</node>
	<node lat="66.48165277420046" lon="12.927605552143518" id="-9653">
		<tag k="name" v="Svindalen" />
		<tag k="natural" v="valley" />
		<tag k="place" v="locality" />
		<tag k="ssr:stedsnr" v="531672" />
	</node>
	<node lat="66.41133611578493" lon="12.887736104529777" id="-9654">
		<tag k="name" v="Kastmonsletta" />
		<tag k="place" v="locality" />
		<tag k="ssr:stedsnr" v="531572" />
	</node>
	<node lat="66.43606944319835" lon="12.896033336650914" id="-9658">
		<tag k="name" v="Tingvollen" />
		<tag k="place" v="locality" />
		<tag k="ssr:stedsnr" v="531596" />
	</node>
	<node lat="66.42614722565726" lon="12.85031111934494" id="-9667">
		<tag k="name" v="Skyttarplasshågen" />
		<tag k="natural" v="hill" />
		<tag k="place" v="locality" />
		<tag k="ssr:stedsnr" v="774597" />
	</node>
	<node lat="66.30753888679412" lon="13.137794451993898" id="-9669">
		<tag k="name" v="Brenselfjellet" />
		<tag k="natural" v="slope" />
		<tag k="place" v="locality" />
		<tag k="ssr:stedsnr" v="590247" />
	</node>
	<node lat="66.56023055939649" lon="12.64508889615675" id="-9671">
		<tag k="name" v="Vallerskaret" />
		<tag k="natural" v="valley" />
		<tag k="place" v="locality" />
		<tag k="ssr:stedsnr" v="590706" />
	</node>
	<node lat="66.55676388938733" lon="12.632133322617591" id="-9672">
		<tag k="name" v="Rabben" />
		<tag k="natural" v="hill" />
		<tag k="place" v="locality" />
		<tag k="ssr:stedsnr" v="590725" />
	</node>
	<node lat="66.38165277476287" lon="13.009830544953049" id="-9674">
		<tag k="name" v="Hjarthelleren" />
		<tag k="place" v="locality" />
		<tag k="ssr:stedsnr" v="591163" />
	</node>
	<node lat="66.38816944864774" lon="12.877263882544517" id="-9678">
		<tag k="fixme" v="consider natural=peak for the most distinct mountains in the district" />
		<tag k="name" v="Esjeåsen" />
		<tag k="natural" v="hill" />
		<tag k="place" v="locality" />
		<tag k="ssr:stedsnr" v="591415" />
	</node>
	<node lat="66.40255555450018" lon="12.886330562959616" id="-9679">
		<tag k="name" v="Lendingan" />
		<tag k="natural" v="slope" />
		<tag k="place" v="locality" />
		<tag k="ssr:stedsnr" v="591372" />
	</node>
	<node lat="66.49612222406887" lon="13.079949991304035" id="-9683">
		<tag k="name" v="Ørvikhågen" />
		<tag k="natural" v="hill" />
		<tag k="place" v="locality" />
		<tag k="ssr:stedsnr" v="591568" />
	</node>
	<node lat="66.46817777511042" lon="13.18488611928743" id="-9685">
		<tag k="name" v="Austerenget" />
		<tag k="natural" v="valley" />
		<tag k="place" v="locality" />
		<tag k="ssr:stedsnr" v="591667" />
	</node>
	<node lat="66.45955833677564" lon="13.177608328628931" id="-9687">
		<tag k="name" v="Rapskaret" />
		<tag k="natural" v="valley" />
		<tag k="place" v="locality" />
		<tag k="ssr:stedsnr" v="591817" />
	</node>
	<node lat="66.36272221974544" lon="12.58300556039786" id="-9688">
		<tag k="name" v="Staulen" />
		<tag k="natural" v="slope" />
		<tag k="place" v="locality" />
		<tag k="ssr:stedsnr" v="591818" />
	</node>
	<node lat="66.4464194453985" lon="13.151675004006188" id="-9689">
		<tag k="name" v="Almlia" />
		<tag k="natural" v="slope" />
		<tag k="place" v="locality" />
		<tag k="ssr:stedsnr" v="591820" />
	</node>
	<node lat="66.40863055223885" lon="13.122033328667927" id="-9691">
		<tag k="name" v="Setthølla" />
		<tag k="natural" v="slope" />
		<tag k="place" v="locality" />
		<tag k="ssr:stedsnr" v="591858" />
	</node>
	<node lat="66.37046389285769" lon="12.32805833471367" id="-9693">
		<tag k="name" v="Heiran" />
		<tag k="natural" v="ridge" />
		<tag k="place" v="locality" />
		<tag k="ssr:stedsnr" v="592223" />
	</node>
	<node lat="66.40627777850392" lon="12.895750007035373" id="-9695">
		<tag k="name" v="Skaret" />
		<tag k="natural" v="valley" />
		<tag k="place" v="locality" />
		<tag k="ssr:stedsnr" v="592569" />
	</node>
	<node lat="66.48407499573153" lon="12.880677784441936" id="-9696">
		<tag k="name" v="Buskøen" />
		<tag k="natural" v="hill" />
		<tag k="place" v="locality" />
		<tag k="ssr:stedsnr" v="592653" />
	</node>
	<node lat="66.5099999953565" lon="13.062088896463262" id="-9705">
		<tag k="fixme" v="consider natural=peak for the most distinct mountains in the district" />
		<tag k="name" v="Storvassfjellet" />
		<tag k="natural" v="hill" />
		<tag k="place" v="locality" />
		<tag k="ssr:stedsnr" v="622176" />
	</node>
	<node lat="66.50231111088095" lon="13.05428334026045" id="-9716">
		<tag k="name" v="Klubben" />
		<tag k="natural" v="hill" />
		<tag k="place" v="locality" />
		<tag k="ssr:stedsnr" v="623179" />
	</node>
	<node lat="66.40653611345468" lon="13.030027780447796" id="-9725">
		<tag k="name" v="Stordalen" />
		<tag k="natural" v="valley" />
		<tag k="place" v="locality" />
		<tag k="ssr:stedsnr" v="623585" />
	</node>
	<node lat="66.52910833188588" lon="12.82641944234119" id="-9728">
		<tag k="name" v="Stulia" />
		<tag k="natural" v="slope" />
		<tag k="place" v="locality" />
		<tag k="ssr:stedsnr" v="651637" />
	</node>
	<node lat="66.53297499941249" lon="12.84122777272873" id="-9729">
		<tag k="name" v="Hestmonskardet" />
		<tag k="natural" v="valley" />
		<tag k="place" v="locality" />
		<tag k="ssr:stedsnr" v="651642" />
	</node>
	<node lat="66.5244694461662" lon="12.850463895856766" id="-9731">
		<tag k="name" v="Kleivan" />
		<tag k="natural" v="slope" />
		<tag k="place" v="locality" />
		<tag k="ssr:stedsnr" v="651650" />
	</node>
	<node lat="66.55664722020265" lon="12.639094447913475" id="-9733">
		<tag k="name" v="Alterdalen" />
		<tag k="natural" v="valley" />
		<tag k="place" v="locality" />
		<tag k="ssr:stedsnr" v="651714" />
	</node>
	<node lat="66.51583332908604" lon="13.00963612146337" id="-9736">
		<tag k="name" v="Gjersvikhågen" />
		<tag k="natural" v="hill" />
		<tag k="place" v="locality" />
		<tag k="ssr:stedsnr" v="652411" />
	</node>
	<node lat="66.4275027804293" lon="12.869780566837745" id="-9742">
		<tag k="name" v="Breilia" />
		<tag k="natural" v="slope" />
		<tag k="place" v="locality" />
		<tag k="ssr:stedsnr" v="652546" />
	</node>
	<node lat="66.42610833484164" lon="12.88791945214786" id="-9743">
		<tag k="name" v="Trolldalen" />
		<tag k="natural" v="valley" />
		<tag k="place" v="locality" />
		<tag k="ssr:stedsnr" v="652549" />
	</node>
	<node lat="66.44148055202798" lon="12.841747227605342" id="-9744">
		<tag k="name" v="Dyrskarlia" />
		<tag k="natural" v="slope" />
		<tag k="place" v="locality" />
		<tag k="ssr:stedsnr" v="652587" />
	</node>
	<node lat="66.49512221961758" lon="13.085299998960512" id="-9745">
		<tag k="name" v="Naustneshågen" />
		<tag k="natural" v="hill" />
		<tag k="place" v="locality" />
		<tag k="ssr:stedsnr" v="652589" />
	</node>
	<node lat="66.50033610806975" lon="13.088663877534813" id="-9746">
		<tag k="name" v="Rundhågen" />
		<tag k="natural" v="hill" />
		<tag k="place" v="locality" />
		<tag k="ssr:stedsnr" v="652591" />
	</node>
	<node lat="66.49248055863058" lon="12.8990916704292" id="-9748">
		<tag k="name" v="Litlsvehågen" />
		<tag k="natural" v="hill" />
		<tag k="place" v="locality" />
		<tag k="ssr:stedsnr" v="652595" />
	</node>
	<node lat="66.4522694477587" lon="13.18585277477876" id="-9752">
		<tag k="name" v="Raudberget" />
		<tag k="natural" v="hill" />
		<tag k="place" v="locality" />
		<tag k="ssr:stedsnr" v="652811" />
	</node>
	<node lat="66.39443610721341" lon="13.13835277023837" id="-9755">
		<tag k="fixme" v="consider natural=peak for the most distinct mountains in the district" />
		<tag k="name" v="Åsåsen" />
		<tag k="natural" v="hill" />
		<tag k="place" v="locality" />
		<tag k="ssr:stedsnr" v="652998" />
	</node>
	<node lat="66.42436944884778" lon="13.192063883011802" id="-9765">
		<tag k="name" v="Brattlandsskardet" />
		<tag k="natural" v="valley" />
		<tag k="place" v="locality" />
		<tag k="ssr:stedsnr" v="683367" />
	</node>
	<node lat="66.44021389059193" lon="12.950080555591287" id="-9768">
		<tag k="fixme" v="consider natural=peak for the most distinct mountains in the district" />
		<tag k="name" v="Lågfjellet" />
		<tag k="natural" v="hill" />
		<tag k="place" v="locality" />
		<tag k="ssr:stedsnr" v="683404" />
	</node>
	<node lat="66.52450833774571" lon="13.075613883954013" id="-9769">
		<tag k="name" v="Skolstrupen" />
		<tag k="natural" v="valley" />
		<tag k="place" v="locality" />
		<tag k="ssr:stedsnr" v="684059" />
	</node>
	<node lat="66.32225833716458" lon="13.102388887677499" id="-9774">
		<tag k="name" v="Midtiskaret" />
		<tag k="natural" v="valley" />
		<tag k="place" v="locality" />
		<tag k="ssr:stedsnr" v="894280" />
	</node>
	<node lat="66.3214166651858" lon="13.103374994916496" id="-9775">
		<tag k="name" v="Nerfunkhågen" />
		<tag k="natural" v="hill" />
		<tag k="place" v="locality" />
		<tag k="ssr:stedsnr" v="894284" />
	</node>
	<node lat="66.48368888941508" lon="12.933375007901455" id="-9776">
		<tag k="name" v="Storvallihalsen" />
		<tag k="natural" v="valley" />
		<tag k="place" v="locality" />
		<tag k="ssr:stedsnr" v="894397" />
	</node>
	<node lat="66.41535833616257" lon="13.014405556562705" id="-9781">
		<tag k="name" v="Hammaren" />
		<tag k="natural" v="hill" />
		<tag k="place" v="locality" />
		<tag k="ssr:stedsnr" v="895161" />
	</node>
	<node lat="66.35264999855575" lon="12.99551666131024" id="-9782">
		<tag k="name" v="Kleivhalsbergan" />
		<tag k="natural" v="cliff" />
		<tag k="ssr:stedsnr" v="895179" />
	</node>
	<node lat="66.50208610729818" lon="13.037566675107215" id="-9788">
		<tag k="name" v="Djupvikfjellet" />
		<tag k="natural" v="cliff" />
		<tag k="ssr:stedsnr" v="895243" />
	</node>
	<node lat="66.4970555542593" lon="13.062783331806836" id="-9790">
		<tag k="name" v="Nakenmannshågen" />
		<tag k="natural" v="hill" />
		<tag k="place" v="locality" />
		<tag k="ssr:stedsnr" v="895333" />
	</node>
	<node lat="66.37547222038127" lon="12.86594999213067" id="-9793">
		<tag k="name" v="Sommarsetet" />
		<tag k="natural" v="valley" />
		<tag k="place" v="locality" />
		<tag k="ssr:stedsnr" v="895394" />
	</node>
	<node lat="66.4181083312047" lon="12.871569443225948" id="-9795">
		<tag k="name" v="Lurøygårdsdalen" />
		<tag k="natural" v="valley" />
		<tag k="place" v="locality" />
		<tag k="ssr:stedsnr" v="895489" />
	</node>
	<node lat="66.52276389100862" lon="13.002155564311984" id="-9796">
		<tag k="name" v="Skagafjellet" />
		<tag k="natural" v="hill" />
		<tag k="place" v="locality" />
		<tag k="ssr:stedsnr" v="895446" />
	</node>
	<node lat="66.47626388963911" lon="13.175225004238904" id="-9800">
		<tag k="name" v="Sakriannahågen" />
		<tag k="natural" v="hill" />
		<tag k="place" v="locality" />
		<tag k="ssr:stedsnr" v="895668" />
	</node>
	<node lat="66.5294444424632" lon="12.8461166766478" id="-9802">
		<tag k="name" v="Sørambåtthøla" />
		<tag k="natural" v="valley" />
		<tag k="place" v="locality" />
		<tag k="ssr:stedsnr" v="895600" />
	</node>
	<node lat="66.40883055865466" lon="13.159030550048033" id="-9803">
		<tag k="name" v="Sjyberget" />
		<tag k="natural" v="ridge" />
		<tag k="place" v="locality" />
		<tag k="ssr:stedsnr" v="895853" />
	</node>
	<node lat="66.52727778067876" lon="12.822491666403476" id="-9806">
		<tag k="name" v="Hesthaglia" />
		<tag k="natural" v="slope" />
		<tag k="place" v="locality" />
		<tag k="ssr:stedsnr" v="712629" />
	</node>
	<node lat="66.52429167002416" lon="12.83611943981759" id="-9807">
		<tag k="name" v="Sankthanshågen" />
		<tag k="natural" v="hill" />
		<tag k="place" v="locality" />
		<tag k="ssr:stedsnr" v="712634" />
	</node>
	<node lat="66.56833611114935" lon="12.621269446114228" id="-9808">
		<tag k="name" v="Stubben" />
		<tag k="natural" v="hill" />
		<tag k="place" v="locality" />
		<tag k="ssr:stedsnr" v="712677" />
	</node>
	<node lat="66.33360555637215" lon="13.003988892634604" id="-9810">
		<tag k="name" v="Gullbakkan" />
		<tag k="natural" v="slope" />
		<tag k="place" v="locality" />
		<tag k="ssr:stedsnr" v="713205" />
	</node>
	<node lat="66.34185833513405" lon="13.012891662679456" id="-9812">
		<tag k="name" v="Bryggedalen" />
		<tag k="natural" v="valley" />
		<tag k="place" v="locality" />
		<tag k="ssr:stedsnr" v="713192" />
	</node>
	<node lat="66.52152500270445" lon="13.04326945437076" id="-9817">
		<tag k="name" v="Granlia" />
		<tag k="natural" v="slope" />
		<tag k="place" v="locality" />
		<tag k="ssr:stedsnr" v="713483" />
	</node>
	<node lat="66.4430805515002" lon="12.83625278165126" id="-9818">
		<tag k="fixme" v="consider natural=peak for the most distinct mountains in the district" />
		<tag k="name" v="Dyrskarnakkan" />
		<tag k="natural" v="hill" />
		<tag k="place" v="locality" />
		<tag k="ssr:stedsnr" v="713615" />
	</node>
	<node lat="66.48646666298383" lon="12.891761117592567" id="-9820">
		<tag k="name" v="Storvika" />
		<tag k="natural" v="valley" />
		<tag k="place" v="locality" />
		<tag k="ssr:stedsnr" v="713632" />
	</node>
	<node lat="66.40703333646476" lon="12.8024055664196" id="-9822">
		<tag k="name" v="Varøytinden" />
		<tag k="natural" v="ridge" />
		<tag k="place" v="locality" />
		<tag k="ssr:stedsnr" v="713530" />
	</node>
	<node lat="66.43743055782122" lon="12.873963881636126" id="-9823">
		<tag k="name" v="Øverbukkfjellet" />
		<tag k="place" v="locality" />
		<tag k="ssr:stedsnr" v="713577" />
	</node>
	<node lat="66.4684027816423" lon="13.19168332519641" id="-9825">
		<tag k="name" v="Storgraspallen" />
		<tag k="place" v="locality" />
		<tag k="ssr:stedsnr" v="713725" />
	</node>
	<node lat="66.46591666260703" lon="13.190072216084186" id="-9827">
		<tag k="name" v="Vedlia" />
		<tag k="natural" v="slope" />
		<tag k="place" v="locality" />
		<tag k="ssr:stedsnr" v="713690" />
	</node>
	<node lat="66.56390833756704" lon="12.623966667925073" id="-9834">
		<tag k="name" v="Stekkabekka" />
		<tag k="natural" v="slope" />
		<tag k="place" v="locality" />
		<tag k="ssr:stedsnr" v="955699" />
	</node>
	<node lat="66.52676111474355" lon="12.827516670716198" id="-9845">
		<tag k="name" v="Hesthagen" />
		<tag k="natural" v="slope" />
		<tag k="place" v="locality" />
		<tag k="ssr:stedsnr" v="744044" />
	</node>
	<node lat="66.50309722003712" lon="13.112622229519726" id="-9846">
		<tag k="name" v="Mannen" />
		<tag k="natural" v="hill" />
		<tag k="place" v="locality" />
		<tag k="ssr:stedsnr" v="744122" />
	</node>
	<node lat="66.4866388903334" lon="12.963741661044647" id="-9851">
		<tag k="name" v="Vedberget" />
		<tag k="natural" v="hill" />
		<tag k="place" v="locality" />
		<tag k="ssr:stedsnr" v="744433" />
	</node>
	<node lat="66.42912777756325" lon="13.183252787394787" id="-9854">
		<tag k="fixme" v="consider natural=peak for the most distinct mountains in the district" />
		<tag k="name" v="Rundtinden" />
		<tag k="natural" v="hill" />
		<tag k="place" v="locality" />
		<tag k="ssr:stedsnr" v="744380" />
	</node>
	<node lat="66.44921666845644" lon="13.140716675755467" id="-9856">
		<tag k="fixme" v="consider natural=peak for the most distinct mountains in the district" />
		<tag k="name" v="Okstinden" />
		<tag k="natural" v="hill" />
		<tag k="place" v="locality" />
		<tag k="ssr:stedsnr" v="744384" />
	</node>
	<node lat="66.43533055390031" lon="12.869291661074525" id="-9858">
		<tag k="fixme" v="consider natural=peak for the most distinct mountains in the district" />
		<tag k="name" v="Lurøyfjellet" />
		<tag k="natural" v="hill" />
		<tag k="place" v="locality" />
		<tag k="ssr:stedsnr" v="744397" />
	</node>
	<node lat="66.43715833522182" lon="12.885822213198773" id="-9859">
		<tag k="alt_name" v="Bukkfjellet" />
		<tag k="fixme" v="consider natural=peak for the most distinct mountains in the district" />
		<tag k="name" v="Nerbukkfjellet" />
		<tag k="natural" v="hill" />
		<tag k="place" v="locality" />
		<tag k="ssr:stedsnr" v="744399" />
	</node>
	<node lat="66.33307778058929" lon="13.131997229300708" id="-9860">
		<tag k="name" v="Holtan" />
		<tag k="natural" v="ridge" />
		<tag k="place" v="locality" />
		<tag k="ssr:stedsnr" v="744503" />
	</node>
	<node lat="66.31190000070634" lon="13.100433331988429" id="-9862">
		<tag k="name" v="Skomakerhågen" />
		<tag k="natural" v="hill" />
		<tag k="place" v="locality" />
		<tag k="ssr:stedsnr" v="744517" />
	</node>
	<node lat="66.55955000126829" lon="12.637941668793358" id="-9865">
		<tag k="fixme" v="consider natural=peak for the most distinct mountains in the district" />
		<tag k="name" v="Sørfjellet" />
		<tag k="natural" v="hill" />
		<tag k="place" v="locality" />
		<tag k="ssr:stedsnr" v="744814" />
	</node>
	<node lat="66.46409444534466" lon="13.178991677952121" id="-9869">
		<tag k="name" v="Kleiva" />
		<tag k="natural" v="slope" />
		<tag k="place" v="locality" />
		<tag k="ssr:stedsnr" v="228857" />
	</node>
	<node lat="66.36817500420383" lon="12.635875006852892" id="-9873">
		<tag k="name" v="Vardhågen" />
		<tag k="natural" v="hill" />
		<tag k="place" v="locality" />
		<tag k="ssr:stedsnr" v="770814" />
	</node>
	<node lat="66.34812222222499" lon="12.561158330615921" id="-9874">
		<tag k="name" v="Olvøyhågen" />
		<tag k="natural" v="hill" />
		<tag k="place" v="locality" />
		<tag k="ssr:stedsnr" v="772768" />
	</node>
	<node lat="66.38695832881285" lon="13.03530278816348" id="-9876">
		<tag k="name" v="Hamran" />
		<tag k="natural" v="cliff" />
		<tag k="ssr:stedsnr" v="773212" />
	</node>
	<node lat="66.49665000191503" lon="13.043694452740679" id="-9879">
		<tag k="name" v="Høydalen" />
		<tag k="natural" v="valley" />
		<tag k="place" v="locality" />
		<tag k="ssr:stedsnr" v="773366" />
	</node>
	<node lat="66.47696388656813" lon="13.10815833571726" id="-9889">
		<tag k="name" v="Ulneshågen" />
		<tag k="natural" v="hill" />
		<tag k="place" v="locality" />
		<tag k="ssr:stedsnr" v="774715" />
	</node>
	<node lat="66.42806111239454" lon="12.867711107638868" id="-9890">
		<tag k="name" v="Bondsletta" />
		<tag k="natural" v="slope" />
		<tag k="place" v="locality" />
		<tag k="ssr:stedsnr" v="774606" />
	</node>
	<node lat="66.37074166665317" lon="12.528847214135357" id="-9891">
		<tag k="name" v="Svenningsdraget" />
		<tag k="natural" v="hill" />
		<tag k="place" v="locality" />
		<tag k="ssr:stedsnr" v="774910" />
	</node>
	<node lat="66.36526944416265" lon="13.169911101030577" id="-9893">
		<tag k="name" v="Svartvassauren" />
		<tag k="natural" v="slope" />
		<tag k="place" v="locality" />
		<tag k="ssr:stedsnr" v="774913" />
	</node>
	<node lat="66.3704833374127" lon="13.154858322999168" id="-9894">
		<tag k="name" v="Svartevasslia" />
		<tag k="natural" v="slope" />
		<tag k="place" v="locality" />
		<tag k="ssr:stedsnr" v="774916" />
	</node>
	<node lat="66.46308889293765" lon="13.176055547768339" id="-9896">
		<tag k="name" v="Rabben" />
		<tag k="natural" v="ridge" />
		<tag k="place" v="locality" />
		<tag k="ssr:stedsnr" v="774858" />
	</node>
	<node lat="66.46257777363768" lon="13.172602786953599" id="-9897">
		<tag k="name" v="Bjørnhågen" />
		<tag k="natural" v="hill" />
		<tag k="place" v="locality" />
		<tag k="ssr:stedsnr" v="774859" />
	</node>
	<node lat="66.41687499690337" lon="13.161072211290898" id="-9898">
		<tag k="name" v="Ramnfloget" />
		<tag k="natural" v="cliff" />
		<tag k="ssr:stedsnr" v="774873" />
	</node>
	<node lat="66.52296944565889" lon="13.123802772186902" id="-9907">
		<tag k="alt_name" v="Refsdalen" />
		<tag k="name" v="Revsdalen" />
		<tag k="natural" v="valley" />
		<tag k="place" v="locality" />
		<tag k="ssr:stedsnr" v="805075" />
	</node>
	<node lat="66.33236389127076" lon="13.013952780840413" id="-9921">
		<tag k="name" v="Skjåhågen" />
		<tag k="natural" v="hill" />
		<tag k="place" v="locality" />
		<tag k="ssr:stedsnr" v="835209" />
	</node>
	<node lat="66.42825277666104" lon="12.866002766731622" id="-9924">
		<tag k="name" v="Smallia" />
		<tag k="natural" v="slope" />
		<tag k="place" v="locality" />
		<tag k="ssr:stedsnr" v="835583" />
	</node>
	<node lat="66.4219277815369" lon="12.87106665627871" id="-9927">
		<tag k="name" v="Alteret" />
		<tag k="place" v="locality" />
		<tag k="ssr:stedsnr" v="835592" />
	</node>
	<node lat="66.41951667028226" lon="12.840758337741086" id="-9928">
		<tag k="name" v="Lurøyvollen" />
		<tag k="place" v="locality" />
		<tag k="ssr:stedsnr" v="835595" />
	</node>
	<node lat="66.36611388576631" lon="13.09580833957361" id="-9959">
		<tag k="name" v="Nonstindholet" />
		<tag k="natural" v="gorge" />
		<tag k="ssr:stedsnr" v="926594" />
	</node>
	<node lat="66.52643333698991" lon="12.990383324484437" id="-9966">
		<tag k="alt_name" v="Skagfjellet" />
		<tag k="fixme" v="consider natural=peak for the most distinct mountains in the district" />
		<tag k="name" v="Skagafjellet" />
		<tag k="natural" v="hill" />
		<tag k="place" v="locality" />
		<tag k="ssr:stedsnr" v="927070" />
	</node>
	<node lat="66.55743889199272" lon="12.648711114744929" id="-9975">
		<tag k="name" v="Fløyhaugen" />
		<tag k="natural" v="hill" />
		<tag k="place" v="locality" />
		<tag k="ssr:stedsnr" v="927845" />
	</node>
	<node lat="66.55965277796285" lon="12.646791664597272" id="-9979">
		<tag k="name" v="Rundhågen" />
		<tag k="natural" v="hill" />
		<tag k="place" v="locality" />
		<tag k="ssr:stedsnr" v="894711" />
	</node>
	<node lat="66.5601999978003" lon="12.608947221694903" id="-9980">
		<tag k="name" v="Rishågen" />
		<tag k="natural" v="hill" />
		<tag k="place" v="locality" />
		<tag k="ssr:stedsnr" v="894716" />
	</node>
	<node lat="66.55929166384952" lon="12.619663884778644" id="-9981">
		<tag k="name" v="Lauten" />
		<tag k="natural" v="hill" />
		<tag k="place" v="locality" />
		<tag k="ssr:stedsnr" v="894718" />
	</node>
	<node lat="66.49907221956721" lon="13.044597229640182" id="-9982">
		<tag k="name" v="Ytternebba" />
		<tag k="natural" v="ridge" />
		<tag k="place" v="locality" />
		<tag k="ssr:stedsnr" v="895324" />
	</node>
	<node lat="66.50313055681268" lon="13.067147226133747" id="-9983">
		<tag k="name" v="Hestdalen" />
		<tag k="natural" v="valley" />
		<tag k="place" v="locality" />
		<tag k="ssr:stedsnr" v="895329" />
	</node>
	<node lat="66.51644166553922" lon="13.015766657916405" id="-9987">
		<tag k="name" v="Eldhushågen" />
		<tag k="natural" v="hill" />
		<tag k="place" v="locality" />
		<tag k="ssr:stedsnr" v="895429" />
	</node>
	<node lat="66.51281110922358" lon="13.0540527873758" id="-9988">
		<tag k="name" v="Storvasslia" />
		<tag k="natural" v="slope" />
		<tag k="place" v="locality" />
		<tag k="ssr:stedsnr" v="895467" />
	</node>
	<node lat="66.46507777803448" lon="13.197252769174215" id="-9990">
		<tag k="name" v="Nordvasslia" />
		<tag k="natural" v="slope" />
		<tag k="place" v="locality" />
		<tag k="ssr:stedsnr" v="895624" />
	</node>
	<node lat="66.44946666656048" lon="13.170902787393361" id="-9994">
		<tag k="name" v="Hopen" />
		<tag k="natural" v="valley" />
		<tag k="place" v="locality" />
		<tag k="ssr:stedsnr" v="895806" />
	</node>
	<node lat="66.46084722169965" lon="13.095177780945152" id="-9997">
		<tag k="name" v="Gruben" />
		<tag k="natural" v="valley" />
		<tag k="place" v="locality" />
		<tag k="ssr:stedsnr" v="895837" />
	</node>
	<node lat="66.33734722394114" lon="13.152558331032559" id="-9999">
		<tag k="name" v="Steinrabben" />
		<tag k="natural" v="ridge" />
		<tag k="place" v="locality" />
		<tag k="ssr:stedsnr" v="895880" />
	</node>
	<node lat="66.48157778221326" lon="13.170186112386622" id="-10001">
		<tag k="name" v="Stenslandskaret" />
		<tag k="natural" v="valley" />
		<tag k="place" v="locality" />
		<tag k="ssr:stedsnr" v="228724" />
	</node>
	<node lat="66.5311694438287" lon="12.847238898881077" id="-10004">
		<tag k="alt_name" v="Ambota" />
		<tag k="fixme" v="consider natural=peak for the most distinct mountains in the district" />
		<tag k="name" v="Ambåtta" />
		<tag k="natural" v="hill" />
		<tag k="place" v="locality" />
		<tag k="ssr:stedsnr" v="926107" />
	</node>
	<node lat="66.37250277803565" lon="13.216647218309223" id="-10012">
		<tag k="name" v="Reinskardet" />
		<tag k="natural" v="valley" />
		<tag k="place" v="locality" />
		<tag k="ssr:stedsnr" v="926603" />
	</node>
	<node lat="66.38256111108697" lon="13.208030565656944" id="-10013">
		<tag k="fixme" v="consider natural=peak for the most distinct mountains in the district" />
		<tag k="name" v="Vasstinden" />
		<tag k="natural" v="hill" />
		<tag k="place" v="locality" />
		<tag k="ssr:stedsnr" v="926604" />
	</node>
	<node lat="66.39806110820204" lon="12.93275555487607" id="-10017">
		<tag k="fixme" v="consider natural=peak for the most distinct mountains in the district" />
		<tag k="name" v="Holtan" />
		<tag k="natural" v="hill" />
		<tag k="place" v="locality" />
		<tag k="ssr:stedsnr" v="927406" />
	</node>
	<node lat="66.4733749984665" lon="13.17130278828397" id="-10023">
		<tag k="name" v="Stengvasshågen" />
		<tag k="natural" v="hill" />
		<tag k="place" v="locality" />
		<tag k="ssr:stedsnr" v="228740" />
	</node>
	<node lat="66.55635277541631" lon="12.644099991721626" id="-10024">
		<tag k="name" v="Skjåhågen" />
		<tag k="natural" v="ridge" />
		<tag k="place" v="locality" />
		<tag k="ssr:stedsnr" v="954690" />
	</node>
	<node lat="66.49862777723875" lon="13.047183324181317" id="-10027">
		<tag k="name" v="Strupen" />
		<tag k="natural" v="valley" />
		<tag k="place" v="locality" />
		<tag k="ssr:stedsnr" v="955348" />
	</node>
	<node lat="66.5035916681535" lon="13.062313886405068" id="-10028">
		<tag k="name" v="Foraskogen" />
		<tag k="natural" v="slope" />
		<tag k="place" v="locality" />
		<tag k="ssr:stedsnr" v="955355" />
	</node>
	<node lat="66.39746944522008" lon="12.907608327980572" id="-10030">
		<tag k="fixme" v="consider natural=peak for the most distinct mountains in the district" />
		<tag k="name" v="Tinden" />
		<tag k="natural" v="hill" />
		<tag k="place" v="locality" />
		<tag k="ssr:stedsnr" v="955441" />
	</node>
	<node lat="66.49678611214604" lon="13.146119447782814" id="-10033">
		<tag k="name" v="Brannan" />
		<tag k="natural" v="slope" />
		<tag k="place" v="locality" />
		<tag k="ssr:stedsnr" v="955603" />
	</node>
	<node lat="66.34621944238327" lon="13.009216665434577" id="-10038">
		<tag k="name" v="Sørstrupen" />
		<tag k="natural" v="valley" />
		<tag k="place" v="locality" />
		<tag k="ssr:stedsnr" v="956205" />
	</node>
	<node lat="66.36194166586657" lon="12.338730553269347" id="-10039">
		<tag k="name" v="Slakkfjellet" />
		<tag k="natural" v="cliff" />
		<tag k="ssr:stedsnr" v="956209" />
	</node>
	<node lat="66.33609444222739" lon="13.014947223989482" id="-10041">
		<tag k="name" v="Storskaret" />
		<tag k="natural" v="valley" />
		<tag k="place" v="locality" />
		<tag k="ssr:stedsnr" v="956220" />
	</node>
	<node lat="66.33378888768965" lon="13.021527774143198" id="-10043">
		<tag k="name" v="Storhågen" />
		<tag k="natural" v="ridge" />
		<tag k="place" v="locality" />
		<tag k="ssr:stedsnr" v="956231" />
	</node>
	<node lat="66.47995277553784" lon="13.113555553134276" id="-10047">
		<tag k="name" v="Ørnflogan" />
		<tag k="natural" v="cliff" />
		<tag k="ssr:stedsnr" v="956708" />
	</node>
	<node lat="66.47185277426227" lon="13.182233340978147" id="-10049">
		<tag k="name" v="Nilsengfjellet" />
		<tag k="natural" v="hill" />
		<tag k="place" v="locality" />
		<tag k="ssr:stedsnr" v="956721" />
	</node>
	<node lat="66.41368611240989" lon="12.848324989414943" id="-10051">
		<tag k="name" v="Lofothågen" />
		<tag k="natural" v="hill" />
		<tag k="place" v="locality" />
		<tag k="ssr:stedsnr" v="956620" />
	</node>
	<node lat="66.44739166461297" lon="12.853380545889772" id="-10052">
		<tag k="name" v="Finnaksla" />
		<tag k="natural" v="ridge" />
		<tag k="place" v="locality" />
		<tag k="ssr:stedsnr" v="956642" />
	</node>
	<node lat="66.427269440976" lon="13.144491664864073" id="-10054">
		<tag k="name" v="Omegastasjon" />
		<tag k="place" v="locality" />
		<tag k="ssr:stedsnr" v="956846" />
	</node>
	<node lat="66.45876944508353" lon="13.097522219396254" id="-10055">
		<tag k="name" v="Strupen" />
		<tag k="natural" v="valley" />
		<tag k="place" v="locality" />
		<tag k="ssr:stedsnr" v="956847" />
	</node>
	<node lat="66.34565278063744" lon="13.184999995824297" id="-10057">
		<tag k="name" v="Buliaksla" />
		<tag k="natural" v="ridge" />
		<tag k="place" v="locality" />
		<tag k="ssr:stedsnr" v="956903" />
	</node>
	<node lat="66.37201666285911" lon="13.120099988647814" id="-10059">
		<tag k="name" v="Grånlia" />
		<tag k="natural" v="slope" />
		<tag k="place" v="locality" />
		<tag k="ssr:stedsnr" v="956916" />
	</node>
	<node lat="66.50395277707698" lon="13.052369444270225" id="-10079">
		<tag k="fixme" v="consider natural=peak for the most distinct mountains in the district" />
		<tag k="name" v="Breivikfjellet" />
		<tag k="natural" v="hill" />
		<tag k="place" v="locality" />
		<tag k="ssr:stedsnr" v="16139" />
	</node>
	<node lat="66.45511666750023" lon="13.172891666643556" id="-10086">
		<tag k="name" v="Liaskardet" />
		<tag k="natural" v="valley" />
		<tag k="place" v="locality" />
		<tag k="ssr:stedsnr" v="16394" />
	</node>
	<node lat="66.56832777470666" lon="12.630574988812828" id="-10098">
		<tag k="name" v="Storhågen" />
		<tag k="natural" v="ridge" />
		<tag k="place" v="locality" />
		<tag k="ssr:stedsnr" v="44696" />
	</node>
	<node lat="66.50114999957013" lon="13.059658325841756" id="-10099">
		<tag k="name" v="Loftan" />
		<tag k="natural" v="cliff" />
		<tag k="ssr:stedsnr" v="45361" />
	</node>
	<node lat="66.39800000419486" lon="12.927136119045416" id="-10100">
		<tag k="name" v="Nakkan" />
		<tag k="natural" v="ridge" />
		<tag k="place" v="locality" />
		<tag k="ssr:stedsnr" v="45436" />
	</node>
	<node lat="66.37440833465561" lon="12.844438881545166" id="-10102">
		<tag k="name" v="Kalvdalen" />
		<tag k="natural" v="valley" />
		<tag k="place" v="locality" />
		<tag k="ssr:stedsnr" v="45443" />
	</node>
	<node lat="66.49201666433372" lon="12.956658338045187" id="-10108">
		<tag k="name" v="Innerhella" />
		<tag k="place" v="locality" />
		<tag k="ssr:stedsnr" v="45499" />
	</node>
	<node lat="66.57933055717302" lon="12.677347212844497" id="-10110">
		<tag k="fixme" v="consider natural=peak for the most distinct mountains in the district" />
		<tag k="name" v="Sandvikåsen" />
		<tag k="natural" v="hill" />
		<tag k="place" v="locality" />
		<tag k="ssr:stedsnr" v="45652" />
	</node>
	<node lat="66.39623888840943" lon="13.182888892832848" id="-10114">
		<tag k="name" v="Dyrbakken" />
		<tag k="natural" v="ridge" />
		<tag k="place" v="locality" />
		<tag k="ssr:stedsnr" v="45943" />
	</node>
	<node lat="66.40136388533928" lon="12.931502787155427" id="-10119">
		<tag k="name" v="Ørndalen" />
		<tag k="natural" v="valley" />
		<tag k="place" v="locality" />
		<tag k="ssr:stedsnr" v="46156" />
	</node>
	<node lat="66.43264444775326" lon="12.859916670155167" id="-10122">
		<tag k="name" v="Langlistrupen" />
		<tag k="natural" v="valley" />
		<tag k="place" v="locality" />
		<tag k="ssr:stedsnr" v="46594" />
	</node>
	<node lat="66.41675278171533" lon="12.858936111290614" id="-10126">
		<tag k="name" v="Grindskaret" />
		<tag k="natural" v="valley" />
		<tag k="place" v="locality" />
		<tag k="ssr:stedsnr" v="46555" />
	</node>
	<node lat="66.4156249987469" lon="12.88817221385644" id="-10128">
		<tag k="fixme" v="consider natural=peak for the most distinct mountains in the district" />
		<tag k="name" v="Kastmoåsen" />
		<tag k="natural" v="hill" />
		<tag k="place" v="locality" />
		<tag k="ssr:stedsnr" v="46565" />
	</node>
	<node lat="66.44551666711446" lon="12.845608327730803" id="-10129">
		<tag k="name" v="Smallia" />
		<tag k="natural" v="slope" />
		<tag k="place" v="locality" />
		<tag k="ssr:stedsnr" v="46651" />
	</node>
	<node lat="66.35832222138745" lon="12.313827770825293" id="-10139">
		<tag k="name" v="Storknean" />
		<tag k="natural" v="slope" />
		<tag k="place" v="locality" />
		<tag k="ssr:stedsnr" v="76384" />
	</node>
	<node lat="66.52549166983823" lon="13.058602781915978" id="-10145">
		<tag k="fixme" v="consider natural=peak for the most distinct mountains in the district" />
		<tag k="name" v="Tonnesfjellet" />
		<tag k="natural" v="hill" />
		<tag k="place" v="locality" />
		<tag k="ssr:stedsnr" v="77061" />
	</node>
	<node lat="66.34315832870014" lon="13.190100006999689" id="-10158">
		<tag k="fixme" v="consider natural=peak for the most distinct mountains in the district" />
		<tag k="name" v="Hatten" />
		<tag k="natural" v="hill" />
		<tag k="place" v="locality" />
		<tag k="ssr:stedsnr" v="77526" />
	</node>
	<node lat="66.47490278003389" lon="13.132816674397535" id="-10162">
		<tag k="name" v="Gammelgårdslia" />
		<tag k="natural" v="slope" />
		<tag k="place" v="locality" />
		<tag k="ssr:stedsnr" v="77466" />
	</node>
	<node lat="66.3650472239933" lon="12.63389166214825" id="-10172">
		<tag k="name" v="Stonghågen" />
		<tag k="natural" v="hill" />
		<tag k="place" v="locality" />
		<tag k="ssr:stedsnr" v="103816" />
	</node>
	<node lat="66.34341944630334" lon="12.627499991312575" id="-10173">
		<tag k="name" v="Sørsolværhågen" />
		<tag k="natural" v="ridge" />
		<tag k="place" v="locality" />
		<tag k="ssr:stedsnr" v="105747" />
	</node>
	<node lat="66.3810638846277" lon="13.005925002040055" id="-10181">
		<tag k="name" v="Hellerdalen" />
		<tag k="natural" v="valley" />
		<tag k="place" v="locality" />
		<tag k="ssr:stedsnr" v="106185" />
	</node>
	<node lat="66.33035555508891" lon="13.015308322616304" id="-10182">
		<tag k="name" v="Mårshågen" />
		<tag k="natural" v="hill" />
		<tag k="place" v="locality" />
		<tag k="ssr:stedsnr" v="106209" />
	</node>
	<node lat="66.50669444179405" lon="13.071058329511736" id="-10183">
		<tag k="name" v="Kinna" />
		<tag k="place" v="locality" />
		<tag k="ssr:stedsnr" v="106346" />
	</node>
	<node lat="66.52090555561168" lon="12.826774993078908" id="-10184">
		<tag k="name" v="Lundrishågen" />
		<tag k="natural" v="hill" />
		<tag k="place" v="locality" />
		<tag k="ssr:stedsnr" v="106641" />
	</node>
	<node lat="66.50529722450126" lon="13.130680554266695" id="-10185">
		<tag k="name" v="Bjynnskarreva" />
		<tag k="natural" v="valley" />
		<tag k="place" v="locality" />
		<tag k="ssr:stedsnr" v="106656" />
	</node>
	<node lat="66.52586944338873" lon="12.833605549143572" id="-10186">
		<tag k="name" v="Smihågen" />
		<tag k="natural" v="hill" />
		<tag k="place" v="locality" />
		<tag k="ssr:stedsnr" v="106661" />
	</node>
	<node lat="66.44531111232622" lon="13.16375833571628" id="-10187">
		<tag k="name" v="Baklia" />
		<tag k="natural" v="slope" />
		<tag k="place" v="locality" />
		<tag k="ssr:stedsnr" v="106827" />
	</node>
	<node lat="66.46204444134378" lon="13.190480563465274" id="-10189">
		<tag k="name" v="Sørvasslia" />
		<tag k="natural" v="slope" />
		<tag k="place" v="locality" />
		<tag k="ssr:stedsnr" v="106834" />
	</node>
	<node lat="66.34703333451985" lon="13.18743055642591" id="-10194">
		<tag k="name" v="Bulia" />
		<tag k="natural" v="slope" />
		<tag k="place" v="locality" />
		<tag k="ssr:stedsnr" v="106886" />
	</node>
	<node lat="66.35401944712787" lon="13.15637778160971" id="-10195">
		<tag k="name" v="Andåglia" />
		<tag k="natural" v="slope" />
		<tag k="place" v="locality" />
		<tag k="ssr:stedsnr" v="106889" />
	</node>
	<node lat="66.38519722303911" lon="13.15097221537323" id="-10197">
		<tag k="name" v="Trolldalen" />
		<tag k="natural" v="valley" />
		<tag k="place" v="locality" />
		<tag k="ssr:stedsnr" v="106942" />
	</node>
	<node lat="66.38388889047425" lon="12.841388882805738" id="-10198">
		<tag k="name" v="Nonskaret" />
		<tag k="natural" v="valley" />
		<tag k="place" v="locality" />
		<tag k="ssr:stedsnr" v="107379" />
	</node>
	<node lat="66.41381666659811" lon="12.876888887700654" id="-10202">
		<tag k="name" v="Ørndalen" />
		<tag k="natural" v="valley" />
		<tag k="place" v="locality" />
		<tag k="ssr:stedsnr" v="107543" />
	</node>
	<node lat="66.41359722373682" lon="12.905549994380275" id="-10203">
		<tag k="name" v="Rogndalsklubben" />
		<tag k="natural" v="ridge" />
		<tag k="place" v="locality" />
		<tag k="ssr:stedsnr" v="107546" />
	</node>
	<node lat="66.41495833160113" lon="12.862658332444575" id="-10204">
		<tag k="name" v="Leite" />
		<tag k="natural" v="valley" />
		<tag k="place" v="locality" />
		<tag k="ssr:stedsnr" v="107554" />
	</node>
	<node lat="66.40919722549302" lon="12.920891666772416" id="-10205">
		<tag k="name" v="Heimbuskaret" />
		<tag k="natural" v="valley" />
		<tag k="place" v="locality" />
		<tag k="ssr:stedsnr" v="107562" />
	</node>
	<node lat="66.44106944720161" lon="12.880474993880332" id="-10207">
		<tag k="name" v="Sutternesdalen" />
		<tag k="natural" v="valley" />
		<tag k="place" v="locality" />
		<tag k="ssr:stedsnr" v="107570" />
	</node>
	<node lat="66.48906944198167" lon="12.896441674951964" id="-10208">
		<tag k="name" v="Storsvehågen" />
		<tag k="natural" v="hill" />
		<tag k="place" v="locality" />
		<tag k="ssr:stedsnr" v="107626" />
	</node>
	<node lat="66.36271666400127" lon="12.32821389655199" id="-10219">
		<tag k="fixme" v="multiple name tags, choose one and add the other to alt_name; consider natural=peak for the most distinct mountains in the district" />
		<tag k="name" v="Lovundfjellet;Litlfjellet" />
		<tag k="natural" v="hill" />
		<tag k="place" v="locality" />
		<tag k="ssr:stedsnr" v="136179" />
	</node>
	<node lat="66.41992222372957" lon="13.092238898449855" id="-10224">
		<tag k="fixme" v="consider natural=peak for the most distinct mountains in the district" />
		<tag k="name" v="Himmelberget" />
		<tag k="natural" v="hill" />
		<tag k="place" v="locality" />
		<tag k="ssr:stedsnr" v="137379" />
	</node>
	<node lat="66.36523055902488" lon="13.135322224395459" id="-10227">
		<tag k="fixme" v="consider natural=peak for the most distinct mountains in the district" />
		<tag k="name" v="Hauglandstinden" />
		<tag k="natural" v="hill" />
		<tag k="place" v="locality" />
		<tag k="ssr:stedsnr" v="137492" />
	</node>
	<node lat="66.42628056012563" lon="12.865541656343764" id="-10231">
		<tag k="fixme" v="consider natural=peak for the most distinct mountains in the district" />
		<tag k="name" v="Bonden" />
		<tag k="natural" v="hill" />
		<tag k="place" v="locality" />
		<tag k="ssr:stedsnr" v="137395" />
	</node>
	<node lat="66.45248610853244" lon="12.962144445195067" id="-10235">
		<tag k="fixme" v="consider natural=peak for the most distinct mountains in the district" />
		<tag k="name" v="Bufjellet" />
		<tag k="natural" v="hill" />
		<tag k="place" v="locality" />
		<tag k="ssr:stedsnr" v="137429" />
	</node>
	<node lat="66.3883138914637" lon="12.86045556270241" id="-10244">
		<tag k="fixme" v="consider natural=peak for the most distinct mountains in the district" />
		<tag k="name" v="Vargtinden" />
		<tag k="natural" v="hill" />
		<tag k="place" v="locality" />
		<tag k="ssr:stedsnr" v="137544" />
	</node>
	<node lat="66.39714444335722" lon="13.043605547228351" id="-10246">
		<tag k="fixme" v="consider natural=peak for the most distinct mountains in the district" />
		<tag k="name" v="Hjarttinden" />
		<tag k="natural" v="hill" />
		<tag k="place" v="locality" />
		<tag k="ssr:stedsnr" v="137566" />
	</node>
	<node lat="66.39663889085185" lon="13.048902772527606" id="-10247">
		<tag k="fixme" v="consider natural=peak for the most distinct mountains in the district" />
		<tag k="name" v="Lauktinden" />
		<tag k="natural" v="hill" />
		<tag k="place" v="locality" />
		<tag k="ssr:stedsnr" v="137567" />
	</node>
	<node lat="66.39246388944183" lon="13.010952774218756" id="-10248">
		<tag k="fixme" v="consider natural=peak for the most distinct mountains in the district" />
		<tag k="name" v="Aspenesfjellet" />
		<tag k="natural" v="hill" />
		<tag k="place" v="locality" />
		<tag k="ssr:stedsnr" v="137568" />
	</node>
	<node lat="66.38067778135435" lon="12.86399721764888" id="-10251">
		<tag k="alt_name" v="Nargtinden" />
		<tag k="fixme" v="consider natural=peak for the most distinct mountains in the district" />
		<tag k="name" v="Nargtindan" />
		<tag k="natural" v="hill" />
		<tag k="place" v="locality" />
		<tag k="ssr:stedsnr" v="137579" />
	</node>
	<node lat="66.34615833263031" lon="13.259588888723957" id="-10256">
		<tag k="fixme" v="consider natural=peak for the most distinct mountains in the district" />
		<tag k="name" v="Mjølkåtinden" />
		<tag k="natural" v="hill" />
		<tag k="place" v="locality" />
		<tag k="ssr:stedsnr" v="137860" />
	</node>
	<node lat="66.50254166397978" lon="13.035091675773945" id="-10261">
		<tag k="name" v="Djupvikskaret" />
		<tag k="natural" v="valley" />
		<tag k="place" v="locality" />
		<tag k="ssr:stedsnr" v="166277" />
	</node>
	<node lat="66.49705555232427" lon="13.04656667405889" id="-10263">
		<tag k="name" v="Høydalshågen" />
		<tag k="natural" v="hill" />
		<tag k="place" v="locality" />
		<tag k="ssr:stedsnr" v="166357" />
	</node>
	<node lat="66.50599167017505" lon="13.066233344827918" id="-10265">
		<tag k="name" v="Gruben" />
		<tag k="natural" v="valley" />
		<tag k="place" v="locality" />
		<tag k="ssr:stedsnr" v="166365" />
	</node>
	<node lat="66.56424166621733" lon="12.610174997260092" id="-10272">
		<tag k="name" v="Melkarhågen" />
		<tag k="natural" v="hill" />
		<tag k="place" v="locality" />
		<tag k="ssr:stedsnr" v="166689" />
	</node>
	<node lat="66.40578333599905" lon="12.930580549214474" id="-10281">
		<tag k="name" v="Dyraksla" />
		<tag k="natural" v="ridge" />
		<tag k="place" v="locality" />
		<tag k="ssr:stedsnr" v="167168" />
	</node>
	<node lat="66.35632222596945" lon="12.317550000661196" id="-10284">
		<tag k="name" v="Sørskogen" />
		<tag k="natural" v="slope" />
		<tag k="place" v="locality" />
		<tag k="ssr:stedsnr" v="167199" />
	</node>
	<node lat="66.41806944174283" lon="12.91791944369789" id="-10287">
		<tag k="fixme" v="consider natural=peak for the most distinct mountains in the district" />
		<tag k="name" v="Einbakkan" />
		<tag k="natural" v="hill" />
		<tag k="place" v="locality" />
		<tag k="ssr:stedsnr" v="167573" />
	</node>
	<node lat="66.40865277879506" lon="12.870425000617418" id="-10288">
		<tag k="name" v="Sankthanshågen" />
		<tag k="natural" v="hill" />
		<tag k="place" v="locality" />
		<tag k="ssr:stedsnr" v="167585" />
	</node>
	<node lat="66.4743805538593" lon="13.15588332216862" id="-10291">
		<tag k="name" v="Todalen" />
		<tag k="natural" v="valley" />
		<tag k="place" v="locality" />
		<tag k="ssr:stedsnr" v="167677" />
	</node>
	<node lat="66.50418333445376" lon="13.125472212776325" id="-10292">
		<tag k="name" v="Storbufjellet" />
		<tag k="natural" v="cliff" />
		<tag k="ssr:stedsnr" v="167695" />
	</node>
	<node lat="66.36405833343655" lon="12.64251665898193" id="-10294">
		<tag k="name" v="Fallhågen" />
		<tag k="natural" v="hill" />
		<tag k="place" v="locality" />
		<tag k="ssr:stedsnr" v="167822" />
	</node>
	<node lat="66.36561944573353" lon="12.62621388276465" id="-10296">
		<tag k="name" v="Hellarhågen" />
		<tag k="natural" v="hill" />
		<tag k="place" v="locality" />
		<tag k="ssr:stedsnr" v="167845" />
	</node>
	<node lat="66.33209444818807" lon="13.158397222182884" id="-10298">
		<tag k="name" v="Leirbakkan" />
		<tag k="natural" v="slope" />
		<tag k="place" v="locality" />
		<tag k="ssr:stedsnr" v="167933" />
	</node>
	<node lat="66.35685278077108" lon="12.360466663329897" id="-10299">
		<tag k="name" v="Bustlia" />
		<tag k="natural" v="slope" />
		<tag k="place" v="locality" />
		<tag k="ssr:stedsnr" v="167935" />
	</node>
	<node lat="66.3935472218572" lon="12.876966663332494" id="-10301">
		<tag k="fixme" v="consider natural=peak for the most distinct mountains in the district" />
		<tag k="name" v="Storskutan" />
		<tag k="natural" v="hill" />
		<tag k="place" v="locality" />
		<tag k="ssr:stedsnr" v="172235" />
	</node>
	<node lat="66.52800832881626" lon="12.812566672138267" id="-10315">
		<tag k="name" v="Kalvdalen" />
		<tag k="natural" v="valley" />
		<tag k="place" v="locality" />
		<tag k="ssr:stedsnr" v="198053" />
	</node>
	<node lat="66.42312222376506" lon="13.194661106137968" id="-10326">
		<tag k="fixme" v="consider natural=peak for the most distinct mountains in the district" />
		<tag k="name" v="Kamman" />
		<tag k="natural" v="hill" />
		<tag k="place" v="locality" />
		<tag k="ssr:stedsnr" v="198370" />
	</node>
	<node lat="66.42490000404842" lon="13.16820277779113" id="-10327">
		<tag k="fixme" v="consider natural=peak for the most distinct mountains in the district" />
		<tag k="name" v="Liatinden" />
		<tag k="natural" v="hill" />
		<tag k="place" v="locality" />
		<tag k="ssr:stedsnr" v="198374" />
	</node>
	<node lat="66.44964166560918" lon="13.133127768083195" id="-10329">
		<tag k="fixme" v="consider natural=peak for the most distinct mountains in the district" />
		<tag k="name" v="Litlokstinden" />
		<tag k="natural" v="hill" />
		<tag k="place" v="locality" />
		<tag k="ssr:stedsnr" v="198394" />
	</node>
	<node lat="66.44975555774907" lon="13.173972216315974" id="-10331">
		<tag k="fixme" v="consider natural=peak for the most distinct mountains in the district" />
		<tag k="name" v="Geitberget" />
		<tag k="natural" v="hill" />
		<tag k="place" v="locality" />
		<tag k="ssr:stedsnr" v="198398" />
	</node>
	<node lat="66.35840000365981" lon="13.038575000525395" id="-10335">
		<tag k="alt_name" v="Finnskaret" />
		<tag k="name" v="Finnskardet" />
		<tag k="natural" v="valley" />
		<tag k="place" v="locality" />
		<tag k="ssr:stedsnr" v="198497" />
	</node>
	<node lat="66.3548277742904" lon="13.056763896201026" id="-10336">
		<tag k="fixme" v="consider natural=peak for the most distinct mountains in the district" />
		<tag k="name" v="Elvasstinden" />
		<tag k="natural" v="hill" />
		<tag k="place" v="locality" />
		<tag k="ssr:stedsnr" v="198499" />
	</node>
	<node lat="66.38491111296516" lon="12.826905566271392" id="-10341">
		<tag k="alt_name" v="Andfjellet" />
		<tag k="fixme" v="consider natural=peak for the most distinct mountains in the district" />
		<tag k="name" v="Anfjellet" />
		<tag k="natural" v="hill" />
		<tag k="place" v="locality" />
		<tag k="ssr:stedsnr" v="198603" />
	</node>
	<node lat="66.4020166704083" lon="13.091469442020484" id="-10344">
		<tag k="alt_name" v="Alderskaret" />
		<tag k="name" v="Alderskardet" />
		<tag k="natural" v="valley" />
		<tag k="place" v="locality" />
		<tag k="ssr:stedsnr" v="198345" />
	</node>
	<node lat="66.30963888917447" lon="13.119711108153417" id="-10350">
		<tag k="name" v="Klubben" />
		<tag k="natural" v="hill" />
		<tag k="place" v="locality" />
		<tag k="ssr:stedsnr" v="198552" />
	</node>
	<node lat="66.36772499568062" lon="12.628063887062005" id="-10358">
		<tag k="name" v="Haklepphågen" />
		<tag k="natural" v="hill" />
		<tag k="place" v="locality" />
		<tag k="ssr:stedsnr" v="224829" />
	</node>
	<node lat="66.32888055148979" lon="13.132680553338814" id="-10360">
		<tag k="name" v="Bogamarka" />
		<tag k="natural" v="slope" />
		<tag k="place" v="locality" />
		<tag k="ssr:stedsnr" v="227239" />
	</node>
	<node lat="66.32802777935893" lon="13.082772222375084" id="-10361">
		<tag k="name" v="Høybreiarskaret" />
		<tag k="natural" v="valley" />
		<tag k="place" v="locality" />
		<tag k="ssr:stedsnr" v="227243" />
	</node>
	<node lat="66.55892222079353" lon="12.616769449229535" id="-10362">
		<tag k="name" v="Røsdalen" />
		<tag k="natural" v="valley" />
		<tag k="place" v="locality" />
		<tag k="ssr:stedsnr" v="226730" />
	</node>
	<node lat="66.38724444613305" lon="13.04950278555533" id="-10365">
		<tag k="name" v="Drevgropan" />
		<tag k="natural" v="slope" />
		<tag k="place" v="locality" />
		<tag k="ssr:stedsnr" v="227195" />
	</node>
	<node lat="66.39042499873892" lon="13.064869444877818" id="-10366">
		<tag k="name" v="Rånan" />
		<tag k="natural" v="cliff" />
		<tag k="ssr:stedsnr" v="227197" />
	</node>
	<node lat="66.32005833705199" lon="13.086833341390049" id="-10367">
		<tag k="name" v="Steinmosshågen" />
		<tag k="natural" v="hill" />
		<tag k="place" v="locality" />
		<tag k="ssr:stedsnr" v="227252" />
	</node>
	<node lat="66.4860972216964" lon="12.945988893009542" id="-10368">
		<tag k="name" v="Staulhågen" />
		<tag k="natural" v="hill" />
		<tag k="place" v="locality" />
		<tag k="ssr:stedsnr" v="227278" />
	</node>
	<node lat="66.49697222083665" lon="13.050161102220775" id="-10369">
		<tag k="name" v="Vardhågen" />
		<tag k="natural" v="hill" />
		<tag k="place" v="locality" />
		<tag k="ssr:stedsnr" v="227350" />
	</node>
	<node lat="66.57904444869537" lon="12.657883323594216" id="-10372">
		<tag k="fixme" v="consider natural=peak for the most distinct mountains in the district" />
		<tag k="name" v="Krona" />
		<tag k="natural" v="hill" />
		<tag k="place" v="locality" />
		<tag k="ssr:stedsnr" v="227657" />
	</node>
	<node lat="66.52677222655701" lon="12.841816659162044" id="-10374">
		<tag k="name" v="Kleppan" />
		<tag k="natural" v="hill" />
		<tag k="place" v="locality" />
		<tag k="ssr:stedsnr" v="227624" />
	</node>
	<node lat="66.41155277548005" lon="13.018130564124471" id="-10376">
		<tag k="name" v="Storhågen" />
		<tag k="natural" v="ridge" />
		<tag k="place" v="locality" />
		<tag k="ssr:stedsnr" v="228162" />
	</node>
	<node lat="66.44520000411055" lon="12.837833342509995" id="-10379">
		<tag k="fixme" v="consider natural=peak for the most distinct mountains in the district" />
		<tag k="name" v="Guraviknakkan" />
		<tag k="natural" v="hill" />
		<tag k="place" v="locality" />
		<tag k="ssr:stedsnr" v="228650" />
	</node>
	<node lat="66.43488888750355" lon="12.849799989794137" id="-10380">
		<tag k="name" v="Andreaslia" />
		<tag k="natural" v="slope" />
		<tag k="place" v="locality" />
		<tag k="ssr:stedsnr" v="228655" />
	</node>
	<node lat="66.56073889007845" lon="12.623391671043212" id="-10382">
		<tag k="name" v="Ramndalstuva" />
		<tag k="natural" v="hill" />
		<tag k="place" v="locality" />
		<tag k="ssr:stedsnr" v="287725" />
	</node>
	<node lat="66.4067277768602" lon="12.923808323382437" id="-10384">
		<tag k="name" v="Øvre Klippenvåg" />
		<tag k="natural" v="ridge" />
		<tag k="place" v="locality" />
		<tag k="ssr:stedsnr" v="288370" />
	</node>
	<node lat="66.51199166939146" lon="13.034502775318579" id="-10385">
		<tag k="name" v="Mølldalen" />
		<tag k="natural" v="valley" />
		<tag k="place" v="locality" />
		<tag k="ssr:stedsnr" v="288457" />
	</node>
	<node lat="66.55670277374931" lon="12.62285833176192" id="-10386">
		<tag k="name" v="Rabben" />
		<tag k="natural" v="hill" />
		<tag k="place" v="locality" />
		<tag k="ssr:stedsnr" v="287753" />
	</node>
	<node lat="66.3304888876868" lon="13.060000000995485" id="-10388">
		<tag k="name" v="Innerfjellet" />
		<tag k="natural" v="cliff" />
		<tag k="ssr:stedsnr" v="288217" />
	</node>
	<node lat="66.40563055892076" lon="12.945241672955769" id="-10390">
		<tag k="name" v="Bjørndalen" />
		<tag k="natural" v="valley" />
		<tag k="place" v="locality" />
		<tag k="ssr:stedsnr" v="288166" />
	</node>
	<node lat="66.53363055565347" lon="12.841533325443502" id="-10391">
		<tag k="name" v="Nordambåtthøla" />
		<tag k="natural" v="valley" />
		<tag k="place" v="locality" />
		<tag k="ssr:stedsnr" v="288584" />
	</node>
	<node lat="66.36418889243845" lon="12.683963882655032" id="-10392">
		<tag k="name" v="Måshågen" />
		<tag k="natural" v="hill" />
		<tag k="place" v="locality" />
		<tag k="ssr:stedsnr" v="288589" />
	</node>
	<node lat="66.5253805538395" lon="12.82029444575067" id="-10393">
		<tag k="name" v="Storskaret" />
		<tag k="natural" v="valley" />
		<tag k="place" v="locality" />
		<tag k="ssr:stedsnr" v="288610" />
	</node>
	<node lat="66.52598055912043" lon="12.827144443598899" id="-10394">
		<tag k="name" v="Steinhågen" />
		<tag k="natural" v="ridge" />
		<tag k="place" v="locality" />
		<tag k="ssr:stedsnr" v="288611" />
	</node>
	<node lat="66.5796694420666" lon="12.617483334753082" id="-10396">
		<tag k="loc_name" v="Seljedalsrabben" />
		<tag k="name" v="Seljedalstabben" />
		<tag k="natural" v="ridge" />
		<tag k="place" v="locality" />
		<tag k="ssr:stedsnr" v="288673" />
	</node>
	<node lat="66.37653889029663" lon="13.15993888334521" id="-10398">
		<tag k="name" v="Svartåglia" />
		<tag k="natural" v="slope" />
		<tag k="place" v="locality" />
		<tag k="ssr:stedsnr" v="288897" />
	</node>
	<node lat="66.4638666672166" lon="13.16845000121585" id="-10399">
		<tag k="name" v="Staulbakkan" />
		<tag k="natural" v="slope" />
		<tag k="place" v="locality" />
		<tag k="ssr:stedsnr" v="288831" />
	</node>
	<node lat="66.41057778004357" lon="13.184591666400284" id="-10401">
		<tag k="name" v="Brattlandsremman" />
		<tag k="natural" v="ridge" />
		<tag k="place" v="locality" />
		<tag k="ssr:stedsnr" v="288852" />
	</node>
	<node lat="66.36018610744918" lon="12.353247211133118" id="-10423">
		<tag k="alt_name" v="Nova" />
		<tag k="fixme" v="consider natural=peak for the most distinct mountains in the district" />
		<tag k="name" v="Nøva" />
		<tag k="natural" v="hill" />
		<tag k="place" v="locality" />
		<tag k="ssr:stedsnr" v="319353" />
	</node>
	<node lat="66.40048055511963" lon="13.21671944355656" id="-10428">
		<tag k="fixme" v="consider natural=peak for the most distinct mountains in the district" />
		<tag k="name" v="Medtinden" />
		<tag k="natural" v="hill" />
		<tag k="place" v="locality" />
		<tag k="ssr:stedsnr" v="319563" />
	</node>
	<node lat="66.33595277707168" lon="13.201600002899841" id="-10432">
		<tag k="fixme" v="consider natural=peak for the most distinct mountains in the district" />
		<tag k="name" v="Smaltinden" />
		<tag k="natural" v="hill" />
		<tag k="place" v="locality" />
		<tag k="ssr:stedsnr" v="319526" />
	</node>
	<node lat="66.34221388943152" lon="13.234219437885619" id="-10434">
		<tag k="fixme" v="consider natural=peak for the most distinct mountains in the district" />
		<tag k="name" v="Pollatindan" />
		<tag k="natural" v="hill" />
		<tag k="place" v="locality" />
		<tag k="ssr:stedsnr" v="319858" />
	</node>
	<node lat="66.50275833645361" lon="13.070050002706639" id="-10438">
		<tag k="alt_name" v="Nibberget" />
		<tag k="fixme" v="consider natural=peak for the most distinct mountains in the district" />
		<tag k="name" v="Nebberget" />
		<tag k="natural" v="hill" />
		<tag k="place" v="locality" />
		<tag k="ssr:stedsnr" v="320159" />
	</node>
	<node lat="66.34516110666" lon="13.08307778342222" id="-10440">
		<tag k="fixme" v="consider natural=peak for the most distinct mountains in the district" />
		<tag k="name" v="Stordalstinden" />
		<tag k="natural" v="hill" />
		<tag k="place" v="locality" />
		<tag k="ssr:stedsnr" v="320500" />
	</node>
	<node lat="66.41588611251933" lon="13.094672224267754" id="-10444">
		<tag k="name" v="Dyrskardet" />
		<tag k="natural" v="valley" />
		<tag k="place" v="locality" />
		<tag k="ssr:stedsnr" v="320377" />
	</node>
	<node lat="66.4107972184198" lon="13.210069435203351" id="-10445">
		<tag k="name" v="Omnan" />
		<tag k="natural" v="slope" />
		<tag k="place" v="locality" />
		<tag k="ssr:stedsnr" v="320381" />
	</node>
	<node lat="66.41251666368525" lon="13.225572219802885" id="-10446">
		<tag k="fixme" v="consider natural=peak for the most distinct mountains in the district" />
		<tag k="name" v="Breitinden" />
		<tag k="natural" v="hill" />
		<tag k="place" v="locality" />
		<tag k="ssr:stedsnr" v="320854" />
	</node>
	<node lat="66.48423610732199" lon="12.959075010519676" id="-10452">
		<tag k="name" v="Knuthågen" />
		<tag k="natural" v="hill" />
		<tag k="place" v="locality" />
		<tag k="ssr:stedsnr" v="348339" />
	</node>
	<node lat="66.52653611231291" lon="12.982175007939855" id="-10456">
		<tag k="name" v="Ørndalsfjellet" />
		<tag k="natural" v="hill" />
		<tag k="place" v="locality" />
		<tag k="ssr:stedsnr" v="348442" />
	</node>
	<node lat="66.57957499596057" lon="12.623136116218816" id="-10457">
		<tag k="name" v="Isterdalen" />
		<tag k="natural" v="valley" />
		<tag k="place" v="locality" />
		<tag k="ssr:stedsnr" v="348647" />
	</node>
	<node lat="66.38610277378322" lon="13.173602781151978" id="-10465">
		<tag k="name" v="Stegen" />
		<tag k="natural" v="slope" />
		<tag k="place" v="locality" />
		<tag k="ssr:stedsnr" v="348927" />
	</node>
	<node lat="66.42820555200602" lon="12.9470750026965" id="-10466">
		<tag k="fixme" v="consider natural=peak for the most distinct mountains in the district" />
		<tag k="name" v="Sundatinden" />
		<tag k="natural" v="hill" />
		<tag k="place" v="locality" />
		<tag k="ssr:stedsnr" v="349142" />
	</node>
	<node lat="66.47003611089025" lon="13.169019445333241" id="-10471">
		<tag k="name" v="Gårdshågen" />
		<tag k="natural" v="hill" />
		<tag k="place" v="locality" />
		<tag k="ssr:stedsnr" v="349690" />
	</node>
	<node lat="66.44765000129209" lon="13.182338883185974" id="-10477">
		<tag k="fixme" v="consider natural=peak for the most distinct mountains in the district" />
		<tag k="name" v="Hagberget" />
		<tag k="natural" v="hill" />
		<tag k="place" v="locality" />
		<tag k="ssr:stedsnr" v="349850" />
	</node>
	<node lat="66.4051361081889" lon="13.212369434761701" id="-10496">
		<tag k="fixme" v="consider natural=peak for the most distinct mountains in the district" />
		<tag k="name" v="Norstinden" />
		<tag k="natural" v="hill" />
		<tag k="place" v="locality" />
		<tag k="ssr:stedsnr" v="379554" />
	</node>
	<node lat="66.39056666954713" lon="13.142083324816662" id="-10507">
		<tag k="fixme" v="consider natural=peak for the most distinct mountains in the district" />
		<tag k="name" v="Åstuva" />
		<tag k="natural" v="hill" />
		<tag k="place" v="locality" />
		<tag k="ssr:stedsnr" v="380650" />
	</node>
	<node lat="66.56026944304386" lon="12.638558344164542" id="-10523">
		<tag k="name" v="Nesøytoppen" />
		<tag k="natural" v="hill" />
		<tag k="place" v="locality" />
		<tag k="ssr:stedsnr" v="389539" />
	</node>
	<node lat="66.38748333554013" lon="13.016961103310756" id="-10530">
		<tag k="name" v="Brekken" />
		<tag k="natural" v="slope" />
		<tag k="place" v="locality" />
		<tag k="ssr:stedsnr" v="409218" />
	</node>
	<node lat="66.32309166315747" lon="13.101694442109789" id="-10531">
		<tag k="name" v="Øverfunkhågen" />
		<tag k="natural" v="hill" />
		<tag k="place" v="locality" />
		<tag k="ssr:stedsnr" v="409261" />
	</node>
	<node lat="66.5170527768526" lon="13.003308329725735" id="-10532">
		<tag k="name" v="Langdalshågen" />
		<tag k="natural" v="ridge" />
		<tag k="place" v="locality" />
		<tag k="ssr:stedsnr" v="409461" />
	</node>
	<node lat="66.51747221889879" lon="13.069847217783678" id="-10533">
		<tag k="fixme" v="consider natural=peak for the most distinct mountains in the district" />
		<tag k="name" v="Rørholnakkan" />
		<tag k="natural" v="hill" />
		<tag k="place" v="locality" />
		<tag k="ssr:stedsnr" v="409470" />
	</node>
	<node lat="66.51431389284518" lon="13.027338898014182" id="-10534">
		<tag k="name" v="Hellarnakkan" />
		<tag k="natural" v="ridge" />
		<tag k="place" v="locality" />
		<tag k="ssr:stedsnr" v="409485" />
	</node>
	<node lat="66.48302499839963" lon="12.943125002194446" id="-10535">
		<tag k="fixme" v="consider natural=peak for the most distinct mountains in the district" />
		<tag k="name" v="Høgåsen" />
		<tag k="natural" v="hill" />
		<tag k="place" v="locality" />
		<tag k="ssr:stedsnr" v="409344" />
	</node>
	<node lat="66.39653333622424" lon="12.920083344707612" id="-10537">
		<tag k="name" v="Bryggehågen" />
		<tag k="natural" v="ridge" />
		<tag k="place" v="locality" />
		<tag k="ssr:stedsnr" v="409426" />
	</node>
	<node lat="66.5132722208897" lon="13.005544450113979" id="-10538">
		<tag k="name" v="Vollhågen" />
		<tag k="natural" v="hill" />
		<tag k="place" v="locality" />
		<tag k="ssr:stedsnr" v="409438" />
	</node>
	<node lat="66.52975277735916" lon="12.874677774179663" id="-10540">
		<tag k="name" v="Movikhågen" />
		<tag k="natural" v="ridge" />
		<tag k="place" v="locality" />
		<tag k="ssr:stedsnr" v="409641" />
	</node>
	<node lat="66.52004166959524" lon="12.82186388472581" id="-10542">
		<tag k="name" v="Langhågen" />
		<tag k="natural" v="hill" />
		<tag k="place" v="locality" />
		<tag k="ssr:stedsnr" v="409632" />
	</node>
	<node lat="66.38353888934728" lon="13.179108324282188" id="-10549">
		<tag k="name" v="Hellremdalen" />
		<tag k="natural" v="valley" />
		<tag k="place" v="locality" />
		<tag k="ssr:stedsnr" v="409928" />
	</node>
	<node lat="66.38599166943328" lon="13.1627333333356" id="-10550">
		<tag k="name" v="Brattstia" />
		<tag k="natural" v="slope" />
		<tag k="place" v="locality" />
		<tag k="ssr:stedsnr" v="409930" />
	</node>
	<node lat="66.44444166280337" lon="13.196441672866314" id="-10551">
		<tag k="name" v="Ørnfloget" />
		<tag k="natural" v="cliff" />
		<tag k="ssr:stedsnr" v="410820" />
	</node>
	<node lat="66.50610277779637" lon="13.114947229381077" id="-10555">
		<tag k="name" v="Nordmannen" />
		<tag k="natural" v="ridge" />
		<tag k="place" v="locality" />
		<tag k="ssr:stedsnr" v="410667" />
	</node>
	<node lat="66.48332222084336" lon="13.10900555632425" id="-10556">
		<tag k="name" v="Bjørndalsfloget" />
		<tag k="natural" v="cliff" />
		<tag k="ssr:stedsnr" v="410677" />
	</node>
	<node lat="66.41511667031189" lon="12.853699995194408" id="-10557">
		<tag k="name" v="Stighågen" />
		<tag k="natural" v="hill" />
		<tag k="place" v="locality" />
		<tag k="ssr:stedsnr" v="410577" />
	</node>
	<node lat="66.47961666621762" lon="13.153555548512292" id="-10559">
		<tag k="name" v="Sandrapan" />
		<tag k="natural" v="slope" />
		<tag k="place" v="locality" />
		<tag k="ssr:stedsnr" v="410690" />
	</node>
	<node lat="66.36004722562436" lon="13.101644451530852" id="-10596">
		<tag k="fixme" v="consider natural=peak for the most distinct mountains in the district" />
		<tag k="name" v="Middagstinden" />
		<tag k="natural" v="hill" />
		<tag k="place" v="locality" />
		<tag k="ssr:stedsnr" v="441511" />
	</node>
	<node lat="66.37063333256903" lon="13.197763883655766" id="-10600">
		<tag k="fixme" v="consider natural=peak for the most distinct mountains in the district" />
		<tag k="name" v="Middagsfjellet" />
		<tag k="natural" v="hill" />
		<tag k="place" v="locality" />
		<tag k="ssr:stedsnr" v="441612" />
	</node>
	<node lat="66.37178055479714" lon="13.138463886524152" id="-10637">
		<tag k="fixme" v="consider natural=peak for the most distinct mountains in the district" />
		<tag k="name" v="Klubben" />
		<tag k="natural" v="hill" />
		<tag k="place" v="locality" />
		<tag k="ssr:stedsnr" v="501589" />
	</node>
	<node lat="66.48454862768097" lon="12.898680983725038" id="-10649">
		<tag k="alt_name" v="Ytre Kvarøyfjellet" />
		<tag k="fixme" v="consider natural=peak for the most distinct mountains in the district" />
		<tag k="name" v="Ytterkvarøyfjellet" />
		<tag k="natural" v="hill" />
		<tag k="place" v="locality" />
		<tag k="ssr:stedsnr" v="531650" />
	</node>
	<node lat="66.3438777781617" lon="12.994947212604306" id="-10650">
		<tag k="name" v="Stokkvågbergan" />
		<tag k="natural" v="cliff" />
		<tag k="ssr:stedsnr" v="530236" />
	</node>
	<node lat="66.5294111129163" lon="12.808219444540947" id="-10653">
		<tag k="name" v="Ytterlia" />
		<tag k="natural" v="slope" />
		<tag k="place" v="locality" />
		<tag k="ssr:stedsnr" v="530639" />
	</node>
	<node lat="66.53148889062663" lon="12.828047218116321" id="-10654">
		<tag k="name" v="Setra" />
		<tag k="natural" v="valley" />
		<tag k="place" v="locality" />
		<tag k="ssr:stedsnr" v="530647" />
	</node>
	<node lat="66.52585277388496" lon="12.859755560902363" id="-10655">
		<tag k="name" v="Kleivhågen" />
		<tag k="natural" v="hill" />
		<tag k="place" v="locality" />
		<tag k="ssr:stedsnr" v="530660" />
	</node>
	<node lat="66.41566944806355" lon="12.9327694418596" id="-10659">
		<tag k="fixme" v="consider natural=peak for the most distinct mountains in the district" />
		<tag k="name" v="Bulitinden" />
		<tag k="natural" v="hill" />
		<tag k="place" v="locality" />
		<tag k="ssr:stedsnr" v="531148" />
	</node>
	<node lat="66.36569167058906" lon="12.34845278058447" id="-10661">
		<tag k="name" v="Billringen" />
		<tag k="natural" v="ridge" />
		<tag k="place" v="locality" />
		<tag k="ssr:stedsnr" v="531192" />
	</node>
	<node lat="66.41475555205449" lon="12.919169453252168" id="-10663">
		<tag k="name" v="Bukkfjellet" />
		<tag k="natural" v="hill" />
		<tag k="place" v="locality" />
		<tag k="ssr:stedsnr" v="531564" />
	</node>
	<node lat="66.43636944394616" lon="12.88182221998222" id="-10664">
		<tag k="name" v="Bukkfjellåkeren" />
		<tag k="natural" v="valley" />
		<tag k="place" v="locality" />
		<tag k="ssr:stedsnr" v="531598" />
	</node>
	<node lat="66.42258332936709" lon="12.884136105841614" id="-10665">
		<tag k="name" v="Saulinakkan" />
		<tag k="natural" v="ridge" />
		<tag k="place" v="locality" />
		<tag k="ssr:stedsnr" v="531601" />
	</node>
	<node lat="66.47955277522713" lon="13.146283325542315" id="-10667">
		<tag k="name" v="Elituva" />
		<tag k="natural" v="ridge" />
		<tag k="place" v="locality" />
		<tag k="ssr:stedsnr" v="531712" />
	</node>
	<node lat="66.4158916660018" lon="13.11542222174711" id="-10668">
		<tag k="name" v="Kalvhagen" />
		<tag k="natural" v="slope" />
		<tag k="place" v="locality" />
		<tag k="ssr:stedsnr" v="531883" />
	</node>
	<node lat="66.41029722650941" lon="13.117258324281819" id="-10669">
		<tag k="name" v="Nordmarka" />
		<tag k="natural" v="slope" />
		<tag k="place" v="locality" />
		<tag k="ssr:stedsnr" v="531885" />
	</node>
	<node lat="66.32578333008644" lon="13.161983323546146" id="-10673">
		<tag k="name" v="Kleiva" />
		<tag k="natural" v="slope" />
		<tag k="place" v="locality" />
		<tag k="ssr:stedsnr" v="531929" />
	</node>
	<node lat="66.3567694464399" lon="12.576880554780672" id="-10675">
		<tag k="name" v="Høyberget" />
		<tag k="natural" v="slope" />
		<tag k="place" v="locality" />
		<tag k="ssr:stedsnr" v="531850" />
	</node>
	<node lat="66.45895278110032" lon="13.101130550825243" id="-10678">
		<tag k="name" v="Nebben" />
		<tag k="natural" v="ridge" />
		<tag k="place" v="locality" />
		<tag k="ssr:stedsnr" v="531868" />
	</node>
	<node lat="66.35583332897734" lon="13.223200004057604" id="-10707">
		<tag k="name" v="Pollgrova" />
		<tag k="natural" v="valley" />
		<tag k="place" v="locality" />
		<tag k="ssr:stedsnr" v="561817" />
	</node>
	<node lat="66.34729444225452" lon="13.044761119388834" id="-10720">
		<tag k="fixme" v="consider natural=peak for the most distinct mountains in the district" />
		<tag k="name" v="Saufjellet" />
		<tag k="natural" v="hill" />
		<tag k="place" v="locality" />
		<tag k="ssr:stedsnr" v="562530" />
	</node>
	<node lat="66.47454721972993" lon="13.204011118687443" id="-10727">
		<tag k="fixme" v="consider natural=peak for the most distinct mountains in the district" />
		<tag k="name" v="Brenneshovudet" />
		<tag k="natural" v="hill" />
		<tag k="place" v="locality" />
		<tag k="ssr:stedsnr" v="562448" />
	</node>
	<node lat="66.36421111387229" lon="13.116230552932763" id="-10729">
		<tag k="fixme" v="consider natural=peak for the most distinct mountains in the district" />
		<tag k="name" v="Småtindan" />
		<tag k="natural" v="hill" />
		<tag k="place" v="locality" />
		<tag k="ssr:stedsnr" v="562502" />
	</node>
	<node lat="66.36431666614831" lon="13.06880277663274" id="-10730">
		<tag k="fixme" v="consider natural=peak for the most distinct mountains in the district" />
		<tag k="name" v="Finnskardaksla" />
		<tag k="natural" v="hill" />
		<tag k="place" v="locality" />
		<tag k="ssr:stedsnr" v="562506" />
	</node>
	<node lat="66.56067222064762" lon="12.631208327673468" id="-10739">
		<tag k="fixme" v="consider natural=peak for the most distinct mountains in the district" />
		<tag k="name" v="Lågfjellet" />
		<tag k="natural" v="hill" />
		<tag k="place" v="locality" />
		<tag k="ssr:stedsnr" v="562828" />
	</node>
	<node lat="66.50659444456932" lon="13.027877775579233" id="-10744">
		<tag k="name" v="Storbreivikhågen" />
		<tag k="natural" v="hill" />
		<tag k="place" v="locality" />
		<tag k="ssr:stedsnr" v="587821" />
	</node>
	<node lat="66.48145833467514" lon="12.935444438822" id="-10749">
		<tag k="name" v="Sjyvikhågen" />
		<tag k="natural" v="hill" />
		<tag k="place" v="locality" />
		<tag k="ssr:stedsnr" v="590353" />
	</node>
	<node lat="66.52176388472711" lon="12.992113892743784" id="-10750">
		<tag k="name" v="Småskaran" />
		<tag k="natural" v="valley" />
		<tag k="place" v="locality" />
		<tag k="ssr:stedsnr" v="591441" />
	</node>
	<node lat="66.5188027739913" lon="13.053675010241799" id="-10751">
		<tag k="name" v="Tverrlia" />
		<tag k="natural" v="slope" />
		<tag k="place" v="locality" />
		<tag k="ssr:stedsnr" v="591448" />
	</node>
	<node lat="66.4108277754985" lon="12.933563887798977" id="-10753">
		<tag k="name" v="Gammelgruva" />
		<tag k="place" v="locality" />
		<tag k="ssr:stedsnr" v="591138" />
	</node>
	<node lat="66.41606666631577" lon="12.865283326381986" id="-10761">
		<tag k="name" v="Libakkan" />
		<tag k="natural" v="slope" />
		<tag k="place" v="locality" />
		<tag k="ssr:stedsnr" v="591495" />
	</node>
	<node lat="66.55441666658915" lon="12.637255545801825" id="-10762">
		<tag k="name" v="Engan" />
		<tag k="natural" v="slope" />
		<tag k="place" v="locality" />
		<tag k="ssr:stedsnr" v="591694" />
	</node>
	<node lat="66.4739500035552" lon="13.121077788607705" id="-10764">
		<tag k="name" v="Rånbakkan" />
		<tag k="natural" v="slope" />
		<tag k="place" v="locality" />
		<tag k="ssr:stedsnr" v="591645" />
	</node>
	<node lat="66.42668333800462" lon="12.939408322962997" id="-10773">
		<tag k="fixme" v="consider natural=peak for the most distinct mountains in the district" />
		<tag k="name" v="Stigen" />
		<tag k="natural" v="hill" />
		<tag k="place" v="locality" />
		<tag k="ssr:stedsnr" v="622401" />
	</node>
	<node lat="66.49147499941164" lon="13.098436103543156" id="-10775">
		<tag k="name" v="Vardhågen" />
		<tag k="natural" v="hill" />
		<tag k="place" v="locality" />
		<tag k="ssr:stedsnr" v="622493" />
	</node>
	<node lat="66.36423611259846" lon="13.080052774596457" id="-10776">
		<tag k="name" v="Kvannholet" />
		<tag k="natural" v="valley" />
		<tag k="place" v="locality" />
		<tag k="ssr:stedsnr" v="622502" />
	</node>
	<node lat="66.44181666291604" lon="12.851905545216102" id="-10794">
		<tag k="fixme" v="consider natural=peak for the most distinct mountains in the district" />
		<tag k="name" v="Hagaråna" />
		<tag k="natural" v="hill" />
		<tag k="place" v="locality" />
		<tag k="ssr:stedsnr" v="622422" />
	</node>
	<node lat="66.39131666453085" lon="12.842686112469204" id="-10797">
		<tag k="name" v="Grønlia" />
		<tag k="natural" v="slope" />
		<tag k="place" v="locality" />
		<tag k="ssr:stedsnr" v="622559" />
	</node>
	<node lat="66.49895277354939" lon="13.0665444361239" id="-10814">
		<tag k="name" v="Klubben" />
		<tag k="natural" v="ridge" />
		<tag k="place" v="locality" />
		<tag k="ssr:stedsnr" v="651372" />
	</node>
	<node lat="66.5560388917295" lon="12.624966667473464" id="-10817">
		<tag k="name" v="Ramndalen" />
		<tag k="natural" v="valley" />
		<tag k="place" v="locality" />
		<tag k="ssr:stedsnr" v="651723" />
	</node>
	<node lat="66.36181388528895" lon="12.354061115350602" id="-10818">
		<tag k="name" v="Litlnøva" />
		<tag k="natural" v="ridge" />
		<tag k="place" v="locality" />
		<tag k="ssr:stedsnr" v="652165" />
	</node>
	<node lat="66.35439444162617" lon="12.333322218274933" id="-10819">
		<tag k="name" v="Vottvika" />
		<tag k="natural" v="valley" />
		<tag k="place" v="locality" />
		<tag k="ssr:stedsnr" v="652169" />
	</node>
	<node lat="66.34062778055375" lon="13.033169451239427" id="-10820">
		<tag k="name" v="Svahellan" />
		<tag k="natural" v="slope" />
		<tag k="place" v="locality" />
		<tag k="ssr:stedsnr" v="652170" />
	</node>
	<node lat="66.34647777429085" lon="13.019638892729308" id="-10822">
		<tag k="name" v="Bjørndalen" />
		<tag k="natural" v="valley" />
		<tag k="place" v="locality" />
		<tag k="ssr:stedsnr" v="652173" />
	</node>
	<node lat="66.51234722459077" lon="13.025488882388853" id="-10823">
		<tag k="fixme" v="consider natural=peak for the most distinct mountains in the district" />
		<tag k="name" v="Ørntuva" />
		<tag k="natural" v="hill" />
		<tag k="place" v="locality" />
		<tag k="ssr:stedsnr" v="652426" />
	</node>
	<node lat="66.4540444484554" lon="13.188944433943265" id="-10831">
		<tag k="name" v="Blautmyrdalen" />
		<tag k="natural" v="valley" />
		<tag k="place" v="locality" />
		<tag k="ssr:stedsnr" v="652813" />
	</node>
	<node lat="66.47896944231063" lon="13.117194447757942" id="-10834">
		<tag k="name" v="Ørnrevet" />
		<tag k="natural" v="cliff" />
		<tag k="ssr:stedsnr" v="652668" />
	</node>
	<node lat="66.4759472196392" lon="13.118330558658577" id="-10835">
		<tag k="name" v="Kompusflogan" />
		<tag k="natural" v="cliff" />
		<tag k="ssr:stedsnr" v="652674" />
	</node>
	<node lat="66.4003194483987" lon="13.088166667287117" id="-10838">
		<tag k="name" v="Hjartaksla" />
		<tag k="natural" v="ridge" />
		<tag k="place" v="locality" />
		<tag k="ssr:stedsnr" v="652852" />
	</node>
	<node lat="66.4026638914801" lon="13.102991668907068" id="-10839">
		<tag k="name" v="Alderfjellet" />
		<tag k="natural" v="cliff" />
		<tag k="ssr:stedsnr" v="652854" />
	</node>
	<node lat="66.33329999778374" lon="13.170780556881201" id="-10844">
		<tag k="name" v="Grøva" />
		<tag k="natural" v="valley" />
		<tag k="place" v="locality" />
		<tag k="ssr:stedsnr" v="652874" />
	</node>
	<node lat="66.38698610790472" lon="13.191758325160007" id="-10846">
		<tag k="name" v="Storlia" />
		<tag k="natural" v="slope" />
		<tag k="place" v="locality" />
		<tag k="ssr:stedsnr" v="652960" />
	</node>
	<node lat="66.40377777836942" lon="13.072997212050865" id="-10849">
		<tag k="name" v="Botnvasshågen" />
		<tag k="natural" v="hill" />
		<tag k="place" v="locality" />
		<tag k="ssr:stedsnr" v="712160" />
	</node>
	<node lat="66.48739166925455" lon="12.942786117104724" id="-10854">
		<tag k="name" v="Moa" />
		<tag k="place" v="locality" />
		<tag k="ssr:stedsnr" v="712235" />
	</node>
	<node lat="66.52268611322758" lon="12.828769440608282" id="-10855">
		<tag k="name" v="Nonshågen" />
		<tag k="natural" v="hill" />
		<tag k="place" v="locality" />
		<tag k="ssr:stedsnr" v="712637" />
	</node>
	<node lat="66.57625000329058" lon="12.648911120179356" id="-10856">
		<tag k="name" v="Haraldslia" />
		<tag k="natural" v="slope" />
		<tag k="place" v="locality" />
		<tag k="ssr:stedsnr" v="712642" />
	</node>
	<node lat="66.57668333024957" lon="12.657213896841956" id="-10857">
		<tag k="name" v="Storlia" />
		<tag k="natural" v="slope" />
		<tag k="place" v="locality" />
		<tag k="ssr:stedsnr" v="712649" />
	</node>
	<node lat="66.33663333236183" lon="12.647055561847244" id="-10858">
		<tag k="name" v="Toppfloget" />
		<tag k="place" v="locality" />
		<tag k="ssr:stedsnr" v="712663" />
	</node>
	<node lat="66.5531388848864" lon="12.62014721196614" id="-10862">
		<tag k="name" v="Sjyhågen" />
		<tag k="natural" v="hill" />
		<tag k="place" v="locality" />
		<tag k="ssr:stedsnr" v="712713" />
	</node>
	<node lat="66.41493333314152" lon="12.943436108470168" id="-10863">
		<tag k="name" v="Stigtindan" />
		<tag k="natural" v="hill" />
		<tag k="place" v="locality" />
		<tag k="ssr:stedsnr" v="713154" />
	</node>
	<node lat="66.51727221970313" lon="13.011622232981814" id="-10864">
		<tag k="name" v="Pinhågen" />
		<tag k="natural" v="hill" />
		<tag k="place" v="locality" />
		<tag k="ssr:stedsnr" v="713446" />
	</node>
	<node lat="66.51760833292718" lon="13.002269451263073" id="-10866">
		<tag k="name" v="Langdalen" />
		<tag k="natural" v="valley" />
		<tag k="place" v="locality" />
		<tag k="ssr:stedsnr" v="713470" />
	</node>
	<node lat="66.40006666586898" lon="12.876497219876837" id="-10868">
		<tag k="name" v="Valhågan" />
		<tag k="natural" v="hill" />
		<tag k="place" v="locality" />
		<tag k="ssr:stedsnr" v="713381" />
	</node>
	<node lat="66.39474444182149" lon="12.870016669177252" id="-10872">
		<tag k="name" v="Rundklubben" />
		<tag k="natural" v="hill" />
		<tag k="place" v="locality" />
		<tag k="ssr:stedsnr" v="713423" />
	</node>
	<node lat="66.4812777815753" lon="13.154697230418286" id="-10873">
		<tag k="name" v="Saltuva" />
		<tag k="natural" v="hill" />
		<tag k="place" v="locality" />
		<tag k="ssr:stedsnr" v="713719" />
	</node>
	<node lat="66.4766888886212" lon="13.113502774456018" id="-10874">
		<tag k="name" v="Lauklia" />
		<tag k="natural" v="slope" />
		<tag k="place" v="locality" />
		<tag k="ssr:stedsnr" v="713721" />
	</node>
	<node lat="66.41049722217572" lon="12.868719452546777" id="-10879">
		<tag k="name" v="Kleivhågen" />
		<tag k="natural" v="hill" />
		<tag k="place" v="locality" />
		<tag k="ssr:stedsnr" v="713549" />
	</node>
	<node lat="66.43049722681567" lon="12.846213882089327" id="-10880">
		<tag k="name" v="Hubrokleiva" />
		<tag k="natural" v="slope" />
		<tag k="place" v="locality" />
		<tag k="ssr:stedsnr" v="713567" />
	</node>
	<node lat="66.43227777485622" lon="12.844844450536316" id="-10881">
		<tag k="name" v="Hagskaret" />
		<tag k="natural" v="valley" />
		<tag k="place" v="locality" />
		<tag k="ssr:stedsnr" v="713570" />
	</node>
	<node lat="66.4607944442546" lon="13.134633324484406" id="-10885">
		<tag k="name" v="Oterstua" />
		<tag k="place" v="locality" />
		<tag k="ssr:stedsnr" v="713846" />
	</node>
	<node lat="66.4626499994336" lon="13.096022229881973" id="-10886">
		<tag k="name" v="Valbergan" />
		<tag k="natural" v="slope" />
		<tag k="place" v="locality" />
		<tag k="ssr:stedsnr" v="713851" />
	</node>
	<node lat="66.36144444641124" lon="12.571374992453267" id="-10887">
		<tag k="name" v="Grindhågen" />
		<tag k="natural" v="hill" />
		<tag k="place" v="locality" />
		<tag k="ssr:stedsnr" v="713867" />
	</node>
	<node lat="66.38341388801078" lon="13.180225001712436" id="-10889">
		<tag k="name" v="Kleivan" />
		<tag k="natural" v="slope" />
		<tag k="place" v="locality" />
		<tag k="ssr:stedsnr" v="713946" />
	</node>
	<node lat="66.42586666418613" lon="12.896036121440485" id="-10909">
		<tag k="name" v="Engra" />
		<tag k="place" v="locality" />
		<tag k="ssr:stedsnr" v="744372" />
	</node>
	<node lat="66.32799722502507" lon="13.036811119810583" id="-10912">
		<tag k="alt_name" v="Varphagen" />
		<tag k="name" v="Varphågen" />
		<tag k="natural" v="hill" />
		<tag k="place" v="locality" />
		<tag k="ssr:stedsnr" v="744499" />
	</node>
	<node lat="66.3608055555944" lon="13.172852779289235" id="-10917">
		<tag k="fixme" v="consider natural=peak for the most distinct mountains in the district" />
		<tag k="name" v="Kallen" />
		<tag k="natural" v="hill" />
		<tag k="place" v="locality" />
		<tag k="ssr:stedsnr" v="744460" />
	</node>
	<node lat="66.5526722235715" lon="12.624261111861292" id="-10928">
		<tag k="name" v="Rabben" />
		<tag k="natural" v="hill" />
		<tag k="place" v="locality" />
		<tag k="ssr:stedsnr" v="772737" />
	</node>
	<node lat="66.31955833405449" lon="13.099591661286619" id="-10929">
		<tag k="name" v="Ørnhågen" />
		<tag k="natural" v="hill" />
		<tag k="place" v="locality" />
		<tag k="ssr:stedsnr" v="773266" />
	</node>
	<node lat="66.39577221926102" lon="12.876377784630845" id="-10930">
		<tag k="name" v="Litlskutan" />
		<tag k="natural" v="hill" />
		<tag k="place" v="locality" />
		<tag k="ssr:stedsnr" v="773425" />
	</node>
	<node lat="66.51377499929156" lon="13.0263527775039" id="-10932">
		<tag k="name" v="Hellarholet" />
		<tag k="natural" v="valley" />
		<tag k="place" v="locality" />
		<tag k="ssr:stedsnr" v="773446" />
	</node>
	<node lat="66.57702222505347" lon="12.66166944075074" id="-10933">
		<tag k="name" v="Brekkan" />
		<tag k="natural" v="slope" />
		<tag k="place" v="locality" />
		<tag k="ssr:stedsnr" v="773651" />
	</node>
	<node lat="66.37999722426083" lon="13.094983331541656" id="-10935">
		<tag k="name" v="Hauglandstuva" />
		<tag k="natural" v="slope" />
		<tag k="place" v="locality" />
		<tag k="ssr:stedsnr" v="773972" />
	</node>
	<node lat="66.41556666882623" lon="12.922294446669378" id="-10936">
		<tag k="name" v="Vedskaret" />
		<tag k="natural" v="valley" />
		<tag k="place" v="locality" />
		<tag k="ssr:stedsnr" v="774585" />
	</node>
	<node lat="66.41234167025215" lon="13.1161527814418" id="-10941">
		<tag k="name" v="Storlirabben" />
		<tag k="natural" v="ridge" />
		<tag k="place" v="locality" />
		<tag k="ssr:stedsnr" v="774878" />
	</node>
	<node lat="66.44810555384284" lon="12.844941665913797" id="-10943">
		<tag k="name" v="Lurøymolla" />
		<tag k="natural" v="slope" />
		<tag k="place" v="locality" />
		<tag k="ssr:stedsnr" v="774646" />
	</node>
	<node lat="66.4721555529642" lon="13.177586113267225" id="-10944">
		<tag k="name" v="Nordenget" />
		<tag k="natural" v="valley" />
		<tag k="place" v="locality" />
		<tag k="ssr:stedsnr" v="774732" />
	</node>
	<node lat="66.45973333606015" lon="13.169691670080876" id="-10947">
		<tag k="name" v="Snøkvitbakkan" />
		<tag k="natural" v="slope" />
		<tag k="place" v="locality" />
		<tag k="ssr:stedsnr" v="774842" />
	</node>
	<node lat="66.33593610835835" lon="13.045391661057971" id="-10964">
		<tag k="name" v="Stordalen" />
		<tag k="natural" v="valley" />
		<tag k="place" v="locality" />
		<tag k="ssr:stedsnr" v="804625" />
	</node>
	<node lat="66.44642777669003" lon="12.869980559843414" id="-10967">
		<tag k="fixme" v="consider natural=peak for the most distinct mountains in the district" />
		<tag k="name" v="Litllurøyfjellet" />
		<tag k="natural" v="hill" />
		<tag k="place" v="locality" />
		<tag k="ssr:stedsnr" v="805464" />
	</node>
	<node lat="66.48083611336713" lon="13.178941671219784" id="-10968">
		<tag k="name" v="Finnlægran" />
		<tag k="natural" v="ridge" />
		<tag k="place" v="locality" />
		<tag k="ssr:stedsnr" v="805472" />
	</node>
	<node lat="66.41536111440382" lon="12.870577771552114" id="-10991">
		<tag k="fixme" v="consider natural=peak for the most distinct mountains in the district" />
		<tag k="name" v="Middagsfjellet" />
		<tag k="natural" v="hill" />
		<tag k="place" v="locality" />
		<tag k="ssr:stedsnr" v="805402" />
	</node>
	<node lat="66.48693332970127" lon="12.883513891750093" id="-10997">
		<tag k="fixme" v="consider natural=peak for the most distinct mountains in the district" />
		<tag k="name" v="Rypnakken" />
		<tag k="natural" v="hill" />
		<tag k="place" v="locality" />
		<tag k="ssr:stedsnr" v="805501" />
	</node>
	<node lat="66.34470555823673" lon="13.023000000111862" id="-10999">
		<tag k="fixme" v="consider natural=peak for the most distinct mountains in the district" />
		<tag k="name" v="Bjørndalsaksla" />
		<tag k="natural" v="hill" />
		<tag k="place" v="locality" />
		<tag k="ssr:stedsnr" v="805527" />
	</node>
	<node lat="66.37881944749608" lon="13.009766659162004" id="-11021">
		<tag k="name" v="Stykkene" />
		<tag k="natural" v="slope" />
		<tag k="place" v="locality" />
		<tag k="ssr:stedsnr" v="834201" />
	</node>
	<node lat="66.39359444511004" lon="12.925352774035787" id="-11023">
		<tag k="name" v="Flagghågen" />
		<tag k="natural" v="hill" />
		<tag k="place" v="locality" />
		<tag k="ssr:stedsnr" v="834422" />
	</node>
	<node lat="66.51720000120429" lon="13.039813893887436" id="-11024">
		<tag k="name" v="Litlvasslia" />
		<tag k="natural" v="slope" />
		<tag k="place" v="locality" />
		<tag k="ssr:stedsnr" v="834457" />
	</node>
	<node lat="66.52120555525306" lon="12.835980556304083" id="-11029">
		<tag k="name" v="Arbeidshågen" />
		<tag k="natural" v="hill" />
		<tag k="place" v="locality" />
		<tag k="ssr:stedsnr" v="834656" />
	</node>
	<node lat="66.52259444102481" lon="12.831424989766889" id="-11030">
		<tag k="name" v="Fløyhågen" />
		<tag k="natural" v="hill" />
		<tag k="place" v="locality" />
		<tag k="ssr:stedsnr" v="834661" />
	</node>
	<node lat="66.55873611533946" lon="12.61503888799718" id="-11032">
		<tag k="name" v="Røsdalsfjellet" />
		<tag k="natural" v="cliff" />
		<tag k="ssr:stedsnr" v="834695" />
	</node>
	<node lat="66.39071666276469" lon="13.079608329614489" id="-11036">
		<tag k="name" v="Smørvollen" />
		<tag k="natural" v="slope" />
		<tag k="place" v="locality" />
		<tag k="ssr:stedsnr" v="834976" />
	</node>
	<node lat="66.34505555421657" lon="13.010050007012765" id="-11038">
		<tag k="name" v="Askobakkan" />
		<tag k="natural" v="slope" />
		<tag k="place" v="locality" />
		<tag k="ssr:stedsnr" v="835197" />
	</node>
	<node lat="66.38931667045942" lon="12.84965000919509" id="-11039">
		<tag k="name" v="Prestlia" />
		<tag k="natural" v="slope" />
		<tag k="place" v="locality" />
		<tag k="ssr:stedsnr" v="835390" />
	</node>
	<node lat="66.44336388459803" lon="13.155155553855204" id="-11041">
		<tag k="name" v="Stamstadbergan" />
		<tag k="natural" v="ridge" />
		<tag k="place" v="locality" />
		<tag k="ssr:stedsnr" v="835824" />
	</node>
	<node lat="66.36031944770563" lon="12.359722221576844" id="-11042">
		<tag k="name" v="Sørmarka" />
		<tag k="natural" v="slope" />
		<tag k="place" v="locality" />
		<tag k="ssr:stedsnr" v="835925" />
	</node>
	<node lat="66.50287499944251" lon="13.07975555384632" id="-11047">
		<tag k="name" v="Høydalshågen" />
		<tag k="natural" v="hill" />
		<tag k="place" v="locality" />
		<tag k="ssr:stedsnr" v="835690" />
	</node>
	<node lat="66.4671305574101" lon="13.197697231988784" id="-11049">
		<tag k="name" v="Storlia" />
		<tag k="natural" v="slope" />
		<tag k="place" v="locality" />
		<tag k="ssr:stedsnr" v="835697" />
	</node>
	<node lat="66.4139944469281" lon="13.155547225064257" id="-11053">
		<tag k="name" v="Heimerenget" />
		<tag k="natural" v="slope" />
		<tag k="place" v="locality" />
		<tag k="ssr:stedsnr" v="835866" />
	</node>
	<node lat="66.39975833623363" lon="13.082572231410653" id="-11081">
		<tag k="fixme" v="consider natural=peak for the most distinct mountains in the district" />
		<tag k="name" v="Kardakstinden" />
		<tag k="natural" v="hill" />
		<tag k="place" v="locality" />
		<tag k="ssr:stedsnr" v="866548" />
	</node>
	<node lat="66.40869623786045" lon="12.882485873509752" id="-11087">
		<tag k="name" v="Kastmona" />
		<tag k="natural" v="hill" />
		<tag k="place" v="locality" />
		<tag k="ssr:stedsnr" v="866350" />
	</node>
	<node lat="66.43165833676207" lon="12.84057222492286" id="-11101">
		<tag k="fixme" v="consider natural=peak for the most distinct mountains in the district" />
		<tag k="name" v="Hamnvikfjellet" />
		<tag k="natural" v="hill" />
		<tag k="place" v="locality" />
		<tag k="ssr:stedsnr" v="866388" />
	</node>
	<node lat="66.42689999734368" lon="13.078363878428798" id="-11102">
		<tag k="fixme" v="consider natural=peak for the most distinct mountains in the district" />
		<tag k="name" v="Humpan" />
		<tag k="natural" v="hill" />
		<tag k="place" v="locality" />
		<tag k="ssr:stedsnr" v="866392" />
	</node>
	<node lat="66.48172499646762" lon="13.123413882601332" id="-11106">
		<tag k="alt_name" v="Urdtinden" />
		<tag k="fixme" v="consider natural=peak for the most distinct mountains in the district" />
		<tag k="name" v="Ultinden" />
		<tag k="natural" v="hill" />
		<tag k="place" v="locality" />
		<tag k="ssr:stedsnr" v="866449" />
	</node>
	<node lat="66.36042778215256" lon="13.171505549770483" id="-11107">
		<tag k="fixme" v="consider natural=peak for the most distinct mountains in the district" />
		<tag k="name" v="Kjerringa" />
		<tag k="natural" v="hill" />
		<tag k="place" v="locality" />
		<tag k="ssr:stedsnr" v="866476" />
	</node>
	<node lat="66.33682222640935" lon="13.030877779463353" id="-11109">
		<tag k="name" v="Litldalen" />
		<tag k="natural" v="valley" />
		<tag k="place" v="locality" />
		<tag k="ssr:stedsnr" v="866499" />
	</node>
	<node lat="66.3817333326022" lon="12.845794454278243" id="-11112">
		<tag k="fixme" v="multiple name tags, choose one and add the other to alt_name; consider natural=peak for the most distinct mountains in the district" />
		<tag k="name" v="Stokksvikfjellet;Høgfjellet" />
		<tag k="natural" v="hill" />
		<tag k="place" v="locality" />
		<tag k="ssr:stedsnr" v="866583" />
	</node>
	<node lat="66.56263611000291" lon="12.651002771949173" id="-11131">
		<tag k="fixme" v="consider natural=peak for the most distinct mountains in the district" />
		<tag k="name" v="Langåsen" />
		<tag k="natural" v="hill" />
		<tag k="place" v="locality" />
		<tag k="ssr:stedsnr" v="954681" />
	</node>
	<node lat="66.50223333077984" lon="13.034105549399692" id="-11134">
		<tag k="name" v="Djupviknabben" />
		<tag k="natural" v="ridge" />
		<tag k="place" v="locality" />
		<tag k="ssr:stedsnr" v="955272" />
	</node>
	<node lat="66.37625277358352" lon="12.874611118545957" id="-11140">
		<tag k="name" v="Kjørravika" />
		<tag k="natural" v="valley" />
		<tag k="place" v="locality" />
		<tag k="ssr:stedsnr" v="955417" />
	</node>
	<node lat="66.51218888515172" lon="13.02106111183063" id="-11141">
		<tag k="name" v="Kleivnakkan" />
		<tag k="natural" v="ridge" />
		<tag k="place" v="locality" />
		<tag k="ssr:stedsnr" v="955465" />
	</node>
	<node lat="66.55281389055592" lon="12.6306722336873" id="-11145">
		<tag k="name" v="Gløsen" />
		<tag k="natural" v="hill" />
		<tag k="place" v="locality" />
		<tag k="ssr:stedsnr" v="955718" />
	</node>
	<node lat="66.32462499789469" lon="13.061822222837586" id="-11146">
		<tag k="name" v="Trolldalen" />
		<tag k="natural" v="valley" />
		<tag k="place" v="locality" />
		<tag k="ssr:stedsnr" v="956234" />
	</node>
	<node lat="66.4095444402547" lon="12.864458327203861" id="-11149">
		<tag k="name" v="Litlvikinghågen" />
		<tag k="natural" v="hill" />
		<tag k="place" v="locality" />
		<tag k="ssr:stedsnr" v="956584" />
	</node>
	<node lat="66.35945833775101" lon="12.569772223027448" id="-11154">
		<tag k="name" v="Sinkaberget" />
		<tag k="natural" v="hill" />
		<tag k="place" v="locality" />
		<tag k="ssr:stedsnr" v="956861" />
	</node>
	<node lat="66.40588888813411" lon="13.188199991639031" id="-11155">
		<tag k="name" v="Brattlandsfjellet" />
		<tag k="natural" v="cliff" />
		<tag k="ssr:stedsnr" v="956867" />
	</node>
</osm>
