<?xml version="1.0" encoding="UTF-8"?>
<osm generator="osmapis" version="0.6">
	<node id="-664055" lat="66.5022861138" lon="13.1049138941">
		<tag k="name" v="Øverkongsvik" />
		<tag k="place" v="farm" />
		<tag k="ssr:stedsnr" v="542827" />
	</node>
	<node id="-664565" lat="66.4604722181" lon="13.1239333214">
		<tag k="name" v="Finngammen" />
		<tag k="place" v="farm" />
		<tag k="ssr:stedsnr" v="788431" />
	</node>
	<node id="-664564" lat="66.4933527757" lon="13.108222228">
		<tag k="fixme" v="consider place=hamlet" />
		<tag k="loc_name" v="Nerkonsvik" />
		<tag k="name" v="Kongsvik nedre" />
		<tag k="place" v="farm" />
		<tag k="ssr:stedsnr" v="788402" />
	</node>
	<node id="-664563" lat="66.4966527795" lon="13.0764333393">
		<tag k="name" v="Øverkonsvik" />
		<tag k="place" v="farm" />
		<tag k="ssr:stedsnr" v="785791" />
	</node>
	<node id="-664562" lat="66.396236107" lon="13.1314333331">
		<tag k="name" v="Sørås" />
		<tag k="place" v="farm" />
		<tag k="ssr:stedsnr" v="774988" />
	</node>
	<node id="-664045" lat="66.4625916649" lon="13.161813885">
		<tag k="name" v="Staulen" />
		<tag k="place" v="farm" />
		<tag k="ssr:stedsnr" v="531857" />
	</node>
	<node id="-663019" lat="66.3962111158" lon="13.1067888815">
		<tag k="name" v="Skrapteigen" />
		<tag k="place" v="farm" />
		<tag k="ssr:stedsnr" v="379574" />
	</node>
	<node id="-663529" lat="66.373958337" lon="13.0664250037">
		<tag k="name" v="Seljeneset" />
		<tag k="place" v="farm" />
		<tag k="ssr:stedsnr" v="137592" />
	</node>
	<node id="-663015" lat="66.3908972225" lon="12.815202776">
		<tag k="name" v="Ørnvika" />
		<tag k="place" v="farm" />
		<tag k="ssr:stedsnr" v="379553" />
	</node>
	<node id="-663011" lat="66.4597611091" lon="13.1267027673">
		<tag k="name" v="Gammen" />
		<tag k="place" v="farm" />
		<tag k="ssr:stedsnr" v="379420" />
	</node>
	<node id="-664034" lat="66.4281111105" lon="12.8424416767">
		<tag k="name" v="Hamnvika" />
		<tag k="place" v="farm" />
		<tag k="ssr:stedsnr" v="531591" />
	</node>
	<node id="-663521" lat="66.4046611091" lon="13.119636105">
		<tag k="name" v="Nordheim" />
		<tag k="place" v="farm" />
		<tag k="ssr:stedsnr" v="137554" />
	</node>
	<node id="-664029" lat="66.3724194465" lon="12.338986102">
		<tag k="name" v="Vassvika" />
		<tag k="place" v="farm" />
		<tag k="ssr:stedsnr" v="531205" />
	</node>
	<node id="-663516" lat="66.3234833349" lon="13.108324995">
		<tag k="fixme" v="multiple name tags, choose one and add the other to alt_name" />
		<tag k="name" v="Bogen;Skogan" />
		<tag k="place" v="farm" />
		<tag k="ssr:stedsnr" v="137517" />
	</node>
	<node id="-663514" lat="66.3398361133" lon="13.1460555578">
		<tag k="name" v="Fagertun" />
		<tag k="place" v="farm" />
		<tag k="ssr:stedsnr" v="137501" />
	</node>
	<node id="-664536" lat="66.370075003" lon="12.3601277738">
		<tag k="fixme" v="consider place=suburb, village or hamlet" />
		<tag k="name" v="Strand" />
		<tag k="place" v="quarter" />
		<tag k="ssr:stedsnr" v="773875" />
	</node>
	<node id="-663511" lat="66.4981666676" lon="13.127605557">
		<tag k="name" v="Salen" />
		<tag k="place" v="farm" />
		<tag k="ssr:stedsnr" v="137483" />
	</node>
	<node id="-663501" lat="66.4300388887" lon="13.0441222238">
		<tag k="name" v="Stuvland" />
		<tag k="place" v="farm" />
		<tag k="ssr:stedsnr" v="137397" />
	</node>
	<node id="-662987" lat="66.4151861137" lon="13.1538222302">
		<tag k="name" v="Liheim" />
		<tag k="place" v="farm" />
		<tag k="ssr:stedsnr" v="349892" />
	</node>
	<node id="-664000" lat="66.4083333371" lon="13.1640055664">
		<tag k="name" v="Brattland" />
		<tag k="place" v="farm" />
		<tag k="ssr:stedsnr" v="502569" />
	</node>
	<node id="-664503" lat="66.5545194412" lon="12.6195888984">
		<tag k="name" v="Kalvdalen" />
		<tag k="place" v="farm" />
		<tag k="ssr:stedsnr" v="744813" />
	</node>
	<node id="-664498" lat="66.3695861133" lon="13.0502277825">
		<tag k="name" v="Laukbakken" />
		<tag k="place" v="farm" />
		<tag k="ssr:stedsnr" v="744589" />
	</node>
	<node id="-663795" lat="66.5746166682" lon="12.6789166772">
		<tag k="name" v="Korsvika" />
		<tag k="place" v="farm" />
		<tag k="ssr:stedsnr" v="259801" />
	</node>
	<node id="-664496" lat="66.381138888" lon="13.0212388825">
		<tag k="name" v="Hjart" />
		<tag k="place" v="farm" />
		<tag k="ssr:stedsnr" v="744567" />
	</node>
	<node id="-663980" lat="66.3468083301" lon="13.1545694476">
		<tag k="name" v="Sommarset" />
		<tag k="place" v="farm" />
		<tag k="ssr:stedsnr" v="501514" />
	</node>
	<node id="-662952" lat="66.3971666678" lon="12.8671166688">
		<tag k="name" v="Nygården" />
		<tag k="place" v="farm" />
		<tag k="ssr:stedsnr" v="348416" />
	</node>
	<node id="-663463" lat="66.502166663" lon="13.1053499955">
		<tag k="name" v="Kongsvik øvre" />
		<tag k="place" v="farm" />
		<tag k="ssr:stedsnr" v="118778" />
	</node>
	<node id="-664486" lat="66.4966222259" lon="13.076813883">
		<tag k="name" v="Engevollen" />
		<tag k="place" v="farm" />
		<tag k="ssr:stedsnr" v="744454" />
	</node>
	<node id="-663971" lat="66.4357916634" lon="12.836677772">
		<tag k="name" v="Hagen" />
		<tag k="place" v="farm" />
		<tag k="ssr:stedsnr" v="501410" />
	</node>
	<node id="-664482" lat="66.4646944422" lon="13.1742805521">
		<tag k="alt_name" v="Eidjorda" />
		<tag k="name" v="Eiordet" />
		<tag k="place" v="farm" />
		<tag k="ssr:stedsnr" v="744429" />
	</node>
	<node id="-663968" lat="66.4298722232" lon="13.143863891">
		<tag k="name" v="Lia" />
		<tag k="place" v="farm" />
		<tag k="ssr:stedsnr" v="501393" />
	</node>
	<node id="-663762" lat="66.5227138909" lon="12.818849992">
		<tag k="name" v="Vågen" />
		<tag k="place" v="farm" />
		<tag k="ssr:stedsnr" v="259051" />
	</node>
	<node id="-664475" lat="66.447477777" lon="12.9198027696">
		<tag k="name" v="Lurøysundet" />
		<tag k="place" v="farm" />
		<tag k="ssr:stedsnr" v="744383" />
	</node>
	<node id="-663962" lat="66.3689083375" lon="12.3642000073">
		<tag k="fixme" v="consider place=suburb, village or hamlet" />
		<tag k="name" v="Lovund" />
		<tag k="place" v="quarter" />
		<tag k="ssr:stedsnr" v="501353" />
	</node>
	<node id="-663960" lat="66.3636472235" lon="12.6083083347">
		<tag k="fixme" v="consider place=suburb, village or hamlet" />
		<tag k="name" v="Sleneset" />
		<tag k="place" v="quarter" />
		<tag k="ssr:stedsnr" v="501340" />
	</node>
	<node id="-662935" lat="66.3321638919" lon="13.0176583362">
		<tag k="name" v="Enge" />
		<tag k="place" v="farm" />
		<tag k="ssr:stedsnr" v="320522" />
	</node>
	<node id="-663898" lat="66.398794449" lon="12.8764916621">
		<tag k="name" v="Inneronøygården" />
		<tag k="place" v="farm" />
		<tag k="ssr:stedsnr" v="470398" />
	</node>
	<node id="-662923" lat="66.5186333301" lon="12.8191055562">
		<tag k="alt_name" v="Jektvika" />
		<tag k="name" v="Jaktvika" />
		<tag k="place" v="farm" />
		<tag k="ssr:stedsnr" v="320066" />
	</node>
	<node id="-663938" lat="66.4583555551" lon="13.1262472219">
		<tag k="fixme" v="consider place=hamlet" />
		<tag k="name" v="Finngammen" />
		<tag k="place" v="farm" />
		<tag k="ssr:stedsnr" v="484415" />
	</node>
	<node id="-663420" lat="66.3772194408" lon="12.8424305552">
		<tag k="name" v="Stokkvik" />
		<tag k="place" v="locality" />
		<tag k="ssr:stedsnr" v="106427" />
	</node>
	<node id="-663415" lat="66.3247305557" lon="13.0413194396">
		<tag k="name" v="Medskaret" />
		<tag k="place" v="farm" />
		<tag k="ssr:stedsnr" v="106235" />
	</node>
	<node id="-662900" lat="66.4616361121" lon="13.103966659">
		<tag k="alt_name" v="Stormyra" />
		<tag k="name" v="Stormyran" />
		<tag k="place" v="farm" />
		<tag k="ssr:stedsnr" v="319421" />
	</node>
	<node id="-662899" lat="66.4479666703" lon="13.1773694391">
		<tag k="alt_name" v="Urdvikvatnet" />
		<tag k="name" v="Olvikvatnet" />
		<tag k="place" v="farm" />
		<tag k="ssr:stedsnr" v="319411" />
	</node>
	<node id="-662898" lat="66.4199861149" lon="12.8619138912">
		<tag k="name" v="Lurøygården" />
		<tag k="place" v="farm" />
		<tag k="ssr:stedsnr" v="319370" />
	</node>
	<node id="-664433" lat="66.3649527799" lon="12.360202774">
		<tag k="fixme" v="consider place=suburb, village or hamlet" />
		<tag k="name" v="Vika" />
		<tag k="place" v="quarter" />
		<tag k="ssr:stedsnr" v="713916" />
	</node>
	<node id="-663403" lat="66.5809694401" lon="12.6219166665">
		<tag k="name" v="Seljedalen" />
		<tag k="place" v="farm" />
		<tag k="ssr:stedsnr" v="92564" />
	</node>
	<node id="-664419" lat="66.5022416706" lon="13.1014666638">
		<tag k="name" v="Kongsvik øvre" />
		<tag k="place" v="hamlet" />
		<tag k="ssr:stedsnr" v="713695" />
	</node>
	<node id="-662882" lat="66.5165500043" lon="13.1104888906">
		<tag k="name" v="Solstad" />
		<tag k="place" v="farm" />
		<tag k="ssr:stedsnr" v="319166" />
	</node>
	<node id="-664412" lat="66.4119083365" lon="12.8511722244">
		<tag k="name" v="Knarrosvika" />
		<tag k="place" v="farm" />
		<tag k="ssr:stedsnr" v="713595" />
	</node>
	<node id="-662874" lat="66.513994441" lon="13.0143833302">
		<tag k="fixme" v="consider place=hamlet" />
		<tag k="name" v="Tonnes" />
		<tag k="place" v="village" />
		<tag k="ssr:stedsnr" v="319086" />
	</node>
	<node id="-664919" lat="66.305998245" lon="12.4925315993">
		<tag k="name" v="Sengsdraget" />
		<tag k="place" v="farm" />
		<tag k="ssr:stedsnr" v="975776" />
	</node>
	<node id="-664917" lat="66.3785111133" lon="13.0897583249">
		<tag k="name" v="Reismarka" />
		<tag k="place" v="farm" />
		<tag k="ssr:stedsnr" v="956992" />
	</node>
	<node id="-664916" lat="66.3836249965" lon="13.1010027697">
		<tag k="name" v="Hauglandstranda" />
		<tag k="place" v="farm" />
		<tag k="ssr:stedsnr" v="956990" />
	</node>
	<node id="-663378" lat="66.4270138909" lon="12.8328805668">
		<tag k="fixme" v="multiple name tags, choose one and add the other to alt_name" />
		<tag k="name" v="Sjyvika;Skjørvika" />
		<tag k="place" v="farm" />
		<tag k="ssr:stedsnr" v="77427" />
	</node>
	<node id="-663777" lat="66.4261055547" lon="13.0462555654">
		<tag k="name" v="Nergården" />
		<tag k="place" v="farm" />
		<tag k="ssr:stedsnr" v="259387" />
	</node>
	<node id="-663876" lat="66.3786972232" lon="13.0920416772">
		<tag k="name" v="Stokksågbakken" />
		<tag k="place" v="farm" />
		<tag k="ssr:stedsnr" v="450960" />
	</node>
	<node id="-664892" lat="66.4010722185" lon="12.8609250083">
		<tag k="fixme" v="consider place=suburb, village or hamlet" />
		<tag k="name" v="Demmahågen" />
		<tag k="place" v="quarter" />
		<tag k="ssr:stedsnr" v="956428" />
	</node>
	<node id="-663867" lat="66.3820111073" lon="13.0982972232">
		<tag k="name" v="Stokksågbakken" />
		<tag k="place" v="farm" />
		<tag k="ssr:stedsnr" v="441621" />
	</node>
	<node id="-664376" lat="66.4866749969" lon="12.9596333287">
		<tag k="name" v="Bakken" />
		<tag k="place" v="farm" />
		<tag k="ssr:stedsnr" v="712463" />
	</node>
	<node id="-663863" lat="66.3345277752" lon="13.1499416752">
		<tag k="name" v="Elvebakken" />
		<tag k="place" v="farm" />
		<tag k="ssr:stedsnr" v="441544" />
	</node>
	<node id="-663862" lat="66.3297611087" lon="13.0212333284">
		<tag k="name" v="Moa" />
		<tag k="place" v="farm" />
		<tag k="ssr:stedsnr" v="441540" />
	</node>
	<node id="-663861" lat="66.3394388914" lon="13.1511805621">
		<tag k="name" v="Vangen" />
		<tag k="place" v="farm" />
		<tag k="ssr:stedsnr" v="441519" />
	</node>
	<node id="-664370" lat="66.3169916673" lon="13.0879638813">
		<tag k="name" v="Røytvika" />
		<tag k="place" v="farm" />
		<tag k="ssr:stedsnr" v="712014" />
	</node>
	<node id="-662832" lat="66.4598249985" lon="12.9424194533">
		<tag k="name" v="Klungervika" />
		<tag k="place" v="farm" />
		<tag k="ssr:stedsnr" v="288330" />
	</node>
	<node id="-664878" lat="66.5761388872" lon="12.6295638938">
		<tag k="name" v="Solavik" />
		<tag k="place" v="farm" />
		<tag k="ssr:stedsnr" v="955673" />
	</node>
	<node id="-663346" lat="66.4444083321" lon="12.8330944485">
		<tag k="alt_name" v="Guravika" />
		<tag k="name" v="Guravik" />
		<tag k="place" v="farm" />
		<tag k="ssr:stedsnr" v="76468" />
	</node>
	<node id="-664362" lat="66.3315499977" lon="13.015519438">
		<tag k="name" v="Selnes" />
		<tag k="place" v="farm" />
		<tag k="ssr:stedsnr" v="684541" />
	</node>
	<node id="-663849" lat="66.4796333311" lon="13.1038694393">
		<tag k="name" v="Breivika" />
		<tag k="place" v="farm" />
		<tag k="ssr:stedsnr" v="441454" />
	</node>
	<node id="-663844" lat="66.4246138886" lon="13.0447000037">
		<tag k="name" v="Sørgården" />
		<tag k="place" v="farm" />
		<tag k="ssr:stedsnr" v="441395" />
	</node>
	<node id="-664355" lat="66.5013166692" lon="13.0310250084">
		<tag k="name" v="Djupvika" />
		<tag k="place" v="farm" />
		<tag k="ssr:stedsnr" v="684158" />
	</node>
	<node id="-663841" lat="66.4104888926" lon="12.8633861062">
		<tag k="name" v="Solheim" />
		<tag k="place" v="farm" />
		<tag k="ssr:stedsnr" v="441372" />
	</node>
	<node id="-663326" lat="66.4000305582" lon="13.1508861003">
		<tag k="name" v="Fredheim" />
		<tag k="place" v="farm" />
		<tag k="ssr:stedsnr" v="46876" />
	</node>
	<node id="-663324" lat="66.44076667" lon="13.146916668">
		<tag k="name" v="Olvik" />
		<tag k="place" v="farm" />
		<tag k="ssr:stedsnr" v="46868" />
	</node>
	<node id="-664111" lat="66.5700027733" lon="12.6494805561">
		<tag k="alt_name" v="Smååkerhaugen" />
		<tag k="name" v="Smååkerhågen" />
		<tag k="place" v="farm" />
		<tag k="ssr:stedsnr" v="562787" />
	</node>
	<node id="-663832" lat="66.5035749999" lon="13.0895694465">
		<tag k="name" v="Skoglund" />
		<tag k="place" v="farm" />
		<tag k="ssr:stedsnr" v="441150" />
	</node>
	<node id="-663829" lat="66.5236166696" lon="12.8422472266">
		<tag k="alt_name" v="Myra" />
		<tag k="name" v="Myren" />
		<tag k="place" v="farm" />
		<tag k="ssr:stedsnr" v="441056" />
	</node>
	<node id="-664340" lat="66.4669500007" lon="13.1683972139">
		<tag k="fixme" v="consider place=suburb, village or hamlet" />
		<tag k="name" v="Kvina" />
		<tag k="place" v="quarter" />
		<tag k="ssr:stedsnr" v="683440" />
	</node>
	<node id="-663826" lat="66.4006222269" lon="13.1545555511">
		<tag k="alt_name" v="Åsvika" />
		<tag k="name" v="Åsvik" />
		<tag k="place" v="farm" />
		<tag k="ssr:stedsnr" v="440572" />
	</node>
	<node id="-663825" lat="66.397963885" lon="13.1346777689">
		<tag k="name" v="Ås" />
		<tag k="place" v="hamlet" />
		<tag k="ssr:stedsnr" v="440571" />
	</node>
	<node id="-663824" lat="66.3913861096" lon="12.8305166586">
		<tag k="alt_name" v="Kyvollen" />
		<tag k="name" v="Kyrvollen" />
		<tag k="place" v="farm" />
		<tag k="ssr:stedsnr" v="440565" />
	</node>
	<node id="-663821" lat="66.4603083325" lon="13.1138305544">
		<tag k="name" v="Engevika" />
		<tag k="place" v="farm" />
		<tag k="ssr:stedsnr" v="440448" />
	</node>
	<node id="-664844" lat="66.5675305515" lon="12.6650833439">
		<tag k="alt_name" v="Øyvollen" />
		<tag k="name" v="Øyvoll" />
		<tag k="place" v="farm" />
		<tag k="ssr:stedsnr" v="927792" />
	</node>
	<node id="-663305" lat="66.3926111134" lon="13.1281361021">
		<tag k="name" v="Åsheim" />
		<tag k="place" v="farm" />
		<tag k="ssr:stedsnr" v="45963" />
	</node>
	<node id="-664840" lat="66.3420722208" lon="13.1548583274">
		<tag k="name" v="Soleng" />
		<tag k="place" v="farm" />
		<tag k="ssr:stedsnr" v="927519" />
	</node>
	<node id="-664837" lat="66.4028194401" lon="12.9117972309">
		<tag k="alt_name" v="Gognstøa" />
		<tag k="name" v="Gongstøa" />
		<tag k="place" v="farm" />
		<tag k="ssr:stedsnr" v="927412" />
	</node>
	<node id="-664832" lat="66.5014611087" lon="13.1057250037">
		<tag k="name" v="Hopanenget" />
		<tag k="place" v="farm" />
		<tag k="ssr:stedsnr" v="927164" />
	</node>
	<node id="-663806" lat="66.4997527761" lon="13.1030833359">
		<tag k="name" v="Haugen" />
		<tag k="old_name" v="Kongsvik øvre" />
		<tag k="place" v="farm" />
		<tag k="ssr:stedsnr" v="421808" />
	</node>
	<node id="-663291" lat="66.535808332" lon="12.8717805442">
		<tag k="name" v="Fjellheim" />
		<tag k="place" v="farm" />
		<tag k="ssr:stedsnr" v="45621" />
	</node>
	<node id="-663802" lat="66.4990583334" lon="13.0902083259">
		<tag k="alt_name" v="Kongsvik" />
		<tag k="name" v="Konsvika" />
		<tag k="place" v="hamlet" />
		<tag k="ssr:stedsnr" v="268251" />
	</node>
	<node id="-664313" lat="66.4996111073" lon="13.0972694466">
		<tag k="name" v="Vollen" />
		<tag k="old_name" v="Kongsvik øvre" />
		<tag k="place" v="farm" />
		<tag k="ssr:stedsnr" v="664813" />
	</node>
	<node id="-664312" lat="66.3813833297" lon="12.8262444421">
		<tag k="name" v="Klungervika" />
		<tag k="place" v="farm" />
		<tag k="ssr:stedsnr" v="657214" />
	</node>
	<node id="-663798" lat="66.5634805575" lon="12.618574999">
		<tag k="name" v="Birkelund" />
		<tag k="place" v="farm" />
		<tag k="ssr:stedsnr" v="259842" />
	</node>
	<node id="-664819" lat="66.3848222253" lon="13.1068777826">
		<tag k="name" v="Haugland" />
		<tag k="place" v="farm" />
		<tag k="ssr:stedsnr" v="926591" />
	</node>
	<node id="-664817" lat="66.3788249989" lon="13.0919055497">
		<tag k="name" v="Maursletta" />
		<tag k="place" v="farm" />
		<tag k="ssr:stedsnr" v="926579" />
	</node>
	<node id="-663278" lat="66.3706361071" lon="12.3201638941">
		<tag k="name" v="Hestvika" />
		<tag k="place" v="locality" />
		<tag k="ssr:stedsnr" v="45217" />
	</node>
	<node id="-663250" lat="66.3438638874" lon="13.1490249929">
		<tag k="name" v="Myrset" />
		<tag k="place" v="farm" />
		<tag k="ssr:stedsnr" v="16493" />
	</node>
	<node id="-664810" lat="66.4623138865" lon="13.1675972147">
		<tag k="name" v="Solvang" />
		<tag k="place" v="farm" />
		<tag k="ssr:stedsnr" v="926413" />
	</node>
	<node id="-663932" lat="66.3649916704" lon="12.3601166575">
		<tag k="fixme" v="consider place=suburb, village or hamlet" />
		<tag k="name" v="Kroken" />
		<tag k="place" v="quarter" />
		<tag k="ssr:stedsnr" v="470913" />
	</node>
	<node id="-663266" lat="66.5576000016" lon="12.6559277758">
		<tag k="name" v="Dimmelvågen" />
		<tag k="place" v="farm" />
		<tag k="ssr:stedsnr" v="16828" />
	</node>
	<node id="-664289" lat="66.5271999979" lon="12.8682138892">
		<tag k="name" v="Novika" />
		<tag k="place" v="farm" />
		<tag k="ssr:stedsnr" v="652655" />
	</node>
	<node id="-663776" lat="66.4064944486" lon="12.9530638908">
		<tag k="alt_name" v="Kokkvika" />
		<tag k="name" v="Kokvika" />
		<tag k="place" v="farm" />
		<tag k="ssr:stedsnr" v="259383" />
	</node>
	<node id="-663258" lat="66.3911055522" lon="13.1696333311">
		<tag k="name" v="Vassvatnet" />
		<tag k="place" v="farm" />
		<tag k="ssr:stedsnr" v="16572" />
	</node>
	<node id="-664791" lat="66.519549999" lon="13.1082805662">
		<tag k="name" v="Furulund" />
		<tag k="place" v="farm" />
		<tag k="ssr:stedsnr" v="926078" />
	</node>
	<node id="-663252" lat="66.3324722257" lon="13.1433777883">
		<tag k="alt_name" v="Kroken" />
		<tag k="name" v="Silakroken" />
		<tag k="place" v="farm" />
		<tag k="ssr:stedsnr" v="16521" />
	</node>
	<node id="-664786" lat="66.5047666705" lon="13.1058944427">
		<tag k="fixme" v="consider place=hamlet" />
		<tag k="name" v="Øverkonsvik" />
		<tag k="place" v="farm" />
		<tag k="ssr:stedsnr" v="909435" />
	</node>
	<node id="-663245" lat="66.4916777742" lon="13.1019194497">
		<tag k="loc_name" v="Nerkonsvik" />
		<tag k="name" v="Nedre Kongsvik" />
		<tag k="place" v="farm" />
		<tag k="ssr:stedsnr" v="16468" />
	</node>
	<node id="-663586" lat="66.4219250019" lon="12.8392888858">
		<tag k="name" v="Buvegan" />
		<tag k="place" v="quarter" />
		<tag k="ssr:stedsnr" v="167595" />
	</node>
	<node id="-664776" lat="66.5695083289" lon="12.6496000067">
		<tag k="name" v="Øvergården" />
		<tag k="place" v="farm" />
		<tag k="ssr:stedsnr" v="866789" />
	</node>
	<node id="-663238" lat="66.4614916677" lon="13.1771722225">
		<tag k="name" v="Solgård" />
		<tag k="place" v="farm" />
		<tag k="ssr:stedsnr" v="16408" />
	</node>
	<node id="-664772" lat="66.3760916625" lon="13.0801805452">
		<tag k="alt_name" v="Skogsheim" />
		<tag k="name" v="Solheim" />
		<tag k="place" v="farm" />
		<tag k="ssr:stedsnr" v="866599" />
	</node>
	<node id="-664251" lat="66.4848888886" lon="12.957697221">
		<tag k="alt_name" v="Sørgård" />
		<tag k="name" v="Sørgården" />
		<tag k="place" v="farm" />
		<tag k="ssr:stedsnr" v="651282" />
	</node>
	<node id="-663224" lat="66.4245250033" lon="13.0366361154">
		<tag k="name" v="Stensrud" />
		<tag k="place" v="farm" />
		<tag k="ssr:stedsnr" v="16357" />
	</node>
	<node id="-664759" lat="66.4743444403" lon="13.1088444388">
		<tag k="name" v="Småskogan" />
		<tag k="place" v="farm" />
		<tag k="ssr:stedsnr" v="866438" />
	</node>
	<node id="-663222" lat="66.4068055589" lon="12.9075805486">
		<tag k="name" v="Jektvika" />
		<tag k="place" v="farm" />
		<tag k="ssr:stedsnr" v="16348" />
	</node>
	<node id="-663219" lat="66.5229388882" lon="13.1098777834">
		<tag k="name" v="Haugly" />
		<tag k="place" v="farm" />
		<tag k="ssr:stedsnr" v="16057" />
	</node>
	<node id="-664241" lat="66.4036222256" lon="13.168063887">
		<tag k="name" v="Bjerkheim" />
		<tag k="place" v="farm" />
		<tag k="ssr:stedsnr" v="623588" />
	</node>
	<node id="-664752" lat="66.3990888884" lon="12.9057888969">
		<tag k="name" v="Haugen" />
		<tag k="place" v="farm" />
		<tag k="ssr:stedsnr" v="866363" />
	</node>
	<node id="-664239" lat="66.3337861096" lon="13.1495111016">
		<tag k="name" v="Sila" />
		<tag k="place" v="farm" />
		<tag k="ssr:stedsnr" v="623560" />
	</node>
	<node id="-664748" lat="66.4071416651" lon="12.8801138976">
		<tag k="name" v="Kastmona" />
		<tag k="place" v="farm" />
		<tag k="ssr:stedsnr" v="866350" />
	</node>
	<node id="-663991" lat="66.5699972255" lon="12.6431972289">
		<tag k="alt_name" v="Trøa" />
		<tag k="name" v="Trøen" />
		<tag k="place" v="farm" />
		<tag k="ssr:stedsnr" v="501776" />
	</node>
	<node id="-664774" lat="66.5777027766" lon="12.6289749996">
		<tag k="name" v="Fjellmo" />
		<tag k="place" v="farm" />
		<tag k="ssr:stedsnr" v="866775" />
	</node>
	<node id="-664738" lat="66.5064833288" lon="13.0326805621">
		<tag k="alt_name" v="Breidvika" />
		<tag k="name" v="Breivika" />
		<tag k="place" v="farm" />
		<tag k="ssr:stedsnr" v="866139" />
	</node>
	<node id="-663890" lat="66.3715055518" lon="13.0592444546">
		<tag k="name" v="Tøften" />
		<tag k="place" v="farm" />
		<tag k="ssr:stedsnr" v="470166" />
	</node>
	<node id="-664221" lat="66.3993527778" lon="12.869983334">
		<tag k="name" v="Onøya" />
		<tag k="place" v="farm" />
		<tag k="ssr:stedsnr" v="622561" />
	</node>
	<node id="-664727" lat="66.3249055598" lon="13.1249000116">
		<tag k="fixme" v="multiple name tags, choose one and add the other to alt_name" />
		<tag k="name" v="Bogen;Skogan" />
		<tag k="place" v="farm" />
		<tag k="ssr:stedsnr" v="865554" />
	</node>
	<node id="-664214" lat="66.470547226" lon="13.1598444361">
		<tag k="name" v="Sollund" />
		<tag k="place" v="farm" />
		<tag k="ssr:stedsnr" v="622465" />
	</node>
	<node id="-664725" lat="66.4715083357" lon="13.1490444399">
		<tag k="name" v="Svensken" />
		<tag k="place" v="farm" />
		<tag k="ssr:stedsnr" v="865490" />
	</node>
	<node id="-664211" lat="66.4524694455" lon="13.1010499936">
		<tag k="name" v="Okstinden" />
		<tag k="place" v="farm" />
		<tag k="ssr:stedsnr" v="622410" />
	</node>
	<node id="-664208" lat="66.4399250032" lon="13.1496972234">
		<tag k="name" v="Einmo" />
		<tag k="place" v="farm" />
		<tag k="ssr:stedsnr" v="622393" />
	</node>
	<node id="-664205" lat="66.4226583368" lon="13.0428305471">
		<tag k="name" v="Søreng" />
		<tag k="place" v="farm" />
		<tag k="ssr:stedsnr" v="622387" />
	</node>
	<node id="-664193" lat="66.4981249981" lon="13.0394583403">
		<tag k="name" v="Trettvika" />
		<tag k="place" v="farm" />
		<tag k="ssr:stedsnr" v="622265" />
	</node>
	<node id="-663678" lat="66.370758331" lon="13.0547777881">
		<tag k="name" v="Engan" />
		<tag k="place" v="farm" />
		<tag k="ssr:stedsnr" v="198613" />
	</node>
	<node id="-664701" lat="66.4009916623" lon="13.1094888927">
		<tag k="name" v="Gården" />
		<tag k="place" v="farm" />
		<tag k="ssr:stedsnr" v="835881" />
	</node>
	<node id="-663162" lat="66.3980944467" lon="12.8682249937">
		<tag k="amenity" v="school" />
		<tag k="name" v="Onøy-Lurøy skole" />
		<tag k="ssr:stedsnr" v="895405" />
	</node>
	<node id="-663752" lat="66.395508336" lon="13.1054611012">
		<tag k="name" v="Sørjord" />
		<tag k="place" v="farm" />
		<tag k="ssr:stedsnr" v="258573" />
	</node>
	<node id="-664688" lat="66.5047333351" lon="13.0916083316">
		<tag k="leisure" v="pitch" />
		<tag k="name" v="Valhall" />
		<tag k="ssr:stedsnr" v="835691" />
	</node>
	<node id="-664173" lat="66.4927694454" lon="12.9036027694">
		<tag k="name" v="Stranda" />
		<tag k="place" v="farm" />
		<tag k="ssr:stedsnr" v="592659" />
	</node>
	<node id="-663659" lat="66.4140944485" lon="13.0177861168">
		<tag k="name" v="Nytun" />
		<tag k="place" v="farm" />
		<tag k="ssr:stedsnr" v="198347" />
	</node>
	<node id="-663657" lat="66.4118249959" lon="12.8570166586">
		<tag k="name" v="Olavika" />
		<tag k="place" v="farm" />
		<tag k="ssr:stedsnr" v="198342" />
	</node>
	<node id="-664674" lat="66.33440278" lon="13.0114805505">
		<tag k="name" v="Osen" />
		<tag k="place" v="farm" />
		<tag k="ssr:stedsnr" v="835206" />
	</node>
	<node id="-664671" lat="66.3711916666" lon="13.0569222247">
		<tag k="name" v="Seljeteigen" />
		<tag k="place" v="farm" />
		<tag k="ssr:stedsnr" v="835186" />
	</node>
	<node id="-663130" lat="66.3751833314" lon="13.0781083222">
		<tag k="name" v="Grønnvoll" />
		<tag k="place" v="farm" />
		<tag k="ssr:stedsnr" v="410885" />
	</node>
	<node id="-663640" lat="66.5356750002" lon="12.8799527821">
		<tag k="alt_name" v="Brennmoen" />
		<tag k="name" v="Brennmoa" />
		<tag k="place" v="farm" />
		<tag k="ssr:stedsnr" v="198094" />
	</node>
	<node id="-663639" lat="66.5197749974" lon="13.1122833419">
		<tag k="name" v="Nordgren" />
		<tag k="place" v="farm" />
		<tag k="ssr:stedsnr" v="198072" />
	</node>
	<node id="-663631" lat="66.4988972204" lon="13.1018611062">
		<tag k="name" v="Konsvikosen" />
		<tag k="place" v="hamlet" />
		<tag k="ssr:stedsnr" v="198484" />
	</node>
	<node id="-663628" lat="66.4532694405" lon="12.9033472271">
		<tag k="name" v="Sutternes" />
		<tag k="place" v="farm" />
		<tag k="ssr:stedsnr" v="198449" />
	</node>
	<node id="-664649" lat="66.5742722237" lon="12.6548138809">
		<tag k="name" v="Sletten" />
		<tag k="place" v="farm" />
		<tag k="ssr:stedsnr" v="833675" />
	</node>
	<node id="-663308" lat="66.3743444454" lon="13.0716750051">
		<tag k="name" v="Skogheim" />
		<tag k="place" v="farm" />
		<tag k="ssr:stedsnr" v="46186" />
	</node>
	<node id="-663106" lat="66.3651833352" lon="12.3567833242">
		<tag k="name" v="Fjellgården" />
		<tag k="place" v="farm" />
		<tag k="ssr:stedsnr" v="410186" />
	</node>
	<node id="-663104" lat="66.3892166663" lon="13.1225361075">
		<tag k="name" v="Ranheim" />
		<tag k="place" v="farm" />
		<tag k="ssr:stedsnr" v="409979" />
	</node>
	<node id="-663611" lat="66.4910083306" lon="13.1184888837">
		<tag k="name" v="Konsvik" />
		<tag k="place" v="hamlet" />
		<tag k="ssr:stedsnr" v="181879" />
	</node>
	<node id="-664634" lat="66.5678666693" lon="12.6227694419">
		<tag k="name" v="Jovika" />
		<tag k="place" v="farm" />
		<tag k="ssr:stedsnr" v="805786" />
	</node>
	<node id="-663606" lat="66.46269167" lon="13.0900722261">
		<tag k="name" v="Valen" />
		<tag k="place" v="farm" />
		<tag k="ssr:stedsnr" v="172465" />
	</node>
	<node id="-664629" lat="66.4004027809" lon="13.1154138891">
		<tag k="name" v="Aldra" />
		<tag k="place" v="farm" />
		<tag k="ssr:stedsnr" v="805587" />
	</node>
	<node id="-664115" lat="66.5656305526" lon="12.6234888879">
		<tag k="name" v="Kålhaugan" />
		<tag k="place" v="farm" />
		<tag k="ssr:stedsnr" v="562837" />
	</node>
	<node id="-664626" lat="66.338283337" lon="13.0142333237">
		<tag k="name" v="Stokkvågen" />
		<tag k="place" v="hamlet" />
		<tag k="ssr:stedsnr" v="805529" />
	</node>
	<node id="-663304" lat="66.3918194462" lon="13.1264166626">
		<tag k="name" v="Åsmyra" />
		<tag k="place" v="farm" />
		<tag k="ssr:stedsnr" v="45962" />
	</node>
	<node id="-663187" lat="66.3705416633" lon="12.3592583312">
		<tag k="name" v="Bergtun" />
		<tag k="place" v="farm" />
		<tag k="ssr:stedsnr" v="895911" />
	</node>
	<node id="-664612" lat="66.426788888" lon="13.0484027692">
		<tag k="name" v="Nordgården" />
		<tag k="place" v="farm" />
		<tag k="ssr:stedsnr" v="805429" />
	</node>
	<node id="-664610" lat="66.4354055598" lon="13.0547388811">
		<tag k="name" v="Myrvoll" />
		<tag k="place" v="farm" />
		<tag k="ssr:stedsnr" v="805411" />
	</node>
	<node id="-663072" lat="66.4554750011" lon="12.9529638813">
		<tag k="name" v="Breivika" />
		<tag k="place" v="isolated_dwelling" />
		<tag k="ssr:stedsnr" v="389287" />
	</node>
	<node id="-664095" lat="66.4149444466" lon="13.0185305519">
		<tag k="name" v="Ørneset" />
		<tag k="place" v="farm" />
		<tag k="ssr:stedsnr" v="562363" />
	</node>
	<node id="-664606" lat="66.4057305549" lon="12.8909666599">
		<tag k="name" v="Pollan" />
		<tag k="place" v="farm" />
		<tag k="ssr:stedsnr" v="805388" />
	</node>
	<node id="-663386" lat="66.4988166628" lon="13.057627787">
		<tag k="name" v="Aspdalen" />
		<tag k="place" v="farm" />
		<tag k="ssr:stedsnr" v="77499" />
	</node>
	<node id="-664083" lat="66.5248138902" lon="12.8317777765">
		<tag k="name" v="Hestmona" />
		<tag k="place" v="farm" />
		<tag k="ssr:stedsnr" v="562053" />
	</node>
	<node id="-663055" lat="66.4045944464" lon="13.1186250095">
		<tag k="alt_name" v="Remman" />
		<tag k="name" v="Remmen" />
		<tag k="place" v="farm" />
		<tag k="ssr:stedsnr" v="380618" />
	</node>
	<node id="-663053" lat="66.4070027744" lon="12.9458666697">
		<tag k="name" v="Bjørndalen" />
		<tag k="place" v="farm" />
		<tag k="ssr:stedsnr" v="380610" />
	</node>
	<node id="-664076" lat="66.3976277823" lon="13.1041722149">
		<tag k="name" v="Nygård" />
		<tag k="place" v="farm" />
		<tag k="ssr:stedsnr" v="561582" />
	</node>
	<node id="-663563" lat="66.5811805538" lon="12.6209999964">
		<tag k="name" v="Seljedalen" />
		<tag k="place" v="farm" />
		<tag k="ssr:stedsnr" v="166701" />
	</node>
	<node id="-664581" lat="66.5292083311" lon="12.8711833422">
		<tag k="name" v="Movika" />
		<tag k="place" v="farm" />
		<tag k="ssr:stedsnr" v="805061" />
	</node>
	<node id="-664067" lat="66.4415138865" lon="13.1579250059">
		<tag k="name" v="Nybrott" />
		<tag k="place" v="farm" />
		<tag k="ssr:stedsnr" v="561403" />
	</node>
	<node id="-663042" lat="66.4340888923" lon="13.0518972256">
		<tag k="name" v="Heimland" />
		<tag k="place" v="farm" />
		<tag k="ssr:stedsnr" v="380459" />
	</node>
</osm>
