<?xml version="1.0" encoding="UTF-8"?>
<osm version="0.6" generator="osmapis">
	<node lat="66.52186666288736" lon="13.113486103577717" id="-16887">
		<tag k="name" v="Refsdalselva" />
		<tag k="ssr:stedsnr" v="44582" />
		<tag k="waterway" v="stream" />
	</node>
	<node lat="66.51466111059638" lon="13.087291656523146" id="-16925">
		<tag k="name" v="Skolvatnet" />
		<tag k="natural" v="water" />
		<tag k="ssr:stedsnr" v="77170" />
	</node>
	<node lat="66.50248888969126" lon="13.145966664491178" id="-16958">
		<tag k="name" v="Lessellbekken" />
		<tag k="ssr:stedsnr" v="106724" />
		<tag k="waterway" v="stream" />
	</node>
	<node lat="66.4166527801514" lon="12.936138884068606" id="-17044">
		<tag k="name" v="Storvatnet" />
		<tag k="natural" v="water" />
		<tag k="ssr:stedsnr" v="167162" />
		<tag k="water" v="lake" />
	</node>
	<node lat="66.46309166974956" lon="13.183486110996203" id="-17067">
		<tag k="name" v="Mølnelva" />
		<tag k="ssr:stedsnr" v="198416" />
		<tag k="waterway" v="stream" />
	</node>
	<node lat="66.4280333327956" lon="13.04651111937851" id="-17090">
		<tag k="name" v="Ørbakkbekken" />
		<tag k="ssr:stedsnr" v="228132" />
		<tag k="waterway" v="stream" />
	</node>
	<node lat="66.44666666510257" lon="12.960311110824811" id="-17111">
		<tag k="name" v="Lomvatnet" />
		<tag k="natural" v="water" />
		<tag k="ssr:stedsnr" v="258416" />
	</node>
	<node lat="66.35120000231002" lon="13.172911109704236" id="-17129">
		<tag k="name" v="Silavatnet" />
		<tag k="natural" v="water" />
		<tag k="ssr:stedsnr" v="259507" />
		<tag k="water" v="lake" />
	</node>
	<node lat="66.40607499794724" lon="13.072172213544269" id="-17131">
		<tag k="name" v="Botnvatnet" />
		<tag k="natural" v="water" />
		<tag k="ssr:stedsnr" v="259559" />
	</node>
	<node lat="66.38820833477186" lon="13.054125006227547" id="-17148">
		<tag k="name" v="Lauklibekken" />
		<tag k="ssr:stedsnr" v="288176" />
		<tag k="waterway" v="stream" />
	</node>
	<node lat="66.4476194491692" lon="13.169919435768938" id="-17156">
		<tag k="name" v="Vika" />
		<tag k="natural" v="bay" />
		<tag k="ssr:stedsnr" v="288804" />
	</node>
	<node lat="66.33472500108806" lon="13.14643055664203" id="-17157">
		<tag k="name" v="Silaelva" />
		<tag k="ssr:stedsnr" v="288885" />
		<tag k="waterway" v="river" />
	</node>
	<node lat="66.51776110932258" lon="13.010641665677966" id="-17167">
		<tag k="name" v="Olderskogbekken" />
		<tag k="ssr:stedsnr" v="319088" />
		<tag k="waterway" v="stream" />
	</node>
	<node lat="66.51537222071123" lon="13.040952778230814" id="-17218">
		<tag k="name" v="Litlvatnet" />
		<tag k="natural" v="water" />
		<tag k="ssr:stedsnr" v="470491" />
	</node>
	<node lat="66.42343056002852" lon="12.85039722198085" id="-17243">
		<tag k="name" v="Vollbekken" />
		<tag k="ssr:stedsnr" v="349603" />
		<tag k="waterway" v="stream" />
	</node>
	<node lat="66.34181111113016" lon="13.148394441737754" id="-17250">
		<tag k="name" v="Tjønna" />
		<tag k="natural" v="water" />
		<tag k="ssr:stedsnr" v="349919" />
	</node>
	<node lat="66.42530832935415" lon="13.038938894172281" id="-17264">
		<tag k="name" v="Stuvlandselva" />
		<tag k="ssr:stedsnr" v="380414" />
		<tag k="waterway" v="stream" />
	</node>
	<node lat="66.35001388566427" lon="13.041799997132818" id="-17273">
		<tag k="name" v="Elvatnet" />
		<tag k="natural" v="water" />
		<tag k="ssr:stedsnr" v="380560" />
	</node>
	<node lat="66.32908610931574" lon="13.047513882913272" id="-17297">
		<tag k="name" v="Varpbekken" />
		<tag k="ssr:stedsnr" v="410217" />
		<tag k="waterway" v="stream" />
	</node>
	<node lat="66.47032222545637" lon="13.166641657366174" id="-17302">
		<tag k="name" v="Møllneselva" />
		<tag k="ssr:stedsnr" v="410645" />
		<tag k="waterway" v="stream" />
	</node>
	<node lat="66.35371388886747" lon="13.183111110437313" id="-17310">
		<tag k="name" v="Almnesbukta" />
		<tag k="natural" v="bay" />
		<tag k="ssr:stedsnr" v="410897" />
	</node>
	<node lat="66.49651667004672" lon="13.137025011149287" id="-17328">
		<tag k="alt_name" v="Innerelva" />
		<tag k="name" v="Indrelva" />
		<tag k="ssr:stedsnr" v="441490" />
		<tag k="waterway" v="stream" />
	</node>
	<node lat="66.30769722058923" lon="13.192577785299951" id="-17404">
		<tag k="name" v="Spirbekken" />
		<tag k="ssr:stedsnr" v="683520" />
		<tag k="waterway" v="stream" />
	</node>
	<node lat="66.35496389329322" lon="13.21473610072855" id="-17409">
		<tag k="name" v="Pollelva" />
		<tag k="ssr:stedsnr" v="683788" />
		<tag k="waterway" v="stream" />
	</node>
	<node lat="66.40339167020716" lon="13.039702778098421" id="-17418">
		<tag k="name" v="Svartvatnet" />
		<tag k="natural" v="water" />
		<tag k="ssr:stedsnr" v="684563" />
	</node>
	<node lat="66.30469444415593" lon="13.177994447194024" id="-17424">
		<tag k="name" v="Sjurbekken" />
		<tag k="ssr:stedsnr" v="530277" />
		<tag k="waterway" v="stream" />
	</node>
	<node lat="66.40351111299202" lon="12.915588896382546" id="-17433">
		<tag k="name" v="Øvergårdsvatnet" />
		<tag k="natural" v="water" />
		<tag k="ssr:stedsnr" v="531583" />
		<tag k="water" v="lake" />
	</node>
	<node lat="66.52089722558235" lon="13.006555550319503" id="-17514">
		<tag k="name" v="Småvatnan" />
		<tag k="natural" v="water" />
		<tag k="ssr:stedsnr" v="652417" />
	</node>
	<node lat="66.4592888915346" lon="13.184833324638031" id="-17527">
		<tag k="name" v="Lomtjønna" />
		<tag k="natural" v="water" />
		<tag k="ssr:stedsnr" v="652804" />
	</node>
	<node lat="66.35180000443864" lon="13.08069166853689" id="-17549">
		<tag k="name" v="Stordalsvatnet" />
		<tag k="natural" v="water" />
		<tag k="ssr:stedsnr" v="684516" />
	</node>
	<node lat="66.40878333606331" lon="13.066969439715699" id="-17557">
		<tag k="name" v="Røtjønna" />
		<tag k="natural" v="water" />
		<tag k="ssr:stedsnr" v="895158" />
	</node>
	<node lat="66.3295083308517" lon="13.024886111714707" id="-17590">
		<tag k="name" v="Stordalselva" />
		<tag k="ssr:stedsnr" v="713194" />
		<tag k="waterway" v="river" />
	</node>
	<node lat="66.35580000316122" lon="13.21334999697132" id="-17629">
		<tag k="name" v="Pollen" />
		<tag k="natural" v="beach" />
		<tag k="ssr:stedsnr" v="744474" />
	</node>
	<node lat="66.44342222103535" lon="13.150180557434652" id="-17645">
		<tag k="name" v="Netbukta" />
		<tag k="natural" v="bay" />
		<tag k="ssr:stedsnr" v="228843" />
	</node>
	<node lat="66.50084722530124" lon="13.078147217958657" id="-17768">
		<tag k="name" v="Engebekken" />
		<tag k="ssr:stedsnr" v="895560" />
		<tag k="waterway" v="stream" />
	</node>
	<node lat="66.50858055356596" lon="13.054058344135404" id="-17806">
		<tag k="name" v="Barfjelltjønna" />
		<tag k="natural" v="water" />
		<tag k="ssr:stedsnr" v="955505" />
	</node>
	<node lat="66.36859722268441" lon="13.04659167099383" id="-17814">
		<tag k="name" v="Laukbakkelva" />
		<tag k="ssr:stedsnr" v="956194" />
		<tag k="waterway" v="stream" />
	</node>
	<node lat="66.37370555281147" lon="13.163724996126245" id="-17840">
		<tag k="name" v="Lensmannen" />
		<tag k="natural" v="cape" />
		<tag k="ssr:stedsnr" v="228915" />
	</node>
	<node lat="66.47588611458659" lon="13.17953332360982" id="-17851">
		<tag k="name" v="Litlvatnet" />
		<tag k="natural" v="water" />
		<tag k="ssr:stedsnr" v="16430" />
	</node>
	<node lat="66.51563333057392" lon="13.050705563245648" id="-17883">
		<tag k="name" v="Tverrlibekken" />
		<tag k="ssr:stedsnr" v="45490" />
		<tag k="waterway" v="stream" />
	</node>
	<node lat="66.38855277785161" lon="12.834966660665966" id="-17898">
		<tag k="name" v="Kyrvollbekken" />
		<tag k="ssr:stedsnr" v="46394" />
		<tag k="waterway" v="stream" />
	</node>
	<node lat="66.46330000402195" lon="13.192991671907974" id="-17967">
		<tag k="name" v="Kvinvatnet" />
		<tag k="natural" v="water" />
		<tag k="ssr:stedsnr" v="106837" />
		<tag k="water" v="lake" />
	</node>
	<node lat="66.44753055240056" lon="13.173372217403848" id="-18073">
		<tag k="name" v="Neset" />
		<tag k="natural" v="cape" />
		<tag k="ssr:stedsnr" v="167832" />
	</node>
	<node lat="66.50676666360307" lon="13.037958332162097" id="-18161">
		<tag k="name" v="Breivikbekken" />
		<tag k="ssr:stedsnr" v="288339" />
		<tag k="waterway" v="stream" />
	</node>
	<node lat="66.47450555670237" lon="13.121163878432418" id="-18173">
		<tag k="name" v="Råndalsbekken" />
		<tag k="ssr:stedsnr" v="288635" />
		<tag k="waterway" v="stream" />
	</node>
	<node lat="66.36269999554317" lon="12.593150006658231" id="-18175">
		<tag k="name" v="Otervatnet" />
		<tag k="natural" v="water" />
		<tag k="ssr:stedsnr" v="288822" />
	</node>
	<node lat="66.44872499822296" lon="12.853249989470452" id="-18184">
		<tag k="name" v="Finnakselbekken" />
		<tag k="ssr:stedsnr" v="289647" />
		<tag k="waterway" v="stream" />
	</node>
	<node lat="66.36960555448445" lon="13.163047221868982" id="-18209">
		<tag k="name" v="Svartvatnet" />
		<tag k="natural" v="water" />
		<tag k="ssr:stedsnr" v="319606" />
	</node>
	<node lat="66.34780833327255" lon="12.997344447115713" id="-18231">
		<tag k="name" v="Grønsvikelva" />
		<tag k="ssr:stedsnr" v="348200" />
		<tag k="waterway" v="stream" />
	</node>
	<node lat="66.35309444654762" lon="13.184788886334646" id="-18253">
		<tag k="name" v="Almneset" />
		<tag k="natural" v="cape" />
		<tag k="ssr:stedsnr" v="349929" />
	</node>
	<node lat="66.44297500239115" lon="13.17694445074051" id="-18254">
		<tag k="name" v="Tverrbekken" />
		<tag k="ssr:stedsnr" v="349848" />
		<tag k="waterway" v="stream" />
	</node>
	<node lat="66.37431944015012" lon="13.119800009201427" id="-18256">
		<tag k="name" v="Hauglandselva" />
		<tag k="ssr:stedsnr" v="349937" />
		<tag k="waterway" v="stream" />
	</node>
	<node lat="66.38827500203296" lon="13.238469451066234" id="-18296">
		<tag k="alt_name" v="Kvannskardvatna, midtre" />
		<tag k="name" v="Midtre Kvannskardvatna" />
		<tag k="natural" v="water" />
		<tag k="ssr:stedsnr" v="380837" />
		<tag k="water" v="lake" />
	</node>
	<node lat="66.51379999908133" lon="13.05268610189621" id="-18383">
		<tag k="name" v="Storvatnet" />
		<tag k="natural" v="water" />
		<tag k="ssr:stedsnr" v="501159" />
	</node>
	<node lat="66.41519444589967" lon="13.074877768309989" id="-18390">
		<tag k="name" v="Stuvlandsvatnet" />
		<tag k="natural" v="water" />
		<tag k="ssr:stedsnr" v="501364" />
	</node>
	<node lat="66.39212778143818" lon="13.172091673848882" id="-18414">
		<tag k="name" v="Vassvatnet" />
		<tag k="natural" v="water" />
		<tag k="ssr:stedsnr" v="501588" />
	</node>
	<node lat="66.41388055281558" lon="13.186713888825647" id="-18510">
		<tag k="name" v="Heimstadelva" />
		<tag k="ssr:stedsnr" v="562578" />
		<tag k="waterway" v="stream" />
	</node>
	<node lat="66.42032222176485" lon="13.062530545637278" id="-18532">
		<tag k="name" v="Stuvlandsbekken" />
		<tag k="ssr:stedsnr" v="591143" />
		<tag k="waterway" v="stream" />
	</node>
	<node lat="66.41894444109128" lon="13.197908326068898" id="-18581">
		<tag k="name" v="Rismålsvatnet" />
		<tag k="natural" v="water" />
		<tag k="ssr:stedsnr" v="623388" />
	</node>
	<node lat="66.38926666688975" lon="13.223080545493513" id="-18586">
		<tag k="alt_name" v="Kvannskardvatna, nedre" />
		<tag k="name" v="Nedre Kvannskardvatna" />
		<tag k="natural" v="water" />
		<tag k="ssr:stedsnr" v="623852" />
		<tag k="water" v="lake" />
	</node>
	<node lat="66.38693611005151" lon="13.25527499498033" id="-18587">
		<tag k="alt_name" v="Kvannskardvatna, øvre" />
		<tag k="name" v="Øvre Kvannskardvatna" />
		<tag k="natural" v="water" />
		<tag k="ssr:stedsnr" v="623853" />
	</node>
	<node lat="66.45569999876842" lon="12.888086111781025" id="-18620">
		<tag k="name" v="Selbotsbekken" />
		<tag k="ssr:stedsnr" v="652624" />
		<tag k="waterway" v="stream" />
	</node>
	<node lat="66.52071666257619" lon="13.027761119217818" id="-18643">
		<tag k="name" v="Middagsvatnet" />
		<tag k="natural" v="water" />
		<tag k="ssr:stedsnr" v="713453" />
	</node>
	<node lat="66.40990277635862" lon="13.074194450806429" id="-18645">
		<tag k="name" v="Lomtjønna" />
		<tag k="natural" v="water" />
		<tag k="ssr:stedsnr" v="713163" />
	</node>
	<node lat="66.47487222629601" lon="13.17089445135293" id="-18689">
		<tag k="alt_name" v="Stengevatnet" />
		<tag k="name" v="Stengvatnet" />
		<tag k="natural" v="water" />
		<tag k="ssr:stedsnr" v="744421" />
	</node>
	<node lat="66.41273055812931" lon="13.076727784025033" id="-18720">
		<tag k="name" v="Krokbekken" />
		<tag k="ssr:stedsnr" v="774886" />
		<tag k="waterway" v="stream" />
	</node>
	<node lat="66.4450750024506" lon="12.860386121481989" id="-18743">
		<tag k="name" v="Storvatnet" />
		<tag k="natural" v="water" />
		<tag k="ssr:stedsnr" v="805461" />
	</node>
	<node lat="66.5106166669567" lon="13.092436119244296" id="-18751">
		<tag k="name" v="Vollaelva" />
		<tag k="ssr:stedsnr" v="805143" />
		<tag k="waterway" v="stream" />
	</node>
	<node lat="66.4037555586758" lon="13.083336101381892" id="-18783">
		<tag k="name" v="Aldervatnet" />
		<tag k="natural" v="water" />
		<tag k="ssr:stedsnr" v="805579" />
	</node>
	<node lat="66.52079166739567" lon="13.052650006171861" id="-18803">
		<tag k="name" v="Granlibekken" />
		<tag k="ssr:stedsnr" v="834463" />
		<tag k="waterway" v="stream" />
	</node>
	<node lat="66.50008611458257" lon="13.101291664497495" id="-18804">
		<tag k="name" v="Skolvasselva" />
		<tag k="ssr:stedsnr" v="834606" />
		<tag k="waterway" v="stream" />
	</node>
	<node lat="66.44460833357189" lon="13.1522388954739" id="-18824">
		<tag k="name" v="Vasslineset" />
		<tag k="natural" v="cape" />
		<tag k="ssr:stedsnr" v="835840" />
	</node>
	<node lat="66.47939444320069" lon="13.120694437869117" id="-18828">
		<tag k="name" v="Småvatnan" />
		<tag k="natural" v="water" />
		<tag k="ssr:stedsnr" v="835705" />
	</node>
	<node lat="66.34711944518608" lon="13.011216668657864" id="-18895">
		<tag k="name" v="Grønsvikelva" />
		<tag k="ssr:stedsnr" v="866508" />
		<tag k="waterway" v="stream" />
	</node>
</osm>
