<?xml version="1.0" encoding="UTF-8"?>
<osm generator="osmapis" version="0.6">
	<node id="-15388" lat="66.4184805521" lon="12.8493861095">
		<tag k="amenity" v="place_of_worship" />
		<tag k="denomination" v="lutheran" />
		<tag k="name" v="Lurøy kirke" />
		<tag k="religion" v="christian" />
		<tag k="ssr:stedsnr" v="259390" />
	</node>
	<node id="-17077" lat="66.3602527806" lon="12.5758972283">
		<tag k="amenity" v="place_of_worship" />
		<tag k="denomination" v="lutheran" />
		<tag k="name" v="Moflag kapell" />
		<tag k="religion" v="christian" />
		<tag k="ssr:stedsnr" v="652810" />
	</node>
	<node id="-16049" lat="66.3670555568" lon="12.5857111002">
		<tag k="cemetery" v="grave" />
		<tag k="name" v="Moflag gravgård" />
		<tag k="place" v="locality" />
		<tag k="ssr:stedsnr" v="895808" />
	</node>
	<node id="-15759" lat="66.3871361156" lon="13.1199944442">
		<tag k="alt_name" v="Aldersund" />
		<tag k="amenity" v="place_of_worship" />
		<tag k="denomination" v="lutheran" />
		<tag k="name" v="Aldersund kirke" />
		<tag k="religion" v="christian" />
		<tag k="ssr:stedsnr" v="501584" />
	</node>
	<node id="-16298" lat="66.5058611094" lon="13.099916664">
		<tag k="cemetery" v="grave" />
		<tag k="name" v="Kongsvik gravplass" />
		<tag k="place" v="locality" />
		<tag k="ssr:stedsnr" v="45625" />
	</node>
	<node id="-16227" lat="66.3524027791" lon="12.9986250022">
		<tag k="name" v="Grønsvik kystfort" />
		<tag k="ssr:stedsnr" v="889409" />
		<tag k="tourism" v="attraction" />
	</node>
</osm>
