<?xml version="1.0" encoding="UTF-8"?>
<osm generator="osmapis" version="0.6">
	<node id="-407392" lat="58.935036113" lon="6.10520000408">
		<tag k="alt_name" v="Bergsholmen" />
		<tag k="name" v="Bergsholmen lykt" />
		<tag k="ssr:date" v="2016-05-10" />
		<tag k="ssr:gruppe" v="navigasjon" />
		<tag k="ssr:hovedgruppe" v="infrastruktur" />
		<tag k="ssr:stedsnr" v="304752" />
		<tag k="ssr:type" v="fyrlykt" />
	</node>
	<node id="-409015" lat="60.8816104596" lon="6.30047518531">
		<tag k="name" v="Vestlandet" />
		<tag k="ssr:date" v="2019-01-06" />
		<tag k="ssr:gruppe" v="administrativeIndelinger" />
		<tag k="ssr:hovedgruppe" v="offentligAdministrasjon" />
		<tag k="ssr:stedsnr" v="974777" />
		<tag k="ssr:type" v="annenAdministrativInndeling" />
	</node>
	<node id="-407572" lat="58.905010515" lon="6.10275122966">
		<tag k="name" v="Kjeldebergvegen" />
		<tag k="ssr:date" v="2019-05-30" />
		<tag k="ssr:gruppe" v="veg" />
		<tag k="ssr:hovedgruppe" v="infrastruktur" />
		<tag k="ssr:stedsnr" v="1029146" />
		<tag k="ssr:type" v="adressenavn" />
	</node>
	<node id="-408046" lat="58.8992944411" lon="6.09645277818">
		<tag k="loc_name" v="Forsand;Forsand" />
		<tag k="name" v="Forsand kommune" />
		<tag k="ssr:date" v="2017-04-04" />
		<tag k="ssr:gruppe" v="administrativeIndelinger" />
		<tag k="ssr:hovedgruppe" v="offentligAdministrasjon" />
		<tag k="ssr:stedsnr" v="267266" />
		<tag k="ssr:type" v="kommune" />
	</node>
	<node id="-408843" lat="59.0169638919" lon="6.3405083353">
		<tag k="alt_name" v="Lysefjorden" />
		<tag k="name" v="Lysefjorden lykt" />
		<tag k="old_name" v="Lysefjord" />
		<tag k="ssr:date" v="2016-05-11" />
		<tag k="ssr:gruppe" v="navigasjon" />
		<tag k="ssr:hovedgruppe" v="infrastruktur" />
		<tag k="ssr:stedsnr" v="873105" />
		<tag k="ssr:type" v="fyrlykt" />
	</node>
	<node id="-407750" lat="59.0422722244" lon="6.58196389327">
		<tag k="alt_name" v="Geitanes" />
		<tag k="name" v="Geitanes lykt" />
		<tag k="old_name" v="Geitaneset" />
		<tag k="ssr:date" v="2016-05-10" />
		<tag k="ssr:gruppe" v="navigasjon" />
		<tag k="ssr:hovedgruppe" v="infrastruktur" />
		<tag k="ssr:stedsnr" v="84121" />
		<tag k="ssr:type" v="fyrlykt" />
	</node>
	<node id="-408036" lat="58.9707999973" lon="6.19108611657">
		<tag k="alt_name" v="Kvassnos" />
		<tag k="name" v="Kvassnos lykt" />
		<tag k="ssr:date" v="2016-05-10" />
		<tag k="ssr:gruppe" v="navigasjon" />
		<tag k="ssr:hovedgruppe" v="infrastruktur" />
		<tag k="ssr:stedsnr" v="244812" />
		<tag k="ssr:type" v="fyrlykt" />
	</node>
</osm>
