<?xml version="1.0" encoding="UTF-8"?>
<<<<<<< HEAD
<osm version="0.6" generator="osmapis">
	<node lat="63.66718611084984" lon="9.14285832939071" id="-29798">
		<tag k="highway" v="path" />
		<tag k="name" v="Naustkleiva" />
		<tag k="ssr:stedsnr" v="30175" />
	</node>
	<node lat="63.472030552075026" lon="8.70055833675271" id="-30291">
=======
<osm generator="osmapis" version="0.6">
	<node id="-810211" lat="63.5185277761" lon="9.2955861128">
		<tag k="leisure" v="marina" />
		<tag k="name" v="Vingvågen småbåthavn" />
		<tag k="ssr:stedsnr" v="119587" />
	</node>
	<node id="-811131" lat="63.60986111" lon="8.93359721891">
		<tag k="highway" v="path" />
		<tag k="name" v="Eidskleiva" />
		<tag k="ssr:stedsnr" v="394866" />
	</node>
	<node id="-807800" lat="63.49741389" lon="9.17988056087">
		<tag k="leisure" v="marina" />
		<tag k="name" v="Sundan marina" />
		<tag k="ssr:stedsnr" v="464740" />
	</node>
	<node id="-807287" lat="63.5789749994" lon="8.45837500641">
		<tag k="man_made" v="quay" />
		<tag k="name" v="Valen" />
		<tag k="place" v="locality" />
		<tag k="ssr:stedsnr" v="273202" />
	</node>
	<node id="-809334" lat="63.51468333" lon="9.05863056314">
		<tag k="highway" v="path" />
		<tag k="name" v="Stien" />
		<tag k="ssr:stedsnr" v="820423" />
	</node>
	<node id="-807401" lat="63.4736972219" lon="9.24760278395">
		<tag k="man_made" v="cairn" />
		<tag k="name" v="Storfjellvarden" />
		<tag k="place" v="locality" />
		<tag k="ssr:stedsnr" v="276163" />
	</node>
	<node id="-808946" lat="63.5842444426" lon="8.4572611067">
		<tag k="name" v="Hamna" />
		<tag k="place" v="locality" />
		<tag k="ssr:stedsnr" v="886293" />
	</node>
	<node id="-808815" lat="63.4573111133" lon="8.38993610486">
		<tag k="highway" v="path" />
		<tag k="name" v="Raudvegen" />
		<tag k="ssr:stedsnr" v="880437" />
	</node>
	<node id="-809453" lat="63.4631999982" lon="8.41869165889">
		<tag k="highway" v="path" />
		<tag k="name" v="Brekka" />
		<tag k="ssr:stedsnr" v="941449" />
	</node>
	<node id="-809193" lat="63.5523082861" lon="9.39906109773">
		<tag k="leisure" v="marina" />
		<tag k="name" v="Bystingen småbåthavn" />
		<tag k="ssr:stedsnr" v="787579" />
	</node>
	<node id="-809063" lat="63.498663891" lon="9.12627778686">
		<tag k="leisure" v="marina" />
		<tag k="name" v="Vorpbukta småbåthavn" />
		<tag k="ssr:stedsnr" v="726558" />
	</node>
	<node id="-809702" lat="63.6671861108" lon="9.14285832939">
		<tag k="highway" v="path" />
		<tag k="name" v="Naustkleiva" />
		<tag k="ssr:stedsnr" v="30175" />
	</node>
	<node id="-808549" lat="63.4287361077" lon="8.40726666149">
		<tag k="amenity" v="ferry_terminal" />
		<tag k="name" v="Forsnes ferjekai" />
		<tag k="ssr:stedsnr" v="704854" />
	</node>
	<node id="-811366" lat="63.5518394608" lon="9.39865903636">
		<tag k="alt_name" v="Innerkaia" />
		<tag k="leisure" v="marina" />
		<tag k="name" v="Kongensvoll marina" />
		<tag k="ssr:stedsnr" v="544557" />
	</node>
	<node id="-811234" lat="63.5197055533" lon="9.10961944574">
		<tag k="barrier" v="toll_booth" />
		<tag k="name" v="Sandstad" />
		<tag k="ssr:stedsnr" v="412513" />
	</node>
	<node id="-809566" lat="63.4858249985" lon="8.29304444305">
		<tag k="leisure" v="marina" />
		<tag k="name" v="Risøysundet" />
		<tag k="ssr:stedsnr" v="940620" />
	</node>
	<node id="-807770" lat="63.5557833306" lon="9.39836667653">
		<tag k="man_made" v="quay" />
		<tag k="name" v="Kaia" />
		<tag k="place" v="locality" />
		<tag k="ssr:stedsnr" v="458738" />
	</node>
	<node id="-811217" lat="63.5815611105" lon="8.420869454">
		<tag k="name" v="Jekta" />
		<tag k="place" v="locality" />
		<tag k="ssr:stedsnr" v="400262" />
	</node>
	<node id="-810210" lat="63.4981111079" lon="9.13125832467">
		<tag k="leisure" v="marina" />
		<tag k="name" v="Klakken marina" />
		<tag k="ssr:stedsnr" v="119567" />
	</node>
	<node id="-808651" lat="63.6537944431" lon="9.13343610238">
		<tag k="man_made" v="quay" />
		<tag k="name" v="Nordbotn (Nesa)" />
		<tag k="place" v="locality" />
		<tag k="ssr:stedsnr" v="636121" />
	</node>
	<node id="-809150" lat="63.6184083368" lon="8.71509722144">
		<tag k="fixme" v="consider highway=path" />
		<tag k="highway" v="track" />
		<tag k="name" v="Parelistolen" />
		<tag k="ssr:stedsnr" v="758929" />
	</node>
	<node id="-810679" lat="63.5203222224" lon="9.05948610949">
		<tag k="highway" v="path" />
		<tag k="name" v="Hjorthaugkleiva" />
		<tag k="ssr:stedsnr" v="213449" />
	</node>
	<node id="-808757" lat="63.6323305571" lon="8.97362777588">
		<tag k="ford" v="yes" />
		<tag k="name" v="Vadet" />
		<tag k="place" v="locality" />
		<tag k="ssr:stedsnr" v="879857" />
	</node>
	<node id="-810931" lat="63.5161527817" lon="9.2694861043">
		<tag k="highway" v="path" />
		<tag k="name" v="Skottstien" />
		<tag k="ssr:stedsnr" v="335198" />
	</node>
	<node id="-810674" lat="63.4720305521" lon="8.70055833675">
>>>>>>> e1d4bc35ff8a6074a6f2e91616a996b547c36f15
		<tag k="name" v="Lensmannssvingen" />
		<tag k="place" v="locality" />
		<tag k="ssr:stedsnr" v="213282" />
	</node>
<<<<<<< HEAD
	<node lat="63.50056388659087" lon="9.164774996653014" id="-30328">
=======
	<node id="-809519" lat="63.5457388874" lon="9.41239999451">
		<tag k="fixme" v="consider highway=path" />
		<tag k="highway" v="track" />
		<tag k="name" v="Reksteren" />
		<tag k="ssr:stedsnr" v="943707" />
	</node>
	<node id="-810026" lat="63.6002833343" lon="8.73213611281">
		<tag k="highway" v="path" />
		<tag k="name" v="Straumsvegen" />
		<tag k="ssr:stedsnr" v="90543" />
	</node>
	<node id="-808873" lat="63.5247277765" lon="9.08571667221">
		<tag k="name" v="Grønndiket" />
		<tag k="ssr:stedsnr" v="881390" />
		<tag k="waterway" v="canal" />
	</node>
	<node id="-807720" lat="63.5184138858" lon="9.29515556389">
		<tag k="man_made" v="quay" />
		<tag k="name" v="Vingvågkaia" />
		<tag k="place" v="locality" />
		<tag k="ssr:stedsnr" v="458572" />
	</node>
	<node id="-811427" lat="63.5811750018" lon="8.96009165854">
		<tag k="fixme" v="consider highway=path" />
		<tag k="highway" v="track" />
		<tag k="name" v="Skogkleiva" />
		<tag k="ssr:stedsnr" v="575197" />
	</node>
	<node id="-808098" lat="63.439922218" lon="8.37989722587">
		<tag k="highway" v="path" />
		<tag k="name" v="Dalen" />
		<tag k="ssr:stedsnr" v="516337" />
	</node>
	<node id="-811887" lat="63.4479361144" lon="8.38532777243">
		<tag k="bridge" v="yes" />
		<tag k="layer" v="1" />
		<tag k="name" v="Kjørstadbrua" />
		<tag k="ssr:stedsnr" v="758300" />
	</node>
	<node id="-810900" lat="63.6142250029" lon="8.65158887906">
		<tag k="ford" v="yes" />
		<tag k="name" v="Vadet" />
		<tag k="place" v="locality" />
		<tag k="ssr:stedsnr" v="334563" />
	</node>
	<node id="-811793" lat="63.6123972216" lon="9.26807221695">
		<tag k="barrier" v="toll_booth" />
		<tag k="name" v="Grensa" />
		<tag k="ssr:stedsnr" v="654568" />
	</node>
	<node id="-807432" lat="63.4171111071" lon="8.6823777841">
		<tag k="name" v="Trondheimsleia" />
		<tag k="place" v="locality" />
		<tag k="ssr:stedsnr" v="195235" />
	</node>
	<node id="-807047" lat="63.5005638866" lon="9.16477499665">
>>>>>>> e1d4bc35ff8a6074a6f2e91616a996b547c36f15
		<tag k="leisure" v="marina" />
		<tag k="name" v="Skogøya marina" />
		<tag k="ssr:stedsnr" v="221679" />
	</node>
<<<<<<< HEAD
	<node lat="63.555783330600995" lon="9.398366676533804" id="-30487">
		<tag k="man_made" v="quay" />
		<tag k="name" v="Kaia" />
		<tag k="place" v="locality" />
		<tag k="ssr:stedsnr" v="458738" />
	</node>
	<node lat="63.5789749994099" lon="8.45837500640523" id="-30518">
		<tag k="man_made" v="quay" />
		<tag k="name" v="Valen" />
		<tag k="place" v="locality" />
		<tag k="ssr:stedsnr" v="273202" />
	</node>
	<node lat="63.49741388999106" lon="9.17988056087486" id="-30592">
		<tag k="leisure" v="marina" />
		<tag k="name" v="Sundan marina" />
		<tag k="ssr:stedsnr" v="464740" />
	</node>
	<node lat="63.61422500289026" lon="8.651588879055351" id="-30677">
		<tag k="ford" v="yes" />
		<tag k="name" v="Vadet" />
		<tag k="place" v="locality" />
		<tag k="ssr:stedsnr" v="334563" />
	</node>
	<node lat="63.51615278172409" lon="9.26948610429884" id="-30695">
		<tag k="highway" v="path" />
		<tag k="name" v="Skottstien" />
		<tag k="ssr:stedsnr" v="335198" />
	</node>
	<node lat="63.51970555325815" lon="9.109619445743832" id="-30809">
		<tag k="barrier" v="toll_booth" />
		<tag k="name" v="Sandstad" />
		<tag k="ssr:stedsnr" v="412513" />
	</node>
	<node lat="63.51841388580259" lon="9.295155563891369" id="-30893">
		<tag k="man_made" v="quay" />
		<tag k="name" v="Vingvågkaia" />
		<tag k="place" v="locality" />
		<tag k="ssr:stedsnr" v="458572" />
	</node>
	<node lat="63.58117500175726" lon="8.960091658535022" id="-31143">
		<tag k="fixme" v="consider highway=path" />
		<tag k="highway" v="track" />
		<tag k="name" v="Skogkleiva" />
		<tag k="ssr:stedsnr" v="575197" />
	</node>
	<node lat="63.42873610771877" lon="8.407266661490683" id="-31410">
		<tag k="amenity" v="ferry_terminal" />
		<tag k="name" v="Forsnes ferjekai" />
		<tag k="ssr:stedsnr" v="704854" />
	</node>
	<node lat="63.44793611439147" lon="8.385327772427985" id="-31652">
		<tag k="bridge" v="yes" />
		<tag k="layer" v="1" />
		<tag k="name" v="Kjørstadbrua" />
		<tag k="ssr:stedsnr" v="758300" />
	</node>
	<node lat="63.51468333002817" lon="9.058630563141245" id="-31817">
		<tag k="highway" v="path" />
		<tag k="name" v="Stien" />
		<tag k="ssr:stedsnr" v="820423" />
	</node>
	<node lat="63.63233055711056" lon="8.973627775875062" id="-31943">
		<tag k="ford" v="yes" />
		<tag k="name" v="Vadet" />
		<tag k="place" v="locality" />
		<tag k="ssr:stedsnr" v="879857" />
=======
	<node id="-809350" lat="63.5692805568" lon="8.4311888814">
		<tag k="name" v="Svinhusstøa" />
		<tag k="place" v="locality" />
		<tag k="ssr:stedsnr" v="825210" />
>>>>>>> e1d4bc35ff8a6074a6f2e91616a996b547c36f15
	</node>
</osm>
