<?xml version="1.0" encoding="UTF-8"?>
<osm version="0.6" generator="osmapis">
	<node lat="63.481486110537446" lon="8.522580548051101" id="-29438">
		<tag k="name" v="Einskogan" />
		<tag k="place" v="locality" />
		<tag k="ssr:stedsnr" v="12070" />
	</node>
	<node lat="63.58569167093541" lon="8.46858333539254" id="-29494">
		<tag k="name" v="Trøa" />
		<tag k="place" v="locality" />
		<tag k="ssr:stedsnr" v="30173" />
	</node>
	<node lat="63.66807222373741" lon="9.141730551865912" id="-29495">
		<tag k="name" v="Otterurda" />
		<tag k="natural" v="scree" />
		<tag k="ssr:stedsnr" v="30174" />
	</node>
	<node lat="63.66523055888521" lon="9.15659999559572" id="-29501">
		<tag k="name" v="Herøysanden" />
		<tag k="place" v="locality" />
		<tag k="ssr:stedsnr" v="30083" />
	</node>
	<node lat="63.58059444784786" lon="8.950416671814454" id="-29503">
		<tag k="name" v="Ytter Baråsmyra" />
		<tag k="natural" v="wetland" />
		<tag k="ssr:stedsnr" v="30203" />
	</node>
	<node lat="63.54843889280923" lon="8.556975007539833" id="-29526">
		<tag k="name" v="Skjåmyra" />
		<tag k="place" v="locality" />
		<tag k="ssr:stedsnr" v="30702" />
	</node>
	<node lat="63.56257500215585" lon="8.768647227655858" id="-29529">
		<tag k="name" v="Eintrøa" />
		<tag k="place" v="locality" />
		<tag k="ssr:stedsnr" v="30779" />
	</node>
	<node lat="63.604677780835104" lon="8.758105563506374" id="-29532">
		<tag k="name" v="Melandseteråsmyra" />
		<tag k="natural" v="wetland" />
		<tag k="ssr:stedsnr" v="30906" />
	</node>
	<node lat="63.49944166859893" lon="8.802244454161992" id="-29540">
		<tag k="name" v="Svartholet" />
		<tag k="place" v="locality" />
		<tag k="ssr:stedsnr" v="30815" />
	</node>
	<node lat="63.56653610727485" lon="8.981758339988954" id="-29671">
		<tag k="name" v="Seterhalsen" />
		<tag k="place" v="locality" />
		<tag k="ssr:stedsnr" v="92671" />
	</node>
	<node lat="63.528766666336395" lon="9.005313887182226" id="-29674">
		<tag k="name" v="Meiåsmyra" />
		<tag k="natural" v="wetland" />
		<tag k="ssr:stedsnr" v="92713" />
	</node>
	<node lat="63.518061106877944" lon="9.237797222997148" id="-29680">
		<tag k="name" v="Stranda" />
		<tag k="place" v="locality" />
		<tag k="ssr:stedsnr" v="93180" />
	</node>
	<node lat="63.59536111323138" lon="8.701841665749685" id="-29732">
		<tag k="name" v="Åsmyran" />
		<tag k="natural" v="wetland" />
		<tag k="ssr:stedsnr" v="134903" />
	</node>
	<node lat="63.43548333742946" lon="8.431063889800448" id="-29801">
		<tag k="name" v="Kvernavassøren" />
		<tag k="natural" v="wetland" />
		<tag k="ssr:stedsnr" v="151307" />
	</node>
	<node lat="63.59594166549225" lon="8.691711118506985" id="-29819">
		<tag k="name" v="Vollen" />
		<tag k="place" v="locality" />
		<tag k="ssr:stedsnr" v="151562" />
	</node>
	<node lat="63.628425000266944" lon="8.967275002480244" id="-29841">
		<tag k="name" v="Jevika" />
		<tag k="place" v="locality" />
		<tag k="ssr:stedsnr" v="151862" />
	</node>
	<node lat="63.51610278158208" lon="9.103227771690632" id="-29850">
		<tag k="name" v="Legdesteinen" />
		<tag k="natural" v="stone" />
		<tag k="ssr:stedsnr" v="152420" />
	</node>
	<node lat="63.540088892859444" lon="9.114524998115549" id="-29861">
		<tag k="name" v="Ytter Fuggelåsmyra" />
		<tag k="natural" v="wetland" />
		<tag k="ssr:stedsnr" v="152515" />
	</node>
	<node lat="63.47851388810546" lon="9.222105564782655" id="-29879">
		<tag k="name" v="Trolltjørnmyran" />
		<tag k="natural" v="wetland" />
		<tag k="ssr:stedsnr" v="154332" />
	</node>
	<node lat="63.604022223122236" lon="8.609033327631563" id="-29880">
		<tag k="name" v="Furuskogen" />
		<tag k="place" v="locality" />
		<tag k="ssr:stedsnr" v="256897" />
	</node>
	<node lat="63.428558333857836" lon="8.45112223210191" id="-29959">
		<tag k="name" v="Haltvikurda" />
		<tag k="natural" v="scree" />
		<tag k="ssr:stedsnr" v="212490" />
	</node>
	<node lat="63.53521388610927" lon="8.812855561671265" id="-29979">
		<tag k="name" v="Dalabua" />
		<tag k="place" v="locality" />
		<tag k="ssr:stedsnr" v="212879" />
	</node>
	<node lat="63.54637221896504" lon="8.980774999599376" id="-29980">
		<tag k="name" v="Kvilarrommet" />
		<tag k="place" v="locality" />
		<tag k="ssr:stedsnr" v="212881" />
	</node>
	<node lat="63.63985555178631" lon="8.984658340529252" id="-29981">
		<tag k="name" v="Valmyra" />
		<tag k="natural" v="wetland" />
		<tag k="ssr:stedsnr" v="212883" />
	</node>
	<node lat="63.63225000134618" lon="8.984377784214026" id="-29982">
		<tag k="name" v="Langfjæra" />
		<tag k="place" v="locality" />
		<tag k="ssr:stedsnr" v="212885" />
	</node>
	<node lat="63.52494999597359" lon="9.082708341721924" id="-29995">
		<tag k="name" v="Skjelingsstaden" />
		<tag k="place" v="locality" />
		<tag k="ssr:stedsnr" v="213430" />
	</node>
	<node lat="63.54439721865963" lon="9.204388893452316" id="-30003">
		<tag k="name" v="Fjøsmyra" />
		<tag k="natural" v="wetland" />
		<tag k="ssr:stedsnr" v="213513" />
	</node>
	<node lat="63.557280551974095" lon="9.000358340635232" id="-30007">
		<tag k="name" v="Høybuen" />
		<tag k="natural" v="wetland" />
		<tag k="ssr:stedsnr" v="213708" />
	</node>
	<node lat="63.4492944456207" lon="8.355683327096822" id="-30032">
		<tag k="name" v="Tunga" />
		<tag k="place" v="locality" />
		<tag k="ssr:stedsnr" v="455274" />
	</node>
	<node lat="63.59595833322856" lon="8.68798332739487" id="-30036">
		<tag k="name" v="Geitfjøset" />
		<tag k="place" v="locality" />
		<tag k="ssr:stedsnr" v="454575" />
	</node>
	<node lat="63.57941944393193" lon="8.470174991018428" id="-30057">
		<tag k="name" v="Rotmyra" />
		<tag k="natural" v="wetland" />
		<tag k="ssr:stedsnr" v="455189" />
	</node>
	<node lat="63.58780833265695" lon="8.449152771916918" id="-30073">
		<tag k="name" v="Urda" />
		<tag k="natural" v="scree" />
		<tag k="ssr:stedsnr" v="455148" />
	</node>
	<node lat="63.54697222534772" lon="8.82634445236261" id="-30107">
		<tag k="name" v="Isakbuholtet" />
		<tag k="place" v="locality" />
		<tag k="ssr:stedsnr" v="455795" />
	</node>
	<node lat="63.62043333019343" lon="8.969349991153532" id="-30117">
		<tag k="name" v="Gammelgården" />
		<tag k="place" v="locality" />
		<tag k="ssr:stedsnr" v="455826" />
	</node>
	<node lat="63.61124166854634" lon="8.941002786544868" id="-30120">
		<tag k="name" v="Liamyra" />
		<tag k="natural" v="wetland" />
		<tag k="ssr:stedsnr" v="455846" />
	</node>
	<node lat="63.57243888663547" lon="9.179322222069235" id="-30143">
		<tag k="name" v="Urda" />
		<tag k="natural" v="scree" />
		<tag k="ssr:stedsnr" v="456333" />
	</node>
	<node lat="63.558452780148365" lon="9.174208327048202" id="-30147">
		<tag k="name" v="Seterstormyra" />
		<tag k="natural" v="wetland" />
		<tag k="ssr:stedsnr" v="456344" />
	</node>
	<node lat="63.56678611309478" lon="8.568088879315061" id="-30160">
		<tag k="name" v="Stokkmyra" />
		<tag k="natural" v="wetland" />
		<tag k="ssr:stedsnr" v="256576" />
	</node>
	<node lat="63.55229166448208" lon="9.20608332336259" id="-30161">
		<tag k="name" v="Gåsvollan" />
		<tag k="place" v="locality" />
		<tag k="ssr:stedsnr" v="456498" />
	</node>
	<node lat="63.551230559696734" lon="9.36661110843518" id="-30181">
		<tag k="name" v="Aune" />
		<tag k="place" v="locality" />
		<tag k="ssr:stedsnr" v="458251" />
	</node>
	<node lat="63.525405557356486" lon="9.323152782701717" id="-30182">
		<tag k="name" v="Fætta" />
		<tag k="place" v="locality" />
		<tag k="ssr:stedsnr" v="458252" />
	</node>
	<node lat="63.50851944828009" lon="8.63485000997511" id="-30204">
		<tag k="name" v="Nord Havmyran" />
		<tag k="natural" v="wetland" />
		<tag k="ssr:stedsnr" v="272685" />
	</node>
	<node lat="63.54365833050776" lon="8.547797224899403" id="-30205">
		<tag k="name" v="Trøa" />
		<tag k="place" v="locality" />
		<tag k="ssr:stedsnr" v="272703" />
	</node>
	<node lat="63.428377778828846" lon="8.427686106537523" id="-30228">
		<tag k="name" v="Holvikmyra" />
		<tag k="natural" v="wetland" />
		<tag k="ssr:stedsnr" v="273284" />
	</node>
	<node lat="63.524911110266956" lon="8.426994454122202" id="-30231">
		<tag k="name" v="Botnen" />
		<tag k="natural" v="wetland" />
		<tag k="ssr:stedsnr" v="273409" />
	</node>
	<node lat="63.52636389199007" lon="8.428563889635091" id="-30232">
		<tag k="name" v="Urda" />
		<tag k="natural" v="scree" />
		<tag k="ssr:stedsnr" v="273413" />
	</node>
	<node lat="63.62612221950795" lon="8.91785554677153" id="-30246">
		<tag k="name" v="Eidsmyra" />
		<tag k="natural" v="wetland" />
		<tag k="ssr:stedsnr" v="273778" />
	</node>
	<node lat="63.55089999766791" lon="8.715813885782094" id="-30247">
		<tag k="name" v="Kvernavassmyran" />
		<tag k="natural" v="wetland" />
		<tag k="ssr:stedsnr" v="273780" />
	</node>
	<node lat="63.55967500048113" lon="9.165669439128125" id="-30260">
		<tag k="name" v="Rekstermyra" />
		<tag k="natural" v="wetland" />
		<tag k="ssr:stedsnr" v="274325" />
	</node>
	<node lat="63.586830553659304" lon="8.445627770081211" id="-30273">
		<tag k="name" v="Dalamyra" />
		<tag k="natural" v="wetland" />
		<tag k="ssr:stedsnr" v="278673" />
	</node>
	<node lat="63.63442777508757" lon="8.698061105160507" id="-30320">
		<tag k="name" v="Kjerkmyran" />
		<tag k="natural" v="wetland" />
		<tag k="ssr:stedsnr" v="317921" />
	</node>
	<node lat="63.626550002462494" lon="8.717611117676192" id="-30333">
		<tag k="name" v="Svintrøa" />
		<tag k="place" v="locality" />
		<tag k="ssr:stedsnr" v="333599" />
	</node>
	<node lat="63.53175833553479" lon="9.066188885306218" id="-30366">
		<tag k="name" v="Søkkdalsmyra" />
		<tag k="natural" v="wetland" />
		<tag k="ssr:stedsnr" v="334403" />
	</node>
	<node lat="63.52937499876646" lon="8.383186102303593" id="-30374">
		<tag k="name" v="Stein" />
		<tag k="place" v="locality" />
		<tag k="ssr:stedsnr" v="334400" />
	</node>
	<node lat="63.61323611276726" lon="8.62652223020313" id="-30387">
		<tag k="name" v="Pølmyra" />
		<tag k="natural" v="wetland" />
		<tag k="ssr:stedsnr" v="334914" />
	</node>
	<node lat="63.58441666980886" lon="8.959575004358571" id="-30435">
		<tag k="name" v="Skagamyran" />
		<tag k="natural" v="wetland" />
		<tag k="ssr:stedsnr" v="394188" />
	</node>
	<node lat="63.456761114608874" lon="8.33646665873103" id="-30438">
		<tag k="name" v="Djupmyra" />
		<tag k="natural" v="wetland" />
		<tag k="ssr:stedsnr" v="394321" />
	</node>
	<node lat="63.45607222238106" lon="8.315838890020204" id="-30447">
		<tag k="name" v="Jossiasstøa" />
		<tag k="place" v="locality" />
		<tag k="ssr:stedsnr" v="394379" />
	</node>
	<node lat="63.41490833136672" lon="8.461941656795359" id="-30450">
		<tag k="name" v="Parken" />
		<tag k="place" v="locality" />
		<tag k="ssr:stedsnr" v="394510" />
	</node>
	<node lat="63.60742777554722" lon="8.639008327247227" id="-30467">
		<tag k="name" v="Sjømyra" />
		<tag k="natural" v="wetland" />
		<tag k="ssr:stedsnr" v="394930" />
	</node>
	<node lat="63.549777781414605" lon="9.368638888843371" id="-30489">
		<tag k="name" v="Sommarfjøsmyra" />
		<tag k="natural" v="wetland" />
		<tag k="ssr:stedsnr" v="397233" />
	</node>
	<node lat="63.54153055268034" lon="9.346713893118634" id="-30493">
		<tag k="name" v="Moen" />
		<tag k="place" v="locality" />
		<tag k="ssr:stedsnr" v="397734" />
	</node>
	<node lat="63.63939999757397" lon="9.13973888281449" id="-30543">
		<tag k="name" v="Steinvika" />
		<tag k="place" v="locality" />
		<tag k="ssr:stedsnr" v="455012" />
	</node>
	<node lat="63.63868055654587" lon="8.976302781430011" id="-30567">
		<tag k="name" v="Melkstaden" />
		<tag k="place" v="locality" />
		<tag k="ssr:stedsnr" v="455871" />
	</node>
	<node lat="63.529377777638885" lon="9.321047217153723" id="-30589">
		<tag k="name" v="Hestholet" />
		<tag k="place" v="locality" />
		<tag k="ssr:stedsnr" v="458602" />
	</node>
	<node lat="63.48291666452406" lon="8.861541657015618" id="-30608">
		<tag k="name" v="Holbekkmyra" />
		<tag k="natural" v="wetland" />
		<tag k="ssr:stedsnr" v="679433" />
	</node>
	<node lat="63.5819416707885" lon="8.799419441833345" id="-30630">
		<tag k="name" v="Kropplimyra" />
		<tag k="natural" v="wetland" />
		<tag k="ssr:stedsnr" v="680393" />
	</node>
	<node lat="63.584199997672854" lon="8.952863898122084" id="-30680">
		<tag k="name" v="Gulltjørnmyra" />
		<tag k="natural" v="wetland" />
		<tag k="ssr:stedsnr" v="272198" />
	</node>
	<node lat="63.454113887949646" lon="8.591222231722021" id="-30713">
		<tag k="name" v="Godhamnmyra" />
		<tag k="natural" v="wetland" />
		<tag k="ssr:stedsnr" v="515228" />
	</node>
	<node lat="63.62394999903683" lon="8.932961110253846" id="-30732">
		<tag k="name" v="Rønningan" />
		<tag k="place" v="locality" />
		<tag k="ssr:stedsnr" v="515876" />
	</node>
	<node lat="63.57131388902347" lon="8.406786110827682" id="-30737">
		<tag k="name" v="Liamyran" />
		<tag k="natural" v="wetland" />
		<tag k="ssr:stedsnr" v="516102" />
	</node>
	<node lat="63.52130000407702" lon="8.440272231593996" id="-30755">
		<tag k="name" v="Tovmyra" />
		<tag k="natural" v="wetland" />
		<tag k="ssr:stedsnr" v="516410" />
	</node>
	<node lat="63.46972222516023" lon="8.445455556515045" id="-30765">
		<tag k="name" v="Setermyran" />
		<tag k="natural" v="wetland" />
		<tag k="ssr:stedsnr" v="516482" />
	</node>
	<node lat="63.55211388871185" lon="9.38353611131528" id="-30792">
		<tag k="name" v="Myran" />
		<tag k="natural" v="wetland" />
		<tag k="ssr:stedsnr" v="518728" />
	</node>
	<node lat="63.53395555764527" lon="9.384716666383634" id="-30794">
		<tag k="historic" v="shieling" />
		<tag k="name" v="Gammelsetra" />
		<tag k="place" v="locality" />
		<tag k="ssr:stedsnr" v="518738" />
	</node>
	<node lat="63.55252777880986" lon="9.36311388361366" id="-30795">
		<tag k="name" v="Småvikan" />
		<tag k="place" v="locality" />
		<tag k="ssr:stedsnr" v="518665" />
	</node>
	<node lat="63.45110555141824" lon="8.580977772857503" id="-30842">
		<tag k="name" v="Stormyra" />
		<tag k="natural" v="wetland" />
		<tag k="ssr:stedsnr" v="575199" />
	</node>
	<node lat="63.46283888863948" lon="8.428397217801646" id="-30866">
		<tag k="name" v="Glenna" />
		<tag k="place" v="locality" />
		<tag k="ssr:stedsnr" v="576458" />
	</node>
	<node lat="63.58302777619518" lon="8.622383325791617" id="-30884">
		<tag k="name" v="Vikamyra" />
		<tag k="natural" v="wetland" />
		<tag k="ssr:stedsnr" v="576961" />
	</node>
	<node lat="63.54909721938139" lon="9.158925009224932" id="-30893">
		<tag k="name" v="Litlvågmunnen" />
		<tag k="place" v="locality" />
		<tag k="ssr:stedsnr" v="577442" />
	</node>
	<node lat="63.56054444608893" lon="9.185452785693894" id="-30894">
		<tag k="name" v="Kjerkgården" />
		<tag k="place" v="locality" />
		<tag k="ssr:stedsnr" v="577345" />
	</node>
	<node lat="63.527166665541266" lon="9.342744447706613" id="-30903">
		<tag k="name" v="Hjortskardmyra" />
		<tag k="natural" v="wetland" />
		<tag k="ssr:stedsnr" v="578503" />
	</node>
	<node lat="63.5477027770203" lon="8.547597219305182" id="-30954">
		<tag k="name" v="Perskogmyra" />
		<tag k="natural" v="wetland" />
		<tag k="ssr:stedsnr" v="697736" />
	</node>
	<node lat="63.547733332277254" lon="8.55415555224259" id="-30958">
		<tag k="name" v="Linvollen" />
		<tag k="place" v="locality" />
		<tag k="ssr:stedsnr" v="697740" />
	</node>
	<node lat="63.5832527819413" lon="8.401538879746118" id="-30971">
		<tag k="name" v="Lomsmyra" />
		<tag k="natural" v="wetland" />
		<tag k="ssr:stedsnr" v="698028" />
	</node>
	<node lat="63.579330558574306" lon="9.112702776499281" id="-30974">
		<tag k="name" v="Vassmyra" />
		<tag k="natural" v="wetland" />
		<tag k="ssr:stedsnr" v="698041" />
	</node>
	<node lat="63.557727774459785" lon="9.054872227741205" id="-30992">
		<tag k="name" v="Svartholet" />
		<tag k="place" v="locality" />
		<tag k="ssr:stedsnr" v="698258" />
	</node>
	<node lat="63.49179444717897" lon="8.369422222525134" id="-30994">
		<tag k="name" v="Kovass-skogan" />
		<tag k="place" v="locality" />
		<tag k="ssr:stedsnr" v="698326" />
	</node>
	<node lat="63.51232777624817" lon="8.409041661797858" id="-31004">
		<tag k="historic" v="shieling" />
		<tag k="name" v="Brennsetra" />
		<tag k="place" v="locality" />
		<tag k="ssr:stedsnr" v="698430" />
	</node>
	<node lat="63.47129444637814" lon="8.443191667216484" id="-31014">
		<tag k="name" v="Hyttmyran" />
		<tag k="natural" v="wetland" />
		<tag k="ssr:stedsnr" v="698460" />
	</node>
	<node lat="63.5385277771194" lon="8.715430549354931" id="-31025">
		<tag k="name" v="Oterslættet" />
		<tag k="natural" v="wetland" />
		<tag k="ssr:stedsnr" v="698738" />
	</node>
	<node lat="63.51624444698593" lon="9.308911110388934" id="-31058">
		<tag k="name" v="Stormyra" />
		<tag k="natural" v="wetland" />
		<tag k="ssr:stedsnr" v="700538" />
	</node>
	<node lat="63.51912778063414" lon="8.483261108730547" id="-31095">
		<tag k="name" v="Fjellmyra" />
		<tag k="natural" v="wetland" />
		<tag k="ssr:stedsnr" v="620504" />
	</node>
	<node lat="63.64091666821213" lon="8.749113890350577" id="-31123">
		<tag k="name" v="Bonåkermyran" />
		<tag k="natural" v="wetland" />
		<tag k="ssr:stedsnr" v="636634" />
	</node>
	<node lat="63.50730555241949" lon="8.380558338597174" id="-31124">
		<tag k="name" v="Langmyra" />
		<tag k="natural" v="wetland" />
		<tag k="ssr:stedsnr" v="636679" />
	</node>
	<node lat="63.6138111143119" lon="8.721091663072427" id="-31151">
		<tag k="name" v="Kråkreirmyra" />
		<tag k="natural" v="wetland" />
		<tag k="ssr:stedsnr" v="637916" />
	</node>
	<node lat="63.61217499608186" lon="8.737722231074338" id="-31154">
		<tag k="name" v="Gruvmyra" />
		<tag k="natural" v="wetland" />
		<tag k="ssr:stedsnr" v="637932" />
	</node>
	<node lat="63.60899444519339" lon="8.650833339634314" id="-31173">
		<tag k="name" v="Trollurda" />
		<tag k="natural" v="scree" />
		<tag k="ssr:stedsnr" v="272532" />
	</node>
	<node lat="63.624580558289864" lon="8.703552782016567" id="-31208">
		<tag k="name" v="Øver Bårbukta" />
		<tag k="place" v="locality" />
		<tag k="ssr:stedsnr" v="697517" />
	</node>
	<node lat="63.631919441081415" lon="8.979369445572969" id="-31212">
		<tag k="name" v="Myra" />
		<tag k="place" v="locality" />
		<tag k="ssr:stedsnr" v="697875" />
	</node>
	<node lat="63.613936107647454" lon="8.458825001632636" id="-31223">
		<tag k="name" v="Langmyra" />
		<tag k="natural" v="wetland" />
		<tag k="ssr:stedsnr" v="698114" />
	</node>
	<node lat="63.635566662433575" lon="9.162194448542314" id="-31225">
		<tag k="name" v="Jakopvika" />
		<tag k="place" v="locality" />
		<tag k="ssr:stedsnr" v="698124" />
	</node>
	<node lat="63.513783330283346" lon="9.03390000074966" id="-31234">
		<tag k="name" v="Botnan" />
		<tag k="natural" v="wetland" />
		<tag k="ssr:stedsnr" v="698406" />
	</node>
	<node lat="63.47105555542434" lon="8.435088888480662" id="-31235">
		<tag k="name" v="Hytta" />
		<tag k="place" v="locality" />
		<tag k="ssr:stedsnr" v="698416" />
	</node>
	<node lat="63.53378610877342" lon="8.420613887619343" id="-31242">
		<tag k="name" v="Melkstaden" />
		<tag k="place" v="locality" />
		<tag k="ssr:stedsnr" v="698367" />
	</node>
	<node lat="63.53175833576571" lon="8.41158610393816" id="-31243">
		<tag k="name" v="Monsvikmyra" />
		<tag k="natural" v="wetland" />
		<tag k="ssr:stedsnr" v="698368" />
	</node>
	<node lat="63.54925833506708" lon="9.20446943763541" id="-31251">
		<tag k="name" v="Sjøorman" />
		<tag k="place" v="locality" />
		<tag k="ssr:stedsnr" v="698470" />
	</node>
	<node lat="63.640002781361076" lon="9.13563889016633" id="-31340">
		<tag k="name" v="Jutuleinvika" />
		<tag k="place" v="locality" />
		<tag k="ssr:stedsnr" v="758007" />
	</node>
	<node lat="63.6346888889625" lon="8.704511114759864" id="-31361">
		<tag k="name" v="Dolmvalen" />
		<tag k="natural" v="wetland" />
		<tag k="ssr:stedsnr" v="758548" />
	</node>
	<node lat="63.61416944225079" lon="8.822397226099337" id="-31378">
		<tag k="name" v="Stuamyra" />
		<tag k="natural" v="wetland" />
		<tag k="ssr:stedsnr" v="758806" />
	</node>
	<node lat="63.45576388880734" lon="9.29040556449041" id="-31416">
		<tag k="name" v="Haugen" />
		<tag k="place" v="locality" />
		<tag k="ssr:stedsnr" v="761251" />
	</node>
	<node lat="63.609861108630675" lon="8.642941666443763" id="-31491">
		<tag k="name" v="Melkstaden" />
		<tag k="place" v="locality" />
		<tag k="ssr:stedsnr" v="819577" />
	</node>
	<node lat="63.63010555171501" lon="8.980116659251104" id="-31502">
		<tag k="name" v="Slåttavika" />
		<tag k="place" v="locality" />
		<tag k="ssr:stedsnr" v="819869" />
	</node>
	<node lat="63.628327776662914" lon="8.955675001184336" id="-31504">
		<tag k="name" v="Stormyra" />
		<tag k="natural" v="wetland" />
		<tag k="ssr:stedsnr" v="819884" />
	</node>
	<node lat="63.570783332939264" lon="8.689875007918152" id="-31506">
		<tag k="name" v="Vikern" />
		<tag k="place" v="locality" />
		<tag k="ssr:stedsnr" v="819973" />
	</node>
	<node lat="63.552933331738416" lon="9.071477776114003" id="-31524">
		<tag k="historic" v="shieling" />
		<tag k="name" v="Aunøysetra" />
		<tag k="place" v="locality" />
		<tag k="ssr:stedsnr" v="820718" />
	</node>
	<node lat="63.54924999603921" lon="9.427438888283534" id="-31531">
		<tag k="name" v="Sundet" />
		<tag k="place" v="locality" />
		<tag k="ssr:stedsnr" v="822068" />
	</node>
	<node lat="63.64872221870235" lon="9.164791659260171" id="-31631">
		<tag k="name" v="Grøtvika" />
		<tag k="place" v="locality" />
		<tag k="ssr:stedsnr" v="879252" />
	</node>
	<node lat="63.492163889737206" lon="8.619191670831018" id="-31638">
		<tag k="name" v="Vester Havmyran" />
		<tag k="natural" v="wetland" />
		<tag k="ssr:stedsnr" v="879716" />
	</node>
	<node lat="63.542508336041735" lon="8.403952780311368" id="-31644">
		<tag k="name" v="Bukta" />
		<tag k="place" v="locality" />
		<tag k="ssr:stedsnr" v="880122" />
	</node>
	<node lat="63.414027776415224" lon="8.46690555256074" id="-31657">
		<tag k="name" v="Langmyra" />
		<tag k="natural" v="wetland" />
		<tag k="ssr:stedsnr" v="880509" />
	</node>
	<node lat="63.615005551861195" lon="8.614561116951283" id="-31664">
		<tag k="name" v="Lomsmyra" />
		<tag k="natural" v="wetland" />
		<tag k="ssr:stedsnr" v="880911" />
	</node>
	<node lat="63.610980555453004" lon="8.752525009207634" id="-31665">
		<tag k="name" v="Stormyra" />
		<tag k="natural" v="wetland" />
		<tag k="ssr:stedsnr" v="880913" />
	</node>
	<node lat="63.57966944564235" lon="8.905152778186261" id="-31672">
		<tag k="name" v="Øver Stormyra" />
		<tag k="natural" v="wetland" />
		<tag k="ssr:stedsnr" v="880824" />
	</node>
	<node lat="63.52560833114268" lon="9.11128333687732" id="-31686">
		<tag k="name" v="Vikahalten" />
		<tag k="place" v="locality" />
		<tag k="ssr:stedsnr" v="881362" />
	</node>
	<node lat="63.5995527735706" lon="9.087002773677245" id="-31834">
		<tag k="name" v="Kvalvika" />
		<tag k="place" v="locality" />
		<tag k="ssr:stedsnr" v="30031" />
	</node>
	<node lat="63.58028610851468" lon="8.45753332380462" id="-31844">
		<tag k="name" v="Stormyra" />
		<tag k="natural" v="wetland" />
		<tag k="ssr:stedsnr" v="30155" />
	</node>
	<node lat="63.44190833078504" lon="8.545850005027775" id="-31846">
		<tag k="name" v="Stangheimyra" />
		<tag k="natural" v="wetland" />
		<tag k="ssr:stedsnr" v="30236" />
	</node>
	<node lat="63.43653610718653" lon="8.463899994705887" id="-31851">
		<tag k="name" v="Aspavassmyran" />
		<tag k="natural" v="wetland" />
		<tag k="ssr:stedsnr" v="30288" />
	</node>
	<node lat="63.437822226646226" lon="8.363869443428454" id="-31852">
		<tag k="name" v="Otterurda" />
		<tag k="natural" v="scree" />
		<tag k="ssr:stedsnr" v="30304" />
	</node>
	<node lat="63.449049997547554" lon="8.575391674656485" id="-31857">
		<tag k="name" v="Postmyra" />
		<tag k="natural" v="wetland" />
		<tag k="ssr:stedsnr" v="30262" />
	</node>
	<node lat="63.61634999971678" lon="8.65694999300173" id="-31871">
		<tag k="name" v="Skjulsvika" />
		<tag k="place" v="locality" />
		<tag k="ssr:stedsnr" v="30557" />
	</node>
	<node lat="63.62178055627076" lon="8.66873611770211" id="-31880">
		<tag k="name" v="Valmyra" />
		<tag k="place" v="locality" />
		<tag k="ssr:stedsnr" v="30582" />
	</node>
	<node lat="63.54052222503739" lon="8.524858330396379" id="-31883">
		<tag k="name" v="Grønnmyran" />
		<tag k="natural" v="wetland" />
		<tag k="ssr:stedsnr" v="30646" />
	</node>
	<node lat="63.50350277609287" lon="8.678522225826725" id="-31884">
		<tag k="name" v="Auster Havmyran" />
		<tag k="natural" v="wetland" />
		<tag k="ssr:stedsnr" v="30650" />
	</node>
	<node lat="63.610261108383405" lon="8.774102771276958" id="-31901">
		<tag k="name" v="Stabelsmyran" />
		<tag k="natural" v="wetland" />
		<tag k="ssr:stedsnr" v="30951" />
	</node>
	<node lat="63.5781194443165" lon="9.135283334898132" id="-31904">
		<tag k="name" v="Alvoret" />
		<tag k="place" v="locality" />
		<tag k="ssr:stedsnr" v="31053" />
	</node>
	<node lat="63.52129722282767" lon="9.120958339599808" id="-31920">
		<tag k="name" v="Aunøymyra" />
		<tag k="natural" v="wetland" />
		<tag k="ssr:stedsnr" v="31360" />
	</node>
	<node lat="63.5262972228772" lon="9.38561111387739" id="-31943">
		<tag k="name" v="Karrevika" />
		<tag k="place" v="locality" />
		<tag k="ssr:stedsnr" v="33235" />
	</node>
</osm>
