<?xml version="1.0" encoding="UTF-8"?>
<osm version="0.6" generator="osmapis">
	<node lat="63.49398611167678" lon="9.179255551822674" id="-89979">
		<tag k="amenity" v="community_centre" />
		<tag k="name" v="Bjørkli forsamlingshus" />
		<tag k="ssr:stedsnr" v="241519" />
	</node>
	<node lat="63.648948745661656" lon="9.136952808447488" id="-92254">
		<tag k="amenity" v="place_of_worship" />
		<tag k="denomination" v="lutheran" />
		<tag k="name" v="Nordbotn kirke" />
		<tag k="religion" v="christian" />
		<tag k="ssr:stedsnr" v="13286" />
	</node>
	<node lat="63.6073583301908" lon="8.974666670119168" id="-92810">
		<tag k="amenity" v="place_of_worship" />
		<tag k="denomination" v="lutheran" />
		<tag k="name" v="Fillan kirke" />
		<tag k="religion" v="christian" />
		<tag k="ssr:stedsnr" v="151844" />
	</node>
	<node lat="63.49312499990358" lon="9.126516675376198" id="-92884">
		<tag k="amenity" v="community_centre" />
		<tag k="name" v="Hemnskjela forsamlingshus" />
		<tag k="ssr:stedsnr" v="180520" />
	</node>
	<node lat="63.512122217918794" lon="8.364086105198997" id="-93285">
		<tag k="cemetery" v="grave" />
		<tag k="name" v="Eidsmyra" />
		<tag k="old_name" v="Kvenvær gravkapell" />
		<tag k="place" v="locality" />
		<tag k="ssr:stedsnr" v="333385" />
	</node>
	<node lat="63.64846388838711" lon="8.822011107661561" id="-93782">
		<tag k="amenity" v="community_centre" />
		<tag k="name" v="Åsvang" />
		<tag k="ssr:stedsnr" v="498680" />
	</node>
	<node lat="63.50350555283587" lon="8.279450000462734" id="-94251">
		<tag k="cemetery" v="grave" />
		<tag k="name" v="Rørøya kirkegård" />
		<tag k="place" v="locality" />
		<tag k="ssr:stedsnr" v="636698" />
	</node>
	<node lat="63.43033611332061" lon="8.42758889179185" id="-94312">
		<tag k="amenity" v="place_of_worship" />
		<tag k="denomination" v="lutheran" />
		<tag k="name" v="Forsnes kapell" />
		<tag k="religion" v="christian" />
		<tag k="ssr:stedsnr" v="637319" />
	</node>
	<node lat="63.52981389007149" lon="8.38181665956867" id="-94522">
		<tag k="amenity" v="place_of_worship" />
		<tag k="denomination" v="lutheran" />
		<tag k="name" v="Kvenvær" />
		<tag k="religion" v="christian" />
		<tag k="ssr:stedsnr" v="758471" />
	</node>
	<node lat="63.63297499911249" lon="8.707177779717668" id="-94691">
		<tag k="amenity" v="place_of_worship" />
		<tag k="denomination" v="lutheran" />
		<tag k="name" v="Dolm kirke" />
		<tag k="religion" v="christian" />
		<tag k="ssr:stedsnr" v="802960" />
	</node>
	<node lat="63.62859021174915" lon="8.72678787521875" id="-94856">
		<tag k="amenity" v="place_of_worship" />
		<tag k="denomination" v="lutheran" />
		<tag k="name" v="Hitra kirke" />
		<tag k="religion" v="christian" />
		<tag k="ssr:stedsnr" v="862273" />
	</node>
	<node lat="63.5870392253103" lon="8.66066241340472" id="-94894">
		<tag k="amenity" v="community_centre" />
		<tag k="name" v="Fjellvang" />
		<tag k="ssr:stedsnr" v="863623" />
	</node>
	<node lat="63.52282500159733" lon="9.099074990052435" id="-95149">
		<tag k="amenity" v="place_of_worship" />
		<tag k="denomination" v="lutheran" />
		<tag k="name" v="Sandstad kirke" />
		<tag k="religion" v="christian" />
		<tag k="ssr:stedsnr" v="941392" />
	</node>
	<node lat="63.62893911670721" lon="8.72809529401823" id="-95553">
		<tag k="amenity" v="community_centre" />
		<tag k="name" v="Hitra" />
		<tag k="ssr:stedsnr" v="1076393" />
	</node>
	<node lat="63.63294215848187" lon="8.842094639821468" id="-95555">
		<tag k="amenity" v="community_centre" />
		<tag k="name" v="Barman ungdomshus" />
		<tag k="ssr:stedsnr" v="1076400" />
	</node>
	<node lat="63.544360694271546" lon="9.154799658007923" id="-95556">
		<tag k="alt_name" v="Innsia kulturhus" />
		<tag k="amenity" v="community_centre" />
		<tag k="name" v="Gammelskolen på Strand" />
		<tag k="ssr:stedsnr" v="1076401" />
	</node>
	<node lat="63.43195460723892" lon="8.429942835419451" id="-95557">
		<tag k="amenity" v="community_centre" />
		<tag k="name" v="Forsnes ungdomshus" />
		<tag k="ssr:stedsnr" v="1076403" />
	</node>
	<node lat="63.534464103347055" lon="8.394304614940767" id="-95558">
		<tag k="amenity" v="community_centre" />
		<tag k="name" v="Kvikkheim" />
		<tag k="ssr:stedsnr" v="1076406" />
	</node>
	<node lat="63.515028862499754" lon="9.047987681252332" id="-95559">
		<tag k="amenity" v="community_centre" />
		<tag k="name" v="Solhaug" />
		<tag k="ssr:stedsnr" v="1076407" />
	</node>
</osm>
