<?xml version="1.0" encoding="UTF-8"?>
<osm version="0.6" generator="osmapis">
	<node lat="63.46112499712365" lon="8.373313881312663" id="-29743">
		<tag k="fixme" v="consider natural=peak for the most distinct mountains in the district" />
		<tag k="name" v="Åsan" />
		<tag k="natural" v="hill" />
		<tag k="place" v="locality" />
		<tag k="ssr:stedsnr" v="12115" />
	</node>
	<node lat="63.62616388875179" lon="8.94689722240637" id="-29748">
		<tag k="name" v="Ramberget" />
		<tag k="natural" v="hill" />
		<tag k="place" v="locality" />
		<tag k="ssr:stedsnr" v="13319" />
	</node>
	<node lat="63.56134167011318" lon="8.830827782558735" id="-29753">
		<tag k="name" v="Tømmeråslia" />
		<tag k="natural" v="slope" />
		<tag k="place" v="locality" />
		<tag k="ssr:stedsnr" v="13416" />
	</node>
	<node lat="63.55918333393691" lon="8.781344437318094" id="-29754">
		<tag k="name" v="Storhaugen" />
		<tag k="natural" v="hill" />
		<tag k="place" v="locality" />
		<tag k="ssr:stedsnr" v="13417" />
	</node>
	<node lat="63.55768332922691" lon="8.480691674778273" id="-29772">
		<tag k="name" v="Nesaheia" />
		<tag k="natural" v="hill" />
		<tag k="place" v="locality" />
		<tag k="ssr:stedsnr" v="13578" />
	</node>
	<node lat="63.597444445099846" lon="8.635911116664625" id="-29775">
		<tag k="name" v="Bjørdalsheia" />
		<tag k="natural" v="hill" />
		<tag k="place" v="locality" />
		<tag k="ssr:stedsnr" v="13870" />
	</node>
	<node lat="63.64720000123665" lon="8.93128611652502" id="-29786">
		<tag k="name" v="Fagervika" />
		<tag k="natural" v="slope" />
		<tag k="place" v="locality" />
		<tag k="ssr:stedsnr" v="30102" />
	</node>
	<node lat="63.57538611134192" lon="8.406808324904613" id="-29790">
		<tag k="name" v="Aunklubben" />
		<tag k="natural" v="hill" />
		<tag k="place" v="locality" />
		<tag k="ssr:stedsnr" v="30109" />
	</node>
	<node lat="63.572752782234986" lon="8.455944443949049" id="-29800">
		<tag k="name" v="Klumpen" />
		<tag k="natural" v="hill" />
		<tag k="place" v="locality" />
		<tag k="ssr:stedsnr" v="30180" />
	</node>
	<node lat="63.54551944005029" lon="8.464972223449898" id="-29801">
		<tag k="name" v="Islendskardheia" />
		<tag k="natural" v="hill" />
		<tag k="place" v="locality" />
		<tag k="ssr:stedsnr" v="30015" />
	</node>
	<node lat="63.45421666548967" lon="8.59473054894973" id="-29808">
		<tag k="name" v="Godhamnhausen" />
		<tag k="natural" v="hill" />
		<tag k="place" v="locality" />
		<tag k="ssr:stedsnr" v="30211" />
	</node>
	<node lat="63.432630559958575" lon="8.487327772348191" id="-29813">
		<tag k="name" v="Bjørkadalen" />
		<tag k="natural" v="valley" />
		<tag k="place" v="locality" />
		<tag k="ssr:stedsnr" v="30281" />
	</node>
	<node lat="63.4308750008555" lon="8.415591673775177" id="-29814">
		<tag k="fixme" v="consider natural=peak for the most distinct mountains in the district" />
		<tag k="name" v="Ulvåsen" />
		<tag k="natural" v="hill" />
		<tag k="place" v="locality" />
		<tag k="ssr:stedsnr" v="30320" />
	</node>
	<node lat="63.61235277888256" lon="8.644049999351076" id="-29816">
		<tag k="name" v="Vedavågdalen" />
		<tag k="natural" v="valley" />
		<tag k="place" v="locality" />
		<tag k="ssr:stedsnr" v="30567" />
	</node>
	<node lat="63.63324721965432" lon="8.711213896855842" id="-29818">
		<tag k="name" v="Likberget" />
		<tag k="natural" v="hill" />
		<tag k="place" v="locality" />
		<tag k="ssr:stedsnr" v="30517" />
	</node>
	<node lat="63.60029444367657" lon="8.742272224659223" id="-29821">
		<tag k="fixme" v="consider natural=peak for the most distinct mountains in the district" />
		<tag k="name" v="Linderåsen" />
		<tag k="natural" v="hill" />
		<tag k="place" v="locality" />
		<tag k="ssr:stedsnr" v="30540" />
	</node>
	<node lat="63.62249999824083" lon="8.72714167564131" id="-29822">
		<tag k="name" v="Varden" />
		<tag k="natural" v="hill" />
		<tag k="place" v="locality" />
		<tag k="ssr:stedsnr" v="30601" />
	</node>
	<node lat="63.6067166673862" lon="8.818513887108592" id="-29840">
		<tag k="name" v="Brenthaugen" />
		<tag k="natural" v="hill" />
		<tag k="place" v="locality" />
		<tag k="ssr:stedsnr" v="30809" />
	</node>
	<node lat="63.56119722019613" lon="8.80889444769341" id="-29841">
		<tag k="name" v="Rørtjørnhammaren" />
		<tag k="natural" v="hill" />
		<tag k="place" v="locality" />
		<tag k="ssr:stedsnr" v="30810" />
	</node>
	<node lat="63.50076389143172" lon="8.807444443193937" id="-29843">
		<tag k="name" v="Litlbjørndalen" />
		<tag k="natural" v="valley" />
		<tag k="place" v="locality" />
		<tag k="ssr:stedsnr" v="30819" />
	</node>
	<node lat="63.57003333129864" lon="9.040524998068937" id="-29853">
		<tag k="name" v="Mossaterningsdalen" />
		<tag k="natural" v="valley" />
		<tag k="place" v="locality" />
		<tag k="ssr:stedsnr" v="31280" />
	</node>
	<node lat="63.52202500436317" lon="9.055988885439502" id="-29854">
		<tag k="fixme" v="consider natural=peak for the most distinct mountains in the district" />
		<tag k="name" v="Bjørkåsen" />
		<tag k="natural" v="hill" />
		<tag k="place" v="locality" />
		<tag k="ssr:stedsnr" v="31415" />
	</node>
	<node lat="63.51847777437404" lon="9.015319446504497" id="-29856">
		<tag k="name" v="Damvasshaugen" />
		<tag k="natural" v="hill" />
		<tag k="place" v="locality" />
		<tag k="ssr:stedsnr" v="31714" />
	</node>
	<node lat="63.53061666735431" lon="8.992008323648484" id="-29858">
		<tag k="name" v="Tyneshaugen" />
		<tag k="natural" v="hill" />
		<tag k="place" v="locality" />
		<tag k="ssr:stedsnr" v="31719" />
	</node>
	<node lat="63.54345833046022" lon="9.107972222750082" id="-29860">
		<tag k="name" v="Damvassheia" />
		<tag k="natural" v="hill" />
		<tag k="place" v="locality" />
		<tag k="ssr:stedsnr" v="31467" />
	</node>
	<node lat="63.57267499782473" lon="8.950319443751448" id="-29861">
		<tag k="fixme" v="consider natural=peak for the most distinct mountains in the district" />
		<tag k="name" v="Litlfosskammen" />
		<tag k="natural" v="hill" />
		<tag k="place" v="locality" />
		<tag k="ssr:stedsnr" v="31672" />
	</node>
	<node lat="63.45627499673025" lon="9.280613892065986" id="-29866">
		<tag k="name" v="Husfjellet" />
		<tag k="natural" v="hill" />
		<tag k="place" v="locality" />
		<tag k="ssr:stedsnr" v="33163" />
	</node>
	<node lat="63.48982499630047" lon="9.177397225560382" id="-29869">
		<tag k="name" v="Ørnhaugen" />
		<tag k="natural" v="hill" />
		<tag k="place" v="locality" />
		<tag k="ssr:stedsnr" v="33218" />
	</node>
	<node lat="63.49195000375674" lon="9.22948055269489" id="-29871">
		<tag k="name" v="Køysa" />
		<tag k="place" v="locality" />
		<tag k="ssr:stedsnr" v="33269" />
	</node>
	<node lat="63.465530551497196" lon="8.53911667366204" id="-29887">
		<tag k="name" v="Flatberget" />
		<tag k="natural" v="hill" />
		<tag k="place" v="locality" />
		<tag k="ssr:stedsnr" v="73112" />
	</node>
	<node lat="63.48125278095249" lon="8.491327770830955" id="-29889">
		<tag k="alt_name" v="Skårfjella" />
		<tag k="fixme" v="consider natural=peak for the most distinct mountains in the district" />
		<tag k="name" v="Skårfjellet" />
		<tag k="natural" v="hill" />
		<tag k="place" v="locality" />
		<tag k="ssr:stedsnr" v="73068" />
	</node>
	<node lat="63.52508333512201" lon="8.883874995383628" id="-29892">
		<tag k="fixme" v="consider natural=peak for the most distinct mountains in the district" />
		<tag k="name" v="Haltdalsfjellet" />
		<tag k="natural" v="hill" />
		<tag k="place" v="locality" />
		<tag k="ssr:stedsnr" v="73462" />
	</node>
	<node lat="63.496608328978034" lon="8.763944436664325" id="-29895">
		<tag k="fixme" v="consider natural=peak for the most distinct mountains in the district" />
		<tag k="name" v="Ramnåsheia" />
		<tag k="natural" v="hill" />
		<tag k="place" v="locality" />
		<tag k="ssr:stedsnr" v="73468" />
	</node>
	<node lat="63.467380553720126" lon="9.307738896067095" id="-29898">
		<tag k="name" v="Skarvberget" />
		<tag k="natural" v="hill" />
		<tag k="place" v="locality" />
		<tag k="ssr:stedsnr" v="73970" />
	</node>
	<node lat="63.55904722407467" lon="9.069702787315315" id="-29901">
		<tag k="fixme" v="consider natural=peak for the most distinct mountains in the district" />
		<tag k="name" v="Vardeheia" />
		<tag k="natural" v="hill" />
		<tag k="place" v="locality" />
		<tag k="ssr:stedsnr" v="74416" />
	</node>
	<node lat="63.63635000162271" lon="9.13629444568763" id="-29904">
		<tag k="fixme" v="consider natural=peak for the most distinct mountains in the district" />
		<tag k="name" v="Myrafjellet" />
		<tag k="natural" v="hill" />
		<tag k="place" v="locality" />
		<tag k="ssr:stedsnr" v="74304" />
	</node>
	<node lat="63.51556111019726" lon="8.599691661049047" id="-29912">
		<tag k="alt_name" v="Ytter Leberget;Leberget, yt" />
		<tag k="name" v="Ytre Leberget" />
		<tag k="natural" v="hill" />
		<tag k="place" v="locality" />
		<tag k="ssr:stedsnr" v="74522" />
	</node>
	<node lat="63.5920305512652" lon="8.61129445450916" id="-29916">
		<tag k="fixme" v="consider natural=peak for the most distinct mountains in the district" />
		<tag k="name" v="Hestnesfjellet" />
		<tag k="natural" v="hill" />
		<tag k="place" v="locality" />
		<tag k="ssr:stedsnr" v="74612" />
	</node>
	<node lat="63.54547221877827" lon="8.452280555745107" id="-29923">
		<tag k="name" v="Vardan" />
		<tag k="natural" v="hill" />
		<tag k="place" v="locality" />
		<tag k="ssr:stedsnr" v="90016" />
	</node>
	<node lat="63.530094444156276" lon="8.529311114162839" id="-29931">
		<tag k="name" v="Paradiset" />
		<tag k="natural" v="slope" />
		<tag k="place" v="locality" />
		<tag k="ssr:stedsnr" v="90723" />
	</node>
	<node lat="63.57113333046275" lon="8.408861119476002" id="-29933">
		<tag k="name" v="Liaheian" />
		<tag k="natural" v="hill" />
		<tag k="place" v="locality" />
		<tag k="ssr:stedsnr" v="91102" />
	</node>
	<node lat="63.569327774476925" lon="8.419002787775085" id="-29934">
		<tag k="name" v="Bussikallberget" />
		<tag k="natural" v="hill" />
		<tag k="place" v="locality" />
		<tag k="ssr:stedsnr" v="91103" />
	</node>
	<node lat="63.45885833314688" lon="8.446738888126278" id="-29942">
		<tag k="name" v="Bjørkadalsaksla" />
		<tag k="natural" v="ridge" />
		<tag k="place" v="locality" />
		<tag k="ssr:stedsnr" v="91519" />
	</node>
	<node lat="63.624855557407216" lon="8.923277786766485" id="-29946">
		<tag k="name" v="Steinbakken" />
		<tag k="natural" v="slope" />
		<tag k="place" v="locality" />
		<tag k="ssr:stedsnr" v="91781" />
	</node>
	<node lat="63.617555554373965" lon="8.561436113945474" id="-29949">
		<tag k="name" v="Skjuraberget" />
		<tag k="natural" v="hill" />
		<tag k="place" v="locality" />
		<tag k="ssr:stedsnr" v="91906" />
	</node>
	<node lat="63.5627805548516" lon="8.798072225106653" id="-29951">
		<tag k="name" v="Risdalshaugen" />
		<tag k="natural" v="hill" />
		<tag k="place" v="locality" />
		<tag k="ssr:stedsnr" v="91807" />
	</node>
	<node lat="63.5658472263046" lon="8.78306111992945" id="-29952">
		<tag k="name" v="Brattlia" />
		<tag k="natural" v="slope" />
		<tag k="place" v="locality" />
		<tag k="ssr:stedsnr" v="91811" />
	</node>
	<node lat="63.56660555263771" lon="8.38064166764757" id="-29953">
		<tag k="name" v="Skaget" />
		<tag k="place" v="locality" />
		<tag k="ssr:stedsnr" v="91865" />
	</node>
	<node lat="63.49917222014325" lon="8.74606111397258" id="-29954">
		<tag k="name" v="Stordalsheia" />
		<tag k="natural" v="hill" />
		<tag k="place" v="locality" />
		<tag k="ssr:stedsnr" v="91871" />
	</node>
	<node lat="63.53959444567764" lon="8.968711119711639" id="-29955">
		<tag k="name" v="Gallileadalen" />
		<tag k="natural" v="valley" />
		<tag k="place" v="locality" />
		<tag k="ssr:stedsnr" v="91875" />
	</node>
	<node lat="63.57603333198662" lon="9.176483341071153" id="-29961">
		<tag k="name" v="Klubben" />
		<tag k="natural" v="hill" />
		<tag k="place" v="locality" />
		<tag k="ssr:stedsnr" v="92326" />
	</node>
	<node lat="63.55872222587353" lon="9.152644448116039" id="-29965">
		<tag k="name" v="Grisberget" />
		<tag k="natural" v="hill" />
		<tag k="place" v="locality" />
		<tag k="ssr:stedsnr" v="92284" />
	</node>
	<node lat="63.506869448614204" lon="8.904480554691515" id="-29967">
		<tag k="fixme" v="consider natural=peak for the most distinct mountains in the district" />
		<tag k="name" v="Langvassåsan" />
		<tag k="natural" v="hill" />
		<tag k="place" v="locality" />
		<tag k="ssr:stedsnr" v="92465" />
	</node>
	<node lat="63.55478889273308" lon="9.136163887819269" id="-29968">
		<tag k="name" v="Ramnberget" />
		<tag k="natural" v="hill" />
		<tag k="place" v="locality" />
		<tag k="ssr:stedsnr" v="92473" />
	</node>
	<node lat="63.4786722230786" lon="8.731241671761675" id="-29970">
		<tag k="name" v="Haukvikaksla" />
		<tag k="natural" v="hill" />
		<tag k="place" v="locality" />
		<tag k="ssr:stedsnr" v="92664" />
	</node>
	<node lat="63.46920000081352" lon="9.20714444301384" id="-29978">
		<tag k="name" v="Dugurdsheia" />
		<tag k="natural" v="hill" />
		<tag k="place" v="locality" />
		<tag k="ssr:stedsnr" v="93161" />
	</node>
	<node lat="63.522808336017896" lon="9.267497213392366" id="-29981">
		<tag k="fixme" v="consider natural=peak for the most distinct mountains in the district" />
		<tag k="name" v="Jurklumpen" />
		<tag k="natural" v="hill" />
		<tag k="place" v="locality" />
		<tag k="ssr:stedsnr" v="93179" />
	</node>
	<node lat="63.52682222249585" lon="9.362486106255325" id="-29984">
		<tag k="name" v="Asplia" />
		<tag k="natural" v="slope" />
		<tag k="place" v="locality" />
		<tag k="ssr:stedsnr" v="93575" />
	</node>
	<node lat="63.540455557430654" lon="9.351341669782347" id="-29986">
		<tag k="name" v="Steinbitholan" />
		<tag k="natural" v="valley" />
		<tag k="place" v="locality" />
		<tag k="ssr:stedsnr" v="93619" />
	</node>
	<node lat="63.5768083340739" lon="8.468238898390267" id="-29988">
		<tag k="name" v="Smibelgheia" />
		<tag k="natural" v="hill" />
		<tag k="place" v="locality" />
		<tag k="ssr:stedsnr" v="96310" />
	</node>
	<node lat="63.586583331123265" lon="8.448936104204142" id="-29990">
		<tag k="name" v="Haukarvarden" />
		<tag k="natural" v="hill" />
		<tag k="place" v="locality" />
		<tag k="ssr:stedsnr" v="96673" />
	</node>
	<node lat="63.570988886144065" lon="8.427388896776007" id="-29992">
		<tag k="name" v="Bandhaugen" />
		<tag k="natural" v="hill" />
		<tag k="place" v="locality" />
		<tag k="ssr:stedsnr" v="97277" />
	</node>
	<node lat="63.474238892659535" lon="8.487358333504305" id="-30002">
		<tag k="name" v="Rundhaugen" />
		<tag k="natural" v="hill" />
		<tag k="place" v="locality" />
		<tag k="ssr:stedsnr" v="133109" />
	</node>
	<node lat="63.472699997921985" lon="8.422405554933851" id="-30004">
		<tag k="fixme" v="consider natural=peak for the most distinct mountains in the district" />
		<tag k="name" v="Skogfjellet" />
		<tag k="natural" v="hill" />
		<tag k="place" v="locality" />
		<tag k="ssr:stedsnr" v="133114" />
	</node>
	<node lat="63.45466944099342" lon="8.469338882610527" id="-30005">
		<tag k="name" v="Storturanda" />
		<tag k="natural" v="valley" />
		<tag k="place" v="locality" />
		<tag k="ssr:stedsnr" v="133015" />
	</node>
	<node lat="63.44981944653554" lon="8.492527769237912" id="-30006">
		<tag k="fixme" v="consider natural=peak for the most distinct mountains in the district" />
		<tag k="name" v="Litltua" />
		<tag k="natural" v="hill" />
		<tag k="place" v="locality" />
		<tag k="ssr:stedsnr" v="133016" />
	</node>
	<node lat="63.487897218421054" lon="8.867141666852815" id="-30013">
		<tag k="alt_name" v="Tinnfjellett" />
		<tag k="fixme" v="consider natural=peak for the most distinct mountains in the district" />
		<tag k="name" v="Tindfjellet" />
		<tag k="natural" v="hill" />
		<tag k="place" v="locality" />
		<tag k="ssr:stedsnr" v="133408" />
	</node>
	<node lat="63.615877782237305" lon="9.079361107909724" id="-30023">
		<tag k="name" v="Haglebjøra" />
		<tag k="natural" v="hill" />
		<tag k="place" v="locality" />
		<tag k="ssr:stedsnr" v="134367" />
	</node>
	<node lat="63.6341305582575" lon="8.70629999308648" id="-30040">
		<tag k="name" v="Dolmvarden" />
		<tag k="natural" v="hill" />
		<tag k="place" v="locality" />
		<tag k="ssr:stedsnr" v="134955" />
	</node>
	<node lat="63.473716668102576" lon="9.24709999948147" id="-30071">
		<tag k="alt_name" v="Kvennfjellet" />
		<tag k="fixme" v="consider natural=peak for the most distinct mountains in the district" />
		<tag k="name" v="Tenorlifjellet" />
		<tag k="natural" v="hill" />
		<tag k="place" v="locality" />
		<tag k="ssr:stedsnr" v="255985" />
	</node>
	<node lat="63.483188890541285" lon="9.259888882329838" id="-30072">
		<tag k="fixme" v="consider natural=peak for the most distinct mountains in the district" />
		<tag k="name" v="Storfjellet" />
		<tag k="natural" v="hill" />
		<tag k="place" v="locality" />
		<tag k="ssr:stedsnr" v="255996" />
	</node>
	<node lat="63.52079444022383" lon="9.270241663314287" id="-30075">
		<tag k="fixme" v="consider natural=peak for the most distinct mountains in the district" />
		<tag k="name" v="Vingskottet" />
		<tag k="natural" v="hill" />
		<tag k="place" v="locality" />
		<tag k="ssr:stedsnr" v="256158" />
	</node>
	<node lat="63.54550555648396" lon="8.819394446463436" id="-30078">
		<tag k="alt_name" v="Kjevvelåsen" />
		<tag k="fixme" v="consider natural=peak for the most distinct mountains in the district" />
		<tag k="name" v="Kjevlåsen" />
		<tag k="natural" v="hill" />
		<tag k="place" v="locality" />
		<tag k="ssr:stedsnr" v="256379" />
	</node>
	<node lat="63.596927779653655" lon="9.046877774827832" id="-30085">
		<tag k="name" v="Aureheia" />
		<tag k="natural" v="hill" />
		<tag k="place" v="locality" />
		<tag k="ssr:stedsnr" v="256335" />
	</node>
	<node lat="63.545536110486665" lon="8.481441673777596" id="-30087">
		<tag k="fixme" v="consider natural=peak for the most distinct mountains in the district" />
		<tag k="name" v="Hjortfjellet" />
		<tag k="natural" v="hill" />
		<tag k="place" v="locality" />
		<tag k="ssr:stedsnr" v="151003" />
	</node>
	<node lat="63.544036109285194" lon="8.453263883016179" id="-30091">
		<tag k="name" v="Grautskardheia" />
		<tag k="natural" v="hill" />
		<tag k="place" v="locality" />
		<tag k="ssr:stedsnr" v="151015" />
	</node>
	<node lat="63.58539444428679" lon="8.451986118335997" id="-30100">
		<tag k="name" v="Vardan" />
		<tag k="natural" v="hill" />
		<tag k="place" v="locality" />
		<tag k="ssr:stedsnr" v="151165" />
	</node>
	<node lat="63.43276111445305" lon="8.44101388335356" id="-30104">
		<tag k="name" v="Einskardklumpen" />
		<tag k="natural" v="hill" />
		<tag k="place" v="locality" />
		<tag k="ssr:stedsnr" v="151310" />
	</node>
	<node lat="63.44534166604783" lon="8.373061115690833" id="-30105">
		<tag k="name" v="Dumpa" />
		<tag k="natural" v="slope" />
		<tag k="place" v="locality" />
		<tag k="ssr:stedsnr" v="151361" />
	</node>
	<node lat="63.54599444130602" lon="8.479455559533458" id="-30115">
		<tag k="name" v="Hjortheia" />
		<tag k="natural" v="hill" />
		<tag k="place" v="locality" />
		<tag k="ssr:stedsnr" v="256499" />
	</node>
	<node lat="63.641236114415214" lon="8.671066663605615" id="-30118">
		<tag k="name" v="Oløyan" />
		<tag k="natural" v="hill" />
		<tag k="place" v="locality" />
		<tag k="ssr:stedsnr" v="151515" />
	</node>
	<node lat="63.59645555271733" lon="8.734347213979312" id="-30120">
		<tag k="fixme" v="consider natural=peak for the most distinct mountains in the district" />
		<tag k="name" v="Hallaråsen" />
		<tag k="natural" v="hill" />
		<tag k="place" v="locality" />
		<tag k="ssr:stedsnr" v="151553" />
	</node>
	<node lat="63.546941670835835" lon="8.519619446102354" id="-30123">
		<tag k="name" v="Stordalen" />
		<tag k="natural" v="valley" />
		<tag k="place" v="locality" />
		<tag k="ssr:stedsnr" v="151712" />
	</node>
	<node lat="63.5300194435346" lon="8.402361113092988" id="-30126">
		<tag k="name" v="Gjørendalen" />
		<tag k="natural" v="valley" />
		<tag k="place" v="locality" />
		<tag k="ssr:stedsnr" v="151456" />
	</node>
	<node lat="63.45900555962691" lon="8.400844438699725" id="-30128">
		<tag k="name" v="Kongensbergdalen" />
		<tag k="natural" v="valley" />
		<tag k="place" v="locality" />
		<tag k="ssr:stedsnr" v="151464" />
	</node>
	<node lat="63.46001944862138" lon="8.400583329291077" id="-30129">
		<tag k="name" v="Litl Kongensberget" />
		<tag k="natural" v="hill" />
		<tag k="place" v="locality" />
		<tag k="ssr:stedsnr" v="151465" />
	</node>
	<node lat="63.50164444456645" lon="8.377869437432944" id="-30130">
		<tag k="name" v="Middagsheia" />
		<tag k="natural" v="hill" />
		<tag k="place" v="locality" />
		<tag k="ssr:stedsnr" v="151668" />
	</node>
	<node lat="63.51175277465713" lon="8.31137777078383" id="-30132">
		<tag k="name" v="Vikern" />
		<tag k="natural" v="slope" />
		<tag k="place" v="locality" />
		<tag k="ssr:stedsnr" v="151695" />
	</node>
	<node lat="63.56022500408679" lon="8.880613884123829" id="-30133">
		<tag k="name" v="Pikhaugen" />
		<tag k="natural" v="hill" />
		<tag k="place" v="locality" />
		<tag k="ssr:stedsnr" v="151802" />
	</node>
	<node lat="63.56240277581827" lon="8.795188886751562" id="-30134">
		<tag k="name" v="Risdalen" />
		<tag k="natural" v="valley" />
		<tag k="place" v="locality" />
		<tag k="ssr:stedsnr" v="151803" />
	</node>
	<node lat="63.52549444451292" lon="8.92628055396691" id="-30144">
		<tag k="name" v="Jakthaugan" />
		<tag k="natural" v="hill" />
		<tag k="place" v="locality" />
		<tag k="ssr:stedsnr" v="151871" />
	</node>
	<node lat="63.51704722344378" lon="9.073152784775008" id="-30153">
		<tag k="name" v="Sommarfjøshaugen" />
		<tag k="natural" v="hill" />
		<tag k="place" v="locality" />
		<tag k="ssr:stedsnr" v="152451" />
	</node>
	<node lat="63.54232499623333" lon="9.048802785101902" id="-30155">
		<tag k="name" v="Råneslia" />
		<tag k="natural" v="slope" />
		<tag k="place" v="locality" />
		<tag k="ssr:stedsnr" v="152305" />
	</node>
	<node lat="63.56505555205085" lon="9.085997229577337" id="-30156">
		<tag k="name" v="Inner Ramnberget" />
		<tag k="natural" v="hill" />
		<tag k="place" v="locality" />
		<tag k="ssr:stedsnr" v="152306" />
	</node>
	<node lat="63.478683328915324" lon="8.859833330245813" id="-30157">
		<tag k="name" v="Kalvhaugen" />
		<tag k="natural" v="hill" />
		<tag k="place" v="locality" />
		<tag k="ssr:stedsnr" v="152354" />
	</node>
	<node lat="63.50214722306324" lon="9.25683611594071" id="-30171">
		<tag k="name" v="Persneshaugen" />
		<tag k="natural" v="hill" />
		<tag k="place" v="locality" />
		<tag k="ssr:stedsnr" v="153217" />
	</node>
	<node lat="63.50253333450356" lon="9.241441667087264" id="-30172">
		<tag k="name" v="Klempen" />
		<tag k="natural" v="ridge" />
		<tag k="place" v="locality" />
		<tag k="ssr:stedsnr" v="153223" />
	</node>
	<node lat="63.5059472214279" lon="9.239352783473572" id="-30173">
		<tag k="name" v="Ørndalen" />
		<tag k="natural" v="valley" />
		<tag k="place" v="locality" />
		<tag k="ssr:stedsnr" v="153226" />
	</node>
	<node lat="63.459349999229005" lon="9.248277768530368" id="-30177">
		<tag k="name" v="Oshaugen" />
		<tag k="natural" v="hill" />
		<tag k="place" v="locality" />
		<tag k="ssr:stedsnr" v="154156" />
	</node>
	<node lat="63.45717777495593" lon="9.262091675478407" id="-30178">
		<tag k="name" v="Sørranda" />
		<tag k="natural" v="hill" />
		<tag k="place" v="locality" />
		<tag k="ssr:stedsnr" v="154163" />
	</node>
	<node lat="63.49973055138889" lon="9.269950007816307" id="-30179">
		<tag k="name" v="Uthaugen" />
		<tag k="natural" v="hill" />
		<tag k="place" v="locality" />
		<tag k="ssr:stedsnr" v="154324" />
	</node>
	<node lat="63.4969583315692" lon="9.310861105147973" id="-30189">
		<tag k="name" v="Tømmerdalen" />
		<tag k="natural" v="valley" />
		<tag k="place" v="locality" />
		<tag k="ssr:stedsnr" v="154663" />
	</node>
	<node lat="63.46237500127874" lon="9.333083327600388" id="-30190">
		<tag k="name" v="Melkvikhammaren" />
		<tag k="natural" v="hill" />
		<tag k="place" v="locality" />
		<tag k="ssr:stedsnr" v="154670" />
	</node>
	<node lat="63.55723055192189" lon="8.725547230370061" id="-30201">
		<tag k="name" v="Årdalen" />
		<tag k="natural" v="valley" />
		<tag k="place" v="locality" />
		<tag k="ssr:stedsnr" v="169826" />
	</node>
	<node lat="63.62388610979329" lon="8.806977773110297" id="-30203">
		<tag k="fixme" v="consider natural=peak for the most distinct mountains in the district" />
		<tag k="name" v="Hjertåsen" />
		<tag k="natural" v="hill" />
		<tag k="place" v="locality" />
		<tag k="ssr:stedsnr" v="272929" />
	</node>
	<node lat="63.63291944009138" lon="9.095694447352322" id="-30205">
		<tag k="fixme" v="consider natural=peak for the most distinct mountains in the district" />
		<tag k="name" v="Brandåsfjellet" />
		<tag k="natural" v="hill" />
		<tag k="place" v="locality" />
		<tag k="ssr:stedsnr" v="195336" />
	</node>
	<node lat="63.47090555905518" lon="9.206838887331243" id="-30216">
		<tag k="alt_name" v="Meknubben" />
		<tag k="fixme" v="consider natural=peak for the most distinct mountains in the district" />
		<tag k="name" v="Knubban" />
		<tag k="natural" v="hill" />
		<tag k="place" v="locality" />
		<tag k="ssr:stedsnr" v="195528" />
	</node>
	<node lat="63.613619448669766" lon="8.695297215086638" id="-30224">
		<tag k="name" v="Mørkdalen" />
		<tag k="natural" v="valley" />
		<tag k="place" v="locality" />
		<tag k="ssr:stedsnr" v="195902" />
	</node>
	<node lat="63.56766110973216" lon="8.370236120477086" id="-30241">
		<tag k="name" v="Holmen" />
		<tag k="natural" v="hill" />
		<tag k="place" v="locality" />
		<tag k="ssr:stedsnr" v="212081" />
	</node>
	<node lat="63.65160000242375" lon="8.956038882202607" id="-30243">
		<tag k="name" v="Vinkjellarklova" />
		<tag k="natural" v="hill" />
		<tag k="place" v="locality" />
		<tag k="ssr:stedsnr" v="212090" />
	</node>
	<node lat="63.57663611300727" lon="8.47441666375867" id="-30244">
		<tag k="name" v="Kattuggelheian" />
		<tag k="natural" v="hill" />
		<tag k="place" v="locality" />
		<tag k="ssr:stedsnr" v="212207" />
	</node>
	<node lat="63.464894446991224" lon="8.62324445193979" id="-30247">
		<tag k="name" v="Brattåhaugen" />
		<tag k="natural" v="hill" />
		<tag k="place" v="locality" />
		<tag k="ssr:stedsnr" v="212224" />
	</node>
	<node lat="63.47043611154619" lon="8.61897778493409" id="-30248">
		<tag k="name" v="Brattåtuva" />
		<tag k="natural" v="hill" />
		<tag k="place" v="locality" />
		<tag k="ssr:stedsnr" v="212225" />
	</node>
	<node lat="63.629224999652045" lon="9.040813893941328" id="-30249">
		<tag k="name" v="Sommarfjøsheia" />
		<tag k="natural" v="hill" />
		<tag k="place" v="locality" />
		<tag k="ssr:stedsnr" v="212226" />
	</node>
	<node lat="63.63011944113231" lon="9.047208333107351" id="-30250">
		<tag k="name" v="Vallsaksheia" />
		<tag k="natural" v="hill" />
		<tag k="place" v="locality" />
		<tag k="ssr:stedsnr" v="212231" />
	</node>
	<node lat="63.44688333198889" lon="8.411380548523537" id="-30252">
		<tag k="name" v="Ådalsutkiken" />
		<tag k="natural" v="hill" />
		<tag k="place" v="locality" />
		<tag k="ssr:stedsnr" v="212294" />
	</node>
	<node lat="63.594080558059744" lon="8.643444434537127" id="-30255">
		<tag k="name" v="Naseterheia" />
		<tag k="natural" v="hill" />
		<tag k="place" v="locality" />
		<tag k="ssr:stedsnr" v="212534" />
	</node>
	<node lat="63.609572225049774" lon="8.694616664075626" id="-30256">
		<tag k="name" v="Blåbærvarden" />
		<tag k="natural" v="hill" />
		<tag k="place" v="locality" />
		<tag k="ssr:stedsnr" v="212577" />
	</node>
	<node lat="63.5468361090003" lon="8.537416675891432" id="-30258">
		<tag k="name" v="Vester Grytheia" />
		<tag k="natural" v="hill" />
		<tag k="place" v="locality" />
		<tag k="ssr:stedsnr" v="212733" />
	</node>
	<node lat="63.45996388942777" lon="8.44557778089133" id="-30259">
		<tag k="name" v="Bjørkadalen" />
		<tag k="natural" v="valley" />
		<tag k="place" v="locality" />
		<tag k="ssr:stedsnr" v="212479" />
	</node>
	<node lat="63.47043333338081" lon="8.438997213245726" id="-30260">
		<tag k="fixme" v="consider natural=peak for the most distinct mountains in the district" />
		<tag k="name" v="Hyttstolen" />
		<tag k="natural" v="hill" />
		<tag k="place" v="locality" />
		<tag k="ssr:stedsnr" v="212482" />
	</node>
	<node lat="63.529872224760695" lon="8.527822213838434" id="-30264">
		<tag k="name" v="Skumfossdalen" />
		<tag k="natural" v="valley" />
		<tag k="place" v="locality" />
		<tag k="ssr:stedsnr" v="212687" />
	</node>
	<node lat="63.538036112421345" lon="8.535922228308511" id="-30265">
		<tag k="name" v="Budalen" />
		<tag k="natural" v="valley" />
		<tag k="place" v="locality" />
		<tag k="ssr:stedsnr" v="212691" />
	</node>
	<node lat="63.527252777691245" lon="8.517016662350107" id="-30266">
		<tag k="name" v="Vester Kjervildalen" />
		<tag k="natural" v="valley" />
		<tag k="place" v="locality" />
		<tag k="ssr:stedsnr" v="212697" />
	</node>
	<node lat="63.6526138872143" lon="8.978386116430883" id="-30267">
		<tag k="name" v="Ormtunga" />
		<tag k="natural" v="slope" />
		<tag k="place" v="locality" />
		<tag k="ssr:stedsnr" v="212779" />
	</node>
	<node lat="63.64986461498513" lon="8.777791838182889" id="-30268">
		<tag k="name" v="Breivollan" />
		<tag k="natural" v="hill" />
		<tag k="place" v="locality" />
		<tag k="ssr:stedsnr" v="212904" />
	</node>
	<node lat="63.57109721859441" lon="8.59976111627327" id="-30275">
		<tag k="name" v="Kløfthaugen" />
		<tag k="natural" v="hill" />
		<tag k="place" v="locality" />
		<tag k="ssr:stedsnr" v="212985" />
	</node>
	<node lat="63.628263891248686" lon="8.944702785470357" id="-30286">
		<tag k="name" v="Tverrskardet" />
		<tag k="natural" v="valley" />
		<tag k="place" v="locality" />
		<tag k="ssr:stedsnr" v="212894" />
	</node>
	<node lat="63.57559444423022" lon="9.202522226947009" id="-30290">
		<tag k="fixme" v="consider natural=peak for the most distinct mountains in the district" />
		<tag k="name" v="Yttervarden" />
		<tag k="natural" v="hill" />
		<tag k="place" v="locality" />
		<tag k="ssr:stedsnr" v="213281" />
	</node>
	<node lat="63.559883329056866" lon="9.069652776908336" id="-30293">
		<tag k="name" v="Ytter Vardheia" />
		<tag k="natural" v="hill" />
		<tag k="place" v="locality" />
		<tag k="ssr:stedsnr" v="213291" />
	</node>
	<node lat="63.52866944667937" lon="9.089250008270763" id="-30295">
		<tag k="name" v="Merraberget" />
		<tag k="natural" v="hill" />
		<tag k="place" v="locality" />
		<tag k="ssr:stedsnr" v="213425" />
	</node>
	<node lat="63.500547218922875" lon="8.933441671599754" id="-30298">
		<tag k="name" v="Smørstakken" />
		<tag k="natural" v="hill" />
		<tag k="place" v="locality" />
		<tag k="ssr:stedsnr" v="213475" />
	</node>
	<node lat="63.550394440280364" lon="9.036616661202064" id="-30300">
		<tag k="name" v="Måsheia" />
		<tag k="natural" v="hill" />
		<tag k="place" v="locality" />
		<tag k="ssr:stedsnr" v="213308" />
	</node>
	<node lat="63.50514166428246" lon="9.075077776969467" id="-30301">
		<tag k="name" v="Svartkuhaugen" />
		<tag k="natural" v="hill" />
		<tag k="place" v="locality" />
		<tag k="ssr:stedsnr" v="213327" />
	</node>
	<node lat="63.56819999652378" lon="9.177091660491497" id="-30304">
		<tag k="name" v="Storheia" />
		<tag k="natural" v="hill" />
		<tag k="place" v="locality" />
		<tag k="ssr:stedsnr" v="213388" />
	</node>
	<node lat="63.56476389175524" lon="8.914100002789304" id="-30308">
		<tag k="name" v="Ytter Larsskoglia" />
		<tag k="natural" v="slope" />
		<tag k="place" v="locality" />
		<tag k="ssr:stedsnr" v="213694" />
	</node>
	<node lat="63.52554444500856" lon="9.267858336479208" id="-30312">
		<tag k="name" v="Stordalen" />
		<tag k="natural" v="valley" />
		<tag k="place" v="locality" />
		<tag k="ssr:stedsnr" v="214181" />
	</node>
	<node lat="63.51232499905436" lon="9.275461115810137" id="-30314">
		<tag k="name" v="Litlråa" />
		<tag k="natural" v="valley" />
		<tag k="place" v="locality" />
		<tag k="ssr:stedsnr" v="214187" />
	</node>
	<node lat="63.49923055783941" lon="9.228705559538884" id="-30315">
		<tag k="fixme" v="consider natural=peak for the most distinct mountains in the district" />
		<tag k="name" v="Trolldalsfjellet" />
		<tag k="natural" v="hill" />
		<tag k="place" v="locality" />
		<tag k="ssr:stedsnr" v="215274" />
	</node>
	<node lat="63.483580555595566" lon="9.268630558915136" id="-30316">
		<tag k="name" v="Tobbdalshalsen" />
		<tag k="natural" v="valley" />
		<tag k="place" v="locality" />
		<tag k="ssr:stedsnr" v="215288" />
	</node>
	<node lat="63.488388889693745" lon="9.275277770277684" id="-30317">
		<tag k="name" v="Middagsbakken" />
		<tag k="natural" v="slope" />
		<tag k="place" v="locality" />
		<tag k="ssr:stedsnr" v="215289" />
	</node>
	<node lat="63.52034999613236" lon="9.345319446847522" id="-30319">
		<tag k="name" v="Litlvatndalen" />
		<tag k="natural" v="valley" />
		<tag k="place" v="locality" />
		<tag k="ssr:stedsnr" v="215589" />
	</node>
	<node lat="63.499900000661945" lon="9.286852784162253" id="-30320">
		<tag k="name" v="Lihausen" />
		<tag k="natural" v="hill" />
		<tag k="place" v="locality" />
		<tag k="ssr:stedsnr" v="215594" />
	</node>
	<node lat="63.455802780624516" lon="9.31433332440284" id="-30322">
		<tag k="name" v="Brattlia" />
		<tag k="natural" v="slope" />
		<tag k="place" v="locality" />
		<tag k="ssr:stedsnr" v="215906" />
	</node>
	<node lat="63.58963611281254" lon="8.793986119296742" id="-30329">
		<tag k="name" v="Kroppliheian" />
		<tag k="natural" v="hill" />
		<tag k="place" v="locality" />
		<tag k="ssr:stedsnr" v="272756" />
	</node>
	<node lat="63.61122778199936" lon="8.67064999320026" id="-30341">
		<tag k="name" v="Slaskovarden" />
		<tag k="natural" v="hill" />
		<tag k="place" v="locality" />
		<tag k="ssr:stedsnr" v="454607" />
	</node>
	<node lat="63.54260277557699" lon="8.663938894710398" id="-30346">
		<tag k="fixme" v="consider natural=peak for the most distinct mountains in the district" />
		<tag k="name" v="Storskoghalsen" />
		<tag k="natural" v="hill" />
		<tag k="place" v="locality" />
		<tag k="ssr:stedsnr" v="454660" />
	</node>
	<node lat="63.62516110689189" lon="9.103180551475473" id="-30351">
		<tag k="fixme" v="consider natural=peak for the most distinct mountains in the district" />
		<tag k="name" v="Kammen" />
		<tag k="natural" v="hill" />
		<tag k="place" v="locality" />
		<tag k="ssr:stedsnr" v="455001" />
	</node>
	<node lat="63.659494440266734" lon="9.111758326168095" id="-30353">
		<tag k="name" v="Lysvikheia" />
		<tag k="natural" v="hill" />
		<tag k="place" v="locality" />
		<tag k="ssr:stedsnr" v="455100" />
	</node>
	<node lat="63.57926388684419" lon="9.077080563562344" id="-30362">
		<tag k="name" v="Bjørkadalslia" />
		<tag k="natural" v="slope" />
		<tag k="place" v="locality" />
		<tag k="ssr:stedsnr" v="455038" />
	</node>
	<node lat="63.53728610868218" lon="8.411630562274333" id="-30368">
		<tag k="name" v="Slåttadalen" />
		<tag k="natural" v="valley" />
		<tag k="place" v="locality" />
		<tag k="ssr:stedsnr" v="455118" />
	</node>
	<node lat="63.637408332612004" lon="9.17003054774946" id="-30372">
		<tag k="name" v="Rotvikvarden" />
		<tag k="natural" v="hill" />
		<tag k="place" v="locality" />
		<tag k="ssr:stedsnr" v="455139" />
	</node>
	<node lat="63.449794448216586" lon="8.467241674608943" id="-30380">
		<tag k="name" v="Grønnbakkan" />
		<tag k="natural" v="slope" />
		<tag k="place" v="locality" />
		<tag k="ssr:stedsnr" v="455250" />
	</node>
	<node lat="63.612338885463316" lon="8.652194444339571" id="-30384">
		<tag k="name" v="Litlstraumhaugen" />
		<tag k="natural" v="hill" />
		<tag k="place" v="locality" />
		<tag k="ssr:stedsnr" v="455557" />
	</node>
	<node lat="63.44861389159212" lon="8.411502780398765" id="-30386">
		<tag k="name" v="Ådalsbotnen" />
		<tag k="natural" v="valley" />
		<tag k="place" v="locality" />
		<tag k="ssr:stedsnr" v="455288" />
	</node>
	<node lat="63.51968332941585" lon="8.313144439363365" id="-30391">
		<tag k="name" v="Olasvika" />
		<tag k="natural" v="slope" />
		<tag k="place" v="locality" />
		<tag k="ssr:stedsnr" v="455374" />
	</node>
	<node lat="63.53519444661098" lon="8.443955565018229" id="-30392">
		<tag k="alt_name" v="Tømmerdalsheia" />
		<tag k="name" v="Tømmerdalsheian" />
		<tag k="natural" v="hill" />
		<tag k="place" v="locality" />
		<tag k="ssr:stedsnr" v="455385" />
	</node>
	<node lat="63.41537221809158" lon="8.465808332537579" id="-30396">
		<tag k="name" v="Høgheia" />
		<tag k="natural" v="hill" />
		<tag k="place" v="locality" />
		<tag k="ssr:stedsnr" v="455489" />
	</node>
	<node lat="63.52814722088584" lon="8.692419454051265" id="-30397">
		<tag k="name" v="Brennan" />
		<tag k="natural" v="hill" />
		<tag k="place" v="locality" />
		<tag k="ssr:stedsnr" v="455629" />
	</node>
	<node lat="63.50440833380052" lon="8.379033323930162" id="-30398">
		<tag k="name" v="Stånghaugen" />
		<tag k="natural" v="hill" />
		<tag k="place" v="locality" />
		<tag k="ssr:stedsnr" v="455637" />
	</node>
	<node lat="63.49982500440358" lon="8.379919442183203" id="-30399">
		<tag k="name" v="Snekkvikheian" />
		<tag k="natural" v="hill" />
		<tag k="place" v="locality" />
		<tag k="ssr:stedsnr" v="455648" />
	</node>
	<node lat="63.54561425125297" lon="8.549913918623947" id="-30400">
		<tag k="name" v="Grytlia" />
		<tag k="natural" v="slope" />
		<tag k="place" v="locality" />
		<tag k="ssr:stedsnr" v="455677" />
	</node>
	<node lat="63.49854999861204" lon="8.797413897672977" id="-30403">
		<tag k="fixme" v="consider natural=peak for the most distinct mountains in the district" />
		<tag k="name" v="Bjørkadalsnova" />
		<tag k="natural" v="hill" />
		<tag k="place" v="locality" />
		<tag k="ssr:stedsnr" v="455811" />
	</node>
	<node lat="63.501463892172765" lon="8.794222225348452" id="-30404">
		<tag k="name" v="Storbjørndalen" />
		<tag k="natural" v="valley" />
		<tag k="place" v="locality" />
		<tag k="ssr:stedsnr" v="455812" />
	</node>
	<node lat="63.54315832998733" lon="8.95904999853835" id="-30405">
		<tag k="fixme" v="consider natural=peak for the most distinct mountains in the district" />
		<tag k="name" v="Litlstaurfjellet" />
		<tag k="natural" v="hill" />
		<tag k="place" v="locality" />
		<tag k="ssr:stedsnr" v="455818" />
	</node>
	<node lat="63.604022219304056" lon="8.982900001072794" id="-30406">
		<tag k="name" v="Klumpen" />
		<tag k="natural" v="hill" />
		<tag k="place" v="locality" />
		<tag k="ssr:stedsnr" v="455819" />
	</node>
	<node lat="63.64528333416693" lon="8.780955551493028" id="-30412">
		<tag k="name" v="Kjerringvågkista" />
		<tag k="natural" v="hill" />
		<tag k="place" v="locality" />
		<tag k="ssr:stedsnr" v="455887" />
	</node>
	<node lat="63.61780833530785" lon="8.567102786363275" id="-30416">
		<tag k="name" v="Ørnberget" />
		<tag k="natural" v="hill" />
		<tag k="place" v="locality" />
		<tag k="ssr:stedsnr" v="455900" />
	</node>
	<node lat="63.64539999888052" lon="8.735972217854535" id="-30417">
		<tag k="name" v="Brannheia" />
		<tag k="natural" v="hill" />
		<tag k="place" v="locality" />
		<tag k="ssr:stedsnr" v="455901" />
	</node>
	<node lat="63.60824166954868" lon="8.7238500030734" id="-30418">
		<tag k="name" v="Straumskardet" />
		<tag k="natural" v="valley" />
		<tag k="place" v="locality" />
		<tag k="ssr:stedsnr" v="455927" />
	</node>
	<node lat="63.42929722164253" lon="8.479383337707771" id="-30421">
		<tag k="name" v="Hestberga" />
		<tag k="natural" v="hill" />
		<tag k="place" v="locality" />
		<tag k="ssr:stedsnr" v="455843" />
	</node>
	<node lat="63.62194444087755" lon="8.737702783030503" id="-30428">
		<tag k="name" v="Sollihaugen" />
		<tag k="natural" v="hill" />
		<tag k="place" v="locality" />
		<tag k="ssr:stedsnr" v="455941" />
	</node>
	<node lat="63.560375002553144" lon="8.567305559001639" id="-30430">
		<tag k="name" v="Barnsteinheia" />
		<tag k="natural" v="hill" />
		<tag k="place" v="locality" />
		<tag k="ssr:stedsnr" v="455953" />
	</node>
	<node lat="63.480105551730276" lon="8.363302786352696" id="-30433">
		<tag k="fixme" v="consider natural=peak for the most distinct mountains in the district" />
		<tag k="name" v="Lønsåsen" />
		<tag k="natural" v="hill" />
		<tag k="place" v="locality" />
		<tag k="ssr:stedsnr" v="255076" />
	</node>
	<node lat="63.63996666728969" lon="9.161766667780293" id="-30439">
		<tag k="fixme" v="consider natural=peak for the most distinct mountains in the district" />
		<tag k="name" v="Storvågfjellet" />
		<tag k="natural" v="hill" />
		<tag k="place" v="locality" />
		<tag k="ssr:stedsnr" v="255265" />
	</node>
	<node lat="63.55774444053571" lon="9.160927779008997" id="-30448">
		<tag k="name" v="Brannheia" />
		<tag k="natural" v="hill" />
		<tag k="place" v="locality" />
		<tag k="ssr:stedsnr" v="456343" />
	</node>
	<node lat="63.52006666992596" lon="9.366919447873904" id="-30452">
		<tag k="fixme" v="consider natural=peak for the most distinct mountains in the district" />
		<tag k="name" v="Raudhammarfjellet" />
		<tag k="natural" v="hill" />
		<tag k="place" v="locality" />
		<tag k="ssr:stedsnr" v="256163" />
	</node>
	<node lat="63.617572223894186" lon="9.038786109629962" id="-30454">
		<tag k="fixme" v="consider natural=peak for the most distinct mountains in the district" />
		<tag k="name" v="Heggvikfjellet" />
		<tag k="natural" v="hill" />
		<tag k="place" v="locality" />
		<tag k="ssr:stedsnr" v="256303" />
	</node>
	<node lat="63.5208611069086" lon="8.46407221975324" id="-30457">
		<tag k="name" v="Bjørndalen" />
		<tag k="natural" v="valley" />
		<tag k="place" v="locality" />
		<tag k="ssr:stedsnr" v="256471" />
	</node>
	<node lat="63.48416389183086" lon="8.71061666519404" id="-30470">
		<tag k="name" v="Jakopsdalsbruna" />
		<tag k="natural" v="hill" />
		<tag k="place" v="locality" />
		<tag k="ssr:stedsnr" v="456651" />
	</node>
	<node lat="63.526050001773946" lon="8.990322230958554" id="-30471">
		<tag k="name" v="Porten" />
		<tag k="natural" v="hill" />
		<tag k="place" v="locality" />
		<tag k="ssr:stedsnr" v="456712" />
	</node>
	<node lat="63.48501111315546" lon="9.310161119510138" id="-30477">
		<tag k="name" v="Storratet" />
		<tag k="natural" v="ridge" />
		<tag k="place" v="locality" />
		<tag k="ssr:stedsnr" v="457543" />
	</node>
	<node lat="63.45300833365638" lon="9.298416665742502" id="-30478">
		<tag k="name" v="Høylasset" />
		<tag k="natural" v="hill" />
		<tag k="place" v="locality" />
		<tag k="ssr:stedsnr" v="457582" />
	</node>
	<node lat="63.459063884787945" lon="9.225786108840069" id="-30481">
		<tag k="name" v="Aunlia" />
		<tag k="natural" v="slope" />
		<tag k="place" v="locality" />
		<tag k="ssr:stedsnr" v="458153" />
	</node>
	<node lat="63.544933330599775" lon="9.354155565534416" id="-30485">
		<tag k="name" v="Litlhammaren" />
		<tag k="natural" v="hill" />
		<tag k="place" v="locality" />
		<tag k="ssr:stedsnr" v="458720" />
	</node>
	<node lat="63.527988885699784" lon="9.359422229991681" id="-30486">
		<tag k="fixme" v="consider natural=peak for the most distinct mountains in the district" />
		<tag k="name" v="Åsen" />
		<tag k="natural" v="hill" />
		<tag k="place" v="locality" />
		<tag k="ssr:stedsnr" v="458697" />
	</node>
	<node lat="63.51011110832347" lon="8.869511118611392" id="-30488">
		<tag k="name" v="Rundheia" />
		<tag k="natural" v="hill" />
		<tag k="place" v="locality" />
		<tag k="ssr:stedsnr" v="271311" />
	</node>
	<node lat="63.544355557861046" lon="8.463177787695232" id="-30489">
		<tag k="name" v="Lyngskardheia" />
		<tag k="natural" v="hill" />
		<tag k="place" v="locality" />
		<tag k="ssr:stedsnr" v="272014" />
	</node>
	<node lat="63.63481388648165" lon="9.129711104816675" id="-30490">
		<tag k="name" v="Storskardet" />
		<tag k="natural" v="valley" />
		<tag k="place" v="locality" />
		<tag k="ssr:stedsnr" v="272016" />
	</node>
	<node lat="63.5336833363728" lon="8.456958324799636" id="-30492">
		<tag k="name" v="Stamvassheia" />
		<tag k="natural" v="hill" />
		<tag k="place" v="locality" />
		<tag k="ssr:stedsnr" v="272030" />
	</node>
	<node lat="63.59313611548507" lon="8.941597213946658" id="-30495">
		<tag k="name" v="Kjerringsheia" />
		<tag k="natural" v="hill" />
		<tag k="place" v="locality" />
		<tag k="ssr:stedsnr" v="272203" />
	</node>
	<node lat="63.62951944180732" lon="9.032791674053419" id="-30501">
		<tag k="name" v="Knausen" />
		<tag k="natural" v="hill" />
		<tag k="place" v="locality" />
		<tag k="ssr:stedsnr" v="272233" />
	</node>
	<node lat="63.6660194487968" lon="9.142886120147448" id="-30503">
		<tag k="name" v="Kleiva" />
		<tag k="natural" v="slope" />
		<tag k="place" v="locality" />
		<tag k="ssr:stedsnr" v="272173" />
	</node>
	<node lat="63.54107222404987" lon="8.549511103144392" id="-30505">
		<tag k="name" v="Skarda" />
		<tag k="natural" v="valley" />
		<tag k="place" v="locality" />
		<tag k="ssr:stedsnr" v="272677" />
	</node>
	<node lat="63.62054444771945" lon="8.828866663553953" id="-30508">
		<tag k="fixme" v="consider natural=peak for the most distinct mountains in the district" />
		<tag k="name" v="Bøstingkammen" />
		<tag k="natural" v="hill" />
		<tag k="place" v="locality" />
		<tag k="ssr:stedsnr" v="272783" />
	</node>
	<node lat="63.57175278018963" lon="8.392716669380565" id="-30517">
		<tag k="name" v="Vikan" />
		<tag k="natural" v="hill" />
		<tag k="place" v="locality" />
		<tag k="ssr:stedsnr" v="273099" />
	</node>
	<node lat="63.450230552286975" lon="8.476544449875888" id="-30528">
		<tag k="name" v="Snaraskardet" />
		<tag k="natural" v="valley" />
		<tag k="place" v="locality" />
		<tag k="ssr:stedsnr" v="273277" />
	</node>
	<node lat="63.53516944008199" lon="8.41014167217917" id="-30532">
		<tag k="name" v="Dummelsheia" />
		<tag k="natural" v="hill" />
		<tag k="place" v="locality" />
		<tag k="ssr:stedsnr" v="273406" />
	</node>
	<node lat="63.463077776828214" lon="8.439727780944398" id="-30537">
		<tag k="name" v="Tellelisten" />
		<tag k="natural" v="valley" />
		<tag k="place" v="locality" />
		<tag k="ssr:stedsnr" v="273476" />
	</node>
	<node lat="63.45692777540647" lon="8.427808331095923" id="-30538">
		<tag k="name" v="Sagstillet" />
		<tag k="natural" v="hill" />
		<tag k="place" v="locality" />
		<tag k="ssr:stedsnr" v="273478" />
	</node>
	<node lat="63.614899999417425" lon="8.694816659401676" id="-30543">
		<tag k="name" v="Mørkdalsheian" />
		<tag k="natural" v="hill" />
		<tag k="place" v="locality" />
		<tag k="ssr:stedsnr" v="273582" />
	</node>
	<node lat="63.56940555968276" lon="8.809761110341903" id="-30546">
		<tag k="name" v="Per-Larsadalen" />
		<tag k="natural" v="valley" />
		<tag k="place" v="locality" />
		<tag k="ssr:stedsnr" v="273828" />
	</node>
	<node lat="63.59559999915085" lon="8.569583327072193" id="-30555">
		<tag k="name" v="Steinkjerka" />
		<tag k="natural" v="hill" />
		<tag k="place" v="locality" />
		<tag k="ssr:stedsnr" v="273923" />
	</node>
	<node lat="63.5621250036791" lon="8.686161119385053" id="-30558">
		<tag k="name" v="Volneshaugen" />
		<tag k="natural" v="hill" />
		<tag k="place" v="locality" />
		<tag k="ssr:stedsnr" v="273982" />
	</node>
	<node lat="63.563241664451276" lon="9.185930561289526" id="-30561">
		<tag k="name" v="Vardheia" />
		<tag k="natural" v="hill" />
		<tag k="place" v="locality" />
		<tag k="ssr:stedsnr" v="274313" />
	</node>
	<node lat="63.493441665572696" lon="9.146386110322709" id="-30564">
		<tag k="name" v="Sjøberga" />
		<tag k="natural" v="hill" />
		<tag k="place" v="locality" />
		<tag k="ssr:stedsnr" v="274606" />
	</node>
	<node lat="63.50380277879566" lon="8.868499995602772" id="-30568">
		<tag k="name" v="Sittarplassen" />
		<tag k="place" v="locality" />
		<tag k="ssr:stedsnr" v="274669" />
	</node>
	<node lat="63.57219721817827" lon="8.439888895387504" id="-30577">
		<tag k="name" v="Navarhaugen" />
		<tag k="natural" v="slope" />
		<tag k="place" v="locality" />
		<tag k="ssr:stedsnr" v="279287" />
	</node>
	<node lat="63.492983330433766" lon="9.243572232009566" id="-30586">
		<tag k="name" v="Akselhaugen" />
		<tag k="natural" v="hill" />
		<tag k="place" v="locality" />
		<tag k="ssr:stedsnr" v="288916" />
	</node>
	<node lat="63.46413888749779" lon="8.406794453517715" id="-30601">
		<tag k="fixme" v="consider natural=peak for the most distinct mountains in the district" />
		<tag k="name" v="Kongensbergaksla" />
		<tag k="natural" v="hill" />
		<tag k="place" v="locality" />
		<tag k="ssr:stedsnr" v="316102" />
	</node>
	<node lat="63.52829166267722" lon="8.834944442525348" id="-30605">
		<tag k="name" v="Slåttadalshalsen" />
		<tag k="natural" v="valley" />
		<tag k="place" v="locality" />
		<tag k="ssr:stedsnr" v="316504" />
	</node>
	<node lat="63.54062221791262" lon="8.841752776386635" id="-30609">
		<tag k="fixme" v="consider natural=peak for the most distinct mountains in the district" />
		<tag k="name" v="Tverrfjellet" />
		<tag k="natural" v="hill" />
		<tag k="place" v="locality" />
		<tag k="ssr:stedsnr" v="316520" />
	</node>
	<node lat="63.58559444455086" lon="8.585674998226468" id="-30613">
		<tag k="name" v="Hysberget" />
		<tag k="natural" v="hill" />
		<tag k="place" v="locality" />
		<tag k="ssr:stedsnr" v="316649" />
	</node>
	<node lat="63.5202555551878" lon="9.055116658058298" id="-30615">
		<tag k="name" v="Fleinskallen" />
		<tag k="natural" v="hill" />
		<tag k="place" v="locality" />
		<tag k="ssr:stedsnr" v="316549" />
	</node>
	<node lat="63.547358330140995" lon="8.463408336466205" id="-30627">
		<tag k="name" v="Buttulsvågheia" />
		<tag k="natural" v="hill" />
		<tag k="place" v="locality" />
		<tag k="ssr:stedsnr" v="333010" />
	</node>
	<node lat="63.59738333046103" lon="8.438133328910771" id="-30628">
		<tag k="name" v="Klumpen" />
		<tag k="natural" v="hill" />
		<tag k="place" v="locality" />
		<tag k="ssr:stedsnr" v="333050" />
	</node>
	<node lat="63.64340833271274" lon="9.127775009930009" id="-30629">
		<tag k="fixme" v="consider natural=peak for the most distinct mountains in the district" />
		<tag k="name" v="Botnvikfjellet" />
		<tag k="natural" v="hill" />
		<tag k="place" v="locality" />
		<tag k="ssr:stedsnr" v="333119" />
	</node>
	<node lat="63.63466944245574" lon="8.700900009045625" id="-30630">
		<tag k="name" v="Kjerkhaugen" />
		<tag k="natural" v="hill" />
		<tag k="place" v="locality" />
		<tag k="ssr:stedsnr" v="333520" />
	</node>
	<node lat="63.59814167102778" lon="8.723488880837628" id="-30631">
		<tag k="fixme" v="consider natural=peak for the most distinct mountains in the district" />
		<tag k="name" v="Seteråsen" />
		<tag k="natural" v="hill" />
		<tag k="place" v="locality" />
		<tag k="ssr:stedsnr" v="333558" />
	</node>
	<node lat="63.64626944062335" lon="8.72100834205151" id="-30638">
		<tag k="name" v="Vågbakkan" />
		<tag k="natural" v="slope" />
		<tag k="place" v="locality" />
		<tag k="ssr:stedsnr" v="333917" />
	</node>
	<node lat="63.602138892111476" lon="8.77496111685786" id="-30639">
		<tag k="fixme" v="consider natural=peak for the most distinct mountains in the district" />
		<tag k="name" v="Hjortåsen" />
		<tag k="natural" v="hill" />
		<tag k="place" v="locality" />
		<tag k="ssr:stedsnr" v="333947" />
	</node>
	<node lat="63.6010444405547" lon="8.825261103224035" id="-30643">
		<tag k="name" v="Hompan" />
		<tag k="natural" v="hill" />
		<tag k="place" v="locality" />
		<tag k="ssr:stedsnr" v="333803" />
	</node>
	<node lat="63.57875278169774" lon="9.13942777159639" id="-30648">
		<tag k="fixme" v="consider natural=peak for the most distinct mountains in the district" />
		<tag k="name" v="Lauvurda" />
		<tag k="natural" v="hill" />
		<tag k="place" v="locality" />
		<tag k="ssr:stedsnr" v="334059" />
	</node>
	<node lat="63.577994446323764" lon="9.126522220975579" id="-30649">
		<tag k="name" v="Rønningsdalen" />
		<tag k="natural" v="valley" />
		<tag k="place" v="locality" />
		<tag k="ssr:stedsnr" v="334061" />
	</node>
	<node lat="63.57337499746444" lon="9.202944452745676" id="-30654">
		<tag k="fixme" v="consider natural=peak for the most distinct mountains in the district" />
		<tag k="name" v="Høgfjellet" />
		<tag k="natural" v="hill" />
		<tag k="place" v="locality" />
		<tag k="ssr:stedsnr" v="334250" />
	</node>
	<node lat="63.47334166623928" lon="8.656613883146834" id="-30655">
		<tag k="name" v="Saudalen" />
		<tag k="natural" v="valley" />
		<tag k="place" v="locality" />
		<tag k="ssr:stedsnr" v="334253" />
	</node>
	<node lat="63.57392500120987" lon="8.440447229901782" id="-30659">
		<tag k="name" v="Hunden" />
		<tag k="natural" v="hill" />
		<tag k="place" v="locality" />
		<tag k="ssr:stedsnr" v="334118" />
	</node>
	<node lat="63.61821111196472" lon="8.645191659555243" id="-30670">
		<tag k="name" v="Jektvikhaugen" />
		<tag k="natural" v="hill" />
		<tag k="place" v="locality" />
		<tag k="ssr:stedsnr" v="334603" />
	</node>
	<node lat="63.557655551589214" lon="8.92243888923297" id="-30671">
		<tag k="name" v="Ytter Sandfjelldalen" />
		<tag k="natural" v="valley" />
		<tag k="place" v="locality" />
		<tag k="ssr:stedsnr" v="334651" />
	</node>
	<node lat="63.56711111556583" lon="8.994611118584071" id="-30673">
		<tag k="fixme" v="consider natural=peak for the most distinct mountains in the district" />
		<tag k="name" v="Karttrøkammen" />
		<tag k="natural" v="hill" />
		<tag k="place" v="locality" />
		<tag k="ssr:stedsnr" v="334662" />
	</node>
	<node lat="63.517974995998415" lon="9.072530553409177" id="-30675">
		<tag k="name" v="Dyrberget" />
		<tag k="natural" v="hill" />
		<tag k="place" v="locality" />
		<tag k="ssr:stedsnr" v="334397" />
	</node>
	<node lat="63.59010277372725" lon="8.937127778350217" id="-30680">
		<tag k="name" v="Vålidalen" />
		<tag k="natural" v="valley" />
		<tag k="place" v="locality" />
		<tag k="ssr:stedsnr" v="334806" />
	</node>
	<node lat="63.64384166271266" lon="8.984499992732864" id="-30684">
		<tag k="name" v="Grindfaret" />
		<tag k="natural" v="hill" />
		<tag k="place" v="locality" />
		<tag k="ssr:stedsnr" v="334748" />
	</node>
	<node lat="63.56845000044937" lon="8.649191663557504" id="-30685">
		<tag k="name" v="Kvernhushaugen" />
		<tag k="natural" v="hill" />
		<tag k="place" v="locality" />
		<tag k="ssr:stedsnr" v="334749" />
	</node>
	<node lat="63.64519721856361" lon="8.981947216851504" id="-30686">
		<tag k="name" v="Moltuheia" />
		<tag k="natural" v="hill" />
		<tag k="place" v="locality" />
		<tag k="ssr:stedsnr" v="334750" />
	</node>
	<node lat="63.62190555199743" lon="8.719633324554136" id="-30687">
		<tag k="name" v="Flagghaugen" />
		<tag k="natural" v="hill" />
		<tag k="place" v="locality" />
		<tag k="ssr:stedsnr" v="334909" />
	</node>
	<node lat="63.61084722033938" lon="8.718094443465557" id="-30688">
		<tag k="name" v="Verket" />
		<tag k="place" v="locality" />
		<tag k="ssr:stedsnr" v="334910" />
	</node>
	<node lat="63.61621666527946" lon="8.700980550037194" id="-30690">
		<tag k="fixme" v="consider natural=peak for the most distinct mountains in the district" />
		<tag k="name" v="Middagsfjellet" />
		<tag k="natural" v="hill" />
		<tag k="place" v="locality" />
		<tag k="ssr:stedsnr" v="334916" />
	</node>
	<node lat="63.50855555355654" lon="9.263797217451156" id="-30692">
		<tag k="name" v="Øykdalen" />
		<tag k="natural" v="valley" />
		<tag k="place" v="locality" />
		<tag k="ssr:stedsnr" v="335204" />
	</node>
	<node lat="63.61457500242278" lon="8.696477784080445" id="-30698">
		<tag k="name" v="Reksteren" />
		<tag k="natural" v="hill" />
		<tag k="place" v="locality" />
		<tag k="ssr:stedsnr" v="335972" />
	</node>
	<node lat="63.45243888789004" lon="9.259855560226198" id="-30700">
		<tag k="name" v="Øyklia" />
		<tag k="natural" v="slope" />
		<tag k="place" v="locality" />
		<tag k="ssr:stedsnr" v="336155" />
	</node>
	<node lat="63.50543333023764" lon="9.287691658911587" id="-30703">
		<tag k="name" v="Neverskardhaugen" />
		<tag k="natural" v="hill" />
		<tag k="place" v="locality" />
		<tag k="ssr:stedsnr" v="336532" />
	</node>
	<node lat="63.46137499664516" lon="9.284988894868935" id="-30706">
		<tag k="name" v="Postmyrhaugen" />
		<tag k="natural" v="hill" />
		<tag k="place" v="locality" />
		<tag k="ssr:stedsnr" v="336597" />
	</node>
	<node lat="63.570152775873" lon="8.435883339079567" id="-30709">
		<tag k="name" v="Skinkberga" />
		<tag k="natural" v="hill" />
		<tag k="place" v="locality" />
		<tag k="ssr:stedsnr" v="339302" />
	</node>
	<node lat="63.44337778005731" lon="8.499544451096508" id="-30715">
		<tag k="fixme" v="consider natural=peak for the most distinct mountains in the district" />
		<tag k="name" v="Seteråsen" />
		<tag k="natural" v="hill" />
		<tag k="place" v="locality" />
		<tag k="ssr:stedsnr" v="376002" />
	</node>
	<node lat="63.45422221950145" lon="8.57785277995903" id="-30726">
		<tag k="name" v="Kvernhaugen" />
		<tag k="natural" v="hill" />
		<tag k="place" v="locality" />
		<tag k="ssr:stedsnr" v="393214" />
	</node>
	<node lat="63.599916663029674" lon="8.645108327448643" id="-30728">
		<tag k="name" v="Skognesheia" />
		<tag k="natural" v="hill" />
		<tag k="place" v="locality" />
		<tag k="ssr:stedsnr" v="393539" />
	</node>
	<node lat="63.540744448559764" lon="8.454725005909673" id="-30732">
		<tag k="name" v="Hundhaugen" />
		<tag k="natural" v="hill" />
		<tag k="place" v="locality" />
		<tag k="ssr:stedsnr" v="394014" />
	</node>
	<node lat="63.44398611485821" lon="8.298516661701482" id="-30741">
		<tag k="name" v="Trommahammaren" />
		<tag k="natural" v="hill" />
		<tag k="place" v="locality" />
		<tag k="ssr:stedsnr" v="394331" />
	</node>
	<node lat="63.63797222205802" lon="9.076888882751842" id="-30745">
		<tag k="name" v="Storhjorthaugen" />
		<tag k="natural" v="hill" />
		<tag k="place" v="locality" />
		<tag k="ssr:stedsnr" v="394218" />
	</node>
	<node lat="63.54630555126222" lon="8.430119453831944" id="-30748">
		<tag k="name" v="Storottervika" />
		<tag k="natural" v="hill" />
		<tag k="place" v="locality" />
		<tag k="ssr:stedsnr" v="394407" />
	</node>
	<node lat="63.625450004192224" lon="8.7031999942616" id="-30754">
		<tag k="fixme" v="consider natural=peak for the most distinct mountains in the district" />
		<tag k="name" v="Bårfjellet" />
		<tag k="natural" v="hill" />
		<tag k="place" v="locality" />
		<tag k="ssr:stedsnr" v="394532" />
	</node>
	<node lat="63.53475000121489" lon="8.538680559390599" id="-30759">
		<tag k="name" v="Ørndalen" />
		<tag k="natural" v="valley" />
		<tag k="place" v="locality" />
		<tag k="ssr:stedsnr" v="394687" />
	</node>
	<node lat="63.64963055755212" lon="8.983349990374435" id="-30761">
		<tag k="name" v="Merradalen" />
		<tag k="natural" v="valley" />
		<tag k="place" v="locality" />
		<tag k="ssr:stedsnr" v="394780" />
	</node>
	<node lat="63.57185277960434" lon="8.758263882239428" id="-30763">
		<tag k="name" v="Pikhaugen" />
		<tag k="natural" v="hill" />
		<tag k="place" v="locality" />
		<tag k="ssr:stedsnr" v="394786" />
	</node>
	<node lat="63.50358888911827" lon="8.807566671272475" id="-30771">
		<tag k="fixme" v="consider natural=peak for the most distinct mountains in the district" />
		<tag k="name" v="Varden" />
		<tag k="natural" v="hill" />
		<tag k="place" v="locality" />
		<tag k="ssr:stedsnr" v="394832" />
	</node>
	<node lat="63.65269444701004" lon="8.780452785641211" id="-30774">
		<tag k="name" v="Storvalen" />
		<tag k="natural" v="hill" />
		<tag k="place" v="locality" />
		<tag k="ssr:stedsnr" v="394897" />
	</node>
	<node lat="63.55860555248494" lon="9.041936116424392" id="-30775">
		<tag k="name" v="Tjørndalan" />
		<tag k="natural" v="valley" />
		<tag k="place" v="locality" />
		<tag k="ssr:stedsnr" v="395285" />
	</node>
	<node lat="63.511547219607664" lon="8.96970833628528" id="-30779">
		<tag k="name" v="Fagerlia" />
		<tag k="natural" v="slope" />
		<tag k="place" v="locality" />
		<tag k="ssr:stedsnr" v="395313" />
	</node>
	<node lat="63.52072777971137" lon="9.282452774551416" id="-30787">
		<tag k="name" v="Myrdalan" />
		<tag k="natural" v="valley" />
		<tag k="place" v="locality" />
		<tag k="ssr:stedsnr" v="396179" />
	</node>
	<node lat="63.457588889534975" lon="9.290658324779917" id="-30794">
		<tag k="name" v="Omnhaugen" />
		<tag k="natural" v="hill" />
		<tag k="place" v="locality" />
		<tag k="ssr:stedsnr" v="397632" />
	</node>
	<node lat="63.525202774566246" lon="8.817288883089665" id="-30815">
		<tag k="alt_name" v="Rundslættet" />
		<tag k="name" v="Rundslettet" />
		<tag k="place" v="locality" />
		<tag k="ssr:stedsnr" v="437467" />
	</node>
	<node lat="63.470950002109774" lon="9.183763884623525" id="-30823">
		<tag k="alt_name" v="Rottemsfjellet" />
		<tag k="fixme" v="consider natural=peak for the most distinct mountains in the district" />
		<tag k="name" v="Husfjellet" />
		<tag k="natural" v="hill" />
		<tag k="place" v="locality" />
		<tag k="ssr:stedsnr" v="438482" />
	</node>
	<node lat="63.54658611201826" lon="9.090255557079582" id="-30828">
		<tag k="fixme" v="consider natural=peak for the most distinct mountains in the district" />
		<tag k="name" v="Asplikammen" />
		<tag k="natural" v="hill" />
		<tag k="place" v="locality" />
		<tag k="ssr:stedsnr" v="438399" />
	</node>
	<node lat="63.57376111011334" lon="8.6737111032938" id="-30829">
		<tag k="name" v="Kuberget" />
		<tag k="natural" v="hill" />
		<tag k="place" v="locality" />
		<tag k="ssr:stedsnr" v="438564" />
	</node>
	<node lat="63.56727222320451" lon="8.35234444613031" id="-30847">
		<tag k="name" v="Skagan" />
		<tag k="natural" v="hill" />
		<tag k="place" v="locality" />
		<tag k="ssr:stedsnr" v="455064" />
	</node>
	<node lat="63.660613890198675" lon="9.052944446930386" id="-30851">
		<tag k="fixme" v="consider natural=peak for the most distinct mountains in the district" />
		<tag k="name" v="Hammaren" />
		<tag k="natural" v="hill" />
		<tag k="place" v="locality" />
		<tag k="ssr:stedsnr" v="455075" />
	</node>
	<node lat="63.65351110865192" lon="9.05408889631288" id="-30853">
		<tag k="name" v="Vikerdalen" />
		<tag k="natural" v="valley" />
		<tag k="place" v="locality" />
		<tag k="ssr:stedsnr" v="455081" />
	</node>
	<node lat="63.52540555330352" lon="8.420766665022912" id="-30860">
		<tag k="name" v="Kattuggelheia" />
		<tag k="natural" v="hill" />
		<tag k="place" v="locality" />
		<tag k="ssr:stedsnr" v="455410" />
	</node>
	<node lat="63.46044999763431" lon="8.441608329278866" id="-30862">
		<tag k="name" v="Dyrsølbotn" />
		<tag k="natural" v="valley" />
		<tag k="place" v="locality" />
		<tag k="ssr:stedsnr" v="455475" />
	</node>
	<node lat="63.62156388988184" lon="8.688133328798461" id="-30865">
		<tag k="name" v="Sjøhaugan" />
		<tag k="natural" v="hill" />
		<tag k="place" v="locality" />
		<tag k="ssr:stedsnr" v="455562" />
	</node>
	<node lat="63.543266665632174" lon="8.966230560201195" id="-30866">
		<tag k="fixme" v="consider natural=peak for the most distinct mountains in the district" />
		<tag k="name" v="Buåskammen" />
		<tag k="natural" v="hill" />
		<tag k="place" v="locality" />
		<tag k="ssr:stedsnr" v="455863" />
	</node>
	<node lat="63.60232222053661" lon="8.760313883045503" id="-30874">
		<tag k="fixme" v="consider natural=peak for the most distinct mountains in the district" />
		<tag k="name" v="Ørneråsen" />
		<tag k="natural" v="hill" />
		<tag k="place" v="locality" />
		<tag k="ssr:stedsnr" v="455916" />
	</node>
	<node lat="63.59201666454117" lon="8.62213334033284" id="-30876">
		<tag k="name" v="Hestnesdalen" />
		<tag k="natural" v="valley" />
		<tag k="place" v="locality" />
		<tag k="ssr:stedsnr" v="455966" />
	</node>
	<node lat="63.59788055137166" lon="8.630886116250254" id="-30877">
		<tag k="name" v="Litlbjørdalen" />
		<tag k="natural" v="valley" />
		<tag k="place" v="locality" />
		<tag k="ssr:stedsnr" v="455976" />
	</node>
	<node lat="63.619388890416836" lon="8.593405550347015" id="-30878">
		<tag k="name" v="Svinknausen" />
		<tag k="natural" v="hill" />
		<tag k="place" v="locality" />
		<tag k="ssr:stedsnr" v="455977" />
	</node>
	<node lat="63.56309166797999" lon="9.094783340499697" id="-30879">
		<tag k="name" v="Fiskballheia" />
		<tag k="natural" v="hill" />
		<tag k="place" v="locality" />
		<tag k="ssr:stedsnr" v="456260" />
	</node>
	<node lat="63.54642499970884" lon="9.205813882183971" id="-30886">
		<tag k="name" v="Fjøsmyrvarden" />
		<tag k="natural" v="hill" />
		<tag k="place" v="locality" />
		<tag k="ssr:stedsnr" v="456475" />
	</node>
	<node lat="63.47767500099396" lon="9.216652768578081" id="-30890">
		<tag k="fixme" v="consider natural=peak for the most distinct mountains in the district" />
		<tag k="name" v="Seterlifjellet" />
		<tag k="natural" v="hill" />
		<tag k="place" v="locality" />
		<tag k="ssr:stedsnr" v="458223" />
	</node>
	<node lat="63.5207027797687" lon="9.322049990356383" id="-30892">
		<tag k="name" v="Slåberga" />
		<tag k="natural" v="hill" />
		<tag k="place" v="locality" />
		<tag k="ssr:stedsnr" v="458610" />
	</node>
	<node lat="63.54847222576341" lon="9.377899990900918" id="-30894">
		<tag k="fixme" v="consider natural=peak for the most distinct mountains in the district" />
		<tag k="name" v="Storkleiva" />
		<tag k="natural" v="hill" />
		<tag k="place" v="locality" />
		<tag k="ssr:stedsnr" v="458716" />
	</node>
	<node lat="63.44402222373558" lon="8.556383323482615" id="-30899">
		<tag k="name" v="Litlvasshaugen" />
		<tag k="natural" v="hill" />
		<tag k="place" v="locality" />
		<tag k="ssr:stedsnr" v="272246" />
	</node>
	<node lat="63.442883336744835" lon="8.571486101723327" id="-30901">
		<tag k="name" v="Burshaugen" />
		<tag k="natural" v="hill" />
		<tag k="place" v="locality" />
		<tag k="ssr:stedsnr" v="272250" />
	</node>
	<node lat="63.48534166410896" lon="9.210136118645906" id="-30909">
		<tag k="fixme" v="consider natural=peak for the most distinct mountains in the district" />
		<tag k="name" v="Sundfjellet" />
		<tag k="natural" v="hill" />
		<tag k="place" v="locality" />
		<tag k="ssr:stedsnr" v="679415" />
	</node>
	<node lat="63.529197226365696" lon="9.332511101423895" id="-30918">
		<tag k="alt_name" v="Våberghatten" />
		<tag k="name" v="Hatten" />
		<tag k="natural" v="hill" />
		<tag k="place" v="locality" />
		<tag k="ssr:stedsnr" v="680161" />
	</node>
	<node lat="63.51655277909079" lon="9.26742777716177" id="-30919">
		<tag k="fixme" v="consider natural=peak for the most distinct mountains in the district" />
		<tag k="name" v="Kamvikfjellet" />
		<tag k="natural" v="hill" />
		<tag k="place" v="locality" />
		<tag k="ssr:stedsnr" v="680172" />
	</node>
	<node lat="63.5631277812506" lon="9.055722222893559" id="-30921">
		<tag k="name" v="Langlia" />
		<tag k="natural" v="slope" />
		<tag k="place" v="locality" />
		<tag k="ssr:stedsnr" v="680185" />
	</node>
	<node lat="63.64567500117825" lon="9.145444438789877" id="-30922">
		<tag k="fixme" v="consider natural=peak for the most distinct mountains in the district" />
		<tag k="name" v="Dyrafjellet" />
		<tag k="natural" v="hill" />
		<tag k="place" v="locality" />
		<tag k="ssr:stedsnr" v="680278" />
	</node>
	<node lat="63.58641110961052" lon="8.901275003335446" id="-30931">
		<tag k="fixme" v="consider natural=peak for the most distinct mountains in the district" />
		<tag k="name" v="Steinfjellet" />
		<tag k="natural" v="hill" />
		<tag k="place" v="locality" />
		<tag k="ssr:stedsnr" v="680386" />
	</node>
	<node lat="63.58169166414105" lon="9.095402780457489" id="-30939">
		<tag k="fixme" v="consider natural=peak for the most distinct mountains in the district" />
		<tag k="name" v="Bjørkedalskammen" />
		<tag k="natural" v="hill" />
		<tag k="place" v="locality" />
		<tag k="ssr:stedsnr" v="680449" />
	</node>
	<node lat="63.52481666476252" lon="8.85625555173422" id="-30941">
		<tag k="fixme" v="consider natural=peak for the most distinct mountains in the district" />
		<tag k="name" v="Barlifjellet" />
		<tag k="natural" v="hill" />
		<tag k="place" v="locality" />
		<tag k="ssr:stedsnr" v="680492" />
	</node>
	<node lat="63.523322219464454" lon="8.835916666077198" id="-30942">
		<tag k="name" v="Slåttadalen" />
		<tag k="natural" v="valley" />
		<tag k="place" v="locality" />
		<tag k="ssr:stedsnr" v="680495" />
	</node>
	<node lat="63.52970832970292" lon="9.098544435383154" id="-30944">
		<tag k="alt_name" v="Moldhaugen" />
		<tag k="name" v="Mollhaugen" />
		<tag k="natural" v="hill" />
		<tag k="place" v="locality" />
		<tag k="ssr:stedsnr" v="680559" />
	</node>
	<node lat="63.46171944455539" lon="8.47546667626679" id="-30970">
		<tag k="name" v="Stortudalen" />
		<tag k="natural" v="valley" />
		<tag k="place" v="locality" />
		<tag k="ssr:stedsnr" v="498113" />
	</node>
	<node lat="63.53362222147523" lon="8.812811109221643" id="-30977">
		<tag k="name" v="Rundhaugen" />
		<tag k="natural" v="hill" />
		<tag k="place" v="locality" />
		<tag k="ssr:stedsnr" v="498508" />
	</node>
	<node lat="63.52849999948782" lon="8.407327785844586" id="-30980">
		<tag k="name" v="Måsheia" />
		<tag k="natural" v="hill" />
		<tag k="place" v="locality" />
		<tag k="ssr:stedsnr" v="498556" />
	</node>
	<node lat="63.62526388576338" lon="8.931897229292744" id="-30985">
		<tag k="fixme" v="consider natural=peak for the most distinct mountains in the district" />
		<tag k="name" v="Mulåsen" />
		<tag k="natural" v="hill" />
		<tag k="place" v="locality" />
		<tag k="ssr:stedsnr" v="272851" />
	</node>
	<node lat="63.60560832906238" lon="8.588608325008403" id="-30993">
		<tag k="name" v="Kattugleheia" />
		<tag k="natural" v="hill" />
		<tag k="place" v="locality" />
		<tag k="ssr:stedsnr" v="498937" />
	</node>
	<node lat="63.6093611103567" lon="8.800922214145919" id="-30995">
		<tag k="alt_name" v="Klintan" />
		<tag k="name" v="Klinten" />
		<tag k="natural" v="hill" />
		<tag k="place" v="locality" />
		<tag k="ssr:stedsnr" v="681296" />
	</node>
	<node lat="63.511033335670504" lon="8.713933325364879" id="-30999">
		<tag k="fixme" v="consider natural=peak for the most distinct mountains in the district" />
		<tag k="name" v="Tverrfjellet" />
		<tag k="natural" v="hill" />
		<tag k="place" v="locality" />
		<tag k="ssr:stedsnr" v="499687" />
	</node>
	<node lat="63.66003333101253" lon="9.115305546991339" id="-31012">
		<tag k="name" v="Mellomheia" />
		<tag k="natural" v="hill" />
		<tag k="place" v="locality" />
		<tag k="ssr:stedsnr" v="515116" />
	</node>
	<node lat="63.50786389300341" lon="8.338741658140355" id="-31019">
		<tag k="name" v="Skruvhylla" />
		<tag k="place" v="locality" />
		<tag k="ssr:stedsnr" v="515373" />
	</node>
	<node lat="63.53816388690296" lon="8.516402776750605" id="-31025">
		<tag k="fixme" v="consider natural=peak for the most distinct mountains in the district" />
		<tag k="name" v="Skogåsen" />
		<tag k="natural" v="hill" />
		<tag k="place" v="locality" />
		<tag k="ssr:stedsnr" v="515727" />
	</node>
	<node lat="63.534608337227084" lon="8.54485277840208" id="-31027">
		<tag k="name" v="Ørndalsheia" />
		<tag k="natural" v="hill" />
		<tag k="place" v="locality" />
		<tag k="ssr:stedsnr" v="515736" />
	</node>
	<node lat="63.608613884570815" lon="8.832127776819751" id="-31031">
		<tag k="fixme" v="consider natural=peak for the most distinct mountains in the district" />
		<tag k="name" v="Nessafjellet" />
		<tag k="natural" v="hill" />
		<tag k="place" v="locality" />
		<tag k="ssr:stedsnr" v="515812" />
	</node>
	<node lat="63.61616388952338" lon="8.832991660044192" id="-31032">
		<tag k="name" v="Aunheia" />
		<tag k="natural" v="hill" />
		<tag k="place" v="locality" />
		<tag k="ssr:stedsnr" v="515814" />
	</node>
	<node lat="63.607527774211476" lon="8.7987138856742" id="-31033">
		<tag k="name" v="Mørkdalen" />
		<tag k="natural" v="valley" />
		<tag k="place" v="locality" />
		<tag k="ssr:stedsnr" v="515820" />
	</node>
	<node lat="63.63456944653787" lon="8.970305554059847" id="-31035">
		<tag k="name" v="Djupdalen" />
		<tag k="natural" v="valley" />
		<tag k="place" v="locality" />
		<tag k="ssr:stedsnr" v="515881" />
	</node>
	<node lat="63.636761109806095" lon="9.160269441178038" id="-31044">
		<tag k="name" v="Arnettahaugen" />
		<tag k="natural" v="hill" />
		<tag k="place" v="locality" />
		<tag k="ssr:stedsnr" v="516131" />
	</node>
	<node lat="63.611722220195894" lon="8.47421943928259" id="-31045">
		<tag k="fixme" v="consider natural=peak for the most distinct mountains in the district" />
		<tag k="name" v="Tosøyhammaren" />
		<tag k="natural" v="hill" />
		<tag k="place" v="locality" />
		<tag k="ssr:stedsnr" v="516133" />
	</node>
	<node lat="63.679988891270106" lon="9.09286111832487" id="-31046">
		<tag k="name" v="Kleppfiskberga" />
		<tag k="natural" v="hill" />
		<tag k="place" v="locality" />
		<tag k="ssr:stedsnr" v="516168" />
	</node>
	<node lat="63.57609999886658" lon="8.467408332696063" id="-31050">
		<tag k="name" v="Smibelgen" />
		<tag k="natural" v="slope" />
		<tag k="place" v="locality" />
		<tag k="ssr:stedsnr" v="516203" />
	</node>
	<node lat="63.59846110971304" lon="8.946919451379697" id="-31051">
		<tag k="fixme" v="consider natural=peak for the most distinct mountains in the district" />
		<tag k="name" v="Ellingsvarden" />
		<tag k="natural" v="hill" />
		<tag k="place" v="locality" />
		<tag k="ssr:stedsnr" v="516209" />
	</node>
	<node lat="63.448527777140434" lon="8.398955561772523" id="-31052">
		<tag k="name" v="Ådalen" />
		<tag k="natural" v="valley" />
		<tag k="place" v="locality" />
		<tag k="ssr:stedsnr" v="516262" />
	</node>
	<node lat="63.56150277947006" lon="9.103938888920391" id="-31053">
		<tag k="name" v="Hjortskardheia" />
		<tag k="natural" v="hill" />
		<tag k="place" v="locality" />
		<tag k="ssr:stedsnr" v="516265" />
	</node>
	<node lat="63.55924444279882" lon="9.13547500185147" id="-31054">
		<tag k="name" v="Lianeshagan" />
		<tag k="natural" v="hill" />
		<tag k="place" v="locality" />
		<tag k="ssr:stedsnr" v="516271" />
	</node>
	<node lat="63.52192221837411" lon="8.429241657993835" id="-31055">
		<tag k="name" v="Svartberget" />
		<tag k="natural" v="hill" />
		<tag k="place" v="locality" />
		<tag k="ssr:stedsnr" v="516406" />
	</node>
	<node lat="63.52283611037461" lon="8.437099998628083" id="-31056">
		<tag k="name" v="Torvheia" />
		<tag k="natural" v="hill" />
		<tag k="place" v="locality" />
		<tag k="ssr:stedsnr" v="516409" />
	</node>
	<node lat="63.52160277627675" lon="8.446763883684639" id="-31058">
		<tag k="name" v="Innerdalen" />
		<tag k="natural" v="valley" />
		<tag k="place" v="locality" />
		<tag k="ssr:stedsnr" v="516412" />
	</node>
	<node lat="63.53072222572095" lon="9.068594449650657" id="-31060">
		<tag k="fixme" v="consider natural=peak for the most distinct mountains in the district" />
		<tag k="name" v="Langvassåsen" />
		<tag k="natural" v="hill" />
		<tag k="place" v="locality" />
		<tag k="ssr:stedsnr" v="516415" />
	</node>
	<node lat="63.44051110818621" lon="8.418966663668977" id="-31062">
		<tag k="name" v="Hjortskarddalen" />
		<tag k="natural" v="valley" />
		<tag k="place" v="locality" />
		<tag k="ssr:stedsnr" v="516309" />
	</node>
	<node lat="63.53054444388001" lon="9.11952778758308" id="-31063">
		<tag k="fixme" v="consider natural=peak for the most distinct mountains in the district" />
		<tag k="name" v="Vollaåsen" />
		<tag k="natural" v="hill" />
		<tag k="place" v="locality" />
		<tag k="ssr:stedsnr" v="516366" />
	</node>
	<node lat="63.42706944318551" lon="8.47152500567438" id="-31064">
		<tag k="name" v="Natanheia" />
		<tag k="natural" v="hill" />
		<tag k="place" v="locality" />
		<tag k="ssr:stedsnr" v="516471" />
	</node>
	<node lat="63.61721111086738" lon="8.757663879859505" id="-31077">
		<tag k="fixme" v="consider natural=peak for the most distinct mountains in the district" />
		<tag k="name" v="Lauvåsen" />
		<tag k="natural" v="hill" />
		<tag k="place" v="locality" />
		<tag k="ssr:stedsnr" v="516911" />
	</node>
	<node lat="63.611425003955326" lon="8.609533332875419" id="-31078">
		<tag k="name" v="Grønndalen" />
		<tag k="natural" v="valley" />
		<tag k="place" v="locality" />
		<tag k="ssr:stedsnr" v="516915" />
	</node>
	<node lat="63.61364722362043" lon="8.622513891287447" id="-31079">
		<tag k="name" v="Muren" />
		<tag k="natural" v="hill" />
		<tag k="place" v="locality" />
		<tag k="ssr:stedsnr" v="516916" />
	</node>
	<node lat="63.61012499697972" lon="8.635325001673573" id="-31081">
		<tag k="name" v="Skjellberget" />
		<tag k="natural" v="hill" />
		<tag k="place" v="locality" />
		<tag k="ssr:stedsnr" v="516923" />
	</node>
	<node lat="63.61021388959874" lon="8.705508340517268" id="-31082">
		<tag k="name" v="Låvberget" />
		<tag k="natural" v="hill" />
		<tag k="place" v="locality" />
		<tag k="ssr:stedsnr" v="516924" />
	</node>
	<node lat="63.59461388696378" lon="8.63095833303652" id="-31083">
		<tag k="name" v="Bjørdalsmoa" />
		<tag k="natural" v="hill" />
		<tag k="place" v="locality" />
		<tag k="ssr:stedsnr" v="516945" />
	</node>
	<node lat="63.52453610987684" lon="8.945094439131845" id="-31086">
		<tag k="name" v="Hjorthaugen" />
		<tag k="natural" v="hill" />
		<tag k="place" v="locality" />
		<tag k="ssr:stedsnr" v="516871" />
	</node>
	<node lat="63.533647224888355" lon="8.9049638983487" id="-31087">
		<tag k="alt_name" v="Asparend" />
		<tag k="name" v="Asparenden" />
		<tag k="natural" v="hill" />
		<tag k="place" v="locality" />
		<tag k="ssr:stedsnr" v="516877" />
	</node>
	<node lat="63.5495083317844" lon="9.432241673588054" id="-31090">
		<tag k="fixme" v="consider natural=peak for the most distinct mountains in the district" />
		<tag k="name" v="Raudhammaren" />
		<tag k="natural" v="hill" />
		<tag k="place" v="locality" />
		<tag k="ssr:stedsnr" v="518071" />
	</node>
	<node lat="63.4996361112463" lon="9.210880553068305" id="-31093">
		<tag k="fixme" v="consider natural=peak for the most distinct mountains in the district" />
		<tag k="name" v="Stordalsfjellet" />
		<tag k="natural" v="hill" />
		<tag k="place" v="locality" />
		<tag k="ssr:stedsnr" v="518210" />
	</node>
	<node lat="63.5480611089458" lon="9.372416658531696" id="-31098">
		<tag k="fixme" v="consider natural=peak for the most distinct mountains in the district" />
		<tag k="name" v="Størhuskråa" />
		<tag k="natural" v="hill" />
		<tag k="place" v="locality" />
		<tag k="ssr:stedsnr" v="518667" />
	</node>
	<node lat="63.553419443961694" lon="9.381183331036713" id="-31099">
		<tag k="name" v="Kleivan" />
		<tag k="natural" v="slope" />
		<tag k="place" v="locality" />
		<tag k="ssr:stedsnr" v="518669" />
	</node>
	<node lat="63.455081148485796" lon="9.330311901187153" id="-31100">
		<tag k="name" v="Seterhammeren" />
		<tag k="natural" v="hill" />
		<tag k="place" v="locality" />
		<tag k="ssr:stedsnr" v="518875" />
	</node>
	<node lat="63.565688892345655" lon="8.432708331691188" id="-31103">
		<tag k="name" v="Talerøyklubben" />
		<tag k="natural" v="hill" />
		<tag k="place" v="locality" />
		<tag k="ssr:stedsnr" v="521270" />
	</node>
	<node lat="63.574566664499336" lon="8.43988333093658" id="-31104">
		<tag k="name" v="Hundheia" />
		<tag k="natural" v="hill" />
		<tag k="place" v="locality" />
		<tag k="ssr:stedsnr" v="521673" />
	</node>
	<node lat="63.447761107171864" lon="8.305875005916091" id="-31109">
		<tag k="name" v="Tromma" />
		<tag k="natural" v="hill" />
		<tag k="place" v="locality" />
		<tag k="ssr:stedsnr" v="557020" />
	</node>
	<node lat="63.49184166254068" lon="8.319886118325241" id="-31114">
		<tag k="name" v="Måsheia" />
		<tag k="natural" v="hill" />
		<tag k="place" v="locality" />
		<tag k="ssr:stedsnr" v="558098" />
	</node>
	<node lat="63.51959722556495" lon="8.891555559844834" id="-31121">
		<tag k="fixme" v="consider natural=peak for the most distinct mountains in the district" />
		<tag k="name" v="Hifjellet" />
		<tag k="natural" v="hill" />
		<tag k="place" v="locality" />
		<tag k="ssr:stedsnr" v="558516" />
	</node>
	<node lat="63.497547218788384" lon="9.289363890568373" id="-31126">
		<tag k="alt_name" v="Urdvikkammen" />
		<tag k="fixme" v="consider natural=peak for the most distinct mountains in the district" />
		<tag k="name" v="Urdevikkammen" />
		<tag k="natural" v="hill" />
		<tag k="place" v="locality" />
		<tag k="ssr:stedsnr" v="558909" />
	</node>
	<node lat="63.50887499997996" lon="9.32933332682087" id="-31127">
		<tag k="fixme" v="consider natural=peak for the most distinct mountains in the district" />
		<tag k="name" v="Blåfjellet" />
		<tag k="natural" v="hill" />
		<tag k="place" v="locality" />
		<tag k="ssr:stedsnr" v="558911" />
	</node>
	<node lat="63.542300001783694" lon="8.779299993893806" id="-31131">
		<tag k="name" v="Middagsvarden" />
		<tag k="natural" v="hill" />
		<tag k="place" v="locality" />
		<tag k="ssr:stedsnr" v="559387" />
	</node>
	<node lat="63.54533055176125" lon="9.00949444580952" id="-31132">
		<tag k="name" v="Sandstaddalen" />
		<tag k="natural" v="valley" />
		<tag k="place" v="locality" />
		<tag k="ssr:stedsnr" v="559389" />
	</node>
	<node lat="63.53212500109245" lon="8.701858332514092" id="-31134">
		<tag k="name" v="Brennhaugen" />
		<tag k="natural" v="hill" />
		<tag k="place" v="locality" />
		<tag k="ssr:stedsnr" v="559507" />
	</node>
	<node lat="63.53070555458213" lon="8.442430559954728" id="-31136">
		<tag k="name" v="Tømmerdalen" />
		<tag k="natural" v="valley" />
		<tag k="place" v="locality" />
		<tag k="ssr:stedsnr" v="559545" />
	</node>
	<node lat="63.56158332980768" lon="9.177363889378364" id="-31138">
		<tag k="name" v="Tømmeråsheia" />
		<tag k="natural" v="hill" />
		<tag k="place" v="locality" />
		<tag k="ssr:stedsnr" v="559406" />
	</node>
	<node lat="63.593455551639764" lon="8.754113882945328" id="-31145">
		<tag k="name" v="Hokkeltindkråa" />
		<tag k="natural" v="valley" />
		<tag k="place" v="locality" />
		<tag k="ssr:stedsnr" v="575500" />
	</node>
	<node lat="63.48274721815832" lon="8.305155551233586" id="-31146">
		<tag k="alt_name" v="Hærnesvarden" />
		<tag k="name" v="Hernesvarden" />
		<tag k="natural" v="hill" />
		<tag k="place" v="locality" />
		<tag k="ssr:stedsnr" v="575619" />
	</node>
	<node lat="63.6146277736062" lon="8.661511113337042" id="-31150">
		<tag k="name" v="Aunahaugen" />
		<tag k="natural" v="hill" />
		<tag k="place" v="locality" />
		<tag k="ssr:stedsnr" v="575555" />
	</node>
	<node lat="63.6254583341556" lon="8.715683325633567" id="-31152">
		<tag k="name" v="Kuberget" />
		<tag k="natural" v="hill" />
		<tag k="place" v="locality" />
		<tag k="ssr:stedsnr" v="575596" />
	</node>
	<node lat="63.556211113539526" lon="8.5081527801184" id="-31155">
		<tag k="name" v="Ørntuva" />
		<tag k="natural" v="hill" />
		<tag k="place" v="locality" />
		<tag k="ssr:stedsnr" v="576009" />
	</node>
	<node lat="63.67301944187159" lon="9.06103333534048" id="-31156">
		<tag k="name" v="Kringlevikvarden" />
		<tag k="natural" v="hill" />
		<tag k="place" v="locality" />
		<tag k="ssr:stedsnr" v="576143" />
	</node>
	<node lat="63.67209722599949" lon="9.04325278504319" id="-31157">
		<tag k="name" v="Grindskardheia" />
		<tag k="natural" v="hill" />
		<tag k="place" v="locality" />
		<tag k="ssr:stedsnr" v="576147" />
	</node>
	<node lat="63.66824166745033" lon="9.082894453169795" id="-31161">
		<tag k="fixme" v="consider natural=peak for the most distinct mountains in the district" />
		<tag k="name" v="Tjærravarden" />
		<tag k="natural" v="hill" />
		<tag k="place" v="locality" />
		<tag k="ssr:stedsnr" v="576160" />
	</node>
	<node lat="63.431397225832676" lon="8.480352777497094" id="-31166">
		<tag k="name" v="Kaldvelthammaren" />
		<tag k="natural" v="hill" />
		<tag k="place" v="locality" />
		<tag k="ssr:stedsnr" v="576258" />
	</node>
	<node lat="63.45810277756831" lon="8.429113885169182" id="-31167">
		<tag k="name" v="Sagstillbotnen" />
		<tag k="natural" v="valley" />
		<tag k="place" v="locality" />
		<tag k="ssr:stedsnr" v="576457" />
	</node>
	<node lat="63.46450555486115" lon="8.43527777529514" id="-31169">
		<tag k="name" v="Hansineholet" />
		<tag k="natural" v="valley" />
		<tag k="place" v="locality" />
		<tag k="ssr:stedsnr" v="576459" />
	</node>
	<node lat="63.59195833127904" lon="8.864805557649701" id="-31173">
		<tag k="name" v="Tobbdalen" />
		<tag k="natural" v="valley" />
		<tag k="place" v="locality" />
		<tag k="ssr:stedsnr" v="576806" />
	</node>
	<node lat="63.544230552447694" lon="9.018377786891948" id="-31174">
		<tag k="name" v="Eldfarheia" />
		<tag k="natural" v="hill" />
		<tag k="place" v="locality" />
		<tag k="ssr:stedsnr" v="576848" />
	</node>
	<node lat="63.574491664541725" lon="8.656474996013197" id="-31178">
		<tag k="name" v="Skipnesvarden" />
		<tag k="natural" v="hill" />
		<tag k="place" v="locality" />
		<tag k="ssr:stedsnr" v="576797" />
	</node>
	<node lat="63.618199998399106" lon="8.562025000964537" id="-31180">
		<tag k="name" v="Myra" />
		<tag k="place" v="locality" />
		<tag k="ssr:stedsnr" v="576910" />
	</node>
	<node lat="63.564688890928714" lon="8.516963890652388" id="-31187">
		<tag k="name" v="Vikahaugen" />
		<tag k="natural" v="hill" />
		<tag k="place" v="locality" />
		<tag k="ssr:stedsnr" v="577000" />
	</node>
	<node lat="63.57544444326457" lon="9.130844451324965" id="-31191">
		<tag k="name" v="Kleivahaugan" />
		<tag k="natural" v="hill" />
		<tag k="place" v="locality" />
		<tag k="ssr:stedsnr" v="577299" />
	</node>
	<node lat="63.5708777738963" lon="9.135758334020373" id="-31192">
		<tag k="name" v="Tjæravassberga" />
		<tag k="natural" v="hill" />
		<tag k="place" v="locality" />
		<tag k="ssr:stedsnr" v="577300" />
	</node>
	<node lat="63.52463055764434" lon="9.070741667108202" id="-31194">
		<tag k="fixme" v="consider natural=peak for the most distinct mountains in the district" />
		<tag k="name" v="Kuåsen" />
		<tag k="natural" v="hill" />
		<tag k="place" v="locality" />
		<tag k="ssr:stedsnr" v="577417" />
	</node>
	<node lat="63.56484444767117" lon="9.00009721892748" id="-31199">
		<tag k="fixme" v="consider natural=peak for the most distinct mountains in the district" />
		<tag k="name" v="Fagerdalskammen" />
		<tag k="natural" v="hill" />
		<tag k="place" v="locality" />
		<tag k="ssr:stedsnr" v="577698" />
	</node>
	<node lat="63.52136388815636" lon="8.964483335575789" id="-31200">
		<tag k="name" v="Ramnfjellhalsen" />
		<tag k="natural" v="valley" />
		<tag k="place" v="locality" />
		<tag k="ssr:stedsnr" v="577706" />
	</node>
	<node lat="63.50692500220964" lon="9.26356387979958" id="-31204">
		<tag k="name" v="Roparberget" />
		<tag k="natural" v="hill" />
		<tag k="place" v="locality" />
		<tag k="ssr:stedsnr" v="578203" />
	</node>
	<node lat="63.488175001147724" lon="9.302683325623141" id="-31207">
		<tag k="name" v="Litlratet" />
		<tag k="natural" v="ridge" />
		<tag k="place" v="locality" />
		<tag k="ssr:stedsnr" v="578541" />
	</node>
	<node lat="63.47858611476136" lon="9.285183338306396" id="-31208">
		<tag k="name" v="Laberget" />
		<tag k="natural" v="hill" />
		<tag k="place" v="locality" />
		<tag k="ssr:stedsnr" v="578554" />
	</node>
	<node lat="63.54461944078061" lon="9.344502787272068" id="-31210">
		<tag k="name" v="Demhammaren" />
		<tag k="natural" v="hill" />
		<tag k="place" v="locality" />
		<tag k="ssr:stedsnr" v="579221" />
	</node>
	<node lat="63.497433330860616" lon="9.22993888900979" id="-31211">
		<tag k="name" v="Rata" />
		<tag k="place" v="locality" />
		<tag k="ssr:stedsnr" v="579256" />
	</node>
	<node lat="63.60892799877827" lon="8.437217122498964" id="-31212">
		<tag k="name" v="Jektvollen" />
		<tag k="natural" v="slope" />
		<tag k="place" v="locality" />
		<tag k="ssr:stedsnr" v="581289" />
	</node>
	<node lat="63.526649996588766" lon="8.471050005303185" id="-31223">
		<tag k="name" v="Bjørnliheituva" />
		<tag k="natural" v="hill" />
		<tag k="place" v="locality" />
		<tag k="ssr:stedsnr" v="697033" />
	</node>
	<node lat="63.597480556627765" lon="8.442827768789638" id="-31229">
		<tag k="name" v="Brannsøyklumpen" />
		<tag k="natural" v="hill" />
		<tag k="place" v="locality" />
		<tag k="ssr:stedsnr" v="697060" />
	</node>
	<node lat="63.58293888932514" lon="8.94043333698165" id="-31235">
		<tag k="name" v="Gaddtjørndalen" />
		<tag k="natural" v="valley" />
		<tag k="place" v="locality" />
		<tag k="ssr:stedsnr" v="697229" />
	</node>
	<node lat="63.63682222302972" lon="9.040686119480528" id="-31236">
		<tag k="name" v="Aunklumpen" />
		<tag k="natural" v="hill" />
		<tag k="place" v="locality" />
		<tag k="ssr:stedsnr" v="697234" />
	</node>
	<node lat="63.45602221783228" lon="8.605450005793662" id="-31238">
		<tag k="name" v="Hausten" />
		<tag k="natural" v="hill" />
		<tag k="place" v="locality" />
		<tag k="ssr:stedsnr" v="697240" />
	</node>
	<node lat="63.58995833026048" lon="8.645683335818747" id="-31245">
		<tag k="name" v="Ringblomdalen" />
		<tag k="natural" v="valley" />
		<tag k="place" v="locality" />
		<tag k="ssr:stedsnr" v="697526" />
	</node>
	<node lat="63.599130554783066" lon="8.730813893096029" id="-31246">
		<tag k="name" v="Tårnportan" />
		<tag k="natural" v="hill" />
		<tag k="place" v="locality" />
		<tag k="ssr:stedsnr" v="697531" />
	</node>
	<node lat="63.58373333616728" lon="8.678311106668497" id="-31248">
		<tag k="fixme" v="consider natural=peak for the most distinct mountains in the district" />
		<tag k="name" v="Klintan" />
		<tag k="natural" v="hill" />
		<tag k="place" v="locality" />
		<tag k="ssr:stedsnr" v="697540" />
	</node>
	<node lat="63.60200277839281" lon="8.940500001968037" id="-31263">
		<tag k="name" v="Kvitheia" />
		<tag k="natural" v="hill" />
		<tag k="place" v="locality" />
		<tag k="ssr:stedsnr" v="697860" />
	</node>
	<node lat="63.632163886965294" lon="8.819544435360887" id="-31268">
		<tag k="fixme" v="consider natural=peak for the most distinct mountains in the district" />
		<tag k="name" v="Bjørnbæråsen" />
		<tag k="natural" v="hill" />
		<tag k="place" v="locality" />
		<tag k="ssr:stedsnr" v="697941" />
	</node>
	<node lat="63.6012666630354" lon="8.79580277770622" id="-31269">
		<tag k="name" v="Mausoklia" />
		<tag k="natural" v="slope" />
		<tag k="place" v="locality" />
		<tag k="ssr:stedsnr" v="697956" />
	</node>
	<node lat="63.618691663190106" lon="9.101544448120379" id="-31272">
		<tag k="name" v="Brannhaugen" />
		<tag k="natural" v="hill" />
		<tag k="place" v="locality" />
		<tag k="ssr:stedsnr" v="698026" />
	</node>
	<node lat="63.5836111152112" lon="8.464024993813691" id="-31279">
		<tag k="name" v="Rundhaugen" />
		<tag k="natural" v="hill" />
		<tag k="place" v="locality" />
		<tag k="ssr:stedsnr" v="698134" />
	</node>
	<node lat="63.58512777899163" lon="8.480383338350729" id="-31281">
		<tag k="name" v="Ørnhaugen" />
		<tag k="natural" v="hill" />
		<tag k="place" v="locality" />
		<tag k="ssr:stedsnr" v="698137" />
	</node>
	<node lat="63.66922222513384" lon="9.098633336799347" id="-31282">
		<tag k="fixme" v="consider natural=peak for the most distinct mountains in the district" />
		<tag k="name" v="Litlvarden" />
		<tag k="natural" v="hill" />
		<tag k="place" v="locality" />
		<tag k="ssr:stedsnr" v="698138" />
	</node>
	<node lat="63.44349722099836" lon="8.535238880984624" id="-31290">
		<tag k="name" v="Botnan" />
		<tag k="natural" v="valley" />
		<tag k="place" v="locality" />
		<tag k="ssr:stedsnr" v="698208" />
	</node>
	<node lat="63.57442221842288" lon="9.208108335091827" id="-31293">
		<tag k="name" v="Vikanesklumpen" />
		<tag k="natural" v="hill" />
		<tag k="place" v="locality" />
		<tag k="ssr:stedsnr" v="698243" />
	</node>
	<node lat="63.523330552995006" lon="9.131683339235757" id="-31302">
		<tag k="name" v="Flaggstonghaugen" />
		<tag k="natural" v="hill" />
		<tag k="place" v="locality" />
		<tag k="ssr:stedsnr" v="698338" />
	</node>
	<node lat="63.48322777409005" lon="8.402358336584422" id="-31309">
		<tag k="name" v="Stordalen" />
		<tag k="natural" v="valley" />
		<tag k="place" v="locality" />
		<tag k="ssr:stedsnr" v="698440" />
	</node>
	<node lat="63.51816666540992" lon="9.067936108044318" id="-31310">
		<tag k="name" v="Siriaunberget" />
		<tag k="natural" v="hill" />
		<tag k="place" v="locality" />
		<tag k="ssr:stedsnr" v="698392" />
	</node>
	<node lat="63.551436114147904" lon="9.132213887888565" id="-31313">
		<tag k="name" v="Raudsteinberget" />
		<tag k="natural" v="hill" />
		<tag k="place" v="locality" />
		<tag k="ssr:stedsnr" v="698449" />
	</node>
	<node lat="63.426927781704386" lon="8.415427783095897" id="-31315">
		<tag k="name" v="Ørnkula" />
		<tag k="natural" v="hill" />
		<tag k="place" v="locality" />
		<tag k="ssr:stedsnr" v="698454" />
	</node>
	<node lat="63.57807777930655" lon="8.94980278077187" id="-31321">
		<tag k="fixme" v="consider natural=peak for the most distinct mountains in the district" />
		<tag k="name" v="Baråsen" />
		<tag k="natural" v="hill" />
		<tag k="place" v="locality" />
		<tag k="ssr:stedsnr" v="698655" />
	</node>
	<node lat="63.53457499740901" lon="8.965252784922857" id="-31322">
		<tag k="name" v="Buvollia" />
		<tag k="natural" v="slope" />
		<tag k="place" v="locality" />
		<tag k="ssr:stedsnr" v="698674" />
	</node>
	<node lat="63.55963888503151" lon="8.899899995117606" id="-31323">
		<tag k="name" v="Gåsdalen" />
		<tag k="natural" v="valley" />
		<tag k="place" v="locality" />
		<tag k="ssr:stedsnr" v="698681" />
	</node>
	<node lat="63.52654166967316" lon="9.005347230190967" id="-31324">
		<tag k="name" v="Mossaberga" />
		<tag k="natural" v="hill" />
		<tag k="place" v="locality" />
		<tag k="ssr:stedsnr" v="698693" />
	</node>
	<node lat="63.58810277382668" lon="8.853019447266096" id="-31333">
		<tag k="name" v="Tobbdalen" />
		<tag k="natural" v="valley" />
		<tag k="place" v="locality" />
		<tag k="ssr:stedsnr" v="698757" />
	</node>
	<node lat="63.49833889260332" lon="8.817008335854338" id="-31334">
		<tag k="name" v="Elsfjelldalen" />
		<tag k="natural" v="valley" />
		<tag k="place" v="locality" />
		<tag k="ssr:stedsnr" v="698790" />
	</node>
	<node lat="63.556274996591085" lon="8.904808339174739" id="-31336">
		<tag k="fixme" v="consider natural=peak for the most distinct mountains in the district" />
		<tag k="name" v="Gåsdalskammen" />
		<tag k="natural" v="hill" />
		<tag k="place" v="locality" />
		<tag k="ssr:stedsnr" v="698798" />
	</node>
	<node lat="63.48204444890682" lon="8.665544443739764" id="-31340">
		<tag k="name" v="Ørntoppan" />
		<tag k="natural" v="hill" />
		<tag k="place" v="locality" />
		<tag k="ssr:stedsnr" v="698985" />
	</node>
	<node lat="63.56446388563439" lon="8.55334722485429" id="-31342">
		<tag k="name" v="Svehaugen" />
		<tag k="natural" v="hill" />
		<tag k="place" v="locality" />
		<tag k="ssr:stedsnr" v="698941" />
	</node>
	<node lat="63.55823888827754" lon="8.5678555459695" id="-31343">
		<tag k="name" v="Barnstein" />
		<tag k="natural" v="hill" />
		<tag k="place" v="locality" />
		<tag k="ssr:stedsnr" v="698942" />
	</node>
	<node lat="63.59270833627875" lon="8.598449992540047" id="-31344">
		<tag k="fixme" v="consider natural=peak for the most distinct mountains in the district" />
		<tag k="name" v="Svartklova" />
		<tag k="natural" v="hill" />
		<tag k="place" v="locality" />
		<tag k="ssr:stedsnr" v="698943" />
	</node>
	<node lat="63.48092499574002" lon="9.31458610406689" id="-31347">
		<tag k="name" v="Fossdalsbakken" />
		<tag k="natural" v="slope" />
		<tag k="place" v="locality" />
		<tag k="ssr:stedsnr" v="699539" />
	</node>
	<node lat="63.47565555448794" lon="9.291133326978676" id="-31348">
		<tag k="name" v="Svartkova" />
		<tag k="natural" v="slope" />
		<tag k="place" v="locality" />
		<tag k="ssr:stedsnr" v="699545" />
	</node>
	<node lat="63.48025833662217" lon="9.119813898243583" id="-31355">
		<tag k="name" v="Geitberga" />
		<tag k="natural" v="hill" />
		<tag k="place" v="locality" />
		<tag k="ssr:stedsnr" v="700054" />
	</node>
	<node lat="63.46981111283655" lon="9.262888898201528" id="-31356">
		<tag k="name" v="Tverrdalen" />
		<tag k="natural" v="valley" />
		<tag k="place" v="locality" />
		<tag k="ssr:stedsnr" v="700149" />
	</node>
	<node lat="63.43852499874847" lon="9.163508329365905" id="-31357">
		<tag k="name" v="Vestre Fuglene" />
		<tag k="natural" v="hill" />
		<tag k="place" v="locality" />
		<tag k="ssr:stedsnr" v="700452" />
	</node>
	<node lat="63.51840555221312" lon="9.312416672464117" id="-31359">
		<tag k="name" v="Malihaugen" />
		<tag k="natural" v="hill" />
		<tag k="place" v="locality" />
		<tag k="ssr:stedsnr" v="700536" />
	</node>
	<node lat="63.53010000003021" lon="9.017552780821074" id="-31384">
		<tag k="fixme" v="consider natural=peak for the most distinct mountains in the district" />
		<tag k="name" v="Meiåsen" />
		<tag k="natural" v="hill" />
		<tag k="place" v="locality" />
		<tag k="ssr:stedsnr" v="619509" />
	</node>
	<node lat="63.533636114584574" lon="9.091741671422009" id="-31385">
		<tag k="fixme" v="consider natural=peak for the most distinct mountains in the district" />
		<tag k="name" v="Ørnåsen" />
		<tag k="natural" v="hill" />
		<tag k="place" v="locality" />
		<tag k="ssr:stedsnr" v="619510" />
	</node>
	<node lat="63.606141666124564" lon="8.682413885192386" id="-31393">
		<tag k="name" v="Sant Hanshaugen" />
		<tag k="natural" v="hill" />
		<tag k="place" v="locality" />
		<tag k="ssr:stedsnr" v="619913" />
	</node>
	<node lat="63.58730555242929" lon="8.445697229894726" id="-31408">
		<tag k="name" v="Damhaugan" />
		<tag k="natural" v="hill" />
		<tag k="place" v="locality" />
		<tag k="ssr:stedsnr" v="703692" />
	</node>
	<node lat="63.590602777160534" lon="8.386894437534552" id="-31409">
		<tag k="name" v="Storhaugen" />
		<tag k="natural" v="hill" />
		<tag k="place" v="locality" />
		<tag k="ssr:stedsnr" v="704331" />
	</node>
	<node lat="63.64861666568388" lon="9.055024993618517" id="-31411">
		<tag k="fixme" v="consider natural=peak for the most distinct mountains in the district" />
		<tag k="name" v="Storvarden" />
		<tag k="natural" v="hill" />
		<tag k="place" v="locality" />
		<tag k="ssr:stedsnr" v="636084" />
	</node>
	<node lat="63.66023055437094" lon="9.086313883820818" id="-31413">
		<tag k="name" v="Skjærbusdalen" />
		<tag k="natural" v="valley" />
		<tag k="place" v="locality" />
		<tag k="ssr:stedsnr" v="636091" />
	</node>
	<node lat="63.597233335195234" lon="8.953424997645891" id="-31416">
		<tag k="name" v="Olderheia" />
		<tag k="natural" v="hill" />
		<tag k="place" v="locality" />
		<tag k="ssr:stedsnr" v="636207" />
	</node>
	<node lat="63.653677773722386" lon="9.123036105745348" id="-31417">
		<tag k="name" v="Leirvikhaugen" />
		<tag k="natural" v="hill" />
		<tag k="place" v="locality" />
		<tag k="ssr:stedsnr" v="636112" />
	</node>
	<node lat="63.59674166872094" lon="8.659808326735748" id="-31422">
		<tag k="name" v="Svartberget" />
		<tag k="natural" v="hill" />
		<tag k="place" v="locality" />
		<tag k="ssr:stedsnr" v="636579" />
	</node>
	<node lat="63.58764166353467" lon="9.014786116281215" id="-31423">
		<tag k="fixme" v="consider natural=peak for the most distinct mountains in the district" />
		<tag k="name" v="Breivikkammen" />
		<tag k="natural" v="hill" />
		<tag k="place" v="locality" />
		<tag k="ssr:stedsnr" v="636225" />
	</node>
	<node lat="63.494444447044806" lon="8.277961115118302" id="-31427">
		<tag k="name" v="Kleppfiskberga" />
		<tag k="natural" v="hill" />
		<tag k="place" v="locality" />
		<tag k="ssr:stedsnr" v="636684" />
	</node>
	<node lat="63.60304721924806" lon="8.812916658048497" id="-31429">
		<tag k="name" v="Stavlibakkan" />
		<tag k="natural" v="slope" />
		<tag k="place" v="locality" />
		<tag k="ssr:stedsnr" v="636816" />
	</node>
	<node lat="63.61425833502871" lon="8.60433332626331" id="-31430">
		<tag k="name" v="Smedhaugen" />
		<tag k="natural" v="hill" />
		<tag k="place" v="locality" />
		<tag k="ssr:stedsnr" v="636903" />
	</node>
	<node lat="63.668044446549914" lon="9.09743332447608" id="-31438">
		<tag k="fixme" v="consider natural=peak for the most distinct mountains in the district" />
		<tag k="name" v="Storvarden" />
		<tag k="natural" v="hill" />
		<tag k="place" v="locality" />
		<tag k="ssr:stedsnr" v="637175" />
	</node>
	<node lat="63.53223333558019" lon="9.106724999827827" id="-31441">
		<tag k="name" v="Rundhaugen" />
		<tag k="natural" v="hill" />
		<tag k="place" v="locality" />
		<tag k="ssr:stedsnr" v="637409" />
	</node>
	<node lat="63.516297219144235" lon="8.288563879362071" id="-31442">
		<tag k="name" v="Skåravarden" />
		<tag k="natural" v="hill" />
		<tag k="place" v="locality" />
		<tag k="ssr:stedsnr" v="637412" />
	</node>
	<node lat="63.48105000112662" lon="8.849316669627418" id="-31443">
		<tag k="name" v="Husberget" />
		<tag k="natural" v="hill" />
		<tag k="place" v="locality" />
		<tag k="ssr:stedsnr" v="637428" />
	</node>
	<node lat="63.56631111017917" lon="9.159408325269359" id="-31446">
		<tag k="name" v="Båtvikberga" />
		<tag k="natural" v="hill" />
		<tag k="place" v="locality" />
		<tag k="ssr:stedsnr" v="637378" />
	</node>
	<node lat="63.52547499710779" lon="9.023713879216785" id="-31449">
		<tag k="name" v="Brannan" />
		<tag k="natural" v="slope" />
		<tag k="place" v="locality" />
		<tag k="ssr:stedsnr" v="637713" />
	</node>
	<node lat="63.56354166958448" lon="8.814744443680045" id="-31450">
		<tag k="name" v="Rørtjørndalen" />
		<tag k="natural" v="valley" />
		<tag k="place" v="locality" />
		<tag k="ssr:stedsnr" v="637807" />
	</node>
	<node lat="63.54613055971982" lon="8.90673889855014" id="-31451">
		<tag k="name" v="Furulidalen" />
		<tag k="natural" v="valley" />
		<tag k="place" v="locality" />
		<tag k="ssr:stedsnr" v="637817" />
	</node>
	<node lat="63.62135277626235" lon="8.710613886487804" id="-31454">
		<tag k="name" v="Kleberget" />
		<tag k="natural" v="hill" />
		<tag k="place" v="locality" />
		<tag k="ssr:stedsnr" v="637926" />
	</node>
	<node lat="63.612269441760574" lon="8.630122221691224" id="-31455">
		<tag k="name" v="Varden" />
		<tag k="natural" v="hill" />
		<tag k="place" v="locality" />
		<tag k="ssr:stedsnr" v="637928" />
	</node>
	<node lat="63.57870555953617" lon="8.565891667962218" id="-31457">
		<tag k="name" v="Lavskardet" />
		<tag k="natural" v="valley" />
		<tag k="place" v="locality" />
		<tag k="ssr:stedsnr" v="637943" />
	</node>
	<node lat="63.50216944058599" lon="9.230869445060693" id="-31460">
		<tag k="name" v="Trolldalen" />
		<tag k="natural" v="valley" />
		<tag k="place" v="locality" />
		<tag k="ssr:stedsnr" v="638206" />
	</node>
	<node lat="63.519322220447954" lon="9.247858331345897" id="-31461">
		<tag k="name" v="Husfjellet" />
		<tag k="natural" v="hill" />
		<tag k="place" v="locality" />
		<tag k="ssr:stedsnr" v="638192" />
	</node>
	<node lat="63.50305555235352" lon="9.202050002239789" id="-31465">
		<tag k="name" v="Blekkheia" />
		<tag k="natural" v="hill" />
		<tag k="place" v="locality" />
		<tag k="ssr:stedsnr" v="639229" />
	</node>
	<node lat="63.50621389092052" lon="9.20487777787842" id="-31467">
		<tag k="fixme" v="consider natural=peak for the most distinct mountains in the district" />
		<tag k="name" v="Slåttavikåsen" />
		<tag k="natural" v="hill" />
		<tag k="place" v="locality" />
		<tag k="ssr:stedsnr" v="640205" />
	</node>
	<node lat="63.59724166657192" lon="9.085800005841088" id="-31482">
		<tag k="name" v="Ulvvågheia" />
		<tag k="natural" v="hill" />
		<tag k="place" v="locality" />
		<tag k="ssr:stedsnr" v="680412" />
	</node>
	<node lat="63.639016666558895" lon="8.988552787336351" id="-31486">
		<tag k="fixme" v="multiple name tags, choose one and add the other to alt_name" />
		<tag k="name" v="Storvarden;Ansnesvarden" />
		<tag k="natural" v="hill" />
		<tag k="place" v="locality" />
		<tag k="ssr:stedsnr" v="680312" />
	</node>
	<node lat="63.5417694434351" lon="9.014863881980418" id="-31494">
		<tag k="fixme" v="consider natural=peak for the most distinct mountains in the district" />
		<tag k="name" v="Eldfærheia" />
		<tag k="natural" v="hill" />
		<tag k="place" v="locality" />
		<tag k="ssr:stedsnr" v="681410" />
	</node>
	<node lat="63.671561111757576" lon="9.153477778272638" id="-31504">
		<tag k="fixme" v="consider natural=peak for the most distinct mountains in the district" />
		<tag k="name" v="Skanken" />
		<tag k="natural" v="hill" />
		<tag k="place" v="locality" />
		<tag k="ssr:stedsnr" v="697078" />
	</node>
	<node lat="63.61146389209485" lon="8.80618889317004" id="-31513">
		<tag k="name" v="Sandvassdalen" />
		<tag k="natural" v="valley" />
		<tag k="place" v="locality" />
		<tag k="ssr:stedsnr" v="697818" />
	</node>
	<node lat="63.63482222527849" lon="8.982980554780438" id="-31515">
		<tag k="name" v="Steingårdsheia" />
		<tag k="natural" v="hill" />
		<tag k="place" v="locality" />
		<tag k="ssr:stedsnr" v="697877" />
	</node>
	<node lat="63.45009722422727" lon="8.39953611715563" id="-31528">
		<tag k="name" v="Ådalsheia" />
		<tag k="natural" v="hill" />
		<tag k="place" v="locality" />
		<tag k="ssr:stedsnr" v="698224" />
	</node>
	<node lat="63.55937222563051" lon="9.106541668810634" id="-31530">
		<tag k="name" v="Ørnlia" />
		<tag k="natural" v="slope" />
		<tag k="place" v="locality" />
		<tag k="ssr:stedsnr" v="698228" />
	</node>
	<node lat="63.436255559435764" lon="8.393122220783779" id="-31531">
		<tag k="name" v="Friarkleiva" />
		<tag k="natural" v="hill" />
		<tag k="place" v="locality" />
		<tag k="ssr:stedsnr" v="698229" />
	</node>
	<node lat="63.557938892167705" lon="9.100933335567944" id="-31532">
		<tag k="fixme" v="consider natural=peak for the most distinct mountains in the district" />
		<tag k="name" v="Ørnlikammen" />
		<tag k="natural" v="hill" />
		<tag k="place" v="locality" />
		<tag k="ssr:stedsnr" v="698230" />
	</node>
	<node lat="63.44340277611674" lon="8.407491664371005" id="-31533">
		<tag k="name" v="Leirvikhaugan" />
		<tag k="natural" v="hill" />
		<tag k="place" v="locality" />
		<tag k="ssr:stedsnr" v="698270" />
	</node>
	<node lat="63.46906111198862" lon="8.409191664773202" id="-31538">
		<tag k="name" v="Bukkliheia" />
		<tag k="natural" v="hill" />
		<tag k="place" v="locality" />
		<tag k="ssr:stedsnr" v="698422" />
	</node>
	<node lat="63.52127778090854" lon="9.085108341057737" id="-31546">
		<tag k="name" v="Haukarhaugen" />
		<tag k="natural" v="hill" />
		<tag k="place" v="locality" />
		<tag k="ssr:stedsnr" v="698373" />
	</node>
	<node lat="63.51540555875124" lon="9.071386113793743" id="-31549">
		<tag k="name" v="Vedberget" />
		<tag k="natural" v="hill" />
		<tag k="place" v="locality" />
		<tag k="ssr:stedsnr" v="698382" />
	</node>
	<node lat="63.62057500448217" lon="8.974011102624587" id="-31555">
		<tag k="fixme" v="consider natural=peak for the most distinct mountains in the district" />
		<tag k="name" v="Steinklovpynten" />
		<tag k="natural" v="hill" />
		<tag k="place" v="locality" />
		<tag k="ssr:stedsnr" v="698808" />
	</node>
	<node lat="63.52732222538269" lon="8.811833337641854" id="-31557">
		<tag k="fixme" v="consider natural=peak for the most distinct mountains in the district" />
		<tag k="name" v="Litltverrfjellet" />
		<tag k="natural" v="hill" />
		<tag k="place" v="locality" />
		<tag k="ssr:stedsnr" v="698816" />
	</node>
	<node lat="63.530444440002455" lon="8.82393889639501" id="-31558">
		<tag k="name" v="Tjærahjellen" />
		<tag k="place" v="locality" />
		<tag k="ssr:stedsnr" v="698817" />
	</node>
	<node lat="63.52399166539887" lon="8.885397229539885" id="-31559">
		<tag k="name" v="Haltdalen" />
		<tag k="natural" v="valley" />
		<tag k="place" v="locality" />
		<tag k="ssr:stedsnr" v="698824" />
	</node>
	<node lat="63.50214721944553" lon="8.850216674718588" id="-31560">
		<tag k="name" v="Bjørkalia" />
		<tag k="natural" v="slope" />
		<tag k="place" v="locality" />
		<tag k="ssr:stedsnr" v="698718" />
	</node>
	<node lat="63.49226111507531" lon="8.317072227881082" id="-31570">
		<tag k="name" v="Djupdalen" />
		<tag k="natural" v="valley" />
		<tag k="place" v="locality" />
		<tag k="ssr:stedsnr" v="698863" />
	</node>
	<node lat="63.512688890962615" lon="9.22887221802154" id="-31576">
		<tag k="fixme" v="consider natural=peak for the most distinct mountains in the district" />
		<tag k="name" v="Ytter Aunåsen" />
		<tag k="natural" v="hill" />
		<tag k="place" v="locality" />
		<tag k="ssr:stedsnr" v="699173" />
	</node>
	<node lat="63.45542500355132" lon="9.25982778200621" id="-31583">
		<tag k="name" v="Mellomskardet" />
		<tag k="natural" v="valley" />
		<tag k="place" v="locality" />
		<tag k="ssr:stedsnr" v="700162" />
	</node>
	<node lat="63.46590277492384" lon="9.303625009357182" id="-31586">
		<tag k="name" v="Løyftkammen" />
		<tag k="natural" v="ridge" />
		<tag k="place" v="locality" />
		<tag k="ssr:stedsnr" v="701262" />
	</node>
	<node lat="63.57809444329315" lon="8.465877768290387" id="-31589">
		<tag k="name" v="Kuvikheia" />
		<tag k="natural" v="hill" />
		<tag k="place" v="locality" />
		<tag k="ssr:stedsnr" v="703332" />
	</node>
	<node lat="63.476155559908776" lon="8.457461106839434" id="-31600">
		<tag k="fixme" v="consider natural=peak for the most distinct mountains in the district" />
		<tag k="name" v="Skogfallfjellet" />
		<tag k="natural" v="hill" />
		<tag k="place" v="locality" />
		<tag k="ssr:stedsnr" v="740116" />
	</node>
	<node lat="63.49101110895921" lon="8.843791670304588" id="-31603">
		<tag k="name" v="Husvasslia" />
		<tag k="natural" v="slope" />
		<tag k="place" v="locality" />
		<tag k="ssr:stedsnr" v="740409" />
	</node>
	<node lat="63.49162500393488" lon="8.766113878953377" id="-31604">
		<tag k="name" v="Eklingdalen" />
		<tag k="natural" v="valley" />
		<tag k="place" v="locality" />
		<tag k="ssr:stedsnr" v="740410" />
	</node>
	<node lat="63.55529444516635" lon="8.954191658040283" id="-31618">
		<tag k="alt_name" v="Hakktua" />
		<tag k="name" v="Hakktuva" />
		<tag k="natural" v="hill" />
		<tag k="place" v="locality" />
		<tag k="ssr:stedsnr" v="741490" />
	</node>
	<node lat="63.6135138862417" lon="8.935183341568209" id="-31621">
		<tag k="fixme" v="consider natural=peak for the most distinct mountains in the district" />
		<tag k="name" v="Lauvåsen" />
		<tag k="natural" v="hill" />
		<tag k="place" v="locality" />
		<tag k="ssr:stedsnr" v="741397" />
	</node>
	<node lat="63.52711666719474" lon="8.442925004914542" id="-31625">
		<tag k="name" v="Mådalen" />
		<tag k="natural" v="valley" />
		<tag k="place" v="locality" />
		<tag k="ssr:stedsnr" v="741593" />
	</node>
	<node lat="63.57913333042888" lon="8.692905562515346" id="-31634">
		<tag k="name" v="Grythaugen" />
		<tag k="natural" v="hill" />
		<tag k="place" v="locality" />
		<tag k="ssr:stedsnr" v="741692" />
	</node>
	<node lat="63.581919442278746" lon="8.685705555116582" id="-31635">
		<tag k="name" v="Klinutan" />
		<tag k="natural" v="hill" />
		<tag k="place" v="locality" />
		<tag k="ssr:stedsnr" v="741697" />
	</node>
	<node lat="63.669372221582954" lon="9.080461103863309" id="-31637">
		<tag k="fixme" v="consider natural=peak for the most distinct mountains in the district" />
		<tag k="name" v="Ørnfjellet" />
		<tag k="natural" v="hill" />
		<tag k="place" v="locality" />
		<tag k="ssr:stedsnr" v="741737" />
	</node>
	<node lat="63.62986111202308" lon="9.141866657268714" id="-31645">
		<tag k="name" v="Kjelda" />
		<tag k="place" v="locality" />
		<tag k="ssr:stedsnr" v="758014" />
	</node>
	<node lat="63.584297222514785" lon="8.474580559264485" id="-31649">
		<tag k="name" v="Storvarden" />
		<tag k="natural" v="hill" />
		<tag k="place" v="locality" />
		<tag k="ssr:stedsnr" v="758203" />
	</node>
	<node lat="63.45959444359219" lon="8.579030553719765" id="-31650">
		<tag k="name" v="Ørndalen" />
		<tag k="natural" v="valley" />
		<tag k="place" v="locality" />
		<tag k="ssr:stedsnr" v="758260" />
	</node>
	<node lat="63.46967500435985" lon="8.319916674968812" id="-31654">
		<tag k="name" v="Karrvikklumpen" />
		<tag k="natural" v="hill" />
		<tag k="place" v="locality" />
		<tag k="ssr:stedsnr" v="758417" />
	</node>
	<node lat="63.61696944144943" lon="8.458247221597757" id="-31657">
		<tag k="name" v="Aspa" />
		<tag k="natural" v="hill" />
		<tag k="place" v="locality" />
		<tag k="ssr:stedsnr" v="758151" />
	</node>
	<node lat="63.44590555651159" lon="8.436188892726282" id="-31660">
		<tag k="name" v="Sandstibruheia" />
		<tag k="natural" v="hill" />
		<tag k="place" v="locality" />
		<tag k="ssr:stedsnr" v="758348" />
	</node>
	<node lat="63.543908330122164" lon="8.52996110653425" id="-31668">
		<tag k="fixme" v="consider natural=peak for the most distinct mountains in the district" />
		<tag k="name" v="Grønnmyråsen" />
		<tag k="natural" v="hill" />
		<tag k="place" v="locality" />
		<tag k="ssr:stedsnr" v="758712" />
	</node>
	<node lat="63.62246944663218" lon="8.743172223385187" id="-31676">
		<tag k="name" v="Holmshaugen" />
		<tag k="natural" v="hill" />
		<tag k="place" v="locality" />
		<tag k="ssr:stedsnr" v="758644" />
	</node>
	<node lat="63.62762777428819" lon="8.738922225621119" id="-31677">
		<tag k="fixme" v="consider natural=peak for the most distinct mountains in the district" />
		<tag k="name" v="Stakkvikfjellet" />
		<tag k="natural" v="hill" />
		<tag k="place" v="locality" />
		<tag k="ssr:stedsnr" v="758645" />
	</node>
	<node lat="63.52024722381088" lon="8.72247499929665" id="-31679">
		<tag k="name" v="Skogodden" />
		<tag k="natural" v="hill" />
		<tag k="place" v="locality" />
		<tag k="ssr:stedsnr" v="758804" />
	</node>
	<node lat="63.6065361098055" lon="8.797733328248794" id="-31682">
		<tag k="name" v="Langdalsranken" />
		<tag k="natural" v="valley" />
		<tag k="place" v="locality" />
		<tag k="ssr:stedsnr" v="758815" />
	</node>
	<node lat="63.58965000239159" lon="8.904266673296672" id="-31683">
		<tag k="name" v="Inner Steinfjelldalen" />
		<tag k="natural" v="valley" />
		<tag k="place" v="locality" />
		<tag k="ssr:stedsnr" v="758818" />
	</node>
	<node lat="63.582283335792525" lon="8.931499997313246" id="-31684">
		<tag k="name" v="Vardheia" />
		<tag k="natural" v="hill" />
		<tag k="place" v="locality" />
		<tag k="ssr:stedsnr" v="758826" />
	</node>
	<node lat="63.59920555740702" lon="8.603674991165274" id="-31693">
		<tag k="name" v="Kattuggelheia" />
		<tag k="natural" v="hill" />
		<tag k="place" v="locality" />
		<tag k="ssr:stedsnr" v="758949" />
	</node>
	<node lat="63.593102779389305" lon="8.605905559458344" id="-31694">
		<tag k="name" v="Vettan" />
		<tag k="natural" v="hill" />
		<tag k="place" v="locality" />
		<tag k="ssr:stedsnr" v="758950" />
	</node>
	<node lat="63.57147500009629" lon="9.199205552860922" id="-31698">
		<tag k="name" v="Litlvikvollen" />
		<tag k="natural" v="slope" />
		<tag k="place" v="locality" />
		<tag k="ssr:stedsnr" v="759247" />
	</node>
	<node lat="63.54765555139416" lon="9.158361121023878" id="-31701">
		<tag k="name" v="Skjevikdalen" />
		<tag k="natural" v="valley" />
		<tag k="place" v="locality" />
		<tag k="ssr:stedsnr" v="759416" />
	</node>
	<node lat="63.55329444162639" lon="9.114719442412571" id="-31703">
		<tag k="name" v="Ytter Damvassheia" />
		<tag k="natural" v="hill" />
		<tag k="place" v="locality" />
		<tag k="ssr:stedsnr" v="759461" />
	</node>
	<node lat="63.51609444446942" lon="9.23082777411" id="-31710">
		<tag k="name" v="Litlvarden" />
		<tag k="natural" v="hill" />
		<tag k="place" v="locality" />
		<tag k="ssr:stedsnr" v="760209" />
	</node>
	<node lat="63.58698888583358" lon="8.454649995103326" id="-31726">
		<tag k="name" v="Litlskardhaugan" />
		<tag k="natural" v="hill" />
		<tag k="place" v="locality" />
		<tag k="ssr:stedsnr" v="764654" />
	</node>
	<node lat="63.54301666342508" lon="8.888127787149037" id="-31753">
		<tag k="name" v="Flatan" />
		<tag k="natural" v="hill" />
		<tag k="place" v="locality" />
		<tag k="ssr:stedsnr" v="802476" />
	</node>
	<node lat="63.54976944662226" lon="9.037908335239202" id="-31754">
		<tag k="fixme" v="consider natural=peak for the most distinct mountains in the district" />
		<tag k="name" v="Vardeheia" />
		<tag k="natural" v="hill" />
		<tag k="place" v="locality" />
		<tag k="ssr:stedsnr" v="802478" />
	</node>
	<node lat="63.551527775308735" lon="8.933833326543457" id="-31755">
		<tag k="alt_name" v="Sandfjellet, store;Storsandfjellet;Sandfjellet" />
		<tag k="fixme" v="consider natural=peak for the most distinct mountains in the district" />
		<tag k="name" v="Store Sandfjellet" />
		<tag k="natural" v="hill" />
		<tag k="place" v="locality" />
		<tag k="ssr:stedsnr" v="802479" />
	</node>
	<node lat="63.527336110193296" lon="8.980597226316066" id="-31757">
		<tag k="fixme" v="consider natural=peak for the most distinct mountains in the district" />
		<tag k="name" v="Heilfjellet" />
		<tag k="natural" v="hill" />
		<tag k="place" v="locality" />
		<tag k="ssr:stedsnr" v="802505" />
	</node>
	<node lat="63.4430222210791" lon="8.527622230806664" id="-31773">
		<tag k="name" v="Jakta" />
		<tag k="natural" v="hill" />
		<tag k="place" v="locality" />
		<tag k="ssr:stedsnr" v="819236" />
	</node>
	<node lat="63.632633331994924" lon="9.090255559475729" id="-31774">
		<tag k="fixme" v="consider natural=peak for the most distinct mountains in the district" />
		<tag k="name" v="Hamnafjellet" />
		<tag k="natural" v="hill" />
		<tag k="place" v="locality" />
		<tag k="ssr:stedsnr" v="819244" />
	</node>
	<node lat="63.43820833103765" lon="8.37226389010761" id="-31776">
		<tag k="name" v="Skreppen" />
		<tag k="natural" v="hill" />
		<tag k="place" v="locality" />
		<tag k="ssr:stedsnr" v="819369" />
	</node>
	<node lat="63.46328888930671" lon="8.447650005729452" id="-31781">
		<tag k="name" v="Stillingan" />
		<tag k="natural" v="hill" />
		<tag k="place" v="locality" />
		<tag k="ssr:stedsnr" v="819509" />
	</node>
	<node lat="63.457580559884896" lon="8.438174999227314" id="-31782">
		<tag k="fixme" v="consider natural=peak for the most distinct mountains in the district" />
		<tag k="name" v="Seterlifjellet" />
		<tag k="natural" v="hill" />
		<tag k="place" v="locality" />
		<tag k="ssr:stedsnr" v="819513" />
	</node>
	<node lat="63.46610278051406" lon="8.433294453532486" id="-31788">
		<tag k="name" v="Leirvikheia" />
		<tag k="natural" v="hill" />
		<tag k="place" v="locality" />
		<tag k="ssr:stedsnr" v="819468" />
	</node>
	<node lat="63.62221666974921" lon="8.662005548935017" id="-31790">
		<tag k="name" v="Vardan" />
		<tag k="natural" v="hill" />
		<tag k="place" v="locality" />
		<tag k="ssr:stedsnr" v="819609" />
	</node>
	<node lat="63.54766389195117" lon="8.525594441943886" id="-31799">
		<tag k="name" v="Stordalsheia" />
		<tag k="natural" v="hill" />
		<tag k="place" v="locality" />
		<tag k="ssr:stedsnr" v="819718" />
	</node>
	<node lat="63.65266666249989" lon="8.997566662305536" id="-31800">
		<tag k="alt_name" v="Skållhund" />
		<tag k="name" v="Skållhunden" />
		<tag k="natural" v="hill" />
		<tag k="place" v="locality" />
		<tag k="ssr:stedsnr" v="819789" />
	</node>
	<node lat="63.64391944515061" lon="8.969769437522553" id="-31801">
		<tag k="name" v="Skjeften" />
		<tag k="natural" v="hill" />
		<tag k="place" v="locality" />
		<tag k="ssr:stedsnr" v="819790" />
	</node>
	<node lat="63.54112499962717" lon="8.967455557561761" id="-31805">
		<tag k="name" v="Skyttarbulia" />
		<tag k="natural" v="slope" />
		<tag k="place" v="locality" />
		<tag k="ssr:stedsnr" v="819875" />
	</node>
	<node lat="63.47299444723152" lon="8.695286118126285" id="-31811">
		<tag k="name" v="Lokkarhaugen" />
		<tag k="natural" v="hill" />
		<tag k="place" v="locality" />
		<tag k="ssr:stedsnr" v="820270" />
	</node>
	<node lat="63.53812777647607" lon="9.037102783104354" id="-31813">
		<tag k="name" v="Asphaugen" />
		<tag k="natural" v="hill" />
		<tag k="place" v="locality" />
		<tag k="ssr:stedsnr" v="820278" />
	</node>
	<node lat="63.55201944703454" lon="9.049930548526298" id="-31814">
		<tag k="name" v="Vester Gauklia" />
		<tag k="natural" v="slope" />
		<tag k="place" v="locality" />
		<tag k="ssr:stedsnr" v="820280" />
	</node>
	<node lat="63.51432500217492" lon="9.066577784141808" id="-31816">
		<tag k="name" v="Litlvedberget" />
		<tag k="natural" v="hill" />
		<tag k="place" v="locality" />
		<tag k="ssr:stedsnr" v="820421" />
	</node>
	<node lat="63.553313886574514" lon="9.125138886769538" id="-31822">
		<tag k="name" v="Rypskardet" />
		<tag k="natural" v="valley" />
		<tag k="place" v="locality" />
		<tag k="ssr:stedsnr" v="820473" />
	</node>
	<node lat="63.504497219872015" lon="9.235619452027167" id="-31830">
		<tag k="name" v="Torefjell" />
		<tag k="natural" v="hill" />
		<tag k="place" v="locality" />
		<tag k="ssr:stedsnr" v="821207" />
	</node>
	<node lat="63.464550000982996" lon="9.188161118473673" id="-31834">
		<tag k="name" v="Kamman" />
		<tag k="natural" v="ridge" />
		<tag k="place" v="locality" />
		<tag k="ssr:stedsnr" v="822213" />
	</node>
	<node lat="63.490027778036485" lon="9.162297213276792" id="-31835">
		<tag k="name" v="Lyngbakken" />
		<tag k="natural" v="slope" />
		<tag k="place" v="locality" />
		<tag k="ssr:stedsnr" v="822217" />
	</node>
	<node lat="63.482719445407255" lon="9.17931389684599" id="-31836">
		<tag k="name" v="Middagslia" />
		<tag k="natural" v="slope" />
		<tag k="place" v="locality" />
		<tag k="ssr:stedsnr" v="822221" />
	</node>
	<node lat="63.48603055370558" lon="9.17548611658558" id="-31837">
		<tag k="name" v="Nonshaugen" />
		<tag k="natural" v="hill" />
		<tag k="place" v="locality" />
		<tag k="ssr:stedsnr" v="822224" />
	</node>
	<node lat="63.51376666465054" lon="9.27210277935062" id="-31838">
		<tag k="name" v="Storråa" />
		<tag k="natural" v="valley" />
		<tag k="place" v="locality" />
		<tag k="ssr:stedsnr" v="822189" />
	</node>
	<node lat="63.50244166948176" lon="9.284375003662696" id="-31841">
		<tag k="name" v="Leikvikdalen" />
		<tag k="natural" v="valley" />
		<tag k="place" v="locality" />
		<tag k="ssr:stedsnr" v="822586" />
	</node>
	<node lat="63.61990277433829" lon="9.066583327434056" id="-31860">
		<tag k="name" v="Langlia" />
		<tag k="natural" v="slope" />
		<tag k="place" v="locality" />
		<tag k="ssr:stedsnr" v="923363" />
	</node>
	<node lat="63.525680557230494" lon="8.468808325808014" id="-31868">
		<tag k="name" v="Bjørnlivarden" />
		<tag k="natural" v="hill" />
		<tag k="place" v="locality" />
		<tag k="ssr:stedsnr" v="923555" />
	</node>
	<node lat="63.524733330284135" lon="9.029230557711047" id="-31872">
		<tag k="name" v="Terningslia" />
		<tag k="natural" v="slope" />
		<tag k="place" v="locality" />
		<tag k="ssr:stedsnr" v="923484" />
	</node>
	<node lat="63.54312777433402" lon="8.49640556485529" id="-31877">
		<tag k="name" v="Gaddheia" />
		<tag k="natural" v="hill" />
		<tag k="place" v="locality" />
		<tag k="ssr:stedsnr" v="923578" />
	</node>
	<node lat="63.53925833570235" lon="8.480705550710933" id="-31879">
		<tag k="name" v="Tollknivsheia" />
		<tag k="natural" v="hill" />
		<tag k="place" v="locality" />
		<tag k="ssr:stedsnr" v="923586" />
	</node>
	<node lat="63.53437777815403" lon="8.49348332538486" id="-31880">
		<tag k="fixme" v="consider natural=peak for the most distinct mountains in the district" />
		<tag k="name" v="Laksvassåsen" />
		<tag k="natural" v="hill" />
		<tag k="place" v="locality" />
		<tag k="ssr:stedsnr" v="923587" />
	</node>
	<node lat="63.658611112001196" lon="9.101397230374841" id="-31885">
		<tag k="alt_name" v="Vettan" />
		<tag k="name" v="Vetan" />
		<tag k="natural" v="hill" />
		<tag k="place" v="locality" />
		<tag k="ssr:stedsnr" v="923653" />
	</node>
	<node lat="63.4857888882014" lon="9.118027775279291" id="-31907">
		<tag k="fixme" v="consider natural=peak for the most distinct mountains in the district" />
		<tag k="name" v="Vettan" />
		<tag k="natural" v="hill" />
		<tag k="place" v="locality" />
		<tag k="ssr:stedsnr" v="862464" />
	</node>
	<node lat="63.50288611281381" lon="9.23483611594226" id="-31913">
		<tag k="name" v="Bruna" />
		<tag k="natural" v="hill" />
		<tag k="place" v="locality" />
		<tag k="ssr:stedsnr" v="863178" />
	</node>
	<node lat="63.51578888777607" lon="8.841366660901004" id="-31916">
		<tag k="name" v="Hjortskardet" />
		<tag k="natural" v="valley" />
		<tag k="place" v="locality" />
		<tag k="ssr:stedsnr" v="863507" />
	</node>
	<node lat="63.55279722080218" lon="8.699630555869694" id="-31919">
		<tag k="alt_name" v="Fuggelheian" />
		<tag k="name" v="Fuglheian" />
		<tag k="natural" v="hill" />
		<tag k="place" v="locality" />
		<tag k="ssr:stedsnr" v="863553" />
	</node>
	<node lat="63.52704999592481" lon="8.872988892515913" id="-31923">
		<tag k="name" v="Hjorthaugen" />
		<tag k="natural" v="hill" />
		<tag k="place" v="locality" />
		<tag k="ssr:stedsnr" v="863501" />
	</node>
	<node lat="63.57634166473342" lon="8.569836101941151" id="-31924">
		<tag k="alt_name" v="Kjempvarden" />
		<tag k="name" v="Kjempevarden" />
		<tag k="natural" v="hill" />
		<tag k="place" v="locality" />
		<tag k="ssr:stedsnr" v="863604" />
	</node>
	<node lat="63.544841666837996" lon="8.472008332664322" id="-31931">
		<tag k="name" v="Kråkhaugen" />
		<tag k="natural" v="hill" />
		<tag k="place" v="locality" />
		<tag k="ssr:stedsnr" v="879015" />
	</node>
	<node lat="63.49826666280417" lon="8.34664999973149" id="-31932">
		<tag k="name" v="Valhaugen" />
		<tag k="natural" v="hill" />
		<tag k="place" v="locality" />
		<tag k="ssr:stedsnr" v="879357" />
	</node>
	<node lat="63.608277775904206" lon="8.678580560696156" id="-31935">
		<tag k="name" v="Trånnaberga" />
		<tag k="natural" v="hill" />
		<tag k="place" v="locality" />
		<tag k="ssr:stedsnr" v="879556" />
	</node>
	<node lat="63.60618055826963" lon="8.681986103533227" id="-31936">
		<tag k="name" v="Leikvamsvarden" />
		<tag k="natural" v="hill" />
		<tag k="place" v="locality" />
		<tag k="ssr:stedsnr" v="879558" />
	</node>
	<node lat="63.60449721886522" lon="8.6714472148031" id="-31937">
		<tag k="name" v="Ørneshøgda" />
		<tag k="natural" v="hill" />
		<tag k="place" v="locality" />
		<tag k="ssr:stedsnr" v="879568" />
	</node>
	<node lat="63.54854444237027" lon="8.541972218580703" id="-31938">
		<tag k="name" v="Grytvarden" />
		<tag k="natural" v="hill" />
		<tag k="place" v="locality" />
		<tag k="ssr:stedsnr" v="879706" />
	</node>
	<node lat="63.61557500254095" lon="8.463947229409154" id="-31949">
		<tag k="name" v="Ask-kupulen" />
		<tag k="natural" v="hill" />
		<tag k="place" v="locality" />
		<tag k="ssr:stedsnr" v="880133" />
	</node>
	<node lat="63.447036109231234" lon="8.398213897807247" id="-31953">
		<tag k="name" v="Langøyrheia" />
		<tag k="natural" v="hill" />
		<tag k="place" v="locality" />
		<tag k="ssr:stedsnr" v="880238" />
	</node>
	<node lat="63.46516388970042" lon="8.280158330865087" id="-31954">
		<tag k="name" v="Trollholmhammaren" />
		<tag k="natural" v="hill" />
		<tag k="place" v="locality" />
		<tag k="ssr:stedsnr" v="880303" />
	</node>
	<node lat="63.461838884476876" lon="8.373694444023421" id="-31955">
		<tag k="name" v="Langbakkheia" />
		<tag k="natural" v="hill" />
		<tag k="place" v="locality" />
		<tag k="ssr:stedsnr" v="880308" />
	</node>
	<node lat="63.53585278221369" lon="8.437905553484047" id="-31957">
		<tag k="name" v="Lauvedskardheia" />
		<tag k="natural" v="hill" />
		<tag k="place" v="locality" />
		<tag k="ssr:stedsnr" v="880400" />
	</node>
	<node lat="63.416486114293" lon="8.462886103785273" id="-31958">
		<tag k="name" v="Slettvika" />
		<tag k="natural" v="hill" />
		<tag k="place" v="locality" />
		<tag k="ssr:stedsnr" v="880506" />
	</node>
	<node lat="63.528161109827096" lon="8.443077780592303" id="-31961">
		<tag k="name" v="Kådalen" />
		<tag k="natural" v="valley" />
		<tag k="place" v="locality" />
		<tag k="ssr:stedsnr" v="880407" />
	</node>
	<node lat="63.621541663147646" lon="8.68129721867789" id="-31965">
		<tag k="name" v="Glenna" />
		<tag k="natural" v="slope" />
		<tag k="place" v="locality" />
		<tag k="ssr:stedsnr" v="880609" />
	</node>
	<node lat="63.60761667091367" lon="8.623249991800076" id="-31969">
		<tag k="name" v="Kråkheia" />
		<tag k="natural" v="hill" />
		<tag k="place" v="locality" />
		<tag k="ssr:stedsnr" v="880916" />
	</node>
	<node lat="63.61235278057304" lon="8.613069451111793" id="-31970">
		<tag k="name" v="Ingbriktsheia" />
		<tag k="natural" v="hill" />
		<tag k="place" v="locality" />
		<tag k="ssr:stedsnr" v="880917" />
	</node>
	<node lat="63.55646944030182" lon="8.871877780620927" id="-31971">
		<tag k="name" v="Ytter Sandvasslia" />
		<tag k="natural" v="slope" />
		<tag k="place" v="locality" />
		<tag k="ssr:stedsnr" v="880806" />
	</node>
	<node lat="63.49531111023809" lon="8.800641667181237" id="-31972">
		<tag k="name" v="Tørrhaugan" />
		<tag k="natural" v="hill" />
		<tag k="place" v="locality" />
		<tag k="ssr:stedsnr" v="880821" />
	</node>
	<node lat="63.50254166571113" lon="8.809619450780627" id="-31973">
		<tag k="name" v="Fagerlia" />
		<tag k="natural" v="slope" />
		<tag k="place" v="locality" />
		<tag k="ssr:stedsnr" v="880823" />
	</node>
	<node lat="63.58009444510669" lon="9.124783341703262" id="-31977">
		<tag k="name" v="Smådalen" />
		<tag k="natural" v="valley" />
		<tag k="place" v="locality" />
		<tag k="ssr:stedsnr" v="881057" />
	</node>
	<node lat="63.572777777768174" lon="9.20530277077203" id="-31978">
		<tag k="name" v="Låvhaugen" />
		<tag k="natural" v="hill" />
		<tag k="place" v="locality" />
		<tag k="ssr:stedsnr" v="881249" />
	</node>
	<node lat="63.57476944276559" lon="9.203666668547015" id="-31979">
		<tag k="name" v="Geiturdvarden" />
		<tag k="natural" v="hill" />
		<tag k="place" v="locality" />
		<tag k="ssr:stedsnr" v="881253" />
	</node>
	<node lat="63.56741110803429" lon="9.086638879586598" id="-31982">
		<tag k="name" v="Ytter Ramnberget" />
		<tag k="natural" v="hill" />
		<tag k="place" v="locality" />
		<tag k="ssr:stedsnr" v="881269" />
	</node>
	<node lat="63.543486115619025" lon="9.122191658829252" id="-31983">
		<tag k="name" v="Blåbærlia" />
		<tag k="natural" v="slope" />
		<tag k="place" v="locality" />
		<tag k="ssr:stedsnr" v="881452" />
	</node>
	<node lat="63.53705000331622" lon="9.110586121172918" id="-31985">
		<tag k="fixme" v="consider natural=peak for the most distinct mountains in the district" />
		<tag k="name" v="Inner Fuggelåsen" />
		<tag k="natural" v="hill" />
		<tag k="place" v="locality" />
		<tag k="ssr:stedsnr" v="881462" />
	</node>
	<node lat="63.55781666673817" lon="8.91218056018864" id="-31986">
		<tag k="name" v="Inner Larsskoglia" />
		<tag k="natural" v="slope" />
		<tag k="place" v="locality" />
		<tag k="ssr:stedsnr" v="881652" />
	</node>
	<node lat="63.52752777753701" lon="9.118205560119847" id="-31987">
		<tag k="name" v="Ørntuva" />
		<tag k="natural" v="slope" />
		<tag k="place" v="locality" />
		<tag k="ssr:stedsnr" v="881351" />
	</node>
	<node lat="63.48418611105838" lon="9.161294439186317" id="-31991">
		<tag k="name" v="Rørvika" />
		<tag k="natural" v="ridge" />
		<tag k="place" v="locality" />
		<tag k="ssr:stedsnr" v="882165" />
	</node>
	<node lat="63.50699999861808" lon="9.303966659050902" id="-31996">
		<tag k="fixme" v="consider natural=peak for the most distinct mountains in the district" />
		<tag k="name" v="Heststien" />
		<tag k="natural" v="hill" />
		<tag k="place" v="locality" />
		<tag k="ssr:stedsnr" v="882515" />
	</node>
	<node lat="63.46477222631667" lon="9.285986111273719" id="-31997">
		<tag k="name" v="Bugahaugen" />
		<tag k="natural" v="hill" />
		<tag k="place" v="locality" />
		<tag k="ssr:stedsnr" v="882553" />
	</node>
	<node lat="63.451355557172356" lon="9.233744452065487" id="-31999">
		<tag k="name" v="Klubbafjell" />
		<tag k="natural" v="hill" />
		<tag k="place" v="locality" />
		<tag k="ssr:stedsnr" v="883151" />
	</node>
	<node lat="63.53960555841869" lon="8.382136108550768" id="-32005">
		<tag k="name" v="Jutulen" />
		<tag k="natural" v="hill" />
		<tag k="place" v="locality" />
		<tag k="ssr:stedsnr" v="897020" />
	</node>
	<node lat="63.49031110988365" lon="8.599180564014608" id="-32008">
		<tag k="name" v="Indre Leberget" />
		<tag k="natural" v="hill" />
		<tag k="place" v="locality" />
		<tag k="ssr:stedsnr" v="922095" />
	</node>
	<node lat="63.47317180652281" lon="8.525811477576848" id="-32015">
		<tag k="fixme" v="consider natural=peak for the most distinct mountains in the district" />
		<tag k="name" v="Flatfjellet" />
		<tag k="natural" v="hill" />
		<tag k="old_name" v="Flatfjella" />
		<tag k="place" v="locality" />
		<tag k="ssr:stedsnr" v="923140" />
	</node>
	<node lat="63.508069448889984" lon="8.951174996858157" id="-32022">
		<tag k="alt_name" v="Rotthaugan" />
		<tag k="name" v="Rotthaugen" />
		<tag k="natural" v="hill" />
		<tag k="place" v="locality" />
		<tag k="ssr:stedsnr" v="923523" />
	</node>
	<node lat="63.56453055310745" lon="8.951500002423574" id="-32023">
		<tag k="fixme" v="multiple name tags, choose one and add the other to alt_name" />
		<tag k="name" v="Tippheia;Tepptua" />
		<tag k="natural" v="hill" />
		<tag k="place" v="locality" />
		<tag k="ssr:stedsnr" v="923419" />
	</node>
	<node lat="63.56073610840184" lon="9.119588884820594" id="-32024">
		<tag k="name" v="Storknausen" />
		<tag k="natural" v="hill" />
		<tag k="place" v="locality" />
		<tag k="ssr:stedsnr" v="923477" />
	</node>
	<node lat="63.675502776581965" lon="9.063580562433824" id="-32025">
		<tag k="name" v="Ringheia" />
		<tag k="natural" v="hill" />
		<tag k="place" v="locality" />
		<tag k="ssr:stedsnr" v="923681" />
	</node>
	<node lat="63.525319447188565" lon="8.488752784265703" id="-32036">
		<tag k="name" v="Brattskardet" />
		<tag k="natural" v="valley" />
		<tag k="place" v="locality" />
		<tag k="ssr:stedsnr" v="940032" />
	</node>
	<node lat="63.660530554246364" lon="9.056961103310156" id="-32037">
		<tag k="name" v="Sikla" />
		<tag k="natural" v="valley" />
		<tag k="place" v="locality" />
		<tag k="ssr:stedsnr" v="940083" />
	</node>
	<node lat="63.663027781569376" lon="9.073902787677644" id="-32038">
		<tag k="name" v="Berget" />
		<tag k="natural" v="hill" />
		<tag k="place" v="locality" />
		<tag k="ssr:stedsnr" v="940088" />
	</node>
	<node lat="63.64649999935608" lon="9.112719440156035" id="-32042">
		<tag k="name" v="Ørnheia" />
		<tag k="natural" v="hill" />
		<tag k="place" v="locality" />
		<tag k="ssr:stedsnr" v="940097" />
	</node>
	<node lat="63.64317222670474" lon="9.098163890844033" id="-32043">
		<tag k="fixme" v="consider natural=peak for the most distinct mountains in the district" />
		<tag k="name" v="Klumpan" />
		<tag k="natural" v="hill" />
		<tag k="place" v="locality" />
		<tag k="ssr:stedsnr" v="940100" />
	</node>
	<node lat="63.45750000349457" lon="8.491069444816036" id="-32068">
		<tag k="fixme" v="consider natural=peak for the most distinct mountains in the district" />
		<tag k="name" v="Stortua" />
		<tag k="natural" v="hill" />
		<tag k="place" v="locality" />
		<tag k="ssr:stedsnr" v="12024" />
	</node>
	<node lat="63.494025004321045" lon="8.513936117906493" id="-32070">
		<tag k="alt_name" v="Mørkdalstuva" />
		<tag k="fixme" v="consider natural=peak for the most distinct mountains in the district" />
		<tag k="name" v="Mørkdalstua" />
		<tag k="natural" v="hill" />
		<tag k="place" v="locality" />
		<tag k="ssr:stedsnr" v="12099" />
	</node>
	<node lat="63.49032778216869" lon="9.108769443518526" id="-32073">
		<tag k="fixme" v="consider natural=peak for the most distinct mountains in the district" />
		<tag k="name" v="Kuppelvikheia" />
		<tag k="natural" v="hill" />
		<tag k="place" v="locality" />
		<tag k="ssr:stedsnr" v="12450" />
	</node>
	<node lat="63.64374722071265" lon="8.932105563944118" id="-32096">
		<tag k="alt_name" v="Anndalen" />
		<tag k="name" v="Andalen" />
		<tag k="natural" v="valley" />
		<tag k="place" v="locality" />
		<tag k="ssr:stedsnr" v="13289" />
	</node>
	<node lat="63.53577500362508" lon="8.953700000807336" id="-32101">
		<tag k="fixme" v="consider natural=peak for the most distinct mountains in the district" />
		<tag k="name" v="Staurfjellet" />
		<tag k="natural" v="hill" />
		<tag k="place" v="locality" />
		<tag k="ssr:stedsnr" v="13483" />
	</node>
	<node lat="63.5809111123655" lon="8.890074991878596" id="-32106">
		<tag k="name" v="Ørnlia" />
		<tag k="natural" v="slope" />
		<tag k="place" v="locality" />
		<tag k="ssr:stedsnr" v="13434" />
	</node>
	<node lat="63.58411389156187" lon="9.110983338708019" id="-32107">
		<tag k="fixme" v="consider natural=peak for the most distinct mountains in the district" />
		<tag k="name" v="Tømmeråsen" />
		<tag k="natural" v="hill" />
		<tag k="place" v="locality" />
		<tag k="ssr:stedsnr" v="13438" />
	</node>
	<node lat="63.539850000060454" lon="8.588469442571435" id="-32113">
		<tag k="name" v="Vardeheia" />
		<tag k="natural" v="hill" />
		<tag k="place" v="locality" />
		<tag k="ssr:stedsnr" v="13548" />
	</node>
	<node lat="63.678038890898414" lon="9.050630553075285" id="-32126">
		<tag k="name" v="Urdbergan" />
		<tag k="natural" v="hill" />
		<tag k="place" v="locality" />
		<tag k="ssr:stedsnr" v="13684" />
	</node>
	<node lat="63.58900555127538" lon="9.066197230141206" id="-32139">
		<tag k="name" v="Nonsheia" />
		<tag k="natural" v="hill" />
		<tag k="place" v="locality" />
		<tag k="ssr:stedsnr" v="30048" />
	</node>
	<node lat="63.59490277583589" lon="8.442002776138487" id="-32140">
		<tag k="name" v="Melkstaden" />
		<tag k="place" v="locality" />
		<tag k="ssr:stedsnr" v="30057" />
	</node>
	<node lat="63.611147222552525" lon="8.474377772912135" id="-32143">
		<tag k="fixme" v="consider natural=peak for the most distinct mountains in the district" />
		<tag k="name" v="Prekstolen" />
		<tag k="natural" v="hill" />
		<tag k="place" v="locality" />
		<tag k="ssr:stedsnr" v="30135" />
	</node>
	<node lat="63.66667500245721" lon="9.080291663693531" id="-32145">
		<tag k="name" v="Knarrlagvarden" />
		<tag k="natural" v="hill" />
		<tag k="place" v="locality" />
		<tag k="ssr:stedsnr" v="30145" />
	</node>
	<node lat="63.438275000000694" lon="8.537855559183333" id="-32149">
		<tag k="name" v="Brentreksterkammen" />
		<tag k="natural" v="hill" />
		<tag k="place" v="locality" />
		<tag k="ssr:stedsnr" v="30239" />
	</node>
	<node lat="63.575861115091" lon="8.402844450535465" id="-32151">
		<tag k="name" v="Aune" />
		<tag k="place" v="locality" />
		<tag k="ssr:stedsnr" v="30094" />
	</node>
	<node lat="63.58895555589622" lon="8.953200000834752" id="-32152">
		<tag k="name" v="Bekkheia" />
		<tag k="natural" v="hill" />
		<tag k="place" v="locality" />
		<tag k="ssr:stedsnr" v="30199" />
	</node>
	<node lat="63.471247217997714" lon="8.417638894986347" id="-32158">
		<tag k="name" v="Bukklia" />
		<tag k="natural" v="slope" />
		<tag k="place" v="locality" />
		<tag k="ssr:stedsnr" v="30451" />
	</node>
	<node lat="63.427394442358974" lon="8.417952786222525" id="-32169">
		<tag k="name" v="Raudbeltheia" />
		<tag k="natural" v="hill" />
		<tag k="place" v="locality" />
		<tag k="ssr:stedsnr" v="30489" />
	</node>
	<node lat="63.6017999963365" lon="8.803488879458095" id="-32179">
		<tag k="name" v="Krern" />
		<tag k="natural" v="hill" />
		<tag k="place" v="locality" />
		<tag k="ssr:stedsnr" v="30813" />
	</node>
	<node lat="63.619766665269665" lon="8.684463889919863" id="-32181">
		<tag k="name" v="Sveaheia" />
		<tag k="natural" v="hill" />
		<tag k="place" v="locality" />
		<tag k="ssr:stedsnr" v="30573" />
	</node>
	<node lat="63.62334721891362" lon="8.709869439281405" id="-32183">
		<tag k="name" v="Garnhaugan" />
		<tag k="natural" v="hill" />
		<tag k="place" v="locality" />
		<tag k="ssr:stedsnr" v="30596" />
	</node>
	<node lat="63.52768889013363" lon="8.521599997151851" id="-32188">
		<tag k="name" v="Auster Kjervildalen" />
		<tag k="natural" v="valley" />
		<tag k="place" v="locality" />
		<tag k="ssr:stedsnr" v="30735" />
	</node>
	<node lat="63.60603333427087" lon="8.743250008859322" id="-32196">
		<tag k="fixme" v="consider natural=peak for the most distinct mountains in the district" />
		<tag k="name" v="Aureelvåsen" />
		<tag k="natural" v="hill" />
		<tag k="place" v="locality" />
		<tag k="ssr:stedsnr" v="30928" />
	</node>
	<node lat="63.60850000280889" lon="8.736066665679402" id="-32197">
		<tag k="name" v="Rognberget" />
		<tag k="natural" v="hill" />
		<tag k="place" v="locality" />
		<tag k="ssr:stedsnr" v="30932" />
	</node>
	<node lat="63.62054721974072" lon="8.744358329855782" id="-32200">
		<tag k="name" v="Melandsjøhaugan" />
		<tag k="natural" v="hill" />
		<tag k="place" v="locality" />
		<tag k="ssr:stedsnr" v="30938" />
	</node>
	<node lat="63.579322220740146" lon="9.126474998332847" id="-32207">
		<tag k="name" v="Rønningsdalshaugen" />
		<tag k="natural" v="hill" />
		<tag k="place" v="locality" />
		<tag k="ssr:stedsnr" v="31056" />
	</node>
	<node lat="63.629105558867806" lon="8.775447231511205" id="-32208">
		<tag k="name" v="Vassdalen" />
		<tag k="natural" v="valley" />
		<tag k="place" v="locality" />
		<tag k="ssr:stedsnr" v="30969" />
	</node>
	<node lat="63.559672223732576" lon="8.696455559097224" id="-32210">
		<tag k="name" v="Vollaneshaugen" />
		<tag k="natural" v="hill" />
		<tag k="place" v="locality" />
		<tag k="ssr:stedsnr" v="30978" />
	</node>
	<node lat="63.5675027779487" lon="8.608227771614185" id="-32211">
		<tag k="name" v="Storkjebudalen" />
		<tag k="natural" v="valley" />
		<tag k="place" v="locality" />
		<tag k="ssr:stedsnr" v="30981" />
	</node>
	<node lat="63.57261388738935" lon="9.033175006142564" id="-32213">
		<tag k="name" v="Pålsdalen" />
		<tag k="natural" v="valley" />
		<tag k="place" v="locality" />
		<tag k="ssr:stedsnr" v="31297" />
	</node>
	<node lat="63.56880000259642" lon="9.122902771363579" id="-32214">
		<tag k="name" v="Haukarhaugen" />
		<tag k="natural" v="hill" />
		<tag k="place" v="locality" />
		<tag k="ssr:stedsnr" v="31251" />
	</node>
	<node lat="63.57376388932567" lon="9.202330554125274" id="-32215">
		<tag k="name" v="Skjennadalen" />
		<tag k="natural" v="valley" />
		<tag k="place" v="locality" />
		<tag k="ssr:stedsnr" v="31261" />
	</node>
	<node lat="63.54105277403764" lon="9.11217500191593" id="-32218">
		<tag k="fixme" v="consider natural=peak for the most distinct mountains in the district" />
		<tag k="name" v="Ytter Fuggelåsen" />
		<tag k="natural" v="hill" />
		<tag k="place" v="locality" />
		<tag k="ssr:stedsnr" v="31473" />
	</node>
	<node lat="63.553358331340476" lon="9.164330547921146" id="-32223">
		<tag k="name" v="Postmyrheian" />
		<tag k="natural" v="hill" />
		<tag k="place" v="locality" />
		<tag k="ssr:stedsnr" v="31429" />
	</node>
	<node lat="63.501458336352684" lon="8.922616663924735" id="-32224">
		<tag k="name" v="Hamnadalen" />
		<tag k="natural" v="valley" />
		<tag k="place" v="locality" />
		<tag k="ssr:stedsnr" v="31444" />
	</node>
	<node lat="63.511624999438844" lon="8.945463881776101" id="-32225">
		<tag k="name" v="Ytter Rotthaugen" />
		<tag k="natural" v="hill" />
		<tag k="place" v="locality" />
		<tag k="ssr:stedsnr" v="31449" />
	</node>
	<node lat="63.50352777440156" lon="8.85319166300105" id="-32231">
		<tag k="name" v="Utsikten" />
		<tag k="natural" v="hill" />
		<tag k="place" v="locality" />
		<tag k="ssr:stedsnr" v="31737" />
	</node>
	<node lat="63.56991666514962" lon="8.991208327550462" id="-32234">
		<tag k="name" v="Damlia" />
		<tag k="natural" v="slope" />
		<tag k="place" v="locality" />
		<tag k="ssr:stedsnr" v="31691" />
	</node>
	<node lat="63.4704888859516" lon="9.131800001548255" id="-32238">
		<tag k="name" v="Storfjellet" />
		<tag k="natural" v="hill" />
		<tag k="place" v="locality" />
		<tag k="ssr:stedsnr" v="33045" />
	</node>
	<node lat="63.47175000359957" lon="9.200911117185292" id="-32243">
		<tag k="name" v="Solliholet" />
		<tag k="natural" v="valley" />
		<tag k="place" v="locality" />
		<tag k="ssr:stedsnr" v="33227" />
	</node>
	<node lat="63.47866110767132" lon="9.188977775989965" id="-32244">
		<tag k="fixme" v="consider natural=peak for the most distinct mountains in the district" />
		<tag k="name" v="Åsan" />
		<tag k="natural" v="hill" />
		<tag k="place" v="locality" />
		<tag k="ssr:stedsnr" v="33231" />
	</node>
	<node lat="63.55314722542613" lon="9.366416657313607" id="-32246">
		<tag k="name" v="Vettakammen" />
		<tag k="natural" v="ridge" />
		<tag k="place" v="locality" />
		<tag k="ssr:stedsnr" v="33239" />
	</node>
	<node lat="63.4947916645894" lon="9.21676110275094" id="-32247">
		<tag k="name" v="Vikaskardet" />
		<tag k="natural" v="valley" />
		<tag k="place" v="locality" />
		<tag k="ssr:stedsnr" v="33242" />
	</node>
	<node lat="63.52980278052494" lon="9.33208333838913" id="-32248">
		<tag k="name" v="Bjørnadalen" />
		<tag k="natural" v="valley" />
		<tag k="place" v="locality" />
		<tag k="ssr:stedsnr" v="33247" />
	</node>
	<node lat="63.53974722422392" lon="9.35751110864598" id="-32254">
		<tag k="name" v="Litllia" />
		<tag k="natural" v="slope" />
		<tag k="place" v="locality" />
		<tag k="ssr:stedsnr" v="33731" />
	</node>
</osm>
