<?xml version="1.0" encoding="UTF-8"?>
<osm generator="osmapis" version="0.6">
	<node id="-102400" lat="63.6161055582" lon="8.64815833922">
		<tag k="name" v="Tjørna" />
		<tag k="natural" v="water" />
		<tag k="ssr:stedsnr" v="698555" />
	</node>
	<node id="-104442" lat="63.5697694431" lon="8.41530000534">
		<tag k="name" v="Aunvatnet" />
		<tag k="natural" v="water" />
		<tag k="ssr:stedsnr" v="394082" />
		<tag k="water" v="lake" />
	</node>
	<node id="-104438" lat="63.554058334" lon="8.56845554989">
		<tag k="name" v="Sandvikbekken" />
		<tag k="ssr:stedsnr" v="393722" />
		<tag k="waterway" v="stream" />
	</node>
	<node id="-104437" lat="63.6499916633" lon="8.95663333698">
		<tag k="name" v="Vinkjellarbekken" />
		<tag k="ssr:stedsnr" v="393542" />
		<tag k="waterway" v="stream" />
	</node>
	<node id="-102386" lat="63.5267333358" lon="9.08471944639">
		<tag k="name" v="Litlvasselva" />
		<tag k="ssr:stedsnr" v="698375" />
		<tag k="waterway" v="river" />
	</node>
	<node id="-104428" lat="63.4392249976" lon="8.53051944531">
		<tag k="name" v="Sandvatnet" />
		<tag k="natural" v="water" />
		<tag k="ssr:stedsnr" v="384207" />
		<tag k="water" v="lake" />
	</node>
	<node id="-104421" lat="63.6057499975" lon="8.63124722953">
		<tag k="name" v="Smågavatnet" />
		<tag k="natural" v="water" />
		<tag k="ssr:stedsnr" v="377883" />
	</node>
	<node id="-104420" lat="63.5950500018" lon="8.6779222207">
		<tag k="name" v="Liavatnet" />
		<tag k="natural" v="water" />
		<tag k="ssr:stedsnr" v="377873" />
	</node>
	<node id="-104417" lat="63.50591111" lon="8.449947215">
		<tag k="name" v="Stakkslettvatnet" />
		<tag k="natural" v="water" />
		<tag k="ssr:stedsnr" v="377702" />
	</node>
	<node id="-102362" lat="63.6339444409" lon="8.84727222745">
		<tag k="name" v="Hundvatnet" />
		<tag k="natural" v="water" />
		<tag k="ssr:stedsnr" v="697973" />
		<tag k="water" v="lake" />
	</node>
	<node id="-100687" lat="63.5681638846" lon="8.81954443579">
		<tag k="name" v="Ytter Damtjørna" />
		<tag k="natural" v="water" />
		<tag k="ssr:stedsnr" v="273825" />
	</node>
	<node id="-104403" lat="63.5626638854" lon="9.08253612034">
		<tag k="name" v="Hivatnet" />
		<tag k="natural" v="water" />
		<tag k="ssr:stedsnr" v="377421" />
	</node>
	<node id="-104402" lat="63.5433444404" lon="8.87096944911">
		<tag k="alt_name" v="Sandvatnet, in;Inner Sandvatnet" />
		<tag k="name" v="Indre Sandvatnet" />
		<tag k="natural" v="water" />
		<tag k="ssr:stedsnr" v="377418" />
		<tag k="water" v="lake" />
	</node>
	<node id="-104400" lat="63.5717305535" lon="8.77553055565">
		<tag k="name" v="Langvatnet" />
		<tag k="natural" v="water" />
		<tag k="ssr:stedsnr" v="377383" />
	</node>
	<node id="-104399" lat="63.5697638921" lon="8.8697805527">
		<tag k="name" v="Jamtfjellbekken" />
		<tag k="ssr:stedsnr" v="377381" />
		<tag k="waterway" v="stream" />
	</node>
	<node id="-102349" lat="63.5049861139" lon="8.58222499223">
		<tag k="name" v="Skumfosstjørna" />
		<tag k="natural" v="water" />
		<tag k="ssr:stedsnr" v="697719" />
	</node>
	<node id="-104395" lat="63.5792222179" lon="8.72352221632">
		<tag k="name" v="Sandvatnet" />
		<tag k="natural" v="water" />
		<tag k="ssr:stedsnr" v="377360" />
	</node>
	<node id="-102342" lat="63.6431472197" lon="8.71344444075">
		<tag k="name" v="Vikavatnet" />
		<tag k="natural" v="water" />
		<tag k="ssr:stedsnr" v="697513" />
		<tag k="water" v="lake" />
	</node>
	<node id="-102340" lat="63.5142583332" lon="8.36804167038">
		<tag k="name" v="Eide" />
		<tag k="natural" v="strait" />
		<tag k="ssr:stedsnr" v="697361" />
	</node>
	<node id="-102389" lat="63.5713638853" lon="9.0319416761">
		<tag k="name" v="Neverlibekken" />
		<tag k="ssr:stedsnr" v="698273" />
		<tag k="waterway" v="stream" />
	</node>
	<node id="-103412" lat="63.644597221" lon="8.75160277491">
		<tag k="name" v="Hjertåsvatnet" />
		<tag k="natural" v="water" />
		<tag k="ssr:stedsnr" v="90894" />
		<tag k="water" v="lake" />
	</node>
	<node id="-102319" lat="63.5399527779" lon="9.38993333683">
		<tag k="name" v="Råbekken" />
		<tag k="ssr:stedsnr" v="883249" />
		<tag k="waterway" v="stream" />
	</node>
	<node id="-100586" lat="63.4389916649" lon="8.40987777733">
		<tag k="name" v="Dalabekken" />
		<tag k="ssr:stedsnr" v="134022" />
		<tag k="waterway" v="stream" />
	</node>
	<node id="-100679" lat="63.576433333" lon="8.73825278742">
		<tag k="name" v="Kvilartollbekken" />
		<tag k="ssr:stedsnr" v="273776" />
		<tag k="waterway" v="stream" />
	</node>
	<node id="-104360" lat="63.5319750023" lon="8.92191389835">
		<tag k="name" v="Staurfjellvatnet" />
		<tag k="natural" v="water" />
		<tag k="ssr:stedsnr" v="376478" />
	</node>
	<node id="-102311" lat="63.6073805533" lon="8.9231194473">
		<tag k="name" v="Eidsvatnet" />
		<tag k="natural" v="water" />
		<tag k="ssr:stedsnr" v="681315" />
	</node>
	<node id="-104356" lat="63.4861750041" lon="8.7492333287">
		<tag k="name" v="Eklingdalsvatnet" />
		<tag k="natural" v="water" />
		<tag k="ssr:stedsnr" v="376453" />
	</node>
	<node id="-102302" lat="63.5226138849" lon="8.87158333642">
		<tag k="name" v="Barlifjellvatnet" />
		<tag k="natural" v="water" />
		<tag k="ssr:stedsnr" v="680557" />
	</node>
	<node id="-102301" lat="63.6133694489" lon="8.95044999218">
		<tag k="name" v="Litlvatnet" />
		<tag k="natural" v="water" />
		<tag k="ssr:stedsnr" v="680374" />
	</node>
	<node id="-104347" lat="63.4912583314" lon="8.6679444386">
		<tag k="alt_name" v="Ømmertjørna" />
		<tag k="name" v="Ømmentjørna" />
		<tag k="natural" v="water" />
		<tag k="ssr:stedsnr" v="376099" />
	</node>
	<node id="-102298" lat="63.6190305598" lon="8.77844443572">
		<tag k="name" v="Andavatnet" />
		<tag k="natural" v="water" />
		<tag k="ssr:stedsnr" v="680370" />
	</node>
	<node id="-104345" lat="63.4888583376" lon="8.59020555623">
		<tag k="name" v="Ytre Lebergvatnet" />
		<tag k="natural" v="water" />
		<tag k="ssr:stedsnr" v="376097" />
	</node>
	<node id="-104342" lat="63.4825194413" lon="8.60531110626">
		<tag k="name" v="Indre Lebergvatnet" />
		<tag k="natural" v="water" />
		<tag k="ssr:stedsnr" v="376067" />
	</node>
	<node id="-104341" lat="63.4463833342" lon="8.38785000173">
		<tag k="name" v="Kjørstadvatnet" />
		<tag k="natural" v="water" />
		<tag k="ssr:stedsnr" v="376040" />
	</node>
	<node id="-102292" lat="63.4651261307" lon="8.56398070859">
		<tag k="name" v="Indre Slettvatnet" />
		<tag k="natural" v="water" />
		<tag k="ssr:stedsnr" v="680112" />
	</node>
	<node id="-102288" lat="63.4493305554" lon="8.52804999447">
		<tag k="name" v="Seterlitjørna" />
		<tag k="natural" v="water" />
		<tag k="ssr:stedsnr" v="679006" />
	</node>
	<node id="-102287" lat="63.4446083376" lon="8.52279444225">
		<tag k="name" v="Svartvatnet" />
		<tag k="natural" v="water" />
		<tag k="ssr:stedsnr" v="679004" />
	</node>
	<node id="-102286" lat="63.5405194465" lon="9.39240000688">
		<tag k="name" v="Råa" />
		<tag k="ssr:stedsnr" v="882648" />
		<tag k="waterway" v="stream" />
	</node>
	<node id="-101356" lat="63.5812055521" lon="8.48214167263">
		<tag k="name" v="Kvernatjørna" />
		<tag k="natural" v="water" />
		<tag k="ssr:stedsnr" v="394153" />
	</node>
	<node id="-104321" lat="63.514919444" lon="9.30821665839">
		<tag k="name" v="Skjerabekken" />
		<tag k="ssr:stedsnr" v="336506" />
		<tag k="waterway" v="stream" />
	</node>
	<node id="-102270" lat="63.5011083346" lon="9.19968056466">
		<tag k="name" v="Stordalselva" />
		<tag k="ssr:stedsnr" v="882169" />
		<tag k="waterway" v="river" />
	</node>
	<node id="-104303" lat="63.6286111126" lon="8.63796389469">
		<tag k="fixme" v="multiple name tags, choose one and add the other to alt_name" />
		<tag k="name" v="Kvernavatnet;Mossabergvatnet" />
		<tag k="natural" v="water" />
		<tag k="ssr:stedsnr" v="334920" />
		<tag k="water" v="lake" />
	</node>
	<node id="-104301" lat="63.5685361123" lon="8.79334445029">
		<tag k="name" v="Krumurda" />
		<tag k="natural" v="cape" />
		<tag k="ssr:stedsnr" v="334793" />
	</node>
	<node id="-104297" lat="63.612111109" lon="8.60036667072">
		<tag k="name" v="Belgmyrbekken" />
		<tag k="ssr:stedsnr" v="334890" />
		<tag k="waterway" v="stream" />
	</node>
	<node id="-102248" lat="63.5238750037" lon="9.09498056079">
		<tag k="name" v="Sandstadelva" />
		<tag k="ssr:stedsnr" v="881379" />
		<tag k="waterway" v="river" />
	</node>
	<node id="-101009" lat="63.6137805596" lon="8.91702221479">
		<tag k="name" v="Lauvåstjørna" />
		<tag k="natural" v="water" />
		<tag k="ssr:stedsnr" v="455841" />
	</node>
	<node id="-104292" lat="63.5551833368" lon="9.00027221743">
		<tag k="name" v="Inner Høybutjørna" />
		<tag k="natural" v="water" />
		<tag k="ssr:stedsnr" v="334848" />
	</node>
	<node id="-104291" lat="63.5276499964" lon="8.93104444197">
		<tag k="name" v="Vester Jakttjørna" />
		<tag k="natural" v="water" />
		<tag k="ssr:stedsnr" v="334844" />
	</node>
	<node id="-104289" lat="63.532133332" lon="8.9942694462">
		<tag k="name" v="Rathaugtjørna" />
		<tag k="natural" v="water" />
		<tag k="ssr:stedsnr" v="334696" />
	</node>
	<node id="-104287" lat="63.5023166644" lon="8.86423611174">
		<tag k="name" v="Holmvatnet" />
		<tag k="natural" v="water" />
		<tag k="ssr:stedsnr" v="334686" />
		<tag k="water" v="lake" />
	</node>
	<node id="-104285" lat="63.5682666653" lon="8.64558889574">
		<tag k="name" v="Sagelva" />
		<tag k="ssr:stedsnr" v="334754" />
		<tag k="waterway" v="river" />
	</node>
	<node id="-104284" lat="63.5669972261" lon="8.64867777238">
		<tag k="name" v="Ner Sagvatnet" />
		<tag k="natural" v="water" />
		<tag k="ssr:stedsnr" v="334752" />
		<tag k="water" v="lake" />
	</node>
	<node id="-102234" lat="63.536758335" lon="9.04418889458">
		<tag k="name" v="Krokvassbekken" />
		<tag k="ssr:stedsnr" v="881265" />
		<tag k="waterway" v="stream" />
	</node>
	<node id="-102233" lat="63.4732027758" lon="8.66299165748">
		<tag k="name" v="Saudalsbekken" />
		<tag k="ssr:stedsnr" v="881258" />
		<tag k="waterway" v="stream" />
	</node>
	<node id="-104277" lat="63.5242361111" lon="8.97557499562">
		<tag k="name" v="Heilfjellktjørnan" />
		<tag k="natural" v="water" />
		<tag k="ssr:stedsnr" v="334680" />
	</node>
	<node id="-104273" lat="63.5634527782" lon="8.93814445323">
		<tag k="name" v="Leggahaugtjørna" />
		<tag k="natural" v="water" />
		<tag k="ssr:stedsnr" v="334655" />
	</node>
	<node id="-104267" lat="63.5199138903" lon="8.42771111522">
		<tag k="name" v="Litlsandvatnet" />
		<tag k="natural" v="water" />
		<tag k="ssr:stedsnr" v="334396" />
		<tag k="water" v="lake" />
	</node>
	<node id="-104260" lat="63.4695416702" lon="8.58826110501">
		<tag k="name" v="Trollhaugtjørna" />
		<tag k="natural" v="water" />
		<tag k="ssr:stedsnr" v="334198" />
	</node>
	<node id="-104258" lat="63.4798972204" lon="8.40476388355">
		<tag k="name" v="Stordalsbekken" />
		<tag k="ssr:stedsnr" v="334442" />
		<tag k="waterway" v="stream" />
	</node>
	<node id="-102209" lat="63.5505888923" lon="8.8573555632">
		<tag k="name" v="Ytter Sandvatnet" />
		<tag k="natural" v="water" />
		<tag k="ssr:stedsnr" v="880841" />
		<tag k="water" v="lake" />
	</node>
	<node id="-104256" lat="63.4909861143" lon="8.41410554964">
		<tag k="name" v="Storelva" />
		<tag k="ssr:stedsnr" v="334439" />
		<tag k="waterway" v="river" />
	</node>
	<node id="-104255" lat="63.5019222179" lon="8.39778889419">
		<tag k="name" v="Holet" />
		<tag k="natural" v="bay" />
		<tag k="ssr:stedsnr" v="334436" />
	</node>
	<node id="-104253" lat="63.476894446" lon="8.43923055879">
		<tag k="name" v="Butjørnelva" />
		<tag k="ssr:stedsnr" v="334421" />
		<tag k="waterway" v="river" />
	</node>
	<node id="-104252" lat="63.460877782" lon="8.3558083381">
		<tag k="name" v="Hellebekken" />
		<tag k="ssr:stedsnr" v="334301" />
		<tag k="waterway" v="stream" />
	</node>
	<node id="-102200" lat="63.5649722179" lon="8.65189721905">
		<tag k="name" v="Øver Sagvatnet" />
		<tag k="natural" v="water" />
		<tag k="ssr:stedsnr" v="880787" />
		<tag k="water" v="lake" />
	</node>
	<node id="-104244" lat="63.5690611133" lon="9.07574723201">
		<tag k="name" v="Hibekken" />
		<tag k="ssr:stedsnr" v="334256" />
		<tag k="waterway" v="stream" />
	</node>
	<node id="-102707" lat="63.4730666638" lon="8.65374165902">
		<tag k="name" v="Saudalsvatnet" />
		<tag k="natural" v="water" />
		<tag k="ssr:stedsnr" v="820271" />
		<tag k="water" v="lake" />
	</node>
	<node id="-102192" lat="63.4812749973" lon="8.43213611896">
		<tag k="name" v="Sør Krokvassholmen" />
		<tag k="place" v="islet" />
		<tag k="ssr:stedsnr" v="880442" />
	</node>
	<node id="-102190" lat="63.5172472237" lon="8.39548333753">
		<tag k="name" v="Sagholmen" />
		<tag k="place" v="islet" />
		<tag k="ssr:stedsnr" v="880425" />
	</node>
	<node id="-102188" lat="63.5131111151" lon="8.39100277613">
		<tag k="name" v="Nørd Djupvika" />
		<tag k="natural" v="bay" />
		<tag k="ssr:stedsnr" v="880411" />
	</node>
	<node id="-102186" lat="63.5311444481" lon="8.42889167617">
		<tag k="name" v="Halturdholmen" />
		<tag k="place" v="islet" />
		<tag k="ssr:stedsnr" v="880403" />
	</node>
	<node id="-104232" lat="63.5826055516" lon="8.48111944274">
		<tag k="name" v="Nørd Kvernavatnet" />
		<tag k="natural" v="water" />
		<tag k="ssr:stedsnr" v="334158" />
		<tag k="water" v="lake" />
	</node>
	<node id="-102181" lat="63.4738888915" lon="8.37420832938">
		<tag k="name" v="Lomstjørna" />
		<tag k="natural" v="water" />
		<tag k="ssr:stedsnr" v="880347" />
	</node>
	<node id="-102180" lat="63.4492972259" lon="8.31337223046">
		<tag k="name" v="Langnesvatnet" />
		<tag k="natural" v="water" />
		<tag k="ssr:stedsnr" v="880320" />
		<tag k="water" v="lake" />
	</node>
	<node id="-102174" lat="63.4340666652" lon="8.43009999343">
		<tag k="name" v="Kvernavasselva" />
		<tag k="ssr:stedsnr" v="880280" />
		<tag k="waterway" v="river" />
	</node>
	<node id="-104410" lat="63.5252477988" lon="8.45645631713">
		<tag k="alt_name" v="Rørvatnet" />
		<tag k="name" v="Røyrvatnet" />
		<tag k="natural" v="water" />
		<tag k="ssr:stedsnr" v="377501" />
	</node>
	<node id="-104210" lat="63.5809027759" lon="8.40644999139">
		<tag k="name" v="Grasskogtjørna" />
		<tag k="natural" v="water" />
		<tag k="ssr:stedsnr" v="334030" />
	</node>
	<node id="-101336" lat="63.5082194439" lon="8.38868055828">
		<tag k="name" v="Kvernatjørna" />
		<tag k="natural" v="water" />
		<tag k="ssr:stedsnr" v="499678" />
	</node>
	<node id="-104204" lat="63.6223388927" lon="8.78620555993">
		<tag k="name" v="Tømmerskardtjørna" />
		<tag k="natural" v="water" />
		<tag k="ssr:stedsnr" v="333963" />
	</node>
	<node id="-104202" lat="63.6052361078" lon="8.79684721584">
		<tag k="name" v="Langdalsbekken" />
		<tag k="ssr:stedsnr" v="333949" />
		<tag k="waterway" v="stream" />
	</node>
	<node id="-104198" lat="63.6411388906" lon="8.98016667557">
		<tag k="name" v="Melkstadbekken" />
		<tag k="ssr:stedsnr" v="333855" />
		<tag k="waterway" v="stream" />
	</node>
	<node id="-104197" lat="63.5408999965" lon="8.51553055967">
		<tag k="name" v="Lomstjørna" />
		<tag k="natural" v="water" />
		<tag k="ssr:stedsnr" v="333690" />
	</node>
	<node id="-104195" lat="63.5091194405" lon="8.38290833173">
		<tag k="name" v="Djupvika" />
		<tag k="natural" v="bay" />
		<tag k="ssr:stedsnr" v="333655" />
	</node>
	<node id="-104190" lat="63.6057833359" lon="8.65102499906">
		<tag k="name" v="Brannøya" />
		<tag k="place" v="island" />
		<tag k="ssr:stedsnr" v="333564" />
	</node>
	<node id="-102139" lat="63.6473638859" lon="8.83110000014">
		<tag k="name" v="Iselivågen" />
		<tag k="natural" v="water" />
		<tag k="ssr:stedsnr" v="879987" />
		<tag k="water" v="lake" />
	</node>
	<node id="-104186" lat="63.5048111091" lon="8.37461389429">
		<tag k="name" v="Snekkvikbukta" />
		<tag k="natural" v="bay" />
		<tag k="ssr:stedsnr" v="333647" />
	</node>
	<node id="-104185" lat="63.5410277749" lon="8.65234166286">
		<tag k="name" v="Storskogvatnet" />
		<tag k="natural" v="water" />
		<tag k="ssr:stedsnr" v="333637" />
		<tag k="water" v="lake" />
	</node>
	<node id="-102135" lat="63.6585416685" lon="8.80664167376">
		<tag k="name" v="Øyavatnet" />
		<tag k="natural" v="water" />
		<tag k="ssr:stedsnr" v="879880" />
		<tag k="water" v="lake" />
	</node>
	<node id="-102132" lat="63.6309916708" lon="8.97200833125">
		<tag k="name" v="Litlvatnet" />
		<tag k="natural" v="water" />
		<tag k="ssr:stedsnr" v="879855" />
		<tag k="water" v="lake" />
	</node>
	<node id="-104178" lat="63.4602916688" lon="8.59385277596">
		<tag k="name" v="Ivertjørna" />
		<tag k="natural" v="water" />
		<tag k="ssr:stedsnr" v="333255" />
	</node>
	<node id="-102125" lat="63.5497555551" lon="8.56524999535">
		<tag k="name" v="Trodammen" />
		<tag k="natural" v="water" />
		<tag k="ssr:stedsnr" v="879709" />
		<tag k="water" v="lake" />
	</node>
	<node id="-104164" lat="63.4778638933" lon="8.33258055112">
		<tag k="name" v="Svarttjørna" />
		<tag k="natural" v="water" />
		<tag k="ssr:stedsnr" v="324465" />
	</node>
	<node id="-104162" lat="63.6274055556" lon="8.64501112085">
		<tag k="name" v="Storvatnet" />
		<tag k="natural" v="water" />
		<tag k="ssr:stedsnr" v="317924" />
	</node>
	<node id="-104160" lat="63.6375277765" lon="8.68321388209">
		<tag k="name" v="Oløyvatnet" />
		<tag k="natural" v="water" />
		<tag k="ssr:stedsnr" v="317918" />
	</node>
	<node id="-104159" lat="63.5207361074" lon="8.71854165888">
		<tag k="name" v="Skogoddvatnet" />
		<tag k="natural" v="water" />
		<tag k="ssr:stedsnr" v="317477" />
	</node>
	<node id="-102089" lat="63.6561805583" lon="9.11415833026">
		<tag k="name" v="Åltjørna" />
		<tag k="natural" v="water" />
		<tag k="ssr:stedsnr" v="879099" />
	</node>
	<node id="-104136" lat="63.4902750024" lon="8.7869888985">
		<tag k="alt_name" v="Aunåa" />
		<tag k="name" v="Aunelva" />
		<tag k="ssr:stedsnr" v="316497" />
		<tag k="waterway" v="stream" />
	</node>
	<node id="-104135" lat="63.4883944403" lon="8.84940556095">
		<tag k="name" v="Husvatnet" />
		<tag k="natural" v="water" />
		<tag k="ssr:stedsnr" v="316493" />
	</node>
	<node id="-102347" lat="63.612816665" lon="8.65034444392">
		<tag k="name" v="Litlstraumen" />
		<tag k="ssr:stedsnr" v="697562" />
		<tag k="waterway" v="river" />
	</node>
	<node id="-105141" lat="63.4747666678" lon="9.19685832854">
		<tag k="name" v="Sør Vassdalsbekken" />
		<tag k="ssr:stedsnr" v="639225" />
		<tag k="waterway" v="stream" />
	</node>
	<node id="-102070" lat="63.6170027807" lon="8.69306387981">
		<tag k="name" v="Eliastjørna" />
		<tag k="natural" v="water" />
		<tag k="ssr:stedsnr" v="637619" />
	</node>
	<node id="-104117" lat="63.568869444" lon="8.92404999247">
		<tag k="name" v="Larsskogvatnet" />
		<tag k="natural" v="water" />
		<tag k="ssr:stedsnr" v="316439" />
	</node>
	<node id="-102068" lat="63.4893749979" lon="8.34082222659">
		<tag k="name" v="Kovassvatnet" />
		<tag k="natural" v="water" />
		<tag k="ssr:stedsnr" v="637836" />
		<tag k="water" v="lake" />
	</node>
	<node id="-104107" lat="63.4958194467" lon="9.22708610608">
		<tag k="alt_name" v="Køysa" />
		<tag k="name" v="Kjøsvatnet" />
		<tag k="natural" v="water" />
		<tag k="ssr:stedsnr" v="315898" />
	</node>
	<node id="-102054" lat="63.581105553" lon="8.46991944251">
		<tag k="name" v="Kutjørna" />
		<tag k="natural" v="water" />
		<tag k="ssr:stedsnr" v="637170" />
	</node>
	<node id="-102053" lat="63.5823333355" lon="8.4714111022">
		<tag k="name" v="Klevatnet" />
		<tag k="natural" v="water" />
		<tag k="ssr:stedsnr" v="637169" />
		<tag k="water" v="lake" />
	</node>
	<node id="-102045" lat="63.5794694406" lon="9.1329027747">
		<tag k="name" v="Utsetbekken" />
		<tag k="ssr:stedsnr" v="637062" />
		<tag k="waterway" v="stream" />
	</node>
	<node id="-104092" lat="63.4739666626" lon="9.24276944605">
		<tag k="name" v="Lomtjørna" />
		<tag k="natural" v="water" />
		<tag k="ssr:stedsnr" v="215293" />
	</node>
	<node id="-102041" lat="63.5339055542" lon="8.46206666787">
		<tag k="name" v="Kådalsøra" />
		<tag k="natural" v="cape" />
		<tag k="ssr:stedsnr" v="637024" />
	</node>
	<node id="-102035" lat="63.5507805528" lon="8.54081666174">
		<tag k="name" v="Gardveita" />
		<tag k="ssr:stedsnr" v="636762" />
		<tag k="waterway" v="stream" />
	</node>
	<node id="-104077" lat="63.5612888871" lon="8.92951110165">
		<tag k="name" v="Grøfttjørna" />
		<tag k="natural" v="water" />
		<tag k="ssr:stedsnr" v="213697" />
	</node>
	<node id="-104075" lat="63.5608027745" lon="8.977513885">
		<tag k="name" v="Tverrelva" />
		<tag k="ssr:stedsnr" v="213692" />
		<tag k="waterway" v="river" />
	</node>
	<node id="-104074" lat="63.5712138881" lon="8.94970834013">
		<tag k="name" v="Sandtjørna" />
		<tag k="natural" v="water" />
		<tag k="ssr:stedsnr" v="213690" />
	</node>
	<node id="-104073" lat="63.4844333361" lon="8.81108056092">
		<tag k="name" v="Fløosen" />
		<tag k="natural" v="bay" />
		<tag k="ssr:stedsnr" v="213768" />
	</node>
	<node id="-104072" lat="63.5122305553" lon="8.84216389223">
		<tag k="name" v="Merrakråbekken" />
		<tag k="ssr:stedsnr" v="213755" />
		<tag k="waterway" v="stream" />
	</node>
	<node id="-104069" lat="63.5255722238" lon="9.01571665759">
		<tag k="name" v="Svanstjørnbekken" />
		<tag k="ssr:stedsnr" v="213729" />
		<tag k="waterway" v="stream" />
	</node>
	<node id="-104068" lat="63.4994972233" lon="8.88083610691">
		<tag k="name" v="Langvasselva" />
		<tag k="ssr:stedsnr" v="213720" />
		<tag k="waterway" v="river" />
	</node>
	<node id="-104067" lat="63.5092999978" lon="8.88160555433">
		<tag k="name" v="Merkesbekken" />
		<tag k="ssr:stedsnr" v="213719" />
		<tag k="waterway" v="stream" />
	</node>
	<node id="-104066" lat="63.5666916647" lon="9.00017777982">
		<tag k="name" v="Hatt-tjørna" />
		<tag k="natural" v="water" />
		<tag k="ssr:stedsnr" v="213711" />
	</node>
	<node id="-102014" lat="63.5531805549" lon="8.81304444351">
		<tag k="name" v="Dalaelva" />
		<tag k="ssr:stedsnr" v="620403" />
		<tag k="waterway" v="river" />
	</node>
	<node id="-104059" lat="63.5126361107" lon="8.9387361153">
		<tag k="name" v="Ytter Rotthaugtjørna" />
		<tag k="natural" v="water" />
		<tag k="ssr:stedsnr" v="213476" />
	</node>
	<node id="-102005" lat="63.5115805539" lon="8.73348056434">
		<tag k="name" v="Skogoddtjørna" />
		<tag k="natural" v="water" />
		<tag k="ssr:stedsnr" v="619535" />
	</node>
	<node id="-101310" lat="63.5283749968" lon="8.48641110405">
		<tag k="name" v="Laksvatnet" />
		<tag k="natural" v="water" />
		<tag k="ssr:stedsnr" v="498560" />
	</node>
	<node id="-104046" lat="63.5307055563" lon="8.92909167299">
		<tag k="name" v="Jaktbekken" />
		<tag k="ssr:stedsnr" v="212891" />
		<tag k="waterway" v="stream" />
	</node>
	<node id="-104040" lat="63.532049998" lon="8.45856388905">
		<tag k="name" v="Kådalsvatnet" />
		<tag k="natural" v="water" />
		<tag k="ssr:stedsnr" v="212866" />
		<tag k="water" v="lake" />
	</node>
	<node id="-104039" lat="63.5015444402" lon="8.83081110799">
		<tag k="name" v="Bjørkadalselva" />
		<tag k="ssr:stedsnr" v="212859" />
		<tag k="waterway" v="river" />
	</node>
	<node id="-105144" lat="63.5147805523" lon="9.29150555634">
		<tag k="name" v="Skutbekken" />
		<tag k="ssr:stedsnr" v="639534" />
		<tag k="waterway" v="stream" />
	</node>
	<node id="-104026" lat="63.6115916655" lon="8.79893332521">
		<tag k="name" v="Sandvatnet" />
		<tag k="natural" v="water" />
		<tag k="ssr:stedsnr" v="212960" />
		<tag k="water" v="lake" />
	</node>
	<node id="-101647" lat="63.4713499972" lon="8.64686389294">
		<tag k="name" v="Litlbrattåa" />
		<tag k="ssr:stedsnr" v="497109" />
		<tag k="waterway" v="stream" />
	</node>
	<node id="-104024" lat="63.6332694462" lon="8.79402222182">
		<tag k="name" v="Nettadalstjørna" />
		<tag k="natural" v="water" />
		<tag k="ssr:stedsnr" v="212955" />
	</node>
	<node id="-104023" lat="63.6054805592" lon="8.97783334171">
		<tag k="name" v="Aurtjørna" />
		<tag k="natural" v="water" />
		<tag k="ssr:stedsnr" v="212844" />
	</node>
	<node id="-104013" lat="63.5198166663" lon="8.68188332432">
		<tag k="name" v="Korstjørna" />
		<tag k="natural" v="water" />
		<tag k="ssr:stedsnr" v="212652" />
	</node>
	<node id="-104012" lat="63.5530999981" lon="8.52592222121">
		<tag k="name" v="Kvernelva" />
		<tag k="ssr:stedsnr" v="212648" />
		<tag k="waterway" v="river" />
	</node>
	<node id="-104005" lat="63.5318611103" lon="8.73213887901">
		<tag k="name" v="Storlona" />
		<tag k="natural" v="water" />
		<tag k="ssr:stedsnr" v="212768" />
		<tag k="water" v="lake" />
	</node>
	<node id="-101952" lat="63.4528666676" lon="8.44468054925">
		<tag k="name" v="Storsandvasselva" />
		<tag k="ssr:stedsnr" v="576503" />
		<tag k="waterway" v="river" />
	</node>
	<node id="-101945" lat="63.4371805566" lon="8.46742777542">
		<tag k="alt_name" v="Aspavatna" />
		<tag k="name" v="Aspavatnet" />
		<tag k="natural" v="water" />
		<tag k="ssr:stedsnr" v="576270" />
		<tag k="water" v="lake" />
	</node>
	<node id="-103985" lat="63.4656138914" lon="8.41171666831">
		<tag k="name" v="Lydalsvatnet" />
		<tag k="natural" v="water" />
		<tag k="ssr:stedsnr" v="212448" />
		<tag k="water" v="lake" />
	</node>
	<node id="-100615" lat="63.5765166672" lon="8.38915277037">
		<tag k="name" v="Inner Olderskogvatnet" />
		<tag k="natural" v="water" />
		<tag k="ssr:stedsnr" v="272099" />
		<tag k="water" v="lake" />
	</node>
	<node id="-101927" lat="63.5192444408" lon="8.49449722099">
		<tag k="name" v="Sandvasselva" />
		<tag k="ssr:stedsnr" v="575024" />
		<tag k="waterway" v="river" />
	</node>
	<node id="-103969" lat="63.6468472254" lon="9.06711389148">
		<tag k="name" v="Meistertjørna" />
		<tag k="natural" v="water" />
		<tag k="ssr:stedsnr" v="212077" />
	</node>
	<node id="-103965" lat="63.5032138873" lon="8.36399166369">
		<tag k="name" v="Straumsvika" />
		<tag k="natural" v="bay" />
		<tag k="ssr:stedsnr" v="212349" />
	</node>
	<node id="-103964" lat="63.4476305565" lon="8.38157777272">
		<tag k="name" v="Kjørstadelva" />
		<tag k="ssr:stedsnr" v="212339" />
		<tag k="waterway" v="river" />
	</node>
	<node id="-101295" lat="63.6031055564" lon="8.82106388522">
		<tag k="name" v="Setertjørna" />
		<tag k="natural" v="water" />
		<tag k="ssr:stedsnr" v="498386" />
	</node>
	<node id="-101902" lat="63.5409583371" lon="8.65441388119">
		<tag k="name" v="Setervatnet" />
		<tag k="natural" v="water" />
		<tag k="ssr:stedsnr" v="559552" />
	</node>
	<node id="-103948" lat="63.5522388864" lon="8.50660833218">
		<tag k="name" v="Furuvikvatnet" />
		<tag k="natural" v="water" />
		<tag k="ssr:stedsnr" v="212022" />
		<tag k="water" v="lake" />
	</node>
	<node id="-101898" lat="63.5626277759" lon="9.04567499498">
		<tag k="name" v="Neverlivatnet" />
		<tag k="natural" v="water" />
		<tag k="ssr:stedsnr" v="559417" />
	</node>
	<node id="-101975" lat="63.5145722212" lon="8.98654721665">
		<tag k="name" v="Stormyrbekken" />
		<tag k="ssr:stedsnr" v="577708" />
		<tag k="waterway" v="stream" />
	</node>
	<node id="-101894" lat="63.6555999968" lon="9.103183336">
		<tag k="alt_name" v="Aurebon" />
		<tag k="name" v="Aurbon" />
		<tag k="natural" v="water" />
		<tag k="ssr:stedsnr" v="559255" />
	</node>
	<node id="-101890" lat="63.6059666629" lon="8.88977500144">
		<tag k="alt_name" v="Melkstadvatnet" />
		<tag k="name" v="Melkestadvatnet" />
		<tag k="natural" v="water" />
		<tag k="ssr:stedsnr" v="559318" />
	</node>
	<node id="-101889" lat="63.596236108" lon="8.74667499949">
		<tag k="name" v="Hokkeltindtjørna" />
		<tag k="natural" v="water" />
		<tag k="ssr:stedsnr" v="559314" />
	</node>
	<node id="-103936" lat="63.5992611093" lon="8.66313888334">
		<tag k="name" v="Svartbergvatnet" />
		<tag k="natural" v="water" />
		<tag k="ssr:stedsnr" v="195883" />
	</node>
	<node id="-103935" lat="63.5197555529" lon="8.36895555219">
		<tag k="name" v="Vågavatnet" />
		<tag k="natural" v="water" />
		<tag k="ssr:stedsnr" v="195559" />
	</node>
	<node id="-103926" lat="63.5366202374" lon="8.88033648755">
		<tag k="alt_name" v="Raudsandtjørna, yt" />
		<tag k="fixme" v="multiple name tags, choose one and add the other to alt_name" />
		<tag k="name" v="Kroktjørna;Ytre Raudsandtjørna" />
		<tag k="natural" v="water" />
		<tag k="ssr:stedsnr" v="195486" />
	</node>
	<node id="-103924" lat="63.496666035" lon="8.85953368466">
		<tag k="alt_name" v="Kjørildalsvatnet" />
		<tag k="name" v="Tjerrildalsvatnet" />
		<tag k="natural" v="water" />
		<tag k="ssr:stedsnr" v="195474" />
		<tag k="water" v="lake" />
	</node>
	<node id="-101873" lat="63.5684888932" lon="8.72785555661">
		<tag k="name" v="Mørkdalsvatnet" />
		<tag k="natural" v="water" />
		<tag k="ssr:stedsnr" v="558407" />
	</node>
	<node id="-103920" lat="63.5290638855" lon="9.08338332356">
		<tag k="name" v="Litlvatnet" />
		<tag k="natural" v="water" />
		<tag k="ssr:stedsnr" v="195462" />
	</node>
	<node id="-103917" lat="63.5555083369" lon="8.8868722177">
		<tag k="name" v="Godmattjørna" />
		<tag k="natural" v="water" />
		<tag k="ssr:stedsnr" v="195435" />
	</node>
	<node id="-103916" lat="63.4919581209" lon="8.87580003279">
		<tag k="alt_name" v="Langvatnet" />
		<tag k="name" v="Balsneslangvatnet" />
		<tag k="natural" v="water" />
		<tag k="ssr:stedsnr" v="195277" />
		<tag k="water" v="lake" />
	</node>
	<node id="-103911" lat="63.5920944444" lon="8.96161110667">
		<tag k="name" v="Leirvågvatnet" />
		<tag k="natural" v="water" />
		<tag k="ssr:stedsnr" v="195375" />
	</node>
	<node id="-103910" lat="63.6184833324" lon="8.75130000702">
		<tag k="name" v="Krokbekken" />
		<tag k="ssr:stedsnr" v="195364" />
		<tag k="waterway" v="stream" />
	</node>
	<node id="-103908" lat="63.6049776405" lon="8.83959624712">
		<tag k="alt_name" v="Fauslandsvatnet" />
		<tag k="name" v="Fauslandvatnet" />
		<tag k="natural" v="water" />
		<tag k="ssr:stedsnr" v="195359" />
		<tag k="water" v="lake" />
	</node>
	<node id="-103906" lat="63.6102500033" lon="8.93781111987">
		<tag k="name" v="Liatjørna" />
		<tag k="natural" v="water" />
		<tag k="ssr:stedsnr" v="195355" />
	</node>
	<node id="-101285" lat="63.4483111114" lon="8.55443332777">
		<tag k="name" v="Randvatnet" />
		<tag k="natural" v="water" />
		<tag k="ssr:stedsnr" v="376006" />
	</node>
	<node id="-101457" lat="63.4409305563" lon="8.53803056229">
		<tag k="name" v="Inner Sandvassbukta" />
		<tag k="natural" v="bay" />
		<tag k="ssr:stedsnr" v="516238" />
	</node>
	<node id="-103094" lat="63.5445499959" lon="8.73036111211">
		<tag k="name" v="Litllona" />
		<tag k="natural" v="water" />
		<tag k="ssr:stedsnr" v="30772" />
		<tag k="water" v="lake" />
	</node>
	<node id="-103894" lat="63.466655559" lon="9.23086944974">
		<tag k="alt_name" v="Tenorlivatn" />
		<tag k="name" v="Tenorlivatnet" />
		<tag k="natural" v="water" />
		<tag k="ssr:stedsnr" v="194968" />
	</node>
	<node id="-101844" lat="63.6095555577" lon="8.73418333622">
		<tag k="name" v="Dyrkollneset" />
		<tag k="natural" v="cape" />
		<tag k="ssr:stedsnr" v="698930" />
	</node>
	<node id="-101843" lat="63.6022388917" lon="8.74300278266">
		<tag k="name" v="Linderåstjørna" />
		<tag k="natural" v="water" />
		<tag k="ssr:stedsnr" v="698927" />
	</node>
	<node id="-103890" lat="63.4376599047" lon="8.45407217319">
		<tag k="name" v="Dyrmyrtjørna" />
		<tag k="natural" v="water" />
		<tag k="ssr:stedsnr" v="195017" />
	</node>
	<node id="-103885" lat="63.4655500027" lon="8.41210000248">
		<tag k="name" v="Lydalstjørna" />
		<tag k="natural" v="water" />
		<tag k="ssr:stedsnr" v="194098" />
	</node>
	<node id="-103884" lat="63.4579305514" lon="8.4553583328">
		<tag k="name" v="Storsandvatnet" />
		<tag k="natural" v="water" />
		<tag k="ssr:stedsnr" v="194095" />
		<tag k="water" v="lake" />
	</node>
	<node id="-103883" lat="63.4671361132" lon="8.56818332876">
		<tag k="name" v="Ytre Slettvatnet" />
		<tag k="natural" v="water" />
		<tag k="ssr:stedsnr" v="194094" />
	</node>
	<node id="-101834" lat="63.5530027769" lon="8.98531945292">
		<tag k="name" v="Stiksdalselva" />
		<tag k="ssr:stedsnr" v="698845" />
		<tag k="waterway" v="river" />
	</node>
	<node id="-105719" lat="63.4585472228" lon="9.20593610299">
		<tag k="name" v="Migaren" />
		<tag k="ssr:stedsnr" v="863495" />
		<tag k="waterway" v="stream" />
	</node>
	<node id="-103880" lat="63.4933138857" lon="8.68846388688">
		<tag k="name" v="Langostjørnen" />
		<tag k="natural" v="water" />
		<tag k="ssr:stedsnr" v="194083" />
	</node>
	<node id="-103879" lat="63.4703583293" lon="8.35334443664">
		<tag k="name" v="Melktjørnen" />
		<tag k="natural" v="water" />
		<tag k="ssr:stedsnr" v="194070" />
	</node>
	<node id="-101830" lat="63.5946166662" lon="8.92265000251">
		<tag k="name" v="Ytter Stakkengtjørna" />
		<tag k="natural" v="water" />
		<tag k="ssr:stedsnr" v="698791" />
	</node>
	<node id="-101828" lat="63.5699694432" lon="8.79153056173">
		<tag k="name" v="Heggdalsbukta" />
		<tag k="natural" v="bay" />
		<tag k="ssr:stedsnr" v="698782" />
	</node>
	<node id="-101827" lat="63.5267138871" lon="8.72691111225">
		<tag k="name" v="Stordalsneset" />
		<tag k="natural" v="cape" />
		<tag k="ssr:stedsnr" v="698775" />
	</node>
	<node id="-101826" lat="63.4898666706" lon="8.73506666023">
		<tag k="name" v="Stordalselva" />
		<tag k="ssr:stedsnr" v="698632" />
		<tag k="waterway" v="river" />
	</node>
	<node id="-101824" lat="63.5590527747" lon="8.73542222594">
		<tag k="name" v="Kvernaelva" />
		<tag k="ssr:stedsnr" v="698750" />
		<tag k="waterway" v="river" />
	</node>
	<node id="-101822" lat="63.5394888862" lon="8.71901944962">
		<tag k="name" v="Oterslættbekken" />
		<tag k="ssr:stedsnr" v="698740" />
		<tag k="waterway" v="stream" />
	</node>
	<node id="-101819" lat="63.5682777751" lon="8.71528889736">
		<tag k="name" v="Merkesåa" />
		<tag k="ssr:stedsnr" v="698733" />
		<tag k="waterway" v="river" />
	</node>
	<node id="-101818" lat="63.6334799618" lon="8.92765613484">
		<tag k="name" v="Mulåstjørna" />
		<tag k="natural" v="water" />
		<tag k="ssr:stedsnr" v="698731" />
	</node>
	<node id="-102644" lat="63.5233027798" lon="8.44265554704">
		<tag k="name" v="Svankilelva" />
		<tag k="ssr:stedsnr" v="802573" />
		<tag k="waterway" v="stream" />
	</node>
	<node id="-101813" lat="63.536941666" lon="8.99384444663">
		<tag k="name" v="Ytter Bjørtjørna" />
		<tag k="natural" v="water" />
		<tag k="ssr:stedsnr" v="698589" />
	</node>
	<node id="-101808" lat="63.536941666" lon="8.99384444663">
		<tag k="name" v="Bjørtjørnan" />
		<tag k="natural" v="water" />
		<tag k="ssr:stedsnr" v="698431" />
	</node>
	<node id="-101805" lat="63.5230611071" lon="9.03997777149">
		<tag k="name" v="Terningsbekken" />
		<tag k="ssr:stedsnr" v="698394" />
		<tag k="waterway" v="stream" />
	</node>
	<node id="-103846" lat="63.5044055524" lon="9.21534167229">
		<tag k="name" v="Aunelva" />
		<tag k="ssr:stedsnr" v="154282" />
		<tag k="waterway" v="river" />
	</node>
	<node id="-103843" lat="63.4837555551" lon="9.19244721961">
		<tag k="name" v="Vassbotn" />
		<tag k="natural" v="bay" />
		<tag k="ssr:stedsnr" v="154260" />
	</node>
	<node id="-101794" lat="63.43361061" lon="8.44760818529">
		<tag k="name" v="Langvatnet" />
		<tag k="natural" v="water" />
		<tag k="ssr:stedsnr" v="698239" />
		<tag k="water" v="lake" />
	</node>
	<node id="-102299" lat="63.6183749958" lon="8.73050555851">
		<tag k="name" v="Litlvatnet" />
		<tag k="natural" v="water" />
		<tag k="ssr:stedsnr" v="680371" />
	</node>
	<node id="-103839" lat="63.4658305537" lon="9.25125276965">
		<tag k="name" v="Tverdalsbekken" />
		<tag k="ssr:stedsnr" v="154153" />
		<tag k="waterway" v="stream" />
	</node>
	<node id="-101789" lat="63.5729416687" lon="9.10199167024">
		<tag k="name" v="Stokkskardbekken" />
		<tag k="ssr:stedsnr" v="698225" />
		<tag k="waterway" v="stream" />
	</node>
	<node id="-101786" lat="63.4580694467" lon="8.58623888617">
		<tag k="name" v="Kvernabekken" />
		<tag k="ssr:stedsnr" v="698186" />
		<tag k="waterway" v="stream" />
	</node>
	<node id="-101782" lat="63.5810749962" lon="8.47698610298">
		<tag k="name" v="Sør Kvernavatnet" />
		<tag k="natural" v="water" />
		<tag k="ssr:stedsnr" v="698139" />
		<tag k="water" v="lake" />
	</node>
	<node id="-101250" lat="63.4968555585" lon="8.81839166477">
		<tag k="name" v="Elsfjellvassbekken" />
		<tag k="ssr:stedsnr" v="334826" />
		<tag k="waterway" v="stream" />
	</node>
	<node id="-103825" lat="63.4876111105" lon="8.81913611208">
		<tag k="name" v="Grunnvassbekken" />
		<tag k="ssr:stedsnr" v="152762" />
		<tag k="waterway" v="stream" />
	</node>
	<node id="-100930" lat="63.4335138894" lon="8.52581110692">
		<tag k="name" v="Godvetentjørna" />
		<tag k="natural" v="water" />
		<tag k="ssr:stedsnr" v="454242" />
	</node>
	<node id="-101769" lat="63.5409194476" lon="8.4598722208">
		<tag k="name" v="Lyngskardtjørna" />
		<tag k="natural" v="water" />
		<tag k="ssr:stedsnr" v="698001" />
	</node>
	<node id="-100588" lat="63.5358475188" lon="8.89547766385">
		<tag k="alt_name" v="Raudsandtjørna;Raudsandtjørna, in" />
		<tag k="name" v="Indre Raudsandtjørna" />
		<tag k="natural" v="water" />
		<tag k="ssr:stedsnr" v="134506" />
	</node>
	<node id="-101760" lat="63.5253999967" lon="8.61600278351">
		<tag k="name" v="Ytter Langvatnet" />
		<tag k="natural" v="water" />
		<tag k="ssr:stedsnr" v="697682" />
		<tag k="water" v="lake" />
	</node>
	<node id="-101759" lat="63.5431555556" lon="8.55559721538">
		<tag k="name" v="Grytbekken" />
		<tag k="ssr:stedsnr" v="697678" />
		<tag k="waterway" v="stream" />
	</node>
	<node id="-101758" lat="63.5072777792" lon="8.37650277027">
		<tag k="name" v="Mikkelvika" />
		<tag k="natural" v="bay" />
		<tag k="ssr:stedsnr" v="697651" />
	</node>
	<node id="-101755" lat="63.6004416635" lon="8.67598333784">
		<tag k="name" v="Valen" />
		<tag k="natural" v="strait" />
		<tag k="ssr:stedsnr" v="697547" />
	</node>
	<node id="-103798" lat="63.5433611071" lon="9.05962499618">
		<tag k="name" v="Ostjørna" />
		<tag k="natural" v="water" />
		<tag k="ssr:stedsnr" v="152304" />
	</node>
	<node id="-101746" lat="63.4484472235" lon="8.52097221547">
		<tag k="name" v="Seterlielva" />
		<tag k="ssr:stedsnr" v="697249" />
		<tag k="waterway" v="river" />
	</node>
	<node id="-103315" lat="63.6217666693" lon="9.09152221941">
		<tag k="name" v="Gjertrudvatnet" />
		<tag k="natural" v="water" />
		<tag k="ssr:stedsnr" v="74295" />
	</node>
	<node id="-101735" lat="63.5168694409" lon="8.50091667024">
		<tag k="name" v="Branden" />
		<tag k="natural" v="cape" />
		<tag k="ssr:stedsnr" v="697037" />
	</node>
	<node id="-103781" lat="63.6077722197" lon="8.74087499913">
		<tag k="name" v="Fagerliodden" />
		<tag k="natural" v="cape" />
		<tag k="ssr:stedsnr" v="151932" />
	</node>
	<node id="-101606" lat="63.4477999985" lon="8.44197777631">
		<tag k="name" v="Lamyrelva" />
		<tag k="ssr:stedsnr" v="679040" />
		<tag k="waterway" v="stream" />
	</node>
	<node id="-103778" lat="63.6081527752" lon="8.76048888841">
		<tag k="name" v="Langvassåstjørna" />
		<tag k="natural" v="water" />
		<tag k="ssr:stedsnr" v="151907" />
	</node>
	<node id="-102544" lat="63.5271333342" lon="9.37681110445">
		<tag k="name" v="Nordalstjørna" />
		<tag k="natural" v="water" />
		<tag k="ssr:stedsnr" v="761690" />
	</node>
	<node id="-103772" lat="63.6513805536" lon="8.78196944692">
		<tag k="name" v="Ongalnestjørna" />
		<tag k="natural" v="water" />
		<tag k="ssr:stedsnr" v="151874" />
	</node>
	<node id="-101721" lat="63.5263611079" lon="8.39492223008">
		<tag k="name" v="Skaga" />
		<tag k="natural" v="cape" />
		<tag k="ssr:stedsnr" v="516425" />
	</node>
	<node id="-103764" lat="63.5659611111" lon="8.82739999531">
		<tag k="name" v="Hest-tjørna" />
		<tag k="natural" v="water" />
		<tag k="ssr:stedsnr" v="151829" />
	</node>
	<node id="-101603" lat="63.4405500015" lon="8.47262777642">
		<tag k="name" v="Smådalsvatna" />
		<tag k="natural" v="water" />
		<tag k="ssr:stedsnr" v="679002" />
	</node>
	<node id="-101707" lat="63.6246694429" lon="8.73813889425">
		<tag k="name" v="Melandselva" />
		<tag k="ssr:stedsnr" v="515628" />
		<tag k="waterway" v="river" />
	</node>
	<node id="-101704" lat="63.615977774" lon="8.67740832446">
		<tag k="name" v="Høgåstjørna" />
		<tag k="natural" v="water" />
		<tag k="ssr:stedsnr" v="515603" />
	</node>
	<node id="-103746" lat="63.5510333308" lon="8.52838611869">
		<tag k="name" v="Kvernavatnet" />
		<tag k="natural" v="water" />
		<tag k="ssr:stedsnr" v="151706" />
		<tag k="water" v="lake" />
	</node>
	<node id="-101697" lat="63.4607861143" lon="8.59896943618">
		<tag k="name" v="Stentjørna" />
		<tag k="natural" v="water" />
		<tag k="ssr:stedsnr" v="515231" />
	</node>
	<node id="-103743" lat="63.5095222258" lon="8.37941388278">
		<tag k="name" v="Trongsundet" />
		<tag k="natural" v="strait" />
		<tag k="ssr:stedsnr" v="151671" />
	</node>
	<node id="-103738" lat="63.5739111131" lon="8.93890832364">
		<tag k="name" v="Litlfossen" />
		<tag k="natural" v="waterfall" />
		<tag k="ssr:stedsnr" v="152676" />
	</node>
	<node id="-101688" lat="63.5176694452" lon="8.40781389648">
		<tag k="name" v="Sandvatnet" />
		<tag k="natural" v="water" />
		<tag k="ssr:stedsnr" v="681529" />
	</node>
	<node id="-101687" lat="63.5221416643" lon="8.44905278711">
		<tag k="name" v="Kvernavatnet" />
		<tag k="natural" v="water" />
		<tag k="ssr:stedsnr" v="681499" />
	</node>
	<node id="-103732" lat="63.4885694424" lon="8.42297222992">
		<tag k="name" v="Ytter Krokvatnet" />
		<tag k="natural" v="water" />
		<tag k="ssr:stedsnr" v="151484" />
		<tag k="water" v="lake" />
	</node>
	<node id="-101683" lat="63.5736138875" lon="8.60806111463">
		<tag k="name" v="Aunvatnet" />
		<tag k="natural" v="water" />
		<tag k="ssr:stedsnr" v="499516" />
	</node>
	<node id="-103728" lat="63.5206444482" lon="8.40440555874">
		<tag k="name" v="Sandbukta" />
		<tag k="natural" v="bay" />
		<tag k="ssr:stedsnr" v="151460" />
	</node>
	<node id="-103721" lat="63.5126888903" lon="8.3751944544">
		<tag k="name" v="Langskaget" />
		<tag k="natural" v="cape" />
		<tag k="ssr:stedsnr" v="151373" />
	</node>
	<node id="-101672" lat="63.5532277759" lon="9.0757861027">
		<tag k="name" v="Sandvatnet" />
		<tag k="natural" v="water" />
		<tag k="ssr:stedsnr" v="498480" />
	</node>
	<node id="-101595" lat="63.5144111145" lon="8.37241945073">
		<tag k="name" v="Grønnbukta" />
		<tag k="natural" v="bay" />
		<tag k="ssr:stedsnr" v="455331" />
	</node>
	<node id="-103712" lat="63.4371472189" lon="8.53484444719">
		<tag k="name" v="Brentrekstertjørna" />
		<tag k="natural" v="water" />
		<tag k="ssr:stedsnr" v="151247" />
	</node>
	<node id="-101663" lat="63.6065115079" lon="8.66115648495">
		<tag k="name" v="Lomstjørnan" />
		<tag k="natural" v="water" />
		<tag k="ssr:stedsnr" v="680916" />
	</node>
	<node id="-101593" lat="63.4703861113" lon="8.35324999776">
		<tag k="name" v="Øver Melktjørna" />
		<tag k="natural" v="water" />
		<tag k="ssr:stedsnr" v="455303" />
	</node>
	<node id="-101649" lat="63.4853000008" lon="8.81600000502">
		<tag k="name" v="Fløosvatnet" />
		<tag k="natural" v="water" />
		<tag k="ssr:stedsnr" v="497460" />
	</node>
	<node id="-101648" lat="63.5483833343" lon="8.593980562">
		<tag k="name" v="Middammen" />
		<tag k="place" v="locality" />
		<tag k="ssr:stedsnr" v="680602" />
	</node>
	<node id="-105743" lat="63.6289722264" lon="8.64329722776">
		<tag k="name" v="Litlvatnet" />
		<tag k="natural" v="water" />
		<tag k="ssr:stedsnr" v="863948" />
	</node>
	<node id="-101643" lat="63.4983499999" lon="8.67131666369">
		<tag k="name" v="Budalsvatnet" />
		<tag k="natural" v="water" />
		<tag k="ssr:stedsnr" v="497083" />
	</node>
	<node id="-103690" lat="63.567588885" lon="8.35701389483">
		<tag k="name" v="Otterfjelltjørna" />
		<tag k="natural" v="water" />
		<tag k="ssr:stedsnr" v="151077" />
	</node>
	<node id="-101641" lat="63.5354361095" lon="9.06501945269">
		<tag k="alt_name" v="Langvatnet" />
		<tag k="name" v="Langevatnet" />
		<tag k="natural" v="water" />
		<tag k="ssr:stedsnr" v="680502" />
	</node>
	<node id="-105735" lat="63.5945138884" lon="8.71287500644">
		<tag k="name" v="Holbekken" />
		<tag k="ssr:stedsnr" v="863859" />
		<tag k="waterway" v="stream" />
	</node>
	<node id="-101638" lat="63.5307833334" lon="8.88668888859">
		<tag k="name" v="Fiskartjørna" />
		<tag k="natural" v="water" />
		<tag k="ssr:stedsnr" v="680491" />
	</node>
	<node id="-105733" lat="63.6509888872" lon="9.07404721848">
		<tag k="name" v="Mastadvatnet" />
		<tag k="natural" v="water" />
		<tag k="ssr:stedsnr" v="863668" />
	</node>
	<node id="-103684" lat="63.4612749997" lon="8.55572221309">
		<tag k="name" v="Pålsvatnet" />
		<tag k="natural" v="water" />
		<tag k="ssr:stedsnr" v="151021" />
		<tag k="water" v="lake" />
	</node>
	<node id="-105727" lat="63.5469861074" lon="8.68504444445">
		<tag k="name" v="Ørndalsvatnet" />
		<tag k="natural" v="water" />
		<tag k="ssr:stedsnr" v="863570" />
	</node>
	<node id="-101629" lat="63.5303222206" lon="9.07998888692">
		<tag k="name" v="Sandstadelva" />
		<tag k="ssr:stedsnr" v="680482" />
		<tag k="waterway" v="stream" />
	</node>
	<node id="-101245" lat="63.5536388893" lon="8.94972500621">
		<tag k="name" v="Hakktutjørna" />
		<tag k="natural" v="water" />
		<tag k="ssr:stedsnr" v="334803" />
	</node>
	<node id="-105722" lat="63.5143027791" lon="8.55109443854">
		<tag k="name" v="Ørndalsvatnet" />
		<tag k="natural" v="water" />
		<tag k="ssr:stedsnr" v="863531" />
	</node>
	<node id="-101247" lat="63.5523138861" lon="9.02611944046">
		<tag k="name" v="Vester Tjørndalstjørna" />
		<tag k="natural" v="water" />
		<tag k="ssr:stedsnr" v="334810" />
	</node>
	<node id="-103671" lat="63.6000694454" lon="8.57560555601">
		<tag k="name" v="Svanskogvatna" />
		<tag k="natural" v="water" />
		<tag k="ssr:stedsnr" v="134900" />
	</node>
	<node id="-101620" lat="63.6139534237" lon="8.91547707595">
		<tag k="name" v="Kolåstjørna" />
		<tag k="natural" v="water" />
		<tag k="ssr:stedsnr" v="680377" />
	</node>
	<node id="-101618" lat="63.6391749988" lon="9.13703333495">
		<tag k="alt_name" v="Fjellværvatnet" />
		<tag k="name" v="Fjellværsvatnet" />
		<tag k="natural" v="water" />
		<tag k="ssr:stedsnr" v="680279" />
	</node>
	<node id="-101616" lat="63.4755666627" lon="8.44619166062">
		<tag k="name" v="Butjørna" />
		<tag k="natural" v="water" />
		<tag k="ssr:stedsnr" v="680133" />
	</node>
	<node id="-105711" lat="63.5741277768" lon="8.74941111498">
		<tag k="name" v="Ellevdalsbekken" />
		<tag k="ssr:stedsnr" v="863392" />
		<tag k="waterway" v="stream" />
	</node>
	<node id="-105710" lat="63.5741638893" lon="9.09481388316">
		<tag k="name" v="Stokkskardtjørna" />
		<tag k="natural" v="water" />
		<tag k="ssr:stedsnr" v="863384" />
	</node>
	<node id="-103661" lat="63.6552138865" lon="8.82215000283">
		<tag k="alt_name" v="Vågan" />
		<tag k="name" v="Vågen" />
		<tag k="natural" v="water" />
		<tag k="ssr:stedsnr" v="134675" />
		<tag k="water" v="lake" />
	</node>
	<node id="-105708" lat="63.5612527789" lon="8.76228611955">
		<tag k="name" v="Husvatnet" />
		<tag k="natural" v="water" />
		<tag k="ssr:stedsnr" v="863372" />
	</node>
	<node id="-103657" lat="63.5809944476" lon="8.6902083272">
		<tag k="name" v="Klinttjørna" />
		<tag k="natural" v="water" />
		<tag k="ssr:stedsnr" v="134659" />
	</node>
	<node id="-105703" lat="63.6083555519" lon="8.75354445397">
		<tag k="name" v="Aureelva" />
		<tag k="ssr:stedsnr" v="863312" />
		<tag k="waterway" v="stream" />
	</node>
	<node id="-105702" lat="63.6263250034" lon="8.80828889812">
		<tag k="name" v="Hjertåstjørna" />
		<tag k="natural" v="water" />
		<tag k="ssr:stedsnr" v="863309" />
	</node>
	<node id="-105701" lat="63.6261527763" lon="8.81492778079">
		<tag k="name" v="Barmvatnet" />
		<tag k="natural" v="water" />
		<tag k="ssr:stedsnr" v="863308" />
	</node>
	<node id="-101604" lat="63.4573388885" lon="8.56305556159">
		<tag k="name" v="Bergulvatnet" />
		<tag k="natural" v="water" />
		<tag k="ssr:stedsnr" v="679027" />
	</node>
	<node id="-105699" lat="63.6267027741" lon="9.05290000513">
		<tag k="name" v="Demma" />
		<tag k="natural" v="water" />
		<tag k="ssr:stedsnr" v="863284" />
	</node>
	<node id="-105696" lat="63.6363861084" lon="8.92336389887">
		<tag k="name" v="Tistiltjørna" />
		<tag k="natural" v="water" />
		<tag k="ssr:stedsnr" v="863256" />
	</node>
	<node id="-105695" lat="63.5110333291" lon="9.30340555624">
		<tag k="name" v="Vingelva" />
		<tag k="ssr:stedsnr" v="863193" />
		<tag k="waterway" v="stream" />
	</node>
	<node id="-105694" lat="63.5063194456" lon="9.30896110694">
		<tag k="name" v="Nedre Vingvatnet" />
		<tag k="natural" v="water" />
		<tag k="ssr:stedsnr" v="863192" />
	</node>
	<node id="-101596" lat="63.4964555567" lon="8.35675277416">
		<tag k="name" v="Matmyrbekken" />
		<tag k="ssr:stedsnr" v="455337" />
		<tag k="waterway" v="stream" />
	</node>
	<node id="-103643" lat="63.5254083358" lon="8.61043054699">
		<tag k="alt_name" v="Langvatnet, ytre" />
		<tag k="name" v="Ytre Langvatnet" />
		<tag k="natural" v="water" />
		<tag k="ssr:stedsnr" v="134553" />
	</node>
	<node id="-103642" lat="63.5228888875" lon="8.36876388712">
		<tag k="name" v="Krokvatnet" />
		<tag k="natural" v="water" />
		<tag k="ssr:stedsnr" v="134552" />
	</node>
	<node id="-105689" lat="63.5012583343" lon="8.88728611964">
		<tag k="name" v="Langvasstjørna" />
		<tag k="natural" v="water" />
		<tag k="ssr:stedsnr" v="863003" />
	</node>
	<node id="-103640" lat="63.594508334" lon="8.92226665877">
		<tag k="name" v="Stakkengtjørnan" />
		<tag k="natural" v="water" />
		<tag k="ssr:stedsnr" v="134399" />
	</node>
	<node id="-103633" lat="63.628852775" lon="8.82758055398">
		<tag k="name" v="Ovadalsvatnet" />
		<tag k="natural" v="water" />
		<tag k="ssr:stedsnr" v="134335" />
	</node>
	<node id="-101584" lat="63.6129666685" lon="8.6755444379">
		<tag k="name" v="Slaskobekken" />
		<tag k="ssr:stedsnr" v="454608" />
		<tag k="waterway" v="stream" />
	</node>
	<node id="-103631" lat="63.5742361105" lon="8.68929444117">
		<tag k="name" v="Kvernavatnet" />
		<tag k="natural" v="water" />
		<tag k="ssr:stedsnr" v="134610" />
	</node>
	<node id="-101581" lat="63.5158472237" lon="8.50181667074">
		<tag k="name" v="Gaddneset" />
		<tag k="natural" v="cape" />
		<tag k="ssr:stedsnr" v="454030" />
	</node>
	<node id="-101579" lat="63.5733972265" lon="9.04587500128">
		<tag k="name" v="Pålsdalsvatnet" />
		<tag k="natural" v="water" />
		<tag k="ssr:stedsnr" v="438378" />
	</node>
	<node id="-103625" lat="63.5249166633" lon="8.75818610661">
		<tag k="name" v="Lauvdalsvatnet" />
		<tag k="natural" v="water" />
		<tag k="ssr:stedsnr" v="134495" />
	</node>
	<node id="-103624" lat="63.525247226" lon="8.95448334032">
		<tag k="name" v="Ramfjelltjørna" />
		<tag k="natural" v="water" />
		<tag k="ssr:stedsnr" v="134489" />
	</node>
	<node id="-103622" lat="63.5624916698" lon="8.98953055214">
		<tag k="name" v="Setervatnet" />
		<tag k="natural" v="water" />
		<tag k="ssr:stedsnr" v="134477" />
		<tag k="water" v="lake" />
	</node>
	<node id="-103621" lat="63.5553388912" lon="9.11246111328">
		<tag k="name" v="Vågavatnet" />
		<tag k="natural" v="water" />
		<tag k="ssr:stedsnr" v="134472" />
	</node>
	<node id="-103620" lat="63.5492333319" lon="9.05517222426">
		<tag k="name" v="Gauklivatnet" />
		<tag k="natural" v="water" />
		<tag k="ssr:stedsnr" v="134468" />
	</node>
	<node id="-101571" lat="63.5446666638" lon="9.35894444007">
		<tag k="name" v="Gammelbudalsbekken" />
		<tag k="ssr:stedsnr" v="518673" />
		<tag k="waterway" v="stream" />
	</node>
	<node id="-103618" lat="63.5443055524" lon="8.93908056122">
		<tag k="name" v="Sandfjellvatnet" />
		<tag k="natural" v="water" />
		<tag k="ssr:stedsnr" v="134460" />
	</node>
	<node id="-103617" lat="63.5679437394" lon="8.82361077435">
		<tag k="name" v="Damtjørnan" />
		<tag k="natural" v="water" />
		<tag k="ssr:stedsnr" v="134451" />
	</node>
	<node id="-103616" lat="63.5725903688" lon="8.71871165474">
		<tag k="alt_name" v="Tømmeråsdammen" />
		<tag k="name" v="Tømmeråstjørna" />
		<tag k="natural" v="water" />
		<tag k="ssr:stedsnr" v="134443" />
	</node>
	<node id="-101237" lat="63.6234555577" lon="8.92068888772">
		<tag k="name" v="Sørsjøen" />
		<tag k="natural" v="bay" />
		<tag k="ssr:stedsnr" v="334736" />
	</node>
	<node id="-101559" lat="63.5063249997" lon="9.21832777363">
		<tag k="name" v="Trolldalsbekken" />
		<tag k="ssr:stedsnr" v="518202" />
		<tag k="waterway" v="stream" />
	</node>
	<node id="-103600" lat="63.4501833368" lon="8.44122778697">
		<tag k="name" v="Litlsandvatnet" />
		<tag k="natural" v="water" />
		<tag k="ssr:stedsnr" v="134031" />
	</node>
	<node id="-103599" lat="63.4889194474" lon="9.18652777239">
		<tag k="name" v="Sundvatnet" />
		<tag k="natural" v="water" />
		<tag k="ssr:stedsnr" v="133400" />
	</node>
	<node id="-103594" lat="63.4826861086" lon="8.39602777773">
		<tag k="name" v="Langnesvatnet" />
		<tag k="natural" v="water" />
		<tag k="ssr:stedsnr" v="133058" />
		<tag k="water" v="lake" />
	</node>
	<node id="-103593" lat="63.4749055595" lon="8.47338055983">
		<tag k="name" v="Skårfjellvatna" />
		<tag k="natural" v="water" />
		<tag k="ssr:stedsnr" v="133057" />
		<tag k="water" v="lake" />
	</node>
	<node id="-103592" lat="63.4454080475" lon="8.50608558226">
		<tag k="name" v="Storsetervatnet" />
		<tag k="natural" v="water" />
		<tag k="ssr:stedsnr" v="133001" />
	</node>
	<node id="-101542" lat="63.4877305582" lon="9.30654721608">
		<tag k="name" v="Springaren" />
		<tag k="ssr:stedsnr" v="517570" />
		<tag k="waterway" v="stream" />
	</node>
	<node id="-101541" lat="63.4890833361" lon="9.31741110765">
		<tag k="name" v="Rattjørna" />
		<tag k="natural" v="water" />
		<tag k="ssr:stedsnr" v="517563" />
	</node>
	<node id="-105670" lat="63.4677749981" lon="8.34136389259">
		<tag k="name" v="Saltjørna" />
		<tag k="natural" v="water" />
		<tag k="ssr:stedsnr" v="862148" />
	</node>
	<node id="-105634" lat="63.4978027803" lon="9.22208333903">
		<tag k="name" v="Køysvalen" />
		<tag k="natural" v="strait" />
		<tag k="ssr:stedsnr" v="821209" />
	</node>
	<node id="-100891" lat="63.4884888893" lon="9.18431388592">
		<tag k="name" v="Litlneset" />
		<tag k="natural" v="cape" />
		<tag k="ssr:stedsnr" v="215219" />
	</node>
	<node id="-103280" lat="63.4840250016" lon="8.64480000186">
		<tag k="name" v="Laksåelva" />
		<tag k="ssr:stedsnr" v="73085" />
		<tag k="waterway" v="stream" />
	</node>
	<node id="-105630" lat="63.4867083337" lon="8.82753055129">
		<tag k="name" v="Stabbursåstjørna" />
		<tag k="natural" v="water" />
		<tag k="ssr:stedsnr" v="820729" />
	</node>
	<node id="-105629" lat="63.5317749998" lon="9.01462499444">
		<tag k="name" v="Meiåstjørna" />
		<tag k="natural" v="water" />
		<tag k="ssr:stedsnr" v="820702" />
	</node>
	<node id="-105627" lat="63.5725000036" lon="8.91043889791">
		<tag k="name" v="Langneset" />
		<tag k="natural" v="cape" />
		<tag k="ssr:stedsnr" v="820690" />
	</node>
	<node id="-105626" lat="63.50287222" lon="8.88591388866">
		<tag k="name" v="Langvasselva" />
		<tag k="ssr:stedsnr" v="820684" />
		<tag k="waterway" v="river" />
	</node>
	<node id="-103571" lat="63.532822225" lon="9.38030000471">
		<tag k="name" v="Kvernaviktjørna" />
		<tag k="natural" v="water" />
		<tag k="ssr:stedsnr" v="94250" />
	</node>
	<node id="-103651" lat="63.5514694457" lon="8.505355555">
		<tag k="name" v="Furvikvatnet" />
		<tag k="natural" v="water" />
		<tag k="ssr:stedsnr" v="134619" />
	</node>
	<node id="-102253" lat="63.54117778" lon="9.10469722086">
		<tag k="name" v="Stor Strandavassneset" />
		<tag k="natural" v="cape" />
		<tag k="ssr:stedsnr" v="881457" />
	</node>
	<node id="-105612" lat="63.5316666669" lon="9.07959445449">
		<tag k="name" v="Langvasselva" />
		<tag k="ssr:stedsnr" v="820400" />
		<tag k="waterway" v="river" />
	</node>
	<node id="-103562" lat="63.499633334" lon="9.31121111829">
		<tag k="name" v="Tømmerdalsbekken" />
		<tag k="ssr:stedsnr" v="93513" />
		<tag k="waterway" v="stream" />
	</node>
	<node id="-105601" lat="63.5784777793" lon="8.59550555391">
		<tag k="name" v="Hundtjørna" />
		<tag k="natural" v="water" />
		<tag k="ssr:stedsnr" v="819986" />
	</node>
	<node id="-105597" lat="63.5518694419" lon="9.0150055568">
		<tag k="name" v="Kolbotntjørna" />
		<tag k="natural" v="water" />
		<tag k="ssr:stedsnr" v="819841" />
	</node>
	<node id="-101499" lat="63.510363889" lon="8.85388611539">
		<tag k="name" v="Langtjørnbekken" />
		<tag k="ssr:stedsnr" v="516734" />
		<tag k="waterway" v="stream" />
	</node>
	<node id="-105593" lat="63.5888777773" lon="9.09447500724">
		<tag k="name" v="Ulvågbekken" />
		<tag k="ssr:stedsnr" v="820065" />
		<tag k="waterway" v="stream" />
	</node>
	<node id="-101496" lat="63.4948611138" lon="8.88868610896">
		<tag k="name" v="Mellomvasselva" />
		<tag k="ssr:stedsnr" v="516682" />
		<tag k="waterway" v="river" />
	</node>
	<node id="-101495" lat="63.5724222214" lon="9.01368611806">
		<tag k="name" v="Innerdalselva" />
		<tag k="ssr:stedsnr" v="516670" />
		<tag k="waterway" v="river" />
	</node>
	<node id="-103542" lat="63.4844666673" lon="8.79657222162">
		<tag k="name" v="Båtsviktjørna" />
		<tag k="natural" v="water" />
		<tag k="ssr:stedsnr" v="92722" />
	</node>
	<node id="-101493" lat="63.5656861085" lon="8.93585277291">
		<tag k="name" v="Skjelbekken" />
		<tag k="ssr:stedsnr" v="516661" />
		<tag k="waterway" v="stream" />
	</node>
	<node id="-101492" lat="63.5698722189" lon="8.91079167557">
		<tag k="name" v="Blåskogelva" />
		<tag k="ssr:stedsnr" v="516655" />
		<tag k="waterway" v="river" />
	</node>
	<node id="-105587" lat="63.5982861127" lon="8.58090277346">
		<tag k="name" v="Svanskovatnet" />
		<tag k="natural" v="water" />
		<tag k="ssr:stedsnr" v="819937" />
		<tag k="water" v="lake" />
	</node>
	<node id="-105585" lat="63.6109138919" lon="8.72843610351">
		<tag k="name" v="Melkstadøya" />
		<tag k="natural" v="cape" />
		<tag k="ssr:stedsnr" v="819929" />
	</node>
	<node id="-103536" lat="63.5731916654" lon="8.9462638964">
		<tag k="name" v="Lakselva" />
		<tag k="ssr:stedsnr" v="92668" />
		<tag k="waterway" v="river" />
	</node>
	<node id="-103535" lat="63.4893166646" lon="8.74443333724">
		<tag k="name" v="Tverrbekken" />
		<tag k="ssr:stedsnr" v="92667" />
		<tag k="waterway" v="stream" />
	</node>
	<node id="-101484" lat="63.5307055548" lon="8.43230833723">
		<tag k="name" v="Tømmerdalsbukta" />
		<tag k="natural" v="bay" />
		<tag k="ssr:stedsnr" v="516395" />
	</node>
	<node id="-102945" lat="63.611488892" lon="8.65585555479">
		<tag k="name" v="Steinbrua" />
		<tag k="ssr:stedsnr" v="940561" />
		<tag k="waterway" v="river" />
	</node>
	<node id="-105576" lat="63.5310527739" lon="8.54055000811">
		<tag k="name" v="Rørtjørna" />
		<tag k="natural" v="water" />
		<tag k="ssr:stedsnr" v="819712" />
	</node>
	<node id="-105575" lat="63.5281972191" lon="8.53508887988">
		<tag k="name" v="Storfossen" />
		<tag k="natural" v="waterfall" />
		<tag k="ssr:stedsnr" v="819710" />
	</node>
	<node id="-101478" lat="63.4803666656" lon="8.34402777951">
		<tag k="name" v="Skogdalsbekken" />
		<tag k="ssr:stedsnr" v="516358" />
		<tag k="waterway" v="stream" />
	</node>
	<node id="-105572" lat="63.5076083357" lon="8.36497221934">
		<tag k="name" v="Levika" />
		<tag k="natural" v="bay" />
		<tag k="ssr:stedsnr" v="819681" />
	</node>
	<node id="-105571" lat="63.5045583289" lon="8.36541666536">
		<tag k="name" v="Rundklumpen" />
		<tag k="natural" v="cape" />
		<tag k="ssr:stedsnr" v="819676" />
	</node>
	<node id="-105570" lat="63.5492583324" lon="8.51888611537">
		<tag k="name" v="Stordalsvatnet" />
		<tag k="natural" v="water" />
		<tag k="ssr:stedsnr" v="819665" />
		<tag k="water" v="lake" />
	</node>
	<node id="-101470" lat="63.5568277783" lon="9.03786944852">
		<tag k="name" v="Tjørndalstjørna" />
		<tag k="natural" v="water" />
		<tag k="ssr:stedsnr" v="516316" />
	</node>
	<node id="-103515" lat="63.4841083308" lon="8.83812778295">
		<tag k="name" v="Balsneselva" />
		<tag k="ssr:stedsnr" v="92405" />
		<tag k="waterway" v="river" />
	</node>
	<node id="-105559" lat="63.6160388892" lon="8.69615833042">
		<tag k="name" v="Stormyrtjørna" />
		<tag k="natural" v="water" />
		<tag k="ssr:stedsnr" v="819599" />
	</node>
	<node id="-101460" lat="63.5683999998" lon="9.12017499053">
		<tag k="name" v="Svartlibekken" />
		<tag k="ssr:stedsnr" v="516256" />
		<tag k="waterway" v="stream" />
	</node>
	<node id="-101459" lat="63.4487722237" lon="8.54352221511">
		<tag k="name" v="Auretjørna" />
		<tag k="natural" v="water" />
		<tag k="ssr:stedsnr" v="516250" />
	</node>
	<node id="-101458" lat="63.4366444474" lon="8.54237499584">
		<tag k="name" v="Dalabekken" />
		<tag k="ssr:stedsnr" v="516241" />
		<tag k="waterway" v="stream" />
	</node>
	<node id="-103505" lat="63.5538916664" lon="9.03068055197">
		<tag k="name" v="Tjørndalstjørna" />
		<tag k="natural" v="water" />
		<tag k="ssr:stedsnr" v="92281" />
	</node>
	<node id="-103504" lat="63.4722999992" lon="8.67521945298">
		<tag k="name" v="Laksåelva" />
		<tag k="ssr:stedsnr" v="92265" />
		<tag k="waterway" v="river" />
	</node>
	<node id="-105550" lat="63.496908334" lon="8.38923333684">
		<tag k="name" v="Sautjørnen" />
		<tag k="natural" v="water" />
		<tag k="ssr:stedsnr" v="819485" />
	</node>
	<node id="-102583" lat="63.5545361129" lon="8.91961943615">
		<tag k="name" v="Furulivatnet" />
		<tag k="natural" v="water" />
		<tag k="ssr:stedsnr" v="923457" />
	</node>
	<node id="-103494" lat="63.6136249977" lon="8.73479722792">
		<tag k="name" v="Storvassdammen" />
		<tag k="natural" v="water" />
		<tag k="ssr:stedsnr" v="91953" />
		<tag k="water" v="lake" />
	</node>
	<node id="-103493" lat="63.6077583338" lon="8.7426666687">
		<tag k="name" v="Munkholmen" />
		<tag k="place" v="islet" />
		<tag k="ssr:stedsnr" v="91947" />
	</node>
	<node id="-105540" lat="63.4615666685" lon="8.61144722428">
		<tag k="name" v="Kulvikbekken" />
		<tag k="ssr:stedsnr" v="819231" />
		<tag k="waterway" v="stream" />
	</node>
	<node id="-103487" lat="63.618794442" lon="8.55289443909">
		<tag k="name" v="Holbekken" />
		<tag k="ssr:stedsnr" v="91902" />
		<tag k="waterway" v="stream" />
	</node>
	<node id="-105533" lat="63.5861333301" lon="8.4096972188">
		<tag k="name" v="Lomstjørna" />
		<tag k="natural" v="water" />
		<tag k="ssr:stedsnr" v="819037" />
	</node>
	<node id="-103481" lat="63.4480500033" lon="8.40621111441">
		<tag k="name" v="Ådalselva" />
		<tag k="ssr:stedsnr" v="91859" />
		<tag k="waterway" v="river" />
	</node>
	<node id="-103480" lat="63.6184777817" lon="8.96489445254">
		<tag k="name" v="Steinklovvatnet" />
		<tag k="natural" v="water" />
		<tag k="ssr:stedsnr" v="91857" />
		<tag k="water" v="lake" />
	</node>
	<node id="-103479" lat="63.5314000032" lon="8.85089166871">
		<tag k="name" v="Slåttadalsbekken" />
		<tag k="ssr:stedsnr" v="91852" />
		<tag k="waterway" v="stream" />
	</node>
	<node id="-101430" lat="63.5877055592" lon="9.12596666574">
		<tag k="name" v="Grønndalsbekken" />
		<tag k="ssr:stedsnr" v="516063" />
		<tag k="waterway" v="stream" />
	</node>
	<node id="-103467" lat="63.5069472179" lon="8.39865278084">
		<tag k="name" v="Sandbukten" />
		<tag k="natural" v="bay" />
		<tag k="ssr:stedsnr" v="91493" />
	</node>
	<node id="-103464" lat="63.4854250018" lon="8.43647500531">
		<tag k="name" v="Nørd Krokvassholmen" />
		<tag k="place" v="islet" />
		<tag k="ssr:stedsnr" v="91477" />
	</node>
	<node id="-103463" lat="63.5272444445" lon="8.42406389326">
		<tag k="name" v="Lauvviktjørna" />
		<tag k="natural" v="water" />
		<tag k="ssr:stedsnr" v="91468" />
	</node>
	<node id="-103462" lat="63.5145999977" lon="8.38997777286">
		<tag k="name" v="Breivatnet" />
		<tag k="natural" v="water" />
		<tag k="ssr:stedsnr" v="91454" />
		<tag k="water" v="lake" />
	</node>
	<node id="-105506" lat="63.6081861115" lon="8.64980833808">
		<tag k="name" v="Melkstadvatnet" />
		<tag k="natural" v="water" />
		<tag k="ssr:stedsnr" v="802917" />
	</node>
	<node id="-101408" lat="63.537094444" lon="8.62811944957">
		<tag k="name" v="Håvikvatnet" />
		<tag k="natural" v="water" />
		<tag k="ssr:stedsnr" v="515748" />
		<tag k="water" v="lake" />
	</node>
	<node id="-101407" lat="63.5489999969" lon="8.58147500238">
		<tag k="name" v="Midtdammen" />
		<tag k="natural" v="water" />
		<tag k="ssr:stedsnr" v="515738" />
		<tag k="water" v="lake" />
	</node>
	<node id="-101403" lat="63.5465916669" lon="8.93969165951">
		<tag k="name" v="Merkesbekken" />
		<tag k="ssr:stedsnr" v="515718" />
		<tag k="waterway" v="stream" />
	</node>
	<node id="-103447" lat="63.4344583297" lon="8.44191944674">
		<tag k="name" v="Langvasselva" />
		<tag k="ssr:stedsnr" v="91311" />
		<tag k="waterway" v="river" />
	</node>
	<node id="-105493" lat="63.5765055524" lon="8.68922777479">
		<tag k="name" v="Klingeråstjørn" />
		<tag k="natural" v="water" />
		<tag k="ssr:stedsnr" v="802669" />
	</node>
	<node id="-103443" lat="63.4399194406" lon="8.50456389863">
		<tag k="name" v="Litlseterelva" />
		<tag k="ssr:stedsnr" v="91286" />
		<tag k="waterway" v="river" />
	</node>
	<node id="-105488" lat="63.5115388895" lon="8.91981943649">
		<tag k="name" v="Ørnåstjørna" />
		<tag k="natural" v="water" />
		<tag k="ssr:stedsnr" v="802546" />
	</node>
	<node id="-105487" lat="63.5049861114" lon="8.88058332445">
		<tag k="fixme" v="multiple name tags, choose one and add the other to alt_name" />
		<tag k="name" v="Hamnalangvatnet;Langvatnet" />
		<tag k="natural" v="water" />
		<tag k="ssr:stedsnr" v="802545" />
	</node>
	<node id="-102669" lat="63.4652138851" lon="8.33938055705">
		<tag k="name" v="Seteråa" />
		<tag k="ssr:stedsnr" v="819353" />
		<tag k="waterway" v="river" />
	</node>
	<node id="-105479" lat="63.5558750022" lon="8.73087221525">
		<tag k="name" v="Sagelva" />
		<tag k="ssr:stedsnr" v="802490" />
		<tag k="waterway" v="stream" />
	</node>
	<node id="-101381" lat="63.5551527784" lon="8.87698611077">
		<tag k="name" v="Rundtjørna" />
		<tag k="natural" v="water" />
		<tag k="ssr:stedsnr" v="394808" />
	</node>
	<node id="-103427" lat="63.6151111123" lon="8.45689166194">
		<tag k="name" v="Aspatjørna" />
		<tag k="natural" v="water" />
		<tag k="ssr:stedsnr" v="91133" />
	</node>
	<node id="-103426" lat="63.6145666664" lon="8.45469167639">
		<tag k="name" v="Lomstjørna" />
		<tag k="natural" v="water" />
		<tag k="ssr:stedsnr" v="91132" />
	</node>
	<node id="-101377" lat="63.5134055589" lon="8.33312778659">
		<tag k="name" v="Liaosen" />
		<tag k="natural" v="bay" />
		<tag k="ssr:stedsnr" v="394356" />
	</node>
	<node id="-105469" lat="63.5703696703" lon="8.74511009688">
		<tag k="name" v="Fiskvatnet" />
		<tag k="natural" v="water" />
		<tag k="ssr:stedsnr" v="802448" />
	</node>
	<node id="-103418" lat="63.6528166683" lon="8.84832500047">
		<tag k="name" v="Valøyvatnet" />
		<tag k="natural" v="water" />
		<tag k="ssr:stedsnr" v="90988" />
		<tag k="water" v="lake" />
	</node>
	<node id="-105464" lat="63.5744694483" lon="8.76545834175">
		<tag k="name" v="Krokvatnet" />
		<tag k="natural" v="water" />
		<tag k="ssr:stedsnr" v="802411" />
	</node>
	<node id="-103414" lat="63.6073249995" lon="8.77775000394">
		<tag k="name" v="Langdalsvatnet" />
		<tag k="natural" v="water" />
		<tag k="ssr:stedsnr" v="90932" />
		<tag k="water" v="lake" />
	</node>
	<node id="-105460" lat="63.6357388892" lon="8.97898889865">
		<tag k="fixme" v="multiple name tags, choose one and add the other to alt_name" />
		<tag k="name" v="Jevikvatnet;Storvatnet" />
		<tag k="natural" v="water" />
		<tag k="ssr:stedsnr" v="802337" />
	</node>
	<node id="-103410" lat="63.6102222263" lon="8.87789166143">
		<tag k="name" v="Hammerstadvatnet" />
		<tag k="natural" v="water" />
		<tag k="ssr:stedsnr" v="90773" />
		<tag k="water" v="lake" />
	</node>
	<node id="-103251" lat="63.553266669" lon="9.38830555509">
		<tag k="name" v="Isdammen" />
		<tag k="natural" v="water" />
		<tag k="ssr:stedsnr" v="33726" />
	</node>
	<node id="-103406" lat="63.6016111144" lon="8.65560278476">
		<tag k="name" v="Storvikholmen" />
		<tag k="place" v="islet" />
		<tag k="ssr:stedsnr" v="90568" />
	</node>
	<node id="-103404" lat="63.5988333322" lon="8.67360832976">
		<tag k="name" v="Ørneståa" />
		<tag k="natural" v="cape" />
		<tag k="ssr:stedsnr" v="90557" />
	</node>
	<node id="-105451" lat="63.4361444432" lon="8.50651943874">
		<tag k="alt_name" v="Kvernvatnet" />
		<tag k="name" v="Kvernavatnet" />
		<tag k="natural" v="water" />
		<tag k="ssr:stedsnr" v="802079" />
		<tag k="water" v="lake" />
	</node>
	<node id="-105450" lat="63.4554805512" lon="8.3804361079">
		<tag k="alt_name" v="Lydalsbekken" />
		<tag k="name" v="Lydalselva" />
		<tag k="ssr:stedsnr" v="802030" />
		<tag k="waterway" v="stream" />
	</node>
	<node id="-105448" lat="63.5416583346" lon="8.61952499714">
		<tag k="name" v="Håvikvatnet" />
		<tag k="natural" v="water" />
		<tag k="ssr:stedsnr" v="802600" />
	</node>
	<node id="-105446" lat="63.5144916678" lon="8.63331111973">
		<tag k="alt_name" v="Langvatnet, indre" />
		<tag k="name" v="Indre Langvatnet" />
		<tag k="natural" v="water" />
		<tag k="ssr:stedsnr" v="802589" />
	</node>
	<node id="-101349" lat="63.5977250038" lon="8.71415555846">
		<tag k="alt_name" v="Selsåvatnet" />
		<tag k="name" v="Selsåsvatnet" />
		<tag k="natural" v="water" />
		<tag k="ssr:stedsnr" v="393556" />
		<tag k="water" v="lake" />
	</node>
	<node id="-105442" lat="63.503438891" lon="8.91409722878">
		<tag k="name" v="Marikolltjørna" />
		<tag k="natural" v="water" />
		<tag k="ssr:stedsnr" v="802003" />
	</node>
	<node id="-105441" lat="63.4834333308" lon="9.22090556044">
		<tag k="name" v="Stordalsvatnet" />
		<tag k="natural" v="water" />
		<tag k="ssr:stedsnr" v="802000" />
	</node>
	<node id="-105440" lat="63.494933336" lon="9.32783611377">
		<tag k="name" v="Øvre Vingvatnet" />
		<tag k="natural" v="water" />
		<tag k="ssr:stedsnr" v="801872" />
	</node>
	<node id="-105435" lat="63.4655916637" lon="8.36725555606">
		<tag k="name" v="Storkuvatnet" />
		<tag k="natural" v="water" />
		<tag k="ssr:stedsnr" v="801119" />
	</node>
	<node id="-101338" lat="63.6656111626" lon="9.06261265832">
		<tag k="alt_name" v="Vikavatnet" />
		<tag k="name" v="Vikvatnet" />
		<tag k="natural" v="water" />
		<tag k="ssr:stedsnr" v="499619" />
	</node>
	<node id="-105432" lat="63.4871000023" lon="8.68256665677">
		<tag k="name" v="Seterelva" />
		<tag k="ssr:stedsnr" v="801081" />
		<tag k="waterway" v="stream" />
	</node>
	<node id="-100516" lat="63.5748944424" lon="8.95142221692">
		<tag k="name" v="Laksvatnet" />
		<tag k="natural" v="water" />
		<tag k="ssr:stedsnr" v="255394" />
	</node>
	<node id="-103527" lat="63.5531388907" lon="9.10473610887">
		<tag k="name" v="Vågavassbekken" />
		<tag k="ssr:stedsnr" v="92476" />
		<tag k="waterway" v="stream" />
	</node>
	<node id="-101329" lat="63.5010305573" lon="8.32870833628">
		<tag k="name" v="Kvernavatnet" />
		<tag k="natural" v="water" />
		<tag k="ssr:stedsnr" v="498757" />
	</node>
	<node id="-103364" lat="63.6020805584" lon="8.64917778203">
		<tag k="name" v="Skognesvatnet" />
		<tag k="natural" v="water" />
		<tag k="ssr:stedsnr" v="74863" />
	</node>
	<node id="-100854" lat="63.4600444482" lon="8.33407500423">
		<tag k="name" v="Nørd Kvervatnet" />
		<tag k="natural" v="water" />
		<tag k="ssr:stedsnr" v="212319" />
		<tag k="water" v="lake" />
	</node>
	<node id="-101314" lat="63.5353472194" lon="8.52238610839">
		<tag k="name" v="Aunvatnet" />
		<tag k="natural" v="water" />
		<tag k="ssr:stedsnr" v="498598" />
	</node>
	<node id="-101313" lat="63.5491027765" lon="8.52145277664">
		<tag k="name" v="Tømmervikvatnet" />
		<tag k="natural" v="water" />
		<tag k="ssr:stedsnr" v="498590" />
	</node>
	<node id="-103358" lat="63.5907638875" lon="8.70551667629">
		<tag k="name" v="Rypatjørnan" />
		<tag k="natural" v="water" />
		<tag k="ssr:stedsnr" v="74619" />
	</node>
	<node id="-100511" lat="63.5227500002" lon="9.01191944372">
		<tag k="name" v="Terningsvatnet" />
		<tag k="natural" v="water" />
		<tag k="ssr:stedsnr" v="255435" />
		<tag k="water" v="lake" />
	</node>
	<node id="-105395" lat="63.4937483275" lon="9.18111798354">
		<tag k="name" v="Sundelva" />
		<tag k="ssr:stedsnr" v="761241" />
		<tag k="waterway" v="river" />
	</node>
	<node id="-105392" lat="63.4760722254" lon="9.25024999984">
		<tag k="name" v="Mellomskardtjørna" />
		<tag k="natural" v="water" />
		<tag k="ssr:stedsnr" v="761159" />
	</node>
	<node id="-105391" lat="63.4635222218" lon="9.24409445264">
		<tag k="name" v="Tenorlibekken" />
		<tag k="ssr:stedsnr" v="761150" />
		<tag k="waterway" v="stream" />
	</node>
	<node id="-103339" lat="63.5274111152" lon="8.6561444494">
		<tag k="name" v="Gaddnesvatnet" />
		<tag k="natural" v="water" />
		<tag k="ssr:stedsnr" v="74513" />
	</node>
	<node id="-103338" lat="63.5235616595" lon="8.41431309415">
		<tag k="name" v="Totjørnan" />
		<tag k="natural" v="water" />
		<tag k="old_name" v="Torvtjørna" />
		<tag k="ssr:stedsnr" v="74509" />
	</node>
	<node id="-105385" lat="63.4870583338" lon="8.71604721692">
		<tag k="name" v="Slåttadalsbekken" />
		<tag k="ssr:stedsnr" v="759635" />
		<tag k="waterway" v="stream" />
	</node>
	<node id="-105384" lat="63.4942138893" lon="8.85976667231">
		<tag k="name" v="Ytter Grastjørna" />
		<tag k="natural" v="water" />
		<tag k="ssr:stedsnr" v="759700" />
	</node>
	<node id="-103921" lat="63.4930194465" lon="8.81964166637">
		<tag k="alt_name" v="Elsfjellvatnet" />
		<tag k="name" v="Elgsfjellvatnet" />
		<tag k="natural" v="water" />
		<tag k="ssr:stedsnr" v="195464" />
	</node>
	<node id="-103331" lat="63.5125611095" lon="8.93854721764">
		<tag k="name" v="Rotthaugtjørnan" />
		<tag k="natural" v="water" />
		<tag k="ssr:stedsnr" v="74476" />
	</node>
	<node id="-101281" lat="63.5680749964" lon="8.79780554674">
		<tag k="name" v="Storvatnet" />
		<tag k="natural" v="water" />
		<tag k="ssr:stedsnr" v="498207" />
		<tag k="water" v="lake" />
	</node>
	<node id="-101280" lat="63.5159777803" lon="9.34706944708">
		<tag k="name" v="Litlvatnet" />
		<tag k="natural" v="water" />
		<tag k="ssr:stedsnr" v="498185" />
	</node>
	<node id="-101872" lat="63.6329194459" lon="8.90769165963">
		<tag k="name" v="Kvernhusvatnet" />
		<tag k="natural" v="water" />
		<tag k="ssr:stedsnr" v="558271" />
	</node>
	<node id="-103325" lat="63.5587138928" lon="8.81184166529">
		<tag k="alt_name" v="Rørtjørna" />
		<tag k="name" v="Røyrtjørna" />
		<tag k="natural" v="water" />
		<tag k="ssr:stedsnr" v="74374" />
	</node>
	<node id="-101276" lat="63.4604944412" lon="8.35567499384">
		<tag k="name" v="Storkuvasselva" />
		<tag k="ssr:stedsnr" v="498133" />
		<tag k="waterway" v="stream" />
	</node>
	<node id="-101275" lat="63.4583855092" lon="8.33289806329">
		<tag k="name" v="Kvernavatnet" />
		<tag k="natural" v="water" />
		<tag k="ssr:stedsnr" v="498129" />
	</node>
	<node id="-105368" lat="63.5764027817" lon="8.55566945184">
		<tag k="name" v="Auster Bakvatnet" />
		<tag k="natural" v="water" />
		<tag k="ssr:stedsnr" v="758993" />
		<tag k="water" v="lake" />
	</node>
	<node id="-100526" lat="63.5170638872" lon="8.95139999343">
		<tag k="name" v="Svartdalstjørna" />
		<tag k="natural" v="water" />
		<tag k="ssr:stedsnr" v="255494" />
	</node>
	<node id="-105365" lat="63.5772027777" lon="8.52720554555">
		<tag k="name" v="Litlotervatnet" />
		<tag k="natural" v="water" />
		<tag k="ssr:stedsnr" v="758983" />
		<tag k="water" v="lake" />
	</node>
	<node id="-105363" lat="63.5583611073" lon="8.69662499607">
		<tag k="alt_name" v="Volnestjørna" />
		<tag k="name" v="Vollanestjørna" />
		<tag k="natural" v="water" />
		<tag k="ssr:stedsnr" v="758970" />
	</node>
	<node id="-101266" lat="63.4435240096" lon="8.44647458168">
		<tag k="name" v="Rørtjørnvatnet" />
		<tag k="natural" v="water" />
		<tag k="ssr:stedsnr" v="497002" />
	</node>
	<node id="-105356" lat="63.4939361106" lon="8.83145555973">
		<tag k="name" v="Inner Elsfjelltjørna" />
		<tag k="natural" v="water" />
		<tag k="ssr:stedsnr" v="758845" />
	</node>
	<node id="-103307" lat="63.4936388918" lon="8.4050138925">
		<tag k="name" v="Krokvasselva" />
		<tag k="ssr:stedsnr" v="73888" />
		<tag k="waterway" v="stream" />
	</node>
	<node id="-105353" lat="63.5352666667" lon="9.00189721445">
		<tag k="name" v="Inner Bjørtjørna" />
		<tag k="natural" v="water" />
		<tag k="ssr:stedsnr" v="758830" />
	</node>
	<node id="-103302" lat="63.5391333298" lon="9.04157499012">
		<tag k="name" v="Krokvatnet" />
		<tag k="natural" v="water" />
		<tag k="ssr:stedsnr" v="73474" />
	</node>
	<node id="-103301" lat="63.5375527791" lon="9.09793055949">
		<tag k="name" v="Strandavatnet" />
		<tag k="natural" v="water" />
		<tag k="ssr:stedsnr" v="73470" />
	</node>
	<node id="-105348" lat="63.6046416629" lon="8.82803611598">
		<tag k="name" v="Eindalsbekken" />
		<tag k="ssr:stedsnr" v="758810" />
		<tag k="waterway" v="stream" />
	</node>
	<node id="-103299" lat="63.5274583377" lon="8.72870833785">
		<tag k="name" v="Skrådalsvatnet" />
		<tag k="natural" v="water" />
		<tag k="ssr:stedsnr" v="73467" />
	</node>
	<node id="-103298" lat="63.5237277738" lon="8.72168610947">
		<tag k="name" v="Jakttjørna" />
		<tag k="natural" v="water" />
		<tag k="ssr:stedsnr" v="73465" />
	</node>
	<node id="-101249" lat="63.497027778" lon="8.82905277848">
		<tag k="name" v="Ytter Elsfjelltjørna" />
		<tag k="natural" v="water" />
		<tag k="ssr:stedsnr" v="334824" />
	</node>
	<node id="-103296" lat="63.5234472217" lon="8.93578889527">
		<tag k="name" v="Jaktvatnet" />
		<tag k="natural" v="water" />
		<tag k="ssr:stedsnr" v="73459" />
	</node>
	<node id="-105343" lat="63.5522277807" lon="8.89009166938">
		<tag k="name" v="Rørtjørna" />
		<tag k="natural" v="water" />
		<tag k="ssr:stedsnr" v="758795" />
	</node>
	<node id="-103293" lat="63.5869861135" lon="9.04392221551">
		<tag k="name" v="Langvatnet" />
		<tag k="natural" v="water" />
		<tag k="ssr:stedsnr" v="73351" />
	</node>
	<node id="-102207" lat="63.5460027821" lon="8.91729444637">
		<tag k="name" v="Tverrelva" />
		<tag k="ssr:stedsnr" v="880833" />
		<tag k="waterway" v="river" />
	</node>
	<node id="-103285" lat="63.641558333" lon="9.08666112018">
		<tag k="name" v="Hauklivatnet" />
		<tag k="natural" v="water" />
		<tag k="ssr:stedsnr" v="73252" />
	</node>
	<node id="-105332" lat="63.6168638896" lon="8.67388888267">
		<tag k="name" v="Langvatnet" />
		<tag k="natural" v="water" />
		<tag k="ssr:stedsnr" v="758621" />
		<tag k="water" v="lake" />
	</node>
	<node id="-101234" lat="63.4992055556" lon="8.83595554744">
		<tag k="name" v="Bjørkvasslielva" />
		<tag k="ssr:stedsnr" v="334716" />
		<tag k="waterway" v="river" />
	</node>
	<node id="-105328" lat="63.5588361088" lon="8.79394999994">
		<tag k="name" v="Gammelsagtjørna" />
		<tag k="natural" v="water" />
		<tag k="ssr:stedsnr" v="758790" />
	</node>
	<node id="-103277" lat="63.4537083321" lon="8.53830555584">
		<tag k="name" v="Kudalsvatna" />
		<tag k="natural" v="water" />
		<tag k="ssr:stedsnr" v="73024" />
		<tag k="water" v="lake" />
	</node>
	<node id="-103276" lat="63.4444583314" lon="8.55060278146">
		<tag k="name" v="Kuhallarvatnet" />
		<tag k="natural" v="water" />
		<tag k="ssr:stedsnr" v="73007" />
	</node>
	<node id="-101368" lat="63.6432583307" lon="9.07677500828">
		<tag k="name" v="Brekktjørna" />
		<tag k="natural" v="water" />
		<tag k="ssr:stedsnr" v="394062" />
	</node>
	<node id="-105320" lat="63.5141027821" lon="8.62851111935">
		<tag k="name" v="Inner Langvatnet" />
		<tag k="natural" v="water" />
		<tag k="ssr:stedsnr" v="758744" />
		<tag k="water" v="lake" />
	</node>
	<node id="-101223" lat="63.4426111099" lon="8.47802221574">
		<tag k="name" v="Auster Smådalsvatnet" />
		<tag k="natural" v="water" />
		<tag k="ssr:stedsnr" v="334248" />
		<tag k="water" v="lake" />
	</node>
	<node id="-101862" lat="63.5462277762" lon="9.3606444432">
		<tag k="name" v="Storhammarbekken" />
		<tag k="ssr:stedsnr" v="700696" />
		<tag k="waterway" v="stream" />
	</node>
	<node id="-105311" lat="63.5028333374" lon="8.35264722049">
		<tag k="name" v="Trolltjørna" />
		<tag k="natural" v="water" />
		<tag k="ssr:stedsnr" v="758398" />
	</node>
	<node id="-105309" lat="63.4415222202" lon="8.42614165697">
		<tag k="name" v="Dalavasselva" />
		<tag k="ssr:stedsnr" v="758352" />
		<tag k="waterway" v="stream" />
	</node>
	<node id="-105307" lat="63.5030055525" lon="8.93541666419">
		<tag k="name" v="Hamnadalsbekken" />
		<tag k="ssr:stedsnr" v="758571" />
		<tag k="waterway" v="stream" />
	</node>
	<node id="-103257" lat="63.5757315912" lon="8.42959907523">
		<tag k="name" v="Tjønnauna" />
		<tag k="natural" v="water" />
		<tag k="ssr:stedsnr" v="36238" />
	</node>
	<node id="-105304" lat="63.6341138908" lon="8.67874445049">
		<tag k="name" v="Litloløyvatnet" />
		<tag k="natural" v="water" />
		<tag k="ssr:stedsnr" v="758552" />
		<tag k="water" v="lake" />
	</node>
	<node id="-105300" lat="63.4940750006" lon="8.38839166406">
		<tag k="name" v="Rørbukta" />
		<tag k="natural" v="bay" />
		<tag k="ssr:stedsnr" v="758499" />
	</node>
	<node id="-105299" lat="63.4912750021" lon="8.39720278367">
		<tag k="name" v="Langneselva" />
		<tag k="ssr:stedsnr" v="758498" />
		<tag k="waterway" v="river" />
	</node>
	<node id="-103250" lat="63.5251222261" lon="9.32696111252">
		<tag k="name" v="Halsaelva" />
		<tag k="ssr:stedsnr" v="33710" />
		<tag k="waterway" v="river" />
	</node>
	<node id="-101199" lat="63.535130555" lon="8.71459723045">
		<tag k="name" v="Otertjørna" />
		<tag k="natural" v="water" />
		<tag k="ssr:stedsnr" v="316602" />
	</node>
	<node id="-103244" lat="63.4948777755" lon="9.22917222105">
		<tag k="name" v="Trefallneset" />
		<tag k="natural" v="cape" />
		<tag k="ssr:stedsnr" v="33268" />
	</node>
	<node id="-101193" lat="63.4978386099" lon="8.78248758052">
		<tag k="alt_name" v="Damvatnet, l" />
		<tag k="name" v="Litle Damvatnet" />
		<tag k="natural" v="water" />
		<tag k="ssr:stedsnr" v="316509" />
	</node>
	<node id="-101192" lat="63.4993500023" lon="8.84296389658">
		<tag k="name" v="Bjørklivatnet" />
		<tag k="natural" v="water" />
		<tag k="ssr:stedsnr" v="316507" />
	</node>
	<node id="-103232" lat="63.4623694434" lon="9.22267499679">
		<tag k="name" v="Brannbekken" />
		<tag k="ssr:stedsnr" v="33161" />
		<tag k="waterway" v="stream" />
	</node>
	<node id="-103231" lat="63.4509055518" lon="9.25125000163">
		<tag k="name" v="Klubb-bekken" />
		<tag k="ssr:stedsnr" v="33159" />
		<tag k="waterway" v="stream" />
	</node>
	<node id="-103230" lat="63.4782194487" lon="9.2808250082">
		<tag k="name" v="Ljøsdalen" />
		<tag k="ssr:stedsnr" v="33152" />
		<tag k="waterway" v="stream" />
	</node>
	<node id="-101181" lat="63.4702833375" lon="8.60281388917">
		<tag k="alt_name" v="Storbrattåa" />
		<tag k="fixme" v="multiple name tags, choose one and add the other to alt_name" />
		<tag k="name" v="Brattåa;Trollhaugbekken" />
		<tag k="ssr:stedsnr" v="315106" />
		<tag k="waterway" v="stream" />
	</node>
	<node id="-101180" lat="63.4448055573" lon="8.4690611092">
		<tag k="alt_name" v="Brastivatnet" />
		<tag k="name" v="Brattstivatnet" />
		<tag k="natural" v="water" />
		<tag k="ssr:stedsnr" v="315002" />
	</node>
	<node id="-103223" lat="63.5012388882" lon="8.85642778709">
		<tag k="name" v="Marikollbekken" />
		<tag k="ssr:stedsnr" v="31739" />
		<tag k="waterway" v="stream" />
	</node>
	<node id="-103221" lat="63.5504944413" lon="9.07640832759">
		<tag k="name" v="Sandvassostjørna" />
		<tag k="natural" v="water" />
		<tag k="ssr:stedsnr" v="31731" />
	</node>
	<node id="-103216" lat="63.5235500034" lon="9.00612778067">
		<tag k="name" v="Finn-neset" />
		<tag k="natural" v="cape" />
		<tag k="ssr:stedsnr" v="31716" />
	</node>
	<node id="-105263" lat="63.5838194426" lon="8.39032222325">
		<tag k="name" v="Tuvvatna" />
		<tag k="natural" v="water" />
		<tag k="ssr:stedsnr" v="758028" />
		<tag k="water" v="lake" />
	</node>
	<node id="-103212" lat="63.5613000017" lon="8.91647222473">
		<tag k="name" v="Larsskogbekken" />
		<tag k="ssr:stedsnr" v="31677" />
		<tag k="waterway" v="stream" />
	</node>
	<node id="-103211" lat="63.5743055538" lon="8.96857221788">
		<tag k="name" v="Makrellvatnet" />
		<tag k="natural" v="water" />
		<tag k="ssr:stedsnr" v="31673" />
		<tag k="water" v="lake" />
	</node>
	<node id="-101162" lat="63.4767305525" lon="9.27707221921">
		<tag k="name" v="Mellombekken" />
		<tag k="ssr:stedsnr" v="276155" />
		<tag k="waterway" v="stream" />
	</node>
	<node id="-105257" lat="63.5759611156" lon="8.4005277725">
		<tag k="name" v="Djupdalsvatnet" />
		<tag k="natural" v="water" />
		<tag k="ssr:stedsnr" v="758098" />
		<tag k="water" v="lake" />
	</node>
	<node id="-105256" lat="63.5793972236" lon="8.39271666954">
		<tag k="name" v="Ytter Olderskogvatnet" />
		<tag k="natural" v="water" />
		<tag k="ssr:stedsnr" v="758096" />
		<tag k="water" v="lake" />
	</node>
	<node id="-101158" lat="63.529050003" lon="8.96964166301">
		<tag k="name" v="Ytter Heilfjelltjørna" />
		<tag k="natural" v="water" />
		<tag k="ssr:stedsnr" v="274658" />
	</node>
	<node id="-103202" lat="63.563105555" lon="9.16701111234">
		<tag k="name" v="Lomstjørna" />
		<tag k="natural" v="water" />
		<tag k="ssr:stedsnr" v="31345" />
	</node>
	<node id="-103199" lat="63.4856805589" lon="8.88651944695">
		<tag k="name" v="Bekkviktjørnbekken" />
		<tag k="ssr:stedsnr" v="31308" />
		<tag k="waterway" v="stream" />
	</node>
	<node id="-103196" lat="63.5579472188" lon="9.08282499173">
		<tag k="name" v="Hivassbekken" />
		<tag k="ssr:stedsnr" v="31277" />
		<tag k="waterway" v="stream" />
	</node>
	<node id="-103195" lat="63.474466664" lon="8.66853889391">
		<tag k="name" v="Laksåa" />
		<tag k="ssr:stedsnr" v="31273" />
		<tag k="waterway" v="river" />
	</node>
	<node id="-105240" lat="63.5381722238" lon="8.70917777947">
		<tag k="name" v="Svarttjørna" />
		<tag k="natural" v="water" />
		<tag k="ssr:stedsnr" v="741636" />
	</node>
	<node id="-103186" lat="63.6308722182" lon="8.77516944105">
		<tag k="name" v="Svennsgjerdvatnet" />
		<tag k="natural" v="water" />
		<tag k="ssr:stedsnr" v="30971" />
		<tag k="water" v="lake" />
	</node>
	<node id="-103184" lat="63.6074111126" lon="8.79603334242">
		<tag k="name" v="Mørkdalstjørna" />
		<tag k="natural" v="water" />
		<tag k="ssr:stedsnr" v="30960" />
	</node>
	<node id="-101135" lat="63.6000361083" lon="8.57506943951">
		<tag k="name" v="Svanskoran" />
		<tag k="natural" v="water" />
		<tag k="ssr:stedsnr" v="273921" />
		<tag k="water" v="lake" />
	</node>
	<node id="-105230" lat="63.5726722219" lon="8.56781944392">
		<tag k="alt_name" v="Stardamvatnet" />
		<tag k="name" v="Stordamvatnet" />
		<tag k="natural" v="water" />
		<tag k="ssr:stedsnr" v="741685" />
	</node>
	<node id="-103181" lat="63.5741611076" lon="8.54685833719">
		<tag k="name" v="Kvitheivatnet" />
		<tag k="natural" v="water" />
		<tag k="ssr:stedsnr" v="30945" />
		<tag k="water" v="lake" />
	</node>
	<node id="-105225" lat="63.5015166681" lon="8.86322222289">
		<tag k="name" v="Holmevatnet" />
		<tag k="natural" v="water" />
		<tag k="ssr:stedsnr" v="741543" />
	</node>
	<node id="-105224" lat="63.529086109" lon="8.53135832529">
		<tag k="name" v="Skumfosselva" />
		<tag k="ssr:stedsnr" v="741596" />
		<tag k="waterway" v="river" />
	</node>
	<node id="-105221" lat="63.5140527801" lon="8.80263054841">
		<tag k="alt_name" v="Damvatnet, store" />
		<tag k="name" v="Store Damvatnet" />
		<tag k="natural" v="water" />
		<tag k="ssr:stedsnr" v="741581" />
	</node>
	<node id="-105220" lat="63.5186833376" lon="8.80215555166">
		<tag k="alt_name" v="Damvatnet, l" />
		<tag k="name" v="Litle Damvatnet" />
		<tag k="natural" v="water" />
		<tag k="ssr:stedsnr" v="741578" />
	</node>
	<node id="-105219" lat="63.5706888926" lon="9.03423055391">
		<tag k="name" v="Innerdalsbekken" />
		<tag k="ssr:stedsnr" v="741450" />
		<tag k="waterway" v="stream" />
	</node>
	<node id="-105214" lat="63.5925138912" lon="9.04084722018">
		<tag k="name" v="Litlvatnet" />
		<tag k="natural" v="water" />
		<tag k="ssr:stedsnr" v="741410" />
	</node>
	<node id="-101116" lat="63.4977416686" lon="8.39648333324">
		<tag k="name" v="Einevikern" />
		<tag k="natural" v="bay" />
		<tag k="ssr:stedsnr" v="273452" />
	</node>
	<node id="-103162" lat="63.6413833344" lon="8.94183054675">
		<tag k="name" v="Anndalbekken" />
		<tag k="ssr:stedsnr" v="30862" />
		<tag k="waterway" v="stream" />
	</node>
	<node id="-105209" lat="63.5274194484" lon="8.93043333539">
		<tag k="name" v="Jakttjørnan" />
		<tag k="natural" v="water" />
		<tag k="ssr:stedsnr" v="741516" />
	</node>
	<node id="-105207" lat="63.5499250017" lon="8.7262416626">
		<tag k="name" v="Kvernavatnet" />
		<tag k="natural" v="water" />
		<tag k="ssr:stedsnr" v="741500" />
	</node>
	<node id="-105204" lat="63.5458333306" lon="8.99189165983">
		<tag k="name" v="Stiksdalsvatnet" />
		<tag k="natural" v="water" />
		<tag k="ssr:stedsnr" v="741488" />
		<tag k="water" v="lake" />
	</node>
	<node id="-103155" lat="63.6128416663" lon="8.83098333053">
		<tag k="name" v="Melkstadbekken" />
		<tag k="ssr:stedsnr" v="30805" />
		<tag k="waterway" v="stream" />
	</node>
	<node id="-105202" lat="63.5831694443" lon="9.06968054967">
		<tag k="name" v="Kvernabekken" />
		<tag k="ssr:stedsnr" v="741476" />
		<tag k="waterway" v="stream" />
	</node>
	<node id="-105201" lat="63.5825138928" lon="8.8667416752">
		<tag k="name" v="Jamtfjelltjørna" />
		<tag k="natural" v="water" />
		<tag k="ssr:stedsnr" v="741471" />
	</node>
	<node id="-105200" lat="63.5775694489" lon="8.99993889131">
		<tag k="alt_name" v="Kalklovvatnet" />
		<tag k="name" v="Kaldklovvatnet" />
		<tag k="natural" v="water" />
		<tag k="ssr:stedsnr" v="741468" />
	</node>
	<node id="-101160" lat="63.4929861131" lon="8.85384444964">
		<tag k="name" v="Inner Grastjørna" />
		<tag k="natural" v="water" />
		<tag k="ssr:stedsnr" v="274707" />
	</node>
	<node id="-105198" lat="63.6078222187" lon="8.95314166924">
		<tag k="name" v="Fillvatnet" />
		<tag k="natural" v="water" />
		<tag k="ssr:stedsnr" v="741382" />
	</node>
	<node id="-101101" lat="63.5821083314" lon="8.80601944506">
		<tag k="name" v="Kropplibekken" />
		<tag k="ssr:stedsnr" v="272758" />
		<tag k="waterway" v="stream" />
	</node>
	<node id="-105191" lat="63.4394500037" lon="8.4835305538">
		<tag k="name" v="Nøkkvatnet" />
		<tag k="natural" v="water" />
		<tag k="ssr:stedsnr" v="741021" />
	</node>
	<node id="-105190" lat="63.4798166659" lon="9.23237778445">
		<tag k="alt_name" v="Rottemstjørnan" />
		<tag k="name" v="Rottemtjørna" />
		<tag k="natural" v="water" />
		<tag k="ssr:stedsnr" v="740998" />
	</node>
	<node id="-101093" lat="63.5077222234" lon="8.34856388142">
		<tag k="name" v="Stokkhofsbekken" />
		<tag k="ssr:stedsnr" v="272354" />
		<tag k="waterway" v="stream" />
	</node>
	<node id="-105185" lat="63.4594555601" lon="9.25271388506">
		<tag k="name" v="Rundvatnet" />
		<tag k="natural" v="water" />
		<tag k="ssr:stedsnr" v="740947" />
	</node>
	<node id="-101088" lat="63.4509916625" lon="8.5783111136">
		<tag k="name" v="Vikabekken" />
		<tag k="ssr:stedsnr" v="272215" />
		<tag k="waterway" v="stream" />
	</node>
	<node id="-103135" lat="63.5985694487" lon="8.69679722005">
		<tag k="name" v="Vollaelva" />
		<tag k="ssr:stedsnr" v="30549" />
		<tag k="waterway" v="river" />
	</node>
	<node id="-103134" lat="63.6007111129" lon="8.68122500285">
		<tag k="name" v="Leikvamvatnet" />
		<tag k="natural" v="water" />
		<tag k="ssr:stedsnr" v="30547" />
		<tag k="water" v="lake" />
	</node>
	<node id="-105175" lat="63.4613277793" lon="8.55601388821">
		<tag k="name" v="Pølvatnet" />
		<tag k="natural" v="water" />
		<tag k="ssr:stedsnr" v="740096" />
	</node>
	<node id="-105173" lat="63.451300228" lon="8.51668813266">
		<tag k="name" v="Seterlivatnet" />
		<tag k="natural" v="water" />
		<tag k="ssr:stedsnr" v="740014" />
		<tag k="water" v="lake" />
	</node>
	<node id="-101076" lat="63.4571472263" lon="9.24461389579">
		<tag k="name" v="Grøndalstjørna" />
		<tag k="natural" v="water" />
		<tag k="ssr:stedsnr" v="458150" />
	</node>
	<node id="-103120" lat="63.5051583363" lon="8.35489445318">
		<tag k="name" v="Leviktjørna" />
		<tag k="natural" v="water" />
		<tag k="ssr:stedsnr" v="30360" />
	</node>
	<node id="-103119" lat="63.4689861122" lon="8.34906111504">
		<tag k="name" v="Ner Melktjørna" />
		<tag k="natural" v="water" />
		<tag k="ssr:stedsnr" v="30338" />
	</node>
	<node id="-101070" lat="63.5258273206" lon="9.26911262184">
		<tag k="name" v="Stordalsbekken" />
		<tag k="ssr:stedsnr" v="457174" />
		<tag k="waterway" v="stream" />
	</node>
	<node id="-103115" lat="63.4409861074" lon="8.44391389441">
		<tag k="name" v="Rørtjørna" />
		<tag k="natural" v="water" />
		<tag k="ssr:stedsnr" v="30309" />
	</node>
	<node id="-102860" lat="63.619177778" lon="8.96710833666">
		<tag k="name" v="Steinklovvatnet" />
		<tag k="natural" v="water" />
		<tag k="ssr:stedsnr" v="941842" />
		<tag k="water" v="lake" />
	</node>
	<node id="-103110" lat="63.4398333331" lon="8.3908972283">
		<tag k="name" v="Rusebekken" />
		<tag k="ssr:stedsnr" v="30268" />
		<tag k="waterway" v="stream" />
	</node>
	<node id="-103109" lat="63.6369527745" lon="9.08757777816">
		<tag k="name" v="Havai" />
		<tag k="place" v="island" />
		<tag k="ssr:stedsnr" v="30263" />
	</node>
	<node id="-101494" lat="63.5582638928" lon="8.99893055666">
		<tag k="name" v="Ytter Høybutjørna" />
		<tag k="natural" v="water" />
		<tag k="ssr:stedsnr" v="516667" />
	</node>
	<node id="-103103" lat="63.4633555535" lon="8.60985555893">
		<tag k="name" v="Kulvikvatnet" />
		<tag k="natural" v="water" />
		<tag k="ssr:stedsnr" v="30218" />
		<tag k="water" v="lake" />
	</node>
	<node id="-103097" lat="63.5768916692" lon="8.64862500789">
		<tag k="name" v="Skipnesvatnet" />
		<tag k="natural" v="water" />
		<tag k="ssr:stedsnr" v="30780" />
		<tag k="water" v="lake" />
	</node>
	<node id="-101048" lat="63.5024944453" lon="8.9674583394">
		<tag k="name" v="Hamnaelva" />
		<tag k="ssr:stedsnr" v="456318" />
		<tag k="waterway" v="river" />
	</node>
	<node id="-105143" lat="63.4954527792" lon="9.24544166727">
		<tag k="name" v="Lauvvikbekken" />
		<tag k="ssr:stedsnr" v="639259" />
		<tag k="waterway" v="stream" />
	</node>
	<node id="-101046" lat="63.5731416684" lon="9.07196111911">
		<tag k="name" v="Dikvasslitjørna" />
		<tag k="natural" v="water" />
		<tag k="ssr:stedsnr" v="456276" />
	</node>
	<node id="-101045" lat="63.4815888852" lon="8.68640832941">
		<tag k="name" v="Seterelva" />
		<tag k="ssr:stedsnr" v="456271" />
		<tag k="waterway" v="river" />
	</node>
	<node id="-105140" lat="63.4762555566" lon="9.27947778643">
		<tag k="name" v="Sagbekken" />
		<tag k="ssr:stedsnr" v="639146" />
		<tag k="waterway" v="stream" />
	</node>
	<node id="-103539" lat="63.5191194487" lon="9.02242778747">
		<tag k="name" v="Furuneset" />
		<tag k="natural" v="cape" />
		<tag k="ssr:stedsnr" v="92707" />
	</node>
	<node id="-102856" lat="63.5619388848" lon="8.86730278455">
		<tag k="name" v="Godmattjørna" />
		<tag k="natural" v="water" />
		<tag k="ssr:stedsnr" v="941787" />
	</node>
	<node id="-105130" lat="63.5295138854" lon="8.94040555531">
		<tag k="name" v="Auster Jakttjørna" />
		<tag k="natural" v="water" />
		<tag k="ssr:stedsnr" v="637859" />
	</node>
	<node id="-101030" lat="63.6097416623" lon="8.7230805653">
		<tag k="name" v="Juulbukta" />
		<tag k="natural" v="bay" />
		<tag k="ssr:stedsnr" v="455926" />
	</node>
	<node id="-101489" lat="63.6179305523" lon="8.69226944021">
		<tag k="name" v="Martintjørna" />
		<tag k="natural" v="water" />
		<tag k="ssr:stedsnr" v="516575" />
	</node>
	<node id="-105124" lat="63.5587666655" lon="8.71262500472">
		<tag k="name" v="Holdalsbekken" />
		<tag k="ssr:stedsnr" v="637755" />
		<tag k="waterway" v="stream" />
	</node>
	<node id="-100884" lat="63.5251472197" lon="9.10821667185">
		<tag k="name" v="Soppbekken" />
		<tag k="ssr:stedsnr" v="213406" />
		<tag k="waterway" v="stream" />
	</node>
	<node id="-105121" lat="63.5418222193" lon="9.08876667243">
		<tag k="name" v="Auretjørna" />
		<tag k="natural" v="water" />
		<tag k="ssr:stedsnr" v="637739" />
	</node>
	<node id="-105118" lat="63.4936250013" lon="8.86421389416">
		<tag k="name" v="Grastjørnbekken" />
		<tag k="ssr:stedsnr" v="637706" />
		<tag k="waterway" v="stream" />
	</node>
	<node id="-105115" lat="63.4883194441" lon="8.75528055735">
		<tag k="name" v="Eklingdalsbekken" />
		<tag k="ssr:stedsnr" v="637665" />
		<tag k="waterway" v="stream" />
	</node>
	<node id="-105113" lat="63.4892416688" lon="8.43088333472">
		<tag k="name" v="Mellomelva" />
		<tag k="ssr:stedsnr" v="637493" />
		<tag k="waterway" v="river" />
	</node>
	<node id="-101016" lat="63.5202277748" lon="8.94814444173">
		<tag k="name" v="Litlsvartdalstjørna" />
		<tag k="natural" v="water" />
		<tag k="ssr:stedsnr" v="455867" />
	</node>
	<node id="-103062" lat="63.5971694484" lon="8.69569444989">
		<tag k="name" v="Vollelva" />
		<tag k="ssr:stedsnr" v="13872" />
		<tag k="waterway" v="stream" />
	</node>
	<node id="-103060" lat="63.640080556" lon="8.71531943862">
		<tag k="name" v="Kjerkvatnet" />
		<tag k="natural" v="water" />
		<tag k="ssr:stedsnr" v="13972" />
	</node>
	<node id="-105106" lat="63.528780555" lon="9.03449999049">
		<tag k="name" v="Svanstjørna" />
		<tag k="natural" v="water" />
		<tag k="ssr:stedsnr" v="637456" />
	</node>
	<node id="-105105" lat="63.5159277808" lon="8.40257500678">
		<tag k="name" v="Sagelva" />
		<tag k="ssr:stedsnr" v="637454" />
		<tag k="waterway" v="river" />
	</node>
	<node id="-101001" lat="63.5893944428" lon="8.85809443623">
		<tag k="name" v="Tobbdalsbekken" />
		<tag k="ssr:stedsnr" v="455774" />
		<tag k="waterway" v="stream" />
	</node>
	<node id="-105096" lat="63.5529166656" lon="9.10042499216">
		<tag k="name" v="Liabekken" />
		<tag k="ssr:stedsnr" v="637520" />
		<tag k="waterway" v="stream" />
	</node>
	<node id="-105088" lat="63.4419361149" lon="8.53631110343">
		<tag k="name" v="Ytter Sandvassbukta" />
		<tag k="natural" v="bay" />
		<tag k="ssr:stedsnr" v="637249" />
	</node>
	<node id="-100800" lat="63.4751833301" lon="8.50032777946">
		<tag k="alt_name" v="Mørkedalsvatnet" />
		<tag k="name" v="Mørkdalsvatnet" />
		<tag k="natural" v="water" />
		<tag k="ssr:stedsnr" v="194112" />
		<tag k="water" v="lake" />
	</node>
	<node id="-105086" lat="63.4912277778" lon="8.36117222258">
		<tag k="name" v="Kovassbekken" />
		<tag k="ssr:stedsnr" v="637370" />
		<tag k="waterway" v="stream" />
	</node>
	<node id="-103037" lat="63.5096694469" lon="8.47891111718">
		<tag k="name" v="Gaddholvatnet" />
		<tag k="natural" v="water" />
		<tag k="ssr:stedsnr" v="13730" />
	</node>
	<node id="-102506" lat="63.4802305588" lon="8.3955944471">
		<tag k="name" v="Svarttjørnbekken" />
		<tag k="ssr:stedsnr" v="758513" />
		<tag k="waterway" v="stream" />
	</node>
	<node id="-103032" lat="63.5291388862" lon="9.05921389867">
		<tag k="name" v="Brattåstjørna" />
		<tag k="natural" v="water" />
		<tag k="ssr:stedsnr" v="13471" />
	</node>
	<node id="-103029" lat="63.5541861079" lon="9.03157499294">
		<tag k="name" v="Tjørndalstjørnan" />
		<tag k="natural" v="water" />
		<tag k="ssr:stedsnr" v="13453" />
	</node>
	<node id="-103028" lat="63.5577555566" lon="8.90223889662">
		<tag k="name" v="Gåsdalstjørna" />
		<tag k="natural" v="water" />
		<tag k="ssr:stedsnr" v="13451" />
	</node>
	<node id="-103528" lat="63.544958337" lon="9.11663888821">
		<tag k="name" v="Strandaelva" />
		<tag k="ssr:stedsnr" v="92483" />
		<tag k="waterway" v="stream" />
	</node>
	<node id="-103020" lat="63.6139249972" lon="8.82412222984">
		<tag k="alt_name" v="Auntjørna" />
		<tag k="name" v="Aunvatn" />
		<tag k="natural" v="water" />
		<tag k="ssr:stedsnr" v="13364" />
	</node>
	<node id="-105065" lat="63.5398333311" lon="8.46419166756">
		<tag k="name" v="Steintjørna" />
		<tag k="natural" v="water" />
		<tag k="ssr:stedsnr" v="637002" />
	</node>
	<node id="-103016" lat="63.5382750039" lon="8.53376389775">
		<tag k="name" v="Grytelva" />
		<tag k="ssr:stedsnr" v="13561" />
		<tag k="waterway" v="river" />
	</node>
	<node id="-103015" lat="63.5323277811" lon="8.4607416568">
		<tag k="name" v="Stampvatnet" />
		<tag k="natural" v="water" />
		<tag k="ssr:stedsnr" v="13560" />
	</node>
	<node id="-100964" lat="63.5185444454" lon="8.40882500446">
		<tag k="name" v="Storsandvatnet" />
		<tag k="natural" v="water" />
		<tag k="ssr:stedsnr" v="455404" />
		<tag k="water" v="lake" />
	</node>
	<node id="-100963" lat="63.5249527803" lon="8.38700278451">
		<tag k="name" v="Gjørenvatnet" />
		<tag k="natural" v="water" />
		<tag k="old_name" v="Jørundvatnet" />
		<tag k="ssr:stedsnr" v="455402" />
		<tag k="water" v="lake" />
	</node>
	<node id="-103524" lat="63.5113972248" lon="8.90566666805">
		<tag k="name" v="Nyseterbekken" />
		<tag k="ssr:stedsnr" v="92462" />
		<tag k="waterway" v="stream" />
	</node>
	<node id="-103006" lat="63.6383361123" lon="8.83368055561">
		<tag k="name" v="Storvatnet" />
		<tag k="natural" v="water" />
		<tag k="ssr:stedsnr" v="13279" />
	</node>
	<node id="-105053" lat="63.6284888904" lon="8.74322778038">
		<tag k="name" v="Stakkvika" />
		<tag k="natural" v="bay" />
		<tag k="ssr:stedsnr" v="636647" />
	</node>
	<node id="-103003" lat="63.5375638914" lon="8.73311667492">
		<tag k="name" v="Setervatnet" />
		<tag k="natural" v="water" />
		<tag k="ssr:stedsnr" v="13184" />
		<tag k="water" v="lake" />
	</node>
	<node id="-105050" lat="63.6253611155" lon="8.71884721541">
		<tag k="name" v="Hopavatnet" />
		<tag k="natural" v="water" />
		<tag k="ssr:stedsnr" v="636626" />
		<tag k="water" v="lake" />
	</node>
	<node id="-102999" lat="63.6038749974" lon="8.73201110213">
		<tag k="name" v="Torvtjørna" />
		<tag k="natural" v="water" />
		<tag k="ssr:stedsnr" v="13339" />
	</node>
	<node id="-102998" lat="63.6297361153" lon="8.9257638988">
		<tag k="name" v="Mulåsvatnet" />
		<tag k="natural" v="water" />
		<tag k="ssr:stedsnr" v="13330" />
	</node>
	<node id="-102990" lat="63.4326250025" lon="8.39995000546">
		<tag k="name" v="Husvatnet" />
		<tag k="natural" v="water" />
		<tag k="ssr:stedsnr" v="13014" />
	</node>
	<node id="-103522" lat="63.5088972237" lon="8.94109443481">
		<tag k="name" v="Inner Rotthaugtjørna" />
		<tag k="natural" v="water" />
		<tag k="ssr:stedsnr" v="92456" />
	</node>
	<node id="-105034" lat="63.5107472248" lon="8.35840278665">
		<tag k="name" v="Dolkarvatnet" />
		<tag k="natural" v="water" />
		<tag k="ssr:stedsnr" v="636369" />
		<tag k="water" v="lake" />
	</node>
	<node id="-100937" lat="63.6033777755" lon="8.65116388759">
		<tag k="name" v="Rognøya" />
		<tag k="place" v="island" />
		<tag k="ssr:stedsnr" v="454592" />
	</node>
	<node id="-100936" lat="63.5962666664" lon="8.66967500114">
		<tag k="name" v="Bruelva" />
		<tag k="ssr:stedsnr" v="454578" />
		<tag k="waterway" v="river" />
	</node>
	<node id="-100934" lat="63.6300583306" lon="8.75748888315">
		<tag k="name" v="Hundbekken" />
		<tag k="ssr:stedsnr" v="454632" />
		<tag k="waterway" v="stream" />
	</node>
	<node id="-102980" lat="63.4483611116" lon="8.40096110131">
		<tag k="name" v="Langvasselva" />
		<tag k="ssr:stedsnr" v="12037" />
		<tag k="waterway" v="stream" />
	</node>
	<node id="-102978" lat="63.4755638866" lon="8.66190278343">
		<tag k="name" v="Tverrelva" />
		<tag k="ssr:stedsnr" v="12137" />
		<tag k="waterway" v="stream" />
	</node>
	<node id="-100929" lat="63.6064527754" lon="8.70095833728">
		<tag k="name" v="Sandvatnet" />
		<tag k="natural" v="water" />
		<tag k="ssr:stedsnr" v="256865" />
	</node>
	<node id="-102975" lat="63.5034882627" lon="9.34815572031">
		<tag k="name" v="Djupåvatnet" />
		<tag k="natural" v="water" />
		<tag k="ssr:stedsnr" v="979931" />
		<tag k="water" v="lake" />
	</node>
	<node id="-100926" lat="63.5705472186" lon="8.53686111622">
		<tag k="name" v="Litldamvatnet" />
		<tag k="natural" v="water" />
		<tag k="ssr:stedsnr" v="256572" />
	</node>
	<node id="-100925" lat="63.577005558" lon="8.54988611916">
		<tag k="alt_name" v="Nord Bakvatnet" />
		<tag k="name" v="Bakvatna" />
		<tag k="natural" v="water" />
		<tag k="ssr:stedsnr" v="256556" />
	</node>
	<node id="-103881" lat="63.4944111124" lon="8.65439166424">
		<tag k="name" v="Holmvatnet" />
		<tag k="natural" v="water" />
		<tag k="ssr:stedsnr" v="194087" />
	</node>
	<node id="-103177" lat="63.6289277747" lon="8.64226389016">
		<tag k="name" v="Kvernabekkvatnet" />
		<tag k="natural" v="water" />
		<tag k="ssr:stedsnr" v="30936" />
		<tag k="water" v="lake" />
	</node>
	<node id="-105009" lat="63.5828527813" lon="8.55388333256">
		<tag k="name" v="Kvernavatnet" />
		<tag k="natural" v="water" />
		<tag k="ssr:stedsnr" v="620572" />
	</node>
	<node id="-100909" lat="63.6339816035" lon="8.924760625">
		<tag k="name" v="Åltjørnan" />
		<tag k="natural" v="water" />
		<tag k="ssr:stedsnr" v="255273" />
	</node>
	<node id="-105003" lat="63.6103500027" lon="8.83009166799">
		<tag k="alt_name" v="Nesatjørna" />
		<tag k="fixme" v="multiple name tags, choose one and add the other to alt_name" />
		<tag k="name" v="Hatlandvatnet;Nessatjørna" />
		<tag k="natural" v="water" />
		<tag k="ssr:stedsnr" v="620292" />
	</node>
	<node id="-100905" lat="63.6397999963" lon="9.11132222625">
		<tag k="name" v="Sandtjørna" />
		<tag k="natural" v="water" />
		<tag k="ssr:stedsnr" v="255304" />
	</node>
	<node id="-102946" lat="63.4396027779" lon="8.47044166279">
		<tag k="name" v="Vester Smådalsvatnet" />
		<tag k="natural" v="water" />
		<tag k="ssr:stedsnr" v="941255" />
		<tag k="water" v="lake" />
	</node>
	<node id="-105563" lat="63.5593166644" lon="8.86263054848">
		<tag k="name" v="Sandvatnet" />
		<tag k="natural" v="water" />
		<tag k="ssr:stedsnr" v="819802" />
		<tag k="water" v="lake" />
	</node>
	<node id="-101125" lat="63.582655558" lon="8.84485556176">
		<tag k="name" v="Merkesbekken" />
		<tag k="ssr:stedsnr" v="273802" />
		<tag k="waterway" v="stream" />
	</node>
	<node id="-104987" lat="63.5470361131" lon="8.59681667257">
		<tag k="name" v="Håvikelva" />
		<tag k="ssr:stedsnr" v="619570" />
		<tag k="waterway" v="stream" />
	</node>
	<node id="-104984" lat="63.488388886" lon="8.82810278252">
		<tag k="name" v="Grunnvatnet" />
		<tag k="natural" v="water" />
		<tag k="ssr:stedsnr" v="619492" />
	</node>
	<node id="-101124" lat="63.6111083327" lon="8.65288888744">
		<tag k="name" v="Kverna" />
		<tag k="natural" v="water" />
		<tag k="ssr:stedsnr" v="273571" />
		<tag k="water" v="lake" />
	</node>
	<node id="-104980" lat="63.5687669127" lon="9.1290197755">
		<tag k="fixme" v="multiple name tags, choose one and add the other to alt_name" />
		<tag k="name" v="Drågavatnet;Tjæravatnet" />
		<tag k="natural" v="water" />
		<tag k="ssr:stedsnr" v="619434" />
	</node>
	<node id="-104979" lat="63.580538891" lon="8.82424722461">
		<tag k="name" v="Snæringstjørna" />
		<tag k="natural" v="water" />
		<tag k="ssr:stedsnr" v="619391" />
	</node>
	<node id="-102928" lat="63.5052111103" lon="8.84936388442">
		<tag k="name" v="Langtjørna" />
		<tag k="natural" v="water" />
		<tag k="ssr:stedsnr" v="881722" />
	</node>
	<node id="-104971" lat="63.5708749956" lon="8.8986916665">
		<tag k="name" v="Blåskogvatnet" />
		<tag k="natural" v="water" />
		<tag k="ssr:stedsnr" v="619430" />
		<tag k="water" v="lake" />
	</node>
	<node id="-104970" lat="63.4798916707" lon="8.69461111222">
		<tag k="name" v="Setervatnet" />
		<tag k="natural" v="water" />
		<tag k="ssr:stedsnr" v="619079" />
		<tag k="water" v="lake" />
	</node>
	<node id="-104968" lat="63.4832583335" lon="8.43472499819">
		<tag k="name" v="Krokvatna" />
		<tag k="natural" v="water" />
		<tag k="ssr:stedsnr" v="619063" />
		<tag k="water" v="lake" />
	</node>
	<node id="-104962" lat="63.499402777" lon="8.56444722262">
		<tag k="name" v="Einskogvatnet" />
		<tag k="natural" v="water" />
		<tag k="ssr:stedsnr" v="618883" />
	</node>
	<node id="-104959" lat="63.4871694436" lon="8.89151665984">
		<tag k="name" v="Igletjørn" />
		<tag k="natural" v="water" />
		<tag k="ssr:stedsnr" v="618451" />
	</node>
	<node id="-104957" lat="63.447891669" lon="8.42431111622">
		<tag k="name" v="Langvatnet" />
		<tag k="natural" v="water" />
		<tag k="ssr:stedsnr" v="618026" />
	</node>
	<node id="-101833" lat="63.5605055534" lon="8.77813889179">
		<tag k="name" v="Storhaugbekken" />
		<tag k="ssr:stedsnr" v="698837" />
		<tag k="waterway" v="stream" />
	</node>
	<node id="-102902" lat="63.4350250038" lon="8.43825834311">
		<tag k="name" v="Kvernavatnet" />
		<tag k="natural" v="water" />
		<tag k="ssr:stedsnr" v="862020" />
	</node>
	<node id="-102900" lat="63.5280416628" lon="9.37098888445">
		<tag k="name" v="Steintjørna" />
		<tag k="natural" v="water" />
		<tag k="ssr:stedsnr" v="944216" />
	</node>
	<node id="-101118" lat="63.4874694466" lon="8.39493332884">
		<tag k="name" v="Litllangneset" />
		<tag k="natural" v="cape" />
		<tag k="ssr:stedsnr" v="273460" />
	</node>
	<node id="-105038" lat="63.6435972194" lon="8.92306388399">
		<tag k="name" v="Anndalsbekken" />
		<tag k="ssr:stedsnr" v="636093" />
		<tag k="waterway" v="stream" />
	</node>
	<node id="-100840" lat="63.5845944488" lon="8.96259721558">
		<tag k="name" v="Skagaelva" />
		<tag k="ssr:stedsnr" v="212209" />
		<tag k="waterway" v="river" />
	</node>
	<node id="-100839" lat="63.5792083329" lon="8.98111389068">
		<tag k="name" v="Bakktjørna" />
		<tag k="natural" v="water" />
		<tag k="ssr:stedsnr" v="212208" />
	</node>
	<node id="-104933" lat="63.5180555531" lon="9.31972499605">
		<tag k="alt_name" v="Djupå" />
		<tag k="name" v="Djupåelva" />
		<tag k="ssr:stedsnr" v="578523" />
		<tag k="waterway" v="stream" />
	</node>
	<node id="-102884" lat="63.482152781" lon="9.19568611739">
		<tag k="name" v="Nord Vassdalsbekken" />
		<tag k="ssr:stedsnr" v="943217" />
		<tag k="waterway" v="stream" />
	</node>
	<node id="-100835" lat="63.5497416638" lon="8.47280556096">
		<tag k="name" v="Litlsandvatnet" />
		<tag k="natural" v="water" />
		<tag k="ssr:stedsnr" v="212005" />
		<tag k="water" v="lake" />
	</node>
	<node id="-102881" lat="63.4783083344" lon="9.27887777217">
		<tag k="name" v="Ytterbekken" />
		<tag k="ssr:stedsnr" v="943143" />
		<tag k="waterway" v="stream" />
	</node>
	<node id="-102880" lat="63.4606999964" lon="9.25049443533">
		<tag k="name" v="Osen" />
		<tag k="natural" v="bay" />
		<tag k="ssr:stedsnr" v="943142" />
	</node>
	<node id="-100431" lat="63.5861722184" lon="8.83764999183">
		<tag k="name" v="Øverdalsvatnet" />
		<tag k="natural" v="water" />
		<tag k="ssr:stedsnr" v="13408" />
		<tag k="water" v="lake" />
	</node>
	<node id="-102871" lat="63.5759194443" lon="8.52973611839">
		<tag k="name" v="Storotervatnet" />
		<tag k="natural" v="water" />
		<tag k="ssr:stedsnr" v="941986" />
		<tag k="water" v="lake" />
	</node>
	<node id="-100430" lat="63.5936027755" lon="8.84514444615">
		<tag k="name" v="Vollavatnet" />
		<tag k="natural" v="water" />
		<tag k="ssr:stedsnr" v="13407" />
	</node>
	<node id="-100818" lat="63.5791361125" lon="8.92186667608">
		<tag k="name" v="Blåskogbekken" />
		<tag k="ssr:stedsnr" v="195423" />
		<tag k="waterway" v="stream" />
	</node>
	<node id="-100771" lat="63.5715361139" lon="8.90438055224">
		<tag k="name" v="Risdalsneset" />
		<tag k="natural" v="cape" />
		<tag k="ssr:stedsnr" v="152730" />
	</node>
	<node id="-100814" lat="63.6225388853" lon="8.79626943775">
		<tag k="name" v="Tømmerskardtjørna" />
		<tag k="natural" v="water" />
		<tag k="ssr:stedsnr" v="195344" />
	</node>
	<node id="-102861" lat="63.5404305535" lon="8.99894999201">
		<tag k="name" v="Bjørtjørnbekken" />
		<tag k="ssr:stedsnr" v="941853" />
		<tag k="waterway" v="stream" />
	</node>
	<node id="-104908" lat="63.5423027806" lon="9.09527500687">
		<tag k="name" v="Lomtjørna" />
		<tag k="natural" v="water" />
		<tag k="ssr:stedsnr" v="577486" />
	</node>
	<node id="-100809" lat="63.6532722196" lon="9.09382221272">
		<tag k="name" v="Korsvatnet" />
		<tag k="natural" v="water" />
		<tag k="ssr:stedsnr" v="195306" />
	</node>
	<node id="-104904" lat="63.5003611114" lon="8.90073054568">
		<tag k="name" v="Marikollbekken" />
		<tag k="ssr:stedsnr" v="577461" />
		<tag k="waterway" v="stream" />
	</node>
	<node id="-104903" lat="63.4923361084" lon="8.85230833577">
		<tag k="name" v="Grastjørna" />
		<tag k="natural" v="water" />
		<tag k="ssr:stedsnr" v="577405" />
	</node>
	<node id="-100803" lat="63.4829583349" lon="8.73354444603">
		<tag k="name" v="Setervatnet" />
		<tag k="natural" v="water" />
		<tag k="ssr:stedsnr" v="194403" />
	</node>
	<node id="-100802" lat="63.4671999972" lon="8.32973888003">
		<tag k="name" v="Fuglvatnet" />
		<tag k="natural" v="water" />
		<tag k="ssr:stedsnr" v="194122" />
	</node>
	<node id="-104896" lat="63.5743694416" lon="9.13570833924">
		<tag k="name" v="Tjæravågstjørna" />
		<tag k="natural" v="water" />
		<tag k="ssr:stedsnr" v="577298" />
	</node>
	<node id="-102847" lat="63.5736527796" lon="8.90182222221">
		<tag k="name" v="Merrabekkneset" />
		<tag k="natural" v="cape" />
		<tag k="ssr:stedsnr" v="941699" />
	</node>
	<node id="-100798" lat="63.4405529129" lon="8.49945992321">
		<tag k="name" v="Litlsetervatnet" />
		<tag k="natural" v="water" />
		<tag k="ssr:stedsnr" v="194004" />
	</node>
	<node id="-104893" lat="63.5928805592" lon="8.9380055607">
		<tag k="name" v="Vålibekken" />
		<tag k="ssr:stedsnr" v="576842" />
		<tag k="waterway" v="stream" />
	</node>
	<node id="-104891" lat="63.5672111148" lon="8.82619165684">
		<tag k="name" v="Inner Damtjørna" />
		<tag k="natural" v="water" />
		<tag k="ssr:stedsnr" v="576830" />
	</node>
	<node id="-104887" lat="63.6509333293" lon="8.98337778034">
		<tag k="name" v="Merradalsbekken" />
		<tag k="ssr:stedsnr" v="576798" />
		<tag k="waterway" v="stream" />
	</node>
	<node id="-102832" lat="63.4873361109" lon="8.40392500186">
		<tag k="name" v="Litldalsbekken" />
		<tag k="ssr:stedsnr" v="941467" />
		<tag k="waterway" v="stream" />
	</node>
	<node id="-104879" lat="63.6052027745" lon="8.58094999991">
		<tag k="name" v="Mekkelsvikbekken" />
		<tag k="ssr:stedsnr" v="576965" />
		<tag k="waterway" v="stream" />
	</node>
	<node id="-102830" lat="63.4913833304" lon="8.39242499143">
		<tag k="name" v="Langnesosen" />
		<tag k="natural" v="bay" />
		<tag k="ssr:stedsnr" v="941453" />
	</node>
	<node id="-104875" lat="63.6106055555" lon="8.73774443469">
		<tag k="name" v="Gruvbukta" />
		<tag k="natural" v="bay" />
		<tag k="ssr:stedsnr" v="576945" />
	</node>
	<node id="-104871" lat="63.5295666691" lon="8.42692222698">
		<tag k="name" v="Strupen" />
		<tag k="natural" v="strait" />
		<tag k="ssr:stedsnr" v="576426" />
	</node>
	<node id="-100774" lat="63.4850472202" lon="8.80021111017">
		<tag k="name" v="Båtsvikbekken" />
		<tag k="ssr:stedsnr" v="152745" />
		<tag k="waterway" v="stream" />
	</node>
	<node id="-102821" lat="63.4896000031" lon="8.86021110964">
		<tag k="name" v="Langvasselva" />
		<tag k="ssr:stedsnr" v="941402" />
		<tag k="waterway" v="river" />
	</node>
	<node id="-102820" lat="63.5302500005" lon="8.41912222992">
		<tag k="name" v="Monsvika" />
		<tag k="natural" v="bay" />
		<tag k="ssr:stedsnr" v="941398" />
	</node>
	<node id="-104867" lat="63.5297027755" lon="8.42173611742">
		<tag k="name" v="Snaten" />
		<tag k="natural" v="cape" />
		<tag k="ssr:stedsnr" v="576415" />
	</node>
	<node id="-100768" lat="63.5093333348" lon="9.29958056446">
		<tag k="name" v="Skutbekken" />
		<tag k="ssr:stedsnr" v="275548" />
		<tag k="waterway" v="stream" />
	</node>
	<node id="-101104" lat="63.4485416677" lon="8.44218610853">
		<tag k="name" v="Litlsandvasselva" />
		<tag k="ssr:stedsnr" v="273308" />
		<tag k="waterway" v="river" />
	</node>
	<node id="-102171" lat="63.4429527805" lon="8.49329444961">
		<tag k="name" v="Hellitjørna" />
		<tag k="natural" v="water" />
		<tag k="ssr:stedsnr" v="880252" />
	</node>
	<node id="-104860" lat="63.4568694422" lon="8.33215555517">
		<tag k="name" v="Sør Kvernavatnet" />
		<tag k="natural" v="water" />
		<tag k="ssr:stedsnr" v="576339" />
		<tag k="water" v="lake" />
	</node>
	<node id="-102810" lat="63.4931583333" lon="8.3800416733">
		<tag k="name" v="Lomstjørna" />
		<tag k="natural" v="water" />
		<tag k="ssr:stedsnr" v="941354" />
	</node>
	<node id="-101103" lat="63.5384499969" lon="8.46704443717">
		<tag k="name" v="Lomstjørna" />
		<tag k="natural" v="water" />
		<tag k="ssr:stedsnr" v="273002" />
	</node>
	<node id="-104848" lat="63.5410222266" lon="8.4517083263">
		<tag k="name" v="Rundtjørna" />
		<tag k="natural" v="water" />
		<tag k="ssr:stedsnr" v="576015" />
	</node>
	<node id="-102799" lat="63.4408416631" lon="8.49376666155">
		<tag k="name" v="Nøkkvasselva" />
		<tag k="ssr:stedsnr" v="941242" />
		<tag k="waterway" v="river" />
	</node>
	<node id="-102797" lat="63.4633722219" lon="8.58463054679">
		<tag k="name" v="Slettvassbekken" />
		<tag k="ssr:stedsnr" v="941193" />
		<tag k="waterway" v="stream" />
	</node>
	<node id="-100746" lat="63.5801583375" lon="8.96553055828">
		<tag k="name" v="Lakselva" />
		<tag k="ssr:stedsnr" v="151211" />
		<tag k="waterway" v="river" />
	</node>
	<node id="-101147" lat="63.5394611078" lon="9.04145556531">
		<tag k="name" v="Kroksvatnet" />
		<tag k="natural" v="water" />
		<tag k="ssr:stedsnr" v="274258" />
		<tag k="water" v="lake" />
	</node>
	<node id="-100465" lat="63.5451904835" lon="8.55057023658">
		<tag k="name" v="Grytfossen" />
		<tag k="natural" v="waterfall" />
		<tag k="ssr:stedsnr" v="30726" />
	</node>
	<node id="-102777" lat="63.6423805563" lon="8.78579999719">
		<tag k="name" v="Selvikvatnet" />
		<tag k="natural" v="water" />
		<tag k="ssr:stedsnr" v="940978" />
		<tag k="water" v="lake" />
	</node>
	<node id="-102775" lat="63.614697221" lon="8.78228610488">
		<tag k="name" v="Langvatnet" />
		<tag k="natural" v="water" />
		<tag k="ssr:stedsnr" v="940962" />
		<tag k="water" v="lake" />
	</node>
	<node id="-100726" lat="63.5733888931" lon="8.99512499041">
		<tag k="name" v="Møyttjørna" />
		<tag k="natural" v="water" />
		<tag k="ssr:stedsnr" v="274645" />
	</node>
	<node id="-100723" lat="63.5757611132" lon="8.90491944787">
		<tag k="name" v="Merrabekken" />
		<tag k="ssr:stedsnr" v="274677" />
		<tag k="waterway" v="stream" />
	</node>
	<node id="-102767" lat="63.6083583353" lon="8.81545556191">
		<tag k="name" v="Nessadalsbekken" />
		<tag k="ssr:stedsnr" v="940817" />
		<tag k="waterway" v="stream" />
	</node>
	<node id="-104814" lat="63.6260027799" lon="8.71377222568">
		<tag k="name" v="Ålvatnet" />
		<tag k="natural" v="water" />
		<tag k="ssr:stedsnr" v="575594" />
		<tag k="water" v="lake" />
	</node>
	<node id="-104810" lat="63.6031333356" lon="8.64808054752">
		<tag k="name" v="Slåttaholmen" />
		<tag k="place" v="islet" />
		<tag k="ssr:stedsnr" v="575548" />
	</node>
	<node id="-101419" lat="63.5494666673" lon="9.10858611969">
		<tag k="name" v="Piptjørna" />
		<tag k="natural" v="water" />
		<tag k="ssr:stedsnr" v="516475" />
	</node>
	<node id="-104804" lat="63.6469222233" lon="8.9499111131">
		<tag k="name" v="Eavatna" />
		<tag k="natural" v="water" />
		<tag k="ssr:stedsnr" v="575091" />
		<tag k="water" v="lake" />
	</node>
	<node id="-102851" lat="63.631663893" lon="8.90125555228">
		<tag k="name" v="Glørstadelva" />
		<tag k="ssr:stedsnr" v="941741" />
		<tag k="waterway" v="river" />
	</node>
	<node id="-102750" lat="63.4401166705" lon="8.51634721824">
		<tag k="name" v="Litlvatnet" />
		<tag k="natural" v="water" />
		<tag k="ssr:stedsnr" v="940225" />
		<tag k="water" v="lake" />
	</node>
	<node id="-105033" lat="63.4453722178" lon="8.56801389851">
		<tag k="name" v="Blåbærvikbekken" />
		<tag k="ssr:stedsnr" v="636252" />
		<tag k="waterway" v="stream" />
	</node>
	<node id="-104790" lat="63.5374361136" lon="8.54359167579">
		<tag k="alt_name" v="Stokkelva" />
		<tag k="name" v="Stakkvasselva" />
		<tag k="ssr:stedsnr" v="559548" />
		<tag k="waterway" v="stream" />
	</node>
	<node id="-101964" lat="63.6068666657" lon="8.74029722822">
		<tag k="name" v="Fagerlibukta" />
		<tag k="natural" v="bay" />
		<tag k="ssr:stedsnr" v="576931" />
	</node>
	<node id="-101623" lat="63.5818027811" lon="8.73987500205">
		<tag k="name" v="Kvilartollbekken" />
		<tag k="ssr:stedsnr" v="680399" />
		<tag k="waterway" v="stream" />
	</node>
	<node id="-104787" lat="63.5430111125" lon="9.03381389767">
		<tag k="name" v="Måsheitjørna" />
		<tag k="natural" v="water" />
		<tag k="ssr:stedsnr" v="559390" />
	</node>
	<node id="-100690" lat="63.5860555591" lon="8.92327500053">
		<tag k="name" v="Inner Stakkengtjørna" />
		<tag k="natural" v="water" />
		<tag k="ssr:stedsnr" v="273837" />
	</node>
	<node id="-104783" lat="63.5047027808" lon="8.77260000881">
		<tag k="name" v="Korsvatnet" />
		<tag k="natural" v="water" />
		<tag k="ssr:stedsnr" v="559467" />
	</node>
	<node id="-104782" lat="63.5993388848" lon="8.89403610215">
		<tag k="name" v="Hauksjøen" />
		<tag k="natural" v="water" />
		<tag k="ssr:stedsnr" v="559350" />
		<tag k="water" v="lake" />
	</node>
	<node id="-100684" lat="63.570206903" lon="8.74616664918">
		<tag k="name" v="Kjerkvatnet" />
		<tag k="natural" v="water" />
		<tag k="ssr:stedsnr" v="273795" />
		<tag k="water" v="lake" />
	</node>
	<node id="-100682" lat="63.5540111083" lon="8.72767777423">
		<tag k="name" v="Kvernabekken" />
		<tag k="ssr:stedsnr" v="273781" />
		<tag k="waterway" v="stream" />
	</node>
	<node id="-104775" lat="63.4608472183" lon="9.24700832899">
		<tag k="name" v="Damvatnet" />
		<tag k="natural" v="water" />
		<tag k="ssr:stedsnr" v="558976" />
	</node>
	<node id="-104774" lat="63.60202623" lon="8.58032339689">
		<tag k="alt_name" v="Mekkelsvikvatnet" />
		<tag k="name" v="Mikkelsvikvatnet" />
		<tag k="natural" v="water" />
		<tag k="ssr:stedsnr" v="558930" />
	</node>
	<node id="-103137" lat="63.6018694401" lon="8.65703610914">
		<tag k="name" v="Storvika" />
		<tag k="natural" v="bay" />
		<tag k="ssr:stedsnr" v="30559" />
	</node>
	<node id="-105473" lat="63.578211114" lon="9.10608610913">
		<tag k="alt_name" v="Bjørkadalsvatnet" />
		<tag k="name" v="Bjørkedalsvatnet" />
		<tag k="natural" v="water" />
		<tag k="ssr:stedsnr" v="802465" />
	</node>
	<node id="-104764" lat="63.5742000009" lon="8.94467776775">
		<tag k="name" v="Storfossen" />
		<tag k="natural" v="waterfall" />
		<tag k="ssr:stedsnr" v="558401" />
	</node>
	<node id="-100667" lat="63.440444443" lon="8.54604166762">
		<tag k="name" v="Lugdalstjørnen" />
		<tag k="natural" v="water" />
		<tag k="ssr:stedsnr" v="273241" />
	</node>
	<node id="-102714" lat="63.4945777817" lon="8.83586110184">
		<tag k="name" v="Husvasslitjørna" />
		<tag k="natural" v="water" />
		<tag k="ssr:stedsnr" v="820726" />
	</node>
	<node id="-104761" lat="63.5286361075" lon="9.03359722212">
		<tag k="name" v="Svanåstjørna" />
		<tag k="natural" v="water" />
		<tag k="ssr:stedsnr" v="558467" />
	</node>
	<node id="-102712" lat="63.5198027799" lon="9.00325277573">
		<tag k="name" v="Stabbursåstjørna" />
		<tag k="natural" v="water" />
		<tag k="ssr:stedsnr" v="820705" />
	</node>
	<node id="-104759" lat="63.6387166686" lon="9.09298889434">
		<tag k="name" v="Dragvatnet" />
		<tag k="natural" v="water" />
		<tag k="ssr:stedsnr" v="558316" />
	</node>
	<node id="-104755" lat="63.4751944477" lon="8.58885555036">
		<tag k="alt_name" v="Storbrattåvatnet" />
		<tag k="name" v="Trollhaugvatnet" />
		<tag k="natural" v="water" />
		<tag k="ssr:stedsnr" v="558128" />
		<tag k="water" v="lake" />
	</node>
	<node id="-104752" lat="63.4770527795" lon="8.70987500944">
		<tag k="name" v="Langvatnet" />
		<tag k="natural" v="water" />
		<tag k="ssr:stedsnr" v="558093" />
		<tag k="water" v="lake" />
	</node>
	<node id="-104751" lat="63.4778249973" lon="8.39476389676">
		<tag k="name" v="Svarttjørna" />
		<tag k="natural" v="water" />
		<tag k="ssr:stedsnr" v="558073" />
	</node>
	<node id="-102698" lat="63.4871166655" lon="8.8913416624">
		<tag k="name" v="Bekkviktjørna" />
		<tag k="natural" v="water" />
		<tag k="ssr:stedsnr" v="820312" />
	</node>
	<node id="-102692" lat="63.5478138908" lon="8.55324999075">
		<tag k="name" v="Lona" />
		<tag k="natural" v="water" />
		<tag k="ssr:stedsnr" v="819767" />
		<tag k="water" v="lake" />
	</node>
	<node id="-102691" lat="63.4885916623" lon="8.5908027683">
		<tag k="name" v="Ytter Lebergvatnet" />
		<tag k="natural" v="water" />
		<tag k="ssr:stedsnr" v="819759" />
		<tag k="water" v="lake" />
	</node>
	<node id="-100772" lat="63.521719448" lon="9.02489444457">
		<tag k="name" v="Trommaklakken" />
		<tag k="natural" v="cape" />
		<tag k="ssr:stedsnr" v="152732" />
	</node>
	<node id="-100640" lat="63.6158361106" lon="8.79834999753">
		<tag k="name" v="Seteråsvatnet" />
		<tag k="natural" v="water" />
		<tag k="ssr:stedsnr" v="272941" />
		<tag k="water" v="lake" />
	</node>
	<node id="-102681" lat="63.6124638852" lon="8.6624555577">
		<tag k="name" v="Aunavatnet" />
		<tag k="natural" v="water" />
		<tag k="ssr:stedsnr" v="819581" />
		<tag k="water" v="lake" />
	</node>
	<node id="-102680" lat="63.6088527781" lon="8.64563333793">
		<tag k="name" v="Geithallarneset" />
		<tag k="natural" v="cape" />
		<tag k="ssr:stedsnr" v="819579" />
	</node>
	<node id="-100630" lat="63.550980559" lon="8.51935554934">
		<tag k="name" v="Vassholmen" />
		<tag k="natural" v="cape" />
		<tag k="ssr:stedsnr" v="272651" />
	</node>
	<node id="-102676" lat="63.4834805549" lon="8.43536943487">
		<tag k="name" v="Inner Krokvatnet" />
		<tag k="natural" v="water" />
		<tag k="ssr:stedsnr" v="819464" />
		<tag k="water" v="lake" />
	</node>
	<node id="-100627" lat="63.5125361147" lon="8.37894999168">
		<tag k="name" v="Storbukta" />
		<tag k="natural" v="bay" />
		<tag k="ssr:stedsnr" v="272619" />
	</node>
	<node id="-102673" lat="63.6011999992" lon="8.6791944379">
		<tag k="name" v="Leikvamsvatnet" />
		<tag k="natural" v="water" />
		<tag k="ssr:stedsnr" v="819610" />
		<tag k="water" v="lake" />
	</node>
	<node id="-100624" lat="63.611536109" lon="8.65009166963">
		<tag k="name" v="Småstrauman" />
		<tag k="ssr:stedsnr" v="272544" />
		<tag k="waterway" v="river" />
	</node>
	<node id="-100622" lat="63.6000694466" lon="8.65619166154">
		<tag k="name" v="Eidet" />
		<tag k="natural" v="strait" />
		<tag k="ssr:stedsnr" v="272501" />
	</node>
	<node id="-104717" lat="63.5106083342" lon="8.35838611004">
		<tag k="name" v="Dolkavatnet" />
		<tag k="natural" v="water" />
		<tag k="ssr:stedsnr" v="438726" />
	</node>
	<node id="-104716" lat="63.6734861127" lon="9.05567500697">
		<tag k="fixme" v="multiple name tags, choose one and add the other to alt_name" />
		<tag k="name" v="Sommarfjøsvatnet;Sommarstadvatnet" />
		<tag k="natural" v="water" />
		<tag k="ssr:stedsnr" v="438686" />
	</node>
	<node id="-100619" lat="63.504802775" lon="8.33521388965">
		<tag k="name" v="Skrubbtjørna" />
		<tag k="natural" v="water" />
		<tag k="ssr:stedsnr" v="272360" />
	</node>
	<node id="-104711" lat="63.5767749957" lon="8.68159167119">
		<tag k="name" v="Kjerktjørna" />
		<tag k="natural" v="water" />
		<tag k="ssr:stedsnr" v="438635" />
	</node>
	<node id="-102662" lat="63.4543444453" lon="8.56658611026">
		<tag k="name" v="Grasbekken" />
		<tag k="ssr:stedsnr" v="819219" />
		<tag k="waterway" v="stream" />
	</node>
	<node id="-104708" lat="63.5671444411" lon="8.50880833118">
		<tag k="name" v="Kjerksundvatnet" />
		<tag k="natural" v="water" />
		<tag k="ssr:stedsnr" v="438606" />
	</node>
	<node id="-104706" lat="63.5760749961" lon="8.53064721295">
		<tag k="name" v="Otervatna" />
		<tag k="natural" v="water" />
		<tag k="ssr:stedsnr" v="438582" />
	</node>
	<node id="-104705" lat="63.5633638876" lon="8.54350000442">
		<tag k="name" v="Geitvatnet" />
		<tag k="natural" v="water" />
		<tag k="ssr:stedsnr" v="438578" />
	</node>
	<node id="-104702" lat="63.5351972259" lon="8.57821945047">
		<tag k="alt_name" v="Stokkvatnet" />
		<tag k="name" v="Stakkvatnet" />
		<tag k="natural" v="water" />
		<tag k="ssr:stedsnr" v="438539" />
	</node>
	<node id="-100605" lat="63.5916999981" lon="9.05367222824">
		<tag k="name" v="Kvernelva" />
		<tag k="ssr:stedsnr" v="272041" />
		<tag k="waterway" v="river" />
	</node>
	<node id="-104697" lat="63.5178916665" lon="8.39233056367">
		<tag k="name" v="Laugen" />
		<tag k="natural" v="water" />
		<tag k="ssr:stedsnr" v="438520" />
		<tag k="water" v="lake" />
	</node>
	<node id="-102646" lat="63.466938887" lon="8.5679083377">
		<tag k="name" v="Ytter Slettvatnet" />
		<tag k="natural" v="water" />
		<tag k="ssr:stedsnr" v="819015" />
		<tag k="water" v="lake" />
	</node>
	<node id="-104692" lat="63.5234916711" lon="8.37759722996">
		<tag k="name" v="Litlvatnet" />
		<tag k="natural" v="water" />
		<tag k="ssr:stedsnr" v="438499" />
	</node>
	<node id="-100592" lat="63.5075083345" lon="8.9643555623">
		<tag k="name" v="Husvatnet" />
		<tag k="natural" v="water" />
		<tag k="ssr:stedsnr" v="134524" />
	</node>
	<node id="-101416" lat="63.4955888884" lon="8.40144166996">
		<tag k="name" v="Storfossen" />
		<tag k="natural" v="waterfall" />
		<tag k="ssr:stedsnr" v="516459" />
	</node>
	<node id="-102636" lat="63.5407166677" lon="8.70685834046">
		<tag k="alt_name" v="Ottervatnet" />
		<tag k="name" v="Otervatnet" />
		<tag k="natural" v="water" />
		<tag k="ssr:stedsnr" v="802612" />
	</node>
	<node id="-102634" lat="63.5871603605" lon="8.94808126704">
		<tag k="name" v="Gaddtjørnan" />
		<tag k="natural" v="water" />
		<tag k="ssr:stedsnr" v="802409" />
	</node>
	<node id="-104677" lat="63.556047224" lon="8.8246611205">
		<tag k="name" v="Tømmeråstjørna" />
		<tag k="natural" v="water" />
		<tag k="ssr:stedsnr" v="438414" />
	</node>
	<node id="-102628" lat="63.4953777758" lon="8.86844999124">
		<tag k="name" v="Krokelva" />
		<tag k="ssr:stedsnr" v="801434" />
		<tag k="waterway" v="stream" />
	</node>
	<node id="-102626" lat="63.4854888931" lon="8.77538055206">
		<tag k="name" v="Kvernavatnet" />
		<tag k="natural" v="water" />
		<tag k="ssr:stedsnr" v="801428" />
	</node>
	<node id="-102625" lat="63.4936920855" lon="8.85565674261">
		<tag k="name" v="Grastjørnin" />
		<tag k="natural" v="water" />
		<tag k="ssr:stedsnr" v="801427" />
	</node>
	<node id="-100576" lat="63.4700250037" lon="8.39438888391">
		<tag k="name" v="Sandvatnet" />
		<tag k="natural" v="water" />
		<tag k="ssr:stedsnr" v="133112" />
		<tag k="water" v="lake" />
	</node>
	<node id="-100573" lat="63.4554444439" lon="8.59605832535">
		<tag k="name" v="Fløvatnet" />
		<tag k="natural" v="water" />
		<tag k="ssr:stedsnr" v="133021" />
	</node>
	<node id="-102619" lat="63.5097805522" lon="8.59963332408">
		<tag k="name" v="Langvasstjørna" />
		<tag k="natural" v="water" />
		<tag k="ssr:stedsnr" v="924696" />
	</node>
	<node id="-101071" lat="63.5246499986" lon="9.26506388298">
		<tag k="name" v="Jurdalsbekken" />
		<tag k="ssr:stedsnr" v="457180" />
		<tag k="waterway" v="stream" />
	</node>
	<node id="-100567" lat="63.6386083301" lon="8.70568610403">
		<tag k="name" v="Jensvatnet" />
		<tag k="natural" v="water" />
		<tag k="ssr:stedsnr" v="256929" />
	</node>
	<node id="-100564" lat="63.6005583317" lon="8.65038332344">
		<tag k="name" v="Skogneset" />
		<tag k="natural" v="cape" />
		<tag k="ssr:stedsnr" v="256844" />
	</node>
	<node id="-100563" lat="63.6712924587" lon="9.0520454321">
		<tag k="alt_name" v="Grindskardvatnet" />
		<tag k="name" v="Grindskarvatnet" />
		<tag k="natural" v="water" />
		<tag k="ssr:stedsnr" v="256651" />
	</node>
	<node id="-104658" lat="63.525674996" lon="9.35585278277">
		<tag k="name" v="Halsavatnet" />
		<tag k="natural" v="water" />
		<tag k="ssr:stedsnr" v="438152" />
	</node>
	<node id="-102609" lat="63.6129194473" lon="8.66731389523">
		<tag k="name" v="Aunvatnet" />
		<tag k="natural" v="water" />
		<tag k="ssr:stedsnr" v="923919" />
	</node>
	<node id="-102607" lat="63.5927833307" lon="8.57591667371">
		<tag k="name" v="Strandvatnet" />
		<tag k="natural" v="water" />
		<tag k="ssr:stedsnr" v="923902" />
	</node>
	<node id="-104649" lat="63.4959777762" lon="8.8970500045">
		<tag k="name" v="Mellomvatnet" />
		<tag k="natural" v="water" />
		<tag k="ssr:stedsnr" v="437492" />
	</node>
	<node id="-104647" lat="63.534174996" lon="8.98013055767">
		<tag k="name" v="Stiksdalstjørna" />
		<tag k="natural" v="water" />
		<tag k="ssr:stedsnr" v="437481" />
	</node>
	<node id="-104645" lat="63.4926861122" lon="9.21185277014">
		<tag k="name" v="Stordalsbekken" />
		<tag k="ssr:stedsnr" v="437476" />
		<tag k="waterway" v="stream" />
	</node>
	<node id="-100548" lat="63.5734138903" lon="9.07223611089">
		<tag k="name" v="Digåslitjørna" />
		<tag k="natural" v="water" />
		<tag k="ssr:stedsnr" v="256351" />
	</node>
	<node id="-104643" lat="63.4950833334" lon="8.73692777889">
		<tag k="name" v="Stordalselva" />
		<tag k="ssr:stedsnr" v="437470" />
		<tag k="waterway" v="stream" />
	</node>
	<node id="-102592" lat="63.5089166654" lon="8.76366388183">
		<tag k="name" v="Stordalstjørna" />
		<tag k="natural" v="water" />
		<tag k="ssr:stedsnr" v="923535" />
	</node>
	<node id="-102588" lat="63.4978861139" lon="8.91045277471">
		<tag k="name" v="Hamnadalsvatnet" />
		<tag k="natural" v="water" />
		<tag k="ssr:stedsnr" v="923489" />
	</node>
	<node id="-102585" lat="63.5508250014" lon="8.85586111562">
		<tag k="alt_name" v="Sandvatnet, yt" />
		<tag k="name" v="Ytre Sandvatnet" />
		<tag k="natural" v="water" />
		<tag k="ssr:stedsnr" v="923469" />
		<tag k="water" v="lake" />
	</node>
	<node id="-104631" lat="63.4735333328" lon="8.68018888249">
		<tag k="name" v="Laksåvatnet" />
		<tag k="natural" v="water" />
		<tag k="ssr:stedsnr" v="437152" />
		<tag k="water" v="lake" />
	</node>
	<node id="-104630" lat="63.4685111079" lon="8.61956944077">
		<tag k="name" v="Brattåtjørna" />
		<tag k="natural" v="water" />
		<tag k="ssr:stedsnr" v="437139" />
	</node>
	<node id="-102581" lat="63.56547778" lon="8.88552499402">
		<tag k="name" v="Storfossen" />
		<tag k="natural" v="waterfall" />
		<tag k="ssr:stedsnr" v="923433" />
	</node>
	<node id="-102578" lat="63.5856611096" lon="9.10538889095">
		<tag k="alt_name" v="Ulvågvatnet" />
		<tag k="name" v="Ulvvågvatnet" />
		<tag k="natural" v="water" />
		<tag k="ssr:stedsnr" v="923395" />
	</node>
	<node id="-104625" lat="63.4824916658" lon="8.33016388669">
		<tag k="name" v="Tautervatnet" />
		<tag k="natural" v="water" />
		<tag k="ssr:stedsnr" v="437087" />
	</node>
	<node id="-103017" lat="63.611574996" lon="8.74722499359">
		<tag k="name" v="Storvatnet" />
		<tag k="natural" v="water" />
		<tag k="ssr:stedsnr" v="13347" />
		<tag k="water" v="lake" />
	</node>
	<node id="-104623" lat="63.479808332" lon="8.64673889241">
		<tag k="name" v="Ytre Laksåvatnet" />
		<tag k="natural" v="water" />
		<tag k="ssr:stedsnr" v="437081" />
	</node>
	<node id="-104622" lat="63.4414499982" lon="8.43151667655">
		<tag k="name" v="Dalavatnet" />
		<tag k="natural" v="water" />
		<tag k="ssr:stedsnr" v="437043" />
	</node>
	<node id="-104620" lat="63.4574861138" lon="8.57655277203">
		<tag k="alt_name" v="Kvernvatnet" />
		<tag k="name" v="Kvernavatnet" />
		<tag k="natural" v="water" />
		<tag k="ssr:stedsnr" v="437034" />
	</node>
	<node id="-104619" lat="63.4530555561" lon="8.56274167522">
		<tag k="name" v="Grasvatnet" />
		<tag k="natural" v="water" />
		<tag k="ssr:stedsnr" v="437033" />
	</node>
	<node id="-104618" lat="63.4471027737" lon="8.53293611898">
		<tag k="name" v="Hjorttjørna" />
		<tag k="natural" v="water" />
		<tag k="ssr:stedsnr" v="437008" />
	</node>
	<node id="-101745" lat="63.4563055566" lon="8.60236389035">
		<tag k="name" v="Fløvassbekken" />
		<tag k="ssr:stedsnr" v="697244" />
		<tag k="waterway" v="stream" />
	</node>
	<node id="-102564" lat="63.4485250016" lon="8.31892777176">
		<tag k="name" v="Lyavatna" />
		<tag k="natural" v="water" />
		<tag k="ssr:stedsnr" v="923124" />
	</node>
	<node id="-101062" lat="63.5772666672" lon="8.92473888442">
		<tag k="name" v="Grønnbekken" />
		<tag k="ssr:stedsnr" v="456662" />
		<tag k="waterway" v="stream" />
	</node>
	<node id="-100513" lat="63.5866750023" lon="8.44998333218">
		<tag k="name" v="Paulinatjønna" />
		<tag k="natural" v="water" />
		<tag k="ssr:stedsnr" v="96670" />
	</node>
	<node id="-102560" lat="63.4406318733" lon="8.45488571908">
		<tag k="name" v="Gandflagdavatnet" />
		<tag k="natural" v="water" />
		<tag k="ssr:stedsnr" v="923016" />
		<tag k="water" v="lake" />
	</node>
	<node id="-102559" lat="63.4333750034" lon="8.45279999809">
		<tag k="name" v="Langmyrvatnet" />
		<tag k="natural" v="water" />
		<tag k="ssr:stedsnr" v="923014" />
		<tag k="water" v="lake" />
	</node>
	<node id="-100508" lat="63.4741999966" lon="8.69681944569">
		<tag k="name" v="Sloelva" />
		<tag k="ssr:stedsnr" v="255141" />
		<tag k="waterway" v="stream" />
	</node>
	<node id="-100506" lat="63.4669083299" lon="8.34706111754">
		<tag k="alt_name" v="Saltjørna" />
		<tag k="name" v="Lomstjørna" />
		<tag k="natural" v="water" />
		<tag k="ssr:stedsnr" v="255131" />
	</node>
	<node id="-100719" lat="63.5323611143" lon="9.12928334058">
		<tag k="name" v="Skiftbekken" />
		<tag k="ssr:stedsnr" v="274334" />
		<tag k="waterway" v="stream" />
	</node>
	<node id="-102551" lat="63.4424361108" lon="8.56442777644">
		<tag k="name" v="Litlvatnet" />
		<tag k="natural" v="water" />
		<tag k="ssr:stedsnr" v="922009" />
	</node>
	<node id="-102550" lat="63.4950472205" lon="8.39384166507">
		<tag k="name" v="Sagvatnet" />
		<tag k="natural" v="water" />
		<tag k="ssr:stedsnr" v="922891" />
		<tag k="water" v="lake" />
	</node>
	<node id="-104899" lat="63.5091638912" lon="9.01744721795">
		<tag k="name" v="Gilderhaugbekken" />
		<tag k="ssr:stedsnr" v="577354" />
		<tag k="waterway" v="stream" />
	</node>
	<node id="-104592" lat="63.5474555599" lon="9.39327499521">
		<tag k="name" v="Storvikbekken" />
		<tag k="ssr:stedsnr" v="397747" />
		<tag k="waterway" v="stream" />
	</node>
	<node id="-100492" lat="63.5511888866" lon="8.52513054986">
		<tag k="name" v="Eidet" />
		<tag k="natural" v="strait" />
		<tag k="ssr:stedsnr" v="90639" />
	</node>
	<node id="-100488" lat="63.6187527748" lon="8.65209444944">
		<tag k="name" v="Straumelva" />
		<tag k="ssr:stedsnr" v="90606" />
		<tag k="waterway" v="river" />
	</node>
	<node id="-102531" lat="63.5097416626" lon="9.01293888976">
		<tag k="name" v="Sagaelva" />
		<tag k="ssr:stedsnr" v="759330" />
		<tag k="waterway" v="river" />
	</node>
	<node id="-100481" lat="63.4713500043" lon="8.45055000478">
		<tag k="name" v="Setertjørna" />
		<tag k="natural" v="water" />
		<tag k="ssr:stedsnr" v="73125" />
	</node>
	<node id="-100480" lat="63.4729666627" lon="8.61718333409">
		<tag k="name" v="Litlbrattåvatnet" />
		<tag k="natural" v="water" />
		<tag k="ssr:stedsnr" v="73119" />
	</node>
	<node id="-100478" lat="63.4879749969" lon="8.49656944619">
		<tag k="name" v="Kveldskardvatnet" />
		<tag k="natural" v="water" />
		<tag k="ssr:stedsnr" v="73102" />
	</node>
	<node id="-105503" lat="63.6712135171" lon="9.06022134668">
		<tag k="alt_name" v="Lauvdalsvatnet" />
		<tag k="name" v="Laurdagsvatnet" />
		<tag k="natural" v="water" />
		<tag k="ssr:stedsnr" v="802725" />
	</node>
	<node id="-102762" lat="63.554847224" lon="8.53735834111">
		<tag k="name" v="Lomstjørna" />
		<tag k="natural" v="water" />
		<tag k="ssr:stedsnr" v="940717" />
	</node>
	<node id="-104568" lat="63.5482694449" lon="9.42329721602">
		<tag k="name" v="Sundabekken" />
		<tag k="ssr:stedsnr" v="397078" />
		<tag k="waterway" v="stream" />
	</node>
	<node id="-102519" lat="63.5929500014" lon="8.57419721936">
		<tag k="name" v="Strandavatnet" />
		<tag k="natural" v="water" />
		<tag k="ssr:stedsnr" v="758907" />
		<tag k="water" v="lake" />
	</node>
	<node id="-104561" lat="63.4877333298" lon="8.81456110417">
		<tag k="name" v="Elsfjellvassbekken" />
		<tag k="ssr:stedsnr" v="395770" />
		<tag k="waterway" v="stream" />
	</node>
	<node id="-102512" lat="63.5418805593" lon="8.9930694344">
		<tag k="name" v="Skyttarhusneset" />
		<tag k="natural" v="cape" />
		<tag k="ssr:stedsnr" v="758868" />
	</node>
	<node id="-104559" lat="63.5356194401" lon="9.06356388247">
		<tag k="name" v="Slaveriet" />
		<tag k="place" v="island" />
		<tag k="ssr:stedsnr" v="395754" />
	</node>
	<node id="-104558" lat="63.5243777819" lon="8.99951111593">
		<tag k="name" v="Brandneset" />
		<tag k="natural" v="cape" />
		<tag k="ssr:stedsnr" v="395739" />
	</node>
	<node id="-104557" lat="63.5153055535" lon="9.01422500985">
		<tag k="name" v="Sagaelva" />
		<tag k="ssr:stedsnr" v="395734" />
		<tag k="waterway" v="river" />
	</node>
	<node id="-102418" lat="63.5595222199" lon="8.69844722162">
		<tag k="name" v="Vollanesbekken" />
		<tag k="ssr:stedsnr" v="698970" />
		<tag k="waterway" v="stream" />
	</node>
	<node id="-104554" lat="63.4820916693" lon="8.73027778437">
		<tag k="name" v="Jakopsdalsneset" />
		<tag k="natural" v="cape" />
		<tag k="ssr:stedsnr" v="395680" />
	</node>
	<node id="-104548" lat="63.544166665" lon="9.12964999106">
		<tag k="name" v="Bonbekken" />
		<tag k="ssr:stedsnr" v="395477" />
		<tag k="waterway" v="stream" />
	</node>
	<node id="-102490" lat="63.4640027771" lon="8.6191861041">
		<tag k="name" v="Lontjørna" />
		<tag k="natural" v="water" />
		<tag k="ssr:stedsnr" v="758275" />
	</node>
	<node id="-104534" lat="63.5563111126" lon="9.12678610703">
		<tag k="name" v="Vågavassbekken" />
		<tag k="ssr:stedsnr" v="395264" />
		<tag k="waterway" v="stream" />
	</node>
	<node id="-100437" lat="63.5801638929" lon="8.58168332798">
		<tag k="name" v="Trøvatnet" />
		<tag k="natural" v="water" />
		<tag k="ssr:stedsnr" v="13612" />
	</node>
	<node id="-104530" lat="63.4861277757" lon="8.68304445294">
		<tag k="name" v="Seterelva" />
		<tag k="ssr:stedsnr" v="394975" />
		<tag k="waterway" v="river" />
	</node>
	<node id="-102755" lat="63.6098611145" lon="8.66725000544">
		<tag k="name" v="Vinterskardbekken" />
		<tag k="ssr:stedsnr" v="940576" />
		<tag k="waterway" v="stream" />
	</node>
	<node id="-102479" lat="63.5683138909" lon="8.41791388299">
		<tag k="name" v="Lomstjørna" />
		<tag k="natural" v="water" />
		<tag k="ssr:stedsnr" v="758117" />
	</node>
	<node id="-102478" lat="63.6483888883" lon="9.11159721784">
		<tag k="name" v="Sørbotntjørna" />
		<tag k="natural" v="water" />
		<tag k="ssr:stedsnr" v="758108" />
	</node>
	<node id="-100429" lat="63.5994361133" lon="8.92308056418">
		<tag k="name" v="Bjørkåsvatnet" />
		<tag k="natural" v="water" />
		<tag k="ssr:stedsnr" v="13402" />
	</node>
	<node id="-100427" lat="63.5149972178" lon="8.66716666146">
		<tag k="name" v="Tverrvatnet" />
		<tag k="natural" v="water" />
		<tag k="ssr:stedsnr" v="13537" />
	</node>
	<node id="-100426" lat="63.5219722244" lon="8.91613332875">
		<tag k="name" v="Hifjellvatnet" />
		<tag k="natural" v="water" />
		<tag k="ssr:stedsnr" v="13517" />
	</node>
	<node id="-103095" lat="63.5582638862" lon="8.76010000626">
		<tag k="name" v="Fjellbekken" />
		<tag k="ssr:stedsnr" v="30775" />
		<tag k="waterway" v="stream" />
	</node>
	<node id="-100423" lat="63.459116665" lon="8.54317500682">
		<tag k="name" v="Gaddørvatna" />
		<tag k="natural" v="water" />
		<tag k="ssr:stedsnr" v="12111" />
	</node>
	<node id="-104518" lat="63.6446194462" lon="8.76714167577">
		<tag k="name" v="Reitvatnet" />
		<tag k="natural" v="water" />
		<tag k="ssr:stedsnr" v="394911" />
		<tag k="water" v="lake" />
	</node>
	<node id="-102467" lat="63.5047166686" lon="8.58347221612">
		<tag k="name" v="Skumstjørna" />
		<tag k="natural" v="water" />
		<tag k="ssr:stedsnr" v="741768" />
	</node>
	<node id="-104511" lat="63.5162638926" lon="8.50830833159">
		<tag k="alt_name" v="Sandvatnet" />
		<tag k="name" v="Faksvågsandvatnet" />
		<tag k="natural" v="water" />
		<tag k="ssr:stedsnr" v="394867" />
		<tag k="water" v="lake" />
	</node>
	<node id="-103093" lat="63.6420972228" lon="8.91129166636">
		<tag k="name" v="Offersøya" />
		<tag k="natural" v="cape" />
		<tag k="ssr:stedsnr" v="30759" />
	</node>
	<node id="-102460" lat="63.5169444456" lon="9.01386666407">
		<tag k="name" v="Sagelva" />
		<tag k="ssr:stedsnr" v="741561" />
		<tag k="waterway" v="stream" />
	</node>
	<node id="-102574" lat="63.6300166703" lon="8.7467999985">
		<tag k="name" v="Undåsvatnet" />
		<tag k="natural" v="water" />
		<tag k="ssr:stedsnr" v="923357" />
	</node>
	<node id="-103092" lat="63.6296388854" lon="8.91564167173">
		<tag k="name" v="Åltjørna" />
		<tag k="natural" v="water" />
		<tag k="ssr:stedsnr" v="30758" />
	</node>
	<node id="-104502" lat="63.5745361074" lon="8.81287500081">
		<tag k="name" v="Skjennaneset" />
		<tag k="natural" v="cape" />
		<tag k="ssr:stedsnr" v="394822" />
	</node>
	<node id="-104500" lat="63.5630194427" lon="8.79000555201">
		<tag k="name" v="Risdalsneset" />
		<tag k="natural" v="cape" />
		<tag k="ssr:stedsnr" v="394800" />
	</node>
	<node id="-102447" lat="63.4908333302" lon="8.54590000173">
		<tag k="name" v="Einskogelva" />
		<tag k="ssr:stedsnr" v="740092" />
		<tag k="waterway" v="stream" />
	</node>
	<node id="-102445" lat="63.4890500022" lon="8.34029167507">
		<tag k="name" v="Kovavatnet" />
		<tag k="natural" v="water" />
		<tag k="ssr:stedsnr" v="740077" />
	</node>
	<node id="-104491" lat="63.547919444" lon="8.72856944391">
		<tag k="name" v="Smalneset" />
		<tag k="natural" v="cape" />
		<tag k="ssr:stedsnr" v="394767" />
	</node>
	<node id="-101724" lat="63.5448833362" lon="9.19597777114">
		<tag k="name" v="Damman" />
		<tag k="natural" v="water" />
		<tag k="ssr:stedsnr" v="516440" />
	</node>
	<node id="-103089" lat="63.5422361097" lon="8.61762500631">
		<tag k="name" v="Kvernavatnet" />
		<tag k="natural" v="water" />
		<tag k="ssr:stedsnr" v="30750" />
		<tag k="water" v="lake" />
	</node>
	<node id="-104484" lat="63.6272500015" lon="8.75386110749">
		<tag k="name" v="Hundvatnet" />
		<tag k="natural" v="water" />
		<tag k="ssr:stedsnr" v="394598" />
		<tag k="water" v="lake" />
	</node>
	<node id="-104482" lat="63.4840361124" lon="8.39270556226">
		<tag k="name" v="Langneset" />
		<tag k="natural" v="cape" />
		<tag k="ssr:stedsnr" v="394486" />
	</node>
	<node id="-104481" lat="63.4888333309" lon="8.4436666748">
		<tag k="name" v="Storelvosen" />
		<tag k="natural" v="strait" />
		<tag k="ssr:stedsnr" v="394459" />
	</node>
	<node id="-104478" lat="63.5283194408" lon="8.42969167397">
		<tag k="name" v="Lauvvika" />
		<tag k="natural" v="bay" />
		<tag k="ssr:stedsnr" v="394428" />
	</node>
	<node id="-104476" lat="63.6036583327" lon="8.64566667536">
		<tag k="name" v="Høgholmen" />
		<tag k="place" v="islet" />
		<tag k="ssr:stedsnr" v="394558" />
	</node>
	<node id="-102427" lat="63.4856027805" lon="9.18181389127">
		<tag k="name" v="Lomvågen" />
		<tag k="natural" v="bay" />
		<tag k="ssr:stedsnr" v="700219" />
	</node>
	<node id="-102425" lat="63.4620277741" lon="9.1942861155">
		<tag k="name" v="Rottemselva" />
		<tag k="ssr:stedsnr" v="700214" />
		<tag k="waterway" v="river" />
	</node>
	<node id="-104466" lat="63.5866694454" lon="8.94793611054">
		<tag k="name" v="Gaddtjørna" />
		<tag k="natural" v="water" />
		<tag k="ssr:stedsnr" v="394186" />
	</node>
	<node id="-102415" lat="63.6088055551" lon="8.61423055782">
		<tag k="name" v="Hundtjørna" />
		<tag k="natural" v="water" />
		<tag k="ssr:stedsnr" v="698910" />
	</node>
	<node id="-102408" lat="63.5385583374" lon="8.85991389702">
		<tag k="name" v="Slåttadalsbekken" />
		<tag k="ssr:stedsnr" v="698811" />
		<tag k="waterway" v="stream" />
	</node>
	<node id="-104453" lat="63.5847694453" lon="9.03119444157">
		<tag k="name" v="Bruviktjørna" />
		<tag k="natural" v="water" />
		<tag k="ssr:stedsnr" v="394039" />
	</node>
	<node id="-104450" lat="63.6355527766" lon="9.10590277559">
		<tag k="name" v="Svartbekken" />
		<tag k="ssr:stedsnr" v="394002" />
		<tag k="waterway" v="stream" />
	</node>
</osm>
