<?xml version="1.0" encoding="UTF-8"?>
<osm version="0.6" generator="osmapis">
	<node lat="63.47690648251665" lon="8.279513403509679" id="-33794">
		<tag k="name" v="Gjelsøya" />
		<tag k="place" v="island" />
		<tag k="ssr:stedsnr" v="12075" />
	</node>
	<node lat="63.53766111473487" lon="9.4139694493931" id="-33799">
		<tag k="name" v="Furuholmen" />
		<tag k="place" v="islet" />
		<tag k="ssr:stedsnr" v="13167" />
	</node>
	<node lat="63.53421110759986" lon="9.399922214145814" id="-33800">
		<tag k="name" v="Monsholmen" />
		<tag k="place" v="islet" />
		<tag k="ssr:stedsnr" v="13169" />
	</node>
	<node lat="63.547402773889424" lon="8.335908324836211" id="-33811">
		<tag k="fixme" v="consider seamark:type=rock or natural=shoal" />
		<tag k="name" v="Kløftøydraget" />
		<tag k="place" v="islet" />
		<tag k="ssr:stedsnr" v="13605" />
	</node>
	<node lat="63.556125001801504" lon="8.30159166643185" id="-33812">
		<tag k="name" v="Kobbholmen" />
		<tag k="place" v="islet" />
		<tag k="ssr:stedsnr" v="13607" />
	</node>
	<node lat="63.57813611292324" lon="8.490208323821033" id="-33814">
		<tag k="name" v="Sandholman" />
		<tag k="place" v="islet" />
		<tag k="ssr:stedsnr" v="13617" />
	</node>
	<node lat="63.579824996343554" lon="8.340433335246795" id="-33815">
		<tag k="name" v="Bussøyan" />
		<tag k="place" v="islet" />
		<tag k="ssr:stedsnr" v="13619" />
	</node>
	<node lat="63.57655000005074" lon="8.337344452926997" id="-33816">
		<tag k="name" v="Edøybussøya" />
		<tag k="place" v="islet" />
		<tag k="ssr:stedsnr" v="13620" />
	</node>
	<node lat="63.516488884607746" lon="9.121049999673202" id="-33819">
		<tag k="name" v="Tranholmen" />
		<tag k="place" v="islet" />
		<tag k="ssr:stedsnr" v="13508" />
	</node>
	<node lat="63.529455555207534" lon="8.29150556475463" id="-33823">
		<tag k="alt_name" v="Gråbakk, l" />
		<tag k="fixme" v="consider seamark:type=rock or natural=shoal" />
		<tag k="name" v="Litle Gråbakk" />
		<tag k="place" v="islet" />
		<tag k="ssr:stedsnr" v="13567" />
	</node>
	<node lat="63.5358666656713" lon="8.359005556697833" id="-33824">
		<tag k="name" v="Hammarøya" />
		<tag k="place" v="islet" />
		<tag k="ssr:stedsnr" v="13573" />
	</node>
	<node lat="63.56318888922752" lon="8.479563887295383" id="-33826">
		<tag k="fixme" v="consider seamark:type=rock or natural=shoal" />
		<tag k="name" v="Svaskjæret" />
		<tag k="place" v="islet" />
		<tag k="ssr:stedsnr" v="13580" />
	</node>
	<node lat="63.66545961165693" lon="8.82103462175502" id="-33827">
		<tag k="fixme" v="multiple name tags, choose one and add the other to alt_name; consider seamark:type=rock or natural=shoal" />
		<tag k="name" v="Knutshaugskjæra;Seibalskjæra" />
		<tag k="place" v="islet" />
		<tag k="ssr:stedsnr" v="13701" />
	</node>
	<node lat="63.589797220049796" lon="8.394325007099125" id="-33830">
		<tag k="name" v="Langskaget" />
		<tag k="natural" v="cape" />
		<tag k="ssr:stedsnr" v="13875" />
	</node>
	<node lat="63.58549151525018" lon="8.426534158733578" id="-33831">
		<tag k="name" v="Storsjøholmen" />
		<tag k="place" v="islet" />
		<tag k="ssr:stedsnr" v="13877" />
	</node>
	<node lat="63.6004416662735" lon="8.355091673770756" id="-33832">
		<tag k="name" v="Brannøya" />
		<tag k="place" v="islet" />
		<tag k="ssr:stedsnr" v="13888" />
	</node>
	<node lat="63.59458610819138" lon="8.352161105766859" id="-33833">
		<tag k="name" v="Oterholmen" />
		<tag k="place" v="islet" />
		<tag k="ssr:stedsnr" v="13889" />
	</node>
	<node lat="63.6080861099996" lon="8.4470861162772" id="-33834">
		<tag k="name" v="Kongsholmen" />
		<tag k="place" v="islet" />
		<tag k="ssr:stedsnr" v="13908" />
	</node>
	<node lat="63.61844721822347" lon="8.418544434583582" id="-33836">
		<tag k="name" v="Singsdraget" />
		<tag k="place" v="islet" />
		<tag k="ssr:stedsnr" v="13924" />
	</node>
	<node lat="63.61388610718223" lon="8.525727786916859" id="-33837">
		<tag k="fixme" v="consider seamark:type=rock or natural=shoal" />
		<tag k="name" v="Klovningen" />
		<tag k="place" v="islet" />
		<tag k="ssr:stedsnr" v="13930" />
	</node>
	<node lat="63.63829638338933" lon="8.517798430462019" id="-33838">
		<tag k="alt_name" v="Kjelholman, store" />
		<tag k="name" v="Store Kjelholmen" />
		<tag k="place" v="islet" />
		<tag k="ssr:stedsnr" v="13961" />
	</node>
	<node lat="63.57876667013418" lon="8.36173056242135" id="-33840">
		<tag k="fixme" v="consider seamark:type=rock or natural=shoal" />
		<tag k="name" v="Grønnskjæret" />
		<tag k="place" v="islet" />
		<tag k="ssr:stedsnr" v="30103" />
	</node>
	<node lat="63.579258337076375" lon="8.417241672453171" id="-33842">
		<tag k="name" v="Kattuggelholmen" />
		<tag k="place" v="islet" />
		<tag k="ssr:stedsnr" v="30108" />
	</node>
	<node lat="63.65179166954756" lon="9.121858327368773" id="-33844">
		<tag k="name" v="Garnhammaren" />
		<tag k="natural" v="cape" />
		<tag k="ssr:stedsnr" v="30112" />
	</node>
	<node lat="63.55976110752548" lon="8.391788898072821" id="-33845">
		<tag k="fixme" v="consider seamark:type=rock or natural=shoal" />
		<tag k="name" v="Flatøyskjæret" />
		<tag k="place" v="islet" />
		<tag k="ssr:stedsnr" v="30114" />
	</node>
	<node lat="63.64626110971757" lon="9.13299721622558" id="-33846">
		<tag k="name" v="Botnviktjørna" />
		<tag k="natural" v="bay" />
		<tag k="ssr:stedsnr" v="30120" />
	</node>
	<node lat="63.6500055562889" lon="9.153200008909566" id="-33847">
		<tag k="name" v="Kvitsanbukta" />
		<tag k="natural" v="bay" />
		<tag k="ssr:stedsnr" v="30121" />
	</node>
	<node lat="63.55903055891156" lon="8.494844435380111" id="-33852">
		<tag k="name" v="Eriksholmen" />
		<tag k="place" v="islet" />
		<tag k="ssr:stedsnr" v="30176" />
	</node>
	<node lat="63.59570278186567" lon="8.420480549727012" id="-33855">
		<tag k="name" v="Tjønnøyholmen" />
		<tag k="place" v="islet" />
		<tag k="ssr:stedsnr" v="30068" />
	</node>
	<node lat="63.56569166379867" lon="8.500686103419564" id="-33857">
		<tag k="name" v="Kjerksundet" />
		<tag k="natural" v="strait" />
		<tag k="ssr:stedsnr" v="30202" />
	</node>
	<node lat="63.451358334185" lon="8.59831943536303" id="-33859">
		<tag k="name" v="Gullholmen" />
		<tag k="place" v="islet" />
		<tag k="ssr:stedsnr" v="30208" />
	</node>
	<node lat="63.64078611040725" lon="9.035005556804315" id="-33860">
		<tag k="name" v="Skjelstraumen" />
		<tag k="natural" v="strait" />
		<tag k="ssr:stedsnr" v="30210" />
	</node>
	<node lat="63.64048333363585" lon="9.032858337131593" id="-33862">
		<tag k="name" v="Straumholmen" />
		<tag k="place" v="islet" />
		<tag k="ssr:stedsnr" v="30212" />
	</node>
	<node lat="63.45943610796832" lon="8.619991665694908" id="-33864">
		<tag k="name" v="Kulvik-klakken" />
		<tag k="natural" v="cape" />
		<tag k="ssr:stedsnr" v="30221" />
	</node>
	<node lat="63.62765832962009" lon="8.719116671291959" id="-33868">
		<tag k="name" v="Hopsjøvågen" />
		<tag k="natural" v="bay" />
		<tag k="ssr:stedsnr" v="30514" />
	</node>
	<node lat="63.613686109222115" lon="8.646986108468381" id="-33870">
		<tag k="name" v="Valeidet" />
		<tag k="place" v="locality" />
		<tag k="ssr:stedsnr" v="30569" />
	</node>
	<node lat="63.62738888700099" lon="8.69934721428105" id="-33873">
		<tag k="name" v="Dragkula" />
		<tag k="natural" v="strait" />
		<tag k="ssr:stedsnr" v="30526" />
	</node>
	<node lat="63.63280833215407" lon="8.75540554652819" id="-33878">
		<tag k="name" v="Vågen" />
		<tag k="natural" v="bay" />
		<tag k="ssr:stedsnr" v="30609" />
	</node>
	<node lat="63.633466662939995" lon="8.754344438719663" id="-33879">
		<tag k="name" v="Vågøya" />
		<tag k="natural" v="cape" />
		<tag k="ssr:stedsnr" v="30610" />
	</node>
	<node lat="63.47759167070335" lon="8.312675007449965" id="-33880">
		<tag k="name" v="Olasvågholman" />
		<tag k="place" v="islet" />
		<tag k="ssr:stedsnr" v="30617" />
	</node>
	<node lat="63.58680833324575" lon="8.576755552744306" id="-33886">
		<tag k="name" v="Ostervågstraumen" />
		<tag k="natural" v="strait" />
		<tag k="ssr:stedsnr" v="30902" />
	</node>
	<node lat="63.61497500337265" lon="8.627180546202785" id="-33889">
		<tag k="name" v="Rumpa" />
		<tag k="natural" v="cape" />
		<tag k="ssr:stedsnr" v="30916" />
	</node>
	<node lat="63.64656944098246" lon="8.718749996478026" id="-33890">
		<tag k="name" v="Sørvågen" />
		<tag k="natural" v="bay" />
		<tag k="ssr:stedsnr" v="30918" />
	</node>
	<node lat="63.61475555773489" lon="8.639719438241288" id="-33891">
		<tag k="alt_name" v="Smågesjøholman" />
		<tag k="name" v="Innerøya" />
		<tag k="place" v="island" />
		<tag k="ssr:stedsnr" v="30919" />
	</node>
	<node lat="63.62242222490876" lon="8.938416658296198" id="-33897">
		<tag k="fixme" v="consider seamark:type=rock or natural=shoal" />
		<tag k="name" v="Revet" />
		<tag k="place" v="islet" />
		<tag k="ssr:stedsnr" v="30866" />
	</node>
	<node lat="63.62193888584351" lon="8.522847228543958" id="-33898">
		<tag k="name" v="Grønnholmen" />
		<tag k="place" v="islet" />
		<tag k="ssr:stedsnr" v="30873" />
	</node>
	<node lat="63.658697221649625" lon="8.792952787638063" id="-33899">
		<tag k="name" v="Vågan" />
		<tag k="natural" v="bay" />
		<tag k="ssr:stedsnr" v="30878" />
	</node>
	<node lat="63.65236389101527" lon="8.796013898001807" id="-33900">
		<tag k="alt_name" v="Ytre Vågen" />
		<tag k="name" v="Norddolmsvågen" />
		<tag k="natural" v="bay" />
		<tag k="ssr:stedsnr" v="30885" />
	</node>
	<node lat="63.67026111249109" lon="9.167233323704288" id="-33901">
		<tag k="fixme" v="consider seamark:type=rock or natural=shoal" />
		<tag k="name" v="Flatskjæret" />
		<tag k="place" v="islet" />
		<tag k="ssr:stedsnr" v="31011" />
	</node>
	<node lat="63.57301944811413" lon="9.174688885172955" id="-33903">
		<tag k="name" v="Litlpurkholmen" />
		<tag k="place" v="islet" />
		<tag k="ssr:stedsnr" v="31323" />
	</node>
	<node lat="63.522597218961096" lon="9.11609166326028" id="-33908">
		<tag k="name" v="Djupsundet" />
		<tag k="natural" v="bay" />
		<tag k="ssr:stedsnr" v="31367" />
	</node>
	<node lat="63.48423055341526" lon="8.806502781702715" id="-33912">
		<tag k="name" v="Båtsvika" />
		<tag k="natural" v="bay" />
		<tag k="ssr:stedsnr" v="31722" />
	</node>
	<node lat="63.638822218319596" lon="8.540372227763697" id="-33917">
		<tag k="name" v="Leiflua" />
		<tag k="natural" v="shoal" />
		<tag k="place" v="locality" />
		<tag k="ssr:stedsnr" v="32323" />
	</node>
	<node lat="63.61028888526986" lon="8.459447224565693" id="-33918">
		<tag k="alt_name" v="Torsøysundet" />
		<tag k="name" v="Tosøysundet" />
		<tag k="natural" v="strait" />
		<tag k="ssr:stedsnr" v="32327" />
	</node>
	<node lat="63.52775555125904" lon="9.284241663455386" id="-33921">
		<tag k="name" v="Råskjærbukta" />
		<tag k="natural" v="bay" />
		<tag k="ssr:stedsnr" v="33207" />
	</node>
	<node lat="63.478233333176235" lon="9.061900007034016" id="-33929">
		<tag k="name" v="Indre Kvalholmfluan" />
		<tag k="natural" v="shoal" />
		<tag k="place" v="locality" />
		<tag k="ssr:stedsnr" v="45602" />
	</node>
	<node lat="63.45975277410259" lon="8.680186114961023" id="-33930">
		<tag k="name" v="Grønnholmgrunnen" />
		<tag k="natural" v="shoal" />
		<tag k="place" v="locality" />
		<tag k="ssr:stedsnr" v="48275" />
	</node>
	<node lat="63.585600000128466" lon="8.357505556070949" id="-33933">
		<tag k="name" v="Teistskjærøya" />
		<tag k="place" v="islet" />
		<tag k="ssr:stedsnr" v="60608" />
	</node>
	<node lat="63.603883332222715" lon="8.339652784177305" id="-33935">
		<tag k="name" v="Storbåan" />
		<tag k="natural" v="shoal" />
		<tag k="place" v="locality" />
		<tag k="ssr:stedsnr" v="242853" />
	</node>
	<node lat="63.59126389159327" lon="9.150908334261013" id="-33943">
		<tag k="name" v="Lyngøya" />
		<tag k="place" v="islet" />
		<tag k="ssr:stedsnr" v="73361" />
	</node>
	<node lat="63.41638333431774" lon="8.409661109669013" id="-33949">
		<tag k="fixme" v="consider seamark:type=rock or natural=shoal" />
		<tag k="name" v="Flatskjæra" />
		<tag k="place" v="islet" />
		<tag k="ssr:stedsnr" v="74037" />
	</node>
	<node lat="63.4243750005827" lon="8.326974991431909" id="-33950">
		<tag k="name" v="Lyngøya" />
		<tag k="place" v="island" />
		<tag k="ssr:stedsnr" v="74055" />
	</node>
	<node lat="63.656997224530095" lon="9.148391673989037" id="-33952">
		<tag k="name" v="Lyngøya" />
		<tag k="place" v="islet" />
		<tag k="ssr:stedsnr" v="74274" />
	</node>
	<node lat="63.54506111525534" lon="9.210497218381896" id="-33955">
		<tag k="fixme" v="multiple name tags, choose one and add the other to alt_name" />
		<tag k="name" v="Badstuholmen;Storholmen" />
		<tag k="place" v="islet" />
		<tag k="ssr:stedsnr" v="74460" />
	</node>
	<node lat="63.572861109923934" lon="9.194511110777366" id="-33959">
		<tag k="name" v="Børøysundet" />
		<tag k="natural" v="strait" />
		<tag k="ssr:stedsnr" v="74368" />
	</node>
	<node lat="63.52466944548768" lon="8.349705551662016" id="-33964">
		<tag k="alt_name" v="Grønnvikholman" />
		<tag k="name" v="Grønvikholman" />
		<tag k="place" v="islet" />
		<tag k="ssr:stedsnr" v="74518" />
	</node>
	<node lat="63.57643055169845" lon="8.358494444878678" id="-33968">
		<tag k="name" v="Vadholman" />
		<tag k="place" v="islet" />
		<tag k="ssr:stedsnr" v="74610" />
	</node>
	<node lat="63.58705555536558" lon="8.578983328588611" id="-33970">
		<tag k="name" v="Snekkelsøya" />
		<tag k="place" v="islet" />
		<tag k="ssr:stedsnr" v="74614" />
	</node>
	<node lat="63.677488886366504" lon="9.127011101495327" id="-33972">
		<tag k="name" v="Nordøya" />
		<tag k="place" v="islet" />
		<tag k="ssr:stedsnr" v="74669" />
	</node>
	<node lat="63.670683330329524" lon="8.842625004362556" id="-33973">
		<tag k="fixme" v="consider seamark:type=rock or natural=shoal" />
		<tag k="name" v="Hilbåen" />
		<tag k="place" v="islet" />
		<tag k="ssr:stedsnr" v="74671" />
	</node>
	<node lat="63.64581944255663" lon="8.654955557001312" id="-33974">
		<tag k="name" v="Kuøya" />
		<tag k="place" v="islet" />
		<tag k="ssr:stedsnr" v="74959" />
	</node>
	<node lat="63.63580555942438" lon="8.58502221619489" id="-33975">
		<tag k="alt_name" v="Brøran" />
		<tag k="fixme" v="consider seamark:type=rock or natural=shoal" />
		<tag k="name" v="Brørne" />
		<tag k="place" v="islet" />
		<tag k="ssr:stedsnr" v="74963" />
	</node>
	<node lat="63.63281389005184" lon="9.040391663611352" id="-33978">
		<tag k="name" v="Fættastraumen" />
		<tag k="natural" v="strait" />
		<tag k="ssr:stedsnr" v="90204" />
	</node>
	<node lat="63.63677222397808" lon="9.030294452352969" id="-33979">
		<tag k="name" v="Krokvika" />
		<tag k="natural" v="bay" />
		<tag k="ssr:stedsnr" v="90173" />
	</node>
	<node lat="63.63513333632501" lon="8.66707222990773" id="-33980">
		<tag k="name" v="Hjertøysundet" />
		<tag k="natural" v="strait" />
		<tag k="ssr:stedsnr" v="90503" />
	</node>
	<node lat="63.48402222331066" lon="8.271397228503123" id="-33982">
		<tag k="name" v="Gjelsøysvaet" />
		<tag k="natural" v="bay" />
		<tag k="ssr:stedsnr" v="90666" />
	</node>
	<node lat="63.58079722645721" lon="8.456286102448257" id="-33988">
		<tag k="name" v="Vadet" />
		<tag k="place" v="locality" />
		<tag k="ssr:stedsnr" v="91163" />
	</node>
	<node lat="63.579963892705045" lon="8.48739166558932" id="-33989">
		<tag k="name" v="Storstrandholmen" />
		<tag k="place" v="islet" />
		<tag k="ssr:stedsnr" v="91168" />
	</node>
	<node lat="63.600538892447936" lon="8.412727778762525" id="-33990">
		<tag k="name" v="Stokkøyholmen" />
		<tag k="place" v="islet" />
		<tag k="ssr:stedsnr" v="91069" />
	</node>
	<node lat="63.58148610684521" lon="8.37109167264074" id="-33991">
		<tag k="name" v="Ytter Eikskaget" />
		<tag k="natural" v="cape" />
		<tag k="ssr:stedsnr" v="91081" />
	</node>
	<node lat="63.43956944392236" lon="8.326099996433586" id="-33992">
		<tag k="name" v="Lyabukta" />
		<tag k="natural" v="bay" />
		<tag k="ssr:stedsnr" v="91318" />
	</node>
	<node lat="63.4273861104653" lon="8.408638893701735" id="-33993">
		<tag k="name" v="Gullsvikholmen" />
		<tag k="place" v="islet" />
		<tag k="ssr:stedsnr" v="91509" />
	</node>
	<node lat="63.432405558606156" lon="8.370747219998965" id="-33994">
		<tag k="name" v="Kvitholmen" />
		<tag k="place" v="islet" />
		<tag k="ssr:stedsnr" v="91371" />
	</node>
	<node lat="63.51711389268374" lon="8.342302771256954" id="-33996">
		<tag k="name" v="Drageidsvaet" />
		<tag k="natural" v="bay" />
		<tag k="ssr:stedsnr" v="91425" />
	</node>
	<node lat="63.63072499711908" lon="8.726958342881993" id="-33997">
		<tag k="fixme" v="consider seamark:type=rock or natural=shoal" />
		<tag k="name" v="Hopsjøskjæret" />
		<tag k="place" v="islet" />
		<tag k="ssr:stedsnr" v="91612" />
	</node>
	<node lat="63.64195833402506" lon="8.915144450135422" id="-33998">
		<tag k="name" v="Nordvågen" />
		<tag k="natural" v="bay" />
		<tag k="ssr:stedsnr" v="91776" />
	</node>
	<node lat="63.615211112154455" lon="8.577366657392622" id="-34003">
		<tag k="name" v="Steinholmen" />
		<tag k="place" v="islet" />
		<tag k="ssr:stedsnr" v="91913" />
	</node>
	<node lat="63.47511111015351" lon="8.255366658995971" id="-34009">
		<tag k="fixme" v="consider seamark:type=rock or natural=shoal" />
		<tag k="name" v="Djupbakkskjæret" />
		<tag k="place" v="islet" />
		<tag k="ssr:stedsnr" v="91883" />
	</node>
	<node lat="63.621227780520655" lon="8.515038892795957" id="-34010">
		<tag k="name" v="Grønnholmråsa" />
		<tag k="natural" v="bay" />
		<tag k="ssr:stedsnr" v="91889" />
	</node>
	<node lat="63.64743611194453" lon="9.208994453072757" id="-34011">
		<tag k="name" v="Breidflua" />
		<tag k="natural" v="shoal" />
		<tag k="place" v="locality" />
		<tag k="ssr:stedsnr" v="92109" />
	</node>
	<node lat="63.50794166996512" lon="9.089725005275216" id="-34012">
		<tag k="fixme" v="consider seamark:type=rock or natural=shoal" />
		<tag k="name" v="Lånnaskjæret" />
		<tag k="place" v="islet" />
		<tag k="ssr:stedsnr" v="92308" />
	</node>
	<node lat="63.60422777547485" lon="8.379080549610487" id="-34019">
		<tag k="name" v="Lomsøyfluin" />
		<tag k="natural" v="shoal" />
		<tag k="place" v="locality" />
		<tag k="ssr:stedsnr" v="92286" />
	</node>
	<node lat="63.5356861079502" lon="8.354263879599298" id="-34028">
		<tag k="name" v="Litledøya" />
		<tag k="place" v="islet" />
		<tag k="ssr:stedsnr" v="92709" />
	</node>
	<node lat="63.47148888612967" lon="9.168297226868253" id="-34033">
		<tag k="name" v="Ormneset" />
		<tag k="natural" v="cape" />
		<tag k="ssr:stedsnr" v="93171" />
	</node>
	<node lat="63.55397777450757" lon="9.366263887335462" id="-34038">
		<tag k="name" v="Vettaneset" />
		<tag k="natural" v="cape" />
		<tag k="ssr:stedsnr" v="93611" />
	</node>
	<node lat="63.616147219953376" lon="8.439994437315328" id="-34040">
		<tag k="name" v="Skalløybugen" />
		<tag k="natural" v="strait" />
		<tag k="ssr:stedsnr" v="96270" />
	</node>
	<node lat="63.58828611495215" lon="8.450636104465898" id="-34044">
		<tag k="name" v="Purka" />
		<tag k="natural" v="shoal" />
		<tag k="place" v="locality" />
		<tag k="ssr:stedsnr" v="96676" />
	</node>
	<node lat="63.579634672873624" lon="8.433460750076794" id="-34046">
		<tag k="name" v="Kalvbukta" />
		<tag k="natural" v="bay" />
		<tag k="ssr:stedsnr" v="97281" />
	</node>
	<node lat="63.42162777872064" lon="8.316766675443056" id="-34047">
		<tag k="fixme" v="consider seamark:type=rock or natural=shoal" />
		<tag k="name" v="Lyngøyskjæra" />
		<tag k="place" v="islet" />
		<tag k="ssr:stedsnr" v="97373" />
	</node>
	<node lat="63.49817222465679" lon="9.16817500018626" id="-34050">
		<tag k="name" v="Skardbergflua" />
		<tag k="natural" v="shoal" />
		<tag k="place" v="locality" />
		<tag k="ssr:stedsnr" v="106914" />
	</node>
	<node lat="63.528802780573486" lon="8.374547214117483" id="-34051">
		<tag k="name" v="Flua" />
		<tag k="natural" v="shoal" />
		<tag k="place" v="locality" />
		<tag k="ssr:stedsnr" v="108016" />
	</node>
	<node lat="63.473722221144456" lon="8.829319444288647" id="-34054">
		<tag k="fixme" v="consider seamark:type=rock or natural=shoal" />
		<tag k="name" v="Oddskjæra" />
		<tag k="place" v="islet" />
		<tag k="ssr:stedsnr" v="121806" />
	</node>
	<node lat="63.47676388958333" lon="8.292283338601907" id="-34062">
		<tag k="name" v="Rognholmen" />
		<tag k="place" v="islet" />
		<tag k="ssr:stedsnr" v="133062" />
	</node>
	<node lat="63.46790000448621" lon="8.294669439218305" id="-34063">
		<tag k="name" v="Revholmen" />
		<tag k="place" v="islet" />
		<tag k="ssr:stedsnr" v="133065" />
	</node>
	<node lat="63.484499999315304" lon="8.31638610362842" id="-34064">
		<tag k="alt_name" v="Hærnesfjorden" />
		<tag k="bay" v="fjord" />
		<tag k="name" v="Hernesfjorden" />
		<tag k="natural" v="bay" />
		<tag k="ssr:stedsnr" v="133075" />
	</node>
	<node lat="63.49540555208427" lon="9.039680549375221" id="-34065">
		<tag k="name" v="Terningen" />
		<tag k="place" v="islet" />
		<tag k="ssr:stedsnr" v="133407" />
	</node>
	<node lat="63.48290832912696" lon="9.076438880437802" id="-34067">
		<tag k="name" v="Kvalholmen" />
		<tag k="place" v="islet" />
		<tag k="ssr:stedsnr" v="133416" />
	</node>
	<node lat="63.415752247204246" lon="8.453249389703215" id="-34069">
		<tag k="name" v="Værøyan" />
		<tag k="place" v="island" />
		<tag k="ssr:stedsnr" v="134055" />
	</node>
	<node lat="63.555758330309814" lon="9.381025006553537" id="-34072">
		<tag k="name" v="Risholmen" />
		<tag k="natural" v="cape" />
		<tag k="ssr:stedsnr" v="134164" />
	</node>
	<node lat="63.518858334351364" lon="8.284791660333713" id="-34073">
		<tag k="name" v="Purkholmen" />
		<tag k="place" v="islet" />
		<tag k="ssr:stedsnr" v="134168" />
	</node>
	<node lat="63.52551944633978" lon="9.311038888284687" id="-34074">
		<tag k="name" v="Storholmen" />
		<tag k="place" v="islet" />
		<tag k="ssr:stedsnr" v="134174" />
	</node>
	<node lat="63.51034166368393" lon="9.087086104618201" id="-34079">
		<tag k="name" v="Jøsnøya" />
		<tag k="place" v="island" />
		<tag k="ssr:stedsnr" v="134514" />
	</node>
	<node lat="63.55976944022652" lon="8.34580555107072" id="-34082">
		<tag k="name" v="Musøya" />
		<tag k="place" v="islet" />
		<tag k="ssr:stedsnr" v="134605" />
	</node>
	<node lat="63.56086666457693" lon="8.328469444943796" id="-34083">
		<tag k="name" v="Gåsholman" />
		<tag k="place" v="islet" />
		<tag k="ssr:stedsnr" v="134608" />
	</node>
	<node lat="63.569416670133656" lon="8.622194438848272" id="-34085">
		<tag k="name" v="Hestøy" />
		<tag k="place" v="islet" />
		<tag k="ssr:stedsnr" v="134615" />
	</node>
	<node lat="63.657322218418926" lon="8.828397216728161" id="-34086">
		<tag k="name" v="Vadet" />
		<tag k="natural" v="bay" />
		<tag k="ssr:stedsnr" v="134702" />
	</node>
	<node lat="63.587724999391675" lon="8.392191676679346" id="-34088">
		<tag k="name" v="Ekvågen" />
		<tag k="natural" v="bay" />
		<tag k="ssr:stedsnr" v="134905" />
	</node>
	<node lat="63.59372769433561" lon="8.453779552380102" id="-34089">
		<tag k="alt_name" v="Bukkøyholman" />
		<tag k="name" v="Bukkholman" />
		<tag k="place" v="islet" />
		<tag k="ssr:stedsnr" v="134910" />
	</node>
	<node lat="63.59673055995011" lon="8.39123611944294" id="-34090">
		<tag k="name" v="Urdsvær" />
		<tag k="place" v="islet" />
		<tag k="ssr:stedsnr" v="134914" />
	</node>
	<node lat="63.604175000631706" lon="8.351136104914996" id="-34092">
		<tag k="fixme" v="consider seamark:type=rock or natural=shoal" />
		<tag k="loc_name" v="Vester Hummarskjeret" />
		<tag k="name" v="Hummarskjæret" />
		<tag k="place" v="islet" />
		<tag k="ssr:stedsnr" v="134922" />
	</node>
	<node lat="63.628955555430736" lon="8.654616676369573" id="-34094">
		<tag k="name" v="Hjertøya" />
		<tag k="place" v="island" />
		<tag k="ssr:stedsnr" v="134959" />
	</node>
	<node lat="63.62698055729912" lon="8.670255562387052" id="-34095">
		<tag k="name" v="Kongsnesholmen" />
		<tag k="place" v="islet" />
		<tag k="ssr:stedsnr" v="134962" />
	</node>
	<node lat="63.46982500194812" lon="8.284227787614022" id="-34096">
		<tag k="name" v="Kjeøya" />
		<tag k="place" v="island" />
		<tag k="ssr:stedsnr" v="255089" />
	</node>
	<node lat="63.42833055992982" lon="8.315380551992925" id="-34098">
		<tag k="name" v="Ramsøya" />
		<tag k="place" v="island" />
		<tag k="ssr:stedsnr" v="255055" />
	</node>
	<node lat="63.46871666644694" lon="8.680725002409268" id="-34099">
		<tag k="name" v="Dyrvikholman" />
		<tag k="place" v="islet" />
		<tag k="ssr:stedsnr" v="255124" />
	</node>
	<node lat="63.591574998520436" lon="9.117077778888394" id="-34103">
		<tag k="name" v="Storsandvika" />
		<tag k="natural" v="bay" />
		<tag k="ssr:stedsnr" v="255353" />
	</node>
	<node lat="63.59324444705943" lon="9.170930547447812" id="-34104">
		<tag k="name" v="Skjeggen" />
		<tag k="place" v="islet" />
		<tag k="ssr:stedsnr" v="255355" />
	</node>
	<node lat="63.51540833477976" lon="9.078258339020161" id="-34108">
		<tag k="name" v="Kallarneset" />
		<tag k="natural" v="cape" />
		<tag k="ssr:stedsnr" v="255490" />
	</node>
	<node lat="63.65254444848245" lon="8.962030561794268" id="-34115">
		<tag k="name" v="Skjellandet" />
		<tag k="natural" v="beach" />
		<tag k="ssr:stedsnr" v="255633" />
	</node>
	<node lat="63.66570555320279" lon="8.874008335656763" id="-34116">
		<tag k="fixme" v="consider seamark:type=rock or natural=shoal" />
		<tag k="name" v="Leiskjæret" />
		<tag k="place" v="islet" />
		<tag k="ssr:stedsnr" v="255634" />
	</node>
	<node lat="63.66321110740795" lon="9.088947225275907" id="-34118">
		<tag k="name" v="Knarrlagsundet" />
		<tag k="natural" v="strait" />
		<tag k="ssr:stedsnr" v="255641" />
	</node>
	<node lat="63.602866671011036" lon="8.394833326981002" id="-34119">
		<tag k="name" v="Grønnøya" />
		<tag k="place" v="islet" />
		<tag k="ssr:stedsnr" v="255931" />
	</node>
	<node lat="63.60230277726022" lon="8.462741667016767" id="-34120">
		<tag k="name" v="Klubbholmen" />
		<tag k="place" v="islet" />
		<tag k="ssr:stedsnr" v="255937" />
	</node>
	<node lat="63.61086388931822" lon="8.566047226044729" id="-34121">
		<tag k="name" v="Geitholmen" />
		<tag k="place" v="islet" />
		<tag k="ssr:stedsnr" v="255938" />
	</node>
	<node lat="63.6157805511613" lon="8.429794440686809" id="-34122">
		<tag k="name" v="Lyngbrattholmen" />
		<tag k="place" v="islet" />
		<tag k="ssr:stedsnr" v="255942" />
	</node>
	<node lat="63.61461944318484" lon="8.567463892610798" id="-34123">
		<tag k="name" v="Risøya" />
		<tag k="place" v="islet" />
		<tag k="ssr:stedsnr" v="255947" />
	</node>
	<node lat="63.41852499991182" lon="8.460733331165724" id="-34126">
		<tag k="name" v="Ringholmen" />
		<tag k="place" v="islet" />
		<tag k="ssr:stedsnr" v="256045" />
	</node>
	<node lat="63.550506046844525" lon="9.400278865061104" id="-34127">
		<tag k="name" v="Innervågen" />
		<tag k="natural" v="bay" />
		<tag k="ssr:stedsnr" v="256134" />
	</node>
	<node lat="63.62768888722885" lon="9.128302777082233" id="-34129">
		<tag k="name" v="Kvalholmen" />
		<tag k="place" v="islet" />
		<tag k="ssr:stedsnr" v="256313" />
	</node>
	<node lat="63.54574166317019" lon="9.184949993375657" id="-34132">
		<tag k="name" v="Kjeøya" />
		<tag k="place" v="islet" />
		<tag k="ssr:stedsnr" v="256424" />
	</node>
	<node lat="63.50683522092264" lon="8.997404886486324" id="-34133">
		<tag k="name" v="Kvernavika" />
		<tag k="natural" v="bay" />
		<tag k="ssr:stedsnr" v="256436" />
	</node>
	<node lat="63.52687968690598" lon="8.316191700182136" id="-34134">
		<tag k="name" v="Roraholmen" />
		<tag k="place" v="islet" />
		<tag k="ssr:stedsnr" v="256483" />
	</node>
	<node lat="63.55417499589451" lon="8.48311943624268" id="-34141">
		<tag k="name" v="Grefsnesvågen" />
		<tag k="natural" v="bay" />
		<tag k="ssr:stedsnr" v="151006" />
	</node>
	<node lat="63.55645832981943" lon="8.489122217179299" id="-34143">
		<tag k="name" v="Dyrskaget" />
		<tag k="natural" v="cape" />
		<tag k="ssr:stedsnr" v="151009" />
	</node>
	<node lat="63.60491667062606" lon="8.419966671621083" id="-34146">
		<tag k="fixme" v="consider seamark:type=rock or natural=shoal" />
		<tag k="name" v="Skarvskjæret" />
		<tag k="place" v="islet" />
		<tag k="ssr:stedsnr" v="151022" />
	</node>
	<node lat="63.632447220709366" lon="9.134672223657208" id="-34147">
		<tag k="name" v="Fjellværbukta" />
		<tag k="natural" v="bay" />
		<tag k="ssr:stedsnr" v="151023" />
	</node>
	<node lat="63.579161111985314" lon="8.443236115633114" id="-34149">
		<tag k="name" v="Storsteinbørholmen" />
		<tag k="place" v="islet" />
		<tag k="ssr:stedsnr" v="151104" />
	</node>
	<node lat="63.661719445075725" lon="9.108099998819078" id="-34150">
		<tag k="name" v="Koksvika" />
		<tag k="natural" v="bay" />
		<tag k="ssr:stedsnr" v="151106" />
	</node>
	<node lat="63.61972499758829" lon="8.496886116670472" id="-34151">
		<tag k="fixme" v="multiple name tags, choose one and add the other to alt_name; consider seamark:type=rock or natural=shoal" />
		<tag k="name" v="Litle Svartoksen;Sandskjæret" />
		<tag k="place" v="islet" />
		<tag k="ssr:stedsnr" v="151156" />
	</node>
	<node lat="63.58449999876907" lon="8.46473333694979" id="-34152">
		<tag k="name" v="Kvalvågen" />
		<tag k="natural" v="bay" />
		<tag k="ssr:stedsnr" v="151164" />
	</node>
	<node lat="63.66960277556326" lon="9.043033340610503" id="-34154">
		<tag k="name" v="Ulvneset" />
		<tag k="natural" v="cape" />
		<tag k="ssr:stedsnr" v="151173" />
	</node>
	<node lat="63.54712499603391" lon="8.347986108749774" id="-34159">
		<tag k="name" v="Kløftøyan" />
		<tag k="place" v="islet" />
		<tag k="ssr:stedsnr" v="256512" />
	</node>
	<node lat="63.56524166554018" lon="8.501147216340858" id="-34162">
		<tag k="name" v="Kjerksundholmen" />
		<tag k="place" v="islet" />
		<tag k="ssr:stedsnr" v="151216" />
	</node>
	<node lat="63.6349666622231" lon="9.162036109271163" id="-34164">
		<tag k="name" v="Ringholmen" />
		<tag k="place" v="islet" />
		<tag k="ssr:stedsnr" v="151262" />
	</node>
	<node lat="63.51605833654772" lon="8.350822229679423" id="-34165">
		<tag k="name" v="Drageidholman" />
		<tag k="place" v="islet" />
		<tag k="ssr:stedsnr" v="151408" />
	</node>
	<node lat="63.52561388734707" lon="8.371427784491484" id="-34166">
		<tag k="name" v="Laksvågen" />
		<tag k="natural" v="bay" />
		<tag k="ssr:stedsnr" v="151412" />
	</node>
	<node lat="63.502533336913025" lon="8.261855552503892" id="-34167">
		<tag k="name" v="Sørkalven" />
		<tag k="place" v="islet" />
		<tag k="ssr:stedsnr" v="256492" />
	</node>
	<node lat="63.41481777296138" lon="8.467389550521766" id="-34169">
		<tag k="name" v="Værøya" />
		<tag k="place" v="island" />
		<tag k="ssr:stedsnr" v="151507" />
	</node>
	<node lat="63.64296110992717" lon="8.699458327408902" id="-34170">
		<tag k="name" v="Bekknesvalen" />
		<tag k="natural" v="bay" />
		<tag k="ssr:stedsnr" v="151510" />
	</node>
	<node lat="63.64031944434775" lon="8.675638888354696" id="-34172">
		<tag k="name" v="Oløybukta" />
		<tag k="natural" v="bay" />
		<tag k="ssr:stedsnr" v="151516" />
	</node>
	<node lat="63.52896388852155" lon="8.297549999738044" id="-34177">
		<tag k="alt_name" v="Gråbakkskjæra;Gråbakk, store" />
		<tag k="fixme" v="consider seamark:type=rock or natural=shoal" />
		<tag k="name" v="Store Gråbakk" />
		<tag k="place" v="islet" />
		<tag k="ssr:stedsnr" v="256525" />
	</node>
	<node lat="63.558961115258015" lon="8.286686120445959" id="-34178">
		<tag k="fixme" v="consider seamark:type=rock or natural=shoal" />
		<tag k="name" v="Blåskykskjæret" />
		<tag k="place" v="islet" />
		<tag k="ssr:stedsnr" v="256537" />
	</node>
	<node lat="63.58465833086046" lon="8.55976666568664" id="-34189">
		<tag k="name" v="Kvernavågen" />
		<tag k="natural" v="bay" />
		<tag k="ssr:stedsnr" v="151902" />
	</node>
	<node lat="63.66186111291545" lon="9.213405552964646" id="-34192">
		<tag k="name" v="Djupgrunnen" />
		<tag k="natural" v="shoal" />
		<tag k="place" v="locality" />
		<tag k="ssr:stedsnr" v="152130" />
	</node>
	<node lat="63.568338889696605" lon="8.318024993841304" id="-34193">
		<tag k="fixme" v="consider seamark:type=rock or natural=shoal" />
		<tag k="name" v="Bjørnskjæra" />
		<tag k="place" v="islet" />
		<tag k="ssr:stedsnr" v="256589" />
	</node>
	<node lat="63.62116388479636" lon="8.6165444404981" id="-34195">
		<tag k="name" v="Inner Hesthagan" />
		<tag k="place" v="islet" />
		<tag k="ssr:stedsnr" v="151859" />
	</node>
	<node lat="63.62067500394251" lon="8.519816667921274" id="-34199">
		<tag k="fixme" v="consider seamark:type=rock or natural=shoal" />
		<tag k="name" v="Flatkråka" />
		<tag k="place" v="islet" />
		<tag k="ssr:stedsnr" v="151875" />
	</node>
	<node lat="63.667022223716074" lon="9.031963888923073" id="-34201">
		<tag k="name" v="Torsøya" />
		<tag k="place" v="islet" />
		<tag k="ssr:stedsnr" v="256647" />
	</node>
	<node lat="63.51803610849265" lon="9.125275006360555" id="-34203">
		<tag k="name" v="Litltranholmen" />
		<tag k="place" v="islet" />
		<tag k="ssr:stedsnr" v="152410" />
	</node>
	<node lat="63.52263055464267" lon="9.101883330343721" id="-34204">
		<tag k="name" v="Sjåtåa" />
		<tag k="natural" v="cape" />
		<tag k="ssr:stedsnr" v="152417" />
	</node>
	<node lat="63.50640000150394" lon="9.055605551192063" id="-34211">
		<tag k="name" v="Hansholmen" />
		<tag k="place" v="islet" />
		<tag k="ssr:stedsnr" v="152359" />
	</node>
	<node lat="63.507455551843265" lon="9.056072228990866" id="-34212">
		<tag k="name" v="Purkholmen" />
		<tag k="place" v="islet" />
		<tag k="ssr:stedsnr" v="152360" />
	</node>
	<node lat="63.57519722077995" lon="9.18346667489736" id="-34213">
		<tag k="name" v="Garnholmen" />
		<tag k="place" v="islet" />
		<tag k="ssr:stedsnr" v="152364" />
	</node>
	<node lat="63.572458329272855" lon="9.192266668529365" id="-34214">
		<tag k="fixme" v="consider seamark:type=rock or natural=shoal" />
		<tag k="name" v="Kobbskjæret" />
		<tag k="place" v="islet" />
		<tag k="ssr:stedsnr" v="152366" />
	</node>
	<node lat="63.564930554003816" lon="9.200308341363167" id="-34215">
		<tag k="name" v="Adriansneset" />
		<tag k="natural" v="cape" />
		<tag k="ssr:stedsnr" v="152373" />
	</node>
	<node lat="63.4677222215708" lon="8.701286118838363" id="-34217">
		<tag k="fixme" v="consider seamark:type=rock or natural=shoal" />
		<tag k="name" v="Markusøyskjæra" />
		<tag k="place" v="islet" />
		<tag k="ssr:stedsnr" v="152659" />
	</node>
	<node lat="63.47218611457423" lon="8.741636104324707" id="-34218">
		<tag k="fixme" v="consider seamark:type=rock or natural=shoal" />
		<tag k="name" v="Musbakkan" />
		<tag k="place" v="islet" />
		<tag k="ssr:stedsnr" v="152662" />
	</node>
	<node lat="63.47209166570071" lon="8.750899996803074" id="-34219">
		<tag k="fixme" v="consider seamark:type=rock or natural=shoal" />
		<tag k="name" v="Flatskjæra" />
		<tag k="place" v="islet" />
		<tag k="ssr:stedsnr" v="152666" />
	</node>
	<node lat="63.470772220012144" lon="8.69427776925802" id="-34220">
		<tag k="name" v="Nordbukta" />
		<tag k="natural" v="bay" />
		<tag k="ssr:stedsnr" v="152701" />
	</node>
	<node lat="63.47361944079332" lon="8.827691662240134" id="-34221">
		<tag k="fixme" v="consider seamark:type=rock or natural=shoal" />
		<tag k="name" v="Oddskjæret" />
		<tag k="place" v="islet" />
		<tag k="ssr:stedsnr" v="152759" />
	</node>
	<node lat="63.58614999569561" lon="8.350338895362892" id="-34228">
		<tag k="fixme" v="consider seamark:type=rock or natural=shoal" />
		<tag k="name" v="Teistskjæra" />
		<tag k="place" v="islet" />
		<tag k="ssr:stedsnr" v="256850" />
	</node>
	<node lat="63.49349166223587" lon="9.256347215295234" id="-34233">
		<tag k="name" v="Sørvågen" />
		<tag k="natural" v="bay" />
		<tag k="ssr:stedsnr" v="154326" />
	</node>
	<node lat="63.546016669550184" lon="9.434052783596306" id="-34236">
		<tag k="name" v="Kvisten" />
		<tag k="natural" v="shoal" />
		<tag k="place" v="locality" />
		<tag k="ssr:stedsnr" v="154064" />
	</node>
	<node lat="63.623977775911186" lon="8.510388880719558" id="-34238">
		<tag k="name" v="Grønholmen" />
		<tag k="place" v="islet" />
		<tag k="ssr:stedsnr" v="256928" />
	</node>
	<node lat="63.49237222518145" lon="9.29164166892348" id="-34241">
		<tag k="name" v="Urdvika" />
		<tag k="natural" v="bay" />
		<tag k="ssr:stedsnr" v="154616" />
	</node>
	<node lat="63.64139166618461" lon="8.595155565258585" id="-34244">
		<tag k="name" v="Mehjortholmen" />
		<tag k="place" v="islet" />
		<tag k="ssr:stedsnr" v="256949" />
	</node>
	<node lat="63.54949722099984" lon="9.357658339187237" id="-34245">
		<tag k="name" v="Aunneset" />
		<tag k="natural" v="cape" />
		<tag k="ssr:stedsnr" v="154756" />
	</node>
	<node lat="63.57234999766256" lon="8.302763888563543" id="-34246">
		<tag k="name" v="Grunnrevet" />
		<tag k="natural" v="shoal" />
		<tag k="place" v="locality" />
		<tag k="ssr:stedsnr" v="156109" />
	</node>
	<node lat="63.58410555706955" lon="8.424144444446005" id="-34247">
		<tag k="fixme" v="consider seamark:type=rock or natural=shoal" />
		<tag k="name" v="Sandbuskjæret" />
		<tag k="place" v="islet" />
		<tag k="ssr:stedsnr" v="157321" />
	</node>
	<node lat="63.594702780895666" lon="8.458069448723256" id="-34248">
		<tag k="name" v="Bukkøysundet" />
		<tag k="natural" v="strait" />
		<tag k="ssr:stedsnr" v="157657" />
	</node>
	<node lat="63.60881944746777" lon="8.339880553157217" id="-34249">
		<tag k="fixme" v="consider seamark:type=rock or natural=shoal" />
		<tag k="name" v="Storballen" />
		<tag k="place" v="islet" />
		<tag k="ssr:stedsnr" v="157353" />
	</node>
	<node lat="63.617850001115826" lon="8.430519449212365" id="-34250">
		<tag k="name" v="Skjettataran" />
		<tag k="natural" v="shoal" />
		<tag k="place" v="locality" />
		<tag k="ssr:stedsnr" v="157359" />
	</node>
	<node lat="63.45492777624124" lon="8.256086109969953" id="-34251">
		<tag k="name" v="Okstaren" />
		<tag k="natural" v="shoal" />
		<tag k="place" v="locality" />
		<tag k="ssr:stedsnr" v="158352" />
	</node>
	<node lat="63.48400555823521" lon="8.905666668676925" id="-34252">
		<tag k="name" v="Langnesflua" />
		<tag k="natural" v="shoal" />
		<tag k="place" v="locality" />
		<tag k="ssr:stedsnr" v="166403" />
	</node>
	<node lat="63.57133889256845" lon="8.654469443548575" id="-34253">
		<tag k="name" v="Skipnesrevet" />
		<tag k="natural" v="strait" />
		<tag k="ssr:stedsnr" v="169825" />
	</node>
	<node lat="63.61929722071246" lon="9.023780557705354" id="-34260">
		<tag k="name" v="Brøttingsvågen" />
		<tag k="natural" v="bay" />
		<tag k="ssr:stedsnr" v="195349" />
	</node>
	<node lat="63.603452781464945" lon="8.86617778570532" id="-34264">
		<tag k="name" v="Vollavågen" />
		<tag k="natural" v="bay" />
		<tag k="ssr:stedsnr" v="195361" />
	</node>
	<node lat="63.53181388738867" lon="9.15941944748467" id="-34271">
		<tag k="fixme" v="consider seamark:type=rock or natural=shoal" />
		<tag k="name" v="Sørskjæret" />
		<tag k="place" v="islet" />
		<tag k="ssr:stedsnr" v="195478" />
	</node>
	<node lat="63.58043888922724" lon="8.494436113662303" id="-34273">
		<tag k="alt_name" v="Teistholmen, store" />
		<tag k="name" v="Store Teistholmen" />
		<tag k="place" v="islet" />
		<tag k="ssr:stedsnr" v="195605" />
	</node>
	<node lat="63.66552778165572" lon="9.016666663639384" id="-34274">
		<tag k="alt_name" v="Notholmen, l" />
		<tag k="name" v="Litle Notholmen" />
		<tag k="place" v="islet" />
		<tag k="ssr:stedsnr" v="195631" />
	</node>
	<node lat="63.61125000264417" lon="8.559872215640416" id="-34279">
		<tag k="fixme" v="consider seamark:type=rock or natural=shoal" />
		<tag k="name" v="Flatøydraget" />
		<tag k="place" v="islet" />
		<tag k="ssr:stedsnr" v="195910" />
	</node>
	<node lat="63.60130277412456" lon="9.077977778222573" id="-34283">
		<tag k="fixme" v="consider seamark:type=rock or natural=shoal" />
		<tag k="name" v="Nordskjæret" />
		<tag k="place" v="islet" />
		<tag k="ssr:stedsnr" v="212027" />
	</node>
	<node lat="63.617611110317085" lon="9.102183338669459" id="-34284">
		<tag k="fixme" v="consider seamark:type=rock or natural=shoal" />
		<tag k="name" v="Merraskjæret" />
		<tag k="place" v="islet" />
		<tag k="ssr:stedsnr" v="212030" />
	</node>
	<node lat="63.58808055832825" lon="8.392697217000997" id="-34285">
		<tag k="name" v="Burøyvågen" />
		<tag k="natural" v="bay" />
		<tag k="ssr:stedsnr" v="212031" />
	</node>
	<node lat="63.56574999674431" lon="8.403966658296108" id="-34286">
		<tag k="name" v="Steinrenningen" />
		<tag k="place" v="islet" />
		<tag k="ssr:stedsnr" v="212103" />
	</node>
	<node lat="63.666258330250386" lon="9.054369444999224" id="-34287">
		<tag k="name" v="Lyngholmen" />
		<tag k="place" v="islet" />
		<tag k="ssr:stedsnr" v="212124" />
	</node>
	<node lat="63.60945555319068" lon="8.46512222484218" id="-34288">
		<tag k="name" v="Grønnholmen" />
		<tag k="place" v="islet" />
		<tag k="ssr:stedsnr" v="212134" />
	</node>
	<node lat="63.59566111087586" lon="8.502255550998353" id="-34289">
		<tag k="name" v="Ingbrigtsholmen" />
		<tag k="place" v="islet" />
		<tag k="ssr:stedsnr" v="212181" />
	</node>
	<node lat="63.576822218305274" lon="8.461027772262211" id="-34290">
		<tag k="name" v="Skaget" />
		<tag k="natural" v="cape" />
		<tag k="ssr:stedsnr" v="212190" />
	</node>
	<node lat="63.577311106823615" lon="8.449272212953346" id="-34291">
		<tag k="name" v="Ytter Ternskaget" />
		<tag k="natural" v="cape" />
		<tag k="ssr:stedsnr" v="212195" />
	</node>
	<node lat="63.65215000178093" lon="8.943494435453768" id="-34295">
		<tag k="name" v="Skjelholmvågen" />
		<tag k="natural" v="bay" />
		<tag k="ssr:stedsnr" v="212082" />
	</node>
	<node lat="63.44570833344538" lon="8.361138891715838" id="-34304">
		<tag k="name" v="Ringholmen" />
		<tag k="place" v="islet" />
		<tag k="ssr:stedsnr" v="212287" />
	</node>
	<node lat="63.528852778005984" lon="8.29738334330129" id="-34307">
		<tag k="name" v="Storgråbaken" />
		<tag k="place" v="islet" />
		<tag k="ssr:stedsnr" v="212403" />
	</node>
	<node lat="63.478383336512266" lon="8.300113897961475" id="-34315">
		<tag k="name" v="Kuholmen" />
		<tag k="place" v="islet" />
		<tag k="ssr:stedsnr" v="212625" />
	</node>
	<node lat="63.494272224035896" lon="8.237369450978981" id="-34316">
		<tag k="name" v="Russnakkan" />
		<tag k="place" v="islet" />
		<tag k="ssr:stedsnr" v="212632" />
	</node>
	<node lat="63.61813055376577" lon="8.543555556579907" id="-34322">
		<tag k="name" v="Storneset" />
		<tag k="natural" v="cape" />
		<tag k="ssr:stedsnr" v="212906" />
	</node>
	<node lat="63.650188890431714" lon="8.732719438459629" id="-34324">
		<tag k="name" v="Sauøya" />
		<tag k="place" v="island" />
		<tag k="ssr:stedsnr" v="212927" />
	</node>
	<node lat="63.61579722614004" lon="8.618941668072365" id="-34325">
		<tag k="name" v="Hundneset" />
		<tag k="natural" v="cape" />
		<tag k="ssr:stedsnr" v="212930" />
	</node>
	<node lat="63.66244722582277" lon="8.887838893570532" id="-34326">
		<tag k="fixme" v="consider seamark:type=rock or natural=shoal" />
		<tag k="name" v="Langskjæret" />
		<tag k="place" v="islet" />
		<tag k="ssr:stedsnr" v="212974" />
	</node>
	<node lat="63.5697999990905" lon="8.630888886364712" id="-34329">
		<tag k="name" v="Hestøya" />
		<tag k="place" v="island" />
		<tag k="ssr:stedsnr" v="212992" />
	</node>
	<node lat="63.64659166871159" lon="8.839947230279586" id="-34330">
		<tag k="name" v="Eidestranda" />
		<tag k="natural" v="beach" />
		<tag k="ssr:stedsnr" v="212995" />
	</node>
	<node lat="63.560322219545206" lon="8.543886106810218" id="-34331">
		<tag k="name" v="Tobbdalsholman" />
		<tag k="place" v="islet" />
		<tag k="ssr:stedsnr" v="212996" />
	</node>
	<node lat="63.64995000268428" lon="9.226133336428116" id="-34332">
		<tag k="name" v="Framflua" />
		<tag k="natural" v="shoal" />
		<tag k="place" v="locality" />
		<tag k="ssr:stedsnr" v="213110" />
	</node>
	<node lat="63.64359999819216" lon="9.19340278238845" id="-34333">
		<tag k="name" v="Reksafallet" />
		<tag k="natural" v="shoal" />
		<tag k="place" v="locality" />
		<tag k="ssr:stedsnr" v="213132" />
	</node>
	<node lat="63.656672226509095" lon="9.167780556321693" id="-34340">
		<tag k="name" v="Kråkøytaren" />
		<tag k="natural" v="shoal" />
		<tag k="place" v="locality" />
		<tag k="ssr:stedsnr" v="213002" />
	</node>
	<node lat="63.661591668443705" lon="9.174352771990792" id="-34341">
		<tag k="name" v="Bukkholmflua" />
		<tag k="natural" v="shoal" />
		<tag k="place" v="locality" />
		<tag k="ssr:stedsnr" v="213003" />
	</node>
	<node lat="63.570124999069954" lon="9.200113886098539" id="-34342">
		<tag k="name" v="Børøysjøen" />
		<tag k="natural" v="cape" />
		<tag k="ssr:stedsnr" v="213274" />
	</node>
	<node lat="63.570513885310966" lon="9.21677223153889" id="-34345">
		<tag k="name" v="Børøynesa" />
		<tag k="natural" v="cape" />
		<tag k="ssr:stedsnr" v="213289" />
	</node>
	<node lat="63.61181667019355" lon="8.5907583385479" id="-34349">
		<tag k="name" v="Vikneset" />
		<tag k="natural" v="cape" />
		<tag k="ssr:stedsnr" v="213428" />
	</node>
	<node lat="63.52065555959482" lon="9.242283325340422" id="-34366">
		<tag k="name" v="Skottbukta" />
		<tag k="natural" v="bay" />
		<tag k="ssr:stedsnr" v="214185" />
	</node>
	<node lat="63.48801944289288" lon="9.28505277663227" id="-34374">
		<tag k="name" v="Hysneset" />
		<tag k="natural" v="cape" />
		<tag k="ssr:stedsnr" v="215631" />
	</node>
	<node lat="63.572305554012125" lon="8.321555562778014" id="-34376">
		<tag k="name" v="Flua" />
		<tag k="natural" v="shoal" />
		<tag k="place" v="locality" />
		<tag k="ssr:stedsnr" v="217115" />
	</node>
	<node lat="63.59559444239424" lon="8.344461117694914" id="-34377">
		<tag k="fixme" v="consider seamark:type=rock or natural=shoal" />
		<tag k="name" v="Krakaskjæret" />
		<tag k="place" v="islet" />
		<tag k="ssr:stedsnr" v="218385" />
	</node>
	<node lat="63.593011109586826" lon="8.333316673136421" id="-34378">
		<tag k="name" v="Stampen" />
		<tag k="natural" v="bay" />
		<tag k="ssr:stedsnr" v="218386" />
	</node>
	<node lat="63.50705555510216" lon="8.3193444392768" id="-34379">
		<tag k="name" v="Kåvikneset" />
		<tag k="natural" v="cape" />
		<tag k="ssr:stedsnr" v="272641" />
	</node>
	<node lat="63.497066670082944" lon="9.017372215113468" id="-34384">
		<tag k="name" v="Aksetflua" />
		<tag k="natural" v="shoal" />
		<tag k="place" v="locality" />
		<tag k="ssr:stedsnr" v="227888" />
	</node>
	<node lat="63.46968611017691" lon="9.124466667415446" id="-34385">
		<tag k="name" v="Lintjørnneset" />
		<tag k="natural" v="cape" />
		<tag k="ssr:stedsnr" v="228702" />
	</node>
	<node lat="63.51608333459187" lon="9.296747227289336" id="-34386">
		<tag k="name" v="Innervågen" />
		<tag k="natural" v="bay" />
		<tag k="ssr:stedsnr" v="228890" />
	</node>
	<node lat="63.55233333260259" lon="8.45553611681802" id="-34390">
		<tag k="name" v="Bankarneset" />
		<tag k="natural" v="cape" />
		<tag k="ssr:stedsnr" v="454257" />
	</node>
	<node lat="63.65269444471109" lon="8.691591665951478" id="-34397">
		<tag k="name" v="Svaholmen" />
		<tag k="place" v="islet" />
		<tag k="ssr:stedsnr" v="454544" />
	</node>
	<node lat="63.55730555431561" lon="8.527088893058103" id="-34400">
		<tag k="name" v="Haltvikskaget" />
		<tag k="natural" v="cape" />
		<tag k="ssr:stedsnr" v="454760" />
	</node>
	<node lat="63.620674996725526" lon="8.78121944755822" id="-34401">
		<tag k="name" v="Andavassholmen" />
		<tag k="place" v="islet" />
		<tag k="ssr:stedsnr" v="454948" />
	</node>
	<node lat="63.63780833012157" lon="8.859197230369336" id="-34402">
		<tag k="name" v="Vikabukta" />
		<tag k="natural" v="bay" />
		<tag k="ssr:stedsnr" v="454989" />
	</node>
	<node lat="63.63594722539227" lon="8.852691660288276" id="-34403">
		<tag k="name" v="Honnesstraumen" />
		<tag k="natural" v="strait" />
		<tag k="ssr:stedsnr" v="454990" />
	</node>
	<node lat="63.55818333011686" lon="8.498344451693132" id="-34407">
		<tag k="name" v="Furuvikvalen" />
		<tag k="natural" v="bay" />
		<tag k="ssr:stedsnr" v="455170" />
	</node>
	<node lat="63.68394444803201" lon="9.1254972126485" id="-34408">
		<tag k="fixme" v="consider seamark:type=rock or natural=shoal" />
		<tag k="name" v="Hjertskjæret" />
		<tag k="place" v="islet" />
		<tag k="ssr:stedsnr" v="455178" />
	</node>
	<node lat="63.6735972196689" lon="9.11741110612309" id="-34409">
		<tag k="name" v="Sauøysundholmen" />
		<tag k="place" v="islet" />
		<tag k="ssr:stedsnr" v="455182" />
	</node>
	<node lat="63.67541667038169" lon="9.117477768446994" id="-34410">
		<tag k="name" v="Sauøysundet" />
		<tag k="natural" v="strait" />
		<tag k="ssr:stedsnr" v="455183" />
	</node>
	<node lat="63.59163055980638" lon="8.974786107544048" id="-34411">
		<tag k="name" v="Leirvågvågen" />
		<tag k="natural" v="bay" />
		<tag k="ssr:stedsnr" v="455188" />
	</node>
	<node lat="63.6445277796341" lon="9.177433339752408" id="-34413">
		<tag k="name" v="Naustholmen" />
		<tag k="place" v="islet" />
		<tag k="ssr:stedsnr" v="455225" />
	</node>
	<node lat="63.67642500219861" lon="9.16154999688435" id="-34414">
		<tag k="name" v="Tinnholmen" />
		<tag k="place" v="islet" />
		<tag k="ssr:stedsnr" v="455229" />
	</node>
	<node lat="63.590527780569666" lon="8.413363887440712" id="-34416">
		<tag k="name" v="Rundholmen" />
		<tag k="place" v="islet" />
		<tag k="ssr:stedsnr" v="455050" />
	</node>
	<node lat="63.59546944870666" lon="8.423644445397786" id="-34417">
		<tag k="fixme" v="consider seamark:type=rock or natural=shoal" />
		<tag k="name" v="Tjønnøyholmskjæra" />
		<tag k="place" v="islet" />
		<tag k="ssr:stedsnr" v="455052" />
	</node>
	<node lat="63.656338884466514" lon="9.127122223944664" id="-34418">
		<tag k="name" v="Midtholmen" />
		<tag k="place" v="islet" />
		<tag k="ssr:stedsnr" v="455113" />
	</node>
	<node lat="63.65238888988873" lon="9.131219452578417" id="-34419">
		<tag k="name" v="Vesternesa" />
		<tag k="natural" v="cape" />
		<tag k="ssr:stedsnr" v="455115" />
	</node>
	<node lat="63.537330551735735" lon="8.400694445436232" id="-34420">
		<tag k="name" v="Bekkvika" />
		<tag k="natural" v="bay" />
		<tag k="ssr:stedsnr" v="455117" />
	</node>
	<node lat="63.64172777977516" lon="9.170936103048387" id="-34423">
		<tag k="name" v="Harraneset" />
		<tag k="natural" v="cape" />
		<tag k="ssr:stedsnr" v="455134" />
	</node>
	<node lat="63.67998611484001" lon="9.034222217597497" id="-34424">
		<tag k="bay" v="fjord" />
		<tag k="name" v="Tifjorden" />
		<tag k="natural" v="bay" />
		<tag k="ssr:stedsnr" v="455136" />
	</node>
	<node lat="63.61693333391636" lon="8.499152778567245" id="-34426">
		<tag k="name" v="Svartoksen" />
		<tag k="place" v="islet" />
		<tag k="ssr:stedsnr" v="455142" />
	</node>
	<node lat="63.68297221897969" lon="9.077352767810153" id="-34427">
		<tag k="name" v="Merket" />
		<tag k="natural" v="cape" />
		<tag k="ssr:stedsnr" v="455144" />
	</node>
	<node lat="63.58208888822485" lon="8.459672217595692" id="-34429">
		<tag k="name" v="Ternholmen" />
		<tag k="place" v="islet" />
		<tag k="ssr:stedsnr" v="455152" />
	</node>
	<node lat="63.534933335787244" lon="8.35656666767134" id="-34431">
		<tag k="name" v="Hammarsundholman" />
		<tag k="place" v="islet" />
		<tag k="ssr:stedsnr" v="455370" />
	</node>
	<node lat="63.542594447742694" lon="8.361222228209146" id="-34432">
		<tag k="name" v="Bukkholman" />
		<tag k="place" v="islet" />
		<tag k="ssr:stedsnr" v="455373" />
	</node>
	<node lat="63.41896666539422" lon="8.428675008631174" id="-34434">
		<tag k="fixme" v="consider seamark:type=rock or natural=shoal" />
		<tag k="name" v="Grønnskjæret" />
		<tag k="place" v="islet" />
		<tag k="ssr:stedsnr" v="455258" />
	</node>
	<node lat="63.41801274777377" lon="8.44276572781237" id="-34435">
		<tag k="alt_name" v="Sør Værøya" />
		<tag k="name" v="Sør-Værøya" />
		<tag k="place" v="island" />
		<tag k="ssr:stedsnr" v="455259" />
	</node>
	<node lat="63.455188891228914" lon="8.31109167619296" id="-34436">
		<tag k="name" v="Støholmen" />
		<tag k="place" v="islet" />
		<tag k="ssr:stedsnr" v="455358" />
	</node>
	<node lat="63.48054444886417" lon="8.313650004546053" id="-34438">
		<tag k="name" v="Olasvågskaget" />
		<tag k="natural" v="cape" />
		<tag k="ssr:stedsnr" v="455601" />
	</node>
	<node lat="63.46638055803058" lon="8.288777778619501" id="-34440">
		<tag k="fixme" v="consider seamark:type=rock or natural=shoal" />
		<tag k="name" v="Garnskjæret" />
		<tag k="place" v="islet" />
		<tag k="ssr:stedsnr" v="455300" />
	</node>
	<node lat="63.56976666722945" lon="8.690427781992305" id="-34441">
		<tag k="name" v="Vikabukten" />
		<tag k="natural" v="bay" />
		<tag k="ssr:stedsnr" v="455982" />
	</node>
	<node lat="63.572377775035946" lon="8.639888885152121" id="-34442">
		<tag k="name" v="Fårøya" />
		<tag k="place" v="island" />
		<tag k="ssr:stedsnr" v="455991" />
	</node>
	<node lat="63.415924997880296" lon="8.459383329005753" id="-34448">
		<tag k="name" v="Toppholmen" />
		<tag k="place" v="islet" />
		<tag k="ssr:stedsnr" v="455487" />
	</node>
	<node lat="63.56030833014777" lon="8.724955553333354" id="-34454">
		<tag k="name" v="Steinberrneset" />
		<tag k="natural" v="cape" />
		<tag k="ssr:stedsnr" v="455745" />
	</node>
	<node lat="63.511383334094006" lon="8.294566672510568" id="-34455">
		<tag k="name" v="Hakkbuan" />
		<tag k="place" v="island" />
		<tag k="ssr:stedsnr" v="455656" />
	</node>
	<node lat="63.616766667293845" lon="8.882277782321186" id="-34461">
		<tag k="name" v="Hammerstadholmen" />
		<tag k="place" v="islet" />
		<tag k="ssr:stedsnr" v="455787" />
	</node>
	<node lat="63.61761389102672" lon="8.531516667567725" id="-34463">
		<tag k="name" v="Stornesråsa" />
		<tag k="natural" v="bay" />
		<tag k="ssr:stedsnr" v="455883" />
	</node>
	<node lat="63.6116861128007" lon="8.555574997573222" id="-34464">
		<tag k="name" v="Geitholmdraget" />
		<tag k="place" v="islet" />
		<tag k="ssr:stedsnr" v="455885" />
	</node>
	<node lat="63.61363055209622" lon="8.55792500826313" id="-34466">
		<tag k="name" v="Flatøysundet" />
		<tag k="natural" v="strait" />
		<tag k="ssr:stedsnr" v="455888" />
	</node>
	<node lat="63.61525277335502" lon="8.54120000364639" id="-34467">
		<tag k="name" v="Einnesholman" />
		<tag k="place" v="islet" />
		<tag k="ssr:stedsnr" v="455893" />
	</node>
	<node lat="63.63608055446347" lon="8.999166675206716" id="-34476">
		<tag k="fixme" v="consider seamark:type=rock or natural=shoal" />
		<tag k="name" v="Bukkskjæret" />
		<tag k="place" v="islet" />
		<tag k="ssr:stedsnr" v="455851" />
	</node>
	<node lat="63.446166669462414" lon="8.581330562534525" id="-34478">
		<tag k="name" v="Blåbærvika" />
		<tag k="natural" v="bay" />
		<tag k="ssr:stedsnr" v="254007" />
	</node>
	<node lat="63.62253611498814" lon="8.60496111843194" id="-34479">
		<tag k="name" v="Ytter Kjerkholmen" />
		<tag k="place" v="islet" />
		<tag k="ssr:stedsnr" v="455933" />
	</node>
	<node lat="63.62452499562396" lon="8.59551944107147" id="-34480">
		<tag k="name" v="Inner Tjønnøya" />
		<tag k="place" v="islet" />
		<tag k="ssr:stedsnr" v="455935" />
	</node>
	<node lat="63.43226666926895" lon="8.309294435759254" id="-34484">
		<tag k="alt_name" v="Hallerøya" />
		<tag k="name" v="Hallarøya" />
		<tag k="place" v="island" />
		<tag k="ssr:stedsnr" v="255009" />
	</node>
	<node lat="63.4272851566308" lon="8.489653407586943" id="-34485">
		<tag k="alt_name" v="Risvikbukta" />
		<tag k="name" v="Risvika" />
		<tag k="natural" v="bay" />
		<tag k="ssr:stedsnr" v="255066" />
	</node>
	<node lat="63.482686112360476" lon="9.169102780285872" id="-34494">
		<tag k="name" v="Håvika" />
		<tag k="natural" v="bay" />
		<tag k="ssr:stedsnr" v="255471" />
	</node>
	<node lat="63.48256388762214" lon="8.892036114964457" id="-34495">
		<tag k="alt_name" v="Selneset" />
		<tag k="name" v="Selnes" />
		<tag k="natural" v="cape" />
		<tag k="ssr:stedsnr" v="255476" />
	</node>
	<node lat="63.47938610948797" lon="8.812825005951687" id="-34496">
		<tag k="name" v="Langholmen" />
		<tag k="place" v="islet" />
		<tag k="ssr:stedsnr" v="255479" />
	</node>
	<node lat="63.62488333330878" lon="8.476702776863085" id="-34499">
		<tag k="name" v="Kråkfluin" />
		<tag k="natural" v="shoal" />
		<tag k="place" v="locality" />
		<tag k="ssr:stedsnr" v="456334" />
	</node>
	<node lat="63.50090555537117" lon="9.051238898434285" id="-34500">
		<tag k="fixme" v="consider seamark:type=rock or natural=shoal" />
		<tag k="name" v="Skarvskjæret" />
		<tag k="place" v="islet" />
		<tag k="ssr:stedsnr" v="256005" />
	</node>
	<node lat="63.53378888709998" lon="9.139252782125736" id="-34503">
		<tag k="name" v="Bastviknesa" />
		<tag k="natural" v="cape" />
		<tag k="ssr:stedsnr" v="456353" />
	</node>
	<node lat="63.52716944231303" lon="9.120005555906294" id="-34504">
		<tag k="name" v="Matvika" />
		<tag k="natural" v="bay" />
		<tag k="ssr:stedsnr" v="456357" />
	</node>
	<node lat="63.622255552664754" lon="8.955294437918381" id="-34506">
		<tag k="alt_name" v="Store Eidsvågen" />
		<tag k="name" v="Eidsvågen" />
		<tag k="natural" v="bay" />
		<tag k="ssr:stedsnr" v="256171" />
	</node>
	<node lat="63.54089444600009" lon="9.20628334156196" id="-34509">
		<tag k="fixme" v="consider seamark:type=rock or natural=shoal" />
		<tag k="name" v="Kvernskjæra" />
		<tag k="place" v="islet" />
		<tag k="ssr:stedsnr" v="456478" />
	</node>
	<node lat="63.522583333354" lon="8.277322218895128" id="-34511">
		<tag k="alt_name" v="Hummarøyan" />
		<tag k="name" v="Hummarøya" />
		<tag k="place" v="islet" />
		<tag k="ssr:stedsnr" v="256474" />
	</node>
	<node lat="63.6553249986454" lon="8.950133324281879" id="-34513">
		<tag k="fixme" v="consider seamark:type=rock or natural=shoal" />
		<tag k="name" v="Svartskjæret" />
		<tag k="place" v="islet" />
		<tag k="ssr:stedsnr" v="256622" />
	</node>
	<node lat="63.548597225900785" lon="9.205958338754503" id="-34517">
		<tag k="name" v="Vedøyleiret" />
		<tag k="natural" v="bay" />
		<tag k="ssr:stedsnr" v="456499" />
	</node>
	<node lat="63.58775198689616" lon="8.430072626104876" id="-34518">
		<tag k="name" v="Kvitøya" />
		<tag k="place" v="islet" />
		<tag k="ssr:stedsnr" v="256855" />
	</node>
	<node lat="63.653816666181804" lon="8.687272226800962" id="-34520">
		<tag k="name" v="Måsøya" />
		<tag k="place" v="islet" />
		<tag k="ssr:stedsnr" v="256955" />
	</node>
	<node lat="63.464130555461345" lon="8.644455557857274" id="-34522">
		<tag k="name" v="Vollasundet" />
		<tag k="natural" v="strait" />
		<tag k="ssr:stedsnr" v="456665" />
	</node>
	<node lat="63.47660833555455" lon="8.777319449160043" id="-34525">
		<tag k="fixme" v="consider seamark:type=rock or natural=shoal" />
		<tag k="name" v="Hammarskjæret" />
		<tag k="place" v="islet" />
		<tag k="ssr:stedsnr" v="456718" />
	</node>
	<node lat="63.60832500032841" lon="9.000080551393602" id="-34526">
		<tag k="name" v="Fjøsgrunnen" />
		<tag k="natural" v="shoal" />
		<tag k="place" v="locality" />
		<tag k="ssr:stedsnr" v="456859" />
	</node>
	<node lat="63.64948333334979" lon="8.913941662744532" id="-34527">
		<tag k="name" v="Vågflua" />
		<tag k="natural" v="shoal" />
		<tag k="place" v="locality" />
		<tag k="ssr:stedsnr" v="456864" />
	</node>
	<node lat="63.670288889287605" lon="8.87970833663824" id="-34528">
		<tag k="fixme" v="consider seamark:type=rock or natural=shoal" />
		<tag k="name" v="Langtaren" />
		<tag k="place" v="islet" />
		<tag k="ssr:stedsnr" v="456977" />
	</node>
	<node lat="63.47972499876422" lon="9.12036943981636" id="-34532">
		<tag k="fixme" v="consider seamark:type=rock or natural=shoal" />
		<tag k="name" v="Geitbergskjæret" />
		<tag k="place" v="islet" />
		<tag k="ssr:stedsnr" v="458036" />
	</node>
	<node lat="63.65113055896794" lon="9.132055547197547" id="-34546">
		<tag k="name" v="Langnesvikholmen" />
		<tag k="place" v="islet" />
		<tag k="ssr:stedsnr" v="272121" />
	</node>
	<node lat="63.65651389220498" lon="9.14366389324483" id="-34547">
		<tag k="name" v="Svellungan" />
		<tag k="place" v="island" />
		<tag k="ssr:stedsnr" v="272124" />
	</node>
	<node lat="63.45229166430492" lon="8.598466664216701" id="-34549">
		<tag k="name" v="Godhamnneset" />
		<tag k="natural" v="cape" />
		<tag k="ssr:stedsnr" v="272207" />
	</node>
	<node lat="63.638816663146756" lon="9.03558610573867" id="-34550">
		<tag k="alt_name" v="Storstraumen" />
		<tag k="name" v="Langstraumen" />
		<tag k="natural" v="strait" />
		<tag k="ssr:stedsnr" v="272210" />
	</node>
	<node lat="63.63805833255363" lon="9.056694435891968" id="-34553">
		<tag k="name" v="Lyngøya" />
		<tag k="place" v="island" />
		<tag k="ssr:stedsnr" v="272226" />
	</node>
	<node lat="63.63246110890889" lon="9.03897221440092" id="-34555">
		<tag k="name" v="Straumsvika" />
		<tag k="natural" v="bay" />
		<tag k="ssr:stedsnr" v="272234" />
	</node>
	<node lat="63.641913892317305" lon="8.702655559781917" id="-34557">
		<tag k="name" v="Bekkneset" />
		<tag k="natural" v="cape" />
		<tag k="ssr:stedsnr" v="272484" />
	</node>
	<node lat="63.65183888452834" lon="8.788616665525753" id="-34562">
		<tag k="alt_name" v="Angelsneset" />
		<tag k="name" v="Ongalneset" />
		<tag k="natural" v="cape" />
		<tag k="ssr:stedsnr" v="272872" />
	</node>
	<node lat="63.64828333717825" lon="8.73364723090936" id="-34563">
		<tag k="name" v="Annelistraumen" />
		<tag k="natural" v="strait" />
		<tag k="ssr:stedsnr" v="272879" />
	</node>
	<node lat="63.65333611341624" lon="8.76899444918254" id="-34564">
		<tag k="name" v="Tøftabukta" />
		<tag k="natural" v="bay" />
		<tag k="ssr:stedsnr" v="272886" />
	</node>
	<node lat="63.652611111183546" lon="8.750736103020325" id="-34565">
		<tag k="name" v="Litlørnøya" />
		<tag k="place" v="island" />
		<tag k="ssr:stedsnr" v="272893" />
	</node>
	<node lat="63.60019166469302" lon="9.031341669898866" id="-34566">
		<tag k="fixme" v="consider seamark:type=rock or natural=shoal" />
		<tag k="name" v="Langvågskjæret" />
		<tag k="place" v="islet" />
		<tag k="ssr:stedsnr" v="273029" />
	</node>
	<node lat="63.59881666925556" lon="8.414561111126392" id="-34568">
		<tag k="name" v="Iverholmen" />
		<tag k="place" v="islet" />
		<tag k="ssr:stedsnr" v="273080" />
	</node>
	<node lat="63.58049166276144" lon="8.442572227667526" id="-34569">
		<tag k="name" v="Steinbørholman" />
		<tag k="place" v="islet" />
		<tag k="ssr:stedsnr" v="273098" />
	</node>
	<node lat="63.67519722250477" lon="9.107755559321872" id="-34574">
		<tag k="fixme" v="consider seamark:type=rock or natural=shoal" />
		<tag k="name" v="Langskjæra" />
		<tag k="place" v="islet" />
		<tag k="ssr:stedsnr" v="273172" />
	</node>
	<node lat="63.58597500317043" lon="8.474061102052634" id="-34576">
		<tag k="name" v="Kjeltringsvika" />
		<tag k="natural" v="bay" />
		<tag k="ssr:stedsnr" v="273178" />
	</node>
	<node lat="63.67534999979131" lon="9.103877772578006" id="-34577">
		<tag k="name" v="Selvågneset" />
		<tag k="natural" v="cape" />
		<tag k="ssr:stedsnr" v="273180" />
	</node>
	<node lat="63.67356388761513" lon="9.108097223762957" id="-34578">
		<tag k="name" v="Purkholmen" />
		<tag k="place" v="islet" />
		<tag k="ssr:stedsnr" v="273182" />
	</node>
	<node lat="63.58194444287527" lon="8.490058338816265" id="-34579">
		<tag k="name" v="Øyaskaget" />
		<tag k="natural" v="cape" />
		<tag k="ssr:stedsnr" v="273183" />
	</node>
	<node lat="63.425147217836454" lon="8.430747226032327" id="-34582">
		<tag k="name" v="Spavikneset" />
		<tag k="natural" v="cape" />
		<tag k="ssr:stedsnr" v="273280" />
	</node>
	<node lat="63.42549999914801" lon="8.425580549729906" id="-34584">
		<tag k="name" v="Inner Engvikholman" />
		<tag k="place" v="islet" />
		<tag k="ssr:stedsnr" v="273286" />
	</node>
	<node lat="63.427155551981265" lon="8.389513893601158" id="-34589">
		<tag k="name" v="Skjefstavika" />
		<tag k="natural" v="bay" />
		<tag k="ssr:stedsnr" v="273474" />
	</node>
	<node lat="63.45174721900335" lon="8.298933339295623" id="-34592">
		<tag k="alt_name" v="Brannholmen" />
		<tag k="name" v="Brandholmen" />
		<tag k="place" v="islet" />
		<tag k="ssr:stedsnr" v="273371" />
	</node>
	<node lat="63.53225833261956" lon="8.306700003137284" id="-34593">
		<tag k="alt_name" v="Steindraget" />
		<tag k="name" v="Steindebarden" />
		<tag k="place" v="islet" />
		<tag k="ssr:stedsnr" v="273379" />
	</node>
	<node lat="63.521422219345354" lon="8.32396945146131" id="-34594">
		<tag k="name" v="Høgholmen" />
		<tag k="place" v="islet" />
		<tag k="ssr:stedsnr" v="273380" />
	</node>
	<node lat="63.60957499785146" lon="8.549272229345139" id="-34605">
		<tag k="fixme" v="consider seamark:type=rock or natural=shoal" />
		<tag k="name" v="Flatskjæret" />
		<tag k="place" v="islet" />
		<tag k="ssr:stedsnr" v="273905" />
	</node>
	<node lat="63.61508055431779" lon="8.558880562540338" id="-34606">
		<tag k="name" v="Langøysundet" />
		<tag k="natural" v="strait" />
		<tag k="ssr:stedsnr" v="273907" />
	</node>
	<node lat="63.611500003385345" lon="8.589397215468543" id="-34609">
		<tag k="name" v="Daudmannsvika" />
		<tag k="natural" v="bay" />
		<tag k="ssr:stedsnr" v="273975" />
	</node>
	<node lat="63.56232777555756" lon="8.700711115883799" id="-34610">
		<tag k="name" v="Vollaneset" />
		<tag k="natural" v="cape" />
		<tag k="ssr:stedsnr" v="273981" />
	</node>
	<node lat="63.57609166749312" lon="9.179163894210612" id="-34612">
		<tag k="name" v="Kvalsundet" />
		<tag k="natural" v="strait" />
		<tag k="ssr:stedsnr" v="274304" />
	</node>
	<node lat="63.577005553212175" lon="9.174577781593207" id="-34613">
		<tag k="name" v="Bugen" />
		<tag k="natural" v="bay" />
		<tag k="ssr:stedsnr" v="274305" />
	</node>
	<node lat="63.57848333785084" lon="9.144636116302788" id="-34616">
		<tag k="alt_name" v="Tjærevågen" />
		<tag k="name" v="Tjæravågen" />
		<tag k="natural" v="bay" />
		<tag k="ssr:stedsnr" v="274415" />
	</node>
	<node lat="63.47733055319848" lon="8.754938882754741" id="-34619">
		<tag k="name" v="Ringneset" />
		<tag k="natural" v="cape" />
		<tag k="ssr:stedsnr" v="274618" />
	</node>
	<node lat="63.51417500056592" lon="9.213877782549943" id="-34623">
		<tag k="name" v="Bruravika" />
		<tag k="natural" v="bay" />
		<tag k="ssr:stedsnr" v="275181" />
	</node>
	<node lat="63.52792777889547" lon="9.313897224862655" id="-34624">
		<tag k="alt_name" v="Utjuholmen" />
		<tag k="name" v="Litlholmen" />
		<tag k="place" v="islet" />
		<tag k="ssr:stedsnr" v="275523" />
	</node>
	<node lat="63.54729999988573" lon="9.351488886056327" id="-34625">
		<tag k="name" v="Bystingsundet" />
		<tag k="natural" v="strait" />
		<tag k="ssr:stedsnr" v="275680" />
	</node>
	<node lat="63.613291667858874" lon="8.434927780747726" id="-34627">
		<tag k="name" v="Kuøytåa" />
		<tag k="natural" v="cape" />
		<tag k="ssr:stedsnr" v="278279" />
	</node>
	<node lat="63.58890555682717" lon="8.30407221826256" id="-34629">
		<tag k="name" v="Litlflua" />
		<tag k="natural" v="shoal" />
		<tag k="place" v="locality" />
		<tag k="ssr:stedsnr" v="279104" />
	</node>
	<node lat="63.60894444666524" lon="8.341591660251146" id="-34632">
		<tag k="name" v="Litlleia" />
		<tag k="natural" v="bay" />
		<tag k="ssr:stedsnr" v="279383" />
	</node>
	<node lat="63.450650002255536" lon="8.263516661601098" id="-34633">
		<tag k="name" v="Nautskjærfalla" />
		<tag k="natural" v="shoal" />
		<tag k="place" v="locality" />
		<tag k="ssr:stedsnr" v="461334" />
	</node>
	<node lat="63.45962499606895" lon="8.256766658312067" id="-34634">
		<tag k="name" v="Daudmannen" />
		<tag k="natural" v="shoal" />
		<tag k="place" v="locality" />
		<tag k="ssr:stedsnr" v="461336" />
	</node>
	<node lat="63.59525555772388" lon="8.390058333224074" id="-34635">
		<tag k="fixme" v="consider seamark:type=rock or natural=shoal" />
		<tag k="name" v="Tibreddskjæret" />
		<tag k="place" v="islet" />
		<tag k="ssr:stedsnr" v="461344" />
	</node>
	<node lat="63.59603888557773" lon="8.399011114199562" id="-34636">
		<tag k="fixme" v="consider seamark:type=rock or natural=shoal" />
		<tag k="name" v="Austre Ursværet" />
		<tag k="place" v="islet" />
		<tag k="ssr:stedsnr" v="461348" />
	</node>
	<node lat="63.590808336892636" lon="8.401538886051073" id="-34637">
		<tag k="name" v="Tausetvalan" />
		<tag k="natural" v="strait" />
		<tag k="ssr:stedsnr" v="461353" />
	</node>
	<node lat="63.59777222094596" lon="8.45765000974607" id="-34638">
		<tag k="name" v="Klubbholmleia" />
		<tag k="natural" v="strait" />
		<tag k="ssr:stedsnr" v="461363" />
	</node>
	<node lat="63.60654721976377" lon="8.988858330924094" id="-34640">
		<tag k="fixme" v="multiple name tags, choose one and add the other to alt_name" />
		<tag k="name" v="Fillholmen;Storholmen" />
		<tag k="place" v="islet" />
		<tag k="ssr:stedsnr" v="288817" />
	</node>
	<node lat="63.537005553086836" lon="9.392580549122716" id="-34641">
		<tag k="name" v="Småvika" />
		<tag k="natural" v="bay" />
		<tag k="ssr:stedsnr" v="288886" />
	</node>
	<node lat="63.55953611250167" lon="8.577338892668243" id="-34642">
		<tag k="name" v="Djupvika" />
		<tag k="natural" v="bay" />
		<tag k="ssr:stedsnr" v="290826" />
	</node>
	<node lat="63.57123737425444" lon="9.169257039720023" id="-34646">
		<tag k="name" v="Valen" />
		<tag k="natural" v="cape" />
		<tag k="ssr:stedsnr" v="464936" />
	</node>
	<node lat="63.43495277692612" lon="8.304258324996233" id="-34648">
		<tag k="name" v="Hamnøya" />
		<tag k="place" v="islet" />
		<tag k="ssr:stedsnr" v="315015" />
	</node>
	<node lat="63.427908334785336" lon="8.401088894133911" id="-34651">
		<tag k="name" v="Forsnesvågen" />
		<tag k="natural" v="bay" />
		<tag k="ssr:stedsnr" v="316056" />
	</node>
	<node lat="63.42285832890682" lon="8.467963882849745" id="-34652">
		<tag k="name" v="Grønnholmen" />
		<tag k="place" v="islet" />
		<tag k="ssr:stedsnr" v="316061" />
	</node>
	<node lat="63.42327500341791" lon="8.418152786219933" id="-34653">
		<tag k="name" v="Bukkholmen" />
		<tag k="place" v="islet" />
		<tag k="ssr:stedsnr" v="316063" />
	</node>
	<node lat="63.50695277448545" lon="9.256166665048237" id="-34656">
		<tag k="name" v="Nesaholmen" />
		<tag k="place" v="islet" />
		<tag k="ssr:stedsnr" v="316199" />
	</node>
	<node lat="63.49797221897341" lon="9.104322227079884" id="-34657">
		<tag k="alt_name" v="Straumneset" />
		<tag k="name" v="Straumsneset" />
		<tag k="natural" v="cape" />
		<tag k="ssr:stedsnr" v="316503" />
	</node>
	<node lat="63.6512999989583" lon="9.024997220763366" id="-34667">
		<tag k="name" v="Kuøya" />
		<tag k="place" v="islet" />
		<tag k="ssr:stedsnr" v="316700" />
	</node>
	<node lat="63.61134686853375" lon="8.510516414015733" id="-34669">
		<tag k="alt_name" v="Seiballen;Seibarden" />
		<tag k="fixme" v="consider seamark:type=rock or natural=shoal" />
		<tag k="name" v="Seibalen" />
		<tag k="place" v="islet" />
		<tag k="ssr:stedsnr" v="316706" />
	</node>
	<node lat="63.665763884575384" lon="9.171849993308392" id="-34670">
		<tag k="name" v="Kuøyodden" />
		<tag k="natural" v="cape" />
		<tag k="ssr:stedsnr" v="316723" />
	</node>
	<node lat="63.66501827614052" lon="8.809608161214584" id="-34671">
		<tag k="fixme" v="consider seamark:type=rock or natural=shoal" />
		<tag k="name" v="Tennskjæret" />
		<tag k="place" v="islet" />
		<tag k="ssr:stedsnr" v="316724" />
	</node>
	<node lat="63.657786107767926" lon="8.78060556116168" id="-34672">
		<tag k="name" v="Husneset" />
		<tag k="natural" v="cape" />
		<tag k="ssr:stedsnr" v="316725" />
	</node>
	<node lat="63.58920277381784" lon="9.271958337314521" id="-34677">
		<tag k="name" v="Mefjordgrunnen" />
		<tag k="natural" v="shoal" />
		<tag k="place" v="locality" />
		<tag k="ssr:stedsnr" v="469845" />
	</node>
	<node lat="63.65888055783215" lon="9.14396945453129" id="-34679">
		<tag k="fixme" v="consider seamark:type=rock or natural=shoal" />
		<tag k="name" v="Ausa" />
		<tag k="place" v="islet" />
		<tag k="ssr:stedsnr" v="333004" />
	</node>
	<node lat="63.45413889057267" lon="8.605777775954643" id="-34687">
		<tag k="name" v="Småviknesset" />
		<tag k="natural" v="cape" />
		<tag k="ssr:stedsnr" v="333253" />
	</node>
	<node lat="63.65097499976555" lon="8.759233327737073" id="-34689">
		<tag k="name" v="Holmen" />
		<tag k="place" v="islet" />
		<tag k="ssr:stedsnr" v="333904" />
	</node>
	<node lat="63.655019440450076" lon="8.770108341005" id="-34690">
		<tag k="name" v="Tøftaholmen" />
		<tag k="place" v="islet" />
		<tag k="ssr:stedsnr" v="333907" />
	</node>
	<node lat="63.584630552729145" lon="9.139522224328388" id="-34700">
		<tag k="name" v="Gåsholmen" />
		<tag k="place" v="islet" />
		<tag k="ssr:stedsnr" v="334056" />
	</node>
	<node lat="63.57681111279651" lon="8.410030564432072" id="-34703">
		<tag k="fixme" v="consider seamark:type=rock or natural=shoal" />
		<tag k="name" v="Aunskjæret" />
		<tag k="place" v="islet" />
		<tag k="ssr:stedsnr" v="334096" />
	</node>
	<node lat="63.576891665642044" lon="8.419452780637787" id="-34704">
		<tag k="name" v="Leirvika" />
		<tag k="natural" v="bay" />
		<tag k="ssr:stedsnr" v="334097" />
	</node>
	<node lat="63.5726555556658" lon="9.209727779401522" id="-34705">
		<tag k="name" v="Børøyvika" />
		<tag k="natural" v="bay" />
		<tag k="ssr:stedsnr" v="334247" />
	</node>
	<node lat="63.56575555709821" lon="8.42682778613042" id="-34710">
		<tag k="fixme" v="consider seamark:type=rock or natural=shoal" />
		<tag k="name" v="Sebriskjæret" />
		<tag k="place" v="islet" />
		<tag k="ssr:stedsnr" v="334115" />
	</node>
	<node lat="63.66408610698468" lon="9.108886102225833" id="-34713">
		<tag k="fixme" v="consider seamark:type=rock or natural=shoal" />
		<tag k="name" v="Sandvikskjæret" />
		<tag k="place" v="islet" />
		<tag k="ssr:stedsnr" v="334153" />
	</node>
	<node lat="63.499900001375764" lon="8.965619450921253" id="-34716">
		<tag k="name" v="Hamnabukta" />
		<tag k="natural" v="bay" />
		<tag k="ssr:stedsnr" v="334303" />
	</node>
	<node lat="63.496766664138725" lon="9.029241666667437" id="-34717">
		<tag k="fixme" v="consider seamark:type=rock or natural=shoal" />
		<tag k="name" v="Litlterningsskjæret" />
		<tag k="place" v="islet" />
		<tag k="ssr:stedsnr" v="334311" />
	</node>
	<node lat="63.4456111122978" lon="8.370997226446322" id="-34719">
		<tag k="name" v="Nordbukta" />
		<tag k="natural" v="bay" />
		<tag k="ssr:stedsnr" v="334317" />
	</node>
	<node lat="63.44674999739909" lon="8.369072215519818" id="-34720">
		<tag k="name" v="Kjørstadvågen" />
		<tag k="natural" v="bay" />
		<tag k="ssr:stedsnr" v="334318" />
	</node>
	<node lat="63.56250833484219" lon="8.51832221966395" id="-34744">
		<tag k="name" v="Helgbustadvågen" />
		<tag k="natural" v="bay" />
		<tag k="old_name" v="Helgebustadvågen" />
		<tag k="ssr:stedsnr" v="334998" />
	</node>
	<node lat="63.50426944631823" lon="9.259405551905227" id="-34746">
		<tag k="name" v="Kvalen" />
		<tag k="natural" v="shoal" />
		<tag k="place" v="locality" />
		<tag k="ssr:stedsnr" v="335207" />
	</node>
	<node lat="63.51270277697922" lon="9.255538890786582" id="-34747">
		<tag k="name" v="Ørnvika" />
		<tag k="natural" v="bay" />
		<tag k="ssr:stedsnr" v="335197" />
	</node>
	<node lat="63.66546388785213" lon="9.019819440248009" id="-34750">
		<tag k="name" v="Mysingen" />
		<tag k="place" v="islet" />
		<tag k="ssr:stedsnr" v="335701" />
	</node>
	<node lat="63.495197462399034" lon="9.15218236597994" id="-34754">
		<tag k="name" v="Sjøholmen" />
		<tag k="place" v="islet" />
		<tag k="ssr:stedsnr" v="336062" />
	</node>
	<node lat="63.5241555577685" lon="9.322444440801023" id="-34757">
		<tag k="name" v="Neset" />
		<tag k="natural" v="cape" />
		<tag k="ssr:stedsnr" v="336546" />
	</node>
	<node lat="63.55036666319947" lon="9.40503334196526" id="-34758">
		<tag k="name" v="Åbordsneset" />
		<tag k="natural" v="cape" />
		<tag k="ssr:stedsnr" v="336698" />
	</node>
	<node lat="63.46935555906929" lon="9.325766660811912" id="-34761">
		<tag k="fixme" v="consider seamark:type=rock or natural=shoal" />
		<tag k="name" v="Furuholmtangen" />
		<tag k="place" v="islet" />
		<tag k="ssr:stedsnr" v="337601" />
	</node>
	<node lat="63.59186389324265" lon="8.409516675773018" id="-34763">
		<tag k="name" v="Karifloa" />
		<tag k="natural" v="shoal" />
		<tag k="place" v="locality" />
		<tag k="ssr:stedsnr" v="339355" />
	</node>
	<node lat="63.59099166535375" lon="8.46368332792671" id="-34764">
		<tag k="name" v="Austre Monsøysvaet" />
		<tag k="natural" v="shoal" />
		<tag k="place" v="locality" />
		<tag k="ssr:stedsnr" v="339643" />
	</node>
	<node lat="63.45762499999883" lon="8.627700000954977" id="-34765">
		<tag k="name" v="Knollen" />
		<tag k="natural" v="shoal" />
		<tag k="place" v="locality" />
		<tag k="ssr:stedsnr" v="472281" />
	</node>
	<node lat="63.565969444620926" lon="8.611752787478943" id="-34766">
		<tag k="name" v="Hammarvikstraumen" />
		<tag k="natural" v="strait" />
		<tag k="ssr:stedsnr" v="472837" />
	</node>
	<node lat="63.59181111124872" lon="8.984483328622227" id="-34767">
		<tag k="name" v="Leirvågflua" />
		<tag k="natural" v="shoal" />
		<tag k="place" v="locality" />
		<tag k="ssr:stedsnr" v="349783" />
	</node>
	<node lat="63.62789444762131" lon="8.893163882938422" id="-34775">
		<tag k="name" v="Gåsvika" />
		<tag k="natural" v="bay" />
		<tag k="ssr:stedsnr" v="481586" />
	</node>
	<node lat="63.54188055554622" lon="8.392230557671846" id="-34777">
		<tag k="name" v="Helsøyholmen" />
		<tag k="place" v="islet" />
		<tag k="ssr:stedsnr" v="393134" />
	</node>
	<node lat="63.55936388703894" lon="8.371972227063832" id="-34778">
		<tag k="name" v="Dauva" />
		<tag k="natural" v="bay" />
		<tag k="ssr:stedsnr" v="393095" />
	</node>
	<node lat="63.43621111219094" lon="8.569138894264375" id="-34780">
		<tag k="fixme" v="consider seamark:type=rock or natural=shoal" />
		<tag k="name" v="Nordre Atthammarskjæret" />
		<tag k="place" v="islet" />
		<tag k="ssr:stedsnr" v="393239" />
	</node>
	<node lat="63.499024999781454" lon="8.244572216834829" id="-34783">
		<tag k="name" v="Seiklavan" />
		<tag k="natural" v="cape" />
		<tag k="ssr:stedsnr" v="393632" />
	</node>
	<node lat="63.591255553284675" lon="8.398036104326621" id="-34786">
		<tag k="name" v="Tausetholmdraga" />
		<tag k="place" v="islet" />
		<tag k="ssr:stedsnr" v="394038" />
	</node>
	<node lat="63.53961110872346" lon="8.392633332736652" id="-34788">
		<tag k="name" v="Helsøyklubben" />
		<tag k="natural" v="cape" />
		<tag k="ssr:stedsnr" v="394106" />
	</node>
	<node lat="63.46510833674226" lon="8.30416389559823" id="-34791">
		<tag k="name" v="Sør Spersøya" />
		<tag k="place" v="island" />
		<tag k="ssr:stedsnr" v="394306" />
	</node>
	<node lat="63.46508610848324" lon="8.272738890747462" id="-34792">
		<tag k="name" v="Nørd Djupholmen" />
		<tag k="place" v="islet" />
		<tag k="ssr:stedsnr" v="394310" />
	</node>
	<node lat="63.430872223791205" lon="8.382463884617337" id="-34795">
		<tag k="name" v="Leirvikbukta" />
		<tag k="natural" v="bay" />
		<tag k="ssr:stedsnr" v="394332" />
	</node>
	<node lat="63.58288333534424" lon="8.990272216445144" id="-34796">
		<tag k="name" v="Øyavalen" />
		<tag k="natural" v="bay" />
		<tag k="ssr:stedsnr" v="394205" />
	</node>
	<node lat="63.58624166490359" lon="8.99590277922888" id="-34797">
		<tag k="name" v="Nordøya" />
		<tag k="place" v="island" />
		<tag k="ssr:stedsnr" v="394206" />
	</node>
	<node lat="63.63536389211711" lon="9.078277774388635" id="-34799">
		<tag k="name" v="Lauvnesa" />
		<tag k="natural" v="cape" />
		<tag k="ssr:stedsnr" v="394219" />
	</node>
	<node lat="63.6496027766643" lon="9.181025005847978" id="-34800">
		<tag k="fixme" v="consider seamark:type=rock or natural=shoal" />
		<tag k="name" v="Svartskjæret" />
		<tag k="place" v="islet" />
		<tag k="ssr:stedsnr" v="394239" />
	</node>
	<node lat="63.5324222202131" lon="8.312186106620905" id="-34803">
		<tag k="name" v="Gulholmen" />
		<tag k="place" v="islet" />
		<tag k="ssr:stedsnr" v="394386" />
	</node>
	<node lat="63.53268888819428" lon="8.347263893159576" id="-34804">
		<tag k="name" v="Sauøya" />
		<tag k="place" v="island" />
		<tag k="ssr:stedsnr" v="394392" />
	</node>
	<node lat="63.413191665628226" lon="8.470263887113429" id="-34806">
		<tag k="name" v="Aune" />
		<tag k="natural" v="cape" />
		<tag k="ssr:stedsnr" v="394512" />
	</node>
	<node lat="63.62904721893031" lon="8.72026110593287" id="-34808">
		<tag k="fixme" v="consider seamark:type=rock or natural=shoal" />
		<tag k="name" v="Ternskjæret" />
		<tag k="place" v="islet" />
		<tag k="ssr:stedsnr" v="394581" />
	</node>
	<node lat="63.64819166430813" lon="8.738066668438838" id="-34820">
		<tag k="name" v="Myravalen" />
		<tag k="natural" v="bay" />
		<tag k="ssr:stedsnr" v="394905" />
	</node>
	<node lat="63.65891110943326" lon="8.833380549465296" id="-34823">
		<tag k="name" v="Kvalvikbukta" />
		<tag k="natural" v="bay" />
		<tag k="ssr:stedsnr" v="394996" />
	</node>
	<node lat="63.62089722221002" lon="8.524030560055856" id="-34826">
		<tag k="name" v="Lyngholmen" />
		<tag k="place" v="islet" />
		<tag k="ssr:stedsnr" v="394896" />
	</node>
	<node lat="63.61028889198001" lon="8.398650004512731" id="-34829">
		<tag k="name" v="Ausa" />
		<tag k="place" v="islet" />
		<tag k="ssr:stedsnr" v="395298" />
	</node>
	<node lat="63.49898333654255" lon="9.049427780088818" id="-34831">
		<tag k="fixme" v="consider seamark:type=rock or natural=shoal" />
		<tag k="name" v="Skjelskjæra" />
		<tag k="place" v="islet" />
		<tag k="ssr:stedsnr" v="395310" />
	</node>
	<node lat="63.47608333157111" lon="8.863463880424305" id="-34833">
		<tag k="fixme" v="consider seamark:type=rock or natural=shoal" />
		<tag k="name" v="Storskjæret" />
		<tag k="place" v="islet" />
		<tag k="ssr:stedsnr" v="395327" />
	</node>
	<node lat="63.57473055691479" lon="9.180452778386606" id="-34834">
		<tag k="name" v="Klungerviksunda" />
		<tag k="natural" v="strait" />
		<tag k="ssr:stedsnr" v="395339" />
	</node>
	<node lat="63.55265277917667" lon="9.197966667932826" id="-34835">
		<tag k="name" v="Hamnaholmen" />
		<tag k="place" v="islet" />
		<tag k="ssr:stedsnr" v="395504" />
	</node>
	<node lat="63.46792500122019" lon="8.682755550417456" id="-34836">
		<tag k="fixme" v="consider seamark:type=rock or natural=shoal" />
		<tag k="name" v="Ternskjæret" />
		<tag k="place" v="islet" />
		<tag k="ssr:stedsnr" v="395703" />
	</node>
	<node lat="63.47349722049292" lon="8.714930554144617" id="-34838">
		<tag k="name" v="Melkvikbukta" />
		<tag k="natural" v="bay" />
		<tag k="ssr:stedsnr" v="395677" />
	</node>
	<node lat="63.62971110730639" lon="9.00223889363135" id="-34839">
		<tag k="name" v="Ansnestaren" />
		<tag k="natural" v="shoal" />
		<tag k="place" v="locality" />
		<tag k="ssr:stedsnr" v="395880" />
	</node>
	<node lat="63.45746389102966" lon="9.161605552064923" id="-34843">
		<tag k="fixme" v="multiple name tags, choose one and add the other to alt_name" />
		<tag k="name" v="Skrubbøyholmen;Skrubbøyskjæret" />
		<tag k="place" v="islet" />
		<tag k="ssr:stedsnr" v="397229" />
	</node>
	<node lat="63.52691666747904" lon="9.322022216452508" id="-34845">
		<tag k="name" v="Våbergsbukta" />
		<tag k="natural" v="bay" />
		<tag k="ssr:stedsnr" v="397590" />
	</node>
	<node lat="63.45351944209441" lon="9.287591675940387" id="-34846">
		<tag k="name" v="Vågavågen" />
		<tag k="natural" v="bay" />
		<tag k="ssr:stedsnr" v="397629" />
	</node>
	<node lat="63.591858333377594" lon="8.313311107927737" id="-34850">
		<tag k="name" v="Indre Oddflua" />
		<tag k="natural" v="shoal" />
		<tag k="place" v="locality" />
		<tag k="ssr:stedsnr" v="400105" />
	</node>
	<node lat="63.58759167034314" lon="8.320022221860278" id="-34851">
		<tag k="name" v="Fauskflua" />
		<tag k="natural" v="shoal" />
		<tag k="place" v="locality" />
		<tag k="ssr:stedsnr" v="400107" />
	</node>
	<node lat="63.60166111002142" lon="8.326963889365205" id="-34852">
		<tag k="fixme" v="consider seamark:type=rock or natural=shoal" />
		<tag k="name" v="Kjerringa" />
		<tag k="place" v="islet" />
		<tag k="ssr:stedsnr" v="400380" />
	</node>
	<node lat="63.60302222152209" lon="8.32999722762288" id="-34853">
		<tag k="name" v="Kalsbugen" />
		<tag k="natural" v="bay" />
		<tag k="ssr:stedsnr" v="400387" />
	</node>
	<node lat="63.65297500268046" lon="9.045841658414782" id="-34854">
		<tag k="name" v="Ankerholmen" />
		<tag k="place" v="islet" />
		<tag k="ssr:stedsnr" v="272079" />
	</node>
	<node lat="63.66118333477288" lon="9.061419446723367" id="-34855">
		<tag k="name" v="Ingeborgvika" />
		<tag k="natural" v="bay" />
		<tag k="ssr:stedsnr" v="272092" />
	</node>
	<node lat="63.540436110629194" lon="9.187533334609656" id="-34858">
		<tag k="name" v="Kråksteinan" />
		<tag k="natural" v="shoal" />
		<tag k="place" v="locality" />
		<tag k="ssr:stedsnr" v="409816" />
	</node>
	<node lat="63.551330551781994" lon="9.24662499738602" id="-34859">
		<tag k="name" v="Storaflua" />
		<tag k="natural" v="shoal" />
		<tag k="place" v="locality" />
		<tag k="ssr:stedsnr" v="409817" />
	</node>
	<node lat="63.46486944303311" lon="9.141597214725548" id="-34860">
		<tag k="name" v="Sørbukta" />
		<tag k="natural" v="bay" />
		<tag k="ssr:stedsnr" v="410651" />
	</node>
	<node lat="63.55643611560304" lon="9.430586111026201" id="-34861">
		<tag k="name" v="Åsøyflua" />
		<tag k="natural" v="shoal" />
		<tag k="place" v="locality" />
		<tag k="ssr:stedsnr" v="410888" />
	</node>
	<node lat="63.48173888978152" lon="8.245386116314998" id="-34865">
		<tag k="fixme" v="consider seamark:type=rock or natural=shoal" />
		<tag k="name" v="Langskjæret" />
		<tag k="place" v="islet" />
		<tag k="ssr:stedsnr" v="437118" />
	</node>
	<node lat="63.48405000390504" lon="8.28993610923455" id="-34866">
		<tag k="name" v="Risøya" />
		<tag k="place" v="islet" />
		<tag k="ssr:stedsnr" v="437120" />
	</node>
	<node lat="63.483202781603005" lon="8.814925002495913" id="-34869">
		<tag k="name" v="Bosvikvågen" />
		<tag k="natural" v="bay" />
		<tag k="ssr:stedsnr" v="437503" />
	</node>
	<node lat="63.63942777500281" lon="9.17600556453268" id="-34872">
		<tag k="alt_name" v="Bosvikskjæret" />
		<tag k="fixme" v="consider seamark:type=rock or natural=shoal" />
		<tag k="name" v="Båtsvikskjæret" />
		<tag k="place" v="islet" />
		<tag k="ssr:stedsnr" v="438303" />
	</node>
	<node lat="63.43923333497296" lon="9.150305547098759" id="-34873">
		<tag k="name" v="Hundholmen" />
		<tag k="place" v="islet" />
		<tag k="ssr:stedsnr" v="438386" />
	</node>
	<node lat="63.46652499835781" lon="9.182150000524596" id="-34875">
		<tag k="name" v="Yttervågen" />
		<tag k="natural" v="bay" />
		<tag k="ssr:stedsnr" v="438480" />
	</node>
	<node lat="63.524356185713394" lon="9.125177728504356" id="-34877">
		<tag k="name" v="Aunøya" />
		<tag k="place" v="island" />
		<tag k="ssr:stedsnr" v="438483" />
	</node>
	<node lat="63.51963333196291" lon="8.25023888537664" id="-34879">
		<tag k="fixme" v="consider seamark:type=rock or natural=shoal" />
		<tag k="name" v="Tennflesa" />
		<tag k="place" v="islet" />
		<tag k="ssr:stedsnr" v="438501" />
	</node>
	<node lat="63.60832222623728" lon="8.35108333974608" id="-34883">
		<tag k="name" v="Arasholmen" />
		<tag k="place" v="islet" />
		<tag k="ssr:stedsnr" v="438902" />
	</node>
	<node lat="63.64300833089638" lon="8.75441666184764" id="-34884">
		<tag k="name" v="Dolmøya" />
		<tag k="place" v="island" />
		<tag k="ssr:stedsnr" v="438946" />
	</node>
	<node lat="63.62322499661106" lon="8.584944434898764" id="-34885">
		<tag k="name" v="Haugøy" />
		<tag k="place" v="islet" />
		<tag k="ssr:stedsnr" v="438951" />
	</node>
	<node lat="63.62440555808123" lon="8.629372213978932" id="-34886">
		<tag k="alt_name" v="Storauka" />
		<tag k="name" v="Auka" />
		<tag k="place" v="islet" />
		<tag k="ssr:stedsnr" v="438954" />
	</node>
	<node lat="63.64495555487385" lon="8.595752780578598" id="-34887">
		<tag k="alt_name" v="Lyngvær, yt" />
		<tag k="name" v="Ytre Lyngvær" />
		<tag k="place" v="islet" />
		<tag k="ssr:stedsnr" v="438955" />
	</node>
	<node lat="63.642491664532805" lon="8.584663889352251" id="-34888">
		<tag k="name" v="Bukkholmen" />
		<tag k="place" v="islet" />
		<tag k="ssr:stedsnr" v="438956" />
	</node>
	<node lat="63.597744447549246" lon="8.436016662429653" id="-34890">
		<tag k="name" v="Tonningholmen" />
		<tag k="place" v="islet" />
		<tag k="ssr:stedsnr" v="272060" />
	</node>
	<node lat="63.63323333243194" lon="8.73981666056879" id="-34892">
		<tag k="name" v="Rakkarbergstraumen" />
		<tag k="natural" v="strait" />
		<tag k="ssr:stedsnr" v="272587" />
	</node>
	<node lat="63.55628055521779" lon="8.474919446922392" id="-34894">
		<tag k="name" v="Rekkavika" />
		<tag k="natural" v="bay" />
		<tag k="ssr:stedsnr" v="454009" />
	</node>
	<node lat="63.6535527766205" lon="9.031116675045636" id="-34901">
		<tag k="alt_name" v="Mastadflua" />
		<tag k="name" v="Mastadsvaet" />
		<tag k="natural" v="shoal" />
		<tag k="place" v="locality" />
		<tag k="ssr:stedsnr" v="455068" />
	</node>
	<node lat="63.6494130128459" lon="9.048415183739925" id="-34902">
		<tag k="name" v="Melkholmen" />
		<tag k="place" v="islet" />
		<tag k="ssr:stedsnr" v="455072" />
	</node>
	<node lat="63.65120253313874" lon="9.045884900662854" id="-34903">
		<tag k="alt_name" v="Lammøya" />
		<tag k="name" v="Lamøya" />
		<tag k="place" v="island" />
		<tag k="ssr:stedsnr" v="455074" />
	</node>
	<node lat="63.6631638874861" lon="9.058091675488168" id="-34905">
		<tag k="fixme" v="consider seamark:type=rock or natural=shoal" />
		<tag k="name" v="Vikaskjæret" />
		<tag k="place" v="islet" />
		<tag k="ssr:stedsnr" v="455077" />
	</node>
	<node lat="63.43305833713894" lon="8.331061114492822" id="-34907">
		<tag k="name" v="Lyskaget" />
		<tag k="natural" v="cape" />
		<tag k="ssr:stedsnr" v="455261" />
	</node>
	<node lat="63.452227777288165" lon="8.324708339845616" id="-34910">
		<tag k="name" v="Hamnabugen" />
		<tag k="natural" v="bay" />
		<tag k="ssr:stedsnr" v="455306" />
	</node>
	<node lat="63.419261108153364" lon="8.397180551158693" id="-34914">
		<tag k="fixme" v="consider seamark:type=rock or natural=shoal" />
		<tag k="name" v="Skarvskjæra" />
		<tag k="place" v="islet" />
		<tag k="ssr:stedsnr" v="455473" />
	</node>
	<node lat="63.5308568512617" lon="8.338527207968934" id="-34916">
		<tag k="name" v="Hundholmen" />
		<tag k="place" v="islet" />
		<tag k="ssr:stedsnr" v="455359" />
	</node>
	<node lat="63.5334416671513" lon="8.323380556587415" id="-34917">
		<tag k="name" v="Skomakarflessa" />
		<tag k="place" v="islet" />
		<tag k="ssr:stedsnr" v="455360" />
	</node>
	<node lat="63.633702777269136" lon="8.98247221845542" id="-34920">
		<tag k="name" v="Myraneset" />
		<tag k="natural" v="cape" />
		<tag k="ssr:stedsnr" v="455864" />
	</node>
	<node lat="63.62162500285736" lon="8.539441664767757" id="-34924">
		<tag k="name" v="Langøyråsa" />
		<tag k="natural" v="bay" />
		<tag k="ssr:stedsnr" v="455877" />
	</node>
	<node lat="63.60818610746215" lon="8.530219450352618" id="-34925">
		<tag k="fixme" v="consider seamark:type=rock or natural=shoal" />
		<tag k="name" v="Kvalen" />
		<tag k="place" v="islet" />
		<tag k="ssr:stedsnr" v="455881" />
	</node>
	<node lat="63.644708329656964" lon="9.018444439318392" id="-34926">
		<tag k="fixme" v="consider seamark:type=rock or natural=shoal" />
		<tag k="name" v="Grønnlandsskjæret" />
		<tag k="place" v="islet" />
		<tag k="ssr:stedsnr" v="455759" />
	</node>
	<node lat="63.50418055626607" lon="9.064108338761448" id="-34935">
		<tag k="name" v="Øyskaget" />
		<tag k="natural" v="cape" />
		<tag k="ssr:stedsnr" v="456309" />
	</node>
	<node lat="63.46280833423966" lon="9.132333327206366" id="-34941">
		<tag k="name" v="Synnsvikneset" />
		<tag k="natural" v="cape" />
		<tag k="ssr:stedsnr" v="457035" />
	</node>
	<node lat="63.46602777473682" lon="9.295097231743934" id="-34942">
		<tag k="name" v="Libugen" />
		<tag k="natural" v="bay" />
		<tag k="ssr:stedsnr" v="457606" />
	</node>
	<node lat="63.44921388767508" lon="9.295800003111216" id="-34948">
		<tag k="name" v="Stokkvika" />
		<tag k="natural" v="bay" />
		<tag k="ssr:stedsnr" v="458659" />
	</node>
	<node lat="63.5915777767213" lon="8.4503305489321" id="-34949">
		<tag k="fixme" v="consider seamark:type=rock or natural=shoal" />
		<tag k="name" v="Skarvskjærklumpen" />
		<tag k="place" v="islet" />
		<tag k="ssr:stedsnr" v="461262" />
	</node>
	<node lat="63.438361107957114" lon="8.571997216290521" id="-34951">
		<tag k="name" v="Stongneset" />
		<tag k="place" v="islet" />
		<tag k="ssr:stedsnr" v="272242" />
	</node>
	<node lat="63.647561115620896" lon="9.185408337473895" id="-34953">
		<tag k="alt_name" v="Gulholmen" />
		<tag k="name" v="Gullholmen" />
		<tag k="place" v="islet" />
		<tag k="ssr:stedsnr" v="272248" />
	</node>
	<node lat="63.440705552092574" lon="8.575899996756803" id="-34955">
		<tag k="name" v="Notholmen" />
		<tag k="place" v="islet" />
		<tag k="ssr:stedsnr" v="272253" />
	</node>
	<node lat="63.44032499643138" lon="8.281436105675265" id="-34960">
		<tag k="alt_name" v="Ytre Rognholmen" />
		<tag k="name" v="Rognholmen" />
		<tag k="place" v="islet" />
		<tag k="ssr:stedsnr" v="679033" />
	</node>
	<node lat="63.415891664370925" lon="8.263025005424558" id="-34965">
		<tag k="name" v="Ramsøyflua" />
		<tag k="natural" v="shoal" />
		<tag k="place" v="locality" />
		<tag k="ssr:stedsnr" v="680039" />
	</node>
	<node lat="63.4633000008208" lon="8.675250002272248" id="-34968">
		<tag k="name" v="Grønnholmen" />
		<tag k="place" v="islet" />
		<tag k="ssr:stedsnr" v="680126" />
	</node>
	<node lat="63.48001666977222" lon="8.316833327191013" id="-34970">
		<tag k="name" v="Olasvågen" />
		<tag k="natural" v="bay" />
		<tag k="ssr:stedsnr" v="680079" />
	</node>
	<node lat="63.62255833533565" lon="9.111919445218348" id="-34978">
		<tag k="name" v="Setervågen" />
		<tag k="natural" v="bay" />
		<tag k="ssr:stedsnr" v="680327" />
	</node>
	<node lat="63.62698333154644" lon="9.122750000943494" id="-34981">
		<tag k="name" v="Einvikvågen" />
		<tag k="natural" v="bay" />
		<tag k="ssr:stedsnr" v="680372" />
	</node>
	<node lat="63.56424722140023" lon="9.136372225450001" id="-34989">
		<tag k="fixme" v="multiple name tags, choose one and add the other to alt_name" />
		<tag k="name" v="Nesaholmen;Purkholmen" />
		<tag k="place" v="islet" />
		<tag k="ssr:stedsnr" v="680473" />
	</node>
	<node lat="63.52555108050512" lon="8.320760922151198" id="-34998">
		<tag k="name" v="Geitøya" />
		<tag k="place" v="islet" />
		<tag k="ssr:stedsnr" v="680579" />
	</node>
	<node lat="63.528275000424784" lon="8.308644444948452" id="-34999">
		<tag k="name" v="Tobakkholmen" />
		<tag k="place" v="islet" />
		<tag k="ssr:stedsnr" v="680582" />
	</node>
	<node lat="63.55391666653641" lon="8.345355550080292" id="-35001">
		<tag k="fixme" v="consider seamark:type=rock or natural=shoal" />
		<tag k="name" v="Trettskjæret" />
		<tag k="place" v="islet" />
		<tag k="ssr:stedsnr" v="680637" />
	</node>
	<node lat="63.54948055683323" lon="8.342841667160382" id="-35002">
		<tag k="name" v="Flatøya" />
		<tag k="place" v="islet" />
		<tag k="ssr:stedsnr" v="680638" />
	</node>
	<node lat="63.63021944719282" lon="8.508988887632297" id="-35006">
		<tag k="fixme" v="consider seamark:type=rock or natural=shoal" />
		<tag k="name" v="Knappleiskjæret" />
		<tag k="place" v="islet" />
		<tag k="ssr:stedsnr" v="680982" />
	</node>
	<node lat="63.586058335582806" lon="8.35580000434852" id="-35007">
		<tag k="name" v="Hjortvikholmen" />
		<tag k="place" v="islet" />
		<tag k="ssr:stedsnr" v="680909" />
	</node>
	<node lat="63.58606111004804" lon="8.530302784544237" id="-35008">
		<tag k="name" v="Dønholman" />
		<tag k="place" v="islet" />
		<tag k="ssr:stedsnr" v="680912" />
	</node>
	<node lat="63.600047225512455" lon="8.405255549339875" id="-35010">
		<tag k="name" v="Stokkøya" />
		<tag k="place" v="islet" />
		<tag k="ssr:stedsnr" v="680919" />
	</node>
	<node lat="63.60079999601944" lon="8.422433338498742" id="-35011">
		<tag k="alt_name" v="Ytter Brannsøya;Ytter Brandsøya;Brannsøya, yt" />
		<tag k="name" v="Ytre Brannsøya" />
		<tag k="place" v="islet" />
		<tag k="ssr:stedsnr" v="680920" />
	</node>
	<node lat="63.59268888931178" lon="8.418224996046112" id="-35012">
		<tag k="name" v="Snåsøya" />
		<tag k="place" v="islet" />
		<tag k="ssr:stedsnr" v="680921" />
	</node>
	<node lat="63.60097777717894" lon="8.346755549888456" id="-35013">
		<tag k="fixme" v="consider seamark:type=rock or natural=shoal" />
		<tag k="name" v="Brannøyskjæret" />
		<tag k="place" v="islet" />
		<tag k="ssr:stedsnr" v="680936" />
	</node>
	<node lat="63.614275000255226" lon="8.43934443954378" id="-35015">
		<tag k="name" v="Kuøya" />
		<tag k="place" v="islet" />
		<tag k="ssr:stedsnr" v="680955" />
	</node>
	<node lat="63.65200555862467" lon="8.641372227741535" id="-35016">
		<tag k="name" v="Brannsnåsøya" />
		<tag k="place" v="islet" />
		<tag k="ssr:stedsnr" v="680988" />
	</node>
	<node lat="63.45150832932278" lon="9.333233342649647" id="-35021">
		<tag k="bay" v="fjord" />
		<tag k="name" v="Åstfjorden" />
		<tag k="natural" v="bay" />
		<tag k="old_name" v="Åstfjoren" />
		<tag k="ssr:stedsnr" v="497947" />
	</node>
	<node lat="63.46528611066218" lon="8.281775007231893" id="-35024">
		<tag k="name" v="Trollholmen" />
		<tag k="place" v="islet" />
		<tag k="ssr:stedsnr" v="498139" />
	</node>
	<node lat="63.62363055829958" lon="8.919666671989214" id="-35028">
		<tag k="alt_name" v="Litle Eidsvågen" />
		<tag k="name" v="Eidsvågen" />
		<tag k="natural" v="bay" />
		<tag k="ssr:stedsnr" v="498347" />
	</node>
	<node lat="63.47503888728374" lon="8.847774996751857" id="-35032">
		<tag k="name" v="Hamnøya" />
		<tag k="place" v="islet" />
		<tag k="ssr:stedsnr" v="498551" />
	</node>
	<node lat="63.64091666518133" lon="8.997072218870128" id="-35036">
		<tag k="name" v="Ansnesvika" />
		<tag k="natural" v="cape" />
		<tag k="ssr:stedsnr" v="272829" />
	</node>
	<node lat="63.63348333290884" lon="9.01730834057311" id="-35037">
		<tag k="name" v="Kåholmen" />
		<tag k="place" v="islet" />
		<tag k="ssr:stedsnr" v="272835" />
	</node>
	<node lat="63.558408331860136" lon="9.209749992126541" id="-35039">
		<tag k="name" v="Lyngøya" />
		<tag k="place" v="islet" />
		<tag k="ssr:stedsnr" v="498489" />
	</node>
	<node lat="63.65684722613076" lon="9.144511107799373" id="-35041">
		<tag k="name" v="Svellungen" />
		<tag k="place" v="islet" />
		<tag k="ssr:stedsnr" v="498669" />
	</node>
	<node lat="63.66318889152669" lon="9.139311109750075" id="-35042">
		<tag k="alt_name" v="Osholman" />
		<tag k="name" v="Osholmen" />
		<tag k="place" v="islet" />
		<tag k="ssr:stedsnr" v="498670" />
	</node>
	<node lat="63.65873333141825" lon="9.167911115670398" id="-35043">
		<tag k="name" v="Klubbholmen" />
		<tag k="place" v="islet" />
		<tag k="ssr:stedsnr" v="498673" />
	</node>
	<node lat="63.6024138914214" lon="9.03394723038645" id="-35051">
		<tag k="alt_name" v="Galten" />
		<tag k="fixme" v="consider seamark:type=rock or natural=shoal" />
		<tag k="name" v="Tranvikgalten" />
		<tag k="place" v="islet" />
		<tag k="ssr:stedsnr" v="681352" />
	</node>
	<node lat="63.6151861105388" lon="8.354899989967729" id="-35053">
		<tag k="fixme" v="consider seamark:type=rock or natural=shoal" />
		<tag k="name" v="Storværsøyskjæret" />
		<tag k="place" v="islet" />
		<tag k="ssr:stedsnr" v="499910" />
	</node>
	<node lat="63.543566667478366" lon="9.181013882023256" id="-35054">
		<tag k="fixme" v="consider seamark:type=rock or natural=shoal" />
		<tag k="name" v="Kjeøyskjæret" />
		<tag k="place" v="islet" />
		<tag k="ssr:stedsnr" v="681454" />
	</node>
	<node lat="63.5820138932851" lon="8.598033332993813" id="-35057">
		<tag k="name" v="Roparholman" />
		<tag k="place" v="islet" />
		<tag k="ssr:stedsnr" v="681597" />
	</node>
	<node lat="63.57275555689724" lon="8.345286108719069" id="-35058">
		<tag k="name" v="Flatøyan" />
		<tag k="place" v="islet" />
		<tag k="ssr:stedsnr" v="681626" />
	</node>
	<node lat="63.57013333646713" lon="8.341158334606334" id="-35059">
		<tag k="fixme" v="consider seamark:type=rock or natural=shoal" />
		<tag k="name" v="Skagskjæra" />
		<tag k="place" v="islet" />
		<tag k="ssr:stedsnr" v="681627" />
	</node>
	<node lat="63.64760555520025" lon="8.913513889958375" id="-35064">
		<tag k="fixme" v="consider seamark:type=rock or natural=shoal" />
		<tag k="name" v="Blåhammarskjæra" />
		<tag k="place" v="islet" />
		<tag k="ssr:stedsnr" v="515104" />
	</node>
	<node lat="63.64134444608022" lon="9.065972213562107" id="-35070">
		<tag k="name" v="Brekkvågen" />
		<tag k="natural" v="bay" />
		<tag k="ssr:stedsnr" v="515240" />
	</node>
	<node lat="63.634255551135766" lon="8.736480558643787" id="-35074">
		<tag k="name" v="Tvillingan" />
		<tag k="place" v="islet" />
		<tag k="ssr:stedsnr" v="515612" />
	</node>
	<node lat="63.63393888978696" lon="8.762863879222303" id="-35075">
		<tag k="name" v="Storvågen" />
		<tag k="natural" v="bay" />
		<tag k="ssr:stedsnr" v="515622" />
	</node>
	<node lat="63.55385277590317" lon="8.566683340219294" id="-35079">
		<tag k="name" v="Engvika" />
		<tag k="natural" v="bay" />
		<tag k="ssr:stedsnr" v="515731" />
	</node>
	<node lat="63.5123388861179" lon="8.26551666489729" id="-35082">
		<tag k="fixme" v="consider seamark:type=rock or natural=shoal" />
		<tag k="name" v="Oløyskjæra" />
		<tag k="place" v="islet" />
		<tag k="ssr:stedsnr" v="515679" />
	</node>
	<node lat="63.6331611132042" lon="8.867713890538772" id="-35091">
		<tag k="name" v="Øyaholmen" />
		<tag k="place" v="islet" />
		<tag k="ssr:stedsnr" v="515961" />
	</node>
	<node lat="63.56006388523151" lon="8.39686110479722" id="-35093">
		<tag k="name" v="Storflatøya" />
		<tag k="place" v="island" />
		<tag k="ssr:stedsnr" v="516105" />
	</node>
	<node lat="63.665374997226344" lon="9.051580552356654" id="-35094">
		<tag k="name" v="Litlflatholmen" />
		<tag k="place" v="islet" />
		<tag k="ssr:stedsnr" v="516120" />
	</node>
	<node lat="63.66592221882302" lon="9.045555558934758" id="-35095">
		<tag k="name" v="Storflatholmen" />
		<tag k="place" v="islet" />
		<tag k="ssr:stedsnr" v="516121" />
	</node>
	<node lat="63.610869447782825" lon="8.456761118345275" id="-35096">
		<tag k="name" v="Grønneset" />
		<tag k="natural" v="cape" />
		<tag k="ssr:stedsnr" v="516124" />
	</node>
	<node lat="63.68091389116411" lon="9.083688888623618" id="-35100">
		<tag k="name" v="Ramvika" />
		<tag k="natural" v="bay" />
		<tag k="ssr:stedsnr" v="516169" />
	</node>
	<node lat="63.5899638885154" lon="8.411833324834747" id="-35102">
		<tag k="fixme" v="consider seamark:type=rock or natural=shoal" />
		<tag k="name" v="Årnvikskjæret" />
		<tag k="place" v="islet" />
		<tag k="ssr:stedsnr" v="516065" />
	</node>
	<node lat="63.5146583291021" lon="9.084586108168814" id="-35112">
		<tag k="name" v="Sandstadsundet" />
		<tag k="natural" v="strait" />
		<tag k="ssr:stedsnr" v="516414" />
	</node>
	<node lat="63.42687222057407" lon="8.423919440997366" id="-35119">
		<tag k="name" v="Engvikholman" />
		<tag k="place" v="islet" />
		<tag k="ssr:stedsnr" v="516476" />
	</node>
	<node lat="63.54698611412937" lon="9.211422216240694" id="-35121">
		<tag k="name" v="Litlholmen" />
		<tag k="place" v="islet" />
		<tag k="ssr:stedsnr" v="516483" />
	</node>
	<node lat="63.483297217783985" lon="8.803638886418646" id="-35126">
		<tag k="name" v="Båtsvikvågen" />
		<tag k="natural" v="bay" />
		<tag k="ssr:stedsnr" v="516704" />
	</node>
	<node lat="63.6513444479984" lon="9.000605564839333" id="-35127">
		<tag k="name" v="Daudmannsvalsholmen" />
		<tag k="place" v="islet" />
		<tag k="ssr:stedsnr" v="516764" />
	</node>
	<node lat="63.58779444848908" lon="8.541497223126775" id="-35128">
		<tag k="fixme" v="consider seamark:type=rock or natural=shoal" />
		<tag k="name" v="Saltskjæret" />
		<tag k="place" v="islet" />
		<tag k="ssr:stedsnr" v="516902" />
	</node>
	<node lat="63.59123611339973" lon="8.56719722523689" id="-35129">
		<tag k="name" v="Stokkvikskaget" />
		<tag k="natural" v="cape" />
		<tag k="ssr:stedsnr" v="516904" />
	</node>
	<node lat="63.613430552366985" lon="8.639424994546577" id="-35133">
		<tag k="name" v="Hamnavalen" />
		<tag k="natural" v="strait" />
		<tag k="ssr:stedsnr" v="516918" />
	</node>
	<node lat="63.56733055749922" lon="8.404991665634716" id="-35137">
		<tag k="name" v="Storaunvalen" />
		<tag k="natural" v="bay" />
		<tag k="ssr:stedsnr" v="516861" />
	</node>
	<node lat="63.52066110838388" lon="8.245488883276217" id="-35154">
		<tag k="name" v="Tennflua" />
		<tag k="natural" v="shoal" />
		<tag k="place" v="locality" />
		<tag k="ssr:stedsnr" v="520002" />
	</node>
	<node lat="63.58391388472831" lon="8.320352782809428" id="-35155">
		<tag k="name" v="Fauskan" />
		<tag k="natural" v="shoal" />
		<tag k="place" v="locality" />
		<tag k="ssr:stedsnr" v="521105" />
	</node>
	<node lat="63.60090000097035" lon="8.373286113634432" id="-35158">
		<tag k="name" v="Sveltøysundet" />
		<tag k="natural" v="strait" />
		<tag k="ssr:stedsnr" v="521675" />
	</node>
	<node lat="63.57278889081729" lon="8.46851667572005" id="-35159">
		<tag k="name" v="Lamøyskaget" />
		<tag k="natural" v="cape" />
		<tag k="ssr:stedsnr" v="521679" />
	</node>
	<node lat="63.58695555426002" lon="8.457391672370582" id="-35160">
		<tag k="fixme" v="consider seamark:type=rock or natural=shoal" />
		<tag k="name" v="Tangskjæret" />
		<tag k="place" v="islet" />
		<tag k="ssr:stedsnr" v="521680" />
	</node>
	<node lat="63.61446666549945" lon="8.401505545594096" id="-35161">
		<tag k="bay" v="fjord" />
		<tag k="name" v="Finnsbugen" />
		<tag k="natural" v="bay" />
		<tag k="ssr:stedsnr" v="522370" />
	</node>
	<node lat="63.46076388942845" lon="8.641561120699087" id="-35164">
		<tag k="name" v="Gåsholman" />
		<tag k="place" v="islet" />
		<tag k="ssr:stedsnr" v="558115" />
	</node>
	<node lat="63.631727782142285" lon="9.030350001228" id="-35168">
		<tag k="name" v="Skorvøya" />
		<tag k="place" v="islet" />
		<tag k="ssr:stedsnr" v="558312" />
	</node>
	<node lat="63.585025002969786" lon="8.980033343106602" id="-35170">
		<tag k="name" v="Laksholmen" />
		<tag k="place" v="islet" />
		<tag k="ssr:stedsnr" v="558345" />
	</node>
	<node lat="63.48604444072529" lon="8.914769451895324" id="-35173">
		<tag k="alt_name" v="Langneset" />
		<tag k="name" v="Langnes" />
		<tag k="natural" v="cape" />
		<tag k="ssr:stedsnr" v="558506" />
	</node>
	<node lat="63.564113884992295" lon="8.427425005788946" id="-35176">
		<tag k="alt_name" v="Tallerøya" />
		<tag k="name" v="Talerøya" />
		<tag k="place" v="islet" />
		<tag k="ssr:stedsnr" v="558594" />
	</node>
	<node lat="63.48423333763994" lon="8.166925004514175" id="-35177">
		<tag k="bay" v="fjord" />
		<tag k="name" v="Ramsøyfjorden" />
		<tag k="natural" v="bay" />
		<tag k="ssr:stedsnr" v="558597" />
	</node>
	<node lat="63.49806666233978" lon="8.298549993417407" id="-35178">
		<tag k="alt_name" v="Bjørnskårøya" />
		<tag k="name" v="Bjørnskardøya" />
		<tag k="place" v="islet" />
		<tag k="ssr:stedsnr" v="558907" />
	</node>
	<node lat="63.41989999893776" lon="8.273113894613868" id="-35181">
		<tag k="name" v="Ramsøybåen" />
		<tag k="natural" v="shoal" />
		<tag k="place" v="locality" />
		<tag k="ssr:stedsnr" v="559039" />
	</node>
	<node lat="63.42140555352525" lon="8.443536105104242" id="-35182">
		<tag k="alt_name" v="Værøygalten" />
		<tag k="fixme" v="consider seamark:type=rock or natural=shoal" />
		<tag k="name" v="Morvollgalten" />
		<tag k="place" v="islet" />
		<tag k="ssr:stedsnr" v="559043" />
	</node>
	<node lat="63.614466896716365" lon="8.452513431735587" id="-35183">
		<tag k="name" v="Tosøya" />
		<tag k="place" v="island" />
		<tag k="ssr:stedsnr" v="558945" />
	</node>
	<node lat="63.52415000117711" lon="8.336469438847374" id="-35188">
		<tag k="name" v="Gjøssøya" />
		<tag k="place" v="island" />
		<tag k="ssr:stedsnr" v="559510" />
	</node>
	<node lat="63.5778055590189" lon="8.364727772081707" id="-35192">
		<tag k="name" v="Sauholmen" />
		<tag k="place" v="islet" />
		<tag k="ssr:stedsnr" v="559605" />
	</node>
	<node lat="63.59620492839099" lon="8.460483455280674" id="-35193">
		<tag k="name" v="Bukkøya" />
		<tag k="place" v="islet" />
		<tag k="ssr:stedsnr" v="559901" />
	</node>
	<node lat="63.65258055604506" lon="9.139380565474656" id="-35195">
		<tag k="fixme" v="consider seamark:type=rock or natural=shoal" />
		<tag k="name" v="Steinaskjæra" />
		<tag k="place" v="islet" />
		<tag k="ssr:stedsnr" v="575108" />
	</node>
	<node lat="63.63081666708181" lon="8.714977772924627" id="-35200">
		<tag k="alt_name" v="Hundholmen" />
		<tag k="name" v="Purkholmen" />
		<tag k="place" v="islet" />
		<tag k="ssr:stedsnr" v="575502" />
	</node>
	<node lat="63.652091666108916" lon="8.701011103365282" id="-35201">
		<tag k="fixme" v="consider seamark:type=rock or natural=shoal" />
		<tag k="name" v="Tennskjæret" />
		<tag k="place" v="islet" />
		<tag k="ssr:stedsnr" v="575510" />
	</node>
	<node lat="63.58535833184575" lon="8.482799993655359" id="-35212">
		<tag k="fixme" v="consider seamark:type=rock or natural=shoal" />
		<tag k="name" v="Ørnhaugskjæret" />
		<tag k="place" v="islet" />
		<tag k="ssr:stedsnr" v="576154" />
	</node>
	<node lat="63.67780832894419" lon="9.10414166859269" id="-35213">
		<tag k="name" v="Fallholman" />
		<tag k="place" v="islet" />
		<tag k="ssr:stedsnr" v="576157" />
	</node>
	<node lat="63.46062777771176" lon="8.28500833891093" id="-35216">
		<tag k="name" v="Andersskogsvaet" />
		<tag k="natural" v="bay" />
		<tag k="ssr:stedsnr" v="576321" />
	</node>
	<node lat="63.562222221673046" lon="8.417727768047124" id="-35218">
		<tag k="fixme" v="consider seamark:type=rock or natural=shoal" />
		<tag k="name" v="Talerøyskjæra" />
		<tag k="place" v="islet" />
		<tag k="ssr:stedsnr" v="576100" />
	</node>
	<node lat="63.528536111034896" lon="8.326566667215568" id="-35223">
		<tag k="fixme" v="consider seamark:type=rock or natural=shoal" />
		<tag k="name" v="Kariskjæra" />
		<tag k="place" v="islet" />
		<tag k="ssr:stedsnr" v="576395" />
	</node>
	<node lat="63.65511944700654" lon="8.77949721868798" id="-35229">
		<tag k="name" v="Kjerringvågen" />
		<tag k="natural" v="bay" />
		<tag k="ssr:stedsnr" v="576899" />
	</node>
	<node lat="63.61927222437391" lon="8.523963884996274" id="-35230">
		<tag k="fixme" v="consider seamark:type=rock or natural=shoal" />
		<tag k="name" v="Sandskjæret" />
		<tag k="place" v="islet" />
		<tag k="ssr:stedsnr" v="576900" />
	</node>
	<node lat="63.62072222548215" lon="8.57460000481287" id="-35234">
		<tag k="name" v="St. Helena" />
		<tag k="place" v="islet" />
		<tag k="ssr:stedsnr" v="576913" />
	</node>
	<node lat="63.620702776965075" lon="8.570224993835753" id="-35235">
		<tag k="name" v="Vikaskaget" />
		<tag k="natural" v="cape" />
		<tag k="ssr:stedsnr" v="576914" />
	</node>
	<node lat="63.63011111017725" lon="8.61496388327467" id="-35237">
		<tag k="name" v="Klauvholmen" />
		<tag k="place" v="islet" />
		<tag k="ssr:stedsnr" v="576947" />
	</node>
	<node lat="63.583297221072044" lon="8.600152786384333" id="-35238">
		<tag k="fixme" v="consider seamark:type=rock or natural=shoal" />
		<tag k="name" v="Skarvskjæret" />
		<tag k="place" v="islet" />
		<tag k="ssr:stedsnr" v="576956" />
	</node>
	<node lat="63.655833334268074" lon="9.185022212571994" id="-35241">
		<tag k="name" v="Kråkøyflua" />
		<tag k="natural" v="shoal" />
		<tag k="place" v="locality" />
		<tag k="ssr:stedsnr" v="577001" />
	</node>
	<node lat="63.48268333610751" lon="8.792633332846743" id="-35255">
		<tag k="name" v="Nordstøa" />
		<tag k="natural" v="bay" />
		<tag k="ssr:stedsnr" v="577749" />
	</node>
	<node lat="63.4427388889205" lon="9.174924994970107" id="-35256">
		<tag k="alt_name" v="Nordre Fuglen" />
		<tag k="name" v="Nord-Fuglet" />
		<tag k="place" v="islet" />
		<tag k="ssr:stedsnr" v="578059" />
	</node>
	<node lat="63.53105833613235" lon="9.325861101897326" id="-35262">
		<tag k="name" v="Ørnvika" />
		<tag k="natural" v="bay" />
		<tag k="ssr:stedsnr" v="578496" />
	</node>
	<node lat="63.62203333614642" lon="8.622802784351723" id="-35266">
		<tag k="name" v="Auster Hesthagan" />
		<tag k="place" v="islet" />
		<tag k="ssr:stedsnr" v="698835" />
	</node>
	<node lat="63.59397221796023" lon="8.312475000086133" id="-35269">
		<tag k="name" v="Ytre Oddflua" />
		<tag k="natural" v="shoal" />
		<tag k="place" v="locality" />
		<tag k="ssr:stedsnr" v="582110" />
	</node>
	<node lat="63.60896389061879" lon="8.353833337031736" id="-35270">
		<tag k="fixme" v="consider seamark:type=rock or natural=shoal" />
		<tag k="name" v="Arasholmdraget" />
		<tag k="place" v="islet" />
		<tag k="ssr:stedsnr" v="582403" />
	</node>
	<node lat="63.61592500012214" lon="8.387861105801518" id="-35271">
		<tag k="bay" v="fjord" />
		<tag k="name" v="Storbukta" />
		<tag k="natural" v="bay" />
		<tag k="ssr:stedsnr" v="582404" />
	</node>
	<node lat="63.613991664092225" lon="8.397422229859536" id="-35272">
		<tag k="name" v="Humpan" />
		<tag k="place" v="islet" />
		<tag k="ssr:stedsnr" v="582463" />
	</node>
	<node lat="63.61048333217861" lon="8.404311121144115" id="-35273">
		<tag k="fixme" v="consider seamark:type=rock or natural=shoal" />
		<tag k="name" v="Ausa" />
		<tag k="place" v="islet" />
		<tag k="ssr:stedsnr" v="582465" />
	</node>
	<node lat="63.60254444472127" lon="8.436125006505868" id="-35274">
		<tag k="name" v="Brandsøydraget" />
		<tag k="place" v="islet" />
		<tag k="ssr:stedsnr" v="697023" />
	</node>
	<node lat="63.61189166624225" lon="8.436866661412429" id="-35275">
		<tag k="name" v="Nesaholmen" />
		<tag k="place" v="islet" />
		<tag k="ssr:stedsnr" v="697027" />
	</node>
	<node lat="63.61578888536167" lon="8.447316673273676" id="-35278">
		<tag k="name" v="Grønnvikholmen" />
		<tag k="place" v="islet" />
		<tag k="ssr:stedsnr" v="697047" />
	</node>
	<node lat="63.59812777504073" lon="8.387100008025845" id="-35279">
		<tag k="name" v="Ytter Ursværet" />
		<tag k="place" v="islet" />
		<tag k="ssr:stedsnr" v="697053" />
	</node>
	<node lat="63.59365278004745" lon="8.435044441602924" id="-35280">
		<tag k="name" v="Grunnsundet" />
		<tag k="natural" v="strait" />
		<tag k="ssr:stedsnr" v="697055" />
	</node>
	<node lat="63.591241670906356" lon="8.434555558318188" id="-35281">
		<tag k="name" v="Purkholmen" />
		<tag k="place" v="islet" />
		<tag k="ssr:stedsnr" v="697058" />
	</node>
	<node lat="63.64879722195338" lon="9.12660556047049" id="-35283">
		<tag k="name" v="Snellvikneset" />
		<tag k="natural" v="cape" />
		<tag k="ssr:stedsnr" v="697121" />
	</node>
	<node lat="63.57266944396692" lon="8.385469448949292" id="-35284">
		<tag k="name" v="Bærskaget" />
		<tag k="natural" v="cape" />
		<tag k="ssr:stedsnr" v="697099" />
	</node>
	<node lat="63.65248055945372" lon="9.146422231855997" id="-35285">
		<tag k="name" v="Djupvika" />
		<tag k="natural" v="bay" />
		<tag k="ssr:stedsnr" v="697141" />
	</node>
	<node lat="63.64622221842569" lon="9.185472226629537" id="-35286">
		<tag k="name" v="Litlgullholmen" />
		<tag k="place" v="islet" />
		<tag k="ssr:stedsnr" v="697266" />
	</node>
	<node lat="63.55330000295192" lon="8.459941668584113" id="-35287">
		<tag k="name" v="Holneset" />
		<tag k="natural" v="cape" />
		<tag k="ssr:stedsnr" v="697272" />
	</node>
	<node lat="63.63420555193065" lon="9.03053887963299" id="-35290">
		<tag k="name" v="Steinvikbukta" />
		<tag k="natural" v="bay" />
		<tag k="ssr:stedsnr" v="697235" />
	</node>
	<node lat="63.58245555460388" lon="9.002105549334802" id="-35292">
		<tag k="name" v="Kalklovvågen" />
		<tag k="natural" v="bay" />
		<tag k="ssr:stedsnr" v="697242" />
	</node>
	<node lat="63.66090277778059" lon="9.160580563490935" id="-35293">
		<tag k="fixme" v="consider seamark:type=rock or natural=shoal" />
		<tag k="name" v="Kråkøyskjæra" />
		<tag k="place" v="islet" />
		<tag k="ssr:stedsnr" v="697279" />
	</node>
	<node lat="63.64869722037449" lon="9.179163898245637" id="-35296">
		<tag k="name" v="Gammel-landtåa" />
		<tag k="natural" v="cape" />
		<tag k="ssr:stedsnr" v="697260" />
	</node>
	<node lat="63.46278888550285" lon="8.719672231191991" id="-35304">
		<tag k="name" v="Snekkflua" />
		<tag k="natural" v="shoal" />
		<tag k="place" v="locality" />
		<tag k="ssr:stedsnr" v="593705" />
	</node>
	<node lat="63.471161112167245" lon="8.753905550289216" id="-35305">
		<tag k="fixme" v="consider seamark:type=rock or natural=shoal" />
		<tag k="name" v="Langskjæra" />
		<tag k="place" v="islet" />
		<tag k="ssr:stedsnr" v="593706" />
	</node>
	<node lat="63.47458889067802" lon="8.3012888809627" id="-35308">
		<tag k="name" v="Hamnholmen" />
		<tag k="place" v="islet" />
		<tag k="ssr:stedsnr" v="697624" />
	</node>
	<node lat="63.512777778063004" lon="8.3010888814846" id="-35312">
		<tag k="name" v="Hakkbuskaget" />
		<tag k="natural" v="cape" />
		<tag k="ssr:stedsnr" v="697659" />
	</node>
	<node lat="63.611058333936754" lon="8.866697215478409" id="-35314">
		<tag k="name" v="Jørsholmen" />
		<tag k="place" v="islet" />
		<tag k="ssr:stedsnr" v="697798" />
	</node>
	<node lat="63.641530554086955" lon="8.994338889930273" id="-35317">
		<tag k="name" v="Notvollbukta" />
		<tag k="natural" v="bay" />
		<tag k="ssr:stedsnr" v="697863" />
	</node>
	<node lat="63.62327777786697" lon="8.887955552880843" id="-35323">
		<tag k="alt_name" v="Sandåsholman" />
		<tag k="name" v="Grasholmen" />
		<tag k="place" v="islet" />
		<tag k="ssr:stedsnr" v="697960" />
	</node>
	<node lat="63.63497527551782" lon="8.894192434229012" id="-35324">
		<tag k="name" v="Ostervågen" />
		<tag k="natural" v="bay" />
		<tag k="ssr:stedsnr" v="697963" />
	</node>
	<node lat="63.58352222151027" lon="8.370727785761357" id="-35330">
		<tag k="name" v="Valskaget" />
		<tag k="natural" v="cape" />
		<tag k="ssr:stedsnr" v="698058" />
	</node>
	<node lat="63.58076666441775" lon="8.448311108005871" id="-35331">
		<tag k="name" v="Lyngholmen" />
		<tag k="place" v="islet" />
		<tag k="ssr:stedsnr" v="698062" />
	</node>
	<node lat="63.581041665987804" lon="8.484819443275674" id="-35337">
		<tag k="name" v="Stranda" />
		<tag k="natural" v="beach" />
		<tag k="ssr:stedsnr" v="698145" />
	</node>
	<node lat="63.5863249960646" lon="8.511783331967862" id="-35338">
		<tag k="fixme" v="consider seamark:type=rock or natural=shoal" />
		<tag k="name" v="Aunskjæret" />
		<tag k="place" v="islet" />
		<tag k="ssr:stedsnr" v="698149" />
	</node>
	<node lat="63.577872221574395" lon="8.461091670660602" id="-35339">
		<tag k="fixme" v="consider seamark:type=rock or natural=shoal" />
		<tag k="name" v="Kleppfiskskjæret" />
		<tag k="place" v="islet" />
		<tag k="ssr:stedsnr" v="698160" />
	</node>
	<node lat="63.57368888703164" lon="8.464924990619068" id="-35340">
		<tag k="name" v="Viktorholmen" />
		<tag k="place" v="islet" />
		<tag k="ssr:stedsnr" v="698165" />
	</node>
	<node lat="63.57226944693861" lon="8.466933335381622" id="-35341">
		<tag k="name" v="Spelen" />
		<tag k="natural" v="cape" />
		<tag k="ssr:stedsnr" v="698168" />
	</node>
	<node lat="63.575966670651844" lon="9.206319453720534" id="-35348">
		<tag k="name" v="Berdalsbukta" />
		<tag k="natural" v="bay" />
		<tag k="ssr:stedsnr" v="698325" />
	</node>
	<node lat="63.572144448042266" lon="9.172630564854241" id="-35350">
		<tag k="name" v="Litlholmen" />
		<tag k="place" v="islet" />
		<tag k="ssr:stedsnr" v="698334" />
	</node>
	<node lat="63.54506389186178" lon="8.411658338627332" id="-35351">
		<tag k="name" v="Skjelvikosen" />
		<tag k="natural" v="bay" />
		<tag k="ssr:stedsnr" v="698094" />
	</node>
	<node lat="63.61727499627824" lon="8.455625000213608" id="-35352">
		<tag k="name" v="Aspadragsundet" />
		<tag k="natural" v="strait" />
		<tag k="ssr:stedsnr" v="698111" />
	</node>
	<node lat="63.666791664817126" lon="9.051736114592453" id="-35353">
		<tag k="name" v="Sjåholmen" />
		<tag k="place" v="islet" />
		<tag k="ssr:stedsnr" v="698112" />
	</node>
	<node lat="63.53172499840941" lon="8.383888886201795" id="-35354">
		<tag k="name" v="Berge" />
		<tag k="natural" v="cape" />
		<tag k="ssr:stedsnr" v="698389" />
	</node>
	<node lat="63.51640833465924" lon="8.362475009132933" id="-35356">
		<tag k="alt_name" v="Vågholmen" />
		<tag k="name" v="Vågaholmen" />
		<tag k="place" v="islet" />
		<tag k="ssr:stedsnr" v="698348" />
	</node>
	<node lat="63.553505552569085" lon="8.410255555596114" id="-35357">
		<tag k="name" v="Faksvågsvaet" />
		<tag k="natural" v="bay" />
		<tag k="ssr:stedsnr" v="698354" />
	</node>
	<node lat="63.51876110840639" lon="8.315577783561997" id="-35358">
		<tag k="name" v="Vassholmen" />
		<tag k="place" v="islet" />
		<tag k="ssr:stedsnr" v="698359" />
	</node>
	<node lat="63.58169444310096" lon="9.146472222236255" id="-35361">
		<tag k="name" v="Utsetaukan" />
		<tag k="natural" v="cape" />
		<tag k="ssr:stedsnr" v="698436" />
	</node>
	<node lat="63.64651667065079" lon="8.579680554887151" id="-35365">
		<tag k="name" v="Lyngværflua" />
		<tag k="natural" v="shoal" />
		<tag k="place" v="locality" />
		<tag k="ssr:stedsnr" v="698397" />
	</node>
	<node lat="63.55290833655753" lon="9.134202773875614" id="-35367">
		<tag k="name" v="Roparbukta" />
		<tag k="natural" v="bay" />
		<tag k="ssr:stedsnr" v="698450" />
	</node>
	<node lat="63.612744447988476" lon="8.549666672739718" id="-35370">
		<tag k="fixme" v="consider seamark:type=rock or natural=shoal" />
		<tag k="name" v="Tindskjæret" />
		<tag k="place" v="islet" />
		<tag k="ssr:stedsnr" v="698537" />
	</node>
	<node lat="63.617425000411735" lon="8.642786114861583" id="-35371">
		<tag k="name" v="Yttervalan" />
		<tag k="natural" v="strait" />
		<tag k="ssr:stedsnr" v="698554" />
	</node>
	<node lat="63.639283333652" lon="8.908294452715174" id="-35381">
		<tag k="name" v="Skjåvågen" />
		<tag k="natural" v="bay" />
		<tag k="ssr:stedsnr" v="698739" />
	</node>
	<node lat="63.652997225581395" lon="8.969572230971998" id="-35385">
		<tag k="name" v="Solskjelvågen" />
		<tag k="natural" v="bay" />
		<tag k="ssr:stedsnr" v="698754" />
	</node>
	<node lat="63.61681110949418" lon="8.567297221652323" id="-35391">
		<tag k="name" v="Valaholmen" />
		<tag k="place" v="islet" />
		<tag k="ssr:stedsnr" v="698894" />
	</node>
	<node lat="63.576350003859126" lon="8.607691660616537" id="-35392">
		<tag k="name" v="Aunvågen" />
		<tag k="natural" v="bay" />
		<tag k="ssr:stedsnr" v="698980" />
	</node>
	<node lat="63.577844442184286" lon="8.637077774863679" id="-35398">
		<tag k="name" v="Asmundvågen" />
		<tag k="natural" v="bay" />
		<tag k="ssr:stedsnr" v="698991" />
	</node>
	<node lat="63.50404166581054" lon="9.273186116290903" id="-35399">
		<tag k="name" v="Håmmållvika" />
		<tag k="natural" v="bay" />
		<tag k="ssr:stedsnr" v="699187" />
	</node>
	<node lat="63.656249997921016" lon="8.63029166634919" id="-35402">
		<tag k="name" v="Snåsøyflua" />
		<tag k="natural" v="shoal" />
		<tag k="place" v="locality" />
		<tag k="ssr:stedsnr" v="699729" />
	</node>
	<node lat="63.643902776089725" lon="8.644988880928148" id="-35403">
		<tag k="name" v="Brattholmen" />
		<tag k="place" v="islet" />
		<tag k="ssr:stedsnr" v="699739" />
	</node>
	<node lat="63.63000000382472" lon="8.992452767785997" id="-35404">
		<tag k="name" v="Gåsvollflua" />
		<tag k="natural" v="shoal" />
		<tag k="place" v="locality" />
		<tag k="ssr:stedsnr" v="699855" />
	</node>
	<node lat="63.67407500043132" lon="8.91734166048771" id="-35405">
		<tag k="name" v="Nordklakken" />
		<tag k="natural" v="shoal" />
		<tag k="place" v="locality" />
		<tag k="ssr:stedsnr" v="699856" />
	</node>
	<node lat="63.55858333484901" lon="9.395158330304453" id="-35406">
		<tag k="fixme" v="consider seamark:type=rock or natural=shoal" />
		<tag k="name" v="Ringskjæret" />
		<tag k="place" v="islet" />
		<tag k="ssr:stedsnr" v="700732" />
	</node>
	<node lat="63.484658330939794" lon="9.140994447477906" id="-35407">
		<tag k="name" v="Lauvneset" />
		<tag k="natural" v="cape" />
		<tag k="ssr:stedsnr" v="700053" />
	</node>
	<node lat="63.52728332900916" lon="9.293841658546274" id="-35415">
		<tag k="name" v="Kamvikneset" />
		<tag k="natural" v="cape" />
		<tag k="ssr:stedsnr" v="700543" />
	</node>
	<node lat="63.48979444763912" lon="9.138533323311767" id="-35418">
		<tag k="name" v="Hamnaholmen" />
		<tag k="place" v="islet" />
		<tag k="ssr:stedsnr" v="701207" />
	</node>
	<node lat="63.554099998466995" lon="9.381705548698996" id="-35419">
		<tag k="name" v="Postvika" />
		<tag k="natural" v="bay" />
		<tag k="ssr:stedsnr" v="701247" />
	</node>
	<node lat="63.461211113427346" lon="8.664219438942693" id="-35421">
		<tag k="fixme" v="consider seamark:type=rock or natural=shoal" />
		<tag k="name" v="Skarvskjæret" />
		<tag k="place" v="islet" />
		<tag k="ssr:stedsnr" v="619125" />
	</node>
	<node lat="63.46470277991602" lon="8.661008339722335" id="-35422">
		<tag k="name" v="Skjelvalen" />
		<tag k="natural" v="strait" />
		<tag k="ssr:stedsnr" v="619126" />
	</node>
	<node lat="63.63950555644663" lon="8.85888334200963" id="-35426">
		<tag k="name" v="Vikan" />
		<tag k="natural" v="cape" />
		<tag k="ssr:stedsnr" v="619295" />
	</node>
	<node lat="63.64600833091301" lon="9.000744437595989" id="-35429">
		<tag k="name" v="Krabbsundet" />
		<tag k="natural" v="strait" />
		<tag k="ssr:stedsnr" v="619315" />
	</node>
	<node lat="63.62346111177947" lon="8.86271667133426" id="-35432">
		<tag k="alt_name" v="Haranes" />
		<tag k="name" v="Haraneset" />
		<tag k="natural" v="cape" />
		<tag k="ssr:stedsnr" v="619330" />
	</node>
	<node lat="63.53933908118671" lon="9.205669417719964" id="-35434">
		<tag k="alt_name" v="Kvernskjæret" />
		<tag k="fixme" v="multiple name tags, choose one and add the other to alt_name; consider seamark:type=rock or natural=shoal" />
		<tag k="name" v="Kvernaskjæret;Storkvernskjæret" />
		<tag k="place" v="islet" />
		<tag k="ssr:stedsnr" v="619502" />
	</node>
	<node lat="63.53700277623509" lon="9.183186106233823" id="-35435">
		<tag k="name" v="Kråka" />
		<tag k="place" v="islet" />
		<tag k="ssr:stedsnr" v="619503" />
	</node>
	<node lat="63.55257499661604" lon="8.309686104547799" id="-35440">
		<tag k="fixme" v="consider seamark:type=rock or natural=shoal" />
		<tag k="name" v="Kråkflesskjæra" />
		<tag k="place" v="islet" />
		<tag k="ssr:stedsnr" v="619612" />
	</node>
	<node lat="63.544755556894515" lon="8.369991658108779" id="-35442">
		<tag k="name" v="Bukkholmen" />
		<tag k="place" v="islet" />
		<tag k="ssr:stedsnr" v="619575" />
	</node>
	<node lat="63.54131666464046" lon="8.357613897143393" id="-35443">
		<tag k="fixme" v="consider seamark:type=rock or natural=shoal" />
		<tag k="name" v="Bukkholmdraget" />
		<tag k="place" v="islet" />
		<tag k="ssr:stedsnr" v="619576" />
	</node>
	<node lat="63.544438887826146" lon="8.349255545845251" id="-35444">
		<tag k="name" v="Meholmen" />
		<tag k="place" v="islet" />
		<tag k="ssr:stedsnr" v="619577" />
	</node>
	<node lat="63.53703611115006" lon="8.34753333136456" id="-35445">
		<tag k="fixme" v="consider seamark:type=rock or natural=shoal" />
		<tag k="name" v="Kamshauet" />
		<tag k="place" v="islet" />
		<tag k="ssr:stedsnr" v="619585" />
	</node>
	<node lat="63.657966664430006" lon="9.172452784475508" id="-35452">
		<tag k="alt_name" v="Tinnskjæret" />
		<tag k="fixme" v="consider seamark:type=rock or natural=shoal" />
		<tag k="name" v="Tindskjæret" />
		<tag k="place" v="islet" />
		<tag k="ssr:stedsnr" v="620606" />
	</node>
	<node lat="63.64960833067303" lon="8.742141676012762" id="-35453">
		<tag k="name" v="Kalvøya" />
		<tag k="place" v="islet" />
		<tag k="ssr:stedsnr" v="620607" />
	</node>
	<node lat="63.65903889017253" lon="9.160683323407405" id="-35454">
		<tag k="name" v="Kråkøya" />
		<tag k="place" v="island" />
		<tag k="ssr:stedsnr" v="620608" />
	</node>
	<node lat="63.65415555416943" lon="9.026455551027025" id="-35456">
		<tag k="alt_name" v="Knektholmen" />
		<tag k="name" v="Knektøya" />
		<tag k="place" v="islet" />
		<tag k="ssr:stedsnr" v="620618" />
	</node>
	<node lat="63.58808888711839" lon="8.41052222237292" id="-35457">
		<tag k="name" v="Bispøyan" />
		<tag k="place" v="island" />
		<tag k="ssr:stedsnr" v="620867" />
	</node>
	<node lat="63.621622219006916" lon="8.50718054680899" id="-35458">
		<tag k="fixme" v="consider seamark:type=rock or natural=shoal" />
		<tag k="name" v="Sandskjæra" />
		<tag k="place" v="islet" />
		<tag k="ssr:stedsnr" v="620912" />
	</node>
	<node lat="63.48119722063403" lon="8.235588890062518" id="-35459">
		<tag k="name" v="Hyttfalla" />
		<tag k="natural" v="shoal" />
		<tag k="place" v="locality" />
		<tag k="ssr:stedsnr" v="703201" />
	</node>
	<node lat="63.6090078258075" lon="8.436519982898453" id="-35460">
		<tag k="fixme" v="consider seamark:type=rock or natural=shoal" />
		<tag k="name" v="Spiran" />
		<tag k="place" v="islet" />
		<tag k="ssr:stedsnr" v="703298" />
	</node>
	<node lat="63.568558330798375" lon="8.371663880225203" id="-35468">
		<tag k="fixme" v="consider seamark:type=rock or natural=shoal" />
		<tag k="name" v="Singsskjæret" />
		<tag k="place" v="islet" />
		<tag k="ssr:stedsnr" v="636096" />
	</node>
	<node lat="63.54218611140184" lon="8.386961118848381" id="-35473">
		<tag k="name" v="Greipholmen" />
		<tag k="place" v="islet" />
		<tag k="ssr:stedsnr" v="636131" />
	</node>
	<node lat="63.50572222118109" lon="8.290988879878823" id="-35481">
		<tag k="name" v="Rørøykalven" />
		<tag k="place" v="islet" />
		<tag k="ssr:stedsnr" v="636693" />
	</node>
	<node lat="63.6217194472535" lon="8.60513611954893" id="-35484">
		<tag k="name" v="Storkjerkholmen" />
		<tag k="place" v="islet" />
		<tag k="ssr:stedsnr" v="636909" />
	</node>
	<node lat="63.5999222266321" lon="9.076027768431066" id="-35485">
		<tag k="name" v="Ulvåg" />
		<tag k="natural" v="bay" />
		<tag k="ssr:stedsnr" v="637030" />
	</node>
	<node lat="63.58011388765492" lon="8.380436107960714" id="-35486">
		<tag k="name" v="Eikvågen" />
		<tag k="natural" v="bay" />
		<tag k="ssr:stedsnr" v="637083" />
	</node>
	<node lat="63.57145833132177" lon="8.401230555086135" id="-35487">
		<tag k="name" v="Skreddarvika" />
		<tag k="natural" v="bay" />
		<tag k="ssr:stedsnr" v="637088" />
	</node>
	<node lat="63.63249444287566" lon="8.851908329689739" id="-35489">
		<tag k="name" v="Småstrauman" />
		<tag k="natural" v="strait" />
		<tag k="ssr:stedsnr" v="636978" />
	</node>
	<node lat="63.57546666651546" lon="8.409849993031258" id="-35490">
		<tag k="name" v="Halvtynnvikskaget" />
		<tag k="natural" v="cape" />
		<tag k="ssr:stedsnr" v="637114" />
	</node>
	<node lat="63.5861055543979" lon="8.481111119905586" id="-35492">
		<tag k="name" v="Båtøysundet" />
		<tag k="natural" v="strait" />
		<tag k="ssr:stedsnr" v="637189" />
	</node>
	<node lat="63.427686109987114" lon="8.510844453033343" id="-35497">
		<tag k="name" v="Grøtvika" />
		<tag k="natural" v="bay" />
		<tag k="ssr:stedsnr" v="637501" />
	</node>
	<node lat="63.428058330834595" lon="8.4109833254228" id="-35500">
		<tag k="name" v="Gullsvikvågen" />
		<tag k="natural" v="bay" />
		<tag k="ssr:stedsnr" v="637515" />
	</node>
	<node lat="63.644277779785895" lon="9.225574993528756" id="-35505">
		<tag k="alt_name" v="Flessa" />
		<tag k="name" v="Flesa" />
		<tag k="place" v="islet" />
		<tag k="ssr:stedsnr" v="638018" />
	</node>
	<node lat="63.60847777958546" lon="8.865511121090552" id="-35511">
		<tag k="name" v="Mjøsundet" />
		<tag k="natural" v="strait" />
		<tag k="ssr:stedsnr" v="637995" />
	</node>
	<node lat="63.56193332954943" lon="8.528519439903913" id="-35512">
		<tag k="name" v="Maliholet" />
		<tag k="natural" v="bay" />
		<tag k="ssr:stedsnr" v="637999" />
	</node>
	<node lat="63.626755552866" lon="8.550552783467902" id="-35515">
		<tag k="name" v="Hjortholmflua" />
		<tag k="natural" v="shoal" />
		<tag k="place" v="locality" />
		<tag k="ssr:stedsnr" v="638303" />
	</node>
	<node lat="63.55168888701511" lon="9.428550003041904" id="-35516">
		<tag k="name" v="Åsøysundet" />
		<tag k="natural" v="strait" />
		<tag k="ssr:stedsnr" v="639088" />
	</node>
	<node lat="63.46403610798401" lon="9.332913879578934" id="-35519">
		<tag k="name" v="Langnesbukta" />
		<tag k="natural" v="bay" />
		<tag k="ssr:stedsnr" v="639610" />
	</node>
	<node lat="63.61208611012307" lon="8.371708338631722" id="-35521">
		<tag k="bay" v="fjord" />
		<tag k="name" v="Værsbugen" />
		<tag k="natural" v="bay" />
		<tag k="ssr:stedsnr" v="642381" />
	</node>
	<node lat="63.618519441273484" lon="8.38810834316139" id="-35522">
		<tag k="fixme" v="consider seamark:type=rock or natural=shoal" />
		<tag k="name" v="Seiballen" />
		<tag k="place" v="islet" />
		<tag k="ssr:stedsnr" v="643475" />
	</node>
	<node lat="63.46351944397146" lon="9.125180553059" id="-35523">
		<tag k="name" v="Synnsvikflua" />
		<tag k="natural" v="shoal" />
		<tag k="place" v="locality" />
		<tag k="ssr:stedsnr" v="652644" />
	</node>
	<node lat="63.50814444393328" lon="9.04370000594785" id="-35524">
		<tag k="name" v="Krogstøtta" />
		<tag k="natural" v="shoal" />
		<tag k="place" v="locality" />
		<tag k="ssr:stedsnr" v="652901" />
	</node>
	<node lat="63.51719444704338" lon="8.369797223094796" id="-35525">
		<tag k="name" v="Storvågen" />
		<tag k="natural" v="bay" />
		<tag k="ssr:stedsnr" v="653011" />
	</node>
	<node lat="63.495466666626136" lon="8.96437223209457" id="-35526">
		<tag k="fixme" v="consider seamark:type=rock or natural=shoal" />
		<tag k="name" v="Hamnaskjæret" />
		<tag k="place" v="islet" />
		<tag k="ssr:stedsnr" v="652907" />
	</node>
	<node lat="63.48392500404201" lon="8.293330559100315" id="-35530">
		<tag k="name" v="Risøysundet" />
		<tag k="natural" v="strait" />
		<tag k="ssr:stedsnr" v="679089" />
	</node>
	<node lat="63.47530833742911" lon="8.256375002751357" id="-35531">
		<tag k="fixme" v="consider seamark:type=rock or natural=shoal" />
		<tag k="name" v="Sandflesa" />
		<tag k="place" v="islet" />
		<tag k="ssr:stedsnr" v="679092" />
	</node>
	<node lat="63.4679555595705" lon="8.249080550256192" id="-35533">
		<tag k="fixme" v="consider seamark:type=rock or natural=shoal" />
		<tag k="name" v="Kråka" />
		<tag k="place" v="islet" />
		<tag k="ssr:stedsnr" v="680094" />
	</node>
	<node lat="63.60285000445378" lon="9.04602223133389" id="-35534">
		<tag k="name" v="Tuva" />
		<tag k="natural" v="cape" />
		<tag k="ssr:stedsnr" v="680403" />
	</node>
	<node lat="63.57384722511377" lon="9.173150001414472" id="-35536">
		<tag k="name" v="Purkholmen" />
		<tag k="place" v="islet" />
		<tag k="ssr:stedsnr" v="680418" />
	</node>
	<node lat="63.54995555781814" lon="8.432961105328573" id="-35540">
		<tag k="alt_name" v="Geitholman" />
		<tag k="name" v="Geitholmen" />
		<tag k="place" v="islet" />
		<tag k="ssr:stedsnr" v="680635" />
	</node>
	<node lat="63.67351666346876" lon="9.06996388573025" id="-35541">
		<tag k="name" v="Ulvøya" />
		<tag k="place" v="island" />
		<tag k="ssr:stedsnr" v="680717" />
	</node>
	<node lat="63.66018610776687" lon="8.83038055470099" id="-35542">
		<tag k="name" v="Bjørnaneset" />
		<tag k="natural" v="cape" />
		<tag k="ssr:stedsnr" v="680728" />
	</node>
	<node lat="63.61952222055014" lon="9.015833336618671" id="-35543">
		<tag k="alt_name" v="Korsneset" />
		<tag k="name" v="Korsnes" />
		<tag k="natural" v="cape" />
		<tag k="ssr:stedsnr" v="681306" />
	</node>
	<node lat="63.508311115327594" lon="8.291666674661602" id="-35545">
		<tag k="name" v="Joholmen" />
		<tag k="place" v="islet" />
		<tag k="ssr:stedsnr" v="681516" />
	</node>
	<node lat="63.51902777348553" lon="8.270175002933698" id="-35546">
		<tag k="name" v="Sauøyan" />
		<tag k="place" v="islet" />
		<tag k="ssr:stedsnr" v="681522" />
	</node>
	<node lat="63.6851333363216" lon="9.077594437467218" id="-35548">
		<tag k="name" v="Reiarholmen" />
		<tag k="place" v="islet" />
		<tag k="ssr:stedsnr" v="681665" />
	</node>
	<node lat="63.67690000030297" lon="9.140855560291259" id="-35549">
		<tag k="fixme" v="consider seamark:type=rock or natural=shoal" />
		<tag k="name" v="Svartskjæret" />
		<tag k="place" v="islet" />
		<tag k="ssr:stedsnr" v="681674" />
	</node>
	<node lat="63.61670833151859" lon="8.378141662745312" id="-35550">
		<tag k="name" v="Værsøydraga" />
		<tag k="place" v="islet" />
		<tag k="ssr:stedsnr" v="681921" />
	</node>
	<node lat="63.55468332903887" lon="9.239408339682418" id="-35552">
		<tag k="name" v="Storataren" />
		<tag k="natural" v="shoal" />
		<tag k="place" v="locality" />
		<tag k="ssr:stedsnr" v="894863" />
	</node>
	<node lat="63.58906389278237" lon="8.556711110829232" id="-35553">
		<tag k="name" v="Hestnessundet" />
		<tag k="natural" v="strait" />
		<tag k="ssr:stedsnr" v="694724" />
	</node>
	<node lat="63.66284444643938" lon="9.154716657729663" id="-35555">
		<tag k="name" v="Nypa" />
		<tag k="place" v="island" />
		<tag k="ssr:stedsnr" v="697006" />
	</node>
	<node lat="63.66153888738782" lon="9.044947230622531" id="-35558">
		<tag k="fixme" v="consider seamark:type=rock or natural=shoal" />
		<tag k="name" v="Skarvhammarskjæret" />
		<tag k="place" v="islet" />
		<tag k="ssr:stedsnr" v="697087" />
	</node>
	<node lat="63.43463055141684" lon="8.555605546910568" id="-35559">
		<tag k="fixme" v="consider seamark:type=rock or natural=shoal" />
		<tag k="name" v="Dalaskjæret" />
		<tag k="place" v="islet" />
		<tag k="ssr:stedsnr" v="697264" />
	</node>
	<node lat="63.63662499746208" lon="8.739861110926336" id="-35560">
		<tag k="alt_name" v="Larsøya" />
		<tag k="name" v="Litllarsøya" />
		<tag k="place" v="island" />
		<tag k="ssr:stedsnr" v="697603" />
	</node>
	<node lat="63.502349997517435" lon="8.30989721454111" id="-35561">
		<tag k="name" v="Svaholman" />
		<tag k="place" v="islet" />
		<tag k="ssr:stedsnr" v="697669" />
	</node>
	<node lat="63.63459444628814" lon="8.652905563574041" id="-35562">
		<tag k="name" v="Jelholmen" />
		<tag k="place" v="islet" />
		<tag k="ssr:stedsnr" v="697505" />
	</node>
	<node lat="63.557527775202" lon="8.569138897168791" id="-35564">
		<tag k="name" v="Korsvikern" />
		<tag k="natural" v="bay" />
		<tag k="ssr:stedsnr" v="697714" />
	</node>
	<node lat="63.55783055487536" lon="8.491722216756797" id="-35569">
		<tag k="name" v="Bergaholmen" />
		<tag k="place" v="islet" />
		<tag k="ssr:stedsnr" v="698007" />
	</node>
	<node lat="63.675311110245" lon="9.169283333954358" id="-35570">
		<tag k="name" v="Tindskjærflua" />
		<tag k="natural" v="shoal" />
		<tag k="place" v="locality" />
		<tag k="ssr:stedsnr" v="698011" />
	</node>
	<node lat="63.65099722283161" lon="8.720861118937057" id="-35574">
		<tag k="name" v="Brannskagbukta" />
		<tag k="natural" v="bay" />
		<tag k="ssr:stedsnr" v="697916" />
	</node>
	<node lat="63.63799444690442" lon="8.782347214102963" id="-35575">
		<tag k="name" v="Vettastraumen" />
		<tag k="natural" v="strait" />
		<tag k="ssr:stedsnr" v="697969" />
	</node>
	<node lat="63.644061110983905" lon="8.859402785461077" id="-35576">
		<tag k="name" v="Balavågtåa" />
		<tag k="natural" v="cape" />
		<tag k="ssr:stedsnr" v="697971" />
	</node>
	<node lat="63.67778055258724" lon="9.033988894528635" id="-35579">
		<tag k="alt_name" v="Svalbardskjæra" />
		<tag k="fixme" v="consider seamark:type=rock or natural=shoal" />
		<tag k="name" v="Svalbakkskjæret" />
		<tag k="place" v="islet" />
		<tag k="ssr:stedsnr" v="698120" />
	</node>
	<node lat="63.47700833352755" lon="8.858761111065322" id="-35592">
		<tag k="name" v="Kalvhaugterna" />
		<tag k="place" v="islet" />
		<tag k="ssr:stedsnr" v="698304" />
	</node>
	<node lat="63.43369722096812" lon="8.383244450396953" id="-35593">
		<tag k="name" v="Skjelvalen" />
		<tag k="natural" v="bay" />
		<tag k="ssr:stedsnr" v="698310" />
	</node>
	<node lat="63.57708611516971" lon="9.179572218975835" id="-35594">
		<tag k="fixme" v="consider seamark:type=rock or natural=shoal" />
		<tag k="name" v="Kvalen" />
		<tag k="place" v="islet" />
		<tag k="ssr:stedsnr" v="698315" />
	</node>
	<node lat="63.52942222554363" lon="8.291591670552586" id="-35596">
		<tag k="fixme" v="consider seamark:type=rock or natural=shoal" />
		<tag k="name" v="Litlgråbaken" />
		<tag k="place" v="islet" />
		<tag k="ssr:stedsnr" v="698365" />
	</node>
	<node lat="63.51596944337788" lon="9.077205559891327" id="-35601">
		<tag k="name" v="Kallarnesbukta" />
		<tag k="natural" v="bay" />
		<tag k="ssr:stedsnr" v="698379" />
	</node>
	<node lat="63.51764444238518" lon="9.085341665664316" id="-35603">
		<tag k="fixme" v="consider seamark:type=rock or natural=shoal" />
		<tag k="name" v="Hatlanskjæret" />
		<tag k="place" v="islet" />
		<tag k="ssr:stedsnr" v="698384" />
	</node>
	<node lat="63.55173888500594" lon="9.19580834033781" id="-35604">
		<tag k="name" v="Hamna" />
		<tag k="natural" v="bay" />
		<tag k="ssr:stedsnr" v="698465" />
	</node>
	<node lat="63.426227775744124" lon="8.451336109486691" id="-35605">
		<tag k="name" v="Smalsvikbukta" />
		<tag k="natural" v="bay" />
		<tag k="ssr:stedsnr" v="698466" />
	</node>
	<node lat="63.47475833357269" lon="8.732297232201468" id="-35607">
		<tag k="name" v="Haukvikhammaren" />
		<tag k="natural" v="cape" />
		<tag k="ssr:stedsnr" v="698629" />
	</node>
	<node lat="63.61991388560204" lon="8.596030559301806" id="-35618">
		<tag k="name" v="Testholmen" />
		<tag k="place" v="islet" />
		<tag k="ssr:stedsnr" v="698904" />
	</node>
	<node lat="63.617608335239744" lon="8.601900001738255" id="-35619">
		<tag k="name" v="Arvholmen" />
		<tag k="place" v="islet" />
		<tag k="ssr:stedsnr" v="698905" />
	</node>
	<node lat="63.64702500329267" lon="8.716030552284224" id="-35622">
		<tag k="name" v="Storslettvika" />
		<tag k="natural" v="bay" />
		<tag k="ssr:stedsnr" v="698917" />
	</node>
	<node lat="63.62214721841632" lon="8.520466657450905" id="-35624">
		<tag k="fixme" v="consider seamark:type=rock or natural=shoal" />
		<tag k="name" v="Storkråka" />
		<tag k="place" v="islet" />
		<tag k="ssr:stedsnr" v="698871" />
	</node>
	<node lat="63.62130277531976" lon="8.529780549811885" id="-35625">
		<tag k="fixme" v="consider seamark:type=rock or natural=shoal" />
		<tag k="name" v="Rukkelskjæret" />
		<tag k="place" v="islet" />
		<tag k="ssr:stedsnr" v="698872" />
	</node>
	<node lat="63.65884722654641" lon="9.1793861121225" id="-35626">
		<tag k="name" v="Perflua" />
		<tag k="natural" v="shoal" />
		<tag k="place" v="locality" />
		<tag k="ssr:stedsnr" v="699006" />
	</node>
	<node lat="63.61758610798138" lon="8.59143611994377" id="-35627">
		<tag k="name" v="Kuholmen" />
		<tag k="place" v="islet" />
		<tag k="ssr:stedsnr" v="698964" />
	</node>
	<node lat="63.58729999719569" lon="9.150063884125757" id="-35630">
		<tag k="fixme" v="consider seamark:type=rock or natural=shoal" />
		<tag k="name" v="Matlaupen" />
		<tag k="place" v="islet" />
		<tag k="ssr:stedsnr" v="895744" />
	</node>
	<node lat="63.445666671104085" lon="9.13912499086603" id="-35631">
		<tag k="name" v="Grønvika" />
		<tag k="natural" v="bay" />
		<tag k="ssr:stedsnr" v="700073" />
	</node>
	<node lat="63.55191389077272" lon="9.41958334232672" id="-35632">
		<tag k="name" v="Flatholmsundet" />
		<tag k="natural" v="strait" />
		<tag k="ssr:stedsnr" v="700078" />
	</node>
	<node lat="63.53091666300254" lon="9.398822214723605" id="-35638">
		<tag k="name" v="Svaet" />
		<tag k="natural" v="shoal" />
		<tag k="place" v="locality" />
		<tag k="ssr:stedsnr" v="700712" />
	</node>
	<node lat="63.45146389124261" lon="9.283219436950896" id="-35640">
		<tag k="name" v="Sjåneset" />
		<tag k="natural" v="cape" />
		<tag k="ssr:stedsnr" v="701264" />
	</node>
	<node lat="63.58661666268071" lon="8.283719446779648" id="-35641">
		<tag k="name" v="Seiskallen" />
		<tag k="natural" v="shoal" />
		<tag k="place" v="locality" />
		<tag k="ssr:stedsnr" v="703106" />
	</node>
	<node lat="63.59265000203955" lon="8.326752775238424" id="-35643">
		<tag k="name" v="Storbåan" />
		<tag k="natural" v="shoal" />
		<tag k="place" v="locality" />
		<tag k="ssr:stedsnr" v="703431" />
	</node>
	<node lat="63.441255553892645" lon="8.337466671086043" id="-35644">
		<tag k="name" v="Litle Arøya" />
		<tag k="place" v="island" />
		<tag k="ssr:stedsnr" v="704311" />
	</node>
	<node lat="63.60953888490268" lon="8.341941662748633" id="-35645">
		<tag k="fixme" v="consider seamark:type=rock or natural=shoal" />
		<tag k="name" v="Litlballen" />
		<tag k="place" v="islet" />
		<tag k="ssr:stedsnr" v="704364" />
	</node>
	<node lat="63.61788888842243" lon="8.387758328175767" id="-35646">
		<tag k="name" v="Seisundet" />
		<tag k="natural" v="strait" />
		<tag k="ssr:stedsnr" v="704367" />
	</node>
	<node lat="63.429741669972984" lon="8.373761114819379" id="-35647">
		<tag k="name" v="Daumannen" />
		<tag k="place" v="locality" />
		<tag k="seamark:type" v="rock" />
		<tag k="ssr:stedsnr" v="897479" />
	</node>
	<node lat="63.44360277986467" lon="8.322352785771033" id="-35651">
		<tag k="name" v="Lya" />
		<tag k="place" v="island" />
		<tag k="ssr:stedsnr" v="740023" />
	</node>
	<node lat="63.44867222460743" lon="8.257569449424224" id="-35652">
		<tag k="fixme" v="consider seamark:type=rock or natural=shoal" />
		<tag k="name" v="Indre Nautskjæret" />
		<tag k="place" v="islet" />
		<tag k="ssr:stedsnr" v="740106" />
	</node>
	<node lat="63.489777778792636" lon="9.119083340982426" id="-35659">
		<tag k="name" v="Hemnskjela" />
		<tag k="place" v="island" />
		<tag k="ssr:stedsnr" v="740441" />
	</node>
	<node lat="63.49858610795083" lon="8.253819453138288" id="-35663">
		<tag k="name" v="Sæbuvågen" />
		<tag k="natural" v="bay" />
		<tag k="ssr:stedsnr" v="740892" />
	</node>
	<node lat="63.499241665774235" lon="8.266136114130715" id="-35664">
		<tag k="name" v="Sæbuskaget" />
		<tag k="natural" v="cape" />
		<tag k="ssr:stedsnr" v="740896" />
	</node>
	<node lat="63.52779722612662" lon="8.267013886409488" id="-35680">
		<tag k="name" v="Hallarflesa" />
		<tag k="place" v="islet" />
		<tag k="ssr:stedsnr" v="741602" />
	</node>
	<node lat="63.657763892332994" lon="9.05108056292004" id="-35681">
		<tag k="name" v="Sildvågen" />
		<tag k="natural" v="bay" />
		<tag k="ssr:stedsnr" v="741703" />
	</node>
	<node lat="63.53113610864572" lon="8.349036118847872" id="-35683">
		<tag k="name" v="Skarvholmen" />
		<tag k="place" v="islet" />
		<tag k="ssr:stedsnr" v="741641" />
	</node>
	<node lat="63.57327222222094" lon="8.461375009947865" id="-35685">
		<tag k="name" v="Lamøya" />
		<tag k="place" v="islet" />
		<tag k="ssr:stedsnr" v="741689" />
	</node>
	<node lat="63.57352778102209" lon="8.50714722817375" id="-35686">
		<tag k="name" v="Mikkelsvikholman" />
		<tag k="place" v="islet" />
		<tag k="ssr:stedsnr" v="741691" />
	</node>
	<node lat="63.681461109986756" lon="9.11932778267152" id="-35689">
		<tag k="fixme" v="consider seamark:type=rock or natural=shoal" />
		<tag k="name" v="Hjelmskjæret" />
		<tag k="place" v="islet" />
		<tag k="ssr:stedsnr" v="741733" />
	</node>
	<node lat="63.5945444466418" lon="8.493319435029626" id="-35691">
		<tag k="name" v="Feøya" />
		<tag k="place" v="islet" />
		<tag k="ssr:stedsnr" v="741933" />
	</node>
	<node lat="63.63005555521111" lon="9.126802770494784" id="-35696">
		<tag k="name" v="Verkingsneset" />
		<tag k="natural" v="cape" />
		<tag k="ssr:stedsnr" v="758008" />
	</node>
	<node lat="63.63496110874385" lon="9.157961112971773" id="-35697">
		<tag k="name" v="Kartholmsvika" />
		<tag k="natural" v="bay" />
		<tag k="ssr:stedsnr" v="758011" />
	</node>
	<node lat="63.58886111253665" lon="8.40754166816358" id="-35699">
		<tag k="name" v="Årnvikvågen" />
		<tag k="natural" v="bay" />
		<tag k="ssr:stedsnr" v="758057" />
	</node>
	<node lat="63.58278610927638" lon="8.979175002813006" id="-35704">
		<tag k="name" v="Gullbrandneset" />
		<tag k="natural" v="cape" />
		<tag k="ssr:stedsnr" v="758263" />
	</node>
	<node lat="63.470122225385296" lon="8.317988896997543" id="-35706">
		<tag k="name" v="Karrvikbukta" />
		<tag k="natural" v="bay" />
		<tag k="ssr:stedsnr" v="758415" />
	</node>
	<node lat="63.515330556653495" lon="8.280972222711117" id="-35708">
		<tag k="name" v="Skattanevet" />
		<tag k="natural" v="cape" />
		<tag k="ssr:stedsnr" v="758446" />
	</node>
	<node lat="63.58070555384582" lon="8.5723277688075" id="-35709">
		<tag k="name" v="Ostervågan" />
		<tag k="natural" v="bay" />
		<tag k="ssr:stedsnr" v="758149" />
	</node>
	<node lat="63.673980557830724" lon="9.035136114208015" id="-35711">
		<tag k="name" v="Hjellskjærholmen" />
		<tag k="place" v="islet" />
		<tag k="ssr:stedsnr" v="758153" />
	</node>
	<node lat="63.428927780646035" lon="8.495224995219216" id="-35712">
		<tag k="name" v="Kvernavika" />
		<tag k="natural" v="bay" />
		<tag k="ssr:stedsnr" v="758308" />
	</node>
	<node lat="63.623458331476286" lon="8.687244436604034" id="-35717">
		<tag k="name" v="Sveaholmen" />
		<tag k="place" v="islet" />
		<tag k="ssr:stedsnr" v="758550" />
	</node>
	<node lat="63.63558610744714" lon="8.664494435816" id="-35719">
		<tag k="fixme" v="consider seamark:type=rock or natural=shoal" />
		<tag k="name" v="Strykskjæret" />
		<tag k="place" v="islet" />
		<tag k="ssr:stedsnr" v="758557" />
	</node>
	<node lat="63.63768610881441" lon="8.654669454079976" id="-35720">
		<tag k="name" v="Purkholmen" />
		<tag k="place" v="islet" />
		<tag k="ssr:stedsnr" v="758558" />
	</node>
	<node lat="63.564080555694815" lon="8.718419451059946" id="-35723">
		<tag k="name" v="Jektvikholmen" />
		<tag k="place" v="islet" />
		<tag k="ssr:stedsnr" v="758763" />
	</node>
	<node lat="63.614122217837526" lon="8.643602782111161" id="-35724">
		<tag k="name" v="Innervalan" />
		<tag k="natural" v="bay" />
		<tag k="ssr:stedsnr" v="758612" />
	</node>
	<node lat="63.631066664978555" lon="8.730874994587445" id="-35726">
		<tag k="name" v="Hopsjøholmen" />
		<tag k="place" v="islet" />
		<tag k="ssr:stedsnr" v="758622" />
	</node>
	<node lat="63.51357221993609" lon="8.281602784321699" id="-35727">
		<tag k="name" v="Notholmen" />
		<tag k="place" v="islet" />
		<tag k="ssr:stedsnr" v="758700" />
	</node>
	<node lat="63.488775002045045" lon="8.267586106841135" id="-35728">
		<tag k="name" v="Skarvtangan" />
		<tag k="place" v="islet" />
		<tag k="ssr:stedsnr" v="758701" />
	</node>
	<node lat="63.63289999723187" lon="8.748347222867057" id="-35731">
		<tag k="name" v="Kvernhusvågen" />
		<tag k="natural" v="bay" />
		<tag k="ssr:stedsnr" v="758650" />
	</node>
	<node lat="63.610652782148655" lon="8.987455559619043" id="-35738">
		<tag k="name" v="Kjerringkjeften" />
		<tag k="natural" v="bay" />
		<tag k="ssr:stedsnr" v="758827" />
	</node>
	<node lat="63.61906666454582" lon="8.840216676126255" id="-35742">
		<tag k="name" v="Bøstingvågen" />
		<tag k="natural" v="bay" />
		<tag k="ssr:stedsnr" v="758801" />
	</node>
	<node lat="63.65415833487577" lon="8.766180565562827" id="-35743">
		<tag k="name" v="Åbøyan" />
		<tag k="place" v="island" />
		<tag k="ssr:stedsnr" v="758903" />
	</node>
	<node lat="63.65830832996682" lon="8.739422217403138" id="-35744">
		<tag k="fixme" v="consider seamark:type=rock or natural=shoal" />
		<tag k="name" v="Tosteinskjæra" />
		<tag k="place" v="islet" />
		<tag k="ssr:stedsnr" v="758905" />
	</node>
	<node lat="63.64053332924942" lon="9.191222223517425" id="-35748">
		<tag k="name" v="Ulvvågflua" />
		<tag k="natural" v="shoal" />
		<tag k="place" v="locality" />
		<tag k="ssr:stedsnr" v="759116" />
	</node>
	<node lat="63.574022218418335" lon="9.185225009605102" id="-35749">
		<tag k="name" v="Kjerringreva" />
		<tag k="natural" v="cape" />
		<tag k="ssr:stedsnr" v="759315" />
	</node>
	<node lat="63.51960000238805" lon="9.109019444316191" id="-35750">
		<tag k="name" v="Gullskiten" />
		<tag k="place" v="islet" />
		<tag k="ssr:stedsnr" v="759349" />
	</node>
	<node lat="63.5484249990634" lon="9.170430553395015" id="-35753">
		<tag k="name" v="Langneset" />
		<tag k="natural" v="cape" />
		<tag k="ssr:stedsnr" v="759413" />
	</node>
	<node lat="63.5481444457586" lon="9.19381667289234" id="-35755">
		<tag k="name" v="Langstranda" />
		<tag k="natural" v="beach" />
		<tag k="ssr:stedsnr" v="759418" />
	</node>
	<node lat="63.4788499967263" lon="8.803172226529275" id="-35757">
		<tag k="fixme" v="consider seamark:type=rock or natural=shoal" />
		<tag k="name" v="Moddskjæret" />
		<tag k="place" v="islet" />
		<tag k="ssr:stedsnr" v="759711" />
	</node>
	<node lat="63.48195277538953" lon="8.790455548990568" id="-35758">
		<tag k="name" v="Hundskaget" />
		<tag k="natural" v="cape" />
		<tag k="ssr:stedsnr" v="759716" />
	</node>
	<node lat="63.66942499741019" lon="8.8038972312331" id="-35759">
		<tag k="name" v="Ljøsbotnen" />
		<tag k="natural" v="shoal" />
		<tag k="place" v="locality" />
		<tag k="ssr:stedsnr" v="759748" />
	</node>
	<node lat="63.62428055347762" lon="8.986463892263673" id="-35761">
		<tag k="name" v="Risvikflua" />
		<tag k="natural" v="shoal" />
		<tag k="place" v="locality" />
		<tag k="ssr:stedsnr" v="759855" />
	</node>
	<node lat="63.52454722109451" lon="9.246874990561302" id="-35762">
		<tag k="name" v="Skottet" />
		<tag k="natural" v="shoal" />
		<tag k="place" v="locality" />
		<tag k="ssr:stedsnr" v="760205" />
	</node>
	<node lat="63.52466110828174" lon="9.250877777627313" id="-35766">
		<tag k="fixme" v="consider seamark:type=rock or natural=shoal" />
		<tag k="name" v="Småskjæra" />
		<tag k="place" v="islet" />
		<tag k="ssr:stedsnr" v="761210" />
	</node>
	<node lat="63.49254999953704" lon="9.157436117939591" id="-35769">
		<tag k="name" v="Sauholmen" />
		<tag k="place" v="islet" />
		<tag k="ssr:stedsnr" v="761243" />
	</node>
	<node lat="63.53698611325301" lon="8.320705554527374" id="-35772">
		<tag k="name" v="Djupleia" />
		<tag k="natural" v="strait" />
		<tag k="ssr:stedsnr" v="763056" />
	</node>
	<node lat="63.50939444200664" lon="8.316738897557977" id="-35773">
		<tag k="name" v="Nesavågen" />
		<tag k="natural" v="bay" />
		<tag k="ssr:stedsnr" v="764194" />
	</node>
	<node lat="63.57920555745796" lon="8.439791675639496" id="-35774">
		<tag k="name" v="Kalvstraumen" />
		<tag k="natural" v="strait" />
		<tag k="ssr:stedsnr" v="764246" />
	</node>
	<node lat="63.61438055510977" lon="8.3731722290776" id="-35775">
		<tag k="name" v="Værsøytåa" />
		<tag k="natural" v="cape" />
		<tag k="ssr:stedsnr" v="764390" />
	</node>
	<node lat="63.57818055895121" lon="8.342000001235046" id="-35776">
		<tag k="name" v="Bussesundet" />
		<tag k="natural" v="strait" />
		<tag k="ssr:stedsnr" v="764397" />
	</node>
	<node lat="63.57938333040796" lon="8.349888883107125" id="-35777">
		<tag k="name" v="Olabussøya" />
		<tag k="place" v="islet" />
		<tag k="ssr:stedsnr" v="764398" />
	</node>
	<node lat="63.61516944484629" lon="8.413472218307476" id="-35778">
		<tag k="name" v="Finnsøybrattholmen" />
		<tag k="place" v="islet" />
		<tag k="ssr:stedsnr" v="764399" />
	</node>
	<node lat="63.482991662247564" lon="9.057997229096834" id="-35780">
		<tag k="name" v="Ytre Kvalholmfluan" />
		<tag k="natural" v="shoal" />
		<tag k="place" v="locality" />
		<tag k="ssr:stedsnr" v="773608" />
	</node>
	<node lat="63.55712500128386" lon="9.38659721919663" id="-35781">
		<tag k="fixme" v="consider seamark:type=rock or natural=shoal" />
		<tag k="name" v="Klumpen" />
		<tag k="place" v="islet" />
		<tag k="ssr:stedsnr" v="773911" />
	</node>
	<node lat="63.475866667318144" lon="8.863966657587627" id="-35782">
		<tag k="fixme" v="consider seamark:type=rock or natural=shoal" />
		<tag k="name" v="Lyrskjæra" />
		<tag k="place" v="islet" />
		<tag k="ssr:stedsnr" v="782558" />
	</node>
	<node lat="63.43524444778121" lon="8.283208326067058" id="-35783">
		<tag k="name" v="Kjerringøya" />
		<tag k="place" v="island" />
		<tag k="ssr:stedsnr" v="801008" />
	</node>
	<node lat="63.45081110872711" lon="8.605650006813775" id="-35784">
		<tag k="fixme" v="consider seamark:type=rock or natural=shoal" />
		<tag k="name" v="Godhamnflua" />
		<tag k="place" v="islet" />
		<tag k="ssr:stedsnr" v="801022" />
	</node>
	<node lat="63.465780552285054" lon="8.664788893424056" id="-35787">
		<tag k="name" v="Skjelvaløyan" />
		<tag k="place" v="islet" />
		<tag k="ssr:stedsnr" v="801107" />
	</node>
	<node lat="63.465016664882704" lon="8.272611106268203" id="-35788">
		<tag k="name" v="Djupholman" />
		<tag k="place" v="islet" />
		<tag k="ssr:stedsnr" v="801123" />
	</node>
	<node lat="63.450911110235886" lon="9.13996111681071" id="-35795">
		<tag k="name" v="Kuppelvika" />
		<tag k="natural" v="bay" />
		<tag k="ssr:stedsnr" v="802279" />
	</node>
	<node lat="63.60921389001464" lon="8.460452780487785" id="-35796">
		<tag k="name" v="Grønholmen" />
		<tag k="place" v="islet" />
		<tag k="ssr:stedsnr" v="802169" />
	</node>
	<node lat="63.68428133754849" lon="9.127501341925816" id="-35813">
		<tag k="alt_name" v="Hjertøyskjæret" />
		<tag k="fixme" v="consider seamark:type=rock or natural=shoal" />
		<tag k="name" v="Hjertskjæra" />
		<tag k="place" v="islet" />
		<tag k="ssr:stedsnr" v="802713" />
	</node>
	<node lat="63.59476944649202" lon="8.342866674952548" id="-35815">
		<tag k="name" v="Stuaholmen" />
		<tag k="place" v="islet" />
		<tag k="ssr:stedsnr" v="802919" />
	</node>
	<node lat="63.64793055707962" lon="8.688063886802409" id="-35816">
		<tag k="name" v="Rotøya" />
		<tag k="place" v="islet" />
		<tag k="ssr:stedsnr" v="802976" />
	</node>
	<node lat="63.638026240378466" lon="8.529082412949682" id="-35817">
		<tag k="alt_name" v="Kjelholman, l" />
		<tag k="name" v="Litle Kjelholmen" />
		<tag k="place" v="islet" />
		<tag k="ssr:stedsnr" v="802978" />
	</node>
	<node lat="63.54588055591338" lon="8.41411110432284" id="-35818">
		<tag k="name" v="Skjelvikskaget" />
		<tag k="natural" v="cape" />
		<tag k="ssr:stedsnr" v="819122" />
	</node>
	<node lat="63.654277774156206" lon="9.155858341462249" id="-35820">
		<tag k="name" v="Bremneset" />
		<tag k="natural" v="cape" />
		<tag k="ssr:stedsnr" v="819130" />
	</node>
	<node lat="63.61568888717765" lon="8.450119441026109" id="-35821">
		<tag k="name" v="Kusundet" />
		<tag k="natural" v="bay" />
		<tag k="ssr:stedsnr" v="819132" />
	</node>
	<node lat="63.673408329134574" lon="9.032938880859293" id="-35822">
		<tag k="name" v="Rundholmen" />
		<tag k="place" v="islet" />
		<tag k="ssr:stedsnr" v="819141" />
	</node>
	<node lat="63.57877222652153" lon="8.487427779113595" id="-35823">
		<tag k="name" v="Strandholman" />
		<tag k="place" v="islet" />
		<tag k="ssr:stedsnr" v="819218" />
	</node>
	<node lat="63.44116110962255" lon="8.337877776307309" id="-35828">
		<tag k="name" v="Litlarøya" />
		<tag k="place" v="island" />
		<tag k="ssr:stedsnr" v="819307" />
	</node>
	<node lat="63.51462221988005" lon="8.353094452349488" id="-35831">
		<tag k="name" v="Avlesa" />
		<tag k="place" v="islet" />
		<tag k="ssr:stedsnr" v="819378" />
	</node>
	<node lat="63.428752774362586" lon="8.401630552896176" id="-35832">
		<tag k="name" v="Grindvikskaget" />
		<tag k="natural" v="cape" />
		<tag k="ssr:stedsnr" v="819505" />
	</node>
	<node lat="63.41594999703772" lon="8.3937972232315" id="-35833">
		<tag k="fixme" v="consider seamark:type=rock or natural=shoal" />
		<tag k="name" v="Singskjæret" />
		<tag k="place" v="islet" />
		<tag k="ssr:stedsnr" v="819508" />
	</node>
	<node lat="63.64335000155838" lon="8.694397226839962" id="-35837">
		<tag k="name" v="Hallarvikbukta" />
		<tag k="natural" v="bay" />
		<tag k="ssr:stedsnr" v="819527" />
	</node>
	<node lat="63.471383331508065" lon="8.31228888824398" id="-35838">
		<tag k="name" v="Valen" />
		<tag k="natural" v="strait" />
		<tag k="ssr:stedsnr" v="819403" />
	</node>
	<node lat="63.45089166581323" lon="8.30877777089301" id="-35839">
		<tag k="name" v="Tromvågen" />
		<tag k="natural" v="bay" />
		<tag k="ssr:stedsnr" v="819405" />
	</node>
	<node lat="63.64957777373185" lon="8.758450008224328" id="-35855">
		<tag k="name" v="Litlkjerringvågen" />
		<tag k="natural" v="bay" />
		<tag k="ssr:stedsnr" v="819904" />
	</node>
	<node lat="63.60588888952065" lon="8.859555546317878" id="-35856">
		<tag k="name" v="Fauslandsvågen" />
		<tag k="natural" v="bay" />
		<tag k="ssr:stedsnr" v="819808" />
	</node>
	<node lat="63.6605111089709" lon="8.79544444704831" id="-35860">
		<tag k="name" v="Fiskvågan" />
		<tag k="natural" v="bay" />
		<tag k="ssr:stedsnr" v="819890" />
	</node>
	<node lat="63.57291666910005" lon="9.188716657222118" id="-35871">
		<tag k="name" v="Osafløa" />
		<tag k="natural" v="cape" />
		<tag k="ssr:stedsnr" v="820323" />
	</node>
	<node lat="63.647930551204" lon="8.674436108357108" id="-35872">
		<tag k="name" v="Kobbholman" />
		<tag k="place" v="islet" />
		<tag k="ssr:stedsnr" v="820523" />
	</node>
	<node lat="63.54989722653729" lon="9.131769452360585" id="-35874">
		<tag k="name" v="Sauballbukta" />
		<tag k="natural" v="bay" />
		<tag k="ssr:stedsnr" v="820469" />
	</node>
	<node lat="63.657672221418366" lon="8.689616670873306" id="-35880">
		<tag k="fixme" v="consider seamark:type=rock or natural=shoal" />
		<tag k="name" v="Skjersbogskjæra" />
		<tag k="place" v="islet" />
		<tag k="ssr:stedsnr" v="820767" />
	</node>
	<node lat="63.651605554143025" lon="8.676555563556583" id="-35881">
		<tag k="fixme" v="consider seamark:type=rock or natural=shoal" />
		<tag k="name" v="Sildskjæret" />
		<tag k="place" v="islet" />
		<tag k="ssr:stedsnr" v="820768" />
	</node>
	<node lat="63.66473333737232" lon="8.903733330361536" id="-35882">
		<tag k="name" v="Sørklakken" />
		<tag k="natural" v="shoal" />
		<tag k="place" v="locality" />
		<tag k="ssr:stedsnr" v="820868" />
	</node>
	<node lat="63.52245555120324" lon="9.322252777960703" id="-35892">
		<tag k="name" v="Halsabukta" />
		<tag k="natural" v="bay" />
		<tag k="ssr:stedsnr" v="822604" />
	</node>
	<node lat="63.55385277914143" lon="9.373297231916176" id="-35895">
		<tag k="name" v="Sjursvikneset" />
		<tag k="natural" v="cape" />
		<tag k="ssr:stedsnr" v="822711" />
	</node>
	<node lat="63.46990278190619" lon="8.714724998901175" id="-35896">
		<tag k="name" v="Markusøya" />
		<tag k="place" v="islet" />
		<tag k="ssr:stedsnr" v="923147" />
	</node>
	<node lat="63.469294441010284" lon="8.241786110120964" id="-35897">
		<tag k="name" v="Arabåen" />
		<tag k="natural" v="shoal" />
		<tag k="place" v="locality" />
		<tag k="ssr:stedsnr" v="825114" />
	</node>
	<node lat="63.586936110208086" lon="8.402888888393324" id="-35898">
		<tag k="name" v="Indre Burøyvågen" />
		<tag k="natural" v="bay" />
		<tag k="ssr:stedsnr" v="825307" />
	</node>
	<node lat="63.58611388747161" lon="8.439152775173723" id="-35899">
		<tag k="name" v="Fjelltåa" />
		<tag k="natural" v="cape" />
		<tag k="ssr:stedsnr" v="825216" />
	</node>
	<node lat="63.45727777703815" lon="8.607025004637123" id="-35900">
		<tag k="name" v="Fløvassbugen" />
		<tag k="natural" v="bay" />
		<tag k="ssr:stedsnr" v="922028" />
	</node>
	<node lat="63.45416110907311" lon="8.62258888951696" id="-35901">
		<tag k="name" v="Kulviktaren" />
		<tag k="natural" v="shoal" />
		<tag k="place" v="locality" />
		<tag k="ssr:stedsnr" v="922029" />
	</node>
	<node lat="63.44143610816686" lon="8.346580555139356" id="-35902">
		<tag k="alt_name" v="Store Arøya" />
		<tag k="name" v="Arøya" />
		<tag k="place" v="island" />
		<tag k="ssr:stedsnr" v="922032" />
	</node>
	<node lat="63.47106944618813" lon="8.255883326741415" id="-35906">
		<tag k="name" v="Araholman" />
		<tag k="place" v="islet" />
		<tag k="ssr:stedsnr" v="923095" />
	</node>
	<node lat="63.633011115292774" lon="9.13601666088082" id="-35911">
		<tag k="name" v="Fjellværvågen" />
		<tag k="natural" v="bay" />
		<tag k="ssr:stedsnr" v="923351" />
	</node>
	<node lat="63.52129166696648" lon="8.324052768815987" id="-35922">
		<tag k="name" v="Purkholmen" />
		<tag k="place" v="islet" />
		<tag k="ssr:stedsnr" v="923561" />
	</node>
	<node lat="63.52557765291103" lon="8.300548799216724" id="-35923">
		<tag k="alt_name" v="Edøya;Edøya, store" />
		<tag k="name" v="Store Edøya" />
		<tag k="place" v="islet" />
		<tag k="ssr:stedsnr" v="923564" />
	</node>
	<node lat="63.67447777642093" lon="9.135844440534513" id="-35929">
		<tag k="fixme" v="consider seamark:type=rock or natural=shoal" />
		<tag k="name" v="Trettskjæra" />
		<tag k="place" v="islet" />
		<tag k="ssr:stedsnr" v="923693" />
	</node>
	<node lat="63.5431611093752" lon="8.27917499576047" id="-35931">
		<tag k="fixme" v="consider seamark:type=rock or natural=shoal" />
		<tag k="name" v="Kråka" />
		<tag k="place" v="islet" />
		<tag k="ssr:stedsnr" v="923584" />
	</node>
	<node lat="63.534716664535274" lon="8.372908337134357" id="-35934">
		<tag k="alt_name" v="Helsøya, store;Store Helsøya" />
		<tag k="name" v="Helsøya" />
		<tag k="place" v="island" />
		<tag k="ssr:stedsnr" v="923595" />
	</node>
	<node lat="63.55793611024295" lon="8.312536109386974" id="-35936">
		<tag k="name" v="Gåsholmdraget" />
		<tag k="place" v="islet" />
		<tag k="ssr:stedsnr" v="923601" />
	</node>
	<node lat="63.66267500090974" lon="8.887797227123036" id="-35937">
		<tag k="alt_name" v="Langskjæret" />
		<tag k="fixme" v="consider seamark:type=rock or natural=shoal" />
		<tag k="name" v="Langskjæra" />
		<tag k="place" v="islet" />
		<tag k="ssr:stedsnr" v="923647" />
	</node>
	<node lat="63.65102777334477" lon="8.799277780843015" id="-35940">
		<tag k="name" v="Norddolmvågen" />
		<tag k="natural" v="bay" />
		<tag k="ssr:stedsnr" v="923656" />
	</node>
	<node lat="63.586608333185275" lon="8.485602785898047" id="-35942">
		<tag k="name" v="Båtøya" />
		<tag k="place" v="islet" />
		<tag k="ssr:stedsnr" v="923901" />
	</node>
	<node lat="63.63353055173066" lon="8.544511114127134" id="-35945">
		<tag k="fixme" v="consider seamark:type=rock or natural=shoal" />
		<tag k="name" v="Lyrskjæret" />
		<tag k="place" v="islet" />
		<tag k="ssr:stedsnr" v="923983" />
	</node>
	<node lat="63.448241669656475" lon="9.12916388545481" id="-35947">
		<tag k="name" v="Kvitholmfluan" />
		<tag k="natural" v="shoal" />
		<tag k="place" v="locality" />
		<tag k="ssr:stedsnr" v="835679" />
	</node>
	<node lat="63.434683332578054" lon="8.364675001699464" id="-35949">
		<tag k="name" v="Skrepptaren" />
		<tag k="place" v="locality" />
		<tag k="seamark:type" v="rock" />
		<tag k="ssr:stedsnr" v="837588" />
	</node>
	<node lat="63.515986111434295" lon="8.350847224671428" id="-35950">
		<tag k="name" v="Vadholmen" />
		<tag k="place" v="islet" />
		<tag k="ssr:stedsnr" v="924500" />
	</node>
	<node lat="63.5104249976117" lon="8.308897230797923" id="-35952">
		<tag k="name" v="Nesa" />
		<tag k="natural" v="cape" />
		<tag k="ssr:stedsnr" v="924698" />
	</node>
	<node lat="63.621469444405264" lon="8.622652772198684" id="-35953">
		<tag k="name" v="Hesthagen" />
		<tag k="place" v="islet" />
		<tag k="ssr:stedsnr" v="924939" />
	</node>
	<node lat="63.43869444774643" lon="8.272900003901102" id="-35954">
		<tag k="fixme" v="consider seamark:type=rock or natural=shoal" />
		<tag k="name" v="Dragskjæret" />
		<tag k="place" v="islet" />
		<tag k="ssr:stedsnr" v="862009" />
	</node>
</osm>
