<?xml version="1.0" encoding="UTF-8"?>
<osm version="0.6" generator="osmapis">
	<node lat="63.47729722427936" lon="8.746566674864612" id="-86154">
		<tag k="name" v="Fagerlia" />
		<tag k="place" v="farm" />
		<tag k="ssr:stedsnr" v="229764" />
	</node>
	<node lat="63.498177779543624" lon="9.123963890840585" id="-86159">
		<tag k="name" v="Vorpbukta" />
		<tag k="place" v="farm" />
		<tag k="ssr:stedsnr" v="12423" />
	</node>
	<node lat="63.59597822544551" lon="9.076534945538441" id="-86167">
		<tag k="alt_name" v="Ulvåg" />
		<tag k="fixme" v="consider place=hamlet" />
		<tag k="name" v="Ulvvågen" />
		<tag k="place" v="farm" />
		<tag k="ssr:stedsnr" v="13409" />
	</node>
	<node lat="63.56377231873307" lon="8.743753209983778" id="-86170">
		<tag k="fixme" v="consider place=hamlet" />
		<tag k="name" v="Straum" />
		<tag k="place" v="farm" />
		<tag k="ssr:stedsnr" v="13461" />
	</node>
	<node lat="63.53931111277668" lon="9.121849992822316" id="-86172">
		<tag k="name" v="Haugen" />
		<tag k="place" v="farm" />
		<tag k="ssr:stedsnr" v="13480" />
	</node>
	<node lat="63.61323888820575" lon="8.843224991302218" id="-86180">
		<tag k="name" v="Hatland" />
		<tag k="place" v="farm" />
		<tag k="ssr:stedsnr" v="13365" />
	</node>
	<node lat="63.62600833622897" lon="8.70174167638868" id="-86197">
		<tag k="name" v="Fjellbukta" />
		<tag k="place" v="farm" />
		<tag k="ssr:stedsnr" v="13922" />
	</node>
	<node lat="63.66231944620712" lon="9.09771389709893" id="-86203">
		<tag k="alt_name" v="Aunet" />
		<tag k="name" v="Magnhildaunet" />
		<tag k="place" v="isolated_dwelling" />
		<tag k="ssr:stedsnr" v="30107" />
	</node>
	<node lat="63.6732805555569" lon="9.1017055527906" id="-86210">
		<tag k="name" v="Hagan" />
		<tag k="place" v="farm" />
		<tag k="ssr:stedsnr" v="30166" />
	</node>
	<node lat="63.63229166945363" lon="8.704747228680848" id="-86234">
		<tag k="fixme" v="consider place=hamlet" />
		<tag k="name" v="Dolm" />
		<tag k="place" v="farm" />
		<tag k="ssr:stedsnr" v="30525" />
	</node>
	<node lat="63.62321111086285" lon="8.721402769106875" id="-86238">
		<tag k="name" v="Hopen" />
		<tag k="place" v="farm" />
		<tag k="ssr:stedsnr" v="30603" />
	</node>
	<node lat="63.628066665856714" lon="8.72428332620749" id="-86239">
		<tag k="name" v="Skogodden" />
		<tag k="place" v="farm" />
		<tag k="ssr:stedsnr" v="30606" />
	</node>
	<node lat="63.606774996384885" lon="8.627152779875185" id="-86250">
		<tag k="name" v="Steinåkeren" />
		<tag k="place" v="farm" />
		<tag k="ssr:stedsnr" v="30910" />
	</node>
	<node lat="63.49661389162357" lon="9.150327782313115" id="-86282">
		<tag k="name" v="Nordbukta" />
		<tag k="place" v="farm" />
		<tag k="ssr:stedsnr" v="33204" />
	</node>
	<node lat="63.49831388503336" lon="9.183822221926414" id="-86289">
		<tag k="name" v="Sundan boligfelt" />
		<tag k="place" v="quarter" />
		<tag k="ssr:stedsnr" v="39107" />
	</node>
	<node lat="63.60292221794652" lon="8.977019448966805" id="-86290">
		<tag k="amenity" v="school" />
		<tag k="name" v="Hitra videregående skole" />
		<tag k="ssr:stedsnr" v="42024" />
	</node>
	<node lat="63.49683611124109" lon="9.140349997654559" id="-86294">
		<tag k="name" v="Hemnskjelgården" />
		<tag k="place" v="farm" />
		<tag k="ssr:stedsnr" v="58807" />
	</node>
	<node lat="63.65196168075968" lon="9.118714622669549" id="-86322">
		<tag k="alt_name" v="Breivika" />
		<tag k="fixme" v="consider place=hamlet" />
		<tag k="name" v="Breidvika" />
		<tag k="place" v="farm" />
		<tag k="ssr:stedsnr" v="74275" />
	</node>
	<node lat="63.547411109889964" lon="9.163836103865135" id="-86325">
		<tag k="alt_name" v="Myra" />
		<tag k="name" v="Myran" />
		<tag k="place" v="farm" />
		<tag k="ssr:stedsnr" v="74463" />
	</node>
	<node lat="63.597480555398306" lon="8.977383330794092" id="-86327">
		<tag k="name" v="Oldervik" />
		<tag k="place" v="farm" />
		<tag k="ssr:stedsnr" v="74355" />
	</node>
	<node lat="63.52644000836076" lon="8.436944390945" id="-86330">
		<tag k="fixme" v="consider place=hamlet" />
		<tag k="name" v="Svankilen" />
		<tag k="place" v="farm" />
		<tag k="ssr:stedsnr" v="74507" />
	</node>
	<node lat="63.558541667174545" lon="8.502433339271434" id="-86335">
		<tag k="alt_name" v="Furuvika" />
		<tag k="name" v="Furvik" />
		<tag k="place" v="farm" />
		<tag k="ssr:stedsnr" v="74558" />
	</node>
	<node lat="63.57339722011372" lon="8.652350007978457" id="-86336">
		<tag k="name" v="Skipnes" />
		<tag k="place" v="farm" />
		<tag k="ssr:stedsnr" v="74575" />
	</node>
	<node lat="63.65238062201376" lon="8.8133350021292" id="-86340">
		<tag k="fixme" v="consider place=hamlet" />
		<tag k="name" v="Norddolm" />
		<tag k="place" v="farm" />
		<tag k="ssr:stedsnr" v="74658" />
	</node>
	<node lat="63.6458833338889" lon="9.054497212714997" id="-86347">
		<tag k="name" v="Mastad" />
		<tag k="place" v="farm" />
		<tag k="ssr:stedsnr" v="90069" />
	</node>
	<node lat="63.61681666247539" lon="8.562841672045064" id="-86371">
		<tag k="fixme" v="consider place=hamlet" />
		<tag k="name" v="Langøya" />
		<tag k="place" v="farm" />
		<tag k="ssr:stedsnr" v="91905" />
	</node>
	<node lat="63.50536111385451" lon="8.983480547447433" id="-86383">
		<tag k="name" v="Nordgården" />
		<tag k="place" v="farm" />
		<tag k="ssr:stedsnr" v="92312" />
	</node>
	<node lat="63.4593555544229" lon="9.193433334446265" id="-86402">
		<tag k="name" v="Skagadalen" />
		<tag k="place" v="isolated_dwelling" />
		<tag k="ssr:stedsnr" v="93165" />
	</node>
	<node lat="63.49748889154263" lon="9.113741657043528" id="-86418">
		<tag k="name" v="Hagen" />
		<tag k="place" v="quarter" />
		<tag k="ssr:stedsnr" v="100125" />
	</node>
	<node lat="63.49367222113737" lon="9.27004722120225" id="-86419">
		<tag k="name" v="Vestre Valslag" />
		<tag k="place" v="farm" />
		<tag k="ssr:stedsnr" v="104683" />
	</node>
	<node lat="63.50334722527834" lon="8.975852768058974" id="-86442">
		<tag k="name" v="Akset" />
		<tag k="place" v="hamlet" />
		<tag k="ssr:stedsnr" v="134002" />
	</node>
	<node lat="63.43875833198996" lon="8.564802772907218" id="-86444">
		<tag k="name" v="Korshamna" />
		<tag k="place" v="farm" />
		<tag k="ssr:stedsnr" v="134068" />
	</node>
	<node lat="63.50145833143478" lon="9.246583323955" id="-86445">
		<tag k="name" v="Røssvika" />
		<tag k="place" v="farm" />
		<tag k="ssr:stedsnr" v="134203" />
	</node>
	<node lat="63.62430944476024" lon="8.739996971313762" id="-86449">
		<tag k="name" v="Stavlia" />
		<tag k="place" v="farm" />
		<tag k="ssr:stedsnr" v="134355" />
	</node>
	<node lat="63.50904547410347" lon="9.08576108048811" id="-86452">
		<tag k="alt_name" v="Jøssenøya" />
		<tag k="fixme" v="consider place=hamlet" />
		<tag k="name" v="Jøsnøy" />
		<tag k="place" v="farm" />
		<tag k="ssr:stedsnr" v="134513" />
	</node>
	<node lat="63.50783611094143" lon="9.01838332552916" id="-86454">
		<tag k="name" v="Storvika" />
		<tag k="place" v="farm" />
		<tag k="ssr:stedsnr" v="134517" />
	</node>
	<node lat="63.586867857166006" lon="8.831305679930212" id="-86455">
		<tag k="fixme" v="consider place=hamlet" />
		<tag k="name" v="Øverdalen" />
		<tag k="place" v="farm" />
		<tag k="ssr:stedsnr" v="134414" />
	</node>
	<node lat="63.61709722010284" lon="8.65701944489771" id="-86465">
		<tag k="alt_name" v="Sjursvik" />
		<tag k="name" v="Skjulsvik" />
		<tag k="place" v="farm" />
		<tag k="ssr:stedsnr" v="134920" />
	</node>
	<node lat="63.490341669996596" lon="8.304041670569417" id="-86471">
		<tag k="name" v="Hummelvika" />
		<tag k="place" v="farm" />
		<tag k="ssr:stedsnr" v="255091" />
	</node>
	<node lat="63.47128332909338" lon="8.689827782141261" id="-86475">
		<tag k="name" v="Laksåvika" />
		<tag k="place" v="farm" />
		<tag k="ssr:stedsnr" v="255140" />
	</node>
	<node lat="63.58378581394237" lon="8.99011749169638" id="-86479">
		<tag k="fixme" v="consider place=hamlet" />
		<tag k="name" v="Øya" />
		<tag k="place" v="farm" />
		<tag k="ssr:stedsnr" v="255392" />
	</node>
	<node lat="63.520469445801254" lon="9.091236113718493" id="-86481">
		<tag k="name" v="Vollen" />
		<tag k="place" v="farm" />
		<tag k="ssr:stedsnr" v="255488" />
	</node>
	<node lat="63.52521111221969" lon="9.086808343256406" id="-86484">
		<tag k="name" v="Øra" />
		<tag k="place" v="farm" />
		<tag k="ssr:stedsnr" v="255432" />
	</node>
	<node lat="63.49683611124109" lon="9.140349997654559" id="-86486">
		<tag k="fixme" v="consider place=hamlet" />
		<tag k="name" v="Hemnskjela" />
		<tag k="place" v="farm" />
		<tag k="ssr:stedsnr" v="255439" />
	</node>
	<node lat="63.5559868188841" lon="8.481536972010153" id="-86487">
		<tag k="fixme" v="consider place=hamlet" />
		<tag k="name" v="Grefsnes" />
		<tag k="place" v="farm" />
		<tag k="ssr:stedsnr" v="255586" />
	</node>
	<node lat="63.56169721783344" lon="8.522588889259154" id="-86488">
		<tag k="name" v="Nordheim" />
		<tag k="place" v="farm" />
		<tag k="ssr:stedsnr" v="255598" />
	</node>
	<node lat="63.660297785860294" lon="9.062698208336096" id="-86491">
		<tag k="fixme" v="consider place=hamlet" />
		<tag k="name" v="Ingeborgvika" />
		<tag k="place" v="farm" />
		<tag k="ssr:stedsnr" v="255640" />
	</node>
	<node lat="63.61630943385638" lon="9.089584384708946" id="-86504">
		<tag k="alt_name" v="Sørsæter" />
		<tag k="fixme" v="consider place=hamlet" />
		<tag k="name" v="Sørsætra" />
		<tag k="place" v="farm" />
		<tag k="ssr:stedsnr" v="256300" />
	</node>
	<node lat="63.61718610989711" lon="8.967061102737098" id="-86509">
		<tag k="name" v="Arnstad" />
		<tag k="place" v="farm" />
		<tag k="ssr:stedsnr" v="256316" />
	</node>
	<node lat="63.62063333673047" lon="8.939299999508977" id="-86510">
		<tag k="alt_name" v="Naustbakkan" />
		<tag k="name" v="Naustbakken" />
		<tag k="place" v="farm" />
		<tag k="ssr:stedsnr" v="256317" />
	</node>
	<node lat="63.597155702522166" lon="9.02626759663599" id="-86511">
		<tag k="name" v="Tranvik" />
		<tag k="place" v="farm" />
		<tag k="ssr:stedsnr" v="256334" />
	</node>
	<node lat="63.60194526696722" lon="8.98218475341808" id="-86513">
		<tag k="fixme" v="consider place=hamlet" />
		<tag k="name" v="Vikan" />
		<tag k="place" v="farm" />
		<tag k="ssr:stedsnr" v="256338" />
	</node>
	<node lat="63.621638891752994" lon="9.105994450875661" id="-86516">
		<tag k="name" v="Nordgård" />
		<tag k="place" v="farm" />
		<tag k="ssr:stedsnr" v="151007" />
	</node>
	<node lat="63.664347218576964" lon="9.09594722675353" id="-86529">
		<tag k="name" v="Kvalvika" />
		<tag k="place" v="isolated_dwelling" />
		<tag k="ssr:stedsnr" v="151176" />
	</node>
	<node lat="63.587319443036506" lon="8.973830546076838" id="-86534">
		<tag k="name" v="Skage" />
		<tag k="place" v="farm" />
		<tag k="ssr:stedsnr" v="151209" />
	</node>
	<node lat="63.45401944129721" lon="8.602086101969661" id="-86537">
		<tag k="name" v="Neset" />
		<tag k="place" v="farm" />
		<tag k="ssr:stedsnr" v="151218" />
	</node>
	<node lat="63.614858334957134" lon="8.638347222663175" id="-86565">
		<tag k="name" v="Smågøya" />
		<tag k="place" v="farm" />
		<tag k="ssr:stedsnr" v="151920" />
	</node>
	<node lat="63.58202498977068" lon="8.655578113377034" id="-86568">
		<tag k="name" v="Asmundvåg" />
		<tag k="place" v="farm" />
		<tag k="ssr:stedsnr" v="256599" />
	</node>
	<node lat="63.58337222108271" lon="9.131052787320153" id="-86574">
		<tag k="name" v="Oldret" />
		<tag k="place" v="farm" />
		<tag k="ssr:stedsnr" v="152066" />
	</node>
	<node lat="63.500255558256335" lon="9.272772220924749" id="-86597">
		<tag k="name" v="Leirvika" />
		<tag k="place" v="farm" />
		<tag k="ssr:stedsnr" v="153211" />
	</node>
	<node lat="63.62171944730876" lon="8.673383338527001" id="-86614">
		<tag k="alt_name" v="Mortensvika" />
		<tag k="name" v="Mortensvik" />
		<tag k="place" v="farm" />
		<tag k="ssr:stedsnr" v="256938" />
	</node>
	<node lat="63.60310335257294" lon="8.682219807620546" id="-86629">
		<tag k="fixme" v="consider place=hamlet" />
		<tag k="name" v="Leikvam" />
		<tag k="place" v="farm" />
		<tag k="ssr:stedsnr" v="272559" />
	</node>
	<node lat="63.61033920394048" lon="8.851831390121365" id="-86636">
		<tag k="alt_name" v="Sveneset" />
		<tag k="fixme" v="consider place=hamlet" />
		<tag k="name" v="Svenes" />
		<tag k="place" v="farm" />
		<tag k="ssr:stedsnr" v="195358" />
	</node>
	<node lat="63.50772778136899" lon="9.021697224871597" id="-86641">
		<tag k="name" v="Litlvika" />
		<tag k="place" v="farm" />
		<tag k="ssr:stedsnr" v="195502" />
	</node>
	<node lat="63.50695555895208" lon="9.012313887093992" id="-86642">
		<tag k="name" v="Saga" />
		<tag k="place" v="farm" />
		<tag k="ssr:stedsnr" v="195504" />
	</node>
	<node lat="63.66327777455342" lon="9.066544451918043" id="-86649">
		<tag k="name" v="Melkvika" />
		<tag k="place" v="farm" />
		<tag k="ssr:stedsnr" v="195637" />
	</node>
	<node lat="63.619975003810026" lon="8.659908337450466" id="-86652">
		<tag k="alt_name" v="Svalgresset" />
		<tag k="name" v="Svalgraset" />
		<tag k="place" v="farm" />
		<tag k="ssr:stedsnr" v="195906" />
	</node>
	<node lat="63.51471944691517" lon="8.29106110474412" id="-86654">
		<tag k="fixme" v="consider place=hamlet" />
		<tag k="name" v="Skåren" />
		<tag k="place" v="farm" />
		<tag k="ssr:stedsnr" v="272637" />
	</node>
	<node lat="63.63213611371423" lon="9.142391666633355" id="-86656">
		<tag k="name" v="Fjellvær" />
		<tag k="place" v="farm" />
		<tag k="ssr:stedsnr" v="212015" />
	</node>
	<node lat="63.43263889129348" lon="8.382986119454358" id="-86666">
		<tag k="name" v="Leirvika" />
		<tag k="place" v="farm" />
		<tag k="ssr:stedsnr" v="212329" />
	</node>
	<node lat="63.51781944709857" lon="8.31616389821072" id="-86680">
		<tag k="name" v="Kvalskaget" />
		<tag k="place" v="isolated_dwelling" />
		<tag k="ssr:stedsnr" v="212402" />
	</node>
	<node lat="63.62626666557751" lon="8.734408335836296" id="-86684">
		<tag k="name" v="Ner Meland" />
		<tag k="place" v="farm" />
		<tag k="ssr:stedsnr" v="212595" />
	</node>
	<node lat="63.64913333657246" lon="8.746372217462117" id="-86697">
		<tag k="name" v="Dalen" />
		<tag k="place" v="locality" />
		<tag k="ssr:stedsnr" v="212913" />
	</node>
	<node lat="63.63101110690987" lon="8.844641662084747" id="-86701">
		<tag k="name" v="Ytterbarman" />
		<tag k="place" v="farm" />
		<tag k="ssr:stedsnr" v="212976" />
	</node>
	<node lat="63.5041884956903" lon="8.977539966055767" id="-86729">
		<tag k="fixme" v="consider place=hamlet" />
		<tag k="name" v="Akset" />
		<tag k="place" v="farm" />
		<tag k="ssr:stedsnr" v="213331" />
	</node>
	<node lat="63.50955833409993" lon="9.003394454055798" id="-86730">
		<tag k="name" v="Solvang" />
		<tag k="place" v="farm" />
		<tag k="ssr:stedsnr" v="213377" />
	</node>
	<node lat="63.61842222049281" lon="9.09764722450325" id="-86770">
		<tag k="name" v="Sætra" />
		<tag k="place" v="farm" />
		<tag k="ssr:stedsnr" v="455030" />
	</node>
	<node lat="63.67457222278534" lon="9.043250008100179" id="-86796">
		<tag k="name" v="Storvollen" />
		<tag k="place" v="farm" />
		<tag k="ssr:stedsnr" v="455132" />
	</node>
	<node lat="63.67036944407707" lon="9.042183338932817" id="-86804">
		<tag k="name" v="Bakenget" />
		<tag k="place" v="farm" />
		<tag k="ssr:stedsnr" v="455153" />
	</node>
	<node lat="63.659544442365096" lon="8.829008338861682" id="-86817">
		<tag k="name" v="Bjørnaneset" />
		<tag k="place" v="farm" />
		<tag k="ssr:stedsnr" v="455999" />
	</node>
	<node lat="63.65038889226685" lon="8.790191660147862" id="-86842">
		<tag k="name" v="Mossavika" />
		<tag k="place" v="farm" />
		<tag k="ssr:stedsnr" v="455894" />
	</node>
	<node lat="63.564055558170075" lon="8.780038884613159" id="-86851">
		<tag k="name" v="Ner Sageidet" />
		<tag k="place" v="farm" />
		<tag k="ssr:stedsnr" v="455856" />
	</node>
	<node lat="63.63138055280778" lon="8.786594437203814" id="-86856">
		<tag k="name" v="Reitan" />
		<tag k="place" v="farm" />
		<tag k="ssr:stedsnr" v="455951" />
	</node>
	<node lat="63.4733833368611" lon="8.331405551209247" id="-86861">
		<tag k="alt_name" v="Øver Aunvågen" />
		<tag k="name" v="Aunvågen" />
		<tag k="place" v="farm" />
		<tag k="ssr:stedsnr" v="255081" />
	</node>
	<node lat="63.45293611179752" lon="8.322030558235173" id="-86862">
		<tag k="name" v="Roparvika" />
		<tag k="place" v="farm" />
		<tag k="ssr:stedsnr" v="255119" />
	</node>
	<node lat="63.635858328983694" lon="9.15084443842935" id="-86864">
		<tag k="name" v="Fjellvær" />
		<tag k="old_name" v="Leirvik" />
		<tag k="place" v="farm" />
		<tag k="ssr:stedsnr" v="255305" />
	</node>
	<node lat="63.62152222266734" lon="8.738544440577106" id="-86865">
		<tag k="name" v="Sollia" />
		<tag k="place" v="farm" />
		<tag k="ssr:stedsnr" v="255312" />
	</node>
	<node lat="63.65962500205871" lon="8.840727770892704" id="-86871">
		<tag k="alt_name" v="Knutshaug" />
		<tag k="name" v="Knutshaugen" />
		<tag k="place" v="hamlet" />
		<tag k="ssr:stedsnr" v="255704" />
	</node>
	<node lat="63.55404999913637" lon="9.18130277436039" id="-86882">
		<tag k="alt_name" v="Aunet;Nordaunet" />
		<tag k="name" v="Langaunet" />
		<tag k="place" v="farm" />
		<tag k="ssr:stedsnr" v="256371" />
	</node>
	<node lat="63.65115832996785" lon="8.776277767781611" id="-86886">
		<tag k="fixme" v="consider place=hamlet" />
		<tag k="name" v="Kjerringvåg" />
		<tag k="place" v="village" />
		<tag k="ssr:stedsnr" v="256616" />
	</node>
	<node lat="63.50080555493217" lon="9.163672231475188" id="-86909">
		<tag k="name" v="Stranden" />
		<tag k="place" v="farm" />
		<tag k="ssr:stedsnr" v="458245" />
	</node>
	<node lat="63.6340416658816" lon="9.129772223209317" id="-86918">
		<tag k="name" v="Grønningen" />
		<tag k="place" v="farm" />
		<tag k="ssr:stedsnr" v="272018" />
	</node>
	<node lat="63.45923055371839" lon="8.614336112812625" id="-86926">
		<tag k="name" v="Kulvika" />
		<tag k="place" v="farm" />
		<tag k="ssr:stedsnr" v="272221" />
	</node>
	<node lat="63.64811667001004" lon="8.810505550266853" id="-86946">
		<tag k="alt_name" v="Morvika" />
		<tag k="loc_name" v="Melkstad" />
		<tag k="name" v="Morrvika" />
		<tag k="place" v="farm" />
		<tag k="ssr:stedsnr" v="272986" />
	</node>
	<node lat="63.65239721903159" lon="8.806530555757142" id="-86947">
		<tag k="name" v="Skjåvika" />
		<tag k="place" v="farm" />
		<tag k="ssr:stedsnr" v="272988" />
	</node>
	<node lat="63.6725361071764" lon="9.103444448226135" id="-86949">
		<tag k="name" v="Selvågan" />
		<tag k="place" v="hamlet" />
		<tag k="ssr:stedsnr" v="273173" />
	</node>
	<node lat="63.532094444933776" lon="8.391344451661997" id="-86962">
		<tag k="name" v="Myra" />
		<tag k="place" v="farm" />
		<tag k="ssr:stedsnr" v="273424" />
	</node>
	<node lat="63.57127500281522" lon="8.668522222435408" id="-86978">
		<tag k="name" v="Hofstadgårdan" />
		<tag k="place" v="hamlet" />
		<tag k="ssr:stedsnr" v="273791" />
	</node>
	<node lat="63.47814999560924" lon="8.761027785455596" id="-86992">
		<tag k="name" v="Vågen Kamping" />
		<tag k="ssr:stedsnr" v="274617" />
		<tag k="tourism" v="camp_site" />
	</node>
	<node lat="63.5559027743899" lon="9.39730833240847" id="-87000">
		<tag k="fixme" v="consider place=hamlet" />
		<tag k="name" v="Futstranda" />
		<tag k="place" v="village" />
		<tag k="ssr:stedsnr" v="275712" />
	</node>
	<node lat="63.537266667416255" lon="9.340130562128522" id="-87018">
		<tag k="name" v="Bystingen" />
		<tag k="place" v="neighbourhood" />
		<tag k="ssr:stedsnr" v="464135" />
	</node>
	<node lat="63.48242222096148" lon="9.111894449914347" id="-87019">
		<tag k="name" v="Vikan hyttefelt" />
		<tag k="place" v="neighbourhood" />
		<tag k="ssr:stedsnr" v="464138" />
	</node>
	<node lat="63.44191111007768" lon="8.363272221621118" id="-87024">
		<tag k="alt_name" v="Søraune" />
		<tag k="name" v="Aunet" />
		<tag k="place" v="farm" />
		<tag k="ssr:stedsnr" v="315026" />
	</node>
	<node lat="63.57575406951009" lon="8.990952561936107" id="-87030">
		<tag k="alt_name" v="Kalklov" />
		<tag k="fixme" v="consider place=hamlet" />
		<tag k="name" v="Kaldklov" />
		<tag k="place" v="farm" />
		<tag k="ssr:stedsnr" v="316460" />
	</node>
	<node lat="63.533480552311794" lon="9.131016660663336" id="-87036">
		<tag k="name" v="Grøttem" />
		<tag k="place" v="farm" />
		<tag k="ssr:stedsnr" v="316512" />
	</node>
	<node lat="63.54700832919116" lon="9.161277775390237" id="-87048">
		<tag k="alt_name" v="Skjevika" />
		<tag k="name" v="Skjervika" />
		<tag k="place" v="farm" />
		<tag k="ssr:stedsnr" v="317415" />
	</node>
	<node lat="63.63767806020148" lon="8.855313079636433" id="-87053">
		<tag k="fixme" v="consider place=hamlet" />
		<tag k="name" v="Vikan" />
		<tag k="place" v="farm" />
		<tag k="ssr:stedsnr" v="328964" />
	</node>
	<node lat="63.63592222162594" lon="9.035883325463208" id="-87061">
		<tag k="name" v="Aunet" />
		<tag k="place" v="farm" />
		<tag k="ssr:stedsnr" v="333247" />
	</node>
	<node lat="63.62403611198591" lon="9.025366659245739" id="-87073">
		<tag k="name" v="Akset" />
		<tag k="place" v="farm" />
		<tag k="ssr:stedsnr" v="333861" />
	</node>
	<node lat="63.649780552247" lon="8.755686102460166" id="-87074">
		<tag k="name" v="Fjellet" />
		<tag k="place" v="locality" />
		<tag k="ssr:stedsnr" v="333897" />
	</node>
	<node lat="63.57347777374492" lon="8.438272215515827" id="-87086">
		<tag k="name" v="Hammarmyra" />
		<tag k="place" v="farm" />
		<tag k="ssr:stedsnr" v="334117" />
	</node>
	<node lat="63.51271944863083" lon="9.052758338586758" id="-87093">
		<tag k="name" v="Jevikåsen" />
		<tag k="place" v="farm" />
		<tag k="ssr:stedsnr" v="334315" />
	</node>
	<node lat="63.42724166878749" lon="8.48312222061702" id="-87097">
		<tag k="name" v="Hundvika" />
		<tag k="place" v="farm" />
		<tag k="ssr:stedsnr" v="334454" />
	</node>
	<node lat="63.5186520595401" lon="9.284336868872039" id="-87124">
		<tag k="name" v="Vingan" />
		<tag k="place" v="farm" />
		<tag k="ssr:stedsnr" v="335200" />
	</node>
	<node lat="63.45774166972021" lon="9.225177768395834" id="-87127">
		<tag k="name" v="Rottemsaunet" />
		<tag k="place" v="farm" />
		<tag k="ssr:stedsnr" v="336146" />
	</node>
	<node lat="63.54436389333706" lon="9.406419438278693" id="-87135">
		<tag k="fixme" v="consider place=hamlet" />
		<tag k="name" v="Åsøya" />
		<tag k="place" v="farm" />
		<tag k="ssr:stedsnr" v="336706" />
	</node>
	<node lat="63.48540000120651" lon="8.311305555170438" id="-87147">
		<tag k="name" v="Rognvika" />
		<tag k="place" v="farm" />
		<tag k="ssr:stedsnr" v="376083" />
	</node>
	<node lat="63.64706666681138" lon="8.837788887756737" id="-87149">
		<tag k="name" v="Eidestranda" />
		<tag k="place" v="farm" />
		<tag k="ssr:stedsnr" v="376279" />
	</node>
	<node lat="63.643144442448886" lon="8.989177772941803" id="-87150">
		<tag k="name" v="Grindfaret" />
		<tag k="place" v="farm" />
		<tag k="ssr:stedsnr" v="376282" />
	</node>
	<node lat="63.42785555729253" lon="8.4883916752994" id="-87188">
		<tag k="name" v="Risvika" />
		<tag k="place" v="farm" />
		<tag k="ssr:stedsnr" v="394491" />
	</node>
	<node lat="63.56389444637415" lon="8.747797227591045" id="-87192">
		<tag k="name" v="Mittistua" />
		<tag k="place" v="farm" />
		<tag k="ssr:stedsnr" v="394783" />
	</node>
	<node lat="63.5896944850181" lon="8.865764473200663" id="-87194">
		<tag k="name" v="Sørdalen" />
		<tag k="place" v="farm" />
		<tag k="ssr:stedsnr" v="394793" />
	</node>
	<node lat="63.588813892741385" lon="8.832363884863245" id="-87195">
		<tag k="name" v="Nordøverdalen" />
		<tag k="place" v="farm" />
		<tag k="ssr:stedsnr" v="394799" />
	</node>
	<node lat="63.63587499728848" lon="8.988650000126647" id="-87202">
		<tag k="name" v="Gåsvollan" />
		<tag k="place" v="farm" />
		<tag k="ssr:stedsnr" v="394883" />
	</node>
	<node lat="63.635278972594335" lon="8.778345272792684" id="-87226">
		<tag k="name" v="Vikstrøm" />
		<tag k="place" v="farm" />
		<tag k="ssr:stedsnr" v="484730" />
	</node>
	<node lat="63.490441666504694" lon="9.162025006773893" id="-87236">
		<tag k="name" v="Malnes" />
		<tag k="place" v="farm" />
		<tag k="ssr:stedsnr" v="409249" />
	</node>
	<node lat="63.633652780611484" lon="8.774072228892935" id="-87242">
		<tag k="name" v="Vikstrøm" />
		<tag k="place" v="farm" />
		<tag k="ssr:stedsnr" v="424707" />
	</node>
	<node lat="63.63755107422053" lon="8.79927408566545" id="-87243">
		<tag k="name" v="Vikstrøm" />
		<tag k="old_name" v="Kvernhusvika" />
		<tag k="place" v="farm" />
		<tag k="ssr:stedsnr" v="424714" />
	</node>
	<node lat="63.455255391834335" lon="9.325963933223646" id="-87250">
		<tag k="alt_name" v="Stolpnessetra" />
		<tag k="fixme" v="consider place=hamlet" />
		<tag k="name" v="Stolpnessætra" />
		<tag k="place" v="farm" />
		<tag k="ssr:stedsnr" v="437948" />
	</node>
	<node lat="63.580116663653335" lon="9.135119441735752" id="-87273">
		<tag k="name" v="Utset" />
		<tag k="place" v="farm" />
		<tag k="ssr:stedsnr" v="452662" />
	</node>
	<node lat="63.45147222418019" lon="8.5885388975857" id="-87275">
		<tag k="fixme" v="consider place=hamlet" />
		<tag k="name" v="Nordkvammen" />
		<tag k="place" v="farm" />
		<tag k="ssr:stedsnr" v="454205" />
	</node>
	<node lat="63.44125000007145" lon="8.57075277493635" id="-87276">
		<tag k="name" v="Korsmyra" />
		<tag k="place" v="farm" />
		<tag k="ssr:stedsnr" v="454265" />
	</node>
	<node lat="63.63976944590758" lon="9.12382777453447" id="-87277">
		<tag k="historic" v="shieling" />
		<tag k="name" v="Gammelsetra" />
		<tag k="place" v="isolated_dwelling" />
		<tag k="ssr:stedsnr" v="455008" />
	</node>
	<node lat="63.62839722176513" lon="9.119519440556003" id="-87279">
		<tag k="name" v="Einvika" />
		<tag k="place" v="farm" />
		<tag k="ssr:stedsnr" v="455016" />
	</node>
	<node lat="63.64785000236685" lon="9.124258343190393" id="-87288">
		<tag k="name" v="Melkvika" />
		<tag k="place" v="farm" />
		<tag k="ssr:stedsnr" v="455109" />
	</node>
	<node lat="63.62810277676434" lon="8.964827773215255" id="-87303">
		<tag k="fixme" v="consider place=hamlet" />
		<tag k="name" v="Jevika" />
		<tag k="place" v="farm" />
		<tag k="ssr:stedsnr" v="455872" />
	</node>
	<node lat="63.50496389242507" lon="8.975702776134042" id="-87317">
		<tag k="name" v="Granheim" />
		<tag k="place" v="farm" />
		<tag k="ssr:stedsnr" v="456319" />
	</node>
	<node lat="63.51102222361685" lon="9.045208330087869" id="-87318">
		<tag k="name" v="Åsmoa" />
		<tag k="place" v="locality" />
		<tag k="ssr:stedsnr" v="456324" />
	</node>
	<node lat="63.506272223934964" lon="9.247405555002501" id="-87330">
		<tag k="name" v="Røssvikneset" />
		<tag k="place" v="farm" />
		<tag k="ssr:stedsnr" v="675570" />
	</node>
	<node lat="63.44811770645775" lon="8.580892537190405" id="-87339">
		<tag k="name" v="Kvammen" />
		<tag k="place" v="hamlet" />
		<tag k="ssr:stedsnr" v="679011" />
	</node>
	<node lat="63.46413611324412" lon="9.27843332832313" id="-87346">
		<tag k="name" v="Øverlia" />
		<tag k="place" v="farm" />
		<tag k="ssr:stedsnr" v="679961" />
	</node>
	<node lat="63.430052781586674" lon="8.432383330596176" id="-87348">
		<tag k="name" v="Engvika" />
		<tag k="place" v="farm" />
		<tag k="ssr:stedsnr" v="680067" />
	</node>
	<node lat="63.528124249223765" lon="9.388343624419296" id="-87355">
		<tag k="fixme" v="consider place=hamlet" />
		<tag k="name" v="Gullbrandsvika" />
		<tag k="old_name" v="Viken" />
		<tag k="place" v="farm" />
		<tag k="ssr:stedsnr" v="680182" />
	</node>
	<node lat="63.63558333112708" lon="8.834219442494687" id="-87359">
		<tag k="name" v="Melkvika" />
		<tag k="place" v="farm" />
		<tag k="ssr:stedsnr" v="680286" />
	</node>
	<node lat="63.623036108786934" lon="8.747263881652774" id="-87369">
		<tag k="alt_name" v="Sommarvollen" />
		<tag k="name" v="Sommarvoll" />
		<tag k="place" v="farm" />
		<tag k="ssr:stedsnr" v="680352" />
	</node>
	<node lat="63.563155107083" lon="9.131051373891015" id="-87370">
		<tag k="fixme" v="consider place=hamlet" />
		<tag k="name" v="Vågen" />
		<tag k="place" v="farm" />
		<tag k="ssr:stedsnr" v="680471" />
	</node>
	<node lat="63.4481557349631" lon="9.148031231221218" id="-87372">
		<tag k="fixme" v="consider place=hamlet" />
		<tag k="name" v="Jamtøya" />
		<tag k="place" v="farm" />
		<tag k="ssr:stedsnr" v="680442" />
	</node>
	<node lat="63.516050004357076" lon="9.041799993443318" id="-87385">
		<tag k="name" v="Terningsmoen" />
		<tag k="place" v="farm" />
		<tag k="ssr:stedsnr" v="680544" />
	</node>
	<node lat="63.60990000329272" lon="8.631980550398909" id="-87396">
		<tag k="alt_name" v="Sjøbakkan" />
		<tag k="name" v="Sjøbakken" />
		<tag k="place" v="farm" />
		<tag k="ssr:stedsnr" v="680945" />
	</node>
	<node lat="63.50192500405533" lon="9.200336115560848" id="-87401">
		<tag k="name" v="Stordalen" />
		<tag k="place" v="farm" />
		<tag k="ssr:stedsnr" v="498007" />
	</node>
	<node lat="63.43594444435513" lon="8.329349993381435" id="-87402">
		<tag k="name" v="Bollvika" />
		<tag k="place" v="locality" />
		<tag k="ssr:stedsnr" v="498014" />
	</node>
	<node lat="63.46325278171284" lon="8.636811103642515" id="-87404">
		<tag k="name" v="Voll" />
		<tag k="place" v="farm" />
		<tag k="ssr:stedsnr" v="498107" />
	</node>
	<node lat="63.570505557216265" lon="9.190611119131798" id="-87407">
		<tag k="fixme" v="consider place=hamlet" />
		<tag k="name" v="Børøysund" />
		<tag k="place" v="village" />
		<tag k="ssr:stedsnr" v="498437" />
	</node>
	<node lat="63.56438464970513" lon="8.744186709850041" id="-87408">
		<tag k="name" v="Straum" />
		<tag k="place" v="hamlet" />
		<tag k="ssr:stedsnr" v="498441" />
	</node>
	<node lat="63.57153258198318" lon="9.140179403277418" id="-87409">
		<tag k="alt_name" v="Dråga" />
		<tag k="fixme" v="consider place=hamlet" />
		<tag k="name" v="Drågen" />
		<tag k="place" v="farm" />
		<tag k="ssr:stedsnr" v="498448" />
	</node>
	<node lat="63.60630893267859" lon="8.969627802211404" id="-87411">
		<tag k="name" v="Fillan" />
		<tag k="place" v="village" />
		<tag k="ssr:stedsnr" v="498388" />
	</node>
	<node lat="63.546308334451645" lon="9.154694452935981" id="-87413">
		<tag k="name" v="Ålmodalen" />
		<tag k="place" v="farm" />
		<tag k="ssr:stedsnr" v="498515" />
	</node>
	<node lat="63.56554444433664" lon="8.508008328371082" id="-87422">
		<tag k="name" v="Solstad" />
		<tag k="place" v="farm" />
		<tag k="ssr:stedsnr" v="498605" />
	</node>
	<node lat="63.59110278035985" lon="8.587630546592916" id="-87427">
		<tag k="name" v="Einabu" />
		<tag k="place" v="isolated_dwelling" />
		<tag k="ssr:stedsnr" v="498904" />
	</node>
	<node lat="63.60108333029556" lon="8.687147219907576" id="-87431">
		<tag k="alt_name" v="Leikvam Ø." />
		<tag k="name" v="Leikvam" />
		<tag k="place" v="farm" />
		<tag k="ssr:stedsnr" v="498900" />
	</node>
	<node lat="63.654392057612895" lon="9.123416819360596" id="-87432">
		<tag k="alt_name" v="Lervika" />
		<tag k="fixme" v="consider place=hamlet" />
		<tag k="name" v="Leirvika" />
		<tag k="place" v="farm" />
		<tag k="ssr:stedsnr" v="499204" />
	</node>
	<node lat="63.57514722106716" lon="8.604233337983429" id="-87438">
		<tag k="name" v="Aunet" />
		<tag k="place" v="isolated_dwelling" />
		<tag k="ssr:stedsnr" v="681576" />
	</node>
	<node lat="63.65683055168768" lon="8.8382361179964" id="-87443">
		<tag k="name" v="Myra" />
		<tag k="place" v="farm" />
		<tag k="ssr:stedsnr" v="681649" />
	</node>
	<node lat="63.65112777742264" lon="9.114794438696057" id="-87448">
		<tag k="name" v="Solbakken" />
		<tag k="place" v="farm" />
		<tag k="ssr:stedsnr" v="515120" />
	</node>
	<node lat="63.58518611463358" lon="8.971208339479839" id="-87449">
		<tag k="name" v="Hammarvika" />
		<tag k="place" v="farm" />
		<tag k="ssr:stedsnr" v="515203" />
	</node>
	<node lat="63.641500001178876" lon="9.047794453918886" id="-87453">
		<tag k="name" v="Steinsbakken" />
		<tag k="place" v="farm" />
		<tag k="ssr:stedsnr" v="515247" />
	</node>
	<node lat="63.608108333098095" lon="8.855238883149404" id="-87465">
		<tag k="fixme" v="consider place=hamlet" />
		<tag k="name" v="Fausland" />
		<tag k="place" v="farm" />
		<tag k="ssr:stedsnr" v="515806" />
	</node>
	<node lat="63.63541944043067" lon="9.139027774557299" id="-87471">
		<tag k="name" v="Myra" />
		<tag k="place" v="farm" />
		<tag k="ssr:stedsnr" v="516009" />
	</node>
	<node lat="63.634966662437115" lon="9.151847213174568" id="-87472">
		<tag k="name" v="Fjellvær" />
		<tag k="place" v="farm" />
		<tag k="ssr:stedsnr" v="516020" />
	</node>
	<node lat="63.53456944776553" lon="8.39590833577779" id="-87496">
		<tag k="name" v="Moa" />
		<tag k="place" v="farm" />
		<tag k="ssr:stedsnr" v="516423" />
	</node>
	<node lat="63.60454722214905" lon="8.624069451670215" id="-87520">
		<tag k="name" v="Klubbhaugen" />
		<tag k="place" v="farm" />
		<tag k="ssr:stedsnr" v="516862" />
	</node>
	<node lat="63.501036115049196" lon="9.159775001398218" id="-87527">
		<tag k="name" v="Skogsøya" />
		<tag k="place" v="hamlet" />
		<tag k="ssr:stedsnr" v="518208" />
	</node>
	<node lat="63.489266663445534" lon="8.304388894047165" id="-87550">
		<tag k="name" v="Strauman" />
		<tag k="place" v="farm" />
		<tag k="ssr:stedsnr" v="558096" />
	</node>
	<node lat="63.479693292872845" lon="8.846901285736518" id="-87556">
		<tag k="alt_name" v="Balsnes" />
		<tag k="fixme" v="consider place=hamlet" />
		<tag k="name" v="Ballsnes" />
		<tag k="place" v="farm" />
		<tag k="ssr:stedsnr" v="558504" />
	</node>
	<node lat="63.66065277792737" lon="9.082749992676678" id="-87579">
		<tag k="name" v="Trolla" />
		<tag k="place" v="farm" />
		<tag k="ssr:stedsnr" v="575075" />
	</node>
	<node lat="63.63145555682906" lon="8.884105561942926" id="-87591">
		<tag k="name" v="Moa" />
		<tag k="place" v="farm" />
		<tag k="ssr:stedsnr" v="575944" />
	</node>
	<node lat="63.62708888792238" lon="8.973902776730846" id="-87592">
		<tag k="name" v="Risvika" />
		<tag k="place" v="locality" />
		<tag k="ssr:stedsnr" v="575846" />
	</node>
	<node lat="63.664244441247966" lon="9.096794445973355" id="-87596">
		<tag k="name" v="Røbergsvika" />
		<tag k="place" v="isolated_dwelling" />
		<tag k="ssr:stedsnr" v="576152" />
	</node>
	<node lat="63.4321027759396" lon="8.420380547143957" id="-87600">
		<tag k="name" v="Halsan" />
		<tag k="place" v="farm" />
		<tag k="ssr:stedsnr" v="576303" />
	</node>
	<node lat="63.43593055224949" lon="8.381222226198755" id="-87602">
		<tag k="building" v="industrial" />
		<tag k="name" v="Smia" />
		<tag k="ssr:stedsnr" v="576353" />
	</node>
	<node lat="63.515719447360524" lon="8.367980546036248" id="-87609">
		<tag k="name" v="Eide" />
		<tag k="place" v="isolated_dwelling" />
		<tag k="ssr:stedsnr" v="576398" />
	</node>
	<node lat="63.608401567316584" lon="8.971297373663607" id="-87613">
		<tag k="fixme" v="consider place=hamlet" />
		<tag k="name" v="Fillan" />
		<tag k="place" v="farm" />
		<tag k="ssr:stedsnr" v="576858" />
	</node>
	<node lat="63.547152777091846" lon="9.202758327835987" id="-87636">
		<tag k="name" v="Innergården" />
		<tag k="place" v="farm" />
		<tag k="ssr:stedsnr" v="577498" />
	</node>
	<node lat="63.49901944729477" lon="8.268144444936434" id="-87697">
		<tag k="name" v="Sæbuskaget" />
		<tag k="place" v="isolated_dwelling" />
		<tag k="ssr:stedsnr" v="697658" />
	</node>
	<node lat="63.65026944292868" lon="8.775391674261906" id="-87701">
		<tag k="name" v="Haugen" />
		<tag k="place" v="farm" />
		<tag k="ssr:stedsnr" v="697889" />
	</node>
	<node lat="63.64771666725952" lon="8.719652777035659" id="-87704">
		<tag k="name" v="Sletta" />
		<tag k="place" v="isolated_dwelling" />
		<tag k="ssr:stedsnr" v="697921" />
	</node>
	<node lat="63.65077787202918" lon="8.774855583215155" id="-87705">
		<tag k="fixme" v="consider place=hamlet" />
		<tag k="name" v="Kjerringvågen" />
		<tag k="place" v="farm" />
		<tag k="ssr:stedsnr" v="697892" />
	</node>
	<node lat="63.650161107081935" lon="8.751291674516855" id="-87706">
		<tag k="name" v="Berge" />
		<tag k="place" v="locality" />
		<tag k="ssr:stedsnr" v="697899" />
	</node>
	<node lat="63.65489166483469" lon="8.830269438096648" id="-87713">
		<tag k="name" v="Rinnarmyra" />
		<tag k="place" v="farm" />
		<tag k="ssr:stedsnr" v="697995" />
	</node>
	<node lat="63.66971944252939" lon="9.049486104999662" id="-87719">
		<tag k="name" v="Kjevikan" />
		<tag k="place" v="hamlet" />
		<tag k="ssr:stedsnr" v="698135" />
	</node>
	<node lat="63.43013610825215" lon="8.471736112055272" id="-87730">
		<tag k="name" v="Reitan" />
		<tag k="place" v="farm" />
		<tag k="ssr:stedsnr" v="698238" />
	</node>
	<node lat="63.48315833376133" lon="8.789649990731732" id="-87765">
		<tag k="alt_name" v="Balsnesaunet" />
		<tag k="fixme" v="consider place=hamlet" />
		<tag k="name" v="Ballsnesaunet" />
		<tag k="place" v="farm" />
		<tag k="ssr:stedsnr" v="698705" />
	</node>
	<node lat="63.49172499840487" lon="9.130200006022296" id="-87799">
		<tag k="name" v="Austre Hamnabukta" />
		<tag k="place" v="farm" />
		<tag k="ssr:stedsnr" v="700455" />
	</node>
	<node lat="63.55114999603635" lon="9.373986103723304" id="-87804">
		<tag k="name" v="Bakken" />
		<tag k="place" v="farm" />
		<tag k="ssr:stedsnr" v="700691" />
	</node>
	<node lat="63.47386111278898" lon="8.317602768083608" id="-87811">
		<tag k="name" v="Ottervika" />
		<tag k="place" v="farm" />
		<tag k="ssr:stedsnr" v="619074" />
	</node>
	<node lat="63.64452777718101" lon="9.161994452641844" id="-87813">
		<tag k="name" v="Reksa" />
		<tag k="place" v="farm" />
		<tag k="ssr:stedsnr" v="619290" />
	</node>
	<node lat="63.59645832994702" lon="9.061069448256367" id="-87815">
		<tag k="name" v="Elva" />
		<tag k="place" v="farm" />
		<tag k="ssr:stedsnr" v="619408" />
	</node>
	<node lat="63.62939166258606" lon="8.844447214071415" id="-87818">
		<tag k="name" v="Åsheim" />
		<tag k="place" v="farm" />
		<tag k="ssr:stedsnr" v="619323" />
	</node>
	<node lat="63.62411389175686" lon="8.843022232054302" id="-87819">
		<tag k="name" v="Solheim" />
		<tag k="place" v="farm" />
		<tag k="ssr:stedsnr" v="619325" />
	</node>
	<node lat="63.535664296714565" lon="9.131336138044981" id="-87824">
		<tag k="name" v="Nyvoll" />
		<tag k="place" v="farm" />
		<tag k="ssr:stedsnr" v="619507" />
	</node>
	<node lat="63.55349166541134" lon="8.538424990253318" id="-87827">
		<tag k="alt_name" v="Grønnvika" />
		<tag k="name" v="Grønvika" />
		<tag k="place" v="farm" />
		<tag k="ssr:stedsnr" v="619602" />
	</node>
	<node lat="63.46651944587491" lon="9.266880561212455" id="-87835">
		<tag k="name" v="Haugen" />
		<tag k="place" v="farm" />
		<tag k="ssr:stedsnr" v="619984" />
	</node>
	<node lat="63.61852547987163" lon="8.96243926697732" id="-87837">
		<tag k="fixme" v="consider place=hamlet" />
		<tag k="name" v="Steinklov" />
		<tag k="place" v="farm" />
		<tag k="ssr:stedsnr" v="620324" />
	</node>
	<node lat="63.65535164084936" lon="8.804600111542847" id="-87843">
		<tag k="alt_name" v="Breidvikdalen;Breivikdal" />
		<tag k="name" v="Breivikdalen" />
		<tag k="place" v="farm" />
		<tag k="ssr:stedsnr" v="620609" />
	</node>
	<node lat="63.66415830325496" lon="9.067429554553769" id="-87853">
		<tag k="name" v="Melkvika" />
		<tag k="place" v="hamlet" />
		<tag k="ssr:stedsnr" v="636089" />
	</node>
	<node lat="63.64576388606137" lon="9.127011104668354" id="-87859">
		<tag k="name" v="Botnvika" />
		<tag k="place" v="farm" />
		<tag k="ssr:stedsnr" v="636116" />
	</node>
	<node lat="63.648075978336884" lon="9.137507194496491" id="-87860">
		<tag k="fixme" v="consider place=hamlet" />
		<tag k="name" v="Nordbotn" />
		<tag k="place" v="farm" />
		<tag k="ssr:stedsnr" v="636129" />
	</node>
	<node lat="63.66643333265053" lon="9.145652782801486" id="-87862">
		<tag k="fixme" v="consider place=hamlet" />
		<tag k="name" v="Herøya" />
		<tag k="place" v="farm" />
		<tag k="ssr:stedsnr" v="636187" />
	</node>
	<node lat="63.64496944058252" lon="8.885713881147144" id="-87876">
		<tag k="name" v="Skåvikan" />
		<tag k="place" v="locality" />
		<tag k="ssr:stedsnr" v="636977" />
	</node>
	<node lat="63.62204166457222" lon="8.850538880589063" id="-87915">
		<tag k="amenity" v="school" />
		<tag k="name" v="Barman oppvekstsenter" />
		<tag k="ssr:stedsnr" v="709752" />
	</node>
	<node lat="63.57075000192111" lon="9.12941389878537" id="-87929">
		<tag k="name" v="Einmo" />
		<tag k="place" v="farm" />
		<tag k="ssr:stedsnr" v="680424" />
	</node>
	<node lat="63.582420492375086" lon="9.129801873834282" id="-87930">
		<tag k="fixme" v="consider place=hamlet" />
		<tag k="name" v="Utset" />
		<tag k="place" v="farm" />
		<tag k="ssr:stedsnr" v="680432" />
	</node>
	<node lat="63.59813889248022" lon="8.727994434597608" id="-87936">
		<tag k="alt_name" v="Minde" />
		<tag k="name" v="Margrethes Minde" />
		<tag k="old_name" v="Margretes Minne" />
		<tag k="place" v="isolated_dwelling" />
		<tag k="ssr:stedsnr" v="681308" />
	</node>
	<node lat="63.62411666661046" lon="9.112611117349603" id="-87946">
		<tag k="name" v="Nordsætra" />
		<tag k="place" v="farm" />
		<tag k="ssr:stedsnr" v="697004" />
	</node>
	<node lat="63.548944443329475" lon="8.449813896617623" id="-87948">
		<tag k="name" v="Faksvågmyra" />
		<tag k="place" v="farm" />
		<tag k="ssr:stedsnr" v="697015" />
	</node>
	<node lat="63.634319443399136" lon="9.14164167513333" id="-87963">
		<tag k="name" v="Fjellvær" />
		<tag k="place" v="farm" />
		<tag k="ssr:stedsnr" v="698018" />
	</node>
	<node lat="63.64775833156453" lon="8.742802781214959" id="-87964">
		<tag k="name" v="Myra" />
		<tag k="place" v="locality" />
		<tag k="ssr:stedsnr" v="697906" />
	</node>
	<node lat="63.65041944694615" lon="8.765302786257843" id="-87965">
		<tag k="name" v="Torvmyra" />
		<tag k="place" v="locality" />
		<tag k="ssr:stedsnr" v="697907" />
	</node>
	<node lat="63.56071666610687" lon="9.155413879412922" id="-87980">
		<tag k="name" v="Holbekkvika" />
		<tag k="place" v="farm" />
		<tag k="ssr:stedsnr" v="698276" />
	</node>
	<node lat="63.54073056007773" lon="9.148180553894996" id="-87987">
		<tag k="name" v="Sørstrand" />
		<tag k="place" v="farm" />
		<tag k="ssr:stedsnr" v="698364" />
	</node>
	<node lat="63.60578889176728" lon="8.628049997285503" id="-88012">
		<tag k="name" v="Gammelgården" />
		<tag k="place" v="farm" />
		<tag k="ssr:stedsnr" v="698908" />
	</node>
	<node lat="63.45497777502854" lon="9.154536113512272" id="-88026">
		<tag k="name" v="Neset" />
		<tag k="place" v="isolated_dwelling" />
		<tag k="ssr:stedsnr" v="700216" />
	</node>
	<node lat="63.51931944877377" lon="9.317311104351058" id="-88029">
		<tag k="alt_name" v="Djupåa" />
		<tag k="fixme" v="consider place=hamlet" />
		<tag k="name" v="Djupå" />
		<tag k="place" v="farm" />
		<tag k="ssr:stedsnr" v="700580" />
	</node>
	<node lat="63.49388333208776" lon="9.132202784321166" id="-88041">
		<tag k="alt_name" v="Hemnskjela skole;Hemnskjela barnehage" />
		<tag k="amenity" v="school" />
		<tag k="name" v="Hemnskjela oppvekstsenter" />
		<tag k="ssr:stedsnr" v="726579" />
	</node>
	<node lat="63.46127920275745" lon="8.327448744055534" id="-88048">
		<tag k="fixme" v="consider place=hamlet" />
		<tag k="name" v="Andersskogan" />
		<tag k="place" v="farm" />
		<tag k="ssr:stedsnr" v="740122" />
	</node>
	<node lat="63.49586944026331" lon="9.134636115640104" id="-88052">
		<tag k="name" v="Vollan" />
		<tag k="place" v="farm" />
		<tag k="ssr:stedsnr" v="740440" />
	</node>
	<node lat="63.49063117462587" lon="8.922953369668901" id="-88054">
		<tag k="fixme" v="consider place=hamlet" />
		<tag k="name" v="Olsvika" />
		<tag k="place" v="farm" />
		<tag k="ssr:stedsnr" v="740447" />
	</node>
	<node lat="63.455924998097316" lon="9.292655545744154" id="-88055">
		<tag k="name" v="Reitan" />
		<tag k="place" v="farm" />
		<tag k="ssr:stedsnr" v="740941" />
	</node>
	<node lat="63.449693156398155" lon="9.302842366819778" id="-88056">
		<tag k="fixme" v="consider place=hamlet" />
		<tag k="name" v="Stolpnes" />
		<tag k="place" v="farm" />
		<tag k="ssr:stedsnr" v="740943" />
	</node>
	<node lat="63.619632963476136" lon="8.837389600933081" id="-88060">
		<tag k="name" v="Bysting" />
		<tag k="place" v="farm" />
		<tag k="ssr:stedsnr" v="741407" />
	</node>
	<node lat="63.59173055425301" lon="8.864783323424085" id="-88062">
		<tag k="name" v="Tovdal" />
		<tag k="place" v="farm" />
		<tag k="ssr:stedsnr" v="741435" />
	</node>
	<node lat="63.59867222040028" lon="9.09672778471184" id="-88063">
		<tag k="name" v="Myra" />
		<tag k="place" v="farm" />
		<tag k="ssr:stedsnr" v="741443" />
	</node>
	<node lat="63.55620833319284" lon="9.143297226602199" id="-88066">
		<tag k="alt_name" v="Springarvika" />
		<tag k="name" v="Springarvik" />
		<tag k="place" v="farm" />
		<tag k="ssr:stedsnr" v="741494" />
	</node>
	<node lat="63.522446802817605" lon="9.095475420108691" id="-88069">
		<tag k="fixme" v="consider place=hamlet" />
		<tag k="name" v="Sandstad" />
		<tag k="place" v="village" />
		<tag k="ssr:stedsnr" v="741509" />
	</node>
	<node lat="63.52514721844796" lon="9.112783336608851" id="-88071">
		<tag k="name" v="Halten" />
		<tag k="place" v="farm" />
		<tag k="ssr:stedsnr" v="741592" />
	</node>
	<node lat="63.59652499745774" lon="8.55796388914367" id="-88086">
		<tag k="loc_name" v="Stamneset" />
		<tag k="name" v="Stamnes" />
		<tag k="place" v="farm" />
		<tag k="ssr:stedsnr" v="741934" />
	</node>
	<node lat="63.62155277826555" lon="8.691380554034902" id="-88087">
		<tag k="name" v="Svea" />
		<tag k="place" v="farm" />
		<tag k="ssr:stedsnr" v="741940" />
	</node>
	<node lat="63.64676944140059" lon="9.137597221576005" id="-88088">
		<tag k="fixme" v="consider place=hamlet" />
		<tag k="name" v="Nordbotn" />
		<tag k="place" v="village" />
		<tag k="ssr:stedsnr" v="753113" />
	</node>
	<node lat="63.54154166836101" lon="8.821636115035783" id="-88135">
		<tag k="name" v="Nybua" />
		<tag k="place" v="isolated_dwelling" />
		<tag k="ssr:stedsnr" v="758797" />
	</node>
	<node lat="63.552497223543945" lon="9.177322230114184" id="-88146">
		<tag k="alt_name" v="Langaunet" />
		<tag k="name" v="Strandaunet" />
		<tag k="place" v="farm" />
		<tag k="ssr:stedsnr" v="759411" />
	</node>
	<node lat="63.46756666637614" lon="9.28021944877282" id="-88159">
		<tag k="name" v="Sjøplassen" />
		<tag k="place" v="farm" />
		<tag k="ssr:stedsnr" v="761199" />
	</node>
	<node lat="63.46202317869845" lon="9.191797368140003" id="-88161">
		<tag k="alt_name" v="Østre Rottem" />
		<tag k="name" v="Rottem" />
		<tag k="place" v="farm" />
		<tag k="ssr:stedsnr" v="761214" />
	</node>
	<node lat="63.496999996278674" lon="9.182294438735811" id="-88164">
		<tag k="name" v="Urda" />
		<tag k="place" v="farm" />
		<tag k="ssr:stedsnr" v="761247" />
	</node>
	<node lat="63.460924996231505" lon="8.62093333292188" id="-88183">
		<tag k="name" v="Myra" />
		<tag k="place" v="farm" />
		<tag k="ssr:stedsnr" v="801093" />
	</node>
	<node lat="63.47901066385612" lon="8.762853399599324" id="-88187">
		<tag k="name" v="Vågen" />
		<tag k="place" v="farm" />
		<tag k="ssr:stedsnr" v="801471" />
	</node>
	<node lat="63.427088886708276" lon="8.473455548168484" id="-88191">
		<tag k="name" v="Trøa" />
		<tag k="place" v="farm" />
		<tag k="ssr:stedsnr" v="802088" />
	</node>
	<node lat="63.52575812199292" lon="9.289439863090033" id="-88194">
		<tag k="fixme" v="consider place=hamlet" />
		<tag k="name" v="Kamvika" />
		<tag k="place" v="farm" />
		<tag k="ssr:stedsnr" v="802176" />
	</node>
	<node lat="63.64506664689431" lon="8.83129608044945" id="-88195">
		<tag k="fixme" v="consider place=hamlet" />
		<tag k="name" v="Heggåsen" />
		<tag k="place" v="farm" />
		<tag k="ssr:stedsnr" v="802307" />
	</node>
	<node lat="63.59058055999164" lon="9.014205554121457" id="-88196">
		<tag k="alt_name" v="Storvika" />
		<tag k="name" v="Storvik" />
		<tag k="place" v="farm" />
		<tag k="ssr:stedsnr" v="802405" />
	</node>
	<node lat="63.58663888585977" lon="8.969977780886696" id="-88198">
		<tag k="fixme" v="consider place=hamlet" />
		<tag k="name" v="Skaget" />
		<tag k="place" v="farm" />
		<tag k="ssr:stedsnr" v="802410" />
	</node>
	<node lat="63.57950833151998" lon="8.818433338127607" id="-88200">
		<tag k="name" v="Snæringen" />
		<tag k="place" v="farm" />
		<tag k="ssr:stedsnr" v="802415" />
	</node>
	<node lat="63.55692221807301" lon="9.15594166621533" id="-88202">
		<tag k="name" v="Naustvika" />
		<tag k="place" v="farm" />
		<tag k="ssr:stedsnr" v="802471" />
	</node>
	<node lat="63.65428085048429" lon="8.807054269245052" id="-88208">
		<tag k="alt_name" v="Ekren;Ekra" />
		<tag k="name" v="Sollia" />
		<tag k="place" v="farm" />
		<tag k="ssr:stedsnr" v="802708" />
	</node>
	<node lat="63.54263774375613" lon="8.406673760426367" id="-88216">
		<tag k="name" v="Dønnesvika" />
		<tag k="place" v="farm" />
		<tag k="ssr:stedsnr" v="819125" />
	</node>
	<node lat="63.44445277443948" lon="8.369455548466535" id="-88227">
		<tag k="name" v="Nordaune" />
		<tag k="place" v="farm" />
		<tag k="ssr:stedsnr" v="819372" />
	</node>
	<node lat="63.45582778138505" lon="8.445969450386379" id="-88233">
		<tag k="name" v="Sandvasshytta" />
		<tag k="place" v="isolated_dwelling" />
		<tag k="ssr:stedsnr" v="819516" />
	</node>
	<node lat="63.61374999920937" lon="8.611463884857473" id="-88237">
		<tag k="name" v="Rognvik" />
		<tag k="place" v="farm" />
		<tag k="ssr:stedsnr" v="819421" />
	</node>
	<node lat="63.508855558028884" lon="8.310741674842475" id="-88246">
		<tag k="name" v="Nesa" />
		<tag k="place" v="farm" />
		<tag k="ssr:stedsnr" v="819703" />
	</node>
	<node lat="63.62232777602302" lon="8.858397227812798" id="-88259">
		<tag k="alt_name" v="Haranes" />
		<tag k="name" v="Haraneset" />
		<tag k="place" v="farm" />
		<tag k="ssr:stedsnr" v="819981" />
	</node>
	<node lat="63.523744448826825" lon="9.088647225321251" id="-88265">
		<tag k="name" v="Sandstaddalen" />
		<tag k="place" v="farm" />
		<tag k="ssr:stedsnr" v="820405" />
	</node>
	<node lat="63.64490045060361" lon="8.72661871272168" id="-88270">
		<tag k="name" v="Austen Bremvågan" />
		<tag k="place" v="farm" />
		<tag k="ssr:stedsnr" v="820569" />
	</node>
	<node lat="63.539374996805265" lon="9.418447221405456" id="-88282">
		<tag k="name" v="Einvika" />
		<tag k="place" v="farm" />
		<tag k="ssr:stedsnr" v="822066" />
	</node>
	<node lat="63.45863055356332" lon="9.285369436484581" id="-88290">
		<tag k="name" v="Furulund" />
		<tag k="place" v="farm" />
		<tag k="ssr:stedsnr" v="822645" />
	</node>
	<node lat="63.460475000050955" lon="9.184541669869347" id="-88300">
		<tag k="name" v="Rottemstrøa" />
		<tag k="place" v="farm" />
		<tag k="ssr:stedsnr" v="228697" />
	</node>
	<node lat="63.48363611511656" lon="8.824258329824398" id="-88301">
		<tag k="name" v="Furulund" />
		<tag k="place" v="farm" />
		<tag k="ssr:stedsnr" v="922439" />
	</node>
	<node lat="63.43640278062088" lon="8.54660000073694" id="-88302">
		<tag k="name" v="Bekkvikdalen" />
		<tag k="place" v="farm" />
		<tag k="ssr:stedsnr" v="923065" />
	</node>
	<node lat="63.64626111276164" lon="8.994811119623545" id="-88304">
		<tag k="alt_name" v="Sandvik" />
		<tag k="name" v="Sandvika" />
		<tag k="place" v="farm" />
		<tag k="ssr:stedsnr" v="923317" />
	</node>
	<node lat="63.61459999796705" lon="8.623750001921438" id="-88305">
		<tag k="alt_name" v="Skjelvika" />
		<tag k="name" v="Skjelvik" />
		<tag k="place" v="farm" />
		<tag k="ssr:stedsnr" v="923948" />
	</node>
	<node lat="63.62574166291121" lon="8.89309166974075" id="-88306">
		<tag k="alt_name" v="Sandås" />
		<tag k="name" v="Sandåsen" />
		<tag k="place" v="farm" />
		<tag k="ssr:stedsnr" v="923326" />
	</node>
	<node lat="63.63191110942357" lon="8.963250009639838" id="-88307">
		<tag k="name" v="Jevik" />
		<tag k="place" v="farm" />
		<tag k="ssr:stedsnr" v="923339" />
	</node>
	<node lat="63.57422221815936" lon="8.804388895433267" id="-88312">
		<tag k="name" v="Nordaunet" />
		<tag k="place" v="farm" />
		<tag k="ssr:stedsnr" v="923435" />
	</node>
	<node lat="63.56096944385056" lon="9.15791388596511" id="-88314">
		<tag k="name" v="Myrstad" />
		<tag k="place" v="farm" />
		<tag k="ssr:stedsnr" v="923462" />
	</node>
	<node lat="63.47378333360258" lon="9.174791675249836" id="-88316">
		<tag k="name" v="Rottemsvika" />
		<tag k="place" v="farm" />
		<tag k="ssr:stedsnr" v="923540" />
	</node>
	<node lat="63.52732500280394" lon="9.106900002723563" id="-88317">
		<tag k="name" v="Myreng" />
		<tag k="place" v="farm" />
		<tag k="ssr:stedsnr" v="923548" />
	</node>
	<node lat="63.53506111125619" lon="9.125974998272993" id="-88324">
		<tag k="name" v="Solset" />
		<tag k="place" v="farm" />
		<tag k="ssr:stedsnr" v="923500" />
	</node>
	<node lat="63.547291666597246" lon="9.158141665731588" id="-88325">
		<tag k="name" v="Skjervikdalen" />
		<tag k="place" v="farm" />
		<tag k="ssr:stedsnr" v="923512" />
	</node>
	<node lat="63.53858333765631" lon="8.403458329499001" id="-88332">
		<tag k="name" v="Vikan" />
		<tag k="place" v="farm" />
		<tag k="ssr:stedsnr" v="923597" />
	</node>
	<node lat="63.660839439005784" lon="9.088055427482974" id="-88336">
		<tag k="fixme" v="multiple name tags, choose one and add the other to alt_name; consider place=hamlet" />
		<tag k="name" v="Kjerbusdalen;Skjærbusdal" />
		<tag k="place" v="farm" />
		<tag k="ssr:stedsnr" v="923654" />
	</node>
	<node lat="63.65518333608755" lon="8.791655553278401" id="-88338">
		<tag k="alt_name" v="Strømsvika" />
		<tag k="name" v="Straumsvik" />
		<tag k="place" v="farm" />
		<tag k="ssr:stedsnr" v="923658" />
	</node>
	<node lat="63.64136666542161" lon="8.673863895430182" id="-88341">
		<tag k="name" v="Oløyan" />
		<tag k="place" v="farm" />
		<tag k="ssr:stedsnr" v="923971" />
	</node>
	<node lat="63.571247220605116" lon="8.66913056298886" id="-88343">
		<tag k="fixme" v="consider place=hamlet" />
		<tag k="name" v="Hofstad" />
		<tag k="place" v="farm" />
		<tag k="ssr:stedsnr" v="924550" />
	</node>
	<node lat="63.648022221243075" lon="8.759097216870806" id="-88345">
		<tag k="alt_name" v="Kjerringvåg, l" />
		<tag k="name" v="Litle Kjerringvåg" />
		<tag k="place" v="farm" />
		<tag k="ssr:stedsnr" v="924245" />
	</node>
	<node lat="63.48365833398213" lon="8.334919454124808" id="-88354">
		<tag k="name" v="Utenga" />
		<tag k="place" v="farm" />
		<tag k="ssr:stedsnr" v="862075" />
	</node>
	<node lat="63.54579722347719" lon="8.416447220849154" id="-88369">
		<tag k="alt_name" v="Skjelvika" />
		<tag k="name" v="Skjelvik" />
		<tag k="place" v="farm" />
		<tag k="ssr:stedsnr" v="863548" />
	</node>
	<node lat="63.54951388925823" lon="9.169422224798199" id="-88371">
		<tag k="name" v="Bukta" />
		<tag k="place" v="farm" />
		<tag k="ssr:stedsnr" v="863409" />
	</node>
	<node lat="63.5556055582535" lon="9.146677774414005" id="-88372">
		<tag k="name" v="Nordvika" />
		<tag k="place" v="farm" />
		<tag k="ssr:stedsnr" v="863410" />
	</node>
	<node lat="63.65733889309199" lon="9.119247230351833" id="-88376">
		<tag k="name" v="Bekkvika" />
		<tag k="place" v="farm" />
		<tag k="ssr:stedsnr" v="863651" />
	</node>
	<node lat="63.63353888677716" lon="9.130852778554111" id="-88381">
		<tag k="name" v="Stranda" />
		<tag k="place" v="hamlet" />
		<tag k="ssr:stedsnr" v="879010" />
	</node>
	<node lat="63.6046388853861" lon="8.62850555130841" id="-88419">
		<tag k="name" v="Innergården" />
		<tag k="place" v="farm" />
		<tag k="ssr:stedsnr" v="880915" />
	</node>
	<node lat="63.495827781730476" lon="8.93628889664659" id="-88462">
		<tag k="name" v="Skogstad" />
		<tag k="place" v="farm" />
		<tag k="ssr:stedsnr" v="922425" />
	</node>
	<node lat="63.61736944130028" lon="8.973436114522634" id="-88474">
		<tag k="alt_name" v="Kvernhusvik" />
		<tag k="name" v="Kvernhusvika" />
		<tag k="place" v="farm" />
		<tag k="ssr:stedsnr" v="923381" />
	</node>
	<node lat="63.62381110827533" lon="9.105505556044312" id="-88485">
		<tag k="alt_name" v="Mellomsæter" />
		<tag k="fixme" v="consider place=hamlet" />
		<tag k="name" v="Mellomsætra" />
		<tag k="place" v="farm" />
		<tag k="ssr:stedsnr" v="940002" />
	</node>
	<node lat="63.50100000253947" lon="9.25459443700324" id="-88497">
		<tag k="name" v="Pervika" />
		<tag k="place" v="farm" />
		<tag k="ssr:stedsnr" v="944179" />
	</node>
	<node lat="63.654751685528176" lon="8.80239729250685" id="-88501">
		<tag k="name" v="Breivika" />
		<tag k="place" v="farm" />
		<tag k="ssr:stedsnr" v="272865" />
	</node>
	<node lat="63.51390277450005" lon="9.295780554715494" id="-88502">
		<tag k="name" v="Vingvågen" />
		<tag k="place" v="neighbourhood" />
		<tag k="ssr:stedsnr" v="950149" />
	</node>
	<node lat="63.66496906867206" lon="9.077972676930145" id="-88503">
		<tag k="amenity" v="school" />
		<tag k="name" v="Knarrlagsund oppvekstsenter" />
		<tag k="ssr:stedsnr" v="952843" />
	</node>
	<node lat="63.511503067564" lon="8.29208867622776" id="-88508">
		<tag k="fixme" v="consider place=hamlet" />
		<tag k="name" v="Hakkbuan" />
		<tag k="place" v="farm" />
		<tag k="ssr:stedsnr" v="970982" />
	</node>
	<node lat="63.49513921460329" lon="9.271687459965987" id="-88545">
		<tag k="fixme" v="consider place=hamlet" />
		<tag k="name" v="Valslag" />
		<tag k="place" v="farm" />
		<tag k="ssr:stedsnr" v="12885" />
	</node>
	<node lat="63.55327125523917" lon="9.397171938642819" id="-88563">
		<tag k="fixme" v="consider place=hamlet" />
		<tag k="name" v="Kongensvollen" />
		<tag k="place" v="farm" />
		<tag k="ssr:stedsnr" v="13153" />
	</node>
	<node lat="63.62843055677524" lon="9.040091657446208" id="-88564">
		<tag k="name" v="Kjedalen" />
		<tag k="place" v="farm" />
		<tag k="ssr:stedsnr" v="13322" />
	</node>
	<node lat="63.622313915106254" lon="9.105081717231275" id="-88565">
		<tag k="name" v="Sætra" />
		<tag k="place" v="farm" />
		<tag k="ssr:stedsnr" v="13325" />
	</node>
	<node lat="63.63288888495364" lon="8.752686105962338" id="-88570">
		<tag k="name" v="Sørvågen" />
		<tag k="place" v="farm" />
		<tag k="ssr:stedsnr" v="13273" />
	</node>
	<node lat="63.63335000264186" lon="8.812680563773911" id="-88572">
		<tag k="name" v="Fjellheim" />
		<tag k="place" v="farm" />
		<tag k="ssr:stedsnr" v="13282" />
	</node>
	<node lat="63.63025277695305" lon="9.119555548571974" id="-88575">
		<tag k="name" v="Einvika" />
		<tag k="place" v="farm" />
		<tag k="ssr:stedsnr" v="13371" />
	</node>
	<node lat="63.620708336381746" lon="8.954994452774335" id="-88576">
		<tag k="name" v="Eidsvåg" />
		<tag k="place" v="farm" />
		<tag k="ssr:stedsnr" v="13373" />
	</node>
	<node lat="63.58969166538233" lon="8.976866664881975" id="-88578">
		<tag k="name" v="Smedvika" />
		<tag k="place" v="farm" />
		<tag k="ssr:stedsnr" v="13389" />
	</node>
	<node lat="63.54716388675526" lon="9.125727774821394" id="-88580">
		<tag k="name" v="Storvågen" />
		<tag k="place" v="farm" />
		<tag k="ssr:stedsnr" v="13491" />
	</node>
	<node lat="63.55238611536869" lon="8.552288881554885" id="-88592">
		<tag k="alt_name" v="Naustvika" />
		<tag k="name" v="Naustvik" />
		<tag k="place" v="farm" />
		<tag k="ssr:stedsnr" v="13551" />
	</node>
	<node lat="63.53356666753919" lon="8.421319444556365" id="-88595">
		<tag k="name" v="Melkstad" />
		<tag k="place" v="farm" />
		<tag k="ssr:stedsnr" v="13556" />
	</node>
	<node lat="63.596616663291385" lon="8.567313897422801" id="-88611">
		<tag k="name" v="Åsheim" />
		<tag k="place" v="isolated_dwelling" />
		<tag k="ssr:stedsnr" v="13896" />
	</node>
	<node lat="63.67295873639492" lon="9.104419696614643" id="-88613">
		<tag k="fixme" v="consider place=hamlet" />
		<tag k="loc_name" v="Selvågen" />
		<tag k="name" v="Selvågan" />
		<tag k="place" v="farm" />
		<tag k="ssr:stedsnr" v="25934" />
	</node>
	<node lat="63.614791665048095" lon="9.093113886977985" id="-88616">
		<tag k="alt_name" v="Stranda" />
		<tag k="name" v="Sørstranden" />
		<tag k="place" v="isolated_dwelling" />
		<tag k="ssr:stedsnr" v="30041" />
	</node>
	<node lat="63.46349722169328" lon="8.6373111023953" id="-88625">
		<tag k="name" v="Karvevollen" />
		<tag k="place" v="farm" />
		<tag k="ssr:stedsnr" v="30232" />
	</node>
	<node lat="63.66100555177169" lon="9.067047230327693" id="-88628">
		<tag k="name" v="Myra" />
		<tag k="place" v="farm" />
		<tag k="ssr:stedsnr" v="30093" />
	</node>
	<node lat="63.43396111205652" lon="8.415055555228259" id="-88639">
		<tag k="name" v="Reitan" />
		<tag k="place" v="farm" />
		<tag k="ssr:stedsnr" v="30324" />
	</node>
	<node lat="63.42666944127863" lon="8.477291668659655" id="-88646">
		<tag k="name" v="Berget" />
		<tag k="place" v="farm" />
		<tag k="ssr:stedsnr" v="30480" />
	</node>
	<node lat="63.61920556001727" lon="8.655080552948359" id="-88653">
		<tag k="name" v="Gautvika" />
		<tag k="place" v="farm" />
		<tag k="ssr:stedsnr" v="30562" />
	</node>
	<node lat="63.490341669638646" lon="8.265250001759492" id="-88655">
		<tag k="name" v="Posten" />
		<tag k="place" v="isolated_dwelling" />
		<tag k="ssr:stedsnr" v="30685" />
	</node>
	<node lat="63.56347777816286" lon="8.737852785394644" id="-88656">
		<tag k="name" v="Innlegget" />
		<tag k="place" v="farm" />
		<tag k="ssr:stedsnr" v="30789" />
	</node>
	<node lat="63.649386109582146" lon="8.749463886086906" id="-88658">
		<tag k="name" v="Bukta" />
		<tag k="place" v="locality" />
		<tag k="ssr:stedsnr" v="30893" />
	</node>
	<node lat="63.62371756772461" lon="8.727359518913618" id="-88662">
		<tag k="name" v="Klokkargården" />
		<tag k="place" v="farm" />
		<tag k="ssr:stedsnr" v="30599" />
	</node>
	<node lat="63.62234999823452" lon="8.930894444627652" id="-88673">
		<tag k="name" v="Eide" />
		<tag k="place" v="farm" />
		<tag k="ssr:stedsnr" v="30864" />
	</node>
	<node lat="63.559391670795215" lon="9.19570277113857" id="-88694">
		<tag k="name" v="Steinvik" />
		<tag k="place" v="farm" />
		<tag k="ssr:stedsnr" v="31329" />
	</node>
	<node lat="63.49861388947345" lon="9.117930546077247" id="-88705">
		<tag k="name" v="Hagan" />
		<tag k="place" v="farm" />
		<tag k="ssr:stedsnr" v="31651" />
	</node>
	<node lat="63.543250002634764" lon="9.153675002996389" id="-88741">
		<tag k="amenity" v="school" />
		<tag k="name" v="Strand oppvekstsenter" />
		<tag k="ssr:stedsnr" v="42835" />
	</node>
	<node lat="63.51960555642543" lon="9.286272212322167" id="-88743">
		<tag k="name" v="Vingan" />
		<tag k="place" v="farm" />
		<tag k="ssr:stedsnr" v="45854" />
	</node>
	<node lat="63.63931666855453" lon="8.82775832962239" id="-88763">
		<tag k="alt_name" v="Heggersvika" />
		<tag k="name" v="Heggesvik" />
		<tag k="place" v="farm" />
		<tag k="ssr:stedsnr" v="73275" />
	</node>
	<node lat="63.64091389146614" lon="8.799066667497918" id="-88764">
		<tag k="name" v="Stadsvik" />
		<tag k="place" v="farm" />
		<tag k="ssr:stedsnr" v="73277" />
	</node>
	<node lat="63.643686109383786" lon="8.832516675430508" id="-88766">
		<tag k="name" v="Trøa" />
		<tag k="place" v="farm" />
		<tag k="ssr:stedsnr" v="73282" />
	</node>
	<node lat="63.588510413052965" lon="9.013066303343338" id="-88767">
		<tag k="alt_name" v="Henningsvika" />
		<tag k="fixme" v="consider place=hamlet" />
		<tag k="name" v="Henningsvik" />
		<tag k="place" v="farm" />
		<tag k="ssr:stedsnr" v="73345" />
	</node>
	<node lat="63.64868055522692" lon="9.105377784670539" id="-88779">
		<tag k="alt_name" v="Tuvika" />
		<tag k="name" v="Tuvik" />
		<tag k="place" v="farm" />
		<tag k="ssr:stedsnr" v="74277" />
	</node>
	<node lat="63.50840000079018" lon="8.993408334262366" id="-88787">
		<tag k="name" v="Husberget" />
		<tag k="place" v="farm" />
		<tag k="ssr:stedsnr" v="74479" />
	</node>
	<node lat="63.6234499974443" lon="8.732633343193417" id="-88789">
		<tag k="alt_name" v="Øver Meland" />
		<tag k="name" v="Meland" />
		<tag k="place" v="farm" />
		<tag k="ssr:stedsnr" v="74312" />
	</node>
	<node lat="63.62165555936268" lon="8.852919452899187" id="-88790">
		<tag k="alt_name" v="Lyngvika" />
		<tag k="name" v="Lyngvik" />
		<tag k="place" v="farm" />
		<tag k="ssr:stedsnr" v="74345" />
	</node>
	<node lat="63.57627222240309" lon="8.807638891844256" id="-88791">
		<tag k="name" v="Asplia" />
		<tag k="place" v="farm" />
		<tag k="ssr:stedsnr" v="74350" />
	</node>
	<node lat="63.555575831308715" lon="8.514617562691308" id="-88798">
		<tag k="fixme" v="consider place=hamlet" />
		<tag k="name" v="Tømmervika" />
		<tag k="place" v="farm" />
		<tag k="ssr:stedsnr" v="74578" />
	</node>
	<node lat="63.558336112468524" lon="8.585347220392855" id="-88800">
		<tag k="alt_name" v="Håvik;Sørhåvika" />
		<tag k="name" v="Håvika" />
		<tag k="place" v="farm" />
		<tag k="ssr:stedsnr" v="74589" />
	</node>
	<node lat="63.66917222247044" lon="9.0505555574121" id="-88804">
		<tag k="name" v="Kjevika" />
		<tag k="place" v="farm" />
		<tag k="ssr:stedsnr" v="74676" />
	</node>
	<node lat="63.54564603800739" lon="8.55092140668286" id="-88807">
		<tag k="fixme" v="consider place=hamlet" />
		<tag k="name" v="Gryta" />
		<tag k="place" v="farm" />
		<tag k="ssr:stedsnr" v="74536" />
	</node>
	<node lat="63.649866670966915" lon="8.796397229108944" id="-88812">
		<tag k="fixme" v="consider place=hamlet" />
		<tag k="name" v="Jektvika" />
		<tag k="place" v="farm" />
		<tag k="ssr:stedsnr" v="74651" />
	</node>
	<node lat="63.605981131693525" lon="8.627202813594046" id="-88817">
		<tag k="fixme" v="consider place=hamlet" />
		<tag k="name" v="Småge" />
		<tag k="place" v="farm" />
		<tag k="ssr:stedsnr" v="74880" />
	</node>
	<node lat="63.585114936123" lon="8.605920006029853" id="-88819">
		<tag k="fixme" v="consider place=hamlet" />
		<tag k="name" v="Hestnes" />
		<tag k="place" v="farm" />
		<tag k="ssr:stedsnr" v="86998" />
	</node>
	<node lat="63.63439444341425" lon="9.052249997474133" id="-88824">
		<tag k="name" v="Stranda" />
		<tag k="place" v="farm" />
		<tag k="ssr:stedsnr" v="90195" />
	</node>
	<node lat="63.462491667617876" lon="8.626994443743309" id="-88825">
		<tag k="name" v="Brattåa" />
		<tag k="place" v="farm" />
		<tag k="ssr:stedsnr" v="90196" />
	</node>
	<node lat="63.64291944190309" lon="9.132425008635185" id="-88829">
		<tag k="name" v="Dammen" />
		<tag k="place" v="farm" />
		<tag k="ssr:stedsnr" v="90096" />
	</node>
	<node lat="63.51000555273319" lon="8.332172223861434" id="-88839">
		<tag k="name" v="Straumen" />
		<tag k="place" v="farm" />
		<tag k="ssr:stedsnr" v="90352" />
	</node>
	<node lat="63.582891934079406" lon="8.65741395129001" id="-88847">
		<tag k="fixme" v="consider place=hamlet" />
		<tag k="name" v="Asmundvåg" />
		<tag k="place" v="farm" />
		<tag k="ssr:stedsnr" v="90556" />
	</node>
	<node lat="63.49805000283296" lon="8.265077768060472" id="-88858">
		<tag k="name" v="Sæbuan" />
		<tag k="place" v="isolated_dwelling" />
		<tag k="ssr:stedsnr" v="90658" />
	</node>
	<node lat="63.67081666589457" lon="9.110311118306848" id="-88863">
		<tag k="name" v="Aukan" />
		<tag k="place" v="isolated_dwelling" />
		<tag k="ssr:stedsnr" v="91193" />
	</node>
	<node lat="63.42681111303194" lon="8.448922222967232" id="-88869">
		<tag k="name" v="Smalsvika" />
		<tag k="place" v="farm" />
		<tag k="ssr:stedsnr" v="91296" />
	</node>
	<node lat="63.535136755342776" lon="8.400518625056284" id="-88879">
		<tag k="amenity" v="school" />
		<tag k="name" v="Kvenvær oppvekstsenter" />
		<tag k="ssr:stedsnr" v="91439" />
	</node>
	<node lat="63.56434470493775" lon="8.73027946099871" id="-88896">
		<tag k="name" v="Haltvikhaugen" />
		<tag k="place" v="farm" />
		<tag k="ssr:stedsnr" v="91788" />
	</node>
	<node lat="63.523486109345676" lon="9.099372216022058" id="-88929">
		<tag k="name" v="Sandstad (Nordgården)" />
		<tag k="place" v="farm" />
		<tag k="ssr:stedsnr" v="92393" />
	</node>
	<node lat="63.49175833006721" lon="9.130180558718628" id="-88943">
		<tag k="name" v="Hamnabukta" />
		<tag k="place" v="farm" />
		<tag k="ssr:stedsnr" v="92639" />
	</node>
	<node lat="63.45477777566694" lon="9.293122226413022" id="-88968">
		<tag k="name" v="Fagervollen" />
		<tag k="place" v="farm" />
		<tag k="ssr:stedsnr" v="94638" />
	</node>
	<node lat="63.64830833128063" lon="8.796772224018603" id="-88974">
		<tag k="name" v="Øver Jektvika" />
		<tag k="place" v="farm" />
		<tag k="ssr:stedsnr" v="105706" />
	</node>
	<node lat="63.477766664231304" lon="8.747908332401217" id="-88976">
		<tag k="name" v="Oldervika" />
		<tag k="place" v="farm" />
		<tag k="ssr:stedsnr" v="108763" />
	</node>
	<node lat="63.457125001467574" lon="8.336755564362633" id="-88983">
		<tag k="name" v="Melkstad" />
		<tag k="place" v="farm" />
		<tag k="ssr:stedsnr" v="133097" />
	</node>
	<node lat="63.46910555866866" lon="9.275091669611449" id="-88987">
		<tag k="alt_name" v="Lian" />
		<tag k="name" v="Nordstua" />
		<tag k="place" v="farm" />
		<tag k="ssr:stedsnr" v="133983" />
	</node>
	<node lat="63.449680404566074" lon="9.244830822467511" id="-88990">
		<tag k="alt_name" v="Vågesæter" />
		<tag k="fixme" v="consider place=hamlet" />
		<tag k="name" v="Vågasætra" />
		<tag k="place" v="farm" />
		<tag k="ssr:stedsnr" v="133936" />
	</node>
	<node lat="63.43963751147838" lon="8.324379921409196" id="-88991">
		<tag k="fixme" v="consider place=hamlet" />
		<tag k="name" v="Lya" />
		<tag k="place" v="farm" />
		<tag k="ssr:stedsnr" v="134015" />
	</node>
	<node lat="63.439244445381874" lon="8.384313898274502" id="-88992">
		<tag k="name" v="Dalen" />
		<tag k="place" v="farm" />
		<tag k="ssr:stedsnr" v="134020" />
	</node>
	<node lat="63.6262388847218" lon="8.856549994630138" id="-89003">
		<tag k="name" v="Bekken" />
		<tag k="place" v="farm" />
		<tag k="ssr:stedsnr" v="134337" />
	</node>
	<node lat="63.62471667067818" lon="8.858594448139804" id="-89004">
		<tag k="alt_name" v="Breivika" />
		<tag k="name" v="Breivik" />
		<tag k="place" v="farm" />
		<tag k="ssr:stedsnr" v="134340" />
	</node>
	<node lat="63.563877001297186" lon="8.723511054182996" id="-89005">
		<tag k="name" v="Bjørnavika" />
		<tag k="place" v="farm" />
		<tag k="ssr:stedsnr" v="134426" />
	</node>
	<node lat="63.57071110792498" lon="9.16958888685528" id="-89006">
		<tag k="name" v="Valen" />
		<tag k="place" v="farm" />
		<tag k="ssr:stedsnr" v="134429" />
	</node>
	<node lat="63.5231194422719" lon="9.088611111475506" id="-89015">
		<tag k="name" v="Dalen" />
		<tag k="place" v="farm" />
		<tag k="ssr:stedsnr" v="134483" />
	</node>
	<node lat="63.5327138857347" lon="9.1328222322357" id="-89018">
		<tag k="alt_name" v="Nordset" />
		<tag k="fixme" v="multiple name tags, choose one and add the other to alt_name" />
		<tag k="name" v="Nordsett;Bukten" />
		<tag k="place" v="farm" />
		<tag k="ssr:stedsnr" v="134498" />
	</node>
	<node lat="63.53791944216333" lon="9.144091662940067" id="-89019">
		<tag k="alt_name" v="Melkvika" />
		<tag k="name" v="Melkvik" />
		<tag k="place" v="farm" />
		<tag k="ssr:stedsnr" v="134499" />
	</node>
	<node lat="63.509594448965665" lon="8.997527768411883" id="-89024">
		<tag k="name" v="Myrvang" />
		<tag k="place" v="farm" />
		<tag k="ssr:stedsnr" v="134527" />
	</node>
	<node lat="63.46247565426142" lon="9.18504972680154" id="-89026">
		<tag k="fixme" v="consider place=hamlet" />
		<tag k="name" v="Rottem" />
		<tag k="place" v="farm" />
		<tag k="ssr:stedsnr" v="134529" />
	</node>
	<node lat="63.529384751727584" lon="9.114558010209779" id="-89028">
		<tag k="alt_name" v="Moa" />
		<tag k="name" v="Sandstadmoen" />
		<tag k="place" v="farm" />
		<tag k="ssr:stedsnr" v="134546" />
	</node>
	<node lat="63.65008836108916" lon="8.778363805607118" id="-89045">
		<tag k="alt_name" v="Breidvoll" />
		<tag k="name" v="Breivoll" />
		<tag k="place" v="isolated_dwelling" />
		<tag k="ssr:stedsnr" v="134670" />
	</node>
	<node lat="63.653736114474356" lon="8.833327773920777" id="-89046">
		<tag k="name" v="Åsmyr" />
		<tag k="place" v="farm" />
		<tag k="ssr:stedsnr" v="134672" />
	</node>
	<node lat="63.51751944359844" lon="8.30959444836996" id="-89057">
		<tag k="fixme" v="consider place=hamlet" />
		<tag k="name" v="Brattvikan" />
		<tag k="place" v="farm" />
		<tag k="ssr:stedsnr" v="151424" />
	</node>
	<node lat="63.6482388885385" lon="8.762266673034256" id="-89062">
		<tag k="name" v="Litlkjerringvågen" />
		<tag k="place" v="locality" />
		<tag k="ssr:stedsnr" v="151894" />
	</node>
	<node lat="63.62019722394207" lon="9.101763880708653" id="-89064">
		<tag k="name" v="Sørsætra" />
		<tag k="place" v="farm" />
		<tag k="ssr:stedsnr" v="151038" />
	</node>
	<node lat="63.64723055604285" lon="9.127813898755447" id="-89067">
		<tag k="name" v="Snellvika" />
		<tag k="place" v="farm" />
		<tag k="ssr:stedsnr" v="151117" />
	</node>
	<node lat="63.639236107926315" lon="9.167258327223623" id="-89075">
		<tag k="alt_name" v="Bosvika" />
		<tag k="name" v="Båtsvika" />
		<tag k="place" v="farm" />
		<tag k="ssr:stedsnr" v="151146" />
	</node>
	<node lat="63.55986944501851" lon="8.750261101221204" id="-89120">
		<tag k="name" v="Øra" />
		<tag k="place" v="farm" />
		<tag k="ssr:stedsnr" v="151788" />
	</node>
	<node lat="63.61780555822017" lon="9.024380551869532" id="-89128">
		<tag k="name" v="Brøttingsvågen" />
		<tag k="place" v="farm" />
		<tag k="ssr:stedsnr" v="151834" />
	</node>
	<node lat="63.496827775161194" lon="8.953350006497534" id="-89159">
		<tag k="alt_name" v="Hamnavollen" />
		<tag k="name" v="Hamnavollan" />
		<tag k="place" v="farm" />
		<tag k="ssr:stedsnr" v="152492" />
	</node>
	<node lat="63.4708190808876" lon="8.672924778953648" id="-89168">
		<tag k="name" v="Dyrvika" />
		<tag k="place" v="farm" />
		<tag k="ssr:stedsnr" v="152694" />
	</node>
	<node lat="63.509680559848235" lon="9.244102768438085" id="-89174">
		<tag k="name" v="Olaneset" />
		<tag k="place" v="farm" />
		<tag k="ssr:stedsnr" v="153227" />
	</node>
	<node lat="63.45021666428489" lon="9.142199999509144" id="-89176">
		<tag k="name" v="Kuppelvika" />
		<tag k="place" v="isolated_dwelling" />
		<tag k="ssr:stedsnr" v="154033" />
	</node>
	<node lat="63.50058333196112" lon="9.185644447219957" id="-89185">
		<tag k="name" v="Raudvika" />
		<tag k="place" v="hamlet" />
		<tag k="ssr:stedsnr" v="154292" />
	</node>
	<node lat="63.61673055922029" lon="9.096961118861511" id="-89195">
		<tag k="name" v="Stranden" />
		<tag k="place" v="isolated_dwelling" />
		<tag k="ssr:stedsnr" v="273049" />
	</node>
	<node lat="63.45401111043339" lon="9.284672231145162" id="-89201">
		<tag k="name" v="Vågan" />
		<tag k="place" v="neighbourhood" />
		<tag k="ssr:stedsnr" v="177086" />
	</node>
	<node lat="63.47897499786419" lon="8.7442805535879" id="-89220">
		<tag k="alt_name" v="Furuvik" />
		<tag k="name" v="Furuvika" />
		<tag k="place" v="farm" />
		<tag k="ssr:stedsnr" v="194398" />
	</node>
	<node lat="63.49132977031867" lon="9.180894600037043" id="-89222">
		<tag k="fixme" v="consider place=hamlet" />
		<tag k="name" v="Sundan" />
		<tag k="place" v="farm" />
		<tag k="ssr:stedsnr" v="194404" />
	</node>
	<node lat="63.48667777479228" lon="9.137002779849318" id="-89223">
		<tag k="alt_name" v="Hamna" />
		<tag k="name" v="Hamn" />
		<tag k="place" v="farm" />
		<tag k="ssr:stedsnr" v="194407" />
	</node>
	<node lat="63.48140000069081" lon="8.781533325958959" id="-89227">
		<tag k="name" v="Lund" />
		<tag k="place" v="farm" />
		<tag k="ssr:stedsnr" v="194422" />
	</node>
	<node lat="63.46490555660443" lon="9.26646388187969" id="-89231">
		<tag k="alt_name" v="Moa" />
		<tag k="name" v="Moen" />
		<tag k="place" v="farm" />
		<tag k="ssr:stedsnr" v="194965" />
	</node>
	<node lat="63.43222221996219" lon="8.41516944597943" id="-89235">
		<tag k="fixme" v="consider place=hamlet" />
		<tag k="name" v="Forsnes" />
		<tag k="place" v="village" />
		<tag k="ssr:stedsnr" v="195016" />
	</node>
	<node lat="63.527725127247294" lon="9.324057585718789" id="-89243">
		<tag k="fixme" v="consider place=hamlet" />
		<tag k="name" v="Våberget" />
		<tag k="place" v="farm" />
		<tag k="ssr:stedsnr" v="195165" />
	</node>
	<node lat="63.46641320154337" lon="9.141823072012937" id="-89249">
		<tag k="fixme" v="consider place=hamlet" />
		<tag k="name" v="Fugløya" />
		<tag k="place" v="farm" />
		<tag k="ssr:stedsnr" v="195523" />
	</node>
	<node lat="63.64437778216476" lon="8.72275000050668" id="-89251">
		<tag k="alt_name" v="Sør Bremvågan" />
		<tag k="name" v="Bremvåg" />
		<tag k="place" v="farm" />
		<tag k="ssr:stedsnr" v="195312" />
	</node>
	<node lat="63.589269311306964" lon="8.864860227850528" id="-89255">
		<tag k="name" v="Haraneset" />
		<tag k="place" v="farm" />
		<tag k="ssr:stedsnr" v="195396" />
	</node>
	<node lat="63.56675022940167" lon="9.1374667616377" id="-89261">
		<tag k="fixme" v="consider place=hamlet" />
		<tag k="name" v="Neset" />
		<tag k="place" v="farm" />
		<tag k="ssr:stedsnr" v="195460" />
	</node>
	<node lat="63.498386109215794" lon="9.117694445422643" id="-89264">
		<tag k="name" v="Hagen" />
		<tag k="place" v="farm" />
		<tag k="ssr:stedsnr" v="195470" />
	</node>
	<node lat="63.66540000029499" lon="9.09140000756434" id="-89285">
		<tag k="name" v="Åkervika" />
		<tag k="place" v="hamlet" />
		<tag k="ssr:stedsnr" v="273159" />
	</node>
	<node lat="63.66443333477804" lon="9.103663893035884" id="-89291">
		<tag k="name" v="Sandvika" />
		<tag k="place" v="isolated_dwelling" />
		<tag k="ssr:stedsnr" v="212165" />
	</node>
	<node lat="63.633522218730235" lon="9.040711104397687" id="-89315">
		<tag k="name" v="Straumsvik" />
		<tag k="place" v="farm" />
		<tag k="ssr:stedsnr" v="212219" />
	</node>
	<node lat="63.63338333227979" lon="9.033808338745471" id="-89316">
		<tag k="name" v="Hagen" />
		<tag k="place" v="isolated_dwelling" />
		<tag k="ssr:stedsnr" v="212221" />
	</node>
	<node lat="63.5196861102398" lon="8.340430560678339" id="-89326">
		<tag k="alt_name" v="Bakken" />
		<tag k="name" v="Bakkan" />
		<tag k="place" v="farm" />
		<tag k="ssr:stedsnr" v="212382" />
	</node>
	<node lat="63.52161661974919" lon="8.329479663087131" id="-89327">
		<tag k="fixme" v="consider place=hamlet" />
		<tag k="name" v="Gjøssøya" />
		<tag k="place" v="farm" />
		<tag k="ssr:stedsnr" v="212384" />
	</node>
	<node lat="63.54771944058613" lon="8.440358337693093" id="-89329">
		<tag k="name" v="Jektvika" />
		<tag k="place" v="farm" />
		<tag k="ssr:stedsnr" v="212395" />
	</node>
	<node lat="63.52601389156472" lon="8.43328610196384" id="-89332">
		<tag k="name" v="Svanvika" />
		<tag k="place" v="farm" />
		<tag k="ssr:stedsnr" v="212420" />
	</node>
	<node lat="63.651655557361664" lon="8.766791670323492" id="-89364">
		<tag k="name" v="Tøfta" />
		<tag k="place" v="locality" />
		<tag k="ssr:stedsnr" v="212916" />
	</node>
	<node lat="63.595305559321" lon="9.098744434777354" id="-89377">
		<tag k="name" v="Litlulværet" />
		<tag k="place" v="farm" />
		<tag k="ssr:stedsnr" v="213063" />
	</node>
	<node lat="63.571711113410906" lon="9.144416663649766" id="-89380">
		<tag k="name" v="Litldrågen" />
		<tag k="place" v="farm" />
		<tag k="ssr:stedsnr" v="213322" />
	</node>
	<node lat="63.50856944254418" lon="9.005963888942704" id="-89385">
		<tag k="name" v="Elvemoa" />
		<tag k="place" v="farm" />
		<tag k="ssr:stedsnr" v="213337" />
	</node>
	<node lat="63.55649975406907" lon="9.39485987763356" id="-89402">
		<tag k="name" v="Bakken" />
		<tag k="place" v="farm" />
		<tag k="ssr:stedsnr" v="215240" />
	</node>
	<node lat="63.456702774095376" lon="9.230247224941268" id="-89420">
		<tag k="name" v="Sponvikfeltet" />
		<tag k="place" v="neighbourhood" />
		<tag k="ssr:stedsnr" v="222116" />
	</node>
	<node lat="63.56341944188777" lon="8.744108337648449" id="-89437">
		<tag k="name" v="Vestergården" />
		<tag k="place" v="farm" />
		<tag k="ssr:stedsnr" v="273796" />
	</node>
	<node lat="63.56423888929536" lon="8.742208336343328" id="-89438">
		<tag k="name" v="Myran" />
		<tag k="place" v="farm" />
		<tag k="ssr:stedsnr" v="273797" />
	</node>
	<node lat="63.62063333735804" lon="8.954997213902962" id="-89451">
		<tag k="name" v="Storvågen" />
		<tag k="place" v="farm" />
		<tag k="ssr:stedsnr" v="273864" />
	</node>
	<node lat="63.61204721993761" lon="8.741733340338175" id="-89461">
		<tag k="name" v="Tårnet" />
		<tag k="place" v="isolated_dwelling" />
		<tag k="ssr:stedsnr" v="273930" />
	</node>
	<node lat="63.58497222397296" lon="9.132100009721414" id="-89471">
		<tag k="name" v="Hallingmyra" />
		<tag k="place" v="farm" />
		<tag k="ssr:stedsnr" v="274050" />
	</node>
	<node lat="63.483713890316736" lon="8.764674998151074" id="-89520">
		<tag k="name" v="Myrset" />
		<tag k="place" v="farm" />
		<tag k="ssr:stedsnr" v="315434" />
	</node>
	<node lat="63.64638611309778" lon="9.11058055697645" id="-89529">
		<tag k="alt_name" v="Sørbotnen" />
		<tag k="name" v="Sørbotn" />
		<tag k="place" v="farm" />
		<tag k="ssr:stedsnr" v="316277" />
	</node>
	<node lat="63.63803333121058" lon="8.811841675808802" id="-89531">
		<tag k="name" v="Dammen" />
		<tag k="place" v="farm" />
		<tag k="ssr:stedsnr" v="316287" />
	</node>
	<node lat="63.51546389289277" lon="9.238961115855025" id="-89533">
		<tag k="alt_name" v="Valslagaunet" />
		<tag k="name" v="Aunet" />
		<tag k="place" v="farm" />
		<tag k="ssr:stedsnr" v="316183" />
	</node>
	<node lat="63.6226167496789" lon="8.930009000653936" id="-89537">
		<tag k="alt_name" v="Eide" />
		<tag k="fixme" v="consider place=hamlet" />
		<tag k="name" v="Eid" />
		<tag k="place" v="farm" />
		<tag k="ssr:stedsnr" v="316331" />
	</node>
	<node lat="63.629113889209904" lon="8.97796389816533" id="-89539">
		<tag k="name" v="Slåttavik" />
		<tag k="place" v="farm" />
		<tag k="ssr:stedsnr" v="316335" />
	</node>
	<node lat="63.570213893002204" lon="9.173372231944686" id="-89540">
		<tag k="name" v="Klungervika" />
		<tag k="old_name" v="Klugervik" />
		<tag k="place" v="farm" />
		<tag k="ssr:stedsnr" v="316433" />
	</node>
	<node lat="63.548680552267214" lon="9.13358055553357" id="-89545">
		<tag k="alt_name" v="Grønlia" />
		<tag k="name" v="Grønli" />
		<tag k="place" v="farm" />
		<tag k="ssr:stedsnr" v="316525" />
	</node>
	<node lat="63.61542777899403" lon="8.753647220809803" id="-89548">
		<tag k="name" v="Lauvåsen" />
		<tag k="place" v="farm" />
		<tag k="ssr:stedsnr" v="316390" />
	</node>
	<node lat="63.558059914900774" lon="9.192815732901678" id="-89549">
		<tag k="fixme" v="consider place=hamlet" />
		<tag k="name" v="Sætra" />
		<tag k="place" v="farm" />
		<tag k="ssr:stedsnr" v="316469" />
	</node>
	<node lat="63.558750000066645" lon="9.123202781452125" id="-89552">
		<tag k="name" v="Aunet" />
		<tag k="place" v="farm" />
		<tag k="ssr:stedsnr" v="316487" />
	</node>
	<node lat="63.64546111108099" lon="8.712138894640523" id="-89565">
		<tag k="alt_name" v="Mattesvika" />
		<tag k="name" v="Mattesvik" />
		<tag k="place" v="farm" />
		<tag k="ssr:stedsnr" v="316984" />
	</node>
	<node lat="63.457122219314996" lon="8.602250008225017" id="-89582">
		<tag k="name" v="Lund" />
		<tag k="place" v="farm" />
		<tag k="ssr:stedsnr" v="333257" />
	</node>
	<node lat="63.5981361108222" lon="9.027633333384443" id="-89586">
		<tag k="alt_name" v="Langvågen" />
		<tag k="name" v="Tranvikan" />
		<tag k="place" v="hamlet" />
		<tag k="ssr:stedsnr" v="333237" />
	</node>
	<node lat="63.45038611032485" lon="8.589252784724348" id="-89587">
		<tag k="name" v="Våttan" />
		<tag k="place" v="isolated_dwelling" />
		<tag k="ssr:stedsnr" v="333239" />
	</node>
	<node lat="63.64764835331969" lon="9.137835490317242" id="-89589">
		<tag k="name" v="Nordbotn" />
		<tag k="place" v="farm" />
		<tag k="ssr:stedsnr" v="333130" />
	</node>
	<node lat="63.65140000396461" lon="9.1541055589935" id="-89590">
		<tag k="name" v="Kvitsanden" />
		<tag k="place" v="farm" />
		<tag k="ssr:stedsnr" v="333136" />
	</node>
	<node lat="63.55730833252737" lon="8.492605555045365" id="-89592">
		<tag k="name" v="Berget" />
		<tag k="place" v="isolated_dwelling" />
		<tag k="ssr:stedsnr" v="334005" />
	</node>
	<node lat="63.63290833287227" lon="9.150824996850499" id="-89593">
		<tag k="name" v="Litlevågen" />
		<tag k="place" v="farm" />
		<tag k="ssr:stedsnr" v="334023" />
	</node>
	<node lat="63.621041664186336" lon="8.662013898996632" id="-89604">
		<tag k="name" v="Risnes" />
		<tag k="place" v="farm" />
		<tag k="ssr:stedsnr" v="333583" />
	</node>
	<node lat="63.63059444658796" lon="8.792250009673486" id="-89613">
		<tag k="name" v="Reitan" />
		<tag k="place" v="farm" />
		<tag k="ssr:stedsnr" v="333945" />
	</node>
	<node lat="63.63172222087991" lon="8.772719440026231" id="-89614">
		<tag k="name" v="Svennsgjerdet" />
		<tag k="place" v="farm" />
		<tag k="ssr:stedsnr" v="333961" />
	</node>
	<node lat="63.667469447545685" lon="9.092127787094208" id="-89627">
		<tag k="name" v="Selvågan" />
		<tag k="place" v="farm" />
		<tag k="ssr:stedsnr" v="334170" />
	</node>
	<node lat="63.431938887796335" lon="8.433141666034329" id="-89646">
		<tag k="name" v="Einskardet" />
		<tag k="place" v="isolated_dwelling" />
		<tag k="ssr:stedsnr" v="334265" />
	</node>
	<node lat="63.43261667013907" lon="8.414291664787696" id="-89651">
		<tag k="name" v="Reisa" />
		<tag k="place" v="farm" />
		<tag k="ssr:stedsnr" v="334282" />
	</node>
	<node lat="63.427397221652384" lon="8.462755553853057" id="-89673">
		<tag k="name" v="Trøa" />
		<tag k="place" v="farm" />
		<tag k="ssr:stedsnr" v="334469" />
	</node>
	<node lat="63.650372218073386" lon="8.759469442757926" id="-89675">
		<tag k="building" v="industrial" />
		<tag k="name" v="Dolmøy Slipp" />
		<tag k="ssr:stedsnr" v="334579" />
	</node>
	<node lat="63.5640527798091" lon="8.734861117744272" id="-89684">
		<tag k="name" v="Svendstrøa" />
		<tag k="old_name" v="Svensktrøa" />
		<tag k="place" v="farm" />
		<tag k="ssr:stedsnr" v="334759" />
	</node>
	<node lat="63.56340555959676" lon="8.752622217558637" id="-89685">
		<tag k="name" v="Nordgården" />
		<tag k="place" v="farm" />
		<tag k="ssr:stedsnr" v="334767" />
	</node>
	<node lat="63.49486111440211" lon="9.272566671948747" id="-89714">
		<tag k="building" v="commercial" />
		<tag k="name" v="Valslag bensinstasjon" />
		<tag k="ssr:stedsnr" v="342674" />
	</node>
	<node lat="63.5320583331027" lon="9.333775001358863" id="-89715">
		<tag k="name" v="Våberghatten" />
		<tag k="place" v="neighbourhood" />
		<tag k="ssr:stedsnr" v="343123" />
	</node>
	<node lat="63.65900000164478" lon="8.844286107921459" id="-89716">
		<tag k="name" v="Knutshaugen" />
		<tag k="place" v="farm" />
		<tag k="ssr:stedsnr" v="347724" />
	</node>
	<node lat="63.44926895765718" lon="8.35986302899573" id="-89734">
		<tag k="fixme" v="consider place=hamlet" />
		<tag k="name" v="Tunga" />
		<tag k="place" v="farm" />
		<tag k="ssr:stedsnr" v="376022" />
	</node>
	<node lat="63.467415224578396" lon="8.645715942346518" id="-89738">
		<tag k="alt_name" v="Åsheim" />
		<tag k="name" v="Kobbvika" />
		<tag k="place" v="farm" />
		<tag k="ssr:stedsnr" v="376100" />
	</node>
	<node lat="63.45912777529962" lon="8.607377773438781" id="-89739">
		<tag k="name" v="Kulviklia" />
		<tag k="place" v="farm" />
		<tag k="ssr:stedsnr" v="376106" />
	</node>
	<node lat="63.64621411478649" lon="9.053032623195717" id="-89742">
		<tag k="fixme" v="consider place=hamlet" />
		<tag k="name" v="Mastad" />
		<tag k="place" v="farm" />
		<tag k="ssr:stedsnr" v="376256" />
	</node>
	<node lat="63.59707222063401" lon="9.098133329370182" id="-89744">
		<tag k="fixme" v="multiple name tags, choose one and add the other to alt_name" />
		<tag k="name" v="Haugen;Ottersølan" />
		<tag k="place" v="farm" />
		<tag k="ssr:stedsnr" v="376387" />
	</node>
	<node lat="63.58593333583307" lon="9.012066666385886" id="-89745">
		<tag k="alt_name" v="Stokkvika" />
		<tag k="name" v="Stokkvik" />
		<tag k="place" v="farm" />
		<tag k="ssr:stedsnr" v="376352" />
	</node>
	<node lat="63.59283055433984" lon="8.969386120117042" id="-89746">
		<tag k="name" v="Leirvågan" />
		<tag k="place" v="farm" />
		<tag k="ssr:stedsnr" v="376359" />
	</node>
	<node lat="63.53561666758333" lon="9.13991667292316" id="-89750">
		<tag k="name" v="Badstuvika" />
		<tag k="place" v="farm" />
		<tag k="ssr:stedsnr" v="376467" />
	</node>
	<node lat="63.4915948274702" lon="9.278225381681859" id="-89754">
		<tag k="name" v="Osen" />
		<tag k="place" v="isolated_dwelling" />
		<tag k="ssr:stedsnr" v="376894" />
	</node>
	<node lat="63.49743333438545" lon="9.275819440264693" id="-89756">
		<tag k="name" v="Nyheim" />
		<tag k="place" v="farm" />
		<tag k="ssr:stedsnr" v="376906" />
	</node>
	<node lat="63.43243055619478" lon="8.5402944364281" id="-89761">
		<tag k="name" v="Værøysetra" />
		<tag k="place" v="farm" />
		<tag k="ssr:stedsnr" v="377052" />
	</node>
	<node lat="63.42878293372057" lon="8.47490175119113" id="-89762">
		<tag k="fixme" v="consider place=hamlet" />
		<tag k="name" v="Morvollan" />
		<tag k="place" v="farm" />
		<tag k="ssr:stedsnr" v="377060" />
	</node>
	<node lat="63.61303641254282" lon="8.880357597658971" id="-89766">
		<tag k="alt_name" v="Hammarstad" />
		<tag k="fixme" v="consider place=hamlet" />
		<tag k="name" v="Hammerstad" />
		<tag k="place" v="farm" />
		<tag k="ssr:stedsnr" v="377323" />
	</node>
	<node lat="63.63540232435786" lon="8.882503371547955" id="-89767">
		<tag k="fixme" v="consider place=hamlet" />
		<tag k="name" v="Kjølsøya" />
		<tag k="place" v="farm" />
		<tag k="ssr:stedsnr" v="377252" />
	</node>
	<node lat="63.62467776037711" lon="9.030625368701259" id="-89768">
		<tag k="fixme" v="consider place=hamlet" />
		<tag k="name" v="Akset" />
		<tag k="place" v="farm" />
		<tag k="ssr:stedsnr" v="377276" />
	</node>
	<node lat="63.63092777892565" lon="9.03537500889907" id="-89770">
		<tag k="alt_name" v="Fætten" />
		<tag k="fixme" v="consider place=hamlet" />
		<tag k="name" v="Feten" />
		<tag k="place" v="farm" />
		<tag k="ssr:stedsnr" v="377291" />
	</node>
	<node lat="63.633151397031966" lon="9.144953401545134" id="-89771">
		<tag k="fixme" v="consider place=hamlet" />
		<tag k="name" v="Fjellvær" />
		<tag k="place" v="farm" />
		<tag k="ssr:stedsnr" v="377297" />
	</node>
	<node lat="63.56487777584806" lon="8.77816111442304" id="-89773">
		<tag k="alt_name" v="Øver Sageidet" />
		<tag k="name" v="Sageidet" />
		<tag k="place" v="farm" />
		<tag k="ssr:stedsnr" v="377370" />
	</node>
	<node lat="63.566719443916234" lon="9.195800001833653" id="-89777">
		<tag k="name" v="Hestvika" />
		<tag k="place" v="hamlet" />
		<tag k="ssr:stedsnr" v="377411" />
	</node>
	<node lat="63.54571666469486" lon="8.425358338981711" id="-89780">
		<tag k="alt_name" v="Ottervika" />
		<tag k="name" v="Otervik" />
		<tag k="place" v="farm" />
		<tag k="ssr:stedsnr" v="377522" />
	</node>
	<node lat="63.57129444537488" lon="8.683044440455307" id="-89801">
		<tag k="name" v="Sundbu" />
		<tag k="place" v="isolated_dwelling" />
		<tag k="ssr:stedsnr" v="377563" />
	</node>
	<node lat="63.55134722398947" lon="8.470483335242418" id="-89803">
		<tag k="name" v="Stormyra" />
		<tag k="place" v="farm" />
		<tag k="ssr:stedsnr" v="377569" />
	</node>
	<node lat="63.674732103847255" lon="9.038837675469185" id="-89806">
		<tag k="fixme" v="consider place=hamlet" />
		<tag k="name" v="Ulvan" />
		<tag k="place" v="farm" />
		<tag k="ssr:stedsnr" v="377659" />
	</node>
	<node lat="63.506374998999405" lon="8.424383331023872" id="-89808">
		<tag k="alt_name" v="Munkedal" />
		<tag k="name" v="Munkdalen" />
		<tag k="place" v="farm" />
		<tag k="ssr:stedsnr" v="377699" />
	</node>
	<node lat="63.593749997015465" lon="8.575580559532847" id="-89810">
		<tag k="name" v="Strandheim" />
		<tag k="place" v="farm" />
		<tag k="ssr:stedsnr" v="377867" />
	</node>
	<node lat="63.593941668761914" lon="8.552338880322074" id="-89815">
		<tag k="alt_name" v="Stamnesvika" />
		<tag k="name" v="Stamnesvik" />
		<tag k="place" v="farm" />
		<tag k="ssr:stedsnr" v="377897" />
	</node>
	<node lat="63.54427499685325" lon="9.347777768424837" id="-89823">
		<tag k="name" v="Bystingen" />
		<tag k="place" v="farm" />
		<tag k="ssr:stedsnr" v="389160" />
	</node>
	<node lat="63.66428611190027" lon="9.080324992001813" id="-89845">
		<tag k="alt_name" v="Knarrlagsund" />
		<tag k="fixme" v="consider place=suburb, village or hamlet" />
		<tag k="name" v="Knarrlaget" />
		<tag k="place" v="quarter" />
		<tag k="ssr:stedsnr" v="394138" />
	</node>
	<node lat="63.58193333588141" lon="8.467363895776275" id="-89847">
		<tag k="name" v="Haugen" />
		<tag k="place" v="farm" />
		<tag k="ssr:stedsnr" v="394147" />
	</node>
	<node lat="63.62729166970507" lon="8.719302769417908" id="-89877">
		<tag k="alt_name" v="Hopsjø" />
		<tag k="name" v="Hopsjøen" />
		<tag k="place" v="hamlet" />
		<tag k="ssr:stedsnr" v="394525" />
	</node>
	<node lat="63.575583335625275" lon="8.642513882069043" id="-89892">
		<tag k="fixme" v="consider place=hamlet" />
		<tag k="name" v="Skipnes" />
		<tag k="place" v="farm" />
		<tag k="ssr:stedsnr" v="394771" />
	</node>
	<node lat="63.57339444453674" lon="8.652419439335976" id="-89893">
		<tag k="name" v="Trøa" />
		<tag k="place" v="farm" />
		<tag k="ssr:stedsnr" v="394775" />
	</node>
	<node lat="63.62031388565129" lon="8.94756944439489" id="-89897">
		<tag k="name" v="Litlvågen" />
		<tag k="place" v="farm" />
		<tag k="ssr:stedsnr" v="394854" />
	</node>
	<node lat="63.616870998918436" lon="8.847931643504527" id="-89910">
		<tag k="alt_name" v="Aune" />
		<tag k="name" v="Aunet" />
		<tag k="place" v="farm" />
		<tag k="ssr:stedsnr" v="394812" />
	</node>
	<node lat="63.507391664366125" lon="8.994027777474164" id="-89926">
		<tag k="name" v="Oldervika" />
		<tag k="place" v="farm" />
		<tag k="ssr:stedsnr" v="395358" />
	</node>
	<node lat="63.547880553750744" lon="9.202174995128678" id="-89930">
		<tag k="name" v="Midtigården" />
		<tag k="place" v="farm" />
		<tag k="ssr:stedsnr" v="395509" />
	</node>
	<node lat="63.62100833134137" lon="8.731783336233768" id="-89931">
		<tag k="building" v="industrial" />
		<tag k="name" v="Vaskeriet" />
		<tag k="ssr:stedsnr" v="395622" />
	</node>
	<node lat="63.49559721781932" lon="9.276572230292304" id="-89948">
		<tag k="name" v="Krommen" />
		<tag k="place" v="farm" />
		<tag k="ssr:stedsnr" v="397267" />
	</node>
	<node lat="63.54682499852172" lon="9.3580138951107" id="-89957">
		<tag k="name" v="Plassen" />
		<tag k="place" v="farm" />
		<tag k="ssr:stedsnr" v="397720" />
	</node>
	<node lat="63.55246162229467" lon="9.398132734288533" id="-89971">
		<tag k="name" v="Kongensvoll camping" />
		<tag k="ssr:stedsnr" v="423589" />
		<tag k="tourism" v="camp_site" />
	</node>
	<node lat="63.59666110934332" lon="9.065863884229225" id="-89974">
		<tag k="name" v="Kvernes" />
		<tag k="place" v="farm" />
		<tag k="ssr:stedsnr" v="437396" />
	</node>
	<node lat="63.476108330157516" lon="8.31972777233586" id="-89983">
		<tag k="name" v="Vika" />
		<tag k="place" v="farm" />
		<tag k="ssr:stedsnr" v="437083" />
	</node>
	<node lat="63.63276666393562" lon="8.759347214942728" id="-89992">
		<tag k="name" v="Vågen" />
		<tag k="place" v="farm" />
		<tag k="ssr:stedsnr" v="437276" />
	</node>
	<node lat="63.54279991589091" lon="8.407098227259896" id="-90007">
		<tag k="alt_name" v="Dønnesvik" />
		<tag k="name" v="Dønnesvika" />
		<tag k="place" v="isolated_dwelling" />
		<tag k="ssr:stedsnr" v="438523" />
	</node>
	<node lat="63.55145833162295" lon="9.127638888815646" id="-90010">
		<tag k="alt_name" v="Øverlian" />
		<tag k="name" v="Lian" />
		<tag k="place" v="farm" />
		<tag k="ssr:stedsnr" v="438162" />
	</node>
	<node lat="63.63791666907569" lon="8.879197226711058" id="-90013">
		<tag k="name" v="Kleiva" />
		<tag k="place" v="farm" />
		<tag k="ssr:stedsnr" v="438251" />
	</node>
	<node lat="63.63793333659597" lon="8.994408332855427" id="-90016">
		<tag k="fixme" v="consider place=suburb, village or hamlet" />
		<tag k="name" v="Ansnes" />
		<tag k="place" v="quarter" />
		<tag k="ssr:stedsnr" v="438286" />
	</node>
	<node lat="63.57910948329479" lon="9.00714919699467" id="-90018">
		<tag k="alt_name" v="Budalen" />
		<tag k="fixme" v="consider place=hamlet" />
		<tag k="name" v="Budal" />
		<tag k="place" v="farm" />
		<tag k="ssr:stedsnr" v="438391" />
	</node>
	<node lat="63.4743305581471" lon="8.724558331505065" id="-90021">
		<tag k="name" v="Sætra" />
		<tag k="place" v="farm" />
		<tag k="ssr:stedsnr" v="438450" />
	</node>
	<node lat="63.509800002219066" lon="9.030541665163007" id="-90023">
		<tag k="alt_name" v="Sætervika" />
		<tag k="name" v="Setervika" />
		<tag k="place" v="farm" />
		<tag k="ssr:stedsnr" v="438455" />
	</node>
	<node lat="63.513027775414194" lon="9.043144445874058" id="-90025">
		<tag k="alt_name" v="Hjertåsen" />
		<tag k="name" v="Hjertås" />
		<tag k="place" v="farm" />
		<tag k="ssr:stedsnr" v="438459" />
	</node>
	<node lat="63.47112777418361" lon="9.136769446006348" id="-90027">
		<tag k="alt_name" v="Nordgård" />
		<tag k="name" v="Nordgard" />
		<tag k="place" v="farm" />
		<tag k="ssr:stedsnr" v="438489" />
	</node>
	<node lat="63.53079999874881" lon="9.127405555860717" id="-90028">
		<tag k="alt_name" v="Nordvollan" />
		<tag k="name" v="Nordvollen" />
		<tag k="place" v="farm" />
		<tag k="ssr:stedsnr" v="438490" />
	</node>
	<node lat="63.62929999666139" lon="8.77501388696286" id="-90030">
		<tag k="name" v="Vassdal" />
		<tag k="place" v="farm" />
		<tag k="ssr:stedsnr" v="438307" />
	</node>
	<node lat="63.607919440701004" lon="8.884163879462676" id="-90031">
		<tag k="name" v="Dalen" />
		<tag k="place" v="farm" />
		<tag k="ssr:stedsnr" v="438319" />
	</node>
	<node lat="63.65569166936077" lon="8.846666669903769" id="-90038">
		<tag k="alt_name" v="Vollen" />
		<tag k="name" v="Vollan" />
		<tag k="place" v="farm" />
		<tag k="ssr:stedsnr" v="438661" />
	</node>
	<node lat="63.532463887169264" lon="8.39121943746946" id="-90039">
		<tag k="name" v="Kvenvær" />
		<tag k="place" v="hamlet" />
		<tag k="ssr:stedsnr" v="438532" />
	</node>
	<node lat="63.583250000027036" lon="8.651966667008464" id="-90043">
		<tag k="name" v="Bakkan" />
		<tag k="place" v="farm" />
		<tag k="ssr:stedsnr" v="438631" />
	</node>
	<node lat="63.47668611197548" lon="8.719091664704726" id="-90059">
		<tag k="name" v="Høgset" />
		<tag k="place" v="farm" />
		<tag k="ssr:stedsnr" v="497429" />
	</node>
	<node lat="63.45411944023916" lon="9.269349997329066" id="-90064">
		<tag k="name" v="Sørvågen" />
		<tag k="place" v="farm" />
		<tag k="ssr:stedsnr" v="497953" />
	</node>
	<node lat="63.46433055745874" lon="9.327063896147056" id="-90065">
		<tag k="name" v="Langneslia" />
		<tag k="place" v="farm" />
		<tag k="ssr:stedsnr" v="497964" />
	</node>
	<node lat="63.63725555432415" lon="8.799900007866977" id="-90075">
		<tag k="name" v="Kvernhusvika" />
		<tag k="place" v="hamlet" />
		<tag k="ssr:stedsnr" v="498308" />
	</node>
	<node lat="63.639447223865034" lon="8.816252773141379" id="-90077">
		<tag k="alt_name" v="Vassæter" />
		<tag k="name" v="Vassætra" />
		<tag k="old_name" v="Vass-sætera" />
		<tag k="place" v="farm" />
		<tag k="ssr:stedsnr" v="498315" />
	</node>
	<node lat="63.59950000378873" lon="9.08941389206125" id="-90080">
		<tag k="name" v="Kvalvik" />
		<tag k="place" v="farm" />
		<tag k="ssr:stedsnr" v="498435" />
	</node>
	<node lat="63.55541110777461" lon="9.132202780564725" id="-90090">
		<tag k="name" v="Lian" />
		<tag k="place" v="farm" />
		<tag k="ssr:stedsnr" v="498486" />
	</node>
	<node lat="63.50510555520035" lon="8.977619446104528" id="-90092">
		<tag k="alt_name" v="Sørakset" />
		<tag k="name" v="Akset" />
		<tag k="place" v="farm" />
		<tag k="ssr:stedsnr" v="498526" />
	</node>
	<node lat="63.59431111553542" lon="8.564550001739422" id="-90112">
		<tag k="name" v="Nygård" />
		<tag k="place" v="farm" />
		<tag k="ssr:stedsnr" v="498920" />
	</node>
	<node lat="63.62165555201831" lon="8.676955546705969" id="-90113">
		<tag k="name" v="Myra" />
		<tag k="place" v="farm" />
		<tag k="ssr:stedsnr" v="498921" />
	</node>
	<node lat="63.620755558504925" lon="8.925619439568095" id="-90120">
		<tag k="name" v="Eidsmo" />
		<tag k="place" v="farm" />
		<tag k="ssr:stedsnr" v="515847" />
	</node>
	<node lat="63.651433329512976" lon="9.142397224132829" id="-90126">
		<tag k="name" v="Stein" />
		<tag k="place" v="locality" />
		<tag k="ssr:stedsnr" v="515139" />
	</node>
	<node lat="63.64546146198119" lon="9.171624405150466" id="-90127">
		<tag k="fixme" v="consider place=hamlet" />
		<tag k="name" v="Reksa" />
		<tag k="place" v="farm" />
		<tag k="ssr:stedsnr" v="515255" />
	</node>
	<node lat="63.59417222187217" lon="8.97409444275241" id="-90129">
		<tag k="fixme" v="consider place=hamlet" />
		<tag k="name" v="Nordre Leirvågan" />
		<tag k="place" v="farm" />
		<tag k="ssr:stedsnr" v="515200" />
	</node>
	<node lat="63.5942944486284" lon="8.971052782098111" id="-90130">
		<tag k="fixme" v="consider place=hamlet" />
		<tag k="name" v="Haugen" />
		<tag k="place" v="farm" />
		<tag k="ssr:stedsnr" v="515201" />
	</node>
	<node lat="63.49674166590782" lon="8.26781388480331" id="-90140">
		<tag k="name" v="Klubben" />
		<tag k="place" v="isolated_dwelling" />
		<tag k="ssr:stedsnr" v="515674" />
	</node>
	<node lat="63.54755832983248" lon="8.443416662789444" id="-90171">
		<tag k="name" v="Faksvågsjøen" />
		<tag k="place" v="farm" />
		<tag k="ssr:stedsnr" v="516373" />
	</node>
	<node lat="63.50447499725041" lon="8.974405550888093" id="-90183">
		<tag k="name" v="Sollia" />
		<tag k="place" v="farm" />
		<tag k="ssr:stedsnr" v="516324" />
	</node>
	<node lat="63.54932222656771" lon="9.167458323708685" id="-90195">
		<tag k="name" v="Halten" />
		<tag k="place" v="farm" />
		<tag k="ssr:stedsnr" v="516450" />
	</node>
	<node lat="63.47642777950412" lon="8.73526667327234" id="-90198">
		<tag k="name" v="Skardet" />
		<tag k="place" v="farm" />
		<tag k="ssr:stedsnr" v="516645" />
	</node>
	<node lat="63.49298995189406" lon="8.925588892950294" id="-90199">
		<tag k="name" v="Tanderommet" />
		<tag k="place" v="locality" />
		<tag k="ssr:stedsnr" v="516357" />
	</node>
	<node lat="63.54879444577425" lon="9.201136118524554" id="-90203">
		<tag k="name" v="Yttergården" />
		<tag k="place" v="farm" />
		<tag k="ssr:stedsnr" v="516493" />
	</node>
	<node lat="63.56406110954819" lon="8.779977781912436" id="-90209">
		<tag k="name" v="Trøa" />
		<tag k="place" v="farm" />
		<tag k="ssr:stedsnr" v="516786" />
	</node>
	<node lat="63.61750833298009" lon="8.96707222642624" id="-90212">
		<tag k="name" v="Myra" />
		<tag k="place" v="farm" />
		<tag k="ssr:stedsnr" v="516840" />
	</node>
	<node lat="63.558477777897686" lon="8.584900007666084" id="-90221">
		<tag k="name" v="Sørhåvika" />
		<tag k="place" v="farm" />
		<tag k="ssr:stedsnr" v="516979" />
	</node>
	<node lat="63.510980559235776" lon="9.238441657673137" id="-90230">
		<tag k="name" v="Aunvika" />
		<tag k="place" v="farm" />
		<tag k="ssr:stedsnr" v="517208" />
	</node>
	<node lat="63.4588277763211" lon="9.230638879795006" id="-90243">
		<tag k="name" v="Rønningan" />
		<tag k="place" v="farm" />
		<tag k="ssr:stedsnr" v="518151" />
	</node>
	<node lat="63.54000555587058" lon="9.413802769443762" id="-90269">
		<tag k="name" v="Aunet" />
		<tag k="place" v="neighbourhood" />
		<tag k="ssr:stedsnr" v="525138" />
	</node>
	<node lat="63.49145555946214" lon="9.177855555623243" id="-90270">
		<tag k="name" v="Sundan hyttefelt" />
		<tag k="place" v="neighbourhood" />
		<tag k="ssr:stedsnr" v="525149" />
	</node>
	<node lat="63.429005556975255" lon="8.531788898017641" id="-90278">
		<tag k="name" v="Bekkvika" />
		<tag k="place" v="farm" />
		<tag k="ssr:stedsnr" v="558066" />
	</node>
	<node lat="63.63495037321456" lon="8.778854140535074" id="-90286">
		<tag k="fixme" v="consider place=hamlet" />
		<tag k="name" v="Vikstrøm" />
		<tag k="place" v="farm" />
		<tag k="ssr:stedsnr" v="558262" />
	</node>
	<node lat="63.631533335572975" lon="8.772675000559486" id="-90287">
		<tag k="name" v="Svensgjerdet" />
		<tag k="place" v="farm" />
		<tag k="ssr:stedsnr" v="558269" />
	</node>
	<node lat="63.57766110690375" lon="9.120947216232778" id="-90291">
		<tag k="name" v="Rønningen" />
		<tag k="place" v="farm" />
		<tag k="ssr:stedsnr" v="558419" />
	</node>
	<node lat="63.53153055338439" lon="9.121094452254104" id="-90300">
		<tag k="name" v="Lyngvoll" />
		<tag k="place" v="farm" />
		<tag k="ssr:stedsnr" v="558476" />
	</node>
	<node lat="63.49644444404518" lon="9.179852774513591" id="-90301">
		<tag k="fixme" v="consider place=hamlet" />
		<tag k="name" v="Sundan" />
		<tag k="place" v="village" />
		<tag k="ssr:stedsnr" v="558482" />
	</node>
	<node lat="63.452302775839904" lon="9.294441656896462" id="-90303">
		<tag k="name" v="Vågavika" />
		<tag k="place" v="farm" />
		<tag k="ssr:stedsnr" v="558959" />
	</node>
	<node lat="63.46877107909975" lon="9.275930942192197" id="-90304">
		<tag k="alt_name" v="Liasjøen" />
		<tag k="fixme" v="consider place=hamlet" />
		<tag k="name" v="Lian" />
		<tag k="place" v="farm" />
		<tag k="ssr:stedsnr" v="558969" />
	</node>
	<node lat="63.466961111021064" lon="9.279683323575714" id="-90305">
		<tag k="alt_name" v="Mortenstua" />
		<tag k="name" v="Libogen" />
		<tag k="place" v="farm" />
		<tag k="ssr:stedsnr" v="558972" />
	</node>
	<node lat="63.50776388497826" lon="9.243636119728588" id="-90313">
		<tag k="name" v="Stormyra" />
		<tag k="place" v="farm" />
		<tag k="ssr:stedsnr" v="559164" />
	</node>
	<node lat="63.61492058783101" lon="9.037267798838506" id="-90315">
		<tag k="fixme" v="consider place=hamlet" />
		<tag k="name" v="Heggvika" />
		<tag k="place" v="farm" />
		<tag k="ssr:stedsnr" v="559309" />
	</node>
	<node lat="63.57112499623082" lon="9.20341943561362" id="-90325">
		<tag k="fixme" v="consider place=hamlet" />
		<tag k="name" v="Børøya" />
		<tag k="place" v="farm" />
		<tag k="ssr:stedsnr" v="559356" />
	</node>
	<node lat="63.64780555360621" lon="8.998747225645998" id="-90333">
		<tag k="alt_name" v="Jektvik" />
		<tag k="name" v="Jektvika" />
		<tag k="place" v="farm" />
		<tag k="ssr:stedsnr" v="559662" />
	</node>
	<node lat="63.567405056267646" lon="8.535914054847392" id="-90338">
		<tag k="fixme" v="consider place=hamlet" />
		<tag k="name" v="Helgbustad" />
		<tag k="place" v="farm" />
		<tag k="ssr:stedsnr" v="559618" />
	</node>
	<node lat="63.51150833216235" lon="8.573063896520006" id="-90341">
		<tag k="name" v="Skumfossøra" />
		<tag k="place" v="farm" />
		<tag k="ssr:stedsnr" v="559717" />
	</node>
	<node lat="63.62736667063785" lon="8.711997216943267" id="-90345">
		<tag k="name" v="Fjellhaug" />
		<tag k="place" v="farm" />
		<tag k="ssr:stedsnr" v="559925" />
	</node>
	<node lat="63.62298055357038" lon="8.704838897611339" id="-90346">
		<tag k="name" v="Fredly" />
		<tag k="place" v="farm" />
		<tag k="ssr:stedsnr" v="559926" />
	</node>
	<node lat="63.620986109448225" lon="8.657719445484629" id="-90350">
		<tag k="name" v="Neset" />
		<tag k="place" v="farm" />
		<tag k="ssr:stedsnr" v="571996" />
	</node>
	<node lat="63.608337549019986" lon="8.887397163836317" id="-90351">
		<tag k="fixme" v="consider place=hamlet" />
		<tag k="name" v="Hammerstaddalen" />
		<tag k="place" v="farm" />
		<tag k="ssr:stedsnr" v="575765" />
	</node>
	<node lat="63.621105557205034" lon="8.8478416575676" id="-90352">
		<tag k="alt_name" v="Strømsnes;Straumsnes" />
		<tag k="name" v="Straumsvika" />
		<tag k="place" v="hamlet" />
		<tag k="ssr:stedsnr" v="575781" />
	</node>
	<node lat="63.637994440685866" lon="9.157538879372378" id="-90355">
		<tag k="name" v="Storvågen" />
		<tag k="place" v="farm" />
		<tag k="ssr:stedsnr" v="576017" />
	</node>
	<node lat="63.437513888267496" lon="8.566663888493302" id="-90367">
		<tag k="name" v="Atthammaren" />
		<tag k="place" v="farm" />
		<tag k="ssr:stedsnr" v="575234" />
	</node>
	<node lat="63.44931388674376" lon="8.585555561156164" id="-90370">
		<tag k="name" v="Stølan" />
		<tag k="place" v="farm" />
		<tag k="ssr:stedsnr" v="575626" />
	</node>
	<node lat="63.65478888877346" lon="8.798511103228062" id="-90377">
		<tag k="name" v="Haugen" />
		<tag k="place" v="locality" />
		<tag k="ssr:stedsnr" v="575872" />
	</node>
	<node lat="63.64913611139866" lon="8.755374990065665" id="-90378">
		<tag k="name" v="Fjæra" />
		<tag k="place" v="locality" />
		<tag k="ssr:stedsnr" v="575880" />
	</node>
	<node lat="63.65034722559772" lon="8.755108335573016" id="-90379">
		<tag k="name" v="Skaga" />
		<tag k="place" v="locality" />
		<tag k="ssr:stedsnr" v="575881" />
	</node>
	<node lat="63.635202775261945" lon="8.861052782228976" id="-90381">
		<tag k="fixme" v="consider place=hamlet" />
		<tag k="name" v="Øya" />
		<tag k="place" v="farm" />
		<tag k="ssr:stedsnr" v="575981" />
	</node>
	<node lat="63.51511388761187" lon="8.304800009680049" id="-90398">
		<tag k="name" v="Sørneset" />
		<tag k="place" v="farm" />
		<tag k="ssr:stedsnr" v="576407" />
	</node>
	<node lat="63.54416667023787" lon="8.41409167653994" id="-90401">
		<tag k="name" v="Bekken" />
		<tag k="place" v="farm" />
		<tag k="ssr:stedsnr" v="576108" />
	</node>
	<node lat="63.437591666890505" lon="8.391238893521137" id="-90403">
		<tag k="name" v="Øverdalen" />
		<tag k="place" v="farm" />
		<tag k="ssr:stedsnr" v="576240" />
	</node>
	<node lat="63.43636111131622" lon="8.388352776254019" id="-90404">
		<tag k="name" v="Nerdalen" />
		<tag k="place" v="farm" />
		<tag k="ssr:stedsnr" v="576242" />
	</node>
	<node lat="63.530178829743384" lon="8.385372685762775" id="-90417">
		<tag k="fixme" v="consider place=hamlet" />
		<tag k="name" v="Stein" />
		<tag k="place" v="farm" />
		<tag k="ssr:stedsnr" v="576440" />
	</node>
	<node lat="63.592849999586655" lon="9.079927774308015" id="-90432">
		<tag k="name" v="Ulvåg" />
		<tag k="place" v="farm" />
		<tag k="ssr:stedsnr" v="577041" />
	</node>
	<node lat="63.522777013299" lon="9.096029387404927" id="-90443">
		<tag k="fixme" v="consider place=hamlet" />
		<tag k="name" v="Sandstad" />
		<tag k="place" v="farm" />
		<tag k="ssr:stedsnr" v="577389" />
	</node>
	<node lat="63.49568055711293" lon="9.14776110600196" id="-90455">
		<tag k="name" v="Hemnskjelsjøen" />
		<tag k="place" v="farm" />
		<tag k="ssr:stedsnr" v="578034" />
	</node>
	<node lat="63.45874444896337" lon="9.193816666064443" id="-90467">
		<tag k="name" v="Skagadalen" />
		<tag k="place" v="isolated_dwelling" />
		<tag k="ssr:stedsnr" v="578166" />
	</node>
	<node lat="63.49295555873686" lon="9.104927775623509" id="-90482">
		<tag k="name" v="Kuppelvika" />
		<tag k="place" v="neighbourhood" />
		<tag k="ssr:stedsnr" v="585128" />
	</node>
	<node lat="63.522455558267644" lon="9.292149994820189" id="-90487">
		<tag k="name" v="Vingvågen" />
		<tag k="place" v="isolated_dwelling" />
		<tag k="ssr:stedsnr" v="591860" />
	</node>
	<node lat="63.496580551321046" lon="9.275033329723422" id="-90492">
		<tag k="leisure" v="pitch" />
		<tag k="name" v="Valslag fotballbane" />
		<tag k="ssr:stedsnr" v="604569" />
	</node>
	<node lat="63.48336389158898" lon="8.775858331112124" id="-90496">
		<tag k="alt_name" v="Lundamo" />
		<tag k="name" v="Lundemo" />
		<tag k="place" v="farm" />
		<tag k="ssr:stedsnr" v="618469" />
	</node>
	<node lat="63.581537175296866" lon="9.01631591549379" id="-90504">
		<tag k="fixme" v="consider place=hamlet" />
		<tag k="name" v="Skreddarvika" />
		<tag k="place" v="farm" />
		<tag k="ssr:stedsnr" v="619455" />
	</node>
	<node lat="63.42776110739091" lon="8.49353888577683" id="-90508">
		<tag k="name" v="Stokkvika" />
		<tag k="place" v="farm" />
		<tag k="ssr:stedsnr" v="619061" />
	</node>
	<node lat="63.532852776852046" lon="9.39107500546072" id="-90510">
		<tag k="name" v="Kvernavika" />
		<tag k="place" v="isolated_dwelling" />
		<tag k="ssr:stedsnr" v="619180" />
	</node>
	<node lat="63.498739107676094" lon="8.964532739371501" id="-90512">
		<tag k="fixme" v="consider place=hamlet" />
		<tag k="name" v="Hamna" />
		<tag k="place" v="farm" />
		<tag k="ssr:stedsnr" v="619501" />
	</node>
	<node lat="63.52956666568567" lon="9.108738894249335" id="-90515">
		<tag k="alt_name" v="Grønbakkan" />
		<tag k="name" v="Grønbakken" />
		<tag k="place" v="farm" />
		<tag k="ssr:stedsnr" v="619538" />
	</node>
	<node lat="63.531372220731484" lon="9.118377773552142" id="-90516">
		<tag k="name" v="Nordheim" />
		<tag k="place" v="farm" />
		<tag k="ssr:stedsnr" v="619540" />
	</node>
	<node lat="63.53014999948101" lon="9.121811116603634" id="-90517">
		<tag k="alt_name" v="Sørvollan" />
		<tag k="name" v="Sørvollen" />
		<tag k="place" v="farm" />
		<tag k="ssr:stedsnr" v="619541" />
	</node>
	<node lat="63.453827094306554" lon="9.278941651904887" id="-90526">
		<tag k="fixme" v="consider place=hamlet" />
		<tag k="name" v="Vågan" />
		<tag k="place" v="farm" />
		<tag k="ssr:stedsnr" v="619968" />
	</node>
	<node lat="63.60627499873633" lon="8.854511115172299" id="-90530">
		<tag k="name" v="Fausland" />
		<tag k="place" v="farm" />
		<tag k="ssr:stedsnr" v="620310" />
	</node>
	<node lat="63.622408331924774" lon="8.71448888911999" id="-90542">
		<tag k="name" v="Dalen" />
		<tag k="place" v="farm" />
		<tag k="ssr:stedsnr" v="620897" />
	</node>
	<node lat="63.64769444584766" lon="9.119472212869377" id="-90547">
		<tag k="fixme" v="consider place=hamlet" />
		<tag k="name" v="Jobotn" />
		<tag k="place" v="farm" />
		<tag k="ssr:stedsnr" v="636117" />
	</node>
	<node lat="63.55980257305066" lon="8.594862433009308" id="-90552">
		<tag k="alt_name" v="Nord Håvika;Nordhåvika" />
		<tag k="name" v="Håvika" />
		<tag k="place" v="farm" />
		<tag k="ssr:stedsnr" v="636984" />
	</node>
	<node lat="63.6318749968768" lon="9.04991111627192" id="-90557">
		<tag k="name" v="Gaddvika" />
		<tag k="place" v="farm" />
		<tag k="ssr:stedsnr" v="636241" />
	</node>
	<node lat="63.652150002780886" lon="8.77598334301724" id="-90571">
		<tag k="name" v="Kjerringvågsjøen" />
		<tag k="place" v="farm" />
		<tag k="ssr:stedsnr" v="636869" />
	</node>
	<node lat="63.64985833365994" lon="8.79639722826583" id="-90582">
		<tag k="name" v="Ner Jektvika" />
		<tag k="place" v="farm" />
		<tag k="ssr:stedsnr" v="636884" />
	</node>
	<node lat="63.65315833226464" lon="8.833672214892529" id="-90600">
		<tag k="name" v="Desmyra" />
		<tag k="place" v="farm" />
		<tag k="ssr:stedsnr" v="636990" />
	</node>
	<node lat="63.470186113653746" lon="8.321147222815714" id="-90607">
		<tag k="name" v="Ner Aunvågen" />
		<tag k="place" v="farm" />
		<tag k="ssr:stedsnr" v="637353" />
	</node>
	<node lat="63.53073210972891" lon="8.384699477741998" id="-90612">
		<tag k="name" v="Stein" />
		<tag k="place" v="farm" />
		<tag k="ssr:stedsnr" v="637440" />
	</node>
	<node lat="63.431161110643096" lon="8.426288890654874" id="-90629">
		<tag k="name" v="Engvika" />
		<tag k="place" v="farm" />
		<tag k="ssr:stedsnr" v="637317" />
	</node>
	<node lat="63.54760833587829" lon="9.16564167606033" id="-90636">
		<tag k="name" v="Kleiva" />
		<tag k="place" v="farm" />
		<tag k="ssr:stedsnr" v="637476" />
	</node>
	<node lat="63.46142453803739" lon="9.183806981574017" id="-90689">
		<tag k="alt_name" v="Vestre Rottem" />
		<tag k="name" v="Rottem" />
		<tag k="place" v="farm" />
		<tag k="ssr:stedsnr" v="657865" />
	</node>
	<node lat="63.60676111338812" lon="8.968788885299006" id="-90691">
		<tag k="name" v="Museumsplassen" />
		<tag k="place" v="square" />
		<tag k="ssr:stedsnr" v="665174" />
	</node>
	<node lat="63.60062222385487" lon="8.976497227490855" id="-90697">
		<tag k="name" v="Torget" />
		<tag k="place" v="square" />
		<tag k="ssr:stedsnr" v="726147" />
	</node>
	<node lat="63.48235000436325" lon="8.7641249905882" id="-90707">
		<tag k="name" v="Bakken" />
		<tag k="place" v="farm" />
		<tag k="ssr:stedsnr" v="740425" />
	</node>
	<node lat="63.49096944721503" lon="9.13018056431262" id="-90708">
		<tag k="alt_name" v="Hamnebukta;Vestre Hamnabukta" />
		<tag k="name" v="Hamnabukta" />
		<tag k="place" v="farm" />
		<tag k="ssr:stedsnr" v="740434" />
	</node>
	<node lat="63.53998610757765" lon="9.131027782030348" id="-90713">
		<tag k="name" v="Haugland" />
		<tag k="place" v="farm" />
		<tag k="ssr:stedsnr" v="741532" />
	</node>
	<node lat="63.46360277427215" lon="9.272786111580274" id="-90717">
		<tag k="name" v="Myrvang" />
		<tag k="place" v="farm" />
		<tag k="ssr:stedsnr" v="740966" />
	</node>
	<node lat="63.52388817906604" lon="9.325484954412037" id="-90727">
		<tag k="fixme" v="consider place=hamlet" />
		<tag k="name" v="Halsen" />
		<tag k="place" v="farm" />
		<tag k="ssr:stedsnr" v="741182" />
	</node>
	<node lat="63.62264999770318" lon="8.737425007605262" id="-90732">
		<tag k="name" v="Elva" />
		<tag k="place" v="farm" />
		<tag k="ssr:stedsnr" v="741361" />
	</node>
	<node lat="63.57688888518816" lon="9.132202773324734" id="-90735">
		<tag k="alt_name" v="Utset, s" />
		<tag k="fixme" v="multiple name tags, choose one and add the other to alt_name" />
		<tag k="name" v="Søre Utset;Utsetmyra" />
		<tag k="place" v="farm" />
		<tag k="ssr:stedsnr" v="741456" />
	</node>
	<node lat="63.572186112319976" lon="8.797816670700447" id="-90736">
		<tag k="name" v="Søraunet" />
		<tag k="place" v="farm" />
		<tag k="ssr:stedsnr" v="741464" />
	</node>
	<node lat="63.58552205776933" lon="8.604960949910714" id="-90764">
		<tag k="fixme" v="consider place=hamlet" />
		<tag k="name" v="Hestnes" />
		<tag k="place" v="village" />
		<tag k="ssr:stedsnr" v="741681" />
	</node>
	<node lat="63.50387224857435" lon="8.375863838377889" id="-90766">
		<tag k="fixme" v="consider place=hamlet" />
		<tag k="name" v="Snekkvika" />
		<tag k="place" v="farm" />
		<tag k="ssr:stedsnr" v="741774" />
	</node>
	<node lat="63.62917222540223" lon="8.68318612014951" id="-90768">
		<tag k="alt_name" v="Kongsneset" />
		<tag k="name" v="Kongsnes" />
		<tag k="place" v="farm" />
		<tag k="ssr:stedsnr" v="741954" />
	</node>
	<node lat="63.619244445248626" lon="8.651063891762911" id="-90769">
		<tag k="name" v="Strauman" />
		<tag k="place" v="farm" />
		<tag k="ssr:stedsnr" v="741966" />
	</node>
	<node lat="63.54266666952163" lon="8.420624993782894" id="-90785">
		<tag k="name" v="Haugen" />
		<tag k="place" v="farm" />
		<tag k="ssr:stedsnr" v="758128" />
	</node>
	<node lat="63.636222221538354" lon="9.164227778504909" id="-90803">
		<tag k="name" v="Lervika" />
		<tag k="place" v="farm" />
		<tag k="ssr:stedsnr" v="758165" />
	</node>
	<node lat="63.668400001793295" lon="9.052919442196501" id="-90806">
		<tag k="name" v="Trovågen" />
		<tag k="place" v="farm" />
		<tag k="ssr:stedsnr" v="758178" />
	</node>
	<node lat="63.66541111066451" lon="9.091400002916322" id="-90807">
		<tag k="fixme" v="consider place=suburb, village or hamlet" />
		<tag k="name" v="Kvalvika" />
		<tag k="place" v="quarter" />
		<tag k="ssr:stedsnr" v="758179" />
	</node>
	<node lat="63.676844448224884" lon="9.05243611797134" id="-90809">
		<tag k="name" v="Bakken" />
		<tag k="place" v="farm" />
		<tag k="ssr:stedsnr" v="758181" />
	</node>
	<node lat="63.663465175488625" lon="9.163853733311294" id="-90819">
		<tag k="name" v="Steinvik" />
		<tag k="place" v="isolated_dwelling" />
		<tag k="ssr:stedsnr" v="758294" />
	</node>
	<node lat="63.44773333159016" lon="8.418997225304915" id="-90821">
		<tag k="name" v="Kvitsandhytta" />
		<tag k="place" v="isolated_dwelling" />
		<tag k="ssr:stedsnr" v="758343" />
	</node>
	<node lat="63.42729166880041" lon="8.475072219241717" id="-90830">
		<tag k="name" v="Morvollan" />
		<tag k="place" v="farm" />
		<tag k="ssr:stedsnr" v="758525" />
	</node>
	<node lat="63.59858333148718" lon="8.865599991055557" id="-90853">
		<tag k="name" v="Øvervollen" />
		<tag k="place" v="farm" />
		<tag k="ssr:stedsnr" v="758785" />
	</node>
	<node lat="63.640972223493414" lon="8.798391670117265" id="-90879">
		<tag k="fixme" v="consider place=hamlet" />
		<tag k="name" v="Stakkvika" />
		<tag k="place" v="farm" />
		<tag k="ssr:stedsnr" v="758964" />
	</node>
	<node lat="63.56571111452026" lon="9.134052780960454" id="-90889">
		<tag k="name" v="Vilauet" />
		<tag k="place" v="farm" />
		<tag k="ssr:stedsnr" v="759277" />
	</node>
	<node lat="63.53681944602951" lon="9.129580553407965" id="-90891">
		<tag k="name" v="Flatåsen" />
		<tag k="place" v="farm" />
		<tag k="ssr:stedsnr" v="759474" />
	</node>
	<node lat="63.530508332267694" lon="9.128572216180407" id="-90893">
		<tag k="name" v="Plikten" />
		<tag k="place" v="farm" />
		<tag k="ssr:stedsnr" v="759343" />
	</node>
	<node lat="63.49330833736049" lon="8.93764166530235" id="-90896">
		<tag k="name" v="Tevika" />
		<tag k="place" v="isolated_dwelling" />
		<tag k="ssr:stedsnr" v="759438" />
	</node>
	<node lat="63.541255553479026" lon="9.424777769241382" id="-90907">
		<tag k="fixme" v="consider place=hamlet" />
		<tag k="name" v="Aune" />
		<tag k="place" v="farm" />
		<tag k="ssr:stedsnr" v="761083" />
	</node>
	<node lat="63.49006944529727" lon="9.28091667021803" id="-90924">
		<tag k="name" v="Valslag" />
		<tag k="place" v="neighbourhood" />
		<tag k="ssr:stedsnr" v="768122" />
	</node>
	<node lat="63.592859767815796" lon="8.969561492668737" id="-90930">
		<tag k="fixme" v="consider place=hamlet" />
		<tag k="name" v="Søre Leirvågan" />
		<tag k="place" v="farm" />
		<tag k="ssr:stedsnr" v="775489" />
	</node>
	<node lat="63.470238886232565" lon="8.329427787699235" id="-90938">
		<tag k="name" v="Hylla" />
		<tag k="place" v="farm" />
		<tag k="ssr:stedsnr" v="801062" />
	</node>
	<node lat="63.49637500158571" lon="9.129980559431074" id="-90942">
		<tag k="name" v="Grindvollan" />
		<tag k="place" v="farm" />
		<tag k="ssr:stedsnr" v="801431" />
	</node>
	<node lat="63.482088889059845" lon="8.828802778651164" id="-90945">
		<tag k="name" v="Vollan" />
		<tag k="place" v="farm" />
		<tag k="ssr:stedsnr" v="801468" />
	</node>
	<node lat="63.50049166238564" lon="9.163447228049236" id="-90948">
		<tag k="fixme" v="consider place=hamlet" />
		<tag k="name" v="Hemnskjela" />
		<tag k="place" v="village" />
		<tag k="ssr:stedsnr" v="802006" />
	</node>
	<node lat="63.56196388524599" lon="9.195324996425866" id="-90954">
		<tag k="name" v="Grindvika" />
		<tag k="place" v="hamlet" />
		<tag k="ssr:stedsnr" v="802489" />
	</node>
	<node lat="63.56532729858388" lon="9.129963961805506" id="-90956">
		<tag k="alt_name" v="Oldervika" />
		<tag k="fixme" v="consider place=hamlet" />
		<tag k="name" v="Oldervik" />
		<tag k="place" v="farm" />
		<tag k="ssr:stedsnr" v="802495" />
	</node>
	<node lat="63.56433671379083" lon="9.13099771522885" id="-90957">
		<tag k="fixme" v="consider place=hamlet" />
		<tag k="name" v="Rabben" />
		<tag k="place" v="farm" />
		<tag k="ssr:stedsnr" v="802496" />
	</node>
	<node lat="63.5519766593646" lon="9.371653153568106" id="-90963">
		<tag k="fixme" v="consider place=hamlet" />
		<tag k="name" v="Sjursvika" />
		<tag k="place" v="farm" />
		<tag k="ssr:stedsnr" v="802165" />
	</node>
	<node lat="63.625838890053664" lon="8.851850009503751" id="-90965">
		<tag k="name" v="Myra" />
		<tag k="place" v="farm" />
		<tag k="ssr:stedsnr" v="802319" />
	</node>
	<node lat="63.62659709254324" lon="9.112440078612478" id="-90966">
		<tag k="fixme" v="consider place=hamlet" />
		<tag k="name" v="Nordsætra" />
		<tag k="place" v="farm" />
		<tag k="ssr:stedsnr" v="802336" />
	</node>
	<node lat="63.632480554294304" lon="9.056383337711445" id="-90968">
		<tag k="alt_name" v="Vågan" />
		<tag k="name" v="Vågen" />
		<tag k="place" v="farm" />
		<tag k="ssr:stedsnr" v="802347" />
	</node>
	<node lat="63.581643089133756" lon="8.965727867770006" id="-90975">
		<tag k="fixme" v="consider place=hamlet" />
		<tag k="name" v="Valen" />
		<tag k="place" v="farm" />
		<tag k="ssr:stedsnr" v="802460" />
	</node>
	<node lat="63.513822222295815" lon="9.046019446517404" id="-90976">
		<tag k="name" v="Solbakken" />
		<tag k="place" v="farm" />
		<tag k="ssr:stedsnr" v="802538" />
	</node>
	<node lat="63.50764722224842" lon="9.006066668262438" id="-90977">
		<tag k="name" v="Kvernavika" />
		<tag k="place" v="farm" />
		<tag k="ssr:stedsnr" v="802539" />
	</node>
	<node lat="63.51766944881393" lon="9.081763881440992" id="-90981">
		<tag k="alt_name" v="Hatlan" />
		<tag k="name" v="Haltland" />
		<tag k="place" v="farm" />
		<tag k="ssr:stedsnr" v="802551" />
	</node>
	<node lat="63.51748332945371" lon="8.993105559380648" id="-90982">
		<tag k="alt_name" v="Englia" />
		<tag k="name" v="Engli" />
		<tag k="place" v="farm" />
		<tag k="ssr:stedsnr" v="802559" />
	</node>
	<node lat="63.55067500314322" lon="8.538811119914365" id="-90983">
		<tag k="name" v="Langdalen" />
		<tag k="place" v="farm" />
		<tag k="ssr:stedsnr" v="802632" />
	</node>
	<node lat="63.548103557948394" lon="8.453119817416802" id="-90996">
		<tag k="fixme" v="consider place=hamlet" />
		<tag k="name" v="Faksvåg" />
		<tag k="place" v="farm" />
		<tag k="ssr:stedsnr" v="802598" />
	</node>
	<node lat="63.665671724585195" lon="9.147002995715932" id="-91002">
		<tag k="name" v="Herøya" />
		<tag k="place" v="farm" />
		<tag k="ssr:stedsnr" v="802696" />
	</node>
	<node lat="63.641672224479386" lon="8.69451389663526" id="-91003">
		<tag k="name" v="Hallarvika" />
		<tag k="place" v="farm" />
		<tag k="ssr:stedsnr" v="802984" />
	</node>
	<node lat="63.61322513033892" lon="8.631400435828635" id="-91007">
		<tag k="fixme" v="consider place=hamlet" />
		<tag k="name" v="Smågasjøen" />
		<tag k="place" v="farm" />
		<tag k="ssr:stedsnr" v="802950" />
	</node>
	<node lat="63.648050000626185" lon="8.756169438922111" id="-91022">
		<tag k="name" v="Bakkan" />
		<tag k="place" v="locality" />
		<tag k="ssr:stedsnr" v="819896" />
	</node>
	<node lat="63.6742027786655" lon="9.053100001949785" id="-91042">
		<tag k="name" v="Sommerstad" />
		<tag k="place" v="farm" />
		<tag k="ssr:stedsnr" v="819161" />
	</node>
	<node lat="63.666633330673406" lon="9.106891667287906" id="-91045">
		<tag k="name" v="Kjønnvika" />
		<tag k="place" v="isolated_dwelling" />
		<tag k="ssr:stedsnr" v="819177" />
	</node>
	<node lat="63.57384166338291" lon="8.462449996941272" id="-91051">
		<tag k="name" v="Haugen" />
		<tag k="place" v="farm" />
		<tag k="ssr:stedsnr" v="819207" />
	</node>
	<node lat="63.430386111050005" lon="8.432697231906406" id="-91057">
		<tag k="name" v="Auster Engvika" />
		<tag k="place" v="farm" />
		<tag k="ssr:stedsnr" v="819322" />
	</node>
	<node lat="63.429969448599785" lon="8.411544438217243" id="-91058">
		<tag k="name" v="Gullsvika" />
		<tag k="place" v="farm" />
		<tag k="ssr:stedsnr" v="819332" />
	</node>
	<node lat="63.45054166304057" lon="8.358427787561125" id="-91060">
		<tag k="name" v="Tunga" />
		<tag k="place" v="farm" />
		<tag k="ssr:stedsnr" v="819349" />
	</node>
	<node lat="63.53396666678348" lon="8.393236116535785" id="-91063">
		<tag k="name" v="Båtvika" />
		<tag k="place" v="farm" />
		<tag k="ssr:stedsnr" v="819445" />
	</node>
	<node lat="63.53594721841271" lon="8.402327776305674" id="-91064">
		<tag k="name" v="Vikan" />
		<tag k="place" v="hamlet" />
		<tag k="ssr:stedsnr" v="819449" />
	</node>
	<node lat="63.62390833442051" lon="8.699308323331227" id="-91071">
		<tag k="name" v="Ner Bårbukta" />
		<tag k="place" v="locality" />
		<tag k="ssr:stedsnr" v="819546" />
	</node>
	<node lat="63.53955277461002" lon="8.424361111690295" id="-91091">
		<tag k="name" v="Asskogan" />
		<tag k="place" v="farm" />
		<tag k="ssr:stedsnr" v="819859" />
	</node>
	<node lat="63.63758611045454" lon="8.993469450762209" id="-91092">
		<tag k="name" v="Neset" />
		<tag k="place" v="farm" />
		<tag k="ssr:stedsnr" v="819861" />
	</node>
	<node lat="63.511658331672145" lon="9.08379166390877" id="-91110">
		<tag k="name" v="Myraplassen" />
		<tag k="place" v="isolated_dwelling" />
		<tag k="ssr:stedsnr" v="820300" />
	</node>
	<node lat="63.55836944498588" lon="9.127544449423038" id="-91114">
		<tag k="name" v="Fosshaugen" />
		<tag k="place" v="farm" />
		<tag k="ssr:stedsnr" v="820263" />
	</node>
	<node lat="63.49635000146248" lon="9.273663879024973" id="-91141">
		<tag k="name" v="Østre Valslag" />
		<tag k="place" v="farm" />
		<tag k="ssr:stedsnr" v="822286" />
	</node>
	<node lat="63.42861475853752" lon="8.474805805095246" id="-91150">
		<tag k="name" v="Morvollan" />
		<tag k="place" v="farm" />
		<tag k="ssr:stedsnr" v="833721" />
	</node>
	<node lat="63.50175555610229" lon="9.187480561698864" id="-91153">
		<tag k="name" v="Raudvika" />
		<tag k="place" v="farm" />
		<tag k="ssr:stedsnr" v="834896" />
	</node>
	<node lat="63.49029999967269" lon="8.265302779875281" id="-91164">
		<tag k="name" v="Posten" />
		<tag k="place" v="farm" />
		<tag k="ssr:stedsnr" v="862098" />
	</node>
	<node lat="63.632319442065025" lon="8.783325008599776" id="-91175">
		<tag k="name" v="Øvre Vikstrøm" />
		<tag k="place" v="farm" />
		<tag k="ssr:stedsnr" v="862282" />
	</node>
	<node lat="63.594533328887174" lon="9.10908889042261" id="-91177">
		<tag k="name" v="Ulvvær" />
		<tag k="place" v="farm" />
		<tag k="ssr:stedsnr" v="862378" />
	</node>
	<node lat="63.55087777511792" lon="8.455963889728167" id="-91179">
		<tag k="alt_name" v="Holvika" />
		<tag k="name" v="Holvik" />
		<tag k="place" v="farm" />
		<tag k="ssr:stedsnr" v="862573" />
	</node>
	<node lat="63.56429166491947" lon="8.615216659647203" id="-91180">
		<tag k="alt_name" v="Hammarvika" />
		<tag k="name" v="Hammarvik" />
		<tag k="place" v="farm" />
		<tag k="ssr:stedsnr" v="862575" />
	</node>
	<node lat="63.50011967340847" lon="8.34009991498472" id="-91183">
		<tag k="alt_name" v="Hærnes" />
		<tag k="fixme" v="consider place=hamlet" />
		<tag k="name" v="Hernes" />
		<tag k="place" v="farm" />
		<tag k="ssr:stedsnr" v="862730" />
	</node>
	<node lat="63.51839293839351" lon="9.244823358865967" id="-91187">
		<tag k="alt_name" v="Halten" />
		<tag k="fixme" v="consider place=hamlet" />
		<tag k="name" v="Hatten" />
		<tag k="place" v="farm" />
		<tag k="ssr:stedsnr" v="863157" />
	</node>
	<node lat="63.51634435325489" lon="9.281891224828986" id="-91188">
		<tag k="fixme" v="consider place=hamlet" />
		<tag k="name" v="Vingan" />
		<tag k="place" v="farm" />
		<tag k="ssr:stedsnr" v="863158" />
	</node>
	<node lat="63.629086106969396" lon="8.73191667341324" id="-91189">
		<tag k="alt_name" v="Melandsjø" />
		<tag k="fixme" v="consider place=hamlet" />
		<tag k="name" v="Melandsjøen" />
		<tag k="place" v="village" />
		<tag k="ssr:stedsnr" v="863301" />
	</node>
	<node lat="63.576822221449675" lon="8.816758333986588" id="-91194">
		<tag k="name" v="Sætra" />
		<tag k="place" v="farm" />
		<tag k="ssr:stedsnr" v="863351" />
	</node>
	<node lat="63.60039197829429" lon="8.860745801427882" id="-91195">
		<tag k="fixme" v="consider place=hamlet" />
		<tag k="name" v="Vollen" />
		<tag k="place" v="farm" />
		<tag k="ssr:stedsnr" v="863357" />
	</node>
	<node lat="63.60220000345374" lon="8.861466666609902" id="-91196">
		<tag k="name" v="Solbakken" />
		<tag k="place" v="farm" />
		<tag k="ssr:stedsnr" v="863360" />
	</node>
	<node lat="63.45061389331789" lon="9.149363893463258" id="-91198">
		<tag k="alt_name" v="Aunet" />
		<tag k="name" v="Kammen" />
		<tag k="place" v="farm" />
		<tag k="ssr:stedsnr" v="863383" />
	</node>
	<node lat="63.628387402612674" lon="8.850976536645486" id="-91202">
		<tag k="name" v="Barman" />
		<tag k="place" v="farm" />
		<tag k="ssr:stedsnr" v="863272" />
	</node>
	<node lat="63.6309311764514" lon="8.90021110383546" id="-91203">
		<tag k="fixme" v="consider place=hamlet" />
		<tag k="name" v="Gløstad" />
		<tag k="place" v="farm" />
		<tag k="ssr:stedsnr" v="863276" />
	</node>
	<node lat="63.54170678493963" lon="9.150463298605603" id="-91205">
		<tag k="fixme" v="consider place=hamlet" />
		<tag k="name" v="Strand" />
		<tag k="place" v="farm" />
		<tag k="ssr:stedsnr" v="863473" />
	</node>
	<node lat="63.475575001973944" lon="8.729600002436193" id="-91206">
		<tag k="name" v="Sundlia" />
		<tag k="place" v="farm" />
		<tag k="ssr:stedsnr" v="863479" />
	</node>
	<node lat="63.644190445290455" lon="8.704387895517447" id="-91210">
		<tag k="name" v="Øya" />
		<tag k="place" v="farm" />
		<tag k="ssr:stedsnr" v="863973" />
	</node>
	<node lat="63.63185502963295" lon="8.658585731792671" id="-91221">
		<tag k="fixme" v="consider place=hamlet" />
		<tag k="name" v="Hjertøya" />
		<tag k="place" v="farm" />
		<tag k="ssr:stedsnr" v="863940" />
	</node>
	<node lat="63.5559722181366" lon="8.524627787804246" id="-91231">
		<tag k="name" v="Vikern" />
		<tag k="place" v="farm" />
		<tag k="ssr:stedsnr" v="879636" />
	</node>
	<node lat="63.6491694461906" lon="9.061980563533414" id="-91237">
		<tag k="name" v="Skottsgrindan" />
		<tag k="place" v="farm" />
		<tag k="ssr:stedsnr" v="879089" />
	</node>
	<node lat="63.64955833739402" lon="9.109325004406815" id="-91239">
		<tag k="fixme" v="consider place=hamlet" />
		<tag k="name" v="Kastvika" />
		<tag k="place" v="farm" />
		<tag k="ssr:stedsnr" v="879100" />
	</node>
	<node lat="63.599841668108695" lon="8.974924997094577" id="-91243">
		<tag k="fixme" v="consider place=suburb, village or hamlet" />
		<tag k="name" v="Oldervika" />
		<tag k="place" v="quarter" />
		<tag k="ssr:stedsnr" v="879184" />
	</node>
	<node lat="63.585038892785185" lon="8.96983610339731" id="-91244">
		<tag k="name" v="Myran" />
		<tag k="place" v="farm" />
		<tag k="ssr:stedsnr" v="879188" />
	</node>
	<node lat="63.66445277534636" lon="9.167644452902143" id="-91248">
		<tag k="name" v="Herøysanden" />
		<tag k="place" v="locality" />
		<tag k="ssr:stedsnr" v="879245" />
	</node>
	<node lat="63.62497126936084" lon="8.745730298753104" id="-91253">
		<tag k="fixme" v="consider place=hamlet" />
		<tag k="name" v="Undås" />
		<tag k="place" v="farm" />
		<tag k="ssr:stedsnr" v="879599" />
	</node>
	<node lat="63.62112401141742" lon="8.847530725995682" id="-91254">
		<tag k="fixme" v="consider place=hamlet" />
		<tag k="name" v="Straumsvika" />
		<tag k="place" v="farm" />
		<tag k="ssr:stedsnr" v="879784" />
	</node>
	<node lat="63.51460833223382" lon="8.313741658212464" id="-91264">
		<tag k="fixme" v="consider place=hamlet" />
		<tag k="name" v="Gangstøa" />
		<tag k="place" v="farm" />
		<tag k="ssr:stedsnr" v="879674" />
	</node>
	<node lat="63.634238892013364" lon="8.794480565095501" id="-91270">
		<tag k="name" v="Auna" />
		<tag k="place" v="farm" />
		<tag k="ssr:stedsnr" v="879939" />
	</node>
	<node lat="63.62789722608641" lon="8.896633338595096" id="-91271">
		<tag k="name" v="Gåsvika" />
		<tag k="place" v="farm" />
		<tag k="ssr:stedsnr" v="879956" />
	</node>
	<node lat="63.63749166233526" lon="9.149372220112815" id="-91275">
		<tag k="name" v="Nordheim" />
		<tag k="place" v="farm" />
		<tag k="ssr:stedsnr" v="880012" />
	</node>
	<node lat="63.584336109076894" lon="8.448380558326093" id="-91281">
		<tag k="fixme" v="multiple name tags, choose one and add the other to alt_name" />
		<tag k="name" v="Dalen;Klingertjønndalen" />
		<tag k="place" v="farm" />
		<tag k="ssr:stedsnr" v="880054" />
	</node>
	<node lat="63.66870277783506" lon="9.043941667297789" id="-91286">
		<tag k="name" v="Tangvika" />
		<tag k="place" v="locality" />
		<tag k="ssr:stedsnr" v="880158" />
	</node>
	<node lat="63.672508334476305" lon="9.04891944611072" id="-91287">
		<tag k="name" v="Grindskardet" />
		<tag k="place" v="farm" />
		<tag k="ssr:stedsnr" v="880160" />
	</node>
	<node lat="63.430711109242665" lon="8.486458329060925" id="-91292">
		<tag k="name" v="Morvollan" />
		<tag k="place" v="farm" />
		<tag k="ssr:stedsnr" v="880249" />
	</node>
	<node lat="63.42978888892614" lon="8.424263886904603" id="-91298">
		<tag k="name" v="Ner Engvika" />
		<tag k="place" v="farm" />
		<tag k="ssr:stedsnr" v="880295" />
	</node>
	<node lat="63.60681110756393" lon="8.96596943940821" id="-91319">
		<tag k="name" v="Fillaunet" />
		<tag k="place" v="locality" />
		<tag k="ssr:stedsnr" v="880845" />
	</node>
	<node lat="63.510219442172904" lon="9.00808889533369" id="-91334">
		<tag k="name" v="Kvikne" />
		<tag k="place" v="farm" />
		<tag k="ssr:stedsnr" v="881328" />
	</node>
	<node lat="63.55129999579892" lon="9.17308610340133" id="-91344">
		<tag k="name" v="Myra" />
		<tag k="place" v="farm" />
		<tag k="ssr:stedsnr" v="881419" />
	</node>
	<node lat="63.49804722170507" lon="9.12390555972478" id="-91379">
		<tag k="name" v="Vorpbukta" />
		<tag k="place" v="quarter" />
		<tag k="ssr:stedsnr" v="889137" />
	</node>
	<node lat="63.44207499679532" lon="8.570677781113854" id="-91383">
		<tag k="fixme" v="consider place=hamlet" />
		<tag k="name" v="Sørkvammen" />
		<tag k="place" v="farm" />
		<tag k="ssr:stedsnr" v="940248" />
	</node>
	<node lat="63.63959166763322" lon="8.992288881150207" id="-91415">
		<tag k="name" v="Halsan" />
		<tag k="place" v="farm" />
		<tag k="ssr:stedsnr" v="940864" />
	</node>
	<node lat="63.56969428408604" lon="8.42808440549216" id="-91436">
		<tag k="fixme" v="consider place=hamlet" />
		<tag k="name" v="Olderøya" />
		<tag k="place" v="farm" />
		<tag k="ssr:stedsnr" v="941119" />
	</node>
	<node lat="63.57836110874472" lon="8.483258333701242" id="-91444">
		<tag k="name" v="Strandtøfta" />
		<tag k="place" v="isolated_dwelling" />
		<tag k="ssr:stedsnr" v="941177" />
	</node>
	<node lat="63.43232222243815" lon="8.491894447120123" id="-91446">
		<tag k="name" v="Halsetskardet" />
		<tag k="place" v="farm" />
		<tag k="ssr:stedsnr" v="941245" />
	</node>
	<node lat="63.43994166454715" lon="8.319286108541677" id="-91465">
		<tag k="name" v="Åkvika" />
		<tag k="place" v="farm" />
		<tag k="ssr:stedsnr" v="941325" />
	</node>
	<node lat="63.54415277999869" lon="9.152697230454605" id="-91468">
		<tag k="name" v="Nordstrand" />
		<tag k="place" v="farm" />
		<tag k="ssr:stedsnr" v="941396" />
	</node>
	<node lat="63.47917500433989" lon="8.321438884540242" id="-91473">
		<tag k="name" v="Lensmannsvika" />
		<tag k="place" v="farm" />
		<tag k="ssr:stedsnr" v="941355" />
	</node>
	<node lat="63.621647222308695" lon="8.691119443384098" id="-91491">
		<tag k="name" v="Sveen" />
		<tag k="place" v="farm" />
		<tag k="ssr:stedsnr" v="941577" />
	</node>
	<node lat="63.56369166225749" lon="8.757152770576726" id="-91503">
		<tag k="name" v="Haugen" />
		<tag k="place" v="farm" />
		<tag k="ssr:stedsnr" v="941758" />
	</node>
	<node lat="63.64609444217233" lon="8.994416660729334" id="-91504">
		<tag k="name" v="Sandhaugen" />
		<tag k="place" v="farm" />
		<tag k="ssr:stedsnr" v="941761" />
	</node>
	<node lat="63.5635833289198" lon="8.749805562574858" id="-91505">
		<tag k="name" v="Neststua" />
		<tag k="place" v="farm" />
		<tag k="ssr:stedsnr" v="941775" />
	</node>
	<node lat="63.46750833147387" lon="8.652850005607275" id="-91511">
		<tag k="name" v="Skogli" />
		<tag k="place" v="farm" />
		<tag k="ssr:stedsnr" v="941664" />
	</node>
	<node lat="63.61289166969321" lon="8.6123861018255" id="-91514">
		<tag k="name" v="Ingbriktsvika" />
		<tag k="place" v="farm" />
		<tag k="ssr:stedsnr" v="941898" />
	</node>
	<node lat="63.61246389205113" lon="8.637461111203502" id="-91517">
		<tag k="name" v="Hamn" />
		<tag k="place" v="farm" />
		<tag k="ssr:stedsnr" v="941918" />
	</node>
	<node lat="63.565122217850146" lon="8.5138055456066" id="-91526">
		<tag k="name" v="Klubbneset" />
		<tag k="place" v="isolated_dwelling" />
		<tag k="ssr:stedsnr" v="941997" />
	</node>
	<node lat="63.50041944029856" lon="9.24919167282312" id="-91528">
		<tag k="name" v="Røssvika" />
		<tag k="place" v="farm" />
		<tag k="ssr:stedsnr" v="942198" />
	</node>
	<node lat="63.602561113820904" lon="8.974538896643047" id="-91563">
		<tag k="amenity" v="school" />
		<tag k="name" v="Fillan skole" />
		<tag k="ssr:stedsnr" v="952748" />
	</node>
	<node lat="63.479117078982895" lon="8.285144320063765" id="-91574">
		<tag k="fixme" v="consider place=hamlet" />
		<tag k="name" v="Gjelsøya" />
		<tag k="place" v="farm" />
		<tag k="ssr:stedsnr" v="970985" />
	</node>
	<node lat="63.51506096322231" lon="9.30013556776499" id="-91596">
		<tag k="name" v="Fossheim" />
		<tag k="place" v="farm" />
		<tag k="ssr:stedsnr" v="979927" />
	</node>
	<node lat="63.51152061272452" lon="8.291750554028281" id="-91634">
		<tag k="name" v="Hakkbuan" />
		<tag k="place" v="farm" />
		<tag k="ssr:stedsnr" v="991199" />
	</node>
	<node lat="63.47900169224153" lon="8.284836352750132" id="-91635">
		<tag k="name" v="Gjelsøya" />
		<tag k="place" v="farm" />
		<tag k="ssr:stedsnr" v="991202" />
	</node>
	<node lat="63.516497381174325" lon="8.308675320874281" id="-91825">
		<tag k="amenity" v="school" />
		<tag k="name" v="Hitra  leirskole" />
		<tag k="old_name" v="Ytre Kvennvær skole" />
		<tag k="ssr:stedsnr" v="1074055" />
	</node>
	<node lat="63.50968793594102" lon="9.080382818035028" id="-91866">
		<tag k="name" v="Hitra" />
		<tag k="place" v="quarter" />
		<tag k="ssr:stedsnr" v="1076370" />
	</node>
	<node lat="63.595428618432166" lon="8.964510471617366" id="-91867">
		<tag k="name" v="Hitra bergverk" />
		<tag k="place" v="quarter" />
		<tag k="ssr:stedsnr" v="1076371" />
	</node>
	<node lat="63.595498934765246" lon="8.96747108356511" id="-91868">
		<tag k="name" v="Hitra gjenvinningsstasjon" />
		<tag k="place" v="quarter" />
		<tag k="ssr:stedsnr" v="1076373" />
	</node>
	<node lat="63.649762188056386" lon="8.822124312758502" id="-91869">
		<tag k="name" v="Dolmøy industripark" />
		<tag k="place" v="quarter" />
		<tag k="ssr:stedsnr" v="1076374" />
	</node>
	<node lat="63.52166082564849" lon="9.110104908768085" id="-91870">
		<tag k="name" v="Hitra" />
		<tag k="place" v="quarter" />
		<tag k="ssr:stedsnr" v="1076369" />
	</node>
	<node lat="63.63141036502039" lon="8.741560484777063" id="-91872">
		<tag k="leisure" v="pitch" />
		<tag k="name" v="Melandsjø fotballbane" />
		<tag k="ssr:stedsnr" v="1076394" />
	</node>
	<node lat="63.60076852102741" lon="8.97083621893061" id="-91878">
		<tag k="leisure" v="pitch" />
		<tag k="name" v="Fillan fotballstadion" />
		<tag k="ssr:stedsnr" v="1076409" />
	</node>
	<node lat="63.53694568004414" lon="8.403816745078537" id="-91879">
		<tag k="leisure" v="pitch" />
		<tag k="name" v="Kvenvær fotballbane" />
		<tag k="ssr:stedsnr" v="1076410" />
	</node>
	<node lat="63.51546770806051" lon="9.050177742629597" id="-91880">
		<tag k="leisure" v="pitch" />
		<tag k="name" v="Sandstad fotballbane" />
		<tag k="ssr:stedsnr" v="1076411" />
	</node>
	<node lat="63.6405388375308" lon="9.127474564224341" id="-91881">
		<tag k="leisure" v="pitch" />
		<tag k="name" v="Gammelsætra fotballbane" />
		<tag k="ssr:stedsnr" v="1076412" />
	</node>
	<node lat="63.65140811416422" lon="8.78430918101022" id="-91882">
		<tag k="leisure" v="pitch" />
		<tag k="name" v="Dolmøy stadion" />
		<tag k="ssr:stedsnr" v="1076413" />
	</node>
	<node lat="63.57873754344267" lon="8.670756166391138" id="-91883">
		<tag k="leisure" v="pitch" />
		<tag k="name" v="Asmundvåg skytebane" />
		<tag k="ssr:stedsnr" v="1076415" />
	</node>
	<node lat="63.49279291151714" lon="8.909352377237804" id="-91884">
		<tag k="leisure" v="pitch" />
		<tag k="name" v="Olsvika skytebane" />
		<tag k="ssr:stedsnr" v="1076416" />
	</node>
	<node lat="63.63023423976284" lon="9.063387816664974" id="-91885">
		<tag k="leisure" v="pitch" />
		<tag k="name" v="Fjellværøy skytebane" />
		<tag k="ssr:stedsnr" v="1076418" />
	</node>
</osm>
