<?xml version="1.0" encoding="UTF-8"?>
<osm generator="osmapis" version="0.6">
	<node id="-491743" lat="60.8816104596" lon="6.30047518531">
		<tag k="name" v="Vestlandet" />
		<tag k="ssr:date" v="2019-01-06" />
		<tag k="ssr:gruppe" v="administrativeIndelinger" />
		<tag k="ssr:hovedgruppe" v="offentligAdministrasjon" />
		<tag k="ssr:stedsnr" v="974777" />
		<tag k="ssr:type" v="annenAdministrativInndeling" />
	</node>
	<node id="-491551" lat="60.7753944402" lon="4.74358055168">
		<tag k="alt_name" v="Fedje" />
		<tag k="name" v="Fedje lykt" />
		<tag k="ssr:date" v="2016-05-10" />
		<tag k="ssr:gruppe" v="navigasjon" />
		<tag k="ssr:hovedgruppe" v="infrastruktur" />
		<tag k="ssr:stedsnr" v="190019" />
		<tag k="ssr:type" v="fyrlykt" />
	</node>
	<node id="-491448" lat="60.7912638846" lon="4.66891943854">
		<tag k="alt_name" v="Vestra Mågøy" />
		<tag k="name" v="Vestra Mågøy lykt" />
		<tag k="old_name" v="Mågøy" />
		<tag k="ssr:date" v="2016-05-10" />
		<tag k="ssr:gruppe" v="navigasjon" />
		<tag k="ssr:hovedgruppe" v="infrastruktur" />
		<tag k="ssr:stedsnr" v="310642" />
		<tag k="ssr:type" v="fyrlykt" />
	</node>
	<node id="-491447" lat="60.7948361129" lon="4.70230277867">
		<tag k="alt_name" v="Grisholmsund" />
		<tag k="name" v="Grisholmsund lykt" />
		<tag k="ssr:date" v="2016-05-10" />
		<tag k="ssr:gruppe" v="navigasjon" />
		<tag k="ssr:hovedgruppe" v="infrastruktur" />
		<tag k="ssr:stedsnr" v="310643" />
		<tag k="ssr:type" v="fyrlykt" />
	</node>
	<node id="-491604" lat="60.8430305513" lon="4.64950277064">
		<tag k="alt_name" v="Holmengrå" />
		<tag k="name" v="Holmengrå fyr" />
		<tag k="ssr:date" v="2016-05-10" />
		<tag k="ssr:gruppe" v="navigasjon" />
		<tag k="ssr:hovedgruppe" v="infrastruktur" />
		<tag k="ssr:stedsnr" v="492735" />
		<tag k="ssr:type" v="fyrstasjon" />
	</node>
	<node id="-491565" lat="60.7882277741" lon="4.69493610826">
		<tag k="alt_name" v="Moldøyosen" />
		<tag k="name" v="Moldøyosen lykt" />
		<tag k="ssr:date" v="2016-05-10" />
		<tag k="ssr:gruppe" v="navigasjon" />
		<tag k="ssr:hovedgruppe" v="infrastruktur" />
		<tag k="ssr:stedsnr" v="236618" />
		<tag k="ssr:type" v="fyrlykt" />
	</node>
	<node id="-491467" lat="60.7521111102" lon="4.71067777757">
		<tag k="alt_name" v="Hellisøy" />
		<tag k="name" v="Hellisøy fyr" />
		<tag k="old_name" v="Hellesøy fyr" />
		<tag k="ssr:date" v="2016-05-10" />
		<tag k="ssr:gruppe" v="navigasjon" />
		<tag k="ssr:hovedgruppe" v="infrastruktur" />
		<tag k="ssr:stedsnr" v="371641" />
		<tag k="ssr:type" v="fyrstasjon" />
	</node>
	<node id="-491553" lat="60.778736115" lon="4.7196833395">
		<tag k="alt_name" v="Fedje" />
		<tag k="name" v="Fedje kommune" />
		<tag k="ssr:date" v="2019-05-09" />
		<tag k="ssr:gruppe" v="administrativeIndelinger" />
		<tag k="ssr:hovedgruppe" v="offentligAdministrasjon" />
		<tag k="ssr:stedsnr" v="207068" />
		<tag k="ssr:type" v="kommune" />
	</node>
</osm>
