<?xml version="1.0" encoding="UTF-8"?>
<osm generator="osmapis" version="0.6">
	<node id="-87035" lat="61.8001277796" lon="10.5270500092">
		<tag k="name" v="Gravbekkvegen" />
		<tag k="ssr:date" v="2019-02-18" />
		<tag k="ssr:gruppe" v="veg" />
		<tag k="ssr:hovedgruppe" v="infrastruktur" />
		<tag k="ssr:stedsnr" v="180975" />
		<tag k="ssr:type" v="vegstrekning" />
	</node>
	<node id="-88567" lat="61.5752277743" lon="10.9844000036">
		<tag k="name" v="Løvmyrvegen" />
		<tag k="ssr:date" v="2019-02-18" />
		<tag k="ssr:gruppe" v="veg" />
		<tag k="ssr:hovedgruppe" v="infrastruktur" />
		<tag k="ssr:stedsnr" v="969374" />
		<tag k="ssr:type" v="vegstrekning" />
	</node>
	<node id="-87022" lat="61.5614326659" lon="11.0416177827">
		<tag k="name" v="Sagabakken" />
		<tag k="ssr:date" v="2019-02-18" />
		<tag k="ssr:gruppe" v="veg" />
		<tag k="ssr:hovedgruppe" v="infrastruktur" />
		<tag k="ssr:stedsnr" v="180475" />
		<tag k="ssr:type" v="vegstrekning" />
	</node>
	<node id="-87526" lat="61.7801916685" lon="10.6527083257">
		<tag k="name" v="Syrklettvegen" />
		<tag k="ssr:date" v="2019-02-18" />
		<tag k="ssr:gruppe" v="veg" />
		<tag k="ssr:hovedgruppe" v="infrastruktur" />
		<tag k="ssr:stedsnr" v="540856" />
		<tag k="ssr:type" v="vegstrekning" />
	</node>
	<node id="-88546" lat="61.6100944474" lon="10.9773083386">
		<tag k="name" v="Frosålivegen" />
		<tag k="ssr:date" v="2019-02-18" />
		<tag k="ssr:gruppe" v="veg" />
		<tag k="ssr:hovedgruppe" v="infrastruktur" />
		<tag k="ssr:stedsnr" v="966261" />
		<tag k="ssr:type" v="vegstrekning" />
	</node>
	<node id="-87009" lat="61.4168277791" lon="11.1518833418">
		<tag k="name" v="Styggeggvegen" />
		<tag k="ssr:date" v="2019-02-18" />
		<tag k="ssr:gruppe" v="veg" />
		<tag k="ssr:hovedgruppe" v="infrastruktur" />
		<tag k="ssr:stedsnr" v="179258" />
		<tag k="ssr:type" v="vegstrekning" />
	</node>
	<node id="-88022" lat="61.3559611116" lon="11.2616472171">
		<tag k="name" v="Åborsjøvegen" />
		<tag k="ssr:date" v="2019-02-18" />
		<tag k="ssr:gruppe" v="veg" />
		<tag k="ssr:hovedgruppe" v="infrastruktur" />
		<tag k="ssr:stedsnr" v="726715" />
		<tag k="ssr:type" v="vegstrekning" />
	</node>
	<node id="-86995" lat="61.7857583341" lon="10.5128333314">
		<tag k="name" v="Tangvegen" />
		<tag k="ssr:date" v="2019-02-18" />
		<tag k="ssr:gruppe" v="veg" />
		<tag k="ssr:hovedgruppe" v="infrastruktur" />
		<tag k="ssr:stedsnr" v="163977" />
		<tag k="ssr:type" v="vegstrekning" />
	</node>
	<node id="-88530" lat="61.3253666684" lon="10.9414916589">
		<tag k="name" v="Sjøvegen" />
		<tag k="ssr:date" v="2019-02-18" />
		<tag k="ssr:gruppe" v="veg" />
		<tag k="ssr:hovedgruppe" v="infrastruktur" />
		<tag k="ssr:stedsnr" v="950637" />
		<tag k="ssr:type" v="vegstrekning" />
	</node>
	<node id="-86990" lat="61.3946194474" lon="11.0203527809">
		<tag k="name" v="Åsvegen" />
		<tag k="ssr:date" v="2019-02-18" />
		<tag k="ssr:gruppe" v="veg" />
		<tag k="ssr:hovedgruppe" v="infrastruktur" />
		<tag k="ssr:stedsnr" v="162897" />
		<tag k="ssr:type" v="vegstrekning" />
	</node>
	<node id="-88524" lat="61.4445166649" lon="10.9266555636">
		<tag k="name" v="Søndre Imslivegen" />
		<tag k="ssr:date" v="2019-02-18" />
		<tag k="ssr:gruppe" v="veg" />
		<tag k="ssr:hovedgruppe" v="infrastruktur" />
		<tag k="ssr:stedsnr" v="950479" />
		<tag k="ssr:type" v="vegstrekning" />
	</node>
	<node id="-87497" lat="61.5637694439" lon="11.0656833354">
		<tag k="name" v="Kjemådalsvegen" />
		<tag k="ssr:date" v="2019-02-18" />
		<tag k="ssr:gruppe" v="veg" />
		<tag k="ssr:hovedgruppe" v="infrastruktur" />
		<tag k="ssr:stedsnr" v="525463" />
		<tag k="ssr:type" v="vegstrekning" />
	</node>
	<node id="-87493" lat="61.6162861071" lon="10.8845305534">
		<tag k="alt_name" v="Garbekkvegen" />
		<tag k="name" v="Garbekklivegen" />
		<tag k="ssr:date" v="2019-02-18" />
		<tag k="ssr:gruppe" v="veg" />
		<tag k="ssr:hovedgruppe" v="infrastruktur" />
		<tag k="ssr:stedsnr" v="525119" />
		<tag k="ssr:type" v="vegstrekning" />
	</node>
	<node id="-87492" lat="61.6080666705" lon="10.8841305467">
		<tag k="name" v="Klarbekklivegen" />
		<tag k="ssr:date" v="2019-02-18" />
		<tag k="ssr:gruppe" v="veg" />
		<tag k="ssr:hovedgruppe" v="infrastruktur" />
		<tag k="ssr:stedsnr" v="525118" />
		<tag k="ssr:type" v="vegstrekning" />
	</node>
	<node id="-86969" lat="61.6177083378" lon="10.9550138889">
		<tag k="name" v="Frøsålivegen" />
		<tag k="ssr:date" v="2019-02-18" />
		<tag k="ssr:gruppe" v="veg" />
		<tag k="ssr:hovedgruppe" v="infrastruktur" />
		<tag k="ssr:stedsnr" v="161121" />
		<tag k="ssr:type" v="vegstrekning" />
	</node>
	<node id="-87989" lat="61.4329666678" lon="11.0992833242">
		<tag k="name" v="Bergevegen" />
		<tag k="ssr:date" v="2019-02-18" />
		<tag k="ssr:gruppe" v="veg" />
		<tag k="ssr:hovedgruppe" v="infrastruktur" />
		<tag k="ssr:stedsnr" v="709335" />
		<tag k="ssr:type" v="vegstrekning" />
	</node>
	<node id="-88499" lat="61.580922226" lon="11.0965333399">
		<tag k="alt_name" v="Kongevegen, gamle" />
		<tag k="name" v="Gamle Kongevegen" />
		<tag k="ssr:date" v="2019-02-18" />
		<tag k="ssr:gruppe" v="veg" />
		<tag k="ssr:hovedgruppe" v="infrastruktur" />
		<tag k="ssr:stedsnr" v="920424" />
		<tag k="ssr:type" v="vegstrekning" />
	</node>
	<node id="-86439" lat="61.6680972243" lon="10.9321166625">
		<tag k="name" v="Vibekkskarvegen" />
		<tag k="ssr:date" v="2019-02-18" />
		<tag k="ssr:gruppe" v="veg" />
		<tag k="ssr:hovedgruppe" v="infrastruktur" />
		<tag k="ssr:stedsnr" v="362117" />
		<tag k="ssr:type" v="vegstrekning" />
	</node>
	<node id="-87965" lat="61.7201555538" lon="10.8976333364">
		<tag k="name" v="Kjølsjøvegen" />
		<tag k="ssr:date" v="2019-02-18" />
		<tag k="ssr:gruppe" v="veg" />
		<tag k="ssr:hovedgruppe" v="infrastruktur" />
		<tag k="ssr:stedsnr" v="707037" />
		<tag k="ssr:type" v="vegstrekning" />
	</node>
	<node id="-86255" lat="61.2306138861" lon="11.2516055511">
		<tag k="name" v="Slagåsvegen" />
		<tag k="ssr:date" v="2019-02-18" />
		<tag k="ssr:gruppe" v="veg" />
		<tag k="ssr:hovedgruppe" v="infrastruktur" />
		<tag k="ssr:stedsnr" v="283399" />
		<tag k="ssr:type" v="vegstrekning" />
	</node>
	<node id="-86422" lat="61.6146472211" lon="11.0286083276">
		<tag k="name" v="Stenmovegen" />
		<tag k="ssr:date" v="2019-02-18" />
		<tag k="ssr:gruppe" v="veg" />
		<tag k="ssr:hovedgruppe" v="infrastruktur" />
		<tag k="ssr:stedsnr" v="359288" />
		<tag k="ssr:type" v="vegstrekning" />
	</node>
	<node id="-86408" lat="61.4714527816" lon="11.0213111081">
		<tag k="name" v="Storbakkvegen" />
		<tag k="ssr:date" v="2019-02-18" />
		<tag k="ssr:gruppe" v="veg" />
		<tag k="ssr:hovedgruppe" v="infrastruktur" />
		<tag k="ssr:stedsnr" v="343782" />
		<tag k="ssr:type" v="vegstrekning" />
	</node>
	<node id="-86403" lat="61.4739805553" lon="10.9484833334">
		<tag k="name" v="Nordre Imslivegen" />
		<tag k="ssr:date" v="2019-02-18" />
		<tag k="ssr:gruppe" v="veg" />
		<tag k="ssr:hovedgruppe" v="infrastruktur" />
		<tag k="ssr:stedsnr" v="343504" />
		<tag k="ssr:type" v="vegstrekning" />
	</node>
	<node id="-87417" lat="61.6273833294" lon="11.0830194511">
		<tag k="name" v="Bjønnbekkvegen" />
		<tag k="ssr:date" v="2019-02-18" />
		<tag k="ssr:gruppe" v="veg" />
		<tag k="ssr:hovedgruppe" v="infrastruktur" />
		<tag k="ssr:stedsnr" v="483912" />
		<tag k="ssr:type" v="vegstrekning" />
	</node>
	<node id="-88434" lat="61.5617777734" lon="11.0823888959">
		<tag k="name" v="Vegen Kjemsjøen - Evenstad" />
		<tag k="ssr:date" v="2019-02-18" />
		<tag k="ssr:gruppe" v="veg" />
		<tag k="ssr:hovedgruppe" v="infrastruktur" />
		<tag k="ssr:stedsnr" v="908847" />
		<tag k="ssr:type" v="vegstrekning" />
	</node>
	<node id="-87409" lat="61.5794416653" lon="11.052622228">
		<tag k="name" v="Vannstasjonsvegen" />
		<tag k="ssr:date" v="2019-02-18" />
		<tag k="ssr:gruppe" v="veg" />
		<tag k="ssr:hovedgruppe" v="infrastruktur" />
		<tag k="ssr:stedsnr" v="483338" />
		<tag k="ssr:type" v="vegstrekning" />
	</node>
	<node id="-87405" lat="61.7414083355" lon="10.795147213">
		<tag k="name" v="Nedalsvegen" />
		<tag k="ssr:date" v="2019-02-18" />
		<tag k="ssr:gruppe" v="veg" />
		<tag k="ssr:hovedgruppe" v="infrastruktur" />
		<tag k="ssr:stedsnr" v="483231" />
		<tag k="ssr:type" v="vegstrekning" />
	</node>
	<node id="-88423" lat="61.7949166706" lon="10.6720111032">
		<tag k="name" v="Fosslivegen" />
		<tag k="ssr:date" v="2019-02-18" />
		<tag k="ssr:gruppe" v="veg" />
		<tag k="ssr:hovedgruppe" v="infrastruktur" />
		<tag k="ssr:stedsnr" v="908349" />
		<tag k="ssr:type" v="vegstrekning" />
	</node>
	<node id="-86884" lat="61.381763893" lon="11.1910777824">
		<tag k="name" v="Netadalsvegen" />
		<tag k="old_name" v="Netalsvegen" />
		<tag k="ssr:date" v="2019-02-18" />
		<tag k="ssr:gruppe" v="veg" />
		<tag k="ssr:hovedgruppe" v="infrastruktur" />
		<tag k="ssr:stedsnr" v="119243" />
		<tag k="ssr:type" v="vegstrekning" />
	</node>
	<node id="-87389" lat="61.3689916683" lon="11.0729138828">
		<tag k="name" v="Koiedalsvegen" />
		<tag k="ssr:date" v="2019-02-18" />
		<tag k="ssr:gruppe" v="veg" />
		<tag k="ssr:hovedgruppe" v="infrastruktur" />
		<tag k="ssr:stedsnr" v="466995" />
		<tag k="ssr:type" v="vegstrekning" />
	</node>
	<node id="-86872" lat="61.3817722239" lon="11.2383888979">
		<tag k="name" v="Kjølvegen" />
		<tag k="ssr:date" v="2019-02-18" />
		<tag k="ssr:gruppe" v="veg" />
		<tag k="ssr:hovedgruppe" v="infrastruktur" />
		<tag k="ssr:stedsnr" v="116807" />
		<tag k="ssr:type" v="vegstrekning" />
	</node>
	<node id="-87377" lat="61.3339111132" lon="11.2459333349">
		<tag k="name" v="Taraldstuvegen" />
		<tag k="ssr:date" v="2019-02-18" />
		<tag k="ssr:gruppe" v="veg" />
		<tag k="ssr:hovedgruppe" v="infrastruktur" />
		<tag k="ssr:stedsnr" v="465726" />
		<tag k="ssr:type" v="vegstrekning" />
	</node>
	<node id="-87375" lat="61.4220416678" lon="10.9301805532">
		<tag k="alt_name" v="Søndre Messeltsætervegen" />
		<tag k="name" v="Søre Messeltsætervegen" />
		<tag k="ssr:date" v="2016-05-10" />
		<tag k="ssr:gruppe" v="veg" />
		<tag k="ssr:hovedgruppe" v="infrastruktur" />
		<tag k="ssr:stedsnr" v="465574" />
		<tag k="ssr:type" v="vegstrekning" />
	</node>
	<node id="-87371" lat="61.7327305558" lon="10.7123166652">
		<tag k="name" v="Hellbulivegen" />
		<tag k="ssr:date" v="2019-02-18" />
		<tag k="ssr:gruppe" v="veg" />
		<tag k="ssr:hovedgruppe" v="infrastruktur" />
		<tag k="ssr:stedsnr" v="464822" />
		<tag k="ssr:type" v="vegstrekning" />
	</node>
	<node id="-86851" lat="61.3352666691" lon="11.2345055468">
		<tag k="name" v="Sjurstuvegen" />
		<tag k="ssr:date" v="2019-02-18" />
		<tag k="ssr:gruppe" v="veg" />
		<tag k="ssr:hovedgruppe" v="infrastruktur" />
		<tag k="ssr:stedsnr" v="101667" />
		<tag k="ssr:type" v="vegstrekning" />
	</node>
	<node id="-86835" lat="61.5843916655" lon="10.9483444516">
		<tag k="name" v="Ulvbergsvegen" />
		<tag k="ssr:date" v="2019-02-18" />
		<tag k="ssr:gruppe" v="veg" />
		<tag k="ssr:hovedgruppe" v="infrastruktur" />
		<tag k="ssr:stedsnr" v="100127" />
		<tag k="ssr:type" v="vegstrekning" />
	</node>
	<node id="-87858" lat="61.7738999995" lon="10.494119449">
		<tag k="alt_name" v="Mosjøsætervegen" />
		<tag k="name" v="Mokjølsætervegen" />
		<tag k="ssr:date" v="2019-02-18" />
		<tag k="ssr:gruppe" v="veg" />
		<tag k="ssr:hovedgruppe" v="infrastruktur" />
		<tag k="ssr:stedsnr" v="662998" />
		<tag k="ssr:type" v="vegstrekning" />
	</node>
	<node id="-87854" lat="61.7671583354" lon="10.6881555636">
		<tag k="name" v="Trylivegen" />
		<tag k="ssr:date" v="2019-02-18" />
		<tag k="ssr:gruppe" v="veg" />
		<tag k="ssr:hovedgruppe" v="infrastruktur" />
		<tag k="ssr:stedsnr" v="661793" />
		<tag k="ssr:type" v="vegstrekning" />
	</node>
	<node id="-86310" lat="61.819800003" lon="10.5736527871">
		<tag k="name" v="Hanestadnysætervegen" />
		<tag k="ssr:date" v="2019-02-18" />
		<tag k="ssr:gruppe" v="veg" />
		<tag k="ssr:hovedgruppe" v="infrastruktur" />
		<tag k="ssr:stedsnr" v="301988" />
		<tag k="ssr:type" v="vegstrekning" />
	</node>
	<node id="-86303" lat="61.7319249993" lon="10.8189611061">
		<tag k="name" v="Kirkevegen" />
		<tag k="ssr:date" v="2019-02-18" />
		<tag k="ssr:gruppe" v="veg" />
		<tag k="ssr:hovedgruppe" v="infrastruktur" />
		<tag k="ssr:stedsnr" v="301189" />
		<tag k="ssr:type" v="vegstrekning" />
	</node>
	<node id="-87834" lat="61.3391055536" lon="11.1687138946">
		<tag k="name" v="Heggedalsvegen" />
		<tag k="ssr:date" v="2019-02-18" />
		<tag k="ssr:gruppe" v="veg" />
		<tag k="ssr:hovedgruppe" v="infrastruktur" />
		<tag k="ssr:stedsnr" v="647109" />
		<tag k="ssr:type" v="vegstrekning" />
	</node>
	<node id="-86297" lat="61.4334527793" lon="11.14180556">
		<tag k="name" v="Nabbvegen" />
		<tag k="ssr:date" v="2019-02-18" />
		<tag k="ssr:gruppe" v="veg" />
		<tag k="ssr:hovedgruppe" v="infrastruktur" />
		<tag k="ssr:stedsnr" v="300348" />
		<tag k="ssr:type" v="vegstrekning" />
	</node>
	<node id="-87010" lat="61.5566555555" lon="11.1331222241">
		<tag k="alt_name" v="Bakmyrvegen" />
		<tag k="name" v="Bakkmyrvegen" />
		<tag k="ssr:date" v="2019-02-18" />
		<tag k="ssr:gruppe" v="veg" />
		<tag k="ssr:hovedgruppe" v="infrastruktur" />
		<tag k="ssr:stedsnr" v="179810" />
		<tag k="ssr:type" v="vegstrekning" />
	</node>
	<node id="-87829" lat="61.7429305569" lon="10.6890527756">
		<tag k="name" v="Ledsagervegen" />
		<tag k="ssr:date" v="2019-02-18" />
		<tag k="ssr:gruppe" v="veg" />
		<tag k="ssr:hovedgruppe" v="infrastruktur" />
		<tag k="ssr:stedsnr" v="646780" />
		<tag k="ssr:type" v="vegstrekning" />
	</node>
	<node id="-86285" lat="61.4370416692" lon="11.2043333291">
		<tag k="name" v="Kjølvegen" />
		<tag k="ssr:date" v="2019-02-18" />
		<tag k="ssr:gruppe" v="veg" />
		<tag k="ssr:hovedgruppe" v="infrastruktur" />
		<tag k="ssr:stedsnr" v="299279" />
		<tag k="ssr:type" v="vegstrekning" />
	</node>
	<node id="-86283" lat="61.5096749977" lon="10.8363416662">
		<tag k="name" v="Gravåsvegen" />
		<tag k="ssr:date" v="2019-02-18" />
		<tag k="ssr:gruppe" v="veg" />
		<tag k="ssr:hovedgruppe" v="infrastruktur" />
		<tag k="ssr:stedsnr" v="298648" />
		<tag k="ssr:type" v="vegstrekning" />
	</node>
	<node id="-87817" lat="61.5343222267" lon="11.0706777747">
		<tag k="name" v="Gustulivegen" />
		<tag k="ssr:date" v="2019-02-18" />
		<tag k="ssr:gruppe" v="veg" />
		<tag k="ssr:hovedgruppe" v="infrastruktur" />
		<tag k="ssr:stedsnr" v="646444" />
		<tag k="ssr:type" v="vegstrekning" />
	</node>
	<node id="-87815" lat="61.2229361155" lon="11.26238333">
		<tag k="name" v="Gravingsvegen" />
		<tag k="ssr:date" v="2019-02-18" />
		<tag k="ssr:gruppe" v="veg" />
		<tag k="ssr:hovedgruppe" v="infrastruktur" />
		<tag k="ssr:stedsnr" v="646431" />
		<tag k="ssr:type" v="vegstrekning" />
	</node>
	<node id="-87814" lat="61.2137333355" lon="11.3063249994">
		<tag k="name" v="Klettvegen" />
		<tag k="ssr:date" v="2019-02-18" />
		<tag k="ssr:gruppe" v="veg" />
		<tag k="ssr:hovedgruppe" v="infrastruktur" />
		<tag k="ssr:stedsnr" v="646427" />
		<tag k="ssr:type" v="vegstrekning" />
	</node>
	<node id="-86270" lat="61.4402055578" lon="11.1631499958">
		<tag k="name" v="Tøråsvegen" />
		<tag k="ssr:date" v="2019-02-18" />
		<tag k="ssr:gruppe" v="veg" />
		<tag k="ssr:hovedgruppe" v="infrastruktur" />
		<tag k="ssr:stedsnr" v="284382" />
		<tag k="ssr:type" v="vegstrekning" />
	</node>
	<node id="-86263" lat="61.341163891" lon="11.2796999973">
		<tag k="name" v="Kjølvegen" />
		<tag k="ssr:date" v="2019-02-18" />
		<tag k="ssr:gruppe" v="veg" />
		<tag k="ssr:hovedgruppe" v="infrastruktur" />
		<tag k="ssr:stedsnr" v="283704" />
		<tag k="ssr:type" v="vegstrekning" />
	</node>
	<node id="-88304" lat="61.7871722209" lon="10.4491027782">
		<tag k="name" v="Gammelvegen" />
		<tag k="ssr:date" v="2019-02-18" />
		<tag k="ssr:gruppe" v="veg" />
		<tag k="ssr:hovedgruppe" v="infrastruktur" />
		<tag k="ssr:stedsnr" v="846503" />
		<tag k="ssr:type" v="vegstrekning" />
	</node>
	<node id="-88303" lat="61.2058472178" lon="11.229833333">
		<tag k="name" v="Bjørnmyrvegen" />
		<tag k="ssr:date" v="2019-02-18" />
		<tag k="ssr:gruppe" v="veg" />
		<tag k="ssr:hovedgruppe" v="infrastruktur" />
		<tag k="ssr:stedsnr" v="846444" />
		<tag k="ssr:type" v="vegstrekning" />
	</node>
	<node id="-88296" lat="61.6188472226" lon="11.0205833352">
		<tag k="name" v="Bråtålivegen" />
		<tag k="ssr:date" v="2019-02-18" />
		<tag k="ssr:gruppe" v="veg" />
		<tag k="ssr:hovedgruppe" v="infrastruktur" />
		<tag k="ssr:stedsnr" v="845273" />
		<tag k="ssr:type" v="vegstrekning" />
	</node>
	<node id="-88294" lat="61.385877774" lon="11.2488416747">
		<tag k="name" v="Grønfløttningsvegen" />
		<tag k="ssr:date" v="2019-02-18" />
		<tag k="ssr:gruppe" v="veg" />
		<tag k="ssr:hovedgruppe" v="infrastruktur" />
		<tag k="ssr:stedsnr" v="844805" />
		<tag k="ssr:type" v="vegstrekning" />
	</node>
	<node id="-87263" lat="61.7173416691" lon="10.9646166648">
		<tag k="name" v="Koppangskjølvegen" />
		<tag k="ssr:date" v="2019-02-18" />
		<tag k="ssr:gruppe" v="veg" />
		<tag k="ssr:hovedgruppe" v="infrastruktur" />
		<tag k="ssr:stedsnr" v="422645" />
		<tag k="ssr:type" v="vegstrekning" />
	</node>
	<node id="-87261" lat="61.4315305512" lon="11.1512222178">
		<tag k="name" v="Blindvegen" />
		<tag k="ssr:date" v="2019-02-18" />
		<tag k="ssr:gruppe" v="veg" />
		<tag k="ssr:hovedgruppe" v="infrastruktur" />
		<tag k="ssr:stedsnr" v="422243" />
		<tag k="ssr:type" v="vegstrekning" />
	</node>
	<node id="-86905" lat="61.6585722237" lon="10.999375005">
		<tag k="name" v="Bjønnskarvegen" />
		<tag k="ssr:date" v="2019-02-18" />
		<tag k="ssr:gruppe" v="veg" />
		<tag k="ssr:hovedgruppe" v="infrastruktur" />
		<tag k="ssr:stedsnr" v="120720" />
		<tag k="ssr:type" v="vegstrekning" />
	</node>
	<node id="-87251" lat="61.2737555528" lon="11.3123250011">
		<tag k="name" v="Strand Østre liveg" />
		<tag k="ssr:date" v="2019-02-18" />
		<tag k="ssr:gruppe" v="veg" />
		<tag k="ssr:hovedgruppe" v="infrastruktur" />
		<tag k="ssr:stedsnr" v="421521" />
		<tag k="ssr:type" v="vegstrekning" />
	</node>
	<node id="-87244" lat="61.5064361121" lon="10.8217916603">
		<tag k="name" v="Søndre Imsdalsvegen" />
		<tag k="ssr:date" v="2019-02-18" />
		<tag k="ssr:gruppe" v="veg" />
		<tag k="ssr:hovedgruppe" v="infrastruktur" />
		<tag k="ssr:stedsnr" v="420688" />
		<tag k="ssr:type" v="vegstrekning" />
	</node>
	<node id="-87238" lat="61.5719777748" lon="11.0475833281">
		<tag k="name" v="Stor-Elvdal kommune" />
		<tag k="ssr:date" v="2016-05-10" />
		<tag k="ssr:gruppe" v="administrativeIndelinger" />
		<tag k="ssr:hovedgruppe" v="offentligAdministrasjon" />
		<tag k="ssr:stedsnr" v="267381" />
		<tag k="ssr:type" v="kommune" />
	</node>
	<node id="-88254" lat="61.4254305575" lon="11.1117805477">
		<tag k="name" v="Messeltrustvegen" />
		<tag k="ssr:date" v="2019-02-18" />
		<tag k="ssr:gruppe" v="veg" />
		<tag k="ssr:hovedgruppe" v="infrastruktur" />
		<tag k="ssr:stedsnr" v="829217" />
		<tag k="ssr:type" v="vegstrekning" />
	</node>
	<node id="-86714" lat="61.4283583325" lon="11.1197416675">
		<tag k="name" v="Bratteggvegen" />
		<tag k="ssr:date" v="2019-02-18" />
		<tag k="ssr:gruppe" v="veg" />
		<tag k="ssr:hovedgruppe" v="infrastruktur" />
		<tag k="ssr:stedsnr" v="41338" />
		<tag k="ssr:type" v="vegstrekning" />
	</node>
	<node id="-86703" lat="61.2640027809" lon="11.1790361033">
		<tag k="name" v="Strand-Opphus sæterveg" />
		<tag k="ssr:date" v="2019-02-18" />
		<tag k="ssr:gruppe" v="veg" />
		<tag k="ssr:hovedgruppe" v="infrastruktur" />
		<tag k="ssr:stedsnr" v="39755" />
		<tag k="ssr:type" v="vegstrekning" />
	</node>
	<node id="-87721" lat="61.374280552" lon="11.1236555619">
		<tag k="name" v="Fallvegen" />
		<tag k="ssr:date" v="2019-02-18" />
		<tag k="ssr:gruppe" v="veg" />
		<tag k="ssr:hovedgruppe" v="infrastruktur" />
		<tag k="ssr:stedsnr" v="605289" />
		<tag k="ssr:type" v="vegstrekning" />
	</node>
	<node id="-86897" lat="61.752027776" lon="10.2903555592">
		<tag k="name" v="Setningslivegen" />
		<tag k="ssr:date" v="2019-02-18" />
		<tag k="ssr:gruppe" v="veg" />
		<tag k="ssr:hovedgruppe" v="infrastruktur" />
		<tag k="ssr:stedsnr" v="119433" />
		<tag k="ssr:type" v="vegstrekning" />
	</node>
	<node id="-87703" lat="61.5576916681" lon="10.9562027769">
		<tag k="name" v="Trybekkvegen" />
		<tag k="ssr:date" v="2019-02-18" />
		<tag k="ssr:gruppe" v="veg" />
		<tag k="ssr:hovedgruppe" v="infrastruktur" />
		<tag k="ssr:stedsnr" v="603109" />
		<tag k="ssr:type" v="vegstrekning" />
	</node>
	<node id="-87688" lat="61.4784500026" lon="10.8323055515">
		<tag k="name" v="Neppdalsvegen" />
		<tag k="ssr:date" v="2019-02-18" />
		<tag k="ssr:gruppe" v="veg" />
		<tag k="ssr:hovedgruppe" v="infrastruktur" />
		<tag k="ssr:stedsnr" v="601648" />
		<tag k="ssr:type" v="vegstrekning" />
	</node>
	<node id="-87679" lat="61.3704888853" lon="11.0119138891">
		<tag k="name" v="Gamle Møklebysætervegen" />
		<tag k="ssr:date" v="2019-02-18" />
		<tag k="ssr:gruppe" v="veg" />
		<tag k="ssr:hovedgruppe" v="infrastruktur" />
		<tag k="ssr:stedsnr" v="587945" />
		<tag k="ssr:type" v="vegstrekning" />
	</node>
	<node id="-87664" lat="61.3522611148" lon="11.1253944376">
		<tag k="name" v="Grindmyrvegen" />
		<tag k="ssr:date" v="2019-02-18" />
		<tag k="ssr:gruppe" v="veg" />
		<tag k="ssr:hovedgruppe" v="infrastruktur" />
		<tag k="ssr:stedsnr" v="586076" />
		<tag k="ssr:type" v="vegstrekning" />
	</node>
	<node id="-87657" lat="61.2766944461" lon="11.238061107">
		<tag k="name" v="Tjuevegen" />
		<tag k="ssr:date" v="2019-02-18" />
		<tag k="ssr:gruppe" v="veg" />
		<tag k="ssr:hovedgruppe" v="infrastruktur" />
		<tag k="ssr:stedsnr" v="585492" />
		<tag k="ssr:type" v="vegstrekning" />
	</node>
	<node id="-86632" lat="61.892308183" lon="10.1539172538">
		<tag k="name" v="Grebes vei" />
		<tag k="ssr:date" v="2019-05-30" />
		<tag k="ssr:gruppe" v="veg" />
		<tag k="ssr:hovedgruppe" v="infrastruktur" />
		<tag k="ssr:stedsnr" v="1007962" />
		<tag k="ssr:type" v="adressenavn" />
	</node>
	<node id="-86631" lat="61.4681306924" lon="11.2209499149">
		<tag k="name" v="Netsjøen" />
		<tag k="ssr:date" v="2019-05-30" />
		<tag k="ssr:gruppe" v="veg" />
		<tag k="ssr:hovedgruppe" v="infrastruktur" />
		<tag k="ssr:stedsnr" v="1007507" />
		<tag k="ssr:type" v="adressenavn" />
	</node>
	<node id="-86630" lat="61.5346063556" lon="10.9663793306">
		<tag k="name" v="Åslisætra" />
		<tag k="ssr:date" v="2019-05-30" />
		<tag k="ssr:gruppe" v="veg" />
		<tag k="ssr:hovedgruppe" v="infrastruktur" />
		<tag k="ssr:stedsnr" v="1007502" />
		<tag k="ssr:type" v="adressenavn" />
	</node>
	<node id="-86629" lat="61.546417241" lon="11.1204241533">
		<tag k="name" v="Skårnsjøen" />
		<tag k="ssr:date" v="2019-05-30" />
		<tag k="ssr:gruppe" v="veg" />
		<tag k="ssr:hovedgruppe" v="infrastruktur" />
		<tag k="ssr:stedsnr" v="1007496" />
		<tag k="ssr:type" v="adressenavn" />
	</node>
	<node id="-86628" lat="61.5707430063" lon="10.6793152935">
		<tag k="name" v="Fampsætra" />
		<tag k="ssr:date" v="2019-05-30" />
		<tag k="ssr:gruppe" v="veg" />
		<tag k="ssr:hovedgruppe" v="infrastruktur" />
		<tag k="ssr:stedsnr" v="1007429" />
		<tag k="ssr:type" v="adressenavn" />
	</node>
	<node id="-86627" lat="61.5908113538" lon="10.7686699871">
		<tag k="name" v="Negardstjønnen" />
		<tag k="ssr:date" v="2019-05-30" />
		<tag k="ssr:gruppe" v="veg" />
		<tag k="ssr:hovedgruppe" v="infrastruktur" />
		<tag k="ssr:stedsnr" v="1007425" />
		<tag k="ssr:type" v="adressenavn" />
	</node>
	<node id="-86626" lat="61.7945159131" lon="10.1981414962">
		<tag k="name" v="Vollsætra" />
		<tag k="ssr:date" v="2019-05-30" />
		<tag k="ssr:gruppe" v="veg" />
		<tag k="ssr:hovedgruppe" v="infrastruktur" />
		<tag k="ssr:stedsnr" v="1007257" />
		<tag k="ssr:type" v="adressenavn" />
	</node>
	<node id="-88156" lat="61.573949998" lon="11.1354777696">
		<tag k="name" v="Sunndalsvegen" />
		<tag k="ssr:date" v="2019-02-18" />
		<tag k="ssr:gruppe" v="veg" />
		<tag k="ssr:hovedgruppe" v="infrastruktur" />
		<tag k="ssr:stedsnr" v="786819" />
		<tag k="ssr:type" v="vegstrekning" />
	</node>
	<node id="-88138" lat="61.4262444419" lon="11.2146194509">
		<tag k="name" v="Jønnbuåsvegen" />
		<tag k="ssr:date" v="2019-02-18" />
		<tag k="ssr:gruppe" v="veg" />
		<tag k="ssr:hovedgruppe" v="infrastruktur" />
		<tag k="ssr:stedsnr" v="784277" />
		<tag k="ssr:type" v="vegstrekning" />
	</node>
	<node id="-87617" lat="61.6939277818" lon="11.0141916694">
		<tag k="name" v="Langmovegen" />
		<tag k="ssr:date" v="2019-02-18" />
		<tag k="ssr:gruppe" v="veg" />
		<tag k="ssr:hovedgruppe" v="infrastruktur" />
		<tag k="ssr:stedsnr" v="556059" />
		<tag k="ssr:type" v="vegstrekning" />
	</node>
	<node id="-88128" lat="61.7733527783" lon="10.5049416601">
		<tag k="name" v="Skjæringfjellivegen" />
		<tag k="ssr:date" v="2019-02-18" />
		<tag k="ssr:gruppe" v="veg" />
		<tag k="ssr:hovedgruppe" v="infrastruktur" />
		<tag k="ssr:stedsnr" v="771000" />
		<tag k="ssr:type" v="vegstrekning" />
	</node>
	<node id="-86576" lat="61.2112277757" lon="11.3170138911">
		<tag k="name" v="Seljebakkvegen" />
		<tag k="ssr:date" v="2019-02-18" />
		<tag k="ssr:gruppe" v="veg" />
		<tag k="ssr:hovedgruppe" v="infrastruktur" />
		<tag k="ssr:stedsnr" v="405848" />
		<tag k="ssr:type" v="vegstrekning" />
	</node>
	<node id="-86566" lat="61.3344222211" lon="11.2077805606">
		<tag k="name" v="Tøråsvegen" />
		<tag k="ssr:date" v="2019-02-18" />
		<tag k="ssr:gruppe" v="veg" />
		<tag k="ssr:hovedgruppe" v="infrastruktur" />
		<tag k="ssr:stedsnr" v="404664" />
		<tag k="ssr:type" v="vegstrekning" />
	</node>
	<node id="-86558" lat="61.3544333312" lon="11.1949138818">
		<tag k="name" v="Klettjernvegen" />
		<tag k="ssr:date" v="2019-02-18" />
		<tag k="ssr:gruppe" v="veg" />
		<tag k="ssr:hovedgruppe" v="infrastruktur" />
		<tag k="ssr:stedsnr" v="404087" />
		<tag k="ssr:type" v="vegstrekning" />
	</node>
	<node id="-86554" lat="61.4230722218" lon="11.1324305642">
		<tag k="name" v="Øvre Messeltrustvegen" />
		<tag k="ssr:date" v="2019-02-18" />
		<tag k="ssr:gruppe" v="veg" />
		<tag k="ssr:hovedgruppe" v="infrastruktur" />
		<tag k="ssr:stedsnr" v="403189" />
		<tag k="ssr:type" v="vegstrekning" />
	</node>
	<node id="-88588" lat="60.5908609473" lon="9.63819281559">
		<tag k="fixme" v="multiple name tags, choose one and add the other to alt_name" />
		<tag k="name" v="Austlandet;Østlandet" />
		<tag k="ssr:date" v="2018-01-09" />
		<tag k="ssr:gruppe" v="administrativeIndelinger" />
		<tag k="ssr:hovedgruppe" v="offentligAdministrasjon" />
		<tag k="ssr:stedsnr" v="974775" />
		<tag k="ssr:type" v="annenAdministrativInndeling" />
	</node>
	<node id="-87559" lat="61.7653500029" lon="10.3822333275">
		<tag k="name" v="Midtlivegen" />
		<tag k="ssr:date" v="2019-02-18" />
		<tag k="ssr:gruppe" v="veg" />
		<tag k="ssr:hovedgruppe" v="infrastruktur" />
		<tag k="ssr:stedsnr" v="544680" />
		<tag k="ssr:type" v="vegstrekning" />
	</node>
	<node id="-88580" lat="61.2824704817" lon="11.3260315207">
		<tag k="name" v="Brennteigvegen" />
		<tag k="ssr:date" v="2019-02-18" />
		<tag k="ssr:gruppe" v="veg" />
		<tag k="ssr:hovedgruppe" v="infrastruktur" />
		<tag k="ssr:stedsnr" v="969857" />
		<tag k="ssr:type" v="vegstrekning" />
	</node>
	<node id="-88579" lat="61.377141666" lon="11.2404833343">
		<tag k="name" v="Grønfløtningsvegen" />
		<tag k="ssr:date" v="2019-02-18" />
		<tag k="ssr:gruppe" v="veg" />
		<tag k="ssr:hovedgruppe" v="infrastruktur" />
		<tag k="ssr:stedsnr" v="969799" />
		<tag k="ssr:type" v="vegstrekning" />
	</node>
</osm>
