<?xml version="1.0" encoding="UTF-8"?>
<osm generator="osmapis" version="0.6">
	<node id="-201852" lat="58.9799888864" lon="9.81449721384">
		<tag k="fixme" v="consider boundary=protected_area and relevant protect_class if not nature reserve" />
		<tag k="leisure" v="nature_reserve" />
		<tag k="name" v="FuglÃ¸yrogn naturreservat" />
		<tag k="ssr:stedsnr" v="755336" />
	</node>
	<node id="-202320" lat="59.0673944418" lon="9.86456111038">
		<tag k="fixme" v="consider boundary=protected_area and relevant protect_class if not nature reserve" />
		<tag k="leisure" v="nature_reserve" />
		<tag k="name" v="Elva naturreservat" />
		<tag k="ssr:stedsnr" v="937194" />
	</node>
	<node id="-204334" lat="59.0738500034" lon="10.2084472284">
		<tag k="fixme" v="consider boundary=protected_area and relevant protect_class if not nature reserve" />
		<tag k="leisure" v="nature_reserve" />
		<tag k="name" v="Hemskilen naturreservat" />
		<tag k="ssr:stedsnr" v="755906" />
	</node>
	<node id="-205129" lat="59.271961107" lon="9.83618888439">
		<tag k="fixme" v="multiple name tags, choose one and add the other to alt_name" />
		<tag k="historic" v="boundary_stone" />
		<tag k="man_made" v="cairn" />
		<tag k="name" v="Brennsteinen;Den brente stein" />
		<tag k="place" v="locality" />
		<tag k="ssr:stedsnr" v="487486" />
	</node>
	<node id="-202664" lat="59.0906999975" lon="9.94590555846">
		<tag k="fixme" v="consider boundary=protected_area and relevant protect_class if not nature reserve" />
		<tag k="leisure" v="nature_reserve" />
		<tag k="name" v="Stormyr naturreservat" />
		<tag k="ssr:stedsnr" v="27892" />
	</node>
	<node id="-203042" lat="59.1119583362" lon="10.0560527769">
		<tag k="fixme" v="consider boundary=protected_area and relevant protect_class if not nature reserve" />
		<tag k="leisure" v="nature_reserve" />
		<tag k="name" v="Lunde naturreservat" />
		<tag k="ssr:stedsnr" v="910919" />
	</node>
</osm>
