<?xml version="1.0" encoding="UTF-8"?>
<osm generator="osmapis" version="0.6">
	<node id="-205696" lat="59.3463111076" lon="9.91422499145">
		<tag k="name" v="Kjærra" />
		<tag k="ssr:stedsnr" v="634202" />
		<tag k="tourism" v="attraction" />
	</node>
	<node id="-203646" lat="59.1970222231" lon="9.96650000027">
		<tag k="alt_name" v="Kvelde kirke" />
		<tag k="amenity" v="place_of_worship" />
		<tag k="denomination" v="lutheran" />
		<tag k="name" v="Kvelde" />
		<tag k="religion" v="christian" />
		<tag k="ssr:stedsnr" v="912719" />
	</node>
	<node id="-205687" lat="59.4263694433" lon="10.020916673">
		<tag k="amenity" v="place_of_worship" />
		<tag k="denomination" v="lutheran" />
		<tag k="name" v="Hem" />
		<tag k="religion" v="christian" />
		<tag k="ssr:stedsnr" v="609163" />
	</node>
	<node id="-201846" lat="59.0499972257" lon="9.99921110575">
		<tag k="name" v="Veldre naturminne" />
		<tag k="ssr:stedsnr" v="391101" />
		<tag k="tourism" v="attraction" />
	</node>
	<node id="-203765" lat="58.9956388847" lon="10.0377777719">
		<tag k="name" v="Fredriksvern verft" />
		<tag k="ssr:stedsnr" v="513530" />
		<tag k="tourism" v="museum" />
	</node>
	<node id="-203376" lat="58.9703972218" lon="9.830477778">
		<tag k="name" v="Mølen gravhauger" />
		<tag k="ssr:stedsnr" v="816362" />
		<tag k="tourism" v="attraction" />
	</node>
	<node id="-204647" lat="59.2636888861" lon="9.93782777196">
		<tag k="amenity" v="place_of_worship" />
		<tag k="denomination" v="lutheran" />
		<tag k="name" v="Hvarnes" />
		<tag k="religion" v="christian" />
		<tag k="ssr:stedsnr" v="852040" />
	</node>
	<node id="-201312" lat="59.0498138919" lon="9.96508055931">
		<tag k="amenity" v="place_of_worship" />
		<tag k="denomination" v="lutheran" />
		<tag k="name" v="Sportskapellet" />
		<tag k="religion" v="christian" />
		<tag k="ssr:stedsnr" v="209130" />
	</node>
	<node id="-203865" lat="59.0375000009" lon="10.0722222274">
		<tag k="amenity" v="place_of_worship" />
		<tag k="denomination" v="lutheran" />
		<tag k="name" v="Østre Halsen" />
		<tag k="religion" v="christian" />
		<tag k="ssr:stedsnr" v="146848" />
	</node>
	<node id="-202968" lat="58.9934388918" lon="9.9164861047">
		<tag k="amenity" v="community_centre" />
		<tag k="name" v="Fredly bedehus" />
		<tag k="ssr:stedsnr" v="209461" />
	</node>
	<node id="-203604" lat="58.990174999" lon="9.90810278304">
		<tag k="amenity" v="place_of_worship" />
		<tag k="denomination" v="lutheran" />
		<tag k="name" v="Brunlanes frikirke" />
		<tag k="religion" v="christian" />
		<tag k="ssr:stedsnr" v="513490" />
	</node>
	<node id="-200915" lat="59.1231583293" lon="10.0596416649">
		<tag k="amenity" v="place_of_worship" />
		<tag k="denomination" v="lutheran" />
		<tag k="name" v="Hedrum" />
		<tag k="religion" v="christian" />
		<tag k="ssr:stedsnr" v="487028" />
	</node>
	<node id="-202703" lat="59.0669361142" lon="10.055880563">
		<tag k="amenity" v="place_of_worship" />
		<tag k="denomination" v="lutheran" />
		<tag k="name" v="Nanset kirke" />
		<tag k="religion" v="christian" />
		<tag k="ssr:stedsnr" v="27038" />
	</node>
	<node id="-202183" lat="58.970233331" lon="9.83024722349">
		<tag k="name" v="Mølen gravhauger" />
		<tag k="place" v="locality" />
		<tag k="ssr:stedsnr" v="450276" />
	</node>
	<node id="-200900" lat="58.9930444472" lon="9.9190666596">
		<tag k="amenity" v="place_of_worship" />
		<tag k="denomination" v="lutheran" />
		<tag k="name" v="Berg gamle kirke" />
		<tag k="religion" v="christian" />
		<tag k="ssr:stedsnr" v="452247" />
	</node>
	<node id="-205878" lat="59.3374111144" lon="9.89520554881">
		<tag k="amenity" v="place_of_worship" />
		<tag k="denomination" v="lutheran" />
		<tag k="name" v="Styrvoll" />
		<tag k="religion" v="christian" />
		<tag k="ssr:stedsnr" v="63378" />
	</node>
	<node id="-203585" lat="59.0566777819" lon="10.1256611142">
		<tag k="alt_name" v="Tjølling kirke" />
		<tag k="amenity" v="place_of_worship" />
		<tag k="denomination" v="lutheran" />
		<tag k="name" v="Tjølling" />
		<tag k="religion" v="christian" />
		<tag k="ssr:stedsnr" v="608149" />
	</node>
	<node id="-204096" lat="59.0248944419" lon="9.97266943684">
		<tag k="amenity" v="community_centre" />
		<tag k="name" v="Tunheim forsamlingslokale" />
		<tag k="ssr:stedsnr" v="816527" />
	</node>
	<node id="-203062" lat="58.9912249994" lon="9.91529999809">
		<tag k="alt_name" v="Berg kirke" />
		<tag k="amenity" v="place_of_worship" />
		<tag k="denomination" v="lutheran" />
		<tag k="name" v="Berg" />
		<tag k="religion" v="christian" />
		<tag k="ssr:stedsnr" v="61601" />
	</node>
	<node id="-202417" lat="59.0467250027" lon="10.0353527853">
		<tag k="amenity" v="place_of_worship" />
		<tag k="denomination" v="lutheran" />
		<tag k="name" v="Larvik kirke" />
		<tag k="religion" v="christian" />
		<tag k="ssr:stedsnr" v="633135" />
	</node>
	<node id="-202158" lat="59.0522472186" lon="9.98909721664">
		<tag k="name" v="Veldre naturminne" />
		<tag k="ssr:stedsnr" v="937134" />
		<tag k="tourism" v="attraction" />
	</node>
	<node id="-204199" lat="58.991452781" lon="10.0367861172">
		<tag k="name" v="Minnehallen" />
		<tag k="ssr:stedsnr" v="816542" />
		<tag k="tourism" v="attraction" />
	</node>
	<node id="-202141" lat="59.0496249981" lon="10.0102749928">
		<tag k="alt_name" v="Langestrand" />
		<tag k="amenity" v="place_of_worship" />
		<tag k="denomination" v="lutheran" />
		<tag k="name" v="Langestrand kirke" />
		<tag k="religion" v="christian" />
		<tag k="ssr:stedsnr" v="937138" />
	</node>
	<node id="-202585" lat="59.0438361145" lon="10.0546277854">
		<tag k="amenity" v="place_of_worship" />
		<tag k="denomination" v="lutheran" />
		<tag k="name" v="Undersbo kirkegård" />
		<tag k="religion" v="christian" />
		<tag k="ssr:stedsnr" v="391247" />
	</node>
	<node id="-202772" lat="59.0239000033" lon="9.96966388149">
		<tag k="alt_name" v="Tanum kirke" />
		<tag k="amenity" v="place_of_worship" />
		<tag k="denomination" v="lutheran" />
		<tag k="name" v="Tanum" />
		<tag k="religion" v="christian" />
		<tag k="ssr:stedsnr" v="851209" />
	</node>
	<node id="-204819" lat="59.402363887" lon="9.96116111367">
		<tag k="alt_name" v="Svarstad" />
		<tag k="amenity" v="place_of_worship" />
		<tag k="denomination" v="lutheran" />
		<tag k="name" v="Svarstad kirke" />
		<tag k="religion" v="christian" />
		<tag k="ssr:stedsnr" v="731261" />
	</node>
	<node id="-201228" lat="59.1077749984" lon="9.91750555838">
		<tag k="alt_name" v="Kjose kirke" />
		<tag k="amenity" v="place_of_worship" />
		<tag k="denomination" v="lutheran" />
		<tag k="name" v="Kjose" />
		<tag k="religion" v="christian" />
		<tag k="ssr:stedsnr" v="305413" />
	</node>
	<node id="-201782" lat="59.0967805595" lon="10.1741500052">
		<tag k="alt_name" v="Istrehågan" />
		<tag k="name" v="Istrehagan" />
		<tag k="ssr:stedsnr" v="572339" />
		<tag k="tourism" v="attraction" />
	</node>
	<node id="-204426" lat="59.0181888924" lon="9.915311115">
		<tag k="amenity" v="community_centre" />
		<tag k="name" v="Halle bedehus" />
		<tag k="ssr:stedsnr" v="938430" />
	</node>
</osm>
