<?xml version="1.0" encoding="UTF-8"?>
<<<<<<< HEAD
<osm version="0.6" generator="osmapis">
	<node lat="68.59367153983293" lon="14.308212758266391" id="-11461">
=======
<osm generator="osmapis" version="0.6">
	<node id="-199935" lat="68.7798722188" lon="14.4700833379">
		<tag k="name" v="Nykvåg molo" />
		<tag k="ssr:date" v="2016-05-10" />
		<tag k="ssr:gruppe" v="navigasjon" />
		<tag k="ssr:hovedgruppe" v="infrastruktur" />
		<tag k="ssr:stedsnr" v="175869" />
		<tag k="ssr:type" v="lanterne" />
	</node>
	<node id="-200571" lat="68.589316666" lon="14.4126999947">
		<tag k="name" v="Odden" />
		<tag k="ssr:date" v="2016-05-11" />
		<tag k="ssr:gruppe" v="navigasjon" />
		<tag k="ssr:hovedgruppe" v="infrastruktur" />
		<tag k="ssr:stedsnr" v="806332" />
		<tag k="ssr:type" v="fyrlykt" />
	</node>
	<node id="-200040" lat="68.7702194426" lon="14.6943527675">
		<tag k="name" v="Møkland" />
		<tag k="ssr:date" v="2016-05-10" />
		<tag k="ssr:gruppe" v="navigasjon" />
		<tag k="ssr:hovedgruppe" v="infrastruktur" />
		<tag k="ssr:stedsnr" v="321483" />
		<tag k="ssr:type" v="fyrlykt" />
	</node>
	<node id="-198759" lat="68.5935361154" lon="14.308794434">
>>>>>>> e1d4bc35ff8a6074a6f2e91616a996b547c36f15
		<tag k="name" v="Litløy" />
		<tag k="old_name" v="Litløy fyr" />
		<tag k="ssr:date" v="2020-09-01" />
		<tag k="ssr:gruppe" v="navigasjon" />
		<tag k="ssr:hovedgruppe" v="infrastruktur" />
		<tag k="ssr:stedsnr" v="259334" />
		<tag k="ssr:type" v="fyrstasjon" />
	</node>
<<<<<<< HEAD
	<node lat="68.81240555157872" lon="14.533738895198752" id="-11488">
=======
	<node id="-198801" lat="68.8124055516" lon="14.5337388952">
>>>>>>> e1d4bc35ff8a6074a6f2e91616a996b547c36f15
		<tag k="name" v="Nautneset" />
		<tag k="ssr:date" v="2016-05-10" />
		<tag k="ssr:gruppe" v="navigasjon" />
		<tag k="ssr:hovedgruppe" v="infrastruktur" />
		<tag k="ssr:stedsnr" v="260940" />
		<tag k="ssr:type" v="fyrlykt" />
	</node>
<<<<<<< HEAD
	<node lat="68.779872218804" lon="14.470083337929228" id="-11491">
		<tag k="name" v="Nykvåg molo" />
=======
	<node id="-200030" lat="68.6761694447" lon="14.3767444458">
		<tag k="name" v="Skårvågen" />
>>>>>>> e1d4bc35ff8a6074a6f2e91616a996b547c36f15
		<tag k="ssr:date" v="2016-05-10" />
		<tag k="ssr:gruppe" v="navigasjon" />
		<tag k="ssr:hovedgruppe" v="infrastruktur" />
		<tag k="ssr:stedsnr" v="175869" />
		<tag k="ssr:type" v="lanterne" />
	</node>
<<<<<<< HEAD
	<node lat="68.68333333325107" lon="14.116666672397201" id="-11626">
		<tag k="name" v="Djuphola" />
		<tag k="ssr:date" v="2019-09-11" />
		<tag k="ssr:gruppe" v="sjøbunn" />
		<tag k="ssr:hovedgruppe" v="sjø" />
		<tag k="ssr:stedsnr" v="302213" />
		<tag k="ssr:type" v="søkkISjø" />
	</node>
	<node lat="68.77021944263595" lon="14.69435276745064" id="-11639">
		<tag k="name" v="Møkland" />
		<tag k="ssr:date" v="2016-05-10" />
		<tag k="ssr:gruppe" v="navigasjon" />
		<tag k="ssr:hovedgruppe" v="infrastruktur" />
		<tag k="ssr:stedsnr" v="321483" />
		<tag k="ssr:type" v="fyrlykt" />
	</node>
	<node lat="68.61946388513064" lon="14.406330564203193" id="-11726">
		<tag k="name" v="Korsvalen" />
		<tag k="ssr:date" v="2016-05-10" />
		<tag k="ssr:gruppe" v="sjøbunn" />
		<tag k="ssr:hovedgruppe" v="sjø" />
		<tag k="ssr:stedsnr" v="400130" />
		<tag k="ssr:type" v="renneKløftISjø" />
	</node>
	<node lat="68.60789722505329" lon="14.335658345826513" id="-11746">
		<tag k="name" v="Skarvhella" />
		<tag k="ssr:date" v="2016-05-10" />
		<tag k="ssr:gruppe" v="sjøbunn" />
		<tag k="ssr:hovedgruppe" v="sjø" />
		<tag k="ssr:stedsnr" v="441310" />
		<tag k="ssr:type" v="eggISjø" />
	</node>
	<node lat="68.77864999684435" lon="14.46471666075452" id="-11786">
		<tag k="name" v="Nykvåg, Øvre" />
=======
	<node id="-200795" lat="69.6388889725" lon="30.5666644427">
		<tag k="fixme" v="multiple name tags, choose one and add the other to alt_name" />
		<tag k="loc_name:se" v="Norgga gonagasriika" />
		<tag k="loc_name:sma" v="Nöörjen gånkarïjhke" />
		<tag k="loc_name:smj" v="Vuona gånågisrijkka" />
		<tag k="name" v="Noreg;Norge" />
		<tag k="name:en" v="Norway" />
		<tag k="name:no" v="Noreg;Norge" />
		<tag k="ssr:date" v="2020-06-04" />
		<tag k="ssr:gruppe" v="administrativeIndelinger" />
		<tag k="ssr:hovedgruppe" v="offentligAdministrasjon" />
		<tag k="ssr:stedsnr" v="26330" />
		<tag k="ssr:type" v="nasjon" />
	</node>
	<node id="-200655" lat="68.7054500031" lon="14.4325749973">
		<tag k="name" v="Straumsjøen, øvre" />
		<tag k="ssr:date" v="2016-05-11" />
		<tag k="ssr:gruppe" v="navigasjon" />
		<tag k="ssr:hovedgruppe" v="infrastruktur" />
		<tag k="ssr:stedsnr" v="843876" />
		<tag k="ssr:type" v="lanterne" />
	</node>
	<node id="-198869" lat="68.6939777807" lon="14.3927166692">
		<tag k="name" v="Bølklubben" />
>>>>>>> e1d4bc35ff8a6074a6f2e91616a996b547c36f15
		<tag k="ssr:date" v="2016-05-10" />
		<tag k="ssr:gruppe" v="navigasjon" />
		<tag k="ssr:hovedgruppe" v="infrastruktur" />
		<tag k="ssr:stedsnr" v="479902" />
		<tag k="ssr:type" v="lanterne" />
	</node>
<<<<<<< HEAD
	<node lat="68.68379444108139" lon="14.692791675515506" id="-11811">
		<tag k="name" v="Seingskjæret" />
		<tag k="old_name" v="Sædingskjeret" />
		<tag k="ssr:date" v="2016-05-11" />
		<tag k="ssr:gruppe" v="navigasjon" />
		<tag k="ssr:hovedgruppe" v="infrastruktur" />
		<tag k="ssr:stedsnr" v="745651" />
		<tag k="ssr:type" v="fyrlykt" />
	</node>
	<node lat="68.64813338367" lon="14.66392671400265" id="-11864">
		<tag k="name" v="Ringstad" />
		<tag k="ssr:date" v="2020-09-15" />
		<tag k="ssr:gruppe" v="navigasjon" />
		<tag k="ssr:hovedgruppe" v="infrastruktur" />
		<tag k="ssr:stedsnr" v="685680" />
		<tag k="ssr:type" v="fyrlykt" />
	</node>
	<node lat="68.83149722361225" lon="14.563422231826825" id="-11865">
=======
	<node id="-200020" lat="68.7016444419" lon="14.425286122">
		<tag k="name" v="Sørleia, Nedre" />
		<tag k="old_name" v="Sørleia" />
		<tag k="ssr:date" v="2016-05-10" />
		<tag k="ssr:gruppe" v="navigasjon" />
		<tag k="ssr:hovedgruppe" v="infrastruktur" />
		<tag k="ssr:stedsnr" v="321275" />
		<tag k="ssr:type" v="lanterne" />
	</node>
	<node id="-200527" lat="68.8363888904" lon="14.541386119">
		<tag k="loc_name:se" v="Viestterálas" />
		<tag k="name" v="Vesterålen" />
		<tag k="name:no" v="Vesterålen" />
		<tag k="ssr:date" v="2019-12-27" />
		<tag k="ssr:gruppe" v="terrengområder" />
		<tag k="ssr:hovedgruppe" v="terreng" />
		<tag k="ssr:stedsnr" v="753757" />
		<tag k="ssr:type" v="landskapsområde" />
	</node>
	<node id="-200778" lat="68.5934298674" lon="14.308854561">
		<tag k="name" v="Litløya" />
		<tag k="ssr:date" v="2019-05-30" />
		<tag k="ssr:gruppe" v="veg" />
		<tag k="ssr:hovedgruppe" v="infrastruktur" />
		<tag k="ssr:stedsnr" v="1035782" />
		<tag k="ssr:type" v="adressenavn" />
	</node>
	<node id="-199753" lat="68.7365777758" lon="14.4489944535">
		<tag k="alt_name" v="Åsanfjord" />
		<tag k="name" v="Åsandfjord" />
		<tag k="ssr:date" v="2016-05-10" />
		<tag k="ssr:gruppe" v="navigasjon" />
		<tag k="ssr:hovedgruppe" v="infrastruktur" />
		<tag k="ssr:stedsnr" v="78342" />
		<tag k="ssr:type" v="fyrlykt" />
	</node>
	<node id="-199240" lat="68.8314972236" lon="14.5634222318">
>>>>>>> e1d4bc35ff8a6074a6f2e91616a996b547c36f15
		<tag k="name" v="Frugga" />
		<tag k="ssr:date" v="2016-05-11" />
		<tag k="ssr:gruppe" v="navigasjon" />
		<tag k="ssr:hovedgruppe" v="infrastruktur" />
		<tag k="ssr:stedsnr" v="685869" />
		<tag k="ssr:type" v="fyrlykt" />
	</node>
<<<<<<< HEAD
	<node lat="68.70627976294195" lon="14.429621793520083" id="-11985">
		<tag k="alt_name" v="Straumsjøen, nedre" />
		<tag k="name" v="Nedre Straumsjøen" />
		<tag k="ssr:date" v="2020-09-15" />
=======
	<node id="-198855" lat="68.7016138853" lon="14.4276055597">
		<tag k="name" v="Sørleia, Øvre" />
		<tag k="ssr:date" v="2016-05-10" />
>>>>>>> e1d4bc35ff8a6074a6f2e91616a996b547c36f15
		<tag k="ssr:gruppe" v="navigasjon" />
		<tag k="ssr:hovedgruppe" v="infrastruktur" />
		<tag k="ssr:stedsnr" v="661879" />
		<tag k="ssr:type" v="fyrlykt" />
	</node>
<<<<<<< HEAD
	<node lat="68.77818611258044" lon="14.464302782310785" id="-12028">
		<tag k="name" v="Nykvåg, Nedre" />
=======
	<node id="-199237" lat="68.6480527748" lon="14.6639749957">
		<tag k="name" v="Ringstad" />
>>>>>>> e1d4bc35ff8a6074a6f2e91616a996b547c36f15
		<tag k="ssr:date" v="2016-05-11" />
		<tag k="ssr:gruppe" v="navigasjon" />
		<tag k="ssr:hovedgruppe" v="infrastruktur" />
		<tag k="ssr:stedsnr" v="722911" />
		<tag k="ssr:type" v="lanterne" />
	</node>
<<<<<<< HEAD
	<node lat="68.8363888903803" lon="14.541386119048228" id="-12065">
		<tag k="loc_name:se" v="Viestterálas" />
		<tag k="name" v="Vesterålen" />
		<tag k="name:no" v="Vesterålen" />
		<tag k="ssr:date" v="2019-12-27" />
		<tag k="ssr:gruppe" v="terrengområder" />
		<tag k="ssr:hovedgruppe" v="terreng" />
		<tag k="ssr:stedsnr" v="753757" />
		<tag k="ssr:type" v="landskapsområde" />
	</node>
	<node lat="68.70545000308485" lon="14.432574997336193" id="-12113">
		<tag k="name" v="Straumsjøen, øvre" />
		<tag k="ssr:date" v="2016-05-11" />
=======
	<node id="-199107" lat="68.817480553" lon="14.5554860989">
		<tag k="name" v="Hovden" />
		<tag k="ssr:date" v="2016-05-10" />
		<tag k="ssr:gruppe" v="navigasjon" />
		<tag k="ssr:hovedgruppe" v="infrastruktur" />
		<tag k="ssr:stedsnr" v="503841" />
		<tag k="ssr:type" v="fyrlykt" />
	</node>
	<node id="-199354" lat="68.7062638869" lon="14.4296305512">
		<tag k="alt_name" v="Straumsjøen, nedre" />
		<tag k="name" v="Nedre Straumsjøen" />
		<tag k="ssr:date" v="2016-05-10" />
>>>>>>> e1d4bc35ff8a6074a6f2e91616a996b547c36f15
		<tag k="ssr:gruppe" v="navigasjon" />
		<tag k="ssr:hovedgruppe" v="infrastruktur" />
		<tag k="ssr:stedsnr" v="843876" />
		<tag k="ssr:type" v="lanterne" />
	</node>
<<<<<<< HEAD
	<node lat="68.60283055485637" lon="14.458719433029538" id="-12246">
		<tag k="name" v="Karvikholmen" />
		<tag k="ssr:date" v="2016-05-11" />
=======
	<node id="-199094" lat="68.6358611127" lon="14.3534527661">
		<tag k="name" v="Flatholmen" />
		<tag k="ssr:date" v="2016-05-10" />
>>>>>>> e1d4bc35ff8a6074a6f2e91616a996b547c36f15
		<tag k="ssr:gruppe" v="navigasjon" />
		<tag k="ssr:hovedgruppe" v="infrastruktur" />
		<tag k="ssr:stedsnr" v="947278" />
		<tag k="ssr:type" v="fyrlykt" />
	</node>
<<<<<<< HEAD
	<node lat="68.78426388960187" lon="14.632152785945774" id="-12247">
=======
	<node id="-199605" lat="68.7842638896" lon="14.6321527859">
>>>>>>> e1d4bc35ff8a6074a6f2e91616a996b547c36f15
		<tag k="name" v="Chefsgrunnen" />
		<tag k="old_name" v="Jennskarbotn, Nedre" />
		<tag k="ssr:date" v="2016-05-11" />
		<tag k="ssr:gruppe" v="navigasjon" />
		<tag k="ssr:hovedgruppe" v="infrastruktur" />
		<tag k="ssr:stedsnr" v="947303" />
		<tag k="ssr:type" v="fyrlykt" />
	</node>
<<<<<<< HEAD
	<node lat="68.59951666417794" lon="14.48615555329406" id="-12332">
		<tag k="name" v="Valen" />
		<tag k="ssr:date" v="2016-05-10" />
		<tag k="ssr:gruppe" v="sjøbunn" />
		<tag k="ssr:hovedgruppe" v="sjø" />
		<tag k="ssr:stedsnr" v="36429" />
		<tag k="ssr:type" v="renneKløftISjø" />
	</node>
	<node lat="68.73647163283" lon="14.449670831152668" id="-12365">
		<tag k="alt_name" v="Åsanfjord" />
		<tag k="name" v="Åsandfjord" />
		<tag k="ssr:date" v="2020-09-15" />
		<tag k="ssr:gruppe" v="navigasjon" />
		<tag k="ssr:hovedgruppe" v="infrastruktur" />
		<tag k="ssr:stedsnr" v="78342" />
		<tag k="ssr:type" v="fyrlykt" />
	</node>
	<node lat="68.68823055324884" lon="14.478988899303598" id="-12473">
=======
	<node id="-198836" lat="68.6882305532" lon="14.4789888993">
>>>>>>> e1d4bc35ff8a6074a6f2e91616a996b547c36f15
		<tag k="name" v="Bø kommune" />
		<tag k="ssr:date" v="2016-05-10" />
		<tag k="ssr:gruppe" v="administrativeIndelinger" />
		<tag k="ssr:hovedgruppe" v="offentligAdministrasjon" />
		<tag k="ssr:stedsnr" v="146705" />
		<tag k="ssr:type" v="kommune" />
	</node>
<<<<<<< HEAD
	<node lat="68.60198333755851" lon="14.476863882213367" id="-12571">
		<tag k="name" v="Gjersøygrunnen" />
		<tag k="ssr:date" v="2016-05-10" />
		<tag k="ssr:gruppe" v="sjøbunn" />
		<tag k="ssr:hovedgruppe" v="sjø" />
		<tag k="ssr:stedsnr" v="218458" />
		<tag k="ssr:type" v="ryggISjø" />
	</node>
	<node lat="68.70161465195896" lon="14.427581737551218" id="-12584">
		<tag k="name" v="Sørleia, Øvre" />
		<tag k="ssr:date" v="2020-09-01" />
		<tag k="ssr:gruppe" v="navigasjon" />
		<tag k="ssr:hovedgruppe" v="infrastruktur" />
		<tag k="ssr:stedsnr" v="279337" />
		<tag k="ssr:type" v="lanterne" />
	</node>
	<node lat="68.69397778071064" lon="14.392716669205578" id="-12593">
		<tag k="name" v="Bølklubben" />
		<tag k="ssr:date" v="2016-05-10" />
		<tag k="ssr:gruppe" v="navigasjon" />
		<tag k="ssr:hovedgruppe" v="infrastruktur" />
		<tag k="ssr:stedsnr" v="280229" />
		<tag k="ssr:type" v="lanterne" />
	</node>
	<node lat="68.70163661248118" lon="14.425290626946762" id="-12620">
		<tag k="name" v="Sørleia, Nedre" />
		<tag k="old_name" v="Sørleia" />
		<tag k="ssr:date" v="2020-09-01" />
=======
	<node id="-200499" lat="68.6837944411" lon="14.6927916755">
		<tag k="name" v="Seingskjæret" />
		<tag k="old_name" v="Sædingskjeret" />
		<tag k="ssr:date" v="2016-05-11" />
		<tag k="ssr:gruppe" v="navigasjon" />
		<tag k="ssr:hovedgruppe" v="infrastruktur" />
		<tag k="ssr:stedsnr" v="745651" />
		<tag k="ssr:type" v="fyrlykt" />
	</node>
	<node id="-199327" lat="68.7781861126" lon="14.4643027823">
		<tag k="name" v="Nykvåg, Nedre" />
		<tag k="ssr:date" v="2016-05-11" />
>>>>>>> e1d4bc35ff8a6074a6f2e91616a996b547c36f15
		<tag k="ssr:gruppe" v="navigasjon" />
		<tag k="ssr:hovedgruppe" v="infrastruktur" />
		<tag k="ssr:stedsnr" v="321275" />
		<tag k="ssr:type" v="lanterne" />
	</node>
<<<<<<< HEAD
	<node lat="68.67616944468259" lon="14.376744445751854" id="-12627">
		<tag k="name" v="Skårvågen" />
=======
	<node id="-200217" lat="68.7766277763" lon="14.4710972287">
		<tag k="name" v="Nykvåg" />
>>>>>>> e1d4bc35ff8a6074a6f2e91616a996b547c36f15
		<tag k="ssr:date" v="2016-05-10" />
		<tag k="ssr:gruppe" v="navigasjon" />
		<tag k="ssr:hovedgruppe" v="infrastruktur" />
		<tag k="ssr:stedsnr" v="321362" />
		<tag k="ssr:type" v="fyrlykt" />
	</node>
<<<<<<< HEAD
	<node lat="68.60514560595857" lon="14.43926080529523" id="-12756">
=======
	<node id="-200216" lat="68.60516111" lon="14.4393000098">
>>>>>>> e1d4bc35ff8a6074a6f2e91616a996b547c36f15
		<tag k="name" v="Skagen" />
		<tag k="ssr:date" v="2020-09-15" />
		<tag k="ssr:gruppe" v="navigasjon" />
		<tag k="ssr:hovedgruppe" v="infrastruktur" />
		<tag k="ssr:stedsnr" v="401257" />
		<tag k="ssr:type" v="fyrlykt" />
	</node>
<<<<<<< HEAD
	<node lat="68.77662777629895" lon="14.471097228712042" id="-12757">
		<tag k="name" v="Nykvåg" />
		<tag k="ssr:date" v="2016-05-10" />
=======
	<node id="-200723" lat="68.8261833295" lon="14.5676499988">
		<tag k="name" v="Frugga sørpynt" />
		<tag k="ssr:date" v="2016-05-11" />
>>>>>>> e1d4bc35ff8a6074a6f2e91616a996b547c36f15
		<tag k="ssr:gruppe" v="navigasjon" />
		<tag k="ssr:hovedgruppe" v="infrastruktur" />
		<tag k="ssr:stedsnr" v="401268" />
		<tag k="ssr:type" v="fyrlykt" />
	</node>
<<<<<<< HEAD
	<node lat="68.71196682955053" lon="14.424604230067356" id="-12785">
		<tag k="name" v="Flaskforet" />
		<tag k="ssr:date" v="2020-09-15" />
		<tag k="ssr:gruppe" v="navigasjon" />
		<tag k="ssr:hovedgruppe" v="infrastruktur" />
		<tag k="ssr:stedsnr" v="442330" />
		<tag k="ssr:type" v="fyrlykt" />
	</node>
	<node lat="68.73897442903848" lon="14.50829356166857" id="-12787">
=======
	<node id="-198930" lat="68.7390138897" lon="14.5078388897">
>>>>>>> e1d4bc35ff8a6074a6f2e91616a996b547c36f15
		<tag k="name" v="Torvøy" />
		<tag k="old_name" v="Torvøya" />
		<tag k="ssr:date" v="2020-09-15" />
		<tag k="ssr:gruppe" v="navigasjon" />
		<tag k="ssr:hovedgruppe" v="infrastruktur" />
		<tag k="ssr:stedsnr" v="442359" />
		<tag k="ssr:type" v="fyrlykt" />
	</node>
<<<<<<< HEAD
	<node lat="68.63586111272437" lon="14.35345276608559" id="-12830">
		<tag k="name" v="Flatholmen" />
=======
	<node id="-198929" lat="68.7119750018" lon="14.4245277714">
		<tag k="name" v="Flaskforet" />
>>>>>>> e1d4bc35ff8a6074a6f2e91616a996b547c36f15
		<tag k="ssr:date" v="2016-05-10" />
		<tag k="ssr:gruppe" v="navigasjon" />
		<tag k="ssr:hovedgruppe" v="infrastruktur" />
		<tag k="ssr:stedsnr" v="503394" />
		<tag k="ssr:type" v="fyrlykt" />
	</node>
<<<<<<< HEAD
	<node lat="68.81748055302835" lon="14.555486098859355" id="-12850">
		<tag k="name" v="Hovden" />
		<tag k="ssr:date" v="2016-05-10" />
=======
	<node id="-200777" lat="68.6972027871" lon="14.8050340585">
		<tag k="name" v="Vestre Hellfjorden" />
		<tag k="ssr:date" v="2019-05-30" />
		<tag k="ssr:gruppe" v="veg" />
		<tag k="ssr:hovedgruppe" v="infrastruktur" />
		<tag k="ssr:stedsnr" v="1035871" />
		<tag k="ssr:type" v="adressenavn" />
	</node>
	<node id="-200581" lat="68.6988138901" lon="14.3911638794">
		<tag k="name" v="Leiskjær" />
		<tag k="old_name" v="Leiskjer" />
		<tag k="ssr:date" v="2016-05-11" />
>>>>>>> e1d4bc35ff8a6074a6f2e91616a996b547c36f15
		<tag k="ssr:gruppe" v="navigasjon" />
		<tag k="ssr:hovedgruppe" v="infrastruktur" />
		<tag k="ssr:stedsnr" v="503841" />
		<tag k="ssr:type" v="fyrlykt" />
	</node>
<<<<<<< HEAD
	<node lat="67.2804027758844" lon="14.376388898255625" id="-12866">
		<tag k="alt_name:no" v="Nordland" />
		<tag k="loc_name:se" v="Nordlándda fylka" />
		<tag k="loc_name:sma" v="Nordlaanten fylhke" />
		<tag k="name" v="Nordland fylke - Nordlánda fylkka" />
		<tag k="name:no" v="Nordland fylke" />
		<tag k="name:smj" v="Nordlánda fylkka" />
		<tag k="ssr:date" v="2021-02-03" />
		<tag k="ssr:gruppe" v="administrativeIndelinger" />
		<tag k="ssr:hovedgruppe" v="offentligAdministrasjon" />
		<tag k="ssr:stedsnr" v="511766" />
		<tag k="ssr:type" v="fylke" />
	</node>
	<node lat="68.58925595267456" lon="14.412702871183548" id="-13172">
		<tag k="name" v="Odden" />
		<tag k="ssr:date" v="2020-09-17" />
=======
	<node id="-199555" lat="68.6028305549" lon="14.458719433">
		<tag k="name" v="Karvikholmen" />
		<tag k="ssr:date" v="2016-05-11" />
>>>>>>> e1d4bc35ff8a6074a6f2e91616a996b547c36f15
		<tag k="ssr:gruppe" v="navigasjon" />
		<tag k="ssr:hovedgruppe" v="infrastruktur" />
		<tag k="ssr:stedsnr" v="806332" />
		<tag k="ssr:type" v="fyrlykt" />
	</node>
<<<<<<< HEAD
	<node lat="68.69881480481641" lon="14.391169322286217" id="-13179">
		<tag k="name" v="Leiskjær" />
		<tag k="old_name" v="Leiskjer" />
		<tag k="ssr:date" v="2020-09-01" />
=======
	<node id="-199169" lat="68.7786499968" lon="14.4647166608">
		<tag k="name" v="Nykvåg, Øvre" />
		<tag k="ssr:date" v="2016-05-10" />
>>>>>>> e1d4bc35ff8a6074a6f2e91616a996b547c36f15
		<tag k="ssr:gruppe" v="navigasjon" />
		<tag k="ssr:hovedgruppe" v="infrastruktur" />
		<tag k="ssr:stedsnr" v="806483" />
		<tag k="ssr:type" v="lanterne" />
	</node>
<<<<<<< HEAD
	<node lat="68.82653390476248" lon="14.567966214193152" id="-13262">
		<tag k="name" v="Frugga sørpynt" />
		<tag k="ssr:date" v="2020-09-17" />
		<tag k="ssr:gruppe" v="navigasjon" />
		<tag k="ssr:hovedgruppe" v="infrastruktur" />
		<tag k="ssr:stedsnr" v="867888" />
		<tag k="ssr:type" v="fyrlykt" />
	</node>
	<node lat="68.61752221952172" lon="14.342266674567906" id="-13278">
		<tag k="name" v="Skippersnakken" />
		<tag k="ssr:date" v="2016-05-11" />
		<tag k="ssr:gruppe" v="sjøbunn" />
		<tag k="ssr:hovedgruppe" v="sjø" />
		<tag k="ssr:stedsnr" v="867445" />
		<tag k="ssr:type" v="ryggISjø" />
	</node>
	<node lat="68.9114777735434" lon="14.323119438806309" id="-13398">
		<tag k="name" v="Hola" />
		<tag k="ssr:date" v="2016-05-11" />
		<tag k="ssr:gruppe" v="sjøbunn" />
		<tag k="ssr:hovedgruppe" v="sjø" />
		<tag k="ssr:stedsnr" v="966799" />
		<tag k="ssr:type" v="havdyp" />
	</node>
	<node lat="68.69720278711979" lon="14.805034058517956" id="-13405">
		<tag k="name" v="Vestre Hellfjorden" />
		<tag k="ssr:date" v="2019-05-30" />
		<tag k="ssr:gruppe" v="veg" />
		<tag k="ssr:hovedgruppe" v="infrastruktur" />
		<tag k="ssr:stedsnr" v="1035871" />
		<tag k="ssr:type" v="adressenavn" />
	</node>
	<node lat="68.59342986743776" lon="14.308854560950259" id="-13406">
		<tag k="name" v="Litløya" />
		<tag k="ssr:date" v="2019-05-30" />
		<tag k="ssr:gruppe" v="veg" />
		<tag k="ssr:hovedgruppe" v="infrastruktur" />
		<tag k="ssr:stedsnr" v="1035782" />
		<tag k="ssr:type" v="adressenavn" />
	</node>
=======
>>>>>>> e1d4bc35ff8a6074a6f2e91616a996b547c36f15
</osm>
