<?xml version="1.0" encoding="UTF-8"?>
<osm version="0.6" generator="osmapis">
	<node lat="70.62167780739988" lon="29.22284619121694" id="-38597">
		<tag k="name" v="Bryggaridalen" />
		<tag k="natural" v="valley" />
		<tag k="place" v="locality" />
		<tag k="ssr:date" v="2021-06-08" />
		<tag k="ssr:gruppe" v="senkninger" />
		<tag k="ssr:hovedgruppe" v="terreng" />
		<tag k="ssr:stedsnr" v="20392" />
		<tag k="ssr:type" v="dal" />
	</node>
	<node lat="70.68397224487177" lon="29.194446222337223" id="-38598">
		<tag k="name" v="Davidsenvannet" />
		<tag k="natural" v="water" />
		<tag k="ssr:date" v="2021-06-08" />
		<tag k="ssr:gruppe" v="stilleståendeVann" />
		<tag k="ssr:hovedgruppe" v="ferskvann" />
		<tag k="ssr:stedsnr" v="20399" />
		<tag k="ssr:type" v="tjern" />
	</node>
	<node lat="70.68935557816052" lon="29.24101287413764" id="-38599">
		<tag k="alt_name" v="Kløftvatnet, nordre" />
		<tag k="fixme" v="multiple name tags, choose one and add the other to alt_name" />
		<tag k="name" v="Nedre Kløft-vatnet;Nordre Kløftvatnet" />
		<tag k="natural" v="water" />
		<tag k="ssr:date" v="2019-12-27" />
		<tag k="ssr:gruppe" v="stilleståendeVann" />
		<tag k="ssr:hovedgruppe" v="ferskvann" />
		<tag k="ssr:stedsnr" v="20402" />
		<tag k="ssr:type" v="tjern" />
	</node>
	<node lat="70.5871944738906" lon="29.40485444504144" id="-38600">
		<tag k="fixme" v="consider natural=peak for the most distinct mountains in the district" />
		<tag k="name" v="Álosoaivi" />
		<tag k="name:se" v="Álosoaivi" />
		<tag k="natural" v="hill" />
		<tag k="old_name:se" v="Alusoaivi" />
		<tag k="place" v="locality" />
		<tag k="ssr:date" v="2019-12-27" />
		<tag k="ssr:gruppe" v="høyder" />
		<tag k="ssr:hovedgruppe" v="terreng" />
		<tag k="ssr:stedsnr" v="20486" />
		<tag k="ssr:type" v="fjell" />
	</node>
	<node lat="70.70260280406313" lon="29.366660064820994" id="-38601">
		<tag k="fixme" v="verify maritime location" />
		<tag k="mooring" v="yes" />
		<tag k="name" v="Kristofferstøa" />
		<tag k="place" v="locality" />
		<tag k="ssr:date" v="2019-12-27" />
		<tag k="ssr:gruppe" v="sjøfart" />
		<tag k="ssr:hovedgruppe" v="infrastruktur" />
		<tag k="ssr:stedsnr" v="47901" />
		<tag k="ssr:type" v="stø" />
	</node>
	<node lat="70.72331113447692" lon="29.31305174928188" id="-38602">
		<tag k="name" v="Plogvikhøgda" />
		<tag k="natural" v="hill" />
		<tag k="place" v="locality" />
		<tag k="ssr:date" v="2019-12-27" />
		<tag k="ssr:gruppe" v="høyder" />
		<tag k="ssr:hovedgruppe" v="terreng" />
		<tag k="ssr:stedsnr" v="47920" />
		<tag k="ssr:type" v="høyde" />
	</node>
	<node lat="70.68228335762176" lon="28.55164088071525" id="-38603">
		<tag k="bay" v="fjord" />
		<tag k="name" v="Gulgofjorden - Vuođavuotna" />
		<tag k="name:no" v="Gulgofjorden" />
		<tag k="name:se" v="Vuođavuotna" />
		<tag k="natural" v="bay" />
		<tag k="old_name:se" v="Vuođavuodna" />
		<tag k="ssr:date" v="2021-06-08" />
		<tag k="ssr:gruppe" v="farvann" />
		<tag k="ssr:hovedgruppe" v="sjø" />
		<tag k="ssr:stedsnr" v="80346" />
		<tag k="ssr:type" v="fjord" />
	</node>
	<node lat="70.6660639173721" lon="29.284473960770807" id="-38604">
		<tag k="name" v="Grønneset - Sarvvesnjárga" />
		<tag k="name:no" v="Grønneset" />
		<tag k="name:se" v="Sarvvesnjárga" />
		<tag k="natural" v="cape" />
		<tag k="old_name:se" v="Sarvesnjarga" />
		<tag k="ssr:date" v="2019-12-27" />
		<tag k="ssr:gruppe" v="kystkontur" />
		<tag k="ssr:hovedgruppe" v="sjø" />
		<tag k="ssr:stedsnr" v="81403" />
		<tag k="ssr:type" v="nesISjø" />
	</node>
	<node lat="70.60524169053015" lon="28.94061019651739" id="-38605">
		<tag k="fixme" v="consider natural=peak for the most distinct mountains in the district" />
		<tag k="name" v="Buefjell - Dávgečearru" />
		<tag k="name:no" v="Buefjell" />
		<tag k="name:se" v="Dávgečearru" />
		<tag k="natural" v="hill" />
		<tag k="old_name:se" v="Davgečearru;Davgečærro" />
		<tag k="place" v="locality" />
		<tag k="ssr:date" v="2019-12-27" />
		<tag k="ssr:gruppe" v="høyder" />
		<tag k="ssr:hovedgruppe" v="terreng" />
		<tag k="ssr:stedsnr" v="86484" />
		<tag k="ssr:type" v="fjell" />
	</node>
	<node lat="70.6637500252525" lon="29.18863234411065" id="-38606">
		<tag k="name" v="Vesterdalshaugen" />
		<tag k="natural" v="hill" />
		<tag k="place" v="locality" />
		<tag k="ssr:date" v="2019-12-27" />
		<tag k="ssr:gruppe" v="høyder" />
		<tag k="ssr:hovedgruppe" v="terreng" />
		<tag k="ssr:stedsnr" v="105906" />
		<tag k="ssr:type" v="haug" />
	</node>
	<node lat="70.72738335640317" lon="28.51833535855262" id="-38607">
		<tag k="name" v="Gulgoodden - Guođggotgeahči" />
		<tag k="name:no" v="Gulgoodden" />
		<tag k="name:se" v="Guođggotgeahči" />
		<tag k="natural" v="cape" />
		<tag k="old_name:se" v="Guođgutgæčči" />
		<tag k="ssr:date" v="2021-06-08" />
		<tag k="ssr:gruppe" v="kystkontur" />
		<tag k="ssr:hovedgruppe" v="sjø" />
		<tag k="ssr:stedsnr" v="140373" />
		<tag k="ssr:type" v="nesISjø" />
	</node>
	<node lat="70.74857779743967" lon="28.555015894877254" id="-38608">
		<tag k="name" v="Fugleberget - Loddebákti" />
		<tag k="name:no" v="Fugleberget" />
		<tag k="name:se" v="Loddebákti" />
		<tag k="natural" v="hill" />
		<tag k="old_name:se" v="Låddebakti" />
		<tag k="place" v="locality" />
		<tag k="ssr:date" v="2019-12-27" />
		<tag k="ssr:gruppe" v="høyder" />
		<tag k="ssr:hovedgruppe" v="terreng" />
		<tag k="ssr:stedsnr" v="140376" />
		<tag k="ssr:type" v="berg" />
	</node>
	<node lat="70.64168335991951" lon="28.70376582466727" id="-38609">
		<tag k="name" v="Ávgajohka" />
		<tag k="name:se" v="Ávgajohka" />
		<tag k="old_name:se" v="Avgajåkka" />
		<tag k="ssr:date" v="2019-12-27" />
		<tag k="ssr:gruppe" v="rennendeVann" />
		<tag k="ssr:hovedgruppe" v="ferskvann" />
		<tag k="ssr:stedsnr" v="141343" />
		<tag k="ssr:type" v="elv" />
		<tag k="waterway" v="river" />
	</node>
	<node lat="70.64844169098332" lon="29.119171251647504" id="-38610">
		<tag k="name" v="Botnvannet" />
		<tag k="natural" v="water" />
		<tag k="ssr:date" v="2019-12-27" />
		<tag k="ssr:gruppe" v="stilleståendeVann" />
		<tag k="ssr:hovedgruppe" v="ferskvann" />
		<tag k="ssr:stedsnr" v="141398" />
		<tag k="ssr:type" v="vann" />
		<tag k="water" v="lake" />
	</node>
	<node lat="70.61526391326426" lon="29.322026715090864" id="-38611">
		<tag k="fixme" v="consider natural=peak for the most distinct mountains in the district" />
		<tag k="name" v="Sæterdalstoppen" />
		<tag k="natural" v="hill" />
		<tag k="place" v="locality" />
		<tag k="ssr:date" v="2019-12-27" />
		<tag k="ssr:gruppe" v="høyder" />
		<tag k="ssr:hovedgruppe" v="terreng" />
		<tag k="ssr:stedsnr" v="141409" />
		<tag k="ssr:type" v="fjell" />
	</node>
	<node lat="70.68522502610885" lon="29.33712673157301" id="-38612">
		<tag k="bay" v="fjord" />
		<tag k="name" v="Strømmen - Rivdnji" />
		<tag k="name:no" v="Strømmen" />
		<tag k="name:se" v="Rivdnji" />
		<tag k="natural" v="bay" />
		<tag k="ssr:date" v="2021-06-08" />
		<tag k="ssr:gruppe" v="farvann" />
		<tag k="ssr:hovedgruppe" v="sjø" />
		<tag k="ssr:stedsnr" v="141412" />
		<tag k="ssr:type" v="fjord" />
	</node>
	<node lat="70.794661133566" lon="28.661501986881927" id="-38613">
		<tag k="name" v="Stigeneset - Gálbbenjunni" />
		<tag k="name:no" v="Stigeneset" />
		<tag k="name:se" v="Gálbbenjunni" />
		<tag k="natural" v="cape" />
		<tag k="old_name:se" v="Galbenjunni" />
		<tag k="ssr:date" v="2019-12-27" />
		<tag k="ssr:gruppe" v="kystkontur" />
		<tag k="ssr:hovedgruppe" v="sjø" />
		<tag k="ssr:stedsnr" v="141935" />
		<tag k="ssr:type" v="nesISjø" />
	</node>
	<node lat="70.79181113100132" lon="29.3154101047848" id="-38614">
		<tag k="name" v="Tarevika" />
		<tag k="natural" v="bay" />
		<tag k="ssr:date" v="2019-12-27" />
		<tag k="ssr:gruppe" v="kystkontur" />
		<tag k="ssr:hovedgruppe" v="sjø" />
		<tag k="ssr:stedsnr" v="141986" />
		<tag k="ssr:type" v="vikISjø" />
	</node>
	<node lat="70.7848805788879" lon="29.348368432136557" id="-38615">
		<tag k="fixme" v="consider natural=peak for the most distinct mountains in the district" />
		<tag k="name" v="Nålnesaksla" />
		<tag k="natural" v="hill" />
		<tag k="place" v="locality" />
		<tag k="ssr:date" v="2021-06-08" />
		<tag k="ssr:gruppe" v="høyder" />
		<tag k="ssr:hovedgruppe" v="terreng" />
		<tag k="ssr:stedsnr" v="141987" />
		<tag k="ssr:type" v="topp" />
	</node>
	<node lat="70.77098057493416" lon="28.84630747200484" id="-38616">
		<tag k="fixme" v="consider natural=peak for the most distinct mountains in the district" />
		<tag k="name" v="Njálačohkat" />
		<tag k="name:se" v="Njálačohkat" />
		<tag k="natural" v="hill" />
		<tag k="old_name:se" v="Njalačåkkat" />
		<tag k="place" v="locality" />
		<tag k="ssr:date" v="2019-12-27" />
		<tag k="ssr:gruppe" v="høyder" />
		<tag k="ssr:hovedgruppe" v="terreng" />
		<tag k="ssr:stedsnr" v="141992" />
		<tag k="ssr:type" v="fjell" />
	</node>
	<node lat="70.76660835936906" lon="29.34902676305163" id="-38617">
		<tag k="name" v="Nordmannset - Struhppu" />
		<tag k="name:no" v="Nordmannset" />
		<tag k="name:se" v="Struhppu" />
		<tag k="old_name:se" v="Struppo" />
		<tag k="place" v="hamlet" />
		<tag k="ssr:date" v="2019-12-27" />
		<tag k="ssr:gruppe" v="bebyggelsesområder" />
		<tag k="ssr:hovedgruppe" v="bebyggelse" />
		<tag k="ssr:stedsnr" v="141998" />
		<tag k="ssr:type" v="grend" />
	</node>
	<node lat="70.85900835101226" lon="29.101071309997128" id="-38618">
		<tag k="man_made" v="breakwater" />
		<tag k="name" v="Vardnesmoloen" />
		<tag k="place" v="locality" />
		<tag k="ssr:date" v="2019-12-27" />
		<tag k="ssr:gruppe" v="sjøfart" />
		<tag k="ssr:hovedgruppe" v="infrastruktur" />
		<tag k="ssr:stedsnr" v="152309" />
		<tag k="ssr:type" v="molo" />
	</node>
	<node lat="70.86070601643881" lon="29.092760438571514" id="-38619">
		<tag k="leisure" v="park" />
		<tag k="name" v="Parken" />
		<tag k="ssr:date" v="2019-12-27" />
		<tag k="ssr:gruppe" v="fritidsanlegg" />
		<tag k="ssr:hovedgruppe" v="bebyggelse" />
		<tag k="ssr:stedsnr" v="152311" />
		<tag k="ssr:type" v="park" />
	</node>
	<node lat="70.85833891046137" lon="29.0928518812429" id="-38620">
		<tag k="landuse" v="harbour" />
		<tag k="name" v="Indre havn" />
		<tag k="seamark:type" v="harbour" />
		<tag k="ssr:date" v="2019-12-27" />
		<tag k="ssr:gruppe" v="sjøfart" />
		<tag k="ssr:hovedgruppe" v="infrastruktur" />
		<tag k="ssr:stedsnr" v="152313" />
		<tag k="ssr:type" v="havn" />
	</node>
	<node lat="70.83619446035907" lon="28.981924129964845" id="-38621">
		<tag k="name" v="Langlia" />
		<tag k="natural" v="slope" />
		<tag k="place" v="locality" />
		<tag k="ssr:date" v="2019-12-27" />
		<tag k="ssr:gruppe" v="skråninger" />
		<tag k="ssr:hovedgruppe" v="terreng" />
		<tag k="ssr:stedsnr" v="259677" />
		<tag k="ssr:type" v="li" />
	</node>
	<node lat="70.64163891774513" lon="29.192043428467805" id="-38622">
		<tag k="name" v="Bryggarimyra" />
		<tag k="natural" v="wetland" />
		<tag k="ssr:date" v="2019-12-27" />
		<tag k="ssr:gruppe" v="våtmark" />
		<tag k="ssr:hovedgruppe" v="markslag" />
		<tag k="ssr:stedsnr" v="166881" />
		<tag k="ssr:type" v="myr" />
	</node>
	<node lat="70.65753613883908" lon="29.205551773732335" id="-38623">
		<tag k="name" v="Svartvannet" />
		<tag k="natural" v="water" />
		<tag k="ssr:date" v="2019-12-27" />
		<tag k="ssr:gruppe" v="stilleståendeVann" />
		<tag k="ssr:hovedgruppe" v="ferskvann" />
		<tag k="ssr:stedsnr" v="166882" />
		<tag k="ssr:type" v="tjern" />
	</node>
	<node lat="70.73531391513013" lon="29.40176838192024" id="-38624">
		<tag k="name" v="Hattholmen - Háhttasuolu" />
		<tag k="name:no" v="Hattholmen" />
		<tag k="name:se" v="Háhttasuolu" />
		<tag k="old_name:se" v="Hattasuolo" />
		<tag k="place" v="islet" />
		<tag k="ssr:date" v="2019-12-27" />
		<tag k="ssr:gruppe" v="kystkontur" />
		<tag k="ssr:hovedgruppe" v="sjø" />
		<tag k="ssr:stedsnr" v="262422" />
		<tag k="ssr:type" v="holmeISjø" />
	</node>
	<node lat="70.72240835918359" lon="29.391540592946395" id="-38625">
		<tag k="name" v="Kua" />
		<tag k="natural" v="shoal" />
		<tag k="place" v="locality" />
		<tag k="ssr:date" v="2019-12-27" />
		<tag k="ssr:gruppe" v="grunnerISjø" />
		<tag k="ssr:hovedgruppe" v="sjø" />
		<tag k="ssr:stedsnr" v="262428" />
		<tag k="ssr:type" v="grunneISjø" />
	</node>
	<node lat="70.7222194643195" lon="28.64859363468231" id="-38626">
		<tag k="name" v="Baikačearru" />
		<tag k="name:se" v="Baikačearru" />
		<tag k="natural" v="plateau" />
		<tag k="old_name:se" v="Baikačærro" />
		<tag k="ssr:date" v="2019-12-27" />
		<tag k="ssr:gruppe" v="terrengområder" />
		<tag k="ssr:hovedgruppe" v="terreng" />
		<tag k="ssr:stedsnr" v="262357" />
		<tag k="ssr:type" v="vidde" />
	</node>
	<node lat="70.7112750280111" lon="29.24414621455978" id="-38627">
		<tag k="name" v="Hergevannet - Heargejávri" />
		<tag k="name:no" v="Hergevannet" />
		<tag k="name:se" v="Heargejávri" />
		<tag k="natural" v="water" />
		<tag k="old_name:se" v="Hærgejavri" />
		<tag k="ssr:date" v="2019-12-27" />
		<tag k="ssr:gruppe" v="stilleståendeVann" />
		<tag k="ssr:hovedgruppe" v="ferskvann" />
		<tag k="ssr:stedsnr" v="262434" />
		<tag k="ssr:type" v="vann" />
		<tag k="water" v="lake" />
	</node>
	<node lat="70.79067224036629" lon="28.754093618795608" id="-38628">
		<tag k="name" v="Stuorrajohka" />
		<tag k="name:se" v="Stuorrajohka" />
		<tag k="old_name:se" v="Stuorrajåkka" />
		<tag k="ssr:date" v="2019-12-27" />
		<tag k="ssr:gruppe" v="rennendeVann" />
		<tag k="ssr:hovedgruppe" v="ferskvann" />
		<tag k="ssr:stedsnr" v="262523" />
		<tag k="ssr:type" v="elv" />
		<tag k="waterway" v="river" />
	</node>
	<node lat="70.80057502234408" lon="29.28190733009909" id="-38629">
		<tag k="alt_name:no" v="Sandfjordbukta" />
		<tag k="loc_name:se" v="Sáttuvuonna" />
		<tag k="name" v="Sandfjorden" />
		<tag k="name:no" v="Sandfjorden" />
		<tag k="natural" v="bay" />
		<tag k="ssr:date" v="2021-10-05" />
		<tag k="ssr:gruppe" v="kystkontur" />
		<tag k="ssr:hovedgruppe" v="sjø" />
		<tag k="ssr:stedsnr" v="262525" />
		<tag k="ssr:type" v="vikISjø" />
	</node>
	<node lat="70.83810280115205" lon="29.00854634059784" id="-38630">
		<tag k="name" v="Storelva - Rákkojohka" />
		<tag k="name:no" v="Storelva" />
		<tag k="name:se" v="Rákkojohka" />
		<tag k="old_name:se" v="Raggujåkka" />
		<tag k="ssr:date" v="2021-06-08" />
		<tag k="ssr:gruppe" v="rennendeVann" />
		<tag k="ssr:hovedgruppe" v="ferskvann" />
		<tag k="ssr:stedsnr" v="263113" />
		<tag k="ssr:type" v="elv" />
		<tag k="waterway" v="river" />
	</node>
	<node lat="70.82255835198285" lon="28.701899221341314" id="-38631">
		<tag k="name" v="Gjerdeneset - Várregoađenjárga" />
		<tag k="name:no" v="Gjerdeneset" />
		<tag k="name:se" v="Várregoađenjárga" />
		<tag k="natural" v="cape" />
		<tag k="old_name:se" v="Varregoađenjarga" />
		<tag k="ssr:date" v="2019-12-27" />
		<tag k="ssr:gruppe" v="kystkontur" />
		<tag k="ssr:hovedgruppe" v="sjø" />
		<tag k="ssr:stedsnr" v="263941" />
		<tag k="ssr:type" v="nesISjø" />
	</node>
	<node lat="70.81433890988713" lon="28.68621311344883" id="-38632">
		<tag k="name" v="Muorjegárggu" />
		<tag k="name:se" v="Muorjegárggu" />
		<tag k="old_name:se" v="Muorjegargo" />
		<tag k="place" v="locality" />
		<tag k="ssr:date" v="2019-12-27" />
		<tag k="ssr:gruppe" v="løsmasseavsetninger" />
		<tag k="ssr:hovedgruppe" v="markslag" />
		<tag k="ssr:stedsnr" v="263948" />
		<tag k="ssr:type" v="øyr" />
	</node>
	<node lat="70.78336390996935" lon="28.64681589969697" id="-38633">
		<tag k="name" v="Molvikbukta - Guolleveaigohppi" />
		<tag k="name:no" v="Molvikbukta" />
		<tag k="name:se" v="Guolleveaigohppi" />
		<tag k="natural" v="bay" />
		<tag k="old_name:se" v="Guollevæjgåppi" />
		<tag k="ssr:date" v="2019-12-27" />
		<tag k="ssr:gruppe" v="kystkontur" />
		<tag k="ssr:hovedgruppe" v="sjø" />
		<tag k="ssr:stedsnr" v="263952" />
		<tag k="ssr:type" v="vikISjø" />
	</node>
	<node lat="70.77137501579755" lon="28.645313102546037" id="-38634">
		<tag k="name" v="Beantabákti" />
		<tag k="name:se" v="Beantabákti" />
		<tag k="natural" v="hill" />
		<tag k="old_name:se" v="Bæntabakti" />
		<tag k="place" v="locality" />
		<tag k="ssr:date" v="2019-12-27" />
		<tag k="ssr:gruppe" v="høyder" />
		<tag k="ssr:hovedgruppe" v="terreng" />
		<tag k="ssr:stedsnr" v="263954" />
		<tag k="ssr:type" v="berg" />
	</node>
	<node lat="70.78188890916016" lon="28.766249188708493" id="-38635">
		<tag k="name" v="Stuorrajokgorsa" />
		<tag k="name:se" v="Stuorrajokgorsa" />
		<tag k="natural" v="valley" />
		<tag k="old_name:se" v="Stuorrajåkgårsa" />
		<tag k="place" v="locality" />
		<tag k="ssr:date" v="2019-12-27" />
		<tag k="ssr:gruppe" v="senkninger" />
		<tag k="ssr:hovedgruppe" v="terreng" />
		<tag k="ssr:stedsnr" v="263955" />
		<tag k="ssr:type" v="dal" />
	</node>
	<node lat="70.88386668747552" lon="28.95550191690137" id="-38636">
		<tag k="name" v="Russehamna" />
		<tag k="place" v="isolated_dwelling" />
		<tag k="ssr:date" v="2019-12-27" />
		<tag k="ssr:gruppe" v="bolighus" />
		<tag k="ssr:hovedgruppe" v="bebyggelse" />
		<tag k="ssr:stedsnr" v="263962" />
		<tag k="ssr:type" v="fritidsbolig" />
	</node>
	<node lat="70.88283057579915" lon="28.930274146550822" id="-38637">
		<tag k="name" v="Ordinneset - Oardanjárga" />
		<tag k="name:no" v="Ordinneset" />
		<tag k="name:se" v="Oardanjárga" />
		<tag k="natural" v="cape" />
		<tag k="old_name:se" v="Oardanjarga" />
		<tag k="ssr:date" v="2019-12-27" />
		<tag k="ssr:gruppe" v="kystkontur" />
		<tag k="ssr:hovedgruppe" v="sjø" />
		<tag k="ssr:stedsnr" v="263965" />
		<tag k="ssr:type" v="nesISjø" />
	</node>
	<node lat="70.8684639055487" lon="29.019793574715365" id="-38638">
		<tag k="name" v="Storsletta" />
		<tag k="place" v="farm" />
		<tag k="ssr:date" v="2019-12-27" />
		<tag k="ssr:gruppe" v="gardsbebyggelse" />
		<tag k="ssr:hovedgruppe" v="bebyggelse" />
		<tag k="ssr:stedsnr" v="263966" />
		<tag k="ssr:type" v="bruk" />
	</node>
	<node lat="70.86735280056186" lon="29.11365463940064" id="-38639">
		<tag k="fixme" v="consider seamark:type=rock or natural=shoal" />
		<tag k="name" v="Svartoksen" />
		<tag k="place" v="islet" />
		<tag k="ssr:date" v="2019-12-27" />
		<tag k="ssr:gruppe" v="grunnerISjø" />
		<tag k="ssr:hovedgruppe" v="sjø" />
		<tag k="ssr:stedsnr" v="263967" />
		<tag k="ssr:type" v="skjærISjø" />
	</node>
	<node lat="70.87223890494816" lon="29.08494910216996" id="-38640">
		<tag k="name" v="Valen" />
		<tag k="natural" v="cape" />
		<tag k="ssr:date" v="2019-12-27" />
		<tag k="ssr:gruppe" v="kystkontur" />
		<tag k="ssr:hovedgruppe" v="sjø" />
		<tag k="ssr:stedsnr" v="263969" />
		<tag k="ssr:type" v="nesISjø" />
	</node>
	<node lat="70.68059168755548" lon="28.631218642579633" id="-38641">
		<tag k="fixme" v="multiple name tags, choose one and add the other to alt_name; consider place=hamlet" />
		<tag k="name" v="Gulgofjorden;Trollfjorden" />
		<tag k="place" v="village" />
		<tag k="ssr:date" v="2019-12-27" />
		<tag k="ssr:gruppe" v="bebyggelsesområder" />
		<tag k="ssr:hovedgruppe" v="bebyggelse" />
		<tag k="ssr:stedsnr" v="202343" />
		<tag k="ssr:type" v="bygdelagBygd" />
	</node>
	<node lat="70.68931669164995" lon="28.510685343304143" id="-38642">
		<tag k="fixme" v="consider seamark:type=rock or natural=shoal" />
		<tag k="name" v="Cohkolatlásis" />
		<tag k="name:se" v="Cohkolatlásis" />
		<tag k="old_name:se" v="Cåkkulatlasis" />
		<tag k="place" v="islet" />
		<tag k="ssr:date" v="2019-12-27" />
		<tag k="ssr:gruppe" v="grunnerISjø" />
		<tag k="ssr:hovedgruppe" v="sjø" />
		<tag k="ssr:stedsnr" v="202347" />
		<tag k="ssr:type" v="skjærISjø" />
	</node>
	<node lat="70.69625557365983" lon="28.61327974941967" id="-38643">
		<tag k="name" v="Baikajoksuorgi" />
		<tag k="name:se" v="Baikajoksuorgi" />
		<tag k="old_name:se" v="Baikajåksuorgi" />
		<tag k="ssr:date" v="2019-12-27" />
		<tag k="ssr:gruppe" v="rennendeVann" />
		<tag k="ssr:hovedgruppe" v="ferskvann" />
		<tag k="ssr:stedsnr" v="202352" />
		<tag k="ssr:type" v="bekk" />
		<tag k="waterway" v="stream" />
	</node>
	<node lat="70.61866113449489" lon="29.030618488384956" id="-38644">
		<tag k="name" v="Dagenvannet - Goikemuorjávri" />
		<tag k="name:no" v="Dagenvannet" />
		<tag k="name:se" v="Goikemuorjávri" />
		<tag k="natural" v="water" />
		<tag k="old_name:se" v="Gåikemuorjavri" />
		<tag k="ssr:date" v="2019-12-27" />
		<tag k="ssr:gruppe" v="stilleståendeVann" />
		<tag k="ssr:hovedgruppe" v="ferskvann" />
		<tag k="ssr:stedsnr" v="202391" />
		<tag k="ssr:type" v="vann" />
		<tag k="water" v="lake" />
	</node>
	<node lat="70.61634169166899" lon="28.990499062622735" id="-38645">
		<tag k="name" v="Seltersvannet" />
		<tag k="natural" v="water" />
		<tag k="ssr:date" v="2019-12-27" />
		<tag k="ssr:gruppe" v="stilleståendeVann" />
		<tag k="ssr:hovedgruppe" v="ferskvann" />
		<tag k="ssr:stedsnr" v="202392" />
		<tag k="ssr:type" v="tjern" />
	</node>
	<node lat="70.68941113709435" lon="29.283712852271304" id="-38646">
		<tag k="name" v="Rundvannet" />
		<tag k="natural" v="water" />
		<tag k="ssr:date" v="2019-12-27" />
		<tag k="ssr:gruppe" v="stilleståendeVann" />
		<tag k="ssr:hovedgruppe" v="ferskvann" />
		<tag k="ssr:stedsnr" v="202400" />
		<tag k="ssr:type" v="tjern" />
	</node>
	<node lat="70.5616972548402" lon="29.393318343919706" id="-38647">
		<tag k="name" v="Basečearru" />
		<tag k="name:se" v="Basečearru" />
		<tag k="natural" v="plateau" />
		<tag k="old_name:se" v="Basečærro" />
		<tag k="ssr:date" v="2019-12-27" />
		<tag k="ssr:gruppe" v="terrengområder" />
		<tag k="ssr:hovedgruppe" v="terreng" />
		<tag k="ssr:stedsnr" v="202506" />
		<tag k="ssr:type" v="vidde" />
	</node>
	<node lat="70.78383891409507" lon="29.38583229039632" id="-38648">
		<tag k="name" v="Nålnesvika" />
		<tag k="natural" v="bay" />
		<tag k="ssr:date" v="2019-12-27" />
		<tag k="ssr:gruppe" v="kystkontur" />
		<tag k="ssr:hovedgruppe" v="sjø" />
		<tag k="ssr:stedsnr" v="202995" />
		<tag k="ssr:type" v="vikISjø" />
	</node>
	<node lat="70.73972224326141" lon="29.31005453966888" id="-38649">
		<tag k="name" v="Grønøygrunnen" />
		<tag k="natural" v="shoal" />
		<tag k="place" v="locality" />
		<tag k="ssr:date" v="2019-12-27" />
		<tag k="ssr:gruppe" v="grunnerISjø" />
		<tag k="ssr:hovedgruppe" v="sjø" />
		<tag k="ssr:stedsnr" v="268539" />
		<tag k="ssr:type" v="grunneISjø" />
	</node>
	<node lat="70.86420279406754" lon="28.79942974556112" id="-38650">
		<tag k="name" v="Bukkekeila" />
		<tag k="place" v="locality" />
		<tag k="ssr:date" v="2019-12-27" />
		<tag k="ssr:gruppe" v="bolighus" />
		<tag k="ssr:hovedgruppe" v="bebyggelse" />
		<tag k="ssr:stedsnr" v="208506" />
		<tag k="ssr:type" v="gammelBosettingsplass" />
	</node>
	<node lat="70.8720555747343" lon="29.12886018933491" id="-38651">
		<tag k="name" v="Kirkegrunnen" />
		<tag k="natural" v="shoal" />
		<tag k="place" v="locality" />
		<tag k="ssr:date" v="2019-12-27" />
		<tag k="ssr:gruppe" v="grunnerISjø" />
		<tag k="ssr:hovedgruppe" v="sjø" />
		<tag k="ssr:stedsnr" v="208946" />
		<tag k="ssr:type" v="grunneISjø" />
	</node>
	<node lat="70.86671112666849" lon="28.802418634356883" id="-38652">
		<tag k="name" v="Skipsnes" />
		<tag k="place" v="locality" />
		<tag k="ssr:date" v="2019-12-27" />
		<tag k="ssr:gruppe" v="bolighus" />
		<tag k="ssr:hovedgruppe" v="bebyggelse" />
		<tag k="ssr:stedsnr" v="269500" />
		<tag k="ssr:type" v="gammelBosettingsplass" />
	</node>
	<node lat="70.83387223714293" lon="28.863118611643372" id="-38653">
		<tag k="name" v="Milstein" />
		<tag k="natural" v="stone" />
		<tag k="ssr:date" v="2019-12-27" />
		<tag k="ssr:gruppe" v="løsmasseavsetninger" />
		<tag k="ssr:hovedgruppe" v="markslag" />
		<tag k="ssr:stedsnr" v="228607" />
		<tag k="ssr:type" v="stein" />
	</node>
	<node lat="70.60394724997629" lon="29.09954069743031" id="-38654">
		<tag k="name" v="Kokfiskholla" />
		<tag k="natural" v="water" />
		<tag k="ssr:date" v="2019-12-27" />
		<tag k="ssr:gruppe" v="rennendeVann" />
		<tag k="ssr:hovedgruppe" v="ferskvann" />
		<tag k="ssr:stedsnr" v="228905" />
		<tag k="ssr:type" v="lon" />
		<tag k="water" v="lake" />
	</node>
	<node lat="70.59822502877022" lon="29.093226794607823" id="-38655">
		<tag k="name" v="Sandmomyra" />
		<tag k="natural" v="wetland" />
		<tag k="ssr:date" v="2019-12-27" />
		<tag k="ssr:gruppe" v="våtmark" />
		<tag k="ssr:hovedgruppe" v="markslag" />
		<tag k="ssr:stedsnr" v="228907" />
		<tag k="ssr:type" v="myr" />
	</node>
	<node lat="70.7356416961662" lon="29.416137828027306" id="-38656">
		<tag k="name" v="Gullhatten" />
		<tag k="place" v="islet" />
		<tag k="ssr:date" v="2019-12-27" />
		<tag k="ssr:gruppe" v="kystkontur" />
		<tag k="ssr:hovedgruppe" v="sjø" />
		<tag k="ssr:stedsnr" v="450557" />
		<tag k="ssr:type" v="holmeISjø" />
	</node>
	<node lat="70.68515558555954" lon="29.31632672668972" id="-38657">
		<tag k="alt_name" v="Tørrfallneset" />
		<tag k="name" v="Storkjosneset" />
		<tag k="natural" v="cape" />
		<tag k="ssr:date" v="2019-12-27" />
		<tag k="ssr:gruppe" v="kystkontur" />
		<tag k="ssr:hovedgruppe" v="sjø" />
		<tag k="ssr:stedsnr" v="450560" />
		<tag k="ssr:type" v="nesISjø" />
	</node>
	<node lat="70.8684027963587" lon="29.049765786601004" id="-38658">
		<tag k="name" v="Torvbergan" />
		<tag k="natural" v="hill" />
		<tag k="place" v="locality" />
		<tag k="ssr:date" v="2019-12-27" />
		<tag k="ssr:gruppe" v="høyder" />
		<tag k="ssr:hovedgruppe" v="terreng" />
		<tag k="ssr:stedsnr" v="457285" />
		<tag k="ssr:type" v="berg" />
	</node>
	<node lat="70.85279446759598" lon="29.084207436163283" id="-38659">
		<tag k="leisure" v="pitch" />
		<tag k="name" v="Berlevåg Stadion" />
		<tag k="ssr:date" v="2019-12-27" />
		<tag k="ssr:gruppe" v="fritidsanlegg" />
		<tag k="ssr:hovedgruppe" v="bebyggelse" />
		<tag k="ssr:stedsnr" v="457256" />
		<tag k="ssr:type" v="idrettsanlegg" />
	</node>
	<node lat="70.70136391771884" lon="29.320937846352685" id="-38660">
		<tag k="alt_name:no" v="Storsteinbukt" />
		<tag k="name" v="Storsteinbukta - Moššoluokta" />
		<tag k="name:no" v="Storsteinbukta" />
		<tag k="name:se" v="Moššoluokta" />
		<tag k="natural" v="bay" />
		<tag k="old_name:se" v="Måššuluokta" />
		<tag k="ssr:date" v="2019-12-27" />
		<tag k="ssr:gruppe" v="kystkontur" />
		<tag k="ssr:hovedgruppe" v="sjø" />
		<tag k="ssr:stedsnr" v="262403" />
		<tag k="ssr:type" v="vikISjø" />
	</node>
	<node lat="70.72961391100736" lon="29.322123970317694" id="-38661">
		<tag k="name" v="Hergevika" />
		<tag k="natural" v="bay" />
		<tag k="ssr:date" v="2019-12-27" />
		<tag k="ssr:gruppe" v="kystkontur" />
		<tag k="ssr:hovedgruppe" v="sjø" />
		<tag k="ssr:stedsnr" v="262418" />
		<tag k="ssr:type" v="vikISjø" />
	</node>
	<node lat="70.60856669361718" lon="29.079660134190593" id="-38662">
		<tag k="alt_name:no" v="Buetjern" />
		<tag k="name" v="Buetjernet - Dávgeluoppal" />
		<tag k="name:no" v="Buetjernet" />
		<tag k="name:se" v="Dávgeluoppal" />
		<tag k="natural" v="water" />
		<tag k="old_name:se" v="Davgeluobbal" />
		<tag k="ssr:date" v="2019-12-27" />
		<tag k="ssr:gruppe" v="stilleståendeVann" />
		<tag k="ssr:hovedgruppe" v="ferskvann" />
		<tag k="ssr:stedsnr" v="263409" />
		<tag k="ssr:type" v="vann" />
		<tag k="water" v="lake" />
	</node>
	<node lat="70.70139169222396" lon="29.476915575358284" id="-38663">
		<tag k="name" v="Bjørnvika" />
		<tag k="natural" v="bay" />
		<tag k="ssr:date" v="2019-12-27" />
		<tag k="ssr:gruppe" v="kystkontur" />
		<tag k="ssr:hovedgruppe" v="sjø" />
		<tag k="ssr:stedsnr" v="263496" />
		<tag k="ssr:type" v="vikISjø" />
	</node>
	<node lat="70.69336947125215" lon="29.49346554648263" id="-38664">
		<tag k="fixme" v="consider natural=peak for the most distinct mountains in the district" />
		<tag k="name" v="Bjørnviktoppen" />
		<tag k="natural" v="hill" />
		<tag k="place" v="locality" />
		<tag k="ssr:date" v="2021-06-08" />
		<tag k="ssr:gruppe" v="høyder" />
		<tag k="ssr:hovedgruppe" v="terreng" />
		<tag k="ssr:stedsnr" v="263499" />
		<tag k="ssr:type" v="topp" />
	</node>
	<node lat="70.72548613815668" lon="29.455710028959665" id="-38665">
		<tag k="name" v="Helløya" />
		<tag k="place" v="island" />
		<tag k="ssr:date" v="2021-06-08" />
		<tag k="ssr:gruppe" v="kystkontur" />
		<tag k="ssr:hovedgruppe" v="sjø" />
		<tag k="ssr:stedsnr" v="263504" />
		<tag k="ssr:type" v="øyISjø" />
	</node>
	<node lat="70.84419446463211" lon="28.967038014147384" id="-38666">
		<tag k="fixme" v="consider natural=peak for the most distinct mountains in the district" />
		<tag k="name" v="Lillevarden" />
		<tag k="natural" v="hill" />
		<tag k="place" v="locality" />
		<tag k="ssr:date" v="2021-06-08" />
		<tag k="ssr:gruppe" v="høyder" />
		<tag k="ssr:hovedgruppe" v="terreng" />
		<tag k="ssr:stedsnr" v="263981" />
		<tag k="ssr:type" v="topp" />
	</node>
	<node lat="70.81770002278154" lon="28.86564639202363" id="-38667">
		<tag k="name" v="Eidelva - Suohpášjohka" />
		<tag k="name:no" v="Eidelva" />
		<tag k="name:se" v="Suohpášjohka" />
		<tag k="old_name:se" v="Suoppašjåkka" />
		<tag k="ssr:date" v="2019-12-27" />
		<tag k="ssr:gruppe" v="rennendeVann" />
		<tag k="ssr:hovedgruppe" v="ferskvann" />
		<tag k="ssr:stedsnr" v="263990" />
		<tag k="ssr:type" v="bekk" />
		<tag k="waterway" v="stream" />
	</node>
	<node lat="70.83288335067107" lon="29.20570460441309" id="-38668">
		<tag k="name" v="Vester-Styrelva" />
		<tag k="ssr:date" v="2021-06-08" />
		<tag k="ssr:gruppe" v="rennendeVann" />
		<tag k="ssr:hovedgruppe" v="ferskvann" />
		<tag k="ssr:stedsnr" v="269207" />
		<tag k="ssr:type" v="elv" />
		<tag k="waterway" v="river" />
	</node>
	<node lat="70.67864724568717" lon="29.247148983897926" id="-38669">
		<tag k="name" v="Nikko-Per-haugen" />
		<tag k="natural" v="hill" />
		<tag k="place" v="locality" />
		<tag k="ssr:date" v="2021-06-08" />
		<tag k="ssr:gruppe" v="høyder" />
		<tag k="ssr:hovedgruppe" v="terreng" />
		<tag k="ssr:stedsnr" v="269208" />
		<tag k="ssr:type" v="haug" />
	</node>
	<node lat="70.64124724940847" lon="29.189404565545356" id="-38670">
		<tag k="name" v="Bryggarivatnan" />
		<tag k="natural" v="water" />
		<tag k="ssr:date" v="2019-12-27" />
		<tag k="ssr:gruppe" v="stilleståendeVann" />
		<tag k="ssr:hovedgruppe" v="ferskvann" />
		<tag k="ssr:stedsnr" v="287876" />
		<tag k="ssr:type" v="gruppeAvTjern" />
		<tag k="water" v="lake" />
	</node>
	<node lat="70.62469447013319" lon="29.106918457568085" id="-38671">
		<tag k="name" v="Gednjehaugen" />
		<tag k="natural" v="hill" />
		<tag k="place" v="locality" />
		<tag k="ssr:date" v="2019-12-27" />
		<tag k="ssr:gruppe" v="høyder" />
		<tag k="ssr:hovedgruppe" v="terreng" />
		<tag k="ssr:stedsnr" v="287885" />
		<tag k="ssr:type" v="haug" />
	</node>
	<node lat="70.66463058290104" lon="29.29768786060441" id="-38672">
		<tag k="name" v="Østre Grønneset" />
		<tag k="natural" v="cape" />
		<tag k="ssr:date" v="2019-12-27" />
		<tag k="ssr:gruppe" v="kystkontur" />
		<tag k="ssr:hovedgruppe" v="sjø" />
		<tag k="ssr:stedsnr" v="290905" />
		<tag k="ssr:type" v="nesISjø" />
	</node>
	<node lat="70.68698614106982" lon="29.319248963633008" id="-38673">
		<tag k="name" v="Storkjosen" />
		<tag k="natural" v="bay" />
		<tag k="ssr:date" v="2019-12-27" />
		<tag k="ssr:gruppe" v="kystkontur" />
		<tag k="ssr:hovedgruppe" v="sjø" />
		<tag k="ssr:stedsnr" v="290888" />
		<tag k="ssr:type" v="vikISjø" />
	</node>
	<node lat="70.56297780351842" lon="28.753249119231853" id="-38674">
		<tag k="alt_name:no" v="Leirpollvatnet, l" />
		<tag k="name" v="Lille Leirpollvatnet - Reakčavuongeažejávri" />
		<tag k="name:no" v="Lille Leirpollvatnet" />
		<tag k="name:se" v="Reakčavuongeažejávri" />
		<tag k="natural" v="water" />
		<tag k="old_name:se" v="Rækčavuongæžejavri" />
		<tag k="ssr:date" v="2019-12-27" />
		<tag k="ssr:gruppe" v="stilleståendeVann" />
		<tag k="ssr:hovedgruppe" v="ferskvann" />
		<tag k="ssr:stedsnr" v="323311" />
		<tag k="ssr:type" v="vann" />
		<tag k="water" v="lake" />
	</node>
	<node lat="70.68110280395858" lon="29.260457304364916" id="-38675">
		<tag k="name" v="Nikko-Per-vannet - Nihkopierjávri" />
		<tag k="name:no" v="Nikko-Per-vannet" />
		<tag k="name:se" v="Nihkopierjávri" />
		<tag k="natural" v="water" />
		<tag k="old_name:se" v="Nikkupierjavri" />
		<tag k="ssr:date" v="2021-06-08" />
		<tag k="ssr:gruppe" v="stilleståendeVann" />
		<tag k="ssr:hovedgruppe" v="ferskvann" />
		<tag k="ssr:stedsnr" v="323402" />
		<tag k="ssr:type" v="tjern" />
	</node>
	<node lat="70.72497224854553" lon="29.15872404416501" id="-38676">
		<tag k="fixme" v="consider natural=peak for the most distinct mountains in the district" />
		<tag k="name" v="Vester-Risfjordfjellet" />
		<tag k="natural" v="hill" />
		<tag k="place" v="locality" />
		<tag k="ssr:date" v="2021-06-08" />
		<tag k="ssr:gruppe" v="høyder" />
		<tag k="ssr:hovedgruppe" v="terreng" />
		<tag k="ssr:stedsnr" v="323413" />
		<tag k="ssr:type" v="fjell" />
	</node>
	<node lat="70.72590836113913" lon="29.074126831619406" id="-38677">
		<tag k="fixme" v="consider natural=peak for the most distinct mountains in the district" />
		<tag k="name" v="Goalsečohkka" />
		<tag k="name:se" v="Goalsečohkka" />
		<tag k="natural" v="hill" />
		<tag k="old_name:se" v="Goalsečåkka" />
		<tag k="place" v="locality" />
		<tag k="ssr:date" v="2019-12-27" />
		<tag k="ssr:gruppe" v="høyder" />
		<tag k="ssr:hovedgruppe" v="terreng" />
		<tag k="ssr:stedsnr" v="323416" />
		<tag k="ssr:type" v="ås" />
	</node>
	<node lat="70.72213613013041" lon="29.086960169454915" id="-38678">
		<tag k="name" v="Goalsejohka" />
		<tag k="name:se" v="Goalsejohka" />
		<tag k="old_name:se" v="Goalsejåkka" />
		<tag k="ssr:date" v="2019-12-27" />
		<tag k="ssr:gruppe" v="rennendeVann" />
		<tag k="ssr:hovedgruppe" v="ferskvann" />
		<tag k="ssr:stedsnr" v="323417" />
		<tag k="ssr:type" v="bekk" />
		<tag k="waterway" v="stream" />
	</node>
	<node lat="70.71920002319413" lon="29.247243429196676" id="-38679">
		<tag k="fixme" v="consider natural=peak for the most distinct mountains in the district" />
		<tag k="name" v="Hergevasstoppen - Heargevárri" />
		<tag k="name:no" v="Hergevasstoppen" />
		<tag k="name:se" v="Heargevárri" />
		<tag k="natural" v="hill" />
		<tag k="old_name:se" v="Hærgevarri" />
		<tag k="place" v="locality" />
		<tag k="ssr:date" v="2019-12-27" />
		<tag k="ssr:gruppe" v="høyder" />
		<tag k="ssr:hovedgruppe" v="terreng" />
		<tag k="ssr:stedsnr" v="323421" />
		<tag k="ssr:type" v="ås" />
	</node>
	<node lat="70.85456391404033" lon="29.206057393070566" id="-38680">
		<tag k="loc_name:se" v="Gonagasváhki" />
		<tag k="name" v="Kongshamn" />
		<tag k="name:no" v="Kongshamn" />
		<tag k="natural" v="cape" />
		<tag k="ssr:date" v="2021-10-06" />
		<tag k="ssr:gruppe" v="kystkontur" />
		<tag k="ssr:hovedgruppe" v="sjø" />
		<tag k="ssr:stedsnr" v="323976" />
		<tag k="ssr:type" v="nesISjø" />
	</node>
	<node lat="70.84644168524463" lon="29.24257402932057" id="-38681">
		<tag k="alt_name" v="Mellomneset;Mellanneset" />
		<tag k="name" v="Mellanes" />
		<tag k="natural" v="cape" />
		<tag k="ssr:date" v="2019-12-27" />
		<tag k="ssr:gruppe" v="kystkontur" />
		<tag k="ssr:hovedgruppe" v="sjø" />
		<tag k="ssr:stedsnr" v="323979" />
		<tag k="ssr:type" v="nesISjø" />
	</node>
	<node lat="70.6557139179992" lon="29.210710106189712" id="-38683">
		<tag k="name" v="Svarthaugen" />
		<tag k="natural" v="hill" />
		<tag k="place" v="locality" />
		<tag k="ssr:date" v="2019-12-27" />
		<tag k="ssr:gruppe" v="høyder" />
		<tag k="ssr:hovedgruppe" v="terreng" />
		<tag k="ssr:stedsnr" v="469898" />
		<tag k="ssr:type" v="haug" />
	</node>
	<node lat="70.8579166873235" lon="28.91430194107886" id="-38684">
		<tag k="name" v="Skonsvikdalen" />
		<tag k="natural" v="valley" />
		<tag k="place" v="locality" />
		<tag k="ssr:date" v="2019-12-27" />
		<tag k="ssr:gruppe" v="senkninger" />
		<tag k="ssr:hovedgruppe" v="terreng" />
		<tag k="ssr:stedsnr" v="470557" />
		<tag k="ssr:type" v="dal" />
	</node>
	<node lat="70.84673890741946" lon="29.02119634435957" id="-38685">
		<tag k="name" v="Grønnlihøgda" />
		<tag k="natural" v="hill" />
		<tag k="place" v="locality" />
		<tag k="ssr:date" v="2019-12-27" />
		<tag k="ssr:gruppe" v="høyder" />
		<tag k="ssr:hovedgruppe" v="terreng" />
		<tag k="ssr:stedsnr" v="471703" />
		<tag k="ssr:type" v="høyde" />
	</node>
	<node lat="70.65518058042196" lon="29.20212677359269" id="-38686">
		<tag k="name" v="Nedre Svaberget" />
		<tag k="place" v="locality" />
		<tag k="ssr:date" v="2019-12-27" />
		<tag k="ssr:gruppe" v="rennendeVann" />
		<tag k="ssr:hovedgruppe" v="ferskvann" />
		<tag k="ssr:stedsnr" v="471894" />
		<tag k="ssr:type" v="høl" />
	</node>
	<node lat="70.6685555839592" lon="29.281346200054113" id="-38687">
		<tag k="name" v="Govika" />
		<tag k="natural" v="bay" />
		<tag k="ssr:date" v="2019-12-27" />
		<tag k="ssr:gruppe" v="kystkontur" />
		<tag k="ssr:hovedgruppe" v="sjø" />
		<tag k="ssr:stedsnr" v="472899" />
		<tag k="ssr:type" v="vikISjø" />
	</node>
	<node lat="70.59959447349307" lon="29.085649019607985" id="-38688">
		<tag k="name" v="Kongsfjorddalen - Getnjeleahki" />
		<tag k="name:no" v="Kongsfjorddalen" />
		<tag k="name:se" v="Getnjeleahki" />
		<tag k="natural" v="valley" />
		<tag k="place" v="locality" />
		<tag k="ssr:date" v="2019-12-27" />
		<tag k="ssr:gruppe" v="senkninger" />
		<tag k="ssr:hovedgruppe" v="terreng" />
		<tag k="ssr:stedsnr" v="349921" />
		<tag k="ssr:type" v="dal" />
	</node>
	<node lat="70.6659916946934" lon="29.297032288372705" id="-38689">
		<tag k="name" v="Grønnesbukta" />
		<tag k="natural" v="bay" />
		<tag k="ssr:date" v="2019-12-27" />
		<tag k="ssr:gruppe" v="kystkontur" />
		<tag k="ssr:hovedgruppe" v="sjø" />
		<tag k="ssr:stedsnr" v="350906" />
		<tag k="ssr:type" v="vikISjø" />
	</node>
	<node lat="70.74083058124036" lon="29.264274008064238" id="-38690">
		<tag k="bay" v="fjord" />
		<tag k="name" v="Vester-Risfjorden" />
		<tag k="natural" v="bay" />
		<tag k="ssr:date" v="2021-06-08" />
		<tag k="ssr:gruppe" v="farvann" />
		<tag k="ssr:hovedgruppe" v="sjø" />
		<tag k="ssr:stedsnr" v="383453" />
		<tag k="ssr:type" v="fjord" />
	</node>
	<node lat="70.87306668681045" lon="28.999999118897644" id="-38691">
		<tag k="alt_name:no" v="Svartnes" />
		<tag k="loc_name:se" v="Čáhppesnjárga" />
		<tag k="name" v="Svartneset" />
		<tag k="name:no" v="Svartneset" />
		<tag k="natural" v="cape" />
		<tag k="ssr:date" v="2021-10-06" />
		<tag k="ssr:gruppe" v="kystkontur" />
		<tag k="ssr:hovedgruppe" v="sjø" />
		<tag k="ssr:stedsnr" v="384950" />
		<tag k="ssr:type" v="nesISjø" />
	</node>
	<node lat="70.85034724706318" lon="29.132704627361097" id="-38692">
		<tag k="alt_name" v="Storsanden" />
		<tag k="name" v="Storsand" />
		<tag k="natural" v="beach" />
		<tag k="ssr:date" v="2019-12-27" />
		<tag k="ssr:gruppe" v="kystkontur" />
		<tag k="ssr:hovedgruppe" v="sjø" />
		<tag k="ssr:stedsnr" v="384957" />
		<tag k="ssr:type" v="strandISjø" />
	</node>
	<node lat="70.77753890828478" lon="29.30373232724074" id="-38693">
		<tag k="fixme" v="consider natural=peak for the most distinct mountains in the district" />
		<tag k="name" v="Middagsfjellet" />
		<tag k="natural" v="hill" />
		<tag k="place" v="locality" />
		<tag k="ssr:date" v="2019-12-27" />
		<tag k="ssr:gruppe" v="høyder" />
		<tag k="ssr:hovedgruppe" v="terreng" />
		<tag k="ssr:stedsnr" v="384996" />
		<tag k="ssr:type" v="ås" />
	</node>
	<node lat="70.83436113587595" lon="29.217965698147" id="-38694">
		<tag k="name" v="Vester-Styrelvdalen" />
		<tag k="natural" v="valley" />
		<tag k="place" v="locality" />
		<tag k="ssr:date" v="2021-06-08" />
		<tag k="ssr:gruppe" v="senkninger" />
		<tag k="ssr:hovedgruppe" v="terreng" />
		<tag k="ssr:stedsnr" v="390211" />
		<tag k="ssr:type" v="dal" />
	</node>
	<node lat="70.85601946383105" lon="29.12787129378641" id="-38695">
		<tag k="loc_name:se" v="Rievannjárga" />
		<tag k="name" v="Revneset" />
		<tag k="name:no" v="Revneset" />
		<tag k="natural" v="cape" />
		<tag k="ssr:date" v="2021-10-06" />
		<tag k="ssr:gruppe" v="kystkontur" />
		<tag k="ssr:hovedgruppe" v="sjø" />
		<tag k="ssr:stedsnr" v="395302" />
		<tag k="ssr:type" v="nesISjø" />
	</node>
	<node lat="70.84839168582835" lon="29.141185194784672" id="-38696">
		<tag k="name" v="Strupen" />
		<tag k="natural" v="valley" />
		<tag k="place" v="locality" />
		<tag k="ssr:date" v="2019-12-27" />
		<tag k="ssr:gruppe" v="senkninger" />
		<tag k="ssr:hovedgruppe" v="terreng" />
		<tag k="ssr:stedsnr" v="396214" />
		<tag k="ssr:type" v="skar" />
	</node>
	<node lat="70.65603613932299" lon="29.141271244626825" id="-38697">
		<tag k="name" v="Botnelvdalen" />
		<tag k="natural" v="valley" />
		<tag k="place" v="locality" />
		<tag k="ssr:date" v="2019-12-27" />
		<tag k="ssr:gruppe" v="senkninger" />
		<tag k="ssr:hovedgruppe" v="terreng" />
		<tag k="ssr:stedsnr" v="410904" />
		<tag k="ssr:type" v="dal" />
	</node>
	<node lat="70.70829724906095" lon="29.28966564330915" id="-38698">
		<tag k="fixme" v="consider natural=peak for the most distinct mountains in the district" />
		<tag k="name" v="Båsan" />
		<tag k="natural" v="hill" />
		<tag k="place" v="locality" />
		<tag k="ssr:date" v="2019-12-27" />
		<tag k="ssr:gruppe" v="høyder" />
		<tag k="ssr:hovedgruppe" v="terreng" />
		<tag k="ssr:stedsnr" v="410941" />
		<tag k="ssr:type" v="ås" />
	</node>
	<node lat="70.71769447006209" lon="29.32880172802926" id="-38699">
		<tag k="name" v="Storvika" />
		<tag k="natural" v="bay" />
		<tag k="ssr:date" v="2019-12-27" />
		<tag k="ssr:gruppe" v="kystkontur" />
		<tag k="ssr:hovedgruppe" v="sjø" />
		<tag k="ssr:stedsnr" v="411924" />
		<tag k="ssr:type" v="vikISjø" />
	</node>
	<node lat="70.71684169468577" lon="29.460360012899717" id="-38700">
		<tag k="name" v="Kongsøya" />
		<tag k="place" v="island" />
		<tag k="ssr:date" v="2019-12-27" />
		<tag k="ssr:gruppe" v="kystkontur" />
		<tag k="ssr:hovedgruppe" v="sjø" />
		<tag k="ssr:stedsnr" v="445496" />
		<tag k="ssr:type" v="øyISjø" />
	</node>
	<node lat="70.71779446803575" lon="29.31306564123283" id="-38701">
		<tag k="name" v="Indre Havn" />
		<tag k="natural" v="bay" />
		<tag k="ssr:date" v="2019-12-27" />
		<tag k="ssr:gruppe" v="kystkontur" />
		<tag k="ssr:hovedgruppe" v="sjø" />
		<tag k="ssr:stedsnr" v="450978" />
		<tag k="ssr:type" v="vikISjø" />
	</node>
	<node lat="70.67629446867694" lon="28.57297698606576" id="-38702">
		<tag k="name" v="Libobukta" />
		<tag k="natural" v="bay" />
		<tag k="ssr:date" v="2019-12-27" />
		<tag k="ssr:gruppe" v="kystkontur" />
		<tag k="ssr:hovedgruppe" v="sjø" />
		<tag k="ssr:stedsnr" v="451333" />
		<tag k="ssr:type" v="vikISjø" />
	</node>
	<node lat="70.85306113027868" lon="28.766038075788344" id="-38703">
		<tag k="fixme" v="consider natural=peak for the most distinct mountains in the district" />
		<tag k="name" v="Kvitnesaksla" />
		<tag k="natural" v="hill" />
		<tag k="place" v="locality" />
		<tag k="ssr:date" v="2019-12-27" />
		<tag k="ssr:gruppe" v="høyder" />
		<tag k="ssr:hovedgruppe" v="terreng" />
		<tag k="ssr:stedsnr" v="451511" />
		<tag k="ssr:type" v="fjell" />
	</node>
	<node lat="70.84468613032148" lon="29.136799056898578" id="-38704">
		<tag k="name" v="Vargvikbekken" />
		<tag k="ssr:date" v="2019-12-27" />
		<tag k="ssr:gruppe" v="rennendeVann" />
		<tag k="ssr:hovedgruppe" v="ferskvann" />
		<tag k="ssr:stedsnr" v="505970" />
		<tag k="ssr:type" v="bekk" />
		<tag k="waterway" v="stream" />
	</node>
	<node lat="70.61457225061355" lon="29.238915621580677" id="-38705">
		<tag k="alt_name:se" v="Stuorgorsa" />
		<tag k="name" v="Bryggarielva - Doaresjohka" />
		<tag k="name:no" v="Bryggarielva" />
		<tag k="name:se" v="Doaresjohka" />
		<tag k="old_name:se" v="Doaresjåkka" />
		<tag k="ssr:date" v="2021-06-08" />
		<tag k="ssr:gruppe" v="rennendeVann" />
		<tag k="ssr:hovedgruppe" v="ferskvann" />
		<tag k="ssr:stedsnr" v="506106" />
		<tag k="ssr:type" v="elv" />
		<tag k="waterway" v="river" />
	</node>
	<node lat="70.69557780455246" lon="29.351362842791698" id="-38706">
		<tag k="name" v="Kjosen" />
		<tag k="natural" v="bay" />
		<tag k="ssr:date" v="2019-12-27" />
		<tag k="ssr:gruppe" v="kystkontur" />
		<tag k="ssr:hovedgruppe" v="sjø" />
		<tag k="ssr:stedsnr" v="510719" />
		<tag k="ssr:type" v="vikISjø" />
	</node>
	<node lat="70.64669725132607" lon="29.19732954593837" id="-38708">
		<tag k="name" v="Østerhaugen" />
		<tag k="natural" v="hill" />
		<tag k="place" v="locality" />
		<tag k="ssr:date" v="2019-12-27" />
		<tag k="ssr:gruppe" v="høyder" />
		<tag k="ssr:hovedgruppe" v="terreng" />
		<tag k="ssr:stedsnr" v="530881" />
		<tag k="ssr:type" v="haug" />
	</node>
	<node lat="70.85380279950836" lon="29.240962941535606" id="-38709">
		<tag k="loc_name:se" v="Čievla" />
		<tag k="name" v="Kjølneset" />
		<tag k="name:no" v="Kjølneset" />
		<tag k="natural" v="cape" />
		<tag k="ssr:date" v="2021-10-06" />
		<tag k="ssr:gruppe" v="kystkontur" />
		<tag k="ssr:hovedgruppe" v="sjø" />
		<tag k="ssr:stedsnr" v="531984" />
		<tag k="ssr:type" v="nesISjø" />
	</node>
	<node lat="70.69325001490562" lon="28.554799230788948" id="-38710">
		<tag k="fixme" v="consider seamark:type=rock or natural=shoal" />
		<tag k="name" v="Litleskjeret - Uhcalásis" />
		<tag k="name:no" v="Litleskjeret" />
		<tag k="name:se" v="Uhcalásis" />
		<tag k="old_name:se" v="Uccalasis" />
		<tag k="place" v="islet" />
		<tag k="ssr:date" v="2019-12-27" />
		<tag k="ssr:gruppe" v="grunnerISjø" />
		<tag k="ssr:hovedgruppe" v="sjø" />
		<tag k="ssr:stedsnr" v="687355" />
		<tag k="ssr:type" v="skjærISjø" />
	</node>
	<node lat="70.71718612847275" lon="28.54648810812654" id="-38711">
		<tag k="name" v="Vákkáš" />
		<tag k="name:se" v="Vákkáš" />
		<tag k="natural" v="valley" />
		<tag k="old_name:se" v="Vaggaš" />
		<tag k="place" v="locality" />
		<tag k="ssr:date" v="2019-12-27" />
		<tag k="ssr:gruppe" v="senkninger" />
		<tag k="ssr:hovedgruppe" v="terreng" />
		<tag k="ssr:stedsnr" v="687360" />
		<tag k="ssr:type" v="dal" />
	</node>
	<node lat="70.70540001984155" lon="28.555774217820936" id="-38712">
		<tag k="name" v="Vitnjalasvággi" />
		<tag k="name:se" v="Vitnjalasvággi" />
		<tag k="natural" v="valley" />
		<tag k="old_name:se" v="Vidnjalasvaggi" />
		<tag k="place" v="locality" />
		<tag k="ssr:date" v="2019-12-27" />
		<tag k="ssr:gruppe" v="senkninger" />
		<tag k="ssr:hovedgruppe" v="terreng" />
		<tag k="ssr:stedsnr" v="687362" />
		<tag k="ssr:type" v="dal" />
	</node>
	<node lat="70.74182779535518" lon="28.586488118247193" id="-38713">
		<tag k="name" v="Fuglevikelva - Sieiddeluovttjohka" />
		<tag k="name:no" v="Fuglevikelva" />
		<tag k="name:se" v="Sieiddeluovttjohka" />
		<tag k="old_name:se" v="Sieideluovtjåkka" />
		<tag k="ssr:date" v="2019-12-27" />
		<tag k="ssr:gruppe" v="rennendeVann" />
		<tag k="ssr:hovedgruppe" v="ferskvann" />
		<tag k="ssr:stedsnr" v="687363" />
		<tag k="ssr:type" v="elv" />
		<tag k="waterway" v="river" />
	</node>
	<node lat="70.70418891291187" lon="29.165426792762347" id="-38714">
		<tag k="name" v="Øster-Risfjordelva - Loamejohka" />
		<tag k="name:no" v="Øster-Risfjordelva" />
		<tag k="name:se" v="Loamejohka" />
		<tag k="old_name:se" v="Loamejåkka" />
		<tag k="ssr:date" v="2021-06-08" />
		<tag k="ssr:gruppe" v="rennendeVann" />
		<tag k="ssr:hovedgruppe" v="ferskvann" />
		<tag k="ssr:stedsnr" v="687416" />
		<tag k="ssr:type" v="elv" />
		<tag k="waterway" v="river" />
	</node>
	<node lat="70.47489447304734" lon="29.224129490548556" id="-38715">
		<tag k="name" v="Oarddojávri - Ortojärvi" />
		<tag k="name:fkv" v="Ortojärvi" />
		<tag k="name:se" v="Oarddojávri" />
		<tag k="natural" v="water" />
		<tag k="old_name:se" v="Oardujavri" />
		<tag k="ssr:date" v="2020-02-27" />
		<tag k="ssr:gruppe" v="stilleståendeVann" />
		<tag k="ssr:hovedgruppe" v="ferskvann" />
		<tag k="ssr:stedsnr" v="687952" />
		<tag k="ssr:type" v="vann" />
		<tag k="water" v="lake" />
	</node>
	<node lat="70.70802780910182" lon="29.63065995054269" id="-38716">
		<tag k="name" v="Vestre Rubbedalen" />
		<tag k="natural" v="valley" />
		<tag k="old_name" v="Rubbedalen, vestre" />
		<tag k="place" v="locality" />
		<tag k="ssr:date" v="2019-12-27" />
		<tag k="ssr:gruppe" v="senkninger" />
		<tag k="ssr:hovedgruppe" v="terreng" />
		<tag k="ssr:stedsnr" v="688484" />
		<tag k="ssr:type" v="dal" />
	</node>
	<node lat="70.78207780023632" lon="28.687985306358456" id="-38717">
		<tag k="name" v="Bárši" />
		<tag k="name:se" v="Bárši" />
		<tag k="natural" v="hill" />
		<tag k="old_name:se" v="Barši" />
		<tag k="place" v="locality" />
		<tag k="ssr:date" v="2019-12-27" />
		<tag k="ssr:gruppe" v="høyder" />
		<tag k="ssr:hovedgruppe" v="terreng" />
		<tag k="ssr:stedsnr" v="688956" />
		<tag k="ssr:type" v="haug" />
	</node>
	<node lat="70.79264723945523" lon="28.782482501314497" id="-38718">
		<tag k="name" v="Johkamohkki" />
		<tag k="name:se" v="Johkamohkki" />
		<tag k="old_name:se" v="Jåkkamåkki" />
		<tag k="place" v="locality" />
		<tag k="ssr:date" v="2019-12-27" />
		<tag k="ssr:gruppe" v="rennendeVann" />
		<tag k="ssr:hovedgruppe" v="ferskvann" />
		<tag k="ssr:stedsnr" v="688961" />
		<tag k="ssr:type" v="høl" />
	</node>
	<node lat="70.71546669547315" lon="29.515846117727808" id="-38719">
		<tag k="name" v="Skarholmen" />
		<tag k="place" v="islet" />
		<tag k="ssr:date" v="2021-06-08" />
		<tag k="ssr:gruppe" v="kystkontur" />
		<tag k="ssr:hovedgruppe" v="sjø" />
		<tag k="ssr:stedsnr" v="688481" />
		<tag k="ssr:type" v="holmeISjø" />
	</node>
	<node lat="70.78007502485396" lon="29.34540175926416" id="-38720">
		<tag k="name" v="Kvalvikeidet" />
		<tag k="place" v="locality" />
		<tag k="ssr:date" v="2019-12-27" />
		<tag k="ssr:gruppe" v="ferskvannskontur" />
		<tag k="ssr:hovedgruppe" v="ferskvann" />
		<tag k="ssr:stedsnr" v="688994" />
		<tag k="ssr:type" v="eid" />
	</node>
	<node lat="70.75186668297167" lon="28.565993668569643" id="-38721">
		<tag k="name" v="Fuglevika - Sieiddeluokta" />
		<tag k="name:no" v="Fuglevika" />
		<tag k="name:se" v="Sieiddeluokta" />
		<tag k="natural" v="bay" />
		<tag k="old_name:se" v="Sieideluokta" />
		<tag k="ssr:date" v="2019-12-27" />
		<tag k="ssr:gruppe" v="kystkontur" />
		<tag k="ssr:hovedgruppe" v="sjø" />
		<tag k="ssr:stedsnr" v="688968" />
		<tag k="ssr:type" v="vikISjø" />
	</node>
	<node lat="70.59847780448905" lon="29.15208787786129" id="-38722">
		<tag k="name" v="Magerdalselva - Silesjohka" />
		<tag k="name:no" v="Magerdalselva" />
		<tag k="name:se" v="Silesjohka" />
		<tag k="old_name:se" v="Silesjåkka" />
		<tag k="ssr:date" v="2019-12-27" />
		<tag k="ssr:gruppe" v="rennendeVann" />
		<tag k="ssr:hovedgruppe" v="ferskvann" />
		<tag k="ssr:stedsnr" v="566103" />
		<tag k="ssr:type" v="elv" />
		<tag k="waterway" v="river" />
	</node>
	<node lat="70.68205002939882" lon="29.347148951294468" id="-38723">
		<tag k="name" v="Storneset" />
		<tag k="natural" v="cape" />
		<tag k="ssr:date" v="2019-12-27" />
		<tag k="ssr:gruppe" v="kystkontur" />
		<tag k="ssr:hovedgruppe" v="sjø" />
		<tag k="ssr:stedsnr" v="566409" />
		<tag k="ssr:type" v="nesISjø" />
	</node>
	<node lat="70.66619725125547" lon="29.39215726605931" id="-38724">
		<tag k="name" v="Straumsvatna" />
		<tag k="natural" v="water" />
		<tag k="ssr:date" v="2019-12-27" />
		<tag k="ssr:gruppe" v="stilleståendeVann" />
		<tag k="ssr:hovedgruppe" v="ferskvann" />
		<tag k="ssr:stedsnr" v="566411" />
		<tag k="ssr:type" v="vann" />
		<tag k="water" v="lake" />
	</node>
	<node lat="70.70207780496018" lon="29.512512774945538" id="-38725">
		<tag k="alt_name" v="Bjørnvika, store" />
		<tag k="name" v="Store Bjørnvika" />
		<tag k="natural" v="bay" />
		<tag k="ssr:date" v="2019-12-27" />
		<tag k="ssr:gruppe" v="kystkontur" />
		<tag k="ssr:hovedgruppe" v="sjø" />
		<tag k="ssr:stedsnr" v="566476" />
		<tag k="ssr:type" v="vikISjø" />
	</node>
	<node lat="70.83765557615774" lon="29.168079615332893" id="-38726">
		<tag k="name" v="Vargvikdalen" />
		<tag k="natural" v="valley" />
		<tag k="place" v="locality" />
		<tag k="ssr:date" v="2021-06-08" />
		<tag k="ssr:gruppe" v="senkninger" />
		<tag k="ssr:hovedgruppe" v="terreng" />
		<tag k="ssr:stedsnr" v="566973" />
		<tag k="ssr:type" v="dal" />
	</node>
	<node lat="70.83506946198908" lon="29.0686463173617" id="-38727">
		<tag k="name" v="Veddalselva - Ákkeljohka" />
		<tag k="name:no" v="Veddalselva" />
		<tag k="name:se" v="Ákkeljohka" />
		<tag k="old_name:se" v="Aggeljåkka" />
		<tag k="ssr:date" v="2021-06-08" />
		<tag k="ssr:gruppe" v="rennendeVann" />
		<tag k="ssr:hovedgruppe" v="ferskvann" />
		<tag k="ssr:stedsnr" v="566975" />
		<tag k="ssr:type" v="elv" />
		<tag k="waterway" v="river" />
	</node>
	<node lat="70.88170002201028" lon="28.89754083005394" id="-38728">
		<tag k="name" v="Mortensneset" />
		<tag k="natural" v="cape" />
		<tag k="ssr:date" v="2019-12-27" />
		<tag k="ssr:gruppe" v="kystkontur" />
		<tag k="ssr:hovedgruppe" v="sjø" />
		<tag k="ssr:stedsnr" v="693498" />
		<tag k="ssr:type" v="nesISjø" />
	</node>
	<node lat="70.71917780651975" lon="29.63145163163671" id="-38729">
		<tag k="name" v="Tømmervika" />
		<tag k="natural" v="bay" />
		<tag k="ssr:date" v="2019-12-27" />
		<tag k="ssr:gruppe" v="kystkontur" />
		<tag k="ssr:hovedgruppe" v="sjø" />
		<tag k="ssr:stedsnr" v="571554" />
		<tag k="ssr:type" v="vikISjø" />
	</node>
	<node lat="70.73816391099457" lon="29.246985112981076" id="-38730">
		<tag k="name" v="Vestre Risfjordbotn" />
		<tag k="place" v="locality" />
		<tag k="ssr:date" v="2019-12-27" />
		<tag k="ssr:gruppe" v="flater" />
		<tag k="ssr:hovedgruppe" v="terreng" />
		<tag k="ssr:stedsnr" v="693949" />
		<tag k="ssr:type" v="slette" />
	</node>
	<node lat="70.87560279905911" lon="28.982815796815657" id="-38731">
		<tag k="alt_name" v="Bangneset" />
		<tag k="name" v="Bangeneset" />
		<tag k="natural" v="cape" />
		<tag k="ssr:date" v="2019-12-27" />
		<tag k="ssr:gruppe" v="kystkontur" />
		<tag k="ssr:hovedgruppe" v="sjø" />
		<tag k="ssr:stedsnr" v="693952" />
		<tag k="ssr:type" v="nesISjø" />
	</node>
	<node lat="70.85839168664732" lon="29.227946260666858" id="-38732">
		<tag k="name" v="Rødsetgrunnan" />
		<tag k="natural" v="shoal" />
		<tag k="place" v="locality" />
		<tag k="ssr:date" v="2019-12-27" />
		<tag k="ssr:gruppe" v="grunnerISjø" />
		<tag k="ssr:hovedgruppe" v="sjø" />
		<tag k="ssr:stedsnr" v="693957" />
		<tag k="ssr:type" v="grunneISjø" />
	</node>
	<node lat="70.86944446628826" lon="29.105554638528886" id="-38734">
		<tag k="loc_name" v="Lagmannsvika" />
		<tag k="name" v="Lagmannsbukta" />
		<tag k="natural" v="bay" />
		<tag k="ssr:date" v="2021-06-08" />
		<tag k="ssr:gruppe" v="kystkontur" />
		<tag k="ssr:hovedgruppe" v="sjø" />
		<tag k="ssr:stedsnr" v="694151" />
		<tag k="ssr:type" v="vikISjø" />
	</node>
	<node lat="70.85890002377113" lon="29.08126577686188" id="-38735">
		<tag k="name" v="Sankthanshaugen" />
		<tag k="natural" v="hill" />
		<tag k="place" v="locality" />
		<tag k="ssr:date" v="2019-12-27" />
		<tag k="ssr:gruppe" v="høyder" />
		<tag k="ssr:hovedgruppe" v="terreng" />
		<tag k="ssr:stedsnr" v="577297" />
		<tag k="ssr:type" v="haug" />
	</node>
	<node lat="70.7168555779685" lon="29.312115633848418" id="-38736">
		<tag k="name" v="Kobbkroken" />
		<tag k="natural" v="bay" />
		<tag k="ssr:date" v="2019-12-27" />
		<tag k="ssr:gruppe" v="kystkontur" />
		<tag k="ssr:hovedgruppe" v="sjø" />
		<tag k="ssr:stedsnr" v="592953" />
		<tag k="ssr:type" v="vikISjø" />
	</node>
	<node lat="70.72247224749904" lon="29.277357329260543" id="-38737">
		<tag k="name" v="Hergeelva - Heargejohka" />
		<tag k="name:no" v="Hergeelva" />
		<tag k="name:se" v="Heargejohka" />
		<tag k="old_name:se" v="Hærgejåkka" />
		<tag k="ssr:date" v="2019-12-27" />
		<tag k="ssr:gruppe" v="rennendeVann" />
		<tag k="ssr:hovedgruppe" v="ferskvann" />
		<tag k="ssr:stedsnr" v="626449" />
		<tag k="ssr:type" v="bekk" />
		<tag k="waterway" v="stream" />
	</node>
	<node lat="70.79986391134727" lon="28.916160254022916" id="-38738">
		<tag k="name" v="Bastholmslåtta" />
		<tag k="place" v="locality" />
		<tag k="ssr:date" v="2019-12-27" />
		<tag k="ssr:gruppe" v="gardsbebyggelse" />
		<tag k="ssr:hovedgruppe" v="bebyggelse" />
		<tag k="ssr:stedsnr" v="627995" />
		<tag k="ssr:type" v="eiendom" />
	</node>
	<node lat="70.75920835899316" lon="29.29264622370266" id="-38739">
		<tag k="name" v="Nordmannsetdalen" />
		<tag k="natural" v="valley" />
		<tag k="place" v="locality" />
		<tag k="ssr:date" v="2019-12-27" />
		<tag k="ssr:gruppe" v="senkninger" />
		<tag k="ssr:hovedgruppe" v="terreng" />
		<tag k="ssr:stedsnr" v="627999" />
		<tag k="ssr:type" v="dal" />
	</node>
	<node lat="70.85675279813717" lon="29.064118538452995" id="-38740">
		<tag k="name" v="Grønnlia" />
		<tag k="natural" v="slope" />
		<tag k="place" v="locality" />
		<tag k="ssr:date" v="2019-12-27" />
		<tag k="ssr:gruppe" v="skråninger" />
		<tag k="ssr:hovedgruppe" v="terreng" />
		<tag k="ssr:stedsnr" v="637325" />
		<tag k="ssr:type" v="li" />
	</node>
	<node lat="70.6546222450664" lon="29.190318430663357" id="-38741">
		<tag k="name" v="Svabergmyra" />
		<tag k="natural" v="wetland" />
		<tag k="ssr:date" v="2019-12-27" />
		<tag k="ssr:gruppe" v="våtmark" />
		<tag k="ssr:hovedgruppe" v="markslag" />
		<tag k="ssr:stedsnr" v="651898" />
		<tag k="ssr:type" v="myr" />
	</node>
	<node lat="70.66771946688178" lon="29.191124005174657" id="-38742">
		<tag k="name" v="Vesterdalsvannet" />
		<tag k="natural" v="water" />
		<tag k="ssr:date" v="2019-12-27" />
		<tag k="ssr:gruppe" v="stilleståendeVann" />
		<tag k="ssr:hovedgruppe" v="ferskvann" />
		<tag k="ssr:stedsnr" v="651899" />
		<tag k="ssr:type" v="tjern" />
	</node>
	<node lat="70.86217779600425" lon="28.902818602328683" id="-38743">
		<tag k="name" v="Bukkedalen" />
		<tag k="natural" v="valley" />
		<tag k="place" v="locality" />
		<tag k="ssr:date" v="2019-12-27" />
		<tag k="ssr:gruppe" v="senkninger" />
		<tag k="ssr:hovedgruppe" v="terreng" />
		<tag k="ssr:stedsnr" v="652705" />
		<tag k="ssr:type" v="dal" />
	</node>
	<node lat="70.66698892026763" lon="29.294762847534184" id="-38744">
		<tag k="name" v="Vestre Grønneset" />
		<tag k="natural" v="cape" />
		<tag k="ssr:date" v="2019-12-27" />
		<tag k="ssr:gruppe" v="kystkontur" />
		<tag k="ssr:hovedgruppe" v="sjø" />
		<tag k="ssr:stedsnr" v="654935" />
		<tag k="ssr:type" v="nesISjø" />
	</node>
	<node lat="70.651563917315" lon="29.287660064647937" id="-38745">
		<tag k="name" v="Hundelvdalen" />
		<tag k="natural" v="valley" />
		<tag k="place" v="locality" />
		<tag k="ssr:date" v="2019-12-27" />
		<tag k="ssr:gruppe" v="senkninger" />
		<tag k="ssr:hovedgruppe" v="terreng" />
		<tag k="ssr:stedsnr" v="709991" />
		<tag k="ssr:type" v="dal" />
	</node>
	<node lat="70.66762780108637" lon="28.986910176085175" id="-38746">
		<tag k="name" v="Kjerkehaugen" />
		<tag k="natural" v="hill" />
		<tag k="place" v="locality" />
		<tag k="ssr:date" v="2019-12-27" />
		<tag k="ssr:gruppe" v="høyder" />
		<tag k="ssr:hovedgruppe" v="terreng" />
		<tag k="ssr:stedsnr" v="687403" />
		<tag k="ssr:type" v="haug" />
	</node>
	<node lat="70.73056391050471" lon="29.302387863798863" id="-38747">
		<tag k="alt_name:no" v="Hergeneset" />
		<tag k="name" v="Hergenæringen - Heargevárnjárga" />
		<tag k="name:no" v="Hergenæringen" />
		<tag k="name:se" v="Heargevárnjárga" />
		<tag k="natural" v="cape" />
		<tag k="old_name:se" v="Hærgevarnjarga" />
		<tag k="ssr:date" v="2019-12-27" />
		<tag k="ssr:gruppe" v="kystkontur" />
		<tag k="ssr:hovedgruppe" v="sjø" />
		<tag k="ssr:stedsnr" v="687405" />
		<tag k="ssr:type" v="nesISjø" />
	</node>
	<node lat="70.65466391551605" lon="28.69577416656752" id="-38748">
		<tag k="name" v="Sørdalen" />
		<tag k="natural" v="valley" />
		<tag k="place" v="locality" />
		<tag k="ssr:date" v="2019-12-27" />
		<tag k="ssr:gruppe" v="senkninger" />
		<tag k="ssr:hovedgruppe" v="terreng" />
		<tag k="ssr:stedsnr" v="687345" />
		<tag k="ssr:type" v="dal" />
	</node>
	<node lat="70.65904168988753" lon="29.005899073054245" id="-38749">
		<tag k="name" v="Kjerkehaugvatna" />
		<tag k="natural" v="water" />
		<tag k="ssr:date" v="2019-12-27" />
		<tag k="ssr:gruppe" v="stilleståendeVann" />
		<tag k="ssr:hovedgruppe" v="ferskvann" />
		<tag k="ssr:stedsnr" v="687387" />
		<tag k="ssr:type" v="vann" />
		<tag k="water" v="lake" />
	</node>
	<node lat="70.7039722439042" lon="29.213554564173165" id="-38750">
		<tag k="alt_name" v="Holmvatnan" />
		<tag k="name" v="Holmvatna" />
		<tag k="natural" v="water" />
		<tag k="ssr:date" v="2019-12-27" />
		<tag k="ssr:gruppe" v="stilleståendeVann" />
		<tag k="ssr:hovedgruppe" v="ferskvann" />
		<tag k="ssr:stedsnr" v="687396" />
		<tag k="ssr:type" v="vann" />
		<tag k="water" v="lake" />
	</node>
	<node lat="70.5931778100319" lon="29.395471119060677" id="-38751">
		<tag k="name" v="Álosjohka" />
		<tag k="name:se" v="Álosjohka" />
		<tag k="old_name:se" v="Alusjåkka" />
		<tag k="ssr:date" v="2019-12-27" />
		<tag k="ssr:gruppe" v="rennendeVann" />
		<tag k="ssr:hovedgruppe" v="ferskvann" />
		<tag k="ssr:stedsnr" v="687486" />
		<tag k="ssr:type" v="elv" />
		<tag k="waterway" v="river" />
	</node>
	<node lat="70.85235279778304" lon="29.155376835398204" id="-38752">
		<tag k="name" v="Vargvikholmen" />
		<tag k="place" v="islet" />
		<tag k="ssr:date" v="2019-12-27" />
		<tag k="ssr:gruppe" v="kystkontur" />
		<tag k="ssr:hovedgruppe" v="sjø" />
		<tag k="ssr:stedsnr" v="688983" />
		<tag k="ssr:type" v="holmeISjø" />
	</node>
	<node lat="70.73081114128185" lon="29.379773948396647" id="-38754">
		<tag k="name" v="Fastlandsholmen" />
		<tag k="natural" v="cape" />
		<tag k="ssr:date" v="2019-12-27" />
		<tag k="ssr:gruppe" v="kystkontur" />
		<tag k="ssr:hovedgruppe" v="sjø" />
		<tag k="ssr:stedsnr" v="896941" />
		<tag k="ssr:type" v="nesISjø" />
	</node>
	<node lat="70.73117502708935" lon="29.36843227841465" id="-38755">
		<tag k="fixme" v="consider seamark:type=rock or natural=shoal" />
		<tag k="name" v="Storvikskjæret" />
		<tag k="place" v="islet" />
		<tag k="ssr:date" v="2019-12-27" />
		<tag k="ssr:gruppe" v="grunnerISjø" />
		<tag k="ssr:hovedgruppe" v="sjø" />
		<tag k="ssr:stedsnr" v="896943" />
		<tag k="ssr:type" v="skjærISjø" />
	</node>
	<node lat="70.67779447557484" lon="29.297515622938345" id="-38756">
		<tag k="name" v="Gressholmen" />
		<tag k="place" v="islet" />
		<tag k="ssr:date" v="2019-12-27" />
		<tag k="ssr:gruppe" v="kystkontur" />
		<tag k="ssr:hovedgruppe" v="sjø" />
		<tag k="ssr:stedsnr" v="897873" />
		<tag k="ssr:type" v="holmeISjø" />
	</node>
	<node lat="70.69401669065526" lon="29.38457671986046" id="-38757">
		<tag k="name" v="Strømsbukta" />
		<tag k="natural" v="bay" />
		<tag k="ssr:date" v="2019-12-27" />
		<tag k="ssr:gruppe" v="kystkontur" />
		<tag k="ssr:hovedgruppe" v="sjø" />
		<tag k="ssr:stedsnr" v="897875" />
		<tag k="ssr:type" v="vikISjø" />
	</node>
	<node lat="70.86536113017078" lon="28.932707483134205" id="-38758">
		<tag k="name" v="Jørnslåtta" />
		<tag k="place" v="locality" />
		<tag k="ssr:date" v="2019-12-27" />
		<tag k="ssr:gruppe" v="dyrkamark" />
		<tag k="ssr:hovedgruppe" v="markslag" />
		<tag k="ssr:stedsnr" v="713574" />
		<tag k="ssr:type" v="utmark" />
	</node>
	<node lat="70.87488334995979" lon="28.94898524642368" id="-38759">
		<tag k="name" v="Hanelva" />
		<tag k="ssr:date" v="2019-12-27" />
		<tag k="ssr:gruppe" v="rennendeVann" />
		<tag k="ssr:hovedgruppe" v="ferskvann" />
		<tag k="ssr:stedsnr" v="713575" />
		<tag k="ssr:type" v="bekk" />
		<tag k="waterway" v="stream" />
	</node>
	<node lat="70.86841113190302" lon="28.92464914373786" id="-38760">
		<tag k="name" v="Jørnslåttelva" />
		<tag k="ssr:date" v="2019-12-27" />
		<tag k="ssr:gruppe" v="rennendeVann" />
		<tag k="ssr:hovedgruppe" v="ferskvann" />
		<tag k="ssr:stedsnr" v="713576" />
		<tag k="ssr:type" v="bekk" />
		<tag k="waterway" v="stream" />
	</node>
	<node lat="70.8835666908801" lon="28.972085242228186" id="-38761">
		<tag k="name" v="Fuglenesbukta" />
		<tag k="natural" v="bay" />
		<tag k="ssr:date" v="2019-12-27" />
		<tag k="ssr:gruppe" v="kystkontur" />
		<tag k="ssr:hovedgruppe" v="sjø" />
		<tag k="ssr:stedsnr" v="713980" />
		<tag k="ssr:type" v="vikISjø" />
	</node>
	<node lat="70.68490002477407" lon="29.154971252374935" id="-38762">
		<tag k="fixme" v="consider natural=peak for the most distinct mountains in the district" />
		<tag k="name" v="Nikko-Per-top" />
		<tag k="natural" v="hill" />
		<tag k="place" v="locality" />
		<tag k="ssr:date" v="2021-06-08" />
		<tag k="ssr:gruppe" v="høyder" />
		<tag k="ssr:hovedgruppe" v="terreng" />
		<tag k="ssr:stedsnr" v="744076" />
		<tag k="ssr:type" v="fjell" />
	</node>
	<node lat="70.8596361321129" lon="28.972449133668658" id="-38763">
		<tag k="fixme" v="consider natural=peak for the most distinct mountains in the district" />
		<tag k="name" v="Blomsterfjellet" />
		<tag k="natural" v="hill" />
		<tag k="place" v="locality" />
		<tag k="ssr:date" v="2019-12-27" />
		<tag k="ssr:gruppe" v="høyder" />
		<tag k="ssr:hovedgruppe" v="terreng" />
		<tag k="ssr:stedsnr" v="744690" />
		<tag k="ssr:type" v="fjell" />
	</node>
	<node lat="70.71399724252957" lon="29.20549901551887" id="-38764">
		<tag k="name" v="Langvannet - Guhkesjávri" />
		<tag k="name:no" v="Langvannet" />
		<tag k="name:se" v="Guhkesjávri" />
		<tag k="natural" v="water" />
		<tag k="old_name:se" v="Gukkesjavri" />
		<tag k="ssr:date" v="2019-12-27" />
		<tag k="ssr:gruppe" v="stilleståendeVann" />
		<tag k="ssr:hovedgruppe" v="ferskvann" />
		<tag k="ssr:stedsnr" v="748417" />
		<tag k="ssr:type" v="tjern" />
	</node>
	<node lat="70.6106694744264" lon="29.227790626561152" id="-38765">
		<tag k="name" v="Røyevannet" />
		<tag k="natural" v="water" />
		<tag k="ssr:date" v="2019-12-27" />
		<tag k="ssr:gruppe" v="stilleståendeVann" />
		<tag k="ssr:hovedgruppe" v="ferskvann" />
		<tag k="ssr:stedsnr" v="748375" />
		<tag k="ssr:type" v="tjern" />
	</node>
	<node lat="70.9207639055339" lon="29.10317688629026" id="-38766">
		<tag k="alt_name" v="Skallen, yt" />
		<tag k="name" v="Ytre Skallen" />
		<tag k="natural" v="shoal" />
		<tag k="place" v="locality" />
		<tag k="ssr:date" v="2019-12-27" />
		<tag k="ssr:gruppe" v="grunnerISjø" />
		<tag k="ssr:hovedgruppe" v="sjø" />
		<tag k="ssr:stedsnr" v="748960" />
		<tag k="ssr:type" v="grunneISjø" />
	</node>
	<node lat="70.88005002145358" lon="28.877104737704148" id="-38767">
		<tag k="alt_name:no" v="Dikkeviken" />
		<tag k="name" v="Dikkevika - Dihkkaviika" />
		<tag k="name:no" v="Dikkevika" />
		<tag k="name:se" v="Dihkkaviika" />
		<tag k="natural" v="bay" />
		<tag k="old_name:se" v="Dikkaviika" />
		<tag k="ssr:date" v="2019-12-27" />
		<tag k="ssr:gruppe" v="kystkontur" />
		<tag k="ssr:hovedgruppe" v="sjø" />
		<tag k="ssr:stedsnr" v="748964" />
		<tag k="ssr:type" v="vikISjø" />
	</node>
	<node lat="70.85815557497199" lon="29.0519102079207" id="-38768">
		<tag k="alt_name" v="Grønnlivatnet" />
		<tag k="name" v="Grønlivatnet" />
		<tag k="natural" v="water" />
		<tag k="ssr:date" v="2019-12-27" />
		<tag k="ssr:gruppe" v="stilleståendeVann" />
		<tag k="ssr:hovedgruppe" v="ferskvann" />
		<tag k="ssr:stedsnr" v="748970" />
		<tag k="ssr:type" v="tjern" />
	</node>
	<node lat="70.85197224483785" lon="28.827124182208536" id="-38769">
		<tag k="name" v="Svanelva" />
		<tag k="ssr:date" v="2021-06-08" />
		<tag k="ssr:gruppe" v="rennendeVann" />
		<tag k="ssr:hovedgruppe" v="ferskvann" />
		<tag k="ssr:stedsnr" v="748971" />
		<tag k="ssr:type" v="elv" />
		<tag k="waterway" v="river" />
	</node>
	<node lat="70.70275279986676" lon="29.245435090494066" id="-38770">
		<tag k="name" v="Holmhaugen" />
		<tag k="natural" v="hill" />
		<tag k="place" v="locality" />
		<tag k="ssr:date" v="2019-12-27" />
		<tag k="ssr:gruppe" v="høyder" />
		<tag k="ssr:hovedgruppe" v="terreng" />
		<tag k="ssr:stedsnr" v="228943" />
		<tag k="ssr:type" v="haug" />
	</node>
	<node lat="70.87159723876918" lon="29.034990778208094" id="-38771">
		<tag k="aeroway" v="aerodrome" />
		<tag k="alt_name:no" v="Berlevåg" />
		<tag k="loc_name:se" v="Bearalvági girdihámman" />
		<tag k="name" v="Berlevåg lufthavn" />
		<tag k="name:no" v="Berlevåg lufthavn" />
		<tag k="ssr:date" v="2021-10-06" />
		<tag k="ssr:gruppe" v="luftfart" />
		<tag k="ssr:hovedgruppe" v="infrastruktur" />
		<tag k="ssr:stedsnr" v="755317" />
		<tag k="ssr:type" v="flyplass" />
	</node>
	<node lat="70.84191946388812" lon="28.8464852859613" id="-38772">
		<tag k="fixme" v="consider natural=peak for the most distinct mountains in the district" />
		<tag k="name" v="Svanefjellet" />
		<tag k="natural" v="hill" />
		<tag k="place" v="locality" />
		<tag k="ssr:date" v="2019-12-27" />
		<tag k="ssr:gruppe" v="høyder" />
		<tag k="ssr:hovedgruppe" v="terreng" />
		<tag k="ssr:stedsnr" v="774603" />
		<tag k="ssr:type" v="fjell" />
	</node>
	<node lat="70.65227780413365" lon="29.212929540580838" id="-38773">
		<tag k="name" v="Grønnbakken" />
		<tag k="place" v="locality" />
		<tag k="ssr:date" v="2019-12-27" />
		<tag k="ssr:gruppe" v="rennendeVann" />
		<tag k="ssr:hovedgruppe" v="ferskvann" />
		<tag k="ssr:stedsnr" v="774917" />
		<tag k="ssr:type" v="høl" />
	</node>
	<node lat="70.6390444746304" lon="29.332479490714793" id="-38774">
		<tag k="name" v="Hundelva - Beatnatjohka" />
		<tag k="name:no" v="Hundelva" />
		<tag k="name:se" v="Beatnatjohka" />
		<tag k="old_name:se" v="Bædnatjåkka" />
		<tag k="ssr:date" v="2019-12-27" />
		<tag k="ssr:gruppe" v="rennendeVann" />
		<tag k="ssr:hovedgruppe" v="ferskvann" />
		<tag k="ssr:stedsnr" v="809408" />
		<tag k="ssr:type" v="bekk" />
		<tag k="waterway" v="stream" />
	</node>
	<node lat="70.64603058454438" lon="29.303315618794343" id="-38775">
		<tag k="name" v="Sæterdalselva" />
		<tag k="ssr:date" v="2019-12-27" />
		<tag k="ssr:gruppe" v="rennendeVann" />
		<tag k="ssr:hovedgruppe" v="ferskvann" />
		<tag k="ssr:stedsnr" v="809409" />
		<tag k="ssr:type" v="elv" />
		<tag k="waterway" v="river" />
	</node>
	<node lat="70.60623335416982" lon="29.04038793539415" id="-38776">
		<tag k="name" v="Buevasselva" />
		<tag k="ssr:date" v="2019-12-27" />
		<tag k="ssr:gruppe" v="rennendeVann" />
		<tag k="ssr:hovedgruppe" v="ferskvann" />
		<tag k="ssr:stedsnr" v="809510" />
		<tag k="ssr:type" v="elv" />
		<tag k="waterway" v="river" />
	</node>
	<node lat="70.58652225243893" lon="29.149254545116115" id="-38777">
		<tag k="fixme" v="consider natural=peak for the most distinct mountains in the district" />
		<tag k="name" v="Magertoppen - Silesčohkka" />
		<tag k="name:no" v="Magertoppen" />
		<tag k="name:se" v="Silesčohkka" />
		<tag k="natural" v="hill" />
		<tag k="old_name:se" v="Silesčåkka" />
		<tag k="place" v="locality" />
		<tag k="ssr:date" v="2019-12-27" />
		<tag k="ssr:gruppe" v="høyder" />
		<tag k="ssr:hovedgruppe" v="terreng" />
		<tag k="ssr:stedsnr" v="809515" />
		<tag k="ssr:type" v="ås" />
	</node>
	<node lat="70.85834168695034" lon="28.801540869081514" id="-38778">
		<tag k="fixme" v="consider natural=peak for the most distinct mountains in the district" />
		<tag k="name" v="Bukkekeilfjellet" />
		<tag k="natural" v="hill" />
		<tag k="place" v="locality" />
		<tag k="ssr:date" v="2019-12-27" />
		<tag k="ssr:gruppe" v="høyder" />
		<tag k="ssr:hovedgruppe" v="terreng" />
		<tag k="ssr:stedsnr" v="809931" />
		<tag k="ssr:type" v="fjell" />
	</node>
	<node lat="70.87188612869676" lon="29.090557440465055" id="-38779">
		<tag k="alt_name" v="Tollesneset" />
		<tag k="name" v="Tollefsneset" />
		<tag k="natural" v="cape" />
		<tag k="ssr:date" v="2019-12-27" />
		<tag k="ssr:gruppe" v="kystkontur" />
		<tag k="ssr:hovedgruppe" v="sjø" />
		<tag k="ssr:stedsnr" v="814948" />
		<tag k="ssr:type" v="nesISjø" />
	</node>
	<node lat="70.74190835577839" lon="29.337435088817216" id="-38781">
		<tag k="alt_name" v="Grønnøya" />
		<tag k="name" v="Grønøya" />
		<tag k="place" v="island" />
		<tag k="ssr:date" v="2019-12-27" />
		<tag k="ssr:gruppe" v="kystkontur" />
		<tag k="ssr:hovedgruppe" v="sjø" />
		<tag k="ssr:stedsnr" v="815422" />
		<tag k="ssr:type" v="øyISjø" />
	</node>
	<node lat="70.8640389066472" lon="29.110818522061653" id="-38782">
		<tag k="man_made" v="breakwater" />
		<tag k="name" v="Vestermoloen" />
		<tag k="place" v="locality" />
		<tag k="ssr:date" v="2019-12-27" />
		<tag k="ssr:gruppe" v="sjøfart" />
		<tag k="ssr:hovedgruppe" v="infrastruktur" />
		<tag k="ssr:stedsnr" v="820288" />
		<tag k="ssr:type" v="molo" />
	</node>
	<node lat="70.84501946368768" lon="29.106835201873878" id="-38783">
		<tag k="landuse" v="quarry" />
		<tag k="name" v="Fangenbruddet" />
		<tag k="ssr:date" v="2019-12-27" />
		<tag k="ssr:gruppe" v="uttakOgDeponi" />
		<tag k="ssr:hovedgruppe" v="markslag" />
		<tag k="ssr:stedsnr" v="821280" />
		<tag k="ssr:type" v="grustakSteinbrudd" />
	</node>
	<node lat="70.86389446598253" lon="28.934213026022256" id="-38784">
		<tag k="name" v="Skonsvikraan" />
		<tag k="place" v="locality" />
		<tag k="ssr:date" v="2019-12-27" />
		<tag k="ssr:gruppe" v="bartFjell" />
		<tag k="ssr:hovedgruppe" v="markslag" />
		<tag k="ssr:stedsnr" v="835580" />
		<tag k="ssr:type" v="fjellIDagen" />
	</node>
	<node lat="70.68511113664957" lon="29.357932283425484" id="-38785">
		<tag k="name" v="Varneset" />
		<tag k="natural" v="cape" />
		<tag k="ssr:date" v="2019-12-27" />
		<tag k="ssr:gruppe" v="kystkontur" />
		<tag k="ssr:hovedgruppe" v="sjø" />
		<tag k="ssr:stedsnr" v="836909" />
		<tag k="ssr:type" v="nesISjø" />
	</node>
	<node lat="70.7208028022759" lon="29.33611563016138" id="-38786">
		<tag k="name" v="Kobbkroken" />
		<tag k="natural" v="cape" />
		<tag k="ssr:date" v="2019-12-27" />
		<tag k="ssr:gruppe" v="kystkontur" />
		<tag k="ssr:hovedgruppe" v="sjø" />
		<tag k="ssr:stedsnr" v="836925" />
		<tag k="ssr:type" v="nesISjø" />
	</node>
	<node lat="70.71948891632822" lon="29.33650452980424" id="-38787">
		<tag k="name" v="Skansen" />
		<tag k="place" v="locality" />
		<tag k="ssr:date" v="2019-12-27" />
		<tag k="ssr:gruppe" v="flater" />
		<tag k="ssr:hovedgruppe" v="terreng" />
		<tag k="ssr:stedsnr" v="836926" />
		<tag k="ssr:type" v="slette" />
	</node>
	<node lat="70.69445836097385" lon="29.24689343001526" id="-38788">
		<tag k="alt_name" v="Falkedalen" />
		<tag k="name" v="Falkdalen" />
		<tag k="natural" v="valley" />
		<tag k="place" v="locality" />
		<tag k="ssr:date" v="2019-12-27" />
		<tag k="ssr:gruppe" v="senkninger" />
		<tag k="ssr:hovedgruppe" v="terreng" />
		<tag k="ssr:stedsnr" v="869434" />
		<tag k="ssr:type" v="dal" />
	</node>
	<node lat="70.6767278063487" lon="29.1731267805786" id="-38789">
		<tag k="name" v="Nikko-Per-dalen - Nihkopierleahki" />
		<tag k="name:no" v="Nikko-Per-dalen" />
		<tag k="name:se" v="Nihkopierleahki" />
		<tag k="natural" v="valley" />
		<tag k="old_name:se" v="Nikkupierlækki" />
		<tag k="place" v="locality" />
		<tag k="ssr:date" v="2021-06-08" />
		<tag k="ssr:gruppe" v="senkninger" />
		<tag k="ssr:hovedgruppe" v="terreng" />
		<tag k="ssr:stedsnr" v="869444" />
		<tag k="ssr:type" v="dal" />
	</node>
	<node lat="70.66829724634871" lon="29.17745179222849" id="-38790">
		<tag k="name" v="Vesterdalselva" />
		<tag k="ssr:date" v="2019-12-27" />
		<tag k="ssr:gruppe" v="rennendeVann" />
		<tag k="ssr:hovedgruppe" v="ferskvann" />
		<tag k="ssr:stedsnr" v="869450" />
		<tag k="ssr:type" v="elv" />
		<tag k="waterway" v="river" />
	</node>
	<node lat="70.52795002733862" lon="29.184173970162874" id="-38791">
		<tag k="name" v="Magistervannet - Mágisttarjávri" />
		<tag k="name:no" v="Magistervannet" />
		<tag k="name:se" v="Mágisttarjávri" />
		<tag k="natural" v="water" />
		<tag k="old_name:se" v="Magistarjavri" />
		<tag k="ssr:date" v="2019-12-27" />
		<tag k="ssr:gruppe" v="stilleståendeVann" />
		<tag k="ssr:hovedgruppe" v="ferskvann" />
		<tag k="ssr:stedsnr" v="870507" />
		<tag k="ssr:type" v="vann" />
		<tag k="water" v="lake" />
	</node>
	<node lat="70.51033614022624" lon="29.011615681992335" id="-38792">
		<tag k="fixme" v="consider natural=peak for the most distinct mountains in the district" />
		<tag k="name" v="Skužučohkka" />
		<tag k="name:se" v="Skužučohkka" />
		<tag k="natural" v="hill" />
		<tag k="old_name:se" v="Skužočåkka" />
		<tag k="place" v="locality" />
		<tag k="ssr:date" v="2019-12-27" />
		<tag k="ssr:gruppe" v="høyder" />
		<tag k="ssr:hovedgruppe" v="terreng" />
		<tag k="ssr:stedsnr" v="870508" />
		<tag k="ssr:type" v="fjell" />
	</node>
	<node lat="70.75033613392135" lon="29.22555735969953" id="-38793">
		<tag k="name" v="Økseelva - Meresjohka" />
		<tag k="name:no" v="Økseelva" />
		<tag k="name:se" v="Meresjohka" />
		<tag k="old_name:se" v="Meresjåkka" />
		<tag k="ssr:date" v="2019-12-27" />
		<tag k="ssr:gruppe" v="rennendeVann" />
		<tag k="ssr:hovedgruppe" v="ferskvann" />
		<tag k="ssr:stedsnr" v="870529" />
		<tag k="ssr:type" v="elv" />
		<tag k="waterway" v="river" />
	</node>
	<node lat="70.63143613898701" lon="29.093799023637445" id="-38794">
		<tag k="name" v="Firkantvannet" />
		<tag k="natural" v="water" />
		<tag k="ssr:date" v="2019-12-27" />
		<tag k="ssr:gruppe" v="stilleståendeVann" />
		<tag k="ssr:hovedgruppe" v="ferskvann" />
		<tag k="ssr:stedsnr" v="870403" />
		<tag k="ssr:type" v="vann" />
		<tag k="water" v="lake" />
	</node>
	<node lat="70.8714833513829" lon="28.81462974646972" id="-38795">
		<tag k="name" v="Tarevika - Stárraluokta" />
		<tag k="name:no" v="Tarevika" />
		<tag k="name:se" v="Stárraluokta" />
		<tag k="natural" v="bay" />
		<tag k="old_name:se" v="Starraluokta" />
		<tag k="ssr:date" v="2019-12-27" />
		<tag k="ssr:gruppe" v="kystkontur" />
		<tag k="ssr:hovedgruppe" v="sjø" />
		<tag k="ssr:stedsnr" v="870920" />
		<tag k="ssr:type" v="vikISjø" />
	</node>
	<node lat="70.6769833553634" lon="28.581163091360803" id="-38796">
		<tag k="name" v="Liboklubben - Liibu" />
		<tag k="name:no" v="Liboklubben" />
		<tag k="name:se" v="Liibu" />
		<tag k="natural" v="cape" />
		<tag k="old_name:se" v="Liibo" />
		<tag k="ssr:date" v="2019-12-27" />
		<tag k="ssr:gruppe" v="kystkontur" />
		<tag k="ssr:hovedgruppe" v="sjø" />
		<tag k="ssr:stedsnr" v="930364" />
		<tag k="ssr:type" v="nesISjø" />
	</node>
	<node lat="70.68836668368954" lon="28.712954732190255" id="-38797">
		<tag k="name" v="Čuonjejávri" />
		<tag k="name:se" v="Čuonjejávri" />
		<tag k="natural" v="water" />
		<tag k="old_name:se" v="Čuonjejavri" />
		<tag k="ssr:date" v="2019-12-27" />
		<tag k="ssr:gruppe" v="stilleståendeVann" />
		<tag k="ssr:hovedgruppe" v="ferskvann" />
		<tag k="ssr:stedsnr" v="930367" />
		<tag k="ssr:type" v="tjern" />
	</node>
	<node lat="70.68347223967518" lon="28.509068668663954" id="-38798">
		<tag k="name" v="Gulgoneset - Vuođavuonnjárga" />
		<tag k="name:no" v="Gulgoneset" />
		<tag k="name:se" v="Vuođavuonnjárga" />
		<tag k="natural" v="cape" />
		<tag k="old_name:se" v="Vuođavuonnjarga" />
		<tag k="ssr:date" v="2021-06-08" />
		<tag k="ssr:gruppe" v="kystkontur" />
		<tag k="ssr:hovedgruppe" v="sjø" />
		<tag k="ssr:stedsnr" v="930371" />
		<tag k="ssr:type" v="nesISjø" />
	</node>
	<node lat="70.6796361392316" lon="29.36215449122901" id="-38799">
		<tag k="name" v="Storneshaugen" />
		<tag k="natural" v="hill" />
		<tag k="place" v="locality" />
		<tag k="ssr:date" v="2019-12-27" />
		<tag k="ssr:gruppe" v="høyder" />
		<tag k="ssr:hovedgruppe" v="terreng" />
		<tag k="ssr:stedsnr" v="930409" />
		<tag k="ssr:type" v="haug" />
	</node>
	<node lat="70.73143613228585" lon="29.0586740529423" id="-38800">
		<tag k="name" v="Áldojohka" />
		<tag k="name:se" v="Áldojohka" />
		<tag k="old_name:se" v="Aldujåkka" />
		<tag k="ssr:date" v="2019-12-27" />
		<tag k="ssr:gruppe" v="rennendeVann" />
		<tag k="ssr:hovedgruppe" v="ferskvann" />
		<tag k="ssr:stedsnr" v="930425" />
		<tag k="ssr:type" v="bekk" />
		<tag k="waterway" v="stream" />
	</node>
	<node lat="70.70823057649596" lon="28.930979672761165" id="-38802">
		<tag k="name" v="Rákkočearru" />
		<tag k="name:se" v="Rákkočearru" />
		<tag k="natural" v="plateau" />
		<tag k="old_name:se" v="Raggučærro" />
		<tag k="ssr:date" v="2019-12-27" />
		<tag k="ssr:gruppe" v="terrengområder" />
		<tag k="ssr:hovedgruppe" v="terreng" />
		<tag k="ssr:stedsnr" v="930437" />
		<tag k="ssr:type" v="vidde" />
	</node>
	<node lat="70.75521390795902" lon="28.730824174213414" id="-38803">
		<tag k="fixme" v="consider natural=peak for the most distinct mountains in the district" />
		<tag k="name" v="Stivlečohkka" />
		<tag k="name:se" v="Stivlečohkka" />
		<tag k="natural" v="hill" />
		<tag k="old_name:se" v="Stivlečåkka" />
		<tag k="place" v="locality" />
		<tag k="ssr:date" v="2019-12-27" />
		<tag k="ssr:gruppe" v="høyder" />
		<tag k="ssr:hovedgruppe" v="terreng" />
		<tag k="ssr:stedsnr" v="930962" />
		<tag k="ssr:type" v="ås" />
	</node>
	<node lat="70.881800021911" lon="28.97739081041459" id="-38804">
		<tag k="alt_name" v="Fugleneset" />
		<tag k="name" v="Fuglenes" />
		<tag k="natural" v="cape" />
		<tag k="ssr:date" v="2019-12-27" />
		<tag k="ssr:gruppe" v="kystkontur" />
		<tag k="ssr:hovedgruppe" v="sjø" />
		<tag k="ssr:stedsnr" v="930965" />
		<tag k="ssr:type" v="nesISjø" />
	</node>
	<node lat="70.85936946793414" lon="28.94588803614398" id="-38805">
		<tag k="name" v="Rundvannet" />
		<tag k="natural" v="water" />
		<tag k="ssr:date" v="2019-12-27" />
		<tag k="ssr:gruppe" v="stilleståendeVann" />
		<tag k="ssr:hovedgruppe" v="ferskvann" />
		<tag k="ssr:stedsnr" v="930972" />
		<tag k="ssr:type" v="tjern" />
	</node>
	<node lat="70.84926113238083" lon="29.21234905706257" id="-38806">
		<tag k="fixme" v="consider natural=peak for the most distinct mountains in the district" />
		<tag k="name" v="Kjølnesaksla" />
		<tag k="natural" v="hill" />
		<tag k="place" v="locality" />
		<tag k="ssr:date" v="2019-12-27" />
		<tag k="ssr:gruppe" v="høyder" />
		<tag k="ssr:hovedgruppe" v="terreng" />
		<tag k="ssr:stedsnr" v="930974" />
		<tag k="ssr:type" v="ås" />
	</node>
	<node lat="70.8374083559267" lon="28.811182526008334" id="-38807">
		<tag k="name" v="Svandalen" />
		<tag k="natural" v="valley" />
		<tag k="place" v="locality" />
		<tag k="ssr:date" v="2021-06-08" />
		<tag k="ssr:gruppe" v="senkninger" />
		<tag k="ssr:hovedgruppe" v="terreng" />
		<tag k="ssr:stedsnr" v="930934" />
		<tag k="ssr:type" v="dal" />
	</node>
	<node lat="70.76855558024307" lon="29.261329574841824" id="-38808">
		<tag k="name" v="Hamnelvvannet" />
		<tag k="natural" v="water" />
		<tag k="ssr:date" v="2019-12-27" />
		<tag k="ssr:gruppe" v="stilleståendeVann" />
		<tag k="ssr:hovedgruppe" v="ferskvann" />
		<tag k="ssr:stedsnr" v="932000" />
		<tag k="ssr:type" v="tjern" />
	</node>
	<node lat="70.8620889085797" lon="28.90991581109642" id="-38809">
		<tag k="name" v="Bukkedalselva" />
		<tag k="ssr:date" v="2019-12-27" />
		<tag k="ssr:gruppe" v="rennendeVann" />
		<tag k="ssr:hovedgruppe" v="ferskvann" />
		<tag k="ssr:stedsnr" v="896755" />
		<tag k="ssr:type" v="elv" />
		<tag k="waterway" v="river" />
	</node>
	<node lat="70.71619446811555" lon="29.27949063866967" id="-38810">
		<tag k="name" v="Skarvannet" />
		<tag k="natural" v="water" />
		<tag k="ssr:date" v="2019-12-27" />
		<tag k="ssr:gruppe" v="stilleståendeVann" />
		<tag k="ssr:hovedgruppe" v="ferskvann" />
		<tag k="ssr:stedsnr" v="896955" />
		<tag k="ssr:type" v="tjern" />
	</node>
	<node lat="70.71523613390052" lon="29.27077676665552" id="-38811">
		<tag k="name" v="Lomvannet" />
		<tag k="natural" v="water" />
		<tag k="ssr:date" v="2019-12-27" />
		<tag k="ssr:gruppe" v="stilleståendeVann" />
		<tag k="ssr:hovedgruppe" v="ferskvann" />
		<tag k="ssr:stedsnr" v="896957" />
		<tag k="ssr:type" v="tjern" />
	</node>
	<node lat="70.62838891337364" lon="28.60443530640854" id="-38812">
		<tag k="fixme" v="consider natural=peak for the most distinct mountains in the district" />
		<tag k="name" v="Dáhkočearru - Slipsteinfjellet" />
		<tag k="name:no" v="Slipsteinfjellet" />
		<tag k="name:se" v="Dáhkočearru" />
		<tag k="natural" v="hill" />
		<tag k="old_name:se" v="Dakkučærro;Dahkočearru" />
		<tag k="place" v="locality" />
		<tag k="ssr:date" v="2019-12-27" />
		<tag k="ssr:gruppe" v="høyder" />
		<tag k="ssr:hovedgruppe" v="terreng" />
		<tag k="ssr:stedsnr" v="930352" />
		<tag k="ssr:type" v="fjell" />
	</node>
	<node lat="70.61936113689998" lon="28.766651911624646" id="-38813">
		<tag k="name" v="Báktegorsa" />
		<tag k="name:se" v="Báktegorsa" />
		<tag k="natural" v="valley" />
		<tag k="old_name:se" v="Baktegårsa" />
		<tag k="place" v="locality" />
		<tag k="ssr:date" v="2019-12-27" />
		<tag k="ssr:gruppe" v="senkninger" />
		<tag k="ssr:hovedgruppe" v="terreng" />
		<tag k="ssr:stedsnr" v="930353" />
		<tag k="ssr:type" v="skar" />
	</node>
	<node lat="70.65313058325144" lon="29.272579516558356" id="-38814">
		<tag k="name" v="Sæterbukta" />
		<tag k="natural" v="bay" />
		<tag k="ssr:date" v="2019-12-27" />
		<tag k="ssr:gruppe" v="kystkontur" />
		<tag k="ssr:hovedgruppe" v="sjø" />
		<tag k="ssr:stedsnr" v="930393" />
		<tag k="ssr:type" v="vikISjø" />
	</node>
	<node lat="70.64699169482274" lon="29.259073977703856" id="-38815">
		<tag k="name" v="Guohcagopjohka" />
		<tag k="name:se" v="Guohcagopjohka" />
		<tag k="old_name:se" v="Guoccagåpjåkka" />
		<tag k="ssr:date" v="2019-12-27" />
		<tag k="ssr:gruppe" v="rennendeVann" />
		<tag k="ssr:hovedgruppe" v="ferskvann" />
		<tag k="ssr:stedsnr" v="930394" />
		<tag k="ssr:type" v="bekk" />
		<tag k="waterway" v="stream" />
	</node>
	<node lat="70.66030835823334" lon="29.231546192058826" id="-38816">
		<tag k="name" v="Stormyra" />
		<tag k="natural" v="wetland" />
		<tag k="ssr:date" v="2019-12-27" />
		<tag k="ssr:gruppe" v="våtmark" />
		<tag k="ssr:hovedgruppe" v="markslag" />
		<tag k="ssr:stedsnr" v="930396" />
		<tag k="ssr:type" v="myr" />
	</node>
	<node lat="70.65136946432817" lon="28.914643548155073" id="-38817">
		<tag k="fixme" v="consider natural=peak for the most distinct mountains in the district" />
		<tag k="name" v="Divgačearru" />
		<tag k="name:se" v="Divgačearru" />
		<tag k="natural" v="hill" />
		<tag k="old_name:se" v="Divgačærro" />
		<tag k="place" v="locality" />
		<tag k="ssr:date" v="2019-12-27" />
		<tag k="ssr:gruppe" v="høyder" />
		<tag k="ssr:hovedgruppe" v="terreng" />
		<tag k="ssr:stedsnr" v="930398" />
		<tag k="ssr:type" v="fjell" />
	</node>
	<node lat="70.63849446902859" lon="29.068049036441295" id="-38818">
		<tag k="alt_name:no" v="Kløftvatnet, l" />
		<tag k="name" v="Lille Kløftvatnet - Uhca Loapmejávri" />
		<tag k="name:no" v="Lille Kløftvatnet" />
		<tag k="name:se" v="Uhca Loapmejávri" />
		<tag k="natural" v="water" />
		<tag k="old_name:se" v="Loabmejavri ucca" />
		<tag k="ssr:date" v="2019-12-27" />
		<tag k="ssr:gruppe" v="stilleståendeVann" />
		<tag k="ssr:hovedgruppe" v="ferskvann" />
		<tag k="ssr:stedsnr" v="930402" />
		<tag k="ssr:type" v="tjern" />
	</node>
	<node lat="70.61580002903546" lon="29.284873948271525" id="-38819">
		<tag k="name" v="Sæterdalsvatna" />
		<tag k="natural" v="water" />
		<tag k="ssr:date" v="2019-12-27" />
		<tag k="ssr:gruppe" v="stilleståendeVann" />
		<tag k="ssr:hovedgruppe" v="ferskvann" />
		<tag k="ssr:stedsnr" v="930405" />
		<tag k="ssr:type" v="vann" />
		<tag k="water" v="lake" />
	</node>
	<node lat="70.6748528003706" lon="28.656174182166573" id="-38820">
		<tag k="name" v="Trollfjordelva - Stuorrajohka" />
		<tag k="name:no" v="Trollfjordelva" />
		<tag k="name:se" v="Stuorrajohka" />
		<tag k="old_name:se" v="Stuorrajåkka" />
		<tag k="ssr:date" v="2019-12-27" />
		<tag k="ssr:gruppe" v="rennendeVann" />
		<tag k="ssr:hovedgruppe" v="ferskvann" />
		<tag k="ssr:stedsnr" v="931108" />
		<tag k="ssr:type" v="elv" />
		<tag k="waterway" v="river" />
	</node>
	<node lat="70.76305002514627" lon="29.35809896917247" id="-38821">
		<tag k="loc_name:se" v="Struhpponjárga" />
		<tag k="name" v="Nordmannsetneset" />
		<tag k="name:no" v="Nordmannsetneset" />
		<tag k="natural" v="cape" />
		<tag k="ssr:date" v="2021-10-05" />
		<tag k="ssr:gruppe" v="kystkontur" />
		<tag k="ssr:hovedgruppe" v="sjø" />
		<tag k="ssr:stedsnr" v="931546" />
		<tag k="ssr:type" v="nesISjø" />
	</node>
	<node lat="70.80209724824945" lon="29.22223237014897" id="-38822">
		<tag k="fixme" v="consider natural=peak for the most distinct mountains in the district" />
		<tag k="name" v="Sandfjordfjellet" />
		<tag k="natural" v="hill" />
		<tag k="place" v="locality" />
		<tag k="ssr:date" v="2019-12-27" />
		<tag k="ssr:gruppe" v="høyder" />
		<tag k="ssr:hovedgruppe" v="terreng" />
		<tag k="ssr:stedsnr" v="931990" />
		<tag k="ssr:type" v="fjell" />
	</node>
	<node lat="70.79918613782019" lon="29.2289962443053" id="-38823">
		<tag k="name" v="Sandfjordskardet" />
		<tag k="natural" v="valley" />
		<tag k="place" v="locality" />
		<tag k="ssr:date" v="2019-12-27" />
		<tag k="ssr:gruppe" v="senkninger" />
		<tag k="ssr:hovedgruppe" v="terreng" />
		<tag k="ssr:stedsnr" v="931992" />
		<tag k="ssr:type" v="skar" />
	</node>
	<node lat="70.76590557866018" lon="29.28084621075287" id="-38824">
		<tag k="name" v="Kvalvikhøgda" />
		<tag k="natural" v="hill" />
		<tag k="place" v="locality" />
		<tag k="ssr:date" v="2021-06-08" />
		<tag k="ssr:gruppe" v="høyder" />
		<tag k="ssr:hovedgruppe" v="terreng" />
		<tag k="ssr:stedsnr" v="931999" />
		<tag k="ssr:type" v="haug" />
	</node>
	<node lat="70.8680527989502" lon="28.95006582548733" id="-38825">
		<tag k="name" v="Dalbakken" />
		<tag k="natural" v="slope" />
		<tag k="place" v="locality" />
		<tag k="ssr:date" v="2019-12-27" />
		<tag k="ssr:gruppe" v="skråninger" />
		<tag k="ssr:hovedgruppe" v="terreng" />
		<tag k="ssr:stedsnr" v="956600" />
		<tag k="ssr:type" v="bakke" />
	</node>
	<node lat="70.67414169067207" lon="29.089190716016432" id="-38826">
		<tag k="fixme" v="consider natural=peak for the most distinct mountains in the district" />
		<tag k="name" v="Lomtoppen" />
		<tag k="natural" v="hill" />
		<tag k="place" v="locality" />
		<tag k="ssr:date" v="2019-12-27" />
		<tag k="ssr:gruppe" v="høyder" />
		<tag k="ssr:hovedgruppe" v="terreng" />
		<tag k="ssr:stedsnr" v="20404" />
		<tag k="ssr:type" v="ås" />
	</node>
	<node lat="70.67633613387358" lon="29.287107300716663" id="-38827">
		<tag k="alt_name" v="Laukholmen;Vesterøya" />
		<tag k="name" v="Løkholmen" />
		<tag k="place" v="islet" />
		<tag k="ssr:date" v="2019-12-27" />
		<tag k="ssr:gruppe" v="kystkontur" />
		<tag k="ssr:hovedgruppe" v="sjø" />
		<tag k="ssr:stedsnr" v="20407" />
		<tag k="ssr:type" v="holmeISjø" />
	</node>
	<node lat="70.72810002293865" lon="29.347090633814094" id="-38828">
		<tag k="name" v="Riššačilagohppi" />
		<tag k="name:se" v="Riššačilagohppi" />
		<tag k="natural" v="bay" />
		<tag k="old_name:se" v="Riššačilagåppi" />
		<tag k="ssr:date" v="2019-12-27" />
		<tag k="ssr:gruppe" v="kystkontur" />
		<tag k="ssr:hovedgruppe" v="sjø" />
		<tag k="ssr:stedsnr" v="20412" />
		<tag k="ssr:type" v="vikISjø" />
	</node>
	<node lat="70.71291391094314" lon="28.997007413960297" id="-38829">
		<tag k="name" v="Rundtjernet - Jorbaláttu" />
		<tag k="name:no" v="Rundtjernet" />
		<tag k="name:se" v="Jorbaláttu" />
		<tag k="natural" v="water" />
		<tag k="old_name:se" v="Jårbaladdo" />
		<tag k="ssr:date" v="2019-12-27" />
		<tag k="ssr:gruppe" v="stilleståendeVann" />
		<tag k="ssr:hovedgruppe" v="ferskvann" />
		<tag k="ssr:stedsnr" v="20419" />
		<tag k="ssr:type" v="tjern" />
	</node>
	<node lat="70.6749361305278" lon="28.554907553069828" id="-38830">
		<tag k="name" v="Kråkeberget" />
		<tag k="natural" v="hill" />
		<tag k="place" v="locality" />
		<tag k="ssr:date" v="2019-12-27" />
		<tag k="ssr:gruppe" v="høyder" />
		<tag k="ssr:hovedgruppe" v="terreng" />
		<tag k="ssr:stedsnr" v="20335" />
		<tag k="ssr:type" v="berg" />
	</node>
	<node lat="70.73856113626712" lon="28.732435287247384" id="-38831">
		<tag k="name" v="Skierrevárjohka" />
		<tag k="name:se" v="Skierrevárjohka" />
		<tag k="old_name:se" v="Skierrevarjåkka;Skierrevarjohka" />
		<tag k="ssr:date" v="2019-12-27" />
		<tag k="ssr:gruppe" v="rennendeVann" />
		<tag k="ssr:hovedgruppe" v="ferskvann" />
		<tag k="ssr:stedsnr" v="20353" />
		<tag k="ssr:type" v="elv" />
		<tag k="waterway" v="river" />
	</node>
	<node lat="70.64340836187235" lon="29.233360088273283" id="-38832">
		<tag k="name" v="Huldabekken" />
		<tag k="ssr:date" v="2019-12-27" />
		<tag k="ssr:gruppe" v="rennendeVann" />
		<tag k="ssr:hovedgruppe" v="ferskvann" />
		<tag k="ssr:stedsnr" v="20376" />
		<tag k="ssr:type" v="bekk" />
		<tag k="waterway" v="stream" />
	</node>
	<node lat="70.6497250251926" lon="29.319435051789572" id="-38833">
		<tag k="fixme" v="consider natural=peak for the most distinct mountains in the district" />
		<tag k="name" v="Sæterdalsfjella" />
		<tag k="natural" v="hill" />
		<tag k="place" v="locality" />
		<tag k="ssr:date" v="2019-12-27" />
		<tag k="ssr:gruppe" v="høyder" />
		<tag k="ssr:hovedgruppe" v="terreng" />
		<tag k="ssr:stedsnr" v="20382" />
		<tag k="ssr:type" v="fjell" />
	</node>
	<node lat="70.61472502486578" lon="29.152754556113795" id="-38834">
		<tag k="name" v="Ørretvasshøgda" />
		<tag k="natural" v="hill" />
		<tag k="place" v="locality" />
		<tag k="ssr:date" v="2019-12-27" />
		<tag k="ssr:gruppe" v="høyder" />
		<tag k="ssr:hovedgruppe" v="terreng" />
		<tag k="ssr:stedsnr" v="20384" />
		<tag k="ssr:type" v="haug" />
	</node>
	<node lat="70.62398057831165" lon="29.060962910412798" id="-38835">
		<tag k="alt_name" v="Dagenvasselva" />
		<tag k="name" v="Dagenelva" />
		<tag k="ssr:date" v="2019-12-27" />
		<tag k="ssr:gruppe" v="rennendeVann" />
		<tag k="ssr:hovedgruppe" v="ferskvann" />
		<tag k="ssr:stedsnr" v="20385" />
		<tag k="ssr:type" v="elv" />
		<tag k="waterway" v="river" />
	</node>
	<node lat="70.6765750327097" lon="29.624965498368834" id="-38836">
		<tag k="fixme" v="consider natural=peak for the most distinct mountains in the district" />
		<tag k="name" v="Rubbedalshøgda" />
		<tag k="natural" v="hill" />
		<tag k="place" v="locality" />
		<tag k="ssr:date" v="2021-06-08" />
		<tag k="ssr:gruppe" v="høyder" />
		<tag k="ssr:hovedgruppe" v="terreng" />
		<tag k="ssr:stedsnr" v="20479" />
		<tag k="ssr:type" v="fjell" />
	</node>
	<node lat="70.7998805773824" lon="28.735479750749956" id="-38837">
		<tag k="name" v="Áljasfasjohka" />
		<tag k="name:se" v="Áljasfasjohka" />
		<tag k="old_name:se" v="Alljasfasjåkka" />
		<tag k="ssr:date" v="2019-12-27" />
		<tag k="ssr:gruppe" v="rennendeVann" />
		<tag k="ssr:hovedgruppe" v="ferskvann" />
		<tag k="ssr:stedsnr" v="20955" />
		<tag k="ssr:type" v="elv" />
		<tag k="waterway" v="river" />
	</node>
	<node lat="70.76952224210578" lon="28.77478251531511" id="-38838">
		<tag k="name" v="Guhkesgorsa" />
		<tag k="name:se" v="Guhkesgorsa" />
		<tag k="natural" v="valley" />
		<tag k="old_name:se" v="Gukkesgårsa" />
		<tag k="place" v="locality" />
		<tag k="ssr:date" v="2019-12-27" />
		<tag k="ssr:gruppe" v="senkninger" />
		<tag k="ssr:hovedgruppe" v="terreng" />
		<tag k="ssr:stedsnr" v="20968" />
		<tag k="ssr:type" v="dal" />
	</node>
	<node lat="70.75294724569812" lon="28.682929759970662" id="-38839">
		<tag k="name" v="Suorgeleahki" />
		<tag k="name:se" v="Suorgeleahki" />
		<tag k="natural" v="valley" />
		<tag k="old_name:se" v="Suorgelækki" />
		<tag k="place" v="locality" />
		<tag k="ssr:date" v="2019-12-27" />
		<tag k="ssr:gruppe" v="senkninger" />
		<tag k="ssr:hovedgruppe" v="terreng" />
		<tag k="ssr:stedsnr" v="20969" />
		<tag k="ssr:type" v="dal" />
	</node>
	<node lat="70.87768057562765" lon="28.9034658249168" id="-38840">
		<tag k="name" v="Stuorrabákti" />
		<tag k="name:se" v="Stuorrabákti" />
		<tag k="natural" v="hill" />
		<tag k="old_name:se" v="Stuorrabakti" />
		<tag k="place" v="locality" />
		<tag k="ssr:date" v="2019-12-27" />
		<tag k="ssr:gruppe" v="høyder" />
		<tag k="ssr:hovedgruppe" v="terreng" />
		<tag k="ssr:stedsnr" v="20972" />
		<tag k="ssr:type" v="berg" />
	</node>
	<node lat="70.87060835128023" lon="28.980729695528396" id="-38841">
		<tag k="alt_name" v="Skonsvika" />
		<tag k="fixme" v="multiple name tags, choose one and add the other to alt_name" />
		<tag k="name" v="Spoadnavika;Skånsvika" />
		<tag k="natural" v="bay" />
		<tag k="ssr:date" v="2019-12-27" />
		<tag k="ssr:gruppe" v="kystkontur" />
		<tag k="ssr:hovedgruppe" v="sjø" />
		<tag k="ssr:stedsnr" v="20975" />
		<tag k="ssr:type" v="vikISjø" />
	</node>
	<node lat="70.83093057818152" lon="28.746338096014284" id="-38842">
		<tag k="fixme" v="multiple name tags, choose one and add the other to alt_name; consider natural=peak for the most distinct mountains in the district" />
		<tag k="name" v="Kvitnesfjellet;Molvikfjellet - Goahtu" />
		<tag k="name:no" v="Kvitnesfjellet;Molvikfjellet" />
		<tag k="name:se" v="Goahtu" />
		<tag k="natural" v="hill" />
		<tag k="old_name:se" v="Goatto" />
		<tag k="place" v="locality" />
		<tag k="ssr:date" v="2019-12-27" />
		<tag k="ssr:gruppe" v="høyder" />
		<tag k="ssr:hovedgruppe" v="terreng" />
		<tag k="ssr:stedsnr" v="25919" />
		<tag k="ssr:type" v="fjell" />
	</node>
	<node lat="70.7535305821228" lon="29.32514064312004" id="-38843">
		<tag k="name" v="Storkeila" />
		<tag k="natural" v="bay" />
		<tag k="ssr:date" v="2019-12-27" />
		<tag k="ssr:gruppe" v="kystkontur" />
		<tag k="ssr:hovedgruppe" v="sjø" />
		<tag k="ssr:stedsnr" v="25928" />
		<tag k="ssr:type" v="vikISjø" />
	</node>
	<node lat="70.72812224312887" lon="29.332837858902014" id="-38844">
		<tag k="name" v="Plogneset" />
		<tag k="natural" v="cape" />
		<tag k="ssr:date" v="2019-12-27" />
		<tag k="ssr:gruppe" v="kystkontur" />
		<tag k="ssr:hovedgruppe" v="sjø" />
		<tag k="ssr:stedsnr" v="25935" />
		<tag k="ssr:type" v="nesISjø" />
	</node>
	<node lat="70.8673500198405" lon="29.124051870937837" id="-38845">
		<tag k="name" v="Svartoksfallet" />
		<tag k="natural" v="shoal" />
		<tag k="place" v="locality" />
		<tag k="ssr:date" v="2019-12-27" />
		<tag k="ssr:gruppe" v="grunnerISjø" />
		<tag k="ssr:hovedgruppe" v="sjø" />
		<tag k="ssr:stedsnr" v="25949" />
		<tag k="ssr:type" v="grunneISjø" />
	</node>
	<node lat="70.7066750257192" lon="29.29742952549336" id="-38846">
		<tag k="name" v="Hans Jensen bukta" />
		<tag k="natural" v="bay" />
		<tag k="ssr:date" v="2019-12-27" />
		<tag k="ssr:gruppe" v="kystkontur" />
		<tag k="ssr:hovedgruppe" v="sjø" />
		<tag k="ssr:stedsnr" v="28239" />
		<tag k="ssr:type" v="vikISjø" />
	</node>
	<node lat="70.85953613575083" lon="29.117010194203107" id="-38847">
		<tag k="man_made" v="breakwater" />
		<tag k="name" v="Østermoloen" />
		<tag k="place" v="locality" />
		<tag k="ssr:date" v="2019-12-27" />
		<tag k="ssr:gruppe" v="sjøfart" />
		<tag k="ssr:hovedgruppe" v="infrastruktur" />
		<tag k="ssr:stedsnr" v="31292" />
		<tag k="ssr:type" v="molo" />
	</node>
	<node lat="70.87284168771913" lon="29.07971577532042" id="-38848">
		<tag k="man_made" v="tower" />
		<tag k="name" v="Berlevåg Radio" />
		<tag k="ssr:date" v="2019-12-27" />
		<tag k="ssr:gruppe" v="kommunikasjon" />
		<tag k="ssr:hovedgruppe" v="infrastruktur" />
		<tag k="ssr:stedsnr" v="31296" />
		<tag k="ssr:type" v="tV-Radio-EllerMobiltelefontårn" />
		<tag k="tower:type" v="communications" />
	</node>
	<node lat="70.83925835315493" lon="29.22397404082671" id="-38849">
		<tag k="name" v="Styrvannet" />
		<tag k="natural" v="water" />
		<tag k="ssr:date" v="2019-12-27" />
		<tag k="ssr:gruppe" v="stilleståendeVann" />
		<tag k="ssr:hovedgruppe" v="ferskvann" />
		<tag k="ssr:stedsnr" v="32219" />
		<tag k="ssr:type" v="vann" />
		<tag k="water" v="lake" />
	</node>
	<node lat="70.83831946645502" lon="29.07359632994276" id="-38850">
		<tag k="name" v="Veddalsholmen" />
		<tag k="place" v="islet" />
		<tag k="ssr:date" v="2019-12-27" />
		<tag k="ssr:gruppe" v="ferskvannskontur" />
		<tag k="ssr:hovedgruppe" v="ferskvann" />
		<tag k="ssr:stedsnr" v="32251" />
		<tag k="ssr:type" v="holme" />
	</node>
	<node lat="70.72849169111983" lon="29.33399617443207" id="-38851">
		<tag k="name" v="Vestre Plogvikneset" />
		<tag k="natural" v="cape" />
		<tag k="ssr:date" v="2019-12-27" />
		<tag k="ssr:gruppe" v="kystkontur" />
		<tag k="ssr:hovedgruppe" v="sjø" />
		<tag k="ssr:stedsnr" v="46936" />
		<tag k="ssr:type" v="nesISjø" />
	</node>
	<node lat="70.59812779943682" lon="29.132776782395872" id="-38852">
		<tag k="name" v="Magerdalshøgda" />
		<tag k="natural" v="hill" />
		<tag k="place" v="locality" />
		<tag k="ssr:date" v="2019-12-27" />
		<tag k="ssr:gruppe" v="høyder" />
		<tag k="ssr:hovedgruppe" v="terreng" />
		<tag k="ssr:stedsnr" v="46909" />
		<tag k="ssr:type" v="høyde" />
	</node>
	<node lat="70.65248891915165" lon="29.174337890997474" id="-38853">
		<tag k="name" v="Øvre Svaberget" />
		<tag k="place" v="locality" />
		<tag k="ssr:date" v="2019-12-27" />
		<tag k="ssr:gruppe" v="rennendeVann" />
		<tag k="ssr:hovedgruppe" v="ferskvann" />
		<tag k="ssr:stedsnr" v="46915" />
		<tag k="ssr:type" v="høl" />
	</node>
	<node lat="70.67328613773715" lon="29.230901781250246" id="-38854">
		<tag k="name" v="Myrvold" />
		<tag k="natural" v="wetland" />
		<tag k="ssr:date" v="2019-12-27" />
		<tag k="ssr:gruppe" v="våtmark" />
		<tag k="ssr:hovedgruppe" v="markslag" />
		<tag k="ssr:stedsnr" v="47893" />
		<tag k="ssr:type" v="myr" />
	</node>
	<node lat="70.69714446493903" lon="28.69901030400465" id="-38855">
		<tag k="name" v="Guhkesjávri" />
		<tag k="name:se" v="Guhkesjávri" />
		<tag k="natural" v="water" />
		<tag k="old_name:se" v="Gukkesjavri" />
		<tag k="ssr:date" v="2019-12-27" />
		<tag k="ssr:gruppe" v="stilleståendeVann" />
		<tag k="ssr:hovedgruppe" v="ferskvann" />
		<tag k="ssr:stedsnr" v="59788" />
		<tag k="ssr:type" v="vann" />
		<tag k="water" v="lake" />
	</node>
	<node lat="70.80439724300413" lon="29.26962122271279" id="-38856">
		<tag k="loc_name:se" v="Sáttuvuonklubbu" />
		<tag k="name" v="Sandfjordklubben" />
		<tag k="name:no" v="Sandfjordklubben" />
		<tag k="natural" v="cape" />
		<tag k="ssr:date" v="2021-10-05" />
		<tag k="ssr:gruppe" v="kystkontur" />
		<tag k="ssr:hovedgruppe" v="sjø" />
		<tag k="ssr:stedsnr" v="81988" />
		<tag k="ssr:type" v="nesISjø" />
	</node>
	<node lat="70.72426669005017" lon="29.35282951919999" id="-38857">
		<tag k="name" v="Veidnes" />
		<tag k="old_name" v="Veines" />
		<tag k="place" v="hamlet" />
		<tag k="ssr:date" v="2021-06-08" />
		<tag k="ssr:gruppe" v="bebyggelsesområder" />
		<tag k="ssr:hovedgruppe" v="bebyggelse" />
		<tag k="ssr:stedsnr" v="80415" />
		<tag k="ssr:type" v="grend" />
	</node>
	<node lat="70.72053335958523" lon="29.319085071865285" id="-38858">
		<tag k="name" v="Kongsfjord" />
		<tag k="place" v="village" />
		<tag k="ssr:date" v="2019-12-27" />
		<tag k="ssr:gruppe" v="bebyggelsesområder" />
		<tag k="ssr:hovedgruppe" v="bebyggelse" />
		<tag k="ssr:stedsnr" v="80420" />
		<tag k="ssr:type" v="tettsted" />
	</node>
	<node lat="70.70745558506466" lon="29.269196200005517" id="-38859">
		<tag k="fixme" v="multiple name tags, choose one and add the other to alt_name" />
		<tag k="name" v="Kongsfjordfjell;Kobbkrokhøgda - Goađáščohkka" />
		<tag k="name:no" v="Kongsfjordfjell;Kobbkrokhøgda" />
		<tag k="name:se" v="Goađáščohkka" />
		<tag k="natural" v="hill" />
		<tag k="old_name:se" v="Goađaščåkka" />
		<tag k="place" v="locality" />
		<tag k="ssr:date" v="2019-12-27" />
		<tag k="ssr:gruppe" v="høyder" />
		<tag k="ssr:hovedgruppe" v="terreng" />
		<tag k="ssr:stedsnr" v="80422" />
		<tag k="ssr:type" v="haug" />
	</node>
	<node lat="70.74051668789272" lon="29.089824048900674" id="-38860">
		<tag k="fixme" v="consider natural=peak for the most distinct mountains in the district" />
		<tag k="name" v="Meresvárri" />
		<tag k="name:se" v="Meresvárri" />
		<tag k="natural" v="hill" />
		<tag k="old_name:se" v="Meresvarri" />
		<tag k="place" v="locality" />
		<tag k="ssr:date" v="2019-12-27" />
		<tag k="ssr:gruppe" v="høyder" />
		<tag k="ssr:hovedgruppe" v="terreng" />
		<tag k="ssr:stedsnr" v="80430" />
		<tag k="ssr:type" v="fjell" />
	</node>
	<node lat="70.69712502656884" lon="29.386926714265535" id="-38861">
		<tag k="name" v="Straumsnesa" />
		<tag k="natural" v="cape" />
		<tag k="ssr:date" v="2019-12-27" />
		<tag k="ssr:gruppe" v="kystkontur" />
		<tag k="ssr:hovedgruppe" v="sjø" />
		<tag k="ssr:stedsnr" v="81415" />
		<tag k="ssr:type" v="nesISjø" />
	</node>
	<node lat="70.68571391180137" lon="29.059774055959476" id="-38862">
		<tag k="name" v="Vidjebekken - Sieđgajohka" />
		<tag k="name:no" v="Vidjebekken" />
		<tag k="name:se" v="Sieđgajohka" />
		<tag k="old_name:se" v="Sieđgajåkka" />
		<tag k="ssr:date" v="2019-12-27" />
		<tag k="ssr:gruppe" v="rennendeVann" />
		<tag k="ssr:hovedgruppe" v="ferskvann" />
		<tag k="ssr:stedsnr" v="81416" />
		<tag k="ssr:type" v="bekk" />
		<tag k="waterway" v="stream" />
	</node>
	<node lat="70.68197502824879" lon="29.39672947661493" id="-38863">
		<tag k="name" v="Sandbuktdalen" />
		<tag k="natural" v="valley" />
		<tag k="place" v="locality" />
		<tag k="ssr:date" v="2019-12-27" />
		<tag k="ssr:gruppe" v="senkninger" />
		<tag k="ssr:hovedgruppe" v="terreng" />
		<tag k="ssr:stedsnr" v="81423" />
		<tag k="ssr:type" v="dal" />
	</node>
	<node lat="70.66815279839082" lon="28.930771313088677" id="-38864">
		<tag k="name" v="Langdalen" />
		<tag k="natural" v="valley" />
		<tag k="place" v="locality" />
		<tag k="ssr:date" v="2019-12-27" />
		<tag k="ssr:gruppe" v="senkninger" />
		<tag k="ssr:hovedgruppe" v="terreng" />
		<tag k="ssr:stedsnr" v="81429" />
		<tag k="ssr:type" v="dal" />
	</node>
	<node lat="70.78733057431555" lon="28.670699218989345" id="-38865">
		<tag k="fixme" v="consider place=hamlet" />
		<tag k="name" v="Store Molvik" />
		<tag k="old_name" v="Molvik, store" />
		<tag k="place" v="village" />
		<tag k="ssr:date" v="2019-12-27" />
		<tag k="ssr:gruppe" v="bebyggelsesområder" />
		<tag k="ssr:hovedgruppe" v="bebyggelse" />
		<tag k="ssr:stedsnr" v="81946" />
		<tag k="ssr:type" v="bygdelagBygd" />
	</node>
	<node lat="70.79581668212474" lon="28.754790862044317" id="-38866">
		<tag k="fixme" v="consider natural=peak for the most distinct mountains in the district" />
		<tag k="name" v="Vihttalohvárri" />
		<tag k="name:se" v="Vihttalohvárri" />
		<tag k="natural" v="hill" />
		<tag k="old_name:se" v="Vittalåkvarri" />
		<tag k="place" v="locality" />
		<tag k="ssr:date" v="2019-12-27" />
		<tag k="ssr:gruppe" v="høyder" />
		<tag k="ssr:hovedgruppe" v="terreng" />
		<tag k="ssr:stedsnr" v="81947" />
		<tag k="ssr:type" v="ås" />
	</node>
	<node lat="70.68261669689188" lon="29.56465719924802" id="-38867">
		<tag k="name" v="Rubbedalsvatna" />
		<tag k="natural" v="water" />
		<tag k="ssr:date" v="2019-12-27" />
		<tag k="ssr:gruppe" v="stilleståendeVann" />
		<tag k="ssr:hovedgruppe" v="ferskvann" />
		<tag k="ssr:stedsnr" v="81506" />
		<tag k="ssr:type" v="vann" />
		<tag k="water" v="lake" />
	</node>
	<node lat="70.545397247749" lon="29.022871256782114" id="-38868">
		<tag k="name" v="Lille Buevannet - Uhca Dávgejávri" />
		<tag k="name:no" v="Lille Buevannet" />
		<tag k="name:se" v="Uhca Dávgejávri" />
		<tag k="natural" v="water" />
		<tag k="old_name:se" v="Davgejavri ucca" />
		<tag k="ssr:date" v="2019-12-27" />
		<tag k="ssr:gruppe" v="stilleståendeVann" />
		<tag k="ssr:hovedgruppe" v="ferskvann" />
		<tag k="ssr:stedsnr" v="81508" />
		<tag k="ssr:type" v="vann" />
		<tag k="water" v="lake" />
	</node>
	<node lat="70.53370835679085" lon="29.154996204814378" id="-38870">
		<tag k="fixme" v="consider natural=peak for the most distinct mountains in the district" />
		<tag k="name" v="Magistertoppen - Mágisttarčohkka" />
		<tag k="name:no" v="Magistertoppen" />
		<tag k="name:se" v="Mágisttarčohkka" />
		<tag k="natural" v="hill" />
		<tag k="old_name:se" v="Magistarčåkka" />
		<tag k="place" v="locality" />
		<tag k="ssr:date" v="2019-12-27" />
		<tag k="ssr:gruppe" v="høyder" />
		<tag k="ssr:hovedgruppe" v="terreng" />
		<tag k="ssr:stedsnr" v="81522" />
		<tag k="ssr:type" v="ås" />
	</node>
	<node lat="70.79885279485708" lon="28.68757420172772" id="-38871">
		<tag k="name" v="Oamegurra" />
		<tag k="name:se" v="Oamegurra" />
		<tag k="natural" v="valley" />
		<tag k="place" v="locality" />
		<tag k="ssr:date" v="2019-12-27" />
		<tag k="ssr:gruppe" v="senkninger" />
		<tag k="ssr:hovedgruppe" v="terreng" />
		<tag k="ssr:stedsnr" v="81949" />
		<tag k="ssr:type" v="skar" />
	</node>
	<node lat="70.76892501492452" lon="28.60700756978694" id="-38872">
		<tag k="name" v="Gaksevikneset - Gákšonjárga" />
		<tag k="name:no" v="Gaksevikneset" />
		<tag k="name:se" v="Gákšonjárga" />
		<tag k="natural" v="cape" />
		<tag k="old_name:se" v="Gakšunjarga" />
		<tag k="ssr:date" v="2019-12-27" />
		<tag k="ssr:gruppe" v="kystkontur" />
		<tag k="ssr:hovedgruppe" v="sjø" />
		<tag k="ssr:stedsnr" v="81950" />
		<tag k="ssr:type" v="nesISjø" />
	</node>
	<node lat="70.86283335683463" lon="28.98554079814045" id="-38873">
		<tag k="name" v="Kuelva" />
		<tag k="ssr:date" v="2019-12-27" />
		<tag k="ssr:gruppe" v="rennendeVann" />
		<tag k="ssr:hovedgruppe" v="ferskvann" />
		<tag k="ssr:stedsnr" v="81968" />
		<tag k="ssr:type" v="bekk" />
		<tag k="waterway" v="stream" />
	</node>
	<node lat="70.8554389088534" lon="29.10752963388401" id="-38874">
		<tag k="name" v="Revnesbukta" />
		<tag k="natural" v="bay" />
		<tag k="ssr:date" v="2021-06-08" />
		<tag k="ssr:gruppe" v="kystkontur" />
		<tag k="ssr:hovedgruppe" v="sjø" />
		<tag k="ssr:stedsnr" v="81972" />
		<tag k="ssr:type" v="vikISjø" />
	</node>
	<node lat="70.8245555762244" lon="28.924757484395666" id="-38875">
		<tag k="fixme" v="consider natural=peak for the most distinct mountains in the district" />
		<tag k="name" v="Midtfjellet - Ilis" />
		<tag k="name:no" v="Midtfjellet" />
		<tag k="name:se" v="Ilis" />
		<tag k="natural" v="hill" />
		<tag k="place" v="locality" />
		<tag k="ssr:date" v="2021-06-08" />
		<tag k="ssr:gruppe" v="høyder" />
		<tag k="ssr:hovedgruppe" v="terreng" />
		<tag k="ssr:stedsnr" v="81981" />
		<tag k="ssr:type" v="fjell" />
	</node>
	<node lat="70.71727502509042" lon="29.322779531129164" id="-38876">
		<tag k="name" v="Framnes" />
		<tag k="natural" v="cape" />
		<tag k="ssr:date" v="2019-12-27" />
		<tag k="ssr:gruppe" v="kystkontur" />
		<tag k="ssr:hovedgruppe" v="sjø" />
		<tag k="ssr:stedsnr" v="86547" />
		<tag k="ssr:type" v="nesISjø" />
	</node>
	<node lat="70.7599861315375" lon="28.880468590816267" id="-38877">
		<tag k="name" v="Midt-Raggobekken" />
		<tag k="ssr:date" v="2021-06-08" />
		<tag k="ssr:gruppe" v="rennendeVann" />
		<tag k="ssr:hovedgruppe" v="ferskvann" />
		<tag k="ssr:stedsnr" v="87183" />
		<tag k="ssr:type" v="bekk" />
		<tag k="waterway" v="stream" />
	</node>
	<node lat="70.83580002038991" lon="28.723715865632613" id="-38879">
		<tag k="name" v="Storvika" />
		<tag k="natural" v="bay" />
		<tag k="ssr:date" v="2019-12-27" />
		<tag k="ssr:gruppe" v="kystkontur" />
		<tag k="ssr:hovedgruppe" v="sjø" />
		<tag k="ssr:stedsnr" v="87238" />
		<tag k="ssr:type" v="vikISjø" />
	</node>
	<node lat="70.68931112870638" lon="28.51068534425239" id="-38880">
		<tag k="fixme" v="consider seamark:type=rock or natural=shoal" />
		<tag k="name" v="Trollfjordskjeret" />
		<tag k="place" v="islet" />
		<tag k="ssr:date" v="2019-12-27" />
		<tag k="ssr:gruppe" v="grunnerISjø" />
		<tag k="ssr:hovedgruppe" v="sjø" />
		<tag k="ssr:stedsnr" v="87352" />
		<tag k="ssr:type" v="skjærISjø" />
	</node>
	<node lat="70.86019168837548" lon="29.068632433825073" id="-38881">
		<tag k="name" v="Karivatna" />
		<tag k="natural" v="water" />
		<tag k="ssr:date" v="2019-12-27" />
		<tag k="ssr:gruppe" v="stilleståendeVann" />
		<tag k="ssr:hovedgruppe" v="ferskvann" />
		<tag k="ssr:stedsnr" v="92291" />
		<tag k="ssr:type" v="tjern" />
	</node>
	<node lat="70.853888912732" lon="29.06272966283994" id="-38882">
		<tag k="name" v="Ryplia" />
		<tag k="natural" v="slope" />
		<tag k="place" v="locality" />
		<tag k="ssr:date" v="2019-12-27" />
		<tag k="ssr:gruppe" v="skråninger" />
		<tag k="ssr:hovedgruppe" v="terreng" />
		<tag k="ssr:stedsnr" v="93238" />
		<tag k="ssr:type" v="li" />
	</node>
	<node lat="70.67575002912113" lon="29.29243229928319" id="-38883">
		<tag k="name" v="Humpen" />
		<tag k="place" v="islet" />
		<tag k="ssr:date" v="2019-12-27" />
		<tag k="ssr:gruppe" v="kystkontur" />
		<tag k="ssr:hovedgruppe" v="sjø" />
		<tag k="ssr:stedsnr" v="108898" />
		<tag k="ssr:type" v="holmeISjø" />
	</node>
	<node lat="70.72178891653415" lon="29.336337858270454" id="-38884">
		<tag k="name" v="Veinesvannet" />
		<tag k="natural" v="water" />
		<tag k="ssr:date" v="2019-12-27" />
		<tag k="ssr:gruppe" v="stilleståendeVann" />
		<tag k="ssr:hovedgruppe" v="ferskvann" />
		<tag k="ssr:stedsnr" v="108923" />
		<tag k="ssr:type" v="tjern" />
	</node>
	<node lat="70.85497779234849" lon="28.757221422211817" id="-38885">
		<tag k="name" v="Njuorenjárga" />
		<tag k="name:se" v="Njuorenjárga" />
		<tag k="natural" v="cape" />
		<tag k="old_name:se" v="Njuorenjarga" />
		<tag k="ssr:date" v="2019-12-27" />
		<tag k="ssr:gruppe" v="kystkontur" />
		<tag k="ssr:hovedgruppe" v="sjø" />
		<tag k="ssr:stedsnr" v="141917" />
		<tag k="ssr:type" v="nesISjø" />
	</node>
	<node lat="70.83036946228212" lon="28.715065863000206" id="-38886">
		<tag k="name" v="Ruohtasnjárga" />
		<tag k="name:se" v="Ruohtasnjárga" />
		<tag k="natural" v="cape" />
		<tag k="old_name:se" v="Ruottasnjarga" />
		<tag k="ssr:date" v="2019-12-27" />
		<tag k="ssr:gruppe" v="kystkontur" />
		<tag k="ssr:hovedgruppe" v="sjø" />
		<tag k="ssr:stedsnr" v="141927" />
		<tag k="ssr:type" v="nesISjø" />
	</node>
	<node lat="70.69994168984925" lon="29.152651808533733" id="-38887">
		<tag k="name" v="Øster-Risfjorddalen" />
		<tag k="natural" v="valley" />
		<tag k="place" v="locality" />
		<tag k="ssr:date" v="2021-06-08" />
		<tag k="ssr:gruppe" v="senkninger" />
		<tag k="ssr:hovedgruppe" v="terreng" />
		<tag k="ssr:stedsnr" v="141437" />
		<tag k="ssr:type" v="dal" />
	</node>
	<node lat="70.67492502274794" lon="29.239946195426157" id="-38888">
		<tag k="name" v="Myrvoll" />
		<tag k="place" v="isolated_dwelling" />
		<tag k="ssr:date" v="2019-12-27" />
		<tag k="ssr:gruppe" v="bolighus" />
		<tag k="ssr:hovedgruppe" v="bebyggelse" />
		<tag k="ssr:stedsnr" v="141424" />
		<tag k="ssr:type" v="fritidsbolig" />
	</node>
	<node lat="70.73040002126974" lon="29.27827398369836" id="-38889">
		<tag k="bay" v="fjord" />
		<tag k="name" v="Øster-Risfjorden" />
		<tag k="natural" v="bay" />
		<tag k="ssr:date" v="2021-06-08" />
		<tag k="ssr:gruppe" v="farvann" />
		<tag k="ssr:hovedgruppe" v="sjø" />
		<tag k="ssr:stedsnr" v="141426" />
		<tag k="ssr:type" v="fjord" />
	</node>
	<node lat="70.49180558668438" lon="29.16912395938762" id="-38890">
		<tag k="fixme" v="consider natural=peak for the most distinct mountains in the district" />
		<tag k="name" v="Davit Njoaskoaivi" />
		<tag k="name:se" v="Davit Njoaskoaivi" />
		<tag k="natural" v="hill" />
		<tag k="old_name:se" v="Njoaskoaivi, davit" />
		<tag k="place" v="locality" />
		<tag k="ssr:date" v="2019-12-27" />
		<tag k="ssr:gruppe" v="høyder" />
		<tag k="ssr:hovedgruppe" v="terreng" />
		<tag k="ssr:stedsnr" v="141945" />
		<tag k="ssr:type" v="fjell" />
	</node>
	<node lat="70.77487502276081" lon="28.80134638197989" id="-38891">
		<tag k="name" v="Moalkejávri" />
		<tag k="name:se" v="Moalkejávri" />
		<tag k="natural" v="water" />
		<tag k="old_name:se" v="Moalkejavri" />
		<tag k="ssr:date" v="2019-12-27" />
		<tag k="ssr:gruppe" v="stilleståendeVann" />
		<tag k="ssr:hovedgruppe" v="ferskvann" />
		<tag k="ssr:stedsnr" v="141946" />
		<tag k="ssr:type" v="tjern" />
	</node>
	<node lat="70.75230835215265" lon="28.649090865264952" id="-38892">
		<tag k="name" v="Sletta" />
		<tag k="natural" v="plateau" />
		<tag k="ssr:date" v="2019-12-27" />
		<tag k="ssr:gruppe" v="terrengområder" />
		<tag k="ssr:hovedgruppe" v="terreng" />
		<tag k="ssr:stedsnr" v="141948" />
		<tag k="ssr:type" v="vidde" />
	</node>
	<node lat="70.87714724003862" lon="28.849826963787173" id="-38893">
		<tag k="name" v="Hornvika - Hoartnasieiddeluokta" />
		<tag k="name:no" v="Hornvika" />
		<tag k="name:se" v="Hoartnasieiddeluokta" />
		<tag k="natural" v="bay" />
		<tag k="old_name:se" v="Hoardnasieideluokta" />
		<tag k="ssr:date" v="2019-12-27" />
		<tag k="ssr:gruppe" v="kystkontur" />
		<tag k="ssr:hovedgruppe" v="sjø" />
		<tag k="ssr:stedsnr" v="141953" />
		<tag k="ssr:type" v="vikISjø" />
	</node>
	<node lat="70.8752389105848" lon="28.840263064143873" id="-38894">
		<tag k="fixme" v="consider natural=peak for the most distinct mountains in the district" />
		<tag k="name" v="Tanahorn - Hoartnavárri" />
		<tag k="name:no" v="Tanahorn" />
		<tag k="name:se" v="Hoartnavárri" />
		<tag k="natural" v="hill" />
		<tag k="old_name:se" v="Hoardnavarri" />
		<tag k="place" v="locality" />
		<tag k="ssr:date" v="2019-12-27" />
		<tag k="ssr:gruppe" v="høyder" />
		<tag k="ssr:hovedgruppe" v="terreng" />
		<tag k="ssr:stedsnr" v="141956" />
		<tag k="ssr:type" v="ås" />
	</node>
	<node lat="70.8760000186607" lon="28.830454746931274" id="-38895">
		<tag k="name" v="Bergvika - Stábbeluokta" />
		<tag k="name:no" v="Bergvika" />
		<tag k="name:se" v="Stábbeluokta" />
		<tag k="natural" v="bay" />
		<tag k="old_name:se" v="Stabbeluokta" />
		<tag k="ssr:date" v="2019-12-27" />
		<tag k="ssr:gruppe" v="kystkontur" />
		<tag k="ssr:hovedgruppe" v="sjø" />
		<tag k="ssr:stedsnr" v="141959" />
		<tag k="ssr:type" v="vikISjø" />
	</node>
	<node lat="70.87573890437105" lon="28.899426939535633" id="-38896">
		<tag k="alt_name" v="Dikkevikfjellet" />
		<tag k="fixme" v="consider natural=peak for the most distinct mountains in the district" />
		<tag k="name" v="Dikkavikfjellet" />
		<tag k="natural" v="hill" />
		<tag k="place" v="locality" />
		<tag k="ssr:date" v="2019-12-27" />
		<tag k="ssr:gruppe" v="høyder" />
		<tag k="ssr:hovedgruppe" v="terreng" />
		<tag k="ssr:stedsnr" v="141960" />
		<tag k="ssr:type" v="fjell" />
	</node>
	<node lat="70.76064446565785" lon="28.903651894877786" id="-38897">
		<tag k="name" v="Ner-Raggobekken" />
		<tag k="ssr:date" v="2021-06-08" />
		<tag k="ssr:gruppe" v="rennendeVann" />
		<tag k="ssr:hovedgruppe" v="ferskvann" />
		<tag k="ssr:stedsnr" v="147190" />
		<tag k="ssr:type" v="bekk" />
		<tag k="waterway" v="stream" />
	</node>
	<node lat="70.87253057454603" lon="28.81722419701528" id="-38898">
		<tag k="name" v="Kråkeneset" />
		<tag k="natural" v="cape" />
		<tag k="ssr:date" v="2019-12-27" />
		<tag k="ssr:gruppe" v="kystkontur" />
		<tag k="ssr:hovedgruppe" v="sjø" />
		<tag k="ssr:stedsnr" v="147467" />
		<tag k="ssr:type" v="nesISjø" />
	</node>
	<node lat="70.82897224107673" lon="29.027082430872316" id="-38899">
		<tag k="fixme" v="consider natural=peak for the most distinct mountains in the district" />
		<tag k="name" v="Stortuva" />
		<tag k="natural" v="hill" />
		<tag k="place" v="locality" />
		<tag k="ssr:date" v="2019-12-27" />
		<tag k="ssr:gruppe" v="høyder" />
		<tag k="ssr:hovedgruppe" v="terreng" />
		<tag k="ssr:stedsnr" v="148980" />
		<tag k="ssr:type" v="ås" />
	</node>
	<node lat="70.74150002073762" lon="29.27269344335098" id="-38900">
		<tag k="fixme" v="consider seamark:type=rock or natural=shoal" />
		<tag k="name" v="Vestre Risfjordskjeret" />
		<tag k="place" v="islet" />
		<tag k="ssr:date" v="2019-12-27" />
		<tag k="ssr:gruppe" v="grunnerISjø" />
		<tag k="ssr:hovedgruppe" v="sjø" />
		<tag k="ssr:stedsnr" v="149224" />
		<tag k="ssr:type" v="skjærISjø" />
	</node>
	<node lat="70.7278611335083" lon="29.334954514376875" id="-38901">
		<tag k="name" v="Østre Plogvikneset" />
		<tag k="natural" v="cape" />
		<tag k="ssr:date" v="2019-12-27" />
		<tag k="ssr:gruppe" v="kystkontur" />
		<tag k="ssr:hovedgruppe" v="sjø" />
		<tag k="ssr:stedsnr" v="167949" />
		<tag k="ssr:type" v="nesISjø" />
	</node>
	<node lat="70.87058335575531" lon="28.968171352403562" id="-38902">
		<tag k="name" v="Skonsvikvatnan" />
		<tag k="natural" v="water" />
		<tag k="ssr:date" v="2019-12-27" />
		<tag k="ssr:gruppe" v="stilleståendeVann" />
		<tag k="ssr:hovedgruppe" v="ferskvann" />
		<tag k="ssr:stedsnr" v="198697" />
		<tag k="ssr:type" v="gruppeAvTjern" />
		<tag k="water" v="lake" />
	</node>
	<node lat="70.72002503014419" lon="29.701412705058658" id="-38903">
		<tag k="name" v="Vesterelva" />
		<tag k="ssr:date" v="2019-12-27" />
		<tag k="ssr:gruppe" v="rennendeVann" />
		<tag k="ssr:hovedgruppe" v="ferskvann" />
		<tag k="ssr:stedsnr" v="202103" />
		<tag k="ssr:type" v="elv" />
		<tag k="waterway" v="river" />
	</node>
	<node lat="70.70833891058574" lon="28.547868679874465" id="-38904">
		<tag k="name" v="Lássávággi" />
		<tag k="name:se" v="Lássávággi" />
		<tag k="natural" v="valley" />
		<tag k="old_name:se" v="Lassavaggi" />
		<tag k="place" v="locality" />
		<tag k="ssr:date" v="2019-12-27" />
		<tag k="ssr:gruppe" v="senkninger" />
		<tag k="ssr:hovedgruppe" v="terreng" />
		<tag k="ssr:stedsnr" v="202357" />
		<tag k="ssr:type" v="dal" />
	</node>
	<node lat="70.62580002633345" lon="29.149226778109814" id="-38905">
		<tag k="alt_name:se" v="Getnjejohka" />
		<tag k="name" v="Kongsfjordelva - Geatnja" />
		<tag k="name:no" v="Kongsfjordelva" />
		<tag k="name:se" v="Geatnja" />
		<tag k="old_name:se" v="Gædnja;Gednjejåkka" />
		<tag k="ssr:date" v="2019-12-27" />
		<tag k="ssr:gruppe" v="rennendeVann" />
		<tag k="ssr:hovedgruppe" v="ferskvann" />
		<tag k="ssr:stedsnr" v="202389" />
		<tag k="ssr:type" v="elv" />
		<tag k="waterway" v="river" />
	</node>
	<node lat="70.7020250270167" lon="29.453176679695826" id="-38906">
		<tag k="fixme" v="multiple name tags, choose one and add the other to alt_name" />
		<tag k="name" v="Bjørnvikklubben;Klubbeneset" />
		<tag k="natural" v="cape" />
		<tag k="ssr:date" v="2019-12-27" />
		<tag k="ssr:gruppe" v="kystkontur" />
		<tag k="ssr:hovedgruppe" v="sjø" />
		<tag k="ssr:stedsnr" v="202474" />
		<tag k="ssr:type" v="nesISjø" />
	</node>
	<node lat="70.72548613170511" lon="29.13851292474953" id="-38907">
		<tag k="name" v="Vester-Risfjorddalen" />
		<tag k="natural" v="valley" />
		<tag k="place" v="locality" />
		<tag k="ssr:date" v="2021-06-08" />
		<tag k="ssr:gruppe" v="senkninger" />
		<tag k="ssr:hovedgruppe" v="terreng" />
		<tag k="ssr:stedsnr" v="202417" />
		<tag k="ssr:type" v="dal" />
	</node>
	<node lat="70.5406583640392" lon="29.21299895596419" id="-38908">
		<tag k="name" v="O-vannet" />
		<tag k="natural" v="water" />
		<tag k="ssr:date" v="2019-12-27" />
		<tag k="ssr:gruppe" v="stilleståendeVann" />
		<tag k="ssr:hovedgruppe" v="ferskvann" />
		<tag k="ssr:stedsnr" v="202507" />
		<tag k="ssr:type" v="vann" />
		<tag k="water" v="lake" />
	</node>
	<node lat="70.80431946681018" lon="28.79684917481535" id="-38909">
		<tag k="name" v="Sullojohka" />
		<tag k="name:se" v="Sullojohka" />
		<tag k="old_name:se" v="Sullujåkka" />
		<tag k="ssr:date" v="2019-12-27" />
		<tag k="ssr:gruppe" v="rennendeVann" />
		<tag k="ssr:hovedgruppe" v="ferskvann" />
		<tag k="ssr:stedsnr" v="202952" />
		<tag k="ssr:type" v="bekk" />
		<tag k="waterway" v="stream" />
	</node>
	<node lat="70.777627796515" lon="28.697099186496036" id="-38910">
		<tag k="name" v="Jeretjohka" />
		<tag k="name:se" v="Jeretjohka" />
		<tag k="old_name:se" v="Jeretjåkka" />
		<tag k="ssr:date" v="2019-12-27" />
		<tag k="ssr:gruppe" v="rennendeVann" />
		<tag k="ssr:hovedgruppe" v="ferskvann" />
		<tag k="ssr:stedsnr" v="202963" />
		<tag k="ssr:type" v="bekk" />
		<tag k="waterway" v="stream" />
	</node>
	<node lat="70.73338613518598" lon="29.333071199870645" id="-38911">
		<tag k="name" v="Hergevikgrunnen" />
		<tag k="natural" v="shoal" />
		<tag k="place" v="locality" />
		<tag k="ssr:date" v="2019-12-27" />
		<tag k="ssr:gruppe" v="grunnerISjø" />
		<tag k="ssr:hovedgruppe" v="sjø" />
		<tag k="ssr:stedsnr" v="207499" />
		<tag k="ssr:type" v="grunneISjø" />
	</node>
	<node lat="70.71028336054951" lon="29.315973970808212" id="-38912">
		<tag k="name" v="Haraldbåen" />
		<tag k="natural" v="shoal" />
		<tag k="place" v="locality" />
		<tag k="ssr:date" v="2019-12-27" />
		<tag k="ssr:gruppe" v="grunnerISjø" />
		<tag k="ssr:hovedgruppe" v="sjø" />
		<tag k="ssr:stedsnr" v="207501" />
		<tag k="ssr:type" v="grunneISjø" />
	</node>
	<node lat="70.884605575297" lon="28.966749149906704" id="-38913">
		<tag k="name" v="Skarveneset" />
		<tag k="natural" v="cape" />
		<tag k="ssr:date" v="2021-06-08" />
		<tag k="ssr:gruppe" v="kystkontur" />
		<tag k="ssr:hovedgruppe" v="sjø" />
		<tag k="ssr:stedsnr" v="208158" />
		<tag k="ssr:type" v="nesISjø" />
	</node>
	<node lat="70.67690558007847" lon="29.210657328375063" id="-38914">
		<tag k="name" v="Nikko-Per-elva" />
		<tag k="ssr:date" v="2021-06-08" />
		<tag k="ssr:gruppe" v="rennendeVann" />
		<tag k="ssr:hovedgruppe" v="ferskvann" />
		<tag k="ssr:stedsnr" v="208179" />
		<tag k="ssr:type" v="elv" />
		<tag k="waterway" v="river" />
	</node>
	<node lat="70.73585557870787" lon="29.300232299966552" id="-38915">
		<tag k="alt_name" v="Østre Risfjordholmen" />
		<tag k="fixme" v="consider seamark:type=rock or natural=shoal" />
		<tag k="name" v="Østre Risfjordskjeret" />
		<tag k="place" v="islet" />
		<tag k="ssr:date" v="2019-12-27" />
		<tag k="ssr:gruppe" v="grunnerISjø" />
		<tag k="ssr:hovedgruppe" v="sjø" />
		<tag k="ssr:stedsnr" v="211257" />
		<tag k="ssr:type" v="skjærISjø" />
	</node>
	<node lat="70.84088057592912" lon="29.1476685202414" id="-38917">
		<tag k="fixme" v="consider natural=peak for the most distinct mountains in the district" />
		<tag k="name" v="Vargvikfjellet" />
		<tag k="natural" v="hill" />
		<tag k="place" v="locality" />
		<tag k="ssr:date" v="2019-12-27" />
		<tag k="ssr:gruppe" v="høyder" />
		<tag k="ssr:hovedgruppe" v="terreng" />
		<tag k="ssr:stedsnr" v="274237" />
		<tag k="ssr:type" v="fjell" />
	</node>
	<node lat="70.73052502988723" lon="29.377673940923277" id="-38918">
		<tag k="name" v="Kvalvika" />
		<tag k="natural" v="bay" />
		<tag k="ssr:date" v="2019-12-27" />
		<tag k="ssr:gruppe" v="kystkontur" />
		<tag k="ssr:hovedgruppe" v="sjø" />
		<tag k="ssr:stedsnr" v="289958" />
		<tag k="ssr:type" v="vikISjø" />
	</node>
	<node lat="70.72620558085995" lon="29.38006838507934" id="-38919">
		<tag k="name" v="Kuvika" />
		<tag k="natural" v="bay" />
		<tag k="ssr:date" v="2019-12-27" />
		<tag k="ssr:gruppe" v="kystkontur" />
		<tag k="ssr:hovedgruppe" v="sjø" />
		<tag k="ssr:stedsnr" v="289966" />
		<tag k="ssr:type" v="vikISjø" />
	</node>
	<node lat="70.72430280170491" lon="29.349423958335827" id="-38920">
		<tag k="name" v="Veineshalsen" />
		<tag k="place" v="locality" />
		<tag k="ssr:date" v="2019-12-27" />
		<tag k="ssr:gruppe" v="kystkontur" />
		<tag k="ssr:hovedgruppe" v="sjø" />
		<tag k="ssr:stedsnr" v="290908" />
		<tag k="ssr:type" v="eidISjø" />
	</node>
	<node lat="70.73159526222427" lon="29.418970312423788" id="-38921">
		<tag k="name" v="Veineshestan" />
		<tag k="natural" v="cape" />
		<tag k="ssr:date" v="2020-11-10" />
		<tag k="ssr:gruppe" v="kystkontur" />
		<tag k="ssr:hovedgruppe" v="sjø" />
		<tag k="ssr:stedsnr" v="290911" />
		<tag k="ssr:type" v="nesISjø" />
	</node>
	<node lat="70.76570280062903" lon="29.340362853024256" id="-38922">
		<tag k="name" v="Konjakkbakken" />
		<tag k="place" v="locality" />
		<tag k="ssr:date" v="2019-12-27" />
		<tag k="ssr:gruppe" v="veg" />
		<tag k="ssr:hovedgruppe" v="infrastruktur" />
		<tag k="ssr:stedsnr" v="299446" />
		<tag k="ssr:type" v="bakkeVeg" />
	</node>
	<node lat="70.85583613204739" lon="28.904882503288924" id="-38923">
		<tag k="name" v="Marenmyra" />
		<tag k="natural" v="wetland" />
		<tag k="ssr:date" v="2019-12-27" />
		<tag k="ssr:gruppe" v="våtmark" />
		<tag k="ssr:hovedgruppe" v="markslag" />
		<tag k="ssr:stedsnr" v="319703" />
		<tag k="ssr:type" v="myr" />
	</node>
	<node lat="70.86363613364374" lon="29.024826909732745" id="-38924">
		<tag k="name" v="Breidalen" />
		<tag k="natural" v="valley" />
		<tag k="place" v="locality" />
		<tag k="ssr:date" v="2019-12-27" />
		<tag k="ssr:gruppe" v="senkninger" />
		<tag k="ssr:hovedgruppe" v="terreng" />
		<tag k="ssr:stedsnr" v="319708" />
		<tag k="ssr:type" v="dal" />
	</node>
	<node lat="70.65641114088416" lon="29.149971232546807" id="-38925">
		<tag k="name" v="Botnelva" />
		<tag k="ssr:date" v="2019-12-27" />
		<tag k="ssr:gruppe" v="rennendeVann" />
		<tag k="ssr:hovedgruppe" v="ferskvann" />
		<tag k="ssr:stedsnr" v="323379" />
		<tag k="ssr:type" v="bekk" />
		<tag k="waterway" v="stream" />
	</node>
	<node lat="70.61965280052003" lon="29.09148513808675" id="-38926">
		<tag k="name" v="Vidartjernet" />
		<tag k="natural" v="water" />
		<tag k="ssr:date" v="2019-12-27" />
		<tag k="ssr:gruppe" v="stilleståendeVann" />
		<tag k="ssr:hovedgruppe" v="ferskvann" />
		<tag k="ssr:stedsnr" v="323388" />
		<tag k="ssr:type" v="tjern" />
	</node>
	<node lat="70.67101668747632" lon="28.62702420721906" id="-38927">
		<tag k="name" v="Gállojávri" />
		<tag k="name:se" v="Gállojávri" />
		<tag k="natural" v="water" />
		<tag k="old_name:se" v="Gallujavri" />
		<tag k="ssr:date" v="2019-12-27" />
		<tag k="ssr:gruppe" v="stilleståendeVann" />
		<tag k="ssr:hovedgruppe" v="ferskvann" />
		<tag k="ssr:stedsnr" v="323332" />
		<tag k="ssr:type" v="tjern" />
	</node>
	<node lat="70.72590557515376" lon="28.567738106883237" id="-38928">
		<tag k="fixme" v="consider natural=peak for the most distinct mountains in the district" />
		<tag k="name" v="Guođggotvárri" />
		<tag k="name:se" v="Guođggotvárri" />
		<tag k="natural" v="hill" />
		<tag k="old_name:se" v="Guođgutvarri;Gouđggotvárri" />
		<tag k="place" v="locality" />
		<tag k="ssr:date" v="2019-12-27" />
		<tag k="ssr:gruppe" v="høyder" />
		<tag k="ssr:hovedgruppe" v="terreng" />
		<tag k="ssr:stedsnr" v="323353" />
		<tag k="ssr:type" v="fjell" />
	</node>
	<node lat="70.78001668027397" lon="28.45049094779977" id="-38929">
		<tag k="bay" v="fjord" />
		<tag k="name" v="Tanafjorden - Deanuvuotna" />
		<tag k="name:no" v="Tanafjorden" />
		<tag k="name:se" v="Deanuvuotna" />
		<tag k="natural" v="bay" />
		<tag k="ssr:date" v="2021-06-08" />
		<tag k="ssr:gruppe" v="farvann" />
		<tag k="ssr:hovedgruppe" v="sjø" />
		<tag k="ssr:stedsnr" v="323368" />
		<tag k="ssr:type" v="fjord" />
	</node>
	<node lat="70.74342502488273" lon="29.226185122962736" id="-38930">
		<tag k="fixme" v="consider natural=peak for the most distinct mountains in the district" />
		<tag k="name" v="Risfjordfjellet" />
		<tag k="natural" v="hill" />
		<tag k="place" v="locality" />
		<tag k="ssr:date" v="2019-12-27" />
		<tag k="ssr:gruppe" v="høyder" />
		<tag k="ssr:hovedgruppe" v="terreng" />
		<tag k="ssr:stedsnr" v="323440" />
		<tag k="ssr:type" v="fjell" />
	</node>
	<node lat="70.56960280414899" lon="29.190079529365438" id="-38931">
		<tag k="name" v="Magerdalsvatna - Silesjávrrit" />
		<tag k="name:no" v="Magerdalsvatna" />
		<tag k="name:se" v="Silesjávrrit" />
		<tag k="natural" v="water" />
		<tag k="old_name:se" v="Silesjavrit" />
		<tag k="ssr:date" v="2019-12-27" />
		<tag k="ssr:gruppe" v="stilleståendeVann" />
		<tag k="ssr:hovedgruppe" v="ferskvann" />
		<tag k="ssr:stedsnr" v="323495" />
		<tag k="ssr:type" v="vann" />
		<tag k="water" v="lake" />
	</node>
	<node lat="70.59267503007871" lon="29.090607341623162" id="-38932">
		<tag k="name" v="Grasdamman" />
		<tag k="place" v="locality" />
		<tag k="ssr:date" v="2019-12-27" />
		<tag k="ssr:gruppe" v="rennendeVann" />
		<tag k="ssr:hovedgruppe" v="ferskvann" />
		<tag k="ssr:stedsnr" v="323498" />
		<tag k="ssr:type" v="høl" />
	</node>
	<node lat="70.80851390797142" lon="28.704104749950083" id="-38933">
		<tag k="fixme" v="consider natural=peak for the most distinct mountains in the district" />
		<tag k="name" v="Muorjegárčohkka" />
		<tag k="name:se" v="Muorjegárčohkka" />
		<tag k="natural" v="hill" />
		<tag k="old_name:se" v="Muorjegarčåkka" />
		<tag k="place" v="locality" />
		<tag k="ssr:date" v="2019-12-27" />
		<tag k="ssr:gruppe" v="høyder" />
		<tag k="ssr:hovedgruppe" v="terreng" />
		<tag k="ssr:stedsnr" v="323939" />
		<tag k="ssr:type" v="fjell" />
	</node>
	<node lat="70.80779446426821" lon="28.77254917725179" id="-38934">
		<tag k="name" v="Stormyra" />
		<tag k="natural" v="wetland" />
		<tag k="ssr:date" v="2019-12-27" />
		<tag k="ssr:gruppe" v="våtmark" />
		<tag k="ssr:hovedgruppe" v="markslag" />
		<tag k="ssr:stedsnr" v="323942" />
		<tag k="ssr:type" v="myr" />
	</node>
	<node lat="70.80263334975292" lon="28.793132504491616" id="-38935">
		<tag k="name" v="Sørdalen" />
		<tag k="natural" v="valley" />
		<tag k="place" v="locality" />
		<tag k="ssr:date" v="2019-12-27" />
		<tag k="ssr:gruppe" v="senkninger" />
		<tag k="ssr:hovedgruppe" v="terreng" />
		<tag k="ssr:stedsnr" v="323950" />
		<tag k="ssr:type" v="dal" />
	</node>
	<node lat="70.7837722415481" lon="28.78416028751768" id="-38936">
		<tag k="name" v="Rássegorsa" />
		<tag k="name:se" v="Rássegorsa" />
		<tag k="natural" v="valley" />
		<tag k="old_name:se" v="Rassegårsa" />
		<tag k="place" v="locality" />
		<tag k="ssr:date" v="2019-12-27" />
		<tag k="ssr:gruppe" v="senkninger" />
		<tag k="ssr:hovedgruppe" v="terreng" />
		<tag k="ssr:stedsnr" v="323957" />
		<tag k="ssr:type" v="skar" />
	</node>
	<node lat="70.78369446435126" lon="28.714604764396306" id="-38937">
		<tag k="fixme" v="consider natural=peak for the most distinct mountains in the district" />
		<tag k="name" v="Stuorračohkka" />
		<tag k="name:se" v="Stuorračohkka" />
		<tag k="natural" v="hill" />
		<tag k="old_name:se" v="Stuorračåkka" />
		<tag k="place" v="locality" />
		<tag k="ssr:date" v="2019-12-27" />
		<tag k="ssr:gruppe" v="høyder" />
		<tag k="ssr:hovedgruppe" v="terreng" />
		<tag k="ssr:stedsnr" v="323958" />
		<tag k="ssr:type" v="ås" />
	</node>
	<node lat="70.76180279741011" lon="28.60008257391301" id="-38938">
		<tag k="fixme" v="consider natural=peak for the most distinct mountains in the district" />
		<tag k="name" v="Gaksevikfjellet - Gákšovárri" />
		<tag k="name:no" v="Gaksevikfjellet" />
		<tag k="name:se" v="Gákšovárri" />
		<tag k="natural" v="hill" />
		<tag k="old_name:se" v="Gakšuvarri" />
		<tag k="place" v="locality" />
		<tag k="ssr:date" v="2019-12-27" />
		<tag k="ssr:gruppe" v="høyder" />
		<tag k="ssr:hovedgruppe" v="terreng" />
		<tag k="ssr:stedsnr" v="323960" />
		<tag k="ssr:type" v="ås" />
	</node>
	<node lat="70.8202861344534" lon="29.262121230214937" id="-38940">
		<tag k="loc_name:se" v="Stuorrageađggiluokta" />
		<tag k="name" v="Storsteinbukta" />
		<tag k="name:no" v="Storsteinbukta" />
		<tag k="natural" v="bay" />
		<tag k="ssr:date" v="2021-10-05" />
		<tag k="ssr:gruppe" v="kystkontur" />
		<tag k="ssr:hovedgruppe" v="sjø" />
		<tag k="ssr:stedsnr" v="323988" />
		<tag k="ssr:type" v="vikISjø" />
	</node>
	<node lat="70.79278336168113" lon="29.267637893735763" id="-38941">
		<tag k="name" v="Heimberget" />
		<tag k="natural" v="hill" />
		<tag k="place" v="locality" />
		<tag k="ssr:date" v="2019-12-27" />
		<tag k="ssr:gruppe" v="høyder" />
		<tag k="ssr:hovedgruppe" v="terreng" />
		<tag k="ssr:stedsnr" v="323996" />
		<tag k="ssr:type" v="berg" />
	</node>
	<node lat="70.78324446428309" lon="28.828618598006077" id="-38942">
		<tag k="fixme" v="consider natural=peak for the most distinct mountains in the district" />
		<tag k="name" v="Sløketoppen" />
		<tag k="natural" v="hill" />
		<tag k="place" v="locality" />
		<tag k="ssr:date" v="2021-06-08" />
		<tag k="ssr:gruppe" v="høyder" />
		<tag k="ssr:hovedgruppe" v="terreng" />
		<tag k="ssr:stedsnr" v="323997" />
		<tag k="ssr:type" v="ås" />
	</node>
	<node lat="70.72619724986505" lon="29.351385065434364" id="-38943">
		<tag k="name" v="Sebulonbukta" />
		<tag k="natural" v="bay" />
		<tag k="ssr:date" v="2021-06-08" />
		<tag k="ssr:gruppe" v="kystkontur" />
		<tag k="ssr:hovedgruppe" v="sjø" />
		<tag k="ssr:stedsnr" v="329163" />
		<tag k="ssr:type" v="vikISjø" />
	</node>
	<node lat="70.84152502613605" lon="29.200979607541903" id="-38944">
		<tag k="name" v="Styrdalen" />
		<tag k="natural" v="valley" />
		<tag k="place" v="locality" />
		<tag k="ssr:date" v="2021-06-08" />
		<tag k="ssr:gruppe" v="senkninger" />
		<tag k="ssr:hovedgruppe" v="terreng" />
		<tag k="ssr:stedsnr" v="329189" />
		<tag k="ssr:type" v="dal" />
	</node>
	<node lat="70.6528250291734" lon="29.26792675228406" id="-38945">
		<tag k="name" v="Sætran" />
		<tag k="place" v="locality" />
		<tag k="ssr:date" v="2019-12-27" />
		<tag k="ssr:gruppe" v="bolighus" />
		<tag k="ssr:hovedgruppe" v="bebyggelse" />
		<tag k="ssr:stedsnr" v="329542" />
		<tag k="ssr:type" v="gammelBosettingsplass" />
	</node>
	<node lat="70.72713891686652" lon="29.257212873521908" id="-38947">
		<tag k="name" v="Østre Risfjordbotn" />
		<tag k="place" v="locality" />
		<tag k="ssr:date" v="2019-12-27" />
		<tag k="ssr:gruppe" v="flater" />
		<tag k="ssr:hovedgruppe" v="terreng" />
		<tag k="ssr:stedsnr" v="329946" />
		<tag k="ssr:type" v="slette" />
	</node>
	<node lat="70.85293335028832" lon="29.116171309196144" id="-38948">
		<tag k="name" v="Storelvberget" />
		<tag k="natural" v="hill" />
		<tag k="place" v="locality" />
		<tag k="ssr:date" v="2019-12-27" />
		<tag k="ssr:gruppe" v="høyder" />
		<tag k="ssr:hovedgruppe" v="terreng" />
		<tag k="ssr:stedsnr" v="329955" />
		<tag k="ssr:type" v="haug" />
	</node>
	<node lat="70.70530835000297" lon="28.544546460795015" id="-38949">
		<tag k="name" v="Svartnakken" />
		<tag k="natural" v="ridge" />
		<tag k="place" v="locality" />
		<tag k="ssr:date" v="2019-12-27" />
		<tag k="ssr:gruppe" v="høyder" />
		<tag k="ssr:hovedgruppe" v="terreng" />
		<tag k="ssr:stedsnr" v="330296" />
		<tag k="ssr:type" v="rygg" />
	</node>
	<node lat="70.7582444730663" lon="29.52419056621335" id="-38950">
		<tag k="name" v="Makkaurgrunnen" />
		<tag k="natural" v="shoal" />
		<tag k="place" v="locality" />
		<tag k="ssr:date" v="2019-12-27" />
		<tag k="ssr:gruppe" v="grunnerISjø" />
		<tag k="ssr:hovedgruppe" v="sjø" />
		<tag k="ssr:stedsnr" v="332209" />
		<tag k="ssr:type" v="grunneISjø" />
	</node>
	<node lat="70.86287779493983" lon="29.076349106945912" id="-38952">
		<tag k="man_made" v="tower" />
		<tag k="name" v="Radiolinken" />
		<tag k="ssr:date" v="2019-12-27" />
		<tag k="ssr:gruppe" v="kommunikasjon" />
		<tag k="ssr:hovedgruppe" v="infrastruktur" />
		<tag k="ssr:stedsnr" v="334280" />
		<tag k="ssr:type" v="tV-Radio-EllerMobiltelefontårn" />
		<tag k="tower:type" v="communications" />
	</node>
	<node lat="70.8697472424739" lon="29.092412972176643" id="-38953">
		<tag k="name" v="Kilbotnstøa" />
		<tag k="natural" v="bay" />
		<tag k="ssr:date" v="2019-12-27" />
		<tag k="ssr:gruppe" v="kystkontur" />
		<tag k="ssr:hovedgruppe" v="sjø" />
		<tag k="ssr:stedsnr" v="334283" />
		<tag k="ssr:type" v="vikISjø" />
	</node>
	<node lat="70.7330944728295" lon="29.36347117613325" id="-38954">
		<tag k="fixme" v="consider seamark:type=rock or natural=shoal" />
		<tag k="name" v="Storvikskjæran" />
		<tag k="place" v="islet" />
		<tag k="ssr:date" v="2019-12-27" />
		<tag k="ssr:gruppe" v="grunnerISjø" />
		<tag k="ssr:hovedgruppe" v="sjø" />
		<tag k="ssr:stedsnr" v="349960" />
		<tag k="ssr:type" v="skjærISjø" />
	</node>
	<node lat="70.73264724755674" lon="29.31630175596789" id="-38955">
		<tag k="name" v="Hergeodden" />
		<tag k="natural" v="cape" />
		<tag k="ssr:date" v="2019-12-27" />
		<tag k="ssr:gruppe" v="kystkontur" />
		<tag k="ssr:hovedgruppe" v="sjø" />
		<tag k="ssr:stedsnr" v="349962" />
		<tag k="ssr:type" v="nesISjø" />
	</node>
	<node lat="70.8782750156582" lon="28.964365806046345" id="-38956">
		<tag k="name" v="Ramberget" />
		<tag k="natural" v="hill" />
		<tag k="place" v="locality" />
		<tag k="ssr:date" v="2019-12-27" />
		<tag k="ssr:gruppe" v="høyder" />
		<tag k="ssr:hovedgruppe" v="terreng" />
		<tag k="ssr:stedsnr" v="349982" />
		<tag k="ssr:type" v="berg" />
	</node>
	<node lat="70.65064724849893" lon="29.30661838256861" id="-38957">
		<tag k="fixme" v="consider natural=peak for the most distinct mountains in the district" />
		<tag k="name" v="Hundelvfjellet" />
		<tag k="natural" v="hill" />
		<tag k="place" v="locality" />
		<tag k="ssr:date" v="2019-12-27" />
		<tag k="ssr:gruppe" v="høyder" />
		<tag k="ssr:hovedgruppe" v="terreng" />
		<tag k="ssr:stedsnr" v="349950" />
		<tag k="ssr:type" v="fjell" />
	</node>
	<node lat="70.69841669129504" lon="29.363535055837286" id="-38958">
		<tag k="name" v="Bryggerikjosen" />
		<tag k="natural" v="bay" />
		<tag k="ssr:date" v="2019-12-27" />
		<tag k="ssr:gruppe" v="kystkontur" />
		<tag k="ssr:hovedgruppe" v="sjø" />
		<tag k="ssr:stedsnr" v="350887" />
		<tag k="ssr:type" v="vikISjø" />
	</node>
	<node lat="70.70451391358117" lon="28.60692420691136" id="-38959">
		<tag k="name" v="Baikajohka" />
		<tag k="name:se" v="Baikajohka" />
		<tag k="old_name:se" v="Baikajåkka" />
		<tag k="ssr:date" v="2019-12-27" />
		<tag k="ssr:gruppe" v="rennendeVann" />
		<tag k="ssr:hovedgruppe" v="ferskvann" />
		<tag k="ssr:stedsnr" v="383371" />
		<tag k="ssr:type" v="bekk" />
		<tag k="waterway" v="stream" />
	</node>
	<node lat="70.73621946965474" lon="29.198004582511615" id="-38960">
		<tag k="name" v="Vester-Risfjordelva" />
		<tag k="ssr:date" v="2021-06-08" />
		<tag k="ssr:gruppe" v="rennendeVann" />
		<tag k="ssr:hovedgruppe" v="ferskvann" />
		<tag k="ssr:stedsnr" v="383429" />
		<tag k="ssr:type" v="elv" />
		<tag k="waterway" v="river" />
	</node>
	<node lat="70.73526669700688" lon="29.389760052446835" id="-38961">
		<tag k="alt_name" v="Langskjera" />
		<tag k="fixme" v="consider seamark:type=rock or natural=shoal" />
		<tag k="name" v="Langskjæran" />
		<tag k="place" v="islet" />
		<tag k="ssr:date" v="2019-12-27" />
		<tag k="ssr:gruppe" v="grunnerISjø" />
		<tag k="ssr:hovedgruppe" v="sjø" />
		<tag k="ssr:stedsnr" v="383430" />
		<tag k="ssr:type" v="skjærISjø" />
	</node>
	<node lat="70.78703613715471" lon="29.23024902890037" id="-38962">
		<tag k="name" v="Sandfjordelva" />
		<tag k="ssr:date" v="2019-12-27" />
		<tag k="ssr:gruppe" v="rennendeVann" />
		<tag k="ssr:hovedgruppe" v="ferskvann" />
		<tag k="ssr:stedsnr" v="383528" />
		<tag k="ssr:type" v="elv" />
		<tag k="waterway" v="river" />
	</node>
	<node lat="70.64650836109416" lon="29.376629465063004" id="-38963">
		<tag k="name" v="Straumsvatna" />
		<tag k="natural" v="water" />
		<tag k="ssr:date" v="2019-12-27" />
		<tag k="ssr:gruppe" v="stilleståendeVann" />
		<tag k="ssr:hovedgruppe" v="ferskvann" />
		<tag k="ssr:stedsnr" v="384129" />
		<tag k="ssr:type" v="vann" />
		<tag k="water" v="lake" />
	</node>
	<node lat="70.66208057709927" lon="28.668713069081857" id="-38964">
		<tag k="name" v="Sørelva - Mádjejohka" />
		<tag k="name:no" v="Sørelva" />
		<tag k="name:se" v="Mádjejohka" />
		<tag k="old_name:se" v="Maddjejåkka" />
		<tag k="ssr:date" v="2019-12-27" />
		<tag k="ssr:gruppe" v="rennendeVann" />
		<tag k="ssr:hovedgruppe" v="ferskvann" />
		<tag k="ssr:stedsnr" v="384360" />
		<tag k="ssr:type" v="elv" />
		<tag k="waterway" v="river" />
	</node>
	<node lat="70.58464447039533" lon="28.80834355671193" id="-38965">
		<tag k="name" v="Vuođavuonjohka" />
		<tag k="name:se" v="Vuođavuonjohka" />
		<tag k="old_name:se" v="Vuođavuonjåkka" />
		<tag k="ssr:date" v="2019-12-27" />
		<tag k="ssr:gruppe" v="rennendeVann" />
		<tag k="ssr:hovedgruppe" v="ferskvann" />
		<tag k="ssr:stedsnr" v="384344" />
		<tag k="ssr:type" v="elv" />
		<tag k="waterway" v="river" />
	</node>
	<node lat="70.70836947707006" lon="29.714118249094277" id="-38966">
		<tag k="fixme" v="consider natural=peak for the most distinct mountains in the district" />
		<tag k="name" v="Båtsnæringen" />
		<tag k="natural" v="hill" />
		<tag k="place" v="locality" />
		<tag k="ssr:date" v="2021-06-08" />
		<tag k="ssr:gruppe" v="høyder" />
		<tag k="ssr:hovedgruppe" v="terreng" />
		<tag k="ssr:stedsnr" v="384474" />
		<tag k="ssr:type" v="fjell" />
	</node>
	<node lat="70.7824916844556" lon="28.709515854736658" id="-38967">
		<tag k="name" v="Uhcavággi" />
		<tag k="name:se" v="Uhcavággi" />
		<tag k="natural" v="valley" />
		<tag k="old_name:se" v="Uccavaggi" />
		<tag k="place" v="locality" />
		<tag k="ssr:date" v="2019-12-27" />
		<tag k="ssr:gruppe" v="senkninger" />
		<tag k="ssr:hovedgruppe" v="terreng" />
		<tag k="ssr:stedsnr" v="384935" />
		<tag k="ssr:type" v="dal" />
	</node>
	<node lat="70.8498166918881" lon="29.1720268324937" id="-38968">
		<tag k="alt_name" v="Store Vargvika" />
		<tag k="name" v="Vargvika" />
		<tag k="natural" v="bay" />
		<tag k="ssr:date" v="2019-12-27" />
		<tag k="ssr:gruppe" v="kystkontur" />
		<tag k="ssr:hovedgruppe" v="sjø" />
		<tag k="ssr:stedsnr" v="384962" />
		<tag k="ssr:type" v="vikISjø" />
	</node>
	<node lat="70.83732223803598" lon="28.87783527510814" id="-38969">
		<tag k="alt_name:no" v="Skonsvikelva" />
		<tag k="name" v="Skånsvikelva - Spoatnajohka" />
		<tag k="name:no" v="Skånsvikelva" />
		<tag k="name:se" v="Spoatnajohka" />
		<tag k="old_name:se" v="Spoadnajåkka" />
		<tag k="ssr:date" v="2019-12-27" />
		<tag k="ssr:gruppe" v="rennendeVann" />
		<tag k="ssr:hovedgruppe" v="ferskvann" />
		<tag k="ssr:stedsnr" v="384972" />
		<tag k="ssr:type" v="elv" />
		<tag k="waterway" v="river" />
	</node>
	<node lat="70.82182502314521" lon="28.961557452469307" id="-38970">
		<tag k="name" v="Storelvdalen" />
		<tag k="natural" v="valley" />
		<tag k="place" v="locality" />
		<tag k="ssr:date" v="2021-06-08" />
		<tag k="ssr:gruppe" v="senkninger" />
		<tag k="ssr:hovedgruppe" v="terreng" />
		<tag k="ssr:stedsnr" v="384981" />
		<tag k="ssr:type" v="dal" />
	</node>
	<node lat="70.81591391417483" lon="29.040007432279648" id="-38971">
		<tag k="name" v="Veddalen" />
		<tag k="natural" v="valley" />
		<tag k="place" v="locality" />
		<tag k="ssr:date" v="2021-06-08" />
		<tag k="ssr:gruppe" v="senkninger" />
		<tag k="ssr:hovedgruppe" v="terreng" />
		<tag k="ssr:stedsnr" v="384988" />
		<tag k="ssr:type" v="dal" />
	</node>
	<node lat="70.80530002521456" lon="29.164054614304867" id="-38972">
		<tag k="fixme" v="consider natural=peak for the most distinct mountains in the district" />
		<tag k="name" v="Løkvikdalsfjellet" />
		<tag k="natural" v="hill" />
		<tag k="place" v="locality" />
		<tag k="ssr:date" v="2021-06-08" />
		<tag k="ssr:gruppe" v="høyder" />
		<tag k="ssr:hovedgruppe" v="terreng" />
		<tag k="ssr:stedsnr" v="384989" />
		<tag k="ssr:type" v="fjell" />
	</node>
	<node lat="70.79481113539954" lon="29.107587951852306" id="-38973">
		<tag k="name" v="Løkvikdalselva - Ruovdajohka" />
		<tag k="name:no" v="Løkvikdalselva" />
		<tag k="name:se" v="Ruovdajohka" />
		<tag k="old_name:se" v="Ruovdajåkka" />
		<tag k="ssr:date" v="2021-06-08" />
		<tag k="ssr:gruppe" v="rennendeVann" />
		<tag k="ssr:hovedgruppe" v="ferskvann" />
		<tag k="ssr:stedsnr" v="384993" />
		<tag k="ssr:type" v="elv" />
		<tag k="waterway" v="river" />
	</node>
	<node lat="70.86682501562784" lon="28.905863051371764" id="-38974">
		<tag k="fixme" v="consider natural=peak for the most distinct mountains in the district" />
		<tag k="name" v="Bukkedalsfjellet" />
		<tag k="natural" v="hill" />
		<tag k="place" v="locality" />
		<tag k="ssr:date" v="2019-12-27" />
		<tag k="ssr:gruppe" v="høyder" />
		<tag k="ssr:hovedgruppe" v="terreng" />
		<tag k="ssr:stedsnr" v="410559" />
		<tag k="ssr:type" v="fjell" />
	</node>
	<node lat="70.69995835614847" lon="29.374518394692647" id="-38975">
		<tag k="alt_name" v="Vestre Straumsnes" />
		<tag k="name" v="Vestre Strømsneset" />
		<tag k="natural" v="cape" />
		<tag k="ssr:date" v="2019-12-27" />
		<tag k="ssr:gruppe" v="kystkontur" />
		<tag k="ssr:hovedgruppe" v="sjø" />
		<tag k="ssr:stedsnr" v="411197" />
		<tag k="ssr:type" v="nesISjø" />
	</node>
	<node lat="70.70413612785303" lon="28.539999229013006" id="-38976">
		<tag k="name" v="Skjerberget" />
		<tag k="natural" v="cape" />
		<tag k="ssr:date" v="2019-12-27" />
		<tag k="ssr:gruppe" v="kystkontur" />
		<tag k="ssr:hovedgruppe" v="sjø" />
		<tag k="ssr:stedsnr" v="444326" />
		<tag k="ssr:type" v="nesISjø" />
	</node>
	<node lat="70.66403891443488" lon="29.359651705849686" id="-38977">
		<tag k="fixme" v="consider natural=peak for the most distinct mountains in the district" />
		<tag k="name" v="Strømstinden" />
		<tag k="natural" v="hill" />
		<tag k="place" v="locality" />
		<tag k="ssr:date" v="2021-06-08" />
		<tag k="ssr:gruppe" v="høyder" />
		<tag k="ssr:hovedgruppe" v="terreng" />
		<tag k="ssr:stedsnr" v="445397" />
		<tag k="ssr:type" v="fjell" />
	</node>
	<node lat="70.65863613974878" lon="29.27729896852165" id="-38978">
		<tag k="alt_name:no" v="Østerbotn" />
		<tag k="name" v="Austerbotn - Guohcagohppi" />
		<tag k="name:no" v="Austerbotn" />
		<tag k="name:se" v="Guohcagohppi" />
		<tag k="natural" v="bay" />
		<tag k="old_name:se" v="Guoccagåppi" />
		<tag k="ssr:date" v="2019-12-27" />
		<tag k="ssr:gruppe" v="kystkontur" />
		<tag k="ssr:hovedgruppe" v="sjø" />
		<tag k="ssr:stedsnr" v="445398" />
		<tag k="ssr:type" v="vikISjø" />
	</node>
	<node lat="70.61171391641165" lon="29.169574007241383" id="-38979">
		<tag k="name" v="Ørretvannet" />
		<tag k="natural" v="water" />
		<tag k="ssr:date" v="2019-12-27" />
		<tag k="ssr:gruppe" v="stilleståendeVann" />
		<tag k="ssr:hovedgruppe" v="ferskvann" />
		<tag k="ssr:stedsnr" v="445404" />
		<tag k="ssr:type" v="vann" />
		<tag k="water" v="lake" />
	</node>
	<node lat="70.67247224832212" lon="29.055640719516425" id="-38980">
		<tag k="name" v="Risfjordkrysset" />
		<tag k="natural" v="bay" />
		<tag k="ssr:date" v="2019-12-27" />
		<tag k="ssr:gruppe" v="ferskvannskontur" />
		<tag k="ssr:hovedgruppe" v="ferskvann" />
		<tag k="ssr:stedsnr" v="445418" />
		<tag k="ssr:type" v="vik" />
	</node>
	<node lat="70.6392833585528" lon="28.758226916519273" id="-38981">
		<tag k="name" v="Stuorrajokgorsa" />
		<tag k="name:se" v="Stuorrajokgorsa" />
		<tag k="natural" v="valley" />
		<tag k="old_name:se" v="Stuorrajåkgårsa" />
		<tag k="place" v="locality" />
		<tag k="ssr:date" v="2019-12-27" />
		<tag k="ssr:gruppe" v="senkninger" />
		<tag k="ssr:hovedgruppe" v="terreng" />
		<tag k="ssr:stedsnr" v="445343" />
		<tag k="ssr:type" v="dal" />
	</node>
	<node lat="70.64826946277488" lon="28.661924188272863" id="-38982">
		<tag k="name" v="Goikejohka" />
		<tag k="name:se" v="Goikejohka" />
		<tag k="old_name:se" v="Gåikejåkka" />
		<tag k="ssr:date" v="2019-12-27" />
		<tag k="ssr:gruppe" v="rennendeVann" />
		<tag k="ssr:hovedgruppe" v="ferskvann" />
		<tag k="ssr:stedsnr" v="445345" />
		<tag k="ssr:type" v="bekk" />
		<tag k="waterway" v="stream" />
	</node>
	<node lat="70.69690279877473" lon="28.728504714576527" id="-38983">
		<tag k="name" v="Jorbajávri" />
		<tag k="name:se" v="Jorbajávri" />
		<tag k="natural" v="water" />
		<tag k="old_name:se" v="Jårbajavri" />
		<tag k="ssr:date" v="2019-12-27" />
		<tag k="ssr:gruppe" v="stilleståendeVann" />
		<tag k="ssr:hovedgruppe" v="ferskvann" />
		<tag k="ssr:stedsnr" v="445367" />
		<tag k="ssr:type" v="vann" />
		<tag k="water" v="lake" />
	</node>
	<node lat="70.7972083503412" lon="28.675374211430725" id="-38984">
		<tag k="fixme" v="consider natural=peak for the most distinct mountains in the district" />
		<tag k="name" v="Stigen - Stiiga" />
		<tag k="name:no" v="Stigen" />
		<tag k="name:se" v="Stiiga" />
		<tag k="natural" v="hill" />
		<tag k="place" v="locality" />
		<tag k="ssr:date" v="2019-12-27" />
		<tag k="ssr:gruppe" v="høyder" />
		<tag k="ssr:hovedgruppe" v="terreng" />
		<tag k="ssr:stedsnr" v="445953" />
		<tag k="ssr:type" v="ås" />
	</node>
	<node lat="70.9060333502063" lon="29.081910210544734" id="-38985">
		<tag k="alt_name" v="Mellomgrunnen" />
		<tag k="name" v="Mellagrunnen" />
		<tag k="natural" v="shoal" />
		<tag k="place" v="locality" />
		<tag k="ssr:date" v="2019-12-27" />
		<tag k="ssr:gruppe" v="grunnerISjø" />
		<tag k="ssr:hovedgruppe" v="sjø" />
		<tag k="ssr:stedsnr" v="445964" />
		<tag k="ssr:type" v="grunneISjø" />
	</node>
	<node lat="70.76347501621139" lon="28.61504644802802" id="-38986">
		<tag k="name" v="Muohtagahččanjohka" />
		<tag k="name:se" v="Muohtagahččanjohka" />
		<tag k="old_name:se" v="Muottagaččanjåkka" />
		<tag k="ssr:date" v="2019-12-27" />
		<tag k="ssr:gruppe" v="rennendeVann" />
		<tag k="ssr:hovedgruppe" v="ferskvann" />
		<tag k="ssr:stedsnr" v="445966" />
		<tag k="ssr:type" v="bekk" />
		<tag k="waterway" v="stream" />
	</node>
	<node lat="70.86246113403632" lon="28.983446352673976" id="-38987">
		<tag k="name" v="Kuelvdalen" />
		<tag k="natural" v="valley" />
		<tag k="place" v="locality" />
		<tag k="ssr:date" v="2019-12-27" />
		<tag k="ssr:gruppe" v="senkninger" />
		<tag k="ssr:hovedgruppe" v="terreng" />
		<tag k="ssr:stedsnr" v="501687" />
		<tag k="ssr:type" v="dal" />
	</node>
	<node lat="70.82003057988378" lon="29.117535188667915" id="-38988">
		<tag k="name" v="Løkvikdalen" />
		<tag k="natural" v="valley" />
		<tag k="place" v="locality" />
		<tag k="ssr:date" v="2021-06-08" />
		<tag k="ssr:gruppe" v="senkninger" />
		<tag k="ssr:hovedgruppe" v="terreng" />
		<tag k="ssr:stedsnr" v="505978" />
		<tag k="ssr:type" v="dal" />
	</node>
	<node lat="70.82645835322164" lon="29.27130733921747" id="-38989">
		<tag k="loc_name:se" v="Stivran;Stivrannjárga" />
		<tag k="name" v="Styret" />
		<tag k="name:no" v="Styret" />
		<tag k="natural" v="cape" />
		<tag k="ssr:date" v="2021-10-05" />
		<tag k="ssr:gruppe" v="kystkontur" />
		<tag k="ssr:hovedgruppe" v="sjø" />
		<tag k="ssr:stedsnr" v="505979" />
		<tag k="ssr:type" v="nesISjø" />
	</node>
	<node lat="70.61601113368003" lon="29.124249006838003" id="-38990">
		<tag k="alt_name" v="Fossvatnet" />
		<tag k="name" v="Fossvatna" />
		<tag k="natural" v="water" />
		<tag k="ssr:date" v="2019-12-27" />
		<tag k="ssr:gruppe" v="stilleståendeVann" />
		<tag k="ssr:hovedgruppe" v="ferskvann" />
		<tag k="ssr:stedsnr" v="505390" />
		<tag k="ssr:type" v="tjern" />
	</node>
	<node lat="70.6309611420909" lon="29.37096003125802" id="-38991">
		<tag k="fixme" v="consider natural=peak for the most distinct mountains in the district" />
		<tag k="name" v="Hundtoppen - Beatnatčohkat" />
		<tag k="name:no" v="Hundtoppen" />
		<tag k="name:se" v="Beatnatčohkat" />
		<tag k="natural" v="hill" />
		<tag k="old_name:se" v="Bædnatčåkkat" />
		<tag k="place" v="locality" />
		<tag k="ssr:date" v="2019-12-27" />
		<tag k="ssr:gruppe" v="høyder" />
		<tag k="ssr:hovedgruppe" v="terreng" />
		<tag k="ssr:stedsnr" v="505394" />
		<tag k="ssr:type" v="fjell" />
	</node>
	<node lat="70.69926390745745" lon="28.541854795314062" id="-38992">
		<tag k="fixme" v="consider seamark:type=rock or natural=shoal" />
		<tag k="name" v="Storskjeret - Stuorralásis" />
		<tag k="name:no" v="Storskjeret" />
		<tag k="name:se" v="Stuorralásis" />
		<tag k="old_name:se" v="Stuorralasis" />
		<tag k="place" v="islet" />
		<tag k="ssr:date" v="2019-12-27" />
		<tag k="ssr:gruppe" v="grunnerISjø" />
		<tag k="ssr:hovedgruppe" v="sjø" />
		<tag k="ssr:stedsnr" v="505362" />
		<tag k="ssr:type" v="skjærISjø" />
	</node>
	<node lat="70.73053992068824" lon="29.39618151751135" id="-38993">
		<tag k="name" v="Veidnesodden - Riššačilanjárga" />
		<tag k="name:no" v="Veidnesodden" />
		<tag k="name:se" v="Riššačilanjárga" />
		<tag k="natural" v="cape" />
		<tag k="old_name:se" v="Riššačilanjarga" />
		<tag k="ssr:date" v="2021-06-08" />
		<tag k="ssr:gruppe" v="kystkontur" />
		<tag k="ssr:hovedgruppe" v="sjø" />
		<tag k="ssr:stedsnr" v="505423" />
		<tag k="ssr:type" v="nesISjø" />
	</node>
	<node lat="70.6921639183968" lon="29.407137805712875" id="-38994">
		<tag k="name" v="Sandbukta - Sáttogohppi" />
		<tag k="name:no" v="Sandbukta" />
		<tag k="name:se" v="Sáttogohppi" />
		<tag k="natural" v="bay" />
		<tag k="old_name:se" v="Saddugåppi" />
		<tag k="ssr:date" v="2019-12-27" />
		<tag k="ssr:gruppe" v="kystkontur" />
		<tag k="ssr:hovedgruppe" v="sjø" />
		<tag k="ssr:stedsnr" v="505400" />
		<tag k="ssr:type" v="vikISjø" />
	</node>
	<node lat="70.71034725033357" lon="29.28597397355075" id="-38995">
		<tag k="name" v="Djupbukta - Goađášgohppi" />
		<tag k="name:no" v="Djupbukta" />
		<tag k="name:se" v="Goađášgohppi" />
		<tag k="natural" v="bay" />
		<tag k="old_name:se" v="Goađašgåppi" />
		<tag k="ssr:date" v="2019-12-27" />
		<tag k="ssr:gruppe" v="kystkontur" />
		<tag k="ssr:hovedgruppe" v="sjø" />
		<tag k="ssr:stedsnr" v="505401" />
		<tag k="ssr:type" v="vikISjø" />
	</node>
	<node lat="70.61805836368347" lon="29.44748500639569" id="-38996">
		<tag k="name" v="Stuorraleakši" />
		<tag k="name:se" v="Stuorraleakši" />
		<tag k="old_name:se" v="Stuorralæksi;Stuoraleaksi" />
		<tag k="ssr:date" v="2019-12-27" />
		<tag k="ssr:gruppe" v="rennendeVann" />
		<tag k="ssr:hovedgruppe" v="ferskvann" />
		<tag k="ssr:stedsnr" v="505490" />
		<tag k="ssr:type" v="elv" />
		<tag k="waterway" v="river" />
	</node>
	<node lat="70.7458333563277" lon="29.30657120776803" id="-38997">
		<tag k="bay" v="fjord" />
		<tag k="loc_name:se" v="Miennavuonna" />
		<tag k="name" v="Risfjorden - Miennavuotna" />
		<tag k="name:no" v="Risfjorden" />
		<tag k="name:se" v="Miennavuotna" />
		<tag k="natural" v="bay" />
		<tag k="old_name:se" v="Miennavuodna" />
		<tag k="ssr:date" v="2021-06-08" />
		<tag k="ssr:gruppe" v="farvann" />
		<tag k="ssr:hovedgruppe" v="sjø" />
		<tag k="ssr:stedsnr" v="505443" />
		<tag k="ssr:type" v="fjord" />
	</node>
	<node lat="70.82211946174361" lon="28.766071410235675" id="-38998">
		<tag k="name" v="Muorjegárjeaggi" />
		<tag k="name:se" v="Muorjegárjeaggi" />
		<tag k="natural" v="wetland" />
		<tag k="old_name:se" v="Muorjegarjæggi" />
		<tag k="ssr:date" v="2019-12-27" />
		<tag k="ssr:gruppe" v="våtmark" />
		<tag k="ssr:hovedgruppe" v="markslag" />
		<tag k="ssr:stedsnr" v="505917" />
		<tag k="ssr:type" v="myr" />
	</node>
	<node lat="70.84401113238546" lon="28.735543661075756" id="-38999">
		<tag k="name" v="Kvitnes - Guittanas" />
		<tag k="name:no" v="Kvitnes" />
		<tag k="name:se" v="Guittanas" />
		<tag k="natural" v="cape" />
		<tag k="old_name:se" v="Guitanas" />
		<tag k="ssr:date" v="2019-12-27" />
		<tag k="ssr:gruppe" v="kystkontur" />
		<tag k="ssr:hovedgruppe" v="sjø" />
		<tag k="ssr:stedsnr" v="505920" />
		<tag k="ssr:type" v="nesISjø" />
	</node>
	<node lat="70.81163613034379" lon="28.675571443344" id="-39000">
		<tag k="name" v="Krøkebærneset - Muorjegárnjárga" />
		<tag k="name:no" v="Krøkebærneset" />
		<tag k="name:se" v="Muorjegárnjárga" />
		<tag k="natural" v="cape" />
		<tag k="old_name:se" v="Muorjegarnjarga" />
		<tag k="ssr:date" v="2019-12-27" />
		<tag k="ssr:gruppe" v="kystkontur" />
		<tag k="ssr:hovedgruppe" v="sjø" />
		<tag k="ssr:stedsnr" v="505929" />
		<tag k="ssr:type" v="nesISjø" />
	</node>
	<node lat="70.86217780090666" lon="29.002054680675705" id="-39001">
		<tag k="name" v="Svartneshaugen" />
		<tag k="natural" v="hill" />
		<tag k="place" v="locality" />
		<tag k="ssr:date" v="2019-12-27" />
		<tag k="ssr:gruppe" v="høyder" />
		<tag k="ssr:hovedgruppe" v="terreng" />
		<tag k="ssr:stedsnr" v="505959" />
		<tag k="ssr:type" v="haug" />
	</node>
	<node lat="70.48375003306245" lon="29.54015713483775" id="-39002">
		<tag k="name" v="Varangerhalvøya - Várnjárga - Varenkinniemi" />
		<tag k="name:fkv" v="Varenkinniemi" />
		<tag k="name:no" v="Varangerhalvøya" />
		<tag k="name:se" v="Várnjárga" />
		<tag k="natural" v="cape" />
		<tag k="ssr:date" v="2021-06-08" />
		<tag k="ssr:gruppe" v="kystkontur" />
		<tag k="ssr:hovedgruppe" v="sjø" />
		<tag k="ssr:stedsnr" v="506029" />
		<tag k="ssr:type" v="halvøyISjø" />
	</node>
	<node lat="70.80732502004277" lon="28.966274107607628" id="-39003">
		<tag k="fixme" v="consider natural=peak for the most distinct mountains in the district" />
		<tag k="name" v="Mordartoppen" />
		<tag k="natural" v="hill" />
		<tag k="place" v="locality" />
		<tag k="ssr:date" v="2019-12-27" />
		<tag k="ssr:gruppe" v="høyder" />
		<tag k="ssr:hovedgruppe" v="terreng" />
		<tag k="ssr:stedsnr" v="506983" />
		<tag k="ssr:type" v="ås" />
	</node>
	<node lat="70.79167502781188" lon="29.299846220947522" id="-39004">
		<tag k="name" v="Sandstøberget" />
		<tag k="natural" v="cape" />
		<tag k="ssr:date" v="2019-12-27" />
		<tag k="ssr:gruppe" v="kystkontur" />
		<tag k="ssr:hovedgruppe" v="sjø" />
		<tag k="ssr:stedsnr" v="506989" />
		<tag k="ssr:type" v="nesISjø" />
	</node>
	<node lat="70.72881947612154" lon="29.672796052915995" id="-39005">
		<tag k="name" v="Staurene" />
		<tag k="natural" v="hill" />
		<tag k="place" v="locality" />
		<tag k="ssr:date" v="2019-12-27" />
		<tag k="ssr:gruppe" v="høyder" />
		<tag k="ssr:hovedgruppe" v="terreng" />
		<tag k="ssr:stedsnr" v="511530" />
		<tag k="ssr:type" v="berg" />
	</node>
	<node lat="70.87458891090992" lon="29.087176867934062" id="-39006">
		<tag k="fixme" v="consider seamark:type=rock or natural=shoal" />
		<tag k="name" v="Tollefsnesskjæret" />
		<tag k="place" v="islet" />
		<tag k="ssr:date" v="2019-12-27" />
		<tag k="ssr:gruppe" v="grunnerISjø" />
		<tag k="ssr:hovedgruppe" v="sjø" />
		<tag k="ssr:stedsnr" v="511939" />
		<tag k="ssr:type" v="skjærISjø" />
	</node>
	<node lat="70.62688335850859" lon="29.155387889481563" id="-39007">
		<tag k="name" v="Olavholla" />
		<tag k="place" v="locality" />
		<tag k="ssr:date" v="2019-12-27" />
		<tag k="ssr:gruppe" v="rennendeVann" />
		<tag k="ssr:hovedgruppe" v="ferskvann" />
		<tag k="ssr:stedsnr" v="530879" />
		<tag k="ssr:type" v="høl" />
	</node>
	<node lat="70.61211668807233" lon="29.103876799545205" id="-39008">
		<tag k="fixme" v="consider natural=peak for the most distinct mountains in the district" />
		<tag k="name" v="Sukkertoppen" />
		<tag k="natural" v="hill" />
		<tag k="place" v="locality" />
		<tag k="ssr:date" v="2019-12-27" />
		<tag k="ssr:gruppe" v="høyder" />
		<tag k="ssr:hovedgruppe" v="terreng" />
		<tag k="ssr:stedsnr" v="531910" />
		<tag k="ssr:type" v="ås" />
	</node>
	<node lat="70.6507166891006" lon="29.136618470968514" id="-39009">
		<tag k="name" v="Hanshaugen" />
		<tag k="natural" v="hill" />
		<tag k="place" v="locality" />
		<tag k="ssr:date" v="2019-12-27" />
		<tag k="ssr:gruppe" v="høyder" />
		<tag k="ssr:hovedgruppe" v="terreng" />
		<tag k="ssr:stedsnr" v="531914" />
		<tag k="ssr:type" v="haug" />
	</node>
	<node lat="70.88436946362869" lon="28.95557691438024" id="-39010">
		<tag k="name" v="Vestre Skarvneset" />
		<tag k="natural" v="cape" />
		<tag k="ssr:date" v="2019-12-27" />
		<tag k="ssr:gruppe" v="kystkontur" />
		<tag k="ssr:hovedgruppe" v="sjø" />
		<tag k="ssr:stedsnr" v="531754" />
		<tag k="ssr:type" v="nesISjø" />
	</node>
	<node lat="70.68675002177602" lon="29.366501724578587" id="-39011">
		<tag k="name" v="Gamneset" />
		<tag k="natural" v="cape" />
		<tag k="ssr:date" v="2019-12-27" />
		<tag k="ssr:gruppe" v="kystkontur" />
		<tag k="ssr:hovedgruppe" v="sjø" />
		<tag k="ssr:stedsnr" v="533926" />
		<tag k="ssr:type" v="nesISjø" />
	</node>
	<node lat="70.69037224701103" lon="29.381840596746663" id="-39012">
		<tag k="name" v="Frantzenbukta" />
		<tag k="natural" v="bay" />
		<tag k="ssr:date" v="2019-12-27" />
		<tag k="ssr:gruppe" v="kystkontur" />
		<tag k="ssr:hovedgruppe" v="sjø" />
		<tag k="ssr:stedsnr" v="533927" />
		<tag k="ssr:type" v="vikISjø" />
	</node>
	<node lat="70.73083335823901" lon="29.368479512715766" id="-39013">
		<tag k="name" v="Storvika" />
		<tag k="natural" v="bay" />
		<tag k="ssr:date" v="2019-12-27" />
		<tag k="ssr:gruppe" v="kystkontur" />
		<tag k="ssr:hovedgruppe" v="sjø" />
		<tag k="ssr:stedsnr" v="565390" />
		<tag k="ssr:type" v="vikISjø" />
	</node>
	<node lat="70.68194446411495" lon="28.638785295634037" id="-39014">
		<tag k="name" v="Klippen - Bákti" />
		<tag k="name:no" v="Klippen" />
		<tag k="name:se" v="Bákti" />
		<tag k="natural" v="hill" />
		<tag k="old_name:se" v="Bakti" />
		<tag k="place" v="locality" />
		<tag k="ssr:date" v="2019-12-27" />
		<tag k="ssr:gruppe" v="høyder" />
		<tag k="ssr:hovedgruppe" v="terreng" />
		<tag k="ssr:stedsnr" v="565332" />
		<tag k="ssr:type" v="berg" />
	</node>
	<node lat="70.68491668755603" lon="28.689824190884615" id="-39015">
		<tag k="fixme" v="consider natural=peak for the most distinct mountains in the district" />
		<tag k="name" v="Gåsfjellet" />
		<tag k="natural" v="hill" />
		<tag k="place" v="locality" />
		<tag k="ssr:date" v="2019-12-27" />
		<tag k="ssr:gruppe" v="høyder" />
		<tag k="ssr:hovedgruppe" v="terreng" />
		<tag k="ssr:stedsnr" v="565334" />
		<tag k="ssr:type" v="ås" />
	</node>
	<node lat="70.72486113625575" lon="28.77119638087094" id="-39016">
		<tag k="name" v="Rákkojalggáš" />
		<tag k="name:se" v="Rákkojalggáš" />
		<tag k="old_name:se" v="Raggujalgaš" />
		<tag k="place" v="locality" />
		<tag k="ssr:date" v="2019-12-27" />
		<tag k="ssr:gruppe" v="flater" />
		<tag k="ssr:hovedgruppe" v="terreng" />
		<tag k="ssr:stedsnr" v="565349" />
		<tag k="ssr:type" v="slette" />
	</node>
	<node lat="70.82475557408522" lon="29.23046291937855" id="-39017">
		<tag k="name" v="Øster-Styrelva" />
		<tag k="ssr:date" v="2021-06-08" />
		<tag k="ssr:gruppe" v="rennendeVann" />
		<tag k="ssr:hovedgruppe" v="ferskvann" />
		<tag k="ssr:stedsnr" v="566978" />
		<tag k="ssr:type" v="elv" />
		<tag k="waterway" v="river" />
	</node>
	<node lat="70.4779694984812" lon="30.901573022960466" id="-39018">
		<tag k="alt_name" v="Østhavet" />
		<tag k="name" v="Austhavet" />
		<tag k="place" v="sea" />
		<tag k="ssr:date" v="2019-12-27" />
		<tag k="ssr:gruppe" v="farvann" />
		<tag k="ssr:hovedgruppe" v="sjø" />
		<tag k="ssr:stedsnr" v="565913" />
		<tag k="ssr:type" v="havområde" />
	</node>
	<node lat="70.47912503091662" lon="29.17876561954767" id="-39019">
		<tag k="name" v="Njoaskejávri" />
		<tag k="name:se" v="Njoaskejávri" />
		<tag k="natural" v="water" />
		<tag k="old_name:se" v="Njoaskejavri" />
		<tag k="ssr:date" v="2019-12-27" />
		<tag k="ssr:gruppe" v="stilleståendeVann" />
		<tag k="ssr:hovedgruppe" v="ferskvann" />
		<tag k="ssr:stedsnr" v="565950" />
		<tag k="ssr:type" v="tjern" />
	</node>
	<node lat="70.66398891721165" lon="29.032099060665008" id="-39020">
		<tag k="name" v="Sauedalen" />
		<tag k="natural" v="valley" />
		<tag k="place" v="locality" />
		<tag k="ssr:date" v="2019-12-27" />
		<tag k="ssr:gruppe" v="senkninger" />
		<tag k="ssr:hovedgruppe" v="terreng" />
		<tag k="ssr:stedsnr" v="566415" />
		<tag k="ssr:type" v="dal" />
	</node>
	<node lat="70.64992780559831" lon="29.08647125457685" id="-39021">
		<tag k="alt_name:no" v="Kløftvatnet, store" />
		<tag k="name" v="Store Kløftvatnet - Stuorra Loapmejávri" />
		<tag k="name:no" v="Store Kløftvatnet" />
		<tag k="name:se" v="Stuorra Loapmejávri" />
		<tag k="natural" v="water" />
		<tag k="old_name:se" v="Loabmejavri stuorra" />
		<tag k="ssr:date" v="2019-12-27" />
		<tag k="ssr:gruppe" v="stilleståendeVann" />
		<tag k="ssr:hovedgruppe" v="ferskvann" />
		<tag k="ssr:stedsnr" v="566385" />
		<tag k="ssr:type" v="vann" />
		<tag k="water" v="lake" />
	</node>
	<node lat="70.60667780153716" lon="29.108268449719954" id="-39022">
		<tag k="name" v="Tranga" />
		<tag k="natural" v="gorge" />
		<tag k="ssr:date" v="2019-12-27" />
		<tag k="ssr:gruppe" v="senkninger" />
		<tag k="ssr:hovedgruppe" v="terreng" />
		<tag k="ssr:stedsnr" v="566394" />
		<tag k="ssr:type" v="juv" />
	</node>
	<node lat="70.69863336019331" lon="29.302096196715834" id="-39023">
		<tag k="alt_name" v="Småvatnan" />
		<tag k="name" v="Småtjerna" />
		<tag k="natural" v="water" />
		<tag k="ssr:date" v="2019-12-27" />
		<tag k="ssr:gruppe" v="stilleståendeVann" />
		<tag k="ssr:hovedgruppe" v="ferskvann" />
		<tag k="ssr:stedsnr" v="566397" />
		<tag k="ssr:type" v="gruppeAvTjern" />
		<tag k="water" v="lake" />
	</node>
	<node lat="70.68490002477407" lon="29.154971252374935" id="-39024">
		<tag k="fixme" v="consider natural=peak for the most distinct mountains in the district" />
		<tag k="name" v="Nikko-Per-fjellet" />
		<tag k="natural" v="hill" />
		<tag k="place" v="locality" />
		<tag k="ssr:date" v="2021-06-08" />
		<tag k="ssr:gruppe" v="høyder" />
		<tag k="ssr:hovedgruppe" v="terreng" />
		<tag k="ssr:stedsnr" v="566404" />
		<tag k="ssr:type" v="fjell" />
	</node>
	<node lat="70.67250002441699" lon="29.271393422109156" id="-39025">
		<tag k="name" v="Vesterbotn - Sarvvesvuotna" />
		<tag k="name:no" v="Vesterbotn" />
		<tag k="name:se" v="Sarvvesvuotna" />
		<tag k="natural" v="bay" />
		<tag k="old_name:se" v="Sarvesvuodna" />
		<tag k="ssr:date" v="2019-12-27" />
		<tag k="ssr:gruppe" v="kystkontur" />
		<tag k="ssr:hovedgruppe" v="sjø" />
		<tag k="ssr:stedsnr" v="566416" />
		<tag k="ssr:type" v="vikISjø" />
	</node>
	<node lat="70.68932780682148" lon="29.45622390123409" id="-39026">
		<tag k="name" v="Bjørnvikelva" />
		<tag k="ssr:date" v="2019-12-27" />
		<tag k="ssr:gruppe" v="rennendeVann" />
		<tag k="ssr:hovedgruppe" v="ferskvann" />
		<tag k="ssr:stedsnr" v="566489" />
		<tag k="ssr:type" v="bekk" />
		<tag k="waterway" v="stream" />
	</node>
	<node lat="70.5460555824529" lon="29.150879521899924" id="-39027">
		<tag k="alt_name" v="Magistervatnet, l" />
		<tag k="name" v="Lille Magistervatnet" />
		<tag k="natural" v="water" />
		<tag k="ssr:date" v="2019-12-27" />
		<tag k="ssr:gruppe" v="stilleståendeVann" />
		<tag k="ssr:hovedgruppe" v="ferskvann" />
		<tag k="ssr:stedsnr" v="566495" />
		<tag k="ssr:type" v="tjern" />
	</node>
	<node lat="70.72889169786909" lon="29.680248816377294" id="-39028">
		<tag k="fixme" v="consider natural=peak for the most distinct mountains in the district" />
		<tag k="name" v="Tindan" />
		<tag k="natural" v="hill" />
		<tag k="place" v="locality" />
		<tag k="ssr:date" v="2019-12-27" />
		<tag k="ssr:gruppe" v="høyder" />
		<tag k="ssr:hovedgruppe" v="terreng" />
		<tag k="ssr:stedsnr" v="566500" />
		<tag k="ssr:type" v="fjell" />
	</node>
	<node lat="70.91287224658572" lon="29.10182966146032" id="-39029">
		<tag k="name" v="Skallen" />
		<tag k="natural" v="shoal" />
		<tag k="place" v="locality" />
		<tag k="ssr:date" v="2019-12-27" />
		<tag k="ssr:gruppe" v="grunnerISjø" />
		<tag k="ssr:hovedgruppe" v="sjø" />
		<tag k="ssr:stedsnr" v="566949" />
		<tag k="ssr:type" v="grunneISjø" />
	</node>
	<node lat="70.87917501950854" lon="29.065649109591106" id="-39030">
		<tag k="fixme" v="consider seamark:type=rock or natural=shoal" />
		<tag k="name" v="Rundskjeret" />
		<tag k="place" v="islet" />
		<tag k="ssr:date" v="2019-12-27" />
		<tag k="ssr:gruppe" v="grunnerISjø" />
		<tag k="ssr:hovedgruppe" v="sjø" />
		<tag k="ssr:stedsnr" v="566952" />
		<tag k="ssr:type" v="skjærISjø" />
	</node>
	<node lat="70.78930558169212" lon="29.302807327236053" id="-39031">
		<tag k="loc_name:se" v="Loahkkeviika" />
		<tag k="name" v="Løkvika" />
		<tag k="name:no" v="Løkvika" />
		<tag k="natural" v="bay" />
		<tag k="ssr:date" v="2021-10-05" />
		<tag k="ssr:gruppe" v="kystkontur" />
		<tag k="ssr:hovedgruppe" v="sjø" />
		<tag k="ssr:stedsnr" v="566990" />
		<tag k="ssr:type" v="vikISjø" />
	</node>
	<node lat="70.76273057566192" lon="29.204968469802612" id="-39032">
		<tag k="name" v="Meresjávri" />
		<tag k="name:se" v="Meresjávri" />
		<tag k="natural" v="water" />
		<tag k="old_name:se" v="Meresjavri" />
		<tag k="ssr:date" v="2019-12-27" />
		<tag k="ssr:gruppe" v="stilleståendeVann" />
		<tag k="ssr:hovedgruppe" v="ferskvann" />
		<tag k="ssr:stedsnr" v="566999" />
		<tag k="ssr:type" v="tjern" />
	</node>
	<node lat="70.6698861369726" lon="29.37800449147081" id="-39033">
		<tag k="name" v="Øyeelva" />
		<tag k="ssr:date" v="2019-12-27" />
		<tag k="ssr:gruppe" v="rennendeVann" />
		<tag k="ssr:hovedgruppe" v="ferskvann" />
		<tag k="ssr:stedsnr" v="571537" />
		<tag k="ssr:type" v="bekk" />
		<tag k="waterway" v="stream" />
	</node>
	<node lat="70.86110835040685" lon="29.1207879804699" id="-39034">
		<tag k="name" v="Storelvfallet" />
		<tag k="natural" v="shoal" />
		<tag k="place" v="locality" />
		<tag k="ssr:date" v="2019-12-27" />
		<tag k="ssr:gruppe" v="grunnerISjø" />
		<tag k="ssr:hovedgruppe" v="sjø" />
		<tag k="ssr:stedsnr" v="571945" />
		<tag k="ssr:type" v="grunneISjø" />
	</node>
	<node lat="70.85441668608982" lon="29.16471017517919" id="-39035">
		<tag k="name" v="Vargvikgrunnen" />
		<tag k="natural" v="shoal" />
		<tag k="place" v="locality" />
		<tag k="ssr:date" v="2019-12-27" />
		<tag k="ssr:gruppe" v="grunnerISjø" />
		<tag k="ssr:hovedgruppe" v="sjø" />
		<tag k="ssr:stedsnr" v="571948" />
		<tag k="ssr:type" v="grunneISjø" />
	</node>
	<node lat="70.68560280051989" lon="29.25240731112843" id="-39036">
		<tag k="name" v="Nikko-Per-høgda" />
		<tag k="natural" v="hill" />
		<tag k="place" v="locality" />
		<tag k="ssr:date" v="2021-06-08" />
		<tag k="ssr:gruppe" v="høyder" />
		<tag k="ssr:hovedgruppe" v="terreng" />
		<tag k="ssr:stedsnr" v="572223" />
		<tag k="ssr:type" v="høyde" />
	</node>
	<node lat="70.85539446297884" lon="28.0911799349927" id="-39037">
		<tag k="fixme" v="consider natural=peak for the most distinct mountains in the district" />
		<tag k="name" v="Storvarden" />
		<tag k="natural" v="hill" />
		<tag k="place" v="locality" />
		<tag k="ssr:date" v="2021-06-08" />
		<tag k="ssr:gruppe" v="høyder" />
		<tag k="ssr:hovedgruppe" v="terreng" />
		<tag k="ssr:stedsnr" v="572228" />
		<tag k="ssr:type" v="topp" />
	</node>
	<node lat="70.74166669128847" lon="29.449998926607666" id="-39038">
		<tag k="name" v="Helløysteinen" />
		<tag k="natural" v="shoal" />
		<tag k="place" v="locality" />
		<tag k="ssr:date" v="2021-06-08" />
		<tag k="ssr:gruppe" v="grunnerISjø" />
		<tag k="ssr:hovedgruppe" v="sjø" />
		<tag k="ssr:stedsnr" v="573173" />
		<tag k="ssr:type" v="grunneISjø" />
	</node>
	<node lat="70.85054724069084" lon="29.143493525182848" id="-39039">
		<tag k="name" v="Lille Vargvika" />
		<tag k="natural" v="bay" />
		<tag k="ssr:date" v="2019-12-27" />
		<tag k="ssr:gruppe" v="kystkontur" />
		<tag k="ssr:hovedgruppe" v="sjø" />
		<tag k="ssr:stedsnr" v="578231" />
		<tag k="ssr:type" v="vikISjø" />
	</node>
	<node lat="70.85297224031085" lon="29.0563213106373" id="-39040">
		<tag k="name" v="Breidalen" />
		<tag k="natural" v="valley" />
		<tag k="place" v="locality" />
		<tag k="ssr:date" v="2019-12-27" />
		<tag k="ssr:gruppe" v="senkninger" />
		<tag k="ssr:hovedgruppe" v="terreng" />
		<tag k="ssr:stedsnr" v="578255" />
		<tag k="ssr:type" v="dal" />
	</node>
	<node lat="70.83340001886204" lon="29.018804656888864" id="-39041">
		<tag k="fixme" v="consider natural=peak for the most distinct mountains in the district" />
		<tag k="name" v="Stortufjellet" />
		<tag k="natural" v="hill" />
		<tag k="place" v="locality" />
		<tag k="ssr:date" v="2019-12-27" />
		<tag k="ssr:gruppe" v="høyder" />
		<tag k="ssr:hovedgruppe" v="terreng" />
		<tag k="ssr:stedsnr" v="592746" />
		<tag k="ssr:type" v="fjell" />
	</node>
	<node lat="70.73218891493075" lon="29.36689618017513" id="-39042">
		<tag k="name" v="Storvikodden" />
		<tag k="natural" v="cape" />
		<tag k="ssr:date" v="2019-12-27" />
		<tag k="ssr:gruppe" v="kystkontur" />
		<tag k="ssr:hovedgruppe" v="sjø" />
		<tag k="ssr:stedsnr" v="592947" />
		<tag k="ssr:type" v="nesISjø" />
	</node>
	<node lat="70.67051947435549" lon="29.28221841526971" id="-39043">
		<tag k="fixme" v="consider seamark:type=rock or natural=shoal" />
		<tag k="name" v="Skarvholmen" />
		<tag k="place" v="islet" />
		<tag k="ssr:date" v="2019-12-27" />
		<tag k="ssr:gruppe" v="grunnerISjø" />
		<tag k="ssr:hovedgruppe" v="sjø" />
		<tag k="ssr:stedsnr" v="593881" />
		<tag k="ssr:type" v="skjærISjø" />
	</node>
	<node lat="70.57242224546212" lon="29.229301738455852" id="-39044">
		<tag k="fixme" v="consider natural=peak for the most distinct mountains in the district" />
		<tag k="name" v="Magerfjellet - Silesvárri" />
		<tag k="name:no" v="Magerfjellet" />
		<tag k="name:se" v="Silesvárri" />
		<tag k="natural" v="hill" />
		<tag k="old_name:se" v="Silesvarri" />
		<tag k="place" v="locality" />
		<tag k="ssr:date" v="2019-12-27" />
		<tag k="ssr:gruppe" v="høyder" />
		<tag k="ssr:hovedgruppe" v="terreng" />
		<tag k="ssr:stedsnr" v="626518" />
		<tag k="ssr:type" v="ås" />
	</node>
	<node lat="70.56817502906172" lon="28.99871016343481" id="-39045">
		<tag k="name" v="Store Buevannet - Stuorra Dávgejávri" />
		<tag k="name:no" v="Store Buevannet" />
		<tag k="name:se" v="Stuorra Dávgejávri" />
		<tag k="natural" v="water" />
		<tag k="old_name:se" v="Davgejavri stuorra" />
		<tag k="ssr:date" v="2019-12-27" />
		<tag k="ssr:gruppe" v="stilleståendeVann" />
		<tag k="ssr:hovedgruppe" v="ferskvann" />
		<tag k="ssr:stedsnr" v="626519" />
		<tag k="ssr:type" v="vann" />
		<tag k="water" v="lake" />
	</node>
</osm>
