<?xml version="1.0" encoding="UTF-8"?>
<osm version="0.6" generator="osmapis">
	<node lat="70.85305245429" lon="29.235682503403794" id="-102856">
		<tag k="name" v="Kjølneset" />
		<tag k="old_name" v="Kjølnes fyr" />
		<tag k="ssr:date" v="2020-11-10" />
		<tag k="ssr:gruppe" v="navigasjon" />
		<tag k="ssr:hovedgruppe" v="infrastruktur" />
		<tag k="ssr:stedsnr" v="323980" />
		<tag k="ssr:type" v="fyrlykt" />
	</node>
	<node lat="70.85810002161728" lon="29.08485186267621" id="-102907">
		<tag k="name" v="Berlevåg kommune" />
		<tag k="ssr:date" v="2019-12-27" />
		<tag k="ssr:gruppe" v="administrativeIndelinger" />
		<tag k="ssr:hovedgruppe" v="offentligAdministrasjon" />
		<tag k="ssr:stedsnr" v="694034" />
		<tag k="ssr:type" v="kommune" />
	</node>
	<node lat="70.71294692647798" lon="29.295023951280147" id="-102975">
		<tag k="name" v="Kobbkroken" />
		<tag k="ssr:date" v="2020-11-26" />
		<tag k="ssr:gruppe" v="navigasjon" />
		<tag k="ssr:hovedgruppe" v="infrastruktur" />
		<tag k="ssr:stedsnr" v="930434" />
		<tag k="ssr:type" v="fyrlykt" />
	</node>
	<node lat="70.88528098070198" lon="28.966464867327662" id="-103113">
		<tag k="name" v="Skarveneset" />
		<tag k="ssr:date" v="2020-11-10" />
		<tag k="ssr:gruppe" v="navigasjon" />
		<tag k="ssr:hovedgruppe" v="infrastruktur" />
		<tag k="ssr:stedsnr" v="323964" />
		<tag k="ssr:type" v="fyrlykt" />
	</node>
	<node lat="70.8540914089679" lon="29.08335794639678" id="-103328">
		<tag k="name" v="Iversens veg" />
		<tag k="ssr:date" v="2019-12-27" />
		<tag k="ssr:gruppe" v="veg" />
		<tag k="ssr:hovedgruppe" v="infrastruktur" />
		<tag k="ssr:stedsnr" v="1055225" />
		<tag k="ssr:type" v="adressenavn" />
	</node>
	<node lat="70.85677481973826" lon="29.087050240462005" id="-103329">
		<tag k="name" v="Arkitekt Adlers gate" />
		<tag k="ssr:date" v="2019-12-27" />
		<tag k="ssr:gruppe" v="veg" />
		<tag k="ssr:hovedgruppe" v="infrastruktur" />
		<tag k="ssr:stedsnr" v="1055226" />
		<tag k="ssr:type" v="adressenavn" />
	</node>
	<node lat="70.85342823508982" lon="29.079859867555168" id="-103330">
		<tag k="name" v="Aga Larsens vei" />
		<tag k="ssr:date" v="2019-12-27" />
		<tag k="ssr:gruppe" v="veg" />
		<tag k="ssr:hovedgruppe" v="infrastruktur" />
		<tag k="ssr:stedsnr" v="1055227" />
		<tag k="ssr:type" v="adressenavn" />
	</node>
</osm>
