<?xml version="1.0" encoding="UTF-8"?>
<<<<<<< HEAD
<osm version="0.6" generator="osmapis">
	<node lat="65.57817500032232" lon="12.391713888488967" id="-6630">
		<tag k="alt_name" v="Anddalsvågen" />
=======
<osm generator="osmapis" version="0.6">
	<node id="-129503" lat="65.5781750003" lon="12.3917138885">
		<tag k="alt_name" v="Anddalsvågen" />
		<tag k="amenity" v="ferry_terminal" />
		<tag k="name" v="Andalsvågen" />
		<tag k="ssr:stedsnr" v="145525" />
	</node>
	<node id="-129979" lat="65.7216638924" lon="12.4511777827">
		<tag k="man_made" v="quay" />
		<tag k="name" v="Vågsodden fergekai" />
		<tag k="place" v="locality" />
		<tag k="ssr:stedsnr" v="167581" />
	</node>
	<node id="-130170" lat="65.6910361148" lon="12.3702166693">
		<tag k="man_made" v="quay" />
		<tag k="name" v="D/S-kai Hestun" />
		<tag k="place" v="locality" />
		<tag k="ssr:stedsnr" v="592581" />
	</node>
	<node id="-130133" lat="65.6810805593" lon="12.4214916567">
		<tag k="fixme" v="consider highway=path" />
		<tag k="highway" v="track" />
		<tag k="name" v="Sankarvegen" />
		<tag k="ssr:stedsnr" v="532654" />
	</node>
	<node id="-129774" lat="65.6478916664" lon="12.3729361192">
		<tag k="man_made" v="quay" />
		<tag k="name" v="Nord-Høyholmsyen" />
		<tag k="place" v="locality" />
		<tag k="ssr:stedsnr" v="775713" />
	</node>
	<node id="-130161" lat="65.7127051503" lon="12.4590909907">
>>>>>>> e1d4bc35ff8a6074a6f2e91616a996b547c36f15
		<tag k="amenity" v="ferry_terminal" />
		<tag k="name" v="Andalsvågen" />
		<tag k="ssr:stedsnr" v="145525" />
	</node>
	<node lat="65.75026389252847" lon="12.582680565524058" id="-6673">
		<tag k="fixme" v="consider highway=path" />
		<tag k="highway" v="track" />
		<tag k="name" v="Sjursmovegen" />
		<tag k="ssr:stedsnr" v="228432" />
	</node>
<<<<<<< HEAD
	<node lat="65.64754999718419" lon="12.372838894619605" id="-6710">
=======
	<node id="-129520" lat="65.6475499972" lon="12.3728388946">
>>>>>>> e1d4bc35ff8a6074a6f2e91616a996b547c36f15
		<tag k="man_made" v="breakwater" />
		<tag k="name" v="Moloen" />
		<tag k="place" v="locality" />
		<tag k="ssr:stedsnr" v="289784" />
	</node>
<<<<<<< HEAD
	<node lat="65.75919721861956" lon="12.574669449268141" id="-6839">
=======
	<node id="-130126" lat="65.7591972186" lon="12.5746694493">
>>>>>>> e1d4bc35ff8a6074a6f2e91616a996b547c36f15
		<tag k="highway" v="path" />
		<tag k="name" v="Steinvegen" />
		<tag k="ssr:stedsnr" v="531430" />
	</node>
<<<<<<< HEAD
	<node lat="65.71270515032127" lon="12.4590909906775" id="-6855">
		<tag k="amenity" v="ferry_terminal" />
		<tag k="name" v="Forvika" />
		<tag k="ssr:stedsnr" v="571112" />
	</node>
	<node lat="65.59603611123201" lon="12.370422224525583" id="-6931">
=======
	<node id="-129449" lat="65.7502638925" lon="12.5826805655">
		<tag k="fixme" v="consider highway=path" />
		<tag k="highway" v="track" />
		<tag k="name" v="Sjursmovegen" />
		<tag k="ssr:stedsnr" v="228432" />
	</node>
	<node id="-130276" lat="65.5960361112" lon="12.3704222245">
>>>>>>> e1d4bc35ff8a6074a6f2e91616a996b547c36f15
		<tag k="highway" v="path" />
		<tag k="name" v="Stia" />
		<tag k="ssr:stedsnr" v="775819" />
	</node>
<<<<<<< HEAD
	<node lat="65.6478916663603" lon="12.372936119205358" id="-6933">
		<tag k="man_made" v="quay" />
		<tag k="name" v="Nord-Høyholmsyen" />
		<tag k="place" v="locality" />
		<tag k="ssr:stedsnr" v="775713" />
	</node>
	<node lat="65.74946389062424" lon="12.580038893605217" id="-7085">
=======
	<node id="-129921" lat="65.7494638906" lon="12.5800388936">
>>>>>>> e1d4bc35ff8a6074a6f2e91616a996b547c36f15
		<tag k="fixme" v="consider highway=path" />
		<tag k="highway" v="track" />
		<tag k="name" v="Gammelvegen" />
		<tag k="ssr:stedsnr" v="107397" />
	</node>
<<<<<<< HEAD
	<node lat="65.72166389240179" lon="12.451177782679302" id="-7120">
		<tag k="man_made" v="quay" />
		<tag k="name" v="Vågsodden fergekai" />
		<tag k="place" v="locality" />
		<tag k="ssr:stedsnr" v="167581" />
	</node>
	<node lat="65.68108055926864" lon="12.421491656704617" id="-7289">
		<tag k="fixme" v="consider highway=path" />
		<tag k="highway" v="track" />
		<tag k="name" v="Sankarvegen" />
		<tag k="ssr:stedsnr" v="532654" />
	</node>
	<node lat="65.69103611482636" lon="12.370216669323867" id="-7327">
		<tag k="man_made" v="quay" />
		<tag k="name" v="D/S-kai Hestun" />
		<tag k="place" v="locality" />
		<tag k="ssr:stedsnr" v="592581" />
	</node>
=======
>>>>>>> e1d4bc35ff8a6074a6f2e91616a996b547c36f15
</osm>
