<?xml version="1.0" encoding="UTF-8"?>
<osm version="0.6" generator="osmapis">
	<node lat="65.67977499619084" lon="12.316572221300522" id="-13589">
		<tag k="name" v="Vestervikja" />
		<tag k="natural" v="bay" />
		<tag k="ssr:stedsnr" v="229643" />
	</node>
	<node lat="65.68247777370176" lon="12.329030546647704" id="-13590">
		<tag k="fixme" v="consider seamark:type=rock or natural=shoal" />
		<tag k="name" v="Hamnskjæran" />
		<tag k="place" v="islet" />
		<tag k="ssr:stedsnr" v="229644" />
	</node>
	<node lat="65.7051111156318" lon="12.445149992190904" id="-13593">
		<tag k="name" v="Lensmannsodden" />
		<tag k="natural" v="cape" />
		<tag k="ssr:stedsnr" v="15009" />
	</node>
	<node lat="65.6447527759734" lon="12.367424991959675" id="-13598">
		<tag k="name" v="Husholmen" />
		<tag k="natural" v="cape" />
		<tag k="ssr:stedsnr" v="15115" />
	</node>
	<node lat="65.78067777811675" lon="12.57500000823518" id="-13606">
		<tag k="alt_name" v="Stokkefjorden" />
		<tag k="bay" v="fjord" />
		<tag k="name" v="Stokkafjorden" />
		<tag k="natural" v="bay" />
		<tag k="ssr:stedsnr" v="16023" />
	</node>
	<node lat="65.71595832974164" lon="12.465200006419968" id="-13615">
		<tag k="name" v="Nordvikja" />
		<tag k="natural" v="bay" />
		<tag k="ssr:stedsnr" v="46584" />
	</node>
	<node lat="65.63755000269045" lon="12.360286115537507" id="-13617">
		<tag k="name" v="Sør-Høyholmsyen" />
		<tag k="natural" v="bay" />
		<tag k="ssr:stedsnr" v="46808" />
	</node>
	<node lat="65.68592777886164" lon="12.347063879766957" id="-13622">
		<tag k="name" v="Festvika" />
		<tag k="natural" v="bay" />
		<tag k="ssr:stedsnr" v="76056" />
	</node>
	<node lat="65.7153249959048" lon="12.414858330246158" id="-13627">
		<tag k="alt_name" v="Sørjonsvika" />
		<tag k="name" v="Sør-Jonsvikja" />
		<tag k="natural" v="bay" />
		<tag k="ssr:stedsnr" v="76256" />
	</node>
	<node lat="65.68215833303313" lon="12.336047223566288" id="-13646">
		<tag k="alt_name" v="Steinvika" />
		<tag k="name" v="Steinvikja" />
		<tag k="natural" v="bay" />
		<tag k="ssr:stedsnr" v="136064" />
	</node>
	<node lat="65.65736388900588" lon="12.642058322544443" id="-13649">
		<tag k="name" v="Aussundet" />
		<tag k="natural" v="strait" />
		<tag k="ssr:stedsnr" v="136103" />
	</node>
	<node lat="65.73517499584035" lon="12.52699999926043" id="-13651">
		<tag k="name" v="Lislurdvika" />
		<tag k="natural" v="bay" />
		<tag k="ssr:stedsnr" v="136251" />
	</node>
	<node lat="65.66390833429332" lon="12.615175003482722" id="-13657">
		<tag k="name" v="Strandbukta" />
		<tag k="natural" v="bay" />
		<tag k="ssr:stedsnr" v="257081" />
	</node>
	<node lat="65.69991111022459" lon="12.633088887879858" id="-13662">
		<tag k="name" v="Storvika" />
		<tag k="natural" v="bay" />
		<tag k="ssr:stedsnr" v="258050" />
	</node>
	<node lat="65.66272499591892" lon="12.369105552835983" id="-13666">
		<tag k="fixme" v="consider seamark:type=rock or natural=shoal" />
		<tag k="name" v="Sørskjæran" />
		<tag k="place" v="islet" />
		<tag k="ssr:stedsnr" v="258086" />
	</node>
	<node lat="65.71395833347593" lon="12.440341665240908" id="-13671">
		<tag k="alt_name" v="Kolbeinvika" />
		<tag k="name" v="Kolbeinsvikja" />
		<tag k="natural" v="bay" />
		<tag k="ssr:stedsnr" v="258244" />
	</node>
	<node lat="65.58537222650062" lon="12.403130552916227" id="-13675">
		<tag k="alt_name" v="Urdvika" />
		<tag k="name" v="Urdvikja" />
		<tag k="natural" v="bay" />
		<tag k="ssr:stedsnr" v="258889" />
	</node>
	<node lat="65.63295555812954" lon="12.746927777485988" id="-13676">
		<tag k="name" v="Straumsneset" />
		<tag k="natural" v="cape" />
		<tag k="ssr:stedsnr" v="258829" />
	</node>
	<node lat="65.65165555414578" lon="12.639541658811206" id="-13683">
		<tag k="name" v="Osen" />
		<tag k="natural" v="bay" />
		<tag k="ssr:stedsnr" v="168772" />
	</node>
	<node lat="65.6862416697408" lon="12.595116670496624" id="-13685">
		<tag k="name" v="Langkilfjorden" />
		<tag k="natural" v="bay" />
		<tag k="ssr:stedsnr" v="173257" />
	</node>
	<node lat="65.75322500306862" lon="12.53752499702858" id="-13686">
		<tag k="name" v="Kalvhyllodden" />
		<tag k="natural" v="cape" />
		<tag k="ssr:stedsnr" v="197103" />
	</node>
	<node lat="65.72328333027487" lon="12.479280551809852" id="-13689">
		<tag k="fixme" v="multiple name tags, choose one and add the other to alt_name" />
		<tag k="name" v="Dalvikran;Vikran" />
		<tag k="natural" v="bay" />
		<tag k="ssr:stedsnr" v="197260" />
	</node>
	<node lat="65.64548333065595" lon="12.727024990420352" id="-13692">
		<tag k="name" v="Hallervika" />
		<tag k="natural" v="bay" />
		<tag k="ssr:stedsnr" v="197865" />
	</node>
	<node lat="65.7082277769943" lon="12.401141674965364" id="-13694">
		<tag k="alt_name" v="Djupvika" />
		<tag k="name" v="Juvikja" />
		<tag k="natural" v="bay" />
		<tag k="ssr:stedsnr" v="198207" />
	</node>
	<node lat="65.71020833264835" lon="12.434922232625862" id="-13702">
		<tag k="name" v="Neset" />
		<tag k="natural" v="cape" />
		<tag k="ssr:stedsnr" v="228514" />
	</node>
	<node lat="65.66772500000295" lon="12.311099990245165" id="-13710">
		<tag k="name" v="Nakkan" />
		<tag k="natural" v="cape" />
		<tag k="ssr:stedsnr" v="229631" />
	</node>
	<node lat="65.70209722560722" lon="12.62415834222644" id="-13729">
		<tag k="name" v="Aunholmen" />
		<tag k="natural" v="bay" />
		<tag k="ssr:stedsnr" v="274888" />
	</node>
	<node lat="65.7313055567049" lon="12.489424995172183" id="-13732">
		<tag k="name" v="Nordstranda" />
		<tag k="natural" v="beach" />
		<tag k="ssr:stedsnr" v="289431" />
	</node>
	<node lat="65.69323333410456" lon="12.376608328559865" id="-13734">
		<tag k="name" v="Innerholmen" />
		<tag k="natural" v="cape" />
		<tag k="ssr:stedsnr" v="289594" />
	</node>
	<node lat="65.70701388779591" lon="12.586166674341282" id="-13739">
		<tag k="name" v="Aspvika" />
		<tag k="natural" v="bay" />
		<tag k="ssr:stedsnr" v="318003" />
	</node>
	<node lat="65.71891111515959" lon="12.425352788663995" id="-13742">
		<tag k="fixme" v="multiple name tags, choose one and add the other to alt_name" />
		<tag k="name" v="Nord-Jonsvikja;Jonsvika" />
		<tag k="natural" v="bay" />
		<tag k="ssr:stedsnr" v="318219" />
	</node>
	<node lat="65.73370000068135" lon="12.493500008786826" id="-13748">
		<tag k="name" v="Vistnesvika" />
		<tag k="natural" v="bay" />
		<tag k="ssr:stedsnr" v="318201" />
	</node>
	<node lat="65.73983610978351" lon="12.562552768506537" id="-13757">
		<tag k="name" v="Bjørnstadodden" />
		<tag k="natural" v="cape" />
		<tag k="ssr:stedsnr" v="471494" />
	</node>
	<node lat="65.69893055745449" lon="12.432063891676723" id="-13759">
		<tag k="fixme" v="consider seamark:type=rock or natural=shoal" />
		<tag k="name" v="Bekkaskjæret" />
		<tag k="place" v="islet" />
		<tag k="ssr:stedsnr" v="471594" />
	</node>
	<node lat="65.69648611285932" lon="12.43148611324456" id="-13760">
		<tag k="name" v="Osen" />
		<tag k="natural" v="bay" />
		<tag k="ssr:stedsnr" v="471595" />
	</node>
	<node lat="65.71938055299576" lon="12.473138886679259" id="-13762">
		<tag k="name" v="Korsvikja" />
		<tag k="natural" v="bay" />
		<tag k="ssr:stedsnr" v="471534" />
	</node>
	<node lat="65.71241666989958" lon="12.458183337126696" id="-13764">
		<tag k="name" v="Hereskjegget" />
		<tag k="natural" v="cape" />
		<tag k="ssr:stedsnr" v="471541" />
	</node>
	<node lat="65.67138332911955" lon="12.643513881267092" id="-13768">
		<tag k="name" v="Skjellneset" />
		<tag k="natural" v="cape" />
		<tag k="ssr:stedsnr" v="471755" />
	</node>
	<node lat="65.62845555784297" lon="12.348908344401064" id="-13769">
		<tag k="name" v="Rotvika" />
		<tag k="natural" v="bay" />
		<tag k="ssr:stedsnr" v="471815" />
	</node>
	<node lat="65.57751666510866" lon="12.391588896202018" id="-13770">
		<tag k="fixme" v="consider seamark:type=rock or natural=shoal" />
		<tag k="name" v="Skjæret" />
		<tag k="place" v="islet" />
		<tag k="ssr:stedsnr" v="471849" />
	</node>
	<node lat="65.58058055174519" lon="12.381219448679976" id="-13773">
		<tag k="name" v="Høyvikja" />
		<tag k="natural" v="bay" />
		<tag k="ssr:stedsnr" v="350810" />
	</node>
	<node lat="65.65204444905889" lon="12.61306665987993" id="-13776">
		<tag k="alt_name" v="Hestvika" />
		<tag k="name" v="Hestvikja" />
		<tag k="natural" v="bay" />
		<tag k="ssr:stedsnr" v="379114" />
	</node>
	<node lat="65.73470833463558" lon="12.494638896314354" id="-13782">
		<tag k="name" v="Hundslorten" />
		<tag k="natural" v="cape" />
		<tag k="ssr:stedsnr" v="379215" />
	</node>
	<node lat="65.72557500142162" lon="12.559825002919457" id="-13784">
		<tag k="name" v="Riskamodden" />
		<tag k="natural" v="cape" />
		<tag k="ssr:stedsnr" v="379233" />
	</node>
	<node lat="65.62981666897934" lon="12.754283339598453" id="-13788">
		<tag k="name" v="Aspvika" />
		<tag k="natural" v="bay" />
		<tag k="ssr:stedsnr" v="379775" />
	</node>
	<node lat="65.64483055307221" lon="12.646558328560559" id="-13789">
		<tag k="alt_name" v="Urdvika" />
		<tag k="name" v="Urdvikja" />
		<tag k="natural" v="bay" />
		<tag k="ssr:stedsnr" v="379786" />
	</node>
	<node lat="65.61264999914034" lon="12.299811111376075" id="-13791">
		<tag k="name" v="Bjørnholmen" />
		<tag k="place" v="islet" />
		<tag k="ssr:stedsnr" v="379922" />
	</node>
	<node lat="65.58852777845955" lon="12.371902770780412" id="-13794">
		<tag k="alt_name" v="Rossmålsvika" />
		<tag k="name" v="Rossmålsvikja" />
		<tag k="natural" v="bay" />
		<tag k="ssr:stedsnr" v="379876" />
	</node>
	<node lat="65.76230833543606" lon="12.56590555499772" id="-13797">
		<tag k="name" v="Lyngvikja" />
		<tag k="natural" v="bay" />
		<tag k="ssr:stedsnr" v="410346" />
	</node>
	<node lat="65.57903333370521" lon="12.395486108022295" id="-13800">
		<tag k="name" v="Småskjæran" />
		<tag k="place" v="locality" />
		<tag k="seamark:type" v="rock" />
		<tag k="ssr:stedsnr" v="410840" />
	</node>
	<node lat="65.70988333421793" lon="12.61145555904001" id="-13802">
		<tag k="name" v="Hestvikneset" />
		<tag k="natural" v="cape" />
		<tag k="ssr:stedsnr" v="440003" />
	</node>
	<node lat="65.62736944180992" lon="12.348816658601416" id="-13811">
		<tag k="name" v="Nesodden" />
		<tag k="natural" v="cape" />
		<tag k="ssr:stedsnr" v="440156" />
	</node>
	<node lat="65.6912138846057" lon="12.62498611172544" id="-13812">
		<tag k="alt_name" v="Urdvika" />
		<tag k="name" v="Urdvikja" />
		<tag k="natural" v="bay" />
		<tag k="ssr:stedsnr" v="440091" />
	</node>
	<node lat="65.7318277739483" lon="12.533699994475107" id="-13815">
		<tag k="name" v="Storurdvika" />
		<tag k="natural" v="bay" />
		<tag k="ssr:stedsnr" v="440254" />
	</node>
	<node lat="65.7613166633984" lon="12.562636120597313" id="-13818">
		<tag k="name" v="Gjøtodden" />
		<tag k="natural" v="cape" />
		<tag k="ssr:stedsnr" v="471415" />
	</node>
	<node lat="65.7282750023993" lon="12.485458329211648" id="-13819">
		<tag k="name" v="Karlstøvikja" />
		<tag k="natural" v="bay" />
		<tag k="ssr:stedsnr" v="471471" />
	</node>
	<node lat="65.66029166567128" lon="12.60522223054198" id="-13821">
		<tag k="name" v="Gammelsyen" />
		<tag k="natural" v="bay" />
		<tag k="ssr:stedsnr" v="471770" />
	</node>
	<node lat="65.70165277832946" lon="12.603238887905146" id="-13826">
		<tag k="name" v="Klubben" />
		<tag k="natural" v="cape" />
		<tag k="ssr:stedsnr" v="500001" />
	</node>
	<node lat="65.63597500461032" lon="12.771252770936181" id="-13830">
		<tag k="name" v="Austerfjorden" />
		<tag k="natural" v="bay" />
		<tag k="ssr:stedsnr" v="500877" />
	</node>
	<node lat="65.59854444292765" lon="12.369991675065492" id="-13837">
		<tag k="alt_name" v="Vottvika" />
		<tag k="name" v="Våttvikja" />
		<tag k="natural" v="bay" />
		<tag k="ssr:stedsnr" v="501902" />
	</node>
	<node lat="65.62410278047032" lon="12.351811114513902" id="-13838">
		<tag k="name" v="Nyholmen" />
		<tag k="place" v="islet" />
		<tag k="ssr:stedsnr" v="501910" />
	</node>
	<node lat="65.62047222516183" lon="12.34718056536473" id="-13839">
		<tag k="name" v="Larsholmen" />
		<tag k="place" v="islet" />
		<tag k="ssr:stedsnr" v="501911" />
	</node>
	<node lat="65.65021110913354" lon="12.289988880717917" id="-13842">
		<tag k="name" v="Søresøyodden" />
		<tag k="natural" v="cape" />
		<tag k="ssr:stedsnr" v="682090" />
	</node>
	<node lat="65.69249166779146" lon="12.377177778008475" id="-13843">
		<tag k="alt_name" v="Rasmusvågen" />
		<tag k="name" v="Rasmusvågjen" />
		<tag k="natural" v="bay" />
		<tag k="ssr:stedsnr" v="682036" />
	</node>
	<node lat="65.64584999679515" lon="12.636002777993477" id="-13845">
		<tag k="name" v="Bjørnvikleira" />
		<tag k="natural" v="bay" />
		<tag k="ssr:stedsnr" v="682137" />
	</node>
	<node lat="65.64719999971203" lon="12.672077767021717" id="-13846">
		<tag k="name" v="Tangvikneset" />
		<tag k="natural" v="cape" />
		<tag k="ssr:stedsnr" v="682143" />
	</node>
	<node lat="65.67104722634843" lon="12.31551388651329" id="-13855">
		<tag k="name" v="Naustholmen" />
		<tag k="place" v="islet" />
		<tag k="ssr:stedsnr" v="683044" />
	</node>
	<node lat="65.68740277989362" lon="12.639216659193767" id="-13856">
		<tag k="alt_name" v="Blåvika" />
		<tag k="name" v="Blåvikja" />
		<tag k="natural" v="bay" />
		<tag k="ssr:stedsnr" v="683049" />
	</node>
	<node lat="65.67763055166853" lon="12.327000000405421" id="-13872">
		<tag k="name" v="Lissteinvikja" />
		<tag k="natural" v="bay" />
		<tag k="ssr:stedsnr" v="532625" />
	</node>
	<node lat="65.64563889296281" lon="12.369424997279918" id="-13874">
		<tag k="name" v="Husholmbukta" />
		<tag k="natural" v="bay" />
		<tag k="ssr:stedsnr" v="532731" />
	</node>
	<node lat="65.49700832980434" lon="12.48603610494577" id="-13878">
		<tag k="bay" v="fjord" />
		<tag k="name" v="Velfjorden" />
		<tag k="natural" v="bay" />
		<tag k="ssr:stedsnr" v="560249" />
	</node>
	<node lat="65.69468888611196" lon="12.378825002257036" id="-13880">
		<tag k="name" v="Bryggholmen" />
		<tag k="place" v="islet" />
		<tag k="ssr:stedsnr" v="561034" />
	</node>
	<node lat="65.71207777894097" lon="12.435344435231796" id="-13885">
		<tag k="name" v="Karistrandvikja" />
		<tag k="natural" v="bay" />
		<tag k="ssr:stedsnr" v="592504" />
	</node>
	<node lat="65.65644722396591" lon="12.639955562672695" id="-13887">
		<tag k="name" v="Buvika" />
		<tag k="natural" v="bay" />
		<tag k="ssr:stedsnr" v="592814" />
	</node>
	<node lat="65.60424166820911" lon="12.363863883821978" id="-13891">
		<tag k="name" v="Sørfjæro" />
		<tag k="natural" v="bay" />
		<tag k="ssr:stedsnr" v="592860" />
	</node>
	<node lat="65.70207222352545" lon="12.395269434972203" id="-13895">
		<tag k="fixme" v="multiple name tags, choose one and add the other to alt_name" />
		<tag k="name" v="Bryggnesodden;Bryggeneset" />
		<tag k="natural" v="cape" />
		<tag k="ssr:stedsnr" v="621012" />
	</node>
	<node lat="65.62632500393991" lon="12.335833339372964" id="-13900">
		<tag k="name" v="Ristaren" />
		<tag k="natural" v="shoal" />
		<tag k="place" v="locality" />
		<tag k="ssr:stedsnr" v="621118" />
	</node>
	<node lat="65.7257694470442" lon="12.448824994248625" id="-13914">
		<tag k="name" v="Nordodden" />
		<tag k="natural" v="cape" />
		<tag k="ssr:stedsnr" v="682240" />
	</node>
	<node lat="65.71067221922249" lon="12.434147225344809" id="-13917">
		<tag k="alt_name" v="Høyvika" />
		<tag k="name" v="Høyvikja" />
		<tag k="natural" v="bay" />
		<tag k="ssr:stedsnr" v="683225" />
	</node>
	<node lat="65.66832222338134" lon="12.632838886136932" id="-13923">
		<tag k="name" v="Mortenhågjen" />
		<tag k="natural" v="cape" />
		<tag k="ssr:stedsnr" v="896785" />
	</node>
	<node lat="65.64057222668814" lon="12.362988879579422" id="-13926">
		<tag k="name" v="Hågneset" />
		<tag k="natural" v="cape" />
		<tag k="ssr:stedsnr" v="896835" />
	</node>
	<node lat="65.72130833601729" lon="12.448288892488433" id="-13929">
		<tag k="name" v="Nordheilvikja" />
		<tag k="natural" v="bay" />
		<tag k="ssr:stedsnr" v="714386" />
	</node>
	<node lat="65.71591944427381" lon="12.60799166082593" id="-13932">
		<tag k="name" v="Bjønnvikja" />
		<tag k="natural" v="bay" />
		<tag k="ssr:stedsnr" v="714510" />
	</node>
	<node lat="65.7194777814518" lon="12.469216676494405" id="-13935">
		<tag k="fixme" v="consider seamark:type=rock or natural=shoal" />
		<tag k="name" v="Korsvikskjæret" />
		<tag k="place" v="islet" />
		<tag k="ssr:stedsnr" v="714474" />
	</node>
	<node lat="65.68778888979259" lon="12.418261116257877" id="-13937">
		<tag k="name" v="Hansodden" />
		<tag k="natural" v="cape" />
		<tag k="ssr:stedsnr" v="714589" />
	</node>
	<node lat="65.64468611009082" lon="12.693505545574954" id="-13945">
		<tag k="name" v="Langvågan" />
		<tag k="natural" v="bay" />
		<tag k="ssr:stedsnr" v="743141" />
	</node>
	<node lat="65.60148055255414" lon="12.787149991674541" id="-13948">
		<tag k="name" v="Neset" />
		<tag k="natural" v="cape" />
		<tag k="ssr:stedsnr" v="743803" />
	</node>
	<node lat="65.59411944855229" lon="12.369377784978413" id="-13955">
		<tag k="name" v="Stivikja" />
		<tag k="natural" v="bay" />
		<tag k="ssr:stedsnr" v="228845" />
	</node>
	<node lat="65.71075555907974" lon="12.615236119083729" id="-13956">
		<tag k="name" v="Jektvikja" />
		<tag k="natural" v="bay" />
		<tag k="ssr:stedsnr" v="774620" />
	</node>
	<node lat="65.70217500164611" lon="12.591711121646924" id="-13962">
		<tag k="name" v="Ytrebukta" />
		<tag k="natural" v="bay" />
		<tag k="ssr:stedsnr" v="804001" />
	</node>
	<node lat="65.69343611315165" lon="12.355380559439627" id="-13970">
		<tag k="name" v="Andholmen" />
		<tag k="place" v="islet" />
		<tag k="ssr:stedsnr" v="804045" />
	</node>
	<node lat="65.67946388782893" lon="12.584550003452364" id="-13972">
		<tag k="name" v="Skadvika" />
		<tag k="natural" v="bay" />
		<tag k="ssr:stedsnr" v="804067" />
	</node>
	<node lat="65.68718333693951" lon="12.333263895625505" id="-13988">
		<tag k="name" v="Nordodden" />
		<tag k="natural" v="cape" />
		<tag k="ssr:stedsnr" v="835578" />
	</node>
	<node lat="65.68841111028803" lon="12.338966659079922" id="-13989">
		<tag k="name" v="Vallskiftet" />
		<tag k="natural" v="strait" />
		<tag k="ssr:stedsnr" v="835579" />
	</node>
	<node lat="65.64741110939833" lon="12.638788883310106" id="-13994">
		<tag k="name" v="Bjørnevikja" />
		<tag k="natural" v="bay" />
		<tag k="ssr:stedsnr" v="836778" />
	</node>
	<node lat="65.66523333342354" lon="12.650658339948437" id="-13996">
		<tag k="name" v="Stakkvika" />
		<tag k="natural" v="bay" />
		<tag k="ssr:stedsnr" v="925093" />
	</node>
	<node lat="65.65013055849388" lon="12.316325000087886" id="-13998">
		<tag k="fixme" v="multiple name tags, choose one and add the other to alt_name" />
		<tag k="name" v="Molvika;Stormolvika" />
		<tag k="natural" v="bay" />
		<tag k="ssr:stedsnr" v="925120" />
	</node>
	<node lat="65.66746389174804" lon="12.616300000851849" id="-14002">
		<tag k="name" v="Storholmen" />
		<tag k="place" v="islet" />
		<tag k="ssr:stedsnr" v="926088" />
	</node>
	<node lat="65.67833055577267" lon="12.578861112917927" id="-14008">
		<tag k="alt_name" v="Langkilvågen, øvre" />
		<tag k="name" v="Øvre Langkilvågen" />
		<tag k="natural" v="bay" />
		<tag k="ssr:stedsnr" v="926045" />
	</node>
	<node lat="65.67353888956978" lon="12.378438897997409" id="-14009">
		<tag k="name" v="Storsandvika" />
		<tag k="natural" v="bay" />
		<tag k="ssr:stedsnr" v="926052" />
	</node>
	<node lat="65.71351111143284" lon="12.460602788144833" id="-14011">
		<tag k="name" v="Helgjovika" />
		<tag k="natural" v="bay" />
		<tag k="ssr:stedsnr" v="926245" />
	</node>
	<node lat="65.6706388915953" lon="12.402852773734363" id="-14025">
		<tag k="name" v="Nordsanden" />
		<tag k="natural" v="beach" />
		<tag k="ssr:stedsnr" v="897663" />
	</node>
	<node lat="65.70371111380105" lon="12.59473888409618" id="-14026">
		<tag k="name" v="Kilholmen" />
		<tag k="place" v="islet" />
		<tag k="ssr:stedsnr" v="925004" />
	</node>
	<node lat="65.70445555293828" lon="12.394988882217291" id="-14027">
		<tag k="alt_name" v="Hestvika" />
		<tag k="name" v="Hestvikja" />
		<tag k="natural" v="bay" />
		<tag k="ssr:stedsnr" v="925020" />
	</node>
	<node lat="65.66650555556298" lon="12.305691658911222" id="-14032">
		<tag k="fixme" v="consider seamark:type=rock or natural=shoal" />
		<tag k="name" v="Kjeskjæran" />
		<tag k="place" v="islet" />
		<tag k="ssr:stedsnr" v="926072" />
	</node>
	<node lat="65.60680986021956" lon="12.36391748478502" id="-14035">
		<tag k="alt_name" v="Bukta" />
		<tag k="name" v="Lauknesbukta" />
		<tag k="natural" v="bay" />
		<tag k="ssr:stedsnr" v="926903" />
	</node>
	<node lat="65.68758055542474" lon="12.347613878230327" id="-14047">
		<tag k="name" v="Hallarvikodden" />
		<tag k="natural" v="cape" />
		<tag k="ssr:stedsnr" v="956599" />
	</node>
	<node lat="65.65947222462398" lon="12.304977782333838" id="-14051">
		<tag k="name" v="Blesen" />
		<tag k="natural" v="beach" />
		<tag k="ssr:stedsnr" v="957748" />
	</node>
	<node lat="65.6627333314504" lon="12.385211112750156" id="-14071">
		<tag k="name" v="Vevelstadsundet" />
		<tag k="natural" v="strait" />
		<tag k="ssr:stedsnr" v="15088" />
	</node>
	<node lat="65.70023333742124" lon="12.604330566661396" id="-14073">
		<tag k="name" v="Klubbvika" />
		<tag k="natural" v="bay" />
		<tag k="ssr:stedsnr" v="15051" />
	</node>
	<node lat="65.72179722422484" lon="12.466066656162793" id="-14075">
		<tag k="alt_name" v="Snertholmen" />
		<tag k="name" v="Snertholman" />
		<tag k="place" v="islet" />
		<tag k="ssr:stedsnr" v="15222" />
	</node>
	<node lat="65.60519444731408" lon="12.36255276939649" id="-14080">
		<tag k="name" v="Sørodden" />
		<tag k="natural" v="cape" />
		<tag k="ssr:stedsnr" v="15829" />
	</node>
	<node lat="65.636441663316" lon="12.78496111739716" id="-14083">
		<tag k="name" v="Neset" />
		<tag k="natural" v="cape" />
		<tag k="ssr:stedsnr" v="15862" />
	</node>
	<node lat="65.58376944158664" lon="12.37437778530437" id="-14085">
		<tag k="alt_name" v="Langvika" />
		<tag k="name" v="Langvikja" />
		<tag k="natural" v="bay" />
		<tag k="ssr:stedsnr" v="15895" />
	</node>
	<node lat="65.58214444274236" lon="12.398269454504918" id="-14091">
		<tag k="name" v="Flatvikja" />
		<tag k="natural" v="bay" />
		<tag k="ssr:stedsnr" v="46842" />
	</node>
	<node lat="65.73596388953261" lon="12.501413882330315" id="-14092">
		<tag k="name" v="Gjersvikja" />
		<tag k="natural" v="bay" />
		<tag k="ssr:stedsnr" v="46463" />
	</node>
	<node lat="65.69544721975139" lon="12.383108333355862" id="-14095">
		<tag k="name" v="Storholmen" />
		<tag k="place" v="islet" />
		<tag k="ssr:stedsnr" v="46658" />
	</node>
	<node lat="65.66908611418195" lon="12.40072776865035" id="-14097">
		<tag k="name" v="Sørsanden" />
		<tag k="natural" v="beach" />
		<tag k="ssr:stedsnr" v="47687" />
	</node>
	<node lat="65.64258610737151" lon="12.367902775619553" id="-14106">
		<tag k="name" v="Osan" />
		<tag k="natural" v="bay" />
		<tag k="ssr:stedsnr" v="76126" />
	</node>
	<node lat="65.64423611330349" lon="12.751500004069685" id="-14114">
		<tag k="name" v="Sommarsetvika" />
		<tag k="natural" v="bay" />
		<tag k="ssr:stedsnr" v="76840" />
	</node>
	<node lat="65.62301944854589" lon="12.324780558837999" id="-14115">
		<tag k="name" v="Lystaren" />
		<tag k="natural" v="shoal" />
		<tag k="place" v="locality" />
		<tag k="ssr:stedsnr" v="76914" />
	</node>
	<node lat="65.61942063154902" lon="12.292181720585178" id="-14116">
		<tag k="name" v="Fjordholman" />
		<tag k="place" v="island" />
		<tag k="ssr:stedsnr" v="86133" />
	</node>
	<node lat="65.69944166795638" lon="12.362516670441128" id="-14125">
		<tag k="name" v="Inner-Gråøya" />
		<tag k="place" v="island" />
		<tag k="ssr:stedsnr" v="107564" />
	</node>
	<node lat="65.66653888653099" lon="12.30953332623831" id="-14126">
		<tag k="name" v="Sørsyen" />
		<tag k="natural" v="bay" />
		<tag k="ssr:stedsnr" v="107670" />
	</node>
	<node lat="65.65048888625945" lon="12.314330550278813" id="-14128">
		<tag k="name" v="Mola" />
		<tag k="natural" v="cape" />
		<tag k="ssr:stedsnr" v="136125" />
	</node>
	<node lat="65.63384999854995" lon="12.761327769945972" id="-14138">
		<tag k="name" v="Aspvikneset" />
		<tag k="natural" v="cape" />
		<tag k="ssr:stedsnr" v="136856" />
	</node>
	<node lat="65.59133055225405" lon="12.370944440768799" id="-14145">
		<tag k="alt_name" v="Mellomvika" />
		<tag k="name" v="Møllovikja" />
		<tag k="natural" v="bay" />
		<tag k="ssr:stedsnr" v="136921" />
	</node>
	<node lat="65.67274999796861" lon="12.404830564459374" id="-14158">
		<tag k="name" v="Sandosan" />
		<tag k="natural" v="beach" />
		<tag k="ssr:stedsnr" v="168689" />
	</node>
	<node lat="65.57203888573926" lon="12.392002774787027" id="-14167">
		<tag k="name" v="Langvikja" />
		<tag k="natural" v="bay" />
		<tag k="ssr:stedsnr" v="168832" />
	</node>
	<node lat="65.67159721833035" lon="12.402627785166707" id="-14169">
		<tag k="name" v="Aleksvikja" />
		<tag k="natural" v="bay" />
		<tag k="ssr:stedsnr" v="169685" />
	</node>
	<node lat="65.65747777685769" lon="12.605852771671245" id="-14172">
		<tag k="alt_name" v="Elvvika" />
		<tag k="name" v="Elvvikja" />
		<tag k="natural" v="bay" />
		<tag k="ssr:stedsnr" v="197096" />
	</node>
	<node lat="65.75890278141175" lon="12.55681389789505" id="-14173">
		<tag k="name" v="Stokkasjøen" />
		<tag k="natural" v="beach" />
		<tag k="ssr:stedsnr" v="197101" />
	</node>
	<node lat="65.62868611077076" lon="12.360791655827452" id="-14177">
		<tag k="name" v="Leira" />
		<tag k="natural" v="bay" />
		<tag k="ssr:stedsnr" v="197133" />
	</node>
	<node lat="65.62692222016614" lon="12.356327780727058" id="-14178">
		<tag k="fixme" v="consider seamark:type=rock or natural=shoal" />
		<tag k="name" v="Plogskjæret" />
		<tag k="place" v="islet" />
		<tag k="ssr:stedsnr" v="197134" />
	</node>
	<node lat="65.59494999587025" lon="12.368766668249672" id="-14184">
		<tag k="fixme" v="multiple name tags, choose one and add the other to alt_name" />
		<tag k="name" v="Stiga;Fensko" />
		<tag k="natural" v="cape" />
		<tag k="ssr:stedsnr" v="197930" />
	</node>
	<node lat="65.61633888668935" lon="12.364344447209321" id="-14186">
		<tag k="fixme" v="multiple name tags, choose one and add the other to alt_name" />
		<tag k="name" v="Strandneset;Nordstrangneset" />
		<tag k="natural" v="cape" />
		<tag k="ssr:stedsnr" v="197943" />
	</node>
	<node lat="65.56692777471643" lon="12.381233333903147" id="-14189">
		<tag k="alt_name" v="Anddalsodden" />
		<tag k="name" v="Andalsodden" />
		<tag k="natural" v="cape" />
		<tag k="ssr:stedsnr" v="197898" />
	</node>
	<node lat="65.70230277701138" lon="12.423472212182148" id="-14196">
		<tag k="name" v="Lendingen" />
		<tag k="natural" v="cape" />
		<tag k="ssr:stedsnr" v="228652" />
	</node>
	<node lat="65.74395555730729" lon="12.5546194521515" id="-14199">
		<tag k="name" v="Homannsvikja" />
		<tag k="natural" v="bay" />
		<tag k="ssr:stedsnr" v="289514" />
	</node>
	<node lat="65.70463333238577" lon="12.426905553224572" id="-14203">
		<tag k="name" v="Storlendingsvikja" />
		<tag k="natural" v="bay" />
		<tag k="ssr:stedsnr" v="289643" />
	</node>
	<node lat="65.70463333238577" lon="12.426905553224572" id="-14204">
		<tag k="fixme" v="consider seamark:type=rock or natural=shoal" />
		<tag k="name" v="Storlendingsskjæran" />
		<tag k="place" v="islet" />
		<tag k="ssr:stedsnr" v="289648" />
	</node>
	<node lat="65.66462778127655" lon="12.608641672345074" id="-14211">
		<tag k="name" v="Gårdsholmen" />
		<tag k="place" v="island" />
		<tag k="ssr:stedsnr" v="289823" />
	</node>
	<node lat="65.70122222558793" lon="12.366550007196897" id="-14214">
		<tag k="name" v="Rundøya" />
		<tag k="place" v="islet" />
		<tag k="ssr:stedsnr" v="318012" />
	</node>
	<node lat="65.69540277493525" lon="12.38794443681811" id="-14216">
		<tag k="alt_name" v="Kjerringvika" />
		<tag k="name" v="Kjerringvikja" />
		<tag k="natural" v="bay" />
		<tag k="ssr:stedsnr" v="318034" />
	</node>
	<node lat="65.65670833533441" lon="12.64836665927286" id="-14218">
		<tag k="name" v="Risvika" />
		<tag k="natural" v="bay" />
		<tag k="ssr:stedsnr" v="318099" />
	</node>
	<node lat="65.66464444741692" lon="12.628380551823362" id="-14219">
		<tag k="alt_name" v="Jektvika" />
		<tag k="name" v="Jektvikja" />
		<tag k="natural" v="bay" />
		<tag k="ssr:stedsnr" v="318080" />
	</node>
	<node lat="65.73975277386342" lon="12.514500007123505" id="-14221">
		<tag k="fixme" v="consider seamark:type=rock or natural=shoal" />
		<tag k="name" v="Oddskjæret" />
		<tag k="place" v="islet" />
		<tag k="ssr:stedsnr" v="318183" />
	</node>
	<node lat="65.73828333519891" lon="12.510563886554799" id="-14222">
		<tag k="fixme" v="multiple name tags, choose one and add the other to alt_name" />
		<tag k="name" v="Sørvika;Sørfjæro" />
		<tag k="natural" v="bay" />
		<tag k="ssr:stedsnr" v="318184" />
	</node>
	<node lat="65.73913055676277" lon="12.515875005522428" id="-14223">
		<tag k="fixme" v="multiple name tags, choose one and add the other to alt_name" />
		<tag k="name" v="Nordvika;Nordfjæro" />
		<tag k="natural" v="bay" />
		<tag k="ssr:stedsnr" v="318185" />
	</node>
	<node lat="65.62103888896138" lon="12.352197216738805" id="-14228">
		<tag k="fixme" v="consider seamark:type=rock or natural=shoal" />
		<tag k="name" v="Sørenskjæret" />
		<tag k="place" v="islet" />
		<tag k="ssr:stedsnr" v="318932" />
	</node>
	<node lat="65.68591944812768" lon="12.39920277981326" id="-14229">
		<tag k="fixme" v="consider seamark:type=rock or natural=shoal" />
		<tag k="name" v="Ervikskjæret" />
		<tag k="place" v="islet" />
		<tag k="ssr:stedsnr" v="319033" />
	</node>
	<node lat="65.71047499742987" lon="12.34313056215001" id="-14230">
		<tag k="bay" v="fjord" />
		<tag k="name" v="Mindværfjorden" />
		<tag k="natural" v="bay" />
		<tag k="ssr:stedsnr" v="319231" />
	</node>
	<node lat="65.68791111309979" lon="12.58896944128897" id="-14233">
		<tag k="name" v="Sveinvika" />
		<tag k="natural" v="bay" />
		<tag k="ssr:stedsnr" v="319058" />
	</node>
	<node lat="65.68916666316743" lon="12.4208083391467" id="-14247">
		<tag k="name" v="Svalvikja" />
		<tag k="natural" v="bay" />
		<tag k="ssr:stedsnr" v="349684" />
	</node>
	<node lat="65.69858610931051" lon="12.603727785323725" id="-14259">
		<tag k="name" v="Naustvika" />
		<tag k="natural" v="bay" />
		<tag k="ssr:stedsnr" v="379042" />
	</node>
	<node lat="65.67599999678214" lon="12.303219438542843" id="-14262">
		<tag k="name" v="Vomma" />
		<tag k="place" v="islet" />
		<tag k="ssr:stedsnr" v="379060" />
	</node>
	<node lat="65.68291666426775" lon="12.64553889611955" id="-14263">
		<tag k="name" v="Kjølneset" />
		<tag k="natural" v="cape" />
		<tag k="ssr:stedsnr" v="379079" />
	</node>
	<node lat="65.66381388550161" lon="12.29930277189047" id="-14265">
		<tag k="alt_name" v="Lislesøya" />
		<tag k="name" v="Liss-Æsøya" />
		<tag k="place" v="islet" />
		<tag k="ssr:stedsnr" v="379082" />
	</node>
	<node lat="65.66921666602067" lon="12.377502768538363" id="-14266">
		<tag k="fixme" v="multiple name tags, choose one and add the other to alt_name; consider seamark:type=rock or natural=shoal" />
		<tag k="name" v="Heimskjæran;Heimreskjæran" />
		<tag k="place" v="islet" />
		<tag k="ssr:stedsnr" v="379087" />
	</node>
	<node lat="65.65298055160169" lon="12.353038896172814" id="-14269">
		<tag k="name" v="Kallarneset" />
		<tag k="natural" v="cape" />
		<tag k="ssr:stedsnr" v="379788" />
	</node>
	<node lat="65.68856111368169" lon="12.354302777817827" id="-14275">
		<tag k="name" v="Elvneset" />
		<tag k="natural" v="cape" />
		<tag k="ssr:stedsnr" v="410553" />
	</node>
	<node lat="65.68897222139903" lon="12.36347221166998" id="-14276">
		<tag k="name" v="Festvikja" />
		<tag k="natural" v="bay" />
		<tag k="ssr:stedsnr" v="410557" />
	</node>
	<node lat="65.76993055550689" lon="12.584791660374826" id="-14277">
		<tag k="name" v="Målarodden" />
		<tag k="natural" v="cape" />
		<tag k="ssr:stedsnr" v="410336" />
	</node>
	<node lat="65.65097778127416" lon="12.64279444567425" id="-14280">
		<tag k="name" v="Saltbuodden" />
		<tag k="natural" v="cape" />
		<tag k="ssr:stedsnr" v="410766" />
	</node>
	<node lat="65.730008335326" lon="12.487927786348838" id="-14287">
		<tag k="name" v="Sørstranda" />
		<tag k="natural" v="beach" />
		<tag k="ssr:stedsnr" v="415952" />
	</node>
	<node lat="65.66104999603105" lon="12.63741667157523" id="-14288">
		<tag k="name" v="Husvika" />
		<tag k="natural" v="bay" />
		<tag k="ssr:stedsnr" v="440121" />
	</node>
	<node lat="65.6703333308721" lon="12.643230560799285" id="-14289">
		<tag k="name" v="Ausskaftet" />
		<tag k="natural" v="cape" />
		<tag k="ssr:stedsnr" v="440126" />
	</node>
	<node lat="65.6934138921748" lon="12.410011112206766" id="-14292">
		<tag k="alt_name" v="Lislbjørnvika" />
		<tag k="name" v="Lissbjørnvikja" />
		<tag k="natural" v="bay" />
		<tag k="ssr:stedsnr" v="440037" />
	</node>
	<node lat="65.69326666240467" lon="12.636038893642787" id="-14293">
		<tag k="name" v="Mulen" />
		<tag k="natural" v="cape" />
		<tag k="ssr:stedsnr" v="440063" />
	</node>
	<node lat="65.58626666878372" lon="12.371541663357984" id="-14300">
		<tag k="name" v="Seglneset" />
		<tag k="natural" v="cape" />
		<tag k="ssr:stedsnr" v="440881" />
	</node>
	<node lat="65.6851361107143" lon="12.591941668788133" id="-14313">
		<tag k="alt_name" v="Langkilvågen, nedre" />
		<tag k="name" v="Nedre Langkilvågen" />
		<tag k="natural" v="bay" />
		<tag k="ssr:stedsnr" v="501044" />
	</node>
	<node lat="65.58233888690023" lon="12.374858337024005" id="-14327">
		<tag k="name" v="Ytterodden" />
		<tag k="natural" v="cape" />
		<tag k="ssr:stedsnr" v="532817" />
	</node>
	<node lat="65.72568888892856" lon="12.444833344074956" id="-14340">
		<tag k="name" v="Grauthammaren" />
		<tag k="natural" v="cape" />
		<tag k="ssr:stedsnr" v="561228" />
	</node>
	<node lat="65.60981666573674" lon="12.362783335900552" id="-14349">
		<tag k="fixme" v="multiple name tags, choose one and add the other to alt_name" />
		<tag k="name" v="Forneset;Ørntuva" />
		<tag k="natural" v="cape" />
		<tag k="ssr:stedsnr" v="561919" />
	</node>
	<node lat="65.77365278200313" lon="12.584502788866164" id="-14356">
		<tag k="name" v="Tjønnvikja" />
		<tag k="natural" v="bay" />
		<tag k="ssr:stedsnr" v="592331" />
	</node>
	<node lat="65.75765277676123" lon="12.554897232774492" id="-14358">
		<tag k="name" v="Skjåberget" />
		<tag k="natural" v="cape" />
		<tag k="ssr:stedsnr" v="592349" />
	</node>
	<node lat="65.71034721882563" lon="12.619013882079315" id="-14361">
		<tag k="name" v="Liss-Aunholmen" />
		<tag k="place" v="islet" />
		<tag k="ssr:stedsnr" v="592576" />
	</node>
	<node lat="65.72704444452293" lon="12.483530550005117" id="-14364">
		<tag k="name" v="Åbergan" />
		<tag k="natural" v="cape" />
		<tag k="ssr:stedsnr" v="592496" />
	</node>
	<node lat="65.73800833007442" lon="12.569247230606212" id="-14365">
		<tag k="name" v="Strenderen" />
		<tag k="natural" v="beach" />
		<tag k="ssr:stedsnr" v="592527" />
	</node>
	<node lat="65.68941110718859" lon="12.41100832627922" id="-14366">
		<tag k="fixme" v="consider seamark:type=rock or natural=shoal" />
		<tag k="name" v="Roparskjæret" />
		<tag k="place" v="islet" />
		<tag k="ssr:stedsnr" v="592612" />
	</node>
	<node lat="65.70078332996951" lon="12.399286111928244" id="-14368">
		<tag k="name" v="Hammarvikja" />
		<tag k="natural" v="bay" />
		<tag k="ssr:stedsnr" v="592638" />
	</node>
	<node lat="65.67605555346347" lon="12.404313891540989" id="-14370">
		<tag k="name" v="Synesodden" />
		<tag k="natural" v="cape" />
		<tag k="ssr:stedsnr" v="592744" />
	</node>
	<node lat="65.69400277395746" lon="12.609827766869891" id="-14385">
		<tag k="name" v="Kistneset" />
		<tag k="natural" v="cape" />
		<tag k="ssr:stedsnr" v="622043" />
	</node>
	<node lat="65.68884166947466" lon="12.670161102945634" id="-14386">
		<tag k="name" v="Storsteinvika" />
		<tag k="natural" v="bay" />
		<tag k="ssr:stedsnr" v="622063" />
	</node>
	<node lat="65.71730555539203" lon="12.604691664211733" id="-14396">
		<tag k="name" v="Buodden" />
		<tag k="natural" v="cape" />
		<tag k="ssr:stedsnr" v="653560" />
	</node>
	<node lat="65.61476388482369" lon="12.3641888889407" id="-14404">
		<tag k="name" v="Sørstrangneset" />
		<tag k="natural" v="cape" />
		<tag k="ssr:stedsnr" v="653823" />
	</node>
	<node lat="65.6820527752898" lon="12.325433330040616" id="-14412">
		<tag k="name" v="Laukvikja" />
		<tag k="natural" v="bay" />
		<tag k="ssr:stedsnr" v="714617" />
	</node>
	<node lat="65.72908055331239" lon="12.485086110606975" id="-14413">
		<tag k="fixme" v="consider seamark:type=rock or natural=shoal" />
		<tag k="name" v="Sørstrandskjæran" />
		<tag k="place" v="islet" />
		<tag k="ssr:stedsnr" v="714409" />
	</node>
	<node lat="65.6413944447222" lon="12.362875006731743" id="-14421">
		<tag k="fixme" v="consider seamark:type=rock or natural=shoal" />
		<tag k="name" v="Hågnesskjæret" />
		<tag k="place" v="islet" />
		<tag k="ssr:stedsnr" v="714785" />
	</node>
	<node lat="65.69799444155018" lon="12.592613897043256" id="-14423">
		<tag k="name" v="Kilvikja" />
		<tag k="natural" v="bay" />
		<tag k="ssr:stedsnr" v="727440" />
	</node>
	<node lat="65.69980555685255" lon="12.384622221655686" id="-14453">
		<tag k="fixme" v="consider seamark:type=rock or natural=shoal" />
		<tag k="name" v="Småskjæran" />
		<tag k="place" v="islet" />
		<tag k="ssr:stedsnr" v="774647" />
	</node>
	<node lat="65.66616666639018" lon="12.30541667340254" id="-14455">
		<tag k="fixme" v="consider seamark:type=rock or natural=shoal" />
		<tag k="name" v="Storkiskjæret" />
		<tag k="place" v="islet" />
		<tag k="ssr:stedsnr" v="775595" />
	</node>
	<node lat="65.670177778897" lon="12.640038889184439" id="-14459">
		<tag k="name" v="Ytterkvalvågjen" />
		<tag k="natural" v="bay" />
		<tag k="ssr:stedsnr" v="775736" />
	</node>
	<node lat="65.67034166731713" lon="12.617202782522163" id="-14461">
		<tag k="name" v="Strandholmen" />
		<tag k="place" v="island" />
		<tag k="ssr:stedsnr" v="775742" />
	</node>
	<node lat="65.63297221909411" lon="12.354683332463027" id="-14463">
		<tag k="name" v="Storvika" />
		<tag k="natural" v="bay" />
		<tag k="ssr:stedsnr" v="775792" />
	</node>
	<node lat="65.68763333587816" lon="12.407430547444205" id="-14465">
		<tag k="name" v="Bjørnholmen" />
		<tag k="place" v="islet" />
		<tag k="ssr:stedsnr" v="804053" />
	</node>
	<node lat="65.654955555523" lon="12.618844444879587" id="-14467">
		<tag k="alt_name" v="Dalleira" />
		<tag k="name" v="Dalvikja" />
		<tag k="natural" v="bay" />
		<tag k="ssr:stedsnr" v="804137" />
	</node>
	<node lat="65.56306388550799" lon="12.384524992704948" id="-14471">
		<tag k="name" v="Djupvika" />
		<tag k="natural" v="bay" />
		<tag k="ssr:stedsnr" v="804886" />
	</node>
	<node lat="65.7369944408065" lon="12.524036111054441" id="-14478">
		<tag k="name" v="Finnvika" />
		<tag k="natural" v="bay" />
		<tag k="ssr:stedsnr" v="804242" />
	</node>
	<node lat="65.76667500283764" lon="12.582536114840837" id="-14487">
		<tag k="name" v="Melkarstøa" />
		<tag k="natural" v="bay" />
		<tag k="ssr:stedsnr" v="835340" />
	</node>
	<node lat="65.6686777818278" lon="12.312805550321851" id="-14491">
		<tag k="name" v="Bryggvikja" />
		<tag k="natural" v="bay" />
		<tag k="ssr:stedsnr" v="836619" />
	</node>
	<node lat="65.66016666821774" lon="12.639719452155353" id="-14495">
		<tag k="name" v="Husvikdalsneset" />
		<tag k="natural" v="cape" />
		<tag k="ssr:stedsnr" v="836770" />
	</node>
	<node lat="65.69838611485142" lon="12.35843611574896" id="-14498">
		<tag k="name" v="Gråøya" />
		<tag k="place" v="islet" />
		<tag k="ssr:stedsnr" v="865020" />
	</node>
	<node lat="65.67564166639546" lon="12.406288887560109" id="-14502">
		<tag k="name" v="Osen" />
		<tag k="natural" v="bay" />
		<tag k="ssr:stedsnr" v="865072" />
	</node>
	<node lat="65.66034166918645" lon="12.620836106341761" id="-14506">
		<tag k="name" v="Vikran" />
		<tag k="natural" v="bay" />
		<tag k="ssr:stedsnr" v="865112" />
	</node>
	<node lat="65.60051944111767" lon="12.366847217555009" id="-14530">
		<tag k="fixme" v="consider seamark:type=rock or natural=shoal" />
		<tag k="name" v="Småskjæran" />
		<tag k="place" v="islet" />
		<tag k="ssr:stedsnr" v="865897" />
	</node>
	<node lat="65.75528611514291" lon="12.551555548061119" id="-14535">
		<tag k="name" v="Agatodden" />
		<tag k="natural" v="cape" />
		<tag k="ssr:stedsnr" v="956368" />
	</node>
	<node lat="65.66765278195881" lon="12.306449991072432" id="-14539">
		<tag k="fixme" v="consider seamark:type=rock or natural=shoal" />
		<tag k="name" v="Lisskiskjæret" />
		<tag k="place" v="islet" />
		<tag k="ssr:stedsnr" v="957629" />
	</node>
	<node lat="65.69881389124559" lon="12.598644453023718" id="-14540">
		<tag k="name" v="Ytterkilen" />
		<tag k="natural" v="cape" />
		<tag k="ssr:stedsnr" v="957636" />
	</node>
</osm>
