<?xml version="1.0" encoding="UTF-8"?>
<osm generator="osmapis" version="0.6">
	<node id="-128127" lat="65.6917305514" lon="12.3968111202">
		<tag k="amenity" v="community_centre" />
		<tag k="name" v="Hesstun ungdomshus" />
		<tag k="ssr:stedsnr" v="592617" />
	</node>
	<node id="-127676" lat="65.7018333358" lon="12.4113361119">
		<tag k="amenity" v="place_of_worship" />
		<tag k="fixme" v="specify religion=*, denomination=*, building=* etc" />
		<tag k="name" v="Våg bedehus" />
		<tag k="ssr:stedsnr" v="653538" />
	</node>
	<node id="-128315" lat="65.7325777769" lon="12.5934055477">
		<tag k="cemetery" v="grave" />
		<tag k="name" v="Visthus kirkegård" />
		<tag k="place" v="locality" />
		<tag k="ssr:stedsnr" v="956539" />
	</node>
	<node id="-127929" lat="65.75809167" lon="12.5613888815">
		<tag k="amenity" v="community_centre" />
		<tag k="name" v="Stokka ungdomshus" />
		<tag k="ssr:stedsnr" v="167440" />
	</node>
	<node id="-127922" lat="65.7087277772" lon="12.4544000017">
		<tag k="amenity" v="place_of_worship" />
		<tag k="denomination" v="lutheran" />
		<tag k="name" v="Vevelstad" />
		<tag k="religion" v="christian" />
		<tag k="ssr:stedsnr" v="137207" />
	</node>
	<node id="-127566" lat="65.6399555573" lon="12.3716527759">
		<tag k="amenity" v="community_centre" />
		<tag k="name" v="Høyholm samfunnshus" />
		<tag k="ssr:stedsnr" v="471796" />
	</node>
</osm>
