<?xml version="1.0" encoding="UTF-8"?>
<osm generator="osmapis" version="0.6">
	<node id="-634496" lat="65.6849611082" lon="12.3446111202">
		<tag k="name" v="Svalmyra" />
		<tag k="natural" v="wetland" />
		<tag k="ssr:stedsnr" v="350596" />
	</node>
	<node id="-634492" lat="65.722549996" lon="12.4867749903">
		<tag k="name" v="Dalmyrån" />
		<tag k="natural" v="wetland" />
		<tag k="ssr:stedsnr" v="349593" />
	</node>
	<node id="-634744" lat="65.6114222198" lon="12.3679222281">
		<tag k="name" v="Lauknesmarka" />
		<tag k="place" v="locality" />
		<tag k="ssr:stedsnr" v="168800" />
	</node>
	<node id="-634741" lat="65.6336777802" lon="12.3796333263">
		<tag k="name" v="Seljeurda" />
		<tag k="natural" v="scree" />
		<tag k="ssr:stedsnr" v="168789" />
	</node>
	<node id="-634612" lat="65.6525388904" lon="12.3117333366">
		<tag k="alt_name" v="Bonsteinen" />
		<tag k="name" v="Bondsteinen" />
		<tag k="natural" v="stone" />
		<tag k="ssr:stedsnr" v="16071" />
	</node>
	<node id="-635123" lat="65.6437694458" lon="12.6250333267">
		<tag k="name" v="Samskogan" />
		<tag k="place" v="locality" />
		<tag k="ssr:stedsnr" v="714764" />
	</node>
	<node id="-634466" lat="65.6143194488" lon="12.91205278">
		<tag k="name" v="Svartvasskogen" />
		<tag k="place" v="locality" />
		<tag k="ssr:stedsnr" v="318842" />
	</node>
	<node id="-634975" lat="65.6073388863" lon="12.8931583337">
		<tag k="name" v="Kjerrmyran" />
		<tag k="natural" v="wetland" />
		<tag k="ssr:stedsnr" v="561667" />
	</node>
	<node id="-634707" lat="65.7180749966" lon="12.481608343">
		<tag k="alt_name" v="Korsvikmyrån" />
		<tag k="name" v="Korsvikmyran" />
		<tag k="natural" v="wetland" />
		<tag k="ssr:stedsnr" v="136285" />
	</node>
	<node id="-635128" lat="65.6794527772" lon="12.4347250096">
		<tag k="name" v="Olaisteinan" />
		<tag k="natural" v="stone" />
		<tag k="ssr:stedsnr" v="715719" />
	</node>
	<node id="-634574" lat="65.7022583331" lon="12.4658833438">
		<tag k="name" v="Grønbechsteinån" />
		<tag k="natural" v="stone" />
		<tag k="ssr:stedsnr" v="896648" />
	</node>
	<node id="-634825" lat="65.6692083368" lon="12.371166672">
		<tag k="name" v="Dalmyran" />
		<tag k="natural" v="wetland" />
		<tag k="ssr:stedsnr" v="258085" />
	</node>
	<node id="-634567" lat="65.7348916706" lon="12.5868972319">
		<tag k="name" v="Hevlan" />
		<tag k="natural" v="wetland" />
		<tag k="ssr:stedsnr" v="896521" />
	</node>
	<node id="-634948" lat="65.7345555545" lon="12.5925722138">
		<tag k="name" v="Aunavollen" />
		<tag k="place" v="locality" />
		<tag k="ssr:stedsnr" v="532456" />
	</node>
	<node id="-634435" lat="65.6719444417" lon="12.3315472159">
		<tag k="name" v="Storgrottsteinan" />
		<tag k="natural" v="stone" />
		<tag k="ssr:stedsnr" v="289746" />
	</node>
	<node id="-634561" lat="65.6109805574" lon="12.3755527804">
		<tag k="name" v="Hanslisteinan" />
		<tag k="natural" v="stone" />
		<tag k="ssr:stedsnr" v="410811" />
	</node>
	<node id="-634942" lat="65.7315250016" lon="12.5070305502">
		<tag k="name" v="Heststeinan" />
		<tag k="natural" v="stone" />
		<tag k="ssr:stedsnr" v="532350" />
	</node>
	<node id="-634941" lat="65.6915972257" lon="12.385191661">
		<tag k="name" v="Skjåsteinen" />
		<tag k="natural" v="stone" />
		<tag k="ssr:stedsnr" v="531631" />
	</node>
	<node id="-634428" lat="65.7292611125" lon="12.6003527781">
		<tag k="name" v="Holtan" />
		<tag k="place" v="locality" />
		<tag k="ssr:stedsnr" v="289614" />
	</node>
	<node id="-635066" lat="65.6631499968" lon="12.3111527775">
		<tag k="name" v="Flyplassen" />
		<tag k="place" v="locality" />
		<tag k="ssr:stedsnr" v="653760" />
	</node>
	<node id="-635065" lat="65.6752222196" lon="12.4197583319">
		<tag k="name" v="Småbergan" />
		<tag k="place" v="locality" />
		<tag k="ssr:stedsnr" v="653722" />
	</node>
	<node id="-634677" lat="65.6975916663" lon="12.4455583381">
		<tag k="name" v="Svenskmyrån" />
		<tag k="natural" v="wetland" />
		<tag k="ssr:stedsnr" v="107610" />
	</node>
	<node id="-634672" lat="65.7279861154" lon="12.4964055612">
		<tag k="name" v="Nøttmyro" />
		<tag k="natural" v="wetland" />
		<tag k="ssr:stedsnr" v="107556" />
	</node>
	<node id="-634671" lat="65.7162944485" lon="12.4285499904">
		<tag k="name" v="Jonsvikmyrån" />
		<tag k="natural" v="wetland" />
		<tag k="ssr:stedsnr" v="107448" />
	</node>
	<node id="-634798" lat="65.6193111123" lon="12.3751944403">
		<tag k="name" v="Ørnsteinan" />
		<tag k="natural" v="stone" />
		<tag k="ssr:stedsnr" v="228838" />
	</node>
	<node id="-635342" lat="65.7074611145" lon="12.4206333439">
		<tag k="name" v="Høyvikbergan" />
		<tag k="place" v="locality" />
		<tag k="ssr:stedsnr" v="956641" />
	</node>
	<node id="-635051" lat="65.7535722206" lon="12.5800888829">
		<tag k="name" v="Stormyra" />
		<tag k="place" v="locality" />
		<tag k="ssr:stedsnr" v="652387" />
	</node>
	<node id="-635050" lat="65.7541277788" lon="12.5574527858">
		<tag k="name" v="Storvollen" />
		<tag k="place" v="locality" />
		<tag k="ssr:stedsnr" v="652372" />
	</node>
	<node id="-635170" lat="65.7108083367" lon="12.4123833289">
		<tag k="name" v="Juvikmyro" />
		<tag k="natural" v="wetland" />
		<tag k="ssr:stedsnr" v="774483" />
	</node>
	<node id="-635169" lat="65.751663891" lon="12.5704944496">
		<tag k="name" v="Slotteråsmyro" />
		<tag k="natural" v="wetland" />
		<tag k="ssr:stedsnr" v="774443" />
	</node>
	<node id="-635167" lat="65.7483083324" lon="12.5866972229">
		<tag k="name" v="Stormoen" />
		<tag k="place" v="locality" />
		<tag k="ssr:stedsnr" v="774437" />
	</node>
	<node id="-634947" lat="65.7126249967" lon="12.411674996">
		<tag k="name" v="Geitgroven" />
		<tag k="natural" v="wetland" />
		<tag k="ssr:stedsnr" v="532416" />
	</node>
	<node id="-634797" lat="65.6287722184" lon="12.376686105">
		<tag k="name" v="Krokliurda" />
		<tag k="natural" v="scree" />
		<tag k="ssr:stedsnr" v="228834" />
	</node>
	<node id="-635020" lat="65.6199111144" lon="12.3768222161">
		<tag k="name" v="Kleivdalsurda" />
		<tag k="natural" v="scree" />
		<tag k="ssr:stedsnr" v="592856" />
	</node>
	<node id="-635019" lat="65.6358833354" lon="12.3760861041">
		<tag k="name" v="Steinan" />
		<tag k="natural" v="stone" />
		<tag k="ssr:stedsnr" v="592843" />
	</node>
	<node id="-634945" lat="65.7507750003" lon="12.5871388955">
		<tag k="name" v="Sjursmoen" />
		<tag k="place" v="locality" />
		<tag k="ssr:stedsnr" v="532368" />
	</node>
	<node id="-634498" lat="65.6602583357" lon="12.3921166763">
		<tag k="name" v="Høyholmsmarka" />
		<tag k="place" v="locality" />
		<tag k="ssr:stedsnr" v="350708" />
	</node>
</osm>
