<?xml version="1.0" encoding="UTF-8"?>
<osm generator="osmapis" version="0.6">
	<node id="-120832" lat="65.6528333362" lon="12.763149993">
		<tag k="name" v="Tverrelva" />
		<tag k="ssr:stedsnr" v="865853" />
		<tag k="waterway" v="stream" />
	</node>
	<node id="-120831" lat="65.6457638862" lon="12.9234361149">
		<tag k="name" v="Grunnvatnet" />
		<tag k="natural" v="water" />
		<tag k="ssr:stedsnr" v="865849" />
		<tag k="water" v="lake" />
	</node>
	<node id="-120829" lat="65.6132833309" lon="12.9337472237">
		<tag k="name" v="Stillelvkroken" />
		<tag k="place" v="locality" />
		<tag k="ssr:stedsnr" v="865824" />
	</node>
	<node id="-120828" lat="65.6080111073" lon="12.7883361212">
		<tag k="name" v="Storvika" />
		<tag k="natural" v="bay" />
		<tag k="ssr:stedsnr" v="865803" />
	</node>
	<node id="-120827" lat="65.6881361142" lon="12.8876333256">
		<tag k="name" v="Burriejaevrie" />
		<tag k="name:sma" v="Burriejaevrie" />
		<tag k="natural" v="water" />
		<tag k="ssr:stedsnr" v="865765" />
		<tag k="water" v="lake" />
	</node>
	<node id="-120826" lat="65.5705999989" lon="12.7221499945">
		<tag k="name" v="Storbekken" />
		<tag k="ssr:stedsnr" v="865705" />
		<tag k="waterway" v="stream" />
	</node>
	<node id="-120825" lat="65.5848861147" lon="12.7687472321">
		<tag k="name" v="Lakselva" />
		<tag k="ssr:stedsnr" v="865696" />
		<tag k="waterway" v="river" />
	</node>
	<node id="-120824" lat="65.589986108" lon="12.883675001">
		<tag k="name" v="Durmålselva" />
		<tag k="ssr:stedsnr" v="865691" />
		<tag k="waterway" v="stream" />
	</node>
	<node id="-120311" lat="65.6779555572" lon="12.550836107">
		<tag k="name" v="Jakobdalselva" />
		<tag k="ssr:stedsnr" v="836755" />
		<tag k="waterway" v="river" />
	</node>
	<node id="-120822" lat="65.5444611148" lon="12.7729333249">
		<tag k="alt_name" v="Austerdalselva, nordre" />
		<tag k="name" v="Nordre Austerdalselva" />
		<tag k="ssr:stedsnr" v="865646" />
		<tag k="waterway" v="river" />
	</node>
	<node id="-120317" lat="65.6903111098" lon="12.4424472237">
		<tag k="name" v="Raudalsbekken" />
		<tag k="ssr:stedsnr" v="896659" />
		<tag k="waterway" v="stream" />
	</node>
	<node id="-120812" lat="65.6652527758" lon="12.3367499929">
		<tag k="name" v="Lomvatnet" />
		<tag k="natural" v="water" />
		<tag k="ssr:stedsnr" v="865106" />
	</node>
	<node id="-120298" lat="65.6135666657" lon="12.7679305663">
		<tag k="name" v="Storstraumen" />
		<tag k="natural" v="strait" />
		<tag k="ssr:stedsnr" v="804824" />
	</node>
	<node id="-120296" lat="65.6052000021" lon="12.3746111125">
		<tag k="name" v="Mølnhusbekken" />
		<tag k="ssr:stedsnr" v="804809" />
		<tag k="waterway" v="stream" />
	</node>
	<node id="-119974" lat="65.5417388854" lon="12.7306250005">
		<tag k="alt_name" v="Vesterdalselva, nordre" />
		<tag k="name" v="Nordre Vesterdalselva" />
		<tag k="ssr:stedsnr" v="258691" />
		<tag k="waterway" v="stream" />
	</node>
	<node id="-120289" lat="65.5729833355" lon="12.7498333428">
		<tag k="name" v="Øvrepollen" />
		<tag k="natural" v="bay" />
		<tag k="ssr:stedsnr" v="926668" />
	</node>
	<node id="-120287" lat="65.5312166657" lon="12.7648250088">
		<tag k="name" v="Tøymvatnet" />
		<tag k="natural" v="water" />
		<tag k="ssr:stedsnr" v="926623" />
	</node>
	<node id="-120283" lat="65.7512500024" lon="12.6791416736">
		<tag k="name" v="Brennåvatnan" />
		<tag k="natural" v="water" />
		<tag k="ssr:stedsnr" v="926091" />
	</node>
	<node id="-120281" lat="65.6634361082" lon="12.5466249927">
		<tag k="name" v="Kilmarkelva" />
		<tag k="ssr:stedsnr" v="926080" />
		<tag k="waterway" v="stream" />
	</node>
	<node id="-120275" lat="65.6893138851" lon="12.5192416585">
		<tag k="name" v="Snødalsvatnet" />
		<tag k="natural" v="water" />
		<tag k="ssr:stedsnr" v="926029" />
	</node>
	<node id="-120271" lat="65.6676888933" lon="12.760033331">
		<tag k="name" v="Svarttjørna" />
		<tag k="natural" v="water" />
		<tag k="ssr:stedsnr" v="925904" />
	</node>
	<node id="-120782" lat="65.6767555537" lon="12.7966499904">
		<tag k="name" v="Krongelvasselva" />
		<tag k="ssr:stedsnr" v="804866" />
		<tag k="waterway" v="stream" />
	</node>
	<node id="-120781" lat="65.675558332" lon="12.7836611193">
		<tag k="name" v="Bønnåvatnet" />
		<tag k="natural" v="water" />
		<tag k="ssr:stedsnr" v="804865" />
		<tag k="water" v="lake" />
	</node>
	<node id="-120778" lat="65.5776833349" lon="12.9710416647">
		<tag k="alt_name:no" v="Vistvatnet, nordre" />
		<tag k="alt_name:sma" v="Væstanjaevrie, noerhte" />
		<tag k="name" v="Nordre Vistvatnet - Noerhte Væstanjaevrie" />
		<tag k="name:no" v="Nordre Vistvatnet" />
		<tag k="name:sma" v="Noerhte Væstanjaevrie" />
		<tag k="natural" v="water" />
		<tag k="ssr:stedsnr" v="804692" />
		<tag k="water" v="lake" />
	</node>
	<node id="-120770" lat="65.6741249985" lon="12.3698027788">
		<tag k="name" v="Dalabekken" />
		<tag k="ssr:stedsnr" v="804078" />
		<tag k="waterway" v="stream" />
	</node>
	<node id="-120252" lat="65.6073999966" lon="12.6587583422">
		<tag k="name" v="Snøfjellvatnan" />
		<tag k="natural" v="water" />
		<tag k="ssr:stedsnr" v="743911" />
		<tag k="water" v="lake" />
	</node>
	<node id="-120246" lat="65.6694583315" lon="12.4080027806">
		<tag k="name" v="Sandosbekken" />
		<tag k="ssr:stedsnr" v="743083" />
		<tag k="waterway" v="stream" />
	</node>
	<node id="-120243" lat="65.6768944463" lon="12.5515388889">
		<tag k="name" v="Finntjørna" />
		<tag k="natural" v="water" />
		<tag k="ssr:stedsnr" v="743073" />
	</node>
	<node id="-120754" lat="65.6546361097" lon="12.5887972171">
		<tag k="name" v="Nervassengvatnet" />
		<tag k="natural" v="water" />
		<tag k="ssr:stedsnr" v="775753" />
		<tag k="water" v="lake" />
	</node>
	<node id="-120240" lat="65.646091668" lon="12.541383331">
		<tag k="name" v="Øverdyrvollvatnet" />
		<tag k="natural" v="water" />
		<tag k="ssr:stedsnr" v="896802" />
		<tag k="water" v="lake" />
	</node>
	<node id="-120741" lat="65.7253000035" lon="12.5012333375">
		<tag k="name" v="Dalelva" />
		<tag k="ssr:stedsnr" v="744178" />
		<tag k="waterway" v="stream" />
	</node>
	<node id="-120740" lat="65.6284111135" lon="12.5973749987">
		<tag k="name" v="Lomtjørnan" />
		<tag k="natural" v="water" />
		<tag k="ssr:stedsnr" v="743933" />
	</node>
	<node id="-120225" lat="65.7491777768" lon="12.5909083323">
		<tag k="name" v="Almlibekken" />
		<tag k="ssr:stedsnr" v="714427" />
		<tag k="waterway" v="stream" />
	</node>
	<node id="-120220" lat="65.6180555563" lon="12.4165777722">
		<tag k="name" v="Liåvatnet" />
		<tag k="natural" v="water" />
		<tag k="ssr:stedsnr" v="683919" />
		<tag k="water" v="lake" />
	</node>
	<node id="-120731" lat="65.6822194435" lon="12.3588277782">
		<tag k="name" v="Langvatnet" />
		<tag k="natural" v="water" />
		<tag k="ssr:stedsnr" v="743050" />
	</node>
	<node id="-120218" lat="65.6269416668" lon="12.3795249984">
		<tag k="name" v="Mølnhusbekken" />
		<tag k="ssr:stedsnr" v="683787" />
		<tag k="waterway" v="stream" />
	</node>
	<node id="-120211" lat="65.6672250042" lon="12.4048888823">
		<tag k="fixme" v="multiple name tags, choose one and add the other to alt_name" />
		<tag k="name" v="Drògsåa;Drògsåbekken" />
		<tag k="ssr:stedsnr" v="683055" />
		<tag k="waterway" v="stream" />
	</node>
	<node id="-120721" lat="65.6529638902" lon="12.568388887">
		<tag k="alt_name" v="Koppvatnan" />
		<tag k="name" v="Koppvatnet" />
		<tag k="natural" v="water" />
		<tag k="ssr:stedsnr" v="743124" />
	</node>
	<node id="-120720" lat="65.6512194402" lon="12.3868249992">
		<tag k="name" v="Gullåa" />
		<tag k="ssr:stedsnr" v="743120" />
		<tag k="waterway" v="stream" />
	</node>
	<node id="-120719" lat="65.6394999965" lon="12.3791583419">
		<tag k="name" v="Skiftesbekken" />
		<tag k="old_name" v="Skipnesbekken" />
		<tag k="ssr:stedsnr" v="743118" />
		<tag k="waterway" v="stream" />
	</node>
	<node id="-120718" lat="65.7645916704" lon="12.5821083363">
		<tag k="name" v="Brennåa" />
		<tag k="ssr:stedsnr" v="743106" />
		<tag k="waterway" v="river" />
	</node>
	<node id="-120713" lat="65.6360555519" lon="12.5532666581">
		<tag k="name" v="Stormarkelva" />
		<tag k="ssr:stedsnr" v="653802" />
		<tag k="waterway" v="river" />
	</node>
	<node id="-120709" lat="65.6953166658" lon="12.4532222283">
		<tag k="name" v="Kvannlibekken" />
		<tag k="ssr:stedsnr" v="653615" />
		<tag k="waterway" v="stream" />
	</node>
	<node id="-120196" lat="65.6308277735" lon="12.5874666625">
		<tag k="name" v="Skvarbekken" />
		<tag k="ssr:stedsnr" v="714772" />
		<tag k="waterway" v="stream" />
	</node>
	<node id="-120185" lat="65.7701555547" lon="12.5868361011">
		<tag k="name" v="Giskåa" />
		<tag k="ssr:stedsnr" v="713320" />
		<tag k="waterway" v="stream" />
	</node>
	<node id="-120694" lat="65.5545277749" lon="12.9839416724">
		<tag k="alt_name:no" v="Vistvatnet, søre" />
		<tag k="alt_name:sma" v="Væstanjaevrie, åårjel" />
		<tag k="name" v="Søre Vistvatnet - Åårjel Væstanjaevrie" />
		<tag k="name:no" v="Søre Vistvatnet" />
		<tag k="name:sma" v="Åårjel Væstanjaevrie" />
		<tag k="natural" v="water" />
		<tag k="ssr:stedsnr" v="622687" />
		<tag k="water" v="lake" />
	</node>
	<node id="-120693" lat="65.5992166699" lon="12.7998055631">
		<tag k="name" v="Sagbekken" />
		<tag k="ssr:stedsnr" v="622664" />
		<tag k="waterway" v="stream" />
	</node>
	<node id="-120691" lat="65.7204000002" lon="12.6641444409">
		<tag k="alt_name" v="Kvannlivatnet, nedre" />
		<tag k="name" v="Nedre Kvannlivatnet" />
		<tag k="natural" v="water" />
		<tag k="ssr:stedsnr" v="622251" />
	</node>
	<node id="-120177" lat="65.6189416708" lon="12.503591673">
		<tag k="name" v="Nedresvanvatnet" />
		<tag k="natural" v="water" />
		<tag k="ssr:stedsnr" v="561916" />
		<tag k="water" v="lake" />
	</node>
	<node id="-120688" lat="65.6594194443" lon="12.3307111154">
		<tag k="name" v="Storvatnet" />
		<tag k="natural" v="water" />
		<tag k="ssr:stedsnr" v="622102" />
	</node>
	<node id="-120684" lat="65.6833361108" lon="12.3701083272">
		<tag k="name" v="Mølnhaugbekken" />
		<tag k="ssr:stedsnr" v="622040" />
		<tag k="waterway" v="stream" />
	</node>
	<node id="-120677" lat="65.6438777763" lon="12.5412277727">
		<tag k="name" v="Dyrvollvatnan" />
		<tag k="natural" v="water" />
		<tag k="ssr:stedsnr" v="621094" />
	</node>
	<node id="-120161" lat="65.6685361074" lon="12.9217916594">
		<tag k="alt_name" v="Austerfjordvatnan, nordre" />
		<tag k="name" v="Nordre Austerfjordvatnan" />
		<tag k="natural" v="water" />
		<tag k="ssr:stedsnr" v="683839" />
		<tag k="water" v="lake" />
	</node>
	<node id="-120159" lat="65.5629611075" lon="12.7299083235">
		<tag k="name" v="Sprutdalselva" />
		<tag k="ssr:stedsnr" v="683662" />
		<tag k="waterway" v="stream" />
	</node>
	<node id="-120148" lat="65.6518388868" lon="12.5469750082">
		<tag k="name" v="Leirdamvatnet" />
		<tag k="natural" v="water" />
		<tag k="ssr:stedsnr" v="682128" />
	</node>
	<node id="-120138" lat="65.6374611143" lon="12.6287277813">
		<tag k="name" v="Ausvatnet" />
		<tag k="natural" v="water" />
		<tag k="ssr:stedsnr" v="500941" />
	</node>
	<node id="-120135" lat="65.6178249981" lon="12.7638972204">
		<tag k="name" v="Grannesvatnet" />
		<tag k="natural" v="water" />
		<tag k="ssr:stedsnr" v="440819" />
	</node>
	<node id="-120131" lat="65.5192611117" lon="12.7643972132">
		<tag k="name" v="Rundtjørna" />
		<tag k="natural" v="water" />
		<tag k="ssr:stedsnr" v="501612" />
	</node>
	<node id="-120640" lat="65.5815277748" lon="12.4207611141">
		<tag k="name" v="Mølnelva" />
		<tag k="ssr:stedsnr" v="561867" />
		<tag k="waterway" v="stream" />
	</node>
	<node id="-120639" lat="65.6726472194" lon="12.8279638807">
		<tag k="name" v="Krongelvatnet" />
		<tag k="natural" v="water" />
		<tag k="ssr:stedsnr" v="561861" />
		<tag k="water" v="lake" />
	</node>
	<node id="-120638" lat="65.626280553" lon="12.8198388866">
		<tag k="alt_name" v="Austerfjordvatnet, s" />
		<tag k="name" v="Søre Austerfjordvatnet" />
		<tag k="natural" v="water" />
		<tag k="ssr:stedsnr" v="561839" />
	</node>
	<node id="-120637" lat="65.6106249987" lon="12.8547888914">
		<tag k="name" v="Sæterelva" />
		<tag k="ssr:stedsnr" v="561800" />
		<tag k="waterway" v="river" />
	</node>
	<node id="-120636" lat="65.566977774" lon="12.7513555467">
		<tag k="name" v="Laksmarkvatnet" />
		<tag k="natural" v="water" />
		<tag k="ssr:stedsnr" v="561695" />
		<tag k="water" v="lake" />
	</node>
	<node id="-120634" lat="65.7194138883" lon="12.5386972144">
		<tag k="name" v="Lislåmivatnet" />
		<tag k="natural" v="water" />
		<tag k="ssr:stedsnr" v="561241" />
	</node>
	<node id="-120121" lat="65.6900027777" lon="12.8059861007">
		<tag k="name" v="Øvre Bønnåvatnet" />
		<tag k="natural" v="water" />
		<tag k="ssr:stedsnr" v="500803" />
		<tag k="water" v="lake" />
	</node>
	<node id="-120120" lat="65.6870194477" lon="12.5604249908">
		<tag k="name" v="Jakopdalsvatnet" />
		<tag k="natural" v="water" />
		<tag k="ssr:stedsnr" v="501024" />
	</node>
	<node id="-120630" lat="65.734083333" lon="12.6989055603">
		<tag k="alt_name" v="Kvannlivatnet, øvre" />
		<tag k="name" v="Øvre Kvannlivatnet" />
		<tag k="natural" v="water" />
		<tag k="ssr:stedsnr" v="561224" />
	</node>
	<node id="-120115" lat="65.7154083361" lon="12.626713879">
		<tag k="alt_name" v="Aunelva" />
		<tag k="name" v="Auna" />
		<tag k="ssr:stedsnr" v="500015" />
		<tag k="waterway" v="stream" />
	</node>
	<node id="-120626" lat="65.5700361075" lon="12.440427774">
		<tag k="name" v="Johanvatnet" />
		<tag k="natural" v="water" />
		<tag k="ssr:stedsnr" v="560898" />
	</node>
	<node id="-120618" lat="65.6859805561" lon="12.4343305579">
		<tag k="name" v="Stormobekken" />
		<tag k="ssr:stedsnr" v="532657" />
		<tag k="waterway" v="stream" />
	</node>
	<node id="-120608" lat="65.7683611133" lon="12.5869250007">
		<tag k="name" v="Flæsa" />
		<tag k="ssr:stedsnr" v="531336" />
		<tag k="waterway" v="stream" />
	</node>
	<node id="-120090" lat="65.6982638932" lon="12.4563583428">
		<tag k="name" v="Grønnlibekken" />
		<tag k="ssr:stedsnr" v="471614" />
		<tag k="waterway" v="stream" />
	</node>
	<node id="-120599" lat="65.6413361147" lon="12.6221138875">
		<tag k="name" v="Avslielva" />
		<tag k="ssr:stedsnr" v="410781" />
		<tag k="waterway" v="river" />
	</node>
	<node id="-120085" lat="65.7159777767" lon="12.4797527715">
		<tag k="name" v="Korsvikelva" />
		<tag k="ssr:stedsnr" v="471537" />
		<tag k="waterway" v="stream" />
	</node>
	<node id="-120596" lat="65.6565500024" lon="12.3925722168">
		<tag k="name" v="Nord-Breiåa" />
		<tag k="ssr:stedsnr" v="410757" />
		<tag k="waterway" v="stream" />
	</node>
	<node id="-120080" lat="65.7112388894" lon="12.4174666767">
		<tag k="name" v="Sørvatnet" />
		<tag k="natural" v="water" />
		<tag k="ssr:stedsnr" v="471448" />
	</node>
	<node id="-120077" lat="65.7066249988" lon="12.4602916601">
		<tag k="name" v="Grønbechelva" />
		<tag k="ssr:stedsnr" v="289670" />
		<tag k="waterway" v="stream" />
	</node>
	<node id="-120585" lat="65.6090027764" lon="12.3674138883">
		<tag k="name" v="Fornesbekken" />
		<tag k="ssr:stedsnr" v="379928" />
		<tag k="waterway" v="stream" />
	</node>
	<node id="-120584" lat="65.623080559" lon="12.6345083413">
		<tag k="name" v="Storvatnet" />
		<tag k="natural" v="water" />
		<tag k="ssr:stedsnr" v="379924" />
		<tag k="water" v="lake" />
	</node>
	<node id="-120066" lat="65.5710944426" lon="12.4078277696">
		<tag k="name" v="Tindelva" />
		<tag k="ssr:stedsnr" v="258877" />
		<tag k="waterway" v="stream" />
	</node>
	<node id="-120063" lat="65.6588472252" lon="12.8485916704">
		<tag k="name" v="Lomtjørnan" />
		<tag k="natural" v="water" />
		<tag k="ssr:stedsnr" v="258858" />
	</node>
	<node id="-120062" lat="65.6198555544" lon="12.9401777805">
		<tag k="name" v="Svarttjørna" />
		<tag k="natural" v="water" />
		<tag k="ssr:stedsnr" v="258822" />
	</node>
	<node id="-120571" lat="65.715283332" lon="12.5583388878">
		<tag k="name" v="Åmivatnet" />
		<tag k="natural" v="water" />
		<tag k="ssr:stedsnr" v="379245" />
	</node>
	<node id="-120570" lat="65.7137861111" lon="12.4233111018">
		<tag k="name" v="Nordvatnet" />
		<tag k="natural" v="water" />
		<tag k="ssr:stedsnr" v="379239" />
	</node>
	<node id="-120057" lat="65.7018944478" lon="12.6481999927">
		<tag k="name" v="Almoselva" />
		<tag k="ssr:stedsnr" v="258009" />
		<tag k="waterway" v="stream" />
	</node>
	<node id="-120566" lat="65.7371611128" lon="12.5912055581">
		<tag k="name" v="Visthuselva" />
		<tag k="ssr:stedsnr" v="379209" />
		<tag k="waterway" v="stream" />
	</node>
	<node id="-120046" lat="65.6228638893" lon="12.5559277821">
		<tag k="name" v="Svartvatnet" />
		<tag k="natural" v="water" />
		<tag k="ssr:stedsnr" v="440931" />
	</node>
	<node id="-120557" lat="65.6808944452" lon="12.6726750048">
		<tag k="name" v="Tverrlandselva" />
		<tag k="ssr:stedsnr" v="379081" />
		<tag k="waterway" v="stream" />
	</node>
	<node id="-120043" lat="65.6501638886" lon="12.7500722192">
		<tag k="name" v="Bønnåforsen" />
		<tag k="natural" v="waterfall" />
		<tag k="ssr:stedsnr" v="440846" />
	</node>
	<node id="-120040" lat="65.5195861129" lon="12.7704833383">
		<tag k="name" v="Tøymvasselva" />
		<tag k="ssr:stedsnr" v="440629" />
		<tag k="waterway" v="stream" />
	</node>
	<node id="-120545" lat="65.6416694472" lon="12.5434555656">
		<tag k="name" v="Nerdyvollvatnet" />
		<tag k="natural" v="water" />
		<tag k="ssr:stedsnr" v="350767" />
		<tag k="water" v="lake" />
	</node>
	<node id="-120529" lat="65.5591749961" lon="12.766780546">
		<tag k="name" v="Kveldholbekken" />
		<tag k="ssr:stedsnr" v="319675" />
		<tag k="waterway" v="stream" />
	</node>
	<node id="-120014" lat="65.6276999985" lon="12.5613527873">
		<tag k="fixme" v="multiple name tags, choose one and add the other to alt_name" />
		<tag k="name" v="Langvatnet;Storvatnet" />
		<tag k="natural" v="water" />
		<tag k="ssr:stedsnr" v="197941" />
	</node>
	<node id="-120521" lat="65.7671083377" lon="12.6061527747">
		<tag k="name" v="Fleselva" />
		<tag k="ssr:stedsnr" v="319038" />
		<tag k="waterway" v="stream" />
	</node>
	<node id="-120514" lat="65.6136555514" lon="12.8864111186">
		<tag k="name" v="Fallforsen" />
		<tag k="natural" v="waterfall" />
		<tag k="ssr:stedsnr" v="318841" />
	</node>
	<node id="-120001" lat="65.6900277741" lon="12.4347083348">
		<tag k="name" v="Alettekroken" />
		<tag k="natural" v="water" />
		<tag k="ssr:stedsnr" v="289693" />
		<tag k="water" v="lake" />
	</node>
	<node id="-120511" lat="65.6348027811" lon="12.5831138923">
		<tag k="name" v="Bjorvatnet" />
		<tag k="natural" v="water" />
		<tag k="ssr:stedsnr" v="318106" />
		<tag k="water" v="lake" />
	</node>
	<node id="-120510" lat="65.6517611104" lon="12.5969138906">
		<tag k="fixme" v="multiple name tags, choose one and add the other to alt_name" />
		<tag k="name" v="Vassengvatnet;Øver-Vassengvatnet" />
		<tag k="natural" v="water" />
		<tag k="ssr:stedsnr" v="318103" />
		<tag k="water" v="lake" />
	</node>
	<node id="-120508" lat="65.6445638904" lon="12.3790833442">
		<tag k="name" v="Mølnhusbekken" />
		<tag k="ssr:stedsnr" v="318098" />
		<tag k="waterway" v="stream" />
	</node>
	<node id="-120179" lat="65.6218694473" lon="12.61225001">
		<tag k="name" v="Rundvatnet" />
		<tag k="natural" v="water" />
		<tag k="ssr:stedsnr" v="561920" />
	</node>
	<node id="-119981" lat="65.6160500023" lon="12.3819111044">
		<tag k="name" v="Liåa" />
		<tag k="ssr:stedsnr" v="258934" />
		<tag k="waterway" v="stream" />
	</node>
	<node id="-120491" lat="65.6776805521" lon="12.772030555">
		<tag k="name" v="Storfjell" />
		<tag k="ssr:stedsnr" v="197884" />
		<tag k="waterway" v="stream" />
	</node>
	<node id="-120320" lat="65.6007249958" lon="12.8256833253">
		<tag k="name" v="Mølnhusforsen" />
		<tag k="natural" v="waterfall" />
		<tag k="ssr:stedsnr" v="926812" />
	</node>
	<node id="-120488" lat="65.5633999999" lon="12.755874998">
		<tag k="name" v="Langneset" />
		<tag k="natural" v="cape" />
		<tag k="ssr:stedsnr" v="197718" />
	</node>
	<node id="-120487" lat="65.6229250001" lon="12.7227138956">
		<tag k="name" v="Mølnhuselva" />
		<tag k="ssr:stedsnr" v="197850" />
		<tag k="waterway" v="stream" />
	</node>
	<node id="-120486" lat="65.6138138911" lon="12.7266499977">
		<tag k="name" v="Snøfjellelva" />
		<tag k="ssr:stedsnr" v="197840" />
		<tag k="waterway" v="stream" />
	</node>
	<node id="-119968" lat="65.6998694434" lon="12.6621749977">
		<tag k="name" v="Vasslivatnet" />
		<tag k="natural" v="water" />
		<tag k="ssr:stedsnr" v="258049" />
	</node>
	<node id="-120478" lat="65.687938892" lon="12.6749138983">
		<tag k="name" v="Sagelva" />
		<tag k="ssr:stedsnr" v="197077" />
		<tag k="waterway" v="stream" />
	</node>
	<node id="-119960" lat="65.7348805527" lon="12.6105611173">
		<tag k="name" v="Mellomvatnet" />
		<tag k="natural" v="water" />
		<tag k="ssr:stedsnr" v="258227" />
	</node>
	<node id="-120002" lat="65.6780083361" lon="12.4259805652">
		<tag k="name" v="Durmålsbekken" />
		<tag k="ssr:stedsnr" v="289773" />
		<tag k="waterway" v="stream" />
	</node>
	<node id="-120219" lat="65.6365833336" lon="12.7042277806">
		<tag k="name" v="Langvågvatnan" />
		<tag k="natural" v="water" />
		<tag k="ssr:stedsnr" v="683915" />
	</node>
	<node id="-120087" lat="65.7222833363" lon="12.6073388913">
		<tag k="name" v="Moelva" />
		<tag k="ssr:stedsnr" v="471566" />
		<tag k="waterway" v="stream" />
	</node>
	<node id="-120172" lat="65.6315888891" lon="12.5195888836">
		<tag k="name" v="Storhaugvatnet" />
		<tag k="natural" v="water" />
		<tag k="ssr:stedsnr" v="561120" />
	</node>
	<node id="-120453" lat="65.576977777" lon="12.4100027754">
		<tag k="name" v="Johanelva" />
		<tag k="ssr:stedsnr" v="137864" />
		<tag k="waterway" v="stream" />
	</node>
	<node id="-120451" lat="65.6558527767" lon="12.3970055605">
		<tag k="name" v="Breiåa" />
		<tag k="ssr:stedsnr" v="137064" />
		<tag k="waterway" v="stream" />
	</node>
	<node id="-119933" lat="65.7494055523" lon="12.5815666691">
		<tag k="name" v="Stokkaelva" />
		<tag k="ssr:stedsnr" v="228437" />
		<tag k="waterway" v="stream" />
	</node>
	<node id="-120444" lat="65.6249000024" lon="12.7444194346">
		<tag k="alt_name" v="Straumen, nedre" />
		<tag k="name" v="Nedre Straumen" />
		<tag k="natural" v="strait" />
		<tag k="ssr:stedsnr" v="136852" />
	</node>
	<node id="-120443" lat="65.6052583375" lon="12.7410222226">
		<tag k="name" v="Granneselva" />
		<tag k="ssr:stedsnr" v="136831" />
		<tag k="waterway" v="river" />
	</node>
	<node id="-120442" lat="65.6048833289" lon="12.7854666759">
		<tag k="name" v="Lakselvvatnet" />
		<tag k="natural" v="water" />
		<tag k="ssr:stedsnr" v="136823" />
		<tag k="water" v="lake" />
	</node>
	<node id="-120441" lat="65.5997999992" lon="12.9405500041">
		<tag k="name" v="Vistvasselva" />
		<tag k="ssr:stedsnr" v="136688" />
		<tag k="waterway" v="river" />
	</node>
	<node id="-120440" lat="65.6009222243" lon="12.9054722275">
		<tag k="name" v="Blankvatnet" />
		<tag k="natural" v="water" />
		<tag k="ssr:stedsnr" v="136676" />
	</node>
	<node id="-119924" lat="65.7306055546" lon="12.6707250022">
		<tag k="name" v="Kvannlivatnet" />
		<tag k="natural" v="water" />
		<tag k="ssr:stedsnr" v="15228" />
		<tag k="water" v="lake" />
	</node>
	<node id="-119919" lat="65.6403583345" lon="12.5128805506">
		<tag k="name" v="Tasslivatnet" />
		<tag k="natural" v="water" />
		<tag k="ssr:stedsnr" v="15110" />
		<tag k="water" v="lake" />
	</node>
	<node id="-120430" lat="65.6334750029" lon="12.4888305587">
		<tag k="name" v="Raudbergsvatnet" />
		<tag k="natural" v="water" />
		<tag k="ssr:stedsnr" v="136130" />
	</node>
	<node id="-120428" lat="65.6634777794" lon="12.6057972171">
		<tag k="name" v="Laksosen" />
		<tag k="natural" v="bay" />
		<tag k="ssr:stedsnr" v="136097" />
	</node>
	<node id="-120427" lat="65.6797416667" lon="12.376980564">
		<tag k="name" v="Oterbekken" />
		<tag k="ssr:stedsnr" v="136070" />
		<tag k="waterway" v="stream" />
	</node>
	<node id="-120426" lat="65.6778222248" lon="12.4145250047">
		<tag k="alt_name" v="Brødløselva" />
		<tag k="name" v="Brøloselva" />
		<tag k="ssr:stedsnr" v="136069" />
		<tag k="waterway" v="river" />
	</node>
	<node id="-120416" lat="65.6736277745" lon="12.4181333355">
		<tag k="name" v="Torvhågbekken" />
		<tag k="ssr:stedsnr" v="107721" />
		<tag k="waterway" v="stream" />
	</node>
	<node id="-120405" lat="65.7475444459" lon="12.5821361077">
		<tag k="name" v="Stormobekken" />
		<tag k="ssr:stedsnr" v="107399" />
		<tag k="waterway" v="stream" />
	</node>
	<node id="-120400" lat="65.5760749995" lon="12.4538333288">
		<tag k="name" v="Mølnvatnet" />
		<tag k="natural" v="water" />
		<tag k="ssr:stedsnr" v="76861" />
	</node>
	<node id="-120399" lat="65.6685250007" lon="12.7271777788">
		<tag k="name" v="Tøymtjørnbekken" />
		<tag k="ssr:stedsnr" v="76848" />
		<tag k="waterway" v="stream" />
	</node>
	<node id="-120397" lat="65.6257083362" lon="12.7747388911">
		<tag k="name" v="Danielbekken" />
		<tag k="ssr:stedsnr" v="76823" />
		<tag k="waterway" v="stream" />
	</node>
	<node id="-120396" lat="65.6175472223" lon="12.8586250087">
		<tag k="name" v="Stigbekken" />
		<tag k="ssr:stedsnr" v="76814" />
		<tag k="waterway" v="stream" />
	</node>
	<node id="-120393" lat="65.5909999954" lon="12.8060527844">
		<tag k="name" v="Kalvdalsbekken" />
		<tag k="ssr:stedsnr" v="76673" />
		<tag k="waterway" v="stream" />
	</node>
	<node id="-120390" lat="65.7188861084" lon="12.56254444">
		<tag k="name" v="Åa" />
		<tag k="ssr:stedsnr" v="76267" />
		<tag k="waterway" v="stream" />
	</node>
	<node id="-120380" lat="65.6692777768" lon="12.5669166603">
		<tag k="name" v="Langkilelva" />
		<tag k="ssr:stedsnr" v="76093" />
		<tag k="waterway" v="stream" />
	</node>
	<node id="-120370" lat="65.6960166633" lon="12.5880472208">
		<tag k="name" v="Brautvatnet" />
		<tag k="natural" v="water" />
		<tag k="ssr:stedsnr" v="47650" />
	</node>
	<node id="-120072" lat="65.656186111" lon="12.3904000064">
		<tag k="name" v="Sør-Breiåa" />
		<tag k="ssr:stedsnr" v="289818" />
		<tag k="waterway" v="stream" />
	</node>
	<node id="-120242" lat="65.6954472203" lon="12.5794833262">
		<tag k="name" v="Kilelva" />
		<tag k="ssr:stedsnr" v="743067" />
		<tag k="waterway" v="stream" />
	</node>
	<node id="-120839" lat="65.5907666701" lon="12.4273638922">
		<tag k="name" v="Botnelva" />
		<tag k="ssr:stedsnr" v="865907" />
		<tag k="waterway" v="stream" />
	</node>
	<node id="-120354" lat="65.6552250003" lon="12.4633083415">
		<tag k="name" v="Steintjørna" />
		<tag k="natural" v="water" />
		<tag k="ssr:stedsnr" v="16075" />
	</node>
	<node id="-120351" lat="65.6513583326" lon="12.7526999955">
		<tag k="name" v="Bønnåga" />
		<tag k="ssr:stedsnr" v="15869" />
		<tag k="waterway" v="river" />
	</node>
	<node id="-120862" lat="65.590974996" lon="12.4107583406">
		<tag k="name" v="Veggåa" />
		<tag k="ssr:stedsnr" v="957841" />
		<tag k="waterway" v="stream" />
	</node>
	<node id="-120349" lat="65.6057500009" lon="12.8224916672">
		<tag k="name" v="Bjorvatnet" />
		<tag k="natural" v="water" />
		<tag k="ssr:stedsnr" v="15845" />
	</node>
	<node id="-120347" lat="65.6117694424" lon="12.9210166749">
		<tag k="name" v="Stillelva" />
		<tag k="ssr:stedsnr" v="15824" />
		<tag k="waterway" v="river" />
	</node>
	<node id="-120346" lat="65.602777774" lon="12.8634500066">
		<tag k="name" v="Blankvasselva" />
		<tag k="ssr:stedsnr" v="15699" />
		<tag k="waterway" v="river" />
	</node>
	<node id="-120343" lat="65.5502944426" lon="12.8818583379">
		<tag k="name" v="Austerdalsvatnet - Åarjeljaevrie" />
		<tag k="name:no" v="Austerdalsvatnet" />
		<tag k="name:sma" v="Åarjeljaevrie" />
		<tag k="natural" v="water" />
		<tag k="ssr:stedsnr" v="15657" />
		<tag k="water" v="lake" />
	</node>
	<node id="-120342" lat="65.5579305585" lon="12.7506166577">
		<tag k="name" v="Laksmarkelva" />
		<tag k="ssr:stedsnr" v="15720" />
		<tag k="waterway" v="river" />
	</node>
	<node id="-120341" lat="65.7184499996" lon="12.5179750045">
		<tag k="name" v="Dalvatnan" />
		<tag k="natural" v="water" />
		<tag k="ssr:stedsnr" v="15262" />
	</node>
	<node id="-120849" lat="65.6915694482" lon="12.4414527779">
		<tag k="name" v="Breidammen" />
		<tag k="natural" v="water" />
		<tag k="ssr:stedsnr" v="956654" />
		<tag k="water" v="lake" />
	</node>
	<node id="-120840" lat="65.613438886" lon="12.4748805651">
		<tag k="name" v="Øvresvanvatnet" />
		<tag k="natural" v="water" />
		<tag k="ssr:stedsnr" v="865937" />
	</node>
	<node id="-120327" lat="65.6344499963" lon="12.6396027862">
		<tag k="name" v="Svartvatnet" />
		<tag k="natural" v="water" />
		<tag k="ssr:stedsnr" v="926921" />
	</node>
	<node id="-120326" lat="65.5919499969" lon="12.4609361005">
		<tag k="name" v="Botnvatnan" />
		<tag k="natural" v="water" />
		<tag k="ssr:stedsnr" v="926913" />
		<tag k="water" v="lake" />
	</node>
	<node id="-120322" lat="65.6132861156" lon="12.9502666611">
		<tag k="name" v="Sæterelva" />
		<tag k="ssr:stedsnr" v="926821" />
		<tag k="waterway" v="stream" />
	</node>
	<node id="-120321" lat="65.6067472227" lon="12.8445249917">
		<tag k="name" v="Hundklaven" />
		<tag k="natural" v="waterfall" />
		<tag k="ssr:stedsnr" v="926816" />
	</node>
</osm>
