<?xml version="1.0" encoding="UTF-8"?>
<<<<<<< HEAD
<osm version="0.6" generator="osmapis">
	<node lat="65.68288610851498" lon="12.415411115293075" id="-6565">
		<tag k="name" v="Smibakken" />
		<tag k="place" v="farm" />
		<tag k="ssr:stedsnr" v="229669" />
	</node>
	<node lat="65.67830833509618" lon="12.406177782742406" id="-6569">
		<tag k="alt_name" v="Ytterhågjen" />
		<tag k="name" v="Ytrehaugen" />
		<tag k="place" v="farm" />
		<tag k="ssr:stedsnr" v="15069" />
	</node>
	<node lat="65.67641731825185" lon="12.574571471781802" id="-6598">
		<tag k="alt_name" v="Langkila" />
		<tag k="name" v="Langkilen" />
		<tag k="place" v="locality" />
		<tag k="ssr:stedsnr" v="76067" />
	</node>
	<node lat="65.72523611207298" lon="12.598063897641458" id="-6599">
		<tag k="fixme" v="consider place=hamlet" />
		<tag k="name" v="Visthus" />
		<tag k="place" v="village" />
		<tag k="ssr:stedsnr" v="76249" />
	</node>
	<node lat="65.70144721956642" lon="12.44050000113223" id="-6611">
		<tag k="amenity" v="school" />
		<tag k="name" v="Vevelstad sentralskole" />
		<tag k="ssr:stedsnr" v="107611" />
	</node>
	<node lat="65.68670278075726" lon="12.423102768376893" id="-6619">
		<tag k="name" v="Svalvika" />
		<tag k="place" v="farm" />
		<tag k="ssr:stedsnr" v="136053" />
	</node>
	<node lat="65.73388339144856" lon="12.497873511832871" id="-6624">
		<tag k="fixme" v="consider place=hamlet" />
		<tag k="name" v="Vistnes" />
		<tag k="place" v="farm" />
		<tag k="ssr:stedsnr" v="136250" />
	</node>
	<node lat="65.69036666622019" lon="12.406875008107672" id="-6632">
		<tag k="name" v="Roparneset" />
		<tag k="place" v="farm" />
		<tag k="ssr:stedsnr" v="258031" />
	</node>
	<node lat="65.76573889051525" lon="12.583094447735366" id="-6633">
		<tag k="name" v="Brennåa" />
		<tag k="place" v="farm" />
		<tag k="ssr:stedsnr" v="258046" />
	</node>
	<node lat="65.6268888899254" lon="12.741138893156965" id="-6651">
		<tag k="name" v="Fagermoen" />
		<tag k="place" v="isolated_dwelling" />
		<tag k="ssr:stedsnr" v="258838" />
	</node>
	<node lat="65.63471111249386" lon="12.74490000337942" id="-6665">
		<tag k="name" v="Buvika" />
		<tag k="place" v="isolated_dwelling" />
		<tag k="ssr:stedsnr" v="197858" />
	</node>
	<node lat="65.70429166894071" lon="12.451061120445816" id="-6670">
		<tag k="name" v="Fagerbakken" />
		<tag k="place" v="farm" />
		<tag k="ssr:stedsnr" v="268166" />
	</node>
	<node lat="65.65180179645702" lon="12.623463157965679" id="-6671">
		<tag k="fixme" v="consider place=hamlet" />
		<tag k="name" v="Ausen" />
		<tag k="place" v="farm" />
		<tag k="ssr:stedsnr" v="222996" />
	</node>
	<node lat="65.65215277671082" lon="12.629036120724539" id="-6672">
		<tag k="name" v="Ausen" />
		<tag k="place" v="farm" />
		<tag k="ssr:stedsnr" v="222879" />
	</node>
	<node lat="65.65229999701087" lon="12.683116660822412" id="-6688">
		<tag k="fixme" v="consider place=hamlet" />
		<tag k="name" v="Arnvika" />
		<tag k="place" v="farm" />
		<tag k="ssr:stedsnr" v="258103" />
	</node>
	<node lat="65.70317499854552" lon="12.41876667436243" id="-6693">
		<tag k="name" v="Storgjerdet" />
		<tag k="place" v="farm" />
		<tag k="ssr:stedsnr" v="258020" />
	</node>
	<node lat="65.75705250812265" lon="12.565290317312973" id="-6694">
		<tag k="fixme" v="consider place=hamlet" />
		<tag k="name" v="Stokka" />
		<tag k="place" v="farm" />
		<tag k="ssr:stedsnr" v="258095" />
	</node>
	<node lat="65.7656111153968" lon="12.58334722451912" id="-6704">
		<tag k="name" v="Øver-Bren" />
		<tag k="place" v="farm" />
		<tag k="ssr:stedsnr" v="289329" />
	</node>
	<node lat="65.73591389159175" lon="12.67228610456248" id="-6715">
		<tag k="name" v="Kvannlia" />
		<tag k="place" v="locality" />
		<tag k="ssr:stedsnr" v="318214" />
	</node>
	<node lat="65.63996389340875" lon="12.372111106908745" id="-6749">
		<tag k="name" v="Høyholm" />
		<tag k="place" v="hamlet" />
		<tag k="ssr:stedsnr" v="379108" />
	</node>
	<node lat="65.63106467996069" lon="12.55879761444698" id="-6751">
		<tag k="name" v="Stormarka" />
		<tag k="place" v="locality" />
		<tag k="ssr:stedsnr" v="379126" />
	</node>
	<node lat="65.70100445615371" lon="12.446243243093392" id="-6753">
		<tag k="fixme" v="consider place=hamlet" />
		<tag k="name" v="Vevelstad" />
		<tag k="place" v="farm" />
		<tag k="ssr:stedsnr" v="379003" />
	</node>
	<node lat="65.69280555137524" lon="12.663027771508121" id="-6754">
		<tag k="name" v="Skardbakken" />
		<tag k="place" v="farm" />
		<tag k="ssr:stedsnr" v="379062" />
	</node>
	<node lat="65.72188055863504" lon="12.488258334911025" id="-6757">
		<tag k="name" v="Lyngmo" />
		<tag k="place" v="farm" />
		<tag k="ssr:stedsnr" v="379228" />
	</node>
	<node lat="65.62606110752346" lon="12.746700010295895" id="-6767">
		<tag k="name" v="Straumsneset" />
		<tag k="place" v="isolated_dwelling" />
		<tag k="ssr:stedsnr" v="379820" />
	</node>
	<node lat="65.63868055127782" lon="12.37126110472228" id="-6775">
		<tag k="name" v="Solheim 2" />
		<tag k="place" v="farm" />
		<tag k="ssr:stedsnr" v="410788" />
	</node>
	<node lat="65.69794166252589" lon="12.438516664261504" id="-6777">
		<tag k="fixme" v="multiple name tags, choose one and add the other to alt_name" />
		<tag k="name" v="Sør-Vollan;Vollan" />
		<tag k="place" v="farm" />
		<tag k="ssr:stedsnr" v="440008" />
	</node>
	<node lat="65.70055000075513" lon="12.587808327844536" id="-6779">
		<tag k="alt_name" v="Kilvågen" />
		<tag k="name" v="Kilvika" />
		<tag k="place" v="hamlet" />
		<tag k="ssr:stedsnr" v="440029" />
	</node>
	<node lat="65.6891706419261" lon="12.387526682713233" id="-6781">
		<tag k="fixme" v="consider place=hamlet" />
		<tag k="name" v="Hestun" />
		<tag k="place" v="farm" />
		<tag k="ssr:stedsnr" v="440050" />
	</node>
	<node lat="65.67219999682334" lon="12.61339165609972" id="-6782">
		<tag k="fixme" v="consider place=hamlet" />
		<tag k="name" v="Ytterstranda" />
		<tag k="old_name" v="Ytrestranda;Stranda" />
		<tag k="place" v="farm" />
		<tag k="ssr:stedsnr" v="440103" />
	</node>
	<node lat="65.6450222214365" lon="12.586249994679577" id="-6784">
		<tag k="name" v="Åsheim" />
		<tag k="place" v="farm" />
		<tag k="ssr:stedsnr" v="440155" />
	</node>
	<node lat="65.70455277857307" lon="12.589416669131538" id="-6791">
		<tag k="name" v="Ytteråkran" />
		<tag k="place" v="farm" />
		<tag k="ssr:stedsnr" v="450180" />
	</node>
	<node lat="65.63436110718283" lon="12.368580562520972" id="-6798">
		<tag k="name" v="Øvergård" />
		<tag k="place" v="farm" />
		<tag k="ssr:stedsnr" v="471808" />
	</node>
	<node lat="65.65873044954276" lon="12.59430219753511" id="-6807">
		<tag k="fixme" v="consider place=hamlet" />
		<tag k="name" v="Vasseng" />
		<tag k="place" v="farm" />
		<tag k="ssr:stedsnr" v="501083" />
	</node>
	<node lat="65.72573263025492" lon="12.498868377129817" id="-6808">
		<tag k="fixme" v="consider place=hamlet" />
		<tag k="name" v="Vistnesdalen" />
		<tag k="place" v="farm" />
		<tag k="ssr:stedsnr" v="501211" />
	</node>
	<node lat="65.70940833341704" lon="12.429152777869957" id="-6809">
		<tag k="alt_name" v="Høyvika" />
		<tag k="name" v="Høyvik" />
		<tag k="place" v="farm" />
		<tag k="ssr:stedsnr" v="501222" />
	</node>
	<node lat="65.64643960880862" lon="12.37510529152798" id="-6821">
		<tag k="fixme" v="consider place=hamlet" />
		<tag k="name" v="Øver-Høyholm" />
		<tag k="place" v="farm" />
		<tag k="ssr:stedsnr" v="510802" />
	</node>
	<node lat="65.66671111310983" lon="12.567174990210772" id="-6823">
		<tag k="name" v="Staulan" />
		<tag k="place" v="isolated_dwelling" />
		<tag k="ssr:stedsnr" v="683060" />
	</node>
	<node lat="65.66803333467138" lon="12.639944446356198" id="-6825">
		<tag k="name" v="Kvalvågen" />
=======
<osm generator="osmapis" version="0.6">
	<node id="-129536" lat="65.6979416625" lon="12.4385166643">
		<tag k="fixme" v="multiple name tags, choose one and add the other to alt_name" />
		<tag k="name" v="Sør-Vollan;Vollan" />
		<tag k="place" v="farm" />
		<tag k="ssr:stedsnr" v="440008" />
	</node>
	<node id="-130045" lat="65.5660388858" lon="12.7465111115">
		<tag k="fixme" v="consider place=hamlet" />
		<tag k="name" v="Laksmarka" />
		<tag k="place" v="farm" />
		<tag k="ssr:stedsnr" v="319665" />
	</node>
	<node id="-129706" lat="65.6839805521" lon="12.4171833383">
		<tag k="name" v="Amundviken" />
		<tag k="place" v="farm" />
		<tag k="ssr:stedsnr" v="714648" />
	</node>
	<node id="-129528" lat="65.6375011905" lon="12.5978957394">
		<tag k="alt_name" v="Ausli" />
		<tag k="fixme" v="consider place=hamlet" />
		<tag k="name" v="Auslia" />
		<tag k="place" v="farm" />
		<tag k="ssr:stedsnr" v="197135" />
	</node>
	<node id="-129522" lat="65.6977" lon="12.4181055451">
		<tag k="alt_name" v="Vågsvika" />
		<tag k="name" v="Vågsvikja" />
		<tag k="place" v="farm" />
		<tag k="ssr:stedsnr" v="197033" />
	</node>
	<node id="-129510" lat="65.7656111154" lon="12.5833472245">
		<tag k="name" v="Øver-Bren" />
		<tag k="place" v="farm" />
		<tag k="ssr:stedsnr" v="289329" />
	</node>
	<node id="-129506" lat="65.6908333377" lon="12.4255666719">
		<tag k="name" v="Nybakken" />
		<tag k="place" v="farm" />
		<tag k="ssr:stedsnr" v="167659" />
	</node>
	<node id="-129872" lat="65.7232166652" lon="12.4463805501">
		<tag k="name" v="Vågsodden" />
		<tag k="place" v="farm" />
		<tag k="ssr:stedsnr" v="16200" />
	</node>
	<node id="-130010" lat="65.6653055574" lon="12.4014333289">
		<tag k="alt_name" v="Olderlund" />
		<tag k="name" v="Olderlunden" />
		<tag k="place" v="farm" />
		<tag k="ssr:stedsnr" v="198047" />
	</node>
	<node id="-129495" lat="65.6268888899" lon="12.7411388932">
		<tag k="name" v="Fagermoen" />
		<tag k="place" v="isolated_dwelling" />
		<tag k="ssr:stedsnr" v="258838" />
	</node>
	<node id="-130006" lat="65.6347111125" lon="12.7449000034">
		<tag k="name" v="Buvika" />
		<tag k="place" v="isolated_dwelling" />
		<tag k="ssr:stedsnr" v="197858" />
	</node>
	<node id="-130000" lat="65.7297583297" lon="12.4891722215">
		<tag k="name" v="Vistnesstranda" />
		<tag k="place" v="farm" />
		<tag k="ssr:stedsnr" v="197247" />
	</node>
	<node id="-129487" lat="65.652299997" lon="12.6831166608">
		<tag k="fixme" v="consider place=hamlet" />
		<tag k="name" v="Arnvika" />
		<tag k="place" v="farm" />
		<tag k="ssr:stedsnr" v="258103" />
	</node>
	<node id="-129483" lat="65.7657388905" lon="12.5830944477">
		<tag k="name" v="Brennåa" />
		<tag k="place" v="farm" />
		<tag k="ssr:stedsnr" v="258046" />
	</node>
	<node id="-129482" lat="65.6903666662" lon="12.4068750081">
		<tag k="name" v="Roparneset" />
		<tag k="place" v="farm" />
		<tag k="ssr:stedsnr" v="258031" />
	</node>
	<node id="-129991" lat="65.6665472239" lon="12.4040472328">
		<tag k="name" v="Fjelltun" />
		<tag k="place" v="farm" />
		<tag k="ssr:stedsnr" v="169680" />
	</node>
	<node id="-129476" lat="65.7570525081" lon="12.5652903173">
		<tag k="fixme" v="consider place=hamlet" />
		<tag k="name" v="Stokka" />
		<tag k="place" v="farm" />
		<tag k="ssr:stedsnr" v="258095" />
	</node>
	<node id="-129971" lat="65.7004861095" lon="12.4412444551">
		<tag k="fixme" v="consider place=hamlet" />
		<tag k="name" v="Vevelstad" />
		<tag k="place" v="village" />
		<tag k="ssr:stedsnr" v="147499" />
	</node>
	<node id="-129458" lat="65.6828861085" lon="12.4154111153">
		<tag k="name" v="Smibakken" />
		<tag k="place" v="farm" />
		<tag k="ssr:stedsnr" v="229669" />
	</node>
	<node id="-129448" lat="65.6927666699" lon="12.4322611125">
		<tag k="name" v="Risåsen" />
		<tag k="place" v="quarter" />
		<tag k="ssr:stedsnr" v="228688" />
	</node>
	<node id="-129952" lat="65.7338833914" lon="12.4978735118">
		<tag k="fixme" v="consider place=hamlet" />
		<tag k="name" v="Vistnes" />
		<tag k="place" v="farm" />
		<tag k="ssr:stedsnr" v="136250" />
	</node>
	<node id="-129951" lat="65.7386888895" lon="12.5147194429">
		<tag k="name" v="Vistnesodden" />
		<tag k="place" v="farm" />
		<tag k="ssr:stedsnr" v="136245" />
	</node>
	<node id="-129950" lat="65.6461611076" lon="12.6760000091">
		<tag k="name" v="Tangvika" />
		<tag k="place" v="locality" />
		<tag k="ssr:stedsnr" v="136141" />
	</node>
	<node id="-129435" lat="65.6518017965" lon="12.623463158">
		<tag k="fixme" v="consider place=hamlet" />
		<tag k="name" v="Ausen" />
		<tag k="place" v="farm" />
		<tag k="ssr:stedsnr" v="222996" />
	</node>
	<node id="-129434" lat="65.6521527767" lon="12.6290361207">
		<tag k="name" v="Ausen" />
		<tag k="place" v="farm" />
		<tag k="ssr:stedsnr" v="222879" />
	</node>
	<node id="-129941" lat="65.6867027808" lon="12.4231027684">
		<tag k="name" v="Svalvika" />
		<tag k="place" v="farm" />
		<tag k="ssr:stedsnr" v="136053" />
	</node>
	<node id="-129929" lat="65.7014472196" lon="12.4405000011">
		<tag k="amenity" v="school" />
		<tag k="name" v="Vevelstad sentralskole" />
		<tag k="ssr:stedsnr" v="107611" />
	</node>
	<node id="-129772" lat="65.6929972233" lon="12.4291972257">
		<tag k="name" v="Slåttvikåsen" />
		<tag k="place" v="quarter" />
		<tag k="ssr:stedsnr" v="774678" />
	</node>
	<node id="-129770" lat="65.667774999" lon="12.6380555457">
		<tag k="name" v="Mortenhaugen" />
		<tag k="place" v="farm" />
		<tag k="ssr:stedsnr" v="744058" />
	</node>
	<node id="-129903" lat="65.7252361121" lon="12.5980638976">
		<tag k="fixme" v="consider place=hamlet" />
		<tag k="name" v="Visthus" />
		<tag k="place" v="village" />
		<tag k="ssr:stedsnr" v="76249" />
	</node>
	<node id="-129896" lat="65.6764173183" lon="12.5745714718">
		<tag k="alt_name" v="Langkila" />
		<tag k="name" v="Langkilen" />
		<tag k="place" v="locality" />
		<tag k="ssr:stedsnr" v="76067" />
	</node>
	<node id="-129766" lat="65.6074555593" lon="12.8380416612">
		<tag k="fixme" v="consider place=hamlet" />
		<tag k="name" v="Sætra" />
		<tag k="place" v="farm" />
		<tag k="ssr:stedsnr" v="743818" />
	</node>
	<node id="-129890" lat="65.7050222265" lon="12.450213891">
		<tag k="name" v="Elvbakken" />
		<tag k="place" v="farm" />
		<tag k="ssr:stedsnr" v="76020" />
	</node>
	<node id="-129881" lat="65.6452333301" lon="12.3771277847">
		<tag k="name" v="Sørgården" />
		<tag k="place" v="farm" />
		<tag k="ssr:stedsnr" v="46762" />
	</node>
	<node id="-130390" lat="65.632168261" lon="12.7445859651">
		<tag k="name" v="Volden" />
>>>>>>> e1d4bc35ff8a6074a6f2e91616a996b547c36f15
		<tag k="place" v="farm" />
		<tag k="ssr:stedsnr" v="1073608" />
	</node>
<<<<<<< HEAD
	<node lat="65.6886694407157" lon="12.423850000511996" id="-6826">
		<tag k="name" v="Skreddarvika" />
=======
	<node id="-130389" lat="65.6671756176" lon="12.6371926198">
		<tag k="name" v="Nygård" />
>>>>>>> e1d4bc35ff8a6074a6f2e91616a996b547c36f15
		<tag k="place" v="farm" />
		<tag k="ssr:stedsnr" v="1073607" />
	</node>
<<<<<<< HEAD
	<node lat="65.63733055790965" lon="12.368763886298629" id="-6848">
		<tag k="name" v="Bakken" />
		<tag k="place" v="farm" />
		<tag k="ssr:stedsnr" v="532785" />
	</node>
	<node lat="65.71788055982186" lon="12.442205564829544" id="-6857">
		<tag k="name" v="Gjerdet" />
=======
	<node id="-130388" lat="65.6677916139" lon="12.6403922192">
		<tag k="name" v="Nyheim" />
		<tag k="place" v="farm" />
		<tag k="ssr:stedsnr" v="1073606" />
	</node>
	<node id="-130387" lat="65.7288682052" lon="12.5952518429">
		<tag k="fixme" v="consider place=hamlet" />
		<tag k="name" v="Visthus" />
>>>>>>> e1d4bc35ff8a6074a6f2e91616a996b547c36f15
		<tag k="place" v="farm" />
		<tag k="ssr:stedsnr" v="989804" />
	</node>
<<<<<<< HEAD
	<node lat="65.68573055869673" lon="12.41867222133024" id="-6859">
		<tag k="name" v="Nyheim" />
		<tag k="place" v="farm" />
		<tag k="ssr:stedsnr" v="592713" />
	</node>
	<node lat="65.57935555148927" lon="12.405116657840823" id="-6867">
		<tag k="name" v="Slettberget" />
		<tag k="place" v="locality" />
		<tag k="ssr:stedsnr" v="592878" />
	</node>
	<node lat="65.69772777792664" lon="12.587961119588792" id="-6874">
		<tag k="name" v="Brauta" />
		<tag k="place" v="farm" />
		<tag k="ssr:stedsnr" v="622020" />
	</node>
	<node lat="65.63273888916412" lon="12.781438887185605" id="-6892">
		<tag k="name" v="Ytterskogen" />
		<tag k="place" v="isolated_dwelling" />
		<tag k="ssr:stedsnr" v="683808" />
	</node>
	<node lat="65.7659805591905" lon="12.58159167373214" id="-6893">
		<tag k="name" v="Ner-Bren" />
		<tag k="place" v="farm" />
		<tag k="ssr:stedsnr" v="896339" />
	</node>
	<node lat="65.75605833496253" lon="12.568991668854997" id="-6901">
		<tag k="name" v="Øverstokka" />
		<tag k="place" v="quarter" />
		<tag k="ssr:stedsnr" v="713408" />
	</node>
	<node lat="65.72905278093417" lon="12.591530553128027" id="-6903">
		<tag k="name" v="Solbu" />
		<tag k="place" v="farm" />
		<tag k="ssr:stedsnr" v="714505" />
	</node>
	<node lat="65.70412214159929" lon="12.41091198899185" id="-6913">
		<tag k="name" v="Vågsgarden" />
		<tag k="place" v="farm" />
		<tag k="ssr:stedsnr" v="743008" />
	</node>
	<node lat="65.7030249964509" lon="12.417852772097255" id="-6914">
		<tag k="alt_name" v="Lislgjerdet" />
		<tag k="name" v="Lissgjerdet" />
		<tag k="place" v="farm" />
		<tag k="ssr:stedsnr" v="743012" />
	</node>
	<node lat="65.64232317199894" lon="12.581212738476442" id="-6916">
		<tag k="fixme" v="consider place=hamlet" />
		<tag k="name" v="Åsen" />
		<tag k="place" v="farm" />
		<tag k="ssr:stedsnr" v="743137" />
	</node>
	<node lat="65.69291110861555" lon="12.427127779991622" id="-6922">
		<tag k="name" v="Kjørsvika" />
		<tag k="place" v="farm" />
		<tag k="ssr:stedsnr" v="743592" />
	</node>
	<node lat="65.66777499897945" lon="12.638055545658645" id="-6926">
		<tag k="name" v="Mortenhaugen" />
		<tag k="place" v="farm" />
		<tag k="ssr:stedsnr" v="744058" />
	</node>
	<node lat="65.69622869029473" lon="12.591621508198449" id="-6940">
		<tag k="fixme" v="consider place=hamlet" />
		<tag k="name" v="Ytrekila" />
		<tag k="place" v="farm" />
		<tag k="ssr:stedsnr" v="804024" />
	</node>
	<node lat="65.69348333306937" lon="12.434161119172005" id="-6942">
		<tag k="name" v="Åsmyra" />
		<tag k="place" v="isolated_dwelling" />
		<tag k="ssr:stedsnr" v="804032" />
	</node>
	<node lat="65.77103294671808" lon="12.585830119230678" id="-6944">
		<tag k="alt_name" v="Giskå" />
		<tag k="fixme" v="consider place=hamlet" />
		<tag k="name" v="Giskåa" />
		<tag k="place" v="farm" />
		<tag k="ssr:stedsnr" v="804057" />
	</node>
	<node lat="65.67954166801206" lon="12.408944437450073" id="-6946">
		<tag k="alt_name" v="Ramntuva" />
		<tag k="name" v="Ravntuva" />
		<tag k="place" v="farm" />
		<tag k="ssr:stedsnr" v="804073" />
	</node>
	<node lat="65.60051666876424" lon="12.799908328008808" id="-6949">
		<tag k="name" v="Sandan" />
		<tag k="place" v="isolated_dwelling" />
		<tag k="ssr:stedsnr" v="804816" />
	</node>
	<node lat="65.65230555501475" lon="12.736733340524804" id="-6951">
		<tag k="historic" v="shieling" />
		<tag k="name" v="Bønnåsætra" />
		<tag k="place" v="isolated_dwelling" />
		<tag k="ssr:stedsnr" v="804856" />
	</node>
	<node lat="65.69276666991951" lon="12.432261112514803" id="-6957">
		<tag k="name" v="Risåsen" />
		<tag k="place" v="quarter" />
		<tag k="ssr:stedsnr" v="228688" />
	</node>
	<node lat="65.65276944854783" lon="12.380599991950453" id="-6970">
		<tag k="alt_name" v="Kongshaugen" />
		<tag k="name" v="Kongshågjen" />
		<tag k="place" v="farm" />
		<tag k="ssr:stedsnr" v="925117" />
	</node>
	<node lat="65.71679166225132" lon="12.608886120259914" id="-6972">
		<tag k="name" v="Bjørnvika" />
		<tag k="place" v="farm" />
		<tag k="ssr:stedsnr" v="925283" />
	</node>
	<node lat="65.71932406686709" lon="12.60810001242208" id="-6973">
		<tag k="fixme" v="consider place=hamlet" />
		<tag k="name" v="Moen" />
		<tag k="place" v="farm" />
		<tag k="ssr:stedsnr" v="925284" />
	</node>
	<node lat="65.6961138878331" lon="12.440858335229205" id="-6978">
=======
	<node id="-130386" lat="65.6387202003" lon="12.3666947923">
		<tag k="fixme" v="consider place=hamlet" />
		<tag k="name" v="Midt-Høyholmen" />
		<tag k="place" v="farm" />
		<tag k="ssr:stedsnr" v="989800" />
	</node>
	<node id="-130385" lat="65.6222521924" lon="12.2988535028">
		<tag k="name" v="Fjordholmen" />
		<tag k="place" v="locality" />
		<tag k="ssr:stedsnr" v="989796" />
	</node>
	<node id="-130384" lat="65.7034282947" lon="12.4103886879">
		<tag k="fixme" v="consider place=hamlet" />
		<tag k="name" v="Våg" />
		<tag k="place" v="farm" />
		<tag k="ssr:stedsnr" v="989785" />
	</node>
	<node id="-130382" lat="65.7290833308" lon="12.5892194345">
		<tag k="name" v="Syvika" />
		<tag k="place" v="farm" />
		<tag k="ssr:stedsnr" v="961276" />
	</node>
	<node id="-130376" lat="65.635738887" lon="12.3663194413">
		<tag k="name" v="Gården" />
		<tag k="place" v="farm" />
		<tag k="ssr:stedsnr" v="957803" />
	</node>
	<node id="-129854" lat="65.6689361115" lon="12.3188055544">
		<tag k="alt_name" v="Havn" />
		<tag k="fixme" v="consider place=hamlet" />
		<tag k="name" v="Hamn" />
		<tag k="place" v="farm" />
		<tag k="ssr:stedsnr" v="15081" />
	</node>
	<node id="-129853" lat="65.6783083351" lon="12.4061777827">
		<tag k="alt_name" v="Ytterhågjen" />
		<tag k="name" v="Ytrehaugen" />
		<tag k="place" v="farm" />
		<tag k="ssr:stedsnr" v="15069" />
	</node>
	<node id="-130364" lat="65.7285555591" lon="12.5969694376">
		<tag k="name" v="Sørgården" />
		<tag k="place" v="farm" />
		<tag k="ssr:stedsnr" v="956621" />
	</node>
	<node id="-130353" lat="65.5809388876" lon="12.3845499967">
		<tag k="fixme" v="consider place=hamlet" />
		<tag k="name" v="Høyvika" />
		<tag k="place" v="farm" />
		<tag k="ssr:stedsnr" v="865885" />
	</node>
	<node id="-130352" lat="65.5866143276" lon="12.4164207117">
		<tag k="alt_name" v="Anddalen" />
		<tag k="fixme" v="consider place=hamlet" />
		<tag k="name" v="Andalen" />
		<tag k="place" v="farm" />
		<tag k="ssr:stedsnr" v="865884" />
	</node>
	<node id="-130350" lat="65.6717249982" lon="12.7753027729">
		<tag k="name" v="Klemmetjorda" />
		<tag k="place" v="isolated_dwelling" />
		<tag k="ssr:stedsnr" v="865859" />
	</node>
	<node id="-130337" lat="65.7149581796" lon="12.4621181238">
		<tag k="alt_name" v="Forvika" />
		<tag k="fixme" v="consider place=hamlet" />
		<tag k="name" v="Forvik" />
		<tag k="place" v="farm" />
		<tag k="ssr:stedsnr" v="865285" />
	</node>
	<node id="-130335" lat="65.7255305539" lon="12.4840972283">
		<tag k="alt_name" v="Dalsjøen" />
		<tag k="name" v="Dalsyen" />
		<tag k="place" v="farm" />
		<tag k="ssr:stedsnr" v="865248" />
	</node>
	<node id="-129820" lat="65.7237222223" lon="12.6041027786">
		<tag k="name" v="Granmoen" />
		<tag k="place" v="farm" />
		<tag k="ssr:stedsnr" v="805188" />
	</node>
	<node id="-129818" lat="65.6312481546" lon="12.7442707932">
		<tag k="fixme" v="consider place=hamlet" />
		<tag k="name" v="Aursletta" />
		<tag k="place" v="farm" />
		<tag k="ssr:stedsnr" v="804841" />
	</node>
	<node id="-130328" lat="65.6666882866" lon="12.603864145">
		<tag k="alt_name" v="Indrestranda" />
		<tag k="fixme" v="consider place=hamlet" />
		<tag k="name" v="Innerstranda" />
		<tag k="place" v="farm" />
		<tag k="ssr:stedsnr" v="865094" />
	</node>
	<node id="-130327" lat="65.6624249978" lon="12.3993250093">
		<tag k="alt_name" v="Volden" />
		<tag k="name" v="Vollen" />
		<tag k="place" v="farm" />
		<tag k="ssr:stedsnr" v="865090" />
	</node>
	<node id="-129814" lat="65.6005166688" lon="12.799908328">
		<tag k="name" v="Sandan" />
		<tag k="place" v="isolated_dwelling" />
		<tag k="ssr:stedsnr" v="804816" />
	</node>
	<node id="-130323" lat="65.6971638853" lon="12.4306611112">
		<tag k="name" v="Osodden" />
		<tag k="place" v="farm" />
		<tag k="ssr:stedsnr" v="865030" />
	</node>
	<node id="-129802" lat="65.7179881869" lon="12.4730972945">
		<tag k="alt_name" v="Korsvik" />
		<tag k="fixme" v="consider place=hamlet" />
		<tag k="name" v="Korsvika" />
		<tag k="place" v="farm" />
		<tag k="ssr:stedsnr" v="926242" />
	</node>
	<node id="-130311" lat="65.7266138916" lon="12.4853972288">
		<tag k="name" v="Nermoen" />
		<tag k="place" v="farm" />
		<tag k="ssr:stedsnr" v="835501" />
	</node>
	<node id="-130309" lat="65.7152388928" lon="12.468141669">
		<tag k="name" v="Remma" />
		<tag k="place" v="farm" />
		<tag k="ssr:stedsnr" v="816202" />
	</node>
	<node id="-130308" lat="65.6752083363" lon="12.4084555608">
		<tag k="name" v="Sandosen" />
		<tag k="place" v="farm" />
		<tag k="ssr:stedsnr" v="816175" />
	</node>
	<node id="-129791" lat="65.6961138878" lon="12.4408583352">
>>>>>>> e1d4bc35ff8a6074a6f2e91616a996b547c36f15
		<tag k="alt_name" v="Åsen" />
		<tag k="name" v="Åsan" />
		<tag k="place" v="isolated_dwelling" />
		<tag k="ssr:stedsnr" v="926020" />
	</node>
<<<<<<< HEAD
	<node lat="65.71798818689332" lon="12.473097294532868" id="-6983">
		<tag k="alt_name" v="Korsvik" />
		<tag k="fixme" v="consider place=hamlet" />
		<tag k="name" v="Korsvika" />
		<tag k="place" v="farm" />
		<tag k="ssr:stedsnr" v="926242" />
	</node>
	<node lat="65.72855555913576" lon="12.596969437600881" id="-7021">
		<tag k="name" v="Sørgården" />
		<tag k="place" v="farm" />
		<tag k="ssr:stedsnr" v="956621" />
	</node>
	<node lat="65.63573888699582" lon="12.366319441346214" id="-7027">
		<tag k="name" v="Gården" />
		<tag k="place" v="farm" />
		<tag k="ssr:stedsnr" v="957803" />
	</node>
	<node lat="65.62225219236655" lon="12.298853502835193" id="-7032">
		<tag k="name" v="Fjordholmen" />
		<tag k="place" v="locality" />
		<tag k="ssr:stedsnr" v="989796" />
	</node>
	<node lat="65.63872020033855" lon="12.366694792292465" id="-7033">
		<tag k="fixme" v="consider place=hamlet" />
		<tag k="name" v="Midt-Høyholmen" />
		<tag k="place" v="farm" />
		<tag k="ssr:stedsnr" v="989800" />
	</node>
	<node lat="65.72886820518967" lon="12.595251842876388" id="-7034">
		<tag k="fixme" v="consider place=hamlet" />
		<tag k="name" v="Visthus" />
		<tag k="place" v="farm" />
		<tag k="ssr:stedsnr" v="989804" />
	</node>
	<node lat="65.66923010500743" lon="12.318717111957914" id="-7035">
		<tag k="alt_name" v="Havn" />
		<tag k="fixme" v="consider place=hamlet" />
		<tag k="name" v="Hamn" />
		<tag k="place" v="farm" />
		<tag k="ssr:stedsnr" v="15081" />
	</node>
	<node lat="65.72321666518332" lon="12.446380550071368" id="-7051">
		<tag k="name" v="Vågsodden" />
		<tag k="place" v="farm" />
		<tag k="ssr:stedsnr" v="16200" />
	</node>
	<node lat="65.64523333005504" lon="12.3771277847022" id="-7061">
		<tag k="name" v="Sørgården" />
		<tag k="place" v="farm" />
		<tag k="ssr:stedsnr" v="46762" />
	</node>
	<node lat="65.70502222645167" lon="12.450213890999992" id="-7066">
		<tag k="name" v="Elvbakken" />
		<tag k="place" v="farm" />
		<tag k="ssr:stedsnr" v="76020" />
	</node>
	<node lat="65.64616110756599" lon="12.676000009087504" id="-7097">
		<tag k="name" v="Tangvika" />
		<tag k="place" v="locality" />
		<tag k="ssr:stedsnr" v="136141" />
	</node>
	<node lat="65.7386888895347" lon="12.51471944294023" id="-7098">
		<tag k="name" v="Vistnesodden" />
		<tag k="place" v="farm" />
		<tag k="ssr:stedsnr" v="136245" />
	</node>
	<node lat="65.70048610951946" lon="12.44124445508119" id="-7113">
		<tag k="fixme" v="consider place=hamlet" />
		<tag k="name" v="Vevelstad" />
		<tag k="place" v="village" />
		<tag k="ssr:stedsnr" v="147499" />
	</node>
	<node lat="65.69083333769665" lon="12.425566671903269" id="-7122">
		<tag k="name" v="Nybakken" />
		<tag k="place" v="farm" />
		<tag k="ssr:stedsnr" v="167659" />
	</node>
	<node lat="65.66654722390888" lon="12.404047232848642" id="-7133">
		<tag k="name" v="Fjelltun" />
		<tag k="place" v="farm" />
		<tag k="ssr:stedsnr" v="169680" />
	</node>
	<node lat="65.69769999999784" lon="12.41810554506879" id="-7139">
		<tag k="alt_name" v="Vågsvika" />
		<tag k="name" v="Vågsvikja" />
=======
	<node id="-129786" lat="65.7193240669" lon="12.6081000124">
		<tag k="fixme" v="consider place=hamlet" />
		<tag k="name" v="Moen" />
		<tag k="place" v="farm" />
		<tag k="ssr:stedsnr" v="925284" />
	</node>
	<node id="-129785" lat="65.7167916623" lon="12.6088861203">
		<tag k="name" v="Bjørnvika" />
		<tag k="place" v="farm" />
		<tag k="ssr:stedsnr" v="925283" />
	</node>
	<node id="-130296" lat="65.652305555" lon="12.7367333405">
		<tag k="historic" v="shieling" />
		<tag k="name" v="Bønnåsætra" />
		<tag k="place" v="locality" />
		<tag k="ssr:stedsnr" v="804856" />
	</node>
	<node id="-129783" lat="65.6527694485" lon="12.380599992">
		<tag k="alt_name" v="Kongshaugen" />
		<tag k="name" v="Kongshågjen" />
		<tag k="place" v="farm" />
		<tag k="ssr:stedsnr" v="925117" />
	</node>
	<node id="-130291" lat="65.6362055572" lon="12.3632472189">
		<tag k="fixme" v="consider place=hamlet" />
		<tag k="name" v="Ner-Høyholm" />
		<tag k="old_name" v="Høyholm søndre" />
		<tag k="place" v="farm" />
		<tag k="ssr:stedsnr" v="804130" />
	</node>
	<node id="-129747" lat="65.7659805592" lon="12.5815916737">
		<tag k="name" v="Ner-Bren" />
		<tag k="place" v="farm" />
		<tag k="ssr:stedsnr" v="896339" />
	</node>
	<node id="-130288" lat="65.6768959472" lon="12.6660048889">
		<tag k="fixme" v="consider place=hamlet" />
		<tag k="name" v="Tverrlandet" />
		<tag k="place" v="farm" />
		<tag k="ssr:stedsnr" v="804102" />
	</node>
	<node id="-130286" lat="65.679541668" lon="12.4089444375">
		<tag k="alt_name" v="Ramntuva" />
		<tag k="name" v="Ravntuva" />
		<tag k="place" v="farm" />
		<tag k="ssr:stedsnr" v="804073" />
	</node>
	<node id="-130284" lat="65.7710329467" lon="12.5858301192">
		<tag k="alt_name" v="Giskå" />
		<tag k="fixme" v="consider place=hamlet" />
		<tag k="name" v="Giskåa" />
		<tag k="place" v="farm" />
		<tag k="ssr:stedsnr" v="804057" />
	</node>
	<node id="-130282" lat="65.6821768152" lon="12.4132337169">
		<tag k="alt_name" v="Brølos" />
		<tag k="fixme" v="consider place=hamlet" />
		<tag k="name" v="Brødløs" />
		<tag k="place" v="farm" />
		<tag k="ssr:stedsnr" v="804052" />
	</node>
	<node id="-130280" lat="65.6934833331" lon="12.4341611192">
		<tag k="name" v="Åsmyra" />
		<tag k="place" v="isolated_dwelling" />
		<tag k="ssr:stedsnr" v="804032" />
	</node>
	<node id="-130278" lat="65.6962286903" lon="12.5916215082">
		<tag k="fixme" v="consider place=hamlet" />
		<tag k="name" v="Ytrekila" />
		<tag k="place" v="farm" />
		<tag k="ssr:stedsnr" v="804024" />
	</node>
	<node id="-130266" lat="65.6989027811" lon="12.4353527853">
		<tag k="name" v="Neset" />
		<tag k="place" v="farm" />
		<tag k="ssr:stedsnr" v="774639" />
	</node>
	<node id="-130259" lat="65.6530166711" lon="12.6302861128">
		<tag k="name" v="Ausen" />
		<tag k="place" v="farm" />
		<tag k="ssr:stedsnr" v="768912" />
	</node>
	<node id="-130253" lat="65.6929111086" lon="12.42712778">
		<tag k="name" v="Kjørsvika" />
>>>>>>> e1d4bc35ff8a6074a6f2e91616a996b547c36f15
		<tag k="place" v="farm" />
		<tag k="ssr:stedsnr" v="743592" />
	</node>
<<<<<<< HEAD
	<node lat="65.6375011904823" lon="12.597895739444578" id="-7144">
		<tag k="alt_name" v="Ausli" />
		<tag k="fixme" v="consider place=hamlet" />
		<tag k="name" v="Auslia" />
		<tag k="place" v="farm" />
		<tag k="ssr:stedsnr" v="197135" />
	</node>
	<node lat="65.72975832970542" lon="12.48917222146491" id="-7146">
		<tag k="name" v="Vistnesstranda" />
		<tag k="place" v="farm" />
		<tag k="ssr:stedsnr" v="197247" />
	</node>
	<node lat="65.6653055574246" lon="12.40143332886357" id="-7155">
		<tag k="alt_name" v="Olderlund" />
		<tag k="name" v="Olderlunden" />
=======
	<node id="-129738" lat="65.756058335" lon="12.5689916689">
		<tag k="name" v="Øverstokka" />
		<tag k="place" v="quarter" />
		<tag k="ssr:stedsnr" v="713408" />
	</node>
	<node id="-130249" lat="65.642323172" lon="12.5812127385">
		<tag k="fixme" v="consider place=hamlet" />
		<tag k="name" v="Åsen" />
		<tag k="place" v="farm" />
		<tag k="ssr:stedsnr" v="743137" />
	</node>
	<node id="-130245" lat="65.7008583301" lon="12.4148861083">
		<tag k="name" v="Langgjerdet" />
		<tag k="place" v="farm" />
		<tag k="ssr:stedsnr" v="743015" />
	</node>
	<node id="-130244" lat="65.7030249965" lon="12.4178527721">
		<tag k="alt_name" v="Lislgjerdet" />
		<tag k="name" v="Lissgjerdet" />
>>>>>>> e1d4bc35ff8a6074a6f2e91616a996b547c36f15
		<tag k="place" v="farm" />
		<tag k="ssr:stedsnr" v="743012" />
	</node>
<<<<<<< HEAD
	<node lat="65.75791388826629" lon="12.557486109783756" id="-7163">
		<tag k="name" v="Fredheim" />
		<tag k="place" v="farm" />
		<tag k="ssr:stedsnr" v="289423" />
	</node>
	<node lat="65.56603888581276" lon="12.746511111520196" id="-7190">
		<tag k="fixme" v="consider place=hamlet" />
		<tag k="name" v="Laksmarka" />
		<tag k="place" v="farm" />
		<tag k="ssr:stedsnr" v="319665" />
	</node>
	<node lat="65.72980833652852" lon="12.596502784058943" id="-7211">
		<tag k="name" v="Nordgården" />
		<tag k="place" v="farm" />
		<tag k="ssr:stedsnr" v="349618" />
	</node>
	<node lat="65.64783055491928" lon="12.379727778907894" id="-7218">
		<tag k="name" v="Nordgården" />
		<tag k="place" v="farm" />
		<tag k="ssr:stedsnr" v="350774" />
	</node>
	<node lat="65.63746642430345" lon="12.792294117022806" id="-7220">
		<tag k="fixme" v="consider place=hamlet" />
		<tag k="name" v="Austerfjorden" />
		<tag k="place" v="farm" />
		<tag k="ssr:stedsnr" v="379829" />
	</node>
	<node lat="65.69508610759362" lon="12.427872223799833" id="-7221">
		<tag k="name" v="Slåttvika" />
		<tag k="place" v="farm" />
		<tag k="ssr:stedsnr" v="379017" />
	</node>
	<node lat="65.68326666681737" lon="12.388841674939146" id="-7223">
		<tag k="name" v="Makjenvika" />
		<tag k="place" v="locality" />
		<tag k="ssr:stedsnr" v="379033" />
	</node>
	<node lat="65.66310985121596" lon="12.538626089659608" id="-7232">
		<tag k="name" v="Kilmarka" />
		<tag k="place" v="locality" />
		<tag k="ssr:stedsnr" v="379091" />
	</node>
	<node lat="65.60526052494279" lon="12.368018454446915" id="-7235">
		<tag k="fixme" v="consider place=hamlet" />
		<tag k="name" v="Lauknes" />
		<tag k="place" v="farm" />
		<tag k="ssr:stedsnr" v="379896" />
	</node>
	<node lat="65.6528194416901" lon="12.627997216244925" id="-7255">
		<tag k="name" v="Ausen" />
		<tag k="place" v="farm" />
		<tag k="ssr:stedsnr" v="440136" />
	</node>
	<node lat="65.67520555121013" lon="12.408452776467845" id="-7259">
		<tag k="name" v="Torvhaugen" />
		<tag k="place" v="farm" />
		<tag k="ssr:stedsnr" v="440076" />
	</node>
	<node lat="65.69975833751502" lon="12.442691660740554" id="-7272">
		<tag k="name" v="Nordvollan" />
		<tag k="place" v="farm" />
		<tag k="ssr:stedsnr" v="500028" />
	</node>
	<node lat="65.57925000264683" lon="12.405013887312725" id="-7312">
		<tag k="historic" v="shieling" />
		<tag k="name" v="Staulen" />
		<tag k="place" v="isolated_dwelling" />
		<tag k="ssr:stedsnr" v="561886" />
	</node>
	<node lat="65.69985481685335" lon="12.64211800688191" id="-7349">
		<tag k="fixme" v="consider place=hamlet" />
		<tag k="name" v="Almosen" />
		<tag k="place" v="farm" />
		<tag k="ssr:stedsnr" v="622042" />
	</node>
	<node lat="65.60115737268329" lon="12.775596629789174" id="-7354">
		<tag k="fixme" v="consider place=hamlet" />
		<tag k="name" v="Lakselva" />
		<tag k="place" v="farm" />
		<tag k="ssr:stedsnr" v="622796" />
	</node>
	<node lat="65.64618888936462" lon="12.755022212397499" id="-7355">
		<tag k="fixme" v="consider place=hamlet" />
		<tag k="name" v="Bønnåa" />
		<tag k="place" v="farm" />
		<tag k="ssr:stedsnr" v="622830" />
	</node>
	<node lat="65.72625000366263" lon="12.599625001965117" id="-7360">
		<tag k="name" v="Syskogen" />
		<tag k="place" v="quarter" />
		<tag k="ssr:stedsnr" v="653559" />
	</node>
	<node lat="65.63645833477085" lon="12.365427774712341" id="-7367">
		<tag k="name" v="Nerstua" />
		<tag k="place" v="farm" />
		<tag k="ssr:stedsnr" v="653813" />
	</node>
	<node lat="65.63256111217025" lon="12.367791658237868" id="-7368">
		<tag k="name" v="Vangen" />
		<tag k="place" v="farm" />
		<tag k="ssr:stedsnr" v="653816" />
	</node>
	<node lat="65.69208610720443" lon="12.396538891006939" id="-7370">
		<tag k="amenity" v="school" />
		<tag k="name" v="Hesstun skole" />
		<tag k="ssr:stedsnr" v="653568" />
	</node>
	<node lat="65.68398055208534" lon="12.417183338342143" id="-7380">
		<tag k="name" v="Amundviken" />
		<tag k="place" v="farm" />
		<tag k="ssr:stedsnr" v="714648" />
	</node>
	<node lat="65.63793888496417" lon="12.370155564498727" id="-7384">
		<tag k="name" v="Haugen" />
		<tag k="place" v="farm" />
		<tag k="ssr:stedsnr" v="714778" />
	</node>
	<node lat="65.7008583300682" lon="12.414886108315118" id="-7394">
		<tag k="name" v="Langgjerdet" />
		<tag k="place" v="farm" />
		<tag k="ssr:stedsnr" v="743015" />
	</node>
	<node lat="65.6074555592637" lon="12.838041661156007" id="-7405">
		<tag k="fixme" v="consider place=hamlet" />
		<tag k="name" v="Sætra" />
		<tag k="place" v="farm" />
		<tag k="ssr:stedsnr" v="743818" />
	</node>
	<node lat="65.65301667114058" lon="12.630286112763832" id="-7408">
		<tag k="name" v="Ausen" />
		<tag k="place" v="farm" />
		<tag k="ssr:stedsnr" v="768912" />
	</node>
	<node lat="65.69299722328005" lon="12.429197225654704" id="-7415">
		<tag k="name" v="Slåttvikåsen" />
		<tag k="place" v="quarter" />
		<tag k="ssr:stedsnr" v="774678" />
	</node>
	<node lat="65.69890278111495" lon="12.43535278534862" id="-7416">
		<tag k="name" v="Neset" />
		<tag k="place" v="farm" />
		<tag k="ssr:stedsnr" v="774639" />
	</node>
	<node lat="65.68217681524827" lon="12.413233716901647" id="-7428">
		<tag k="alt_name" v="Brølos" />
		<tag k="fixme" v="consider place=hamlet" />
		<tag k="name" v="Brødløs" />
		<tag k="place" v="farm" />
		<tag k="ssr:stedsnr" v="804052" />
	</node>
	<node lat="65.6362055571955" lon="12.363247218918206" id="-7430">
		<tag k="fixme" v="consider place=hamlet" />
		<tag k="name" v="Ner-Høyholm" />
		<tag k="old_name" v="Høyholm søndre" />
		<tag k="place" v="farm" />
		<tag k="ssr:stedsnr" v="804130" />
	</node>
	<node lat="65.67689594715209" lon="12.666004888890146" id="-7440">
		<tag k="fixme" v="consider place=hamlet" />
		<tag k="name" v="Tverrlandet" />
		<tag k="place" v="farm" />
		<tag k="ssr:stedsnr" v="804102" />
	</node>
	<node lat="65.63124815459989" lon="12.744270793227814" id="-7446">
		<tag k="fixme" v="consider place=hamlet" />
		<tag k="name" v="Aursletta" />
		<tag k="place" v="farm" />
		<tag k="ssr:stedsnr" v="804841" />
	</node>
	<node lat="65.72372222228161" lon="12.60410277862935" id="-7447">
		<tag k="name" v="Granmoen" />
		<tag k="place" v="farm" />
		<tag k="ssr:stedsnr" v="805188" />
	</node>
	<node lat="65.67520833634389" lon="12.40845556081987" id="-7449">
		<tag k="name" v="Sandosen" />
		<tag k="place" v="farm" />
		<tag k="ssr:stedsnr" v="816175" />
	</node>
	<node lat="65.71523889283083" lon="12.468141669042925" id="-7450">
		<tag k="name" v="Remma" />
		<tag k="place" v="farm" />
		<tag k="ssr:stedsnr" v="816202" />
	</node>
	<node lat="65.72661389163345" lon="12.485397228769482" id="-7454">
		<tag k="name" v="Nermoen" />
		<tag k="place" v="farm" />
		<tag k="ssr:stedsnr" v="835501" />
	</node>
	<node lat="65.69716388532908" lon="12.430661111228392" id="-7463">
		<tag k="name" v="Osodden" />
		<tag k="place" v="farm" />
		<tag k="ssr:stedsnr" v="865030" />
	</node>
	<node lat="65.66242499783604" lon="12.39932500925866" id="-7467">
		<tag k="alt_name" v="Volden" />
		<tag k="name" v="Vollen" />
		<tag k="place" v="farm" />
		<tag k="ssr:stedsnr" v="865090" />
	</node>
	<node lat="65.6666882866215" lon="12.603864145035521" id="-7468">
		<tag k="alt_name" v="Indrestranda" />
		<tag k="fixme" v="consider place=hamlet" />
		<tag k="name" v="Innerstranda" />
		<tag k="place" v="farm" />
		<tag k="ssr:stedsnr" v="865094" />
	</node>
	<node lat="65.7535777796145" lon="12.550638883676688" id="-7472">
		<tag k="alt_name" v="Steinsrud" />
		<tag k="name" v="Stensrud" />
		<tag k="place" v="farm" />
		<tag k="ssr:stedsnr" v="865119" />
	</node>
	<node lat="65.72553055391778" lon="12.484097228294937" id="-7475">
		<tag k="alt_name" v="Dalsjøen" />
		<tag k="name" v="Dalsyen" />
		<tag k="place" v="farm" />
		<tag k="ssr:stedsnr" v="865248" />
	</node>
	<node lat="65.67172499824623" lon="12.775302772909031" id="-7481">
		<tag k="name" v="Klemmetjorda" />
		<tag k="place" v="isolated_dwelling" />
		<tag k="ssr:stedsnr" v="865859" />
	</node>
	<node lat="65.71495817964183" lon="12.462118123800517" id="-7482">
		<tag k="alt_name" v="Forvika" />
		<tag k="fixme" v="consider place=hamlet" />
		<tag k="name" v="Forvik" />
=======
	<node id="-130243" lat="65.7041221416" lon="12.410911989">
		<tag k="name" v="Vågsgarden" />
		<tag k="place" v="farm" />
		<tag k="ssr:stedsnr" v="743008" />
	</node>
	<node id="-129729" lat="65.6667111131" lon="12.5671749902">
		<tag k="name" v="Staulan" />
		<tag k="place" v="isolated_dwelling" />
		<tag k="ssr:stedsnr" v="683060" />
	</node>
	<node id="-130233" lat="65.6325611122" lon="12.3677916582">
		<tag k="name" v="Vangen" />
		<tag k="place" v="farm" />
		<tag k="ssr:stedsnr" v="653816" />
	</node>
	<node id="-130232" lat="65.6364583348" lon="12.3654277747">
		<tag k="name" v="Nerstua" />
		<tag k="place" v="farm" />
		<tag k="ssr:stedsnr" v="653813" />
	</node>
	<node id="-129714" lat="65.637938885" lon="12.3701555645">
		<tag k="name" v="Haugen" />
		<tag k="place" v="farm" />
		<tag k="ssr:stedsnr" v="714778" />
	</node>
	<node id="-130225" lat="65.6920861072" lon="12.396538891">
		<tag k="amenity" v="school" />
		<tag k="name" v="Hesstun skole" />
		<tag k="ssr:stedsnr" v="653568" />
	</node>
	<node id="-129708" lat="65.7290527809" lon="12.5915305531">
		<tag k="name" v="Solbu" />
		<tag k="place" v="farm" />
		<tag k="ssr:stedsnr" v="714505" />
	</node>
	<node id="-130218" lat="65.7262500037" lon="12.599625002">
		<tag k="name" v="Syskogen" />
		<tag k="place" v="quarter" />
		<tag k="ssr:stedsnr" v="653559" />
	</node>
	<node id="-130332" lat="65.7535777796" lon="12.5506388837">
		<tag k="alt_name" v="Steinsrud" />
		<tag k="name" v="Stensrud" />
		<tag k="place" v="farm" />
		<tag k="ssr:stedsnr" v="865119" />
	</node>
	<node id="-130213" lat="65.6461888894" lon="12.7550222124">
		<tag k="fixme" v="consider place=hamlet" />
		<tag k="name" v="Bønnåa" />
		<tag k="place" v="farm" />
		<tag k="ssr:stedsnr" v="622830" />
	</node>
	<node id="-130212" lat="65.6011573727" lon="12.7755966298">
		<tag k="fixme" v="consider place=hamlet" />
		<tag k="name" v="Lakselva" />
		<tag k="place" v="farm" />
		<tag k="ssr:stedsnr" v="622796" />
	</node>
	<node id="-130202" lat="65.6998548169" lon="12.6421180069">
		<tag k="fixme" v="consider place=hamlet" />
		<tag k="name" v="Almosen" />
		<tag k="place" v="farm" />
		<tag k="ssr:stedsnr" v="622042" />
	</node>
	<node id="-130200" lat="65.6977277779" lon="12.5879611196">
		<tag k="name" v="Brauta" />
		<tag k="place" v="farm" />
		<tag k="ssr:stedsnr" v="622020" />
	</node>
	<node id="-129732" lat="65.6327388892" lon="12.7814388872">
		<tag k="name" v="Ytterskogen" />
		<tag k="place" v="isolated_dwelling" />
		<tag k="ssr:stedsnr" v="683808" />
	</node>
	<node id="-129646" lat="65.7094083334" lon="12.4291527779">
		<tag k="alt_name" v="Høyvika" />
		<tag k="name" v="Høyvik" />
		<tag k="place" v="farm" />
		<tag k="ssr:stedsnr" v="501222" />
	</node>
	<node id="-130191" lat="65.5793555515" lon="12.4051166578">
		<tag k="name" v="Slettberget" />
		<tag k="place" v="locality" />
		<tag k="ssr:stedsnr" v="592878" />
	</node>
	<node id="-129675" lat="65.6680333347" lon="12.6399444464">
		<tag k="name" v="Kvalvågen" />
		<tag k="place" v="farm" />
		<tag k="ssr:stedsnr" v="683082" />
	</node>
	<node id="-129670" lat="65.6886694407" lon="12.4238500005">
		<tag k="name" v="Skreddarvika" />
		<tag k="place" v="farm" />
		<tag k="ssr:stedsnr" v="683027" />
	</node>
	<node id="-130177" lat="65.6857305587" lon="12.4186722213">
		<tag k="name" v="Nyheim" />
		<tag k="place" v="farm" />
		<tag k="ssr:stedsnr" v="592713" />
	</node>
	<node id="-130166" lat="65.7178805598" lon="12.4422055648">
		<tag k="name" v="Gjerdet" />
		<tag k="place" v="farm" />
		<tag k="ssr:stedsnr" v="592469" />
	</node>
	<node id="-129650" lat="65.6464396088" lon="12.3751052915">
		<tag k="fixme" v="consider place=hamlet" />
		<tag k="name" v="Øver-Høyholm" />
		<tag k="place" v="farm" />
		<tag k="ssr:stedsnr" v="510802" />
	</node>
	<node id="-130158" lat="65.5792500026" lon="12.4050138873">
		<tag k="historic" v="shieling" />
		<tag k="name" v="Staulen" />
		<tag k="place" v="locality" />
		<tag k="ssr:stedsnr" v="561886" />
	</node>
	<node id="-129645" lat="65.7257326303" lon="12.4988683771">
		<tag k="fixme" v="consider place=hamlet" />
		<tag k="name" v="Vistnesdalen" />
		<tag k="place" v="farm" />
		<tag k="ssr:stedsnr" v="501211" />
	</node>
	<node id="-129640" lat="65.6587304495" lon="12.5943021975">
		<tag k="fixme" v="consider place=hamlet" />
		<tag k="name" v="Vasseng" />
		<tag k="place" v="farm" />
		<tag k="ssr:stedsnr" v="501083" />
	</node>
	<node id="-129553" lat="65.6528194417" lon="12.6279972162">
		<tag k="name" v="Ausen" />
		<tag k="place" v="farm" />
		<tag k="ssr:stedsnr" v="440136" />
	</node>
	<node id="-129634" lat="65.6997583375" lon="12.4426916607">
		<tag k="name" v="Nordvollan" />
		<tag k="place" v="farm" />
		<tag k="ssr:stedsnr" v="500028" />
	</node>
	<node id="-130138" lat="65.6373305579" lon="12.3687638863">
		<tag k="name" v="Bakken" />
		<tag k="place" v="farm" />
		<tag k="ssr:stedsnr" v="532785" />
	</node>
	<node id="-129617" lat="65.7359138916" lon="12.6722861046">
		<tag k="name" v="Kvannlia" />
		<tag k="place" v="locality" />
		<tag k="ssr:stedsnr" v="318214" />
	</node>
	<node id="-129614" lat="65.6343611072" lon="12.3685805625">
		<tag k="name" v="Øvergård" />
		<tag k="place" v="farm" />
		<tag k="ssr:stedsnr" v="471808" />
	</node>
	<node id="-130117" lat="65.6386805513" lon="12.3712611047">
		<tag k="name" v="Solheim 2" />
		<tag k="place" v="farm" />
		<tag k="ssr:stedsnr" v="410788" />
	</node>
	<node id="-129587" lat="65.7579138883" lon="12.5574861098">
		<tag k="name" v="Fredheim" />
		<tag k="place" v="farm" />
		<tag k="ssr:stedsnr" v="289423" />
	</node>
	<node id="-130098" lat="65.6052605249" lon="12.3680184544">
		<tag k="fixme" v="consider place=hamlet" />
		<tag k="name" v="Lauknes" />
		<tag k="place" v="farm" />
		<tag k="ssr:stedsnr" v="379896" />
	</node>
	<node id="-129584" lat="65.7042916689" lon="12.4510611204">
		<tag k="name" v="Fagerbakken" />
		<tag k="place" v="farm" />
		<tag k="ssr:stedsnr" v="268166" />
	</node>
	<node id="-130095" lat="65.6374664243" lon="12.792294117">
		<tag k="fixme" v="consider place=hamlet" />
		<tag k="name" v="Austerfjorden" />
		<tag k="place" v="farm" />
		<tag k="ssr:stedsnr" v="379829" />
	</node>
	<node id="-130094" lat="65.6260611075" lon="12.7467000103">
		<tag k="name" v="Straumsneset" />
		<tag k="place" v="isolated_dwelling" />
		<tag k="ssr:stedsnr" v="379820" />
	</node>
	<node id="-129575" lat="65.7031749985" lon="12.4187666744">
		<tag k="name" v="Storgjerdet" />
		<tag k="place" v="farm" />
		<tag k="ssr:stedsnr" v="258020" />
	</node>
	<node id="-130085" lat="65.7218805586" lon="12.4882583349">
		<tag k="name" v="Lyngmo" />
		<tag k="place" v="farm" />
		<tag k="ssr:stedsnr" v="379228" />
	</node>
	<node id="-129572" lat="65.7045527786" lon="12.5894166691">
		<tag k="name" v="Ytteråkran" />
		<tag k="place" v="farm" />
		<tag k="ssr:stedsnr" v="450180" />
	</node>
	<node id="-130081" lat="65.63106468" lon="12.5587976144">
		<tag k="name" v="Stormarka" />
		<tag k="place" v="locality" />
		<tag k="ssr:stedsnr" v="379126" />
	</node>
	<node id="-130079" lat="65.6399638934" lon="12.3721111069">
		<tag k="name" v="Høyholm" />
		<tag k="place" v="hamlet" />
		<tag k="ssr:stedsnr" v="379108" />
	</node>
	<node id="-130077" lat="65.6631098512" lon="12.5386260897">
		<tag k="name" v="Kilmarka" />
		<tag k="place" v="locality" />
		<tag k="ssr:stedsnr" v="379091" />
	</node>
	<node id="-129626" lat="65.7298083365" lon="12.5965027841">
		<tag k="name" v="Nordgården" />
>>>>>>> e1d4bc35ff8a6074a6f2e91616a996b547c36f15
		<tag k="place" v="farm" />
		<tag k="ssr:stedsnr" v="349618" />
	</node>
<<<<<<< HEAD
	<node lat="65.58661432756652" lon="12.41642071170588" id="-7491">
		<tag k="alt_name" v="Anddalen" />
		<tag k="fixme" v="consider place=hamlet" />
		<tag k="name" v="Andalen" />
		<tag k="place" v="farm" />
		<tag k="ssr:stedsnr" v="865884" />
	</node>
	<node lat="65.58093888762647" lon="12.384549996705816" id="-7492">
		<tag k="fixme" v="consider place=hamlet" />
		<tag k="name" v="Høyvika" />
		<tag k="place" v="farm" />
		<tag k="ssr:stedsnr" v="865885" />
	</node>
	<node lat="65.72908333081568" lon="12.589219434450744" id="-7511">
		<tag k="name" v="Syvika" />
		<tag k="place" v="farm" />
		<tag k="ssr:stedsnr" v="961276" />
	</node>
	<node lat="65.7034282947099" lon="12.410388687897843" id="-7513">
		<tag k="fixme" v="consider place=hamlet" />
		<tag k="name" v="Våg" />
		<tag k="place" v="farm" />
		<tag k="ssr:stedsnr" v="989785" />
	</node>
	<node lat="65.66779161388038" lon="12.640392219247488" id="-7514">
		<tag k="name" v="Nyheim" />
		<tag k="place" v="farm" />
		<tag k="ssr:stedsnr" v="1073606" />
	</node>
	<node lat="65.66717561762101" lon="12.637192619826989" id="-7515">
		<tag k="name" v="Nygård" />
		<tag k="place" v="farm" />
		<tag k="ssr:stedsnr" v="1073607" />
	</node>
	<node lat="65.63216826097639" lon="12.744585965068621" id="-7516">
		<tag k="name" v="Volden" />
		<tag k="place" v="farm" />
		<tag k="ssr:stedsnr" v="1073608" />
=======
	<node id="-130072" lat="65.6928055514" lon="12.6630277715">
		<tag k="name" v="Skardbakken" />
		<tag k="place" v="farm" />
		<tag k="ssr:stedsnr" v="379062" />
	</node>
	<node id="-130067" lat="65.6832666668" lon="12.3888416749">
		<tag k="name" v="Makjenvika" />
		<tag k="place" v="locality" />
		<tag k="ssr:stedsnr" v="379033" />
	</node>
	<node id="-129554" lat="65.6450222214" lon="12.5862499947">
		<tag k="name" v="Åsheim" />
		<tag k="place" v="farm" />
		<tag k="ssr:stedsnr" v="440155" />
	</node>
	<node id="-130065" lat="65.6950861076" lon="12.4278722238">
		<tag k="name" v="Slåttvika" />
		<tag k="place" v="farm" />
		<tag k="ssr:stedsnr" v="379017" />
	</node>
	<node id="-130064" lat="65.7010044562" lon="12.4462432431">
		<tag k="fixme" v="consider place=hamlet" />
		<tag k="name" v="Vevelstad" />
		<tag k="place" v="farm" />
		<tag k="ssr:stedsnr" v="379003" />
	</node>
	<node id="-130063" lat="65.6478305549" lon="12.3797277789">
		<tag k="name" v="Nordgården" />
		<tag k="place" v="farm" />
		<tag k="ssr:stedsnr" v="350774" />
	</node>
	<node id="-129549" lat="65.6721999968" lon="12.6133916561">
		<tag k="fixme" v="consider place=hamlet" />
		<tag k="name" v="Ytterstranda" />
		<tag k="old_name" v="Ytrestranda;Stranda" />
		<tag k="place" v="farm" />
		<tag k="ssr:stedsnr" v="440103" />
	</node>
	<node id="-129544" lat="65.6752055512" lon="12.4084527765">
		<tag k="name" v="Torvhaugen" />
		<tag k="place" v="farm" />
		<tag k="ssr:stedsnr" v="440076" />
	</node>
	<node id="-129542" lat="65.6891706419" lon="12.3875266827">
		<tag k="fixme" v="consider place=hamlet" />
		<tag k="name" v="Hestun" />
		<tag k="place" v="farm" />
		<tag k="ssr:stedsnr" v="440050" />
	</node>
	<node id="-129538" lat="65.7005500008" lon="12.5878083278">
		<tag k="alt_name" v="Kilvågen" />
		<tag k="name" v="Kilvika" />
		<tag k="place" v="hamlet" />
		<tag k="ssr:stedsnr" v="440029" />
>>>>>>> e1d4bc35ff8a6074a6f2e91616a996b547c36f15
	</node>
</osm>
