<?xml version="1.0" encoding="UTF-8"?>
<<<<<<< HEAD
<osm version="0.6" generator="osmapis">
	<node lat="65.6596611113851" lon="12.310972223480988" id="-6562">
		<tag k="name" v="Trongan" />
		<tag k="natural" v="valley" />
		<tag k="place" v="locality" />
		<tag k="ssr:stedsnr" v="229750" />
	</node>
	<node lat="65.66884722454594" lon="12.314366667306409" id="-6566">
		<tag k="name" v="Rasmushågjen" />
=======
<osm generator="osmapis" version="0.6">
	<node id="-130381" lat="65.6683749959" lon="12.4204500055">
		<tag k="name" v="Sandosheia" />
		<tag k="natural" v="hill" />
		<tag k="place" v="locality" />
		<tag k="ssr:stedsnr" v="958774" />
	</node>
	<node id="-130380" lat="65.5872055537" lon="12.4224944481">
		<tag k="fixme" v="consider natural=peak for the most distinct mountains in the district" />
		<tag k="name" v="Rundfjellet" />
		<tag k="natural" v="hill" />
		<tag k="ssr:stedsnr" v="957845" />
	</node>
	<node id="-130378" lat="65.6019999987" lon="12.3688388864">
		<tag k="name" v="Tømmervikhågjen" />
>>>>>>> e1d4bc35ff8a6074a6f2e91616a996b547c36f15
		<tag k="natural" v="hill" />
		<tag k="place" v="locality" />
		<tag k="ssr:stedsnr" v="229676" />
	</node>
<<<<<<< HEAD
	<node lat="65.68007777993742" lon="12.44024999724806" id="-6568">
		<tag k="name" v="Ramnfloget" />
=======
	<node id="-130377" lat="65.616458336" lon="12.3752416578">
		<tag k="name" v="Fagerlia" />
>>>>>>> e1d4bc35ff8a6074a6f2e91616a996b547c36f15
		<tag k="natural" v="slope" />
		<tag k="place" v="locality" />
		<tag k="ssr:stedsnr" v="15058" />
	</node>
<<<<<<< HEAD
	<node lat="65.64011944330609" lon="12.44395555594553" id="-6571">
		<tag k="name" v="Langdalen" />
		<tag k="natural" v="valley" />
=======
	<node id="-130375" lat="65.6292111121" lon="12.370269435">
		<tag k="name" v="Mølnhushågjen" />
		<tag k="natural" v="ridge" />
>>>>>>> e1d4bc35ff8a6074a6f2e91616a996b547c36f15
		<tag k="place" v="locality" />
		<tag k="ssr:stedsnr" v="15111" />
	</node>
<<<<<<< HEAD
	<node lat="65.54052500026918" lon="12.748802777368754" id="-6575">
		<tag k="name" v="Tøymvasslia" />
=======
	<node id="-130374" lat="65.6375527815" lon="12.3813527816">
		<tag k="name" v="Håglia" />
>>>>>>> e1d4bc35ff8a6074a6f2e91616a996b547c36f15
		<tag k="natural" v="slope" />
		<tag k="place" v="locality" />
		<tag k="ssr:stedsnr" v="15660" />
	</node>
<<<<<<< HEAD
	<node lat="65.5304916681344" lon="12.758258338025389" id="-6576">
		<tag k="name" v="Børjedalen" />
		<tag k="natural" v="valley" />
=======
	<node id="-130373" lat="65.6420777767" lon="12.3756666768">
		<tag k="name" v="Moen" />
>>>>>>> e1d4bc35ff8a6074a6f2e91616a996b547c36f15
		<tag k="place" v="locality" />
		<tag k="ssr:stedsnr" v="15672" />
	</node>
<<<<<<< HEAD
	<node lat="65.59370000460521" lon="12.414766661424201" id="-6579">
		<tag k="name" v="Gløsen" />
		<tag k="natural" v="slope" />
=======
	<node id="-130372" lat="65.6417861098" lon="12.6107444474">
		<tag k="name" v="Gørrtjønnbakkan" />
		<tag k="natural" v="hill" />
>>>>>>> e1d4bc35ff8a6074a6f2e91616a996b547c36f15
		<tag k="place" v="locality" />
		<tag k="ssr:stedsnr" v="15922" />
	</node>
<<<<<<< HEAD
	<node lat="65.58835555918112" lon="12.407502781898458" id="-6583">
		<tag k="name" v="Vollan" />
=======
	<node id="-130370" lat="65.6737166691" lon="12.4268527787">
		<tag k="name" v="Mølnhushola" />
		<tag k="natural" v="valley" />
>>>>>>> e1d4bc35ff8a6074a6f2e91616a996b547c36f15
		<tag k="place" v="locality" />
		<tag k="ssr:stedsnr" v="16890" />
	</node>
	<node lat="65.7436166690507" lon="12.602144443445086" id="-6585">
		<tag k="name" v="Kopparkjelen" />
		<tag k="place" v="locality" />
		<tag k="ssr:stedsnr" v="46506" />
	</node>
<<<<<<< HEAD
	<node lat="65.74486944787817" lon="12.592344449107985" id="-6586">
=======
	<node id="-130367" lat="65.6792555582" lon="12.3364722249">
>>>>>>> e1d4bc35ff8a6074a6f2e91616a996b547c36f15
		<tag k="fixme" v="consider natural=peak for the most distinct mountains in the district" />
		<tag k="name" v="Tverråsen" />
		<tag k="natural" v="hill" />
		<tag k="place" v="locality" />
		<tag k="ssr:stedsnr" v="46508" />
	</node>
<<<<<<< HEAD
	<node lat="65.7411722262385" lon="12.60300833508376" id="-6587">
		<tag k="name" v="Broddan" />
		<tag k="natural" v="slope" />
		<tag k="place" v="locality" />
		<tag k="ssr:stedsnr" v="46514" />
	</node>
	<node lat="65.71046666802431" lon="12.473702775389137" id="-6588">
		<tag k="name" v="Tyskmoen" />
=======
	<node id="-130361" lat="65.7535305571" lon="12.537377776">
		<tag k="name" v="Kalvhylla" />
		<tag k="place" v="locality" />
		<tag k="ssr:stedsnr" v="956462" />
	</node>
	<node id="-130360" lat="65.7497277789" lon="12.5435416679">
		<tag k="name" v="Slettbergan" />
		<tag k="natural" v="cliff" />
		<tag k="ssr:stedsnr" v="956431" />
	</node>
	<node id="-130359" lat="65.7586861097" lon="12.5558305618">
		<tag k="name" v="Nausthågjen" />
		<tag k="natural" v="hill" />
>>>>>>> e1d4bc35ff8a6074a6f2e91616a996b547c36f15
		<tag k="place" v="locality" />
		<tag k="ssr:stedsnr" v="46580" />
	</node>
<<<<<<< HEAD
	<node lat="65.65421666874008" lon="12.394613897606208" id="-6590">
		<tag k="name" v="Breiålia" />
		<tag k="natural" v="slope" />
=======
	<node id="-130354" lat="65.5932138862" lon="12.6496611094">
		<tag k="fixme" v="consider natural=peak for the most distinct mountains in the district" />
		<tag k="name" v="Brebladet" />
		<tag k="natural" v="hill" />
>>>>>>> e1d4bc35ff8a6074a6f2e91616a996b547c36f15
		<tag k="place" v="locality" />
		<tag k="ssr:stedsnr" v="46782" />
	</node>
<<<<<<< HEAD
	<node lat="65.60787499884084" lon="12.37816944986692" id="-6592">
		<tag k="name" v="Stappen" />
=======
	<node id="-130351" lat="65.6747250005" lon="12.9942055556">
		<tag k="fixme" v="consider natural=peak for the most distinct mountains in the district" />
		<tag k="name" v="Vistfjellet - Öörjelsnjurhtjie" />
		<tag k="name:no" v="Vistfjellet" />
		<tag k="name:sma" v="Öörjelsnjurhtjie" />
		<tag k="natural" v="hill" />
>>>>>>> e1d4bc35ff8a6074a6f2e91616a996b547c36f15
		<tag k="place" v="locality" />
		<tag k="ssr:stedsnr" v="46822" />
	</node>
<<<<<<< HEAD
	<node lat="65.75742500245651" lon="12.628052784156063" id="-6593">
		<tag k="name" v="Brennådalen" />
		<tag k="natural" v="valley" />
=======
	<node id="-130347" lat="65.6451027776" lon="12.8514111177">
		<tag k="fixme" v="consider natural=peak for the most distinct mountains in the district" />
		<tag k="name" v="Stigfjellet - Gaskevaerie" />
		<tag k="name:no" v="Stigfjellet" />
		<tag k="name:sma" v="Gaskevaerie" />
		<tag k="natural" v="hill" />
>>>>>>> e1d4bc35ff8a6074a6f2e91616a996b547c36f15
		<tag k="place" v="locality" />
		<tag k="ssr:stedsnr" v="76117" />
	</node>
<<<<<<< HEAD
	<node lat="65.68462777479483" lon="12.364044445878301" id="-6594">
		<tag k="name" v="Fjelldørgja" />
		<tag k="natural" v="slope" />
=======
	<node id="-130340" lat="65.5188277794" lon="12.7433888825">
		<tag k="fixme" v="consider natural=peak for the most distinct mountains in the district" />
		<tag k="name" v="Tøymvassfjellet" />
		<tag k="natural" v="hill" />
>>>>>>> e1d4bc35ff8a6074a6f2e91616a996b547c36f15
		<tag k="place" v="locality" />
		<tag k="ssr:stedsnr" v="76052" />
	</node>
<<<<<<< HEAD
	<node lat="65.6816250026643" lon="12.36635556479193" id="-6595">
		<tag k="name" v="Botnan" />
		<tag k="natural" v="valley" />
=======
	<node id="-130338" lat="65.7125694433" lon="12.5795194444">
		<tag k="name" v="Vedberget" />
		<tag k="natural" v="slope" />
>>>>>>> e1d4bc35ff8a6074a6f2e91616a996b547c36f15
		<tag k="place" v="locality" />
		<tag k="ssr:stedsnr" v="76055" />
	</node>
<<<<<<< HEAD
	<node lat="65.72143611568406" lon="12.535661101809168" id="-6600">
=======
	<node id="-130334" lat="65.6529500034" lon="12.4426555563">
>>>>>>> e1d4bc35ff8a6074a6f2e91616a996b547c36f15
		<tag k="fixme" v="consider natural=peak for the most distinct mountains in the district" />
		<tag k="name" v="Dalaksla" />
		<tag k="natural" v="hill" />
		<tag k="place" v="locality" />
		<tag k="ssr:stedsnr" v="76252" />
	</node>
<<<<<<< HEAD
	<node lat="65.71296388916087" lon="12.637630548266504" id="-6602">
=======
	<node id="-130331" lat="65.6632277781" lon="12.6736083331">
>>>>>>> e1d4bc35ff8a6074a6f2e91616a996b547c36f15
		<tag k="fixme" v="consider natural=peak for the most distinct mountains in the district" />
		<tag k="name" v="Aunfjellet" />
		<tag k="natural" v="hill" />
		<tag k="place" v="locality" />
<<<<<<< HEAD
		<tag k="ssr:stedsnr" v="76265" />
	</node>
	<node lat="65.72203055449364" lon="12.740241661054007" id="-6604">
		<tag k="name" v="Almoskardet" />
=======
		<tag k="ssr:stedsnr" v="865115" />
	</node>
	<node id="-130325" lat="65.6801861089" lon="12.3785777823">
		<tag k="name" v="Gjerdsmoen" />
		<tag k="place" v="locality" />
		<tag k="ssr:stedsnr" v="865049" />
	</node>
	<node id="-130321" lat="65.6705416672" lon="12.4233833414">
		<tag k="name" v="Breiheia" />
		<tag k="natural" v="ridge" />
		<tag k="place" v="locality" />
		<tag k="ssr:stedsnr" v="836751" />
	</node>
	<node id="-130320" lat="65.6567722196" lon="12.3108555619">
		<tag k="name" v="Bulifjellet" />
		<tag k="natural" v="cliff" />
		<tag k="ssr:stedsnr" v="836732" />
	</node>
	<node id="-130319" lat="65.6218888847" lon="12.3676861188">
		<tag k="name" v="Kleivdalen" />
>>>>>>> e1d4bc35ff8a6074a6f2e91616a996b547c36f15
		<tag k="natural" v="valley" />
		<tag k="place" v="locality" />
		<tag k="ssr:stedsnr" v="76749" />
	</node>
<<<<<<< HEAD
	<node lat="65.70442222616258" lon="12.414108330808443" id="-6607">
		<tag k="name" v="Kjøkkenhågjen" />
		<tag k="natural" v="hill" />
		<tag k="place" v="locality" />
		<tag k="ssr:stedsnr" v="107574" />
	</node>
	<node lat="65.67376389178932" lon="12.411672223991738" id="-6608">
		<tag k="name" v="Karusellhågjen" />
=======
	<node id="-130318" lat="65.6360861129" lon="12.3583583263">
		<tag k="name" v="Syhågjen" />
		<tag k="natural" v="hill" />
		<tag k="place" v="locality" />
		<tag k="ssr:stedsnr" v="836796" />
	</node>
	<node id="-130317" lat="65.6495194474" lon="12.6319194534">
		<tag k="name" v="Mulberget" />
		<tag k="natural" v="ridge" />
		<tag k="place" v="locality" />
		<tag k="ssr:stedsnr" v="835793" />
	</node>
	<node id="-130316" lat="65.6906916681" lon="12.3938611074">
		<tag k="name" v="Rismålshågjen" />
>>>>>>> e1d4bc35ff8a6074a6f2e91616a996b547c36f15
		<tag k="natural" v="hill" />
		<tag k="place" v="locality" />
		<tag k="ssr:stedsnr" v="107716" />
	</node>
<<<<<<< HEAD
	<node lat="65.68000000113983" lon="12.334816672172872" id="-6612">
		<tag k="name" v="Olderhågjen" />
		<tag k="natural" v="hill" />
=======
	<node id="-130315" lat="65.6901583339" lon="12.4081555464">
		<tag k="name" v="Skardet" />
		<tag k="natural" v="valley" />
>>>>>>> e1d4bc35ff8a6074a6f2e91616a996b547c36f15
		<tag k="place" v="locality" />
		<tag k="ssr:stedsnr" v="107671" />
	</node>
<<<<<<< HEAD
	<node lat="65.63948889174777" lon="12.378183335310549" id="-6613">
		<tag k="name" v="Rabben" />
=======
	<node id="-130313" lat="65.7568166686" lon="12.5796166705">
		<tag k="name" v="Heggmohågjen" />
>>>>>>> e1d4bc35ff8a6074a6f2e91616a996b547c36f15
		<tag k="natural" v="hill" />
		<tag k="place" v="locality" />
		<tag k="ssr:stedsnr" v="107810" />
	</node>
<<<<<<< HEAD
	<node lat="65.62298611236118" lon="12.37618055243703" id="-6614">
		<tag k="name" v="Dalen" />
=======
	<node id="-130312" lat="65.754322221" lon="12.560394454">
		<tag k="name" v="Toppdalen" />
>>>>>>> e1d4bc35ff8a6074a6f2e91616a996b547c36f15
		<tag k="natural" v="valley" />
		<tag k="place" v="locality" />
		<tag k="ssr:stedsnr" v="107814" />
	</node>
<<<<<<< HEAD
	<node lat="65.62570277726915" lon="12.376438887764559" id="-6615">
		<tag k="name" v="Hesthagen" />
		<tag k="natural" v="slope" />
=======
	<node id="-130307" lat="65.658405552" lon="12.350713898">
		<tag k="name" v="Rundhaugen" />
		<tag k="natural" v="hill" />
>>>>>>> e1d4bc35ff8a6074a6f2e91616a996b547c36f15
		<tag k="place" v="locality" />
		<tag k="ssr:stedsnr" v="107817" />
	</node>
<<<<<<< HEAD
	<node lat="65.727733337417" lon="12.539469448331982" id="-6626">
		<tag k="name" v="Urdvikdalen" />
=======
	<node id="-130306" lat="65.660308335" lon="12.5145611143">
		<tag k="name" v="Spruten" />
>>>>>>> e1d4bc35ff8a6074a6f2e91616a996b547c36f15
		<tag k="natural" v="valley" />
		<tag k="place" v="locality" />
		<tag k="ssr:stedsnr" v="136252" />
	</node>
<<<<<<< HEAD
	<node lat="65.5568555551079" lon="12.432724996798662" id="-6628">
=======
	<node id="-130304" lat="65.672686112" lon="12.5409194367">
>>>>>>> e1d4bc35ff8a6074a6f2e91616a996b547c36f15
		<tag k="fixme" v="consider natural=peak for the most distinct mountains in the district" />
		<tag k="name" v="Innerhatten" />
		<tag k="natural" v="hill" />
		<tag k="place" v="locality" />
<<<<<<< HEAD
		<tag k="ssr:stedsnr" v="136995" />
	</node>
	<node lat="65.67011944782385" lon="12.526525008078254" id="-6638">
		<tag k="name" v="Kilmarkdalen" />
		<tag k="natural" v="valley" />
		<tag k="place" v="locality" />
		<tag k="ssr:stedsnr" v="258076" />
	</node>
	<node lat="65.76735277586377" lon="12.655902771574551" id="-6641">
		<tag k="fixme" v="consider natural=peak for the most distinct mountains in the district" />
		<tag k="name" v="Brennåfjellet" />
=======
		<tag k="ssr:stedsnr" v="805058" />
	</node>
	<node id="-130303" lat="65.6675583293" lon="12.5097749953">
		<tag k="name" v="Trolldalen" />
		<tag k="natural" v="valley" />
		<tag k="place" v="locality" />
		<tag k="ssr:stedsnr" v="805057" />
	</node>
	<node id="-130302" lat="65.6652166683" lon="12.439624996">
		<tag k="name" v="Botnan" />
		<tag k="natural" v="valley" />
		<tag k="place" v="locality" />
		<tag k="ssr:stedsnr" v="805056" />
	</node>
	<node id="-130301" lat="65.5819499989" lon="12.447991676">
		<tag k="fixme" v="consider natural=peak for the most distinct mountains in the district" />
		<tag k="name" v="Rundfjellet" />
		<tag k="natural" v="hill" />
		<tag k="place" v="locality" />
		<tag k="ssr:stedsnr" v="804899" />
	</node>
	<node id="-130297" lat="65.6631361136" lon="12.7990083353">
		<tag k="fixme" v="consider natural=peak for the most distinct mountains in the district" />
		<tag k="name" v="Krongelvassfjellet" />
		<tag k="natural" v="hill" />
		<tag k="place" v="locality" />
		<tag k="ssr:stedsnr" v="804862" />
	</node>
	<node id="-130294" lat="65.7356111132" lon="12.6153361016">
		<tag k="name" v="Geitskardholten" />
>>>>>>> e1d4bc35ff8a6074a6f2e91616a996b547c36f15
		<tag k="natural" v="hill" />
		<tag k="place" v="locality" />
		<tag k="ssr:stedsnr" v="258087" />
	</node>
<<<<<<< HEAD
	<node lat="65.7237611122832" lon="12.504150005036879" id="-6643">
=======
	<node id="-130293" lat="65.6360527795" lon="12.5350749917">
>>>>>>> e1d4bc35ff8a6074a6f2e91616a996b547c36f15
		<tag k="fixme" v="consider natural=peak for the most distinct mountains in the district" />
		<tag k="name" v="Dalfjellet" />
		<tag k="natural" v="hill" />
		<tag k="place" v="locality" />
		<tag k="ssr:stedsnr" v="258237" />
	</node>
<<<<<<< HEAD
	<node lat="65.72141944535335" lon="12.616341665154277" id="-6644">
		<tag k="fixme" v="multiple name tags, choose one and add the other to alt_name" />
		<tag k="name" v="Aunskardet;Klemetskardet" />
		<tag k="natural" v="valley" />
=======
	<node id="-130290" lat="65.7501666679" lon="12.6282583337">
		<tag k="fixme" v="consider natural=peak for the most distinct mountains in the district" />
		<tag k="name" v="Stokkahatten" />
		<tag k="natural" v="hill" />
>>>>>>> e1d4bc35ff8a6074a6f2e91616a996b547c36f15
		<tag k="place" v="locality" />
		<tag k="ssr:stedsnr" v="258239" />
	</node>
<<<<<<< HEAD
	<node lat="65.71106388458149" lon="12.408052782510422" id="-6646">
		<tag k="name" v="Djupvikhaugen" />
=======
	<node id="-130289" lat="65.6617833292" lon="12.3067416622">
		<tag k="fixme" v="consider natural=peak for the most distinct mountains in the district" />
		<tag k="name" v="Blesåsen" />
>>>>>>> e1d4bc35ff8a6074a6f2e91616a996b547c36f15
		<tag k="natural" v="hill" />
		<tag k="place" v="locality" />
		<tag k="ssr:stedsnr" v="258245" />
	</node>
<<<<<<< HEAD
	<node lat="65.5520027776917" lon="12.745425005507862" id="-6647">
		<tag k="name" v="Granlia" />
=======
	<node id="-130279" lat="65.691263887" lon="12.4714666562">
		<tag k="name" v="Kvannlia" />
>>>>>>> e1d4bc35ff8a6074a6f2e91616a996b547c36f15
		<tag k="natural" v="slope" />
		<tag k="place" v="locality" />
		<tag k="ssr:stedsnr" v="258634" />
	</node>
<<<<<<< HEAD
	<node lat="65.75310833276642" lon="12.541313887711485" id="-6654">
		<tag k="name" v="Kalvvikja" />
		<tag k="natural" v="valley" />
=======
	<node id="-130275" lat="65.6054333357" lon="12.3733888864">
		<tag k="fixme" v="consider natural=peak for the most distinct mountains in the district" />
		<tag k="name" v="Ørnbergan" />
		<tag k="natural" v="hill" />
>>>>>>> e1d4bc35ff8a6074a6f2e91616a996b547c36f15
		<tag k="place" v="locality" />
		<tag k="ssr:stedsnr" v="167459" />
	</node>
<<<<<<< HEAD
	<node lat="65.68856110888446" lon="12.396388889840221" id="-6655">
		<tag k="name" v="Ervikja" />
		<tag k="natural" v="valley" />
=======
	<node id="-130273" lat="65.6319500029" lon="12.3754333425">
		<tag k="name" v="Kjerringlia" />
		<tag k="natural" v="slope" />
>>>>>>> e1d4bc35ff8a6074a6f2e91616a996b547c36f15
		<tag k="place" v="locality" />
		<tag k="ssr:stedsnr" v="167619" />
	</node>
<<<<<<< HEAD
	<node lat="65.59418611034158" lon="12.426313889306702" id="-6656">
		<tag k="name" v="Botnlia" />
		<tag k="natural" v="slope" />
=======
	<node id="-130272" lat="65.6847527781" lon="12.6329666638">
		<tag k="name" v="Blåvikfjellet" />
		<tag k="natural" v="hill" />
>>>>>>> e1d4bc35ff8a6074a6f2e91616a996b547c36f15
		<tag k="place" v="locality" />
		<tag k="ssr:stedsnr" v="168818" />
	</node>
<<<<<<< HEAD
	<node lat="65.65044722465657" lon="12.637483333296757" id="-6658">
		<tag k="name" v="Syhågjen" />
		<tag k="natural" v="hill" />
		<tag k="place" v="locality" />
		<tag k="ssr:stedsnr" v="168773" />
	</node>
	<node lat="65.64919166997721" lon="12.619277778966454" id="-6661">
		<tag k="name" v="Nonshaugen" />
=======
	<node id="-130270" lat="65.6762722267" lon="12.4112000009">
		<tag k="name" v="Gjerdehågjen" />
		<tag k="natural" v="hill" />
		<tag k="place" v="locality" />
		<tag k="ssr:stedsnr" v="775682" />
	</node>
	<node id="-130268" lat="65.6721722238" lon="12.3351916636">
		<tag k="name" v="Ravnfloget" />
		<tag k="natural" v="cliff" />
		<tag k="ssr:stedsnr" v="775589" />
	</node>
	<node id="-130263" lat="65.7437388919" lon="12.5882277712">
		<tag k="name" v="Hælingshågjen" />
>>>>>>> e1d4bc35ff8a6074a6f2e91616a996b547c36f15
		<tag k="natural" v="hill" />
		<tag k="place" v="locality" />
		<tag k="ssr:stedsnr" v="197123" />
	</node>
<<<<<<< HEAD
	<node lat="65.5272638863256" lon="12.869847215003153" id="-6669">
=======
	<node id="-130261" lat="65.706663893" lon="12.4003194512">
>>>>>>> e1d4bc35ff8a6074a6f2e91616a996b547c36f15
		<tag k="fixme" v="consider natural=peak for the most distinct mountains in the district" />
		<tag k="name" v="Austerdalsfjellet - Åarjelvaerie" />
		<tag k="name:no" v="Austerdalsfjellet" />
		<tag k="name:sma" v="Åarjelvaerie" />
		<tag k="natural" v="hill" />
		<tag k="place" v="locality" />
		<tag k="ssr:stedsnr" v="267591" />
	</node>
<<<<<<< HEAD
	<node lat="65.70439166933583" lon="12.416613884952728" id="-6675">
		<tag k="name" v="Hammaren" />
		<tag k="natural" v="ridge" />
=======
	<node id="-130260" lat="65.7231111075" lon="12.4956055512">
		<tag k="name" v="Dallia" />
		<tag k="natural" v="slope" />
>>>>>>> e1d4bc35ff8a6074a6f2e91616a996b547c36f15
		<tag k="place" v="locality" />
		<tag k="ssr:stedsnr" v="228614" />
	</node>
<<<<<<< HEAD
	<node lat="65.74115277639079" lon="12.591408336176052" id="-6677">
		<tag k="name" v="Svartåsenden" />
		<tag k="natural" v="ridge" />
=======
	<node id="-130256" lat="65.7181638885" lon="12.6183749932">
		<tag k="fixme" v="consider natural=peak for the most distinct mountains in the district" />
		<tag k="name" v="Bufjellet" />
		<tag k="natural" v="hill" />
>>>>>>> e1d4bc35ff8a6074a6f2e91616a996b547c36f15
		<tag k="place" v="locality" />
		<tag k="ssr:stedsnr" v="228532" />
	</node>
<<<<<<< HEAD
	<node lat="65.65982222390738" lon="12.633988880490277" id="-6678">
		<tag k="name" v="Husvikdalen" />
=======
	<node id="-130255" lat="65.6976722208" lon="12.8271305473">
		<tag k="name" v="Nordvassdalen" />
>>>>>>> e1d4bc35ff8a6074a6f2e91616a996b547c36f15
		<tag k="natural" v="valley" />
		<tag k="place" v="locality" />
		<tag k="ssr:stedsnr" v="228802" />
	</node>
<<<<<<< HEAD
	<node lat="65.59591666410418" lon="12.37465277555958" id="-6681">
		<tag k="name" v="Hunden" />
=======
	<node id="-130254" lat="65.6995055581" lon="12.903347216">
		<tag k="fixme" v="consider natural=peak for the most distinct mountains in the district" />
		<tag k="name" v="Burrienvaerie" />
		<tag k="name:sma" v="Burrienvaerie" />
>>>>>>> e1d4bc35ff8a6074a6f2e91616a996b547c36f15
		<tag k="natural" v="hill" />
		<tag k="place" v="locality" />
		<tag k="ssr:stedsnr" v="228841" />
	</node>
<<<<<<< HEAD
	<node lat="65.6545277795004" lon="12.319866660872743" id="-6682">
		<tag k="name" v="Sjurfloget" />
		<tag k="natural" v="cliff" />
		<tag k="ssr:stedsnr" v="229733" />
	</node>
	<node lat="65.70468889109236" lon="12.469513888014559" id="-6683">
		<tag k="name" v="Geitkrækern" />
=======
	<node id="-130252" lat="65.719130558" lon="12.6036666664">
		<tag k="name" v="Hamntindberget" />
>>>>>>> e1d4bc35ff8a6074a6f2e91616a996b547c36f15
		<tag k="natural" v="slope" />
		<tag k="place" v="locality" />
		<tag k="ssr:stedsnr" v="229603" />
	</node>
<<<<<<< HEAD
	<node lat="65.68461666593973" lon="12.342383337784556" id="-6685">
		<tag k="name" v="Torvheia" />
		<tag k="natural" v="slope" />
=======
	<node id="-130250" lat="65.6456083373" lon="12.60750556">
		<tag k="fixme" v="consider natural=peak for the most distinct mountains in the district" />
		<tag k="name" v="Hestviktinden" />
		<tag k="natural" v="hill" />
>>>>>>> e1d4bc35ff8a6074a6f2e91616a996b547c36f15
		<tag k="place" v="locality" />
		<tag k="ssr:stedsnr" v="229640" />
	</node>
<<<<<<< HEAD
	<node lat="65.67386666722183" lon="12.327675002745673" id="-6686">
		<tag k="name" v="Kroken" />
=======
	<node id="-130247" lat="65.6856416711" lon="12.5257805561">
		<tag k="name" v="Snødalen" />
>>>>>>> e1d4bc35ff8a6074a6f2e91616a996b547c36f15
		<tag k="natural" v="valley" />
		<tag k="place" v="locality" />
		<tag k="ssr:stedsnr" v="229684" />
	</node>
<<<<<<< HEAD
	<node lat="65.71838333060167" lon="12.58021667340671" id="-6687">
		<tag k="name" v="Flogan" />
		<tag k="natural" v="slope" />
		<tag k="place" v="locality" />
		<tag k="ssr:stedsnr" v="257278" />
	</node>
	<node lat="65.63503889284728" lon="12.407961116099433" id="-6690">
		<tag k="name" v="Saltkardalen" />
		<tag k="natural" v="valley" />
=======
	<node id="-130242" lat="65.7013361118" lon="12.4685249924">
		<tag k="name" v="Hanslia" />
		<tag k="natural" v="slope" />
		<tag k="place" v="locality" />
		<tag k="ssr:stedsnr" v="743005" />
	</node>
	<node id="-130240" lat="65.6412694444" lon="12.6668666617">
		<tag k="fixme" v="consider natural=peak for the most distinct mountains in the district" />
		<tag k="name" v="Tangvikfjellet" />
		<tag k="natural" v="hill" />
		<tag k="place" v="locality" />
		<tag k="ssr:stedsnr" v="743130" />
	</node>
	<node id="-130239" lat="65.6326777795" lon="12.5101250102">
		<tag k="name" v="Storhaugen" />
		<tag k="natural" v="hill" />
>>>>>>> e1d4bc35ff8a6074a6f2e91616a996b547c36f15
		<tag k="place" v="locality" />
		<tag k="ssr:stedsnr" v="258110" />
	</node>
<<<<<<< HEAD
	<node lat="65.71061666943935" lon="12.630930559775404" id="-6691">
		<tag k="name" v="Aunfloget" />
=======
	<node id="-130231" lat="65.6422611134" lon="12.3814166587">
		<tag k="name" v="Bjørklia" />
>>>>>>> e1d4bc35ff8a6074a6f2e91616a996b547c36f15
		<tag k="natural" v="slope" />
		<tag k="place" v="locality" />
		<tag k="ssr:stedsnr" v="258007" />
	</node>
<<<<<<< HEAD
	<node lat="65.59088055536441" lon="12.809705566180776" id="-6695">
		<tag k="name" v="Kalvdalen" />
=======
	<node id="-130229" lat="65.6372583305" lon="12.6183861088">
		<tag k="name" v="Tømmerdalen" />
>>>>>>> e1d4bc35ff8a6074a6f2e91616a996b547c36f15
		<tag k="natural" v="valley" />
		<tag k="place" v="locality" />
		<tag k="ssr:stedsnr" v="258672" />
	</node>
<<<<<<< HEAD
	<node lat="65.66243610746955" lon="12.765024995019624" id="-6698">
		<tag k="name" v="Bønnådalen" />
=======
	<node id="-130228" lat="65.6463361082" lon="12.618847229">
		<tag k="name" v="Botnan" />
>>>>>>> e1d4bc35ff8a6074a6f2e91616a996b547c36f15
		<tag k="natural" v="valley" />
		<tag k="place" v="locality" />
		<tag k="ssr:stedsnr" v="258863" />
	</node>
<<<<<<< HEAD
	<node lat="65.6617861155839" lon="12.757547220384833" id="-6699">
=======
	<node id="-130227" lat="65.6889916676" lon="12.4300833327">
>>>>>>> e1d4bc35ff8a6074a6f2e91616a996b547c36f15
		<tag k="fixme" v="consider natural=peak for the most distinct mountains in the district" />
		<tag k="name" v="Åsan" />
		<tag k="natural" v="hill" />
		<tag k="place" v="locality" />
		<tag k="ssr:stedsnr" v="258865" />
	</node>
<<<<<<< HEAD
	<node lat="65.68915278003949" lon="12.78153056676079" id="-6701">
		<tag k="fixme" v="consider natural=peak for the most distinct mountains in the district" />
		<tag k="name" v="Storfjellet" />
=======
	<node id="-130224" lat="65.6606083356" lon="12.4038444537">
		<tag k="name" v="Kvitfjellet" />
>>>>>>> e1d4bc35ff8a6074a6f2e91616a996b547c36f15
		<tag k="natural" v="hill" />
		<tag k="place" v="locality" />
		<tag k="ssr:stedsnr" v="258760" />
	</node>
<<<<<<< HEAD
	<node lat="65.62615000001838" lon="12.641136101277315" id="-6702">
		<tag k="name" v="Tverrålia" />
		<tag k="natural" v="slope" />
=======
	<node id="-130221" lat="65.6791166699" lon="12.4133527752">
		<tag k="name" v="Møllohågjen" />
		<tag k="natural" v="hill" />
>>>>>>> e1d4bc35ff8a6074a6f2e91616a996b547c36f15
		<tag k="place" v="locality" />
		<tag k="ssr:stedsnr" v="258927" />
	</node>
<<<<<<< HEAD
	<node lat="65.7623333294506" lon="12.56948333340766" id="-6705">
		<tag k="fixme" v="consider natural=peak for the most distinct mountains in the district" />
		<tag k="name" v="Storhågjen" />
=======
	<node id="-130220" lat="65.7198611155" lon="12.4456305606">
		<tag k="name" v="Heilvikhågjen" />
>>>>>>> e1d4bc35ff8a6074a6f2e91616a996b547c36f15
		<tag k="natural" v="hill" />
		<tag k="place" v="locality" />
		<tag k="ssr:stedsnr" v="289331" />
	</node>
<<<<<<< HEAD
	<node lat="65.66163611540827" lon="12.320488899116688" id="-6709">
		<tag k="name" v="Middagslia" />
		<tag k="natural" v="slope" />
		<tag k="place" v="locality" />
		<tag k="ssr:stedsnr" v="289804" />
	</node>
	<node lat="65.6568527760217" lon="12.31556945250435" id="-6711">
		<tag k="name" v="Bonsteinklaven" />
		<tag k="natural" v="valley" />
=======
	<node id="-130215" lat="65.6018333356" lon="12.3748499961">
		<tag k="name" v="Neverlia" />
		<tag k="natural" v="slope" />
		<tag k="place" v="locality" />
		<tag k="ssr:stedsnr" v="622912" />
	</node>
	<node id="-130214" lat="65.5708166709" lon="12.391888883">
		<tag k="name" v="Otergreina" />
		<tag k="place" v="locality" />
		<tag k="ssr:stedsnr" v="622865" />
	</node>
	<node id="-130209" lat="65.6030638905" lon="12.9953305487">
		<tag k="fixme" v="consider natural=peak for the most distinct mountains in the district" />
		<tag k="name" v="Storvassfjellet - Stoerrevaerie" />
		<tag k="name:no" v="Storvassfjellet" />
		<tag k="name:sma" v="Stoerrevaerie" />
		<tag k="natural" v="hill" />
>>>>>>> e1d4bc35ff8a6074a6f2e91616a996b547c36f15
		<tag k="place" v="locality" />
		<tag k="ssr:stedsnr" v="289794" />
	</node>
<<<<<<< HEAD
	<node lat="65.70443888893885" lon="12.557655551873511" id="-6712">
=======
	<node id="-130207" lat="65.6328083311" lon="12.42443333">
>>>>>>> e1d4bc35ff8a6074a6f2e91616a996b547c36f15
		<tag k="fixme" v="consider natural=peak for the most distinct mountains in the district" />
		<tag k="name" v="Kilfjellet" />
		<tag k="natural" v="hill" />
		<tag k="place" v="locality" />
		<tag k="ssr:stedsnr" v="318002" />
	</node>
<<<<<<< HEAD
	<node lat="65.70534166227188" lon="12.6879250083843" id="-6717">
		<tag k="name" v="Almosskardet" />
=======
	<node id="-130206" lat="65.6623027787" lon="12.3501388813">
		<tag k="name" v="Finnkotdalen" />
>>>>>>> e1d4bc35ff8a6074a6f2e91616a996b547c36f15
		<tag k="natural" v="valley" />
		<tag k="place" v="locality" />
		<tag k="ssr:stedsnr" v="318001" />
	</node>
<<<<<<< HEAD
	<node lat="65.74256944329618" lon="12.571991668815595" id="-6720">
		<tag k="fixme" v="consider natural=peak for the most distinct mountains in the district" />
		<tag k="name" v="Høgåsen" />
		<tag k="natural" v="hill" />
=======
	<node id="-130199" lat="65.7161250006" lon="12.4929361075">
		<tag k="name" v="Strupen" />
		<tag k="natural" v="valley" />
>>>>>>> e1d4bc35ff8a6074a6f2e91616a996b547c36f15
		<tag k="place" v="locality" />
		<tag k="ssr:stedsnr" v="318188" />
	</node>
<<<<<<< HEAD
	<node lat="65.74025833644917" lon="12.584241671450016" id="-6721">
		<tag k="fixme" v="consider natural=peak for the most distinct mountains in the district" />
		<tag k="name" v="Svartåsen" />
		<tag k="natural" v="hill" />
=======
	<node id="-130197" lat="65.7452916705" lon="12.6727249923">
		<tag k="name" v="Brennåskardet" />
		<tag k="natural" v="valley" />
>>>>>>> e1d4bc35ff8a6074a6f2e91616a996b547c36f15
		<tag k="place" v="locality" />
		<tag k="ssr:stedsnr" v="318189" />
	</node>
<<<<<<< HEAD
	<node lat="65.62001666323563" lon="12.980761108882964" id="-6723">
		<tag k="name" v="Sæterskardet - Seateredurrie" />
		<tag k="name:no" v="Sæterskardet" />
		<tag k="name:sma" v="Seateredurrie" />
=======
	<node id="-130195" lat="65.6473805539" lon="12.5312416748">
		<tag k="name" v="Tasslihalsen" />
>>>>>>> e1d4bc35ff8a6074a6f2e91616a996b547c36f15
		<tag k="natural" v="valley" />
		<tag k="place" v="locality" />
		<tag k="ssr:stedsnr" v="318838" />
	</node>
<<<<<<< HEAD
	<node lat="65.61705000056045" lon="12.794805549813406" id="-6726">
		<tag k="fixme" v="consider natural=peak for the most distinct mountains in the district" />
		<tag k="name" v="Remfjellet" />
		<tag k="natural" v="hill" />
		<tag k="place" v="locality" />
		<tag k="ssr:stedsnr" v="318847" />
	</node>
	<node lat="65.64458610706032" lon="12.982769450710375" id="-6727">
		<tag k="fixme" v="consider natural=peak for the most distinct mountains in the district" />
		<tag k="loc_name:sma" v="Seatervaerie" />
		<tag k="name" v="Vistfjellan - Seaterevaerie" />
		<tag k="name:no" v="Vistfjellan" />
		<tag k="name:sma" v="Seaterevaerie" />
		<tag k="natural" v="hill" />
=======
	<node id="-130193" lat="65.656594443" lon="12.6290861118">
		<tag k="fixme" v="multiple name tags, choose one and add the other to alt_name" />
		<tag k="name" v="Hylla;Hyllhaugen" />
		<tag k="natural" v="hill" />
		<tag k="place" v="locality" />
		<tag k="ssr:stedsnr" v="621088" />
	</node>
	<node id="-130192" lat="65.6557138928" lon="12.711908329">
		<tag k="name" v="Bønnålia" />
		<tag k="natural" v="slope" />
		<tag k="place" v="locality" />
		<tag k="ssr:stedsnr" v="621080" />
	</node>
	<node id="-130190" lat="65.5842138858" lon="12.3817305653">
		<tag k="name" v="Hyllo" />
		<tag k="place" v="locality" />
		<tag k="ssr:stedsnr" v="592871" />
	</node>
	<node id="-130189" lat="65.609147222" lon="12.3748722233">
		<tag k="name" v="Forneslia" />
		<tag k="natural" v="slope" />
>>>>>>> e1d4bc35ff8a6074a6f2e91616a996b547c36f15
		<tag k="place" v="locality" />
		<tag k="ssr:stedsnr" v="318849" />
	</node>
<<<<<<< HEAD
	<node lat="65.65695833092913" lon="12.321230556912456" id="-6729">
		<tag k="fixme" v="consider natural=peak for the most distinct mountains in the district" />
		<tag k="name" v="Bulifjellet" />
=======
	<node id="-130185" lat="65.637283329" lon="12.6023138966">
		<tag k="name" v="Gråfjellet" />
>>>>>>> e1d4bc35ff8a6074a6f2e91616a996b547c36f15
		<tag k="natural" v="hill" />
		<tag k="place" v="locality" />
		<tag k="ssr:stedsnr" v="319097" />
	</node>
<<<<<<< HEAD
	<node lat="65.74222500264496" lon="12.575944436502944" id="-6730">
		<tag k="name" v="Høglia" />
=======
	<node id="-130184" lat="65.6398277818" lon="12.6013861203">
		<tag k="name" v="Innerlia" />
>>>>>>> e1d4bc35ff8a6074a6f2e91616a996b547c36f15
		<tag k="natural" v="slope" />
		<tag k="place" v="locality" />
		<tag k="ssr:stedsnr" v="471386" />
	</node>
<<<<<<< HEAD
	<node lat="65.73652221979806" lon="12.57802776848239" id="-6732">
		<tag k="name" v="Strandheveln" />
		<tag k="natural" v="ridge" />
=======
	<node id="-130183" lat="65.6529249962" lon="12.6315166585">
		<tag k="name" v="Kveldhagen" />
		<tag k="natural" v="slope" />
>>>>>>> e1d4bc35ff8a6074a6f2e91616a996b547c36f15
		<tag k="place" v="locality" />
		<tag k="ssr:stedsnr" v="471499" />
	</node>
<<<<<<< HEAD
	<node lat="65.6719166688286" lon="12.32204444690163" id="-6740">
		<tag k="name" v="Grønnhågjen" />
		<tag k="natural" v="hill" />
=======
	<node id="-130182" lat="65.6535611096" lon="12.6384777883">
		<tag k="name" v="Osbergan" />
		<tag k="natural" v="slope" />
>>>>>>> e1d4bc35ff8a6074a6f2e91616a996b547c36f15
		<tag k="place" v="locality" />
		<tag k="ssr:stedsnr" v="471690" />
	</node>
<<<<<<< HEAD
	<node lat="65.74780000279192" lon="12.577069452006823" id="-6745">
		<tag k="fixme" v="consider natural=peak for the most distinct mountains in the district" />
		<tag k="name" v="Slotteråsen" />
		<tag k="natural" v="hill" />
=======
	<node id="-130180" lat="65.6546999961" lon="12.3079277795">
		<tag k="name" v="Singerholet" />
		<tag k="natural" v="valley" />
>>>>>>> e1d4bc35ff8a6074a6f2e91616a996b547c36f15
		<tag k="place" v="locality" />
		<tag k="ssr:stedsnr" v="349453" />
	</node>
<<<<<<< HEAD
	<node lat="65.59693333257864" lon="12.376702784178985" id="-6746">
		<tag k="name" v="Forskogen" />
=======
	<node id="-130178" lat="65.6721972238" lon="12.3289944351">
		<tag k="name" v="Nordlia" />
>>>>>>> e1d4bc35ff8a6074a6f2e91616a996b547c36f15
		<tag k="natural" v="slope" />
		<tag k="place" v="locality" />
		<tag k="ssr:stedsnr" v="350805" />
	</node>
<<<<<<< HEAD
	<node lat="65.64321110854013" lon="12.637972220042606" id="-6752">
		<tag k="alt_name" v="Grovene" />
		<tag k="name" v="Groven" />
=======
	<node id="-130176" lat="65.6766138902" lon="12.3353888859">
		<tag k="name" v="Trollholet" />
>>>>>>> e1d4bc35ff8a6074a6f2e91616a996b547c36f15
		<tag k="natural" v="valley" />
		<tag k="place" v="locality" />
		<tag k="ssr:stedsnr" v="379131" />
	</node>
<<<<<<< HEAD
	<node lat="65.71597777350405" lon="12.672311105281313" id="-6761">
		<tag k="fixme" v="consider natural=peak for the most distinct mountains in the district" />
		<tag k="name" v="Beritlifjellet" />
=======
	<node id="-130171" lat="65.7032111113" lon="12.4140166747">
		<tag k="name" v="Alberthågjen" />
>>>>>>> e1d4bc35ff8a6074a6f2e91616a996b547c36f15
		<tag k="natural" v="hill" />
		<tag k="place" v="locality" />
		<tag k="ssr:stedsnr" v="379249" />
	</node>
<<<<<<< HEAD
	<node lat="65.62589444090547" lon="12.47030832514826" id="-6764">
		<tag k="fixme" v="consider natural=peak for the most distinct mountains in the district" />
		<tag k="name" v="Svanvasstinden" />
=======
	<node id="-130167" lat="65.7187361155" lon="12.4446416712">
		<tag k="name" v="Hulderhågjen" />
>>>>>>> e1d4bc35ff8a6074a6f2e91616a996b547c36f15
		<tag k="natural" v="hill" />
		<tag k="place" v="locality" />
		<tag k="ssr:stedsnr" v="379917" />
	</node>
<<<<<<< HEAD
	<node lat="65.7674750036427" lon="12.586838898141266" id="-6770">
		<tag k="name" v="Flæshågjen" />
		<tag k="natural" v="ridge" />
		<tag k="place" v="locality" />
		<tag k="ssr:stedsnr" v="410340" />
	</node>
	<node lat="65.73410833784682" lon="12.582316666692119" id="-6773">
		<tag k="name" v="Syvikhågen" />
=======
	<node id="-130165" lat="65.7316750003" lon="12.493513894">
		<tag k="name" v="Sletthyllo" />
		<tag k="place" v="locality" />
		<tag k="ssr:stedsnr" v="592455" />
	</node>
	<node id="-130163" lat="65.7651694441" lon="12.5762888784">
		<tag k="name" v="Hammaren" />
		<tag k="natural" v="cliff" />
		<tag k="ssr:stedsnr" v="592340" />
	</node>
	<node id="-130160" lat="65.5575083339" lon="12.4205166695">
		<tag k="fixme" v="consider natural=peak for the most distinct mountains in the district" />
		<tag k="name" v="Andalshatten" />
>>>>>>> e1d4bc35ff8a6074a6f2e91616a996b547c36f15
		<tag k="natural" v="hill" />
		<tag k="place" v="locality" />
		<tag k="ssr:stedsnr" v="410501" />
	</node>
<<<<<<< HEAD
	<node lat="65.69468888890556" lon="12.547375008668283" id="-6778">
		<tag k="name" v="Snøfjelldalen" />
=======
	<node id="-130159" lat="65.5624055594" lon="12.7070333271">
		<tag k="name" v="Sprutdalen" />
>>>>>>> e1d4bc35ff8a6074a6f2e91616a996b547c36f15
		<tag k="natural" v="valley" />
		<tag k="place" v="locality" />
		<tag k="ssr:stedsnr" v="440025" />
	</node>
	<node lat="65.67998055745494" lon="12.5527416767243" id="-6780">
		<tag k="alt_name" v="Jakopdalen" />
		<tag k="name" v="Jakobdalen" />
		<tag k="natural" v="valley" />
		<tag k="place" v="locality" />
		<tag k="ssr:stedsnr" v="440044" />
	</node>
<<<<<<< HEAD
	<node lat="65.67033332873228" lon="12.334008343375036" id="-6783">
=======
	<node id="-130152" lat="65.5812583343" lon="12.7315972304">
>>>>>>> e1d4bc35ff8a6074a6f2e91616a996b547c36f15
		<tag k="fixme" v="consider natural=peak for the most distinct mountains in the district" />
		<tag k="name" v="Preikstolen" />
		<tag k="natural" v="hill" />
		<tag k="place" v="locality" />
		<tag k="ssr:stedsnr" v="440112" />
	</node>
<<<<<<< HEAD
	<node lat="65.66922500390095" lon="12.56226943518298" id="-6787">
		<tag k="name" v="Krokhyllan" />
		<tag k="natural" v="slope" />
=======
	<node id="-130148" lat="65.7284055543" lon="12.5073249919">
		<tag k="name" v="Vistneshatten" />
		<tag k="natural" v="hill" />
>>>>>>> e1d4bc35ff8a6074a6f2e91616a996b547c36f15
		<tag k="place" v="locality" />
		<tag k="ssr:stedsnr" v="440098" />
	</node>
<<<<<<< HEAD
	<node lat="65.6716083298347" lon="12.585033336836812" id="-6788">
=======
	<node id="-130146" lat="65.692202777" lon="12.5962777742">
>>>>>>> e1d4bc35ff8a6074a6f2e91616a996b547c36f15
		<tag k="fixme" v="consider natural=peak for the most distinct mountains in the district" />
		<tag k="name" v="Langkiltinden" />
		<tag k="natural" v="hill" />
		<tag k="place" v="locality" />
<<<<<<< HEAD
		<tag k="ssr:stedsnr" v="440099" />
	</node>
	<node lat="65.68667499920855" lon="12.428194454350292" id="-6796">
		<tag k="name" v="Osphågjen" />
=======
		<tag k="ssr:stedsnr" v="561045" />
	</node>
	<node id="-130140" lat="65.6835666712" lon="12.4444333325">
		<tag k="name" v="Snyholo" />
		<tag k="natural" v="valley" />
		<tag k="place" v="locality" />
		<tag k="ssr:stedsnr" v="532722" />
	</node>
	<node id="-130139" lat="65.6681166656" lon="12.3272222218">
		<tag k="name" v="Lissfjellet" />
>>>>>>> e1d4bc35ff8a6074a6f2e91616a996b547c36f15
		<tag k="natural" v="hill" />
		<tag k="place" v="locality" />
		<tag k="ssr:stedsnr" v="471671" />
	</node>
<<<<<<< HEAD
	<node lat="65.68605555753864" lon="12.447166666472917" id="-6797">
		<tag k="name" v="Småholan" />
=======
	<node id="-130137" lat="65.6893499962" lon="12.3668777834">
		<tag k="name" v="Stien" />
>>>>>>> e1d4bc35ff8a6074a6f2e91616a996b547c36f15
		<tag k="natural" v="slope" />
		<tag k="place" v="locality" />
		<tag k="ssr:stedsnr" v="471675" />
	</node>
<<<<<<< HEAD
	<node lat="65.72578888539054" lon="12.784227777766366" id="-6803">
		<tag k="fixme" v="consider natural=peak for the most distinct mountains in the district" />
		<tag k="name" v="Finnknefjellan" />
		<tag k="natural" v="hill" />
=======
	<node id="-130134" lat="65.6842055596" lon="12.4307722328">
		<tag k="name" v="Stormoen" />
>>>>>>> e1d4bc35ff8a6074a6f2e91616a996b547c36f15
		<tag k="place" v="locality" />
		<tag k="ssr:stedsnr" v="500812" />
	</node>
<<<<<<< HEAD
	<node lat="65.6363499986095" lon="12.721075003947016" id="-6805">
		<tag k="name" v="Grovan" />
		<tag k="natural" v="slope" />
=======
	<node id="-130130" lat="65.75033889" lon="12.5480638985">
		<tag k="name" v="Heian" />
		<tag k="natural" v="hill" />
>>>>>>> e1d4bc35ff8a6074a6f2e91616a996b547c36f15
		<tag k="place" v="locality" />
		<tag k="ssr:stedsnr" v="500878" />
	</node>
<<<<<<< HEAD
	<node lat="65.60262500325173" lon="12.406488885256271" id="-6815">
		<tag k="name" v="Fagerlia" />
		<tag k="natural" v="slope" />
=======
	<node id="-130128" lat="65.7410027802" lon="12.5793333439">
		<tag k="name" v="Visthusskardet" />
		<tag k="natural" v="valley" />
>>>>>>> e1d4bc35ff8a6074a6f2e91616a996b547c36f15
		<tag k="place" v="locality" />
		<tag k="ssr:stedsnr" v="501926" />
	</node>
<<<<<<< HEAD
	<node lat="65.67277778008759" lon="12.339727769881883" id="-6828">
		<tag k="fixme" v="consider natural=peak for the most distinct mountains in the district" />
		<tag k="name" v="Hamnfjellet" />
		<tag k="natural" v="hill" />
=======
	<node id="-130127" lat="65.7416861121" lon="12.5690694528">
		<tag k="name" v="Aspdalen" />
		<tag k="natural" v="valley" />
>>>>>>> e1d4bc35ff8a6074a6f2e91616a996b547c36f15
		<tag k="place" v="locality" />
		<tag k="ssr:stedsnr" v="683043" />
	</node>
<<<<<<< HEAD
	<node lat="65.58677222235949" lon="12.756925005007858" id="-6831">
		<tag k="fixme" v="consider natural=peak for the most distinct mountains in the district" />
		<tag k="name" v="Rubben" />
		<tag k="natural" v="hill" />
=======
	<node id="-130123" lat="65.6677916639" lon="12.4088555652">
		<tag k="name" v="Kvithøvlan" />
		<tag k="natural" v="slope" />
>>>>>>> e1d4bc35ff8a6074a6f2e91616a996b547c36f15
		<tag k="place" v="locality" />
		<tag k="ssr:stedsnr" v="683645" />
	</node>
<<<<<<< HEAD
	<node lat="65.70235555722681" lon="12.577561110486554" id="-6832">
		<tag k="name" v="Grønlia" />
		<tag k="natural" v="slope" />
=======
	<node id="-130122" lat="65.6757500036" lon="12.3319805556">
		<tag k="name" v="Krokrabben" />
		<tag k="natural" v="ridge" />
>>>>>>> e1d4bc35ff8a6074a6f2e91616a996b547c36f15
		<tag k="place" v="locality" />
		<tag k="ssr:stedsnr" v="683763" />
	</node>
<<<<<<< HEAD
	<node lat="65.69009444104957" lon="12.401280561403595" id="-6841">
		<tag k="name" v="Halsen" />
		<tag k="natural" v="valley" />
=======
	<node id="-130121" lat="65.6779083316" lon="12.3328861079">
		<tag k="name" v="Kvitrabben" />
		<tag k="natural" v="ridge" />
>>>>>>> e1d4bc35ff8a6074a6f2e91616a996b547c36f15
		<tag k="place" v="locality" />
		<tag k="ssr:stedsnr" v="531616" />
	</node>
<<<<<<< HEAD
	<node lat="65.75033888997507" lon="12.548063898517727" id="-6842">
		<tag k="name" v="Heian" />
=======
	<node id="-130118" lat="65.6341777748" lon="12.3600305551">
		<tag k="name" v="Fløystonghågjen" />
>>>>>>> e1d4bc35ff8a6074a6f2e91616a996b547c36f15
		<tag k="natural" v="hill" />
		<tag k="place" v="locality" />
		<tag k="ssr:stedsnr" v="532379" />
	</node>
<<<<<<< HEAD
	<node lat="65.68934999616579" lon="12.366877783425865" id="-6843">
		<tag k="name" v="Stien" />
		<tag k="natural" v="slope" />
		<tag k="place" v="locality" />
		<tag k="ssr:stedsnr" v="532519" />
	</node>
	<node lat="65.68356667118233" lon="12.444433332454118" id="-6846">
		<tag k="name" v="Snyholo" />
=======
	<node id="-130115" lat="65.6537444481" lon="12.6207416651">
		<tag k="name" v="Dalan" />
>>>>>>> e1d4bc35ff8a6074a6f2e91616a996b547c36f15
		<tag k="natural" v="valley" />
		<tag k="place" v="locality" />
		<tag k="ssr:stedsnr" v="532722" />
	</node>
<<<<<<< HEAD
	<node lat="65.66811666561249" lon="12.327222221790183" id="-6849">
		<tag k="name" v="Lissfjellet" />
=======
	<node id="-130112" lat="65.7341083378" lon="12.5823166667">
		<tag k="name" v="Syvikhågen" />
>>>>>>> e1d4bc35ff8a6074a6f2e91616a996b547c36f15
		<tag k="natural" v="hill" />
		<tag k="place" v="locality" />
		<tag k="ssr:stedsnr" v="532676" />
	</node>
<<<<<<< HEAD
	<node lat="65.61823611468431" lon="12.375294441875957" id="-6850">
		<tag k="name" v="Ola Amundsenlia" />
		<tag k="natural" v="slope" />
=======
	<node id="-130111" lat="65.7526694489" lon="12.5459499907">
		<tag k="fixme" v="consider natural=peak for the most distinct mountains in the district" />
		<tag k="name" v="Kalvhågjen" />
		<tag k="natural" v="hill" />
>>>>>>> e1d4bc35ff8a6074a6f2e91616a996b547c36f15
		<tag k="place" v="locality" />
		<tag k="ssr:stedsnr" v="532807" />
	</node>
<<<<<<< HEAD
	<node lat="65.73167500030799" lon="12.49351389395748" id="-6856">
		<tag k="name" v="Sletthyllo" />
		<tag k="place" v="locality" />
		<tag k="ssr:stedsnr" v="592455" />
	</node>
	<node lat="65.65356110961464" lon="12.638477788298323" id="-6861">
		<tag k="name" v="Osbergan" />
=======
	<node id="-130110" lat="65.748002782" lon="12.5825611041">
		<tag k="name" v="Stormobakkan" />
>>>>>>> e1d4bc35ff8a6074a6f2e91616a996b547c36f15
		<tag k="natural" v="slope" />
		<tag k="place" v="locality" />
		<tag k="ssr:stedsnr" v="592819" />
	</node>
<<<<<<< HEAD
	<node lat="65.65292499620485" lon="12.631516658508154" id="-6862">
		<tag k="name" v="Kveldhagen" />
		<tag k="natural" v="slope" />
=======
	<node id="-130108" lat="65.7674750036" lon="12.5868388981">
		<tag k="name" v="Flæshågjen" />
		<tag k="natural" v="ridge" />
>>>>>>> e1d4bc35ff8a6074a6f2e91616a996b547c36f15
		<tag k="place" v="locality" />
		<tag k="ssr:stedsnr" v="592821" />
	</node>
<<<<<<< HEAD
	<node lat="65.6091472220259" lon="12.37487222331373" id="-6865">
		<tag k="name" v="Forneslia" />
		<tag k="natural" v="slope" />
=======
	<node id="-130106" lat="65.7181527791" lon="12.608527777">
		<tag k="name" v="Bjønnvikhågjen" />
		<tag k="natural" v="hill" />
>>>>>>> e1d4bc35ff8a6074a6f2e91616a996b547c36f15
		<tag k="place" v="locality" />
		<tag k="ssr:stedsnr" v="592863" />
	</node>
<<<<<<< HEAD
	<node lat="65.5842138858436" lon="12.381730565275356" id="-6866">
		<tag k="name" v="Hyllo" />
		<tag k="place" v="locality" />
		<tag k="ssr:stedsnr" v="592871" />
	</node>
	<node lat="65.65571389284777" lon="12.71190832902746" id="-6869">
		<tag k="name" v="Bønnålia" />
		<tag k="natural" v="slope" />
		<tag k="place" v="locality" />
		<tag k="ssr:stedsnr" v="621080" />
	</node>
	<node lat="65.65659444302709" lon="12.629086111776054" id="-6870">
		<tag k="fixme" v="multiple name tags, choose one and add the other to alt_name" />
		<tag k="name" v="Hyllhaugen;Hylla" />
=======
	<node id="-130099" lat="65.6258944409" lon="12.4703083251">
		<tag k="fixme" v="consider natural=peak for the most distinct mountains in the district" />
		<tag k="name" v="Svanvasstinden" />
>>>>>>> e1d4bc35ff8a6074a6f2e91616a996b547c36f15
		<tag k="natural" v="hill" />
		<tag k="place" v="locality" />
		<tag k="ssr:stedsnr" v="621088" />
	</node>
<<<<<<< HEAD
	<node lat="65.7452916705483" lon="12.672724992303074" id="-6872">
		<tag k="name" v="Brennåskardet" />
=======
	<node id="-130096" lat="65.6575666665" lon="12.7405805594">
		<tag k="name" v="Ropardalen" />
>>>>>>> e1d4bc35ff8a6074a6f2e91616a996b547c36f15
		<tag k="natural" v="valley" />
		<tag k="place" v="locality" />
		<tag k="ssr:stedsnr" v="621214" />
	</node>
<<<<<<< HEAD
	<node lat="65.63280833107405" lon="12.424433330007682" id="-6875">
=======
	<node id="-130090" lat="65.5706055582" lon="13.0361416687">
>>>>>>> e1d4bc35ff8a6074a6f2e91616a996b547c36f15
		<tag k="fixme" v="consider natural=peak for the most distinct mountains in the district" />
		<tag k="name" v="Saltkartinden" />
		<tag k="natural" v="hill" />
		<tag k="place" v="locality" />
		<tag k="ssr:stedsnr" v="622114" />
	</node>
	<node lat="65.66230277873926" lon="12.350138881262076" id="-6876">
		<tag k="name" v="Finnkotdalen" />
		<tag k="natural" v="valley" />
		<tag k="place" v="locality" />
		<tag k="ssr:stedsnr" v="622103" />
	</node>
<<<<<<< HEAD
	<node lat="65.57081667088673" lon="12.391888882991493" id="-6878">
		<tag k="name" v="Otergreina" />
		<tag k="place" v="locality" />
		<tag k="ssr:stedsnr" v="622865" />
	</node>
	<node lat="65.60183333555489" lon="12.374849996102324" id="-6879">
		<tag k="name" v="Neverlia" />
		<tag k="natural" v="slope" />
		<tag k="place" v="locality" />
		<tag k="ssr:stedsnr" v="622912" />
	</node>
	<node lat="65.68899166756184" lon="12.430083332688634" id="-6882">
=======
	<node id="-130089" lat="65.7159777735" lon="12.6723111053">
>>>>>>> e1d4bc35ff8a6074a6f2e91616a996b547c36f15
		<tag k="fixme" v="consider natural=peak for the most distinct mountains in the district" />
		<tag k="name" v="Dyråsen" />
		<tag k="natural" v="hill" />
		<tag k="place" v="locality" />
		<tag k="ssr:stedsnr" v="653639" />
	</node>
<<<<<<< HEAD
	<node lat="65.70192499861209" lon="12.404758334840166" id="-6883">
		<tag k="fixme" v="consider natural=peak for the most distinct mountains in the district" />
		<tag k="name" v="Nordhammaren" />
		<tag k="natural" v="hill" />
=======
	<node id="-130082" lat="65.6432111085" lon="12.63797222">
		<tag k="alt_name" v="Grovene" />
		<tag k="name" v="Groven" />
		<tag k="natural" v="valley" />
>>>>>>> e1d4bc35ff8a6074a6f2e91616a996b547c36f15
		<tag k="place" v="locality" />
		<tag k="ssr:stedsnr" v="653536" />
	</node>
<<<<<<< HEAD
	<node lat="65.67911666988869" lon="12.413352775155456" id="-6885">
		<tag k="name" v="Møllohågjen" />
=======
	<node id="-130070" lat="65.6737444485" lon="12.3236333368">
		<tag k="alt_name" v="Svarthaugen" />
		<tag k="name" v="Svarthågjen" />
>>>>>>> e1d4bc35ff8a6074a6f2e91616a996b547c36f15
		<tag k="natural" v="hill" />
		<tag k="place" v="locality" />
		<tag k="ssr:stedsnr" v="653719" />
	</node>
<<<<<<< HEAD
	<node lat="65.73161388497415" lon="12.496805552135196" id="-6888">
		<tag k="name" v="Middagshaugen" />
=======
	<node id="-130069" lat="65.6700972267" lon="12.5387111112">
		<tag k="alt_name" v="Lislfjellet" />
		<tag k="fixme" v="consider natural=peak for the most distinct mountains in the district" />
		<tag k="name" v="Lissfjellet" />
>>>>>>> e1d4bc35ff8a6074a6f2e91616a996b547c36f15
		<tag k="natural" v="hill" />
		<tag k="place" v="locality" />
		<tag k="ssr:stedsnr" v="682243" />
	</node>
<<<<<<< HEAD
	<node lat="65.69868055191958" lon="12.514302777585094" id="-6889">
		<tag k="fixme" v="multiple name tags, choose one and add the other to alt_name; consider natural=peak for the most distinct mountains in the district" />
		<tag k="name" v="Snøfjellet;Forvikfjellet" />
		<tag k="natural" v="hill" />
=======
	<node id="-130061" lat="65.6440472189" lon="12.6341944476">
		<tag k="name" v="Brennskardet" />
		<tag k="natural" v="valley" />
>>>>>>> e1d4bc35ff8a6074a6f2e91616a996b547c36f15
		<tag k="place" v="locality" />
		<tag k="ssr:stedsnr" v="683010" />
	</node>
<<<<<<< HEAD
	<node lat="65.73490277408666" lon="12.509988881051521" id="-6894">
		<tag k="name" v="Steinåsen" />
=======
	<node id="-130060" lat="65.6709666703" lon="12.425588898">
		<tag k="name" v="Smalheia" />
>>>>>>> e1d4bc35ff8a6074a6f2e91616a996b547c36f15
		<tag k="natural" v="ridge" />
		<tag k="place" v="locality" />
		<tag k="ssr:stedsnr" v="896445" />
	</node>
<<<<<<< HEAD
	<node lat="65.70283610809194" lon="12.411000006423807" id="-6895">
		<tag k="name" v="Hesthågjen" />
=======
	<node id="-130058" lat="65.6723138846" lon="12.4257444389">
		<tag k="name" v="Svartflogheia" />
>>>>>>> e1d4bc35ff8a6074a6f2e91616a996b547c36f15
		<tag k="natural" v="hill" />
		<tag k="place" v="locality" />
		<tag k="ssr:stedsnr" v="896599" />
	</node>
<<<<<<< HEAD
	<node lat="65.65114722381743" lon="12.392430556189954" id="-6897">
		<tag k="name" v="Bandskogrevo" />
		<tag k="natural" v="valley" />
=======
	<node id="-130056" lat="65.6774388895" lon="12.333969445">
		<tag k="name" v="Trollrabben" />
		<tag k="natural" v="ridge" />
>>>>>>> e1d4bc35ff8a6074a6f2e91616a996b547c36f15
		<tag k="place" v="locality" />
		<tag k="ssr:stedsnr" v="896796" />
	</node>
<<<<<<< HEAD
	<node lat="65.76469722166483" lon="12.578897226805205" id="-6900">
		<tag k="name" v="Bakkan" />
=======
	<node id="-130054" lat="65.7241499977" lon="12.5102638963">
		<tag k="name" v="Kvannlia" />
>>>>>>> e1d4bc35ff8a6074a6f2e91616a996b547c36f15
		<tag k="natural" v="slope" />
		<tag k="place" v="locality" />
		<tag k="ssr:stedsnr" v="713328" />
	</node>
<<<<<<< HEAD
	<node lat="65.72515555835574" lon="12.60578888445537" id="-6904">
		<tag k="name" v="Grandalen" />
		<tag k="natural" v="valley" />
=======
	<node id="-130053" lat="65.7122888882" lon="12.4225749971">
		<tag k="fixme" v="consider natural=peak for the most distinct mountains in the district" />
		<tag k="name" v="Nordvikhågjen" />
		<tag k="natural" v="hill" />
>>>>>>> e1d4bc35ff8a6074a6f2e91616a996b547c36f15
		<tag k="place" v="locality" />
		<tag k="ssr:stedsnr" v="714508" />
	</node>
<<<<<<< HEAD
	<node lat="65.74462499686571" lon="12.560291657891158" id="-6906">
		<tag k="name" v="Hestdalen" />
=======
	<node id="-130051" lat="65.7637305559" lon="12.5732472264">
		<tag k="name" v="Svartholet" />
>>>>>>> e1d4bc35ff8a6074a6f2e91616a996b547c36f15
		<tag k="natural" v="valley" />
		<tag k="place" v="locality" />
		<tag k="ssr:stedsnr" v="714425" />
	</node>
<<<<<<< HEAD
	<node lat="65.69353611074132" lon="12.440369442773923" id="-6909">
		<tag k="name" v="Forahågjen" />
		<tag k="natural" v="hill" />
=======
	<node id="-130050" lat="65.758783334" lon="12.5656250047">
		<tag k="name" v="Leveråsen" />
		<tag k="natural" v="ridge" />
>>>>>>> e1d4bc35ff8a6074a6f2e91616a996b547c36f15
		<tag k="place" v="locality" />
		<tag k="ssr:stedsnr" v="714587" />
	</node>
<<<<<<< HEAD
	<node lat="65.59199166928312" lon="12.409600001592349" id="-6911">
		<tag k="name" v="Vegglia" />
		<tag k="natural" v="slope" />
=======
	<node id="-130049" lat="65.7478000028" lon="12.577069452">
		<tag k="fixme" v="consider natural=peak for the most distinct mountains in the district" />
		<tag k="name" v="Slotteråsen" />
		<tag k="natural" v="hill" />
>>>>>>> e1d4bc35ff8a6074a6f2e91616a996b547c36f15
		<tag k="place" v="locality" />
		<tag k="ssr:stedsnr" v="714828" />
	</node>
<<<<<<< HEAD
	<node lat="65.70133611175834" lon="12.468524992359754" id="-6912">
		<tag k="name" v="Hanslia" />
		<tag k="natural" v="slope" />
		<tag k="place" v="locality" />
		<tag k="ssr:stedsnr" v="743005" />
	</node>
	<node lat="65.64560833725746" lon="12.607505559976163" id="-6917">
=======
	<node id="-130048" lat="65.7468555592" lon="12.5618500107">
>>>>>>> e1d4bc35ff8a6074a6f2e91616a996b547c36f15
		<tag k="fixme" v="consider natural=peak for the most distinct mountains in the district" />
		<tag k="name" v="Hestviktinden" />
		<tag k="natural" v="hill" />
		<tag k="place" v="locality" />
		<tag k="ssr:stedsnr" v="743138" />
	</node>
<<<<<<< HEAD
	<node lat="65.6687416704428" lon="12.339424993033047" id="-6919">
=======
	<node id="-130047" lat="65.5926333346" lon="12.3950388785">
>>>>>>> e1d4bc35ff8a6074a6f2e91616a996b547c36f15
		<tag k="fixme" v="consider natural=peak for the most distinct mountains in the district" />
		<tag k="name" v="Hamnfjellet" />
		<tag k="natural" v="hill" />
		<tag k="place" v="locality" />
		<tag k="ssr:stedsnr" v="743097" />
	</node>
<<<<<<< HEAD
	<node lat="65.71913055800817" lon="12.603666666431025" id="-6920">
		<tag k="name" v="Hamntindberget" />
=======
	<node id="-130044" lat="65.5751500005" lon="12.739577782">
		<tag k="name" v="Raudmolia" />
>>>>>>> e1d4bc35ff8a6074a6f2e91616a996b547c36f15
		<tag k="natural" v="slope" />
		<tag k="place" v="locality" />
		<tag k="ssr:stedsnr" v="743281" />
	</node>
<<<<<<< HEAD
	<node lat="65.71816388853125" lon="12.6183749931588" id="-6923">
=======
	<node id="-130043" lat="65.529413885" lon="12.7993333342">
>>>>>>> e1d4bc35ff8a6074a6f2e91616a996b547c36f15
		<tag k="fixme" v="consider natural=peak for the most distinct mountains in the district" />
		<tag k="name" v="Bufjellet" />
		<tag k="natural" v="hill" />
		<tag k="place" v="locality" />
		<tag k="ssr:stedsnr" v="743791" />
	</node>
<<<<<<< HEAD
	<node lat="65.62313055864483" lon="12.704724989804635" id="-6924">
		<tag k="name" v="Strumpdalen" />
		<tag k="natural" v="valley" />
=======
	<node id="-130042" lat="65.5392888863" lon="13.036316669">
		<tag k="fixme" v="consider natural=peak for the most distinct mountains in the district" />
		<tag k="name" v="Litlskardtinden - Dårretjensnjurhtjie" />
		<tag k="name:no" v="Litlskardtinden" />
		<tag k="name:sma" v="Dårretjensnjurhtjie" />
		<tag k="natural" v="hill" />
>>>>>>> e1d4bc35ff8a6074a6f2e91616a996b547c36f15
		<tag k="place" v="locality" />
		<tag k="ssr:stedsnr" v="743905" />
	</node>
<<<<<<< HEAD
	<node lat="65.60543333567107" lon="12.373388886400486" id="-6930">
=======
	<node id="-130041" lat="65.7293194442" lon="12.641199997">
>>>>>>> e1d4bc35ff8a6074a6f2e91616a996b547c36f15
		<tag k="fixme" v="consider natural=peak for the most distinct mountains in the district" />
		<tag k="name" v="Ørnbergan" />
		<tag k="natural" v="hill" />
		<tag k="place" v="locality" />
		<tag k="ssr:stedsnr" v="775806" />
	</node>
<<<<<<< HEAD
	<node lat="65.67528332999244" lon="12.42961110536447" id="-6932">
		<tag k="name" v="Jakobrenno" />
=======
	<node id="-130040" lat="65.7204333325" lon="12.6412555529">
		<tag k="name" v="Efievegen" />
		<tag k="natural" v="valley" />
>>>>>>> e1d4bc35ff8a6074a6f2e91616a996b547c36f15
		<tag k="place" v="locality" />
		<tag k="ssr:stedsnr" v="775708" />
	</node>
<<<<<<< HEAD
	<node lat="65.66178332923363" lon="12.306741662157405" id="-6936">
		<tag k="fixme" v="consider natural=peak for the most distinct mountains in the district" />
		<tag k="name" v="Blesåsen" />
		<tag k="natural" v="hill" />
=======
	<node id="-130035" lat="65.6564083298" lon="12.8185444526">
		<tag k="alt_name" v="Austerfjorddalen, nordre" />
		<tag k="name" v="Nordre Austerfjorddalen" />
		<tag k="natural" v="valley" />
>>>>>>> e1d4bc35ff8a6074a6f2e91616a996b547c36f15
		<tag k="place" v="locality" />
		<tag k="ssr:stedsnr" v="804106" />
	</node>
<<<<<<< HEAD
	<node lat="65.7501666679267" lon="12.628258333693921" id="-6937">
=======
	<node id="-130034" lat="65.6445861071" lon="12.9827694507">
>>>>>>> e1d4bc35ff8a6074a6f2e91616a996b547c36f15
		<tag k="fixme" v="consider natural=peak for the most distinct mountains in the district" />
		<tag k="name" v="Stokkahatten" />
		<tag k="natural" v="hill" />
		<tag k="place" v="locality" />
		<tag k="ssr:stedsnr" v="804120" />
	</node>
<<<<<<< HEAD
	<node lat="65.70707500069136" lon="12.410302782121828" id="-6938">
=======
	<node id="-130033" lat="65.6170500006" lon="12.7948055498">
>>>>>>> e1d4bc35ff8a6074a6f2e91616a996b547c36f15
		<tag k="fixme" v="consider natural=peak for the most distinct mountains in the district" />
		<tag k="name" v="Vågsfjellet" />
		<tag k="natural" v="hill" />
		<tag k="place" v="locality" />
		<tag k="ssr:stedsnr" v="804007" />
	</node>
<<<<<<< HEAD
	<node lat="65.69126388696412" lon="12.471466656233194" id="-6941">
		<tag k="name" v="Kvannlia" />
		<tag k="natural" v="slope" />
=======
	<node id="-130030" lat="65.6200166632" lon="12.9807611089">
		<tag k="name" v="Sæterskardet - Seateredurrie" />
		<tag k="name:no" v="Sæterskardet" />
		<tag k="name:sma" v="Seateredurrie" />
		<tag k="natural" v="valley" />
		<tag k="place" v="locality" />
		<tag k="ssr:stedsnr" v="318838" />
	</node>
	<node id="-130029" lat="65.6569583309" lon="12.3212305569">
		<tag k="fixme" v="consider natural=peak for the most distinct mountains in the district" />
		<tag k="name" v="Bulifjellet" />
		<tag k="natural" v="hill" />
		<tag k="place" v="locality" />
		<tag k="ssr:stedsnr" v="319097" />
	</node>
	<node id="-130020" lat="65.6894166662" lon="12.4522027669">
		<tag k="name" v="Rauddalen" />
		<tag k="natural" v="valley" />
>>>>>>> e1d4bc35ff8a6074a6f2e91616a996b547c36f15
		<tag k="place" v="locality" />
		<tag k="ssr:stedsnr" v="804029" />
	</node>
<<<<<<< HEAD
	<node lat="65.66313611359072" lon="12.79900833527927" id="-6952">
		<tag k="fixme" v="consider natural=peak for the most distinct mountains in the district" />
		<tag k="name" v="Krongelvassfjellet" />
=======
	<node id="-130018" lat="65.7076111091" lon="12.4239222231">
		<tag k="fixme" v="multiple name tags, choose one and add the other to alt_name; consider natural=peak for the most distinct mountains in the district" />
		<tag k="name" v="Langberget;Langberghågjen" />
>>>>>>> e1d4bc35ff8a6074a6f2e91616a996b547c36f15
		<tag k="natural" v="hill" />
		<tag k="place" v="locality" />
		<tag k="ssr:stedsnr" v="804862" />
	</node>
<<<<<<< HEAD
	<node lat="65.69175833370952" lon="12.752086118948052" id="-6953">
=======
	<node id="-130015" lat="65.7044388889" lon="12.5576555519">
>>>>>>> e1d4bc35ff8a6074a6f2e91616a996b547c36f15
		<tag k="fixme" v="consider natural=peak for the most distinct mountains in the district" />
		<tag k="loc_name" v="Tverrlandsfjellet" />
		<tag k="name" v="Tverlandsfjellet" />
		<tag k="natural" v="hill" />
		<tag k="place" v="locality" />
		<tag k="ssr:stedsnr" v="804762" />
	</node>
<<<<<<< HEAD
	<node lat="65.66521666831028" lon="12.439624995989766" id="-6954">
		<tag k="name" v="Botnan" />
=======
	<node id="-130014" lat="65.7053416623" lon="12.6879250084">
		<tag k="name" v="Almosskardet" />
>>>>>>> e1d4bc35ff8a6074a6f2e91616a996b547c36f15
		<tag k="natural" v="valley" />
		<tag k="place" v="locality" />
		<tag k="ssr:stedsnr" v="805056" />
	</node>
<<<<<<< HEAD
	<node lat="65.66755832925203" lon="12.509774995267765" id="-6955">
		<tag k="name" v="Trolldalen" />
		<tag k="natural" v="valley" />
=======
	<node id="-130002" lat="65.6037555542" lon="12.8543138786">
		<tag k="fixme" v="consider natural=peak for the most distinct mountains in the district" />
		<tag k="name" v="Langåsen" />
		<tag k="natural" v="hill" />
>>>>>>> e1d4bc35ff8a6074a6f2e91616a996b547c36f15
		<tag k="place" v="locality" />
		<tag k="ssr:stedsnr" v="805057" />
	</node>
<<<<<<< HEAD
	<node lat="65.67268611203093" lon="12.540919436715818" id="-6956">
=======
	<node id="-129999" lat="65.6493416682" lon="12.6186472253">
		<tag k="alt_name" v="Geitstigheia" />
>>>>>>> e1d4bc35ff8a6074a6f2e91616a996b547c36f15
		<tag k="fixme" v="consider natural=peak for the most distinct mountains in the district" />
		<tag k="name" v="Kilmarkfjellet" />
		<tag k="natural" v="hill" />
		<tag k="place" v="locality" />
		<tag k="ssr:stedsnr" v="805058" />
	</node>
<<<<<<< HEAD
	<node lat="65.69960555946484" lon="12.44491110168094" id="-6958">
		<tag k="name" v="Stallbakkan" />
		<tag k="natural" v="ridge" />
=======
	<node id="-129996" lat="65.6865305568" lon="12.6154749905">
		<tag k="fixme" v="consider natural=peak for the most distinct mountains in the district" />
		<tag k="name" v="Telavikfjellet" />
		<tag k="natural" v="hill" />
>>>>>>> e1d4bc35ff8a6074a6f2e91616a996b547c36f15
		<tag k="place" v="locality" />
		<tag k="ssr:stedsnr" v="835618" />
	</node>
<<<<<<< HEAD
	<node lat="65.69069166808632" lon="12.393861107432885" id="-6959">
		<tag k="name" v="Rismålshågjen" />
=======
	<node id="-129990" lat="65.6623972253" lon="12.3155055641">
		<tag k="name" v="Storheia" />
>>>>>>> e1d4bc35ff8a6074a6f2e91616a996b547c36f15
		<tag k="natural" v="hill" />
		<tag k="place" v="locality" />
		<tag k="ssr:stedsnr" v="835631" />
	</node>
<<<<<<< HEAD
	<node lat="65.69015833392264" lon="12.408155546352674" id="-6963">
		<tag k="name" v="Skardet" />
		<tag k="natural" v="valley" />
=======
	<node id="-129987" lat="65.6261305587" lon="12.3693916688">
		<tag k="name" v="Hågkleivan" />
		<tag k="natural" v="slope" />
>>>>>>> e1d4bc35ff8a6074a6f2e91616a996b547c36f15
		<tag k="place" v="locality" />
		<tag k="ssr:stedsnr" v="835602" />
	</node>
<<<<<<< HEAD
	<node lat="65.64951944744026" lon="12.631919453436181" id="-6964">
		<tag k="name" v="Mulberget" />
=======
	<node id="-129986" lat="65.6298666675" lon="12.3781055588">
		<tag k="name" v="Aksla" />
>>>>>>> e1d4bc35ff8a6074a6f2e91616a996b547c36f15
		<tag k="natural" v="ridge" />
		<tag k="place" v="locality" />
		<tag k="ssr:stedsnr" v="835793" />
	</node>
<<<<<<< HEAD
	<node lat="65.65677221957795" lon="12.31085556185173" id="-6965">
		<tag k="name" v="Bulifjellet" />
		<tag k="natural" v="cliff" />
		<tag k="ssr:stedsnr" v="836732" />
	</node>
	<node lat="65.60379999582622" lon="12.371600008351951" id="-6966">
		<tag k="name" v="Mølnhusdalen" />
		<tag k="natural" v="valley" />
=======
	<node id="-129984" lat="65.6480305544" lon="12.3884888859">
		<tag k="name" v="Kvitfjellet" />
		<tag k="natural" v="slope" />
>>>>>>> e1d4bc35ff8a6074a6f2e91616a996b547c36f15
		<tag k="place" v="locality" />
		<tag k="ssr:stedsnr" v="836813" />
	</node>
<<<<<<< HEAD
	<node lat="65.56567499668223" lon="12.45759443927821" id="-6974">
		<tag k="fixme" v="consider natural=peak for the most distinct mountains in the district" />
		<tag k="name" v="Forneshatten" />
=======
	<node id="-129983" lat="65.6774083318" lon="12.410447232">
		<tag k="name" v="Sørhågjen" />
>>>>>>> e1d4bc35ff8a6074a6f2e91616a996b547c36f15
		<tag k="natural" v="hill" />
		<tag k="place" v="locality" />
		<tag k="ssr:stedsnr" v="925919" />
	</node>
<<<<<<< HEAD
	<node lat="65.69438333040748" lon="12.569658335285945" id="-6977">
		<tag k="name" v="Hesthola" />
		<tag k="natural" v="valley" />
		<tag k="place" v="locality" />
		<tag k="ssr:stedsnr" v="926019" />
	</node>
	<node lat="65.57774166708172" lon="12.794736109042429" id="-6985">
		<tag k="fixme" v="consider natural=peak for the most distinct mountains in the district" />
		<tag k="name" v="Kalvdalsfjellet" />
=======
	<node id="-129982" lat="65.6797138843" lon="12.4108750101">
		<tag k="name" v="Nordhågjen" />
>>>>>>> e1d4bc35ff8a6074a6f2e91616a996b547c36f15
		<tag k="natural" v="hill" />
		<tag k="place" v="locality" />
		<tag k="ssr:stedsnr" v="926656" />
	</node>
<<<<<<< HEAD
	<node lat="65.56780277888056" lon="12.994747214900652" id="-6987">
		<tag k="fixme" v="consider natural=peak for the most distinct mountains in the district" />
		<tag k="name" v="Dåeriesåårke" />
		<tag k="name:sma" v="Dåeriesåårke" />
		<tag k="natural" v="hill" />
=======
	<node id="-129980" lat="65.711252779" lon="12.4839388966">
		<tag k="name" v="Geitkrækern" />
		<tag k="natural" v="ridge" />
>>>>>>> e1d4bc35ff8a6074a6f2e91616a996b547c36f15
		<tag k="place" v="locality" />
		<tag k="ssr:stedsnr" v="926673" />
	</node>
<<<<<<< HEAD
	<node lat="65.61196666731058" lon="12.40930000648787" id="-6988">
		<tag k="fixme" v="consider natural=peak for the most distinct mountains in the district" />
		<tag k="name" v="Hornstinden" />
		<tag k="natural" v="hill" />
=======
	<node id="-129978" lat="65.7263944473" lon="12.510769437">
		<tag k="name" v="Sommarfjøsbakkan" />
		<tag k="natural" v="slope" />
>>>>>>> e1d4bc35ff8a6074a6f2e91616a996b547c36f15
		<tag k="place" v="locality" />
		<tag k="ssr:stedsnr" v="926928" />
	</node>
<<<<<<< HEAD
	<node lat="65.59465555101923" lon="12.695625006160988" id="-6989">
		<tag k="fixme" v="consider natural=peak for the most distinct mountains in the district" />
		<tag k="name" v="Snøfjelltinden" />
		<tag k="natural" v="hill" />
=======
	<node id="-129977" lat="65.7290694402" lon="12.499688886">
		<tag k="name" v="Vistneslia" />
		<tag k="natural" v="slope" />
>>>>>>> e1d4bc35ff8a6074a6f2e91616a996b547c36f15
		<tag k="place" v="locality" />
		<tag k="ssr:stedsnr" v="926894" />
	</node>
<<<<<<< HEAD
	<node lat="65.68737777703352" lon="12.388091662451536" id="-6990">
		<tag k="name" v="Nonshågjen" />
		<tag k="natural" v="hill" />
=======
	<node id="-129975" lat="65.7531083328" lon="12.5413138877">
		<tag k="name" v="Kalvvikja" />
		<tag k="natural" v="valley" />
>>>>>>> e1d4bc35ff8a6074a6f2e91616a996b547c36f15
		<tag k="place" v="locality" />
		<tag k="ssr:stedsnr" v="896634" />
	</node>
<<<<<<< HEAD
	<node lat="65.69811667092446" lon="12.41238889568047" id="-6991">
		<tag k="name" v="Dalhågjen" />
		<tag k="natural" v="hill" />
=======
	<node id="-129974" lat="65.731658337" lon="12.5029722328">
		<tag k="name" v="Kleivaskardet" />
		<tag k="natural" v="valley" />
>>>>>>> e1d4bc35ff8a6074a6f2e91616a996b547c36f15
		<tag k="place" v="locality" />
		<tag k="ssr:stedsnr" v="896641" />
	</node>
<<<<<<< HEAD
	<node lat="65.70017777826594" lon="12.399850010880051" id="-6992">
		<tag k="name" v="Sørhammaren" />
		<tag k="natural" v="hill" />
=======
	<node id="-129973" lat="65.7331583295" lon="12.511169454">
		<tag k="name" v="Bleso" />
		<tag k="natural" v="valley" />
>>>>>>> e1d4bc35ff8a6074a6f2e91616a996b547c36f15
		<tag k="place" v="locality" />
		<tag k="ssr:stedsnr" v="896645" />
	</node>
<<<<<<< HEAD
	<node lat="65.73853333458892" lon="12.58090000449841" id="-6995">
=======
	<node id="-129966" lat="65.5568555551" lon="12.4327249968">
>>>>>>> e1d4bc35ff8a6074a6f2e91616a996b547c36f15
		<tag k="fixme" v="consider natural=peak for the most distinct mountains in the district" />
		<tag k="name" v="Kræken" />
		<tag k="natural" v="hill" />
		<tag k="place" v="locality" />
		<tag k="ssr:stedsnr" v="896514" />
	</node>
<<<<<<< HEAD
	<node lat="65.68240833230476" lon="12.344805552383908" id="-6997">
		<tag k="fixme" v="consider natural=peak for the most distinct mountains in the district" />
		<tag k="name" v="Staurheia" />
=======
	<node id="-129965" lat="65.6446250018" lon="12.766591657">
		<tag k="name" v="Urdbergan" />
>>>>>>> e1d4bc35ff8a6074a6f2e91616a996b547c36f15
		<tag k="natural" v="hill" />
		<tag k="place" v="locality" />
		<tag k="ssr:stedsnr" v="896706" />
	</node>
	<node lat="65.69912778134038" lon="12.77275832845769" id="-7001">
		<tag k="name" v="Finnkotdalen" />
		<tag k="natural" v="valley" />
		<tag k="place" v="locality" />
		<tag k="ssr:stedsnr" v="925807" />
	</node>
<<<<<<< HEAD
	<node lat="65.62777777624883" lon="12.506830549468697" id="-7003">
=======
	<node id="-129964" lat="65.6257583369" lon="12.5952666691">
>>>>>>> e1d4bc35ff8a6074a6f2e91616a996b547c36f15
		<tag k="fixme" v="consider natural=peak for the most distinct mountains in the district" />
		<tag k="name" v="Raudbergsholten" />
		<tag k="natural" v="hill" />
		<tag k="place" v="locality" />
		<tag k="ssr:stedsnr" v="926106" />
	</node>
<<<<<<< HEAD
	<node lat="65.66624166845985" lon="12.499163894367566" id="-7004">
		<tag k="name" v="Trolldalsbotnet" />
=======
	<node id="-129955" lat="65.7201138905" lon="12.5599861123">
		<tag k="name" v="Åmidalen" />
>>>>>>> e1d4bc35ff8a6074a6f2e91616a996b547c36f15
		<tag k="natural" v="valley" />
		<tag k="place" v="locality" />
		<tag k="ssr:stedsnr" v="926065" />
	</node>
<<<<<<< HEAD
	<node lat="65.59087500422415" lon="12.419344435064053" id="-7009">
		<tag k="alt_name" v="Anddalsbotnet" />
		<tag k="fixme" v="multiple name tags, choose one and add the other to alt_name" />
		<tag k="name" v="Botnet;Andalsbotnet" />
=======
	<node id="-129954" lat="65.7277333374" lon="12.5394694483">
		<tag k="name" v="Urdvikdalen" />
>>>>>>> e1d4bc35ff8a6074a6f2e91616a996b547c36f15
		<tag k="natural" v="valley" />
		<tag k="place" v="locality" />
		<tag k="ssr:stedsnr" v="926912" />
	</node>
<<<<<<< HEAD
	<node lat="65.62731389014876" lon="12.500830552737224" id="-7012">
		<tag k="name" v="Kotdalen" />
		<tag k="natural" v="valley" />
=======
	<node id="-129949" lat="65.6259722259" lon="12.5780111145">
		<tag k="name" v="Limarkheia" />
>>>>>>> e1d4bc35ff8a6074a6f2e91616a996b547c36f15
		<tag k="place" v="locality" />
		<tag k="ssr:stedsnr" v="926923" />
	</node>
<<<<<<< HEAD
	<node lat="65.62354722100626" lon="12.377866674153866" id="-7013">
		<tag k="name" v="Mølnhushaugen" />
		<tag k="natural" v="hill" />
		<tag k="place" v="locality" />
		<tag k="ssr:stedsnr" v="926925" />
	</node>
	<node lat="65.60217500097814" lon="12.746877786513974" id="-7014">
		<tag k="fixme" v="consider natural=peak for the most distinct mountains in the district" />
		<tag k="name" v="Grannesaksla" />
		<tag k="natural" v="hill" />
=======
	<node id="-129948" lat="65.6396333334" lon="12.6033694539">
		<tag k="fixme" v="consider natural=peak for the most distinct mountains in the district" />
		<tag k="name" v="Falkhetta" />
		<tag k="natural" v="hill" />
		<tag k="place" v="locality" />
		<tag k="ssr:stedsnr" v="136134" />
	</node>
	<node id="-129939" lat="65.5887305542" lon="12.4007055533">
		<tag k="name" v="Hestfjellet" />
		<tag k="natural" v="cliff" />
		<tag k="ssr:stedsnr" v="107844" />
	</node>
	<node id="-129938" lat="65.6257027773" lon="12.3764388878">
		<tag k="name" v="Hesthagen" />
		<tag k="natural" v="slope" />
>>>>>>> e1d4bc35ff8a6074a6f2e91616a996b547c36f15
		<tag k="place" v="locality" />
		<tag k="ssr:stedsnr" v="926811" />
	</node>
<<<<<<< HEAD
	<node lat="65.62657222098606" lon="12.944850004614347" id="-7018">
		<tag k="name" v="Svartvassheia" />
		<tag k="natural" v="hill" />
=======
	<node id="-129937" lat="65.6229861124" lon="12.3761805524">
		<tag k="name" v="Dalen" />
		<tag k="natural" v="valley" />
>>>>>>> e1d4bc35ff8a6074a6f2e91616a996b547c36f15
		<tag k="place" v="locality" />
		<tag k="ssr:stedsnr" v="926823" />
	</node>
<<<<<<< HEAD
	<node lat="65.67925555817843" lon="12.336472224945078" id="-7025">
		<tag k="fixme" v="consider natural=peak for the most distinct mountains in the district" />
		<tag k="name" v="Høgrabben" />
=======
	<node id="-129936" lat="65.6394888917" lon="12.3781833353">
		<tag k="name" v="Rabben" />
>>>>>>> e1d4bc35ff8a6074a6f2e91616a996b547c36f15
		<tag k="natural" v="hill" />
		<tag k="place" v="locality" />
		<tag k="ssr:stedsnr" v="957609" />
	</node>
<<<<<<< HEAD
	<node lat="65.67371666907833" lon="12.426852778655814" id="-7026">
		<tag k="name" v="Mølnhushola" />
		<tag k="natural" v="valley" />
=======
	<node id="-129935" lat="65.6626944476" lon="12.4081694499">
		<tag k="name" v="Dròksålia" />
		<tag k="natural" v="slope" />
>>>>>>> e1d4bc35ff8a6074a6f2e91616a996b547c36f15
		<tag k="place" v="locality" />
		<tag k="ssr:stedsnr" v="957696" />
	</node>
<<<<<<< HEAD
	<node lat="65.61645833603181" lon="12.375241657849402" id="-7028">
		<tag k="name" v="Fagerlia" />
=======
	<node id="-129934" lat="65.6591944457" lon="12.3065750059">
		<tag k="name" v="Bulia" />
>>>>>>> e1d4bc35ff8a6074a6f2e91616a996b547c36f15
		<tag k="natural" v="slope" />
		<tag k="place" v="locality" />
		<tag k="ssr:stedsnr" v="957807" />
	</node>
<<<<<<< HEAD
	<node lat="65.60199999874096" lon="12.368838886399965" id="-7029">
		<tag k="name" v="Tømmervikhågjen" />
=======
	<node id="-129932" lat="65.6737638918" lon="12.411672224">
		<tag k="name" v="Karusellhågjen" />
>>>>>>> e1d4bc35ff8a6074a6f2e91616a996b547c36f15
		<tag k="natural" v="hill" />
		<tag k="place" v="locality" />
		<tag k="ssr:stedsnr" v="957810" />
	</node>
<<<<<<< HEAD
	<node lat="65.58720555368957" lon="12.42249444813396" id="-7031">
		<tag k="fixme" v="consider natural=peak for the most distinct mountains in the district" />
		<tag k="name" v="Rundfjellet" />
=======
	<node id="-129931" lat="65.6800000011" lon="12.3348166722">
		<tag k="name" v="Olderhågjen" />
>>>>>>> e1d4bc35ff8a6074a6f2e91616a996b547c36f15
		<tag k="natural" v="hill" />
		<tag k="place" v="locality" />
		<tag k="ssr:stedsnr" v="957845" />
	</node>
<<<<<<< HEAD
	<node lat="65.69724999987619" lon="12.703777776229671" id="-7037">
		<tag k="fixme" v="consider natural=peak for the most distinct mountains in the district" />
		<tag k="name" v="Høgfjellet" />
=======
	<node id="-129927" lat="65.7044222262" lon="12.4141083308">
		<tag k="name" v="Kjøkkenhågjen" />
>>>>>>> e1d4bc35ff8a6074a6f2e91616a996b547c36f15
		<tag k="natural" v="hill" />
		<tag k="place" v="locality" />
		<tag k="ssr:stedsnr" v="15041" />
	</node>
<<<<<<< HEAD
	<node lat="65.72616667017103" lon="12.531855549212912" id="-7042">
=======
	<node id="-129925" lat="65.7080194434" lon="12.46109999">
>>>>>>> e1d4bc35ff8a6074a6f2e91616a996b547c36f15
		<tag k="fixme" v="consider natural=peak for the most distinct mountains in the district" />
		<tag k="name" v="Bufjellet" />
		<tag k="natural" v="hill" />
		<tag k="place" v="locality" />
<<<<<<< HEAD
		<tag k="ssr:stedsnr" v="15229" />
	</node>
	<node lat="65.73053055326523" lon="12.511352768934367" id="-7043">
		<tag k="name" v="Djupdalen" />
=======
		<tag k="ssr:stedsnr" v="107560" />
	</node>
	<node id="-129920" lat="65.7401333376" lon="12.5671222165">
		<tag k="name" v="Stranddalen" />
		<tag k="natural" v="valley" />
		<tag k="place" v="locality" />
		<tag k="ssr:stedsnr" v="107389" />
	</node>
	<node id="-129912" lat="65.7220305545" lon="12.7402416611">
		<tag k="name" v="Almoskardet" />
>>>>>>> e1d4bc35ff8a6074a6f2e91616a996b547c36f15
		<tag k="natural" v="valley" />
		<tag k="place" v="locality" />
		<tag k="ssr:stedsnr" v="15231" />
	</node>
<<<<<<< HEAD
	<node lat="65.72060000132012" lon="12.438616656588007" id="-7044">
		<tag k="name" v="Nonshaugen" />
=======
	<node id="-129911" lat="65.5503888856" lon="12.7282166635">
		<tag k="fixme" v="consider natural=peak for the most distinct mountains in the district" />
		<tag k="name" v="Laksmarkfjellet" />
>>>>>>> e1d4bc35ff8a6074a6f2e91616a996b547c36f15
		<tag k="natural" v="hill" />
		<tag k="place" v="locality" />
		<tag k="ssr:stedsnr" v="15242" />
	</node>
<<<<<<< HEAD
	<node lat="65.72162777497496" lon="12.629880557082052" id="-7052">
		<tag k="name" v="Auna" />
=======
	<node id="-129909" lat="65.6051361153" lon="12.9141055477">
		<tag k="fixme" v="consider natural=peak for the most distinct mountains in the district" />
		<tag k="name" v="Frukostfjellet" />
		<tag k="natural" v="hill" />
>>>>>>> e1d4bc35ff8a6074a6f2e91616a996b547c36f15
		<tag k="place" v="locality" />
		<tag k="ssr:stedsnr" v="16205" />
	</node>
<<<<<<< HEAD
	<node lat="65.71722777754694" lon="12.429658340128201" id="-7053">
		<tag k="name" v="Nordmarka" />
=======
	<node id="-129908" lat="65.5413611149" lon="12.7681277767">
		<tag k="name" v="Tøymvassheia" />
		<tag k="natural" v="slope" />
>>>>>>> e1d4bc35ff8a6074a6f2e91616a996b547c36f15
		<tag k="place" v="locality" />
		<tag k="ssr:stedsnr" v="16207" />
	</node>
<<<<<<< HEAD
	<node lat="65.54936388987642" lon="13.033708331860284" id="-7054">
=======
	<node id="-129906" lat="65.7129638892" lon="12.6376305483">
>>>>>>> e1d4bc35ff8a6074a6f2e91616a996b547c36f15
		<tag k="fixme" v="consider natural=peak for the most distinct mountains in the district" />
		<tag k="name" v="Vistkjerringa - Væstangåmma" />
		<tag k="name:no" v="Vistkjerringa" />
		<tag k="name:sma" v="Væstangåmma" />
		<tag k="natural" v="hill" />
		<tag k="place" v="locality" />
		<tag k="ssr:stedsnr" v="25619" />
	</node>
<<<<<<< HEAD
	<node lat="65.57940832941685" lon="12.411833340450661" id="-7055">
=======
	<node id="-129904" lat="65.7214361157" lon="12.5356611018">
>>>>>>> e1d4bc35ff8a6074a6f2e91616a996b547c36f15
		<tag k="fixme" v="consider natural=peak for the most distinct mountains in the district" />
		<tag k="name" v="Kongsstolen" />
		<tag k="natural" v="hill" />
		<tag k="place" v="locality" />
		<tag k="ssr:stedsnr" v="46834" />
	</node>
<<<<<<< HEAD
	<node lat="65.73515000036187" lon="12.496250008439922" id="-7058">
		<tag k="name" v="Notberget" />
		<tag k="natural" v="cliff" />
		<tag k="ssr:stedsnr" v="46464" />
	</node>
	<node lat="65.72761666909295" lon="12.591194454039" id="-7059">
		<tag k="name" v="Båthågjen" />
=======
	<node id="-129902" lat="65.6397749975" lon="12.6468111187">
		<tag k="fixme" v="consider natural=peak for the most distinct mountains in the district" />
		<tag k="name" v="Urdviktinden" />
>>>>>>> e1d4bc35ff8a6074a6f2e91616a996b547c36f15
		<tag k="natural" v="hill" />
		<tag k="place" v="locality" />
		<tag k="ssr:stedsnr" v="46613" />
	</node>
<<<<<<< HEAD
	<node lat="65.70851666274481" lon="12.495177767084476" id="-7065">
		<tag k="name" v="Grønlia" />
		<tag k="natural" v="slope" />
		<tag k="place" v="locality" />
		<tag k="ssr:stedsnr" v="76011" />
	</node>
	<node lat="65.69100555553078" lon="12.38253611532809" id="-7069">
		<tag k="name" v="Tuva" />
=======
	<node id="-129901" lat="65.6307361076" lon="12.4118999936">
		<tag k="fixme" v="consider natural=peak for the most distinct mountains in the district" />
		<tag k="name" v="Stortinden" />
>>>>>>> e1d4bc35ff8a6074a6f2e91616a996b547c36f15
		<tag k="natural" v="hill" />
		<tag k="place" v="locality" />
		<tag k="ssr:stedsnr" v="76034" />
	</node>
<<<<<<< HEAD
	<node lat="65.64501111075825" lon="12.55774999131604" id="-7070">
=======
	<node id="-129899" lat="65.6450111108" lon="12.5577499913">
>>>>>>> e1d4bc35ff8a6074a6f2e91616a996b547c36f15
		<tag k="fixme" v="consider natural=peak for the most distinct mountains in the district" />
		<tag k="name" v="Åstinden" />
		<tag k="natural" v="hill" />
		<tag k="place" v="locality" />
		<tag k="ssr:stedsnr" v="76125" />
	</node>
<<<<<<< HEAD
	<node lat="65.63073610761728" lon="12.411899993581782" id="-7072">
		<tag k="fixme" v="consider natural=peak for the most distinct mountains in the district" />
		<tag k="name" v="Stortinden" />
		<tag k="natural" v="hill" />
=======
	<node id="-129898" lat="65.7574250025" lon="12.6280527842">
		<tag k="name" v="Brennådalen" />
		<tag k="natural" v="valley" />
		<tag k="place" v="locality" />
		<tag k="ssr:stedsnr" v="76117" />
	</node>
	<node id="-129893" lat="65.6816250027" lon="12.3663555648">
		<tag k="name" v="Botnan" />
		<tag k="natural" v="valley" />
>>>>>>> e1d4bc35ff8a6074a6f2e91616a996b547c36f15
		<tag k="place" v="locality" />
		<tag k="ssr:stedsnr" v="76135" />
	</node>
<<<<<<< HEAD
	<node lat="65.63977499753769" lon="12.646811118708134" id="-7073">
		<tag k="fixme" v="consider natural=peak for the most distinct mountains in the district" />
		<tag k="name" v="Urdviktinden" />
		<tag k="natural" v="hill" />
=======
	<node id="-129892" lat="65.6846277748" lon="12.3640444459">
		<tag k="name" v="Fjelldørgja" />
		<tag k="natural" v="slope" />
>>>>>>> e1d4bc35ff8a6074a6f2e91616a996b547c36f15
		<tag k="place" v="locality" />
		<tag k="ssr:stedsnr" v="76137" />
	</node>
<<<<<<< HEAD
	<node lat="65.60513611528901" lon="12.914105547722446" id="-7074">
		<tag k="fixme" v="consider natural=peak for the most distinct mountains in the district" />
		<tag k="name" v="Frukostfjellet" />
=======
	<node id="-129891" lat="65.6910055555" lon="12.3825361153">
		<tag k="name" v="Tuva" />
>>>>>>> e1d4bc35ff8a6074a6f2e91616a996b547c36f15
		<tag k="natural" v="hill" />
		<tag k="place" v="locality" />
		<tag k="ssr:stedsnr" v="76668" />
	</node>
<<<<<<< HEAD
	<node lat="65.54136111492399" lon="12.768127776702544" id="-7076">
		<tag k="name" v="Tøymvassheia" />
=======
	<node id="-129889" lat="65.7085166627" lon="12.4951777671">
		<tag k="name" v="Grønlia" />
>>>>>>> e1d4bc35ff8a6074a6f2e91616a996b547c36f15
		<tag k="natural" v="slope" />
		<tag k="place" v="locality" />
		<tag k="ssr:stedsnr" v="76640" />
	</node>
<<<<<<< HEAD
	<node lat="65.55038888555411" lon="12.72821666345475" id="-7077">
=======
	<node id="-129885" lat="65.5794083294" lon="12.4118333405">
>>>>>>> e1d4bc35ff8a6074a6f2e91616a996b547c36f15
		<tag k="fixme" v="consider natural=peak for the most distinct mountains in the district" />
		<tag k="name" v="Laksmarkfjellet" />
		<tag k="natural" v="hill" />
		<tag k="place" v="locality" />
		<tag k="ssr:stedsnr" v="76688" />
	</node>
<<<<<<< HEAD
	<node lat="65.65919444569998" lon="12.306575005884474" id="-7082">
		<tag k="name" v="Bulia" />
		<tag k="natural" v="slope" />
=======
	<node id="-129884" lat="65.6078749988" lon="12.3781694499">
		<tag k="name" v="Stappen" />
>>>>>>> e1d4bc35ff8a6074a6f2e91616a996b547c36f15
		<tag k="place" v="locality" />
		<tag k="ssr:stedsnr" v="107764" />
	</node>
<<<<<<< HEAD
	<node lat="65.58873055422583" lon="12.400705553274031" id="-7083">
		<tag k="name" v="Hestfjellet" />
		<tag k="natural" v="cliff" />
		<tag k="ssr:stedsnr" v="107844" />
	</node>
	<node lat="65.74013333763602" lon="12.567122216546998" id="-7084">
		<tag k="name" v="Stranddalen" />
		<tag k="natural" v="valley" />
=======
	<node id="-129882" lat="65.6542166687" lon="12.3946138976">
		<tag k="name" v="Breiålia" />
		<tag k="natural" v="slope" />
>>>>>>> e1d4bc35ff8a6074a6f2e91616a996b547c36f15
		<tag k="place" v="locality" />
		<tag k="ssr:stedsnr" v="107389" />
	</node>
<<<<<<< HEAD
	<node lat="65.70801944344964" lon="12.461099989960724" id="-7089">
		<tag k="fixme" v="consider natural=peak for the most distinct mountains in the district" />
		<tag k="name" v="Lissfjellet" />
=======
	<node id="-129879" lat="65.7276166691" lon="12.591194454">
		<tag k="name" v="Båthågjen" />
>>>>>>> e1d4bc35ff8a6074a6f2e91616a996b547c36f15
		<tag k="natural" v="hill" />
		<tag k="place" v="locality" />
		<tag k="ssr:stedsnr" v="107560" />
	</node>
<<<<<<< HEAD
	<node lat="65.6626944475779" lon="12.408169449874912" id="-7092">
		<tag k="name" v="Dròksålia" />
		<tag k="natural" v="slope" />
		<tag k="place" v="locality" />
		<tag k="ssr:stedsnr" v="107774" />
	</node>
	<node lat="65.63963333335116" lon="12.603369453883928" id="-7095">
=======
	<node id="-129877" lat="65.710466668" lon="12.4737027754">
		<tag k="name" v="Tyskmoen" />
		<tag k="place" v="locality" />
		<tag k="ssr:stedsnr" v="46580" />
	</node>
	<node id="-129876" lat="65.7351500004" lon="12.4962500084">
		<tag k="name" v="Notberget" />
		<tag k="natural" v="cliff" />
		<tag k="ssr:stedsnr" v="46464" />
	</node>
	<node id="-129874" lat="65.5493638899" lon="13.0337083319">
>>>>>>> e1d4bc35ff8a6074a6f2e91616a996b547c36f15
		<tag k="fixme" v="consider natural=peak for the most distinct mountains in the district" />
		<tag k="name" v="Falkhetta" />
		<tag k="natural" v="hill" />
		<tag k="place" v="locality" />
		<tag k="ssr:stedsnr" v="136134" />
	</node>
<<<<<<< HEAD
	<node lat="65.62597222593736" lon="12.57801111450851" id="-7096">
		<tag k="name" v="Limarkheia" />
=======
	<node id="-129873" lat="65.5883555592" lon="12.4075027819">
		<tag k="name" v="Vollan" />
>>>>>>> e1d4bc35ff8a6074a6f2e91616a996b547c36f15
		<tag k="place" v="locality" />
		<tag k="ssr:stedsnr" v="136137" />
	</node>
<<<<<<< HEAD
	<node lat="65.72011389049895" lon="12.559986112300198" id="-7100">
		<tag k="name" v="Åmidalen" />
=======
	<node id="-129862" lat="65.5304916681" lon="12.758258338">
		<tag k="name" v="Børjedalen" />
>>>>>>> e1d4bc35ff8a6074a6f2e91616a996b547c36f15
		<tag k="natural" v="valley" />
		<tag k="place" v="locality" />
		<tag k="ssr:stedsnr" v="136282" />
	</node>
<<<<<<< HEAD
	<node lat="65.6446250017686" lon="12.766591656977809" id="-7104">
		<tag k="name" v="Urdbergan" />
		<tag k="natural" v="hill" />
=======
	<node id="-129861" lat="65.5405250003" lon="12.7488027774">
		<tag k="name" v="Tøymvasslia" />
		<tag k="natural" v="slope" />
>>>>>>> e1d4bc35ff8a6074a6f2e91616a996b547c36f15
		<tag k="place" v="locality" />
		<tag k="ssr:stedsnr" v="136863" />
	</node>
<<<<<<< HEAD
	<node lat="65.62575833692208" lon="12.595266669126593" id="-7111">
		<tag k="fixme" v="consider natural=peak for the most distinct mountains in the district" />
		<tag k="name" v="Gråfjellet" />
=======
	<node id="-129857" lat="65.7206000013" lon="12.4386166566">
		<tag k="name" v="Nonshaugen" />
>>>>>>> e1d4bc35ff8a6074a6f2e91616a996b547c36f15
		<tag k="natural" v="hill" />
		<tag k="place" v="locality" />
		<tag k="ssr:stedsnr" v="136932" />
	</node>
<<<<<<< HEAD
	<node lat="65.73315832945362" lon="12.511169453981553" id="-7116">
		<tag k="name" v="Bleso" />
=======
	<node id="-129856" lat="65.7305305533" lon="12.5113527689">
		<tag k="name" v="Djupdalen" />
>>>>>>> e1d4bc35ff8a6074a6f2e91616a996b547c36f15
		<tag k="natural" v="valley" />
		<tag k="place" v="locality" />
		<tag k="ssr:stedsnr" v="167382" />
	</node>
<<<<<<< HEAD
	<node lat="65.73165833699677" lon="12.502972232807192" id="-7117">
		<tag k="name" v="Kleivaskardet" />
		<tag k="natural" v="valley" />
		<tag k="place" v="locality" />
		<tag k="ssr:stedsnr" v="167385" />
	</node>
	<node lat="65.7290694402027" lon="12.499688885966805" id="-7118">
		<tag k="name" v="Vistneslia" />
=======
	<node id="-129852" lat="65.6800777799" lon="12.4402499972">
		<tag k="name" v="Ramnfloget" />
>>>>>>> e1d4bc35ff8a6074a6f2e91616a996b547c36f15
		<tag k="natural" v="slope" />
		<tag k="place" v="locality" />
		<tag k="ssr:stedsnr" v="167577" />
	</node>
<<<<<<< HEAD
	<node lat="65.72639444730466" lon="12.51076943697478" id="-7119">
		<tag k="name" v="Sommarfjøsbakkan" />
		<tag k="natural" v="slope" />
=======
	<node id="-129850" lat="65.6972499999" lon="12.7037777762">
		<tag k="fixme" v="consider natural=peak for the most distinct mountains in the district" />
		<tag k="name" v="Høgfjellet" />
		<tag k="natural" v="hill" />
>>>>>>> e1d4bc35ff8a6074a6f2e91616a996b547c36f15
		<tag k="place" v="locality" />
		<tag k="ssr:stedsnr" v="167578" />
	</node>
<<<<<<< HEAD
	<node lat="65.71125277902921" lon="12.483938896625101" id="-7121">
		<tag k="name" v="Geitkrækern" />
		<tag k="natural" v="ridge" />
=======
	<node id="-129848" lat="65.7319805537" lon="12.4967722123">
		<tag k="name" v="Middagsskardet" />
		<tag k="natural" v="valley" />
>>>>>>> e1d4bc35ff8a6074a6f2e91616a996b547c36f15
		<tag k="place" v="locality" />
		<tag k="ssr:stedsnr" v="167586" />
	</node>
<<<<<<< HEAD
	<node lat="65.67971388427578" lon="12.410875010077921" id="-7124">
		<tag k="name" v="Nordhågjen" />
=======
	<node id="-129847" lat="65.6119666673" lon="12.4093000065">
		<tag k="fixme" v="consider natural=peak for the most distinct mountains in the district" />
		<tag k="name" v="Hornstinden" />
>>>>>>> e1d4bc35ff8a6074a6f2e91616a996b547c36f15
		<tag k="natural" v="hill" />
		<tag k="place" v="locality" />
		<tag k="ssr:stedsnr" v="168692" />
	</node>
<<<<<<< HEAD
	<node lat="65.67740833175016" lon="12.410447231968572" id="-7125">
		<tag k="name" v="Sørhågjen" />
=======
	<node id="-129846" lat="65.623547221" lon="12.3778666742">
		<tag k="name" v="Mølnhushaugen" />
>>>>>>> e1d4bc35ff8a6074a6f2e91616a996b547c36f15
		<tag k="natural" v="hill" />
		<tag k="place" v="locality" />
		<tag k="ssr:stedsnr" v="168699" />
	</node>
<<<<<<< HEAD
	<node lat="65.62986666746055" lon="12.378105558842623" id="-7127">
		<tag k="name" v="Aksla" />
		<tag k="natural" v="ridge" />
=======
	<node id="-129845" lat="65.6273138901" lon="12.5008305527">
		<tag k="name" v="Kotdalen" />
		<tag k="natural" v="valley" />
>>>>>>> e1d4bc35ff8a6074a6f2e91616a996b547c36f15
		<tag k="place" v="locality" />
		<tag k="ssr:stedsnr" v="168791" />
	</node>
<<<<<<< HEAD
	<node lat="65.62613055871743" lon="12.369391668833828" id="-7128">
		<tag k="name" v="Hågkleivan" />
		<tag k="natural" v="slope" />
=======
	<node id="-129842" lat="65.5908750042" lon="12.4193444351">
		<tag k="alt_name" v="Anddalsbotnet" />
		<tag k="fixme" v="multiple name tags, choose one and add the other to alt_name" />
		<tag k="name" v="Botnet;Andalsbotnet" />
		<tag k="natural" v="valley" />
>>>>>>> e1d4bc35ff8a6074a6f2e91616a996b547c36f15
		<tag k="place" v="locality" />
		<tag k="ssr:stedsnr" v="168796" />
	</node>
<<<<<<< HEAD
	<node lat="65.64803055442923" lon="12.388488885937887" id="-7130">
		<tag k="name" v="Kvitfjellet" />
		<tag k="natural" v="slope" />
		<tag k="place" v="locality" />
		<tag k="ssr:stedsnr" v="168728" />
	</node>
	<node lat="65.6623972253321" lon="12.315505564141802" id="-7131">
		<tag k="name" v="Storheia" />
=======
	<node id="-129840" lat="65.626572221" lon="12.9448500046">
		<tag k="name" v="Svartvassheia" />
>>>>>>> e1d4bc35ff8a6074a6f2e91616a996b547c36f15
		<tag k="natural" v="hill" />
		<tag k="place" v="locality" />
		<tag k="ssr:stedsnr" v="168743" />
	</node>
<<<<<<< HEAD
	<node lat="65.6865305568342" lon="12.615474990461806" id="-7136">
=======
	<node id="-129836" lat="65.602175001" lon="12.7468777865">
>>>>>>> e1d4bc35ff8a6074a6f2e91616a996b547c36f15
		<tag k="fixme" v="consider natural=peak for the most distinct mountains in the district" />
		<tag k="name" v="Telavikfjellet" />
		<tag k="natural" v="hill" />
		<tag k="place" v="locality" />
		<tag k="ssr:stedsnr" v="197083" />
	</node>
<<<<<<< HEAD
	<node lat="65.69329721856288" lon="12.393083328364762" id="-7140">
		<tag k="alt_name" v="Storhaugen" />
		<tag k="name" v="Storhågjen" />
=======
	<node id="-129833" lat="65.6824083323" lon="12.3448055524">
		<tag k="fixme" v="consider natural=peak for the most distinct mountains in the district" />
		<tag k="name" v="Staurheia" />
>>>>>>> e1d4bc35ff8a6074a6f2e91616a996b547c36f15
		<tag k="natural" v="hill" />
		<tag k="place" v="locality" />
		<tag k="ssr:stedsnr" v="197035" />
	</node>
<<<<<<< HEAD
	<node lat="65.64934166821133" lon="12.618647225302848" id="-7145">
		<tag k="alt_name" v="Geitstigheia" />
		<tag k="fixme" v="consider natural=peak for the most distinct mountains in the district" />
		<tag k="name" v="Geitstiheia" />
=======
	<node id="-129832" lat="65.7028361081" lon="12.4110000064">
		<tag k="name" v="Hesthågjen" />
>>>>>>> e1d4bc35ff8a6074a6f2e91616a996b547c36f15
		<tag k="natural" v="hill" />
		<tag k="place" v="locality" />
		<tag k="ssr:stedsnr" v="197140" />
	</node>
<<<<<<< HEAD
	<node lat="65.60375555419103" lon="12.854313878615235" id="-7147">
		<tag k="fixme" v="consider natural=peak for the most distinct mountains in the district" />
		<tag k="name" v="Langåsen" />
=======
	<node id="-129831" lat="65.7286416658" lon="12.5110555452">
		<tag k="name" v="Hattbergan" />
>>>>>>> e1d4bc35ff8a6074a6f2e91616a996b547c36f15
		<tag k="natural" v="hill" />
		<tag k="place" v="locality" />
		<tag k="ssr:stedsnr" v="197695" />
	</node>
<<<<<<< HEAD
	<node lat="65.61853333122937" lon="12.694238882466411" id="-7148">
		<tag k="name" v="Strumpdalsbotnet" />
=======
	<node id="-129827" lat="65.6037999958" lon="12.3716000084">
		<tag k="name" v="Mølnhusdalen" />
>>>>>>> e1d4bc35ff8a6074a6f2e91616a996b547c36f15
		<tag k="natural" v="valley" />
		<tag k="place" v="locality" />
		<tag k="ssr:stedsnr" v="197926" />
	</node>
<<<<<<< HEAD
	<node lat="65.76076111029242" lon="12.570833342809172" id="-7157">
		<tag k="name" v="Øvergjøthågjen" />
=======
	<node id="-129822" lat="65.6996055595" lon="12.4449111017">
		<tag k="name" v="Stallbakkan" />
>>>>>>> e1d4bc35ff8a6074a6f2e91616a996b547c36f15
		<tag k="natural" v="ridge" />
		<tag k="place" v="locality" />
		<tag k="ssr:stedsnr" v="228459" />
	</node>
<<<<<<< HEAD
	<node lat="65.73437222263154" lon="12.498516665203379" id="-7158">
		<tag k="name" v="Låvhågjen" />
=======
	<node id="-129821" lat="65.7264277801" lon="12.7147472197">
		<tag k="fixme" v="consider natural=peak for the most distinct mountains in the district" />
		<tag k="name" v="Klubben" />
>>>>>>> e1d4bc35ff8a6074a6f2e91616a996b547c36f15
		<tag k="natural" v="hill" />
		<tag k="place" v="locality" />
		<tag k="ssr:stedsnr" v="228465" />
	</node>
<<<<<<< HEAD
	<node lat="65.73688888859348" lon="12.507361103878395" id="-7159">
		<tag k="name" v="Mølnhushågjen" />
		<tag k="natural" v="ridge" />
=======
	<node id="-129819" lat="65.6917583337" lon="12.7520861189">
		<tag k="fixme" v="consider natural=peak for the most distinct mountains in the district" />
		<tag k="loc_name" v="Tverrlandsfjellet" />
		<tag k="name" v="Tverlandsfjellet" />
		<tag k="natural" v="hill" />
>>>>>>> e1d4bc35ff8a6074a6f2e91616a996b547c36f15
		<tag k="place" v="locality" />
		<tag k="ssr:stedsnr" v="228474" />
	</node>
<<<<<<< HEAD
	<node lat="65.73927499704754" lon="12.573619438014585" id="-7160">
		<tag k="name" v="Trolldalen" />
		<tag k="natural" v="valley" />
=======
	<node id="-129817" lat="65.6250916678" lon="12.9002583354">
		<tag k="fixme" v="consider natural=peak for the most distinct mountains in the district" />
		<tag k="name" v="Mandagsfjellet" />
		<tag k="natural" v="hill" />
>>>>>>> e1d4bc35ff8a6074a6f2e91616a996b547c36f15
		<tag k="place" v="locality" />
		<tag k="ssr:stedsnr" v="228547" />
	</node>
<<<<<<< HEAD
	<node lat="65.69435277526921" lon="12.396008330973684" id="-7162">
		<tag k="name" v="Storhågskardet" />
=======
	<node id="-129816" lat="65.6320416705" lon="12.8130111076">
		<tag k="alt_name" v="Austerfjorddalen, s" />
		<tag k="name" v="Søre Austerfjorddalen" />
>>>>>>> e1d4bc35ff8a6074a6f2e91616a996b547c36f15
		<tag k="natural" v="valley" />
		<tag k="place" v="locality" />
		<tag k="ssr:stedsnr" v="228659" />
	</node>
<<<<<<< HEAD
	<node lat="65.74710277344468" lon="12.59257222555866" id="-7165">
		<tag k="name" v="Brennheia" />
		<tag k="natural" v="ridge" />
=======
	<node id="-129809" lat="65.7070750007" lon="12.4103027821">
		<tag k="fixme" v="consider natural=peak for the most distinct mountains in the district" />
		<tag k="name" v="Vågsfjellet" />
		<tag k="natural" v="hill" />
>>>>>>> e1d4bc35ff8a6074a6f2e91616a996b547c36f15
		<tag k="place" v="locality" />
		<tag k="ssr:stedsnr" v="289519" />
	</node>
<<<<<<< HEAD
	<node lat="65.72638610933733" lon="12.505319454326328" id="-7167">
		<tag k="name" v="Kirstenskogen" />
		<tag k="natural" v="slope" />
=======
	<node id="-129808" lat="65.594655551" lon="12.6956250062">
		<tag k="fixme" v="consider natural=peak for the most distinct mountains in the district" />
		<tag k="name" v="Snøfjelltinden" />
		<tag k="natural" v="hill" />
>>>>>>> e1d4bc35ff8a6074a6f2e91616a996b547c36f15
		<tag k="place" v="locality" />
		<tag k="ssr:stedsnr" v="289573" />
	</node>
<<<<<<< HEAD
	<node lat="65.70420833332277" lon="12.45576667647463" id="-7170">
		<tag k="name" v="Hestgjerdet" />
		<tag k="natural" v="ridge" />
=======
	<node id="-129807" lat="65.5678027789" lon="12.9947472149">
		<tag k="fixme" v="consider natural=peak for the most distinct mountains in the district" />
		<tag k="name" v="Dåeriesåårke" />
		<tag k="name:sma" v="Dåeriesåårke" />
		<tag k="natural" v="hill" />
>>>>>>> e1d4bc35ff8a6074a6f2e91616a996b547c36f15
		<tag k="place" v="locality" />
		<tag k="ssr:stedsnr" v="289662" />
	</node>
<<<<<<< HEAD
	<node lat="65.70573610716843" lon="12.461733324210734" id="-7171">
		<tag k="name" v="Nybrotet" />
=======
	<node id="-129805" lat="65.5777416671" lon="12.794736109">
		<tag k="fixme" v="consider natural=peak for the most distinct mountains in the district" />
		<tag k="name" v="Kalvdalsfjellet" />
		<tag k="natural" v="hill" />
>>>>>>> e1d4bc35ff8a6074a6f2e91616a996b547c36f15
		<tag k="place" v="locality" />
		<tag k="ssr:stedsnr" v="289668" />
	</node>
<<<<<<< HEAD
	<node lat="65.70761110913851" lon="12.42392222311695" id="-7178">
		<tag k="fixme" v="multiple name tags, choose one and add the other to alt_name; consider natural=peak for the most distinct mountains in the district" />
		<tag k="name" v="Langberghågjen;Langberget" />
		<tag k="natural" v="hill" />
		<tag k="place" v="locality" />
		<tag k="ssr:stedsnr" v="318008" />
	</node>
	<node lat="65.68941666623408" lon="12.45220276689677" id="-7180">
		<tag k="name" v="Rauddalen" />
=======
	<node id="-129801" lat="65.6277777762" lon="12.5068305495">
		<tag k="fixme" v="consider natural=peak for the most distinct mountains in the district" />
		<tag k="name" v="Raudbergsholten" />
		<tag k="natural" v="hill" />
		<tag k="place" v="locality" />
		<tag k="ssr:stedsnr" v="926106" />
	</node>
	<node id="-129796" lat="65.6662416685" lon="12.4991638944">
		<tag k="name" v="Trolldalsbotnet" />
		<tag k="natural" v="valley" />
		<tag k="place" v="locality" />
		<tag k="ssr:stedsnr" v="926065" />
	</node>
	<node id="-129790" lat="65.6943833304" lon="12.5696583353">
		<tag k="name" v="Hesthola" />
>>>>>>> e1d4bc35ff8a6074a6f2e91616a996b547c36f15
		<tag k="natural" v="valley" />
		<tag k="place" v="locality" />
		<tag k="ssr:stedsnr" v="318028" />
	</node>
<<<<<<< HEAD
	<node lat="65.5751500004928" lon="12.739577782014042" id="-7189">
		<tag k="name" v="Raudmolia" />
		<tag k="natural" v="slope" />
=======
	<node id="-129789" lat="65.5656749967" lon="12.4575944393">
		<tag k="fixme" v="consider natural=peak for the most distinct mountains in the district" />
		<tag k="name" v="Forneshatten" />
		<tag k="natural" v="hill" />
>>>>>>> e1d4bc35ff8a6074a6f2e91616a996b547c36f15
		<tag k="place" v="locality" />
		<tag k="ssr:stedsnr" v="319664" />
	</node>
<<<<<<< HEAD
	<node lat="65.65640832984374" lon="12.81854445256429" id="-7192">
		<tag k="alt_name" v="Austerfjorddalen, nordre" />
		<tag k="name" v="Nordre Austerfjorddalen" />
=======
	<node id="-129787" lat="65.6991277813" lon="12.7727583285">
		<tag k="name" v="Finnkotdalen" />
>>>>>>> e1d4bc35ff8a6074a6f2e91616a996b547c36f15
		<tag k="natural" v="valley" />
		<tag k="place" v="locality" />
		<tag k="ssr:stedsnr" v="318877" />
	</node>
<<<<<<< HEAD
	<node lat="65.72043333246546" lon="12.641255552904958" id="-7196">
		<tag k="name" v="Efievegen" />
=======
	<node id="-129778" lat="65.6490750024" lon="12.3922555655">
		<tag k="name" v="Bustiholo" />
>>>>>>> e1d4bc35ff8a6074a6f2e91616a996b547c36f15
		<tag k="natural" v="valley" />
		<tag k="place" v="locality" />
		<tag k="ssr:stedsnr" v="319232" />
	</node>
<<<<<<< HEAD
	<node lat="65.72931944422797" lon="12.64119999699931" id="-7197">
		<tag k="fixme" v="consider natural=peak for the most distinct mountains in the district" />
		<tag k="name" v="Storfjellet" />
		<tag k="natural" v="hill" />
=======
	<node id="-129776" lat="65.6700472181" lon="12.4143972262">
		<tag k="name" v="Ladalan" />
		<tag k="natural" v="valley" />
>>>>>>> e1d4bc35ff8a6074a6f2e91616a996b547c36f15
		<tag k="place" v="locality" />
		<tag k="ssr:stedsnr" v="319234" />
	</node>
<<<<<<< HEAD
	<node lat="65.68987777608707" lon="12.575250000737588" id="-7199">
		<tag k="fixme" v="consider natural=peak for the most distinct mountains in the district" />
		<tag k="name" v="Nonsfjellet" />
		<tag k="natural" v="hill" />
=======
	<node id="-129773" lat="65.67528333" lon="12.4296111054">
		<tag k="name" v="Jakobrenno" />
>>>>>>> e1d4bc35ff8a6074a6f2e91616a996b547c36f15
		<tag k="place" v="locality" />
		<tag k="ssr:stedsnr" v="319060" />
	</node>
<<<<<<< HEAD
	<node lat="65.53928888634034" lon="13.036316669037122" id="-7200">
		<tag k="fixme" v="consider natural=peak for the most distinct mountains in the district" />
		<tag k="name" v="Litlskardtinden - Dårretjensnjurhtjie" />
		<tag k="name:no" v="Litlskardtinden" />
		<tag k="name:sma" v="Dårretjensnjurhtjie" />
		<tag k="natural" v="hill" />
=======
	<node id="-129768" lat="65.6231305586" lon="12.7047249898">
		<tag k="name" v="Strumpdalen" />
		<tag k="natural" v="valley" />
>>>>>>> e1d4bc35ff8a6074a6f2e91616a996b547c36f15
		<tag k="place" v="locality" />
		<tag k="ssr:stedsnr" v="319615" />
	</node>
<<<<<<< HEAD
	<node lat="65.52941388502734" lon="12.799333334222302" id="-7201">
=======
	<node id="-129767" lat="65.6468666678" lon="12.7771027686">
>>>>>>> e1d4bc35ff8a6074a6f2e91616a996b547c36f15
		<tag k="fixme" v="consider natural=peak for the most distinct mountains in the district" />
		<tag k="name" v="Jillienjuenie" />
		<tag k="name:sma" v="Jillienjuenie" />
		<tag k="natural" v="hill" />
		<tag k="place" v="locality" />
		<tag k="ssr:stedsnr" v="319621" />
	</node>
<<<<<<< HEAD
	<node lat="65.59263333458611" lon="12.395038878508405" id="-7202">
=======
	<node id="-129764" lat="65.6687416704" lon="12.339424993">
>>>>>>> e1d4bc35ff8a6074a6f2e91616a996b547c36f15
		<tag k="fixme" v="consider natural=peak for the most distinct mountains in the district" />
		<tag k="name" v="Høyvikfjellet" />
		<tag k="natural" v="hill" />
		<tag k="place" v="locality" />
		<tag k="ssr:stedsnr" v="319926" />
	</node>
<<<<<<< HEAD
	<node lat="65.76373055589467" lon="12.573247226357424" id="-7203">
		<tag k="name" v="Svartholet" />
=======
	<node id="-129761" lat="65.6753999996" lon="12.3382305663">
		<tag k="name" v="Trollhola" />
>>>>>>> e1d4bc35ff8a6074a6f2e91616a996b547c36f15
		<tag k="natural" v="valley" />
		<tag k="place" v="locality" />
		<tag k="ssr:stedsnr" v="349390" />
	</node>
<<<<<<< HEAD
	<node lat="65.7587833340373" lon="12.565625004661497" id="-7204">
		<tag k="name" v="Leveråsen" />
		<tag k="natural" v="ridge" />
=======
	<node id="-129756" lat="65.6511472238" lon="12.3924305562">
		<tag k="name" v="Bandskogrevo" />
		<tag k="natural" v="valley" />
>>>>>>> e1d4bc35ff8a6074a6f2e91616a996b547c36f15
		<tag k="place" v="locality" />
		<tag k="ssr:stedsnr" v="349480" />
	</node>
<<<<<<< HEAD
	<node lat="65.72414999768681" lon="12.510263896276847" id="-7205">
		<tag k="name" v="Kvannlia" />
		<tag k="natural" v="slope" />
=======
	<node id="-129753" lat="65.7001777783" lon="12.3998500109">
		<tag k="name" v="Sørhammaren" />
		<tag k="natural" v="hill" />
>>>>>>> e1d4bc35ff8a6074a6f2e91616a996b547c36f15
		<tag k="place" v="locality" />
		<tag k="ssr:stedsnr" v="349585" />
	</node>
<<<<<<< HEAD
	<node lat="65.67743888945482" lon="12.33396944496211" id="-7207">
		<tag k="name" v="Trollrabben" />
		<tag k="natural" v="ridge" />
=======
	<node id="-129752" lat="65.6981166709" lon="12.4123888957">
		<tag k="name" v="Dalhågjen" />
		<tag k="natural" v="hill" />
>>>>>>> e1d4bc35ff8a6074a6f2e91616a996b547c36f15
		<tag k="place" v="locality" />
		<tag k="ssr:stedsnr" v="350594" />
	</node>
<<<<<<< HEAD
	<node lat="65.74685555920205" lon="12.561850010727204" id="-7209">
		<tag k="fixme" v="consider natural=peak for the most distinct mountains in the district" />
		<tag k="name" v="Heståsen" />
=======
	<node id="-129751" lat="65.687377777" lon="12.3880916625">
		<tag k="name" v="Nonshågjen" />
>>>>>>> e1d4bc35ff8a6074a6f2e91616a996b547c36f15
		<tag k="natural" v="hill" />
		<tag k="place" v="locality" />
		<tag k="ssr:stedsnr" v="349452" />
	</node>
<<<<<<< HEAD
	<node lat="65.71228888815465" lon="12.422574997143972" id="-7210">
=======
	<node id="-129749" lat="65.7385333346" lon="12.5809000045">
>>>>>>> e1d4bc35ff8a6074a6f2e91616a996b547c36f15
		<tag k="fixme" v="consider natural=peak for the most distinct mountains in the district" />
		<tag k="name" v="Nordvikhågjen" />
		<tag k="natural" v="hill" />
		<tag k="place" v="locality" />
		<tag k="ssr:stedsnr" v="349527" />
	</node>
<<<<<<< HEAD
	<node lat="65.670966670325" lon="12.42558889803584" id="-7214">
		<tag k="name" v="Smalheia" />
=======
	<node id="-129748" lat="65.7349027741" lon="12.5099888811">
		<tag k="name" v="Steinåsen" />
>>>>>>> e1d4bc35ff8a6074a6f2e91616a996b547c36f15
		<tag k="natural" v="ridge" />
		<tag k="place" v="locality" />
		<tag k="ssr:stedsnr" v="350733" />
	</node>
<<<<<<< HEAD
	<node lat="65.67231388457445" lon="12.425744438896986" id="-7215">
		<tag k="name" v="Svartflogheia" />
		<tag k="natural" v="hill" />
		<tag k="place" v="locality" />
		<tag k="ssr:stedsnr" v="350698" />
	</node>
	<node lat="65.64404721892484" lon="12.63419444761636" id="-7216">
		<tag k="name" v="Brennskardet" />
=======
	<node id="-129745" lat="65.6935361107" lon="12.4403694428">
		<tag k="name" v="Forahågjen" />
		<tag k="natural" v="hill" />
		<tag k="place" v="locality" />
		<tag k="ssr:stedsnr" v="714587" />
	</node>
	<node id="-129744" lat="65.6950972219" lon="12.460000004">
		<tag k="name" v="Trollbergan" />
		<tag k="natural" v="cliff" />
		<tag k="ssr:stedsnr" v="714557" />
	</node>
	<node id="-129741" lat="65.7446249969" lon="12.5602916579">
		<tag k="name" v="Hestdalen" />
>>>>>>> e1d4bc35ff8a6074a6f2e91616a996b547c36f15
		<tag k="natural" v="valley" />
		<tag k="place" v="locality" />
		<tag k="ssr:stedsnr" v="350762" />
	</node>
<<<<<<< HEAD
	<node lat="65.67009722670448" lon="12.538711111193066" id="-7225">
		<tag k="alt_name" v="Lislfjellet" />
		<tag k="fixme" v="consider natural=peak for the most distinct mountains in the district" />
		<tag k="name" v="Lissfjellet" />
		<tag k="natural" v="hill" />
=======
	<node id="-129739" lat="65.759719447" lon="12.5666055612">
		<tag k="name" v="Gjøtstrupen" />
		<tag k="natural" v="valley" />
>>>>>>> e1d4bc35ff8a6074a6f2e91616a996b547c36f15
		<tag k="place" v="locality" />
		<tag k="ssr:stedsnr" v="379050" />
	</node>
<<<<<<< HEAD
	<node lat="65.67374444851251" lon="12.323633336841139" id="-7226">
		<tag k="alt_name" v="Svarthaugen" />
		<tag k="name" v="Svarthågjen" />
		<tag k="natural" v="hill" />
=======
	<node id="-129733" lat="65.7023555572" lon="12.5775611105">
		<tag k="name" v="Grønlia" />
		<tag k="natural" v="slope" />
>>>>>>> e1d4bc35ff8a6074a6f2e91616a996b547c36f15
		<tag k="place" v="locality" />
		<tag k="ssr:stedsnr" v="379058" />
	</node>
<<<<<<< HEAD
	<node lat="65.57060555819045" lon="13.036141668693437" id="-7233">
		<tag k="fixme" v="consider natural=peak for the most distinct mountains in the district" />
		<tag k="name" v="Vistmannen - Væstangobpe" />
		<tag k="name:no" v="Vistmannen" />
		<tag k="name:sma" v="Væstangobpe" />
=======
	<node id="-129727" lat="65.6986805519" lon="12.5143027776">
		<tag k="fixme" v="multiple name tags, choose one and add the other to alt_name; consider natural=peak for the most distinct mountains in the district" />
		<tag k="name" v="Forvikfjellet;Snøfjellet" />
>>>>>>> e1d4bc35ff8a6074a6f2e91616a996b547c36f15
		<tag k="natural" v="hill" />
		<tag k="place" v="locality" />
		<tag k="ssr:stedsnr" v="379665" />
	</node>
<<<<<<< HEAD
	<node lat="65.65756666645787" lon="12.740580559380607" id="-7236">
		<tag k="name" v="Ropardalen" />
		<tag k="natural" v="valley" />
=======
	<node id="-129726" lat="65.6814388877" lon="12.4389083228">
		<tag k="name" v="Slettheia" />
		<tag k="natural" v="slope" />
>>>>>>> e1d4bc35ff8a6074a6f2e91616a996b547c36f15
		<tag k="place" v="locality" />
		<tag k="ssr:stedsnr" v="379847" />
	</node>
<<<<<<< HEAD
	<node lat="65.63417777478105" lon="12.360030555119028" id="-7238">
		<tag k="name" v="Fløystonghågjen" />
		<tag k="natural" v="hill" />
=======
	<node id="-129725" lat="65.6806638855" lon="12.3366638871">
		<tag k="name" v="Oksdalen" />
		<tag k="natural" v="valley" />
>>>>>>> e1d4bc35ff8a6074a6f2e91616a996b547c36f15
		<tag k="place" v="locality" />
		<tag k="ssr:stedsnr" v="410798" />
	</node>
<<<<<<< HEAD
	<node lat="65.74800278200784" lon="12.582561104145016" id="-7243">
		<tag k="name" v="Stormobakkan" />
=======
	<node id="-129724" lat="65.7356972179" lon="12.5977777789">
		<tag k="name" v="Høglia" />
>>>>>>> e1d4bc35ff8a6074a6f2e91616a996b547c36f15
		<tag k="natural" v="slope" />
		<tag k="place" v="locality" />
		<tag k="ssr:stedsnr" v="410412" />
	</node>
<<<<<<< HEAD
	<node lat="65.75266944888773" lon="12.545949990680175" id="-7244">
=======
	<node id="-129722" lat="65.7019249986" lon="12.4047583348">
>>>>>>> e1d4bc35ff8a6074a6f2e91616a996b547c36f15
		<tag k="fixme" v="consider natural=peak for the most distinct mountains in the district" />
		<tag k="name" v="Kalvhågjen" />
		<tag k="natural" v="hill" />
		<tag k="place" v="locality" />
		<tag k="ssr:stedsnr" v="410452" />
	</node>
<<<<<<< HEAD
	<node lat="65.71815277914806" lon="12.608527776985003" id="-7246">
		<tag k="name" v="Bjønnvikhågjen" />
=======
	<node id="-129721" lat="65.7138416629" lon="12.4634111195">
		<tag k="name" v="Stallbakkan" />
>>>>>>> e1d4bc35ff8a6074a6f2e91616a996b547c36f15
		<tag k="natural" v="hill" />
		<tag k="place" v="locality" />
		<tag k="ssr:stedsnr" v="410582" />
	</node>
<<<<<<< HEAD
	<node lat="65.65374444814195" lon="12.620741665083635" id="-7247">
		<tag k="name" v="Dalan" />
		<tag k="natural" v="valley" />
		<tag k="place" v="locality" />
		<tag k="ssr:stedsnr" v="410775" />
	</node>
	<node lat="65.6779083316144" lon="12.332886107925649" id="-7249">
		<tag k="name" v="Kvitrabben" />
		<tag k="natural" v="ridge" />
		<tag k="place" v="locality" />
		<tag k="ssr:stedsnr" v="411607" />
	</node>
	<node lat="65.67575000358278" lon="12.331980555597207" id="-7250">
		<tag k="name" v="Krokrabben" />
		<tag k="natural" v="ridge" />
		<tag k="place" v="locality" />
		<tag k="ssr:stedsnr" v="411611" />
	</node>
	<node lat="65.66779166392757" lon="12.40885556519862" id="-7251">
		<tag k="name" v="Kvithøvlan" />
=======
	<node id="-129717" lat="65.6586916662" lon="12.5489666668">
		<tag k="name" v="Småvassdalsfjellet" />
		<tag k="natural" v="cliff" />
		<tag k="ssr:stedsnr" v="714745" />
	</node>
	<node id="-129716" lat="65.5919916693" lon="12.4096000016">
		<tag k="name" v="Vegglia" />
>>>>>>> e1d4bc35ff8a6074a6f2e91616a996b547c36f15
		<tag k="natural" v="slope" />
		<tag k="place" v="locality" />
		<tag k="ssr:stedsnr" v="411669" />
	</node>
<<<<<<< HEAD
	<node lat="65.69711944883902" lon="12.40222778130523" id="-7256">
		<tag k="name" v="Hestunmarka" />
		<tag k="place" v="locality" />
		<tag k="ssr:stedsnr" v="440035" />
	</node>
	<node lat="65.58044444067455" lon="12.85390277725505" id="-7262">
		<tag k="fixme" v="consider natural=peak for the most distinct mountains in the district" />
		<tag k="name" v="Middagsfjellet - Gaskebiejjiensnjurhtjie" />
		<tag k="name:no" v="Middagsfjellet" />
		<tag k="name:sma" v="Gaskebiejjiensnjurhtjie" />
=======
	<node id="-129711" lat="65.6993999992" lon="12.4089305464">
		<tag k="name" v="Torvhågjen" />
>>>>>>> e1d4bc35ff8a6074a6f2e91616a996b547c36f15
		<tag k="natural" v="hill" />
		<tag k="place" v="locality" />
		<tag k="ssr:stedsnr" v="440781" />
	</node>
<<<<<<< HEAD
	<node lat="65.6411388931575" lon="12.769108337385935" id="-7263">
		<tag k="fixme" v="consider natural=peak for the most distinct mountains in the district" />
		<tag k="name" v="Litleklubben" />
		<tag k="natural" v="hill" />
=======
	<node id="-129709" lat="65.7251555584" lon="12.6057888845">
		<tag k="name" v="Grandalen" />
		<tag k="natural" v="valley" />
>>>>>>> e1d4bc35ff8a6074a6f2e91616a996b547c36f15
		<tag k="place" v="locality" />
		<tag k="ssr:stedsnr" v="440840" />
	</node>
<<<<<<< HEAD
	<node lat="65.62328055377631" lon="12.919255557004925" id="-7266">
		<tag k="name" v="Ole-Henriksendalen" />
=======
	<node id="-129705" lat="65.7470527781" lon="12.5764777775">
		<tag k="name" v="Fægdaskardet" />
>>>>>>> e1d4bc35ff8a6074a6f2e91616a996b547c36f15
		<tag k="natural" v="valley" />
		<tag k="place" v="locality" />
		<tag k="ssr:stedsnr" v="440829" />
	</node>
<<<<<<< HEAD
	<node lat="65.70102222669765" lon="12.451769436325804" id="-7269">
		<tag k="alt_name" v="Lislfjellet;Lissfjell" />
		<tag k="fixme" v="consider natural=peak for the most distinct mountains in the district" />
		<tag k="name" v="Lissfjellet" />
		<tag k="natural" v="hill" />
=======
	<node id="-129703" lat="65.7646972217" lon="12.5788972268">
		<tag k="name" v="Bakkan" />
		<tag k="natural" v="slope" />
>>>>>>> e1d4bc35ff8a6074a6f2e91616a996b547c36f15
		<tag k="place" v="locality" />
		<tag k="ssr:stedsnr" v="500011" />
	</node>
	<node lat="65.69061944331476" lon="12.473300003021825" id="-7271">
		<tag k="name" v="Kvannlihumpen" />
		<tag k="natural" v="hill" />
		<tag k="place" v="locality" />
		<tag k="ssr:stedsnr" v="500021" />
	</node>
<<<<<<< HEAD
	<node lat="65.6976833349754" lon="12.464458326267943" id="-7273">
		<tag k="fixme" v="multiple name tags, choose one and add the other to alt_name" />
		<tag k="name" v="Vevelstadgrønlia;Nergrønnlia" />
		<tag k="natural" v="slope" />
=======
	<node id="-129699" lat="65.760972218" lon="12.5785750044">
		<tag k="name" v="Klemethågjen" />
		<tag k="natural" v="ridge" />
>>>>>>> e1d4bc35ff8a6074a6f2e91616a996b547c36f15
		<tag k="place" v="locality" />
		<tag k="ssr:stedsnr" v="500030" />
	</node>
<<<<<<< HEAD
	<node lat="65.64726111180238" lon="12.44477500655325" id="-7274">
		<tag k="fixme" v="consider natural=peak for the most distinct mountains in the district" />
		<tag k="name" v="Høyholmstindan" />
		<tag k="natural" v="hill" />
=======
	<node id="-129698" lat="65.7514472202" lon="12.5392416731">
		<tag k="name" v="Sørkalvhyllo" />
>>>>>>> e1d4bc35ff8a6074a6f2e91616a996b547c36f15
		<tag k="place" v="locality" />
		<tag k="ssr:stedsnr" v="500118" />
	</node>
<<<<<<< HEAD
	<node lat="65.66055278112088" lon="12.322500006396632" id="-7277">
=======
	<node id="-129697" lat="65.6131583379" lon="12.3898555511">
>>>>>>> e1d4bc35ff8a6074a6f2e91616a996b547c36f15
		<tag k="fixme" v="consider natural=peak for the most distinct mountains in the district" />
		<tag k="name" v="Middagslifjellet" />
		<tag k="natural" v="hill" />
		<tag k="place" v="locality" />
		<tag k="ssr:stedsnr" v="501096" />
	</node>
<<<<<<< HEAD
	<node lat="65.66204444817586" lon="12.573791669770682" id="-7279">
=======
	<node id="-129693" lat="65.6038750027" lon="12.7658083367">
>>>>>>> e1d4bc35ff8a6074a6f2e91616a996b547c36f15
		<tag k="fixme" v="consider natural=peak for the most distinct mountains in the district" />
		<tag k="name" v="Strandfjellet" />
		<tag k="natural" v="hill" />
		<tag k="place" v="locality" />
		<tag k="ssr:stedsnr" v="501046" />
	</node>
<<<<<<< HEAD
	<node lat="65.67485832945137" lon="12.56022500237705" id="-7280">
		<tag k="fixme" v="consider natural=peak for the most distinct mountains in the district" />
		<tag k="name" v="Bjørklifjellet" />
		<tag k="natural" v="hill" />
=======
	<node id="-129692" lat="65.5891611147" lon="12.7390305519">
		<tag k="name" v="Snøfjellbotnet" />
		<tag k="natural" v="valley" />
>>>>>>> e1d4bc35ff8a6074a6f2e91616a996b547c36f15
		<tag k="place" v="locality" />
		<tag k="ssr:stedsnr" v="501051" />
	</node>
<<<<<<< HEAD
	<node lat="65.74168611211101" lon="12.569069452817082" id="-7285">
		<tag k="name" v="Aspdalen" />
=======
	<node id="-129690" lat="65.6441916693" lon="12.6161388965">
		<tag k="name" v="Klaven" />
>>>>>>> e1d4bc35ff8a6074a6f2e91616a996b547c36f15
		<tag k="natural" v="valley" />
		<tag k="place" v="locality" />
		<tag k="ssr:stedsnr" v="532356" />
	</node>
<<<<<<< HEAD
	<node lat="65.74100278021513" lon="12.579333343856954" id="-7286">
		<tag k="name" v="Visthusskardet" />
=======
	<node id="-129688" lat="65.6756583377" lon="12.3614638959">
		<tag k="name" v="Dalan" />
>>>>>>> e1d4bc35ff8a6074a6f2e91616a996b547c36f15
		<tag k="natural" v="valley" />
		<tag k="place" v="locality" />
		<tag k="ssr:stedsnr" v="532360" />
	</node>
<<<<<<< HEAD
	<node lat="65.68420555955595" lon="12.430772232754526" id="-7290">
		<tag k="name" v="Stormoen" />
=======
	<node id="-129687" lat="65.6940250038" lon="12.4830416737">
		<tag k="name" v="Grønlihumpen" />
		<tag k="natural" v="hill" />
>>>>>>> e1d4bc35ff8a6074a6f2e91616a996b547c36f15
		<tag k="place" v="locality" />
		<tag k="ssr:stedsnr" v="532655" />
	</node>
<<<<<<< HEAD
	<node lat="65.6656944432014" lon="12.698200000438211" id="-7294">
=======
	<node id="-129686" lat="65.6656944432" lon="12.6982000004">
>>>>>>> e1d4bc35ff8a6074a6f2e91616a996b547c36f15
		<tag k="fixme" v="consider natural=peak for the most distinct mountains in the district" />
		<tag k="name" v="Tverrlandsfjellet" />
		<tag k="natural" v="hill" />
		<tag k="place" v="locality" />
		<tag k="ssr:stedsnr" v="560072" />
	</node>
<<<<<<< HEAD
	<node lat="65.69220277704922" lon="12.596277774233442" id="-7295">
		<tag k="fixme" v="consider natural=peak for the most distinct mountains in the district" />
		<tag k="name" v="Lifjellet" />
		<tag k="natural" v="hill" />
=======
	<node id="-129683" lat="65.6182361147" lon="12.3752944419">
		<tag k="name" v="Ola Amundsenlia" />
		<tag k="natural" v="slope" />
>>>>>>> e1d4bc35ff8a6074a6f2e91616a996b547c36f15
		<tag k="place" v="locality" />
		<tag k="ssr:stedsnr" v="561045" />
	</node>
<<<<<<< HEAD
	<node lat="65.67565833765335" lon="12.361463895931655" id="-7296">
		<tag k="name" v="Dalan" />
=======
	<node id="-129680" lat="65.690094441" lon="12.4012805614">
		<tag k="name" v="Halsen" />
>>>>>>> e1d4bc35ff8a6074a6f2e91616a996b547c36f15
		<tag k="natural" v="valley" />
		<tag k="place" v="locality" />
		<tag k="ssr:stedsnr" v="561059" />
	</node>
<<<<<<< HEAD
	<node lat="65.69402500375216" lon="12.483041673650002" id="-7298">
		<tag k="name" v="Grønlihumpen" />
=======
	<node id="-129677" lat="65.5867722224" lon="12.756925005">
		<tag k="fixme" v="consider natural=peak for the most distinct mountains in the district" />
		<tag k="name" v="Rubben" />
>>>>>>> e1d4bc35ff8a6074a6f2e91616a996b547c36f15
		<tag k="natural" v="hill" />
		<tag k="place" v="locality" />
		<tag k="ssr:stedsnr" v="561025" />
	</node>
<<<<<<< HEAD
	<node lat="65.64419166932569" lon="12.616138896540882" id="-7300">
		<tag k="name" v="Klaven" />
		<tag k="natural" v="valley" />
=======
	<node id="-129672" lat="65.6727777801" lon="12.3397277699">
		<tag k="fixme" v="consider natural=peak for the most distinct mountains in the district" />
		<tag k="name" v="Hamnfjellet" />
		<tag k="natural" v="hill" />
>>>>>>> e1d4bc35ff8a6074a6f2e91616a996b547c36f15
		<tag k="place" v="locality" />
		<tag k="ssr:stedsnr" v="561123" />
	</node>
<<<<<<< HEAD
	<node lat="65.7284055542906" lon="12.507324991891519" id="-7304">
		<tag k="name" v="Vistneshatten" />
=======
	<node id="-129669" lat="65.731613885" lon="12.4968055521">
		<tag k="name" v="Middagshaugen" />
>>>>>>> e1d4bc35ff8a6074a6f2e91616a996b547c36f15
		<tag k="natural" v="hill" />
		<tag k="place" v="locality" />
		<tag k="ssr:stedsnr" v="561227" />
	</node>
<<<<<<< HEAD
	<node lat="65.58916111470688" lon="12.739030551896372" id="-7307">
		<tag k="name" v="Snøfjellbotnet" />
		<tag k="natural" v="valley" />
=======
	<node id="-129657" lat="65.6363499986" lon="12.7210750039">
		<tag k="name" v="Grovan" />
		<tag k="natural" v="slope" />
>>>>>>> e1d4bc35ff8a6074a6f2e91616a996b547c36f15
		<tag k="place" v="locality" />
		<tag k="ssr:stedsnr" v="561675" />
	</node>
<<<<<<< HEAD
	<node lat="65.5812583343199" lon="12.731597230441608" id="-7308">
=======
	<node id="-129653" lat="65.6472611118" lon="12.4447750066">
>>>>>>> e1d4bc35ff8a6074a6f2e91616a996b547c36f15
		<tag k="fixme" v="consider natural=peak for the most distinct mountains in the district" />
		<tag k="name" v="Raudmotinden" />
		<tag k="natural" v="hill" />
		<tag k="place" v="locality" />
		<tag k="ssr:stedsnr" v="561681" />
	</node>
<<<<<<< HEAD
	<node lat="65.60387500267503" lon="12.76580833671468" id="-7311">
=======
	<node id="-129651" lat="65.5804444407" lon="12.8539027773">
>>>>>>> e1d4bc35ff8a6074a6f2e91616a996b547c36f15
		<tag k="fixme" v="consider natural=peak for the most distinct mountains in the district" />
		<tag k="name" v="Båtvikfjellet" />
		<tag k="natural" v="hill" />
		<tag k="place" v="locality" />
<<<<<<< HEAD
		<tag k="ssr:stedsnr" v="561807" />
	</node>
	<node lat="65.55750833393245" lon="12.420516669489126" id="-7316">
=======
		<tag k="ssr:stedsnr" v="440781" />
	</node>
	<node id="-129649" lat="65.6026250033" lon="12.4064888853">
		<tag k="name" v="Fagerlia" />
		<tag k="natural" v="slope" />
		<tag k="place" v="locality" />
		<tag k="ssr:stedsnr" v="501926" />
	</node>
	<node id="-129644" lat="65.6748583295" lon="12.5602250024">
>>>>>>> e1d4bc35ff8a6074a6f2e91616a996b547c36f15
		<tag k="fixme" v="consider natural=peak for the most distinct mountains in the district" />
		<tag k="name" v="Andalshatten" />
		<tag k="natural" v="hill" />
		<tag k="place" v="locality" />
		<tag k="ssr:stedsnr" v="561999" />
	</node>
<<<<<<< HEAD
	<node lat="65.61315833786725" lon="12.389855551135028" id="-7319">
=======
	<node id="-129643" lat="65.6620444482" lon="12.5737916698">
>>>>>>> e1d4bc35ff8a6074a6f2e91616a996b547c36f15
		<tag k="fixme" v="consider natural=peak for the most distinct mountains in the district" />
		<tag k="name" v="Hanslikammen" />
		<tag k="natural" v="hill" />
		<tag k="place" v="locality" />
		<tag k="ssr:stedsnr" v="561927" />
	</node>
<<<<<<< HEAD
	<node lat="65.56240555938224" lon="12.707033327091766" id="-7320">
		<tag k="name" v="Sprutdalen" />
		<tag k="natural" v="valley" />
=======
	<node id="-129641" lat="65.6605527811" lon="12.3225000064">
		<tag k="fixme" v="consider natural=peak for the most distinct mountains in the district" />
		<tag k="name" v="Middagslifjellet" />
		<tag k="natural" v="hill" />
>>>>>>> e1d4bc35ff8a6074a6f2e91616a996b547c36f15
		<tag k="place" v="locality" />
		<tag k="ssr:stedsnr" v="561975" />
	</node>
<<<<<<< HEAD
	<node lat="65.76516944410928" lon="12.57628887838855" id="-7322">
		<tag k="name" v="Hammaren" />
		<tag k="natural" v="cliff" />
		<tag k="ssr:stedsnr" v="592340" />
	</node>
	<node lat="65.75144722019303" lon="12.539241673128318" id="-7324">
		<tag k="name" v="Sørkalvhyllo" />
=======
	<node id="-129639" lat="65.7257888854" lon="12.7842277778">
		<tag k="fixme" v="consider natural=peak for the most distinct mountains in the district" />
		<tag k="name" v="Finnknefjellan" />
		<tag k="natural" v="hill" />
>>>>>>> e1d4bc35ff8a6074a6f2e91616a996b547c36f15
		<tag k="place" v="locality" />
		<tag k="ssr:stedsnr" v="592428" />
	</node>
<<<<<<< HEAD
	<node lat="65.7609722179669" lon="12.578575004390926" id="-7325">
		<tag k="name" v="Klemethågjen" />
		<tag k="natural" v="ridge" />
=======
	<node id="-129635" lat="65.697683335" lon="12.4644583263">
		<tag k="fixme" v="multiple name tags, choose one and add the other to alt_name" />
		<tag k="name" v="Nergrønnlia;Vevelstadgrønlia" />
		<tag k="natural" v="slope" />
>>>>>>> e1d4bc35ff8a6074a6f2e91616a996b547c36f15
		<tag k="place" v="locality" />
		<tag k="ssr:stedsnr" v="592439" />
	</node>
<<<<<<< HEAD
	<node lat="65.71873611553377" lon="12.44464167116378" id="-7328">
		<tag k="name" v="Hulderhågjen" />
=======
	<node id="-129633" lat="65.6906194433" lon="12.473300003">
		<tag k="name" v="Kvannlihumpen" />
>>>>>>> e1d4bc35ff8a6074a6f2e91616a996b547c36f15
		<tag k="natural" v="hill" />
		<tag k="place" v="locality" />
		<tag k="ssr:stedsnr" v="592487" />
	</node>
<<<<<<< HEAD
	<node lat="65.67219722380194" lon="12.32899443507024" id="-7334">
		<tag k="name" v="Nordlia" />
		<tag k="natural" v="slope" />
=======
	<node id="-129631" lat="65.7010222267" lon="12.4517694363">
		<tag k="alt_name" v="Lislfjellet;Lissfjell" />
		<tag k="fixme" v="consider natural=peak for the most distinct mountains in the district" />
		<tag k="name" v="Lissfjellet" />
		<tag k="natural" v="hill" />
>>>>>>> e1d4bc35ff8a6074a6f2e91616a996b547c36f15
		<tag k="place" v="locality" />
		<tag k="ssr:stedsnr" v="592727" />
	</node>
<<<<<<< HEAD
	<node lat="65.63982778184086" lon="12.601386120348472" id="-7336">
		<tag k="name" v="Innerlia" />
=======
	<node id="-129627" lat="65.5969333326" lon="12.3767027842">
		<tag k="name" v="Forskogen" />
>>>>>>> e1d4bc35ff8a6074a6f2e91616a996b547c36f15
		<tag k="natural" v="slope" />
		<tag k="place" v="locality" />
		<tag k="ssr:stedsnr" v="592831" />
	</node>
<<<<<<< HEAD
	<node lat="65.63728332904002" lon="12.602313896560606" id="-7337">
		<tag k="name" v="Gråfjellet" />
=======
	<node id="-129625" lat="65.6898777761" lon="12.5752500007">
		<tag k="fixme" v="consider natural=peak for the most distinct mountains in the district" />
		<tag k="name" v="Nonsfjellet" />
>>>>>>> e1d4bc35ff8a6074a6f2e91616a996b547c36f15
		<tag k="natural" v="hill" />
		<tag k="place" v="locality" />
		<tag k="ssr:stedsnr" v="592832" />
	</node>
<<<<<<< HEAD
	<node lat="65.70321111132668" lon="12.414016674686474" id="-7338">
		<tag k="name" v="Alberthågjen" />
=======
	<node id="-129623" lat="65.7402583364" lon="12.5842416715">
		<tag k="fixme" v="consider natural=peak for the most distinct mountains in the district" />
		<tag k="name" v="Svartåsen" />
>>>>>>> e1d4bc35ff8a6074a6f2e91616a996b547c36f15
		<tag k="natural" v="hill" />
		<tag k="place" v="locality" />
		<tag k="ssr:stedsnr" v="592583" />
	</node>
	<node lat="65.67661389024049" lon="12.335388885946433" id="-7340">
		<tag k="name" v="Trollholet" />
		<tag k="natural" v="valley" />
		<tag k="place" v="locality" />
		<tag k="ssr:stedsnr" v="592678" />
	</node>
	<node lat="65.65469999609746" lon="12.307927779498124" id="-7341">
		<tag k="name" v="Singerholet" />
		<tag k="natural" v="valley" />
		<tag k="place" v="locality" />
		<tag k="ssr:stedsnr" v="592786" />
	</node>
	<node lat="65.64738055388679" lon="12.531241674819126" id="-7344">
		<tag k="name" v="Tasslihalsen" />
		<tag k="natural" v="valley" />
		<tag k="place" v="locality" />
		<tag k="ssr:stedsnr" v="621105" />
	</node>
	<node lat="65.71612500060114" lon="12.492936107490667" id="-7345">
		<tag k="name" v="Strupen" />
		<tag k="natural" v="valley" />
		<tag k="place" v="locality" />
		<tag k="ssr:stedsnr" v="621247" />
	</node>
<<<<<<< HEAD
	<node lat="65.603063890537" lon="12.995330548703805" id="-7353">
=======
	<node id="-129622" lat="65.7425694433" lon="12.5719916688">
>>>>>>> e1d4bc35ff8a6074a6f2e91616a996b547c36f15
		<tag k="fixme" v="consider natural=peak for the most distinct mountains in the district" />
		<tag k="name" v="Storvassfjellet - Stoerrevaerie" />
		<tag k="name:no" v="Storvassfjellet" />
		<tag k="name:sma" v="Stoerrevaerie" />
		<tag k="natural" v="hill" />
		<tag k="place" v="locality" />
		<tag k="ssr:stedsnr" v="622660" />
	</node>
<<<<<<< HEAD
	<node lat="65.71986111548777" lon="12.445630560582098" id="-7357">
		<tag k="name" v="Heilvikhågjen" />
=======
	<node id="-129610" lat="65.6719166688" lon="12.3220444469">
		<tag k="name" v="Grønnhågjen" />
>>>>>>> e1d4bc35ff8a6074a6f2e91616a996b547c36f15
		<tag k="natural" v="hill" />
		<tag k="place" v="locality" />
		<tag k="ssr:stedsnr" v="653434" />
	</node>
<<<<<<< HEAD
	<node lat="65.73569721790236" lon="12.597777778946712" id="-7358">
		<tag k="name" v="Høglia" />
=======
	<node id="-129609" lat="65.6860555575" lon="12.4471666665">
		<tag k="name" v="Småholan" />
>>>>>>> e1d4bc35ff8a6074a6f2e91616a996b547c36f15
		<tag k="natural" v="slope" />
		<tag k="place" v="locality" />
		<tag k="ssr:stedsnr" v="653458" />
	</node>
<<<<<<< HEAD
	<node lat="65.71384166292344" lon="12.463411119475685" id="-7359">
		<tag k="name" v="Stallbakkan" />
		<tag k="natural" v="hill" />
		<tag k="place" v="locality" />
		<tag k="ssr:stedsnr" v="653524" />
	</node>
	<node lat="65.68143888774257" lon="12.438908322811235" id="-7362">
		<tag k="name" v="Slettheia" />
=======
	<node id="-129608" lat="65.6866749992" lon="12.4281944544">
		<tag k="name" v="Osphågjen" />
		<tag k="natural" v="hill" />
		<tag k="place" v="locality" />
		<tag k="ssr:stedsnr" v="471671" />
	</node>
	<node id="-129600" lat="65.7365222198" lon="12.5780277685">
		<tag k="name" v="Strandheveln" />
		<tag k="natural" v="ridge" />
		<tag k="place" v="locality" />
		<tag k="ssr:stedsnr" v="471499" />
	</node>
	<node id="-129595" lat="65.7422250026" lon="12.5759444365">
		<tag k="name" v="Høglia" />
>>>>>>> e1d4bc35ff8a6074a6f2e91616a996b547c36f15
		<tag k="natural" v="slope" />
		<tag k="place" v="locality" />
		<tag k="ssr:stedsnr" v="653685" />
	</node>
<<<<<<< HEAD
	<node lat="65.64633610819706" lon="12.618847228960492" id="-7363">
		<tag k="name" v="Botnan" />
		<tag k="natural" v="valley" />
=======
	<node id="-129593" lat="65.7057361072" lon="12.4617333242">
		<tag k="name" v="Nybrotet" />
>>>>>>> e1d4bc35ff8a6074a6f2e91616a996b547c36f15
		<tag k="place" v="locality" />
		<tag k="ssr:stedsnr" v="653796" />
	</node>
<<<<<<< HEAD
	<node lat="65.63725833046468" lon="12.618386108760939" id="-7364">
		<tag k="name" v="Tømmerdalen" />
		<tag k="natural" v="valley" />
=======
	<node id="-129592" lat="65.7042083333" lon="12.4557666765">
		<tag k="name" v="Hestgjerdet" />
		<tag k="natural" v="ridge" />
>>>>>>> e1d4bc35ff8a6074a6f2e91616a996b547c36f15
		<tag k="place" v="locality" />
		<tag k="ssr:stedsnr" v="653800" />
	</node>
<<<<<<< HEAD
	<node lat="65.64226111339144" lon="12.381416658720534" id="-7366">
		<tag k="name" v="Bjørklia" />
=======
	<node id="-129588" lat="65.6616361154" lon="12.3204888991">
		<tag k="name" v="Middagslia" />
>>>>>>> e1d4bc35ff8a6074a6f2e91616a996b547c36f15
		<tag k="natural" v="slope" />
		<tag k="place" v="locality" />
		<tag k="ssr:stedsnr" v="653809" />
	</node>
<<<<<<< HEAD
	<node lat="65.68066388553318" lon="12.336663887112701" id="-7371">
		<tag k="name" v="Oksdalen" />
		<tag k="natural" v="valley" />
=======
	<node id="-129586" lat="65.7471027734" lon="12.5925722256">
		<tag k="name" v="Brennheia" />
		<tag k="natural" v="ridge" />
>>>>>>> e1d4bc35ff8a6074a6f2e91616a996b547c36f15
		<tag k="place" v="locality" />
		<tag k="ssr:stedsnr" v="653660" />
	</node>
<<<<<<< HEAD
	<node lat="65.66060833561436" lon="12.40384445370948" id="-7373">
		<tag k="name" v="Kvitfjellet" />
=======
	<node id="-129582" lat="65.6617861156" lon="12.7575472204">
		<tag k="fixme" v="consider natural=peak for the most distinct mountains in the district" />
		<tag k="name" v="Åsan" />
>>>>>>> e1d4bc35ff8a6074a6f2e91616a996b547c36f15
		<tag k="natural" v="hill" />
		<tag k="place" v="locality" />
		<tag k="ssr:stedsnr" v="653775" />
	</node>
<<<<<<< HEAD
	<node lat="65.75971944699324" lon="12.566605561229725" id="-7374">
		<tag k="name" v="Gjøtstrupen" />
=======
	<node id="-129581" lat="65.6624361075" lon="12.765024995">
		<tag k="name" v="Bønnådalen" />
>>>>>>> e1d4bc35ff8a6074a6f2e91616a996b547c36f15
		<tag k="natural" v="valley" />
		<tag k="place" v="locality" />
		<tag k="ssr:stedsnr" v="713419" />
	</node>
<<<<<<< HEAD
	<node lat="65.7470527781412" lon="12.576477777473634" id="-7375">
		<tag k="name" v="Fægdaskardet" />
=======
	<node id="-129578" lat="65.5908805554" lon="12.8097055662">
		<tag k="name" v="Kalvdalen" />
>>>>>>> e1d4bc35ff8a6074a6f2e91616a996b547c36f15
		<tag k="natural" v="valley" />
		<tag k="place" v="locality" />
		<tag k="ssr:stedsnr" v="714333" />
	</node>
<<<<<<< HEAD
	<node lat="65.6993999991797" lon="12.408930546427312" id="-7378">
		<tag k="name" v="Torvhågjen" />
=======
	<node id="-129577" lat="65.68915278" lon="12.7815305668">
		<tag k="fixme" v="consider natural=peak for the most distinct mountains in the district" />
		<tag k="name" v="Storfjellet" />
>>>>>>> e1d4bc35ff8a6074a6f2e91616a996b547c36f15
		<tag k="natural" v="hill" />
		<tag k="place" v="locality" />
		<tag k="ssr:stedsnr" v="714550" />
	</node>
<<<<<<< HEAD
	<node lat="65.69509722192778" lon="12.460000003998239" id="-7379">
		<tag k="name" v="Trollbergan" />
		<tag k="natural" v="cliff" />
		<tag k="ssr:stedsnr" v="714557" />
	</node>
	<node lat="65.65869166623328" lon="12.548966666791546" id="-7381">
		<tag k="name" v="Småvassdalsfjellet" />
		<tag k="natural" v="cliff" />
		<tag k="ssr:stedsnr" v="714745" />
	</node>
	<node lat="65.63267777945457" lon="12.510125010186037" id="-7392">
		<tag k="name" v="Storhaugen" />
		<tag k="natural" v="hill" />
=======
	<node id="-129576" lat="65.6701194478" lon="12.5265250081">
		<tag k="name" v="Kilmarkdalen" />
		<tag k="natural" v="valley" />
		<tag k="place" v="locality" />
		<tag k="ssr:stedsnr" v="258076" />
	</node>
	<node id="-129573" lat="65.7106166694" lon="12.6309305598">
		<tag k="name" v="Aunfloget" />
		<tag k="natural" v="slope" />
>>>>>>> e1d4bc35ff8a6074a6f2e91616a996b547c36f15
		<tag k="place" v="locality" />
		<tag k="ssr:stedsnr" v="743126" />
	</node>
<<<<<<< HEAD
	<node lat="65.69950555805971" lon="12.903347216004725" id="-7396">
		<tag k="fixme" v="consider natural=peak for the most distinct mountains in the district" />
		<tag k="name" v="Burrienvaerie" />
		<tag k="name:sma" v="Burrienvaerie" />
		<tag k="natural" v="hill" />
=======
	<node id="-129571" lat="65.7046888911" lon="12.469513888">
		<tag k="name" v="Geitkrækern" />
		<tag k="natural" v="slope" />
>>>>>>> e1d4bc35ff8a6074a6f2e91616a996b547c36f15
		<tag k="place" v="locality" />
		<tag k="ssr:stedsnr" v="743769" />
	</node>
<<<<<<< HEAD
	<node lat="65.69767222079032" lon="12.827130547325737" id="-7397">
		<tag k="name" v="Nordvassdalen" />
=======
	<node id="-129570" lat="65.6598222239" lon="12.6339888805">
		<tag k="name" v="Husvikdalen" />
>>>>>>> e1d4bc35ff8a6074a6f2e91616a996b547c36f15
		<tag k="natural" v="valley" />
		<tag k="place" v="locality" />
		<tag k="ssr:stedsnr" v="743772" />
	</node>
<<<<<<< HEAD
	<node lat="65.68564167109413" lon="12.52578055606042" id="-7398">
		<tag k="name" v="Snødalen" />
=======
	<node id="-129569" lat="65.6943527753" lon="12.396008331">
		<tag k="name" v="Storhågskardet" />
>>>>>>> e1d4bc35ff8a6074a6f2e91616a996b547c36f15
		<tag k="natural" v="valley" />
		<tag k="place" v="locality" />
		<tag k="ssr:stedsnr" v="743044" />
	</node>
<<<<<<< HEAD
	<node lat="65.67539999962739" lon="12.33823056629368" id="-7402">
		<tag k="name" v="Trollhola" />
		<tag k="natural" v="valley" />
=======
	<node id="-129567" lat="65.7043916693" lon="12.416613885">
		<tag k="name" v="Hammaren" />
		<tag k="natural" v="ridge" />
>>>>>>> e1d4bc35ff8a6074a6f2e91616a996b547c36f15
		<tag k="place" v="locality" />
		<tag k="ssr:stedsnr" v="743076" />
	</node>
<<<<<<< HEAD
	<node lat="65.64126944437947" lon="12.66686666167117" id="-7404">
		<tag k="fixme" v="consider natural=peak for the most distinct mountains in the district" />
		<tag k="name" v="Tangvikfjellet" />
		<tag k="natural" v="hill" />
		<tag k="place" v="locality" />
		<tag k="ssr:stedsnr" v="743130" />
	</node>
	<node lat="65.64686666776123" lon="12.777102768617912" id="-7406">
=======
	<node id="-129566" lat="65.7343722226" lon="12.4985166652">
		<tag k="name" v="Låvhågjen" />
		<tag k="natural" v="hill" />
		<tag k="place" v="locality" />
		<tag k="ssr:stedsnr" v="228465" />
	</node>
	<node id="-129565" lat="65.7607611103" lon="12.5708333428">
		<tag k="name" v="Øvergjøthågjen" />
		<tag k="natural" v="ridge" />
		<tag k="place" v="locality" />
		<tag k="ssr:stedsnr" v="228459" />
	</node>
	<node id="-129559" lat="65.6411388932" lon="12.7691083374">
>>>>>>> e1d4bc35ff8a6074a6f2e91616a996b547c36f15
		<tag k="fixme" v="consider natural=peak for the most distinct mountains in the district" />
		<tag k="name" v="Bønnåklubben" />
		<tag k="natural" v="hill" />
		<tag k="place" v="locality" />
<<<<<<< HEAD
		<tag k="ssr:stedsnr" v="743857" />
	</node>
	<node lat="65.7066638930232" lon="12.400319451244059" id="-7410">
=======
		<tag k="ssr:stedsnr" v="440840" />
	</node>
	<node id="-129558" lat="65.6232805538" lon="12.919255557">
		<tag k="name" v="Ole-Henriksendalen" />
		<tag k="natural" v="valley" />
		<tag k="place" v="locality" />
		<tag k="ssr:stedsnr" v="440829" />
	</node>
	<node id="-129550" lat="65.6703333287" lon="12.3340083434">
>>>>>>> e1d4bc35ff8a6074a6f2e91616a996b547c36f15
		<tag k="fixme" v="consider natural=peak for the most distinct mountains in the district" />
		<tag k="name" v="Juvikhågjen" />
		<tag k="natural" v="hill" />
		<tag k="place" v="locality" />
		<tag k="ssr:stedsnr" v="774602" />
	</node>
<<<<<<< HEAD
	<node lat="65.74373889189408" lon="12.588227771183444" id="-7412">
		<tag k="name" v="Hælingshågjen" />
=======
	<node id="-129548" lat="65.6716083298" lon="12.5850333368">
		<tag k="fixme" v="consider natural=peak for the most distinct mountains in the district" />
		<tag k="name" v="Langkiltinden" />
>>>>>>> e1d4bc35ff8a6074a6f2e91616a996b547c36f15
		<tag k="natural" v="hill" />
		<tag k="place" v="locality" />
		<tag k="ssr:stedsnr" v="774439" />
	</node>
<<<<<<< HEAD
	<node lat="65.72311110751156" lon="12.495605551155988" id="-7414">
		<tag k="name" v="Dallia" />
=======
	<node id="-129547" lat="65.6692250039" lon="12.5622694352">
		<tag k="name" v="Krokhyllan" />
>>>>>>> e1d4bc35ff8a6074a6f2e91616a996b547c36f15
		<tag k="natural" v="slope" />
		<tag k="place" v="locality" />
		<tag k="ssr:stedsnr" v="774592" />
	</node>
<<<<<<< HEAD
	<node lat="65.67217222384986" lon="12.335191663594472" id="-7418">
		<tag k="name" v="Ravnfloget" />
		<tag k="natural" v="cliff" />
		<tag k="ssr:stedsnr" v="775589" />
	</node>
	<node lat="65.6319500028513" lon="12.375433342461383" id="-7420">
		<tag k="name" v="Kjerringlia" />
		<tag k="natural" v="slope" />
=======
	<node id="-129541" lat="65.6799805575" lon="12.5527416767">
		<tag k="alt_name" v="Jakopdalen" />
		<tag k="name" v="Jakobdalen" />
		<tag k="natural" v="valley" />
>>>>>>> e1d4bc35ff8a6074a6f2e91616a996b547c36f15
		<tag k="place" v="locality" />
		<tag k="ssr:stedsnr" v="775785" />
	</node>
<<<<<<< HEAD
	<node lat="65.6847527781143" lon="12.632966663803519" id="-7421">
		<tag k="name" v="Blåvikfjellet" />
		<tag k="natural" v="hill" />
=======
	<node id="-129539" lat="65.6971194488" lon="12.4022277813">
		<tag k="name" v="Hestunmarka" />
>>>>>>> e1d4bc35ff8a6074a6f2e91616a996b547c36f15
		<tag k="place" v="locality" />
		<tag k="ssr:stedsnr" v="775620" />
	</node>
<<<<<<< HEAD
	<node lat="65.67627222669832" lon="12.411200000925739" id="-7422">
		<tag k="name" v="Gjerdehågjen" />
		<tag k="natural" v="hill" />
		<tag k="place" v="locality" />
		<tag k="ssr:stedsnr" v="775682" />
	</node>
	<node lat="65.67004721812602" lon="12.41439722618931" id="-7424">
		<tag k="name" v="Ladalan" />
=======
	<node id="-129537" lat="65.6946888889" lon="12.5473750087">
		<tag k="name" v="Snøfjelldalen" />
>>>>>>> e1d4bc35ff8a6074a6f2e91616a996b547c36f15
		<tag k="natural" v="valley" />
		<tag k="place" v="locality" />
		<tag k="ssr:stedsnr" v="775741" />
	</node>
<<<<<<< HEAD
	<node lat="65.64907500240373" lon="12.392255565477154" id="-7426">
		<tag k="name" v="Bustiholo" />
=======
	<node id="-129529" lat="65.6185333312" lon="12.6942388825">
		<tag k="name" v="Strumpdalsbotnet" />
>>>>>>> e1d4bc35ff8a6074a6f2e91616a996b547c36f15
		<tag k="natural" v="valley" />
		<tag k="place" v="locality" />
		<tag k="ssr:stedsnr" v="775750" />
	</node>
<<<<<<< HEAD
	<node lat="65.63605277953349" lon="12.535074991707377" id="-7432">
		<tag k="fixme" v="consider natural=peak for the most distinct mountains in the district" />
		<tag k="name" v="Nilslitinden" />
=======
	<node id="-129525" lat="65.64919167" lon="12.619277779">
		<tag k="name" v="Nonshaugen" />
>>>>>>> e1d4bc35ff8a6074a6f2e91616a996b547c36f15
		<tag k="natural" v="hill" />
		<tag k="place" v="locality" />
		<tag k="ssr:stedsnr" v="804141" />
	</node>
<<<<<<< HEAD
	<node lat="65.58194999887252" lon="12.447991676000825" id="-7436">
		<tag k="fixme" v="consider natural=peak for the most distinct mountains in the district" />
		<tag k="name" v="Rundfjellet" />
=======
	<node id="-129523" lat="65.6932972186" lon="12.3930833284">
		<tag k="alt_name" v="Storhaugen" />
		<tag k="name" v="Storhågjen" />
>>>>>>> e1d4bc35ff8a6074a6f2e91616a996b547c36f15
		<tag k="natural" v="hill" />
		<tag k="place" v="locality" />
		<tag k="ssr:stedsnr" v="804899" />
	</node>
<<<<<<< HEAD
	<node lat="65.66030833497888" lon="12.514561114299898" id="-7438">
		<tag k="name" v="Spruten" />
=======
	<node id="-129521" lat="65.656852776" lon="12.3155694525">
		<tag k="name" v="Bonsteinklaven" />
>>>>>>> e1d4bc35ff8a6074a6f2e91616a996b547c36f15
		<tag k="natural" v="valley" />
		<tag k="place" v="locality" />
		<tag k="ssr:stedsnr" v="805090" />
	</node>
<<<<<<< HEAD
	<node lat="65.65840555197913" lon="12.35071389801876" id="-7439">
		<tag k="name" v="Rundhaugen" />
		<tag k="natural" v="hill" />
=======
	<node id="-129513" lat="65.7263861093" lon="12.5053194543">
		<tag k="name" v="Kirstenskogen" />
		<tag k="natural" v="slope" />
>>>>>>> e1d4bc35ff8a6074a6f2e91616a996b547c36f15
		<tag k="place" v="locality" />
		<tag k="ssr:stedsnr" v="805092" />
	</node>
<<<<<<< HEAD
	<node lat="65.7356111132455" lon="12.615336101598041" id="-7441">
		<tag k="name" v="Geitskardholten" />
=======
	<node id="-129511" lat="65.7623333295" lon="12.5694833334">
		<tag k="fixme" v="consider natural=peak for the most distinct mountains in the district" />
		<tag k="name" v="Storhågjen" />
>>>>>>> e1d4bc35ff8a6074a6f2e91616a996b547c36f15
		<tag k="natural" v="hill" />
		<tag k="place" v="locality" />
		<tag k="ssr:stedsnr" v="804257" />
	</node>
<<<<<<< HEAD
	<node lat="65.63204167052216" lon="12.813011107554395" id="-7444">
		<tag k="alt_name" v="Austerfjorddalen, s" />
		<tag k="name" v="Søre Austerfjorddalen" />
		<tag k="natural" v="valley" />
=======
	<node id="-129509" lat="65.5941861103" lon="12.4263138893">
		<tag k="name" v="Botnlia" />
		<tag k="natural" v="slope" />
>>>>>>> e1d4bc35ff8a6074a6f2e91616a996b547c36f15
		<tag k="place" v="locality" />
		<tag k="ssr:stedsnr" v="804837" />
	</node>
<<<<<<< HEAD
	<node lat="65.62509166781884" lon="12.900258335387731" id="-7445">
		<tag k="fixme" v="consider natural=peak for the most distinct mountains in the district" />
		<tag k="name" v="Mandagsfjellet" />
=======
	<node id="-129508" lat="65.6504472247" lon="12.6374833333">
		<tag k="name" v="Syhågjen" />
>>>>>>> e1d4bc35ff8a6074a6f2e91616a996b547c36f15
		<tag k="natural" v="hill" />
		<tag k="place" v="locality" />
		<tag k="ssr:stedsnr" v="804838" />
	</node>
<<<<<<< HEAD
	<node lat="65.72642778013582" lon="12.71474721972512" id="-7448">
		<tag k="fixme" v="consider natural=peak for the most distinct mountains in the district" />
		<tag k="name" v="Klubben" />
		<tag k="natural" v="hill" />
		<tag k="place" v="locality" />
		<tag k="ssr:stedsnr" v="805191" />
	</node>
	<node lat="65.7543222209939" lon="12.560394454015553" id="-7452">
		<tag k="name" v="Toppdalen" />
=======
	<node id="-129505" lat="65.6885611089" lon="12.3963888898">
		<tag k="name" v="Ervikja" />
>>>>>>> e1d4bc35ff8a6074a6f2e91616a996b547c36f15
		<tag k="natural" v="valley" />
		<tag k="place" v="locality" />
		<tag k="ssr:stedsnr" v="835440" />
	</node>
<<<<<<< HEAD
	<node lat="65.75681666858024" lon="12.57961667046493" id="-7453">
		<tag k="name" v="Heggmohågjen" />
=======
	<node id="-129499" lat="65.5272638863" lon="12.869847215">
		<tag k="fixme" v="consider natural=peak for the most distinct mountains in the district" />
		<tag k="name" v="Austerdalsfjellet - Åarjelvaerie" />
		<tag k="name:no" v="Austerdalsfjellet" />
		<tag k="name:sma" v="Åarjelvaerie" />
>>>>>>> e1d4bc35ff8a6074a6f2e91616a996b547c36f15
		<tag k="natural" v="hill" />
		<tag k="place" v="locality" />
		<tag k="ssr:stedsnr" v="835450" />
	</node>
<<<<<<< HEAD
	<node lat="65.63608611288417" lon="12.35835832627376" id="-7456">
		<tag k="name" v="Syhågjen" />
		<tag k="natural" v="hill" />
=======
	<node id="-129497" lat="65.62615" lon="12.6411361013">
		<tag k="name" v="Tverrålia" />
		<tag k="natural" v="slope" />
>>>>>>> e1d4bc35ff8a6074a6f2e91616a996b547c36f15
		<tag k="place" v="locality" />
		<tag k="ssr:stedsnr" v="836796" />
	</node>
<<<<<<< HEAD
	<node lat="65.67054166721074" lon="12.423383341378496" id="-7457">
		<tag k="name" v="Breiheia" />
		<tag k="natural" v="ridge" />
=======
	<node id="-129493" lat="65.5520027777" lon="12.7454250055">
		<tag k="name" v="Granlia" />
		<tag k="natural" v="slope" />
>>>>>>> e1d4bc35ff8a6074a6f2e91616a996b547c36f15
		<tag k="place" v="locality" />
		<tag k="ssr:stedsnr" v="836751" />
	</node>
<<<<<<< HEAD
	<node lat="65.62188888465633" lon="12.367686118828138" id="-7460">
		<tag k="name" v="Kleivdalen" />
=======
	<node id="-129489" lat="65.6350388928" lon="12.4079611161">
		<tag k="name" v="Saltkardalen" />
>>>>>>> e1d4bc35ff8a6074a6f2e91616a996b547c36f15
		<tag k="natural" v="valley" />
		<tag k="place" v="locality" />
		<tag k="ssr:stedsnr" v="836802" />
	</node>
<<<<<<< HEAD
	<node lat="65.72864166577199" lon="12.511055545219481" id="-7461">
		<tag k="name" v="Hattbergan" />
=======
	<node id="-129481" lat="65.7110638846" lon="12.4080527825">
		<tag k="name" v="Djupvikhaugen" />
>>>>>>> e1d4bc35ff8a6074a6f2e91616a996b547c36f15
		<tag k="natural" v="hill" />
		<tag k="place" v="locality" />
		<tag k="ssr:stedsnr" v="841269" />
	</node>
<<<<<<< HEAD
	<node lat="65.68018610892669" lon="12.378577782319734" id="-7465">
		<tag k="name" v="Gjerdsmoen" />
=======
	<node id="-129479" lat="65.7214194454" lon="12.6163416652">
		<tag k="fixme" v="multiple name tags, choose one and add the other to alt_name" />
		<tag k="name" v="Aunskardet;Klemetskardet" />
		<tag k="natural" v="valley" />
>>>>>>> e1d4bc35ff8a6074a6f2e91616a996b547c36f15
		<tag k="place" v="locality" />
		<tag k="ssr:stedsnr" v="865049" />
	</node>
<<<<<<< HEAD
	<node lat="65.66322777809886" lon="12.673608333134958" id="-7471">
=======
	<node id="-129478" lat="65.7237611123" lon="12.504150005">
>>>>>>> e1d4bc35ff8a6074a6f2e91616a996b547c36f15
		<tag k="fixme" v="consider natural=peak for the most distinct mountains in the district" />
		<tag k="name" v="Stakkviktinden" />
		<tag k="natural" v="hill" />
		<tag k="place" v="locality" />
		<tag k="ssr:stedsnr" v="865115" />
	</node>
<<<<<<< HEAD
	<node lat="65.65295000340798" lon="12.442655556280085" id="-7474">
=======
	<node id="-129475" lat="65.7673527759" lon="12.6559027716">
>>>>>>> e1d4bc35ff8a6074a6f2e91616a996b547c36f15
		<tag k="fixme" v="consider natural=peak for the most distinct mountains in the district" />
		<tag k="name" v="Brenndalstinden" />
		<tag k="natural" v="hill" />
		<tag k="place" v="locality" />
<<<<<<< HEAD
		<tag k="ssr:stedsnr" v="865137" />
	</node>
	<node lat="65.71256944325394" lon="12.579519444445852" id="-7477">
		<tag k="name" v="Vedberget" />
=======
		<tag k="ssr:stedsnr" v="258087" />
	</node>
	<node id="-129472" lat="65.7183833306" lon="12.5802166734">
		<tag k="name" v="Flogan" />
		<tag k="natural" v="slope" />
		<tag k="place" v="locality" />
		<tag k="ssr:stedsnr" v="257278" />
	</node>
	<node id="-129469" lat="65.7411722262" lon="12.6030083351">
		<tag k="name" v="Broddan" />
>>>>>>> e1d4bc35ff8a6074a6f2e91616a996b547c36f15
		<tag k="natural" v="slope" />
		<tag k="place" v="locality" />
		<tag k="ssr:stedsnr" v="865288" />
	</node>
<<<<<<< HEAD
	<node lat="65.64510277763317" lon="12.851411117718003" id="-7478">
=======
	<node id="-129468" lat="65.7448694479" lon="12.5923444491">
>>>>>>> e1d4bc35ff8a6074a6f2e91616a996b547c36f15
		<tag k="fixme" v="consider natural=peak for the most distinct mountains in the district" />
		<tag k="name" v="Stigfjellet - Gaskevaerie" />
		<tag k="name:no" v="Stigfjellet" />
		<tag k="name:sma" v="Gaskevaerie" />
		<tag k="natural" v="hill" />
		<tag k="place" v="locality" />
		<tag k="ssr:stedsnr" v="865844" />
	</node>
<<<<<<< HEAD
	<node lat="65.51882777944189" lon="12.74338888245916" id="-7484">
		<tag k="fixme" v="consider natural=peak for the most distinct mountains in the district" />
		<tag k="name" v="Tøymvassfjellet" />
		<tag k="natural" v="hill" />
=======
	<node id="-129467" lat="65.7436166691" lon="12.6021444434">
		<tag k="name" v="Kopparkjelen" />
>>>>>>> e1d4bc35ff8a6074a6f2e91616a996b547c36f15
		<tag k="place" v="locality" />
		<tag k="ssr:stedsnr" v="865657" />
	</node>
<<<<<<< HEAD
	<node lat="65.59321388619902" lon="12.649661109362027" id="-7493">
		<tag k="fixme" v="consider natural=peak for the most distinct mountains in the district" />
		<tag k="name" v="Brebladet" />
		<tag k="natural" v="hill" />
		<tag k="place" v="locality" />
		<tag k="ssr:stedsnr" v="865893" />
	</node>
	<node lat="65.674725000526" lon="12.99420555559553" id="-7496">
		<tag k="fixme" v="consider natural=peak for the most distinct mountains in the district" />
		<tag k="name" v="Vistfjellet - Öörjelsnjurhtjie" />
		<tag k="name:no" v="Vistfjellet" />
		<tag k="name:sma" v="Öörjelsnjurhtjie" />
		<tag k="natural" v="hill" />
=======
	<node id="-129465" lat="65.6596611114" lon="12.3109722235">
		<tag k="name" v="Trongan" />
		<tag k="natural" v="valley" />
		<tag k="place" v="locality" />
		<tag k="ssr:stedsnr" v="229750" />
	</node>
	<node id="-129464" lat="65.6545277795" lon="12.3198666609">
		<tag k="name" v="Sjurfloget" />
		<tag k="natural" v="cliff" />
		<tag k="ssr:stedsnr" v="229733" />
	</node>
	<node id="-129461" lat="65.6846166659" lon="12.3423833378">
		<tag k="name" v="Torvheia" />
		<tag k="natural" v="slope" />
>>>>>>> e1d4bc35ff8a6074a6f2e91616a996b547c36f15
		<tag k="place" v="locality" />
		<tag k="ssr:stedsnr" v="865870" />
	</node>
<<<<<<< HEAD
	<node lat="65.75353055712843" lon="12.537377775991748" id="-7498">
		<tag k="name" v="Kalvhylla" />
=======
	<node id="-129460" lat="65.6738666672" lon="12.3276750027">
		<tag k="name" v="Kroken" />
		<tag k="natural" v="valley" />
>>>>>>> e1d4bc35ff8a6074a6f2e91616a996b547c36f15
		<tag k="place" v="locality" />
		<tag k="ssr:stedsnr" v="956462" />
	</node>
<<<<<<< HEAD
	<node lat="65.75868610968047" lon="12.55583056177457" id="-7500">
		<tag k="name" v="Nausthågjen" />
=======
	<node id="-129459" lat="65.6688472245" lon="12.3143666673">
		<tag k="name" v="Rasmushågjen" />
>>>>>>> e1d4bc35ff8a6074a6f2e91616a996b547c36f15
		<tag k="natural" v="hill" />
		<tag k="place" v="locality" />
		<tag k="ssr:stedsnr" v="956373" />
	</node>
<<<<<<< HEAD
	<node lat="65.74972777892133" lon="12.543541667943407" id="-7501">
		<tag k="name" v="Slettbergan" />
		<tag k="natural" v="cliff" />
		<tag k="ssr:stedsnr" v="956431" />
	</node>
	<node lat="65.64178610977511" lon="12.610744447411422" id="-7505">
		<tag k="name" v="Gørrtjønnbakkan" />
=======
	<node id="-129455" lat="65.5959166641" lon="12.3746527756">
		<tag k="name" v="Hunden" />
>>>>>>> e1d4bc35ff8a6074a6f2e91616a996b547c36f15
		<tag k="natural" v="hill" />
		<tag k="place" v="locality" />
		<tag k="ssr:stedsnr" v="957777" />
	</node>
<<<<<<< HEAD
	<node lat="65.64207777672928" lon="12.375666676832854" id="-7506">
		<tag k="name" v="Moen" />
=======
	<node id="-129452" lat="65.739274997" lon="12.573619438">
		<tag k="name" v="Trolldalen" />
		<tag k="natural" v="valley" />
>>>>>>> e1d4bc35ff8a6074a6f2e91616a996b547c36f15
		<tag k="place" v="locality" />
		<tag k="ssr:stedsnr" v="957794" />
	</node>
<<<<<<< HEAD
	<node lat="65.63755278154385" lon="12.381352781589847" id="-7507">
		<tag k="name" v="Håglia" />
		<tag k="natural" v="slope" />
=======
	<node id="-129451" lat="65.7411527764" lon="12.5914083362">
		<tag k="name" v="Svartåsenden" />
		<tag k="natural" v="ridge" />
>>>>>>> e1d4bc35ff8a6074a6f2e91616a996b547c36f15
		<tag k="place" v="locality" />
		<tag k="ssr:stedsnr" v="957796" />
	</node>
<<<<<<< HEAD
	<node lat="65.62921111211531" lon="12.370269434975091" id="-7508">
		<tag k="name" v="Mølnhushågjen" />
		<tag k="natural" v="ridge" />
		<tag k="place" v="locality" />
		<tag k="ssr:stedsnr" v="957801" />
	</node>
	<node lat="65.66837499592172" lon="12.420450005451304" id="-7509">
		<tag k="name" v="Sandosheia" />
=======
	<node id="-129447" lat="65.7368888886" lon="12.5073611039">
		<tag k="name" v="Mølnhushågjen" />
		<tag k="natural" v="ridge" />
		<tag k="place" v="locality" />
		<tag k="ssr:stedsnr" v="228474" />
	</node>
	<node id="-129446" lat="65.7172277775" lon="12.4296583401">
		<tag k="name" v="Nordmarka" />
		<tag k="place" v="locality" />
		<tag k="ssr:stedsnr" v="16207" />
	</node>
	<node id="-129445" lat="65.721627775" lon="12.6298805571">
		<tag k="name" v="Auna" />
		<tag k="place" v="locality" />
		<tag k="ssr:stedsnr" v="16205" />
	</node>
	<node id="-129444" lat="65.5937000046" lon="12.4147666614">
		<tag k="name" v="Gløsen" />
		<tag k="natural" v="slope" />
		<tag k="place" v="locality" />
		<tag k="ssr:stedsnr" v="15922" />
	</node>
	<node id="-129442" lat="65.7261666702" lon="12.5318555492">
		<tag k="fixme" v="consider natural=peak for the most distinct mountains in the district" />
		<tag k="name" v="Bufjellet" />
>>>>>>> e1d4bc35ff8a6074a6f2e91616a996b547c36f15
		<tag k="natural" v="hill" />
		<tag k="place" v="locality" />
		<tag k="ssr:stedsnr" v="958774" />
	</node>
<<<<<<< HEAD
	<node lat="65.73198055370734" lon="12.49677221234203" id="-7510">
		<tag k="name" v="Middagsskardet" />
=======
	<node id="-129437" lat="65.6401194433" lon="12.4439555559">
		<tag k="name" v="Langdalen" />
>>>>>>> e1d4bc35ff8a6074a6f2e91616a996b547c36f15
		<tag k="natural" v="valley" />
		<tag k="place" v="locality" />
		<tag k="ssr:stedsnr" v="961264" />
	</node>
</osm>
