<?xml version="1.0" encoding="UTF-8"?>
<osm generator="osmapis" version="0.6">
	<node id="-636284" lat="65.6741916656" lon="12.3010166764">
		<tag k="fixme" v="consider seamark:type=rock or natural=shoal" />
		<tag k="name" v="Lissvomskjæret" />
		<tag k="place" v="islet" />
		<tag k="ssr:stedsnr" v="961952" />
	</node>
	<node id="-636283" lat="65.7290833308" lon="12.5892194345">
		<tag k="name" v="Syvika" />
		<tag k="place" v="farm" />
		<tag k="ssr:stedsnr" v="961276" />
	</node>
	<node id="-636282" lat="65.7319805537" lon="12.4967722123">
		<tag k="name" v="Middagsskardet" />
		<tag k="natural" v="valley" />
		<tag k="place" v="locality" />
		<tag k="ssr:stedsnr" v="961264" />
	</node>
	<node id="-636281" lat="65.6683749959" lon="12.4204500055">
		<tag k="name" v="Sandosheia" />
		<tag k="natural" v="hill" />
		<tag k="place" v="locality" />
		<tag k="ssr:stedsnr" v="958774" />
	</node>
	<node id="-636280" lat="65.5872055537" lon="12.4224944481">
		<tag k="fixme" v="consider natural=peak for the most distinct mountains in the district" />
		<tag k="name" v="Rundfjellet" />
		<tag k="natural" v="hill" />
		<tag k="ssr:stedsnr" v="957845" />
	</node>
	<node id="-636279" lat="65.590974996" lon="12.4107583406">
		<tag k="name" v="Veggåa" />
		<tag k="ssr:stedsnr" v="957841" />
		<tag k="waterway" v="stream" />
	</node>
	<node id="-636278" lat="65.6019999987" lon="12.3688388864">
		<tag k="name" v="Tømmervikhågjen" />
		<tag k="natural" v="hill" />
		<tag k="place" v="locality" />
		<tag k="ssr:stedsnr" v="957810" />
	</node>
	<node id="-636277" lat="65.616458336" lon="12.3752416578">
		<tag k="name" v="Fagerlia" />
		<tag k="natural" v="slope" />
		<tag k="place" v="locality" />
		<tag k="ssr:stedsnr" v="957807" />
	</node>
	<node id="-636276" lat="65.635738887" lon="12.3663194413">
		<tag k="name" v="Gården" />
		<tag k="place" v="farm" />
		<tag k="ssr:stedsnr" v="957803" />
	</node>
	<node id="-636275" lat="65.6292111121" lon="12.370269435">
		<tag k="name" v="Mølnhushågjen" />
		<tag k="natural" v="ridge" />
		<tag k="place" v="locality" />
		<tag k="ssr:stedsnr" v="957801" />
	</node>
	<node id="-636274" lat="65.6375527815" lon="12.3813527816">
		<tag k="name" v="Håglia" />
		<tag k="natural" v="slope" />
		<tag k="place" v="locality" />
		<tag k="ssr:stedsnr" v="957796" />
	</node>
	<node id="-636273" lat="65.6420777767" lon="12.3756666768">
		<tag k="name" v="Moen" />
		<tag k="place" v="locality" />
		<tag k="ssr:stedsnr" v="957794" />
	</node>
	<node id="-636272" lat="65.6417861098" lon="12.6107444474">
		<tag k="name" v="Gørrtjønnbakkan" />
		<tag k="natural" v="hill" />
		<tag k="place" v="locality" />
		<tag k="ssr:stedsnr" v="957777" />
	</node>
	<node id="-636271" lat="65.6594722246" lon="12.3049777823">
		<tag k="name" v="Blesen" />
		<tag k="natural" v="beach" />
		<tag k="place" v="locality" />
		<tag k="ssr:stedsnr" v="957748" />
	</node>
	<node id="-636270" lat="65.6737166691" lon="12.4268527787">
		<tag k="name" v="Mølnhushola" />
		<tag k="natural" v="valley" />
		<tag k="place" v="locality" />
		<tag k="ssr:stedsnr" v="957696" />
	</node>
	<node id="-636269" lat="65.6988138912" lon="12.598644453">
		<tag k="name" v="Ytterkilen" />
		<tag k="natural" v="cape" />
		<tag k="ssr:stedsnr" v="957636" />
	</node>
	<node id="-636268" lat="65.667652782" lon="12.3064499911">
		<tag k="fixme" v="consider seamark:type=rock or natural=shoal" />
		<tag k="name" v="Lisskiskjæret" />
		<tag k="place" v="islet" />
		<tag k="ssr:stedsnr" v="957629" />
	</node>
	<node id="-636267" lat="65.6792555582" lon="12.3364722249">
		<tag k="fixme" v="consider natural=peak for the most distinct mountains in the district" />
		<tag k="name" v="Høgrabben" />
		<tag k="natural" v="hill" />
		<tag k="place" v="locality" />
		<tag k="ssr:stedsnr" v="957609" />
	</node>
	<node id="-636266" lat="65.6915694482" lon="12.4414527779">
		<tag k="name" v="Breidammen" />
		<tag k="natural" v="water" />
		<tag k="ssr:stedsnr" v="956654" />
		<tag k="water" v="lake" />
	</node>
	<node id="-636265" lat="65.7074611145" lon="12.4206333439">
		<tag k="name" v="Høyvikbergan" />
		<tag k="place" v="locality" />
		<tag k="ssr:stedsnr" v="956641" />
	</node>
	<node id="-636264" lat="65.7285555591" lon="12.5969694376">
		<tag k="name" v="Sørgården" />
		<tag k="place" v="farm" />
		<tag k="ssr:stedsnr" v="956621" />
	</node>
	<node id="-636263" lat="65.6875805554" lon="12.3476138782">
		<tag k="name" v="Hallarvikodden" />
		<tag k="natural" v="cape" />
		<tag k="ssr:stedsnr" v="956599" />
	</node>
	<node id="-636262" lat="65.7325777769" lon="12.5934055477">
		<tag k="cemetery" v="grave" />
		<tag k="name" v="Visthus kirkegård" />
		<tag k="place" v="locality" />
		<tag k="ssr:stedsnr" v="956539" />
	</node>
	<node id="-636261" lat="65.7535305571" lon="12.537377776">
		<tag k="name" v="Kalvhylla" />
		<tag k="place" v="locality" />
		<tag k="ssr:stedsnr" v="956462" />
	</node>
	<node id="-636260" lat="65.7497277789" lon="12.5435416679">
		<tag k="name" v="Slettbergan" />
		<tag k="natural" v="cliff" />
		<tag k="ssr:stedsnr" v="956431" />
	</node>
	<node id="-636259" lat="65.7586861097" lon="12.5558305618">
		<tag k="name" v="Nausthågjen" />
		<tag k="natural" v="hill" />
		<tag k="place" v="locality" />
		<tag k="ssr:stedsnr" v="956373" />
	</node>
	<node id="-636258" lat="65.7552861151" lon="12.5515555481">
		<tag k="name" v="Agatodden" />
		<tag k="natural" v="cape" />
		<tag k="ssr:stedsnr" v="956368" />
	</node>
	<node id="-636257" lat="65.7279472198" lon="12.454008326">
		<tag k="name" v="Vågsoddtaren" />
		<tag k="natural" v="shoal" />
		<tag k="place" v="locality" />
		<tag k="ssr:stedsnr" v="938143" />
	</node>
	<node id="-636256" lat="65.6119666673" lon="12.4093000065">
		<tag k="fixme" v="consider natural=peak for the most distinct mountains in the district" />
		<tag k="name" v="Hornstinden" />
		<tag k="natural" v="hill" />
		<tag k="place" v="locality" />
		<tag k="ssr:stedsnr" v="926928" />
	</node>
	<node id="-636255" lat="65.623547221" lon="12.3778666742">
		<tag k="name" v="Mølnhushaugen" />
		<tag k="natural" v="hill" />
		<tag k="place" v="locality" />
		<tag k="ssr:stedsnr" v="926925" />
	</node>
	<node id="-636254" lat="65.6273138901" lon="12.5008305527">
		<tag k="name" v="Kotdalen" />
		<tag k="natural" v="valley" />
		<tag k="place" v="locality" />
		<tag k="ssr:stedsnr" v="926923" />
	</node>
	<node id="-636253" lat="65.6344499963" lon="12.6396027862">
		<tag k="name" v="Svartvatnet" />
		<tag k="natural" v="water" />
		<tag k="ssr:stedsnr" v="926921" />
	</node>
	<node id="-636252" lat="65.5919499969" lon="12.4609361005">
		<tag k="name" v="Botnvatnan" />
		<tag k="natural" v="water" />
		<tag k="ssr:stedsnr" v="926913" />
		<tag k="water" v="lake" />
	</node>
	<node id="-636251" lat="65.5908750042" lon="12.4193444351">
		<tag k="fixme" v="multiple name tags, choose one and add the other to alt_name" />
		<tag k="name" v="Anddalsbotnet;Botnet" />
		<tag k="natural" v="valley" />
		<tag k="place" v="locality" />
		<tag k="ssr:stedsnr" v="926912" />
	</node>
	<node id="-636250" lat="65.6068098602" lon="12.3639174848">
		<tag k="alt_name" v="Bukta" />
		<tag k="name" v="Lauknesbukta" />
		<tag k="natural" v="bay" />
		<tag k="ssr:stedsnr" v="926903" />
	</node>
	<node id="-636249" lat="65.626572221" lon="12.9448500046">
		<tag k="name" v="Svartvassheia" />
		<tag k="natural" v="hill" />
		<tag k="place" v="locality" />
		<tag k="ssr:stedsnr" v="926823" />
	</node>
	<node id="-636248" lat="65.6132861156" lon="12.9502666611">
		<tag k="name" v="Sæterelva" />
		<tag k="ssr:stedsnr" v="926821" />
		<tag k="waterway" v="stream" />
	</node>
	<node id="-636247" lat="65.6067472227" lon="12.8445249917">
		<tag k="name" v="Hundklaven" />
		<tag k="natural" v="waterfall" />
		<tag k="ssr:stedsnr" v="926816" />
	</node>
	<node id="-636246" lat="65.6007249958" lon="12.8256833253">
		<tag k="name" v="Mølnhusforsen" />
		<tag k="natural" v="waterfall" />
		<tag k="ssr:stedsnr" v="926812" />
	</node>
	<node id="-636245" lat="65.602175001" lon="12.7468777865">
		<tag k="fixme" v="consider natural=peak for the most distinct mountains in the district" />
		<tag k="name" v="Grannesaksla" />
		<tag k="natural" v="hill" />
		<tag k="place" v="locality" />
		<tag k="ssr:stedsnr" v="926811" />
	</node>
	<node id="-636244" lat="65.5678027789" lon="12.9947472149">
		<tag k="fixme" v="consider natural=peak for the most distinct mountains in the district" />
		<tag k="name" v="Dåeriesåårke" />
		<tag k="name:sma" v="Dåeriesåårke" />
		<tag k="natural" v="hill" />
		<tag k="place" v="locality" />
		<tag k="ssr:stedsnr" v="926673" />
	</node>
	<node id="-636243" lat="65.5729833355" lon="12.7498333428">
		<tag k="name" v="Øvrepollen" />
		<tag k="natural" v="bay" />
		<tag k="ssr:stedsnr" v="926668" />
	</node>
	<node id="-636242" lat="65.5777416671" lon="12.794736109">
		<tag k="fixme" v="consider natural=peak for the most distinct mountains in the district" />
		<tag k="name" v="Kalvdalsfjellet" />
		<tag k="natural" v="hill" />
		<tag k="place" v="locality" />
		<tag k="ssr:stedsnr" v="926656" />
	</node>
	<node id="-636241" lat="65.5312166657" lon="12.7648250088">
		<tag k="name" v="Tøymvatnet" />
		<tag k="natural" v="water" />
		<tag k="ssr:stedsnr" v="926623" />
	</node>
	<node id="-636240" lat="65.7135111114" lon="12.4606027881">
		<tag k="name" v="Helgjovika" />
		<tag k="natural" v="bay" />
		<tag k="ssr:stedsnr" v="926245" />
	</node>
	<node id="-636239" lat="65.7179881869" lon="12.4730972945">
		<tag k="alt_name" v="Korsvik" />
		<tag k="fixme" v="consider place=hamlet" />
		<tag k="name" v="Korsvika" />
		<tag k="place" v="farm" />
		<tag k="ssr:stedsnr" v="926242" />
	</node>
	<node id="-636238" lat="65.6277777762" lon="12.5068305495">
		<tag k="fixme" v="consider natural=peak for the most distinct mountains in the district" />
		<tag k="name" v="Raudbergsholten" />
		<tag k="natural" v="hill" />
		<tag k="place" v="locality" />
		<tag k="ssr:stedsnr" v="926106" />
	</node>
	<node id="-636237" lat="65.7512500024" lon="12.6791416736">
		<tag k="name" v="Brennåvatnan" />
		<tag k="natural" v="water" />
		<tag k="ssr:stedsnr" v="926091" />
	</node>
	<node id="-636236" lat="65.6674638917" lon="12.6163000009">
		<tag k="name" v="Storholmen" />
		<tag k="place" v="islet" />
		<tag k="ssr:stedsnr" v="926088" />
	</node>
	<node id="-636235" lat="65.6634361082" lon="12.5466249927">
		<tag k="name" v="Kilmarkelva" />
		<tag k="ssr:stedsnr" v="926080" />
		<tag k="waterway" v="stream" />
	</node>
	<node id="-636234" lat="65.6665055556" lon="12.3056916589">
		<tag k="fixme" v="consider seamark:type=rock or natural=shoal" />
		<tag k="name" v="Kjeskjæran" />
		<tag k="place" v="islet" />
		<tag k="ssr:stedsnr" v="926072" />
	</node>
	<node id="-636233" lat="65.6662416685" lon="12.4991638944">
		<tag k="name" v="Trolldalsbotnet" />
		<tag k="natural" v="valley" />
		<tag k="place" v="locality" />
		<tag k="ssr:stedsnr" v="926065" />
	</node>
	<node id="-636232" lat="65.6735388896" lon="12.378438898">
		<tag k="name" v="Storsandvika" />
		<tag k="natural" v="bay" />
		<tag k="ssr:stedsnr" v="926052" />
	</node>
	<node id="-636231" lat="65.6783305558" lon="12.5788611129">
		<tag k="alt_name" v="Langkilvågen, øvre" />
		<tag k="name" v="Øvre Langkilvågen" />
		<tag k="natural" v="bay" />
		<tag k="ssr:stedsnr" v="926045" />
	</node>
	<node id="-636230" lat="65.6676888933" lon="12.760033331">
		<tag k="name" v="Svarttjørna" />
		<tag k="natural" v="water" />
		<tag k="ssr:stedsnr" v="925904" />
	</node>
	<node id="-636229" lat="65.6991277813" lon="12.7727583285">
		<tag k="name" v="Finnkotdalen" />
		<tag k="natural" v="valley" />
		<tag k="place" v="locality" />
		<tag k="ssr:stedsnr" v="925807" />
	</node>
	<node id="-636228" lat="65.7167916623" lon="12.6088861203">
		<tag k="name" v="Bjørnvika" />
		<tag k="place" v="farm" />
		<tag k="ssr:stedsnr" v="925283" />
	</node>
	<node id="-636227" lat="65.7193240669" lon="12.6081000124">
		<tag k="fixme" v="consider place=hamlet" />
		<tag k="name" v="Moen" />
		<tag k="place" v="farm" />
		<tag k="ssr:stedsnr" v="925284" />
	</node>
	<node id="-636226" lat="65.6501305585" lon="12.3163250001">
		<tag k="fixme" v="multiple name tags, choose one and add the other to alt_name" />
		<tag k="name" v="Molvika;Stormolvika" />
		<tag k="natural" v="bay" />
		<tag k="ssr:stedsnr" v="925120" />
	</node>
	<node id="-636225" lat="65.6527694485" lon="12.380599992">
		<tag k="alt_name" v="Kongshaugen" />
		<tag k="name" v="Kongshågjen" />
		<tag k="place" v="farm" />
		<tag k="ssr:stedsnr" v="925117" />
	</node>
	<node id="-636224" lat="65.6652333334" lon="12.6506583399">
		<tag k="name" v="Stakkvika" />
		<tag k="natural" v="bay" />
		<tag k="ssr:stedsnr" v="925093" />
	</node>
	<node id="-636223" lat="65.691297222" lon="12.3484222133">
		<tag k="name" v="Arøya" />
		<tag k="place" v="islet" />
		<tag k="ssr:stedsnr" v="925041" />
	</node>
	<node id="-636222" lat="65.7044555529" lon="12.3949888822">
		<tag k="alt_name" v="Hestvika" />
		<tag k="name" v="Hestvikja" />
		<tag k="natural" v="bay" />
		<tag k="ssr:stedsnr" v="925020" />
	</node>
	<node id="-636221" lat="65.7037111138" lon="12.5947388841">
		<tag k="name" v="Kilholmen" />
		<tag k="place" v="islet" />
		<tag k="ssr:stedsnr" v="925004" />
	</node>
	<node id="-636220" lat="65.6834999965" lon="12.3269250034">
		<tag k="name" v="Slåttøya" />
		<tag k="place" v="island" />
		<tag k="ssr:stedsnr" v="926033" />
	</node>
	<node id="-636219" lat="65.6893138851" lon="12.5192416585">
		<tag k="name" v="Snødalsvatnet" />
		<tag k="natural" v="water" />
		<tag k="ssr:stedsnr" v="926029" />
	</node>
	<node id="-636218" lat="65.6961138878" lon="12.4408583352">
		<tag k="alt_name" v="Åsen" />
		<tag k="name" v="Åsan" />
		<tag k="place" v="isolated_dwelling" />
		<tag k="ssr:stedsnr" v="926020" />
	</node>
	<node id="-636217" lat="65.6943833304" lon="12.5696583353">
		<tag k="name" v="Hesthola" />
		<tag k="natural" v="valley" />
		<tag k="place" v="locality" />
		<tag k="ssr:stedsnr" v="926019" />
	</node>
	<node id="-636216" lat="65.7804722199" lon="12.658338882">
		<tag k="fixme" v="consider natural=peak for the most distinct mountains in the district" />
		<tag k="name" v="Roparnesfjellet" />
		<tag k="natural" v="hill" />
		<tag k="place" v="locality" />
		<tag k="ssr:stedsnr" v="877195" />
	</node>
	<node id="-636215" lat="65.5907666701" lon="12.4273638922">
		<tag k="name" v="Botnelva" />
		<tag k="ssr:stedsnr" v="865907" />
		<tag k="waterway" v="stream" />
	</node>
	<node id="-636214" lat="65.6005194411" lon="12.3668472176">
		<tag k="fixme" v="consider seamark:type=rock or natural=shoal" />
		<tag k="name" v="Småskjæran" />
		<tag k="place" v="islet" />
		<tag k="ssr:stedsnr" v="865897" />
	</node>
	<node id="-636213" lat="65.5866143276" lon="12.4164207117">
		<tag k="alt_name" v="Anddalen" />
		<tag k="fixme" v="consider place=hamlet" />
		<tag k="name" v="Andalen" />
		<tag k="place" v="farm" />
		<tag k="ssr:stedsnr" v="865884" />
	</node>
	<node id="-636212" lat="65.5809388876" lon="12.3845499967">
		<tag k="fixme" v="consider place=hamlet" />
		<tag k="name" v="Høyvika" />
		<tag k="place" v="farm" />
		<tag k="ssr:stedsnr" v="865885" />
	</node>
	<node id="-636211" lat="65.6717249982" lon="12.7753027729">
		<tag k="name" v="Klemmetjorda" />
		<tag k="place" v="isolated_dwelling" />
		<tag k="ssr:stedsnr" v="865859" />
	</node>
	<node id="-636210" lat="65.6528333362" lon="12.763149993">
		<tag k="name" v="Tverrelva" />
		<tag k="ssr:stedsnr" v="865853" />
		<tag k="waterway" v="stream" />
	</node>
	<node id="-636209" lat="65.6457638862" lon="12.9234361149">
		<tag k="name" v="Grunnvatnet" />
		<tag k="natural" v="water" />
		<tag k="ssr:stedsnr" v="865849" />
		<tag k="water" v="lake" />
	</node>
	<node id="-636208" lat="65.6451027776" lon="12.8514111177">
		<tag k="fixme" v="consider natural=peak for the most distinct mountains in the district" />
		<tag k="name" v="Stigfjellet - Gaskevaerie" />
		<tag k="name:no" v="Stigfjellet" />
		<tag k="name:sma" v="Gaskevaerie" />
		<tag k="natural" v="hill" />
		<tag k="place" v="locality" />
		<tag k="ssr:stedsnr" v="865844" />
	</node>
	<node id="-636207" lat="65.6132833309" lon="12.9337472237">
		<tag k="name" v="Stillelvkroken" />
		<tag k="place" v="locality" />
		<tag k="ssr:stedsnr" v="865824" />
	</node>
	<node id="-636206" lat="65.6080111073" lon="12.7883361212">
		<tag k="name" v="Storvika" />
		<tag k="natural" v="bay" />
		<tag k="ssr:stedsnr" v="865803" />
	</node>
	<node id="-636205" lat="65.6881361142" lon="12.8876333256">
		<tag k="name" v="Burriejaevrie" />
		<tag k="name:sma" v="Burriejaevrie" />
		<tag k="natural" v="water" />
		<tag k="ssr:stedsnr" v="865765" />
		<tag k="water" v="lake" />
	</node>
	<node id="-636204" lat="65.5705999989" lon="12.7221499945">
		<tag k="name" v="Storbekken" />
		<tag k="ssr:stedsnr" v="865705" />
		<tag k="waterway" v="stream" />
	</node>
	<node id="-636203" lat="65.5848861147" lon="12.7687472321">
		<tag k="name" v="Lakselva" />
		<tag k="ssr:stedsnr" v="865696" />
		<tag k="waterway" v="river" />
	</node>
	<node id="-636202" lat="65.589986108" lon="12.883675001">
		<tag k="name" v="Durmålselva" />
		<tag k="ssr:stedsnr" v="865691" />
		<tag k="waterway" v="stream" />
	</node>
	<node id="-636201" lat="65.5188277794" lon="12.7433888825">
		<tag k="fixme" v="consider natural=peak for the most distinct mountains in the district" />
		<tag k="name" v="Tøymvassfjellet" />
		<tag k="natural" v="hill" />
		<tag k="place" v="locality" />
		<tag k="ssr:stedsnr" v="865657" />
	</node>
	<node id="-636200" lat="65.5444611148" lon="12.7729333249">
		<tag k="alt_name" v="Austerdalselva, nordre" />
		<tag k="name" v="Nordre Austerdalselva" />
		<tag k="ssr:stedsnr" v="865646" />
		<tag k="waterway" v="river" />
	</node>
	<node id="-636199" lat="65.7125694433" lon="12.5795194444">
		<tag k="name" v="Vedberget" />
		<tag k="natural" v="slope" />
		<tag k="place" v="locality" />
		<tag k="ssr:stedsnr" v="865288" />
	</node>
	<node id="-636198" lat="65.7149581796" lon="12.4621181238">
		<tag k="alt_name" v="Forvika" />
		<tag k="fixme" v="consider place=hamlet" />
		<tag k="name" v="Forvik" />
		<tag k="place" v="farm" />
		<tag k="ssr:stedsnr" v="865285" />
	</node>
	<node id="-636196" lat="65.7255305539" lon="12.4840972283">
		<tag k="alt_name" v="Dalsjøen" />
		<tag k="name" v="Dalsyen" />
		<tag k="place" v="farm" />
		<tag k="ssr:stedsnr" v="865248" />
	</node>
	<node id="-636195" lat="65.6529500034" lon="12.4426555563">
		<tag k="fixme" v="consider natural=peak for the most distinct mountains in the district" />
		<tag k="name" v="Brenndalstinden" />
		<tag k="natural" v="hill" />
		<tag k="place" v="locality" />
		<tag k="ssr:stedsnr" v="865137" />
	</node>
	<node id="-636194" lat="65.6582111153" lon="12.2949555504">
		<tag k="name" v="Esøya" />
		<tag k="place" v="island" />
		<tag k="ssr:stedsnr" v="865121" />
	</node>
	<node id="-636193" lat="65.7535777796" lon="12.5506388837">
		<tag k="alt_name" v="Steinsrud" />
		<tag k="name" v="Stensrud" />
		<tag k="place" v="farm" />
		<tag k="ssr:stedsnr" v="865119" />
	</node>
	<node id="-636192" lat="65.6632277781" lon="12.6736083331">
		<tag k="fixme" v="consider natural=peak for the most distinct mountains in the district" />
		<tag k="name" v="Stakkviktinden" />
		<tag k="natural" v="hill" />
		<tag k="place" v="locality" />
		<tag k="ssr:stedsnr" v="865115" />
	</node>
	<node id="-636191" lat="65.6603416692" lon="12.6208361063">
		<tag k="name" v="Vikran" />
		<tag k="natural" v="bay" />
		<tag k="ssr:stedsnr" v="865112" />
	</node>
	<node id="-636190" lat="65.6652527758" lon="12.3367499929">
		<tag k="name" v="Lomvatnet" />
		<tag k="natural" v="water" />
		<tag k="ssr:stedsnr" v="865106" />
	</node>
	<node id="-636189" lat="65.6666882866" lon="12.603864145">
		<tag k="alt_name" v="Indrestranda" />
		<tag k="fixme" v="consider place=hamlet" />
		<tag k="name" v="Innerstranda" />
		<tag k="place" v="farm" />
		<tag k="ssr:stedsnr" v="865094" />
	</node>
	<node id="-636188" lat="65.6624249978" lon="12.3993250093">
		<tag k="alt_name" v="Volden" />
		<tag k="name" v="Vollen" />
		<tag k="place" v="farm" />
		<tag k="ssr:stedsnr" v="865090" />
	</node>
	<node id="-636187" lat="65.6756416664" lon="12.4062888876">
		<tag k="name" v="Osen" />
		<tag k="natural" v="bay" />
		<tag k="ssr:stedsnr" v="865072" />
	</node>
	<node id="-636186" lat="65.6801861089" lon="12.3785777823">
		<tag k="name" v="Gjerdsmoen" />
		<tag k="place" v="locality" />
		<tag k="ssr:stedsnr" v="865049" />
	</node>
	<node id="-636185" lat="65.6948999995" lon="12.3502833393">
		<tag k="name" v="Langøya" />
		<tag k="place" v="islet" />
		<tag k="ssr:stedsnr" v="865042" />
	</node>
	<node id="-636184" lat="65.6971638853" lon="12.4306611112">
		<tag k="name" v="Osodden" />
		<tag k="place" v="farm" />
		<tag k="ssr:stedsnr" v="865030" />
	</node>
	<node id="-636183" lat="65.6983861149" lon="12.3584361157">
		<tag k="name" v="Gråøya" />
		<tag k="place" v="islet" />
		<tag k="ssr:stedsnr" v="865020" />
	</node>
	<node id="-636182" lat="65.7286416658" lon="12.5110555452">
		<tag k="name" v="Hattbergan" />
		<tag k="natural" v="hill" />
		<tag k="place" v="locality" />
		<tag k="ssr:stedsnr" v="841269" />
	</node>
	<node id="-636181" lat="65.6037999958" lon="12.3716000084">
		<tag k="name" v="Mølnhusdalen" />
		<tag k="natural" v="valley" />
		<tag k="place" v="locality" />
		<tag k="ssr:stedsnr" v="836813" />
	</node>
	<node id="-636180" lat="65.6218888847" lon="12.3676861188">
		<tag k="name" v="Kleivdalen" />
		<tag k="natural" v="valley" />
		<tag k="place" v="locality" />
		<tag k="ssr:stedsnr" v="836802" />
	</node>
	<node id="-636179" lat="65.6360861129" lon="12.3583583263">
		<tag k="name" v="Syhågjen" />
		<tag k="natural" v="hill" />
		<tag k="place" v="locality" />
		<tag k="ssr:stedsnr" v="836796" />
	</node>
	<node id="-636178" lat="65.6474111094" lon="12.6387888833">
		<tag k="name" v="Bjørnevikja" />
		<tag k="natural" v="bay" />
		<tag k="ssr:stedsnr" v="836778" />
	</node>
	<node id="-636177" lat="65.6601666682" lon="12.6397194522">
		<tag k="name" v="Husvikdalsneset" />
		<tag k="natural" v="cape" />
		<tag k="ssr:stedsnr" v="836770" />
	</node>
	<node id="-636176" lat="65.6779555572" lon="12.550836107">
		<tag k="name" v="Jakobdalselva" />
		<tag k="ssr:stedsnr" v="836755" />
		<tag k="waterway" v="river" />
	</node>
	<node id="-636175" lat="65.6705416672" lon="12.4233833414">
		<tag k="name" v="Breiheia" />
		<tag k="natural" v="ridge" />
		<tag k="place" v="locality" />
		<tag k="ssr:stedsnr" v="836751" />
	</node>
	<node id="-636174" lat="65.6567722196" lon="12.3108555619">
		<tag k="name" v="Bulifjellet" />
		<tag k="natural" v="cliff" />
		<tag k="ssr:stedsnr" v="836732" />
	</node>
	<node id="-636173" lat="65.6686777818" lon="12.3128055503">
		<tag k="name" v="Bryggvikja" />
		<tag k="natural" v="bay" />
		<tag k="ssr:stedsnr" v="836619" />
	</node>
	<node id="-636172" lat="65.6495194474" lon="12.6319194534">
		<tag k="name" v="Mulberget" />
		<tag k="natural" v="ridge" />
		<tag k="place" v="locality" />
		<tag k="ssr:stedsnr" v="835793" />
	</node>
	<node id="-636171" lat="65.6906916681" lon="12.3938611074">
		<tag k="name" v="Rismålshågjen" />
		<tag k="natural" v="hill" />
		<tag k="place" v="locality" />
		<tag k="ssr:stedsnr" v="835631" />
	</node>
	<node id="-636170" lat="65.6996055595" lon="12.4449111017">
		<tag k="name" v="Stallbakkan" />
		<tag k="natural" v="ridge" />
		<tag k="place" v="locality" />
		<tag k="ssr:stedsnr" v="835618" />
	</node>
	<node id="-636169" lat="65.6901583339" lon="12.4081555464">
		<tag k="name" v="Skardet" />
		<tag k="natural" v="valley" />
		<tag k="place" v="locality" />
		<tag k="ssr:stedsnr" v="835602" />
	</node>
	<node id="-636168" lat="65.6884111103" lon="12.3389666591">
		<tag k="name" v="Vallskiftet" />
		<tag k="natural" v="strait" />
		<tag k="ssr:stedsnr" v="835579" />
	</node>
	<node id="-636167" lat="65.6871833369" lon="12.3332638956">
		<tag k="name" v="Nordodden" />
		<tag k="natural" v="cape" />
		<tag k="ssr:stedsnr" v="835578" />
	</node>
	<node id="-636165" lat="65.7266138916" lon="12.4853972288">
		<tag k="name" v="Nermoen" />
		<tag k="place" v="farm" />
		<tag k="ssr:stedsnr" v="835501" />
	</node>
	<node id="-636164" lat="65.7568166686" lon="12.5796166705">
		<tag k="name" v="Heggmohågjen" />
		<tag k="natural" v="hill" />
		<tag k="place" v="locality" />
		<tag k="ssr:stedsnr" v="835450" />
	</node>
	<node id="-636163" lat="65.754322221" lon="12.560394454">
		<tag k="name" v="Toppdalen" />
		<tag k="natural" v="valley" />
		<tag k="place" v="locality" />
		<tag k="ssr:stedsnr" v="835440" />
	</node>
	<node id="-636162" lat="65.7666750028" lon="12.5825361148">
		<tag k="name" v="Melkarstøa" />
		<tag k="natural" v="bay" />
		<tag k="ssr:stedsnr" v="835340" />
	</node>
	<node id="-636161" lat="65.7152388928" lon="12.468141669">
		<tag k="name" v="Remma" />
		<tag k="place" v="farm" />
		<tag k="ssr:stedsnr" v="816202" />
	</node>
	<node id="-636160" lat="65.6752083363" lon="12.4084555608">
		<tag k="name" v="Sandosen" />
		<tag k="place" v="farm" />
		<tag k="ssr:stedsnr" v="816175" />
	</node>
	<node id="-636159" lat="65.7264277801" lon="12.7147472197">
		<tag k="fixme" v="consider natural=peak for the most distinct mountains in the district" />
		<tag k="name" v="Klubben" />
		<tag k="natural" v="hill" />
		<tag k="place" v="locality" />
		<tag k="ssr:stedsnr" v="805191" />
	</node>
	<node id="-636158" lat="65.7237222223" lon="12.6041027786">
		<tag k="name" v="Granmoen" />
		<tag k="place" v="farm" />
		<tag k="ssr:stedsnr" v="805188" />
	</node>
	<node id="-636157" lat="65.658405552" lon="12.350713898">
		<tag k="name" v="Rundhaugen" />
		<tag k="natural" v="hill" />
		<tag k="place" v="locality" />
		<tag k="ssr:stedsnr" v="805092" />
	</node>
	<node id="-636156" lat="65.660308335" lon="12.5145611143">
		<tag k="name" v="Spruten" />
		<tag k="natural" v="valley" />
		<tag k="place" v="locality" />
		<tag k="ssr:stedsnr" v="805090" />
	</node>
	<node id="-636155" lat="65.6724777803" lon="12.6244805562">
		<tag k="name" v="Brennholmen" />
		<tag k="place" v="islet" />
		<tag k="ssr:stedsnr" v="805082" />
	</node>
	<node id="-636154" lat="65.672686112" lon="12.5409194367">
		<tag k="fixme" v="consider natural=peak for the most distinct mountains in the district" />
		<tag k="name" v="Kilmarkfjellet" />
		<tag k="natural" v="hill" />
		<tag k="place" v="locality" />
		<tag k="ssr:stedsnr" v="805058" />
	</node>
	<node id="-636153" lat="65.6652166683" lon="12.439624996">
		<tag k="name" v="Botnan" />
		<tag k="natural" v="valley" />
		<tag k="place" v="locality" />
		<tag k="ssr:stedsnr" v="805056" />
	</node>
	<node id="-636152" lat="65.6675583293" lon="12.5097749953">
		<tag k="name" v="Trolldalen" />
		<tag k="natural" v="valley" />
		<tag k="place" v="locality" />
		<tag k="ssr:stedsnr" v="805057" />
	</node>
	<node id="-636151" lat="65.5819499989" lon="12.447991676">
		<tag k="fixme" v="consider natural=peak for the most distinct mountains in the district" />
		<tag k="name" v="Rundfjellet" />
		<tag k="natural" v="hill" />
		<tag k="place" v="locality" />
		<tag k="ssr:stedsnr" v="804899" />
	</node>
	<node id="-636150" lat="65.5630638855" lon="12.3845249927">
		<tag k="name" v="Djupvika" />
		<tag k="natural" v="bay" />
		<tag k="ssr:stedsnr" v="804886" />
	</node>
	<node id="-636149" lat="65.6767555537" lon="12.7966499904">
		<tag k="name" v="Krongelvasselva" />
		<tag k="ssr:stedsnr" v="804866" />
		<tag k="waterway" v="stream" />
	</node>
	<node id="-636148" lat="65.675558332" lon="12.7836611193">
		<tag k="name" v="Bønnåvatnet" />
		<tag k="natural" v="water" />
		<tag k="ssr:stedsnr" v="804865" />
		<tag k="water" v="lake" />
	</node>
	<node id="-636147" lat="65.6631361136" lon="12.7990083353">
		<tag k="fixme" v="consider natural=peak for the most distinct mountains in the district" />
		<tag k="name" v="Krongelvassfjellet" />
		<tag k="natural" v="hill" />
		<tag k="place" v="locality" />
		<tag k="ssr:stedsnr" v="804862" />
	</node>
	<node id="-636146" lat="65.652305555" lon="12.7367333405">
		<tag k="historic" v="shieling" />
		<tag k="name" v="Bønnåsætra" />
		<tag k="place" v="locality" />
		<tag k="ssr:stedsnr" v="804856" />
	</node>
	<node id="-636145" lat="65.6312481546" lon="12.7442707932">
		<tag k="fixme" v="consider place=hamlet" />
		<tag k="name" v="Aursletta" />
		<tag k="place" v="farm" />
		<tag k="ssr:stedsnr" v="804841" />
	</node>
	<node id="-636144" lat="65.6250916678" lon="12.9002583354">
		<tag k="fixme" v="consider natural=peak for the most distinct mountains in the district" />
		<tag k="name" v="Mandagsfjellet" />
		<tag k="natural" v="hill" />
		<tag k="place" v="locality" />
		<tag k="ssr:stedsnr" v="804838" />
	</node>
	<node id="-636143" lat="65.6320416705" lon="12.8130111076">
		<tag k="alt_name" v="Austerfjorddalen, s" />
		<tag k="name" v="Søre Austerfjorddalen" />
		<tag k="natural" v="valley" />
		<tag k="place" v="locality" />
		<tag k="ssr:stedsnr" v="804837" />
	</node>
	<node id="-636142" lat="65.6135666657" lon="12.7679305663">
		<tag k="name" v="Storstraumen" />
		<tag k="natural" v="strait" />
		<tag k="ssr:stedsnr" v="804824" />
	</node>
	<node id="-636141" lat="65.6005166688" lon="12.799908328">
		<tag k="name" v="Sandan" />
		<tag k="place" v="isolated_dwelling" />
		<tag k="ssr:stedsnr" v="804816" />
	</node>
	<node id="-636140" lat="65.6052000021" lon="12.3746111125">
		<tag k="name" v="Mølnhusbekken" />
		<tag k="ssr:stedsnr" v="804809" />
		<tag k="waterway" v="stream" />
	</node>
	<node id="-636139" lat="65.6917583337" lon="12.7520861189">
		<tag k="fixme" v="consider natural=peak for the most distinct mountains in the district" />
		<tag k="loc_name" v="Tverrlandsfjellet" />
		<tag k="name" v="Tverlandsfjellet" />
		<tag k="natural" v="hill" />
		<tag k="place" v="locality" />
		<tag k="ssr:stedsnr" v="804762" />
	</node>
	<node id="-636138" lat="65.5776833349" lon="12.9710416647">
		<tag k="alt_name:no" v="Vistvatnet, nordre" />
		<tag k="alt_name:sma" v="Væstanjaevrie, noerhte" />
		<tag k="name" v="Nordre Vistvatnet - Noerhte Væstanjaevrie" />
		<tag k="name:no" v="Nordre Vistvatnet" />
		<tag k="name:sma" v="Noerhte Væstanjaevrie" />
		<tag k="natural" v="water" />
		<tag k="ssr:stedsnr" v="804692" />
		<tag k="water" v="lake" />
	</node>
	<node id="-636137" lat="65.7356111132" lon="12.6153361016">
		<tag k="name" v="Geitskardholten" />
		<tag k="natural" v="hill" />
		<tag k="place" v="locality" />
		<tag k="ssr:stedsnr" v="804257" />
	</node>
	<node id="-636136" lat="65.7281861092" lon="12.4534638902">
		<tag k="name" v="Vågsoddtaren" />
		<tag k="natural" v="shoal" />
		<tag k="place" v="locality" />
		<tag k="ssr:stedsnr" v="804245" />
	</node>
	<node id="-636135" lat="65.7369944408" lon="12.5240361111">
		<tag k="name" v="Finnvika" />
		<tag k="natural" v="bay" />
		<tag k="ssr:stedsnr" v="804242" />
	</node>
	<node id="-636134" lat="65.6360527795" lon="12.5350749917">
		<tag k="fixme" v="consider natural=peak for the most distinct mountains in the district" />
		<tag k="name" v="Nilslitinden" />
		<tag k="natural" v="hill" />
		<tag k="place" v="locality" />
		<tag k="ssr:stedsnr" v="804141" />
	</node>
	<node id="-636133" lat="65.6549555555" lon="12.6188444449">
		<tag k="alt_name" v="Dalleira" />
		<tag k="name" v="Dalvikja" />
		<tag k="natural" v="bay" />
		<tag k="ssr:stedsnr" v="804137" />
	</node>
	<node id="-636132" lat="65.6362055572" lon="12.3632472189">
		<tag k="fixme" v="consider place=hamlet" />
		<tag k="name" v="Ner-Høyholm" />
		<tag k="old_name" v="Høyholm søndre" />
		<tag k="place" v="farm" />
		<tag k="ssr:stedsnr" v="804130" />
	</node>
	<node id="-636131" lat="65.7501666679" lon="12.6282583337">
		<tag k="fixme" v="consider natural=peak for the most distinct mountains in the district" />
		<tag k="name" v="Stokkahatten" />
		<tag k="natural" v="hill" />
		<tag k="place" v="locality" />
		<tag k="ssr:stedsnr" v="804120" />
	</node>
	<node id="-636130" lat="65.6617833292" lon="12.3067416622">
		<tag k="fixme" v="consider natural=peak for the most distinct mountains in the district" />
		<tag k="name" v="Blesåsen" />
		<tag k="natural" v="hill" />
		<tag k="place" v="locality" />
		<tag k="ssr:stedsnr" v="804106" />
	</node>
	<node id="-636129" lat="65.6768959472" lon="12.6660048889">
		<tag k="fixme" v="consider place=hamlet" />
		<tag k="name" v="Tverrlandet" />
		<tag k="place" v="farm" />
		<tag k="ssr:stedsnr" v="804102" />
	</node>
	<node id="-636128" lat="65.6741249985" lon="12.3698027788">
		<tag k="name" v="Dalabekken" />
		<tag k="ssr:stedsnr" v="804078" />
		<tag k="waterway" v="stream" />
	</node>
	<node id="-636127" lat="65.679541668" lon="12.4089444375">
		<tag k="alt_name" v="Ramntuva" />
		<tag k="name" v="Ravntuva" />
		<tag k="place" v="farm" />
		<tag k="ssr:stedsnr" v="804073" />
	</node>
	<node id="-636126" lat="65.6794638878" lon="12.5845500035">
		<tag k="name" v="Skadvika" />
		<tag k="natural" v="bay" />
		<tag k="ssr:stedsnr" v="804067" />
	</node>
	<node id="-636125" lat="65.7710329467" lon="12.5858301192">
		<tag k="alt_name" v="Giskå" />
		<tag k="fixme" v="consider place=hamlet" />
		<tag k="name" v="Giskåa" />
		<tag k="place" v="farm" />
		<tag k="ssr:stedsnr" v="804057" />
	</node>
	<node id="-636124" lat="65.6876333359" lon="12.4074305474">
		<tag k="name" v="Bjørnholmen" />
		<tag k="place" v="islet" />
		<tag k="ssr:stedsnr" v="804053" />
	</node>
	<node id="-636123" lat="65.6821768152" lon="12.4132337169">
		<tag k="alt_name" v="Brølos" />
		<tag k="fixme" v="consider place=hamlet" />
		<tag k="name" v="Brødløs" />
		<tag k="place" v="farm" />
		<tag k="ssr:stedsnr" v="804052" />
	</node>
	<node id="-636122" lat="65.6934361132" lon="12.3553805594">
		<tag k="name" v="Andholmen" />
		<tag k="place" v="islet" />
		<tag k="ssr:stedsnr" v="804045" />
	</node>
	<node id="-636121" lat="65.6934833331" lon="12.4341611192">
		<tag k="name" v="Åsmyra" />
		<tag k="place" v="isolated_dwelling" />
		<tag k="ssr:stedsnr" v="804032" />
	</node>
	<node id="-636120" lat="65.691263887" lon="12.4714666562">
		<tag k="name" v="Kvannlia" />
		<tag k="natural" v="slope" />
		<tag k="place" v="locality" />
		<tag k="ssr:stedsnr" v="804029" />
	</node>
	<node id="-636119" lat="65.6962286903" lon="12.5916215082">
		<tag k="fixme" v="consider place=hamlet" />
		<tag k="name" v="Ytrekila" />
		<tag k="place" v="farm" />
		<tag k="ssr:stedsnr" v="804024" />
	</node>
	<node id="-636118" lat="65.7026138909" lon="12.3706194535">
		<tag k="name" v="Oddøya" />
		<tag k="place" v="islet" />
		<tag k="ssr:stedsnr" v="804011" />
	</node>
	<node id="-636117" lat="65.7070750007" lon="12.4103027821">
		<tag k="fixme" v="consider natural=peak for the most distinct mountains in the district" />
		<tag k="name" v="Vågsfjellet" />
		<tag k="natural" v="hill" />
		<tag k="place" v="locality" />
		<tag k="ssr:stedsnr" v="804007" />
	</node>
	<node id="-636116" lat="65.7021750016" lon="12.5917111216">
		<tag k="name" v="Ytrebukta" />
		<tag k="natural" v="bay" />
		<tag k="ssr:stedsnr" v="804001" />
	</node>
	<node id="-636115" lat="65.5960361112" lon="12.3704222245">
		<tag k="highway" v="path" />
		<tag k="name" v="Stia" />
		<tag k="ssr:stedsnr" v="775819" />
	</node>
	<node id="-636114" lat="65.6054333357" lon="12.3733888864">
		<tag k="fixme" v="consider natural=peak for the most distinct mountains in the district" />
		<tag k="name" v="Ørnbergan" />
		<tag k="natural" v="hill" />
		<tag k="place" v="locality" />
		<tag k="ssr:stedsnr" v="775806" />
	</node>
	<node id="-636113" lat="65.6329722191" lon="12.3546833325">
		<tag k="name" v="Storvika" />
		<tag k="natural" v="bay" />
		<tag k="ssr:stedsnr" v="775792" />
	</node>
	<node id="-636112" lat="65.6319500029" lon="12.3754333425">
		<tag k="name" v="Kjerringlia" />
		<tag k="natural" v="slope" />
		<tag k="place" v="locality" />
		<tag k="ssr:stedsnr" v="775785" />
	</node>
	<node id="-636111" lat="65.6408000026" lon="12.3684111053">
		<tag k="name" v="Skipnesbekken" />
		<tag k="ssr:stedsnr" v="775781" />
		<tag k="waterway" v="stream" />
	</node>
	<node id="-636110" lat="65.6546361097" lon="12.5887972171">
		<tag k="name" v="Nervassengvatnet" />
		<tag k="natural" v="water" />
		<tag k="ssr:stedsnr" v="775753" />
		<tag k="water" v="lake" />
	</node>
	<node id="-636109" lat="65.6490750024" lon="12.3922555655">
		<tag k="name" v="Bustiholo" />
		<tag k="natural" v="valley" />
		<tag k="place" v="locality" />
		<tag k="ssr:stedsnr" v="775750" />
	</node>
	<node id="-636108" lat="65.6703416673" lon="12.6172027825">
		<tag k="name" v="Strandholmen" />
		<tag k="place" v="island" />
		<tag k="ssr:stedsnr" v="775742" />
	</node>
	<node id="-636107" lat="65.6700472181" lon="12.4143972262">
		<tag k="name" v="Ladalan" />
		<tag k="natural" v="valley" />
		<tag k="place" v="locality" />
		<tag k="ssr:stedsnr" v="775741" />
	</node>
	<node id="-636106" lat="65.6701777789" lon="12.6400388892">
		<tag k="name" v="Ytterkvalvågjen" />
		<tag k="natural" v="bay" />
		<tag k="ssr:stedsnr" v="775736" />
	</node>
	<node id="-636105" lat="65.6478916664" lon="12.3729361192">
		<tag k="man_made" v="quay" />
		<tag k="name" v="Nord-Høyholmsyen" />
		<tag k="place" v="locality" />
		<tag k="ssr:stedsnr" v="775713" />
	</node>
	<node id="-636104" lat="65.67528333" lon="12.4296111054">
		<tag k="name" v="Jakobrenno" />
		<tag k="place" v="locality" />
		<tag k="ssr:stedsnr" v="775708" />
	</node>
	<node id="-636103" lat="65.6762722267" lon="12.4112000009">
		<tag k="name" v="Gjerdehågjen" />
		<tag k="natural" v="hill" />
		<tag k="place" v="locality" />
		<tag k="ssr:stedsnr" v="775682" />
	</node>
	<node id="-636102" lat="65.6847527781" lon="12.6329666638">
		<tag k="name" v="Blåvikfjellet" />
		<tag k="natural" v="hill" />
		<tag k="place" v="locality" />
		<tag k="ssr:stedsnr" v="775620" />
	</node>
	<node id="-636101" lat="65.6661666664" lon="12.3054166734">
		<tag k="fixme" v="consider seamark:type=rock or natural=shoal" />
		<tag k="name" v="Storkiskjæret" />
		<tag k="place" v="islet" />
		<tag k="ssr:stedsnr" v="775595" />
	</node>
	<node id="-636100" lat="65.6721722238" lon="12.3351916636">
		<tag k="name" v="Ravnfloget" />
		<tag k="natural" v="cliff" />
		<tag k="ssr:stedsnr" v="775589" />
	</node>
	<node id="-636099" lat="65.6929972233" lon="12.4291972257">
		<tag k="name" v="Slåttvikåsen" />
		<tag k="place" v="quarter" />
		<tag k="ssr:stedsnr" v="774678" />
	</node>
	<node id="-636098" lat="65.6998055569" lon="12.3846222217">
		<tag k="fixme" v="consider seamark:type=rock or natural=shoal" />
		<tag k="name" v="Småskjæran" />
		<tag k="place" v="islet" />
		<tag k="ssr:stedsnr" v="774647" />
	</node>
	<node id="-636097" lat="65.6989027811" lon="12.4353527853">
		<tag k="name" v="Neset" />
		<tag k="place" v="farm" />
		<tag k="ssr:stedsnr" v="774639" />
	</node>
	<node id="-636096" lat="65.7107555591" lon="12.6152361191">
		<tag k="name" v="Jektvikja" />
		<tag k="natural" v="bay" />
		<tag k="ssr:stedsnr" v="774620" />
	</node>
	<node id="-636095" lat="65.706663893" lon="12.4003194512">
		<tag k="fixme" v="consider natural=peak for the most distinct mountains in the district" />
		<tag k="name" v="Juvikhågjen" />
		<tag k="natural" v="hill" />
		<tag k="place" v="locality" />
		<tag k="ssr:stedsnr" v="774602" />
	</node>
	<node id="-636094" lat="65.7231111075" lon="12.4956055512">
		<tag k="name" v="Dallia" />
		<tag k="natural" v="slope" />
		<tag k="place" v="locality" />
		<tag k="ssr:stedsnr" v="774592" />
	</node>
	<node id="-636093" lat="65.7108083367" lon="12.4123833289">
		<tag k="name" v="Juvikmyro" />
		<tag k="natural" v="wetland" />
		<tag k="ssr:stedsnr" v="774483" />
	</node>
	<node id="-636092" lat="65.751663891" lon="12.5704944496">
		<tag k="name" v="Slotteråsmyro" />
		<tag k="natural" v="wetland" />
		<tag k="ssr:stedsnr" v="774443" />
	</node>
	<node id="-636091" lat="65.7437388919" lon="12.5882277712">
		<tag k="name" v="Hælingshågjen" />
		<tag k="natural" v="hill" />
		<tag k="place" v="locality" />
		<tag k="ssr:stedsnr" v="774439" />
	</node>
	<node id="-636090" lat="65.7483083324" lon="12.5866972229">
		<tag k="name" v="Stormoen" />
		<tag k="place" v="locality" />
		<tag k="ssr:stedsnr" v="774437" />
	</node>
	<node id="-636089" lat="65.6530166711" lon="12.6302861128">
		<tag k="name" v="Ausen" />
		<tag k="place" v="farm" />
		<tag k="ssr:stedsnr" v="768912" />
	</node>
	<node id="-636088" lat="65.7253000035" lon="12.5012333375">
		<tag k="name" v="Dalelva" />
		<tag k="ssr:stedsnr" v="744178" />
		<tag k="waterway" v="stream" />
	</node>
	<node id="-636087" lat="65.667774999" lon="12.6380555457">
		<tag k="name" v="Mortenhaugen" />
		<tag k="place" v="farm" />
		<tag k="ssr:stedsnr" v="744058" />
	</node>
	<node id="-636086" lat="65.6284111135" lon="12.5973749987">
		<tag k="name" v="Lomtjørnan" />
		<tag k="natural" v="water" />
		<tag k="ssr:stedsnr" v="743933" />
	</node>
	<node id="-636085" lat="65.6073999966" lon="12.6587583422">
		<tag k="name" v="Snøfjellvatnan" />
		<tag k="natural" v="water" />
		<tag k="ssr:stedsnr" v="743911" />
		<tag k="water" v="lake" />
	</node>
	<node id="-636084" lat="65.6231305586" lon="12.7047249898">
		<tag k="name" v="Strumpdalen" />
		<tag k="natural" v="valley" />
		<tag k="place" v="locality" />
		<tag k="ssr:stedsnr" v="743905" />
	</node>
	<node id="-636083" lat="65.6468666678" lon="12.7771027686">
		<tag k="fixme" v="consider natural=peak for the most distinct mountains in the district" />
		<tag k="name" v="Bønnåklubben" />
		<tag k="natural" v="hill" />
		<tag k="place" v="locality" />
		<tag k="ssr:stedsnr" v="743857" />
	</node>
	<node id="-636082" lat="65.6074555593" lon="12.8380416612">
		<tag k="fixme" v="consider place=hamlet" />
		<tag k="name" v="Sætra" />
		<tag k="place" v="farm" />
		<tag k="ssr:stedsnr" v="743818" />
	</node>
	<node id="-636081" lat="65.6014805526" lon="12.7871499917">
		<tag k="name" v="Neset" />
		<tag k="natural" v="cape" />
		<tag k="ssr:stedsnr" v="743803" />
	</node>
	<node id="-636080" lat="65.7181638885" lon="12.6183749932">
		<tag k="fixme" v="consider natural=peak for the most distinct mountains in the district" />
		<tag k="name" v="Bufjellet" />
		<tag k="natural" v="hill" />
		<tag k="place" v="locality" />
		<tag k="ssr:stedsnr" v="743791" />
	</node>
	<node id="-636079" lat="65.6976722208" lon="12.8271305473">
		<tag k="name" v="Nordvassdalen" />
		<tag k="natural" v="valley" />
		<tag k="place" v="locality" />
		<tag k="ssr:stedsnr" v="743772" />
	</node>
	<node id="-636078" lat="65.6995055581" lon="12.903347216">
		<tag k="fixme" v="consider natural=peak for the most distinct mountains in the district" />
		<tag k="name" v="Burrienvaerie" />
		<tag k="name:sma" v="Burrienvaerie" />
		<tag k="natural" v="hill" />
		<tag k="place" v="locality" />
		<tag k="ssr:stedsnr" v="743769" />
	</node>
	<node id="-636077" lat="65.6929111086" lon="12.42712778">
		<tag k="name" v="Kjørsvika" />
		<tag k="place" v="farm" />
		<tag k="ssr:stedsnr" v="743592" />
	</node>
	<node id="-636076" lat="65.719130558" lon="12.6036666664">
		<tag k="name" v="Hamntindberget" />
		<tag k="natural" v="slope" />
		<tag k="place" v="locality" />
		<tag k="ssr:stedsnr" v="743281" />
	</node>
	<node id="-636075" lat="65.6446861101" lon="12.6935055456">
		<tag k="name" v="Langvågan" />
		<tag k="natural" v="bay" />
		<tag k="ssr:stedsnr" v="743141" />
	</node>
	<node id="-636074" lat="65.6456083373" lon="12.60750556">
		<tag k="fixme" v="consider natural=peak for the most distinct mountains in the district" />
		<tag k="name" v="Hestviktinden" />
		<tag k="natural" v="hill" />
		<tag k="place" v="locality" />
		<tag k="ssr:stedsnr" v="743138" />
	</node>
	<node id="-636073" lat="65.642323172" lon="12.5812127385">
		<tag k="fixme" v="consider place=hamlet" />
		<tag k="name" v="Åsen" />
		<tag k="place" v="farm" />
		<tag k="ssr:stedsnr" v="743137" />
	</node>
	<node id="-636072" lat="65.6412694444" lon="12.6668666617">
		<tag k="fixme" v="consider natural=peak for the most distinct mountains in the district" />
		<tag k="name" v="Tangvikfjellet" />
		<tag k="natural" v="hill" />
		<tag k="place" v="locality" />
		<tag k="ssr:stedsnr" v="743130" />
	</node>
	<node id="-636071" lat="65.6326777795" lon="12.5101250102">
		<tag k="name" v="Storhaugen" />
		<tag k="natural" v="hill" />
		<tag k="place" v="locality" />
		<tag k="ssr:stedsnr" v="743126" />
	</node>
	<node id="-636070" lat="65.6529638902" lon="12.568388887">
		<tag k="alt_name" v="Koppvatnan" />
		<tag k="name" v="Koppvatnet" />
		<tag k="natural" v="water" />
		<tag k="ssr:stedsnr" v="743124" />
	</node>
	<node id="-636069" lat="65.6512194402" lon="12.3868249992">
		<tag k="name" v="Gullåa" />
		<tag k="ssr:stedsnr" v="743120" />
		<tag k="waterway" v="stream" />
	</node>
	<node id="-636068" lat="65.6394999965" lon="12.3791583419">
		<tag k="name" v="Skiftesbekken" />
		<tag k="ssr:stedsnr" v="743118" />
		<tag k="waterway" v="stream" />
	</node>
	<node id="-636067" lat="65.7645916704" lon="12.5821083363">
		<tag k="name" v="Brennåa" />
		<tag k="ssr:stedsnr" v="743106" />
		<tag k="waterway" v="river" />
	</node>
	<node id="-636066" lat="65.6687416704" lon="12.339424993">
		<tag k="fixme" v="consider natural=peak for the most distinct mountains in the district" />
		<tag k="name" v="Hamnfjellet" />
		<tag k="natural" v="hill" />
		<tag k="place" v="locality" />
		<tag k="ssr:stedsnr" v="743097" />
	</node>
	<node id="-636065" lat="65.6694583315" lon="12.4080027806">
		<tag k="name" v="Sandosbekken" />
		<tag k="ssr:stedsnr" v="743083" />
		<tag k="waterway" v="stream" />
	</node>
	<node id="-636064" lat="65.6780083297" lon="12.3207055524">
		<tag k="name" v="Gårdsøya" />
		<tag k="place" v="islet" />
		<tag k="ssr:stedsnr" v="743077" />
	</node>
	<node id="-636063" lat="65.6753999996" lon="12.3382305663">
		<tag k="name" v="Trollhola" />
		<tag k="natural" v="valley" />
		<tag k="place" v="locality" />
		<tag k="ssr:stedsnr" v="743076" />
	</node>
	<node id="-636062" lat="65.6768944463" lon="12.5515388889">
		<tag k="name" v="Finntjørna" />
		<tag k="natural" v="water" />
		<tag k="ssr:stedsnr" v="743073" />
	</node>
	<node id="-636061" lat="65.6954472203" lon="12.5794833262">
		<tag k="name" v="Kilelva" />
		<tag k="ssr:stedsnr" v="743067" />
		<tag k="waterway" v="stream" />
	</node>
	<node id="-636060" lat="65.6822194435" lon="12.3588277782">
		<tag k="name" v="Langvatnet" />
		<tag k="natural" v="water" />
		<tag k="ssr:stedsnr" v="743050" />
	</node>
	<node id="-636059" lat="65.6856416711" lon="12.5257805561">
		<tag k="name" v="Snødalen" />
		<tag k="natural" v="valley" />
		<tag k="place" v="locality" />
		<tag k="ssr:stedsnr" v="743044" />
	</node>
	<node id="-636058" lat="65.6971361076" lon="12.3580694436">
		<tag k="name" v="Røyrøya" />
		<tag k="place" v="islet" />
		<tag k="ssr:stedsnr" v="743019" />
	</node>
	<node id="-636057" lat="65.7008583301" lon="12.4148861083">
		<tag k="name" v="Langgjerdet" />
		<tag k="place" v="farm" />
		<tag k="ssr:stedsnr" v="743015" />
	</node>
	<node id="-636056" lat="65.7030249965" lon="12.4178527721">
		<tag k="alt_name" v="Lislgjerdet" />
		<tag k="name" v="Lissgjerdet" />
		<tag k="place" v="farm" />
		<tag k="ssr:stedsnr" v="743012" />
	</node>
	<node id="-636055" lat="65.7041221416" lon="12.410911989">
		<tag k="name" v="Vågsgarden" />
		<tag k="place" v="farm" />
		<tag k="ssr:stedsnr" v="743008" />
	</node>
	<node id="-636054" lat="65.7013361118" lon="12.4685249924">
		<tag k="name" v="Hanslia" />
		<tag k="natural" v="slope" />
		<tag k="place" v="locality" />
		<tag k="ssr:stedsnr" v="743005" />
	</node>
	<node id="-636053" lat="65.7124222208" lon="12.6248055589">
		<tag k="name" v="Aunvågen" />
		<tag k="natural" v="bay" />
		<tag k="ssr:stedsnr" v="743001" />
	</node>
	<node id="-636052" lat="65.6979944416" lon="12.592613897">
		<tag k="name" v="Kilvikja" />
		<tag k="natural" v="bay" />
		<tag k="ssr:stedsnr" v="727440" />
	</node>
	<node id="-636051" lat="65.6794527772" lon="12.4347250096">
		<tag k="name" v="Olaisteinan" />
		<tag k="natural" v="stone" />
		<tag k="ssr:stedsnr" v="715719" />
	</node>
	<node id="-636050" lat="65.5919916693" lon="12.4096000016">
		<tag k="name" v="Vegglia" />
		<tag k="natural" v="slope" />
		<tag k="place" v="locality" />
		<tag k="ssr:stedsnr" v="714828" />
	</node>
	<node id="-636049" lat="65.6413944447" lon="12.3628750067">
		<tag k="fixme" v="consider seamark:type=rock or natural=shoal" />
		<tag k="name" v="Hågnesskjæret" />
		<tag k="place" v="islet" />
		<tag k="ssr:stedsnr" v="714785" />
	</node>
	<node id="-636048" lat="65.637938885" lon="12.3701555645">
		<tag k="name" v="Haugen" />
		<tag k="place" v="farm" />
		<tag k="ssr:stedsnr" v="714778" />
	</node>
	<node id="-636047" lat="65.6308277735" lon="12.5874666625">
		<tag k="name" v="Skvarbekken" />
		<tag k="ssr:stedsnr" v="714772" />
		<tag k="waterway" v="stream" />
	</node>
	<node id="-636046" lat="65.6437694458" lon="12.6250333267">
		<tag k="name" v="Samskogan" />
		<tag k="place" v="locality" />
		<tag k="ssr:stedsnr" v="714764" />
	</node>
	<node id="-636045" lat="65.6586916662" lon="12.5489666668">
		<tag k="name" v="Småvassdalsfjellet" />
		<tag k="natural" v="cliff" />
		<tag k="ssr:stedsnr" v="714745" />
	</node>
	<node id="-636044" lat="65.6839805521" lon="12.4171833383">
		<tag k="name" v="Amundviken" />
		<tag k="place" v="farm" />
		<tag k="ssr:stedsnr" v="714648" />
	</node>
	<node id="-636043" lat="65.6820527753" lon="12.32543333">
		<tag k="name" v="Laukvikja" />
		<tag k="natural" v="bay" />
		<tag k="ssr:stedsnr" v="714617" />
	</node>
	<node id="-636042" lat="65.6877888898" lon="12.4182611163">
		<tag k="name" v="Hansodden" />
		<tag k="natural" v="cape" />
		<tag k="ssr:stedsnr" v="714589" />
	</node>
	<node id="-636041" lat="65.6935361107" lon="12.4403694428">
		<tag k="name" v="Forahågjen" />
		<tag k="natural" v="hill" />
		<tag k="place" v="locality" />
		<tag k="ssr:stedsnr" v="714587" />
	</node>
	<node id="-636040" lat="65.6950972219" lon="12.460000004">
		<tag k="name" v="Trollbergan" />
		<tag k="natural" v="cliff" />
		<tag k="ssr:stedsnr" v="714557" />
	</node>
	<node id="-636039" lat="65.6993999992" lon="12.4089305464">
		<tag k="name" v="Torvhågjen" />
		<tag k="natural" v="hill" />
		<tag k="place" v="locality" />
		<tag k="ssr:stedsnr" v="714550" />
	</node>
	<node id="-636038" lat="65.7159194443" lon="12.6079916608">
		<tag k="name" v="Bjønnvikja" />
		<tag k="natural" v="bay" />
		<tag k="ssr:stedsnr" v="714510" />
	</node>
	<node id="-636037" lat="65.7251555584" lon="12.6057888845">
		<tag k="name" v="Grandalen" />
		<tag k="natural" v="valley" />
		<tag k="place" v="locality" />
		<tag k="ssr:stedsnr" v="714508" />
	</node>
	<node id="-636036" lat="65.7290527809" lon="12.5915305531">
		<tag k="name" v="Solbu" />
		<tag k="place" v="farm" />
		<tag k="ssr:stedsnr" v="714505" />
	</node>
	<node id="-636035" lat="65.7194777815" lon="12.4692166765">
		<tag k="fixme" v="consider seamark:type=rock or natural=shoal" />
		<tag k="name" v="Korsvikskjæret" />
		<tag k="place" v="islet" />
		<tag k="ssr:stedsnr" v="714474" />
	</node>
	<node id="-636034" lat="65.7491777768" lon="12.5909083323">
		<tag k="name" v="Almlibekken" />
		<tag k="ssr:stedsnr" v="714427" />
		<tag k="waterway" v="stream" />
	</node>
	<node id="-636033" lat="65.7446249969" lon="12.5602916579">
		<tag k="name" v="Hestdalen" />
		<tag k="natural" v="valley" />
		<tag k="place" v="locality" />
		<tag k="ssr:stedsnr" v="714425" />
	</node>
	<node id="-636032" lat="65.7290805533" lon="12.4850861106">
		<tag k="fixme" v="consider seamark:type=rock or natural=shoal" />
		<tag k="name" v="Sørstrandskjæran" />
		<tag k="place" v="islet" />
		<tag k="ssr:stedsnr" v="714409" />
	</node>
	<node id="-636031" lat="65.721308336" lon="12.4482888925">
		<tag k="name" v="Nordheilvikja" />
		<tag k="natural" v="bay" />
		<tag k="ssr:stedsnr" v="714386" />
	</node>
	<node id="-636030" lat="65.7470527781" lon="12.5764777775">
		<tag k="name" v="Fægdaskardet" />
		<tag k="natural" v="valley" />
		<tag k="place" v="locality" />
		<tag k="ssr:stedsnr" v="714333" />
	</node>
	<node id="-636029" lat="65.759719447" lon="12.5666055612">
		<tag k="name" v="Gjøtstrupen" />
		<tag k="natural" v="valley" />
		<tag k="place" v="locality" />
		<tag k="ssr:stedsnr" v="713419" />
	</node>
	<node id="-636028" lat="65.756058335" lon="12.5689916689">
		<tag k="name" v="Øverstokka" />
		<tag k="place" v="quarter" />
		<tag k="ssr:stedsnr" v="713408" />
	</node>
	<node id="-636027" lat="65.7646972217" lon="12.5788972268">
		<tag k="name" v="Bakkan" />
		<tag k="natural" v="slope" />
		<tag k="place" v="locality" />
		<tag k="ssr:stedsnr" v="713328" />
	</node>
	<node id="-636026" lat="65.7701555547" lon="12.5868361011">
		<tag k="name" v="Giskåa" />
		<tag k="ssr:stedsnr" v="713320" />
		<tag k="waterway" v="stream" />
	</node>
	<node id="-636025" lat="65.6180555563" lon="12.4165777722">
		<tag k="name" v="Liåvatnet" />
		<tag k="natural" v="water" />
		<tag k="ssr:stedsnr" v="683919" />
		<tag k="water" v="lake" />
	</node>
	<node id="-636024" lat="65.6365833336" lon="12.7042277806">
		<tag k="name" v="Langvågvatnan" />
		<tag k="natural" v="water" />
		<tag k="ssr:stedsnr" v="683915" />
	</node>
	<node id="-636023" lat="65.5781055593" lon="12.3916916634">
		<tag k="name" v="Andalsvågen" />
		<tag k="natural" v="bay" />
		<tag k="ssr:stedsnr" v="683895" />
	</node>
	<node id="-636022" lat="65.6685361074" lon="12.9217916594">
		<tag k="alt_name" v="Austerfjordvatnan, nordre" />
		<tag k="name" v="Nordre Austerfjordvatnan" />
		<tag k="natural" v="water" />
		<tag k="ssr:stedsnr" v="683839" />
		<tag k="water" v="lake" />
	</node>
	<node id="-636021" lat="65.6327388892" lon="12.7814388872">
		<tag k="name" v="Ytterskogen" />
		<tag k="place" v="isolated_dwelling" />
		<tag k="ssr:stedsnr" v="683808" />
	</node>
	<node id="-636020" lat="65.6269416668" lon="12.3795249984">
		<tag k="name" v="Mølnhusbekken" />
		<tag k="ssr:stedsnr" v="683787" />
		<tag k="waterway" v="stream" />
	</node>
	<node id="-636019" lat="65.6174888852" lon="12.2997611011">
		<tag k="name" v="Buøya" />
		<tag k="place" v="island" />
		<tag k="ssr:stedsnr" v="683785" />
	</node>
	<node id="-636018" lat="65.7023555572" lon="12.5775611105">
		<tag k="name" v="Grønlia" />
		<tag k="natural" v="slope" />
		<tag k="place" v="locality" />
		<tag k="ssr:stedsnr" v="683763" />
	</node>
	<node id="-636017" lat="65.5629611075" lon="12.7299083235">
		<tag k="name" v="Sprutdalselva" />
		<tag k="ssr:stedsnr" v="683662" />
		<tag k="waterway" v="stream" />
	</node>
	<node id="-636016" lat="65.5867722224" lon="12.756925005">
		<tag k="fixme" v="consider natural=peak for the most distinct mountains in the district" />
		<tag k="name" v="Rubben" />
		<tag k="natural" v="hill" />
		<tag k="place" v="locality" />
		<tag k="ssr:stedsnr" v="683645" />
	</node>
	<node id="-636015" lat="65.7106722192" lon="12.4341472253">
		<tag k="alt_name" v="Høyvika" />
		<tag k="name" v="Høyvikja" />
		<tag k="natural" v="bay" />
		<tag k="ssr:stedsnr" v="683225" />
	</node>
	<node id="-636014" lat="65.6680333347" lon="12.6399444464">
		<tag k="name" v="Kvalvågen" />
		<tag k="place" v="farm" />
		<tag k="ssr:stedsnr" v="683082" />
	</node>
	<node id="-636013" lat="65.6636777768" lon="12.2910249992">
		<tag k="fixme" v="consider seamark:type=rock or natural=shoal" />
		<tag k="name" v="Pådungen" />
		<tag k="place" v="islet" />
		<tag k="ssr:stedsnr" v="683065" />
	</node>
	<node id="-636012" lat="65.6667111131" lon="12.5671749902">
		<tag k="name" v="Staulan" />
		<tag k="place" v="isolated_dwelling" />
		<tag k="ssr:stedsnr" v="683060" />
	</node>
	<node id="-636011" lat="65.6672250042" lon="12.4048888823">
		<tag k="fixme" v="multiple name tags, choose one and add the other to alt_name" />
		<tag k="name" v="Drògsåa;Drògsåbekken" />
		<tag k="ssr:stedsnr" v="683055" />
		<tag k="waterway" v="stream" />
	</node>
	<node id="-636010" lat="65.6874027799" lon="12.6392166592">
		<tag k="alt_name" v="Blåvika" />
		<tag k="name" v="Blåvikja" />
		<tag k="natural" v="bay" />
		<tag k="ssr:stedsnr" v="683049" />
	</node>
	<node id="-636009" lat="65.6710472263" lon="12.3155138865">
		<tag k="name" v="Naustholmen" />
		<tag k="place" v="islet" />
		<tag k="ssr:stedsnr" v="683044" />
	</node>
	<node id="-636008" lat="65.6727777801" lon="12.3397277699">
		<tag k="fixme" v="consider natural=peak for the most distinct mountains in the district" />
		<tag k="name" v="Hamnfjellet" />
		<tag k="natural" v="hill" />
		<tag k="place" v="locality" />
		<tag k="ssr:stedsnr" v="683043" />
	</node>
	<node id="-636007" lat="65.6807861127" lon="12.3304777808">
		<tag k="name" v="Hamnsundet" />
		<tag k="natural" v="strait" />
		<tag k="ssr:stedsnr" v="683031" />
	</node>
	<node id="-636006" lat="65.6886694407" lon="12.4238500005">
		<tag k="name" v="Skreddarvika" />
		<tag k="place" v="farm" />
		<tag k="ssr:stedsnr" v="683027" />
	</node>
	<node id="-636005" lat="65.6986805519" lon="12.5143027776">
		<tag k="fixme" v="multiple name tags, choose one and add the other to alt_name; consider natural=peak for the most distinct mountains in the district" />
		<tag k="name" v="Forvikfjellet;Snøfjellet" />
		<tag k="natural" v="hill" />
		<tag k="place" v="locality" />
		<tag k="ssr:stedsnr" v="683010" />
	</node>
	<node id="-636004" lat="65.731613885" lon="12.4968055521">
		<tag k="name" v="Middagshaugen" />
		<tag k="natural" v="hill" />
		<tag k="place" v="locality" />
		<tag k="ssr:stedsnr" v="682243" />
	</node>
	<node id="-636003" lat="65.725769447" lon="12.4488249942">
		<tag k="name" v="Nordodden" />
		<tag k="natural" v="cape" />
		<tag k="ssr:stedsnr" v="682240" />
	</node>
	<node id="-636002" lat="65.6471999997" lon="12.672077767">
		<tag k="name" v="Tangvikneset" />
		<tag k="natural" v="cape" />
		<tag k="ssr:stedsnr" v="682143" />
	</node>
	<node id="-636001" lat="65.6458499968" lon="12.636002778">
		<tag k="name" v="Bjørnvikleira" />
		<tag k="natural" v="bay" />
		<tag k="ssr:stedsnr" v="682137" />
	</node>
	<node id="-636000" lat="65.6518388868" lon="12.5469750082">
		<tag k="name" v="Leirdamvatnet" />
		<tag k="natural" v="water" />
		<tag k="ssr:stedsnr" v="682128" />
	</node>
	<node id="-635999" lat="65.6502111091" lon="12.2899888807">
		<tag k="name" v="Søresøyodden" />
		<tag k="natural" v="cape" />
		<tag k="ssr:stedsnr" v="682090" />
	</node>
	<node id="-635998" lat="65.6924916678" lon="12.377177778">
		<tag k="alt_name" v="Rasmusvågen" />
		<tag k="name" v="Rasmusvågjen" />
		<tag k="natural" v="bay" />
		<tag k="ssr:stedsnr" v="682036" />
	</node>
	<node id="-635997" lat="65.6147638848" lon="12.3641888889">
		<tag k="name" v="Sørstrangneset" />
		<tag k="natural" v="cape" />
		<tag k="ssr:stedsnr" v="653823" />
	</node>
	<node id="-635996" lat="65.6325611122" lon="12.3677916582">
		<tag k="name" v="Vangen" />
		<tag k="place" v="farm" />
		<tag k="ssr:stedsnr" v="653816" />
	</node>
	<node id="-635995" lat="65.6364583348" lon="12.3654277747">
		<tag k="name" v="Nerstua" />
		<tag k="place" v="farm" />
		<tag k="ssr:stedsnr" v="653813" />
	</node>
	<node id="-635994" lat="65.6422611134" lon="12.3814166587">
		<tag k="name" v="Bjørklia" />
		<tag k="natural" v="slope" />
		<tag k="place" v="locality" />
		<tag k="ssr:stedsnr" v="653809" />
	</node>
	<node id="-635993" lat="65.6360555519" lon="12.5532666581">
		<tag k="name" v="Stormarkelva" />
		<tag k="ssr:stedsnr" v="653802" />
		<tag k="waterway" v="river" />
	</node>
	<node id="-635992" lat="65.6372583305" lon="12.6183861088">
		<tag k="name" v="Tømmerdalen" />
		<tag k="natural" v="valley" />
		<tag k="place" v="locality" />
		<tag k="ssr:stedsnr" v="653800" />
	</node>
	<node id="-635991" lat="65.6463361082" lon="12.618847229">
		<tag k="name" v="Botnan" />
		<tag k="natural" v="valley" />
		<tag k="place" v="locality" />
		<tag k="ssr:stedsnr" v="653796" />
	</node>
	<node id="-635990" lat="65.6606083356" lon="12.4038444537">
		<tag k="name" v="Kvitfjellet" />
		<tag k="natural" v="hill" />
		<tag k="place" v="locality" />
		<tag k="ssr:stedsnr" v="653775" />
	</node>
	<node id="-635989" lat="65.6631499968" lon="12.3111527775">
		<tag k="name" v="Flyplassen" />
		<tag k="place" v="locality" />
		<tag k="ssr:stedsnr" v="653760" />
	</node>
	<node id="-635988" lat="65.6752222196" lon="12.4197583319">
		<tag k="name" v="Småbergan" />
		<tag k="place" v="locality" />
		<tag k="ssr:stedsnr" v="653722" />
	</node>
	<node id="-635987" lat="65.6791166699" lon="12.4133527752">
		<tag k="name" v="Møllohågjen" />
		<tag k="natural" v="hill" />
		<tag k="place" v="locality" />
		<tag k="ssr:stedsnr" v="653719" />
	</node>
	<node id="-635986" lat="65.6814388877" lon="12.4389083228">
		<tag k="name" v="Slettheia" />
		<tag k="natural" v="slope" />
		<tag k="place" v="locality" />
		<tag k="ssr:stedsnr" v="653685" />
	</node>
	<node id="-635985" lat="65.6806638855" lon="12.3366638871">
		<tag k="name" v="Oksdalen" />
		<tag k="natural" v="valley" />
		<tag k="place" v="locality" />
		<tag k="ssr:stedsnr" v="653660" />
	</node>
	<node id="-635984" lat="65.6889916676" lon="12.4300833327">
		<tag k="fixme" v="consider natural=peak for the most distinct mountains in the district" />
		<tag k="name" v="Dyråsen" />
		<tag k="natural" v="hill" />
		<tag k="place" v="locality" />
		<tag k="ssr:stedsnr" v="653639" />
	</node>
	<node id="-635983" lat="65.6953166658" lon="12.4532222283">
		<tag k="name" v="Kvannlibekken" />
		<tag k="ssr:stedsnr" v="653615" />
		<tag k="waterway" v="stream" />
	</node>
	<node id="-635982" lat="65.6920861072" lon="12.396538891">
		<tag k="amenity" v="school" />
		<tag k="name" v="Hesstun skole" />
		<tag k="ssr:stedsnr" v="653568" />
	</node>
	<node id="-635981" lat="65.7173055554" lon="12.6046916642">
		<tag k="name" v="Buodden" />
		<tag k="natural" v="cape" />
		<tag k="ssr:stedsnr" v="653560" />
	</node>
	<node id="-635980" lat="65.7262500037" lon="12.599625002">
		<tag k="name" v="Syskogen" />
		<tag k="place" v="quarter" />
		<tag k="ssr:stedsnr" v="653559" />
	</node>
	<node id="-635979" lat="65.7018333358" lon="12.4113361119">
		<tag k="amenity" v="place_of_worship" />
		<tag k="fixme" v="specify religion=*, denomination=*, building=* etc" />
		<tag k="name" v="Våg bedehus" />
		<tag k="ssr:stedsnr" v="653538" />
	</node>
	<node id="-635978" lat="65.7019249986" lon="12.4047583348">
		<tag k="fixme" v="consider natural=peak for the most distinct mountains in the district" />
		<tag k="name" v="Nordhammaren" />
		<tag k="natural" v="hill" />
		<tag k="place" v="locality" />
		<tag k="ssr:stedsnr" v="653536" />
	</node>
	<node id="-635977" lat="65.7138416629" lon="12.4634111195">
		<tag k="name" v="Stallbakkan" />
		<tag k="natural" v="hill" />
		<tag k="place" v="locality" />
		<tag k="ssr:stedsnr" v="653524" />
	</node>
	<node id="-635976" lat="65.7356972179" lon="12.5977777789">
		<tag k="name" v="Høglia" />
		<tag k="natural" v="slope" />
		<tag k="place" v="locality" />
		<tag k="ssr:stedsnr" v="653458" />
	</node>
	<node id="-635975" lat="65.7198611155" lon="12.4456305606">
		<tag k="name" v="Heilvikhågjen" />
		<tag k="natural" v="hill" />
		<tag k="place" v="locality" />
		<tag k="ssr:stedsnr" v="653434" />
	</node>
	<node id="-635974" lat="65.7535722206" lon="12.5800888829">
		<tag k="name" v="Stormyra" />
		<tag k="place" v="locality" />
		<tag k="ssr:stedsnr" v="652387" />
	</node>
	<node id="-635973" lat="65.7541277788" lon="12.5574527858">
		<tag k="name" v="Storvollen" />
		<tag k="place" v="locality" />
		<tag k="ssr:stedsnr" v="652372" />
	</node>
	<node id="-635972" lat="65.6018333356" lon="12.3748499961">
		<tag k="name" v="Neverlia" />
		<tag k="natural" v="slope" />
		<tag k="place" v="locality" />
		<tag k="ssr:stedsnr" v="622912" />
	</node>
	<node id="-635971" lat="65.5708166709" lon="12.391888883">
		<tag k="name" v="Otergreina" />
		<tag k="place" v="locality" />
		<tag k="ssr:stedsnr" v="622865" />
	</node>
	<node id="-635970" lat="65.6461888894" lon="12.7550222124">
		<tag k="fixme" v="consider place=hamlet" />
		<tag k="name" v="Bønnåa" />
		<tag k="place" v="farm" />
		<tag k="ssr:stedsnr" v="622830" />
	</node>
	<node id="-635969" lat="65.6011573727" lon="12.7755966298">
		<tag k="fixme" v="consider place=hamlet" />
		<tag k="name" v="Lakselva" />
		<tag k="place" v="farm" />
		<tag k="ssr:stedsnr" v="622796" />
	</node>
	<node id="-635968" lat="65.5545277749" lon="12.9839416724">
		<tag k="alt_name:no" v="Vistvatnet, søre" />
		<tag k="alt_name:sma" v="Væstanjaevrie, åårjel" />
		<tag k="name" v="Søre Vistvatnet - Åårjel Væstanjaevrie" />
		<tag k="name:no" v="Søre Vistvatnet" />
		<tag k="name:sma" v="Åårjel Væstanjaevrie" />
		<tag k="natural" v="water" />
		<tag k="ssr:stedsnr" v="622687" />
		<tag k="water" v="lake" />
	</node>
	<node id="-635967" lat="65.5992166699" lon="12.7998055631">
		<tag k="name" v="Sagbekken" />
		<tag k="ssr:stedsnr" v="622664" />
		<tag k="waterway" v="stream" />
	</node>
	<node id="-635966" lat="65.6030638905" lon="12.9953305487">
		<tag k="fixme" v="consider natural=peak for the most distinct mountains in the district" />
		<tag k="name" v="Storvassfjellet - Stoerrevaerie" />
		<tag k="name:no" v="Storvassfjellet" />
		<tag k="name:sma" v="Stoerrevaerie" />
		<tag k="natural" v="hill" />
		<tag k="place" v="locality" />
		<tag k="ssr:stedsnr" v="622660" />
	</node>
	<node id="-635965" lat="65.7204000002" lon="12.6641444409">
		<tag k="alt_name" v="Kvannlivatnet, nedre" />
		<tag k="name" v="Nedre Kvannlivatnet" />
		<tag k="natural" v="water" />
		<tag k="ssr:stedsnr" v="622251" />
	</node>
	<node id="-635964" lat="65.6328083311" lon="12.42443333">
		<tag k="fixme" v="consider natural=peak for the most distinct mountains in the district" />
		<tag k="name" v="Saltkartinden" />
		<tag k="natural" v="hill" />
		<tag k="place" v="locality" />
		<tag k="ssr:stedsnr" v="622114" />
	</node>
	<node id="-635963" lat="65.6623027787" lon="12.3501388813">
		<tag k="name" v="Finnkotdalen" />
		<tag k="natural" v="valley" />
		<tag k="place" v="locality" />
		<tag k="ssr:stedsnr" v="622103" />
	</node>
	<node id="-635962" lat="65.6594194443" lon="12.3307111154">
		<tag k="name" v="Storvatnet" />
		<tag k="natural" v="water" />
		<tag k="ssr:stedsnr" v="622102" />
	</node>
	<node id="-635961" lat="65.6888416695" lon="12.6701611029">
		<tag k="name" v="Storsteinvika" />
		<tag k="natural" v="bay" />
		<tag k="ssr:stedsnr" v="622063" />
	</node>
	<node id="-635960" lat="65.694002774" lon="12.6098277669">
		<tag k="name" v="Kistneset" />
		<tag k="natural" v="cape" />
		<tag k="ssr:stedsnr" v="622043" />
	</node>
	<node id="-635959" lat="65.6998548169" lon="12.6421180069">
		<tag k="fixme" v="consider place=hamlet" />
		<tag k="name" v="Almosen" />
		<tag k="place" v="farm" />
		<tag k="ssr:stedsnr" v="622042" />
	</node>
	<node id="-635958" lat="65.6833361108" lon="12.3701083272">
		<tag k="name" v="Mølnhaugbekken" />
		<tag k="ssr:stedsnr" v="622040" />
		<tag k="waterway" v="stream" />
	</node>
	<node id="-635957" lat="65.6977277779" lon="12.5879611196">
		<tag k="name" v="Brauta" />
		<tag k="place" v="farm" />
		<tag k="ssr:stedsnr" v="622020" />
	</node>
	<node id="-635956" lat="65.7161250006" lon="12.4929361075">
		<tag k="name" v="Strupen" />
		<tag k="natural" v="valley" />
		<tag k="place" v="locality" />
		<tag k="ssr:stedsnr" v="621247" />
	</node>
	<node id="-635955" lat="65.7339027781" lon="12.4502111168">
		<tag k="name" v="Storgrunnen" />
		<tag k="natural" v="shoal" />
		<tag k="place" v="locality" />
		<tag k="ssr:stedsnr" v="621217" />
	</node>
	<node id="-635954" lat="65.7452916705" lon="12.6727249923">
		<tag k="name" v="Brennåskardet" />
		<tag k="natural" v="valley" />
		<tag k="place" v="locality" />
		<tag k="ssr:stedsnr" v="621214" />
	</node>
	<node id="-635953" lat="65.6263250039" lon="12.3358333394">
		<tag k="name" v="Ristaren" />
		<tag k="natural" v="shoal" />
		<tag k="place" v="locality" />
		<tag k="ssr:stedsnr" v="621118" />
	</node>
	<node id="-635952" lat="65.6473805539" lon="12.5312416748">
		<tag k="name" v="Tasslihalsen" />
		<tag k="natural" v="valley" />
		<tag k="place" v="locality" />
		<tag k="ssr:stedsnr" v="621105" />
	</node>
	<node id="-635951" lat="65.6438777763" lon="12.5412277727">
		<tag k="name" v="Dyrvollvatnan" />
		<tag k="natural" v="water" />
		<tag k="ssr:stedsnr" v="621094" />
	</node>
	<node id="-635950" lat="65.656594443" lon="12.6290861118">
		<tag k="fixme" v="multiple name tags, choose one and add the other to alt_name" />
		<tag k="name" v="Hylla;Hyllhaugen" />
		<tag k="natural" v="hill" />
		<tag k="place" v="locality" />
		<tag k="ssr:stedsnr" v="621088" />
	</node>
	<node id="-635949" lat="65.6557138928" lon="12.711908329">
		<tag k="name" v="Bønnålia" />
		<tag k="natural" v="slope" />
		<tag k="place" v="locality" />
		<tag k="ssr:stedsnr" v="621080" />
	</node>
	<node id="-635948" lat="65.7020722235" lon="12.395269435">
		<tag k="fixme" v="multiple name tags, choose one and add the other to alt_name" />
		<tag k="name" v="Bryggeneset;Bryggnesodden" />
		<tag k="natural" v="cape" />
		<tag k="ssr:stedsnr" v="621012" />
	</node>
	<node id="-635947" lat="65.5793555515" lon="12.4051166578">
		<tag k="name" v="Slettberget" />
		<tag k="place" v="locality" />
		<tag k="ssr:stedsnr" v="592878" />
	</node>
	<node id="-635946" lat="65.5842138858" lon="12.3817305653">
		<tag k="name" v="Hyllo" />
		<tag k="place" v="locality" />
		<tag k="ssr:stedsnr" v="592871" />
	</node>
	<node id="-635945" lat="65.609147222" lon="12.3748722233">
		<tag k="name" v="Forneslia" />
		<tag k="natural" v="slope" />
		<tag k="place" v="locality" />
		<tag k="ssr:stedsnr" v="592863" />
	</node>
	<node id="-635944" lat="65.6042416682" lon="12.3638638838">
		<tag k="name" v="Sørfjæro" />
		<tag k="natural" v="bay" />
		<tag k="ssr:stedsnr" v="592860" />
	</node>
	<node id="-635943" lat="65.6199111144" lon="12.3768222161">
		<tag k="name" v="Kleivdalsurda" />
		<tag k="natural" v="scree" />
		<tag k="ssr:stedsnr" v="592856" />
	</node>
	<node id="-635942" lat="65.6358833354" lon="12.3760861041">
		<tag k="name" v="Steinan" />
		<tag k="natural" v="stone" />
		<tag k="ssr:stedsnr" v="592843" />
	</node>
	<node id="-635941" lat="65.6398277818" lon="12.6013861203">
		<tag k="name" v="Innerlia" />
		<tag k="natural" v="slope" />
		<tag k="place" v="locality" />
		<tag k="ssr:stedsnr" v="592831" />
	</node>
	<node id="-635940" lat="65.637283329" lon="12.6023138966">
		<tag k="name" v="Gråfjellet" />
		<tag k="natural" v="hill" />
		<tag k="place" v="locality" />
		<tag k="ssr:stedsnr" v="592832" />
	</node>
	<node id="-635939" lat="65.6529249962" lon="12.6315166585">
		<tag k="name" v="Kveldhagen" />
		<tag k="natural" v="slope" />
		<tag k="place" v="locality" />
		<tag k="ssr:stedsnr" v="592821" />
	</node>
	<node id="-635938" lat="65.6535611096" lon="12.6384777883">
		<tag k="name" v="Osbergan" />
		<tag k="natural" v="slope" />
		<tag k="place" v="locality" />
		<tag k="ssr:stedsnr" v="592819" />
	</node>
	<node id="-635937" lat="65.656447224" lon="12.6399555627">
		<tag k="name" v="Buvika" />
		<tag k="natural" v="bay" />
		<tag k="ssr:stedsnr" v="592814" />
	</node>
	<node id="-635936" lat="65.6546999961" lon="12.3079277795">
		<tag k="name" v="Singerholet" />
		<tag k="natural" v="valley" />
		<tag k="place" v="locality" />
		<tag k="ssr:stedsnr" v="592786" />
	</node>
	<node id="-635935" lat="65.6760555535" lon="12.4043138915">
		<tag k="name" v="Synesodden" />
		<tag k="natural" v="cape" />
		<tag k="ssr:stedsnr" v="592744" />
	</node>
	<node id="-635934" lat="65.6721972238" lon="12.3289944351">
		<tag k="name" v="Nordlia" />
		<tag k="natural" v="slope" />
		<tag k="place" v="locality" />
		<tag k="ssr:stedsnr" v="592727" />
	</node>
	<node id="-635933" lat="65.6766138902" lon="12.3353888859">
		<tag k="name" v="Trollholet" />
		<tag k="natural" v="valley" />
		<tag k="place" v="locality" />
		<tag k="ssr:stedsnr" v="592678" />
	</node>
	<node id="-635932" lat="65.70078333" lon="12.3992861119">
		<tag k="name" v="Hammarvikja" />
		<tag k="natural" v="bay" />
		<tag k="ssr:stedsnr" v="592638" />
	</node>
	<node id="-635931" lat="65.6917305514" lon="12.3968111202">
		<tag k="amenity" v="community_centre" />
		<tag k="name" v="Hesstun ungdomshus" />
		<tag k="ssr:stedsnr" v="592617" />
	</node>
	<node id="-635930" lat="65.6894111072" lon="12.4110083263">
		<tag k="fixme" v="consider seamark:type=rock or natural=shoal" />
		<tag k="name" v="Roparskjæret" />
		<tag k="place" v="islet" />
		<tag k="ssr:stedsnr" v="592612" />
	</node>
	<node id="-635929" lat="65.7276777757" lon="12.5885333357">
		<tag k="name" v="Syvikodden" />
		<tag k="natural" v="cape" />
		<tag k="ssr:stedsnr" v="592598" />
	</node>
	<node id="-635928" lat="65.7032111113" lon="12.4140166747">
		<tag k="name" v="Alberthågjen" />
		<tag k="natural" v="hill" />
		<tag k="place" v="locality" />
		<tag k="ssr:stedsnr" v="592583" />
	</node>
	<node id="-635927" lat="65.6910361148" lon="12.3702166693">
		<tag k="man_made" v="quay" />
		<tag k="name" v="D/S-kai Hestun" />
		<tag k="place" v="locality" />
		<tag k="ssr:stedsnr" v="592581" />
	</node>
	<node id="-635926" lat="65.7103472188" lon="12.6190138821">
		<tag k="name" v="Liss-Aunholmen" />
		<tag k="place" v="islet" />
		<tag k="ssr:stedsnr" v="592576" />
	</node>
	<node id="-635925" lat="65.7380083301" lon="12.5692472306">
		<tag k="name" v="Strenderen" />
		<tag k="natural" v="beach" />
		<tag k="place" v="locality" />
		<tag k="ssr:stedsnr" v="592527" />
	</node>
	<node id="-635924" lat="65.7120777789" lon="12.4353444352">
		<tag k="name" v="Karistrandvikja" />
		<tag k="natural" v="bay" />
		<tag k="ssr:stedsnr" v="592504" />
	</node>
	<node id="-635923" lat="65.7270444445" lon="12.48353055">
		<tag k="name" v="Åbergan" />
		<tag k="natural" v="cape" />
		<tag k="ssr:stedsnr" v="592496" />
	</node>
	<node id="-635922" lat="65.7187361155" lon="12.4446416712">
		<tag k="name" v="Hulderhågjen" />
		<tag k="natural" v="hill" />
		<tag k="place" v="locality" />
		<tag k="ssr:stedsnr" v="592487" />
	</node>
	<node id="-635921" lat="65.7178805598" lon="12.4422055648">
		<tag k="name" v="Gjerdet" />
		<tag k="place" v="farm" />
		<tag k="ssr:stedsnr" v="592469" />
	</node>
	<node id="-635920" lat="65.7316750003" lon="12.493513894">
		<tag k="name" v="Sletthyllo" />
		<tag k="place" v="locality" />
		<tag k="ssr:stedsnr" v="592455" />
	</node>
	<node id="-635919" lat="65.760972218" lon="12.5785750044">
		<tag k="name" v="Klemethågjen" />
		<tag k="natural" v="ridge" />
		<tag k="place" v="locality" />
		<tag k="ssr:stedsnr" v="592439" />
	</node>
	<node id="-635918" lat="65.7514472202" lon="12.5392416731">
		<tag k="name" v="Sørkalvhyllo" />
		<tag k="place" v="locality" />
		<tag k="ssr:stedsnr" v="592428" />
	</node>
	<node id="-635917" lat="65.7576527768" lon="12.5548972328">
		<tag k="name" v="Skjåberget" />
		<tag k="natural" v="cape" />
		<tag k="ssr:stedsnr" v="592349" />
	</node>
	<node id="-635916" lat="65.7651694441" lon="12.5762888784">
		<tag k="name" v="Hammaren" />
		<tag k="natural" v="cliff" />
		<tag k="ssr:stedsnr" v="592340" />
	</node>
	<node id="-635915" lat="65.773652782" lon="12.5845027889">
		<tag k="name" v="Tjønnvikja" />
		<tag k="natural" v="bay" />
		<tag k="ssr:stedsnr" v="592331" />
	</node>
	<node id="-635914" lat="65.6857305587" lon="12.4186722213">
		<tag k="name" v="Nyheim" />
		<tag k="place" v="farm" />
		<tag k="ssr:stedsnr" v="592713" />
	</node>
	<node id="-635913" lat="65.7127051503" lon="12.4590909907">
		<tag k="amenity" v="ferry_terminal" />
		<tag k="name" v="Forvika" />
		<tag k="ssr:stedsnr" v="571112" />
	</node>
	<node id="-635912" lat="65.5575083339" lon="12.4205166695">
		<tag k="fixme" v="consider natural=peak for the most distinct mountains in the district" />
		<tag k="name" v="Andalshatten" />
		<tag k="natural" v="hill" />
		<tag k="place" v="locality" />
		<tag k="ssr:stedsnr" v="561999" />
	</node>
	<node id="-635911" lat="65.5624055594" lon="12.7070333271">
		<tag k="name" v="Sprutdalen" />
		<tag k="natural" v="valley" />
		<tag k="place" v="locality" />
		<tag k="ssr:stedsnr" v="561975" />
	</node>
	<node id="-635910" lat="65.6131583379" lon="12.3898555511">
		<tag k="fixme" v="consider natural=peak for the most distinct mountains in the district" />
		<tag k="name" v="Hanslikammen" />
		<tag k="natural" v="hill" />
		<tag k="place" v="locality" />
		<tag k="ssr:stedsnr" v="561927" />
	</node>
	<node id="-635909" lat="65.6098166657" lon="12.3627833359">
		<tag k="fixme" v="multiple name tags, choose one and add the other to alt_name" />
		<tag k="name" v="Forneset;Ørntuva" />
		<tag k="natural" v="cape" />
		<tag k="ssr:stedsnr" v="561919" />
	</node>
	<node id="-635908" lat="65.6218694473" lon="12.61225001">
		<tag k="name" v="Rundvatnet" />
		<tag k="natural" v="water" />
		<tag k="ssr:stedsnr" v="561920" />
	</node>
	<node id="-635907" lat="65.5792500026" lon="12.4050138873">
		<tag k="historic" v="shieling" />
		<tag k="name" v="Staulen" />
		<tag k="place" v="locality" />
		<tag k="ssr:stedsnr" v="561886" />
	</node>
	<node id="-635906" lat="65.5815277748" lon="12.4207611141">
		<tag k="name" v="Mølnelva" />
		<tag k="ssr:stedsnr" v="561867" />
		<tag k="waterway" v="stream" />
	</node>
	<node id="-635905" lat="65.6726472194" lon="12.8279638807">
		<tag k="name" v="Krongelvatnet" />
		<tag k="natural" v="water" />
		<tag k="ssr:stedsnr" v="561861" />
		<tag k="water" v="lake" />
	</node>
	<node id="-635904" lat="65.626280553" lon="12.8198388866">
		<tag k="alt_name" v="Austerfjordvatnet, s" />
		<tag k="name" v="Søre Austerfjordvatnet" />
		<tag k="natural" v="water" />
		<tag k="ssr:stedsnr" v="561839" />
	</node>
	<node id="-635903" lat="65.6038750027" lon="12.7658083367">
		<tag k="fixme" v="consider natural=peak for the most distinct mountains in the district" />
		<tag k="name" v="Båtvikfjellet" />
		<tag k="natural" v="hill" />
		<tag k="place" v="locality" />
		<tag k="ssr:stedsnr" v="561807" />
	</node>
	<node id="-635902" lat="65.6106249987" lon="12.8547888914">
		<tag k="name" v="Sæterelva" />
		<tag k="ssr:stedsnr" v="561800" />
		<tag k="waterway" v="river" />
	</node>
	<node id="-635901" lat="65.566977774" lon="12.7513555467">
		<tag k="name" v="Laksmarkvatnet" />
		<tag k="natural" v="water" />
		<tag k="ssr:stedsnr" v="561695" />
		<tag k="water" v="lake" />
	</node>
	<node id="-635900" lat="65.5812583343" lon="12.7315972304">
		<tag k="fixme" v="consider natural=peak for the most distinct mountains in the district" />
		<tag k="name" v="Raudmotinden" />
		<tag k="natural" v="hill" />
		<tag k="place" v="locality" />
		<tag k="ssr:stedsnr" v="561681" />
	</node>
	<node id="-635899" lat="65.5891611147" lon="12.7390305519">
		<tag k="name" v="Snøfjellbotnet" />
		<tag k="natural" v="valley" />
		<tag k="place" v="locality" />
		<tag k="ssr:stedsnr" v="561675" />
	</node>
	<node id="-635898" lat="65.6073388863" lon="12.8931583337">
		<tag k="name" v="Kjerrmyran" />
		<tag k="natural" v="wetland" />
		<tag k="ssr:stedsnr" v="561667" />
	</node>
	<node id="-635897" lat="65.7194138883" lon="12.5386972144">
		<tag k="name" v="Lislåmivatnet" />
		<tag k="natural" v="water" />
		<tag k="ssr:stedsnr" v="561241" />
	</node>
	<node id="-635896" lat="65.707725004" lon="12.5873027791">
		<tag k="bay" v="fjord" />
		<tag k="name" v="Visten" />
		<tag k="natural" v="bay" />
		<tag k="ssr:stedsnr" v="561239" />
	</node>
	<node id="-635895" lat="65.7256888889" lon="12.4448333441">
		<tag k="name" v="Grauthammaren" />
		<tag k="natural" v="cape" />
		<tag k="ssr:stedsnr" v="561228" />
	</node>
	<node id="-635894" lat="65.7284055543" lon="12.5073249919">
		<tag k="name" v="Vistneshatten" />
		<tag k="natural" v="hill" />
		<tag k="place" v="locality" />
		<tag k="ssr:stedsnr" v="561227" />
	</node>
	<node id="-635893" lat="65.734083333" lon="12.6989055603">
		<tag k="alt_name" v="Kvannlivatnet, øvre" />
		<tag k="name" v="Øvre Kvannlivatnet" />
		<tag k="natural" v="water" />
		<tag k="ssr:stedsnr" v="561224" />
	</node>
	<node id="-635892" lat="65.6304500029" lon="12.2754388902">
		<tag k="name" v="Traløyskjæret" />
		<tag k="place" v="islet" />
		<tag k="ssr:stedsnr" v="561130" />
	</node>
	<node id="-635891" lat="65.6441916693" lon="12.6161388965">
		<tag k="name" v="Klaven" />
		<tag k="natural" v="valley" />
		<tag k="place" v="locality" />
		<tag k="ssr:stedsnr" v="561123" />
	</node>
	<node id="-635890" lat="65.6315888891" lon="12.5195888836">
		<tag k="name" v="Storhaugvatnet" />
		<tag k="natural" v="water" />
		<tag k="ssr:stedsnr" v="561120" />
	</node>
	<node id="-635889" lat="65.6756583377" lon="12.3614638959">
		<tag k="name" v="Dalan" />
		<tag k="natural" v="valley" />
		<tag k="place" v="locality" />
		<tag k="ssr:stedsnr" v="561059" />
	</node>
	<node id="-635888" lat="65.692202777" lon="12.5962777742">
		<tag k="fixme" v="consider natural=peak for the most distinct mountains in the district" />
		<tag k="name" v="Lifjellet" />
		<tag k="natural" v="hill" />
		<tag k="place" v="locality" />
		<tag k="ssr:stedsnr" v="561045" />
	</node>
	<node id="-635887" lat="65.6946888861" lon="12.3788250023">
		<tag k="name" v="Bryggholmen" />
		<tag k="place" v="islet" />
		<tag k="ssr:stedsnr" v="561034" />
	</node>
	<node id="-635886" lat="65.6940250038" lon="12.4830416737">
		<tag k="name" v="Grønlihumpen" />
		<tag k="natural" v="hill" />
		<tag k="place" v="locality" />
		<tag k="ssr:stedsnr" v="561025" />
	</node>
	<node id="-635885" lat="65.5700361075" lon="12.440427774">
		<tag k="name" v="Johanvatnet" />
		<tag k="natural" v="water" />
		<tag k="ssr:stedsnr" v="560898" />
	</node>
	<node id="-635884" lat="65.6656944432" lon="12.6982000004">
		<tag k="fixme" v="consider natural=peak for the most distinct mountains in the district" />
		<tag k="name" v="Tverrlandsfjellet" />
		<tag k="natural" v="hill" />
		<tag k="place" v="locality" />
		<tag k="ssr:stedsnr" v="560072" />
	</node>
	<node id="-635883" lat="65.6467690264" lon="12.2905804006">
		<tag k="name" v="Esøyslua" />
		<tag k="natural" v="shoal" />
		<tag k="place" v="locality" />
		<tag k="ssr:stedsnr" v="560071" />
	</node>
	<node id="-635882" lat="65.5823388869" lon="12.374858337">
		<tag k="name" v="Ytterodden" />
		<tag k="natural" v="cape" />
		<tag k="ssr:stedsnr" v="532817" />
	</node>
	<node id="-635881" lat="65.6182361147" lon="12.3752944419">
		<tag k="name" v="Ola Amundsenlia" />
		<tag k="natural" v="slope" />
		<tag k="place" v="locality" />
		<tag k="ssr:stedsnr" v="532807" />
	</node>
	<node id="-635880" lat="65.6373305579" lon="12.3687638863">
		<tag k="name" v="Bakken" />
		<tag k="place" v="farm" />
		<tag k="ssr:stedsnr" v="532785" />
	</node>
	<node id="-635879" lat="65.645638893" lon="12.3694249973">
		<tag k="name" v="Husholmbukta" />
		<tag k="natural" v="bay" />
		<tag k="ssr:stedsnr" v="532731" />
	</node>
	<node id="-635878" lat="65.6835666712" lon="12.4444333325">
		<tag k="name" v="Snyholo" />
		<tag k="natural" v="valley" />
		<tag k="place" v="locality" />
		<tag k="ssr:stedsnr" v="532722" />
	</node>
	<node id="-635877" lat="65.6681166656" lon="12.3272222218">
		<tag k="name" v="Lissfjellet" />
		<tag k="natural" v="hill" />
		<tag k="place" v="locality" />
		<tag k="ssr:stedsnr" v="532676" />
	</node>
	<node id="-635876" lat="65.6859805561" lon="12.4343305579">
		<tag k="name" v="Stormobekken" />
		<tag k="ssr:stedsnr" v="532657" />
		<tag k="waterway" v="stream" />
	</node>
	<node id="-635875" lat="65.6842055596" lon="12.4307722328">
		<tag k="name" v="Stormoen" />
		<tag k="place" v="locality" />
		<tag k="ssr:stedsnr" v="532655" />
	</node>
	<node id="-635874" lat="65.6810805593" lon="12.4214916567">
		<tag k="fixme" v="consider highway=path" />
		<tag k="highway" v="track" />
		<tag k="name" v="Sankarvegen" />
		<tag k="ssr:stedsnr" v="532654" />
	</node>
	<node id="-635873" lat="65.6776305517" lon="12.3270000004">
		<tag k="name" v="Lissteinvikja" />
		<tag k="natural" v="bay" />
		<tag k="ssr:stedsnr" v="532625" />
	</node>
	<node id="-635872" lat="65.6893499962" lon="12.3668777834">
		<tag k="name" v="Stien" />
		<tag k="natural" v="slope" />
		<tag k="place" v="locality" />
		<tag k="ssr:stedsnr" v="532519" />
	</node>
	<node id="-635871" lat="65.7345555545" lon="12.5925722138">
		<tag k="name" v="Aunavollen" />
		<tag k="place" v="locality" />
		<tag k="ssr:stedsnr" v="532456" />
	</node>
	<node id="-635870" lat="65.7126249967" lon="12.411674996">
		<tag k="name" v="Geitgroven" />
		<tag k="natural" v="wetland" />
		<tag k="ssr:stedsnr" v="532416" />
	</node>
	<node id="-635869" lat="65.75033889" lon="12.5480638985">
		<tag k="name" v="Heian" />
		<tag k="natural" v="hill" />
		<tag k="place" v="locality" />
		<tag k="ssr:stedsnr" v="532379" />
	</node>
	<node id="-635868" lat="65.7507750003" lon="12.5871388955">
		<tag k="name" v="Sjursmoen" />
		<tag k="place" v="locality" />
		<tag k="ssr:stedsnr" v="532368" />
	</node>
	<node id="-635867" lat="65.7410027802" lon="12.5793333439">
		<tag k="name" v="Visthusskardet" />
		<tag k="natural" v="valley" />
		<tag k="place" v="locality" />
		<tag k="ssr:stedsnr" v="532360" />
	</node>
	<node id="-635866" lat="65.7416861121" lon="12.5690694528">
		<tag k="name" v="Aspdalen" />
		<tag k="natural" v="valley" />
		<tag k="place" v="locality" />
		<tag k="ssr:stedsnr" v="532356" />
	</node>
	<node id="-635865" lat="65.7315250016" lon="12.5070305502">
		<tag k="name" v="Heststeinan" />
		<tag k="natural" v="stone" />
		<tag k="ssr:stedsnr" v="532350" />
	</node>
	<node id="-635864" lat="65.6915972257" lon="12.385191661">
		<tag k="name" v="Skjåsteinen" />
		<tag k="natural" v="stone" />
		<tag k="ssr:stedsnr" v="531631" />
	</node>
	<node id="-635863" lat="65.690094441" lon="12.4012805614">
		<tag k="name" v="Halsen" />
		<tag k="natural" v="valley" />
		<tag k="place" v="locality" />
		<tag k="ssr:stedsnr" v="531616" />
	</node>
	<node id="-635862" lat="65.7591972186" lon="12.5746694493">
		<tag k="highway" v="path" />
		<tag k="name" v="Steinvegen" />
		<tag k="ssr:stedsnr" v="531430" />
	</node>
	<node id="-635861" lat="65.7683611133" lon="12.5869250007">
		<tag k="name" v="Flæsa" />
		<tag k="ssr:stedsnr" v="531336" />
		<tag k="waterway" v="stream" />
	</node>
	<node id="-635860" lat="65.6464396088" lon="12.3751052915">
		<tag k="fixme" v="consider place=hamlet" />
		<tag k="name" v="Øver-Høyholm" />
		<tag k="place" v="farm" />
		<tag k="ssr:stedsnr" v="510802" />
	</node>
	<node id="-635859" lat="65.6026250033" lon="12.4064888853">
		<tag k="name" v="Fagerlia" />
		<tag k="natural" v="slope" />
		<tag k="place" v="locality" />
		<tag k="ssr:stedsnr" v="501926" />
	</node>
	<node id="-635858" lat="65.6204722252" lon="12.3471805654">
		<tag k="name" v="Larsholmen" />
		<tag k="place" v="islet" />
		<tag k="ssr:stedsnr" v="501911" />
	</node>
	<node id="-635857" lat="65.6233083348" lon="12.270127769">
		<tag k="name" v="Svartkjertet" />
		<tag k="place" v="islet" />
		<tag k="ssr:stedsnr" v="501912" />
	</node>
	<node id="-635856" lat="65.6241027805" lon="12.3518111145">
		<tag k="name" v="Nyholmen" />
		<tag k="place" v="islet" />
		<tag k="ssr:stedsnr" v="501910" />
	</node>
	<node id="-635855" lat="65.5985444429" lon="12.3699916751">
		<tag k="alt_name" v="Vottvika" />
		<tag k="name" v="Våttvikja" />
		<tag k="natural" v="bay" />
		<tag k="ssr:stedsnr" v="501902" />
	</node>
	<node id="-635854" lat="65.6710249979" lon="12.3071027817">
		<tag k="name" v="Langøya" />
		<tag k="place" v="islet" />
		<tag k="ssr:stedsnr" v="501765" />
	</node>
	<node id="-635853" lat="65.5192611117" lon="12.7643972132">
		<tag k="name" v="Rundtjørna" />
		<tag k="natural" v="water" />
		<tag k="ssr:stedsnr" v="501612" />
	</node>
	<node id="-635852" lat="65.7094083334" lon="12.4291527779">
		<tag k="alt_name" v="Høyvika" />
		<tag k="name" v="Høyvik" />
		<tag k="place" v="farm" />
		<tag k="ssr:stedsnr" v="501222" />
	</node>
	<node id="-635851" lat="65.7257326303" lon="12.4988683771">
		<tag k="fixme" v="consider place=hamlet" />
		<tag k="name" v="Vistnesdalen" />
		<tag k="place" v="farm" />
		<tag k="ssr:stedsnr" v="501211" />
	</node>
	<node id="-635850" lat="65.6605527811" lon="12.3225000064">
		<tag k="fixme" v="consider natural=peak for the most distinct mountains in the district" />
		<tag k="name" v="Middagslifjellet" />
		<tag k="natural" v="hill" />
		<tag k="place" v="locality" />
		<tag k="ssr:stedsnr" v="501096" />
	</node>
	<node id="-635849" lat="65.6587304495" lon="12.5943021975">
		<tag k="fixme" v="consider place=hamlet" />
		<tag k="name" v="Vasseng" />
		<tag k="place" v="farm" />
		<tag k="ssr:stedsnr" v="501083" />
	</node>
	<node id="-635848" lat="65.6748583295" lon="12.5602250024">
		<tag k="fixme" v="consider natural=peak for the most distinct mountains in the district" />
		<tag k="name" v="Bjørklifjellet" />
		<tag k="natural" v="hill" />
		<tag k="place" v="locality" />
		<tag k="ssr:stedsnr" v="501051" />
	</node>
	<node id="-635847" lat="65.6620444482" lon="12.5737916698">
		<tag k="fixme" v="consider natural=peak for the most distinct mountains in the district" />
		<tag k="name" v="Strandfjellet" />
		<tag k="natural" v="hill" />
		<tag k="place" v="locality" />
		<tag k="ssr:stedsnr" v="501046" />
	</node>
	<node id="-635846" lat="65.6851361107" lon="12.5919416688">
		<tag k="alt_name" v="Langkilvågen, nedre" />
		<tag k="name" v="Nedre Langkilvågen" />
		<tag k="natural" v="bay" />
		<tag k="ssr:stedsnr" v="501044" />
	</node>
	<node id="-635845" lat="65.6870194477" lon="12.5604249908">
		<tag k="name" v="Jakopdalsvatnet" />
		<tag k="natural" v="water" />
		<tag k="ssr:stedsnr" v="501024" />
	</node>
	<node id="-635844" lat="65.6374611143" lon="12.6287277813">
		<tag k="name" v="Ausvatnet" />
		<tag k="natural" v="water" />
		<tag k="ssr:stedsnr" v="500941" />
	</node>
	<node id="-635843" lat="65.639286115" lon="12.7352722247">
		<tag k="name" v="Skarvneset" />
		<tag k="natural" v="cape" />
		<tag k="ssr:stedsnr" v="500881" />
	</node>
	<node id="-635842" lat="65.6363499986" lon="12.7210750039">
		<tag k="name" v="Grovan" />
		<tag k="natural" v="slope" />
		<tag k="place" v="locality" />
		<tag k="ssr:stedsnr" v="500878" />
	</node>
	<node id="-635841" lat="65.6359750046" lon="12.7712527709">
		<tag k="name" v="Austerfjorden" />
		<tag k="natural" v="bay" />
		<tag k="ssr:stedsnr" v="500877" />
	</node>
	<node id="-635840" lat="65.7257888854" lon="12.7842277778">
		<tag k="fixme" v="consider natural=peak for the most distinct mountains in the district" />
		<tag k="name" v="Finnknefjellan" />
		<tag k="natural" v="hill" />
		<tag k="place" v="locality" />
		<tag k="ssr:stedsnr" v="500812" />
	</node>
	<node id="-635839" lat="65.6900027777" lon="12.8059861007">
		<tag k="name" v="Øvre Bønnåvatnet" />
		<tag k="natural" v="water" />
		<tag k="ssr:stedsnr" v="500803" />
		<tag k="water" v="lake" />
	</node>
	<node id="-635838" lat="65.6487361132" lon="12.6714916599">
		<tag k="bay" v="fjord" />
		<tag k="name" v="Innervisten" />
		<tag k="natural" v="bay" />
		<tag k="ssr:stedsnr" v="500139" />
	</node>
	<node id="-635837" lat="65.6472611118" lon="12.4447750066">
		<tag k="fixme" v="consider natural=peak for the most distinct mountains in the district" />
		<tag k="name" v="Høyholmstindan" />
		<tag k="natural" v="hill" />
		<tag k="place" v="locality" />
		<tag k="ssr:stedsnr" v="500118" />
	</node>
	<node id="-635836" lat="65.6915694478" lon="12.4088083364">
		<tag k="name" v="Bjørnvika" />
		<tag k="natural" v="bay" />
		<tag k="ssr:stedsnr" v="500036" />
	</node>
	<node id="-635835" lat="65.697683335" lon="12.4644583263">
		<tag k="fixme" v="multiple name tags, choose one and add the other to alt_name" />
		<tag k="name" v="Nergrønnlia;Vevelstadgrønlia" />
		<tag k="natural" v="slope" />
		<tag k="place" v="locality" />
		<tag k="ssr:stedsnr" v="500030" />
	</node>
	<node id="-635834" lat="65.6997583375" lon="12.4426916607">
		<tag k="name" v="Nordvollan" />
		<tag k="place" v="farm" />
		<tag k="ssr:stedsnr" v="500028" />
	</node>
	<node id="-635833" lat="65.6906194433" lon="12.473300003">
		<tag k="name" v="Kvannlihumpen" />
		<tag k="natural" v="hill" />
		<tag k="place" v="locality" />
		<tag k="ssr:stedsnr" v="500021" />
	</node>
	<node id="-635832" lat="65.7154083361" lon="12.626713879">
		<tag k="alt_name" v="Aunelva" />
		<tag k="name" v="Auna" />
		<tag k="ssr:stedsnr" v="500015" />
		<tag k="waterway" v="stream" />
	</node>
	<node id="-635831" lat="65.7010222267" lon="12.4517694363">
		<tag k="alt_name" v="Lislfjellet;Lissfjell" />
		<tag k="fixme" v="consider natural=peak for the most distinct mountains in the district" />
		<tag k="name" v="Lissfjellet" />
		<tag k="natural" v="hill" />
		<tag k="place" v="locality" />
		<tag k="ssr:stedsnr" v="500011" />
	</node>
	<node id="-635830" lat="65.7016527783" lon="12.6032388879">
		<tag k="name" v="Klubben" />
		<tag k="natural" v="cape" />
		<tag k="ssr:stedsnr" v="500001" />
	</node>
	<node id="-635829" lat="65.5775166651" lon="12.3915888962">
		<tag k="fixme" v="consider seamark:type=rock or natural=shoal" />
		<tag k="name" v="Skjæret" />
		<tag k="place" v="islet" />
		<tag k="ssr:stedsnr" v="471849" />
	</node>
	<node id="-635828" lat="65.6284555578" lon="12.3489083444">
		<tag k="name" v="Rotvika" />
		<tag k="natural" v="bay" />
		<tag k="ssr:stedsnr" v="471815" />
	</node>
	<node id="-635827" lat="65.6343611072" lon="12.3685805625">
		<tag k="name" v="Øvergård" />
		<tag k="place" v="farm" />
		<tag k="ssr:stedsnr" v="471808" />
	</node>
	<node id="-635826" lat="65.6399555573" lon="12.3716527759">
		<tag k="amenity" v="community_centre" />
		<tag k="name" v="Høyholm samfunnshus" />
		<tag k="ssr:stedsnr" v="471796" />
	</node>
	<node id="-635825" lat="65.6602916657" lon="12.6052222305">
		<tag k="name" v="Gammelsyen" />
		<tag k="natural" v="bay" />
		<tag k="ssr:stedsnr" v="471770" />
	</node>
	<node id="-635824" lat="65.6713833291" lon="12.6435138813">
		<tag k="name" v="Skjellneset" />
		<tag k="natural" v="cape" />
		<tag k="ssr:stedsnr" v="471755" />
	</node>
	<node id="-635823" lat="65.6719166688" lon="12.3220444469">
		<tag k="name" v="Grønnhågjen" />
		<tag k="natural" v="hill" />
		<tag k="place" v="locality" />
		<tag k="ssr:stedsnr" v="471690" />
	</node>
	<node id="-635822" lat="65.6860555575" lon="12.4471666665">
		<tag k="name" v="Småholan" />
		<tag k="natural" v="slope" />
		<tag k="place" v="locality" />
		<tag k="ssr:stedsnr" v="471675" />
	</node>
	<node id="-635821" lat="65.6866749992" lon="12.4281944544">
		<tag k="name" v="Osphågjen" />
		<tag k="natural" v="hill" />
		<tag k="place" v="locality" />
		<tag k="ssr:stedsnr" v="471671" />
	</node>
	<node id="-635820" lat="65.6982638932" lon="12.4563583428">
		<tag k="name" v="Grønnlibekken" />
		<tag k="ssr:stedsnr" v="471614" />
		<tag k="waterway" v="stream" />
	</node>
	<node id="-635819" lat="65.6964861129" lon="12.4314861132">
		<tag k="name" v="Osen" />
		<tag k="natural" v="bay" />
		<tag k="ssr:stedsnr" v="471595" />
	</node>
	<node id="-635818" lat="65.6989305575" lon="12.4320638917">
		<tag k="fixme" v="consider seamark:type=rock or natural=shoal" />
		<tag k="name" v="Bekkaskjæret" />
		<tag k="place" v="islet" />
		<tag k="ssr:stedsnr" v="471594" />
	</node>
	<node id="-635817" lat="65.7222833363" lon="12.6073388913">
		<tag k="name" v="Moelva" />
		<tag k="ssr:stedsnr" v="471566" />
		<tag k="waterway" v="stream" />
	</node>
	<node id="-635816" lat="65.7124166699" lon="12.4581833371">
		<tag k="name" v="Hereskjegget" />
		<tag k="natural" v="cape" />
		<tag k="ssr:stedsnr" v="471541" />
	</node>
	<node id="-635815" lat="65.7159777767" lon="12.4797527715">
		<tag k="name" v="Korsvikelva" />
		<tag k="ssr:stedsnr" v="471537" />
		<tag k="waterway" v="stream" />
	</node>
	<node id="-635814" lat="65.719380553" lon="12.4731388867">
		<tag k="name" v="Korsvikja" />
		<tag k="natural" v="bay" />
		<tag k="ssr:stedsnr" v="471534" />
	</node>
	<node id="-635813" lat="65.7365222198" lon="12.5780277685">
		<tag k="name" v="Strandheveln" />
		<tag k="natural" v="ridge" />
		<tag k="place" v="locality" />
		<tag k="ssr:stedsnr" v="471499" />
	</node>
	<node id="-635812" lat="65.7398361098" lon="12.5625527685">
		<tag k="name" v="Bjørnstadodden" />
		<tag k="natural" v="cape" />
		<tag k="ssr:stedsnr" v="471494" />
	</node>
	<node id="-635811" lat="65.7282750024" lon="12.4854583292">
		<tag k="name" v="Karlstøvikja" />
		<tag k="natural" v="bay" />
		<tag k="ssr:stedsnr" v="471471" />
	</node>
	<node id="-635810" lat="65.7112388894" lon="12.4174666767">
		<tag k="name" v="Sørvatnet" />
		<tag k="natural" v="water" />
		<tag k="ssr:stedsnr" v="471448" />
	</node>
	<node id="-635809" lat="65.7613166634" lon="12.5626361206">
		<tag k="name" v="Gjøtodden" />
		<tag k="natural" v="cape" />
		<tag k="ssr:stedsnr" v="471415" />
	</node>
	<node id="-635808" lat="65.7422250026" lon="12.5759444365">
		<tag k="name" v="Høglia" />
		<tag k="natural" v="slope" />
		<tag k="place" v="locality" />
		<tag k="ssr:stedsnr" v="471386" />
	</node>
	<node id="-635807" lat="65.7045527786" lon="12.5894166691">
		<tag k="name" v="Ytteråkran" />
		<tag k="place" v="farm" />
		<tag k="ssr:stedsnr" v="450180" />
	</node>
	<node id="-635806" lat="65.6228638893" lon="12.5559277821">
		<tag k="name" v="Svartvatnet" />
		<tag k="natural" v="water" />
		<tag k="ssr:stedsnr" v="440931" />
	</node>
	<node id="-635805" lat="65.6230444449" lon="12.2989583363">
		<tag k="name" v="Fjordholmen" />
		<tag k="place" v="island" />
		<tag k="ssr:stedsnr" v="440927" />
	</node>
	<node id="-635804" lat="65.5862666688" lon="12.3715416634">
		<tag k="name" v="Seglneset" />
		<tag k="natural" v="cape" />
		<tag k="ssr:stedsnr" v="440881" />
	</node>
	<node id="-635803" lat="65.6501638886" lon="12.7500722192">
		<tag k="name" v="Bønnåforsen" />
		<tag k="natural" v="waterfall" />
		<tag k="ssr:stedsnr" v="440846" />
	</node>
	<node id="-635802" lat="65.6411388932" lon="12.7691083374">
		<tag k="fixme" v="consider natural=peak for the most distinct mountains in the district" />
		<tag k="name" v="Litleklubben" />
		<tag k="natural" v="hill" />
		<tag k="place" v="locality" />
		<tag k="ssr:stedsnr" v="440840" />
	</node>
	<node id="-635801" lat="65.6232805538" lon="12.919255557">
		<tag k="name" v="Ole-Henriksendalen" />
		<tag k="natural" v="valley" />
		<tag k="place" v="locality" />
		<tag k="ssr:stedsnr" v="440829" />
	</node>
	<node id="-635800" lat="65.6178249981" lon="12.7638972204">
		<tag k="name" v="Grannesvatnet" />
		<tag k="natural" v="water" />
		<tag k="ssr:stedsnr" v="440819" />
	</node>
	<node id="-635799" lat="65.5804444407" lon="12.8539027773">
		<tag k="fixme" v="consider natural=peak for the most distinct mountains in the district" />
		<tag k="name" v="Middagsfjellet - Gaskebiejjiensnjurhtjie" />
		<tag k="name:no" v="Middagsfjellet" />
		<tag k="name:sma" v="Gaskebiejjiensnjurhtjie" />
		<tag k="natural" v="hill" />
		<tag k="place" v="locality" />
		<tag k="ssr:stedsnr" v="440781" />
	</node>
	<node id="-635798" lat="65.5195861129" lon="12.7704833383">
		<tag k="name" v="Tøymvasselva" />
		<tag k="ssr:stedsnr" v="440629" />
		<tag k="waterway" v="stream" />
	</node>
	<node id="-635797" lat="65.7318277739" lon="12.5336999945">
		<tag k="name" v="Storurdvika" />
		<tag k="natural" v="bay" />
		<tag k="ssr:stedsnr" v="440254" />
	</node>
	<node id="-635796" lat="65.6450222214" lon="12.5862499947">
		<tag k="name" v="Åsheim" />
		<tag k="place" v="farm" />
		<tag k="ssr:stedsnr" v="440155" />
	</node>
	<node id="-635795" lat="65.6273694418" lon="12.3488166586">
		<tag k="name" v="Nesodden" />
		<tag k="natural" v="cape" />
		<tag k="ssr:stedsnr" v="440156" />
	</node>
	<node id="-635794" lat="65.6528194417" lon="12.6279972162">
		<tag k="name" v="Ausen" />
		<tag k="place" v="farm" />
		<tag k="ssr:stedsnr" v="440136" />
	</node>
	<node id="-635793" lat="65.6703333309" lon="12.6432305608">
		<tag k="name" v="Ausskaftet" />
		<tag k="natural" v="cape" />
		<tag k="ssr:stedsnr" v="440126" />
	</node>
	<node id="-635792" lat="65.661049996" lon="12.6374166716">
		<tag k="name" v="Husvika" />
		<tag k="natural" v="bay" />
		<tag k="ssr:stedsnr" v="440121" />
	</node>
	<node id="-635791" lat="65.6703333287" lon="12.3340083434">
		<tag k="fixme" v="consider natural=peak for the most distinct mountains in the district" />
		<tag k="name" v="Preikstolen" />
		<tag k="natural" v="hill" />
		<tag k="place" v="locality" />
		<tag k="ssr:stedsnr" v="440112" />
	</node>
	<node id="-635790" lat="65.6721999968" lon="12.6133916561">
		<tag k="fixme" v="consider place=hamlet" />
		<tag k="name" v="Ytterstranda" />
		<tag k="old_name" v="Ytrestranda;Stranda" />
		<tag k="place" v="farm" />
		<tag k="ssr:stedsnr" v="440103" />
	</node>
	<node id="-635789" lat="65.6716083298" lon="12.5850333368">
		<tag k="fixme" v="consider natural=peak for the most distinct mountains in the district" />
		<tag k="name" v="Langkiltinden" />
		<tag k="natural" v="hill" />
		<tag k="place" v="locality" />
		<tag k="ssr:stedsnr" v="440099" />
	</node>
	<node id="-635788" lat="65.6692250039" lon="12.5622694352">
		<tag k="name" v="Krokhyllan" />
		<tag k="natural" v="slope" />
		<tag k="place" v="locality" />
		<tag k="ssr:stedsnr" v="440098" />
	</node>
	<node id="-635787" lat="65.6912138846" lon="12.6249861117">
		<tag k="alt_name" v="Urdvika" />
		<tag k="name" v="Urdvikja" />
		<tag k="natural" v="bay" />
		<tag k="ssr:stedsnr" v="440091" />
	</node>
	<node id="-635786" lat="65.6741805575" lon="12.3009722242">
		<tag k="fixme" v="consider seamark:type=rock or natural=shoal" />
		<tag k="name" v="Vomskjæran" />
		<tag k="place" v="islet" />
		<tag k="ssr:stedsnr" v="440083" />
	</node>
	<node id="-635785" lat="65.6752055512" lon="12.4084527765">
		<tag k="name" v="Torvhaugen" />
		<tag k="place" v="farm" />
		<tag k="ssr:stedsnr" v="440076" />
	</node>
	<node id="-635784" lat="65.6932666624" lon="12.6360388936">
		<tag k="name" v="Mulen" />
		<tag k="natural" v="cape" />
		<tag k="ssr:stedsnr" v="440063" />
	</node>
	<node id="-635783" lat="65.6891706419" lon="12.3875266827">
		<tag k="fixme" v="consider place=hamlet" />
		<tag k="name" v="Hestun" />
		<tag k="place" v="farm" />
		<tag k="ssr:stedsnr" v="440050" />
	</node>
	<node id="-635782" lat="65.6799805575" lon="12.5527416767">
		<tag k="alt_name" v="Jakopdalen" />
		<tag k="name" v="Jakobdalen" />
		<tag k="natural" v="valley" />
		<tag k="place" v="locality" />
		<tag k="ssr:stedsnr" v="440044" />
	</node>
	<node id="-635781" lat="65.6934138922" lon="12.4100111122">
		<tag k="alt_name" v="Lislbjørnvika" />
		<tag k="name" v="Lissbjørnvikja" />
		<tag k="natural" v="bay" />
		<tag k="ssr:stedsnr" v="440037" />
	</node>
	<node id="-635780" lat="65.6971194488" lon="12.4022277813">
		<tag k="name" v="Hestunmarka" />
		<tag k="place" v="locality" />
		<tag k="ssr:stedsnr" v="440035" />
	</node>
	<node id="-635779" lat="65.7005500008" lon="12.5878083278">
		<tag k="alt_name" v="Kilvågen" />
		<tag k="name" v="Kilvika" />
		<tag k="place" v="hamlet" />
		<tag k="ssr:stedsnr" v="440029" />
	</node>
	<node id="-635778" lat="65.6946888889" lon="12.5473750087">
		<tag k="name" v="Snøfjelldalen" />
		<tag k="natural" v="valley" />
		<tag k="place" v="locality" />
		<tag k="ssr:stedsnr" v="440025" />
	</node>
	<node id="-635777" lat="65.6979416625" lon="12.4385166643">
		<tag k="fixme" v="multiple name tags, choose one and add the other to alt_name" />
		<tag k="name" v="Sør-Vollan;Vollan" />
		<tag k="place" v="farm" />
		<tag k="ssr:stedsnr" v="440008" />
	</node>
	<node id="-635776" lat="65.7098833342" lon="12.611455559">
		<tag k="name" v="Hestvikneset" />
		<tag k="natural" v="cape" />
		<tag k="ssr:stedsnr" v="440003" />
	</node>
	<node id="-635775" lat="65.7300083353" lon="12.4879277863">
		<tag k="name" v="Sørstranda" />
		<tag k="natural" v="beach" />
		<tag k="place" v="locality" />
		<tag k="ssr:stedsnr" v="415952" />
	</node>
	<node id="-635774" lat="65.7042916689" lon="12.4510611204">
		<tag k="name" v="Fagerbakken" />
		<tag k="place" v="farm" />
		<tag k="ssr:stedsnr" v="268166" />
	</node>
	<node id="-635773" lat="65.5853722265" lon="12.4031305529">
		<tag k="alt_name" v="Urdvika" />
		<tag k="name" v="Urdvikja" />
		<tag k="natural" v="bay" />
		<tag k="ssr:stedsnr" v="258889" />
	</node>
	<node id="-635772" lat="65.5710944426" lon="12.4078277696">
		<tag k="name" v="Tindelva" />
		<tag k="ssr:stedsnr" v="258877" />
		<tag k="waterway" v="stream" />
	</node>
	<node id="-635771" lat="65.6617861156" lon="12.7575472204">
		<tag k="fixme" v="consider natural=peak for the most distinct mountains in the district" />
		<tag k="name" v="Åsan" />
		<tag k="natural" v="hill" />
		<tag k="place" v="locality" />
		<tag k="ssr:stedsnr" v="258865" />
	</node>
	<node id="-635770" lat="65.6624361075" lon="12.765024995">
		<tag k="name" v="Bønnådalen" />
		<tag k="natural" v="valley" />
		<tag k="place" v="locality" />
		<tag k="ssr:stedsnr" v="258863" />
	</node>
	<node id="-635769" lat="65.6588472252" lon="12.8485916704">
		<tag k="name" v="Lomtjørnan" />
		<tag k="natural" v="water" />
		<tag k="ssr:stedsnr" v="258858" />
	</node>
	<node id="-635768" lat="65.6383416695" lon="12.7652861145">
		<tag k="fixme" v="consider seamark:type=rock or natural=shoal" />
		<tag k="name" v="Bønnåskjæret" />
		<tag k="place" v="islet" />
		<tag k="ssr:stedsnr" v="258846" />
	</node>
	<node id="-635767" lat="65.6268888899" lon="12.7411388932">
		<tag k="name" v="Fagermoen" />
		<tag k="place" v="isolated_dwelling" />
		<tag k="ssr:stedsnr" v="258838" />
	</node>
	<node id="-635766" lat="65.6329555581" lon="12.7469277775">
		<tag k="name" v="Straumsneset" />
		<tag k="natural" v="cape" />
		<tag k="ssr:stedsnr" v="258829" />
	</node>
	<node id="-635765" lat="65.6198555544" lon="12.9401777805">
		<tag k="name" v="Svarttjørna" />
		<tag k="natural" v="water" />
		<tag k="ssr:stedsnr" v="258822" />
	</node>
	<node id="-635764" lat="65.68915278" lon="12.7815305668">
		<tag k="fixme" v="consider natural=peak for the most distinct mountains in the district" />
		<tag k="name" v="Storfjellet" />
		<tag k="natural" v="hill" />
		<tag k="place" v="locality" />
		<tag k="ssr:stedsnr" v="258760" />
	</node>
	<node id="-635763" lat="65.5417388854" lon="12.7306250005">
		<tag k="alt_name" v="Vesterdalselva, nordre" />
		<tag k="name" v="Nordre Vesterdalselva" />
		<tag k="ssr:stedsnr" v="258691" />
		<tag k="waterway" v="stream" />
	</node>
	<node id="-635762" lat="65.5908805554" lon="12.8097055662">
		<tag k="name" v="Kalvdalen" />
		<tag k="natural" v="valley" />
		<tag k="place" v="locality" />
		<tag k="ssr:stedsnr" v="258672" />
	</node>
	<node id="-635761" lat="65.5520027777" lon="12.7454250055">
		<tag k="name" v="Granlia" />
		<tag k="natural" v="slope" />
		<tag k="place" v="locality" />
		<tag k="ssr:stedsnr" v="258634" />
	</node>
	<node id="-635760" lat="65.7139583335" lon="12.4403416652">
		<tag k="alt_name" v="Kolbeinvika" />
		<tag k="name" v="Kolbeinsvikja" />
		<tag k="natural" v="bay" />
		<tag k="ssr:stedsnr" v="258244" />
	</node>
	<node id="-635759" lat="65.7110638846" lon="12.4080527825">
		<tag k="name" v="Djupvikhaugen" />
		<tag k="natural" v="hill" />
		<tag k="place" v="locality" />
		<tag k="ssr:stedsnr" v="258245" />
	</node>
	<node id="-635758" lat="65.7214194454" lon="12.6163416652">
		<tag k="fixme" v="multiple name tags, choose one and add the other to alt_name" />
		<tag k="name" v="Aunskardet;Klemetskardet" />
		<tag k="natural" v="valley" />
		<tag k="place" v="locality" />
		<tag k="ssr:stedsnr" v="258239" />
	</node>
	<node id="-635757" lat="65.7237611123" lon="12.504150005">
		<tag k="fixme" v="consider natural=peak for the most distinct mountains in the district" />
		<tag k="name" v="Dalfjellet" />
		<tag k="natural" v="hill" />
		<tag k="place" v="locality" />
		<tag k="ssr:stedsnr" v="258237" />
	</node>
	<node id="-635756" lat="65.7348805527" lon="12.6105611173">
		<tag k="name" v="Mellomvatnet" />
		<tag k="natural" v="water" />
		<tag k="ssr:stedsnr" v="258227" />
	</node>
	<node id="-635755" lat="65.6253444428" lon="12.2739055488">
		<tag k="name" v="Kjertan" />
		<tag k="place" v="island" />
		<tag k="ssr:stedsnr" v="258143" />
	</node>
	<node id="-635754" lat="65.6350388928" lon="12.4079611161">
		<tag k="name" v="Saltkardalen" />
		<tag k="natural" v="valley" />
		<tag k="place" v="locality" />
		<tag k="ssr:stedsnr" v="258110" />
	</node>
	<node id="-635752" lat="65.652299997" lon="12.6831166608">
		<tag k="fixme" v="consider place=hamlet" />
		<tag k="name" v="Arnvika" />
		<tag k="place" v="farm" />
		<tag k="ssr:stedsnr" v="258103" />
	</node>
	<node id="-635751" lat="65.7570525081" lon="12.5652903173">
		<tag k="fixme" v="consider place=hamlet" />
		<tag k="name" v="Stokka" />
		<tag k="place" v="farm" />
		<tag k="ssr:stedsnr" v="258095" />
	</node>
	<node id="-635750" lat="65.6627249959" lon="12.3691055528">
		<tag k="fixme" v="consider seamark:type=rock or natural=shoal" />
		<tag k="name" v="Sørskjæran" />
		<tag k="place" v="islet" />
		<tag k="ssr:stedsnr" v="258086" />
	</node>
	<node id="-635749" lat="65.7673527759" lon="12.6559027716">
		<tag k="fixme" v="consider natural=peak for the most distinct mountains in the district" />
		<tag k="name" v="Brennåfjellet" />
		<tag k="natural" v="hill" />
		<tag k="place" v="locality" />
		<tag k="ssr:stedsnr" v="258087" />
	</node>
	<node id="-635748" lat="65.6692083368" lon="12.371166672">
		<tag k="name" v="Dalmyran" />
		<tag k="natural" v="wetland" />
		<tag k="ssr:stedsnr" v="258085" />
	</node>
	<node id="-635747" lat="65.6701194478" lon="12.5265250081">
		<tag k="name" v="Kilmarkdalen" />
		<tag k="natural" v="valley" />
		<tag k="place" v="locality" />
		<tag k="ssr:stedsnr" v="258076" />
	</node>
	<node id="-635746" lat="65.6998694434" lon="12.6621749977">
		<tag k="name" v="Vasslivatnet" />
		<tag k="natural" v="water" />
		<tag k="ssr:stedsnr" v="258049" />
	</node>
	<node id="-635745" lat="65.6999111102" lon="12.6330888879">
		<tag k="name" v="Storvika" />
		<tag k="natural" v="bay" />
		<tag k="ssr:stedsnr" v="258050" />
	</node>
	<node id="-635744" lat="65.7657388905" lon="12.5830944477">
		<tag k="name" v="Brennåa" />
		<tag k="place" v="farm" />
		<tag k="ssr:stedsnr" v="258046" />
	</node>
	<node id="-635742" lat="65.6903666662" lon="12.4068750081">
		<tag k="name" v="Roparneset" />
		<tag k="place" v="farm" />
		<tag k="ssr:stedsnr" v="258031" />
	</node>
	<node id="-635741" lat="65.7031749985" lon="12.4187666744">
		<tag k="name" v="Storgjerdet" />
		<tag k="place" v="farm" />
		<tag k="ssr:stedsnr" v="258020" />
	</node>
	<node id="-635740" lat="65.7018944478" lon="12.6481999927">
		<tag k="name" v="Almoselva" />
		<tag k="ssr:stedsnr" v="258009" />
		<tag k="waterway" v="stream" />
	</node>
	<node id="-635739" lat="65.7106166694" lon="12.6309305598">
		<tag k="name" v="Aunfloget" />
		<tag k="natural" v="slope" />
		<tag k="place" v="locality" />
		<tag k="ssr:stedsnr" v="258007" />
	</node>
	<node id="-635738" lat="65.6160500023" lon="12.3819111044">
		<tag k="name" v="Liåa" />
		<tag k="ssr:stedsnr" v="258934" />
		<tag k="waterway" v="stream" />
	</node>
	<node id="-635737" lat="65.62615" lon="12.6411361013">
		<tag k="name" v="Tverrålia" />
		<tag k="natural" v="slope" />
		<tag k="place" v="locality" />
		<tag k="ssr:stedsnr" v="258927" />
	</node>
	<node id="-635736" lat="65.7183833306" lon="12.5802166734">
		<tag k="name" v="Flogan" />
		<tag k="natural" v="slope" />
		<tag k="place" v="locality" />
		<tag k="ssr:stedsnr" v="257278" />
	</node>
	<node id="-635735" lat="65.6639083343" lon="12.6151750035">
		<tag k="name" v="Strandbukta" />
		<tag k="natural" v="bay" />
		<tag k="ssr:stedsnr" v="257081" />
	</node>
	<node id="-635734" lat="65.7273361123" lon="12.5904083378">
		<tag k="name" v="Syvika" />
		<tag k="natural" v="bay" />
		<tag k="ssr:stedsnr" v="233255" />
	</node>
	<node id="-635733" lat="65.6596611114" lon="12.3109722235">
		<tag k="name" v="Trongan" />
		<tag k="natural" v="valley" />
		<tag k="place" v="locality" />
		<tag k="ssr:stedsnr" v="229750" />
	</node>
	<node id="-635732" lat="65.6545277795" lon="12.3198666609">
		<tag k="name" v="Sjurfloget" />
		<tag k="natural" v="cliff" />
		<tag k="ssr:stedsnr" v="229733" />
	</node>
	<node id="-635731" lat="65.6738666672" lon="12.3276750027">
		<tag k="name" v="Kroken" />
		<tag k="natural" v="valley" />
		<tag k="place" v="locality" />
		<tag k="ssr:stedsnr" v="229684" />
	</node>
	<node id="-635730" lat="65.6688472245" lon="12.3143666673">
		<tag k="name" v="Rasmushågjen" />
		<tag k="natural" v="hill" />
		<tag k="place" v="locality" />
		<tag k="ssr:stedsnr" v="229676" />
	</node>
	<node id="-635729" lat="65.6828861085" lon="12.4154111153">
		<tag k="name" v="Smibakken" />
		<tag k="place" v="farm" />
		<tag k="ssr:stedsnr" v="229669" />
	</node>
	<node id="-635728" lat="65.6797749962" lon="12.3165722213">
		<tag k="name" v="Vestervikja" />
		<tag k="natural" v="bay" />
		<tag k="ssr:stedsnr" v="229643" />
	</node>
	<node id="-635727" lat="65.6824777737" lon="12.3290305466">
		<tag k="fixme" v="consider seamark:type=rock or natural=shoal" />
		<tag k="name" v="Hamnskjæran" />
		<tag k="place" v="islet" />
		<tag k="ssr:stedsnr" v="229644" />
	</node>
	<node id="-635726" lat="65.6846166659" lon="12.3423833378">
		<tag k="name" v="Torvheia" />
		<tag k="natural" v="slope" />
		<tag k="place" v="locality" />
		<tag k="ssr:stedsnr" v="229640" />
	</node>
	<node id="-635725" lat="65.667725" lon="12.3110999902">
		<tag k="name" v="Nakkan" />
		<tag k="natural" v="cape" />
		<tag k="ssr:stedsnr" v="229631" />
	</node>
	<node id="-635724" lat="65.7046888911" lon="12.469513888">
		<tag k="name" v="Geitkrækern" />
		<tag k="natural" v="slope" />
		<tag k="place" v="locality" />
		<tag k="ssr:stedsnr" v="229603" />
	</node>
	<node id="-635723" lat="65.5941194486" lon="12.369377785">
		<tag k="name" v="Stivikja" />
		<tag k="natural" v="bay" />
		<tag k="ssr:stedsnr" v="228845" />
	</node>
	<node id="-635722" lat="65.5959166641" lon="12.3746527756">
		<tag k="name" v="Hunden" />
		<tag k="natural" v="hill" />
		<tag k="place" v="locality" />
		<tag k="ssr:stedsnr" v="228841" />
	</node>
	<node id="-635721" lat="65.6193111123" lon="12.3751944403">
		<tag k="name" v="Ørnsteinan" />
		<tag k="natural" v="stone" />
		<tag k="ssr:stedsnr" v="228838" />
	</node>
	<node id="-635720" lat="65.6287722184" lon="12.376686105">
		<tag k="name" v="Krokliurda" />
		<tag k="natural" v="scree" />
		<tag k="ssr:stedsnr" v="228834" />
	</node>
	<node id="-635719" lat="65.6598222239" lon="12.6339888805">
		<tag k="name" v="Husvikdalen" />
		<tag k="natural" v="valley" />
		<tag k="place" v="locality" />
		<tag k="ssr:stedsnr" v="228802" />
	</node>
	<node id="-635718" lat="65.6927666699" lon="12.4322611125">
		<tag k="name" v="Risåsen" />
		<tag k="place" v="quarter" />
		<tag k="ssr:stedsnr" v="228688" />
	</node>
	<node id="-635717" lat="65.6943527753" lon="12.396008331">
		<tag k="name" v="Storhågskardet" />
		<tag k="natural" v="valley" />
		<tag k="place" v="locality" />
		<tag k="ssr:stedsnr" v="228659" />
	</node>
	<node id="-635716" lat="65.702302777" lon="12.4234722122">
		<tag k="name" v="Lendingen" />
		<tag k="natural" v="cape" />
		<tag k="ssr:stedsnr" v="228652" />
	</node>
	<node id="-635715" lat="65.7043916693" lon="12.416613885">
		<tag k="name" v="Hammaren" />
		<tag k="natural" v="ridge" />
		<tag k="place" v="locality" />
		<tag k="ssr:stedsnr" v="228614" />
	</node>
	<node id="-635714" lat="65.739274997" lon="12.573619438">
		<tag k="name" v="Trolldalen" />
		<tag k="natural" v="valley" />
		<tag k="place" v="locality" />
		<tag k="ssr:stedsnr" v="228547" />
	</node>
	<node id="-635713" lat="65.7411527764" lon="12.5914083362">
		<tag k="name" v="Svartåsenden" />
		<tag k="natural" v="ridge" />
		<tag k="place" v="locality" />
		<tag k="ssr:stedsnr" v="228532" />
	</node>
	<node id="-635712" lat="65.7102083326" lon="12.4349222326">
		<tag k="name" v="Neset" />
		<tag k="natural" v="cape" />
		<tag k="ssr:stedsnr" v="228514" />
	</node>
	<node id="-635711" lat="65.7368888886" lon="12.5073611039">
		<tag k="name" v="Mølnhushågjen" />
		<tag k="natural" v="ridge" />
		<tag k="place" v="locality" />
		<tag k="ssr:stedsnr" v="228474" />
	</node>
	<node id="-635710" lat="65.7343722226" lon="12.4985166652">
		<tag k="name" v="Låvhågjen" />
		<tag k="natural" v="hill" />
		<tag k="place" v="locality" />
		<tag k="ssr:stedsnr" v="228465" />
	</node>
	<node id="-635709" lat="65.7607611103" lon="12.5708333428">
		<tag k="name" v="Øvergjøthågjen" />
		<tag k="natural" v="ridge" />
		<tag k="place" v="locality" />
		<tag k="ssr:stedsnr" v="228459" />
	</node>
	<node id="-635708" lat="65.7494055523" lon="12.5815666691">
		<tag k="name" v="Stokkaelva" />
		<tag k="ssr:stedsnr" v="228437" />
		<tag k="waterway" v="stream" />
	</node>
	<node id="-635707" lat="65.7502638925" lon="12.5826805655">
		<tag k="fixme" v="consider highway=path" />
		<tag k="highway" v="track" />
		<tag k="name" v="Sjursmovegen" />
		<tag k="ssr:stedsnr" v="228432" />
	</node>
	<node id="-635706" lat="65.6521527767" lon="12.6290361207">
		<tag k="name" v="Ausen" />
		<tag k="place" v="farm" />
		<tag k="ssr:stedsnr" v="222879" />
	</node>
	<node id="-635705" lat="65.6518017965" lon="12.623463158">
		<tag k="fixme" v="consider place=hamlet" />
		<tag k="name" v="Ausen" />
		<tag k="place" v="farm" />
		<tag k="ssr:stedsnr" v="222996" />
	</node>
	<node id="-635704" lat="65.67119444" lon="12.6112333435">
		<tag k="name" v="Sjøenget" />
		<tag k="natural" v="bay" />
		<tag k="ssr:stedsnr" v="216150" />
	</node>
	<node id="-635703" lat="65.5822444458" lon="12.402688883">
		<tag k="alt_name" v="Anddalsvågen" />
		<tag k="name" v="Andalsvågen" />
		<tag k="natural" v="bay" />
		<tag k="ssr:stedsnr" v="198904" />
	</node>
	<node id="-635702" lat="65.708227777" lon="12.401141675">
		<tag k="alt_name" v="Djupvika" />
		<tag k="name" v="Juvikja" />
		<tag k="natural" v="bay" />
		<tag k="ssr:stedsnr" v="198207" />
	</node>
	<node id="-635701" lat="65.6706611149" lon="12.3017249948">
		<tag k="fixme" v="consider seamark:type=rock or natural=shoal" />
		<tag k="name" v="Vardskjæret" />
		<tag k="place" v="islet" />
		<tag k="ssr:stedsnr" v="198062" />
	</node>
	<node id="-635700" lat="65.6653055574" lon="12.4014333289">
		<tag k="alt_name" v="Olderlund" />
		<tag k="name" v="Olderlunden" />
		<tag k="place" v="farm" />
		<tag k="ssr:stedsnr" v="198047" />
	</node>
	<node id="-635699" lat="65.6163388867" lon="12.3643444472">
		<tag k="fixme" v="multiple name tags, choose one and add the other to alt_name" />
		<tag k="name" v="Nordstrangneset;Strandneset" />
		<tag k="natural" v="cape" />
		<tag k="ssr:stedsnr" v="197943" />
	</node>
	<node id="-635698" lat="65.6276999985" lon="12.5613527873">
		<tag k="fixme" v="multiple name tags, choose one and add the other to alt_name" />
		<tag k="name" v="Langvatnet;Storvatnet" />
		<tag k="natural" v="water" />
		<tag k="ssr:stedsnr" v="197941" />
	</node>
	<node id="-635697" lat="65.5949499959" lon="12.3687666682">
		<tag k="fixme" v="multiple name tags, choose one and add the other to alt_name" />
		<tag k="name" v="Fensko;Stiga" />
		<tag k="natural" v="cape" />
		<tag k="ssr:stedsnr" v="197930" />
	</node>
	<node id="-635696" lat="65.6185333312" lon="12.6942388825">
		<tag k="name" v="Strumpdalsbotnet" />
		<tag k="natural" v="valley" />
		<tag k="place" v="locality" />
		<tag k="ssr:stedsnr" v="197926" />
	</node>
	<node id="-635695" lat="65.5669277747" lon="12.3812333339">
		<tag k="name" v="Anddalsodden" />
		<tag k="natural" v="cape" />
		<tag k="ssr:stedsnr" v="197898" />
	</node>
	<node id="-635694" lat="65.5633999999" lon="12.755874998">
		<tag k="name" v="Langneset" />
		<tag k="natural" v="cape" />
		<tag k="ssr:stedsnr" v="197718" />
	</node>
	<node id="-635693" lat="65.6037555542" lon="12.8543138786">
		<tag k="fixme" v="consider natural=peak for the most distinct mountains in the district" />
		<tag k="name" v="Langåsen" />
		<tag k="natural" v="hill" />
		<tag k="place" v="locality" />
		<tag k="ssr:stedsnr" v="197695" />
	</node>
	<node id="-635692" lat="65.6776805521" lon="12.772030555">
		<tag k="name" v="Storfjell" />
		<tag k="ssr:stedsnr" v="197884" />
		<tag k="waterway" v="stream" />
	</node>
	<node id="-635691" lat="65.6454833307" lon="12.7270249904">
		<tag k="name" v="Hallervika" />
		<tag k="natural" v="bay" />
		<tag k="ssr:stedsnr" v="197865" />
	</node>
	<node id="-635690" lat="65.6347111125" lon="12.7449000034">
		<tag k="name" v="Buvika" />
		<tag k="place" v="isolated_dwelling" />
		<tag k="ssr:stedsnr" v="197858" />
	</node>
	<node id="-635689" lat="65.6229250001" lon="12.7227138956">
		<tag k="name" v="Mølnhuselva" />
		<tag k="ssr:stedsnr" v="197850" />
		<tag k="waterway" v="stream" />
	</node>
	<node id="-635688" lat="65.6138138911" lon="12.7266499977">
		<tag k="name" v="Snøfjellelva" />
		<tag k="ssr:stedsnr" v="197840" />
		<tag k="waterway" v="stream" />
	</node>
	<node id="-635687" lat="65.7232833303" lon="12.4792805518">
		<tag k="fixme" v="multiple name tags, choose one and add the other to alt_name" />
		<tag k="name" v="Dalvikran;Vikran" />
		<tag k="natural" v="bay" />
		<tag k="ssr:stedsnr" v="197260" />
	</node>
	<node id="-635686" lat="65.7297583297" lon="12.4891722215">
		<tag k="name" v="Vistnesstranda" />
		<tag k="place" v="farm" />
		<tag k="ssr:stedsnr" v="197247" />
	</node>
	<node id="-635685" lat="65.6493416682" lon="12.6186472253">
		<tag k="alt_name" v="Geitstigheia" />
		<tag k="fixme" v="consider natural=peak for the most distinct mountains in the district" />
		<tag k="name" v="Geitstiheia" />
		<tag k="natural" v="hill" />
		<tag k="place" v="locality" />
		<tag k="ssr:stedsnr" v="197140" />
	</node>
	<node id="-635684" lat="65.6375011905" lon="12.5978957394">
		<tag k="alt_name" v="Ausli" />
		<tag k="fixme" v="consider place=hamlet" />
		<tag k="name" v="Auslia" />
		<tag k="place" v="farm" />
		<tag k="ssr:stedsnr" v="197135" />
	</node>
	<node id="-635683" lat="65.6286861108" lon="12.3607916558">
		<tag k="name" v="Leira" />
		<tag k="natural" v="bay" />
		<tag k="ssr:stedsnr" v="197133" />
	</node>
	<node id="-635682" lat="65.6269222202" lon="12.3563277807">
		<tag k="fixme" v="consider seamark:type=rock or natural=shoal" />
		<tag k="name" v="Plogskjæret" />
		<tag k="place" v="islet" />
		<tag k="ssr:stedsnr" v="197134" />
	</node>
	<node id="-635681" lat="65.7589027814" lon="12.5568138979">
		<tag k="name" v="Stokkasjøen" />
		<tag k="natural" v="beach" />
		<tag k="place" v="locality" />
		<tag k="ssr:stedsnr" v="197101" />
	</node>
	<node id="-635680" lat="65.6574777769" lon="12.6058527717">
		<tag k="alt_name" v="Elvvika" />
		<tag k="name" v="Elvvikja" />
		<tag k="natural" v="bay" />
		<tag k="ssr:stedsnr" v="197096" />
	</node>
	<node id="-635679" lat="65.6865305568" lon="12.6154749905">
		<tag k="fixme" v="consider natural=peak for the most distinct mountains in the district" />
		<tag k="name" v="Telavikfjellet" />
		<tag k="natural" v="hill" />
		<tag k="place" v="locality" />
		<tag k="ssr:stedsnr" v="197083" />
	</node>
	<node id="-635678" lat="65.687938892" lon="12.6749138983">
		<tag k="name" v="Sagelva" />
		<tag k="ssr:stedsnr" v="197077" />
		<tag k="waterway" v="stream" />
	</node>
	<node id="-635677" lat="65.7699249985" lon="12.5796083278">
		<tag k="name" v="Giskåholmen" />
		<tag k="place" v="islet" />
		<tag k="ssr:stedsnr" v="197053" />
	</node>
	<node id="-635676" lat="65.6932972186" lon="12.3930833284">
		<tag k="alt_name" v="Storhaugen" />
		<tag k="name" v="Storhågjen" />
		<tag k="natural" v="hill" />
		<tag k="place" v="locality" />
		<tag k="ssr:stedsnr" v="197035" />
	</node>
	<node id="-635675" lat="65.6977" lon="12.4181055451">
		<tag k="alt_name" v="Vågsvika" />
		<tag k="name" v="Vågsvikja" />
		<tag k="place" v="farm" />
		<tag k="ssr:stedsnr" v="197033" />
	</node>
	<node id="-635674" lat="65.64919167" lon="12.619277779">
		<tag k="name" v="Nonshaugen" />
		<tag k="natural" v="hill" />
		<tag k="place" v="locality" />
		<tag k="ssr:stedsnr" v="197123" />
	</node>
	<node id="-635673" lat="65.7532250031" lon="12.537524997">
		<tag k="name" v="Kalvhyllodden" />
		<tag k="natural" v="cape" />
		<tag k="ssr:stedsnr" v="197103" />
	</node>
	<node id="-635672" lat="65.6862416697" lon="12.5951166705">
		<tag k="name" v="Langkilfjorden" />
		<tag k="natural" v="bay" />
		<tag k="ssr:stedsnr" v="173257" />
	</node>
	<node id="-635671" lat="65.6715972183" lon="12.4026277852">
		<tag k="name" v="Aleksvikja" />
		<tag k="natural" v="bay" />
		<tag k="ssr:stedsnr" v="169685" />
	</node>
	<node id="-635670" lat="65.6665472239" lon="12.4040472328">
		<tag k="name" v="Fjelltun" />
		<tag k="place" v="farm" />
		<tag k="ssr:stedsnr" v="169680" />
	</node>
	<node id="-635669" lat="65.5720388857" lon="12.3920027748">
		<tag k="name" v="Langvikja" />
		<tag k="natural" v="bay" />
		<tag k="ssr:stedsnr" v="168832" />
	</node>
	<node id="-635668" lat="65.5941861103" lon="12.4263138893">
		<tag k="name" v="Botnlia" />
		<tag k="natural" v="slope" />
		<tag k="place" v="locality" />
		<tag k="ssr:stedsnr" v="168818" />
	</node>
	<node id="-635667" lat="65.6114222198" lon="12.3679222281">
		<tag k="name" v="Lauknesmarka" />
		<tag k="place" v="locality" />
		<tag k="ssr:stedsnr" v="168800" />
	</node>
	<node id="-635666" lat="65.6261305587" lon="12.3693916688">
		<tag k="name" v="Hågkleivan" />
		<tag k="natural" v="slope" />
		<tag k="place" v="locality" />
		<tag k="ssr:stedsnr" v="168796" />
	</node>
	<node id="-635665" lat="65.6298666675" lon="12.3781055588">
		<tag k="name" v="Aksla" />
		<tag k="natural" v="ridge" />
		<tag k="place" v="locality" />
		<tag k="ssr:stedsnr" v="168791" />
	</node>
	<node id="-635664" lat="65.6336777802" lon="12.3796333263">
		<tag k="name" v="Seljeurda" />
		<tag k="natural" v="scree" />
		<tag k="ssr:stedsnr" v="168789" />
	</node>
	<node id="-635663" lat="65.6504472247" lon="12.6374833333">
		<tag k="name" v="Syhågjen" />
		<tag k="natural" v="hill" />
		<tag k="place" v="locality" />
		<tag k="ssr:stedsnr" v="168773" />
	</node>
	<node id="-635662" lat="65.6516555541" lon="12.6395416588">
		<tag k="name" v="Osen" />
		<tag k="natural" v="bay" />
		<tag k="ssr:stedsnr" v="168772" />
	</node>
	<node id="-635661" lat="65.6623972253" lon="12.3155055641">
		<tag k="name" v="Storheia" />
		<tag k="natural" v="hill" />
		<tag k="place" v="locality" />
		<tag k="ssr:stedsnr" v="168743" />
	</node>
	<node id="-635660" lat="65.6480305544" lon="12.3884888859">
		<tag k="name" v="Kvitfjellet" />
		<tag k="natural" v="slope" />
		<tag k="place" v="locality" />
		<tag k="ssr:stedsnr" v="168728" />
	</node>
	<node id="-635659" lat="65.6774083318" lon="12.410447232">
		<tag k="name" v="Sørhågjen" />
		<tag k="natural" v="hill" />
		<tag k="place" v="locality" />
		<tag k="ssr:stedsnr" v="168699" />
	</node>
	<node id="-635658" lat="65.6797138843" lon="12.4108750101">
		<tag k="name" v="Nordhågjen" />
		<tag k="natural" v="hill" />
		<tag k="place" v="locality" />
		<tag k="ssr:stedsnr" v="168692" />
	</node>
	<node id="-635657" lat="65.672749998" lon="12.4048305645">
		<tag k="name" v="Sandosan" />
		<tag k="natural" v="beach" />
		<tag k="place" v="locality" />
		<tag k="ssr:stedsnr" v="168689" />
	</node>
	<node id="-635656" lat="65.6908333377" lon="12.4255666719">
		<tag k="name" v="Nybakken" />
		<tag k="place" v="farm" />
		<tag k="ssr:stedsnr" v="167659" />
	</node>
	<node id="-635655" lat="65.6885611089" lon="12.3963888898">
		<tag k="name" v="Ervikja" />
		<tag k="natural" v="valley" />
		<tag k="place" v="locality" />
		<tag k="ssr:stedsnr" v="167619" />
	</node>
	<node id="-635654" lat="65.711252779" lon="12.4839388966">
		<tag k="name" v="Geitkrækern" />
		<tag k="natural" v="ridge" />
		<tag k="place" v="locality" />
		<tag k="ssr:stedsnr" v="167586" />
	</node>
	<node id="-635653" lat="65.7216638924" lon="12.4511777827">
		<tag k="man_made" v="quay" />
		<tag k="name" v="Vågsodden fergekai" />
		<tag k="place" v="locality" />
		<tag k="ssr:stedsnr" v="167581" />
	</node>
	<node id="-635652" lat="65.7263944473" lon="12.510769437">
		<tag k="name" v="Sommarfjøsbakkan" />
		<tag k="natural" v="slope" />
		<tag k="place" v="locality" />
		<tag k="ssr:stedsnr" v="167578" />
	</node>
	<node id="-635651" lat="65.7290694402" lon="12.499688886">
		<tag k="name" v="Vistneslia" />
		<tag k="natural" v="slope" />
		<tag k="place" v="locality" />
		<tag k="ssr:stedsnr" v="167577" />
	</node>
	<node id="-635650" lat="65.7531083328" lon="12.5413138877">
		<tag k="name" v="Kalvvikja" />
		<tag k="natural" v="valley" />
		<tag k="place" v="locality" />
		<tag k="ssr:stedsnr" v="167459" />
	</node>
	<node id="-635649" lat="65.75809167" lon="12.5613888815">
		<tag k="amenity" v="community_centre" />
		<tag k="name" v="Stokka ungdomshus" />
		<tag k="ssr:stedsnr" v="167440" />
	</node>
	<node id="-635648" lat="65.731658337" lon="12.5029722328">
		<tag k="name" v="Kleivaskardet" />
		<tag k="natural" v="valley" />
		<tag k="place" v="locality" />
		<tag k="ssr:stedsnr" v="167385" />
	</node>
	<node id="-635647" lat="65.7331583295" lon="12.511169454">
		<tag k="name" v="Bleso" />
		<tag k="natural" v="valley" />
		<tag k="place" v="locality" />
		<tag k="ssr:stedsnr" v="167382" />
	</node>
	<node id="-635646" lat="65.7297638893" lon="12.4742722147">
		<tag k="name" v="Snertholmfluin" />
		<tag k="natural" v="shoal" />
		<tag k="place" v="locality" />
		<tag k="ssr:stedsnr" v="148196" />
	</node>
	<node id="-635645" lat="65.7004861095" lon="12.4412444551">
		<tag k="fixme" v="consider place=hamlet" />
		<tag k="name" v="Vevelstad" />
		<tag k="place" v="village" />
		<tag k="ssr:stedsnr" v="147499" />
	</node>
	<node id="-635644" lat="65.5781750003" lon="12.3917138885">
		<tag k="amenity" v="ferry_terminal" />
		<tag k="name" v="Anddalsvågen" />
		<tag k="ssr:stedsnr" v="145525" />
	</node>
	<node id="-635643" lat="65.576977777" lon="12.4100027754">
		<tag k="name" v="Johanelva" />
		<tag k="ssr:stedsnr" v="137864" />
		<tag k="waterway" v="stream" />
	</node>
	<node id="-635642" lat="65.7087277772" lon="12.4544000017">
		<tag k="amenity" v="place_of_worship" />
		<tag k="denomination" v="lutheran" />
		<tag k="name" v="Vevelstad" />
		<tag k="religion" v="christian" />
		<tag k="ssr:stedsnr" v="137207" />
	</node>
	<node id="-635641" lat="65.6558527767" lon="12.3970055605">
		<tag k="name" v="Breiåa" />
		<tag k="ssr:stedsnr" v="137064" />
		<tag k="waterway" v="stream" />
	</node>
	<node id="-635640" lat="65.657691663" lon="12.2885277723">
		<tag k="fixme" v="consider seamark:type=rock or natural=shoal" />
		<tag k="name" v="Esøyskjæret" />
		<tag k="place" v="islet" />
		<tag k="ssr:stedsnr" v="137059" />
	</node>
	<node id="-635639" lat="65.6257583369" lon="12.5952666691">
		<tag k="fixme" v="consider natural=peak for the most distinct mountains in the district" />
		<tag k="name" v="Gråfjellet" />
		<tag k="natural" v="hill" />
		<tag k="place" v="locality" />
		<tag k="ssr:stedsnr" v="136932" />
	</node>
	<node id="-635638" lat="65.5913305523" lon="12.3709444408">
		<tag k="alt_name" v="Mellomvika" />
		<tag k="name" v="Møllovikja" />
		<tag k="natural" v="bay" />
		<tag k="ssr:stedsnr" v="136921" />
	</node>
	<node id="-635637" lat="65.6446250018" lon="12.766591657">
		<tag k="name" v="Urdbergan" />
		<tag k="natural" v="hill" />
		<tag k="place" v="locality" />
		<tag k="ssr:stedsnr" v="136863" />
	</node>
	<node id="-635636" lat="65.6338499985" lon="12.7613277699">
		<tag k="name" v="Aspvikneset" />
		<tag k="natural" v="cape" />
		<tag k="ssr:stedsnr" v="136856" />
	</node>
	<node id="-635635" lat="65.6249000024" lon="12.7444194346">
		<tag k="alt_name" v="Straumen, nedre" />
		<tag k="name" v="Nedre Straumen" />
		<tag k="natural" v="strait" />
		<tag k="ssr:stedsnr" v="136852" />
	</node>
	<node id="-635634" lat="65.6052583375" lon="12.7410222226">
		<tag k="name" v="Granneselva" />
		<tag k="ssr:stedsnr" v="136831" />
		<tag k="waterway" v="river" />
	</node>
	<node id="-635633" lat="65.6048833289" lon="12.7854666759">
		<tag k="name" v="Lakselvvatnet" />
		<tag k="natural" v="water" />
		<tag k="ssr:stedsnr" v="136823" />
		<tag k="water" v="lake" />
	</node>
	<node id="-635632" lat="65.5997999992" lon="12.9405500041">
		<tag k="name" v="Vistvasselva" />
		<tag k="ssr:stedsnr" v="136688" />
		<tag k="waterway" v="river" />
	</node>
	<node id="-635631" lat="65.6009222243" lon="12.9054722275">
		<tag k="name" v="Blankvatnet" />
		<tag k="natural" v="water" />
		<tag k="ssr:stedsnr" v="136676" />
	</node>
	<node id="-635630" lat="65.7180749966" lon="12.481608343">
		<tag k="alt_name" v="Korsvikmyrån" />
		<tag k="name" v="Korsvikmyran" />
		<tag k="natural" v="wetland" />
		<tag k="ssr:stedsnr" v="136285" />
	</node>
	<node id="-635629" lat="65.7201138905" lon="12.5599861123">
		<tag k="name" v="Åmidalen" />
		<tag k="natural" v="valley" />
		<tag k="place" v="locality" />
		<tag k="ssr:stedsnr" v="136282" />
	</node>
	<node id="-635628" lat="65.7277333374" lon="12.5394694483">
		<tag k="name" v="Urdvikdalen" />
		<tag k="natural" v="valley" />
		<tag k="place" v="locality" />
		<tag k="ssr:stedsnr" v="136252" />
	</node>
	<node id="-635627" lat="65.7351749958" lon="12.5269999993">
		<tag k="name" v="Lislurdvika" />
		<tag k="natural" v="bay" />
		<tag k="ssr:stedsnr" v="136251" />
	</node>
	<node id="-635626" lat="65.7338833914" lon="12.4978735118">
		<tag k="fixme" v="consider place=hamlet" />
		<tag k="name" v="Vistnes" />
		<tag k="place" v="farm" />
		<tag k="ssr:stedsnr" v="136250" />
	</node>
	<node id="-635625" lat="65.7386888895" lon="12.5147194429">
		<tag k="name" v="Vistnesodden" />
		<tag k="place" v="farm" />
		<tag k="ssr:stedsnr" v="136245" />
	</node>
	<node id="-635624" lat="65.6461611076" lon="12.6760000091">
		<tag k="name" v="Tangvika" />
		<tag k="place" v="locality" />
		<tag k="ssr:stedsnr" v="136141" />
	</node>
	<node id="-635623" lat="65.6259722259" lon="12.5780111145">
		<tag k="name" v="Limarkheia" />
		<tag k="place" v="locality" />
		<tag k="ssr:stedsnr" v="136137" />
	</node>
	<node id="-635622" lat="65.6396333334" lon="12.6033694539">
		<tag k="fixme" v="consider natural=peak for the most distinct mountains in the district" />
		<tag k="name" v="Falkhetta" />
		<tag k="natural" v="hill" />
		<tag k="place" v="locality" />
		<tag k="ssr:stedsnr" v="136134" />
	</node>
	<node id="-635621" lat="65.6334750029" lon="12.4888305587">
		<tag k="name" v="Raudbergsvatnet" />
		<tag k="natural" v="water" />
		<tag k="ssr:stedsnr" v="136130" />
	</node>
	<node id="-635620" lat="65.6504888863" lon="12.3143305503">
		<tag k="name" v="Mola" />
		<tag k="natural" v="cape" />
		<tag k="ssr:stedsnr" v="136125" />
	</node>
	<node id="-635619" lat="65.657363889" lon="12.6420583225">
		<tag k="name" v="Aussundet" />
		<tag k="natural" v="strait" />
		<tag k="ssr:stedsnr" v="136103" />
	</node>
	<node id="-635618" lat="65.6634777794" lon="12.6057972171">
		<tag k="name" v="Laksosen" />
		<tag k="natural" v="bay" />
		<tag k="ssr:stedsnr" v="136097" />
	</node>
	<node id="-635617" lat="65.6797416667" lon="12.376980564">
		<tag k="name" v="Oterbekken" />
		<tag k="ssr:stedsnr" v="136070" />
		<tag k="waterway" v="stream" />
	</node>
	<node id="-635616" lat="65.6778222248" lon="12.4145250047">
		<tag k="alt_name" v="Brødløselva" />
		<tag k="name" v="Brøloselva" />
		<tag k="ssr:stedsnr" v="136069" />
		<tag k="waterway" v="river" />
	</node>
	<node id="-635615" lat="65.682158333" lon="12.3360472236">
		<tag k="alt_name" v="Steinvika" />
		<tag k="name" v="Steinvikja" />
		<tag k="natural" v="bay" />
		<tag k="ssr:stedsnr" v="136064" />
	</node>
	<node id="-635614" lat="65.6867027808" lon="12.4231027684">
		<tag k="name" v="Svalvika" />
		<tag k="place" v="farm" />
		<tag k="ssr:stedsnr" v="136053" />
	</node>
	<node id="-635613" lat="65.6768944432" lon="12.3497527792">
		<tag k="name" v="Hamnøya" />
		<tag k="place" v="island" />
		<tag k="ssr:stedsnr" v="136045" />
	</node>
	<node id="-635612" lat="65.6984138912" lon="12.3644861196">
		<tag k="name" v="Gråøyskjæret" />
		<tag k="place" v="islet" />
		<tag k="ssr:stedsnr" v="136038" />
	</node>
	<node id="-635611" lat="65.6989138854" lon="12.3815555607">
		<tag k="fixme" v="consider seamark:type=rock or natural=shoal" />
		<tag k="name" v="Kolbeinskjæret" />
		<tag k="place" v="islet" />
		<tag k="ssr:stedsnr" v="136016" />
	</node>
	<node id="-635610" lat="65.5887305542" lon="12.4007055533">
		<tag k="name" v="Hestfjellet" />
		<tag k="natural" v="cliff" />
		<tag k="ssr:stedsnr" v="107844" />
	</node>
	<node id="-635609" lat="65.6257027773" lon="12.3764388878">
		<tag k="name" v="Hesthagen" />
		<tag k="natural" v="slope" />
		<tag k="place" v="locality" />
		<tag k="ssr:stedsnr" v="107817" />
	</node>
	<node id="-635608" lat="65.6229861124" lon="12.3761805524">
		<tag k="name" v="Dalen" />
		<tag k="natural" v="valley" />
		<tag k="place" v="locality" />
		<tag k="ssr:stedsnr" v="107814" />
	</node>
	<node id="-635607" lat="65.6394888917" lon="12.3781833353">
		<tag k="name" v="Rabben" />
		<tag k="natural" v="hill" />
		<tag k="place" v="locality" />
		<tag k="ssr:stedsnr" v="107810" />
	</node>
	<node id="-635606" lat="65.6626944476" lon="12.4081694499">
		<tag k="name" v="Dròksålia" />
		<tag k="natural" v="slope" />
		<tag k="place" v="locality" />
		<tag k="ssr:stedsnr" v="107774" />
	</node>
	<node id="-635605" lat="65.6591944457" lon="12.3065750059">
		<tag k="name" v="Bulia" />
		<tag k="natural" v="slope" />
		<tag k="place" v="locality" />
		<tag k="ssr:stedsnr" v="107764" />
	</node>
	<node id="-635604" lat="65.6736277745" lon="12.4181333355">
		<tag k="name" v="Torvhågbekken" />
		<tag k="ssr:stedsnr" v="107721" />
		<tag k="waterway" v="stream" />
	</node>
	<node id="-635603" lat="65.6737638918" lon="12.411672224">
		<tag k="name" v="Karusellhågjen" />
		<tag k="natural" v="hill" />
		<tag k="place" v="locality" />
		<tag k="ssr:stedsnr" v="107716" />
	</node>
	<node id="-635602" lat="65.6800000011" lon="12.3348166722">
		<tag k="name" v="Olderhågjen" />
		<tag k="natural" v="hill" />
		<tag k="place" v="locality" />
		<tag k="ssr:stedsnr" v="107671" />
	</node>
	<node id="-635601" lat="65.6665388865" lon="12.3095333262">
		<tag k="name" v="Sørsyen" />
		<tag k="natural" v="bay" />
		<tag k="ssr:stedsnr" v="107670" />
	</node>
	<node id="-635600" lat="65.6975916663" lon="12.4455583381">
		<tag k="name" v="Svenskmyrån" />
		<tag k="natural" v="wetland" />
		<tag k="ssr:stedsnr" v="107610" />
	</node>
	<node id="-635599" lat="65.7014472196" lon="12.4405000011">
		<tag k="amenity" v="school" />
		<tag k="name" v="Vevelstad sentralskole" />
		<tag k="ssr:stedsnr" v="107611" />
	</node>
	<node id="-635598" lat="65.7044222262" lon="12.4141083308">
		<tag k="name" v="Kjøkkenhågjen" />
		<tag k="natural" v="hill" />
		<tag k="place" v="locality" />
		<tag k="ssr:stedsnr" v="107574" />
	</node>
	<node id="-635597" lat="65.699441668" lon="12.3625166704">
		<tag k="name" v="Inner-Gråøya" />
		<tag k="place" v="island" />
		<tag k="ssr:stedsnr" v="107564" />
	</node>
	<node id="-635596" lat="65.7080194434" lon="12.46109999">
		<tag k="fixme" v="consider natural=peak for the most distinct mountains in the district" />
		<tag k="name" v="Lissfjellet" />
		<tag k="natural" v="hill" />
		<tag k="place" v="locality" />
		<tag k="ssr:stedsnr" v="107560" />
	</node>
	<node id="-635595" lat="65.7279861154" lon="12.4964055612">
		<tag k="name" v="Nøttmyro" />
		<tag k="natural" v="wetland" />
		<tag k="ssr:stedsnr" v="107556" />
	</node>
	<node id="-635594" lat="65.7162944485" lon="12.4285499904">
		<tag k="name" v="Jonsvikmyrån" />
		<tag k="natural" v="wetland" />
		<tag k="ssr:stedsnr" v="107448" />
	</node>
	<node id="-635593" lat="65.7475444459" lon="12.5821361077">
		<tag k="name" v="Stormobekken" />
		<tag k="ssr:stedsnr" v="107399" />
		<tag k="waterway" v="stream" />
	</node>
	<node id="-635592" lat="65.7494638906" lon="12.5800388936">
		<tag k="fixme" v="consider highway=path" />
		<tag k="highway" v="track" />
		<tag k="name" v="Gammelvegen" />
		<tag k="ssr:stedsnr" v="107397" />
	</node>
	<node id="-635591" lat="65.7401333376" lon="12.5671222165">
		<tag k="name" v="Stranddalen" />
		<tag k="natural" v="valley" />
		<tag k="place" v="locality" />
		<tag k="ssr:stedsnr" v="107389" />
	</node>
	<node id="-635590" lat="65.6194206315" lon="12.2921817206">
		<tag k="name" v="Fjordholman" />
		<tag k="place" v="island" />
		<tag k="ssr:stedsnr" v="86133" />
	</node>
	<node id="-635589" lat="65.6230194485" lon="12.3247805588">
		<tag k="name" v="Lystaren" />
		<tag k="natural" v="shoal" />
		<tag k="place" v="locality" />
		<tag k="ssr:stedsnr" v="76914" />
	</node>
	<node id="-635588" lat="65.5760749995" lon="12.4538333288">
		<tag k="name" v="Mølnvatnet" />
		<tag k="natural" v="water" />
		<tag k="ssr:stedsnr" v="76861" />
	</node>
	<node id="-635587" lat="65.6685250007" lon="12.7271777788">
		<tag k="name" v="Tøymtjørnbekken" />
		<tag k="ssr:stedsnr" v="76848" />
		<tag k="waterway" v="stream" />
	</node>
	<node id="-635586" lat="65.6442361133" lon="12.7515000041">
		<tag k="name" v="Sommarsetvika" />
		<tag k="natural" v="bay" />
		<tag k="ssr:stedsnr" v="76840" />
	</node>
	<node id="-635585" lat="65.6257083362" lon="12.7747388911">
		<tag k="name" v="Danielbekken" />
		<tag k="ssr:stedsnr" v="76823" />
		<tag k="waterway" v="stream" />
	</node>
	<node id="-635584" lat="65.6175472223" lon="12.8586250087">
		<tag k="name" v="Stigbekken" />
		<tag k="ssr:stedsnr" v="76814" />
		<tag k="waterway" v="stream" />
	</node>
	<node id="-635583" lat="65.7220305545" lon="12.7402416611">
		<tag k="name" v="Almoskardet" />
		<tag k="natural" v="valley" />
		<tag k="place" v="locality" />
		<tag k="ssr:stedsnr" v="76749" />
	</node>
	<node id="-635582" lat="65.5503888856" lon="12.7282166635">
		<tag k="fixme" v="consider natural=peak for the most distinct mountains in the district" />
		<tag k="name" v="Laksmarkfjellet" />
		<tag k="natural" v="hill" />
		<tag k="place" v="locality" />
		<tag k="ssr:stedsnr" v="76688" />
	</node>
	<node id="-635581" lat="65.5909999954" lon="12.8060527844">
		<tag k="name" v="Kalvdalsbekken" />
		<tag k="ssr:stedsnr" v="76673" />
		<tag k="waterway" v="stream" />
	</node>
	<node id="-635580" lat="65.6051361153" lon="12.9141055477">
		<tag k="fixme" v="consider natural=peak for the most distinct mountains in the district" />
		<tag k="name" v="Frukostfjellet" />
		<tag k="natural" v="hill" />
		<tag k="place" v="locality" />
		<tag k="ssr:stedsnr" v="76668" />
	</node>
	<node id="-635579" lat="65.5413611149" lon="12.7681277767">
		<tag k="name" v="Tøymvassheia" />
		<tag k="natural" v="slope" />
		<tag k="place" v="locality" />
		<tag k="ssr:stedsnr" v="76640" />
	</node>
	<node id="-635578" lat="65.7188861084" lon="12.56254444">
		<tag k="name" v="Åa" />
		<tag k="ssr:stedsnr" v="76267" />
		<tag k="waterway" v="stream" />
	</node>
	<node id="-635577" lat="65.7129638892" lon="12.6376305483">
		<tag k="fixme" v="consider natural=peak for the most distinct mountains in the district" />
		<tag k="name" v="Aunfjellet" />
		<tag k="natural" v="hill" />
		<tag k="place" v="locality" />
		<tag k="ssr:stedsnr" v="76265" />
	</node>
	<node id="-635576" lat="65.7153249959" lon="12.4148583302">
		<tag k="alt_name" v="Sørjonsvika" />
		<tag k="name" v="Sør-Jonsvikja" />
		<tag k="natural" v="bay" />
		<tag k="ssr:stedsnr" v="76256" />
	</node>
	<node id="-635575" lat="65.7214361157" lon="12.5356611018">
		<tag k="fixme" v="consider natural=peak for the most distinct mountains in the district" />
		<tag k="name" v="Dalaksla" />
		<tag k="natural" v="hill" />
		<tag k="place" v="locality" />
		<tag k="ssr:stedsnr" v="76252" />
	</node>
	<node id="-635574" lat="65.7252361121" lon="12.5980638976">
		<tag k="fixme" v="consider place=hamlet" />
		<tag k="name" v="Visthus" />
		<tag k="place" v="village" />
		<tag k="ssr:stedsnr" v="76249" />
	</node>
	<node id="-635573" lat="65.6397749975" lon="12.6468111187">
		<tag k="fixme" v="consider natural=peak for the most distinct mountains in the district" />
		<tag k="name" v="Urdviktinden" />
		<tag k="natural" v="hill" />
		<tag k="place" v="locality" />
		<tag k="ssr:stedsnr" v="76137" />
	</node>
	<node id="-635572" lat="65.6307361076" lon="12.4118999936">
		<tag k="fixme" v="consider natural=peak for the most distinct mountains in the district" />
		<tag k="name" v="Stortinden" />
		<tag k="natural" v="hill" />
		<tag k="place" v="locality" />
		<tag k="ssr:stedsnr" v="76135" />
	</node>
	<node id="-635571" lat="65.6425861074" lon="12.3679027756">
		<tag k="name" v="Osan" />
		<tag k="natural" v="bay" />
		<tag k="ssr:stedsnr" v="76126" />
	</node>
	<node id="-635570" lat="65.6450111108" lon="12.5577499913">
		<tag k="fixme" v="consider natural=peak for the most distinct mountains in the district" />
		<tag k="name" v="Åstinden" />
		<tag k="natural" v="hill" />
		<tag k="place" v="locality" />
		<tag k="ssr:stedsnr" v="76125" />
	</node>
	<node id="-635569" lat="65.7574250025" lon="12.6280527842">
		<tag k="name" v="Brennådalen" />
		<tag k="natural" v="valley" />
		<tag k="place" v="locality" />
		<tag k="ssr:stedsnr" v="76117" />
	</node>
	<node id="-635568" lat="65.6692777768" lon="12.5669166603">
		<tag k="name" v="Langkilelva" />
		<tag k="ssr:stedsnr" v="76093" />
		<tag k="waterway" v="stream" />
	</node>
	<node id="-635567" lat="65.6764173183" lon="12.5745714718">
		<tag k="alt_name" v="Langkila" />
		<tag k="name" v="Langkilen" />
		<tag k="place" v="locality" />
		<tag k="ssr:stedsnr" v="76067" />
	</node>
	<node id="-635566" lat="65.7651416695" lon="12.5196638823">
		<tag k="fixme" v="consider seamark:type=rock or natural=shoal" />
		<tag k="name" v="Stokkaskjæret" />
		<tag k="place" v="islet" />
		<tag k="ssr:stedsnr" v="76061" />
	</node>
	<node id="-635565" lat="65.6859277789" lon="12.3470638798">
		<tag k="name" v="Festvika" />
		<tag k="natural" v="bay" />
		<tag k="ssr:stedsnr" v="76056" />
	</node>
	<node id="-635564" lat="65.6816250027" lon="12.3663555648">
		<tag k="name" v="Botnan" />
		<tag k="natural" v="valley" />
		<tag k="place" v="locality" />
		<tag k="ssr:stedsnr" v="76055" />
	</node>
	<node id="-635563" lat="65.6846277748" lon="12.3640444459">
		<tag k="name" v="Fjelldørgja" />
		<tag k="natural" v="slope" />
		<tag k="place" v="locality" />
		<tag k="ssr:stedsnr" v="76052" />
	</node>
	<node id="-635562" lat="65.6910055555" lon="12.3825361153">
		<tag k="name" v="Tuva" />
		<tag k="natural" v="hill" />
		<tag k="place" v="locality" />
		<tag k="ssr:stedsnr" v="76034" />
	</node>
	<node id="-635561" lat="65.7050222265" lon="12.450213891">
		<tag k="name" v="Elvbakken" />
		<tag k="place" v="farm" />
		<tag k="ssr:stedsnr" v="76020" />
	</node>
	<node id="-635560" lat="65.7085166627" lon="12.4951777671">
		<tag k="name" v="Grønlia" />
		<tag k="natural" v="slope" />
		<tag k="place" v="locality" />
		<tag k="ssr:stedsnr" v="76011" />
	</node>
	<node id="-635558" lat="65.6690861142" lon="12.4007277687">
		<tag k="name" v="Sørsanden" />
		<tag k="natural" v="beach" />
		<tag k="place" v="locality" />
		<tag k="ssr:stedsnr" v="47687" />
	</node>
	<node id="-635557" lat="65.6960166633" lon="12.5880472208">
		<tag k="name" v="Brautvatnet" />
		<tag k="natural" v="water" />
		<tag k="ssr:stedsnr" v="47650" />
	</node>
	<node id="-635556" lat="65.5821444427" lon="12.3982694545">
		<tag k="name" v="Flatvikja" />
		<tag k="natural" v="bay" />
		<tag k="ssr:stedsnr" v="46842" />
	</node>
	<node id="-635555" lat="65.5794083294" lon="12.4118333405">
		<tag k="fixme" v="consider natural=peak for the most distinct mountains in the district" />
		<tag k="name" v="Kongsstolen" />
		<tag k="natural" v="hill" />
		<tag k="place" v="locality" />
		<tag k="ssr:stedsnr" v="46834" />
	</node>
	<node id="-635554" lat="65.6078749988" lon="12.3781694499">
		<tag k="name" v="Stappen" />
		<tag k="place" v="locality" />
		<tag k="ssr:stedsnr" v="46822" />
	</node>
	<node id="-635553" lat="65.6375500027" lon="12.3602861155">
		<tag k="name" v="Sør-Høyholmsyen" />
		<tag k="natural" v="bay" />
		<tag k="ssr:stedsnr" v="46808" />
	</node>
	<node id="-635552" lat="65.6542166687" lon="12.3946138976">
		<tag k="name" v="Breiålia" />
		<tag k="natural" v="slope" />
		<tag k="place" v="locality" />
		<tag k="ssr:stedsnr" v="46782" />
	</node>
	<node id="-635551" lat="65.6452333301" lon="12.3771277847">
		<tag k="name" v="Sørgården" />
		<tag k="place" v="farm" />
		<tag k="ssr:stedsnr" v="46762" />
	</node>
	<node id="-635550" lat="65.6954472198" lon="12.3831083334">
		<tag k="name" v="Storholmen" />
		<tag k="place" v="islet" />
		<tag k="ssr:stedsnr" v="46658" />
	</node>
	<node id="-635549" lat="65.7276166691" lon="12.591194454">
		<tag k="name" v="Båthågjen" />
		<tag k="natural" v="hill" />
		<tag k="place" v="locality" />
		<tag k="ssr:stedsnr" v="46613" />
	</node>
	<node id="-635548" lat="65.7159583297" lon="12.4652000064">
		<tag k="name" v="Nordvikja" />
		<tag k="natural" v="bay" />
		<tag k="ssr:stedsnr" v="46584" />
	</node>
	<node id="-635547" lat="65.710466668" lon="12.4737027754">
		<tag k="name" v="Tyskmoen" />
		<tag k="place" v="locality" />
		<tag k="ssr:stedsnr" v="46580" />
	</node>
	<node id="-635546" lat="65.7411722262" lon="12.6030083351">
		<tag k="name" v="Broddan" />
		<tag k="natural" v="slope" />
		<tag k="place" v="locality" />
		<tag k="ssr:stedsnr" v="46514" />
	</node>
	<node id="-635545" lat="65.7448694479" lon="12.5923444491">
		<tag k="fixme" v="consider natural=peak for the most distinct mountains in the district" />
		<tag k="name" v="Tverråsen" />
		<tag k="natural" v="hill" />
		<tag k="place" v="locality" />
		<tag k="ssr:stedsnr" v="46508" />
	</node>
	<node id="-635544" lat="65.7436166691" lon="12.6021444434">
		<tag k="name" v="Kopparkjelen" />
		<tag k="place" v="locality" />
		<tag k="ssr:stedsnr" v="46506" />
	</node>
	<node id="-635543" lat="65.7351500004" lon="12.4962500084">
		<tag k="name" v="Notberget" />
		<tag k="natural" v="cliff" />
		<tag k="ssr:stedsnr" v="46464" />
	</node>
	<node id="-635542" lat="65.7359638895" lon="12.5014138823">
		<tag k="name" v="Gjersvikja" />
		<tag k="natural" v="bay" />
		<tag k="ssr:stedsnr" v="46463" />
	</node>
	<node id="-635541" lat="65.5493638899" lon="13.0337083319">
		<tag k="fixme" v="consider natural=peak for the most distinct mountains in the district" />
		<tag k="name" v="Vistkjerringa - Væstangåmma" />
		<tag k="name:no" v="Vistkjerringa" />
		<tag k="name:sma" v="Væstangåmma" />
		<tag k="natural" v="hill" />
		<tag k="place" v="locality" />
		<tag k="ssr:stedsnr" v="25619" />
	</node>
	<node id="-635540" lat="65.5883555592" lon="12.4075027819">
		<tag k="name" v="Vollan" />
		<tag k="place" v="locality" />
		<tag k="ssr:stedsnr" v="16890" />
	</node>
	<node id="-635539" lat="65.7172277775" lon="12.4296583401">
		<tag k="name" v="Nordmarka" />
		<tag k="place" v="locality" />
		<tag k="ssr:stedsnr" v="16207" />
	</node>
	<node id="-635538" lat="65.721627775" lon="12.6298805571">
		<tag k="name" v="Auna" />
		<tag k="place" v="locality" />
		<tag k="ssr:stedsnr" v="16205" />
	</node>
	<node id="-635537" lat="65.7232166652" lon="12.4463805501">
		<tag k="name" v="Vågsodden" />
		<tag k="place" v="farm" />
		<tag k="ssr:stedsnr" v="16200" />
	</node>
	<node id="-635536" lat="65.6552250003" lon="12.4633083415">
		<tag k="name" v="Steintjørna" />
		<tag k="natural" v="water" />
		<tag k="ssr:stedsnr" v="16075" />
	</node>
	<node id="-635535" lat="65.6525388904" lon="12.3117333366">
		<tag k="alt_name" v="Bonsteinen" />
		<tag k="name" v="Bondsteinen" />
		<tag k="natural" v="stone" />
		<tag k="ssr:stedsnr" v="16071" />
	</node>
	<node id="-635534" lat="65.5837694416" lon="12.3743777853">
		<tag k="alt_name" v="Langvika" />
		<tag k="name" v="Langvikja" />
		<tag k="natural" v="bay" />
		<tag k="ssr:stedsnr" v="15895" />
	</node>
	<node id="-635533" lat="65.6513583326" lon="12.7526999955">
		<tag k="name" v="Bønnåga" />
		<tag k="ssr:stedsnr" v="15869" />
		<tag k="waterway" v="river" />
	</node>
	<node id="-635532" lat="65.6364416633" lon="12.7849611174">
		<tag k="name" v="Neset" />
		<tag k="natural" v="cape" />
		<tag k="ssr:stedsnr" v="15862" />
	</node>
	<node id="-635531" lat="65.6057500009" lon="12.8224916672">
		<tag k="name" v="Bjorvatnet" />
		<tag k="natural" v="water" />
		<tag k="ssr:stedsnr" v="15845" />
	</node>
	<node id="-635530" lat="65.6051944473" lon="12.3625527694">
		<tag k="name" v="Sørodden" />
		<tag k="natural" v="cape" />
		<tag k="ssr:stedsnr" v="15829" />
	</node>
	<node id="-635529" lat="65.6117694424" lon="12.9210166749">
		<tag k="name" v="Stillelva" />
		<tag k="ssr:stedsnr" v="15824" />
		<tag k="waterway" v="river" />
	</node>
	<node id="-635528" lat="65.5937000046" lon="12.4147666614">
		<tag k="name" v="Gløsen" />
		<tag k="natural" v="slope" />
		<tag k="place" v="locality" />
		<tag k="ssr:stedsnr" v="15922" />
	</node>
	<node id="-635527" lat="65.602777774" lon="12.8634500066">
		<tag k="name" v="Blankvasselva" />
		<tag k="ssr:stedsnr" v="15699" />
		<tag k="waterway" v="river" />
	</node>
	<node id="-635526" lat="65.5304916681" lon="12.758258338">
		<tag k="name" v="Børjedalen" />
		<tag k="natural" v="valley" />
		<tag k="place" v="locality" />
		<tag k="ssr:stedsnr" v="15672" />
	</node>
	<node id="-635525" lat="65.5405250003" lon="12.7488027774">
		<tag k="name" v="Tøymvasslia" />
		<tag k="natural" v="slope" />
		<tag k="place" v="locality" />
		<tag k="ssr:stedsnr" v="15660" />
	</node>
	<node id="-635524" lat="65.5502944426" lon="12.8818583379">
		<tag k="name" v="Austerdalsvatnet - Åarjeljaevrie" />
		<tag k="name:no" v="Austerdalsvatnet" />
		<tag k="name:sma" v="Åarjeljaevrie" />
		<tag k="natural" v="water" />
		<tag k="ssr:stedsnr" v="15657" />
		<tag k="water" v="lake" />
	</node>
	<node id="-635523" lat="65.5579305585" lon="12.7506166577">
		<tag k="name" v="Laksmarkelva" />
		<tag k="ssr:stedsnr" v="15720" />
		<tag k="waterway" v="river" />
	</node>
	<node id="-635522" lat="65.7184499996" lon="12.5179750045">
		<tag k="name" v="Dalvatnan" />
		<tag k="natural" v="water" />
		<tag k="ssr:stedsnr" v="15262" />
	</node>
	<node id="-635521" lat="65.7206000013" lon="12.4386166566">
		<tag k="name" v="Nonshaugen" />
		<tag k="natural" v="hill" />
		<tag k="place" v="locality" />
		<tag k="ssr:stedsnr" v="15242" />
	</node>
	<node id="-635520" lat="65.6260833319" lon="12.2746944402">
		<tag k="name" v="Kvitkjertet" />
		<tag k="place" v="islet" />
		<tag k="ssr:stedsnr" v="15129" />
	</node>
	<node id="-635519" lat="65.644752776" lon="12.367424992">
		<tag k="name" v="Husholmen" />
		<tag k="natural" v="cape" />
		<tag k="ssr:stedsnr" v="15115" />
	</node>
	<node id="-635518" lat="65.6403583345" lon="12.5128805506">
		<tag k="name" v="Tasslivatnet" />
		<tag k="natural" v="water" />
		<tag k="ssr:stedsnr" v="15110" />
		<tag k="water" v="lake" />
	</node>
	<node id="-635517" lat="65.6401194433" lon="12.4439555559">
		<tag k="name" v="Langdalen" />
		<tag k="natural" v="valley" />
		<tag k="place" v="locality" />
		<tag k="ssr:stedsnr" v="15111" />
	</node>
	<node id="-635516" lat="65.6627333315" lon="12.3852111128">
		<tag k="name" v="Vevelstadsundet" />
		<tag k="natural" v="strait" />
		<tag k="ssr:stedsnr" v="15088" />
	</node>
	<node id="-635515" lat="65.6689361115" lon="12.3188055544">
		<tag k="alt_name" v="Havn" />
		<tag k="fixme" v="consider place=hamlet" />
		<tag k="name" v="Hamn" />
		<tag k="place" v="farm" />
		<tag k="ssr:stedsnr" v="15081" />
	</node>
	<node id="-635514" lat="65.6783083351" lon="12.4061777827">
		<tag k="alt_name" v="Ytterhågjen" />
		<tag k="name" v="Ytrehaugen" />
		<tag k="place" v="farm" />
		<tag k="ssr:stedsnr" v="15069" />
	</node>
	<node id="-635513" lat="65.6800777799" lon="12.4402499972">
		<tag k="name" v="Ramnfloget" />
		<tag k="natural" v="slope" />
		<tag k="place" v="locality" />
		<tag k="ssr:stedsnr" v="15058" />
	</node>
	<node id="-635512" lat="65.7002333374" lon="12.6043305667">
		<tag k="name" v="Klubbvika" />
		<tag k="natural" v="bay" />
		<tag k="ssr:stedsnr" v="15051" />
	</node>
	<node id="-635511" lat="65.6972499999" lon="12.7037777762">
		<tag k="fixme" v="consider natural=peak for the most distinct mountains in the district" />
		<tag k="name" v="Høgfjellet" />
		<tag k="natural" v="hill" />
		<tag k="place" v="locality" />
		<tag k="ssr:stedsnr" v="15041" />
	</node>
	<node id="-635510" lat="65.7051111156" lon="12.4451499922">
		<tag k="name" v="Lensmannsodden" />
		<tag k="natural" v="cape" />
		<tag k="ssr:stedsnr" v="15009" />
	</node>
	<node id="-635509" lat="65.5272638863" lon="12.869847215">
		<tag k="fixme" v="consider natural=peak for the most distinct mountains in the district" />
		<tag k="name" v="Austerdalsfjellet - Åarjelvaerie" />
		<tag k="name:no" v="Austerdalsfjellet" />
		<tag k="name:sma" v="Åarjelvaerie" />
		<tag k="natural" v="hill" />
		<tag k="place" v="locality" />
		<tag k="ssr:stedsnr" v="267591" />
	</node>
	<node id="-635508" lat="65.7288682052" lon="12.5952518429">
		<tag k="fixme" v="consider place=hamlet" />
		<tag k="name" v="Visthus" />
		<tag k="place" v="farm" />
		<tag k="ssr:stedsnr" v="989804" />
	</node>
	<node id="-635507" lat="65.6387202003" lon="12.3666947923">
		<tag k="fixme" v="consider place=hamlet" />
		<tag k="name" v="Midt-Høyholmen" />
		<tag k="place" v="farm" />
		<tag k="ssr:stedsnr" v="989800" />
	</node>
	<node id="-635506" lat="65.6222521924" lon="12.2988535028">
		<tag k="name" v="Fjordholmen" />
		<tag k="place" v="locality" />
		<tag k="ssr:stedsnr" v="989796" />
	</node>
	<node id="-635505" lat="65.7034282947" lon="12.4103886879">
		<tag k="fixme" v="consider place=hamlet" />
		<tag k="name" v="Våg" />
		<tag k="place" v="farm" />
		<tag k="ssr:stedsnr" v="989785" />
	</node>
	<node id="-635504" lat="65.632168261" lon="12.7445859651">
		<tag k="name" v="Volden" />
		<tag k="place" v="farm" />
		<tag k="ssr:stedsnr" v="1073608" />
	</node>
	<node id="-635503" lat="65.6671756176" lon="12.6371926198">
		<tag k="name" v="Nygård" />
		<tag k="place" v="farm" />
		<tag k="ssr:stedsnr" v="1073607" />
	</node>
	<node id="-635502" lat="65.6677916139" lon="12.6403922192">
		<tag k="name" v="Nyheim" />
		<tag k="place" v="farm" />
		<tag k="ssr:stedsnr" v="1073606" />
	</node>
	<node id="-635501" lat="65.6706388916" lon="12.4028527737">
		<tag k="name" v="Nordsanden" />
		<tag k="natural" v="beach" />
		<tag k="place" v="locality" />
		<tag k="ssr:stedsnr" v="897663" />
	</node>
	<node id="-635500" lat="65.6405722267" lon="12.3629888796">
		<tag k="name" v="Hågneset" />
		<tag k="natural" v="cape" />
		<tag k="ssr:stedsnr" v="896835" />
	</node>
	<node id="-635499" lat="65.646091668" lon="12.541383331">
		<tag k="name" v="Øverdyrvollvatnet" />
		<tag k="natural" v="water" />
		<tag k="ssr:stedsnr" v="896802" />
		<tag k="water" v="lake" />
	</node>
	<node id="-635498" lat="65.6511472238" lon="12.3924305562">
		<tag k="name" v="Bandskogrevo" />
		<tag k="natural" v="valley" />
		<tag k="place" v="locality" />
		<tag k="ssr:stedsnr" v="896796" />
	</node>
	<node id="-635497" lat="65.6683222234" lon="12.6328388861">
		<tag k="name" v="Mortenhågjen" />
		<tag k="natural" v="cape" />
		<tag k="ssr:stedsnr" v="896785" />
	</node>
	<node id="-635496" lat="65.6824083323" lon="12.3448055524">
		<tag k="fixme" v="consider natural=peak for the most distinct mountains in the district" />
		<tag k="name" v="Staurheia" />
		<tag k="natural" v="hill" />
		<tag k="place" v="locality" />
		<tag k="ssr:stedsnr" v="896706" />
	</node>
	<node id="-635495" lat="65.6903111098" lon="12.4424472237">
		<tag k="name" v="Raudalsbekken" />
		<tag k="ssr:stedsnr" v="896659" />
		<tag k="waterway" v="stream" />
	</node>
	<node id="-635494" lat="65.7022583331" lon="12.4658833438">
		<tag k="name" v="Grønbechsteinån" />
		<tag k="natural" v="stone" />
		<tag k="ssr:stedsnr" v="896648" />
	</node>
	<node id="-635493" lat="65.7001777783" lon="12.3998500109">
		<tag k="name" v="Sørhammaren" />
		<tag k="natural" v="hill" />
		<tag k="place" v="locality" />
		<tag k="ssr:stedsnr" v="896645" />
	</node>
	<node id="-635492" lat="65.6981166709" lon="12.4123888957">
		<tag k="name" v="Dalhågjen" />
		<tag k="natural" v="hill" />
		<tag k="place" v="locality" />
		<tag k="ssr:stedsnr" v="896641" />
	</node>
	<node id="-635491" lat="65.687377777" lon="12.3880916625">
		<tag k="name" v="Nonshågjen" />
		<tag k="natural" v="hill" />
		<tag k="place" v="locality" />
		<tag k="ssr:stedsnr" v="896634" />
	</node>
	<node id="-635490" lat="65.7028361081" lon="12.4110000064">
		<tag k="name" v="Hesthågjen" />
		<tag k="natural" v="hill" />
		<tag k="place" v="locality" />
		<tag k="ssr:stedsnr" v="896599" />
	</node>
	<node id="-635489" lat="65.7349027741" lon="12.5099888811">
		<tag k="name" v="Steinåsen" />
		<tag k="natural" v="ridge" />
		<tag k="place" v="locality" />
		<tag k="ssr:stedsnr" v="896445" />
	</node>
	<node id="-635488" lat="65.7659805592" lon="12.5815916737">
		<tag k="name" v="Ner-Bren" />
		<tag k="place" v="farm" />
		<tag k="ssr:stedsnr" v="896339" />
	</node>
	<node id="-635487" lat="65.7348916706" lon="12.5868972319">
		<tag k="name" v="Hevlan" />
		<tag k="natural" v="wetland" />
		<tag k="ssr:stedsnr" v="896521" />
	</node>
	<node id="-635486" lat="65.7385333346" lon="12.5809000045">
		<tag k="fixme" v="consider natural=peak for the most distinct mountains in the district" />
		<tag k="name" v="Kræken" />
		<tag k="natural" v="hill" />
		<tag k="place" v="locality" />
		<tag k="ssr:stedsnr" v="896514" />
	</node>
	<node id="-635485" lat="65.6677916639" lon="12.4088555652">
		<tag k="name" v="Kvithøvlan" />
		<tag k="natural" v="slope" />
		<tag k="place" v="locality" />
		<tag k="ssr:stedsnr" v="411669" />
	</node>
	<node id="-635484" lat="65.6757500036" lon="12.3319805556">
		<tag k="name" v="Krokrabben" />
		<tag k="natural" v="ridge" />
		<tag k="place" v="locality" />
		<tag k="ssr:stedsnr" v="411611" />
	</node>
	<node id="-635483" lat="65.6779083316" lon="12.3328861079">
		<tag k="name" v="Kvitrabben" />
		<tag k="natural" v="ridge" />
		<tag k="place" v="locality" />
		<tag k="ssr:stedsnr" v="411607" />
	</node>
	<node id="-635482" lat="65.5790333337" lon="12.395486108">
		<tag k="name" v="Småskjæran" />
		<tag k="place" v="locality" />
		<tag k="seamark:type" v="rock" />
		<tag k="ssr:stedsnr" v="410840" />
	</node>
	<node id="-635481" lat="65.6109805574" lon="12.3755527804">
		<tag k="name" v="Hanslisteinan" />
		<tag k="natural" v="stone" />
		<tag k="ssr:stedsnr" v="410811" />
	</node>
	<node id="-635480" lat="65.6341777748" lon="12.3600305551">
		<tag k="name" v="Fløystonghågjen" />
		<tag k="natural" v="hill" />
		<tag k="place" v="locality" />
		<tag k="ssr:stedsnr" v="410798" />
	</node>
	<node id="-635479" lat="65.6386805513" lon="12.3712611047">
		<tag k="name" v="Solheim 2" />
		<tag k="place" v="farm" />
		<tag k="ssr:stedsnr" v="410788" />
	</node>
	<node id="-635478" lat="65.6413361147" lon="12.6221138875">
		<tag k="name" v="Avslielva" />
		<tag k="ssr:stedsnr" v="410781" />
		<tag k="waterway" v="river" />
	</node>
	<node id="-635477" lat="65.6537444481" lon="12.6207416651">
		<tag k="name" v="Dalan" />
		<tag k="natural" v="valley" />
		<tag k="place" v="locality" />
		<tag k="ssr:stedsnr" v="410775" />
	</node>
	<node id="-635476" lat="65.6509777813" lon="12.6427944457">
		<tag k="name" v="Saltbuodden" />
		<tag k="natural" v="cape" />
		<tag k="ssr:stedsnr" v="410766" />
	</node>
	<node id="-635475" lat="65.6565500024" lon="12.3925722168">
		<tag k="name" v="Nord-Breiåa" />
		<tag k="ssr:stedsnr" v="410757" />
		<tag k="waterway" v="stream" />
	</node>
	<node id="-635474" lat="65.7181527791" lon="12.608527777">
		<tag k="name" v="Bjønnvikhågjen" />
		<tag k="natural" v="hill" />
		<tag k="place" v="locality" />
		<tag k="ssr:stedsnr" v="410582" />
	</node>
	<node id="-635473" lat="65.6889722214" lon="12.3634722117">
		<tag k="name" v="Festvikja" />
		<tag k="natural" v="bay" />
		<tag k="ssr:stedsnr" v="410557" />
	</node>
	<node id="-635472" lat="65.6885611137" lon="12.3543027778">
		<tag k="name" v="Elvneset" />
		<tag k="natural" v="cape" />
		<tag k="ssr:stedsnr" v="410553" />
	</node>
	<node id="-635471" lat="65.7341083378" lon="12.5823166667">
		<tag k="name" v="Syvikhågen" />
		<tag k="natural" v="hill" />
		<tag k="place" v="locality" />
		<tag k="ssr:stedsnr" v="410501" />
	</node>
	<node id="-635470" lat="65.7526694489" lon="12.5459499907">
		<tag k="fixme" v="consider natural=peak for the most distinct mountains in the district" />
		<tag k="name" v="Kalvhågjen" />
		<tag k="natural" v="hill" />
		<tag k="place" v="locality" />
		<tag k="ssr:stedsnr" v="410452" />
	</node>
	<node id="-635469" lat="65.748002782" lon="12.5825611041">
		<tag k="name" v="Stormobakkan" />
		<tag k="natural" v="slope" />
		<tag k="place" v="locality" />
		<tag k="ssr:stedsnr" v="410412" />
	</node>
	<node id="-635468" lat="65.7623083354" lon="12.565905555">
		<tag k="name" v="Lyngvikja" />
		<tag k="natural" v="bay" />
		<tag k="ssr:stedsnr" v="410346" />
	</node>
	<node id="-635467" lat="65.7674750036" lon="12.5868388981">
		<tag k="name" v="Flæshågjen" />
		<tag k="natural" v="ridge" />
		<tag k="place" v="locality" />
		<tag k="ssr:stedsnr" v="410340" />
	</node>
	<node id="-635466" lat="65.7699305555" lon="12.5847916604">
		<tag k="name" v="Målarodden" />
		<tag k="natural" v="cape" />
		<tag k="ssr:stedsnr" v="410336" />
	</node>
	<node id="-635464" lat="65.6090027764" lon="12.3674138883">
		<tag k="name" v="Fornesbekken" />
		<tag k="ssr:stedsnr" v="379928" />
		<tag k="waterway" v="stream" />
	</node>
	<node id="-635463" lat="65.623080559" lon="12.6345083413">
		<tag k="name" v="Storvatnet" />
		<tag k="natural" v="water" />
		<tag k="ssr:stedsnr" v="379924" />
		<tag k="water" v="lake" />
	</node>
	<node id="-635462" lat="65.6126499991" lon="12.2998111114">
		<tag k="name" v="Bjørnholmen" />
		<tag k="place" v="islet" />
		<tag k="ssr:stedsnr" v="379922" />
	</node>
	<node id="-635461" lat="65.6258944409" lon="12.4703083251">
		<tag k="fixme" v="consider natural=peak for the most distinct mountains in the district" />
		<tag k="name" v="Svanvasstinden" />
		<tag k="natural" v="hill" />
		<tag k="place" v="locality" />
		<tag k="ssr:stedsnr" v="379917" />
	</node>
	<node id="-635460" lat="65.6052605249" lon="12.3680184544">
		<tag k="fixme" v="consider place=hamlet" />
		<tag k="name" v="Lauknes" />
		<tag k="place" v="farm" />
		<tag k="ssr:stedsnr" v="379896" />
	</node>
	<node id="-635459" lat="65.5885277785" lon="12.3719027708">
		<tag k="alt_name" v="Rossmålsvika" />
		<tag k="name" v="Rossmålsvikja" />
		<tag k="natural" v="bay" />
		<tag k="ssr:stedsnr" v="379876" />
	</node>
	<node id="-635458" lat="65.6575666665" lon="12.7405805594">
		<tag k="name" v="Ropardalen" />
		<tag k="natural" v="valley" />
		<tag k="place" v="locality" />
		<tag k="ssr:stedsnr" v="379847" />
	</node>
	<node id="-635457" lat="65.6374664243" lon="12.792294117">
		<tag k="fixme" v="consider place=hamlet" />
		<tag k="name" v="Austerfjorden" />
		<tag k="place" v="farm" />
		<tag k="ssr:stedsnr" v="379829" />
	</node>
	<node id="-635456" lat="65.6260611075" lon="12.7467000103">
		<tag k="name" v="Straumsneset" />
		<tag k="place" v="isolated_dwelling" />
		<tag k="ssr:stedsnr" v="379820" />
	</node>
	<node id="-635455" lat="65.6529805516" lon="12.3530388962">
		<tag k="name" v="Kallarneset" />
		<tag k="natural" v="cape" />
		<tag k="ssr:stedsnr" v="379788" />
	</node>
	<node id="-635454" lat="65.6448305531" lon="12.6465583286">
		<tag k="alt_name" v="Urdvika" />
		<tag k="name" v="Urdvikja" />
		<tag k="natural" v="bay" />
		<tag k="ssr:stedsnr" v="379786" />
	</node>
	<node id="-635453" lat="65.629816669" lon="12.7542833396">
		<tag k="name" v="Aspvika" />
		<tag k="natural" v="bay" />
		<tag k="ssr:stedsnr" v="379775" />
	</node>
	<node id="-635452" lat="65.5706055582" lon="13.0361416687">
		<tag k="fixme" v="consider natural=peak for the most distinct mountains in the district" />
		<tag k="name" v="Vistmannen - Væstangobpe" />
		<tag k="name:no" v="Vistmannen" />
		<tag k="name:sma" v="Væstangobpe" />
		<tag k="natural" v="hill" />
		<tag k="place" v="locality" />
		<tag k="ssr:stedsnr" v="379665" />
	</node>
	<node id="-635451" lat="65.7159777735" lon="12.6723111053">
		<tag k="fixme" v="consider natural=peak for the most distinct mountains in the district" />
		<tag k="name" v="Beritlifjellet" />
		<tag k="natural" v="hill" />
		<tag k="place" v="locality" />
		<tag k="ssr:stedsnr" v="379249" />
	</node>
	<node id="-635450" lat="65.715283332" lon="12.5583388878">
		<tag k="name" v="Åmivatnet" />
		<tag k="natural" v="water" />
		<tag k="ssr:stedsnr" v="379245" />
	</node>
	<node id="-635449" lat="65.7137861111" lon="12.4233111018">
		<tag k="name" v="Nordvatnet" />
		<tag k="natural" v="water" />
		<tag k="ssr:stedsnr" v="379239" />
	</node>
	<node id="-635448" lat="65.7255750014" lon="12.5598250029">
		<tag k="name" v="Riskamodden" />
		<tag k="natural" v="cape" />
		<tag k="ssr:stedsnr" v="379233" />
	</node>
	<node id="-635447" lat="65.7218805586" lon="12.4882583349">
		<tag k="name" v="Lyngmo" />
		<tag k="place" v="farm" />
		<tag k="ssr:stedsnr" v="379228" />
	</node>
	<node id="-635446" lat="65.7347083346" lon="12.4946388963">
		<tag k="name" v="Hundslorten" />
		<tag k="natural" v="cape" />
		<tag k="ssr:stedsnr" v="379215" />
	</node>
	<node id="-635445" lat="65.7371611128" lon="12.5912055581">
		<tag k="name" v="Visthuselva" />
		<tag k="ssr:stedsnr" v="379209" />
		<tag k="waterway" v="stream" />
	</node>
	<node id="-635444" lat="65.6432111085" lon="12.63797222">
		<tag k="alt_name" v="Grovene" />
		<tag k="name" v="Groven" />
		<tag k="natural" v="valley" />
		<tag k="place" v="locality" />
		<tag k="ssr:stedsnr" v="379131" />
	</node>
	<node id="-635443" lat="65.63106468" lon="12.5587976144">
		<tag k="name" v="Stormarka" />
		<tag k="place" v="locality" />
		<tag k="ssr:stedsnr" v="379126" />
	</node>
	<node id="-635442" lat="65.6520444491" lon="12.6130666599">
		<tag k="alt_name" v="Hestvika" />
		<tag k="name" v="Hestvikja" />
		<tag k="natural" v="bay" />
		<tag k="ssr:stedsnr" v="379114" />
	</node>
	<node id="-635441" lat="65.6399638934" lon="12.3721111069">
		<tag k="name" v="Høyholm" />
		<tag k="place" v="hamlet" />
		<tag k="ssr:stedsnr" v="379108" />
	</node>
	<node id="-635440" lat="65.6505250002" lon="12.6520638909">
		<tag k="name" v="Nova" />
		<tag k="natural" v="cape" />
		<tag k="ssr:stedsnr" v="379103" />
	</node>
	<node id="-635439" lat="65.6631098512" lon="12.5386260897">
		<tag k="name" v="Kilmarka" />
		<tag k="place" v="locality" />
		<tag k="ssr:stedsnr" v="379091" />
	</node>
	<node id="-635438" lat="65.669216666" lon="12.3775027685">
		<tag k="fixme" v="multiple name tags, choose one and add the other to alt_name; consider seamark:type=rock or natural=shoal" />
		<tag k="name" v="Heimreskjæran;Heimskjæran" />
		<tag k="place" v="islet" />
		<tag k="ssr:stedsnr" v="379087" />
	</node>
	<node id="-635437" lat="65.6638138855" lon="12.2993027719">
		<tag k="alt_name" v="Lislesøya" />
		<tag k="name" v="Liss-Æsøya" />
		<tag k="place" v="islet" />
		<tag k="ssr:stedsnr" v="379082" />
	</node>
	<node id="-635436" lat="65.6808944452" lon="12.6726750048">
		<tag k="name" v="Tverrlandselva" />
		<tag k="ssr:stedsnr" v="379081" />
		<tag k="waterway" v="stream" />
	</node>
	<node id="-635435" lat="65.6829166643" lon="12.6455388961">
		<tag k="name" v="Kjølneset" />
		<tag k="natural" v="cape" />
		<tag k="ssr:stedsnr" v="379079" />
	</node>
	<node id="-635434" lat="65.6928055514" lon="12.6630277715">
		<tag k="name" v="Skardbakken" />
		<tag k="place" v="farm" />
		<tag k="ssr:stedsnr" v="379062" />
	</node>
	<node id="-635433" lat="65.6759999968" lon="12.3032194385">
		<tag k="name" v="Vomma" />
		<tag k="place" v="islet" />
		<tag k="ssr:stedsnr" v="379060" />
	</node>
	<node id="-635432" lat="65.6737444485" lon="12.3236333368">
		<tag k="alt_name" v="Svarthaugen" />
		<tag k="name" v="Svarthågjen" />
		<tag k="natural" v="hill" />
		<tag k="place" v="locality" />
		<tag k="ssr:stedsnr" v="379058" />
	</node>
	<node id="-635431" lat="65.6700972267" lon="12.5387111112">
		<tag k="alt_name" v="Lislfjellet" />
		<tag k="fixme" v="consider natural=peak for the most distinct mountains in the district" />
		<tag k="name" v="Lissfjellet" />
		<tag k="natural" v="hill" />
		<tag k="place" v="locality" />
		<tag k="ssr:stedsnr" v="379050" />
	</node>
	<node id="-635430" lat="65.6985861093" lon="12.6037277853">
		<tag k="name" v="Naustvika" />
		<tag k="natural" v="bay" />
		<tag k="ssr:stedsnr" v="379042" />
	</node>
	<node id="-635429" lat="65.6832666668" lon="12.3888416749">
		<tag k="name" v="Makjenvika" />
		<tag k="place" v="locality" />
		<tag k="ssr:stedsnr" v="379033" />
	</node>
	<node id="-635428" lat="65.6932722214" lon="12.3726166572">
		<tag k="name" v="Gråholmen" />
		<tag k="place" v="islet" />
		<tag k="ssr:stedsnr" v="379028" />
	</node>
	<node id="-635427" lat="65.6950861076" lon="12.4278722238">
		<tag k="name" v="Slåttvika" />
		<tag k="place" v="farm" />
		<tag k="ssr:stedsnr" v="379017" />
	</node>
	<node id="-635426" lat="65.7010044562" lon="12.4462432431">
		<tag k="fixme" v="consider place=hamlet" />
		<tag k="name" v="Vevelstad" />
		<tag k="place" v="farm" />
		<tag k="ssr:stedsnr" v="379003" />
	</node>
	<node id="-635425" lat="65.6734472232" lon="12.2958916668">
		<tag k="fixme" v="consider seamark:type=rock or natural=shoal" />
		<tag k="name" v="Storvomskjæret" />
		<tag k="place" v="islet" />
		<tag k="ssr:stedsnr" v="354941" />
	</node>
	<node id="-635424" lat="65.5805805517" lon="12.3812194487">
		<tag k="name" v="Høyvikja" />
		<tag k="natural" v="bay" />
		<tag k="ssr:stedsnr" v="350810" />
	</node>
	<node id="-635423" lat="65.5969333326" lon="12.3767027842">
		<tag k="name" v="Forskogen" />
		<tag k="natural" v="slope" />
		<tag k="place" v="locality" />
		<tag k="ssr:stedsnr" v="350805" />
	</node>
	<node id="-635422" lat="65.6478305549" lon="12.3797277789">
		<tag k="name" v="Nordgården" />
		<tag k="place" v="farm" />
		<tag k="ssr:stedsnr" v="350774" />
	</node>
	<node id="-635421" lat="65.6416694472" lon="12.5434555656">
		<tag k="name" v="Nerdyvollvatnet" />
		<tag k="natural" v="water" />
		<tag k="ssr:stedsnr" v="350767" />
		<tag k="water" v="lake" />
	</node>
	<node id="-635420" lat="65.6440472189" lon="12.6341944476">
		<tag k="name" v="Brennskardet" />
		<tag k="natural" v="valley" />
		<tag k="place" v="locality" />
		<tag k="ssr:stedsnr" v="350762" />
	</node>
	<node id="-635419" lat="65.6709666703" lon="12.425588898">
		<tag k="name" v="Smalheia" />
		<tag k="natural" v="ridge" />
		<tag k="place" v="locality" />
		<tag k="ssr:stedsnr" v="350733" />
	</node>
	<node id="-635418" lat="65.6602583357" lon="12.3921166763">
		<tag k="name" v="Høyholmsmarka" />
		<tag k="place" v="locality" />
		<tag k="ssr:stedsnr" v="350708" />
	</node>
	<node id="-635417" lat="65.6723138846" lon="12.4257444389">
		<tag k="name" v="Svartflogheia" />
		<tag k="natural" v="hill" />
		<tag k="place" v="locality" />
		<tag k="ssr:stedsnr" v="350698" />
	</node>
	<node id="-635416" lat="65.6849611082" lon="12.3446111202">
		<tag k="name" v="Svalmyra" />
		<tag k="natural" v="wetland" />
		<tag k="ssr:stedsnr" v="350596" />
	</node>
	<node id="-635415" lat="65.6774388895" lon="12.333969445">
		<tag k="name" v="Trollrabben" />
		<tag k="natural" v="ridge" />
		<tag k="place" v="locality" />
		<tag k="ssr:stedsnr" v="350594" />
	</node>
	<node id="-635414" lat="65.6891666632" lon="12.4208083391">
		<tag k="name" v="Svalvikja" />
		<tag k="natural" v="bay" />
		<tag k="ssr:stedsnr" v="349684" />
	</node>
	<node id="-635413" lat="65.7298083365" lon="12.5965027841">
		<tag k="name" v="Nordgården" />
		<tag k="place" v="farm" />
		<tag k="ssr:stedsnr" v="349618" />
	</node>
	<node id="-635412" lat="65.722549996" lon="12.4867749903">
		<tag k="name" v="Dalmyrån" />
		<tag k="natural" v="wetland" />
		<tag k="ssr:stedsnr" v="349593" />
	</node>
	<node id="-635411" lat="65.7241499977" lon="12.5102638963">
		<tag k="name" v="Kvannlia" />
		<tag k="natural" v="slope" />
		<tag k="place" v="locality" />
		<tag k="ssr:stedsnr" v="349585" />
	</node>
	<node id="-635410" lat="65.7122888882" lon="12.4225749971">
		<tag k="fixme" v="consider natural=peak for the most distinct mountains in the district" />
		<tag k="name" v="Nordvikhågjen" />
		<tag k="natural" v="hill" />
		<tag k="place" v="locality" />
		<tag k="ssr:stedsnr" v="349527" />
	</node>
	<node id="-635409" lat="65.758783334" lon="12.5656250047">
		<tag k="name" v="Leveråsen" />
		<tag k="natural" v="ridge" />
		<tag k="place" v="locality" />
		<tag k="ssr:stedsnr" v="349480" />
	</node>
	<node id="-635408" lat="65.7478000028" lon="12.577069452">
		<tag k="fixme" v="consider natural=peak for the most distinct mountains in the district" />
		<tag k="name" v="Slotteråsen" />
		<tag k="natural" v="hill" />
		<tag k="place" v="locality" />
		<tag k="ssr:stedsnr" v="349453" />
	</node>
	<node id="-635407" lat="65.7468555592" lon="12.5618500107">
		<tag k="fixme" v="consider natural=peak for the most distinct mountains in the district" />
		<tag k="name" v="Heståsen" />
		<tag k="natural" v="hill" />
		<tag k="place" v="locality" />
		<tag k="ssr:stedsnr" v="349452" />
	</node>
	<node id="-635406" lat="65.7637305559" lon="12.5732472264">
		<tag k="name" v="Svartholet" />
		<tag k="natural" v="valley" />
		<tag k="place" v="locality" />
		<tag k="ssr:stedsnr" v="349390" />
	</node>
	<node id="-635405" lat="65.5926333346" lon="12.3950388785">
		<tag k="fixme" v="consider natural=peak for the most distinct mountains in the district" />
		<tag k="name" v="Høyvikfjellet" />
		<tag k="natural" v="hill" />
		<tag k="place" v="locality" />
		<tag k="ssr:stedsnr" v="319926" />
	</node>
	<node id="-635404" lat="65.6084638913" lon="12.4376944356">
		<tag k="name" v="Småvatnan" />
		<tag k="natural" v="water" />
		<tag k="ssr:stedsnr" v="319917" />
		<tag k="water" v="lake" />
	</node>
	<node id="-635403" lat="65.5591749961" lon="12.766780546">
		<tag k="name" v="Kveldholbekken" />
		<tag k="ssr:stedsnr" v="319675" />
		<tag k="waterway" v="stream" />
	</node>
	<node id="-635402" lat="65.5660388858" lon="12.7465111115">
		<tag k="fixme" v="consider place=hamlet" />
		<tag k="name" v="Laksmarka" />
		<tag k="place" v="farm" />
		<tag k="ssr:stedsnr" v="319665" />
	</node>
	<node id="-635401" lat="65.5751500005" lon="12.739577782">
		<tag k="name" v="Raudmolia" />
		<tag k="natural" v="slope" />
		<tag k="place" v="locality" />
		<tag k="ssr:stedsnr" v="319664" />
	</node>
	<node id="-635400" lat="65.529413885" lon="12.7993333342">
		<tag k="fixme" v="consider natural=peak for the most distinct mountains in the district" />
		<tag k="name" v="Jillienjuenie" />
		<tag k="name:sma" v="Jillienjuenie" />
		<tag k="natural" v="hill" />
		<tag k="place" v="locality" />
		<tag k="ssr:stedsnr" v="319621" />
	</node>
	<node id="-635399" lat="65.7293194442" lon="12.641199997">
		<tag k="fixme" v="consider natural=peak for the most distinct mountains in the district" />
		<tag k="name" v="Storfjellet" />
		<tag k="natural" v="hill" />
		<tag k="place" v="locality" />
		<tag k="ssr:stedsnr" v="319234" />
	</node>
	<node id="-635398" lat="65.7104749974" lon="12.3431305622">
		<tag k="bay" v="fjord" />
		<tag k="name" v="Mindværfjorden" />
		<tag k="natural" v="bay" />
		<tag k="ssr:stedsnr" v="319231" />
	</node>
	<node id="-635397" lat="65.7204333325" lon="12.6412555529">
		<tag k="name" v="Efievegen" />
		<tag k="natural" v="valley" />
		<tag k="place" v="locality" />
		<tag k="ssr:stedsnr" v="319232" />
	</node>
	<node id="-635396" lat="65.6569583309" lon="12.3212305569">
		<tag k="fixme" v="consider natural=peak for the most distinct mountains in the district" />
		<tag k="name" v="Bulifjellet" />
		<tag k="natural" v="hill" />
		<tag k="place" v="locality" />
		<tag k="ssr:stedsnr" v="319097" />
	</node>
	<node id="-635395" lat="65.6898777761" lon="12.5752500007">
		<tag k="fixme" v="consider natural=peak for the most distinct mountains in the district" />
		<tag k="name" v="Nonsfjellet" />
		<tag k="natural" v="hill" />
		<tag k="place" v="locality" />
		<tag k="ssr:stedsnr" v="319060" />
	</node>
	<node id="-635394" lat="65.6879111131" lon="12.5889694413">
		<tag k="name" v="Sveinvika" />
		<tag k="natural" v="bay" />
		<tag k="ssr:stedsnr" v="319058" />
	</node>
	<node id="-635393" lat="65.7671083377" lon="12.6061527747">
		<tag k="name" v="Fleselva" />
		<tag k="ssr:stedsnr" v="319038" />
		<tag k="waterway" v="stream" />
	</node>
	<node id="-635392" lat="65.6859194481" lon="12.3992027798">
		<tag k="fixme" v="consider seamark:type=rock or natural=shoal" />
		<tag k="name" v="Ervikskjæret" />
		<tag k="place" v="islet" />
		<tag k="ssr:stedsnr" v="319033" />
	</node>
	<node id="-635391" lat="65.621038889" lon="12.3521972167">
		<tag k="fixme" v="consider seamark:type=rock or natural=shoal" />
		<tag k="name" v="Sørenskjæret" />
		<tag k="place" v="islet" />
		<tag k="ssr:stedsnr" v="318932" />
	</node>
	<node id="-635390" lat="65.6564083298" lon="12.8185444526">
		<tag k="alt_name" v="Austerfjorddalen, nordre" />
		<tag k="name" v="Nordre Austerfjorddalen" />
		<tag k="natural" v="valley" />
		<tag k="place" v="locality" />
		<tag k="ssr:stedsnr" v="318877" />
	</node>
	<node id="-635389" lat="65.6445861071" lon="12.9827694507">
		<tag k="fixme" v="consider natural=peak for the most distinct mountains in the district" />
		<tag k="loc_name:sma" v="Seatervaerie" />
		<tag k="name" v="Vistfjellan - Seaterevaerie" />
		<tag k="name:no" v="Vistfjellan" />
		<tag k="name:sma" v="Seaterevaerie" />
		<tag k="natural" v="hill" />
		<tag k="place" v="locality" />
		<tag k="ssr:stedsnr" v="318849" />
	</node>
	<node id="-635388" lat="65.6170500006" lon="12.7948055498">
		<tag k="fixme" v="consider natural=peak for the most distinct mountains in the district" />
		<tag k="name" v="Remfjellet" />
		<tag k="natural" v="hill" />
		<tag k="place" v="locality" />
		<tag k="ssr:stedsnr" v="318847" />
	</node>
	<node id="-635387" lat="65.6136555514" lon="12.8864111186">
		<tag k="name" v="Fallforsen" />
		<tag k="natural" v="waterfall" />
		<tag k="ssr:stedsnr" v="318841" />
	</node>
	<node id="-635386" lat="65.6143194488" lon="12.91205278">
		<tag k="name" v="Svartvasskogen" />
		<tag k="place" v="locality" />
		<tag k="ssr:stedsnr" v="318842" />
	</node>
	<node id="-635385" lat="65.6200166632" lon="12.9807611089">
		<tag k="name" v="Sæterskardet - Seateredurrie" />
		<tag k="name:no" v="Sæterskardet" />
		<tag k="name:sma" v="Seateredurrie" />
		<tag k="natural" v="valley" />
		<tag k="place" v="locality" />
		<tag k="ssr:stedsnr" v="318838" />
	</node>
	<node id="-635384" lat="65.7189111152" lon="12.4253527887">
		<tag k="fixme" v="multiple name tags, choose one and add the other to alt_name" />
		<tag k="name" v="Jonsvika;Nord-Jonsvikja" />
		<tag k="natural" v="bay" />
		<tag k="ssr:stedsnr" v="318219" />
	</node>
	<node id="-635383" lat="65.7359138916" lon="12.6722861046">
		<tag k="name" v="Kvannlia" />
		<tag k="place" v="locality" />
		<tag k="ssr:stedsnr" v="318214" />
	</node>
	<node id="-635382" lat="65.7337000007" lon="12.4935000088">
		<tag k="name" v="Vistnesvika" />
		<tag k="natural" v="bay" />
		<tag k="ssr:stedsnr" v="318201" />
	</node>
	<node id="-635381" lat="65.7402583364" lon="12.5842416715">
		<tag k="fixme" v="consider natural=peak for the most distinct mountains in the district" />
		<tag k="name" v="Svartåsen" />
		<tag k="natural" v="hill" />
		<tag k="place" v="locality" />
		<tag k="ssr:stedsnr" v="318189" />
	</node>
	<node id="-635380" lat="65.7425694433" lon="12.5719916688">
		<tag k="fixme" v="consider natural=peak for the most distinct mountains in the district" />
		<tag k="name" v="Høgåsen" />
		<tag k="natural" v="hill" />
		<tag k="place" v="locality" />
		<tag k="ssr:stedsnr" v="318188" />
	</node>
	<node id="-635379" lat="65.7391305568" lon="12.5158750055">
		<tag k="fixme" v="multiple name tags, choose one and add the other to alt_name" />
		<tag k="name" v="Nordfjæro;Nordvika" />
		<tag k="natural" v="bay" />
		<tag k="ssr:stedsnr" v="318185" />
	</node>
	<node id="-635378" lat="65.7382833352" lon="12.5105638866">
		<tag k="fixme" v="multiple name tags, choose one and add the other to alt_name" />
		<tag k="name" v="Sørfjæro;Sørvika" />
		<tag k="natural" v="bay" />
		<tag k="ssr:stedsnr" v="318184" />
	</node>
	<node id="-635377" lat="65.7397527739" lon="12.5145000071">
		<tag k="fixme" v="consider seamark:type=rock or natural=shoal" />
		<tag k="name" v="Oddskjæret" />
		<tag k="place" v="islet" />
		<tag k="ssr:stedsnr" v="318183" />
	</node>
	<node id="-635376" lat="65.6348027811" lon="12.5831138923">
		<tag k="name" v="Bjorvatnet" />
		<tag k="natural" v="water" />
		<tag k="ssr:stedsnr" v="318106" />
		<tag k="water" v="lake" />
	</node>
	<node id="-635375" lat="65.6517611104" lon="12.5969138906">
		<tag k="fixme" v="multiple name tags, choose one and add the other to alt_name" />
		<tag k="name" v="Vassengvatnet;Øver-Vassengvatnet" />
		<tag k="natural" v="water" />
		<tag k="ssr:stedsnr" v="318103" />
		<tag k="water" v="lake" />
	</node>
	<node id="-635374" lat="65.6567083353" lon="12.6483666593">
		<tag k="name" v="Risvika" />
		<tag k="natural" v="bay" />
		<tag k="ssr:stedsnr" v="318099" />
	</node>
	<node id="-635373" lat="65.6445638904" lon="12.3790833442">
		<tag k="name" v="Mølnhusbekken" />
		<tag k="ssr:stedsnr" v="318098" />
		<tag k="waterway" v="stream" />
	</node>
	<node id="-635372" lat="65.646621217" lon="12.2922009882">
		<tag k="name" v="Esøytaren" />
		<tag k="natural" v="shoal" />
		<tag k="place" v="locality" />
		<tag k="ssr:stedsnr" v="318083" />
	</node>
	<node id="-635371" lat="65.6646444474" lon="12.6283805518">
		<tag k="alt_name" v="Jektvika" />
		<tag k="name" v="Jektvikja" />
		<tag k="natural" v="bay" />
		<tag k="ssr:stedsnr" v="318080" />
	</node>
	<node id="-635370" lat="65.7029000027" lon="12.5912222236">
		<tag k="name" v="Kilvågen" />
		<tag k="natural" v="bay" />
		<tag k="ssr:stedsnr" v="318047" />
	</node>
	<node id="-635369" lat="65.6954027749" lon="12.3879444368">
		<tag k="alt_name" v="Kjerringvika" />
		<tag k="name" v="Kjerringvikja" />
		<tag k="natural" v="bay" />
		<tag k="ssr:stedsnr" v="318034" />
	</node>
	<node id="-635368" lat="65.6894166662" lon="12.4522027669">
		<tag k="name" v="Rauddalen" />
		<tag k="natural" v="valley" />
		<tag k="place" v="locality" />
		<tag k="ssr:stedsnr" v="318028" />
	</node>
	<node id="-635367" lat="65.7012222256" lon="12.3665500072">
		<tag k="name" v="Rundøya" />
		<tag k="place" v="islet" />
		<tag k="ssr:stedsnr" v="318012" />
	</node>
	<node id="-635366" lat="65.7076111091" lon="12.4239222231">
		<tag k="fixme" v="multiple name tags, choose one and add the other to alt_name; consider natural=peak for the most distinct mountains in the district" />
		<tag k="name" v="Langberget;Langberghågjen" />
		<tag k="natural" v="hill" />
		<tag k="place" v="locality" />
		<tag k="ssr:stedsnr" v="318008" />
	</node>
	<node id="-635365" lat="65.7011305595" lon="12.3973194506">
		<tag k="name" v="Vågsvågen" />
		<tag k="natural" v="bay" />
		<tag k="ssr:stedsnr" v="318006" />
	</node>
	<node id="-635364" lat="65.7070138878" lon="12.5861666743">
		<tag k="name" v="Aspvika" />
		<tag k="natural" v="bay" />
		<tag k="ssr:stedsnr" v="318003" />
	</node>
	<node id="-635363" lat="65.7044388889" lon="12.5576555519">
		<tag k="fixme" v="consider natural=peak for the most distinct mountains in the district" />
		<tag k="name" v="Kilfjellet" />
		<tag k="natural" v="hill" />
		<tag k="place" v="locality" />
		<tag k="ssr:stedsnr" v="318002" />
	</node>
	<node id="-635362" lat="65.7053416623" lon="12.6879250084">
		<tag k="name" v="Almosskardet" />
		<tag k="natural" v="valley" />
		<tag k="place" v="locality" />
		<tag k="ssr:stedsnr" v="318001" />
	</node>
	<node id="-635361" lat="65.6646277813" lon="12.6086416723">
		<tag k="name" v="Gårdsholmen" />
		<tag k="place" v="island" />
		<tag k="ssr:stedsnr" v="289823" />
	</node>
	<node id="-635360" lat="65.656186111" lon="12.3904000064">
		<tag k="name" v="Sør-Breiåa" />
		<tag k="ssr:stedsnr" v="289818" />
		<tag k="waterway" v="stream" />
	</node>
	<node id="-635359" lat="65.6616361154" lon="12.3204888991">
		<tag k="name" v="Middagslia" />
		<tag k="natural" v="slope" />
		<tag k="place" v="locality" />
		<tag k="ssr:stedsnr" v="289804" />
	</node>
	<node id="-635358" lat="65.656852776" lon="12.3155694525">
		<tag k="name" v="Bonsteinklaven" />
		<tag k="natural" v="valley" />
		<tag k="place" v="locality" />
		<tag k="ssr:stedsnr" v="289794" />
	</node>
	<node id="-635357" lat="65.6475499972" lon="12.3728388946">
		<tag k="man_made" v="breakwater" />
		<tag k="name" v="Moloen" />
		<tag k="place" v="locality" />
		<tag k="ssr:stedsnr" v="289784" />
	</node>
	<node id="-635356" lat="65.6780083361" lon="12.4259805652">
		<tag k="name" v="Durmålsbekken" />
		<tag k="ssr:stedsnr" v="289773" />
		<tag k="waterway" v="stream" />
	</node>
	<node id="-635355" lat="65.6719444417" lon="12.3315472159">
		<tag k="name" v="Storgrottsteinan" />
		<tag k="natural" v="stone" />
		<tag k="ssr:stedsnr" v="289746" />
	</node>
	<node id="-635354" lat="65.6900277741" lon="12.4347083348">
		<tag k="name" v="Alettekroken" />
		<tag k="natural" v="water" />
		<tag k="ssr:stedsnr" v="289693" />
		<tag k="water" v="lake" />
	</node>
	<node id="-635353" lat="65.7066249988" lon="12.4602916601">
		<tag k="name" v="Grønbechelva" />
		<tag k="ssr:stedsnr" v="289670" />
		<tag k="waterway" v="stream" />
	</node>
	<node id="-635352" lat="65.7057361072" lon="12.4617333242">
		<tag k="name" v="Nybrotet" />
		<tag k="place" v="locality" />
		<tag k="ssr:stedsnr" v="289668" />
	</node>
	<node id="-635351" lat="65.7042083333" lon="12.4557666765">
		<tag k="name" v="Hestgjerdet" />
		<tag k="natural" v="ridge" />
		<tag k="place" v="locality" />
		<tag k="ssr:stedsnr" v="289662" />
	</node>
	<node id="-635350" lat="65.7046333324" lon="12.4269055532">
		<tag k="fixme" v="consider seamark:type=rock or natural=shoal" />
		<tag k="name" v="Storlendingsskjæran" />
		<tag k="place" v="islet" />
		<tag k="ssr:stedsnr" v="289648" />
	</node>
	<node id="-635349" lat="65.7046333324" lon="12.4269055532">
		<tag k="name" v="Storlendingsvikja" />
		<tag k="natural" v="bay" />
		<tag k="ssr:stedsnr" v="289643" />
	</node>
	<node id="-635348" lat="65.7292611125" lon="12.6003527781">
		<tag k="name" v="Holtan" />
		<tag k="place" v="locality" />
		<tag k="ssr:stedsnr" v="289614" />
	</node>
	<node id="-635347" lat="65.6932333341" lon="12.3766083286">
		<tag k="name" v="Innerholmen" />
		<tag k="natural" v="cape" />
		<tag k="ssr:stedsnr" v="289594" />
	</node>
	<node id="-635346" lat="65.7263861093" lon="12.5053194543">
		<tag k="name" v="Kirstenskogen" />
		<tag k="natural" v="slope" />
		<tag k="place" v="locality" />
		<tag k="ssr:stedsnr" v="289573" />
	</node>
	<node id="-635345" lat="65.7471027734" lon="12.5925722256">
		<tag k="name" v="Brennheia" />
		<tag k="natural" v="ridge" />
		<tag k="place" v="locality" />
		<tag k="ssr:stedsnr" v="289519" />
	</node>
	<node id="-635344" lat="65.7439555573" lon="12.5546194522">
		<tag k="name" v="Homannsvikja" />
		<tag k="natural" v="bay" />
		<tag k="ssr:stedsnr" v="289514" />
	</node>
	<node id="-635343" lat="65.7313055567" lon="12.4894249952">
		<tag k="name" v="Nordstranda" />
		<tag k="natural" v="beach" />
		<tag k="place" v="locality" />
		<tag k="ssr:stedsnr" v="289431" />
	</node>
	<node id="-635342" lat="65.7579138883" lon="12.5574861098">
		<tag k="name" v="Fredheim" />
		<tag k="place" v="farm" />
		<tag k="ssr:stedsnr" v="289423" />
	</node>
	<node id="-635341" lat="65.7623333295" lon="12.5694833334">
		<tag k="fixme" v="consider natural=peak for the most distinct mountains in the district" />
		<tag k="name" v="Storhågjen" />
		<tag k="natural" v="hill" />
		<tag k="place" v="locality" />
		<tag k="ssr:stedsnr" v="289331" />
	</node>
	<node id="-635340" lat="65.7656111154" lon="12.5833472245">
		<tag k="name" v="Øver-Bren" />
		<tag k="place" v="farm" />
		<tag k="ssr:stedsnr" v="289329" />
	</node>
	<node id="-635339" lat="65.7305305533" lon="12.5113527689">
		<tag k="name" v="Djupdalen" />
		<tag k="natural" v="valley" />
		<tag k="place" v="locality" />
		<tag k="ssr:stedsnr" v="15231" />
	</node>
	<node id="-635338" lat="65.7306055546" lon="12.6707250022">
		<tag k="name" v="Kvannlivatnet" />
		<tag k="natural" v="water" />
		<tag k="ssr:stedsnr" v="15228" />
		<tag k="water" v="lake" />
	</node>
	<node id="-635337" lat="65.7261666702" lon="12.5318555492">
		<tag k="fixme" v="consider natural=peak for the most distinct mountains in the district" />
		<tag k="name" v="Bufjellet" />
		<tag k="natural" v="hill" />
		<tag k="place" v="locality" />
		<tag k="ssr:stedsnr" v="15229" />
	</node>
	<node id="-635336" lat="65.7217972242" lon="12.4660666562">
		<tag k="alt_name" v="Snertholmen" />
		<tag k="name" v="Snertholman" />
		<tag k="place" v="islet" />
		<tag k="ssr:stedsnr" v="15222" />
	</node>
	<node id="-635335" lat="65.7020972256" lon="12.6241583422">
		<tag k="name" v="Aunholmen" />
		<tag k="natural" v="bay" />
		<tag k="ssr:stedsnr" v="274888" />
	</node>
</osm>
