<?xml version="1.0" encoding="UTF-8"?>
<osm generator="osmapis" version="0.6">
	<node id="-738888" lat="63.0395333352" lon="10.2753444392">
		<tag k="old_name" v="Hesthåggån" />
		<tag k="place" v="locality" />
		<tag k="ssr:date" v="2018-01-09" />
		<tag k="ssr:gruppe" v="dyrkamark" />
		<tag k="ssr:hovedgruppe" v="markslag" />
		<tag k="ssr:stedsnr" v="891869" />
		<tag k="ssr:type" v="havnehage" />
	</node>
	<node id="-741520" lat="63.0545666644" lon="10.1530166734">
		<tag k="natural" v="waterfall" />
		<tag k="old_name" v="Stofossen;Stodfossen" />
		<tag k="ssr:date" v="2018-01-09" />
		<tag k="ssr:gruppe" v="rennendeVann" />
		<tag k="ssr:hovedgruppe" v="ferskvann" />
		<tag k="ssr:stedsnr" v="740587" />
		<tag k="ssr:type" v="foss" />
	</node>
	<node id="-738062" lat="62.8895222267" lon="10.105522224">
		<tag k="old_name" v="Garli;Garli stasjon" />
		<tag k="railway" v="station" />
		<tag k="ssr:date" v="2020-05-08" />
		<tag k="ssr:gruppe" v="bane" />
		<tag k="ssr:hovedgruppe" v="infrastruktur" />
		<tag k="ssr:stedsnr" v="498914" />
		<tag k="ssr:type" v="stasjon" />
		<tag k="train" v="yes" />
	</node>
	<node id="-739147" lat="62.9633527739" lon="10.8666722154">
		<tag k="building" v="commercial" />
		<tag k="old_name" v="Reitstøa samvirkelag" />
		<tag k="ssr:date" v="2018-01-09" />
		<tag k="ssr:gruppe" v="næring" />
		<tag k="ssr:hovedgruppe" v="bebyggelse" />
		<tag k="ssr:stedsnr" v="822868" />
		<tag k="ssr:type" v="forretningsbygg" />
	</node>
	<node id="-742016" lat="62.9236790476" lon="10.2089707887">
		<tag k="loc_name" v="Vagnillgrenda" />
		<tag k="place" v="hamlet" />
		<tag k="ssr:date" v="2018-11-12" />
		<tag k="ssr:gruppe" v="bebyggelsesområder" />
		<tag k="ssr:hovedgruppe" v="bebyggelse" />
		<tag k="ssr:stedsnr" v="988278" />
		<tag k="ssr:type" v="grend" />
	</node>
</osm>
