<?xml version="1.0" encoding="UTF-8"?>
<osm version="0.6" generator="osmapis">
	<node lat="62.97903055586767" lon="10.704633334716108" id="-76211">
		<tag k="name" v="Samsjøvegen" />
		<tag k="ssr:date" v="2021-06-08" />
		<tag k="ssr:gruppe" v="veg" />
		<tag k="ssr:hovedgruppe" v="infrastruktur" />
		<tag k="ssr:stedsnr" v="626552" />
		<tag k="ssr:type" v="vegstrekning" />
	</node>
	<node lat="64.014446801577" lon="11.48188662926966" id="-76822">
		<tag k="name" v="Trøndelag fylke - Trööndelagen fylhke" />
		<tag k="name:no" v="Trøndelag fylke" />
		<tag k="name:sma" v="Trööndelagen fylhke" />
		<tag k="ssr:date" v="2021-06-08" />
		<tag k="ssr:gruppe" v="administrativeIndelinger" />
		<tag k="ssr:hovedgruppe" v="offentligAdministrasjon" />
		<tag k="ssr:stedsnr" v="980645" />
		<tag k="ssr:type" v="fylke" />
	</node>
	<node lat="62.94276021116201" lon="10.653337551279021" id="-76825">
		<tag k="name" v="Rørosveien" />
		<tag k="ssr:date" v="2019-05-30" />
		<tag k="ssr:gruppe" v="veg" />
		<tag k="ssr:hovedgruppe" v="infrastruktur" />
		<tag k="ssr:stedsnr" v="988085" />
		<tag k="ssr:type" v="adressenavn" />
	</node>
	<node lat="63.00350784388199" lon="10.455482169405368" id="-76826">
		<tag k="name" v="Marit Bjørgens vei" />
		<tag k="ssr:date" v="2019-05-30" />
		<tag k="ssr:gruppe" v="veg" />
		<tag k="ssr:hovedgruppe" v="infrastruktur" />
		<tag k="ssr:stedsnr" v="988086" />
		<tag k="ssr:type" v="adressenavn" />
	</node>
	<node lat="62.97809825886382" lon="10.560405905846908" id="-76827">
		<tag k="name" v="Storburusjøveien" />
		<tag k="ssr:date" v="2019-05-30" />
		<tag k="ssr:gruppe" v="veg" />
		<tag k="ssr:hovedgruppe" v="infrastruktur" />
		<tag k="ssr:stedsnr" v="988246" />
		<tag k="ssr:type" v="adressenavn" />
	</node>
	<node lat="62.884231851104914" lon="10.483583756748109" id="-76828">
		<tag k="name" v="Enoddveien" />
		<tag k="ssr:date" v="2019-05-31" />
		<tag k="ssr:gruppe" v="veg" />
		<tag k="ssr:hovedgruppe" v="infrastruktur" />
		<tag k="ssr:stedsnr" v="988247" />
		<tag k="ssr:type" v="adressenavn" />
	</node>
	<node lat="62.90652095001131" lon="10.462184566599433" id="-76829">
		<tag k="name" v="Budalsveien" />
		<tag k="ssr:date" v="2019-05-31" />
		<tag k="ssr:gruppe" v="veg" />
		<tag k="ssr:hovedgruppe" v="infrastruktur" />
		<tag k="ssr:stedsnr" v="988248" />
		<tag k="ssr:type" v="adressenavn" />
	</node>
	<node lat="62.88120215679265" lon="10.47722788107953" id="-76830">
		<tag k="name" v="Endalsveien" />
		<tag k="ssr:date" v="2019-05-31" />
		<tag k="ssr:gruppe" v="veg" />
		<tag k="ssr:hovedgruppe" v="infrastruktur" />
		<tag k="ssr:stedsnr" v="988249" />
		<tag k="ssr:type" v="adressenavn" />
	</node>
	<node lat="62.71404020097189" lon="10.72987583117819" id="-76831">
		<tag k="name" v="Synnerdalsveien" />
		<tag k="ssr:date" v="2019-05-31" />
		<tag k="ssr:gruppe" v="veg" />
		<tag k="ssr:hovedgruppe" v="infrastruktur" />
		<tag k="ssr:stedsnr" v="988250" />
		<tag k="ssr:type" v="adressenavn" />
	</node>
	<node lat="63.0364111136149" lon="10.286124994964398" id="-78005">
		<tag k="name" v="Midtre Gauldal kommune" />
		<tag k="ssr:date" v="2018-01-09" />
		<tag k="ssr:gruppe" v="administrativeIndelinger" />
		<tag k="ssr:hovedgruppe" v="offentligAdministrasjon" />
		<tag k="ssr:stedsnr" v="390070" />
		<tag k="ssr:type" v="kommune" />
	</node>
	<node lat="63.00571388631115" lon="10.471038890803898" id="-79262">
		<tag k="name" v="Røsbjørgvegen" />
		<tag k="ssr:date" v="2018-01-09" />
		<tag k="ssr:gruppe" v="veg" />
		<tag k="ssr:hovedgruppe" v="infrastruktur" />
		<tag k="ssr:stedsnr" v="883666" />
		<tag k="ssr:type" v="vegstrekning" />
	</node>
	<node lat="62.98321635769991" lon="10.237873917421341" id="-79535">
		<tag k="name" v="Størenveien" />
		<tag k="ssr:date" v="2019-05-30" />
		<tag k="ssr:gruppe" v="veg" />
		<tag k="ssr:hovedgruppe" v="infrastruktur" />
		<tag k="ssr:stedsnr" v="988087" />
		<tag k="ssr:type" v="adressenavn" />
	</node>
	<node lat="62.92942980221595" lon="10.222508945299206" id="-79536">
		<tag k="name" v="Sørbygda" />
		<tag k="ssr:date" v="2019-05-30" />
		<tag k="ssr:gruppe" v="veg" />
		<tag k="ssr:hovedgruppe" v="infrastruktur" />
		<tag k="ssr:stedsnr" v="988088" />
		<tag k="ssr:type" v="adressenavn" />
	</node>
	<node lat="62.8943044776478" lon="10.247897327717538" id="-79537">
		<tag k="name" v="Øverveien" />
		<tag k="ssr:date" v="2019-05-30" />
		<tag k="ssr:gruppe" v="veg" />
		<tag k="ssr:hovedgruppe" v="infrastruktur" />
		<tag k="ssr:stedsnr" v="988089" />
		<tag k="ssr:type" v="adressenavn" />
	</node>
	<node lat="62.95390525475648" lon="10.199890474609884" id="-79539">
		<tag k="name" v="Skogsveien" />
		<tag k="ssr:date" v="2019-05-30" />
		<tag k="ssr:gruppe" v="veg" />
		<tag k="ssr:hovedgruppe" v="infrastruktur" />
		<tag k="ssr:stedsnr" v="988242" />
		<tag k="ssr:type" v="adressenavn" />
	</node>
	<node lat="62.99359920041588" lon="10.24552067526474" id="-79540">
		<tag k="name" v="Haukdalsveien" />
		<tag k="ssr:date" v="2019-05-30" />
		<tag k="ssr:gruppe" v="veg" />
		<tag k="ssr:hovedgruppe" v="infrastruktur" />
		<tag k="ssr:stedsnr" v="988243" />
		<tag k="ssr:type" v="adressenavn" />
	</node>
	<node lat="62.88682794855969" lon="10.101621164415137" id="-79541">
		<tag k="name" v="Soknedalsveien" />
		<tag k="ssr:date" v="2019-05-30" />
		<tag k="ssr:gruppe" v="veg" />
		<tag k="ssr:hovedgruppe" v="infrastruktur" />
		<tag k="ssr:stedsnr" v="988244" />
		<tag k="ssr:type" v="adressenavn" />
	</node>
	<node lat="62.950532940470396" lon="10.193932350562685" id="-79542">
		<tag k="name" v="Bakkgjerdveien" />
		<tag k="ssr:date" v="2019-05-30" />
		<tag k="ssr:gruppe" v="veg" />
		<tag k="ssr:hovedgruppe" v="infrastruktur" />
		<tag k="ssr:stedsnr" v="988245" />
		<tag k="ssr:type" v="adressenavn" />
	</node>
	<node lat="63.04088968403552" lon="10.306889227039544" id="-79545">
		<tag k="name" v="Frøsethøgda" />
		<tag k="ssr:date" v="2019-05-30" />
		<tag k="ssr:gruppe" v="veg" />
		<tag k="ssr:hovedgruppe" v="infrastruktur" />
		<tag k="ssr:stedsnr" v="1021539" />
		<tag k="ssr:type" v="adressenavn" />
	</node>
	<node lat="63.03588562513513" lon="10.306833096370772" id="-79546">
		<tag k="name" v="Frøsetlia" />
		<tag k="ssr:date" v="2019-05-30" />
		<tag k="ssr:gruppe" v="veg" />
		<tag k="ssr:hovedgruppe" v="infrastruktur" />
		<tag k="ssr:stedsnr" v="1021544" />
		<tag k="ssr:type" v="adressenavn" />
	</node>
	<node lat="63.03737775019186" lon="10.308054166769928" id="-79547">
		<tag k="name" v="Frøsetåsen" />
		<tag k="ssr:date" v="2019-05-30" />
		<tag k="ssr:gruppe" v="veg" />
		<tag k="ssr:hovedgruppe" v="infrastruktur" />
		<tag k="ssr:stedsnr" v="1021070" />
		<tag k="ssr:type" v="adressenavn" />
	</node>
	<node lat="63.037805655635985" lon="10.302531536363075" id="-79548">
		<tag k="name" v="Furulia" />
		<tag k="ssr:date" v="2019-05-30" />
		<tag k="ssr:gruppe" v="veg" />
		<tag k="ssr:hovedgruppe" v="infrastruktur" />
		<tag k="ssr:stedsnr" v="1021113" />
		<tag k="ssr:type" v="adressenavn" />
	</node>
	<node lat="63.03987660070826" lon="10.303481626059664" id="-79549">
		<tag k="name" v="Glenna" />
		<tag k="ssr:date" v="2019-05-30" />
		<tag k="ssr:gruppe" v="veg" />
		<tag k="ssr:hovedgruppe" v="infrastruktur" />
		<tag k="ssr:stedsnr" v="1021119" />
		<tag k="ssr:type" v="adressenavn" />
	</node>
	<node lat="63.04028647991861" lon="10.281800509825041" id="-79550">
		<tag k="name" v="Grindahaugen" />
		<tag k="ssr:date" v="2019-05-30" />
		<tag k="ssr:gruppe" v="veg" />
		<tag k="ssr:hovedgruppe" v="infrastruktur" />
		<tag k="ssr:stedsnr" v="1021122" />
		<tag k="ssr:type" v="adressenavn" />
	</node>
	<node lat="63.02780991446355" lon="10.286074362341589" id="-79551">
		<tag k="name" v="Grønnerbakken" />
		<tag k="ssr:date" v="2019-05-30" />
		<tag k="ssr:gruppe" v="veg" />
		<tag k="ssr:hovedgruppe" v="infrastruktur" />
		<tag k="ssr:stedsnr" v="1021126" />
		<tag k="ssr:type" v="adressenavn" />
	</node>
	<node lat="63.04203230439789" lon="10.30649565614838" id="-79552">
		<tag k="name" v="Holtet" />
		<tag k="ssr:date" v="2019-05-30" />
		<tag k="ssr:gruppe" v="veg" />
		<tag k="ssr:hovedgruppe" v="infrastruktur" />
		<tag k="ssr:stedsnr" v="1021151" />
		<tag k="ssr:type" v="adressenavn" />
	</node>
	<node lat="63.04163447014069" lon="10.30842409110772" id="-79553">
		<tag k="name" v="Innlegget" />
		<tag k="ssr:date" v="2019-05-30" />
		<tag k="ssr:gruppe" v="veg" />
		<tag k="ssr:hovedgruppe" v="infrastruktur" />
		<tag k="ssr:stedsnr" v="1021162" />
		<tag k="ssr:type" v="adressenavn" />
	</node>
	<node lat="63.03709242574434" lon="10.272253813132767" id="-79554">
		<tag k="name" v="Hesthagen" />
		<tag k="ssr:date" v="2019-05-30" />
		<tag k="ssr:gruppe" v="veg" />
		<tag k="ssr:hovedgruppe" v="infrastruktur" />
		<tag k="ssr:stedsnr" v="1021135" />
		<tag k="ssr:type" v="adressenavn" />
	</node>
	<node lat="63.03737775019186" lon="10.308054166769928" id="-79555">
		<tag k="name" v="Frøsetløkkja" />
		<tag k="ssr:date" v="2019-05-30" />
		<tag k="ssr:gruppe" v="veg" />
		<tag k="ssr:hovedgruppe" v="infrastruktur" />
		<tag k="ssr:stedsnr" v="1021304" />
		<tag k="ssr:type" v="adressenavn" />
	</node>
	<node lat="63.034482423096605" lon="10.306756782985328" id="-79556">
		<tag k="name" v="Frøsetvegen" />
		<tag k="ssr:date" v="2019-05-30" />
		<tag k="ssr:gruppe" v="veg" />
		<tag k="ssr:hovedgruppe" v="infrastruktur" />
		<tag k="ssr:stedsnr" v="1021357" />
		<tag k="ssr:type" v="adressenavn" />
	</node>
	<node lat="63.042853179773" lon="10.29164895672459" id="-79557">
		<tag k="name" v="Frøsetøran" />
		<tag k="ssr:date" v="2019-05-30" />
		<tag k="ssr:gruppe" v="veg" />
		<tag k="ssr:hovedgruppe" v="infrastruktur" />
		<tag k="ssr:stedsnr" v="1021381" />
		<tag k="ssr:type" v="adressenavn" />
	</node>
	<node lat="63.03741204763156" lon="10.287352318177131" id="-79558">
		<tag k="name" v="Basmoen" />
		<tag k="ssr:date" v="2019-05-30" />
		<tag k="ssr:gruppe" v="veg" />
		<tag k="ssr:hovedgruppe" v="infrastruktur" />
		<tag k="ssr:stedsnr" v="1021487" />
		<tag k="ssr:type" v="adressenavn" />
	</node>
	<node lat="63.03664835247552" lon="10.27637245355302" id="-79559">
		<tag k="name" v="Bataljonsveien" />
		<tag k="ssr:date" v="2019-05-30" />
		<tag k="ssr:gruppe" v="veg" />
		<tag k="ssr:hovedgruppe" v="infrastruktur" />
		<tag k="ssr:stedsnr" v="1021493" />
		<tag k="ssr:type" v="adressenavn" />
	</node>
	<node lat="63.04982436286078" lon="10.283873144193874" id="-79560">
		<tag k="name" v="Bygget" />
		<tag k="ssr:date" v="2019-05-30" />
		<tag k="ssr:gruppe" v="veg" />
		<tag k="ssr:hovedgruppe" v="infrastruktur" />
		<tag k="ssr:stedsnr" v="1021497" />
		<tag k="ssr:type" v="adressenavn" />
	</node>
	<node lat="63.03762063400256" lon="10.307379421840341" id="-79561">
		<tag k="name" v="Brunkåsa" />
		<tag k="ssr:date" v="2019-05-30" />
		<tag k="ssr:gruppe" v="veg" />
		<tag k="ssr:hovedgruppe" v="infrastruktur" />
		<tag k="ssr:stedsnr" v="1021460" />
		<tag k="ssr:type" v="adressenavn" />
	</node>
	<node lat="63.032823477092094" lon="10.271893364834272" id="-79562">
		<tag k="name" v="Soknesteigen" />
		<tag k="ssr:date" v="2019-05-30" />
		<tag k="ssr:gruppe" v="veg" />
		<tag k="ssr:hovedgruppe" v="infrastruktur" />
		<tag k="ssr:stedsnr" v="1021465" />
		<tag k="ssr:type" v="adressenavn" />
	</node>
	<node lat="63.03177897400408" lon="10.28785597741936" id="-79563">
		<tag k="name" v="Bruekra" />
		<tag k="ssr:date" v="2019-05-30" />
		<tag k="ssr:gruppe" v="veg" />
		<tag k="ssr:hovedgruppe" v="infrastruktur" />
		<tag k="ssr:stedsnr" v="1021482" />
		<tag k="ssr:type" v="adressenavn" />
	</node>
	<node lat="63.03599341454952" lon="10.270184209184531" id="-79564">
		<tag k="name" v="Dragonveien" />
		<tag k="ssr:date" v="2019-05-30" />
		<tag k="ssr:gruppe" v="veg" />
		<tag k="ssr:hovedgruppe" v="infrastruktur" />
		<tag k="ssr:stedsnr" v="1021500" />
		<tag k="ssr:type" v="adressenavn" />
	</node>
	<node lat="63.05813826237416" lon="10.286702694309673" id="-79565">
		<tag k="name" v="Engan" />
		<tag k="ssr:date" v="2019-05-30" />
		<tag k="ssr:gruppe" v="veg" />
		<tag k="ssr:hovedgruppe" v="infrastruktur" />
		<tag k="ssr:stedsnr" v="1021501" />
		<tag k="ssr:type" v="adressenavn" />
	</node>
	<node lat="63.04057653780714" lon="10.304399190685027" id="-79566">
		<tag k="name" v="Ekra" />
		<tag k="ssr:date" v="2019-05-30" />
		<tag k="ssr:gruppe" v="veg" />
		<tag k="ssr:hovedgruppe" v="infrastruktur" />
		<tag k="ssr:stedsnr" v="1021507" />
		<tag k="ssr:type" v="adressenavn" />
	</node>
	<node lat="63.03709242574434" lon="10.272253813132767" id="-79567">
		<tag k="name" v="Ekserveien" />
		<tag k="ssr:date" v="2019-05-30" />
		<tag k="ssr:gruppe" v="veg" />
		<tag k="ssr:hovedgruppe" v="infrastruktur" />
		<tag k="ssr:stedsnr" v="1021514" />
		<tag k="ssr:type" v="adressenavn" />
	</node>
	<node lat="63.033358878540795" lon="10.270846528649312" id="-79568">
		<tag k="name" v="Flatreitan" />
		<tag k="ssr:date" v="2019-05-30" />
		<tag k="ssr:gruppe" v="veg" />
		<tag k="ssr:hovedgruppe" v="infrastruktur" />
		<tag k="ssr:stedsnr" v="1021529" />
		<tag k="ssr:type" v="adressenavn" />
	</node>
	<node lat="63.03730852728733" lon="10.27542792970135" id="-79569">
		<tag k="name" v="Skyttarveien" />
		<tag k="ssr:date" v="2019-05-30" />
		<tag k="ssr:gruppe" v="veg" />
		<tag k="ssr:hovedgruppe" v="infrastruktur" />
		<tag k="ssr:stedsnr" v="1021971" />
		<tag k="ssr:type" v="adressenavn" />
	</node>
	<node lat="63.03746260226689" lon="10.274654398829737" id="-79570">
		<tag k="name" v="Markveien" />
		<tag k="old_name" v="Skogveien" />
		<tag k="ssr:date" v="2019-12-12" />
		<tag k="ssr:gruppe" v="veg" />
		<tag k="ssr:hovedgruppe" v="infrastruktur" />
		<tag k="ssr:stedsnr" v="1021992" />
		<tag k="ssr:type" v="adressenavn" />
	</node>
	<node lat="63.04161648920054" lon="10.30573584589664" id="-79571">
		<tag k="name" v="Skåveien" />
		<tag k="ssr:date" v="2019-05-30" />
		<tag k="ssr:gruppe" v="veg" />
		<tag k="ssr:hovedgruppe" v="infrastruktur" />
		<tag k="ssr:stedsnr" v="1022008" />
		<tag k="ssr:type" v="adressenavn" />
	</node>
	<node lat="63.03800867946407" lon="10.27283993151411" id="-79572">
		<tag k="name" v="Langgjelan" />
		<tag k="ssr:date" v="2019-05-30" />
		<tag k="ssr:gruppe" v="veg" />
		<tag k="ssr:hovedgruppe" v="infrastruktur" />
		<tag k="ssr:stedsnr" v="1022302" />
		<tag k="ssr:type" v="adressenavn" />
	</node>
	<node lat="63.03939010276851" lon="10.309125997217164" id="-79573">
		<tag k="name" v="Smibakken" />
		<tag k="ssr:date" v="2019-05-30" />
		<tag k="ssr:gruppe" v="veg" />
		<tag k="ssr:hovedgruppe" v="infrastruktur" />
		<tag k="ssr:stedsnr" v="1022058" />
		<tag k="ssr:type" v="adressenavn" />
	</node>
	<node lat="63.041967019331594" lon="10.30548636735388" id="-79574">
		<tag k="name" v="Småenget" />
		<tag k="ssr:date" v="2019-05-30" />
		<tag k="ssr:gruppe" v="veg" />
		<tag k="ssr:hovedgruppe" v="infrastruktur" />
		<tag k="ssr:stedsnr" v="1022066" />
		<tag k="ssr:type" v="adressenavn" />
	</node>
	<node lat="63.03815379751729" lon="10.287058363514884" id="-79575">
		<tag k="name" v="Snurruhagen" />
		<tag k="ssr:date" v="2019-05-30" />
		<tag k="ssr:gruppe" v="veg" />
		<tag k="ssr:hovedgruppe" v="infrastruktur" />
		<tag k="ssr:stedsnr" v="1022071" />
		<tag k="ssr:type" v="adressenavn" />
	</node>
	<node lat="63.038692479468914" lon="10.28441972069991" id="-79576">
		<tag k="name" v="Soknes" />
		<tag k="ssr:date" v="2019-05-30" />
		<tag k="ssr:gruppe" v="veg" />
		<tag k="ssr:hovedgruppe" v="infrastruktur" />
		<tag k="ssr:stedsnr" v="1022078" />
		<tag k="ssr:type" v="adressenavn" />
	</node>
	<node lat="63.034494821697606" lon="10.27460850265888" id="-79577">
		<tag k="name" v="Sokneslia" />
		<tag k="ssr:date" v="2019-05-30" />
		<tag k="ssr:gruppe" v="veg" />
		<tag k="ssr:hovedgruppe" v="infrastruktur" />
		<tag k="ssr:stedsnr" v="1022080" />
		<tag k="ssr:type" v="adressenavn" />
	</node>
	<node lat="63.04077132415423" lon="10.282703104246371" id="-79578">
		<tag k="name" v="Soknesmoen" />
		<tag k="ssr:date" v="2019-05-30" />
		<tag k="ssr:gruppe" v="veg" />
		<tag k="ssr:hovedgruppe" v="infrastruktur" />
		<tag k="ssr:stedsnr" v="1022087" />
		<tag k="ssr:type" v="adressenavn" />
	</node>
	<node lat="63.03489400313388" lon="10.289548413101635" id="-79579">
		<tag k="name" v="Soknesøran" />
		<tag k="ssr:date" v="2019-05-30" />
		<tag k="ssr:gruppe" v="veg" />
		<tag k="ssr:hovedgruppe" v="infrastruktur" />
		<tag k="ssr:stedsnr" v="1022092" />
		<tag k="ssr:type" v="adressenavn" />
	</node>
	<node lat="63.03904709684754" lon="10.28501833733383" id="-79580">
		<tag k="name" v="Spjeldbakkan" />
		<tag k="ssr:date" v="2019-05-30" />
		<tag k="ssr:gruppe" v="veg" />
		<tag k="ssr:hovedgruppe" v="infrastruktur" />
		<tag k="ssr:stedsnr" v="1022095" />
		<tag k="ssr:type" v="adressenavn" />
	</node>
	<node lat="63.04053537068112" lon="10.279551230186337" id="-79581">
		<tag k="name" v="Spjelddalen" />
		<tag k="ssr:date" v="2019-05-30" />
		<tag k="ssr:gruppe" v="veg" />
		<tag k="ssr:hovedgruppe" v="infrastruktur" />
		<tag k="ssr:stedsnr" v="1022096" />
		<tag k="ssr:type" v="adressenavn" />
	</node>
	<node lat="63.04166793599377" lon="10.280774926569432" id="-79582">
		<tag k="name" v="Spjeldvangen" />
		<tag k="ssr:date" v="2019-05-30" />
		<tag k="ssr:gruppe" v="veg" />
		<tag k="ssr:hovedgruppe" v="infrastruktur" />
		<tag k="ssr:stedsnr" v="1022110" />
		<tag k="ssr:type" v="adressenavn" />
	</node>
	<node lat="63.04667497506083" lon="10.282001820275879" id="-79583">
		<tag k="name" v="Stasjonsveien" />
		<tag k="ssr:date" v="2019-05-30" />
		<tag k="ssr:gruppe" v="veg" />
		<tag k="ssr:hovedgruppe" v="infrastruktur" />
		<tag k="ssr:stedsnr" v="1022115" />
		<tag k="ssr:type" v="adressenavn" />
	</node>
	<node lat="63.03628257395883" lon="10.281823510924799" id="-79584">
		<tag k="name" v="Staurvin" />
		<tag k="ssr:date" v="2019-05-30" />
		<tag k="ssr:gruppe" v="veg" />
		<tag k="ssr:hovedgruppe" v="infrastruktur" />
		<tag k="ssr:stedsnr" v="1022119" />
		<tag k="ssr:type" v="adressenavn" />
	</node>
	<node lat="63.05455643388536" lon="10.285273024016034" id="-79585">
		<tag k="name" v="Storengan" />
		<tag k="ssr:date" v="2019-05-30" />
		<tag k="ssr:gruppe" v="veg" />
		<tag k="ssr:hovedgruppe" v="infrastruktur" />
		<tag k="ssr:stedsnr" v="1022135" />
		<tag k="ssr:type" v="adressenavn" />
	</node>
	<node lat="63.03476724009144" lon="10.29150528091881" id="-79586">
		<tag k="name" v="Svartøya" />
		<tag k="ssr:date" v="2019-05-30" />
		<tag k="ssr:gruppe" v="veg" />
		<tag k="ssr:hovedgruppe" v="infrastruktur" />
		<tag k="ssr:stedsnr" v="1022141" />
		<tag k="ssr:type" v="adressenavn" />
	</node>
	<node lat="63.037593406824556" lon="10.27486790180976" id="-79587">
		<tag k="name" v="Tamburveien" />
		<tag k="ssr:date" v="2019-05-30" />
		<tag k="ssr:gruppe" v="veg" />
		<tag k="ssr:hovedgruppe" v="infrastruktur" />
		<tag k="ssr:stedsnr" v="1022154" />
		<tag k="ssr:type" v="adressenavn" />
	</node>
	<node lat="63.04040760577298" lon="10.308246780676786" id="-79588">
		<tag k="name" v="Trøa" />
		<tag k="ssr:date" v="2019-05-30" />
		<tag k="ssr:gruppe" v="veg" />
		<tag k="ssr:hovedgruppe" v="infrastruktur" />
		<tag k="ssr:stedsnr" v="1022177" />
		<tag k="ssr:type" v="adressenavn" />
	</node>
	<node lat="63.04075562229526" lon="10.282599278916923" id="-79589">
		<tag k="name" v="Øverspjeldet" />
		<tag k="ssr:date" v="2019-05-30" />
		<tag k="ssr:gruppe" v="veg" />
		<tag k="ssr:hovedgruppe" v="infrastruktur" />
		<tag k="ssr:stedsnr" v="1022238" />
		<tag k="ssr:type" v="adressenavn" />
	</node>
	<node lat="63.04645679159368" lon="10.283706850670072" id="-79590">
		<tag k="name" v="Veta" />
		<tag k="ssr:date" v="2019-05-30" />
		<tag k="ssr:gruppe" v="veg" />
		<tag k="ssr:hovedgruppe" v="infrastruktur" />
		<tag k="ssr:stedsnr" v="1022225" />
		<tag k="ssr:type" v="adressenavn" />
	</node>
	<node lat="63.04523598972681" lon="10.287898832020492" id="-79591">
		<tag k="name" v="Volløyan" />
		<tag k="ssr:date" v="2019-05-30" />
		<tag k="ssr:gruppe" v="veg" />
		<tag k="ssr:hovedgruppe" v="infrastruktur" />
		<tag k="ssr:stedsnr" v="1022233" />
		<tag k="ssr:type" v="adressenavn" />
	</node>
	<node lat="63.03248537507023" lon="10.268489472399521" id="-79592">
		<tag k="name" v="Lundan" />
		<tag k="ssr:date" v="2019-05-30" />
		<tag k="ssr:gruppe" v="veg" />
		<tag k="ssr:hovedgruppe" v="infrastruktur" />
		<tag k="ssr:stedsnr" v="1022337" />
		<tag k="ssr:type" v="adressenavn" />
	</node>
	<node lat="63.042468977145376" lon="10.289145028183441" id="-79593">
		<tag k="name" v="Moøya" />
		<tag k="ssr:date" v="2019-05-30" />
		<tag k="ssr:gruppe" v="veg" />
		<tag k="ssr:hovedgruppe" v="infrastruktur" />
		<tag k="ssr:stedsnr" v="1022344" />
		<tag k="ssr:type" v="adressenavn" />
	</node>
	<node lat="63.042456684454315" lon="10.282308398787492" id="-79594">
		<tag k="name" v="Ner-Spjeldet" />
		<tag k="ssr:date" v="2019-05-30" />
		<tag k="ssr:gruppe" v="veg" />
		<tag k="ssr:hovedgruppe" v="infrastruktur" />
		<tag k="ssr:stedsnr" v="1022356" />
		<tag k="ssr:type" v="adressenavn" />
	</node>
	<node lat="63.03472385345707" lon="10.274303965281504" id="-79595">
		<tag k="name" v="Nordstu" />
		<tag k="ssr:date" v="2019-05-30" />
		<tag k="ssr:gruppe" v="veg" />
		<tag k="ssr:hovedgruppe" v="infrastruktur" />
		<tag k="ssr:stedsnr" v="1022371" />
		<tag k="ssr:type" v="adressenavn" />
	</node>
	<node lat="63.03762063400256" lon="10.307379421840341" id="-79596">
		<tag k="name" v="Kåsa" />
		<tag k="ssr:date" v="2019-05-30" />
		<tag k="ssr:gruppe" v="veg" />
		<tag k="ssr:hovedgruppe" v="infrastruktur" />
		<tag k="ssr:stedsnr" v="1022279" />
		<tag k="ssr:type" v="adressenavn" />
	</node>
	<node lat="63.033358878540795" lon="10.270846528649312" id="-79597">
		<tag k="name" v="Liøya" />
		<tag k="ssr:date" v="2019-05-30" />
		<tag k="ssr:gruppe" v="veg" />
		<tag k="ssr:hovedgruppe" v="infrastruktur" />
		<tag k="ssr:stedsnr" v="1022322" />
		<tag k="ssr:type" v="adressenavn" />
	</node>
	<node lat="63.03500271745237" lon="10.275308816316725" id="-79598">
		<tag k="name" v="Oppstu" />
		<tag k="ssr:date" v="2019-05-30" />
		<tag k="ssr:gruppe" v="veg" />
		<tag k="ssr:hovedgruppe" v="infrastruktur" />
		<tag k="ssr:stedsnr" v="1022395" />
		<tag k="ssr:type" v="adressenavn" />
	</node>
	<node lat="63.039395831896385" lon="10.306404023029296" id="-79599">
		<tag k="name" v="Plassen" />
		<tag k="ssr:date" v="2019-05-30" />
		<tag k="ssr:gruppe" v="veg" />
		<tag k="ssr:hovedgruppe" v="infrastruktur" />
		<tag k="ssr:stedsnr" v="1022410" />
		<tag k="ssr:type" v="adressenavn" />
	</node>
	<node lat="63.03400751597409" lon="10.27447545184884" id="-79600">
		<tag k="name" v="Soknestunet" />
		<tag k="ssr:date" v="2019-05-30" />
		<tag k="ssr:gruppe" v="veg" />
		<tag k="ssr:hovedgruppe" v="infrastruktur" />
		<tag k="ssr:stedsnr" v="1022419" />
		<tag k="ssr:type" v="adressenavn" />
	</node>
	<node lat="63.03470544283074" lon="10.293005012249667" id="-79601">
		<tag k="name" v="Prestteigen" />
		<tag k="ssr:date" v="2019-05-30" />
		<tag k="ssr:gruppe" v="veg" />
		<tag k="ssr:hovedgruppe" v="infrastruktur" />
		<tag k="ssr:stedsnr" v="1022431" />
		<tag k="ssr:type" v="adressenavn" />
	</node>
	<node lat="63.04122732212071" lon="10.304876643097527" id="-79602">
		<tag k="name" v="Rena" />
		<tag k="ssr:date" v="2019-05-30" />
		<tag k="ssr:gruppe" v="veg" />
		<tag k="ssr:hovedgruppe" v="infrastruktur" />
		<tag k="ssr:stedsnr" v="1022538" />
		<tag k="ssr:type" v="adressenavn" />
	</node>
	<node lat="63.037395489637284" lon="10.288565421739698" id="-79603">
		<tag k="name" v="Prost Bull-Hanssens vei" />
		<tag k="ssr:date" v="2019-05-30" />
		<tag k="ssr:gruppe" v="veg" />
		<tag k="ssr:hovedgruppe" v="infrastruktur" />
		<tag k="ssr:stedsnr" v="1022452" />
		<tag k="ssr:type" v="adressenavn" />
	</node>
	<node lat="63.03651110179246" lon="10.28540079932687" id="-79604">
		<tag k="name" v="Prost Bødtkers vei" />
		<tag k="ssr:date" v="2019-05-30" />
		<tag k="ssr:gruppe" v="veg" />
		<tag k="ssr:hovedgruppe" v="infrastruktur" />
		<tag k="ssr:stedsnr" v="1022480" />
		<tag k="ssr:type" v="adressenavn" />
	</node>
	<node lat="63.03470544283074" lon="10.293005012249667" id="-79605">
		<tag k="name" v="Prost Trædals vei" />
		<tag k="ssr:date" v="2019-05-30" />
		<tag k="ssr:gruppe" v="veg" />
		<tag k="ssr:hovedgruppe" v="infrastruktur" />
		<tag k="ssr:stedsnr" v="1022494" />
		<tag k="ssr:type" v="adressenavn" />
	</node>
	<node lat="63.041209047298516" lon="10.308522545489414" id="-79606">
		<tag k="name" v="Råa" />
		<tag k="ssr:date" v="2019-05-30" />
		<tag k="ssr:gruppe" v="veg" />
		<tag k="ssr:hovedgruppe" v="infrastruktur" />
		<tag k="ssr:stedsnr" v="1022555" />
		<tag k="ssr:type" v="adressenavn" />
	</node>
	<node lat="63.03043506783047" lon="10.260056600551364" id="-79607">
		<tag k="name" v="Sørmoen" />
		<tag k="ssr:date" v="2019-05-30" />
		<tag k="ssr:gruppe" v="veg" />
		<tag k="ssr:hovedgruppe" v="infrastruktur" />
		<tag k="ssr:stedsnr" v="1022575" />
		<tag k="ssr:type" v="adressenavn" />
	</node>
	<node lat="63.04163447014069" lon="10.30842409110772" id="-79608">
		<tag k="name" v="Kvernvassvegen" />
		<tag k="ssr:date" v="2019-05-30" />
		<tag k="ssr:gruppe" v="veg" />
		<tag k="ssr:hovedgruppe" v="infrastruktur" />
		<tag k="ssr:stedsnr" v="1022580" />
		<tag k="ssr:type" v="adressenavn" />
	</node>
	<node lat="63.038190560706944" lon="10.28697694634644" id="-79609">
		<tag k="name" v="Kalvtrøa" />
		<tag k="ssr:date" v="2019-05-30" />
		<tag k="ssr:gruppe" v="veg" />
		<tag k="ssr:hovedgruppe" v="infrastruktur" />
		<tag k="ssr:stedsnr" v="1022619" />
		<tag k="ssr:type" v="adressenavn" />
	</node>
	<node lat="63.036464898915206" lon="10.27118511765755" id="-79610">
		<tag k="name" v="Kapteinsveien" />
		<tag k="ssr:date" v="2019-05-30" />
		<tag k="ssr:gruppe" v="veg" />
		<tag k="ssr:hovedgruppe" v="infrastruktur" />
		<tag k="ssr:stedsnr" v="1022632" />
		<tag k="ssr:type" v="adressenavn" />
	</node>
	<node lat="63.031710965539254" lon="10.295392979184639" id="-79611">
		<tag k="name" v="Kirkvollveien" />
		<tag k="old_name" v="Kjørkvollveien" />
		<tag k="ssr:date" v="2019-05-30" />
		<tag k="ssr:gruppe" v="veg" />
		<tag k="ssr:hovedgruppe" v="infrastruktur" />
		<tag k="ssr:stedsnr" v="1022638" />
		<tag k="ssr:type" v="adressenavn" />
	</node>
	<node lat="63.03467198589885" lon="10.308169410030017" id="-79612">
		<tag k="name" v="Kleva" />
		<tag k="ssr:date" v="2019-05-30" />
		<tag k="ssr:gruppe" v="veg" />
		<tag k="ssr:hovedgruppe" v="infrastruktur" />
		<tag k="ssr:stedsnr" v="1022649" />
		<tag k="ssr:type" v="adressenavn" />
	</node>
	<node lat="63.037127086707024" lon="10.27405005433242" id="-79613">
		<tag k="name" v="Kompaniveien" />
		<tag k="ssr:date" v="2019-05-30" />
		<tag k="ssr:gruppe" v="veg" />
		<tag k="ssr:hovedgruppe" v="infrastruktur" />
		<tag k="ssr:stedsnr" v="1022676" />
		<tag k="ssr:type" v="adressenavn" />
	</node>
	<node lat="63.0573028705339" lon="10.284025071851577" id="-79614">
		<tag k="name" v="Kvasshyllan" />
		<tag k="ssr:date" v="2019-05-30" />
		<tag k="ssr:gruppe" v="veg" />
		<tag k="ssr:hovedgruppe" v="infrastruktur" />
		<tag k="ssr:stedsnr" v="1022682" />
		<tag k="ssr:type" v="adressenavn" />
	</node>
	<node lat="63.03534934793848" lon="10.306342567435937" id="-79615">
		<tag k="name" v="Kølmila" />
		<tag k="ssr:date" v="2019-05-30" />
		<tag k="ssr:gruppe" v="veg" />
		<tag k="ssr:hovedgruppe" v="infrastruktur" />
		<tag k="ssr:stedsnr" v="1022718" />
		<tag k="ssr:type" v="adressenavn" />
	</node>
	<node lat="63.03628257395883" lon="10.281823510924799" id="-79616">
		<tag k="name" v="Kåret" />
		<tag k="ssr:date" v="2019-05-30" />
		<tag k="ssr:gruppe" v="veg" />
		<tag k="ssr:hovedgruppe" v="infrastruktur" />
		<tag k="ssr:stedsnr" v="1022828" />
		<tag k="ssr:type" v="adressenavn" />
	</node>
	<node lat="62.95684311633229" lon="10.714630687048649" id="-79617">
		<tag k="name" v="Singsåsgården" />
		<tag k="ssr:date" v="2019-07-02" />
		<tag k="ssr:gruppe" v="veg" />
		<tag k="ssr:hovedgruppe" v="infrastruktur" />
		<tag k="ssr:stedsnr" v="1072076" />
		<tag k="ssr:type" v="adressenavn" />
	</node>
	<node lat="62.93120390733605" lon="10.155531707635344" id="-79618">
		<tag k="name" v="Ulvstuhaugan" />
		<tag k="ssr:date" v="2019-07-02" />
		<tag k="ssr:gruppe" v="veg" />
		<tag k="ssr:hovedgruppe" v="infrastruktur" />
		<tag k="ssr:stedsnr" v="1072077" />
		<tag k="ssr:type" v="adressenavn" />
	</node>
	<node lat="62.94914668718892" lon="10.184918152897707" id="-79619">
		<tag k="name" v="Nyhuslia" />
		<tag k="ssr:date" v="2019-07-02" />
		<tag k="ssr:gruppe" v="veg" />
		<tag k="ssr:hovedgruppe" v="infrastruktur" />
		<tag k="ssr:stedsnr" v="1072078" />
		<tag k="ssr:type" v="adressenavn" />
	</node>
	<node lat="62.94026515030345" lon="10.659614817428777" id="-79620">
		<tag k="name" v="Fordalsveien" />
		<tag k="ssr:date" v="2019-06-24" />
		<tag k="ssr:gruppe" v="veg" />
		<tag k="ssr:hovedgruppe" v="infrastruktur" />
		<tag k="ssr:stedsnr" v="1071990" />
		<tag k="ssr:type" v="adressenavn" />
	</node>
	<node lat="63.00911225310513" lon="10.45405506162172" id="-79621">
		<tag k="name" v="Røsbjørgveien" />
		<tag k="ssr:date" v="2019-06-24" />
		<tag k="ssr:gruppe" v="veg" />
		<tag k="ssr:hovedgruppe" v="infrastruktur" />
		<tag k="ssr:stedsnr" v="1071992" />
		<tag k="ssr:type" v="adressenavn" />
	</node>
	<node lat="62.9452213072383" lon="10.189407766063848" id="-79622">
		<tag k="name" v="Vagnillgrenda" />
		<tag k="ssr:date" v="2019-06-24" />
		<tag k="ssr:gruppe" v="veg" />
		<tag k="ssr:hovedgruppe" v="infrastruktur" />
		<tag k="ssr:stedsnr" v="1071991" />
		<tag k="ssr:type" v="adressenavn" />
	</node>
	<node lat="62.97584056325271" lon="10.562830411934954" id="-79623">
		<tag k="name" v="Talsnesveien" />
		<tag k="ssr:date" v="2019-06-24" />
		<tag k="ssr:gruppe" v="veg" />
		<tag k="ssr:hovedgruppe" v="infrastruktur" />
		<tag k="ssr:stedsnr" v="1071993" />
		<tag k="ssr:type" v="adressenavn" />
	</node>
	<node lat="63.017513268095655" lon="10.444554840176863" id="-79624">
		<tag k="name" v="Tilsetveien" />
		<tag k="ssr:date" v="2019-06-24" />
		<tag k="ssr:gruppe" v="veg" />
		<tag k="ssr:hovedgruppe" v="infrastruktur" />
		<tag k="ssr:stedsnr" v="1071994" />
		<tag k="ssr:type" v="adressenavn" />
	</node>
	<node lat="63.06709915690987" lon="10.287495888612824" id="-79625">
		<tag k="name" v="Granmoveien" />
		<tag k="ssr:date" v="2019-06-24" />
		<tag k="ssr:gruppe" v="veg" />
		<tag k="ssr:hovedgruppe" v="infrastruktur" />
		<tag k="ssr:stedsnr" v="1071995" />
		<tag k="ssr:type" v="adressenavn" />
	</node>
	<node lat="62.952709755248804" lon="10.189261151291454" id="-79626">
		<tag k="name" v="Hovsmoveien" />
		<tag k="ssr:date" v="2019-06-24" />
		<tag k="ssr:gruppe" v="veg" />
		<tag k="ssr:hovedgruppe" v="infrastruktur" />
		<tag k="ssr:stedsnr" v="1071996" />
		<tag k="ssr:type" v="adressenavn" />
	</node>
	<node lat="63.004309537561134" lon="10.458417599453172" id="-79627">
		<tag k="name" v="Rognesgarden" />
		<tag k="ssr:date" v="2019-06-24" />
		<tag k="ssr:gruppe" v="veg" />
		<tag k="ssr:hovedgruppe" v="infrastruktur" />
		<tag k="ssr:stedsnr" v="1071997" />
		<tag k="ssr:type" v="adressenavn" />
	</node>
	<node lat="62.930233548518956" lon="10.230010442743696" id="-79628">
		<tag k="name" v="Skainsveien" />
		<tag k="ssr:date" v="2019-06-24" />
		<tag k="ssr:gruppe" v="veg" />
		<tag k="ssr:hovedgruppe" v="infrastruktur" />
		<tag k="ssr:stedsnr" v="1071998" />
		<tag k="ssr:type" v="adressenavn" />
	</node>
	<node lat="62.92875187721936" lon="10.149112433018365" id="-79629">
		<tag k="name" v="Åkerliveien" />
		<tag k="ssr:date" v="2019-06-24" />
		<tag k="ssr:gruppe" v="veg" />
		<tag k="ssr:hovedgruppe" v="infrastruktur" />
		<tag k="ssr:stedsnr" v="1071999" />
		<tag k="ssr:type" v="adressenavn" />
	</node>
	<node lat="62.95237288880516" lon="10.744632254193922" id="-79630">
		<tag k="name" v="Hindbjørgveien" />
		<tag k="ssr:date" v="2019-08-16" />
		<tag k="ssr:gruppe" v="veg" />
		<tag k="ssr:hovedgruppe" v="infrastruktur" />
		<tag k="ssr:stedsnr" v="1072281" />
		<tag k="ssr:type" v="adressenavn" />
	</node>
	<node lat="62.96651519688365" lon="10.874815558559245" id="-79631">
		<tag k="name" v="Almåsveien" />
		<tag k="ssr:date" v="2019-08-16" />
		<tag k="ssr:gruppe" v="veg" />
		<tag k="ssr:hovedgruppe" v="infrastruktur" />
		<tag k="ssr:stedsnr" v="1072280" />
		<tag k="ssr:type" v="adressenavn" />
	</node>
	<node lat="62.956134210666335" lon="10.730797366155997" id="-79632">
		<tag k="name" v="Tilderåsveien" />
		<tag k="ssr:date" v="2019-08-16" />
		<tag k="ssr:gruppe" v="veg" />
		<tag k="ssr:hovedgruppe" v="infrastruktur" />
		<tag k="ssr:stedsnr" v="1072284" />
		<tag k="ssr:type" v="adressenavn" />
	</node>
	<node lat="62.95603518487629" lon="10.73447877649518" id="-79633">
		<tag k="name" v="Gruva" />
		<tag k="ssr:date" v="2019-08-16" />
		<tag k="ssr:gruppe" v="veg" />
		<tag k="ssr:hovedgruppe" v="infrastruktur" />
		<tag k="ssr:stedsnr" v="1072282" />
		<tag k="ssr:type" v="adressenavn" />
	</node>
	<node lat="62.95685114533816" lon="10.705067733521078" id="-79634">
		<tag k="name" v="Samsjøveien" />
		<tag k="ssr:date" v="2019-08-16" />
		<tag k="ssr:gruppe" v="veg" />
		<tag k="ssr:hovedgruppe" v="infrastruktur" />
		<tag k="ssr:stedsnr" v="1072283" />
		<tag k="ssr:type" v="adressenavn" />
	</node>
	<node lat="62.95323438398421" lon="10.727865724119233" id="-79635">
		<tag k="name" v="Fløttumsgutens vei" />
		<tag k="ssr:date" v="2019-08-16" />
		<tag k="ssr:gruppe" v="veg" />
		<tag k="ssr:hovedgruppe" v="infrastruktur" />
		<tag k="ssr:stedsnr" v="1072285" />
		<tag k="ssr:type" v="adressenavn" />
	</node>
	<node lat="62.95733182541483" lon="10.947053450480219" id="-79636">
		<tag k="name" v="Ålmenningsvegen" />
		<tag k="ssr:date" v="2019-08-16" />
		<tag k="ssr:gruppe" v="veg" />
		<tag k="ssr:hovedgruppe" v="infrastruktur" />
		<tag k="ssr:stedsnr" v="1072287" />
		<tag k="ssr:type" v="adressenavn" />
	</node>
	<node lat="62.95436751435787" lon="10.729174745856133" id="-79637">
		<tag k="name" v="Brutunet" />
		<tag k="ssr:date" v="2019-08-16" />
		<tag k="ssr:gruppe" v="veg" />
		<tag k="ssr:hovedgruppe" v="infrastruktur" />
		<tag k="ssr:stedsnr" v="1072286" />
		<tag k="ssr:type" v="adressenavn" />
	</node>
	<node lat="62.96619980781808" lon="10.57890342298519" id="-79638">
		<tag k="name" v="Grytdalsveien" />
		<tag k="ssr:date" v="2019-08-16" />
		<tag k="ssr:gruppe" v="veg" />
		<tag k="ssr:hovedgruppe" v="infrastruktur" />
		<tag k="ssr:stedsnr" v="1072288" />
		<tag k="ssr:type" v="adressenavn" />
	</node>
	<node lat="62.96252421167587" lon="10.499327171257358" id="-79639">
		<tag k="name" v="Busetveien" />
		<tag k="ssr:date" v="2019-08-16" />
		<tag k="ssr:gruppe" v="veg" />
		<tag k="ssr:hovedgruppe" v="infrastruktur" />
		<tag k="ssr:stedsnr" v="1072289" />
		<tag k="ssr:type" v="adressenavn" />
	</node>
	<node lat="62.87811032743544" lon="10.471342181050352" id="-79640">
		<tag k="name" v="Brubakkveien" />
		<tag k="ssr:date" v="2019-08-16" />
		<tag k="ssr:gruppe" v="veg" />
		<tag k="ssr:hovedgruppe" v="infrastruktur" />
		<tag k="ssr:stedsnr" v="1072291" />
		<tag k="ssr:type" v="adressenavn" />
	</node>
	<node lat="62.867124035446565" lon="10.457347000507742" id="-79641">
		<tag k="name" v="Enlihaugveien" />
		<tag k="ssr:date" v="2019-08-16" />
		<tag k="ssr:gruppe" v="veg" />
		<tag k="ssr:hovedgruppe" v="infrastruktur" />
		<tag k="ssr:stedsnr" v="1072290" />
		<tag k="ssr:type" v="adressenavn" />
	</node>
	<node lat="62.875277076524306" lon="10.488109937042578" id="-79642">
		<tag k="name" v="Vinterveimyra" />
		<tag k="ssr:date" v="2019-08-16" />
		<tag k="ssr:gruppe" v="veg" />
		<tag k="ssr:hovedgruppe" v="infrastruktur" />
		<tag k="ssr:stedsnr" v="1072295" />
		<tag k="ssr:type" v="adressenavn" />
	</node>
	<node lat="62.86448678703146" lon="10.454543187609408" id="-79643">
		<tag k="name" v="Bjøråliveien" />
		<tag k="ssr:date" v="2019-08-16" />
		<tag k="ssr:gruppe" v="veg" />
		<tag k="ssr:hovedgruppe" v="infrastruktur" />
		<tag k="ssr:stedsnr" v="1072292" />
		<tag k="ssr:type" v="adressenavn" />
	</node>
	<node lat="62.84641698944295" lon="10.446578355876179" id="-79644">
		<tag k="name" v="Hytthaugveien" />
		<tag k="ssr:date" v="2019-08-16" />
		<tag k="ssr:gruppe" v="veg" />
		<tag k="ssr:hovedgruppe" v="infrastruktur" />
		<tag k="ssr:stedsnr" v="1072293" />
		<tag k="ssr:type" v="adressenavn" />
	</node>
	<node lat="62.84867933259751" lon="10.524050025158358" id="-79645">
		<tag k="name" v="Storliveien" />
		<tag k="ssr:date" v="2019-08-16" />
		<tag k="ssr:gruppe" v="veg" />
		<tag k="ssr:hovedgruppe" v="infrastruktur" />
		<tag k="ssr:stedsnr" v="1072294" />
		<tag k="ssr:type" v="adressenavn" />
	</node>
	<node lat="62.828358190185774" lon="10.462458103294527" id="-79646">
		<tag k="name" v="Mellomriksen" />
		<tag k="ssr:date" v="2019-08-16" />
		<tag k="ssr:gruppe" v="veg" />
		<tag k="ssr:hovedgruppe" v="infrastruktur" />
		<tag k="ssr:stedsnr" v="1072298" />
		<tag k="ssr:type" v="adressenavn" />
	</node>
	<node lat="62.849954656743584" lon="10.52814345800984" id="-79647">
		<tag k="name" v="Skogheimveien" />
		<tag k="ssr:date" v="2019-08-16" />
		<tag k="ssr:gruppe" v="veg" />
		<tag k="ssr:hovedgruppe" v="infrastruktur" />
		<tag k="ssr:stedsnr" v="1072296" />
		<tag k="ssr:type" v="adressenavn" />
	</node>
	<node lat="62.836326379910666" lon="10.527376967189879" id="-79648">
		<tag k="name" v="Buabakkan" />
		<tag k="ssr:date" v="2019-08-16" />
		<tag k="ssr:gruppe" v="veg" />
		<tag k="ssr:hovedgruppe" v="infrastruktur" />
		<tag k="ssr:stedsnr" v="1072297" />
		<tag k="ssr:type" v="adressenavn" />
	</node>
	<node lat="62.87750923375" lon="10.484152563342056" id="-79649">
		<tag k="name" v="Boligfeltet" />
		<tag k="ssr:date" v="2019-08-21" />
		<tag k="ssr:gruppe" v="veg" />
		<tag k="ssr:hovedgruppe" v="infrastruktur" />
		<tag k="ssr:stedsnr" v="1072320" />
		<tag k="ssr:type" v="adressenavn" />
	</node>
	<node lat="62.934479825886434" lon="10.216594255872247" id="-79653">
		<tag k="name" v="Håvåsveien" />
		<tag k="ssr:date" v="2019-10-25" />
		<tag k="ssr:gruppe" v="veg" />
		<tag k="ssr:hovedgruppe" v="infrastruktur" />
		<tag k="ssr:stedsnr" v="1073081" />
		<tag k="ssr:type" v="adressenavn" />
	</node>
	<node lat="62.95116335776909" lon="10.48029843474552" id="-79654">
		<tag k="name" v="Bonesvollveien" />
		<tag k="ssr:date" v="2019-10-25" />
		<tag k="ssr:gruppe" v="veg" />
		<tag k="ssr:hovedgruppe" v="infrastruktur" />
		<tag k="ssr:stedsnr" v="1073079" />
		<tag k="ssr:type" v="adressenavn" />
	</node>
	<node lat="63.026302825446116" lon="10.253856970105264" id="-79655">
		<tag k="name" v="Storløkkjgrenda" />
		<tag k="ssr:date" v="2019-10-25" />
		<tag k="ssr:gruppe" v="veg" />
		<tag k="ssr:hovedgruppe" v="infrastruktur" />
		<tag k="ssr:stedsnr" v="1073080" />
		<tag k="ssr:type" v="adressenavn" />
	</node>
	<node lat="62.95088076578361" lon="10.188070224746403" id="-79656">
		<tag k="name" v="Fagerliveien" />
		<tag k="ssr:date" v="2019-10-25" />
		<tag k="ssr:gruppe" v="veg" />
		<tag k="ssr:hovedgruppe" v="infrastruktur" />
		<tag k="ssr:stedsnr" v="1073082" />
		<tag k="ssr:type" v="adressenavn" />
	</node>
	<node lat="62.9453619992538" lon="10.187486172541144" id="-79657">
		<tag k="name" v="Nerletet" />
		<tag k="ssr:date" v="2019-10-25" />
		<tag k="ssr:gruppe" v="veg" />
		<tag k="ssr:hovedgruppe" v="infrastruktur" />
		<tag k="ssr:stedsnr" v="1073083" />
		<tag k="ssr:type" v="adressenavn" />
	</node>
	<node lat="62.91746024911524" lon="10.141411513555624" id="-79658">
		<tag k="name" v="Gullvågveien" />
		<tag k="ssr:date" v="2019-10-25" />
		<tag k="ssr:gruppe" v="veg" />
		<tag k="ssr:hovedgruppe" v="infrastruktur" />
		<tag k="ssr:stedsnr" v="1073086" />
		<tag k="ssr:type" v="adressenavn" />
	</node>
	<node lat="62.934202626642836" lon="10.218270700616044" id="-79659">
		<tag k="name" v="Åseldveien" />
		<tag k="ssr:date" v="2019-10-25" />
		<tag k="ssr:gruppe" v="veg" />
		<tag k="ssr:hovedgruppe" v="infrastruktur" />
		<tag k="ssr:stedsnr" v="1073084" />
		<tag k="ssr:type" v="adressenavn" />
	</node>
	<node lat="62.98212107714466" lon="10.236411213916913" id="-79660">
		<tag k="name" v="Haukåsveien" />
		<tag k="ssr:date" v="2019-10-25" />
		<tag k="ssr:gruppe" v="veg" />
		<tag k="ssr:hovedgruppe" v="infrastruktur" />
		<tag k="ssr:stedsnr" v="1073085" />
		<tag k="ssr:type" v="adressenavn" />
	</node>
	<node lat="62.945197633840394" lon="10.18662182356737" id="-79661">
		<tag k="name" v="Letet" />
		<tag k="ssr:date" v="2019-10-25" />
		<tag k="ssr:gruppe" v="veg" />
		<tag k="ssr:hovedgruppe" v="infrastruktur" />
		<tag k="ssr:stedsnr" v="1073087" />
		<tag k="ssr:type" v="adressenavn" />
	</node>
	<node lat="62.94262244499418" lon="10.648655971663064" id="-79662">
		<tag k="name" v="Fjesetbakkan" />
		<tag k="ssr:date" v="2019-10-25" />
		<tag k="ssr:gruppe" v="veg" />
		<tag k="ssr:hovedgruppe" v="infrastruktur" />
		<tag k="ssr:stedsnr" v="1073090" />
		<tag k="ssr:type" v="adressenavn" />
	</node>
	<node lat="62.95121651927469" lon="10.188567771094414" id="-79663">
		<tag k="name" v="Brukarveien" />
		<tag k="ssr:date" v="2019-10-25" />
		<tag k="ssr:gruppe" v="veg" />
		<tag k="ssr:hovedgruppe" v="infrastruktur" />
		<tag k="ssr:stedsnr" v="1073088" />
		<tag k="ssr:type" v="adressenavn" />
	</node>
	<node lat="62.95724200596591" lon="10.724401404500199" id="-79664">
		<tag k="name" v="Høggåsveien" />
		<tag k="ssr:date" v="2019-10-25" />
		<tag k="ssr:gruppe" v="veg" />
		<tag k="ssr:hovedgruppe" v="infrastruktur" />
		<tag k="ssr:stedsnr" v="1073089" />
		<tag k="ssr:type" v="adressenavn" />
	</node>
	<node lat="62.93919450748709" lon="10.652821517661689" id="-79665">
		<tag k="name" v="Strindaveien" />
		<tag k="ssr:date" v="2019-10-25" />
		<tag k="ssr:gruppe" v="veg" />
		<tag k="ssr:hovedgruppe" v="infrastruktur" />
		<tag k="ssr:stedsnr" v="1073091" />
		<tag k="ssr:type" v="adressenavn" />
	</node>
	<node lat="62.8363105366343" lon="10.531447984968098" id="-79666">
		<tag k="name" v="Storbudalen" />
		<tag k="ssr:date" v="2019-10-25" />
		<tag k="ssr:gruppe" v="veg" />
		<tag k="ssr:hovedgruppe" v="infrastruktur" />
		<tag k="ssr:stedsnr" v="1073092" />
		<tag k="ssr:type" v="adressenavn" />
	</node>
	<node lat="62.95304038556421" lon="10.742312404912175" id="-79667">
		<tag k="name" v="Christian Lodgaards vei" />
		<tag k="ssr:date" v="2019-10-25" />
		<tag k="ssr:gruppe" v="veg" />
		<tag k="ssr:hovedgruppe" v="infrastruktur" />
		<tag k="ssr:stedsnr" v="1073093" />
		<tag k="ssr:type" v="adressenavn" />
	</node>
	<node lat="62.943086906309595" lon="10.647666908943744" id="-79668">
		<tag k="name" v="Aunåsveien" />
		<tag k="ssr:date" v="2019-10-25" />
		<tag k="ssr:gruppe" v="veg" />
		<tag k="ssr:hovedgruppe" v="infrastruktur" />
		<tag k="ssr:stedsnr" v="1073094" />
		<tag k="ssr:type" v="adressenavn" />
	</node>
	<node lat="62.928511526082666" lon="10.66833931620485" id="-79669">
		<tag k="name" v="Ramnåsveien" />
		<tag k="ssr:date" v="2019-10-25" />
		<tag k="ssr:gruppe" v="veg" />
		<tag k="ssr:hovedgruppe" v="infrastruktur" />
		<tag k="ssr:stedsnr" v="1073095" />
		<tag k="ssr:type" v="adressenavn" />
	</node>
	<node lat="63.00104126768933" lon="10.237723313143025" id="-79672">
		<tag k="name" v="Skjærliløkkjveien" />
		<tag k="ssr:date" v="2020-10-15" />
		<tag k="ssr:gruppe" v="veg" />
		<tag k="ssr:hovedgruppe" v="infrastruktur" />
		<tag k="ssr:stedsnr" v="1078575" />
		<tag k="ssr:type" v="adressenavn" />
	</node>
	<node lat="63.03730630570571" lon="10.308216345442048" id="-79673">
		<tag k="name" v="Høstvollveien" />
		<tag k="ssr:date" v="2020-10-15" />
		<tag k="ssr:gruppe" v="veg" />
		<tag k="ssr:hovedgruppe" v="infrastruktur" />
		<tag k="ssr:stedsnr" v="1078572" />
		<tag k="ssr:type" v="adressenavn" />
	</node>
	<node lat="63.043016218478904" lon="10.304541211320492" id="-79674">
		<tag k="name" v="Klevveien" />
		<tag k="ssr:date" v="2020-10-15" />
		<tag k="ssr:gruppe" v="veg" />
		<tag k="ssr:hovedgruppe" v="infrastruktur" />
		<tag k="ssr:stedsnr" v="1078574" />
		<tag k="ssr:type" v="adressenavn" />
	</node>
	<node lat="63.01987316439212" lon="10.314096048843389" id="-79675">
		<tag k="name" v="Storåsveien" />
		<tag k="ssr:date" v="2020-10-15" />
		<tag k="ssr:gruppe" v="veg" />
		<tag k="ssr:hovedgruppe" v="infrastruktur" />
		<tag k="ssr:stedsnr" v="1078576" />
		<tag k="ssr:type" v="adressenavn" />
	</node>
	<node lat="62.99198544130047" lon="10.262541821943817" id="-79676">
		<tag k="name" v="Vinterledveien" />
		<tag k="ssr:date" v="2020-10-15" />
		<tag k="ssr:gruppe" v="veg" />
		<tag k="ssr:hovedgruppe" v="infrastruktur" />
		<tag k="ssr:stedsnr" v="1078577" />
		<tag k="ssr:type" v="adressenavn" />
	</node>
	<node lat="62.951991156772024" lon="10.344496754441298" id="-79677">
		<tag k="name" v="Stenbruåsen" />
		<tag k="ssr:date" v="2020-10-15" />
		<tag k="ssr:gruppe" v="veg" />
		<tag k="ssr:hovedgruppe" v="infrastruktur" />
		<tag k="ssr:stedsnr" v="1078578" />
		<tag k="ssr:type" v="adressenavn" />
	</node>
	<node lat="62.96912715549127" lon="10.33264746378963" id="-79678">
		<tag k="name" v="Nord-Ramstad" />
		<tag k="ssr:date" v="2020-10-15" />
		<tag k="ssr:gruppe" v="veg" />
		<tag k="ssr:hovedgruppe" v="infrastruktur" />
		<tag k="ssr:stedsnr" v="1078579" />
		<tag k="ssr:type" v="adressenavn" />
	</node>
	<node lat="62.96941899368703" lon="10.331828166523822" id="-79679">
		<tag k="name" v="Veltveien" />
		<tag k="ssr:date" v="2020-10-15" />
		<tag k="ssr:gruppe" v="veg" />
		<tag k="ssr:hovedgruppe" v="infrastruktur" />
		<tag k="ssr:stedsnr" v="1078584" />
		<tag k="ssr:type" v="adressenavn" />
	</node>
	<node lat="62.960861125850656" lon="10.30438399293941" id="-79680">
		<tag k="name" v="Hongrødsveien" />
		<tag k="ssr:date" v="2020-10-15" />
		<tag k="ssr:gruppe" v="veg" />
		<tag k="ssr:hovedgruppe" v="infrastruktur" />
		<tag k="ssr:stedsnr" v="1078580" />
		<tag k="ssr:type" v="adressenavn" />
	</node>
	<node lat="62.94232170663263" lon="10.201299628531592" id="-79681">
		<tag k="name" v="Gjelan" />
		<tag k="ssr:date" v="2020-10-15" />
		<tag k="ssr:gruppe" v="veg" />
		<tag k="ssr:hovedgruppe" v="infrastruktur" />
		<tag k="ssr:stedsnr" v="1078581" />
		<tag k="ssr:type" v="adressenavn" />
	</node>
	<node lat="62.94482615731067" lon="10.338778704211991" id="-79682">
		<tag k="name" v="Ramstadveien" />
		<tag k="ssr:date" v="2020-10-15" />
		<tag k="ssr:gruppe" v="veg" />
		<tag k="ssr:hovedgruppe" v="infrastruktur" />
		<tag k="ssr:stedsnr" v="1078582" />
		<tag k="ssr:type" v="adressenavn" />
	</node>
	<node lat="62.936839617183786" lon="10.208688312119394" id="-79683">
		<tag k="name" v="Bakkhåggån" />
		<tag k="ssr:date" v="2020-10-15" />
		<tag k="ssr:gruppe" v="veg" />
		<tag k="ssr:hovedgruppe" v="infrastruktur" />
		<tag k="ssr:stedsnr" v="1078585" />
		<tag k="ssr:type" v="adressenavn" />
	</node>
	<node lat="62.93618784090222" lon="10.217130510279146" id="-79684">
		<tag k="name" v="Myrvangveien" />
		<tag k="ssr:date" v="2020-10-15" />
		<tag k="ssr:gruppe" v="veg" />
		<tag k="ssr:hovedgruppe" v="infrastruktur" />
		<tag k="ssr:stedsnr" v="1078586" />
		<tag k="ssr:type" v="adressenavn" />
	</node>
	<node lat="62.93433376866121" lon="10.229001824509984" id="-79685">
		<tag k="name" v="Kjølen" />
		<tag k="ssr:date" v="2020-10-15" />
		<tag k="ssr:gruppe" v="veg" />
		<tag k="ssr:hovedgruppe" v="infrastruktur" />
		<tag k="ssr:stedsnr" v="1078587" />
		<tag k="ssr:type" v="adressenavn" />
	</node>
	<node lat="62.89706031612516" lon="10.248879841664792" id="-79686">
		<tag k="name" v="Reitanveien" />
		<tag k="ssr:date" v="2020-10-16" />
		<tag k="ssr:gruppe" v="veg" />
		<tag k="ssr:hovedgruppe" v="infrastruktur" />
		<tag k="ssr:stedsnr" v="1078593" />
		<tag k="ssr:type" v="adressenavn" />
	</node>
	<node lat="62.923429729072026" lon="10.229105119700415" id="-79687">
		<tag k="name" v="Børsetveien" />
		<tag k="ssr:date" v="2020-10-16" />
		<tag k="ssr:gruppe" v="veg" />
		<tag k="ssr:hovedgruppe" v="infrastruktur" />
		<tag k="ssr:stedsnr" v="1078594" />
		<tag k="ssr:type" v="adressenavn" />
	</node>
	<node lat="62.917153213354936" lon="10.05688703300243" id="-79688">
		<tag k="name" v="Ilbogveien" />
		<tag k="ssr:date" v="2020-10-16" />
		<tag k="ssr:gruppe" v="veg" />
		<tag k="ssr:hovedgruppe" v="infrastruktur" />
		<tag k="ssr:stedsnr" v="1078599" />
		<tag k="ssr:type" v="adressenavn" />
	</node>
	<node lat="62.88232242421712" lon="10.262276321822142" id="-79689">
		<tag k="name" v="Øvereggveien" />
		<tag k="ssr:date" v="2020-10-16" />
		<tag k="ssr:gruppe" v="veg" />
		<tag k="ssr:hovedgruppe" v="infrastruktur" />
		<tag k="ssr:stedsnr" v="1078595" />
		<tag k="ssr:type" v="adressenavn" />
	</node>
	<node lat="62.891550066413664" lon="10.210667866971178" id="-79690">
		<tag k="name" v="Vagnillsæterveien" />
		<tag k="ssr:date" v="2021-05-31" />
		<tag k="ssr:gruppe" v="veg" />
		<tag k="ssr:hovedgruppe" v="infrastruktur" />
		<tag k="ssr:stedsnr" v="1078596" />
		<tag k="ssr:type" v="adressenavn" />
	</node>
	<node lat="62.875595127305445" lon="10.26821415724131" id="-79691">
		<tag k="name" v="Tjønnan" />
		<tag k="ssr:date" v="2020-10-16" />
		<tag k="ssr:gruppe" v="veg" />
		<tag k="ssr:hovedgruppe" v="infrastruktur" />
		<tag k="ssr:stedsnr" v="1078597" />
		<tag k="ssr:type" v="adressenavn" />
	</node>
	<node lat="62.9010875816682" lon="10.112532564943598" id="-79692">
		<tag k="name" v="Garliveien" />
		<tag k="ssr:date" v="2020-10-16" />
		<tag k="ssr:gruppe" v="veg" />
		<tag k="ssr:hovedgruppe" v="infrastruktur" />
		<tag k="ssr:stedsnr" v="1078598" />
		<tag k="ssr:type" v="adressenavn" />
	</node>
	<node lat="62.93602759198783" lon="10.058628630251727" id="-79693">
		<tag k="name" v="Bløtkjølen" />
		<tag k="ssr:date" v="2020-10-16" />
		<tag k="ssr:gruppe" v="veg" />
		<tag k="ssr:hovedgruppe" v="infrastruktur" />
		<tag k="ssr:stedsnr" v="1078600" />
		<tag k="ssr:type" v="adressenavn" />
	</node>
	<node lat="62.96533694683056" lon="10.170817682233034" id="-79694">
		<tag k="name" v="Gynnildveien" />
		<tag k="ssr:date" v="2020-10-16" />
		<tag k="ssr:gruppe" v="veg" />
		<tag k="ssr:hovedgruppe" v="infrastruktur" />
		<tag k="ssr:stedsnr" v="1078601" />
		<tag k="ssr:type" v="adressenavn" />
	</node>
	<node lat="62.96547326032199" lon="10.241571486776149" id="-79695">
		<tag k="name" v="Hustøftveien" />
		<tag k="ssr:date" v="2020-10-16" />
		<tag k="ssr:gruppe" v="veg" />
		<tag k="ssr:hovedgruppe" v="infrastruktur" />
		<tag k="ssr:stedsnr" v="1078602" />
		<tag k="ssr:type" v="adressenavn" />
	</node>
	<node lat="62.91748729153438" lon="10.307236362364694" id="-79696">
		<tag k="name" v="Gorsetveien" />
		<tag k="ssr:date" v="2020-10-16" />
		<tag k="ssr:gruppe" v="veg" />
		<tag k="ssr:hovedgruppe" v="infrastruktur" />
		<tag k="ssr:stedsnr" v="1078604" />
		<tag k="ssr:type" v="adressenavn" />
	</node>
	<node lat="62.963941610891936" lon="10.174175882096936" id="-79697">
		<tag k="name" v="Bergssæterveien" />
		<tag k="ssr:date" v="2020-10-16" />
		<tag k="ssr:gruppe" v="veg" />
		<tag k="ssr:hovedgruppe" v="infrastruktur" />
		<tag k="ssr:stedsnr" v="1078603" />
		<tag k="ssr:type" v="adressenavn" />
	</node>
	<node lat="62.90918782415016" lon="10.129454236323067" id="-79698">
		<tag k="name" v="Råveien" />
		<tag k="ssr:date" v="2020-10-16" />
		<tag k="ssr:gruppe" v="veg" />
		<tag k="ssr:hovedgruppe" v="infrastruktur" />
		<tag k="ssr:stedsnr" v="1078607" />
		<tag k="ssr:type" v="adressenavn" />
	</node>
	<node lat="62.89091642337567" lon="10.102460393508672" id="-79699">
		<tag k="name" v="Garlimoveien" />
		<tag k="ssr:date" v="2020-10-16" />
		<tag k="ssr:gruppe" v="veg" />
		<tag k="ssr:hovedgruppe" v="infrastruktur" />
		<tag k="ssr:stedsnr" v="1078605" />
		<tag k="ssr:type" v="adressenavn" />
	</node>
	<node lat="62.926854708565266" lon="10.359123113374416" id="-79700">
		<tag k="name" v="Storslættet" />
		<tag k="ssr:date" v="2020-10-16" />
		<tag k="ssr:gruppe" v="veg" />
		<tag k="ssr:hovedgruppe" v="infrastruktur" />
		<tag k="ssr:stedsnr" v="1078606" />
		<tag k="ssr:type" v="adressenavn" />
	</node>
	<node lat="62.94921626462493" lon="10.635491466646299" id="-79701">
		<tag k="name" v="Bjørgråa" />
		<tag k="ssr:date" v="2020-10-16" />
		<tag k="ssr:gruppe" v="veg" />
		<tag k="ssr:hovedgruppe" v="infrastruktur" />
		<tag k="ssr:stedsnr" v="1078609" />
		<tag k="ssr:type" v="adressenavn" />
	</node>
	<node lat="62.99493206027553" lon="10.8797379645144" id="-79702">
		<tag k="name" v="Almåsstorlia" />
		<tag k="ssr:date" v="2020-10-16" />
		<tag k="ssr:gruppe" v="veg" />
		<tag k="ssr:hovedgruppe" v="infrastruktur" />
		<tag k="ssr:stedsnr" v="1078608" />
		<tag k="ssr:type" v="adressenavn" />
	</node>
	<node lat="63.00572607850424" lon="10.901738271941946" id="-79703">
		<tag k="name" v="Bedringens vei" />
		<tag k="ssr:date" v="2020-10-16" />
		<tag k="ssr:gruppe" v="veg" />
		<tag k="ssr:hovedgruppe" v="infrastruktur" />
		<tag k="ssr:stedsnr" v="1078610" />
		<tag k="ssr:type" v="adressenavn" />
	</node>
	<node lat="62.88538455574513" lon="10.692807425008166" id="-79704">
		<tag k="name" v="Nyådalsveien" />
		<tag k="ssr:date" v="2020-10-16" />
		<tag k="ssr:gruppe" v="veg" />
		<tag k="ssr:hovedgruppe" v="infrastruktur" />
		<tag k="ssr:stedsnr" v="1078614" />
		<tag k="ssr:type" v="adressenavn" />
	</node>
	<node lat="63.02770441636486" lon="10.838161083484986" id="-79705">
		<tag k="name" v="Flovollveien" />
		<tag k="ssr:date" v="2020-10-16" />
		<tag k="ssr:gruppe" v="veg" />
		<tag k="ssr:hovedgruppe" v="infrastruktur" />
		<tag k="ssr:stedsnr" v="1078611" />
		<tag k="ssr:type" v="adressenavn" />
	</node>
	<node lat="62.96210677647064" lon="10.861732025792197" id="-79706">
		<tag k="name" v="Reitstøa" />
		<tag k="ssr:date" v="2020-10-16" />
		<tag k="ssr:gruppe" v="veg" />
		<tag k="ssr:hovedgruppe" v="infrastruktur" />
		<tag k="ssr:stedsnr" v="1078612" />
		<tag k="ssr:type" v="adressenavn" />
	</node>
	<node lat="62.94168738179378" lon="10.651272586596656" id="-79707">
		<tag k="name" v="Forsetveien" />
		<tag k="ssr:date" v="2020-10-16" />
		<tag k="ssr:gruppe" v="veg" />
		<tag k="ssr:hovedgruppe" v="infrastruktur" />
		<tag k="ssr:stedsnr" v="1078613" />
		<tag k="ssr:type" v="adressenavn" />
	</node>
	<node lat="62.881531203026704" lon="10.695319770208874" id="-79708">
		<tag k="name" v="Lermovollveien" />
		<tag k="ssr:date" v="2020-10-16" />
		<tag k="ssr:gruppe" v="veg" />
		<tag k="ssr:hovedgruppe" v="infrastruktur" />
		<tag k="ssr:stedsnr" v="1078615" />
		<tag k="ssr:type" v="adressenavn" />
	</node>
	<node lat="62.8501756978001" lon="10.792828218935332" id="-79709">
		<tag k="name" v="Knutveien" />
		<tag k="ssr:date" v="2020-10-16" />
		<tag k="ssr:gruppe" v="veg" />
		<tag k="ssr:hovedgruppe" v="infrastruktur" />
		<tag k="ssr:stedsnr" v="1078618" />
		<tag k="ssr:type" v="adressenavn" />
	</node>
	<node lat="62.94042333511272" lon="10.65093550391648" id="-79710">
		<tag k="name" v="Høsveien" />
		<tag k="ssr:date" v="2020-10-16" />
		<tag k="ssr:gruppe" v="veg" />
		<tag k="ssr:hovedgruppe" v="infrastruktur" />
		<tag k="ssr:stedsnr" v="1078616" />
		<tag k="ssr:type" v="adressenavn" />
	</node>
	<node lat="62.852944807763905" lon="10.789416540252367" id="-79711">
		<tag k="name" v="Nyhaugveien" />
		<tag k="ssr:date" v="2020-10-16" />
		<tag k="ssr:gruppe" v="veg" />
		<tag k="ssr:hovedgruppe" v="infrastruktur" />
		<tag k="ssr:stedsnr" v="1078617" />
		<tag k="ssr:type" v="adressenavn" />
	</node>
	<node lat="62.98506083024932" lon="10.564528216670858" id="-79712">
		<tag k="name" v="Kotsveien" />
		<tag k="ssr:date" v="2020-10-16" />
		<tag k="ssr:gruppe" v="veg" />
		<tag k="ssr:hovedgruppe" v="infrastruktur" />
		<tag k="ssr:stedsnr" v="1078622" />
		<tag k="ssr:type" v="adressenavn" />
	</node>
	<node lat="62.82178349008653" lon="10.845610480270802" id="-79713">
		<tag k="name" v="Hermovollveien" />
		<tag k="ssr:date" v="2020-10-16" />
		<tag k="ssr:gruppe" v="veg" />
		<tag k="ssr:hovedgruppe" v="infrastruktur" />
		<tag k="ssr:stedsnr" v="1078619" />
		<tag k="ssr:type" v="adressenavn" />
	</node>
	<node lat="62.99749475422533" lon="10.571533817662234" id="-79714">
		<tag k="name" v="Husvollen" />
		<tag k="ssr:date" v="2020-10-16" />
		<tag k="ssr:gruppe" v="veg" />
		<tag k="ssr:hovedgruppe" v="infrastruktur" />
		<tag k="ssr:stedsnr" v="1078620" />
		<tag k="ssr:type" v="adressenavn" />
	</node>
	<node lat="62.823363226089185" lon="10.846122695676573" id="-79715">
		<tag k="name" v="Nekkjådalsveien" />
		<tag k="ssr:date" v="2020-10-16" />
		<tag k="ssr:gruppe" v="veg" />
		<tag k="ssr:hovedgruppe" v="infrastruktur" />
		<tag k="ssr:stedsnr" v="1078621" />
		<tag k="ssr:type" v="adressenavn" />
	</node>
	<node lat="62.96341755441316" lon="10.572601062260413" id="-79716">
		<tag k="name" v="Nøkksjøveien" />
		<tag k="ssr:date" v="2020-10-16" />
		<tag k="ssr:gruppe" v="veg" />
		<tag k="ssr:hovedgruppe" v="infrastruktur" />
		<tag k="ssr:stedsnr" v="1078623" />
		<tag k="ssr:type" v="adressenavn" />
	</node>
	<node lat="62.821760789112766" lon="10.455024854116287" id="-79717">
		<tag k="name" v="Sætermoveien" />
		<tag k="ssr:date" v="2020-10-16" />
		<tag k="ssr:gruppe" v="veg" />
		<tag k="ssr:hovedgruppe" v="infrastruktur" />
		<tag k="ssr:stedsnr" v="1078624" />
		<tag k="ssr:type" v="adressenavn" />
	</node>
	<node lat="62.81258260444109" lon="10.441859393669112" id="-79718">
		<tag k="name" v="Refsetvollen" />
		<tag k="ssr:date" v="2020-10-16" />
		<tag k="ssr:gruppe" v="veg" />
		<tag k="ssr:hovedgruppe" v="infrastruktur" />
		<tag k="ssr:stedsnr" v="1078625" />
		<tag k="ssr:type" v="adressenavn" />
	</node>
	<node lat="62.795728395619214" lon="10.623196816101652" id="-79719">
		<tag k="name" v="Tangvollveien" />
		<tag k="ssr:date" v="2020-10-16" />
		<tag k="ssr:gruppe" v="veg" />
		<tag k="ssr:hovedgruppe" v="infrastruktur" />
		<tag k="ssr:stedsnr" v="1078627" />
		<tag k="ssr:type" v="adressenavn" />
	</node>
	<node lat="62.80166425373867" lon="10.605346044562609" id="-79720">
		<tag k="name" v="Kjellvollveien" />
		<tag k="ssr:date" v="2020-10-16" />
		<tag k="ssr:gruppe" v="veg" />
		<tag k="ssr:hovedgruppe" v="infrastruktur" />
		<tag k="ssr:stedsnr" v="1078626" />
		<tag k="ssr:type" v="adressenavn" />
	</node>
	<node lat="62.77642196091064" lon="10.631140080145634" id="-79721">
		<tag k="name" v="Moavollveien" />
		<tag k="ssr:date" v="2020-10-16" />
		<tag k="ssr:gruppe" v="veg" />
		<tag k="ssr:hovedgruppe" v="infrastruktur" />
		<tag k="ssr:stedsnr" v="1078628" />
		<tag k="ssr:type" v="adressenavn" />
	</node>
	<node lat="62.771726962159526" lon="10.634033897751218" id="-79722">
		<tag k="name" v="Løkkjvollan" />
		<tag k="ssr:date" v="2020-10-16" />
		<tag k="ssr:gruppe" v="veg" />
		<tag k="ssr:hovedgruppe" v="infrastruktur" />
		<tag k="ssr:stedsnr" v="1078629" />
		<tag k="ssr:type" v="adressenavn" />
	</node>
	<node lat="62.828113673333775" lon="10.46236519799614" id="-79723">
		<tag k="name" v="Endal setervei" />
		<tag k="ssr:date" v="2020-10-16" />
		<tag k="ssr:gruppe" v="veg" />
		<tag k="ssr:hovedgruppe" v="infrastruktur" />
		<tag k="ssr:stedsnr" v="1078630" />
		<tag k="ssr:type" v="adressenavn" />
	</node>
	<node lat="62.768483850084834" lon="10.441117038530177" id="-79724">
		<tag k="name" v="Haugavollveien" />
		<tag k="ssr:date" v="2020-10-16" />
		<tag k="ssr:gruppe" v="veg" />
		<tag k="ssr:hovedgruppe" v="infrastruktur" />
		<tag k="ssr:stedsnr" v="1078631" />
		<tag k="ssr:type" v="adressenavn" />
	</node>
	<node lat="62.748237613718814" lon="10.449612840356409" id="-79725">
		<tag k="name" v="Hiåvollan" />
		<tag k="ssr:date" v="2020-10-16" />
		<tag k="ssr:gruppe" v="veg" />
		<tag k="ssr:hovedgruppe" v="infrastruktur" />
		<tag k="ssr:stedsnr" v="1078632" />
		<tag k="ssr:type" v="adressenavn" />
	</node>
	<node lat="62.724554302576266" lon="10.701575986178003" id="-79726">
		<tag k="name" v="Busetvollan" />
		<tag k="ssr:date" v="2020-10-16" />
		<tag k="ssr:gruppe" v="veg" />
		<tag k="ssr:hovedgruppe" v="infrastruktur" />
		<tag k="ssr:stedsnr" v="1078633" />
		<tag k="ssr:type" v="adressenavn" />
	</node>
	<node lat="62.82755779428443" lon="10.463938449981713" id="-79727">
		<tag k="name" v="Bjørbekkdalen" />
		<tag k="ssr:date" v="2020-10-16" />
		<tag k="ssr:gruppe" v="veg" />
		<tag k="ssr:hovedgruppe" v="infrastruktur" />
		<tag k="ssr:stedsnr" v="1078634" />
		<tag k="ssr:type" v="adressenavn" />
	</node>
	<node lat="62.98705641155917" lon="10.243948741387149" id="-79728">
		<tag k="name" v="Snøan-Strinde" />
		<tag k="ssr:date" v="2020-10-16" />
		<tag k="ssr:gruppe" v="veg" />
		<tag k="ssr:hovedgruppe" v="infrastruktur" />
		<tag k="ssr:stedsnr" v="1078635" />
		<tag k="ssr:type" v="adressenavn" />
	</node>
	<node lat="63.01436717413322" lon="10.434191274976051" id="-79748">
		<tag k="name" v="Aunvollveien" />
		<tag k="ssr:date" v="2021-04-21" />
		<tag k="ssr:gruppe" v="veg" />
		<tag k="ssr:hovedgruppe" v="infrastruktur" />
		<tag k="ssr:stedsnr" v="1080889" />
		<tag k="ssr:type" v="adressenavn" />
	</node>
	<node lat="62.99742677175508" lon="10.439407522625132" id="-79749">
		<tag k="name" v="Refsetvollveien" />
		<tag k="ssr:date" v="2021-04-21" />
		<tag k="ssr:gruppe" v="veg" />
		<tag k="ssr:hovedgruppe" v="infrastruktur" />
		<tag k="ssr:stedsnr" v="1080891" />
		<tag k="ssr:type" v="adressenavn" />
	</node>
	<node lat="62.94433227988893" lon="10.34029020683143" id="-79750">
		<tag k="name" v="Gammelvollveien" />
		<tag k="ssr:date" v="2021-04-21" />
		<tag k="ssr:gruppe" v="veg" />
		<tag k="ssr:hovedgruppe" v="infrastruktur" />
		<tag k="ssr:stedsnr" v="1080892" />
		<tag k="ssr:type" v="adressenavn" />
	</node>
	<node lat="63.027609801409284" lon="10.30238208995087" id="-79751">
		<tag k="name" v="Lekåsveien" />
		<tag k="ssr:date" v="2021-04-21" />
		<tag k="ssr:gruppe" v="veg" />
		<tag k="ssr:hovedgruppe" v="infrastruktur" />
		<tag k="ssr:stedsnr" v="1080893" />
		<tag k="ssr:type" v="adressenavn" />
	</node>
	<node lat="62.87000339264376" lon="10.238690923197913" id="-79752">
		<tag k="name" v="Vindstadveien" />
		<tag k="ssr:date" v="2021-04-21" />
		<tag k="ssr:gruppe" v="veg" />
		<tag k="ssr:hovedgruppe" v="infrastruktur" />
		<tag k="ssr:stedsnr" v="1080895" />
		<tag k="ssr:type" v="adressenavn" />
	</node>
	<node lat="62.93416809506714" lon="10.219484004918465" id="-79753">
		<tag k="name" v="Andabrekka" />
		<tag k="ssr:date" v="2021-04-21" />
		<tag k="ssr:gruppe" v="veg" />
		<tag k="ssr:hovedgruppe" v="infrastruktur" />
		<tag k="ssr:stedsnr" v="1080894" />
		<tag k="ssr:type" v="adressenavn" />
	</node>
	<node lat="62.83584652693536" lon="10.200806171680158" id="-79754">
		<tag k="name" v="Fagerbekkvollveien" />
		<tag k="ssr:date" v="2021-04-21" />
		<tag k="ssr:gruppe" v="veg" />
		<tag k="ssr:hovedgruppe" v="infrastruktur" />
		<tag k="ssr:stedsnr" v="1080897" />
		<tag k="ssr:type" v="adressenavn" />
	</node>
	<node lat="62.81362159160829" lon="10.226684914386206" id="-79755">
		<tag k="name" v="Storslættvollen" />
		<tag k="ssr:date" v="2021-04-21" />
		<tag k="ssr:gruppe" v="veg" />
		<tag k="ssr:hovedgruppe" v="infrastruktur" />
		<tag k="ssr:stedsnr" v="1080899" />
		<tag k="ssr:type" v="adressenavn" />
	</node>
	<node lat="62.81492185254036" lon="10.260512368872472" id="-79756">
		<tag k="name" v="Husmannsdalen" />
		<tag k="ssr:date" v="2021-04-21" />
		<tag k="ssr:gruppe" v="veg" />
		<tag k="ssr:hovedgruppe" v="infrastruktur" />
		<tag k="ssr:stedsnr" v="1080900" />
		<tag k="ssr:type" v="adressenavn" />
	</node>
	<node lat="62.9822940526757" lon="10.199625539095965" id="-79757">
		<tag k="name" v="Holsjøveien" />
		<tag k="ssr:date" v="2021-04-21" />
		<tag k="ssr:gruppe" v="veg" />
		<tag k="ssr:hovedgruppe" v="infrastruktur" />
		<tag k="ssr:stedsnr" v="1080903" />
		<tag k="ssr:type" v="adressenavn" />
	</node>
	<node lat="62.82181665025409" lon="10.269434253375456" id="-79758">
		<tag k="name" v="Eggavollveien" />
		<tag k="ssr:date" v="2021-04-21" />
		<tag k="ssr:gruppe" v="veg" />
		<tag k="ssr:hovedgruppe" v="infrastruktur" />
		<tag k="ssr:stedsnr" v="1080902" />
		<tag k="ssr:type" v="adressenavn" />
	</node>
	<node lat="63.02450068566999" lon="10.139736113280176" id="-79759">
		<tag k="name" v="Skjeftlia" />
		<tag k="ssr:date" v="2021-04-21" />
		<tag k="ssr:gruppe" v="veg" />
		<tag k="ssr:hovedgruppe" v="infrastruktur" />
		<tag k="ssr:stedsnr" v="1080906" />
		<tag k="ssr:type" v="adressenavn" />
	</node>
	<node lat="63.02459499707608" lon="10.141043050204907" id="-79760">
		<tag k="name" v="Brekksætra" />
		<tag k="ssr:date" v="2021-04-21" />
		<tag k="ssr:gruppe" v="veg" />
		<tag k="ssr:hovedgruppe" v="infrastruktur" />
		<tag k="ssr:stedsnr" v="1080905" />
		<tag k="ssr:type" v="adressenavn" />
	</node>
	<node lat="63.0013959126281" lon="10.0661985398259" id="-79761">
		<tag k="name" v="Brekkvollan" />
		<tag k="ssr:date" v="2021-04-21" />
		<tag k="ssr:gruppe" v="veg" />
		<tag k="ssr:hovedgruppe" v="infrastruktur" />
		<tag k="ssr:stedsnr" v="1080907" />
		<tag k="ssr:type" v="adressenavn" />
	</node>
	<node lat="62.90339584719073" lon="10.398793032877006" id="-79762">
		<tag k="name" v="Svarfjellveien" />
		<tag k="ssr:date" v="2021-04-21" />
		<tag k="ssr:gruppe" v="veg" />
		<tag k="ssr:hovedgruppe" v="infrastruktur" />
		<tag k="ssr:stedsnr" v="1080913" />
		<tag k="ssr:type" v="adressenavn" />
	</node>
	<node lat="63.0098862116685" lon="10.046255084331728" id="-79763">
		<tag k="name" v="Butjønnveien" />
		<tag k="ssr:date" v="2021-04-21" />
		<tag k="ssr:gruppe" v="veg" />
		<tag k="ssr:hovedgruppe" v="infrastruktur" />
		<tag k="ssr:stedsnr" v="1080909" />
		<tag k="ssr:type" v="adressenavn" />
	</node>
	<node lat="62.89701123387099" lon="10.366929626975622" id="-79764">
		<tag k="name" v="Storbekkveien" />
		<tag k="ssr:date" v="2021-04-21" />
		<tag k="ssr:gruppe" v="veg" />
		<tag k="ssr:hovedgruppe" v="infrastruktur" />
		<tag k="ssr:stedsnr" v="1080910" />
		<tag k="ssr:type" v="adressenavn" />
	</node>
	<node lat="62.85394998552629" lon="10.33311275496119" id="-79765">
		<tag k="name" v="Kjøttrødsvollveien" />
		<tag k="ssr:date" v="2021-04-21" />
		<tag k="ssr:gruppe" v="veg" />
		<tag k="ssr:hovedgruppe" v="infrastruktur" />
		<tag k="ssr:stedsnr" v="1080911" />
		<tag k="ssr:type" v="adressenavn" />
	</node>
	<node lat="62.83033965313236" lon="10.358901140462264" id="-79766">
		<tag k="name" v="Sørlivollveien" />
		<tag k="ssr:date" v="2021-04-21" />
		<tag k="ssr:gruppe" v="veg" />
		<tag k="ssr:hovedgruppe" v="infrastruktur" />
		<tag k="ssr:stedsnr" v="1080912" />
		<tag k="ssr:type" v="adressenavn" />
	</node>
	<node lat="62.907504623993326" lon="10.131194917898071" id="-79767">
		<tag k="name" v="Bjønnsplassveien" />
		<tag k="ssr:date" v="2021-04-21" />
		<tag k="ssr:gruppe" v="veg" />
		<tag k="ssr:hovedgruppe" v="infrastruktur" />
		<tag k="ssr:stedsnr" v="1080916" />
		<tag k="ssr:type" v="adressenavn" />
	</node>
	<node lat="62.94902839349003" lon="10.187673621321563" id="-79768">
		<tag k="name" v="Stenbakkmoen" />
		<tag k="ssr:date" v="2021-04-21" />
		<tag k="ssr:gruppe" v="veg" />
		<tag k="ssr:hovedgruppe" v="infrastruktur" />
		<tag k="ssr:stedsnr" v="1080914" />
		<tag k="ssr:type" v="adressenavn" />
	</node>
	<node lat="63.0438390436785" lon="10.590210653060096" id="-79769">
		<tag k="name" v="Åsvollen" />
		<tag k="ssr:date" v="2021-04-21" />
		<tag k="ssr:gruppe" v="veg" />
		<tag k="ssr:hovedgruppe" v="infrastruktur" />
		<tag k="ssr:stedsnr" v="1080918" />
		<tag k="ssr:type" v="adressenavn" />
	</node>
	<node lat="62.825655251433346" lon="10.501497233824988" id="-79770">
		<tag k="name" v="Gammelvollia" />
		<tag k="ssr:date" v="2021-04-21" />
		<tag k="ssr:gruppe" v="veg" />
		<tag k="ssr:hovedgruppe" v="infrastruktur" />
		<tag k="ssr:stedsnr" v="1080930" />
		<tag k="ssr:type" v="adressenavn" />
	</node>
	<node lat="63.04508559981838" lon="10.597031782356561" id="-79771">
		<tag k="name" v="Hengberget hyttefelt" />
		<tag k="ssr:date" v="2021-04-21" />
		<tag k="ssr:gruppe" v="veg" />
		<tag k="ssr:hovedgruppe" v="infrastruktur" />
		<tag k="ssr:stedsnr" v="1080919" />
		<tag k="ssr:type" v="adressenavn" />
	</node>
	<node lat="62.821381678389606" lon="10.524237308293985" id="-79772">
		<tag k="name" v="Bjørkåsmarka" />
		<tag k="ssr:date" v="2021-04-21" />
		<tag k="ssr:gruppe" v="veg" />
		<tag k="ssr:hovedgruppe" v="infrastruktur" />
		<tag k="ssr:stedsnr" v="1080920" />
		<tag k="ssr:type" v="adressenavn" />
	</node>
	<node lat="63.07210242159948" lon="10.709750975259814" id="-79773">
		<tag k="name" v="Nognillosen hyttefelt" />
		<tag k="ssr:date" v="2021-04-21" />
		<tag k="ssr:gruppe" v="veg" />
		<tag k="ssr:hovedgruppe" v="infrastruktur" />
		<tag k="ssr:stedsnr" v="1080921" />
		<tag k="ssr:type" v="adressenavn" />
	</node>
	<node lat="63.10700242737263" lon="10.628582156419002" id="-79774">
		<tag k="name" v="Røsbjørgvollveien" />
		<tag k="ssr:date" v="2021-04-21" />
		<tag k="ssr:gruppe" v="veg" />
		<tag k="ssr:hovedgruppe" v="infrastruktur" />
		<tag k="ssr:stedsnr" v="1080922" />
		<tag k="ssr:type" v="adressenavn" />
	</node>
	<node lat="62.95434577809227" lon="10.741531600234858" id="-79775">
		<tag k="name" v="Singsåsmoen" />
		<tag k="ssr:date" v="2021-04-21" />
		<tag k="ssr:gruppe" v="veg" />
		<tag k="ssr:hovedgruppe" v="infrastruktur" />
		<tag k="ssr:stedsnr" v="1080923" />
		<tag k="ssr:type" v="adressenavn" />
	</node>
	<node lat="62.9569866462022" lon="10.843442278955704" id="-79776">
		<tag k="name" v="Skjulungveien" />
		<tag k="ssr:date" v="2021-04-21" />
		<tag k="ssr:gruppe" v="veg" />
		<tag k="ssr:hovedgruppe" v="infrastruktur" />
		<tag k="ssr:stedsnr" v="1080924" />
		<tag k="ssr:type" v="adressenavn" />
	</node>
	<node lat="62.93479058437494" lon="10.900356123873696" id="-79777">
		<tag k="name" v="Henddalsveien" />
		<tag k="ssr:date" v="2021-04-21" />
		<tag k="ssr:gruppe" v="veg" />
		<tag k="ssr:hovedgruppe" v="infrastruktur" />
		<tag k="ssr:stedsnr" v="1080925" />
		<tag k="ssr:type" v="adressenavn" />
	</node>
	<node lat="62.958760478337766" lon="10.939717918196116" id="-79778">
		<tag k="name" v="Dragåsveien" />
		<tag k="ssr:date" v="2021-04-21" />
		<tag k="ssr:gruppe" v="veg" />
		<tag k="ssr:hovedgruppe" v="infrastruktur" />
		<tag k="ssr:stedsnr" v="1080926" />
		<tag k="ssr:type" v="adressenavn" />
	</node>
	<node lat="62.84460070027062" lon="10.444140508134637" id="-79779">
		<tag k="name" v="Maureggmarka" />
		<tag k="ssr:date" v="2021-04-21" />
		<tag k="ssr:gruppe" v="veg" />
		<tag k="ssr:hovedgruppe" v="infrastruktur" />
		<tag k="ssr:stedsnr" v="1080927" />
		<tag k="ssr:type" v="adressenavn" />
	</node>
	<node lat="62.88191278064059" lon="10.495811102458354" id="-79780">
		<tag k="name" v="Tågåmoveien" />
		<tag k="ssr:date" v="2021-04-21" />
		<tag k="ssr:gruppe" v="veg" />
		<tag k="ssr:hovedgruppe" v="infrastruktur" />
		<tag k="ssr:stedsnr" v="1080928" />
		<tag k="ssr:type" v="adressenavn" />
	</node>
	<node lat="62.81849137255755" lon="10.560310153704984" id="-79781">
		<tag k="name" v="Plasshaugan" />
		<tag k="ssr:date" v="2021-04-21" />
		<tag k="ssr:gruppe" v="veg" />
		<tag k="ssr:hovedgruppe" v="infrastruktur" />
		<tag k="ssr:stedsnr" v="1080929" />
		<tag k="ssr:type" v="adressenavn" />
	</node>
	<node lat="62.94561880006991" lon="10.188864525281295" id="-79782">
		<tag k="name" v="Kongeveien" />
		<tag k="ssr:date" v="2021-04-21" />
		<tag k="ssr:gruppe" v="veg" />
		<tag k="ssr:hovedgruppe" v="infrastruktur" />
		<tag k="ssr:stedsnr" v="1080931" />
		<tag k="ssr:type" v="adressenavn" />
	</node>
	<node lat="62.8209507786106" lon="10.454538153828876" id="-79783">
		<tag k="name" v="Sønmoveien" />
		<tag k="ssr:date" v="2021-04-21" />
		<tag k="ssr:gruppe" v="veg" />
		<tag k="ssr:hovedgruppe" v="infrastruktur" />
		<tag k="ssr:stedsnr" v="1080932" />
		<tag k="ssr:type" v="adressenavn" />
	</node>
	<node lat="63.00296972203826" lon="10.138267665753608" id="-79784">
		<tag k="name" v="Prestfjellveien" />
		<tag k="ssr:date" v="2021-04-21" />
		<tag k="ssr:gruppe" v="veg" />
		<tag k="ssr:hovedgruppe" v="infrastruktur" />
		<tag k="ssr:stedsnr" v="1080904" />
		<tag k="ssr:type" v="adressenavn" />
	</node>
	<node lat="62.85460801675092" lon="10.241995001260952" id="-79785">
		<tag k="name" v="Bjørgaveien" />
		<tag k="ssr:date" v="2021-06-21" />
		<tag k="ssr:gruppe" v="veg" />
		<tag k="ssr:hovedgruppe" v="infrastruktur" />
		<tag k="ssr:stedsnr" v="1081577" />
		<tag k="ssr:type" v="adressenavn" />
	</node>
	<node lat="63.008140592684036" lon="10.479367816712138" id="-79786">
		<tag k="name" v="Håliveien" />
		<tag k="ssr:date" v="2021-06-21" />
		<tag k="ssr:gruppe" v="veg" />
		<tag k="ssr:hovedgruppe" v="infrastruktur" />
		<tag k="ssr:stedsnr" v="1081575" />
		<tag k="ssr:type" v="adressenavn" />
	</node>
	<node lat="63.082795584776584" lon="10.430168079633535" id="-79787">
		<tag k="name" v="Bysvollvegen" />
		<tag k="ssr:date" v="2021-06-21" />
		<tag k="ssr:gruppe" v="veg" />
		<tag k="ssr:hovedgruppe" v="infrastruktur" />
		<tag k="ssr:stedsnr" v="1081576" />
		<tag k="ssr:type" v="adressenavn" />
	</node>
	<node lat="62.89719260758215" lon="10.21632862563451" id="-79788">
		<tag k="name" v="Haugen" />
		<tag k="ssr:date" v="2021-06-21" />
		<tag k="ssr:gruppe" v="veg" />
		<tag k="ssr:hovedgruppe" v="infrastruktur" />
		<tag k="ssr:stedsnr" v="1081578" />
		<tag k="ssr:type" v="adressenavn" />
	</node>
	<node lat="63.088823702209694" lon="10.484713666483842" id="-79789">
		<tag k="name" v="Løkkjvollveien" />
		<tag k="ssr:date" v="2021-06-21" />
		<tag k="ssr:gruppe" v="veg" />
		<tag k="ssr:hovedgruppe" v="infrastruktur" />
		<tag k="ssr:stedsnr" v="1081580" />
		<tag k="ssr:type" v="adressenavn" />
	</node>
	<node lat="63.08997177360599" lon="10.544451902468948" id="-79790">
		<tag k="name" v="Odalsvegen" />
		<tag k="ssr:date" v="2021-06-21" />
		<tag k="ssr:gruppe" v="veg" />
		<tag k="ssr:hovedgruppe" v="infrastruktur" />
		<tag k="ssr:stedsnr" v="1081581" />
		<tag k="ssr:type" v="adressenavn" />
	</node>
	<node lat="62.974797180286664" lon="10.95792394268747" id="-79791">
		<tag k="name" v="Haltdalsvegen" />
		<tag k="ssr:date" v="2021-06-21" />
		<tag k="ssr:gruppe" v="veg" />
		<tag k="ssr:hovedgruppe" v="infrastruktur" />
		<tag k="ssr:stedsnr" v="1081583" />
		<tag k="ssr:type" v="adressenavn" />
	</node>
	<node lat="63.09260771949743" lon="10.580585529550572" id="-79792">
		<tag k="name" v="Holvollvegen" />
		<tag k="ssr:date" v="2021-06-21" />
		<tag k="ssr:gruppe" v="veg" />
		<tag k="ssr:hovedgruppe" v="infrastruktur" />
		<tag k="ssr:stedsnr" v="1081582" />
		<tag k="ssr:type" v="adressenavn" />
	</node>
	<node lat="62.92055470760348" lon="10.21052349441131" id="-79793">
		<tag k="name" v="Aunbakkveien" />
		<tag k="ssr:date" v="2021-06-21" />
		<tag k="ssr:gruppe" v="veg" />
		<tag k="ssr:hovedgruppe" v="infrastruktur" />
		<tag k="ssr:stedsnr" v="1081584" />
		<tag k="ssr:type" v="adressenavn" />
	</node>
	<node lat="62.90610548206081" lon="10.134547056138407" id="-79794">
		<tag k="name" v="Liin" />
		<tag k="ssr:date" v="2021-06-21" />
		<tag k="ssr:gruppe" v="veg" />
		<tag k="ssr:hovedgruppe" v="infrastruktur" />
		<tag k="ssr:stedsnr" v="1081586" />
		<tag k="ssr:type" v="adressenavn" />
	</node>
	<node lat="63.03142892237741" lon="10.29606252756761" id="-79795">
		<tag k="name" v="Skårvollveien" />
		<tag k="ssr:date" v="2021-06-21" />
		<tag k="ssr:gruppe" v="veg" />
		<tag k="ssr:hovedgruppe" v="infrastruktur" />
		<tag k="ssr:stedsnr" v="1081585" />
		<tag k="ssr:type" v="adressenavn" />
	</node>
	<node lat="62.862827816991576" lon="10.781949183107185" id="-79796">
		<tag k="name" v="Lerbekkveien" />
		<tag k="ssr:date" v="2021-06-21" />
		<tag k="ssr:gruppe" v="veg" />
		<tag k="ssr:hovedgruppe" v="infrastruktur" />
		<tag k="ssr:stedsnr" v="1081587" />
		<tag k="ssr:type" v="adressenavn" />
	</node>
	<node lat="62.96639652324736" lon="10.191671057284626" id="-79797">
		<tag k="name" v="Bordalsveien" />
		<tag k="ssr:date" v="2021-06-21" />
		<tag k="ssr:gruppe" v="veg" />
		<tag k="ssr:hovedgruppe" v="infrastruktur" />
		<tag k="ssr:stedsnr" v="1081588" />
		<tag k="ssr:type" v="adressenavn" />
	</node>
	<node lat="63.08950055355442" lon="10.484371851311266" id="-79798">
		<tag k="name" v="Skjeldbreidalen" />
		<tag k="ssr:date" v="2021-06-21" />
		<tag k="ssr:gruppe" v="veg" />
		<tag k="ssr:hovedgruppe" v="infrastruktur" />
		<tag k="ssr:stedsnr" v="1081589" />
		<tag k="ssr:type" v="adressenavn" />
	</node>
	<node lat="63.07106578226494" lon="10.70717550075093" id="-79799">
		<tag k="name" v="Rensfjellveien" />
		<tag k="ssr:date" v="2021-06-21" />
		<tag k="ssr:gruppe" v="veg" />
		<tag k="ssr:hovedgruppe" v="infrastruktur" />
		<tag k="ssr:stedsnr" v="1081590" />
		<tag k="ssr:type" v="adressenavn" />
	</node>
	<node lat="62.94387990802473" lon="10.642070315821288" id="-79805">
		<tag k="name" v="Melaveien" />
		<tag k="ssr:date" v="2021-11-15" />
		<tag k="ssr:gruppe" v="veg" />
		<tag k="ssr:hovedgruppe" v="infrastruktur" />
		<tag k="ssr:stedsnr" v="1082893" />
		<tag k="ssr:type" v="adressenavn" />
	</node>
	<node lat="62.91524623041509" lon="10.32290074553993" id="-79806">
		<tag k="name" v="Nedre Håkkådalsvei" />
		<tag k="ssr:date" v="2021-11-15" />
		<tag k="ssr:gruppe" v="veg" />
		<tag k="ssr:hovedgruppe" v="infrastruktur" />
		<tag k="ssr:stedsnr" v="1082894" />
		<tag k="ssr:type" v="adressenavn" />
	</node>
	<node lat="62.91650385313181" lon="10.293758464678234" id="-79807">
		<tag k="name" v="Øvre Håkkådalsvei" />
		<tag k="ssr:date" v="2021-11-15" />
		<tag k="ssr:gruppe" v="veg" />
		<tag k="ssr:hovedgruppe" v="infrastruktur" />
		<tag k="ssr:stedsnr" v="1082895" />
		<tag k="ssr:type" v="adressenavn" />
	</node>
	<node lat="62.98029287468004" lon="10.89194079775768" id="-79808">
		<tag k="name" v="Ørtsjøveien" />
		<tag k="ssr:date" v="2021-11-15" />
		<tag k="ssr:gruppe" v="veg" />
		<tag k="ssr:hovedgruppe" v="infrastruktur" />
		<tag k="ssr:stedsnr" v="1082896" />
		<tag k="ssr:type" v="adressenavn" />
	</node>
	<node lat="63.056907261277054" lon="10.224114018909953" id="-79809">
		<tag k="name" v="Prestvollvegen" />
		<tag k="ssr:date" v="2021-11-15" />
		<tag k="ssr:gruppe" v="veg" />
		<tag k="ssr:hovedgruppe" v="infrastruktur" />
		<tag k="ssr:stedsnr" v="1082897" />
		<tag k="ssr:type" v="adressenavn" />
	</node>
</osm>
