<?xml version="1.0" encoding="UTF-8"?>
<osm generator="osmapis" version="0.6">
	<node id="-371189" lat="61.823388887" lon="9.76507500415">
		<tag k="historic" v="boundary_stone" />
		<tag k="man_made" v="cairn" />
		<tag k="name" v="Tunga" />
		<tag k="place" v="locality" />
		<tag k="ssr:stedsnr" v="534282" />
	</node>
	<node id="-370896" lat="61.8540055535" lon="9.8085611063">
		<tag k="fixme" v="consider boundary=protected_area and relevant protect_class if not nature reserve" />
		<tag k="leisure" v="nature_reserve" />
		<tag k="name" v="Rondane nasjonalpark" />
		<tag k="ssr:stedsnr" v="328184" />
	</node>
	<node id="-370670" lat="61.6091333339" lon="9.78738889384">
		<tag k="fixme" v="consider boundary=protected_area and relevant protect_class if not nature reserve" />
		<tag k="leisure" v="nature_reserve" />
		<tag k="name" v="Sula naturreservat" />
		<tag k="ssr:stedsnr" v="120472" />
	</node>
	<node id="-371917" lat="61.5879154393" lon="9.8285120527">
		<tag k="fixme" v="multiple name tags, choose one and add the other to alt_name; consider boundary=protected_area and relevant protect_class if not nature reserve" />
		<tag k="leisure" v="nature_reserve" />
		<tag k="name" v="Solbrålia og Stordalsberget naturreservat;Solbrålia naturreservat" />
		<tag k="ssr:stedsnr" v="971439" />
	</node>
	<node id="-371716" lat="61.8179666689" lon="9.77290832492">
		<tag k="name" v="Vulufjell statsallmenning" />
		<tag k="place" v="locality" />
		<tag k="ssr:stedsnr" v="838332" />
	</node>
	<node id="-371938" lat="61.5784390961" lon="9.54045956014">
		<tag k="fixme" v="consider boundary=protected_area and relevant protect_class if not nature reserve" />
		<tag k="leisure" v="nature_reserve" />
		<tag k="name" v="Vinstradalen naturreservat" />
		<tag k="ssr:stedsnr" v="985575" />
	</node>
</osm>
