<?xml version="1.0" encoding="UTF-8"?>
<osm version="0.6" generator="osmapis">
	<node lat="61.571922218501754" lon="9.76225554831632" id="-20744">
		<tag k="name" v="Skinnegeilen" />
		<tag k="place" v="locality" />
		<tag k="ssr:stedsnr" v="234973" />
	</node>
	<node lat="61.58686944138254" lon="9.645827769984603" id="-20750">
		<tag k="name" v="Kringelmyra" />
		<tag k="natural" v="wetland" />
		<tag k="ssr:stedsnr" v="235076" />
	</node>
	<node lat="61.52397221869259" lon="9.573936108438426" id="-20752">
		<tag k="name" v="Nermokvea" />
		<tag k="place" v="locality" />
		<tag k="ssr:stedsnr" v="235131" />
	</node>
	<node lat="61.5687944476039" lon="9.589386115256973" id="-20756">
		<tag k="name" v="Vistadfyru" />
		<tag k="place" v="locality" />
		<tag k="ssr:stedsnr" v="235175" />
	</node>
	<node lat="61.616077780220095" lon="9.789613884292951" id="-20758">
		<tag k="name" v="GrÃ¥ura" />
		<tag k="natural" v="scree" />
		<tag k="ssr:stedsnr" v="235117" />
	</node>
	<node lat="61.62061389333359" lon="9.710658334682117" id="-20764">
		<tag k="name" v="Einstapplykkja" />
		<tag k="place" v="locality" />
		<tag k="ssr:stedsnr" v="235445" />
	</node>
	<node lat="61.563994442320116" lon="9.498699992294133" id="-20765">
		<tag k="name" v="Merramyra" />
		<tag k="natural" v="wetland" />
		<tag k="ssr:stedsnr" v="235452" />
	</node>
	<node lat="61.539138885643695" lon="9.75202222934739" id="-20769">
		<tag k="name" v="Rudlandsdokka" />
		<tag k="place" v="locality" />
		<tag k="ssr:stedsnr" v="235470" />
	</node>
</osm>
