<?xml version="1.0" encoding="UTF-8"?>
<osm version="0.6" generator="osmapis">
	<node lat="61.77754167106066" lon="9.724036115459015" id="-20674">
		<tag k="name" v="Furusjøen" />
		<tag k="natural" v="water" />
		<tag k="ssr:stedsnr" v="253579" />
		<tag k="water" v="lake" />
	</node>
	<node lat="61.471669445570015" lon="9.15568055532209" id="-20676">
		<tag k="name" v="Hinøgla" />
		<tag k="ssr:stedsnr" v="7261" />
		<tag k="waterway" v="river" />
	</node>
	<node lat="61.350311107998785" lon="9.191305553818783" id="-20678">
		<tag k="name" v="Småosan" />
		<tag k="natural" v="bay" />
		<tag k="ssr:stedsnr" v="8052" />
	</node>
	<node lat="61.398636115392726" lon="9.231524993406433" id="-20679">
		<tag k="alt_name" v="Raudaurbekken" />
		<tag k="name" v="Rauaurbekken" />
		<tag k="ssr:stedsnr" v="8491" />
		<tag k="waterway" v="stream" />
	</node>
	<node lat="61.75356944587367" lon="9.813686117387252" id="-20682">
		<tag k="name" v="Hølmin" />
		<tag k="place" v="islet" />
		<tag k="ssr:stedsnr" v="232445" />
	</node>
	<node lat="61.76688611121677" lon="9.736824994087879" id="-20683">
		<tag k="name" v="Steinholmen" />
		<tag k="place" v="islet" />
		<tag k="ssr:stedsnr" v="10495" />
	</node>
	<node lat="61.766349999542875" lon="9.826775002432594" id="-20684">
		<tag k="name" v="Buåa" />
		<tag k="ssr:stedsnr" v="10496" />
		<tag k="waterway" v="stream" />
	</node>
	<node lat="61.66322777482015" lon="9.570055560382164" id="-20685">
		<tag k="alt_name" v="Skuløya" />
		<tag k="name" v="Skurdøya" />
		<tag k="place" v="island" />
		<tag k="ssr:stedsnr" v="10500" />
	</node>
	<node lat="61.55669444811208" lon="9.773016663337705" id="-20690">
		<tag k="alt_name" v="Jora" />
		<tag k="name" v="Jorda" />
		<tag k="ssr:stedsnr" v="10616" />
		<tag k="waterway" v="stream" />
	</node>
	<node lat="61.60462777365616" lon="9.522138895668574" id="-20695">
		<tag k="alt_name" v="Masdøla" />
		<tag k="name" v="Massdøla" />
		<tag k="ssr:stedsnr" v="10540" />
		<tag k="waterway" v="stream" />
	</node>
	<node lat="61.50075833063138" lon="9.204211115886247" id="-20708">
		<tag k="alt_name" v="Kaldtjørna" />
		<tag k="name" v="Kaldtjønna" />
		<tag k="natural" v="water" />
		<tag k="ssr:stedsnr" v="10887" />
	</node>
	<node lat="61.51614722641213" lon="9.281561116629089" id="-20724">
		<tag k="name" v="Vesledammen" />
		<tag k="ssr:stedsnr" v="234347" />
		<tag k="waterway" v="dam" />
	</node>
	<node lat="61.47722777787697" lon="9.354755561924817" id="-20726">
		<tag k="name" v="Slangslona" />
		<tag k="natural" v="water" />
		<tag k="ssr:stedsnr" v="234524" />
		<tag k="water" v="lake" />
	</node>
	<node lat="61.364647219384246" lon="9.275408330422218" id="-20728">
		<tag k="name" v="Vesletjønnbekken" />
		<tag k="ssr:stedsnr" v="234557" />
		<tag k="waterway" v="stream" />
	</node>
	<node lat="61.50441389074703" lon="9.496333332957652" id="-20731">
		<tag k="name" v="Hattlonin" />
		<tag k="natural" v="water" />
		<tag k="ssr:stedsnr" v="234641" />
		<tag k="water" v="lake" />
	</node>
	<node lat="61.53848611204759" lon="9.55384444722274" id="-20748">
		<tag k="name" v="Blautmyrbekken" />
		<tag k="ssr:stedsnr" v="235062" />
		<tag k="waterway" v="stream" />
	</node>
	<node lat="61.59231666613579" lon="9.401922215396825" id="-20771">
		<tag k="name" v="Vesle Breistultjønn" />
		<tag k="natural" v="water" />
		<tag k="ssr:stedsnr" v="235532" />
	</node>
</osm>
