<?xml version="1.0" encoding="UTF-8"?>
<osm version="0.6" generator="osmapis">
	<node lat="61.60553055396531" lon="9.762213893833433" id="-20675">
		<tag k="alt_name" v="Øvre Brenna" />
		<tag k="name" v="Brenna" />
		<tag k="place" v="farm" />
		<tag k="ssr:stedsnr" v="253581" />
	</node>
	<node lat="61.58548055988542" lon="9.307655549235042" id="-20677">
		<tag k="name" v="Ungstadbua" />
		<tag k="place" v="isolated_dwelling" />
		<tag k="ssr:stedsnr" v="231112" />
	</node>
	<node lat="61.411630551482766" lon="9.355150007320203" id="-20680">
		<tag k="historic" v="shieling" />
		<tag k="name" v="Melbysætra" />
		<tag k="place" v="isolated_dwelling" />
		<tag k="ssr:stedsnr" v="8495" />
	</node>
	<node lat="61.75929444348869" lon="9.817891668136182" id="-20681">
		<tag k="historic" v="shieling" />
		<tag k="name" v="Knipsætra" />
		<tag k="place" v="isolated_dwelling" />
		<tag k="ssr:stedsnr" v="232440" />
	</node>
	<node lat="61.58320833125829" lon="9.725263888448387" id="-20686">
		<tag k="alt_name" v="Bryn" />
		<tag k="name" v="Nordgard Bryn" />
		<tag k="place" v="farm" />
		<tag k="ssr:stedsnr" v="10603" />
	</node>
	<node lat="61.5881071279214" lon="9.77245901375689" id="-20687">
		<tag k="fixme" v="consider place=hamlet" />
		<tag k="name" v="Moen" />
		<tag k="place" v="farm" />
		<tag k="ssr:stedsnr" v="10605" />
	</node>
	<node lat="61.52194721846629" lon="9.391061105842747" id="-20688">
		<tag k="name" v="Kamsli" />
		<tag k="place" v="farm" />
		<tag k="ssr:stedsnr" v="10612" />
	</node>
	<node lat="61.52240209426054" lon="9.39970329125216" id="-20691">
		<tag k="fixme" v="consider place=hamlet" />
		<tag k="name" v="Kampesæter" />
		<tag k="old_name" v="Kampeseter" />
		<tag k="place" v="farm" />
		<tag k="ssr:stedsnr" v="10638" />
	</node>
	<node lat="61.61930025468207" lon="9.838295808613248" id="-20692">
		<tag k="historic" v="shieling" />
		<tag k="name" v="Nysætra" />
		<tag k="old_name" v="Nysæter" />
		<tag k="place" v="isolated_dwelling" />
		<tag k="ssr:stedsnr" v="10501" />
	</node>
	<node lat="61.59024441598366" lon="9.787971484146409" id="-20693">
		<tag k="name" v="Brandvol" />
		<tag k="old_name" v="Brandvoll" />
		<tag k="place" v="hamlet" />
		<tag k="ssr:stedsnr" v="10532" />
	</node>
	<node lat="61.592508337738884" lon="9.743141664558893" id="-20694">
		<tag k="alt_name" v="Ytre Odden" />
		<tag k="name" v="Odden" />
		<tag k="place" v="farm" />
		<tag k="ssr:stedsnr" v="10537" />
	</node>
	<node lat="61.57542427502256" lon="9.732972018358993" id="-20697">
		<tag k="alt_name" v="Stor-Lunde" />
		<tag k="fixme" v="consider place=hamlet" />
		<tag k="name" v="Storlunde" />
		<tag k="place" v="farm" />
		<tag k="ssr:stedsnr" v="10585" />
	</node>
	<node lat="61.574819442398" lon="9.737802768517518" id="-20698">
		<tag k="fixme" v="consider place=hamlet" />
		<tag k="name" v="Ruste" />
		<tag k="place" v="village" />
		<tag k="ssr:stedsnr" v="10587" />
	</node>
	<node lat="61.580572218416755" lon="9.66122776926253" id="-20699">
		<tag k="name" v="Åsgård" />
		<tag k="old_name" v="Åsgard" />
		<tag k="place" v="farm" />
		<tag k="ssr:stedsnr" v="10596" />
	</node>
	<node lat="61.5878505413216" lon="9.710564086550416" id="-20701">
		<tag k="fixme" v="consider place=hamlet" />
		<tag k="name" v="Lo" />
		<tag k="place" v="farm" />
		<tag k="ssr:stedsnr" v="10599" />
	</node>
	<node lat="61.665000001109675" lon="9.687733324528143" id="-20702">
		<tag k="name" v="Kvam" />
		<tag k="place" v="village" />
		<tag k="ssr:stedsnr" v="10706" />
	</node>
	<node lat="61.662694107282896" lon="9.725765166836764" id="-20703">
		<tag k="fixme" v="consider place=hamlet" />
		<tag k="name" v="Vik" />
		<tag k="place" v="farm" />
		<tag k="ssr:stedsnr" v="10708" />
	</node>
	<node lat="61.66943333694424" lon="9.580452775352022" id="-20704">
		<tag k="name" v="Bjørkerusta" />
		<tag k="place" v="hamlet" />
		<tag k="ssr:stedsnr" v="10735" />
	</node>
	<node lat="61.660375002339016" lon="9.687324993702905" id="-20705">
		<tag k="name" v="Lia" />
		<tag k="place" v="farm" />
		<tag k="ssr:stedsnr" v="10740" />
	</node>
	<node lat="61.65560277534045" lon="9.60768889368776" id="-20706">
		<tag k="fixme" v="multiple name tags, choose one and add the other to alt_name" />
		<tag k="name" v="Feten;Ruststugufeten" />
		<tag k="place" v="farm" />
		<tag k="ssr:stedsnr" v="10742" />
	</node>
	<node lat="61.50900000361033" lon="9.136749994293918" id="-20707">
		<tag k="historic" v="shieling" />
		<tag k="name" v="Åkresætra" />
		<tag k="place" v="isolated_dwelling" />
		<tag k="ssr:stedsnr" v="10883" />
	</node>
	<node lat="61.76114166977311" lon="9.763466660518489" id="-20709">
		<tag k="alt_name" v="Hovdesætrin" />
		<tag k="historic" v="shieling" />
		<tag k="name" v="Hovde" />
		<tag k="place" v="isolated_dwelling" />
		<tag k="ssr:stedsnr" v="11509" />
	</node>
	<node lat="61.69424166886986" lon="9.59720556154749" id="-20710">
		<tag k="historic" v="shieling" />
		<tag k="name" v="Søre Kolloen seter" />
		<tag k="place" v="isolated_dwelling" />
		<tag k="ssr:stedsnr" v="231945" />
	</node>
	<node lat="61.709708335054" lon="9.887916663935224" id="-20713">
		<tag k="historic" v="shieling" />
		<tag k="name" v="Hågåsætra" />
		<tag k="place" v="isolated_dwelling" />
		<tag k="ssr:stedsnr" v="233766" />
	</node>
	<node lat="61.667061107607466" lon="9.774427769456654" id="-20719">
		<tag k="historic" v="shieling" />
		<tag k="name" v="Lundsætra" />
		<tag k="place" v="isolated_dwelling" />
		<tag k="ssr:stedsnr" v="235046" />
	</node>
	<node lat="61.52312500291544" lon="9.400474999847672" id="-20720">
		<tag k="name" v="Kampesæter Fjellstue" />
		<tag k="ssr:stedsnr" v="234271" />
		<tag k="tourism" v="hotel" />
	</node>
	<node lat="61.51477500128588" lon="9.435583341547646" id="-20722">
		<tag k="name" v="Lysgård" />
		<tag k="place" v="isolated_dwelling" />
		<tag k="ssr:stedsnr" v="234275" />
	</node>
	<node lat="61.51950277895501" lon="9.386508336854483" id="-20723">
		<tag k="name" v="Nordre Lia" />
		<tag k="place" v="farm" />
		<tag k="ssr:stedsnr" v="234342" />
	</node>
	<node lat="61.668224997059184" lon="9.718447223659451" id="-20730">
		<tag k="name" v="Lunde" />
		<tag k="place" v="isolated_dwelling" />
		<tag k="ssr:stedsnr" v="234718" />
	</node>
	<node lat="61.50748610749261" lon="9.496836106299861" id="-20733">
		<tag k="historic" v="shieling" />
		<tag k="name" v="Lykkjesætra" />
		<tag k="place" v="isolated_dwelling" />
		<tag k="ssr:stedsnr" v="234645" />
	</node>
	<node lat="61.50162222553406" lon="9.15242777612652" id="-20735">
		<tag k="name" v="Grauphågånaustet" />
		<tag k="place" v="locality" />
		<tag k="ssr:stedsnr" v="234676" />
	</node>
	<node lat="61.697424997531954" lon="9.90597777280338" id="-20739">
		<tag k="historic" v="shieling" />
		<tag k="name" v="Hågåstugusætra" />
		<tag k="place" v="isolated_dwelling" />
		<tag k="ssr:stedsnr" v="234753" />
	</node>
	<node lat="61.56725555271287" lon="9.790797213391633" id="-20743">
		<tag k="name" v="Bakkalykkja" />
		<tag k="place" v="locality" />
		<tag k="ssr:stedsnr" v="234966" />
	</node>
	<node lat="61.58596388737079" lon="9.798316657991464" id="-20747">
		<tag k="name" v="Kjørrasletta" />
		<tag k="place" v="isolated_dwelling" />
		<tag k="ssr:stedsnr" v="235017" />
	</node>
	<node lat="61.52678055422647" lon="9.562122222039616" id="-20751">
		<tag k="historic" v="shieling" />
		<tag k="name" v="Nørdre-Dalssætra" />
		<tag k="place" v="isolated_dwelling" />
		<tag k="ssr:stedsnr" v="235128" />
	</node>
	<node lat="61.522924997188085" lon="9.591358341216319" id="-20754">
		<tag k="historic" v="shieling" />
		<tag k="name" v="Brånåsætra" />
		<tag k="place" v="isolated_dwelling" />
		<tag k="ssr:stedsnr" v="235137" />
	</node>
	<node lat="61.523491668235074" lon="9.588180560490652" id="-20755">
		<tag k="historic" v="shieling" />
		<tag k="name" v="Øverlisætra" />
		<tag k="place" v="isolated_dwelling" />
		<tag k="ssr:stedsnr" v="235138" />
	</node>
	<node lat="61.60333055461193" lon="9.799927778163253" id="-20759">
		<tag k="name" v="Klodstugu" />
		<tag k="place" v="farm" />
		<tag k="ssr:stedsnr" v="235125" />
	</node>
	<node lat="61.57704444878797" lon="9.53442777373678" id="-20761">
		<tag k="name" v="Søre Korpberget" />
		<tag k="place" v="farm" />
		<tag k="ssr:stedsnr" v="235440" />
	</node>
	<node lat="61.615574163749905" lon="9.73196806624934" id="-20762">
		<tag k="fixme" v="consider place=hamlet" />
		<tag k="name" v="Øvre Vika" />
		<tag k="place" v="farm" />
		<tag k="ssr:stedsnr" v="235505" />
	</node>
	<node lat="61.614069786208724" lon="9.734348278631069" id="-20763">
		<tag k="fixme" v="consider place=hamlet" />
		<tag k="name" v="Slettvika" />
		<tag k="place" v="farm" />
		<tag k="ssr:stedsnr" v="235509" />
	</node>
	<node lat="61.5536388892461" lon="9.497561120253744" id="-20766">
		<tag k="name" v="Sørås" />
		<tag k="place" v="farm" />
		<tag k="ssr:stedsnr" v="235458" />
	</node>
	<node lat="61.602228274661805" lon="9.384642671280861" id="-20770">
		<tag k="name" v="Måsåbuin" />
		<tag k="place" v="locality" />
		<tag k="ssr:stedsnr" v="235531" />
	</node>
	<node lat="61.65736944321014" lon="9.658172214698135" id="-20774">
		<tag k="name" v="Stromlyu" />
		<tag k="place" v="locality" />
		<tag k="ssr:stedsnr" v="235627" />
	</node>
	<node lat="61.65691111477377" lon="9.648977772403786" id="-20775">
		<tag k="name" v="Andersheimen" />
		<tag k="place" v="locality" />
		<tag k="ssr:stedsnr" v="235629" />
	</node>
	<node lat="61.66623423307257" lon="9.661964812267632" id="-20776">
		<tag k="name" v="Søre Bergum" />
		<tag k="place" v="farm" />
		<tag k="ssr:stedsnr" v="235642" />
	</node>
	<node lat="61.664074996377614" lon="9.654827779758643" id="-20777">
		<tag k="name" v="Ivastugu" />
		<tag k="place" v="locality" />
		<tag k="ssr:stedsnr" v="235646" />
	</node>
	<node lat="61.60223497709228" lon="9.716321551351044" id="-20778">
		<tag k="loc_name" v="Givervollen" />
		<tag k="name" v="Givervolden" />
		<tag k="place" v="locality" />
		<tag k="ssr:stedsnr" v="235524" />
	</node>
</osm>
