<?xml version="1.0" encoding="UTF-8"?>
<osm generator="osmapis" version="0.6">
	<node id="-45344" lat="61.6387944438" lon="9.5933166598">
		<tag k="name" v="Gammelsaga" />
		<tag k="place" v="locality" />
		<tag k="ssr:stedsnr" v="113891" />
	</node>
	<node id="-43568" lat="61.6044777764" lon="9.46436667597">
		<tag k="alt_name" v="Knivsteinan" />
		<tag k="name" v="Knivsteinen" />
		<tag k="place" v="locality" />
		<tag k="ssr:stedsnr" v="10542" />
	</node>
	<node id="-44341" lat="61.6740027797" lon="9.57832500229">
		<tag k="name" v="Knutslykkja" />
		<tag k="place" v="locality" />
		<tag k="ssr:stedsnr" v="435743" />
	</node>
	<node id="-43882" lat="61.5769500021" lon="9.74843334195">
		<tag k="amenity" v="community_centre" />
		<tag k="name" v="Ruste ungdomshus" />
		<tag k="ssr:stedsnr" v="114826" />
	</node>
	<node id="-46516" lat="61.5712916684" lon="9.70475278092">
		<tag k="name" v="Bøavasstaket" />
		<tag k="place" v="locality" />
		<tag k="ssr:stedsnr" v="842728" />
	</node>
	<node id="-44437" lat="61.6656027734" lon="9.69437499577">
		<tag k="amenity" v="place_of_worship" />
		<tag k="denomination" v="lutheran" />
		<tag k="name" v="Kvam kirke" />
		<tag k="religion" v="christian" />
		<tag k="ssr:stedsnr" v="666368" />
	</node>
	<node id="-45364" lat="61.5748250008" lon="9.58387777644">
		<tag k="amenity" v="community_centre" />
		<tag k="name" v="Kvikne bygdahus" />
		<tag k="ssr:stedsnr" v="114162" />
	</node>
	<node id="-45875" lat="61.5837499992" lon="9.49425000659">
		<tag k="alt_name" v="Kvilarstein" />
		<tag k="name" v="Kvilarsteinen" />
		<tag k="place" v="locality" />
		<tag k="ssr:stedsnr" v="434489" />
	</node>
	<node id="-43596" lat="61.5275888897" lon="9.41313888509">
		<tag k="amenity" v="community_centre" />
		<tag k="name" v="Skåbu bygdahus" />
		<tag k="ssr:stedsnr" v="234274" />
	</node>
	<node id="-45136" lat="61.5802694483" lon="9.73085555477">
		<tag k="amenity" v="community_centre" />
		<tag k="name" v="Ruste bygdahus" />
		<tag k="ssr:stedsnr" v="963875" />
	</node>
	<node id="-43924" lat="61.5888694414" lon="9.78129999781">
		<tag k="amenity" v="place_of_worship" />
		<tag k="denomination" v="lutheran" />
		<tag k="name" v="Sødorp kapell" />
		<tag k="religion" v="christian" />
		<tag k="ssr:stedsnr" v="283315" />
	</node>
	<node id="-43884" lat="61.6993555582" lon="9.72187777348">
		<tag k="name" v="Jorddalssaga" />
		<tag k="place" v="locality" />
		<tag k="ssr:stedsnr" v="114844" />
	</node>
	<node id="-45003" lat="61.5962111101" lon="9.5186444352">
		<tag k="alt_name" v="Tellefsteinen" />
		<tag k="name" v="Tellevsteinen" />
		<tag k="place" v="locality" />
		<tag k="ssr:stedsnr" v="859523" />
	</node>
	<node id="-44042" lat="61.5575666638" lon="9.70068888952">
		<tag k="name" v="Hovsvasstaket" />
		<tag k="place" v="locality" />
		<tag k="ssr:stedsnr" v="296690" />
	</node>
	<node id="-44425" lat="61.4779222249" lon="9.19125555222">
		<tag k="name" v="Nybrua" />
		<tag k="place" v="locality" />
		<tag k="ssr:stedsnr" v="660692" />
	</node>
	<node id="-45288" lat="61.574344443" lon="9.58773056114">
		<tag k="amenity" v="place_of_worship" />
		<tag k="denomination" v="lutheran" />
		<tag k="name" v="Kvikne kirke" />
		<tag k="religion" v="christian" />
		<tag k="ssr:stedsnr" v="71627" />
	</node>
	<node id="-44071" lat="61.599875003" lon="9.5679694383">
		<tag k="name" v="Gutormsteinen" />
		<tag k="place" v="locality" />
		<tag k="ssr:stedsnr" v="252505" />
	</node>
	<node id="-44940" lat="61.5285361098" lon="9.41596666293">
		<tag k="amenity" v="place_of_worship" />
		<tag k="denomination" v="lutheran" />
		<tag k="name" v="Skåbu kyrkje" />
		<tag k="religion" v="christian" />
		<tag k="ssr:stedsnr" v="799631" />
	</node>
	<node id="-45061" lat="61.5676555568" lon="9.70214443674">
		<tag k="name" v="Brynsvasstaket" />
		<tag k="place" v="locality" />
		<tag k="ssr:stedsnr" v="903719" />
	</node>
	<node id="-44070" lat="61.5991611142" lon="9.73580000215">
		<tag k="amenity" v="place_of_worship" />
		<tag k="denomination" v="lutheran" />
		<tag k="name" v="Sødorp kyrkje" />
		<tag k="old_name" v="Nord-Fron" />
		<tag k="religion" v="christian" />
		<tag k="ssr:stedsnr" v="451571" />
	</node>
</osm>
