<?xml version="1.0" encoding="UTF-8"?>
<osm version="0.6" generator="osmapis">
	<node lat="61.712433333636874" lon="9.607188892226327" id="-51060">
		<tag k="highway" v="path" />
		<tag k="name" v="Rustbakkråket" />
		<tag k="ssr:stedsnr" v="231947" />
	</node>
	<node lat="61.488066664546956" lon="9.611094440457261" id="-51089">
		<tag k="highway" v="path" />
		<tag k="name" v="Essdalsråket" />
		<tag k="ssr:stedsnr" v="234756" />
	</node>
	<node lat="61.58901666793534" lon="9.631552778423702" id="-51090">
		<tag k="highway" v="path" />
		<tag k="name" v="Vintervegen" />
		<tag k="ssr:stedsnr" v="234916" />
	</node>
	<node lat="61.54952499951926" lon="9.699466665013968" id="-51116">
		<tag k="highway" v="path" />
		<tag k="name" v="Øvre Veslbekkvegen" />
		<tag k="ssr:stedsnr" v="235461" />
	</node>
	<node lat="61.591099997505395" lon="9.428852772096345" id="-51128">
		<tag k="highway" v="path" />
		<tag k="name" v="Gamle Tjønnsætervegen" />
		<tag k="ssr:stedsnr" v="235526" />
	</node>
	<node lat="61.565266668080035" lon="9.703274997896154" id="-51133">
		<tag k="highway" v="path" />
		<tag k="name" v="Nyvegen" />
		<tag k="ssr:stedsnr" v="235740" />
	</node>
	<node lat="61.56466111353701" lon="9.715847228031276" id="-51135">
		<tag k="highway" v="path" />
		<tag k="name" v="Gruvvegen" />
		<tag k="ssr:stedsnr" v="235744" />
	</node>
	<node lat="61.50410277462893" lon="9.63180276937099" id="-51157">
		<tag k="fixme" v="consider highway=path" />
		<tag k="highway" v="track" />
		<tag k="name" v="Lomsætervegen" />
		<tag k="ssr:stedsnr" v="52712" />
	</node>
	<node lat="61.48429444108687" lon="9.628272216128417" id="-51158">
		<tag k="highway" v="path" />
		<tag k="name" v="Svartkampråket" />
		<tag k="ssr:stedsnr" v="52715" />
	</node>
	<node lat="61.50738888800189" lon="9.501211114549191" id="-51160">
		<tag k="highway" v="path" />
		<tag k="name" v="Hattråket" />
		<tag k="ssr:stedsnr" v="52603" />
	</node>
	<node lat="61.55227222553142" lon="9.596800002533696" id="-51169">
		<tag k="highway" v="path" />
		<tag k="name" v="Rasmusråket" />
		<tag k="ssr:stedsnr" v="53222" />
	</node>
	<node lat="61.629258330684344" lon="9.677694446688934" id="-51178">
		<tag k="highway" v="path" />
		<tag k="name" v="Benkjevegen" />
		<tag k="ssr:stedsnr" v="53274" />
	</node>
	<node lat="61.60566389168948" lon="9.42063888830059" id="-51216">
		<tag k="highway" v="path" />
		<tag k="name" v="Heidalsråket" />
		<tag k="ssr:stedsnr" v="71592" />
	</node>
	<node lat="61.57883888522151" lon="9.531266666174439" id="-51224">
		<tag k="bridge" v="yes" />
		<tag k="layer" v="1" />
		<tag k="name" v="Helå" />
		<tag k="ssr:stedsnr" v="107473" />
	</node>
	<node lat="61.51275277585445" lon="9.40222778518396" id="-51225">
		<tag k="bridge" v="yes" />
		<tag k="layer" v="1" />
		<tag k="name" v="Kamfoss" />
		<tag k="ssr:stedsnr" v="107474" />
	</node>
	<node lat="61.53013055158688" lon="9.416436103826157" id="-51226">
		<tag k="bridge" v="yes" />
		<tag k="layer" v="1" />
		<tag k="name" v="Søre Hellå" />
		<tag k="ssr:stedsnr" v="107478" />
	</node>
	<node lat="61.548022224511975" lon="9.51276389401983" id="-51274">
		<tag k="name" v="Midtvelta" />
		<tag k="place" v="locality" />
		<tag k="ssr:stedsnr" v="114402" />
	</node>
	<node lat="61.599094636778375" lon="9.737339627775743" id="-51278">
		<tag k="bridge" v="yes" />
		<tag k="layer" v="1" />
		<tag k="name" v="Sundbrua" />
		<tag k="ssr:stedsnr" v="114520" />
	</node>
	<node lat="61.6056055575895" lon="9.377558337146786" id="-51280">
		<tag k="highway" v="path" />
		<tag k="name" v="Musæterråket" />
		<tag k="ssr:stedsnr" v="114522" />
	</node>
	<node lat="61.49176283939226" lon="9.1936361528276" id="-51289">
		<tag k="bridge" v="yes" />
		<tag k="layer" v="1" />
		<tag k="name" v="Flybrue" />
		<tag k="ssr:stedsnr" v="114686" />
	</node>
	<node lat="61.54882777495695" lon="9.300588893726875" id="-51438">
		<tag k="highway" v="path" />
		<tag k="name" v="Omundvegen" />
		<tag k="ssr:stedsnr" v="267683" />
	</node>
	<node lat="61.57851666374186" lon="9.386188892135898" id="-51439">
		<tag k="highway" v="path" />
		<tag k="name" v="Bossbekkvegen" />
		<tag k="ssr:stedsnr" v="267684" />
	</node>
	<node lat="61.56062222193112" lon="9.425963886169344" id="-51440">
		<tag k="highway" v="path" />
		<tag k="name" v="Nyseterråket" />
		<tag k="ssr:stedsnr" v="267685" />
	</node>
	<node lat="61.50350555124423" lon="9.511683329621238" id="-51455">
		<tag k="highway" v="path" />
		<tag k="name" v="Stølvegen" />
		<tag k="ssr:stedsnr" v="234627" />
	</node>
	<node lat="61.519224999393266" lon="9.61082777686458" id="-51461">
		<tag k="highway" v="path" />
		<tag k="name" v="Nyselsvegen" />
		<tag k="ssr:stedsnr" v="235007" />
	</node>
	<node lat="61.55443610834919" lon="9.629227769435705" id="-51472">
		<tag k="fixme" v="consider highway=path" />
		<tag k="highway" v="track" />
		<tag k="name" v="Svarthaugvegen" />
		<tag k="ssr:stedsnr" v="235243" />
	</node>
	<node lat="61.53916111036426" lon="9.437158328541866" id="-51504">
		<tag k="bridge" v="yes" />
		<tag k="layer" v="1" />
		<tag k="name" v="Grindå" />
		<tag k="ssr:stedsnr" v="289489" />
	</node>
	<node lat="61.52726944764753" lon="9.19006388166905" id="-51515">
		<tag k="highway" v="path" />
		<tag k="name" v="Leirvegen" />
		<tag k="ssr:stedsnr" v="295724" />
	</node>
	<node lat="61.54908055229568" lon="9.299397230448156" id="-51564">
		<tag k="highway" v="path" />
		<tag k="name" v="Storsteinvegen" />
		<tag k="ssr:stedsnr" v="474053" />
	</node>
	<node lat="61.51484166289134" lon="9.558713888049747" id="-51590">
		<tag k="highway" v="path" />
		<tag k="name" v="Løftvegen" />
		<tag k="ssr:stedsnr" v="356123" />
	</node>
	<node lat="61.56308888551887" lon="9.645108328125858" id="-51610">
		<tag k="fixme" v="consider highway=path" />
		<tag k="highway" v="track" />
		<tag k="name" v="Lovegen" />
		<tag k="ssr:stedsnr" v="356552" />
	</node>
	<node lat="61.56682224092248" lon="9.624531723028314" id="-51639">
		<tag k="bridge" v="yes" />
		<tag k="layer" v="1" />
		<tag k="name" v="Huskebrua" />
		<tag k="ssr:stedsnr" v="477138" />
	</node>
	<node lat="61.61950277493415" lon="9.789491662157127" id="-51653">
		<tag k="fixme" v="consider highway=path" />
		<tag k="highway" v="track" />
		<tag k="name" v="Nykjørsla" />
		<tag k="ssr:stedsnr" v="477246" />
	</node>
	<node lat="61.61594444493366" lon="9.818119453069503" id="-51654">
		<tag k="highway" v="path" />
		<tag k="name" v="Temorkvegen" />
		<tag k="ssr:stedsnr" v="477251" />
	</node>
	<node lat="61.45073610850483" lon="9.425597218711015" id="-51658">
		<tag k="highway" v="path" />
		<tag k="name" v="Freksæterråket" />
		<tag k="ssr:stedsnr" v="477582" />
	</node>
	<node lat="61.54242500453875" lon="9.698308328695797" id="-51688">
		<tag k="highway" v="path" />
		<tag k="name" v="Gamle Nysætervegen" />
		<tag k="ssr:stedsnr" v="478518" />
	</node>
	<node lat="61.586705558146875" lon="9.452827775549297" id="-51693">
		<tag k="highway" v="path" />
		<tag k="name" v="Bræeråket" />
		<tag k="ssr:stedsnr" v="478427" />
	</node>
	<node lat="61.71900833119916" lon="9.709627782842905" id="-51703">
		<tag k="highway" v="path" />
		<tag k="name" v="Grønråket" />
		<tag k="ssr:stedsnr" v="478801" />
	</node>
	<node lat="61.46873888687518" lon="9.394397214964437" id="-51756">
		<tag k="name" v="Hågåvelta" />
		<tag k="place" v="locality" />
		<tag k="ssr:stedsnr" v="416511" />
	</node>
	<node lat="61.50281666801151" lon="9.596258338055371" id="-51758">
		<tag k="highway" v="path" />
		<tag k="name" v="Puttråket" />
		<tag k="ssr:stedsnr" v="416704" />
	</node>
	<node lat="61.47381388770381" lon="9.613102772975381" id="-51760">
		<tag k="highway" v="path" />
		<tag k="name" v="Massingdalsråket" />
		<tag k="ssr:stedsnr" v="416743" />
	</node>
	<node lat="61.67654999990707" lon="9.685397224155984" id="-51818">
		<tag k="bridge" v="yes" />
		<tag k="layer" v="1" />
		<tag k="name" v="Fagervoll" />
		<tag k="ssr:stedsnr" v="471481" />
	</node>
	<node lat="61.55883333170621" lon="9.399683331047893" id="-51908">
		<tag k="highway" v="path" />
		<tag k="name" v="Åsråket" />
		<tag k="ssr:stedsnr" v="509662" />
	</node>
	<node lat="61.50987500341105" lon="9.618752777715455" id="-51926">
		<tag k="fixme" v="consider highway=path" />
		<tag k="highway" v="track" />
		<tag k="name" v="Fagerlivegen" />
		<tag k="ssr:stedsnr" v="538004" />
	</node>
	<node lat="61.55787778157657" lon="9.628355563073946" id="-51932">
		<tag k="highway" v="path" />
		<tag k="name" v="Gråndalsvegen" />
		<tag k="ssr:stedsnr" v="538217" />
	</node>
	<node lat="61.5950805593108" lon="9.637855556918717" id="-51933">
		<tag k="highway" v="path" />
		<tag k="name" v="Sillivegen" />
		<tag k="ssr:stedsnr" v="538267" />
	</node>
	<node lat="61.5324500041524" lon="9.445313887161683" id="-51934">
		<tag k="name" v="Hågåvelta" />
		<tag k="place" v="locality" />
		<tag k="ssr:stedsnr" v="538271" />
	</node>
	<node lat="61.534755552175994" lon="9.702283330493994" id="-51952">
		<tag k="highway" v="path" />
		<tag k="name" v="Skogværsvegen" />
		<tag k="ssr:stedsnr" v="539470" />
	</node>
	<node lat="61.53439444310659" lon="9.699586109523246" id="-51953">
		<tag k="ford" v="yes" />
		<tag k="name" v="Skogværsvaet" />
		<tag k="place" v="locality" />
		<tag k="ssr:stedsnr" v="539472" />
	</node>
	<node lat="61.53102222017563" lon="9.70332499193991" id="-51954">
		<tag k="highway" v="path" />
		<tag k="name" v="Teppingsråket" />
		<tag k="ssr:stedsnr" v="539473" />
	</node>
	<node lat="61.57323610996499" lon="9.637808331458007" id="-51996">
		<tag k="bridge" v="yes" />
		<tag k="layer" v="1" />
		<tag k="name" v="Kvernå" />
		<tag k="ssr:stedsnr" v="592503" />
	</node>
	<node lat="61.55057221913855" lon="9.480258330620968" id="-52032">
		<tag k="fixme" v="consider highway=path" />
		<tag k="highway" v="track" />
		<tag k="name" v="Gamle Skåbudalsvegen" />
		<tag k="ssr:stedsnr" v="599350" />
	</node>
	<node lat="61.54104444895827" lon="9.515444442985354" id="-52130">
		<tag k="name" v="Tamburvelta" />
		<tag k="place" v="locality" />
		<tag k="ssr:stedsnr" v="660387" />
	</node>
	<node lat="61.56038889185076" lon="9.467783328733317" id="-52170">
		<tag k="bridge" v="yes" />
		<tag k="layer" v="1" />
		<tag k="name" v="Amundå" />
		<tag k="ssr:stedsnr" v="896493" />
	</node>
	<node lat="61.69195277381691" lon="9.694166657894788" id="-52173">
		<tag k="bridge" v="yes" />
		<tag k="layer" v="1" />
		<tag k="name" v="Jora" />
		<tag k="ssr:stedsnr" v="714403" />
	</node>
	<node lat="61.70698610700317" lon="9.855361116650105" id="-52184">
		<tag k="highway" v="path" />
		<tag k="name" v="Tjønnsæterråket" />
		<tag k="ssr:stedsnr" v="720231" />
	</node>
	<node lat="61.597427774435516" lon="9.388899999220937" id="-52196">
		<tag k="highway" v="path" />
		<tag k="name" v="Nedre Musæterråket" />
		<tag k="ssr:stedsnr" v="720506" />
	</node>
	<node lat="61.50341666707681" lon="9.129558332642562" id="-52205">
		<tag k="highway" v="path" />
		<tag k="name" v="Åkreslåvegen" />
		<tag k="ssr:stedsnr" v="720729" />
	</node>
	<node lat="61.58975278029292" lon="9.640586111869373" id="-52211">
		<tag k="highway" v="path" />
		<tag k="name" v="Kluftfururåket" />
		<tag k="ssr:stedsnr" v="721068" />
	</node>
	<node lat="61.56020277465012" lon="9.77255277106434" id="-52229">
		<tag k="ford" v="yes" />
		<tag k="name" v="Kringelvaet" />
		<tag k="place" v="locality" />
		<tag k="ssr:stedsnr" v="901970" />
	</node>
	<node lat="61.55253888793054" lon="9.588850004918012" id="-52239">
		<tag k="highway" v="path" />
		<tag k="name" v="Lovegen" />
		<tag k="ssr:stedsnr" v="902236" />
	</node>
	<node lat="61.59984166982426" lon="9.696697229995427" id="-52297">
		<tag k="highway" v="path" />
		<tag k="name" v="Hestehaugråket" />
		<tag k="ssr:stedsnr" v="903470" />
	</node>
	<node lat="61.460794443312636" lon="9.33704999671075" id="-52308">
		<tag k="highway" v="path" />
		<tag k="name" v="Vinsterbruråket" />
		<tag k="ssr:stedsnr" v="903640" />
	</node>
	<node lat="61.571680559361084" lon="9.771622222715592" id="-52332">
		<tag k="bridge" v="yes" />
		<tag k="layer" v="1" />
		<tag k="name" v="Jora" />
		<tag k="ssr:stedsnr" v="774510" />
	</node>
	<node lat="61.47906666693484" lon="9.36779999563866" id="-52342">
		<tag k="ford" v="yes" />
		<tag k="name" v="Vadet" />
		<tag k="place" v="locality" />
		<tag k="ssr:stedsnr" v="780487" />
	</node>
	<node lat="61.56690555458859" lon="9.457627785278529" id="-52358">
		<tag k="highway" v="path" />
		<tag k="name" v="Nersætervegen" />
		<tag k="ssr:stedsnr" v="781308" />
	</node>
	<node lat="61.56039999713337" lon="9.552550008254103" id="-52362">
		<tag k="highway" v="path" />
		<tag k="name" v="Kolosråket" />
		<tag k="ssr:stedsnr" v="781213" />
	</node>
	<node lat="61.56453333388061" lon="9.4954083280778" id="-52372">
		<tag k="highway" v="path" />
		<tag k="name" v="Svahellråket" />
		<tag k="ssr:stedsnr" v="781424" />
	</node>
	<node lat="61.54569722518921" lon="9.752908335677233" id="-52381">
		<tag k="highway" v="path" />
		<tag k="name" v="Hågåhaugråket" />
		<tag k="ssr:stedsnr" v="781448" />
	</node>
	<node lat="61.58039166276561" lon="9.454588893287347" id="-52382">
		<tag k="highway" v="path" />
		<tag k="name" v="Hallaugsæterråket" />
		<tag k="ssr:stedsnr" v="781451" />
	</node>
	<node lat="61.569647222930435" lon="9.690222218281573" id="-52386">
		<tag k="ford" v="yes" />
		<tag k="name" v="Åfaret" />
		<tag k="place" v="locality" />
		<tag k="ssr:stedsnr" v="781612" />
	</node>
	<node lat="61.45830277410173" lon="9.314580559506966" id="-52387">
		<tag k="highway" v="path" />
		<tag k="name" v="Gamle Hølsvegen" />
		<tag k="ssr:stedsnr" v="781663" />
	</node>
	<node lat="61.57534868418853" lon="9.53433737381955" id="-52392">
		<tag k="layer" v="-1" />
		<tag k="name" v="Høgbergtunnelen" />
		<tag k="ssr:stedsnr" v="909829" />
		<tag k="tunnel" v="yes" />
	</node>
	<node lat="61.532375001871586" lon="9.422405552245325" id="-52439">
		<tag k="bridge" v="yes" />
		<tag k="layer" v="1" />
		<tag k="name" v="Nordre Hellå" />
		<tag k="ssr:stedsnr" v="835512" />
	</node>
	<node lat="61.64530833136668" lon="9.72885554881395" id="-52440">
		<tag k="bridge" v="yes" />
		<tag k="layer" v="1" />
		<tag k="name" v="Boså" />
		<tag k="ssr:stedsnr" v="835513" />
	</node>
	<node lat="61.69192222131757" lon="9.890872226846565" id="-52457">
		<tag k="man_made" v="cairn" />
		<tag k="name" v="Trivardane" />
		<tag k="place" v="locality" />
		<tag k="ssr:stedsnr" v="841704" />
	</node>
	<node lat="61.523108334258616" lon="9.678741670730385" id="-52486">
		<tag k="name" v="Klukkarvelta" />
		<tag k="place" v="locality" />
		<tag k="ssr:stedsnr" v="842398" />
	</node>
	<node lat="61.64844166353" lon="9.618777784008733" id="-52502">
		<tag k="highway" v="path" />
		<tag k="name" v="Brånåvegen" />
		<tag k="ssr:stedsnr" v="842984" />
	</node>
	<node lat="61.75424444620096" lon="9.813969449037762" id="-52540">
		<tag k="fixme" v="verify maritime location" />
		<tag k="mooring" v="yes" />
		<tag k="name" v="Båtstødet" />
		<tag k="place" v="locality" />
		<tag k="ssr:stedsnr" v="899499" />
	</node>
	<node lat="61.48323610833384" lon="9.65916667531635" id="-52543">
		<tag k="highway" v="path" />
		<tag k="name" v="Måsåråket" />
		<tag k="ssr:stedsnr" v="902124" />
	</node>
	<node lat="61.5289111132875" lon="9.386208328907701" id="-52552">
		<tag k="highway" v="path" />
		<tag k="name" v="Murudalsvegen" />
		<tag k="ssr:stedsnr" v="902379" />
	</node>
	<node lat="61.67291110841066" lon="9.731116667216432" id="-52558">
		<tag k="highway" v="path" />
		<tag k="name" v="Stegvegen" />
		<tag k="ssr:stedsnr" v="902712" />
	</node>
	<node lat="61.60553888741383" lon="9.614858338209691" id="-52572">
		<tag k="highway" v="path" />
		<tag k="name" v="Hingstråket" />
		<tag k="ssr:stedsnr" v="903905" />
	</node>
	<node lat="61.64910833097966" lon="9.626794436482404" id="-52574">
		<tag k="highway" v="path" />
		<tag k="name" v="Skardengsvegen" />
		<tag k="ssr:stedsnr" v="903975" />
	</node>
	<node lat="61.72574722114084" lon="9.915536116911463" id="-52620">
		<tag k="highway" v="path" />
		<tag k="name" v="Eldåråket" />
		<tag k="ssr:stedsnr" v="962528" />
	</node>
	<node lat="61.51652777462339" lon="9.608011105402662" id="-52625">
		<tag k="highway" v="path" />
		<tag k="name" v="Essdalsvegen" />
		<tag k="ssr:stedsnr" v="963003" />
	</node>
	<node lat="61.51414444731633" lon="9.580083324903063" id="-52753">
		<tag k="highway" v="path" />
		<tag k="name" v="Stangbrua" />
		<tag k="ssr:stedsnr" v="53138" />
	</node>
	<node lat="61.62987778118996" lon="9.575649998985625" id="-52803">
		<tag k="highway" v="path" />
		<tag k="name" v="Øldalsråket" />
		<tag k="ssr:stedsnr" v="53948" />
	</node>
	<node lat="61.610833330479274" lon="9.624641668227206" id="-52805">
		<tag k="highway" v="path" />
		<tag k="name" v="Gamle Øldalsvegen" />
		<tag k="ssr:stedsnr" v="53954" />
	</node>
	<node lat="61.56239722525031" lon="9.601588880021405" id="-52884">
		<tag k="highway" v="path" />
		<tag k="name" v="Kolbotnvegen" />
		<tag k="old_name" v="Kolbotenvegen" />
		<tag k="ssr:stedsnr" v="114237" />
	</node>
	<node lat="61.56484444441315" lon="9.691113893621742" id="-52900">
		<tag k="fixme" v="consider highway=path" />
		<tag k="highway" v="track" />
		<tag k="name" v="Gruppulivegen" />
		<tag k="ssr:stedsnr" v="114545" />
	</node>
	<node lat="61.515075001211635" lon="9.201999998845823" id="-52903">
		<tag k="highway" v="path" />
		<tag k="name" v="Strålsætervegen" />
		<tag k="ssr:stedsnr" v="114730" />
	</node>
	<node lat="61.71547500311049" lon="9.688469453493768" id="-52905">
		<tag k="fixme" v="consider highway=path" />
		<tag k="highway" v="track" />
		<tag k="name" v="Lauvvegen" />
		<tag k="ssr:stedsnr" v="114828" />
	</node>
	<node lat="61.60815833254755" lon="9.591566659152912" id="-52910">
		<tag k="highway" v="path" />
		<tag k="name" v="Steinsæterråket" />
		<tag k="ssr:stedsnr" v="114920" />
	</node>
	<node lat="61.53816388981028" lon="9.319927772209999" id="-52941">
		<tag k="highway" v="path" />
		<tag k="name" v="Hågåslåvegen" />
		<tag k="ssr:stedsnr" v="171049" />
	</node>
	<node lat="61.59530555855111" lon="9.639316665642555" id="-52969">
		<tag k="highway" v="path" />
		<tag k="name" v="Øldalsvegen" />
		<tag k="ssr:stedsnr" v="174298" />
	</node>
	<node lat="61.66988611395724" lon="9.601547215623727" id="-52970">
		<tag k="highway" v="path" />
		<tag k="name" v="Kolodokkvegen" />
		<tag k="ssr:stedsnr" v="174387" />
	</node>
	<node lat="61.598086114470874" lon="9.446833338263916" id="-52979">
		<tag k="highway" v="path" />
		<tag k="name" v="Grauphaugråket" />
		<tag k="ssr:stedsnr" v="174533" />
	</node>
	<node lat="61.60429999926504" lon="9.397713889828415" id="-52980">
		<tag k="highway" v="path" />
		<tag k="name" v="Øvre Musæterråket" />
		<tag k="ssr:stedsnr" v="174538" />
	</node>
	<node lat="61.51133889326243" lon="9.162322228679123" id="-52991">
		<tag k="highway" v="path" />
		<tag k="name" v="Gamle Sikilsdalsvegen" />
		<tag k="ssr:stedsnr" v="174745" />
	</node>
	<node lat="61.55692499860395" lon="9.73946389123486" id="-52992">
		<tag k="highway" v="path" />
		<tag k="name" v="Vetavegen" />
		<tag k="ssr:stedsnr" v="174747" />
	</node>
	<node lat="61.45744757146397" lon="9.336449450082476" id="-53023">
		<tag k="bridge" v="yes" />
		<tag k="layer" v="1" />
		<tag k="name" v="Vinsterbrua" />
		<tag k="ssr:stedsnr" v="190404" />
	</node>
	<node lat="61.54642222064609" lon="9.341766662992335" id="-53069">
		<tag k="highway" v="path" />
		<tag k="name" v="Nysætervegen" />
		<tag k="ssr:stedsnr" v="292047" />
	</node>
	<node lat="61.54731666866268" lon="9.749811120353392" id="-53127">
		<tag k="highway" v="path" />
		<tag k="name" v="Vetaråket" />
		<tag k="ssr:stedsnr" v="296409" />
	</node>
	<node lat="61.537377777481645" lon="9.536258330933874" id="-53129">
		<tag k="highway" v="path" />
		<tag k="name" v="Brottråket" />
		<tag k="ssr:stedsnr" v="296344" />
	</node>
	<node lat="61.586936113599194" lon="9.472497226526663" id="-53130">
		<tag k="highway" v="path" />
		<tag k="name" v="Nersætervegen" />
		<tag k="ssr:stedsnr" v="296361" />
	</node>
	<node lat="61.45739722535882" lon="9.32869443788708" id="-53139">
		<tag k="highway" v="path" />
		<tag k="name" v="Vintervegen" />
		<tag k="ssr:stedsnr" v="296642" />
	</node>
	<node lat="61.58616666831305" lon="9.715911112369712" id="-53192">
		<tag k="bridge" v="yes" />
		<tag k="layer" v="1" />
		<tag k="name" v="Vinstra" />
		<tag k="ssr:stedsnr" v="350382" />
	</node>
	<node lat="61.5666972244674" lon="9.620402786362389" id="-53226">
		<tag k="fixme" v="consider highway=path" />
		<tag k="highway" v="track" />
		<tag k="name" v="Flåttvegen" />
		<tag k="ssr:stedsnr" v="356141" />
	</node>
	<node lat="61.55912222394508" lon="9.597152782664512" id="-53232">
		<tag k="highway" v="path" />
		<tag k="name" v="Kolbotn" />
		<tag k="ssr:stedsnr" v="356239" />
	</node>
	<node lat="61.55409166905002" lon="9.705222219008485" id="-53261">
		<tag k="highway" v="path" />
		<tag k="name" v="Kvitbergsvegen" />
		<tag k="ssr:stedsnr" v="356715" />
	</node>
	<node lat="61.51497777347729" lon="9.17075276856063" id="-53262">
		<tag k="highway" v="path" />
		<tag k="name" v="Flekkvassvegen" />
		<tag k="ssr:stedsnr" v="356717" />
	</node>
	<node lat="61.67811388496111" lon="9.692836112215586" id="-53263">
		<tag k="highway" v="path" />
		<tag k="name" v="Hvattumsvegen" />
		<tag k="ssr:stedsnr" v="356718" />
	</node>
	<node lat="61.56035555631923" lon="9.696963883142091" id="-53264">
		<tag k="name" v="Velte" />
		<tag k="place" v="locality" />
		<tag k="ssr:stedsnr" v="356719" />
	</node>
	<node lat="61.58697500110071" lon="9.777724998339542" id="-53316">
		<tag k="bridge" v="yes" />
		<tag k="layer" v="1" />
		<tag k="name" v="Sulå" />
		<tag k="ssr:stedsnr" v="410462" />
	</node>
	<node lat="61.58901389273207" lon="9.703700003158952" id="-53317">
		<tag k="bridge" v="yes" />
		<tag k="layer" v="1" />
		<tag k="name" v="Møgla" />
		<tag k="ssr:stedsnr" v="410472" />
	</node>
	<node lat="61.512944445051104" lon="9.236380554765224" id="-53356">
		<tag k="bridge" v="yes" />
		<tag k="layer" v="1" />
		<tag k="name" v="Tjyrubrua" />
		<tag k="ssr:stedsnr" v="417377" />
	</node>
	<node lat="61.62165555903378" lon="9.629122212903487" id="-53372">
		<tag k="highway" v="path" />
		<tag k="name" v="Beinvegen" />
		<tag k="ssr:stedsnr" v="417947" />
	</node>
	<node lat="61.65563333783978" lon="9.501927773846793" id="-53469">
		<tag k="highway" v="path" />
		<tag k="name" v="Bræeråket" />
		<tag k="ssr:stedsnr" v="535665" />
	</node>
	<node lat="61.48637777689599" lon="9.687311110358394" id="-53473">
		<tag k="highway" v="path" />
		<tag k="name" v="Storstulråket" />
		<tag k="ssr:stedsnr" v="537132" />
	</node>
	<node lat="61.62197777348734" lon="9.827858341679937" id="-53475">
		<tag k="highway" v="path" />
		<tag k="name" v="Toksevegen" />
		<tag k="ssr:stedsnr" v="537229" />
	</node>
	<node lat="61.50696111440087" lon="9.176019446040032" id="-53479">
		<tag k="highway" v="path" />
		<tag k="name" v="Mevassvegen" />
		<tag k="ssr:stedsnr" v="537635" />
	</node>
	<node lat="61.68193055792984" lon="9.900586119994532" id="-53480">
		<tag k="bridge" v="yes" />
		<tag k="layer" v="1" />
		<tag k="name" v="Lysbrua" />
		<tag k="ssr:stedsnr" v="537645" />
	</node>
	<node lat="61.45025277813092" lon="9.372277773518803" id="-53484">
		<tag k="highway" v="path" />
		<tag k="name" v="Storhøvegen" />
		<tag k="ssr:stedsnr" v="538583" />
	</node>
	<node lat="61.5105472207312" lon="9.588069448622537" id="-53497">
		<tag k="highway" v="path" />
		<tag k="name" v="Puttråket" />
		<tag k="ssr:stedsnr" v="538134" />
	</node>
	<node lat="61.70390000223926" lon="9.862727775121277" id="-53500">
		<tag k="highway" v="path" />
		<tag k="name" v="Gravdalsråket" />
		<tag k="ssr:stedsnr" v="538214" />
	</node>
	<node lat="61.57109444869633" lon="9.485024992746812" id="-53508">
		<tag k="highway" v="path" />
		<tag k="name" v="Grosbergråket" />
		<tag k="ssr:stedsnr" v="538452" />
	</node>
	<node lat="61.52925555217761" lon="9.18191943653274" id="-53515">
		<tag k="highway" v="path" />
		<tag k="name" v="Gamle Kjerrevegen" />
		<tag k="ssr:stedsnr" v="538729" />
	</node>
	<node lat="61.490430556714585" lon="9.630327778760355" id="-53518">
		<tag k="highway" v="path" />
		<tag k="name" v="Fjellvegen" />
		<tag k="ssr:stedsnr" v="538751" />
	</node>
	<node lat="61.55733611226914" lon="9.708352780454934" id="-53534">
		<tag k="highway" v="path" />
		<tag k="name" v="Storsteinvegen" />
		<tag k="ssr:stedsnr" v="539685" />
	</node>
	<node lat="61.767152777711594" lon="9.879833335713654" id="-53564">
		<tag k="highway" v="path" />
		<tag k="name" v="Vuludalsråket" />
		<tag k="ssr:stedsnr" v="556551" />
	</node>
	<node lat="61.5800861142244" lon="9.56763889727356" id="-53568">
		<tag k="bridge" v="yes" />
		<tag k="layer" v="1" />
		<tag k="name" v="Ungstad" />
		<tag k="ssr:stedsnr" v="592477" />
	</node>
	<node lat="61.52650833551998" lon="9.70463889089117" id="-53582">
		<tag k="fixme" v="consider highway=path" />
		<tag k="highway" v="track" />
		<tag k="name" v="Øvre Sandsvegen" />
		<tag k="ssr:stedsnr" v="598279" />
	</node>
	<node lat="61.49602777588065" lon="9.583697229367912" id="-53599">
		<tag k="highway" v="path" />
		<tag k="name" v="Hattdalsvegen" />
		<tag k="ssr:stedsnr" v="598714" />
	</node>
	<node lat="61.616994445065686" lon="9.541258340120136" id="-53608">
		<tag k="highway" v="path" />
		<tag k="name" v="Steinståkåråket" />
		<tag k="ssr:stedsnr" v="599383" />
	</node>
	<node lat="61.58640277351961" lon="9.461688894510294" id="-53613">
		<tag k="highway" v="path" />
		<tag k="name" v="Vistadråket" />
		<tag k="ssr:stedsnr" v="599423" />
	</node>
	<node lat="61.582222222989984" lon="9.458172226841366" id="-53614">
		<tag k="highway" v="path" />
		<tag k="name" v="Grosbergsæterråket" />
		<tag k="ssr:stedsnr" v="599424" />
	</node>
	<node lat="61.56827621902414" lon="9.692196415218051" id="-53622">
		<tag k="bridge" v="yes" />
		<tag k="layer" v="1" />
		<tag k="name" v="Kvennstugubrua" />
		<tag k="ssr:stedsnr" v="599578" />
	</node>
	<node lat="61.687708334091276" lon="9.655408329210797" id="-53634">
		<tag k="ford" v="yes" />
		<tag k="name" v="Trollvadet" />
		<tag k="place" v="locality" />
		<tag k="ssr:stedsnr" v="599831" />
	</node>
	<node lat="61.68419289870591" lon="9.69045635714416" id="-53636">
		<tag k="bridge" v="yes" />
		<tag k="layer" v="1" />
		<tag k="name" v="Nybrua" />
		<tag k="ssr:stedsnr" v="599839" />
	</node>
	<node lat="61.59861388943789" lon="9.740588896942318" id="-53681">
		<tag k="bridge" v="yes" />
		<tag k="layer" v="1" />
		<tag k="name" v="Byrbrua" />
		<tag k="ssr:stedsnr" v="653448" />
	</node>
	<node lat="61.4920833333248" lon="9.483861101776666" id="-53697">
		<tag k="highway" v="path" />
		<tag k="name" v="Fjellvegen" />
		<tag k="ssr:stedsnr" v="659649" />
	</node>
	<node lat="61.499341662763925" lon="9.70458888344332" id="-53710">
		<tag k="alt_name" v="Vallsråket" />
		<tag k="highway" v="path" />
		<tag k="name" v="Valsråket" />
		<tag k="ssr:stedsnr" v="659159" />
	</node>
	<node lat="61.58121110822031" lon="9.478172228741641" id="-53725">
		<tag k="highway" v="path" />
		<tag k="name" v="Vintervegen" />
		<tag k="ssr:stedsnr" v="659421" />
	</node>
	<node lat="61.53739166358493" lon="9.670063885352276" id="-53738">
		<tag k="highway" v="path" />
		<tag k="name" v="Gammelvegen" />
		<tag k="ssr:stedsnr" v="660523" />
	</node>
	<node lat="61.59866995416741" lon="9.742308924739548" id="-53767">
		<tag k="bridge" v="yes" />
		<tag k="layer" v="1" />
		<tag k="name" v="Byrbrua" />
		<tag k="ssr:stedsnr" v="713657" />
	</node>
	<node lat="61.673213888279015" lon="9.682922217418406" id="-53768">
		<tag k="bridge" v="yes" />
		<tag k="layer" v="1" />
		<tag k="name" v="Kamp" />
		<tag k="ssr:stedsnr" v="714395" />
	</node>
	<node lat="61.65988889228875" lon="9.67793333936538" id="-53769">
		<tag k="bridge" v="yes" />
		<tag k="layer" v="1" />
		<tag k="name" v="Kvam" />
		<tag k="ssr:stedsnr" v="714397" />
	</node>
	<node lat="61.75813240586179" lon="9.802497929421149" id="-53770">
		<tag k="bridge" v="yes" />
		<tag k="layer" v="1" />
		<tag k="name" v="Frybrua" />
		<tag k="ssr:stedsnr" v="717527" />
	</node>
	<node lat="61.762250000321416" lon="9.838902769190936" id="-53773">
		<tag k="highway" v="path" />
		<tag k="name" v="Fjellråket" />
		<tag k="ssr:stedsnr" v="717508" />
	</node>
	<node lat="61.64203888522488" lon="9.848219439180525" id="-53775">
		<tag k="ford" v="yes" />
		<tag k="name" v="Lortvadet" />
		<tag k="place" v="locality" />
		<tag k="ssr:stedsnr" v="719197" />
	</node>
	<node lat="61.612869446471244" lon="9.83786667576224" id="-53780">
		<tag k="highway" v="path" />
		<tag k="name" v="Venåsvegen" />
		<tag k="ssr:stedsnr" v="719249" />
	</node>
	<node lat="61.59165555264125" lon="9.4625861192437" id="-53821">
		<tag k="fixme" v="consider highway=path" />
		<tag k="highway" v="track" />
		<tag k="name" v="Gamle Breistulvegen" />
		<tag k="ssr:stedsnr" v="720450" />
	</node>
	<node lat="61.57708610688678" lon="9.445852773737089" id="-53822">
		<tag k="highway" v="path" />
		<tag k="name" v="Heggeslåvegen" />
		<tag k="ssr:stedsnr" v="720455" />
	</node>
	<node lat="61.50451111442434" lon="9.478494440450534" id="-53825">
		<tag k="highway" v="path" />
		<tag k="name" v="Torstulvegen" />
		<tag k="ssr:stedsnr" v="720644" />
	</node>
	<node lat="61.52686666816384" lon="9.67355833158513" id="-53837">
		<tag k="fixme" v="consider highway=path" />
		<tag k="highway" v="track" />
		<tag k="name" v="Åsvegen" />
		<tag k="ssr:stedsnr" v="721382" />
	</node>
	<node lat="61.57930555834173" lon="9.341777780277313" id="-53900">
		<tag k="highway" v="path" />
		<tag k="name" v="Bosbekkvegen" />
		<tag k="ssr:stedsnr" v="777096" />
	</node>
	<node lat="61.6752222251281" lon="9.594555552667664" id="-53921">
		<tag k="bridge" v="yes" />
		<tag k="layer" v="1" />
		<tag k="name" v="Kongskloppa" />
		<tag k="ssr:stedsnr" v="780782" />
	</node>
	<node lat="61.61871614542106" lon="9.697534442696707" id="-53926">
		<tag k="bridge" v="yes" />
		<tag k="layer" v="1" />
		<tag k="name" v="Ølbrua" />
		<tag k="ssr:stedsnr" v="781428" />
	</node>
	<node lat="61.61956944505437" lon="9.712700000583624" id="-54008">
		<tag k="bridge" v="yes" />
		<tag k="layer" v="1" />
		<tag k="name" v="Øla" />
		<tag k="ssr:stedsnr" v="835491" />
	</node>
	<node lat="61.51638610890377" lon="9.722933333730692" id="-54017">
		<tag k="highway" v="path" />
		<tag k="name" v="Sandsråket" />
		<tag k="ssr:stedsnr" v="841296" />
	</node>
	<node lat="61.50365000248728" lon="9.200705557607295" id="-54031">
		<tag k="fixme" v="consider highway=path" />
		<tag k="highway" v="track" />
		<tag k="name" v="Fiskelystvegen" />
		<tag k="ssr:stedsnr" v="841644" />
	</node>
	<node lat="61.65006111198049" lon="9.5767138835487" id="-54053">
		<tag k="highway" v="path" />
		<tag k="name" v="Moasætervegen" />
		<tag k="ssr:stedsnr" v="842917" />
	</node>
	<node lat="61.66491388989799" lon="9.701411108182892" id="-54066">
		<tag k="name" v="Kvam stasjon" />
		<tag k="railway" v="station" />
		<tag k="ssr:stedsnr" v="842553" />
		<tag k="train" v="yes" />
	</node>
	<node lat="61.619861115312304" lon="9.821322219679175" id="-54072">
		<tag k="highway" v="path" />
		<tag k="name" v="Temorkvegen" />
		<tag k="ssr:stedsnr" v="841256" />
	</node>
	<node lat="61.59135277377608" lon="9.761425002320799" id="-54111">
		<tag k="bridge" v="yes" />
		<tag k="layer" v="1" />
		<tag k="name" v="Vinstra" />
		<tag k="ssr:stedsnr" v="957423" />
	</node>
	<node lat="61.664647221999864" lon="9.677886109780074" id="-54112">
		<tag k="bridge" v="yes" />
		<tag k="layer" v="1" />
		<tag k="name" v="Store Veikleå" />
		<tag k="ssr:stedsnr" v="957424" />
	</node>
	<node lat="61.514955557536915" lon="9.460897228493547" id="-54121">
		<tag k="highway" v="path" />
		<tag k="name" v="Hattdalsvegen" />
		<tag k="ssr:stedsnr" v="962246" />
	</node>
	<node lat="61.368316669610365" lon="9.237549993519245" id="-54127">
		<tag k="highway" v="path" />
		<tag k="name" v="Hersjøvegen" />
		<tag k="ssr:stedsnr" v="962554" />
	</node>
	<node lat="61.49888611426673" lon="9.45118055595001" id="-54128">
		<tag k="highway" v="path" />
		<tag k="name" v="Kjerrevegen" />
		<tag k="ssr:stedsnr" v="962570" />
	</node>
	<node lat="61.50982499581201" lon="9.504022227016101" id="-54131">
		<tag k="highway" v="path" />
		<tag k="name" v="Steinråket" />
		<tag k="ssr:stedsnr" v="963087" />
	</node>
	<node lat="61.64353888972032" lon="9.887172219565647" id="-54132">
		<tag k="highway" v="path" />
		<tag k="name" v="Gammelvegen" />
		<tag k="ssr:stedsnr" v="962630" />
	</node>
	<node lat="61.512919444106686" lon="9.493272215287977" id="-54154">
		<tag k="highway" v="path" />
		<tag k="name" v="Breiråket" />
		<tag k="ssr:stedsnr" v="963428" />
	</node>
	<node lat="61.561933330435835" lon="9.627083334212253" id="-54158">
		<tag k="fixme" v="consider highway=path" />
		<tag k="highway" v="track" />
		<tag k="name" v="Huskesætervegen" />
		<tag k="ssr:stedsnr" v="963260" />
	</node>
	<node lat="61.65918288735537" lon="9.676573429308448" id="-54223">
		<tag k="layer" v="-1" />
		<tag k="name" v="Teigkamptunnelen" />
		<tag k="ssr:stedsnr" v="985037" />
		<tag k="tunnel" v="yes" />
	</node>
	<node lat="61.59547035683614" lon="9.747034132063584" id="-54229">
		<tag k="name" v="Vinstra stasjon" />
		<tag k="railway" v="station" />
		<tag k="ssr:stedsnr" v="990094" />
		<tag k="train" v="yes" />
	</node>
</osm>
