<?xml version="1.0" encoding="UTF-8"?>
<osm version="0.6" generator="osmapis">
	<node lat="64.55335555971578" lon="12.069749995555615" id="-89685">
		<tag k="name" v="Ljøsbergsaksla" />
		<tag k="natural" v="hill" />
		<tag k="place" v="locality" />
		<tag k="ssr:stedsnr" v="230354" />
	</node>
	<node lat="64.37397222161037" lon="11.884972216611775" id="-89686">
		<tag k="name" v="Bårdsådalen" />
		<tag k="natural" v="valley" />
		<tag k="place" v="locality" />
		<tag k="ssr:stedsnr" v="230372" />
	</node>
	<node lat="64.38747778204873" lon="11.759627774450848" id="-89693">
		<tag k="name" v="Styggdalen" />
		<tag k="natural" v="valley" />
		<tag k="place" v="locality" />
		<tag k="ssr:stedsnr" v="14604" />
	</node>
	<node lat="65.02243055633078" lon="13.281624997645249" id="-89738">
		<tag k="name" v="Namdalen" />
		<tag k="natural" v="valley" />
		<tag k="place" v="locality" />
		<tag k="ssr:stedsnr" v="75909" />
	</node>
	<node lat="64.5310250040341" lon="11.778025008353904" id="-89740">
		<tag k="alt_name" v="Taklifjellet" />
		<tag k="fixme" v="consider natural=peak for the most distinct mountains in the district" />
		<tag k="name" v="Taklia" />
		<tag k="natural" v="hill" />
		<tag k="place" v="locality" />
		<tag k="ssr:stedsnr" v="75967" />
	</node>
	<node lat="64.52799166936968" lon="11.909916676940462" id="-89761">
		<tag k="name" v="Kvennhaugen" />
		<tag k="natural" v="hill" />
		<tag k="place" v="locality" />
		<tag k="ssr:stedsnr" v="97772" />
	</node>
	<node lat="64.42789999851956" lon="12.115702785912944" id="-89763">
		<tag k="name" v="Dalan" />
		<tag k="natural" v="valley" />
		<tag k="place" v="locality" />
		<tag k="ssr:stedsnr" v="109169" />
	</node>
	<node lat="64.38594999937317" lon="11.96638333795443" id="-89764">
		<tag k="name" v="Eriktjønnklompen" />
		<tag k="natural" v="hill" />
		<tag k="place" v="locality" />
		<tag k="ssr:stedsnr" v="109377" />
	</node>
	<node lat="64.41969444798279" lon="12.03786389575487" id="-89765">
		<tag k="name" v="Koltjønndalen" />
		<tag k="natural" v="valley" />
		<tag k="place" v="locality" />
		<tag k="ssr:stedsnr" v="109403" />
	</node>
	<node lat="64.56553333639214" lon="11.93054443951954" id="-89767">
		<tag k="name" v="Svahylla" />
		<tag k="place" v="locality" />
		<tag k="ssr:stedsnr" v="110319" />
	</node>
	<node lat="64.56156111032475" lon="11.937991661612509" id="-89768">
		<tag k="name" v="Litlfjellet" />
		<tag k="natural" v="hill" />
		<tag k="place" v="locality" />
		<tag k="ssr:stedsnr" v="110321" />
	</node>
	<node lat="64.39197222245623" lon="11.836536115920676" id="-89769">
		<tag k="name" v="Taralddalen" />
		<tag k="natural" v="valley" />
		<tag k="place" v="locality" />
		<tag k="ssr:stedsnr" v="110871" />
	</node>
	<node lat="64.46895277616487" lon="11.717355547535929" id="-89771">
		<tag k="name" v="Grytvattan" />
		<tag k="natural" v="hill" />
		<tag k="place" v="locality" />
		<tag k="ssr:stedsnr" v="134066" />
	</node>
	<node lat="64.35535555753142" lon="11.878158326567593" id="-89777">
		<tag k="alt_name" v="Næverfjellet" />
		<tag k="fixme" v="consider natural=peak for the most distinct mountains in the district" />
		<tag k="name" v="Neverfjellet" />
		<tag k="natural" v="hill" />
		<tag k="place" v="locality" />
		<tag k="ssr:stedsnr" v="135569" />
	</node>
	<node lat="64.4334444474282" lon="11.74916388648572" id="-89780">
		<tag k="name" v="Ådalen" />
		<tag k="natural" v="valley" />
		<tag k="place" v="locality" />
		<tag k="ssr:stedsnr" v="135714" />
	</node>
	<node lat="64.56429999690597" lon="11.91185000928392" id="-89791">
		<tag k="name" v="Urddalen" />
		<tag k="natural" v="valley" />
		<tag k="place" v="locality" />
		<tag k="ssr:stedsnr" v="136806" />
	</node>
	<node lat="64.4362055527856" lon="11.668530549887732" id="-89811">
		<tag k="name" v="Tømmerdalen" />
		<tag k="natural" v="valley" />
		<tag k="place" v="locality" />
		<tag k="ssr:stedsnr" v="256086" />
	</node>
	<node lat="64.34760832904425" lon="11.788422219132459" id="-89812">
		<tag k="name" v="Vesterslettet" />
		<tag k="place" v="locality" />
		<tag k="ssr:stedsnr" v="147659" />
	</node>
	<node lat="64.34520277563276" lon="11.929736112190117" id="-89813">
		<tag k="name" v="Bjønndalen" />
		<tag k="natural" v="valley" />
		<tag k="place" v="locality" />
		<tag k="ssr:stedsnr" v="147662" />
	</node>
	<node lat="64.57091944522588" lon="12.085911100895672" id="-89815">
		<tag k="name" v="Kaukarhaugen" />
		<tag k="natural" v="hill" />
		<tag k="place" v="locality" />
		<tag k="ssr:stedsnr" v="149076" />
	</node>
	<node lat="64.37274444200608" lon="11.730113880485796" id="-89822">
		<tag k="name" v="Pikhaugen" />
		<tag k="natural" v="hill" />
		<tag k="place" v="locality" />
		<tag k="ssr:stedsnr" v="256644" />
	</node>
	<node lat="64.44051388484638" lon="11.73268055074045" id="-89828">
		<tag k="fixme" v="consider natural=peak for the most distinct mountains in the district" />
		<tag k="name" v="Rabben" />
		<tag k="natural" v="hill" />
		<tag k="place" v="locality" />
		<tag k="ssr:stedsnr" v="256690" />
	</node>
	<node lat="64.46153889027624" lon="11.999250008200356" id="-89829">
		<tag k="name" v="Svahylla" />
		<tag k="natural" v="hill" />
		<tag k="place" v="locality" />
		<tag k="ssr:stedsnr" v="256741" />
	</node>
	<node lat="64.51235555512764" lon="11.630008332977962" id="-89831">
		<tag k="fixme" v="consider natural=peak for the most distinct mountains in the district" />
		<tag k="name" v="Heiafjellet" />
		<tag k="natural" v="hill" />
		<tag k="place" v="locality" />
		<tag k="ssr:stedsnr" v="257154" />
	</node>
	<node lat="64.32729167095304" lon="11.856986115129047" id="-89832">
		<tag k="fixme" v="consider natural=peak for the most distinct mountains in the district" />
		<tag k="name" v="Pehaugåsen" />
		<tag k="natural" v="hill" />
		<tag k="place" v="locality" />
		<tag k="ssr:stedsnr" v="257639" />
	</node>
	<node lat="64.43300833514257" lon="11.87745277574781" id="-89837">
		<tag k="name" v="Nonshaugen" />
		<tag k="natural" v="hill" />
		<tag k="place" v="locality" />
		<tag k="ssr:stedsnr" v="257789" />
	</node>
	<node lat="64.5657999966636" lon="11.970877776651962" id="-89839">
		<tag k="name" v="Kløyva" />
		<tag k="natural" v="valley" />
		<tag k="place" v="locality" />
		<tag k="ssr:stedsnr" v="257856" />
	</node>
	<node lat="64.56442499704823" lon="11.879175004527857" id="-89842">
		<tag k="fixme" v="consider natural=peak for the most distinct mountains in the district" />
		<tag k="name" v="Ekornfjellkjølen" />
		<tag k="natural" v="hill" />
		<tag k="place" v="locality" />
		<tag k="ssr:stedsnr" v="257851" />
	</node>
	<node lat="64.49437777895825" lon="11.737563895497507" id="-89844">
		<tag k="alt_name" v="Storhaugen" />
		<tag k="name" v="Nordalhaugen" />
		<tag k="natural" v="hill" />
		<tag k="place" v="locality" />
		<tag k="ssr:stedsnr" v="257873" />
	</node>
	<node lat="64.54047500391462" lon="11.83347500906558" id="-89848">
		<tag k="name" v="Rugla" />
		<tag k="natural" v="hill" />
		<tag k="place" v="locality" />
		<tag k="ssr:stedsnr" v="257971" />
	</node>
	<node lat="64.35543610701984" lon="11.974474999578627" id="-89886">
		<tag k="alt_name" v="Rognvassklompen" />
		<tag k="fixme" v="consider natural=peak for the most distinct mountains in the district" />
		<tag k="name" v="Rognvassfjellet" />
		<tag k="natural" v="hill" />
		<tag k="place" v="locality" />
		<tag k="ssr:stedsnr" v="196657" />
	</node>
	<node lat="64.65064999596416" lon="11.957249994308974" id="-89889">
		<tag k="name" v="Grønbotnet" />
		<tag k="natural" v="valley" />
		<tag k="place" v="locality" />
		<tag k="ssr:stedsnr" v="196824" />
	</node>
	<node lat="64.46249999889044" lon="11.969516660756637" id="-89893">
		<tag k="fixme" v="consider natural=peak for the most distinct mountains in the district" />
		<tag k="name" v="Grandaksla" />
		<tag k="natural" v="hill" />
		<tag k="place" v="locality" />
		<tag k="ssr:stedsnr" v="196771" />
	</node>
	<node lat="64.55362500196804" lon="11.84803332957508" id="-89897">
		<tag k="name" v="Kjellaren" />
		<tag k="natural" v="valley" />
		<tag k="place" v="locality" />
		<tag k="ssr:stedsnr" v="197959" />
	</node>
	<node lat="64.54616389003947" lon="12.091069440321007" id="-89908">
		<tag k="name" v="Strupen" />
		<tag k="natural" v="valley" />
		<tag k="place" v="locality" />
		<tag k="ssr:stedsnr" v="210130" />
	</node>
	<node lat="64.53595555857753" lon="12.168658325535317" id="-89909">
		<tag k="name" v="Arndalen" />
		<tag k="natural" v="valley" />
		<tag k="place" v="locality" />
		<tag k="ssr:stedsnr" v="271070" />
	</node>
	<node lat="64.5626972254502" lon="12.085191657232784" id="-89912">
		<tag k="name" v="Øyengbakkan" />
		<tag k="natural" v="slope" />
		<tag k="place" v="locality" />
		<tag k="ssr:stedsnr" v="271073" />
	</node>
	<node lat="64.40318611212734" lon="11.817330560307703" id="-89917">
		<tag k="name" v="Litlrunden" />
		<tag k="natural" v="hill" />
		<tag k="place" v="locality" />
		<tag k="ssr:stedsnr" v="232800" />
	</node>
	<node lat="64.37034166675664" lon="11.691038894467924" id="-89931">
		<tag k="fixme" v="consider natural=peak for the most distinct mountains in the district" />
		<tag k="name" v="Finnfjellet" />
		<tag k="natural" v="hill" />
		<tag k="place" v="locality" />
		<tag k="ssr:stedsnr" v="256962" />
	</node>
	<node lat="64.42295833682535" lon="11.957402783418184" id="-89935">
		<tag k="name" v="Dyrlegehaugen" />
		<tag k="natural" v="hill" />
		<tag k="place" v="locality" />
		<tag k="ssr:stedsnr" v="257800" />
	</node>
	<node lat="64.62043055626421" lon="12.004930561949747" id="-89936">
		<tag k="name" v="Snødalen" />
		<tag k="natural" v="valley" />
		<tag k="place" v="locality" />
		<tag k="ssr:stedsnr" v="257906" />
	</node>
	<node lat="64.39693333465338" lon="11.667530558176267" id="-89944">
		<tag k="fixme" v="consider natural=peak for the most distinct mountains in the district" />
		<tag k="name" v="Finntøytja" />
		<tag k="natural" v="hill" />
		<tag k="place" v="locality" />
		<tag k="ssr:stedsnr" v="291010" />
	</node>
	<node lat="64.43099999991772" lon="12.007586116822663" id="-89979">
		<tag k="name" v="Bekkdalen" />
		<tag k="natural" v="valley" />
		<tag k="place" v="locality" />
		<tag k="ssr:stedsnr" v="472370" />
	</node>
	<node lat="64.41373611007154" lon="11.837522212403478" id="-89989">
		<tag k="name" v="Varvasslia" />
		<tag k="natural" v="slope" />
		<tag k="place" v="locality" />
		<tag k="ssr:stedsnr" v="353815" />
	</node>
	<node lat="64.34995278127634" lon="11.803808330293476" id="-89990">
		<tag k="name" v="Langdalen" />
		<tag k="natural" v="valley" />
		<tag k="place" v="locality" />
		<tag k="ssr:stedsnr" v="474871" />
	</node>
	<node lat="64.41480277784069" lon="12.027825005164129" id="-90010">
		<tag k="name" v="Elgremma" />
		<tag k="natural" v="slope" />
		<tag k="place" v="locality" />
		<tag k="ssr:stedsnr" v="412387" />
	</node>
	<node lat="64.59445277590852" lon="12.086294452695832" id="-90016">
		<tag k="name" v="Svartdalen" />
		<tag k="natural" v="valley" />
		<tag k="place" v="locality" />
		<tag k="ssr:stedsnr" v="439798" />
	</node>
	<node lat="64.58078333189007" lon="11.962786101904815" id="-90017">
		<tag k="name" v="Bjørndalen" />
		<tag k="natural" v="valley" />
		<tag k="place" v="locality" />
		<tag k="ssr:stedsnr" v="439800" />
	</node>
	<node lat="64.44160555684013" lon="12.027361121338126" id="-90018">
		<tag k="name" v="Isakberga" />
		<tag k="natural" v="hill" />
		<tag k="place" v="locality" />
		<tag k="ssr:stedsnr" v="439745" />
	</node>
	<node lat="64.58534999940922" lon="12.0364999986963" id="-90019">
		<tag k="name" v="Heia" />
		<tag k="natural" v="valley" />
		<tag k="place" v="locality" />
		<tag k="ssr:stedsnr" v="439808" />
	</node>
	<node lat="64.42240833674191" lon="11.924786115427741" id="-90041">
		<tag k="name" v="Finntomaslia" />
		<tag k="natural" v="slope" />
		<tag k="place" v="locality" />
		<tag k="ssr:stedsnr" v="472365" />
	</node>
	<node lat="64.58295555678013" lon="12.063363896120782" id="-90042">
		<tag k="name" v="Svartdalvollen" />
		<tag k="place" v="locality" />
		<tag k="ssr:stedsnr" v="473376" />
	</node>
	<node lat="64.54780000216512" lon="11.826577767688313" id="-90058">
		<tag k="name" v="Urddalen" />
		<tag k="natural" v="valley" />
		<tag k="place" v="locality" />
		<tag k="ssr:stedsnr" v="500208" />
	</node>
	<node lat="64.57449999578216" lon="11.916230559116778" id="-90061">
		<tag k="fixme" v="consider natural=peak for the most distinct mountains in the district" />
		<tag k="name" v="Ekornfjella" />
		<tag k="natural" v="hill" />
		<tag k="place" v="locality" />
		<tag k="ssr:stedsnr" v="500831" />
	</node>
	<node lat="64.63280000302146" lon="12.032474995972748" id="-90062">
		<tag k="name" v="Kovaholet" />
		<tag k="natural" v="valley" />
		<tag k="place" v="locality" />
		<tag k="ssr:stedsnr" v="500883" />
	</node>
	<node lat="64.4022444401238" lon="11.834286117093924" id="-90063">
		<tag k="name" v="Geitkløyvdalen" />
		<tag k="natural" v="valley" />
		<tag k="place" v="locality" />
		<tag k="ssr:stedsnr" v="681637" />
	</node>
	<node lat="64.40578888967586" lon="11.975075000807015" id="-90065">
		<tag k="name" v="Etiopia" />
		<tag k="natural" v="valley" />
		<tag k="place" v="locality" />
		<tag k="ssr:stedsnr" v="681641" />
	</node>
	<node lat="64.40601944399732" lon="11.984150006604823" id="-90066">
		<tag k="name" v="Teppendalen" />
		<tag k="natural" v="valley" />
		<tag k="place" v="locality" />
		<tag k="ssr:stedsnr" v="681642" />
	</node>
	<node lat="64.44584444306504" lon="11.735249991114861" id="-90073">
		<tag k="name" v="Kåvin" />
		<tag k="natural" v="slope" />
		<tag k="place" v="locality" />
		<tag k="ssr:stedsnr" v="681734" />
	</node>
	<node lat="64.54582777990194" lon="11.871900003966246" id="-90109">
		<tag k="name" v="Roesdalen" />
		<tag k="natural" v="valley" />
		<tag k="place" v="locality" />
		<tag k="ssr:stedsnr" v="682955" />
	</node>
	<node lat="64.5212305564794" lon="11.758430560296514" id="-90119">
		<tag k="fixme" v="consider natural=peak for the most distinct mountains in the district" />
		<tag k="name" v="Svartåsen" />
		<tag k="natural" v="hill" />
		<tag k="place" v="locality" />
		<tag k="ssr:stedsnr" v="534432" />
	</node>
	<node lat="64.37016944752092" lon="11.878427784246046" id="-90120">
		<tag k="name" v="Tetlifjellet" />
		<tag k="natural" v="hill" />
		<tag k="place" v="locality" />
		<tag k="ssr:stedsnr" v="535874" />
	</node>
	<node lat="64.56715000388155" lon="11.959875007517624" id="-90149">
		<tag k="name" v="Hanshaugen" />
		<tag k="natural" v="hill" />
		<tag k="place" v="locality" />
		<tag k="ssr:stedsnr" v="560809" />
	</node>
	<node lat="64.4284611127871" lon="11.896758336786904" id="-90153">
		<tag k="name" v="Danielenghaugen" />
		<tag k="natural" v="hill" />
		<tag k="place" v="locality" />
		<tag k="ssr:stedsnr" v="560731" />
	</node>
	<node lat="64.41947777584294" lon="11.992886101376218" id="-90203">
		<tag k="name" v="Mattiasholet" />
		<tag k="natural" v="valley" />
		<tag k="place" v="locality" />
		<tag k="ssr:stedsnr" v="594409" />
	</node>
	<node lat="64.4110250011554" lon="12.010383324495404" id="-90208">
		<tag k="name" v="Flydalspiken" />
		<tag k="natural" v="hill" />
		<tag k="place" v="locality" />
		<tag k="ssr:stedsnr" v="620605" />
	</node>
	<node lat="64.45604999835393" lon="12.112502779280856" id="-90211">
		<tag k="name" v="Brennmoen" />
		<tag k="place" v="locality" />
		<tag k="ssr:stedsnr" v="620687" />
	</node>
	<node lat="64.5346750006979" lon="11.783458334608861" id="-90215">
		<tag k="name" v="Storfjelldomma" />
		<tag k="natural" v="slope" />
		<tag k="place" v="locality" />
		<tag k="ssr:stedsnr" v="621968" />
	</node>
	<node lat="64.44466388518798" lon="11.678763883945313" id="-90238">
		<tag k="name" v="Tømmerdalen" />
		<tag k="natural" v="valley" />
		<tag k="place" v="locality" />
		<tag k="ssr:stedsnr" v="629341" />
	</node>
	<node lat="64.43278611543244" lon="12.01525000291477" id="-90248">
		<tag k="name" v="Isakberget" />
		<tag k="natural" v="hill" />
		<tag k="place" v="locality" />
		<tag k="ssr:stedsnr" v="654395" />
	</node>
	<node lat="64.34283333089071" lon="12.111752770505614" id="-90276">
		<tag k="name" v="Himmelriket" />
		<tag k="natural" v="slope" />
		<tag k="place" v="locality" />
		<tag k="ssr:stedsnr" v="898163" />
	</node>
	<node lat="64.39310277613203" lon="11.953058324247854" id="-90277">
		<tag k="name" v="Storbrokvassdalen" />
		<tag k="natural" v="valley" />
		<tag k="place" v="locality" />
		<tag k="ssr:stedsnr" v="715409" />
	</node>
	<node lat="64.35482222595968" lon="11.691133328063595" id="-90283">
		<tag k="alt_name" v="Vesterogndalen" />
		<tag k="name" v="Vesterongdalen" />
		<tag k="natural" v="valley" />
		<tag k="place" v="locality" />
		<tag k="ssr:stedsnr" v="716105" />
	</node>
	<node lat="64.40751389184481" lon="11.834594438298835" id="-90286">
		<tag k="name" v="Svartberget" />
		<tag k="natural" v="hill" />
		<tag k="place" v="locality" />
		<tag k="ssr:stedsnr" v="899845" />
	</node>
	<node lat="64.38386388568107" lon="11.863777778818012" id="-90292">
		<tag k="name" v="Selhaugen" />
		<tag k="natural" v="hill" />
		<tag k="place" v="locality" />
		<tag k="ssr:stedsnr" v="742636" />
	</node>
	<node lat="64.51540833518165" lon="11.775177775191464" id="-90306">
		<tag k="fixme" v="consider natural=peak for the most distinct mountains in the district" />
		<tag k="name" v="Trøengåsen" />
		<tag k="natural" v="hill" />
		<tag k="place" v="locality" />
		<tag k="ssr:stedsnr" v="742998" />
	</node>
	<node lat="64.41171666311713" lon="11.949113891396147" id="-90326">
		<tag k="fixme" v="consider natural=peak for the most distinct mountains in the district" />
		<tag k="name" v="Litlklumpen" />
		<tag k="natural" v="hill" />
		<tag k="place" v="locality" />
		<tag k="ssr:stedsnr" v="754567" />
	</node>
	<node lat="64.55688888664757" lon="12.083452777537657" id="-90327">
		<tag k="fixme" v="consider natural=peak for the most distinct mountains in the district" />
		<tag k="name" v="Brannåsen" />
		<tag k="natural" v="hill" />
		<tag k="place" v="locality" />
		<tag k="ssr:stedsnr" v="756115" />
	</node>
	<node lat="64.42259722196782" lon="12.103861116765913" id="-90331">
		<tag k="name" v="Stemningshaugen" />
		<tag k="natural" v="hill" />
		<tag k="place" v="locality" />
		<tag k="ssr:stedsnr" v="776166" />
	</node>
	<node lat="64.5513999967117" lon="12.031424996177781" id="-90347">
		<tag k="fixme" v="consider natural=peak for the most distinct mountains in the district" />
		<tag k="name" v="Storfjellet" />
		<tag k="natural" v="hill" />
		<tag k="place" v="locality" />
		<tag k="ssr:stedsnr" v="804812" />
	</node>
	<node lat="64.51621667032762" lon="11.637569446265285" id="-90370">
		<tag k="name" v="Tverrdalen" />
		<tag k="natural" v="valley" />
		<tag k="place" v="locality" />
		<tag k="ssr:stedsnr" v="837416" />
	</node>
	<node lat="64.31909999679635" lon="11.84102778289423" id="-90374">
		<tag k="name" v="Brennvinshaugen" />
		<tag k="natural" v="hill" />
		<tag k="place" v="locality" />
		<tag k="ssr:stedsnr" v="924590" />
	</node>
	<node lat="64.40671110987593" lon="11.954825005519323" id="-90375">
		<tag k="fixme" v="consider natural=peak for the most distinct mountains in the district" />
		<tag k="name" v="Brokvassklumpen" />
		<tag k="natural" v="hill" />
		<tag k="place" v="locality" />
		<tag k="ssr:stedsnr" v="924626" />
	</node>
	<node lat="64.39375555592059" lon="11.71906388897541" id="-90376">
		<tag k="name" v="Finndalen" />
		<tag k="natural" v="valley" />
		<tag k="place" v="locality" />
		<tag k="ssr:stedsnr" v="924630" />
	</node>
	<node lat="64.39755278089073" lon="12.154450000489271" id="-90377">
		<tag k="fixme" v="consider natural=peak for the most distinct mountains in the district" />
		<tag k="name" v="Revrumpfjellet" />
		<tag k="natural" v="hill" />
		<tag k="place" v="locality" />
		<tag k="ssr:stedsnr" v="924633" />
	</node>
	<node lat="64.61928333771965" lon="11.963033331695152" id="-90388">
		<tag k="fixme" v="consider natural=peak for the most distinct mountains in the district" />
		<tag k="name" v="Fealloetjahke" />
		<tag k="name:sma" v="Fealloetjahke" />
		<tag k="natural" v="hill" />
		<tag k="place" v="locality" />
		<tag k="ssr:stedsnr" v="924853" />
	</node>
	<node lat="64.53976111035786" lon="11.697550002255843" id="-90392">
		<tag k="fixme" v="consider natural=peak for the most distinct mountains in the district" />
		<tag k="name" v="Storlifjellet" />
		<tag k="natural" v="hill" />
		<tag k="place" v="locality" />
		<tag k="ssr:stedsnr" v="925097" />
	</node>
	<node lat="64.52322777525141" lon="11.67882499136351" id="-90393">
		<tag k="alt_name" v="Svartåsen" />
		<tag k="fixme" v="consider natural=peak for the most distinct mountains in the district" />
		<tag k="name" v="Knutengsvartåsen" />
		<tag k="natural" v="hill" />
		<tag k="place" v="locality" />
		<tag k="ssr:stedsnr" v="925178" />
	</node>
	<node lat="64.56024999645234" lon="12.04567777655665" id="-90394">
		<tag k="name" v="Høyhaugen" />
		<tag k="natural" v="hill" />
		<tag k="place" v="locality" />
		<tag k="ssr:stedsnr" v="925852" />
	</node>
	<node lat="64.64062777399106" lon="11.920775002490593" id="-90395">
		<tag k="fixme" v="consider natural=peak for the most distinct mountains in the district" />
		<tag k="name" v="Storengfjellet" />
		<tag k="natural" v="hill" />
		<tag k="place" v="locality" />
		<tag k="ssr:stedsnr" v="925886" />
	</node>
	<node lat="64.40280555094218" lon="11.709022232058123" id="-90440">
		<tag k="fixme" v="consider natural=peak for the most distinct mountains in the district" />
		<tag k="name" v="Storflisninghatten" />
		<tag k="natural" v="hill" />
		<tag k="place" v="locality" />
		<tag k="ssr:stedsnr" v="898008" />
	</node>
	<node lat="64.55965555803867" lon="12.068880550661069" id="-90441">
		<tag k="name" v="Melhusdalen" />
		<tag k="natural" v="valley" />
		<tag k="place" v="locality" />
		<tag k="ssr:stedsnr" v="898355" />
	</node>
	<node lat="64.41725555217381" lon="11.802769434418419" id="-90448">
		<tag k="fixme" v="consider natural=peak for the most distinct mountains in the district" />
		<tag k="name" v="Langvassåsen" />
		<tag k="natural" v="hill" />
		<tag k="place" v="locality" />
		<tag k="ssr:stedsnr" v="924609" />
	</node>
	<node lat="64.4048777747691" lon="11.84625000806634" id="-90449">
		<tag k="name" v="Olamyrdalen" />
		<tag k="natural" v="valley" />
		<tag k="place" v="locality" />
		<tag k="ssr:stedsnr" v="924617" />
	</node>
	<node lat="64.59490555202049" lon="11.90820000455752" id="-90454">
		<tag k="name" v="Gåshalsen" />
		<tag k="natural" v="valley" />
		<tag k="place" v="locality" />
		<tag k="ssr:stedsnr" v="925828" />
	</node>
	<node lat="64.37583888655881" lon="11.960066668835982" id="-90473">
		<tag k="name" v="Rundhaugen" />
		<tag k="natural" v="hill" />
		<tag k="place" v="locality" />
		<tag k="ssr:stedsnr" v="936538" />
	</node>
	<node lat="64.41407500401736" lon="11.817899991245213" id="-90483">
		<tag k="fixme" v="consider natural=peak for the most distinct mountains in the district" />
		<tag k="name" v="Storbakkåsen" />
		<tag k="natural" v="hill" />
		<tag k="place" v="locality" />
		<tag k="ssr:stedsnr" v="13642" />
	</node>
	<node lat="64.37576389124057" lon="11.666166667139406" id="-90487">
		<tag k="fixme" v="consider natural=peak for the most distinct mountains in the district" />
		<tag k="name" v="Finnkallen" />
		<tag k="natural" v="hill" />
		<tag k="place" v="locality" />
		<tag k="ssr:stedsnr" v="13966" />
	</node>
	<node lat="64.49106944598554" lon="11.864461109299741" id="-90496">
		<tag k="name" v="Blengslia" />
		<tag k="natural" v="slope" />
		<tag k="place" v="locality" />
		<tag k="ssr:stedsnr" v="14746" />
	</node>
	<node lat="64.3615861118565" lon="11.667983327703666" id="-90501">
		<tag k="fixme" v="consider natural=peak for the most distinct mountains in the district" />
		<tag k="name" v="Merkesaksla" />
		<tag k="natural" v="hill" />
		<tag k="place" v="locality" />
		<tag k="ssr:stedsnr" v="14932" />
	</node>
	<node lat="64.53082499906303" lon="11.820841658579917" id="-90502">
		<tag k="alt_name" v="Flyhatten" />
		<tag k="fixme" v="consider natural=peak for the most distinct mountains in the district" />
		<tag k="name" v="Storflyhatten" />
		<tag k="natural" v="hill" />
		<tag k="place" v="locality" />
		<tag k="ssr:stedsnr" v="14941" />
	</node>
	<node lat="64.53512777361495" lon="11.745949993677446" id="-90505">
		<tag k="name" v="Nordskåla" />
		<tag k="natural" v="valley" />
		<tag k="place" v="locality" />
		<tag k="ssr:stedsnr" v="14951" />
	</node>
	<node lat="64.6689749986077" lon="12.027925003120455" id="-90506">
		<tag k="alt_name:no" v="Grønningsfjellet" />
		<tag k="fixme" v="consider natural=peak for the most distinct mountains in the district" />
		<tag k="name" v="Grønningfjella - Guevtele" />
		<tag k="name:no" v="Grønningfjella" />
		<tag k="name:sma" v="Guevtele" />
		<tag k="natural" v="hill" />
		<tag k="place" v="locality" />
		<tag k="ssr:stedsnr" v="15839" />
	</node>
	<node lat="64.54007499624177" lon="12.170824990513326" id="-90508">
		<tag k="name" v="Storhaugen" />
		<tag k="natural" v="hill" />
		<tag k="place" v="locality" />
		<tag k="ssr:stedsnr" v="15959" />
	</node>
	<node lat="64.41346944795693" lon="11.878547218091592" id="-90545">
		<tag k="name" v="Navarsholhaugen" />
		<tag k="natural" v="hill" />
		<tag k="place" v="locality" />
		<tag k="ssr:stedsnr" v="48370" />
	</node>
	<node lat="64.38530555959468" lon="11.939550000753584" id="-90546">
		<tag k="name" v="Fiskløyslia" />
		<tag k="natural" v="slope" />
		<tag k="place" v="locality" />
		<tag k="ssr:stedsnr" v="48362" />
	</node>
	<node lat="64.40872222193288" lon="11.807388888415295" id="-90548">
		<tag k="name" v="Gauksjøåsen" />
		<tag k="natural" v="slope" />
		<tag k="place" v="locality" />
		<tag k="ssr:stedsnr" v="50797" />
	</node>
	<node lat="64.2983944414977" lon="11.722152787432798" id="-90552">
		<tag k="name" v="Spillumsdalen" />
		<tag k="natural" v="valley" />
		<tag k="place" v="locality" />
		<tag k="ssr:stedsnr" v="74599" />
	</node>
	<node lat="64.49157499610648" lon="12.10646389039151" id="-90556">
		<tag k="fixme" v="consider natural=peak for the most distinct mountains in the district" />
		<tag k="name" v="Spannfjellet" />
		<tag k="natural" v="hill" />
		<tag k="place" v="locality" />
		<tag k="ssr:stedsnr" v="74729" />
	</node>
	<node lat="64.4754333366542" lon="11.95530833044534" id="-90565">
		<tag k="fixme" v="consider natural=peak for the most distinct mountains in the district" />
		<tag k="name" v="Vibstadfjellet" />
		<tag k="natural" v="hill" />
		<tag k="place" v="locality" />
		<tag k="ssr:stedsnr" v="75850" />
	</node>
	<node lat="64.34660833055612" lon="12.109447218703858" id="-90607">
		<tag k="name" v="Marenliin" />
		<tag k="natural" v="slope" />
		<tag k="place" v="locality" />
		<tag k="ssr:stedsnr" v="109166" />
	</node>
	<node lat="64.39376666792413" lon="11.835241664685537" id="-90610">
		<tag k="name" v="Taraldalkjeften" />
		<tag k="natural" v="valley" />
		<tag k="place" v="locality" />
		<tag k="ssr:stedsnr" v="110847" />
	</node>
	<node lat="64.45523888754819" lon="11.647963899147866" id="-90612">
		<tag k="name" v="Merradalen" />
		<tag k="natural" v="valley" />
		<tag k="place" v="locality" />
		<tag k="ssr:stedsnr" v="134014" />
	</node>
	<node lat="64.63537499608856" lon="11.881977771899606" id="-90624">
		<tag k="fixme" v="consider natural=peak for the most distinct mountains in the district" />
		<tag k="name" v="Storengaksla - Gåahketjahke" />
		<tag k="name:no" v="Storengaksla" />
		<tag k="name:sma" v="Gåahketjahke" />
		<tag k="natural" v="hill" />
		<tag k="place" v="locality" />
		<tag k="ssr:stedsnr" v="135834" />
	</node>
	<node lat="64.6139083332582" lon="11.960627785117298" id="-90627">
		<tag k="alt_name" v="Vakkerfjella" />
		<tag k="fixme" v="consider natural=peak for the most distinct mountains in the district" />
		<tag k="name" v="Vakkerfjellet" />
		<tag k="natural" v="hill" />
		<tag k="place" v="locality" />
		<tag k="ssr:stedsnr" v="135847" />
	</node>
	<node lat="64.58847500002292" lon="11.966524990406393" id="-90632">
		<tag k="name" v="Amdalshaugen" />
		<tag k="natural" v="hill" />
		<tag k="place" v="locality" />
		<tag k="ssr:stedsnr" v="135769" />
	</node>
	<node lat="64.49927500378304" lon="11.960513895637204" id="-90667">
		<tag k="name" v="Svenningmoen" />
		<tag k="place" v="locality" />
		<tag k="ssr:stedsnr" v="161718" />
	</node>
	<node lat="64.39175833365788" lon="11.846708341451533" id="-90669">
		<tag k="name" v="Seterdalen" />
		<tag k="natural" v="valley" />
		<tag k="place" v="locality" />
		<tag k="ssr:stedsnr" v="169391" />
	</node>
	<node lat="64.54686111389518" lon="12.057411104624125" id="-90671">
		<tag k="name" v="Storhøgdin" />
		<tag k="natural" v="hill" />
		<tag k="place" v="locality" />
		<tag k="ssr:stedsnr" v="169352" />
	</node>
	<node lat="64.38019722631508" lon="11.943166666085098" id="-90672">
		<tag k="name" v="Eriktjønnheia" />
		<tag k="natural" v="hill" />
		<tag k="place" v="locality" />
		<tag k="ssr:stedsnr" v="169397" />
	</node>
	<node lat="65.11002777597567" lon="13.085422216082504" id="-90688">
		<tag k="fixme" v="consider natural=peak for the most distinct mountains in the district" />
		<tag k="name" v="Kløftfjellet - Sloeptjenguevtele" />
		<tag k="name:no" v="Kløftfjellet" />
		<tag k="name:sma" v="Sloeptjenguevtele" />
		<tag k="natural" v="hill" />
		<tag k="place" v="locality" />
		<tag k="ssr:stedsnr" v="196523" />
	</node>
	<node lat="64.3570916705529" lon="11.742238893130661" id="-90690">
		<tag k="name" v="Langdalskjeften" />
		<tag k="natural" v="valley" />
		<tag k="place" v="locality" />
		<tag k="ssr:stedsnr" v="196538" />
	</node>
	<node lat="64.39544722358877" lon="11.89064444876412" id="-90697">
		<tag k="name" v="Fuglhaugen" />
		<tag k="natural" v="hill" />
		<tag k="place" v="locality" />
		<tag k="ssr:stedsnr" v="196617" />
	</node>
	<node lat="64.35962500159833" lon="11.762283340108825" id="-90705">
		<tag k="name" v="Skogkjerringhaugen" />
		<tag k="natural" v="hill" />
		<tag k="place" v="locality" />
		<tag k="ssr:stedsnr" v="196647" />
	</node>
	<node lat="64.4855277804285" lon="11.9726000061174" id="-90706">
		<tag k="name" v="Stortuva" />
		<tag k="natural" v="hill" />
		<tag k="place" v="locality" />
		<tag k="ssr:stedsnr" v="196745" />
	</node>
	<node lat="64.34440555793736" lon="11.668100003545753" id="-90713">
		<tag k="name" v="Sandåhatten" />
		<tag k="natural" v="hill" />
		<tag k="place" v="locality" />
		<tag k="ssr:stedsnr" v="196884" />
	</node>
	<node lat="64.31192071815597" lon="11.946764209147315" id="-90733">
		<tag k="name" v="Grandaundalen" />
		<tag k="natural" v="valley" />
		<tag k="place" v="locality" />
		<tag k="ssr:stedsnr" v="208155" />
	</node>
	<node lat="64.55028055618341" lon="12.10368055857385" id="-90735">
		<tag k="name" v="Kvernmoen" />
		<tag k="place" v="locality" />
		<tag k="ssr:stedsnr" v="210071" />
	</node>
	<node lat="64.52347778164817" lon="12.158516659131065" id="-90736">
		<tag k="name" v="Nåltjønnmoan" />
		<tag k="place" v="locality" />
		<tag k="ssr:stedsnr" v="211047" />
	</node>
	<node lat="64.360386111525" lon="11.948605545788038" id="-90741">
		<tag k="name" v="Bjønndalen" />
		<tag k="natural" v="valley" />
		<tag k="place" v="locality" />
		<tag k="ssr:stedsnr" v="291760" />
	</node>
	<node lat="64.54990277543875" lon="11.944563883635032" id="-90742">
		<tag k="name" v="Gosmørdalen" />
		<tag k="natural" v="valley" />
		<tag k="place" v="locality" />
		<tag k="ssr:stedsnr" v="292293" />
	</node>
	<node lat="64.39588055521989" lon="11.824772214181506" id="-90743">
		<tag k="name" v="Taraldalåsen" />
		<tag k="natural" v="hill" />
		<tag k="place" v="locality" />
		<tag k="ssr:stedsnr" v="292837" />
	</node>
	<node lat="64.38540277574077" lon="11.82263333408125" id="-90744">
		<tag k="name" v="Halvardloddo" />
		<tag k="natural" v="valley" />
		<tag k="place" v="locality" />
		<tag k="ssr:stedsnr" v="292864" />
	</node>
	<node lat="64.51571388749684" lon="11.657450002224458" id="-90748">
		<tag k="fixme" v="consider natural=peak for the most distinct mountains in the district" />
		<tag k="name" v="Aunaåsen" />
		<tag k="natural" v="hill" />
		<tag k="place" v="locality" />
		<tag k="ssr:stedsnr" v="317129" />
	</node>
	<node lat="64.31516944463158" lon="11.821833333267087" id="-90753">
		<tag k="name" v="Steindalen" />
		<tag k="natural" v="valley" />
		<tag k="place" v="locality" />
		<tag k="ssr:stedsnr" v="317568" />
	</node>
	<node lat="64.4233111089227" lon="12.092391667643776" id="-90755">
		<tag k="fixme" v="multiple name tags, choose one and add the other to alt_name; consider natural=peak for the most distinct mountains in the district" />
		<tag k="name" v="Middagsfjellet;Middagsklumpen" />
		<tag k="natural" v="hill" />
		<tag k="place" v="locality" />
		<tag k="ssr:stedsnr" v="317686" />
	</node>
	<node lat="64.59895833295752" lon="11.915255547716905" id="-90764">
		<tag k="name" v="Almdalen" />
		<tag k="natural" v="valley" />
		<tag k="place" v="locality" />
		<tag k="ssr:stedsnr" v="318775" />
	</node>
	<node lat="64.40702222328092" lon="11.859383338271954" id="-90799">
		<tag k="name" v="Nyseterdalen" />
		<tag k="natural" v="valley" />
		<tag k="place" v="locality" />
		<tag k="ssr:stedsnr" v="351389" />
	</node>
	<node lat="64.42483333670131" lon="12.00796388508538" id="-90800">
		<tag k="name" v="Grøtvasshaugen" />
		<tag k="natural" v="hill" />
		<tag k="place" v="locality" />
		<tag k="ssr:stedsnr" v="351401" />
	</node>
	<node lat="64.42712500076031" lon="12.071066675450952" id="-90803">
		<tag k="loc_name" v="Urdal'n" />
		<tag k="name" v="Urdalen" />
		<tag k="natural" v="valley" />
		<tag k="place" v="locality" />
		<tag k="ssr:stedsnr" v="351413" />
	</node>
	<node lat="64.5159305544758" lon="11.725911108420833" id="-90804">
		<tag k="fixme" v="consider natural=peak for the most distinct mountains in the district" />
		<tag k="name" v="Reinbjøråsen" />
		<tag k="natural" v="hill" />
		<tag k="place" v="locality" />
		<tag k="ssr:stedsnr" v="351415" />
	</node>
	<node lat="64.424686113711" lon="12.048338893724427" id="-90805">
		<tag k="name" v="Stormyrhaugen" />
		<tag k="natural" v="hill" />
		<tag k="place" v="locality" />
		<tag k="ssr:stedsnr" v="351416" />
	</node>
	<node lat="64.502627779002" lon="11.661736105355256" id="-90806">
		<tag k="name" v="Svahylla" />
		<tag k="natural" v="hill" />
		<tag k="place" v="locality" />
		<tag k="ssr:stedsnr" v="351417" />
	</node>
	<node lat="64.41455555639347" lon="11.810688878648573" id="-90808">
		<tag k="name" v="Halvtotuva" />
		<tag k="natural" v="hill" />
		<tag k="place" v="locality" />
		<tag k="ssr:stedsnr" v="353832" />
	</node>
	<node lat="64.46846944854342" lon="11.728666666468023" id="-90818">
		<tag k="fixme" v="consider natural=peak for the most distinct mountains in the district" />
		<tag k="name" v="Vattan" />
		<tag k="natural" v="hill" />
		<tag k="place" v="locality" />
		<tag k="ssr:stedsnr" v="377730" />
	</node>
	<node lat="64.40408333174592" lon="11.660838883792557" id="-90824">
		<tag k="alt_name" v="Takliheia" />
		<tag k="fixme" v="consider natural=peak for the most distinct mountains in the district" />
		<tag k="name" v="Taklifjellet" />
		<tag k="natural" v="hill" />
		<tag k="place" v="locality" />
		<tag k="ssr:stedsnr" v="378053" />
	</node>
	<node lat="64.5146333319866" lon="11.683399998360109" id="-90826">
		<tag k="name" v="Skagaheia" />
		<tag k="natural" v="hill" />
		<tag k="place" v="locality" />
		<tag k="ssr:stedsnr" v="378137" />
	</node>
	<node lat="64.36670555901321" lon="11.814016662484505" id="-90828">
		<tag k="name" v="Karidalshøgda" />
		<tag k="natural" v="hill" />
		<tag k="place" v="locality" />
		<tag k="ssr:stedsnr" v="378689" />
	</node>
	<node lat="64.58510000014908" lon="12.085325006400831" id="-90833">
		<tag k="fixme" v="consider natural=peak for the most distinct mountains in the district" />
		<tag k="name" v="Grønlifjellet" />
		<tag k="natural" v="hill" />
		<tag k="place" v="locality" />
		<tag k="ssr:stedsnr" v="378822" />
	</node>
	<node lat="64.57134999803272" lon="11.951783330907475" id="-90834">
		<tag k="name" v="Solemsdalen" />
		<tag k="natural" v="valley" />
		<tag k="place" v="locality" />
		<tag k="ssr:stedsnr" v="378824" />
	</node>
	<node lat="64.53455000030597" lon="11.812333324343285" id="-90841">
		<tag k="alt_name" v="Svarthalldalen" />
		<tag k="name" v="Svartholdalen" />
		<tag k="natural" v="valley" />
		<tag k="place" v="locality" />
		<tag k="ssr:stedsnr" v="379957" />
	</node>
	<node lat="64.55824166257332" lon="12.100811111040132" id="-90867">
		<tag k="name" v="Øyenghola" />
		<tag k="natural" v="valley" />
		<tag k="place" v="locality" />
		<tag k="ssr:stedsnr" v="392076" />
	</node>
	<node lat="64.56032222087288" lon="12.084350005874159" id="-90868">
		<tag k="fixme" v="consider natural=peak for the most distinct mountains in the district" />
		<tag k="name" v="Storengåsen" />
		<tag k="natural" v="hill" />
		<tag k="place" v="locality" />
		<tag k="ssr:stedsnr" v="392143" />
	</node>
	<node lat="64.54541111531641" lon="12.153661115127557" id="-90869">
		<tag k="fixme" v="consider natural=peak for the most distinct mountains in the district" />
		<tag k="name" v="Nesåsen" />
		<tag k="natural" v="hill" />
		<tag k="place" v="locality" />
		<tag k="ssr:stedsnr" v="392245" />
	</node>
	<node lat="64.40399444064894" lon="12.030274998380124" id="-90886">
		<tag k="fixme" v="consider natural=peak for the most distinct mountains in the district" />
		<tag k="name" v="Slipsteinsfjellet" />
		<tag k="natural" v="hill" />
		<tag k="place" v="locality" />
		<tag k="ssr:stedsnr" v="438657" />
	</node>
	<node lat="64.42454444021817" lon="11.711627768600001" id="-90893">
		<tag k="fixme" v="consider natural=peak for the most distinct mountains in the district" />
		<tag k="name" v="Høgaksla" />
		<tag k="natural" v="hill" />
		<tag k="place" v="locality" />
		<tag k="ssr:stedsnr" v="439084" />
	</node>
	<node lat="64.57440277719576" lon="12.063430559979201" id="-90899">
		<tag k="name" v="Grovdalen" />
		<tag k="natural" v="valley" />
		<tag k="place" v="locality" />
		<tag k="ssr:stedsnr" v="439816" />
	</node>
	<node lat="64.62998055282958" lon="11.992450003097943" id="-90901">
		<tag k="fixme" v="consider natural=peak for the most distinct mountains in the district" />
		<tag k="name" v="Skorva" />
		<tag k="natural" v="hill" />
		<tag k="place" v="locality" />
		<tag k="ssr:stedsnr" v="439885" />
	</node>
	<node lat="64.60527778017874" lon="11.911874994709079" id="-90903">
		<tag k="alt_name" v="Nordstigen" />
		<tag k="name" v="Nordlistigen" />
		<tag k="natural" v="slope" />
		<tag k="place" v="locality" />
		<tag k="ssr:stedsnr" v="439776" />
	</node>
	<node lat="64.59536388549195" lon="11.975999998373648" id="-90906">
		<tag k="fixme" v="consider natural=peak for the most distinct mountains in the district" />
		<tag k="name" v="Almdalsfjella" />
		<tag k="natural" v="hill" />
		<tag k="place" v="locality" />
		<tag k="ssr:stedsnr" v="439780" />
	</node>
	<node lat="64.5444027793097" lon="11.757949993054666" id="-90912">
		<tag k="alt_name" v="Storlifjellet" />
		<tag k="fixme" v="consider natural=peak for the most distinct mountains in the district" />
		<tag k="name" v="Storfjellet" />
		<tag k="natural" v="hill" />
		<tag k="place" v="locality" />
		<tag k="ssr:stedsnr" v="440968" />
	</node>
	<node lat="64.48587222144369" lon="11.628169451107398" id="-90956">
		<tag k="alt_name" v="Tretvikfjellet" />
		<tag k="fixme" v="multiple name tags, choose one and add the other to alt_name" />
		<tag k="name" v="Trettvikberga;Trettvikfjellet" />
		<tag k="natural" v="hill" />
		<tag k="place" v="locality" />
		<tag k="ssr:stedsnr" v="499162" />
	</node>
	<node lat="64.36136110985815" lon="11.821036108560081" id="-90958">
		<tag k="name" v="Karidalen" />
		<tag k="natural" v="valley" />
		<tag k="place" v="locality" />
		<tag k="ssr:stedsnr" v="499626" />
	</node>
	<node lat="64.35406944133291" lon="11.743949996162737" id="-90959">
		<tag k="name" v="Selhaugen" />
		<tag k="natural" v="hill" />
		<tag k="place" v="locality" />
		<tag k="ssr:stedsnr" v="499631" />
	</node>
	<node lat="64.5569083317903" lon="12.104911108524059" id="-91008">
		<tag k="name" v="Kvernhushola" />
		<tag k="natural" v="valley" />
		<tag k="place" v="locality" />
		<tag k="ssr:stedsnr" v="513073" />
	</node>
	<node lat="64.40573611392595" lon="11.664619434373927" id="-91011">
		<tag k="fixme" v="consider natural=peak for the most distinct mountains in the district" />
		<tag k="name" v="Gravdalshøgda" />
		<tag k="natural" v="hill" />
		<tag k="place" v="locality" />
		<tag k="ssr:stedsnr" v="533012" />
	</node>
	<node lat="64.39663055936148" lon="11.896269436069534" id="-91012">
		<tag k="name" v="Storburet" />
		<tag k="place" v="locality" />
		<tag k="ssr:stedsnr" v="533394" />
	</node>
	<node lat="64.43333610987136" lon="11.769433326665775" id="-91013">
		<tag k="name" v="Nilskleiva" />
		<tag k="natural" v="slope" />
		<tag k="place" v="locality" />
		<tag k="ssr:stedsnr" v="533812" />
	</node>
	<node lat="64.32251944377725" lon="11.88817222352696" id="-91016">
		<tag k="name" v="Andfindalen" />
		<tag k="natural" v="valley" />
		<tag k="place" v="locality" />
		<tag k="ssr:stedsnr" v="534837" />
	</node>
	<node lat="64.41229166626857" lon="12.001155547893454" id="-91023">
		<tag k="name" v="Flydalen" />
		<tag k="natural" v="valley" />
		<tag k="place" v="locality" />
		<tag k="ssr:stedsnr" v="559640" />
	</node>
	<node lat="64.40984444442266" lon="11.799563880167673" id="-91026">
		<tag k="fixme" v="consider natural=peak for the most distinct mountains in the district" />
		<tag k="name" v="Storengåsen" />
		<tag k="natural" v="hill" />
		<tag k="place" v="locality" />
		<tag k="ssr:stedsnr" v="559655" />
	</node>
	<node lat="64.38853333232422" lon="11.726161110078545" id="-91028">
		<tag k="name" v="Finnhaugan" />
		<tag k="natural" v="hill" />
		<tag k="place" v="locality" />
		<tag k="ssr:stedsnr" v="559667" />
	</node>
	<node lat="64.3898555590282" lon="11.824833340694974" id="-91029">
		<tag k="fixme" v="consider natural=peak for the most distinct mountains in the district" />
		<tag k="name" v="Pikrunden" />
		<tag k="natural" v="hill" />
		<tag k="place" v="locality" />
		<tag k="ssr:stedsnr" v="559668" />
	</node>
	<node lat="64.32348333337964" lon="11.858413890543575" id="-91035">
		<tag k="name" v="Abellia" />
		<tag k="natural" v="slope" />
		<tag k="place" v="locality" />
		<tag k="ssr:stedsnr" v="560597" />
	</node>
	<node lat="64.38139999718402" lon="11.823777777495106" id="-91036">
		<tag k="fixme" v="consider natural=peak for the most distinct mountains in the district" />
		<tag k="name" v="Flatrunden" />
		<tag k="natural" v="hill" />
		<tag k="place" v="locality" />
		<tag k="ssr:stedsnr" v="559679" />
	</node>
	<node lat="64.50808611257249" lon="11.672127785669275" id="-91040">
		<tag k="fixme" v="multiple name tags, choose one and add the other to alt_name; consider natural=peak for the most distinct mountains in the district" />
		<tag k="name" v="Brattengåsen;Åsengåsen" />
		<tag k="natural" v="hill" />
		<tag k="place" v="locality" />
		<tag k="ssr:stedsnr" v="560237" />
	</node>
	<node lat="64.35652778000855" lon="11.724813887482101" id="-91041">
		<tag k="name" v="Brannhaugen" />
		<tag k="natural" v="hill" />
		<tag k="place" v="locality" />
		<tag k="ssr:stedsnr" v="560680" />
	</node>
	<node lat="64.42209444524174" lon="11.744869447080038" id="-91043">
		<tag k="fixme" v="consider natural=peak for the most distinct mountains in the district" />
		<tag k="name" v="Finnkjerringa" />
		<tag k="natural" v="hill" />
		<tag k="place" v="locality" />
		<tag k="ssr:stedsnr" v="560737" />
	</node>
	<node lat="64.42211389322647" lon="11.934583337481735" id="-91044">
		<tag k="fixme" v="consider natural=peak for the most distinct mountains in the district" />
		<tag k="name" v="Middagsfjellet" />
		<tag k="natural" v="hill" />
		<tag k="place" v="locality" />
		<tag k="ssr:stedsnr" v="560740" />
	</node>
	<node lat="64.60809999593532" lon="12.019874993095138" id="-91045">
		<tag k="alt_name" v="Løntoppen" />
		<tag k="fixme" v="consider natural=peak for the most distinct mountains in the district" />
		<tag k="name" v="Lønntoppen" />
		<tag k="natural" v="hill" />
		<tag k="place" v="locality" />
		<tag k="ssr:stedsnr" v="560753" />
	</node>
	<node lat="64.61520000140294" lon="12.057574993671821" id="-91046">
		<tag k="name" v="Finnbuhaugen" />
		<tag k="natural" v="hill" />
		<tag k="place" v="locality" />
		<tag k="ssr:stedsnr" v="560757" />
	</node>
	<node lat="64.52913055602338" lon="11.7236499896569" id="-91047">
		<tag k="fixme" v="consider natural=peak for the most distinct mountains in the district" />
		<tag k="name" v="Tostenlifjellet" />
		<tag k="natural" v="hill" />
		<tag k="place" v="locality" />
		<tag k="ssr:stedsnr" v="560963" />
	</node>
	<node lat="64.57045833774735" lon="11.958500001043292" id="-91078">
		<tag k="name" v="Litlhanshaugen" />
		<tag k="natural" v="hill" />
		<tag k="place" v="locality" />
		<tag k="ssr:stedsnr" v="595274" />
	</node>
	<node lat="64.33770277939843" lon="11.805813894273633" id="-91085">
		<tag k="fixme" v="consider natural=peak for the most distinct mountains in the district" />
		<tag k="name" v="Middagsfjellet" />
		<tag k="natural" v="hill" />
		<tag k="place" v="locality" />
		<tag k="ssr:stedsnr" v="620552" />
	</node>
	<node lat="64.44512500111799" lon="11.955761105974078" id="-91095">
		<tag k="fixme" v="consider natural=peak for the most distinct mountains in the district" />
		<tag k="name" v="Kinnbeinfjellet" />
		<tag k="natural" v="hill" />
		<tag k="place" v="locality" />
		<tag k="ssr:stedsnr" v="620693" />
	</node>
	<node lat="64.55814999947964" lon="11.986624993059676" id="-91100">
		<tag k="name" v="Øyengdalen" />
		<tag k="natural" v="valley" />
		<tag k="place" v="locality" />
		<tag k="ssr:stedsnr" v="621826" />
	</node>
	<node lat="64.52505833074683" lon="12.194449994817719" id="-91125">
		<tag k="name" v="Bjørklia" />
		<tag k="natural" v="slope" />
		<tag k="place" v="locality" />
		<tag k="ssr:stedsnr" v="634039" />
	</node>
	<node lat="64.52853611349883" lon="12.18246665732079" id="-91126">
		<tag k="fixme" v="consider natural=peak for the most distinct mountains in the district" />
		<tag k="name" v="Seteråsen" />
		<tag k="natural" v="hill" />
		<tag k="place" v="locality" />
		<tag k="ssr:stedsnr" v="634053" />
	</node>
	<node lat="64.42254166637056" lon="11.985088896451126" id="-91129">
		<tag k="name" v="Vinterdalen" />
		<tag k="natural" v="valley" />
		<tag k="place" v="locality" />
		<tag k="ssr:stedsnr" v="654417" />
	</node>
	<node lat="64.42074166714984" lon="11.759283326229653" id="-91132">
		<tag k="name" v="Flyåsen" />
		<tag k="natural" v="slope" />
		<tag k="place" v="locality" />
		<tag k="ssr:stedsnr" v="655771" />
	</node>
	<node lat="64.42951667088667" lon="12.107750006689223" id="-91138">
		<tag k="name" v="Fururabban" />
		<tag k="natural" v="ridge" />
		<tag k="place" v="locality" />
		<tag k="ssr:stedsnr" v="715170" />
	</node>
	<node lat="64.43217499735162" lon="12.069733338715427" id="-91139">
		<tag k="name" v="Hesjedalen" />
		<tag k="natural" v="valley" />
		<tag k="place" v="locality" />
		<tag k="ssr:stedsnr" v="715457" />
	</node>
	<node lat="64.36386111097006" lon="11.725144436281811" id="-91140">
		<tag k="name" v="Hanshaugen" />
		<tag k="natural" v="hill" />
		<tag k="place" v="locality" />
		<tag k="ssr:stedsnr" v="716102" />
	</node>
	<node lat="64.53473888671542" lon="11.694133341680061" id="-91149">
		<tag k="name" v="Storlia" />
		<tag k="natural" v="slope" />
		<tag k="place" v="locality" />
		<tag k="ssr:stedsnr" v="743080" />
	</node>
	<node lat="64.36692499949226" lon="12.027494438787306" id="-91151">
		<tag k="fixme" v="consider natural=peak for the most distinct mountains in the district" />
		<tag k="name" v="Reinsjøfjellet" />
		<tag k="natural" v="hill" />
		<tag k="place" v="locality" />
		<tag k="ssr:stedsnr" v="742657" />
	</node>
	<node lat="64.35397499826819" lon="11.727752786921762" id="-91154">
		<tag k="name" v="Mellomhaugen" />
		<tag k="natural" v="hill" />
		<tag k="place" v="locality" />
		<tag k="ssr:stedsnr" v="742675" />
	</node>
	<node lat="64.6025083347286" lon="12.060255562954046" id="-91163">
		<tag k="name" v="Elgsjøhaugan" />
		<tag k="natural" v="hill" />
		<tag k="place" v="locality" />
		<tag k="ssr:stedsnr" v="742761" />
	</node>
	<node lat="64.42850277674059" lon="12.00057777197106" id="-91212">
		<tag k="name" v="Setermoen" />
		<tag k="place" v="locality" />
		<tag k="ssr:stedsnr" v="776373" />
	</node>
	<node lat="64.39701388786685" lon="11.850136103072048" id="-91213">
		<tag k="name" v="Storstakkenget" />
		<tag k="place" v="locality" />
		<tag k="ssr:stedsnr" v="776376" />
	</node>
	<node lat="64.41464166540666" lon="11.866413893927529" id="-91214">
		<tag k="name" v="Bjørberget" />
		<tag k="natural" v="hill" />
		<tag k="place" v="locality" />
		<tag k="ssr:stedsnr" v="776382" />
	</node>
	<node lat="64.435977780605" lon="11.739719440322578" id="-91216">
		<tag k="name" v="Bottenrabban" />
		<tag k="natural" v="slope" />
		<tag k="place" v="locality" />
		<tag k="ssr:stedsnr" v="776782" />
	</node>
	<node lat="64.41626944323505" lon="12.11073054823335" id="-91221">
		<tag k="fixme" v="consider natural=peak for the most distinct mountains in the district" />
		<tag k="name" v="Tømmersjøfjellet" />
		<tag k="natural" v="hill" />
		<tag k="place" v="locality" />
		<tag k="ssr:stedsnr" v="802689" />
	</node>
	<node lat="64.5615749990695" lon="12.03462499799951" id="-91223">
		<tag k="name" v="Svartdalen" />
		<tag k="natural" v="valley" />
		<tag k="place" v="locality" />
		<tag k="ssr:stedsnr" v="803194" />
	</node>
	<node lat="64.5066861086101" lon="11.701580546837326" id="-91225">
		<tag k="name" v="Langbakkan" />
		<tag k="natural" v="slope" />
		<tag k="place" v="locality" />
		<tag k="ssr:stedsnr" v="803240" />
	</node>
	<node lat="64.32567777381067" lon="11.828705545222657" id="-91226">
		<tag k="name" v="Grønlihaugen" />
		<tag k="natural" v="hill" />
		<tag k="place" v="locality" />
		<tag k="ssr:stedsnr" v="803595" />
	</node>
	<node lat="64.48140833714443" lon="11.942566658618235" id="-91232">
		<tag k="name" v="Hannabekkdalen" />
		<tag k="natural" v="valley" />
		<tag k="place" v="locality" />
		<tag k="ssr:stedsnr" v="803772" />
	</node>
	<node lat="64.33916389264797" lon="11.681472215846064" id="-91237">
		<tag k="alt_name" v="Kringlåtvasshaugen" />
		<tag k="fixme" v="consider natural=peak for the most distinct mountains in the district" />
		<tag k="name" v="Tverrbekkfjellet" />
		<tag k="natural" v="hill" />
		<tag k="place" v="locality" />
		<tag k="ssr:stedsnr" v="803884" />
	</node>
	<node lat="64.5300777786591" lon="11.888880560462248" id="-91263">
		<tag k="name" v="Seterhaugen" />
		<tag k="natural" v="hill" />
		<tag k="place" v="locality" />
		<tag k="ssr:stedsnr" v="826749" />
	</node>
	<node lat="64.34105833655022" lon="12.108369448828348" id="-91264">
		<tag k="name" v="Helvetet" />
		<tag k="natural" v="slope" />
		<tag k="place" v="locality" />
		<tag k="ssr:stedsnr" v="837145" />
	</node>
	<node lat="64.36224166495445" lon="11.861361100945379" id="-91276">
		<tag k="fixme" v="consider natural=peak for the most distinct mountains in the district" />
		<tag k="name" v="Høgloftet" />
		<tag k="natural" v="hill" />
		<tag k="place" v="locality" />
		<tag k="ssr:stedsnr" v="863682" />
	</node>
	<node lat="64.36489999763188" lon="11.7436166753109" id="-91277">
		<tag k="name" v="Elvrabban" />
		<tag k="natural" v="valley" />
		<tag k="place" v="locality" />
		<tag k="ssr:stedsnr" v="863686" />
	</node>
	<node lat="64.3351999958966" lon="11.821669434102768" id="-91286">
		<tag k="name" v="Grønlidalen" />
		<tag k="natural" v="valley" />
		<tag k="place" v="locality" />
		<tag k="ssr:stedsnr" v="864606" />
	</node>
	<node lat="64.4334750045018" lon="11.947666666300721" id="-91293">
		<tag k="name" v="Stordalen" />
		<tag k="natural" v="valley" />
		<tag k="place" v="locality" />
		<tag k="ssr:stedsnr" v="864769" />
	</node>
	<node lat="64.49304999792727" lon="11.818574989608123" id="-91296">
		<tag k="name" v="Haklia" />
		<tag k="natural" v="slope" />
		<tag k="place" v="locality" />
		<tag k="ssr:stedsnr" v="864807" />
	</node>
	<node lat="64.57562500262955" lon="11.998925007050062" id="-91297">
		<tag k="name" v="Beataberget" />
		<tag k="natural" v="hill" />
		<tag k="place" v="locality" />
		<tag k="ssr:stedsnr" v="864825" />
	</node>
	<node lat="64.55425000199689" lon="11.993250010250373" id="-91299">
		<tag k="fixme" v="consider natural=peak for the most distinct mountains in the district" />
		<tag k="name" v="Grøtåfjellet" />
		<tag k="natural" v="hill" />
		<tag k="place" v="locality" />
		<tag k="ssr:stedsnr" v="864837" />
	</node>
	<node lat="64.64045555242606" lon="11.996600002904549" id="-91300">
		<tag k="fixme" v="consider natural=peak for the most distinct mountains in the district" />
		<tag k="name" v="Salfjellet" />
		<tag k="natural" v="hill" />
		<tag k="place" v="locality" />
		<tag k="ssr:stedsnr" v="864862" />
	</node>
	<node lat="64.53067778223243" lon="11.759225000229184" id="-91302">
		<tag k="name" v="Sørskåla" />
		<tag k="natural" v="valley" />
		<tag k="place" v="locality" />
		<tag k="ssr:stedsnr" v="864957" />
	</node>
	<node lat="64.53540833006504" lon="11.844777785609347" id="-91306">
		<tag k="fixme" v="consider natural=peak for the most distinct mountains in the district" />
		<tag k="name" v="Veglofjellet" />
		<tag k="natural" v="hill" />
		<tag k="place" v="locality" />
		<tag k="ssr:stedsnr" v="865964" />
	</node>
	<node lat="64.54015000014834" lon="12.01534999352451" id="-91307">
		<tag k="fixme" v="consider natural=peak for the most distinct mountains in the district" />
		<tag k="name" v="Skjørlandshatten" />
		<tag k="natural" v="hill" />
		<tag k="place" v="locality" />
		<tag k="ssr:stedsnr" v="865967" />
	</node>
	<node lat="64.57778055102636" lon="12.093766671507487" id="-91340">
		<tag k="name" v="Nilsholet" />
		<tag k="natural" v="valley" />
		<tag k="place" v="locality" />
		<tag k="ssr:stedsnr" v="878075" />
	</node>
	<node lat="64.56354166390408" lon="12.045330546148204" id="-91346">
		<tag k="name" v="Svartdalshøgda" />
		<tag k="natural" v="hill" />
		<tag k="place" v="locality" />
		<tag k="ssr:stedsnr" v="958355" />
	</node>
	<node lat="64.51194721932322" lon="11.641819451450846" id="-91349">
		<tag k="fixme" v="consider natural=peak for the most distinct mountains in the district" />
		<tag k="name" v="Kvalstadseteråsen" />
		<tag k="natural" v="hill" />
		<tag k="place" v="locality" />
		<tag k="ssr:stedsnr" v="958433" />
	</node>
	<node lat="64.42083055797757" lon="12.049955549072612" id="-91351">
		<tag k="name" v="Skrovelåsen" />
		<tag k="natural" v="hill" />
		<tag k="place" v="locality" />
		<tag k="ssr:stedsnr" v="958439" />
	</node>
	<node lat="64.42842221813972" lon="11.715152782798988" id="-91353">
		<tag k="name" v="Skiftesrabben" />
		<tag k="natural" v="slope" />
		<tag k="place" v="locality" />
		<tag k="ssr:stedsnr" v="958815" />
	</node>
	<node lat="64.41448333008462" lon="11.815705561293603" id="-91356">
		<tag k="name" v="Gauksjøskaret" />
		<tag k="natural" v="valley" />
		<tag k="place" v="locality" />
		<tag k="ssr:stedsnr" v="960797" />
	</node>
	<node lat="64.46076334478107" lon="11.791980364023665" id="-91363">
		<tag k="name" v="Bjørbekkdalen" />
		<tag k="natural" v="valley" />
		<tag k="place" v="locality" />
		<tag k="ssr:stedsnr" v="980615" />
	</node>
</osm>
