<?xml version="1.0" encoding="UTF-8"?>
<osm version="0.6" generator="osmapis">
	<node lat="64.33002499982199" lon="11.921791664629222" id="-89687">
		<tag k="historic" v="shieling" />
		<tag k="name" v="Skarseteren" />
		<tag k="place" v="isolated_dwelling" />
		<tag k="ssr:stedsnr" v="230742" />
	</node>
	<node lat="64.41141111476206" lon="11.893030548768428" id="-89725">
		<tag k="name" v="Ålvatnet hytteområde" />
		<tag k="place" v="neighbourhood" />
		<tag k="ssr:stedsnr" v="39159" />
	</node>
	<node lat="64.61326388924171" lon="12.057316658368915" id="-89726">
		<tag k="name" v="Nevervatnet hytteområde" />
		<tag k="place" v="neighbourhood" />
		<tag k="ssr:stedsnr" v="39160" />
	</node>
	<node lat="64.44487777607964" lon="11.822913897042906" id="-89779">
		<tag k="name" v="Solbakken" />
		<tag k="place" v="farm" />
		<tag k="ssr:stedsnr" v="135710" />
	</node>
	<node lat="64.46213889206156" lon="12.0557277837203" id="-89830">
		<tag k="fixme" v="consider place=hamlet" />
		<tag k="name" v="Øysletta" />
		<tag k="place" v="village" />
		<tag k="ssr:stedsnr" v="256746" />
	</node>
	<node lat="64.43970833681583" lon="11.956986101482668" id="-89891">
		<tag k="name" v="Fossem" />
		<tag k="place" v="farm" />
		<tag k="ssr:stedsnr" v="196719" />
	</node>
	<node lat="64.46763055831248" lon="11.929413893622021" id="-89894">
		<tag k="name" v="Vibstad" />
		<tag k="place" v="farm" />
		<tag k="ssr:stedsnr" v="196773" />
	</node>
	<node lat="64.43147777599975" lon="11.994136117077787" id="-89910">
		<tag k="name" v="Einarsvatnet hytteområde" />
		<tag k="place" v="neighbourhood" />
		<tag k="ssr:stedsnr" v="222182" />
	</node>
	<node lat="64.39979722034286" lon="11.727886102830057" id="-89916">
		<tag k="name" v="Krokvasseteran" />
		<tag k="place" v="locality" />
		<tag k="ssr:stedsnr" v="230010" />
	</node>
	<node lat="64.46989999586545" lon="11.864266666124621" id="-89921">
		<tag k="name" v="Tetlia" />
		<tag k="place" v="farm" />
		<tag k="ssr:stedsnr" v="241834" />
	</node>
	<node lat="64.37126944276467" lon="11.750230559718018" id="-89945">
		<tag k="name" v="Gosen" />
		<tag k="place" v="isolated_dwelling" />
		<tag k="ssr:stedsnr" v="291092" />
	</node>
	<node lat="64.46294166341467" lon="11.763819437934332" id="-89949">
		<tag k="amenity" v="school" />
		<tag k="name" v="Hunn skole" />
		<tag k="ssr:stedsnr" v="466265" />
	</node>
	<node lat="64.4629666640419" lon="11.829291672291314" id="-89953">
		<tag k="name" v="Midtun" />
		<tag k="place" v="farm" />
		<tag k="ssr:stedsnr" v="317643" />
	</node>
	<node lat="64.50700000430201" lon="11.997400001859125" id="-89954">
		<tag k="name" v="Neset" />
		<tag k="place" v="isolated_dwelling" />
		<tag k="ssr:stedsnr" v="318996" />
	</node>
	<node lat="64.34291388606746" lon="11.94283888619995" id="-90045">
		<tag k="historic" v="shieling" />
		<tag k="name" v="Bjønndalsseteren" />
		<tag k="place" v="isolated_dwelling" />
		<tag k="ssr:stedsnr" v="473777" />
	</node>
	<node lat="64.44661944066512" lon="11.863350007861978" id="-90071">
		<tag k="name" v="Skogrud" />
		<tag k="place" v="farm" />
		<tag k="ssr:stedsnr" v="681724" />
	</node>
	<node lat="64.46181666705995" lon="11.817627782616338" id="-90136">
		<tag k="name" v="Myrset" />
		<tag k="place" v="farm" />
		<tag k="ssr:stedsnr" v="559687" />
	</node>
	<node lat="64.37463055381625" lon="11.830424996554662" id="-90204">
		<tag k="historic" v="shieling" />
		<tag k="name" v="Rundasetran" />
		<tag k="place" v="isolated_dwelling" />
		<tag k="ssr:stedsnr" v="595856" />
	</node>
	<node lat="64.45279444230985" lon="11.806324995040415" id="-90210">
		<tag k="name" v="Furu" />
		<tag k="place" v="farm" />
		<tag k="ssr:stedsnr" v="620682" />
	</node>
	<node lat="64.50360000064508" lon="11.98354999585762" id="-90220">
		<tag k="name" v="Bjøra" />
		<tag k="place" v="farm" />
		<tag k="ssr:stedsnr" v="621984" />
	</node>
	<node lat="64.39371944834153" lon="11.805250008088807" id="-90273">
		<tag k="name" v="Oksvatnet hytteområde" />
		<tag k="place" v="neighbourhood" />
		<tag k="ssr:stedsnr" v="707224" />
	</node>
	<node lat="64.53139999612695" lon="12.133224996885675" id="-90345">
		<tag k="name" v="Nordtun" />
		<tag k="place" v="farm" />
		<tag k="ssr:stedsnr" v="803980" />
	</node>
	<node lat="64.5638083359714" lon="11.953947231634624" id="-90361">
		<tag k="name" v="Himovatnet hytteområde" />
		<tag k="place" v="neighbourhood" />
		<tag k="ssr:stedsnr" v="829204" />
	</node>
	<node lat="64.48645833420922" lon="11.657958339289038" id="-90367">
		<tag k="name" v="Myrvoll" />
		<tag k="place" v="farm" />
		<tag k="ssr:stedsnr" v="924179" />
	</node>
	<node lat="64.41828611011385" lon="12.058091659324951" id="-90439">
		<tag k="name" v="Tømmersjøen hytteområde" />
		<tag k="place" v="neighbourhood" />
		<tag k="ssr:stedsnr" v="889205" />
	</node>
	<node lat="64.46616111521716" lon="11.825294439445296" id="-90486">
		<tag k="name" v="Midtgard" />
		<tag k="place" v="farm" />
		<tag k="ssr:stedsnr" v="13794" />
	</node>
	<node lat="64.50999999641667" lon="12.022424999979236" id="-90500">
		<tag k="name" v="Fuglem" />
		<tag k="place" v="farm" />
		<tag k="ssr:stedsnr" v="14994" />
	</node>
	<node lat="64.6266250034412" lon="11.935233338094077" id="-90543">
		<tag k="fixme" v="consider tourism=alpine_hut or tourism=chalet" />
		<tag k="name" v="Salfjellstu" />
		<tag k="ssr:stedsnr" v="39138" />
		<tag k="tourism" v="wilderness_hut" />
	</node>
	<node lat="64.5224474357943" lon="12.08155812771572" id="-90568">
		<tag k="name" v="Flasnes" />
		<tag k="place" v="farm" />
		<tag k="ssr:stedsnr" v="75980" />
	</node>
	<node lat="64.55411623324262" lon="11.967337110819763" id="-90600">
		<tag k="fixme" v="consider tourism=alpine_hut or tourism=chalet" />
		<tag k="name" v="Røde-Korshytta" />
		<tag k="ssr:stedsnr" v="100168" />
		<tag k="tourism" v="wilderness_hut" />
	</node>
	<node lat="64.36692777401919" lon="11.697649993902324" id="-90608">
		<tag k="name" v="Hunnasetran" />
		<tag k="place" v="locality" />
		<tag k="ssr:stedsnr" v="109096" />
	</node>
	<node lat="64.5061833358665" lon="11.948383327846852" id="-90611">
		<tag k="name" v="Krabbstufeltet" />
		<tag k="place" v="quarter" />
		<tag k="ssr:stedsnr" v="112898" />
	</node>
	<node lat="64.47289444113152" lon="11.814063878311512" id="-90634">
		<tag k="name" v="Vestmyr" />
		<tag k="place" v="farm" />
		<tag k="ssr:stedsnr" v="135785" />
	</node>
	<node lat="64.40500833460138" lon="11.811327772781357" id="-90678">
		<tag k="historic" v="shieling" />
		<tag k="name" v="Homstadseter" />
		<tag k="place" v="isolated_dwelling" />
		<tag k="ssr:stedsnr" v="171830" />
	</node>
	<node lat="64.47049999833855" lon="11.689788878764713" id="-90681">
		<tag k="name" v="Solheim" />
		<tag k="place" v="isolated_dwelling" />
		<tag k="ssr:stedsnr" v="195044" />
	</node>
	<node lat="64.4874333295493" lon="11.668152784877343" id="-90683">
		<tag k="name" v="Hallset" />
		<tag k="place" v="farm" />
		<tag k="ssr:stedsnr" v="195223" />
	</node>
	<node lat="64.45542500440828" lon="11.922427782388027" id="-90698">
		<tag k="name" v="Bergli" />
		<tag k="place" v="farm" />
		<tag k="ssr:stedsnr" v="196676" />
	</node>
	<node lat="64.4482916689893" lon="12.118274992083" id="-90701">
		<tag k="name" v="Mosetet" />
		<tag k="place" v="locality" />
		<tag k="ssr:stedsnr" v="196695" />
	</node>
	<node lat="64.4728555537395" lon="11.834352783503357" id="-90708">
		<tag k="name" v="Håksli" />
		<tag k="place" v="farm" />
		<tag k="ssr:stedsnr" v="196786" />
	</node>
	<node lat="64.52537222019612" lon="11.874722230875408" id="-90737">
		<tag k="historic" v="shieling" />
		<tag k="name" v="Ballisetran" />
		<tag k="place" v="isolated_dwelling" />
		<tag k="ssr:stedsnr" v="219769" />
	</node>
	<node lat="64.4952083356116" lon="11.947716673210897" id="-90756">
		<tag k="name" v="Haugom" />
		<tag k="place" v="farm" />
		<tag k="ssr:stedsnr" v="317723" />
	</node>
	<node lat="64.3272722220878" lon="11.851747212985899" id="-90807">
		<tag k="name" v="Myrmosetran" />
		<tag k="place" v="locality" />
		<tag k="ssr:stedsnr" v="351838" />
	</node>
	<node lat="64.48715277854718" lon="11.70847778253145" id="-90810">
		<tag k="name" v="Brann" />
		<tag k="place" v="farm" />
		<tag k="ssr:stedsnr" v="377179" />
	</node>
	<node lat="64.36921388862196" lon="11.93588889418486" id="-90871">
		<tag k="name" v="Rognvatnet hytteområde" />
		<tag k="place" v="neighbourhood" />
		<tag k="ssr:stedsnr" v="403175" />
	</node>
	<node lat="64.60093055359243" lon="12.078516675919015" id="-90873">
		<tag k="name" v="Elgsjøen hytteområde" />
		<tag k="place" v="neighbourhood" />
		<tag k="ssr:stedsnr" v="403181" />
	</node>
	<node lat="64.34698714832732" lon="12.022890534450168" id="-90874">
		<tag k="name" v="Lokangamma" />
		<tag k="place" v="isolated_dwelling" />
		<tag k="ssr:stedsnr" v="403185" />
	</node>
	<node lat="64.4355388863607" lon="12.092722216104411" id="-90875">
		<tag k="name" v="Haustsetran" />
		<tag k="place" v="farm" />
		<tag k="ssr:stedsnr" v="412151" />
	</node>
	<node lat="64.32804444343891" lon="11.870955546064758" id="-90897">
		<tag k="name" v="Øltappen" />
		<tag k="place" v="isolated_dwelling" />
		<tag k="ssr:stedsnr" v="439572" />
	</node>
	<node lat="64.45248610843906" lon="11.777652778720684" id="-90946">
		<tag k="name" v="Gran" />
		<tag k="place" v="farm" />
		<tag k="ssr:stedsnr" v="499650" />
	</node>
	<node lat="64.48159444140332" lon="11.838463886026698" id="-90967">
		<tag k="name" v="Unnset" />
		<tag k="place" v="farm" />
		<tag k="ssr:stedsnr" v="499774" />
	</node>
	<node lat="64.47594999622416" lon="11.8374416719061" id="-90968">
		<tag k="name" v="Nyheim" />
		<tag k="place" v="farm" />
		<tag k="ssr:stedsnr" v="499775" />
	</node>
	<node lat="64.56811666956224" lon="12.064158324431547" id="-91009">
		<tag k="name" v="Øyengvatna hytteområde" />
		<tag k="place" v="neighbourhood" />
		<tag k="ssr:stedsnr" v="525230" />
	</node>
	<node lat="64.49829444651637" lon="11.960574992278305" id="-91010">
		<tag k="amenity" v="school" />
		<tag k="name" v="Overhalla barne- og ungdomsskole" />
		<tag k="ssr:stedsnr" v="527242" />
	</node>
	<node lat="64.3082805540701" lon="11.798102769630745" id="-91017">
		<tag k="historic" v="shieling" />
		<tag k="name" v="Sellegsetran" />
		<tag k="place" v="isolated_dwelling" />
		<tag k="ssr:stedsnr" v="534841" />
	</node>
	<node lat="64.46973269588982" lon="11.867560271386802" id="-91039">
		<tag k="alt_name" v="Tetlien" />
		<tag k="fixme" v="consider place=hamlet" />
		<tag k="name" v="Tetlia" />
		<tag k="place" v="farm" />
		<tag k="ssr:stedsnr" v="559784" />
	</node>
	<node lat="64.52690277342843" lon="11.770686108752022" id="-91075">
		<tag k="name" v="Finnhusa" />
		<tag k="place" v="locality" />
		<tag k="ssr:stedsnr" v="593396" />
	</node>
	<node lat="64.57277222104632" lon="11.969583325873694" id="-91128">
		<tag k="name" v="Amdalsmyra hytteområde" />
		<tag k="place" v="neighbourhood" />
		<tag k="ssr:stedsnr" v="646214" />
	</node>
	<node lat="64.37638333733477" lon="11.713586103283864" id="-91130">
		<tag k="name" v="Mætenseter" />
		<tag k="place" v="locality" />
		<tag k="ssr:stedsnr" v="655013" />
	</node>
	<node lat="64.37121389307873" lon="11.833786101739957" id="-91136">
		<tag k="name" v="Vesteråvatna hytteområde" />
		<tag k="place" v="neighbourhood" />
		<tag k="ssr:stedsnr" v="666756" />
	</node>
	<node lat="64.35705833332305" lon="11.92324999998026" id="-91153">
		<tag k="name" v="Jamtheimen" />
		<tag k="place" v="isolated_dwelling" />
		<tag k="ssr:stedsnr" v="742668" />
	</node>
	<node lat="64.46405278027328" lon="12.04946388625404" id="-91165">
		<tag k="name" v="Vangsnes" />
		<tag k="place" v="farm" />
		<tag k="ssr:stedsnr" v="742770" />
	</node>
	<node lat="64.55998332998975" lon="11.932838896114102" id="-91208">
		<tag k="name" v="Vestervatnet hytteområde" />
		<tag k="place" v="neighbourhood" />
		<tag k="ssr:stedsnr" v="768214" />
	</node>
	<node lat="64.3518750028461" lon="11.708313891213782" id="-91209">
		<tag k="name" v="Ristadsetran" />
		<tag k="place" v="locality" />
		<tag k="ssr:stedsnr" v="776090" />
	</node>
	<node lat="64.47024444302326" lon="11.8715250024234" id="-91217">
		<tag k="name" v="Tetlia" />
		<tag k="place" v="farm" />
		<tag k="ssr:stedsnr" v="787834" />
	</node>
	<node lat="64.46267500235645" lon="11.83527499941359" id="-91273">
		<tag k="name" v="Nytun" />
		<tag k="place" v="farm" />
		<tag k="ssr:stedsnr" v="863698" />
	</node>
	<node lat="64.44366666312267" lon="11.814163878609692" id="-91342">
		<tag k="name" v="Melen" />
		<tag k="place" v="hamlet" />
		<tag k="ssr:stedsnr" v="876193" />
	</node>
	<node lat="64.36055555507038" lon="11.731213883981582" id="-91354">
		<tag k="name" v="Gansmosetran" />
		<tag k="place" v="locality" />
		<tag k="ssr:stedsnr" v="959097" />
	</node>
	<node lat="64.49895910732019" lon="11.96449792442176" id="-91555">
		<tag k="amenity" v="sports_centre" />
		<tag k="name" v="Gimle" />
		<tag k="ssr:stedsnr" v="1077075" />
	</node>
	<node lat="64.51878001234091" lon="11.945577145182606" id="-91556">
		<tag k="amenity" v="kindergarten" />
		<tag k="name" v="Gammelstua friluftsbarnehage" />
		<tag k="ssr:stedsnr" v="1077082" />
	</node>
	<node lat="64.49165349041527" lon="11.94576562722761" id="-91560">
		<tag k="amenity" v="nursing_home" />
		<tag k="name" v="Overhalla helsesenter" />
		<tag k="ssr:stedsnr" v="1077087" />
	</node>
	<node lat="64.50818825663822" lon="12.015164582416247" id="-91561">
		<tag k="name" v="Skogmo industripark" />
		<tag k="place" v="quarter" />
		<tag k="ssr:stedsnr" v="1077091" />
	</node>
	<node lat="64.50406708354504" lon="12.011943156997802" id="-91562">
		<tag k="building" v="industrial" />
		<tag k="industrial" v="factory" />
		<tag k="name" v="Pharmaq" />
		<tag k="ssr:stedsnr" v="1077092" />
	</node>
	<node lat="64.51956160026796" lon="12.016444600810596" id="-91563">
		<tag k="building" v="industrial" />
		<tag k="industrial" v="factory" />
		<tag k="name" v="Overhalla betongbygg" />
		<tag k="ssr:stedsnr" v="1077093" />
	</node>
	<node lat="64.46432711989658" lon="12.055023594926697" id="-91565">
		<tag k="amenity" v="school" />
		<tag k="name" v="Overhalla Montessoriskole" />
		<tag k="ssr:stedsnr" v="1077054" />
	</node>
	<node lat="64.50476430859153" lon="11.948638505704903" id="-91566">
		<tag k="amenity" v="kindergarten" />
		<tag k="name" v="Ranemsletta barnehage" />
		<tag k="ssr:stedsnr" v="1077061" />
	</node>
	<node lat="64.47030339243182" lon="11.751714470726947" id="-91567">
		<tag k="amenity" v="kindergarten" />
		<tag k="name" v="Skage barnehage" />
		<tag k="ssr:stedsnr" v="1077063" />
	</node>
	<node lat="64.49938350317747" lon="11.961603191982977" id="-91568">
		<tag k="leisure" v="pitch" />
		<tag k="name" v="Svenningmoen idrettspark" />
		<tag k="ssr:stedsnr" v="1077073" />
	</node>
</osm>
