<?xml version="1.0" encoding="UTF-8"?>
<osm version="0.6" generator="osmapis">
	<node lat="64.57544444888654" lon="12.036219443859714" id="-89684">
		<tag k="name" v="Midtivatnet" />
		<tag k="natural" v="water" />
		<tag k="ssr:stedsnr" v="230343" />
	</node>
	<node lat="64.33263611041988" lon="11.85997222139594" id="-89688">
		<tag k="name" v="Pehaugfossen" />
		<tag k="natural" v="waterfall" />
		<tag k="ssr:stedsnr" v="231913" />
	</node>
	<node lat="64.30216111427049" lon="11.815000000006052" id="-89691">
		<tag k="name" v="Steindalsbekken" />
		<tag k="ssr:stedsnr" v="13618" />
		<tag k="waterway" v="stream" />
	</node>
	<node lat="64.39157499819477" lon="12.085875009706529" id="-89694">
		<tag k="name" v="Grytsjøen" />
		<tag k="natural" v="water" />
		<tag k="ssr:stedsnr" v="14607" />
		<tag k="water" v="lake" />
	</node>
	<node lat="64.60638889270267" lon="12.084536121648814" id="-89723">
		<tag k="name" v="Nyengbukta" />
		<tag k="natural" v="bay" />
		<tag k="ssr:stedsnr" v="28125" />
	</node>
	<node lat="64.53622500302544" lon="12.044474992591244" id="-89743">
		<tag k="name" v="Skjørva" />
		<tag k="ssr:stedsnr" v="76956" />
		<tag k="waterway" v="stream" />
	</node>
	<node lat="64.56444166542335" lon="12.09383610680304" id="-89760">
		<tag k="name" v="Grovtjønnbekken" />
		<tag k="ssr:stedsnr" v="89079" />
		<tag k="waterway" v="stream" />
	</node>
	<node lat="64.29177777997246" lon="11.770152782766381" id="-89762">
		<tag k="name" v="Sælkskjæret" />
		<tag k="place" v="islet" />
		<tag k="ssr:stedsnr" v="109105" />
	</node>
	<node lat="64.42048055208173" lon="11.990169437668106" id="-89782">
		<tag k="name" v="Flyåa" />
		<tag k="ssr:stedsnr" v="135722" />
		<tag k="waterway" v="stream" />
	</node>
	<node lat="64.3616083329486" lon="11.79968889621079" id="-89785">
		<tag k="name" v="Bergvatnet" />
		<tag k="natural" v="water" />
		<tag k="ssr:stedsnr" v="135673" />
		<tag k="water" v="lake" />
	</node>
	<node lat="64.55518333661504" lon="12.10913054585433" id="-89792">
		<tag k="name" v="Øyenga" />
		<tag k="ssr:stedsnr" v="136812" />
		<tag k="waterway" v="stream" />
	</node>
	<node lat="64.57284722620281" lon="12.083433324447157" id="-89814">
		<tag k="name" v="Gurinabekken" />
		<tag k="ssr:stedsnr" v="149062" />
		<tag k="waterway" v="stream" />
	</node>
	<node lat="64.35296666360397" lon="11.951786115225087" id="-89816">
		<tag k="name" v="Storåa" />
		<tag k="ssr:stedsnr" v="256541" />
		<tag k="waterway" v="stream" />
	</node>
	<node lat="64.38491944542842" lon="11.909613891476678" id="-89820">
		<tag k="alt_name" v="Rognvasselva" />
		<tag k="name" v="Rognvassåa" />
		<tag k="ssr:stedsnr" v="256633" />
		<tag k="waterway" v="stream" />
	</node>
	<node lat="64.3774250026876" lon="11.87758611077674" id="-89821">
		<tag k="name" v="Bergvatnet" />
		<tag k="natural" v="water" />
		<tag k="ssr:stedsnr" v="256641" />
	</node>
	<node lat="64.57019999831383" lon="12.051624998300179" id="-89841">
		<tag k="name" v="Øyengvatna" />
		<tag k="natural" v="water" />
		<tag k="ssr:stedsnr" v="257848" />
		<tag k="water" v="lake" />
	</node>
	<node lat="64.41061666974541" lon="11.772694438717158" id="-89851">
		<tag k="name" v="Langvatnet" />
		<tag k="natural" v="water" />
		<tag k="ssr:stedsnr" v="169005" />
	</node>
	<node lat="64.41337500000029" lon="11.784783341808472" id="-89882">
		<tag k="name" v="Langvatnet" />
		<tag k="natural" v="water" />
		<tag k="ssr:stedsnr" v="195630" />
	</node>
	<node lat="64.4183861127023" lon="11.690144442129034" id="-89885">
		<tag k="alt_name" v="Knepptjønna" />
		<tag k="name" v="Middagstjønna" />
		<tag k="natural" v="water" />
		<tag k="ssr:stedsnr" v="196117" />
	</node>
	<node lat="64.60035000175597" lon="12.09013610192058" id="-89914">
		<tag k="name" v="Dessmerengodden" />
		<tag k="natural" v="cape" />
		<tag k="ssr:stedsnr" v="271148" />
	</node>
	<node lat="64.42251111328412" lon="11.964849996386471" id="-89920">
		<tag k="alt_name" v="Svarttjønna" />
		<tag k="name" v="Setertjønn" />
		<tag k="natural" v="water" />
		<tag k="ssr:stedsnr" v="451236" />
	</node>
	<node lat="64.45475833564907" lon="11.724502788322203" id="-89922">
		<tag k="name" v="Råbakkelva" />
		<tag k="ssr:stedsnr" v="451941" />
		<tag k="waterway" v="stream" />
	</node>
	<node lat="64.3756972187253" lon="11.769477777703864" id="-89943">
		<tag k="name" v="Røyrtjønnin" />
		<tag k="natural" v="water" />
		<tag k="ssr:stedsnr" v="291009" />
	</node>
	<node lat="64.43268610851028" lon="11.77621944725525" id="-89946">
		<tag k="name" v="Horkfossen" />
		<tag k="natural" v="waterfall" />
		<tag k="ssr:stedsnr" v="291813" />
	</node>
	<node lat="64.38026666361861" lon="11.85838888145029" id="-89981">
		<tag k="name" v="Bergvassbekken" />
		<tag k="ssr:stedsnr" v="472374" />
		<tag k="waterway" v="stream" />
	</node>
	<node lat="64.5695861143877" lon="12.05304165919443" id="-89985">
		<tag k="name" v="Øyengvatnet" />
		<tag k="natural" v="water" />
		<tag k="ssr:stedsnr" v="473383" />
	</node>
	<node lat="64.42089166509422" lon="11.769686107932147" id="-89987">
		<tag k="name" v="Bjønnsela" />
		<tag k="natural" v="water" />
		<tag k="ssr:stedsnr" v="473815" />
		<tag k="water" v="lake" />
	</node>
	<node lat="64.3561611101747" lon="11.837363891769794" id="-89988">
		<tag k="name" v="Langøset" />
		<tag k="natural" v="strait" />
		<tag k="ssr:stedsnr" v="352854" />
	</node>
	<node lat="64.32682778074077" lon="11.736702787781155" id="-89991">
		<tag k="name" v="Nedre Nytjønna" />
		<tag k="natural" v="water" />
		<tag k="ssr:stedsnr" v="478610" />
	</node>
	<node lat="64.4102750040348" lon="12.09746667033041" id="-90013">
		<tag k="name" v="Svarttjønna" />
		<tag k="natural" v="water" />
		<tag k="ssr:stedsnr" v="438649" />
	</node>
	<node lat="64.40214166602077" lon="11.92777500677111" id="-90040">
		<tag k="name" v="Storbrokvassbekken" />
		<tag k="ssr:stedsnr" v="472360" />
		<tag k="waterway" v="stream" />
	</node>
	<node lat="64.39596944660849" lon="11.807133328450133" id="-90046">
		<tag k="name" v="Oksvasselva" />
		<tag k="ssr:stedsnr" v="474821" />
		<tag k="waterway" v="stream" />
	</node>
	<node lat="64.40384166303639" lon="11.888658331085047" id="-90054">
		<tag k="name" v="Ålvatnet" />
		<tag k="natural" v="water" />
		<tag k="ssr:stedsnr" v="499586" />
		<tag k="water" v="lake" />
	</node>
	<node lat="64.39354444305798" lon="11.80006110852872" id="-90055">
		<tag k="name" v="Oksvatnet" />
		<tag k="natural" v="water" />
		<tag k="ssr:stedsnr" v="499593" />
	</node>
	<node lat="64.40819722515863" lon="11.772258342153743" id="-90064">
		<tag k="name" v="Svartvatnet" />
		<tag k="natural" v="water" />
		<tag k="ssr:stedsnr" v="681639" />
	</node>
	<node lat="64.35672500073824" lon="11.934716660131109" id="-90068">
		<tag k="name" v="Finnmarjaholmen" />
		<tag k="place" v="islet" />
		<tag k="ssr:stedsnr" v="681686" />
	</node>
	<node lat="64.51143055320219" lon="11.730050003976071" id="-90112">
		<tag k="name" v="Masåa" />
		<tag k="ssr:stedsnr" v="682989" />
		<tag k="waterway" v="stream" />
	</node>
	<node lat="64.51085555947361" lon="11.942933333464365" id="-90114">
		<tag k="name" v="Svalielva" />
		<tag k="ssr:stedsnr" v="682997" />
		<tag k="waterway" v="stream" />
	</node>
	<node lat="64.51345000208457" lon="11.70210277989619" id="-90140">
		<tag k="name" v="Sømmelbekken" />
		<tag k="ssr:stedsnr" v="560140" />
		<tag k="waterway" v="stream" />
	</node>
	<node lat="64.55912778171421" lon="11.922175003266174" id="-90150">
		<tag k="name" v="Vestervatnet" />
		<tag k="natural" v="water" />
		<tag k="ssr:stedsnr" v="560816" />
		<tag k="water" v="lake" />
	</node>
	<node lat="64.34446111398005" lon="11.686791667267421" id="-90158">
		<tag k="name" v="Steinbekken" />
		<tag k="ssr:stedsnr" v="560902" />
		<tag k="waterway" v="stream" />
	</node>
	<node lat="64.40690000135686" lon="11.907119444310826" id="-90199">
		<tag k="name" v="Brokvasselva" />
		<tag k="ssr:stedsnr" v="593363" />
		<tag k="waterway" v="stream" />
	</node>
	<node lat="64.41414166650047" lon="11.853222230857451" id="-90200">
		<tag k="name" v="Litløyelva" />
		<tag k="ssr:stedsnr" v="593366" />
		<tag k="waterway" v="river" />
	</node>
	<node lat="64.51053055608644" lon="11.780049998656567" id="-90221">
		<tag k="name" v="Åengelva" />
		<tag k="ssr:stedsnr" v="621987" />
		<tag k="waterway" v="stream" />
	</node>
	<node lat="64.39850277896001" lon="11.890227768129336" id="-90246">
		<tag k="name" v="Steinvika" />
		<tag k="natural" v="bay" />
		<tag k="ssr:stedsnr" v="654407" />
	</node>
	<node lat="64.34400833572153" lon="11.735822224114562" id="-90274">
		<tag k="name" v="Nytjønnbekken" />
		<tag k="ssr:stedsnr" v="898025" />
		<tag k="waterway" v="stream" />
	</node>
	<node lat="64.35206666236704" lon="11.72237500948165" id="-90275">
		<tag k="name" v="Søråa" />
		<tag k="ssr:stedsnr" v="898099" />
		<tag k="waterway" v="river" />
	</node>
	<node lat="64.43505000021288" lon="11.950763888643797" id="-90278">
		<tag k="name" v="Kaldalbekken" />
		<tag k="ssr:stedsnr" v="715410" />
		<tag k="waterway" v="stream" />
	</node>
	<node lat="64.4229472201192" lon="12.048805556459952" id="-90280">
		<tag k="name" v="Lonet" />
		<tag k="natural" v="water" />
		<tag k="ssr:stedsnr" v="715443" />
		<tag k="water" v="lake" />
	</node>
	<node lat="64.41613333335906" lon="12.079972218395868" id="-90281">
		<tag k="name" v="Jenstjønnbekken" />
		<tag k="ssr:stedsnr" v="715444" />
		<tag k="waterway" v="stream" />
	</node>
	<node lat="64.38551944245985" lon="11.687552781974818" id="-90282">
		<tag k="name" v="Øver Finntjønna" />
		<tag k="natural" v="water" />
		<tag k="ssr:stedsnr" v="716008" />
	</node>
	<node lat="64.56500833129483" lon="12.040238899072277" id="-90284">
		<tag k="name" v="Svartdalsbekken" />
		<tag k="ssr:stedsnr" v="716374" />
		<tag k="waterway" v="stream" />
	</node>
	<node lat="64.38628055892492" lon="11.786313889941058" id="-90285">
		<tag k="name" v="Gåstjønna" />
		<tag k="natural" v="water" />
		<tag k="ssr:stedsnr" v="899880" />
	</node>
	<node lat="64.35166944239481" lon="11.84065834111532" id="-90289">
		<tag k="name" v="Gressøset" />
		<tag k="natural" v="strait" />
		<tag k="ssr:stedsnr" v="899886" />
	</node>
	<node lat="64.51927499576281" lon="11.711913880595427" id="-90291">
		<tag k="name" v="Tverråa" />
		<tag k="ssr:stedsnr" v="742139" />
		<tag k="waterway" v="stream" />
	</node>
	<node lat="64.57221111367743" lon="12.088194436114085" id="-90329">
		<tag k="name" v="Flyin" />
		<tag k="natural" v="water" />
		<tag k="ssr:stedsnr" v="756054" />
		<tag k="water" v="lake" />
	</node>
	<node lat="64.40692222226492" lon="11.937941666566156" id="-90333">
		<tag k="name" v="Klumpbekken" />
		<tag k="ssr:stedsnr" v="776368" />
		<tag k="waterway" v="stream" />
	</node>
	<node lat="64.43106111030977" lon="12.032433331012687" id="-90334">
		<tag k="name" v="Båsbergholet" />
		<tag k="ssr:stedsnr" v="776414" />
		<tag k="waterway" v="stream" />
	</node>
	<node lat="64.36979166359573" lon="11.942830561884142" id="-90335">
		<tag k="name" v="Setertjønna" />
		<tag k="natural" v="water" />
		<tag k="ssr:stedsnr" v="776757" />
	</node>
	<node lat="64.41908333368546" lon="11.670563897258184" id="-90365">
		<tag k="alt_name" v="Harravatnet" />
		<tag k="name" v="Knepptjønna" />
		<tag k="natural" v="water" />
		<tag k="ssr:stedsnr" v="924096" />
	</node>
	<node lat="64.49710833688948" lon="11.675536103763163" id="-90368">
		<tag k="name" v="Finnbekken" />
		<tag k="ssr:stedsnr" v="924180" />
		<tag k="waterway" v="stream" />
	</node>
	<node lat="64.4174805578215" lon="11.739655547986281" id="-90372">
		<tag k="name" v="Stamtjønna" />
		<tag k="natural" v="water" />
		<tag k="ssr:stedsnr" v="837797" />
	</node>
	<node lat="64.36869444279726" lon="11.684083332324343" id="-90373">
		<tag k="name" v="Hunnasetertjønna" />
		<tag k="natural" v="water" />
		<tag k="ssr:stedsnr" v="838126" />
	</node>
	<node lat="64.37810278107973" lon="11.743775005108013" id="-90379">
		<tag k="name" v="Krokvatnet" />
		<tag k="natural" v="water" />
		<tag k="ssr:stedsnr" v="924645" />
	</node>
	<node lat="64.618158331719" lon="12.032575008410925" id="-90389">
		<tag k="alt_name" v="Almdalåa" />
		<tag k="name" v="Almåa" />
		<tag k="ssr:stedsnr" v="924855" />
		<tag k="waterway" v="stream" />
	</node>
	<node lat="64.41388333700174" lon="11.980788884719091" id="-90402">
		<tag k="name" v="Flyin" />
		<tag k="natural" v="water" />
		<tag k="ssr:stedsnr" v="863646" />
	</node>
	<node lat="64.60090277666593" lon="12.085016663050277" id="-90434">
		<tag k="name" v="Gressodden" />
		<tag k="natural" v="cape" />
		<tag k="ssr:stedsnr" v="878124" />
	</node>
	<node lat="64.30737778168553" lon="11.819775003772543" id="-90445">
		<tag k="name" v="Steindalsvatnet" />
		<tag k="natural" v="water" />
		<tag k="ssr:stedsnr" v="924583" />
	</node>
	<node lat="64.43553610886717" lon="12.055233323672658" id="-90447">
		<tag k="name" v="Drøfttjønna" />
		<tag k="natural" v="water" />
		<tag k="ssr:stedsnr" v="924714" />
	</node>
	<node lat="64.49475278182715" lon="11.998163894429025" id="-90451">
		<tag k="name" v="Engeskilen" />
		<tag k="place" v="islet" />
		<tag k="ssr:stedsnr" v="925813" />
	</node>
	<node lat="64.54584444592086" lon="12.076469448842161" id="-90474">
		<tag k="name" v="Steinengbekken" />
		<tag k="ssr:stedsnr" v="938107" />
		<tag k="waterway" v="stream" />
	</node>
	<node lat="64.55687222106964" lon="11.96738889123787" id="-90475">
		<tag k="name" v="Storengfossen" />
		<tag k="natural" v="waterfall" />
		<tag k="ssr:stedsnr" v="958341" />
	</node>
	<node lat="64.40758333334786" lon="11.767711119719761" id="-90482">
		<tag k="name" v="Fiskløysa" />
		<tag k="natural" v="water" />
		<tag k="ssr:stedsnr" v="13663" />
	</node>
	<node lat="64.41430833413473" lon="12.065227782281369" id="-90484">
		<tag k="name" v="Tømmersjøen" />
		<tag k="natural" v="water" />
		<tag k="ssr:stedsnr" v="13655" />
		<tag k="water" v="lake" />
	</node>
	<node lat="64.33921111314685" lon="12.106641663991187" id="-90489">
		<tag k="name" v="Reinsjøelva" />
		<tag k="ssr:stedsnr" v="14511" />
		<tag k="waterway" v="stream" />
	</node>
	<node lat="64.42896944318164" lon="11.983075008668532" id="-90494">
		<tag k="name" v="Einarsvatnet" />
		<tag k="natural" v="water" />
		<tag k="ssr:stedsnr" v="14697" />
		<tag k="water" v="lake" />
	</node>
	<node lat="64.52510832937953" lon="11.90040556307263" id="-90504">
		<tag k="name" v="Nordelva" />
		<tag k="ssr:stedsnr" v="14948" />
		<tag k="waterway" v="stream" />
	</node>
	<node lat="64.54365000414408" lon="11.979755565048828" id="-90507">
		<tag k="name" v="Grøtåa" />
		<tag k="ssr:stedsnr" v="15944" />
		<tag k="waterway" v="stream" />
	</node>
	<node lat="64.3875277732119" lon="11.79975278390374" id="-90540">
		<tag k="name" v="Feitfisktjønna" />
		<tag k="natural" v="water" />
		<tag k="ssr:stedsnr" v="26670" />
	</node>
	<node lat="64.39419444682581" lon="11.90655555337938" id="-90542">
		<tag k="name" v="Dyrfossen" />
		<tag k="natural" v="waterfall" />
		<tag k="ssr:stedsnr" v="26552" />
	</node>
	<node lat="64.56770833506786" lon="12.022650008657102" id="-90566">
		<tag k="name" v="Bjørkbekken" />
		<tag k="ssr:stedsnr" v="75854" />
		<tag k="waterway" v="stream" />
	</node>
	<node lat="64.51220277994611" lon="11.771686118153344" id="-90603">
		<tag k="name" v="Loken" />
		<tag k="natural" v="bay" />
		<tag k="ssr:stedsnr" v="108431" />
	</node>
	<node lat="64.34013055720463" lon="11.72051389869571" id="-90606">
		<tag k="name" v="Bjønntjønna" />
		<tag k="natural" v="water" />
		<tag k="ssr:stedsnr" v="109030" />
	</node>
	<node lat="64.39200000277997" lon="11.700425009647253" id="-90616">
		<tag k="name" v="Krokvatnet" />
		<tag k="natural" v="water" />
		<tag k="ssr:stedsnr" v="135073" />
	</node>
	<node lat="64.35010833779884" lon="11.813644441453885" id="-90617">
		<tag k="name" v="Langdalsbekken" />
		<tag k="ssr:stedsnr" v="135574" />
		<tag k="waterway" v="stream" />
	</node>
	<node lat="64.3846861102718" lon="11.934402774684354" id="-90621">
		<tag k="name" v="Fiskløysa" />
		<tag k="natural" v="water" />
		<tag k="ssr:stedsnr" v="135642" />
	</node>
	<node lat="64.62222499961531" lon="11.891975007547435" id="-90628">
		<tag k="name" v="Fiskløysa" />
		<tag k="natural" v="water" />
		<tag k="ssr:stedsnr" v="135851" />
	</node>
	<node lat="64.5079249956382" lon="12.048150004359552" id="-90630">
		<tag k="name" v="Tjurdalsbekken" />
		<tag k="ssr:stedsnr" v="135991" />
		<tag k="waterway" v="stream" />
	</node>
	<node lat="64.57768889055107" lon="12.049875007190606" id="-90670">
		<tag k="name" v="Bjørknesbekken" />
		<tag k="ssr:stedsnr" v="169333" />
		<tag k="waterway" v="stream" />
	</node>
	<node lat="64.42627778018753" lon="11.745025006353368" id="-90673">
		<tag k="name" v="Stamtjønna" />
		<tag k="natural" v="water" />
		<tag k="ssr:stedsnr" v="169791" />
	</node>
	<node lat="64.34731667056131" lon="11.714897232073561" id="-90674">
		<tag k="name" v="Rotbekken" />
		<tag k="ssr:stedsnr" v="170036" />
		<tag k="waterway" v="stream" />
	</node>
	<node lat="64.3633444467374" lon="11.834319449006978" id="-90677">
		<tag k="name" v="Steinøset" />
		<tag k="natural" v="strait" />
		<tag k="ssr:stedsnr" v="170890" />
	</node>
	<node lat="64.38721389227736" lon="11.80585555785706" id="-90679">
		<tag k="name" v="Langtjønna" />
		<tag k="natural" v="water" />
		<tag k="ssr:stedsnr" v="171877" />
	</node>
	<node lat="64.43241666294333" lon="11.771836116266192" id="-90702">
		<tag k="name" v="Horka" />
		<tag k="ssr:stedsnr" v="196725" />
		<tag k="waterway" v="river" />
	</node>
	<node lat="64.4222055595014" lon="11.944922227570851" id="-90703">
		<tag k="alt_name" v="Setertjønna" />
		<tag k="name" v="Storbakktjønna" />
		<tag k="natural" v="water" />
		<tag k="ssr:stedsnr" v="196731" />
	</node>
	<node lat="64.3862472217287" lon="11.812613892972376" id="-90734">
		<tag k="name" v="Rundtjønna" />
		<tag k="natural" v="water" />
		<tag k="ssr:stedsnr" v="208696" />
	</node>
	<node lat="64.41284444458226" lon="11.862455558660338" id="-90739">
		<tag k="name" v="Ånessa" />
		<tag k="natural" v="cape" />
		<tag k="ssr:stedsnr" v="290367" />
	</node>
	<node lat="64.41720278158421" lon="11.997227778631684" id="-90754">
		<tag k="name" v="Fiskløysa" />
		<tag k="natural" v="water" />
		<tag k="ssr:stedsnr" v="317684" />
	</node>
	<node lat="64.3430138930159" lon="11.641497232640056" id="-90759">
		<tag k="name" v="Sandåa" />
		<tag k="ssr:stedsnr" v="317836" />
		<tag k="waterway" v="river" />
	</node>
	<node lat="64.5985305591618" lon="12.04698333444406" id="-90765">
		<tag k="name" v="Nevervatnet" />
		<tag k="natural" v="water" />
		<tag k="ssr:stedsnr" v="318779" />
	</node>
	<node lat="64.55491388914787" lon="12.095044434413426" id="-90795">
		<tag k="name" v="Bekknesbekken" />
		<tag k="ssr:stedsnr" v="331060" />
		<tag k="waterway" v="stream" />
	</node>
	<node lat="64.34869999761496" lon="11.68781387920981" id="-90801">
		<tag k="name" v="Sagfossen" />
		<tag k="natural" v="waterfall" />
		<tag k="ssr:stedsnr" v="351094" />
	</node>
	<node lat="64.29256666923112" lon="11.780155552384002" id="-90813">
		<tag k="alt_name" v="Sælkholman" />
		<tag k="name" v="Bognholman" />
		<tag k="place" v="islet" />
		<tag k="ssr:stedsnr" v="377626" />
	</node>
	<node lat="64.40740555373296" lon="11.814844448713286" id="-90814">
		<tag k="loc_name" v="Litløyvatnet" />
		<tag k="name" v="Gauksjøen" />
		<tag k="natural" v="water" />
		<tag k="ssr:stedsnr" v="377643" />
	</node>
	<node lat="64.37705000275417" lon="12.15503889890017" id="-90816">
		<tag k="name" v="Tørrisbekken" />
		<tag k="ssr:stedsnr" v="377667" />
		<tag k="waterway" v="stream" />
	</node>
	<node lat="64.49589999731698" lon="12.01028054553361" id="-90831">
		<tag k="name" v="Harestranda" />
		<tag k="natural" v="beach" />
		<tag k="ssr:stedsnr" v="378790" />
	</node>
	<node lat="64.42880000022389" lon="12.011255550980767" id="-90832">
		<tag k="fixme" v="multiple name tags, choose one and add the other to alt_name" />
		<tag k="name" v="Steinselva;Hegleselva" />
		<tag k="ssr:stedsnr" v="378760" />
		<tag k="waterway" v="river" />
	</node>
	<node lat="64.4794944471684" lon="11.916086110606964" id="-90835">
		<tag k="name" v="Skveneset" />
		<tag k="natural" v="cape" />
		<tag k="ssr:stedsnr" v="378830" />
	</node>
	<node lat="64.52679722168693" lon="12.15460000972268" id="-90838">
		<tag k="name" v="Hauka" />
		<tag k="ssr:stedsnr" v="378980" />
		<tag k="waterway" v="stream" />
	</node>
	<node lat="64.52812499950967" lon="11.864852779945359" id="-90840">
		<tag k="name" v="Ratbekken" />
		<tag k="ssr:stedsnr" v="378954" />
		<tag k="waterway" v="stream" />
	</node>
	<node lat="64.38803889203352" lon="11.92087221562774" id="-90876">
		<tag k="name" v="Fiskløysbekken" />
		<tag k="ssr:stedsnr" v="412357" />
		<tag k="waterway" v="stream" />
	</node>
	<node lat="64.40573889020195" lon="11.848702785666223" id="-90879">
		<tag k="name" v="Olamyrbekken" />
		<tag k="ssr:stedsnr" v="412371" />
		<tag k="waterway" v="stream" />
	</node>
	<node lat="64.40482222410147" lon="11.8896305494339" id="-90880">
		<tag k="name" v="Seterodden" />
		<tag k="natural" v="cape" />
		<tag k="ssr:stedsnr" v="412373" />
	</node>
	<node lat="64.56440000390566" lon="11.947850003638951" id="-90900">
		<tag k="name" v="Himovatnet" />
		<tag k="natural" v="water" />
		<tag k="ssr:stedsnr" v="439823" />
	</node>
	<node lat="64.35997778118428" lon="11.724161111302838" id="-90957">
		<tag k="name" v="Fiskløysa" />
		<tag k="natural" v="water" />
		<tag k="ssr:stedsnr" v="499621" />
	</node>
	<node lat="64.40998055460527" lon="11.827091675623198" id="-90964">
		<tag k="name" v="Sagvatnet" />
		<tag k="natural" v="water" />
		<tag k="ssr:stedsnr" v="499571" />
	</node>
	<node lat="64.37681666933585" lon="11.938624997970946" id="-91007">
		<tag k="name" v="Kranslintjønnin" />
		<tag k="natural" v="water" />
		<tag k="ssr:stedsnr" v="511521" />
	</node>
	<node lat="64.31582778176332" lon="11.707127772064359" id="-91014">
		<tag k="name" v="Daltjønna" />
		<tag k="natural" v="water" />
		<tag k="ssr:stedsnr" v="534099" />
	</node>
	<node lat="64.3149722263733" lon="11.69946944333111" id="-91015">
		<tag k="name" v="Storfisktjønna" />
		<tag k="natural" v="water" />
		<tag k="ssr:stedsnr" v="534100" />
	</node>
	<node lat="64.3396805567025" lon="11.795336102690635" id="-91018">
		<tag k="name" v="Vesterslettjønnin" />
		<tag k="natural" v="water" />
		<tag k="ssr:stedsnr" v="534950" />
	</node>
	<node lat="64.34393333531949" lon="11.837188884173258" id="-91032">
		<tag k="name" v="Grønlibukta" />
		<tag k="natural" v="water" />
		<tag k="ssr:stedsnr" v="560588" />
	</node>
	<node lat="64.34860555361574" lon="11.937269438075768" id="-91033">
		<tag k="name" v="Litlåa" />
		<tag k="ssr:stedsnr" v="560590" />
		<tag k="waterway" v="stream" />
	</node>
	<node lat="64.34950278188381" lon="11.836625008074034" id="-91086">
		<tag k="alt_name" v="Vesteråvatnet" />
		<tag k="name" v="Vesteråvatna" />
		<tag k="natural" v="water" />
		<tag k="ssr:stedsnr" v="620554" />
		<tag k="water" v="lake" />
	</node>
	<node lat="64.3126611086484" lon="11.722447229025656" id="-91088">
		<tag k="alt_name" v="Spillumsdaltjønna" />
		<tag k="name" v="Svartelvtjønna" />
		<tag k="natural" v="water" />
		<tag k="ssr:stedsnr" v="620583" />
	</node>
	<node lat="64.36543889201064" lon="11.929924990754413" id="-91092">
		<tag k="name" v="Rognvatnet" />
		<tag k="natural" v="water" />
		<tag k="ssr:stedsnr" v="620643" />
		<tag k="water" v="lake" />
	</node>
	<node lat="64.43551111019286" lon="11.726580553561602" id="-91096">
		<tag k="name" v="Botndammen" />
		<tag k="ssr:stedsnr" v="620713" />
		<tag k="waterway" v="dam" />
	</node>
	<node lat="64.59985277512222" lon="12.103980559453442" id="-91102">
		<tag k="name" v="Elgsjøen" />
		<tag k="natural" v="water" />
		<tag k="ssr:stedsnr" v="621793" />
		<tag k="water" v="lake" />
	</node>
	<node lat="64.52613055239364" lon="12.163061117641845" id="-91104">
		<tag k="name" v="Hauka" />
		<tag k="ssr:stedsnr" v="635042" />
		<tag k="waterway" v="river" />
	</node>
	<node lat="64.36802500384793" lon="11.942794435169597" id="-91124">
		<tag k="name" v="Vibstadbekken" />
		<tag k="ssr:stedsnr" v="632545" />
		<tag k="waterway" v="stream" />
	</node>
	<node lat="64.5718499959622" lon="12.016655558738277" id="-91141">
		<tag k="name" v="Innervatnet" />
		<tag k="natural" v="water" />
		<tag k="ssr:stedsnr" v="716371" />
	</node>
	<node lat="64.40904999791603" lon="11.822666657910712" id="-91142">
		<tag k="name" v="Gauksjøoset" />
		<tag k="natural" v="bay" />
		<tag k="ssr:stedsnr" v="717827" />
	</node>
	<node lat="64.4778888852344" lon="11.64873889397712" id="-91147">
		<tag k="name" v="Kvatningan" />
		<tag k="natural" v="cape" />
		<tag k="ssr:stedsnr" v="741053" />
	</node>
	<node lat="64.52110555873091" lon="12.027374999898338" id="-91168">
		<tag k="name" v="Bjøra" />
		<tag k="ssr:stedsnr" v="742975" />
		<tag k="waterway" v="river" />
	</node>
	<node lat="64.62514999730563" lon="11.91327500714169" id="-91169">
		<tag k="name" v="Storvatnet" />
		<tag k="natural" v="water" />
		<tag k="ssr:stedsnr" v="743863" />
	</node>
	<node lat="64.53665833318682" lon="11.72948054535428" id="-91172">
		<tag k="name" v="Liavatna" />
		<tag k="natural" v="water" />
		<tag k="ssr:stedsnr" v="743963" />
	</node>
	<node lat="64.52458889017669" lon="12.162202775697914" id="-91205">
		<tag k="name" v="Nåltjønnelva" />
		<tag k="ssr:stedsnr" v="757043" />
		<tag k="waterway" v="stream" />
	</node>
	<node lat="64.32658889258391" lon="11.762294443336698" id="-91210">
		<tag k="name" v="Møssmørbekken" />
		<tag k="ssr:stedsnr" v="776100" />
		<tag k="waterway" v="stream" />
	</node>
	<node lat="64.34203888850615" lon="11.707505547843" id="-91215">
		<tag k="name" v="Damtjønna" />
		<tag k="natural" v="water" />
		<tag k="ssr:stedsnr" v="776039" />
	</node>
	<node lat="64.41405000178737" lon="11.961138880193387" id="-91219">
		<tag k="name" v="Klumptjønna" />
		<tag k="natural" v="water" />
		<tag k="ssr:stedsnr" v="802680" />
	</node>
	<node lat="64.35365555603065" lon="12.120550003781252" id="-91265">
		<tag k="name" v="Johansliodden" />
		<tag k="natural" v="cape" />
		<tag k="ssr:stedsnr" v="837147" />
	</node>
	<node lat="64.38854722226344" lon="11.840977777778962" id="-91268">
		<tag k="name" v="Svarttjønna" />
		<tag k="natural" v="water" />
		<tag k="ssr:stedsnr" v="839856" />
	</node>
	<node lat="64.44885832958313" lon="11.911638892543827" id="-91275">
		<tag k="name" v="Oppdalsneset" />
		<tag k="natural" v="cape" />
		<tag k="ssr:stedsnr" v="863712" />
	</node>
	<node lat="64.40535000348322" lon="11.696299990728372" id="-91279">
		<tag k="name" v="Gravdalshavet" />
		<tag k="natural" v="water" />
		<tag k="ssr:stedsnr" v="864062" />
	</node>
	<node lat="64.5190444454314" lon="11.66550555857554" id="-91281">
		<tag k="name" v="Trekorsbekken" />
		<tag k="ssr:stedsnr" v="864139" />
		<tag k="waterway" v="stream" />
	</node>
	<node lat="64.53777499881934" lon="11.833125008753477" id="-91308">
		<tag k="name" v="Langvatnet" />
		<tag k="natural" v="water" />
		<tag k="ssr:stedsnr" v="865976" />
	</node>
	<node lat="64.60529721831946" lon="12.082638888483382" id="-91343">
		<tag k="name" v="Tverrlandet" />
		<tag k="natural" v="beach" />
		<tag k="ssr:stedsnr" v="878136" />
	</node>
	<node lat="64.5984472189297" lon="12.083969438411911" id="-91345">
		<tag k="name" v="Dessmerengbekken" />
		<tag k="ssr:stedsnr" v="939112" />
		<tag k="waterway" v="stream" />
	</node>
	<node lat="64.3745666699102" lon="11.930355549002872" id="-91347">
		<tag k="name" v="Raudtjønna" />
		<tag k="natural" v="water" />
		<tag k="ssr:stedsnr" v="958401" />
	</node>
	<node lat="64.41708333142283" lon="11.98558334120697" id="-91348">
		<tag k="name" v="Flytjønnin" />
		<tag k="place" v="locality" />
		<tag k="ssr:stedsnr" v="958430" />
	</node>
	<node lat="64.41796944655758" lon="12.048769452681" id="-91350">
		<tag k="name" v="Skrovelfossen" />
		<tag k="natural" v="waterfall" />
		<tag k="ssr:stedsnr" v="958438" />
	</node>
	<node lat="64.46662445310314" lon="12.060506409421706" id="-91361">
		<tag k="name" v="Øyelva" />
		<tag k="ssr:stedsnr" v="974435" />
		<tag k="waterway" v="river" />
	</node>
</osm>
