<?xml version="1.0" encoding="UTF-8"?>
<osm version="0.6" generator="osmapis">
	<node lat="64.47234444210946" lon="11.664661102190404" id="-89403">
		<tag k="highway" v="path" />
		<tag k="name" v="Bekkaskardet" />
		<tag k="ssr:stedsnr" v="447270" />
	</node>
	<node lat="64.48108055745416" lon="11.891758327785457" id="-89413">
		<tag k="junction" v="yes" />
		<tag k="name" v="Korsen" />
		<tag k="place" v="locality" />
		<tag k="ssr:stedsnr" v="447408" />
	</node>
	<node lat="64.49746666596043" lon="11.759722220978608" id="-89464">
		<tag k="highway" v="path" />
		<tag k="name" v="Rolandskleiva" />
		<tag k="ssr:stedsnr" v="326318" />
	</node>
	<node lat="64.48896388648136" lon="11.750980560472087" id="-89499">
		<tag k="highway" v="path" />
		<tag k="name" v="Fjellbakkan" />
		<tag k="ssr:stedsnr" v="386280" />
	</node>
	<node lat="64.50580000072503" lon="11.626477768092439" id="-89509">
		<tag k="highway" v="path" />
		<tag k="name" v="Heiakleiva" />
		<tag k="ssr:stedsnr" v="472398" />
	</node>
	<node lat="64.42931110811914" lon="11.744994445879435" id="-89546">
		<tag k="highway" v="path" />
		<tag k="name" v="Brattstigen" />
		<tag k="ssr:stedsnr" v="473808" />
	</node>
	<node lat="64.42830555462166" lon="12.045816671298532" id="-89914">
		<tag k="ford" v="yes" />
		<tag k="name" v="Vadet" />
		<tag k="place" v="locality" />
		<tag k="ssr:stedsnr" v="898423" />
	</node>
	<node lat="64.46819166690723" lon="12.064174993180155" id="-90094">
		<tag k="leisure" v="marina" />
		<tag k="name" v="Sjufarhylla" />
		<tag k="ssr:stedsnr" v="22027" />
	</node>
	<node lat="64.49850555851076" lon="11.732886117173026" id="-90156">
		<tag k="highway" v="path" />
		<tag k="name" v="Dragnota" />
		<tag k="ssr:stedsnr" v="83318" />
	</node>
	<node lat="64.49478055812484" lon="11.764452773700938" id="-90280">
		<tag k="highway" v="path" />
		<tag k="name" v="Skiljåskleiva" />
		<tag k="ssr:stedsnr" v="204247" />
	</node>
	<node lat="64.49274166936667" lon="11.771477768095991" id="-90611">
		<tag k="highway" v="path" />
		<tag k="name" v="Svahylla" />
		<tag k="ssr:stedsnr" v="568286" />
	</node>
	<node lat="64.5086138892039" lon="11.811524999322002" id="-90627">
		<tag k="highway" v="path" />
		<tag k="name" v="Gammelkleiva" />
		<tag k="ssr:stedsnr" v="569386" />
	</node>
	<node lat="64.5190944488163" lon="11.807547224218998" id="-90628">
		<tag k="ford" v="yes" />
		<tag k="name" v="Skarvvaddet" />
		<tag k="place" v="locality" />
		<tag k="ssr:stedsnr" v="569446" />
	</node>
	<node lat="64.50297500146512" lon="11.787166658005344" id="-90754">
		<tag k="man_made" v="pipeline" />
		<tag k="name" v="Røyra" />
		<tag k="ssr:stedsnr" v="751426" />
	</node>
	<node lat="64.49486111458036" lon="11.7530333348939" id="-90869">
		<tag k="highway" v="path" />
		<tag k="name" v="Reinbjørklaven" />
		<tag k="ssr:stedsnr" v="872302" />
	</node>
</osm>
