<?xml version="1.0" encoding="UTF-8"?>
<osm version="0.6" generator="osmapis">
	<node lat="64.57223333006519" lon="11.969980553412736" id="-89683">
		<tag k="historic" v="shieling" />
		<tag k="name" v="Amdalsetran" />
		<tag k="place" v="locality" />
		<tag k="ssr:stedsnr" v="230324" />
	</node>
	<node lat="64.45386111030493" lon="11.690674992900256" id="-89689">
		<tag k="name" v="Stormyra" />
		<tag k="natural" v="wetland" />
		<tag k="ssr:stedsnr" v="13006" />
	</node>
	<node lat="64.5731500043433" lon="11.97324999159293" id="-89702">
		<tag k="name" v="Amdalsmyra" />
		<tag k="natural" v="wetland" />
		<tag k="ssr:stedsnr" v="15815" />
	</node>
	<node lat="64.41370000155648" lon="11.722961111521979" id="-89727">
		<tag k="name" v="Flåttastøa" />
		<tag k="natural" v="wetland" />
		<tag k="ssr:stedsnr" v="48008" />
	</node>
	<node lat="64.5726361137368" lon="11.980500007089844" id="-89728">
		<tag k="historic" v="shieling" />
		<tag k="name" v="Beatasetran" />
		<tag k="place" v="locality" />
		<tag k="ssr:stedsnr" v="48308" />
	</node>
	<node lat="64.40095277698623" lon="11.855288891550439" id="-89732">
		<tag k="name" v="Erikmyra" />
		<tag k="natural" v="wetland" />
		<tag k="ssr:stedsnr" v="74661" />
	</node>
	<node lat="64.3113027813875" lon="11.950844436355057" id="-89766">
		<tag k="name" v="Beinholet" />
		<tag k="natural" v="wetland" />
		<tag k="ssr:stedsnr" v="109730" />
	</node>
	<node lat="64.43853611551786" lon="12.078288886259637" id="-89890">
		<tag k="name" v="Hestmyra" />
		<tag k="natural" v="wetland" />
		<tag k="ssr:stedsnr" v="196713" />
	</node>
	<node lat="64.5008972226212" lon="12.123074991535862" id="-89913">
		<tag k="name" v="Risvikmyra" />
		<tag k="natural" v="wetland" />
		<tag k="ssr:stedsnr" v="271095" />
	</node>
	<node lat="64.60746666292485" lon="12.083613884989889" id="-89923">
		<tag k="name" v="Kringla" />
		<tag k="natural" v="wetland" />
		<tag k="ssr:stedsnr" v="453136" />
	</node>
	<node lat="64.52797500076416" lon="12.162674994988008" id="-89924">
		<tag k="name" v="Stokkengmyra" />
		<tag k="natural" v="wetland" />
		<tag k="ssr:stedsnr" v="454041" />
	</node>
	<node lat="64.4325250044256" lon="11.990286107641355" id="-89980">
		<tag k="historic" v="shieling" />
		<tag k="name" v="Landfallmosetran" />
		<tag k="place" v="locality" />
		<tag k="ssr:stedsnr" v="472371" />
	</node>
	<node lat="64.53884444361468" lon="11.89452777310238" id="-89982">
		<tag k="historic" v="shieling" />
		<tag k="name" v="Svalisetran" />
		<tag k="place" v="locality" />
		<tag k="ssr:stedsnr" v="340745" />
	</node>
	<node lat="64.34820833728988" lon="11.952491662844027" id="-89986">
		<tag k="loc_name" v="Storåslættet" />
		<tag k="name" v="Storåsslettet" />
		<tag k="natural" v="wetland" />
		<tag k="ssr:stedsnr" v="473779" />
	</node>
	<node lat="64.49906389135931" lon="11.637124992488616" id="-90015">
		<tag k="name" v="Stormyra" />
		<tag k="natural" v="wetland" />
		<tag k="ssr:stedsnr" v="439218" />
	</node>
	<node lat="64.51667499867015" lon="12.09530000794606" id="-90020">
		<tag k="name" v="Risvikmyran" />
		<tag k="natural" v="wetland" />
		<tag k="ssr:stedsnr" v="439999" />
	</node>
	<node lat="64.43378333617929" lon="11.730108324451388" id="-90043">
		<tag k="name" v="Føribotnet" />
		<tag k="natural" v="wetland" />
		<tag k="ssr:stedsnr" v="473807" />
	</node>
	<node lat="64.43031389223191" lon="12.057830564286338" id="-90052">
		<tag k="alt_name" v="Seterstormyra" />
		<tag k="name" v="Stormyra" />
		<tag k="natural" v="wetland" />
		<tag k="ssr:stedsnr" v="499850" />
	</node>
	<node lat="64.55837500412295" lon="11.96817500942299" id="-90107">
		<tag k="name" v="Storenget" />
		<tag k="natural" v="wetland" />
		<tag k="ssr:stedsnr" v="682851" />
	</node>
	<node lat="64.5300944475921" lon="12.170530560158946" id="-90116">
		<tag k="name" v="Seterura" />
		<tag k="natural" v="scree" />
		<tag k="ssr:stedsnr" v="514068" />
	</node>
	<node lat="64.52729166743742" lon="12.173888892620685" id="-90117">
		<tag k="historic" v="shieling" />
		<tag k="name" v="Galgøftsetran" />
		<tag k="place" v="locality" />
		<tag k="ssr:stedsnr" v="514071" />
	</node>
	<node lat="64.5410861150686" lon="12.156061101572876" id="-90118">
		<tag k="name" v="Stormyra" />
		<tag k="natural" v="wetland" />
		<tag k="ssr:stedsnr" v="514074" />
	</node>
	<node lat="64.44253888450903" lon="11.759324999400146" id="-90166">
		<tag k="name" v="Ådalsmyra" />
		<tag k="natural" v="wetland" />
		<tag k="ssr:stedsnr" v="690370" />
	</node>
	<node lat="64.43175277961953" lon="12.026480551603617" id="-90212">
		<tag k="name" v="Gåsmyra" />
		<tag k="natural" v="wetland" />
		<tag k="ssr:stedsnr" v="620717" />
	</node>
	<node lat="64.4310666679218" lon="12.04976666196" id="-90247">
		<tag k="historic" v="shieling" />
		<tag k="name" v="Heglessetran" />
		<tag k="place" v="locality" />
		<tag k="ssr:stedsnr" v="654436" />
	</node>
	<node lat="64.6165388932983" lon="12.022430559287127" id="-90249">
		<tag k="historic" v="shieling" />
		<tag k="name" v="Melhussetran" />
		<tag k="place" v="locality" />
		<tag k="ssr:stedsnr" v="654535" />
	</node>
	<node lat="64.43002777709106" lon="12.0169305621296" id="-90279">
		<tag k="name" v="Stormyra" />
		<tag k="natural" v="wetland" />
		<tag k="ssr:stedsnr" v="715433" />
	</node>
	<node lat="64.39938888648285" lon="11.797066659265322" id="-90287">
		<tag k="name" v="Jonslettet" />
		<tag k="natural" v="wetland" />
		<tag k="ssr:stedsnr" v="899848" />
	</node>
	<node lat="64.5538249977353" lon="12.086247225941937" id="-90328">
		<tag k="name" v="Råenget" />
		<tag k="natural" v="wetland" />
		<tag k="ssr:stedsnr" v="756116" />
	</node>
	<node lat="64.33276111525062" lon="12.0623888917741" id="-90330">
		<tag k="historic" v="shieling" />
		<tag k="name" v="Øyemsseteren" />
		<tag k="place" v="locality" />
		<tag k="ssr:stedsnr" v="776165" />
	</node>
	<node lat="64.39159166458465" lon="11.912786117828237" id="-90332">
		<tag k="historic" v="shieling" />
		<tag k="name" v="Pesetran" />
		<tag k="place" v="locality" />
		<tag k="ssr:stedsnr" v="776366" />
	</node>
	<node lat="64.41658610667953" lon="12.046319444559023" id="-90371">
		<tag k="name" v="Bergmyra" />
		<tag k="natural" v="wetland" />
		<tag k="ssr:stedsnr" v="837422" />
	</node>
	<node lat="64.47446944471238" lon="12.063366660330683" id="-90386">
		<tag k="name" v="Stormyra" />
		<tag k="natural" v="wetland" />
		<tag k="ssr:stedsnr" v="924786" />
	</node>
	<node lat="64.56801944543304" lon="11.953377787826183" id="-90444">
		<tag k="historic" v="shieling" />
		<tag k="name" v="Melhussetran" />
		<tag k="place" v="locality" />
		<tag k="ssr:stedsnr" v="899310" />
	</node>
	<node lat="64.46350883192218" lon="11.758534705112393" id="-90480">
		<tag k="name" v="Kjerkekra" />
		<tag k="place" v="locality" />
		<tag k="ssr:stedsnr" v="980978" />
	</node>
	<node lat="64.38688333610222" lon="11.851988894860432" id="-90547">
		<tag k="historic" v="shieling" />
		<tag k="name" v="Eriksetran" />
		<tag k="place" v="locality" />
		<tag k="ssr:stedsnr" v="48367" />
	</node>
	<node lat="64.51437777338559" lon="11.769644452025823" id="-90602">
		<tag k="name" v="Åsenget" />
		<tag k="natural" v="wetland" />
		<tag k="ssr:stedsnr" v="108429" />
	</node>
	<node lat="64.56294166879402" lon="11.973411107327765" id="-90604">
		<tag k="historic" v="shieling" />
		<tag k="name" v="Roemsetran" />
		<tag k="place" v="locality" />
		<tag k="ssr:stedsnr" v="109330" />
	</node>
	<node lat="64.58295555650983" lon="11.995894442367051" id="-90605">
		<tag k="historic" v="shieling" />
		<tag k="name" v="Bjørnessetran" />
		<tag k="place" v="locality" />
		<tag k="ssr:stedsnr" v="109335" />
	</node>
	<node lat="64.42357499948102" lon="12.042075005034805" id="-90609">
		<tag k="name" v="Stormyra" />
		<tag k="natural" v="wetland" />
		<tag k="ssr:stedsnr" v="109411" />
	</node>
	<node lat="64.35495833475254" lon="12.131552781571084" id="-90740">
		<tag k="historic" v="shieling" />
		<tag k="name" v="Skjelbredseteren" />
		<tag k="place" v="locality" />
		<tag k="ssr:stedsnr" v="291172" />
	</node>
	<node lat="64.57004444832353" lon="12.064413881973765" id="-90802">
		<tag k="historic" v="shieling" />
		<tag k="name" v="Ljøsbergssetran" />
		<tag k="place" v="locality" />
		<tag k="ssr:stedsnr" v="351340" />
	</node>
	<node lat="64.48050555688212" lon="11.670850005179862" id="-90812">
		<tag k="name" v="Sjåengmyra" />
		<tag k="natural" v="wetland" />
		<tag k="ssr:stedsnr" v="377185" />
	</node>
	<node lat="64.52659722510484" lon="12.164436114046506" id="-90870">
		<tag k="name" v="Langmyra" />
		<tag k="natural" v="wetland" />
		<tag k="ssr:stedsnr" v="393062" />
	</node>
	<node lat="64.40758611233919" lon="11.933927768296229" id="-90877">
		<tag k="historic" v="shieling" />
		<tag k="name" v="Klumpsetran" />
		<tag k="place" v="locality" />
		<tag k="ssr:stedsnr" v="412363" />
	</node>
	<node lat="64.39984722167205" lon="11.859738881198105" id="-90878">
		<tag k="name" v="Erikmyra" />
		<tag k="natural" v="wetland" />
		<tag k="ssr:stedsnr" v="412368" />
	</node>
	<node lat="64.48408888761088" lon="11.693999990454179" id="-90954">
		<tag k="name" v="Omlamyra" />
		<tag k="natural" v="wetland" />
		<tag k="ssr:stedsnr" v="499156" />
	</node>
	<node lat="64.5026861130532" lon="11.637452767931682" id="-90973">
		<tag k="name" v="Heiaurda" />
		<tag k="natural" v="scree" />
		<tag k="ssr:stedsnr" v="500275" />
	</node>
	<node lat="64.32951389071455" lon="12.078347225102574" id="-91076">
		<tag k="historic" v="shieling" />
		<tag k="name" v="Nyseteren" />
		<tag k="place" v="locality" />
		<tag k="ssr:stedsnr" v="594175" />
	</node>
	<node lat="64.34638888475006" lon="11.880552769553352" id="-91079">
		<tag k="name" v="Opdalsetran" />
		<tag k="place" v="locality" />
		<tag k="ssr:stedsnr" v="595898" />
	</node>
	<node lat="64.54826944877497" lon="12.097550002949003" id="-91127">
		<tag k="name" v="Bjørngjøtin" />
		<tag k="natural" v="wetland" />
		<tag k="ssr:stedsnr" v="634110" />
	</node>
	<node lat="64.32389722257403" lon="12.00386666207923" id="-91131">
		<tag k="historic" v="shieling" />
		<tag k="name" v="Lestemseteren" />
		<tag k="place" v="locality" />
		<tag k="ssr:stedsnr" v="655264" />
	</node>
	<node lat="64.39776944457296" lon="11.835069443667019" id="-91133">
		<tag k="name" v="Taraldalmyra" />
		<tag k="natural" v="wetland" />
		<tag k="ssr:stedsnr" v="656848" />
	</node>
	<node lat="64.40549444496077" lon="11.803505555023778" id="-91134">
		<tag k="name" v="Storenget" />
		<tag k="natural" v="wetland" />
		<tag k="ssr:stedsnr" v="656852" />
	</node>
	<node lat="64.4125861146943" lon="11.828202770825404" id="-91143">
		<tag k="name" v="Sagvassmyra" />
		<tag k="natural" v="wetland" />
		<tag k="ssr:stedsnr" v="717831" />
	</node>
	<node lat="64.46304444279455" lon="11.791647223127043" id="-91145">
		<tag k="name" v="Hunnamyra" />
		<tag k="natural" v="wetland" />
		<tag k="ssr:stedsnr" v="727437" />
	</node>
	<node lat="64.52499999717278" lon="11.853436116439712" id="-91262">
		<tag k="name" v="Veglosetran" />
		<tag k="place" v="locality" />
		<tag k="ssr:stedsnr" v="825734" />
	</node>
	<node lat="64.55398055479303" lon="11.978783335217823" id="-91266">
		<tag k="historic" v="shieling" />
		<tag k="name" v="Himosetran" />
		<tag k="place" v="locality" />
		<tag k="ssr:stedsnr" v="837339" />
	</node>
	<node lat="64.46220278113243" lon="11.756297229592601" id="-91269">
		<tag k="name" v="Kjerkmyra" />
		<tag k="natural" v="wetland" />
		<tag k="ssr:stedsnr" v="848462" />
	</node>
	<node lat="64.36576666986468" lon="11.95209722875295" id="-91344">
		<tag k="historic" v="shieling" />
		<tag k="name" v="Rognvasseteren" />
		<tag k="place" v="locality" />
		<tag k="ssr:stedsnr" v="936541" />
	</node>
	<node lat="64.42801388598383" lon="12.03949722457838" id="-91352">
		<tag k="name" v="Setermyra" />
		<tag k="natural" v="wetland" />
		<tag k="ssr:stedsnr" v="958444" />
	</node>
	<node lat="64.56237778196657" lon="11.92666666588856" id="-91355">
		<tag k="historic" v="shieling" />
		<tag k="name" v="Liasetran" />
		<tag k="place" v="locality" />
		<tag k="ssr:stedsnr" v="959277" />
	</node>
</osm>
