<?xml version="1.0" encoding="UTF-8"?>
<osm version="0.6" generator="osmapis">
	<node lat="60.97993333125131" lon="6.272636115536325" id="-41254">
		<tag k="name" v="Gyltevatnet" />
		<tag k="natural" v="water" />
		<tag k="ssr:stedsnr" v="8654" />
	</node>
	<node lat="60.941408335267745" lon="6.61834999848752" id="-41256">
		<tag k="name" v="Heimredalsvatnet" />
		<tag k="natural" v="water" />
		<tag k="ssr:stedsnr" v="8895" />
	</node>
	<node lat="61.0764722267077" lon="6.872958333304862" id="-41259">
		<tag k="name" v="Rundehauggrovi" />
		<tag k="ssr:stedsnr" v="9207" />
		<tag k="waterway" v="stream" />
	</node>
	<node lat="60.98195000282549" lon="6.3958611133624075" id="-41269">
		<tag k="name" v="Gravseta" />
		<tag k="ssr:stedsnr" v="9622" />
		<tag k="waterway" v="stream" />
	</node>
	<node lat="61.06634444690922" lon="6.311805555932217" id="-41300">
		<tag k="name" v="Vedskreda" />
		<tag k="ssr:stedsnr" v="36911" />
		<tag k="waterway" v="stream" />
	</node>
	<node lat="61.08710277451426" lon="6.276244440243272" id="-41302">
		<tag k="name" v="Fossen" />
		<tag k="natural" v="waterfall" />
		<tag k="ssr:stedsnr" v="36924" />
	</node>
	<node lat="60.98033610993201" lon="6.616822216772186" id="-41314">
		<tag k="name" v="Vollafjellelvi" />
		<tag k="ssr:stedsnr" v="69934" />
		<tag k="waterway" v="stream" />
	</node>
	<node lat="61.116811113986046" lon="6.864141664218676" id="-41328">
		<tag k="alt_name" v="Jarva, ytste;Ytste-Jarva;Ytste Jarva" />
		<tag k="name" v="Ytsta Jarva" />
		<tag k="ssr:stedsnr" v="70786" />
		<tag k="waterway" v="stream" />
	</node>
	<node lat="61.055375003175826" lon="6.526074997003268" id="-41335">
		<tag k="name" v="Furehauggrovi" />
		<tag k="ssr:stedsnr" v="96008" />
		<tag k="waterway" v="stream" />
	</node>
	<node lat="61.02235642854105" lon="6.212130467392481" id="-41355">
		<tag k="name" v="Vaskevatnet" />
		<tag k="natural" v="water" />
		<tag k="ssr:stedsnr" v="251353" />
	</node>
	<node lat="60.96215277674187" lon="6.552150007123309" id="-41361">
		<tag k="name" v="Årebotnvatnet" />
		<tag k="natural" v="water" />
		<tag k="ssr:stedsnr" v="251667" />
	</node>
	<node lat="60.95215833473138" lon="6.29856943558513" id="-41362">
		<tag k="alt_name" v="Rappavatnet, store" />
		<tag k="name" v="Store Rappavatnet" />
		<tag k="natural" v="water" />
		<tag k="ssr:stedsnr" v="251671" />
		<tag k="water" v="lake" />
	</node>
	<node lat="60.98582777756754" lon="6.45685833871764" id="-41365">
		<tag k="name" v="Dalselvi" />
		<tag k="ssr:stedsnr" v="251705" />
		<tag k="waterway" v="stream" />
	</node>
	<node lat="60.93648859063493" lon="6.608058622456276" id="-41370">
		<tag k="name" v="Svartatjørn" />
		<tag k="natural" v="water" />
		<tag k="ssr:stedsnr" v="251909" />
	</node>
	<node lat="61.08020277580805" lon="6.905380563074992" id="-41378">
		<tag k="alt_name" v="Haukegrovi;Haukanesgrovi" />
		<tag k="name" v="Haukagrovi" />
		<tag k="ssr:stedsnr" v="252222" />
		<tag k="waterway" v="stream" />
	</node>
	<node lat="60.934479789072796" lon="6.176712546210266" id="-41381">
		<tag k="name" v="Holskardvatnet" />
		<tag k="natural" v="water" />
		<tag k="ssr:stedsnr" v="129132" />
		<tag k="water" v="lake" />
	</node>
	<node lat="61.06744444254721" lon="6.365544435838754" id="-41384">
		<tag k="name" v="Sopa" />
		<tag k="ssr:stedsnr" v="252518" />
		<tag k="waterway" v="stream" />
	</node>
	<node lat="61.083266663762814" lon="6.878474991732077" id="-41391">
		<tag k="name" v="Djupevikelvi" />
		<tag k="ssr:stedsnr" v="130204" />
		<tag k="waterway" v="stream" />
	</node>
	<node lat="61.13108610922431" lon="6.8033361108383605" id="-41414">
		<tag k="alt_name" v="Breidalsvatnet" />
		<tag k="name" v="Breiddalsvatnet" />
		<tag k="natural" v="water" />
		<tag k="ssr:stedsnr" v="130827" />
	</node>
	<node lat="61.02582500025735" lon="6.335702769903268" id="-41420">
		<tag k="alt_name" v="Gyltevatn" />
		<tag k="name" v="Gyltevatnet" />
		<tag k="natural" v="water" />
		<tag k="ssr:stedsnr" v="131592" />
	</node>
	<node lat="61.14608055258627" lon="6.697713896411224" id="-41424">
		<tag k="alt_name" v="Bergjo" />
		<tag k="name" v="Berva" />
		<tag k="ssr:stedsnr" v="252795" />
		<tag k="waterway" v="stream" />
	</node>
	<node lat="61.156038885983094" lon="6.656741663236584" id="-41426">
		<tag k="name" v="Fjellgrovi" />
		<tag k="ssr:stedsnr" v="252804" />
		<tag k="waterway" v="stream" />
	</node>
	<node lat="61.139877776846106" lon="6.749775002244523" id="-41430">
		<tag k="alt_name" v="Storelvi;Feioselvi" />
		<tag k="name" v="Fedjoselvi" />
		<tag k="ssr:stedsnr" v="252839" />
		<tag k="waterway" v="river" />
	</node>
	<node lat="61.139502777909065" lon="6.827272231389691" id="-41432">
		<tag k="name" v="Maurlandsgrovi" />
		<tag k="ssr:stedsnr" v="252844" />
		<tag k="waterway" v="stream" />
	</node>
	<node lat="61.030586113057154" lon="6.6710999989180415" id="-41451">
		<tag k="name" v="Svagrovi" />
		<tag k="ssr:stedsnr" v="158198" />
		<tag k="waterway" v="stream" />
	</node>
	<node lat="61.04098333202192" lon="6.306938887442106" id="-41453">
		<tag k="name" v="Indretåelva" />
		<tag k="ssr:stedsnr" v="158709" />
		<tag k="waterway" v="stream" />
	</node>
	<node lat="61.110823529163426" lon="6.625764133338977" id="-41471">
		<tag k="name" v="Uksavatnet" />
		<tag k="natural" v="water" />
		<tag k="ssr:stedsnr" v="191717" />
	</node>
	<node lat="61.02882499693932" lon="6.516394446045592" id="-41491">
		<tag k="name" v="Svagrovi" />
		<tag k="ssr:stedsnr" v="218272" />
		<tag k="waterway" v="stream" />
	</node>
	<node lat="61.09470000229613" lon="6.255497222130751" id="-41504">
		<tag k="name" v="Fesselvi" />
		<tag k="ssr:stedsnr" v="218782" />
		<tag k="waterway" v="stream" />
	</node>
	<node lat="61.00808055568184" lon="6.348677779838843" id="-41507">
		<tag k="name" v="Tenneselvi" />
		<tag k="ssr:stedsnr" v="277180" />
		<tag k="waterway" v="river" />
	</node>
	<node lat="61.05003115102709" lon="6.609262900612733" id="-41521">
		<tag k="name" v="Botolvsfossen" />
		<tag k="natural" v="waterfall" />
		<tag k="ssr:stedsnr" v="277304" />
	</node>
	<node lat="61.00841944065544" lon="6.556419451386198" id="-41529">
		<tag k="name" v="Tverrgrovi" />
		<tag k="ssr:stedsnr" v="279086" />
		<tag k="waterway" v="stream" />
	</node>
	<node lat="61.09283888990418" lon="6.209611117192454" id="-41536">
		<tag k="name" v="Tverrelvi" />
		<tag k="ssr:stedsnr" v="279520" />
		<tag k="waterway" v="river" />
	</node>
	<node lat="61.04408563531417" lon="6.232157940544309" id="-41549">
		<tag k="name" v="Borteste Dalsvatn" />
		<tag k="natural" v="water" />
		<tag k="ssr:stedsnr" v="461296" />
		<tag k="water" v="lake" />
	</node>
	<node lat="61.098925001840435" lon="6.231052780506151" id="-41557">
		<tag k="name" v="Vetlagrovi" />
		<tag k="ssr:stedsnr" v="461849" />
		<tag k="waterway" v="stream" />
	</node>
	<node lat="61.023783336782465" lon="6.6418694524843715" id="-41570">
		<tag k="name" v="Sendedalselvi" />
		<tag k="ssr:stedsnr" v="312115" />
		<tag k="waterway" v="stream" />
	</node>
	<node lat="61.033736113103856" lon="6.878341673299217" id="-41572">
		<tag k="name" v="Tundøla" />
		<tag k="ssr:stedsnr" v="312120" />
		<tag k="waterway" v="river" />
	</node>
	<node lat="61.051670941860905" lon="6.721868024714614" id="-41578">
		<tag k="name" v="Svartavatnet" />
		<tag k="natural" v="water" />
		<tag k="ssr:stedsnr" v="312184" />
		<tag k="water" v="lake" />
	</node>
	<node lat="60.967486113785434" lon="6.41025833697988" id="-41583">
		<tag k="name" v="Langavatnet" />
		<tag k="natural" v="water" />
		<tag k="ssr:stedsnr" v="312615" />
	</node>
	<node lat="61.09020278120868" lon="6.7917583282670515" id="-41587">
		<tag k="alt_name" v="Turidalselvi" />
		<tag k="name" v="Turiddøla" />
		<tag k="ssr:stedsnr" v="312760" />
		<tag k="waterway" v="stream" />
	</node>
	<node lat="61.04660000427113" lon="6.6534555531331945" id="-41589">
		<tag k="name" v="Merkesgrovi" />
		<tag k="ssr:stedsnr" v="313207" />
		<tag k="waterway" v="stream" />
	</node>
	<node lat="61.04348332932032" lon="6.6668722256014155" id="-41590">
		<tag k="alt_name" v="Brudevollgrovi" />
		<tag k="name" v="Bruavoll" />
		<tag k="ssr:stedsnr" v="313208" />
		<tag k="waterway" v="stream" />
	</node>
	<node lat="61.0186371488943" lon="6.221227999029886" id="-41591">
		<tag k="name" v="Dunevollvatnet" />
		<tag k="natural" v="water" />
		<tag k="ssr:stedsnr" v="313611" />
	</node>
	<node lat="61.10694166574529" lon="6.867088889867449" id="-41592">
		<tag k="alt_name" v="Jarva, indre;Inste - Jarva;Inste Jarva" />
		<tag k="name" v="Insta Jarva" />
		<tag k="ssr:stedsnr" v="313810" />
		<tag k="waterway" v="stream" />
	</node>
	<node lat="61.118091670297346" lon="6.788030554230015" id="-41593">
		<tag k="name" v="Liagrovi" />
		<tag k="ssr:stedsnr" v="313764" />
		<tag k="waterway" v="stream" />
	</node>
	<node lat="60.94468671924222" lon="6.4567962741301015" id="-41625">
		<tag k="name" v="Skjelingavatnet" />
		<tag k="natural" v="water" />
		<tag k="ssr:stedsnr" v="372604" />
		<tag k="water" v="lake" />
	</node>
	<node lat="60.914080060026535" lon="6.518312571052716" id="-41627">
		<tag k="alt_name" v="Grungavatnet, store" />
		<tag k="name" v="Stora Grungavatnet" />
		<tag k="natural" v="water" />
		<tag k="ssr:stedsnr" v="372637" />
		<tag k="water" v="lake" />
	</node>
	<node lat="61.063894447867014" lon="6.91420555713236" id="-41634">
		<tag k="name" v="Tverrelvi" />
		<tag k="ssr:stedsnr" v="373203" />
		<tag k="waterway" v="stream" />
	</node>
	<node lat="61.02823333282101" lon="6.530394447868032" id="-41636">
		<tag k="name" v="Tverrelvi" />
		<tag k="ssr:stedsnr" v="373520" />
		<tag k="waterway" v="stream" />
	</node>
	<node lat="61.07720833492926" lon="6.977397219967392" id="-41661">
		<tag k="name" v="Timbrevikgrovi" />
		<tag k="ssr:stedsnr" v="400911" />
		<tag k="waterway" v="stream" />
	</node>
	<node lat="61.073588889857376" lon="6.639925003112371" id="-41670">
		<tag k="name" v="Øyasetelvi" />
		<tag k="ssr:stedsnr" v="434205" />
		<tag k="waterway" v="stream" />
	</node>
	<node lat="61.0734111110871" lon="6.916191671528564" id="-41671">
		<tag k="name" v="Skotaviki" />
		<tag k="ssr:stedsnr" v="434219" />
		<tag k="waterway" v="stream" />
	</node>
	<node lat="61.01451754817818" lon="6.734025794094354" id="-41691">
		<tag k="alt_name" v="Brevatnet, øvra" />
		<tag k="name" v="Øvra Brevatnet" />
		<tag k="natural" v="water" />
		<tag k="ssr:stedsnr" v="435165" />
		<tag k="water" v="lake" />
	</node>
	<node lat="61.02639721927645" lon="6.182069436732714" id="-41692">
		<tag k="name" v="Storelvi" />
		<tag k="ssr:stedsnr" v="493428" />
		<tag k="waterway" v="river" />
	</node>
	<node lat="60.89805277915242" lon="6.308441657756955" id="-41693">
		<tag k="name" v="Valmyravatnet" />
		<tag k="natural" v="water" />
		<tag k="ssr:stedsnr" v="493623" />
	</node>
	<node lat="60.94275000354841" lon="6.332458337865666" id="-41695">
		<tag k="name" v="Langavatnet" />
		<tag k="natural" v="water" />
		<tag k="ssr:stedsnr" v="493601" />
	</node>
	<node lat="60.9810277786957" lon="6.53501944086076" id="-41706">
		<tag k="name" v="Ovrisvatnet" />
		<tag k="natural" v="water" />
		<tag k="ssr:stedsnr" v="494599" />
	</node>
	<node lat="61.07711666390523" lon="6.591633332742199" id="-41717">
		<tag k="name" v="Vetleelvi" />
		<tag k="ssr:stedsnr" v="460067" />
		<tag k="waterway" v="river" />
	</node>
	<node lat="61.0958472236242" lon="6.199947228791752" id="-41721">
		<tag k="name" v="Strøka" />
		<tag k="ssr:stedsnr" v="461528" />
		<tag k="waterway" v="river" />
	</node>
	<node lat="61.11454722384939" lon="6.174344445131621" id="-41725">
		<tag k="name" v="Nybøelvi" />
		<tag k="ssr:stedsnr" v="461503" />
		<tag k="waterway" v="stream" />
	</node>
	<node lat="61.0405861097883" lon="6.260227774040524" id="-41728">
		<tag k="name" v="Botnaelvi" />
		<tag k="ssr:stedsnr" v="461762" />
		<tag k="waterway" v="stream" />
	</node>
	<node lat="61.03058055393017" lon="6.276461115116152" id="-41729">
		<tag k="name" v="Aljøya" />
		<tag k="ssr:stedsnr" v="461665" />
		<tag k="waterway" v="stream" />
	</node>
	<node lat="61.01029166345774" lon="6.15575554836211" id="-41743">
		<tag k="name" v="Ålrekelvi" />
		<tag k="ssr:stedsnr" v="676356" />
		<tag k="waterway" v="river" />
	</node>
	<node lat="60.92661389297188" lon="6.611133329343754" id="-41760">
		<tag k="name" v="Ytredalsvatnet" />
		<tag k="natural" v="water" />
		<tag k="ssr:stedsnr" v="676867" />
	</node>
	<node lat="61.047694441546824" lon="6.952483328877878" id="-41764">
		<tag k="alt_name" v="Skarselvi" />
		<tag k="name" v="Skardselvi" />
		<tag k="ssr:stedsnr" v="677162" />
		<tag k="waterway" v="stream" />
	</node>
	<node lat="61.099816669729016" lon="6.171655554074429" id="-41765">
		<tag k="name" v="Skardsvatnet" />
		<tag k="natural" v="water" />
		<tag k="ssr:stedsnr" v="677303" />
	</node>
	<node lat="61.02415000073135" lon="6.222075006280394" id="-41772">
		<tag k="name" v="Gavlavatnet" />
		<tag k="natural" v="water" />
		<tag k="ssr:stedsnr" v="677602" />
	</node>
	<node lat="60.993997224743936" lon="6.6355888946101995" id="-41783">
		<tag k="alt_name" v="Helgadalsvatnet, Heimste" />
		<tag k="name" v="Heimste Helgadalsvatnet" />
		<tag k="natural" v="water" />
		<tag k="ssr:stedsnr" v="493945" />
	</node>
	<node lat="61.06547500462605" lon="6.767050008858868" id="-41789">
		<tag k="name" v="Helgedalsvatnet" />
		<tag k="natural" v="water" />
		<tag k="ssr:stedsnr" v="494178" />
	</node>
	<node lat="61.00067656587433" lon="6.631430504905417" id="-41800">
		<tag k="name" v="Helgadalsvotni" />
		<tag k="natural" v="water" />
		<tag k="ssr:stedsnr" v="495176" />
		<tag k="water" v="lake" />
	</node>
	<node lat="61.089447221370975" lon="6.5999194484854" id="-41801">
		<tag k="name" v="Naustgrovi" />
		<tag k="ssr:stedsnr" v="495803" />
		<tag k="waterway" v="stream" />
	</node>
	<node lat="61.09339444839395" lon="6.599063886816826" id="-41802">
		<tag k="name" v="Kyrelvi" />
		<tag k="ssr:stedsnr" v="495802" />
		<tag k="waterway" v="stream" />
	</node>
	<node lat="61.10948332968755" lon="6.643244450201456" id="-41805">
		<tag k="alt_name" v="Kyrvatnet" />
		<tag k="name" v="Kyravatnet" />
		<tag k="natural" v="water" />
		<tag k="ssr:stedsnr" v="495770" />
	</node>
	<node lat="61.04089118879015" lon="6.576026442095247" id="-41811">
		<tag k="name" v="Stedjetjønni" />
		<tag k="natural" v="water" />
		<tag k="ssr:stedsnr" v="521059" />
	</node>
	<node lat="61.1561250005148" lon="6.6626611049293105" id="-41812">
		<tag k="name" v="Svartefossen" />
		<tag k="natural" v="waterfall" />
		<tag k="ssr:stedsnr" v="521165" />
	</node>
	<node lat="61.06653888674585" lon="6.528705546937623" id="-41818">
		<tag k="name" v="Prestteiggrovi" />
		<tag k="ssr:stedsnr" v="521466" />
		<tag k="waterway" v="stream" />
	</node>
	<node lat="61.039497225087324" lon="6.862100008947648" id="-41823">
		<tag k="name" v="Skitdikje" />
		<tag k="natural" v="water" />
		<tag k="ssr:stedsnr" v="521883" />
		<tag k="water" v="lake" />
	</node>
	<node lat="60.936208331245716" lon="6.207658325339731" id="-41830">
		<tag k="name" v="Veslavatnet" />
		<tag k="natural" v="water" />
		<tag k="ssr:stedsnr" v="554114" />
	</node>
	<node lat="60.969158329163456" lon="6.482327772826452" id="-41835">
		<tag k="name" v="Ygnisdalselvi" />
		<tag k="ssr:stedsnr" v="554685" />
		<tag k="waterway" v="stream" />
	</node>
	<node lat="61.06006388957705" lon="6.261466658961245" id="-41844">
		<tag k="name" v="Kulvatni" />
		<tag k="natural" v="water" />
		<tag k="ssr:stedsnr" v="555524" />
		<tag k="water" v="lake" />
	</node>
	<node lat="61.01495555929853" lon="6.2804777773461655" id="-41845">
		<tag k="alt_name" v="Svartavatn" />
		<tag k="name" v="Svartavatnet" />
		<tag k="natural" v="water" />
		<tag k="ssr:stedsnr" v="555566" />
	</node>
	<node lat="61.0538277736236" lon="6.609769453081611" id="-41846">
		<tag k="alt_name" v="Storelvi" />
		<tag k="name" v="Vikja" />
		<tag k="ssr:stedsnr" v="555464" />
		<tag k="waterway" v="river" />
	</node>
	<node lat="61.09293610676179" lon="6.6194861141899235" id="-41849">
		<tag k="name" v="Midlangsgrovi" />
		<tag k="ssr:stedsnr" v="555770" />
		<tag k="waterway" v="stream" />
	</node>
	<node lat="61.0713249973271" lon="6.5646388943458795" id="-41863">
		<tag k="name" v="Vetleelvi" />
		<tag k="ssr:stedsnr" v="582461" />
		<tag k="waterway" v="river" />
	</node>
	<node lat="60.99970000255959" lon="6.359858332414703" id="-41877">
		<tag k="name" v="Botnelvi" />
		<tag k="ssr:stedsnr" v="701249" />
		<tag k="waterway" v="river" />
	</node>
	<node lat="61.07483611051773" lon="6.608666663103628" id="-41886">
		<tag k="name" v="Stadheimselvi" />
		<tag k="ssr:stedsnr" v="615206" />
		<tag k="waterway" v="stream" />
	</node>
	<node lat="60.97320000178831" lon="6.395708328141044" id="-41894">
		<tag k="name" v="Gyltevad" />
		<tag k="ssr:stedsnr" v="615613" />
		<tag k="waterway" v="stream" />
	</node>
	<node lat="60.97466944416757" lon="6.323294440898907" id="-41895">
		<tag k="name" v="Fuglavatnet" />
		<tag k="natural" v="water" />
		<tag k="ssr:stedsnr" v="615621" />
	</node>
	<node lat="61.09411666485564" lon="6.2257138856161705" id="-41898">
		<tag k="name" v="Skredbakka" />
		<tag k="ssr:stedsnr" v="615655" />
		<tag k="waterway" v="stream" />
	</node>
	<node lat="61.02118333363875" lon="6.570344449683424" id="-41899">
		<tag k="name" v="Øyane" />
		<tag k="natural" v="cape" />
		<tag k="ssr:stedsnr" v="701556" />
	</node>
	<node lat="61.000938893065914" lon="6.6536249904516485" id="-41906">
		<tag k="name" v="Svinadalsvatnet" />
		<tag k="natural" v="water" />
		<tag k="ssr:stedsnr" v="616147" />
	</node>
	<node lat="61.11423889283838" lon="6.641350005502378" id="-41911">
		<tag k="name" v="Kongsvatnet" />
		<tag k="natural" v="water" />
		<tag k="ssr:stedsnr" v="616792" />
	</node>
	<node lat="61.07014444132489" lon="6.596088880594175" id="-41916">
		<tag k="name" v="Stolafossen" />
		<tag k="natural" v="waterfall" />
		<tag k="ssr:stedsnr" v="703041" />
	</node>
	<node lat="61.07041111205578" lon="6.539874994434574" id="-41929">
		<tag k="name" v="Bøgrovi" />
		<tag k="ssr:stedsnr" v="704436" />
		<tag k="waterway" v="stream" />
	</node>
	<node lat="61.052672221322865" lon="6.979811104245341" id="-41951">
		<tag k="name" v="Grønliagrovi" />
		<tag k="ssr:stedsnr" v="642813" />
		<tag k="waterway" v="stream" />
	</node>
	<node lat="61.03190555518398" lon="6.7003499948244984" id="-41963">
		<tag k="name" v="Elvafossane" />
		<tag k="natural" v="waterfall" />
		<tag k="ssr:stedsnr" v="676141" />
	</node>
	<node lat="61.04298888910524" lon="6.5223361054453415" id="-41965">
		<tag k="alt_name" v="Djupegjela" />
		<tag k="name" v="Djupegila" />
		<tag k="ssr:stedsnr" v="676517" />
		<tag k="waterway" v="stream" />
	</node>
	<node lat="61.010830558783084" lon="6.831819449134938" id="-41973">
		<tag k="name" v="Tundøla" />
		<tag k="ssr:stedsnr" v="677145" />
		<tag k="waterway" v="stream" />
	</node>
	<node lat="61.04647500216657" lon="6.830033328766755" id="-41977">
		<tag k="alt_name" v="Heljedalsfossen" />
		<tag k="name" v="Helgedalsfossen" />
		<tag k="place" v="locality" />
		<tag k="ssr:stedsnr" v="677194" />
	</node>
	<node lat="61.12046666543171" lon="6.7275027854938605" id="-41984">
		<tag k="name" v="Kilagrovi" />
		<tag k="ssr:stedsnr" v="677787" />
		<tag k="waterway" v="stream" />
	</node>
	<node lat="61.14187500123826" lon="6.814624991712705" id="-41988">
		<tag k="name" v="Leirgrovi" />
		<tag k="ssr:stedsnr" v="677878" />
		<tag k="waterway" v="stream" />
	</node>
	<node lat="61.16504722533966" lon="6.631675002722058" id="-41990">
		<tag k="name" v="Fjellgrovi" />
		<tag k="ssr:stedsnr" v="947347" />
		<tag k="waterway" v="stream" />
	</node>
	<node lat="61.10176389239136" lon="6.867180561688606" id="-42002">
		<tag k="name" v="Inste Trettetunga" />
		<tag k="ssr:stedsnr" v="721376" />
		<tag k="waterway" v="stream" />
	</node>
	<node lat="61.002630293317104" lon="6.236767099316258" id="-42007">
		<tag k="alt_name" v="Trodlabotn" />
		<tag k="name" v="Trollabottvatnet" />
		<tag k="natural" v="water" />
		<tag k="ssr:stedsnr" v="736668" />
	</node>
	<node lat="60.93265555967526" lon="6.513436102920594" id="-42008">
		<tag k="name" v="Svartavatnet" />
		<tag k="natural" v="water" />
		<tag k="ssr:stedsnr" v="736812" />
		<tag k="water" v="lake" />
	</node>
	<node lat="61.096325001850815" lon="6.176069442468201" id="-42017">
		<tag k="name" v="Ostavatnet" />
		<tag k="natural" v="water" />
		<tag k="ssr:stedsnr" v="737317" />
	</node>
	<node lat="61.14401666702359" lon="6.708919441128541" id="-42021">
		<tag k="name" v="Hundsåi" />
		<tag k="ssr:stedsnr" v="737813" />
		<tag k="waterway" v="stream" />
	</node>
	<node lat="61.0691361070761" lon="6.538077770051354" id="-42041">
		<tag k="name" v="Teigagrovi" />
		<tag k="ssr:stedsnr" v="764451" />
		<tag k="waterway" v="stream" />
	</node>
	<node lat="60.986852778241925" lon="6.6384305496867615" id="-42048">
		<tag k="alt_name" v="Helgadalsvatnet, Ytste" />
		<tag k="name" v="Ytste Helgadalsvatnet" />
		<tag k="natural" v="water" />
		<tag k="ssr:stedsnr" v="797912" />
	</node>
	<node lat="61.03999166607102" lon="6.619105549947091" id="-42054">
		<tag k="alt_name" v="Huglaelvi" />
		<tag k="name" v="Hugla" />
		<tag k="ssr:stedsnr" v="798149" />
		<tag k="waterway" v="stream" />
	</node>
	<node lat="61.04706939746605" lon="6.23321506677387" id="-42064">
		<tag k="name" v="Fagerdalsvatni" />
		<tag k="natural" v="water" />
		<tag k="ssr:stedsnr" v="798544" />
		<tag k="water" v="lake" />
	</node>
	<node lat="61.035524995937294" lon="6.866574995824811" id="-42079">
		<tag k="name" v="Lauvhoggelvi" />
		<tag k="ssr:stedsnr" v="919126" />
		<tag k="waterway" v="stream" />
	</node>
	<node lat="60.95505277820839" lon="6.352911114894454" id="-42095">
		<tag k="name" v="Navravatnet" />
		<tag k="natural" v="water" />
		<tag k="ssr:stedsnr" v="919621" />
	</node>
	<node lat="60.94765319821029" lon="6.405879677447149" id="-42096">
		<tag k="name" v="Svartavatnet" />
		<tag k="natural" v="water" />
		<tag k="ssr:stedsnr" v="919622" />
		<tag k="water" v="lake" />
	</node>
	<node lat="60.97240277617808" lon="6.571044436923916" id="-42097">
		<tag k="name" v="Vossavatnet" />
		<tag k="natural" v="water" />
		<tag k="ssr:stedsnr" v="919629" />
	</node>
	<node lat="61.03892222057594" lon="6.667744444105107" id="-42104">
		<tag k="name" v="Kolmilefossen" />
		<tag k="place" v="locality" />
		<tag k="ssr:stedsnr" v="920169" />
	</node>
	<node lat="61.00901574631873" lon="6.69546798767198" id="-42106">
		<tag k="name" v="Vassdalsvotni" />
		<tag k="natural" v="water" />
		<tag k="ssr:stedsnr" v="920137" />
		<tag k="water" v="lake" />
	</node>
	<node lat="61.00861111314783" lon="6.379519441150521" id="-42118">
		<tag k="name" v="Åsstrandi" />
		<tag k="natural" v="beach" />
		<tag k="ssr:stedsnr" v="823168" />
	</node>
	<node lat="60.95914145866522" lon="6.206626692304035" id="-42135">
		<tag k="name" v="Hallsetvatnet" />
		<tag k="natural" v="water" />
		<tag k="ssr:stedsnr" v="858103" />
		<tag k="water" v="lake" />
	</node>
	<node lat="61.028691153933586" lon="6.199491782033331" id="-42138">
		<tag k="name" v="Budeievatnet" />
		<tag k="natural" v="water" />
		<tag k="ssr:stedsnr" v="858328" />
		<tag k="water" v="lake" />
	</node>
	<node lat="60.93544224131275" lon="6.239206399379667" id="-42142">
		<tag k="name" v="Geitdalsvatnet" />
		<tag k="natural" v="water" />
		<tag k="ssr:stedsnr" v="858679" />
		<tag k="water" v="lake" />
	</node>
	<node lat="60.973549996861394" lon="6.676713880564631" id="-42145">
		<tag k="name" v="Svelga" />
		<tag k="ssr:stedsnr" v="858920" />
		<tag k="waterway" v="stream" />
	</node>
	<node lat="61.156072226394706" lon="6.635027773470287" id="-42150">
		<tag k="name" v="Kaklegrovi" />
		<tag k="ssr:stedsnr" v="859809" />
		<tag k="waterway" v="stream" />
	</node>
	<node lat="61.147874996405356" lon="6.656863883278571" id="-42151">
		<tag k="name" v="Høgretjørni" />
		<tag k="natural" v="water" />
		<tag k="ssr:stedsnr" v="859819" />
	</node>
	<node lat="61.027124996007934" lon="6.599444438747606" id="-42152">
		<tag k="name" v="Elvafossen" />
		<tag k="natural" v="waterfall" />
		<tag k="ssr:stedsnr" v="884252" />
	</node>
	<node lat="61.10168333145277" lon="6.197730548677833" id="-42158">
		<tag k="name" v="Vetlegrovi" />
		<tag k="ssr:stedsnr" v="885512" />
		<tag k="waterway" v="stream" />
	</node>
	<node lat="60.92592955522354" lon="6.378270343350585" id="-42174">
		<tag k="alt_name" v="Katlavatni, vetle" />
		<tag k="name" v="Vetle Katlavatni" />
		<tag k="natural" v="water" />
		<tag k="ssr:stedsnr" v="918669" />
		<tag k="water" v="lake" />
	</node>
	<node lat="60.912578837681075" lon="6.537825833684572" id="-42175">
		<tag k="name" v="Dueskardvatnet" />
		<tag k="natural" v="water" />
		<tag k="ssr:stedsnr" v="918681" />
		<tag k="water" v="lake" />
	</node>
	<node lat="60.96681111302252" lon="6.178933330669946" id="-42177">
		<tag k="name" v="Bjørndala" />
		<tag k="ssr:stedsnr" v="919020" />
		<tag k="waterway" v="stream" />
	</node>
	<node lat="60.961402774325535" lon="6.1806500065326055" id="-42178">
		<tag k="name" v="Veslavatnet" />
		<tag k="natural" v="water" />
		<tag k="ssr:stedsnr" v="919027" />
	</node>
	<node lat="61.03413889054836" lon="6.989869448225931" id="-42181">
		<tag k="name" v="Fyssa" />
		<tag k="ssr:stedsnr" v="919424" />
		<tag k="waterway" v="stream" />
	</node>
	<node lat="61.04397499639646" lon="6.9463527694957605" id="-42182">
		<tag k="alt_name" v="Breielvi" />
		<tag k="name" v="Breidelvi" />
		<tag k="ssr:stedsnr" v="919155" />
		<tag k="waterway" v="stream" />
	</node>
	<node lat="61.04987777499343" lon="6.608341673773512" id="-42184">
		<tag k="alt_name" v="Vetlaelvi" />
		<tag k="name" v="Veslaelvi" />
		<tag k="ssr:stedsnr" v="919196" />
		<tag k="waterway" v="stream" />
	</node>
	<node lat="61.07718055381926" lon="6.503624993111268" id="-42185">
		<tag k="alt_name" v="Prestteiggrovi" />
		<tag k="name" v="Prestteigelvi" />
		<tag k="ssr:stedsnr" v="919554" />
		<tag k="waterway" v="stream" />
	</node>
	<node lat="60.990821290042796" lon="6.305297362411847" id="-42192">
		<tag k="alt_name" v="Langavatn" />
		<tag k="name" v="Langedalsvatnet" />
		<tag k="natural" v="water" />
		<tag k="ssr:stedsnr" v="919651" />
		<tag k="water" v="lake" />
	</node>
	<node lat="61.10357777509663" lon="6.79008332531541" id="-42206">
		<tag k="name" v="Kvitgyrva" />
		<tag k="ssr:stedsnr" v="920815" />
		<tag k="waterway" v="stream" />
	</node>
	<node lat="61.05916944328579" lon="6.529316659131446" id="-42217">
		<tag k="name" v="Fjærestadgrovi" />
		<tag k="ssr:stedsnr" v="946442" />
		<tag k="waterway" v="stream" />
	</node>
	<node lat="61.01535658564685" lon="6.715201316593043" id="-42235">
		<tag k="name" v="Hestastodvatnet" />
		<tag k="natural" v="water" />
		<tag k="ssr:stedsnr" v="10135" />
		<tag k="water" v="lake" />
	</node>
	<node lat="60.93595000105249" lon="6.301566664278667" id="-42237">
		<tag k="name" v="Treverkavatnet" />
		<tag k="natural" v="water" />
		<tag k="ssr:stedsnr" v="8611" />
	</node>
	<node lat="60.91488888635664" lon="6.254233336797548" id="-42239">
		<tag k="name" v="Vassøyane" />
		<tag k="natural" v="water" />
		<tag k="ssr:stedsnr" v="8617" />
		<tag k="water" v="lake" />
	</node>
	<node lat="61.045491669261196" lon="6.8414916718272085" id="-42249">
		<tag k="name" v="Bjørkhauggrovi" />
		<tag k="ssr:stedsnr" v="9173" />
		<tag k="waterway" v="stream" />
	</node>
	<node lat="61.04306111038228" lon="6.84913889071415" id="-42250">
		<tag k="name" v="Almtonagrovi" />
		<tag k="ssr:stedsnr" v="9174" />
		<tag k="waterway" v="stream" />
	</node>
	<node lat="61.049638886767625" lon="6.653080550922996" id="-42251">
		<tag k="name" v="Lysegrovi" />
		<tag k="ssr:stedsnr" v="9180" />
		<tag k="waterway" v="stream" />
	</node>
	<node lat="60.96628055800824" lon="6.382711106553109" id="-42259">
		<tag k="name" v="Englandsøyane" />
		<tag k="ssr:stedsnr" v="9657" />
		<tag k="waterway" v="stream" />
	</node>
	<node lat="61.07110000328981" lon="6.300061109715708" id="-42261">
		<tag k="alt_name" v="Eikeneselva" />
		<tag k="name" v="Eikeneselvi" />
		<tag k="ssr:stedsnr" v="9670" />
		<tag k="waterway" v="stream" />
	</node>
	<node lat="61.095399995867815" lon="6.261563894120868" id="-42262">
		<tag k="alt_name" v="Midtelvi" />
		<tag k="name" v="Midtlielvi" />
		<tag k="ssr:stedsnr" v="9678" />
		<tag k="waterway" v="stream" />
	</node>
	<node lat="61.00636389322843" lon="6.789574995435851" id="-42273">
		<tag k="name" v="Langafonnvatnet" />
		<tag k="natural" v="water" />
		<tag k="ssr:stedsnr" v="10163" />
	</node>
	<node lat="61.024013887295276" lon="6.366377780678757" id="-42274">
		<tag k="name" v="Heggesnera" />
		<tag k="ssr:stedsnr" v="33085" />
		<tag k="waterway" v="stream" />
	</node>
	<node lat="61.019755552155864" lon="6.570191658401869" id="-42280">
		<tag k="name" v="Lambafossa" />
		<tag k="natural" v="waterfall" />
		<tag k="ssr:stedsnr" v="34441" />
	</node>
	<node lat="61.04093888641035" lon="6.658272229569329" id="-42281">
		<tag k="name" v="Holegrovi" />
		<tag k="ssr:stedsnr" v="34445" />
		<tag k="waterway" v="stream" />
	</node>
	<node lat="61.078919443087216" lon="6.628958334586466" id="-42305">
		<tag k="alt_name" v="Rambarelvi" />
		<tag k="name" v="Ramberelvi" />
		<tag k="ssr:stedsnr" v="69235" />
		<tag k="waterway" v="stream" />
	</node>
	<node lat="61.06220000128222" lon="6.452644445843301" id="-42318">
		<tag k="alt_name" v="Eiterelvi" />
		<tag k="name" v="Eitrelvi" />
		<tag k="ssr:stedsnr" v="70557" />
		<tag k="waterway" v="river" />
	</node>
	<node lat="61.0214044569033" lon="6.302812390146444" id="-42322">
		<tag k="name" v="Vatnavatni" />
		<tag k="natural" v="water" />
		<tag k="ssr:stedsnr" v="70584" />
		<tag k="water" v="lake" />
	</node>
	<node lat="61.013580551409234" lon="6.429675003114471" id="-42323">
		<tag k="alt_name" v="Tora" />
		<tag k="name" v="Tura" />
		<tag k="ssr:stedsnr" v="70594" />
		<tag k="waterway" v="river" />
	</node>
	<node lat="61.07186944725918" lon="6.23817499941698" id="-42327">
		<tag k="name" v="Sylvarnesvatnet" />
		<tag k="natural" v="water" />
		<tag k="ssr:stedsnr" v="70675" />
	</node>
	<node lat="60.98611111111678" lon="6.425030556005351" id="-42333">
		<tag k="name" v="Gravseta" />
		<tag k="ssr:stedsnr" v="95373" />
		<tag k="waterway" v="river" />
	</node>
	<node lat="61.03277500015536" lon="6.620411112676666" id="-42336">
		<tag k="name" v="Storegrov" />
		<tag k="ssr:stedsnr" v="95261" />
		<tag k="waterway" v="stream" />
	</node>
	<node lat="61.07386111150034" lon="6.602544450706389" id="-42339">
		<tag k="name" v="Stadheimsgrovi" />
		<tag k="ssr:stedsnr" v="96083" />
		<tag k="waterway" v="stream" />
	</node>
	<node lat="61.08541666562826" lon="6.746097223549506" id="-42373">
		<tag k="alt_name" v="Storeelvi" />
		<tag k="name" v="Storelvi" />
		<tag k="ssr:stedsnr" v="129443" />
		<tag k="waterway" v="river" />
	</node>
	<node lat="60.96929722513607" lon="6.649508341012363" id="-42376">
		<tag k="name" v="Svelgavatnet" />
		<tag k="natural" v="water" />
		<tag k="ssr:stedsnr" v="129910" />
	</node>
	<node lat="60.97099166225614" lon="6.687269440740596" id="-42377">
		<tag k="name" v="Leira" />
		<tag k="ssr:stedsnr" v="129915" />
		<tag k="waterway" v="stream" />
	</node>
	<node lat="61.07050555854221" lon="6.847202776543517" id="-42382">
		<tag k="alt_name" v="Tufteelvi" />
		<tag k="name" v="Tuftelvi" />
		<tag k="ssr:stedsnr" v="130222" />
		<tag k="waterway" v="stream" />
	</node>
	<node lat="61.05938055595065" lon="6.521408324424061" id="-42393">
		<tag k="name" v="Hovdagrovi" />
		<tag k="ssr:stedsnr" v="130558" />
		<tag k="waterway" v="stream" />
	</node>
	<node lat="61.04421944702188" lon="6.381975006223898" id="-42395">
		<tag k="name" v="Fosselvi" />
		<tag k="ssr:stedsnr" v="130568" />
		<tag k="waterway" v="stream" />
	</node>
	<node lat="61.028191664430196" lon="6.373574994711943" id="-42398">
		<tag k="alt_name" v="Beiteelvi" />
		<tag k="name" v="Beitelvi" />
		<tag k="ssr:stedsnr" v="130571" />
		<tag k="waterway" v="stream" />
	</node>
	<node lat="61.10879999880017" lon="6.756050002515475" id="-42401">
		<tag k="name" v="Nyasetelvi" />
		<tag k="ssr:stedsnr" v="130760" />
		<tag k="waterway" v="stream" />
	</node>
	<node lat="61.09963888790106" lon="6.7827333264125835" id="-42402">
		<tag k="loc_name" v="Svargrovi" />
		<tag k="name" v="Tordøla" />
		<tag k="ssr:stedsnr" v="130763" />
		<tag k="waterway" v="stream" />
	</node>
	<node lat="61.10124167088131" lon="6.192111119063296" id="-42413">
		<tag k="name" v="Kvernhuselvi" />
		<tag k="ssr:stedsnr" v="157466" />
		<tag k="waterway" v="stream" />
	</node>
	<node lat="61.04345000421477" lon="6.545663896441036" id="-42414">
		<tag k="name" v="Nipgrovi" />
		<tag k="ssr:stedsnr" v="156086" />
		<tag k="waterway" v="stream" />
	</node>
	<node lat="61.054000002190534" lon="6.319222215882515" id="-42420">
		<tag k="name" v="Torskaneselvi" />
		<tag k="ssr:stedsnr" v="157721" />
		<tag k="waterway" v="stream" />
	</node>
	<node lat="60.94843055476046" lon="6.417163889174403" id="-42446">
		<tag k="alt_name" v="Svartavatnet, vetle" />
		<tag k="name" v="Vetle Svartavatnet" />
		<tag k="natural" v="water" />
		<tag k="ssr:stedsnr" v="190596" />
	</node>
	<node lat="61.034966667496754" lon="6.623983327504196" id="-42455">
		<tag k="name" v="Huglafossen" />
		<tag k="place" v="locality" />
		<tag k="ssr:stedsnr" v="191125" />
	</node>
	<node lat="61.06175277882143" lon="6.888402772862158" id="-42460">
		<tag k="name" v="Bjørnstigelvi" />
		<tag k="ssr:stedsnr" v="191152" />
		<tag k="waterway" v="stream" />
	</node>
	<node lat="61.05994444227815" lon="6.995425007616102" id="-42461">
		<tag k="alt_name" v="Simlenesgrovi, yt;Ytste Simlenesgrovi" />
		<tag k="name" v="Ytre Simlenesgrovi" />
		<tag k="ssr:stedsnr" v="191397" />
		<tag k="waterway" v="stream" />
	</node>
	<node lat="60.969092950827914" lon="6.603959473391626" id="-42464">
		<tag k="alt_name" v="Muravatnet, store;Muravatnet" />
		<tag k="name" v="Store Muravatnet" />
		<tag k="natural" v="water" />
		<tag k="ssr:stedsnr" v="191586" />
		<tag k="water" v="lake" />
	</node>
	<node lat="61.071327774283056" lon="6.49223611864052" id="-42469">
		<tag k="name" v="Røyrvikelvi" />
		<tag k="ssr:stedsnr" v="191531" />
		<tag k="waterway" v="stream" />
	</node>
	<node lat="61.13164722524533" lon="6.65429721383642" id="-42475">
		<tag k="name" v="Langavatnet" />
		<tag k="natural" v="water" />
		<tag k="ssr:stedsnr" v="191814" />
	</node>
	<node lat="61.14025555173644" lon="6.8065250035807745" id="-42477">
		<tag k="name" v="Vikagrovi" />
		<tag k="ssr:stedsnr" v="191825" />
		<tag k="waterway" v="stream" />
	</node>
	<node lat="61.02289166628626" lon="6.3742638802013145" id="-42481">
		<tag k="name" v="Kvamselvi" />
		<tag k="ssr:stedsnr" v="215120" />
		<tag k="waterway" v="stream" />
	</node>
	<node lat="61.072033337912565" lon="6.572466672219369" id="-42497">
		<tag k="name" v="Lyktningsgrovi" />
		<tag k="ssr:stedsnr" v="218445" />
		<tag k="waterway" v="stream" />
	</node>
	<node lat="61.10154999940699" lon="6.247569445671647" id="-42514">
		<tag k="name" v="Kvernhuselvi" />
		<tag k="ssr:stedsnr" v="278866" />
		<tag k="waterway" v="stream" />
	</node>
	<node lat="61.12397499943852" lon="6.7476361199586385" id="-42515">
		<tag k="name" v="Hellandsgrovi" />
		<tag k="ssr:stedsnr" v="279150" />
		<tag k="waterway" v="stream" />
	</node>
	<node lat="60.96475832886412" lon="6.160819438901467" id="-42538">
		<tag k="name" v="Hallsetelvi" />
		<tag k="ssr:stedsnr" v="312030" />
		<tag k="waterway" v="stream" />
	</node>
	<node lat="60.920482256033395" lon="6.324272335651358" id="-42539">
		<tag k="name" v="Kvilesteinsvatnet" />
		<tag k="natural" v="water" />
		<tag k="ssr:stedsnr" v="311645" />
		<tag k="water" v="lake" />
	</node>
	<node lat="61.001816669105935" lon="6.5773444365396205" id="-42548">
		<tag k="name" v="Skadvatnet" />
		<tag k="natural" v="water" />
		<tag k="ssr:stedsnr" v="312543" />
	</node>
	<node lat="60.97789166858589" lon="6.551677785718633" id="-42551">
		<tag k="name" v="Kvenadammen" />
		<tag k="natural" v="water" />
		<tag k="ssr:stedsnr" v="312632" />
	</node>
	<node lat="61.09575833700342" lon="6.849308336392429" id="-42554">
		<tag k="name" v="Vigdalselvi" />
		<tag k="ssr:stedsnr" v="312765" />
		<tag k="waterway" v="stream" />
	</node>
	<node lat="61.0124749960726" lon="6.469938881204169" id="-42560">
		<tag k="name" v="Kringlevatnet" />
		<tag k="natural" v="water" />
		<tag k="ssr:stedsnr" v="313621" />
	</node>
	<node lat="61.11118333298197" lon="6.602466659553665" id="-42566">
		<tag k="alt_name" v="Migandegrovi" />
		<tag k="name" v="Migande" />
		<tag k="ssr:stedsnr" v="313779" />
		<tag k="waterway" v="stream" />
	</node>
	<node lat="61.09939166520988" lon="6.623361106757207" id="-42569">
		<tag k="name" v="Slengefossgrovi" />
		<tag k="ssr:stedsnr" v="313833" />
		<tag k="waterway" v="stream" />
	</node>
	<node lat="61.14027499981018" lon="6.84301111167426" id="-42572">
		<tag k="name" v="Sagelvi" />
		<tag k="ssr:stedsnr" v="313895" />
		<tag k="waterway" v="stream" />
	</node>
	<node lat="61.04326944512986" lon="6.393699992588009" id="-42590">
		<tag k="name" v="Fossen" />
		<tag k="natural" v="waterfall" />
		<tag k="ssr:stedsnr" v="339524" />
	</node>
	<node lat="61.05266111534144" lon="6.295477786069607" id="-42593">
		<tag k="name" v="Skjemmedalselvi" />
		<tag k="ssr:stedsnr" v="339681" />
		<tag k="waterway" v="river" />
	</node>
	<node lat="61.04790000081838" lon="6.294294438483792" id="-42594">
		<tag k="name" v="Klungerstettelvi" />
		<tag k="ssr:stedsnr" v="339682" />
		<tag k="waterway" v="stream" />
	</node>
	<node lat="61.082005555524745" lon="6.574963892185778" id="-42603">
		<tag k="alt_name" v="Horpa" />
		<tag k="name" v="Hopra" />
		<tag k="ssr:stedsnr" v="373530" />
		<tag k="waterway" v="river" />
	</node>
	<node lat="61.00826944119634" lon="6.492513897276022" id="-42607">
		<tag k="loc_name" v="Hoprevatnet" />
		<tag k="name" v="Skadvatnet" />
		<tag k="natural" v="water" />
		<tag k="ssr:stedsnr" v="373639" />
	</node>
	<node lat="60.9724388876487" lon="6.730630555671055" id="-42608">
		<tag k="name" v="Øvstedalsvatnet" />
		<tag k="natural" v="water" />
		<tag k="ssr:stedsnr" v="372928" />
	</node>
	<node lat="61.030152774910775" lon="6.960038889017189" id="-42612">
		<tag k="name" v="Nysagelvi" />
		<tag k="ssr:stedsnr" v="373119" />
		<tag k="waterway" v="stream" />
	</node>
	<node lat="61.01301110909503" lon="6.804600006281772" id="-42614">
		<tag k="name" v="Vassosvatnet" />
		<tag k="natural" v="water" />
		<tag k="ssr:stedsnr" v="373130" />
	</node>
	<node lat="61.00204722331005" lon="6.734622219849966" id="-42615">
		<tag k="alt_name" v="Brevatnet, nedra;Brevatn, nedre" />
		<tag k="name" v="Nedra Brevatnet" />
		<tag k="natural" v="water" />
		<tag k="ssr:stedsnr" v="373135" />
	</node>
	<node lat="61.093597219354756" lon="6.867077787168217" id="-42624">
		<tag k="name" v="Kolåselvi" />
		<tag k="ssr:stedsnr" v="373789" />
		<tag k="waterway" v="stream" />
	</node>
	<node lat="61.089888884454375" lon="6.283727774675145" id="-42628">
		<tag k="name" v="Sylvarneselvi" />
		<tag k="ssr:stedsnr" v="373688" />
		<tag k="waterway" v="stream" />
	</node>
	<node lat="61.09421111009872" lon="6.203127776527168" id="-42631">
		<tag k="alt_name" v="Gjela" />
		<tag k="name" v="Gila" />
		<tag k="ssr:stedsnr" v="495334" />
		<tag k="waterway" v="stream" />
	</node>
	<node lat="60.99021388453341" lon="6.427611112865178" id="-42642">
		<tag k="name" v="Klyberga" />
		<tag k="ssr:stedsnr" v="398391" />
		<tag k="waterway" v="stream" />
	</node>
	<node lat="61.01673333705668" lon="6.5478027838141095" id="-42643">
		<tag k="alt_name" v="Storskreda" />
		<tag k="name" v="Storeskrea" />
		<tag k="ssr:stedsnr" v="398485" />
		<tag k="waterway" v="stream" />
	</node>
	<node lat="61.09917221930208" lon="6.246663897834437" id="-42670">
		<tag k="name" v="Kvernhusfossen" />
		<tag k="natural" v="waterfall" />
		<tag k="ssr:stedsnr" v="400870" />
	</node>
	<node lat="61.15649722040159" lon="6.668161108284786" id="-42678">
		<tag k="name" v="Riskjo" />
		<tag k="ssr:stedsnr" v="418980" />
		<tag k="waterway" v="stream" />
	</node>
	<node lat="61.05900277417495" lon="6.922638894065214" id="-42681">
		<tag k="name" v="Storelvi" />
		<tag k="ssr:stedsnr" v="432446" />
		<tag k="waterway" v="river" />
	</node>
	<node lat="60.96455277377764" lon="6.327638897358264" id="-42682">
		<tag k="name" v="Fiskedalsvatnet" />
		<tag k="natural" v="water" />
		<tag k="ssr:stedsnr" v="433645" />
	</node>
	<node lat="60.97532221906354" lon="6.3703638878042605" id="-42692">
		<tag k="name" v="Klebbergvatnet" />
		<tag k="natural" v="water" />
		<tag k="ssr:stedsnr" v="433609" />
	</node>
	<node lat="60.997057545496375" lon="6.2835010234537" id="-42699">
		<tag k="alt_name" v="Dagvatn" />
		<tag k="name" v="Dagvatnet" />
		<tag k="natural" v="water" />
		<tag k="ssr:stedsnr" v="433684" />
		<tag k="water" v="lake" />
	</node>
	<node lat="61.07024790605459" lon="6.190395253776165" id="-42704">
		<tag k="name" v="Skjerjavatnet" />
		<tag k="natural" v="water" />
		<tag k="ssr:stedsnr" v="434238" />
		<tag k="water" v="lake" />
	</node>
	<node lat="61.002152779000596" lon="6.672366662579487" id="-42713">
		<tag k="name" v="Langavatnet" />
		<tag k="natural" v="water" />
		<tag k="ssr:stedsnr" v="435195" />
	</node>
	<node lat="61.03699444390446" lon="6.470427778129867" id="-42714">
		<tag k="name" v="Skadvatnet" />
		<tag k="natural" v="water" />
		<tag k="ssr:stedsnr" v="495598" />
	</node>
	<node lat="61.08093610890351" lon="6.482724995863374" id="-42715">
		<tag k="alt_name" v="Bjønnhovda" />
		<tag k="name" v="Bjønnshovda" />
		<tag k="ssr:stedsnr" v="519042" />
		<tag k="waterway" v="stream" />
	</node>
	<node lat="61.03643610688652" lon="6.3883527766513915" id="-42720">
		<tag k="name" v="Jonelvi" />
		<tag k="ssr:stedsnr" v="519138" />
		<tag k="waterway" v="stream" />
	</node>
	<node lat="61.050388888640285" lon="6.509377787028568" id="-42730">
		<tag k="name" v="Sjurgrovi" />
		<tag k="ssr:stedsnr" v="521357" />
		<tag k="waterway" v="stream" />
	</node>
	<node lat="61.13510000412149" lon="6.824363886000982" id="-42749">
		<tag k="name" v="Storagjelet" />
		<tag k="ssr:stedsnr" v="540097" />
		<tag k="waterway" v="stream" />
	</node>
	<node lat="60.964944447879674" lon="6.188450005899029" id="-42751">
		<tag k="name" v="Grøndala" />
		<tag k="ssr:stedsnr" v="554099" />
		<tag k="waterway" v="stream" />
	</node>
	<node lat="60.911390059160446" lon="6.279080656736548" id="-42758">
		<tag k="name" v="Selhamarvatnet" />
		<tag k="natural" v="water" />
		<tag k="ssr:stedsnr" v="554654" />
		<tag k="water" v="lake" />
	</node>
	<node lat="61.00857500395078" lon="6.48253611803709" id="-42761">
		<tag k="alt_name" v="Banevatnet" />
		<tag k="name" v="Barnavatnet" />
		<tag k="natural" v="water" />
		<tag k="ssr:stedsnr" v="554662" />
	</node>
	<node lat="60.99539166881833" lon="6.719708330259576" id="-42762">
		<tag k="name" v="Feiosdalsvatnet" />
		<tag k="natural" v="water" />
		<tag k="ssr:stedsnr" v="554953" />
	</node>
	<node lat="61.0741749964147" lon="6.279661118709937" id="-42778">
		<tag k="name" v="Teigelvi" />
		<tag k="ssr:stedsnr" v="555646" />
		<tag k="waterway" v="stream" />
	</node>
	<node lat="61.109863886512144" lon="6.6157083400485295" id="-42782">
		<tag k="name" v="Trollavatnet" />
		<tag k="natural" v="water" />
		<tag k="ssr:stedsnr" v="555735" />
	</node>
	<node lat="61.12978606536279" lon="6.662585325360962" id="-42785">
		<tag k="alt_name" v="Husatjørn" />
		<tag k="name" v="Husatjerni" />
		<tag k="natural" v="water" />
		<tag k="ssr:stedsnr" v="555829" />
	</node>
	<node lat="61.11310833247664" lon="6.692533329996457" id="-42809">
		<tag k="name" v="Tverrelvi" />
		<tag k="ssr:stedsnr" v="582186" />
		<tag k="waterway" v="stream" />
	</node>
	<node lat="60.9606166628283" lon="6.150808325882972" id="-42824">
		<tag k="alt_name" v="Vikesjurda" />
		<tag k="name" v="Hornafjellselvi" />
		<tag k="ssr:stedsnr" v="614108" />
		<tag k="waterway" v="stream" />
	</node>
	<node lat="60.99917222560091" lon="6.771855556359238" id="-42825">
		<tag k="name" v="Øvre Breivadet" />
		<tag k="natural" v="water" />
		<tag k="ssr:stedsnr" v="614925" />
	</node>
	<node lat="60.99263888570121" lon="6.616605564452988" id="-42826">
		<tag k="name" v="Uksavatnet" />
		<tag k="natural" v="water" />
		<tag k="ssr:stedsnr" v="614934" />
	</node>
	<node lat="61.03478055707553" lon="6.334430550832659" id="-42841">
		<tag k="alt_name" v="Fagerdalsvatn" />
		<tag k="name" v="Fagerdalsvatnet" />
		<tag k="natural" v="water" />
		<tag k="ssr:stedsnr" v="616582" />
	</node>
	<node lat="61.14063333330058" lon="6.733558341871809" id="-42848">
		<tag k="name" v="Merkesgrovi" />
		<tag k="ssr:stedsnr" v="616871" />
		<tag k="waterway" v="stream" />
	</node>
	<node lat="60.99162778187514" lon="6.36617221563053" id="-42851">
		<tag k="name" v="Storakyråna" />
		<tag k="ssr:stedsnr" v="640092" />
		<tag k="waterway" v="stream" />
	</node>
	<node lat="61.09336944639668" lon="6.200733332591173" id="-42870">
		<tag k="name" v="Tuftelvi" />
		<tag k="ssr:stedsnr" v="642496" />
		<tag k="waterway" v="river" />
	</node>
	<node lat="61.03448888552826" lon="6.42344999566282" id="-42872">
		<tag k="name" v="Heljefossen" />
		<tag k="natural" v="waterfall" />
		<tag k="ssr:stedsnr" v="642665" />
	</node>
	<node lat="60.998344446623925" lon="6.591022222949621" id="-42885">
		<tag k="name" v="Gravvotni" />
		<tag k="natural" v="water" />
		<tag k="ssr:stedsnr" v="736707" />
		<tag k="water" v="lake" />
	</node>
	<node lat="60.949244442569885" lon="6.714555555715447" id="-42888">
		<tag k="name" v="Storegrovi" />
		<tag k="ssr:stedsnr" v="736893" />
		<tag k="waterway" v="stream" />
	</node>
	<node lat="60.94923493477134" lon="6.499498572499562" id="-42891">
		<tag k="name" v="Hestavatnet" />
		<tag k="natural" v="water" />
		<tag k="ssr:stedsnr" v="736574" />
		<tag k="water" v="lake" />
	</node>
	<node lat="60.97587500302591" lon="6.207636102702088" id="-42896">
		<tag k="name" v="Grøndalsvotni" />
		<tag k="natural" v="water" />
		<tag k="ssr:stedsnr" v="737018" />
		<tag k="water" v="lake" />
	</node>
	<node lat="61.07455833596398" lon="6.734872214577201" id="-42898">
		<tag k="alt_name" v="Knuldrehauggrovi" />
		<tag k="name" v="Knuldrehaugelvi" />
		<tag k="ssr:stedsnr" v="737227" />
		<tag k="waterway" v="stream" />
	</node>
	<node lat="61.04599722292265" lon="6.922438884829017" id="-42900">
		<tag k="name" v="Åvadelvi" />
		<tag k="ssr:stedsnr" v="737157" />
		<tag k="waterway" v="stream" />
	</node>
	<node lat="61.0774249992229" lon="6.728494437889887" id="-42903">
		<tag k="name" v="Steinbotngrovi" />
		<tag k="ssr:stedsnr" v="737201" />
		<tag k="waterway" v="stream" />
	</node>
	<node lat="60.97092500161339" lon="6.3474333334525" id="-42905">
		<tag k="name" v="Skitøyi" />
		<tag k="ssr:stedsnr" v="737627" />
		<tag k="waterway" v="stream" />
	</node>
	<node lat="60.95938805267595" lon="6.303876499273697" id="-42908">
		<tag k="alt_name" v="Rappavatnet, vetle" />
		<tag k="name" v="Vetle Rappavatnet" />
		<tag k="natural" v="water" />
		<tag k="ssr:stedsnr" v="737649" />
	</node>
	<node lat="60.996136107537666" lon="6.4349611145045875" id="-42917">
		<tag k="name" v="Merkesgrovi" />
		<tag k="ssr:stedsnr" v="762157" />
		<tag k="waterway" v="stream" />
	</node>
	<node lat="61.08969722595606" lon="6.5595777717254435" id="-42930">
		<tag k="name" v="Kavagrovi" />
		<tag k="ssr:stedsnr" v="764385" />
		<tag k="waterway" v="stream" />
	</node>
	<node lat="61.062102774427025" lon="6.549766668867973" id="-42931">
		<tag k="name" v="Øygardsgrovi" />
		<tag k="ssr:stedsnr" v="764456" />
		<tag k="waterway" v="stream" />
	</node>
	<node lat="61.06813888702324" lon="6.3680333270040625" id="-42933">
		<tag k="name" v="Kvernhusgrovi" />
		<tag k="ssr:stedsnr" v="764560" />
		<tag k="waterway" v="stream" />
	</node>
	<node lat="60.94514444524656" lon="6.648558333750562" id="-42948">
		<tag k="name" v="Uksavatnet" />
		<tag k="natural" v="water" />
		<tag k="ssr:stedsnr" v="797882" />
	</node>
	<node lat="60.92947500060377" lon="6.2682250022649635" id="-42950">
		<tag k="name" v="Raudbergvatnet" />
		<tag k="natural" v="water" />
		<tag k="ssr:stedsnr" v="797607" />
		<tag k="water" v="lake" />
	</node>
	<node lat="60.94593055370779" lon="6.519158325953453" id="-42951">
		<tag k="name" v="Tverrelvi" />
		<tag k="ssr:stedsnr" v="797609" />
		<tag k="waterway" v="stream" />
	</node>
	<node lat="60.91213418776133" lon="6.354664612684612" id="-42952">
		<tag k="name" v="Katlavatnet" />
		<tag k="natural" v="water" />
		<tag k="ssr:stedsnr" v="797621" />
	</node>
	<node lat="60.982085284392994" lon="6.509216264442167" id="-42953">
		<tag k="name" v="Målsetevatnet" />
		<tag k="natural" v="water" />
		<tag k="ssr:stedsnr" v="797630" />
		<tag k="water" v="lake" />
	</node>
	<node lat="60.99056847722471" lon="6.496417596982217" id="-42954">
		<tag k="name" v="Pyttane" />
		<tag k="ssr:stedsnr" v="797642" />
		<tag k="waterway" v="stream" />
	</node>
	<node lat="60.9849555525119" lon="6.3337277752324015" id="-42958">
		<tag k="name" v="Barnavatnet" />
		<tag k="natural" v="water" />
		<tag k="ssr:stedsnr" v="797689" />
	</node>
	<node lat="60.96115278208565" lon="6.683402770319284" id="-42960">
		<tag k="name" v="Leirbotnvatnet" />
		<tag k="natural" v="water" />
		<tag k="ssr:stedsnr" v="797895" />
	</node>
	<node lat="61.043172223555686" lon="6.832480555899953" id="-42963">
		<tag k="alt_name" v="Heljedøla" />
		<tag k="name" v="Helgedøla" />
		<tag k="ssr:stedsnr" v="798171" />
		<tag k="waterway" v="stream" />
	</node>
	<node lat="61.075188892404675" lon="6.20734722247796" id="-42969">
		<tag k="name" v="Glasvatnet" />
		<tag k="natural" v="water" />
		<tag k="ssr:stedsnr" v="798291" />
	</node>
	<node lat="61.00952499625276" lon="6.326483326668497" id="-42979">
		<tag k="alt_name" v="Breidfossa" />
		<tag k="name" v="Breifossa" />
		<tag k="ssr:stedsnr" v="798579" />
		<tag k="waterway" v="river" />
	</node>
	<node lat="61.1379500005609" lon="6.677088885901777" id="-42982">
		<tag k="name" v="Kråkevatnet" />
		<tag k="natural" v="water" />
		<tag k="ssr:stedsnr" v="798781" />
	</node>
	<node lat="61.14035000246868" lon="6.796355547785274" id="-42986">
		<tag k="name" v="Slettagrovi" />
		<tag k="ssr:stedsnr" v="798833" />
		<tag k="waterway" v="stream" />
	</node>
	<node lat="61.05000277492347" lon="6.38560832867371" id="-43022">
		<tag k="name" v="Stølshamarelvi" />
		<tag k="ssr:stedsnr" v="825497" />
		<tag k="waterway" v="stream" />
	</node>
	<node lat="61.082272224403034" lon="6.265555559281183" id="-43027">
		<tag k="name" v="Tverrelvi" />
		<tag k="ssr:stedsnr" v="825795" />
		<tag k="waterway" v="stream" />
	</node>
	<node lat="60.992122218808554" lon="6.770777779117353" id="-43039">
		<tag k="name" v="Styvisdalsvatnet" />
		<tag k="natural" v="water" />
		<tag k="ssr:stedsnr" v="858925" />
	</node>
	<node lat="60.97572500100461" lon="6.260500003777902" id="-43050">
		<tag k="name" v="Dursvatnet" />
		<tag k="natural" v="water" />
		<tag k="ssr:stedsnr" v="858664" />
	</node>
	<node lat="61.03174722565072" lon="6.599966671646151" id="-43053">
		<tag k="alt_name" v="Risløvelvi" />
		<tag k="name" v="Rislåg" />
		<tag k="ssr:stedsnr" v="859147" />
		<tag k="waterway" v="stream" />
	</node>
	<node lat="61.03694689967549" lon="6.828245711443981" id="-43054">
		<tag k="name" v="Huldafossen" />
		<tag k="natural" v="waterfall" />
		<tag k="ssr:stedsnr" v="859157" />
	</node>
	<node lat="61.0442138921227" lon="6.636608339184051" id="-43056">
		<tag k="alt_name" v="Seljedalselvi" />
		<tag k="name" v="Seljadalselvi" />
		<tag k="ssr:stedsnr" v="859184" />
		<tag k="waterway" v="stream" />
	</node>
	<node lat="61.01529999856204" lon="6.334161103382259" id="-43065">
		<tag k="name" v="Sleipa" />
		<tag k="ssr:stedsnr" v="859581" />
		<tag k="waterway" v="river" />
	</node>
	<node lat="61.12170555311043" lon="6.713061112513215" id="-43072">
		<tag k="name" v="Åfetelvi" />
		<tag k="ssr:stedsnr" v="859758" />
		<tag k="waterway" v="stream" />
	</node>
	<node lat="61.07127222204657" lon="6.569563884709623" id="-43088">
		<tag k="name" v="Hønsigrovi" />
		<tag k="ssr:stedsnr" v="886435" />
		<tag k="waterway" v="stream" />
	</node>
	<node lat="61.03021944081325" lon="6.50507499277738" id="-43089">
		<tag k="name" v="Liasetgrovi" />
		<tag k="ssr:stedsnr" v="886287" />
		<tag k="waterway" v="stream" />
	</node>
	<node lat="61.05506388550183" lon="7.004894450378241" id="-43101">
		<tag k="alt_name" v="Inste Simlenesgrovi" />
		<tag k="name" v="Indre Simlenesgrovi" />
		<tag k="ssr:stedsnr" v="886837" />
		<tag k="waterway" v="stream" />
	</node>
	<node lat="61.10729167066834" lon="6.188411104496846" id="-43120">
		<tag k="name" v="Fossen" />
		<tag k="natural" v="waterfall" />
		<tag k="ssr:stedsnr" v="946457" />
	</node>
	<node lat="61.04866944821132" lon="6.435183326425428" id="-43121">
		<tag k="name" v="Jambua" />
		<tag k="ssr:stedsnr" v="946636" />
		<tag k="waterway" v="stream" />
	</node>
	<node lat="61.096975003684086" lon="6.25790277406013" id="-43122">
		<tag k="name" v="Sagafossen" />
		<tag k="natural" v="waterfall" />
		<tag k="ssr:stedsnr" v="946772" />
	</node>
	<node lat="61.06611666642799" lon="6.340713892144887" id="-43128">
		<tag k="name" v="Merkesgrovi" />
		<tag k="ssr:stedsnr" v="947543" />
		<tag k="waterway" v="stream" />
	</node>
</osm>
