<?xml version="1.0" encoding="UTF-8"?>
<osm version="0.6" generator="osmapis">
	<node lat="61.07426111182626" lon="6.96435555775086" id="-71657">
		<tag k="alt_name" v="Mula-Myri" />
		<tag k="name" v="Mulamyri" />
		<tag k="natural" v="wetland" />
		<tag k="ssr:stedsnr" v="9204" />
	</node>
	<node lat="61.104858333149686" lon="6.766499992101581" id="-71681">
		<tag k="alt_name" v="Gjeismarki" />
		<tag k="name" v="Geitsmarki" />
		<tag k="place" v="locality" />
		<tag k="ssr:stedsnr" v="9796" />
	</node>
	<node lat="61.0667027746086" lon="6.359333331490966" id="-71694">
		<tag k="name" v="Vetlestølen" />
		<tag k="place" v="locality" />
		<tag k="ssr:stedsnr" v="36511" />
	</node>
	<node lat="61.095522225162135" lon="6.2913000049610375" id="-71695">
		<tag k="name" v="Myri" />
		<tag k="natural" v="wetland" />
		<tag k="ssr:stedsnr" v="36615" />
	</node>
	<node lat="61.06943332996381" lon="6.998755548549396" id="-71707">
		<tag k="name" v="Gjesturi" />
		<tag k="natural" v="scree" />
		<tag k="ssr:stedsnr" v="54087" />
	</node>
	<node lat="61.10335833388752" lon="6.615063894824948" id="-71835">
		<tag k="name" v="Brandteigane" />
		<tag k="place" v="locality" />
		<tag k="ssr:stedsnr" v="252738" />
	</node>
	<node lat="61.071666664538924" lon="6.990736115342937" id="-71867">
		<tag k="name" v="Lindeskrida" />
		<tag k="natural" v="scree" />
		<tag k="ssr:stedsnr" v="175071" />
	</node>
	<node lat="61.135602779894604" lon="6.741172227027605" id="-71900">
		<tag k="name" v="Berdalshagane" />
		<tag k="place" v="locality" />
		<tag k="ssr:stedsnr" v="218072" />
	</node>
	<node lat="61.135563892027236" lon="6.6301722270006715" id="-71908">
		<tag k="name" v="Krossfurua" />
		<tag k="place" v="locality" />
		<tag k="ssr:stedsnr" v="218307" />
	</node>
	<node lat="61.08878055875493" lon="6.530649997215777" id="-71909">
		<tag k="name" v="Svardalmarki" />
		<tag k="place" v="locality" />
		<tag k="ssr:stedsnr" v="218408" />
	</node>
	<node lat="61.09795833149655" lon="6.565586108756616" id="-71913">
		<tag k="name" v="Sæbøteigane" />
		<tag k="place" v="locality" />
		<tag k="ssr:stedsnr" v="218378" />
	</node>
	<node lat="61.07271111409668" lon="6.605358336660321" id="-71943">
		<tag k="name" v="Hagane" />
		<tag k="place" v="locality" />
		<tag k="ssr:stedsnr" v="460072" />
	</node>
	<node lat="61.10048055994709" lon="6.267030563760357" id="-71956">
		<tag k="name" v="Seiestein" />
		<tag k="natural" v="stone" />
		<tag k="ssr:stedsnr" v="279773" />
	</node>
	<node lat="61.0870222246703" lon="6.594672223967717" id="-71965">
		<tag k="name" v="Kjerringastein" />
		<tag k="natural" v="stone" />
		<tag k="ssr:stedsnr" v="461435" />
	</node>
	<node lat="61.029388892097785" lon="6.638361110868976" id="-71996">
		<tag k="name" v="Hangmyrane" />
		<tag k="natural" v="wetland" />
		<tag k="ssr:stedsnr" v="312165" />
	</node>
	<node lat="61.07771388607068" lon="6.56255277238329" id="-72027">
		<tag k="name" v="Løteigen" />
		<tag k="place" v="locality" />
		<tag k="ssr:stedsnr" v="339444" />
	</node>
	<node lat="61.0656250013929" lon="6.312266675264131" id="-72039">
		<tag k="name" v="Nyskrea" />
		<tag k="natural" v="scree" />
		<tag k="ssr:stedsnr" v="344904" />
	</node>
	<node lat="61.030633334957564" lon="6.793569446454382" id="-72050">
		<tag k="name" v="Fresvikbreen" />
		<tag k="natural" v="glacier" />
		<tag k="ssr:stedsnr" v="373162" />
	</node>
	<node lat="61.08002500339643" lon="6.571002773033657" id="-72080">
		<tag k="name" v="Haugateigen" />
		<tag k="place" v="locality" />
		<tag k="ssr:stedsnr" v="400435" />
	</node>
	<node lat="61.075719446018496" lon="6.97212776999407" id="-72086">
		<tag k="name" v="Kultastein" />
		<tag k="natural" v="stone" />
		<tag k="ssr:stedsnr" v="400907" />
	</node>
	<node lat="61.046658333071896" lon="6.987927778660102" id="-72090">
		<tag k="name" v="Langamyri" />
		<tag k="natural" v="wetland" />
		<tag k="ssr:stedsnr" v="400831" />
	</node>
	<node lat="61.027466667149945" lon="6.63628056163404" id="-72129">
		<tag k="name" v="Sendedalsmyrane" />
		<tag k="natural" v="wetland" />
		<tag k="ssr:stedsnr" v="494155" />
	</node>
	<node lat="61.04184722441277" lon="6.958324995374289" id="-72171">
		<tag k="name" v="Kyrkjeteigen" />
		<tag k="place" v="locality" />
		<tag k="ssr:stedsnr" v="676174" />
	</node>
	<node lat="61.05848888813159" lon="6.510486117030979" id="-72202">
		<tag k="historic" v="shieling" />
		<tag k="name" v="Hovden" />
		<tag k="place" v="locality" />
		<tag k="ssr:stedsnr" v="677590" />
	</node>
	<node lat="61.1250722257516" lon="6.623616669319382" id="-72249">
		<tag k="name" v="Kyrhellermyri" />
		<tag k="natural" v="wetland" />
		<tag k="ssr:stedsnr" v="521417" />
	</node>
	<node lat="61.11146111338091" lon="6.687677776647163" id="-72258">
		<tag k="name" v="Kartlarmyri" />
		<tag k="natural" v="wetland" />
		<tag k="ssr:stedsnr" v="522186" />
	</node>
	<node lat="61.0916416697385" lon="6.610697230524528" id="-72280">
		<tag k="alt_name" v="Vetleteigane" />
		<tag k="name" v="Vesleteigane" />
		<tag k="place" v="locality" />
		<tag k="ssr:stedsnr" v="555768" />
	</node>
	<node lat="61.16938611483754" lon="6.6407666752235945" id="-72292">
		<tag k="name" v="Kolmilene" />
		<tag k="place" v="locality" />
		<tag k="ssr:stedsnr" v="582089" />
	</node>
	<node lat="60.895016667402764" lon="6.303977769217049" id="-72336">
		<tag k="name" v="Valmyrane" />
		<tag k="natural" v="wetland" />
		<tag k="ssr:stedsnr" v="615599" />
	</node>
	<node lat="61.093055556410384" lon="6.274319442747506" id="-72371">
		<tag k="name" v="Hegguri" />
		<tag k="natural" v="scree" />
		<tag k="ssr:stedsnr" v="704920" />
	</node>
	<node lat="61.05321388549561" lon="6.528041667743412" id="-72377">
		<tag k="name" v="Hagateigen" />
		<tag k="place" v="locality" />
		<tag k="ssr:stedsnr" v="642005" />
	</node>
	<node lat="61.04911666659786" lon="6.5297388892463974" id="-72378">
		<tag k="name" v="Nyteigen" />
		<tag k="place" v="locality" />
		<tag k="ssr:stedsnr" v="642006" />
	</node>
	<node lat="61.16551666680277" lon="6.64108610735829" id="-72380">
		<tag k="name" v="Træet" />
		<tag k="place" v="locality" />
		<tag k="ssr:stedsnr" v="642306" />
	</node>
	<node lat="61.08802221808102" lon="6.558697216122418" id="-72382">
		<tag k="name" v="Uri" />
		<tag k="natural" v="scree" />
		<tag k="ssr:stedsnr" v="642374" />
	</node>
	<node lat="61.04385277653872" lon="6.400977771293748" id="-72390">
		<tag k="name" v="Indrebøen" />
		<tag k="place" v="locality" />
		<tag k="ssr:stedsnr" v="643532" />
	</node>
	<node lat="61.14301651498865" lon="6.781235546611148" id="-72424">
		<tag k="name" v="Galden" />
		<tag k="natural" v="scree" />
		<tag k="place" v="locality" />
		<tag k="ssr:stedsnr" v="677828" />
	</node>
	<node lat="61.08180555957164" lon="6.944699994576773" id="-72443">
		<tag k="name" v="Morturi" />
		<tag k="natural" v="scree" />
		<tag k="ssr:stedsnr" v="721010" />
	</node>
	<node lat="61.15122777497083" lon="6.715758332514205" id="-72470">
		<tag k="name" v="Røynesvai" />
		<tag k="place" v="locality" />
		<tag k="ssr:stedsnr" v="904083" />
	</node>
	<node lat="61.149291670977014" lon="6.643124994597085" id="-72480">
		<tag k="name" v="Endrehjellmyri" />
		<tag k="natural" v="wetland" />
		<tag k="ssr:stedsnr" v="764340" />
	</node>
	<node lat="61.058722223123944" lon="6.6090777730091625" id="-72525">
		<tag k="name" v="Teigane" />
		<tag k="place" v="locality" />
		<tag k="ssr:stedsnr" v="919223" />
	</node>
	<node lat="61.11768333747254" lon="6.705886108360009" id="-72560">
		<tag k="alt_name" v="Langemyri" />
		<tag k="name" v="Langamyri" />
		<tag k="natural" v="wetland" />
		<tag k="ssr:stedsnr" v="920778" />
	</node>
	<node lat="61.145930559083844" lon="6.838877783783104" id="-72563">
		<tag k="name" v="Naustbøen" />
		<tag k="place" v="locality" />
		<tag k="ssr:stedsnr" v="823221" />
	</node>
	<node lat="61.12635833557296" lon="6.618722226385502" id="-72570">
		<tag k="name" v="Vetlestølen" />
		<tag k="place" v="locality" />
		<tag k="ssr:stedsnr" v="825375" />
	</node>
	<node lat="61.09313333145792" lon="6.258972227297187" id="-72580">
		<tag k="name" v="Gamleselbøen" />
		<tag k="place" v="locality" />
		<tag k="ssr:stedsnr" v="825770" />
	</node>
	<node lat="60.97818055395986" lon="6.365075005170285" id="-72591">
		<tag k="name" v="Fagermyr" />
		<tag k="natural" v="wetland" />
		<tag k="ssr:stedsnr" v="858667" />
	</node>
	<node lat="61.02326666320077" lon="6.550402781577487" id="-72605">
		<tag k="name" v="Myrane" />
		<tag k="natural" v="wetland" />
		<tag k="ssr:stedsnr" v="884467" />
	</node>
	<node lat="61.05349166710746" lon="6.523419450539247" id="-72611">
		<tag k="name" v="Løyningshagen" />
		<tag k="place" v="locality" />
		<tag k="ssr:stedsnr" v="886352" />
	</node>
	<node lat="61.0909388876025" lon="6.568550000297668" id="-72614">
		<tag k="name" v="Hamnamarki" />
		<tag k="place" v="locality" />
		<tag k="ssr:stedsnr" v="886363" />
	</node>
	<node lat="61.166600001063834" lon="6.643238891715353" id="-72651">
		<tag k="alt_name" v="Tråna" />
		<tag k="name" v="Trona" />
		<tag k="place" v="locality" />
		<tag k="ssr:stedsnr" v="919904" />
	</node>
	<node lat="61.044536109505614" lon="6.619305556057959" id="-72663">
		<tag k="name" v="Myraloggi" />
		<tag k="natural" v="wetland" />
		<tag k="ssr:stedsnr" v="944395" />
	</node>
	<node lat="61.04672500329877" lon="6.5483444493000205" id="-72664">
		<tag k="name" v="Vetlegarden" />
		<tag k="place" v="locality" />
		<tag k="ssr:stedsnr" v="946106" />
	</node>
	<node lat="61.015875001636864" lon="6.81284167114826" id="-72723">
		<tag k="name" v="Båsfonni" />
		<tag k="place" v="locality" />
		<tag k="ssr:stedsnr" v="10161" />
	</node>
	<node lat="61.13660833597124" lon="6.620391673746523" id="-72733">
		<tag k="name" v="Furudotten" />
		<tag k="place" v="locality" />
		<tag k="ssr:stedsnr" v="36297" />
	</node>
	<node lat="61.13630832969231" lon="6.75720556479628" id="-72736">
		<tag k="name" v="Drægebøen" />
		<tag k="place" v="locality" />
		<tag k="ssr:stedsnr" v="36134" />
	</node>
	<node lat="61.12878889164671" lon="6.743102778746819" id="-72738">
		<tag k="name" v="Teigane" />
		<tag k="place" v="locality" />
		<tag k="ssr:stedsnr" v="36069" />
	</node>
	<node lat="61.08275278146254" lon="6.5572611165205865" id="-72740">
		<tag k="name" v="Øygardane" />
		<tag k="place" v="locality" />
		<tag k="ssr:stedsnr" v="36355" />
	</node>
	<node lat="61.03643333175843" lon="6.240641666414726" id="-72743">
		<tag k="name" v="Breimyrane" />
		<tag k="natural" v="wetland" />
		<tag k="ssr:stedsnr" v="36588" />
	</node>
	<node lat="61.03840555444269" lon="6.836547216688171" id="-72771">
		<tag k="alt_name" v="Lauvhogguri" />
		<tag k="name" v="Lauvhoggurdi" />
		<tag k="natural" v="scree" />
		<tag k="ssr:stedsnr" v="70163" />
	</node>
	<node lat="61.04591666763428" lon="6.545722224650389" id="-72796">
		<tag k="name" v="Stølsgarden" />
		<tag k="place" v="locality" />
		<tag k="ssr:stedsnr" v="96132" />
	</node>
	<node lat="61.081925002210326" lon="6.554783337294099" id="-72809">
		<tag k="name" v="Halvfarsteinen" />
		<tag k="natural" v="stone" />
		<tag k="ssr:stedsnr" v="97401" />
	</node>
	<node lat="61.07911389198096" lon="6.558186110091498" id="-72811">
		<tag k="name" v="Hopperstadmarki" />
		<tag k="place" v="locality" />
		<tag k="ssr:stedsnr" v="97457" />
	</node>
	<node lat="61.078311113884666" lon="6.9142583412467" id="-72825">
		<tag k="name" v="Asken" />
		<tag k="natural" v="scree" />
		<tag k="ssr:stedsnr" v="115477" />
	</node>
	<node lat="61.058616663311575" lon="6.908602776312022" id="-72837">
		<tag k="name" v="Liamarki" />
		<tag k="place" v="locality" />
		<tag k="ssr:stedsnr" v="130188" />
	</node>
	<node lat="61.09792222599073" lon="6.541630554876293" id="-72882">
		<tag k="name" v="Ligtvormarki" />
		<tag k="place" v="locality" />
		<tag k="ssr:stedsnr" v="157365" />
	</node>
	<node lat="61.069544441712225" lon="6.917250007265499" id="-72889">
		<tag k="name" v="Hovsmarki" />
		<tag k="place" v="locality" />
		<tag k="ssr:stedsnr" v="157926" />
	</node>
	<node lat="61.13255833667532" lon="6.872922219150667" id="-72900">
		<tag k="name" v="Nisesva" />
		<tag k="place" v="locality" />
		<tag k="ssr:stedsnr" v="176767" />
	</node>
	<node lat="61.084422010506195" lon="6.964550052819138" id="-72914">
		<tag k="alt_name" v="Kyrkjeuri" />
		<tag k="name" v="Kyrkjurdi" />
		<tag k="natural" v="scree" />
		<tag k="ssr:stedsnr" v="191188" />
	</node>
	<node lat="61.00445555562034" lon="6.800861116891919" id="-72931">
		<tag k="name" v="Gryteskarvbreen" />
		<tag k="natural" v="glacier" />
		<tag k="ssr:stedsnr" v="192180" />
	</node>
	<node lat="61.06918333123848" lon="6.605186105557169" id="-72953">
		<tag k="name" v="Bratteteigane" />
		<tag k="place" v="locality" />
		<tag k="ssr:stedsnr" v="217056" />
	</node>
	<node lat="61.05844444065219" lon="6.543488882330976" id="-72956">
		<tag k="name" v="Skodlamyri" />
		<tag k="natural" v="wetland" />
		<tag k="ssr:stedsnr" v="218120" />
	</node>
	<node lat="61.0417833368216" lon="6.5786722176226515" id="-72980">
		<tag k="name" v="Fletgarden" />
		<tag k="place" v="locality" />
		<tag k="ssr:stedsnr" v="279069" />
	</node>
	<node lat="61.08836667055779" lon="6.567655551777412" id="-72985">
		<tag k="name" v="Sjøtunmarki" />
		<tag k="place" v="locality" />
		<tag k="ssr:stedsnr" v="279366" />
	</node>
	<node lat="61.05655833195498" lon="6.323577782307175" id="-72991">
		<tag k="name" v="Flåsteinane" />
		<tag k="natural" v="stone" />
		<tag k="ssr:stedsnr" v="279735" />
	</node>
	<node lat="61.063624999195945" lon="6.564700008697627" id="-73054">
		<tag k="name" v="Øygardane" />
		<tag k="place" v="locality" />
		<tag k="ssr:stedsnr" v="339432" />
	</node>
	<node lat="61.12533332994009" lon="6.758627775797183" id="-73093">
		<tag k="alt_name" v="Vetlestøl" />
		<tag k="historic" v="shieling" />
		<tag k="name" v="Veslestølen" />
		<tag k="place" v="locality" />
		<tag k="ssr:stedsnr" v="373754" />
	</node>
	<node lat="61.10171667012101" lon="6.613852779379178" id="-73119">
		<tag k="name" v="Branden" />
		<tag k="natural" v="wetland" />
		<tag k="ssr:stedsnr" v="400044" />
	</node>
	<node lat="61.03516388810415" lon="6.2893638875508975" id="-73152">
		<tag k="name" v="Håskrea" />
		<tag k="natural" v="scree" />
		<tag k="ssr:stedsnr" v="431932" />
	</node>
	<node lat="61.05813055664337" lon="6.588886105792529" id="-73194">
		<tag k="name" v="Pridleteigane" />
		<tag k="place" v="locality" />
		<tag k="ssr:stedsnr" v="519341" />
	</node>
	<node lat="61.161202778469416" lon="6.642694444617714" id="-73201">
		<tag k="name" v="Demma" />
		<tag k="natural" v="wetland" />
		<tag k="ssr:stedsnr" v="521338" />
	</node>
	<node lat="61.10984444114633" lon="6.5970999930734395" id="-73211">
		<tag k="name" v="Frakkateigen" />
		<tag k="place" v="locality" />
		<tag k="ssr:stedsnr" v="522432" />
	</node>
	<node lat="61.083547220495994" lon="6.592816669031529" id="-73212">
		<tag k="name" v="Lesengi" />
		<tag k="place" v="locality" />
		<tag k="ssr:stedsnr" v="522451" />
	</node>
	<node lat="61.04837221997709" lon="6.392161117009291" id="-73215">
		<tag k="name" v="Vårstølen" />
		<tag k="place" v="locality" />
		<tag k="ssr:stedsnr" v="522550" />
	</node>
	<node lat="61.043300003580235" lon="6.311583338513972" id="-73218">
		<tag k="name" v="Kalduri" />
		<tag k="natural" v="scree" />
		<tag k="ssr:stedsnr" v="522702" />
	</node>
	<node lat="61.04239999562182" lon="6.425208337275485" id="-73253">
		<tag k="alt_name" v="Eiterstrondi" />
		<tag k="name" v="Eitrestrondi" />
		<tag k="natural" v="scree" />
		<tag k="ssr:stedsnr" v="555549" />
	</node>
	<node lat="61.124825004017495" lon="6.793780550590442" id="-73259">
		<tag k="name" v="Luftamyri" />
		<tag k="natural" v="wetland" />
		<tag k="ssr:stedsnr" v="555723" />
	</node>
	<node lat="61.171716663563835" lon="6.647833340481745" id="-73282">
		<tag k="name" v="Raudegjerdet" />
		<tag k="place" v="locality" />
		<tag k="ssr:stedsnr" v="582086" />
	</node>
	<node lat="61.168805556841306" lon="6.65277778154326" id="-73283">
		<tag k="name" v="Kalvehagen" />
		<tag k="place" v="locality" />
		<tag k="ssr:stedsnr" v="582088" />
	</node>
	<node lat="61.08636388573871" lon="6.593363890948901" id="-73290">
		<tag k="name" v="Kyrkjeuri" />
		<tag k="natural" v="scree" />
		<tag k="ssr:stedsnr" v="582435" />
	</node>
	<node lat="61.0849194427688" lon="6.307769451147531" id="-73293">
		<tag k="name" v="Kvituri" />
		<tag k="natural" v="scree" />
		<tag k="ssr:stedsnr" v="582664" />
	</node>
	<node lat="61.04816944272603" lon="6.3039583270183615" id="-73295">
		<tag k="alt_name" v="Makrellsteinen" />
		<tag k="name" v="Makrelstein" />
		<tag k="natural" v="stone" />
		<tag k="ssr:stedsnr" v="582744" />
	</node>
	<node lat="61.10541110900285" lon="6.6399472199853795" id="-73461">
		<tag k="alt_name" v="Kyrkjemyri" />
		<tag k="name" v="Kyrhjellmyri" />
		<tag k="natural" v="wetland" />
		<tag k="ssr:stedsnr" v="798725" />
	</node>
	<node lat="61.143333331750455" lon="6.759302770162205" id="-73466">
		<tag k="alt_name" v="Feidjehagane" />
		<tag k="name" v="Fedjehagen" />
		<tag k="place" v="locality" />
		<tag k="ssr:stedsnr" v="798774" />
	</node>
	<node lat="61.08836666934379" lon="6.587647222219689" id="-73496">
		<tag k="name" v="Vetleøyri" />
		<tag k="place" v="locality" />
		<tag k="ssr:stedsnr" v="825393" />
	</node>
	<node lat="61.03375556003835" lon="6.617572229647626" id="-73539">
		<tag k="alt_name" v="Skarsmyrane" />
		<tag k="name" v="Skardsmyrane" />
		<tag k="natural" v="wetland" />
		<tag k="ssr:stedsnr" v="859135" />
	</node>
	<node lat="61.06113333174776" lon="6.4980500084502095" id="-73549">
		<tag k="alt_name" v="Pettermyri" />
		<tag k="name" v="Pettersmyri" />
		<tag k="natural" v="wetland" />
		<tag k="ssr:stedsnr" v="859544" />
	</node>
	<node lat="61.08758333272785" lon="6.5614333382602155" id="-73570">
		<tag k="name" v="Slåtta" />
		<tag k="place" v="locality" />
		<tag k="ssr:stedsnr" v="886381" />
	</node>
	<node lat="61.008833330682535" lon="6.41849444136434" id="-73599">
		<tag k="name" v="Rausteinane" />
		<tag k="natural" v="stone" />
		<tag k="ssr:stedsnr" v="944132" />
	</node>
	<node lat="61.007277778964934" lon="6.324547222737401" id="-73600">
		<tag k="name" v="Breifosslimyrane" />
		<tag k="natural" v="wetland" />
		<tag k="ssr:stedsnr" v="944263" />
	</node>
	<node lat="61.173158330279335" lon="6.6381611084685295" id="-73604">
		<tag k="name" v="Kroken" />
		<tag k="place" v="locality" />
		<tag k="ssr:stedsnr" v="946077" />
	</node>
	<node lat="61.03386110991376" lon="6.5136388822334625" id="-73606">
		<tag k="name" v="Storemyri" />
		<tag k="natural" v="wetland" />
		<tag k="ssr:stedsnr" v="946243" />
	</node>
	<node lat="61.045704368860584" lon="6.501543587396378" id="-73656">
		<tag k="name" v="Veberg" />
		<tag k="place" v="locality" />
		<tag k="ssr:stedsnr" v="1082371" />
	</node>
</osm>
