<?xml version="1.0" encoding="UTF-8"?>
<<<<<<< HEAD
<osm version="0.6" generator="osmapis">
	<node lat="61.074769440778155" lon="6.63709165988872" id="-30633">
		<tag k="historic" v="shieling" />
		<tag k="name" v="Øyasete" />
		<tag k="place" v="isolated_dwelling" />
		<tag k="ssr:stedsnr" v="9189" />
	</node>
	<node lat="61.05954999925051" lon="6.635225008068006" id="-30635">
		<tag k="alt_name" v="Nummedalsstølen, øvre" />
		<tag k="historic" v="shieling" />
		<tag k="name" v="Øvste Nummedalsstølen" />
		<tag k="place" v="isolated_dwelling" />
		<tag k="ssr:stedsnr" v="9200" />
	</node>
	<node lat="61.08602778057226" lon="6.511816674675543" id="-30639">
		<tag k="alt_name" v="Svolsvik" />
		<tag k="name" v="Svollsviki" />
		<tag k="place" v="farm" />
		<tag k="ssr:stedsnr" v="9621" />
	</node>
	<node lat="61.05119179268022" lon="6.530114152957242" id="-30643">
		<tag k="fixme" v="consider place=hamlet" />
		<tag k="name" v="Rosheim" />
		<tag k="place" v="farm" />
		<tag k="ssr:stedsnr" v="9512" />
	</node>
	<node lat="61.03874900576405" lon="6.2672012139083035" id="-30644">
		<tag k="fixme" v="consider place=hamlet" />
		<tag k="name" v="Finnabotnen" />
		<tag k="place" v="farm" />
		<tag k="ssr:stedsnr" v="9587" />
	</node>
	<node lat="61.14873300759929" lon="6.758629831330106" id="-30646">
		<tag k="fixme" v="consider place=hamlet" />
		<tag k="name" v="Rinde" />
		<tag k="place" v="farm" />
		<tag k="ssr:stedsnr" v="9805" />
	</node>
	<node lat="61.141524999624316" lon="6.741911108101354" id="-30647">
		<tag k="alt_name" v="Hovetuftene" />
		<tag k="name" v="Håatuftene" />
		<tag k="place" v="farm" />
		<tag k="ssr:stedsnr" v="9807" />
	</node>
	<node lat="61.14535368814526" lon="6.847774447867248" id="-30648">
		<tag k="name" v="Løneset" />
		<tag k="place" v="farm" />
		<tag k="ssr:stedsnr" v="9811" />
	</node>
	<node lat="61.12540931501858" lon="6.750294560238298" id="-30650">
		<tag k="alt_name" v="Smedje" />
		<tag k="fixme" v="consider place=hamlet" />
		<tag k="name" v="Smidjane" />
		<tag k="place" v="farm" />
		<tag k="ssr:stedsnr" v="9840" />
	</node>
	<node lat="61.10754444015294" lon="6.774161108984478" id="-30652">
		<tag k="alt_name" v="Varpet" />
		<tag k="name" v="Varpe" />
		<tag k="place" v="locality" />
		<tag k="ssr:stedsnr" v="9794" />
	</node>
	<node lat="61.069697226093574" lon="6.580152783587252" id="-30663">
		<tag k="name" v="Øvre Hove" />
		<tag k="place" v="farm" />
		<tag k="ssr:stedsnr" v="36401" />
	</node>
	<node lat="61.080875003578065" lon="6.5596388810857125" id="-30664">
		<tag k="name" v="Skogengi" />
		<tag k="place" v="locality" />
		<tag k="ssr:stedsnr" v="36359" />
	</node>
	<node lat="61.04117499768599" lon="6.966755557063042" id="-30678">
		<tag k="historic" v="shieling" />
		<tag k="name" v="Skard" />
		<tag k="place" v="isolated_dwelling" />
		<tag k="ssr:stedsnr" v="69189" />
	</node>
	<node lat="61.02346944846844" lon="6.59459444806536" id="-30679">
		<tag k="historic" v="shieling" />
		<tag k="name" v="Fossen" />
		<tag k="place" v="isolated_dwelling" />
		<tag k="ssr:stedsnr" v="69190" />
	</node>
	<node lat="61.03184722408109" lon="6.594016674277011" id="-30680">
		<tag k="name" v="Stølsgardane" />
		<tag k="place" v="locality" />
		<tag k="ssr:stedsnr" v="69191" />
	</node>
	<node lat="60.9477749987417" lon="6.7419166652002085" id="-30682">
		<tag k="historic" v="shieling" />
		<tag k="name" v="Nedstedalen" />
		<tag k="place" v="isolated_dwelling" />
		<tag k="ssr:stedsnr" v="69906" />
	</node>
	<node lat="60.96089722309352" lon="6.601577780962655" id="-30683">
		<tag k="historic" v="shieling" />
		<tag k="name" v="Kvanndalen" />
		<tag k="place" v="isolated_dwelling" />
		<tag k="ssr:stedsnr" v="69908" />
	</node>
	<node lat="60.93379444162225" lon="6.753319450949488" id="-30686">
		<tag k="historic" v="shieling" />
		<tag k="name" v="Breidalen" />
		<tag k="place" v="isolated_dwelling" />
		<tag k="ssr:stedsnr" v="69892" />
	</node>
	<node lat="61.069308332213815" lon="6.937444437741726" id="-30688">
		<tag k="name" v="Holmen" />
		<tag k="place" v="farm" />
		<tag k="ssr:stedsnr" v="70176" />
	</node>
	<node lat="61.05943589925057" lon="6.926616925423003" id="-30689">
		<tag k="alt_name" v="Flæte" />
		<tag k="fixme" v="consider place=hamlet" />
		<tag k="name" v="Fletene" />
		<tag k="place" v="farm" />
		<tag k="ssr:stedsnr" v="70199" />
	</node>
	<node lat="61.10396423143476" lon="6.21138468726286" id="-30690">
		<tag k="fixme" v="consider place=hamlet" />
		<tag k="name" v="Vetlesand" />
		<tag k="place" v="farm" />
		<tag k="ssr:stedsnr" v="70302" />
	</node>
	<node lat="61.064605558579935" lon="6.602058342118718" id="-30691">
		<tag k="name" v="Hagen" />
		<tag k="place" v="farm" />
		<tag k="ssr:stedsnr" v="70203" />
	</node>
	<node lat="61.06984272627197" lon="6.54706445927835" id="-30693">
		<tag k="fixme" v="consider place=hamlet" />
		<tag k="name" v="Bø" />
		<tag k="place" v="farm" />
		<tag k="ssr:stedsnr" v="70476" />
	</node>
	<node lat="61.14553611133225" lon="6.729305550411186" id="-30697">
		<tag k="historic" v="shieling" />
		<tag k="name" v="Madssete" />
		<tag k="place" v="isolated_dwelling" />
		<tag k="ssr:stedsnr" v="70801" />
	</node>
	<node lat="61.12405555718886" lon="6.636122223342381" id="-30698">
		<tag k="historic" v="shieling" />
		<tag k="name" v="Mytingen" />
		<tag k="place" v="isolated_dwelling" />
		<tag k="ssr:stedsnr" v="70830" />
	</node>
	<node lat="61.10207546938779" lon="6.539044332649637" id="-30719">
		<tag k="fixme" v="consider place=hamlet" />
		<tag k="name" v="Liktvorane" />
		<tag k="place" v="farm" />
		<tag k="ssr:stedsnr" v="251642" />
	</node>
	<node lat="61.03960277381199" lon="6.8740611113744325" id="-30725">
		<tag k="name" v="Hillegarden" />
		<tag k="place" v="locality" />
		<tag k="ssr:stedsnr" v="251202" />
	</node>
	<node lat="60.9855888925528" lon="6.407119439906782" id="-30737">
		<tag k="historic" v="shieling" />
		<tag k="name" v="Valsvikstølen" />
		<tag k="place" v="isolated_dwelling" />
		<tag k="ssr:stedsnr" v="251706" />
	</node>
	<node lat="61.046405556675516" lon="6.890219449097988" id="-30743">
		<tag k="alt_name" v="Storesteingarden" />
		<tag k="historic" v="shieling" />
		<tag k="name" v="Storsteingardane" />
		<tag k="place" v="isolated_dwelling" />
		<tag k="ssr:stedsnr" v="252129" />
	</node>
	<node lat="61.071738893142154" lon="6.951299990863984" id="-30745">
		<tag k="name" v="Holten" />
		<tag k="place" v="isolated_dwelling" />
		<tag k="ssr:stedsnr" v="252159" />
	</node>
	<node lat="61.07453069658973" lon="6.9265627541122505" id="-30748">
		<tag k="fixme" v="consider place=hamlet" />
		<tag k="name" v="Øyri" />
		<tag k="place" v="farm" />
		<tag k="ssr:stedsnr" v="252213" />
	</node>
	<node lat="61.081155553119736" lon="6.904927774396067" id="-30750">
		<tag k="alt_name" v="Haukestølen" />
		<tag k="name" v="Haukastølen" />
		<tag k="place" v="locality" />
		<tag k="ssr:stedsnr" v="252223" />
	</node>
	<node lat="61.03408888738029" lon="6.369125008855033" id="-30766">
		<tag k="historic" v="shieling" />
		<tag k="name" v="Rosete" />
		<tag k="place" v="isolated_dwelling" />
		<tag k="ssr:stedsnr" v="252546" />
	</node>
	<node lat="61.02314166746891" lon="6.424269445015588" id="-30769">
		<tag k="historic" v="shieling" />
		<tag k="name" v="Saursete" />
		<tag k="place" v="isolated_dwelling" />
		<tag k="ssr:stedsnr" v="252563" />
	</node>
	<node lat="61.013508329119105" lon="6.364033330587259" id="-30771">
		<tag k="name" v="Morki" />
		<tag k="place" v="farm" />
		<tag k="ssr:stedsnr" v="252569" />
	</node>
	<node lat="61.0192189792028" lon="6.384752445513259" id="-30772">
		<tag k="fixme" v="consider place=hamlet" />
		<tag k="name" v="Nese" />
		<tag k="place" v="farm" />
		<tag k="ssr:stedsnr" v="252570" />
	</node>
	<node lat="61.11874484579736" lon="6.6028180645976695" id="-30774">
		<tag k="alt_name" v="Gotevik" />
		<tag k="fixme" v="consider place=hamlet" />
		<tag k="name" v="Goteviki" />
		<tag k="place" v="farm" />
		<tag k="ssr:stedsnr" v="130717" />
	</node>
	<node lat="61.12794521913983" lon="6.87435698552755" id="-30776">
		<tag k="fixme" v="consider place=hamlet" />
		<tag k="name" v="Straumsnes" />
		<tag k="place" v="farm" />
		<tag k="ssr:stedsnr" v="130724" />
	</node>
	<node lat="61.14377003523932" lon="6.744693782199508" id="-30778">
		<tag k="alt_name" v="Hove" />
		<tag k="fixme" v="consider place=hamlet" />
		<tag k="name" v="Håane" />
		<tag k="place" v="farm" />
		<tag k="ssr:stedsnr" v="130771" />
	</node>
	<node lat="61.158652773696325" lon="6.649074992808682" id="-30781">
		<tag k="alt_name" v="Gostøl" />
		<tag k="name" v="Godstøl" />
		<tag k="place" v="locality" />
		<tag k="ssr:stedsnr" v="130792" />
	</node>
	<node lat="61.14207982013226" lon="6.627632051495687" id="-30782">
		<tag k="fixme" v="consider place=hamlet" />
		<tag k="name" v="Øksdal" />
		<tag k="place" v="farm" />
		<tag k="ssr:stedsnr" v="130802" />
	</node>
	<node lat="61.130166668895534" lon="6.711075008370806" id="-30783">
		<tag k="historic" v="shieling" />
		<tag k="name" v="Solasete" />
		<tag k="place" v="isolated_dwelling" />
		<tag k="ssr:stedsnr" v="130817" />
	</node>
	<node lat="61.139180554178836" lon="6.722050009022797" id="-30786">
		<tag k="alt_name" v="Hoveklunken" />
		<tag k="historic" v="shieling" />
		<tag k="name" v="Håakluken" />
		<tag k="place" v="isolated_dwelling" />
		<tag k="ssr:stedsnr" v="130830" />
	</node>
	<node lat="61.14090278025848" lon="6.818313892899041" id="-30787">
		<tag k="name" v="Smørdal" />
		<tag k="place" v="locality" />
		<tag k="ssr:stedsnr" v="130843" />
	</node>
	<node lat="61.08335313217918" lon="6.314430807542885" id="-30788">
		<tag k="fixme" v="consider place=hamlet" />
		<tag k="name" v="Vollaviki" />
		<tag k="place" v="farm" />
		<tag k="ssr:stedsnr" v="252637" />
	</node>
	<node lat="61.02098610731513" lon="6.378999996468721" id="-30789">
		<tag k="name" v="Haugen" />
		<tag k="place" v="farm" />
		<tag k="ssr:stedsnr" v="131590" />
	</node>
	<node lat="61.02008333666069" lon="6.381575008258945" id="-30790">
		<tag k="alt_name" v="Leite" />
		<tag k="name" v="Leitet" />
		<tag k="place" v="farm" />
		<tag k="ssr:stedsnr" v="131591" />
	</node>
	<node lat="61.117041668562955" lon="6.76775555341255" id="-30792">
		<tag k="alt_name" v="Lægdene" />
		<tag k="historic" v="shieling" />
		<tag k="name" v="Legdene" />
		<tag k="place" v="isolated_dwelling" />
		<tag k="ssr:stedsnr" v="252734" />
	</node>
	<node lat="61.14555000183584" lon="6.81749167298077" id="-30796">
		<tag k="alt_name" v="Ytre Borlaug" />
		<tag k="name" v="Garden" />
		<tag k="place" v="farm" />
		<tag k="ssr:stedsnr" v="252800" />
	</node>
	<node lat="61.14504521769936" lon="6.624311920099249" id="-30798">
		<tag k="alt_name" v="Tveit" />
		<tag k="fixme" v="consider place=hamlet" />
		<tag k="name" v="Tveiti" />
		<tag k="place" v="farm" />
		<tag k="ssr:stedsnr" v="252811" />
	</node>
	<node lat="61.139822225656154" lon="6.832063891365978" id="-30804">
		<tag k="alt_name" v="Flætene" />
		<tag k="name" v="Fletene" />
		<tag k="place" v="locality" />
		<tag k="ssr:stedsnr" v="252846" />
	</node>
	<node lat="61.054377782141685" lon="6.521599993252797" id="-30816">
		<tag k="historic" v="shieling" />
		<tag k="name" v="Furehaugstølen" />
		<tag k="place" v="isolated_dwelling" />
		<tag k="ssr:stedsnr" v="157323" />
	</node>
	<node lat="61.0954972230982" lon="6.230163891027463" id="-30821">
		<tag k="name" v="Vårstølen" />
		<tag k="place" v="locality" />
		<tag k="ssr:stedsnr" v="157852" />
	</node>
	<node lat="60.955936114166136" lon="6.71760276937831" id="-30828">
		<tag k="historic" v="shieling" />
		<tag k="name" v="Preststølen" />
		<tag k="place" v="isolated_dwelling" />
		<tag k="ssr:stedsnr" v="190911" />
	</node>
	<node lat="61.0551989374728" lon="6.611504010265237" id="-30831">
		<tag k="fixme" v="consider place=hamlet" />
		<tag k="name" v="Fosse" />
		<tag k="place" v="farm" />
		<tag k="ssr:stedsnr" v="191159" />
	</node>
	<node lat="61.04376111107094" lon="6.662758325113844" id="-30832">
		<tag k="alt_name" v="Skår" />
		<tag k="historic" v="shieling" />
		<tag k="name" v="Skor" />
		<tag k="place" v="isolated_dwelling" />
		<tag k="ssr:stedsnr" v="191172" />
	</node>
	<node lat="61.04684785107252" lon="6.640532970582875" id="-30833">
		<tag k="fixme" v="consider place=hamlet" />
		<tag k="name" v="Grønsberg" />
		<tag k="place" v="farm" />
		<tag k="ssr:stedsnr" v="191174" />
	</node>
	<node lat="61.04767443282386" lon="6.614813670221223" id="-30834">
		<tag k="fixme" v="consider place=hamlet" />
		<tag k="name" v="Åse" />
		<tag k="place" v="farm" />
		<tag k="ssr:stedsnr" v="191178" />
	</node>
	<node lat="61.0728806982306" lon="6.569528223375408" id="-30837">
		<tag k="fixme" v="consider place=hamlet" />
		<tag k="name" v="Hønsi" />
		<tag k="place" v="farm" />
		<tag k="ssr:stedsnr" v="191477" />
	</node>
	<node lat="60.960840678829044" lon="6.299082921527899" id="-30839">
		<tag k="historic" v="shieling" />
		<tag k="name" v="Rappen" />
		<tag k="place" v="isolated_dwelling" />
		<tag k="ssr:stedsnr" v="191612" />
	</node>
	<node lat="61.08203611197246" lon="6.6125888812736475" id="-30845">
		<tag k="historic" v="shieling" />
		<tag k="name" v="Hangsete" />
		<tag k="place" v="isolated_dwelling" />
		<tag k="ssr:stedsnr" v="191750" />
	</node>
	<node lat="61.005651799848955" lon="6.415173829943193" id="-30847">
		<tag k="fixme" v="consider place=hamlet" />
		<tag k="name" v="Ådlane" />
		<tag k="place" v="farm" />
		<tag k="ssr:stedsnr" v="211790" />
	</node>
	<node lat="61.043877432719036" lon="6.640546386883257" id="-30852">
		<tag k="fixme" v="consider place=hamlet" />
		<tag k="name" v="Turvoll" />
		<tag k="place" v="farm" />
		<tag k="ssr:stedsnr" v="216380" />
	</node>
	<node lat="61.11419166450897" lon="6.690827770650878" id="-30864">
		<tag k="historic" v="shieling" />
		<tag k="name" v="Ytstestøl" />
		<tag k="place" v="isolated_dwelling" />
		<tag k="ssr:stedsnr" v="218183" />
	</node>
	<node lat="61.023350001664" lon="6.326147227071616" id="-30877">
		<tag k="fixme" v="consider tourism=alpine_hut or tourism=chalet" />
		<tag k="name" v="Vatnane" />
		<tag k="ssr:stedsnr" v="270559" />
		<tag k="tourism" v="wilderness_hut" />
	</node>
	<node lat="61.02152222344222" lon="6.38471945243432" id="-30884">
		<tag k="name" v="Skuongen" />
		<tag k="place" v="farm" />
		<tag k="ssr:stedsnr" v="459152" />
	</node>
	<node lat="60.99192222380584" lon="6.457694447399551" id="-30888">
		<tag k="name" v="Nestedalen" />
		<tag k="place" v="locality" />
		<tag k="ssr:stedsnr" v="459415" />
	</node>
	<node lat="61.02879722640258" lon="6.562347218724717" id="-30893">
		<tag k="name" v="Øygarden" />
		<tag k="place" v="locality" />
		<tag k="ssr:stedsnr" v="277495" />
	</node>
	<node lat="61.077305557346776" lon="6.620241667320664" id="-30896">
		<tag k="name" v="Liagardane" />
		<tag k="place" v="locality" />
		<tag k="ssr:stedsnr" v="278018" />
	</node>
	<node lat="61.02033610903931" lon="6.412872215917071" id="-30909">
		<tag k="name" v="Hellerane" />
		<tag k="place" v="locality" />
		<tag k="ssr:stedsnr" v="279691" />
	</node>
	<node lat="61.04989721966002" lon="6.31230277089295" id="-30938">
=======
<osm generator="osmapis" version="0.6">
	<node id="-669695" lat="61.0553055534" lon="6.5327388848">
		<tag k="name" v="Brennene" />
		<tag k="place" v="farm" />
		<tag k="ssr:stedsnr" v="521004" />
	</node>
	<node id="-669692" lat="61.1722083319" lon="6.64031110697">
		<tag k="alt_name" v="Fritjovparken" />
		<tag k="leisure" v="park" />
		<tag k="name" v="Fridtjovsparken" />
		<tag k="ssr:stedsnr" v="434916" />
	</node>
	<node id="-669684" lat="61.0536499972" lon="6.48192499135">
		<tag k="historic" v="shieling" />
		<tag k="name" v="Unnardalen" />
		<tag k="place" v="locality" />
		<tag k="ssr:stedsnr" v="434566" />
	</node>
	<node id="-669682" lat="61.064416671" lon="6.34997777936">
		<tag k="alt_name" v="Ystestølen" />
		<tag k="historic" v="shieling" />
		<tag k="name" v="Ytstestølen" />
		<tag k="place" v="locality" />
		<tag k="ssr:stedsnr" v="434554" />
	</node>
	<node id="-669680" lat="61.076216669" lon="6.4582499924">
		<tag k="historic" v="shieling" />
		<tag k="name" v="Vetlestølen" />
		<tag k="place" v="locality" />
		<tag k="ssr:stedsnr" v="434532" />
	</node>
	<node id="-669678" lat="61.0755111104" lon="6.29067500399">
		<tag k="historic" v="shieling" />
		<tag k="name" v="Øvstestølen" />
		<tag k="place" v="locality" />
		<tag k="ssr:stedsnr" v="434653" />
	</node>
	<node id="-669676" lat="61.0502277803" lon="6.5857444495">
		<tag k="historic" v="shieling" />
		<tag k="name" v="Ovrisstølen" />
		<tag k="place" v="locality" />
		<tag k="ssr:stedsnr" v="434482" />
	</node>
	<node id="-669675" lat="61.0605055538" lon="6.5405583393">
		<tag k="name" v="Myrane" />
		<tag k="place" v="farm" />
		<tag k="ssr:stedsnr" v="434472" />
	</node>
	<node id="-669672" lat="61.0520722195" lon="6.9145194521">
		<tag k="alt_name" v="Ivarlid" />
		<tag k="name" v="Ivarli" />
		<tag k="place" v="farm" />
		<tag k="ssr:stedsnr" v="434152" />
	</node>
	<node id="-669670" lat="61.1079027819" lon="6.20232499163">
		<tag k="name" v="Slåttene" />
		<tag k="place" v="locality" />
		<tag k="ssr:stedsnr" v="434287" />
	</node>
	<node id="-669667" lat="60.9312083358" lon="6.30831944172">
		<tag k="historic" v="shieling" />
		<tag k="name" v="Raudbergdalen" />
		<tag k="place" v="locality" />
		<tag k="ssr:stedsnr" v="433589" />
	</node>
	<node id="-669666" lat="60.9219250008" lon="6.33787500024">
		<tag k="historic" v="shieling" />
		<tag k="name" v="Kvilesteinane" />
		<tag k="place" v="locality" />
		<tag k="ssr:stedsnr" v="433587" />
	</node>
	<node id="-669665" lat="60.9134583312" lon="6.26297500767">
		<tag k="fixme" v="consider tourism=alpine_hut or tourism=chalet" />
		<tag k="name" v="Selhamar" />
		<tag k="ssr:stedsnr" v="433586" />
		<tag k="tourism" v="wilderness_hut" />
	</node>
	<node id="-669661" lat="60.9979256096" lon="6.42365246514">
		<tag k="fixme" v="multiple name tags, choose one and add the other to alt_name; consider place=hamlet" />
		<tag k="name" v="Dalsver;Vetledalen" />
		<tag k="place" v="farm" />
		<tag k="ssr:stedsnr" v="433683" />
	</node>
	<node id="-669660" lat="60.9909833313" lon="6.34596388195">
		<tag k="name" v="Negardstølen" />
		<tag k="place" v="locality" />
		<tag k="ssr:stedsnr" v="433682" />
	</node>
	<node id="-669634" lat="61.0526833302" lon="6.43509999283">
		<tag k="name" v="Åsteigane" />
		<tag k="place" v="locality" />
		<tag k="ssr:stedsnr" v="400668" />
	</node>
	<node id="-669620" lat="61.0782584888" lon="6.58414076461">
		<tag k="fixme" v="consider place=hamlet" />
		<tag k="name" v="Vange" />
		<tag k="place" v="farm" />
		<tag k="ssr:stedsnr" v="400431" />
	</node>
	<node id="-669618" lat="61.0816805585" lon="6.57532221673">
		<tag k="fixme" v="consider place=hamlet" />
		<tag k="name" v="Grov" />
		<tag k="place" v="farm" />
		<tag k="ssr:stedsnr" v="400401" />
	</node>
	<node id="-669612" lat="61.0539277748" lon="6.53966110807">
		<tag k="name" v="Vetla Tistel" />
		<tag k="place" v="farm" />
		<tag k="ssr:stedsnr" v="400111" />
	</node>
	<node id="-669600" lat="61.0484083358" lon="6.62850000781">
		<tag k="name" v="Nummedaløygardane" />
		<tag k="place" v="farm" />
		<tag k="ssr:stedsnr" v="398350" />
	</node>
	<node id="-669599" lat="61.058591666" lon="6.63592500278">
		<tag k="name" v="Kjeingasete" />
		<tag k="place" v="locality" />
		<tag k="ssr:stedsnr" v="398341" />
	</node>
	<node id="-669598" lat="61.0363611141" lon="6.62535832435">
		<tag k="name" v="Stokkemarki" />
		<tag k="place" v="locality" />
		<tag k="ssr:stedsnr" v="398278" />
	</node>
	<node id="-669596" lat="61.0726018361" lon="6.60243870836">
		<tag k="fixme" v="consider place=hamlet" />
		<tag k="name" v="Stadheim" />
		<tag k="place" v="farm" />
		<tag k="ssr:stedsnr" v="393229" />
	</node>
	<node id="-669594" lat="61.1464194454" lon="6.62486111846">
		<tag k="alt_name" v="Vetlehagen" />
		<tag k="name" v="Veslehagen" />
		<tag k="place" v="isolated_dwelling" />
		<tag k="ssr:stedsnr" v="373840" />
	</node>
	<node id="-669592" lat="61.1197000041" lon="6.61065832589">
		<tag k="name" v="Svefjellet" />
		<tag k="place" v="isolated_dwelling" />
		<tag k="ssr:stedsnr" v="373778" />
	</node>
	<node id="-669591" lat="61.0975144057" lon="6.2793328929">
		<tag k="fixme" v="consider place=hamlet" />
		<tag k="name" v="Hanekam" />
		<tag k="place" v="farm" />
		<tag k="ssr:stedsnr" v="373695" />
	</node>
	<node id="-669587" lat="61.0009859838" lon="6.36099013899">
		<tag k="fixme" v="consider place=hamlet" />
		<tag k="name" v="Frettheim" />
		<tag k="place" v="farm" />
		<tag k="ssr:stedsnr" v="373630" />
	</node>
	<node id="-669577" lat="61.0722777794" lon="6.9341583279">
		<tag k="fixme" v="consider place=hamlet" />
		<tag k="name" v="Fresvik" />
		<tag k="place" v="village" />
		<tag k="ssr:stedsnr" v="373230" />
	</node>
	<node id="-669576" lat="61.0360500024" lon="6.61266111497">
		<tag k="alt_name" v="Skaret" />
		<tag k="historic" v="shieling" />
		<tag k="name" v="Skardet" />
		<tag k="place" v="locality" />
		<tag k="ssr:stedsnr" v="373144" />
	</node>
	<node id="-669571" lat="61.018119445" lon="6.86763332568">
		<tag k="name" v="Tundalen" />
		<tag k="place" v="locality" />
		<tag k="ssr:stedsnr" v="373129" />
	</node>
	<node id="-669559" lat="61.0881666674" lon="6.88028055738">
		<tag k="name" v="Juvik" />
		<tag k="place" v="farm" />
		<tag k="ssr:stedsnr" v="339996" />
	</node>
	<node id="-669556" lat="61.048888886" lon="6.9054138802">
		<tag k="name" v="Gardane" />
		<tag k="place" v="locality" />
		<tag k="ssr:stedsnr" v="339902" />
	</node>
	<node id="-669551" lat="61.0791944485" lon="6.49102221758">
		<tag k="name" v="Røyrvik" />
		<tag k="place" v="farm" />
		<tag k="ssr:stedsnr" v="339662" />
	</node>
	<node id="-669548" lat="61.0818583348" lon="6.57755555114">
		<tag k="amenity" v="school" />
		<tag k="name" v="Flatbygdi skule" />
		<tag k="ssr:stedsnr" v="339451" />
	</node>
	<node id="-669546" lat="61.0679333347" lon="6.5450972298">
		<tag k="name" v="Balvol" />
		<tag k="place" v="farm" />
		<tag k="ssr:stedsnr" v="339435" />
	</node>
	<node id="-669534" lat="61.0138749986" lon="6.55909443675">
		<tag k="name" v="Fodnastøl" />
		<tag k="place" v="locality" />
		<tag k="ssr:stedsnr" v="339067" />
	</node>
	<node id="-669523" lat="61.1382694448" lon="6.73513888954">
		<tag k="name" v="Berdalstuftene" />
		<tag k="place" v="locality" />
		<tag k="ssr:stedsnr" v="313889" />
	</node>
	<node id="-669520" lat="61.1312099734" lon="6.74321452803">
		<tag k="alt_name" v="Stengjerde" />
		<tag k="fixme" v="consider place=hamlet" />
		<tag k="name" v="Stjernegjerd" />
		<tag k="place" v="farm" />
		<tag k="ssr:stedsnr" v="313880" />
	</node>
	<node id="-669519" lat="61.1219416709" lon="6.69956110916">
		<tag k="historic" v="shieling" />
		<tag k="name" v="Slettamo" />
		<tag k="place" v="locality" />
		<tag k="ssr:stedsnr" v="313797" />
	</node>
	<node id="-669516" lat="61.034531993" lon="6.59641627918">
		<tag k="fixme" v="consider place=hamlet" />
		<tag k="name" v="Kinni" />
		<tag k="place" v="farm" />
		<tag k="ssr:stedsnr" v="313186" />
	</node>
	<node id="-669509" lat="61.0038842441" lon="6.41179663891">
		<tag k="fixme" v="consider place=hamlet" />
		<tag k="name" v="Valsvik" />
		<tag k="place" v="farm" />
		<tag k="ssr:stedsnr" v="312601" />
	</node>
	<node id="-669498" lat="61.0290416697" lon="6.87910000499">
		<tag k="name" v="Øystølen" />
		<tag k="place" v="locality" />
		<tag k="ssr:stedsnr" v="312117" />
	</node>
	<node id="-669490" lat="61.0498972197" lon="6.31230277089">
>>>>>>> e1d4bc35ff8a6074a6f2e91616a996b547c36f15
		<tag k="name" v="Vonheim" />
		<tag k="place" v="farm" />
		<tag k="ssr:stedsnr" v="310915" />
	</node>
<<<<<<< HEAD
	<node lat="61.02904166965195" lon="6.879100004991704" id="-30942">
		<tag k="name" v="Øystølen" />
		<tag k="place" v="locality" />
		<tag k="ssr:stedsnr" v="312117" />
	</node>
	<node lat="61.05985214271728" lon="6.533565956474698" id="-30950">
=======
	<node id="-669487" lat="61.0424500018" lon="6.53415834186">
		<tag k="historic" v="shieling" />
		<tag k="name" v="Kålsete" />
		<tag k="place" v="locality" />
		<tag k="ssr:stedsnr" v="312526" />
	</node>
	<node id="-669485" lat="61.0598521427" lon="6.53356595647">
>>>>>>> e1d4bc35ff8a6074a6f2e91616a996b547c36f15
		<tag k="fixme" v="consider place=hamlet" />
		<tag k="name" v="Fjærestad" />
		<tag k="place" v="farm" />
		<tag k="ssr:stedsnr" v="312506" />
	</node>
<<<<<<< HEAD
	<node lat="61.08707500326833" lon="6.579138887809423" id="-30953">
		<tag k="name" v="Vikøyri" />
		<tag k="place" v="village" />
		<tag k="ssr:stedsnr" v="312608" />
	</node>
	<node lat="61.15650278133834" lon="6.62817500878553" id="-30955">
		<tag k="alt_name" v="Kallvik" />
		<tag k="name" v="Kalvvik" />
		<tag k="place" v="farm" />
		<tag k="ssr:stedsnr" v="312812" />
	</node>
	<node lat="61.097477782068395" lon="6.774180553750775" id="-30959">
		<tag k="historic" v="shieling" />
		<tag k="name" v="Haugasete" />
		<tag k="place" v="isolated_dwelling" />
		<tag k="ssr:stedsnr" v="312761" />
	</node>
	<node lat="61.1197394885069" lon="6.770905210812431" id="-30966">
		<tag k="alt_name" v="Grindedal" />
		<tag k="fixme" v="consider place=hamlet" />
		<tag k="name" v="Grinddal" />
		<tag k="place" v="farm" />
		<tag k="ssr:stedsnr" v="313773" />
	</node>
	<node lat="61.08185833479152" lon="6.577555551140241" id="-30979">
		<tag k="amenity" v="school" />
		<tag k="name" v="Flatbygdi skule" />
		<tag k="ssr:stedsnr" v="339451" />
	</node>
	<node lat="61.048888886025615" lon="6.90541388019552" id="-30986">
		<tag k="name" v="Gardane" />
		<tag k="place" v="locality" />
		<tag k="ssr:stedsnr" v="339902" />
	</node>
	<node lat="61.08816666742229" lon="6.8802805573811705" id="-30988">
		<tag k="name" v="Juvik" />
		<tag k="place" v="farm" />
		<tag k="ssr:stedsnr" v="339996" />
	</node>
	<node lat="61.155413889203984" lon="6.629649995040886" id="-30993">
		<tag k="name" v="Vangsnes" />
		<tag k="place" v="isolated_dwelling" />
		<tag k="ssr:stedsnr" v="478981" />
	</node>
	<node lat="60.93342499678759" lon="6.19725000096345" id="-30995">
		<tag k="historic" v="shieling" />
		<tag k="name" v="Holmen" />
		<tag k="place" v="isolated_dwelling" />
		<tag k="ssr:stedsnr" v="372123" />
	</node>
	<node lat="61.04107499703487" lon="6.875091659802704" id="-31001">
		<tag k="historic" v="shieling" />
		<tag k="name" v="Engi" />
		<tag k="place" v="isolated_dwelling" />
		<tag k="ssr:stedsnr" v="373166" />
	</node>
	<node lat="61.09751440573567" lon="6.279332892902136" id="-31009">
		<tag k="fixme" v="consider place=hamlet" />
		<tag k="name" v="Hanekam" />
		<tag k="place" v="farm" />
		<tag k="ssr:stedsnr" v="373695" />
	</node>
	<node lat="61.1382055530111" lon="6.649872231325024" id="-31011">
		<tag k="name" v="Hola" />
		<tag k="place" v="locality" />
		<tag k="ssr:stedsnr" v="373817" />
	</node>
	<node lat="61.07289444471567" lon="6.595444449435749" id="-31013">
		<tag k="fixme" v="consider place=hamlet" />
		<tag k="name" v="Føli" />
		<tag k="place" v="farm" />
		<tag k="ssr:stedsnr" v="393803" />
	</node>
	<node lat="61.036361114131935" lon="6.625358324350647" id="-31014">
		<tag k="name" v="Stokkemarki" />
		<tag k="place" v="locality" />
		<tag k="ssr:stedsnr" v="398278" />
	</node>
	<node lat="61.053927774781506" lon="6.539661108071755" id="-31019">
		<tag k="name" v="Vetla Tistel" />
		<tag k="place" v="farm" />
		<tag k="ssr:stedsnr" v="400111" />
	</node>
	<node lat="61.07825848880336" lon="6.584140764609517" id="-31023">
		<tag k="fixme" v="consider place=hamlet" />
		<tag k="name" v="Vange" />
		<tag k="place" v="farm" />
		<tag k="ssr:stedsnr" v="400431" />
	</node>
	<node lat="60.9134583311601" lon="6.262975007670836" id="-31039">
		<tag k="fixme" v="consider tourism=alpine_hut or tourism=chalet" />
		<tag k="name" v="Selhamar" />
		<tag k="ssr:stedsnr" v="433586" />
		<tag k="tourism" v="wilderness_hut" />
	</node>
	<node lat="61.079547218421524" lon="6.737149995906938" id="-31043">
		<tag k="historic" v="shieling" />
		<tag k="name" v="Gullsete" />
		<tag k="place" v="isolated_dwelling" />
		<tag k="ssr:stedsnr" v="434223" />
	</node>
	<node lat="61.075833329151386" lon="6.8541472296994925" id="-31044">
		<tag k="name" v="Tuftene" />
		<tag k="place" v="locality" />
		<tag k="ssr:stedsnr" v="434225" />
	</node>
	<node lat="61.06050555381813" lon="6.540558339296746" id="-31047">
		<tag k="name" v="Myrane" />
		<tag k="place" v="farm" />
		<tag k="ssr:stedsnr" v="434472" />
	</node>
	<node lat="61.0502277802532" lon="6.585744449502603" id="-31048">
		<tag k="historic" v="shieling" />
		<tag k="name" v="Ovrisstølen" />
		<tag k="place" v="isolated_dwelling" />
		<tag k="ssr:stedsnr" v="434482" />
	</node>
	<node lat="61.00716060905574" lon="6.421405901216935" id="-31051">
		<tag k="fixme" v="consider place=hamlet" />
		<tag k="name" v="Holane" />
		<tag k="place" v="farm" />
		<tag k="ssr:stedsnr" v="434611" />
	</node>
	<node lat="61.00049684115675" lon="6.371306098739258" id="-31052">
		<tag k="fixme" v="consider place=hamlet" />
		<tag k="name" v="Hallsete" />
		<tag k="place" v="farm" />
		<tag k="ssr:stedsnr" v="434613" />
	</node>
	<node lat="61.053649997210016" lon="6.481924991345229" id="-31053">
		<tag k="historic" v="shieling" />
		<tag k="name" v="Unnardalen" />
		<tag k="place" v="isolated_dwelling" />
		<tag k="ssr:stedsnr" v="434566" />
	</node>
	<node lat="61.132586115187294" lon="6.83902221328884" id="-31059">
		<tag k="alt_name" v="Klegjasete" />
		<tag k="name" v="Kleggjasete" />
		<tag k="place" v="locality" />
		<tag k="ssr:stedsnr" v="434818" />
	</node>
	<node lat="61.172208331855835" lon="6.6403111069657035" id="-31061">
		<tag k="alt_name" v="Fritjovparken" />
		<tag k="leisure" v="park" />
		<tag k="name" v="Fridtjovsparken" />
		<tag k="ssr:stedsnr" v="434916" />
	</node>
	<node lat="61.12658610960369" lon="6.630455564103976" id="-31070">
		<tag k="name" v="Seltuftene" />
		<tag k="place" v="locality" />
		<tag k="ssr:stedsnr" v="494835" />
	</node>
	<node lat="61.06120000135443" lon="6.577311102300956" id="-31071">
		<tag k="historic" v="shieling" />
		<tag k="name" v="Vollastølen" />
		<tag k="place" v="isolated_dwelling" />
		<tag k="ssr:stedsnr" v="494489" />
	</node>
	<node lat="61.080207247190174" lon="6.489911248604942" id="-31072">
		<tag k="alt_name" v="Røyrvik" />
		<tag k="fixme" v="consider place=hamlet" />
		<tag k="name" v="Røyrviki" />
		<tag k="place" v="farm" />
		<tag k="ssr:stedsnr" v="494538" />
	</node>
	<node lat="61.0824250023103" lon="6.503025000914181" id="-31073">
		<tag k="name" v="Prestteigen" />
		<tag k="place" v="farm" />
		<tag k="ssr:stedsnr" v="494539" />
	</node>
	<node lat="61.02822499817083" lon="6.562536115556964" id="-31075">
		<tag k="historic" v="shieling" />
		<tag k="name" v="Undisstølen" />
		<tag k="place" v="isolated_dwelling" />
		<tag k="ssr:stedsnr" v="494493" />
	</node>
	<node lat="60.97536666908714" lon="6.490152784873198" id="-31078">
		<tag k="historic" v="shieling" />
		<tag k="name" v="Ygnisdalen" />
		<tag k="place" v="isolated_dwelling" />
		<tag k="ssr:stedsnr" v="494621" />
	</node>
	<node lat="60.97147499967394" lon="6.506874999260575" id="-31079">
		<tag k="name" v="Hestavollen" />
		<tag k="place" v="isolated_dwelling" />
		<tag k="ssr:stedsnr" v="494622" />
	</node>
	<node lat="61.08620587266354" lon="6.304877689117941" id="-31081">
		<tag k="fixme" v="consider place=hamlet" />
		<tag k="name" v="Kyrkjeteigen" />
		<tag k="place" v="farm" />
		<tag k="ssr:stedsnr" v="494640" />
	</node>
	<node lat="61.07577500444842" lon="6.617658336449446" id="-31087">
		<tag k="name" v="Giljagarden" />
		<tag k="place" v="locality" />
		<tag k="ssr:stedsnr" v="460022" />
	</node>
	<node lat="61.100136113842275" lon="6.20102499211333" id="-31093">
		<tag k="name" v="Stølane" />
		<tag k="place" v="locality" />
		<tag k="ssr:stedsnr" v="461531" />
	</node>
	<node lat="61.08196787350624" lon="6.914458878980788" id="-31110">
		<tag k="alt_name" v="Haukenes" />
		<tag k="fixme" v="consider place=hamlet" />
		<tag k="name" v="Haukanes" />
		<tag k="place" v="farm" />
		<tag k="ssr:stedsnr" v="676228" />
	</node>
	<node lat="61.03442672469895" lon="6.590515466931453" id="-31115">
		<tag k="fixme" v="consider place=hamlet" />
		<tag k="name" v="Rislåg" />
		<tag k="place" v="farm" />
		<tag k="ssr:stedsnr" v="676524" />
	</node>
	<node lat="61.09788888719027" lon="6.532180558224141" id="-31116">
		<tag k="name" v="Øygarden" />
		<tag k="place" v="farm" />
		<tag k="ssr:stedsnr" v="676619" />
	</node>
	<node lat="61.09627499629791" lon="6.547427785788187" id="-31117">
		<tag k="historic" v="shieling" />
		<tag k="name" v="Tubbesete" />
		<tag k="place" v="isolated_dwelling" />
		<tag k="ssr:stedsnr" v="676621" />
	</node>
	<node lat="60.98827499810489" lon="6.525008324591521" id="-31118">
		<tag k="historic" v="shieling" />
		<tag k="name" v="Målset" />
		<tag k="place" v="isolated_dwelling" />
		<tag k="ssr:stedsnr" v="676630" />
	</node>
	<node lat="61.06867500368013" lon="6.40739166730934" id="-31121">
		<tag k="alt_name" v="Hustavenes" />
		<tag k="name" v="Husstavenes" />
		<tag k="place" v="farm" />
		<tag k="ssr:stedsnr" v="676573" />
	</node>
	<node lat="60.99091639062086" lon="6.432917256802854" id="-31125">
		<tag k="fixme" v="consider place=hamlet" />
		<tag k="name" v="Dale" />
		<tag k="place" v="farm" />
		<tag k="ssr:stedsnr" v="676662" />
	</node>
	<node lat="61.038474999214934" lon="6.654055562785778" id="-31133">
		<tag k="name" v="Setebakken" />
		<tag k="place" v="locality" />
		<tag k="ssr:stedsnr" v="677155" />
	</node>
	<node lat="61.070591664621595" lon="6.936622225011691" id="-31139">
		<tag k="name" v="Seim" />
		<tag k="place" v="farm" />
		<tag k="ssr:stedsnr" v="478004" />
	</node>
	<node lat="61.01208055750282" lon="6.353830557246463" id="-31145">
		<tag k="name" v="Tenne" />
		<tag k="place" v="farm" />
		<tag k="ssr:stedsnr" v="677610" />
	</node>
	<node lat="61.12229444769061" lon="6.796277780992108" id="-31147">
		<tag k="historic" v="shieling" />
		<tag k="name" v="Vidasete" />
		<tag k="place" v="isolated_dwelling" />
		<tag k="ssr:stedsnr" v="677755" />
	</node>
	<node lat="61.126091402199" lon="6.733297924865811" id="-31148">
		<tag k="fixme" v="consider place=hamlet" />
		<tag k="name" v="Bergheim" />
		<tag k="place" v="farm" />
		<tag k="ssr:stedsnr" v="677853" />
	</node>
	<node lat="61.130524250401876" lon="6.751162960918111" id="-31149">
		<tag k="alt_name" v="Tjønn" />
		<tag k="fixme" v="consider place=hamlet" />
		<tag k="name" v="Tjørn" />
		<tag k="place" v="farm" />
		<tag k="ssr:stedsnr" v="677855" />
	</node>
	<node lat="61.056308335271275" lon="6.817261110742584" id="-31156">
		<tag k="alt_name" v="Heljedalen" />
		<tag k="name" v="Helgedalen" />
		<tag k="place" v="locality" />
		<tag k="ssr:stedsnr" v="494166" />
	</node>
	<node lat="61.07151875763941" lon="6.940877675609329" id="-31157">
		<tag k="fixme" v="consider place=hamlet" />
		<tag k="name" v="Skau" />
		<tag k="place" v="farm" />
		<tag k="ssr:stedsnr" v="494170" />
	</node>
	<node lat="61.072806905286555" lon="6.932768757489459" id="-31158">
		<tag k="fixme" v="consider place=hamlet" />
		<tag k="name" v="Grundeland" />
		<tag k="place" v="farm" />
		<tag k="ssr:stedsnr" v="494173" />
	</node>
	<node lat="61.09038333510205" lon="6.878627786390117" id="-31163">
		<tag k="alt_name" v="Kolåsstrandi" />
		<tag k="name" v="Kolåsstrondi" />
		<tag k="place" v="locality" />
		<tag k="ssr:stedsnr" v="494208" />
	</node>
	<node lat="61.17444722592686" lon="6.635233333231333" id="-31169">
		<tag k="fixme" v="consider place=hamlet" />
		<tag k="name" v="Vangsnes" />
		<tag k="place" v="village" />
		<tag k="ssr:stedsnr" v="494927" />
	</node>
	<node lat="61.05530555337914" lon="6.532738884800686" id="-31181">
		<tag k="name" v="Brennene" />
		<tag k="place" v="farm" />
		<tag k="ssr:stedsnr" v="521004" />
	</node>
	<node lat="61.13258055609215" lon="6.620430548197474" id="-31186">
		<tag k="name" v="Myri" />
		<tag k="place" v="farm" />
		<tag k="ssr:stedsnr" v="521310" />
	</node>
	<node lat="61.085055554575796" lon="6.5359666722628145" id="-31187">
		<tag k="name" v="Seltuftene" />
		<tag k="place" v="locality" />
		<tag k="ssr:stedsnr" v="521409" />
	</node>
	<node lat="61.14490105569989" lon="6.8143158781889275" id="-31199">
		<tag k="fixme" v="consider place=hamlet" />
		<tag k="name" v="Ytre Borlaug" />
		<tag k="place" v="farm" />
		<tag k="ssr:stedsnr" v="540104" />
	</node>
	<node lat="61.04401666570589" lon="6.979463885306169" id="-31204">
		<tag k="alt_name" v="Grønlid" />
		<tag k="name" v="Grønli" />
		<tag k="place" v="farm" />
		<tag k="ssr:stedsnr" v="554432" />
	</node>
	<node lat="60.98374722207165" lon="6.54382777642363" id="-31205">
		<tag k="historic" v="shieling" />
		<tag k="name" v="Ovrisfjell" />
		<tag k="old_name" v="Øvrisfjell" />
		<tag k="place" v="isolated_dwelling" />
		<tag k="ssr:stedsnr" v="554670" />
	</node>
	<node lat="60.97654444216576" lon="6.522299995726856" id="-31207">
		<tag k="historic" v="shieling" />
		<tag k="name" v="Fosse" />
		<tag k="place" v="isolated_dwelling" />
		<tag k="ssr:stedsnr" v="554686" />
	</node>
	<node lat="61.03535000085676" lon="6.636213886627975" id="-31212">
		<tag k="historic" v="shieling" />
		<tag k="name" v="Hang" />
		<tag k="place" v="isolated_dwelling" />
		<tag k="ssr:stedsnr" v="555117" />
	</node>
	<node lat="61.06013611040841" lon="6.919141665499229" id="-31213">
		<tag k="name" v="Grindane" />
		<tag k="place" v="farm" />
		<tag k="ssr:stedsnr" v="555170" />
	</node>
	<node lat="61.04475719220911" lon="6.586436049626821" id="-31218">
		<tag k="fixme" v="consider place=hamlet" />
		<tag k="name" v="Hallrynjo" />
		<tag k="place" v="farm" />
		<tag k="ssr:stedsnr" v="555466" />
	</node>
	<node lat="61.13968332943638" lon="6.638763892807676" id="-31221">
		<tag k="alt_name" v="Haugsete" />
		<tag k="name" v="Hangsete" />
		<tag k="place" v="locality" />
		<tag k="ssr:stedsnr" v="555808" />
	</node>
	<node lat="61.033899997369076" lon="6.588608341566715" id="-31222">
		<tag k="name" v="Gamle Rislåg" />
		<tag k="place" v="farm" />
		<tag k="ssr:stedsnr" v="580215" />
	</node>
	<node lat="61.07395000315157" lon="6.6157361183219905" id="-31228">
		<tag k="historic" v="shieling" />
		<tag k="name" v="Stadheimsstølen" />
		<tag k="place" v="isolated_dwelling" />
		<tag k="ssr:stedsnr" v="581011" />
	</node>
	<node lat="61.06305832937424" lon="6.53557777413864" id="-31235">
		<tag k="name" v="Holene" />
		<tag k="place" v="farm" />
		<tag k="ssr:stedsnr" v="582472" />
	</node>
	<node lat="61.021157232838945" lon="6.4081854596783945" id="-31242">
		<tag k="fixme" v="consider place=hamlet" />
		<tag k="name" v="Bungane" />
		<tag k="place" v="farm" />
		<tag k="ssr:stedsnr" v="696794" />
	</node>
	<node lat="60.99555833632112" lon="6.42277778624501" id="-31247">
		<tag k="name" v="Byrje" />
		<tag k="place" v="locality" />
		<tag k="ssr:stedsnr" v="701175" />
	</node>
	<node lat="60.97929722160422" lon="6.683430556468396" id="-31254">
		<tag k="historic" v="shieling" />
		<tag k="name" v="Vikjadalen" />
		<tag k="place" v="isolated_dwelling" />
		<tag k="ssr:stedsnr" v="614915" />
	</node>
	<node lat="60.9769500042588" lon="6.720586112739931" id="-31255">
		<tag k="historic" v="shieling" />
		<tag k="name" v="Øvstedalen" />
		<tag k="place" v="isolated_dwelling" />
		<tag k="ssr:stedsnr" v="614916" />
	</node>
	<node lat="61.078241664531845" lon="6.617900004966922" id="-31259">
		<tag k="historic" v="shieling" />
		<tag k="name" v="Nysel" />
		<tag k="place" v="isolated_dwelling" />
		<tag k="ssr:stedsnr" v="615211" />
	</node>
	<node lat="61.06743611426774" lon="6.6041999915404475" id="-31260">
		<tag k="name" v="Neipe" />
		<tag k="place" v="farm" />
		<tag k="ssr:stedsnr" v="615214" />
	</node>
	<node lat="60.996701052307685" lon="6.360000671421218" id="-31268">
		<tag k="fixme" v="consider place=hamlet" />
		<tag k="name" v="Kjelven" />
		<tag k="place" v="farm" />
		<tag k="ssr:stedsnr" v="615653" />
	</node>
	<node lat="61.00729444214343" lon="6.368416659464208" id="-31271">
		<tag k="alt_name" v="Åsberge" />
		<tag k="name" v="Åsberget" />
		<tag k="place" v="farm" />
		<tag k="ssr:stedsnr" v="615593" />
	</node>
	<node lat="61.00268880843474" lon="6.416095339370248" id="-31272">
		<tag k="fixme" v="consider place=hamlet" />
		<tag k="name" v="Flete" />
		<tag k="place" v="farm" />
		<tag k="ssr:stedsnr" v="615597" />
	</node>
	<node lat="61.10963610820418" lon="6.745336119697824" id="-31279">
		<tag k="historic" v="shieling" />
		<tag k="name" v="Nyasete" />
		<tag k="place" v="isolated_dwelling" />
		<tag k="ssr:stedsnr" v="616816" />
	</node>
	<node lat="61.06879721973944" lon="6.314827771620289" id="-31306">
		<tag k="name" v="Mortelægja" />
		<tag k="place" v="locality" />
		<tag k="ssr:stedsnr" v="704898" />
	</node>
	<node lat="61.04591211017227" lon="6.400989004718678" id="-31331">
		<tag k="fixme" v="consider place=hamlet" />
		<tag k="name" v="Otterskreda" />
		<tag k="place" v="farm" />
		<tag k="ssr:stedsnr" v="658443" />
	</node>
	<node lat="61.055683333357635" lon="6.528941667415752" id="-31335">
		<tag k="name" v="Furehaug" />
		<tag k="place" v="farm" />
		<tag k="ssr:stedsnr" v="676514" />
	</node>
	<node lat="61.06937695129314" lon="6.570794825648073" id="-31337">
		<tag k="fixme" v="consider place=hamlet" />
		<tag k="name" v="Holstad" />
		<tag k="place" v="farm" />
		<tag k="ssr:stedsnr" v="676518" />
	</node>
	<node lat="61.05239051818155" lon="6.622421238746007" id="-31345">
		<tag k="alt_name" v="Nummedal, store" />
		<tag k="fixme" v="consider place=hamlet" />
		<tag k="name" v="Store Nummedal" />
		<tag k="place" v="farm" />
		<tag k="ssr:stedsnr" v="677182" />
	</node>
	<node lat="61.04143888912173" lon="6.665577774381485" id="-31347">
		<tag k="name" v="Bruavollstølen" />
		<tag k="place" v="locality" />
		<tag k="ssr:stedsnr" v="677193" />
	</node>
	<node lat="61.04965313062674" lon="6.630354353564248" id="-31349">
		<tag k="alt_name" v="Nummedal, vesle" />
		<tag k="fixme" v="consider place=hamlet" />
		<tag k="name" v="Vetle Nummedal" />
		<tag k="place" v="farm" />
		<tag k="ssr:stedsnr" v="677197" />
	</node>
	<node lat="61.05791759466025" lon="7.010693680218329" id="-31351">
		<tag k="fixme" v="consider place=hamlet" />
		<tag k="name" v="Simlenes" />
		<tag k="place" v="farm" />
		<tag k="ssr:stedsnr" v="677411" />
	</node>
	<node lat="61.05841647567865" lon="6.980503370203141" id="-31352">
		<tag k="alt_name" v="Svea" />
		<tag k="fixme" v="consider place=hamlet" />
		<tag k="name" v="Svida" />
		<tag k="place" v="farm" />
		<tag k="ssr:stedsnr" v="677413" />
	</node>
	<node lat="61.04918611057028" lon="6.243894449549101" id="-31354">
		<tag k="historic" v="shieling" />
		<tag k="name" v="Fagerdalen" />
		<tag k="place" v="isolated_dwelling" />
		<tag k="ssr:stedsnr" v="677577" />
	</node>
	<node lat="61.11918888576991" lon="6.639827775625287" id="-31357">
		<tag k="historic" v="shieling" />
		<tag k="name" v="Kongsli" />
		<tag k="place" v="isolated_dwelling" />
		<tag k="ssr:stedsnr" v="677790" />
	</node>
	<node lat="61.1446422473969" lon="6.8324719322120355" id="-31360">
		<tag k="fixme" v="consider place=hamlet" />
		<tag k="name" v="Indre Borlaug" />
		<tag k="place" v="farm" />
		<tag k="ssr:stedsnr" v="677882" />
	</node>
	<node lat="61.0756648306351" lon="6.593786761830503" id="-31362">
		<tag k="fixme" v="consider place=hamlet" />
		<tag k="name" v="Tenål" />
		<tag k="place" v="farm" />
		<tag k="ssr:stedsnr" v="696809" />
	</node>
	<node lat="61.04098333355057" lon="6.385752770934726" id="-31370">
		<tag k="name" v="Johalsen" />
		<tag k="place" v="locality" />
		<tag k="ssr:stedsnr" v="704508" />
	</node>
	<node lat="60.97938166238126" lon="6.7377046574339206" id="-31376">
		<tag k="fixme" v="consider tourism=alpine_hut or tourism=chalet" />
		<tag k="name" v="Jashaugbu" />
		<tag k="ssr:stedsnr" v="725446" />
		<tag k="tourism" v="wilderness_hut" />
	</node>
	<node lat="61.07146495979397" lon="6.934998030914687" id="-31386">
		<tag k="fixme" v="consider place=hamlet" />
		<tag k="name" v="Bjørnetun" />
		<tag k="place" v="farm" />
		<tag k="ssr:stedsnr" v="737184" />
	</node>
	<node lat="61.01616388923935" lon="6.177369438660665" id="-31387">
		<tag k="alt_name" v="Ålrekstølen" />
		<tag k="historic" v="shieling" />
		<tag k="name" v="Vøvringen" />
		<tag k="place" v="isolated_dwelling" />
		<tag k="ssr:stedsnr" v="737305" />
	</node>
	<node lat="61.05662500152002" lon="6.449516674377176" id="-31390">
		<tag k="historic" v="shieling" />
		<tag k="name" v="Skoddesete" />
		<tag k="place" v="isolated_dwelling" />
		<tag k="ssr:stedsnr" v="737577" />
	</node>
	<node lat="61.14365833147489" lon="6.807049997057773" id="-31393">
		<tag k="name" v="Hjelmaneset" />
		<tag k="place" v="farm" />
		<tag k="ssr:stedsnr" v="737819" />
	</node>
	<node lat="61.133311109584795" lon="6.623672220598012" id="-31394">
		<tag k="name" v="Øygarden" />
		<tag k="place" v="locality" />
		<tag k="ssr:stedsnr" v="737828" />
	</node>
	<node lat="61.14366944685238" lon="6.746422225556024" id="-31398">
		<tag k="name" v="Håar" />
		<tag k="place" v="farm" />
		<tag k="ssr:stedsnr" v="904087" />
	</node>
	<node lat="61.04372222100857" lon="6.529863880982079" id="-31406">
		<tag k="name" v="Innlegdi" />
		<tag k="place" v="locality" />
		<tag k="ssr:stedsnr" v="763106" />
	</node>
	<node lat="60.986352215562945" lon="6.439593953242839" id="-31424">
		<tag k="fixme" v="consider place=hamlet" />
		<tag k="name" v="Sandbakken" />
		<tag k="place" v="farm" />
		<tag k="ssr:stedsnr" v="797695" />
	</node>
	<node lat="61.03966110683538" lon="6.657783330996861" id="-31426">
		<tag k="alt_name" v="Holen" />
		<tag k="name" v="Hola" />
		<tag k="place" v="farm" />
		<tag k="ssr:stedsnr" v="798152" />
	</node>
	<node lat="61.04694166359792" lon="6.895313894809367" id="-31427">
		<tag k="alt_name" v="Holegarden" />
		<tag k="name" v="Holegard" />
		<tag k="place" v="locality" />
		<tag k="ssr:stedsnr" v="798155" />
	</node>
	<node lat="61.07489999979211" lon="6.309566673787939" id="-31432">
		<tag k="alt_name" v="Smørklett" />
		<tag k="historic" v="shieling" />
		<tag k="name" v="Smørklepp" />
		<tag k="place" v="isolated_dwelling" />
		<tag k="ssr:stedsnr" v="798650" />
	</node>
	<node lat="61.056088886339964" lon="6.998391674794643" id="-31434">
		<tag k="name" v="Solheim" />
		<tag k="place" v="farm" />
		<tag k="ssr:stedsnr" v="798394" />
	</node>
	<node lat="61.03971666969961" lon="6.257091659060642" id="-31436">
		<tag k="historic" v="shieling" />
		<tag k="name" v="Botnastølen" />
		<tag k="place" v="isolated_dwelling" />
		<tag k="ssr:stedsnr" v="798550" />
	</node>
	<node lat="61.02560810870288" lon="6.404533138511897" id="-31439">
		<tag k="fixme" v="consider place=hamlet" />
		<tag k="name" v="Nissestad" />
		<tag k="place" v="farm" />
		<tag k="ssr:stedsnr" v="798561" />
	</node>
	<node lat="61.166799999429806" lon="6.63922778343501" id="-31441">
		<tag k="name" v="Midttun" />
		<tag k="place" v="farm" />
		<tag k="ssr:stedsnr" v="798898" />
	</node>
	<node lat="61.109980557166324" lon="6.765544451440297" id="-31444">
		<tag k="name" v="Bruasete" />
		<tag k="place" v="locality" />
		<tag k="ssr:stedsnr" v="798752" />
	</node>
	<node lat="61.08367222675417" lon="6.628380557947076" id="-31448">
		<tag k="alt_name" v="Ramsbera" />
		<tag k="historic" v="shieling" />
		<tag k="name" v="Rambera" />
		<tag k="place" v="isolated_dwelling" />
		<tag k="ssr:stedsnr" v="919219" />
	</node>
	<node lat="61.14212221817631" lon="6.7518444394481865" id="-31451">
		<tag k="name" v="Brennehagen" />
		<tag k="place" v="locality" />
		<tag k="ssr:stedsnr" v="919855" />
	</node>
	<node lat="61.04485521234032" lon="6.638513797326854" id="-31456">
		<tag k="fixme" v="consider place=hamlet" />
		<tag k="name" v="Seljestø" />
		<tag k="place" v="farm" />
		<tag k="ssr:stedsnr" v="919191" />
	</node>
	<node lat="61.08838055745854" lon="6.589447219843285" id="-31457">
		<tag k="name" v="Sandvollen" />
		<tag k="place" v="farm" />
		<tag k="ssr:stedsnr" v="919507" />
	</node>
	<node lat="61.066400000664935" lon="6.589408335200666" id="-31458">
=======
	<node id="-669482" lat="61.0438774327" lon="6.64054638688">
		<tag k="fixme" v="consider place=hamlet" />
		<tag k="name" v="Turvoll" />
		<tag k="place" v="farm" />
		<tag k="ssr:stedsnr" v="216380" />
	</node>
	<node id="-669474" lat="61.0056517998" lon="6.41517382994">
		<tag k="fixme" v="consider place=hamlet" />
		<tag k="name" v="Ådlane" />
		<tag k="place" v="farm" />
		<tag k="ssr:stedsnr" v="211790" />
	</node>
	<node id="-669468" lat="61.082036112" lon="6.61258888127">
		<tag k="historic" v="shieling" />
		<tag k="name" v="Hangsete" />
		<tag k="place" v="locality" />
		<tag k="ssr:stedsnr" v="191750" />
	</node>
	<node id="-669461" lat="61.0513805517" lon="6.29462500682">
		<tag k="historic" v="shieling" />
		<tag k="name" v="Skjemmedalen" />
		<tag k="place" v="locality" />
		<tag k="ssr:stedsnr" v="191545" />
	</node>
	<node id="-669458" lat="61.0318228423" lon="6.57626988878">
		<tag k="alt_name" v="Refsdaltuni" />
		<tag k="fixme" v="consider place=hamlet" />
		<tag k="name" v="Refsdal" />
		<tag k="place" v="farm" />
		<tag k="ssr:stedsnr" v="191488" />
	</node>
	<node id="-669457" lat="61.0728806982" lon="6.56952822338">
		<tag k="fixme" v="consider place=hamlet" />
		<tag k="name" v="Hønsi" />
		<tag k="place" v="farm" />
		<tag k="ssr:stedsnr" v="191477" />
	</node>
	<node id="-669450" lat="61.0476744328" lon="6.61481367022">
		<tag k="fixme" v="consider place=hamlet" />
		<tag k="name" v="Åse" />
		<tag k="place" v="farm" />
		<tag k="ssr:stedsnr" v="191178" />
	</node>
	<node id="-669449" lat="61.0468478511" lon="6.64053297058">
		<tag k="fixme" v="consider place=hamlet" />
		<tag k="name" v="Grønsberg" />
		<tag k="place" v="farm" />
		<tag k="ssr:stedsnr" v="191174" />
	</node>
	<node id="-669448" lat="61.0437611111" lon="6.66275832511">
		<tag k="alt_name" v="Skår" />
		<tag k="historic" v="shieling" />
		<tag k="name" v="Skor" />
		<tag k="place" v="locality" />
		<tag k="ssr:stedsnr" v="191172" />
	</node>
	<node id="-669447" lat="61.0551989375" lon="6.61150401027">
		<tag k="fixme" v="consider place=hamlet" />
		<tag k="name" v="Fosse" />
		<tag k="place" v="farm" />
		<tag k="ssr:stedsnr" v="191159" />
	</node>
	<node id="-669443" lat="60.9959166658" lon="6.76130277742">
		<tag k="name" v="Fresvikvarden" />
		<tag k="place" v="locality" />
		<tag k="ssr:stedsnr" v="190935" />
	</node>
	<node id="-669442" lat="60.9559361142" lon="6.71760276938">
		<tag k="historic" v="shieling" />
		<tag k="name" v="Preststølen" />
		<tag k="place" v="locality" />
		<tag k="ssr:stedsnr" v="190911" />
	</node>
	<node id="-669441" lat="60.9978527441" lon="6.43108807016">
		<tag k="fixme" v="consider place=hamlet" />
		<tag k="name" v="Le" />
		<tag k="place" v="farm" />
		<tag k="ssr:stedsnr" v="190699" />
	</node>
	<node id="-669432" lat="61.0993027752" lon="6.28307500244">
		<tag k="name" v="Bjørkevik" />
		<tag k="place" v="isolated_dwelling" />
		<tag k="ssr:stedsnr" v="162892" />
	</node>
	<node id="-669420" lat="61.0954972231" lon="6.23016389103">
		<tag k="name" v="Vårstølen" />
		<tag k="place" v="locality" />
		<tag k="ssr:stedsnr" v="157852" />
	</node>
	<node id="-669413" lat="61.0557611079" lon="6.91733888408">
		<tag k="name" v="Bruavoll" />
		<tag k="place" v="farm" />
		<tag k="ssr:stedsnr" v="157667" />
	</node>
	<node id="-669406" lat="61.1041916642" lon="6.18413332806">
		<tag k="loc_name" v="Frikstølen" />
		<tag k="name" v="Erikstølen" />
		<tag k="place" v="locality" />
		<tag k="ssr:stedsnr" v="157451" />
	</node>
	<node id="-669400" lat="61.0543777821" lon="6.52159999325">
		<tag k="historic" v="shieling" />
		<tag k="name" v="Furehaugstølen" />
		<tag k="place" v="locality" />
		<tag k="ssr:stedsnr" v="157323" />
	</node>
	<node id="-669385" lat="61.1472859202" lon="6.82079750486">
		<tag k="name" v="Bårlog" />
		<tag k="place" v="hamlet" />
		<tag k="ssr:stedsnr" v="155675" />
	</node>
	<node id="-669379" lat="61.0061356801" lon="6.41670736759">
		<tag k="name" v="Hauglum" />
		<tag k="place" v="farm" />
		<tag k="ssr:stedsnr" v="155165" />
	</node>
	<node id="-669376" lat="61.0200833367" lon="6.38157500826">
		<tag k="alt_name" v="Leite" />
		<tag k="name" v="Leitet" />
		<tag k="place" v="farm" />
		<tag k="ssr:stedsnr" v="131591" />
	</node>
	<node id="-669375" lat="61.0209861073" lon="6.37899999647">
		<tag k="name" v="Haugen" />
		<tag k="place" v="farm" />
		<tag k="ssr:stedsnr" v="131590" />
	</node>
	<node id="-669374" lat="61.1409027803" lon="6.8183138929">
		<tag k="name" v="Smørdal" />
		<tag k="place" v="locality" />
		<tag k="ssr:stedsnr" v="130843" />
	</node>
	<node id="-669373" lat="61.1391805542" lon="6.72205000902">
		<tag k="alt_name" v="Hoveklunken" />
		<tag k="historic" v="shieling" />
		<tag k="name" v="Håakluken" />
		<tag k="place" v="locality" />
		<tag k="ssr:stedsnr" v="130830" />
	</node>
	<node id="-669370" lat="61.1586527737" lon="6.64907499281">
		<tag k="alt_name" v="Gostøl" />
		<tag k="name" v="Godstøl" />
		<tag k="place" v="locality" />
		<tag k="ssr:stedsnr" v="130792" />
	</node>
	<node id="-669367" lat="61.1437700352" lon="6.7446937822">
		<tag k="alt_name" v="Hove" />
		<tag k="fixme" v="consider place=hamlet" />
		<tag k="name" v="Håane" />
		<tag k="place" v="farm" />
		<tag k="ssr:stedsnr" v="130771" />
	</node>
	<node id="-669361" lat="61.046617786" lon="6.30456491084">
		<tag k="fixme" v="consider place=hamlet" />
		<tag k="name" v="Finnen" />
		<tag k="place" v="farm" />
		<tag k="ssr:stedsnr" v="130561" />
	</node>
	<node id="-669359" lat="61.0755749972" lon="6.4842250002">
		<tag k="historic" v="shieling" />
		<tag k="name" v="Klimpen" />
		<tag k="place" v="locality" />
		<tag k="ssr:stedsnr" v="130546" />
	</node>
	<node id="-669358" lat="61.0804320368" lon="6.46065594791">
		<tag k="fixme" v="consider place=hamlet" />
		<tag k="name" v="Limmesand" />
		<tag k="old_name" v="Limesand" />
		<tag k="place" v="farm" />
		<tag k="ssr:stedsnr" v="130545" />
	</node>
	<node id="-669357" lat="61.050487691" lon="6.53745280173">
		<tag k="fixme" v="consider place=hamlet" />
		<tag k="name" v="Espesete" />
		<tag k="place" v="farm" />
		<tag k="ssr:stedsnr" v="130470" />
	</node>
	<node id="-669356" lat="61.0595194444" lon="6.57095277152">
		<tag k="historic" v="shieling" />
		<tag k="name" v="Holstadstølen" />
		<tag k="place" v="locality" />
		<tag k="ssr:stedsnr" v="130468" />
	</node>
	<node id="-669355" lat="61.0729722231" lon="6.53433889135">
		<tag k="alt_name" v="Bøstølen" />
		<tag k="historic" v="shieling" />
		<tag k="name" v="Bøastølen" />
		<tag k="place" v="locality" />
		<tag k="ssr:stedsnr" v="130461" />
	</node>
	<node id="-669344" lat="61.0499208029" lon="6.59652886253">
		<tag k="fixme" v="consider place=hamlet" />
		<tag k="name" v="Ovri" />
		<tag k="place" v="farm" />
		<tag k="ssr:stedsnr" v="130185" />
	</node>
	<node id="-669343" lat="61.0686217762" lon="6.93350394583">
		<tag k="fixme" v="consider place=hamlet" />
		<tag k="name" v="Bøtun" />
		<tag k="place" v="farm" />
		<tag k="ssr:stedsnr" v="130172" />
	</node>
	<node id="-669342" lat="61.0406593205" lon="6.59786229923">
		<tag k="fixme" v="consider place=hamlet" />
		<tag k="name" v="Gullteigane" />
		<tag k="place" v="farm" />
		<tag k="ssr:stedsnr" v="130147" />
	</node>
	<node id="-669341" lat="61.0512083361" lon="6.93843610883">
		<tag k="name" v="Skredgarden" />
		<tag k="place" v="farm" />
		<tag k="ssr:stedsnr" v="130145" />
	</node>
	<node id="-669320" lat="61.0605416694" lon="6.5372805599">
		<tag k="name" v="Hagen" />
		<tag k="place" v="farm" />
		<tag k="ssr:stedsnr" v="97473" />
	</node>
	<node id="-669319" lat="61.0821690667" lon="6.58577096194">
		<tag k="name" v="Tillischgarden" />
		<tag k="place" v="farm" />
		<tag k="ssr:stedsnr" v="97465" />
	</node>
	<node id="-669307" lat="61.0406388883" lon="6.61997778291">
		<tag k="name" v="Hansslåttene" />
		<tag k="place" v="locality" />
		<tag k="ssr:stedsnr" v="95287" />
	</node>
	<node id="-669303" lat="61.0461416705" lon="6.63447499839">
		<tag k="name" v="Nummedalsreset" />
		<tag k="place" v="farm" />
		<tag k="ssr:stedsnr" v="95343" />
	</node>
	<node id="-669300" lat="61.1204413658" lon="6.77987069533">
		<tag k="alt_name" v="Sætre" />
		<tag k="fixme" v="consider place=hamlet" />
		<tag k="name" v="Sætrane" />
		<tag k="place" v="farm" />
		<tag k="ssr:stedsnr" v="70756" />
	</node>
	<node id="-669298" lat="61.1303944461" lon="6.77803055811">
		<tag k="name" v="Hola" />
		<tag k="place" v="locality" />
		<tag k="ssr:stedsnr" v="70836" />
	</node>
	<node id="-669297" lat="61.1333667948" lon="6.75653136526">
		<tag k="alt_name" v="Dræge" />
		<tag k="fixme" v="consider place=hamlet" />
		<tag k="name" v="Dregane" />
		<tag k="place" v="farm" />
		<tag k="ssr:stedsnr" v="70835" />
	</node>
	<node id="-669296" lat="61.1240555572" lon="6.63612222334">
		<tag k="historic" v="shieling" />
		<tag k="name" v="Mytingen" />
		<tag k="place" v="locality" />
		<tag k="ssr:stedsnr" v="70830" />
	</node>
	<node id="-669290" lat="61.0698427263" lon="6.54706445928">
		<tag k="fixme" v="consider place=hamlet" />
		<tag k="name" v="Bø" />
		<tag k="place" v="farm" />
		<tag k="ssr:stedsnr" v="70476" />
	</node>
	<node id="-669289" lat="61.0171973587" lon="6.3758370691">
		<tag k="name" v="Kråna" />
		<tag k="place" v="farm" />
		<tag k="ssr:stedsnr" v="70596" />
	</node>
	<node id="-669281" lat="61.0413749995" lon="6.96872500707">
		<tag k="name" v="Skard" />
		<tag k="place" v="farm" />
		<tag k="ssr:stedsnr" v="70389" />
	</node>
	<node id="-669280" lat="61.0594358993" lon="6.92661692542">
		<tag k="alt_name" v="Flæte" />
		<tag k="fixme" v="consider place=hamlet" />
		<tag k="name" v="Fletene" />
		<tag k="place" v="farm" />
		<tag k="ssr:stedsnr" v="70199" />
	</node>
	<node id="-669279" lat="61.0693083322" lon="6.93744443774">
		<tag k="name" v="Holmen" />
		<tag k="place" v="farm" />
		<tag k="ssr:stedsnr" v="70176" />
	</node>
	<node id="-669277" lat="61.0500972184" lon="6.9302472298">
		<tag k="alt_name" v="Åva" />
		<tag k="name" v="Åvad" />
		<tag k="place" v="isolated_dwelling" />
		<tag k="ssr:stedsnr" v="70146" />
	</node>
	<node id="-669272" lat="61.0646055586" lon="6.60205834212">
		<tag k="name" v="Hagen" />
		<tag k="place" v="farm" />
		<tag k="ssr:stedsnr" v="70203" />
	</node>
	<node id="-669271" lat="60.9337944416" lon="6.75331945095">
		<tag k="historic" v="shieling" />
		<tag k="name" v="Breidalen" />
		<tag k="place" v="locality" />
		<tag k="ssr:stedsnr" v="69892" />
	</node>
	<node id="-669267" lat="61.0344083366" lon="6.1820249985">
		<tag k="historic" v="shieling" />
		<tag k="name" v="Hanekambstølen" />
		<tag k="place" v="locality" />
		<tag k="ssr:stedsnr" v="69341" />
	</node>
	<node id="-669265" lat="61.0318472241" lon="6.59401667428">
		<tag k="name" v="Stølsgardane" />
		<tag k="place" v="locality" />
		<tag k="ssr:stedsnr" v="69191" />
	</node>
	<node id="-669264" lat="61.0234694485" lon="6.59459444807">
		<tag k="historic" v="shieling" />
		<tag k="name" v="Fossen" />
		<tag k="place" v="locality" />
		<tag k="ssr:stedsnr" v="69190" />
	</node>
	<node id="-669263" lat="61.0411749977" lon="6.96675555706">
		<tag k="historic" v="shieling" />
		<tag k="name" v="Skard" />
		<tag k="place" v="locality" />
		<tag k="ssr:stedsnr" v="69189" />
	</node>
	<node id="-669260" lat="61.1043388912" lon="6.21117776997">
		<tag k="name" v="Slåttene" />
		<tag k="place" v="farm" />
		<tag k="ssr:stedsnr" v="68463" />
	</node>
	<node id="-669258" lat="61.0937993682" lon="6.29101684418">
		<tag k="fixme" v="consider place=hamlet" />
		<tag k="name" v="Sylvarnes" />
		<tag k="place" v="farm" />
		<tag k="ssr:stedsnr" v="60662" />
	</node>
	<node id="-669246" lat="61.0782083366" lon="6.57473334182">
		<tag k="name" v="Gildhus" />
		<tag k="place" v="farm" />
		<tag k="ssr:stedsnr" v="36435" />
	</node>
	<node id="-669245" lat="61.0696972261" lon="6.58015278359">
		<tag k="name" v="Øvre Hove" />
		<tag k="place" v="farm" />
		<tag k="ssr:stedsnr" v="36401" />
	</node>
	<node id="-669242" lat="61.0808750036" lon="6.55963888109">
		<tag k="name" v="Skogengi" />
		<tag k="place" v="locality" />
		<tag k="ssr:stedsnr" v="36359" />
	</node>
	<node id="-669234" lat="61.1487130346" lon="6.7503808643">
		<tag k="fixme" v="consider place=hamlet" />
		<tag k="name" v="Osen" />
		<tag k="place" v="farm" />
		<tag k="ssr:stedsnr" v="36073" />
	</node>
	<node id="-669228" lat="61.0212499973" lon="6.56424167348">
		<tag k="historic" v="shieling" />
		<tag k="name" v="Dalastølane" />
		<tag k="place" v="locality" />
		<tag k="ssr:stedsnr" v="34472" />
	</node>
	<node id="-669227" lat="61.0209611071" lon="6.55545277347">
		<tag k="historic" v="shieling" />
		<tag k="name" v="Jostølen" />
		<tag k="place" v="locality" />
		<tag k="ssr:stedsnr" v="34468" />
	</node>
	<node id="-669215" lat="61.1017250015" lon="6.24370000333">
		<tag k="name" v="Indrebø" />
		<tag k="place" v="farm" />
		<tag k="ssr:stedsnr" v="9680" />
	</node>
	<node id="-669212" lat="60.9634583365" lon="6.40354999954">
		<tag k="name" v="Nonhaugen" />
		<tag k="place" v="isolated_dwelling" />
		<tag k="ssr:stedsnr" v="9658" />
	</node>
	<node id="-669209" lat="60.9552500043" lon="6.37946111793">
		<tag k="historic" v="shieling" />
		<tag k="name" v="Bjergane" />
		<tag k="place" v="locality" />
		<tag k="ssr:stedsnr" v="9648" />
	</node>
	<node id="-669207" lat="61.0387490058" lon="6.26720121391">
		<tag k="fixme" v="consider place=hamlet" />
		<tag k="name" v="Finnabotnen" />
		<tag k="place" v="farm" />
		<tag k="ssr:stedsnr" v="9587" />
	</node>
	<node id="-669204" lat="61.125409315" lon="6.75029456024">
		<tag k="alt_name" v="Smedje" />
		<tag k="fixme" v="consider place=hamlet" />
		<tag k="name" v="Smidjane" />
		<tag k="place" v="farm" />
		<tag k="ssr:stedsnr" v="9840" />
	</node>
	<node id="-669202" lat="61.1285250031" lon="6.62826665872">
		<tag k="name" v="Seldalen" />
		<tag k="place" v="locality" />
		<tag k="ssr:stedsnr" v="9832" />
	</node>
	<node id="-669199" lat="61.1075444402" lon="6.77416110898">
		<tag k="alt_name" v="Varpet" />
		<tag k="name" v="Varpe" />
		<tag k="place" v="locality" />
		<tag k="ssr:stedsnr" v="9794" />
	</node>
	<node id="-669198" lat="61.0899305578" lon="6.60650554709">
		<tag k="historic" v="shieling" />
		<tag k="name" v="Skorge" />
		<tag k="place" v="locality" />
		<tag k="ssr:stedsnr" v="9783" />
	</node>
	<node id="-669194" lat="61.119538887" lon="6.7733527871">
		<tag k="alt_name" v="Nedrelid" />
		<tag k="name" v="Nedreli" />
		<tag k="place" v="farm" />
		<tag k="ssr:stedsnr" v="9754" />
	</node>
	<node id="-669189" lat="61.0350425023" lon="6.57165420629">
		<tag k="fixme" v="consider place=hamlet" />
		<tag k="name" v="Undi" />
		<tag k="place" v="farm" />
		<tag k="ssr:stedsnr" v="9521" />
	</node>
	<node id="-669187" lat="61.0595499993" lon="6.63522500807">
		<tag k="alt_name" v="Nummedalsstølen, øvre" />
		<tag k="historic" v="shieling" />
		<tag k="name" v="Øvste Nummedalsstølen" />
		<tag k="place" v="locality" />
		<tag k="ssr:stedsnr" v="9200" />
	</node>
	<node id="-669185" lat="61.0747694408" lon="6.63709165989">
		<tag k="historic" v="shieling" />
		<tag k="name" v="Øyasete" />
		<tag k="place" v="locality" />
		<tag k="ssr:stedsnr" v="9189" />
	</node>
	<node id="-669180" lat="61.0551972177" lon="6.64838888457">
		<tag k="name" v="Flateng" />
		<tag k="place" v="farm" />
		<tag k="ssr:stedsnr" v="9161" />
	</node>
	<node id="-669174" lat="61.0838842692" lon="6.58376766049">
		<tag k="fixme" v="consider place=hamlet" />
		<tag k="name" v="Sæbø" />
		<tag k="place" v="farm" />
		<tag k="ssr:stedsnr" v="979500" />
	</node>
	<node id="-669173" lat="61.0747117047" lon="6.93166646771">
		<tag k="fixme" v="consider place=hamlet" />
		<tag k="name" v="Holum" />
		<tag k="place" v="farm" />
		<tag k="ssr:stedsnr" v="979564" />
	</node>
	<node id="-669172" lat="61.0735680378" lon="6.93993836469">
		<tag k="name" v="Ulriksborg" />
		<tag k="place" v="locality" />
		<tag k="ssr:stedsnr" v="979562" />
	</node>
	<node id="-669170" lat="61.0518341563" lon="6.91393556696">
		<tag k="fixme" v="consider place=hamlet" />
		<tag k="name" v="Øvre Breili" />
		<tag k="place" v="farm" />
		<tag k="ssr:stedsnr" v="976415" />
	</node>
	<node id="-669169" lat="61.0551847278" lon="6.91951936743">
		<tag k="fixme" v="consider place=hamlet" />
		<tag k="name" v="Nedre Breili" />
		<tag k="place" v="farm" />
		<tag k="ssr:stedsnr" v="976414" />
	</node>
	<node id="-669163" lat="61.094608333" lon="6.263247222">
		<tag k="name" v="Vindheim" />
		<tag k="place" v="locality" />
		<tag k="ssr:stedsnr" v="946775" />
	</node>
	<node id="-669159" lat="61.0766978199" lon="6.56603268373">
		<tag k="fixme" v="consider place=hamlet" />
		<tag k="name" v="Hopperstad" />
		<tag k="place" v="farm" />
		<tag k="ssr:stedsnr" v="936814" />
	</node>
	<node id="-669156" lat="61.1421222182" lon="6.75184443945">
		<tag k="name" v="Brennehagen" />
		<tag k="place" v="locality" />
		<tag k="ssr:stedsnr" v="919855" />
	</node>
	<node id="-669155" lat="61.0407972201" lon="6.60058611887">
		<tag k="alt_name" v="Teigum" />
		<tag k="name" v="Teigane" />
		<tag k="place" v="farm" />
		<tag k="ssr:stedsnr" v="920165" />
	</node>
	<node id="-669153" lat="61.078233335" lon="6.5965944481">
		<tag k="name" v="Lesdalen" />
		<tag k="place" v="farm" />
		<tag k="ssr:stedsnr" v="919762" />
	</node>
	<node id="-669151" lat="61.0973666655" lon="6.86183333579">
		<tag k="alt_name" v="Vigdalstølen" />
		<tag k="name" v="Vigdalsstølen" />
		<tag k="place" v="locality" />
		<tag k="ssr:stedsnr" v="919757" />
	</node>
	<node id="-669146" lat="61.1009115186" lon="6.23198912534">
		<tag k="alt_name" v="Stavedal" />
		<tag k="fixme" v="consider place=hamlet" />
		<tag k="name" v="Stavedalen" />
		<tag k="place" v="farm" />
		<tag k="ssr:stedsnr" v="919661" />
	</node>
	<node id="-669133" lat="61.0836722268" lon="6.62838055795">
		<tag k="alt_name" v="Ramsbera" />
		<tag k="historic" v="shieling" />
		<tag k="name" v="Rambera" />
		<tag k="place" v="locality" />
		<tag k="ssr:stedsnr" v="919219" />
	</node>
	<node id="-669129" lat="60.9306527779" lon="6.43017778167">
		<tag k="historic" v="shieling" />
		<tag k="name" v="Skjelingen" />
		<tag k="place" v="locality" />
		<tag k="ssr:stedsnr" v="918667" />
	</node>
	<node id="-669108" lat="61.047183337" lon="6.52837778601">
		<tag k="name" v="Øygardane" />
		<tag k="place" v="locality" />
		<tag k="ssr:stedsnr" v="885003" />
	</node>
	<node id="-669103" lat="61.0005515807" lon="6.42337318688">
		<tag k="alt_name" v="Ytre Lee" />
		<tag k="name" v="Ytre Le" />
		<tag k="place" v="farm" />
		<tag k="ssr:stedsnr" v="884154" />
	</node>
	<node id="-669089" lat="61.0653694466" lon="6.5348527734">
		<tag k="name" v="Prestteigen" />
		<tag k="place" v="farm" />
		<tag k="ssr:stedsnr" v="946440" />
	</node>
	<node id="-669069" lat="61.0588361093" lon="6.62173055604">
		<tag k="alt_name" v="Fosstølen, nedste;Neste Foss-stølen" />
		<tag k="name" v="Nedste Fosstølen" />
		<tag k="place" v="locality" />
		<tag k="ssr:stedsnr" v="859217" />
	</node>
	<node id="-669060" lat="61.0033310126" lon="6.3773024003">
		<tag k="fixme" v="consider place=hamlet" />
		<tag k="name" v="Åse" />
		<tag k="place" v="farm" />
		<tag k="ssr:stedsnr" v="858624" />
	</node>
	<node id="-669045" lat="61.0799143997" lon="6.5926786328">
		<tag k="fixme" v="consider place=hamlet" />
		<tag k="name" v="Seim" />
		<tag k="place" v="farm" />
		<tag k="ssr:stedsnr" v="824071" />
	</node>
	<node id="-669041" lat="61.0357555551" lon="6.58901667021">
		<tag k="name" v="Karavoll" />
		<tag k="place" v="locality" />
		<tag k="ssr:stedsnr" v="818811" />
	</node>
	<node id="-669038" lat="61.0256081087" lon="6.40453313851">
		<tag k="fixme" v="consider place=hamlet" />
		<tag k="name" v="Nissestad" />
		<tag k="place" v="farm" />
		<tag k="ssr:stedsnr" v="798561" />
	</node>
	<node id="-669036" lat="61.0748999998" lon="6.30956667379">
		<tag k="alt_name" v="Smørklett" />
		<tag k="historic" v="shieling" />
		<tag k="name" v="Smørklepp" />
		<tag k="place" v="locality" />
		<tag k="ssr:stedsnr" v="798650" />
	</node>
	<node id="-669033" lat="61.0469416636" lon="6.89531389481">
		<tag k="alt_name" v="Holegarden" />
		<tag k="name" v="Holegard" />
		<tag k="place" v="locality" />
		<tag k="ssr:stedsnr" v="798155" />
	</node>
	<node id="-669026" lat="61.05543333" lon="6.38964445133">
		<tag k="historic" v="shieling" />
		<tag k="name" v="Rotteskardet" />
		<tag k="place" v="locality" />
		<tag k="ssr:stedsnr" v="920583" />
	</node>
	<node id="-669024" lat="61.0581361156" lon="6.46305278231">
		<tag k="historic" v="shieling" />
		<tag k="name" v="Lomsli" />
		<tag k="place" v="locality" />
		<tag k="ssr:stedsnr" v="920572" />
	</node>
	<node id="-669023" lat="61.0612499993" lon="6.39639444281">
		<tag k="alt_name" v="Hustavenesstølen" />
		<tag k="historic" v="shieling" />
		<tag k="name" v="Husstavenesstølen" />
		<tag k="place" v="locality" />
		<tag k="ssr:stedsnr" v="920568" />
	</node>
	<node id="-669015" lat="61.1497305596" lon="6.66901111645">
		<tag k="alt_name" v="Endreseter" />
		<tag k="historic" v="shieling" />
		<tag k="name" v="Endresete" />
		<tag k="place" v="locality" />
		<tag k="ssr:stedsnr" v="919835" />
	</node>
	<node id="-669012" lat="61.0079888872" lon="6.31241944249">
		<tag k="historic" v="shieling" />
		<tag k="name" v="Hest" />
		<tag k="place" v="locality" />
		<tag k="ssr:stedsnr" v="919593" />
	</node>
	<node id="-669011" lat="61.0065444482" lon="6.35071388406">
		<tag k="alt_name" v="Belhagen" />
		<tag k="name" v="Bellhagen" />
		<tag k="place" v="farm" />
		<tag k="ssr:stedsnr" v="919591" />
	</node>
	<node id="-669007" lat="60.9840250022" lon="6.35582778156">
		<tag k="name" v="Hellestølen" />
		<tag k="place" v="locality" />
		<tag k="ssr:stedsnr" v="919646" />
	</node>
	<node id="-669005" lat="61.0321638929" lon="6.5033666703">
		<tag k="historic" v="shieling" />
		<tag k="name" v="Liasete" />
		<tag k="place" v="locality" />
		<tag k="ssr:stedsnr" v="919524" />
	</node>
	<node id="-669004" lat="61.0435055596" lon="6.52849999656">
		<tag k="historic" v="shieling" />
		<tag k="name" v="Nyastøl" />
		<tag k="place" v="locality" />
		<tag k="ssr:stedsnr" v="919523" />
	</node>
	<node id="-669002" lat="61.0368773208" lon="6.58044367034">
		<tag k="fixme" v="consider place=hamlet" />
		<tag k="name" v="Stedje" />
		<tag k="place" v="farm" />
		<tag k="ssr:stedsnr" v="919517" />
	</node>
	<node id="-669001" lat="61.0615250013" lon="6.54359167265">
		<tag k="name" v="Skogen" />
		<tag k="place" v="farm" />
		<tag k="ssr:stedsnr" v="919515" />
	</node>
	<node id="-669000" lat="61.0664000007" lon="6.5894083352">
>>>>>>> e1d4bc35ff8a6074a6f2e91616a996b547c36f15
		<tag k="name" v="Hagen" />
		<tag k="place" v="farm" />
		<tag k="ssr:stedsnr" v="919513" />
	</node>
<<<<<<< HEAD
	<node lat="61.061525001260165" lon="6.543591672650347" id="-31459">
		<tag k="name" v="Skogen" />
		<tag k="place" v="farm" />
		<tag k="ssr:stedsnr" v="919515" />
	</node>
	<node lat="61.03687732075054" lon="6.5804436703443" id="-31460">
		<tag k="fixme" v="consider place=hamlet" />
		<tag k="name" v="Stedje" />
		<tag k="place" v="farm" />
		<tag k="ssr:stedsnr" v="919517" />
	</node>
	<node lat="61.043505559550724" lon="6.528499996562469" id="-31462">
		<tag k="historic" v="shieling" />
		<tag k="name" v="Nyastøl" />
		<tag k="place" v="isolated_dwelling" />
		<tag k="ssr:stedsnr" v="919523" />
	</node>
	<node lat="61.032163892856275" lon="6.503366670300155" id="-31463">
		<tag k="historic" v="shieling" />
		<tag k="name" v="Liasete" />
		<tag k="place" v="isolated_dwelling" />
		<tag k="ssr:stedsnr" v="919524" />
	</node>
	<node lat="61.00654444815468" lon="6.350713884057165" id="-31464">
		<tag k="alt_name" v="Belhagen" />
		<tag k="name" v="Bellhagen" />
		<tag k="place" v="farm" />
		<tag k="ssr:stedsnr" v="919591" />
	</node>
	<node lat="61.07823333500671" lon="6.596594448100721" id="-31470">
		<tag k="name" v="Lesdalen" />
		<tag k="place" v="farm" />
		<tag k="ssr:stedsnr" v="919762" />
	</node>
	<node lat="61.14973055955454" lon="6.669011116447407" id="-31472">
		<tag k="alt_name" v="Endreseter" />
		<tag k="historic" v="shieling" />
		<tag k="name" v="Endresete" />
		<tag k="place" v="isolated_dwelling" />
		<tag k="ssr:stedsnr" v="919835" />
	</node>
	<node lat="61.04079722011374" lon="6.6005861188705675" id="-31474">
		<tag k="alt_name" v="Teigum" />
		<tag k="name" v="Teigane" />
		<tag k="place" v="farm" />
		<tag k="ssr:stedsnr" v="920165" />
	</node>
	<node lat="61.06124999925762" lon="6.39639444280774" id="-31480">
		<tag k="alt_name" v="Hustavenesstølen" />
		<tag k="historic" v="shieling" />
		<tag k="name" v="Husstavenesstølen" />
		<tag k="place" v="isolated_dwelling" />
		<tag k="ssr:stedsnr" v="920568" />
	</node>
	<node lat="61.05813611558435" lon="6.463052782310182" id="-31481">
		<tag k="historic" v="shieling" />
		<tag k="name" v="Lomsli" />
		<tag k="place" v="isolated_dwelling" />
		<tag k="ssr:stedsnr" v="920572" />
	</node>
	<node lat="61.055433330031555" lon="6.389644451331179" id="-31483">
		<tag k="historic" v="shieling" />
		<tag k="name" v="Rotteskardet" />
		<tag k="place" v="isolated_dwelling" />
		<tag k="ssr:stedsnr" v="920583" />
	</node>
	<node lat="61.05228889150644" lon="6.558408340889556" id="-31491">
		<tag k="name" v="Klepp" />
		<tag k="place" v="locality" />
		<tag k="ssr:stedsnr" v="825073" />
	</node>
	<node lat="61.051013884872056" lon="6.523511115198918" id="-31493">
		<tag k="historic" v="shieling" />
		<tag k="name" v="Rosheimstølen" />
		<tag k="place" v="isolated_dwelling" />
		<tag k="ssr:stedsnr" v="825312" />
	</node>
	<node lat="61.0588361092964" lon="6.621730556043218" id="-31517">
		<tag k="alt_name" v="Fosstølen, nedste;Neste Foss-stølen" />
		<tag k="name" v="Nedste Fosstølen" />
		<tag k="place" v="locality" />
		<tag k="ssr:stedsnr" v="859217" />
	</node>
	<node lat="61.00055158065389" lon="6.423373186883309" id="-31525">
		<tag k="alt_name" v="Ytre Lee" />
		<tag k="name" v="Ytre Le" />
		<tag k="place" v="farm" />
		<tag k="ssr:stedsnr" v="884154" />
	</node>
	<node lat="61.04718333700686" lon="6.528377786013796" id="-31527">
		<tag k="name" v="Øygardane" />
		<tag k="place" v="locality" />
		<tag k="ssr:stedsnr" v="885003" />
	</node>
	<node lat="61.1622000016012" lon="6.636361115158012" id="-31530">
		<tag k="name" v="Vellene" />
		<tag k="place" v="farm" />
		<tag k="ssr:stedsnr" v="886335" />
	</node>
	<node lat="60.93065277789071" lon="6.430177781671099" id="-31544">
		<tag k="historic" v="shieling" />
		<tag k="name" v="Skjelingen" />
		<tag k="place" v="isolated_dwelling" />
		<tag k="ssr:stedsnr" v="918667" />
	</node>
	<node lat="61.00798888724086" lon="6.3124194424858775" id="-31557">
		<tag k="historic" v="shieling" />
		<tag k="name" v="Hest" />
		<tag k="place" v="isolated_dwelling" />
		<tag k="ssr:stedsnr" v="919593" />
	</node>
	<node lat="61.09736666548191" lon="6.861833335786116" id="-31558">
		<tag k="alt_name" v="Vigdalstølen" />
		<tag k="name" v="Vigdalsstølen" />
		<tag k="place" v="locality" />
		<tag k="ssr:stedsnr" v="919757" />
	</node>
	<node lat="60.9840250022358" lon="6.355827781555281" id="-31561">
		<tag k="name" v="Hellestølen" />
		<tag k="place" v="locality" />
		<tag k="ssr:stedsnr" v="919646" />
	</node>
	<node lat="61.100911518590564" lon="6.231989125343131" id="-31565">
		<tag k="alt_name" v="Stavedal" />
		<tag k="fixme" v="consider place=hamlet" />
		<tag k="name" v="Stavedalen" />
		<tag k="place" v="farm" />
		<tag k="ssr:stedsnr" v="919661" />
	</node>
	<node lat="61.0766978199392" lon="6.566032683727592" id="-31578">
		<tag k="fixme" v="consider place=hamlet" />
		<tag k="name" v="Hopperstad" />
		<tag k="place" v="farm" />
		<tag k="ssr:stedsnr" v="936814" />
	</node>
	<node lat="61.06536944664208" lon="6.534852773398359" id="-31587">
		<tag k="name" v="Prestteigen" />
		<tag k="place" v="farm" />
		<tag k="ssr:stedsnr" v="946440" />
	</node>
	<node lat="61.073568037780426" lon="6.9399383646921615" id="-31600">
		<tag k="name" v="Ulriksborg" />
		<tag k="place" v="locality" />
		<tag k="ssr:stedsnr" v="979562" />
	</node>
	<node lat="61.17222450910839" lon="6.642192826200246" id="-31601">
		<tag k="fixme" v="consider place=hamlet" />
		<tag k="name" v="Vangsnes" />
		<tag k="place" v="farm" />
		<tag k="ssr:stedsnr" v="979542" />
	</node>
	<node lat="61.09648861213061" lon="6.8735442321008025" id="-31602">
		<tag k="name" v="Kolåsen" />
		<tag k="place" v="locality" />
		<tag k="ssr:stedsnr" v="980128" />
	</node>
	<node lat="61.03520054068542" lon="6.528439156949784" id="-31603">
		<tag k="leisure" v="pitch" />
		<tag k="name" v="Vik Skisenter" />
		<tag k="ssr:stedsnr" v="982060" />
	</node>
	<node lat="61.04067354306108" lon="6.5229431674552805" id="-31604">
		<tag k="name" v="Vik fjellandsby" />
		<tag k="place" v="neighbourhood" />
		<tag k="ssr:stedsnr" v="982062" />
	</node>
	<node lat="60.92030277408289" lon="6.54455276926288" id="-31611">
		<tag k="historic" v="shieling" />
		<tag k="name" v="Dueskardet" />
		<tag k="place" v="isolated_dwelling" />
		<tag k="ssr:stedsnr" v="8628" />
	</node>
	<node lat="60.916599996780825" lon="6.52581111643287" id="-31612">
		<tag k="alt_name" v="Grungen, store" />
		<tag k="historic" v="shieling" />
		<tag k="name" v="Store Grungen" />
		<tag k="place" v="isolated_dwelling" />
		<tag k="ssr:stedsnr" v="8630" />
	</node>
	<node lat="60.98750000224632" lon="6.459313883946372" id="-31614">
		<tag k="historic" v="shieling" />
		<tag k="name" v="Vetlestølen" />
		<tag k="place" v="isolated_dwelling" />
		<tag k="ssr:stedsnr" v="8710" />
	</node>
	<node lat="60.99996751318126" lon="6.362184867274846" id="-31616">
		<tag k="name" v="Frettheim" />
		<tag k="place" v="farm" />
		<tag k="ssr:stedsnr" v="8719" />
	</node>
	<node lat="61.05519721771257" lon="6.648388884573847" id="-31618">
		<tag k="name" v="Flateng" />
		<tag k="place" v="farm" />
		<tag k="ssr:stedsnr" v="9161" />
	</node>
	<node lat="61.03504250231591" lon="6.571654206285845" id="-31625">
		<tag k="fixme" v="consider place=hamlet" />
		<tag k="name" v="Undi" />
		<tag k="place" v="farm" />
		<tag k="ssr:stedsnr" v="9521" />
	</node>
	<node lat="60.9552500043085" lon="6.379461117933413" id="-31628">
		<tag k="historic" v="shieling" />
		<tag k="name" v="Bjergane" />
		<tag k="place" v="isolated_dwelling" />
		<tag k="ssr:stedsnr" v="9648" />
	</node>
	<node lat="60.96345833645521" lon="6.403549999542331" id="-31631">
		<tag k="name" v="Nonhaugen" />
		<tag k="place" v="isolated_dwelling" />
		<tag k="ssr:stedsnr" v="9658" />
	</node>
	<node lat="61.101725001462604" lon="6.243700003330112" id="-31634">
		<tag k="name" v="Indrebø" />
		<tag k="place" v="farm" />
		<tag k="ssr:stedsnr" v="9680" />
	</node>
	<node lat="61.12852500313001" lon="6.628266658718209" id="-31636">
		<tag k="name" v="Seldalen" />
=======
	<node id="-668999" lat="61.0883805575" lon="6.58944721984">
		<tag k="name" v="Sandvollen" />
		<tag k="place" v="farm" />
		<tag k="ssr:stedsnr" v="919507" />
	</node>
	<node id="-668997" lat="61.0448552123" lon="6.63851379733">
		<tag k="fixme" v="consider place=hamlet" />
		<tag k="name" v="Seljestø" />
		<tag k="place" v="farm" />
		<tag k="ssr:stedsnr" v="919191" />
	</node>
	<node id="-668973" lat="61.1436583315" lon="6.80704999706">
		<tag k="name" v="Hjelmaneset" />
		<tag k="place" v="farm" />
		<tag k="ssr:stedsnr" v="737819" />
	</node>
	<node id="-668969" lat="61.0978229101" lon="6.87314348165">
		<tag k="alt_name" v="Vigdal" />
		<tag k="fixme" v="consider place=hamlet" />
		<tag k="name" v="Vigdalen" />
		<tag k="place" v="farm" />
		<tag k="ssr:stedsnr" v="737788" />
	</node>
	<node id="-668968" lat="61.1436694469" lon="6.74642222556">
		<tag k="name" v="Håar" />
		<tag k="place" v="farm" />
		<tag k="ssr:stedsnr" v="904087" />
	</node>
	<node id="-668956" lat="61.0756648306" lon="6.59378676183">
		<tag k="fixme" v="consider place=hamlet" />
		<tag k="name" v="Tenål" />
		<tag k="place" v="farm" />
		<tag k="ssr:stedsnr" v="696809" />
	</node>
	<node id="-668952" lat="61.0641444416" lon="6.93086388247">
		<tag k="barrier" v="fence" />
		<tag k="name" v="Jensagjerdet" />
		<tag k="ssr:stedsnr" v="886927" />
	</node>
	<node id="-668949" lat="61.0255194473" lon="6.40786389688">
		<tag k="alt_name" v="Flåten" />
		<tag k="name" v="Floten" />
		<tag k="place" v="locality" />
		<tag k="ssr:stedsnr" v="886683" />
	</node>
	<node id="-668940" lat="61.1622000016" lon="6.63636111516">
		<tag k="name" v="Vellene" />
		<tag k="place" v="farm" />
		<tag k="ssr:stedsnr" v="886335" />
	</node>
	<node id="-668927" lat="61.1305242504" lon="6.75116296092">
		<tag k="alt_name" v="Tjønn" />
		<tag k="fixme" v="consider place=hamlet" />
		<tag k="name" v="Tjørn" />
		<tag k="place" v="farm" />
		<tag k="ssr:stedsnr" v="677855" />
	</node>
	<node id="-668926" lat="61.1260914022" lon="6.73329792487">
		<tag k="fixme" v="consider place=hamlet" />
		<tag k="name" v="Bergheim" />
		<tag k="place" v="farm" />
		<tag k="ssr:stedsnr" v="677853" />
	</node>
	<node id="-668925" lat="61.1222944477" lon="6.79627778099">
		<tag k="historic" v="shieling" />
		<tag k="name" v="Vidasete" />
		<tag k="place" v="locality" />
		<tag k="ssr:stedsnr" v="677755" />
	</node>
	<node id="-668923" lat="61.0120805575" lon="6.35383055725">
		<tag k="name" v="Tenne" />
		<tag k="place" v="farm" />
		<tag k="ssr:stedsnr" v="677610" />
	</node>
	<node id="-668919" lat="61.0584164757" lon="6.9805033702">
		<tag k="alt_name" v="Svea" />
		<tag k="fixme" v="consider place=hamlet" />
		<tag k="name" v="Svida" />
		<tag k="place" v="farm" />
		<tag k="ssr:stedsnr" v="677413" />
	</node>
	<node id="-668918" lat="61.0579175947" lon="7.01069368022">
		<tag k="fixme" v="consider place=hamlet" />
		<tag k="name" v="Simlenes" />
		<tag k="place" v="farm" />
		<tag k="ssr:stedsnr" v="677411" />
	</node>
	<node id="-668915" lat="61.0384749992" lon="6.65405556279">
		<tag k="name" v="Setebakken" />
		<tag k="place" v="locality" />
		<tag k="ssr:stedsnr" v="677155" />
	</node>
	<node id="-668911" lat="61.0686750037" lon="6.40739166731">
		<tag k="alt_name" v="Hustavenes" />
		<tag k="name" v="Husstavenes" />
		<tag k="place" v="farm" />
		<tag k="ssr:stedsnr" v="676573" />
	</node>
	<node id="-668908" lat="61.0556833334" lon="6.52894166742">
		<tag k="name" v="Furehaug" />
		<tag k="place" v="farm" />
		<tag k="ssr:stedsnr" v="676514" />
	</node>
	<node id="-668907" lat="61.0962749963" lon="6.54742778579">
		<tag k="historic" v="shieling" />
		<tag k="name" v="Tubbesete" />
		<tag k="place" v="locality" />
		<tag k="ssr:stedsnr" v="676621" />
	</node>
	<node id="-668906" lat="61.0978888872" lon="6.53218055822">
		<tag k="name" v="Øygarden" />
		<tag k="place" v="farm" />
		<tag k="ssr:stedsnr" v="676619" />
	</node>
	<node id="-668893" lat="60.9798249966" lon="6.73614167039">
		<tag k="fixme" v="consider tourism=alpine_hut or tourism=chalet" />
		<tag k="name" v="Jashaugbu" />
		<tag k="ssr:stedsnr" v="725446" />
		<tag k="tourism" v="wilderness_hut" />
	</node>
	<node id="-668887" lat="61.1035749971" lon="6.62842777952">
		<tag k="historic" v="shieling" />
		<tag k="name" v="Nyastøl" />
		<tag k="place" v="locality" />
		<tag k="ssr:stedsnr" v="616826" />
	</node>
	<node id="-668886" lat="61.1096361082" lon="6.7453361197">
		<tag k="historic" v="shieling" />
		<tag k="name" v="Nyasete" />
		<tag k="place" v="locality" />
		<tag k="ssr:stedsnr" v="616816" />
	</node>
	<node id="-668882" lat="61.0454694427" lon="6.60583888975">
		<tag k="name" v="Huglagjerdet" />
		<tag k="place" v="farm" />
		<tag k="ssr:stedsnr" v="616188" />
	</node>
	<node id="-668881" lat="61.0032861146" lon="6.36527500314">
		<tag k="name" v="Indrefjord" />
		<tag k="place" v="hamlet" />
		<tag k="ssr:stedsnr" v="721638" />
	</node>
	<node id="-668877" lat="60.9967010523" lon="6.36000067142">
		<tag k="fixme" v="consider place=hamlet" />
		<tag k="name" v="Kjelven" />
		<tag k="place" v="farm" />
		<tag k="ssr:stedsnr" v="615653" />
	</node>
	<node id="-668875" lat="60.9513444408" lon="6.3662416663">
		<tag k="historic" v="shieling" />
		<tag k="name" v="Gravsetstølen" />
		<tag k="place" v="locality" />
		<tag k="ssr:stedsnr" v="615624" />
	</node>
	<node id="-668868" lat="61.0674361143" lon="6.60419999154">
		<tag k="name" v="Neipe" />
		<tag k="place" v="farm" />
		<tag k="ssr:stedsnr" v="615214" />
	</node>
	<node id="-668867" lat="61.0782416645" lon="6.61790000497">
		<tag k="historic" v="shieling" />
		<tag k="name" v="Nysel" />
>>>>>>> e1d4bc35ff8a6074a6f2e91616a996b547c36f15
		<tag k="place" v="locality" />
		<tag k="ssr:stedsnr" v="615211" />
	</node>
<<<<<<< HEAD
	<node lat="61.11953888699731" lon="6.773352787096313" id="-31638">
		<tag k="alt_name" v="Nedrelid" />
		<tag k="name" v="Nedreli" />
		<tag k="place" v="farm" />
		<tag k="ssr:stedsnr" v="9754" />
	</node>
	<node lat="61.08993055780398" lon="6.606505547086304" id="-31642">
		<tag k="historic" v="shieling" />
		<tag k="name" v="Skorge" />
		<tag k="place" v="isolated_dwelling" />
		<tag k="ssr:stedsnr" v="9783" />
	</node>
	<node lat="61.02096110712508" lon="6.55545277347105" id="-31648">
		<tag k="historic" v="shieling" />
		<tag k="name" v="Jostølen" />
		<tag k="place" v="isolated_dwelling" />
		<tag k="ssr:stedsnr" v="34468" />
	</node>
	<node lat="61.02124999732368" lon="6.564241673482559" id="-31649">
		<tag k="historic" v="shieling" />
		<tag k="name" v="Dalastølane" />
		<tag k="place" v="isolated_dwelling" />
		<tag k="ssr:stedsnr" v="34472" />
	</node>
	<node lat="61.14871303455637" lon="6.750380864302231" id="-31659">
		<tag k="fixme" v="consider place=hamlet" />
		<tag k="name" v="Osen" />
		<tag k="place" v="farm" />
		<tag k="ssr:stedsnr" v="36073" />
	</node>
	<node lat="61.078208336587025" lon="6.5747333418191" id="-31661">
		<tag k="name" v="Gildhus" />
		<tag k="place" v="farm" />
		<tag k="ssr:stedsnr" v="36435" />
	</node>
	<node lat="61.09379936820171" lon="6.2910168441782535" id="-31670">
		<tag k="fixme" v="consider place=hamlet" />
		<tag k="name" v="Sylvarnes" />
		<tag k="place" v="farm" />
		<tag k="ssr:stedsnr" v="60662" />
	</node>
	<node lat="61.10433889115154" lon="6.2111777699650235" id="-31673">
		<tag k="name" v="Slåttene" />
		<tag k="place" v="farm" />
		<tag k="ssr:stedsnr" v="68463" />
	</node>
	<node lat="61.03440833657798" lon="6.182024998500063" id="-31678">
		<tag k="historic" v="shieling" />
		<tag k="name" v="Hanekambstølen" />
		<tag k="place" v="isolated_dwelling" />
		<tag k="ssr:stedsnr" v="69341" />
	</node>
	<node lat="61.041374999458554" lon="6.968725007066231" id="-31682">
		<tag k="name" v="Skard" />
		<tag k="place" v="farm" />
		<tag k="ssr:stedsnr" v="70389" />
	</node>
	<node lat="60.9772416672696" lon="6.612008341777111" id="-31683">
		<tag k="historic" v="shieling" />
		<tag k="name" v="Vollafjellet" />
		<tag k="place" v="isolated_dwelling" />
		<tag k="ssr:stedsnr" v="69921" />
	</node>
	<node lat="61.05009721840385" lon="6.930247229795686" id="-31685">
		<tag k="alt_name" v="Åva" />
		<tag k="name" v="Åvad" />
		<tag k="place" v="isolated_dwelling" />
		<tag k="ssr:stedsnr" v="70146" />
	</node>
	<node lat="61.0810583322627" lon="6.472994444936663" id="-31687">
		<tag k="name" v="Hagen" />
		<tag k="place" v="farm" />
		<tag k="ssr:stedsnr" v="70540" />
	</node>
	<node lat="61.069330717368565" lon="6.37979277248876" id="-31688">
		<tag k="fixme" v="consider place=hamlet" />
		<tag k="name" v="Geithus" />
		<tag k="place" v="farm" />
		<tag k="ssr:stedsnr" v="70546" />
	</node>
	<node lat="61.01719735868968" lon="6.375837069098808" id="-31696">
		<tag k="name" v="Kråna" />
		<tag k="place" v="farm" />
		<tag k="ssr:stedsnr" v="70596" />
	</node>
	<node lat="61.12044136576982" lon="6.77987069533455" id="-31701">
		<tag k="alt_name" v="Sætre" />
		<tag k="fixme" v="consider place=hamlet" />
		<tag k="name" v="Sætrane" />
		<tag k="place" v="farm" />
		<tag k="ssr:stedsnr" v="70756" />
	</node>
	<node lat="61.13336679480676" lon="6.756531365263341" id="-31702">
		<tag k="alt_name" v="Dræge" />
		<tag k="fixme" v="consider place=hamlet" />
		<tag k="name" v="Dregane" />
		<tag k="place" v="farm" />
		<tag k="ssr:stedsnr" v="70835" />
	</node>
	<node lat="61.13039444612137" lon="6.778030558110858" id="-31703">
		<tag k="name" v="Hola" />
		<tag k="place" v="locality" />
		<tag k="ssr:stedsnr" v="70836" />
	</node>
	<node lat="61.046141670539576" lon="6.6344749983879945" id="-31706">
		<tag k="name" v="Nummedalsreset" />
		<tag k="place" v="farm" />
		<tag k="ssr:stedsnr" v="95343" />
	</node>
	<node lat="61.040638888326924" lon="6.619977782908262" id="-31708">
		<tag k="name" v="Hansslåttene" />
		<tag k="place" v="locality" />
		<tag k="ssr:stedsnr" v="95287" />
	</node>
	<node lat="61.07599166549766" lon="6.612899997116136" id="-31711">
		<tag k="historic" v="shieling" />
		<tag k="name" v="Arnastøl" />
		<tag k="place" v="isolated_dwelling" />
		<tag k="ssr:stedsnr" v="96021" />
	</node>
	<node lat="61.082169066679114" lon="6.5857709619407885" id="-31728">
		<tag k="name" v="Tillischgarden" />
		<tag k="place" v="farm" />
		<tag k="ssr:stedsnr" v="97465" />
	</node>
	<node lat="61.06054166937145" lon="6.537280559899809" id="-31729">
		<tag k="name" v="Hagen" />
		<tag k="place" v="farm" />
		<tag k="ssr:stedsnr" v="97473" />
	</node>
	<node lat="61.0499208029217" lon="6.59652886252947" id="-31749">
		<tag k="fixme" v="consider place=hamlet" />
		<tag k="name" v="Ovri" />
		<tag k="place" v="farm" />
		<tag k="ssr:stedsnr" v="130185" />
	</node>
	<node lat="61.05120833608045" lon="6.938436108832257" id="-31756">
		<tag k="name" v="Skredgarden" />
		<tag k="place" v="farm" />
		<tag k="ssr:stedsnr" v="130145" />
	</node>
	<node lat="61.0406593205121" lon="6.59786229922574" id="-31757">
		<tag k="fixme" v="consider place=hamlet" />
		<tag k="name" v="Gullteigane" />
		<tag k="place" v="farm" />
		<tag k="ssr:stedsnr" v="130147" />
	</node>
	<node lat="61.068621776162814" lon="6.93350394582686" id="-31758">
		<tag k="fixme" v="consider place=hamlet" />
		<tag k="name" v="Bøtun" />
		<tag k="place" v="farm" />
		<tag k="ssr:stedsnr" v="130172" />
	</node>
	<node lat="61.07297222311151" lon="6.5343388913460245" id="-31759">
		<tag k="alt_name" v="Bøstølen" />
		<tag k="historic" v="shieling" />
		<tag k="name" v="Bøastølen" />
		<tag k="place" v="isolated_dwelling" />
		<tag k="ssr:stedsnr" v="130461" />
	</node>
	<node lat="61.05951944436793" lon="6.570952771523492" id="-31760">
		<tag k="historic" v="shieling" />
		<tag k="name" v="Holstadstølen" />
		<tag k="place" v="isolated_dwelling" />
		<tag k="ssr:stedsnr" v="130468" />
	</node>
	<node lat="61.050487690984866" lon="6.537452801731441" id="-31761">
		<tag k="fixme" v="consider place=hamlet" />
		<tag k="name" v="Espesete" />
		<tag k="place" v="farm" />
		<tag k="ssr:stedsnr" v="130470" />
	</node>
	<node lat="61.08043203678285" lon="6.46065594790668" id="-31762">
		<tag k="fixme" v="consider place=hamlet" />
		<tag k="name" v="Limmesand" />
		<tag k="old_name" v="Limesand" />
		<tag k="place" v="farm" />
		<tag k="ssr:stedsnr" v="130545" />
	</node>
	<node lat="61.07557499717007" lon="6.4842250002002375" id="-31763">
		<tag k="historic" v="shieling" />
		<tag k="name" v="Klimpen" />
		<tag k="place" v="isolated_dwelling" />
		<tag k="ssr:stedsnr" v="130546" />
	</node>
	<node lat="61.04661778595058" lon="6.304564910841772" id="-31765">
		<tag k="fixme" v="consider place=hamlet" />
		<tag k="name" v="Finnen" />
		<tag k="place" v="farm" />
		<tag k="ssr:stedsnr" v="130561" />
	</node>
	<node lat="61.1182722268166" lon="6.60922500477574" id="-31771">
		<tag k="historic" v="shieling" />
		<tag k="name" v="Soleisete" />
		<tag k="place" v="isolated_dwelling" />
		<tag k="ssr:stedsnr" v="130738" />
	</node>
	<node lat="61.00613568007775" lon="6.416707367592958" id="-31775">
		<tag k="name" v="Hauglum" />
		<tag k="place" v="farm" />
		<tag k="ssr:stedsnr" v="155165" />
	</node>
	<node lat="61.14638785145324" lon="6.824739765918391" id="-31779">
		<tag k="name" v="Borlaug" />
		<tag k="place" v="hamlet" />
		<tag k="ssr:stedsnr" v="155675" />
	</node>
	<node lat="61.104191664213566" lon="6.1841333280563955" id="-31781">
		<tag k="loc_name" v="Frikstølen" />
		<tag k="name" v="Erikstølen" />
		<tag k="place" v="locality" />
		<tag k="ssr:stedsnr" v="157451" />
	</node>
	<node lat="61.05576110791618" lon="6.917338884075935" id="-31796">
		<tag k="name" v="Bruavoll" />
		<tag k="place" v="farm" />
		<tag k="ssr:stedsnr" v="157667" />
	</node>
	<node lat="61.09930277517703" lon="6.283075002441861" id="-31811">
		<tag k="name" v="Bjørkevik" />
		<tag k="place" v="isolated_dwelling" />
		<tag k="ssr:stedsnr" v="162892" />
	</node>
	<node lat="60.99452500179709" lon="6.564361101750404" id="-31815">
		<tag k="historic" v="shieling" />
		<tag k="name" v="Valhola" />
		<tag k="place" v="isolated_dwelling" />
		<tag k="ssr:stedsnr" v="190635" />
	</node>
	<node lat="60.99785274410508" lon="6.431088070156151" id="-31818">
		<tag k="fixme" v="consider place=hamlet" />
		<tag k="name" v="Le" />
		<tag k="place" v="farm" />
		<tag k="ssr:stedsnr" v="190699" />
	</node>
	<node lat="60.99591666576361" lon="6.761302777420545" id="-31819">
		<tag k="name" v="Fresvikvarden" />
		<tag k="place" v="locality" />
		<tag k="ssr:stedsnr" v="190935" />
	</node>
	<node lat="61.039414547020385" lon="6.660702893740159" id="-31827">
		<tag k="fixme" v="consider place=hamlet" />
		<tag k="name" v="Myrkaskog" />
		<tag k="place" v="farm" />
		<tag k="ssr:stedsnr" v="191127" />
	</node>
	<node lat="61.03798055974503" lon="6.663888890769042" id="-31828">
		<tag k="alt_name" v="Brudevoll" />
		<tag k="name" v="Bruavoll" />
		<tag k="place" v="farm" />
		<tag k="ssr:stedsnr" v="191130" />
	</node>
	<node lat="61.051152607696324" lon="6.941912978384815" id="-31829">
		<tag k="alt_name" v="Otterhjell" />
		<tag k="fixme" v="consider place=hamlet" />
		<tag k="name" v="Otrehjell" />
		<tag k="place" v="farm" />
		<tag k="ssr:stedsnr" v="191136" />
	</node>
	<node lat="61.031822842349946" lon="6.576269888779791" id="-31833">
		<tag k="alt_name" v="Refsdaltuni" />
		<tag k="fixme" v="consider place=hamlet" />
		<tag k="name" v="Refsdal" />
		<tag k="place" v="farm" />
		<tag k="ssr:stedsnr" v="191488" />
	</node>
	<node lat="61.05138055172123" lon="6.29462500681544" id="-31841">
		<tag k="historic" v="shieling" />
		<tag k="name" v="Skjemmedalen" />
		<tag k="place" v="isolated_dwelling" />
		<tag k="ssr:stedsnr" v="191545" />
	</node>
	<node lat="61.12278610825139" lon="6.744919440340225" id="-31842">
		<tag k="alt_name" v="Klungerstøl" />
		<tag k="name" v="Klungerstølen" />
		<tag k="place" v="locality" />
		<tag k="ssr:stedsnr" v="191730" />
	</node>
	<node lat="61.116294444399216" lon="6.749874991288515" id="-31843">
		<tag k="alt_name" v="Smedjekluken" />
		<tag k="historic" v="shieling" />
		<tag k="name" v="Smidjekluken" />
		<tag k="place" v="isolated_dwelling" />
		<tag k="ssr:stedsnr" v="191733" />
	</node>
	<node lat="61.124555558664696" lon="6.663902774852203" id="-31845">
		<tag k="alt_name" v="Kaldbakk" />
		<tag k="historic" v="shieling" />
		<tag k="name" v="Kallbakk" />
		<tag k="place" v="isolated_dwelling" />
		<tag k="ssr:stedsnr" v="191813" />
	</node>
	<node lat="61.12882215792169" lon="6.761401739966259" id="-31847">
		<tag k="alt_name" v="Tveit" />
		<tag k="fixme" v="consider place=hamlet" />
		<tag k="name" v="Tveiti" />
		<tag k="place" v="farm" />
		<tag k="ssr:stedsnr" v="191817" />
	</node>
	<node lat="61.0680638889914" lon="6.5265222199156945" id="-31861">
		<tag k="historic" v="shieling" />
		<tag k="name" v="Midlang-stølen" />
		<tag k="place" v="isolated_dwelling" />
		<tag k="ssr:stedsnr" v="218471" />
	</node>
	<node lat="61.05713055191184" lon="6.55487500406617" id="-31862">
		<tag k="name" v="Kolgrov" />
		<tag k="place" v="locality" />
		<tag k="ssr:stedsnr" v="218119" />
	</node>
	<node lat="61.09452222448847" lon="6.569961109474482" id="-31866">
		<tag k="name" v="Vangsteigane" />
		<tag k="place" v="locality" />
		<tag k="ssr:stedsnr" v="218368" />
	</node>
	<node lat="61.0840416662449" lon="6.5787777726125505" id="-31869">
		<tag k="fixme" v="consider place=suburb, village or hamlet" />
		<tag k="name" v="Røysane" />
		<tag k="place" v="quarter" />
		<tag k="ssr:stedsnr" v="218464" />
	</node>
	<node lat="61.0900611089548" lon="6.518083342320948" id="-31881">
		<tag k="name" v="Jernane" />
		<tag k="place" v="farm" />
		<tag k="ssr:stedsnr" v="277069" />
	</node>
	<node lat="61.1254349852149" lon="6.737590465979945" id="-31888">
		<tag k="fixme" v="consider place=hamlet" />
		<tag k="name" v="Åfet" />
		<tag k="place" v="farm" />
		<tag k="ssr:stedsnr" v="279074" />
	</node>
	<node lat="61.08033889120581" lon="6.573508335749271" id="-31894">
		<tag k="name" v="Klokkargarden" />
		<tag k="place" v="farm" />
		<tag k="ssr:stedsnr" v="279433" />
	</node>
	<node lat="61.07158814506673" lon="6.586265994439389" id="-31913">
		<tag k="fixme" v="consider place=hamlet" />
		<tag k="name" v="Hove" />
		<tag k="place" v="farm" />
		<tag k="ssr:stedsnr" v="312501" />
	</node>
	<node lat="61.04245000183158" lon="6.53415834186297" id="-31918">
		<tag k="historic" v="shieling" />
		<tag k="name" v="Kålsete" />
		<tag k="place" v="isolated_dwelling" />
		<tag k="ssr:stedsnr" v="312526" />
	</node>
	<node lat="61.00388424409845" lon="6.411796638907525" id="-31921">
		<tag k="fixme" v="consider place=hamlet" />
		<tag k="name" v="Valsvik" />
		<tag k="place" v="farm" />
		<tag k="ssr:stedsnr" v="312601" />
	</node>
	<node lat="61.09365555279746" lon="6.237874993674953" id="-31923">
		<tag k="historic" v="shieling" />
		<tag k="name" v="Vindhalsen" />
		<tag k="place" v="isolated_dwelling" />
		<tag k="ssr:stedsnr" v="312657" />
	</node>
	<node lat="61.034531992971026" lon="6.5964162791846235" id="-31929">
		<tag k="fixme" v="consider place=hamlet" />
		<tag k="name" v="Kinni" />
		<tag k="place" v="farm" />
		<tag k="ssr:stedsnr" v="313186" />
	</node>
	<node lat="61.12194167090837" lon="6.6995611091565355" id="-31938">
		<tag k="historic" v="shieling" />
		<tag k="name" v="Slettamo" />
		<tag k="place" v="isolated_dwelling" />
		<tag k="ssr:stedsnr" v="313797" />
	</node>
	<node lat="61.13120997340782" lon="6.743214528026033" id="-31941">
		<tag k="alt_name" v="Stengjerde" />
		<tag k="fixme" v="consider place=hamlet" />
		<tag k="name" v="Stjernegjerd" />
		<tag k="place" v="farm" />
		<tag k="ssr:stedsnr" v="313880" />
	</node>
	<node lat="61.138269444812266" lon="6.735138889536124" id="-31942">
		<tag k="name" v="Berdalstuftene" />
		<tag k="place" v="locality" />
		<tag k="ssr:stedsnr" v="313889" />
	</node>
	<node lat="60.99261666785392" lon="6.432313891225544" id="-31945">
		<tag k="name" v="Leite" />
		<tag k="place" v="farm" />
		<tag k="ssr:stedsnr" v="337478" />
	</node>
	<node lat="61.07919444845234" lon="6.491022217580079" id="-31948">
		<tag k="name" v="Røyrvik" />
		<tag k="place" v="farm" />
		<tag k="ssr:stedsnr" v="339662" />
	</node>
	<node lat="61.04351666363606" lon="6.542241673153228" id="-31949">
		<tag k="name" v="Husmannssete" />
		<tag k="place" v="locality" />
		<tag k="ssr:stedsnr" v="338079" />
	</node>
	<node lat="61.05136389316194" lon="6.548322215871471" id="-31950">
		<tag k="historic" v="shieling" />
		<tag k="name" v="Titlastøl" />
		<tag k="place" v="isolated_dwelling" />
		<tag k="ssr:stedsnr" v="338091" />
	</node>
	<node lat="61.013874998641754" lon="6.559094436754863" id="-31951">
		<tag k="name" v="Fodnastøl" />
		<tag k="place" v="locality" />
		<tag k="ssr:stedsnr" v="339067" />
	</node>
	<node lat="61.067933334691794" lon="6.545097229795918" id="-31960">
		<tag k="name" v="Balvol" />
		<tag k="place" v="farm" />
		<tag k="ssr:stedsnr" v="339435" />
	</node>
	<node lat="61.000985983770015" lon="6.360990138989638" id="-31977">
		<tag k="fixme" v="consider place=hamlet" />
		<tag k="name" v="Frettheim" />
		<tag k="place" v="farm" />
		<tag k="ssr:stedsnr" v="373630" />
	</node>
	<node lat="61.07227777935522" lon="6.934158327904554" id="-31981">
		<tag k="fixme" v="consider place=hamlet" />
		<tag k="name" v="Fresvik" />
		<tag k="place" v="village" />
		<tag k="ssr:stedsnr" v="373230" />
	</node>
	<node lat="61.0181194450323" lon="6.867633325683598" id="-31984">
		<tag k="name" v="Tundalen" />
		<tag k="place" v="locality" />
		<tag k="ssr:stedsnr" v="373129" />
	</node>
	<node lat="61.0360500023623" lon="6.61266111497271" id="-31989">
		<tag k="alt_name" v="Skaret" />
		<tag k="historic" v="shieling" />
		<tag k="name" v="Skardet" />
		<tag k="place" v="isolated_dwelling" />
		<tag k="ssr:stedsnr" v="373144" />
	</node>
	<node lat="61.11970000405425" lon="6.610658325891404" id="-31994">
		<tag k="name" v="Svefjellet" />
		<tag k="place" v="isolated_dwelling" />
		<tag k="ssr:stedsnr" v="373778" />
	</node>
	<node lat="61.146419445437814" lon="6.624861118460133" id="-31996">
		<tag k="alt_name" v="Vetlehagen" />
		<tag k="name" v="Veslehagen" />
		<tag k="place" v="isolated_dwelling" />
		<tag k="ssr:stedsnr" v="373840" />
	</node>
	<node lat="61.131691664531466" lon="6.733363895993984" id="-31998">
		<tag k="historic" v="shieling" />
		<tag k="name" v="Navarsete" />
		<tag k="place" v="isolated_dwelling" />
		<tag k="ssr:stedsnr" v="373854" />
	</node>
	<node lat="61.13700555244347" lon="6.723061107175667" id="-32000">
		<tag k="alt_name" v="Berdalsklunken" />
		<tag k="name" v="Berdalskluken" />
		<tag k="place" v="isolated_dwelling" />
		<tag k="ssr:stedsnr" v="494857" />
	</node>
	<node lat="61.07260183614936" lon="6.602438708360923" id="-32003">
		<tag k="fixme" v="consider place=hamlet" />
		<tag k="name" v="Stadheim" />
		<tag k="place" v="farm" />
		<tag k="ssr:stedsnr" v="393229" />
	</node>
	<node lat="61.05859166597239" lon="6.6359250027776175" id="-32006">
		<tag k="name" v="Kjeingasete" />
		<tag k="place" v="locality" />
		<tag k="ssr:stedsnr" v="398341" />
	</node>
	<node lat="61.04840833580109" lon="6.628500007807511" id="-32007">
		<tag k="name" v="Nummedaløygardane" />
		<tag k="place" v="farm" />
		<tag k="ssr:stedsnr" v="398350" />
	</node>
	<node lat="61.08168055853197" lon="6.5753222167275895" id="-32028">
		<tag k="fixme" v="consider place=hamlet" />
		<tag k="name" v="Grov" />
		<tag k="place" v="farm" />
		<tag k="ssr:stedsnr" v="400401" />
	</node>
	<node lat="61.05268333017722" lon="6.435099992830184" id="-32035">
		<tag k="name" v="Åsteigane" />
		<tag k="place" v="locality" />
		<tag k="ssr:stedsnr" v="400668" />
	</node>
	<node lat="61.01936944517129" lon="6.644861111252243" id="-32055">
		<tag k="historic" v="shieling" />
		<tag k="name" v="Sendedal" />
		<tag k="place" v="isolated_dwelling" />
		<tag k="ssr:stedsnr" v="434109" />
	</node>
	<node lat="61.11632222605189" lon="6.729508340690227" id="-32057">
		<tag k="historic" v="shieling" />
		<tag k="name" v="Selhaug" />
		<tag k="place" v="isolated_dwelling" />
		<tag k="ssr:stedsnr" v="434734" />
	</node>
	<node lat="60.92192500076726" lon="6.3378750002435975" id="-32060">
		<tag k="historic" v="shieling" />
		<tag k="name" v="Kvilesteinane" />
		<tag k="place" v="isolated_dwelling" />
		<tag k="ssr:stedsnr" v="433587" />
	</node>
	<node lat="60.93120833584483" lon="6.3083194417241755" id="-32061">
		<tag k="historic" v="shieling" />
		<tag k="name" v="Raudbergdalen" />
		<tag k="place" v="isolated_dwelling" />
		<tag k="ssr:stedsnr" v="433589" />
	</node>
	<node lat="61.10790278186578" lon="6.202324991632024" id="-32067">
		<tag k="name" v="Slåttene" />
		<tag k="place" v="locality" />
		<tag k="ssr:stedsnr" v="434287" />
	</node>
	<node lat="60.99098333133721" lon="6.345963881950334" id="-32068">
		<tag k="name" v="Negardstølen" />
		<tag k="place" v="locality" />
		<tag k="ssr:stedsnr" v="433682" />
	</node>
	<node lat="60.997925609585465" lon="6.4236524651361515" id="-32069">
		<tag k="fixme" v="multiple name tags, choose one and add the other to alt_name; consider place=hamlet" />
		<tag k="name" v="Vetledalen;Dalsver" />
		<tag k="place" v="farm" />
		<tag k="ssr:stedsnr" v="433683" />
	</node>
	<node lat="61.05207221954225" lon="6.914519452095517" id="-32073">
		<tag k="alt_name" v="Ivarlid" />
		<tag k="name" v="Ivarli" />
		<tag k="place" v="farm" />
		<tag k="ssr:stedsnr" v="434152" />
	</node>
	<node lat="61.07621666902135" lon="6.458249992396692" id="-32076">
		<tag k="historic" v="shieling" />
		<tag k="name" v="Vetlestølen" />
		<tag k="place" v="isolated_dwelling" />
		<tag k="ssr:stedsnr" v="434532" />
	</node>
	<node lat="61.06441667095339" lon="6.349977779355364" id="-32078">
		<tag k="alt_name" v="Ystestølen" />
		<tag k="historic" v="shieling" />
		<tag k="name" v="Ytstestølen" />
		<tag k="place" v="isolated_dwelling" />
		<tag k="ssr:stedsnr" v="434554" />
	</node>
	<node lat="61.07551111039882" lon="6.290675003988394" id="-32080">
		<tag k="historic" v="shieling" />
		<tag k="name" v="Øvstestølen" />
		<tag k="place" v="isolated_dwelling" />
		<tag k="ssr:stedsnr" v="434653" />
	</node>
	<node lat="61.00781111006389" lon="6.418924998896357" id="-32088">
		<tag k="name" v="Holaviki" />
		<tag k="place" v="farm" />
		<tag k="ssr:stedsnr" v="519168" />
	</node>
	<node lat="61.075911108016086" lon="6.601763894051238" id="-32098">
		<tag k="name" v="Fesevollen" />
		<tag k="place" v="locality" />
		<tag k="ssr:stedsnr" v="521044" />
	</node>
	<node lat="61.045383334765496" lon="6.580730564607671" id="-32099">
		<tag k="historic" v="shieling" />
		<tag k="name" v="Halrynjostølen" />
		<tag k="place" v="isolated_dwelling" />
		<tag k="ssr:stedsnr" v="521054" />
	</node>
	<node lat="61.08959444296061" lon="6.555830562305663" id="-32103">
		<tag k="name" v="Fanastøl" />
		<tag k="place" v="locality" />
		<tag k="ssr:stedsnr" v="521386" />
	</node>
	<node lat="61.090441664831935" lon="6.301122225068516" id="-32105">
		<tag k="name" v="Storehagen" />
		<tag k="place" v="locality" />
		<tag k="ssr:stedsnr" v="521635" />
	</node>
	<node lat="61.05381504196481" lon="6.917424859813363" id="-32123">
		<tag k="name" v="Breili" />
		<tag k="place" v="hamlet" />
		<tag k="ssr:stedsnr" v="555122" />
	</node>
	<node lat="61.05338888550522" lon="6.61845278605867" id="-32125">
		<tag k="name" v="Grasmyri" />
		<tag k="place" v="farm" />
		<tag k="ssr:stedsnr" v="555147" />
	</node>
	<node lat="61.00541666562693" lon="6.411552779637022" id="-32130">
		<tag k="fixme" v="consider place=hamlet" />
		<tag k="name" v="Framfjord" />
		<tag k="place" v="village" />
		<tag k="ssr:stedsnr" v="554656" />
	</node>
	<node lat="61.01208055538541" lon="6.41471111343317" id="-32131">
		<tag k="name" v="Hola" />
		<tag k="place" v="farm" />
		<tag k="ssr:stedsnr" v="554658" />
	</node>
	<node lat="61.011533335570476" lon="6.5942583415193" id="-32134">
		<tag k="historic" v="shieling" />
		<tag k="name" v="Fyrjane" />
		<tag k="place" v="isolated_dwelling" />
		<tag k="ssr:stedsnr" v="555099" />
	</node>
	<node lat="61.0670693246352" lon="6.937169588041075" id="-32138">
		<tag k="fixme" v="consider place=hamlet" />
		<tag k="name" v="Høgheim" />
		<tag k="place" v="farm" />
		<tag k="ssr:stedsnr" v="555151" />
	</node>
	<node lat="61.06406388843608" lon="6.925111115816944" id="-32139">
		<tag k="name" v="Øybøen" />
		<tag k="place" v="farm" />
		<tag k="ssr:stedsnr" v="555153" />
	</node>
	<node lat="61.070312936143324" lon="6.5558274753061525" id="-32141">
		<tag k="fixme" v="consider place=hamlet" />
		<tag k="name" v="Tryti" />
		<tag k="place" v="farm" />
		<tag k="ssr:stedsnr" v="555452" />
	</node>
	<node lat="61.08663898706703" lon="6.576441874226488" id="-32142">
		<tag k="name" v="Sjøtun" />
		<tag k="place" v="locality" />
		<tag k="ssr:stedsnr" v="555453" />
	</node>
	<node lat="61.034480555827805" lon="6.427649993823366" id="-32147">
		<tag k="alt_name" v="Dragsbotn" />
		<tag k="historic" v="shieling" />
		<tag k="name" v="Dragsbotnen" />
		<tag k="place" v="isolated_dwelling" />
		<tag k="ssr:stedsnr" v="555554" />
	</node>
	<node lat="61.10859722516705" lon="6.675530551566679" id="-32152">
		<tag k="historic" v="shieling" />
		<tag k="name" v="Nystøl" />
		<tag k="place" v="isolated_dwelling" />
		<tag k="ssr:stedsnr" v="555733" />
	</node>
	<node lat="61.1128720794758" lon="6.878493049903383" id="-32154">
		<tag k="name" v="Snytta" />
		<tag k="place" v="locality" />
		<tag k="ssr:stedsnr" v="555780" />
	</node>
	<node lat="61.12560555780581" lon="6.770288892779033" id="-32157">
		<tag k="alt_name" v="Dalskvammane" />
		<tag k="name" v="Dalskvammen" />
		<tag k="place" v="locality" />
		<tag k="ssr:stedsnr" v="555834" />
	</node>
	<node lat="61.08778074289891" lon="6.881116534067472" id="-32160">
		<tag k="fixme" v="consider place=hamlet" />
		<tag k="name" v="Juvik" />
		<tag k="place" v="farm" />
		<tag k="ssr:stedsnr" v="575225" />
	</node>
	<node lat="60.9868500038236" lon="6.423616667303634" id="-32162">
		<tag k="name" v="Øvrebøen" />
		<tag k="place" v="farm" />
		<tag k="ssr:stedsnr" v="580378" />
	</node>
	<node lat="61.0583833331602" lon="6.326127786028958" id="-32188">
		<tag k="name" v="Svinailaget" />
		<tag k="place" v="locality" />
		<tag k="ssr:stedsnr" v="582753" />
	</node>
	<node lat="61.145880558043736" lon="6.75466388648571" id="-32193">
		<tag k="name" v="Nyheim" />
		<tag k="place" v="farm" />
		<tag k="ssr:stedsnr" v="600084" />
	</node>
	<node lat="60.96146111019826" lon="6.19162499560011" id="-32198">
		<tag k="historic" v="shieling" />
		<tag k="name" v="Hallsetstølen" />
		<tag k="place" v="isolated_dwelling" />
		<tag k="ssr:stedsnr" v="615087" />
	</node>
	<node lat="61.088961110153846" lon="6.576950005179371" id="-32207">
		<tag k="name" v="Hamnen" />
		<tag k="place" v="farm" />
		<tag k="ssr:stedsnr" v="615490" />
	</node>
	<node lat="60.95134444075644" lon="6.366241666299247" id="-32208">
		<tag k="historic" v="shieling" />
		<tag k="name" v="Gravsetstølen" />
		<tag k="place" v="isolated_dwelling" />
		<tag k="ssr:stedsnr" v="615624" />
	</node>
	<node lat="61.04546944266034" lon="6.605838889750992" id="-32211">
		<tag k="name" v="Huglagjerdet" />
		<tag k="place" v="farm" />
		<tag k="ssr:stedsnr" v="616188" />
	</node>
	<node lat="61.103574997079924" lon="6.628427779521684" id="-32213">
		<tag k="historic" v="shieling" />
		<tag k="name" v="Nyastøl" />
		<tag k="place" v="isolated_dwelling" />
		<tag k="ssr:stedsnr" v="616826" />
	</node>
	<node lat="61.12870893009651" lon="6.6114255143236145" id="-32217">
		<tag k="alt_name" v="Djuvik" />
		<tag k="fixme" v="consider place=hamlet" />
		<tag k="name" v="Djupvik" />
		<tag k="place" v="farm" />
		<tag k="ssr:stedsnr" v="616860" />
	</node>
	<node lat="61.12684589460947" lon="6.746137391943897" id="-32218">
		<tag k="alt_name" v="Helleland" />
		<tag k="fixme" v="consider place=hamlet" />
		<tag k="name" v="Helland" />
		<tag k="place" v="farm" />
		<tag k="ssr:stedsnr" v="616865" />
	</node>
	<node lat="60.987566667060904" lon="6.414222229786908" id="-32228">
		<tag k="historic" v="shieling" />
		<tag k="name" v="Nestestølen" />
		<tag k="place" v="isolated_dwelling" />
		<tag k="ssr:stedsnr" v="640465" />
	</node>
	<node lat="61.037191670410785" lon="6.657108335883161" id="-32229">
		<tag k="name" v="Seljane" />
		<tag k="place" v="locality" />
		<tag k="ssr:stedsnr" v="640535" />
	</node>
	<node lat="61.0032861146422" lon="6.365275003142797" id="-32251">
		<tag k="name" v="Indrefjord" />
		<tag k="place" v="hamlet" />
		<tag k="ssr:stedsnr" v="721638" />
	</node>
	<node lat="60.989001928682924" lon="6.4241784943046305" id="-32255">
		<tag k="fixme" v="consider place=hamlet" />
		<tag k="name" v="Hellane" />
		<tag k="place" v="farm" />
		<tag k="ssr:stedsnr" v="736697" />
	</node>
	<node lat="61.03672222512276" lon="6.593425004395857" id="-32261">
		<tag k="alt_name" v="Risløv" />
		<tag k="name" v="Rislåg" />
		<tag k="place" v="farm" />
		<tag k="ssr:stedsnr" v="736439" />
	</node>
	<node lat="61.08742499918518" lon="6.579113883056468" id="-32263">
		<tag k="name" v="Vik" />
		<tag k="place" v="village" />
		<tag k="ssr:stedsnr" v="737487" />
	</node>
	<node lat="61.07245814651765" lon="6.576154097483713" id="-32264">
		<tag k="fixme" v="consider place=hamlet" />
		<tag k="name" v="Voll" />
		<tag k="place" v="farm" />
		<tag k="ssr:stedsnr" v="737496" />
	</node>
	<node lat="61.05116588872401" lon="6.905188572670113" id="-32270">
		<tag k="alt_name" v="Tretteteig" />
		<tag k="fixme" v="consider place=hamlet" />
		<tag k="name" v="Tretteteigen" />
		<tag k="place" v="farm" />
		<tag k="ssr:stedsnr" v="737153" />
	</node>
	<node lat="61.0434549476168" lon="6.600358146836091" id="-32273">
		<tag k="fixme" v="consider place=hamlet" />
		<tag k="name" v="Orvedal" />
		<tag k="place" v="farm" />
		<tag k="ssr:stedsnr" v="737195" />
	</node>
	<node lat="61.08712499790825" lon="6.559711115957974" id="-32275">
		<tag k="historic" v="shieling" />
		<tag k="name" v="Gunnarsete" />
		<tag k="place" v="isolated_dwelling" />
		<tag k="ssr:stedsnr" v="737619" />
	</node>
	<node lat="61.12396341750148" lon="6.775953991598261" id="-32280">
		<tag k="fixme" v="consider place=hamlet" />
		<tag k="name" v="Lunde" />
		<tag k="place" v="farm" />
		<tag k="ssr:stedsnr" v="737744" />
	</node>
	<node lat="61.12470980499136" lon="6.768090945957458" id="-32281">
		<tag k="fixme" v="consider place=hamlet" />
		<tag k="name" v="Dale" />
		<tag k="place" v="farm" />
		<tag k="ssr:stedsnr" v="737746" />
	</node>
	<node lat="61.11080000265637" lon="6.695658327153671" id="-32282">
		<tag k="historic" v="shieling" />
		<tag k="name" v="Saupsete" />
		<tag k="place" v="isolated_dwelling" />
		<tag k="ssr:stedsnr" v="737750" />
	</node>
	<node lat="61.09782291012397" lon="6.873143481647452" id="-32283">
		<tag k="alt_name" v="Vigdal" />
		<tag k="fixme" v="consider place=hamlet" />
		<tag k="name" v="Vigdalen" />
		<tag k="place" v="farm" />
		<tag k="ssr:stedsnr" v="737788" />
	</node>
	<node lat="61.077102776201336" lon="6.628333326395595" id="-32293">
		<tag k="name" v="Villøyane" />
		<tag k="place" v="locality" />
		<tag k="ssr:stedsnr" v="763001" />
	</node>
	<node lat="61.066150002990994" lon="6.524347222429532" id="-32295">
		<tag k="historic" v="shieling" />
		<tag k="name" v="Preststølen" />
		<tag k="place" v="isolated_dwelling" />
		<tag k="ssr:stedsnr" v="764363" />
	</node>
	<node lat="61.04902499663876" lon="6.578513882314609" id="-32298">
		<tag k="name" v="Gamlestølane" />
		<tag k="place" v="locality" />
		<tag k="ssr:stedsnr" v="764066" />
	</node>
	<node lat="61.06470555433522" lon="6.380777780645581" id="-32305">
		<tag k="name" v="Vårstølen" />
		<tag k="place" v="locality" />
		<tag k="ssr:stedsnr" v="764575" />
	</node>
	<node lat="61.074646982135484" lon="6.561110431071418" id="-32326">
		<tag k="fixme" v="consider place=hamlet" />
		<tag k="name" v="Skjørvo" />
		<tag k="place" v="farm" />
		<tag k="ssr:stedsnr" v="798467" />
	</node>
	<node lat="61.05631482608335" lon="6.536260658812353" id="-32327">
		<tag k="fixme" v="consider place=hamlet" />
		<tag k="name" v="Tistel" />
		<tag k="place" v="farm" />
		<tag k="ssr:stedsnr" v="798470" />
	</node>
	<node lat="61.05686666566706" lon="6.628697220982317" id="-32336">
		<tag k="alt_name" v="Nummedalsstølen, nedre;Neste Nummedalstølen" />
		<tag k="historic" v="shieling" />
		<tag k="name" v="Nedste Nummedalstølen" />
		<tag k="place" v="isolated_dwelling" />
		<tag k="ssr:stedsnr" v="798178" />
	</node>
	<node lat="61.0700343310646" lon="6.925011596353353" id="-32337">
=======
	<node id="-668838" lat="61.0687972197" lon="6.31482777162">
		<tag k="name" v="Mortelægja" />
		<tag k="place" v="locality" />
		<tag k="ssr:stedsnr" v="704898" />
	</node>
	<node id="-668831" lat="61.0409833336" lon="6.38575277093">
		<tag k="name" v="Johalsen" />
		<tag k="place" v="locality" />
		<tag k="ssr:stedsnr" v="704508" />
	</node>
	<node id="-668804" lat="61.0640638884" lon="6.92511111582">
		<tag k="name" v="Øybøen" />
		<tag k="place" v="farm" />
		<tag k="ssr:stedsnr" v="555153" />
	</node>
	<node id="-668803" lat="61.0670693246" lon="6.93716958804">
		<tag k="fixme" v="consider place=hamlet" />
		<tag k="name" v="Høgheim" />
		<tag k="place" v="farm" />
		<tag k="ssr:stedsnr" v="555151" />
	</node>
	<node id="-668802" lat="61.0533888855" lon="6.61845278606">
		<tag k="name" v="Grasmyri" />
		<tag k="place" v="farm" />
		<tag k="ssr:stedsnr" v="555147" />
	</node>
	<node id="-668800" lat="61.053815042" lon="6.91742485981">
		<tag k="name" v="Breili" />
		<tag k="place" v="hamlet" />
		<tag k="ssr:stedsnr" v="555122" />
	</node>
	<node id="-668799" lat="61.0353500009" lon="6.63621388663">
		<tag k="historic" v="shieling" />
		<tag k="name" v="Hang" />
		<tag k="place" v="locality" />
		<tag k="ssr:stedsnr" v="555117" />
	</node>
	<node id="-668796" lat="60.9955583363" lon="6.42277778625">
		<tag k="name" v="Byrje" />
		<tag k="place" v="locality" />
		<tag k="ssr:stedsnr" v="701175" />
	</node>
	<node id="-668794" lat="61.0115333356" lon="6.59425834152">
		<tag k="historic" v="shieling" />
		<tag k="name" v="Fyrjane" />
		<tag k="place" v="locality" />
		<tag k="ssr:stedsnr" v="555099" />
	</node>
	<node id="-668793" lat="60.9837472221" lon="6.54382777642">
		<tag k="historic" v="shieling" />
		<tag k="name" v="Ovrisfjell" />
		<tag k="old_name" v="Øvrisfjell" />
		<tag k="place" v="locality" />
		<tag k="ssr:stedsnr" v="554670" />
	</node>
	<node id="-668791" lat="61.0120805554" lon="6.41471111343">
		<tag k="name" v="Hola" />
		<tag k="place" v="farm" />
		<tag k="ssr:stedsnr" v="554658" />
	</node>
	<node id="-668790" lat="61.0054166656" lon="6.41155277964">
		<tag k="fixme" v="consider place=hamlet" />
		<tag k="name" v="Framfjord" />
		<tag k="place" v="village" />
		<tag k="ssr:stedsnr" v="554656" />
	</node>
	<node id="-668788" lat="61.0440166657" lon="6.97946388531">
		<tag k="alt_name" v="Grønlid" />
		<tag k="name" v="Grønli" />
		<tag k="place" v="farm" />
		<tag k="ssr:stedsnr" v="554432" />
	</node>
	<node id="-668786" lat="61.0211572328" lon="6.40818545968">
		<tag k="fixme" v="consider place=hamlet" />
		<tag k="name" v="Bungane" />
		<tag k="place" v="farm" />
		<tag k="ssr:stedsnr" v="696794" />
	</node>
	<node id="-668783" lat="61.1744472259" lon="6.63523333323">
		<tag k="fixme" v="consider place=hamlet" />
		<tag k="name" v="Vangsnes" />
		<tag k="place" v="village" />
		<tag k="ssr:stedsnr" v="494927" />
	</node>
	<node id="-668779" lat="61.1370055524" lon="6.72306110718">
		<tag k="alt_name" v="Berdalsklunken" />
		<tag k="name" v="Berdalskluken" />
		<tag k="place" v="isolated_dwelling" />
		<tag k="ssr:stedsnr" v="494857" />
	</node>
	<node id="-668776" lat="61.1191888858" lon="6.63982777563">
		<tag k="historic" v="shieling" />
		<tag k="name" v="Kongsli" />
		<tag k="place" v="locality" />
		<tag k="ssr:stedsnr" v="677790" />
	</node>
	<node id="-668772" lat="61.0584888881" lon="6.51048611703">
		<tag k="name" v="Hovden" />
		<tag k="place" v="locality" />
		<tag k="ssr:stedsnr" v="677590" />
	</node>
	<node id="-668770" lat="61.1446422474" lon="6.83247193221">
		<tag k="fixme" v="consider place=hamlet" />
		<tag k="name" v="Indre Bårlog" />
		<tag k="place" v="farm" />
		<tag k="ssr:stedsnr" v="677882" />
	</node>
	<node id="-668769" lat="61.0491861106" lon="6.24389444955">
		<tag k="historic" v="shieling" />
		<tag k="name" v="Fagerdalen" />
		<tag k="place" v="locality" />
		<tag k="ssr:stedsnr" v="677577" />
	</node>
	<node id="-668763" lat="61.0496531306" lon="6.63035435356">
		<tag k="alt_name" v="Nummedal, vesle;Nummedal" />
		<tag k="fixme" v="consider place=hamlet" />
		<tag k="name" v="Vetle Nummedal" />
		<tag k="place" v="farm" />
		<tag k="ssr:stedsnr" v="677197" />
	</node>
	<node id="-668761" lat="61.0414388891" lon="6.66557777438">
		<tag k="name" v="Bruavollstølen" />
		<tag k="place" v="locality" />
		<tag k="ssr:stedsnr" v="677193" />
	</node>
	<node id="-668759" lat="61.0523905182" lon="6.62242123875">
		<tag k="alt_name" v="Nummedal, store" />
		<tag k="fixme" v="consider place=hamlet" />
		<tag k="name" v="Store Nummedal" />
		<tag k="place" v="farm" />
		<tag k="ssr:stedsnr" v="677182" />
	</node>
	<node id="-668753" lat="60.9882749981" lon="6.52500832459">
		<tag k="historic" v="shieling" />
		<tag k="name" v="Målset" />
		<tag k="place" v="locality" />
		<tag k="ssr:stedsnr" v="676630" />
	</node>
	<node id="-668749" lat="60.9909163906" lon="6.4329172568">
		<tag k="fixme" v="consider place=hamlet" />
		<tag k="name" v="Dale" />
		<tag k="place" v="farm" />
		<tag k="ssr:stedsnr" v="676662" />
	</node>
	<node id="-668745" lat="61.0344267247" lon="6.59051546693">
		<tag k="fixme" v="consider place=hamlet" />
		<tag k="name" v="Rislåg" />
		<tag k="place" v="farm" />
		<tag k="ssr:stedsnr" v="676524" />
	</node>
	<node id="-668744" lat="61.0693769513" lon="6.57079482565">
		<tag k="fixme" v="consider place=hamlet" />
		<tag k="name" v="Holstad" />
		<tag k="place" v="farm" />
		<tag k="ssr:stedsnr" v="676518" />
	</node>
	<node id="-668740" lat="61.0819678735" lon="6.91445887898">
		<tag k="alt_name" v="Haukenes" />
		<tag k="fixme" v="consider place=hamlet" />
		<tag k="name" v="Haukanes" />
		<tag k="place" v="farm" />
		<tag k="ssr:stedsnr" v="676228" />
	</node>
	<node id="-668734" lat="61.1554138892" lon="6.62964999504">
		<tag k="name" v="Vangsnes" />
		<tag k="place" v="isolated_dwelling" />
		<tag k="ssr:stedsnr" v="478981" />
	</node>
	<node id="-668733" lat="61.0705916646" lon="6.93662222501">
		<tag k="name" v="Seim" />
		<tag k="place" v="farm" />
		<tag k="ssr:stedsnr" v="478004" />
	</node>
	<node id="-668729" lat="61.0215222234" lon="6.38471945243">
		<tag k="name" v="Skuongen" />
		<tag k="place" v="farm" />
		<tag k="ssr:stedsnr" v="459152" />
	</node>
	<node id="-668728" lat="61.0459121102" lon="6.40098900472">
		<tag k="fixme" v="consider place=hamlet" />
		<tag k="name" v="Otterskreda" />
		<tag k="place" v="farm" />
		<tag k="ssr:stedsnr" v="658443" />
	</node>
	<node id="-668723" lat="61.0078111101" lon="6.4189249989">
		<tag k="name" v="Holaviki" />
		<tag k="place" v="farm" />
		<tag k="ssr:stedsnr" v="519168" />
	</node>
	<node id="-668716" lat="61.1325861152" lon="6.83902221329">
		<tag k="alt_name" v="Klegjasete" />
		<tag k="name" v="Kleggjasete" />
		<tag k="place" v="locality" />
		<tag k="ssr:stedsnr" v="434818" />
	</node>
	<node id="-668715" lat="61.0004968412" lon="6.37130609874">
		<tag k="fixme" v="consider place=hamlet" />
		<tag k="name" v="Hallsete" />
		<tag k="place" v="farm" />
		<tag k="ssr:stedsnr" v="434613" />
	</node>
	<node id="-668714" lat="61.0071606091" lon="6.42140590122">
		<tag k="fixme" v="consider place=hamlet" />
		<tag k="name" v="Holane" />
		<tag k="place" v="farm" />
		<tag k="ssr:stedsnr" v="434611" />
	</node>
	<node id="-668712" lat="61.1163222261" lon="6.72950834069">
		<tag k="historic" v="shieling" />
		<tag k="name" v="Selhaug" />
		<tag k="place" v="locality" />
		<tag k="ssr:stedsnr" v="434734" />
	</node>
	<node id="-668708" lat="61.0758333292" lon="6.8541472297">
		<tag k="name" v="Tuftene" />
		<tag k="place" v="locality" />
		<tag k="ssr:stedsnr" v="434225" />
	</node>
	<node id="-668707" lat="61.0795472184" lon="6.73714999591">
		<tag k="historic" v="shieling" />
		<tag k="name" v="Gullsete" />
		<tag k="place" v="locality" />
		<tag k="ssr:stedsnr" v="434223" />
	</node>
	<node id="-668703" lat="61.0193694452" lon="6.64486111125">
		<tag k="historic" v="shieling" />
		<tag k="name" v="Sendedal" />
		<tag k="place" v="locality" />
		<tag k="ssr:stedsnr" v="434109" />
	</node>
	<node id="-668684" lat="61.0728944447" lon="6.59544444944">
		<tag k="fixme" v="consider place=hamlet" />
		<tag k="name" v="Føli" />
		<tag k="place" v="farm" />
		<tag k="ssr:stedsnr" v="393803" />
	</node>
	<node id="-668682" lat="61.1316916645" lon="6.73336389599">
		<tag k="historic" v="shieling" />
		<tag k="name" v="Navarsete" />
		<tag k="place" v="locality" />
		<tag k="ssr:stedsnr" v="373854" />
	</node>
	<node id="-668681" lat="61.138205553" lon="6.64987223133">
		<tag k="name" v="Hola" />
		<tag k="place" v="locality" />
		<tag k="ssr:stedsnr" v="373817" />
	</node>
	<node id="-668677" lat="61.041074997" lon="6.8750916598">
		<tag k="historic" v="shieling" />
		<tag k="name" v="Engi" />
		<tag k="place" v="locality" />
		<tag k="ssr:stedsnr" v="373166" />
	</node>
	<node id="-668669" lat="60.9334249968" lon="6.19725000096">
		<tag k="historic" v="shieling" />
		<tag k="name" v="Holmen" />
		<tag k="place" v="locality" />
		<tag k="ssr:stedsnr" v="372123" />
	</node>
	<node id="-668659" lat="61.1265861096" lon="6.6304555641">
		<tag k="name" v="Seltuftene" />
		<tag k="place" v="locality" />
		<tag k="ssr:stedsnr" v="494835" />
	</node>
	<node id="-668654" lat="61.0862058727" lon="6.30487768912">
		<tag k="fixme" v="consider place=hamlet" />
		<tag k="name" v="Kyrkjeteigen" />
		<tag k="place" v="farm" />
		<tag k="ssr:stedsnr" v="494640" />
	</node>
	<node id="-668652" lat="60.9714749997" lon="6.50687499926">
		<tag k="name" v="Hestavollen" />
		<tag k="place" v="isolated_dwelling" />
		<tag k="ssr:stedsnr" v="494622" />
	</node>
	<node id="-668651" lat="60.9753666691" lon="6.49015278487">
		<tag k="historic" v="shieling" />
		<tag k="name" v="Ygnisdalen" />
		<tag k="place" v="locality" />
		<tag k="ssr:stedsnr" v="494621" />
	</node>
	<node id="-668647" lat="61.0824250023" lon="6.50302500091">
		<tag k="name" v="Prestteigen" />
		<tag k="place" v="farm" />
		<tag k="ssr:stedsnr" v="494539" />
	</node>
	<node id="-668646" lat="61.0802072472" lon="6.4899112486">
		<tag k="alt_name" v="Røyrvik" />
		<tag k="fixme" v="consider place=hamlet" />
		<tag k="name" v="Røyrviki" />
		<tag k="place" v="farm" />
		<tag k="ssr:stedsnr" v="494538" />
	</node>
	<node id="-668645" lat="61.0282249982" lon="6.56253611556">
		<tag k="historic" v="shieling" />
		<tag k="name" v="Undisstølen" />
		<tag k="place" v="locality" />
		<tag k="ssr:stedsnr" v="494493" />
	</node>
	<node id="-668644" lat="61.0612000014" lon="6.5773111023">
		<tag k="historic" v="shieling" />
		<tag k="name" v="Vollastølen" />
		<tag k="place" v="locality" />
		<tag k="ssr:stedsnr" v="494489" />
	</node>
	<node id="-668640" lat="61.0903833351" lon="6.87862778639">
		<tag k="alt_name" v="Kolåsstrandi" />
		<tag k="name" v="Kolåsstrondi" />
		<tag k="place" v="locality" />
		<tag k="ssr:stedsnr" v="494208" />
	</node>
	<node id="-668636" lat="61.0728069053" lon="6.93276875749">
		<tag k="fixme" v="consider place=hamlet" />
		<tag k="name" v="Grundeland" />
		<tag k="place" v="farm" />
		<tag k="ssr:stedsnr" v="494173" />
	</node>
	<node id="-668635" lat="61.0715187576" lon="6.94087767561">
		<tag k="fixme" v="consider place=hamlet" />
		<tag k="name" v="Skau" />
		<tag k="place" v="farm" />
		<tag k="ssr:stedsnr" v="494170" />
	</node>
	<node id="-668634" lat="61.0563083353" lon="6.81726111074">
		<tag k="alt_name" v="Heljedalen" />
		<tag k="name" v="Helgedalen" />
		<tag k="place" v="locality" />
		<tag k="ssr:stedsnr" v="494166" />
	</node>
	<node id="-668614" lat="61.0513638932" lon="6.54832221587">
		<tag k="historic" v="shieling" />
		<tag k="name" v="Titlastøl" />
		<tag k="place" v="locality" />
		<tag k="ssr:stedsnr" v="338091" />
	</node>
	<node id="-668613" lat="61.0435166636" lon="6.54224167315">
		<tag k="name" v="Husmannssete" />
		<tag k="place" v="locality" />
		<tag k="ssr:stedsnr" v="338079" />
	</node>
	<node id="-668610" lat="60.9926166679" lon="6.43231389123">
		<tag k="name" v="Leite" />
		<tag k="place" v="farm" />
		<tag k="ssr:stedsnr" v="337478" />
	</node>
	<node id="-668601" lat="61.1197394885" lon="6.77090521081">
		<tag k="alt_name" v="Grindedal" />
		<tag k="fixme" v="consider place=hamlet" />
		<tag k="name" v="Grinddal" />
		<tag k="place" v="farm" />
		<tag k="ssr:stedsnr" v="313773" />
	</node>
	<node id="-668593" lat="61.1565027813" lon="6.62817500879">
		<tag k="alt_name" v="Kallvik" />
		<tag k="name" v="Kalvvik" />
		<tag k="place" v="farm" />
		<tag k="ssr:stedsnr" v="312812" />
	</node>
	<node id="-668591" lat="61.0936555528" lon="6.23787499367">
		<tag k="historic" v="shieling" />
		<tag k="name" v="Vindhalsen" />
		<tag k="place" v="locality" />
		<tag k="ssr:stedsnr" v="312657" />
	</node>
	<node id="-668588" lat="61.0974777821" lon="6.77418055375">
		<tag k="historic" v="shieling" />
		<tag k="name" v="Haugasete" />
		<tag k="place" v="locality" />
		<tag k="ssr:stedsnr" v="312761" />
	</node>
	<node id="-668584" lat="61.0870750033" lon="6.57913888781">
		<tag k="name" v="Vikøyri" />
		<tag k="place" v="village" />
		<tag k="ssr:stedsnr" v="312608" />
	</node>
	<node id="-668581" lat="61.0715881451" lon="6.58626599444">
		<tag k="fixme" v="consider place=hamlet" />
		<tag k="name" v="Hove" />
		<tag k="place" v="farm" />
		<tag k="ssr:stedsnr" v="312501" />
	</node>
	<node id="-668556" lat="61.1001361138" lon="6.20102499211">
		<tag k="name" v="Stølane" />
		<tag k="place" v="locality" />
		<tag k="ssr:stedsnr" v="461531" />
	</node>
	<node id="-668542" lat="61.0757750044" lon="6.61765833645">
		<tag k="name" v="Giljagarden" />
		<tag k="place" v="locality" />
		<tag k="ssr:stedsnr" v="460022" />
	</node>
	<node id="-668535" lat="60.9919222238" lon="6.4576944474">
		<tag k="name" v="Nestedalen" />
		<tag k="place" v="locality" />
		<tag k="ssr:stedsnr" v="459415" />
	</node>
	<node id="-668527" lat="61.090061109" lon="6.51808334232">
		<tag k="name" v="Jernane" />
		<tag k="place" v="farm" />
		<tag k="ssr:stedsnr" v="277069" />
	</node>
	<node id="-668526" lat="61.0233500017" lon="6.32614722707">
		<tag k="fixme" v="consider tourism=alpine_hut or tourism=chalet" />
		<tag k="name" v="Vatnane" />
		<tag k="ssr:stedsnr" v="270559" />
		<tag k="tourism" v="wilderness_hut" />
	</node>
	<node id="-668494" lat="61.1162944444" lon="6.74987499129">
		<tag k="alt_name" v="Smedjekluken" />
		<tag k="historic" v="shieling" />
		<tag k="name" v="Smidjekluken" />
		<tag k="place" v="locality" />
		<tag k="ssr:stedsnr" v="191733" />
	</node>
	<node id="-668493" lat="61.1227861083" lon="6.74491944034">
		<tag k="alt_name" v="Klungerstøl" />
		<tag k="name" v="Klungerstølen" />
		<tag k="place" v="locality" />
		<tag k="ssr:stedsnr" v="191730" />
	</node>
	<node id="-668487" lat="61.1288221579" lon="6.76140173997">
		<tag k="alt_name" v="Tveit" />
		<tag k="fixme" v="consider place=hamlet" />
		<tag k="name" v="Tveiti" />
		<tag k="place" v="farm" />
		<tag k="ssr:stedsnr" v="191817" />
	</node>
	<node id="-668485" lat="61.1245555587" lon="6.66390277485">
		<tag k="alt_name" v="Kaldbakk" />
		<tag k="historic" v="shieling" />
		<tag k="name" v="Kallbakk" />
		<tag k="place" v="locality" />
		<tag k="ssr:stedsnr" v="191813" />
	</node>
	<node id="-668483" lat="60.9608406788" lon="6.29908292153">
		<tag k="historic" v="shieling" />
		<tag k="name" v="Rappen" />
		<tag k="place" v="locality" />
		<tag k="ssr:stedsnr" v="191612" />
	</node>
	<node id="-668480" lat="61.0511526077" lon="6.94191297838">
		<tag k="alt_name" v="Otterhjell" />
		<tag k="fixme" v="consider place=hamlet" />
		<tag k="name" v="Otrehjell" />
		<tag k="place" v="farm" />
		<tag k="ssr:stedsnr" v="191136" />
	</node>
	<node id="-668479" lat="61.0379805597" lon="6.66388889077">
		<tag k="alt_name" v="Brudevoll" />
		<tag k="name" v="Bruavoll" />
		<tag k="place" v="farm" />
		<tag k="ssr:stedsnr" v="191130" />
	</node>
	<node id="-668478" lat="61.039414547" lon="6.66070289374">
		<tag k="fixme" v="consider place=hamlet" />
		<tag k="name" v="Myrkaskog" />
		<tag k="place" v="farm" />
		<tag k="ssr:stedsnr" v="191127" />
	</node>
	<node id="-668474" lat="60.9945250018" lon="6.56436110175">
		<tag k="historic" v="shieling" />
		<tag k="name" v="Valhola" />
		<tag k="place" v="locality" />
		<tag k="ssr:stedsnr" v="190635" />
	</node>
	<node id="-668453" lat="61.0803388912" lon="6.57350833575">
		<tag k="name" v="Klokkargarden" />
		<tag k="place" v="farm" />
		<tag k="ssr:stedsnr" v="279433" />
	</node>
	<node id="-668442" lat="61.1254349852" lon="6.73759046598">
		<tag k="fixme" v="consider place=hamlet" />
		<tag k="name" v="Åfet" />
		<tag k="place" v="farm" />
		<tag k="ssr:stedsnr" v="279074" />
	</node>
	<node id="-668439" lat="61.020336109" lon="6.41287221592">
		<tag k="name" v="Hellerane" />
		<tag k="place" v="locality" />
		<tag k="ssr:stedsnr" v="279691" />
	</node>
	<node id="-668433" lat="61.0773055573" lon="6.62024166732">
		<tag k="name" v="Liagardane" />
		<tag k="place" v="locality" />
		<tag k="ssr:stedsnr" v="278018" />
	</node>
	<node id="-668432" lat="61.0287972264" lon="6.56234721872">
		<tag k="name" v="Øygarden" />
		<tag k="place" v="locality" />
		<tag k="ssr:stedsnr" v="277495" />
	</node>
	<node id="-668427" lat="61.1301666689" lon="6.71107500837">
		<tag k="historic" v="shieling" />
		<tag k="name" v="Solasete" />
		<tag k="place" v="locality" />
		<tag k="ssr:stedsnr" v="130817" />
	</node>
	<node id="-668426" lat="61.1420798201" lon="6.6276320515">
		<tag k="fixme" v="consider place=hamlet" />
		<tag k="name" v="Øksdal" />
		<tag k="place" v="farm" />
		<tag k="ssr:stedsnr" v="130802" />
	</node>
	<node id="-668422" lat="61.1182722268" lon="6.60922500478">
		<tag k="historic" v="shieling" />
		<tag k="name" v="Soleisete" />
		<tag k="place" v="locality" />
		<tag k="ssr:stedsnr" v="130738" />
	</node>
	<node id="-668420" lat="61.1279452191" lon="6.87435698553">
		<tag k="fixme" v="consider place=hamlet" />
		<tag k="name" v="Straumsnes" />
		<tag k="place" v="farm" />
		<tag k="ssr:stedsnr" v="130724" />
	</node>
	<node id="-668418" lat="61.1187448458" lon="6.6028180646">
		<tag k="alt_name" v="Gotevik" />
		<tag k="fixme" v="consider place=hamlet" />
		<tag k="name" v="Goteviki" />
		<tag k="place" v="farm" />
		<tag k="ssr:stedsnr" v="130717" />
	</node>
	<node id="-668389" lat="61.0759916655" lon="6.61289999712">
		<tag k="historic" v="shieling" />
		<tag k="name" v="Arnastøl" />
		<tag k="place" v="locality" />
		<tag k="ssr:stedsnr" v="96021" />
	</node>
	<node id="-668385" lat="61.1398222257" lon="6.83206389137">
		<tag k="alt_name" v="Flætene" />
		<tag k="name" v="Fletene" />
		<tag k="place" v="locality" />
		<tag k="ssr:stedsnr" v="252846" />
	</node>
	<node id="-668380" lat="61.1450452177" lon="6.6243119201">
		<tag k="alt_name" v="Tveit" />
		<tag k="fixme" v="consider place=hamlet" />
		<tag k="name" v="Tveiti" />
		<tag k="place" v="farm" />
		<tag k="ssr:stedsnr" v="252811" />
	</node>
	<node id="-668378" lat="61.1455500018" lon="6.81749167298">
		<tag k="name" v="Garden" />
		<tag k="place" v="farm" />
		<tag k="ssr:stedsnr" v="252800" />
	</node>
	<node id="-668373" lat="61.1170416686" lon="6.76775555341">
		<tag k="alt_name" v="Lægdene" />
		<tag k="historic" v="shieling" />
		<tag k="name" v="Legdene" />
		<tag k="place" v="locality" />
		<tag k="ssr:stedsnr" v="252734" />
	</node>
	<node id="-668372" lat="61.0833531322" lon="6.31443080754">
		<tag k="fixme" v="consider place=hamlet" />
		<tag k="name" v="Vollaviki" />
		<tag k="place" v="farm" />
		<tag k="ssr:stedsnr" v="252637" />
	</node>
	<node id="-668371" lat="61.0192189792" lon="6.38475244551">
		<tag k="fixme" v="consider place=hamlet" />
		<tag k="name" v="Nese" />
		<tag k="place" v="farm" />
		<tag k="ssr:stedsnr" v="252570" />
	</node>
	<node id="-668370" lat="61.0135083291" lon="6.36403333059">
		<tag k="name" v="Morki" />
		<tag k="place" v="farm" />
		<tag k="ssr:stedsnr" v="252569" />
	</node>
	<node id="-668368" lat="61.0231416675" lon="6.42426944502">
		<tag k="historic" v="shieling" />
		<tag k="name" v="Saursete" />
		<tag k="place" v="locality" />
		<tag k="ssr:stedsnr" v="252563" />
	</node>
	<node id="-668367" lat="61.0340888874" lon="6.36912500886">
		<tag k="historic" v="shieling" />
		<tag k="name" v="Rosete" />
		<tag k="place" v="locality" />
		<tag k="ssr:stedsnr" v="252546" />
	</node>
	<node id="-668365" lat="61.0811555531" lon="6.9049277744">
		<tag k="alt_name" v="Haukestølen" />
		<tag k="name" v="Haukastølen" />
		<tag k="place" v="locality" />
		<tag k="ssr:stedsnr" v="252223" />
	</node>
	<node id="-668363" lat="61.0745306966" lon="6.92656275411">
		<tag k="fixme" v="consider place=hamlet" />
		<tag k="name" v="Øyri" />
		<tag k="place" v="farm" />
		<tag k="ssr:stedsnr" v="252213" />
	</node>
	<node id="-668360" lat="61.0717388931" lon="6.95129999086">
		<tag k="name" v="Holten" />
		<tag k="place" v="isolated_dwelling" />
		<tag k="ssr:stedsnr" v="252159" />
	</node>
	<node id="-668357" lat="61.0464055567" lon="6.8902194491">
		<tag k="alt_name" v="Storesteingarden" />
		<tag k="historic" v="shieling" />
		<tag k="name" v="Storsteingardane" />
		<tag k="place" v="locality" />
		<tag k="ssr:stedsnr" v="252129" />
	</node>
	<node id="-668352" lat="60.9855888926" lon="6.40711943991">
		<tag k="historic" v="shieling" />
		<tag k="name" v="Valsvikstølen" />
		<tag k="place" v="locality" />
		<tag k="ssr:stedsnr" v="251706" />
	</node>
	<node id="-668345" lat="61.1020754694" lon="6.53904433265">
		<tag k="fixme" v="consider place=hamlet" />
		<tag k="name" v="Liktvorane" />
		<tag k="place" v="farm" />
		<tag k="ssr:stedsnr" v="251642" />
	</node>
	<node id="-668339" lat="61.0396027738" lon="6.87406111137">
		<tag k="name" v="Hillegarden" />
		<tag k="place" v="locality" />
		<tag k="ssr:stedsnr" v="251202" />
	</node>
	<node id="-668334" lat="61.1455361113" lon="6.72930555041">
		<tag k="historic" v="shieling" />
		<tag k="name" v="Madssete" />
		<tag k="place" v="locality" />
		<tag k="ssr:stedsnr" v="70801" />
	</node>
	<node id="-668331" lat="61.0693307174" lon="6.37979277249">
		<tag k="fixme" v="consider place=hamlet" />
		<tag k="name" v="Geithus" />
		<tag k="place" v="farm" />
		<tag k="ssr:stedsnr" v="70546" />
	</node>
	<node id="-668330" lat="61.0810583323" lon="6.47299444494">
		<tag k="name" v="Hagen" />
		<tag k="place" v="farm" />
		<tag k="ssr:stedsnr" v="70540" />
	</node>
	<node id="-668329" lat="61.1039642314" lon="6.21138468726">
		<tag k="fixme" v="consider place=hamlet" />
		<tag k="name" v="Vetlesand" />
		<tag k="place" v="farm" />
		<tag k="ssr:stedsnr" v="70302" />
	</node>
	<node id="-668326" lat="60.9772416673" lon="6.61200834178">
		<tag k="historic" v="shieling" />
		<tag k="name" v="Vollafjellet" />
		<tag k="place" v="locality" />
		<tag k="ssr:stedsnr" v="69921" />
	</node>
	<node id="-668324" lat="60.9608972231" lon="6.60157778096">
		<tag k="historic" v="shieling" />
		<tag k="name" v="Kvanndalen" />
		<tag k="place" v="locality" />
		<tag k="ssr:stedsnr" v="69908" />
	</node>
	<node id="-668323" lat="60.9477749987" lon="6.7419166652">
		<tag k="historic" v="shieling" />
		<tag k="name" v="Nedstedalen" />
		<tag k="place" v="locality" />
		<tag k="ssr:stedsnr" v="69906" />
	</node>
	<node id="-668307" lat="61.1455305578" lon="6.84765000569">
		<tag k="name" v="Løneset" />
		<tag k="place" v="farm" />
		<tag k="ssr:stedsnr" v="9811" />
	</node>
	<node id="-668306" lat="61.1415249996" lon="6.7419111081">
		<tag k="alt_name" v="Hovetuftene" />
		<tag k="name" v="Håatuftene" />
		<tag k="place" v="farm" />
		<tag k="ssr:stedsnr" v="9807" />
	</node>
	<node id="-668305" lat="61.1487330076" lon="6.75862983133">
		<tag k="fixme" v="consider place=hamlet" />
		<tag k="name" v="Rinde" />
		<tag k="place" v="farm" />
		<tag k="ssr:stedsnr" v="9805" />
	</node>
	<node id="-668302" lat="61.0860277806" lon="6.51181667468">
		<tag k="alt_name" v="Svolsvik" />
		<tag k="name" v="Svollsviki" />
		<tag k="place" v="farm" />
		<tag k="ssr:stedsnr" v="9621" />
	</node>
	<node id="-668299" lat="61.0511917927" lon="6.53011415296">
		<tag k="fixme" v="consider place=hamlet" />
		<tag k="name" v="Rosheim" />
		<tag k="place" v="farm" />
		<tag k="ssr:stedsnr" v="9512" />
	</node>
	<node id="-668291" lat="60.9999675132" lon="6.36218486727">
		<tag k="name" v="Frettheim" />
		<tag k="place" v="farm" />
		<tag k="ssr:stedsnr" v="8719" />
	</node>
	<node id="-668289" lat="60.9875000022" lon="6.45931388395">
		<tag k="historic" v="shieling" />
		<tag k="name" v="Vetlestølen" />
		<tag k="place" v="locality" />
		<tag k="ssr:stedsnr" v="8710" />
	</node>
	<node id="-668286" lat="60.9165999968" lon="6.52581111643">
		<tag k="alt_name" v="Grungen, store" />
		<tag k="name" v="Store Grungen" />
		<tag k="place" v="isolated_dwelling" />
		<tag k="ssr:stedsnr" v="8630" />
	</node>
	<node id="-668285" lat="60.9203027741" lon="6.54455276926">
		<tag k="historic" v="shieling" />
		<tag k="name" v="Dueskardet" />
		<tag k="place" v="locality" />
		<tag k="ssr:stedsnr" v="8628" />
	</node>
	<node id="-668271" lat="61.068063889" lon="6.52652221992">
		<tag k="historic" v="shieling" />
		<tag k="name" v="Midlang-stølen" />
		<tag k="place" v="locality" />
		<tag k="ssr:stedsnr" v="218471" />
	</node>
	<node id="-668270" lat="61.0840416662" lon="6.57877777261">
		<tag k="fixme" v="consider place=suburb, village or hamlet" />
		<tag k="name" v="Røysane" />
		<tag k="place" v="quarter" />
		<tag k="ssr:stedsnr" v="218464" />
	</node>
	<node id="-668266" lat="61.0945222245" lon="6.56996110947">
		<tag k="name" v="Vangsteigane" />
		<tag k="place" v="locality" />
		<tag k="ssr:stedsnr" v="218368" />
	</node>
	<node id="-668265" lat="61.1141916645" lon="6.69082777065">
		<tag k="historic" v="shieling" />
		<tag k="name" v="Ytstestøl" />
		<tag k="place" v="locality" />
		<tag k="ssr:stedsnr" v="218183" />
	</node>
	<node id="-668263" lat="61.0571305519" lon="6.55487500407">
		<tag k="name" v="Kolgrov" />
		<tag k="place" v="locality" />
		<tag k="ssr:stedsnr" v="218119" />
	</node>
	<node id="-670141" lat="61.0225956572" lon="6.38627111518">
		<tag k="fixme" v="consider place=hamlet" />
		<tag k="name" v="Arnafjord" />
		<tag k="place" v="village" />
		<tag k="ssr:stedsnr" v="1072404" />
	</node>
	<node id="-670140" lat="61.0939340582" lon="6.29533623057">
		<tag k="fixme" v="consider tourism=alpine_hut or tourism=chalet" />
		<tag k="name" v="Sylvarnes" />
		<tag k="ssr:stedsnr" v="991022" />
		<tag k="tourism" v="wilderness_hut" />
	</node>
	<node id="-670138" lat="61.0406735431" lon="6.52294316746">
		<tag k="name" v="Vik fjellandsby" />
		<tag k="place" v="neighbourhood" />
		<tag k="ssr:stedsnr" v="982062" />
	</node>
	<node id="-670137" lat="61.0352005407" lon="6.52843915695">
		<tag k="leisure" v="pitch" />
		<tag k="name" v="Vik Skisenter" />
		<tag k="ssr:stedsnr" v="982060" />
	</node>
	<node id="-670136" lat="61.0964886121" lon="6.8735442321">
		<tag k="name" v="Kolåsen" />
		<tag k="place" v="locality" />
		<tag k="ssr:stedsnr" v="980128" />
	</node>
	<node id="-670135" lat="61.1722245091" lon="6.6421928262">
		<tag k="fixme" v="consider place=hamlet" />
		<tag k="name" v="Vangsnes" />
		<tag k="place" v="farm" />
		<tag k="ssr:stedsnr" v="979542" />
	</node>
	<node id="-670130" lat="61.1267416659" lon="6.75427499421">
		<tag k="name" v="Lauvhoggene" />
		<tag k="place" v="locality" />
		<tag k="ssr:stedsnr" v="859839" />
	</node>
	<node id="-670129" lat="61.1489666696" lon="6.75442777713">
		<tag k="fixme" v="consider place=hamlet" />
		<tag k="name" v="Feios" />
		<tag k="place" v="village" />
		<tag k="ssr:stedsnr" v="859794" />
	</node>
	<node id="-670128" lat="61.1461628553" lon="6.76748760268">
		<tag k="alt_name" v="Feidje" />
		<tag k="fixme" v="consider place=hamlet" />
		<tag k="name" v="Fedjane" />
		<tag k="place" v="farm" />
		<tag k="ssr:stedsnr" v="859792" />
	</node>
	<node id="-670125" lat="61.0824527739" lon="6.25502500278">
		<tag k="historic" v="shieling" />
		<tag k="name" v="Sylvarnesdalen" />
		<tag k="place" v="locality" />
		<tag k="ssr:stedsnr" v="859648" />
	</node>
	<node id="-670122" lat="61.0930708856" lon="6.52431085424">
		<tag k="alt_name" v="Svardal" />
		<tag k="fixme" v="consider place=hamlet" />
		<tag k="name" v="Svardalen" />
		<tag k="place" v="farm" />
		<tag k="ssr:stedsnr" v="859600" />
	</node>
	<node id="-670121" lat="61.0099166638" lon="6.3281527725">
		<tag k="alt_name" v="Fosseset" />
		<tag k="historic" v="shieling" />
		<tag k="name" v="Fossesete" />
		<tag k="place" v="locality" />
		<tag k="ssr:stedsnr" v="859583" />
	</node>
	<node id="-670119" lat="61.0227916686" lon="6.32444443559">
		<tag k="historic" v="shieling" />
		<tag k="name" v="Vatnane" />
		<tag k="place" v="locality" />
		<tag k="ssr:stedsnr" v="859578" />
	</node>
	<node id="-670116" lat="61.0670944461" lon="6.44702500173">
		<tag k="alt_name" v="Nygodt" />
		<tag k="historic" v="shieling" />
		<tag k="name" v="Nygot" />
		<tag k="place" v="locality" />
		<tag k="ssr:stedsnr" v="859534" />
	</node>
	<node id="-670114" lat="61.0583494279" lon="6.91797425555">
		<tag k="alt_name" v="Hatlelid" />
		<tag k="name" v="Hatleli" />
		<tag k="place" v="hamlet" />
		<tag k="ssr:stedsnr" v="859200" />
	</node>
	<node id="-670110" lat="61.1124577967" lon="6.19152188951">
		<tag k="fixme" v="consider place=hamlet" />
		<tag k="name" v="Ålrek" />
		<tag k="place" v="farm" />
		<tag k="ssr:stedsnr" v="859285" />
	</node>
	<node id="-670108" lat="61.0413744731" lon="6.65012141297">
		<tag k="fixme" v="consider place=hamlet" />
		<tag k="name" v="Øvstedal" />
		<tag k="place" v="farm" />
		<tag k="ssr:stedsnr" v="859141" />
	</node>
	<node id="-670105" lat="60.9656999975" lon="6.22052500306">
		<tag k="fixme" v="consider tourism=alpine_hut or tourism=chalet" />
		<tag k="name" v="Åsedalen" />
		<tag k="ssr:stedsnr" v="858651" />
		<tag k="tourism" v="wilderness_hut" />
	</node>
	<node id="-670101" lat="61.0023250041" lon="6.47657499384">
		<tag k="historic" v="shieling" />
		<tag k="name" v="Rivedalen" />
		<tag k="place" v="locality" />
		<tag k="ssr:stedsnr" v="858630" />
	</node>
	<node id="-670099" lat="61.003619449" lon="6.365502785">
		<tag k="name" v="Svensbø" />
		<tag k="place" v="farm" />
		<tag k="ssr:stedsnr" v="858625" />
	</node>
	<node id="-670095" lat="61.167436114" lon="6.63957223092">
		<tag k="name" v="Vangstun" />
		<tag k="place" v="farm" />
		<tag k="ssr:stedsnr" v="843970" />
	</node>
	<node id="-670091" lat="60.9867000037" lon="6.5199583302">
		<tag k="fixme" v="consider tourism=alpine_hut or tourism=chalet" />
		<tag k="name" v="Målsethytta" />
		<tag k="ssr:stedsnr" v="841852" />
		<tag k="tourism" v="wilderness_hut" />
	</node>
	<node id="-670089" lat="61.0939916669" lon="6.28309444598">
		<tag k="name" v="Reppeteigne" />
		<tag k="place" v="locality" />
		<tag k="ssr:stedsnr" v="825942" />
	</node>
	<node id="-670060" lat="61.0510138849" lon="6.5235111152">
		<tag k="historic" v="shieling" />
		<tag k="name" v="Rosheimstølen" />
		<tag k="place" v="locality" />
		<tag k="ssr:stedsnr" v="825312" />
	</node>
	<node id="-670053" lat="61.0708777804" lon="6.55221943923">
		<tag k="name" v="Sjurgarden" />
		<tag k="place" v="farm" />
		<tag k="ssr:stedsnr" v="825431" />
	</node>
	<node id="-670051" lat="61.0522888915" lon="6.55840834089">
		<tag k="name" v="Klepp" />
		<tag k="place" v="locality" />
		<tag k="ssr:stedsnr" v="825073" />
	</node>
	<node id="-670030" lat="61.1667999994" lon="6.63922778344">
		<tag k="name" v="Midttun" />
		<tag k="place" v="farm" />
		<tag k="ssr:stedsnr" v="798898" />
	</node>
	<node id="-670029" lat="61.1099805572" lon="6.76554445144">
		<tag k="name" v="Bruasete" />
		<tag k="place" v="locality" />
		<tag k="ssr:stedsnr" v="798752" />
	</node>
	<node id="-670026" lat="61.1237666704" lon="6.71816665725">
		<tag k="alt_name" v="Langækra" />
		<tag k="name" v="Langekra" />
		<tag k="place" v="locality" />
		<tag k="ssr:stedsnr" v="798734" />
	</node>
	<node id="-670024" lat="61.1076222228" lon="6.74258611432">
		<tag k="alt_name" v="Dalasete" />
		<tag k="historic" v="shieling" />
		<tag k="name" v="Dalssete" />
		<tag k="place" v="locality" />
		<tag k="ssr:stedsnr" v="798721" />
	</node>
	<node id="-670023" lat="61.1183996038" lon="6.7774078112">
		<tag k="alt_name" v="Sæterlid" />
		<tag k="fixme" v="consider place=hamlet" />
		<tag k="name" v="Li" />
		<tag k="place" v="farm" />
		<tag k="ssr:stedsnr" v="798715" />
	</node>
	<node id="-670021" lat="61.138164096" lon="6.74393405069">
		<tag k="fixme" v="consider place=hamlet" />
		<tag k="name" v="Berdal" />
		<tag k="place" v="farm" />
		<tag k="ssr:stedsnr" v="798827" />
	</node>
	<node id="-670020" lat="61.1332305581" lon="6.8563638805">
		<tag k="historic" v="shieling" />
		<tag k="name" v="Ramnaberg" />
		<tag k="place" v="locality" />
		<tag k="ssr:stedsnr" v="798824" />
	</node>
	<node id="-670018" lat="61.1317749793" lon="6.61975268364">
		<tag k="fixme" v="consider place=hamlet" />
		<tag k="name" v="Hovland" />
		<tag k="place" v="farm" />
		<tag k="ssr:stedsnr" v="798788" />
	</node>
	<node id="-670013" lat="61.0397166697" lon="6.25709165906">
		<tag k="historic" v="shieling" />
		<tag k="name" v="Botnastølen" />
		<tag k="place" v="locality" />
		<tag k="ssr:stedsnr" v="798550" />
	</node>
	<node id="-670010" lat="61.0667852191" lon="6.54020309973">
		<tag k="fixme" v="consider place=hamlet" />
		<tag k="name" v="Midlang" />
		<tag k="place" v="farm" />
		<tag k="ssr:stedsnr" v="798491" />
	</node>
	<node id="-670009" lat="61.0652093175" lon="6.55048194413">
		<tag k="alt_name" v="Brekke" />
		<tag k="fixme" v="consider place=hamlet" />
		<tag k="name" v="Brekka" />
		<tag k="place" v="farm" />
		<tag k="ssr:stedsnr" v="798479" />
	</node>
	<node id="-670008" lat="61.0563148261" lon="6.53626065881">
		<tag k="fixme" v="consider place=hamlet" />
		<tag k="name" v="Tistel" />
		<tag k="place" v="farm" />
		<tag k="ssr:stedsnr" v="798470" />
	</node>
	<node id="-670007" lat="61.0746469821" lon="6.56111043107">
		<tag k="fixme" v="consider place=hamlet" />
		<tag k="name" v="Skjørvo" />
		<tag k="place" v="farm" />
		<tag k="ssr:stedsnr" v="798467" />
	</node>
	<node id="-670004" lat="61.0233750028" lon="6.21529166077">
		<tag k="name" v="Dunevollen" />
		<tag k="place" v="isolated_dwelling" />
		<tag k="ssr:stedsnr" v="798279" />
	</node>
	<node id="-670003" lat="61.0560888863" lon="6.99839167479">
		<tag k="name" v="Solheim" />
		<tag k="place" v="farm" />
		<tag k="ssr:stedsnr" v="798394" />
	</node>
	<node id="-670002" lat="61.0396611068" lon="6.657783331">
		<tag k="alt_name" v="Holen" />
		<tag k="name" v="Hola" />
		<tag k="place" v="farm" />
		<tag k="ssr:stedsnr" v="798152" />
	</node>
	<node id="-669993" lat="61.0700343311" lon="6.92501159635">
>>>>>>> e1d4bc35ff8a6074a6f2e91616a996b547c36f15
		<tag k="fixme" v="consider place=hamlet" />
		<tag k="name" v="Hov" />
		<tag k="place" v="farm" />
		<tag k="ssr:stedsnr" v="798186" />
<<<<<<< HEAD
	</node>
	<node lat="61.02337500277348" lon="6.215291660773518" id="-32339">
		<tag k="name" v="Dunevollen" />
		<tag k="place" v="isolated_dwelling" />
		<tag k="ssr:stedsnr" v="798279" />
	</node>
	<node lat="61.118399603755286" lon="6.777407811202163" id="-32344">
		<tag k="alt_name" v="Sæterlid" />
		<tag k="fixme" v="consider place=hamlet" />
		<tag k="name" v="Li" />
		<tag k="place" v="farm" />
		<tag k="ssr:stedsnr" v="798715" />
	</node>
	<node lat="61.10762222283148" lon="6.742586114316047" id="-32345">
		<tag k="alt_name" v="Dalasete" />
		<tag k="historic" v="shieling" />
		<tag k="name" v="Dalssete" />
		<tag k="place" v="isolated_dwelling" />
		<tag k="ssr:stedsnr" v="798721" />
	</node>
	<node lat="61.123766670364745" lon="6.718166657246764" id="-32347">
		<tag k="alt_name" v="Langækra" />
		<tag k="name" v="Langekra" />
		<tag k="place" v="locality" />
		<tag k="ssr:stedsnr" v="798734" />
	</node>
	<node lat="61.065209317450595" lon="6.550481944131282" id="-32348">
		<tag k="alt_name" v="Brekke" />
		<tag k="fixme" v="consider place=hamlet" />
		<tag k="name" v="Brekka" />
		<tag k="place" v="farm" />
		<tag k="ssr:stedsnr" v="798479" />
	</node>
	<node lat="61.066785219127446" lon="6.540203099733804" id="-32349">
		<tag k="fixme" v="consider place=hamlet" />
		<tag k="name" v="Midlang" />
		<tag k="place" v="farm" />
		<tag k="ssr:stedsnr" v="798491" />
	</node>
	<node lat="61.13323055806674" lon="6.856363880500353" id="-32355">
		<tag k="historic" v="shieling" />
		<tag k="name" v="Ramnaberg" />
		<tag k="place" v="isolated_dwelling" />
		<tag k="ssr:stedsnr" v="798824" />
	</node>
	<node lat="61.13816409598392" lon="6.743934050694522" id="-32356">
		<tag k="fixme" v="consider place=hamlet" />
		<tag k="name" v="Berdal" />
		<tag k="place" v="farm" />
		<tag k="ssr:stedsnr" v="798827" />
	</node>
	<node lat="61.13177497933938" lon="6.619752683636358" id="-32358">
		<tag k="fixme" v="consider place=hamlet" />
		<tag k="name" v="Hovland" />
		<tag k="place" v="farm" />
		<tag k="ssr:stedsnr" v="798788" />
	</node>
	<node lat="61.035755555132276" lon="6.589016670210388" id="-32361">
		<tag k="name" v="Karavoll" />
		<tag k="place" v="locality" />
		<tag k="ssr:stedsnr" v="818811" />
	</node>
	<node lat="61.0799143997298" lon="6.592678632796791" id="-32371">
		<tag k="fixme" v="consider place=hamlet" />
		<tag k="name" v="Seim" />
		<tag k="place" v="farm" />
		<tag k="ssr:stedsnr" v="824071" />
	</node>
	<node lat="61.07087778039936" lon="6.552219439226999" id="-32382">
		<tag k="name" v="Sjurgarden" />
		<tag k="place" v="farm" />
		<tag k="ssr:stedsnr" v="825431" />
	</node>
	<node lat="61.09399166689336" lon="6.2830944459778975" id="-32403">
		<tag k="name" v="Reppeteigne" />
		<tag k="place" v="locality" />
		<tag k="ssr:stedsnr" v="825942" />
	</node>
	<node lat="60.98670000373419" lon="6.519958330197596" id="-32405">
		<tag k="fixme" v="consider tourism=alpine_hut or tourism=chalet" />
		<tag k="name" v="Målsethytta" />
		<tag k="ssr:stedsnr" v="841852" />
		<tag k="tourism" v="wilderness_hut" />
	</node>
	<node lat="61.16743611404939" lon="6.6395722309210035" id="-32408">
		<tag k="name" v="Vangstun" />
		<tag k="place" v="farm" />
		<tag k="ssr:stedsnr" v="843970" />
	</node>
	<node lat="61.00333101264912" lon="6.377302400296466" id="-32414">
		<tag k="fixme" v="consider place=hamlet" />
		<tag k="name" v="Åse" />
		<tag k="place" v="farm" />
		<tag k="ssr:stedsnr" v="858624" />
	</node>
	<node lat="61.003619448969914" lon="6.365502785004806" id="-32415">
		<tag k="name" v="Svensbø" />
		<tag k="place" v="farm" />
		<tag k="ssr:stedsnr" v="858625" />
	</node>
	<node lat="61.00232500412959" lon="6.476574993838466" id="-32417">
		<tag k="historic" v="shieling" />
		<tag k="name" v="Rivedalen" />
		<tag k="place" v="isolated_dwelling" />
		<tag k="ssr:stedsnr" v="858630" />
	</node>
	<node lat="60.96569999752163" lon="6.220525003059503" id="-32418">
		<tag k="fixme" v="consider tourism=alpine_hut or tourism=chalet" />
		<tag k="name" v="Åsedalen" />
		<tag k="ssr:stedsnr" v="858651" />
		<tag k="tourism" v="wilderness_hut" />
	</node>
	<node lat="61.041374473099324" lon="6.650121412965401" id="-32423">
		<tag k="fixme" v="consider place=hamlet" />
		<tag k="name" v="Øvstedal" />
		<tag k="place" v="farm" />
		<tag k="ssr:stedsnr" v="859141" />
	</node>
	<node lat="61.058349427921755" lon="6.91797425555244" id="-32428">
		<tag k="alt_name" v="Hatlelid" />
		<tag k="name" v="Hatleli" />
		<tag k="place" v="hamlet" />
		<tag k="ssr:stedsnr" v="859200" />
	</node>
	<node lat="61.11245779668115" lon="6.191521889511527" id="-32429">
		<tag k="fixme" v="consider place=hamlet" />
		<tag k="name" v="Ålrek" />
		<tag k="place" v="farm" />
		<tag k="ssr:stedsnr" v="859285" />
	</node>
	<node lat="61.06709444605684" lon="6.447025001725777" id="-32431">
		<tag k="alt_name" v="Nygodt" />
		<tag k="historic" v="shieling" />
		<tag k="name" v="Nygot" />
		<tag k="place" v="isolated_dwelling" />
		<tag k="ssr:stedsnr" v="859534" />
	</node>
	<node lat="61.022791668580545" lon="6.324444435593473" id="-32435">
		<tag k="historic" v="shieling" />
		<tag k="name" v="Vatnane" />
		<tag k="place" v="isolated_dwelling" />
		<tag k="ssr:stedsnr" v="859578" />
	</node>
	<node lat="61.00991666378822" lon="6.3281527724994815" id="-32437">
		<tag k="alt_name" v="Fosseset" />
		<tag k="historic" v="shieling" />
		<tag k="name" v="Fossesete" />
		<tag k="place" v="isolated_dwelling" />
		<tag k="ssr:stedsnr" v="859583" />
	</node>
	<node lat="61.09307088558449" lon="6.524310854244446" id="-32438">
		<tag k="alt_name" v="Svardal" />
		<tag k="fixme" v="consider place=hamlet" />
		<tag k="name" v="Svardalen" />
		<tag k="place" v="farm" />
		<tag k="ssr:stedsnr" v="859600" />
	</node>
	<node lat="61.08245277393663" lon="6.2550250027798615" id="-32441">
		<tag k="historic" v="shieling" />
		<tag k="name" v="Sylvarnesdalen" />
		<tag k="place" v="isolated_dwelling" />
		<tag k="ssr:stedsnr" v="859648" />
	</node>
	<node lat="61.1267416658984" lon="6.754274994208406" id="-32444">
		<tag k="name" v="Lauvhoggene" />
		<tag k="place" v="locality" />
		<tag k="ssr:stedsnr" v="859839" />
	</node>
	<node lat="61.14616285534537" lon="6.767487602677099" id="-32445">
		<tag k="alt_name" v="Feidje" />
		<tag k="fixme" v="consider place=hamlet" />
		<tag k="name" v="Fedjane" />
		<tag k="place" v="farm" />
		<tag k="ssr:stedsnr" v="859792" />
	</node>
	<node lat="61.14896666958829" lon="6.754427777128546" id="-32446">
		<tag k="fixme" v="consider place=hamlet" />
		<tag k="name" v="Feios" />
		<tag k="place" v="village" />
		<tag k="ssr:stedsnr" v="859794" />
	</node>
	<node lat="61.02551944734687" lon="6.407863896884124" id="-32468">
		<tag k="alt_name" v="Flåten" />
		<tag k="name" v="Floten" />
		<tag k="place" v="locality" />
		<tag k="ssr:stedsnr" v="886683" />
	</node>
	<node lat="61.064144441634426" lon="6.930863882465295" id="-32474">
		<tag k="barrier" v="fence" />
		<tag k="name" v="Jensagjerdet" />
		<tag k="ssr:stedsnr" v="886927" />
	</node>
	<node lat="61.094608332991335" lon="6.263247221996291" id="-32494">
		<tag k="name" v="Vindheim" />
		<tag k="place" v="locality" />
		<tag k="ssr:stedsnr" v="946775" />
	</node>
	<node lat="61.05511732842012" lon="6.91956617900927" id="-32502">
		<tag k="fixme" v="consider place=hamlet" />
		<tag k="name" v="Nedre Breili" />
		<tag k="place" v="farm" />
		<tag k="ssr:stedsnr" v="976414" />
	</node>
	<node lat="61.05183415629485" lon="6.91393556695561" id="-32503">
		<tag k="fixme" v="consider place=hamlet" />
		<tag k="name" v="Øvre Breili" />
		<tag k="place" v="farm" />
		<tag k="ssr:stedsnr" v="976415" />
	</node>
	<node lat="61.08388426921488" lon="6.583767660491505" id="-32505">
		<tag k="fixme" v="consider place=hamlet" />
		<tag k="name" v="Sæbø" />
		<tag k="place" v="farm" />
		<tag k="ssr:stedsnr" v="979500" />
	</node>
	<node lat="61.07471170465304" lon="6.9316664677142805" id="-32506">
		<tag k="fixme" v="consider place=hamlet" />
		<tag k="name" v="Holum" />
		<tag k="place" v="farm" />
		<tag k="ssr:stedsnr" v="979564" />
	</node>
	<node lat="61.093934058215794" lon="6.29533623057006" id="-32508">
		<tag k="fixme" v="consider tourism=alpine_hut or tourism=chalet" />
		<tag k="name" v="Sylvarnes" />
		<tag k="ssr:stedsnr" v="991022" />
		<tag k="tourism" v="wilderness_hut" />
	</node>
	<node lat="61.02259565721823" lon="6.386271115178917" id="-32509">
		<tag k="fixme" v="consider place=hamlet" />
		<tag k="name" v="Arnafjord" />
		<tag k="place" v="village" />
		<tag k="ssr:stedsnr" v="1072404" />
	</node>
	<node lat="61.050514868687664" lon="6.626655218041643" id="-32514">
		<tag k="name" v="Nummedal" />
		<tag k="place" v="hamlet" />
		<tag k="ssr:stedsnr" v="1080318" />
	</node>
	<node lat="60.96665303568145" lon="6.224204729013798" id="-32517">
		<tag k="historic" v="shieling" />
		<tag k="name" v="Åsdalen" />
		<tag k="place" v="isolated_dwelling" />
		<tag k="ssr:stedsnr" v="1081725" />
=======
	</node>
	<node id="-669992" lat="61.0568666657" lon="6.62869722098">
		<tag k="alt_name" v="Nummedalsstølen, nedre;Neste Nummedalstølen" />
		<tag k="historic" v="shieling" />
		<tag k="name" v="Nedste Nummedalstølen" />
		<tag k="place" v="locality" />
		<tag k="ssr:stedsnr" v="798178" />
	</node>
	<node id="-669984" lat="60.9863522156" lon="6.43959395324">
		<tag k="fixme" v="consider place=hamlet" />
		<tag k="name" v="Sandbakken" />
		<tag k="place" v="farm" />
		<tag k="ssr:stedsnr" v="797695" />
	</node>
	<node id="-669963" lat="61.0647055543" lon="6.38077778065">
		<tag k="name" v="Vårstølen" />
		<tag k="place" v="locality" />
		<tag k="ssr:stedsnr" v="764575" />
	</node>
	<node id="-669957" lat="61.066150003" lon="6.52434722243">
		<tag k="historic" v="shieling" />
		<tag k="name" v="Preststølen" />
		<tag k="place" v="locality" />
		<tag k="ssr:stedsnr" v="764363" />
	</node>
	<node id="-669951" lat="61.0490249966" lon="6.57851388231">
		<tag k="name" v="Gamlestølane" />
		<tag k="place" v="locality" />
		<tag k="ssr:stedsnr" v="764066" />
	</node>
	<node id="-669946" lat="61.0771027762" lon="6.6283333264">
		<tag k="name" v="Villøyane" />
		<tag k="place" v="locality" />
		<tag k="ssr:stedsnr" v="763001" />
	</node>
	<node id="-669945" lat="61.043722221" lon="6.52986388098">
		<tag k="name" v="Innlegdi" />
		<tag k="place" v="locality" />
		<tag k="ssr:stedsnr" v="763106" />
	</node>
	<node id="-669935" lat="61.1333111096" lon="6.6236722206">
		<tag k="name" v="Øygarden" />
		<tag k="place" v="locality" />
		<tag k="ssr:stedsnr" v="737828" />
	</node>
	<node id="-669934" lat="61.1108000027" lon="6.69565832715">
		<tag k="historic" v="shieling" />
		<tag k="name" v="Saupsete" />
		<tag k="place" v="locality" />
		<tag k="ssr:stedsnr" v="737750" />
	</node>
	<node id="-669933" lat="61.124709805" lon="6.76809094596">
		<tag k="fixme" v="consider place=hamlet" />
		<tag k="name" v="Dale" />
		<tag k="place" v="farm" />
		<tag k="ssr:stedsnr" v="737746" />
	</node>
	<node id="-669932" lat="61.1239634175" lon="6.7759539916">
		<tag k="fixme" v="consider place=hamlet" />
		<tag k="name" v="Lunde" />
		<tag k="place" v="farm" />
		<tag k="ssr:stedsnr" v="737744" />
	</node>
	<node id="-669927" lat="61.0871249979" lon="6.55971111596">
		<tag k="historic" v="shieling" />
		<tag k="name" v="Gunnarsete" />
		<tag k="place" v="locality" />
		<tag k="ssr:stedsnr" v="737619" />
	</node>
	<node id="-669926" lat="61.0566250015" lon="6.44951667438">
		<tag k="historic" v="shieling" />
		<tag k="name" v="Skoddesete" />
		<tag k="place" v="locality" />
		<tag k="ssr:stedsnr" v="737577" />
	</node>
	<node id="-669924" lat="61.0724581465" lon="6.57615409748">
		<tag k="fixme" v="consider place=hamlet" />
		<tag k="name" v="Voll" />
		<tag k="place" v="farm" />
		<tag k="ssr:stedsnr" v="737496" />
	</node>
	<node id="-669923" lat="61.0874249992" lon="6.57911388306">
		<tag k="name" v="Vik" />
		<tag k="place" v="village" />
		<tag k="ssr:stedsnr" v="737487" />
	</node>
	<node id="-669920" lat="61.0161638892" lon="6.17736943866">
		<tag k="alt_name" v="Ålrekstølen" />
		<tag k="historic" v="shieling" />
		<tag k="name" v="Vøvringen" />
		<tag k="place" v="locality" />
		<tag k="ssr:stedsnr" v="737305" />
	</node>
	<node id="-669916" lat="61.0434549476" lon="6.60035814684">
		<tag k="fixme" v="consider place=hamlet" />
		<tag k="name" v="Orvedal" />
		<tag k="place" v="farm" />
		<tag k="ssr:stedsnr" v="737195" />
	</node>
	<node id="-669914" lat="61.0714649598" lon="6.93499803091">
		<tag k="fixme" v="consider place=hamlet" />
		<tag k="name" v="Bjørnetun" />
		<tag k="place" v="farm" />
		<tag k="ssr:stedsnr" v="737184" />
	</node>
	<node id="-669911" lat="61.0511658887" lon="6.90518857267">
		<tag k="alt_name" v="Tretteteig" />
		<tag k="fixme" v="consider place=hamlet" />
		<tag k="name" v="Tretteteigen" />
		<tag k="place" v="farm" />
		<tag k="ssr:stedsnr" v="737153" />
	</node>
	<node id="-669897" lat="60.9890019287" lon="6.4241784943">
		<tag k="fixme" v="consider place=hamlet" />
		<tag k="name" v="Hellane" />
		<tag k="place" v="farm" />
		<tag k="ssr:stedsnr" v="736697" />
	</node>
	<node id="-669892" lat="61.0367222251" lon="6.5934250044">
		<tag k="alt_name" v="Risløv" />
		<tag k="name" v="Rislåg" />
		<tag k="place" v="farm" />
		<tag k="ssr:stedsnr" v="736439" />
	</node>
	<node id="-669861" lat="61.0371916704" lon="6.65710833588">
		<tag k="name" v="Seljane" />
		<tag k="place" v="locality" />
		<tag k="ssr:stedsnr" v="640535" />
	</node>
	<node id="-669859" lat="60.9875666671" lon="6.41422222979">
		<tag k="historic" v="shieling" />
		<tag k="name" v="Nestestølen" />
		<tag k="place" v="locality" />
		<tag k="ssr:stedsnr" v="640465" />
	</node>
	<node id="-669845" lat="61.1268458946" lon="6.74613739194">
		<tag k="alt_name" v="Helleland" />
		<tag k="fixme" v="consider place=hamlet" />
		<tag k="name" v="Helland" />
		<tag k="place" v="farm" />
		<tag k="ssr:stedsnr" v="616865" />
	</node>
	<node id="-669844" lat="61.1287089301" lon="6.61142551432">
		<tag k="alt_name" v="Djuvik" />
		<tag k="fixme" v="consider place=hamlet" />
		<tag k="name" v="Djupvik" />
		<tag k="place" v="farm" />
		<tag k="ssr:stedsnr" v="616860" />
	</node>
	<node id="-669834" lat="61.0026888084" lon="6.41609533937">
		<tag k="fixme" v="consider place=hamlet" />
		<tag k="name" v="Flete" />
		<tag k="place" v="farm" />
		<tag k="ssr:stedsnr" v="615597" />
	</node>
	<node id="-669833" lat="61.0072944421" lon="6.36841665946">
		<tag k="alt_name" v="Åsberge" />
		<tag k="name" v="Åsberget" />
		<tag k="place" v="farm" />
		<tag k="ssr:stedsnr" v="615593" />
	</node>
	<node id="-669831" lat="61.0889611102" lon="6.57695000518">
		<tag k="name" v="Hamnen" />
		<tag k="place" v="farm" />
		<tag k="ssr:stedsnr" v="615490" />
	</node>
	<node id="-669826" lat="60.9614611102" lon="6.1916249956">
		<tag k="historic" v="shieling" />
		<tag k="name" v="Hallsetstølen" />
		<tag k="place" v="locality" />
		<tag k="ssr:stedsnr" v="615087" />
	</node>
	<node id="-669821" lat="60.9769500043" lon="6.72058611274">
		<tag k="historic" v="shieling" />
		<tag k="name" v="Øvstedalen" />
		<tag k="place" v="locality" />
		<tag k="ssr:stedsnr" v="614916" />
	</node>
	<node id="-669820" lat="60.9792972216" lon="6.68343055647">
		<tag k="historic" v="shieling" />
		<tag k="name" v="Vikjadalen" />
		<tag k="place" v="locality" />
		<tag k="ssr:stedsnr" v="614915" />
	</node>
	<node id="-669815" lat="61.145880558" lon="6.75466388649">
		<tag k="name" v="Nyheim" />
		<tag k="place" v="farm" />
		<tag k="ssr:stedsnr" v="600084" />
	</node>
	<node id="-669810" lat="61.0583833332" lon="6.32612778603">
		<tag k="name" v="Svinailaget" />
		<tag k="place" v="locality" />
		<tag k="ssr:stedsnr" v="582753" />
	</node>
	<node id="-669797" lat="61.0630583294" lon="6.53557777414">
		<tag k="name" v="Holene" />
		<tag k="place" v="farm" />
		<tag k="ssr:stedsnr" v="582472" />
	</node>
	<node id="-669787" lat="61.0739500032" lon="6.61573611832">
		<tag k="historic" v="shieling" />
		<tag k="name" v="Stadheimsstølen" />
		<tag k="place" v="locality" />
		<tag k="ssr:stedsnr" v="581011" />
	</node>
	<node id="-669782" lat="60.9868500038" lon="6.4236166673">
		<tag k="name" v="Øvrebøen" />
		<tag k="place" v="farm" />
		<tag k="ssr:stedsnr" v="580378" />
	</node>
	<node id="-669779" lat="61.0338999974" lon="6.58860834157">
		<tag k="name" v="Gamle Rislåg" />
		<tag k="place" v="farm" />
		<tag k="ssr:stedsnr" v="580215" />
	</node>
	<node id="-669778" lat="61.0877807429" lon="6.88111653407">
		<tag k="fixme" v="consider place=hamlet" />
		<tag k="name" v="Juvik" />
		<tag k="place" v="farm" />
		<tag k="ssr:stedsnr" v="575225" />
	</node>
	<node id="-669774" lat="61.1256055578" lon="6.77028889278">
		<tag k="alt_name" v="Dalskvammane" />
		<tag k="name" v="Dalskvammen" />
		<tag k="place" v="locality" />
		<tag k="ssr:stedsnr" v="555834" />
	</node>
	<node id="-669772" lat="61.1396833294" lon="6.63876389281">
		<tag k="alt_name" v="Haugsete" />
		<tag k="name" v="Hangsete" />
		<tag k="place" v="locality" />
		<tag k="ssr:stedsnr" v="555808" />
	</node>
	<node id="-669770" lat="61.1128720795" lon="6.8784930499">
		<tag k="name" v="Snytta" />
		<tag k="place" v="locality" />
		<tag k="ssr:stedsnr" v="555780" />
	</node>
	<node id="-669765" lat="61.1085972252" lon="6.67553055157">
		<tag k="historic" v="shieling" />
		<tag k="name" v="Nystøl" />
		<tag k="place" v="locality" />
		<tag k="ssr:stedsnr" v="555733" />
	</node>
	<node id="-669760" lat="61.0447571922" lon="6.58643604963">
		<tag k="fixme" v="consider place=hamlet" />
		<tag k="name" v="Hallrynjo" />
		<tag k="place" v="farm" />
		<tag k="ssr:stedsnr" v="555466" />
	</node>
	<node id="-669758" lat="61.0866389871" lon="6.57644187423">
		<tag k="name" v="Sjøtun" />
		<tag k="place" v="locality" />
		<tag k="ssr:stedsnr" v="555453" />
	</node>
	<node id="-669757" lat="61.0703129361" lon="6.55582747531">
		<tag k="fixme" v="consider place=hamlet" />
		<tag k="name" v="Tryti" />
		<tag k="place" v="farm" />
		<tag k="ssr:stedsnr" v="555452" />
	</node>
	<node id="-669754" lat="61.0344805558" lon="6.42764999382">
		<tag k="alt_name" v="Dragsbotn" />
		<tag k="historic" v="shieling" />
		<tag k="name" v="Dragsbotnen" />
		<tag k="place" v="locality" />
		<tag k="ssr:stedsnr" v="555554" />
	</node>
	<node id="-669751" lat="61.0601361104" lon="6.9191416655">
		<tag k="name" v="Grindane" />
		<tag k="place" v="farm" />
		<tag k="ssr:stedsnr" v="555170" />
	</node>
	<node id="-669745" lat="60.9765444422" lon="6.52229999573">
		<tag k="historic" v="shieling" />
		<tag k="name" v="Fosse" />
		<tag k="place" v="locality" />
		<tag k="ssr:stedsnr" v="554686" />
	</node>
	<node id="-669736" lat="61.1449010557" lon="6.81431587819">
		<tag k="fixme" v="consider place=hamlet" />
		<tag k="name" v="Ytre Bårlog" />
		<tag k="place" v="farm" />
		<tag k="ssr:stedsnr" v="540104" />
	</node>
	<node id="-669713" lat="61.0904416648" lon="6.30112222507">
		<tag k="name" v="Storehagen" />
		<tag k="place" v="locality" />
		<tag k="ssr:stedsnr" v="521635" />
	</node>
	<node id="-669707" lat="61.0850555546" lon="6.53596667226">
		<tag k="name" v="Seltuftene" />
		<tag k="place" v="locality" />
		<tag k="ssr:stedsnr" v="521409" />
	</node>
	<node id="-669706" lat="61.089594443" lon="6.55583056231">
		<tag k="name" v="Fanastøl" />
		<tag k="place" v="locality" />
		<tag k="ssr:stedsnr" v="521386" />
	</node>
	<node id="-669703" lat="61.1325805561" lon="6.6204305482">
		<tag k="name" v="Myri" />
		<tag k="place" v="farm" />
		<tag k="ssr:stedsnr" v="521310" />
	</node>
	<node id="-669698" lat="61.0453833348" lon="6.58073056461">
		<tag k="historic" v="shieling" />
		<tag k="name" v="Halrynjostølen" />
		<tag k="place" v="locality" />
		<tag k="ssr:stedsnr" v="521054" />
	</node>
	<node id="-669697" lat="61.075911108" lon="6.60176389405">
		<tag k="name" v="Fesevollen" />
		<tag k="place" v="locality" />
		<tag k="ssr:stedsnr" v="521044" />
>>>>>>> e1d4bc35ff8a6074a6f2e91616a996b547c36f15
	</node>
</osm>
