<?xml version="1.0" encoding="UTF-8"?>
<osm version="0.6" generator="osmapis">
	<node lat="61.03724722029191" lon="7.017224999107327" id="-83579">
		<tag k="name" v="Fysseneset" />
		<tag k="natural" v="cape" />
		<tag k="ssr:stedsnr" v="9392" />
	</node>
	<node lat="61.16055833581238" lon="6.629458335829071" id="-83596">
		<tag k="name" v="Kalvik" />
		<tag k="natural" v="bay" />
		<tag k="ssr:stedsnr" v="36312" />
	</node>
	<node lat="61.063086108755414" lon="6.3111472155007355" id="-83609">
		<tag k="name" v="Nateneset" />
		<tag k="natural" v="cape" />
		<tag k="ssr:stedsnr" v="36915" />
	</node>
	<node lat="61.164624998833006" lon="6.6609222244690685" id="-83645">
		<tag k="name" v="Vikane" />
		<tag k="natural" v="bay" />
		<tag k="ssr:stedsnr" v="70915" />
	</node>
	<node lat="61.051122225269644" lon="6.312830558717766" id="-83665">
		<tag k="name" v="Straumviki" />
		<tag k="natural" v="bay" />
		<tag k="ssr:stedsnr" v="97715" />
	</node>
	<node lat="61.113404442899736" lon="6.195557856579382" id="-83702">
		<tag k="name" v="Ålrekneset" />
		<tag k="natural" v="cape" />
		<tag k="ssr:stedsnr" v="252299" />
	</node>
	<node lat="61.136013886905715" lon="6.867636115014596" id="-83726">
		<tag k="name" v="Kongalegbukti" />
		<tag k="natural" v="bay" />
		<tag k="ssr:stedsnr" v="130722" />
	</node>
	<node lat="61.009583332442226" lon="6.388922224067001" id="-83758">
		<tag k="alt_name" v="Vaberget" />
		<tag k="name" v="Vabergane" />
		<tag k="natural" v="cape" />
		<tag k="ssr:stedsnr" v="155197" />
	</node>
	<node lat="61.143824999465245" lon="6.788713884406041" id="-83759">
		<tag k="name" v="Joneset" />
		<tag k="natural" v="cape" />
		<tag k="ssr:stedsnr" v="155599" />
	</node>
	<node lat="61.031916671113436" lon="6.411505563685343" id="-83770">
		<tag k="name" v="Nedda" />
		<tag k="natural" v="cape" />
		<tag k="ssr:stedsnr" v="157648" />
	</node>
	<node lat="61.02767499773279" lon="6.383427772608166" id="-83792">
		<tag k="alt_name" v="Djupehavn" />
		<tag k="name" v="Djupehamnen" />
		<tag k="natural" v="bay" />
		<tag k="ssr:stedsnr" v="191556" />
	</node>
	<node lat="61.146380552443034" lon="6.844847230937698" id="-83801">
		<tag k="name" v="Kalvehagbukti" />
		<tag k="natural" v="bay" />
		<tag k="ssr:stedsnr" v="216226" />
	</node>
	<node lat="61.16489722458161" lon="6.662091673651679" id="-83813">
		<tag k="name" v="Brokviki" />
		<tag k="natural" v="bay" />
		<tag k="ssr:stedsnr" v="218082" />
	</node>
	<node lat="61.046466668031684" lon="6.311905549244386" id="-83823">
		<tag k="name" v="Hestaneset" />
		<tag k="natural" v="cape" />
		<tag k="ssr:stedsnr" v="218706" />
	</node>
	<node lat="61.00679166559209" lon="6.4047472282748314" id="-83834">
		<tag k="name" v="Valsviki" />
		<tag k="natural" v="bay" />
		<tag k="ssr:stedsnr" v="236679" />
	</node>
	<node lat="61.00663055571929" lon="6.399872226769936" id="-83840">
		<tag k="name" v="Kumretangen" />
		<tag k="natural" v="cape" />
		<tag k="ssr:stedsnr" v="459230" />
	</node>
	<node lat="61.06988888793988" lon="6.359677775064411" id="-83850">
		<tag k="alt_name" v="Sopaviki" />
		<tag k="name" v="Supaviki" />
		<tag k="natural" v="bay" />
		<tag k="ssr:stedsnr" v="278706" />
	</node>
	<node lat="61.1059666673148" lon="6.210730562127783" id="-83859">
		<tag k="name" v="Klubben" />
		<tag k="natural" v="cape" />
		<tag k="ssr:stedsnr" v="279509" />
	</node>
	<node lat="61.100247224030944" lon="6.282916662043185" id="-83869">
		<tag k="name" v="Hanekambneset" />
		<tag k="natural" v="cape" />
		<tag k="ssr:stedsnr" v="279922" />
	</node>
	<node lat="61.0397444455036" lon="6.302913880062506" id="-83877">
		<tag k="name" v="Årenestangen" />
		<tag k="natural" v="beach" />
		<tag k="ssr:stedsnr" v="461719" />
	</node>
	<node lat="61.04906389325622" lon="6.309261117617416" id="-83878">
		<tag k="name" v="Holmen" />
		<tag k="natural" v="cape" />
		<tag k="ssr:stedsnr" v="461725" />
	</node>
	<node lat="61.075124996401954" lon="6.9413500014978515" id="-83889">
		<tag k="name" v="Hola" />
		<tag k="natural" v="bay" />
		<tag k="ssr:stedsnr" v="297430" />
	</node>
	<node lat="61.03915555736576" lon="6.301247214298785" id="-83895">
		<tag k="name" v="Indrefudi" />
		<tag k="natural" v="cape" />
		<tag k="ssr:stedsnr" v="309929" />
	</node>
	<node lat="61.103536109214396" lon="6.5419833412962305" id="-83909">
		<tag k="name" v="Lyktvorholmen" />
		<tag k="place" v="islet" />
		<tag k="ssr:stedsnr" v="312602" />
	</node>
	<node lat="61.099577777750476" lon="6.531213893984177" id="-83910">
		<tag k="alt_name" v="Kjerringaneset;Kjerringneset" />
		<tag k="name" v="Kjeringaneset" />
		<tag k="natural" v="cape" />
		<tag k="ssr:stedsnr" v="312605" />
	</node>
	<node lat="61.14413055225235" lon="6.620097218291593" id="-83939">
		<tag k="name" v="Ystebøen" />
		<tag k="natural" v="cape" />
		<tag k="ssr:stedsnr" v="339313" />
	</node>
	<node lat="61.139369444902975" lon="6.616988892073342" id="-83940">
		<tag k="name" v="Gulemunken" />
		<tag k="natural" v="cape" />
		<tag k="ssr:stedsnr" v="339317" />
	</node>
	<node lat="61.04023888516747" lon="6.2840583412339575" id="-83949">
		<tag k="name" v="Kråni" />
		<tag k="natural" v="bay" />
		<tag k="ssr:stedsnr" v="344907" />
	</node>
	<node lat="61.04081111348553" lon="6.422619451937727" id="-83963">
		<tag k="name" v="Flåsteinen" />
		<tag k="natural" v="cape" />
		<tag k="ssr:stedsnr" v="479701" />
	</node>
	<node lat="61.10200000343276" lon="6.557824995229303" id="-83969">
		<tag k="name" v="Hovsviki" />
		<tag k="natural" v="bay" />
		<tag k="ssr:stedsnr" v="373645" />
	</node>
	<node lat="61.09889444757099" lon="6.286522218417515" id="-83998">
		<tag k="name" v="Krossen" />
		<tag k="natural" v="cape" />
		<tag k="ssr:stedsnr" v="400932" />
	</node>
	<node lat="61.05061944050621" lon="7.009149999589778" id="-84000">
		<tag k="alt_name" v="Bordhus" />
		<tag k="name" v="Borhus" />
		<tag k="natural" v="cape" />
		<tag k="ssr:stedsnr" v="400834" />
	</node>
	<node lat="61.00996389224766" lon="6.364752778433716" id="-84019">
		<tag k="bay" v="fjord" />
		<tag k="name" v="Indrefjorden" />
		<tag k="natural" v="bay" />
		<tag k="ssr:stedsnr" v="434604" />
	</node>
	<node lat="61.10124444221677" lon="6.25411666503017" id="-84051">
		<tag k="alt_name" v="Lokkvinneset;Lokvinneset" />
		<tag k="name" v="Lokvina" />
		<tag k="natural" v="cape" />
		<tag k="ssr:stedsnr" v="494649" />
	</node>
	<node lat="61.10096388736404" lon="6.214730552523574" id="-84063">
		<tag k="name" v="Gjelneset" />
		<tag k="natural" v="cape" />
		<tag k="ssr:stedsnr" v="461533" />
	</node>
	<node lat="61.06421944313529" lon="6.3340138865385125" id="-84066">
		<tag k="name" v="Lindeneset" />
		<tag k="natural" v="cape" />
		<tag k="ssr:stedsnr" v="461580" />
	</node>
	<node lat="61.09931111273802" lon="6.572502777909609" id="-84074">
		<tag k="alt_name" v="Galden" />
		<tag k="name" v="Ytste Galden" />
		<tag k="natural" v="cape" />
		<tag k="ssr:stedsnr" v="675466" />
	</node>
	<node lat="61.05655555762244" lon="6.316738895613695" id="-84089">
		<tag k="bay" v="fjord" />
		<tag k="name" v="Finnafjorden" />
		<tag k="natural" v="bay" />
		<tag k="ssr:stedsnr" v="676570" />
	</node>
	<node lat="61.08540277957336" lon="6.900049995802395" id="-84109">
		<tag k="name" v="Vidhammarbukti" />
		<tag k="natural" v="bay" />
		<tag k="ssr:stedsnr" v="478511" />
	</node>
	<node lat="61.010519446203276" lon="6.403641661936055" id="-84115">
		<tag k="bay" v="fjord" />
		<tag k="name" v="Framfjorden" />
		<tag k="natural" v="bay" />
		<tag k="ssr:stedsnr" v="677614" />
	</node>
	<node lat="61.116036107940914" lon="6.184736109711879" id="-84160">
		<tag k="name" v="Teisteberg" />
		<tag k="natural" v="cape" />
		<tag k="ssr:stedsnr" v="521475" />
	</node>
	<node lat="61.05337778151252" lon="7.009861115907403" id="-84163">
		<tag k="name" v="Vetleneset" />
		<tag k="natural" v="cape" />
		<tag k="ssr:stedsnr" v="521827" />
	</node>
	<node lat="61.09511389229077" lon="6.879127784555264" id="-84178">
		<tag k="alt_name" v="Verpesneset" />
		<tag k="name" v="Verpeneset" />
		<tag k="natural" v="cape" />
		<tag k="ssr:stedsnr" v="554827" />
	</node>
	<node lat="61.06949999739051" lon="6.3715416722211895" id="-84184">
		<tag k="name" v="Kvernhusviki" />
		<tag k="natural" v="bay" />
		<tag k="ssr:stedsnr" v="555517" />
	</node>
	<node lat="61.132499997538964" lon="6.611261105809348" id="-84204">
		<tag k="name" v="Djuvikoksen" />
		<tag k="natural" v="bay" />
		<tag k="ssr:stedsnr" v="582349" />
	</node>
	<node lat="61.05247222128368" lon="6.315988895885404" id="-84209">
		<tag k="name" v="Grotneset" />
		<tag k="natural" v="cape" />
		<tag k="ssr:stedsnr" v="582726" />
	</node>
	<node lat="61.028555552913346" lon="6.4069916605668045" id="-84211">
		<tag k="name" v="Gunnarviki" />
		<tag k="natural" v="bay" />
		<tag k="ssr:stedsnr" v="582695" />
	</node>
	<node lat="61.12494722139527" lon="6.6051194376826" id="-84216">
		<tag k="name" v="Djupvikneset" />
		<tag k="natural" v="cape" />
		<tag k="ssr:stedsnr" v="600951" />
	</node>
	<node lat="61.08449166898076" lon="6.903911106239764" id="-84230">
		<tag k="name" v="Lyngneset" />
		<tag k="natural" v="cape" />
		<tag k="ssr:stedsnr" v="615210" />
	</node>
	<node lat="61.07097929395989" lon="6.350137607866302" id="-84274">
		<tag k="fixme" v="consider seamark:type=rock or natural=shoal" />
		<tag k="loc_name" v="Skjeret" />
		<tag k="name" v="Skjæret" />
		<tag k="place" v="islet" />
		<tag k="ssr:stedsnr" v="704539" />
	</node>
	<node lat="61.151466670541915" lon="6.745322213195625" id="-84296">
		<tag k="name" v="Hatlevik" />
		<tag k="natural" v="bay" />
		<tag k="ssr:stedsnr" v="643107" />
	</node>
	<node lat="61.041452773522906" lon="6.39965832680086" id="-84298">
		<tag k="name" v="Krosshella" />
		<tag k="natural" v="cape" />
		<tag k="ssr:stedsnr" v="643529" />
	</node>
	<node lat="60.91548055350778" lon="7.170222214255655" id="-84312">
		<tag k="bay" v="fjord" />
		<tag k="name" v="Aurlandsfjorden" />
		<tag k="natural" v="bay" />
		<tag k="ssr:stedsnr" v="676215" />
	</node>
	<node lat="61.08668611129797" lon="6.948627778308573" id="-84313">
		<tag k="alt_name" v="Inste Mulaneset;Inste Mulen" />
		<tag k="name" v="Instemulaneset" />
		<tag k="natural" v="cape" />
		<tag k="ssr:stedsnr" v="676220" />
	</node>
	<node lat="61.16578333141061" lon="6.631327780523119" id="-84354">
		<tag k="name" v="Midtnes" />
		<tag k="natural" v="cape" />
		<tag k="ssr:stedsnr" v="721983" />
	</node>
	<node lat="61.12160278052004" lon="6.877577771805576" id="-84355">
		<tag k="name" v="Jakobshammaren" />
		<tag k="natural" v="cape" />
		<tag k="ssr:stedsnr" v="722792" />
	</node>
	<node lat="61.15100000396098" lon="6.747255558667696" id="-84377">
		<tag k="alt_name" v="Hårvaldsnes;Håarneset" />
		<tag k="name" v="Håanes" />
		<tag k="natural" v="cape" />
		<tag k="ssr:stedsnr" v="737838" />
	</node>
	<node lat="61.08053055353323" lon="6.930672221114243" id="-84381">
		<tag k="name" v="Fresvikbukti" />
		<tag k="natural" v="bay" />
		<tag k="ssr:stedsnr" v="904470" />
	</node>
	<node lat="61.08293333660291" lon="6.489183328707124" id="-84382">
		<tag k="name" v="Åneset" />
		<tag k="natural" v="cape" />
		<tag k="ssr:stedsnr" v="762041" />
	</node>
	<node lat="61.01864166513408" lon="6.40166667341098" id="-84383">
		<tag k="alt_name" v="Bugnaneset" />
		<tag k="name" v="Bunganeset" />
		<tag k="natural" v="cape" />
		<tag k="ssr:stedsnr" v="762141" />
	</node>
	<node lat="61.0482083346582" lon="6.404024997101343" id="-84391">
		<tag k="name" v="Viki" />
		<tag k="natural" v="bay" />
		<tag k="ssr:stedsnr" v="764540" />
	</node>
	<node lat="61.04687777600083" lon="7.007872228213786" id="-84395">
		<tag k="name" v="Tjualøyphola" />
		<tag k="natural" v="bay" />
		<tag k="ssr:stedsnr" v="764855" />
	</node>
	<node lat="61.07437499712579" lon="6.323852778255253" id="-84416">
		<tag k="name" v="Eikeneset" />
		<tag k="natural" v="cape" />
		<tag k="ssr:stedsnr" v="798649" />
	</node>
	<node lat="61.1232444428437" lon="6.605897229782665" id="-84425">
		<tag k="alt_name" v="Djupevik" />
		<tag k="name" v="Djupeviki" />
		<tag k="natural" v="bay" />
		<tag k="ssr:stedsnr" v="798807" />
	</node>
	<node lat="61.06980555999785" lon="6.434569440466866" id="-84431">
		<tag k="alt_name" v="Eitrneset" />
		<tag k="name" v="Eitreneset" />
		<tag k="natural" v="cape" />
		<tag k="ssr:stedsnr" v="918500" />
	</node>
	<node lat="61.14690630377795" lon="6.828960145757439" id="-84456">
		<tag k="name" v="Klubben" />
		<tag k="natural" v="cape" />
		<tag k="ssr:stedsnr" v="919801" />
	</node>
	<node lat="61.074661111524016" lon="6.99039722429371" id="-84464">
		<tag k="alt_name" v="Timbreviki" />
		<tag k="name" v="Timreviki" />
		<tag k="natural" v="bay" />
		<tag k="ssr:stedsnr" v="920423" />
	</node>
	<node lat="61.1459388905063" lon="6.849702774834867" id="-84471">
		<tag k="name" v="Løneset" />
		<tag k="natural" v="cape" />
		<tag k="ssr:stedsnr" v="823218" />
	</node>
	<node lat="61.09308611425133" lon="6.5903305478575" id="-84490">
		<tag k="name" v="Vetlebukti" />
		<tag k="natural" v="bay" />
		<tag k="ssr:stedsnr" v="843933" />
	</node>
	<node lat="61.0676833348681" lon="7.005072222599739" id="-84506">
		<tag k="alt_name" v="Dyrastunes" />
		<tag k="name" v="Dyrastadneset" />
		<tag k="natural" v="cape" />
		<tag k="ssr:stedsnr" v="859408" />
	</node>
	<node lat="61.12511944614425" lon="6.607624991501907" id="-84524">
		<tag k="name" v="Vikane" />
		<tag k="natural" v="bay" />
		<tag k="ssr:stedsnr" v="886413" />
	</node>
	<node lat="61.09954128446681" lon="6.284901176305019" id="-84553">
		<tag k="alt_name" v="Bjørkevik" />
		<tag k="name" v="Bjørkviki" />
		<tag k="natural" v="bay" />
		<tag k="ssr:stedsnr" v="919659" />
	</node>
	<node lat="61.153093455594096" lon="6.62582101336385" id="-84557">
		<tag k="name" v="Salbu" />
		<tag k="natural" v="cape" />
		<tag k="ssr:stedsnr" v="919813" />
	</node>
	<node lat="61.15057499877884" lon="6.728755556545993" id="-84559">
		<tag k="alt_name" v="Hovestrandi" />
		<tag k="name" v="Håastrondi" />
		<tag k="natural" v="beach" />
		<tag k="ssr:stedsnr" v="919823" />
	</node>
	<node lat="61.018902781218074" lon="6.387502776872532" id="-84568">
		<tag k="name" v="Kalhaganeset" />
		<tag k="natural" v="cape" />
		<tag k="ssr:stedsnr" v="944158" />
	</node>
	<node lat="61.05529167088902" lon="6.319308324064225" id="-84582">
		<tag k="alt_name" v="Torskeneset" />
		<tag k="name" v="Torskaneset" />
		<tag k="natural" v="cape" />
		<tag k="ssr:stedsnr" v="947715" />
	</node>
	<node lat="61.05063055725312" lon="6.304049992286323" id="-84583">
		<tag k="name" v="Elvaneset" />
		<tag k="natural" v="cape" />
		<tag k="ssr:stedsnr" v="947696" />
	</node>
	<node lat="61.08543333531182" lon="6.50888889243501" id="-84615">
		<tag k="name" v="Svollsviki" />
		<tag k="natural" v="bay" />
		<tag k="ssr:stedsnr" v="9561" />
	</node>
	<node lat="61.04894444735833" lon="6.310777781440421" id="-84653">
		<tag k="name" v="Straumen" />
		<tag k="natural" v="strait" />
		<tag k="ssr:stedsnr" v="36699" />
	</node>
	<node lat="61.101544443804904" lon="6.215788892502752" id="-84658">
		<tag k="name" v="Stavedalsbukta" />
		<tag k="natural" v="bay" />
		<tag k="ssr:stedsnr" v="56752" />
	</node>
	<node lat="61.03779778481585" lon="6.285555891284933" id="-84666">
		<tag k="name" v="Finnabotn" />
		<tag k="natural" v="bay" />
		<tag k="ssr:stedsnr" v="67927" />
	</node>
	<node lat="61.047833331790336" lon="6.411322216255428" id="-84685">
		<tag k="bay" v="fjord" />
		<tag k="name" v="Arnafjorden" />
		<tag k="natural" v="bay" />
		<tag k="ssr:stedsnr" v="70565" />
	</node>
	<node lat="61.10234999715362" lon="6.552636111561591" id="-84691">
		<tag k="name" v="Kabelviki" />
		<tag k="natural" v="bay" />
		<tag k="ssr:stedsnr" v="70608" />
	</node>
	<node lat="61.09275000232572" lon="6.3032055487443674" id="-84693">
		<tag k="name" v="Verpesneset" />
		<tag k="natural" v="cape" />
		<tag k="ssr:stedsnr" v="70680" />
	</node>
	<node lat="61.069991663616136" lon="6.369866664721633" id="-84709">
		<tag k="name" v="Skreneset" />
		<tag k="natural" v="cape" />
		<tag k="ssr:stedsnr" v="97577" />
	</node>
	<node lat="61.09729721867343" lon="6.29148054902608" id="-84728">
		<tag k="name" v="Naustneset" />
		<tag k="natural" v="cape" />
		<tag k="ssr:stedsnr" v="97656" />
	</node>
	<node lat="61.07659166452792" lon="6.943563896593991" id="-84730">
		<tag k="name" v="Strondi" />
		<tag k="natural" v="beach" />
		<tag k="ssr:stedsnr" v="97904" />
	</node>
	<node lat="61.09674999723755" lon="6.529838893063999" id="-84740">
		<tag k="name" v="Kvernhusviki" />
		<tag k="natural" v="bay" />
		<tag k="ssr:stedsnr" v="128427" />
	</node>
	<node lat="61.08320555234615" lon="6.944775008844955" id="-84749">
		<tag k="alt_name" v="Øvste Mulaneset;Øvste Mulen" />
		<tag k="name" v="Øvstemulaneset" />
		<tag k="natural" v="cape" />
		<tag k="ssr:stedsnr" v="130197" />
	</node>
	<node lat="61.17215555825112" lon="6.631024999559023" id="-84784">
		<tag k="name" v="Monken" />
		<tag k="natural" v="cape" />
		<tag k="ssr:stedsnr" v="157080" />
	</node>
	<node lat="61.156275003456194" lon="6.626352786453872" id="-84794">
		<tag k="name" v="Frivik" />
		<tag k="natural" v="bay" />
		<tag k="ssr:stedsnr" v="157669" />
	</node>
	<node lat="61.053136109676316" lon="6.315680546962017" id="-84795">
		<tag k="name" v="Hatleviki" />
		<tag k="natural" v="bay" />
		<tag k="ssr:stedsnr" v="157689" />
	</node>
	<node lat="61.05695833671335" lon="6.3064972187058" id="-84801">
		<tag k="alt_name" v="Utgjengeneset" />
		<tag k="name" v="Utgjeingeneset" />
		<tag k="natural" v="cape" />
		<tag k="ssr:stedsnr" v="158683" />
	</node>
	<node lat="61.172091663142595" lon="6.651722225014284" id="-84809">
		<tag k="name" v="Laberg" />
		<tag k="natural" v="cape" />
		<tag k="ssr:stedsnr" v="175981" />
	</node>
	<node lat="61.100977777026706" lon="6.534127779925748" id="-84836">
		<tag k="name" v="Kolaviki" />
		<tag k="natural" v="bay" />
		<tag k="ssr:stedsnr" v="191576" />
	</node>
	<node lat="61.01676944338077" lon="6.382783329760993" id="-84857">
		<tag k="name" v="Indreklummane" />
		<tag k="natural" v="cape" />
		<tag k="ssr:stedsnr" v="216117" />
	</node>
	<node lat="61.11299722538344" lon="6.5982500070573655" id="-84896">
		<tag k="name" v="Bruasessen" />
		<tag k="natural" v="beach" />
		<tag k="ssr:stedsnr" v="279430" />
	</node>
	<node lat="61.09003611070485" lon="6.883383326760953" id="-84909">
		<tag k="name" v="Juvikbukti" />
		<tag k="natural" v="bay" />
		<tag k="ssr:stedsnr" v="297382" />
	</node>
	<node lat="61.09002499946226" lon="6.5883749960463245" id="-84911">
		<tag k="name" v="Vikhola" />
		<tag k="natural" v="bay" />
		<tag k="ssr:stedsnr" v="297946" />
	</node>
	<node lat="61.146794718680724" lon="6.83711461010097" id="-84932">
		<tag k="alt_name" v="Langeneset" />
		<tag k="name" v="Langaneset" />
		<tag k="natural" v="cape" />
		<tag k="ssr:stedsnr" v="312797" />
	</node>
	<node lat="61.13121765688162" lon="6.611517647903389" id="-84940">
		<tag k="alt_name" v="Krossvik" />
		<tag k="name" v="Krossviki" />
		<tag k="natural" v="bay" />
		<tag k="ssr:stedsnr" v="313864" />
	</node>
	<node lat="61.14600472249712" lon="6.814166522722712" id="-84974">
		<tag k="name" v="Lindebukti" />
		<tag k="natural" v="bay" />
		<tag k="ssr:stedsnr" v="358088" />
	</node>
	<node lat="61.033900001560056" lon="6.391174992206341" id="-85015">
		<tag k="name" v="Joni" />
		<tag k="natural" v="cape" />
		<tag k="ssr:stedsnr" v="398113" />
	</node>
	<node lat="61.09436666997901" lon="6.591480548768089" id="-85028">
		<tag k="alt_name" v="Saganes" />
		<tag k="name" v="Sagaflaten" />
		<tag k="natural" v="cape" />
		<tag k="ssr:stedsnr" v="400043" />
	</node>
	<node lat="61.098052774828815" lon="6.5964722212373434" id="-85030">
		<tag k="name" v="Strondi" />
		<tag k="natural" v="beach" />
		<tag k="ssr:stedsnr" v="400049" />
	</node>
	<node lat="61.134052780362865" lon="6.613458341715702" id="-85037">
		<tag k="name" v="Kråkestein" />
		<tag k="natural" v="cape" />
		<tag k="ssr:stedsnr" v="400314" />
	</node>
	<node lat="61.038952773326294" lon="6.397836105283433" id="-85041">
		<tag k="name" v="Vindbjørganes" />
		<tag k="natural" v="cape" />
		<tag k="ssr:stedsnr" v="400545" />
	</node>
	<node lat="61.05037778238399" lon="6.40491945098122" id="-85043">
		<tag k="name" v="Notaberget" />
		<tag k="natural" v="cape" />
		<tag k="ssr:stedsnr" v="400551" />
	</node>
	<node lat="61.059775003155345" lon="6.30859167548717" id="-85047">
		<tag k="alt_name" v="Nubbesteinneset" />
		<tag k="name" v="Nybbesteinneset" />
		<tag k="natural" v="cape" />
		<tag k="ssr:stedsnr" v="400693" />
	</node>
	<node lat="61.05025277874022" lon="6.312230564467621" id="-85048">
		<tag k="name" v="Tåa" />
		<tag k="natural" v="cape" />
		<tag k="ssr:stedsnr" v="400715" />
	</node>
	<node lat="61.042074997967134" lon="6.308297223328876" id="-85050">
		<tag k="name" v="Indretåa" />
		<tag k="natural" v="cape" />
		<tag k="ssr:stedsnr" v="400720" />
	</node>
	<node lat="61.159466669944635" lon="6.671158341351703" id="-85060">
		<tag k="name" v="Dåsen" />
		<tag k="natural" v="bay" />
		<tag k="ssr:stedsnr" v="418981" />
	</node>
	<node lat="61.082352777908696" lon="6.490883326077979" id="-85088">
		<tag k="name" v="Røyrvikbukti" />
		<tag k="natural" v="bay" />
		<tag k="ssr:stedsnr" v="434537" />
	</node>
	<node lat="61.0838833317217" lon="5.297211102705884" id="-85090">
		<tag k="bay" v="fjord" />
		<tag k="name" v="Sognefjorden" />
		<tag k="natural" v="bay" />
		<tag k="ssr:stedsnr" v="434556" />
	</node>
	<node lat="61.023302782054174" lon="6.386863885857427" id="-85098">
		<tag k="name" v="Klubben" />
		<tag k="natural" v="cape" />
		<tag k="ssr:stedsnr" v="519162" />
	</node>
	<node lat="61.10457499675287" lon="6.592636106663423" id="-85120">
		<tag k="alt_name" v="Inste Galden" />
		<tag k="name" v="Galden" />
		<tag k="natural" v="cape" />
		<tag k="ssr:stedsnr" v="522431" />
	</node>
	<node lat="61.06937500236751" lon="6.390605561418694" id="-85126">
		<tag k="name" v="Kaldegjelsneset" />
		<tag k="natural" v="cape" />
		<tag k="ssr:stedsnr" v="522581" />
	</node>
	<node lat="61.077450002649705" lon="6.942405557093458" id="-85129">
		<tag k="name" v="Hamnen" />
		<tag k="natural" v="bay" />
		<tag k="ssr:stedsnr" v="539414" />
	</node>
	<node lat="61.007947218603235" lon="6.370327772104015" id="-85130">
		<tag k="name" v="Ryneset" />
		<tag k="natural" v="cape" />
		<tag k="ssr:stedsnr" v="539690" />
	</node>
	<node lat="61.08809999907097" lon="6.3083000082342595" id="-85166">
		<tag k="name" v="Verpesviki" />
		<tag k="natural" v="bay" />
		<tag k="ssr:stedsnr" v="555642" />
	</node>
	<node lat="61.143213891720535" lon="6.856688879847436" id="-85176">
		<tag k="alt_name" v="Lauganeset" />
		<tag k="name" v="Lauvaneset" />
		<tag k="natural" v="cape" />
		<tag k="ssr:stedsnr" v="555846" />
	</node>
	<node lat="61.03891666467869" lon="6.4218722184008366" id="-85177">
		<tag k="name" v="Stølaneset" />
		<tag k="natural" v="cape" />
		<tag k="ssr:stedsnr" v="573792" />
	</node>
	<node lat="61.04246667076875" lon="6.296419452504572" id="-85201">
		<tag k="name" v="Russviki" />
		<tag k="natural" v="bay" />
		<tag k="ssr:stedsnr" v="582738" />
	</node>
	<node lat="61.04730052438497" lon="6.308505518240044" id="-85204">
		<tag k="name" v="Vetlestraumen" />
		<tag k="natural" v="strait" />
		<tag k="ssr:stedsnr" v="582739" />
	</node>
	<node lat="61.13668333302021" lon="6.865158326753347" id="-85241">
		<tag k="alt_name" v="Kongalegene" />
		<tag k="name" v="Kongaleget" />
		<tag k="natural" v="bay" />
		<tag k="ssr:stedsnr" v="616885" />
	</node>
	<node lat="61.03303888682041" lon="7.015244447515062" id="-85242">
		<tag k="name" v="Fyssebukti" />
		<tag k="natural" v="bay" />
		<tag k="ssr:stedsnr" v="632168" />
	</node>
	<node lat="61.02509166313458" lon="6.384719448769288" id="-85245">
		<tag k="name" v="Søreviki" />
		<tag k="natural" v="bay" />
		<tag k="ssr:stedsnr" v="640166" />
	</node>
	<node lat="61.14407777902134" lon="6.778800004636105" id="-85273">
		<tag k="name" v="Salbuviki" />
		<tag k="natural" v="bay" />
		<tag k="ssr:stedsnr" v="722096" />
	</node>
	<node lat="61.12960277433753" lon="6.875108340949676" id="-85274">
		<tag k="name" v="Straumsneset" />
		<tag k="natural" v="cape" />
		<tag k="ssr:stedsnr" v="722794" />
	</node>
	<node lat="61.1491944468001" lon="6.754241658194084" id="-85323">
		<tag k="name" v="Dalestå" />
		<tag k="natural" v="beach" />
		<tag k="ssr:stedsnr" v="764081" />
	</node>
	<node lat="61.03482222559741" lon="6.273438888145299" id="-85334">
		<tag k="alt_name" v="Utfjøra" />
		<tag k="name" v="Utfjørene" />
		<tag k="natural" v="cape" />
		<tag k="ssr:stedsnr" v="764625" />
	</node>
	<node lat="61.04707431220321" lon="6.307700333060927" id="-85341">
		<tag k="name" v="Nausttangen" />
		<tag k="natural" v="cape" />
		<tag k="ssr:stedsnr" v="769901" />
	</node>
	<node lat="61.08765833397033" lon="6.957041674051139" id="-85357">
		<tag k="alt_name" v="Saltkjelneset" />
		<tag k="name" v="Saltkjelnes" />
		<tag k="natural" v="cape" />
		<tag k="ssr:stedsnr" v="798211" />
	</node>
	<node lat="61.079586110735" lon="6.981758326075389" id="-85367">
		<tag k="name" v="Staven" />
		<tag k="natural" v="cape" />
		<tag k="ssr:stedsnr" v="798411" />
	</node>
	<node lat="61.05675277901749" lon="6.411941666527709" id="-85368">
		<tag k="alt_name" v="Kjorsteinsneset;Kjosteinneset" />
		<tag k="name" v="Tjosteinsneset" />
		<tag k="natural" v="cape" />
		<tag k="ssr:stedsnr" v="798539" />
	</node>
	<node lat="61.14709829298715" lon="6.8259976971227525" id="-85377">
		<tag k="alt_name" v="Torbjørnbukti" />
		<tag k="name" v="Torbjørnsbukti" />
		<tag k="natural" v="bay" />
		<tag k="ssr:stedsnr" v="798779" />
	</node>
	<node lat="61.148137615799534" lon="6.819640411359303" id="-85387">
		<tag k="name" v="Borlaugneset" />
		<tag k="natural" v="cape" />
		<tag k="ssr:stedsnr" v="822729" />
	</node>
	<node lat="61.09620925480112" lon="6.5832378995474725" id="-85400">
		<tag k="name" v="Vikjabukti" />
		<tag k="natural" v="bay" />
		<tag k="ssr:stedsnr" v="825029" />
	</node>
	<node lat="61.08676944235602" lon="6.509302782828775" id="-85467">
		<tag k="name" v="Vikaneset" />
		<tag k="natural" v="cape" />
		<tag k="ssr:stedsnr" v="859602" />
	</node>
	<node lat="61.07061944512953" lon="6.353388882636205" id="-85490">
		<tag k="alt_name" v="Øykjastøi" />
		<tag k="name" v="Øykjastø" />
		<tag k="natural" v="beach" />
		<tag k="ssr:stedsnr" v="886561" />
	</node>
	<node lat="61.069041669467005" lon="6.395030551328382" id="-85491">
		<tag k="name" v="Åreneset" />
		<tag k="natural" v="cape" />
		<tag k="ssr:stedsnr" v="886587" />
	</node>
	<node lat="61.06089999605909" lon="6.3285027732984735" id="-85500">
		<tag k="name" v="Spelevollneset" />
		<tag k="natural" v="cape" />
		<tag k="ssr:stedsnr" v="886909" />
	</node>
	<node lat="61.035302775990324" lon="6.393205558980862" id="-85506">
		<tag k="name" v="Plassane" />
		<tag k="natural" v="beach" />
		<tag k="ssr:stedsnr" v="944116" />
	</node>
	<node lat="61.14349500090449" lon="6.804442870801846" id="-85511">
		<tag k="name" v="Viki" />
		<tag k="natural" v="bay" />
		<tag k="ssr:stedsnr" v="944735" />
	</node>
	<node lat="61.146497879862864" lon="6.83140170761839" id="-85568">
		<tag k="name" v="Borlaugskroken" />
		<tag k="natural" v="bay" />
		<tag k="ssr:stedsnr" v="1082690" />
	</node>
</osm>
