<?xml version="1.0" encoding="UTF-8"?>
<<<<<<< HEAD
<osm version="0.6" generator="osmapis">
	<node lat="61.077361114762176" lon="6.977691662271712" id="-31138">
		<tag k="name" v="Stavasagi" />
		<tag k="place" v="locality" />
		<tag k="ssr:stedsnr" v="677427" />
	</node>
	<node lat="61.07746690682784" lon="6.569020608603692" id="-31166">
		<tag k="amenity" v="place_of_worship" />
		<tag k="denomination" v="lutheran" />
		<tag k="name" v="Hopperstad stavkyrkje" />
		<tag k="religion" v="christian" />
		<tag k="ssr:stedsnr" v="494469" />
	</node>
	<node lat="61.14924520848178" lon="6.760019779527282" id="-31167">
		<tag k="alt_name" v="Feios" />
		<tag k="amenity" v="place_of_worship" />
		<tag k="denomination" v="lutheran" />
		<tag k="name" v="Feios kyrkje" />
		<tag k="religion" v="christian" />
		<tag k="ssr:stedsnr" v="494819" />
	</node>
	<node lat="61.169827538675754" lon="6.641669426376825" id="-31168">
		<tag k="alt_name" v="Vangsnes" />
		<tag k="amenity" v="place_of_worship" />
		<tag k="denomination" v="lutheran" />
		<tag k="name" v="Vangsnes kyrkje" />
		<tag k="religion" v="christian" />
		<tag k="ssr:stedsnr" v="494921" />
	</node>
	<node lat="61.022338890983214" lon="6.3846166756633735" id="-31281">
=======
<osm generator="osmapis" version="0.6">
	<node id="-668768" lat="61.0773611148" lon="6.97769166227">
		<tag k="name" v="Stavasagi" />
		<tag k="place" v="locality" />
		<tag k="ssr:stedsnr" v="677427" />
	</node>
	<node id="-669781" lat="61.0475277779" lon="6.63931388063">
		<tag k="name" v="Haugen" />
		<tag k="ssr:stedsnr" v="580343" />
		<tag k="tourism" v="attraction" />
	</node>
	<node id="-668885" lat="61.022338891" lon="6.38461667566">
>>>>>>> e1d4bc35ff8a6074a6f2e91616a996b547c36f15
		<tag k="alt_name" v="Arnafjord" />
		<tag k="amenity" v="place_of_worship" />
		<tag k="denomination" v="lutheran" />
		<tag k="name" v="Arnafjord kyrkje" />
		<tag k="religion" v="christian" />
		<tag k="ssr:stedsnr" v="616596" />
	</node>
<<<<<<< HEAD
	<node lat="61.0733194456459" lon="6.939613879683587" id="-31454">
=======
	<node id="-669139" lat="61.0733194456" lon="6.93961387968">
>>>>>>> e1d4bc35ff8a6074a6f2e91616a996b547c36f15
		<tag k="alt_name" v="Fresvik" />
		<tag k="amenity" v="place_of_worship" />
		<tag k="denomination" v="lutheran" />
		<tag k="name" v="Fresvik kyrkje" />
		<tag k="religion" v="christian" />
		<tag k="ssr:stedsnr" v="919178" />
	</node>
<<<<<<< HEAD
	<node lat="61.08011352353347" lon="6.578125598600549" id="-31560">
=======
	<node id="-669010" lat="61.0798583372" lon="6.57812778272">
>>>>>>> e1d4bc35ff8a6074a6f2e91616a996b547c36f15
		<tag k="alt_name" v="Vik" />
		<tag k="amenity" v="place_of_worship" />
		<tag k="denomination" v="lutheran" />
		<tag k="name" v="Vik kyrkje" />
		<tag k="religion" v="christian" />
		<tag k="ssr:stedsnr" v="919498" />
	</node>
<<<<<<< HEAD
	<node lat="61.03261388499555" lon="6.559077786759947" id="-32095">
		<tag k="name" v="Stedjestølen" />
		<tag k="ssr:stedsnr" v="519540" />
		<tag k="tourism" v="attraction" />
	</node>
	<node lat="61.04752777793917" lon="6.6393138806297545" id="-32161">
		<tag k="name" v="Haugen" />
		<tag k="ssr:stedsnr" v="580343" />
		<tag k="tourism" v="attraction" />
	</node>
	<node lat="61.07179427509789" lon="6.584084060049498" id="-32265">
		<tag k="alt_name" v="Hove steinkyrkje;Hove steinkirke" />
=======
	<node id="-668657" lat="61.1491555581" lon="6.76006110965">
		<tag k="alt_name" v="Feios" />
		<tag k="amenity" v="place_of_worship" />
		<tag k="denomination" v="lutheran" />
		<tag k="name" v="Feios kyrkje" />
		<tag k="religion" v="christian" />
		<tag k="ssr:stedsnr" v="494819" />
	</node>
	<node id="-668782" lat="61.1698055591" lon="6.64151111666">
		<tag k="alt_name" v="Vangsnes" />
>>>>>>> e1d4bc35ff8a6074a6f2e91616a996b547c36f15
		<tag k="amenity" v="place_of_worship" />
		<tag k="denomination" v="lutheran" />
		<tag k="name" v="Hove kyrkje" />
		<tag k="religion" v="christian" />
		<tag k="ssr:stedsnr" v="737497" />
	</node>
	<node id="-669925" lat="61.0716277737" lon="6.58398610603">
		<tag k="alt_name" v="Hove steinkyrkje;Hove steinkirke" />
		<tag k="amenity" v="place_of_worship" />
		<tag k="denomination" v="lutheran" />
		<tag k="name" v="Hove kyrkje" />
		<tag k="religion" v="christian" />
		<tag k="ssr:stedsnr" v="737497" />
	</node>
	<node id="-668643" lat="61.0773388927" lon="6.56890277828">
		<tag k="amenity" v="place_of_worship" />
		<tag k="denomination" v="lutheran" />
		<tag k="name" v="Hopperstad stavkyrkje" />
		<tag k="religion" v="christian" />
		<tag k="ssr:stedsnr" v="494469" />
	</node>
	<node id="-668578" lat="61.032613885" lon="6.55907778676">
		<tag k="name" v="Stedjestølen" />
		<tag k="ssr:stedsnr" v="519540" />
		<tag k="tourism" v="attraction" />
	</node>
</osm>
