<?xml version="1.0" encoding="UTF-8"?>
<<<<<<< HEAD
<osm version="0.6" generator="osmapis">
	<node lat="60.962305559566936" lon="6.4791500048395685" id="-30676">
		<tag k="bridge" v="yes" />
		<tag k="layer" v="1" />
		<tag k="name" v="Ygnisdal" />
		<tag k="ssr:stedsnr" v="46513" />
	</node>
	<node lat="61.06036388917231" lon="6.901372226638857" id="-30829">
		<tag k="highway" v="path" />
		<tag k="name" v="Bjørnstigen" />
		<tag k="ssr:stedsnr" v="191153" />
	</node>
	<node lat="61.17528055906211" lon="6.6353749962651" id="-30859">
=======
<osm generator="osmapis" version="0.6">
	<node id="-669332" lat="61.0099444425" lon="6.41775000647">
		<tag k="bridge" v="yes" />
		<tag k="layer" v="1" />
		<tag k="name" v="Framfjord Lille" />
		<tag k="ssr:stedsnr" v="107521" />
	</node>
	<node id="-669814" lat="61.0022249978" lon="6.35966944917">
		<tag k="bridge" v="yes" />
		<tag k="layer" v="1" />
		<tag k="name" v="Frettheim" />
		<tag k="ssr:stedsnr" v="592541" />
	</node>
	<node id="-668857" lat="61.0564472188" lon="6.91723056353">
		<tag k="bridge" v="yes" />
		<tag k="layer" v="1" />
		<tag k="name" v="Stokke" />
		<tag k="ssr:stedsnr" v="592512" />
	</node>
	<node id="-669677" lat="61.0214083298" lon="6.56746388009">
		<tag k="landuse" v="industrial" />
		<tag k="name" v="Refsdal kraftverk" />
		<tag k="power" v="plant" />
		<tag k="ssr:stedsnr" v="434485" />
	</node>
	<node id="-668259" lat="61.1752805591" lon="6.63537499627">
>>>>>>> e1d4bc35ff8a6074a6f2e91616a996b547c36f15
		<tag k="man_made" v="quay" />
		<tag k="name" v="Vangsnes ferjekai" />
		<tag k="place" v="locality" />
		<tag k="ssr:stedsnr" v="218080" />
	</node>
<<<<<<< HEAD
	<node lat="61.17501110990083" lon="6.637375001224344" id="-30879">
		<tag k="amenity" v="ferry_terminal" />
		<tag k="name" v="Vangsnes ferjekai" />
		<tag k="ssr:stedsnr" v="228534" />
	</node>
	<node lat="61.06898611287658" lon="6.55778610985578" id="-30927">
=======
	<node id="-669655" lat="61.0887222267" lon="6.57867499941">
		<tag k="bridge" v="yes" />
		<tag k="layer" v="1" />
		<tag k="name" v="Hopra" />
		<tag k="ssr:stedsnr" v="410526" />
	</node>
	<node id="-669654" lat="60.9692138903" lon="6.49718888931">
>>>>>>> e1d4bc35ff8a6074a6f2e91616a996b547c36f15
		<tag k="bridge" v="yes" />
		<tag k="layer" v="1" />
		<tag k="name" v="Tryti" />
		<tag k="ssr:stedsnr" v="289498" />
	</node>
<<<<<<< HEAD
	<node lat="61.08899722361244" lon="6.585650005506198" id="-30929">
=======
	<node id="-669653" lat="60.9786388922" lon="6.52375833304">
>>>>>>> e1d4bc35ff8a6074a6f2e91616a996b547c36f15
		<tag k="bridge" v="yes" />
		<tag k="layer" v="1" />
		<tag k="name" v="Vikøyri" />
		<tag k="ssr:stedsnr" v="289504" />
	</node>
<<<<<<< HEAD
	<node lat="61.066852778156935" lon="6.546691660309136" id="-30930">
=======
	<node id="-669652" lat="61.0085333373" lon="6.34683334082">
>>>>>>> e1d4bc35ff8a6074a6f2e91616a996b547c36f15
		<tag k="bridge" v="yes" />
		<tag k="layer" v="1" />
		<tag k="name" v="Brekke" />
		<tag k="ssr:stedsnr" v="289531" />
	</node>
<<<<<<< HEAD
	<node lat="61.064066669809655" lon="6.961772226376428" id="-30932">
		<tag k="highway" v="path" />
		<tag k="name" v="Dragaskarvegen" />
		<tag k="ssr:stedsnr" v="461901" />
	</node>
	<node lat="61.11890555427236" lon="6.77059444708645" id="-30967">
=======
	<node id="-669651" lat="61.0927305595" lon="6.59210278255">
		<tag k="layer" v="-1" />
		<tag k="name" v="Goteviktunnelen" />
		<tag k="ssr:stedsnr" v="404783" />
		<tag k="tunnel" v="yes" />
	</node>
	<node id="-668579" lat="61.1189055543" lon="6.77059444709">
>>>>>>> e1d4bc35ff8a6074a6f2e91616a996b547c36f15
		<tag k="bridge" v="yes" />
		<tag k="layer" v="1" />
		<tag k="name" v="Grindedal" />
		<tag k="ssr:stedsnr" v="470498" />
	</node>
<<<<<<< HEAD
	<node lat="61.06267221846791" lon="6.971472219747545" id="-31031">
=======
	<node id="-669646" lat="61.0626722185" lon="6.97147221975">
>>>>>>> e1d4bc35ff8a6074a6f2e91616a996b547c36f15
		<tag k="highway" v="path" />
		<tag k="name" v="Holtavegen" />
		<tag k="ssr:stedsnr" v="400909" />
	</node>
<<<<<<< HEAD
	<node lat="61.02140832976569" lon="6.567463880093971" id="-31049">
		<tag k="landuse" v="industrial" />
		<tag k="name" v="Refsdal kraftverk" />
		<tag k="power" v="plant" />
		<tag k="ssr:stedsnr" v="434485" />
	</node>
	<node lat="61.056447218802674" lon="6.9172305635296425" id="-31243">
=======
	<node id="-669891" lat="61.1463472216" lon="6.84356944966">
>>>>>>> e1d4bc35ff8a6074a6f2e91616a996b547c36f15
		<tag k="bridge" v="yes" />
		<tag k="layer" v="1" />
		<tag k="name" v="Stokke" />
		<tag k="ssr:stedsnr" v="592512" />
	</node>
<<<<<<< HEAD
	<node lat="61.08088611090194" lon="6.587483340729646" id="-31244">
=======
	<node id="-669890" lat="61.0936222215" lon="6.5918750078">
>>>>>>> e1d4bc35ff8a6074a6f2e91616a996b547c36f15
		<tag k="bridge" v="yes" />
		<tag k="layer" v="1" />
		<tag k="name" v="Vetlevange" />
		<tag k="ssr:stedsnr" v="592516" />
	</node>
<<<<<<< HEAD
	<node lat="61.07348610763525" lon="6.92873333523234" id="-31328">
=======
	<node id="-669889" lat="61.0734861076" lon="6.92873333523">
>>>>>>> e1d4bc35ff8a6074a6f2e91616a996b547c36f15
		<tag k="bridge" v="yes" />
		<tag k="layer" v="1" />
		<tag k="name" v="Fresvik" />
		<tag k="ssr:stedsnr" v="652491" />
	</node>
<<<<<<< HEAD
	<node lat="61.093622221538496" lon="6.591875007797046" id="-31329">
=======
	<node id="-668989" lat="61.1457999968" lon="6.83067499116">
>>>>>>> e1d4bc35ff8a6074a6f2e91616a996b547c36f15
		<tag k="bridge" v="yes" />
		<tag k="layer" v="1" />
		<tag k="name" v="Kyraelv" />
		<tag k="ssr:stedsnr" v="652494" />
	</node>
<<<<<<< HEAD
	<node lat="61.14634722160023" lon="6.8435694496562585" id="-31330">
=======
	<node id="-668859" lat="61.0974749974" lon="6.87557500017">
>>>>>>> e1d4bc35ff8a6074a6f2e91616a996b547c36f15
		<tag k="bridge" v="yes" />
		<tag k="layer" v="1" />
		<tag k="name" v="Lønes" />
		<tag k="ssr:stedsnr" v="652495" />
	</node>
<<<<<<< HEAD
	<node lat="61.05844999799046" lon="6.922899990945577" id="-31368">
=======
	<node id="-668858" lat="61.0808861109" lon="6.58748334073">
>>>>>>> e1d4bc35ff8a6074a6f2e91616a996b547c36f15
		<tag k="bridge" v="yes" />
		<tag k="layer" v="1" />
		<tag k="name" v="Tverrelv" />
		<tag k="ssr:stedsnr" v="896500" />
	</node>
<<<<<<< HEAD
	<node lat="61.04775278136669" lon="6.607633340698698" id="-31415">
		<tag k="bridge" v="yes" />
		<tag k="layer" v="1" />
		<tag k="name" v="Ovrisdal" />
		<tag k="ssr:stedsnr" v="774560" />
	</node>
	<node lat="61.05304444563513" lon="6.613841673344336" id="-31540">
=======
	<node id="-668473" lat="61.0668527782" lon="6.54669166031">
		<tag k="bridge" v="yes" />
		<tag k="layer" v="1" />
		<tag k="name" v="Brekke" />
		<tag k="ssr:stedsnr" v="289531" />
	</node>
	<node id="-668472" lat="61.0689861129" lon="6.55778610986">
>>>>>>> e1d4bc35ff8a6074a6f2e91616a996b547c36f15
		<tag k="bridge" v="yes" />
		<tag k="layer" v="1" />
		<tag k="name" v="Fosse" />
		<tag k="ssr:stedsnr" v="896536" />
	</node>
<<<<<<< HEAD
	<node lat="61.005972223183136" lon="6.4122805511986" id="-31668">
		<tag k="bridge" v="yes" />
		<tag k="layer" v="1" />
		<tag k="name" v="Framfjorden" />
		<tag k="ssr:stedsnr" v="46543" />
	</node>
	<node lat="61.0431833366341" lon="6.639852771447561" id="-31738">
=======
	<node id="-669483" lat="61.0246388871" lon="6.5725277847">
		<tag k="landuse" v="industrial" />
		<tag k="name" v="Inntak til Hove Kraftstasjon" />
		<tag k="power" v="plant" />
		<tag k="ssr:stedsnr" v="216480" />
	</node>
	<node id="-668964" lat="61.0530444456" lon="6.61384167334">
>>>>>>> e1d4bc35ff8a6074a6f2e91616a996b547c36f15
		<tag k="bridge" v="yes" />
		<tag k="layer" v="1" />
		<tag k="name" v="Turvoll" />
		<tag k="ssr:stedsnr" v="107483" />
	</node>
<<<<<<< HEAD
	<node lat="61.009944442535144" lon="6.417750006472822" id="-31739">
=======
	<node id="-668963" lat="61.058449998" lon="6.92289999095">
>>>>>>> e1d4bc35ff8a6074a6f2e91616a996b547c36f15
		<tag k="bridge" v="yes" />
		<tag k="layer" v="1" />
		<tag k="name" v="Framfjord Lille" />
		<tag k="ssr:stedsnr" v="107521" />
	</node>
<<<<<<< HEAD
	<node lat="61.14802500363404" lon="6.751663887630734" id="-31740">
=======
	<node id="-668577" lat="61.0889972236" lon="6.58565000551">
>>>>>>> e1d4bc35ff8a6074a6f2e91616a996b547c36f15
		<tag k="bridge" v="yes" />
		<tag k="layer" v="1" />
		<tag k="name" v="Osen" />
		<tag k="ssr:stedsnr" v="107524" />
	</node>
<<<<<<< HEAD
	<node lat="61.02463888712114" lon="6.572527784701375" id="-31858">
		<tag k="landuse" v="industrial" />
		<tag k="name" v="Inntak til Hove Kraftstasjon" />
		<tag k="power" v="plant" />
		<tag k="ssr:stedsnr" v="216480" />
	</node>
	<node lat="61.00853333728969" lon="6.346833340815559" id="-32045">
=======
	<node id="-668573" lat="61.0640666698" lon="6.96177222638">
		<tag k="highway" v="path" />
		<tag k="name" v="Dragaskarvegen" />
		<tag k="ssr:stedsnr" v="461901" />
	</node>
	<node id="-668316" lat="61.0059722232" lon="6.4122805512">
>>>>>>> e1d4bc35ff8a6074a6f2e91616a996b547c36f15
		<tag k="bridge" v="yes" />
		<tag k="layer" v="1" />
		<tag k="name" v="Tennes" />
		<tag k="ssr:stedsnr" v="410482" />
	</node>
<<<<<<< HEAD
	<node lat="60.97863889221179" lon="6.523758333044455" id="-32046">
		<tag k="bridge" v="yes" />
		<tag k="layer" v="1" />
		<tag k="name" v="Fossestøl" />
		<tag k="ssr:stedsnr" v="410520" />
	</node>
	<node lat="60.96921389030157" lon="6.497188889309225" id="-32047">
=======
	<node id="-668315" lat="60.9623055596" lon="6.47915000484">
		<tag k="bridge" v="yes" />
		<tag k="layer" v="1" />
		<tag k="name" v="Ygnisdal" />
		<tag k="ssr:stedsnr" v="46513" />
	</node>
	<node id="-668310" lat="61.1750111099" lon="6.63737500122">
		<tag k="amenity" v="ferry_terminal" />
		<tag k="name" v="Vangsnes ferjekai" />
		<tag k="ssr:stedsnr" v="228534" />
	</node>
	<node id="-669333" lat="61.1480250036" lon="6.75166388763">
>>>>>>> e1d4bc35ff8a6074a6f2e91616a996b547c36f15
		<tag k="bridge" v="yes" />
		<tag k="layer" v="1" />
		<tag k="name" v="Hestavollen" />
		<tag k="ssr:stedsnr" v="410524" />
	</node>
<<<<<<< HEAD
	<node lat="61.088722226678364" lon="6.578674999408213" id="-32048">
=======
	<node id="-669972" lat="61.0477527814" lon="6.6076333407">
>>>>>>> e1d4bc35ff8a6074a6f2e91616a996b547c36f15
		<tag k="bridge" v="yes" />
		<tag k="layer" v="1" />
		<tag k="name" v="Hopra" />
		<tag k="ssr:stedsnr" v="410526" />
	</node>
<<<<<<< HEAD
	<node lat="61.09747499743152" lon="6.875575000169359" id="-32191">
=======
	<node id="-669331" lat="61.0431833366" lon="6.63985277145">
>>>>>>> e1d4bc35ff8a6074a6f2e91616a996b547c36f15
		<tag k="bridge" v="yes" />
		<tag k="layer" v="1" />
		<tag k="name" v="Vigdal" />
		<tag k="ssr:stedsnr" v="592520" />
	</node>
<<<<<<< HEAD
	<node lat="61.00222499783964" lon="6.35966944916776" id="-32192">
		<tag k="bridge" v="yes" />
		<tag k="layer" v="1" />
		<tag k="name" v="Frettheim" />
		<tag k="ssr:stedsnr" v="592541" />
	</node>
	<node lat="61.15713055215325" lon="6.629913891434093" id="-32300">
=======
	<node id="-670090" lat="61.006499996" lon="6.34947499406">
		<tag k="bridge" v="yes" />
		<tag k="layer" v="1" />
		<tag k="name" v="Skogøyda" />
		<tag k="ssr:stedsnr" v="835547" />
	</node>
	<node id="-669445" lat="61.0603638892" lon="6.90137222664">
		<tag k="highway" v="path" />
		<tag k="name" v="Bjørnstigen" />
		<tag k="ssr:stedsnr" v="191153" />
	</node>
	<node id="-669954" lat="61.1571305522" lon="6.62991389143">
>>>>>>> e1d4bc35ff8a6074a6f2e91616a996b547c36f15
		<tag k="junction" v="yes" />
		<tag k="name" v="Krossen" />
		<tag k="place" v="locality" />
		<tag k="ssr:stedsnr" v="764335" />
	</node>
<<<<<<< HEAD
	<node lat="61.14579999678954" lon="6.830674991157737" id="-32318">
		<tag k="bridge" v="yes" />
		<tag k="layer" v="1" />
		<tag k="name" v="Borlaug Indre" />
		<tag k="ssr:stedsnr" v="774551" />
	</node>
	<node lat="61.00649999604138" lon="6.349474994064308" id="-32404">
		<tag k="bridge" v="yes" />
		<tag k="layer" v="1" />
		<tag k="name" v="Skogøyda" />
		<tag k="ssr:stedsnr" v="835547" />
	</node>
=======
>>>>>>> e1d4bc35ff8a6074a6f2e91616a996b547c36f15
</osm>
