<?xml version="1.0" encoding="UTF-8"?>
<osm version="0.6" generator="osmapis">
	<node lat="60.02325833008498" lon="11.202230550251551" id="-15655">
		<tag k="name" v="Frydenlundstoppen" />
		<tag k="old_name" v="Nordvollvegen" />
		<tag k="ssr:date" v="2019-12-27" />
		<tag k="ssr:gruppe" v="veg" />
		<tag k="ssr:hovedgruppe" v="infrastruktur" />
		<tag k="ssr:stedsnr" v="303547" />
		<tag k="ssr:type" v="adressenavn" />
	</node>
	<node lat="60.02111389116572" lon="11.062561108746484" id="-16385">
		<tag k="name" v="Sorknesvegen" />
		<tag k="ssr:date" v="2019-12-27" />
		<tag k="ssr:gruppe" v="veg" />
		<tag k="ssr:hovedgruppe" v="infrastruktur" />
		<tag k="ssr:stedsnr" v="934219" />
		<tag k="ssr:type" v="vegstrekning" />
	</node>
	<node lat="59.98902777483654" lon="11.280961109652118" id="-16615">
		<tag k="name" v="Tertittbanen" />
		<tag k="ssr:date" v="2019-12-27" />
		<tag k="ssr:gruppe" v="bane" />
		<tag k="ssr:hovedgruppe" v="infrastruktur" />
		<tag k="ssr:stedsnr" v="118701" />
		<tag k="ssr:type" v="banestrekning" />
	</node>
	<node lat="59.89480278189009" lon="11.28107499606302" id="-17485">
		<tag k="name" v="Mjøsjøvegen" />
		<tag k="ssr:date" v="2019-12-27" />
		<tag k="ssr:gruppe" v="veg" />
		<tag k="ssr:hovedgruppe" v="infrastruktur" />
		<tag k="ssr:stedsnr" v="846275" />
		<tag k="ssr:type" v="vegstrekning" />
	</node>
	<node lat="59.98635833747175" lon="11.244183327583942" id="-17538">
		<tag k="name" v="Tertitten Urskog-Hølandsbanen" />
		<tag k="old_name" v="Tertitten Aurskog-Hølandsbanen" />
		<tag k="ssr:date" v="2019-12-27" />
		<tag k="ssr:gruppe" v="bane" />
		<tag k="ssr:hovedgruppe" v="infrastruktur" />
		<tag k="ssr:stedsnr" v="874012" />
		<tag k="ssr:type" v="banestrekning" />
	</node>
	<node lat="59.97803178459823" lon="11.02661966473573" id="-17624">
		<tag k="name" v="Nitteberglia" />
		<tag k="ssr:date" v="2019-12-27" />
		<tag k="ssr:gruppe" v="veg" />
		<tag k="ssr:hovedgruppe" v="infrastruktur" />
		<tag k="ssr:stedsnr" v="993802" />
		<tag k="ssr:type" v="adressenavn" />
	</node>
	<node lat="59.977405947724776" lon="11.025880757616504" id="-17625">
		<tag k="name" v="Eikelundveien" />
		<tag k="ssr:date" v="2019-12-27" />
		<tag k="ssr:gruppe" v="veg" />
		<tag k="ssr:hovedgruppe" v="infrastruktur" />
		<tag k="ssr:stedsnr" v="993803" />
		<tag k="ssr:type" v="adressenavn" />
	</node>
	<node lat="59.949573692345815" lon="11.007698127385378" id="-17626">
		<tag k="name" v="Sidesporet" />
		<tag k="ssr:date" v="2019-12-27" />
		<tag k="ssr:gruppe" v="veg" />
		<tag k="ssr:hovedgruppe" v="infrastruktur" />
		<tag k="ssr:stedsnr" v="993832" />
		<tag k="ssr:type" v="adressenavn" />
	</node>
	<node lat="60.057224670083514" lon="11.121852187388397" id="-17627">
		<tag k="name" v="Skjelmerudveien" />
		<tag k="old_name" v="Skjelmerudvegen" />
		<tag k="ssr:date" v="2019-12-27" />
		<tag k="ssr:gruppe" v="veg" />
		<tag k="ssr:hovedgruppe" v="infrastruktur" />
		<tag k="ssr:stedsnr" v="1067650" />
		<tag k="ssr:type" v="adressenavn" />
	</node>
	<node lat="60.033548560529624" lon="11.128144343354332" id="-17628">
		<tag k="name" v="Røyskattveien" />
		<tag k="old_name" v="Røyskattvegen" />
		<tag k="ssr:date" v="2019-12-27" />
		<tag k="ssr:gruppe" v="veg" />
		<tag k="ssr:hovedgruppe" v="infrastruktur" />
		<tag k="ssr:stedsnr" v="1067655" />
		<tag k="ssr:type" v="adressenavn" />
	</node>
	<node lat="59.75693442317419" lon="11.32953195569886" id="-17629">
		<tag k="name" v="Grorudfjellet" />
		<tag k="ssr:date" v="2019-12-27" />
		<tag k="ssr:gruppe" v="veg" />
		<tag k="ssr:hovedgruppe" v="infrastruktur" />
		<tag k="ssr:stedsnr" v="1068775" />
		<tag k="ssr:type" v="adressenavn" />
	</node>
	<node lat="59.92539700391323" lon="11.202525882704244" id="-17630">
		<tag k="name" v="Kanalen" />
		<tag k="ssr:date" v="2019-12-27" />
		<tag k="ssr:gruppe" v="veg" />
		<tag k="ssr:hovedgruppe" v="infrastruktur" />
		<tag k="ssr:stedsnr" v="1068863" />
		<tag k="ssr:type" v="adressenavn" />
	</node>
	<node lat="59.92930021031861" lon="11.166371682211418" id="-17631">
		<tag k="name" v="Fetsund Brygge" />
		<tag k="ssr:date" v="2019-12-27" />
		<tag k="ssr:gruppe" v="veg" />
		<tag k="ssr:hovedgruppe" v="infrastruktur" />
		<tag k="ssr:stedsnr" v="1068886" />
		<tag k="ssr:type" v="adressenavn" />
	</node>
	<node lat="60.02669274796712" lon="11.062942325732013" id="-17632">
		<tag k="name" v="Hekseberg terrasse" />
		<tag k="ssr:date" v="2019-12-27" />
		<tag k="ssr:gruppe" v="veg" />
		<tag k="ssr:hovedgruppe" v="infrastruktur" />
		<tag k="ssr:stedsnr" v="1068931" />
		<tag k="ssr:type" v="adressenavn" />
	</node>
	<node lat="59.94792833561508" lon="11.241281844348554" id="-17633">
		<tag k="name" v="Varsjøen" />
		<tag k="ssr:date" v="2019-12-27" />
		<tag k="ssr:gruppe" v="veg" />
		<tag k="ssr:hovedgruppe" v="infrastruktur" />
		<tag k="ssr:stedsnr" v="1069035" />
		<tag k="ssr:type" v="adressenavn" />
	</node>
	<node lat="60.009577144406904" lon="10.981117420876169" id="-17634">
		<tag k="name" v="Florstuveien" />
		<tag k="ssr:date" v="2019-12-27" />
		<tag k="ssr:gruppe" v="veg" />
		<tag k="ssr:hovedgruppe" v="infrastruktur" />
		<tag k="ssr:stedsnr" v="1073572" />
		<tag k="ssr:type" v="adressenavn" />
	</node>
	<node lat="60.04099751651903" lon="11.122732151551732" id="-17635">
		<tag k="name" v="Jeksleveien" />
		<tag k="old_name" v="vegnr 1352" />
		<tag k="ssr:date" v="2020-06-02" />
		<tag k="ssr:gruppe" v="veg" />
		<tag k="ssr:hovedgruppe" v="infrastruktur" />
		<tag k="ssr:stedsnr" v="1074208" />
		<tag k="ssr:type" v="adressenavn" />
	</node>
	<node lat="59.9832605769235" lon="11.259104647763575" id="-17636">
		<tag k="name" v="Fossumsvingen" />
		<tag k="old_name" v="Vegnr 1353" />
		<tag k="ssr:date" v="2021-02-03" />
		<tag k="ssr:gruppe" v="veg" />
		<tag k="ssr:hovedgruppe" v="infrastruktur" />
		<tag k="ssr:stedsnr" v="1074209" />
		<tag k="ssr:type" v="adressenavn" />
	</node>
	<node lat="59.95451819727362" lon="11.039439149365537" id="-17637">
		<tag k="name" v="Lillestrøm kommune" />
		<tag k="ssr:date" v="2021-06-08" />
		<tag k="ssr:gruppe" v="administrativeIndelinger" />
		<tag k="ssr:hovedgruppe" v="offentligAdministrasjon" />
		<tag k="ssr:stedsnr" v="1074389" />
		<tag k="ssr:type" v="kommune" />
	</node>
	<node lat="59.91168968762522" lon="10.758188226721538" id="-17638">
		<tag k="name" v="Viken fylke" />
		<tag k="ssr:date" v="2021-06-08" />
		<tag k="ssr:gruppe" v="administrativeIndelinger" />
		<tag k="ssr:hovedgruppe" v="offentligAdministrasjon" />
		<tag k="ssr:stedsnr" v="1074403" />
		<tag k="ssr:type" v="fylke" />
	</node>
	<node lat="59.88363716266332" lon="11.226217178468863" id="-17640">
		<tag k="name" v="Kartedalsveien" />
		<tag k="ssr:date" v="2021-04-19" />
		<tag k="ssr:gruppe" v="veg" />
		<tag k="ssr:hovedgruppe" v="infrastruktur" />
		<tag k="ssr:stedsnr" v="1076547" />
		<tag k="ssr:type" v="adressenavn" />
	</node>
	<node lat="59.882644892964684" lon="11.229093526571733" id="-17641">
		<tag k="name" v="Tresdalen" />
		<tag k="ssr:date" v="2021-04-19" />
		<tag k="ssr:gruppe" v="veg" />
		<tag k="ssr:hovedgruppe" v="infrastruktur" />
		<tag k="ssr:stedsnr" v="1076548" />
		<tag k="ssr:type" v="adressenavn" />
	</node>
	<node lat="59.88124454244042" lon="11.228071252326345" id="-17642">
		<tag k="name" v="Øståsen" />
		<tag k="ssr:date" v="2021-04-19" />
		<tag k="ssr:gruppe" v="veg" />
		<tag k="ssr:hovedgruppe" v="infrastruktur" />
		<tag k="ssr:stedsnr" v="1076549" />
		<tag k="ssr:type" v="adressenavn" />
	</node>
	<node lat="59.9306689663602" lon="11.186457267305066" id="-17659">
		<tag k="name" v="Smiehaugen" />
		<tag k="ssr:date" v="2021-06-21" />
		<tag k="ssr:gruppe" v="veg" />
		<tag k="ssr:hovedgruppe" v="infrastruktur" />
		<tag k="ssr:stedsnr" v="1078513" />
		<tag k="ssr:type" v="adressenavn" />
	</node>
	<node lat="59.882409930749034" lon="11.224039374270076" id="-17689">
		<tag k="name" v="Tajedalsveien" />
		<tag k="ssr:date" v="2021-04-19" />
		<tag k="ssr:gruppe" v="veg" />
		<tag k="ssr:hovedgruppe" v="infrastruktur" />
		<tag k="ssr:stedsnr" v="1080782" />
		<tag k="ssr:type" v="adressenavn" />
	</node>
	<node lat="59.88329389748085" lon="11.22211331185672" id="-17690">
		<tag k="name" v="Heddy Astrups vei" />
		<tag k="ssr:date" v="2021-04-19" />
		<tag k="ssr:gruppe" v="veg" />
		<tag k="ssr:hovedgruppe" v="infrastruktur" />
		<tag k="ssr:stedsnr" v="1080857" />
		<tag k="ssr:type" v="adressenavn" />
	</node>
	<node lat="60.02255140631565" lon="11.117580711691051" id="-17694">
		<tag k="name" v="Fabelveien" />
		<tag k="old_name" v="Ny veg" />
		<tag k="ssr:date" v="2021-12-06" />
		<tag k="ssr:gruppe" v="veg" />
		<tag k="ssr:hovedgruppe" v="infrastruktur" />
		<tag k="ssr:stedsnr" v="1082315" />
		<tag k="ssr:type" v="adressenavn" />
	</node>
</osm>
