<?xml version="1.0" encoding="UTF-8"?>
<osm generator="osmapis" version="0.6">
	<node id="-57086" lat="62.3157166694" lon="5.5964388898">
		<tag k="name" v="Flåværhamna" />
		<tag k="place" v="locality" />
		<tag k="ssr:stedsnr" v="158283" />
	</node>
	<node id="-57211" lat="62.3074138874" lon="5.71236111562">
		<tag k="bridge" v="yes" />
		<tag k="layer" v="1" />
		<tag k="name" v="Stokksundbrua" />
		<tag k="ssr:stedsnr" v="410869" />
	</node>
	<node id="-57466" lat="62.2883083312" lon="5.73325277415">
		<tag k="bridge" v="yes" />
		<tag k="layer" v="1" />
		<tag k="name" v="Klungsøyrbrua" />
		<tag k="ssr:stedsnr" v="956885" />
	</node>
	<node id="-57465" lat="62.2482277786" lon="5.77914999295">
		<tag k="bridge" v="yes" />
		<tag k="layer" v="1" />
		<tag k="name" v="Einehaugbrua" />
		<tag k="ssr:stedsnr" v="956877" />
	</node>
	<node id="-57385" lat="62.3208027746" lon="5.71998056125">
		<tag k="bridge" v="yes" />
		<tag k="layer" v="1" />
		<tag k="name" v="Herøybrua" />
		<tag k="ssr:stedsnr" v="774884" />
	</node>
	<node id="-57384" lat="62.3356527759" lon="5.6787888904">
		<tag k="bridge" v="yes" />
		<tag k="layer" v="1" />
		<tag k="name" v="Buholmbrua" />
		<tag k="ssr:stedsnr" v="773844" />
	</node>
	<node id="-56685" lat="62.3553694465" lon="5.57984443844">
		<tag k="bridge" v="yes" />
		<tag k="layer" v="1" />
		<tag k="name" v="Kvalsvikstrandbrua" />
		<tag k="ssr:stedsnr" v="348765" />
	</node>
	<node id="-57383" lat="62.2400055593" lon="5.78707500051">
		<tag k="bridge" v="yes" />
		<tag k="layer" v="1" />
		<tag k="name" v="Raudvikbrua" />
		<tag k="ssr:stedsnr" v="773632" />
	</node>
	<node id="-57386" lat="62.2883166663" lon="5.73313889322">
		<tag k="bridge" v="yes" />
		<tag k="layer" v="1" />
		<tag k="name" v="Klungsøyrgangbrua" />
		<tag k="ssr:stedsnr" v="774890" />
	</node>
	<node id="-57445" lat="62.3813055546" lon="5.62844722222">
		<tag k="bridge" v="yes" />
		<tag k="layer" v="1" />
		<tag k="name" v="Rundebrua" />
		<tag k="ssr:stedsnr" v="835698" />
	</node>
	<node id="-57444" lat="62.4019805585" lon="5.63389999497">
		<tag k="highway" v="path" />
		<tag k="name" v="Hellestigen" />
		<tag k="ssr:stedsnr" v="827400" />
	</node>
	<node id="-57210" lat="62.3411888895" lon="5.60330832925">
		<tag k="bridge" v="yes" />
		<tag k="layer" v="1" />
		<tag k="name" v="Nerlandsøybrua" />
		<tag k="ssr:stedsnr" v="409432" />
	</node>
	<node id="-57043" lat="62.3409305518" lon="5.67668055822">
		<tag k="bridge" v="yes" />
		<tag k="layer" v="1" />
		<tag k="name" v="Straumsbrua" />
		<tag k="ssr:stedsnr" v="98243" />
	</node>
	<node id="-56907" lat="62.365733336" lon="5.6703750011">
		<tag k="bridge" v="yes" />
		<tag k="layer" v="1" />
		<tag k="name" v="Remøybrua" />
		<tag k="ssr:stedsnr" v="834659" />
	</node>
	<node id="-56906" lat="62.3280194462" lon="5.66296666994">
		<tag k="bridge" v="yes" />
		<tag k="layer" v="1" />
		<tag k="name" v="Stridestraumsbrua" />
		<tag k="ssr:stedsnr" v="819155" />
	</node>
	<node id="-56637" lat="62.3278888887" lon="5.66460833406">
		<tag k="bridge" v="yes" />
		<tag k="layer" v="1" />
		<tag k="name" v="Gjertnesbrua" />
		<tag k="ssr:stedsnr" v="455143" />
	</node>
	<node id="-57016" lat="62.2450722226" lon="5.76355833567">
		<tag k="bridge" v="yes" />
		<tag k="layer" v="1" />
		<tag k="name" v="Sætrebrua" />
		<tag k="ssr:stedsnr" v="46884" />
	</node>
	<node id="-57015" lat="62.2489442686" lon="5.78328450468">
		<tag k="layer" v="-1" />
		<tag k="name" v="Håneskulverten" />
		<tag k="ssr:stedsnr" v="45751" />
		<tag k="tunnel" v="yes" />
	</node>
	<node id="-57258" lat="62.2443027745" lon="5.78220833209">
		<tag k="bridge" v="yes" />
		<tag k="layer" v="1" />
		<tag k="name" v="Øyrabrua" />
		<tag k="ssr:stedsnr" v="531898" />
	</node>
	<node id="-57257" lat="62.2805527801" lon="5.76005277804">
		<tag k="bridge" v="yes" />
		<tag k="layer" v="1" />
		<tag k="name" v="Aspevikbrua" />
		<tag k="ssr:stedsnr" v="531891" />
	</node>
	<node id="-57256" lat="62.3133888874" lon="5.70808888442">
		<tag k="bridge" v="yes" />
		<tag k="layer" v="1" />
		<tag k="name" v="Jensholmbrua" />
		<tag k="ssr:stedsnr" v="531888" />
	</node>
	<node id="-57255" lat="62.3360916662" lon="5.67486665967">
		<tag k="layer" v="-1" />
		<tag k="name" v="Bergsneskulverten" />
		<tag k="ssr:stedsnr" v="531788" />
		<tag k="tunnel" v="yes" />
	</node>
	<node id="-56861" lat="62.2443388859" lon="5.78197500987">
		<tag k="bridge" v="yes" />
		<tag k="layer" v="1" />
		<tag k="name" v="Gamle Øyrabrua" />
		<tag k="ssr:stedsnr" v="895871" />
	</node>
	<node id="-56860" lat="62.3278333359" lon="5.66412778699">
		<tag k="bridge" v="yes" />
		<tag k="layer" v="1" />
		<tag k="name" v="Gjertnesgangbrua" />
		<tag k="ssr:stedsnr" v="895635" />
	</node>
	<node id="-57368" lat="62.2824222216" lon="5.83218611323">
		<tag k="bridge" v="yes" />
		<tag k="layer" v="1" />
		<tag k="name" v="Dragsundbrua" />
		<tag k="ssr:stedsnr" v="765683" />
	</node>
	<node id="-57107" lat="62.2395999973" lon="5.7471250023">
		<tag k="bridge" v="yes" />
		<tag k="layer" v="1" />
		<tag k="name" v="Tverrelvbrua" />
		<tag k="ssr:stedsnr" v="167878" />
	</node>
	<node id="-57105" lat="62.3630861074" lon="5.62696389721">
		<tag k="highway" v="path" />
		<tag k="name" v="Stigen" />
		<tag k="ssr:stedsnr" v="159791" />
	</node>
	<node id="-57346" lat="62.3366805556" lon="5.72803610162">
		<tag k="man_made" v="quay" />
		<tag k="name" v="Torvika" />
		<tag k="place" v="locality" />
		<tag k="ssr:stedsnr" v="645902" />
	</node>
	<node id="-57347" lat="62.2253750007" lon="5.80320277748">
		<tag k="bridge" v="yes" />
		<tag k="layer" v="1" />
		<tag k="name" v="Jøsokbrua" />
		<tag k="ssr:stedsnr" v="652659" />
	</node>
	<node id="-57090" lat="62.3654805598" lon="5.55443054979">
		<tag k="landuse" v="harbour" />
		<tag k="name" v="Kvalsvik hamn" />
		<tag k="seamark:type" v="harbour" />
		<tag k="ssr:stedsnr" v="158333" />
	</node>
</osm>
