<?xml version="1.0" encoding="UTF-8"?>
<osm generator="osmapis" version="0.6">
	<node id="-560456" lat="62.3353277809" lon="5.25527222766">
		<tag k="name" v="Skjerkalvfluda" />
		<tag k="natural" v="shoal" />
		<tag k="place" v="locality" />
		<tag k="ssr:stedsnr" v="965801" />
	</node>
	<node id="-560455" lat="62.3191472233" lon="5.62750833837">
		<tag k="fixme" v="consider seamark:type=rock or natural=shoal" />
		<tag k="name" v="Vikeskjeret" />
		<tag k="place" v="islet" />
		<tag k="ssr:stedsnr" v="962274" />
	</node>
	<node id="-560454" lat="62.4267555573" lon="5.60116110961">
		<tag k="name" v="Keipfluda" />
		<tag k="natural" v="shoal" />
		<tag k="place" v="locality" />
		<tag k="ssr:stedsnr" v="961909" />
	</node>
	<node id="-560453" lat="62.3403138845" lon="5.48852499979">
		<tag k="name" v="Bardane" />
		<tag k="natural" v="shoal" />
		<tag k="place" v="locality" />
		<tag k="ssr:stedsnr" v="961810" />
	</node>
	<node id="-560452" lat="62.2883083312" lon="5.73325277415">
		<tag k="bridge" v="yes" />
		<tag k="layer" v="1" />
		<tag k="name" v="Klungsøyrbrua" />
		<tag k="ssr:stedsnr" v="956885" />
	</node>
	<node id="-560451" lat="62.2482277786" lon="5.77914999295">
		<tag k="bridge" v="yes" />
		<tag k="layer" v="1" />
		<tag k="name" v="Einehaugbrua" />
		<tag k="ssr:stedsnr" v="956877" />
	</node>
	<node id="-560450" lat="62.3477749974" lon="5.6882888928">
		<tag k="name" v="Ytre Leine" />
		<tag k="place" v="farm" />
		<tag k="ssr:stedsnr" v="949765" />
	</node>
	<node id="-560449" lat="62.361836111" lon="5.63362221651">
		<tag k="name" v="Haugen" />
		<tag k="place" v="farm" />
		<tag k="ssr:stedsnr" v="948815" />
	</node>
	<node id="-560448" lat="62.4102416672" lon="5.612674994">
		<tag k="name" v="Gjøttane" />
		<tag k="natural" v="hill" />
		<tag k="place" v="locality" />
		<tag k="ssr:stedsnr" v="948804" />
	</node>
	<node id="-560447" lat="62.2478638895" lon="5.75679999931">
		<tag k="name" v="Nauselva" />
		<tag k="ssr:stedsnr" v="948798" />
		<tag k="waterway" v="stream" />
	</node>
	<node id="-560446" lat="62.2649527758" lon="5.75366945244">
		<tag k="fixme" v="consider natural=peak for the most distinct mountains in the district" />
		<tag k="name" v="Nyklane" />
		<tag k="natural" v="hill" />
		<tag k="place" v="locality" />
		<tag k="ssr:stedsnr" v="948796" />
	</node>
	<node id="-560445" lat="62.2438638887" lon="5.71536665783">
		<tag k="name" v="Sædalsskaret" />
		<tag k="natural" v="valley" />
		<tag k="place" v="locality" />
		<tag k="ssr:stedsnr" v="948791" />
	</node>
	<node id="-560444" lat="62.2384277767" lon="5.79912221803">
		<tag k="name" v="Kleppeåsen" />
		<tag k="natural" v="hill" />
		<tag k="place" v="locality" />
		<tag k="ssr:stedsnr" v="948785" />
	</node>
	<node id="-560443" lat="62.294652777" lon="5.57144999446">
		<tag k="name" v="Løsetstranda" />
		<tag k="natural" v="beach" />
		<tag k="place" v="locality" />
		<tag k="ssr:stedsnr" v="948771" />
	</node>
	<node id="-560442" lat="62.3547222226" lon="5.6747777801">
		<tag k="name" v="Halsen" />
		<tag k="natural" v="ridge" />
		<tag k="place" v="locality" />
		<tag k="ssr:stedsnr" v="948717" />
	</node>
	<node id="-560441" lat="62.336497222" lon="5.55204443908">
		<tag k="name" v="Skoghornet" />
		<tag k="natural" v="hill" />
		<tag k="place" v="locality" />
		<tag k="ssr:stedsnr" v="948385" />
	</node>
	<node id="-560440" lat="62.3621583337" lon="5.62433334248">
		<tag k="name" v="Bakarneset" />
		<tag k="natural" v="cape" />
		<tag k="ssr:stedsnr" v="948362" />
	</node>
	<node id="-560439" lat="62.2968666646" lon="5.7685749996">
		<tag k="name" v="Kvitøystraumen" />
		<tag k="natural" v="strait" />
		<tag k="ssr:stedsnr" v="948355" />
	</node>
	<node id="-560438" lat="62.2713777746" lon="5.76097777312">
		<tag k="name" v="Stemmedalselva" />
		<tag k="ssr:stedsnr" v="948343" />
		<tag k="waterway" v="stream" />
	</node>
	<node id="-560437" lat="62.2869055558" lon="5.79207222372">
		<tag k="name" v="Rissneset" />
		<tag k="natural" v="cape" />
		<tag k="ssr:stedsnr" v="948344" />
	</node>
	<node id="-560436" lat="62.2961944437" lon="5.72571389059">
		<tag k="name" v="Trolldalen" />
		<tag k="natural" v="valley" />
		<tag k="place" v="locality" />
		<tag k="ssr:stedsnr" v="948335" />
	</node>
	<node id="-560435" lat="62.2948527738" lon="5.58684445428">
		<tag k="name" v="Tarbergstaranda" />
		<tag k="natural" v="beach" />
		<tag k="place" v="locality" />
		<tag k="ssr:stedsnr" v="948289" />
	</node>
	<node id="-560434" lat="62.3645891789" lon="5.65755727461">
		<tag k="fixme" v="consider place=hamlet" />
		<tag k="name" v="Remøy" />
		<tag k="place" v="farm" />
		<tag k="ssr:stedsnr" v="947813" />
	</node>
	<node id="-560433" lat="62.2751361142" lon="5.63578611377">
		<tag k="name" v="Kleivane" />
		<tag k="natural" v="slope" />
		<tag k="place" v="locality" />
		<tag k="ssr:stedsnr" v="947706" />
	</node>
	<node id="-560432" lat="62.2704861114" lon="5.81049443624">
		<tag k="name" v="Djupvikstranda" />
		<tag k="place" v="farm" />
		<tag k="ssr:stedsnr" v="947619" />
	</node>
	<node id="-560431" lat="62.3614055523" lon="5.6169388973">
		<tag k="name" v="Skuteleidskjera" />
		<tag k="place" v="islet" />
		<tag k="ssr:stedsnr" v="947348" />
	</node>
	<node id="-560430" lat="62.3284111082" lon="5.62261943885">
		<tag k="fixme" v="consider natural=peak for the most distinct mountains in the district" />
		<tag k="name" v="Vikefjellet" />
		<tag k="natural" v="hill" />
		<tag k="place" v="locality" />
		<tag k="ssr:stedsnr" v="947344" />
	</node>
	<node id="-560429" lat="62.2992472179" lon="5.74428610864">
		<tag k="name" v="Lisjeneset" />
		<tag k="natural" v="cape" />
		<tag k="ssr:stedsnr" v="939730" />
	</node>
	<node id="-560428" lat="62.2285466092" lon="5.75054292675">
		<tag k="fixme" v="consider place=hamlet" />
		<tag k="name" v="Roskar" />
		<tag k="place" v="farm" />
		<tag k="ssr:stedsnr" v="939256" />
	</node>
	<node id="-560427" lat="62.2931583353" lon="5.7783416637">
		<tag k="name" v="Geitholmane" />
		<tag k="place" v="islet" />
		<tag k="ssr:stedsnr" v="921779" />
	</node>
	<node id="-560426" lat="62.3983555573" lon="5.52771666472">
		<tag k="name" v="Geitmaren" />
		<tag k="natural" v="shoal" />
		<tag k="place" v="locality" />
		<tag k="ssr:stedsnr" v="921690" />
	</node>
	<node id="-560425" lat="62.403152782" lon="5.6576611072">
		<tag k="name" v="Tjeldefjøra" />
		<tag k="natural" v="bay" />
		<tag k="ssr:stedsnr" v="921683" />
	</node>
	<node id="-560424" lat="62.3991527748" lon="5.65711945108">
		<tag k="name" v="Geita" />
		<tag k="natural" v="hill" />
		<tag k="place" v="locality" />
		<tag k="ssr:stedsnr" v="921681" />
	</node>
	<node id="-560423" lat="62.3967892954" lon="5.63468337573">
		<tag k="alt_name" v="Vardane;Rundevarden" />
		<tag k="fixme" v="consider natural=peak for the most distinct mountains in the district" />
		<tag k="name" v="Varden" />
		<tag k="natural" v="hill" />
		<tag k="place" v="locality" />
		<tag k="ssr:stedsnr" v="921680" />
	</node>
	<node id="-560422" lat="62.377941667" lon="5.63194721939">
		<tag k="name" v="Sæviksteinen" />
		<tag k="natural" v="cape" />
		<tag k="ssr:stedsnr" v="921669" />
	</node>
	<node id="-560421" lat="62.362616256" lon="5.63054486304">
		<tag k="alt_name" v="Søvik" />
		<tag k="fixme" v="consider place=hamlet" />
		<tag k="name" v="Sævik" />
		<tag k="place" v="farm" />
		<tag k="ssr:stedsnr" v="921651" />
	</node>
	<node id="-560420" lat="62.3683027762" lon="5.63972500497">
		<tag k="name" v="Remøya" />
		<tag k="place" v="island" />
		<tag k="ssr:stedsnr" v="921652" />
	</node>
	<node id="-560419" lat="62.3528611085" lon="5.52443334148">
		<tag k="name" v="Vollefjøra" />
		<tag k="natural" v="bay" />
		<tag k="ssr:stedsnr" v="921641" />
	</node>
	<node id="-560418" lat="62.3529222213" lon="5.70401110592">
		<tag k="name" v="Sandedalen" />
		<tag k="natural" v="valley" />
		<tag k="place" v="locality" />
		<tag k="ssr:stedsnr" v="921637" />
	</node>
	<node id="-560417" lat="62.3390583295" lon="5.49255556499">
		<tag k="name" v="Mannevika" />
		<tag k="natural" v="bay" />
		<tag k="ssr:stedsnr" v="921635" />
	</node>
	<node id="-560416" lat="62.3163083338" lon="5.68174443704">
		<tag k="name" v="Stegleholmen" />
		<tag k="place" v="islet" />
		<tag k="ssr:stedsnr" v="921597" />
	</node>
	<node id="-560415" lat="62.3214472186" lon="5.6339527856">
		<tag k="alt_name" v="Grønhaugen" />
		<tag k="name" v="Grønhaug" />
		<tag k="place" v="farm" />
		<tag k="ssr:stedsnr" v="921596" />
	</node>
	<node id="-560414" lat="62.2954416681" lon="5.62894999056">
		<tag k="name" v="Moltuvika" />
		<tag k="natural" v="bay" />
		<tag k="ssr:stedsnr" v="921581" />
	</node>
	<node id="-560413" lat="62.2922194434" lon="5.62535555162">
		<tag k="fixme" v="consider place=hamlet" />
		<tag k="name" v="Moltustranda" />
		<tag k="place" v="village" />
		<tag k="ssr:stedsnr" v="921566" />
	</node>
	<node id="-560412" lat="62.2833888917" lon="5.68064444733">
		<tag k="name" v="Øyravatnet" />
		<tag k="natural" v="water" />
		<tag k="ssr:stedsnr" v="921555" />
	</node>
	<node id="-560411" lat="62.2809861096" lon="5.65504444337">
		<tag k="name" v="Hanemyrane" />
		<tag k="natural" v="wetland" />
		<tag k="ssr:stedsnr" v="921551" />
	</node>
	<node id="-560410" lat="62.2245333304" lon="5.78832499553">
		<tag k="name" v="Rydningen" />
		<tag k="place" v="farm" />
		<tag k="ssr:stedsnr" v="921195" />
	</node>
	<node id="-560409" lat="62.2266116627" lon="5.79673437706">
		<tag k="alt_name" v="Bakken" />
		<tag k="fixme" v="consider place=hamlet" />
		<tag k="name" v="Jøsokbakken" />
		<tag k="old_name" v="Jøsokbaken" />
		<tag k="place" v="farm" />
		<tag k="ssr:stedsnr" v="921192" />
	</node>
	<node id="-560408" lat="62.2290583332" lon="5.79169445142">
		<tag k="name" v="Heida" />
		<tag k="natural" v="hill" />
		<tag k="place" v="locality" />
		<tag k="ssr:stedsnr" v="921175" />
	</node>
	<node id="-560407" lat="62.2754916661" lon="5.83763889492">
		<tag k="alt_name" v="Store Hestholmen" />
		<tag k="name" v="Hestholmen" />
		<tag k="place" v="islet" />
		<tag k="ssr:stedsnr" v="920173" />
	</node>
	<node id="-560406" lat="62.3567608986" lon="5.7460098456">
		<tag k="name" v="Bøholmen" />
		<tag k="place" v="islet" />
		<tag k="ssr:stedsnr" v="921867" />
	</node>
	<node id="-560405" lat="62.4138666689" lon="5.58681110622">
		<tag k="fixme" v="consider tourism=alpine_hut or tourism=chalet" />
		<tag k="name" v="Runde fyr" />
		<tag k="ssr:stedsnr" v="905062" />
		<tag k="tourism" v="wilderness_hut" />
	</node>
	<node id="-560404" lat="62.3489083307" lon="5.60698055794">
		<tag k="name" v="Hestefluda" />
		<tag k="natural" v="shoal" />
		<tag k="place" v="locality" />
		<tag k="ssr:stedsnr" v="901811" />
	</node>
	<node id="-560403" lat="62.3068055525" lon="5.6092416689">
		<tag k="name" v="Kvalebåen" />
		<tag k="natural" v="shoal" />
		<tag k="place" v="locality" />
		<tag k="ssr:stedsnr" v="901711" />
	</node>
	<node id="-560402" lat="62.3311000003" lon="5.59780555502">
		<tag k="fixme" v="consider seamark:type=rock or natural=shoal" />
		<tag k="name" v="Tora" />
		<tag k="place" v="islet" />
		<tag k="ssr:stedsnr" v="901709" />
	</node>
	<node id="-560401" lat="62.3414388864" lon="5.67228332922">
		<tag k="name" v="Straumnes" />
		<tag k="place" v="isolated_dwelling" />
		<tag k="ssr:stedsnr" v="901446" />
	</node>
	<node id="-560400" lat="62.2987722202" lon="5.74970277155">
		<tag k="fixme" v="consider seamark:type=rock or natural=shoal" />
		<tag k="name" v="Bymannen" />
		<tag k="place" v="islet" />
		<tag k="ssr:stedsnr" v="901361" />
	</node>
	<node id="-560399" lat="62.3802805567" lon="5.73525833312">
		<tag k="name" v="Skyrflesjefluda" />
		<tag k="natural" v="shoal" />
		<tag k="place" v="locality" />
		<tag k="ssr:stedsnr" v="901303" />
	</node>
	<node id="-560398" lat="62.3592988426" lon="5.74996633552">
		<tag k="name" v="Bøbåen" />
		<tag k="natural" v="shoal" />
		<tag k="place" v="locality" />
		<tag k="ssr:stedsnr" v="901292" />
	</node>
	<node id="-560397" lat="62.301219441" lon="5.61120278386">
		<tag k="name" v="Lisje Langholmen" />
		<tag k="place" v="islet" />
		<tag k="ssr:stedsnr" v="879229" />
	</node>
	<node id="-560396" lat="62.2972388931" lon="5.74077778083">
		<tag k="name" v="Litleneset" />
		<tag k="place" v="farm" />
		<tag k="ssr:stedsnr" v="861754" />
	</node>
	<node id="-560395" lat="62.2948500031" lon="5.78391111147">
		<tag k="name" v="Røyrasundet" />
		<tag k="natural" v="strait" />
		<tag k="ssr:stedsnr" v="861652" />
	</node>
	<node id="-560394" lat="62.3434527768" lon="5.50756388853">
		<tag k="name" v="Terneneset" />
		<tag k="natural" v="cape" />
		<tag k="ssr:stedsnr" v="861642" />
	</node>
	<node id="-560393" lat="62.2600111101" lon="5.78949999164">
		<tag k="fixme" v="consider natural=peak for the most distinct mountains in the district" />
		<tag k="name" v="Nakken" />
		<tag k="natural" v="hill" />
		<tag k="place" v="locality" />
		<tag k="ssr:stedsnr" v="861595" />
	</node>
	<node id="-560392" lat="62.3312916663" lon="5.62040554654">
		<tag k="name" v="Vikevatnet" />
		<tag k="natural" v="water" />
		<tag k="ssr:stedsnr" v="861556" />
	</node>
	<node id="-560391" lat="62.3192250043" lon="5.34032222666">
		<tag k="name" v="Remefluda" />
		<tag k="natural" v="shoal" />
		<tag k="place" v="locality" />
		<tag k="ssr:stedsnr" v="861545" />
	</node>
	<node id="-560390" lat="62.219788888" lon="5.75200833324">
		<tag k="name" v="Grøthornet" />
		<tag k="natural" v="hill" />
		<tag k="place" v="locality" />
		<tag k="ssr:stedsnr" v="861160" />
	</node>
	<node id="-560389" lat="62.4337777799" lon="5.60169999474">
		<tag k="fixme" v="consider seamark:type=rock or natural=shoal" />
		<tag k="name" v="Lisjevoren" />
		<tag k="place" v="islet" />
		<tag k="ssr:stedsnr" v="860720" />
	</node>
	<node id="-560388" lat="62.3999722263" lon="5.595369445">
		<tag k="name" v="Stakkeneset" />
		<tag k="natural" v="cape" />
		<tag k="ssr:stedsnr" v="860715" />
	</node>
	<node id="-560387" lat="62.4049500009" lon="5.65085555039">
		<tag k="name" v="Storevågen" />
		<tag k="natural" v="bay" />
		<tag k="ssr:stedsnr" v="860704" />
	</node>
	<node id="-560386" lat="62.3649916659" lon="5.50550277193">
		<tag k="name" v="Muletua" />
		<tag k="natural" v="hill" />
		<tag k="place" v="locality" />
		<tag k="ssr:stedsnr" v="860675" />
	</node>
	<node id="-560385" lat="62.3571194418" lon="5.52336944539">
		<tag k="name" v="Trosvikhammaren" />
		<tag k="natural" v="hill" />
		<tag k="place" v="locality" />
		<tag k="ssr:stedsnr" v="860668" />
	</node>
	<node id="-560384" lat="62.3547972253" lon="5.68727499804">
		<tag k="alt_name" v="Leinekniven" />
		<tag k="fixme" v="consider natural=peak for the most distinct mountains in the district" />
		<tag k="name" v="Leinehornet" />
		<tag k="natural" v="hill" />
		<tag k="place" v="locality" />
		<tag k="ssr:stedsnr" v="860654" />
	</node>
	<node id="-560383" lat="62.3199249992" lon="5.64416666615">
		<tag k="name" v="Eggesbøsteinen" />
		<tag k="natural" v="hill" />
		<tag k="place" v="locality" />
		<tag k="ssr:stedsnr" v="860610" />
	</node>
	<node id="-560382" lat="62.3144833362" lon="5.69791389763">
		<tag k="name" v="Petterholmen" />
		<tag k="place" v="islet" />
		<tag k="ssr:stedsnr" v="860600" />
	</node>
	<node id="-560381" lat="62.3142166658" lon="5.67766945373">
		<tag k="name" v="Herøya" />
		<tag k="place" v="island" />
		<tag k="ssr:stedsnr" v="860597" />
	</node>
	<node id="-560380" lat="62.3012138926" lon="5.65775554924">
		<tag k="alt_name" v="Arneholmen;Arnholmen" />
		<tag k="name" v="Legeholmen" />
		<tag k="place" v="islet" />
		<tag k="ssr:stedsnr" v="860589" />
	</node>
	<node id="-560379" lat="62.2883527756" lon="5.59215833813">
		<tag k="name" v="Tarbergtua" />
		<tag k="natural" v="hill" />
		<tag k="place" v="locality" />
		<tag k="ssr:stedsnr" v="860577" />
	</node>
	<node id="-560378" lat="62.2974861129" lon="5.65373056402">
		<tag k="name" v="Rabben" />
		<tag k="place" v="farm" />
		<tag k="ssr:stedsnr" v="860574" />
	</node>
	<node id="-560377" lat="62.2881888908" lon="5.61849444043">
		<tag k="name" v="Nygjerdet" />
		<tag k="place" v="farm" />
		<tag k="ssr:stedsnr" v="860575" />
	</node>
	<node id="-560376" lat="62.2607611076" lon="5.65948610289">
		<tag k="name" v="Lisjedalen" />
		<tag k="natural" v="valley" />
		<tag k="place" v="locality" />
		<tag k="ssr:stedsnr" v="860543" />
	</node>
	<node id="-560375" lat="62.2638833327" lon="5.64512778622">
		<tag k="name" v="Mørkevatnet" />
		<tag k="natural" v="water" />
		<tag k="ssr:stedsnr" v="860540" />
	</node>
	<node id="-560374" lat="62.2456086139" lon="5.75895289933">
		<tag k="fixme" v="consider place=hamlet" />
		<tag k="name" v="Leikongsætra" />
		<tag k="place" v="farm" />
		<tag k="ssr:stedsnr" v="860183" />
	</node>
	<node id="-560373" lat="62.2467000024" lon="5.7713999955">
		<tag k="name" v="Veien" />
		<tag k="place" v="farm" />
		<tag k="ssr:stedsnr" v="860184" />
	</node>
	<node id="-560372" lat="62.2424444478" lon="5.75157221543">
		<tag k="name" v="Sætreplassen" />
		<tag k="place" v="farm" />
		<tag k="ssr:stedsnr" v="860182" />
	</node>
	<node id="-560371" lat="62.2448888894" lon="5.77931944969">
		<tag k="name" v="Reset" />
		<tag k="place" v="farm" />
		<tag k="ssr:stedsnr" v="860179" />
	</node>
	<node id="-560370" lat="62.3214694448" lon="5.64261111879">
		<tag k="name" v="Eggesbømarka" />
		<tag k="place" v="quarter" />
		<tag k="ssr:stedsnr" v="857471" />
	</node>
	<node id="-560369" lat="62.3640694475" lon="5.55845832968">
		<tag k="name" v="Tausafluda" />
		<tag k="natural" v="shoal" />
		<tag k="place" v="locality" />
		<tag k="ssr:stedsnr" v="841798" />
	</node>
	<node id="-560368" lat="62.2509194465" lon="5.78364722971">
		<tag k="name" v="Gurskøy" />
		<tag k="place" v="farm" />
		<tag k="ssr:stedsnr" v="841754" />
	</node>
	<node id="-560367" lat="62.2270777747" lon="5.83528054715">
		<tag k="name" v="Skallen" />
		<tag k="natural" v="shoal" />
		<tag k="place" v="locality" />
		<tag k="ssr:stedsnr" v="841753" />
	</node>
	<node id="-560366" lat="62.3134083348" lon="5.48096943758">
		<tag k="name" v="Stabben" />
		<tag k="natural" v="shoal" />
		<tag k="place" v="locality" />
		<tag k="ssr:stedsnr" v="841674" />
	</node>
	<node id="-560365" lat="62.4133944425" lon="5.70884722033">
		<tag k="name" v="Teklefludene" />
		<tag k="natural" v="shoal" />
		<tag k="place" v="locality" />
		<tag k="ssr:stedsnr" v="840962" />
	</node>
	<node id="-560364" lat="62.4363583337" lon="5.60623611484">
		<tag k="name" v="Grøyven" />
		<tag k="natural" v="shoal" />
		<tag k="place" v="locality" />
		<tag k="ssr:stedsnr" v="840893" />
	</node>
	<node id="-560363" lat="62.3173527823" lon="5.70439722365">
		<tag k="name" v="Kyrkjefluda" />
		<tag k="natural" v="shoal" />
		<tag k="place" v="locality" />
		<tag k="ssr:stedsnr" v="840313" />
	</node>
	<node id="-560362" lat="62.3813055546" lon="5.62844722222">
		<tag k="bridge" v="yes" />
		<tag k="layer" v="1" />
		<tag k="name" v="Rundebrua" />
		<tag k="ssr:stedsnr" v="835698" />
	</node>
	<node id="-560361" lat="62.365733336" lon="5.6703750011">
		<tag k="bridge" v="yes" />
		<tag k="layer" v="1" />
		<tag k="name" v="Remøybrua" />
		<tag k="ssr:stedsnr" v="834659" />
	</node>
	<node id="-560360" lat="62.4019805585" lon="5.63389999497">
		<tag k="highway" v="path" />
		<tag k="name" v="Hellestigen" />
		<tag k="ssr:stedsnr" v="827400" />
	</node>
	<node id="-560359" lat="62.3604555591" lon="5.67328332607">
		<tag k="name" v="Skjerholmen" />
		<tag k="place" v="islet" />
		<tag k="ssr:stedsnr" v="827399" />
	</node>
	<node id="-560358" lat="62.3905555595" lon="5.62175555499">
		<tag k="name" v="Huleberget" />
		<tag k="natural" v="slope" />
		<tag k="place" v="locality" />
		<tag k="ssr:stedsnr" v="827396" />
	</node>
	<node id="-560357" lat="62.4042805567" lon="5.62767222476">
		<tag k="name" v="Litlevika" />
		<tag k="natural" v="bay" />
		<tag k="ssr:stedsnr" v="827387" />
	</node>
	<node id="-560356" lat="62.4060555571" lon="5.65901112005">
		<tag k="alt_name" v="Langenes" />
		<tag k="name" v="Langeneset" />
		<tag k="natural" v="cape" />
		<tag k="ssr:stedsnr" v="827384" />
	</node>
	<node id="-560355" lat="62.2643000024" lon="5.64733889562">
		<tag k="name" v="Mørkevatnet" />
		<tag k="natural" v="water" />
		<tag k="ssr:stedsnr" v="827362" />
		<tag k="water" v="lake" />
	</node>
	<node id="-560354" lat="62.261372226" lon="5.73154445263">
		<tag k="name" v="Nilsvatnet" />
		<tag k="natural" v="water" />
		<tag k="ssr:stedsnr" v="827358" />
	</node>
	<node id="-560353" lat="62.2866111145" lon="5.76884166196">
		<tag k="name" v="Kalveneset" />
		<tag k="natural" v="cape" />
		<tag k="ssr:stedsnr" v="827355" />
	</node>
	<node id="-560352" lat="62.2976833346" lon="5.69572499722">
		<tag k="name" v="Sandvikstranda" />
		<tag k="natural" v="beach" />
		<tag k="place" v="locality" />
		<tag k="ssr:stedsnr" v="827343" />
	</node>
	<node id="-560351" lat="62.3583777809" lon="5.61384443954">
		<tag k="name" v="Grønholmen" />
		<tag k="place" v="islet" />
		<tag k="ssr:stedsnr" v="827275" />
	</node>
	<node id="-560350" lat="62.354591667" lon="5.6672805651">
		<tag k="alt_name" v="Voldnes" />
		<tag k="name" v="Neset" />
		<tag k="natural" v="cape" />
		<tag k="ssr:stedsnr" v="826740" />
	</node>
	<node id="-560349" lat="62.3734305574" lon="5.55005278535">
		<tag k="name" v="Aksla" />
		<tag k="natural" v="ridge" />
		<tag k="place" v="locality" />
		<tag k="ssr:stedsnr" v="826737" />
	</node>
	<node id="-560348" lat="62.3238138867" lon="5.48004445282">
		<tag k="name" v="Hestvika" />
		<tag k="natural" v="bay" />
		<tag k="ssr:stedsnr" v="826729" />
	</node>
	<node id="-560347" lat="62.2610888929" lon="5.77323333375">
		<tag k="name" v="Tjukkeraua" />
		<tag k="natural" v="slope" />
		<tag k="place" v="locality" />
		<tag k="ssr:stedsnr" v="826717" />
	</node>
	<node id="-560346" lat="62.2772138914" lon="5.84778333324">
		<tag k="name" v="Fiskberga" />
		<tag k="place" v="islet" />
		<tag k="ssr:stedsnr" v="826709" />
	</node>
	<node id="-560345" lat="62.2799944432" lon="5.83129999222">
		<tag k="name" v="Jonseholmen" />
		<tag k="place" v="islet" />
		<tag k="ssr:stedsnr" v="826695" />
	</node>
	<node id="-560344" lat="62.2233444432" lon="5.74824166215">
		<tag k="name" v="Huldreholene" />
		<tag k="natural" v="valley" />
		<tag k="place" v="locality" />
		<tag k="ssr:stedsnr" v="826682" />
	</node>
	<node id="-560343" lat="62.2448861094" lon="5.77200555789">
		<tag k="name" v="Øyraelva" />
		<tag k="ssr:stedsnr" v="826653" />
		<tag k="waterway" v="river" />
	</node>
	<node id="-560342" lat="62.2358861136" lon="5.79126666662">
		<tag k="name" v="Brauta" />
		<tag k="place" v="farm" />
		<tag k="ssr:stedsnr" v="826640" />
	</node>
	<node id="-560341" lat="62.238122226" lon="5.79075832513">
		<tag k="alt_name" v="Smådal" />
		<tag k="name" v="Smådalane" />
		<tag k="place" v="farm" />
		<tag k="ssr:stedsnr" v="826639" />
	</node>
	<node id="-560340" lat="62.330738893" lon="5.64309722797">
		<tag k="name" v="Storholmen" />
		<tag k="place" v="islet" />
		<tag k="ssr:stedsnr" v="826373" />
	</node>
	<node id="-560339" lat="62.3689305534" lon="5.61030833089">
		<tag k="name" v="Svartebarden" />
		<tag k="place" v="islet" />
		<tag k="ssr:stedsnr" v="826356" />
	</node>
	<node id="-560338" lat="62.3578083363" lon="5.72984722816">
		<tag k="alt_name" v="Kalskarryggen" />
		<tag k="name" v="Kalsryggen" />
		<tag k="natural" v="ridge" />
		<tag k="place" v="locality" />
		<tag k="ssr:stedsnr" v="826341" />
	</node>
	<node id="-560337" lat="62.3723750008" lon="5.7213333313">
		<tag k="fixme" v="consider seamark:type=rock or natural=shoal" />
		<tag k="name" v="Lyreskjeret" />
		<tag k="place" v="islet" />
		<tag k="ssr:stedsnr" v="826339" />
	</node>
	<node id="-560336" lat="62.3668999971" lon="5.73929444632">
		<tag k="name" v="Kvalryggen" />
		<tag k="place" v="islet" />
		<tag k="ssr:stedsnr" v="826331" />
	</node>
	<node id="-560335" lat="62.2991833346" lon="5.65699999399">
		<tag k="name" v="Moltustøylen" />
		<tag k="natural" v="beach" />
		<tag k="place" v="locality" />
		<tag k="ssr:stedsnr" v="826276" />
	</node>
	<node id="-560334" lat="62.3280194462" lon="5.66296666994">
		<tag k="bridge" v="yes" />
		<tag k="layer" v="1" />
		<tag k="name" v="Stridestraumsbrua" />
		<tag k="ssr:stedsnr" v="819155" />
	</node>
	<node id="-560333" lat="62.2492500013" lon="5.7816861119">
		<tag k="alt_name" v="Leikanger kyrkje" />
		<tag k="amenity" v="place_of_worship" />
		<tag k="denomination" v="lutheran" />
		<tag k="name" v="Leikanger" />
		<tag k="religion" v="christian" />
		<tag k="ssr:stedsnr" v="808133" />
	</node>
	<node id="-560332" lat="62.3482134834" lon="5.76420657109">
		<tag k="name" v="Botnaløysa" />
		<tag k="place" v="locality" />
		<tag k="ssr:stedsnr" v="800857" />
	</node>
	<node id="-560331" lat="62.3342166696" lon="5.7605722151">
		<tag k="name" v="Skinnabrokleia" />
		<tag k="natural" v="strait" />
		<tag k="ssr:stedsnr" v="800815" />
	</node>
	<node id="-560330" lat="62.331930559" lon="5.72934444646">
		<tag k="alt_name" v="Storevika" />
		<tag k="name" v="Storvika" />
		<tag k="natural" v="bay" />
		<tag k="ssr:stedsnr" v="800806" />
	</node>
	<node id="-560327" lat="62.3656638896" lon="5.34148888753">
		<tag k="alt_name" v="Håskallen, yt" />
		<tag k="name" v="Ytre Håskallen" />
		<tag k="natural" v="shoal" />
		<tag k="place" v="locality" />
		<tag k="ssr:stedsnr" v="800651" />
	</node>
	<node id="-560326" lat="62.3863416639" lon="5.60862778305">
		<tag k="name" v="Storevika" />
		<tag k="natural" v="bay" />
		<tag k="ssr:stedsnr" v="800649" />
	</node>
	<node id="-560325" lat="62.3925333345" lon="5.65839999972">
		<tag k="fixme" v="consider seamark:type=rock or natural=shoal" />
		<tag k="name" v="Lisjeskjeret" />
		<tag k="place" v="islet" />
		<tag k="ssr:stedsnr" v="800642" />
	</node>
	<node id="-560324" lat="62.3364916681" lon="5.5371305589">
		<tag k="name" v="Lisjevatnet" />
		<tag k="natural" v="water" />
		<tag k="ssr:stedsnr" v="800602" />
	</node>
	<node id="-560323" lat="62.3368416644" lon="5.65081666363">
		<tag k="fixme" v="consider natural=peak for the most distinct mountains in the district" />
		<tag k="name" v="Tverrfjellet" />
		<tag k="natural" v="hill" />
		<tag k="place" v="locality" />
		<tag k="ssr:stedsnr" v="800595" />
	</node>
	<node id="-560322" lat="62.3335361132" lon="5.61630833447">
		<tag k="alt_name" v="Igesundsvatnet" />
		<tag k="name" v="Storevatnet" />
		<tag k="natural" v="water" />
		<tag k="ssr:stedsnr" v="800591" />
	</node>
	<node id="-560321" lat="62.3205888881" lon="5.4531416617">
		<tag k="name" v="Hella" />
		<tag k="natural" v="shoal" />
		<tag k="place" v="locality" />
		<tag k="ssr:stedsnr" v="800583" />
	</node>
	<node id="-560320" lat="62.3319622973" lon="5.71370429556">
		<tag k="name" v="Frøystad" />
		<tag k="place" v="farm" />
		<tag k="ssr:stedsnr" v="800570" />
	</node>
	<node id="-560319" lat="62.2905472226" lon="5.55945555256">
		<tag k="name" v="Løsetmola" />
		<tag k="natural" v="beach" />
		<tag k="place" v="locality" />
		<tag k="ssr:stedsnr" v="800542" />
	</node>
	<node id="-560318" lat="62.2828944406" lon="5.63725833339">
		<tag k="name" v="Blåfjellet" />
		<tag k="place" v="locality" />
		<tag k="ssr:stedsnr" v="800526" />
	</node>
	<node id="-560317" lat="62.2833583305" lon="5.70950554736">
		<tag k="fixme" v="consider natural=peak for the most distinct mountains in the district" />
		<tag k="name" v="Øyrahornet" />
		<tag k="natural" v="hill" />
		<tag k="place" v="locality" />
		<tag k="ssr:stedsnr" v="800519" />
	</node>
	<node id="-560316" lat="62.2718888919" lon="5.70894721283">
		<tag k="name" v="Tjørvågelva" />
		<tag k="ssr:stedsnr" v="800510" />
		<tag k="waterway" v="stream" />
	</node>
	<node id="-560315" lat="62.2419916676" lon="5.76521944821">
		<tag k="fixme" v="consider natural=peak for the most distinct mountains in the district" />
		<tag k="name" v="Grønåsen" />
		<tag k="natural" v="hill" />
		<tag k="place" v="locality" />
		<tag k="ssr:stedsnr" v="800142" />
	</node>
	<node id="-560314" lat="62.2445750041" lon="5.78478332863">
		<tag k="name" v="Legene" />
		<tag k="natural" v="beach" />
		<tag k="place" v="locality" />
		<tag k="ssr:stedsnr" v="800139" />
	</node>
	<node id="-560313" lat="62.2850444429" lon="5.75978610461">
		<tag k="name" v="Leirvika" />
		<tag k="place" v="farm" />
		<tag k="ssr:stedsnr" v="800136" />
	</node>
	<node id="-560312" lat="62.2835722235" lon="5.76955000375">
		<tag k="name" v="Aspvika" />
		<tag k="natural" v="bay" />
		<tag k="ssr:stedsnr" v="800134" />
	</node>
	<node id="-560311" lat="62.3665888926" lon="5.74073332457">
		<tag k="name" v="Bøneset" />
		<tag k="natural" v="cape" />
		<tag k="ssr:stedsnr" v="799887" />
	</node>
	<node id="-560310" lat="62.3113972244" lon="5.47718610683">
		<tag k="name" v="Langfallet" />
		<tag k="natural" v="shoal" />
		<tag k="place" v="locality" />
		<tag k="ssr:stedsnr" v="799577" />
	</node>
	<node id="-560309" lat="62.3024472185" lon="5.54010277771">
		<tag k="fixme" v="consider seamark:type=rock or natural=shoal" />
		<tag k="name" v="Kråka" />
		<tag k="place" v="islet" />
		<tag k="ssr:stedsnr" v="799574" />
	</node>
	<node id="-560308" lat="62.2518472202" lon="5.75248611373">
		<tag k="alt_name" v="Bakkeelva" />
		<tag k="name" v="Bakkelva" />
		<tag k="ssr:stedsnr" v="799210" />
		<tag k="waterway" v="stream" />
	</node>
	<node id="-560307" lat="62.2648666705" lon="5.7938388921">
		<tag k="name" v="Skogen" />
		<tag k="place" v="farm" />
		<tag k="ssr:stedsnr" v="799181" />
	</node>
	<node id="-560306" lat="62.2554638875" lon="5.74008889743">
		<tag k="alt_name" v="Olavsmyra" />
		<tag k="name" v="Olavsmyrane" />
		<tag k="natural" v="wetland" />
		<tag k="ssr:stedsnr" v="799172" />
	</node>
	<node id="-560305" lat="62.2766499962" lon="5.79258611206">
		<tag k="name" v="Haugen" />
		<tag k="place" v="farm" />
		<tag k="ssr:stedsnr" v="799137" />
	</node>
	<node id="-560304" lat="62.2152895346" lon="5.74246910152">
		<tag k="historic" v="shieling" />
		<tag k="name" v="Jøsoksela" />
		<tag k="place" v="locality" />
		<tag k="ssr:stedsnr" v="799077" />
	</node>
	<node id="-560303" lat="62.215697226" lon="5.77492778143">
		<tag k="name" v="Vålneselva" />
		<tag k="ssr:stedsnr" v="799075" />
		<tag k="waterway" v="stream" />
	</node>
	<node id="-560302" lat="62.2138749984" lon="5.78743611958">
		<tag k="alt_name" v="Gjerdet" />
		<tag k="name" v="Vålnesgjerdet" />
		<tag k="place" v="farm" />
		<tag k="ssr:stedsnr" v="799072" />
	</node>
	<node id="-560301" lat="62.3442500006" lon="5.50752777672">
		<tag k="name" v="Lurvene" />
		<tag k="natural" v="shoal" />
		<tag k="place" v="locality" />
		<tag k="ssr:stedsnr" v="800619" />
	</node>
	<node id="-560300" lat="62.3597472227" lon="5.62457222999">
		<tag k="name" v="Skotholmen" />
		<tag k="place" v="islet" />
		<tag k="ssr:stedsnr" v="800616" />
	</node>
	<node id="-560299" lat="62.3527277779" lon="5.60453612046">
		<tag k="name" v="Teigeneset" />
		<tag k="natural" v="cape" />
		<tag k="ssr:stedsnr" v="800615" />
	</node>
	<node id="-560298" lat="62.3414819164" lon="5.67040716022">
		<tag k="fixme" v="consider place=hamlet" />
		<tag k="name" v="Flusund" />
		<tag k="place" v="farm" />
		<tag k="ssr:stedsnr" v="800611" />
	</node>
	<node id="-560297" lat="62.3437941673" lon="5.5951408427">
		<tag k="fixme" v="consider place=hamlet" />
		<tag k="name" v="Kvalsund" />
		<tag k="place" v="farm" />
		<tag k="ssr:stedsnr" v="800606" />
	</node>
	<node id="-560296" lat="62.3419432118" lon="5.63403211996">
		<tag k="name" v="Fosnavåg" />
		<tag k="place" v="town" />
		<tag k="ssr:stedsnr" v="800605" />
	</node>
	<node id="-560295" lat="62.3458499974" lon="5.4906805654">
		<tag k="name" v="Steinfluda" />
		<tag k="natural" v="shoal" />
		<tag k="place" v="locality" />
		<tag k="ssr:stedsnr" v="780746" />
	</node>
	<node id="-560294" lat="62.3162638862" lon="5.47841388467">
		<tag k="name" v="Nesjefluda" />
		<tag k="natural" v="shoal" />
		<tag k="place" v="locality" />
		<tag k="ssr:stedsnr" v="780707" />
	</node>
	<node id="-560293" lat="62.4070027819" lon="5.69430555964">
		<tag k="name" v="Tussen" />
		<tag k="natural" v="shoal" />
		<tag k="place" v="locality" />
		<tag k="ssr:stedsnr" v="779969" />
	</node>
	<node id="-560292" lat="62.4277388934" lon="5.58253888808">
		<tag k="name" v="Barden" />
		<tag k="natural" v="shoal" />
		<tag k="place" v="locality" />
		<tag k="ssr:stedsnr" v="779870" />
	</node>
	<node id="-560291" lat="62.3374222224" lon="5.6718777851">
		<tag k="name" v="Berghølen" />
		<tag k="natural" v="bay" />
		<tag k="ssr:stedsnr" v="779443" />
	</node>
	<node id="-560290" lat="62.2883166663" lon="5.73313889322">
		<tag k="bridge" v="yes" />
		<tag k="layer" v="1" />
		<tag k="name" v="Klungsøyrgangbrua" />
		<tag k="ssr:stedsnr" v="774890" />
	</node>
	<node id="-560289" lat="62.3208027746" lon="5.71998056125">
		<tag k="bridge" v="yes" />
		<tag k="layer" v="1" />
		<tag k="name" v="Herøybrua" />
		<tag k="ssr:stedsnr" v="774884" />
	</node>
	<node id="-560288" lat="62.3356527759" lon="5.6787888904">
		<tag k="bridge" v="yes" />
		<tag k="layer" v="1" />
		<tag k="name" v="Buholmbrua" />
		<tag k="ssr:stedsnr" v="773844" />
	</node>
	<node id="-560287" lat="62.2400055593" lon="5.78707500051">
		<tag k="bridge" v="yes" />
		<tag k="layer" v="1" />
		<tag k="name" v="Raudvikbrua" />
		<tag k="ssr:stedsnr" v="773632" />
	</node>
	<node id="-560286" lat="62.3270277804" lon="5.61951666116">
		<tag k="name" v="Vike" />
		<tag k="place" v="farm" />
		<tag k="ssr:stedsnr" v="766819" />
	</node>
	<node id="-560285" lat="62.2877833377" lon="5.77300556293">
		<tag k="name" v="Kalveneset" />
		<tag k="natural" v="cape" />
		<tag k="ssr:stedsnr" v="765925" />
	</node>
	<node id="-560284" lat="62.3454361068" lon="5.65552222442">
		<tag k="name" v="Hornsetstranda" />
		<tag k="natural" v="beach" />
		<tag k="place" v="locality" />
		<tag k="ssr:stedsnr" v="765745" />
	</node>
	<node id="-560283" lat="62.4138000045" lon="5.58635833774">
		<tag k="name" v="Kvalnes" />
		<tag k="place" v="farm" />
		<tag k="ssr:stedsnr" v="765731" />
	</node>
	<node id="-560282" lat="62.2503500037" lon="5.75002222852">
		<tag k="fixme" v="consider natural=peak for the most distinct mountains in the district" />
		<tag k="name" v="Bakketua" />
		<tag k="natural" v="hill" />
		<tag k="place" v="locality" />
		<tag k="ssr:stedsnr" v="765724" />
	</node>
	<node id="-560281" lat="62.2886694404" lon="5.71803889829">
		<tag k="name" v="Øyraelva" />
		<tag k="ssr:stedsnr" v="765720" />
		<tag k="waterway" v="river" />
	</node>
	<node id="-560280" lat="62.240347218" lon="5.76298056255">
		<tag k="name" v="Tjørnadalen" />
		<tag k="natural" v="valley" />
		<tag k="place" v="locality" />
		<tag k="ssr:stedsnr" v="765716" />
	</node>
	<node id="-560279" lat="62.2394944407" lon="5.72359167066">
		<tag k="name" v="Storedroghaugen" />
		<tag k="natural" v="hill" />
		<tag k="place" v="locality" />
		<tag k="ssr:stedsnr" v="765712" />
	</node>
	<node id="-560278" lat="62.2098500029" lon="5.72674722217">
		<tag k="name" v="Tempelskarvatnet" />
		<tag k="natural" v="water" />
		<tag k="ssr:stedsnr" v="765704" />
		<tag k="water" v="lake" />
	</node>
	<node id="-560277" lat="62.2313277761" lon="5.75667778402">
		<tag k="name" v="Dyrskaret" />
		<tag k="natural" v="valley" />
		<tag k="place" v="locality" />
		<tag k="ssr:stedsnr" v="765696" />
	</node>
	<node id="-560276" lat="62.2685388903" lon="5.76808888015">
		<tag k="name" v="Fureneset" />
		<tag k="natural" v="cape" />
		<tag k="ssr:stedsnr" v="765693" />
	</node>
	<node id="-560275" lat="62.2307749965" lon="5.8343972223">
		<tag k="name" v="Naustvika" />
		<tag k="natural" v="bay" />
		<tag k="ssr:stedsnr" v="765686" />
	</node>
	<node id="-560274" lat="62.2876611144" lon="5.56851667156">
		<tag k="name" v="Litle Løsethornet" />
		<tag k="natural" v="hill" />
		<tag k="place" v="locality" />
		<tag k="ssr:stedsnr" v="765680" />
	</node>
	<node id="-560273" lat="62.3348916634" lon="5.65943889444">
		<tag k="name" v="Bendalen" />
		<tag k="natural" v="valley" />
		<tag k="place" v="locality" />
		<tag k="ssr:stedsnr" v="765636" />
	</node>
	<node id="-560272" lat="62.2790444412" lon="5.69857777006">
		<tag k="name" v="Rumpene" />
		<tag k="natural" v="hill" />
		<tag k="place" v="locality" />
		<tag k="ssr:stedsnr" v="765627" />
	</node>
	<node id="-560271" lat="62.2270111101" lon="5.80774721415">
		<tag k="name" v="Stranda" />
		<tag k="place" v="farm" />
		<tag k="ssr:stedsnr" v="765617" />
	</node>
	<node id="-560270" lat="62.3318083349" lon="5.64065277848">
		<tag k="name" v="Myklebustvatnet" />
		<tag k="natural" v="water" />
		<tag k="ssr:stedsnr" v="765338" />
	</node>
	<node id="-560269" lat="62.3367222221" lon="5.58118054751">
		<tag k="name" v="Notaneset" />
		<tag k="natural" v="cape" />
		<tag k="ssr:stedsnr" v="765329" />
	</node>
	<node id="-560268" lat="62.3463944451" lon="5.60373333203">
		<tag k="name" v="Røysabugen" />
		<tag k="natural" v="bay" />
		<tag k="ssr:stedsnr" v="765324" />
	</node>
	<node id="-560267" lat="62.3159305528" lon="5.67174722081">
		<tag k="fixme" v="consider seamark:type=rock or natural=shoal" />
		<tag k="name" v="Herøyhunden" />
		<tag k="place" v="islet" />
		<tag k="ssr:stedsnr" v="765301" />
	</node>
	<node id="-560266" lat="62.3199361106" lon="5.65404722473">
		<tag k="name" v="Paradisbukta" />
		<tag k="natural" v="bay" />
		<tag k="ssr:stedsnr" v="765300" />
	</node>
	<node id="-560265" lat="62.3619000013" lon="5.73376943537">
		<tag k="name" v="Brattefjellet" />
		<tag k="natural" v="hill" />
		<tag k="place" v="locality" />
		<tag k="ssr:stedsnr" v="765291" />
	</node>
	<node id="-560264" lat="62.2651555573" lon="5.80311111605">
		<tag k="alt_name" v="Grønenes" />
		<tag k="name" v="Grøneneset" />
		<tag k="natural" v="cape" />
		<tag k="ssr:stedsnr" v="765261" />
	</node>
	<node id="-560263" lat="62.302241669" lon="5.61626111832">
		<tag k="alt_name" v="Litleskjeret" />
		<tag k="name" v="Langholmskjeret" />
		<tag k="place" v="islet" />
		<tag k="ssr:stedsnr" v="765248" />
	</node>
	<node id="-560262" lat="62.2314444463" lon="5.81011944503">
		<tag k="name" v="Kleppestranda" />
		<tag k="place" v="farm" />
		<tag k="ssr:stedsnr" v="757236" />
	</node>
	<node id="-560261" lat="62.2467681899" lon="5.77967966639">
		<tag k="fixme" v="consider place=hamlet" />
		<tag k="name" v="Leikong" />
		<tag k="place" v="farm" />
		<tag k="ssr:stedsnr" v="753872" />
	</node>
	<node id="-560260" lat="62.339228709" lon="5.72694256952">
		<tag k="fixme" v="consider place=hamlet" />
		<tag k="name" v="Torvika" />
		<tag k="place" v="farm" />
		<tag k="ssr:stedsnr" v="739823" />
	</node>
	<node id="-560259" lat="62.2934916689" lon="5.79198610829">
		<tag k="name" v="Eliasholmen" />
		<tag k="place" v="islet" />
		<tag k="ssr:stedsnr" v="739774" />
	</node>
	<node id="-560258" lat="62.4669861069" lon="5.61127778663">
		<tag k="name" v="Gollesøyla" />
		<tag k="natural" v="shoal" />
		<tag k="place" v="locality" />
		<tag k="ssr:stedsnr" v="739673" />
	</node>
	<node id="-560257" lat="62.408072219" lon="5.68562499185">
		<tag k="name" v="Treholmane" />
		<tag k="place" v="islet" />
		<tag k="ssr:stedsnr" v="739665" />
	</node>
	<node id="-560255" lat="62.3664222243" lon="5.63561944452">
		<tag k="alt_name" v="Sævikhatten" />
		<tag k="name" v="Vardane" />
		<tag k="natural" v="hill" />
		<tag k="place" v="locality" />
		<tag k="ssr:stedsnr" v="739637" />
	</node>
	<node id="-560254" lat="62.3574388877" lon="5.40968055048">
		<tag k="name" v="Hornbåen" />
		<tag k="natural" v="shoal" />
		<tag k="place" v="locality" />
		<tag k="ssr:stedsnr" v="739635" />
	</node>
	<node id="-560253" lat="62.3582861075" lon="5.59336945288">
		<tag k="name" v="Verpingsneset" />
		<tag k="natural" v="cape" />
		<tag k="ssr:stedsnr" v="739626" />
	</node>
	<node id="-560251" lat="62.3534249987" lon="5.53194723057">
		<tag k="name" v="Vallhammaren" />
		<tag k="natural" v="hill" />
		<tag k="place" v="locality" />
		<tag k="ssr:stedsnr" v="739628" />
	</node>
	<node id="-560250" lat="62.3492666668" lon="5.63473889474">
		<tag k="bay" v="fjord" />
		<tag k="name" v="Holmefjorden" />
		<tag k="natural" v="bay" />
		<tag k="ssr:stedsnr" v="739614" />
	</node>
	<node id="-560249" lat="62.3314916691" lon="5.48079999288">
		<tag k="name" v="Trollenesvika" />
		<tag k="natural" v="bay" />
		<tag k="ssr:stedsnr" v="739603" />
	</node>
	<node id="-560248" lat="62.3295472239" lon="5.48315278514">
		<tag k="name" v="Ytstevika" />
		<tag k="natural" v="bay" />
		<tag k="ssr:stedsnr" v="739602" />
	</node>
	<node id="-560247" lat="62.336544446" lon="5.54326945281">
		<tag k="alt_name" v="Austre Lemmevatnet" />
		<tag k="name" v="Lemevatnet" />
		<tag k="natural" v="water" />
		<tag k="ssr:stedsnr" v="739598" />
	</node>
	<node id="-560246" lat="62.3308555516" lon="5.26744166688">
		<tag k="name" v="Losvika" />
		<tag k="natural" v="bay" />
		<tag k="ssr:stedsnr" v="739594" />
	</node>
	<node id="-560245" lat="62.290755558" lon="5.60701388616">
		<tag k="name" v="Nakkane" />
		<tag k="natural" v="hill" />
		<tag k="place" v="locality" />
		<tag k="ssr:stedsnr" v="739544" />
	</node>
	<node id="-560244" lat="62.2866222232" lon="5.69747776893">
		<tag k="name" v="Øyradalen" />
		<tag k="natural" v="valley" />
		<tag k="place" v="locality" />
		<tag k="ssr:stedsnr" v="739533" />
	</node>
	<node id="-560243" lat="62.2861388928" lon="5.72801110447">
		<tag k="name" v="Ekremyr" />
		<tag k="place" v="farm" />
		<tag k="ssr:stedsnr" v="739132" />
	</node>
	<node id="-560242" lat="62.2997305554" lon="5.50663610281">
		<tag k="name" v="Lisje Godøyfluda" />
		<tag k="natural" v="shoal" />
		<tag k="place" v="locality" />
		<tag k="ssr:stedsnr" v="738548" />
	</node>
	<node id="-560241" lat="62.2130527821" lon="5.75411667037">
		<tag k="alt_name" v="Voldnesvatnet" />
		<tag k="name" v="Vålnesvatnet" />
		<tag k="natural" v="water" />
		<tag k="ssr:stedsnr" v="738085" />
	</node>
	<node id="-560240" lat="62.401177778" lon="5.52260554996">
		<tag k="name" v="Geitmarfluda" />
		<tag k="natural" v="shoal" />
		<tag k="place" v="locality" />
		<tag k="ssr:stedsnr" v="719927" />
	</node>
	<node id="-560239" lat="62.4188388865" lon="5.60923054817">
		<tag k="name" v="Rautendfluda" />
		<tag k="natural" v="shoal" />
		<tag k="place" v="locality" />
		<tag k="ssr:stedsnr" v="719850" />
	</node>
	<node id="-560238" lat="62.3733583316" lon="5.53271943612">
		<tag k="name" v="Børafluda" />
		<tag k="natural" v="shoal" />
		<tag k="place" v="locality" />
		<tag k="ssr:stedsnr" v="719799" />
	</node>
	<node id="-560237" lat="62.3257888893" lon="5.2784888805">
		<tag k="name" v="Grynn-nabben" />
		<tag k="natural" v="shoal" />
		<tag k="place" v="locality" />
		<tag k="ssr:stedsnr" v="719746" />
	</node>
	<node id="-560236" lat="62.3265888924" lon="5.55581389403">
		<tag k="name" v="Søre Skallen" />
		<tag k="natural" v="shoal" />
		<tag k="place" v="locality" />
		<tag k="ssr:stedsnr" v="719689" />
	</node>
	<node id="-560235" lat="62.3161583346" lon="5.60521111882">
		<tag k="fixme" v="consider seamark:type=rock or natural=shoal" />
		<tag k="name" v="Kua" />
		<tag k="place" v="islet" />
		<tag k="ssr:stedsnr" v="719673" />
	</node>
	<node id="-560234" lat="62.3387222239" lon="5.61077777815">
		<tag k="name" v="Berghovda" />
		<tag k="natural" v="cape" />
		<tag k="ssr:stedsnr" v="719672" />
	</node>
	<node id="-560233" lat="62.3329027774" lon="5.59435556234">
		<tag k="name" v="Torebåen" />
		<tag k="natural" v="shoal" />
		<tag k="place" v="locality" />
		<tag k="ssr:stedsnr" v="719670" />
	</node>
	<node id="-560232" lat="62.3252444406" lon="5.68446667218">
		<tag k="name" v="Gjerdet" />
		<tag k="place" v="farm" />
		<tag k="ssr:stedsnr" v="719299" />
	</node>
	<node id="-560231" lat="62.3445305531" lon="5.67271389275">
		<tag k="name" v="Hetta" />
		<tag k="natural" v="cape" />
		<tag k="ssr:stedsnr" v="719409" />
	</node>
	<node id="-560230" lat="62.3335111074" lon="5.67368056045">
		<tag k="name" v="Krokstraumen" />
		<tag k="natural" v="strait" />
		<tag k="ssr:stedsnr" v="719407" />
	</node>
	<node id="-560229" lat="62.3300944459" lon="5.65790554818">
		<tag k="name" v="Hjelmeset" />
		<tag k="place" v="farm" />
		<tag k="ssr:stedsnr" v="706791" />
	</node>
	<node id="-560228" lat="62.3414055513" lon="5.72424999304">
		<tag k="name" v="Kattulhammaren" />
		<tag k="natural" v="cliff" />
		<tag k="ssr:stedsnr" v="705806" />
	</node>
	<node id="-560227" lat="62.3316972232" lon="5.72068888413">
		<tag k="name" v="Ramnefjellet" />
		<tag k="natural" v="hill" />
		<tag k="place" v="locality" />
		<tag k="ssr:stedsnr" v="705804" />
	</node>
	<node id="-560226" lat="62.240063888" lon="5.78711389805">
		<tag k="name" v="Vikaelva" />
		<tag k="ssr:stedsnr" v="705799" />
		<tag k="waterway" v="stream" />
	</node>
	<node id="-560225" lat="62.3579166698" lon="5.61996943571">
		<tag k="name" v="Tangane" />
		<tag k="natural" v="cape" />
		<tag k="ssr:stedsnr" v="705798" />
	</node>
	<node id="-560224" lat="62.3566935801" lon="5.72824456972">
		<tag k="name" v="Bautane" />
		<tag k="natural" v="hill" />
		<tag k="place" v="locality" />
		<tag k="ssr:stedsnr" v="705790" />
	</node>
	<node id="-560223" lat="62.2537638867" lon="5.69596389653">
		<tag k="name" v="Sollia" />
		<tag k="natural" v="slope" />
		<tag k="place" v="locality" />
		<tag k="ssr:stedsnr" v="705786" />
	</node>
	<node id="-560222" lat="62.2667611106" lon="5.75583889444">
		<tag k="name" v="Aregylet" />
		<tag k="natural" v="valley" />
		<tag k="place" v="locality" />
		<tag k="ssr:stedsnr" v="705785" />
	</node>
	<node id="-560221" lat="62.2564888872" lon="5.79603888222">
		<tag k="name" v="Klubbevika" />
		<tag k="natural" v="bay" />
		<tag k="ssr:stedsnr" v="705776" />
	</node>
	<node id="-560220" lat="62.3400444402" lon="5.63133056212">
		<tag k="name" v="Djupedalen" />
		<tag k="natural" v="valley" />
		<tag k="place" v="locality" />
		<tag k="ssr:stedsnr" v="705760" />
	</node>
	<node id="-560219" lat="62.2684944434" lon="5.66839999258">
		<tag k="name" v="Grasdalen" />
		<tag k="natural" v="valley" />
		<tag k="place" v="locality" />
		<tag k="ssr:stedsnr" v="705751" />
	</node>
	<node id="-560218" lat="62.2540555539" lon="5.76142223169">
		<tag k="name" v="Skinstødet" />
		<tag k="place" v="locality" />
		<tag k="ssr:stedsnr" v="705749" />
	</node>
	<node id="-560217" lat="62.2199305523" lon="5.79383333422">
		<tag k="name" v="Bøen" />
		<tag k="place" v="farm" />
		<tag k="ssr:stedsnr" v="705710" />
	</node>
	<node id="-560216" lat="62.357541668" lon="5.62242777605">
		<tag k="name" v="Lyngholmane" />
		<tag k="place" v="islet" />
		<tag k="ssr:stedsnr" v="705415" />
	</node>
	<node id="-560215" lat="62.3419694451" lon="5.66191944186">
		<tag k="name" v="Reitenakken" />
		<tag k="natural" v="hill" />
		<tag k="place" v="locality" />
		<tag k="ssr:stedsnr" v="705394" />
	</node>
	<node id="-560214" lat="62.33981111" lon="5.60738055758">
		<tag k="name" v="Igesundsvaulen" />
		<tag k="natural" v="strait" />
		<tag k="ssr:stedsnr" v="705388" />
	</node>
	<node id="-560213" lat="62.3530027746" lon="5.57691666616">
		<tag k="name" v="Kalddalselva" />
		<tag k="ssr:stedsnr" v="705384" />
		<tag k="waterway" v="stream" />
	</node>
	<node id="-560212" lat="62.2683222265" lon="5.79543055759">
		<tag k="name" v="Djupvikhaugen" />
		<tag k="natural" v="hill" />
		<tag k="place" v="locality" />
		<tag k="ssr:stedsnr" v="705365" />
	</node>
	<node id="-560211" lat="62.3242999977" lon="5.64364166214">
		<tag k="fixme" v="consider place=hamlet" />
		<tag k="name" v="Eggesbø" />
		<tag k="place" v="village" />
		<tag k="ssr:stedsnr" v="705358" />
	</node>
	<node id="-560210" lat="62.2893999974" lon="5.71654166094">
		<tag k="name" v="Sandvikskaret" />
		<tag k="natural" v="valley" />
		<tag k="place" v="locality" />
		<tag k="ssr:stedsnr" v="705350" />
	</node>
	<node id="-560209" lat="62.3029444468" lon="5.73345278026">
		<tag k="name" v="Prestegardsmyrane" />
		<tag k="natural" v="wetland" />
		<tag k="ssr:stedsnr" v="705346" />
	</node>
	<node id="-560208" lat="62.302322226" lon="5.74140278101">
		<tag k="name" v="Storeneset" />
		<tag k="natural" v="cape" />
		<tag k="ssr:stedsnr" v="705345" />
	</node>
	<node id="-560207" lat="62.2926805551" lon="5.60442499933">
		<tag k="name" v="Litlenakken" />
		<tag k="natural" v="ridge" />
		<tag k="place" v="locality" />
		<tag k="ssr:stedsnr" v="705301" />
	</node>
	<node id="-560206" lat="62.2916749966" lon="5.60682777341">
		<tag k="name" v="Storenakken" />
		<tag k="natural" v="hill" />
		<tag k="place" v="locality" />
		<tag k="ssr:stedsnr" v="705298" />
	</node>
	<node id="-560205" lat="62.355102777" lon="5.72167777353">
		<tag k="name" v="Sandeskaret" />
		<tag k="natural" v="valley" />
		<tag k="place" v="locality" />
		<tag k="ssr:stedsnr" v="704302" />
	</node>
	<node id="-560204" lat="62.3620611113" lon="5.72428332416">
		<tag k="name" v="Sandevika" />
		<tag k="natural" v="bay" />
		<tag k="ssr:stedsnr" v="678845" />
	</node>
	<node id="-560203" lat="62.3675916627" lon="5.71992500551">
		<tag k="name" v="Lisjeholmen" />
		<tag k="place" v="islet" />
		<tag k="ssr:stedsnr" v="678843" />
	</node>
	<node id="-560202" lat="62.3307638866" lon="5.73750833101">
		<tag k="alt_name" v="Storeneset;Storevikneset" />
		<tag k="name" v="Storneset" />
		<tag k="natural" v="cape" />
		<tag k="ssr:stedsnr" v="678819" />
	</node>
	<node id="-560201" lat="62.4821888927" lon="5.67031389608">
		<tag k="name" v="Keipebåane" />
		<tag k="natural" v="shoal" />
		<tag k="place" v="locality" />
		<tag k="ssr:stedsnr" v="678684" />
	</node>
	<node id="-560200" lat="62.401649996" lon="5.61473888666">
		<tag k="name" v="Lisjevatnet" />
		<tag k="natural" v="water" />
		<tag k="ssr:stedsnr" v="678668" />
	</node>
	<node id="-560199" lat="62.4057546207" lon="5.59201760178">
		<tag k="name" v="Rundabranden" />
		<tag k="natural" v="hill" />
		<tag k="place" v="locality" />
		<tag k="ssr:stedsnr" v="678662" />
	</node>
	<node id="-560198" lat="62.4054499973" lon="5.65895555124">
		<tag k="name" v="Korsen" />
		<tag k="natural" v="bay" />
		<tag k="ssr:stedsnr" v="678658" />
	</node>
	<node id="-560197" lat="62.3711111139" lon="5.66276110379">
		<tag k="fixme" v="consider natural=peak for the most distinct mountains in the district" />
		<tag k="name" v="Remøykammen" />
		<tag k="natural" v="hill" />
		<tag k="place" v="locality" />
		<tag k="ssr:stedsnr" v="678633" />
	</node>
	<node id="-560196" lat="62.3640249975" lon="5.59474721401">
		<tag k="alt_name" v="Svarteskjeret" />
		<tag k="fixme" v="consider seamark:type=rock or natural=shoal" />
		<tag k="name" v="Svartskjeret" />
		<tag k="place" v="islet" />
		<tag k="ssr:stedsnr" v="678630" />
	</node>
	<node id="-560195" lat="62.3608722204" lon="5.56073611037">
		<tag k="name" v="Myraneset" />
		<tag k="natural" v="cape" />
		<tag k="ssr:stedsnr" v="678628" />
	</node>
	<node id="-560194" lat="62.3442361132" lon="5.68115278359">
		<tag k="alt_name" v="Leinevågen" />
		<tag k="name" v="Leinevika" />
		<tag k="natural" v="bay" />
		<tag k="ssr:stedsnr" v="678606" />
	</node>
	<node id="-560193" lat="62.3293777822" lon="5.26598333127">
		<tag k="name" v="Svinøya" />
		<tag k="place" v="island" />
		<tag k="ssr:stedsnr" v="678598" />
	</node>
	<node id="-560192" lat="62.3404944476" lon="5.53407777749">
		<tag k="fixme" v="consider natural=peak for the most distinct mountains in the district" />
		<tag k="name" v="Rjåhornet" />
		<tag k="natural" v="hill" />
		<tag k="place" v="locality" />
		<tag k="ssr:stedsnr" v="678596" />
	</node>
	<node id="-560191" lat="62.333186113" lon="5.62150833192">
		<tag k="alt_name" v="Igesundhetta" />
		<tag k="fixme" v="consider natural=peak for the most distinct mountains in the district" />
		<tag k="name" v="Igesundshetta" />
		<tag k="natural" v="hill" />
		<tag k="place" v="locality" />
		<tag k="ssr:stedsnr" v="678579" />
	</node>
	<node id="-560190" lat="62.3266050609" lon="5.61755668721">
		<tag k="fixme" v="consider place=hamlet" />
		<tag k="name" v="Vikane" />
		<tag k="place" v="farm" />
		<tag k="ssr:stedsnr" v="678576" />
	</node>
	<node id="-560189" lat="62.3222815705" lon="5.49602904734">
		<tag k="fixme" v="consider place=hamlet" />
		<tag k="name" v="Skorpa" />
		<tag k="place" v="farm" />
		<tag k="ssr:stedsnr" v="678574" />
	</node>
	<node id="-560188" lat="62.3297722192" lon="5.4952611032">
		<tag k="name" v="Skorpa" />
		<tag k="place" v="island" />
		<tag k="ssr:stedsnr" v="678573" />
	</node>
	<node id="-560187" lat="62.3121749995" lon="5.39648889626">
		<tag k="name" v="Årbenda" />
		<tag k="natural" v="shoal" />
		<tag k="place" v="locality" />
		<tag k="ssr:stedsnr" v="678566" />
	</node>
	<node id="-560186" lat="62.3290972268" lon="5.68831111412">
		<tag k="fixme" v="consider natural=peak for the most distinct mountains in the district" />
		<tag k="name" v="Grønfjellet" />
		<tag k="natural" v="hill" />
		<tag k="place" v="locality" />
		<tag k="ssr:stedsnr" v="678564" />
	</node>
	<node id="-560185" lat="62.3092700595" lon="5.69663636734">
		<tag k="alt_name" v="Notøy" />
		<tag k="name" v="Nautøya" />
		<tag k="old_name" v="Nautø" />
		<tag k="place" v="island" />
		<tag k="ssr:stedsnr" v="678552" />
	</node>
	<node id="-560184" lat="62.2997277759" lon="5.64192222326">
		<tag k="name" v="Moltusteinen" />
		<tag k="natural" v="cape" />
		<tag k="ssr:stedsnr" v="678551" />
	</node>
	<node id="-560183" lat="62.3016250034" lon="5.6849833395">
		<tag k="name" v="Rysseneset" />
		<tag k="natural" v="cape" />
		<tag k="ssr:stedsnr" v="678547" />
	</node>
	<node id="-560182" lat="62.3051444466" lon="5.70411389557">
		<tag k="name" v="Vedøya" />
		<tag k="place" v="islet" />
		<tag k="ssr:stedsnr" v="678544" />
	</node>
	<node id="-560181" lat="62.2835361155" lon="5.66689444836">
		<tag k="alt_name" v="Store Øyravatnet" />
		<tag k="name" v="Røvarvatnet" />
		<tag k="natural" v="water" />
		<tag k="ssr:stedsnr" v="678525" />
	</node>
	<node id="-560180" lat="62.2733722213" lon="5.62625000706">
		<tag k="name" v="Sætjørna" />
		<tag k="natural" v="water" />
		<tag k="ssr:stedsnr" v="678523" />
	</node>
	<node id="-560179" lat="62.2346944437" lon="5.83563610526">
		<tag k="name" v="Bjørnholmen" />
		<tag k="place" v="islet" />
		<tag k="ssr:stedsnr" v="678174" />
	</node>
	<node id="-560178" lat="62.235636109" lon="5.79060833602">
		<tag k="name" v="Vonheim" />
		<tag k="place" v="farm" />
		<tag k="ssr:stedsnr" v="678170" />
	</node>
	<node id="-560177" lat="62.2769305578" lon="5.74291665855">
		<tag k="name" v="Byrkjehola" />
		<tag k="place" v="farm" />
		<tag k="ssr:stedsnr" v="678133" />
	</node>
	<node id="-560176" lat="62.2138222245" lon="5.79175278392">
		<tag k="name" v="Vålneset" />
		<tag k="natural" v="cape" />
		<tag k="ssr:stedsnr" v="678078" />
	</node>
	<node id="-560175" lat="62.4055305538" lon="5.58960555721">
		<tag k="name" v="Hjorthaugsmåla" />
		<tag k="natural" v="cape" />
		<tag k="ssr:stedsnr" v="658872" />
	</node>
	<node id="-560174" lat="62.3754500035" lon="5.54815278305">
		<tag k="name" v="Lurerevet" />
		<tag k="natural" v="shoal" />
		<tag k="place" v="locality" />
		<tag k="ssr:stedsnr" v="658793" />
	</node>
	<node id="-560173" lat="62.3347722218" lon="5.75583610879">
		<tag k="fixme" v="consider seamark:type=rock or natural=shoal" />
		<tag k="name" v="Røysa" />
		<tag k="place" v="islet" />
		<tag k="ssr:stedsnr" v="658354" />
	</node>
	<node id="-560172" lat="62.3008722213" lon="5.71456111497">
		<tag k="name" v="Langenes" />
		<tag k="natural" v="cape" />
		<tag k="ssr:stedsnr" v="658334" />
	</node>
	<node id="-560171" lat="62.3654805566" lon="5.71646389748">
		<tag k="name" v="Småneset" />
		<tag k="natural" v="cape" />
		<tag k="ssr:stedsnr" v="658327" />
	</node>
	<node id="-560170" lat="62.3250555554" lon="5.61745833513">
		<tag k="name" v="Korsen" />
		<tag k="place" v="isolated_dwelling" />
		<tag k="ssr:stedsnr" v="658296" />
	</node>
	<node id="-560169" lat="62.2253750007" lon="5.80320277748">
		<tag k="bridge" v="yes" />
		<tag k="layer" v="1" />
		<tag k="name" v="Jøsokbrua" />
		<tag k="ssr:stedsnr" v="652659" />
	</node>
	<node id="-560168" lat="62.3366805556" lon="5.72803610162">
		<tag k="man_made" v="quay" />
		<tag k="name" v="Torvika" />
		<tag k="place" v="locality" />
		<tag k="ssr:stedsnr" v="645902" />
	</node>
	<node id="-560167" lat="62.3358000011" lon="5.70701945229">
		<tag k="name" v="Vassdalen" />
		<tag k="natural" v="valley" />
		<tag k="place" v="locality" />
		<tag k="ssr:stedsnr" v="644785" />
	</node>
	<node id="-560166" lat="62.3339000024" lon="5.70434166171">
		<tag k="name" v="Svartevasselva" />
		<tag k="ssr:stedsnr" v="644783" />
		<tag k="waterway" v="stream" />
	</node>
	<node id="-560165" lat="62.2920861078" lon="5.57374167307">
		<tag k="name" v="Hjellen" />
		<tag k="place" v="locality" />
		<tag k="ssr:stedsnr" v="644770" />
	</node>
	<node id="-560164" lat="62.373552779" lon="5.66835277951">
		<tag k="name" v="Stigane" />
		<tag k="natural" v="slope" />
		<tag k="place" v="locality" />
		<tag k="ssr:stedsnr" v="644757" />
	</node>
	<node id="-560163" lat="62.3193666659" lon="5.48341389296">
		<tag k="name" v="Djupvika" />
		<tag k="natural" v="bay" />
		<tag k="ssr:stedsnr" v="644755" />
	</node>
	<node id="-560162" lat="62.3634833378" lon="5.74650000154">
		<tag k="name" v="Rabben" />
		<tag k="natural" v="cape" />
		<tag k="ssr:stedsnr" v="644747" />
	</node>
	<node id="-560161" lat="62.2437194453" lon="5.73986110487">
		<tag k="name" v="Sætrelidene" />
		<tag k="natural" v="slope" />
		<tag k="place" v="locality" />
		<tag k="ssr:stedsnr" v="644743" />
	</node>
	<node id="-560160" lat="62.2727638897" lon="5.82750833047">
		<tag k="alt_name" v="Kjellsund" />
		<tag k="name" v="Kjeldsund" />
		<tag k="natural" v="strait" />
		<tag k="ssr:stedsnr" v="644739" />
	</node>
	<node id="-560159" lat="62.3419583297" lon="5.63808332869">
		<tag k="name" v="Nørdrevågneset" />
		<tag k="natural" v="cape" />
		<tag k="ssr:stedsnr" v="644734" />
	</node>
	<node id="-560158" lat="62.3373527733" lon="5.63112776914">
		<tag k="name" v="Grønfjellet" />
		<tag k="natural" v="hill" />
		<tag k="place" v="locality" />
		<tag k="ssr:stedsnr" v="644732" />
	</node>
	<node id="-560157" lat="62.4035361141" lon="5.63074166774">
		<tag k="name" v="Storevika" />
		<tag k="natural" v="bay" />
		<tag k="ssr:stedsnr" v="644374" />
	</node>
	<node id="-560156" lat="62.272150003" lon="5.71068610883">
		<tag k="name" v="Nonsdalen" />
		<tag k="natural" v="valley" />
		<tag k="place" v="locality" />
		<tag k="ssr:stedsnr" v="644345" />
	</node>
	<node id="-560155" lat="62.2669472256" lon="5.64567777523">
		<tag k="name" v="Mørkevasseidet" />
		<tag k="natural" v="strait" />
		<tag k="ssr:stedsnr" v="644342" />
	</node>
	<node id="-560154" lat="62.2866694471" lon="5.74750278691">
		<tag k="alt_name" v="Saueholmen" />
		<tag k="name" v="Kubbeteholmen" />
		<tag k="place" v="islet" />
		<tag k="ssr:stedsnr" v="644331" />
	</node>
	<node id="-560153" lat="62.2855888904" lon="5.7557388939">
		<tag k="name" v="Skutvika" />
		<tag k="natural" v="bay" />
		<tag k="ssr:stedsnr" v="643723" />
	</node>
	<node id="-560152" lat="62.3057388869" lon="5.75152222429">
		<tag k="name" v="Gullura" />
		<tag k="natural" v="shoal" />
		<tag k="place" v="locality" />
		<tag k="ssr:stedsnr" v="643710" />
	</node>
	<node id="-560151" lat="62.2455416639" lon="5.7385944381">
		<tag k="name" v="Sætrelia" />
		<tag k="natural" v="slope" />
		<tag k="place" v="locality" />
		<tag k="ssr:stedsnr" v="643648" />
	</node>
	<node id="-560150" lat="62.3502916699" lon="5.6784555633">
		<tag k="name" v="Leitet" />
		<tag k="place" v="farm" />
		<tag k="ssr:stedsnr" v="643632" />
	</node>
	<node id="-560149" lat="62.2955805547" lon="5.59596667183">
		<tag k="fixme" v="consider seamark:type=rock or natural=shoal" />
		<tag k="name" v="Kobbeskjeret" />
		<tag k="place" v="islet" />
		<tag k="ssr:stedsnr" v="643273" />
	</node>
	<node id="-560148" lat="62.3147361134" lon="5.59152223154">
		<tag k="name" v="Djupesundet" />
		<tag k="natural" v="strait" />
		<tag k="ssr:stedsnr" v="643271" />
	</node>
	<node id="-560147" lat="62.3442527754" lon="5.73761388667">
		<tag k="name" v="Tangane" />
		<tag k="natural" v="cape" />
		<tag k="ssr:stedsnr" v="643191" />
	</node>
	<node id="-560146" lat="62.3287999984" lon="5.66588888853">
		<tag k="name" v="Stridestraumen" />
		<tag k="natural" v="strait" />
		<tag k="ssr:stedsnr" v="643178" />
	</node>
	<node id="-560145" lat="62.4134249987" lon="5.58334723029">
		<tag k="name" v="Søre Hamna" />
		<tag k="natural" v="bay" />
		<tag k="ssr:stedsnr" v="643354" />
	</node>
	<node id="-560144" lat="62.3370638925" lon="5.60911110251">
		<tag k="name" v="Igesundselva" />
		<tag k="ssr:stedsnr" v="643337" />
		<tag k="waterway" v="stream" />
	</node>
	<node id="-560143" lat="62.3211111085" lon="5.62698888406">
		<tag k="name" v="Vikeklubben" />
		<tag k="natural" v="cape" />
		<tag k="ssr:stedsnr" v="643313" />
	</node>
	<node id="-560142" lat="62.3644527735" lon="5.51831387986">
		<tag k="name" v="Mulemyrane" />
		<tag k="natural" v="wetland" />
		<tag k="ssr:stedsnr" v="643311" />
	</node>
	<node id="-560141" lat="62.3041916622" lon="5.70820000102">
		<tag k="name" v="Sandvikholmen" />
		<tag k="place" v="islet" />
		<tag k="ssr:stedsnr" v="643306" />
	</node>
	<node id="-560140" lat="62.3265555515" lon="5.72740000757">
		<tag k="fixme" v="consider natural=peak for the most distinct mountains in the district" />
		<tag k="name" v="Staven" />
		<tag k="natural" v="hill" />
		<tag k="place" v="locality" />
		<tag k="ssr:stedsnr" v="617838" />
	</node>
	<node id="-560139" lat="62.3144416666" lon="5.7386805482">
		<tag k="fixme" v="consider seamark:type=rock or natural=shoal" />
		<tag k="name" v="Skarveskjeret" />
		<tag k="place" v="islet" />
		<tag k="ssr:stedsnr" v="617821" />
	</node>
	<node id="-560138" lat="62.2948098478" lon="5.73641784067">
		<tag k="fixme" v="consider place=hamlet" />
		<tag k="name" v="Rafteset" />
		<tag k="place" v="farm" />
		<tag k="ssr:stedsnr" v="617789" />
	</node>
	<node id="-560137" lat="62.4029444459" lon="5.59342221831">
		<tag k="name" v="Kaldekloven" />
		<tag k="natural" v="cape" />
		<tag k="ssr:stedsnr" v="617679" />
	</node>
	<node id="-560136" lat="62.381038887" lon="5.622872222">
		<tag k="name" v="Rundasundet" />
		<tag k="natural" v="strait" />
		<tag k="ssr:stedsnr" v="617654" />
	</node>
	<node id="-560135" lat="62.3608138913" lon="5.59054722044">
		<tag k="name" v="Langeneset" />
		<tag k="natural" v="cape" />
		<tag k="ssr:stedsnr" v="617648" />
	</node>
	<node id="-560134" lat="62.3595555518" lon="5.36766667309">
		<tag k="alt_name" v="Håskallen, in" />
		<tag k="name" v="Indre Håskallen" />
		<tag k="natural" v="shoal" />
		<tag k="place" v="locality" />
		<tag k="ssr:stedsnr" v="617639" />
	</node>
	<node id="-560133" lat="62.3636444465" lon="5.70569722576">
		<tag k="name" v="Grønelia" />
		<tag k="natural" v="slope" />
		<tag k="place" v="locality" />
		<tag k="ssr:stedsnr" v="617629" />
	</node>
	<node id="-560132" lat="62.3509361125" lon="5.47689721633">
		<tag k="name" v="Leidfluda" />
		<tag k="natural" v="shoal" />
		<tag k="place" v="locality" />
		<tag k="ssr:stedsnr" v="617626" />
	</node>
	<node id="-560131" lat="62.3412111112" lon="5.70918332909">
		<tag k="fixme" v="consider natural=peak for the most distinct mountains in the district" />
		<tag k="name" v="Leinebjørnen" />
		<tag k="natural" v="hill" />
		<tag k="place" v="locality" />
		<tag k="ssr:stedsnr" v="617593" />
	</node>
	<node id="-560130" lat="62.3173888898" lon="5.5923444444">
		<tag k="name" v="Lisje Sandøya" />
		<tag k="place" v="islet" />
		<tag k="ssr:stedsnr" v="617585" />
	</node>
	<node id="-560129" lat="62.3167333301" lon="5.58839999179">
		<tag k="fixme" v="consider seamark:type=rock or natural=shoal" />
		<tag k="name" v="Lisjeskjeret" />
		<tag k="place" v="islet" />
		<tag k="ssr:stedsnr" v="617582" />
	</node>
	<node id="-560128" lat="62.3254611129" lon="5.66137777285">
		<tag k="name" v="Gjertneset" />
		<tag k="natural" v="cape" />
		<tag k="ssr:stedsnr" v="617577" />
	</node>
	<node id="-560127" lat="62.3051805523" lon="5.4733777755">
		<tag k="name" v="Store Godøyfluda" />
		<tag k="natural" v="shoal" />
		<tag k="place" v="locality" />
		<tag k="ssr:stedsnr" v="617575" />
	</node>
	<node id="-560126" lat="62.3155472184" lon="5.68630833388">
		<tag k="name" v="Fugleholmen" />
		<tag k="place" v="islet" />
		<tag k="ssr:stedsnr" v="617574" />
	</node>
	<node id="-560125" lat="62.3184027799" lon="5.59860278047">
		<tag k="fixme" v="multiple name tags, choose one and add the other to alt_name" />
		<tag k="name" v="Sandøya;Store Sandøya" />
		<tag k="place" v="island" />
		<tag k="ssr:stedsnr" v="617569" />
	</node>
	<node id="-560124" lat="62.3150916691" lon="5.70767499815">
		<tag k="alt_name" v="Jønsholmen" />
		<tag k="name" v="Jensholmen" />
		<tag k="place" v="islet" />
		<tag k="ssr:stedsnr" v="617564" />
	</node>
	<node id="-560123" lat="62.3007722188" lon="5.5830888902">
		<tag k="fixme" v="consider seamark:type=rock or natural=shoal" />
		<tag k="name" v="Hidslendingane" />
		<tag k="place" v="islet" />
		<tag k="ssr:stedsnr" v="617561" />
	</node>
	<node id="-560122" lat="62.2932194454" lon="5.56401110583">
		<tag k="name" v="Løsethammaren" />
		<tag k="natural" v="cape" />
		<tag k="ssr:stedsnr" v="617556" />
	</node>
	<node id="-560121" lat="62.269033329" lon="5.70517221362">
		<tag k="name" v="Nonsvatnet" />
		<tag k="natural" v="water" />
		<tag k="ssr:stedsnr" v="617532" />
	</node>
	<node id="-560120" lat="62.2520388929" lon="5.78431666738">
		<tag k="name" v="Moldtugarden" />
		<tag k="place" v="farm" />
		<tag k="ssr:stedsnr" v="617238" />
	</node>
	<node id="-560119" lat="62.2694333292" lon="5.7653194467">
		<tag k="name" v="Stemmedalsvatnet" />
		<tag k="natural" v="water" />
		<tag k="ssr:stedsnr" v="617216" />
	</node>
	<node id="-560118" lat="62.2315333335" lon="5.83092222857">
		<tag k="name" v="Måløya" />
		<tag k="place" v="island" />
		<tag k="ssr:stedsnr" v="617213" />
	</node>
	<node id="-560117" lat="62.2678722199" lon="5.82851111607">
		<tag k="name" v="Kjeholmen" />
		<tag k="place" v="islet" />
		<tag k="ssr:stedsnr" v="617211" />
	</node>
	<node id="-560116" lat="62.2367194419" lon="5.80755834263">
		<tag k="alt_name" v="Kleppe" />
		<tag k="name" v="Kleppane" />
		<tag k="place" v="farm" />
		<tag k="ssr:stedsnr" v="617198" />
	</node>
	<node id="-560115" lat="62.2383611075" lon="5.82467777356">
		<tag k="name" v="Kleppeholmane" />
		<tag k="place" v="islet" />
		<tag k="ssr:stedsnr" v="617180" />
	</node>
	<node id="-560114" lat="62.31192778" lon="5.52389444527">
		<tag k="name" v="Lisje Erkneskjera" />
		<tag k="natural" v="shoal" />
		<tag k="place" v="locality" />
		<tag k="ssr:stedsnr" v="602954" />
	</node>
	<node id="-560113" lat="62.3285361097" lon="5.25930833545">
		<tag k="name" v="Vestfludene" />
		<tag k="natural" v="shoal" />
		<tag k="place" v="locality" />
		<tag k="ssr:stedsnr" v="600794" />
	</node>
	<node id="-560112" lat="62.3939083337" lon="5.60308611633">
		<tag k="name" v="Liafluda" />
		<tag k="natural" v="shoal" />
		<tag k="place" v="locality" />
		<tag k="ssr:stedsnr" v="597896" />
	</node>
	<node id="-560111" lat="62.4207166638" lon="5.60694444092">
		<tag k="name" v="Skjerfluda" />
		<tag k="natural" v="shoal" />
		<tag k="place" v="locality" />
		<tag k="ssr:stedsnr" v="597884" />
	</node>
	<node id="-560110" lat="62.3187972237" lon="5.71490000615">
		<tag k="name" v="Skallen" />
		<tag k="natural" v="shoal" />
		<tag k="place" v="locality" />
		<tag k="ssr:stedsnr" v="597330" />
	</node>
	<node id="-560109" lat="62.3072472246" lon="5.73764721789">
		<tag k="name" v="Stokksundet" />
		<tag k="natural" v="strait" />
		<tag k="ssr:stedsnr" v="597325" />
	</node>
	<node id="-560108" lat="62.3814111121" lon="5.61675276818">
		<tag k="fixme" v="consider seamark:type=rock or natural=shoal" />
		<tag k="name" v="Flateskjeret" />
		<tag k="place" v="islet" />
		<tag k="ssr:stedsnr" v="597218" />
	</node>
	<node id="-560107" lat="62.3547611156" lon="5.60863889629">
		<tag k="name" v="Peisbåen" />
		<tag k="natural" v="shoal" />
		<tag k="place" v="locality" />
		<tag k="ssr:stedsnr" v="597207" />
	</node>
	<node id="-560106" lat="62.3624138862" lon="5.63868333327">
		<tag k="layer" v="-1" />
		<tag k="name" v="Sæviktunnelen" />
		<tag k="ssr:stedsnr" v="591744" />
		<tag k="tunnel" v="yes" />
	</node>
	<node id="-560105" lat="62.3333092347" lon="5.72333308547">
		<tag k="name" v="Steinsvik" />
		<tag k="place" v="farm" />
		<tag k="ssr:stedsnr" v="584798" />
	</node>
	<node id="-560104" lat="62.3200277806" lon="5.47819999886">
		<tag k="fixme" v="consider seamark:type=rock or natural=shoal" />
		<tag k="name" v="Tørraskjeret" />
		<tag k="place" v="islet" />
		<tag k="ssr:stedsnr" v="584381" />
	</node>
	<node id="-560103" lat="62.3637000016" lon="5.5048972178">
		<tag k="name" v="Storemålgylet" />
		<tag k="natural" v="valley" />
		<tag k="place" v="locality" />
		<tag k="ssr:stedsnr" v="584380" />
	</node>
	<node id="-560102" lat="62.3386111139" lon="5.6542861061">
		<tag k="name" v="Skinhammaren" />
		<tag k="natural" v="hill" />
		<tag k="place" v="locality" />
		<tag k="ssr:stedsnr" v="584375" />
	</node>
	<node id="-560101" lat="62.3355916653" lon="5.68233889656">
		<tag k="name" v="Buholmen" />
		<tag k="natural" v="cape" />
		<tag k="ssr:stedsnr" v="583757" />
	</node>
	<node id="-560100" lat="62.3300666686" lon="5.72541666822">
		<tag k="name" v="Frøystadtua" />
		<tag k="natural" v="hill" />
		<tag k="place" v="locality" />
		<tag k="ssr:stedsnr" v="583749" />
	</node>
	<node id="-560099" lat="62.3413805554" lon="5.62466111779">
		<tag k="name" v="Kleiva" />
		<tag k="natural" v="slope" />
		<tag k="place" v="locality" />
		<tag k="ssr:stedsnr" v="583740" />
	</node>
	<node id="-560098" lat="62.3430999993" lon="5.63733332873">
		<tag k="name" v="Urholmen" />
		<tag k="place" v="islet" />
		<tag k="ssr:stedsnr" v="583738" />
	</node>
	<node id="-560097" lat="62.33283889" lon="5.67609444121">
		<tag k="name" v="Krøkja" />
		<tag k="place" v="islet" />
		<tag k="ssr:stedsnr" v="583735" />
	</node>
	<node id="-560096" lat="62.3569222194" lon="5.6692416598">
		<tag k="name" v="Buholmen" />
		<tag k="place" v="islet" />
		<tag k="ssr:stedsnr" v="583728" />
	</node>
	<node id="-560095" lat="62.3608416677" lon="5.62171666629">
		<tag k="name" v="Urholmen" />
		<tag k="place" v="islet" />
		<tag k="ssr:stedsnr" v="583722" />
	</node>
	<node id="-560094" lat="62.3656305559" lon="5.71850556485">
		<tag k="name" v="Smånesja" />
		<tag k="natural" v="bay" />
		<tag k="ssr:stedsnr" v="583719" />
	</node>
	<node id="-560093" lat="62.3526583322" lon="5.74018889383">
		<tag k="name" v="Arhaugen" />
		<tag k="natural" v="hill" />
		<tag k="place" v="locality" />
		<tag k="ssr:stedsnr" v="583713" />
	</node>
	<node id="-560092" lat="62.2411166658" lon="5.72656666733">
		<tag k="name" v="Litledroghaugen" />
		<tag k="natural" v="hill" />
		<tag k="place" v="locality" />
		<tag k="ssr:stedsnr" v="583708" />
	</node>
	<node id="-560091" lat="62.3379972203" lon="5.67637499895">
		<tag k="name" v="Grisholmen" />
		<tag k="place" v="islet" />
		<tag k="ssr:stedsnr" v="583693" />
	</node>
	<node id="-560090" lat="62.3860333371" lon="5.6114749956">
		<tag k="name" v="Storevikbruna" />
		<tag k="natural" v="ridge" />
		<tag k="place" v="locality" />
		<tag k="ssr:stedsnr" v="583691" />
	</node>
	<node id="-560089" lat="62.3388500017" lon="5.62534722622">
		<tag k="name" v="Huldalen" />
		<tag k="natural" v="valley" />
		<tag k="place" v="locality" />
		<tag k="ssr:stedsnr" v="583635" />
	</node>
	<node id="-560088" lat="62.2677666687" lon="5.73768610307">
		<tag k="name" v="Høgsetelva" />
		<tag k="ssr:stedsnr" v="583316" />
		<tag k="waterway" v="river" />
	</node>
	<node id="-560087" lat="62.2832916711" lon="5.76843611754">
		<tag k="name" v="Aurvågane" />
		<tag k="natural" v="bay" />
		<tag k="ssr:stedsnr" v="583310" />
	</node>
	<node id="-560086" lat="62.299455555" lon="5.74071389232">
		<tag k="name" v="Litlevågen" />
		<tag k="natural" v="bay" />
		<tag k="ssr:stedsnr" v="583297" />
	</node>
	<node id="-560085" lat="62.2907916652" lon="5.61775278488">
		<tag k="name" v="Moltubakken" />
		<tag k="natural" v="slope" />
		<tag k="place" v="locality" />
		<tag k="ssr:stedsnr" v="583251" />
	</node>
	<node id="-560084" lat="62.2379972241" lon="5.77385278705">
		<tag k="name" v="Feirelia" />
		<tag k="natural" v="slope" />
		<tag k="place" v="locality" />
		<tag k="ssr:stedsnr" v="565128" />
	</node>
	<node id="-560083" lat="62.3323805547" lon="5.63011945105">
		<tag k="name" v="Bergsøya" />
		<tag k="place" v="island" />
		<tag k="ssr:stedsnr" v="557554" />
	</node>
	<node id="-560082" lat="62.3320444438" lon="5.67395833587">
		<tag k="name" v="Straumane" />
		<tag k="natural" v="strait" />
		<tag k="ssr:stedsnr" v="557555" />
	</node>
	<node id="-560081" lat="62.3275444419" lon="5.60970000688">
		<tag k="name" v="Storehaugen" />
		<tag k="natural" v="hill" />
		<tag k="place" v="locality" />
		<tag k="ssr:stedsnr" v="557550" />
	</node>
	<node id="-560080" lat="62.3182222268" lon="5.46460278107">
		<tag k="fixme" v="consider seamark:type=rock or natural=shoal" />
		<tag k="name" v="Svarteskjeret" />
		<tag k="place" v="islet" />
		<tag k="ssr:stedsnr" v="557541" />
	</node>
	<node id="-560079" lat="62.225513885" lon="5.77674723213">
		<tag k="name" v="Jøsokelva" />
		<tag k="ssr:stedsnr" v="557177" />
		<tag k="waterway" v="stream" />
	</node>
	<node id="-560078" lat="62.2865944419" lon="5.77078888452">
		<tag k="name" v="Kalvenes" />
		<tag k="place" v="farm" />
		<tag k="ssr:stedsnr" v="557131" />
	</node>
	<node id="-560077" lat="62.3562831142" lon="5.73664924105">
		<tag k="fixme" v="consider place=hamlet" />
		<tag k="name" v="Bø" />
		<tag k="place" v="farm" />
		<tag k="ssr:stedsnr" v="556873" />
	</node>
	<node id="-560075" lat="62.4765305574" lon="5.54260833521">
		<tag k="name" v="Sandemannsskallen" />
		<tag k="natural" v="shoal" />
		<tag k="place" v="locality" />
		<tag k="ssr:stedsnr" v="556708" />
	</node>
	<node id="-560074" lat="62.4543361118" lon="5.51044721745">
		<tag k="name" v="Vidgrynnskallane" />
		<tag k="natural" v="shoal" />
		<tag k="place" v="locality" />
		<tag k="ssr:stedsnr" v="556705" />
	</node>
	<node id="-560073" lat="62.4317805596" lon="5.67532223052">
		<tag k="name" v="Frøystolrevet" />
		<tag k="natural" v="shoal" />
		<tag k="place" v="locality" />
		<tag k="ssr:stedsnr" v="556686" />
	</node>
	<node id="-560072" lat="62.4101981412" lon="5.60660737314">
		<tag k="loc_name" v="Tinden" />
		<tag k="name" v="Raudetinden" />
		<tag k="place" v="locality" />
		<tag k="ssr:stedsnr" v="556681" />
	</node>
	<node id="-560071" lat="62.3654750037" lon="5.4978416585">
		<tag k="alt_name" v="Muleneset" />
		<tag k="name" v="Mulen" />
		<tag k="natural" v="cape" />
		<tag k="ssr:stedsnr" v="556678" />
	</node>
	<node id="-560070" lat="62.3726805518" lon="5.53984166306">
		<tag k="name" v="Nosabukta" />
		<tag k="natural" v="bay" />
		<tag k="ssr:stedsnr" v="556674" />
	</node>
	<node id="-560068" lat="62.3924433235" lon="5.64309354257">
		<tag k="fixme" v="consider place=hamlet" />
		<tag k="name" v="Runde" />
		<tag k="place" v="village" />
		<tag k="ssr:stedsnr" v="556662" />
	</node>
	<node id="-560067" lat="62.3886833374" lon="5.63474721714">
		<tag k="alt_name" v="Hamarnes" />
		<tag k="name" v="Hamarsneset" />
		<tag k="natural" v="cape" />
		<tag k="ssr:stedsnr" v="556661" />
	</node>
	<node id="-560066" lat="62.368858331" lon="5.71081110592">
		<tag k="name" v="Kråkøysundet" />
		<tag k="natural" v="strait" />
		<tag k="ssr:stedsnr" v="556657" />
	</node>
	<node id="-560065" lat="62.3529722237" lon="5.58617776936">
		<tag k="fixme" v="consider natural=peak for the most distinct mountains in the district" />
		<tag k="name" v="Teigetua" />
		<tag k="natural" v="hill" />
		<tag k="place" v="locality" />
		<tag k="ssr:stedsnr" v="556647" />
	</node>
	<node id="-560064" lat="62.341052782" lon="5.49643888753">
		<tag k="name" v="Grøneneset" />
		<tag k="natural" v="cape" />
		<tag k="ssr:stedsnr" v="556639" />
	</node>
	<node id="-560063" lat="62.3147361078" lon="5.68852222471">
		<tag k="name" v="Smedholmen" />
		<tag k="place" v="islet" />
		<tag k="ssr:stedsnr" v="556587" />
	</node>
	<node id="-560062" lat="62.2834833292" lon="5.62197221483">
		<tag k="name" v="Moltudalen" />
		<tag k="natural" v="valley" />
		<tag k="place" v="locality" />
		<tag k="ssr:stedsnr" v="556573" />
	</node>
	<node id="-560061" lat="62.2649722186" lon="5.71016389008">
		<tag k="fixme" v="consider natural=peak for the most distinct mountains in the district" />
		<tag k="name" v="Nonshornet" />
		<tag k="natural" v="hill" />
		<tag k="place" v="locality" />
		<tag k="ssr:stedsnr" v="556543" />
	</node>
	<node id="-560060" lat="62.2640527798" lon="5.6798638839">
		<tag k="name" v="Konebrekkmyra" />
		<tag k="natural" v="wetland" />
		<tag k="ssr:stedsnr" v="556540" />
	</node>
	<node id="-560059" lat="62.2344277822" lon="5.80009722026">
		<tag k="name" v="Sletta" />
		<tag k="place" v="farm" />
		<tag k="ssr:stedsnr" v="556202" />
	</node>
	<node id="-560058" lat="62.2580777759" lon="5.74310276968">
		<tag k="fixme" v="consider natural=peak for the most distinct mountains in the district" />
		<tag k="name" v="Rjåhornet" />
		<tag k="natural" v="hill" />
		<tag k="place" v="locality" />
		<tag k="ssr:stedsnr" v="556198" />
	</node>
	<node id="-560057" lat="62.2605749975" lon="5.72739445122">
		<tag k="name" v="Høgsætra" />
		<tag k="place" v="locality" />
		<tag k="ssr:stedsnr" v="556196" />
	</node>
	<node id="-560056" lat="62.2092027774" lon="5.76300000885">
		<tag k="alt_name" v="Laupen" />
		<tag k="name" v="Laupsnipa" />
		<tag k="natural" v="hill" />
		<tag k="place" v="locality" />
		<tag k="ssr:stedsnr" v="556074" />
	</node>
	<node id="-560055" lat="62.347688885" lon="5.60013888367">
		<tag k="alt_name" v="Myren" />
		<tag k="name" v="Teigemyra" />
		<tag k="place" v="farm" />
		<tag k="ssr:stedsnr" v="545694" />
	</node>
	<node id="-560054" lat="62.3923805597" lon="5.61516666995">
		<tag k="name" v="Lia" />
		<tag k="natural" v="cliff" />
		<tag k="ssr:stedsnr" v="537908" />
	</node>
	<node id="-560053" lat="62.3761250006" lon="5.55368610287">
		<tag k="name" v="Luren" />
		<tag k="natural" v="shoal" />
		<tag k="place" v="locality" />
		<tag k="ssr:stedsnr" v="537792" />
	</node>
	<node id="-560052" lat="62.3219527809" lon="5.47486945293">
		<tag k="fixme" v="consider seamark:type=rock or natural=shoal" />
		<tag k="name" v="Torraskjeret" />
		<tag k="place" v="islet" />
		<tag k="ssr:stedsnr" v="537760" />
	</node>
	<node id="-560051" lat="62.3129805561" lon="5.5494944468">
		<tag k="name" v="Penningfluda" />
		<tag k="natural" v="shoal" />
		<tag k="place" v="locality" />
		<tag k="ssr:stedsnr" v="537672" />
	</node>
	<node id="-560050" lat="62.3154500005" lon="5.53756667343">
		<tag k="name" v="Søre Stabben" />
		<tag k="natural" v="shoal" />
		<tag k="place" v="locality" />
		<tag k="ssr:stedsnr" v="537670" />
	</node>
	<node id="-560049" lat="62.3299694453" lon="5.71439443716">
		<tag k="name" v="Stølen" />
		<tag k="place" v="farm" />
		<tag k="ssr:stedsnr" v="537298" />
	</node>
	<node id="-560048" lat="62.3108944429" lon="5.65297499568">
		<tag k="name" v="Monsbakkfluda" />
		<tag k="natural" v="shoal" />
		<tag k="place" v="locality" />
		<tag k="ssr:stedsnr" v="536323" />
	</node>
	<node id="-560047" lat="62.3085277746" lon="5.68132778548">
		<tag k="name" v="Tangen" />
		<tag k="place" v="farm" />
		<tag k="ssr:stedsnr" v="536324" />
	</node>
	<node id="-560046" lat="62.2443027745" lon="5.78220833209">
		<tag k="bridge" v="yes" />
		<tag k="layer" v="1" />
		<tag k="name" v="Øyrabrua" />
		<tag k="ssr:stedsnr" v="531898" />
	</node>
	<node id="-560045" lat="62.2805527801" lon="5.76005277804">
		<tag k="bridge" v="yes" />
		<tag k="layer" v="1" />
		<tag k="name" v="Aspevikbrua" />
		<tag k="ssr:stedsnr" v="531891" />
	</node>
	<node id="-560044" lat="62.3133888874" lon="5.70808888442">
		<tag k="bridge" v="yes" />
		<tag k="layer" v="1" />
		<tag k="name" v="Jensholmbrua" />
		<tag k="ssr:stedsnr" v="531888" />
	</node>
	<node id="-560043" lat="62.3360916662" lon="5.67486665967">
		<tag k="layer" v="-1" />
		<tag k="name" v="Bergsneskulverten" />
		<tag k="ssr:stedsnr" v="531788" />
		<tag k="tunnel" v="yes" />
	</node>
	<node id="-560041" lat="62.2960305577" lon="5.61708055196">
		<tag k="name" v="Øyrane" />
		<tag k="place" v="locality" />
		<tag k="ssr:stedsnr" v="523805" />
	</node>
	<node id="-560040" lat="62.3628805556" lon="5.61966943545">
		<tag k="name" v="Klubben" />
		<tag k="natural" v="cape" />
		<tag k="ssr:stedsnr" v="523794" />
	</node>
	<node id="-560039" lat="62.2607638915" lon="5.78914444462">
		<tag k="name" v="Nakkesteinen" />
		<tag k="natural" v="stone" />
		<tag k="ssr:stedsnr" v="523772" />
	</node>
	<node id="-560038" lat="62.2835939294" lon="5.80637358524">
		<tag k="loc_name" v="Tvåvågane" />
		<tag k="name" v="Tovågane" />
		<tag k="natural" v="bay" />
		<tag k="ssr:stedsnr" v="523738" />
	</node>
	<node id="-560037" lat="62.2822611077" lon="5.63018056053">
		<tag k="name" v="Kviletua" />
		<tag k="natural" v="hill" />
		<tag k="place" v="locality" />
		<tag k="ssr:stedsnr" v="523735" />
	</node>
	<node id="-560036" lat="62.2270833297" lon="5.76024722186">
		<tag k="name" v="Almen" />
		<tag k="natural" v="hill" />
		<tag k="place" v="locality" />
		<tag k="ssr:stedsnr" v="523736" />
	</node>
	<node id="-560035" lat="62.2590527734" lon="5.6273388875">
		<tag k="name" v="Brandane" />
		<tag k="natural" v="slope" />
		<tag k="place" v="locality" />
		<tag k="ssr:stedsnr" v="523734" />
	</node>
	<node id="-560034" lat="62.2679250032" lon="5.62733889362">
		<tag k="name" v="Botnen" />
		<tag k="natural" v="valley" />
		<tag k="place" v="locality" />
		<tag k="ssr:stedsnr" v="523732" />
	</node>
	<node id="-560033" lat="62.3596861154" lon="5.63016666913">
		<tag k="name" v="Sildholmen" />
		<tag k="place" v="islet" />
		<tag k="ssr:stedsnr" v="523391" />
	</node>
	<node id="-560032" lat="62.3579638891" lon="5.58788056013">
		<tag k="name" v="Tverrberget" />
		<tag k="natural" v="slope" />
		<tag k="place" v="locality" />
		<tag k="ssr:stedsnr" v="523385" />
	</node>
	<node id="-560031" lat="62.2821749993" lon="5.65055834267">
		<tag k="name" v="Hanemyrane" />
		<tag k="natural" v="wetland" />
		<tag k="ssr:stedsnr" v="523372" />
	</node>
	<node id="-560030" lat="62.2603388888" lon="5.73093056314">
		<tag k="name" v="Høgsetsetrane" />
		<tag k="place" v="locality" />
		<tag k="ssr:stedsnr" v="523364" />
	</node>
	<node id="-560029" lat="62.3601222233" lon="5.51255555504">
		<tag k="name" v="Ytstevika" />
		<tag k="natural" v="bay" />
		<tag k="ssr:stedsnr" v="523348" />
	</node>
	<node id="-560028" lat="62.2915671462" lon="5.7370470867">
		<tag k="fixme" v="consider place=hamlet" />
		<tag k="name" v="Ormenes" />
		<tag k="place" v="farm" />
		<tag k="ssr:stedsnr" v="522630" />
	</node>
	<node id="-560027" lat="62.3740833367" lon="5.63591943752">
		<tag k="name" v="Hesteberget" />
		<tag k="natural" v="hill" />
		<tag k="place" v="locality" />
		<tag k="ssr:stedsnr" v="522365" />
	</node>
	<node id="-560026" lat="62.3356472249" lon="5.57214721543">
		<tag k="name" v="Skjeljeneset" />
		<tag k="natural" v="cape" />
		<tag k="ssr:stedsnr" v="522342" />
	</node>
	<node id="-560025" lat="62.3383305598" lon="5.59040554589">
		<tag k="name" v="Knuteneset" />
		<tag k="natural" v="cape" />
		<tag k="ssr:stedsnr" v="522343" />
	</node>
	<node id="-560024" lat="62.3637749998" lon="5.61391110977">
		<tag k="alt_name" v="Klubbholmane" />
		<tag k="name" v="Klubbeholmen" />
		<tag k="place" v="islet" />
		<tag k="ssr:stedsnr" v="522339" />
	</node>
	<node id="-560023" lat="62.3118861153" lon="5.67908610604">
		<tag k="name" v="Herøysundet" />
		<tag k="natural" v="strait" />
		<tag k="ssr:stedsnr" v="522318" />
	</node>
	<node id="-560022" lat="62.3237888896" lon="5.65802777822">
		<tag k="name" v="Gjertholmen" />
		<tag k="place" v="islet" />
		<tag k="ssr:stedsnr" v="522316" />
	</node>
	<node id="-560021" lat="62.2976194402" lon="5.61048332685">
		<tag k="name" v="Krabbeleida" />
		<tag k="natural" v="strait" />
		<tag k="ssr:stedsnr" v="522278" />
	</node>
	<node id="-560020" lat="62.3964361113" lon="5.62912222425">
		<tag k="name" v="Blåbærdalen" />
		<tag k="natural" v="valley" />
		<tag k="place" v="locality" />
		<tag k="ssr:stedsnr" v="523423" />
	</node>
	<node id="-560019" lat="62.3485916653" lon="5.53864722335">
		<tag k="name" v="Storpesnausa" />
		<tag k="natural" v="hill" />
		<tag k="place" v="locality" />
		<tag k="ssr:stedsnr" v="523417" />
	</node>
	<node id="-560018" lat="62.23118247" lon="5.83153540492">
		<tag k="fixme" v="consider place=hamlet" />
		<tag k="name" v="Måløya" />
		<tag k="place" v="farm" />
		<tag k="ssr:stedsnr" v="514271" />
	</node>
	<node id="-560017" lat="62.3463833297" lon="5.74068332427">
		<tag k="name" v="Vikane" />
		<tag k="natural" v="cape" />
		<tag k="ssr:stedsnr" v="496857" />
	</node>
	<node id="-560016" lat="62.3513499984" lon="5.7407055651">
		<tag k="name" v="Arhaugen" />
		<tag k="place" v="farm" />
		<tag k="ssr:stedsnr" v="496854" />
	</node>
	<node id="-560015" lat="62.332013892" lon="5.74175832428">
		<tag k="alt_name" v="Brendholmen" />
		<tag k="name" v="Brennholmen" />
		<tag k="place" v="islet" />
		<tag k="ssr:stedsnr" v="496823" />
	</node>
	<node id="-560014" lat="62.3077674422" lon="5.73481952733">
		<tag k="fixme" v="consider place=hamlet" />
		<tag k="name" v="Stokksund" />
		<tag k="place" v="farm" />
		<tag k="ssr:stedsnr" v="496805" />
	</node>
	<node id="-560013" lat="62.2922292722" lon="5.75635599895">
		<tag k="name" v="Storøya" />
		<tag k="place" v="islet" />
		<tag k="ssr:stedsnr" v="496780" />
	</node>
	<node id="-560012" lat="62.3010527813" lon="5.76589722289">
		<tag k="name" v="Betemma" />
		<tag k="place" v="islet" />
		<tag k="ssr:stedsnr" v="496754" />
	</node>
	<node id="-560011" lat="62.4584055568" lon="5.62948056352">
		<tag k="name" v="Golla" />
		<tag k="natural" v="shoal" />
		<tag k="place" v="locality" />
		<tag k="ssr:stedsnr" v="496688" />
	</node>
	<node id="-560010" lat="62.4035249998" lon="5.64136945204">
		<tag k="name" v="Goksøyrvika" />
		<tag k="natural" v="bay" />
		<tag k="ssr:stedsnr" v="496674" />
	</node>
	<node id="-560009" lat="62.4152999987" lon="5.58761943578">
		<tag k="name" v="Kvalneset" />
		<tag k="natural" v="cape" />
		<tag k="ssr:stedsnr" v="496672" />
	</node>
	<node id="-560008" lat="62.4066385929" lon="5.61887601003">
		<tag k="fixme" v="consider place=hamlet" />
		<tag k="name" v="Goksøyr" />
		<tag k="place" v="farm" />
		<tag k="ssr:stedsnr" v="496671" />
	</node>
	<node id="-560006" lat="62.3733083357" lon="5.55025555558">
		<tag k="name" v="Okla" />
		<tag k="natural" v="hill" />
		<tag k="place" v="locality" />
		<tag k="ssr:stedsnr" v="496657" />
	</node>
	<node id="-560005" lat="62.3881805559" lon="5.61217499923">
		<tag k="name" v="Søre Handfanganet" />
		<tag k="natural" v="hill" />
		<tag k="place" v="locality" />
		<tag k="ssr:stedsnr" v="496652" />
	</node>
	<node id="-560004" lat="62.3992611093" lon="5.66357500922">
		<tag k="name" v="Kjerringholmen" />
		<tag k="place" v="islet" />
		<tag k="ssr:stedsnr" v="496651" />
	</node>
	<node id="-560003" lat="62.3873694425" lon="5.60281944685">
		<tag k="alt_name" v="Måkeneset" />
		<tag k="name" v="Måganeset" />
		<tag k="natural" v="cape" />
		<tag k="ssr:stedsnr" v="496650" />
	</node>
	<node id="-560002" lat="62.3631861111" lon="5.62484165756">
		<tag k="name" v="Vikane" />
		<tag k="place" v="farm" />
		<tag k="ssr:stedsnr" v="496645" />
	</node>
	<node id="-560001" lat="62.3623083365" lon="5.51059167165">
		<tag k="fixme" v="consider natural=peak for the most distinct mountains in the district" />
		<tag k="name" v="Mulefjellet" />
		<tag k="natural" v="hill" />
		<tag k="place" v="locality" />
		<tag k="ssr:stedsnr" v="496637" />
	</node>
	<node id="-560000" lat="62.3524083359" lon="5.45597500639">
		<tag k="name" v="Raudestakken" />
		<tag k="natural" v="shoal" />
		<tag k="place" v="locality" />
		<tag k="ssr:stedsnr" v="496633" />
	</node>
	<node id="-559999" lat="62.3529777785" lon="5.44308888738">
		<tag k="name" v="Bræken" />
		<tag k="natural" v="shoal" />
		<tag k="place" v="locality" />
		<tag k="ssr:stedsnr" v="496631" />
	</node>
	<node id="-559998" lat="62.3553249985" lon="5.61047221805">
		<tag k="alt_name" v="Breisundet" />
		<tag k="name" v="Breidsundet" />
		<tag k="natural" v="strait" />
		<tag k="ssr:stedsnr" v="496622" />
	</node>
	<node id="-559997" lat="62.350222222" lon="5.69928054871">
		<tag k="name" v="Leitet" />
		<tag k="natural" v="valley" />
		<tag k="place" v="locality" />
		<tag k="ssr:stedsnr" v="496618" />
	</node>
	<node id="-559996" lat="62.3315583353" lon="5.26517222744">
		<tag k="name" v="Kista" />
		<tag k="natural" v="cape" />
		<tag k="ssr:stedsnr" v="496613" />
	</node>
	<node id="-559995" lat="62.3284194628" lon="5.63511353946">
		<tag k="fixme" v="consider place=hamlet" />
		<tag k="name" v="Myklebust" />
		<tag k="place" v="village" />
		<tag k="ssr:stedsnr" v="496603" />
	</node>
	<node id="-559994" lat="62.327344445" lon="5.51486389406">
		<tag k="name" v="Klombraneset" />
		<tag k="natural" v="cape" />
		<tag k="ssr:stedsnr" v="496601" />
	</node>
	<node id="-559993" lat="62.3183194422" lon="5.48446667375">
		<tag k="name" v="Skorpetangen" />
		<tag k="natural" v="cape" />
		<tag k="ssr:stedsnr" v="496598" />
	</node>
	<node id="-559992" lat="62.3018972223" lon="5.64955555391">
		<tag k="name" v="Steinsholmen" />
		<tag k="place" v="islet" />
		<tag k="ssr:stedsnr" v="496574" />
	</node>
	<node id="-559991" lat="62.2944372312" lon="5.60312611891">
		<tag k="fixme" v="consider place=hamlet" />
		<tag k="name" v="Tarberg" />
		<tag k="place" v="farm" />
		<tag k="ssr:stedsnr" v="496565" />
	</node>
	<node id="-559990" lat="62.2753000042" lon="5.6827916703">
		<tag k="fixme" v="consider natural=peak for the most distinct mountains in the district" />
		<tag k="name" v="Slettheia" />
		<tag k="natural" v="hill" />
		<tag k="place" v="locality" />
		<tag k="ssr:stedsnr" v="496540" />
	</node>
	<node id="-559989" lat="62.27210556" lon="5.65641666399">
		<tag k="fixme" v="consider natural=peak for the most distinct mountains in the district" />
		<tag k="name" v="Selsteinen" />
		<tag k="natural" v="hill" />
		<tag k="place" v="locality" />
		<tag k="ssr:stedsnr" v="496538" />
	</node>
	<node id="-559988" lat="62.2235262446" lon="5.80027021027">
		<tag k="fixme" v="consider place=hamlet" />
		<tag k="name" v="Jøsok" />
		<tag k="place" v="farm" />
		<tag k="ssr:stedsnr" v="496181" />
	</node>
	<node id="-559987" lat="62.2404611122" lon="5.78173610878">
		<tag k="name" v="Hjellen" />
		<tag k="place" v="farm" />
		<tag k="ssr:stedsnr" v="496144" />
	</node>
	<node id="-559986" lat="62.238655555" lon="5.80611945033">
		<tag k="name" v="Båtsvika" />
		<tag k="place" v="farm" />
		<tag k="ssr:stedsnr" v="496141" />
	</node>
	<node id="-559985" lat="62.213376246" lon="5.74020768556">
		<tag k="name" v="Tempelskardet" />
		<tag k="natural" v="valley" />
		<tag k="place" v="locality" />
		<tag k="ssr:stedsnr" v="496072" />
	</node>
	<node id="-559984" lat="62.2720972245" lon="5.75059166028">
		<tag k="name" v="Mørkedalen" />
		<tag k="natural" v="valley" />
		<tag k="place" v="locality" />
		<tag k="ssr:stedsnr" v="495194" />
	</node>
	<node id="-559983" lat="62.2709583363" lon="5.83578055098">
		<tag k="alt_name" v="Litle Hestholmen" />
		<tag k="name" v="Bakarholmen" />
		<tag k="place" v="islet" />
		<tag k="ssr:stedsnr" v="495190" />
	</node>
	<node id="-559982" lat="62.2661916698" lon="5.81434444789">
		<tag k="name" v="Kobbeneset" />
		<tag k="place" v="farm" />
		<tag k="ssr:stedsnr" v="495189" />
	</node>
	<node id="-559981" lat="62.2820388906" lon="5.78937222432">
		<tag k="layer" v="-1" />
		<tag k="name" v="Aurvågtunnelen" />
		<tag k="ssr:stedsnr" v="469086" />
		<tag k="tunnel" v="yes" />
	</node>
	<node id="-559980" lat="62.3755777815" lon="5.62902499928">
		<tag k="name" v="Bukkehylla" />
		<tag k="place" v="locality" />
		<tag k="ssr:stedsnr" v="463354" />
	</node>
	<node id="-559979" lat="62.3823111112" lon="5.63285278547">
		<tag k="name" v="Langskjera" />
		<tag k="place" v="islet" />
		<tag k="ssr:stedsnr" v="463344" />
	</node>
	<node id="-559978" lat="62.35275556" lon="5.53046388884">
		<tag k="name" v="Trollsteinen" />
		<tag k="natural" v="stone" />
		<tag k="ssr:stedsnr" v="463301" />
	</node>
	<node id="-559977" lat="62.358886552" lon="5.67595261939">
		<tag k="fixme" v="consider place=hamlet" />
		<tag k="name" v="Voldsund" />
		<tag k="place" v="farm" />
		<tag k="ssr:stedsnr" v="462819" />
	</node>
	<node id="-559976" lat="62.338683332" lon="5.68108610681">
		<tag k="name" v="Nerøyvalen" />
		<tag k="natural" v="bay" />
		<tag k="ssr:stedsnr" v="462755" />
	</node>
	<node id="-559975" lat="62.3400083346" lon="5.64069999304">
		<tag k="name" v="Vågen" />
		<tag k="natural" v="bay" />
		<tag k="ssr:stedsnr" v="462726" />
	</node>
	<node id="-559974" lat="62.3591166661" lon="5.72868888725">
		<tag k="name" v="Klubben" />
		<tag k="place" v="islet" />
		<tag k="ssr:stedsnr" v="462721" />
	</node>
	<node id="-559973" lat="62.2375749964" lon="5.75820833165">
		<tag k="name" v="Storehaugen" />
		<tag k="natural" v="hill" />
		<tag k="place" v="locality" />
		<tag k="ssr:stedsnr" v="462712" />
	</node>
	<node id="-559972" lat="62.2617083352" lon="5.75248333634">
		<tag k="name" v="Blåhammaren" />
		<tag k="natural" v="cliff" />
		<tag k="ssr:stedsnr" v="462708" />
	</node>
	<node id="-559971" lat="62.2300388923" lon="5.81448888368">
		<tag k="alt_name" v="Måløysundet" />
		<tag k="name" v="Måløystraumen" />
		<tag k="natural" v="strait" />
		<tag k="ssr:stedsnr" v="462698" />
	</node>
	<node id="-559970" lat="62.2306250019" lon="5.82034443721">
		<tag k="name" v="Rognhammaren" />
		<tag k="natural" v="cliff" />
		<tag k="ssr:stedsnr" v="462697" />
	</node>
	<node id="-559969" lat="62.279152781" lon="5.62556389288">
		<tag k="name" v="Klovsteinen" />
		<tag k="natural" v="stone" />
		<tag k="ssr:stedsnr" v="462692" />
	</node>
	<node id="-559968" lat="62.2323777789" lon="5.8293861137">
		<tag k="name" v="Fatlvika" />
		<tag k="natural" v="bay" />
		<tag k="ssr:stedsnr" v="462644" />
	</node>
	<node id="-559967" lat="62.2837361088" lon="5.7788750023">
		<tag k="name" v="Torsethøgda" />
		<tag k="place" v="farm" />
		<tag k="ssr:stedsnr" v="462635" />
	</node>
	<node id="-559966" lat="62.2625027756" lon="5.79551667472">
		<tag k="name" v="Djupvika" />
		<tag k="place" v="farm" />
		<tag k="ssr:stedsnr" v="462628" />
	</node>
	<node id="-559965" lat="62.3583388912" lon="5.74275278431">
		<tag k="name" v="Indre Bø" />
		<tag k="place" v="farm" />
		<tag k="ssr:stedsnr" v="462627" />
	</node>
	<node id="-559964" lat="62.3746138924" lon="5.62505832423">
		<tag k="name" v="Storegylet" />
		<tag k="natural" v="valley" />
		<tag k="place" v="locality" />
		<tag k="ssr:stedsnr" v="462359" />
	</node>
	<node id="-559963" lat="62.3346777786" lon="5.67576943643">
		<tag k="name" v="Bergsneset" />
		<tag k="place" v="farm" />
		<tag k="ssr:stedsnr" v="462337" />
	</node>
	<node id="-559962" lat="62.370511108" lon="5.62382776907">
		<tag k="name" v="Vasseidvatnet" />
		<tag k="natural" v="water" />
		<tag k="ssr:stedsnr" v="462329" />
	</node>
	<node id="-559961" lat="62.3225583373" lon="5.651927771">
		<tag k="name" v="Eggesbøvågen" />
		<tag k="natural" v="bay" />
		<tag k="ssr:stedsnr" v="462302" />
	</node>
	<node id="-559960" lat="62.3285194431" lon="5.64092777392">
		<tag k="name" v="Myklebustvatnet" />
		<tag k="natural" v="water" />
		<tag k="ssr:stedsnr" v="462300" />
	</node>
	<node id="-559959" lat="62.3650027796" lon="5.5401749948">
		<tag k="name" v="Litleleitet" />
		<tag k="natural" v="slope" />
		<tag k="place" v="locality" />
		<tag k="ssr:stedsnr" v="462291" />
	</node>
	<node id="-559958" lat="62.2910750039" lon="5.58280832694">
		<tag k="name" v="Mosefjellet" />
		<tag k="natural" v="slope" />
		<tag k="place" v="locality" />
		<tag k="ssr:stedsnr" v="462224" />
	</node>
	<node id="-559957" lat="62.2905722216" lon="5.58932500831">
		<tag k="name" v="Hundegylet" />
		<tag k="natural" v="gorge" />
		<tag k="ssr:stedsnr" v="462221" />
	</node>
	<node id="-559956" lat="62.3258166704" lon="5.64901110733">
		<tag k="name" v="Breideneset" />
		<tag k="natural" v="cape" />
		<tag k="ssr:stedsnr" v="462139" />
	</node>
	<node id="-559955" lat="62.3278888887" lon="5.66460833406">
		<tag k="bridge" v="yes" />
		<tag k="layer" v="1" />
		<tag k="name" v="Gjertnesbrua" />
		<tag k="ssr:stedsnr" v="455143" />
	</node>
	<node id="-559953" lat="62.3266222241" lon="5.48225833656">
		<tag k="alt_name" v="Storevik" />
		<tag k="name" v="Storevågen" />
		<tag k="natural" v="bay" />
		<tag k="ssr:stedsnr" v="436668" />
	</node>
	<node id="-559952" lat="62.3977055512" lon="5.6181277717">
		<tag k="name" v="Storevatnet" />
		<tag k="natural" v="water" />
		<tag k="ssr:stedsnr" v="436639" />
	</node>
	<node id="-559951" lat="62.3909472265" lon="5.66076388268">
		<tag k="fixme" v="consider seamark:type=rock or natural=shoal" />
		<tag k="name" v="Storeskjeret" />
		<tag k="place" v="islet" />
		<tag k="ssr:stedsnr" v="436613" />
	</node>
	<node id="-559950" lat="62.3470749997" lon="5.69732776868">
		<tag k="name" v="Leinestøylen" />
		<tag k="place" v="farm" />
		<tag k="ssr:stedsnr" v="436587" />
	</node>
	<node id="-559949" lat="62.3357447927" lon="5.66258808219">
		<tag k="name" v="Berge" />
		<tag k="place" v="hamlet" />
		<tag k="ssr:stedsnr" v="436573" />
	</node>
	<node id="-559948" lat="62.3187527761" lon="5.44953332661">
		<tag k="name" v="Hynnebåen" />
		<tag k="natural" v="shoal" />
		<tag k="place" v="locality" />
		<tag k="ssr:stedsnr" v="436549" />
	</node>
	<node id="-559947" lat="62.2757805587" lon="5.67170555461">
		<tag k="name" v="Krikane" />
		<tag k="natural" v="valley" />
		<tag k="place" v="locality" />
		<tag k="ssr:stedsnr" v="436502" />
	</node>
	<node id="-559946" lat="62.2642888912" lon="5.66836945031">
		<tag k="fixme" v="consider natural=peak for the most distinct mountains in the district" />
		<tag k="name" v="Hestefjellet" />
		<tag k="natural" v="hill" />
		<tag k="place" v="locality" />
		<tag k="ssr:stedsnr" v="436484" />
	</node>
	<node id="-559945" lat="62.2193444418" lon="5.79238055994">
		<tag k="name" v="Årdalen" />
		<tag k="place" v="farm" />
		<tag k="ssr:stedsnr" v="436170" />
	</node>
	<node id="-559944" lat="62.2325888845" lon="5.8429444371">
		<tag k="name" v="Vaskavikholmane" />
		<tag k="place" v="islet" />
		<tag k="ssr:stedsnr" v="436141" />
	</node>
	<node id="-559943" lat="62.2885661493" lon="5.73166406596">
		<tag k="alt_name" v="Klungsøyr" />
		<tag k="fixme" v="consider place=hamlet" />
		<tag k="name" v="Klungsøyra" />
		<tag k="place" v="farm" />
		<tag k="ssr:stedsnr" v="436126" />
	</node>
	<node id="-559942" lat="62.3771222189" lon="5.73053332611">
		<tag k="name" v="Skyrflesjene" />
		<tag k="place" v="islet" />
		<tag k="ssr:stedsnr" v="435914" />
	</node>
	<node id="-559941" lat="62.3591750029" lon="5.59106388909">
		<tag k="name" v="Kvernavika" />
		<tag k="natural" v="bay" />
		<tag k="ssr:stedsnr" v="435667" />
	</node>
	<node id="-559940" lat="62.3491083291" lon="5.31488889611">
		<tag k="name" v="Grynnskallen" />
		<tag k="natural" v="shoal" />
		<tag k="place" v="locality" />
		<tag k="ssr:stedsnr" v="435652" />
	</node>
	<node id="-559939" lat="62.3238444412" lon="5.65199445367">
		<tag k="alt_name" v="Eggesbøneset" />
		<tag k="name" v="Eggesbønes" />
		<tag k="natural" v="cape" />
		<tag k="ssr:stedsnr" v="435588" />
	</node>
	<node id="-559937" lat="62.2907250036" lon="5.69812778284">
		<tag k="name" v="Sandvikhornet" />
		<tag k="natural" v="hill" />
		<tag k="place" v="locality" />
		<tag k="ssr:stedsnr" v="435562" />
	</node>
	<node id="-559936" lat="62.2543967837" lon="5.7888237312">
		<tag k="fixme" v="consider place=hamlet" />
		<tag k="name" v="Nykreim" />
		<tag k="place" v="farm" />
		<tag k="ssr:stedsnr" v="435239" />
	</node>
	<node id="-559935" lat="62.2577972185" lon="5.72856388755">
		<tag k="name" v="Høgsetvatnet" />
		<tag k="natural" v="water" />
		<tag k="ssr:stedsnr" v="435202" />
	</node>
	<node id="-559934" lat="62.2609444487" lon="5.80381666654">
		<tag k="name" v="Budaneset" />
		<tag k="natural" v="cape" />
		<tag k="ssr:stedsnr" v="435200" />
	</node>
	<node id="-559933" lat="62.2797026225" lon="5.77162849557">
		<tag k="alt_name" v="Aurvåglia;Aurvåglid" />
		<tag k="fixme" v="consider place=hamlet" />
		<tag k="name" v="Aurvåglida" />
		<tag k="place" v="farm" />
		<tag k="ssr:stedsnr" v="435161" />
	</node>
	<node id="-559932" lat="62.2163991411" lon="5.79155505607">
		<tag k="fixme" v="consider place=hamlet" />
		<tag k="name" v="Vålneset" />
		<tag k="place" v="farm" />
		<tag k="ssr:stedsnr" v="435097" />
	</node>
	<node id="-559931" lat="62.3685250006" lon="5.52263888753">
		<tag k="name" v="Barmneset" />
		<tag k="natural" v="cape" />
		<tag k="ssr:stedsnr" v="416782" />
	</node>
	<node id="-559930" lat="62.2532944484" lon="5.80156388172">
		<tag k="name" v="Rundafluda" />
		<tag k="natural" v="shoal" />
		<tag k="place" v="locality" />
		<tag k="ssr:stedsnr" v="416742" />
	</node>
	<node id="-559929" lat="62.3024638862" lon="5.56426944505">
		<tag k="name" v="Langfluda" />
		<tag k="natural" v="shoal" />
		<tag k="place" v="locality" />
		<tag k="ssr:stedsnr" v="416679" />
	</node>
	<node id="-559928" lat="62.3431583295" lon="5.73341944636">
		<tag k="name" v="Torvikstranda" />
		<tag k="natural" v="beach" />
		<tag k="place" v="locality" />
		<tag k="ssr:stedsnr" v="416315" />
	</node>
	<node id="-559926" lat="62.3391944445" lon="5.67233610883">
		<tag k="name" v="Bergnes" />
		<tag k="natural" v="cape" />
		<tag k="ssr:stedsnr" v="416286" />
	</node>
	<node id="-559925" lat="62.4084250027" lon="5.63654166224">
		<tag k="name" v="Store Gardbåen" />
		<tag k="natural" v="shoal" />
		<tag k="place" v="locality" />
		<tag k="ssr:stedsnr" v="415914" />
	</node>
	<node id="-559924" lat="62.3274111149" lon="5.25596943682">
		<tag k="name" v="Steinen" />
		<tag k="natural" v="shoal" />
		<tag k="place" v="locality" />
		<tag k="ssr:stedsnr" v="479805" />
	</node>
	<node id="-559923" lat="62.3056999958" lon="5.73488054843">
		<tag k="name" v="Grøndal" />
		<tag k="place" v="farm" />
		<tag k="ssr:stedsnr" v="254725" />
	</node>
	<node id="-559922" lat="62.3669611114" lon="5.67260276938">
		<tag k="name" v="Storevika" />
		<tag k="natural" v="bay" />
		<tag k="ssr:stedsnr" v="254652" />
	</node>
	<node id="-559921" lat="62.3379944472" lon="5.70151666287">
		<tag k="name" v="Leinøya" />
		<tag k="place" v="island" />
		<tag k="ssr:stedsnr" v="254567" />
	</node>
	<node id="-559920" lat="62.3313435648" lon="5.65587992044">
		<tag k="fixme" v="consider place=hamlet" />
		<tag k="name" v="Hjelmeset" />
		<tag k="place" v="farm" />
		<tag k="ssr:stedsnr" v="254559" />
	</node>
	<node id="-559919" lat="62.3249916704" lon="5.62186945136">
		<tag k="name" v="Varden" />
		<tag k="natural" v="hill" />
		<tag k="place" v="locality" />
		<tag k="ssr:stedsnr" v="254560" />
	</node>
	<node id="-559918" lat="62.3343805522" lon="5.7395499927">
		<tag k="name" v="Kyrkjeholmane" />
		<tag k="place" v="islet" />
		<tag k="ssr:stedsnr" v="253840" />
	</node>
	<node id="-559917" lat="62.4631305538" lon="5.40123611206">
		<tag k="name" v="Jonsskallane" />
		<tag k="natural" v="shoal" />
		<tag k="place" v="locality" />
		<tag k="ssr:stedsnr" v="253695" />
	</node>
	<node id="-559916" lat="62.406925" lon="5.58607499138">
		<tag k="name" v="Storeholet" />
		<tag k="natural" v="cape" />
		<tag k="ssr:stedsnr" v="253681" />
	</node>
	<node id="-559915" lat="62.3667111148" lon="5.52354444859">
		<tag k="fixme" v="consider natural=peak for the most distinct mountains in the district" />
		<tag k="name" v="Barmen" />
		<tag k="natural" v="hill" />
		<tag k="place" v="locality" />
		<tag k="ssr:stedsnr" v="253675" />
	</node>
	<node id="-559914" lat="62.3706222196" lon="5.53731110851">
		<tag k="name" v="Børa" />
		<tag k="natural" v="hill" />
		<tag k="place" v="locality" />
		<tag k="ssr:stedsnr" v="253672" />
	</node>
	<node id="-559913" lat="62.3897972235" lon="5.6114111016">
		<tag k="name" v="Handfangansvika" />
		<tag k="natural" v="bay" />
		<tag k="ssr:stedsnr" v="253671" />
	</node>
	<node id="-559912" lat="62.3670750038" lon="5.62548889702">
		<tag k="name" v="Storevatnet" />
		<tag k="natural" v="water" />
		<tag k="ssr:stedsnr" v="253662" />
	</node>
	<node id="-559911" lat="62.3635833303" lon="5.61405832606">
		<tag k="name" v="Klubben" />
		<tag k="natural" v="cape" />
		<tag k="ssr:stedsnr" v="253660" />
	</node>
	<node id="-559910" lat="62.3636275306" lon="5.65550285167">
		<tag k="alt_name" v="Rimøy" />
		<tag k="fixme" v="consider place=hamlet" />
		<tag k="name" v="Remøy" />
		<tag k="place" v="village" />
		<tag k="ssr:stedsnr" v="253656" />
	</node>
	<node id="-559909" lat="62.3565000026" lon="5.47947500483">
		<tag k="name" v="Rundafluda" />
		<tag k="natural" v="shoal" />
		<tag k="place" v="locality" />
		<tag k="ssr:stedsnr" v="253653" />
	</node>
	<node id="-559908" lat="62.3705222216" lon="5.71053333383">
		<tag k="name" v="Kråkøya" />
		<tag k="place" v="island" />
		<tag k="ssr:stedsnr" v="253650" />
	</node>
	<node id="-559907" lat="62.3357194424" lon="5.26405555405">
		<tag k="alt_name" v="Kalven" />
		<tag k="fixme" v="consider seamark:type=rock or natural=shoal" />
		<tag k="name" v="Skjerkalven" />
		<tag k="place" v="islet" />
		<tag k="ssr:stedsnr" v="253634" />
	</node>
	<node id="-559906" lat="62.3361888885" lon="5.5092777872">
		<tag k="name" v="Skorpesundet" />
		<tag k="natural" v="strait" />
		<tag k="ssr:stedsnr" v="253633" />
	</node>
	<node id="-559905" lat="62.3300805517" lon="5.50361111987">
		<tag k="alt_name" v="Skorpetua" />
		<tag k="fixme" v="consider natural=peak for the most distinct mountains in the district" />
		<tag k="name" v="Keipen" />
		<tag k="natural" v="hill" />
		<tag k="place" v="locality" />
		<tag k="ssr:stedsnr" v="253627" />
	</node>
	<node id="-559904" lat="62.3266916699" lon="5.38871945113">
		<tag k="name" v="Fauskane" />
		<tag k="natural" v="shoal" />
		<tag k="place" v="locality" />
		<tag k="ssr:stedsnr" v="253623" />
	</node>
	<node id="-559903" lat="62.3096277745" lon="5.62998610347">
		<tag k="fixme" v="consider seamark:type=rock or natural=shoal" />
		<tag k="name" v="Tronden" />
		<tag k="place" v="islet" />
		<tag k="ssr:stedsnr" v="253584" />
	</node>
	<node id="-559902" lat="62.3117222233" lon="5.67334722628">
		<tag k="name" v="Skafferholmen" />
		<tag k="place" v="islet" />
		<tag k="ssr:stedsnr" v="253580" />
	</node>
	<node id="-559901" lat="62.2669555577" lon="5.73666943553">
		<tag k="name" v="Høgsetdalen" />
		<tag k="natural" v="valley" />
		<tag k="place" v="locality" />
		<tag k="ssr:stedsnr" v="253211" />
	</node>
	<node id="-559900" lat="62.2254596597" lon="5.7361749788">
		<tag k="name" v="Roskar" />
		<tag k="natural" v="valley" />
		<tag k="place" v="locality" />
		<tag k="ssr:stedsnr" v="253205" />
	</node>
	<node id="-559899" lat="62.262122222" lon="5.80072222633">
		<tag k="alt_name" v="Djupvikvågen;Budanesvågen" />
		<tag k="name" v="Djupvika" />
		<tag k="natural" v="bay" />
		<tag k="ssr:stedsnr" v="253184" />
	</node>
	<node id="-559898" lat="62.2775361114" lon="5.75648611667">
		<tag k="alt_name" v="Sætremyrane" />
		<tag k="name" v="Sætremyra" />
		<tag k="place" v="farm" />
		<tag k="ssr:stedsnr" v="253153" />
	</node>
	<node id="-559897" lat="62.2783686225" lon="5.79030375144">
		<tag k="alt_name" v="Myrvågane" />
		<tag k="fixme" v="consider place=hamlet" />
		<tag k="name" v="Myrvåg" />
		<tag k="place" v="farm" />
		<tag k="ssr:stedsnr" v="253147" />
	</node>
	<node id="-559896" lat="62.245158633" lon="5.78302880889">
		<tag k="alt_name" v="Øren" />
		<tag k="fixme" v="consider place=hamlet" />
		<tag k="name" v="Øyra" />
		<tag k="place" v="farm" />
		<tag k="ssr:stedsnr" v="239146" />
	</node>
	<node id="-559895" lat="62.3311444404" lon="5.26839444279">
		<tag k="name" v="Heissanabben" />
		<tag k="natural" v="shoal" />
		<tag k="place" v="locality" />
		<tag k="ssr:stedsnr" v="238813" />
	</node>
	<node id="-559894" lat="62.2948027766" lon="5.53793332681">
		<tag k="name" v="Kråkedjupet" />
		<tag k="place" v="locality" />
		<tag k="ssr:stedsnr" v="234716" />
	</node>
	<node id="-559893" lat="62.3269055519" lon="5.66164444791">
		<tag k="name" v="Eggebønesstraumen" />
		<tag k="natural" v="strait" />
		<tag k="ssr:stedsnr" v="234295" />
	</node>
	<node id="-559892" lat="62.3099055561" lon="5.75326665853">
		<tag k="name" v="Fånotfluda" />
		<tag k="natural" v="shoal" />
		<tag k="place" v="locality" />
		<tag k="ssr:stedsnr" v="233397" />
	</node>
	<node id="-559891" lat="62.3052527767" lon="5.72498888761">
		<tag k="fixme" v="consider place=hamlet" />
		<tag k="name" v="Stokksund" />
		<tag k="place" v="village" />
		<tag k="ssr:stedsnr" v="233357" />
	</node>
	<node id="-559890" lat="62.3795222265" lon="5.61259444911">
		<tag k="name" v="Langfallet" />
		<tag k="natural" v="shoal" />
		<tag k="place" v="locality" />
		<tag k="ssr:stedsnr" v="233221" />
	</node>
	<node id="-559889" lat="62.3436722239" lon="5.70505554578">
		<tag k="name" v="Storelva" />
		<tag k="ssr:stedsnr" v="220825" />
		<tag k="waterway" v="stream" />
	</node>
	<node id="-559888" lat="62.2858638917" lon="5.81469722658">
		<tag k="name" v="Blåbærhammaren" />
		<tag k="natural" v="cliff" />
		<tag k="ssr:stedsnr" v="220773" />
	</node>
	<node id="-559887" lat="62.2697861122" lon="5.71018056004">
		<tag k="name" v="Nonshaugen" />
		<tag k="natural" v="hill" />
		<tag k="place" v="locality" />
		<tag k="ssr:stedsnr" v="220388" />
	</node>
	<node id="-559886" lat="62.2592999964" lon="5.72819722604">
		<tag k="name" v="Høgsetdalen" />
		<tag k="natural" v="valley" />
		<tag k="place" v="locality" />
		<tag k="ssr:stedsnr" v="220383" />
	</node>
	<node id="-559885" lat="62.3027666706" lon="5.68311388363">
		<tag k="name" v="Rysseholmen" />
		<tag k="place" v="islet" />
		<tag k="ssr:stedsnr" v="220369" />
	</node>
	<node id="-559884" lat="62.3453750024" lon="5.57376111787">
		<tag k="name" v="Nausa" />
		<tag k="natural" v="ridge" />
		<tag k="place" v="locality" />
		<tag k="ssr:stedsnr" v="219770" />
	</node>
	<node id="-559883" lat="62.3045551617" lon="5.72057387465">
		<tag k="fixme" v="consider place=hamlet" />
		<tag k="name" v="Raftenes" />
		<tag k="place" v="farm" />
		<tag k="ssr:stedsnr" v="219742" />
	</node>
	<node id="-559882" lat="62.2353166692" lon="5.77246667357">
		<tag k="name" v="Kattadalen" />
		<tag k="natural" v="valley" />
		<tag k="place" v="locality" />
		<tag k="ssr:stedsnr" v="219722" />
	</node>
	<node id="-559881" lat="62.2275527809" lon="5.80139722642">
		<tag k="name" v="Bukken" />
		<tag k="natural" v="hill" />
		<tag k="place" v="locality" />
		<tag k="ssr:stedsnr" v="219680" />
	</node>
	<node id="-559880" lat="62.2617694448" lon="5.78333611259">
		<tag k="name" v="Botnen" />
		<tag k="natural" v="valley" />
		<tag k="place" v="locality" />
		<tag k="ssr:stedsnr" v="219678" />
	</node>
	<node id="-559879" lat="62.2946166648" lon="5.63448889535">
		<tag k="name" v="Moltu" />
		<tag k="place" v="farm" />
		<tag k="ssr:stedsnr" v="219672" />
	</node>
	<node id="-559878" lat="62.2772861123" lon="5.74350833849">
		<tag k="name" v="Tuftane" />
		<tag k="place" v="farm" />
		<tag k="ssr:stedsnr" v="219668" />
	</node>
	<node id="-559877" lat="62.3439083351" lon="5.63485833337">
		<tag k="name" v="Vågsholmen" />
		<tag k="place" v="islet" />
		<tag k="ssr:stedsnr" v="219350" />
	</node>
	<node id="-559876" lat="62.3206361102" lon="5.65689166948">
		<tag k="name" v="Grønholmen" />
		<tag k="place" v="islet" />
		<tag k="ssr:stedsnr" v="219326" />
	</node>
	<node id="-559875" lat="62.3619861135" lon="5.54478888131">
		<tag k="name" v="Grøthaugen" />
		<tag k="natural" v="hill" />
		<tag k="place" v="locality" />
		<tag k="ssr:stedsnr" v="219323" />
	</node>
	<node id="-559874" lat="62.3526361126" lon="5.55176389791">
		<tag k="name" v="Vardemyrane" />
		<tag k="natural" v="wetland" />
		<tag k="ssr:stedsnr" v="219320" />
	</node>
	<node id="-559873" lat="62.3007499956" lon="5.60836110201">
		<tag k="name" v="Langholmsundet" />
		<tag k="natural" v="strait" />
		<tag k="ssr:stedsnr" v="219260" />
	</node>
	<node id="-559872" lat="62.3079083295" lon="5.66535278637">
		<tag k="fixme" v="consider seamark:type=rock or natural=shoal" />
		<tag k="name" v="Grøneskjeret" />
		<tag k="place" v="islet" />
		<tag k="ssr:stedsnr" v="219257" />
	</node>
	<node id="-559871" lat="62.300311112" lon="5.64597221798">
		<tag k="name" v="Kyrkjegardsvika" />
		<tag k="natural" v="bay" />
		<tag k="ssr:stedsnr" v="219255" />
	</node>
	<node id="-559870" lat="62.2947638904" lon="5.66281389554">
		<tag k="name" v="Dyrhaugane" />
		<tag k="natural" v="hill" />
		<tag k="place" v="locality" />
		<tag k="ssr:stedsnr" v="219253" />
	</node>
	<node id="-559869" lat="62.3469749989" lon="5.73061667534">
		<tag k="fixme" v="consider natural=peak for the most distinct mountains in the district" />
		<tag k="name" v="Storehornet" />
		<tag k="natural" v="hill" />
		<tag k="place" v="locality" />
		<tag k="ssr:stedsnr" v="219155" />
	</node>
	<node id="-559868" lat="62.3424472248" lon="5.59478055192">
		<tag k="name" v="Kvalsund" />
		<tag k="place" v="village" />
		<tag k="ssr:stedsnr" v="207529" />
	</node>
	<node id="-559867" lat="62.3605182023" lon="5.73957774133">
		<tag k="fixme" v="consider place=hamlet" />
		<tag k="name" v="Ytrebø" />
		<tag k="place" v="farm" />
		<tag k="ssr:stedsnr" v="193863" />
	</node>
	<node id="-559866" lat="62.3289388918" lon="5.73701110622">
		<tag k="name" v="Skarvika" />
		<tag k="natural" v="bay" />
		<tag k="ssr:stedsnr" v="193840" />
	</node>
	<node id="-559865" lat="62.3010888895" lon="5.74402777009">
		<tag k="name" v="Grønvika" />
		<tag k="place" v="farm" />
		<tag k="ssr:stedsnr" v="193729" />
	</node>
	<node id="-559864" lat="62.3290583343" lon="5.59855555423">
		<tag k="alt_name" v="Mjeltevikneset;Hjeltevikneset" />
		<tag k="name" v="Langeneset" />
		<tag k="natural" v="cape" />
		<tag k="ssr:stedsnr" v="193668" />
	</node>
	<node id="-559862" lat="62.400602782" lon="5.62118889056">
		<tag k="name" v="Storehornet" />
		<tag k="natural" v="hill" />
		<tag k="place" v="locality" />
		<tag k="ssr:stedsnr" v="193652" />
	</node>
	<node id="-559861" lat="62.3935388903" lon="5.61673888389">
		<tag k="name" v="Sandvatna" />
		<tag k="natural" v="water" />
		<tag k="ssr:stedsnr" v="193632" />
	</node>
	<node id="-559860" lat="62.3286583375" lon="5.59282499478">
		<tag k="name" v="Kyrkjeholmen" />
		<tag k="place" v="islet" />
		<tag k="ssr:stedsnr" v="193625" />
	</node>
	<node id="-559859" lat="62.3645861093" lon="5.55396666962">
		<tag k="fixme" v="consider place=hamlet" />
		<tag k="name" v="Kvalsvik" />
		<tag k="place" v="village" />
		<tag k="ssr:stedsnr" v="193623" />
	</node>
	<node id="-559858" lat="62.3525916706" lon="5.51947499962">
		<tag k="name" v="Mulevika" />
		<tag k="natural" v="bay" />
		<tag k="ssr:stedsnr" v="193619" />
	</node>
	<node id="-559857" lat="62.3332888928" lon="5.47794167564">
		<tag k="name" v="Trolleneset" />
		<tag k="natural" v="cape" />
		<tag k="ssr:stedsnr" v="193603" />
	</node>
	<node id="-559856" lat="62.3383416664" lon="5.68671110991">
		<tag k="name" v="Skardet" />
		<tag k="natural" v="valley" />
		<tag k="place" v="locality" />
		<tag k="ssr:stedsnr" v="193601" />
	</node>
	<node id="-559855" lat="62.3398826067" lon="5.66552256555">
		<tag k="alt_name" v="Reite" />
		<tag k="fixme" v="consider place=hamlet" />
		<tag k="name" v="Reitane" />
		<tag k="place" v="farm" />
		<tag k="ssr:stedsnr" v="193600" />
	</node>
	<node id="-559854" lat="62.2935890321" lon="5.6141851521">
		<tag k="fixme" v="consider place=hamlet" />
		<tag k="name" v="Slettebakk" />
		<tag k="place" v="farm" />
		<tag k="ssr:stedsnr" v="193553" />
	</node>
	<node id="-559853" lat="62.2961750013" lon="5.70862499851">
		<tag k="name" v="Sandvika" />
		<tag k="natural" v="bay" />
		<tag k="ssr:stedsnr" v="193549" />
	</node>
	<node id="-559852" lat="62.2283361145" lon="5.81058056311">
		<tag k="name" v="Rinden" />
		<tag k="place" v="farm" />
		<tag k="ssr:stedsnr" v="193171" />
	</node>
	<node id="-559851" lat="62.2850121112" lon="5.78225461606">
		<tag k="alt_name" v="Aurvågane" />
		<tag k="fixme" v="consider place=hamlet" />
		<tag k="name" v="Aurvåg" />
		<tag k="place" v="farm" />
		<tag k="ssr:stedsnr" v="193133" />
	</node>
	<node id="-559850" lat="62.2417305587" lon="5.71736110838">
		<tag k="name" v="Simavatnet" />
		<tag k="natural" v="water" />
		<tag k="ssr:stedsnr" v="192643" />
	</node>
	<node id="-559849" lat="62.3072833323" lon="5.71750833911">
		<tag k="alt_name" v="Myrbærholmen" />
		<tag k="name" v="Buskeholmen" />
		<tag k="place" v="islet" />
		<tag k="ssr:stedsnr" v="192570" />
	</node>
	<node id="-559847" lat="62.282427406" lon="5.82307988709">
		<tag k="fixme" v="consider place=hamlet" />
		<tag k="name" v="Dragsund" />
		<tag k="place" v="farm" />
		<tag k="ssr:stedsnr" v="192145" />
	</node>
	<node id="-559846" lat="62.2811083354" lon="5.78329723089">
		<tag k="alt_name" v="Dyrskyrkja" />
		<tag k="fixme" v="consider natural=peak for the most distinct mountains in the district" />
		<tag k="name" v="Dyrkyrkja" />
		<tag k="natural" v="hill" />
		<tag k="place" v="locality" />
		<tag k="ssr:stedsnr" v="192144" />
	</node>
	<node id="-559845" lat="62.327522218" lon="5.27477500362">
		<tag k="name" v="Skjernabben" />
		<tag k="natural" v="shoal" />
		<tag k="place" v="locality" />
		<tag k="ssr:stedsnr" v="177819" />
	</node>
	<node id="-559844" lat="62.3005416712" lon="5.5338972284">
		<tag k="name" v="Kråkungane" />
		<tag k="natural" v="shoal" />
		<tag k="place" v="locality" />
		<tag k="ssr:stedsnr" v="173649" />
	</node>
	<node id="-559843" lat="62.317297219" lon="5.53665834168">
		<tag k="name" v="Nordre Stabben" />
		<tag k="natural" v="shoal" />
		<tag k="place" v="locality" />
		<tag k="ssr:stedsnr" v="173657" />
	</node>
	<node id="-559842" lat="62.3327916625" lon="5.72084722979">
		<tag k="name" v="Storvik" />
		<tag k="place" v="farm" />
		<tag k="ssr:stedsnr" v="173309" />
	</node>
	<node id="-559841" lat="62.3835444415" lon="5.73761388071">
		<tag k="name" v="Buaskallen" />
		<tag k="natural" v="shoal" />
		<tag k="place" v="locality" />
		<tag k="ssr:stedsnr" v="173287" />
	</node>
	<node id="-559840" lat="62.3702083331" lon="5.74171388695">
		<tag k="name" v="Stabben" />
		<tag k="natural" v="shoal" />
		<tag k="place" v="locality" />
		<tag k="ssr:stedsnr" v="173285" />
	</node>
	<node id="-559839" lat="62.4161388872" lon="5.58149999796">
		<tag k="name" v="Leirbåen" />
		<tag k="natural" v="shoal" />
		<tag k="place" v="locality" />
		<tag k="ssr:stedsnr" v="172893" />
	</node>
	<node id="-559838" lat="62.3016361103" lon="5.70166111157">
		<tag k="name" v="Sandvikfluda" />
		<tag k="natural" v="shoal" />
		<tag k="place" v="locality" />
		<tag k="ssr:stedsnr" v="172337" />
	</node>
	<node id="-559837" lat="62.2395999973" lon="5.7471250023">
		<tag k="bridge" v="yes" />
		<tag k="layer" v="1" />
		<tag k="name" v="Tverrelvbrua" />
		<tag k="ssr:stedsnr" v="167878" />
	</node>
	<node id="-559836" lat="62.3708083324" lon="5.61324721591">
		<tag k="alt_name" v="Barane" />
		<tag k="name" v="Bardane" />
		<tag k="place" v="islet" />
		<tag k="ssr:stedsnr" v="159794" />
	</node>
	<node id="-559835" lat="62.3630861074" lon="5.62696389721">
		<tag k="highway" v="path" />
		<tag k="name" v="Stigen" />
		<tag k="ssr:stedsnr" v="159791" />
	</node>
	<node id="-559834" lat="62.3902388885" lon="5.61166666273">
		<tag k="name" v="Otreskredene" />
		<tag k="natural" v="scree" />
		<tag k="ssr:stedsnr" v="159402" />
	</node>
	<node id="-559833" lat="62.2881611145" lon="5.81978887945">
		<tag k="name" v="Rambjørbukta" />
		<tag k="natural" v="bay" />
		<tag k="ssr:stedsnr" v="159349" />
	</node>
	<node id="-559832" lat="62.2634333334" lon="5.74454999893">
		<tag k="fixme" v="consider natural=peak for the most distinct mountains in the district" />
		<tag k="name" v="Storevarden" />
		<tag k="natural" v="hill" />
		<tag k="place" v="locality" />
		<tag k="ssr:stedsnr" v="159345" />
	</node>
	<node id="-559831" lat="62.3925916682" lon="5.63396110317">
		<tag k="name" v="Berget" />
		<tag k="natural" v="slope" />
		<tag k="place" v="locality" />
		<tag k="ssr:stedsnr" v="158753" />
	</node>
	<node id="-559830" lat="62.4050444437" lon="5.60325832514">
		<tag k="name" v="Myrane" />
		<tag k="natural" v="wetland" />
		<tag k="ssr:stedsnr" v="158736" />
	</node>
	<node id="-559829" lat="62.3598500027" lon="5.69852500874">
		<tag k="name" v="Lægda" />
		<tag k="place" v="locality" />
		<tag k="ssr:stedsnr" v="158737" />
	</node>
	<node id="-559828" lat="62.3545916706" lon="5.5257944487">
		<tag k="name" v="Vollane" />
		<tag k="natural" v="slope" />
		<tag k="place" v="locality" />
		<tag k="ssr:stedsnr" v="158730" />
	</node>
	<node id="-559827" lat="62.2462666638" lon="5.71899999161">
		<tag k="name" v="Kråelva" />
		<tag k="ssr:stedsnr" v="158727" />
		<tag k="waterway" v="stream" />
	</node>
	<node id="-559826" lat="62.2333916698" lon="5.83638333804">
		<tag k="name" v="Hamna" />
		<tag k="natural" v="bay" />
		<tag k="ssr:stedsnr" v="158663" />
	</node>
	<node id="-559825" lat="62.2793361139" lon="5.74204444179">
		<tag k="name" v="Tuftene" />
		<tag k="place" v="farm" />
		<tag k="ssr:stedsnr" v="158651" />
	</node>
	<node id="-559824" lat="62.3001916636" lon="5.71595833622">
		<tag k="name" v="Breivika" />
		<tag k="place" v="farm" />
		<tag k="ssr:stedsnr" v="158649" />
	</node>
	<node id="-559823" lat="62.2293722235" lon="5.80961389791">
		<tag k="name" v="Støylen" />
		<tag k="place" v="farm" />
		<tag k="ssr:stedsnr" v="158647" />
	</node>
	<node id="-559822" lat="62.3735361124" lon="5.67504166102">
		<tag k="name" v="Kvianeshamna" />
		<tag k="natural" v="bay" />
		<tag k="ssr:stedsnr" v="158392" />
	</node>
	<node id="-559821" lat="62.4005166683" lon="5.62083055237">
		<tag k="name" v="Sætrehornet" />
		<tag k="natural" v="hill" />
		<tag k="place" v="locality" />
		<tag k="ssr:stedsnr" v="158388" />
	</node>
	<node id="-559820" lat="62.369613891" lon="5.62476943526">
		<tag k="name" v="Vasseidbakkane" />
		<tag k="natural" v="slope" />
		<tag k="place" v="locality" />
		<tag k="ssr:stedsnr" v="158360" />
	</node>
	<node id="-559819" lat="62.3654805598" lon="5.55443054979">
		<tag k="landuse" v="harbour" />
		<tag k="name" v="Kvalsvik hamn" />
		<tag k="seamark:type" v="harbour" />
		<tag k="ssr:stedsnr" v="158333" />
	</node>
	<node id="-559818" lat="62.3194888881" lon="5.62209444362">
		<tag k="name" v="Vikedjupet" />
		<tag k="place" v="locality" />
		<tag k="ssr:stedsnr" v="158334" />
	</node>
	<node id="-559817" lat="62.3608694468" lon="5.53357499188">
		<tag k="name" v="Kvalsvikeidet" />
		<tag k="place" v="locality" />
		<tag k="ssr:stedsnr" v="158332" />
	</node>
	<node id="-559816" lat="62.3113472266" lon="5.66898889613">
		<tag k="name" v="Skuta" />
		<tag k="place" v="islet" />
		<tag k="ssr:stedsnr" v="158330" />
	</node>
	<node id="-559815" lat="62.3079166661" lon="5.66824166241">
		<tag k="name" v="Flatholmen" />
		<tag k="place" v="islet" />
		<tag k="ssr:stedsnr" v="158289" />
	</node>
	<node id="-559814" lat="62.3157166694" lon="5.5964388898">
		<tag k="name" v="Flåværhamna" />
		<tag k="place" v="locality" />
		<tag k="ssr:stedsnr" v="158283" />
	</node>
	<node id="-559813" lat="62.3425138902" lon="5.60492499249">
		<tag k="name" v="Hardausen" />
		<tag k="natural" v="beach" />
		<tag k="place" v="locality" />
		<tag k="ssr:stedsnr" v="158278" />
	</node>
	<node id="-559812" lat="62.3325777807" lon="5.69603889491">
		<tag k="name" v="Frøystadskaret" />
		<tag k="natural" v="valley" />
		<tag k="place" v="locality" />
		<tag k="ssr:stedsnr" v="158185" />
	</node>
	<node id="-559811" lat="62.3304250031" lon="5.73334167033">
		<tag k="name" v="Storevikfjellet" />
		<tag k="natural" v="hill" />
		<tag k="place" v="locality" />
		<tag k="ssr:stedsnr" v="158184" />
	</node>
	<node id="-559810" lat="62.3493472248" lon="5.71429443551">
		<tag k="name" v="Saudeskorene" />
		<tag k="natural" v="valley" />
		<tag k="place" v="locality" />
		<tag k="ssr:stedsnr" v="158182" />
	</node>
	<node id="-559809" lat="62.333730552" lon="5.73830277238">
		<tag k="name" v="Kyrkjeholmen" />
		<tag k="place" v="islet" />
		<tag k="ssr:stedsnr" v="158180" />
	</node>
	<node id="-559808" lat="62.3688583343" lon="5.61309999162">
		<tag k="name" v="Terneneset" />
		<tag k="natural" v="cape" />
		<tag k="ssr:stedsnr" v="133656" />
	</node>
	<node id="-559807" lat="62.2560666696" lon="5.69872500092">
		<tag k="name" v="Holmevatnet" />
		<tag k="natural" v="water" />
		<tag k="ssr:stedsnr" v="132973" />
	</node>
	<node id="-559806" lat="62.3335244845" lon="5.72351519535">
		<tag k="alt_name" v="Steinsvika" />
		<tag k="fixme" v="consider place=hamlet" />
		<tag k="name" v="Steinsvik" />
		<tag k="place" v="farm" />
		<tag k="ssr:stedsnr" v="132827" />
	</node>
	<node id="-559805" lat="62.4763361083" lon="5.67657778421">
		<tag k="name" v="Vallabåane" />
		<tag k="natural" v="shoal" />
		<tag k="place" v="locality" />
		<tag k="ssr:stedsnr" v="132692" />
	</node>
	<node id="-559804" lat="62.400650002" lon="5.60427778661">
		<tag k="name" v="Sandshornet" />
		<tag k="natural" v="hill" />
		<tag k="place" v="locality" />
		<tag k="ssr:stedsnr" v="132680" />
	</node>
	<node id="-559802" lat="62.3640666685" lon="5.43008889217">
		<tag k="name" v="Nørdre Gnubben" />
		<tag k="natural" v="shoal" />
		<tag k="place" v="locality" />
		<tag k="ssr:stedsnr" v="132665" />
	</node>
	<node id="-559801" lat="62.3712361081" lon="5.64254721918">
		<tag k="alt_name" v="Vika" />
		<tag k="name" v="Remøyvika" />
		<tag k="natural" v="bay" />
		<tag k="ssr:stedsnr" v="132662" />
	</node>
	<node id="-559800" lat="62.365683329" lon="5.61223888321">
		<tag k="name" v="Årbarholmane" />
		<tag k="place" v="islet" />
		<tag k="ssr:stedsnr" v="132649" />
	</node>
	<node id="-559799" lat="62.3653361121" lon="5.69715556083">
		<tag k="alt_name" v="Samundsholmen" />
		<tag k="name" v="Samuelsholmen" />
		<tag k="place" v="islet" />
		<tag k="ssr:stedsnr" v="132646" />
	</node>
	<node id="-559798" lat="62.3616031045" lon="5.55109102645">
		<tag k="fixme" v="consider place=hamlet" />
		<tag k="name" v="Nerland" />
		<tag k="place" v="farm" />
		<tag k="ssr:stedsnr" v="132637" />
	</node>
	<node id="-559797" lat="62.3493006987" lon="5.5567978183">
		<tag k="fixme" v="consider natural=peak for the most distinct mountains in the district" />
		<tag k="name" v="Nerlandshornet" />
		<tag k="natural" v="hill" />
		<tag k="place" v="locality" />
		<tag k="ssr:stedsnr" v="132636" />
	</node>
	<node id="-559796" lat="62.350647222" lon="5.60210278517">
		<tag k="alt_name" v="Teigebugen;Teigebogen" />
		<tag k="name" v="Bogen" />
		<tag k="natural" v="bay" />
		<tag k="ssr:stedsnr" v="132623" />
	</node>
	<node id="-559795" lat="62.3508444469" lon="5.6835333318">
		<tag k="name" v="Setane" />
		<tag k="natural" v="slope" />
		<tag k="place" v="locality" />
		<tag k="ssr:stedsnr" v="132618" />
	</node>
	<node id="-559794" lat="62.3331333313" lon="5.5329555506">
		<tag k="alt_name" v="Skaget" />
		<tag k="fixme" v="consider natural=peak for the most distinct mountains in the district" />
		<tag k="name" v="Skagetåa" />
		<tag k="natural" v="hill" />
		<tag k="place" v="locality" />
		<tag k="ssr:stedsnr" v="132607" />
	</node>
	<node id="-559793" lat="62.3390222216" lon="5.60653056354">
		<tag k="alt_name" v="Vaulen, søre" />
		<tag k="name" v="Søre Vaulen" />
		<tag k="natural" v="strait" />
		<tag k="ssr:stedsnr" v="132605" />
	</node>
	<node id="-559792" lat="62.3290916705" lon="5.26395277397">
		<tag k="name" v="Vesthammaren" />
		<tag k="natural" v="cape" />
		<tag k="ssr:stedsnr" v="132603" />
	</node>
	<node id="-559791" lat="62.3379103453" lon="5.61168924569">
		<tag k="fixme" v="consider place=hamlet" />
		<tag k="name" v="Igesund" />
		<tag k="place" v="farm" />
		<tag k="ssr:stedsnr" v="132595" />
	</node>
	<node id="-559790" lat="62.3224749987" lon="5.47211944952">
		<tag k="alt_name" v="Tørra;Torra" />
		<tag k="name" v="Tora" />
		<tag k="place" v="islet" />
		<tag k="ssr:stedsnr" v="132587" />
	</node>
	<node id="-559789" lat="62.3152305567" lon="5.58822499352">
		<tag k="alt_name" v="Vardholmen" />
		<tag k="name" v="Varholmen" />
		<tag k="place" v="islet" />
		<tag k="ssr:stedsnr" v="132585" />
	</node>
	<node id="-559788" lat="62.3158250023" lon="5.49485832532">
		<tag k="name" v="Gardsendfluda" />
		<tag k="natural" v="shoal" />
		<tag k="place" v="locality" />
		<tag k="ssr:stedsnr" v="132584" />
	</node>
	<node id="-559787" lat="62.2950972189" lon="5.64778333669">
		<tag k="name" v="Lisjehanen" />
		<tag k="natural" v="hill" />
		<tag k="place" v="locality" />
		<tag k="ssr:stedsnr" v="132530" />
	</node>
	<node id="-559786" lat="62.2967472195" lon="5.66141667419">
		<tag k="alt_name" v="Dyrhaugen" />
		<tag k="name" v="Dyrhaug" />
		<tag k="place" v="farm" />
		<tag k="ssr:stedsnr" v="132529" />
	</node>
	<node id="-559785" lat="62.2973361077" lon="5.68680833815">
		<tag k="alt_name" v="Ryssevika" />
		<tag k="name" v="Ryssevik" />
		<tag k="place" v="farm" />
		<tag k="ssr:stedsnr" v="132527" />
	</node>
	<node id="-559784" lat="62.2314444463" lon="5.81011944503">
		<tag k="name" v="Kleppestranda" />
		<tag k="natural" v="beach" />
		<tag k="place" v="locality" />
		<tag k="ssr:stedsnr" v="132159" />
	</node>
	<node id="-559783" lat="62.247219448" lon="5.78169167345">
		<tag k="alt_name" v="Leikanger" />
		<tag k="loc_name" v="Leikang" />
		<tag k="name" v="Leikong" />
		<tag k="place" v="village" />
		<tag k="ssr:stedsnr" v="132139" />
	</node>
	<node id="-559782" lat="62.2918855096" lon="5.78502863057">
		<tag k="alt_name" v="Kriksholmen;Krigsholmen" />
		<tag k="name" v="Kristofferholmen" />
		<tag k="place" v="islet" />
		<tag k="ssr:stedsnr" v="132130" />
	</node>
	<node id="-559781" lat="62.3232363636" lon="5.66672657868">
		<tag k="name" v="Mjølstaneset" />
		<tag k="natural" v="cape" />
		<tag k="ssr:stedsnr" v="131546" />
	</node>
	<node id="-559780" lat="62.3212583308" lon="5.62690277477">
		<tag k="alt_name" v="Toftestøda" />
		<tag k="name" v="Toftestøa" />
		<tag k="natural" v="bay" />
		<tag k="ssr:stedsnr" v="131542" />
	</node>
	<node id="-559779" lat="62.3134750037" lon="5.59503056339">
		<tag k="name" v="Husholmen" />
		<tag k="place" v="islet" />
		<tag k="ssr:stedsnr" v="131541" />
	</node>
	<node id="-559778" lat="62.2713749986" lon="5.77660278679">
		<tag k="fixme" v="consider natural=peak for the most distinct mountains in the district" />
		<tag k="name" v="Huldrehornet" />
		<tag k="natural" v="hill" />
		<tag k="place" v="locality" />
		<tag k="ssr:stedsnr" v="131172" />
	</node>
	<node id="-559777" lat="62.268158329" lon="5.81195832498">
		<tag k="name" v="Kobbenesvågen" />
		<tag k="place" v="farm" />
		<tag k="ssr:stedsnr" v="131168" />
	</node>
	<node id="-559776" lat="62.2566194454" lon="5.77729444836">
		<tag k="fixme" v="consider natural=peak for the most distinct mountains in the district" />
		<tag k="name" v="Hillehornet" />
		<tag k="natural" v="hill" />
		<tag k="place" v="locality" />
		<tag k="ssr:stedsnr" v="131155" />
	</node>
	<node id="-559775" lat="62.3172638882" lon="5.48418611437">
		<tag k="fixme" v="consider seamark:type=rock or natural=shoal" />
		<tag k="name" v="Klauvaskjeret" />
		<tag k="place" v="islet" />
		<tag k="ssr:stedsnr" v="117950" />
	</node>
	<node id="-559774" lat="62.416644442" lon="5.70106944851">
		<tag k="name" v="Tekleskallen" />
		<tag k="natural" v="shoal" />
		<tag k="place" v="locality" />
		<tag k="ssr:stedsnr" v="112969" />
	</node>
	<node id="-559773" lat="62.426316667" lon="5.56496666511">
		<tag k="name" v="Småfludene" />
		<tag k="natural" v="shoal" />
		<tag k="place" v="locality" />
		<tag k="ssr:stedsnr" v="112867" />
	</node>
	<node id="-559772" lat="62.3614055521" lon="5.57249443737">
		<tag k="name" v="Kvalsvika" />
		<tag k="natural" v="bay" />
		<tag k="ssr:stedsnr" v="112811" />
	</node>
	<node id="-559771" lat="62.3473972196" lon="5.60286110477">
		<tag k="name" v="Neset" />
		<tag k="natural" v="shoal" />
		<tag k="place" v="locality" />
		<tag k="ssr:stedsnr" v="112727" />
	</node>
	<node id="-559770" lat="62.3069638933" lon="5.51763333629">
		<tag k="name" v="Ristegrunnen" />
		<tag k="natural" v="shoal" />
		<tag k="place" v="locality" />
		<tag k="ssr:stedsnr" v="112716" />
	</node>
	<node id="-559769" lat="62.3618055538" lon="5.5879999919">
		<tag k="name" v="Kyrkjeholmen" />
		<tag k="place" v="islet" />
		<tag k="ssr:stedsnr" v="112708" />
	</node>
	<node id="-559768" lat="62.3248861079" lon="5.66808889196">
		<tag k="name" v="Bussvågen" />
		<tag k="natural" v="bay" />
		<tag k="ssr:stedsnr" v="112455" />
	</node>
	<node id="-559767" lat="62.3430333339" lon="5.69691666731">
		<tag k="name" v="Indre Leine" />
		<tag k="place" v="farm" />
		<tag k="ssr:stedsnr" v="99835" />
	</node>
	<node id="-559766" lat="62.406327779" lon="5.65503054905">
		<tag k="name" v="Litlevågen" />
		<tag k="natural" v="bay" />
		<tag k="ssr:stedsnr" v="99377" />
	</node>
	<node id="-559765" lat="62.3990333363" lon="5.65549722536">
		<tag k="name" v="Nørdre Handfangenet" />
		<tag k="natural" v="valley" />
		<tag k="place" v="locality" />
		<tag k="ssr:stedsnr" v="99374" />
	</node>
	<node id="-559764" lat="62.3555861084" lon="5.53909721605">
		<tag k="name" v="Fossholen" />
		<tag k="natural" v="wetland" />
		<tag k="ssr:stedsnr" v="99326" />
	</node>
	<node id="-559763" lat="62.3610194442" lon="5.68484445229">
		<tag k="name" v="Voldsund" />
		<tag k="place" v="farm" />
		<tag k="ssr:stedsnr" v="98915" />
	</node>
	<node id="-559762" lat="62.3359499966" lon="5.68525000002">
		<tag k="name" v="Buholmvika" />
		<tag k="natural" v="bay" />
		<tag k="ssr:stedsnr" v="98752" />
	</node>
	<node id="-559761" lat="62.3469555559" lon="5.58887223042">
		<tag k="alt_name" v="Teige-elva" />
		<tag k="name" v="Teigeelva" />
		<tag k="ssr:stedsnr" v="98746" />
		<tag k="waterway" v="stream" />
	</node>
	<node id="-559760" lat="62.3563749994" lon="5.70278333406">
		<tag k="name" v="Hamrane" />
		<tag k="natural" v="cliff" />
		<tag k="ssr:stedsnr" v="98740" />
	</node>
	<node id="-559759" lat="62.359237316" lon="5.74444186362">
		<tag k="name" v="Bøvågen" />
		<tag k="natural" v="bay" />
		<tag k="ssr:stedsnr" v="98734" />
	</node>
	<node id="-559758" lat="62.354630555" lon="5.74631943837">
		<tag k="name" v="Buaneset" />
		<tag k="natural" v="cape" />
		<tag k="ssr:stedsnr" v="98733" />
	</node>
	<node id="-559757" lat="62.2594749973" lon="5.76109443938">
		<tag k="name" v="Grøthornelva" />
		<tag k="ssr:stedsnr" v="98725" />
		<tag k="waterway" v="stream" />
	</node>
	<node id="-559756" lat="62.2416111094" lon="5.77600834207">
		<tag k="name" v="Faireberget" />
		<tag k="natural" v="hill" />
		<tag k="place" v="locality" />
		<tag k="ssr:stedsnr" v="98723" />
	</node>
	<node id="-559755" lat="62.2896805555" lon="5.77689721342">
		<tag k="name" v="Kringleholmen" />
		<tag k="place" v="islet" />
		<tag k="ssr:stedsnr" v="98718" />
	</node>
	<node id="-559754" lat="62.3355722245" lon="5.63157500055">
		<tag k="name" v="Litlehornet" />
		<tag k="natural" v="hill" />
		<tag k="place" v="locality" />
		<tag k="ssr:stedsnr" v="98715" />
	</node>
	<node id="-559753" lat="62.2334861119" lon="5.84243610839">
		<tag k="name" v="Tytebærholmen" />
		<tag k="place" v="islet" />
		<tag k="ssr:stedsnr" v="98712" />
	</node>
	<node id="-559752" lat="62.2347722218" lon="5.77718610628">
		<tag k="name" v="Brendeåsen" />
		<tag k="natural" v="hill" />
		<tag k="place" v="locality" />
		<tag k="ssr:stedsnr" v="98703" />
	</node>
	<node id="-559751" lat="62.3896055594" lon="5.6339916618">
		<tag k="name" v="Holen" />
		<tag k="place" v="farm" />
		<tag k="ssr:stedsnr" v="98652" />
	</node>
	<node id="-559750" lat="62.3409305518" lon="5.67668055822">
		<tag k="bridge" v="yes" />
		<tag k="layer" v="1" />
		<tag k="name" v="Straumsbrua" />
		<tag k="ssr:stedsnr" v="98243" />
	</node>
	<node id="-559749" lat="62.2989333316" lon="5.59113332404">
		<tag k="name" v="Flatholmen" />
		<tag k="place" v="islet" />
		<tag k="ssr:stedsnr" v="98240" />
	</node>
	<node id="-559748" lat="62.3580555575" lon="5.57518888201">
		<tag k="name" v="Kalddalsbukta" />
		<tag k="natural" v="bay" />
		<tag k="ssr:stedsnr" v="98335" />
	</node>
	<node id="-559747" lat="62.2761361121" lon="5.63533333593">
		<tag k="name" v="Kleivatrollet" />
		<tag k="natural" v="hill" />
		<tag k="place" v="locality" />
		<tag k="ssr:stedsnr" v="98313" />
	</node>
	<node id="-559746" lat="62.3025805554" lon="5.7167111173">
		<tag k="name" v="Grytevika" />
		<tag k="place" v="farm" />
		<tag k="ssr:stedsnr" v="98286" />
	</node>
	<node id="-559745" lat="62.3607166561" lon="5.73564523348">
		<tag k="name" v="Husebruna" />
		<tag k="natural" v="ridge" />
		<tag k="place" v="locality" />
		<tag k="ssr:stedsnr" v="97315" />
	</node>
	<node id="-559744" lat="62.2606583372" lon="5.67726945237">
		<tag k="name" v="Kjerringvatnet" />
		<tag k="natural" v="water" />
		<tag k="ssr:stedsnr" v="72967" />
	</node>
	<node id="-559743" lat="62.312352776" lon="5.75919999971">
		<tag k="alt_name" v="Fånøta" />
		<tag k="name" v="Fånota" />
		<tag k="place" v="islet" />
		<tag k="ssr:stedsnr" v="72772" />
	</node>
	<node id="-559742" lat="62.2954083356" lon="5.76615832613">
		<tag k="alt_name" v="Bentholmen" />
		<tag k="name" v="Kvitøya" />
		<tag k="natural" v="cape" />
		<tag k="ssr:stedsnr" v="72749" />
	</node>
	<node id="-559741" lat="62.3061277818" lon="5.77166389625">
		<tag k="name" v="Skreddarholmen" />
		<tag k="place" v="islet" />
		<tag k="ssr:stedsnr" v="72734" />
	</node>
	<node id="-559740" lat="62.3774555576" lon="5.5022305588">
		<tag k="name" v="Mathaugrevet" />
		<tag k="natural" v="shoal" />
		<tag k="place" v="locality" />
		<tag k="ssr:stedsnr" v="72620" />
	</node>
	<node id="-559739" lat="62.374322225" lon="5.67530832784">
		<tag k="alt_name" v="Kvieneset" />
		<tag k="name" v="Kvianeset" />
		<tag k="natural" v="cape" />
		<tag k="ssr:stedsnr" v="72604" />
	</node>
	<node id="-559738" lat="62.3332888928" lon="5.53759722364">
		<tag k="name" v="Nerlandsøya" />
		<tag k="place" v="island" />
		<tag k="ssr:stedsnr" v="72584" />
	</node>
	<node id="-559737" lat="62.3348728364" lon="5.56001711823">
		<tag k="alt_name" v="Kopperstad;Kopparstad" />
		<tag k="fixme" v="consider place=hamlet" />
		<tag k="name" v="Koparstad" />
		<tag k="place" v="farm" />
		<tag k="ssr:stedsnr" v="72577" />
	</node>
	<node id="-559736" lat="62.3279166653" lon="5.26844444823">
		<tag k="name" v="Skjerhovudet" />
		<tag k="place" v="isolated_dwelling" />
		<tag k="ssr:stedsnr" v="72574" />
	</node>
	<node id="-559735" lat="62.3355305573" lon="5.70335000645">
		<tag k="name" v="Svartevatnet" />
		<tag k="natural" v="water" />
		<tag k="ssr:stedsnr" v="72571" />
	</node>
	<node id="-559734" lat="62.3410938156" lon="5.68173564232">
		<tag k="name" v="Nerøya" />
		<tag k="natural" v="cape" />
		<tag k="ssr:stedsnr" v="72567" />
	</node>
	<node id="-559733" lat="62.3413333357" lon="5.64177500919">
		<tag k="fixme" v="consider place=suburb, village or hamlet" />
		<tag k="name" v="Nørdrevåg" />
		<tag k="place" v="quarter" />
		<tag k="ssr:stedsnr" v="72564" />
	</node>
	<node id="-559731" lat="62.3305555524" lon="5.60980554886">
		<tag k="name" v="Storehornet" />
		<tag k="natural" v="hill" />
		<tag k="place" v="locality" />
		<tag k="ssr:stedsnr" v="72556" />
	</node>
	<node id="-559730" lat="62.325843179" lon="5.68635947516">
		<tag k="fixme" v="consider place=hamlet" />
		<tag k="name" v="Espeset" />
		<tag k="place" v="farm" />
		<tag k="ssr:stedsnr" v="72550" />
	</node>
	<node id="-559729" lat="62.3759333358" lon="5.7437999983">
		<tag k="name" v="Kyrkjefluda" />
		<tag k="natural" v="shoal" />
		<tag k="place" v="locality" />
		<tag k="ssr:stedsnr" v="71921" />
	</node>
	<node id="-559728" lat="62.4681944434" lon="5.52895832584">
		<tag k="name" v="Nyårsskallane" />
		<tag k="natural" v="shoal" />
		<tag k="place" v="locality" />
		<tag k="ssr:stedsnr" v="71726" />
	</node>
	<node id="-559727" lat="62.4138249968" lon="5.58317499336">
		<tag k="name" v="Kvalen" />
		<tag k="natural" v="cape" />
		<tag k="ssr:stedsnr" v="71710" />
	</node>
	<node id="-559726" lat="62.4085111068" lon="5.46822500116">
		<tag k="name" v="Geitmardjupet" />
		<tag k="place" v="locality" />
		<tag k="ssr:stedsnr" v="71707" />
	</node>
	<node id="-559725" lat="62.3228648567" lon="5.7174696347">
		<tag k="fixme" v="consider place=hamlet" />
		<tag k="name" v="Røyra" />
		<tag k="place" v="farm" />
		<tag k="ssr:stedsnr" v="71616" />
	</node>
	<node id="-559724" lat="62.3179111069" lon="5.70866110336">
		<tag k="name" v="Røyrasundet" />
		<tag k="natural" v="strait" />
		<tag k="ssr:stedsnr" v="71610" />
	</node>
	<node id="-559723" lat="62.3255861153" lon="5.69292778289">
		<tag k="name" v="Frøystadvågen" />
		<tag k="natural" v="bay" />
		<tag k="ssr:stedsnr" v="71611" />
	</node>
	<node id="-559722" lat="62.3640444473" lon="5.67737222649">
		<tag k="name" v="Remøyholmen" />
		<tag k="place" v="islet" />
		<tag k="ssr:stedsnr" v="71686" />
	</node>
	<node id="-559721" lat="62.3646694444" lon="5.67291666557">
		<tag k="alt_name" v="Vaulen, nørdre" />
		<tag k="name" v="Nørdre Vaulen" />
		<tag k="natural" v="strait" />
		<tag k="ssr:stedsnr" v="71683" />
	</node>
	<node id="-559720" lat="62.3506583292" lon="5.4879305496">
		<tag k="name" v="Purka" />
		<tag k="natural" v="shoal" />
		<tag k="place" v="locality" />
		<tag k="ssr:stedsnr" v="71672" />
	</node>
	<node id="-559719" lat="62.28910278" lon="5.66782223078">
		<tag k="name" v="Svartelvdalen" />
		<tag k="natural" v="valley" />
		<tag k="place" v="locality" />
		<tag k="ssr:stedsnr" v="71577" />
	</node>
	<node id="-559718" lat="62.2930799822" lon="5.71441987934">
		<tag k="alt_name" v="Sandvik" />
		<tag k="fixme" v="consider place=hamlet" />
		<tag k="name" v="Sandvika" />
		<tag k="place" v="farm" />
		<tag k="ssr:stedsnr" v="71573" />
	</node>
	<node id="-559717" lat="62.2615194423" lon="5.77008333413">
		<tag k="name" v="Vadelva" />
		<tag k="ssr:stedsnr" v="71187" />
		<tag k="waterway" v="stream" />
	</node>
	<node id="-559716" lat="62.2426027747" lon="5.82386666438">
		<tag k="name" v="Tjuvholmen" />
		<tag k="place" v="islet" />
		<tag k="ssr:stedsnr" v="71171" />
	</node>
	<node id="-559715" lat="62.2662786717" lon="5.79393211122">
		<tag k="alt_name" v="Djupvika" />
		<tag k="fixme" v="consider place=hamlet" />
		<tag k="name" v="Djupvik" />
		<tag k="place" v="farm" />
		<tag k="ssr:stedsnr" v="71205" />
	</node>
	<node id="-559714" lat="62.2536424291" lon="5.78880465652">
		<tag k="name" v="Nykreim" />
		<tag k="place" v="farm" />
		<tag k="ssr:stedsnr" v="55551" />
	</node>
	<node id="-559713" lat="62.2302611137" lon="5.84209166017">
		<tag k="fixme" v="consider seamark:type=rock or natural=shoal" />
		<tag k="name" v="Guleskjeret" />
		<tag k="place" v="islet" />
		<tag k="ssr:stedsnr" v="52752" />
	</node>
	<node id="-559712" lat="62.3098722237" lon="5.57674721909">
		<tag k="name" v="Stabben" />
		<tag k="natural" v="shoal" />
		<tag k="place" v="locality" />
		<tag k="ssr:stedsnr" v="52673" />
	</node>
	<node id="-559711" lat="62.3558611106" lon="5.61168610181">
		<tag k="fixme" v="consider seamark:type=rock or natural=shoal" />
		<tag k="name" v="Trollholmskjeret" />
		<tag k="place" v="islet" />
		<tag k="ssr:stedsnr" v="52186" />
	</node>
	<node id="-559710" lat="62.4291666693" lon="5.551127772">
		<tag k="name" v="Djupefluda" />
		<tag k="natural" v="shoal" />
		<tag k="place" v="locality" />
		<tag k="ssr:stedsnr" v="51884" />
	</node>
	<node id="-559709" lat="62.2817277736" lon="5.76745277396">
		<tag k="name" v="Liavågen" />
		<tag k="natural" v="bay" />
		<tag k="ssr:stedsnr" v="51398" />
	</node>
	<node id="-559708" lat="62.2450722226" lon="5.76355833567">
		<tag k="bridge" v="yes" />
		<tag k="layer" v="1" />
		<tag k="name" v="Sætrebrua" />
		<tag k="ssr:stedsnr" v="46884" />
	</node>
	<node id="-559707" lat="62.2489527746" lon="5.78337777308">
		<tag k="layer" v="-1" />
		<tag k="name" v="Håneskulverten" />
		<tag k="ssr:stedsnr" v="45751" />
		<tag k="tunnel" v="yes" />
	</node>
	<node id="-559706" lat="62.3778277784" lon="5.63247776864">
		<tag k="name" v="Litlesteinen" />
		<tag k="natural" v="cape" />
		<tag k="ssr:stedsnr" v="38387" />
	</node>
	<node id="-559705" lat="62.4001666626" lon="5.64389166244">
		<tag k="name" v="Blåfjellet" />
		<tag k="natural" v="hill" />
		<tag k="place" v="locality" />
		<tag k="ssr:stedsnr" v="38381" />
	</node>
	<node id="-559704" lat="62.3587472253" lon="5.62282221467">
		<tag k="name" v="Kobbholmen" />
		<tag k="place" v="islet" />
		<tag k="ssr:stedsnr" v="38370" />
	</node>
	<node id="-559703" lat="62.313122221" lon="5.60159722195">
		<tag k="alt_name" v="Flåvær" />
		<tag k="name" v="Flåværet" />
		<tag k="place" v="island" />
		<tag k="ssr:stedsnr" v="37760" />
	</node>
	<node id="-559702" lat="62.3694027774" lon="5.67359444948">
		<tag k="alt_name" v="Øyra" />
		<tag k="name" v="Myrane" />
		<tag k="natural" v="wetland" />
		<tag k="ssr:stedsnr" v="37748" />
	</node>
	<node id="-559701" lat="62.358322032" lon="5.73345536434">
		<tag k="name" v="Bruna" />
		<tag k="natural" v="ridge" />
		<tag k="place" v="locality" />
		<tag k="ssr:stedsnr" v="37731" />
	</node>
	<node id="-559700" lat="62.256555556" lon="5.75146666242">
		<tag k="fixme" v="consider natural=peak for the most distinct mountains in the district" />
		<tag k="name" v="Grøthornet" />
		<tag k="natural" v="hill" />
		<tag k="place" v="locality" />
		<tag k="ssr:stedsnr" v="37717" />
	</node>
	<node id="-559699" lat="62.2571500021" lon="5.80139443887">
		<tag k="name" v="Nykreimsundet" />
		<tag k="natural" v="strait" />
		<tag k="ssr:stedsnr" v="37718" />
	</node>
	<node id="-559698" lat="62.2328999996" lon="5.76034721945">
		<tag k="fixme" v="consider natural=peak for the most distinct mountains in the district" />
		<tag k="name" v="Byrkjeåsen" />
		<tag k="natural" v="hill" />
		<tag k="place" v="locality" />
		<tag k="ssr:stedsnr" v="37711" />
	</node>
	<node id="-559697" lat="62.3716888862" lon="5.54132221371">
		<tag k="name" v="Trangeskaret" />
		<tag k="natural" v="valley" />
		<tag k="place" v="locality" />
		<tag k="ssr:stedsnr" v="37700" />
	</node>
	<node id="-559696" lat="62.2352791911" lon="5.80189007838">
		<tag k="fixme" v="consider place=hamlet" />
		<tag k="name" v="Kleppe" />
		<tag k="place" v="farm" />
		<tag k="ssr:stedsnr" v="37652" />
	</node>
	<node id="-559695" lat="62.407966669" lon="5.5991777705">
		<tag k="name" v="Rongabakkane" />
		<tag k="natural" v="slope" />
		<tag k="place" v="locality" />
		<tag k="ssr:stedsnr" v="37383" />
	</node>
	<node id="-559694" lat="62.3339555524" lon="5.6282833376">
		<tag k="name" v="Storhornet" />
		<tag k="natural" v="hill" />
		<tag k="place" v="locality" />
		<tag k="ssr:stedsnr" v="37360" />
	</node>
	<node id="-559693" lat="62.2765861075" lon="5.69718333779">
		<tag k="name" v="Djuperustene" />
		<tag k="natural" v="slope" />
		<tag k="place" v="locality" />
		<tag k="ssr:stedsnr" v="37336" />
	</node>
	<node id="-559692" lat="62.252155552" lon="5.73023888561">
		<tag k="name" v="Saudehornet" />
		<tag k="natural" v="hill" />
		<tag k="place" v="locality" />
		<tag k="ssr:stedsnr" v="37319" />
	</node>
	<node id="-559691" lat="62.2825166698" lon="5.79853054968">
		<tag k="name" v="Skyttenesvågen" />
		<tag k="natural" v="bay" />
		<tag k="ssr:stedsnr" v="37313" />
	</node>
	<node id="-559690" lat="62.3488944469" lon="5.72314167463">
		<tag k="name" v="Bødalen" />
		<tag k="natural" v="valley" />
		<tag k="place" v="locality" />
		<tag k="ssr:stedsnr" v="37181" />
	</node>
	<node id="-559689" lat="62.3410750039" lon="5.70904443879">
		<tag k="fixme" v="consider natural=peak for the most distinct mountains in the district" />
		<tag k="name" v="Vardeheida" />
		<tag k="natural" v="hill" />
		<tag k="ssr:stedsnr" v="29284" />
	</node>
	<node id="-559688" lat="62.2913861129" lon="5.61477777959">
		<tag k="name" v="Øygarden" />
		<tag k="place" v="farm" />
		<tag k="ssr:stedsnr" v="29261" />
	</node>
	<node id="-559687" lat="62.3400111108" lon="5.7460111072">
		<tag k="bay" v="fjord" />
		<tag k="name" v="Bøfjorden" />
		<tag k="natural" v="bay" />
		<tag k="ssr:stedsnr" v="11837" />
	</node>
	<node id="-559686" lat="62.3169888854" lon="5.75458611212">
		<tag k="alt_name" v="Kvernaskjera" />
		<tag k="fixme" v="consider seamark:type=rock or natural=shoal" />
		<tag k="name" v="Kverna" />
		<tag k="place" v="islet" />
		<tag k="ssr:stedsnr" v="11814" />
	</node>
	<node id="-559685" lat="62.3165916696" lon="5.72241944737">
		<tag k="name" v="Blankholmen" />
		<tag k="place" v="islet" />
		<tag k="ssr:stedsnr" v="11815" />
	</node>
	<node id="-559684" lat="62.3038388881" lon="5.72647223113">
		<tag k="alt_name" v="Indre Herøy kyrkje" />
		<tag k="amenity" v="place_of_worship" />
		<tag k="denomination" v="lutheran" />
		<tag k="name" v="Indre Herøy" />
		<tag k="religion" v="christian" />
		<tag k="ssr:stedsnr" v="11761" />
	</node>
	<node id="-559683" lat="62.3563112569" lon="5.71644838745">
		<tag k="alt_name" v="Sandane" />
		<tag k="fixme" v="consider place=hamlet" />
		<tag k="name" v="Sande" />
		<tag k="place" v="farm" />
		<tag k="ssr:stedsnr" v="11689" />
	</node>
	<node id="-559682" lat="62.4250777782" lon="5.40866389529">
		<tag k="name" v="Kleivegrynnene" />
		<tag k="natural" v="shoal" />
		<tag k="place" v="locality" />
		<tag k="ssr:stedsnr" v="11684" />
	</node>
	<node id="-559681" lat="62.3267249977" lon="5.47786111577">
		<tag k="name" v="Langeneset" />
		<tag k="natural" v="cape" />
		<tag k="ssr:stedsnr" v="11682" />
	</node>
	<node id="-559680" lat="62.3950499978" lon="5.60944167495">
		<tag k="name" v="Otreskredene" />
		<tag k="natural" v="valley" />
		<tag k="place" v="locality" />
		<tag k="ssr:stedsnr" v="11675" />
	</node>
	<node id="-559679" lat="62.3972416634" lon="5.60977499714">
		<tag k="name" v="Frøystolen" />
		<tag k="natural" v="hill" />
		<tag k="place" v="locality" />
		<tag k="ssr:stedsnr" v="11674" />
	</node>
	<node id="-559678" lat="62.3990972193" lon="5.62734166847">
		<tag k="name" v="Austefjellsvatnet" />
		<tag k="natural" v="water" />
		<tag k="ssr:stedsnr" v="11672" />
	</node>
	<node id="-559676" lat="62.3685055521" lon="5.53488610341">
		<tag k="alt_name" v="Helleskaret" />
		<tag k="name" v="Helleskardet" />
		<tag k="natural" v="valley" />
		<tag k="place" v="locality" />
		<tag k="ssr:stedsnr" v="11651" />
	</node>
	<node id="-559675" lat="62.3689749961" lon="5.55675000319">
		<tag k="alt_name" v="Skjellingneset;Skjellingsneset" />
		<tag k="name" v="Skjeljingneset" />
		<tag k="natural" v="cape" />
		<tag k="ssr:stedsnr" v="11647" />
	</node>
	<node id="-559674" lat="62.364247224" lon="5.40395278312">
		<tag k="name" v="Juklebåen" />
		<tag k="natural" v="shoal" />
		<tag k="place" v="locality" />
		<tag k="ssr:stedsnr" v="11648" />
	</node>
	<node id="-559673" lat="62.3711611143" lon="5.62468055961">
		<tag k="name" v="Vasseidet" />
		<tag k="natural" v="hill" />
		<tag k="place" v="locality" />
		<tag k="ssr:stedsnr" v="11646" />
	</node>
	<node id="-559672" lat="62.4009638857" lon="5.65778888261">
		<tag k="name" v="Gryta" />
		<tag k="natural" v="bay" />
		<tag k="ssr:stedsnr" v="11639" />
	</node>
	<node id="-559671" lat="62.3947611126" lon="5.61710556155">
		<tag k="name" v="Holmevatnet" />
		<tag k="natural" v="water" />
		<tag k="ssr:stedsnr" v="11640" />
	</node>
	<node id="-559669" lat="62.3556939342" lon="5.71390045202">
		<tag k="name" v="Sande" />
		<tag k="place" v="farm" />
		<tag k="ssr:stedsnr" v="11615" />
	</node>
	<node id="-559668" lat="62.3584166642" lon="5.69706666997">
		<tag k="name" v="Vasseidet" />
		<tag k="natural" v="valley" />
		<tag k="place" v="locality" />
		<tag k="ssr:stedsnr" v="11616" />
	</node>
	<node id="-559667" lat="62.3508500025" lon="5.6780999923">
		<tag k="name" v="Grønstøylen" />
		<tag k="place" v="farm" />
		<tag k="ssr:stedsnr" v="11606" />
	</node>
	<node id="-559666" lat="62.3436916692" lon="5.65013055837">
		<tag k="fixme" v="consider natural=peak for the most distinct mountains in the district" />
		<tag k="name" v="Hornseten" />
		<tag k="natural" v="hill" />
		<tag k="place" v="locality" />
		<tag k="ssr:stedsnr" v="11599" />
	</node>
	<node id="-559665" lat="62.2831222226" lon="5.37230278148">
		<tag k="bay" v="fjord" />
		<tag k="name" v="Flåværleia" />
		<tag k="natural" v="bay" />
		<tag k="ssr:stedsnr" v="11572" />
	</node>
	<node id="-559664" lat="62.2825277787" lon="5.64225833118">
		<tag k="fixme" v="consider natural=peak for the most distinct mountains in the district" />
		<tag k="name" v="Storehanen" />
		<tag k="natural" v="hill" />
		<tag k="place" v="locality" />
		<tag k="ssr:stedsnr" v="11531" />
	</node>
	<node id="-559663" lat="62.2408833366" lon="5.81046944935">
		<tag k="name" v="Kleppeneset" />
		<tag k="natural" v="cape" />
		<tag k="ssr:stedsnr" v="11134" />
	</node>
	<node id="-559662" lat="62.2408313843" lon="5.78636627386">
		<tag k="fixme" v="consider place=hamlet" />
		<tag k="name" v="Raudvika" />
		<tag k="place" v="farm" />
		<tag k="ssr:stedsnr" v="11135" />
	</node>
	<node id="-559661" lat="62.3011749966" lon="5.4897333257">
		<tag k="bay" v="fjord" />
		<tag k="name" v="Herøyfjorden" />
		<tag k="natural" v="bay" />
		<tag k="ssr:stedsnr" v="10560" />
	</node>
	<node id="-559660" lat="62.3104527792" lon="5.51879445383">
		<tag k="alt_name" v="Ekneskjera, store" />
		<tag k="fixme" v="consider seamark:type=rock or natural=shoal" />
		<tag k="name" v="Store Ekneskjera" />
		<tag k="place" v="islet" />
		<tag k="ssr:stedsnr" v="10559" />
	</node>
	<node id="-559658" lat="62.2515638883" lon="5.73625278287">
		<tag k="alt_name" v="Slettheiane" />
		<tag k="name" v="Sletteheidane" />
		<tag k="natural" v="hill" />
		<tag k="place" v="locality" />
		<tag k="ssr:stedsnr" v="10206" />
	</node>
	<node id="-559657" lat="62.2705138854" lon="5.81485276964">
		<tag k="name" v="Makrellvågen" />
		<tag k="natural" v="bay" />
		<tag k="ssr:stedsnr" v="10179" />
	</node>
	<node id="-559656" lat="62.2562222219" lon="5.80514444136">
		<tag k="alt_name" v="Nykreimsholmane" />
		<tag k="name" v="Nykreimsholmen" />
		<tag k="place" v="islet" />
		<tag k="ssr:stedsnr" v="10168" />
	</node>
	<node id="-559655" lat="62.264424996" lon="5.79847500516">
		<tag k="name" v="Haukenes" />
		<tag k="place" v="farm" />
		<tag k="ssr:stedsnr" v="10167" />
	</node>
	<node id="-559654" lat="62.3570295884" lon="5.73172267225">
		<tag k="name" v="Kalen" />
		<tag k="natural" v="hill" />
		<tag k="place" v="locality" />
		<tag k="ssr:stedsnr" v="991249" />
	</node>
	<node id="-559653" lat="62.3132100343" lon="5.60149519029">
		<tag k="fixme" v="consider place=hamlet" />
		<tag k="name" v="Flåværet" />
		<tag k="place" v="farm" />
		<tag k="ssr:stedsnr" v="982622" />
	</node>
	<node id="-559652" lat="62.2805307193" lon="5.73087583024">
		<tag k="alt_name" v="Tjørvågane" />
		<tag k="fixme" v="consider place=hamlet" />
		<tag k="name" v="Tjørvåg" />
		<tag k="place" v="farm" />
		<tag k="ssr:stedsnr" v="982619" />
	</node>
	<node id="-559651" lat="62.2951450998" lon="5.76600655303">
		<tag k="alt_name" v="Bentholmen" />
		<tag k="name" v="Kvitøya" />
		<tag k="place" v="locality" />
		<tag k="ssr:stedsnr" v="982602" />
	</node>
	<node id="-559649" lat="62.2916877527" lon="5.78656828713">
		<tag k="name" v="Kristofferholmen" />
		<tag k="place" v="locality" />
		<tag k="ssr:stedsnr" v="982599" />
	</node>
	<node id="-559648" lat="62.3174036967" lon="5.72305721267">
		<tag k="name" v="Blankholmen" />
		<tag k="place" v="locality" />
		<tag k="ssr:stedsnr" v="982598" />
	</node>
	<node id="-559647" lat="62.3143954586" lon="5.70574448141">
		<tag k="name" v="Jensholmen" />
		<tag k="place" v="locality" />
		<tag k="ssr:stedsnr" v="982597" />
	</node>
	<node id="-559646" lat="62.3136999627" lon="5.69495889729">
		<tag k="name" v="Petterholmen" />
		<tag k="place" v="locality" />
		<tag k="ssr:stedsnr" v="982596" />
	</node>
	<node id="-559645" lat="62.3092350987" lon="5.68619205074">
		<tag k="fixme" v="consider place=hamlet" />
		<tag k="name" v="Nautøya" />
		<tag k="place" v="farm" />
		<tag k="ssr:stedsnr" v="982594" />
	</node>
	<node id="-559644" lat="62.3137377376" lon="5.67871482542">
		<tag k="fixme" v="consider place=hamlet" />
		<tag k="name" v="Herøy" />
		<tag k="place" v="farm" />
		<tag k="ssr:stedsnr" v="982593" />
	</node>
	<node id="-559643" lat="62.324845344" lon="5.64163262096">
		<tag k="fixme" v="consider place=hamlet" />
		<tag k="name" v="Eggesbø" />
		<tag k="place" v="farm" />
		<tag k="ssr:stedsnr" v="982591" />
	</node>
	<node id="-559642" lat="62.3317780229" lon="5.63752870997">
		<tag k="fixme" v="consider place=hamlet" />
		<tag k="name" v="Myklebust" />
		<tag k="place" v="farm" />
		<tag k="ssr:stedsnr" v="982589" />
	</node>
	<node id="-559641" lat="62.3381552587" lon="5.64188239246">
		<tag k="name" v="Fosnavåg" />
		<tag k="place" v="hamlet" />
		<tag k="ssr:stedsnr" v="982557" />
	</node>
	<node id="-559640" lat="62.328535052" lon="5.66199796714">
		<tag k="name" v="Monsholmen" />
		<tag k="place" v="islet" />
		<tag k="ssr:stedsnr" v="982556" />
	</node>
	<node id="-559639" lat="62.3443084241" lon="5.6944221114">
		<tag k="name" v="Leine" />
		<tag k="place" v="hamlet" />
		<tag k="ssr:stedsnr" v="982552" />
	</node>
	<node id="-559637" lat="62.3906590077" lon="5.6411803437">
		<tag k="fixme" v="consider place=hamlet" />
		<tag k="name" v="Runde" />
		<tag k="place" v="farm" />
		<tag k="ssr:stedsnr" v="982546" />
	</node>
	<node id="-559636" lat="62.5833333339" lon="5.22916665939">
		<tag k="name" v="Vestre Kroken" />
		<tag k="place" v="locality" />
		<tag k="ssr:stedsnr" v="709663" />
	</node>
	<node id="-559635" lat="62.5533333343" lon="5.48333334065">
		<tag k="name" v="Flåskallen" />
		<tag k="place" v="locality" />
		<tag k="ssr:stedsnr" v="709665" />
	</node>
	<node id="-559634" lat="62.6033333359" lon="5.23333333668">
		<tag k="name" v="Barmeggene" />
		<tag k="place" v="locality" />
		<tag k="ssr:stedsnr" v="345652" />
	</node>
	<node id="-559633" lat="62.5861111095" lon="5.49444444562">
		<tag k="name" v="Klovegrunnen" />
		<tag k="natural" v="shoal" />
		<tag k="place" v="locality" />
		<tag k="ssr:stedsnr" v="285662" />
	</node>
	<node id="-559632" lat="62.3749999961" lon="5.21666666241">
		<tag k="name" v="Mulegrunnen" />
		<tag k="natural" v="shoal" />
		<tag k="place" v="locality" />
		<tag k="ssr:stedsnr" v="285661" />
	</node>
	<node id="-559631" lat="65.8915673815" lon="12.2048023998">
		<tag k="name" v="Sanderøya" />
		<tag k="place" v="locality" />
		<tag k="ssr:stedsnr" v="1072368" />
	</node>
	<node id="-559630" lat="62.2956361158" lon="5.78295556465">
		<tag k="bridge" v="yes" />
		<tag k="layer" v="1" />
		<tag k="name" v="Moltubrua" />
		<tag k="ssr:stedsnr" v="895876" />
	</node>
	<node id="-559629" lat="62.2443388859" lon="5.78197500987">
		<tag k="bridge" v="yes" />
		<tag k="layer" v="1" />
		<tag k="name" v="Gamle Øyrabrua" />
		<tag k="ssr:stedsnr" v="895871" />
	</node>
	<node id="-559628" lat="62.3278333359" lon="5.66412778699">
		<tag k="bridge" v="yes" />
		<tag k="layer" v="1" />
		<tag k="name" v="Gjertnesgangbrua" />
		<tag k="ssr:stedsnr" v="895635" />
	</node>
	<node id="-559627" lat="62.3393403184" lon="5.52141948314">
		<tag k="name" v="Skorpesund" />
		<tag k="place" v="locality" />
		<tag k="ssr:stedsnr" v="888323" />
	</node>
	<node id="-559626" lat="62.3318138884" lon="5.69604722225">
		<tag k="name" v="Kruna" />
		<tag k="natural" v="hill" />
		<tag k="place" v="locality" />
		<tag k="ssr:stedsnr" v="887752" />
	</node>
	<node id="-559625" lat="62.3614527745" lon="5.70115278241">
		<tag k="name" v="Samundskaret" />
		<tag k="natural" v="valley" />
		<tag k="place" v="locality" />
		<tag k="ssr:stedsnr" v="887743" />
	</node>
	<node id="-559624" lat="62.3647944457" lon="5.66946388182">
		<tag k="name" v="Køyla" />
		<tag k="natural" v="bay" />
		<tag k="ssr:stedsnr" v="887738" />
	</node>
	<node id="-559623" lat="62.4089694432" lon="5.59005000419">
		<tag k="name" v="Storemyr" />
		<tag k="natural" v="wetland" />
		<tag k="ssr:stedsnr" v="887737" />
	</node>
	<node id="-559622" lat="62.2315222226" lon="5.77792778531">
		<tag k="name" v="Kringlemyrane" />
		<tag k="natural" v="wetland" />
		<tag k="ssr:stedsnr" v="887722" />
	</node>
	<node id="-559621" lat="62.2239694462" lon="5.78259166684">
		<tag k="name" v="Furehaugen" />
		<tag k="natural" v="hill" />
		<tag k="place" v="locality" />
		<tag k="ssr:stedsnr" v="887721" />
	</node>
	<node id="-559620" lat="62.2793305555" lon="5.76232778175">
		<tag k="name" v="Aspevikvatnet" />
		<tag k="natural" v="water" />
		<tag k="ssr:stedsnr" v="887719" />
		<tag k="water" v="lake" />
	</node>
	<node id="-559619" lat="62.2321333291" lon="5.83965556179">
		<tag k="name" v="Djupsundet" />
		<tag k="natural" v="strait" />
		<tag k="ssr:stedsnr" v="887717" />
	</node>
	<node id="-559618" lat="62.2777083309" lon="5.65495554792">
		<tag k="name" v="Selsteinstrupen" />
		<tag k="natural" v="valley" />
		<tag k="place" v="locality" />
		<tag k="ssr:stedsnr" v="887709" />
	</node>
	<node id="-559617" lat="62.2456222255" lon="5.71169722115">
		<tag k="name" v="Kråa" />
		<tag k="natural" v="valley" />
		<tag k="place" v="locality" />
		<tag k="ssr:stedsnr" v="887667" />
	</node>
	<node id="-559616" lat="62.2871277787" lon="5.63336389114">
		<tag k="name" v="Kvia" />
		<tag k="place" v="isolated_dwelling" />
		<tag k="ssr:stedsnr" v="887666" />
	</node>
	<node id="-559615" lat="62.2977638913" lon="5.65629165792">
		<tag k="name" v="Legemyra" />
		<tag k="natural" v="wetland" />
		<tag k="ssr:stedsnr" v="887664" />
	</node>
	<node id="-559614" lat="62.3305555526" lon="5.67607500425">
		<tag k="alt_name" v="Krøkholmane" />
		<tag k="name" v="Skinholmane" />
		<tag k="place" v="islet" />
		<tag k="ssr:stedsnr" v="887357" />
	</node>
	<node id="-559613" lat="62.2754944439" lon="5.70669722242">
		<tag k="name" v="Koppebakkane" />
		<tag k="natural" v="slope" />
		<tag k="place" v="locality" />
		<tag k="ssr:stedsnr" v="887337" />
	</node>
	<node id="-559612" lat="62.2640916669" lon="5.63372500426">
		<tag k="name" v="Trollskaret" />
		<tag k="natural" v="valley" />
		<tag k="place" v="locality" />
		<tag k="ssr:stedsnr" v="887331" />
	</node>
	<node id="-559611" lat="62.2881749976" lon="5.75732500452">
		<tag k="name" v="Saudeholmen" />
		<tag k="place" v="islet" />
		<tag k="ssr:stedsnr" v="887329" />
	</node>
	<node id="-559610" lat="62.2587555588" lon="5.73573889804">
		<tag k="name" v="Lausmylktehamrane" />
		<tag k="natural" v="cliff" />
		<tag k="ssr:stedsnr" v="887327" />
	</node>
	<node id="-559609" lat="62.2854083369" lon="5.68358055284">
		<tag k="name" v="Litle Øyravatnet" />
		<tag k="natural" v="water" />
		<tag k="ssr:stedsnr" v="887273" />
	</node>
	<node id="-559608" lat="62.3117611101" lon="5.59956666346">
		<tag k="name" v="Vågsholmen" />
		<tag k="place" v="islet" />
		<tag k="ssr:stedsnr" v="887265" />
	</node>
	<node id="-559607" lat="62.3407861096" lon="5.60584444797">
		<tag k="alt_name" v="Øyra" />
		<tag k="name" v="Kvalsundøyra" />
		<tag k="natural" v="shoal" />
		<tag k="place" v="locality" />
		<tag k="ssr:stedsnr" v="887257" />
	</node>
	<node id="-559606" lat="62.3522166701" lon="5.69584444291">
		<tag k="name" v="Storekinna" />
		<tag k="natural" v="hill" />
		<tag k="place" v="locality" />
		<tag k="ssr:stedsnr" v="886320" />
	</node>
	<node id="-559605" lat="62.371738887" lon="5.54513333284">
		<tag k="name" v="Måsefjellet" />
		<tag k="natural" v="hill" />
		<tag k="place" v="locality" />
		<tag k="ssr:stedsnr" v="886318" />
	</node>
	<node id="-559604" lat="62.3312777812" lon="5.37460555815">
		<tag k="name" v="Fauskefluda" />
		<tag k="natural" v="shoal" />
		<tag k="place" v="locality" />
		<tag k="ssr:stedsnr" v="476781" />
	</node>
	<node id="-559603" lat="62.2425720096" lon="5.78464985561">
		<tag k="fixme" v="consider place=hamlet" />
		<tag k="name" v="Leikongstranda" />
		<tag k="place" v="farm" />
		<tag k="ssr:stedsnr" v="476778" />
	</node>
	<node id="-559602" lat="62.3083861116" lon="5.56755277101">
		<tag k="name" v="Blomrokkene" />
		<tag k="natural" v="shoal" />
		<tag k="place" v="locality" />
		<tag k="ssr:stedsnr" v="476714" />
	</node>
	<node id="-559601" lat="62.324363886" lon="5.72964722078">
		<tag k="name" v="Myrane" />
		<tag k="place" v="farm" />
		<tag k="ssr:stedsnr" v="476322" />
	</node>
	<node id="-559600" lat="62.3732055522" lon="5.70874999116">
		<tag k="fixme" v="consider seamark:type=rock or natural=shoal" />
		<tag k="name" v="Snagane" />
		<tag k="place" v="islet" />
		<tag k="ssr:stedsnr" v="476249" />
	</node>
	<node id="-559599" lat="62.3768861129" lon="5.72382500178">
		<tag k="fixme" v="consider seamark:type=rock or natural=shoal" />
		<tag k="name" v="Ingridskjeret" />
		<tag k="place" v="islet" />
		<tag k="ssr:stedsnr" v="476248" />
	</node>
	<node id="-559598" lat="62.2846768375" lon="5.7958614955">
		<tag k="alt_name" v="Myrvågnes" />
		<tag k="fixme" v="consider place=hamlet" />
		<tag k="name" v="Myrvågneset" />
		<tag k="place" v="farm" />
		<tag k="ssr:stedsnr" v="254111" />
	</node>
	<node id="-559597" lat="62.2852500032" lon="5.81529999625">
		<tag k="fixme" v="consider natural=peak for the most distinct mountains in the district" />
		<tag k="name" v="Rambjøra" />
		<tag k="natural" v="hill" />
		<tag k="place" v="locality" />
		<tag k="ssr:stedsnr" v="254109" />
	</node>
	<node id="-559596" lat="62.3074138874" lon="5.71236111562">
		<tag k="bridge" v="yes" />
		<tag k="layer" v="1" />
		<tag k="name" v="Stokksundbrua" />
		<tag k="ssr:stedsnr" v="410869" />
	</node>
	<node id="-559595" lat="62.3411888895" lon="5.60330832925">
		<tag k="bridge" v="yes" />
		<tag k="layer" v="1" />
		<tag k="name" v="Nerlandsøybrua" />
		<tag k="ssr:stedsnr" v="409432" />
	</node>
	<node id="-559594" lat="62.2784027784" lon="5.79762500808">
		<tag k="alt_name" v="Myrvågane" />
		<tag k="name" v="Myrvåg" />
		<tag k="place" v="hamlet" />
		<tag k="ssr:stedsnr" v="404127" />
	</node>
	<node id="-559593" lat="62.326411664" lon="5.66351056723">
		<tag k="fixme" v="consider place=hamlet" />
		<tag k="name" v="Hjertnes" />
		<tag k="place" v="farm" />
		<tag k="ssr:stedsnr" v="402833" />
	</node>
	<node id="-559592" lat="62.3914361108" lon="5.61754723">
		<tag k="name" v="Tripevatnet" />
		<tag k="natural" v="water" />
		<tag k="ssr:stedsnr" v="402394" />
	</node>
	<node id="-559591" lat="62.3453666685" lon="5.5227277793">
		<tag k="name" v="Hellefjellet" />
		<tag k="natural" v="hill" />
		<tag k="place" v="locality" />
		<tag k="ssr:stedsnr" v="402389" />
	</node>
	<node id="-559590" lat="62.3990138875" lon="5.62920000622">
		<tag k="name" v="Austefjellet" />
		<tag k="natural" v="slope" />
		<tag k="place" v="locality" />
		<tag k="ssr:stedsnr" v="402385" />
	</node>
	<node id="-559589" lat="62.3427805555" lon="5.67690833395">
		<tag k="name" v="Straumen" />
		<tag k="natural" v="strait" />
		<tag k="ssr:stedsnr" v="401732" />
	</node>
	<node id="-559588" lat="62.3644999995" lon="5.52277500641">
		<tag k="name" v="Nyklane" />
		<tag k="natural" v="ridge" />
		<tag k="place" v="locality" />
		<tag k="ssr:stedsnr" v="401728" />
	</node>
	<node id="-559587" lat="62.2463777759" lon="5.79314722433">
		<tag k="alt_name" v="Leikongbukta" />
		<tag k="name" v="Leikongvika" />
		<tag k="natural" v="bay" />
		<tag k="ssr:stedsnr" v="401716" />
	</node>
	<node id="-559586" lat="62.270686107" lon="5.80675277827">
		<tag k="name" v="Litlemyra" />
		<tag k="natural" v="wetland" />
		<tag k="ssr:stedsnr" v="401710" />
	</node>
	<node id="-559585" lat="62.2933888887" lon="5.62015277796">
		<tag k="name" v="Moltumyra" />
		<tag k="place" v="farm" />
		<tag k="ssr:stedsnr" v="401639" />
	</node>
	<node id="-559584" lat="62.2805999993" lon="5.76507777486">
		<tag k="name" v="Aspevika" />
		<tag k="place" v="farm" />
		<tag k="ssr:stedsnr" v="401637" />
	</node>
	<node id="-559583" lat="62.2952972231" lon="5.72854167327">
		<tag k="alt_name" v="Raftesetfjelet" />
		<tag k="name" v="Raftesethaugen" />
		<tag k="natural" v="hill" />
		<tag k="place" v="locality" />
		<tag k="ssr:stedsnr" v="401294" />
	</node>
	<node id="-559582" lat="62.2898972252" lon="5.73540554958">
		<tag k="name" v="Kremarvika" />
		<tag k="natural" v="bay" />
		<tag k="ssr:stedsnr" v="401292" />
	</node>
	<node id="-559581" lat="62.2874472196" lon="5.64269444755">
		<tag k="fixme" v="consider natural=peak for the most distinct mountains in the district" />
		<tag k="name" v="Moltuhanen" />
		<tag k="natural" v="hill" />
		<tag k="place" v="locality" />
		<tag k="ssr:stedsnr" v="401246" />
	</node>
	<node id="-559580" lat="62.3240138906" lon="5.65563334148">
		<tag k="name" v="Stridestraumen" />
		<tag k="natural" v="strait" />
		<tag k="ssr:stedsnr" v="401173" />
	</node>
	<node id="-559579" lat="62.2937908711" lon="5.63557354626">
		<tag k="fixme" v="consider place=hamlet" />
		<tag k="name" v="Moltu" />
		<tag k="place" v="farm" />
		<tag k="ssr:stedsnr" v="393234" />
	</node>
	<node id="-559578" lat="62.3379666689" lon="5.74652499126">
		<tag k="name" v="Torvikholmane" />
		<tag k="place" v="islet" />
		<tag k="ssr:stedsnr" v="375798" />
	</node>
	<node id="-559577" lat="62.3500371564" lon="5.55697046645">
		<tag k="fixme" v="multiple name tags, choose one and add the other to alt_name; consider natural=peak for the most distinct mountains in the district" />
		<tag k="name" v="Storevarden;Varden" />
		<tag k="natural" v="hill" />
		<tag k="ssr:stedsnr" v="375654" />
	</node>
	<node id="-559576" lat="62.367847226" lon="5.56014999429">
		<tag k="fixme" v="consider seamark:type=rock or natural=shoal" />
		<tag k="name" v="Rogneskjera" />
		<tag k="place" v="islet" />
		<tag k="ssr:stedsnr" v="375619" />
	</node>
	<node id="-559575" lat="62.3472666698" lon="5.68681110761">
		<tag k="fixme" v="consider place=hamlet" />
		<tag k="loc_name" v="Leinstrand" />
		<tag k="name" v="Leine" />
		<tag k="place" v="village" />
		<tag k="ssr:stedsnr" v="375571" />
	</node>
	<node id="-559573" lat="62.3291388852" lon="5.26906665778">
		<tag k="name" v="Skarvehammaren" />
		<tag k="natural" v="cape" />
		<tag k="ssr:stedsnr" v="375557" />
	</node>
	<node id="-559572" lat="62.3356944461" lon="5.63639443506">
		<tag k="amenity" v="place_of_worship" />
		<tag k="denomination" v="lutheran" />
		<tag k="name" v="Herøy" />
		<tag k="religion" v="christian" />
		<tag k="ssr:stedsnr" v="375548" />
	</node>
	<node id="-559571" lat="62.3296666624" lon="5.53078610798">
		<tag k="name" v="Skageneset" />
		<tag k="natural" v="cape" />
		<tag k="ssr:stedsnr" v="375540" />
	</node>
	<node id="-559569" lat="62.327035441" lon="5.69754433331">
		<tag k="fixme" v="consider place=hamlet" />
		<tag k="name" v="Frøystadvågen" />
		<tag k="place" v="farm" />
		<tag k="ssr:stedsnr" v="375532" />
	</node>
	<node id="-559568" lat="62.2373277743" lon="5.84782223216">
		<tag k="name" v="Fureholmane" />
		<tag k="place" v="islet" />
		<tag k="ssr:stedsnr" v="375135" />
	</node>
	<node id="-559567" lat="62.2812333296" lon="5.74788889191">
		<tag k="name" v="Tuftevatnet" />
		<tag k="natural" v="water" />
		<tag k="ssr:stedsnr" v="375115" />
	</node>
	<node id="-559566" lat="62.3544083319" lon="5.73389443912">
		<tag k="name" v="Bølandet" />
		<tag k="natural" v="cape" />
		<tag k="ssr:stedsnr" v="374885" />
	</node>
	<node id="-559565" lat="62.4623000017" lon="5.67862500933">
		<tag k="name" v="Lågebarmskallane" />
		<tag k="natural" v="shoal" />
		<tag k="place" v="locality" />
		<tag k="ssr:stedsnr" v="374682" />
	</node>
	<node id="-559564" lat="62.4232444445" lon="5.5734194425">
		<tag k="name" v="Rundabrandane" />
		<tag k="natural" v="shoal" />
		<tag k="place" v="locality" />
		<tag k="ssr:stedsnr" v="374679" />
	</node>
	<node id="-559563" lat="62.402730553" lon="5.42716665863">
		<tag k="name" v="Flønesgrynnene" />
		<tag k="natural" v="shoal" />
		<tag k="place" v="locality" />
		<tag k="ssr:stedsnr" v="374663" />
	</node>
	<node id="-559562" lat="62.4006194411" lon="5.62416944929">
		<tag k="name" v="Runde" />
		<tag k="place" v="island" />
		<tag k="ssr:stedsnr" v="374656" />
	</node>
	<node id="-559561" lat="62.3681861149" lon="5.61540000518">
		<tag k="name" v="Arefjellsvika" />
		<tag k="natural" v="bay" />
		<tag k="ssr:stedsnr" v="374628" />
	</node>
	<node id="-559560" lat="62.3621888904" lon="5.42420000033">
		<tag k="name" v="Søre Gubben" />
		<tag k="natural" v="shoal" />
		<tag k="place" v="locality" />
		<tag k="ssr:stedsnr" v="374615" />
	</node>
	<node id="-559559" lat="62.3542833351" lon="5.54298610942">
		<tag k="name" v="Fosseelva" />
		<tag k="ssr:stedsnr" v="374608" />
		<tag k="waterway" v="stream" />
	</node>
	<node id="-559558" lat="62.2474722231" lon="5.69473333325">
		<tag k="name" v="Sædalen" />
		<tag k="natural" v="valley" />
		<tag k="place" v="locality" />
		<tag k="ssr:stedsnr" v="374574" />
	</node>
	<node id="-559557" lat="62.3109388903" lon="5.61080000386">
		<tag k="name" v="Kvalen" />
		<tag k="place" v="islet" />
		<tag k="ssr:stedsnr" v="374537" />
	</node>
	<node id="-559556" lat="62.3010972191" lon="5.61210278121">
		<tag k="name" v="Langholmane" />
		<tag k="place" v="islet" />
		<tag k="ssr:stedsnr" v="374531" />
	</node>
	<node id="-559555" lat="62.3018222253" lon="5.67224167142">
		<tag k="fixme" v="consider seamark:type=rock or natural=shoal" />
		<tag k="name" v="Notaskjeret" />
		<tag k="place" v="islet" />
		<tag k="ssr:stedsnr" v="374529" />
	</node>
	<node id="-559554" lat="62.3068500044" lon="5.69915833556">
		<tag k="alt_name" v="Klomraholmen" />
		<tag k="name" v="Klombraholmen" />
		<tag k="place" v="islet" />
		<tag k="ssr:stedsnr" v="374527" />
	</node>
	<node id="-559553" lat="62.2984277734" lon="5.67271389127">
		<tag k="name" v="Ryssevika" />
		<tag k="natural" v="bay" />
		<tag k="ssr:stedsnr" v="374526" />
	</node>
	<node id="-559552" lat="62.2941804144" lon="5.58232399272">
		<tag k="fixme" v="consider place=hamlet" />
		<tag k="name" v="Løset" />
		<tag k="place" v="farm" />
		<tag k="ssr:stedsnr" v="374521" />
	</node>
	<node id="-559551" lat="62.2786083362" lon="5.82969444465">
		<tag k="name" v="Tua" />
		<tag k="place" v="farm" />
		<tag k="ssr:stedsnr" v="374207" />
	</node>
	<node id="-559550" lat="62.2721166702" lon="5.73842221523">
		<tag k="fixme" v="consider natural=peak for the most distinct mountains in the district" />
		<tag k="name" v="Nakken" />
		<tag k="natural" v="hill" />
		<tag k="place" v="locality" />
		<tag k="ssr:stedsnr" v="374147" />
	</node>
	<node id="-559549" lat="62.322722219" lon="5.50392777722">
		<tag k="fixme" v="consider seamark:type=rock or natural=shoal" />
		<tag k="name" v="Kobbestein" />
		<tag k="place" v="islet" />
		<tag k="ssr:stedsnr" v="360956" />
	</node>
	<node id="-559548" lat="62.3046083363" lon="5.46604999146">
		<tag k="name" v="Godøyfludgrunnen" />
		<tag k="natural" v="shoal" />
		<tag k="place" v="locality" />
		<tag k="ssr:stedsnr" v="355748" />
	</node>
	<node id="-559547" lat="62.3297416658" lon="5.57429167174">
		<tag k="name" v="Nordre Skallen" />
		<tag k="natural" v="shoal" />
		<tag k="place" v="locality" />
		<tag k="ssr:stedsnr" v="355686" />
	</node>
	<node id="-559546" lat="62.2809875813" lon="5.73998615011">
		<tag k="alt_name" v="Arehaug" />
		<tag k="name" v="Arehaugen" />
		<tag k="natural" v="hill" />
		<tag k="place" v="locality" />
		<tag k="ssr:stedsnr" v="355358" />
	</node>
	<node id="-559545" lat="62.3268638863" lon="5.73816389663">
		<tag k="name" v="Skarveneset" />
		<tag k="natural" v="cape" />
		<tag k="ssr:stedsnr" v="355312" />
	</node>
	<node id="-559544" lat="62.3228555521" lon="5.68645000458">
		<tag k="name" v="Vågsnes" />
		<tag k="place" v="farm" />
		<tag k="ssr:stedsnr" v="355290" />
	</node>
	<node id="-559543" lat="62.3683499966" lon="5.60511111043">
		<tag k="name" v="Hestefluda" />
		<tag k="natural" v="shoal" />
		<tag k="place" v="locality" />
		<tag k="ssr:stedsnr" v="355217" />
	</node>
	<node id="-559542" lat="62.3308277755" lon="5.65995277006">
		<tag k="name" v="Monsholmen" />
		<tag k="place" v="locality" />
		<tag k="ssr:stedsnr" v="354443" />
	</node>
	<node id="-559541" lat="62.4019749998" lon="5.63609999995">
		<tag k="layer" v="-1" />
		<tag k="name" v="Goksøytunnelen" />
		<tag k="ssr:stedsnr" v="349701" />
		<tag k="tunnel" v="yes" />
	</node>
	<node id="-559540" lat="62.3553694465" lon="5.57984443844">
		<tag k="bridge" v="yes" />
		<tag k="layer" v="1" />
		<tag k="name" v="Kvalsvikstrandbrua" />
		<tag k="ssr:stedsnr" v="348765" />
	</node>
	<node id="-559539" lat="62.2571750041" lon="5.77423054952">
		<tag k="name" v="Trongedalen" />
		<tag k="natural" v="valley" />
		<tag k="place" v="locality" />
		<tag k="ssr:stedsnr" v="341778" />
	</node>
	<node id="-559538" lat="62.4003388904" lon="5.64805832655">
		<tag k="name" v="Kløfjellet" />
		<tag k="natural" v="hill" />
		<tag k="place" v="locality" />
		<tag k="ssr:stedsnr" v="341387" />
	</node>
	<node id="-559537" lat="62.2787444411" lon="5.69111110642">
		<tag k="name" v="Tjørvågfjellet" />
		<tag k="natural" v="slope" />
		<tag k="place" v="locality" />
		<tag k="ssr:stedsnr" v="341360" />
	</node>
	<node id="-559536" lat="62.3762333349" lon="5.629438885">
		<tag k="name" v="Gjøttane" />
		<tag k="natural" v="hill" />
		<tag k="place" v="locality" />
		<tag k="ssr:stedsnr" v="340737" />
	</node>
	<node id="-559535" lat="62.3797388884" lon="5.62730832773">
		<tag k="name" v="Bollen" />
		<tag k="place" v="islet" />
		<tag k="ssr:stedsnr" v="340735" />
	</node>
	<node id="-559534" lat="62.3546111121" lon="5.60927777941">
		<tag k="name" v="Pessa" />
		<tag k="place" v="islet" />
		<tag k="ssr:stedsnr" v="340734" />
	</node>
	<node id="-559533" lat="62.3725000005" lon="5.54786388251">
		<tag k="name" v="Seideskaret" />
		<tag k="natural" v="valley" />
		<tag k="place" v="locality" />
		<tag k="ssr:stedsnr" v="340693" />
	</node>
	<node id="-559532" lat="62.3051500019" lon="5.71403889734">
		<tag k="name" v="Rafteneset" />
		<tag k="natural" v="cape" />
		<tag k="ssr:stedsnr" v="340689" />
	</node>
	<node id="-559531" lat="62.2416722262" lon="5.78943054835">
		<tag k="name" v="Raudvika" />
		<tag k="natural" v="bay" />
		<tag k="ssr:stedsnr" v="340648" />
	</node>
	<node id="-559530" lat="62.3301833331" lon="5.59902221567">
		<tag k="name" v="Mjeltevika" />
		<tag k="natural" v="bay" />
		<tag k="ssr:stedsnr" v="340349" />
	</node>
	<node id="-559529" lat="62.3525277772" lon="5.74438334071">
		<tag k="name" v="Stabelvika" />
		<tag k="natural" v="bay" />
		<tag k="ssr:stedsnr" v="340319" />
	</node>
	<node id="-559528" lat="62.3584555518" lon="5.74878056273">
		<tag k="name" v="Bøskjæret" />
		<tag k="place" v="islet" />
		<tag k="ssr:stedsnr" v="340317" />
	</node>
	<node id="-559527" lat="62.3312555532" lon="5.54416666852">
		<tag k="name" v="Kistevika" />
		<tag k="natural" v="bay" />
		<tag k="ssr:stedsnr" v="340290" />
	</node>
	<node id="-559526" lat="62.2899750024" lon="5.79270000847">
		<tag k="alt_name" v="Risneset" />
		<tag k="name" v="Rissneset" />
		<tag k="natural" v="cape" />
		<tag k="ssr:stedsnr" v="340287" />
	</node>
	<node id="-559525" lat="62.2912388928" lon="5.66180277033">
		<tag k="name" v="Dyrhalsen" />
		<tag k="natural" v="valley" />
		<tag k="place" v="locality" />
		<tag k="ssr:stedsnr" v="340274" />
	</node>
	<node id="-559523" lat="62.2995083369" lon="5.60882778487">
		<tag k="name" v="Langholmen" />
		<tag k="place" v="islet" />
		<tag k="ssr:stedsnr" v="90203" />
	</node>
	<node id="-559522" lat="62.3464916661" lon="5.72275277588">
		<tag k="fixme" v="consider natural=peak for the most distinct mountains in the district" />
		<tag k="name" v="Sollida" />
		<tag k="natural" v="hill" />
		<tag k="place" v="locality" />
		<tag k="ssr:stedsnr" v="314851" />
	</node>
	<node id="-559521" lat="62.3632333335" lon="5.73635832874">
		<tag k="name" v="Heglakinna" />
		<tag k="natural" v="hill" />
		<tag k="place" v="locality" />
		<tag k="ssr:stedsnr" v="314847" />
	</node>
	<node id="-559520" lat="62.3251416653" lon="5.73450555209">
		<tag k="alt_name" v="Røyra, ytre" />
		<tag k="name" v="Ytre Røyra" />
		<tag k="place" v="farm" />
		<tag k="ssr:stedsnr" v="314778" />
	</node>
	<node id="-559519" lat="62.2938194476" lon="5.72327778388">
		<tag k="fixme" v="consider natural=peak for the most distinct mountains in the district" />
		<tag k="name" v="Skåla" />
		<tag k="natural" v="hill" />
		<tag k="place" v="locality" />
		<tag k="ssr:stedsnr" v="314772" />
	</node>
	<node id="-559518" lat="62.2941055593" lon="5.75078332594">
		<tag k="name" v="Lisjøya" />
		<tag k="place" v="islet" />
		<tag k="ssr:stedsnr" v="314771" />
	</node>
	<node id="-559517" lat="62.4303722187" lon="5.60096388154">
		<tag k="fixme" v="consider seamark:type=rock or natural=shoal" />
		<tag k="name" v="Storevoren" />
		<tag k="place" v="islet" />
		<tag k="ssr:stedsnr" v="314689" />
	</node>
	<node id="-559516" lat="62.4090232501" lon="5.59566650937">
		<tag k="alt_name" v="Storhaugen" />
		<tag k="name" v="Storehaugen" />
		<tag k="natural" v="hill" />
		<tag k="place" v="locality" />
		<tag k="ssr:stedsnr" v="314676" />
	</node>
	<node id="-559515" lat="62.3675444456" lon="5.51551666608">
		<tag k="name" v="Lyrevika" />
		<tag k="natural" v="bay" />
		<tag k="ssr:stedsnr" v="314671" />
	</node>
	<node id="-559514" lat="62.365472221" lon="5.61828055418">
		<tag k="name" v="Skrufjellsvika" />
		<tag k="natural" v="bay" />
		<tag k="ssr:stedsnr" v="314659" />
	</node>
	<node id="-559513" lat="62.3581111156" lon="5.52022777677">
		<tag k="name" v="Trosvika" />
		<tag k="natural" v="bay" />
		<tag k="ssr:stedsnr" v="314656" />
	</node>
	<node id="-559512" lat="62.3522000037" lon="5.57716111976">
		<tag k="name" v="Kalddalen" />
		<tag k="natural" v="valley" />
		<tag k="place" v="locality" />
		<tag k="ssr:stedsnr" v="314641" />
	</node>
	<node id="-559511" lat="62.3574916686" lon="5.67400277444">
		<tag k="fixme" v="consider place=hamlet" />
		<tag k="name" v="Volsund" />
		<tag k="place" v="village" />
		<tag k="ssr:stedsnr" v="314631" />
	</node>
	<node id="-559510" lat="62.354727775" lon="5.6678888816">
		<tag k="name" v="Volsundfjellet" />
		<tag k="natural" v="cape" />
		<tag k="ssr:stedsnr" v="314629" />
	</node>
	<node id="-559509" lat="62.3428638872" lon="5.56838611102">
		<tag k="name" v="Hestinghornet" />
		<tag k="natural" v="hill" />
		<tag k="place" v="locality" />
		<tag k="ssr:stedsnr" v="314623" />
	</node>
	<node id="-559508" lat="62.3479614151" lon="5.5976722197">
		<tag k="alt_name" v="Teige" />
		<tag k="fixme" v="consider place=hamlet" />
		<tag k="name" v="Teigane" />
		<tag k="place" v="farm" />
		<tag k="ssr:stedsnr" v="314621" />
	</node>
	<node id="-559507" lat="62.3437888914" lon="5.56400832434">
		<tag k="name" v="Vardemyra" />
		<tag k="natural" v="wetland" />
		<tag k="ssr:stedsnr" v="314622" />
	</node>
	<node id="-559506" lat="62.3204833373" lon="5.31009166924">
		<tag k="name" v="Klubbesnabben" />
		<tag k="natural" v="shoal" />
		<tag k="place" v="locality" />
		<tag k="ssr:stedsnr" v="314600" />
	</node>
	<node id="-559505" lat="62.3193222245" lon="5.57926111306">
		<tag k="name" v="Einmenningen" />
		<tag k="place" v="islet" />
		<tag k="ssr:stedsnr" v="314599" />
	</node>
	<node id="-559504" lat="62.314572225" lon="5.5933388812">
		<tag k="name" v="Kalveholmen" />
		<tag k="place" v="islet" />
		<tag k="ssr:stedsnr" v="314591" />
	</node>
	<node id="-559503" lat="62.3143333318" lon="5.60669166446">
		<tag k="name" v="Flatøya" />
		<tag k="place" v="islet" />
		<tag k="ssr:stedsnr" v="314590" />
	</node>
	<node id="-559502" lat="62.3115694416" lon="5.60385554707">
		<tag k="name" v="Torvholmen" />
		<tag k="place" v="islet" />
		<tag k="ssr:stedsnr" v="314586" />
	</node>
	<node id="-559501" lat="62.2909333301" lon="5.66621111443">
		<tag k="name" v="Svartelva" />
		<tag k="ssr:stedsnr" v="314566" />
		<tag k="waterway" v="stream" />
	</node>
	<node id="-559500" lat="62.2968722204" lon="5.66810000979">
		<tag k="name" v="Munkestranda" />
		<tag k="natural" v="beach" />
		<tag k="place" v="locality" />
		<tag k="ssr:stedsnr" v="314565" />
	</node>
	<node id="-559499" lat="62.2826000022" lon="5.61854165709">
		<tag k="fixme" v="multiple name tags, choose one and add the other to alt_name" />
		<tag k="name" v="Storeelva;Moltuelva" />
		<tag k="ssr:stedsnr" v="314560" />
		<tag k="waterway" v="stream" />
	</node>
	<node id="-559498" lat="62.2715000029" lon="5.80024723006">
		<tag k="name" v="Djupvikvatnet" />
		<tag k="natural" v="water" />
		<tag k="ssr:stedsnr" v="314199" />
	</node>
	<node id="-559497" lat="62.2278333371" lon="5.81061389416">
		<tag k="name" v="Jøsokstranda" />
		<tag k="natural" v="beach" />
		<tag k="place" v="locality" />
		<tag k="ssr:stedsnr" v="314198" />
	</node>
	<node id="-559496" lat="62.2480935584" lon="5.77487393159">
		<tag k="fixme" v="consider place=hamlet" />
		<tag k="name" v="Leikongbakken" />
		<tag k="place" v="farm" />
		<tag k="ssr:stedsnr" v="314170" />
	</node>
	<node id="-559495" lat="62.2832187317" lon="5.7308239035">
		<tag k="alt_name" v="Tjørvåg" />
		<tag k="fixme" v="consider place=hamlet" />
		<tag k="name" v="Tjørvågane" />
		<tag k="place" v="village" />
		<tag k="ssr:stedsnr" v="314160" />
	</node>
	<node id="-559494" lat="62.2532083324" lon="5.76503887968">
		<tag k="fixme" v="consider natural=peak for the most distinct mountains in the district" />
		<tag k="name" v="Bakkehornet" />
		<tag k="natural" v="hill" />
		<tag k="place" v="locality" />
		<tag k="ssr:stedsnr" v="314226" />
	</node>
	<node id="-559493" lat="62.2822361137" lon="5.83124166181">
		<tag k="name" v="Dragsundet" />
		<tag k="natural" v="strait" />
		<tag k="ssr:stedsnr" v="314209" />
	</node>
	<node id="-559492" lat="62.3523333371" lon="5.42531944848">
		<tag k="name" v="Hornbåfluda" />
		<tag k="natural" v="shoal" />
		<tag k="place" v="locality" />
		<tag k="ssr:stedsnr" v="295842" />
	</node>
	<node id="-559491" lat="62.4058361096" lon="5.568049992">
		<tag k="name" v="Hjortefluda" />
		<tag k="natural" v="shoal" />
		<tag k="place" v="locality" />
		<tag k="ssr:stedsnr" v="294912" />
	</node>
	<node id="-559490" lat="62.3425333348" lon="5.75548056169">
		<tag k="name" v="Båen" />
		<tag k="natural" v="shoal" />
		<tag k="place" v="locality" />
		<tag k="ssr:stedsnr" v="294353" />
	</node>
	<node id="-559489" lat="62.3045555591" lon="5.66775278095">
		<tag k="fixme" v="consider seamark:type=rock or natural=shoal" />
		<tag k="name" v="Kyrkjeskjeret" />
		<tag k="place" v="islet" />
		<tag k="ssr:stedsnr" v="294316" />
	</node>
	<node id="-559488" lat="62.3109083295" lon="5.71193888764">
		<tag k="name" v="Indre Tangen" />
		<tag k="natural" v="cape" />
		<tag k="ssr:stedsnr" v="294305" />
	</node>
	<node id="-559486" lat="62.3322194436" lon="5.68263332947">
		<tag k="name" v="Grønfjellsvika" />
		<tag k="natural" v="bay" />
		<tag k="ssr:stedsnr" v="281802" />
	</node>
	<node id="-559485" lat="62.3782527791" lon="5.62989444801">
		<tag k="name" v="Litlesteinvika" />
		<tag k="natural" v="bay" />
		<tag k="ssr:stedsnr" v="281390" />
	</node>
	<node id="-559484" lat="62.2993749958" lon="5.65207776934">
		<tag k="name" v="Hansvika" />
		<tag k="natural" v="bay" />
		<tag k="ssr:stedsnr" v="280760" />
	</node>
	<node id="-559483" lat="62.3603499998" lon="5.69389444519">
		<tag k="name" v="Litleskaret" />
		<tag k="natural" v="valley" />
		<tag k="place" v="locality" />
		<tag k="ssr:stedsnr" v="280757" />
	</node>
	<node id="-559482" lat="62.3599027773" lon="5.61422778659">
		<tag k="name" v="Vårhuda" />
		<tag k="place" v="islet" />
		<tag k="ssr:stedsnr" v="280753" />
	</node>
	<node id="-559481" lat="62.3707833365" lon="5.55583054867">
		<tag k="name" v="Bugen" />
		<tag k="natural" v="bay" />
		<tag k="ssr:stedsnr" v="280751" />
	</node>
	<node id="-559480" lat="62.3471611091" lon="5.51768055022">
		<tag k="name" v="Mulevika" />
		<tag k="natural" v="bay" />
		<tag k="ssr:stedsnr" v="280746" />
	</node>
	<node id="-559479" lat="62.2507666636" lon="5.75728611166">
		<tag k="name" v="Leikangerelva" />
		<tag k="ssr:stedsnr" v="280738" />
		<tag k="waterway" v="stream" />
	</node>
	<node id="-559478" lat="62.275177781" lon="5.82173333749">
		<tag k="name" v="Griseholmen" />
		<tag k="place" v="islet" />
		<tag k="ssr:stedsnr" v="280736" />
	</node>
	<node id="-559477" lat="62.2763666669" lon="5.81385000102">
		<tag k="name" v="Kvernavågen" />
		<tag k="natural" v="bay" />
		<tag k="ssr:stedsnr" v="280732" />
	</node>
	<node id="-559476" lat="62.234311113" lon="5.79615555005">
		<tag k="name" v="Kleppetjørnane" />
		<tag k="natural" v="water" />
		<tag k="ssr:stedsnr" v="280730" />
	</node>
	<node id="-559475" lat="62.2794638875" lon="5.81685000049">
		<tag k="name" v="Litlevatnet" />
		<tag k="natural" v="water" />
		<tag k="ssr:stedsnr" v="280731" />
	</node>
	<node id="-559474" lat="62.287116665" lon="5.82108889149">
		<tag k="name" v="Rambjørhammaren" />
		<tag k="natural" v="cliff" />
		<tag k="ssr:stedsnr" v="280726" />
	</node>
	<node id="-559473" lat="62.3639083349" lon="5.53349166497">
		<tag k="name" v="Storeleitet" />
		<tag k="natural" v="slope" />
		<tag k="place" v="locality" />
		<tag k="ssr:stedsnr" v="280712" />
	</node>
	<node id="-559472" lat="62.2906361134" lon="5.55937500081">
		<tag k="name" v="Løsetmølen" />
		<tag k="natural" v="beach" />
		<tag k="place" v="locality" />
		<tag k="ssr:stedsnr" v="280707" />
	</node>
	<node id="-559471" lat="62.2814093083" lon="5.73814924613">
		<tag k="name" v="Strynehaugen" />
		<tag k="natural" v="hill" />
		<tag k="place" v="locality" />
		<tag k="ssr:stedsnr" v="280702" />
	</node>
	<node id="-559470" lat="62.3674349171" lon="5.54548590446">
		<tag k="fixme" v="consider place=hamlet" />
		<tag k="name" v="Øvre Kvalsvik" />
		<tag k="place" v="farm" />
		<tag k="ssr:stedsnr" v="280654" />
	</node>
	<node id="-559469" lat="62.3680025001" lon="5.55150103959">
		<tag k="fixme" v="consider place=hamlet" />
		<tag k="name" v="Nedre Kvalsvik" />
		<tag k="place" v="farm" />
		<tag k="ssr:stedsnr" v="280652" />
	</node>
	<node id="-559468" lat="62.2335805554" lon="5.80724165827">
		<tag k="name" v="Gjerdet" />
		<tag k="place" v="farm" />
		<tag k="ssr:stedsnr" v="280650" />
	</node>
	<node id="-559467" lat="62.3370638857" lon="5.56107778311">
		<tag k="name" v="Skogshornhammaren" />
		<tag k="place" v="locality" />
		<tag k="ssr:stedsnr" v="280321" />
	</node>
	<node id="-559466" lat="62.3544277763" lon="5.57228888403">
		<tag k="name" v="Blåsvædet" />
		<tag k="natural" v="slope" />
		<tag k="place" v="locality" />
		<tag k="ssr:stedsnr" v="280314" />
	</node>
	<node id="-559465" lat="62.3634750034" lon="5.61201111808">
		<tag k="name" v="Brattholmen" />
		<tag k="place" v="islet" />
		<tag k="ssr:stedsnr" v="280310" />
	</node>
	<node id="-559464" lat="62.3548083339" lon="5.59427778431">
		<tag k="alt_name" v="Åndabøvika" />
		<tag k="name" v="Andabøvika" />
		<tag k="natural" v="bay" />
		<tag k="ssr:stedsnr" v="280305" />
	</node>
	<node id="-559463" lat="62.3575888902" lon="5.61306667386">
		<tag k="name" v="Trollholmen" />
		<tag k="place" v="islet" />
		<tag k="ssr:stedsnr" v="280304" />
	</node>
	<node id="-559462" lat="62.2771555589" lon="5.63273611802">
		<tag k="name" v="Brudabordet" />
		<tag k="place" v="locality" />
		<tag k="ssr:stedsnr" v="280300" />
	</node>
	<node id="-559461" lat="62.3012777816" lon="5.77065833619">
		<tag k="name" v="Kofteholmen" />
		<tag k="place" v="islet" />
		<tag k="ssr:stedsnr" v="280294" />
	</node>
	<node id="-559460" lat="62.2772083365" lon="5.77695833909">
		<tag k="name" v="Lidafjellet" />
		<tag k="natural" v="hill" />
		<tag k="place" v="locality" />
		<tag k="ssr:stedsnr" v="280286" />
	</node>
	<node id="-559459" lat="62.3553055575" lon="5.69163332653">
		<tag k="name" v="Fairebakkane" />
		<tag k="natural" v="slope" />
		<tag k="place" v="locality" />
		<tag k="ssr:stedsnr" v="280278" />
	</node>
	<node id="-559458" lat="62.2904194455" lon="5.59645555144">
		<tag k="name" v="Slettfjellet" />
		<tag k="natural" v="slope" />
		<tag k="place" v="locality" />
		<tag k="ssr:stedsnr" v="280211" />
	</node>
	<node id="-559457" lat="62.3484666626" lon="5.57432499553">
		<tag k="name" v="Kalddalshaugen" />
		<tag k="natural" v="hill" />
		<tag k="place" v="locality" />
		<tag k="ssr:stedsnr" v="280206" />
	</node>
	<node id="-559456" lat="62.3295916624" lon="5.59870000452">
		<tag k="name" v="Mjeltevika" />
		<tag k="natural" v="bay" />
		<tag k="ssr:stedsnr" v="280208" />
	</node>
	<node id="-559455" lat="62.3741972209" lon="5.55855276934">
		<tag k="name" v="Golleneset" />
		<tag k="natural" v="cape" />
		<tag k="ssr:stedsnr" v="272255" />
	</node>
</osm>
