<?xml version="1.0" encoding="UTF-8"?>
<osm generator="osmapis" version="0.6">
	<node id="-57341" lat="62.3193666659" lon="5.48341389296">
		<tag k="name" v="Djupvika" />
		<tag k="natural" v="bay" />
		<tag k="ssr:stedsnr" v="644755" />
	</node>
	<node id="-57340" lat="62.3634833378" lon="5.74650000154">
		<tag k="name" v="Rabben" />
		<tag k="natural" v="cape" />
		<tag k="ssr:stedsnr" v="644747" />
	</node>
	<node id="-57338" lat="62.2727638897" lon="5.82750833047">
		<tag k="alt_name" v="Kjellsund" />
		<tag k="name" v="Kjeldsund" />
		<tag k="natural" v="strait" />
		<tag k="ssr:stedsnr" v="644739" />
	</node>
	<node id="-57337" lat="62.3419583297" lon="5.63808332869">
		<tag k="name" v="Nørdrevågneset" />
		<tag k="natural" v="cape" />
		<tag k="ssr:stedsnr" v="644734" />
	</node>
	<node id="-57335" lat="62.4035361141" lon="5.63074166774">
		<tag k="name" v="Storevika" />
		<tag k="natural" v="bay" />
		<tag k="ssr:stedsnr" v="644374" />
	</node>
	<node id="-57332" lat="62.2866694471" lon="5.74750278691">
		<tag k="alt_name" v="Saueholmen" />
		<tag k="name" v="Kubbeteholmen" />
		<tag k="place" v="islet" />
		<tag k="ssr:stedsnr" v="644331" />
	</node>
	<node id="-57331" lat="62.2855888904" lon="5.7557388939">
		<tag k="name" v="Skutvika" />
		<tag k="natural" v="bay" />
		<tag k="ssr:stedsnr" v="643723" />
	</node>
	<node id="-57330" lat="62.3057388869" lon="5.75152222429">
		<tag k="name" v="Gullura" />
		<tag k="natural" v="shoal" />
		<tag k="place" v="locality" />
		<tag k="ssr:stedsnr" v="643710" />
	</node>
	<node id="-57327" lat="62.4134249987" lon="5.58334723029">
		<tag k="name" v="Søre Hamna" />
		<tag k="natural" v="bay" />
		<tag k="ssr:stedsnr" v="643354" />
	</node>
	<node id="-57325" lat="62.3211111085" lon="5.62698888406">
		<tag k="name" v="Vikeklubben" />
		<tag k="natural" v="cape" />
		<tag k="ssr:stedsnr" v="643313" />
	</node>
	<node id="-57323" lat="62.3041916622" lon="5.70820000102">
		<tag k="name" v="Sandvikholmen" />
		<tag k="place" v="islet" />
		<tag k="ssr:stedsnr" v="643306" />
	</node>
	<node id="-57322" lat="62.2955805547" lon="5.59596667183">
		<tag k="fixme" v="consider seamark:type=rock or natural=shoal" />
		<tag k="name" v="Kobbeskjeret" />
		<tag k="place" v="islet" />
		<tag k="ssr:stedsnr" v="643273" />
	</node>
	<node id="-57321" lat="62.3147361134" lon="5.59152223154">
		<tag k="name" v="Djupesundet" />
		<tag k="natural" v="strait" />
		<tag k="ssr:stedsnr" v="643271" />
	</node>
	<node id="-57320" lat="62.3442527754" lon="5.73761388667">
		<tag k="name" v="Tangane" />
		<tag k="natural" v="cape" />
		<tag k="ssr:stedsnr" v="643191" />
	</node>
	<node id="-57319" lat="62.3287999984" lon="5.66588888853">
		<tag k="name" v="Stridestraumen" />
		<tag k="natural" v="strait" />
		<tag k="ssr:stedsnr" v="643178" />
	</node>
	<node id="-57318" lat="62.4029444459" lon="5.59342221831">
		<tag k="name" v="Kaldekloven" />
		<tag k="natural" v="cape" />
		<tag k="ssr:stedsnr" v="617679" />
	</node>
	<node id="-57317" lat="62.381038887" lon="5.622872222">
		<tag k="name" v="Rundasundet" />
		<tag k="natural" v="strait" />
		<tag k="ssr:stedsnr" v="617654" />
	</node>
	<node id="-57316" lat="62.3608138913" lon="5.59054722044">
		<tag k="name" v="Langeneset" />
		<tag k="natural" v="cape" />
		<tag k="ssr:stedsnr" v="617648" />
	</node>
	<node id="-57314" lat="62.3144416666" lon="5.7386805482">
		<tag k="fixme" v="consider seamark:type=rock or natural=shoal" />
		<tag k="name" v="Skarveskjeret" />
		<tag k="place" v="islet" />
		<tag k="ssr:stedsnr" v="617821" />
	</node>
	<node id="-57311" lat="62.3595555518" lon="5.36766667309">
		<tag k="alt_name" v="Håskallen, in" />
		<tag k="name" v="Indre Håskallen" />
		<tag k="natural" v="shoal" />
		<tag k="place" v="locality" />
		<tag k="ssr:stedsnr" v="617639" />
	</node>
	<node id="-57309" lat="62.3509361125" lon="5.47689721633">
		<tag k="name" v="Leidfluda" />
		<tag k="natural" v="shoal" />
		<tag k="place" v="locality" />
		<tag k="ssr:stedsnr" v="617626" />
	</node>
	<node id="-57304" lat="62.2383611075" lon="5.82467777356">
		<tag k="name" v="Kleppeholmane" />
		<tag k="place" v="islet" />
		<tag k="ssr:stedsnr" v="617180" />
	</node>
	<node id="-57303" lat="62.3285361097" lon="5.25930833545">
		<tag k="name" v="Vestfludene" />
		<tag k="natural" v="shoal" />
		<tag k="place" v="locality" />
		<tag k="ssr:stedsnr" v="600794" />
	</node>
	<node id="-57302" lat="62.3939083337" lon="5.60308611633">
		<tag k="name" v="Liafluda" />
		<tag k="natural" v="shoal" />
		<tag k="place" v="locality" />
		<tag k="ssr:stedsnr" v="597896" />
	</node>
	<node id="-57301" lat="62.4207166638" lon="5.60694444092">
		<tag k="name" v="Skjerfluda" />
		<tag k="natural" v="shoal" />
		<tag k="place" v="locality" />
		<tag k="ssr:stedsnr" v="597884" />
	</node>
	<node id="-57300" lat="62.3187972237" lon="5.71490000615">
		<tag k="name" v="Skallen" />
		<tag k="natural" v="shoal" />
		<tag k="place" v="locality" />
		<tag k="ssr:stedsnr" v="597330" />
	</node>
	<node id="-57299" lat="62.3072472246" lon="5.73764721789">
		<tag k="name" v="Stokksundet" />
		<tag k="natural" v="strait" />
		<tag k="ssr:stedsnr" v="597325" />
	</node>
	<node id="-57298" lat="62.3814111121" lon="5.61675276818">
		<tag k="fixme" v="consider seamark:type=rock or natural=shoal" />
		<tag k="name" v="Flateskjeret" />
		<tag k="place" v="islet" />
		<tag k="ssr:stedsnr" v="597218" />
	</node>
	<node id="-57297" lat="62.3547611156" lon="5.60863889629">
		<tag k="name" v="Peisbåen" />
		<tag k="natural" v="shoal" />
		<tag k="place" v="locality" />
		<tag k="ssr:stedsnr" v="597207" />
	</node>
	<node id="-57295" lat="62.3200277806" lon="5.47819999886">
		<tag k="fixme" v="consider seamark:type=rock or natural=shoal" />
		<tag k="name" v="Tørraskjeret" />
		<tag k="place" v="islet" />
		<tag k="ssr:stedsnr" v="584381" />
	</node>
	<node id="-57291" lat="62.3355916653" lon="5.68233889656">
		<tag k="name" v="Buholmen" />
		<tag k="natural" v="cape" />
		<tag k="ssr:stedsnr" v="583757" />
	</node>
	<node id="-57290" lat="62.3379972203" lon="5.67637499895">
		<tag k="name" v="Grisholmen" />
		<tag k="place" v="islet" />
		<tag k="ssr:stedsnr" v="583693" />
	</node>
	<node id="-57287" lat="62.299455555" lon="5.74071389232">
		<tag k="name" v="Litlevågen" />
		<tag k="natural" v="bay" />
		<tag k="ssr:stedsnr" v="583297" />
	</node>
	<node id="-57284" lat="62.3182222268" lon="5.46460278107">
		<tag k="fixme" v="consider seamark:type=rock or natural=shoal" />
		<tag k="name" v="Svarteskjeret" />
		<tag k="place" v="islet" />
		<tag k="ssr:stedsnr" v="557541" />
	</node>
	<node id="-57280" lat="62.341052782" lon="5.49643888753">
		<tag k="name" v="Grøneneset" />
		<tag k="natural" v="cape" />
		<tag k="ssr:stedsnr" v="556639" />
	</node>
	<node id="-57279" lat="62.3147361078" lon="5.68852222471">
		<tag k="name" v="Smedholmen" />
		<tag k="place" v="islet" />
		<tag k="ssr:stedsnr" v="556587" />
	</node>
	<node id="-57278" lat="62.4317805596" lon="5.67532223052">
		<tag k="name" v="Frøystolrevet" />
		<tag k="natural" v="shoal" />
		<tag k="place" v="locality" />
		<tag k="ssr:stedsnr" v="556686" />
	</node>
	<node id="-57276" lat="62.3654750037" lon="5.4978416585">
		<tag k="alt_name" v="Muleneset" />
		<tag k="name" v="Mulen" />
		<tag k="natural" v="cape" />
		<tag k="ssr:stedsnr" v="556678" />
	</node>
	<node id="-57275" lat="62.3726805518" lon="5.53984166306">
		<tag k="name" v="Nosabukta" />
		<tag k="natural" v="bay" />
		<tag k="ssr:stedsnr" v="556674" />
	</node>
	<node id="-57272" lat="62.3886833374" lon="5.63474721714">
		<tag k="alt_name" v="Hamarnes" />
		<tag k="name" v="Hamarsneset" />
		<tag k="natural" v="cape" />
		<tag k="ssr:stedsnr" v="556661" />
	</node>
	<node id="-57265" lat="62.3761250006" lon="5.55368610287">
		<tag k="name" v="Luren" />
		<tag k="natural" v="shoal" />
		<tag k="place" v="locality" />
		<tag k="ssr:stedsnr" v="537792" />
	</node>
	<node id="-57264" lat="62.3219527809" lon="5.47486945293">
		<tag k="fixme" v="consider seamark:type=rock or natural=shoal" />
		<tag k="name" v="Torraskjeret" />
		<tag k="place" v="islet" />
		<tag k="ssr:stedsnr" v="537760" />
	</node>
	<node id="-57263" lat="62.3129805561" lon="5.5494944468">
		<tag k="name" v="Penningfluda" />
		<tag k="natural" v="shoal" />
		<tag k="place" v="locality" />
		<tag k="ssr:stedsnr" v="537672" />
	</node>
	<node id="-57262" lat="62.3154500005" lon="5.53756667343">
		<tag k="name" v="Søre Stabben" />
		<tag k="natural" v="shoal" />
		<tag k="place" v="locality" />
		<tag k="ssr:stedsnr" v="537670" />
	</node>
	<node id="-57259" lat="62.3108944429" lon="5.65297499568">
		<tag k="name" v="Monsbakkfluda" />
		<tag k="natural" v="shoal" />
		<tag k="place" v="locality" />
		<tag k="ssr:stedsnr" v="536323" />
	</node>
	<node id="-57253" lat="62.2835939294" lon="5.80637358524">
		<tag k="loc_name" v="Tvåvågane" />
		<tag k="name" v="Tovågane" />
		<tag k="natural" v="bay" />
		<tag k="ssr:stedsnr" v="523738" />
	</node>
	<node id="-57248" lat="62.3628805556" lon="5.61966943545">
		<tag k="name" v="Klubben" />
		<tag k="natural" v="cape" />
		<tag k="ssr:stedsnr" v="523794" />
	</node>
	<node id="-57245" lat="62.3601222233" lon="5.51255555504">
		<tag k="name" v="Ytstevika" />
		<tag k="natural" v="bay" />
		<tag k="ssr:stedsnr" v="523348" />
	</node>
	<node id="-57242" lat="62.3383305598" lon="5.59040554589">
		<tag k="name" v="Knuteneset" />
		<tag k="natural" v="cape" />
		<tag k="ssr:stedsnr" v="522343" />
	</node>
	<node id="-57241" lat="62.3356472249" lon="5.57214721543">
		<tag k="name" v="Skjeljeneset" />
		<tag k="natural" v="cape" />
		<tag k="ssr:stedsnr" v="522342" />
	</node>
	<node id="-57240" lat="62.3637749998" lon="5.61391110977">
		<tag k="alt_name" v="Klubbholmane" />
		<tag k="name" v="Klubbeholmen" />
		<tag k="place" v="islet" />
		<tag k="ssr:stedsnr" v="522339" />
	</node>
	<node id="-57239" lat="62.3118861153" lon="5.67908610604">
		<tag k="name" v="Herøysundet" />
		<tag k="natural" v="strait" />
		<tag k="ssr:stedsnr" v="522318" />
	</node>
	<node id="-57238" lat="62.3237888896" lon="5.65802777822">
		<tag k="name" v="Gjertholmen" />
		<tag k="place" v="islet" />
		<tag k="ssr:stedsnr" v="522316" />
	</node>
	<node id="-57237" lat="62.2976194402" lon="5.61048332685">
		<tag k="name" v="Krabbeleida" />
		<tag k="natural" v="strait" />
		<tag k="ssr:stedsnr" v="522278" />
	</node>
	<node id="-57235" lat="62.3266222241" lon="5.48225833656">
		<tag k="alt_name" v="Storevik" />
		<tag k="name" v="Storevågen" />
		<tag k="natural" v="bay" />
		<tag k="ssr:stedsnr" v="436668" />
	</node>
	<node id="-57231" lat="62.3187527761" lon="5.44953332661">
		<tag k="name" v="Hynnebåen" />
		<tag k="natural" v="shoal" />
		<tag k="place" v="locality" />
		<tag k="ssr:stedsnr" v="436549" />
	</node>
	<node id="-57227" lat="62.3771222189" lon="5.73053332611">
		<tag k="name" v="Skyrflesjene" />
		<tag k="place" v="islet" />
		<tag k="ssr:stedsnr" v="435914" />
	</node>
	<node id="-57226" lat="62.3591750029" lon="5.59106388909">
		<tag k="name" v="Kvernavika" />
		<tag k="natural" v="bay" />
		<tag k="ssr:stedsnr" v="435667" />
	</node>
	<node id="-57225" lat="62.3238444412" lon="5.65199445367">
		<tag k="alt_name" v="Eggesbøneset" />
		<tag k="name" v="Eggesbønes" />
		<tag k="natural" v="cape" />
		<tag k="ssr:stedsnr" v="435588" />
	</node>
	<node id="-57222" lat="62.3491083291" lon="5.31488889611">
		<tag k="name" v="Grynnskallen" />
		<tag k="natural" v="shoal" />
		<tag k="place" v="locality" />
		<tag k="ssr:stedsnr" v="435652" />
	</node>
	<node id="-57221" lat="62.2609444487" lon="5.80381666654">
		<tag k="name" v="Budaneset" />
		<tag k="natural" v="cape" />
		<tag k="ssr:stedsnr" v="435200" />
	</node>
	<node id="-57217" lat="62.3685250006" lon="5.52263888753">
		<tag k="name" v="Barmneset" />
		<tag k="natural" v="cape" />
		<tag k="ssr:stedsnr" v="416782" />
	</node>
	<node id="-57216" lat="62.2532944484" lon="5.80156388172">
		<tag k="name" v="Rundafluda" />
		<tag k="natural" v="shoal" />
		<tag k="place" v="locality" />
		<tag k="ssr:stedsnr" v="416742" />
	</node>
	<node id="-57215" lat="62.3024638862" lon="5.56426944505">
		<tag k="name" v="Langfluda" />
		<tag k="natural" v="shoal" />
		<tag k="place" v="locality" />
		<tag k="ssr:stedsnr" v="416679" />
	</node>
	<node id="-57213" lat="62.3391944445" lon="5.67233610883">
		<tag k="name" v="Bergnes" />
		<tag k="natural" v="cape" />
		<tag k="ssr:stedsnr" v="416286" />
	</node>
	<node id="-57212" lat="62.4084250027" lon="5.63654166224">
		<tag k="name" v="Store Gardbåen" />
		<tag k="natural" v="shoal" />
		<tag k="place" v="locality" />
		<tag k="ssr:stedsnr" v="415914" />
	</node>
	<node id="-57205" lat="62.3427805555" lon="5.67690833395">
		<tag k="name" v="Straumen" />
		<tag k="natural" v="strait" />
		<tag k="ssr:stedsnr" v="401732" />
	</node>
	<node id="-57203" lat="62.2463777759" lon="5.79314722433">
		<tag k="alt_name" v="Leikongbukta" />
		<tag k="name" v="Leikongvika" />
		<tag k="natural" v="bay" />
		<tag k="ssr:stedsnr" v="401716" />
	</node>
	<node id="-57198" lat="62.2898972252" lon="5.73540554958">
		<tag k="name" v="Kremarvika" />
		<tag k="natural" v="bay" />
		<tag k="ssr:stedsnr" v="401292" />
	</node>
	<node id="-57196" lat="62.3240138906" lon="5.65563334148">
		<tag k="name" v="Stridestraumen" />
		<tag k="natural" v="strait" />
		<tag k="ssr:stedsnr" v="401173" />
	</node>
	<node id="-57193" lat="62.3379666689" lon="5.74652499126">
		<tag k="name" v="Torvikholmane" />
		<tag k="place" v="islet" />
		<tag k="ssr:stedsnr" v="375798" />
	</node>
	<node id="-57191" lat="62.3296666624" lon="5.53078610798">
		<tag k="name" v="Skageneset" />
		<tag k="natural" v="cape" />
		<tag k="ssr:stedsnr" v="375540" />
	</node>
	<node id="-57188" lat="62.2373277743" lon="5.84782223216">
		<tag k="name" v="Fureholmane" />
		<tag k="place" v="islet" />
		<tag k="ssr:stedsnr" v="375135" />
	</node>
	<node id="-57187" lat="62.4623000017" lon="5.67862500933">
		<tag k="name" v="Lågebarmskallane" />
		<tag k="natural" v="shoal" />
		<tag k="place" v="locality" />
		<tag k="ssr:stedsnr" v="374682" />
	</node>
	<node id="-57186" lat="62.4232444445" lon="5.5734194425">
		<tag k="name" v="Rundabrandane" />
		<tag k="natural" v="shoal" />
		<tag k="place" v="locality" />
		<tag k="ssr:stedsnr" v="374679" />
	</node>
	<node id="-57185" lat="62.3544083319" lon="5.73389443912">
		<tag k="name" v="Bølandet" />
		<tag k="natural" v="cape" />
		<tag k="ssr:stedsnr" v="374885" />
	</node>
	<node id="-57184" lat="62.3681861149" lon="5.61540000518">
		<tag k="name" v="Arefjellsvika" />
		<tag k="natural" v="bay" />
		<tag k="ssr:stedsnr" v="374628" />
	</node>
	<node id="-57183" lat="62.3109388903" lon="5.61080000386">
		<tag k="name" v="Kvalen" />
		<tag k="place" v="islet" />
		<tag k="ssr:stedsnr" v="374537" />
	</node>
	<node id="-57182" lat="62.3010972191" lon="5.61210278121">
		<tag k="name" v="Langholmane" />
		<tag k="place" v="islet" />
		<tag k="ssr:stedsnr" v="374531" />
	</node>
	<node id="-57181" lat="62.3018222253" lon="5.67224167142">
		<tag k="fixme" v="consider seamark:type=rock or natural=shoal" />
		<tag k="name" v="Notaskjeret" />
		<tag k="place" v="islet" />
		<tag k="ssr:stedsnr" v="374529" />
	</node>
	<node id="-57180" lat="62.3068500044" lon="5.69915833556">
		<tag k="alt_name" v="Klomraholmen" />
		<tag k="name" v="Klombraholmen" />
		<tag k="place" v="islet" />
		<tag k="ssr:stedsnr" v="374527" />
	</node>
	<node id="-57179" lat="62.2984277734" lon="5.67271389127">
		<tag k="name" v="Ryssevika" />
		<tag k="natural" v="bay" />
		<tag k="ssr:stedsnr" v="374526" />
	</node>
	<node id="-57176" lat="62.3046083363" lon="5.46604999146">
		<tag k="name" v="Godøyfludgrunnen" />
		<tag k="natural" v="shoal" />
		<tag k="place" v="locality" />
		<tag k="ssr:stedsnr" v="355748" />
	</node>
	<node id="-57175" lat="62.3297416658" lon="5.57429167174">
		<tag k="name" v="Nordre Skallen" />
		<tag k="natural" v="shoal" />
		<tag k="place" v="locality" />
		<tag k="ssr:stedsnr" v="355686" />
	</node>
	<node id="-57173" lat="62.3268638863" lon="5.73816389663">
		<tag k="name" v="Skarveneset" />
		<tag k="natural" v="cape" />
		<tag k="ssr:stedsnr" v="355312" />
	</node>
	<node id="-57171" lat="62.3683499966" lon="5.60511111043">
		<tag k="name" v="Hestefluda" />
		<tag k="natural" v="shoal" />
		<tag k="place" v="locality" />
		<tag k="ssr:stedsnr" v="355217" />
	</node>
	<node id="-57165" lat="62.3797388884" lon="5.62730832773">
		<tag k="name" v="Bollen" />
		<tag k="place" v="islet" />
		<tag k="ssr:stedsnr" v="340735" />
	</node>
	<node id="-57164" lat="62.3546111121" lon="5.60927777941">
		<tag k="name" v="Pessa" />
		<tag k="place" v="islet" />
		<tag k="ssr:stedsnr" v="340734" />
	</node>
	<node id="-57162" lat="62.3051500019" lon="5.71403889734">
		<tag k="name" v="Rafteneset" />
		<tag k="natural" v="cape" />
		<tag k="ssr:stedsnr" v="340689" />
	</node>
	<node id="-57161" lat="62.2416722262" lon="5.78943054835">
		<tag k="name" v="Raudvika" />
		<tag k="natural" v="bay" />
		<tag k="ssr:stedsnr" v="340648" />
	</node>
	<node id="-57160" lat="62.3301833331" lon="5.59902221567">
		<tag k="name" v="Mjeltevika" />
		<tag k="natural" v="bay" />
		<tag k="ssr:stedsnr" v="340349" />
	</node>
	<node id="-57159" lat="62.350905646" lon="5.74409900602">
		<tag k="name" v="Stabelvika" />
		<tag k="natural" v="bay" />
		<tag k="ssr:stedsnr" v="340319" />
	</node>
	<node id="-57158" lat="62.3584555518" lon="5.74878056273">
		<tag k="name" v="Bøskjæret" />
		<tag k="place" v="islet" />
		<tag k="ssr:stedsnr" v="340317" />
	</node>
	<node id="-57157" lat="62.3312555532" lon="5.54416666852">
		<tag k="name" v="Kistevika" />
		<tag k="natural" v="bay" />
		<tag k="ssr:stedsnr" v="340290" />
	</node>
	<node id="-57156" lat="62.2899750024" lon="5.79270000847">
		<tag k="alt_name" v="Risneset" />
		<tag k="name" v="Rissneset" />
		<tag k="natural" v="cape" />
		<tag k="ssr:stedsnr" v="340287" />
	</node>
	<node id="-57152" lat="62.4303722187" lon="5.60096388154">
		<tag k="fixme" v="consider seamark:type=rock or natural=shoal" />
		<tag k="name" v="Storevoren" />
		<tag k="place" v="islet" />
		<tag k="ssr:stedsnr" v="314689" />
	</node>
	<node id="-57151" lat="62.3204833373" lon="5.31009166924">
		<tag k="name" v="Klubbesnabben" />
		<tag k="natural" v="shoal" />
		<tag k="place" v="locality" />
		<tag k="ssr:stedsnr" v="314600" />
	</node>
	<node id="-57150" lat="62.3193222245" lon="5.57926111306">
		<tag k="name" v="Einmenningen" />
		<tag k="place" v="islet" />
		<tag k="ssr:stedsnr" v="314599" />
	</node>
	<node id="-57149" lat="62.314572225" lon="5.5933388812">
		<tag k="name" v="Kalveholmen" />
		<tag k="place" v="islet" />
		<tag k="ssr:stedsnr" v="314591" />
	</node>
	<node id="-57148" lat="62.3143333318" lon="5.60669166446">
		<tag k="name" v="Flatøya" />
		<tag k="place" v="islet" />
		<tag k="ssr:stedsnr" v="314590" />
	</node>
	<node id="-57147" lat="62.3115694416" lon="5.60385554707">
		<tag k="name" v="Torvholmen" />
		<tag k="place" v="islet" />
		<tag k="ssr:stedsnr" v="314586" />
	</node>
	<node id="-57145" lat="62.2968722204" lon="5.66810000979">
		<tag k="name" v="Munkestranda" />
		<tag k="natural" v="beach" />
		<tag k="place" v="locality" />
		<tag k="ssr:stedsnr" v="314565" />
	</node>
	<node id="-57141" lat="62.354727775" lon="5.6678888816">
		<tag k="name" v="Volsundfjellet" />
		<tag k="natural" v="cape" />
		<tag k="ssr:stedsnr" v="314629" />
	</node>
	<node id="-57135" lat="62.2278333371" lon="5.81061389416">
		<tag k="name" v="Jøsokstranda" />
		<tag k="natural" v="beach" />
		<tag k="place" v="locality" />
		<tag k="ssr:stedsnr" v="314198" />
	</node>
	<node id="-57130" lat="62.3290583343" lon="5.59855555423">
		<tag k="alt_name" v="Mjeltevikneset;Hjeltevikneset" />
		<tag k="name" v="Langeneset" />
		<tag k="natural" v="cape" />
		<tag k="ssr:stedsnr" v="193668" />
	</node>
	<node id="-57126" lat="62.3286583375" lon="5.59282499478">
		<tag k="name" v="Kyrkjeholmen" />
		<tag k="place" v="islet" />
		<tag k="ssr:stedsnr" v="193625" />
	</node>
	<node id="-57121" lat="62.2961750013" lon="5.70862499851">
		<tag k="name" v="Sandvika" />
		<tag k="natural" v="bay" />
		<tag k="ssr:stedsnr" v="193549" />
	</node>
	<node id="-57118" lat="62.3072833323" lon="5.71750833911">
		<tag k="alt_name" v="Myrbærholmen" />
		<tag k="name" v="Buskeholmen" />
		<tag k="place" v="islet" />
		<tag k="ssr:stedsnr" v="192570" />
	</node>
	<node id="-57114" lat="62.317297219" lon="5.53665834168">
		<tag k="name" v="Nordre Stabben" />
		<tag k="natural" v="shoal" />
		<tag k="place" v="locality" />
		<tag k="ssr:stedsnr" v="173657" />
	</node>
	<node id="-57113" lat="62.3005416712" lon="5.5338972284">
		<tag k="name" v="Kråkungane" />
		<tag k="natural" v="shoal" />
		<tag k="place" v="locality" />
		<tag k="ssr:stedsnr" v="173649" />
	</node>
	<node id="-57111" lat="62.3835444415" lon="5.73761388071">
		<tag k="name" v="Buaskallen" />
		<tag k="natural" v="shoal" />
		<tag k="place" v="locality" />
		<tag k="ssr:stedsnr" v="173287" />
	</node>
	<node id="-57110" lat="62.3702083331" lon="5.74171388695">
		<tag k="name" v="Stabben" />
		<tag k="natural" v="shoal" />
		<tag k="place" v="locality" />
		<tag k="ssr:stedsnr" v="173285" />
	</node>
	<node id="-57109" lat="62.4161388872" lon="5.58149999796">
		<tag k="name" v="Leirbåen" />
		<tag k="natural" v="shoal" />
		<tag k="place" v="locality" />
		<tag k="ssr:stedsnr" v="172893" />
	</node>
	<node id="-57108" lat="62.3016361103" lon="5.70166111157">
		<tag k="name" v="Sandvikfluda" />
		<tag k="natural" v="shoal" />
		<tag k="place" v="locality" />
		<tag k="ssr:stedsnr" v="172337" />
	</node>
	<node id="-57106" lat="62.3708083324" lon="5.61324721591">
		<tag k="alt_name" v="Barane" />
		<tag k="name" v="Bardane" />
		<tag k="place" v="islet" />
		<tag k="ssr:stedsnr" v="159794" />
	</node>
	<node id="-57104" lat="62.2881611145" lon="5.81978887945">
		<tag k="name" v="Rambjørbukta" />
		<tag k="natural" v="bay" />
		<tag k="ssr:stedsnr" v="159349" />
	</node>
	<node id="-57098" lat="62.2333916698" lon="5.83638333804">
		<tag k="name" v="Hamna" />
		<tag k="natural" v="bay" />
		<tag k="ssr:stedsnr" v="158663" />
	</node>
	<node id="-57094" lat="62.3735361124" lon="5.67504166102">
		<tag k="name" v="Kvianeshamna" />
		<tag k="natural" v="bay" />
		<tag k="ssr:stedsnr" v="158392" />
	</node>
	<node id="-57091" lat="62.3194888881" lon="5.62209444362">
		<tag k="name" v="Vikedjupet" />
		<tag k="place" v="locality" />
		<tag k="ssr:stedsnr" v="158334" />
	</node>
	<node id="-57088" lat="62.3113472266" lon="5.66898889613">
		<tag k="name" v="Skuta" />
		<tag k="place" v="islet" />
		<tag k="ssr:stedsnr" v="158330" />
	</node>
	<node id="-57087" lat="62.3079166661" lon="5.66824166241">
		<tag k="name" v="Flatholmen" />
		<tag k="place" v="islet" />
		<tag k="ssr:stedsnr" v="158289" />
	</node>
	<node id="-57085" lat="62.3425138902" lon="5.60492499249">
		<tag k="name" v="Hardausen" />
		<tag k="natural" v="beach" />
		<tag k="place" v="locality" />
		<tag k="ssr:stedsnr" v="158278" />
	</node>
	<node id="-57081" lat="62.333730552" lon="5.73830277238">
		<tag k="name" v="Kyrkjeholmen" />
		<tag k="place" v="islet" />
		<tag k="ssr:stedsnr" v="158180" />
	</node>
	<node id="-57080" lat="62.3688583343" lon="5.61309999162">
		<tag k="name" v="Terneneset" />
		<tag k="natural" v="cape" />
		<tag k="ssr:stedsnr" v="133656" />
	</node>
	<node id="-57078" lat="62.4763361083" lon="5.67657778421">
		<tag k="name" v="Vallabåane" />
		<tag k="natural" v="shoal" />
		<tag k="place" v="locality" />
		<tag k="ssr:stedsnr" v="132692" />
	</node>
	<node id="-57075" lat="62.3224749987" lon="5.47211944952">
		<tag k="alt_name" v="Tørra;Torra" />
		<tag k="name" v="Tora" />
		<tag k="place" v="islet" />
		<tag k="ssr:stedsnr" v="132587" />
	</node>
	<node id="-57074" lat="62.3152305567" lon="5.58822499352">
		<tag k="alt_name" v="Vardholmen" />
		<tag k="name" v="Varholmen" />
		<tag k="place" v="islet" />
		<tag k="ssr:stedsnr" v="132585" />
	</node>
	<node id="-57073" lat="62.3158250023" lon="5.49485832532">
		<tag k="name" v="Gardsendfluda" />
		<tag k="natural" v="shoal" />
		<tag k="place" v="locality" />
		<tag k="ssr:stedsnr" v="132584" />
	</node>
	<node id="-57071" lat="62.3640666685" lon="5.43008889217">
		<tag k="name" v="Nørdre Gnubben" />
		<tag k="natural" v="shoal" />
		<tag k="place" v="locality" />
		<tag k="ssr:stedsnr" v="132665" />
	</node>
	<node id="-57070" lat="62.3712361081" lon="5.64254721918">
		<tag k="alt_name" v="Vika" />
		<tag k="name" v="Remøyvika" />
		<tag k="natural" v="bay" />
		<tag k="ssr:stedsnr" v="132662" />
	</node>
	<node id="-57069" lat="62.365683329" lon="5.61223888321">
		<tag k="name" v="Årbarholmane" />
		<tag k="place" v="islet" />
		<tag k="ssr:stedsnr" v="132649" />
	</node>
	<node id="-57068" lat="62.3653361121" lon="5.69715556083">
		<tag k="alt_name" v="Samundsholmen" />
		<tag k="name" v="Samuelsholmen" />
		<tag k="place" v="islet" />
		<tag k="ssr:stedsnr" v="132646" />
	</node>
	<node id="-57065" lat="62.350647222" lon="5.60210278517">
		<tag k="alt_name" v="Teigebugen;Teigebogen" />
		<tag k="name" v="Bogen" />
		<tag k="natural" v="bay" />
		<tag k="ssr:stedsnr" v="132623" />
	</node>
	<node id="-57063" lat="62.2314444463" lon="5.81011944503">
		<tag k="name" v="Kleppestranda" />
		<tag k="natural" v="beach" />
		<tag k="place" v="locality" />
		<tag k="ssr:stedsnr" v="132159" />
	</node>
	<node id="-57062" lat="62.3232363636" lon="5.66672657868">
		<tag k="name" v="Mjølstaneset" />
		<tag k="natural" v="cape" />
		<tag k="ssr:stedsnr" v="131546" />
	</node>
	<node id="-57061" lat="62.3212583308" lon="5.62690277477">
		<tag k="alt_name" v="Toftestøda" />
		<tag k="name" v="Toftestøa" />
		<tag k="natural" v="bay" />
		<tag k="ssr:stedsnr" v="131542" />
	</node>
	<node id="-57060" lat="62.3134750037" lon="5.59503056339">
		<tag k="name" v="Husholmen" />
		<tag k="place" v="islet" />
		<tag k="ssr:stedsnr" v="131541" />
	</node>
	<node id="-57057" lat="62.3172638882" lon="5.48418611437">
		<tag k="fixme" v="consider seamark:type=rock or natural=shoal" />
		<tag k="name" v="Klauvaskjeret" />
		<tag k="place" v="islet" />
		<tag k="ssr:stedsnr" v="117950" />
	</node>
	<node id="-57056" lat="62.2886444446" lon="5.80030000475">
		<tag k="name" v="Risnesholmane" />
		<tag k="place" v="islet" />
		<tag k="ssr:stedsnr" v="113796" />
	</node>
	<node id="-57055" lat="62.416644442" lon="5.70106944851">
		<tag k="name" v="Tekleskallen" />
		<tag k="natural" v="shoal" />
		<tag k="place" v="locality" />
		<tag k="ssr:stedsnr" v="112969" />
	</node>
	<node id="-57054" lat="62.426316667" lon="5.56496666511">
		<tag k="name" v="Småfludene" />
		<tag k="natural" v="shoal" />
		<tag k="place" v="locality" />
		<tag k="ssr:stedsnr" v="112867" />
	</node>
	<node id="-57053" lat="62.3248861079" lon="5.66808889196">
		<tag k="name" v="Bussvågen" />
		<tag k="natural" v="bay" />
		<tag k="ssr:stedsnr" v="112455" />
	</node>
	<node id="-57047" lat="62.359237316" lon="5.74444186362">
		<tag k="name" v="Bøvågen" />
		<tag k="natural" v="bay" />
		<tag k="ssr:stedsnr" v="98734" />
	</node>
	<node id="-57046" lat="62.354630555" lon="5.74631943837">
		<tag k="name" v="Buaneset" />
		<tag k="natural" v="cape" />
		<tag k="ssr:stedsnr" v="98733" />
	</node>
	<node id="-57044" lat="62.3580555575" lon="5.57518888201">
		<tag k="name" v="Kalddalsbukta" />
		<tag k="natural" v="bay" />
		<tag k="ssr:stedsnr" v="98335" />
	</node>
	<node id="-57042" lat="62.2989333316" lon="5.59113332404">
		<tag k="name" v="Flatholmen" />
		<tag k="place" v="islet" />
		<tag k="ssr:stedsnr" v="98240" />
	</node>
	<node id="-57041" lat="62.2995083369" lon="5.60882778487">
		<tag k="name" v="Langholmen" />
		<tag k="place" v="islet" />
		<tag k="ssr:stedsnr" v="90203" />
	</node>
	<node id="-57039" lat="62.312352776" lon="5.75919999971">
		<tag k="alt_name" v="Fånøta" />
		<tag k="name" v="Fånota" />
		<tag k="place" v="islet" />
		<tag k="ssr:stedsnr" v="72772" />
	</node>
	<node id="-57038" lat="62.3332888928" lon="5.53759722364">
		<tag k="name" v="Nerlandsøya" />
		<tag k="place" v="island" />
		<tag k="ssr:stedsnr" v="72584" />
	</node>
	<node id="-57034" lat="62.3410938156" lon="5.68173564232">
		<tag k="name" v="Nerøya" />
		<tag k="natural" v="cape" />
		<tag k="ssr:stedsnr" v="72567" />
	</node>
	<node id="-57029" lat="62.3774555576" lon="5.5022305588">
		<tag k="name" v="Mathaugrevet" />
		<tag k="natural" v="shoal" />
		<tag k="place" v="locality" />
		<tag k="ssr:stedsnr" v="72620" />
	</node>
	<node id="-57028" lat="62.3640444473" lon="5.67737222649">
		<tag k="name" v="Remøyholmen" />
		<tag k="place" v="islet" />
		<tag k="ssr:stedsnr" v="71686" />
	</node>
	<node id="-57027" lat="62.3646694444" lon="5.67291666557">
		<tag k="alt_name" v="Vaulen, nørdre" />
		<tag k="name" v="Nørdre Vaulen" />
		<tag k="natural" v="strait" />
		<tag k="ssr:stedsnr" v="71683" />
	</node>
	<node id="-57026" lat="62.3506583292" lon="5.4879305496">
		<tag k="name" v="Purka" />
		<tag k="natural" v="shoal" />
		<tag k="place" v="locality" />
		<tag k="ssr:stedsnr" v="71672" />
	</node>
	<node id="-57025" lat="62.4681944434" lon="5.52895832584">
		<tag k="name" v="Nyårsskallane" />
		<tag k="natural" v="shoal" />
		<tag k="place" v="locality" />
		<tag k="ssr:stedsnr" v="71726" />
	</node>
	<node id="-57021" lat="62.2426027747" lon="5.82386666438">
		<tag k="name" v="Tjuvholmen" />
		<tag k="place" v="islet" />
		<tag k="ssr:stedsnr" v="71171" />
	</node>
	<node id="-57020" lat="62.3098722237" lon="5.57674721909">
		<tag k="name" v="Stabben" />
		<tag k="natural" v="shoal" />
		<tag k="place" v="locality" />
		<tag k="ssr:stedsnr" v="52673" />
	</node>
	<node id="-57019" lat="62.3558611106" lon="5.61168610181">
		<tag k="fixme" v="consider seamark:type=rock or natural=shoal" />
		<tag k="name" v="Trollholmskjeret" />
		<tag k="place" v="islet" />
		<tag k="ssr:stedsnr" v="52186" />
	</node>
	<node id="-57018" lat="62.4291666693" lon="5.551127772">
		<tag k="name" v="Djupefluda" />
		<tag k="natural" v="shoal" />
		<tag k="place" v="locality" />
		<tag k="ssr:stedsnr" v="51884" />
	</node>
	<node id="-57017" lat="62.2817277736" lon="5.76745277396">
		<tag k="name" v="Liavågen" />
		<tag k="natural" v="bay" />
		<tag k="ssr:stedsnr" v="51398" />
	</node>
	<node id="-57014" lat="62.3778277784" lon="5.63247776864">
		<tag k="name" v="Litlesteinen" />
		<tag k="natural" v="cape" />
		<tag k="ssr:stedsnr" v="38387" />
	</node>
	<node id="-57012" lat="62.3587472253" lon="5.62282221467">
		<tag k="name" v="Kobbholmen" />
		<tag k="place" v="islet" />
		<tag k="ssr:stedsnr" v="38370" />
	</node>
	<node id="-57009" lat="62.2571500021" lon="5.80139443887">
		<tag k="name" v="Nykreimsundet" />
		<tag k="natural" v="strait" />
		<tag k="ssr:stedsnr" v="37718" />
	</node>
	<node id="-56999" lat="62.4250777782" lon="5.40866389529">
		<tag k="name" v="Kleivegrynnene" />
		<tag k="natural" v="shoal" />
		<tag k="place" v="locality" />
		<tag k="ssr:stedsnr" v="11684" />
	</node>
	<node id="-56998" lat="62.3267249977" lon="5.47786111577">
		<tag k="name" v="Langeneset" />
		<tag k="natural" v="cape" />
		<tag k="ssr:stedsnr" v="11682" />
	</node>
	<node id="-56992" lat="62.364247224" lon="5.40395278312">
		<tag k="name" v="Juklebåen" />
		<tag k="natural" v="shoal" />
		<tag k="place" v="locality" />
		<tag k="ssr:stedsnr" v="11648" />
	</node>
	<node id="-56991" lat="62.3689749961" lon="5.55675000319">
		<tag k="alt_name" v="Skjellingneset;Skjellingsneset" />
		<tag k="name" v="Skjeljingneset" />
		<tag k="natural" v="cape" />
		<tag k="ssr:stedsnr" v="11647" />
	</node>
	<node id="-56988" lat="62.4009638857" lon="5.65778888261">
		<tag k="name" v="Gryta" />
		<tag k="natural" v="bay" />
		<tag k="ssr:stedsnr" v="11639" />
	</node>
	<node id="-56985" lat="62.2831222226" lon="5.37230278148">
		<tag k="bay" v="fjord" />
		<tag k="name" v="Flåværleia" />
		<tag k="natural" v="bay" />
		<tag k="ssr:stedsnr" v="11572" />
	</node>
	<node id="-56981" lat="62.2408833366" lon="5.81046944935">
		<tag k="name" v="Kleppeneset" />
		<tag k="natural" v="cape" />
		<tag k="ssr:stedsnr" v="11134" />
	</node>
	<node id="-56980" lat="62.3011749966" lon="5.4897333257">
		<tag k="bay" v="fjord" />
		<tag k="name" v="Herøyfjorden" />
		<tag k="natural" v="bay" />
		<tag k="ssr:stedsnr" v="10560" />
	</node>
	<node id="-56979" lat="62.3104527792" lon="5.51879445383">
		<tag k="alt_name" v="Ekneskjera, store" />
		<tag k="fixme" v="consider seamark:type=rock or natural=shoal" />
		<tag k="name" v="Store Ekneskjera" />
		<tag k="place" v="islet" />
		<tag k="ssr:stedsnr" v="10559" />
	</node>
	<node id="-56978" lat="62.2705138854" lon="5.81485276964">
		<tag k="name" v="Makrellvågen" />
		<tag k="natural" v="bay" />
		<tag k="ssr:stedsnr" v="10179" />
	</node>
	<node id="-56977" lat="62.2562222219" lon="5.80514444136">
		<tag k="alt_name" v="Nykreimsholmane" />
		<tag k="name" v="Nykreimsholmen" />
		<tag k="place" v="islet" />
		<tag k="ssr:stedsnr" v="10168" />
	</node>
	<node id="-56974" lat="62.4267555573" lon="5.60116110961">
		<tag k="name" v="Keipfluda" />
		<tag k="natural" v="shoal" />
		<tag k="place" v="locality" />
		<tag k="ssr:stedsnr" v="961909" />
	</node>
	<node id="-56973" lat="62.3403138845" lon="5.48852499979">
		<tag k="name" v="Bardane" />
		<tag k="natural" v="shoal" />
		<tag k="place" v="locality" />
		<tag k="ssr:stedsnr" v="961810" />
	</node>
	<node id="-56969" lat="62.3621583337" lon="5.62433334248">
		<tag k="name" v="Bakarneset" />
		<tag k="natural" v="cape" />
		<tag k="ssr:stedsnr" v="948362" />
	</node>
	<node id="-56968" lat="62.2968666646" lon="5.7685749996">
		<tag k="name" v="Kvitøystraumen" />
		<tag k="natural" v="strait" />
		<tag k="ssr:stedsnr" v="948355" />
	</node>
	<node id="-56964" lat="62.2954416681" lon="5.62894999056">
		<tag k="name" v="Moltuvika" />
		<tag k="natural" v="bay" />
		<tag k="ssr:stedsnr" v="921581" />
	</node>
	<node id="-56961" lat="62.3390583295" lon="5.49255556499">
		<tag k="name" v="Mannevika" />
		<tag k="natural" v="bay" />
		<tag k="ssr:stedsnr" v="921635" />
	</node>
	<node id="-56959" lat="62.3489083307" lon="5.60698055794">
		<tag k="name" v="Hestefluda" />
		<tag k="natural" v="shoal" />
		<tag k="place" v="locality" />
		<tag k="ssr:stedsnr" v="901811" />
	</node>
	<node id="-56958" lat="62.3068055525" lon="5.6092416689">
		<tag k="name" v="Kvalebåen" />
		<tag k="natural" v="shoal" />
		<tag k="place" v="locality" />
		<tag k="ssr:stedsnr" v="901711" />
	</node>
	<node id="-56957" lat="62.3311000003" lon="5.59780555502">
		<tag k="fixme" v="consider seamark:type=rock or natural=shoal" />
		<tag k="name" v="Tora" />
		<tag k="place" v="islet" />
		<tag k="ssr:stedsnr" v="901709" />
	</node>
	<node id="-56956" lat="62.2987722202" lon="5.74970277155">
		<tag k="fixme" v="consider seamark:type=rock or natural=shoal" />
		<tag k="name" v="Bymannen" />
		<tag k="place" v="islet" />
		<tag k="ssr:stedsnr" v="901361" />
	</node>
	<node id="-56955" lat="62.3802805567" lon="5.73525833312">
		<tag k="name" v="Skyrflesjefluda" />
		<tag k="natural" v="shoal" />
		<tag k="place" v="locality" />
		<tag k="ssr:stedsnr" v="901303" />
	</node>
	<node id="-56947" lat="62.2321333291" lon="5.83965556179">
		<tag k="name" v="Djupsundet" />
		<tag k="natural" v="strait" />
		<tag k="ssr:stedsnr" v="887717" />
	</node>
	<node id="-56945" lat="62.3305555526" lon="5.67607500425">
		<tag k="alt_name" v="Krøkholmane" />
		<tag k="name" v="Skinholmane" />
		<tag k="place" v="islet" />
		<tag k="ssr:stedsnr" v="887357" />
	</node>
	<node id="-56942" lat="62.3117611101" lon="5.59956666346">
		<tag k="name" v="Vågsholmen" />
		<tag k="place" v="islet" />
		<tag k="ssr:stedsnr" v="887265" />
	</node>
	<node id="-56941" lat="62.3407861096" lon="5.60584444797">
		<tag k="alt_name" v="Øyra" />
		<tag k="name" v="Kvalsundøyra" />
		<tag k="natural" v="shoal" />
		<tag k="place" v="locality" />
		<tag k="ssr:stedsnr" v="887257" />
	</node>
	<node id="-56934" lat="62.294652777" lon="5.57144999446">
		<tag k="name" v="Løsetstranda" />
		<tag k="natural" v="beach" />
		<tag k="place" v="locality" />
		<tag k="ssr:stedsnr" v="948771" />
	</node>
	<node id="-56931" lat="62.2869055558" lon="5.79207222372">
		<tag k="name" v="Rissneset" />
		<tag k="natural" v="cape" />
		<tag k="ssr:stedsnr" v="948344" />
	</node>
	<node id="-56930" lat="62.2948527738" lon="5.58684445428">
		<tag k="name" v="Tarbergstaranda" />
		<tag k="natural" v="beach" />
		<tag k="place" v="locality" />
		<tag k="ssr:stedsnr" v="948289" />
	</node>
	<node id="-56926" lat="62.3614055523" lon="5.6169388973">
		<tag k="name" v="Skuteleidskjera" />
		<tag k="place" v="islet" />
		<tag k="ssr:stedsnr" v="947348" />
	</node>
	<node id="-56923" lat="62.4049500009" lon="5.65085555039">
		<tag k="name" v="Storevågen" />
		<tag k="natural" v="bay" />
		<tag k="ssr:stedsnr" v="860704" />
	</node>
	<node id="-56913" lat="62.2992472179" lon="5.74428610864">
		<tag k="name" v="Lisjeneset" />
		<tag k="natural" v="cape" />
		<tag k="ssr:stedsnr" v="939730" />
	</node>
	<node id="-56911" lat="62.2270777747" lon="5.83528054715">
		<tag k="name" v="Skallen" />
		<tag k="natural" v="shoal" />
		<tag k="place" v="locality" />
		<tag k="ssr:stedsnr" v="841753" />
	</node>
	<node id="-56910" lat="62.4133944425" lon="5.70884722033">
		<tag k="name" v="Teklefludene" />
		<tag k="natural" v="shoal" />
		<tag k="place" v="locality" />
		<tag k="ssr:stedsnr" v="840962" />
	</node>
	<node id="-56908" lat="62.3173527823" lon="5.70439722365">
		<tag k="name" v="Kyrkjefluda" />
		<tag k="natural" v="shoal" />
		<tag k="place" v="locality" />
		<tag k="ssr:stedsnr" v="840313" />
	</node>
	<node id="-56904" lat="62.331930559" lon="5.72934444646">
		<tag k="alt_name" v="Storevika" />
		<tag k="name" v="Storvika" />
		<tag k="natural" v="bay" />
		<tag k="ssr:stedsnr" v="800806" />
	</node>
	<node id="-56903" lat="62.3442500006" lon="5.50752777672">
		<tag k="name" v="Lurvene" />
		<tag k="natural" v="shoal" />
		<tag k="place" v="locality" />
		<tag k="ssr:stedsnr" v="800619" />
	</node>
	<node id="-56902" lat="62.3597472227" lon="5.62457222999">
		<tag k="name" v="Skotholmen" />
		<tag k="place" v="islet" />
		<tag k="ssr:stedsnr" v="800616" />
	</node>
	<node id="-56901" lat="62.3527277779" lon="5.60453612046">
		<tag k="name" v="Teigeneset" />
		<tag k="natural" v="cape" />
		<tag k="ssr:stedsnr" v="800615" />
	</node>
	<node id="-56895" lat="62.3567608986" lon="5.7460098456">
		<tag k="name" v="Bøholmen" />
		<tag k="place" v="islet" />
		<tag k="ssr:stedsnr" v="921867" />
	</node>
	<node id="-56894" lat="62.2931583353" lon="5.7783416637">
		<tag k="name" v="Geitholmane" />
		<tag k="place" v="islet" />
		<tag k="ssr:stedsnr" v="921779" />
	</node>
	<node id="-56893" lat="62.3983555573" lon="5.52771666472">
		<tag k="name" v="Geitmaren" />
		<tag k="natural" v="shoal" />
		<tag k="place" v="locality" />
		<tag k="ssr:stedsnr" v="921690" />
	</node>
	<node id="-56888" lat="62.403152782" lon="5.6576611072">
		<tag k="name" v="Tjeldefjøra" />
		<tag k="natural" v="bay" />
		<tag k="ssr:stedsnr" v="921683" />
	</node>
	<node id="-56885" lat="62.377941667" lon="5.63194721939">
		<tag k="name" v="Sæviksteinen" />
		<tag k="natural" v="cape" />
		<tag k="ssr:stedsnr" v="921669" />
	</node>
	<node id="-56884" lat="62.3683027762" lon="5.63972500497">
		<tag k="name" v="Remøya" />
		<tag k="place" v="island" />
		<tag k="ssr:stedsnr" v="921652" />
	</node>
	<node id="-56882" lat="62.3528611085" lon="5.52443334148">
		<tag k="name" v="Vollefjøra" />
		<tag k="natural" v="bay" />
		<tag k="ssr:stedsnr" v="921641" />
	</node>
	<node id="-56880" lat="62.3163083338" lon="5.68174443704">
		<tag k="name" v="Stegleholmen" />
		<tag k="place" v="islet" />
		<tag k="ssr:stedsnr" v="921597" />
	</node>
	<node id="-56879" lat="62.2754916661" lon="5.83763889492">
		<tag k="alt_name" v="Store Hestholmen" />
		<tag k="name" v="Hestholmen" />
		<tag k="place" v="islet" />
		<tag k="ssr:stedsnr" v="920173" />
	</node>
	<node id="-56878" lat="62.3162638862" lon="5.47841388467">
		<tag k="name" v="Nesjefluda" />
		<tag k="natural" v="shoal" />
		<tag k="place" v="locality" />
		<tag k="ssr:stedsnr" v="780707" />
	</node>
	<node id="-56877" lat="62.2877833377" lon="5.77300556293">
		<tag k="name" v="Kalveneset" />
		<tag k="natural" v="cape" />
		<tag k="ssr:stedsnr" v="765925" />
	</node>
	<node id="-56875" lat="62.2651555573" lon="5.80311111605">
		<tag k="alt_name" v="Grønenes" />
		<tag k="name" v="Grøneneset" />
		<tag k="natural" v="cape" />
		<tag k="ssr:stedsnr" v="765261" />
	</node>
	<node id="-56873" lat="62.3367222221" lon="5.58118054751">
		<tag k="name" v="Notaneset" />
		<tag k="natural" v="cape" />
		<tag k="ssr:stedsnr" v="765329" />
	</node>
	<node id="-56872" lat="62.3463944451" lon="5.60373333203">
		<tag k="name" v="Røysabugen" />
		<tag k="natural" v="bay" />
		<tag k="ssr:stedsnr" v="765324" />
	</node>
	<node id="-56870" lat="62.2934916689" lon="5.79198610829">
		<tag k="name" v="Eliasholmen" />
		<tag k="place" v="islet" />
		<tag k="ssr:stedsnr" v="739774" />
	</node>
	<node id="-56868" lat="62.3582861075" lon="5.59336945288">
		<tag k="name" v="Verpingsneset" />
		<tag k="natural" v="cape" />
		<tag k="ssr:stedsnr" v="739626" />
	</node>
	<node id="-56867" lat="62.3492666668" lon="5.63473889474">
		<tag k="bay" v="fjord" />
		<tag k="name" v="Holmefjorden" />
		<tag k="natural" v="bay" />
		<tag k="ssr:stedsnr" v="739614" />
	</node>
	<node id="-56866" lat="62.3314916691" lon="5.48079999288">
		<tag k="name" v="Trollenesvika" />
		<tag k="natural" v="bay" />
		<tag k="ssr:stedsnr" v="739603" />
	</node>
	<node id="-56864" lat="62.3592988426" lon="5.74996633552">
		<tag k="name" v="Bøbåen" />
		<tag k="natural" v="shoal" />
		<tag k="place" v="locality" />
		<tag k="ssr:stedsnr" v="901292" />
	</node>
	<node id="-56863" lat="62.3445305531" lon="5.67271389275">
		<tag k="name" v="Hetta" />
		<tag k="natural" v="cape" />
		<tag k="ssr:stedsnr" v="719409" />
	</node>
	<node id="-56862" lat="62.3335111074" lon="5.67368056045">
		<tag k="name" v="Krokstraumen" />
		<tag k="natural" v="strait" />
		<tag k="ssr:stedsnr" v="719407" />
	</node>
	<node id="-56859" lat="62.357541668" lon="5.62242777605">
		<tag k="name" v="Lyngholmane" />
		<tag k="place" v="islet" />
		<tag k="ssr:stedsnr" v="705415" />
	</node>
	<node id="-56856" lat="62.302322226" lon="5.74140278101">
		<tag k="name" v="Storeneset" />
		<tag k="natural" v="cape" />
		<tag k="ssr:stedsnr" v="705345" />
	</node>
	<node id="-56853" lat="62.3647944457" lon="5.66946388182">
		<tag k="name" v="Køyla" />
		<tag k="natural" v="bay" />
		<tag k="ssr:stedsnr" v="887738" />
	</node>
	<node id="-56849" lat="62.2881749976" lon="5.75732500452">
		<tag k="name" v="Saudeholmen" />
		<tag k="place" v="islet" />
		<tag k="ssr:stedsnr" v="887329" />
	</node>
	<node id="-56848" lat="62.3307638866" lon="5.73750833101">
		<tag k="alt_name" v="Storeneset;Storevikneset" />
		<tag k="name" v="Storneset" />
		<tag k="natural" v="cape" />
		<tag k="ssr:stedsnr" v="678819" />
	</node>
	<node id="-56845" lat="62.4054499973" lon="5.65895555124">
		<tag k="name" v="Korsen" />
		<tag k="natural" v="bay" />
		<tag k="ssr:stedsnr" v="678658" />
	</node>
	<node id="-56844" lat="62.3442361132" lon="5.68115278359">
		<tag k="alt_name" v="Leinevågen" />
		<tag k="name" v="Leinevika" />
		<tag k="natural" v="bay" />
		<tag k="ssr:stedsnr" v="678606" />
	</node>
	<node id="-56843" lat="62.3121749995" lon="5.39648889626">
		<tag k="name" v="Årbenda" />
		<tag k="natural" v="shoal" />
		<tag k="place" v="locality" />
		<tag k="ssr:stedsnr" v="678566" />
	</node>
	<node id="-56839" lat="62.2346944437" lon="5.83563610526">
		<tag k="name" v="Bjørnholmen" />
		<tag k="place" v="islet" />
		<tag k="ssr:stedsnr" v="678174" />
	</node>
	<node id="-56836" lat="62.2138222245" lon="5.79175278392">
		<tag k="name" v="Vålneset" />
		<tag k="natural" v="cape" />
		<tag k="ssr:stedsnr" v="678078" />
	</node>
	<node id="-56835" lat="62.301219441" lon="5.61120278386">
		<tag k="name" v="Lisje Langholmen" />
		<tag k="place" v="islet" />
		<tag k="ssr:stedsnr" v="879229" />
	</node>
	<node id="-56834" lat="62.4055305538" lon="5.58960555721">
		<tag k="name" v="Hjorthaugsmåla" />
		<tag k="natural" v="cape" />
		<tag k="ssr:stedsnr" v="658872" />
	</node>
	<node id="-56833" lat="62.3173888898" lon="5.5923444444">
		<tag k="name" v="Lisje Sandøya" />
		<tag k="place" v="islet" />
		<tag k="ssr:stedsnr" v="617585" />
	</node>
	<node id="-56832" lat="62.3167333301" lon="5.58839999179">
		<tag k="fixme" v="consider seamark:type=rock or natural=shoal" />
		<tag k="name" v="Lisjeskjeret" />
		<tag k="place" v="islet" />
		<tag k="ssr:stedsnr" v="617582" />
	</node>
	<node id="-56831" lat="62.3254611129" lon="5.66137777285">
		<tag k="name" v="Gjertneset" />
		<tag k="natural" v="cape" />
		<tag k="ssr:stedsnr" v="617577" />
	</node>
	<node id="-56830" lat="62.3051805523" lon="5.4733777755">
		<tag k="name" v="Store Godøyfluda" />
		<tag k="natural" v="shoal" />
		<tag k="place" v="locality" />
		<tag k="ssr:stedsnr" v="617575" />
	</node>
	<node id="-56829" lat="62.3155472184" lon="5.68630833388">
		<tag k="name" v="Fugleholmen" />
		<tag k="place" v="islet" />
		<tag k="ssr:stedsnr" v="617574" />
	</node>
	<node id="-56828" lat="62.3184027799" lon="5.59860278047">
		<tag k="fixme" v="multiple name tags, choose one and add the other to alt_name" />
		<tag k="name" v="Sandøya;Store Sandøya" />
		<tag k="place" v="island" />
		<tag k="ssr:stedsnr" v="617569" />
	</node>
	<node id="-56827" lat="62.3150916691" lon="5.70767499815">
		<tag k="alt_name" v="Jønsholmen" />
		<tag k="name" v="Jensholmen" />
		<tag k="place" v="islet" />
		<tag k="ssr:stedsnr" v="617564" />
	</node>
	<node id="-56826" lat="62.3007722188" lon="5.5830888902">
		<tag k="fixme" v="consider seamark:type=rock or natural=shoal" />
		<tag k="name" v="Hidslendingane" />
		<tag k="place" v="islet" />
		<tag k="ssr:stedsnr" v="617561" />
	</node>
	<node id="-56825" lat="62.2932194454" lon="5.56401110583">
		<tag k="name" v="Løsethammaren" />
		<tag k="natural" v="cape" />
		<tag k="ssr:stedsnr" v="617556" />
	</node>
	<node id="-56824" lat="62.2926777808" lon="5.82544999342">
		<tag k="alt_name" v="Høymoleskjeret" />
		<tag k="fixme" v="consider seamark:type=rock or natural=shoal" />
		<tag k="name" v="Høymolskjeret" />
		<tag k="place" v="islet" />
		<tag k="ssr:stedsnr" v="617170" />
	</node>
	<node id="-56823" lat="62.2315333335" lon="5.83092222857">
		<tag k="name" v="Måløya" />
		<tag k="place" v="island" />
		<tag k="ssr:stedsnr" v="617213" />
	</node>
	<node id="-56822" lat="62.2678722199" lon="5.82851111607">
		<tag k="name" v="Kjeholmen" />
		<tag k="place" v="islet" />
		<tag k="ssr:stedsnr" v="617211" />
	</node>
	<node id="-56821" lat="62.401177778" lon="5.52260554996">
		<tag k="name" v="Geitmarfluda" />
		<tag k="natural" v="shoal" />
		<tag k="place" v="locality" />
		<tag k="ssr:stedsnr" v="719927" />
	</node>
	<node id="-56820" lat="62.4188388865" lon="5.60923054817">
		<tag k="name" v="Rautendfluda" />
		<tag k="natural" v="shoal" />
		<tag k="place" v="locality" />
		<tag k="ssr:stedsnr" v="719850" />
	</node>
	<node id="-56819" lat="62.3257888893" lon="5.2784888805">
		<tag k="name" v="Grynn-nabben" />
		<tag k="natural" v="shoal" />
		<tag k="place" v="locality" />
		<tag k="ssr:stedsnr" v="719746" />
	</node>
	<node id="-56818" lat="62.3265888924" lon="5.55581389403">
		<tag k="name" v="Søre Skallen" />
		<tag k="natural" v="shoal" />
		<tag k="place" v="locality" />
		<tag k="ssr:stedsnr" v="719689" />
	</node>
	<node id="-56817" lat="62.3161583346" lon="5.60521111882">
		<tag k="fixme" v="consider seamark:type=rock or natural=shoal" />
		<tag k="name" v="Kua" />
		<tag k="place" v="islet" />
		<tag k="ssr:stedsnr" v="719673" />
	</node>
	<node id="-56816" lat="62.3387222239" lon="5.61077777815">
		<tag k="name" v="Berghovda" />
		<tag k="natural" v="cape" />
		<tag k="ssr:stedsnr" v="719672" />
	</node>
	<node id="-56815" lat="62.3329027774" lon="5.59435556234">
		<tag k="name" v="Torebåen" />
		<tag k="natural" v="shoal" />
		<tag k="place" v="locality" />
		<tag k="ssr:stedsnr" v="719670" />
	</node>
	<node id="-56814" lat="62.3733583316" lon="5.53271943612">
		<tag k="name" v="Børafluda" />
		<tag k="natural" v="shoal" />
		<tag k="place" v="locality" />
		<tag k="ssr:stedsnr" v="719799" />
	</node>
	<node id="-56812" lat="62.31192778" lon="5.52389444527">
		<tag k="name" v="Lisje Erkneskjera" />
		<tag k="natural" v="shoal" />
		<tag k="place" v="locality" />
		<tag k="ssr:stedsnr" v="602954" />
	</node>
	<node id="-56809" lat="62.3430999993" lon="5.63733332873">
		<tag k="name" v="Urholmen" />
		<tag k="place" v="islet" />
		<tag k="ssr:stedsnr" v="583738" />
	</node>
	<node id="-56808" lat="62.33283889" lon="5.67609444121">
		<tag k="name" v="Krøkja" />
		<tag k="place" v="islet" />
		<tag k="ssr:stedsnr" v="583735" />
	</node>
	<node id="-56807" lat="62.3569222194" lon="5.6692416598">
		<tag k="name" v="Buholmen" />
		<tag k="place" v="islet" />
		<tag k="ssr:stedsnr" v="583728" />
	</node>
	<node id="-56806" lat="62.3608416677" lon="5.62171666629">
		<tag k="name" v="Urholmen" />
		<tag k="place" v="islet" />
		<tag k="ssr:stedsnr" v="583722" />
	</node>
	<node id="-56805" lat="62.3656305559" lon="5.71850556485">
		<tag k="name" v="Smånesja" />
		<tag k="natural" v="bay" />
		<tag k="ssr:stedsnr" v="583719" />
	</node>
	<node id="-56802" lat="62.2832916711" lon="5.76843611754">
		<tag k="name" v="Aurvågane" />
		<tag k="natural" v="bay" />
		<tag k="ssr:stedsnr" v="583310" />
	</node>
	<node id="-56801" lat="62.5533333343" lon="5.48333334065">
		<tag k="name" v="Flåskallen" />
		<tag k="place" v="locality" />
		<tag k="ssr:stedsnr" v="709665" />
	</node>
	<node id="-56800" lat="62.5833333339" lon="5.22916665939">
		<tag k="name" v="Vestre Kroken" />
		<tag k="place" v="locality" />
		<tag k="ssr:stedsnr" v="709663" />
	</node>
	<node id="-56795" lat="62.3579166698" lon="5.61996943571">
		<tag k="name" v="Tangane" />
		<tag k="natural" v="cape" />
		<tag k="ssr:stedsnr" v="705798" />
	</node>
	<node id="-56791" lat="62.2564888872" lon="5.79603888222">
		<tag k="name" v="Klubbevika" />
		<tag k="natural" v="bay" />
		<tag k="ssr:stedsnr" v="705776" />
	</node>
	<node id="-56785" lat="62.33981111" lon="5.60738055758">
		<tag k="name" v="Igesundsvaulen" />
		<tag k="natural" v="strait" />
		<tag k="ssr:stedsnr" v="705388" />
	</node>
	<node id="-56778" lat="62.3320444438" lon="5.67395833587">
		<tag k="name" v="Straumane" />
		<tag k="natural" v="strait" />
		<tag k="ssr:stedsnr" v="557555" />
	</node>
	<node id="-56777" lat="62.3323805547" lon="5.63011945105">
		<tag k="name" v="Bergsøya" />
		<tag k="place" v="island" />
		<tag k="ssr:stedsnr" v="557554" />
	</node>
	<node id="-56774" lat="62.368858331" lon="5.71081110592">
		<tag k="name" v="Kråkøysundet" />
		<tag k="natural" v="strait" />
		<tag k="ssr:stedsnr" v="556657" />
	</node>
	<node id="-56773" lat="62.4765305574" lon="5.54260833521">
		<tag k="name" v="Sandemannsskallen" />
		<tag k="natural" v="shoal" />
		<tag k="place" v="locality" />
		<tag k="ssr:stedsnr" v="556708" />
	</node>
	<node id="-56772" lat="62.4543361118" lon="5.51044721745">
		<tag k="name" v="Vidgrynnskallane" />
		<tag k="natural" v="shoal" />
		<tag k="place" v="locality" />
		<tag k="ssr:stedsnr" v="556705" />
	</node>
	<node id="-56767" lat="62.3596861154" lon="5.63016666913">
		<tag k="name" v="Sildholmen" />
		<tag k="place" v="islet" />
		<tag k="ssr:stedsnr" v="523391" />
	</node>
	<node id="-56762" lat="62.3463833297" lon="5.74068332427">
		<tag k="name" v="Vikane" />
		<tag k="natural" v="cape" />
		<tag k="ssr:stedsnr" v="496857" />
	</node>
	<node id="-56759" lat="62.4584055568" lon="5.62948056352">
		<tag k="name" v="Golla" />
		<tag k="natural" v="shoal" />
		<tag k="place" v="locality" />
		<tag k="ssr:stedsnr" v="496688" />
	</node>
	<node id="-56758" lat="62.4035249998" lon="5.64136945204">
		<tag k="name" v="Goksøyrvika" />
		<tag k="natural" v="bay" />
		<tag k="ssr:stedsnr" v="496674" />
	</node>
	<node id="-56757" lat="62.4152999987" lon="5.58761943578">
		<tag k="name" v="Kvalneset" />
		<tag k="natural" v="cape" />
		<tag k="ssr:stedsnr" v="496672" />
	</node>
	<node id="-56750" lat="62.3620611113" lon="5.72428332416">
		<tag k="name" v="Sandevika" />
		<tag k="natural" v="bay" />
		<tag k="ssr:stedsnr" v="678845" />
	</node>
	<node id="-56749" lat="62.3675916627" lon="5.71992500551">
		<tag k="name" v="Lisjeholmen" />
		<tag k="place" v="islet" />
		<tag k="ssr:stedsnr" v="678843" />
	</node>
	<node id="-56748" lat="62.4821888927" lon="5.67031389608">
		<tag k="name" v="Keipebåane" />
		<tag k="natural" v="shoal" />
		<tag k="place" v="locality" />
		<tag k="ssr:stedsnr" v="678684" />
	</node>
	<node id="-56747" lat="62.3092700595" lon="5.69663636734">
		<tag k="alt_name" v="Notøy" />
		<tag k="name" v="Nautøya" />
		<tag k="old_name" v="Nautø" />
		<tag k="place" v="island" />
		<tag k="ssr:stedsnr" v="678552" />
	</node>
	<node id="-56746" lat="62.2997277759" lon="5.64192222326">
		<tag k="name" v="Moltusteinen" />
		<tag k="natural" v="cape" />
		<tag k="ssr:stedsnr" v="678551" />
	</node>
	<node id="-56745" lat="62.3016250034" lon="5.6849833395">
		<tag k="name" v="Rysseneset" />
		<tag k="natural" v="cape" />
		<tag k="ssr:stedsnr" v="678547" />
	</node>
	<node id="-56744" lat="62.3051444466" lon="5.70411389557">
		<tag k="name" v="Vedøya" />
		<tag k="place" v="islet" />
		<tag k="ssr:stedsnr" v="678544" />
	</node>
	<node id="-56742" lat="62.3640249975" lon="5.59474721401">
		<tag k="alt_name" v="Svarteskjeret" />
		<tag k="fixme" v="consider seamark:type=rock or natural=shoal" />
		<tag k="name" v="Svartskjeret" />
		<tag k="place" v="islet" />
		<tag k="ssr:stedsnr" v="678630" />
	</node>
	<node id="-56741" lat="62.3608722204" lon="5.56073611037">
		<tag k="name" v="Myraneset" />
		<tag k="natural" v="cape" />
		<tag k="ssr:stedsnr" v="678628" />
	</node>
	<node id="-56740" lat="62.3293777822" lon="5.26598333127">
		<tag k="name" v="Svinøya" />
		<tag k="place" v="island" />
		<tag k="ssr:stedsnr" v="678598" />
	</node>
	<node id="-56735" lat="62.3297722192" lon="5.4952611032">
		<tag k="name" v="Skorpa" />
		<tag k="place" v="island" />
		<tag k="ssr:stedsnr" v="678573" />
	</node>
	<node id="-56734" lat="62.3274111149" lon="5.25596943682">
		<tag k="name" v="Steinen" />
		<tag k="natural" v="shoal" />
		<tag k="place" v="locality" />
		<tag k="ssr:stedsnr" v="479805" />
	</node>
	<node id="-56732" lat="62.3754500035" lon="5.54815278305">
		<tag k="name" v="Lurerevet" />
		<tag k="natural" v="shoal" />
		<tag k="place" v="locality" />
		<tag k="ssr:stedsnr" v="658793" />
	</node>
	<node id="-56731" lat="62.3347722218" lon="5.75583610879">
		<tag k="fixme" v="consider seamark:type=rock or natural=shoal" />
		<tag k="name" v="Røysa" />
		<tag k="place" v="islet" />
		<tag k="ssr:stedsnr" v="658354" />
	</node>
	<node id="-56730" lat="62.3008722213" lon="5.71456111497">
		<tag k="name" v="Langenes" />
		<tag k="natural" v="cape" />
		<tag k="ssr:stedsnr" v="658334" />
	</node>
	<node id="-56729" lat="62.3654805566" lon="5.71646389748">
		<tag k="name" v="Småneset" />
		<tag k="natural" v="cape" />
		<tag k="ssr:stedsnr" v="658327" />
	</node>
	<node id="-56727" lat="62.3909472265" lon="5.66076388268">
		<tag k="fixme" v="consider seamark:type=rock or natural=shoal" />
		<tag k="name" v="Storeskjeret" />
		<tag k="place" v="islet" />
		<tag k="ssr:stedsnr" v="436613" />
	</node>
	<node id="-56726" lat="62.2325888845" lon="5.8429444371">
		<tag k="name" v="Vaskavikholmane" />
		<tag k="place" v="islet" />
		<tag k="ssr:stedsnr" v="436141" />
	</node>
	<node id="-56723" lat="62.3431583295" lon="5.73341944636">
		<tag k="name" v="Torvikstranda" />
		<tag k="natural" v="beach" />
		<tag k="place" v="locality" />
		<tag k="ssr:stedsnr" v="416315" />
	</node>
	<node id="-56721" lat="62.367847226" lon="5.56014999429">
		<tag k="fixme" v="consider seamark:type=rock or natural=shoal" />
		<tag k="name" v="Rogneskjera" />
		<tag k="place" v="islet" />
		<tag k="ssr:stedsnr" v="375619" />
	</node>
	<node id="-56718" lat="62.3291388852" lon="5.26906665778">
		<tag k="name" v="Skarvehammaren" />
		<tag k="natural" v="cape" />
		<tag k="ssr:stedsnr" v="375557" />
	</node>
	<node id="-56716" lat="62.402730553" lon="5.42716665863">
		<tag k="name" v="Flønesgrynnene" />
		<tag k="natural" v="shoal" />
		<tag k="place" v="locality" />
		<tag k="ssr:stedsnr" v="374663" />
	</node>
	<node id="-56715" lat="62.4006194411" lon="5.62416944929">
		<tag k="name" v="Runde" />
		<tag k="place" v="island" />
		<tag k="ssr:stedsnr" v="374656" />
	</node>
	<node id="-56714" lat="62.3621888904" lon="5.42420000033">
		<tag k="name" v="Søre Gubben" />
		<tag k="natural" v="shoal" />
		<tag k="place" v="locality" />
		<tag k="ssr:stedsnr" v="374615" />
	</node>
	<node id="-56710" lat="62.332013892" lon="5.74175832428">
		<tag k="alt_name" v="Brendholmen" />
		<tag k="name" v="Brennholmen" />
		<tag k="place" v="islet" />
		<tag k="ssr:stedsnr" v="496823" />
	</node>
	<node id="-56709" lat="62.2922292722" lon="5.75635599895">
		<tag k="name" v="Storøya" />
		<tag k="place" v="islet" />
		<tag k="ssr:stedsnr" v="496780" />
	</node>
	<node id="-56708" lat="62.3010527813" lon="5.76589722289">
		<tag k="name" v="Betemma" />
		<tag k="place" v="islet" />
		<tag k="ssr:stedsnr" v="496754" />
	</node>
	<node id="-56707" lat="62.3992611093" lon="5.66357500922">
		<tag k="name" v="Kjerringholmen" />
		<tag k="place" v="islet" />
		<tag k="ssr:stedsnr" v="496651" />
	</node>
	<node id="-56706" lat="62.3873694425" lon="5.60281944685">
		<tag k="alt_name" v="Måkeneset" />
		<tag k="name" v="Måganeset" />
		<tag k="natural" v="cape" />
		<tag k="ssr:stedsnr" v="496650" />
	</node>
	<node id="-56703" lat="62.3524083359" lon="5.45597500639">
		<tag k="name" v="Raudestakken" />
		<tag k="natural" v="shoal" />
		<tag k="place" v="locality" />
		<tag k="ssr:stedsnr" v="496633" />
	</node>
	<node id="-56702" lat="62.3529777785" lon="5.44308888738">
		<tag k="name" v="Bræken" />
		<tag k="natural" v="shoal" />
		<tag k="place" v="locality" />
		<tag k="ssr:stedsnr" v="496631" />
	</node>
	<node id="-56701" lat="62.3553249985" lon="5.61047221805">
		<tag k="alt_name" v="Breisundet" />
		<tag k="name" v="Breidsundet" />
		<tag k="natural" v="strait" />
		<tag k="ssr:stedsnr" v="496622" />
	</node>
	<node id="-56699" lat="62.3315583353" lon="5.26517222744">
		<tag k="name" v="Kista" />
		<tag k="natural" v="cape" />
		<tag k="ssr:stedsnr" v="496613" />
	</node>
	<node id="-56697" lat="62.327344445" lon="5.51486389406">
		<tag k="name" v="Klombraneset" />
		<tag k="natural" v="cape" />
		<tag k="ssr:stedsnr" v="496601" />
	</node>
	<node id="-56696" lat="62.3183194422" lon="5.48446667375">
		<tag k="name" v="Skorpetangen" />
		<tag k="natural" v="cape" />
		<tag k="ssr:stedsnr" v="496598" />
	</node>
	<node id="-56695" lat="62.3018972223" lon="5.64955555391">
		<tag k="name" v="Steinsholmen" />
		<tag k="place" v="islet" />
		<tag k="ssr:stedsnr" v="496574" />
	</node>
	<node id="-56688" lat="62.2709583363" lon="5.83578055098">
		<tag k="alt_name" v="Litle Hestholmen" />
		<tag k="name" v="Bakarholmen" />
		<tag k="place" v="islet" />
		<tag k="ssr:stedsnr" v="495190" />
	</node>
	<node id="-56686" lat="62.322722219" lon="5.50392777722">
		<tag k="fixme" v="consider seamark:type=rock or natural=shoal" />
		<tag k="name" v="Kobbestein" />
		<tag k="place" v="islet" />
		<tag k="ssr:stedsnr" v="360956" />
	</node>
	<node id="-56684" lat="62.6033333359" lon="5.23333333668">
		<tag k="name" v="Barmeggene" />
		<tag k="place" v="locality" />
		<tag k="ssr:stedsnr" v="345652" />
	</node>
	<node id="-56683" lat="62.3312777812" lon="5.37460555815">
		<tag k="name" v="Fauskefluda" />
		<tag k="natural" v="shoal" />
		<tag k="place" v="locality" />
		<tag k="ssr:stedsnr" v="476781" />
	</node>
	<node id="-56681" lat="62.3083861116" lon="5.56755277101">
		<tag k="name" v="Blomrokkene" />
		<tag k="natural" v="shoal" />
		<tag k="place" v="locality" />
		<tag k="ssr:stedsnr" v="476714" />
	</node>
	<node id="-56679" lat="62.3732055522" lon="5.70874999116">
		<tag k="fixme" v="consider seamark:type=rock or natural=shoal" />
		<tag k="name" v="Snagane" />
		<tag k="place" v="islet" />
		<tag k="ssr:stedsnr" v="476249" />
	</node>
	<node id="-56678" lat="62.3768861129" lon="5.72382500178">
		<tag k="fixme" v="consider seamark:type=rock or natural=shoal" />
		<tag k="name" v="Ingridskjeret" />
		<tag k="place" v="islet" />
		<tag k="ssr:stedsnr" v="476248" />
	</node>
	<node id="-56675" lat="62.2941055593" lon="5.75078332594">
		<tag k="name" v="Lisjøya" />
		<tag k="place" v="islet" />
		<tag k="ssr:stedsnr" v="314771" />
	</node>
	<node id="-56673" lat="62.3675444456" lon="5.51551666608">
		<tag k="name" v="Lyrevika" />
		<tag k="natural" v="bay" />
		<tag k="ssr:stedsnr" v="314671" />
	</node>
	<node id="-56672" lat="62.365472221" lon="5.61828055418">
		<tag k="name" v="Skrufjellsvika" />
		<tag k="natural" v="bay" />
		<tag k="ssr:stedsnr" v="314659" />
	</node>
	<node id="-56671" lat="62.3581111156" lon="5.52022777677">
		<tag k="name" v="Trosvika" />
		<tag k="natural" v="bay" />
		<tag k="ssr:stedsnr" v="314656" />
	</node>
	<node id="-56670" lat="62.2822361137" lon="5.83124166181">
		<tag k="name" v="Dragsundet" />
		<tag k="natural" v="strait" />
		<tag k="ssr:stedsnr" v="314209" />
	</node>
	<node id="-56667" lat="62.3823111112" lon="5.63285278547">
		<tag k="name" v="Langskjera" />
		<tag k="place" v="islet" />
		<tag k="ssr:stedsnr" v="463344" />
	</node>
	<node id="-56663" lat="62.3400083346" lon="5.64069999304">
		<tag k="name" v="Vågen" />
		<tag k="natural" v="bay" />
		<tag k="ssr:stedsnr" v="462726" />
	</node>
	<node id="-56662" lat="62.3591166661" lon="5.72868888725">
		<tag k="name" v="Klubben" />
		<tag k="place" v="islet" />
		<tag k="ssr:stedsnr" v="462721" />
	</node>
	<node id="-56659" lat="62.2300388923" lon="5.81448888368">
		<tag k="alt_name" v="Måløysundet" />
		<tag k="name" v="Måløystraumen" />
		<tag k="natural" v="strait" />
		<tag k="ssr:stedsnr" v="462698" />
	</node>
	<node id="-56656" lat="62.2323777789" lon="5.8293861137">
		<tag k="name" v="Fatlvika" />
		<tag k="natural" v="bay" />
		<tag k="ssr:stedsnr" v="462644" />
	</node>
	<node id="-56649" lat="62.3225583373" lon="5.651927771">
		<tag k="name" v="Eggesbøvågen" />
		<tag k="natural" v="bay" />
		<tag k="ssr:stedsnr" v="462302" />
	</node>
	<node id="-56644" lat="62.3258166704" lon="5.64901110733">
		<tag k="name" v="Breideneset" />
		<tag k="natural" v="cape" />
		<tag k="ssr:stedsnr" v="462139" />
	</node>
	<node id="-56641" lat="62.3634750034" lon="5.61201111808">
		<tag k="name" v="Brattholmen" />
		<tag k="place" v="islet" />
		<tag k="ssr:stedsnr" v="280310" />
	</node>
	<node id="-56640" lat="62.3548083339" lon="5.59427778431">
		<tag k="alt_name" v="Åndabøvika" />
		<tag k="name" v="Andabøvika" />
		<tag k="natural" v="bay" />
		<tag k="ssr:stedsnr" v="280305" />
	</node>
	<node id="-56639" lat="62.3575888902" lon="5.61306667386">
		<tag k="name" v="Trollholmen" />
		<tag k="place" v="islet" />
		<tag k="ssr:stedsnr" v="280304" />
	</node>
	<node id="-56638" lat="62.3741972209" lon="5.55855276934">
		<tag k="name" v="Golleneset" />
		<tag k="natural" v="cape" />
		<tag k="ssr:stedsnr" v="272255" />
	</node>
	<node id="-56636" lat="62.3669611114" lon="5.67260276938">
		<tag k="name" v="Storevika" />
		<tag k="natural" v="bay" />
		<tag k="ssr:stedsnr" v="254652" />
	</node>
	<node id="-56632" lat="62.3523333371" lon="5.42531944848">
		<tag k="name" v="Hornbåfluda" />
		<tag k="natural" v="shoal" />
		<tag k="place" v="locality" />
		<tag k="ssr:stedsnr" v="295842" />
	</node>
	<node id="-56631" lat="62.4058361096" lon="5.568049992">
		<tag k="name" v="Hjortefluda" />
		<tag k="natural" v="shoal" />
		<tag k="place" v="locality" />
		<tag k="ssr:stedsnr" v="294912" />
	</node>
	<node id="-56630" lat="62.3425333348" lon="5.75548056169">
		<tag k="name" v="Båen" />
		<tag k="natural" v="shoal" />
		<tag k="place" v="locality" />
		<tag k="ssr:stedsnr" v="294353" />
	</node>
	<node id="-56629" lat="62.3045555591" lon="5.66775278095">
		<tag k="fixme" v="consider seamark:type=rock or natural=shoal" />
		<tag k="name" v="Kyrkjeskjeret" />
		<tag k="place" v="islet" />
		<tag k="ssr:stedsnr" v="294316" />
	</node>
	<node id="-56628" lat="62.3109083295" lon="5.71193888764">
		<tag k="name" v="Indre Tangen" />
		<tag k="natural" v="cape" />
		<tag k="ssr:stedsnr" v="294305" />
	</node>
	<node id="-56626" lat="62.3289388918" lon="5.73701110622">
		<tag k="name" v="Skarvika" />
		<tag k="natural" v="bay" />
		<tag k="ssr:stedsnr" v="193840" />
	</node>
	<node id="-56625" lat="62.3525916706" lon="5.51947499962">
		<tag k="name" v="Mulevika" />
		<tag k="natural" v="bay" />
		<tag k="ssr:stedsnr" v="193619" />
	</node>
	<node id="-56624" lat="62.3332888928" lon="5.47794167564">
		<tag k="name" v="Trolleneset" />
		<tag k="natural" v="cape" />
		<tag k="ssr:stedsnr" v="193603" />
	</node>
	<node id="-56622" lat="62.2086444462" lon="5.63810278136">
		<tag k="name" v="Gurskøya" />
		<tag k="place" v="island" />
		<tag k="ssr:stedsnr" v="192633" />
	</node>
	<node id="-56621" lat="62.5861111095" lon="5.49444444562">
		<tag k="name" v="Klovegrunnen" />
		<tag k="natural" v="shoal" />
		<tag k="place" v="locality" />
		<tag k="ssr:stedsnr" v="285662" />
	</node>
	<node id="-56620" lat="62.3749999961" lon="5.21666666241">
		<tag k="name" v="Mulegrunnen" />
		<tag k="natural" v="shoal" />
		<tag k="place" v="locality" />
		<tag k="ssr:stedsnr" v="285661" />
	</node>
	<node id="-56619" lat="62.327522218" lon="5.27477500362">
		<tag k="name" v="Skjernabben" />
		<tag k="natural" v="shoal" />
		<tag k="place" v="locality" />
		<tag k="ssr:stedsnr" v="177819" />
	</node>
	<node id="-56617" lat="62.3322194436" lon="5.68263332947">
		<tag k="name" v="Grønfjellsvika" />
		<tag k="natural" v="bay" />
		<tag k="ssr:stedsnr" v="281802" />
	</node>
	<node id="-56616" lat="62.3782527791" lon="5.62989444801">
		<tag k="name" v="Litlesteinvika" />
		<tag k="natural" v="bay" />
		<tag k="ssr:stedsnr" v="281390" />
	</node>
	<node id="-56615" lat="62.2993749958" lon="5.65207776934">
		<tag k="name" v="Hansvika" />
		<tag k="natural" v="bay" />
		<tag k="ssr:stedsnr" v="280760" />
	</node>
	<node id="-56613" lat="62.3599027773" lon="5.61422778659">
		<tag k="name" v="Vårhuda" />
		<tag k="place" v="islet" />
		<tag k="ssr:stedsnr" v="280753" />
	</node>
	<node id="-56612" lat="62.3707833365" lon="5.55583054867">
		<tag k="name" v="Bugen" />
		<tag k="natural" v="bay" />
		<tag k="ssr:stedsnr" v="280751" />
	</node>
	<node id="-56611" lat="62.3471611091" lon="5.51768055022">
		<tag k="name" v="Mulevika" />
		<tag k="natural" v="bay" />
		<tag k="ssr:stedsnr" v="280746" />
	</node>
	<node id="-56609" lat="62.275177781" lon="5.82173333749">
		<tag k="name" v="Griseholmen" />
		<tag k="place" v="islet" />
		<tag k="ssr:stedsnr" v="280736" />
	</node>
	<node id="-56608" lat="62.2763666669" lon="5.81385000102">
		<tag k="name" v="Kvernavågen" />
		<tag k="natural" v="bay" />
		<tag k="ssr:stedsnr" v="280732" />
	</node>
	<node id="-56603" lat="62.2906361134" lon="5.55937500081">
		<tag k="name" v="Løsetmølen" />
		<tag k="natural" v="beach" />
		<tag k="place" v="locality" />
		<tag k="ssr:stedsnr" v="280707" />
	</node>
	<node id="-56597" lat="62.3012777816" lon="5.77065833619">
		<tag k="name" v="Kofteholmen" />
		<tag k="place" v="islet" />
		<tag k="ssr:stedsnr" v="280294" />
	</node>
	<node id="-56593" lat="62.3295916624" lon="5.59870000452">
		<tag k="name" v="Mjeltevika" />
		<tag k="natural" v="bay" />
		<tag k="ssr:stedsnr" v="280208" />
	</node>
	<node id="-56587" lat="62.3390222216" lon="5.60653056354">
		<tag k="alt_name" v="Vaulen, søre" />
		<tag k="name" v="Søre Vaulen" />
		<tag k="natural" v="strait" />
		<tag k="ssr:stedsnr" v="132605" />
	</node>
	<node id="-56586" lat="62.3290916705" lon="5.26395277397">
		<tag k="name" v="Vesthammaren" />
		<tag k="natural" v="cape" />
		<tag k="ssr:stedsnr" v="132603" />
	</node>
	<node id="-56581" lat="62.2918855096" lon="5.78502863057">
		<tag k="alt_name" v="Kriksholmen;Krigsholmen" />
		<tag k="name" v="Kristofferholmen" />
		<tag k="place" v="islet" />
		<tag k="ssr:stedsnr" v="132130" />
	</node>
	<node id="-56579" lat="62.3614055521" lon="5.57249443737">
		<tag k="name" v="Kvalsvika" />
		<tag k="natural" v="bay" />
		<tag k="ssr:stedsnr" v="112811" />
	</node>
	<node id="-56578" lat="62.3473972196" lon="5.60286110477">
		<tag k="name" v="Neset" />
		<tag k="natural" v="shoal" />
		<tag k="place" v="locality" />
		<tag k="ssr:stedsnr" v="112727" />
	</node>
	<node id="-56577" lat="62.3069638933" lon="5.51763333629">
		<tag k="name" v="Ristegrunnen" />
		<tag k="natural" v="shoal" />
		<tag k="place" v="locality" />
		<tag k="ssr:stedsnr" v="112716" />
	</node>
	<node id="-56576" lat="62.3618055538" lon="5.5879999919">
		<tag k="name" v="Kyrkjeholmen" />
		<tag k="place" v="islet" />
		<tag k="ssr:stedsnr" v="112708" />
	</node>
	<node id="-56575" lat="62.406327779" lon="5.65503054905">
		<tag k="name" v="Litlevågen" />
		<tag k="natural" v="bay" />
		<tag k="ssr:stedsnr" v="99377" />
	</node>
	<node id="-56573" lat="62.3359499966" lon="5.68525000002">
		<tag k="name" v="Buholmvika" />
		<tag k="natural" v="bay" />
		<tag k="ssr:stedsnr" v="98752" />
	</node>
	<node id="-56570" lat="62.2896805555" lon="5.77689721342">
		<tag k="name" v="Kringleholmen" />
		<tag k="place" v="islet" />
		<tag k="ssr:stedsnr" v="98718" />
	</node>
	<node id="-56568" lat="62.2334861119" lon="5.84243610839">
		<tag k="name" v="Tytebærholmen" />
		<tag k="place" v="islet" />
		<tag k="ssr:stedsnr" v="98712" />
	</node>
	<node id="-56562" lat="62.3379944472" lon="5.70151666287">
		<tag k="name" v="Leinøya" />
		<tag k="place" v="island" />
		<tag k="ssr:stedsnr" v="254567" />
	</node>
	<node id="-56558" lat="62.3343805522" lon="5.7395499927">
		<tag k="name" v="Kyrkjeholmane" />
		<tag k="place" v="islet" />
		<tag k="ssr:stedsnr" v="253840" />
	</node>
	<node id="-56557" lat="62.4631305538" lon="5.40123611206">
		<tag k="name" v="Jonsskallane" />
		<tag k="natural" v="shoal" />
		<tag k="place" v="locality" />
		<tag k="ssr:stedsnr" v="253695" />
	</node>
	<node id="-56556" lat="62.406925" lon="5.58607499138">
		<tag k="name" v="Storeholet" />
		<tag k="natural" v="cape" />
		<tag k="ssr:stedsnr" v="253681" />
	</node>
	<node id="-56553" lat="62.3897972235" lon="5.6114111016">
		<tag k="name" v="Handfangansvika" />
		<tag k="natural" v="bay" />
		<tag k="ssr:stedsnr" v="253671" />
	</node>
	<node id="-56551" lat="62.3635833303" lon="5.61405832606">
		<tag k="name" v="Klubben" />
		<tag k="natural" v="cape" />
		<tag k="ssr:stedsnr" v="253660" />
	</node>
	<node id="-56549" lat="62.3565000026" lon="5.47947500483">
		<tag k="name" v="Rundafluda" />
		<tag k="natural" v="shoal" />
		<tag k="place" v="locality" />
		<tag k="ssr:stedsnr" v="253653" />
	</node>
	<node id="-56548" lat="62.3705222216" lon="5.71053333383">
		<tag k="name" v="Kråkøya" />
		<tag k="place" v="island" />
		<tag k="ssr:stedsnr" v="253650" />
	</node>
	<node id="-56547" lat="62.3357194424" lon="5.26405555405">
		<tag k="alt_name" v="Kalven" />
		<tag k="fixme" v="consider seamark:type=rock or natural=shoal" />
		<tag k="name" v="Skjerkalven" />
		<tag k="place" v="islet" />
		<tag k="ssr:stedsnr" v="253634" />
	</node>
	<node id="-56546" lat="62.3361888885" lon="5.5092777872">
		<tag k="name" v="Skorpesundet" />
		<tag k="natural" v="strait" />
		<tag k="ssr:stedsnr" v="253633" />
	</node>
	<node id="-56544" lat="62.3266916699" lon="5.38871945113">
		<tag k="name" v="Fauskane" />
		<tag k="natural" v="shoal" />
		<tag k="place" v="locality" />
		<tag k="ssr:stedsnr" v="253623" />
	</node>
	<node id="-56543" lat="62.3096277745" lon="5.62998610347">
		<tag k="fixme" v="consider seamark:type=rock or natural=shoal" />
		<tag k="name" v="Tronden" />
		<tag k="place" v="islet" />
		<tag k="ssr:stedsnr" v="253584" />
	</node>
	<node id="-56542" lat="62.3117222233" lon="5.67334722628">
		<tag k="name" v="Skafferholmen" />
		<tag k="place" v="islet" />
		<tag k="ssr:stedsnr" v="253580" />
	</node>
	<node id="-56539" lat="62.262122222" lon="5.80072222633">
		<tag k="alt_name" v="Djupvikvågen;Budanesvågen" />
		<tag k="name" v="Djupvika" />
		<tag k="natural" v="bay" />
		<tag k="ssr:stedsnr" v="253184" />
	</node>
	<node id="-56536" lat="62.2954083356" lon="5.76615832613">
		<tag k="alt_name" v="Bentholmen" />
		<tag k="name" v="Kvitøya" />
		<tag k="natural" v="cape" />
		<tag k="ssr:stedsnr" v="72749" />
	</node>
	<node id="-56535" lat="62.3061277818" lon="5.77166389625">
		<tag k="name" v="Skreddarholmen" />
		<tag k="place" v="islet" />
		<tag k="ssr:stedsnr" v="72734" />
	</node>
	<node id="-56534" lat="62.374322225" lon="5.67530832784">
		<tag k="alt_name" v="Kvieneset" />
		<tag k="name" v="Kvianeset" />
		<tag k="natural" v="cape" />
		<tag k="ssr:stedsnr" v="72604" />
	</node>
	<node id="-56533" lat="62.3759333358" lon="5.7437999983">
		<tag k="name" v="Kyrkjefluda" />
		<tag k="natural" v="shoal" />
		<tag k="place" v="locality" />
		<tag k="ssr:stedsnr" v="71921" />
	</node>
	<node id="-56532" lat="62.4138249968" lon="5.58317499336">
		<tag k="name" v="Kvalen" />
		<tag k="natural" v="cape" />
		<tag k="ssr:stedsnr" v="71710" />
	</node>
	<node id="-56531" lat="62.4085111068" lon="5.46822500116">
		<tag k="name" v="Geitmardjupet" />
		<tag k="place" v="locality" />
		<tag k="ssr:stedsnr" v="71707" />
	</node>
	<node id="-56529" lat="62.3255861153" lon="5.69292778289">
		<tag k="name" v="Frøystadvågen" />
		<tag k="natural" v="bay" />
		<tag k="ssr:stedsnr" v="71611" />
	</node>
	<node id="-56528" lat="62.3179111069" lon="5.70866110336">
		<tag k="name" v="Røyrasundet" />
		<tag k="natural" v="strait" />
		<tag k="ssr:stedsnr" v="71610" />
	</node>
	<node id="-56525" lat="62.3311444404" lon="5.26839444279">
		<tag k="name" v="Heissanabben" />
		<tag k="natural" v="shoal" />
		<tag k="place" v="locality" />
		<tag k="ssr:stedsnr" v="238813" />
	</node>
	<node id="-56523" lat="62.2302611137" lon="5.84209166017">
		<tag k="fixme" v="consider seamark:type=rock or natural=shoal" />
		<tag k="name" v="Guleskjeret" />
		<tag k="place" v="islet" />
		<tag k="ssr:stedsnr" v="52752" />
	</node>
	<node id="-56522" lat="62.2948027766" lon="5.53793332681">
		<tag k="name" v="Kråkedjupet" />
		<tag k="place" v="locality" />
		<tag k="ssr:stedsnr" v="234716" />
	</node>
	<node id="-56521" lat="62.3269055519" lon="5.66164444791">
		<tag k="name" v="Eggebønesstraumen" />
		<tag k="natural" v="strait" />
		<tag k="ssr:stedsnr" v="234295" />
	</node>
	<node id="-56520" lat="62.3099055561" lon="5.75326665853">
		<tag k="name" v="Fånotfluda" />
		<tag k="natural" v="shoal" />
		<tag k="place" v="locality" />
		<tag k="ssr:stedsnr" v="233397" />
	</node>
	<node id="-56518" lat="62.3795222265" lon="5.61259444911">
		<tag k="name" v="Langfallet" />
		<tag k="natural" v="shoal" />
		<tag k="place" v="locality" />
		<tag k="ssr:stedsnr" v="233221" />
	</node>
	<node id="-56517" lat="62.313122221" lon="5.60159722195">
		<tag k="alt_name" v="Flåvær" />
		<tag k="name" v="Flåværet" />
		<tag k="place" v="island" />
		<tag k="ssr:stedsnr" v="37760" />
	</node>
	<node id="-56513" lat="62.2825166698" lon="5.79853054968">
		<tag k="name" v="Skyttenesvågen" />
		<tag k="natural" v="bay" />
		<tag k="ssr:stedsnr" v="37313" />
	</node>
	<node id="-56512" lat="62.3400111108" lon="5.7460111072">
		<tag k="bay" v="fjord" />
		<tag k="name" v="Bøfjorden" />
		<tag k="natural" v="bay" />
		<tag k="ssr:stedsnr" v="11837" />
	</node>
	<node id="-56511" lat="62.3165916696" lon="5.72241944737">
		<tag k="name" v="Blankholmen" />
		<tag k="place" v="islet" />
		<tag k="ssr:stedsnr" v="11815" />
	</node>
	<node id="-56510" lat="62.3169888854" lon="5.75458611212">
		<tag k="alt_name" v="Kvernaskjera" />
		<tag k="fixme" v="consider seamark:type=rock or natural=shoal" />
		<tag k="name" v="Kverna" />
		<tag k="place" v="islet" />
		<tag k="ssr:stedsnr" v="11814" />
	</node>
	<node id="-56500" lat="62.3027666706" lon="5.68311388363">
		<tag k="name" v="Rysseholmen" />
		<tag k="place" v="islet" />
		<tag k="ssr:stedsnr" v="220369" />
	</node>
	<node id="-56493" lat="62.3439083351" lon="5.63485833337">
		<tag k="name" v="Vågsholmen" />
		<tag k="place" v="islet" />
		<tag k="ssr:stedsnr" v="219350" />
	</node>
	<node id="-56492" lat="62.3206361102" lon="5.65689166948">
		<tag k="name" v="Grønholmen" />
		<tag k="place" v="islet" />
		<tag k="ssr:stedsnr" v="219326" />
	</node>
	<node id="-56489" lat="62.3007499956" lon="5.60836110201">
		<tag k="name" v="Langholmsundet" />
		<tag k="natural" v="strait" />
		<tag k="ssr:stedsnr" v="219260" />
	</node>
	<node id="-56488" lat="62.3079083295" lon="5.66535278637">
		<tag k="fixme" v="consider seamark:type=rock or natural=shoal" />
		<tag k="name" v="Grøneskjeret" />
		<tag k="place" v="islet" />
		<tag k="ssr:stedsnr" v="219257" />
	</node>
	<node id="-56487" lat="62.300311112" lon="5.64597221798">
		<tag k="name" v="Kyrkjegardsvika" />
		<tag k="natural" v="bay" />
		<tag k="ssr:stedsnr" v="219255" />
	</node>
	<node id="-56484" lat="62.2703694435" lon="5.84104167618">
		<tag k="name" v="Breisundet" />
		<tag k="natural" v="strait" />
		<tag k="ssr:stedsnr" v="217578" />
	</node>
	<node id="-57483" lat="62.328535052" lon="5.66199796714">
		<tag k="name" v="Monsholmen" />
		<tag k="place" v="islet" />
		<tag k="ssr:stedsnr" v="982556" />
	</node>
	<node id="-57468" lat="62.3353277809" lon="5.25527222766">
		<tag k="name" v="Skjerkalvfluda" />
		<tag k="natural" v="shoal" />
		<tag k="place" v="locality" />
		<tag k="ssr:stedsnr" v="965801" />
	</node>
	<node id="-57467" lat="62.3191472233" lon="5.62750833837">
		<tag k="fixme" v="consider seamark:type=rock or natural=shoal" />
		<tag k="name" v="Vikeskjeret" />
		<tag k="place" v="islet" />
		<tag k="ssr:stedsnr" v="962274" />
	</node>
	<node id="-57462" lat="62.3434527768" lon="5.50756388853">
		<tag k="name" v="Terneneset" />
		<tag k="natural" v="cape" />
		<tag k="ssr:stedsnr" v="861642" />
	</node>
	<node id="-57461" lat="62.3192250043" lon="5.34032222666">
		<tag k="name" v="Remefluda" />
		<tag k="natural" v="shoal" />
		<tag k="place" v="locality" />
		<tag k="ssr:stedsnr" v="861545" />
	</node>
	<node id="-57459" lat="62.4337777799" lon="5.60169999474">
		<tag k="fixme" v="consider seamark:type=rock or natural=shoal" />
		<tag k="name" v="Lisjevoren" />
		<tag k="place" v="islet" />
		<tag k="ssr:stedsnr" v="860720" />
	</node>
	<node id="-57458" lat="62.3999722263" lon="5.595369445">
		<tag k="name" v="Stakkeneset" />
		<tag k="natural" v="cape" />
		<tag k="ssr:stedsnr" v="860715" />
	</node>
	<node id="-57455" lat="62.3144833362" lon="5.69791389763">
		<tag k="name" v="Petterholmen" />
		<tag k="place" v="islet" />
		<tag k="ssr:stedsnr" v="860600" />
	</node>
	<node id="-57454" lat="62.3142166658" lon="5.67766945373">
		<tag k="name" v="Herøya" />
		<tag k="place" v="island" />
		<tag k="ssr:stedsnr" v="860597" />
	</node>
	<node id="-57453" lat="62.3012138926" lon="5.65775554924">
		<tag k="alt_name" v="Arneholmen;Arnholmen" />
		<tag k="name" v="Legeholmen" />
		<tag k="place" v="islet" />
		<tag k="ssr:stedsnr" v="860589" />
	</node>
	<node id="-57449" lat="62.241724999" lon="5.82869999966">
		<tag k="fixme" v="consider seamark:type=rock or natural=shoal" />
		<tag k="name" v="Brudeskoen" />
		<tag k="place" v="islet" />
		<tag k="ssr:stedsnr" v="841750" />
	</node>
	<node id="-57448" lat="62.3640694475" lon="5.55845832968">
		<tag k="name" v="Tausafluda" />
		<tag k="natural" v="shoal" />
		<tag k="place" v="locality" />
		<tag k="ssr:stedsnr" v="841798" />
	</node>
	<node id="-57447" lat="62.3134083348" lon="5.48096943758">
		<tag k="name" v="Stabben" />
		<tag k="natural" v="shoal" />
		<tag k="place" v="locality" />
		<tag k="ssr:stedsnr" v="841674" />
	</node>
	<node id="-57446" lat="62.4363583337" lon="5.60623611484">
		<tag k="name" v="Grøyven" />
		<tag k="natural" v="shoal" />
		<tag k="place" v="locality" />
		<tag k="ssr:stedsnr" v="840893" />
	</node>
	<node id="-57443" lat="62.3604555591" lon="5.67328332607">
		<tag k="name" v="Skjerholmen" />
		<tag k="place" v="islet" />
		<tag k="ssr:stedsnr" v="827399" />
	</node>
	<node id="-57441" lat="62.4042805567" lon="5.62767222476">
		<tag k="name" v="Litlevika" />
		<tag k="natural" v="bay" />
		<tag k="ssr:stedsnr" v="827387" />
	</node>
	<node id="-57440" lat="62.4060555571" lon="5.65901112005">
		<tag k="alt_name" v="Langenes" />
		<tag k="name" v="Langeneset" />
		<tag k="natural" v="cape" />
		<tag k="ssr:stedsnr" v="827384" />
	</node>
	<node id="-57437" lat="62.2866111145" lon="5.76884166196">
		<tag k="name" v="Kalveneset" />
		<tag k="natural" v="cape" />
		<tag k="ssr:stedsnr" v="827355" />
	</node>
	<node id="-57436" lat="62.2976833346" lon="5.69572499722">
		<tag k="name" v="Sandvikstranda" />
		<tag k="natural" v="beach" />
		<tag k="place" v="locality" />
		<tag k="ssr:stedsnr" v="827343" />
	</node>
	<node id="-57435" lat="62.3583777809" lon="5.61384443954">
		<tag k="name" v="Grønholmen" />
		<tag k="place" v="islet" />
		<tag k="ssr:stedsnr" v="827275" />
	</node>
	<node id="-57434" lat="62.354591667" lon="5.6672805651">
		<tag k="alt_name" v="Voldnes" />
		<tag k="name" v="Neset" />
		<tag k="natural" v="cape" />
		<tag k="ssr:stedsnr" v="826740" />
	</node>
	<node id="-57432" lat="62.3238138867" lon="5.48004445282">
		<tag k="name" v="Hestvika" />
		<tag k="natural" v="bay" />
		<tag k="ssr:stedsnr" v="826729" />
	</node>
	<node id="-57430" lat="62.2772138914" lon="5.84778333324">
		<tag k="name" v="Fiskberga" />
		<tag k="place" v="islet" />
		<tag k="ssr:stedsnr" v="826709" />
	</node>
	<node id="-57429" lat="62.2799944432" lon="5.83129999222">
		<tag k="name" v="Jonseholmen" />
		<tag k="place" v="islet" />
		<tag k="ssr:stedsnr" v="826695" />
	</node>
	<node id="-57423" lat="62.3689305534" lon="5.61030833089">
		<tag k="name" v="Svartebarden" />
		<tag k="place" v="islet" />
		<tag k="ssr:stedsnr" v="826356" />
	</node>
	<node id="-57421" lat="62.3723750008" lon="5.7213333313">
		<tag k="fixme" v="consider seamark:type=rock or natural=shoal" />
		<tag k="name" v="Lyreskjeret" />
		<tag k="place" v="islet" />
		<tag k="ssr:stedsnr" v="826339" />
	</node>
	<node id="-57420" lat="62.3668999971" lon="5.73929444632">
		<tag k="name" v="Kvalryggen" />
		<tag k="place" v="islet" />
		<tag k="ssr:stedsnr" v="826331" />
	</node>
	<node id="-57419" lat="62.2991833346" lon="5.65699999399">
		<tag k="name" v="Moltustøylen" />
		<tag k="natural" v="beach" />
		<tag k="place" v="locality" />
		<tag k="ssr:stedsnr" v="826276" />
	</node>
	<node id="-57417" lat="62.3938277771" lon="5.74061666216">
		<tag k="alt_name" v="Rundefjorden" />
		<tag k="bay" v="fjord" />
		<tag k="name" v="Rundafjorden" />
		<tag k="natural" v="bay" />
		<tag k="ssr:stedsnr" v="800868" />
	</node>
	<node id="-57416" lat="62.2905472226" lon="5.55945555256">
		<tag k="name" v="Løsetmola" />
		<tag k="natural" v="beach" />
		<tag k="place" v="locality" />
		<tag k="ssr:stedsnr" v="800542" />
	</node>
	<node id="-57411" lat="62.3656638896" lon="5.34148888753">
		<tag k="alt_name" v="Håskallen, yt" />
		<tag k="name" v="Ytre Håskallen" />
		<tag k="natural" v="shoal" />
		<tag k="place" v="locality" />
		<tag k="ssr:stedsnr" v="800651" />
	</node>
	<node id="-57410" lat="62.3863416639" lon="5.60862778305">
		<tag k="name" v="Storevika" />
		<tag k="natural" v="bay" />
		<tag k="ssr:stedsnr" v="800649" />
	</node>
	<node id="-57409" lat="62.3925333345" lon="5.65839999972">
		<tag k="fixme" v="consider seamark:type=rock or natural=shoal" />
		<tag k="name" v="Lisjeskjeret" />
		<tag k="place" v="islet" />
		<tag k="ssr:stedsnr" v="800642" />
	</node>
	<node id="-57405" lat="62.3205888881" lon="5.4531416617">
		<tag k="name" v="Hella" />
		<tag k="natural" v="shoal" />
		<tag k="place" v="locality" />
		<tag k="ssr:stedsnr" v="800583" />
	</node>
	<node id="-57402" lat="62.2445750041" lon="5.78478332863">
		<tag k="name" v="Legene" />
		<tag k="natural" v="beach" />
		<tag k="place" v="locality" />
		<tag k="ssr:stedsnr" v="800139" />
	</node>
	<node id="-57400" lat="62.2835722235" lon="5.76955000375">
		<tag k="name" v="Aspvika" />
		<tag k="natural" v="bay" />
		<tag k="ssr:stedsnr" v="800134" />
	</node>
	<node id="-57399" lat="62.3665888926" lon="5.74073332457">
		<tag k="name" v="Bøneset" />
		<tag k="natural" v="cape" />
		<tag k="ssr:stedsnr" v="799887" />
	</node>
	<node id="-57398" lat="62.3113972244" lon="5.47718610683">
		<tag k="name" v="Langfallet" />
		<tag k="natural" v="shoal" />
		<tag k="place" v="locality" />
		<tag k="ssr:stedsnr" v="799577" />
	</node>
	<node id="-57397" lat="62.3024472185" lon="5.54010277771">
		<tag k="fixme" v="consider seamark:type=rock or natural=shoal" />
		<tag k="name" v="Kråka" />
		<tag k="place" v="islet" />
		<tag k="ssr:stedsnr" v="799574" />
	</node>
	<node id="-57390" lat="62.3458499974" lon="5.4906805654">
		<tag k="name" v="Steinfluda" />
		<tag k="natural" v="shoal" />
		<tag k="place" v="locality" />
		<tag k="ssr:stedsnr" v="780746" />
	</node>
	<node id="-57389" lat="62.4070027819" lon="5.69430555964">
		<tag k="name" v="Tussen" />
		<tag k="natural" v="shoal" />
		<tag k="place" v="locality" />
		<tag k="ssr:stedsnr" v="779969" />
	</node>
	<node id="-57388" lat="62.4277388934" lon="5.58253888808">
		<tag k="name" v="Barden" />
		<tag k="natural" v="shoal" />
		<tag k="place" v="locality" />
		<tag k="ssr:stedsnr" v="779870" />
	</node>
	<node id="-57387" lat="62.3374222224" lon="5.6718777851">
		<tag k="name" v="Berghølen" />
		<tag k="natural" v="bay" />
		<tag k="ssr:stedsnr" v="779443" />
	</node>
	<node id="-57381" lat="62.3454361068" lon="5.65552222442">
		<tag k="name" v="Hornsetstranda" />
		<tag k="natural" v="beach" />
		<tag k="place" v="locality" />
		<tag k="ssr:stedsnr" v="765745" />
	</node>
	<node id="-57372" lat="62.2307749965" lon="5.8343972223">
		<tag k="name" v="Naustvika" />
		<tag k="natural" v="bay" />
		<tag k="ssr:stedsnr" v="765686" />
	</node>
	<node id="-57366" lat="62.302241669" lon="5.61626111832">
		<tag k="alt_name" v="Litleskjeret" />
		<tag k="name" v="Langholmskjeret" />
		<tag k="place" v="islet" />
		<tag k="ssr:stedsnr" v="765248" />
	</node>
	<node id="-57365" lat="62.3159305528" lon="5.67174722081">
		<tag k="fixme" v="consider seamark:type=rock or natural=shoal" />
		<tag k="name" v="Herøyhunden" />
		<tag k="place" v="islet" />
		<tag k="ssr:stedsnr" v="765301" />
	</node>
	<node id="-57364" lat="62.3199361106" lon="5.65404722473">
		<tag k="name" v="Paradisbukta" />
		<tag k="natural" v="bay" />
		<tag k="ssr:stedsnr" v="765300" />
	</node>
	<node id="-57359" lat="62.3574388877" lon="5.40968055048">
		<tag k="name" v="Hornbåen" />
		<tag k="natural" v="shoal" />
		<tag k="place" v="locality" />
		<tag k="ssr:stedsnr" v="739635" />
	</node>
	<node id="-57357" lat="62.3295472239" lon="5.48315278514">
		<tag k="name" v="Ytstevika" />
		<tag k="natural" v="bay" />
		<tag k="ssr:stedsnr" v="739602" />
	</node>
	<node id="-57355" lat="62.3308555516" lon="5.26744166688">
		<tag k="name" v="Losvika" />
		<tag k="natural" v="bay" />
		<tag k="ssr:stedsnr" v="739594" />
	</node>
	<node id="-57354" lat="62.4669861069" lon="5.61127778663">
		<tag k="name" v="Gollesøyla" />
		<tag k="natural" v="shoal" />
		<tag k="place" v="locality" />
		<tag k="ssr:stedsnr" v="739673" />
	</node>
	<node id="-57353" lat="62.408072219" lon="5.68562499185">
		<tag k="name" v="Treholmane" />
		<tag k="place" v="islet" />
		<tag k="ssr:stedsnr" v="739665" />
	</node>
	<node id="-57349" lat="62.2997305554" lon="5.50663610281">
		<tag k="name" v="Lisje Godøyfluda" />
		<tag k="natural" v="shoal" />
		<tag k="place" v="locality" />
		<tag k="ssr:stedsnr" v="738548" />
	</node>
</osm>
