<?xml version="1.0" encoding="UTF-8"?>
<osm version="0.6" generator="osmapis">
	<node lat="62.26151944230942" lon="5.770083334130874" id="-6041">
		<tag k="name" v="Vadelva" />
		<tag k="ssr:stedsnr" v="71187" />
		<tag k="waterway" v="stream" />
	</node>
	<node lat="62.33553055733616" lon="5.703350006450463" id="-6054">
		<tag k="name" v="Svartevatnet" />
		<tag k="natural" v="water" />
		<tag k="ssr:stedsnr" v="72571" />
	</node>
	<node lat="62.260658337194506" lon="5.67726945237087" id="-6057">
		<tag k="name" v="Kjerringvatnet" />
		<tag k="natural" v="water" />
		<tag k="ssr:stedsnr" v="72967" />
	</node>
	<node lat="62.25606666958819" lon="5.698725000924466" id="-6087">
		<tag k="name" v="Holmevatnet" />
		<tag k="natural" v="water" />
		<tag k="ssr:stedsnr" v="132973" />
	</node>
	<node lat="62.36707500383735" lon="5.625488897017599" id="-6094">
		<tag k="name" v="Storevatnet" />
		<tag k="natural" v="water" />
		<tag k="ssr:stedsnr" v="253662" />
	</node>
	<node lat="62.343672223862924" lon="5.705055545779807" id="-6124">
		<tag k="name" v="Storelva" />
		<tag k="ssr:stedsnr" v="220825" />
		<tag k="waterway" v="stream" />
	</node>
	<node lat="62.32851944308451" lon="5.640927773917099" id="-6166">
		<tag k="name" v="Myklebustvatnet" />
		<tag k="natural" v="water" />
		<tag k="ssr:stedsnr" v="462300" />
	</node>
	<node lat="62.28260000222899" lon="5.618541657090259" id="-6194">
		<tag k="fixme" v="multiple name tags, choose one and add the other to alt_name" />
		<tag k="name" v="Storeelva;Moltuelva" />
		<tag k="ssr:stedsnr" v="314560" />
		<tag k="waterway" v="stream" />
	</node>
	<node lat="62.29093333006493" lon="5.666211114428199" id="-6196">
		<tag k="name" v="Svartelva" />
		<tag k="ssr:stedsnr" v="314566" />
		<tag k="waterway" v="stream" />
	</node>
	<node lat="62.28123332964402" lon="5.747888891907029" id="-6214">
		<tag k="name" v="Tuftevatnet" />
		<tag k="natural" v="water" />
		<tag k="ssr:stedsnr" v="375115" />
	</node>
	<node lat="62.391436110800605" lon="5.617547229999126" id="-6228">
		<tag k="name" v="Tripevatnet" />
		<tag k="natural" v="water" />
		<tag k="ssr:stedsnr" v="402394" />
	</node>
	<node lat="62.25779721848279" lon="5.728563887547264" id="-6237">
		<tag k="name" v="Høgsetvatnet" />
		<tag k="natural" v="water" />
		<tag k="ssr:stedsnr" v="435202" />
	</node>
	<node lat="62.370511108021724" lon="5.623827769074214" id="-6246">
		<tag k="name" v="Vasseidvatnet" />
		<tag k="natural" v="water" />
		<tag k="ssr:stedsnr" v="462329" />
	</node>
	<node lat="62.338683331962635" lon="5.681086106806908" id="-6253">
		<tag k="name" v="Nerøyvalen" />
		<tag k="natural" v="bay" />
		<tag k="ssr:stedsnr" v="462755" />
	</node>
	<node lat="62.26776666866842" lon="5.737686103073689" id="-6333">
		<tag k="name" v="Høgsetelva" />
		<tag k="ssr:stedsnr" v="583316" />
		<tag k="waterway" v="river" />
	</node>
	<node lat="62.269433329241366" lon="5.7653194467022635" id="-6353">
		<tag k="name" v="Stemmedalsvatnet" />
		<tag k="natural" v="water" />
		<tag k="ssr:stedsnr" v="617216" />
	</node>
	<node lat="62.26903332895227" lon="5.70517221362093" id="-6355">
		<tag k="name" v="Nonsvatnet" />
		<tag k="natural" v="water" />
		<tag k="ssr:stedsnr" v="617532" />
	</node>
	<node lat="62.24006388800003" lon="5.78711389804736" id="-6377">
		<tag k="name" v="Vikaelva" />
		<tag k="ssr:stedsnr" v="705799" />
		<tag k="waterway" v="stream" />
	</node>
	<node lat="62.28353611553938" lon="5.6668944483630295" id="-6407">
		<tag k="alt_name" v="Store Øyravatnet" />
		<tag k="name" v="Røvarvatnet" />
		<tag k="natural" v="water" />
		<tag k="ssr:stedsnr" v="678525" />
	</node>
	<node lat="62.353002774648" lon="5.57691666616355" id="-6419">
		<tag k="name" v="Kalddalselva" />
		<tag k="ssr:stedsnr" v="705384" />
		<tag k="waterway" v="stream" />
	</node>
	<node lat="62.33654444600682" lon="5.54326945281083" id="-6450">
		<tag k="alt_name" v="Austre Lemmevatnet" />
		<tag k="name" v="Lemevatnet" />
		<tag k="natural" v="water" />
		<tag k="ssr:stedsnr" v="739598" />
	</node>
	<node lat="62.209850002947476" lon="5.726747222170228" id="-6460">
		<tag k="name" v="Tempelskarvatnet" />
		<tag k="natural" v="water" />
		<tag k="ssr:stedsnr" v="765704" />
		<tag k="water" v="lake" />
	</node>
	<node lat="62.28866944042026" lon="5.7180388982910255" id="-6463">
		<tag k="name" v="Øyraelva" />
		<tag k="ssr:stedsnr" v="765720" />
		<tag k="waterway" v="river" />
	</node>
	<node lat="62.26853889032354" lon="5.768088880148515" id="-6467">
		<tag k="name" v="Fureneset" />
		<tag k="natural" v="cape" />
		<tag k="ssr:stedsnr" v="765693" />
	</node>
	<node lat="62.25184722019499" lon="5.752486113733776" id="-6477">
		<tag k="alt_name" v="Bakkeelva" />
		<tag k="name" v="Bakkelva" />
		<tag k="ssr:stedsnr" v="799210" />
		<tag k="waterway" v="stream" />
	</node>
	<node lat="62.27188889186251" lon="5.7089472128274545" id="-6479">
		<tag k="name" v="Tjørvågelva" />
		<tag k="ssr:stedsnr" v="800510" />
		<tag k="waterway" v="stream" />
	</node>
	<node lat="62.33353611317949" lon="5.61630833447055" id="-6487">
		<tag k="alt_name" v="Igesundsvatnet" />
		<tag k="name" v="Storevatnet" />
		<tag k="natural" v="water" />
		<tag k="ssr:stedsnr" v="800591" />
	</node>
	<node lat="62.283388891666476" lon="5.680644447334419" id="-6493">
		<tag k="name" v="Øyravatnet" />
		<tag k="natural" v="water" />
		<tag k="ssr:stedsnr" v="921555" />
	</node>
	<node lat="62.33073889304741" lon="5.6430972279662655" id="-6501">
		<tag k="name" v="Storholmen" />
		<tag k="place" v="islet" />
		<tag k="ssr:stedsnr" v="826373" />
	</node>
	<node lat="62.26430000238805" lon="5.647338895621404" id="-6504">
		<tag k="name" v="Mørkevatnet" />
		<tag k="natural" v="water" />
		<tag k="ssr:stedsnr" v="827362" />
		<tag k="water" v="lake" />
	</node>
	<node lat="62.279330555502376" lon="5.762327781753819" id="-6524">
		<tag k="name" v="Aspevikvatnet" />
		<tag k="natural" v="water" />
		<tag k="ssr:stedsnr" v="887719" />
		<tag k="water" v="lake" />
	</node>
	<node lat="62.39476111255199" lon="5.617105561548746" id="-6589">
		<tag k="name" v="Holmevatnet" />
		<tag k="natural" v="water" />
		<tag k="ssr:stedsnr" v="11640" />
	</node>
	<node lat="62.399097219325355" lon="5.627341668471319" id="-6599">
		<tag k="name" v="Austefjellsvatnet" />
		<tag k="natural" v="water" />
		<tag k="ssr:stedsnr" v="11672" />
	</node>
	<node lat="62.25947499726133" lon="5.761094439380977" id="-6652">
		<tag k="name" v="Grøthornelva" />
		<tag k="ssr:stedsnr" v="98725" />
		<tag k="waterway" v="stream" />
	</node>
	<node lat="62.34695555585061" lon="5.588872230416174" id="-6656">
		<tag k="alt_name" v="Teige-elva" />
		<tag k="name" v="Teigeelva" />
		<tag k="ssr:stedsnr" v="98746" />
		<tag k="waterway" v="stream" />
	</node>
	<node lat="62.24626666380063" lon="5.71899999161282" id="-6704">
		<tag k="name" v="Kråelva" />
		<tag k="ssr:stedsnr" v="158727" />
		<tag k="waterway" v="stream" />
	</node>
	<node lat="62.24173055867306" lon="5.717361108377278" id="-6732">
		<tag k="name" v="Simavatnet" />
		<tag k="natural" v="water" />
		<tag k="ssr:stedsnr" v="192643" />
	</node>
	<node lat="62.39353889032492" lon="5.616738883887543" id="-6745">
		<tag k="name" v="Sandvatna" />
		<tag k="natural" v="water" />
		<tag k="ssr:stedsnr" v="193632" />
	</node>
	<node lat="62.23431111301028" lon="5.796155550052851" id="-6772">
		<tag k="name" v="Kleppetjørnane" />
		<tag k="natural" v="water" />
		<tag k="ssr:stedsnr" v="280730" />
	</node>
	<node lat="62.27946388745571" lon="5.816850000492373" id="-6773">
		<tag k="name" v="Litlevatnet" />
		<tag k="natural" v="water" />
		<tag k="ssr:stedsnr" v="280731" />
	</node>
	<node lat="62.25076666357056" lon="5.75728611165725" id="-6776">
		<tag k="name" v="Leikangerelva" />
		<tag k="ssr:stedsnr" v="280738" />
		<tag k="waterway" v="stream" />
	</node>
	<node lat="62.271500002945906" lon="5.800247230060794" id="-6792">
		<tag k="name" v="Djupvikvatnet" />
		<tag k="natural" v="water" />
		<tag k="ssr:stedsnr" v="314199" />
	</node>
	<node lat="62.35428333505178" lon="5.542986109415193" id="-6845">
		<tag k="name" v="Fosseelva" />
		<tag k="ssr:stedsnr" v="374608" />
		<tag k="waterway" v="stream" />
	</node>
	<node lat="62.397705551197895" lon="5.61812777170483" id="-6905">
		<tag k="name" v="Storevatnet" />
		<tag k="natural" v="water" />
		<tag k="ssr:stedsnr" v="436639" />
	</node>
	<node lat="62.22551388500714" lon="5.776747232132518" id="-6965">
		<tag k="name" v="Jøsokelva" />
		<tag k="ssr:stedsnr" v="557177" />
		<tag k="waterway" v="stream" />
	</node>
	<node lat="62.3370638924758" lon="5.6091111025056595" id="-7004">
		<tag k="name" v="Igesundselva" />
		<tag k="ssr:stedsnr" v="643337" />
		<tag k="waterway" v="stream" />
	</node>
	<node lat="62.26694722560813" lon="5.645677775232267" id="-7009">
		<tag k="name" v="Mørkevasseidet" />
		<tag k="place" v="locality" />
		<tag k="ssr:stedsnr" v="644342" />
	</node>
	<node lat="62.333900002409564" lon="5.704341661707966" id="-7011">
		<tag k="name" v="Svartevasselva" />
		<tag k="ssr:stedsnr" v="644783" />
		<tag k="waterway" v="stream" />
	</node>
	<node lat="62.21305278208461" lon="5.754116670366248" id="-7042">
		<tag k="alt_name" v="Voldnesvatnet" />
		<tag k="name" v="Vålnesvatnet" />
		<tag k="natural" v="water" />
		<tag k="ssr:stedsnr" v="738085" />
	</node>
	<node lat="62.33180833492866" lon="5.640652778478001" id="-7051">
		<tag k="name" v="Myklebustvatnet" />
		<tag k="natural" v="water" />
		<tag k="ssr:stedsnr" v="765338" />
	</node>
	<node lat="62.21569722600441" lon="5.77492778142919" id="-7083">
		<tag k="name" v="Vålneselva" />
		<tag k="ssr:stedsnr" v="799075" />
		<tag k="waterway" v="stream" />
	</node>
	<node lat="62.2448861093643" lon="5.772005557894972" id="-7117">
		<tag k="name" v="Øyraelva" />
		<tag k="ssr:stedsnr" v="826653" />
		<tag k="waterway" v="river" />
	</node>
	<node lat="62.261372226037835" lon="5.7315444526277854" id="-7123">
		<tag k="name" v="Nilsvatnet" />
		<tag k="natural" v="water" />
		<tag k="ssr:stedsnr" v="827358" />
	</node>
	<node lat="62.33129166630673" lon="5.6204055465383105" id="-7152">
		<tag k="name" v="Vikevatnet" />
		<tag k="natural" v="water" />
		<tag k="ssr:stedsnr" v="861556" />
	</node>
	<node lat="62.28540833693007" lon="5.6835805528440275" id="-7163">
		<tag k="name" v="Litle Øyravatnet" />
		<tag k="natural" v="water" />
		<tag k="ssr:stedsnr" v="887273" />
	</node>
	<node lat="62.27137777455903" lon="5.760977773118281" id="-7177">
		<tag k="name" v="Stemmedalselva" />
		<tag k="ssr:stedsnr" v="948343" />
		<tag k="waterway" v="stream" />
	</node>
	<node lat="62.24786388954277" lon="5.756799999314526" id="-7185">
		<tag k="name" v="Nauselva" />
		<tag k="ssr:stedsnr" v="948798" />
		<tag k="waterway" v="stream" />
	</node>
</osm>
