<?xml version="1.0" encoding="UTF-8"?>
<<<<<<< HEAD
<osm version="0.6" generator="osmapis">
	<node lat="62.35558610836692" lon="5.539097216051987" id="-240">
		<tag k="name" v="Fossholen" />
=======
<osm generator="osmapis" version="0.6">
	<node id="-61663" lat="62.2821749993" lon="5.65055834267">
		<tag k="name" v="Hanemyrane" />
		<tag k="natural" v="wetland" />
		<tag k="ssr:stedsnr" v="523372" />
	</node>
	<node id="-61790" lat="62.2809861096" lon="5.65504444337">
		<tag k="name" v="Hanemyrane" />
		<tag k="natural" v="wetland" />
		<tag k="ssr:stedsnr" v="921551" />
	</node>
	<node id="-61949" lat="62.3555861084" lon="5.53909721605">
		<tag k="name" v="Fossholen" />
		<tag k="natural" v="wetland" />
		<tag k="ssr:stedsnr" v="99326" />
	</node>
	<node id="-61564" lat="62.35275556" lon="5.53046388884">
		<tag k="name" v="Trollsteinen" />
		<tag k="natural" v="stone" />
		<tag k="ssr:stedsnr" v="463301" />
	</node>
	<node id="-61755" lat="62.3029444468" lon="5.73345278026">
		<tag k="name" v="Prestegardsmyrane" />
>>>>>>> e1d4bc35ff8a6074a6f2e91616a996b547c36f15
		<tag k="natural" v="wetland" />
		<tag k="ssr:stedsnr" v="99326" />
	</node>
<<<<<<< HEAD
	<node lat="62.39023888854141" lon="5.611666662734612" id="-281">
		<tag k="name" v="Otreskredene" />
		<tag k="natural" v="scree" />
		<tag k="ssr:stedsnr" v="159402" />
	</node>
	<node lat="62.279152781012684" lon="5.625563892878841" id="-336">
		<tag k="name" v="Klovsteinen" />
		<tag k="natural" v="stone" />
		<tag k="ssr:stedsnr" v="462692" />
	</node>
	<node lat="62.35275556002544" lon="5.530463888836706" id="-341">
		<tag k="name" v="Trollsteinen" />
		<tag k="natural" v="stone" />
		<tag k="ssr:stedsnr" v="463301" />
	</node>
	<node lat="62.34378889141311" lon="5.564008324336698" id="-347">
		<tag k="name" v="Vardemyra" />
		<tag k="natural" v="wetland" />
		<tag k="ssr:stedsnr" v="314622" />
	</node>
	<node lat="62.270686107008935" lon="5.806752778271906" id="-375">
=======
	<node id="-61849" lat="62.2977638913" lon="5.65629165792">
		<tag k="name" v="Legemyra" />
		<tag k="natural" v="wetland" />
		<tag k="ssr:stedsnr" v="887664" />
	</node>
	<node id="-62168" lat="62.2640527798" lon="5.6798638839">
		<tag k="name" v="Konebrekkmyra" />
		<tag k="natural" v="wetland" />
		<tag k="ssr:stedsnr" v="556540" />
	</node>
	<node id="-61750" lat="62.4089694432" lon="5.59005000419">
		<tag k="name" v="Storemyr" />
		<tag k="natural" v="wetland" />
		<tag k="ssr:stedsnr" v="887737" />
	</node>
	<node id="-61909" lat="62.3694027774" lon="5.67359444948">
		<tag k="alt_name" v="Øyra" />
		<tag k="name" v="Myrane" />
		<tag k="natural" v="wetland" />
		<tag k="ssr:stedsnr" v="37748" />
	</node>
	<node id="-62100" lat="62.270686107" lon="5.80675277827">
>>>>>>> e1d4bc35ff8a6074a6f2e91616a996b547c36f15
		<tag k="name" v="Litlemyra" />
		<tag k="natural" v="wetland" />
		<tag k="ssr:stedsnr" v="401710" />
	</node>
<<<<<<< HEAD
	<node lat="62.28217499933588" lon="5.650558342671249" id="-444">
		<tag k="name" v="Hanemyrane" />
=======
	<node id="-61555" lat="62.279152781" lon="5.62556389288">
		<tag k="name" v="Klovsteinen" />
		<tag k="natural" v="stone" />
		<tag k="ssr:stedsnr" v="462692" />
	</node>
	<node id="-61490" lat="62.3902388885" lon="5.61166666273">
		<tag k="name" v="Otreskredene" />
		<tag k="natural" v="scree" />
		<tag k="ssr:stedsnr" v="159402" />
	</node>
	<node id="-62289" lat="62.2554638875" lon="5.74008889743">
		<tag k="alt_name" v="Olavsmyra" />
		<tag k="name" v="Olavsmyrane" />
>>>>>>> e1d4bc35ff8a6074a6f2e91616a996b547c36f15
		<tag k="natural" v="wetland" />
		<tag k="ssr:stedsnr" v="523372" />
	</node>
<<<<<<< HEAD
	<node lat="62.296030557662704" lon="5.6170805519585345" id="-445">
		<tag k="name" v="Øyrane" />
		<tag k="place" v="locality" />
		<tag k="ssr:stedsnr" v="523805" />
	</node>
	<node lat="62.260763891530196" lon="5.789144444615198" id="-446">
		<tag k="name" v="Nakkesteinen" />
		<tag k="natural" v="stone" />
		<tag k="ssr:stedsnr" v="523772" />
	</node>
	<node lat="62.30294444684076" lon="5.73345278026367" id="-494">
		<tag k="name" v="Prestegardsmyrane" />
		<tag k="natural" v="wetland" />
		<tag k="ssr:stedsnr" v="705346" />
	</node>
	<node lat="62.36445277353349" lon="5.518313879859316" id="-508">
=======
	<node id="-61848" lat="62.2315222226" lon="5.77792778531">
		<tag k="name" v="Kringlemyrane" />
		<tag k="natural" v="wetland" />
		<tag k="ssr:stedsnr" v="887722" />
	</node>
	<node id="-62222" lat="62.3644527735" lon="5.51831387986">
>>>>>>> e1d4bc35ff8a6074a6f2e91616a996b547c36f15
		<tag k="name" v="Mulemyrane" />
		<tag k="natural" v="wetland" />
		<tag k="ssr:stedsnr" v="643311" />
	</node>
<<<<<<< HEAD
	<node lat="62.28098610964971" lon="5.655044443373441" id="-594">
		<tag k="name" v="Hanemyrane" />
=======
	<node id="-61389" lat="62.3526361126" lon="5.55176389791">
		<tag k="name" v="Vardemyrane" />
>>>>>>> e1d4bc35ff8a6074a6f2e91616a996b547c36f15
		<tag k="natural" v="wetland" />
		<tag k="ssr:stedsnr" v="921551" />
	</node>
<<<<<<< HEAD
	<node lat="62.23152222260708" lon="5.77792778530859" id="-627">
		<tag k="name" v="Kringlemyrane" />
		<tag k="natural" v="wetland" />
		<tag k="ssr:stedsnr" v="887722" />
	</node>
	<node lat="62.36940277740409" lon="5.673594449482441" id="-705">
		<tag k="alt_name" v="Øyra" />
		<tag k="name" v="Myrane" />
		<tag k="natural" v="wetland" />
		<tag k="ssr:stedsnr" v="37748" />
	</node>
	<node lat="62.40504444366254" lon="5.603258325140921" id="-780">
		<tag k="name" v="Myrane" />
		<tag k="natural" v="wetland" />
		<tag k="ssr:stedsnr" v="158736" />
	</node>
	<node lat="62.352636112591576" lon="5.551763897913146" id="-823">
		<tag k="name" v="Vardemyrane" />
		<tag k="natural" v="wetland" />
		<tag k="ssr:stedsnr" v="219320" />
	</node>
	<node lat="62.2640527797929" lon="5.67986388389765" id="-990">
		<tag k="name" v="Konebrekkmyra" />
		<tag k="natural" v="wetland" />
		<tag k="ssr:stedsnr" v="556540" />
	</node>
	<node lat="62.25546388753875" lon="5.740088897426627" id="-1088">
		<tag k="alt_name" v="Olavsmyra" />
		<tag k="name" v="Olavsmyrane" />
		<tag k="natural" v="wetland" />
		<tag k="ssr:stedsnr" v="799172" />
	</node>
	<node lat="62.40896944323567" lon="5.59005000418636" id="-1160">
		<tag k="name" v="Storemyr" />
=======
	<node id="-62037" lat="62.3437888914" lon="5.56400832434">
		<tag k="name" v="Vardemyra" />
		<tag k="natural" v="wetland" />
		<tag k="ssr:stedsnr" v="314622" />
	</node>
	<node id="-61666" lat="62.2607638915" lon="5.78914444462">
		<tag k="name" v="Nakkesteinen" />
		<tag k="natural" v="stone" />
		<tag k="ssr:stedsnr" v="523772" />
	</node>
	<node id="-61667" lat="62.2960305577" lon="5.61708055196">
		<tag k="name" v="Øyrane" />
		<tag k="place" v="locality" />
		<tag k="ssr:stedsnr" v="523805" />
	</node>
	<node id="-61999" lat="62.4050444437" lon="5.60325832514">
		<tag k="name" v="Myrane" />
>>>>>>> e1d4bc35ff8a6074a6f2e91616a996b547c36f15
		<tag k="natural" v="wetland" />
		<tag k="ssr:stedsnr" v="158736" />
	</node>
	<node lat="62.29776389127585" lon="5.656291657920363" id="-1164">
		<tag k="name" v="Legemyra" />
		<tag k="natural" v="wetland" />
		<tag k="ssr:stedsnr" v="887664" />
	</node>
</osm>
