<?xml version="1.0" encoding="UTF-8"?>
<osm generator="osmapis" version="0.6">
	<node id="-559103" lat="62.2885661493" lon="5.73166406596">
		<tag k="alt_name" v="Klungsøyr" />
		<tag k="fixme" v="consider place=hamlet" />
		<tag k="name" v="Klungsøyra" />
		<tag k="place" v="farm" />
		<tag k="ssr:stedsnr" v="436126" />
	</node>
	<node id="-559610" lat="62.3477749974" lon="5.6882888928">
		<tag k="name" v="Ytre Leine" />
		<tag k="place" v="farm" />
		<tag k="ssr:stedsnr" v="949765" />
	</node>
	<node id="-559609" lat="62.361836111" lon="5.63362221651">
		<tag k="name" v="Haugen" />
		<tag k="place" v="farm" />
		<tag k="ssr:stedsnr" v="948815" />
	</node>
	<node id="-559096" lat="62.2511166666" lon="5.78476389751">
		<tag k="fixme" v="consider place=hamlet" />
		<tag k="name" v="Nykreim" />
		<tag k="place" v="village" />
		<tag k="ssr:stedsnr" v="435239" />
	</node>
	<node id="-559093" lat="62.2797026225" lon="5.77162849557">
		<tag k="alt_name" v="Aurvåglia;Aurvåglid" />
		<tag k="fixme" v="consider place=hamlet" />
		<tag k="name" v="Aurvåglida" />
		<tag k="place" v="farm" />
		<tag k="ssr:stedsnr" v="435161" />
	</node>
	<node id="-559092" lat="62.2163991411" lon="5.79155505607">
		<tag k="fixme" v="consider place=hamlet" />
		<tag k="name" v="Vålneset" />
		<tag k="place" v="farm" />
		<tag k="ssr:stedsnr" v="435097" />
	</node>
	<node id="-559083" lat="62.3056999958" lon="5.73488054843">
		<tag k="name" v="Grøndal" />
		<tag k="place" v="farm" />
		<tag k="ssr:stedsnr" v="254725" />
	</node>
	<node id="-559594" lat="62.3645891789" lon="5.65755727461">
		<tag k="fixme" v="consider place=hamlet" />
		<tag k="name" v="Remøy" />
		<tag k="place" v="farm" />
		<tag k="ssr:stedsnr" v="947813" />
	</node>
	<node id="-559080" lat="62.3313435648" lon="5.65587992044">
		<tag k="fixme" v="consider place=hamlet" />
		<tag k="name" v="Hjelmeset" />
		<tag k="place" v="farm" />
		<tag k="ssr:stedsnr" v="254559" />
	</node>
	<node id="-559588" lat="62.2285466092" lon="5.75054292675">
		<tag k="fixme" v="consider place=hamlet" />
		<tag k="name" v="Roskar" />
		<tag k="place" v="farm" />
		<tag k="ssr:stedsnr" v="939256" />
	</node>
	<node id="-559070" lat="62.3636275306" lon="5.65550285167">
		<tag k="alt_name" v="Rimøy" />
		<tag k="fixme" v="consider place=hamlet" />
		<tag k="name" v="Remøy" />
		<tag k="place" v="village" />
		<tag k="ssr:stedsnr" v="253656" />
	</node>
	<node id="-559581" lat="62.362616256" lon="5.63054486304">
		<tag k="alt_name" v="Søvik" />
		<tag k="fixme" v="consider place=hamlet" />
		<tag k="name" v="Sævik" />
		<tag k="place" v="farm" />
		<tag k="ssr:stedsnr" v="921651" />
	</node>
	<node id="-559575" lat="62.3214472186" lon="5.6339527856">
		<tag k="alt_name" v="Grønhaugen" />
		<tag k="name" v="Grønhaug" />
		<tag k="place" v="farm" />
		<tag k="ssr:stedsnr" v="921596" />
	</node>
	<node id="-559573" lat="62.2922194434" lon="5.62535555162">
		<tag k="fixme" v="consider place=hamlet" />
		<tag k="name" v="Moltustranda" />
		<tag k="place" v="village" />
		<tag k="ssr:stedsnr" v="921566" />
	</node>
	<node id="-559058" lat="62.2775361114" lon="5.75648611667">
		<tag k="alt_name" v="Sætremyrane" />
		<tag k="name" v="Sætremyra" />
		<tag k="place" v="farm" />
		<tag k="ssr:stedsnr" v="253153" />
	</node>
	<node id="-559057" lat="62.2783686225" lon="5.79030375144">
		<tag k="alt_name" v="Myrvågane" />
		<tag k="fixme" v="consider place=hamlet" />
		<tag k="name" v="Myrvåg" />
		<tag k="place" v="farm" />
		<tag k="ssr:stedsnr" v="253147" />
	</node>
	<node id="-559056" lat="62.245158633" lon="5.78302880889">
		<tag k="alt_name" v="Øren" />
		<tag k="fixme" v="consider place=hamlet" />
		<tag k="name" v="Øyra" />
		<tag k="place" v="farm" />
		<tag k="ssr:stedsnr" v="239146" />
	</node>
	<node id="-559565" lat="62.4138666689" lon="5.58681110622">
		<tag k="fixme" v="consider tourism=alpine_hut or tourism=chalet" />
		<tag k="name" v="Runde fyr" />
		<tag k="ssr:stedsnr" v="905062" />
		<tag k="tourism" v="wilderness_hut" />
	</node>
	<node id="-559051" lat="62.3052527767" lon="5.72498888761">
		<tag k="fixme" v="consider place=hamlet" />
		<tag k="name" v="Stokksund" />
		<tag k="place" v="village" />
		<tag k="ssr:stedsnr" v="233357" />
	</node>
	<node id="-559561" lat="62.3414388864" lon="5.67228332922">
		<tag k="name" v="Straumnes" />
		<tag k="place" v="isolated_dwelling" />
		<tag k="ssr:stedsnr" v="901446" />
	</node>
	<node id="-559556" lat="62.2972388931" lon="5.74077778083">
		<tag k="name" v="Litleneset" />
		<tag k="place" v="farm" />
		<tag k="ssr:stedsnr" v="861754" />
	</node>
	<node id="-559043" lat="62.3045551617" lon="5.72057387465">
		<tag k="fixme" v="consider place=hamlet" />
		<tag k="name" v="Raftenes" />
		<tag k="place" v="farm" />
		<tag k="ssr:stedsnr" v="219742" />
	</node>
	<node id="-559039" lat="62.2946166648" lon="5.63448889535">
		<tag k="name" v="Moltu" />
		<tag k="place" v="farm" />
		<tag k="ssr:stedsnr" v="219672" />
	</node>
	<node id="-559038" lat="62.2772861123" lon="5.74350833849">
		<tag k="name" v="Tuftane" />
		<tag k="place" v="farm" />
		<tag k="ssr:stedsnr" v="219668" />
	</node>
	<node id="-559028" lat="62.3424472248" lon="5.59478055192">
		<tag k="name" v="Kvalsund" />
		<tag k="place" v="village" />
		<tag k="ssr:stedsnr" v="207529" />
	</node>
	<node id="-559027" lat="62.3605182023" lon="5.73957774133">
		<tag k="fixme" v="consider place=hamlet" />
		<tag k="name" v="Ytrebø" />
		<tag k="place" v="farm" />
		<tag k="ssr:stedsnr" v="193863" />
	</node>
	<node id="-559538" lat="62.2974861129" lon="5.65373056402">
		<tag k="name" v="Rabben" />
		<tag k="place" v="farm" />
		<tag k="ssr:stedsnr" v="860574" />
	</node>
	<node id="-559025" lat="62.3010888895" lon="5.74402777009">
		<tag k="name" v="Grønvika" />
		<tag k="place" v="farm" />
		<tag k="ssr:stedsnr" v="193729" />
	</node>
	<node id="-559534" lat="62.2456086139" lon="5.75895289933">
		<tag k="fixme" v="consider place=hamlet" />
		<tag k="name" v="Leikongsætra" />
		<tag k="place" v="farm" />
		<tag k="ssr:stedsnr" v="860183" />
	</node>
	<node id="-559533" lat="62.2467000024" lon="5.7713999955">
		<tag k="name" v="Veien" />
		<tag k="place" v="farm" />
		<tag k="ssr:stedsnr" v="860184" />
	</node>
	<node id="-559532" lat="62.2424444478" lon="5.75157221543">
		<tag k="name" v="Sætreplassen" />
		<tag k="place" v="farm" />
		<tag k="ssr:stedsnr" v="860182" />
	</node>
	<node id="-559531" lat="62.2448888894" lon="5.77931944969">
		<tag k="name" v="Reset" />
		<tag k="place" v="farm" />
		<tag k="ssr:stedsnr" v="860179" />
	</node>
	<node id="-559530" lat="62.3214694448" lon="5.64261111879">
		<tag k="name" v="Eggesbømarka" />
		<tag k="place" v="quarter" />
		<tag k="ssr:stedsnr" v="857471" />
	</node>
	<node id="-559528" lat="62.2509194465" lon="5.78364722971">
		<tag k="name" v="Gurskøy" />
		<tag k="place" v="farm" />
		<tag k="ssr:stedsnr" v="841754" />
	</node>
	<node id="-559015" lat="62.3398826067" lon="5.66552256555">
		<tag k="alt_name" v="Reite" />
		<tag k="fixme" v="consider place=hamlet" />
		<tag k="name" v="Reitane" />
		<tag k="place" v="farm" />
		<tag k="ssr:stedsnr" v="193600" />
	</node>
	<node id="-559014" lat="62.2935890321" lon="5.6141851521">
		<tag k="fixme" v="consider place=hamlet" />
		<tag k="name" v="Slettebakk" />
		<tag k="place" v="farm" />
		<tag k="ssr:stedsnr" v="193553" />
	</node>
	<node id="-559012" lat="62.2283361145" lon="5.81058056311">
		<tag k="name" v="Rinden" />
		<tag k="place" v="farm" />
		<tag k="ssr:stedsnr" v="193171" />
	</node>
	<node id="-559011" lat="62.2850121112" lon="5.78225461606">
		<tag k="alt_name" v="Aurvågane" />
		<tag k="fixme" v="consider place=hamlet" />
		<tag k="name" v="Aurvåg" />
		<tag k="place" v="farm" />
		<tag k="ssr:stedsnr" v="193133" />
	</node>
	<node id="-559007" lat="62.282427406" lon="5.82307988709">
		<tag k="fixme" v="consider place=hamlet" />
		<tag k="name" v="Dragsund" />
		<tag k="place" v="farm" />
		<tag k="ssr:stedsnr" v="192145" />
	</node>
	<node id="-559002" lat="62.3327916625" lon="5.72084722979">
		<tag k="name" v="Storvik" />
		<tag k="place" v="farm" />
		<tag k="ssr:stedsnr" v="173309" />
	</node>
	<node id="-559502" lat="62.2358861136" lon="5.79126666662">
		<tag k="name" v="Brauta" />
		<tag k="place" v="farm" />
		<tag k="ssr:stedsnr" v="826640" />
	</node>
	<node id="-559501" lat="62.238122226" lon="5.79075832513">
		<tag k="alt_name" v="Smådal" />
		<tag k="name" v="Smådalane" />
		<tag k="place" v="farm" />
		<tag k="ssr:stedsnr" v="826639" />
	</node>
	<node id="-558985" lat="62.2793361139" lon="5.74204444179">
		<tag k="name" v="Tuftene" />
		<tag k="place" v="farm" />
		<tag k="ssr:stedsnr" v="158651" />
	</node>
	<node id="-558984" lat="62.3001916636" lon="5.71595833622">
		<tag k="name" v="Breivika" />
		<tag k="place" v="farm" />
		<tag k="ssr:stedsnr" v="158649" />
	</node>
	<node id="-558983" lat="62.2293722235" lon="5.80961389791">
		<tag k="name" v="Støylen" />
		<tag k="place" v="farm" />
		<tag k="ssr:stedsnr" v="158647" />
	</node>
	<node id="-559480" lat="62.3319622973" lon="5.71370429556">
		<tag k="name" v="Frøystad" />
		<tag k="place" v="farm" />
		<tag k="ssr:stedsnr" v="800570" />
	</node>
	<node id="-558966" lat="62.3335244845" lon="5.72351519535">
		<tag k="alt_name" v="Steinsvika" />
		<tag k="fixme" v="consider place=hamlet" />
		<tag k="name" v="Steinsvik" />
		<tag k="place" v="farm" />
		<tag k="ssr:stedsnr" v="132827" />
	</node>
	<node id="-559473" lat="62.2850444429" lon="5.75978610461">
		<tag k="name" v="Leirvika" />
		<tag k="place" v="farm" />
		<tag k="ssr:stedsnr" v="800136" />
	</node>
	<node id="-559592" lat="62.2704861114" lon="5.81049443624">
		<tag k="name" v="Djupvikstranda" />
		<tag k="place" v="farm" />
		<tag k="ssr:stedsnr" v="947619" />
	</node>
	<node id="-558958" lat="62.3616031045" lon="5.55109102645">
		<tag k="fixme" v="consider place=hamlet" />
		<tag k="name" v="Nerland" />
		<tag k="place" v="farm" />
		<tag k="ssr:stedsnr" v="132637" />
	</node>
	<node id="-559467" lat="62.2648666705" lon="5.7938388921">
		<tag k="name" v="Skogen" />
		<tag k="place" v="farm" />
		<tag k="ssr:stedsnr" v="799181" />
	</node>
	<node id="-559465" lat="62.2766499962" lon="5.79258611206">
		<tag k="name" v="Haugen" />
		<tag k="place" v="farm" />
		<tag k="ssr:stedsnr" v="799137" />
	</node>
	<node id="-559464" lat="62.2152895346" lon="5.74246910152">
		<tag k="historic" v="shieling" />
		<tag k="name" v="Jøsoksela" />
		<tag k="place" v="locality" />
		<tag k="ssr:stedsnr" v="799077" />
	</node>
	<node id="-558951" lat="62.3379103453" lon="5.61168924569">
		<tag k="fixme" v="consider place=hamlet" />
		<tag k="name" v="Igesund" />
		<tag k="place" v="farm" />
		<tag k="ssr:stedsnr" v="132595" />
	</node>
	<node id="-559462" lat="62.2138749984" lon="5.78743611958">
		<tag k="alt_name" v="Gjerdet" />
		<tag k="name" v="Vålnesgjerdet" />
		<tag k="place" v="farm" />
		<tag k="ssr:stedsnr" v="799072" />
	</node>
	<node id="-558946" lat="62.2967472195" lon="5.66141667419">
		<tag k="alt_name" v="Dyrhaugen" />
		<tag k="name" v="Dyrhaug" />
		<tag k="place" v="farm" />
		<tag k="ssr:stedsnr" v="132529" />
	</node>
	<node id="-558945" lat="62.2973361077" lon="5.68680833815">
		<tag k="alt_name" v="Ryssevika" />
		<tag k="name" v="Ryssevik" />
		<tag k="place" v="farm" />
		<tag k="ssr:stedsnr" v="132527" />
	</node>
	<node id="-559456" lat="62.3419432118" lon="5.63403211996">
		<tag k="name" v="Fosnavåg" />
		<tag k="place" v="town" />
		<tag k="ssr:stedsnr" v="800605" />
	</node>
	<node id="-558943" lat="62.247219448" lon="5.78169167345">
		<tag k="alt_name" v="Leikanger" />
		<tag k="loc_name" v="Leikang" />
		<tag k="name" v="Leikong" />
		<tag k="place" v="village" />
		<tag k="ssr:stedsnr" v="132139" />
	</node>
	<node id="-558937" lat="62.268158329" lon="5.81195832498">
		<tag k="name" v="Kobbenesvågen" />
		<tag k="place" v="farm" />
		<tag k="ssr:stedsnr" v="131168" />
	</node>
	<node id="-559446" lat="62.3270277804" lon="5.61951666116">
		<tag k="name" v="Vike" />
		<tag k="place" v="farm" />
		<tag k="ssr:stedsnr" v="766819" />
	</node>
	<node id="-559443" lat="62.4138000045" lon="5.58635833774">
		<tag k="name" v="Kvalnes" />
		<tag k="place" v="farm" />
		<tag k="ssr:stedsnr" v="765731" />
	</node>
	<node id="-558927" lat="62.3430333339" lon="5.69691666731">
		<tag k="name" v="Indre Leine" />
		<tag k="place" v="farm" />
		<tag k="ssr:stedsnr" v="99835" />
	</node>
	<node id="-558923" lat="62.3610194442" lon="5.68484445229">
		<tag k="name" v="Voldsund" />
		<tag k="place" v="farm" />
		<tag k="ssr:stedsnr" v="98915" />
	</node>
	<node id="-559431" lat="62.2270111101" lon="5.80774721415">
		<tag k="name" v="Stranda" />
		<tag k="place" v="farm" />
		<tag k="ssr:stedsnr" v="765617" />
	</node>
	<node id="-558911" lat="62.3896055594" lon="5.6339916618">
		<tag k="name" v="Holen" />
		<tag k="place" v="farm" />
		<tag k="ssr:stedsnr" v="98652" />
	</node>
	<node id="-559422" lat="62.2314444463" lon="5.81011944503">
		<tag k="name" v="Kleppestranda" />
		<tag k="place" v="farm" />
		<tag k="ssr:stedsnr" v="757236" />
	</node>
	<node id="-559421" lat="62.2467681899" lon="5.77967966639">
		<tag k="fixme" v="consider place=hamlet" />
		<tag k="name" v="Leikong" />
		<tag k="place" v="farm" />
		<tag k="ssr:stedsnr" v="753872" />
	</node>
	<node id="-559420" lat="62.339228709" lon="5.72694256952">
		<tag k="fixme" v="consider place=hamlet" />
		<tag k="name" v="Torvika" />
		<tag k="place" v="farm" />
		<tag k="ssr:stedsnr" v="739823" />
	</node>
	<node id="-558906" lat="62.3025805554" lon="5.7167111173">
		<tag k="name" v="Grytevika" />
		<tag k="place" v="farm" />
		<tag k="ssr:stedsnr" v="98286" />
	</node>
	<node id="-558897" lat="62.3348728364" lon="5.56001711823">
		<tag k="alt_name" v="Kopperstad;Kopparstad" />
		<tag k="fixme" v="consider place=hamlet" />
		<tag k="name" v="Koparstad" />
		<tag k="place" v="farm" />
		<tag k="ssr:stedsnr" v="72577" />
	</node>
	<node id="-558896" lat="62.3279166653" lon="5.26844444823">
		<tag k="name" v="Skjerhovudet" />
		<tag k="place" v="isolated_dwelling" />
		<tag k="ssr:stedsnr" v="72574" />
	</node>
	<node id="-558893" lat="62.3413333357" lon="5.64177500919">
		<tag k="fixme" v="consider place=suburb, village or hamlet" />
		<tag k="name" v="Nørdrevåg" />
		<tag k="place" v="quarter" />
		<tag k="ssr:stedsnr" v="72564" />
	</node>
	<node id="-559403" lat="62.2861388928" lon="5.72801110447">
		<tag k="name" v="Ekremyr" />
		<tag k="place" v="farm" />
		<tag k="ssr:stedsnr" v="739132" />
	</node>
	<node id="-558890" lat="62.325843179" lon="5.68635947516">
		<tag k="fixme" v="consider place=hamlet" />
		<tag k="name" v="Espeset" />
		<tag k="place" v="farm" />
		<tag k="ssr:stedsnr" v="72550" />
	</node>
	<node id="-559146" lat="62.238655555" lon="5.80611945033">
		<tag k="name" v="Båtsvika" />
		<tag k="place" v="farm" />
		<tag k="ssr:stedsnr" v="496141" />
	</node>
	<node id="-558885" lat="62.3228648567" lon="5.7174696347">
		<tag k="fixme" v="consider place=hamlet" />
		<tag k="name" v="Røyra" />
		<tag k="place" v="farm" />
		<tag k="ssr:stedsnr" v="71616" />
	</node>
	<node id="-559392" lat="62.3252444406" lon="5.68446667218">
		<tag k="name" v="Gjerdet" />
		<tag k="place" v="farm" />
		<tag k="ssr:stedsnr" v="719299" />
	</node>
	<node id="-558878" lat="62.2930799822" lon="5.71441987934">
		<tag k="alt_name" v="Sandvik" />
		<tag k="fixme" v="consider place=hamlet" />
		<tag k="name" v="Sandvika" />
		<tag k="place" v="farm" />
		<tag k="ssr:stedsnr" v="71573" />
	</node>
	<node id="-559389" lat="62.3300944459" lon="5.65790554818">
		<tag k="name" v="Hjelmeset" />
		<tag k="place" v="farm" />
		<tag k="ssr:stedsnr" v="706791" />
	</node>
	<node id="-558875" lat="62.2662786717" lon="5.79393211122">
		<tag k="alt_name" v="Djupvika" />
		<tag k="fixme" v="consider place=hamlet" />
		<tag k="name" v="Djupvik" />
		<tag k="place" v="farm" />
		<tag k="ssr:stedsnr" v="71205" />
	</node>
	<node id="-558874" lat="62.2540949412" lon="5.78881408095">
		<tag k="fixme" v="consider place=hamlet" />
		<tag k="name" v="Nykreim" />
		<tag k="place" v="farm" />
		<tag k="ssr:stedsnr" v="55551" />
	</node>
	<node id="-559377" lat="62.2199305523" lon="5.79383333422">
		<tag k="name" v="Bøen" />
		<tag k="place" v="farm" />
		<tag k="ssr:stedsnr" v="705710" />
	</node>
	<node id="-559371" lat="62.3242999977" lon="5.64364166214">
		<tag k="fixme" v="consider place=hamlet" />
		<tag k="name" v="Eggesbø" />
		<tag k="place" v="village" />
		<tag k="ssr:stedsnr" v="705358" />
	</node>
	<node id="-558856" lat="62.2352791911" lon="5.80189007838">
		<tag k="fixme" v="consider place=hamlet" />
		<tag k="name" v="Kleppe" />
		<tag k="place" v="farm" />
		<tag k="ssr:stedsnr" v="37652" />
	</node>
	<node id="-559148" lat="62.2235262446" lon="5.80027021027">
		<tag k="fixme" v="consider place=hamlet" />
		<tag k="name" v="Jøsok" />
		<tag k="place" v="farm" />
		<tag k="ssr:stedsnr" v="496181" />
	</node>
	<node id="-559147" lat="62.2404611122" lon="5.78173610878">
		<tag k="name" v="Hjellen" />
		<tag k="place" v="farm" />
		<tag k="ssr:stedsnr" v="496144" />
	</node>
	<node id="-558848" lat="62.2913861129" lon="5.61477777959">
		<tag k="name" v="Øygarden" />
		<tag k="place" v="farm" />
		<tag k="ssr:stedsnr" v="29261" />
	</node>
	<node id="-558843" lat="62.3563112569" lon="5.71644838745">
		<tag k="alt_name" v="Sandane" />
		<tag k="fixme" v="consider place=hamlet" />
		<tag k="name" v="Sande" />
		<tag k="place" v="farm" />
		<tag k="ssr:stedsnr" v="11689" />
	</node>
	<node id="-559350" lat="62.3266050609" lon="5.61755668721">
		<tag k="fixme" v="consider place=hamlet" />
		<tag k="name" v="Vikane" />
		<tag k="place" v="farm" />
		<tag k="ssr:stedsnr" v="678576" />
	</node>
	<node id="-559349" lat="62.3222815705" lon="5.49602904734">
		<tag k="fixme" v="consider place=hamlet" />
		<tag k="name" v="Skorpa" />
		<tag k="place" v="farm" />
		<tag k="ssr:stedsnr" v="678574" />
	</node>
	<node id="-558829" lat="62.3556939342" lon="5.71390045202">
		<tag k="name" v="Sande" />
		<tag k="place" v="farm" />
		<tag k="ssr:stedsnr" v="11615" />
	</node>
	<node id="-558827" lat="62.3508500025" lon="5.6780999923">
		<tag k="name" v="Grønstøylen" />
		<tag k="place" v="farm" />
		<tag k="ssr:stedsnr" v="11606" />
	</node>
	<node id="-559338" lat="62.235636109" lon="5.79060833602">
		<tag k="name" v="Vonheim" />
		<tag k="place" v="farm" />
		<tag k="ssr:stedsnr" v="678170" />
	</node>
	<node id="-559337" lat="62.2769305578" lon="5.74291665855">
		<tag k="name" v="Byrkjehola" />
		<tag k="place" v="farm" />
		<tag k="ssr:stedsnr" v="678133" />
	</node>
	<node id="-558822" lat="62.2408313843" lon="5.78636627386">
		<tag k="fixme" v="consider place=hamlet" />
		<tag k="name" v="Raudvika" />
		<tag k="place" v="farm" />
		<tag k="ssr:stedsnr" v="11135" />
	</node>
	<node id="-559570" lat="62.2245333304" lon="5.78832499553">
		<tag k="name" v="Rydningen" />
		<tag k="place" v="farm" />
		<tag k="ssr:stedsnr" v="921195" />
	</node>
	<node id="-559330" lat="62.3250555554" lon="5.61745833513">
		<tag k="name" v="Korsen" />
		<tag k="place" v="isolated_dwelling" />
		<tag k="ssr:stedsnr" v="658296" />
	</node>
	<node id="-558815" lat="62.264424996" lon="5.79847500516">
		<tag k="name" v="Haukenes" />
		<tag k="place" v="farm" />
		<tag k="ssr:stedsnr" v="10167" />
	</node>
	<node id="-558813" lat="62.3132100343" lon="5.60149519029">
		<tag k="fixme" v="consider place=hamlet" />
		<tag k="name" v="Flåværet" />
		<tag k="place" v="farm" />
		<tag k="ssr:stedsnr" v="982622" />
	</node>
	<node id="-558812" lat="62.2805307193" lon="5.73087583024">
		<tag k="alt_name" v="Tjørvågane" />
		<tag k="fixme" v="consider place=hamlet" />
		<tag k="name" v="Tjørvåg" />
		<tag k="place" v="farm" />
		<tag k="ssr:stedsnr" v="982619" />
	</node>
	<node id="-558811" lat="62.2951450998" lon="5.76600655303">
		<tag k="alt_name" v="Bentholmen" />
		<tag k="name" v="Kvitøya" />
		<tag k="place" v="locality" />
		<tag k="ssr:stedsnr" v="982602" />
	</node>
	<node id="-558809" lat="62.2916877527" lon="5.78656828713">
		<tag k="name" v="Kristofferholmen" />
		<tag k="place" v="locality" />
		<tag k="ssr:stedsnr" v="982599" />
	</node>
	<node id="-558808" lat="62.3174036967" lon="5.72305721267">
		<tag k="name" v="Blankholmen" />
		<tag k="place" v="locality" />
		<tag k="ssr:stedsnr" v="982598" />
	</node>
	<node id="-558807" lat="62.3143954586" lon="5.70574448141">
		<tag k="name" v="Jensholmen" />
		<tag k="place" v="locality" />
		<tag k="ssr:stedsnr" v="982597" />
	</node>
	<node id="-558806" lat="62.3136999627" lon="5.69495889729">
		<tag k="name" v="Petterholmen" />
		<tag k="place" v="locality" />
		<tag k="ssr:stedsnr" v="982596" />
	</node>
	<node id="-558805" lat="62.3092350987" lon="5.68619205074">
		<tag k="fixme" v="consider place=hamlet" />
		<tag k="name" v="Nautøya" />
		<tag k="place" v="farm" />
		<tag k="ssr:stedsnr" v="982594" />
	</node>
	<node id="-558804" lat="62.3137377376" lon="5.67871482542">
		<tag k="fixme" v="consider place=hamlet" />
		<tag k="name" v="Herøy" />
		<tag k="place" v="farm" />
		<tag k="ssr:stedsnr" v="982593" />
	</node>
	<node id="-558803" lat="62.324845344" lon="5.64163262096">
		<tag k="fixme" v="consider place=hamlet" />
		<tag k="name" v="Eggesbø" />
		<tag k="place" v="farm" />
		<tag k="ssr:stedsnr" v="982591" />
	</node>
	<node id="-558802" lat="62.3317780229" lon="5.63752870997">
		<tag k="fixme" v="consider place=hamlet" />
		<tag k="name" v="Myklebust" />
		<tag k="place" v="farm" />
		<tag k="ssr:stedsnr" v="982589" />
	</node>
	<node id="-558801" lat="62.3381552587" lon="5.64188239246">
		<tag k="name" v="Fosnavåg" />
		<tag k="place" v="hamlet" />
		<tag k="ssr:stedsnr" v="982557" />
	</node>
	<node id="-558799" lat="62.3443084241" lon="5.6944221114">
		<tag k="name" v="Leine" />
		<tag k="place" v="hamlet" />
		<tag k="ssr:stedsnr" v="982552" />
	</node>
	<node id="-559310" lat="62.3502916699" lon="5.6784555633">
		<tag k="name" v="Leitet" />
		<tag k="place" v="farm" />
		<tag k="ssr:stedsnr" v="643632" />
	</node>
	<node id="-558797" lat="62.3906590077" lon="5.6411803437">
		<tag k="fixme" v="consider place=hamlet" />
		<tag k="name" v="Runde" />
		<tag k="place" v="farm" />
		<tag k="ssr:stedsnr" v="982546" />
	</node>
	<node id="-558793" lat="62.3393403184" lon="5.52141948314">
		<tag k="name" v="Skorpesund" />
		<tag k="place" v="locality" />
		<tag k="ssr:stedsnr" v="888323" />
	</node>
	<node id="-559569" lat="62.2266116627" lon="5.79673437706">
		<tag k="alt_name" v="Bakken" />
		<tag k="fixme" v="consider place=hamlet" />
		<tag k="name" v="Jøsokbakken" />
		<tag k="old_name" v="Jøsokbaken" />
		<tag k="place" v="farm" />
		<tag k="ssr:stedsnr" v="921192" />
	</node>
	<node id="-559298" lat="62.2948098478" lon="5.73641784067">
		<tag k="fixme" v="consider place=hamlet" />
		<tag k="name" v="Rafteset" />
		<tag k="place" v="farm" />
		<tag k="ssr:stedsnr" v="617789" />
	</node>
	<node id="-558782" lat="62.2871277787" lon="5.63336389114">
		<tag k="name" v="Kvia" />
		<tag k="place" v="isolated_dwelling" />
		<tag k="ssr:stedsnr" v="887666" />
	</node>
	<node id="-559457" lat="62.3437941673" lon="5.5951408427">
		<tag k="fixme" v="consider place=hamlet" />
		<tag k="name" v="Kvalsund" />
		<tag k="place" v="farm" />
		<tag k="ssr:stedsnr" v="800606" />
	</node>
	<node id="-558769" lat="62.2425720096" lon="5.78464985561">
		<tag k="fixme" v="consider place=hamlet" />
		<tag k="name" v="Leikongstranda" />
		<tag k="place" v="farm" />
		<tag k="ssr:stedsnr" v="476778" />
	</node>
	<node id="-559280" lat="62.2520388929" lon="5.78431666738">
		<tag k="name" v="Moldtugarden" />
		<tag k="place" v="farm" />
		<tag k="ssr:stedsnr" v="617238" />
	</node>
	<node id="-558767" lat="62.324363886" lon="5.72964722078">
		<tag k="name" v="Myrane" />
		<tag k="place" v="farm" />
		<tag k="ssr:stedsnr" v="476322" />
	</node>
	<node id="-558764" lat="62.2846768375" lon="5.7958614955">
		<tag k="alt_name" v="Myrvågnes" />
		<tag k="fixme" v="consider place=hamlet" />
		<tag k="name" v="Myrvågneset" />
		<tag k="place" v="farm" />
		<tag k="ssr:stedsnr" v="254111" />
	</node>
	<node id="-558760" lat="62.2784027784" lon="5.79762500808">
		<tag k="alt_name" v="Myrvågane" />
		<tag k="name" v="Myrvåg" />
		<tag k="place" v="hamlet" />
		<tag k="ssr:stedsnr" v="404127" />
	</node>
	<node id="-558759" lat="62.326411664" lon="5.66351056723">
		<tag k="fixme" v="consider place=hamlet" />
		<tag k="name" v="Hjertnes" />
		<tag k="place" v="farm" />
		<tag k="ssr:stedsnr" v="402833" />
	</node>
	<node id="-559265" lat="62.3333092347" lon="5.72333308547">
		<tag k="name" v="Steinsvik" />
		<tag k="place" v="farm" />
		<tag k="ssr:stedsnr" v="584798" />
	</node>
	<node id="-558751" lat="62.2933888887" lon="5.62015277796">
		<tag k="name" v="Moltumyra" />
		<tag k="place" v="farm" />
		<tag k="ssr:stedsnr" v="401639" />
	</node>
	<node id="-558750" lat="62.2805999993" lon="5.76507777486">
		<tag k="name" v="Aspevika" />
		<tag k="place" v="farm" />
		<tag k="ssr:stedsnr" v="401637" />
	</node>
	<node id="-558745" lat="62.2937908711" lon="5.63557354626">
		<tag k="fixme" v="consider place=hamlet" />
		<tag k="name" v="Moltu" />
		<tag k="place" v="farm" />
		<tag k="ssr:stedsnr" v="393234" />
	</node>
	<node id="-558741" lat="62.3472666698" lon="5.68681110761">
		<tag k="fixme" v="consider place=hamlet" />
		<tag k="loc_name" v="Leinstrand" />
		<tag k="name" v="Leine" />
		<tag k="place" v="village" />
		<tag k="ssr:stedsnr" v="375571" />
	</node>
	<node id="-558735" lat="62.327035441" lon="5.69754433331">
		<tag k="fixme" v="consider place=hamlet" />
		<tag k="name" v="Frøystadvågen" />
		<tag k="place" v="farm" />
		<tag k="ssr:stedsnr" v="375532" />
	</node>
	<node id="-559238" lat="62.2865944419" lon="5.77078888452">
		<tag k="name" v="Kalvenes" />
		<tag k="place" v="farm" />
		<tag k="ssr:stedsnr" v="557131" />
	</node>
	<node id="-559237" lat="62.3562831142" lon="5.73664924105">
		<tag k="fixme" v="consider place=hamlet" />
		<tag k="name" v="Bø" />
		<tag k="place" v="farm" />
		<tag k="ssr:stedsnr" v="556873" />
	</node>
	<node id="-558718" lat="62.2941804144" lon="5.58232399272">
		<tag k="fixme" v="consider place=hamlet" />
		<tag k="name" v="Løset" />
		<tag k="place" v="farm" />
		<tag k="ssr:stedsnr" v="374521" />
	</node>
	<node id="-558717" lat="62.2786083362" lon="5.82969444465">
		<tag k="name" v="Tua" />
		<tag k="place" v="farm" />
		<tag k="ssr:stedsnr" v="374207" />
	</node>
	<node id="-559228" lat="62.3924433235" lon="5.64309354257">
		<tag k="fixme" v="consider place=hamlet" />
		<tag k="name" v="Runde" />
		<tag k="place" v="village" />
		<tag k="ssr:stedsnr" v="556662" />
	</node>
	<node id="-558710" lat="62.3228555521" lon="5.68645000458">
		<tag k="name" v="Vågsnes" />
		<tag k="place" v="farm" />
		<tag k="ssr:stedsnr" v="355290" />
	</node>
	<node id="-558708" lat="62.3308277755" lon="5.65995277006">
		<tag k="name" v="Monsholmen" />
		<tag k="place" v="locality" />
		<tag k="ssr:stedsnr" v="354443" />
	</node>
	<node id="-559219" lat="62.2344277822" lon="5.80009722026">
		<tag k="name" v="Sletta" />
		<tag k="place" v="farm" />
		<tag k="ssr:stedsnr" v="556202" />
	</node>
	<node id="-559217" lat="62.2605749975" lon="5.72739445122">
		<tag k="name" v="Høgsætra" />
		<tag k="place" v="locality" />
		<tag k="ssr:stedsnr" v="556196" />
	</node>
	<node id="-559215" lat="62.347688885" lon="5.60013888367">
		<tag k="alt_name" v="Myren" />
		<tag k="name" v="Teigemyra" />
		<tag k="place" v="farm" />
		<tag k="ssr:stedsnr" v="545694" />
	</node>
	<node id="-559209" lat="62.3299694453" lon="5.71439443716">
		<tag k="name" v="Stølen" />
		<tag k="place" v="farm" />
		<tag k="ssr:stedsnr" v="537298" />
	</node>
	<node id="-559207" lat="62.3085277746" lon="5.68132778548">
		<tag k="name" v="Tangen" />
		<tag k="place" v="farm" />
		<tag k="ssr:stedsnr" v="536324" />
	</node>
	<node id="-558686" lat="62.3251416653" lon="5.73450555209">
		<tag k="alt_name" v="Røyra, ytre" />
		<tag k="name" v="Ytre Røyra" />
		<tag k="place" v="farm" />
		<tag k="ssr:stedsnr" v="314778" />
	</node>
	<node id="-559105" lat="62.2193444418" lon="5.79238055994">
		<tag k="name" v="Årdalen" />
		<tag k="place" v="farm" />
		<tag k="ssr:stedsnr" v="436170" />
	</node>
	<node id="-559174" lat="62.3077674422" lon="5.73481952733">
		<tag k="fixme" v="consider place=hamlet" />
		<tag k="name" v="Stokksund" />
		<tag k="place" v="farm" />
		<tag k="ssr:stedsnr" v="496805" />
	</node>
	<node id="-559190" lat="62.2603388888" lon="5.73093056314">
		<tag k="name" v="Høgsetsetrane" />
		<tag k="place" v="locality" />
		<tag k="ssr:stedsnr" v="523364" />
	</node>
	<node id="-558677" lat="62.3574916686" lon="5.67400277444">
		<tag k="fixme" v="consider place=hamlet" />
		<tag k="name" v="Volsund" />
		<tag k="place" v="village" />
		<tag k="ssr:stedsnr" v="314631" />
	</node>
	<node id="-559188" lat="62.2915671462" lon="5.7370470867">
		<tag k="fixme" v="consider place=hamlet" />
		<tag k="name" v="Ormenes" />
		<tag k="place" v="farm" />
		<tag k="ssr:stedsnr" v="522630" />
	</node>
	<node id="-558674" lat="62.3479614151" lon="5.5976722197">
		<tag k="alt_name" v="Teige" />
		<tag k="fixme" v="consider place=hamlet" />
		<tag k="name" v="Teigane" />
		<tag k="place" v="farm" />
		<tag k="ssr:stedsnr" v="314621" />
	</node>
	<node id="-559458" lat="62.3414819164" lon="5.67040716022">
		<tag k="fixme" v="consider place=hamlet" />
		<tag k="name" v="Flusund" />
		<tag k="place" v="farm" />
		<tag k="ssr:stedsnr" v="800611" />
	</node>
	<node id="-559178" lat="62.23118247" lon="5.83153540492">
		<tag k="fixme" v="consider place=hamlet" />
		<tag k="name" v="Måløya" />
		<tag k="place" v="farm" />
		<tag k="ssr:stedsnr" v="514271" />
	</node>
	<node id="-559176" lat="62.3513499984" lon="5.7407055651">
		<tag k="name" v="Arhaugen" />
		<tag k="place" v="farm" />
		<tag k="ssr:stedsnr" v="496854" />
	</node>
	<node id="-558662" lat="62.2480935584" lon="5.77487393159">
		<tag k="fixme" v="consider place=hamlet" />
		<tag k="name" v="Leikongbakken" />
		<tag k="place" v="farm" />
		<tag k="ssr:stedsnr" v="314170" />
	</node>
	<node id="-558661" lat="62.2832187317" lon="5.7308239035">
		<tag k="alt_name" v="Tjørvåg" />
		<tag k="fixme" v="consider place=hamlet" />
		<tag k="name" v="Tjørvågane" />
		<tag k="place" v="village" />
		<tag k="ssr:stedsnr" v="314160" />
	</node>
	<node id="-559168" lat="62.4066385929" lon="5.61887601003">
		<tag k="fixme" v="consider place=hamlet" />
		<tag k="name" v="Goksøyr" />
		<tag k="place" v="farm" />
		<tag k="ssr:stedsnr" v="496671" />
	</node>
	<node id="-559162" lat="62.3631861111" lon="5.62484165756">
		<tag k="name" v="Vikane" />
		<tag k="place" v="farm" />
		<tag k="ssr:stedsnr" v="496645" />
	</node>
	<node id="-559155" lat="62.3284194628" lon="5.63511353946">
		<tag k="fixme" v="consider place=hamlet" />
		<tag k="name" v="Myklebust" />
		<tag k="place" v="village" />
		<tag k="ssr:stedsnr" v="496603" />
	</node>
	<node id="-559151" lat="62.2944372312" lon="5.60312611891">
		<tag k="fixme" v="consider place=hamlet" />
		<tag k="name" v="Tarberg" />
		<tag k="place" v="farm" />
		<tag k="ssr:stedsnr" v="496565" />
	</node>
	<node id="-558636" lat="62.3674349171" lon="5.54548590446">
		<tag k="fixme" v="consider place=hamlet" />
		<tag k="name" v="Øvre Kvalsvik" />
		<tag k="place" v="farm" />
		<tag k="ssr:stedsnr" v="280654" />
	</node>
	<node id="-558635" lat="62.3680025001" lon="5.55150103959">
		<tag k="fixme" v="consider place=hamlet" />
		<tag k="name" v="Nedre Kvalsvik" />
		<tag k="place" v="farm" />
		<tag k="ssr:stedsnr" v="280652" />
	</node>
	<node id="-558634" lat="62.2335805554" lon="5.80724165827">
		<tag k="name" v="Gjerdet" />
		<tag k="place" v="farm" />
		<tag k="ssr:stedsnr" v="280650" />
	</node>
	<node id="-559142" lat="62.2661916698" lon="5.81434444789">
		<tag k="name" v="Kobbeneset" />
		<tag k="place" v="farm" />
		<tag k="ssr:stedsnr" v="495189" />
	</node>
	<node id="-559537" lat="62.2881888908" lon="5.61849444043">
		<tag k="name" v="Nygjerdet" />
		<tag k="place" v="farm" />
		<tag k="ssr:stedsnr" v="860575" />
	</node>
	<node id="-559137" lat="62.358886552" lon="5.67595261939">
		<tag k="fixme" v="consider place=hamlet" />
		<tag k="name" v="Voldsund" />
		<tag k="place" v="farm" />
		<tag k="ssr:stedsnr" v="462819" />
	</node>
	<node id="-559127" lat="62.2837361088" lon="5.7788750023">
		<tag k="name" v="Torsethøgda" />
		<tag k="place" v="farm" />
		<tag k="ssr:stedsnr" v="462635" />
	</node>
	<node id="-559126" lat="62.2625027756" lon="5.79551667472">
		<tag k="name" v="Djupvika" />
		<tag k="place" v="farm" />
		<tag k="ssr:stedsnr" v="462628" />
	</node>
	<node id="-559125" lat="62.3583388912" lon="5.74275278431">
		<tag k="name" v="Indre Bø" />
		<tag k="place" v="farm" />
		<tag k="ssr:stedsnr" v="462627" />
	</node>
	<node id="-559123" lat="62.3346777786" lon="5.67576943643">
		<tag k="name" v="Bergsneset" />
		<tag k="place" v="farm" />
		<tag k="ssr:stedsnr" v="462337" />
	</node>
	<node id="-559276" lat="62.2367194419" lon="5.80755834263">
		<tag k="alt_name" v="Kleppe" />
		<tag k="name" v="Kleppane" />
		<tag k="place" v="farm" />
		<tag k="ssr:stedsnr" v="617198" />
	</node>
	<node id="-559110" lat="62.3470749997" lon="5.69732776868">
		<tag k="name" v="Leinestøylen" />
		<tag k="place" v="farm" />
		<tag k="ssr:stedsnr" v="436587" />
	</node>
	<node id="-559109" lat="62.3357447927" lon="5.66258808219">
		<tag k="name" v="Berge" />
		<tag k="place" v="hamlet" />
		<tag k="ssr:stedsnr" v="436573" />
	</node>
	<node id="-559019" lat="62.3645861093" lon="5.55396666962">
		<tag k="fixme" v="consider place=hamlet" />
		<tag k="name" v="Kvalsvik" />
		<tag k="place" v="village" />
		<tag k="ssr:stedsnr" v="193623" />
	</node>
</osm>
