<?xml version="1.0" encoding="UTF-8"?>
<<<<<<< HEAD
<osm version="0.6" generator="osmapis">
	<node lat="62.25156388832562" lon="5.73625278286634" id="-190">
		<tag k="alt_name" v="Slettheiane" />
		<tag k="name" v="Sletteheidane" />
		<tag k="natural" v="hill" />
		<tag k="place" v="locality" />
		<tag k="ssr:stedsnr" v="10206" />
	</node>
	<node lat="62.39724166342362" lon="5.609774997141407" id="-195">
		<tag k="name" v="Frøystolen" />
=======
<osm generator="osmapis" version="0.6">
	<node id="-61440" lat="62.2669555577" lon="5.73666943553">
		<tag k="name" v="Høgsetdalen" />
		<tag k="natural" v="valley" />
		<tag k="place" v="locality" />
		<tag k="ssr:stedsnr" v="253211" />
	</node>
	<node id="-61439" lat="62.2254596597" lon="5.7361749788">
		<tag k="name" v="Roskar" />
		<tag k="natural" v="valley" />
		<tag k="place" v="locality" />
		<tag k="ssr:stedsnr" v="253205" />
	</node>
	<node id="-61946" lat="62.3563749994" lon="5.70278333406">
		<tag k="name" v="Hamrane" />
		<tag k="natural" v="cliff" />
		<tag k="ssr:stedsnr" v="98740" />
	</node>
	<node id="-61929" lat="62.3305555524" lon="5.60980554886">
		<tag k="name" v="Storehornet" />
		<tag k="natural" v="hill" />
		<tag k="place" v="locality" />
		<tag k="ssr:stedsnr" v="72556" />
	</node>
	<node id="-61414" lat="62.3339555524" lon="5.6282833376">
		<tag k="name" v="Storhornet" />
		<tag k="natural" v="hill" />
		<tag k="place" v="locality" />
		<tag k="ssr:stedsnr" v="37360" />
	</node>
	<node id="-61413" lat="62.252155552" lon="5.73023888561">
		<tag k="name" v="Saudehornet" />
		<tag k="natural" v="hill" />
		<tag k="place" v="locality" />
		<tag k="ssr:stedsnr" v="37319" />
	</node>
	<node id="-61922" lat="62.28910278" lon="5.66782223078">
		<tag k="name" v="Svartelvdalen" />
		<tag k="natural" v="valley" />
		<tag k="place" v="locality" />
		<tag k="ssr:stedsnr" v="71577" />
	</node>
	<node id="-61408" lat="62.3584166642" lon="5.69706666997">
		<tag k="name" v="Vasseidet" />
		<tag k="natural" v="valley" />
		<tag k="place" v="locality" />
		<tag k="ssr:stedsnr" v="11616" />
	</node>
	<node id="-61404" lat="62.2515638883" lon="5.73625278287">
		<tag k="alt_name" v="Slettheiane" />
		<tag k="name" v="Sletteheidane" />
		<tag k="natural" v="hill" />
		<tag k="place" v="locality" />
		<tag k="ssr:stedsnr" v="10206" />
	</node>
	<node id="-61402" lat="62.2858638917" lon="5.81469722658">
		<tag k="name" v="Blåbærhammaren" />
		<tag k="natural" v="cliff" />
		<tag k="ssr:stedsnr" v="220773" />
	</node>
	<node id="-61401" lat="62.2697861122" lon="5.71018056004">
		<tag k="name" v="Nonshaugen" />
		<tag k="natural" v="hill" />
		<tag k="place" v="locality" />
		<tag k="ssr:stedsnr" v="220388" />
	</node>
	<node id="-61400" lat="62.2592999964" lon="5.72819722604">
		<tag k="name" v="Høgsetdalen" />
		<tag k="natural" v="valley" />
		<tag k="place" v="locality" />
		<tag k="ssr:stedsnr" v="220383" />
	</node>
	<node id="-61911" lat="62.4001666626" lon="5.64389166244">
		<tag k="name" v="Blåfjellet" />
		<tag k="natural" v="hill" />
		<tag k="place" v="locality" />
		<tag k="ssr:stedsnr" v="38381" />
	</node>
	<node id="-61398" lat="62.3453750024" lon="5.57376111787">
		<tag k="name" v="Nausa" />
		<tag k="natural" v="ridge" />
		<tag k="place" v="locality" />
		<tag k="ssr:stedsnr" v="219770" />
	</node>
	<node id="-61396" lat="62.2275527809" lon="5.80139722642">
		<tag k="name" v="Bukken" />
		<tag k="natural" v="hill" />
		<tag k="place" v="locality" />
		<tag k="ssr:stedsnr" v="219680" />
	</node>
	<node id="-61395" lat="62.2617694448" lon="5.78333611259">
		<tag k="name" v="Botnen" />
		<tag k="natural" v="valley" />
		<tag k="place" v="locality" />
		<tag k="ssr:stedsnr" v="219678" />
	</node>
	<node id="-61906" lat="62.256555556" lon="5.75146666242">
		<tag k="fixme" v="consider natural=peak for the most distinct mountains in the district" />
		<tag k="name" v="Grøthornet" />
		<tag k="natural" v="hill" />
		<tag k="place" v="locality" />
		<tag k="ssr:stedsnr" v="37717" />
	</node>
	<node id="-61905" lat="62.2328999996" lon="5.76034721945">
		<tag k="fixme" v="consider natural=peak for the most distinct mountains in the district" />
		<tag k="name" v="Byrkjeåsen" />
		<tag k="natural" v="hill" />
		<tag k="place" v="locality" />
		<tag k="ssr:stedsnr" v="37711" />
	</node>
	<node id="-61904" lat="62.3716888862" lon="5.54132221371">
		<tag k="name" v="Trangeskaret" />
		<tag k="natural" v="valley" />
		<tag k="place" v="locality" />
		<tag k="ssr:stedsnr" v="37700" />
	</node>
	<node id="-61903" lat="62.407966669" lon="5.5991777705">
		<tag k="name" v="Rongabakkane" />
		<tag k="natural" v="slope" />
		<tag k="place" v="locality" />
		<tag k="ssr:stedsnr" v="37383" />
	</node>
	<node id="-61390" lat="62.3619861135" lon="5.54478888131">
		<tag k="name" v="Grøthaugen" />
		<tag k="natural" v="hill" />
		<tag k="place" v="locality" />
		<tag k="ssr:stedsnr" v="219323" />
	</node>
	<node id="-61901" lat="62.2765861075" lon="5.69718333779">
		<tag k="name" v="Djuperustene" />
		<tag k="natural" v="slope" />
		<tag k="place" v="locality" />
		<tag k="ssr:stedsnr" v="37336" />
	</node>
	<node id="-61900" lat="62.3410750039" lon="5.70904443879">
		<tag k="fixme" v="consider natural=peak for the most distinct mountains in the district" />
		<tag k="name" v="Vardeheida" />
		<tag k="natural" v="hill" />
		<tag k="ssr:stedsnr" v="29284" />
	</node>
	<node id="-61385" lat="62.2947638904" lon="5.66281389554">
		<tag k="name" v="Dyrhaugane" />
		<tag k="natural" v="hill" />
		<tag k="place" v="locality" />
		<tag k="ssr:stedsnr" v="219253" />
	</node>
	<node id="-61384" lat="62.3469749989" lon="5.73061667534">
		<tag k="fixme" v="consider natural=peak for the most distinct mountains in the district" />
		<tag k="name" v="Storehornet" />
		<tag k="natural" v="hill" />
		<tag k="place" v="locality" />
		<tag k="ssr:stedsnr" v="219155" />
	</node>
	<node id="-61895" lat="62.3950499978" lon="5.60944167495">
		<tag k="name" v="Otreskredene" />
		<tag k="natural" v="valley" />
		<tag k="place" v="locality" />
		<tag k="ssr:stedsnr" v="11675" />
	</node>
	<node id="-61894" lat="62.3972416634" lon="5.60977499714">
		<tag k="name" v="Frøystolen" />
		<tag k="natural" v="hill" />
		<tag k="place" v="locality" />
		<tag k="ssr:stedsnr" v="11674" />
	</node>
	<node id="-61891" lat="62.3685055521" lon="5.53488610341">
		<tag k="alt_name" v="Helleskaret" />
		<tag k="name" v="Helleskardet" />
		<tag k="natural" v="valley" />
		<tag k="place" v="locality" />
		<tag k="ssr:stedsnr" v="11651" />
	</node>
	<node id="-61888" lat="62.3711611143" lon="5.62468055961">
		<tag k="name" v="Vasseidet" />
		<tag k="natural" v="hill" />
		<tag k="place" v="locality" />
		<tag k="ssr:stedsnr" v="11646" />
	</node>
	<node id="-62397" lat="62.3616854924" lon="5.7052298605">
		<tag k="fixme" v="consider natural=peak for the most distinct mountains in the district" />
		<tag k="name" v="Grønlifjellet" />
		<tag k="natural" v="hill" />
		<tag k="place" v="locality" />
		<tag k="ssr:stedsnr" v="1077337" />
	</node>
	<node id="-61884" lat="62.3436916692" lon="5.65013055837">
		<tag k="fixme" v="consider natural=peak for the most distinct mountains in the district" />
		<tag k="name" v="Hornseten" />
		<tag k="natural" v="hill" />
		<tag k="place" v="locality" />
		<tag k="ssr:stedsnr" v="11599" />
	</node>
	<node id="-61881" lat="62.2825277787" lon="5.64225833118">
		<tag k="fixme" v="consider natural=peak for the most distinct mountains in the district" />
		<tag k="name" v="Storehanen" />
		<tag k="natural" v="hill" />
		<tag k="place" v="locality" />
		<tag k="ssr:stedsnr" v="11531" />
	</node>
	<node id="-62390" lat="62.4105854715" lon="5.60534405693">
		<tag k="fixme" v="consider natural=peak for the most distinct mountains in the district" />
		<tag k="name" v="Ternenesaksla" />
		<tag k="natural" v="hill" />
		<tag k="place" v="locality" />
		<tag k="ssr:stedsnr" v="1077071" />
	</node>
	<node id="-62389" lat="62.3328945717" lon="5.62024081681">
		<tag k="name" v="Igesundskaret" />
		<tag k="natural" v="valley" />
		<tag k="place" v="locality" />
		<tag k="ssr:stedsnr" v="1077033" />
	</node>
	<node id="-62388" lat="62.3392960117" lon="5.49567255679">
		<tag k="name" v="Myrbærhaugen" />
		<tag k="natural" v="hill" />
		<tag k="place" v="locality" />
		<tag k="ssr:stedsnr" v="1077016" />
	</node>
	<node id="-62383" lat="62.3570295884" lon="5.73172267225">
		<tag k="name" v="Kalen" />
>>>>>>> e1d4bc35ff8a6074a6f2e91616a996b547c36f15
		<tag k="natural" v="hill" />
		<tag k="place" v="locality" />
		<tag k="ssr:stedsnr" v="11674" />
	</node>
<<<<<<< HEAD
	<node lat="62.3950499978055" lon="5.609441674946342" id="-196">
		<tag k="name" v="Otreskredene" />
		<tag k="natural" v="valley" />
=======
	<node id="-61869" lat="62.4102416672" lon="5.612674994">
		<tag k="name" v="Gjøttane" />
		<tag k="natural" v="hill" />
>>>>>>> e1d4bc35ff8a6074a6f2e91616a996b547c36f15
		<tag k="place" v="locality" />
		<tag k="ssr:stedsnr" v="11675" />
	</node>
<<<<<<< HEAD
	<node lat="62.33395555242026" lon="5.628283337597369" id="-205">
		<tag k="name" v="Storhornet" />
		<tag k="natural" v="hill" />
=======
	<node id="-61868" lat="62.3547222226" lon="5.6747777801">
		<tag k="name" v="Halsen" />
		<tag k="natural" v="ridge" />
>>>>>>> e1d4bc35ff8a6074a6f2e91616a996b547c36f15
		<tag k="place" v="locality" />
		<tag k="ssr:stedsnr" v="37360" />
	</node>
<<<<<<< HEAD
	<node lat="62.23289999957597" lon="5.7603472194465475" id="-206">
		<tag k="fixme" v="consider natural=peak for the most distinct mountains in the district" />
		<tag k="name" v="Byrkjeåsen" />
		<tag k="natural" v="hill" />
		<tag k="place" v="locality" />
		<tag k="ssr:stedsnr" v="37711" />
	</node>
	<node lat="62.25655555597771" lon="5.751466662415195" id="-207">
		<tag k="fixme" v="consider natural=peak for the most distinct mountains in the district" />
		<tag k="name" v="Grøthornet" />
		<tag k="natural" v="hill" />
		<tag k="place" v="locality" />
		<tag k="ssr:stedsnr" v="37717" />
	</node>
	<node lat="62.2891027800002" lon="5.667822230782951" id="-220">
		<tag k="name" v="Svartelvdalen" />
=======
	<node id="-61851" lat="62.2456222255" lon="5.71169722115">
		<tag k="name" v="Kråa" />
>>>>>>> e1d4bc35ff8a6074a6f2e91616a996b547c36f15
		<tag k="natural" v="valley" />
		<tag k="place" v="locality" />
		<tag k="ssr:stedsnr" v="71577" />
	</node>
<<<<<<< HEAD
	<node lat="62.36071665607354" lon="5.735645233481343" id="-236">
		<tag k="name" v="Husebruna" />
		<tag k="natural" v="ridge" />
=======
	<node id="-62361" lat="62.2600111101" lon="5.78949999164">
		<tag k="fixme" v="consider natural=peak for the most distinct mountains in the district" />
		<tag k="name" v="Nakken" />
		<tag k="natural" v="hill" />
>>>>>>> e1d4bc35ff8a6074a6f2e91616a996b547c36f15
		<tag k="place" v="locality" />
		<tag k="ssr:stedsnr" v="97315" />
	</node>
<<<<<<< HEAD
	<node lat="62.27613611213461" lon="5.635333335933362" id="-237">
		<tag k="name" v="Kleivatrollet" />
=======
	<node id="-61847" lat="62.2239694462" lon="5.78259166684">
		<tag k="name" v="Furehaugen" />
>>>>>>> e1d4bc35ff8a6074a6f2e91616a996b547c36f15
		<tag k="natural" v="hill" />
		<tag k="place" v="locality" />
		<tag k="ssr:stedsnr" v="98313" />
	</node>
<<<<<<< HEAD
	<node lat="62.23477222178145" lon="5.777186106277335" id="-238">
		<tag k="name" v="Brendeåsen" />
		<tag k="natural" v="hill" />
=======
	<node id="-61844" lat="62.2777083309" lon="5.65495554792">
		<tag k="name" v="Selsteinstrupen" />
		<tag k="natural" v="valley" />
>>>>>>> e1d4bc35ff8a6074a6f2e91616a996b547c36f15
		<tag k="place" v="locality" />
		<tag k="ssr:stedsnr" v="98703" />
	</node>
<<<<<<< HEAD
	<node lat="62.39903333627247" lon="5.655497225358943" id="-241">
		<tag k="name" v="Nørdre Handfangenet" />
		<tag k="natural" v="valley" />
		<tag k="place" v="locality" />
		<tag k="ssr:stedsnr" v="99374" />
	</node>
	<node lat="62.27137499862174" lon="5.7766027867941805" id="-247">
		<tag k="fixme" v="consider natural=peak for the most distinct mountains in the district" />
		<tag k="name" v="Huldrehornet" />
=======
	<node id="-62355" lat="62.2607611076" lon="5.65948610289">
		<tag k="name" v="Lisjedalen" />
		<tag k="natural" v="valley" />
		<tag k="place" v="locality" />
		<tag k="ssr:stedsnr" v="860543" />
	</node>
	<node id="-61842" lat="62.2587555588" lon="5.73573889804">
		<tag k="name" v="Lausmylktehamrane" />
		<tag k="natural" v="cliff" />
		<tag k="ssr:stedsnr" v="887327" />
	</node>
	<node id="-61838" lat="62.3522166701" lon="5.69584444291">
		<tag k="name" v="Storekinna" />
>>>>>>> e1d4bc35ff8a6074a6f2e91616a996b547c36f15
		<tag k="natural" v="hill" />
		<tag k="place" v="locality" />
		<tag k="ssr:stedsnr" v="131172" />
	</node>
<<<<<<< HEAD
	<node lat="62.333133331265216" lon="5.5329555506029" id="-250">
		<tag k="alt_name" v="Skaget" />
		<tag k="fixme" v="consider natural=peak for the most distinct mountains in the district" />
		<tag k="name" v="Skagetåa" />
=======
	<node id="-61837" lat="62.371738887" lon="5.54513333284">
		<tag k="name" v="Måsefjellet" />
>>>>>>> e1d4bc35ff8a6074a6f2e91616a996b547c36f15
		<tag k="natural" v="hill" />
		<tag k="place" v="locality" />
		<tag k="ssr:stedsnr" v="132607" />
	</node>
<<<<<<< HEAD
	<node lat="62.350844446880664" lon="5.683533331802363" id="-251">
		<tag k="name" v="Setane" />
		<tag k="natural" v="slope" />
=======
	<node id="-61835" lat="62.2649527758" lon="5.75366945244">
		<tag k="fixme" v="consider natural=peak for the most distinct mountains in the district" />
		<tag k="name" v="Nyklane" />
		<tag k="natural" v="hill" />
>>>>>>> e1d4bc35ff8a6074a6f2e91616a996b547c36f15
		<tag k="place" v="locality" />
		<tag k="ssr:stedsnr" v="132618" />
	</node>
<<<<<<< HEAD
	<node lat="62.400650001956855" lon="5.604277786610073" id="-256">
		<tag k="name" v="Sandshornet" />
		<tag k="natural" v="hill" />
=======
	<node id="-61834" lat="62.2438638887" lon="5.71536665783">
		<tag k="name" v="Sædalsskaret" />
		<tag k="natural" v="valley" />
>>>>>>> e1d4bc35ff8a6074a6f2e91616a996b547c36f15
		<tag k="place" v="locality" />
		<tag k="ssr:stedsnr" v="132680" />
	</node>
<<<<<<< HEAD
	<node lat="62.37062221959293" lon="5.53731110850882" id="-267">
		<tag k="name" v="Børa" />
=======
	<node id="-61833" lat="62.2384277767" lon="5.79912221803">
		<tag k="name" v="Kleppeåsen" />
>>>>>>> e1d4bc35ff8a6074a6f2e91616a996b547c36f15
		<tag k="natural" v="hill" />
		<tag k="place" v="locality" />
		<tag k="ssr:stedsnr" v="253672" />
	</node>
<<<<<<< HEAD
	<node lat="62.32499167038633" lon="5.621869451359298" id="-271">
		<tag k="name" v="Varden" />
=======
	<node id="-61830" lat="62.336497222" lon="5.55204443908">
		<tag k="name" v="Skoghornet" />
>>>>>>> e1d4bc35ff8a6074a6f2e91616a996b547c36f15
		<tag k="natural" v="hill" />
		<tag k="place" v="locality" />
		<tag k="ssr:stedsnr" v="254560" />
	</node>
<<<<<<< HEAD
	<node lat="62.256174999769115" lon="5.632530560077904" id="-274">
		<tag k="name" v="Klubben" />
=======
	<node id="-62340" lat="62.3905555595" lon="5.62175555499">
		<tag k="name" v="Huleberget" />
>>>>>>> e1d4bc35ff8a6074a6f2e91616a996b547c36f15
		<tag k="natural" v="slope" />
		<tag k="place" v="locality" />
		<tag k="ssr:stedsnr" v="254957" />
	</node>
<<<<<<< HEAD
	<node lat="62.36961389098637" lon="5.6247694352603945" id="-276">
		<tag k="name" v="Vasseidbakkane" />
		<tag k="natural" v="slope" />
=======
	<node id="-61826" lat="62.2961944437" lon="5.72571389059">
		<tag k="name" v="Trolldalen" />
		<tag k="natural" v="valley" />
>>>>>>> e1d4bc35ff8a6074a6f2e91616a996b547c36f15
		<tag k="place" v="locality" />
		<tag k="ssr:stedsnr" v="158360" />
	</node>
<<<<<<< HEAD
	<node lat="62.392591668191066" lon="5.633961103171835" id="-277">
		<tag k="name" v="Berget" />
=======
	<node id="-61825" lat="62.2751361142" lon="5.63578611377">
		<tag k="name" v="Kleivane" />
>>>>>>> e1d4bc35ff8a6074a6f2e91616a996b547c36f15
		<tag k="natural" v="slope" />
		<tag k="place" v="locality" />
		<tag k="ssr:stedsnr" v="158753" />
	</node>
<<<<<<< HEAD
	<node lat="62.23531666921906" lon="5.772466673565873" id="-286">
		<tag k="name" v="Kattadalen" />
		<tag k="natural" v="valley" />
=======
	<node id="-61823" lat="62.3284111082" lon="5.62261943885">
		<tag k="fixme" v="consider natural=peak for the most distinct mountains in the district" />
		<tag k="name" v="Vikefjellet" />
		<tag k="natural" v="hill" />
>>>>>>> e1d4bc35ff8a6074a6f2e91616a996b547c36f15
		<tag k="place" v="locality" />
		<tag k="ssr:stedsnr" v="219722" />
	</node>
<<<<<<< HEAD
	<node lat="62.26176944481415" lon="5.7833361125886995" id="-288">
		<tag k="name" v="Botnen" />
		<tag k="natural" v="valley" />
=======
	<node id="-61822" lat="62.219788888" lon="5.75200833324">
		<tag k="name" v="Grøthornet" />
		<tag k="natural" v="hill" />
>>>>>>> e1d4bc35ff8a6074a6f2e91616a996b547c36f15
		<tag k="place" v="locality" />
		<tag k="ssr:stedsnr" v="219678" />
	</node>
<<<<<<< HEAD
	<node lat="62.22755278090935" lon="5.801397226418959" id="-289">
		<tag k="name" v="Bukken" />
=======
	<node id="-61820" lat="62.3649916659" lon="5.50550277193">
		<tag k="name" v="Muletua" />
>>>>>>> e1d4bc35ff8a6074a6f2e91616a996b547c36f15
		<tag k="natural" v="hill" />
		<tag k="place" v="locality" />
		<tag k="ssr:stedsnr" v="219680" />
	</node>
<<<<<<< HEAD
	<node lat="62.345375002411494" lon="5.5737611178693856" id="-290">
		<tag k="name" v="Nausa" />
=======
	<node id="-62331" lat="62.3734305574" lon="5.55005278535">
		<tag k="name" v="Aksla" />
>>>>>>> e1d4bc35ff8a6074a6f2e91616a996b547c36f15
		<tag k="natural" v="ridge" />
		<tag k="place" v="locality" />
		<tag k="ssr:stedsnr" v="219770" />
	</node>
<<<<<<< HEAD
	<node lat="62.25929999638094" lon="5.728197226036538" id="-291">
		<tag k="name" v="Høgsetdalen" />
		<tag k="natural" v="valley" />
=======
	<node id="-61818" lat="62.3547972253" lon="5.68727499804">
		<tag k="alt_name" v="Leinekniven" />
		<tag k="fixme" v="consider natural=peak for the most distinct mountains in the district" />
		<tag k="name" v="Leinehornet" />
		<tag k="natural" v="hill" />
>>>>>>> e1d4bc35ff8a6074a6f2e91616a996b547c36f15
		<tag k="place" v="locality" />
		<tag k="ssr:stedsnr" v="220383" />
	</node>
<<<<<<< HEAD
	<node lat="62.269786112248745" lon="5.710180560037801" id="-292">
		<tag k="name" v="Nonshaugen" />
		<tag k="natural" v="hill" />
		<tag k="place" v="locality" />
		<tag k="ssr:stedsnr" v="220388" />
	</node>
	<node lat="62.28586389168873" lon="5.814697226575506" id="-294">
		<tag k="name" v="Blåbærhammaren" />
		<tag k="natural" v="cliff" />
		<tag k="ssr:stedsnr" v="220773" />
	</node>
	<node lat="62.225459659739016" lon="5.736174978799585" id="-297">
		<tag k="name" v="Roskar" />
		<tag k="natural" v="valley" />
		<tag k="place" v="locality" />
		<tag k="ssr:stedsnr" v="253205" />
	</node>
	<node lat="62.26695555767411" lon="5.736669435528895" id="-298">
		<tag k="name" v="Høgsetdalen" />
		<tag k="natural" v="valley" />
=======
	<node id="-62329" lat="62.2610888929" lon="5.77323333375">
		<tag k="name" v="Tjukkeraua" />
		<tag k="natural" v="slope" />
		<tag k="place" v="locality" />
		<tag k="ssr:stedsnr" v="826717" />
	</node>
	<node id="-61816" lat="62.2883527756" lon="5.59215833813">
		<tag k="name" v="Tarbergtua" />
		<tag k="natural" v="hill" />
		<tag k="place" v="locality" />
		<tag k="ssr:stedsnr" v="860577" />
	</node>
	<node id="-62326" lat="62.2233444432" lon="5.74824166215">
		<tag k="name" v="Huldreholene" />
		<tag k="natural" v="valley" />
		<tag k="place" v="locality" />
		<tag k="ssr:stedsnr" v="826682" />
	</node>
	<node id="-62320" lat="62.3578083363" lon="5.72984722816">
		<tag k="alt_name" v="Kalskarryggen" />
		<tag k="name" v="Kalsryggen" />
		<tag k="natural" v="ridge" />
		<tag k="place" v="locality" />
		<tag k="ssr:stedsnr" v="826341" />
	</node>
	<node id="-62313" lat="62.2828944406" lon="5.63725833339">
		<tag k="name" v="Blåfjellet" />
>>>>>>> e1d4bc35ff8a6074a6f2e91616a996b547c36f15
		<tag k="place" v="locality" />
		<tag k="ssr:stedsnr" v="253211" />
	</node>
<<<<<<< HEAD
	<node lat="62.330080551670235" lon="5.503611119866151" id="-300">
		<tag k="alt_name" v="Skorpetua" />
=======
	<node id="-62312" lat="62.2833583305" lon="5.70950554736">
>>>>>>> e1d4bc35ff8a6074a6f2e91616a996b547c36f15
		<tag k="fixme" v="consider natural=peak for the most distinct mountains in the district" />
		<tag k="name" v="Keipen" />
		<tag k="natural" v="hill" />
		<tag k="place" v="locality" />
		<tag k="ssr:stedsnr" v="253627" />
	</node>
<<<<<<< HEAD
	<node lat="62.36671111476678" lon="5.523544448592402" id="-305">
=======
	<node id="-61756" lat="62.2893999974" lon="5.71654166094">
		<tag k="name" v="Sandvikskaret" />
		<tag k="natural" v="valley" />
		<tag k="place" v="locality" />
		<tag k="ssr:stedsnr" v="705350" />
	</node>
	<node id="-61678" lat="62.2916749966" lon="5.60682777341">
		<tag k="name" v="Storenakken" />
		<tag k="natural" v="hill" />
		<tag k="place" v="locality" />
		<tag k="ssr:stedsnr" v="705298" />
	</node>
	<node id="-61794" lat="62.2565361128" lon="5.67770555809">
>>>>>>> e1d4bc35ff8a6074a6f2e91616a996b547c36f15
		<tag k="fixme" v="consider natural=peak for the most distinct mountains in the district" />
		<tag k="name" v="Barmen" />
		<tag k="natural" v="hill" />
		<tag k="place" v="locality" />
		<tag k="ssr:stedsnr" v="253675" />
	</node>
<<<<<<< HEAD
	<node lat="62.28525000318014" lon="5.815299996250617" id="-307">
=======
	<node id="-62305" lat="62.3368416644" lon="5.65081666363">
>>>>>>> e1d4bc35ff8a6074a6f2e91616a996b547c36f15
		<tag k="fixme" v="consider natural=peak for the most distinct mountains in the district" />
		<tag k="name" v="Rambjøra" />
		<tag k="natural" v="hill" />
		<tag k="place" v="locality" />
		<tag k="ssr:stedsnr" v="254109" />
	</node>
<<<<<<< HEAD
	<node lat="62.34846666256634" lon="5.574324995529226" id="-310">
		<tag k="name" v="Kalddalshaugen" />
		<tag k="natural" v="hill" />
		<tag k="place" v="locality" />
		<tag k="ssr:stedsnr" v="280206" />
	</node>
	<node lat="62.29041944550813" lon="5.596455551440593" id="-311">
		<tag k="name" v="Slettfjellet" />
		<tag k="natural" v="slope" />
=======
	<node id="-62301" lat="62.2419916676" lon="5.76521944821">
		<tag k="fixme" v="consider natural=peak for the most distinct mountains in the district" />
		<tag k="name" v="Grønåsen" />
		<tag k="natural" v="hill" />
>>>>>>> e1d4bc35ff8a6074a6f2e91616a996b547c36f15
		<tag k="place" v="locality" />
		<tag k="ssr:stedsnr" v="280211" />
	</node>
<<<<<<< HEAD
	<node lat="62.35442777627167" lon="5.57228888402543" id="-315">
		<tag k="name" v="Blåsvædet" />
		<tag k="natural" v="slope" />
=======
	<node id="-61787" lat="62.2290583332" lon="5.79169445142">
		<tag k="name" v="Heida" />
		<tag k="natural" v="hill" />
>>>>>>> e1d4bc35ff8a6074a6f2e91616a996b547c36f15
		<tag k="place" v="locality" />
		<tag k="ssr:stedsnr" v="280314" />
	</node>
<<<<<<< HEAD
	<node lat="62.337063885687094" lon="5.561077783114566" id="-316">
		<tag k="name" v="Skogshornhammaren" />
		<tag k="place" v="locality" />
		<tag k="ssr:stedsnr" v="280321" />
	</node>
	<node lat="62.35530555751061" lon="5.691633326530154" id="-317">
		<tag k="name" v="Fairebakkane" />
		<tag k="natural" v="slope" />
		<tag k="place" v="locality" />
		<tag k="ssr:stedsnr" v="280278" />
	</node>
	<node lat="62.27720833649258" lon="5.7769583390921895" id="-318">
		<tag k="name" v="Lidafjellet" />
=======
	<node id="-61785" lat="62.3991527748" lon="5.65711945108">
		<tag k="name" v="Geita" />
>>>>>>> e1d4bc35ff8a6074a6f2e91616a996b547c36f15
		<tag k="natural" v="hill" />
		<tag k="place" v="locality" />
		<tag k="ssr:stedsnr" v="280286" />
	</node>
<<<<<<< HEAD
	<node lat="62.2814093083437" lon="5.738149246126648" id="-320">
		<tag k="name" v="Strynehaugen" />
=======
	<node id="-61784" lat="62.3967892954" lon="5.63468337573">
		<tag k="alt_name" v="Vardane;Rundevarden" />
		<tag k="fixme" v="consider natural=peak for the most distinct mountains in the district" />
		<tag k="name" v="Varden" />
>>>>>>> e1d4bc35ff8a6074a6f2e91616a996b547c36f15
		<tag k="natural" v="hill" />
		<tag k="place" v="locality" />
		<tag k="ssr:stedsnr" v="280702" />
	</node>
<<<<<<< HEAD
	<node lat="62.36500277964055" lon="5.540174994803613" id="-326">
		<tag k="name" v="Litleleitet" />
		<tag k="natural" v="slope" />
=======
	<node id="-61753" lat="62.3318138884" lon="5.69604722225">
		<tag k="name" v="Kruna" />
		<tag k="natural" v="hill" />
		<tag k="place" v="locality" />
		<tag k="ssr:stedsnr" v="887752" />
	</node>
	<node id="-61779" lat="62.3529222213" lon="5.70401110592">
		<tag k="name" v="Sandedalen" />
		<tag k="natural" v="valley" />
>>>>>>> e1d4bc35ff8a6074a6f2e91616a996b547c36f15
		<tag k="place" v="locality" />
		<tag k="ssr:stedsnr" v="462291" />
	</node>
<<<<<<< HEAD
	<node lat="62.283736108766696" lon="5.778875002301342" id="-331">
		<tag k="name" v="Torsethøgda" />
=======
	<node id="-61774" lat="62.3619000013" lon="5.73376943537">
		<tag k="name" v="Brattefjellet" />
>>>>>>> e1d4bc35ff8a6074a6f2e91616a996b547c36f15
		<tag k="natural" v="hill" />
		<tag k="place" v="locality" />
		<tag k="ssr:stedsnr" v="462635" />
	</node>
	<node lat="62.23062500186" lon="5.820344437210855" id="-337">
		<tag k="name" v="Rognhammaren" />
		<tag k="natural" v="cliff" />
		<tag k="ssr:stedsnr" v="462697" />
	</node>
<<<<<<< HEAD
	<node lat="62.37557778149205" lon="5.629024999278573" id="-340">
		<tag k="name" v="Bukkehylla" />
		<tag k="place" v="locality" />
		<tag k="ssr:stedsnr" v="463354" />
	</node>
	<node lat="62.25320833238158" lon="5.765038879682653" id="-343">
=======
	<node id="-62277" lat="62.2503500037" lon="5.75002222852">
>>>>>>> e1d4bc35ff8a6074a6f2e91616a996b547c36f15
		<tag k="fixme" v="consider natural=peak for the most distinct mountains in the district" />
		<tag k="name" v="Bakkehornet" />
		<tag k="natural" v="hill" />
		<tag k="place" v="locality" />
		<tag k="ssr:stedsnr" v="314226" />
	</node>
<<<<<<< HEAD
	<node lat="62.342863887195385" lon="5.56838611102117" id="-348">
		<tag k="name" v="Hestinghornet" />
		<tag k="natural" v="hill" />
		<tag k="place" v="locality" />
		<tag k="ssr:stedsnr" v="314623" />
	</node>
	<node lat="62.372500000522066" lon="5.547863882506217" id="-354">
		<tag k="name" v="Seideskaret" />
=======
	<node id="-62275" lat="62.240347218" lon="5.76298056255">
		<tag k="name" v="Tjørnadalen" />
>>>>>>> e1d4bc35ff8a6074a6f2e91616a996b547c36f15
		<tag k="natural" v="valley" />
		<tag k="place" v="locality" />
		<tag k="ssr:stedsnr" v="340693" />
	</node>
<<<<<<< HEAD
	<node lat="62.27211667016739" lon="5.738422215226655" id="-364">
		<tag k="fixme" v="consider natural=peak for the most distinct mountains in the district" />
		<tag k="name" v="Nakken" />
=======
	<node id="-62274" lat="62.2394944407" lon="5.72359167066">
		<tag k="name" v="Storedroghaugen" />
>>>>>>> e1d4bc35ff8a6074a6f2e91616a996b547c36f15
		<tag k="natural" v="hill" />
		<tag k="place" v="locality" />
		<tag k="ssr:stedsnr" v="374147" />
	</node>
<<<<<<< HEAD
	<node lat="62.295297223148246" lon="5.7285416732708825" id="-374">
		<tag k="alt_name" v="Raftesetfjelet" />
		<tag k="name" v="Raftesethaugen" />
		<tag k="natural" v="hill" />
=======
	<node id="-62272" lat="62.2313277761" lon="5.75667778402">
		<tag k="name" v="Dyrskaret" />
		<tag k="natural" v="valley" />
>>>>>>> e1d4bc35ff8a6074a6f2e91616a996b547c36f15
		<tag k="place" v="locality" />
		<tag k="ssr:stedsnr" v="401294" />
	</node>
<<<<<<< HEAD
	<node lat="62.364499999540435" lon="5.522775006409366" id="-376">
		<tag k="name" v="Nyklane" />
		<tag k="natural" v="ridge" />
=======
	<node id="-62269" lat="62.3348916634" lon="5.65943889444">
		<tag k="name" v="Bendalen" />
		<tag k="natural" v="valley" />
>>>>>>> e1d4bc35ff8a6074a6f2e91616a996b547c36f15
		<tag k="place" v="locality" />
		<tag k="ssr:stedsnr" v="401728" />
	</node>
<<<<<<< HEAD
	<node lat="62.3990138874687" lon="5.6292000062197465" id="-377">
		<tag k="name" v="Austefjellet" />
		<tag k="natural" v="slope" />
=======
	<node id="-62268" lat="62.2790444412" lon="5.69857777006">
		<tag k="name" v="Rumpene" />
		<tag k="natural" v="hill" />
>>>>>>> e1d4bc35ff8a6074a6f2e91616a996b547c36f15
		<tag k="place" v="locality" />
		<tag k="ssr:stedsnr" v="402385" />
	</node>
<<<<<<< HEAD
	<node lat="62.34536666847738" lon="5.522727779299095" id="-378">
		<tag k="name" v="Hellefjellet" />
=======
	<node id="-62265" lat="62.2876611144" lon="5.56851667156">
		<tag k="name" v="Litle Løsethornet" />
>>>>>>> e1d4bc35ff8a6074a6f2e91616a996b547c36f15
		<tag k="natural" v="hill" />
		<tag k="place" v="locality" />
		<tag k="ssr:stedsnr" v="402389" />
	</node>
<<<<<<< HEAD
	<node lat="62.29072500358648" lon="5.698127782840615" id="-384">
		<tag k="name" v="Sandvikhornet" />
		<tag k="natural" v="hill" />
=======
	<node id="-61752" lat="62.3614527745" lon="5.70115278241">
		<tag k="name" v="Samundskaret" />
		<tag k="natural" v="valley" />
>>>>>>> e1d4bc35ff8a6074a6f2e91616a996b547c36f15
		<tag k="place" v="locality" />
		<tag k="ssr:stedsnr" v="435562" />
	</node>
<<<<<<< HEAD
	<node lat="62.29057222156302" lon="5.589325008305256" id="-390">
		<tag k="name" v="Hundegylet" />
		<tag k="natural" v="gorge" />
		<tag k="ssr:stedsnr" v="462221" />
	</node>
	<node lat="62.2910750038642" lon="5.58280832694393" id="-391">
		<tag k="name" v="Mosefjellet" />
=======
	<node id="-61749" lat="62.2754944439" lon="5.70669722242">
		<tag k="name" v="Koppebakkane" />
>>>>>>> e1d4bc35ff8a6074a6f2e91616a996b547c36f15
		<tag k="natural" v="slope" />
		<tag k="place" v="locality" />
		<tag k="ssr:stedsnr" v="462224" />
	</node>
<<<<<<< HEAD
	<node lat="62.37461389244958" lon="5.6250583242345655" id="-393">
		<tag k="name" v="Storegylet" />
=======
	<node id="-61748" lat="62.2640916669" lon="5.63372500426">
		<tag k="name" v="Trollskaret" />
>>>>>>> e1d4bc35ff8a6074a6f2e91616a996b547c36f15
		<tag k="natural" v="valley" />
		<tag k="place" v="locality" />
		<tag k="ssr:stedsnr" v="462359" />
	</node>
<<<<<<< HEAD
	<node lat="62.261708335186796" lon="5.752483336342359" id="-394">
		<tag k="name" v="Blåhammaren" />
		<tag k="natural" v="cliff" />
		<tag k="ssr:stedsnr" v="462708" />
	</node>
	<node lat="62.237574996424584" lon="5.758208331654865" id="-395">
		<tag k="name" v="Storehaugen" />
=======
	<node id="-62258" lat="62.3664222243" lon="5.63561944452">
		<tag k="alt_name" v="Sævikhatten" />
		<tag k="name" v="Vardane" />
		<tag k="natural" v="hill" />
		<tag k="place" v="locality" />
		<tag k="ssr:stedsnr" v="739637" />
	</node>
	<node id="-62256" lat="62.3534249987" lon="5.53194723057">
		<tag k="name" v="Vallhammaren" />
>>>>>>> e1d4bc35ff8a6074a6f2e91616a996b547c36f15
		<tag k="natural" v="hill" />
		<tag k="place" v="locality" />
		<tag k="ssr:stedsnr" v="462712" />
	</node>
<<<<<<< HEAD
	<node lat="62.32909722675085" lon="5.688311114119094" id="-410">
=======
	<node id="-61740" lat="62.3290972268" lon="5.68831111412">
>>>>>>> e1d4bc35ff8a6074a6f2e91616a996b547c36f15
		<tag k="fixme" v="consider natural=peak for the most distinct mountains in the district" />
		<tag k="name" v="Grønfjellet" />
		<tag k="natural" v="hill" />
		<tag k="place" v="locality" />
		<tag k="ssr:stedsnr" v="678564" />
	</node>
<<<<<<< HEAD
	<node lat="62.37111111391718" lon="5.662761103791648" id="-414">
		<tag k="fixme" v="consider natural=peak for the most distinct mountains in the district" />
		<tag k="name" v="Remøykammen" />
=======
	<node id="-62250" lat="62.290755558" lon="5.60701388616">
		<tag k="name" v="Nakkane" />
>>>>>>> e1d4bc35ff8a6074a6f2e91616a996b547c36f15
		<tag k="natural" v="hill" />
		<tag k="place" v="locality" />
		<tag k="ssr:stedsnr" v="678633" />
	</node>
<<<<<<< HEAD
	<node lat="62.405754620652836" lon="5.592017601775726" id="-416">
		<tag k="name" v="Rundabranden" />
		<tag k="natural" v="hill" />
=======
	<node id="-62249" lat="62.2866222232" lon="5.69747776893">
		<tag k="name" v="Øyradalen" />
		<tag k="natural" v="valley" />
>>>>>>> e1d4bc35ff8a6074a6f2e91616a996b547c36f15
		<tag k="place" v="locality" />
		<tag k="ssr:stedsnr" v="678662" />
	</node>
<<<<<<< HEAD
	<node lat="62.350222222047705" lon="5.699280548710111" id="-422">
		<tag k="name" v="Leitet" />
=======
	<node id="-61489" lat="62.3925916682" lon="5.63396110317">
		<tag k="name" v="Berget" />
		<tag k="natural" v="slope" />
		<tag k="place" v="locality" />
		<tag k="ssr:stedsnr" v="158753" />
	</node>
	<node id="-62243" lat="62.3358000011" lon="5.70701945229">
		<tag k="name" v="Vassdalen" />
>>>>>>> e1d4bc35ff8a6074a6f2e91616a996b547c36f15
		<tag k="natural" v="valley" />
		<tag k="place" v="locality" />
		<tag k="ssr:stedsnr" v="496618" />
	</node>
<<<<<<< HEAD
	<node lat="62.3881805558814" lon="5.612174999233211" id="-430">
		<tag k="name" v="Søre Handfanganet" />
		<tag k="natural" v="hill" />
=======
	<node id="-62241" lat="62.2920861078" lon="5.57374167307">
		<tag k="name" v="Hjellen" />
>>>>>>> e1d4bc35ff8a6074a6f2e91616a996b547c36f15
		<tag k="place" v="locality" />
		<tag k="ssr:stedsnr" v="496652" />
	</node>
<<<<<<< HEAD
	<node lat="62.37408333668812" lon="5.6359194375185275" id="-439">
		<tag k="name" v="Hesteberget" />
		<tag k="natural" v="hill" />
=======
	<node id="-62240" lat="62.373552779" lon="5.66835277951">
		<tag k="name" v="Stigane" />
		<tag k="natural" v="slope" />
>>>>>>> e1d4bc35ff8a6074a6f2e91616a996b547c36f15
		<tag k="place" v="locality" />
		<tag k="ssr:stedsnr" v="522365" />
	</node>
<<<<<<< HEAD
	<node lat="62.348591665337665" lon="5.538647223346233" id="-441">
		<tag k="name" v="Storpesnausa" />
=======
	<node id="-61744" lat="62.4057546207" lon="5.59201760178">
		<tag k="name" v="Rundabranden" />
>>>>>>> e1d4bc35ff8a6074a6f2e91616a996b547c36f15
		<tag k="natural" v="hill" />
		<tag k="place" v="locality" />
		<tag k="ssr:stedsnr" v="678662" />
	</node>
<<<<<<< HEAD
	<node lat="62.39643611126193" lon="5.6291222242505095" id="-442">
		<tag k="name" v="Blåbærdalen" />
		<tag k="natural" v="valley" />
=======
	<node id="-62237" lat="62.2437194453" lon="5.73986110487">
		<tag k="name" v="Sætrelidene" />
		<tag k="natural" v="slope" />
>>>>>>> e1d4bc35ff8a6074a6f2e91616a996b547c36f15
		<tag k="place" v="locality" />
		<tag k="ssr:stedsnr" v="523423" />
	</node>
<<<<<<< HEAD
	<node lat="62.3923805596854" lon="5.615166669947619" id="-450">
		<tag k="name" v="Lia" />
		<tag k="natural" v="cliff" />
		<tag k="ssr:stedsnr" v="537908" />
	</node>
	<node lat="62.28348332919013" lon="5.621972214834826" id="-456">
		<tag k="name" v="Moltudalen" />
		<tag k="natural" v="valley" />
=======
	<node id="-62234" lat="62.3373527733" lon="5.63112776914">
		<tag k="name" v="Grønfjellet" />
		<tag k="natural" v="hill" />
>>>>>>> e1d4bc35ff8a6074a6f2e91616a996b547c36f15
		<tag k="place" v="locality" />
		<tag k="ssr:stedsnr" v="556573" />
	</node>
<<<<<<< HEAD
	<node lat="62.32754444194654" lon="5.609700006878838" id="-461">
		<tag k="name" v="Storehaugen" />
		<tag k="natural" v="hill" />
=======
	<node id="-62232" lat="62.272150003" lon="5.71068610883">
		<tag k="name" v="Nonsdalen" />
		<tag k="natural" v="valley" />
>>>>>>> e1d4bc35ff8a6074a6f2e91616a996b547c36f15
		<tag k="place" v="locality" />
		<tag k="ssr:stedsnr" v="557550" />
	</node>
<<<<<<< HEAD
	<node lat="62.290791665169365" lon="5.617752784883678" id="-464">
		<tag k="name" v="Moltubakken" />
=======
	<node id="-62227" lat="62.2455416639" lon="5.7385944381">
		<tag k="name" v="Sætrelia" />
>>>>>>> e1d4bc35ff8a6074a6f2e91616a996b547c36f15
		<tag k="natural" v="slope" />
		<tag k="place" v="locality" />
		<tag k="ssr:stedsnr" v="583251" />
	</node>
<<<<<<< HEAD
	<node lat="62.24111666578203" lon="5.726566667333301" id="-467">
		<tag k="name" v="Litledroghaugen" />
=======
	<node id="-61709" lat="62.3300666686" lon="5.72541666822">
		<tag k="name" v="Frøystadtua" />
>>>>>>> e1d4bc35ff8a6074a6f2e91616a996b547c36f15
		<tag k="natural" v="hill" />
		<tag k="place" v="locality" />
		<tag k="ssr:stedsnr" v="583708" />
	</node>
<<<<<<< HEAD
	<node lat="62.34138055544313" lon="5.6246611177902315" id="-471">
=======
	<node id="-61708" lat="62.3413805554" lon="5.62466111779">
>>>>>>> e1d4bc35ff8a6074a6f2e91616a996b547c36f15
		<tag k="name" v="Kleiva" />
		<tag k="natural" v="slope" />
		<tag k="place" v="locality" />
		<tag k="ssr:stedsnr" v="583740" />
	</node>
<<<<<<< HEAD
	<node lat="62.33006666863251" lon="5.72541666822401" id="-472">
		<tag k="name" v="Frøystadtua" />
=======
	<node id="-61702" lat="62.2411166658" lon="5.72656666733">
		<tag k="name" v="Litledroghaugen" />
>>>>>>> e1d4bc35ff8a6074a6f2e91616a996b547c36f15
		<tag k="natural" v="hill" />
		<tag k="place" v="locality" />
		<tag k="ssr:stedsnr" v="583749" />
	</node>
	<node lat="62.38603333708497" lon="5.61147499559583" id="-474">
		<tag k="name" v="Storevikbruna" />
		<tag k="natural" v="ridge" />
		<tag k="place" v="locality" />
		<tag k="ssr:stedsnr" v="583691" />
	</node>
<<<<<<< HEAD
	<node lat="62.34121111122586" lon="5.709183329085748" id="-485">
=======
	<node id="-62213" lat="62.3265555515" lon="5.72740000757">
>>>>>>> e1d4bc35ff8a6074a6f2e91616a996b547c36f15
		<tag k="fixme" v="consider natural=peak for the most distinct mountains in the district" />
		<tag k="name" v="Leinebjørnen" />
		<tag k="natural" v="hill" />
		<tag k="place" v="locality" />
		<tag k="ssr:stedsnr" v="617593" />
	</node>
<<<<<<< HEAD
	<node lat="62.36364444652722" lon="5.705697225760311" id="-486">
=======
	<node id="-62208" lat="62.3636444465" lon="5.70569722576">
>>>>>>> e1d4bc35ff8a6074a6f2e91616a996b547c36f15
		<tag k="name" v="Grønelia" />
		<tag k="natural" v="slope" />
		<tag k="place" v="locality" />
		<tag k="ssr:stedsnr" v="617629" />
	</node>
<<<<<<< HEAD
	<node lat="62.32655555150652" lon="5.727400007573256" id="-488">
		<tag k="fixme" v="consider natural=peak for the most distinct mountains in the district" />
		<tag k="name" v="Staven" />
=======
	<node id="-61695" lat="62.3316972232" lon="5.72068888413">
		<tag k="name" v="Ramnefjellet" />
>>>>>>> e1d4bc35ff8a6074a6f2e91616a996b547c36f15
		<tag k="natural" v="hill" />
		<tag k="place" v="locality" />
		<tag k="ssr:stedsnr" v="617838" />
	</node>
<<<<<<< HEAD
	<node lat="62.35510277696942" lon="5.721677773529185" id="-490">
		<tag k="name" v="Sandeskaret" />
		<tag k="natural" v="valley" />
=======
	<node id="-62206" lat="62.3412111112" lon="5.70918332909">
		<tag k="fixme" v="consider natural=peak for the most distinct mountains in the district" />
		<tag k="name" v="Leinebjørnen" />
		<tag k="natural" v="hill" />
>>>>>>> e1d4bc35ff8a6074a6f2e91616a996b547c36f15
		<tag k="place" v="locality" />
		<tag k="ssr:stedsnr" v="704302" />
	</node>
<<<<<<< HEAD
	<node lat="62.29167499662482" lon="5.606827773409686" id="-491">
		<tag k="name" v="Storenakken" />
=======
	<node id="-61692" lat="62.3566935801" lon="5.72824456972">
		<tag k="name" v="Bautane" />
>>>>>>> e1d4bc35ff8a6074a6f2e91616a996b547c36f15
		<tag k="natural" v="hill" />
		<tag k="place" v="locality" />
		<tag k="ssr:stedsnr" v="705298" />
	</node>
<<<<<<< HEAD
	<node lat="62.29268055514807" lon="5.604424999327864" id="-492">
		<tag k="name" v="Litlenakken" />
		<tag k="natural" v="ridge" />
=======
	<node id="-61691" lat="62.2537638867" lon="5.69596389653">
		<tag k="name" v="Sollia" />
		<tag k="natural" v="slope" />
>>>>>>> e1d4bc35ff8a6074a6f2e91616a996b547c36f15
		<tag k="place" v="locality" />
		<tag k="ssr:stedsnr" v="705301" />
	</node>
<<<<<<< HEAD
	<node lat="62.28939999742264" lon="5.716541660940652" id="-495">
		<tag k="name" v="Sandvikskaret" />
=======
	<node id="-61690" lat="62.2667611106" lon="5.75583889444">
		<tag k="name" v="Aregylet" />
>>>>>>> e1d4bc35ff8a6074a6f2e91616a996b547c36f15
		<tag k="natural" v="valley" />
		<tag k="place" v="locality" />
		<tag k="ssr:stedsnr" v="705350" />
	</node>
	<node lat="62.2540555538829" lon="5.76142223168669" id="-496">
		<tag k="name" v="Skinstødet" />
		<tag k="place" v="locality" />
		<tag k="ssr:stedsnr" v="705749" />
	</node>
<<<<<<< HEAD
	<node lat="62.268494443427215" lon="5.668399992584994" id="-497">
		<tag k="name" v="Grasdalen" />
		<tag k="natural" v="valley" />
		<tag k="place" v="locality" />
		<tag k="ssr:stedsnr" v="705751" />
	</node>
	<node lat="62.340044440193324" lon="5.6313305621155845" id="-498">
=======
	<node id="-61688" lat="62.3400444402" lon="5.63133056212">
>>>>>>> e1d4bc35ff8a6074a6f2e91616a996b547c36f15
		<tag k="name" v="Djupedalen" />
		<tag k="natural" v="valley" />
		<tag k="place" v="locality" />
		<tag k="ssr:stedsnr" v="705760" />
	</node>
<<<<<<< HEAD
	<node lat="62.26676111056594" lon="5.755838894443746" id="-500">
		<tag k="name" v="Aregylet" />
		<tag k="natural" v="valley" />
		<tag k="place" v="locality" />
		<tag k="ssr:stedsnr" v="705785" />
	</node>
	<node lat="62.253763886657495" lon="5.695963896533898" id="-501">
		<tag k="name" v="Sollia" />
		<tag k="natural" v="slope" />
=======
	<node id="-61908" lat="62.358322032" lon="5.73345536434">
		<tag k="name" v="Bruna" />
		<tag k="natural" v="ridge" />
		<tag k="place" v="locality" />
		<tag k="ssr:stedsnr" v="37731" />
	</node>
	<node id="-61686" lat="62.2540555539" lon="5.76142223169">
		<tag k="name" v="Skinstødet" />
>>>>>>> e1d4bc35ff8a6074a6f2e91616a996b547c36f15
		<tag k="place" v="locality" />
		<tag k="ssr:stedsnr" v="705786" />
	</node>
<<<<<<< HEAD
	<node lat="62.3566935801019" lon="5.728244569716811" id="-502">
		<tag k="name" v="Bautane" />
=======
	<node id="-61684" lat="62.3419694451" lon="5.66191944186">
		<tag k="name" v="Reitenakken" />
>>>>>>> e1d4bc35ff8a6074a6f2e91616a996b547c36f15
		<tag k="natural" v="hill" />
		<tag k="place" v="locality" />
		<tag k="ssr:stedsnr" v="705790" />
	</node>
<<<<<<< HEAD
	<node lat="62.33735277325624" lon="5.631127769142228" id="-513">
		<tag k="name" v="Grønfjellet" />
		<tag k="natural" v="hill" />
		<tag k="place" v="locality" />
		<tag k="ssr:stedsnr" v="644732" />
	</node>
	<node lat="62.333186112956156" lon="5.621508331919192" id="-529">
		<tag k="alt_name" v="Igesundhetta" />
		<tag k="fixme" v="consider natural=peak for the most distinct mountains in the district" />
		<tag k="name" v="Igesundshetta" />
		<tag k="natural" v="hill" />
		<tag k="place" v="locality" />
		<tag k="ssr:stedsnr" v="678579" />
	</node>
	<node lat="62.34049444764274" lon="5.534077777487092" id="-530">
		<tag k="fixme" v="consider natural=peak for the most distinct mountains in the district" />
		<tag k="name" v="Rjåhornet" />
		<tag k="natural" v="hill" />
		<tag k="place" v="locality" />
		<tag k="ssr:stedsnr" v="678596" />
	</node>
	<node lat="62.26832222648034" lon="5.795430557593024" id="-536">
=======
	<node id="-61681" lat="62.2683222265" lon="5.79543055759">
>>>>>>> e1d4bc35ff8a6074a6f2e91616a996b547c36f15
		<tag k="name" v="Djupvikhaugen" />
		<tag k="natural" v="hill" />
		<tag k="place" v="locality" />
		<tag k="ssr:stedsnr" v="705365" />
	</node>
<<<<<<< HEAD
	<node lat="62.34196944511209" lon="5.661919441857867" id="-539">
		<tag k="name" v="Reitenakken" />
		<tag k="natural" v="hill" />
		<tag k="place" v="locality" />
		<tag k="ssr:stedsnr" v="705394" />
	</node>
	<node lat="62.33169722323216" lon="5.720688884131656" id="-540">
		<tag k="name" v="Ramnefjellet" />
		<tag k="natural" v="hill" />
=======
	<node id="-62192" lat="62.3637000016" lon="5.5048972178">
		<tag k="name" v="Storemålgylet" />
		<tag k="natural" v="valley" />
		<tag k="place" v="locality" />
		<tag k="ssr:stedsnr" v="584380" />
	</node>
	<node id="-61679" lat="62.2926805551" lon="5.60442499933">
		<tag k="name" v="Litlenakken" />
		<tag k="natural" v="ridge" />
		<tag k="place" v="locality" />
		<tag k="ssr:stedsnr" v="705301" />
	</node>
	<node id="-62190" lat="62.3388500017" lon="5.62534722622">
		<tag k="name" v="Huldalen" />
		<tag k="natural" v="valley" />
>>>>>>> e1d4bc35ff8a6074a6f2e91616a996b547c36f15
		<tag k="place" v="locality" />
		<tag k="ssr:stedsnr" v="705804" />
	</node>
<<<<<<< HEAD
	<node lat="62.34140555130392" lon="5.724249993040542" id="-541">
		<tag k="name" v="Kattulhammaren" />
		<tag k="natural" v="cliff" />
		<tag k="ssr:stedsnr" v="705806" />
	</node>
	<node lat="62.35342499868826" lon="5.531947230567005" id="-555">
		<tag k="name" v="Vallhammaren" />
		<tag k="natural" v="hill" />
		<tag k="place" v="locality" />
		<tag k="ssr:stedsnr" v="739628" />
	</node>
	<node lat="62.366422224291" lon="5.635619444520496" id="-557">
		<tag k="alt_name" v="Sævikhatten" />
		<tag k="name" v="Vardane" />
		<tag k="natural" v="hill" />
=======
	<node id="-61677" lat="62.355102777" lon="5.72167777353">
		<tag k="name" v="Sandeskaret" />
		<tag k="natural" v="valley" />
		<tag k="place" v="locality" />
		<tag k="ssr:stedsnr" v="704302" />
	</node>
	<node id="-62187" lat="62.3860333371" lon="5.6114749956">
		<tag k="name" v="Storevikbruna" />
		<tag k="natural" v="ridge" />
>>>>>>> e1d4bc35ff8a6074a6f2e91616a996b547c36f15
		<tag k="place" v="locality" />
		<tag k="ssr:stedsnr" v="739637" />
	</node>
<<<<<<< HEAD
	<node lat="62.29075555799564" lon="5.6070138861583745" id="-562">
		<tag k="name" v="Nakkane" />
		<tag k="natural" v="hill" />
=======
	<node id="-62186" lat="62.2907916652" lon="5.61775278488">
		<tag k="name" v="Moltubakken" />
		<tag k="natural" v="slope" />
>>>>>>> e1d4bc35ff8a6074a6f2e91616a996b547c36f15
		<tag k="place" v="locality" />
		<tag k="ssr:stedsnr" v="739544" />
	</node>
<<<<<<< HEAD
	<node lat="62.361900001288426" lon="5.733769435366874" id="-564">
		<tag k="name" v="Brattefjellet" />
		<tag k="natural" v="hill" />
=======
	<node id="-61479" lat="62.2566194454" lon="5.77729444836">
		<tag k="fixme" v="consider natural=peak for the most distinct mountains in the district" />
		<tag k="name" v="Hillehornet" />
		<tag k="natural" v="hill" />
		<tag k="place" v="locality" />
		<tag k="ssr:stedsnr" v="131155" />
	</node>
	<node id="-62184" lat="62.2379972241" lon="5.77385278705">
		<tag k="name" v="Feirelia" />
		<tag k="natural" v="slope" />
>>>>>>> e1d4bc35ff8a6074a6f2e91616a996b547c36f15
		<tag k="place" v="locality" />
		<tag k="ssr:stedsnr" v="765291" />
	</node>
<<<<<<< HEAD
	<node lat="62.239494440725814" lon="5.723591670657613" id="-570">
		<tag k="name" v="Storedroghaugen" />
=======
	<node id="-62183" lat="62.3275444419" lon="5.60970000688">
		<tag k="name" v="Storehaugen" />
>>>>>>> e1d4bc35ff8a6074a6f2e91616a996b547c36f15
		<tag k="natural" v="hill" />
		<tag k="place" v="locality" />
		<tag k="ssr:stedsnr" v="765712" />
	</node>
<<<<<<< HEAD
	<node lat="62.240347218011664" lon="5.7629805625542705" id="-571">
		<tag k="name" v="Tjørnadalen" />
=======
	<node id="-61669" lat="62.2834833292" lon="5.62197221483">
		<tag k="name" v="Moltudalen" />
>>>>>>> e1d4bc35ff8a6074a6f2e91616a996b547c36f15
		<tag k="natural" v="valley" />
		<tag k="place" v="locality" />
		<tag k="ssr:stedsnr" v="765716" />
	</node>
<<<<<<< HEAD
	<node lat="62.25035000371785" lon="5.750022228517187" id="-573">
=======
	<node id="-62179" lat="62.3529722237" lon="5.58617776936">
>>>>>>> e1d4bc35ff8a6074a6f2e91616a996b547c36f15
		<tag k="fixme" v="consider natural=peak for the most distinct mountains in the district" />
		<tag k="name" v="Bakketua" />
		<tag k="natural" v="hill" />
		<tag k="place" v="locality" />
		<tag k="ssr:stedsnr" v="765724" />
	</node>
<<<<<<< HEAD
	<node lat="62.23132777607617" lon="5.756677784022462" id="-577">
		<tag k="name" v="Dyrskaret" />
		<tag k="natural" v="valley" />
=======
	<node id="-61819" lat="62.3571194418" lon="5.52336944539">
		<tag k="name" v="Trosvikhammaren" />
		<tag k="natural" v="hill" />
		<tag k="place" v="locality" />
		<tag k="ssr:stedsnr" v="860668" />
	</node>
	<node id="-61664" lat="62.3579638891" lon="5.58788056013">
		<tag k="name" v="Tverrberget" />
		<tag k="natural" v="slope" />
>>>>>>> e1d4bc35ff8a6074a6f2e91616a996b547c36f15
		<tag k="place" v="locality" />
		<tag k="ssr:stedsnr" v="765696" />
	</node>
<<<<<<< HEAD
	<node lat="62.336841664432086" lon="5.65081666363044" id="-590">
		<tag k="fixme" v="consider natural=peak for the most distinct mountains in the district" />
		<tag k="name" v="Tverrfjellet" />
		<tag k="natural" v="hill" />
=======
	<node id="-62175" lat="62.4101981412" lon="5.60660737314">
		<tag k="loc_name" v="Tinden" />
		<tag k="name" v="Raudetinden" />
>>>>>>> e1d4bc35ff8a6074a6f2e91616a996b547c36f15
		<tag k="place" v="locality" />
		<tag k="ssr:stedsnr" v="800595" />
	</node>
<<<<<<< HEAD
	<node lat="62.229058333153205" lon="5.791694451424251" id="-592">
		<tag k="name" v="Heida" />
=======
	<node id="-62169" lat="62.2649722186" lon="5.71016389008">
		<tag k="fixme" v="consider natural=peak for the most distinct mountains in the district" />
		<tag k="name" v="Nonshornet" />
>>>>>>> e1d4bc35ff8a6074a6f2e91616a996b547c36f15
		<tag k="natural" v="hill" />
		<tag k="place" v="locality" />
		<tag k="ssr:stedsnr" v="921175" />
	</node>
<<<<<<< HEAD
	<node lat="62.25653611282598" lon="5.677705558088332" id="-602">
=======
	<node id="-62167" lat="62.2580777759" lon="5.74310276968">
>>>>>>> e1d4bc35ff8a6074a6f2e91616a996b547c36f15
		<tag k="fixme" v="consider natural=peak for the most distinct mountains in the district" />
		<tag k="name" v="Sollia" />
		<tag k="natural" v="hill" />
		<tag k="place" v="locality" />
		<tag k="ssr:stedsnr" v="921965" />
	</node>
<<<<<<< HEAD
	<node lat="62.26108889291334" lon="5.773233333747394" id="-604">
		<tag k="name" v="Tjukkeraua" />
		<tag k="natural" v="slope" />
		<tag k="place" v="locality" />
		<tag k="ssr:stedsnr" v="826717" />
	</node>
	<node lat="62.288352775633946" lon="5.592158338128916" id="-613">
		<tag k="name" v="Tarbergtua" />
		<tag k="natural" v="hill" />
		<tag k="place" v="locality" />
		<tag k="ssr:stedsnr" v="860577" />
	</node>
	<node lat="62.319924999186455" lon="5.644166666152824" id="-615">
		<tag k="name" v="Eggesbøsteinen" />
=======
	<node id="-61817" lat="62.3199249992" lon="5.64416666615">
		<tag k="name" v="Eggesbøsteinen" />
		<tag k="natural" v="hill" />
		<tag k="place" v="locality" />
		<tag k="ssr:stedsnr" v="860610" />
	</node>
	<node id="-61652" lat="62.3733083357" lon="5.55025555558">
		<tag k="name" v="Okla" />
		<tag k="natural" v="hill" />
		<tag k="place" v="locality" />
		<tag k="ssr:stedsnr" v="496657" />
	</node>
	<node id="-61902" lat="62.3488944469" lon="5.72314167463">
		<tag k="name" v="Bødalen" />
		<tag k="natural" v="valley" />
		<tag k="place" v="locality" />
		<tag k="ssr:stedsnr" v="37181" />
	</node>
	<node id="-61650" lat="62.2753000042" lon="5.6827916703">
		<tag k="fixme" v="consider natural=peak for the most distinct mountains in the district" />
		<tag k="name" v="Slettheia" />
>>>>>>> e1d4bc35ff8a6074a6f2e91616a996b547c36f15
		<tag k="natural" v="hill" />
		<tag k="place" v="locality" />
		<tag k="ssr:stedsnr" v="860610" />
	</node>
<<<<<<< HEAD
	<node lat="62.35711944175804" lon="5.5233694453948265" id="-616">
		<tag k="name" v="Trosvikhammaren" />
=======
	<node id="-61649" lat="62.27210556" lon="5.65641666399">
		<tag k="fixme" v="consider natural=peak for the most distinct mountains in the district" />
		<tag k="name" v="Selsteinen" />
>>>>>>> e1d4bc35ff8a6074a6f2e91616a996b547c36f15
		<tag k="natural" v="hill" />
		<tag k="place" v="locality" />
		<tag k="ssr:stedsnr" v="860668" />
	</node>
<<<<<<< HEAD
	<node lat="62.3649916658849" lon="5.5055027719260785" id="-617">
		<tag k="name" v="Muletua" />
=======
	<node id="-61641" lat="62.3711111139" lon="5.66276110379">
		<tag k="fixme" v="consider natural=peak for the most distinct mountains in the district" />
		<tag k="name" v="Remøykammen" />
>>>>>>> e1d4bc35ff8a6074a6f2e91616a996b547c36f15
		<tag k="natural" v="hill" />
		<tag k="place" v="locality" />
		<tag k="ssr:stedsnr" v="860675" />
	</node>
<<<<<<< HEAD
	<node lat="62.21978888803397" lon="5.7520083332396235" id="-618">
		<tag k="name" v="Grøthornet" />
=======
	<node id="-62150" lat="62.2270833297" lon="5.76024722186">
		<tag k="name" v="Almen" />
>>>>>>> e1d4bc35ff8a6074a6f2e91616a996b547c36f15
		<tag k="natural" v="hill" />
		<tag k="place" v="locality" />
		<tag k="ssr:stedsnr" v="861160" />
	</node>
<<<<<<< HEAD
	<node lat="62.26001111007998" lon="5.78949999163571" id="-619">
		<tag k="fixme" v="consider natural=peak for the most distinct mountains in the district" />
		<tag k="name" v="Nakken" />
=======
	<node id="-62149" lat="62.2822611077" lon="5.63018056053">
		<tag k="name" v="Kviletua" />
>>>>>>> e1d4bc35ff8a6074a6f2e91616a996b547c36f15
		<tag k="natural" v="hill" />
		<tag k="place" v="locality" />
		<tag k="ssr:stedsnr" v="861595" />
	</node>
<<<<<<< HEAD
	<node lat="62.37173888703249" lon="5.545133332836403" id="-620">
		<tag k="name" v="Måsefjellet" />
		<tag k="natural" v="hill" />
=======
	<node id="-62148" lat="62.2590527734" lon="5.6273388875">
		<tag k="name" v="Brandane" />
		<tag k="natural" v="slope" />
>>>>>>> e1d4bc35ff8a6074a6f2e91616a996b547c36f15
		<tag k="place" v="locality" />
		<tag k="ssr:stedsnr" v="886318" />
	</node>
<<<<<<< HEAD
	<node lat="62.35221667014716" lon="5.695844442912921" id="-621">
		<tag k="name" v="Storekinna" />
		<tag k="natural" v="hill" />
=======
	<node id="-62147" lat="62.2679250032" lon="5.62733889362">
		<tag k="name" v="Botnen" />
		<tag k="natural" v="valley" />
>>>>>>> e1d4bc35ff8a6074a6f2e91616a996b547c36f15
		<tag k="place" v="locality" />
		<tag k="ssr:stedsnr" v="886320" />
	</node>
<<<<<<< HEAD
	<node lat="62.2777083309299" lon="5.654955547915007" id="-623">
		<tag k="name" v="Selsteinstrupen" />
=======
	<node id="-62145" lat="62.3964361113" lon="5.62912222425">
		<tag k="name" v="Blåbærdalen" />
>>>>>>> e1d4bc35ff8a6074a6f2e91616a996b547c36f15
		<tag k="natural" v="valley" />
		<tag k="place" v="locality" />
		<tag k="ssr:stedsnr" v="887709" />
	</node>
<<<<<<< HEAD
	<node lat="62.22396944620532" lon="5.782591666844965" id="-626">
		<tag k="name" v="Furehaugen" />
		<tag k="natural" v="hill" />
		<tag k="place" v="locality" />
		<tag k="ssr:stedsnr" v="887721" />
	</node>
	<node lat="62.35292222131489" lon="5.7040111059165515" id="-641">
		<tag k="name" v="Sandedalen" />
		<tag k="natural" v="valley" />
=======
	<node id="-62144" lat="62.3485916653" lon="5.53864722335">
		<tag k="name" v="Storpesnausa" />
		<tag k="natural" v="hill" />
		<tag k="place" v="locality" />
		<tag k="ssr:stedsnr" v="523417" />
	</node>
	<node id="-61631" lat="62.3755777815" lon="5.62902499928">
		<tag k="name" v="Bukkehylla" />
>>>>>>> e1d4bc35ff8a6074a6f2e91616a996b547c36f15
		<tag k="place" v="locality" />
		<tag k="ssr:stedsnr" v="921637" />
	</node>
<<<<<<< HEAD
	<node lat="62.39678929544962" lon="5.634683375733435" id="-642">
		<tag k="alt_name" v="Vardane;Rundevarden" />
		<tag k="fixme" v="consider natural=peak for the most distinct mountains in the district" />
		<tag k="name" v="Varden" />
=======
	<node id="-62141" lat="62.3740833367" lon="5.63591943752">
		<tag k="name" v="Hesteberget" />
>>>>>>> e1d4bc35ff8a6074a6f2e91616a996b547c36f15
		<tag k="natural" v="hill" />
		<tag k="place" v="locality" />
		<tag k="ssr:stedsnr" v="921680" />
	</node>
<<<<<<< HEAD
	<node lat="62.39915277480529" lon="5.6571194510764435" id="-643">
		<tag k="name" v="Geita" />
=======
	<node id="-61556" lat="62.2306250019" lon="5.82034443721">
		<tag k="name" v="Rognhammaren" />
		<tag k="natural" v="cliff" />
		<tag k="ssr:stedsnr" v="462697" />
	</node>
	<node id="-61620" lat="62.3500371564" lon="5.55697046645">
		<tag k="fixme" v="multiple name tags, choose one and add the other to alt_name; consider natural=peak for the most distinct mountains in the district" />
		<tag k="name" v="Storevarden;Varden" />
>>>>>>> e1d4bc35ff8a6074a6f2e91616a996b547c36f15
		<tag k="natural" v="hill" />
		<tag k="place" v="locality" />
		<tag k="ssr:stedsnr" v="921681" />
	</node>
<<<<<<< HEAD
	<node lat="62.27513611424233" lon="5.635786113767415" id="-646">
		<tag k="name" v="Kleivane" />
		<tag k="natural" v="slope" />
		<tag k="place" v="locality" />
		<tag k="ssr:stedsnr" v="947706" />
	</node>
	<node lat="62.29619444368284" lon="5.7257138905909075" id="-648">
		<tag k="name" v="Trolldalen" />
=======
	<node id="-61470" lat="62.2416111094" lon="5.77600834207">
		<tag k="name" v="Faireberget" />
		<tag k="natural" v="hill" />
		<tag k="place" v="locality" />
		<tag k="ssr:stedsnr" v="98723" />
	</node>
	<node id="-62128" lat="62.2757805587" lon="5.67170555461">
		<tag k="name" v="Krikane" />
>>>>>>> e1d4bc35ff8a6074a6f2e91616a996b547c36f15
		<tag k="natural" v="valley" />
		<tag k="place" v="locality" />
		<tag k="ssr:stedsnr" v="948335" />
	</node>
<<<<<<< HEAD
	<node lat="62.33649722196757" lon="5.552044439079947" id="-649">
		<tag k="name" v="Skoghornet" />
=======
	<node id="-62127" lat="62.2642888912" lon="5.66836945031">
		<tag k="fixme" v="consider natural=peak for the most distinct mountains in the district" />
		<tag k="name" v="Hestefjellet" />
>>>>>>> e1d4bc35ff8a6074a6f2e91616a996b547c36f15
		<tag k="natural" v="hill" />
		<tag k="place" v="locality" />
		<tag k="ssr:stedsnr" v="948385" />
	</node>
<<<<<<< HEAD
	<node lat="62.23842777665911" lon="5.799122218028848" id="-651">
		<tag k="name" v="Kleppeåsen" />
		<tag k="natural" v="hill" />
		<tag k="place" v="locality" />
		<tag k="ssr:stedsnr" v="948785" />
	</node>
	<node lat="62.41024166719204" lon="5.612674994001755" id="-652">
		<tag k="name" v="Gjøttane" />
=======
	<node id="-62121" lat="62.2907250036" lon="5.69812778284">
		<tag k="name" v="Sandvikhornet" />
>>>>>>> e1d4bc35ff8a6074a6f2e91616a996b547c36f15
		<tag k="natural" v="hill" />
		<tag k="place" v="locality" />
		<tag k="ssr:stedsnr" v="948804" />
	</node>
<<<<<<< HEAD
	<node lat="62.35702958841293" lon="5.73172267225045" id="-670">
		<tag k="name" v="Kalen" />
		<tag k="natural" v="hill" />
		<tag k="place" v="locality" />
		<tag k="ssr:stedsnr" v="991249" />
	</node>
	<node lat="62.282527778676844" lon="5.64225833117955" id="-676">
=======
	<node id="-61468" lat="62.3355722245" lon="5.63157500055">
		<tag k="name" v="Litlehornet" />
		<tag k="natural" v="hill" />
		<tag k="place" v="locality" />
		<tag k="ssr:stedsnr" v="98715" />
	</node>
	<node id="-61602" lat="62.3623083365" lon="5.51059167165">
>>>>>>> e1d4bc35ff8a6074a6f2e91616a996b547c36f15
		<tag k="fixme" v="consider natural=peak for the most distinct mountains in the district" />
		<tag k="name" v="Storehanen" />
		<tag k="natural" v="hill" />
		<tag k="place" v="locality" />
		<tag k="ssr:stedsnr" v="11531" />
	</node>
<<<<<<< HEAD
	<node lat="62.34369166922345" lon="5.650130558374088" id="-681">
		<tag k="fixme" v="consider natural=peak for the most distinct mountains in the district" />
		<tag k="name" v="Hornseten" />
		<tag k="natural" v="hill" />
		<tag k="place" v="locality" />
		<tag k="ssr:stedsnr" v="11599" />
	</node>
	<node lat="62.358416664225906" lon="5.697066669974103" id="-683">
		<tag k="name" v="Vasseidet" />
=======
	<node id="-61598" lat="62.350222222" lon="5.69928054871">
		<tag k="name" v="Leitet" />
>>>>>>> e1d4bc35ff8a6074a6f2e91616a996b547c36f15
		<tag k="natural" v="valley" />
		<tag k="place" v="locality" />
		<tag k="ssr:stedsnr" v="11616" />
	</node>
<<<<<<< HEAD
	<node lat="62.37116111426941" lon="5.6246805596066585" id="-685">
		<tag k="name" v="Vasseidet" />
=======
	<node id="-61637" lat="62.3404944476" lon="5.53407777749">
		<tag k="fixme" v="consider natural=peak for the most distinct mountains in the district" />
		<tag k="name" v="Rjåhornet" />
		<tag k="natural" v="hill" />
		<tag k="place" v="locality" />
		<tag k="ssr:stedsnr" v="678596" />
	</node>
	<node id="-62105" lat="62.3453666685" lon="5.5227277793">
		<tag k="name" v="Hellefjellet" />
>>>>>>> e1d4bc35ff8a6074a6f2e91616a996b547c36f15
		<tag k="natural" v="hill" />
		<tag k="place" v="locality" />
		<tag k="ssr:stedsnr" v="11646" />
	</node>
<<<<<<< HEAD
	<node lat="62.3685055520772" lon="5.534886103410426" id="-688">
		<tag k="alt_name" v="Helleskaret" />
		<tag k="name" v="Helleskardet" />
		<tag k="natural" v="valley" />
=======
	<node id="-62104" lat="62.3990138875" lon="5.62920000622">
		<tag k="name" v="Austefjellet" />
		<tag k="natural" v="slope" />
>>>>>>> e1d4bc35ff8a6074a6f2e91616a996b547c36f15
		<tag k="place" v="locality" />
		<tag k="ssr:stedsnr" v="11651" />
	</node>
<<<<<<< HEAD
	<node lat="62.34107500391649" lon="5.709044438789392" id="-694">
		<tag k="fixme" v="consider natural=peak for the most distinct mountains in the district" />
		<tag k="name" v="Vardeheida" />
		<tag k="natural" v="hill" />
=======
	<node id="-61636" lat="62.333186113" lon="5.62150833192">
		<tag k="alt_name" v="Igesundhetta" />
		<tag k="fixme" v="consider natural=peak for the most distinct mountains in the district" />
		<tag k="name" v="Igesundshetta" />
		<tag k="natural" v="hill" />
		<tag k="place" v="locality" />
		<tag k="ssr:stedsnr" v="678579" />
	</node>
	<node id="-62102" lat="62.3644999995" lon="5.52277500641">
		<tag k="name" v="Nyklane" />
		<tag k="natural" v="ridge" />
>>>>>>> e1d4bc35ff8a6074a6f2e91616a996b547c36f15
		<tag k="place" v="locality" />
		<tag k="ssr:stedsnr" v="29284" />
	</node>
<<<<<<< HEAD
	<node lat="62.34889444686147" lon="5.723141674627738" id="-695">
		<tag k="name" v="Bødalen" />
=======
	<node id="-61588" lat="62.213376246" lon="5.74020768556">
		<tag k="name" v="Tempelskardet" />
>>>>>>> e1d4bc35ff8a6074a6f2e91616a996b547c36f15
		<tag k="natural" v="valley" />
		<tag k="place" v="locality" />
		<tag k="ssr:stedsnr" v="37181" />
	</node>
<<<<<<< HEAD
	<node lat="62.40796666898695" lon="5.599177770498485" id="-696">
		<tag k="name" v="Rongabakkane" />
		<tag k="natural" v="slope" />
=======
	<node id="-61587" lat="62.2720972245" lon="5.75059166028">
		<tag k="name" v="Mørkedalen" />
		<tag k="natural" v="valley" />
>>>>>>> e1d4bc35ff8a6074a6f2e91616a996b547c36f15
		<tag k="place" v="locality" />
		<tag k="ssr:stedsnr" v="37383" />
	</node>
<<<<<<< HEAD
	<node lat="62.40016666260362" lon="5.643891662441951" id="-698">
		<tag k="name" v="Blåfjellet" />
=======
	<node id="-62097" lat="62.2952972231" lon="5.72854167327">
		<tag k="alt_name" v="Raftesetfjelet" />
		<tag k="name" v="Raftesethaugen" />
>>>>>>> e1d4bc35ff8a6074a6f2e91616a996b547c36f15
		<tag k="natural" v="hill" />
		<tag k="place" v="locality" />
		<tag k="ssr:stedsnr" v="38381" />
	</node>
<<<<<<< HEAD
	<node lat="62.2521555520288" lon="5.73023888561286" id="-700">
		<tag k="name" v="Saudehornet" />
=======
	<node id="-62095" lat="62.2874472196" lon="5.64269444755">
		<tag k="fixme" v="consider natural=peak for the most distinct mountains in the district" />
		<tag k="name" v="Moltuhanen" />
>>>>>>> e1d4bc35ff8a6074a6f2e91616a996b547c36f15
		<tag k="natural" v="hill" />
		<tag k="place" v="locality" />
		<tag k="ssr:stedsnr" v="37319" />
	</node>
<<<<<<< HEAD
	<node lat="62.276586107508415" lon="5.697183337787928" id="-701">
		<tag k="name" v="Djuperustene" />
		<tag k="natural" v="slope" />
=======
	<node id="-61463" lat="62.3607166561" lon="5.73564523348">
		<tag k="name" v="Husebruna" />
		<tag k="natural" v="ridge" />
		<tag k="place" v="locality" />
		<tag k="ssr:stedsnr" v="97315" />
	</node>
	<node id="-61574" lat="62.2938194476" lon="5.72327778388">
		<tag k="fixme" v="consider natural=peak for the most distinct mountains in the district" />
		<tag k="name" v="Skåla" />
		<tag k="natural" v="hill" />
>>>>>>> e1d4bc35ff8a6074a6f2e91616a996b547c36f15
		<tag k="place" v="locality" />
		<tag k="ssr:stedsnr" v="37336" />
	</node>
<<<<<<< HEAD
	<node lat="62.37168888624603" lon="5.541322213710553" id="-702">
		<tag k="name" v="Trangeskaret" />
		<tag k="natural" v="valley" />
		<tag k="place" v="locality" />
		<tag k="ssr:stedsnr" v="37700" />
	</node>
	<node lat="62.35832203195849" lon="5.733455364344966" id="-704">
		<tag k="name" v="Bruna" />
		<tag k="natural" v="ridge" />
		<tag k="place" v="locality" />
		<tag k="ssr:stedsnr" v="37731" />
	</node>
	<node lat="62.330555552370235" lon="5.609805548862205" id="-717">
		<tag k="name" v="Storehornet" />
=======
	<node id="-61572" lat="62.4090232501" lon="5.59566650937">
		<tag k="alt_name" v="Storhaugen" />
		<tag k="name" v="Storehaugen" />
>>>>>>> e1d4bc35ff8a6074a6f2e91616a996b547c36f15
		<tag k="natural" v="hill" />
		<tag k="place" v="locality" />
		<tag k="ssr:stedsnr" v="72556" />
	</node>
<<<<<<< HEAD
	<node lat="62.335572224459085" lon="5.631575000550779" id="-728">
		<tag k="name" v="Litlehornet" />
		<tag k="natural" v="hill" />
=======
	<node id="-62076" lat="62.2474722231" lon="5.69473333325">
		<tag k="name" v="Sædalen" />
		<tag k="natural" v="valley" />
>>>>>>> e1d4bc35ff8a6074a6f2e91616a996b547c36f15
		<tag k="place" v="locality" />
		<tag k="ssr:stedsnr" v="98715" />
	</node>
<<<<<<< HEAD
	<node lat="62.24161110944252" lon="5.776008342066209" id="-730">
		<tag k="name" v="Faireberget" />
=======
	<node id="-62075" lat="62.2721166702" lon="5.73842221523">
		<tag k="fixme" v="consider natural=peak for the most distinct mountains in the district" />
		<tag k="name" v="Nakken" />
>>>>>>> e1d4bc35ff8a6074a6f2e91616a996b547c36f15
		<tag k="natural" v="hill" />
		<tag k="place" v="locality" />
		<tag k="ssr:stedsnr" v="98723" />
	</node>
	<node lat="62.35637499938929" lon="5.702783334055823" id="-734">
		<tag k="name" v="Hamrane" />
		<tag k="natural" v="cliff" />
		<tag k="ssr:stedsnr" v="98740" />
	</node>
<<<<<<< HEAD
	<node lat="62.25661944544874" lon="5.777294448364767" id="-743">
		<tag k="fixme" v="consider natural=peak for the most distinct mountains in the district" />
		<tag k="name" v="Hillehornet" />
		<tag k="natural" v="hill" />
		<tag k="place" v="locality" />
		<tag k="ssr:stedsnr" v="131155" />
	</node>
	<node lat="62.349300698661146" lon="5.55679781830317" id="-755">
		<tag k="fixme" v="consider natural=peak for the most distinct mountains in the district" />
		<tag k="name" v="Nerlandshornet" />
=======
	<node id="-62072" lat="62.2809875813" lon="5.73998615011">
		<tag k="alt_name" v="Arehaug" />
		<tag k="name" v="Arehaugen" />
>>>>>>> e1d4bc35ff8a6074a6f2e91616a996b547c36f15
		<tag k="natural" v="hill" />
		<tag k="place" v="locality" />
		<tag k="ssr:stedsnr" v="132636" />
	</node>
<<<<<<< HEAD
	<node lat="62.29509721891058" lon="5.647783336694845" id="-763">
		<tag k="name" v="Lisjehanen" />
		<tag k="natural" v="hill" />
		<tag k="place" v="locality" />
		<tag k="ssr:stedsnr" v="132530" />
	</node>
	<node lat="62.34934722483028" lon="5.714294435512207" id="-765">
		<tag k="name" v="Saudeskorene" />
=======
	<node id="-61559" lat="62.2375749964" lon="5.75820833165">
		<tag k="name" v="Storehaugen" />
		<tag k="natural" v="hill" />
		<tag k="place" v="locality" />
		<tag k="ssr:stedsnr" v="462712" />
	</node>
	<node id="-61558" lat="62.2617083352" lon="5.75248333634">
		<tag k="name" v="Blåhammaren" />
		<tag k="natural" v="cliff" />
		<tag k="ssr:stedsnr" v="462708" />
	</node>
	<node id="-61687" lat="62.2684944434" lon="5.66839999258">
		<tag k="name" v="Grasdalen" />
		<tag k="natural" v="valley" />
		<tag k="place" v="locality" />
		<tag k="ssr:stedsnr" v="705751" />
	</node>
	<node id="-62067" lat="62.2571750041" lon="5.77423054952">
		<tag k="name" v="Trongedalen" />
>>>>>>> e1d4bc35ff8a6074a6f2e91616a996b547c36f15
		<tag k="natural" v="valley" />
		<tag k="place" v="locality" />
		<tag k="ssr:stedsnr" v="158182" />
	</node>
<<<<<<< HEAD
	<node lat="62.33042500306078" lon="5.733341670326736" id="-766">
		<tag k="name" v="Storevikfjellet" />
		<tag k="natural" v="hill" />
		<tag k="place" v="locality" />
		<tag k="ssr:stedsnr" v="158184" />
	</node>
	<node lat="62.33257778074572" lon="5.696038894908758" id="-767">
		<tag k="name" v="Frøystadskaret" />
		<tag k="natural" v="valley" />
=======
	<node id="-62066" lat="62.4003388904" lon="5.64805832655">
		<tag k="name" v="Kløfjellet" />
		<tag k="natural" v="hill" />
		<tag k="place" v="locality" />
		<tag k="ssr:stedsnr" v="341387" />
	</node>
	<node id="-62065" lat="62.2787444411" lon="5.69111110642">
		<tag k="name" v="Tjørvågfjellet" />
		<tag k="natural" v="slope" />
		<tag k="place" v="locality" />
		<tag k="ssr:stedsnr" v="341360" />
	</node>
	<node id="-62064" lat="62.3762333349" lon="5.629438885">
		<tag k="name" v="Gjøttane" />
		<tag k="natural" v="hill" />
>>>>>>> e1d4bc35ff8a6074a6f2e91616a996b547c36f15
		<tag k="place" v="locality" />
		<tag k="ssr:stedsnr" v="158185" />
	</node>
<<<<<<< HEAD
	<node lat="62.36086944682088" lon="5.5335749918762" id="-769">
		<tag k="name" v="Kvalsvikeidet" />
=======
	<node id="-61696" lat="62.3414055513" lon="5.72424999304">
		<tag k="name" v="Kattulhammaren" />
		<tag k="natural" v="cliff" />
		<tag k="ssr:stedsnr" v="705806" />
	</node>
	<node id="-61550" lat="62.3746138924" lon="5.62505832423">
		<tag k="name" v="Storegylet" />
		<tag k="natural" v="valley" />
>>>>>>> e1d4bc35ff8a6074a6f2e91616a996b547c36f15
		<tag k="place" v="locality" />
		<tag k="ssr:stedsnr" v="158332" />
	</node>
<<<<<<< HEAD
	<node lat="62.400516668285036" lon="5.6208305523747715" id="-775">
		<tag k="name" v="Sætrehornet" />
		<tag k="natural" v="hill" />
=======
	<node id="-62061" lat="62.3725000005" lon="5.54786388251">
		<tag k="name" v="Seideskaret" />
		<tag k="natural" v="valley" />
>>>>>>> e1d4bc35ff8a6074a6f2e91616a996b547c36f15
		<tag k="place" v="locality" />
		<tag k="ssr:stedsnr" v="158388" />
	</node>
<<<<<<< HEAD
	<node lat="62.35459167062876" lon="5.525794448697767" id="-779">
		<tag k="name" v="Vollane" />
		<tag k="natural" v="slope" />
		<tag k="place" v="locality" />
		<tag k="ssr:stedsnr" v="158730" />
	</node>
	<node lat="62.359850002723654" lon="5.698525008743655" id="-781">
		<tag k="name" v="Lægda" />
=======
	<node id="-61545" lat="62.3650027796" lon="5.5401749948">
		<tag k="name" v="Litleleitet" />
		<tag k="natural" v="slope" />
		<tag k="place" v="locality" />
		<tag k="ssr:stedsnr" v="462291" />
	</node>
	<node id="-61544" lat="62.2910750039" lon="5.58280832694">
		<tag k="name" v="Mosefjellet" />
		<tag k="natural" v="slope" />
		<tag k="place" v="locality" />
		<tag k="ssr:stedsnr" v="462224" />
	</node>
	<node id="-61543" lat="62.2905722216" lon="5.58932500831">
		<tag k="name" v="Hundegylet" />
		<tag k="natural" v="gorge" />
		<tag k="ssr:stedsnr" v="462221" />
	</node>
	<node id="-62053" lat="62.2912388928" lon="5.66180277033">
		<tag k="name" v="Dyrhalsen" />
		<tag k="natural" v="valley" />
		<tag k="place" v="locality" />
		<tag k="ssr:stedsnr" v="340274" />
	</node>
	<node id="-61540" lat="62.3544277763" lon="5.57228888403">
		<tag k="name" v="Blåsvædet" />
		<tag k="natural" v="slope" />
>>>>>>> e1d4bc35ff8a6074a6f2e91616a996b547c36f15
		<tag k="place" v="locality" />
		<tag k="ssr:stedsnr" v="158737" />
	</node>
<<<<<<< HEAD
	<node lat="62.2634333334428" lon="5.744549998928012" id="-782">
=======
	<node id="-62051" lat="62.3464916661" lon="5.72275277588">
>>>>>>> e1d4bc35ff8a6074a6f2e91616a996b547c36f15
		<tag k="fixme" v="consider natural=peak for the most distinct mountains in the district" />
		<tag k="name" v="Storevarden" />
		<tag k="natural" v="hill" />
		<tag k="place" v="locality" />
<<<<<<< HEAD
		<tag k="ssr:stedsnr" v="159345" />
	</node>
	<node lat="62.28110833536197" lon="5.783297230886157" id="-793">
		<tag k="alt_name" v="Dyrskyrkja" />
=======
		<tag k="ssr:stedsnr" v="314851" />
	</node>
	<node id="-61541" lat="62.3370638857" lon="5.56107778311">
		<tag k="name" v="Skogshornhammaren" />
		<tag k="place" v="locality" />
		<tag k="ssr:stedsnr" v="280321" />
	</node>
	<node id="-61532" lat="62.2852500032" lon="5.81529999625">
>>>>>>> e1d4bc35ff8a6074a6f2e91616a996b547c36f15
		<tag k="fixme" v="consider natural=peak for the most distinct mountains in the district" />
		<tag k="name" v="Dyrkyrkja" />
		<tag k="natural" v="hill" />
		<tag k="place" v="locality" />
<<<<<<< HEAD
		<tag k="ssr:stedsnr" v="192144" />
	</node>
	<node lat="62.40060278200457" lon="5.621188890561762" id="-802">
		<tag k="name" v="Storehornet" />
=======
		<tag k="ssr:stedsnr" v="254109" />
	</node>
	<node id="-61531" lat="62.2353166692" lon="5.77246667357">
		<tag k="name" v="Kattadalen" />
		<tag k="natural" v="valley" />
		<tag k="place" v="locality" />
		<tag k="ssr:stedsnr" v="219722" />
	</node>
	<node id="-62042" lat="62.3632333335" lon="5.73635832874">
		<tag k="name" v="Heglakinna" />
>>>>>>> e1d4bc35ff8a6074a6f2e91616a996b547c36f15
		<tag k="natural" v="hill" />
		<tag k="place" v="locality" />
		<tag k="ssr:stedsnr" v="193652" />
	</node>
<<<<<<< HEAD
	<node lat="62.3383416663515" lon="5.686711109911644" id="-805">
		<tag k="name" v="Skardet" />
		<tag k="natural" v="valley" />
		<tag k="place" v="locality" />
		<tag k="ssr:stedsnr" v="193601" />
	</node>
	<node lat="62.25945277528148" lon="5.634688883761455" id="-815">
=======
	<node id="-62041" lat="62.3522000037" lon="5.57716111976">
		<tag k="name" v="Kalddalen" />
		<tag k="natural" v="valley" />
		<tag k="place" v="locality" />
		<tag k="ssr:stedsnr" v="314641" />
	</node>
	<node id="-62038" lat="62.3428638872" lon="5.56838611102">
		<tag k="name" v="Hestinghornet" />
		<tag k="natural" v="hill" />
		<tag k="place" v="locality" />
		<tag k="ssr:stedsnr" v="314623" />
	</node>
	<node id="-62032" lat="62.2532083324" lon="5.76503887968">
		<tag k="fixme" v="consider natural=peak for the most distinct mountains in the district" />
		<tag k="name" v="Bakkehornet" />
		<tag k="natural" v="hill" />
		<tag k="place" v="locality" />
		<tag k="ssr:stedsnr" v="314226" />
	</node>
	<node id="-62030" lat="62.2594527753" lon="5.63468888376">
>>>>>>> e1d4bc35ff8a6074a6f2e91616a996b547c36f15
		<tag k="fixme" v="consider natural=peak for the most distinct mountains in the district" />
		<tag k="name" v="Brandtua" />
		<tag k="natural" v="hill" />
		<tag k="place" v="locality" />
		<tag k="ssr:stedsnr" v="193966" />
	</node>
<<<<<<< HEAD
	<node lat="62.346974998886154" lon="5.730616675339073" id="-818">
		<tag k="fixme" v="consider natural=peak for the most distinct mountains in the district" />
=======
	<node id="-62026" lat="62.400602782" lon="5.62118889056">
>>>>>>> e1d4bc35ff8a6074a6f2e91616a996b547c36f15
		<tag k="name" v="Storehornet" />
		<tag k="natural" v="hill" />
		<tag k="place" v="locality" />
		<tag k="ssr:stedsnr" v="219155" />
	</node>
<<<<<<< HEAD
	<node lat="62.294763890438794" lon="5.662813895536237" id="-819">
		<tag k="name" v="Dyrhaugane" />
		<tag k="natural" v="hill" />
=======
	<node id="-62164" lat="62.3923805597" lon="5.61516666995">
		<tag k="name" v="Lia" />
		<tag k="natural" v="cliff" />
		<tag k="ssr:stedsnr" v="537908" />
	</node>
	<node id="-61512" lat="62.3603499998" lon="5.69389444519">
		<tag k="name" v="Litleskaret" />
		<tag k="natural" v="valley" />
>>>>>>> e1d4bc35ff8a6074a6f2e91616a996b547c36f15
		<tag k="place" v="locality" />
		<tag k="ssr:stedsnr" v="219253" />
	</node>
<<<<<<< HEAD
	<node lat="62.36198611347893" lon="5.544788881306324" id="-824">
		<tag k="name" v="Grøthaugen" />
		<tag k="natural" v="hill" />
		<tag k="place" v="locality" />
		<tag k="ssr:stedsnr" v="219323" />
	</node>
	<node lat="62.27715555894711" lon="5.632736118016762" id="-829">
		<tag k="name" v="Brudabordet" />
=======
	<node id="-62022" lat="62.3383416664" lon="5.68671110991">
		<tag k="name" v="Skardet" />
		<tag k="natural" v="valley" />
>>>>>>> e1d4bc35ff8a6074a6f2e91616a996b547c36f15
		<tag k="place" v="locality" />
		<tag k="ssr:stedsnr" v="280300" />
	</node>
<<<<<<< HEAD
	<node lat="62.36390833487244" lon="5.533491664971348" id="-830">
		<tag k="name" v="Storeleitet" />
		<tag k="natural" v="slope" />
		<tag k="place" v="locality" />
		<tag k="ssr:stedsnr" v="280712" />
	</node>
	<node lat="62.287116664965694" lon="5.821088891494266" id="-834">
=======
	<node id="-61503" lat="62.287116665" lon="5.82108889149">
>>>>>>> e1d4bc35ff8a6074a6f2e91616a996b547c36f15
		<tag k="name" v="Rambjørhammaren" />
		<tag k="natural" v="cliff" />
		<tag k="ssr:stedsnr" v="280726" />
	</node>
<<<<<<< HEAD
	<node lat="62.360349999848246" lon="5.693894445193639" id="-843">
		<tag k="name" v="Litleskaret" />
		<tag k="natural" v="valley" />
=======
	<node id="-61502" lat="62.3639083349" lon="5.53349166497">
		<tag k="name" v="Storeleitet" />
		<tag k="natural" v="slope" />
>>>>>>> e1d4bc35ff8a6074a6f2e91616a996b547c36f15
		<tag k="place" v="locality" />
		<tag k="ssr:stedsnr" v="280757" />
	</node>
<<<<<<< HEAD
	<node lat="62.35220000374448" lon="5.577161119756441" id="-859">
		<tag k="name" v="Kalddalen" />
		<tag k="natural" v="valley" />
		<tag k="place" v="locality" />
		<tag k="ssr:stedsnr" v="314641" />
	</node>
	<node lat="62.293819447637006" lon="5.723277783877802" id="-861">
=======
	<node id="-62013" lat="62.2811083354" lon="5.78329723089">
		<tag k="alt_name" v="Dyrskyrkja" />
>>>>>>> e1d4bc35ff8a6074a6f2e91616a996b547c36f15
		<tag k="fixme" v="consider natural=peak for the most distinct mountains in the district" />
		<tag k="name" v="Skåla" />
		<tag k="natural" v="hill" />
		<tag k="place" v="locality" />
		<tag k="ssr:stedsnr" v="314772" />
	</node>
<<<<<<< HEAD
	<node lat="62.40902325012233" lon="5.595666509365549" id="-866">
		<tag k="alt_name" v="Storhaugen" />
		<tag k="name" v="Storehaugen" />
=======
	<node id="-61500" lat="62.2814093083" lon="5.73814924613">
		<tag k="name" v="Strynehaugen" />
>>>>>>> e1d4bc35ff8a6074a6f2e91616a996b547c36f15
		<tag k="natural" v="hill" />
		<tag k="place" v="locality" />
		<tag k="ssr:stedsnr" v="314676" />
	</node>
<<<<<<< HEAD
	<node lat="62.36323333345849" lon="5.736358328741659" id="-868">
		<tag k="name" v="Heglakinna" />
		<tag k="natural" v="hill" />
		<tag k="place" v="locality" />
		<tag k="ssr:stedsnr" v="314847" />
	</node>
	<node lat="62.34649166613028" lon="5.722752775882814" id="-869">
		<tag k="fixme" v="consider natural=peak for the most distinct mountains in the district" />
		<tag k="name" v="Sollida" />
		<tag k="natural" v="hill" />
=======
	<node id="-61651" lat="62.3881805559" lon="5.61217499923">
		<tag k="name" v="Søre Handfanganet" />
		<tag k="natural" v="hill" />
		<tag k="place" v="locality" />
		<tag k="ssr:stedsnr" v="496652" />
	</node>
	<node id="-61496" lat="62.2771555589" lon="5.63273611802">
		<tag k="name" v="Brudabordet" />
>>>>>>> e1d4bc35ff8a6074a6f2e91616a996b547c36f15
		<tag k="place" v="locality" />
		<tag k="ssr:stedsnr" v="314851" />
	</node>
<<<<<<< HEAD
	<node lat="62.291238892776526" lon="5.661802770331188" id="-873">
		<tag k="name" v="Dyrhalsen" />
		<tag k="natural" v="valley" />
		<tag k="place" v="locality" />
		<tag k="ssr:stedsnr" v="340274" />
	</node>
	<node lat="62.376233334928706" lon="5.629438885001778" id="-878">
		<tag k="name" v="Gjøttane" />
=======
	<node id="-61494" lat="62.2772083365" lon="5.77695833909">
		<tag k="name" v="Lidafjellet" />
>>>>>>> e1d4bc35ff8a6074a6f2e91616a996b547c36f15
		<tag k="natural" v="hill" />
		<tag k="place" v="locality" />
		<tag k="ssr:stedsnr" v="340737" />
	</node>
<<<<<<< HEAD
	<node lat="62.25717500405587" lon="5.7742305495234945" id="-880">
		<tag k="name" v="Trongedalen" />
		<tag k="natural" v="valley" />
=======
	<node id="-61493" lat="62.3553055575" lon="5.69163332653">
		<tag k="name" v="Fairebakkane" />
		<tag k="natural" v="slope" />
>>>>>>> e1d4bc35ff8a6074a6f2e91616a996b547c36f15
		<tag k="place" v="locality" />
		<tag k="ssr:stedsnr" v="341778" />
	</node>
<<<<<<< HEAD
	<node lat="62.27874444112697" lon="5.691111106420297" id="-881">
		<tag k="name" v="Tjørvågfjellet" />
=======
	<node id="-61492" lat="62.2904194455" lon="5.59645555144">
		<tag k="name" v="Slettfjellet" />
>>>>>>> e1d4bc35ff8a6074a6f2e91616a996b547c36f15
		<tag k="natural" v="slope" />
		<tag k="place" v="locality" />
		<tag k="ssr:stedsnr" v="341360" />
	</node>
<<<<<<< HEAD
	<node lat="62.40033889039569" lon="5.6480583265544055" id="-882">
		<tag k="name" v="Kløfjellet" />
=======
	<node id="-61491" lat="62.3484666626" lon="5.57432499553">
		<tag k="name" v="Kalddalshaugen" />
>>>>>>> e1d4bc35ff8a6074a6f2e91616a996b547c36f15
		<tag k="natural" v="hill" />
		<tag k="place" v="locality" />
		<tag k="ssr:stedsnr" v="341387" />
	</node>
<<<<<<< HEAD
	<node lat="62.28098758132092" lon="5.739986150106206" id="-885">
		<tag k="alt_name" v="Arehaug" />
		<tag k="name" v="Arehaugen" />
=======
	<node id="-62001" lat="62.2634333334" lon="5.74454999893">
		<tag k="fixme" v="consider natural=peak for the most distinct mountains in the district" />
		<tag k="name" v="Storevarden" />
>>>>>>> e1d4bc35ff8a6074a6f2e91616a996b547c36f15
		<tag k="natural" v="hill" />
		<tag k="place" v="locality" />
		<tag k="ssr:stedsnr" v="355358" />
	</node>
<<<<<<< HEAD
	<node lat="62.24747222312992" lon="5.694733333249317" id="-895">
		<tag k="name" v="Sædalen" />
		<tag k="natural" v="valley" />
=======
	<node id="-62000" lat="62.3598500027" lon="5.69852500874">
		<tag k="name" v="Lægda" />
>>>>>>> e1d4bc35ff8a6074a6f2e91616a996b547c36f15
		<tag k="place" v="locality" />
		<tag k="ssr:stedsnr" v="374574" />
	</node>
<<<<<<< HEAD
	<node lat="62.350037156437004" lon="5.55697046644788" id="-908">
		<tag k="fixme" v="multiple name tags, choose one and add the other to alt_name; consider natural=peak for the most distinct mountains in the district" />
		<tag k="name" v="Storevarden;Varden" />
=======
	<node id="-61487" lat="62.3331333313" lon="5.5329555506">
		<tag k="alt_name" v="Skaget" />
		<tag k="fixme" v="consider natural=peak for the most distinct mountains in the district" />
		<tag k="name" v="Skagetåa" />
>>>>>>> e1d4bc35ff8a6074a6f2e91616a996b547c36f15
		<tag k="natural" v="hill" />
		<tag k="place" v="locality" />
		<tag k="ssr:stedsnr" v="375654" />
	</node>
<<<<<<< HEAD
	<node lat="62.27209722446607" lon="5.750591660280648" id="-911">
		<tag k="name" v="Mørkedalen" />
		<tag k="natural" v="valley" />
=======
	<node id="-61998" lat="62.3545916706" lon="5.5257944487">
		<tag k="name" v="Vollane" />
		<tag k="natural" v="slope" />
		<tag k="place" v="locality" />
		<tag k="ssr:stedsnr" v="158730" />
	</node>
	<node id="-61484" lat="62.2950972189" lon="5.64778333669">
		<tag k="name" v="Lisjehanen" />
		<tag k="natural" v="hill" />
>>>>>>> e1d4bc35ff8a6074a6f2e91616a996b547c36f15
		<tag k="place" v="locality" />
		<tag k="ssr:stedsnr" v="495194" />
	</node>
<<<<<<< HEAD
	<node lat="62.28744721955571" lon="5.642694447548022" id="-913">
		<tag k="fixme" v="consider natural=peak for the most distinct mountains in the district" />
		<tag k="name" v="Moltuhanen" />
		<tag k="natural" v="hill" />
		<tag k="place" v="locality" />
		<tag k="ssr:stedsnr" v="401246" />
	</node>
	<node lat="62.26428889118541" lon="5.668369450308315" id="-938">
		<tag k="fixme" v="consider natural=peak for the most distinct mountains in the district" />
		<tag k="name" v="Hestefjellet" />
		<tag k="natural" v="hill" />
=======
	<node id="-61991" lat="62.4005166683" lon="5.62083055237">
		<tag k="name" v="Sætrehornet" />
		<tag k="natural" v="hill" />
		<tag k="place" v="locality" />
		<tag k="ssr:stedsnr" v="158388" />
	</node>
	<node id="-61990" lat="62.369613891" lon="5.62476943526">
		<tag k="name" v="Vasseidbakkane" />
		<tag k="natural" v="slope" />
		<tag k="place" v="locality" />
		<tag k="ssr:stedsnr" v="158360" />
	</node>
	<node id="-61987" lat="62.3608694468" lon="5.53357499188">
		<tag k="name" v="Kvalsvikeidet" />
>>>>>>> e1d4bc35ff8a6074a6f2e91616a996b547c36f15
		<tag k="place" v="locality" />
		<tag k="ssr:stedsnr" v="436484" />
	</node>
<<<<<<< HEAD
	<node lat="62.27578055872645" lon="5.671705554613429" id="-939">
		<tag k="name" v="Krikane" />
=======
	<node id="-61473" lat="62.3990333363" lon="5.65549722536">
		<tag k="name" v="Nørdre Handfangenet" />
>>>>>>> e1d4bc35ff8a6074a6f2e91616a996b547c36f15
		<tag k="natural" v="valley" />
		<tag k="place" v="locality" />
		<tag k="ssr:stedsnr" v="436502" />
	</node>
<<<<<<< HEAD
	<node lat="62.213376246009545" lon="5.740207685564242" id="-943">
		<tag k="name" v="Tempelskardet" />
=======
	<node id="-62191" lat="62.3386111139" lon="5.6542861061">
		<tag k="name" v="Skinhammaren" />
		<tag k="natural" v="hill" />
		<tag k="place" v="locality" />
		<tag k="ssr:stedsnr" v="584375" />
	</node>
	<node id="-61982" lat="62.3325777807" lon="5.69603889491">
		<tag k="name" v="Frøystadskaret" />
>>>>>>> e1d4bc35ff8a6074a6f2e91616a996b547c36f15
		<tag k="natural" v="valley" />
		<tag k="place" v="locality" />
		<tag k="ssr:stedsnr" v="496072" />
	</node>
<<<<<<< HEAD
	<node lat="62.27210555999642" lon="5.6564166639901305" id="-947">
		<tag k="fixme" v="consider natural=peak for the most distinct mountains in the district" />
		<tag k="name" v="Selsteinen" />
=======
	<node id="-61981" lat="62.3304250031" lon="5.73334167033">
		<tag k="name" v="Storevikfjellet" />
>>>>>>> e1d4bc35ff8a6074a6f2e91616a996b547c36f15
		<tag k="natural" v="hill" />
		<tag k="place" v="locality" />
		<tag k="ssr:stedsnr" v="496538" />
	</node>
<<<<<<< HEAD
	<node lat="62.27530000415883" lon="5.682791670300149" id="-948">
		<tag k="fixme" v="consider natural=peak for the most distinct mountains in the district" />
		<tag k="name" v="Slettheia" />
		<tag k="natural" v="hill" />
=======
	<node id="-61980" lat="62.3493472248" lon="5.71429443551">
		<tag k="name" v="Saudeskorene" />
		<tag k="natural" v="valley" />
>>>>>>> e1d4bc35ff8a6074a6f2e91616a996b547c36f15
		<tag k="place" v="locality" />
		<tag k="ssr:stedsnr" v="496540" />
	</node>
<<<<<<< HEAD
	<node lat="62.36230833654002" lon="5.510591671650867" id="-951">
		<tag k="fixme" v="consider natural=peak for the most distinct mountains in the district" />
		<tag k="name" v="Mulefjellet" />
		<tag k="natural" v="hill" />
		<tag k="place" v="locality" />
		<tag k="ssr:stedsnr" v="496637" />
	</node>
	<node lat="62.37330833572873" lon="5.550255555583885" id="-953">
		<tag k="name" v="Okla" />
=======
	<node id="-61466" lat="62.2347722218" lon="5.77718610628">
		<tag k="name" v="Brendeåsen" />
>>>>>>> e1d4bc35ff8a6074a6f2e91616a996b547c36f15
		<tag k="natural" v="hill" />
		<tag k="place" v="locality" />
		<tag k="ssr:stedsnr" v="496657" />
	</node>
<<<<<<< HEAD
	<node lat="62.35796388907531" lon="5.587880560128849" id="-963">
		<tag k="name" v="Tverrberget" />
		<tag k="natural" v="slope" />
=======
	<node id="-61464" lat="62.2761361121" lon="5.63533333593">
		<tag k="name" v="Kleivatrollet" />
		<tag k="natural" v="hill" />
>>>>>>> e1d4bc35ff8a6074a6f2e91616a996b547c36f15
		<tag k="place" v="locality" />
		<tag k="ssr:stedsnr" v="523385" />
	</node>
<<<<<<< HEAD
	<node lat="62.267925003236556" lon="5.6273388936185045" id="-967">
		<tag k="name" v="Botnen" />
		<tag k="natural" v="valley" />
		<tag k="place" v="locality" />
		<tag k="ssr:stedsnr" v="523732" />
	</node>
	<node lat="62.25905277340047" lon="5.627338887495197" id="-968">
		<tag k="name" v="Brandane" />
=======
	<node id="-61975" lat="62.400650002" lon="5.60427778661">
		<tag k="name" v="Sandshornet" />
		<tag k="natural" v="hill" />
		<tag k="place" v="locality" />
		<tag k="ssr:stedsnr" v="132680" />
	</node>
	<node id="-61462" lat="62.2561749998" lon="5.63253056008">
		<tag k="name" v="Klubben" />
>>>>>>> e1d4bc35ff8a6074a6f2e91616a996b547c36f15
		<tag k="natural" v="slope" />
		<tag k="place" v="locality" />
		<tag k="ssr:stedsnr" v="523734" />
	</node>
<<<<<<< HEAD
	<node lat="62.282261107701636" lon="5.630180560531481" id="-969">
		<tag k="name" v="Kviletua" />
=======
	<node id="-61460" lat="62.3249916704" lon="5.62186945136">
		<tag k="name" v="Varden" />
>>>>>>> e1d4bc35ff8a6074a6f2e91616a996b547c36f15
		<tag k="natural" v="hill" />
		<tag k="place" v="locality" />
		<tag k="ssr:stedsnr" v="523735" />
	</node>
	<node lat="62.22708332965503" lon="5.76024722185646" id="-970">
		<tag k="name" v="Almen" />
		<tag k="natural" v="hill" />
		<tag k="place" v="locality" />
		<tag k="ssr:stedsnr" v="523736" />
	</node>
	<node lat="62.41019814116571" lon="5.606607373142856" id="-984">
		<tag k="loc_name" v="Tinden" />
		<tag k="name" v="Raudetinden" />
		<tag k="place" v="locality" />
		<tag k="ssr:stedsnr" v="556681" />
	</node>
<<<<<<< HEAD
	<node lat="62.25807777588228" lon="5.743102769682496" id="-987">
		<tag k="fixme" v="consider natural=peak for the most distinct mountains in the district" />
		<tag k="name" v="Rjåhornet" />
		<tag k="natural" v="hill" />
		<tag k="place" v="locality" />
		<tag k="ssr:stedsnr" v="556198" />
	</node>
	<node lat="62.35297222373074" lon="5.586177769358574" id="-989">
		<tag k="fixme" v="consider natural=peak for the most distinct mountains in the district" />
		<tag k="name" v="Teigetua" />
		<tag k="natural" v="hill" />
		<tag k="place" v="locality" />
		<tag k="ssr:stedsnr" v="556647" />
	</node>
	<node lat="62.26497221861762" lon="5.7101638900821685" id="-991">
=======
	<node id="-61454" lat="62.3667111148" lon="5.52354444859">
		<tag k="fixme" v="consider natural=peak for the most distinct mountains in the district" />
		<tag k="name" v="Barmen" />
		<tag k="natural" v="hill" />
		<tag k="place" v="locality" />
		<tag k="ssr:stedsnr" v="253675" />
	</node>
	<node id="-61453" lat="62.3706222196" lon="5.53731110851">
		<tag k="name" v="Børa" />
		<tag k="natural" v="hill" />
		<tag k="place" v="locality" />
		<tag k="ssr:stedsnr" v="253672" />
	</node>
	<node id="-61964" lat="62.3493006987" lon="5.5567978183">
>>>>>>> e1d4bc35ff8a6074a6f2e91616a996b547c36f15
		<tag k="fixme" v="consider natural=peak for the most distinct mountains in the district" />
		<tag k="name" v="Nonshornet" />
		<tag k="natural" v="hill" />
		<tag k="place" v="locality" />
		<tag k="ssr:stedsnr" v="556543" />
	</node>
<<<<<<< HEAD
	<node lat="62.23799722408934" lon="5.773852787047732" id="-996">
		<tag k="name" v="Feirelia" />
=======
	<node id="-61962" lat="62.3508444469" lon="5.6835333318">
		<tag k="name" v="Setane" />
>>>>>>> e1d4bc35ff8a6074a6f2e91616a996b547c36f15
		<tag k="natural" v="slope" />
		<tag k="place" v="locality" />
		<tag k="ssr:stedsnr" v="565128" />
	</node>
<<<<<<< HEAD
	<node lat="62.338850001697864" lon="5.625347226221645" id="-997">
		<tag k="name" v="Huldalen" />
		<tag k="natural" v="valley" />
		<tag k="place" v="locality" />
		<tag k="ssr:stedsnr" v="583635" />
	</node>
	<node lat="62.33861111393315" lon="5.654286106096707" id="-1001">
		<tag k="name" v="Skinhammaren" />
=======
	<node id="-61957" lat="62.2713749986" lon="5.77660278679">
		<tag k="fixme" v="consider natural=peak for the most distinct mountains in the district" />
		<tag k="name" v="Huldrehornet" />
>>>>>>> e1d4bc35ff8a6074a6f2e91616a996b547c36f15
		<tag k="natural" v="hill" />
		<tag k="place" v="locality" />
		<tag k="ssr:stedsnr" v="584375" />
	</node>
<<<<<<< HEAD
	<node lat="62.36370000158668" lon="5.504897217797556" id="-1002">
		<tag k="name" v="Storemålgylet" />
		<tag k="natural" v="valley" />
=======
	<node id="-61444" lat="62.3300805517" lon="5.50361111987">
		<tag k="alt_name" v="Skorpetua" />
		<tag k="fixme" v="consider natural=peak for the most distinct mountains in the district" />
		<tag k="name" v="Keipen" />
		<tag k="natural" v="hill" />
>>>>>>> e1d4bc35ff8a6074a6f2e91616a996b547c36f15
		<tag k="place" v="locality" />
		<tag k="ssr:stedsnr" v="584380" />
	</node>
<<<<<<< HEAD
	<node lat="62.245541663913855" lon="5.738594438101452" id="-1032">
		<tag k="name" v="Sætrelia" />
		<tag k="natural" v="slope" />
		<tag k="place" v="locality" />
		<tag k="ssr:stedsnr" v="643648" />
	</node>
	<node lat="62.27215000299907" lon="5.710686108828423" id="-1034">
		<tag k="name" v="Nonsdalen" />
		<tag k="natural" v="valley" />
		<tag k="place" v="locality" />
		<tag k="ssr:stedsnr" v="644345" />
	</node>
	<node lat="62.33580000114361" lon="5.707019452287518" id="-1036">
		<tag k="name" v="Vassdalen" />
		<tag k="natural" v="valley" />
		<tag k="place" v="locality" />
		<tag k="ssr:stedsnr" v="644785" />
	</node>
	<node lat="62.24371944527927" lon="5.73986110487465" id="-1039">
		<tag k="name" v="Sætrelidene" />
		<tag k="natural" v="slope" />
		<tag k="place" v="locality" />
		<tag k="ssr:stedsnr" v="644743" />
	</node>
	<node lat="62.373552779041326" lon="5.668352779514631" id="-1042">
		<tag k="name" v="Stigane" />
		<tag k="natural" v="slope" />
		<tag k="place" v="locality" />
		<tag k="ssr:stedsnr" v="644757" />
	</node>
	<node lat="62.292086107772796" lon="5.573741673065228" id="-1043">
		<tag k="name" v="Hjellen" />
		<tag k="place" v="locality" />
		<tag k="ssr:stedsnr" v="644770" />
	</node>
	<node lat="62.286622223226985" lon="5.697477768932766" id="-1059">
		<tag k="name" v="Øyradalen" />
		<tag k="natural" v="valley" />
		<tag k="place" v="locality" />
		<tag k="ssr:stedsnr" v="739533" />
	</node>
	<node lat="62.27904444120882" lon="5.69857777006225" id="-1067">
		<tag k="name" v="Rumpene" />
		<tag k="natural" v="hill" />
		<tag k="place" v="locality" />
		<tag k="ssr:stedsnr" v="765627" />
	</node>
	<node lat="62.33489166340137" lon="5.6594388944384395" id="-1068">
		<tag k="name" v="Bendalen" />
		<tag k="natural" v="valley" />
		<tag k="place" v="locality" />
		<tag k="ssr:stedsnr" v="765636" />
	</node>
	<node lat="62.28766111436086" lon="5.568516671561193" id="-1069">
		<tag k="name" v="Litle Løsethornet" />
		<tag k="natural" v="hill" />
		<tag k="place" v="locality" />
		<tag k="ssr:stedsnr" v="765680" />
	</node>
	<node lat="62.28335833046054" lon="5.709505547364951" id="-1090">
		<tag k="fixme" v="consider natural=peak for the most distinct mountains in the district" />
		<tag k="name" v="Øyrahornet" />
		<tag k="natural" v="hill" />
		<tag k="place" v="locality" />
		<tag k="ssr:stedsnr" v="800519" />
	</node>
	<node lat="62.241991667550714" lon="5.765219448209731" id="-1096">
		<tag k="fixme" v="consider natural=peak for the most distinct mountains in the district" />
		<tag k="name" v="Grønåsen" />
		<tag k="natural" v="hill" />
		<tag k="place" v="locality" />
		<tag k="ssr:stedsnr" v="800142" />
	</node>
	<node lat="62.28289444059695" lon="5.637258333390676" id="-1097">
		<tag k="name" v="Blåfjellet" />
		<tag k="place" v="locality" />
		<tag k="ssr:stedsnr" v="800526" />
	</node>
	<node lat="62.35780833628986" lon="5.7298472281568" id="-1110">
		<tag k="alt_name" v="Kalskarryggen" />
		<tag k="name" v="Kalsryggen" />
		<tag k="natural" v="ridge" />
		<tag k="place" v="locality" />
		<tag k="ssr:stedsnr" v="826341" />
	</node>
	<node lat="62.37343055740042" lon="5.550052785354276" id="-1116">
		<tag k="name" v="Aksla" />
		<tag k="natural" v="ridge" />
		<tag k="place" v="locality" />
		<tag k="ssr:stedsnr" v="826737" />
	</node>
	<node lat="62.22334444322322" lon="5.748241662153079" id="-1121">
		<tag k="name" v="Huldreholene" />
		<tag k="natural" v="valley" />
		<tag k="place" v="locality" />
		<tag k="ssr:stedsnr" v="826682" />
	</node>
	<node lat="62.390555559522525" lon="5.621755554987072" id="-1127">
		<tag k="name" v="Huleberget" />
		<tag k="natural" v="slope" />
		<tag k="place" v="locality" />
		<tag k="ssr:stedsnr" v="827396" />
	</node>
	<node lat="62.354797225263674" lon="5.687274998041551" id="-1138">
		<tag k="alt_name" v="Leinekniven" />
		<tag k="fixme" v="consider natural=peak for the most distinct mountains in the district" />
		<tag k="name" v="Leinehornet" />
		<tag k="natural" v="hill" />
		<tag k="place" v="locality" />
		<tag k="ssr:stedsnr" v="860654" />
	</node>
	<node lat="62.26076110763107" lon="5.65948610288904" id="-1146">
		<tag k="name" v="Lisjedalen" />
		<tag k="natural" v="valley" />
		<tag k="place" v="locality" />
		<tag k="ssr:stedsnr" v="860543" />
	</node>
	<node lat="62.25875555876725" lon="5.7357388980361295" id="-1153">
		<tag k="name" v="Lausmylktehamrane" />
		<tag k="natural" v="cliff" />
		<tag k="ssr:stedsnr" v="887327" />
	</node>
	<node lat="62.26409166687499" lon="5.633725004256019" id="-1155">
		<tag k="name" v="Trollskaret" />
		<tag k="natural" v="valley" />
		<tag k="place" v="locality" />
		<tag k="ssr:stedsnr" v="887331" />
	</node>
	<node lat="62.27549444388081" lon="5.70669722242127" id="-1156">
		<tag k="name" v="Koppebakkane" />
		<tag k="natural" v="slope" />
		<tag k="place" v="locality" />
		<tag k="ssr:stedsnr" v="887337" />
	</node>
	<node lat="62.36145277447732" lon="5.701152782408143" id="-1162">
		<tag k="name" v="Samundskaret" />
		<tag k="natural" v="valley" />
		<tag k="place" v="locality" />
		<tag k="ssr:stedsnr" v="887743" />
	</node>
	<node lat="62.331813888379784" lon="5.696047222245293" id="-1163">
		<tag k="name" v="Kruna" />
		<tag k="natural" v="hill" />
		<tag k="place" v="locality" />
		<tag k="ssr:stedsnr" v="887752" />
	</node>
	<node lat="62.2456222255298" lon="5.7116972211486505" id="-1166">
		<tag k="name" v="Kråa" />
		<tag k="natural" v="valley" />
		<tag k="place" v="locality" />
		<tag k="ssr:stedsnr" v="887667" />
	</node>
	<node lat="62.32841110817447" lon="5.622619438845684" id="-1170">
		<tag k="fixme" v="consider natural=peak for the most distinct mountains in the district" />
		<tag k="name" v="Vikefjellet" />
		<tag k="natural" v="hill" />
		<tag k="place" v="locality" />
		<tag k="ssr:stedsnr" v="947344" />
	</node>
	<node lat="62.354722222607364" lon="5.674777780101267" id="-1177">
		<tag k="name" v="Halsen" />
		<tag k="natural" v="ridge" />
		<tag k="place" v="locality" />
		<tag k="ssr:stedsnr" v="948717" />
	</node>
	<node lat="62.24386388872469" lon="5.715366657832161" id="-1178">
		<tag k="name" v="Sædalsskaret" />
		<tag k="natural" v="valley" />
		<tag k="place" v="locality" />
		<tag k="ssr:stedsnr" v="948791" />
	</node>
	<node lat="62.26495277582447" lon="5.753669452437953" id="-1180">
		<tag k="fixme" v="consider natural=peak for the most distinct mountains in the district" />
		<tag k="name" v="Nyklane" />
		<tag k="natural" v="hill" />
		<tag k="place" v="locality" />
		<tag k="ssr:stedsnr" v="948796" />
	</node>
	<node lat="62.33929601165129" lon="5.495672556794291" id="-1192">
		<tag k="name" v="Myrbærhaugen" />
		<tag k="natural" v="hill" />
		<tag k="place" v="locality" />
		<tag k="ssr:stedsnr" v="1077016" />
	</node>
	<node lat="62.33289457174392" lon="5.620240816811537" id="-1193">
		<tag k="name" v="Igesundskaret" />
		<tag k="natural" v="valley" />
		<tag k="place" v="locality" />
		<tag k="ssr:stedsnr" v="1077033" />
	</node>
	<node lat="62.41058547149319" lon="5.605344056934746" id="-1194">
		<tag k="fixme" v="consider natural=peak for the most distinct mountains in the district" />
		<tag k="name" v="Ternenesaksla" />
		<tag k="natural" v="hill" />
		<tag k="place" v="locality" />
		<tag k="ssr:stedsnr" v="1077071" />
	</node>
	<node lat="62.36168549242232" lon="5.705229860495296" id="-1202">
		<tag k="fixme" v="consider natural=peak for the most distinct mountains in the district" />
		<tag k="name" v="Grønlifjellet" />
		<tag k="natural" v="hill" />
		<tag k="place" v="locality" />
		<tag k="ssr:stedsnr" v="1077337" />
	</node>
=======
>>>>>>> e1d4bc35ff8a6074a6f2e91616a996b547c36f15
</osm>
