<?xml version="1.0" encoding="UTF-8"?>
<osm version="0.6" generator="osmapis">
	<node lat="63.70786110934561" lon="8.682791670126335" id="-34770">
		<tag k="name" v="Brenna" />
		<tag k="natural" v="hill" />
		<tag k="place" v="locality" />
		<tag k="ssr:stedsnr" v="13817" />
	</node>
	<node lat="63.66831111004056" lon="8.539727769846284" id="-34806">
		<tag k="name" v="Storheia" />
		<tag k="natural" v="hill" />
		<tag k="place" v="locality" />
		<tag k="ssr:stedsnr" v="36017" />
	</node>
	<node lat="63.684933332416996" lon="8.67026944620984" id="-34808">
		<tag k="name" v="Nord TrÃ¸a" />
		<tag k="natural" v="slope" />
		<tag k="place" v="locality" />
		<tag k="ssr:stedsnr" v="36028" />
	</node>
	<node lat="63.799030555121234" lon="8.73802500386747" id="-34816">
		<tag k="name" v="Bekkvikskaget" />
		<tag k="natural" v="hill" />
		<tag k="place" v="locality" />
		<tag k="ssr:stedsnr" v="36508" />
	</node>
	<node lat="63.6948166623074" lon="8.76597500234972" id="-34822">
		<tag k="name" v="Staulberga" />
		<tag k="natural" v="hill" />
		<tag k="place" v="locality" />
		<tag k="ssr:stedsnr" v="36464" />
	</node>
	<node lat="63.68381944261401" lon="8.497702771392117" id="-34824">
		<tag k="name" v="Litlsandvassheia" />
		<tag k="natural" v="hill" />
		<tag k="place" v="locality" />
		<tag k="ssr:stedsnr" v="36610" />
	</node>
	<node lat="63.674944442143016" lon="8.484119444412041" id="-34825">
		<tag k="name" v="Sinnvardheian" />
		<tag k="natural" v="hill" />
		<tag k="place" v="locality" />
		<tag k="ssr:stedsnr" v="36616" />
	</node>
	<node lat="63.7579499988271" lon="8.82553889668283" id="-34830">
		<tag k="name" v="Hamnahaugen" />
		<tag k="natural" v="hill" />
		<tag k="place" v="locality" />
		<tag k="ssr:stedsnr" v="40660" />
	</node>
	<node lat="63.722794447082734" lon="8.823730552273508" id="-34834">
		<tag k="name" v="Beinskardet" />
		<tag k="natural" v="valley" />
		<tag k="place" v="locality" />
		<tag k="ssr:stedsnr" v="240028" />
	</node>
	<node lat="63.70444722182592" lon="8.538455557564209" id="-34849">
		<tag k="name" v="Klumpheia" />
		<tag k="natural" v="hill" />
		<tag k="place" v="locality" />
		<tag k="ssr:stedsnr" v="74801" />
	</node>
	<node lat="63.690044445263794" lon="8.536405551429567" id="-34854">
		<tag k="name" v="Godvikheia" />
		<tag k="natural" v="hill" />
		<tag k="place" v="locality" />
		<tag k="ssr:stedsnr" v="74754" />
	</node>
</osm>
