<?xml version="1.0" encoding="UTF-8"?>
<osm version="0.6" generator="osmapis">
	<node lat="63.86311666699456" lon="8.704763881585942" id="-34757">
		<tag k="name" v="Fagerholmen" />
		<tag k="place" v="islet" />
		<tag k="ssr:stedsnr" v="13068" />
	</node>
	<node lat="63.85700555885821" lon="8.512441668288966" id="-34758">
		<tag k="name" v="Leiholman" />
		<tag k="place" v="islet" />
		<tag k="ssr:stedsnr" v="13078" />
	</node>
	<node lat="63.8232296543918" lon="8.697912512855218" id="-34759">
		<tag k="name" v="Kvalen" />
		<tag k="place" v="islet" />
		<tag k="ssr:stedsnr" v="13079" />
	</node>
	<node lat="63.82902777446112" lon="8.465574999934834" id="-34760">
		<tag k="name" v="Eaklakken" />
		<tag k="place" v="islet" />
		<tag k="ssr:stedsnr" v="13114" />
	</node>
	<node lat="63.718255551836045" lon="8.737955549619784" id="-34761">
		<tag k="name" v="Grasvatnet" />
		<tag k="natural" v="water" />
		<tag k="ssr:stedsnr" v="13703" />
	</node>
	<node lat="63.72985555678415" lon="8.909908336163387" id="-34762">
		<tag k="alt_name" v="Kattuggelvika" />
		<tag k="name" v="Kattuglevika" />
		<tag k="natural" v="bay" />
		<tag k="ssr:stedsnr" v="13704" />
	</node>
	<node lat="63.709069440432835" lon="8.808983335425255" id="-34763">
		<tag k="name" v="Nordli" />
		<tag k="place" v="farm" />
		<tag k="ssr:stedsnr" v="13709" />
	</node>
	<node lat="63.72012539273132" lon="8.899232786252258" id="-34764">
		<tag k="name" v="Stølsholman" />
		<tag k="place" v="islet" />
		<tag k="ssr:stedsnr" v="13710" />
	</node>
	<node lat="63.69740896083103" lon="8.80872497171001" id="-34765">
		<tag k="fixme" v="consider place=hamlet" />
		<tag k="name" v="Hammarvika" />
		<tag k="old_name" v="Skjelvik" />
		<tag k="place" v="farm" />
		<tag k="ssr:stedsnr" v="13716" />
	</node>
	<node lat="63.9008083346769" lon="8.958966666117345" id="-34766">
		<tag k="name" v="Storflua" />
		<tag k="natural" v="shoal" />
		<tag k="place" v="locality" />
		<tag k="ssr:stedsnr" v="13804" />
	</node>
	<node lat="63.70313610717038" lon="8.688872216358241" id="-34767">
		<tag k="name" v="Stutvatnet" />
		<tag k="natural" v="water" />
		<tag k="ssr:stedsnr" v="13808" />
	</node>
	<node lat="63.69514166323327" lon="8.373083342772668" id="-34768">
		<tag k="fixme" v="consider seamark:type=rock or natural=shoal" />
		<tag k="name" v="Hopen" />
		<tag k="place" v="islet" />
		<tag k="ssr:stedsnr" v="13810" />
	</node>
	<node lat="63.75522778120565" lon="8.769044436181781" id="-34769">
		<tag k="name" v="Piltjønna" />
		<tag k="natural" v="water" />
		<tag k="ssr:stedsnr" v="13811" />
	</node>
	<node lat="63.70786110934561" lon="8.682791670126335" id="-34770">
		<tag k="name" v="Brenna" />
		<tag k="natural" v="hill" />
		<tag k="place" v="locality" />
		<tag k="ssr:stedsnr" v="13817" />
	</node>
	<node lat="63.703169446464884" lon="8.563947228002627" id="-34771">
		<tag k="name" v="Stein" />
		<tag k="place" v="farm" />
		<tag k="ssr:stedsnr" v="13821" />
	</node>
	<node lat="63.759024997346735" lon="8.79135276961233" id="-34772">
		<tag k="name" v="Vågavatnet" />
		<tag k="natural" v="water" />
		<tag k="ssr:stedsnr" v="13824" />
	</node>
	<node lat="64.0206000024636" lon="9.145652773294518" id="-34773">
		<tag k="fixme" v="consider seamark:type=rock or natural=shoal" />
		<tag k="name" v="Valskjæra" />
		<tag k="place" v="islet" />
		<tag k="ssr:stedsnr" v="13873" />
	</node>
	<node lat="63.76706666352694" lon="8.490227785735438" id="-34774">
		<tag k="fixme" v="consider seamark:type=rock or natural=shoal" />
		<tag k="name" v="Lyngøyskjæret" />
		<tag k="place" v="islet" />
		<tag k="ssr:stedsnr" v="13879" />
	</node>
	<node lat="63.77202777518699" lon="8.407233332817393" id="-34775">
		<tag k="name" v="Håbågan" />
		<tag k="natural" v="shoal" />
		<tag k="place" v="locality" />
		<tag k="ssr:stedsnr" v="13880" />
	</node>
	<node lat="63.76638055591045" lon="8.483994441570957" id="-34776">
		<tag k="name" v="Lyngøytaran" />
		<tag k="natural" v="shoal" />
		<tag k="place" v="locality" />
		<tag k="ssr:stedsnr" v="13885" />
	</node>
	<node lat="63.79668617399497" lon="8.660277367720983" id="-34777">
		<tag k="name" v="Kalvøya" />
		<tag k="place" v="island" />
		<tag k="ssr:stedsnr" v="13901" />
	</node>
	<node lat="63.80020277729063" lon="8.632644449414984" id="-34778">
		<tag k="name" v="Tjønnøytaren" />
		<tag k="natural" v="shoal" />
		<tag k="place" v="locality" />
		<tag k="ssr:stedsnr" v="13902" />
	</node>
	<node lat="63.799066670219545" lon="8.59118889267107" id="-34779">
		<tag k="fixme" v="consider seamark:type=rock or natural=shoal" />
		<tag k="name" v="Kristofferskjæra" />
		<tag k="place" v="islet" />
		<tag k="ssr:stedsnr" v="13903" />
	</node>
	<node lat="63.7931500026664" lon="8.586891674722862" id="-34780">
		<tag k="name" v="Ilgrynna" />
		<tag k="natural" v="shoal" />
		<tag k="place" v="locality" />
		<tag k="ssr:stedsnr" v="13905" />
	</node>
	<node lat="63.784291668342675" lon="8.60913611454399" id="-34781">
		<tag k="name" v="Valøya" />
		<tag k="place" v="islet" />
		<tag k="ssr:stedsnr" v="13907" />
	</node>
	<node lat="63.6660083308949" lon="8.546677784230189" id="-34782">
		<tag k="name" v="Heimbåsøya" />
		<tag k="place" v="islet" />
		<tag k="ssr:stedsnr" v="13988" />
	</node>
	<node lat="63.974383330154225" lon="9.011005548318822" id="-34783">
		<tag k="name" v="Brannøya" />
		<tag k="place" v="island" />
		<tag k="ssr:stedsnr" v="13998" />
	</node>
	<node lat="63.67455706701463" lon="8.598528966856598" id="-34784">
		<tag k="fixme" v="consider place=hamlet" />
		<tag k="name" v="Storhallaren" />
		<tag k="place" v="village" />
		<tag k="ssr:stedsnr" v="13999" />
	</node>
	<node lat="63.822452774648625" lon="8.683450005381355" id="-34785">
		<tag k="name" v="Hestøya" />
		<tag k="place" v="island" />
		<tag k="ssr:stedsnr" v="14768" />
	</node>
	<node lat="63.76514315721752" lon="8.687316649742083" id="-34786">
		<tag k="fixme" v="consider place=hamlet" />
		<tag k="name" v="Bondenget" />
		<tag k="place" v="farm" />
		<tag k="ssr:stedsnr" v="14866" />
	</node>
	<node lat="63.7561916707167" lon="8.285524999477142" id="-34787">
		<tag k="fixme" v="consider seamark:type=rock or natural=shoal" />
		<tag k="name" v="Tennskjæret" />
		<tag k="place" v="islet" />
		<tag k="ssr:stedsnr" v="14869" />
	</node>
	<node lat="64.17705278089001" lon="9.42197500538513" id="-34788">
		<tag k="name" v="Lundøya" />
		<tag k="place" v="islet" />
		<tag k="ssr:stedsnr" v="14912" />
	</node>
	<node lat="64.12266944020224" lon="9.41940556467099" id="-34789">
		<tag k="name" v="Purkryggen" />
		<tag k="natural" v="shoal" />
		<tag k="place" v="locality" />
		<tag k="ssr:stedsnr" v="14955" />
	</node>
	<node lat="64.11532778207338" lon="9.440933324132525" id="-34790">
		<tag k="name" v="Fuglsangen" />
		<tag k="natural" v="shoal" />
		<tag k="place" v="locality" />
		<tag k="ssr:stedsnr" v="14958" />
	</node>
	<node lat="64.1124472204706" lon="9.37679999954635" id="-34791">
		<tag k="alt_name" v="Kobbgruva, midtre" />
		<tag k="name" v="Midtre Kobbgruva" />
		<tag k="natural" v="shoal" />
		<tag k="place" v="locality" />
		<tag k="ssr:stedsnr" v="14963" />
	</node>
	<node lat="64.11306111123646" lon="9.421561113704902" id="-34792">
		<tag k="name" v="Medflua" />
		<tag k="natural" v="shoal" />
		<tag k="place" v="locality" />
		<tag k="ssr:stedsnr" v="14966" />
	</node>
	<node lat="63.951688889671445" lon="9.056780556626594" id="-34793">
		<tag k="name" v="Eataren" />
		<tag k="natural" v="shoal" />
		<tag k="place" v="locality" />
		<tag k="ssr:stedsnr" v="24623" />
	</node>
	<node lat="63.707250001372586" lon="8.884347212848214" id="-34794">
		<tag k="name" v="Taraskjærfalla" />
		<tag k="natural" v="shoal" />
		<tag k="place" v="locality" />
		<tag k="ssr:stedsnr" v="30072" />
	</node>
	<node lat="63.75150832989315" lon="8.882341671841482" id="-34795">
		<tag k="name" v="Rundskjærfluin" />
		<tag k="natural" v="shoal" />
		<tag k="place" v="locality" />
		<tag k="ssr:stedsnr" v="31010" />
	</node>
	<node lat="63.7715388876786" lon="8.870799998476214" id="-34796">
		<tag k="name" v="Pila" />
		<tag k="place" v="farm" />
		<tag k="ssr:stedsnr" v="31105" />
	</node>
	<node lat="63.6542916675485" lon="8.37338055024945" id="-34797">
		<tag k="name" v="Laksholmfluin" />
		<tag k="natural" v="shoal" />
		<tag k="place" v="locality" />
		<tag k="ssr:stedsnr" v="31420" />
	</node>
	<node lat="63.75765278009497" lon="8.633933340021954" id="-34798">
		<tag k="name" v="Svinøya" />
		<tag k="place" v="island" />
		<tag k="ssr:stedsnr" v="32024" />
	</node>
	<node lat="63.885591666197854" lon="8.404477770455504" id="-34799">
		<tag k="name" v="Skjelingen" />
		<tag k="natural" v="shoal" />
		<tag k="place" v="locality" />
		<tag k="ssr:stedsnr" v="32607" />
	</node>
	<node lat="63.741352776603534" lon="8.520069443050904" id="-34800">
		<tag k="name" v="Håbåen" />
		<tag k="natural" v="shoal" />
		<tag k="place" v="locality" />
		<tag k="ssr:stedsnr" v="32867" />
	</node>
	<node lat="63.69520833690947" lon="8.457524996412321" id="-34801">
		<tag k="alt_name" v="Kvistmyran" />
		<tag k="name" v="Kvistmyra" />
		<tag k="natural" v="wetland" />
		<tag k="ssr:stedsnr" v="32780" />
	</node>
	<node lat="63.70699166280522" lon="8.604249990744064" id="-34802">
		<tag k="name" v="Marentjønna" />
		<tag k="natural" v="water" />
		<tag k="ssr:stedsnr" v="35166" />
	</node>
	<node lat="63.790424998964056" lon="8.724511119375967" id="-34803">
		<tag k="name" v="Holbekken" />
		<tag k="ssr:stedsnr" v="35603" />
		<tag k="waterway" v="stream" />
	</node>
	<node lat="63.7833833353875" lon="8.6782083285998" id="-34804">
		<tag k="name" v="Hestvika" />
		<tag k="natural" v="bay" />
		<tag k="ssr:stedsnr" v="35623" />
	</node>
	<node lat="63.68411944759464" lon="8.553594454096782" id="-34805">
		<tag k="name" v="Halsholman" />
		<tag k="place" v="islet" />
		<tag k="ssr:stedsnr" v="36011" />
	</node>
	<node lat="63.66831111004056" lon="8.539727769846284" id="-34806">
		<tag k="name" v="Storheia" />
		<tag k="natural" v="hill" />
		<tag k="place" v="locality" />
		<tag k="ssr:stedsnr" v="36017" />
	</node>
	<node lat="63.66913889333187" lon="8.537591665148895" id="-34807">
		<tag k="name" v="Heia" />
		<tag k="place" v="locality" />
		<tag k="ssr:stedsnr" v="36019" />
	</node>
	<node lat="63.684933332416996" lon="8.67026944620984" id="-34808">
		<tag k="name" v="Nord Trøa" />
		<tag k="natural" v="slope" />
		<tag k="place" v="locality" />
		<tag k="ssr:stedsnr" v="36028" />
	</node>
	<node lat="63.67256666711379" lon="8.449999997889355" id="-34809">
		<tag k="name" v="Moldbakkvika" />
		<tag k="natural" v="bay" />
		<tag k="ssr:stedsnr" v="36032" />
	</node>
	<node lat="63.74378889142473" lon="8.677255561093677" id="-34810">
		<tag k="name" v="Seterdalen" />
		<tag k="natural" v="stone" />
		<tag k="ssr:stedsnr" v="36180" />
	</node>
	<node lat="63.69021944000779" lon="8.807008333237553" id="-34811">
		<tag k="fixme" v="consider seamark:type=rock or natural=shoal" />
		<tag k="name" v="Håskjæra" />
		<tag k="place" v="islet" />
		<tag k="ssr:stedsnr" v="36318" />
	</node>
	<node lat="63.67138611159038" lon="8.591416674376614" id="-34812">
		<tag k="name" v="Bekkastraumen" />
		<tag k="natural" v="strait" />
		<tag k="ssr:stedsnr" v="36203" />
	</node>
	<node lat="63.674874999245866" lon="8.637644436913423" id="-34813">
		<tag k="fixme" v="consider seamark:type=rock or natural=shoal" />
		<tag k="name" v="Rundskjæret" />
		<tag k="place" v="islet" />
		<tag k="ssr:stedsnr" v="36208" />
	</node>
	<node lat="63.78244722022089" lon="8.636383332155486" id="-34814">
		<tag k="name" v="Ottersøla" />
		<tag k="natural" v="water" />
		<tag k="ssr:stedsnr" v="36282" />
	</node>
	<node lat="63.86311389176426" lon="8.636869446247111" id="-34815">
		<tag k="name" v="Vassøysva" />
		<tag k="natural" v="shoal" />
		<tag k="place" v="locality" />
		<tag k="ssr:stedsnr" v="36415" />
	</node>
	<node lat="63.799030555121234" lon="8.73802500386747" id="-34816">
		<tag k="name" v="Bekkvikskaget" />
		<tag k="natural" v="hill" />
		<tag k="place" v="locality" />
		<tag k="ssr:stedsnr" v="36508" />
	</node>
	<node lat="63.80493333367459" lon="8.711086106769796" id="-34817">
		<tag k="name" v="Vaholmen" />
		<tag k="place" v="islet" />
		<tag k="ssr:stedsnr" v="36517" />
	</node>
	<node lat="63.81584999696366" lon="8.723880555188593" id="-34818">
		<tag k="name" v="Lyngøyholmen" />
		<tag k="place" v="islet" />
		<tag k="ssr:stedsnr" v="36522" />
	</node>
	<node lat="63.799838892749435" lon="8.681969445039643" id="-34819">
		<tag k="name" v="Seterholmen" />
		<tag k="place" v="islet" />
		<tag k="ssr:stedsnr" v="36568" />
	</node>
	<node lat="63.74503332978461" lon="8.841638897680447" id="-34820">
		<tag k="name" v="Fredagsvika" />
		<tag k="natural" v="bay" />
		<tag k="ssr:stedsnr" v="36578" />
	</node>
	<node lat="63.78433333384318" lon="8.842269451473527" id="-34821">
		<tag k="alt_name" v="Valøya Nordre" />
		<tag k="name" v="Nord Valøya" />
		<tag k="place" v="island" />
		<tag k="ssr:stedsnr" v="36709" />
	</node>
	<node lat="63.6948166623074" lon="8.76597500234972" id="-34822">
		<tag k="name" v="Staulberga" />
		<tag k="natural" v="hill" />
		<tag k="place" v="locality" />
		<tag k="ssr:stedsnr" v="36464" />
	</node>
	<node lat="63.720111107092684" lon="8.745550005492943" id="-34823">
		<tag k="name" v="Grasvasstjønna" />
		<tag k="natural" v="water" />
		<tag k="ssr:stedsnr" v="36606" />
	</node>
	<node lat="63.68381944261401" lon="8.497702771392117" id="-34824">
		<tag k="name" v="Litlsandvassheia" />
		<tag k="natural" v="hill" />
		<tag k="place" v="locality" />
		<tag k="ssr:stedsnr" v="36610" />
	</node>
	<node lat="63.674944442143016" lon="8.484119444412041" id="-34825">
		<tag k="name" v="Sinnvardheian" />
		<tag k="natural" v="hill" />
		<tag k="place" v="locality" />
		<tag k="ssr:stedsnr" v="36616" />
	</node>
	<node lat="63.67710277385471" lon="8.501086120596025" id="-34826">
		<tag k="name" v="Ytter Hjortvikbukta" />
		<tag k="natural" v="bay" />
		<tag k="ssr:stedsnr" v="36617" />
	</node>
	<node lat="63.75926944602094" lon="8.826605547862428" id="-34827">
		<tag k="name" v="Galten" />
		<tag k="place" v="islet" />
		<tag k="ssr:stedsnr" v="36665" />
	</node>
	<node lat="63.757786113200204" lon="8.85959166987254" id="-34828">
		<tag k="name" v="Grimsholmen" />
		<tag k="place" v="islet" />
		<tag k="ssr:stedsnr" v="36675" />
	</node>
	<node lat="63.77092778026348" lon="8.873616663697543" id="-34829">
		<tag k="name" v="Sørpilen" />
		<tag k="place" v="locality" />
		<tag k="ssr:stedsnr" v="36682" />
	</node>
	<node lat="63.7579499988271" lon="8.82553889668283" id="-34830">
		<tag k="name" v="Hamnahaugen" />
		<tag k="natural" v="hill" />
		<tag k="place" v="locality" />
		<tag k="ssr:stedsnr" v="40660" />
	</node>
	<node lat="63.793116664298225" lon="8.666127776160158" id="-34831">
		<tag k="amenity" v="community_centre" />
		<tag k="name" v="Dyrøya grendahus" />
		<tag k="ssr:stedsnr" v="42706" />
	</node>
	<node lat="63.69038332920583" lon="8.774733334969381" id="-34832">
		<tag k="name" v="Øya eldreboliger" />
		<tag k="place" v="neighbourhood" />
		<tag k="ssr:stedsnr" v="239539" />
	</node>
	<node lat="63.77327499686044" lon="8.313308324685984" id="-34833">
		<tag k="landuse" v="harbour" />
		<tag k="name" v="Kya uthavn" />
		<tag k="seamark:type" v="harbour" />
		<tag k="ssr:stedsnr" v="239718" />
	</node>
	<node lat="63.722794447082734" lon="8.823730552273508" id="-34834">
		<tag k="name" v="Beinskardet" />
		<tag k="natural" v="valley" />
		<tag k="place" v="locality" />
		<tag k="ssr:stedsnr" v="240028" />
	</node>
	<node lat="63.74107222420353" lon="8.642919436375635" id="-34835">
		<tag k="name" v="Myra" />
		<tag k="place" v="quarter" />
		<tag k="ssr:stedsnr" v="57368" />
	</node>
	<node lat="63.79555066797736" lon="8.799063635813965" id="-34836">
		<tag k="name" v="Staulstraumen" />
		<tag k="natural" v="strait" />
		<tag k="ssr:stedsnr" v="60387" />
	</node>
	<node lat="63.84088611129023" lon="8.623333329010885" id="-34838">
		<tag k="name" v="Tromsa" />
		<tag k="place" v="islet" />
		<tag k="ssr:stedsnr" v="73103" />
	</node>
	<node lat="63.81813610741716" lon="8.726686116585952" id="-34839">
		<tag k="name" v="Likholman" />
		<tag k="place" v="islet" />
		<tag k="ssr:stedsnr" v="73760" />
	</node>
	<node lat="63.86980000052228" lon="8.69791666014645" id="-34840">
		<tag k="name" v="Latromsa" />
		<tag k="place" v="islet" />
		<tag k="ssr:stedsnr" v="74006" />
	</node>
	<node lat="63.85798611497271" lon="8.373588890127577" id="-34841">
		<tag k="fixme" v="consider seamark:type=rock or natural=shoal" />
		<tag k="name" v="Hornskjæra" />
		<tag k="place" v="islet" />
		<tag k="ssr:stedsnr" v="74013" />
	</node>
	<node lat="63.87343611157207" lon="8.623730554340948" id="-34842">
		<tag k="alt_name" v="Laksøya" />
		<tag k="name" v="Laksholmen" />
		<tag k="place" v="islet" />
		<tag k="ssr:stedsnr" v="74029" />
	</node>
	<node lat="63.87212777792879" lon="8.385138882682655" id="-34843">
		<tag k="name" v="Stolpen" />
		<tag k="natural" v="shoal" />
		<tag k="place" v="locality" />
		<tag k="ssr:stedsnr" v="74031" />
	</node>
	<node lat="63.841227782329945" lon="8.459591676139492" id="-34844">
		<tag k="name" v="Vassøya" />
		<tag k="place" v="islet" />
		<tag k="ssr:stedsnr" v="74034" />
	</node>
	<node lat="63.85017499716421" lon="8.447602772910892" id="-34845">
		<tag k="fixme" v="consider seamark:type=rock or natural=shoal" />
		<tag k="name" v="Ringskjæret" />
		<tag k="place" v="islet" />
		<tag k="ssr:stedsnr" v="74040" />
	</node>
	<node lat="63.802020345957544" lon="8.647032958004761" id="-34846">
		<tag k="name" v="Storjamnungen" />
		<tag k="place" v="islet" />
		<tag k="ssr:stedsnr" v="74104" />
	</node>
	<node lat="63.80751944629903" lon="8.559511114635471" id="-34847">
		<tag k="name" v="Eirsøya" />
		<tag k="place" v="islet" />
		<tag k="ssr:stedsnr" v="74110" />
	</node>
	<node lat="63.95423888827938" lon="8.632813882868193" id="-34848">
		<tag k="alt_name" v="Svensfluin" />
		<tag k="name" v="Svensflua" />
		<tag k="natural" v="shoal" />
		<tag k="place" v="locality" />
		<tag k="ssr:stedsnr" v="74208" />
	</node>
	<node lat="63.70444722182592" lon="8.538455557564209" id="-34849">
		<tag k="name" v="Klumpheia" />
		<tag k="natural" v="hill" />
		<tag k="place" v="locality" />
		<tag k="ssr:stedsnr" v="74801" />
	</node>
	<node lat="63.76544999606274" lon="8.870619436657197" id="-34850">
		<tag k="name" v="Tisundet" />
		<tag k="natural" v="strait" />
		<tag k="ssr:stedsnr" v="74807" />
	</node>
	<node lat="63.71854166657191" lon="8.700019454080078" id="-34851">
		<tag k="name" v="Holmvasstjønna" />
		<tag k="natural" v="water" />
		<tag k="ssr:stedsnr" v="74813" />
	</node>
	<node lat="64.13752777732671" lon="9.193480565018291" id="-34852">
		<tag k="fixme" v="consider seamark:type=rock or natural=shoal" />
		<tag k="name" v="Grønnskjæra" />
		<tag k="place" v="islet" />
		<tag k="ssr:stedsnr" v="74814" />
	</node>
	<node lat="64.11208888918698" lon="9.116038884184668" id="-34853">
		<tag k="name" v="Skattafalla" />
		<tag k="natural" v="shoal" />
		<tag k="place" v="locality" />
		<tag k="ssr:stedsnr" v="74820" />
	</node>
	<node lat="63.690044445263794" lon="8.536405551429567" id="-34854">
		<tag k="name" v="Godvikheia" />
		<tag k="natural" v="hill" />
		<tag k="place" v="locality" />
		<tag k="ssr:stedsnr" v="74754" />
	</node>
	<node lat="63.692094441512" lon="8.597386119467235" id="-34855">
		<tag k="name" v="Engdal" />
		<tag k="place" v="farm" />
		<tag k="ssr:stedsnr" v="74760" />
	</node>
	<node lat="63.93178055429503" lon="8.765391657519514" id="-34856">
		<tag k="name" v="Tidbreddklakkan" />
		<tag k="natural" v="shoal" />
		<tag k="place" v="locality" />
		<tag k="ssr:stedsnr" v="74765" />
	</node>
	<node lat="63.933499997573136" lon="8.766211110796249" id="-34857">
		<tag k="fixme" v="consider seamark:type=rock or natural=shoal" />
		<tag k="name" v="Synnavindsskjæret" />
		<tag k="place" v="islet" />
		<tag k="ssr:stedsnr" v="74767" />
	</node>
	<node lat="63.685855559670685" lon="8.404952786766778" id="-34858">
		<tag k="name" v="Steinkarvatnet" />
		<tag k="natural" v="water" />
		<tag k="ssr:stedsnr" v="74768" />
	</node>
</osm>
