<?xml version="1.0" encoding="UTF-8"?>
<osm generator="osmapis" version="0.6">
	<node id="-838912" lat="63.7655583334" lon="8.74602223169">
		<tag k="name" v="Vollan" />
		<tag k="natural" v="stone" />
		<tag k="ssr:stedsnr" v="704155" />
	</node>
	<node id="-838016" lat="63.7646222227" lon="8.81965832872">
		<tag k="name" v="Innerklauva" />
		<tag k="place" v="locality" />
		<tag k="ssr:stedsnr" v="218688" />
	</node>
	<node id="-839678" lat="63.7824166649" lon="8.69095278151">
		<tag k="name" v="Kalvtrøa" />
		<tag k="place" v="locality" />
		<tag k="ssr:stedsnr" v="520511" />
	</node>
	<node id="-838141" lat="63.7802749965" lon="8.88998056451">
		<tag k="name" v="Seiberga" />
		<tag k="place" v="locality" />
		<tag k="ssr:stedsnr" v="521752" />
	</node>
	<node id="-837994" lat="63.7686416712" lon="8.86773888948">
		<tag k="name" v="Langrumpa" />
		<tag k="place" v="locality" />
		<tag k="ssr:stedsnr" v="764713" />
	</node>
	<node id="-837375" lat="63.6680000042" lon="8.48655555896">
		<tag k="name" v="Aunet" />
		<tag k="place" v="locality" />
		<tag k="ssr:stedsnr" v="96113" />
	</node>
	<node id="-837624" lat="63.6807472206" lon="8.44288055882">
		<tag k="name" v="Sætermyran" />
		<tag k="natural" v="wetland" />
		<tag k="ssr:stedsnr" v="741808" />
	</node>
	<node id="-837481" lat="63.6746111094" lon="8.6131999914">
		<tag k="name" v="Hesthagan" />
		<tag k="place" v="locality" />
		<tag k="ssr:stedsnr" v="36188" />
	</node>
	<node id="-839668" lat="63.7663027779" lon="8.76011666289">
		<tag k="name" v="Klumpdalen" />
		<tag k="natural" v="stone" />
		<tag k="ssr:stedsnr" v="400153" />
	</node>
	<node id="-838514" lat="63.7655833342" lon="8.81906667109">
		<tag k="name" v="Sanden" />
		<tag k="place" v="locality" />
		<tag k="ssr:stedsnr" v="885719" />
	</node>
	<node id="-837651" lat="63.6952083369" lon="8.45752499641">
		<tag k="alt_name" v="Kvistmyran" />
		<tag k="name" v="Kvistmyra" />
		<tag k="natural" v="wetland" />
		<tag k="ssr:stedsnr" v="32780" />
	</node>
	<node id="-838382" lat="63.6896166708" lon="8.62352500172">
		<tag k="name" v="Røssvassmyran" />
		<tag k="natural" v="wetland" />
		<tag k="ssr:stedsnr" v="559774" />
	</node>
	<node id="-839661" lat="63.7214083302" lon="8.87653332807">
		<tag k="landuse" v="meadow" />
		<tag k="name" v="Vettan" />
		<tag k="ssr:stedsnr" v="825134" />
	</node>
	<node id="-838891" lat="63.7195166661" lon="8.83133610596">
		<tag k="name" v="Gulosmyran" />
		<tag k="natural" v="wetland" />
		<tag k="ssr:stedsnr" v="36538" />
	</node>
	<node id="-838890" lat="63.7839416691" lon="8.72729165781">
		<tag k="historic" v="shieling" />
		<tag k="name" v="Stakstuvollan" />
		<tag k="place" v="locality" />
		<tag k="ssr:stedsnr" v="96534" />
	</node>
	<node id="-837097" lat="63.6848055545" lon="8.39065000907">
		<tag k="name" v="Korsan" />
		<tag k="natural" v="wetland" />
		<tag k="ssr:stedsnr" v="947041" />
	</node>
	<node id="-838632" lat="63.6669722246" lon="8.53383055442">
		<tag k="name" v="Stororta" />
		<tag k="place" v="locality" />
		<tag k="ssr:stedsnr" v="339046" />
	</node>
	<node id="-838788" lat="63.6700638911" lon="8.47821112046">
		<tag k="name" v="Ytternesmyran" />
		<tag k="natural" v="wetland" />
		<tag k="ssr:stedsnr" v="741997" />
	</node>
	<node id="-838243" lat="63.7048916631" lon="8.79252222099">
		<tag k="name" v="Skåkheimyra" />
		<tag k="natural" v="wetland" />
		<tag k="ssr:stedsnr" v="947354" />
	</node>
	<node id="-838370" lat="63.7669388933" lon="8.84770555874">
		<tag k="name" v="Meliheiskogen" />
		<tag k="place" v="locality" />
		<tag k="ssr:stedsnr" v="885645" />
	</node>
	<node id="-837084" lat="63.6870722266" lon="8.77037778404">
		<tag k="name" v="Øya" />
		<tag k="place" v="locality" />
		<tag k="ssr:stedsnr" v="521495" />
	</node>
	<node id="-837211" lat="63.7125722223" lon="8.79157500502">
		<tag k="name" v="Bærmyran" />
		<tag k="natural" v="wetland" />
		<tag k="ssr:stedsnr" v="741748" />
	</node>
	<node id="-838479" lat="63.6846416666" lon="8.36104443838">
		<tag k="name" v="Brennskagmyran" />
		<tag k="natural" v="wetland" />
		<tag k="ssr:stedsnr" v="643378" />
	</node>
	<node id="-839255" lat="63.7375888912" lon="8.75126110663">
		<tag k="historic" v="shieling" />
		<tag k="name" v="Setra" />
		<tag k="place" v="locality" />
		<tag k="ssr:stedsnr" v="96631" />
	</node>
	<node id="-838100" lat="63.7782083349" lon="8.88033054926">
		<tag k="name" v="Nordstaulvika" />
		<tag k="place" v="locality" />
		<tag k="ssr:stedsnr" v="339725" />
	</node>
	<node id="-839119" lat="63.7262999968" lon="8.88035555739">
		<tag k="landuse" v="meadow" />
		<tag k="name" v="Bandlandet" />
		<tag k="ssr:stedsnr" v="218199" />
	</node>
	<node id="-839245" lat="63.6892944412" lon="8.45519165848">
		<tag k="name" v="Kryssen" />
		<tag k="place" v="locality" />
		<tag k="ssr:stedsnr" v="825034" />
	</node>
	<node id="-838295" lat="63.7522222235" lon="8.69373056116">
		<tag k="name" v="Myra" />
		<tag k="natural" v="wetland" />
		<tag k="ssr:stedsnr" v="461157" />
	</node>
	<node id="-838731" lat="63.7629000037" lon="8.73605833313">
		<tag k="name" v="Langmyra" />
		<tag k="natural" v="wetland" />
		<tag k="ssr:stedsnr" v="764142" />
	</node>
	<node id="-837961" lat="63.7722833295" lon="8.8711055608">
		<tag k="name" v="Nordpilen" />
		<tag k="place" v="locality" />
		<tag k="ssr:stedsnr" v="521717" />
	</node>
	<node id="-836834" lat="63.740247218" lon="8.90936111899">
		<tag k="name" v="Blomli" />
		<tag k="place" v="locality" />
		<tag k="ssr:stedsnr" v="36817" />
	</node>
	<node id="-837446" lat="63.7437888914" lon="8.67725556109">
		<tag k="name" v="Seterdalen" />
		<tag k="natural" v="stone" />
		<tag k="ssr:stedsnr" v="36180" />
	</node>
	<node id="-838338" lat="63.6861444488" lon="8.69150554852">
		<tag k="name" v="Lokknesmyra" />
		<tag k="natural" v="wetland" />
		<tag k="ssr:stedsnr" v="559763" />
	</node>
	<node id="-839601" lat="63.7826611105" lon="8.8846888788">
		<tag k="name" v="Synnvorden" />
		<tag k="place" v="locality" />
		<tag k="ssr:stedsnr" v="96728" />
	</node>
	<node id="-838464" lat="63.7312000034" lon="8.88307778753">
		<tag k="name" v="Kalkmyra" />
		<tag k="natural" v="wetland" />
		<tag k="ssr:stedsnr" v="825598" />
	</node>
	<node id="-836927" lat="63.6641861086" lon="8.31023611602">
		<tag k="name" v="Stabben" />
		<tag k="place" v="locality" />
		<tag k="ssr:stedsnr" v="36059" />
	</node>
	<node id="-838078" lat="63.7715305574" lon="8.8834583283">
		<tag k="name" v="Tiaksla" />
		<tag k="place" v="locality" />
		<tag k="ssr:stedsnr" v="764711" />
	</node>
	<node id="-837436" lat="63.7918000044" lon="8.68133610832">
		<tag k="name" v="Myra" />
		<tag k="place" v="locality" />
		<tag k="ssr:stedsnr" v="581563" />
	</node>
	<node id="-839192" lat="63.7298416711" lon="8.87358333626">
		<tag k="name" v="Kjerringreva" />
		<tag k="place" v="locality" />
		<tag k="ssr:stedsnr" v="96618" />
	</node>
	<node id="-837325" lat="63.7238305534" lon="8.89234166519">
		<tag k="name" v="Melkstaden" />
		<tag k="place" v="locality" />
		<tag k="ssr:stedsnr" v="36149" />
	</node>
	<node id="-838642" lat="63.6623944442" lon="8.30979445191">
		<tag k="landuse" v="meadow" />
		<tag k="name" v="Steinan" />
		<tag k="ssr:stedsnr" v="704070" />
	</node>
	<node id="-837301" lat="63.7745055592" lon="8.81749999415">
		<tag k="name" v="Urda" />
		<tag k="natural" v="scree" />
		<tag k="ssr:stedsnr" v="340332" />
	</node>
	<node id="-836788" lat="63.6780916629" lon="8.43769723008">
		<tag k="name" v="Urda" />
		<tag k="natural" v="scree" />
		<tag k="ssr:stedsnr" v="157069" />
	</node>
	<node id="-837555" lat="63.6934722187" lon="8.52253610452">
		<tag k="name" v="Godvikmyran" />
		<tag k="natural" v="wetland" />
		<tag k="ssr:stedsnr" v="73809" />
	</node>
	<node id="-839858" lat="63.6776000021" lon="8.46758334282">
		<tag k="name" v="Buamarka" />
		<tag k="place" v="locality" />
		<tag k="ssr:stedsnr" v="74741" />
	</node>
	<node id="-838067" lat="63.781425004" lon="8.64740555094">
		<tag k="name" v="Djupvika" />
		<tag k="place" v="locality" />
		<tag k="ssr:stedsnr" v="278615" />
	</node>
	<node id="-839727" lat="63.7385472192" lon="8.83438888794">
		<tag k="name" v="Hola" />
		<tag k="place" v="locality" />
		<tag k="ssr:stedsnr" v="460700" />
	</node>
	<node id="-839469" lat="63.6834388848" lon="8.65903889201">
		<tag k="name" v="Vassvikern" />
		<tag k="place" v="locality" />
		<tag k="ssr:stedsnr" v="279021" />
	</node>
	<node id="-838956" lat="63.6752833297" lon="8.60403610812">
		<tag k="name" v="Rasmusrommet" />
		<tag k="place" v="locality" />
		<tag k="ssr:stedsnr" v="764197" />
	</node>
	<node id="-839211" lat="63.6976972189" lon="8.50352222409">
		<tag k="name" v="Flatmyra" />
		<tag k="natural" v="wetland" />
		<tag k="ssr:stedsnr" v="825028" />
	</node>
	<node id="-839082" lat="63.698830553" lon="8.48099999449">
		<tag k="name" v="Malmmyran" />
		<tag k="natural" v="wetland" />
		<tag k="ssr:stedsnr" v="802836" />
	</node>
	<node id="-837033" lat="63.6917166698" lon="8.75764443476">
		<tag k="name" v="Myra" />
		<tag k="place" v="locality" />
		<tag k="ssr:stedsnr" v="764480" />
	</node>
	<node id="-839080" lat="63.6826861128" lon="8.64369443609">
		<tag k="name" v="Langmyra" />
		<tag k="natural" v="wetland" />
		<tag k="ssr:stedsnr" v="582008" />
	</node>
	<node id="-838183" lat="63.7475499965" lon="8.84305555042">
		<tag k="name" v="Kjerka" />
		<tag k="place" v="locality" />
		<tag k="ssr:stedsnr" v="278643" />
	</node>
	<node id="-838949" lat="63.8001500022" lon="8.7079666624">
		<tag k="name" v="Melkstaden" />
		<tag k="place" v="locality" />
		<tag k="ssr:stedsnr" v="36552" />
	</node>
	<node id="-838145" lat="63.7668583371" lon="8.8192888883">
		<tag k="name" v="Klauva" />
		<tag k="place" v="locality" />
		<tag k="ssr:stedsnr" v="521754" />
	</node>
	<node id="-839860" lat="63.6877305556" lon="8.44319999183">
		<tag k="name" v="Setermyran" />
		<tag k="natural" v="wetland" />
		<tag k="ssr:stedsnr" v="886097" />
	</node>
	<node id="-839454" lat="63.7709277803" lon="8.8736166637">
		<tag k="name" v="Sørpilen" />
		<tag k="place" v="locality" />
		<tag k="ssr:stedsnr" v="36682" />
	</node>
	<node id="-837509" lat="63.6841638933" lon="8.34893889005">
		<tag k="name" v="Klakkan" />
		<tag k="place" v="locality" />
		<tag k="ssr:stedsnr" v="582396" />
	</node>
	<node id="-836764" lat="63.7356083313" lon="8.89899444534">
		<tag k="name" v="Stormyra" />
		<tag k="natural" v="wetland" />
		<tag k="ssr:stedsnr" v="438747" />
	</node>
	<node id="-838171" lat="63.7714222207" lon="8.69355277408">
		<tag k="name" v="Kutjønnmyra" />
		<tag k="natural" v="wetland" />
		<tag k="ssr:stedsnr" v="97176" />
	</node>
	<node id="-839449" lat="63.7043333326" lon="8.44426388735">
		<tag k="name" v="Kvistskaget" />
		<tag k="place" v="locality" />
		<tag k="ssr:stedsnr" v="522127" />
	</node>
	<node id="-838424" lat="63.678963893" lon="8.37036388982">
		<tag k="name" v="Rørvassmyra" />
		<tag k="natural" v="wetland" />
		<tag k="ssr:stedsnr" v="947400" />
	</node>
	<node id="-837015" lat="63.6761111151" lon="8.57431665951">
		<tag k="name" v="Bekkamyran" />
		<tag k="natural" v="wetland" />
		<tag k="ssr:stedsnr" v="643004" />
	</node>
	<node id="-838038" lat="63.6921305569" lon="8.76765554786">
		<tag k="name" v="Moa" />
		<tag k="place" v="locality" />
		<tag k="ssr:stedsnr" v="400511" />
	</node>
	<node id="-837013" lat="63.6791055581" lon="8.63006387918">
		<tag k="name" v="Balsmyra" />
		<tag k="natural" v="wetland" />
		<tag k="ssr:stedsnr" v="340257" />
	</node>
	<node id="-836756" lat="63.6691388933" lon="8.53759166515">
		<tag k="name" v="Heia" />
		<tag k="place" v="locality" />
		<tag k="ssr:stedsnr" v="36019" />
	</node>
	<node id="-838419" lat="63.7707" lon="8.78078054853">
		<tag k="name" v="Slettaskogen" />
		<tag k="place" v="locality" />
		<tag k="ssr:stedsnr" v="619884" />
	</node>
	<node id="-839847" lat="63.6800111076" lon="8.65068055385">
		<tag k="name" v="Skjervikmyra" />
		<tag k="natural" v="wetland" />
		<tag k="ssr:stedsnr" v="278244" />
	</node>
	<node id="-837903" lat="63.6950694466" lon="8.71836667444">
		<tag k="name" v="Stormyra" />
		<tag k="natural" v="wetland" />
		<tag k="ssr:stedsnr" v="582496" />
	</node>
	<node id="-836751" lat="63.6741555552" lon="8.5936388897">
		<tag k="name" v="Øverrommet" />
		<tag k="place" v="locality" />
		<tag k="ssr:stedsnr" v="946202" />
	</node>
	<node id="-837518" lat="63.6878833289" lon="8.44480554702">
		<tag k="name" v="Sætermyra" />
		<tag k="natural" v="wetland" />
		<tag k="ssr:stedsnr" v="516449" />
	</node>
	<node id="-837133" lat="63.6765361113" lon="8.57058332455">
		<tag k="name" v="Bekkemyran" />
		<tag k="natural" v="wetland" />
		<tag k="ssr:stedsnr" v="620742" />
	</node>
	<node id="-839692" lat="63.7257694403" lon="8.87632499065">
		<tag k="name" v="Kjørslavarden" />
		<tag k="place" v="locality" />
		<tag k="ssr:stedsnr" v="522191" />
	</node>
	<node id="-836875" lat="63.683791665" lon="8.62157499721">
		<tag k="name" v="Stormyra" />
		<tag k="natural" v="wetland" />
		<tag k="ssr:stedsnr" v="400236" />
	</node>
	<node id="-838743" lat="63.6881222185" lon="8.66519444023">
		<tag k="name" v="Vollan" />
		<tag k="place" v="locality" />
		<tag k="ssr:stedsnr" v="460425" />
	</node>
	<node id="-837768" lat="63.7923222194" lon="8.68519721242">
		<tag k="name" v="Vågan" />
		<tag k="place" v="locality" />
		<tag k="ssr:stedsnr" v="641478" />
	</node>
	<node id="-837805" lat="63.7801694463" lon="8.72872778265">
		<tag k="name" v="Panna" />
		<tag k="place" v="locality" />
		<tag k="ssr:stedsnr" v="885528" />
	</node>
	<node id="-839809" lat="63.7923361073" lon="8.7318555528">
		<tag k="name" v="Urdbergmyra" />
		<tag k="natural" v="wetland" />
		<tag k="ssr:stedsnr" v="338477" />
	</node>
	<node id="-838258" lat="63.6800527823" lon="8.37254722018">
		<tag k="name" v="Røyrvassmyran" />
		<tag k="natural" v="wetland" />
		<tag k="ssr:stedsnr" v="559758" />
	</node>
	<node id="-838125" lat="63.7707611139" lon="8.67840277011">
		<tag k="name" v="Storsteinmyra" />
		<tag k="natural" v="wetland" />
		<tag k="ssr:stedsnr" v="97164" />
	</node>
	<node id="-838273" lat="63.7628722204" lon="8.80483887994">
		<tag k="name" v="Hannaplassen" />
		<tag k="place" v="locality" />
		<tag k="ssr:stedsnr" v="764756" />
	</node>
</osm>
