<?xml version="1.0" encoding="UTF-8"?>
<osm version="0.6" generator="osmapis">
	<node lat="63.793116664298225" lon="8.666127776160158" id="-34019">
		<tag k="amenity" v="community_centre" />
		<tag k="name" v="Dyrøya grendahus" />
		<tag k="ssr:stedsnr" v="42706" />
	</node>
	<node lat="63.73481403986804" lon="8.833351892034473" id="-34079">
		<tag k="name" v="Gravplass" />
		<tag k="place" v="locality" />
		<tag k="ssr:stedsnr" v="96664" />
	</node>
	<node lat="63.68296389053738" lon="8.690841676033404" id="-34087">
		<tag k="cemetery" v="grave" />
		<tag k="name" v="Lokknes gravplass" />
		<tag k="place" v="locality" />
		<tag k="ssr:stedsnr" v="97020" />
	</node>
	<node lat="63.75492777900819" lon="8.696433327316596" id="-34098">
		<tag k="amenity" v="community_centre" />
		<tag k="name" v="Klubben grendahus" />
		<tag k="ssr:stedsnr" v="103723" />
	</node>
	<node lat="63.677102775012884" lon="8.618438885869693" id="-34536">
		<tag k="alt_name" v="Hallarkjerka;Sør-Frøya kirke" />
		<tag k="amenity" v="place_of_worship" />
		<tag k="denomination" v="lutheran" />
		<tag k="name" v="Hallaren kirke" />
		<tag k="religion" v="christian" />
		<tag k="ssr:stedsnr" v="438757" />
	</node>
	<node lat="63.6805250012697" lon="8.615866674363188" id="-34586">
		<tag k="amenity" v="community_centre" />
		<tag k="name" v="Lyngblomst ungdomslagshus" />
		<tag k="ssr:stedsnr" v="466775" />
	</node>
	<node lat="63.795788884562775" lon="8.808072214748842" id="-34601">
		<tag k="alt_name" v="Nord-Frøya kirke" />
		<tag k="amenity" v="place_of_worship" />
		<tag k="denomination" v="lutheran" />
		<tag k="name" v="Sletta kirke" />
		<tag k="religion" v="christian" />
		<tag k="ssr:stedsnr" v="680821" />
	</node>
	<node lat="63.76555555327761" lon="8.814077778792003" id="-34716">
		<tag k="amenity" v="community_centre" />
		<tag k="name" v="Neset grendahus" />
		<tag k="ssr:stedsnr" v="527749" />
	</node>
	<node lat="63.86546666688223" lon="8.657211111263324" id="-34787">
		<tag k="amenity" v="place_of_worship" />
		<tag k="fixme" v="specify religion=*, denomination=*, building=* etc" />
		<tag k="name" v="Mausund bedehus" />
		<tag k="ssr:stedsnr" v="602549" />
	</node>
	<node lat="63.731063889739495" lon="8.827080546045968" id="-34947">
		<tag k="amenity" v="community_centre" />
		<tag k="name" v="Frøya kulturhus" />
		<tag k="ssr:stedsnr" v="892681" />
	</node>
	<node lat="63.667402116107084" lon="8.304836146032867" id="-34948">
		<tag k="amenity" v="community_centre" />
		<tag k="name" v="Skjærgård ungdomshus" />
		<tag k="ssr:stedsnr" v="892683" />
	</node>
	<node lat="63.78353888650249" lon="8.702050010032716" id="-34986">
		<tag k="amenity" v="community_centre" />
		<tag k="name" v="Sjønhalsen kretshus" />
		<tag k="ssr:stedsnr" v="709686" />
	</node>
	<node lat="63.86206389172307" lon="8.657172223416211" id="-35270">
		<tag k="amenity" v="place_of_worship" />
		<tag k="denomination" v="lutheran" />
		<tag k="name" v="Måøy kapell" />
		<tag k="religion" v="christian" />
		<tag k="ssr:stedsnr" v="906558" />
	</node>
	<node lat="63.6693805512266" lon="8.308727783941917" id="-35271">
		<tag k="amenity" v="place_of_worship" />
		<tag k="denomination" v="lutheran" />
		<tag k="name" v="Titran kapell" />
		<tag k="religion" v="christian" />
		<tag k="ssr:stedsnr" v="906562" />
	</node>
	<node lat="63.69607500340269" lon="8.782777782834613" id="-35607">
		<tag k="amenity" v="community_centre" />
		<tag k="name" v="Svanheim grendahus" />
		<tag k="ssr:stedsnr" v="103679" />
	</node>
</osm>
