<?xml version="1.0" encoding="UTF-8"?>
<osm version="0.6" generator="osmapis">
	<node lat="63.709069440432835" lon="8.808983335425255" id="-32527">
		<tag k="name" v="Nordli" />
		<tag k="place" v="farm" />
		<tag k="ssr:stedsnr" v="13709" />
	</node>
	<node lat="63.69740896083103" lon="8.80872497171001" id="-32529">
		<tag k="fixme" v="consider place=hamlet" />
		<tag k="name" v="Hammarvika" />
		<tag k="old_name" v="Skjelvik" />
		<tag k="place" v="farm" />
		<tag k="ssr:stedsnr" v="13716" />
	</node>
	<node lat="63.703169446464884" lon="8.563947228002627" id="-32535">
		<tag k="name" v="Stein" />
		<tag k="place" v="farm" />
		<tag k="ssr:stedsnr" v="13821" />
	</node>
	<node lat="63.67455706701463" lon="8.598528966856598" id="-32548">
		<tag k="fixme" v="consider place=hamlet" />
		<tag k="name" v="Storhallaren" />
		<tag k="place" v="village" />
		<tag k="ssr:stedsnr" v="13999" />
	</node>
	<node lat="63.76514315721752" lon="8.687316649742083" id="-32550">
		<tag k="fixme" v="consider place=hamlet" />
		<tag k="name" v="Bondenget" />
		<tag k="place" v="farm" />
		<tag k="ssr:stedsnr" v="14866" />
	</node>
	<node lat="63.7715388876786" lon="8.870799998476214" id="-32560">
		<tag k="name" v="Pila" />
		<tag k="place" v="farm" />
		<tag k="ssr:stedsnr" v="31105" />
	</node>
	<node lat="63.69038332920583" lon="8.774733334969381" id="-32596">
		<tag k="name" v="Øya eldreboliger" />
		<tag k="place" v="neighbourhood" />
		<tag k="ssr:stedsnr" v="239539" />
	</node>
	<node lat="63.74107222420353" lon="8.642919436375635" id="-32599">
		<tag k="name" v="Myra" />
		<tag k="place" v="quarter" />
		<tag k="ssr:stedsnr" v="57368" />
	</node>
	<node lat="63.692094441512" lon="8.597386119467235" id="-32619">
		<tag k="name" v="Engdal" />
		<tag k="place" v="farm" />
		<tag k="ssr:stedsnr" v="74760" />
	</node>
	<node lat="63.66869444245458" lon="8.30987778707485" id="-32664">
		<tag k="name" v="Hanshaugen" />
		<tag k="place" v="quarter" />
		<tag k="ssr:stedsnr" v="97110" />
	</node>
	<node lat="63.69009166800447" lon="8.773177786110988" id="-32666">
		<tag k="name" v="Øya" />
		<tag k="place" v="village" />
		<tag k="ssr:stedsnr" v="97360" />
	</node>
	<node lat="63.78648909036003" lon="8.709322503721246" id="-32675">
		<tag k="fixme" v="consider place=hamlet" />
		<tag k="name" v="Sjønhalsen" />
		<tag k="place" v="farm" />
		<tag k="ssr:stedsnr" v="105113" />
	</node>
	<node lat="63.721855556558026" lon="8.891127779178566" id="-32684">
		<tag k="alt_name" v="Stølan" />
		<tag k="name" v="Staulan" />
		<tag k="place" v="farm" />
		<tag k="ssr:stedsnr" v="134710" />
	</node>
	<node lat="63.67924304891229" lon="8.654563406919062" id="-32689">
		<tag k="alt_name" v="Skjervika" />
		<tag k="name" v="Skjervik" />
		<tag k="place" v="locality" />
		<tag k="ssr:stedsnr" v="134772" />
	</node>
	<node lat="63.71485277831248" lon="8.590586103486206" id="-32700">
		<tag k="alt_name" v="Berglia" />
		<tag k="name" v="Bergli" />
		<tag k="place" v="farm" />
		<tag k="ssr:stedsnr" v="134860" />
	</node>
	<node lat="63.772498476111295" lon="8.740985824688149" id="-32757">
		<tag k="fixme" v="consider place=hamlet" />
		<tag k="name" v="Auka" />
		<tag k="place" v="farm" />
		<tag k="ssr:stedsnr" v="256837" />
	</node>
	<node lat="63.67143055717484" lon="8.5676499935277" id="-32805">
		<tag k="name" v="Avløysskaget" />
		<tag k="place" v="farm" />
		<tag k="ssr:stedsnr" v="158004" />
	</node>
	<node lat="63.74768055763059" lon="8.83178332940644" id="-32817">
		<tag k="alt_name" v="Ærvik" />
		<tag k="name" v="Ervika" />
		<tag k="place" v="hamlet" />
		<tag k="ssr:stedsnr" v="195730" />
	</node>
	<node lat="63.78810555954598" lon="8.714744442483898" id="-32836">
		<tag k="name" v="Sjønhalsen" />
		<tag k="place" v="hamlet" />
		<tag k="ssr:stedsnr" v="214209" />
	</node>
	<node lat="63.76852666469399" lon="8.758671179250424" id="-32845">
		<tag k="name" v="Skjelldam" />
		<tag k="place" v="farm" />
		<tag k="ssr:stedsnr" v="218172" />
	</node>
	<node lat="63.75725773304109" lon="8.694486726466284" id="-32846">
		<tag k="name" v="Heia" />
		<tag k="place" v="farm" />
		<tag k="ssr:stedsnr" v="218188" />
	</node>
	<node lat="63.798180557744594" lon="8.682569440913735" id="-32857">
		<tag k="fixme" v="consider place=suburb, village or hamlet" />
		<tag k="name" v="Setra" />
		<tag k="place" v="quarter" />
		<tag k="ssr:stedsnr" v="218596" />
	</node>
	<node lat="63.71803610798246" lon="8.609738880608711" id="-32860">
		<tag k="name" v="Auna" />
		<tag k="place" v="farm" />
		<tag k="ssr:stedsnr" v="218864" />
	</node>
	<node lat="63.75437222055484" lon="8.596180560499661" id="-32861">
		<tag k="name" v="Vågen" />
		<tag k="place" v="farm" />
		<tag k="ssr:stedsnr" v="218866" />
	</node>
	<node lat="63.75410555254237" lon="8.579552785338576" id="-32862">
		<tag k="name" v="Myra" />
		<tag k="place" v="farm" />
		<tag k="ssr:stedsnr" v="218870" />
	</node>
	<node lat="63.79675278162789" lon="8.686158333834793" id="-32867">
		<tag k="amenity" v="school" />
		<tag k="name" v="Dyrøy oppvekstsenter" />
		<tag k="ssr:stedsnr" v="222587" />
	</node>
	<node lat="63.69799722344323" lon="8.790005553015579" id="-32868">
		<tag k="amenity" v="school" />
		<tag k="name" v="Nabeita skole" />
		<tag k="ssr:stedsnr" v="222589" />
	</node>
	<node lat="63.80200277540402" lon="8.77207777409568" id="-32884">
		<tag k="name" v="Bukta" />
		<tag k="place" v="farm" />
		<tag k="ssr:stedsnr" v="255817" />
	</node>
	<node lat="63.75176703236005" lon="8.586935079335737" id="-32912">
		<tag k="name" v="Vardan" />
		<tag k="place" v="farm" />
		<tag k="ssr:stedsnr" v="256970" />
	</node>
	<node lat="63.770686114094694" lon="8.819530556858439" id="-32943">
		<tag k="building" v="industrial" />
		<tag k="industrial" v="factory" />
		<tag k="name" v="Fiskeindustri" />
		<tag k="ssr:stedsnr" v="278770" />
	</node>
	<node lat="63.77337777845158" lon="8.743727787631638" id="-32968">
		<tag k="name" v="Aukan" />
		<tag k="place" v="farm" />
		<tag k="ssr:stedsnr" v="460600" />
	</node>
	<node lat="63.68038333653147" lon="8.429608340797754" id="-32972">
		<tag k="name" v="Myra" />
		<tag k="place" v="farm" />
		<tag k="ssr:stedsnr" v="461082" />
	</node>
	<node lat="63.70059444823648" lon="8.829566657288431" id="-32977">
		<tag k="name" v="Skaga" />
		<tag k="place" v="farm" />
		<tag k="ssr:stedsnr" v="461367" />
	</node>
	<node lat="63.797413891964695" lon="8.676408329355981" id="-32981">
		<tag k="name" v="Stranda" />
		<tag k="place" v="hamlet" />
		<tag k="ssr:stedsnr" v="461608" />
	</node>
	<node lat="63.70235555758684" lon="8.828105562929235" id="-32997">
		<tag k="alt_name" v="Nordhammer;Nordhammar" />
		<tag k="name" v="Nordhammaren" />
		<tag k="place" v="hamlet" />
		<tag k="ssr:stedsnr" v="316748" />
	</node>
	<node lat="63.77501110688357" lon="8.869991669791602" id="-33000">
		<tag k="name" v="Staulan" />
		<tag k="place" v="farm" />
		<tag k="ssr:stedsnr" v="316904" />
	</node>
	<node lat="63.744161106732335" lon="8.8308916660837" id="-33023">
		<tag k="name" v="Fredagsvik" />
		<tag k="place" v="farm" />
		<tag k="ssr:stedsnr" v="335017" />
	</node>
	<node lat="63.69180000124573" lon="8.687388893684002" id="-33029">
		<tag k="name" v="Halten" />
		<tag k="place" v="farm" />
		<tag k="ssr:stedsnr" v="338297" />
	</node>
	<node lat="63.67007222154885" lon="8.308875009872827" id="-33031">
		<tag k="name" v="Gården" />
		<tag k="place" v="farm" />
		<tag k="ssr:stedsnr" v="339131" />
	</node>
	<node lat="63.67980833256713" lon="8.39647221591105" id="-33032">
		<tag k="fixme" v="consider place=hamlet" />
		<tag k="name" v="Daløya" />
		<tag k="place" v="farm" />
		<tag k="ssr:stedsnr" v="339092" />
	</node>
	<node lat="63.78848333445383" lon="8.74444722908845" id="-33038">
		<tag k="fixme" v="consider place=hamlet" />
		<tag k="name" v="Dragsneset" />
		<tag k="place" v="farm" />
		<tag k="ssr:stedsnr" v="339514" />
	</node>
	<node lat="63.77372222291335" lon="8.763763889968889" id="-33047">
		<tag k="name" v="Ølet" />
		<tag k="place" v="locality" />
		<tag k="ssr:stedsnr" v="340543" />
	</node>
	<node lat="63.84455277719766" lon="8.45920554810319" id="-33058">
		<tag k="building" v="civic" />
		<tag k="name" v="Sula brannstasjon" />
		<tag k="ssr:stedsnr" v="360512" />
	</node>
	<node lat="63.6980861075238" lon="8.789883330928228" id="-33059">
		<tag k="amenity" v="kindergarten" />
		<tag k="name" v="Hammarvika barnehage" />
		<tag k="ssr:stedsnr" v="360519" />
	</node>
	<node lat="63.679991664753636" lon="8.395574991872845" id="-33070">
		<tag k="fixme" v="consider place=hamlet" />
		<tag k="name" v="Daløya" />
		<tag k="place" v="village" />
		<tag k="ssr:stedsnr" v="400082" />
	</node>
	<node lat="63.716622219162055" lon="8.841711102112491" id="-33074">
		<tag k="name" v="Børaunet" />
		<tag k="place" v="farm" />
		<tag k="ssr:stedsnr" v="400177" />
	</node>
	<node lat="63.767900004319365" lon="8.809680552648167" id="-33087">
		<tag k="name" v="Neset eldreboliger" />
		<tag k="place" v="neighbourhood" />
		<tag k="ssr:stedsnr" v="421717" />
	</node>
	<node lat="63.70256110966118" lon="8.826952778987161" id="-33088">
		<tag k="name" v="Hammarvika trygdeboliger 1" />
		<tag k="place" v="neighbourhood" />
		<tag k="ssr:stedsnr" v="421722" />
	</node>
	<node lat="63.790713891673576" lon="8.803763891609757" id="-33089">
		<tag k="name" v="Stølan" />
		<tag k="place" v="farm" />
		<tag k="ssr:stedsnr" v="425862" />
	</node>
	<node lat="63.688777779051925" lon="8.759116670308552" id="-33107">
		<tag k="fixme" v="consider place=suburb, village or hamlet" />
		<tag k="name" v="Flatval" />
		<tag k="place" v="quarter" />
		<tag k="ssr:stedsnr" v="438713" />
	</node>
	<node lat="63.749316662604315" lon="8.67973610211441" id="-33147">
		<tag k="name" v="Rabben" />
		<tag k="place" v="farm" />
		<tag k="ssr:stedsnr" v="461221" />
	</node>
	<node lat="63.86791301894856" lon="8.634958959220798" id="-33151">
		<tag k="name" v="Myra" />
		<tag k="place" v="farm" />
		<tag k="ssr:stedsnr" v="461161" />
	</node>
	<node lat="63.76722777784676" lon="8.810619453870244" id="-33163">
		<tag k="amenity" v="kindergarten" />
		<tag k="name" v="Neset barnehage" />
		<tag k="ssr:stedsnr" v="481561" />
	</node>
	<node lat="63.71311666540734" lon="8.838219434931622" id="-33173">
		<tag k="name" v="Strandheim" />
		<tag k="place" v="farm" />
		<tag k="ssr:stedsnr" v="680745" />
	</node>
	<node lat="63.70585833498225" lon="8.808641659149556" id="-33176">
		<tag k="name" v="Lyngås" />
		<tag k="place" v="farm" />
		<tag k="ssr:stedsnr" v="680755" />
	</node>
	<node lat="63.79816667005311" lon="8.802794452098615" id="-33178">
		<tag k="fixme" v="consider place=hamlet" />
		<tag k="name" v="Svellingen" />
		<tag k="place" v="village" />
		<tag k="ssr:stedsnr" v="680828" />
	</node>
	<node lat="63.69638055260214" lon="8.458897228982137" id="-33179">
		<tag k="name" v="Nordheim" />
		<tag k="place" v="farm" />
		<tag k="ssr:stedsnr" v="680846" />
	</node>
	<node lat="63.69974999811613" lon="8.45047777090307" id="-33180">
		<tag k="name" v="Nordhaug" />
		<tag k="place" v="farm" />
		<tag k="ssr:stedsnr" v="680847" />
	</node>
	<node lat="63.73134661504656" lon="8.630581496652448" id="-33185">
		<tag k="fixme" v="consider place=hamlet" />
		<tag k="name" v="Tverrvågen" />
		<tag k="place" v="farm" />
		<tag k="ssr:stedsnr" v="680883" />
	</node>
	<node lat="63.76630832992831" lon="8.882333327280664" id="-33190">
		<tag k="name" v="Husøya" />
		<tag k="place" v="farm" />
		<tag k="ssr:stedsnr" v="680898" />
	</node>
	<node lat="63.78387500123021" lon="8.658583342047026" id="-33202">
		<tag k="fixme" v="multiple name tags, choose one and add the other to alt_name" />
		<tag k="name" v="Dyrøygården;Haugen" />
		<tag k="place" v="farm" />
		<tag k="ssr:stedsnr" v="498950" />
	</node>
	<node lat="63.756999998793475" lon="8.821872231292327" id="-33205">
		<tag k="alt_name" v="Dyrvika" />
		<tag k="fixme" v="consider place=hamlet" />
		<tag k="name" v="Dyrvik" />
		<tag k="place" v="village" />
		<tag k="ssr:stedsnr" v="498845" />
	</node>
	<node lat="63.67242777609698" lon="8.5736583350983" id="-33226">
		<tag k="name" v="Bekken" />
		<tag k="place" v="farm" />
		<tag k="ssr:stedsnr" v="499996" />
	</node>
	<node lat="63.707463891355566" lon="8.580536120090848" id="-33232">
		<tag k="name" v="Husvika" />
		<tag k="place" v="farm" />
		<tag k="ssr:stedsnr" v="681830" />
	</node>
	<node lat="63.689758334239805" lon="8.76608888193388" id="-33269">
		<tag k="name" v="Haugan" />
		<tag k="place" v="farm" />
		<tag k="ssr:stedsnr" v="521474" />
	</node>
	<node lat="63.679111108334645" lon="8.415227772748542" id="-33277">
		<tag k="name" v="Skaget" />
		<tag k="place" v="farm" />
		<tag k="ssr:stedsnr" v="522102" />
	</node>
	<node lat="63.70313055912387" lon="8.829175002651025" id="-33281">
		<tag k="name" v="Hammarberget" />
		<tag k="place" v="quarter" />
		<tag k="ssr:stedsnr" v="522359" />
	</node>
	<node lat="63.71296111108387" lon="8.582791670489115" id="-33289">
		<tag k="name" v="Lomsmyra" />
		<tag k="place" v="farm" />
		<tag k="ssr:stedsnr" v="522802" />
	</node>
	<node lat="63.68433333626714" lon="8.451505560999488" id="-33311">
		<tag k="name" v="Sørli" />
		<tag k="place" v="farm" />
		<tag k="ssr:stedsnr" v="559785" />
	</node>
	<node lat="63.721630557527384" lon="8.600569440430556" id="-33316">
		<tag k="name" v="Valen" />
		<tag k="place" v="farm" />
		<tag k="ssr:stedsnr" v="559840" />
	</node>
	<node lat="63.667563890432646" lon="8.514788890179636" id="-33327">
		<tag k="name" v="Stororta" />
		<tag k="place" v="farm" />
		<tag k="ssr:stedsnr" v="559988" />
	</node>
	<node lat="63.67141388927953" lon="8.56321111245762" id="-33351">
		<tag k="name" v="Bekkastua" />
		<tag k="place" v="isolated_dwelling" />
		<tag k="ssr:stedsnr" v="582055" />
	</node>
	<node lat="63.79815465579309" lon="8.68750294543074" id="-33370">
		<tag k="fixme" v="consider place=hamlet" />
		<tag k="name" v="Setra" />
		<tag k="place" v="farm" />
		<tag k="ssr:stedsnr" v="619111" />
	</node>
	<node lat="63.73012499960096" lon="8.82990278192798" id="-33376">
		<tag k="fixme" v="consider place=suburb, village or hamlet" />
		<tag k="name" v="Midtsian" />
		<tag k="place" v="quarter" />
		<tag k="ssr:stedsnr" v="619770" />
	</node>
	<node lat="63.66716111510952" lon="8.297266675419815" id="-33406">
		<tag k="name" v="Heia" />
		<tag k="place" v="quarter" />
		<tag k="ssr:stedsnr" v="704124" />
	</node>
	<node lat="63.67412778083698" lon="8.440605546697247" id="-33415">
		<tag k="name" v="Bua" />
		<tag k="place" v="farm" />
		<tag k="ssr:stedsnr" v="704079" />
	</node>
	<node lat="63.7995083328731" lon="8.695730558856674" id="-33425">
		<tag k="name" v="Norddyrøya" />
		<tag k="place" v="hamlet" />
		<tag k="ssr:stedsnr" v="632124" />
	</node>
	<node lat="63.66999722134289" lon="8.54762777081316" id="-33450">
		<tag k="alt_name" v="Ørndal" />
		<tag k="name" v="Ørndalen" />
		<tag k="place" v="farm" />
		<tag k="ssr:stedsnr" v="638420" />
	</node>
	<node lat="63.73319166658815" lon="8.639494445119805" id="-33473">
		<tag k="name" v="Nordre Grindfaret" />
		<tag k="place" v="locality" />
		<tag k="ssr:stedsnr" v="643324" />
	</node>
	<node lat="63.70614166711572" lon="8.55483888036349" id="-33479">
		<tag k="amenity" v="school" />
		<tag k="name" v="Nordskag oppvekstsenter" />
		<tag k="ssr:stedsnr" v="708643" />
	</node>
	<node lat="63.86460555162173" lon="8.653538896196808" id="-33480">
		<tag k="building" v="civic" />
		<tag k="name" v="Mausund brannstasjon" />
		<tag k="ssr:stedsnr" v="663532" />
	</node>
	<node lat="63.728994443882314" lon="8.821769441803827" id="-33481">
		<tag k="name" v="Sistranda omsorgsboliger" />
		<tag k="place" v="neighbourhood" />
		<tag k="ssr:stedsnr" v="663536" />
	</node>
	<node lat="63.72279166944073" lon="8.836322230731485" id="-33482">
		<tag k="name" v="Havheim eldreboliger" />
		<tag k="place" v="neighbourhood" />
		<tag k="ssr:stedsnr" v="663716" />
	</node>
	<node lat="63.86529722426198" lon="8.654344451697714" id="-33484">
		<tag k="amenity" v="school" />
		<tag k="name" v="Mausund skole" />
		<tag k="ssr:stedsnr" v="890659" />
	</node>
	<node lat="63.72010000269764" lon="8.836722230109977" id="-33485">
		<tag k="name" v="Sørrabben" />
		<tag k="place" v="farm" />
		<tag k="ssr:stedsnr" v="890782" />
	</node>
	<node lat="63.8643694455678" lon="8.649513891755907" id="-33486">
		<tag k="name" v="Kåvik" />
		<tag k="place" v="hamlet" />
		<tag k="ssr:stedsnr" v="680004" />
	</node>
	<node lat="63.79115000008629" lon="8.658600007733229" id="-33515">
		<tag k="name" v="Breivika" />
		<tag k="place" v="farm" />
		<tag k="ssr:stedsnr" v="681913" />
	</node>
	<node lat="63.76641944410579" lon="8.867274995061296" id="-33539">
		<tag k="name" v="Gården" />
		<tag k="place" v="farm" />
		<tag k="ssr:stedsnr" v="703724" />
	</node>
	<node lat="63.76999444517997" lon="8.860608338865985" id="-33540">
		<tag k="name" v="Gåsvika" />
		<tag k="place" v="hamlet" />
		<tag k="ssr:stedsnr" v="703726" />
	</node>
	<node lat="63.740058329072305" lon="8.905644449183571" id="-33543">
		<tag k="name" v="Hoven" />
		<tag k="place" v="farm" />
		<tag k="ssr:stedsnr" v="703822" />
	</node>
	<node lat="63.67019167108934" lon="8.371358324351142" id="-33554">
		<tag k="name" v="Dalsvikmyra" />
		<tag k="place" v="farm" />
		<tag k="ssr:stedsnr" v="704371" />
	</node>
	<node lat="63.667563891190525" lon="8.360763895689876" id="-33555">
		<tag k="name" v="Håvika" />
		<tag k="place" v="farm" />
		<tag k="ssr:stedsnr" v="704373" />
	</node>
	<node lat="63.722122223350574" lon="8.827441667203365" id="-33563">
		<tag k="name" v="Beinskardet" />
		<tag k="place" v="quarter" />
		<tag k="ssr:stedsnr" v="725021" />
	</node>
	<node lat="63.698961107818405" lon="8.566722231427033" id="-33580">
		<tag k="name" v="Merradalen" />
		<tag k="place" v="farm" />
		<tag k="ssr:stedsnr" v="741841" />
	</node>
	<node lat="63.70129999639485" lon="8.52541944355776" id="-33581">
		<tag k="name" v="Solli" />
		<tag k="place" v="farm" />
		<tag k="ssr:stedsnr" v="741842" />
	</node>
	<node lat="63.6935305517433" lon="8.455211105635291" id="-33582">
		<tag k="name" v="Sørgard" />
		<tag k="place" v="farm" />
		<tag k="ssr:stedsnr" v="741843" />
	</node>
	<node lat="63.732258335858475" lon="8.63952500053713" id="-33584">
		<tag k="name" v="Krutvik" />
		<tag k="place" v="farm" />
		<tag k="ssr:stedsnr" v="741887" />
	</node>
	<node lat="63.788130559748225" lon="8.789230562160352" id="-33585">
		<tag k="name" v="Postvika" />
		<tag k="place" v="farm" />
		<tag k="ssr:stedsnr" v="741889" />
	</node>
	<node lat="63.70675833265194" lon="8.542583343438153" id="-33605">
		<tag k="loc_name" v="Hålahauan" />
		<tag k="name" v="Holahaugan" />
		<tag k="place" v="quarter" />
		<tag k="ssr:stedsnr" v="750307" />
	</node>
	<node lat="63.86552221826887" lon="8.658433327877072" id="-33651">
		<tag k="name" v="Mausund eldreboliger" />
		<tag k="place" v="neighbourhood" />
		<tag k="ssr:stedsnr" v="906739" />
	</node>
	<node lat="63.68739722613755" lon="8.44499445019515" id="-33663">
		<tag k="name" v="Singstad" />
		<tag k="place" v="farm" />
		<tag k="ssr:stedsnr" v="802815" />
	</node>
	<node lat="63.73674444402745" lon="8.646191669556032" id="-33666">
		<tag k="name" v="Tunga" />
		<tag k="place" v="farm" />
		<tag k="ssr:stedsnr" v="802880" />
	</node>
	<node lat="63.679077632162404" lon="8.426859577100545" id="-33667">
		<tag k="name" v="Dørvikan" />
		<tag k="place" v="farm" />
		<tag k="ssr:stedsnr" v="802777" />
	</node>
	<node lat="63.69156110733013" lon="8.597847219698954" id="-33692">
		<tag k="name" v="Engdalen" />
		<tag k="place" v="farm" />
		<tag k="ssr:stedsnr" v="825096" />
	</node>
	<node lat="63.86477222247866" lon="8.65742500921289" id="-33701">
		<tag k="name" v="Øya" />
		<tag k="place" v="farm" />
		<tag k="ssr:stedsnr" v="825418" />
	</node>
	<node lat="63.76205833716255" lon="8.813116657108221" id="-33703">
		<tag k="name" v="Madsvågen" />
		<tag k="place" v="farm" />
		<tag k="ssr:stedsnr" v="825675" />
	</node>
	<node lat="63.720874996654686" lon="8.594441660231043" id="-33707">
		<tag k="name" v="Engvika" />
		<tag k="place" v="farm" />
		<tag k="ssr:stedsnr" v="825815" />
	</node>
	<node lat="63.77793611318885" lon="8.879958334254129" id="-33712">
		<tag k="name" v="Uttian" />
		<tag k="place" v="hamlet" />
		<tag k="ssr:stedsnr" v="825717" />
	</node>
	<node lat="63.75730000236605" lon="8.824022226322787" id="-33713">
		<tag k="fixme" v="consider place=hamlet" />
		<tag k="name" v="Dyrvik" />
		<tag k="place" v="farm" />
		<tag k="ssr:stedsnr" v="829693" />
	</node>
	<node lat="63.70827222325898" lon="8.808522229038497" id="-33726">
		<tag k="name" v="Sommarro" />
		<tag k="place" v="farm" />
		<tag k="ssr:stedsnr" v="923734" />
	</node>
	<node lat="63.772952778877944" lon="8.707388890107755" id="-33730">
		<tag k="historic" v="shieling" />
		<tag k="name" v="Innersetra" />
		<tag k="place" v="isolated_dwelling" />
		<tag k="ssr:stedsnr" v="923893" />
	</node>
	<node lat="63.77692777924863" lon="8.687652777814368" id="-33731">
		<tag k="name" v="Vollen" />
		<tag k="place" v="farm" />
		<tag k="ssr:stedsnr" v="923895" />
	</node>
	<node lat="63.66525041651368" lon="8.50193630410209" id="-33769">
		<tag k="name" v="Fillingsneset" />
		<tag k="place" v="hamlet" />
		<tag k="ssr:stedsnr" v="924977" />
	</node>
	<node lat="63.76963055317511" lon="8.73032222859514" id="-33798">
		<tag k="name" v="Bårdsenget" />
		<tag k="place" v="farm" />
		<tag k="ssr:stedsnr" v="863854" />
	</node>
	<node lat="63.70155832931389" lon="8.82851666300007" id="-33800">
		<tag k="name" v="Nordhammaren" />
		<tag k="place" v="farm" />
		<tag k="ssr:stedsnr" v="875965" />
	</node>
	<node lat="63.70224456070028" lon="8.494093854755725" id="-33804">
		<tag k="name" v="Veita" />
		<tag k="place" v="farm" />
		<tag k="ssr:stedsnr" v="882710" />
	</node>
	<node lat="63.717930556525076" lon="8.839508325383305" id="-33835">
		<tag k="name" v="Sørrabben" />
		<tag k="place" v="farm" />
		<tag k="ssr:stedsnr" v="886200" />
	</node>
	<node lat="63.7252333346968" lon="8.833177781587855" id="-33857">
		<tag k="name" v="Sistranda" />
		<tag k="place" v="village" />
		<tag k="ssr:stedsnr" v="923720" />
	</node>
	<node lat="63.67950251219285" lon="8.65952945371857" id="-33862">
		<tag k="name" v="Grubba" />
		<tag k="place" v="farm" />
		<tag k="ssr:stedsnr" v="923791" />
	</node>
	<node lat="63.800488888643095" lon="8.700388890727973" id="-33863">
		<tag k="name" v="Båtvika" />
		<tag k="place" v="farm" />
		<tag k="ssr:stedsnr" v="923917" />
	</node>
	<node lat="63.706039880624324" lon="8.510369317391651" id="-33868">
		<tag k="fixme" v="consider place=hamlet" />
		<tag k="name" v="Sørskaget" />
		<tag k="place" v="farm" />
		<tag k="ssr:stedsnr" v="924809" />
	</node>
	<node lat="63.68647499815415" lon="8.459138892257876" id="-33885">
		<tag k="name" v="Setra" />
		<tag k="place" v="farm" />
		<tag k="ssr:stedsnr" v="946084" />
	</node>
	<node lat="63.674672222402776" lon="8.608652777971171" id="-33887">
		<tag k="name" v="Gangarvika" />
		<tag k="place" v="isolated_dwelling" />
		<tag k="ssr:stedsnr" v="946199" />
	</node>
	<node lat="63.764624998361256" lon="8.804452777642174" id="-33893">
		<tag k="name" v="Klauva" />
		<tag k="place" v="farm" />
		<tag k="ssr:stedsnr" v="946735" />
	</node>
	<node lat="63.72754722389577" lon="8.827913880195172" id="-33900">
		<tag k="name" v="Grønnskaget" />
		<tag k="place" v="quarter" />
		<tag k="ssr:stedsnr" v="947579" />
	</node>
	<node lat="63.975380552837315" lon="9.075866662786764" id="-33905">
		<tag k="amenity" v="school" />
		<tag k="name" v="Sørburøy skole" />
		<tag k="ssr:stedsnr" v="950608" />
	</node>
	<node lat="63.789713966789364" lon="8.801428595546776" id="-33906">
		<tag k="name" v="Stølan" />
		<tag k="place" v="farm" />
		<tag k="ssr:stedsnr" v="970543" />
	</node>
	<node lat="63.679824998173935" lon="8.434491666720733" id="-33938">
		<tag k="name" v="Myra" />
		<tag k="place" v="farm" />
		<tag k="ssr:stedsnr" v="13774" />
	</node>
	<node lat="63.79583888856199" lon="8.719452774585555" id="-33939">
		<tag k="name" v="Garnvika" />
		<tag k="place" v="farm" />
		<tag k="ssr:stedsnr" v="13780" />
	</node>
	<node lat="63.77333611366879" lon="8.75137500281292" id="-33943">
		<tag k="alt_name" v="Fagerstrand" />
		<tag k="name" v="Fagerstranda" />
		<tag k="place" v="farm" />
		<tag k="ssr:stedsnr" v="13846" />
	</node>
	<node lat="63.74538889063495" lon="8.68533054798696" id="-33945">
		<tag k="name" v="Norddal" />
		<tag k="place" v="farm" />
		<tag k="ssr:stedsnr" v="13851" />
	</node>
	<node lat="63.75821503939475" lon="8.705100263316137" id="-33952">
		<tag k="fixme" v="consider place=hamlet" />
		<tag k="name" v="Klubben" />
		<tag k="place" v="farm" />
		<tag k="ssr:stedsnr" v="14877" />
	</node>
	<node lat="63.67983333599688" lon="8.640072212087745" id="-33975">
		<tag k="fixme" v="consider place=hamlet" />
		<tag k="name" v="Skarpnes" />
		<tag k="place" v="farm" />
		<tag k="ssr:stedsnr" v="31759" />
	</node>
	<node lat="63.68255277692381" lon="8.653311106785047" id="-33988">
		<tag k="name" v="Dalvikern" />
		<tag k="place" v="farm" />
		<tag k="ssr:stedsnr" v="36193" />
	</node>
	<node lat="63.77876666578695" lon="8.689616666023785" id="-33998">
		<tag k="name" v="Vollen" />
		<tag k="place" v="farm" />
		<tag k="ssr:stedsnr" v="35595" />
	</node>
	<node lat="63.787955554104286" lon="8.73650834216872" id="-34016">
		<tag k="name" v="Sørvika" />
		<tag k="place" v="farm" />
		<tag k="ssr:stedsnr" v="36496" />
	</node>
	<node lat="63.72346666809421" lon="8.837391660635644" id="-34021">
		<tag k="name" v="Nordrabben" />
		<tag k="place" v="farm" />
		<tag k="ssr:stedsnr" v="36540" />
	</node>
	<node lat="63.708075003130766" lon="8.550883335326468" id="-34031">
		<tag k="name" v="Kåvika" />
		<tag k="place" v="farm" />
		<tag k="ssr:stedsnr" v="36846" />
	</node>
	<node lat="63.77778610692253" lon="8.686080565328187" id="-34049">
		<tag k="name" v="Stranda" />
		<tag k="place" v="farm" />
		<tag k="ssr:stedsnr" v="73877" />
	</node>
	<node lat="63.718741316360465" lon="8.595041811391594" id="-34076">
		<tag k="fixme" v="consider place=hamlet" />
		<tag k="name" v="Espneset" />
		<tag k="place" v="farm" />
		<tag k="ssr:stedsnr" v="74825" />
	</node>
	<node lat="63.76851111264491" lon="8.816774990545325" id="-34088">
		<tag k="fixme" v="consider place=hamlet" />
		<tag k="name" v="Neset" />
		<tag k="place" v="farm" />
		<tag k="ssr:stedsnr" v="74849" />
	</node>
	<node lat="63.782183329655" lon="8.691266661583128" id="-34091">
		<tag k="name" v="Trøa" />
		<tag k="place" v="farm" />
		<tag k="ssr:stedsnr" v="74925" />
	</node>
	<node lat="64.17037500388574" lon="9.407208336159231" id="-34094">
		<tag k="fixme" v="consider place=suburb, village or hamlet" />
		<tag k="name" v="Halten" />
		<tag k="place" v="quarter" />
		<tag k="ssr:stedsnr" v="74933" />
	</node>
	<node lat="63.771611111581706" lon="8.677291670969439" id="-34105">
		<tag k="name" v="Aune" />
		<tag k="place" v="locality" />
		<tag k="ssr:stedsnr" v="74886" />
	</node>
	<node lat="63.788144446708415" lon="8.716755563515026" id="-34140">
		<tag k="name" v="Oshøgda" />
		<tag k="place" v="farm" />
		<tag k="ssr:stedsnr" v="96532" />
	</node>
	<node lat="63.773922218902186" lon="8.710975005538737" id="-34142">
		<tag k="historic" v="shieling" />
		<tag k="name" v="Setra" />
		<tag k="place" v="isolated_dwelling" />
		<tag k="ssr:stedsnr" v="96538" />
	</node>
	<node lat="63.674988891593394" lon="8.594958339622377" id="-34159">
		<tag k="name" v="Haugen" />
		<tag k="place" v="farm" />
		<tag k="ssr:stedsnr" v="97225" />
	</node>
	<node lat="63.755446240116164" lon="8.690077058028042" id="-34169">
		<tag k="name" v="Djupveita" />
		<tag k="place" v="farm" />
		<tag k="ssr:stedsnr" v="97180" />
	</node>
	<node lat="63.66426666472933" lon="8.311438882580852" id="-34171">
		<tag k="name" v="Stabben" />
		<tag k="place" v="farm" />
		<tag k="ssr:stedsnr" v="97399" />
	</node>
	<node lat="63.78042777833131" lon="8.814302770568162" id="-34172">
		<tag k="fixme" v="consider place=hamlet" />
		<tag k="name" v="Hellesvika" />
		<tag k="place" v="farm" />
		<tag k="ssr:stedsnr" v="97340" />
	</node>
	<node lat="63.845419441397" lon="8.455691656571966" id="-34182">
		<tag k="amenity" v="school" />
		<tag k="name" v="Sula skole" />
		<tag k="ssr:stedsnr" v="101633" />
	</node>
	<node lat="63.66715277766877" lon="8.363177775728284" id="-34184">
		<tag k="name" v="Håvika" />
		<tag k="place" v="farm" />
		<tag k="ssr:stedsnr" v="111999" />
	</node>
	<node lat="63.70451111552624" lon="8.828883341780578" id="-34185">
		<tag k="name" v="Hammarvika trygdeboliger 2" />
		<tag k="place" v="neighbourhood" />
		<tag k="ssr:stedsnr" v="117718" />
	</node>
	<node lat="63.70286388632295" lon="8.5780749930241" id="-34214">
		<tag k="name" v="Heimervik" />
		<tag k="place" v="farm" />
		<tag k="ssr:stedsnr" v="134841" />
	</node>
	<node lat="63.78340000194683" lon="8.709208336285478" id="-34220">
		<tag k="name" v="Skjelvika" />
		<tag k="place" v="farm" />
		<tag k="ssr:stedsnr" v="134931" />
	</node>
	<node lat="63.69134167104528" lon="8.691591673627856" id="-34222">
		<tag k="alt_name" v="Øvre Skardsvåg;Skardsvåg, øvre" />
		<tag k="name" v="Øverskardsvågen" />
		<tag k="place" v="farm" />
		<tag k="ssr:stedsnr" v="134778" />
	</node>
</osm>
