<?xml version="1.0" encoding="UTF-8"?>
<<<<<<< HEAD
<osm version="0.6" generator="osmapis">
	<node lat="63.77327499686044" lon="8.313308324685984" id="-32597">
		<tag k="landuse" v="harbour" />
		<tag k="name" v="Kya uthavn" />
		<tag k="seamark:type" v="harbour" />
		<tag k="ssr:stedsnr" v="239718" />
	</node>
	<node lat="63.7460222179397" lon="8.711558335957434" id="-32797">
		<tag k="highway" v="path" />
		<tag k="name" v="Brattstien" />
		<tag k="ssr:stedsnr" v="157602" />
	</node>
	<node lat="63.768683333172085" lon="8.820288882234156" id="-32942">
		<tag k="man_made" v="quay" />
		<tag k="name" v="Neset kai" />
		<tag k="place" v="locality" />
		<tag k="ssr:stedsnr" v="278769" />
	</node>
	<node lat="63.73626710632704" lon="8.836866329679541" id="-33055">
		<tag k="alt_name" v="Hamn" />
=======
<osm generator="osmapis" version="0.6">
	<node id="-730720" lat="63.7281750045" lon="8.80333611859">
		<tag k="ford" v="yes" />
		<tag k="name" v="Vadet" />
		<tag k="place" v="locality" />
		<tag k="ssr:stedsnr" v="522598" />
	</node>
	<node id="-729728" lat="63.723888893" lon="8.83969722381">
		<tag k="man_made" v="quay" />
		<tag k="name" v="Rabbakaia" />
		<tag k="place" v="locality" />
		<tag k="ssr:stedsnr" v="36147" />
	</node>
	<node id="-730558" lat="63.7283138846" lon="8.66770556391">
		<tag k="highway" v="path" />
		<tag k="name" v="Brattstien" />
		<tag k="ssr:stedsnr" v="400502" />
	</node>
	<node id="-729297" lat="63.695982482" lon="8.81427839976">
		<tag k="landuse" v="harbour" />
		<tag k="name" v="Hammarvika gjestehavn" />
		<tag k="seamark:type" v="harbour" />
		<tag k="ssr:stedsnr" v="892726" />
	</node>
	<node id="-731306" lat="63.7970694474" lon="8.798158343">
		<tag k="landuse" v="harbour" />
		<tag k="name" v="Svellingen gjestehavn" />
		<tag k="seamark:type" v="harbour" />
		<tag k="ssr:stedsnr" v="831697" />
	</node>
	<node id="-730969" lat="63.7699527752" lon="8.85351112004">
		<tag k="leisure" v="marina" />
		<tag k="name" v="Båthamna" />
		<tag k="ssr:stedsnr" v="642642" />
	</node>
	<node id="-729208" lat="63.7590083329" lon="8.82579722197">
		<tag k="alt_name" v="Hamn" />
		<tag k="landuse" v="harbour" />
		<tag k="name" v="Dyrvika uthavn" />
		<tag k="seamark:type" v="harbour" />
		<tag k="ssr:stedsnr" v="299728" />
	</node>
	<node id="-728788" lat="63.7362671063" lon="8.83686632968">
		<tag k="alt_name" v="Hamn" />
		<tag k="landuse" v="harbour" />
		<tag k="name" v="Sistranda gjestehavn" />
		<tag k="seamark:type" v="harbour" />
		<tag k="ssr:stedsnr" v="345718" />
	</node>
	<node id="-730581" lat="63.6670527821" lon="8.31601944204">
		<tag k="landuse" v="harbour" />
		<tag k="name" v="Stabben gjestehavn" />
		<tag k="seamark:type" v="harbour" />
		<tag k="ssr:stedsnr" v="406729" />
	</node>
	<node id="-728756" lat="63.8451722248" lon="8.46218333038">
>>>>>>> e1d4bc35ff8a6074a6f2e91616a996b547c36f15
		<tag k="landuse" v="harbour" />
		<tag k="name" v="Sula gjestehavn" />
		<tag k="seamark:type" v="harbour" />
		<tag k="ssr:stedsnr" v="466774" />
	</node>
<<<<<<< HEAD
	<node lat="63.728313884562894" lon="8.667705563913726" id="-33080">
		<tag k="highway" v="path" />
		<tag k="name" v="Brattstien" />
		<tag k="ssr:stedsnr" v="400502" />
	</node>
	<node lat="63.84517222479746" lon="8.462183330384757" id="-33161">
=======
	<node id="-729137" lat="63.686980554" lon="8.76317500976">
		<tag k="landuse" v="harbour" />
		<tag k="name" v="Flatval uthavn" />
		<tag k="seamark:type" v="harbour" />
		<tag k="ssr:stedsnr" v="602726" />
	</node>
	<node id="-731434" lat="63.699254386" lon="8.75672993882">
		<tag k="aeroway" v="aerodrome" />
		<tag k="name" v="Frøya  flyplass" />
		<tag k="ssr:stedsnr" v="1073123" />
	</node>
	<node id="-730734" lat="64.1711444481" lon="9.40508056031">
>>>>>>> e1d4bc35ff8a6074a6f2e91616a996b547c36f15
		<tag k="landuse" v="harbour" />
		<tag k="name" v="Sula gjestehavn" />
		<tag k="seamark:type" v="harbour" />
		<tag k="ssr:stedsnr" v="466774" />
	</node>
<<<<<<< HEAD
	<node lat="63.99821388555681" lon="9.176324992643131" id="-33291">
		<tag k="landuse" v="harbour" />
		<tag k="name" v="Sauøya gjestehavn" />
		<tag k="seamark:type" v="harbour" />
		<tag k="ssr:stedsnr" v="527743" />
	</node>
	<node lat="64.17114444809151" lon="9.40508056030769" id="-33294">
		<tag k="landuse" v="harbour" />
		<tag k="name" v="Halten uthavn" />
		<tag k="seamark:type" v="harbour" />
		<tag k="ssr:stedsnr" v="542708" />
	</node>
	<node lat="63.69598248204957" lon="8.814278399759315" id="-33525">
=======
	<node id="-728331" lat="63.7732749969" lon="8.31330832469">
		<tag k="landuse" v="harbour" />
		<tag k="name" v="Kya uthavn" />
		<tag k="seamark:type" v="harbour" />
		<tag k="ssr:stedsnr" v="239718" />
	</node>
	<node id="-730346" lat="63.7617277758" lon="8.67399443978">
		<tag k="man_made" v="quay" />
		<tag k="name" v="Leirvikhamna" />
		<tag k="place" v="locality" />
		<tag k="ssr:stedsnr" v="339188" />
	</node>
	<node id="-730086" lat="63.7460222179" lon="8.71155833596">
		<tag k="highway" v="path" />
		<tag k="name" v="Brattstien" />
		<tag k="ssr:stedsnr" v="157602" />
	</node>
	<node id="-731153" lat="63.8680361105" lon="8.66666388765">
>>>>>>> e1d4bc35ff8a6074a6f2e91616a996b547c36f15
		<tag k="landuse" v="harbour" />
		<tag k="name" v="Mausund uthavn" />
		<tag k="seamark:type" v="harbour" />
		<tag k="ssr:stedsnr" v="770724" />
	</node>
	<node id="-728516" lat="63.7686833332" lon="8.82028888223">
		<tag k="man_made" v="quay" />
		<tag k="name" v="Neset kai" />
		<tag k="place" v="locality" />
		<tag k="ssr:stedsnr" v="278769" />
	</node>
<<<<<<< HEAD
	<node lat="63.723888892951386" lon="8.839697223810491" id="-34000">
		<tag k="man_made" v="quay" />
		<tag k="name" v="Rabbakaia" />
		<tag k="place" v="locality" />
		<tag k="ssr:stedsnr" v="36147" />
=======
	<node id="-730726" lat="63.9982138856" lon="9.17632499264">
		<tag k="landuse" v="harbour" />
		<tag k="name" v="Sauøya gjestehavn" />
		<tag k="seamark:type" v="harbour" />
		<tag k="ssr:stedsnr" v="527743" />
>>>>>>> e1d4bc35ff8a6074a6f2e91616a996b547c36f15
	</node>
</osm>
