<?xml version="1.0" encoding="UTF-8"?>
<osm version="0.6" generator="osmapis">
	<node lat="63.718255551836045" lon="8.737955549619784" id="-34761">
		<tag k="name" v="Grasvatnet" />
		<tag k="natural" v="water" />
		<tag k="ssr:stedsnr" v="13703" />
	</node>
	<node lat="63.70313610717038" lon="8.688872216358241" id="-34767">
		<tag k="name" v="Stutvatnet" />
		<tag k="natural" v="water" />
		<tag k="ssr:stedsnr" v="13808" />
	</node>
	<node lat="63.75522778120565" lon="8.769044436181781" id="-34769">
		<tag k="name" v="Piltjønna" />
		<tag k="natural" v="water" />
		<tag k="ssr:stedsnr" v="13811" />
	</node>
	<node lat="63.759024997346735" lon="8.79135276961233" id="-34772">
		<tag k="name" v="Vågavatnet" />
		<tag k="natural" v="water" />
		<tag k="ssr:stedsnr" v="13824" />
	</node>
	<node lat="63.70699166280522" lon="8.604249990744064" id="-34802">
		<tag k="name" v="Marentjønna" />
		<tag k="natural" v="water" />
		<tag k="ssr:stedsnr" v="35166" />
	</node>
	<node lat="63.790424998964056" lon="8.724511119375967" id="-34803">
		<tag k="name" v="Holbekken" />
		<tag k="ssr:stedsnr" v="35603" />
		<tag k="waterway" v="stream" />
	</node>
	<node lat="63.78244722022089" lon="8.636383332155486" id="-34814">
		<tag k="name" v="Ottersøla" />
		<tag k="natural" v="water" />
		<tag k="ssr:stedsnr" v="36282" />
	</node>
	<node lat="63.720111107092684" lon="8.745550005492943" id="-34823">
		<tag k="name" v="Grasvasstjønna" />
		<tag k="natural" v="water" />
		<tag k="ssr:stedsnr" v="36606" />
	</node>
	<node lat="63.71854166657191" lon="8.700019454080078" id="-34851">
		<tag k="name" v="Holmvasstjønna" />
		<tag k="natural" v="water" />
		<tag k="ssr:stedsnr" v="74813" />
	</node>
	<node lat="63.685855559670685" lon="8.404952786766778" id="-34858">
		<tag k="name" v="Steinkarvatnet" />
		<tag k="natural" v="water" />
		<tag k="ssr:stedsnr" v="74768" />
	</node>
</osm>
