<?xml version="1.0" encoding="UTF-8"?>
<osm generator="osmapis" version="0.6">
	<node id="-792576" lat="70.5377083397" lon="22.4738721679">
		<tag k="name" v="Kipparfjordvatnet" />
		<tag k="natural" v="water" />
		<tag k="old_name" v="Klipparfjordvatnet" />
		<tag k="ssr:stedsnr" v="565308" />
		<tag k="water" v="lake" />
	</node>
	<node id="-792063" lat="70.5791888873" lon="22.2986055083">
		<tag k="name" v="Øvre Lilleelvvatnet" />
		<tag k="natural" v="water" />
		<tag k="ssr:stedsnr" v="395858" />
	</node>
	<node id="-792057" lat="70.5887472231" lon="22.0032638591">
		<tag k="name" v="Sjørbisen" />
		<tag k="natural" v="waterfall" />
		<tag k="ssr:stedsnr" v="394665" />
	</node>
	<node id="-792044" lat="70.5740916636" lon="22.2159610718">
		<tag k="name" v="Saltkeilvatnet" />
		<tag k="natural" v="water" />
		<tag k="ssr:stedsnr" v="394230" />
	</node>
	<node id="-792997" lat="70.5242777758" lon="22.3267332919">
		<tag k="name" v="Slettnesvatnet" />
		<tag k="natural" v="water" />
		<tag k="ssr:stedsnr" v="930312" />
	</node>
	<node id="-793050" lat="70.6111777792" lon="22.3014471739">
		<tag k="name" v="Fossvatnet" />
		<tag k="natural" v="water" />
		<tag k="ssr:stedsnr" v="941838" />
	</node>
	<node id="-792535" lat="70.640266672" lon="22.5272999589">
		<tag k="name" v="Gammegårdvatnet" />
		<tag k="natural" v="water" />
		<tag k="ssr:stedsnr" v="505697" />
	</node>
	<node id="-793046" lat="70.6007249998" lon="22.0514777349">
		<tag k="name" v="Elvefossen" />
		<tag k="natural" v="waterfall" />
		<tag k="ssr:stedsnr" v="940660" />
	</node>
	<node id="-793040" lat="70.4902027797" lon="22.1465916287">
		<tag k="name" v="Mevikvatnet" />
		<tag k="natural" v="water" />
		<tag k="ssr:stedsnr" v="940331" />
	</node>
	<node id="-792523" lat="70.5700388897" lon="22.6360999595">
		<tag k="name" v="Mebotnvatnan" />
		<tag k="natural" v="water" />
		<tag k="ssr:stedsnr" v="505351" />
		<tag k="water" v="lake" />
	</node>
	<node id="-792521" lat="70.5170499967" lon="22.3176416283">
		<tag k="name" v="Reinelvvatnet" />
		<tag k="natural" v="water" />
		<tag k="ssr:stedsnr" v="505316" />
	</node>
	<node id="-793031" lat="70.6209861092" lon="22.2212444138">
		<tag k="name" v="Lomvatnet" />
		<tag k="natural" v="water" />
		<tag k="ssr:stedsnr" v="940198" />
	</node>
	<node id="-792481" lat="70.5117555529" lon="22.1548721901">
		<tag k="name" v="Risdalelva" />
		<tag k="ssr:stedsnr" v="455428" />
		<tag k="waterway" v="stream" />
	</node>
	<node id="-792636" lat="70.5948666718" lon="22.3147721838">
		<tag k="name" v="Storelva" />
		<tag k="ssr:stedsnr" v="577849" />
		<tag k="waterway" v="river" />
	</node>
	<node id="-792510" lat="70.3417833318" lon="22.4466055107">
		<tag k="name" v="Urdelva" />
		<tag k="ssr:stedsnr" v="505154" />
		<tag k="waterway" v="stream" />
	</node>
	<node id="-793018" lat="70.6270250005" lon="22.1077471933">
		<tag k="name" v="Sandfjordvatnet" />
		<tag k="natural" v="water" />
		<tag k="ssr:stedsnr" v="930708" />
	</node>
	<node id="-793008" lat="70.7113555547" lon="22.7897999458">
		<tag k="name" v="Sandvikvatnet" />
		<tag k="natural" v="water" />
		<tag k="ssr:stedsnr" v="930650" />
	</node>
	<node id="-792495" lat="70.5913027834" lon="22.4310999448">
		<tag k="name" v="Nedre Korsvatnet" />
		<tag k="natural" v="water" />
		<tag k="ssr:stedsnr" v="456854" />
		<tag k="water" v="lake" />
	</node>
	<node id="-793006" lat="70.6982833395" lon="22.8272221581">
		<tag k="name" v="Koppardalvatnet" />
		<tag k="natural" v="water" />
		<tag k="ssr:stedsnr" v="930518" />
	</node>
	<node id="-793004" lat="70.6203166643" lon="22.6053527346">
		<tag k="name" v="Krokvatnan" />
		<tag k="natural" v="water" />
		<tag k="ssr:stedsnr" v="930379" />
		<tag k="water" v="lake" />
	</node>
	<node id="-793002" lat="70.5909305576" lon="22.4302527251">
		<tag k="name" v="Korsvatnan" />
		<tag k="natural" v="water" />
		<tag k="ssr:stedsnr" v="930373" />
		<tag k="water" v="lake" />
	</node>
	<node id="-793001" lat="70.5753861149" lon="22.5334638513">
		<tag k="name" v="Mattisvatnet - Máhtosnjunjávri" />
		<tag k="name:no" v="Mattisvatnet" />
		<tag k="name:se" v="Máhtosnjunjávri" />
		<tag k="natural" v="water" />
		<tag k="old_name:se" v="Mattusnjunjavri" />
		<tag k="ssr:stedsnr" v="930354" />
		<tag k="water" v="lake" />
	</node>
	<node id="-791973" lat="70.6164083346" lon="22.0734360676">
		<tag k="name" v="Årvikvatnan" />
		<tag k="natural" v="water" />
		<tag k="ssr:stedsnr" v="384719" />
		<tag k="water" v="lake" />
	</node>
	<node id="-791970" lat="70.6722611123" lon="22.8193332763">
		<tag k="name" v="Skáiddejávri" />
		<tag k="name:se" v="Skáiddejávri" />
		<tag k="natural" v="water" />
		<tag k="old_name:se" v="Skaidijavri" />
		<tag k="ssr:stedsnr" v="384465" />
	</node>
	<node id="-791969" lat="70.6103111084" lon="22.5576332933">
		<tag k="name" v="Brunsidevatnet" />
		<tag k="natural" v="water" />
		<tag k="ssr:stedsnr" v="384383" />
	</node>
	<node id="-791968" lat="70.5911166698" lon="22.6909777273">
		<tag k="name" v="Midtertrinnvatnan" />
		<tag k="natural" v="water" />
		<tag k="ssr:stedsnr" v="384373" />
		<tag k="water" v="lake" />
	</node>
	<node id="-791967" lat="70.6030138937" lon="22.3583777455">
		<tag k="name" v="Dalvatnan" />
		<tag k="natural" v="water" />
		<tag k="ssr:stedsnr" v="384368" />
	</node>
	<node id="-791963" lat="70.5154777786" lon="22.3035582846">
		<tag k="name" v="Reinelva" />
		<tag k="ssr:stedsnr" v="384328" />
		<tag k="waterway" v="stream" />
	</node>
	<node id="-792470" lat="70.6269194476" lon="22.0491360615">
		<tag k="name" v="Fossbakkelva" />
		<tag k="ssr:stedsnr" v="450048" />
		<tag k="waterway" v="stream" />
	</node>
	<node id="-791955" lat="70.5564055531" lon="22.2934443913">
		<tag k="name" v="Hasfjordvatnet" />
		<tag k="natural" v="water" />
		<tag k="ssr:stedsnr" v="383352" />
		<tag k="water" v="lake" />
	</node>
	<node id="-792466" lat="70.6291777769" lon="22.0550110623">
		<tag k="name" v="Fossbakkvatnan" />
		<tag k="natural" v="water" />
		<tag k="ssr:stedsnr" v="445707" />
		<tag k="water" v="lake" />
	</node>
	<node id="-791952" lat="70.4955611155" lon="22.182536081">
		<tag k="name" v="Kvannlivatnet" />
		<tag k="natural" v="water" />
		<tag k="ssr:stedsnr" v="383327" />
	</node>
	<node id="-792463" lat="70.6635305532" lon="22.3960360536">
		<tag k="name" v="Ytterelvvatnan" />
		<tag k="natural" v="water" />
		<tag k="ssr:stedsnr" v="445690" />
		<tag k="water" v="lake" />
	</node>
	<node id="-792974" lat="70.6157472237" lon="22.1971943901">
		<tag k="name" v="Sarsetvatnet" />
		<tag k="natural" v="water" />
		<tag k="ssr:stedsnr" v="880188" />
	</node>
	<node id="-792457" lat="70.6294166651" lon="22.8723332821">
		<tag k="name" v="Rundvatnet" />
		<tag k="natural" v="water" />
		<tag k="ssr:stedsnr" v="445451" />
	</node>
	<node id="-792455" lat="70.6070749966" lon="22.3172805145">
		<tag k="fixme" v="multiple name tags, choose one and add the other to alt_name" />
		<tag k="name" v="Høyvikvatnet;Nedre Høyvikvatn" />
		<tag k="natural" v="water" />
		<tag k="ssr:stedsnr" v="445389" />
	</node>
	<node id="-792454" lat="70.5901083362" lon="22.3784249617">
		<tag k="fixme" v="multiple name tags, choose one and add the other to alt_name" />
		<tag k="name" v="Øvre Eggevatn;Store Eggevatnet" />
		<tag k="natural" v="water" />
		<tag k="old_name" v="Eggevatnet, store" />
		<tag k="ssr:stedsnr" v="445368" />
		<tag k="water" v="lake" />
	</node>
	<node id="-792453" lat="70.5957194486" lon="22.7517610695">
		<tag k="name" v="Steinfjellvatnan" />
		<tag k="natural" v="water" />
		<tag k="ssr:stedsnr" v="445365" />
		<tag k="water" v="lake" />
	</node>
	<node id="-792450" lat="70.5190388888" lon="22.23444997">
		<tag k="name" v="Barbosstadvatnet" />
		<tag k="natural" v="water" />
		<tag k="ssr:stedsnr" v="445322" />
	</node>
	<node id="-792961" lat="70.5995361102" lon="22.379158298">
		<tag k="name" v="Smalvatnet" />
		<tag k="natural" v="water" />
		<tag k="ssr:stedsnr" v="870371" />
	</node>
	<node id="-792960" lat="70.5603277814" lon="22.557138835">
		<tag k="name" v="Rundvatnet" />
		<tag k="natural" v="water" />
		<tag k="ssr:stedsnr" v="870359" />
	</node>
	<node id="-792959" lat="70.5663027804" lon="22.7067416106">
		<tag k="name" v="Stillheten" />
		<tag k="natural" v="water" />
		<tag k="ssr:stedsnr" v="870356" />
	</node>
	<node id="-792446" lat="70.6067222221" lon="22.7352305129">
		<tag k="name" v="Storelva" />
		<tag k="ssr:stedsnr" v="445024" />
		<tag k="waterway" v="river" />
	</node>
	<node id="-792955" lat="70.6423083374" lon="22.7695027259">
		<tag k="name" v="Seinesbuktvatnet" />
		<tag k="natural" v="water" />
		<tag k="ssr:stedsnr" v="869712" />
	</node>
	<node id="-792442" lat="70.603969444" lon="22.0145444109">
		<tag k="fixme" v="multiple name tags, choose one and add the other to alt_name" />
		<tag k="name" v="Andottvatnet;Markeilvatnet" />
		<tag k="natural" v="water" />
		<tag k="ssr:stedsnr" v="444698" />
		<tag k="water" v="lake" />
	</node>
	<node id="-792441" lat="70.6020000024" lon="22.0769416232">
		<tag k="name" v="Breivikvatnan" />
		<tag k="natural" v="water" />
		<tag k="ssr:stedsnr" v="444697" />
	</node>
	<node id="-792439" lat="70.5506083332" lon="22.543849958">
		<tag k="name" v="Glitterspeilvatnet" />
		<tag k="natural" v="water" />
		<tag k="ssr:stedsnr" v="444310" />
	</node>
	<node id="-792947" lat="70.5225722241" lon="22.3817082837">
		<tag k="name" v="Djupvikvatnet" />
		<tag k="natural" v="water" />
		<tag k="ssr:stedsnr" v="869323" />
		<tag k="water" v="lake" />
	</node>
	<node id="-791922" lat="70.6025916699" lon="22.0419944076">
		<tag k="fixme" v="multiple name tags, choose one and add the other to alt_name" />
		<tag k="name" v="Finnkonvatnet;Lillevatnet" />
		<tag k="natural" v="water" />
		<tag k="ssr:stedsnr" v="323710" />
	</node>
	<node id="-792979" lat="70.4962111151" lon="22.1382333001">
		<tag k="name" v="Stangnesvatnet" />
		<tag k="natural" v="water" />
		<tag k="ssr:stedsnr" v="880356" />
	</node>
	<node id="-791918" lat="70.6758027809" lon="22.7828888352">
		<tag k="fixme" v="multiple name tags, choose one and add the other to alt_name" />
		<tag k="name" v="Auskarelva;Oskarelva" />
		<tag k="ssr:stedsnr" v="323660" />
		<tag k="waterway" v="stream" />
	</node>
	<node id="-791917" lat="70.6982222256" lon="22.7923388475">
		<tag k="name" v="Makkvikvatnan" />
		<tag k="natural" v="water" />
		<tag k="ssr:stedsnr" v="323658" />
		<tag k="water" v="lake" />
	</node>
	<node id="-791911" lat="70.6155305587" lon="22.8654277307">
		<tag k="name" v="Langvatnet" />
		<tag k="natural" v="water" />
		<tag k="ssr:stedsnr" v="323414" />
		<tag k="water" v="lake" />
	</node>
	<node id="-791910" lat="70.6108805546" lon="22.7575749508">
		<tag k="name" v="Løvelva" />
		<tag k="ssr:stedsnr" v="323373" />
		<tag k="waterway" v="river" />
	</node>
	<node id="-792933" lat="70.3376750032" lon="22.5385443946">
		<tag k="name" v="Fuglelvvatnan" />
		<tag k="natural" v="water" />
		<tag k="ssr:stedsnr" v="870140" />
		<tag k="water" v="lake" />
	</node>
	<node id="-792418" lat="70.6545333341" lon="22.855169373">
		<tag k="name" v="Geitvatnan" />
		<tag k="natural" v="water" />
		<tag k="ssr:stedsnr" v="263460" />
		<tag k="water" v="lake" />
	</node>
	<node id="-791903" lat="70.5637277846" lon="22.630824938">
		<tag k="name" v="Tomasvatnet" />
		<tag k="natural" v="water" />
		<tag k="ssr:stedsnr" v="323330" />
	</node>
	<node id="-792414" lat="70.5648305547" lon="22.3248055172">
		<tag k="name" v="Steinvatnet" />
		<tag k="natural" v="water" />
		<tag k="ssr:stedsnr" v="263371" />
		<tag k="water" v="lake" />
	</node>
	<node id="-792409" lat="70.3071833385" lon="22.4929555063">
		<tag k="name" v="Sørdalsvatnet" />
		<tag k="natural" v="water" />
		<tag k="ssr:stedsnr" v="263139" />
	</node>
	<node id="-791893" lat="70.3316666693" lon="22.4329610648">
		<tag k="name" v="Vagnedalsvatnet" />
		<tag k="natural" v="water" />
		<tag k="ssr:stedsnr" v="323145" />
	</node>
	<node id="-791887" lat="70.4983638902" lon="22.2140138476">
		<tag k="name" v="Korsvikvatnet" />
		<tag k="natural" v="water" />
		<tag k="ssr:stedsnr" v="322253" />
		<tag k="water" v="lake" />
	</node>
	<node id="-792908" lat="70.6217583344" lon="22.2503249622">
		<tag k="name" v="Stuorasjohka" />
		<tag k="name:se" v="Stuorasjohka" />
		<tag k="ssr:stedsnr" v="819215" />
		<tag k="waterway" v="stream" />
	</node>
	<node id="-792392" lat="70.4927888879" lon="22.2096082827">
		<tag k="name" v="Lomvatnet" />
		<tag k="natural" v="water" />
		<tag k="ssr:stedsnr" v="261320" />
	</node>
	<node id="-792389" lat="70.341955555" lon="22.4842860458">
		<tag k="name" v="Loddejohka" />
		<tag k="name:se" v="Loddejohka" />
		<tag k="old_name:se" v="Låddejåkka" />
		<tag k="ssr:stedsnr" v="242886" />
		<tag k="waterway" v="stream" />
	</node>
	<node id="-791875" lat="70.683011116" lon="22.7832721566">
		<tag k="name" v="Klemmetelva" />
		<tag k="ssr:stedsnr" v="276567" />
		<tag k="waterway" v="river" />
	</node>
	<node id="-791874" lat="70.5745583303" lon="22.2722249625">
		<tag k="name" v="Bikkokajavatnet" />
		<tag k="natural" v="water" />
		<tag k="ssr:stedsnr" v="274842" />
	</node>
	<node id="-791872" lat="70.5791666644" lon="22.2672305058">
		<tag k="name" v="Kollarvatnet" />
		<tag k="natural" v="water" />
		<tag k="ssr:stedsnr" v="274810" />
	</node>
	<node id="-792895" lat="70.6347500018" lon="22.8444221572">
		<tag k="name" v="Seljevatnet" />
		<tag k="natural" v="water" />
		<tag k="ssr:stedsnr" v="809450" />
	</node>
	<node id="-792893" lat="70.6177666671" lon="22.6562527296">
		<tag k="name" v="Djupvatnet" />
		<tag k="natural" v="water" />
		<tag k="ssr:stedsnr" v="809391" />
	</node>
	<node id="-792891" lat="70.5884999971" lon="22.5746082867">
		<tag k="name" v="Jutulvatnet" />
		<tag k="natural" v="water" />
		<tag k="ssr:stedsnr" v="809377" />
	</node>
	<node id="-791865" lat="70.5828444441" lon="22.2517999612">
		<tag k="name" v="Løkelva" />
		<tag k="ssr:stedsnr" v="273255" />
		<tag k="waterway" v="stream" />
	</node>
	<node id="-791863" lat="70.6237111081" lon="22.2598194046">
		<tag k="name" v="Storvatnet" />
		<tag k="natural" v="water" />
		<tag k="ssr:stedsnr" v="273209" />
	</node>
	<node id="-792372" lat="70.5621638935" lon="22.3362360547">
		<tag k="name" v="Moldvatnet" />
		<tag k="natural" v="water" />
		<tag k="ssr:stedsnr" v="213811" />
	</node>
	<node id="-792880" lat="70.3483222208" lon="22.5205804959">
		<tag k="name" v="Purkvatnet - Nuortavuonjávri" />
		<tag k="name:no" v="Purkvatnet" />
		<tag k="name:se" v="Nuortavuonjávri" />
		<tag k="natural" v="water" />
		<tag k="old_name:se" v="Nuortovuonjavri" />
		<tag k="ssr:stedsnr" v="809147" />
	</node>
	<node id="-792876" lat="70.5379138913" lon="22.5910999593">
		<tag k="name" v="Flågvatnan" />
		<tag k="natural" v="water" />
		<tag k="ssr:stedsnr" v="808316" />
		<tag k="water" v="lake" />
	</node>
	<node id="-792875" lat="70.5475583328" lon="22.331452745">
		<tag k="name" v="Sørvatnet" />
		<tag k="natural" v="water" />
		<tag k="ssr:stedsnr" v="808302" />
	</node>
	<node id="-792362" lat="70.6288166659" lon="22.1390444118">
		<tag k="name" v="Sandelva" />
		<tag k="ssr:stedsnr" v="212223" />
		<tag k="waterway" v="river" />
	</node>
	<node id="-792350" lat="70.6467277814" lon="22.508311055">
		<tag k="name" v="Storvatnet" />
		<tag k="natural" v="water" />
		<tag k="ssr:stedsnr" v="202700" />
	</node>
	<node id="-792349" lat="70.6290611098" lon="22.7638249509">
		<tag k="name" v="Børravatnet" />
		<tag k="natural" v="water" />
		<tag k="ssr:stedsnr" v="202694" />
		<tag k="water" v="lake" />
	</node>
	<node id="-792343" lat="70.6712416663" lon="22.5462888268">
		<tag k="name" v="Langkeilvatnet" />
		<tag k="natural" v="water" />
		<tag k="ssr:stedsnr" v="202678" />
	</node>
	<node id="-792336" lat="70.6099861159" lon="22.7980665985">
		<tag k="name" v="Fjellstuvatnet" />
		<tag k="natural" v="water" />
		<tag k="ssr:stedsnr" v="202373" />
	</node>
	<node id="-792847" lat="70.606155558" lon="22.3299471669">
		<tag k="name" v="Øvre Høyvikvatnet" />
		<tag k="natural" v="water" />
		<tag k="ssr:stedsnr" v="759827" />
	</node>
	<node id="-792962" lat="70.6172888894" lon="22.7796832683">
		<tag k="name" v="Moltebærvatnan" />
		<tag k="natural" v="water" />
		<tag k="ssr:stedsnr" v="870388" />
		<tag k="water" v="lake" />
	</node>
	<node id="-792329" lat="70.5735833389" lon="22.6003499552">
		<tag k="name" v="Langvatnet" />
		<tag k="natural" v="water" />
		<tag k="ssr:stedsnr" v="202329" />
	</node>
	<node id="-792328" lat="70.5715916727" lon="22.626780503">
		<tag k="name" v="Øvrevatnet" />
		<tag k="natural" v="water" />
		<tag k="ssr:stedsnr" v="202328" />
	</node>
	<node id="-792325" lat="70.5374083336" lon="22.3533305181">
		<tag k="name" v="Steinvatnet" />
		<tag k="natural" v="water" />
		<tag k="ssr:stedsnr" v="202318" />
	</node>
	<node id="-792324" lat="70.5275111141" lon="22.4203221704">
		<tag k="name" v="Meltefjordvatnet" />
		<tag k="natural" v="water" />
		<tag k="ssr:stedsnr" v="202301" />
		<tag k="water" v="lake" />
	</node>
	<node id="-792829" lat="70.6334611114" lon="22.2464027429">
		<tag k="name" v="Nordsandfjordvatnet" />
		<tag k="natural" v="water" />
		<tag k="ssr:stedsnr" v="758262" />
		<tag k="water" v="lake" />
	</node>
	<node id="-791934" lat="70.6254138872" lon="22.2375055255">
		<tag k="name" v="Sarsetvatnan" />
		<tag k="natural" v="water" />
		<tag k="ssr:stedsnr" v="333226" />
		<tag k="water" v="lake" />
	</node>
	<node id="-792300" lat="70.6659861096" lon="22.3889860762">
		<tag k="name" v="Ytterelva" />
		<tag k="ssr:stedsnr" v="155662" />
		<tag k="waterway" v="river" />
	</node>
	<node id="-792811" lat="70.6085000054" lon="22.635974944">
		<tag k="name" v="Kristianvatnet" />
		<tag k="natural" v="water" />
		<tag k="ssr:stedsnr" v="748369" />
	</node>
	<node id="-792291" lat="70.583872225" lon="22.2894971765">
		<tag k="name" v="Lilleelva" />
		<tag k="ssr:stedsnr" v="152862" />
		<tag k="waterway" v="stream" />
	</node>
	<node id="-792289" lat="70.6080388951" lon="22.2952527246">
		<tag k="name" v="Fossen - Gorži" />
		<tag k="name:no" v="Fossen" />
		<tag k="name:se" v="Gorži" />
		<tag k="natural" v="waterfall" />
		<tag k="ssr:stedsnr" v="152839" />
	</node>
	<node id="-792793" lat="70.3052166698" lon="22.5386832825">
		<tag k="name" v="Finndalsvatnet - Goahtejávri" />
		<tag k="name:no" v="Finndalsvatnet" />
		<tag k="name:se" v="Goahtejávri" />
		<tag k="natural" v="water" />
		<tag k="old_name:se" v="Goattejavri" />
		<tag k="ssr:stedsnr" v="747090" />
		<tag k="water" v="lake" />
	</node>
	<node id="-792789" lat="70.5216277805" lon="22.2305249694">
		<tag k="name" v="Barbostavatnan" />
		<tag k="natural" v="water" />
		<tag k="ssr:stedsnr" v="720890" />
		<tag k="water" v="lake" />
	</node>
	<node id="-792784" lat="70.5069138883" lon="22.5714971824">
		<tag k="name" v="Urelva" />
		<tag k="ssr:stedsnr" v="701724" />
		<tag k="waterway" v="stream" />
	</node>
	<node id="-792269" lat="70.6233916709" lon="22.1786860862">
		<tag k="name" v="Kvanlivatnan" />
		<tag k="natural" v="water" />
		<tag k="ssr:stedsnr" v="151242" />
	</node>
	<node id="-792695" lat="70.6154055574" lon="22.1930444031">
		<tag k="name" v="Høgdevatnet" />
		<tag k="natural" v="water" />
		<tag k="ssr:stedsnr" v="636203" />
	</node>
	<node id="-792258" lat="70.6295416695" lon="22.1749971935">
		<tag k="alt_name" v="Stupavatna" />
		<tag k="name" v="Stupanvatnan" />
		<tag k="natural" v="water" />
		<tag k="ssr:stedsnr" v="141667" />
		<tag k="water" v="lake" />
	</node>
	<node id="-792769" lat="70.5132611131" lon="22.1872749464">
		<tag k="name" v="Risdalvatnet" />
		<tag k="natural" v="water" />
		<tag k="ssr:stedsnr" v="697466" />
	</node>
	<node id="-792256" lat="70.6319361153" lon="22.4926582743">
		<tag k="name" v="Brennhaugvatnet" />
		<tag k="natural" v="water" />
		<tag k="ssr:stedsnr" v="141662" />
	</node>
	<node id="-792251" lat="70.5925222259" lon="22.3409416325">
		<tag k="fixme" v="multiple name tags, choose one and add the other to alt_name" />
		<tag k="name" v="Nedre Eggevatn;Lille Eggevatnet" />
		<tag k="natural" v="water" />
		<tag k="old_name" v="Eggevatnet, l" />
		<tag k="ssr:stedsnr" v="141357" />
		<tag k="water" v="lake" />
	</node>
	<node id="-793033" lat="70.5736750002" lon="22.2313749599">
		<tag k="name" v="Mikalhaugvatnet" />
		<tag k="natural" v="water" />
		<tag k="ssr:stedsnr" v="940240" />
	</node>
	<node id="-792756" lat="70.5825749965" lon="22.595163847">
		<tag k="name" v="Gjertrudvatnet - Gearddošjávri" />
		<tag k="name:no" v="Gjertrudvatnet" />
		<tag k="name:se" v="Gearddošjávri" />
		<tag k="natural" v="water" />
		<tag k="old_name:se" v="Gærdušjavri" />
		<tag k="ssr:stedsnr" v="688374" />
		<tag k="water" v="lake" />
	</node>
	<node id="-792750" lat="70.5319833341" lon="22.199044404">
		<tag k="name" v="Svartbergvatnet" />
		<tag k="natural" v="water" />
		<tag k="ssr:stedsnr" v="687739" />
	</node>
	<node id="-792747" lat="70.6319861171" lon="22.8055193801">
		<tag k="name" v="Storbuktvatnet" />
		<tag k="natural" v="water" />
		<tag k="ssr:stedsnr" v="687683" />
		<tag k="water" v="lake" />
	</node>
	<node id="-792234" lat="70.5510666668" lon="22.6721416205">
		<tag k="name" v="Oterelva" />
		<tag k="ssr:stedsnr" v="140329" />
		<tag k="waterway" v="stream" />
	</node>
	<node id="-792231" lat="70.5547888938" lon="22.5249610725">
		<tag k="name" v="Ensomheten" />
		<tag k="natural" v="water" />
		<tag k="ssr:stedsnr" v="140358" />
		<tag k="water" v="lake" />
	</node>
	<node id="-792945" lat="70.5207888956" lon="22.5690999387">
		<tag k="name" v="Karkefjordvatnet" />
		<tag k="natural" v="water" />
		<tag k="ssr:stedsnr" v="869312" />
	</node>
	<node id="-792227" lat="70.2841250012" lon="22.5576138244">
		<tag k="name" v="Storbuktvatnet" />
		<tag k="natural" v="water" />
		<tag k="ssr:stedsnr" v="140090" />
	</node>
	<node id="-792734" lat="70.6152750014" lon="22.6724804903">
		<tag k="name" v="Kanonvatnet" />
		<tag k="natural" v="water" />
		<tag k="ssr:stedsnr" v="687376" />
	</node>
	<node id="-792731" lat="70.6052000021" lon="22.8135304924">
		<tag k="name" v="Storfjellvatnet" />
		<tag k="natural" v="water" />
		<tag k="ssr:stedsnr" v="687351" />
	</node>
	<node id="-792730" lat="70.5580222253" lon="22.5792888308">
		<tag k="name" v="Offervatnet - Sieidejávri" />
		<tag k="name:no" v="Offervatnet" />
		<tag k="name:se" v="Sieidejávri" />
		<tag k="natural" v="water" />
		<tag k="old_name:se" v="Sieidejavri" />
		<tag k="ssr:stedsnr" v="687350" />
		<tag k="water" v="lake" />
	</node>
	<node id="-792727" lat="70.5134333356" lon="22.5240777361">
		<tag k="name" v="Grunnfjordvatnet" />
		<tag k="natural" v="water" />
		<tag k="ssr:stedsnr" v="687284" />
	</node>
	<node id="-792207" lat="70.5137416697" lon="22.1473305113">
		<tag k="name" v="Laksevatnet" />
		<tag k="natural" v="water" />
		<tag k="ssr:stedsnr" v="91481" />
	</node>
	<node id="-792717" lat="70.5360694512" lon="22.6058221599">
		<tag k="name" v="Fosselva" />
		<tag k="ssr:stedsnr" v="640706" />
		<tag k="waterway" v="stream" />
	</node>
	<node id="-792711" lat="70.6095722229" lon="22.3373527429">
		<tag k="name" v="Middagshaugvatnet" />
		<tag k="natural" v="water" />
		<tag k="ssr:stedsnr" v="637835" />
	</node>
	<node id="-792190" lat="70.6408500013" lon="22.8120749405">
		<tag k="name" v="Storbuktelva" />
		<tag k="ssr:stedsnr" v="81704" />
		<tag k="waterway" v="stream" />
	</node>
	<node id="-792189" lat="70.6446555575" lon="22.3971138314">
		<tag k="name" v="Innerelva" />
		<tag k="ssr:stedsnr" v="81687" />
		<tag k="waterway" v="stream" />
	</node>
	<node id="-792183" lat="70.6203194459" lon="22.4186444029">
		<tag k="name" v="Ofjordvatnet" />
		<tag k="natural" v="water" />
		<tag k="ssr:stedsnr" v="81398" />
		<tag k="water" v="lake" />
	</node>
	<node id="-792180" lat="70.5999916712" lon="22.6312249379">
		<tag k="name" v="Jarlvatnet" />
		<tag k="natural" v="water" />
		<tag k="ssr:stedsnr" v="81374" />
	</node>
	<node id="-792179" lat="70.5980694479" lon="22.604027732">
		<tag k="name" v="Vegvatnet" />
		<tag k="natural" v="water" />
		<tag k="ssr:stedsnr" v="81373" />
	</node>
	<node id="-792690" lat="70.5576000037" lon="22.3347471809">
		<tag k="name" v="Nyvatnan" />
		<tag k="natural" v="water" />
		<tag k="ssr:stedsnr" v="627366" />
		<tag k="water" v="lake" />
	</node>
	<node id="-792689" lat="70.5653861101" lon="22.7352249323">
		<tag k="name" v="Nordbotnvatnet" />
		<tag k="natural" v="water" />
		<tag k="ssr:stedsnr" v="627358" />
	</node>
	<node id="-792687" lat="70.5512916658" lon="22.7134166229">
		<tag k="name" v="Nordbotnvatnet" />
		<tag k="natural" v="water" />
		<tag k="ssr:stedsnr" v="627033" />
	</node>
	<node id="-792168" lat="70.6631000055" lon="22.4956943881">
		<tag k="name" v="Kanonvatnet" />
		<tag k="natural" v="water" />
		<tag k="ssr:stedsnr" v="80668" />
		<tag k="water" v="lake" />
	</node>
	<node id="-792678" lat="70.6647277808" lon="22.5481805009">
		<tag k="name" v="Sandvatnet" />
		<tag k="natural" v="water" />
		<tag k="ssr:stedsnr" v="626693" />
	</node>
	<node id="-792164" lat="70.5622111096" lon="22.5683610643">
		<tag k="name" v="Mikkelvatnet" />
		<tag k="natural" v="water" />
		<tag k="ssr:stedsnr" v="80337" />
	</node>
	<node id="-792163" lat="70.5468111084" lon="22.5747360628">
		<tag k="name" v="Tverrelva" />
		<tag k="ssr:stedsnr" v="80325" />
		<tag k="waterway" v="stream" />
	</node>
	<node id="-792162" lat="70.5524333333" lon="22.2765805145">
		<tag k="name" v="Flågavatnan" />
		<tag k="natural" v="water" />
		<tag k="ssr:stedsnr" v="80318" />
		<tag k="water" v="lake" />
	</node>
	<node id="-792848" lat="70.5802194434" lon="22.2963805033">
		<tag k="name" v="Nedre Lilleelvvatnet" />
		<tag k="natural" v="water" />
		<tag k="ssr:stedsnr" v="759829" />
	</node>
	<node id="-792158" lat="70.2974361145" lon="22.5814582717">
		<tag k="name" v="Muotki" />
		<tag k="name:se" v="Muotki" />
		<tag k="natural" v="strait" />
		<tag k="ssr:stedsnr" v="80117" />
	</node>
	<node id="-792668" lat="70.658919451" lon="22.8398110485">
		<tag k="name" v="Kalvelandvatnet" />
		<tag k="natural" v="water" />
		<tag k="ssr:stedsnr" v="626474" />
	</node>
	<node id="-792666" lat="70.6249416711" lon="22.5060832891">
		<tag k="name" v="Bollevatnet" />
		<tag k="natural" v="water" />
		<tag k="ssr:stedsnr" v="626399" />
	</node>
	<node id="-792152" lat="70.5306250002" lon="22.1952555237">
		<tag k="name" v="Tungebakkvatnan" />
		<tag k="natural" v="water" />
		<tag k="ssr:stedsnr" v="53897" />
		<tag k="water" v="lake" />
	</node>
	<node id="-792662" lat="70.5090527822" lon="22.5714249374">
		<tag k="name" v="Stavsnesvatnet" />
		<tag k="natural" v="water" />
		<tag k="ssr:stedsnr" v="626327" />
	</node>
	<node id="-792656" lat="70.341955555" lon="22.4842860458">
		<tag k="name" v="Loddejohka" />
		<tag k="name:se" v="Loddejohka" />
		<tag k="old_name:se" v="Låddejåkka" />
		<tag k="ssr:stedsnr" v="626176" />
		<tag k="waterway" v="stream" />
	</node>
	<node id="-792654" lat="70.2929000014" lon="22.5838638385">
		<tag k="name" v="Finnvatnet - Sárajávri" />
		<tag k="name:no" v="Finnvatnet" />
		<tag k="name:se" v="Sárajávri" />
		<tag k="natural" v="water" />
		<tag k="old_name:se" v="Sarajavri" />
		<tag k="ssr:stedsnr" v="626143" />
	</node>
	<node id="-792140" lat="70.6020611105" lon="22.369449961">
		<tag k="name" v="Øvre Dalvatnet" />
		<tag k="natural" v="water" />
		<tag k="ssr:stedsnr" v="31829" />
		<tag k="water" v="lake" />
	</node>
	<node id="-792139" lat="70.6030333305" lon="22.3594777338">
		<tag k="name" v="Nedre Dalvatnet" />
		<tag k="natural" v="water" />
		<tag k="ssr:stedsnr" v="31827" />
		<tag k="water" v="lake" />
	</node>
	<node id="-792138" lat="70.5981083324" lon="22.3129610724">
		<tag k="name" v="Trollelva" />
		<tag k="ssr:stedsnr" v="31824" />
		<tag k="waterway" v="stream" />
	</node>
	<node id="-792649" lat="70.676355555" lon="22.5219277394">
		<tag k="name" v="Langkeilvatnet" />
		<tag k="natural" v="water" />
		<tag k="ssr:stedsnr" v="597830" />
	</node>
	<node id="-792136" lat="70.5632388924" lon="22.299358289">
		<tag k="name" v="Øvre Hasfjordvatnet" />
		<tag k="natural" v="water" />
		<tag k="ssr:stedsnr" v="31781" />
		<tag k="water" v="lake" />
	</node>
	<node id="-792127" lat="70.6330111118" lon="22.0590527461">
		<tag k="name" v="Øvervatnet" />
		<tag k="natural" v="water" />
		<tag k="ssr:stedsnr" v="30405" />
		<tag k="water" v="lake" />
	</node>
	<node id="-792637" lat="70.6009472193" lon="22.3309527365">
		<tag k="name" v="Mollvatnet" />
		<tag k="natural" v="water" />
		<tag k="ssr:stedsnr" v="577857" />
	</node>
	<node id="-792124" lat="70.5307694468" lon="22.182986082">
		<tag k="name" v="Kvithellvatnan" />
		<tag k="natural" v="water" />
		<tag k="ssr:stedsnr" v="30274" />
		<tag k="water" v="lake" />
	</node>
	<node id="-791902" lat="70.565308336" lon="22.5773332726">
		<tag k="name" v="Gjertrudvatnelva" />
		<tag k="ssr:stedsnr" v="323324" />
		<tag k="waterway" v="stream" />
	</node>
	<node id="-792624" lat="70.6288916668" lon="22.0547277331">
		<tag k="name" v="Nervatnet" />
		<tag k="natural" v="water" />
		<tag k="ssr:stedsnr" v="576406" />
		<tag k="water" v="lake" />
	</node>
	<node id="-792108" lat="70.6365944435" lon="22.5492388281">
		<tag k="name" v="Storvatnet" />
		<tag k="natural" v="water" />
		<tag k="ssr:stedsnr" v="20709" />
		<tag k="water" v="lake" />
	</node>
	<node id="-792106" lat="70.6277999994" lon="22.3438888309">
		<tag k="name" v="Sørbuktvatnet" />
		<tag k="natural" v="water" />
		<tag k="ssr:stedsnr" v="20704" />
	</node>
	<node id="-792105" lat="70.6308777796" lon="22.6461860546">
		<tag k="name" v="Næringvatnet" />
		<tag k="natural" v="water" />
		<tag k="ssr:stedsnr" v="20700" />
	</node>
	<node id="-792098" lat="70.69067778" lon="22.7864999348">
		<tag k="name" v="Pompervikvatnet" />
		<tag k="natural" v="water" />
		<tag k="ssr:stedsnr" v="20664" />
	</node>
	<node id="-792095" lat="70.6023666636" lon="22.767444395">
		<tag k="name" v="Storelvvatnet" />
		<tag k="natural" v="water" />
		<tag k="ssr:stedsnr" v="20368" />
	</node>
	<node id="-792093" lat="70.6218500033" lon="22.5483110713">
		<tag k="name" v="Geitvatnet" />
		<tag k="natural" v="water" />
		<tag k="ssr:stedsnr" v="20355" />
	</node>
	<node id="-792603" lat="70.6221555611" lon="22.4008999495">
		<tag k="name" v="Lille-Ofjordvatnet" />
		<tag k="natural" v="water" />
		<tag k="ssr:stedsnr" v="566681" />
	</node>
	<node id="-792590" lat="70.3146500049" lon="22.5171860586">
		<tag k="name" v="Nervatnet" />
		<tag k="natural" v="water" />
		<tag k="ssr:stedsnr" v="566122" />
	</node>
	<node id="-792589" lat="70.5010444421" lon="22.2146944074">
		<tag k="name" v="Korsvikvatnet" />
		<tag k="natural" v="water" />
		<tag k="ssr:stedsnr" v="565766" />
	</node>
	<node id="-792075" lat="70.4863500028" lon="22.1758833017">
		<tag k="alt_name" v="Bårselva;Bårdselva" />
		<tag k="name" v="Bårselv" />
		<tag k="ssr:stedsnr" v="19285" />
		<tag k="waterway" v="stream" />
	</node>
	<node id="-792583" lat="70.641986115" lon="22.4111888369">
		<tag k="name" v="Innerelvvatnet" />
		<tag k="natural" v="water" />
		<tag k="ssr:stedsnr" v="565670" />
	</node>
	<node id="-792069" lat="70.5695583344" lon="22.2896610652">
		<tag k="name" v="Lensmannsfjellvatnet" />
		<tag k="natural" v="water" />
		<tag k="ssr:stedsnr" v="881853" />
	</node>
	<node id="-792066" lat="70.5507250036" lon="22.6036721581">
		<tag k="name" v="Lakselva" />
		<tag k="ssr:stedsnr" v="398696" />
		<tag k="waterway" v="stream" />
	</node>
</osm>
