<?xml version="1.0" encoding="UTF-8"?>
<osm generator="osmapis" version="0.6">
	<node id="-792574" lat="70.5450611116" lon="22.2995749589">
		<tag k="name" v="Hasfjorddalen" />
		<tag k="natural" v="valley" />
		<tag k="place" v="locality" />
		<tag k="ssr:stedsnr" v="565302" />
	</node>
	<node id="-792171" lat="70.5395194462" lon="22.1847638596">
		<tag k="name" v="Svartberget" />
		<tag k="natural" v="hill" />
		<tag k="place" v="locality" />
		<tag k="ssr:stedsnr" v="80736" />
	</node>
	<node id="-792060" lat="70.5338416655" lon="22.2837582743">
		<tag k="name" v="Pederlia" />
		<tag k="natural" v="slope" />
		<tag k="place" v="locality" />
		<tag k="ssr:stedsnr" v="395828" />
	</node>
	<node id="-792058" lat="70.5923527745" lon="22.0866082954">
		<tag k="name" v="Slompeskaret" />
		<tag k="natural" v="valley" />
		<tag k="place" v="locality" />
		<tag k="ssr:stedsnr" v="394669" />
	</node>
	<node id="-792055" lat="70.480936109" lon="22.1301360628">
		<tag k="name" v="Rislia" />
		<tag k="natural" v="slope" />
		<tag k="place" v="locality" />
		<tag k="ssr:stedsnr" v="394499" />
	</node>
	<node id="-792566" lat="70.6587027807" lon="22.3738193874">
		<tag k="fixme" v="consider natural=peak for the most distinct mountains in the district" />
		<tag k="name" v="Revåsen" />
		<tag k="natural" v="hill" />
		<tag k="place" v="locality" />
		<tag k="ssr:stedsnr" v="519550" />
	</node>
	<node id="-792062" lat="70.5756972263" lon="22.2696805187">
		<tag k="name" v="Dalhøgda" />
		<tag k="natural" v="hill" />
		<tag k="place" v="locality" />
		<tag k="ssr:stedsnr" v="395859" />
	</node>
	<node id="-792046" lat="70.4891861132" lon="22.1430443953">
		<tag k="name" v="Skoddhaugen" />
		<tag k="natural" v="hill" />
		<tag k="place" v="locality" />
		<tag k="ssr:stedsnr" v="394317" />
	</node>
	<node id="-792045" lat="70.4910611126" lon="22.1558971768">
		<tag k="name" v="Smørbergan" />
		<tag k="natural" v="hill" />
		<tag k="place" v="locality" />
		<tag k="ssr:stedsnr" v="394315" />
	</node>
	<node id="-792043" lat="70.5290777781" lon="22.3078499607">
		<tag k="name" v="Lillebotndalen" />
		<tag k="natural" v="valley" />
		<tag k="place" v="locality" />
		<tag k="ssr:stedsnr" v="391215" />
	</node>
	<node id="-792554" lat="70.4751666706" lon="22.1202694169">
		<tag k="name" v="Breilia" />
		<tag k="natural" v="slope" />
		<tag k="place" v="locality" />
		<tag k="ssr:stedsnr" v="515486" />
	</node>
	<node id="-792487" lat="70.5945194471" lon="22.0495888425">
		<tag k="name" v="Båtberget" />
		<tag k="natural" v="hill" />
		<tag k="place" v="locality" />
		<tag k="ssr:stedsnr" v="455649" />
	</node>
	<node id="-791974" lat="70.6067166723" lon="21.9910110691">
		<tag k="name" v="Prestberget" />
		<tag k="natural" v="hill" />
		<tag k="place" v="locality" />
		<tag k="ssr:stedsnr" v="384718" />
	</node>
	<node id="-792827" lat="70.348563894" lon="22.6527638416">
		<tag k="name" v="Geaccevággi" />
		<tag k="name:se" v="Geaccevággi" />
		<tag k="natural" v="valley" />
		<tag k="old_name:se" v="Gæzzevaggi" />
		<tag k="place" v="locality" />
		<tag k="ssr:stedsnr" v="754359" />
	</node>
	<node id="-793056" lat="70.5915500032" lon="21.9903777419">
		<tag k="fixme" v="consider natural=peak for the most distinct mountains in the district" />
		<tag k="name" v="Skjåberget" />
		<tag k="natural" v="hill" />
		<tag k="place" v="locality" />
		<tag k="ssr:stedsnr" v="966879" />
	</node>
	<node id="-792542" lat="70.282391691" lon="22.529982263">
		<tag k="fixme" v="consider natural=peak for the most distinct mountains in the district" />
		<tag k="name" v="Storbuktfjellet - Stuoravárri" />
		<tag k="name:no" v="Storbuktfjellet" />
		<tag k="name:se" v="Stuoravárri" />
		<tag k="natural" v="hill" />
		<tag k="old_name:se" v="Stuorravárri;Stuoravarri" />
		<tag k="place" v="locality" />
		<tag k="ssr:stedsnr" v="510097" />
	</node>
	<node id="-793049" lat="70.5911333357" lon="22.3062777371">
		<tag k="name" v="Lillelia" />
		<tag k="natural" v="slope" />
		<tag k="place" v="locality" />
		<tag k="ssr:stedsnr" v="941833" />
	</node>
	<node id="-791972" lat="70.6068083354" lon="22.153586062">
		<tag k="name" v="Klubben" />
		<tag k="natural" v="hill" />
		<tag k="place" v="locality" />
		<tag k="ssr:stedsnr" v="384716" />
	</node>
	<node id="-792534" lat="70.6456055589" lon="22.2328499597">
		<tag k="alt_name" v="Båtberget" />
		<tag k="name" v="Båtberga" />
		<tag k="natural" v="hill" />
		<tag k="place" v="locality" />
		<tag k="ssr:stedsnr" v="505689" />
	</node>
	<node id="-793045" lat="70.4769722234" lon="22.1399194009">
		<tag k="name" v="Sandvikhøyden" />
		<tag k="natural" v="hill" />
		<tag k="place" v="locality" />
		<tag k="ssr:stedsnr" v="940472" />
	</node>
	<node id="-792532" lat="70.6876361151" lon="22.5547805013">
		<tag k="fixme" v="consider natural=peak for the most distinct mountains in the district" />
		<tag k="name" v="Oksfjellet" />
		<tag k="natural" v="hill" />
		<tag k="place" v="locality" />
		<tag k="ssr:stedsnr" v="505648" />
	</node>
	<node id="-792528" lat="70.6555250024" lon="21.9635944089">
		<tag k="fixme" v="consider natural=peak for the most distinct mountains in the district" />
		<tag k="name" v="Fuglen" />
		<tag k="natural" v="hill" />
		<tag k="place" v="locality" />
		<tag k="ssr:stedsnr" v="505560" />
	</node>
	<node id="-792526" lat="70.6054138934" lon="22.3383166214">
		<tag k="name" v="Høyvikdalen" />
		<tag k="natural" v="valley" />
		<tag k="place" v="locality" />
		<tag k="ssr:stedsnr" v="505380" />
	</node>
	<node id="-792525" lat="70.6264583381" lon="22.6817027353">
		<tag k="name" v="Sommarberget" />
		<tag k="natural" v="hill" />
		<tag k="place" v="locality" />
		<tag k="ssr:stedsnr" v="505369" />
	</node>
	<node id="-792524" lat="70.6000055542" lon="22.5514610469">
		<tag k="fixme" v="consider natural=peak for the most distinct mountains in the district" />
		<tag k="name" v="Gaska Borggastat" />
		<tag k="name:se" v="Gaska Borggastat" />
		<tag k="natural" v="hill" />
		<tag k="old_name:se" v="Bårgastat, gaska;Borgastakk" />
		<tag k="place" v="locality" />
		<tag k="ssr:stedsnr" v="505359" />
	</node>
	<node id="-793035" lat="70.5337833355" lon="22.1867305239">
		<tag k="fixme" v="consider natural=peak for the most distinct mountains in the district" />
		<tag k="name" v="Tungebakken" />
		<tag k="natural" v="hill" />
		<tag k="place" v="locality" />
		<tag k="ssr:stedsnr" v="940263" />
	</node>
	<node id="-793034" lat="70.531466667" lon="22.2237277453">
		<tag k="fixme" v="consider natural=peak for the most distinct mountains in the district" />
		<tag k="name" v="Bårvikaksla" />
		<tag k="natural" v="hill" />
		<tag k="place" v="locality" />
		<tag k="ssr:stedsnr" v="940255" />
	</node>
	<node id="-792823" lat="70.7181000036" lon="22.693699958">
		<tag k="name" v="Storgalten - Gálta" />
		<tag k="name:no" v="Storgalten" />
		<tag k="name:se" v="Gálta" />
		<tag k="natural" v="hill" />
		<tag k="old_name:se" v="Galta" />
		<tag k="place" v="locality" />
		<tag k="ssr:stedsnr" v="748756" />
	</node>
	<node id="-793032" lat="70.6382555567" lon="22.1736916141">
		<tag k="alt_name" v="Stupa" />
		<tag k="name" v="Stupan" />
		<tag k="natural" v="cliff" />
		<tag k="ssr:stedsnr" v="940229" />
	</node>
	<node id="-792519" lat="70.5255416681" lon="22.5866832905">
		<tag k="name" v="Karkefjordbotn" />
		<tag k="natural" v="valley" />
		<tag k="place" v="locality" />
		<tag k="ssr:stedsnr" v="505308" />
	</node>
	<node id="-792517" lat="70.4923583306" lon="22.1975944063">
		<tag k="name" v="Korsvikdalen" />
		<tag k="natural" v="valley" />
		<tag k="place" v="locality" />
		<tag k="ssr:stedsnr" v="505294" />
	</node>
	<node id="-792994" lat="70.51519167" lon="22.6117277234">
		<tag k="name" v="Fuglberget" />
		<tag k="natural" v="hill" />
		<tag k="place" v="locality" />
		<tag k="ssr:stedsnr" v="930296" />
	</node>
	<node id="-793027" lat="70.7435527808" lon="22.7507138366">
		<tag k="fixme" v="consider natural=peak for the most distinct mountains in the district" />
		<tag k="name" v="Stålet" />
		<tag k="natural" v="hill" />
		<tag k="place" v="locality" />
		<tag k="ssr:stedsnr" v="930781" />
	</node>
	<node id="-793025" lat="70.5029027807" lon="22.176305513">
		<tag k="fixme" v="consider natural=peak for the most distinct mountains in the district" />
		<tag k="name" v="Navaren" />
		<tag k="natural" v="hill" />
		<tag k="place" v="locality" />
		<tag k="ssr:stedsnr" v="930778" />
	</node>
	<node id="-792346" lat="70.654444443" lon="22.4572110727">
		<tag k="fixme" v="consider natural=peak for the most distinct mountains in the district" />
		<tag k="name" v="Kanonfjellet" />
		<tag k="natural" v="hill" />
		<tag k="place" v="locality" />
		<tag k="ssr:stedsnr" v="202689" />
	</node>
	<node id="-792511" lat="70.3393555597" lon="22.601122157">
		<tag k="name" v="Smalfjorddalen - Geaccevággi" />
		<tag k="name:no" v="Smalfjorddalen" />
		<tag k="name:se" v="Geaccevággi" />
		<tag k="natural" v="valley" />
		<tag k="old_name:se" v="Gæzzevaggi" />
		<tag k="place" v="locality" />
		<tag k="ssr:stedsnr" v="505158" />
	</node>
	<node id="-792509" lat="70.3093083352" lon="22.5252055074">
		<tag k="fixme" v="consider natural=peak for the most distinct mountains in the district" />
		<tag k="loc_name:se" v="Boazočohkka" />
		<tag k="name" v="Finndalstoppen" />
		<tag k="name:no" v="Finndalstoppen" />
		<tag k="natural" v="hill" />
		<tag k="place" v="locality" />
		<tag k="ssr:stedsnr" v="505131" />
	</node>
	<node id="-793020" lat="70.6438138938" lon="22.0206527477">
		<tag k="fixme" v="consider natural=peak for the most distinct mountains in the district" />
		<tag k="name" v="Skjeppe" />
		<tag k="natural" v="hill" />
		<tag k="place" v="locality" />
		<tag k="ssr:stedsnr" v="930726" />
	</node>
	<node id="-793017" lat="70.6401194455" lon="22.6792721569">
		<tag k="fixme" v="multiple name tags, choose one and add the other to alt_name" />
		<tag k="name" v="Risdalen;Seljedal" />
		<tag k="natural" v="valley" />
		<tag k="place" v="locality" />
		<tag k="ssr:stedsnr" v="930701" />
	</node>
	<node id="-793013" lat="70.6462027831" lon="22.7931860481">
		<tag k="alt_name" v="Ørneberget" />
		<tag k="name" v="Ørnberget" />
		<tag k="natural" v="hill" />
		<tag k="place" v="locality" />
		<tag k="ssr:stedsnr" v="930675" />
	</node>
	<node id="-792499" lat="70.5245611095" lon="22.1381860821">
		<tag k="fixme" v="consider natural=peak for the most distinct mountains in the district" />
		<tag k="name" v="Nordre Knotten" />
		<tag k="natural" v="hill" />
		<tag k="place" v="locality" />
		<tag k="ssr:stedsnr" v="459373" />
	</node>
	<node id="-793010" lat="70.6708888906" lon="22.5065277275">
		<tag k="fixme" v="consider natural=peak for the most distinct mountains in the district" />
		<tag k="name" v="Hammaren" />
		<tag k="natural" v="hill" />
		<tag k="ssr:stedsnr" v="930663" />
	</node>
	<node id="-792904" lat="70.6352361165" lon="22.5065388384">
		<tag k="name" v="Brennhaugan" />
		<tag k="natural" v="hill" />
		<tag k="place" v="locality" />
		<tag k="ssr:stedsnr" v="809704" />
	</node>
	<node id="-792494" lat="70.5996777786" lon="22.3182138579">
		<tag k="name" v="Haugen" />
		<tag k="natural" v="hill" />
		<tag k="place" v="locality" />
		<tag k="ssr:stedsnr" v="456843" />
	</node>
	<node id="-792493" lat="70.60849167" lon="22.3367944129">
		<tag k="name" v="Middagshaugen" />
		<tag k="natural" v="hill" />
		<tag k="place" v="locality" />
		<tag k="ssr:stedsnr" v="456840" />
	</node>
	<node id="-792492" lat="70.5905916698" lon="22.3144388389">
		<tag k="name" v="Storlia" />
		<tag k="natural" v="slope" />
		<tag k="place" v="locality" />
		<tag k="ssr:stedsnr" v="456835" />
	</node>
	<node id="-792491" lat="70.5912111159" lon="22.3091944037">
		<tag k="name" v="Lillevatnbakken" />
		<tag k="natural" v="slope" />
		<tag k="place" v="locality" />
		<tag k="ssr:stedsnr" v="456832" />
	</node>
	<node id="-792490" lat="70.535219448" lon="22.2857555169">
		<tag k="name" v="Vassbergan" />
		<tag k="natural" v="hill" />
		<tag k="place" v="locality" />
		<tag k="ssr:stedsnr" v="456808" />
	</node>
	<node id="-792489" lat="70.5580888857" lon="22.3145082996">
		<tag k="name" v="Storhaugen" />
		<tag k="natural" v="hill" />
		<tag k="place" v="locality" />
		<tag k="ssr:stedsnr" v="456804" />
	</node>
	<node id="-793000" lat="70.5425777836" lon="22.4379971751">
		<tag k="name" v="Meltefjorddalen" />
		<tag k="natural" v="valley" />
		<tag k="place" v="locality" />
		<tag k="ssr:stedsnr" v="930339" />
	</node>
	<node id="-791975" lat="70.667283337" lon="21.9749249654">
		<tag k="fixme" v="consider natural=peak for the most distinct mountains in the district" />
		<tag k="name" v="Trombolken" />
		<tag k="natural" v="hill" />
		<tag k="place" v="locality" />
		<tag k="ssr:stedsnr" v="384537" />
	</node>
	<node id="-792486" lat="70.6000861119" lon="22.0519555103">
		<tag k="name" v="Krokdalen" />
		<tag k="natural" v="valley" />
		<tag k="place" v="locality" />
		<tag k="ssr:stedsnr" v="455647" />
	</node>
	<node id="-792485" lat="70.4825277805" lon="22.2261166278">
		<tag k="fixme" v="consider natural=peak for the most distinct mountains in the district" />
		<tag k="name" v="Hasfjordaksla" />
		<tag k="natural" v="hill" />
		<tag k="place" v="locality" />
		<tag k="ssr:stedsnr" v="455482" />
	</node>
	<node id="-792484" lat="70.4796444473" lon="22.0873694047">
		<tag k="name" v="Kristenlia" />
		<tag k="natural" v="slope" />
		<tag k="place" v="locality" />
		<tag k="ssr:stedsnr" v="455459" />
	</node>
	<node id="-792483" lat="70.4830388884" lon="22.1045832907">
		<tag k="fixme" v="consider natural=peak for the most distinct mountains in the district" />
		<tag k="name" v="Nova" />
		<tag k="natural" v="hill" />
		<tag k="place" v="locality" />
		<tag k="ssr:stedsnr" v="455456" />
	</node>
	<node id="-792482" lat="70.51649445" lon="22.2015721716">
		<tag k="fixme" v="consider natural=peak for the most distinct mountains in the district" />
		<tag k="name" v="Russegrøftan" />
		<tag k="natural" v="hill" />
		<tag k="place" v="locality" />
		<tag k="ssr:stedsnr" v="455439" />
	</node>
	<node id="-792993" lat="70.5090388915" lon="22.238033284">
		<tag k="name" v="Skaret" />
		<tag k="natural" v="valley" />
		<tag k="place" v="locality" />
		<tag k="ssr:stedsnr" v="930293" />
	</node>
	<node id="-792480" lat="70.59924445" lon="22.1137166237">
		<tag k="name" v="Kavlberget" />
		<tag k="natural" v="hill" />
		<tag k="place" v="locality" />
		<tag k="ssr:stedsnr" v="455424" />
	</node>
	<node id="-791961" lat="70.3585138855" lon="22.4765749556">
		<tag k="name" v="Sommarsetdalen" />
		<tag k="natural" v="valley" />
		<tag k="place" v="locality" />
		<tag k="ssr:stedsnr" v="384179" />
	</node>
	<node id="-791960" lat="70.3733611091" lon="22.5600277205">
		<tag k="fixme" v="multiple name tags, choose one and add the other to alt_name; consider natural=peak for the most distinct mountains in the district" />
		<tag k="name" v="Nordfjordfjellet;Smalfjordfjellet" />
		<tag k="natural" v="hill" />
		<tag k="old_name" v="Smalfjorfjellet" />
		<tag k="place" v="locality" />
		<tag k="ssr:stedsnr" v="384178" />
	</node>
	<node id="-792983" lat="70.5124166718" lon="22.1253610616">
		<tag k="alt_name" v="Søre Knotten" />
		<tag k="fixme" v="consider natural=peak for the most distinct mountains in the district" />
		<tag k="name" v="Knotten" />
		<tag k="natural" v="hill" />
		<tag k="place" v="locality" />
		<tag k="ssr:stedsnr" v="880433" />
	</node>
	<node id="-791958" lat="70.7438333334" lon="22.6856499536">
		<tag k="name" v="Presten" />
		<tag k="natural" v="hill" />
		<tag k="place" v="locality" />
		<tag k="ssr:stedsnr" v="383758" />
	</node>
	<node id="-792981" lat="70.6276444453" lon="21.9771583028">
		<tag k="name" v="Helmahaugen" />
		<tag k="natural" v="hill" />
		<tag k="place" v="locality" />
		<tag k="ssr:stedsnr" v="880377" />
	</node>
	<node id="-792978" lat="70.4966083367" lon="22.1477027394">
		<tag k="name" v="Morderhollan" />
		<tag k="natural" v="gorge" />
		<tag k="ssr:stedsnr" v="880314" />
	</node>
	<node id="-792976" lat="70.5406583335" lon="22.1885055249">
		<tag k="fixme" v="consider natural=peak for the most distinct mountains in the district" />
		<tag k="name" v="Bårvikklubben" />
		<tag k="natural" v="hill" />
		<tag k="place" v="locality" />
		<tag k="ssr:stedsnr" v="880245" />
	</node>
	<node id="-792984" lat="70.5124861107" lon="22.1198332883">
		<tag k="name" v="Knotthellan" />
		<tag k="natural" v="hill" />
		<tag k="place" v="locality" />
		<tag k="ssr:stedsnr" v="880436" />
	</node>
	<node id="-792973" lat="70.6342861095" lon="21.9862610857">
		<tag k="name" v="Henrikomslia" />
		<tag k="natural" v="slope" />
		<tag k="place" v="locality" />
		<tag k="ssr:stedsnr" v="879665" />
	</node>
	<node id="-792460" lat="70.6769888921" lon="22.5627499624">
		<tag k="fixme" v="consider natural=peak for the most distinct mountains in the district" />
		<tag k="name" v="Klubbfjellet" />
		<tag k="natural" v="hill" />
		<tag k="place" v="locality" />
		<tag k="ssr:stedsnr" v="445677" />
	</node>
	<node id="-792971" lat="70.5922500017" lon="22.0452110744">
		<tag k="name" v="Revven" />
		<tag k="natural" v="gorge" />
		<tag k="ssr:stedsnr" v="879653" />
	</node>
	<node id="-791946" lat="70.5730000005" lon="22.4166666255">
		<tag k="fixme" v="consider natural=peak for the most distinct mountains in the district" />
		<tag k="name" v="Eggevasskollen" />
		<tag k="natural" v="hill" />
		<tag k="place" v="locality" />
		<tag k="ssr:stedsnr" v="337231" />
	</node>
	<node id="-792969" lat="70.690447221" lon="22.436211075">
		<tag k="name" v="Bølehaugen" />
		<tag k="natural" v="hill" />
		<tag k="place" v="locality" />
		<tag k="ssr:stedsnr" v="874249" />
	</node>
	<node id="-792456" lat="70.6069750021" lon="22.8856916176">
		<tag k="fixme" v="consider natural=peak for the most distinct mountains in the district" />
		<tag k="name" v="Guhkesjárrášša" />
		<tag k="name:se" v="Guhkesjárrášša" />
		<tag k="natural" v="hill" />
		<tag k="old_name:se" v="Gukkesjarrašša" />
		<tag k="place" v="locality" />
		<tag k="ssr:stedsnr" v="445425" />
	</node>
	<node id="-791942" lat="70.6049361094" lon="22.353074956">
		<tag k="name" v="Gløttbakken" />
		<tag k="natural" v="slope" />
		<tag k="place" v="locality" />
		<tag k="ssr:stedsnr" v="334814" />
	</node>
	<node id="-791941" lat="70.4764944462" lon="22.1657666137">
		<tag k="name" v="Lyktberget" />
		<tag k="natural" v="hill" />
		<tag k="place" v="locality" />
		<tag k="ssr:stedsnr" v="333509" />
	</node>
	<node id="-792451" lat="70.562358337" lon="22.4747694051">
		<tag k="name" v="Kipparfjorddalen" />
		<tag k="natural" v="valley" />
		<tag k="place" v="locality" />
		<tag k="ssr:stedsnr" v="445353" />
	</node>
	<node id="-792449" lat="70.5170166674" lon="22.5382388286">
		<tag k="fixme" v="consider natural=peak for the most distinct mountains in the district" />
		<tag k="name" v="Grunnfjordfjellet" />
		<tag k="natural" v="hill" />
		<tag k="place" v="locality" />
		<tag k="ssr:stedsnr" v="445297" />
	</node>
	<node id="-791936" lat="70.5318333371" lon="22.1678944024">
		<tag k="name" v="Kvithellan" />
		<tag k="natural" v="hill" />
		<tag k="place" v="locality" />
		<tag k="ssr:stedsnr" v="333352" />
	</node>
	<node id="-792447" lat="70.331483337" lon="22.5862999532">
		<tag k="fixme" v="consider natural=peak for the most distinct mountains in the district" />
		<tag k="name" v="Burkavárri" />
		<tag k="name:se" v="Burkavárri" />
		<tag k="natural" v="hill" />
		<tag k="old_name:se" v="Burkavarri" />
		<tag k="place" v="locality" />
		<tag k="ssr:stedsnr" v="445140" />
	</node>
	<node id="-792954" lat="70.6531305565" lon="22.2606610669">
		<tag k="fixme" v="consider natural=peak for the most distinct mountains in the district" />
		<tag k="name" v="Kulia" />
		<tag k="natural" v="hill" />
		<tag k="place" v="locality" />
		<tag k="ssr:stedsnr" v="869694" />
	</node>
	<node id="-792953" lat="70.6981500033" lon="22.5361527177">
		<tag k="fixme" v="consider natural=peak for the most distinct mountains in the district" />
		<tag k="name" v="Vardfjellet" />
		<tag k="natural" v="hill" />
		<tag k="place" v="locality" />
		<tag k="ssr:stedsnr" v="869659" />
	</node>
	<node id="-791928" lat="70.7167777817" lon="22.3906582816">
		<tag k="fixme" v="consider natural=peak for the most distinct mountains in the district" />
		<tag k="name" v="Steinnæringen" />
		<tag k="natural" v="hill" />
		<tag k="place" v="locality" />
		<tag k="ssr:stedsnr" v="323744" />
	</node>
	<node id="-792438" lat="70.5301361084" lon="22.5603332895">
		<tag k="fixme" v="consider natural=peak for the most distinct mountains in the district" />
		<tag k="name" v="Raudfjellet" />
		<tag k="natural" v="hill" />
		<tag k="place" v="locality" />
		<tag k="ssr:stedsnr" v="444294" />
	</node>
	<node id="-792437" lat="70.5344138883" lon="22.2321888578">
		<tag k="alt_name" v="Barbostadalen" />
		<tag k="name" v="Barbosdalen" />
		<tag k="natural" v="valley" />
		<tag k="place" v="locality" />
		<tag k="ssr:stedsnr" v="444289" />
	</node>
	<node id="-791924" lat="70.5128111113" lon="22.1312805123">
		<tag k="name" v="Rekskaret" />
		<tag k="natural" v="valley" />
		<tag k="place" v="locality" />
		<tag k="ssr:stedsnr" v="323718" />
	</node>
	<node id="-791923" lat="70.6090333333" lon="22.0570916341">
		<tag k="alt_name" v="Finnkona" />
		<tag k="fixme" v="consider natural=peak for the most distinct mountains in the district" />
		<tag k="name" v="Finnkjerringa" />
		<tag k="natural" v="hill" />
		<tag k="place" v="locality" />
		<tag k="ssr:stedsnr" v="323713" />
	</node>
	<node id="-792434" lat="70.478552776" lon="22.0907138371">
		<tag k="name" v="Fuglefjellet" />
		<tag k="natural" v="hill" />
		<tag k="place" v="locality" />
		<tag k="ssr:stedsnr" v="444274" />
	</node>
	<node id="-792433" lat="70.5419694475" lon="22.7056805113">
		<tag k="fixme" v="consider natural=peak for the most distinct mountains in the district" />
		<tag k="name" v="Ramnnesfjellet" />
		<tag k="natural" v="hill" />
		<tag k="place" v="locality" />
		<tag k="ssr:stedsnr" v="444273" />
	</node>
	<node id="-792937" lat="70.302236115" lon="22.4908416279">
		<tag k="name" v="Varitvággi" />
		<tag k="name:se" v="Varitvággi" />
		<tag k="natural" v="valley" />
		<tag k="old_name:se" v="Varitvaggi" />
		<tag k="place" v="locality" />
		<tag k="ssr:stedsnr" v="869131" />
	</node>
	<node id="-792936" lat="70.4845361078" lon="22.1847832929">
		<tag k="alt_name" v="Varhaugen" />
		<tag k="name" v="Vardhaugen" />
		<tag k="natural" v="hill" />
		<tag k="place" v="locality" />
		<tag k="ssr:stedsnr" v="868296" />
	</node>
	<node id="-792935" lat="70.320527778" lon="22.4530971723">
		<tag k="fixme" v="consider natural=peak for the most distinct mountains in the district" />
		<tag k="name" v="Sørdalsfjellet" />
		<tag k="natural" v="hill" />
		<tag k="place" v="locality" />
		<tag k="ssr:stedsnr" v="870149" />
	</node>
	<node id="-792422" lat="70.6184111119" lon="22.1884471796">
		<tag k="name" v="Stupadalen" />
		<tag k="natural" v="valley" />
		<tag k="place" v="locality" />
		<tag k="ssr:stedsnr" v="263731" />
	</node>
	<node id="-791908" lat="70.5845027761" lon="22.6136277351">
		<tag k="name" v="Rundhaugen" />
		<tag k="natural" v="hill" />
		<tag k="place" v="locality" />
		<tag k="ssr:stedsnr" v="323349" />
	</node>
	<node id="-792419" lat="70.6317472235" lon="22.2989082783">
		<tag k="alt_name" v="Himmelhaugen, store" />
		<tag k="fixme" v="multiple name tags, choose one and add the other to alt_name" />
		<tag k="name" v="Imershaugen;Store Himmelhaugen" />
		<tag k="natural" v="hill" />
		<tag k="place" v="locality" />
		<tag k="ssr:stedsnr" v="263690" />
	</node>
	<node id="-792417" lat="70.6160222212" lon="22.3919777267">
		<tag k="fixme" v="consider natural=peak for the most distinct mountains in the district" />
		<tag k="name" v="Middagsfjellet" />
		<tag k="natural" v="hill" />
		<tag k="place" v="locality" />
		<tag k="ssr:stedsnr" v="263394" />
	</node>
	<node id="-792416" lat="70.6265361133" lon="22.4265832759">
		<tag k="fixme" v="consider natural=peak for the most distinct mountains in the district" />
		<tag k="name" v="Reinlifjellet" />
		<tag k="natural" v="hill" />
		<tag k="place" v="locality" />
		<tag k="ssr:stedsnr" v="263387" />
	</node>
	<node id="-792890" lat="70.5706722203" lon="22.3819471699">
		<tag k="fixme" v="consider natural=peak for the most distinct mountains in the district" />
		<tag k="name" v="Steinfjellet" />
		<tag k="natural" v="hill" />
		<tag k="place" v="locality" />
		<tag k="ssr:stedsnr" v="809352" />
	</node>
	<node id="-792410" lat="70.3237777772" lon="22.6146305018">
		<tag k="fixme" v="consider natural=peak for the most distinct mountains in the district" />
		<tag k="name" v="Kjerringfjordfjellet - Geaccerášša" />
		<tag k="name:no" v="Kjerringfjordfjellet" />
		<tag k="name:se" v="Geaccerášša" />
		<tag k="natural" v="hill" />
		<tag k="old_name:se" v="Gæzzerašša" />
		<tag k="place" v="locality" />
		<tag k="ssr:stedsnr" v="263153" />
	</node>
	<node id="-792921" lat="70.5871250018" lon="22.2668416217">
		<tag k="name" v="Støypo" />
		<tag k="natural" v="hill" />
		<tag k="place" v="locality" />
		<tag k="ssr:stedsnr" v="820846" />
	</node>
	<node id="-792920" lat="70.5866861134" lon="22.2782999546">
		<tag k="name" v="Grinjaran" />
		<tag k="natural" v="slope" />
		<tag k="place" v="locality" />
		<tag k="ssr:stedsnr" v="820842" />
	</node>
	<node id="-792919" lat="70.6082833306" lon="22.3504110735">
		<tag k="name" v="Loftet" />
		<tag k="natural" v="slope" />
		<tag k="place" v="locality" />
		<tag k="ssr:stedsnr" v="820825" />
	</node>
	<node id="-792406" lat="70.7259111098" lon="22.7143554967">
		<tag k="fixme" v="consider natural=peak for the most distinct mountains in the district" />
		<tag k="name" v="Borkfjellet" />
		<tag k="natural" v="hill" />
		<tag k="place" v="locality" />
		<tag k="ssr:stedsnr" v="262779" />
	</node>
	<node id="-791892" lat="70.3259861113" lon="22.4490221782">
		<tag k="name" v="Trolldalen - Stállovággi" />
		<tag k="name:no" v="Trolldalen" />
		<tag k="name:se" v="Stállovággi" />
		<tag k="natural" v="valley" />
		<tag k="old_name:se" v="Stalluvaggi" />
		<tag k="place" v="locality" />
		<tag k="ssr:stedsnr" v="323143" />
	</node>
	<node id="-791891" lat="70.2961083376" lon="22.5976277138">
		<tag k="name" v="Ruohtastallannjunni" />
		<tag k="name:se" v="Ruohtastallannjunni" />
		<tag k="old_name:se" v="Ruottastallannjunni" />
		<tag k="place" v="locality" />
		<tag k="ssr:stedsnr" v="323126" />
	</node>
	<node id="-791890" lat="70.2870444476" lon="22.5688610557">
		<tag k="fixme" v="consider natural=peak for the most distinct mountains in the district" />
		<tag k="name" v="Čorrovárri" />
		<tag k="name:se" v="Čorrovárri" />
		<tag k="natural" v="hill" />
		<tag k="old_name:se" v="Čårruvarri" />
		<tag k="place" v="locality" />
		<tag k="ssr:stedsnr" v="323119" />
	</node>
	<node id="-792401" lat="70.6292138863" lon="22.5685444026">
		<tag k="name" v="Geitdalen" />
		<tag k="natural" v="valley" />
		<tag k="place" v="locality" />
		<tag k="ssr:stedsnr" v="262691" />
	</node>
	<node id="-792911" lat="70.5715277812" lon="22.231702745">
		<tag k="name" v="Mikalhaugen" />
		<tag k="natural" v="hill" />
		<tag k="place" v="locality" />
		<tag k="ssr:stedsnr" v="819266" />
	</node>
	<node id="-792910" lat="70.5754666671" lon="22.2114610773">
		<tag k="name" v="Susannaskårra" />
		<tag k="natural" v="valley" />
		<tag k="place" v="locality" />
		<tag k="ssr:stedsnr" v="819254" />
	</node>
	<node id="-792907" lat="70.7228277819" lon="22.8136221556">
		<tag k="fixme" v="consider natural=peak for the most distinct mountains in the district" />
		<tag k="name" v="Reppafjellet" />
		<tag k="natural" v="hill" />
		<tag k="place" v="locality" />
		<tag k="ssr:stedsnr" v="809755" />
	</node>
	<node id="-791880" lat="70.4901944439" lon="22.3063583001">
		<tag k="name" v="Taborshamn" />
		<tag k="natural" v="valley" />
		<tag k="place" v="locality" />
		<tag k="ssr:stedsnr" v="277532" />
	</node>
	<node id="-792900" lat="70.6860250004" lon="22.7852138217">
		<tag k="fixme" v="consider natural=peak for the most distinct mountains in the district" />
		<tag k="name" v="Pompervikfjellet" />
		<tag k="natural" v="hill" />
		<tag k="place" v="locality" />
		<tag k="ssr:stedsnr" v="809672" />
	</node>
	<node id="-792577" lat="70.5403861075" lon="22.5130194047">
		<tag k="fixme" v="multiple name tags, choose one and add the other to alt_name; consider natural=peak for the most distinct mountains in the district" />
		<tag k="name" v="Borgefjell;Kipparfjordfjellet" />
		<tag k="natural" v="hill" />
		<tag k="place" v="locality" />
		<tag k="ssr:stedsnr" v="565311" />
	</node>
	<node id="-791873" lat="70.5846111158" lon="22.2711582842">
		<tag k="name" v="Ryphollet" />
		<tag k="natural" v="valley" />
		<tag k="place" v="locality" />
		<tag k="ssr:stedsnr" v="274816" />
	</node>
	<node id="-792894" lat="70.6158500005" lon="22.7360304958">
		<tag k="fixme" v="consider natural=peak for the most distinct mountains in the district" />
		<tag k="name" v="Sandfjellet" />
		<tag k="natural" v="hill" />
		<tag k="place" v="locality" />
		<tag k="ssr:stedsnr" v="809394" />
	</node>
	<node id="-792381" lat="70.2923111091" lon="22.6798471728">
		<tag k="fixme" v="consider natural=peak for the most distinct mountains in the district" />
		<tag k="name" v="Simavikfjell" />
		<tag k="natural" v="hill" />
		<tag k="place" v="locality" />
		<tag k="ssr:stedsnr" v="216111" />
	</node>
	<node id="-792380" lat="70.5795250042" lon="22.2491416314">
		<tag k="name" v="Rypeholfjellet" />
		<tag k="natural" v="hill" />
		<tag k="place" v="locality" />
		<tag k="ssr:stedsnr" v="216028" />
	</node>
	<node id="-791867" lat="70.5323055598" lon="22.1684666246">
		<tag k="name" v="Kvithellhula" />
		<tag k="place" v="locality" />
		<tag k="ssr:stedsnr" v="273314" />
	</node>
	<node id="-792378" lat="70.6342305607" lon="22.4271749434">
		<tag k="name" v="Reinlia" />
		<tag k="natural" v="slope" />
		<tag k="place" v="locality" />
		<tag k="ssr:stedsnr" v="216662" />
	</node>
	<node id="-792888" lat="70.5213138911" lon="22.5965749499">
		<tag k="name" v="Raudbakken" />
		<tag k="natural" v="slope" />
		<tag k="place" v="locality" />
		<tag k="ssr:stedsnr" v="809321" />
	</node>
	<node id="-792375" lat="70.5844444472" lon="22.286083297">
		<tag k="name" v="Hestegorra" />
		<tag k="natural" v="valley" />
		<tag k="place" v="locality" />
		<tag k="ssr:stedsnr" v="213857" />
	</node>
	<node id="-792374" lat="70.5963944489" lon="22.3254194042">
		<tag k="name" v="Moldbakken" />
		<tag k="natural" v="slope" />
		<tag k="place" v="locality" />
		<tag k="ssr:stedsnr" v="213845" />
	</node>
	<node id="-791907" lat="70.5880888896" lon="22.3187749573">
		<tag k="fixme" v="consider natural=peak for the most distinct mountains in the district" />
		<tag k="name" v="Gamstufjellet" />
		<tag k="natural" v="hill" />
		<tag k="place" v="locality" />
		<tag k="ssr:stedsnr" v="323346" />
	</node>
	<node id="-792370" lat="70.4753916635" lon="22.1473388566">
		<tag k="name" v="Batteriet" />
		<tag k="natural" v="hill" />
		<tag k="place" v="locality" />
		<tag k="ssr:stedsnr" v="212485" />
	</node>
	<node id="-792368" lat="70.5260611092" lon="22.1477860697">
		<tag k="name" v="Kurapa" />
		<tag k="natural" v="slope" />
		<tag k="place" v="locality" />
		<tag k="ssr:stedsnr" v="212450" />
	</node>
	<node id="-792366" lat="70.4856666652" lon="22.1978443918">
		<tag k="name" v="Bechsletta" />
		<tag k="place" v="locality" />
		<tag k="ssr:stedsnr" v="212342" />
	</node>
	<node id="-792682" lat="70.6398249982" lon="21.951769404">
		<tag k="name" v="Soppen" />
		<tag k="natural" v="hill" />
		<tag k="place" v="locality" />
		<tag k="ssr:stedsnr" v="626720" />
	</node>
	<node id="-792873" lat="70.4793638917" lon="22.090305523">
		<tag k="name" v="Lille-Håen" />
		<tag k="natural" v="hill" />
		<tag k="place" v="locality" />
		<tag k="ssr:stedsnr" v="808294" />
	</node>
	<node id="-792871" lat="70.522997219" lon="22.1984360737">
		<tag k="fixme" v="consider natural=peak for the most distinct mountains in the district" />
		<tag k="name" v="Barbostatinden" />
		<tag k="natural" v="hill" />
		<tag k="place" v="locality" />
		<tag k="ssr:stedsnr" v="808290" />
	</node>
	<node id="-792867" lat="70.5094944439" lon="22.4372082844">
		<tag k="fixme" v="consider natural=peak for the most distinct mountains in the district" />
		<tag k="name" v="Skallnesfjellet" />
		<tag k="natural" v="hill" />
		<tag k="place" v="locality" />
		<tag k="ssr:stedsnr" v="808169" />
	</node>
	<node id="-792354" lat="70.6429861117" lon="22.0082416349">
		<tag k="name" v="Darupskaret" />
		<tag k="natural" v="valley" />
		<tag k="place" v="locality" />
		<tag k="ssr:stedsnr" v="202719" />
	</node>
	<node id="-792709" lat="70.5643861162" lon="22.2724721749">
		<tag k="name" v="Sergadalen" />
		<tag k="natural" v="valley" />
		<tag k="place" v="locality" />
		<tag k="ssr:stedsnr" v="637782" />
	</node>
	<node id="-792858" lat="70.6869944501" lon="22.6195805064">
		<tag k="name" v="Inner Oksen" />
		<tag k="natural" v="hill" />
		<tag k="place" v="locality" />
		<tag k="ssr:stedsnr" v="762545" />
	</node>
	<node id="-792857" lat="70.6988388928" lon="22.3516471758">
		<tag k="name" v="Hellarholet" />
		<tag k="natural" v="valley" />
		<tag k="place" v="locality" />
		<tag k="ssr:stedsnr" v="762510" />
	</node>
	<node id="-792854" lat="70.6498027755" lon="22.8481527168">
		<tag k="name" v="Middagshøyberget" />
		<tag k="natural" v="hill" />
		<tag k="place" v="locality" />
		<tag k="ssr:stedsnr" v="762068" />
	</node>
	<node id="-792338" lat="70.6423833329" lon="22.8392304932">
		<tag k="fixme" v="consider natural=peak for the most distinct mountains in the district" />
		<tag k="name" v="Middagsfjellet" />
		<tag k="natural" v="hill" />
		<tag k="place" v="locality" />
		<tag k="ssr:stedsnr" v="202433" />
	</node>
	<node id="-792337" lat="70.6051222227" lon="22.442661057">
		<tag k="alt_name" v="Sluskefjellet" />
		<tag k="fixme" v="consider natural=peak for the most distinct mountains in the district" />
		<tag k="name" v="Sluskfjellet" />
		<tag k="natural" v="hill" />
		<tag k="place" v="locality" />
		<tag k="ssr:stedsnr" v="202378" />
	</node>
	<node id="-792334" lat="70.5729249979" lon="22.3121527204">
		<tag k="alt_name" v="Folkefjellet" />
		<tag k="fixme" v="consider natural=peak for the most distinct mountains in the district" />
		<tag k="name" v="Isfjellet" />
		<tag k="natural" v="hill" />
		<tag k="place" v="locality" />
		<tag k="ssr:stedsnr" v="202364" />
	</node>
	<node id="-792333" lat="70.5728805594" lon="22.2831471889">
		<tag k="fixme" v="consider natural=peak for the most distinct mountains in the district" />
		<tag k="name" v="Lensmannfjellet" />
		<tag k="natural" v="hill" />
		<tag k="place" v="locality" />
		<tag k="ssr:stedsnr" v="202363" />
	</node>
	<node id="-792681" lat="70.6366750019" lon="22.2497166293">
		<tag k="name" v="Nordsandfjorddalen" />
		<tag k="natural" v="valley" />
		<tag k="place" v="locality" />
		<tag k="ssr:stedsnr" v="626709" />
	</node>
	<node id="-792331" lat="70.5544194497" lon="22.5004443958">
		<tag k="fixme" v="consider natural=peak for the most distinct mountains in the district" />
		<tag k="name" v="Gaska Ávju" />
		<tag k="name:se" v="Gaska Ávju" />
		<tag k="natural" v="hill" />
		<tag k="old_name:se" v="Avjo, gaska" />
		<tag k="place" v="locality" />
		<tag k="ssr:stedsnr" v="202344" />
	</node>
	<node id="-792842" lat="70.4821194411" lon="22.1460277446">
		<tag k="name" v="Hollenderbakken" />
		<tag k="natural" v="slope" />
		<tag k="place" v="locality" />
		<tag k="ssr:stedsnr" v="758526" />
	</node>
	<node id="-792841" lat="70.511616665" lon="22.1877166216">
		<tag k="name" v="Vasslien" />
		<tag k="natural" v="slope" />
		<tag k="place" v="locality" />
		<tag k="ssr:stedsnr" v="758501" />
	</node>
	<node id="-792839" lat="70.6164611103" lon="22.0566444161">
		<tag k="name" v="Årvikdalen" />
		<tag k="natural" v="valley" />
		<tag k="place" v="locality" />
		<tag k="ssr:stedsnr" v="758450" />
	</node>
	<node id="-791937" lat="70.5353805527" lon="22.1683499543">
		<tag k="fixme" v="consider natural=peak for the most distinct mountains in the district" />
		<tag k="name" v="Meian" />
		<tag k="natural" v="hill" />
		<tag k="place" v="locality" />
		<tag k="ssr:stedsnr" v="333357" />
	</node>
	<node id="-792323" lat="70.5072749979" lon="22.3439721718">
		<tag k="fixme" v="consider natural=peak for the most distinct mountains in the district" />
		<tag k="name" v="Ørntinden" />
		<tag k="natural" v="hill" />
		<tag k="place" v="locality" />
		<tag k="ssr:stedsnr" v="202289" />
	</node>
	<node id="-792833" lat="70.5675444486" lon="22.2504749701">
		<tag k="name" v="Halsen" />
		<tag k="natural" v="hill" />
		<tag k="place" v="locality" />
		<tag k="ssr:stedsnr" v="758350" />
	</node>
	<node id="-792830" lat="70.6183611125" lon="22.1800388559">
		<tag k="name" v="Skakkan" />
		<tag k="natural" v="slope" />
		<tag k="place" v="locality" />
		<tag k="ssr:stedsnr" v="758270" />
	</node>
	<node id="-791868" lat="70.598072225" lon="22.0419499678">
		<tag k="name" v="Svartberget" />
		<tag k="natural" v="hill" />
		<tag k="place" v="locality" />
		<tag k="ssr:stedsnr" v="273697" />
	</node>
	<node id="-792316" lat="70.3329388911" lon="22.5357638416">
		<tag k="name" v="Fuglelvdalen - Loddevággi" />
		<tag k="name:no" v="Fuglelvdalen" />
		<tag k="name:se" v="Loddevággi" />
		<tag k="natural" v="valley" />
		<tag k="old_name:se" v="Låddevaggi" />
		<tag k="place" v="locality" />
		<tag k="ssr:stedsnr" v="202136" />
	</node>
	<node id="-792315" lat="70.3111416716" lon="22.6016916236">
		<tag k="name" v="Sandfallan" />
		<tag k="natural" v="valley" />
		<tag k="place" v="locality" />
		<tag k="ssr:stedsnr" v="202126" />
	</node>
	<node id="-792314" lat="70.297313894" lon="22.5624138354">
		<tag k="name" v="Goahtevággi" />
		<tag k="name:se" v="Goahtevággi" />
		<tag k="natural" v="valley" />
		<tag k="old_name:se" v="Goattevaggi" />
		<tag k="place" v="locality" />
		<tag k="ssr:stedsnr" v="202119" />
	</node>
	<node id="-791935" lat="70.5419861114" lon="22.1872110795">
		<tag k="name" v="Svartbergan" />
		<tag k="natural" v="hill" />
		<tag k="place" v="locality" />
		<tag k="ssr:stedsnr" v="333301" />
	</node>
	<node id="-792312" lat="70.4960333337" lon="22.1857055069">
		<tag k="name" v="Kvannlia" />
		<tag k="natural" v="slope" />
		<tag k="place" v="locality" />
		<tag k="ssr:stedsnr" v="201290" />
	</node>
	<node id="-793044" lat="70.5197888902" lon="22.1354721907">
		<tag k="name" v="Ernlien" />
		<tag k="natural" v="slope" />
		<tag k="place" v="locality" />
		<tag k="ssr:stedsnr" v="940429" />
	</node>
	<node id="-792819" lat="70.6244166712" lon="22.3145971717">
		<tag k="alt_name" v="Himmelhaugen, l" />
		<tag k="name" v="Lille Himmelhaugen" />
		<tag k="natural" v="hill" />
		<tag k="place" v="locality" />
		<tag k="ssr:stedsnr" v="748697" />
	</node>
	<node id="-792818" lat="70.6398250043" lon="22.4638638316">
		<tag k="fixme" v="consider natural=peak for the most distinct mountains in the district" />
		<tag k="name" v="Skonnertfjellet" />
		<tag k="natural" v="hill" />
		<tag k="place" v="locality" />
		<tag k="ssr:stedsnr" v="748688" />
	</node>
	<node id="-792970" lat="70.7012888935" lon="22.5553555053">
		<tag k="name" v="Rekvikskaret" />
		<tag k="natural" v="valley" />
		<tag k="place" v="locality" />
		<tag k="ssr:stedsnr" v="874316" />
	</node>
	<node id="-792304" lat="70.6984972281" lon="22.4907443892">
		<tag k="name" v="Sinkeneshaugen" />
		<tag k="natural" v="hill" />
		<tag k="place" v="locality" />
		<tag k="ssr:stedsnr" v="155936" />
	</node>
	<node id="-792810" lat="70.598652778" lon="22.7341777325">
		<tag k="fixme" v="consider natural=peak for the most distinct mountains in the district" />
		<tag k="name" v="Steinfjellet" />
		<tag k="natural" v="hill" />
		<tag k="place" v="locality" />
		<tag k="ssr:stedsnr" v="748350" />
	</node>
	<node id="-792809" lat="70.5630888916" lon="22.5456194082">
		<tag k="name" v="Augustdalen" />
		<tag k="natural" v="valley" />
		<tag k="place" v="locality" />
		<tag k="ssr:stedsnr" v="748340" />
	</node>
	<node id="-792808" lat="70.5695694451" lon="22.7896554932">
		<tag k="fixme" v="consider natural=peak for the most distinct mountains in the district" />
		<tag k="name" v="Lassetinden" />
		<tag k="natural" v="hill" />
		<tag k="place" v="locality" />
		<tag k="ssr:stedsnr" v="748335" />
	</node>
	<node id="-792807" lat="70.5691111141" lon="22.5464777196">
		<tag k="fixme" v="consider natural=peak for the most distinct mountains in the district" />
		<tag k="name" v="Mattisneset" />
		<tag k="natural" v="hill" />
		<tag k="place" v="locality" />
		<tag k="ssr:stedsnr" v="748334" />
	</node>
	<node id="-792801" lat="70.3365555546" lon="22.4628388268">
		<tag k="name" v="Hammaren" />
		<tag k="natural" v="hill" />
		<tag k="place" v="locality" />
		<tag k="ssr:stedsnr" v="748135" />
	</node>
	<node id="-792288" lat="70.4831638872" lon="22.1422249577">
		<tag k="name" v="Rundhaug" />
		<tag k="natural" v="hill" />
		<tag k="place" v="locality" />
		<tag k="ssr:stedsnr" v="151497" />
	</node>
	<node id="-792287" lat="70.5149472271" lon="22.149277738">
		<tag k="name" v="Risdalen" />
		<tag k="natural" v="valley" />
		<tag k="place" v="locality" />
		<tag k="ssr:stedsnr" v="151474" />
	</node>
	<node id="-792283" lat="70.6336055525" lon="22.0188721841">
		<tag k="name" v="Sandstavikhaugen" />
		<tag k="natural" v="hill" />
		<tag k="place" v="locality" />
		<tag k="ssr:stedsnr" v="151415" />
	</node>
	<node id="-792282" lat="70.6276166711" lon="21.980774955">
		<tag k="name" v="Kirkegårdshaugen" />
		<tag k="natural" v="hill" />
		<tag k="place" v="locality" />
		<tag k="ssr:stedsnr" v="151407" />
	</node>
	<node id="-792281" lat="70.5002888903" lon="22.1544638438">
		<tag k="name" v="Storlia" />
		<tag k="natural" v="slope" />
		<tag k="place" v="locality" />
		<tag k="ssr:stedsnr" v="151387" />
	</node>
	<node id="-792280" lat="70.5018888883" lon="22.1553332924">
		<tag k="name" v="Pina" />
		<tag k="natural" v="valley" />
		<tag k="place" v="locality" />
		<tag k="ssr:stedsnr" v="151385" />
	</node>
	<node id="-792279" lat="70.4871166639" lon="22.194386077">
		<tag k="name" v="Bech-Haugen" />
		<tag k="natural" v="hill" />
		<tag k="place" v="locality" />
		<tag k="ssr:stedsnr" v="151366" />
	</node>
	<node id="-792277" lat="70.4883972261" lon="22.1891499726">
		<tag k="name" v="Karihaugen" />
		<tag k="natural" v="hill" />
		<tag k="place" v="locality" />
		<tag k="ssr:stedsnr" v="151354" />
	</node>
	<node id="-792276" lat="70.4952027782" lon="22.147572169">
		<tag k="name" v="Ravnstein" />
		<tag k="natural" v="gorge" />
		<tag k="ssr:stedsnr" v="151343" />
	</node>
	<node id="-792679" lat="70.6571861136" lon="22.3773832987">
		<tag k="name" v="Raudberget" />
		<tag k="natural" v="hill" />
		<tag k="place" v="locality" />
		<tag k="ssr:stedsnr" v="626696" />
	</node>
	<node id="-792271" lat="70.6085638932" lon="22.2360388573">
		<tag k="name" v="Kvitbergan" />
		<tag k="natural" v="hill" />
		<tag k="place" v="locality" />
		<tag k="ssr:stedsnr" v="151296" />
	</node>
	<node id="-792243" lat="70.3887416671" lon="22.6688916021">
		<tag k="name" v="Skirauva" />
		<tag k="natural" v="slope" />
		<tag k="place" v="locality" />
		<tag k="ssr:stedsnr" v="141181" />
	</node>
	<node id="-792266" lat="70.6795888953" lon="22.3777916124">
		<tag k="fixme" v="consider natural=peak for the most distinct mountains in the district" />
		<tag k="name" v="Stavsnesfjellet" />
		<tag k="natural" v="hill" />
		<tag k="place" v="locality" />
		<tag k="ssr:stedsnr" v="141652" />
	</node>
	<node id="-792777" lat="70.5881000018" lon="22.3015249591">
		<tag k="name" v="Stormoltebærhaugen" />
		<tag k="natural" v="hill" />
		<tag k="place" v="locality" />
		<tag k="ssr:stedsnr" v="698831" />
	</node>
	<node id="-792776" lat="70.5875138923" lon="22.2906749598">
		<tag k="name" v="Anne-Lisehaugen" />
		<tag k="natural" v="hill" />
		<tag k="place" v="locality" />
		<tag k="ssr:stedsnr" v="698830" />
	</node>
	<node id="-792263" lat="70.7007972194" lon="22.374869397">
		<tag k="fixme" v="multiple name tags, choose one and add the other to alt_name; consider natural=peak for the most distinct mountains in the district" />
		<tag k="name" v="Høvelfjellet;Steinfjellet" />
		<tag k="natural" v="hill" />
		<tag k="place" v="locality" />
		<tag k="ssr:stedsnr" v="141639" />
	</node>
	<node id="-792774" lat="70.5996277838" lon="22.3423305077">
		<tag k="fixme" v="consider natural=peak for the most distinct mountains in the district" />
		<tag k="name" v="Langåsen" />
		<tag k="natural" v="hill" />
		<tag k="place" v="locality" />
		<tag k="ssr:stedsnr" v="698818" />
	</node>
	<node id="-792260" lat="70.6222611122" lon="22.1435083043">
		<tag k="alt_name" v="Falkberghøgda" />
		<tag k="fixme" v="consider natural=peak for the most distinct mountains in the district" />
		<tag k="name" v="Falkeberghøgda" />
		<tag k="natural" v="hill" />
		<tag k="place" v="locality" />
		<tag k="ssr:stedsnr" v="141689" />
	</node>
	<node id="-792771" lat="70.4831972257" lon="22.0918499524">
		<tag k="name" v="Nordflåget" />
		<tag k="place" v="locality" />
		<tag k="ssr:stedsnr" v="697476" />
	</node>
	<node id="-792257" lat="70.6380416689" lon="22.4092610564">
		<tag k="fixme" v="consider natural=peak for the most distinct mountains in the district" />
		<tag k="name" v="Svarthammarfjellet" />
		<tag k="natural" v="hill" />
		<tag k="place" v="locality" />
		<tag k="ssr:stedsnr" v="141665" />
	</node>
	<node id="-792767" lat="70.6331611131" lon="22.0294416335">
		<tag k="name" v="Malbuhaugen" />
		<tag k="natural" v="hill" />
		<tag k="place" v="locality" />
		<tag k="ssr:stedsnr" v="697401" />
	</node>
	<node id="-792254" lat="70.6157833327" lon="22.2518471836">
		<tag k="name" v="Kvitberget" />
		<tag k="natural" v="hill" />
		<tag k="place" v="locality" />
		<tag k="ssr:stedsnr" v="141380" />
	</node>
	<node id="-792253" lat="70.6190055534" lon="22.7617582763">
		<tag k="fixme" v="consider natural=peak for the most distinct mountains in the district" />
		<tag k="name" v="Moltebærtoppen" />
		<tag k="natural" v="hill" />
		<tag k="place" v="locality" />
		<tag k="ssr:stedsnr" v="141376" />
	</node>
	<node id="-792764" lat="70.4898111095" lon="22.1673360713">
		<tag k="name" v="Lillefjellet" />
		<tag k="natural" v="hill" />
		<tag k="place" v="locality" />
		<tag k="ssr:stedsnr" v="697342" />
	</node>
	<node id="-792778" lat="70.5982416709" lon="22.3573749629">
		<tag k="fixme" v="consider natural=peak for the most distinct mountains in the district" />
		<tag k="name" v="Langåsen" />
		<tag k="natural" v="hill" />
		<tag k="place" v="locality" />
		<tag k="ssr:stedsnr" v="698841" />
	</node>
	<node id="-792250" lat="70.5957861148" lon="22.6163332948">
		<tag k="name" v="Oksehaugen" />
		<tag k="natural" v="hill" />
		<tag k="place" v="locality" />
		<tag k="ssr:stedsnr" v="141355" />
	</node>
	<node id="-792249" lat="70.5656111165" lon="22.6160916215">
		<tag k="fixme" v="consider natural=peak for the most distinct mountains in the district" />
		<tag k="name" v="Preikestolen" />
		<tag k="natural" v="hill" />
		<tag k="place" v="locality" />
		<tag k="ssr:stedsnr" v="141344" />
	</node>
	<node id="-792252" lat="70.5781249998" lon="22.702786058">
		<tag k="fixme" v="consider natural=peak for the most distinct mountains in the district" />
		<tag k="name" v="Midterfjell" />
		<tag k="natural" v="hill" />
		<tag k="place" v="locality" />
		<tag k="ssr:stedsnr" v="141370" />
	</node>
	<node id="-792985" lat="70.4712333356" lon="22.1556555201">
		<tag k="name" v="Østre Hompen" />
		<tag k="natural" v="hill" />
		<tag k="place" v="locality" />
		<tag k="ssr:stedsnr" v="880491" />
	</node>
	<node id="-792755" lat="70.3372194452" lon="22.4980082816">
		<tag k="fixme" v="consider natural=peak for the most distinct mountains in the district" />
		<tag k="name" v="Litlehovudet" />
		<tag k="natural" v="hill" />
		<tag k="place" v="locality" />
		<tag k="ssr:stedsnr" v="688147" />
	</node>
	<node id="-792242" lat="70.3624527801" lon="22.6213221736">
		<tag k="alt_name" v="Kjerringfjordfjellet, l" />
		<tag k="fixme" v="consider natural=peak for the most distinct mountains in the district" />
		<tag k="name" v="Lille Kjerringfjordfjellet" />
		<tag k="natural" v="hill" />
		<tag k="place" v="locality" />
		<tag k="ssr:stedsnr" v="141178" />
	</node>
	<node id="-792240" lat="70.3445444474" lon="22.4242832981">
		<tag k="name" v="Sandbuktdalen" />
		<tag k="natural" v="valley" />
		<tag k="place" v="locality" />
		<tag k="ssr:stedsnr" v="141145" />
	</node>
	<node id="-792239" lat="70.31649167" lon="22.4960194038">
		<tag k="name" v="Sørdalstind" />
		<tag k="natural" v="hill" />
		<tag k="place" v="locality" />
		<tag k="ssr:stedsnr" v="141137" />
	</node>
	<node id="-792238" lat="70.3155861124" lon="22.4848360677">
		<tag k="name" v="Sørdalen" />
		<tag k="natural" v="valley" />
		<tag k="place" v="locality" />
		<tag k="ssr:stedsnr" v="141135" />
	</node>
	<node id="-792237" lat="70.3199749984" lon="22.4698860712">
		<tag k="loc_name:se" v="Pedarvággi" />
		<tag k="name" v="Pedersdalen" />
		<tag k="name:no" v="Pedersdalen" />
		<tag k="natural" v="valley" />
		<tag k="place" v="locality" />
		<tag k="ssr:stedsnr" v="141134" />
	</node>
	<node id="-792946" lat="70.5269305597" lon="22.334261062">
		<tag k="name" v="Reindalen" />
		<tag k="natural" v="valley" />
		<tag k="place" v="locality" />
		<tag k="ssr:stedsnr" v="869324" />
	</node>
	<node id="-792763" lat="70.6170444433" lon="22.1839332817">
		<tag k="name" v="Sandvikdalen" />
		<tag k="natural" v="valley" />
		<tag k="place" v="locality" />
		<tag k="ssr:stedsnr" v="697252" />
	</node>
	<node id="-792745" lat="70.6661111095" lon="22.8134749364">
		<tag k="fixme" v="consider natural=peak for the most distinct mountains in the district" />
		<tag k="name" v="Skaidi" />
		<tag k="natural" v="hill" />
		<tag k="place" v="locality" />
		<tag k="ssr:stedsnr" v="687671" />
	</node>
	<node id="-792744" lat="70.6465305523" lon="22.7615971735">
		<tag k="name" v="Kråkberget" />
		<tag k="natural" v="hill" />
		<tag k="place" v="locality" />
		<tag k="ssr:stedsnr" v="687667" />
	</node>
	<node id="-792228" lat="70.764088887" lon="22.7642416073">
		<tag k="name" v="Kjerringa" />
		<tag k="natural" v="hill" />
		<tag k="place" v="locality" />
		<tag k="ssr:stedsnr" v="140100" />
	</node>
	<node id="-792733" lat="70.6114722268" lon="22.3680638573">
		<tag k="fixme" v="consider natural=peak for the most distinct mountains in the district" />
		<tag k="name" v="Skoddefjellet" />
		<tag k="natural" v="hill" />
		<tag k="place" v="locality" />
		<tag k="ssr:stedsnr" v="687372" />
	</node>
	<node id="-792219" lat="70.6479722253" lon="21.9488027492">
		<tag k="name" v="Kolbrennaren" />
		<tag k="natural" v="hill" />
		<tag k="place" v="locality" />
		<tag k="ssr:stedsnr" v="95118" />
	</node>
	<node id="-792216" lat="70.7029666691" lon="22.604311064">
		<tag k="name" v="Ytter Oksen" />
		<tag k="natural" v="hill" />
		<tag k="place" v="locality" />
		<tag k="ssr:stedsnr" v="94674" />
	</node>
	<node id="-792772" lat="70.4722611153" lon="22.1547221861">
		<tag k="name" v="Grønlia" />
		<tag k="natural" v="slope" />
		<tag k="place" v="locality" />
		<tag k="ssr:stedsnr" v="697485" />
	</node>
	<node id="-792213" lat="70.5934666646" lon="22.3049443921">
		<tag k="name" v="Storhaugen" />
		<tag k="natural" v="hill" />
		<tag k="place" v="locality" />
		<tag k="ssr:stedsnr" v="92820" />
	</node>
	<node id="-792212" lat="70.5603444441" lon="22.2762305176">
		<tag k="name" v="Flågahaugen" />
		<tag k="natural" v="hill" />
		<tag k="place" v="locality" />
		<tag k="ssr:stedsnr" v="92774" />
	</node>
	<node id="-792211" lat="70.482372223" lon="22.1901916111">
		<tag k="name" v="Helenaberget" />
		<tag k="natural" v="hill" />
		<tag k="place" v="locality" />
		<tag k="ssr:stedsnr" v="91526" />
	</node>
	<node id="-792722" lat="70.3519222263" lon="22.5013221682">
		<tag k="fixme" v="consider natural=peak for the most distinct mountains in the district" />
		<tag k="loc_name:se" v="Siskkit Fyrafvárri" />
		<tag k="name" v="Purkfjellet" />
		<tag k="name:no" v="Purkfjellet" />
		<tag k="natural" v="hill" />
		<tag k="place" v="locality" />
		<tag k="ssr:stedsnr" v="687159" />
	</node>
	<node id="-792720" lat="70.3068500042" lon="22.646013828">
		<tag k="name" v="Állevákgiera" />
		<tag k="name:se" v="Állevákgiera" />
		<tag k="natural" v="valley" />
		<tag k="old_name:se" v="Allevaggiera" />
		<tag k="place" v="locality" />
		<tag k="ssr:stedsnr" v="687122" />
	</node>
	<node id="-792685" lat="70.5168194446" lon="22.1759388351">
		<tag k="name" v="Risvågdalen" />
		<tag k="natural" v="valley" />
		<tag k="place" v="locality" />
		<tag k="ssr:stedsnr" v="626739" />
	</node>
	<node id="-792204" lat="70.4861861152" lon="22.1535805129">
		<tag k="name" v="Melkehaugen" />
		<tag k="natural" v="hill" />
		<tag k="place" v="locality" />
		<tag k="ssr:stedsnr" v="91353" />
	</node>
	<node id="-792203" lat="70.6114472201" lon="22.204605517">
		<tag k="name" v="Henningsarset" />
		<tag k="place" v="locality" />
		<tag k="ssr:stedsnr" v="91299" />
	</node>
	<node id="-792202" lat="70.5971055581" lon="22.104211066">
		<tag k="name" v="Rista" />
		<tag k="natural" v="slope" />
		<tag k="place" v="locality" />
		<tag k="ssr:stedsnr" v="91289" />
	</node>
	<node id="-792200" lat="70.6091583314" lon="22.1606610724">
		<tag k="name" v="Benkan" />
		<tag k="natural" v="hill" />
		<tag k="place" v="locality" />
		<tag k="ssr:stedsnr" v="91269" />
	</node>
	<node id="-792710" lat="70.5931888899" lon="22.3236971729">
		<tag k="fixme" v="consider natural=peak for the most distinct mountains in the district" />
		<tag k="name" v="Velefjellet" />
		<tag k="natural" v="hill" />
		<tag k="place" v="locality" />
		<tag k="ssr:stedsnr" v="637828" />
	</node>
	<node id="-792197" lat="70.5956805585" lon="22.0237832883">
		<tag k="fixme" v="consider natural=peak for the most distinct mountains in the district" />
		<tag k="name" v="Andotten - Ánddot" />
		<tag k="name:no" v="Andotten" />
		<tag k="name:se" v="Ánddot" />
		<tag k="natural" v="hill" />
		<tag k="old_name:se" v="Andut" />
		<tag k="place" v="locality" />
		<tag k="ssr:stedsnr" v="86714" />
	</node>
	<node id="-792708" lat="70.5930555576" lon="21.9908832866">
		<tag k="name" v="Presten" />
		<tag k="natural" v="hill" />
		<tag k="place" v="locality" />
		<tag k="ssr:stedsnr" v="636682" />
	</node>
	<node id="-792707" lat="70.471119447" lon="22.152188851">
		<tag k="name" v="Vestre Hompen" />
		<tag k="natural" v="hill" />
		<tag k="place" v="locality" />
		<tag k="ssr:stedsnr" v="636499" />
	</node>
	<node id="-792705" lat="70.4773722228" lon="22.0908138507">
		<tag k="name" v="Storskårra" />
		<tag k="natural" v="valley" />
		<tag k="place" v="locality" />
		<tag k="ssr:stedsnr" v="636483" />
	</node>
	<node id="-792192" lat="70.635936115" lon="22.1655194185">
		<tag k="fixme" v="consider natural=peak for the most distinct mountains in the district" />
		<tag k="name" v="Stupa" />
		<tag k="natural" v="hill" />
		<tag k="place" v="locality" />
		<tag k="ssr:stedsnr" v="81717" />
	</node>
	<node id="-792191" lat="70.6335805558" lon="22.087691638">
		<tag k="name" v="Sandfjordskaret" />
		<tag k="natural" v="valley" />
		<tag k="place" v="locality" />
		<tag k="ssr:stedsnr" v="81716" />
	</node>
	<node id="-792702" lat="70.554519448" lon="22.2562388483">
		<tag k="name" v="Bryggeberget" />
		<tag k="natural" v="hill" />
		<tag k="place" v="locality" />
		<tag k="ssr:stedsnr" v="636324" />
	</node>
	<node id="-792591" lat="70.3494333334" lon="22.5522666157">
		<tag k="fixme" v="consider natural=peak for the most distinct mountains in the district" />
		<tag k="loc_name:no" v="Stabben" />
		<tag k="name" v="Nordfjordstabben - Stábbá" />
		<tag k="name:no" v="Nordfjordstabben" />
		<tag k="name:se" v="Stábbá" />
		<tag k="natural" v="hill" />
		<tag k="old_name:se" v="Stabba" />
		<tag k="place" v="locality" />
		<tag k="ssr:stedsnr" v="566146" />
	</node>
	<node id="-792699" lat="70.6013277811" lon="22.0968332918">
		<tag k="name" v="Elvedalen" />
		<tag k="natural" v="valley" />
		<tag k="place" v="locality" />
		<tag k="ssr:stedsnr" v="636282" />
	</node>
	<node id="-792696" lat="70.6152555561" lon="22.1898221795">
		<tag k="name" v="Høgda" />
		<tag k="natural" v="hill" />
		<tag k="place" v="locality" />
		<tag k="ssr:stedsnr" v="636205" />
	</node>
	<node id="-792596" lat="70.5646388927" lon="22.7363582778">
		<tag k="name" v="Nordbotndalen" />
		<tag k="natural" v="valley" />
		<tag k="place" v="locality" />
		<tag k="ssr:stedsnr" v="566342" />
	</node>
	<node id="-792181" lat="70.5847944501" lon="22.5528082747">
		<tag k="fixme" v="consider natural=peak for the most distinct mountains in the district" />
		<tag k="name" v="Máhtosnjunni" />
		<tag k="name:se" v="Máhtosnjunni" />
		<tag k="natural" v="hill" />
		<tag k="old_name:se" v="Mattusnjunni" />
		<tag k="place" v="locality" />
		<tag k="ssr:stedsnr" v="81380" />
	</node>
	<node id="-792692" lat="70.5849361093" lon="22.6355388207">
		<tag k="name" v="Mebotndalen" />
		<tag k="natural" v="valley" />
		<tag k="place" v="locality" />
		<tag k="ssr:stedsnr" v="627380" />
	</node>
	<node id="-792691" lat="70.5924000048" lon="22.614805516">
		<tag k="fixme" v="consider natural=peak for the most distinct mountains in the district" />
		<tag k="name" v="Middagsfjellet" />
		<tag k="natural" v="hill" />
		<tag k="place" v="locality" />
		<tag k="ssr:stedsnr" v="627379" />
	</node>
	<node id="-792688" lat="70.5689999998" lon="22.4883082701">
		<tag k="fixme" v="consider natural=peak for the most distinct mountains in the district" />
		<tag k="name" v="Oarje Borggastat" />
		<tag k="name:se" v="Oarje Borggastat" />
		<tag k="natural" v="hill" />
		<tag k="old_name:se" v="Bårgastat, oarje" />
		<tag k="place" v="locality" />
		<tag k="ssr:stedsnr" v="627356" />
	</node>
	<node id="-792175" lat="70.3434000002" lon="22.4017444066">
		<tag k="fixme" v="consider natural=peak for the most distinct mountains in the district" />
		<tag k="loc_name:se" v="Ruovravárri" />
		<tag k="name" v="Rorafjellet" />
		<tag k="name:no" v="Rorafjellet" />
		<tag k="natural" v="hill" />
		<tag k="place" v="locality" />
		<tag k="ssr:stedsnr" v="81140" />
	</node>
	<node id="-792174" lat="70.3187111095" lon="22.5048444035">
		<tag k="name" v="Nerdalen" />
		<tag k="natural" v="valley" />
		<tag k="place" v="locality" />
		<tag k="ssr:stedsnr" v="81136" />
	</node>
	<node id="-792173" lat="70.3227777825" lon="22.5463638488">
		<tag k="fixme" v="consider natural=peak for the most distinct mountains in the district" />
		<tag k="name" v="Råfjellet - Holgavárri" />
		<tag k="name:no" v="Råfjellet" />
		<tag k="name:se" v="Holgavárri" />
		<tag k="natural" v="hill" />
		<tag k="old_name:se" v="Hålgavarri" />
		<tag k="place" v="locality" />
		<tag k="ssr:stedsnr" v="81128" />
	</node>
	<node id="-792172" lat="70.3096611119" lon="22.5659804911">
		<tag k="name" v="Finndalsgropa" />
		<tag k="natural" v="valley" />
		<tag k="place" v="locality" />
		<tag k="ssr:stedsnr" v="81125" />
	</node>
	<node id="-792683" lat="70.640119443" lon="21.9893388499">
		<tag k="fixme" v="consider natural=peak for the most distinct mountains in the district" />
		<tag k="name" v="Skjolden" />
		<tag k="natural" v="hill" />
		<tag k="place" v="locality" />
		<tag k="ssr:stedsnr" v="626721" />
	</node>
	<node id="-792170" lat="70.5175333306" lon="22.1287138407">
		<tag k="alt_name" v="Rødegga" />
		<tag k="fixme" v="consider natural=peak for the most distinct mountains in the district" />
		<tag k="name" v="Knottan" />
		<tag k="natural" v="hill" />
		<tag k="place" v="locality" />
		<tag k="ssr:stedsnr" v="80728" />
	</node>
	<node id="-792169" lat="70.5915500032" lon="21.9903777419">
		<tag k="alt_name" v="Sjåberget" />
		<tag k="name" v="Skjåberget" />
		<tag k="natural" v="hill" />
		<tag k="place" v="locality" />
		<tag k="ssr:stedsnr" v="80704" />
	</node>
	<node id="-792680" lat="70.6295083355" lon="22.7499193926">
		<tag k="fixme" v="consider natural=peak for the most distinct mountains in the district" />
		<tag k="name" v="Børra" />
		<tag k="natural" v="hill" />
		<tag k="place" v="locality" />
		<tag k="ssr:stedsnr" v="626701" />
	</node>
	<node id="-792167" lat="70.665791665" lon="22.2362360668">
		<tag k="name" v="Vesterskaret" />
		<tag k="natural" v="valley" />
		<tag k="place" v="locality" />
		<tag k="ssr:stedsnr" v="80665" />
	</node>
	<node id="-792166" lat="70.7122388937" lon="22.3938638512">
		<tag k="name" v="Skaret" />
		<tag k="natural" v="valley" />
		<tag k="place" v="locality" />
		<tag k="ssr:stedsnr" v="80755" />
	</node>
	<node id="-792849" lat="70.5746111162" lon="22.2789110716">
		<tag k="name" v="Reindalen" />
		<tag k="natural" v="valley" />
		<tag k="place" v="locality" />
		<tag k="ssr:stedsnr" v="759867" />
	</node>
	<node id="-792934" lat="70.3216861144" lon="22.5284916201">
		<tag k="name" v="Melsetdalen" />
		<tag k="natural" v="valley" />
		<tag k="place" v="locality" />
		<tag k="ssr:stedsnr" v="870145" />
	</node>
	<node id="-792914" lat="70.487063889" lon="22.2280277342">
		<tag k="fixme" v="consider natural=peak for the most distinct mountains in the district" />
		<tag k="name" v="Slettfjellet" />
		<tag k="natural" v="hill" />
		<tag k="place" v="locality" />
		<tag k="ssr:stedsnr" v="819373" />
	</node>
	<node id="-792159" lat="70.2800555582" lon="22.5696999409">
		<tag k="fixme" v="consider natural=peak for the most distinct mountains in the district" />
		<tag k="name" v="Unna Nápparaš" />
		<tag k="name:se" v="Unna Nápparaš" />
		<tag k="natural" v="hill" />
		<tag k="old_name:se" v="Nabbaraš, unna;Unna Nabbaraš" />
		<tag k="place" v="locality" />
		<tag k="ssr:stedsnr" v="80094" />
	</node>
	<node id="-792982" lat="70.6255083389" lon="22.0614388454">
		<tag k="fixme" v="consider natural=peak for the most distinct mountains in the district" />
		<tag k="name" v="Storfossbakken" />
		<tag k="natural" v="hill" />
		<tag k="place" v="locality" />
		<tag k="ssr:stedsnr" v="880385" />
	</node>
	<node id="-792665" lat="70.5344250023" lon="22.552891606">
		<tag k="fixme" v="consider natural=peak for the most distinct mountains in the district" />
		<tag k="name" v="Rypetinden" />
		<tag k="natural" v="hill" />
		<tag k="place" v="locality" />
		<tag k="ssr:stedsnr" v="626358" />
	</node>
	<node id="-792663" lat="70.5442888861" lon="22.2800360677">
		<tag k="fixme" v="consider natural=peak for the most distinct mountains in the district" />
		<tag k="name" v="Rivaren" />
		<tag k="natural" v="hill" />
		<tag k="place" v="locality" />
		<tag k="ssr:stedsnr" v="626345" />
	</node>
	<node id="-792661" lat="70.4977361122" lon="22.2296888475">
		<tag k="fixme" v="consider natural=peak for the most distinct mountains in the district" />
		<tag k="name" v="Løva" />
		<tag k="natural" v="hill" />
		<tag k="place" v="locality" />
		<tag k="ssr:stedsnr" v="626205" />
	</node>
	<node id="-792846" lat="70.6040666665" lon="22.3151555163">
		<tag k="name" v="Storbakken" />
		<tag k="natural" v="slope" />
		<tag k="place" v="locality" />
		<tag k="ssr:stedsnr" v="759825" />
	</node>
	<node id="-792081" lat="70.3615333372" lon="22.4947332959">
		<tag k="fixme" v="consider natural=peak for the most distinct mountains in the district" />
		<tag k="loc_name:se" v="Olggut Fyravárri" />
		<tag k="name" v="Nordfjellet" />
		<tag k="name:no" v="Nordfjellet" />
		<tag k="natural" v="hill" />
		<tag k="place" v="locality" />
		<tag k="ssr:stedsnr" v="20157" />
	</node>
	<node id="-792145" lat="70.5177555593" lon="22.1292055078">
		<tag k="fixme" v="consider natural=peak for the most distinct mountains in the district" />
		<tag k="name" v="Midtre Knotten" />
		<tag k="natural" v="hill" />
		<tag k="place" v="locality" />
		<tag k="ssr:stedsnr" v="34369" />
	</node>
	<node id="-792143" lat="70.5869805539" lon="22.2977305037">
		<tag k="name" v="Lillemoltebærhaugen" />
		<tag k="natural" v="hill" />
		<tag k="place" v="locality" />
		<tag k="ssr:stedsnr" v="31840" />
	</node>
	<node id="-792141" lat="70.5928333369" lon="22.3068999593">
		<tag k="name" v="Hansebakken" />
		<tag k="natural" v="slope" />
		<tag k="place" v="locality" />
		<tag k="ssr:stedsnr" v="31830" />
	</node>
	<node id="-793005" lat="70.6148611128" lon="22.5712388511">
		<tag k="fixme" v="consider natural=peak for the most distinct mountains in the district" />
		<tag k="name" v="Nuorta Borggastat" />
		<tag k="name:se" v="Nuorta Borggastat" />
		<tag k="natural" v="hill" />
		<tag k="old_name:se" v="Bårgastat, nuorta" />
		<tag k="place" v="locality" />
		<tag k="ssr:stedsnr" v="930386" />
	</node>
	<node id="-792651" lat="70.4776722267" lon="22.1242166296">
		<tag k="fixme" v="consider natural=peak for the most distinct mountains in the district" />
		<tag k="name" v="Håen" />
		<tag k="natural" v="hill" />
		<tag k="place" v="locality" />
		<tag k="ssr:stedsnr" v="625300" />
	</node>
	<node id="-792845" lat="70.5920000031" lon="22.313047186">
		<tag k="name" v="Skallflågan" />
		<tag k="natural" v="hill" />
		<tag k="place" v="locality" />
		<tag k="ssr:stedsnr" v="759815" />
	</node>
	<node id="-792135" lat="70.5630361127" lon="22.2707721675">
		<tag k="name" v="Stolpehaugen" />
		<tag k="natural" v="hill" />
		<tag k="place" v="locality" />
		<tag k="ssr:stedsnr" v="31778" />
	</node>
	<node id="-791905" lat="70.5541249986" lon="22.5550777153">
		<tag k="name" v="Moskusdalen" />
		<tag k="natural" v="valley" />
		<tag k="place" v="locality" />
		<tag k="ssr:stedsnr" v="323334" />
	</node>
	<node id="-792132" lat="70.4789777817" lon="22.0880582877">
		<tag k="name" v="Fuggelflåget" />
		<tag k="place" v="locality" />
		<tag k="ssr:stedsnr" v="30484" />
	</node>
	<node id="-792643" lat="70.657469447" lon="21.9467082855">
		<tag k="name" v="Stein" />
		<tag k="natural" v="hill" />
		<tag k="place" v="locality" />
		<tag k="ssr:stedsnr" v="580654" />
	</node>
	<node id="-792248" lat="70.5728444438" lon="22.4182055184">
		<tag k="fixme" v="consider natural=peak for the most distinct mountains in the district" />
		<tag k="name" v="Fokfjellet" />
		<tag k="natural" v="hill" />
		<tag k="place" v="locality" />
		<tag k="ssr:stedsnr" v="141342" />
	</node>
	<node id="-791904" lat="70.5644250012" lon="22.4567999604">
		<tag k="fixme" v="consider natural=peak for the most distinct mountains in the district" />
		<tag k="name" v="Gahpirvuonrášša" />
		<tag k="name:se" v="Gahpirvuonrášša" />
		<tag k="natural" v="hill" />
		<tag k="old_name:se" v="Gappirvuonrašša" />
		<tag k="place" v="locality" />
		<tag k="ssr:stedsnr" v="323333" />
	</node>
	<node id="-792638" lat="70.5806416673" lon="22.2796694023">
		<tag k="name" v="Dalen" />
		<tag k="natural" v="valley" />
		<tag k="place" v="locality" />
		<tag k="ssr:stedsnr" v="577859" />
	</node>
	<node id="-792998" lat="70.5185305551" lon="22.4407110591">
		<tag k="fixme" v="consider natural=peak for the most distinct mountains in the district" />
		<tag k="name" v="Finnhua" />
		<tag k="natural" v="hill" />
		<tag k="place" v="locality" />
		<tag k="ssr:stedsnr" v="930326" />
	</node>
	<node id="-792330" lat="70.5508388893" lon="22.4995777298">
		<tag k="fixme" v="consider natural=peak for the most distinct mountains in the district" />
		<tag k="name" v="Oarje Ávju" />
		<tag k="name:se" v="Oarje Ávju" />
		<tag k="natural" v="hill" />
		<tag k="old_name:se" v="Avjo, oarje" />
		<tag k="place" v="locality" />
		<tag k="ssr:stedsnr" v="202341" />
	</node>
	<node id="-792633" lat="70.6065277752" lon="22.0195555068">
		<tag k="name" v="Markeilraen" />
		<tag k="natural" v="ridge" />
		<tag k="place" v="locality" />
		<tag k="ssr:stedsnr" v="576688" />
	</node>
	<node id="-792120" lat="70.6422416663" lon="21.9691610648">
		<tag k="fixme" v="consider natural=peak for the most distinct mountains in the district" />
		<tag k="name" v="Oksåtra" />
		<tag k="natural" v="hill" />
		<tag k="ssr:stedsnr" v="25053" />
	</node>
	<node id="-792630" lat="70.5235555536" lon="22.1596832827">
		<tag k="name" v="Bårvikresset" />
		<tag k="place" v="locality" />
		<tag k="ssr:stedsnr" v="576463" />
	</node>
	<node id="-792123" lat="70.5769916688" lon="22.2260777393">
		<tag k="name" v="Saltkeilhaugen" />
		<tag k="natural" v="hill" />
		<tag k="place" v="locality" />
		<tag k="ssr:stedsnr" v="30264" />
	</node>
	<node id="-792114" lat="70.5244027834" lon="22.1798388367">
		<tag k="fixme" v="consider natural=peak for the most distinct mountains in the district" />
		<tag k="name" v="Kristinenavaren" />
		<tag k="natural" v="hill" />
		<tag k="place" v="locality" />
		<tag k="ssr:stedsnr" v="20747" />
	</node>
	<node id="-792113" lat="70.5304583383" lon="22.1747805194">
		<tag k="name" v="Kvithellardalen" />
		<tag k="natural" v="valley" />
		<tag k="place" v="locality" />
		<tag k="ssr:stedsnr" v="20746" />
	</node>
	<node id="-792112" lat="70.5964111122" lon="22.0638749748">
		<tag k="fixme" v="consider natural=peak for the most distinct mountains in the district" />
		<tag k="name" v="Einstabben" />
		<tag k="natural" v="hill" />
		<tag k="place" v="locality" />
		<tag k="ssr:stedsnr" v="20730" />
	</node>
	<node id="-792111" lat="70.602013888" lon="22.1282083002">
		<tag k="name" v="Falkeberget" />
		<tag k="natural" v="hill" />
		<tag k="place" v="locality" />
		<tag k="ssr:stedsnr" v="20728" />
	</node>
	<node id="-792620" lat="70.4839722258" lon="22.1702999674">
		<tag k="name" v="Sankthanshaugen" />
		<tag k="natural" v="hill" />
		<tag k="place" v="locality" />
		<tag k="ssr:stedsnr" v="576350" />
	</node>
	<node id="-792614" lat="70.5805500035" lon="22.254191624">
		<tag k="name" v="Løkelvhaugen" />
		<tag k="natural" v="hill" />
		<tag k="place" v="locality" />
		<tag k="ssr:stedsnr" v="576222" />
	</node>
	<node id="-792612" lat="70.5767694414" lon="22.2497805176">
		<tag k="fixme" v="consider natural=peak for the most distinct mountains in the district" />
		<tag k="name" v="Kollaren" />
		<tag k="natural" v="hill" />
		<tag k="place" v="locality" />
		<tag k="ssr:stedsnr" v="571267" />
	</node>
	<node id="-792605" lat="70.6231861126" lon="22.0765888605">
		<tag k="fixme" v="consider natural=peak for the most distinct mountains in the district" />
		<tag k="name" v="Fossbakken" />
		<tag k="natural" v="hill" />
		<tag k="place" v="locality" />
		<tag k="ssr:stedsnr" v="566694" />
	</node>
	<node id="-792673" lat="70.6925166644" lon="22.3676194045">
		<tag k="fixme" v="consider natural=peak for the most distinct mountains in the district" />
		<tag k="name" v="Bølefjellet" />
		<tag k="natural" v="hill" />
		<tag k="place" v="locality" />
		<tag k="ssr:stedsnr" v="626652" />
	</node>
	<node id="-792751" lat="70.5850111146" lon="22.0151833059">
		<tag k="name" v="Eggefjellet" />
		<tag k="natural" v="hill" />
		<tag k="place" v="locality" />
		<tag k="ssr:stedsnr" v="687742" />
	</node>
	<node id="-792597" lat="70.5804333368" lon="22.7433055061">
		<tag k="fixme" v="consider natural=peak for the most distinct mountains in the district" />
		<tag k="name" v="Steinfjellet" />
		<tag k="natural" v="hill" />
		<tag k="place" v="locality" />
		<tag k="ssr:stedsnr" v="566364" />
	</node>
	<node id="-792084" lat="70.499369443" lon="22.3173221682">
		<tag k="fixme" v="consider natural=peak for the most distinct mountains in the district" />
		<tag k="name" v="Taboren" />
		<tag k="natural" v="hill" />
		<tag k="place" v="locality" />
		<tag k="ssr:stedsnr" v="20182" />
	</node>
	<node id="-792775" lat="70.5855277802" lon="22.289011073">
		<tag k="name" v="Barsčohkka" />
		<tag k="name:se" v="Barsčohkka" />
		<tag k="natural" v="hill" />
		<tag k="place" v="locality" />
		<tag k="ssr:stedsnr" v="698829" />
	</node>
	<node id="-792313" lat="70.2896666706" lon="22.6429027176">
		<tag k="fixme" v="consider natural=peak for the most distinct mountains in the district" />
		<tag k="name" v="Lassefjordfjellet - Lásserášša" />
		<tag k="name:no" v="Lassefjordfjellet" />
		<tag k="name:se" v="Lásserášša" />
		<tag k="natural" v="hill" />
		<tag k="old_name:se" v="Lasserašša" />
		<tag k="place" v="locality" />
		<tag k="ssr:stedsnr" v="202114" />
	</node>
	<node id="-792079" lat="70.3074500034" lon="22.5104693929">
		<tag k="name" v="Finndalen" />
		<tag k="natural" v="valley" />
		<tag k="place" v="locality" />
		<tag k="ssr:stedsnr" v="20116" />
	</node>
	<node id="-792078" lat="70.3054888891" lon="22.5723638313">
		<tag k="name" v="Smaldalen" />
		<tag k="natural" v="valley" />
		<tag k="place" v="locality" />
		<tag k="ssr:stedsnr" v="20111" />
	</node>
	<node id="-792077" lat="70.3039916731" lon="22.5981110499">
		<tag k="name" v="Állevággi" />
		<tag k="name:se" v="Állevággi" />
		<tag k="natural" v="valley" />
		<tag k="old_name:se" v="Allevaggi" />
		<tag k="place" v="locality" />
		<tag k="ssr:stedsnr" v="20110" />
	</node>
	<node id="-792076" lat="70.3017722258" lon="22.5573721831">
		<tag k="name" v="Finndalssletta" />
		<tag k="place" v="locality" />
		<tag k="ssr:stedsnr" v="20108" />
	</node>
	<node id="-792581" lat="70.7040833318" lon="22.400763853">
		<tag k="name" v="Måseberget" />
		<tag k="natural" v="hill" />
		<tag k="place" v="locality" />
		<tag k="ssr:stedsnr" v="565643" />
	</node>
	<node id="-792068" lat="70.5687527742" lon="22.3379110712">
		<tag k="name" v="Rundhaugen" />
		<tag k="natural" v="hill" />
		<tag k="place" v="locality" />
		<tag k="ssr:stedsnr" v="881850" />
	</node>
	<node id="-793003" lat="70.5923416702" lon="22.6607638416">
		<tag k="fixme" v="consider natural=peak for the most distinct mountains in the district" />
		<tag k="name" v="Slettfjellet" />
		<tag k="natural" v="hill" />
		<tag k="place" v="locality" />
		<tag k="ssr:stedsnr" v="930375" />
	</node>
</osm>
