<?xml version="1.0" encoding="UTF-8"?>
<osm version="0.6" generator="osmapis">
	<node lat="59.60651389191184" lon="10.919588892570047" id="-16361">
		<tag k="bridge" v="yes" />
		<tag k="layer" v="1" />
		<tag k="name" v="Hobøl" />
		<tag k="ssr:stedsnr" v="46490" />
	</node>
	<node lat="59.54224444235883" lon="11.170377779107328" id="-16377">
		<tag k="alt_name" v="Vamma kraftstasjon" />
		<tag k="landuse" v="industrial" />
		<tag k="name" v="Vamma" />
		<tag k="power" v="plant" />
		<tag k="ssr:stedsnr" v="64504" />
	</node>
	<node lat="59.641011110689355" lon="10.969252775986735" id="-16542">
		<tag k="junction" v="yes" />
		<tag k="name" v="Klågot" />
		<tag k="place" v="locality" />
		<tag k="ssr:stedsnr" v="143810" />
	</node>
	<node lat="59.566830558628965" lon="11.25963611750208" id="-16564">
		<tag k="bridge" v="yes" />
		<tag k="layer" v="1" />
		<tag k="name" v="Slitu" />
		<tag k="ssr:stedsnr" v="167517" />
	</node>
	<node lat="59.54559999743332" lon="11.46519444376553" id="-16565">
		<tag k="bridge" v="yes" />
		<tag k="layer" v="1" />
		<tag k="name" v="Tangen" />
		<tag k="ssr:stedsnr" v="167521" />
	</node>
	<node lat="59.75473817633522" lon="11.254357794454517" id="-16651">
		<tag k="man_made" v="quay" />
		<tag k="name" v="Seterbrygga" />
		<tag k="place" v="locality" />
		<tag k="ssr:stedsnr" v="266658" />
	</node>
	<node lat="59.57839444556545" lon="10.937591659762113" id="-16673">
		<tag k="bridge" v="yes" />
		<tag k="layer" v="1" />
		<tag k="name" v="Tørjebrua" />
		<tag k="ssr:stedsnr" v="205944" />
	</node>
	<node lat="59.53878333097561" lon="11.510227778556896" id="-16686">
		<tag k="bridge" v="yes" />
		<tag k="layer" v="1" />
		<tag k="loc_name" v="Linto" />
		<tag k="name" v="Lintho" />
		<tag k="ssr:stedsnr" v="227483" />
	</node>
	<node lat="59.66849166648189" lon="11.013050007712645" id="-16688">
		<tag k="bridge" v="yes" />
		<tag k="layer" v="1" />
		<tag k="name" v="Vegger" />
		<tag k="ssr:stedsnr" v="228507" />
	</node>
	<node lat="59.61496388554006" lon="11.078127772070447" id="-16756">
		<tag k="junction" v="yes" />
		<tag k="name" v="Myrakrysset" />
		<tag k="place" v="locality" />
		<tag k="ssr:stedsnr" v="264645" />
	</node>
	<node lat="59.612191662189176" lon="11.086283339647103" id="-16758">
		<tag k="junction" v="yes" />
		<tag k="name" v="Høgda" />
		<tag k="place" v="locality" />
		<tag k="ssr:stedsnr" v="264650" />
	</node>
	<node lat="59.6328305535948" lon="11.110933337660963" id="-16799">
		<tag k="bridge" v="yes" />
		<tag k="layer" v="1" />
		<tag k="name" v="Hovin" />
		<tag k="ssr:stedsnr" v="288505" />
	</node>
	<node lat="59.52130555217526" lon="11.020944439271727" id="-16800">
		<tag k="bridge" v="yes" />
		<tag k="layer" v="1" />
		<tag k="name" v="Fossen" />
		<tag k="ssr:stedsnr" v="288509" />
	</node>
	<node lat="59.58225555152952" lon="11.158788892117437" id="-16801">
		<tag k="bridge" v="yes" />
		<tag k="layer" v="1" />
		<tag k="loc_name" v="Roald Amundsens gate" />
		<tag k="name" v="Roald Amundsensgate" />
		<tag k="ssr:stedsnr" v="288500" />
	</node>
	<node lat="59.54739722023397" lon="11.348744452816712" id="-16802">
		<tag k="bridge" v="yes" />
		<tag k="layer" v="1" />
		<tag k="name" v="Mysen" />
		<tag k="ssr:stedsnr" v="289502" />
	</node>
	<node lat="59.54990277509244" lon="11.351819452672279" id="-16803">
		<tag k="bridge" v="yes" />
		<tag k="layer" v="1" />
		<tag k="name" v="Susebakke" />
		<tag k="ssr:stedsnr" v="289507" />
	</node>
	<node lat="59.587027773661475" lon="11.17040555994846" id="-16882">
		<tag k="bridge" v="yes" />
		<tag k="layer" v="1" />
		<tag k="name" v="Trøgstadvegen" />
		<tag k="ssr:stedsnr" v="470542" />
	</node>
	<node lat="59.5576027753562" lon="11.37271389423919" id="-16883">
		<tag k="bridge" v="yes" />
		<tag k="layer" v="1" />
		<tag k="name" v="Ramstad" />
		<tag k="ssr:stedsnr" v="471492" />
	</node>
	<node lat="59.605316665035254" lon="10.96347778643947" id="-16930">
		<tag k="highway" v="path" />
		<tag k="name" v="Korsveien" />
		<tag k="ssr:stedsnr" v="386761" />
	</node>
	<node lat="59.614833331923954" lon="11.079072218758032" id="-16962">
		<tag k="bridge" v="yes" />
		<tag k="layer" v="1" />
		<tag k="name" v="Myrakrysset" />
		<tag k="ssr:stedsnr" v="409540" />
	</node>
	<node lat="59.49367777859432" lon="11.258088894445537" id="-17196">
		<tag k="bridge" v="yes" />
		<tag k="layer" v="1" />
		<tag k="name" v="Tveten" />
		<tag k="ssr:stedsnr" v="531513" />
	</node>
	<node lat="59.7502777790599" lon="11.2943361130823" id="-17270">
		<tag k="bridge" v="yes" />
		<tag k="layer" v="1" />
		<tag k="name" v="Hultebrua" />
		<tag k="ssr:stedsnr" v="692636" />
	</node>
	<node lat="59.60954722148504" lon="11.420113883816684" id="-17290">
		<tag k="junction" v="yes" />
		<tag k="name" v="Fiskerudhaugen" />
		<tag k="place" v="locality" />
		<tag k="ssr:stedsnr" v="569253" />
	</node>
	<node lat="59.56478611160677" lon="11.152294441021759" id="-17311">
		<tag k="bridge" v="yes" />
		<tag k="layer" v="1" />
		<tag k="name" v="Revhaug" />
		<tag k="ssr:stedsnr" v="591521" />
	</node>
	<node lat="59.53895555145605" lon="11.513911113257072" id="-17312">
		<tag k="bridge" v="yes" />
		<tag k="layer" v="1" />
		<tag k="loc_name" v="Lintoveien" />
		<tag k="name" v="Linthoveien" />
		<tag k="ssr:stedsnr" v="592510" />
	</node>
	<node lat="59.569027774342324" lon="11.317077785501068" id="-17313">
		<tag k="bridge" v="yes" />
		<tag k="layer" v="1" />
		<tag k="name" v="Mona" />
		<tag k="ssr:stedsnr" v="592518" />
	</node>
	<node lat="59.564983330157304" lon="10.829741658440442" id="-17403">
		<tag k="bridge" v="yes" />
		<tag k="layer" v="1" />
		<tag k="name" v="Nummestad" />
		<tag k="ssr:stedsnr" v="652135" />
	</node>
	<node lat="59.59531110705904" lon="10.895430557614045" id="-17404">
		<tag k="bridge" v="yes" />
		<tag k="layer" v="1" />
		<tag k="name" v="Huls" />
		<tag k="ssr:stedsnr" v="652436" />
	</node>
	<node lat="59.55302222435231" lon="11.422452773111647" id="-17405">
		<tag k="bridge" v="yes" />
		<tag k="layer" v="1" />
		<tag k="name" v="Berger" />
		<tag k="ssr:stedsnr" v="652535" />
	</node>
	<node lat="59.58119444400122" lon="11.161197221228731" id="-17406">
		<tag k="bridge" v="yes" />
		<tag k="layer" v="1" />
		<tag k="name" v="Sentrum syd" />
		<tag k="ssr:stedsnr" v="652536" />
	</node>
	<node lat="59.552347218512885" lon="11.42438332631463" id="-17407">
		<tag k="bridge" v="yes" />
		<tag k="layer" v="1" />
		<tag k="name" v="Framgangen" />
		<tag k="ssr:stedsnr" v="652538" />
	</node>
	<node lat="59.615944440624745" lon="11.063966661826843" id="-17408">
		<tag k="bridge" v="yes" />
		<tag k="layer" v="1" />
		<tag k="name" v="Lundsåsen" />
		<tag k="ssr:stedsnr" v="652543" />
	</node>
	<node lat="59.65734444019968" lon="11.379024994124531" id="-17409">
		<tag k="bridge" v="yes" />
		<tag k="layer" v="1" />
		<tag k="name" v="Haug" />
		<tag k="ssr:stedsnr" v="652554" />
	</node>
	<node lat="59.611888889194546" lon="11.397899994873177" id="-17410">
		<tag k="bridge" v="yes" />
		<tag k="layer" v="1" />
		<tag k="name" v="Langseter" />
		<tag k="ssr:stedsnr" v="652555" />
	</node>
	<node lat="59.56449999692363" lon="10.829980561359479" id="-17466">
		<tag k="junction" v="yes" />
		<tag k="name" v="Nummestad" />
		<tag k="place" v="locality" />
		<tag k="ssr:stedsnr" v="690279" />
	</node>
	<node lat="59.655558335012074" lon="11.004036111256429" id="-17500">
		<tag k="bridge" v="yes" />
		<tag k="layer" v="1" />
		<tag k="name" v="Brøholt" />
		<tag k="ssr:stedsnr" v="896473" />
	</node>
	<node lat="59.54561666512966" lon="11.492475000207163" id="-17501">
		<tag k="bridge" v="yes" />
		<tag k="layer" v="1" />
		<tag k="name" v="Lundeby" />
		<tag k="ssr:stedsnr" v="896498" />
	</node>
	<node lat="59.55197500217849" lon="11.445633332804496" id="-17502">
		<tag k="bridge" v="yes" />
		<tag k="layer" v="1" />
		<tag k="name" v="Løken" />
		<tag k="ssr:stedsnr" v="713492" />
	</node>
	<node lat="59.56081388981132" lon="11.361477777177026" id="-17503">
		<tag k="bridge" v="yes" />
		<tag k="layer" v="1" />
		<tag k="name" v="Rustad" />
		<tag k="ssr:stedsnr" v="713495" />
	</node>
	<node lat="59.559016665048766" lon="11.065363894191636" id="-17504">
		<tag k="bridge" v="yes" />
		<tag k="layer" v="1" />
		<tag k="loc_name" v="Børen" />
		<tag k="name" v="Bøhren" />
		<tag k="ssr:stedsnr" v="713579" />
	</node>
	<node lat="59.56687140563931" lon="11.261809710950194" id="-17527">
		<tag k="alt_name" v="Slitu" />
		<tag k="name" v="Slitu holdeplass" />
		<tag k="railway" v="halt" />
		<tag k="ssr:stedsnr" v="732622" />
		<tag k="train" v="yes" />
	</node>
	<node lat="59.59107500041952" lon="11.06799722588835" id="-17567">
		<tag k="bridge" v="yes" />
		<tag k="layer" v="1" />
		<tag k="name" v="Bjaberg" />
		<tag k="ssr:stedsnr" v="773524" />
	</node>
	<node lat="59.51342222553285" lon="11.303749998632982" id="-17638">
		<tag k="alt_name" v="Eidsberg" />
		<tag k="name" v="Eidsberg stasjon" />
		<tag k="railway" v="station" />
		<tag k="ssr:stedsnr" v="914731" />
		<tag k="train" v="yes" />
	</node>
	<node lat="59.75781666463508" lon="11.260025004516276" id="-17685">
		<tag k="junction" v="yes" />
		<tag k="name" v="Møtern" />
		<tag k="place" v="locality" />
		<tag k="ssr:stedsnr" v="812696" />
	</node>
	<node lat="59.66968611226451" lon="11.387172230778098" id="-17691">
		<tag k="junction" v="yes" />
		<tag k="name" v="Vassbånn" />
		<tag k="place" v="locality" />
		<tag k="ssr:stedsnr" v="813479" />
	</node>
	<node lat="59.57736516509315" lon="11.21171672148694" id="-17779">
		<tag k="alt_name" v="Sekkelstenkrysset" />
		<tag k="junction" v="yes" />
		<tag k="name" v="Sekkelsteinkrysset" />
		<tag k="place" v="locality" />
		<tag k="ssr:stedsnr" v="934058" />
	</node>
	<node lat="59.5854453549323" lon="11.117468118888535" id="-17815">
		<tag k="junction" v="yes" />
		<tag k="name" v="Krosbykrysset" />
		<tag k="place" v="locality" />
		<tag k="ssr:stedsnr" v="895509" />
	</node>
	<node lat="59.58183611523371" lon="11.142724992425396" id="-17816">
		<tag k="bridge" v="yes" />
		<tag k="layer" v="1" />
		<tag k="name" v="Gurud" />
		<tag k="ssr:stedsnr" v="895510" />
	</node>
	<node lat="59.66651944582866" lon="11.375761113075697" id="-17817">
		<tag k="bridge" v="yes" />
		<tag k="layer" v="1" />
		<tag k="name" v="Østre Sentvedt" />
		<tag k="ssr:stedsnr" v="895517" />
	</node>
	<node lat="59.566519447160324" lon="11.078713889549372" id="-17818">
		<tag k="bridge" v="yes" />
		<tag k="layer" v="1" />
		<tag k="name" v="Skjærsåker" />
		<tag k="ssr:stedsnr" v="895522" />
	</node>
	<node lat="59.61520278202817" lon="11.408969451106831" id="-17819">
		<tag k="bridge" v="yes" />
		<tag k="layer" v="1" />
		<tag k="name" v="Havnås" />
		<tag k="ssr:stedsnr" v="895531" />
	</node>
	<node lat="59.584730552913676" lon="11.405663889587267" id="-17820">
		<tag k="bridge" v="yes" />
		<tag k="layer" v="1" />
		<tag k="name" v="Åsengen" />
		<tag k="ssr:stedsnr" v="896512" />
	</node>
	<node lat="59.581305557715865" lon="11.170577779175904" id="-17875">
		<tag k="bridge" v="yes" />
		<tag k="layer" v="1" />
		<tag k="name" v="Eidsbergvegen" />
		<tag k="ssr:stedsnr" v="956611" />
	</node>
	<node lat="59.54725555589677" lon="11.350849993335741" id="-17983">
		<tag k="highway" v="path" />
		<tag k="name" v="Kjærlighetsstien" />
		<tag k="ssr:stedsnr" v="24357" />
	</node>
	<node lat="59.65988694522908" lon="11.002303687409798" id="-18013">
		<tag k="alt_name" v="Tomter" />
		<tag k="name" v="Tomter stasjon" />
		<tag k="railway" v="station" />
		<tag k="ssr:stedsnr" v="63518" />
		<tag k="train" v="yes" />
	</node>
	<node lat="59.636547218807294" lon="11.154200003527283" id="-18037">
		<tag k="alt_name" v="Solbergfoss" />
		<tag k="landuse" v="industrial" />
		<tag k="name" v="Solbergfoss kraftverk" />
		<tag k="power" v="plant" />
		<tag k="ssr:stedsnr" v="65976" />
	</node>
	<node lat="59.66123889247377" lon="11.153319442999651" id="-18042">
		<tag k="junction" v="yes" />
		<tag k="name" v="Godheim" />
		<tag k="place" v="locality" />
		<tag k="ssr:stedsnr" v="82688" />
	</node>
	<node lat="59.53995833452956" lon="11.526619439151943" id="-18097">
		<tag k="bridge" v="yes" />
		<tag k="layer" v="1" />
		<tag k="name" v="Jorderuddalen" />
		<tag k="ssr:stedsnr" v="106530" />
	</node>
	<node lat="59.64772222085626" lon="11.263624996786275" id="-18098">
		<tag k="bridge" v="yes" />
		<tag k="layer" v="1" />
		<tag k="name" v="Mønster" />
		<tag k="ssr:stedsnr" v="106532" />
	</node>
	<node lat="59.53978611085548" lon="11.538108335362757" id="-18099">
		<tag k="bridge" v="yes" />
		<tag k="layer" v="1" />
		<tag k="name" v="Slesvig" />
		<tag k="ssr:stedsnr" v="107490" />
	</node>
	<node lat="59.657016667811995" lon="11.018002782455863" id="-18100">
		<tag k="bridge" v="yes" />
		<tag k="layer" v="1" />
		<tag k="name" v="Bliksland" />
		<tag k="ssr:stedsnr" v="107466" />
	</node>
	<node lat="59.560000002081566" lon="11.375094445002304" id="-18132">
		<tag k="junction" v="yes" />
		<tag k="name" v="Rova" />
		<tag k="place" v="locality" />
		<tag k="ssr:stedsnr" v="125593" />
	</node>
	<node lat="59.53923888733512" lon="11.500641664127286" id="-18221">
		<tag k="bridge" v="yes" />
		<tag k="layer" v="1" />
		<tag k="name" v="Slorebymosen" />
		<tag k="ssr:stedsnr" v="167526" />
	</node>
	<node lat="59.572827775483944" lon="11.22121111137303" id="-18222">
		<tag k="bridge" v="yes" />
		<tag k="layer" v="1" />
		<tag k="name" v="Eiebakke" />
		<tag k="ssr:stedsnr" v="167592" />
	</node>
	<node lat="59.60180555220072" lon="11.420952770023971" id="-18223">
		<tag k="bridge" v="yes" />
		<tag k="layer" v="1" />
		<tag k="name" v="Buer" />
		<tag k="ssr:stedsnr" v="167596" />
	</node>
	<node lat="59.63248611065528" lon="11.249980549517824" id="-18305">
		<tag k="fixme" v="consider highway=path" />
		<tag k="highway" v="track" />
		<tag k="name" v="Øddestegen" />
		<tag k="ssr:stedsnr" v="206247" />
	</node>
	<node lat="59.642186110650556" lon="10.977799996527095" id="-18350">
		<tag k="bridge" v="yes" />
		<tag k="layer" v="1" />
		<tag k="name" v="Brekke" />
		<tag k="ssr:stedsnr" v="289461" />
	</node>
	<node lat="59.62198333275642" lon="10.983361118442293" id="-18351">
		<tag k="bridge" v="yes" />
		<tag k="layer" v="1" />
		<tag k="name" v="Foss" />
		<tag k="ssr:stedsnr" v="289473" />
	</node>
	<node lat="59.54749444309394" lon="11.336480546723584" id="-18449">
		<tag k="ford" v="yes" />
		<tag k="name" v="Lauvnesvadet" />
		<tag k="place" v="locality" />
		<tag k="ssr:stedsnr" v="327349" />
	</node>
	<node lat="59.52979166581251" lon="11.24228055305671" id="-18480">
		<tag k="bridge" v="yes" />
		<tag k="layer" v="1" />
		<tag k="name" v="Haga" />
		<tag k="ssr:stedsnr" v="348520" />
	</node>
	<node lat="59.58355833388522" lon="11.062066668112443" id="-18481">
		<tag k="bridge" v="yes" />
		<tag k="layer" v="1" />
		<tag k="name" v="Kjos" />
		<tag k="ssr:stedsnr" v="348530" />
	</node>
	<node lat="59.60544722144867" lon="11.176016664304022" id="-18567">
		<tag k="junction" v="yes" />
		<tag k="name" v="Kolstadkrysset" />
		<tag k="place" v="locality" />
		<tag k="ssr:stedsnr" v="387056" />
	</node>
	<node lat="59.58992500176104" lon="11.199794441675287" id="-18578">
		<tag k="junction" v="yes" />
		<tag k="name" v="Korsegarden" />
		<tag k="place" v="locality" />
		<tag k="ssr:stedsnr" v="387725" />
	</node>
	<node lat="59.52303055702449" lon="11.248536118899867" id="-18596">
		<tag k="bridge" v="yes" />
		<tag k="layer" v="1" />
		<tag k="name" v="Lekum" />
		<tag k="ssr:stedsnr" v="409532" />
	</node>
	<node lat="59.64490277826818" lon="11.338738893968502" id="-18716">
		<tag k="junction" v="yes" />
		<tag k="name" v="Verpet" />
		<tag k="place" v="locality" />
		<tag k="ssr:stedsnr" v="509468" />
	</node>
	<node lat="59.58036944814309" lon="11.166536110658535" id="-18739">
		<tag k="bridge" v="yes" />
		<tag k="layer" v="1" />
		<tag k="name" v="Bakke" />
		<tag k="ssr:stedsnr" v="531600" />
	</node>
	<node lat="59.624826292481536" lon="11.03244440685861" id="-18743">
		<tag k="alt_name" v="Knappstad;Knapstad" />
		<tag k="name" v="Knapstad holdeplass" />
		<tag k="railway" v="halt" />
		<tag k="ssr:stedsnr" v="541355" />
		<tag k="train" v="yes" />
	</node>
	<node lat="59.576533333063644" lon="11.281472216582053" id="-18855">
		<tag k="bridge" v="yes" />
		<tag k="layer" v="1" />
		<tag k="name" v="Brødremoen" />
		<tag k="ssr:stedsnr" v="591530" />
	</node>
	<node lat="59.5740166696994" lon="11.288127786830998" id="-18856">
		<tag k="bridge" v="yes" />
		<tag k="layer" v="1" />
		<tag k="name" v="Brennemoen" />
		<tag k="ssr:stedsnr" v="591531" />
	</node>
	<node lat="59.604988890910604" lon="11.100708329839883" id="-18857">
		<tag k="bridge" v="yes" />
		<tag k="layer" v="1" />
		<tag k="name" v="Tørje" />
		<tag k="ssr:stedsnr" v="591540" />
	</node>
	<node lat="59.6224527753179" lon="10.986341666815331" id="-18858">
		<tag k="bridge" v="yes" />
		<tag k="layer" v="1" />
		<tag k="name" v="Feierkulpa" />
		<tag k="ssr:stedsnr" v="592485" />
	</node>
	<node lat="59.62283320944721" lon="10.94961046194138" id="-18859">
		<tag k="bridge" v="yes" />
		<tag k="layer" v="1" />
		<tag k="name" v="Elvestadkrysset" />
		<tag k="ssr:stedsnr" v="592488" />
	</node>
	<node lat="59.61855555592376" lon="10.943311106363973" id="-18860">
		<tag k="bridge" v="yes" />
		<tag k="layer" v="1" />
		<tag k="name" v="Tingulstad" />
		<tag k="ssr:stedsnr" v="592500" />
	</node>
	<node lat="59.539324999566915" lon="11.51836666565196" id="-18966">
		<tag k="bridge" v="yes" />
		<tag k="layer" v="1" />
		<tag k="name" v="Nordre Svarverud" />
		<tag k="ssr:stedsnr" v="652464" />
	</node>
	<node lat="59.54046388795931" lon="11.262419446830432" id="-18967">
		<tag k="bridge" v="yes" />
		<tag k="layer" v="1" />
		<tag k="name" v="Moen" />
		<tag k="ssr:stedsnr" v="652466" />
	</node>
	<node lat="59.58023611498752" lon="11.26158332512639" id="-18968">
		<tag k="bridge" v="yes" />
		<tag k="layer" v="1" />
		<tag k="name" v="Øyerud" />
		<tag k="ssr:stedsnr" v="652474" />
	</node>
	<node lat="59.561500002832815" lon="10.881552775584515" id="-18990">
		<tag k="bridge" v="yes" />
		<tag k="layer" v="1" />
		<tag k="name" v="Holo" />
		<tag k="ssr:stedsnr" v="713472" />
	</node>
	<node lat="59.62071088522717" lon="11.079012756118036" id="-19050">
		<tag k="alt_name" v="Spydeberg" />
		<tag k="name" v="Spydeberg stasjon" />
		<tag k="railway" v="station" />
		<tag k="ssr:stedsnr" v="750632" />
		<tag k="train" v="yes" />
	</node>
	<node lat="59.55456388870023" lon="11.393211118747828" id="-19100">
		<tag k="bridge" v="yes" />
		<tag k="layer" v="1" />
		<tag k="name" v="Vister" />
		<tag k="ssr:stedsnr" v="774530" />
	</node>
	<node lat="59.600124998541965" lon="11.186019437341535" id="-19184">
		<tag k="junction" v="yes" />
		<tag k="name" v="Bergerkrysset" />
		<tag k="place" v="locality" />
		<tag k="ssr:stedsnr" v="812042" />
	</node>
	<node lat="59.545311108000675" lon="11.31664166353725" id="-19215">
		<tag k="bridge" v="yes" />
		<tag k="layer" v="1" />
		<tag k="name" v="Flaten" />
		<tag k="ssr:stedsnr" v="834546" />
	</node>
	<node lat="59.670802776637565" lon="11.133400003166543" id="-19216">
		<tag k="bridge" v="yes" />
		<tag k="layer" v="1" />
		<tag k="name" v="Haugen" />
		<tag k="ssr:stedsnr" v="834558" />
	</node>
	<node lat="59.54817500155646" lon="10.846008325679428" id="-19217">
		<tag k="bridge" v="yes" />
		<tag k="layer" v="1" />
		<tag k="name" v="Skjellfoss" />
		<tag k="ssr:stedsnr" v="835498" />
	</node>
	<node lat="59.62231389266982" lon="10.983924999103271" id="-19218">
		<tag k="bridge" v="yes" />
		<tag k="layer" v="1" />
		<tag k="name" v="Hestehavna" />
		<tag k="ssr:stedsnr" v="835499" />
	</node>
	<node lat="59.6721444456325" lon="11.333319438302814" id="-19352">
		<tag k="bridge" v="yes" />
		<tag k="layer" v="1" />
		<tag k="name" v="Gullerud" />
		<tag k="ssr:stedsnr" v="955568" />
	</node>
	<node lat="59.62206111061973" lon="10.971230551476824" id="-19353">
		<tag k="bridge" v="yes" />
		<tag k="layer" v="1" />
		<tag k="name" v="Foss" />
		<tag k="ssr:stedsnr" v="956484" />
	</node>
	<node lat="59.62276388764891" lon="10.952369447740244" id="-19354">
		<tag k="bridge" v="yes" />
		<tag k="layer" v="1" />
		<tag k="name" v="Bovim" />
		<tag k="ssr:stedsnr" v="956487" />
	</node>
	<node lat="59.68621944365886" lon="11.040333329823852" id="-19355">
		<tag k="bridge" v="yes" />
		<tag k="layer" v="1" />
		<tag k="name" v="Jaren" />
		<tag k="ssr:stedsnr" v="956491" />
	</node>
	<node lat="59.64123611453942" lon="10.968858326863527" id="-19356">
		<tag k="bridge" v="yes" />
		<tag k="layer" v="1" />
		<tag k="name" v="Klågot" />
		<tag k="ssr:stedsnr" v="956493" />
	</node>
	<node lat="59.47399721795665" lon="11.32987777400511" id="-19358">
		<tag k="alt_name" v="Heia" />
		<tag k="name" v="Heia stasjon" />
		<tag k="railway" v="station" />
		<tag k="ssr:stedsnr" v="961262" />
		<tag k="train" v="yes" />
	</node>
	<node lat="59.62847011647092" lon="10.955057001362558" id="-19372">
		<tag k="junction" v="yes" />
		<tag k="name" v="Elvestadkrysset" />
		<tag k="place" v="locality" />
		<tag k="ssr:stedsnr" v="981544" />
	</node>
	<node lat="59.581696321265234" lon="11.163055560925068" id="-19378">
		<tag k="name" v="Askim stasjon" />
		<tag k="railway" v="station" />
		<tag k="ssr:stedsnr" v="989977" />
		<tag k="train" v="yes" />
	</node>
	<node lat="59.55378852413929" lon="11.324229046783946" id="-19379">
		<tag k="name" v="Mysen stasjon" />
		<tag k="railway" v="station" />
		<tag k="ssr:stedsnr" v="990084" />
		<tag k="train" v="yes" />
	</node>
</osm>
