<?xml version="1.0" encoding="UTF-8"?>
<osm generator="osmapis" version="0.6">
	<node id="-239605" lat="59.5166000036" lon="11.0300000089">
		<tag k="alt_name" v="Stutefosstjernet" />
		<tag k="name" v="Stutfosstjern" />
		<tag k="natural" v="water" />
		<tag k="ssr:stedsnr" v="307066" />
	</node>
	<node id="-239602" lat="59.4763583293" lon="11.4900555619">
		<tag k="name" v="Hommeln" />
		<tag k="natural" v="water" />
		<tag k="ssr:stedsnr" v="306550" />
	</node>
	<node id="-239600" lat="59.4835307626" lon="11.4892885516">
		<tag k="fixme" v="multiple name tags, choose one and add the other to alt_name" />
		<tag k="name" v="Store Basdal;Store Basdalsvannet" />
		<tag k="natural" v="water" />
		<tag k="ssr:stedsnr" v="306532" />
		<tag k="water" v="lake" />
	</node>
	<node id="-239597" lat="59.5261472184" lon="11.0580305553">
		<tag k="alt_name" v="Høymyrtjern" />
		<tag k="name" v="Høymyrtjernet" />
		<tag k="natural" v="water" />
		<tag k="ssr:stedsnr" v="307020" />
	</node>
	<node id="-239589" lat="59.4980499958" lon="11.4142750085">
		<tag k="name" v="Lintjern" />
		<tag k="natural" v="water" />
		<tag k="ssr:stedsnr" v="305035" />
	</node>
	<node id="-239582" lat="59.6618663246" lon="11.4320458953">
		<tag k="name" v="Linntjern" />
		<tag k="natural" v="water" />
		<tag k="ssr:stedsnr" v="206914" />
		<tag k="water" v="lake" />
	</node>
	<node id="-239576" lat="59.6215916698" lon="11.4391750033">
		<tag k="name" v="Abbortjern" />
		<tag k="natural" v="water" />
		<tag k="ssr:stedsnr" v="206825" />
	</node>
	<node id="-239565" lat="59.7042249963" lon="11.242669437">
		<tag k="name" v="Nøkkevika" />
		<tag k="natural" v="bay" />
		<tag k="ssr:stedsnr" v="206705" />
	</node>
	<node id="-239559" lat="59.7285361145" lon="11.248780553">
		<tag k="name" v="Johannesskjæret" />
		<tag k="place" v="islet" />
		<tag k="ssr:stedsnr" v="206623" />
	</node>
	<node id="-239557" lat="59.7170111115" lon="11.2504083314">
		<tag k="name" v="Tjoretangen" />
		<tag k="natural" v="cape" />
		<tag k="ssr:stedsnr" v="206598" />
	</node>
	<node id="-239548" lat="59.6482499992" lon="11.3008694444">
		<tag k="name" v="Sønnabekken" />
		<tag k="ssr:stedsnr" v="206491" />
		<tag k="waterway" v="stream" />
	</node>
	<node id="-239538" lat="59.5147305533" lon="11.4581694497">
		<tag k="name" v="Asketjern" />
		<tag k="natural" v="water" />
		<tag k="ssr:stedsnr" v="206317" />
	</node>
	<node id="-239533" lat="59.5082055512" lon="11.4662055577">
		<tag k="name" v="Merratjern" />
		<tag k="natural" v="water" />
		<tag k="ssr:stedsnr" v="206287" />
	</node>
	<node id="-237893" lat="59.5349583301" lon="11.5357527741">
		<tag k="name" v="Skjælabrutjern" />
		<tag k="natural" v="water" />
		<tag k="ssr:stedsnr" v="294621" />
	</node>
	<node id="-239502" lat="59.6161277791" lon="11.123569436">
		<tag k="name" v="Saksebølvika" />
		<tag k="natural" v="bay" />
		<tag k="ssr:stedsnr" v="204651" />
	</node>
	<node id="-239498" lat="59.6200749999" lon="11.1343361036">
		<tag k="name" v="Åssumtangen" />
		<tag k="natural" v="cape" />
		<tag k="ssr:stedsnr" v="204627" />
	</node>
	<node id="-239489" lat="59.5045749972" lon="11.2368916603">
		<tag k="name" v="Djupingen" />
		<tag k="natural" v="bay" />
		<tag k="ssr:stedsnr" v="204501" />
	</node>
	<node id="-239488" lat="59.6511885793" lon="11.26134054">
		<tag k="alt_name" v="Mønsteret" />
		<tag k="name" v="Mønstervika" />
		<tag k="natural" v="bay" />
		<tag k="ssr:stedsnr" v="186995" />
	</node>
	<node id="-239466" lat="59.6505333355" lon="11.3824888906">
		<tag k="alt_name" v="Dilleviksjøen" />
		<tag k="name" v="Hærsetsjøen" />
		<tag k="natural" v="water" />
		<tag k="ssr:stedsnr" v="186774" />
	</node>
	<node id="-239460" lat="59.5003916667" lon="11.4454583364">
		<tag k="alt_name" v="Midtre Ertevann" />
		<tag k="name" v="Midtre Ertevannet" />
		<tag k="natural" v="water" />
		<tag k="ssr:stedsnr" v="186688" />
	</node>
	<node id="-239450" lat="59.5932194436" lon="11.4912361191">
		<tag k="name" v="Rokovann" />
		<tag k="natural" v="water" />
		<tag k="ssr:stedsnr" v="186497" />
	</node>
	<node id="-239449" lat="59.5843472227" lon="11.4972027849">
		<tag k="name" v="Bergvannet" />
		<tag k="natural" v="water" />
		<tag k="ssr:stedsnr" v="186496" />
	</node>
	<node id="-239440" lat="59.5682388924" lon="10.9805194473">
		<tag k="name" v="Stenerudtjernet" />
		<tag k="natural" v="water" />
		<tag k="ssr:stedsnr" v="186203" />
	</node>
	<node id="-239430" lat="59.6753944484" lon="11.1475999936">
		<tag k="name" v="Langtjern" />
		<tag k="natural" v="water" />
		<tag k="ssr:stedsnr" v="186029" />
	</node>
	<node id="-239425" lat="59.4986861069" lon="11.0531666652">
		<tag k="alt_name" v="Bergsjøtjern" />
		<tag k="name" v="Bergsjøtjernet" />
		<tag k="natural" v="water" />
		<tag k="ssr:stedsnr" v="185634" />
	</node>
	<node id="-239421" lat="59.670915206" lon="11.0880194873">
		<tag k="fixme" v="multiple name tags, choose one and add the other to alt_name" />
		<tag k="name" v="Rudtjernet;Skoletjern" />
		<tag k="natural" v="water" />
		<tag k="ssr:stedsnr" v="185431" />
	</node>
	<node id="-239402" lat="59.4988805591" lon="11.5141388923">
		<tag k="name" v="Svarttjern" />
		<tag k="natural" v="water" />
		<tag k="ssr:stedsnr" v="172468" />
	</node>
	<node id="-239401" lat="59.4916916706" lon="11.4175694432">
		<tag k="name" v="Igletjern" />
		<tag k="natural" v="water" />
		<tag k="ssr:stedsnr" v="172448" />
	</node>
	<node id="-239400" lat="59.4800805523" lon="11.5139944494">
		<tag k="name" v="Storetjæra" />
		<tag k="ssr:stedsnr" v="172446" />
		<tag k="waterway" v="river" />
	</node>
	<node id="-239398" lat="59.565513887" lon="11.5254805582">
		<tag k="name" v="Svarttjern" />
		<tag k="natural" v="water" />
		<tag k="ssr:stedsnr" v="172415" />
	</node>
	<node id="-239397" lat="59.5540777776" lon="11.5370666725">
		<tag k="name" v="Lille Korstjern" />
		<tag k="natural" v="water" />
		<tag k="ssr:stedsnr" v="172394" />
	</node>
	<node id="-239395" lat="59.483161108" lon="11.428511106">
		<tag k="name" v="Glørudtjern" />
		<tag k="natural" v="water" />
		<tag k="ssr:stedsnr" v="172372" />
	</node>
	<node id="-239389" lat="59.6516250005" lon="11.3630999949">
		<tag k="name" v="Bustebekken" />
		<tag k="ssr:stedsnr" v="145948" />
		<tag k="waterway" v="stream" />
	</node>
	<node id="-239370" lat="59.5398527787" lon="11.3196194394">
		<tag k="name" v="Skjørtorpbekken" />
		<tag k="ssr:stedsnr" v="145330" />
		<tag k="waterway" v="stream" />
	</node>
	<node id="-239368" lat="59.5115882523" lon="11.4262004386">
		<tag k="name" v="Askevannet" />
		<tag k="natural" v="water" />
		<tag k="ssr:stedsnr" v="145319" />
		<tag k="water" v="lake" />
	</node>
	<node id="-239367" lat="59.5097333372" lon="11.431977785">
		<tag k="name" v="Skimmeltjern" />
		<tag k="natural" v="water" />
		<tag k="ssr:stedsnr" v="145318" />
	</node>
	<node id="-239365" lat="59.5897694429" lon="11.4413611036">
		<tag k="name" v="Dalselva" />
		<tag k="ssr:stedsnr" v="145295" />
		<tag k="waterway" v="river" />
	</node>
	<node id="-239364" lat="59.5256184698" lon="11.4973654758">
		<tag k="name" v="Rokovannet" />
		<tag k="natural" v="water" />
		<tag k="ssr:stedsnr" v="145288" />
		<tag k="water" v="lake" />
	</node>
	<node id="-237866" lat="59.6261777821" lon="11.4730500008">
		<tag k="name" v="Søndre Haugetjern" />
		<tag k="natural" v="water" />
		<tag k="ssr:stedsnr" v="145823" />
	</node>
	<node id="-239351" lat="59.5640999961" lon="10.9826388944">
		<tag k="name" v="Mørkbekken" />
		<tag k="ssr:stedsnr" v="143983" />
		<tag k="waterway" v="stream" />
	</node>
	<node id="-237863" lat="59.6602805534" lon="11.2273611035">
		<tag k="name" v="Gåsa" />
		<tag k="place" v="island" />
		<tag k="ssr:stedsnr" v="145707" />
	</node>
	<node id="-237862" lat="59.6796166634" lon="11.2476138935">
		<tag k="name" v="Agnestangen" />
		<tag k="natural" v="cape" />
		<tag k="ssr:stedsnr" v="145702" />
	</node>
	<node id="-238470" lat="59.6384463513" lon="11.389815075">
		<tag k="name" v="Skottasjøen" />
		<tag k="natural" v="water" />
		<tag k="ssr:stedsnr" v="691935" />
		<tag k="water" v="lake" />
	</node>
	<node id="-239303" lat="59.7604408274" lon="11.2475974197">
		<tag k="fixme" v="multiple name tags, choose one and add the other to alt_name" />
		<tag k="name" v="Nordseterholmen;Seterholmen" />
		<tag k="place" v="islet" />
		<tag k="ssr:stedsnr" v="125914" />
	</node>
	<node id="-239296" lat="59.668675003" lon="11.2496833314">
		<tag k="name" v="Sandstangen" />
		<tag k="natural" v="cape" />
		<tag k="ssr:stedsnr" v="125826" />
	</node>
	<node id="-239278" lat="59.6842305542" lon="11.0833777864">
		<tag k="name" v="Lyseren" />
		<tag k="natural" v="water" />
		<tag k="ssr:stedsnr" v="125447" />
		<tag k="water" v="lake" />
	</node>
	<node id="-239275" lat="59.6870388873" lon="10.9577611163">
		<tag k="alt_name" v="Viertjern;Vientjern" />
		<tag k="name" v="Vientjernet" />
		<tag k="natural" v="water" />
		<tag k="ssr:stedsnr" v="125441" />
	</node>
	<node id="-239270" lat="59.5692499957" lon="10.9321305635">
		<tag k="alt_name" v="Søretjern" />
		<tag k="name" v="Søretjernet" />
		<tag k="natural" v="water" />
		<tag k="ssr:stedsnr" v="125243" />
	</node>
	<node id="-239261" lat="59.5361695293" lon="11.0369268243">
		<tag k="name" v="Svarttjerna" />
		<tag k="natural" v="water" />
		<tag k="ssr:stedsnr" v="125031" />
		<tag k="water" v="lake" />
	</node>
	<node id="-239260" lat="59.5286249981" lon="11.047713891">
		<tag k="alt_name" v="Trestrekletjern" />
		<tag k="name" v="Trestikkeltjernet" />
		<tag k="natural" v="water" />
		<tag k="ssr:stedsnr" v="125013" />
	</node>
	<node id="-237850" lat="59.7394598023" lon="11.3402256946">
		<tag k="name" v="Ørekytetjern" />
		<tag k="natural" v="water" />
		<tag k="ssr:stedsnr" v="267510" />
		<tag k="water" v="lake" />
	</node>
	<node id="-239258" lat="59.6410083345" lon="11.2656638844">
		<tag k="name" v="Østelva" />
		<tag k="ssr:stedsnr" v="124971" />
		<tag k="waterway" v="stream" />
	</node>
	<node id="-239252" lat="59.6610472181" lon="11.0915555564">
		<tag k="alt_name" v="Hollitjern" />
		<tag k="name" v="Hollitjernet" />
		<tag k="natural" v="water" />
		<tag k="ssr:stedsnr" v="124203" />
	</node>
	<node id="-239249" lat="59.4969249981" lon="11.4929138942">
		<tag k="name" v="Jonsvannet" />
		<tag k="natural" v="water" />
		<tag k="ssr:stedsnr" v="123925" />
	</node>
	<node id="-239248" lat="59.4452277752" lon="10.8438499932">
		<tag k="name" v="Hobølelva" />
		<tag k="ssr:stedsnr" v="123762" />
		<tag k="waterway" v="river" />
	</node>
	<node id="-239237" lat="59.4845916699" lon="11.4715694477">
		<tag k="name" v="Bjørndalstjern" />
		<tag k="natural" v="water" />
		<tag k="ssr:stedsnr" v="112395" />
	</node>
	<node id="-239236" lat="59.4878277819" lon="11.4945916743">
		<tag k="name" v="Enebærhølet" />
		<tag k="natural" v="water" />
		<tag k="ssr:stedsnr" v="111420" />
	</node>
	<node id="-239234" lat="59.4887249962" lon="11.5319666595">
		<tag k="name" v="Vestre Rundtjern" />
		<tag k="natural" v="water" />
		<tag k="ssr:stedsnr" v="111406" />
	</node>
	<node id="-239233" lat="59.562886115" lon="11.522877785">
		<tag k="name" v="Merratjern" />
		<tag k="natural" v="water" />
		<tag k="ssr:stedsnr" v="111385" />
	</node>
	<node id="-239226" lat="59.6402527802" lon="11.4920416664">
		<tag k="name" v="Øya" />
		<tag k="natural" v="cape" />
		<tag k="ssr:stedsnr" v="98100" />
	</node>
	<node id="-239220" lat="59.6248416658" lon="11.397397227">
		<tag k="name" v="Sandvikøya" />
		<tag k="place" v="island" />
		<tag k="ssr:stedsnr" v="84995" />
	</node>
	<node id="-239219" lat="59.6253777803" lon="11.3474388921">
		<tag k="name" v="Olatjern" />
		<tag k="natural" v="water" />
		<tag k="ssr:stedsnr" v="84987" />
		<tag k="water" v="lake" />
	</node>
	<node id="-239217" lat="59.7380916658" lon="11.2704194368">
		<tag k="name" v="Klufterudbekken" />
		<tag k="ssr:stedsnr" v="84685" />
		<tag k="waterway" v="stream" />
	</node>
	<node id="-239216" lat="59.6558888859" lon="11.2028027819">
		<tag k="name" v="Holsvika" />
		<tag k="natural" v="bay" />
		<tag k="ssr:stedsnr" v="84733" />
	</node>
	<node id="-239214" lat="59.7161916666" lon="11.2510638924">
		<tag k="name" v="Vinterlandet" />
		<tag k="natural" v="beach" />
		<tag k="ssr:stedsnr" v="84647" />
	</node>
	<node id="-239213" lat="59.6856305592" lon="11.2442166746">
		<tag k="name" v="Tangen" />
		<tag k="natural" v="cape" />
		<tag k="ssr:stedsnr" v="84634" />
	</node>
	<node id="-239204" lat="59.5101972228" lon="11.4724833365">
		<tag k="name" v="Sauetjern" />
		<tag k="natural" v="water" />
		<tag k="ssr:stedsnr" v="84358" />
	</node>
	<node id="-239200" lat="59.5920166705" lon="11.4617861136">
		<tag k="name" v="Nestetjern" />
		<tag k="natural" v="water" />
		<tag k="ssr:stedsnr" v="84330" />
	</node>
	<node id="-239199" lat="59.6566083348" lon="11.180838889">
		<tag k="name" v="Skråperudvika" />
		<tag k="natural" v="bay" />
		<tag k="ssr:stedsnr" v="84151" />
	</node>
	<node id="-239194" lat="59.5937249969" lon="10.9863666696">
		<tag k="name" v="Jutulbekken" />
		<tag k="ssr:stedsnr" v="82997" />
		<tag k="waterway" v="stream" />
	</node>
	<node id="-239192" lat="59.5925222184" lon="11.0819833317">
		<tag k="name" v="Kirkebekken" />
		<tag k="ssr:stedsnr" v="82786" />
		<tag k="waterway" v="stream" />
	</node>
	<node id="-239191" lat="59.6228194405" lon="10.9778861191">
		<tag k="name" v="Fossbekken" />
		<tag k="ssr:stedsnr" v="82769" />
		<tag k="waterway" v="stream" />
	</node>
	<node id="-240224" lat="59.7136416634" lon="11.2517416648">
		<tag k="name" v="Eikhaugvika" />
		<tag k="natural" v="bay" />
		<tag k="ssr:stedsnr" v="610883" />
	</node>
	<node id="-239164" lat="59.5134153067" lon="11.4381051208">
		<tag k="fixme" v="multiple name tags, choose one and add the other to alt_name" />
		<tag k="name" v="Grinilangevannet;Langvannet" />
		<tag k="natural" v="water" />
		<tag k="ssr:stedsnr" v="65696" />
	</node>
	<node id="-239156" lat="59.5900249977" lon="11.4704944503">
		<tag k="alt_name" v="Sloretjern" />
		<tag k="name" v="Stortjern" />
		<tag k="natural" v="water" />
		<tag k="ssr:stedsnr" v="65434" />
	</node>
	<node id="-239146" lat="59.6228333337" lon="11.1439055522">
		<tag k="name" v="Onstadsundet" />
		<tag k="natural" v="strait" />
		<tag k="ssr:stedsnr" v="64960" />
	</node>
	<node id="-239138" lat="59.5459472242" lon="10.9470555605">
		<tag k="name" v="Svartbekken" />
		<tag k="ssr:stedsnr" v="65012" />
		<tag k="waterway" v="stream" />
	</node>
	<node id="-239131" lat="59.5765055536" lon="11.3467888808">
		<tag k="name" v="Trarabekken" />
		<tag k="ssr:stedsnr" v="64567" />
		<tag k="waterway" v="stream" />
	</node>
	<node id="-239107" lat="59.4873111089" lon="11.5009138887">
		<tag k="name" v="Nordre Kjelen" />
		<tag k="natural" v="water" />
		<tag k="ssr:stedsnr" v="51429" />
	</node>
	<node id="-239105" lat="59.5056833341" lon="11.5032972178">
		<tag k="name" v="Øksetjern" />
		<tag k="natural" v="water" />
		<tag k="ssr:stedsnr" v="51491" />
	</node>
	<node id="-239104" lat="59.5133027807" lon="11.5140638934">
		<tag k="name" v="Vesleputten" />
		<tag k="natural" v="water" />
		<tag k="ssr:stedsnr" v="51488" />
	</node>
	<node id="-239093" lat="59.6274463386" lon="11.4617559877">
		<tag k="name" v="Småtjerna" />
		<tag k="natural" v="water" />
		<tag k="ssr:stedsnr" v="24832" />
		<tag k="water" v="lake" />
	</node>
	<node id="-239077" lat="59.7381416688" lon="11.3406972252">
		<tag k="name" v="Svartebekk" />
		<tag k="ssr:stedsnr" v="24559" />
		<tag k="waterway" v="stream" />
	</node>
	<node id="-239074" lat="59.5196277761" lon="11.4962416678">
		<tag k="name" v="Vesle Murttjern" />
		<tag k="natural" v="water" />
		<tag k="ssr:stedsnr" v="24275" />
	</node>
	<node id="-239058" lat="59.6787777738" lon="11.1649944416">
		<tag k="name" v="Sjutjern" />
		<tag k="natural" v="water" />
		<tag k="ssr:stedsnr" v="22692" />
	</node>
	<node id="-239053" lat="59.6053055522" lon="11.0654638896">
		<tag k="name" v="Lundsbekken" />
		<tag k="ssr:stedsnr" v="22650" />
		<tag k="waterway" v="stream" />
	</node>
	<node id="-239048" lat="59.5623194433" lon="11.1667305594">
		<tag k="name" v="Løkenbekken" />
		<tag k="ssr:stedsnr" v="22628" />
		<tag k="waterway" v="stream" />
	</node>
	<node id="-239033" lat="59.68540556" lon="11.1828138832">
		<tag k="name" v="Langtjern" />
		<tag k="natural" v="water" />
		<tag k="ssr:stedsnr" v="4846" />
	</node>
	<node id="-239032" lat="59.690786109" lon="11.1152500062">
		<tag k="name" v="Hemnestangen" />
		<tag k="natural" v="cape" />
		<tag k="ssr:stedsnr" v="4840" />
	</node>
	<node id="-239005" lat="59.5132777768" lon="11.4808055532">
		<tag k="name" v="Lomtjern" />
		<tag k="natural" v="water" />
		<tag k="ssr:stedsnr" v="4378" />
	</node>
	<node id="-238994" lat="59.7354083355" lon="11.2595777708">
		<tag k="name" v="Nesodden" />
		<tag k="natural" v="cape" />
		<tag k="ssr:stedsnr" v="4107" />
	</node>
	<node id="-238979" lat="59.6996893457" lon="11.0695784044">
		<tag k="alt_name" v="Skånetjern" />
		<tag k="name" v="Skånetjernet" />
		<tag k="natural" v="water" />
		<tag k="ssr:stedsnr" v="3350" />
	</node>
	<node id="-238972" lat="59.5667638872" lon="10.9167111194">
		<tag k="alt_name" v="Bølertjern" />
		<tag k="name" v="Bølertjernet" />
		<tag k="natural" v="water" />
		<tag k="ssr:stedsnr" v="3165" />
	</node>
	<node id="-238969" lat="59.4925453803" lon="11.4821093729">
		<tag k="name" v="Stålsvannet" />
		<tag k="natural" v="water" />
		<tag k="ssr:stedsnr" v="2592" />
	</node>
	<node id="-238968" lat="59.4850472267" lon="11.5056027762">
		<tag k="name" v="Midtre Kjelen" />
		<tag k="natural" v="water" />
		<tag k="ssr:stedsnr" v="2588" />
	</node>
	<node id="-238967" lat="59.4794111099" lon="11.5095111126">
		<tag k="name" v="Søndre Kjelen" />
		<tag k="natural" v="water" />
		<tag k="ssr:stedsnr" v="2582" />
	</node>
	<node id="-238951" lat="59.488958337" lon="11.4293166599">
		<tag k="name" v="Sagduplene" />
		<tag k="natural" v="water" />
		<tag k="ssr:stedsnr" v="961373" />
	</node>
	<node id="-238950" lat="59.5647805538" lon="11.5154583265">
		<tag k="name" v="Borgåstjern" />
		<tag k="natural" v="water" />
		<tag k="ssr:stedsnr" v="961418" />
	</node>
	<node id="-238931" lat="59.6790952407" lon="11.1229480405">
		<tag k="name" v="Haugensvika" />
		<tag k="natural" v="bay" />
		<tag k="ssr:stedsnr" v="932649" />
	</node>
	<node id="-238930" lat="59.6232027817" lon="11.132402786">
		<tag k="name" v="Hovinvika" />
		<tag k="natural" v="bay" />
		<tag k="ssr:stedsnr" v="932622" />
	</node>
	<node id="-238921" lat="59.6203305546" lon="11.1089027807">
		<tag k="name" v="Smalelva" />
		<tag k="ssr:stedsnr" v="914954" />
		<tag k="waterway" v="river" />
	</node>
	<node id="-238920" lat="59.5028888893" lon="11.5010055573">
		<tag k="name" v="Tvillingtjern" />
		<tag k="natural" v="water" />
		<tag k="ssr:stedsnr" v="901458" />
	</node>
	<node id="-238918" lat="59.724180555" lon="11.2492000028">
		<tag k="name" v="Gåseholmen" />
		<tag k="place" v="islet" />
		<tag k="ssr:stedsnr" v="874664" />
	</node>
	<node id="-237793" lat="59.5996194443" lon="10.8977805576">
		<tag k="name" v="Hulsbekken" />
		<tag k="ssr:stedsnr" v="264973" />
		<tag k="waterway" v="stream" />
	</node>
	<node id="-238905" lat="59.5138222193" lon="11.4458222135">
		<tag k="name" v="Lintjern" />
		<tag k="natural" v="water" />
		<tag k="ssr:stedsnr" v="873358" />
	</node>
	<node id="-238898" lat="59.6351833306" lon="11.251011118">
		<tag k="name" v="Kvernhusbekken" />
		<tag k="ssr:stedsnr" v="873273" />
		<tag k="waterway" v="stream" />
	</node>
	<node id="-238894" lat="59.5754194411" lon="11.5024249925">
		<tag k="name" v="Masttjern" />
		<tag k="natural" v="water" />
		<tag k="ssr:stedsnr" v="873006" />
	</node>
	<node id="-238883" lat="59.6806388846" lon="11.0834083332">
		<tag k="name" v="Gransodden" />
		<tag k="natural" v="cape" />
		<tag k="ssr:stedsnr" v="871661" />
	</node>
	<node id="-238882" lat="59.6790333317" lon="11.0791861192">
		<tag k="name" v="Dalennabben" />
		<tag k="natural" v="cape" />
		<tag k="ssr:stedsnr" v="871659" />
	</node>
	<node id="-238881" lat="59.6062749987" lon="11.139280557">
		<tag k="name" v="Jernbanevika" />
		<tag k="natural" v="bay" />
		<tag k="ssr:stedsnr" v="871655" />
	</node>
	<node id="-238865" lat="59.7255000027" lon="11.3741972234">
		<tag k="alt_name" v="Gangnestjenn" />
		<tag k="name" v="Gangnestjennet" />
		<tag k="natural" v="water" />
		<tag k="ssr:stedsnr" v="854082" />
	</node>
	<node id="-238857" lat="59.563294446" lon="11.480077782">
		<tag k="name" v="Skinnerudtjern" />
		<tag k="natural" v="water" />
		<tag k="ssr:stedsnr" v="853471" />
	</node>
	<node id="-238845" lat="59.4831305555" lon="11.5378888839">
		<tag k="name" v="Svarttjern" />
		<tag k="natural" v="water" />
		<tag k="ssr:stedsnr" v="840418" />
	</node>
	<node id="-238842" lat="59.7487638898" lon="11.3399805612">
		<tag k="name" v="Hagatjern" />
		<tag k="natural" v="water" />
		<tag k="ssr:stedsnr" v="935572" />
		<tag k="water" v="lake" />
	</node>
	<node id="-238830" lat="59.6198189501" lon="11.4656343564">
		<tag k="name" v="Mellem Lierdamtjern" />
		<tag k="natural" v="water" />
		<tag k="ssr:stedsnr" v="934797" />
		<tag k="water" v="lake" />
	</node>
	<node id="-238824" lat="59.6787166676" lon="11.2504138916">
		<tag k="name" v="Agnesvika" />
		<tag k="natural" v="bay" />
		<tag k="ssr:stedsnr" v="934683" />
	</node>
	<node id="-238814" lat="59.7052666635" lon="11.3569944411">
		<tag k="name" v="Vikstjern" />
		<tag k="natural" v="water" />
		<tag k="ssr:stedsnr" v="934544" />
		<tag k="water" v="lake" />
	</node>
	<node id="-238810" lat="59.5458222205" lon="11.4995472147">
		<tag k="name" v="Slepatjern (Sevtjern)" />
		<tag k="natural" v="water" />
		<tag k="ssr:stedsnr" v="934291" />
	</node>
	<node id="-238809" lat="59.5118899654" lon="11.5027099921">
		<tag k="name" v="Blankevanna" />
		<tag k="natural" v="water" />
		<tag k="ssr:stedsnr" v="934266" />
		<tag k="water" v="lake" />
	</node>
	<node id="-238797" lat="59.5593027808" lon="10.7912944378">
		<tag k="name" v="Garderbekken" />
		<tag k="ssr:stedsnr" v="933898" />
		<tag k="waterway" v="stream" />
	</node>
	<node id="-238796" lat="59.5133111155" lon="11.0228277733">
		<tag k="name" v="Vesletjern" />
		<tag k="natural" v="water" />
		<tag k="ssr:stedsnr" v="932991" />
	</node>
	<node id="-238790" lat="59.5306194456" lon="11.0649277756">
		<tag k="name" v="Svartekulp" />
		<tag k="natural" v="water" />
		<tag k="ssr:stedsnr" v="932779" />
	</node>
	<node id="-238783" lat="59.6819611124" lon="11.0786611184">
		<tag k="name" v="Lystadvika" />
		<tag k="natural" v="bay" />
		<tag k="ssr:stedsnr" v="932694" />
	</node>
	<node id="-238777" lat="59.6781805552" lon="11.1257750027">
		<tag k="name" v="Onsnabben" />
		<tag k="natural" v="cape" />
		<tag k="ssr:stedsnr" v="932654" />
	</node>
	<node id="-238773" lat="59.6144333378" lon="10.9904805594">
		<tag k="name" v="Sandakerbekken" />
		<tag k="ssr:stedsnr" v="932732" />
		<tag k="waterway" v="stream" />
	</node>
	<node id="-238766" lat="59.5349666709" lon="11.0397638849">
		<tag k="name" v="Øvre Svarttjern" />
		<tag k="natural" v="water" />
		<tag k="ssr:stedsnr" v="811948" />
	</node>
	<node id="-238765" lat="59.5375944434" lon="11.0352111119">
		<tag k="name" v="Nedre Svarttjern" />
		<tag k="natural" v="water" />
		<tag k="ssr:stedsnr" v="811939" />
	</node>
	<node id="-238764" lat="59.5394194485" lon="11.0492694404">
		<tag k="name" v="Volledalsbekken" />
		<tag k="ssr:stedsnr" v="811937" />
		<tag k="waterway" v="stream" />
	</node>
	<node id="-238753" lat="59.6979000001" lon="11.3524944385">
		<tag k="alt_name" v="Stortjernet" />
		<tag k="name" v="Stortjern" />
		<tag k="natural" v="water" />
		<tag k="ssr:stedsnr" v="792825" />
	</node>
	<node id="-238733" lat="59.7114166647" lon="11.2572999971">
		<tag k="name" v="Dammerudbekken" />
		<tag k="ssr:stedsnr" v="914859" />
		<tag k="waterway" v="stream" />
	</node>
	<node id="-238728" lat="59.6899864925" lon="11.1296245446">
		<tag k="alt_name" v="Bokkøya" />
		<tag k="name" v="Bukkøya" />
		<tag k="place" v="island" />
		<tag k="ssr:stedsnr" v="914816" />
	</node>
	<node id="-238722" lat="59.6639361137" lon="11.3904888877">
		<tag k="alt_name" v="Kallakken" />
		<tag k="name" v="Kallaksjøen" />
		<tag k="natural" v="water" />
		<tag k="ssr:stedsnr" v="914778" />
	</node>
	<node id="-238705" lat="59.5586499986" lon="11.1254861093">
		<tag k="alt_name" v="Vrangen fossen" />
		<tag k="name" v="Vrangfoss" />
		<tag k="natural" v="waterfall" />
		<tag k="ssr:stedsnr" v="914545" />
	</node>
	<node id="-238699" lat="59.6990222234" lon="10.9686083362">
		<tag k="alt_name" v="Gørjetjern" />
		<tag k="name" v="Gjørjetjernet" />
		<tag k="natural" v="water" />
		<tag k="ssr:stedsnr" v="914413" />
	</node>
	<node id="-240726" lat="59.5421555542" lon="11.1710833331">
		<tag k="name" v="Vammafossen" />
		<tag k="natural" v="waterfall" />
		<tag k="ssr:stedsnr" v="24083" />
	</node>
	<node id="-240725" lat="59.6227611113" lon="11.4891666639">
		<tag k="alt_name" v="Damtjern, m" />
		<tag k="name" v="Mellom-Nesdamtjern" />
		<tag k="natural" v="water" />
		<tag k="ssr:stedsnr" v="793284" />
	</node>
	<node id="-240724" lat="59.6228138863" lon="11.4972388816">
		<tag k="alt_name" v="Damtjern, nedre" />
		<tag k="name" v="Nedre Nesdamtjern" />
		<tag k="natural" v="water" />
		<tag k="ssr:stedsnr" v="610318" />
	</node>
	<node id="-238673" lat="59.4784194413" lon="11.3903277778">
		<tag k="name" v="Dørja" />
		<tag k="ssr:stedsnr" v="913191" />
		<tag k="waterway" v="stream" />
	</node>
	<node id="-238668" lat="59.6209916665" lon="11.4597027738">
		<tag k="name" v="Spontjern" />
		<tag k="natural" v="water" />
		<tag k="ssr:stedsnr" v="752214" />
	</node>
	<node id="-238667" lat="59.6061046495" lon="11.4775114677">
		<tag k="name" v="Kavringtjern" />
		<tag k="natural" v="water" />
		<tag k="ssr:stedsnr" v="752212" />
	</node>
	<node id="-240137" lat="59.628947225" lon="11.4694750013">
		<tag k="name" v="Nordre Haugetjern" />
		<tag k="natural" v="water" />
		<tag k="ssr:stedsnr" v="569807" />
	</node>
	<node id="-240681" lat="59.4952722237" lon="11.4734638945">
		<tag k="name" v="Søndre Bustein" />
		<tag k="natural" v="water" />
		<tag k="ssr:stedsnr" v="961460" />
	</node>
	<node id="-240680" lat="59.5061111125" lon="11.4594805569">
		<tag k="name" v="Skjærtjern" />
		<tag k="natural" v="water" />
		<tag k="ssr:stedsnr" v="961459" />
	</node>
	<node id="-240679" lat="59.4806222205" lon="11.4780777713">
		<tag k="name" v="Bjellekutjern" />
		<tag k="natural" v="water" />
		<tag k="ssr:stedsnr" v="961385" />
	</node>
	<node id="-238630" lat="59.6142527768" lon="10.9744999937">
		<tag k="name" v="Kvernhusbekken" />
		<tag k="ssr:stedsnr" v="689724" />
		<tag k="waterway" v="stream" />
	</node>
	<node id="-240677" lat="59.482069441" lon="11.4694583403">
		<tag k="name" v="Vestbykjelen" />
		<tag k="natural" v="water" />
		<tag k="ssr:stedsnr" v="961378" />
	</node>
	<node id="-240676" lat="59.4858138863" lon="11.4543472273">
		<tag k="name" v="Mattjern" />
		<tag k="natural" v="water" />
		<tag k="ssr:stedsnr" v="961376" />
	</node>
	<node id="-238213" lat="59.6577666675" lon="11.3240500072">
		<tag k="name" v="Skvalderbekken" />
		<tag k="ssr:stedsnr" v="509922" />
		<tag k="waterway" v="stream" />
	</node>
	<node id="-238426" lat="59.5973194428" lon="11.4718361156">
		<tag k="name" v="Tangetjern" />
		<tag k="natural" v="water" />
		<tag k="ssr:stedsnr" v="691324" />
	</node>
	<node id="-238618" lat="59.5194694464" lon="11.512877782">
		<tag k="name" v="Trosvik" />
		<tag k="natural" v="bay" />
		<tag k="ssr:stedsnr" v="657458" />
	</node>
	<node id="-238617" lat="59.489922223" lon="11.4685666695">
		<tag k="name" v="Bjørdalstjern" />
		<tag k="natural" v="water" />
		<tag k="ssr:stedsnr" v="657453" />
	</node>
	<node id="-240664" lat="59.654277776" lon="11.3759416745">
		<tag k="name" v="Hærseterøya" />
		<tag k="natural" v="cape" />
		<tag k="ssr:stedsnr" v="873950" />
	</node>
	<node id="-238612" lat="59.6348416683" lon="11.1677333367">
		<tag k="alt_name" v="Lierelva" />
		<tag k="name" v="Lierevja" />
		<tag k="natural" v="bay" />
		<tag k="ssr:stedsnr" v="732960" />
	</node>
	<node id="-240650" lat="59.6494472208" lon="11.253066672">
		<tag k="name" v="Rudslandet" />
		<tag k="natural" v="beach" />
		<tag k="ssr:stedsnr" v="873647" />
	</node>
	<node id="-240642" lat="59.5448222221" lon="11.5044750046">
		<tag k="name" v="Engatjern" />
		<tag k="natural" v="water" />
		<tag k="ssr:stedsnr" v="873331" />
	</node>
	<node id="-238592" lat="59.5518166628" lon="11.285100006">
		<tag k="alt_name" v="Lekumåa" />
		<tag k="name" v="Lekumelva" />
		<tag k="ssr:stedsnr" v="732585" />
		<tag k="waterway" v="river" />
	</node>
	<node id="-240469" lat="59.6490194402" lon="11.1523305567">
		<tag k="name" v="Tonnerudvika" />
		<tag k="natural" v="bay" />
		<tag k="ssr:stedsnr" v="810732" />
	</node>
	<node id="-238587" lat="59.503236114" lon="11.5068111135">
		<tag k="name" v="Lauvvann" />
		<tag k="natural" v="water" />
		<tag k="ssr:stedsnr" v="732383" />
	</node>
	<node id="-238586" lat="59.6245694465" lon="11.4810000004">
		<tag k="alt_name" v="Damtjern, øvre" />
		<tag k="name" v="Øvre Nesdamtjern" />
		<tag k="natural" v="water" />
		<tag k="ssr:stedsnr" v="732289" />
	</node>
	<node id="-238578" lat="59.7483805583" lon="11.3087999995">
		<tag k="alt_name" v="Langtjern" />
		<tag k="name" v="Langtjernet" />
		<tag k="natural" v="water" />
		<tag k="ssr:stedsnr" v="732071" />
	</node>
	<node id="-238566" lat="59.4749611137" lon="11.5343611163">
		<tag k="fixme" v="multiple name tags, choose one and add the other to alt_name" />
		<tag k="name" v="Askevannet;Myrtjern" />
		<tag k="natural" v="water" />
		<tag k="ssr:stedsnr" v="730632" />
	</node>
	<node id="-240611" lat="59.6413083323" lon="11.4631916671">
		<tag k="name" v="Gyltetjernet" />
		<tag k="natural" v="water" />
		<tag k="ssr:stedsnr" v="854982" />
	</node>
	<node id="-238552" lat="59.6999709982" lon="11.3557678919">
		<tag k="name" v="Blåtjern" />
		<tag k="natural" v="water" />
		<tag k="ssr:stedsnr" v="630459" />
		<tag k="water" v="lake" />
	</node>
	<node id="-238548" lat="59.5925083315" lon="11.4918416688">
		<tag k="name" v="Nordre Rokovann" />
		<tag k="natural" v="water" />
		<tag k="ssr:stedsnr" v="630270" />
		<tag k="water" v="lake" />
	</node>
	<node id="-238543" lat="59.506319288" lon="11.4409320834">
		<tag k="name" v="Nordre Ertevannet" />
		<tag k="natural" v="water" />
		<tag k="ssr:stedsnr" v="630322" />
		<tag k="water" v="lake" />
	</node>
	<node id="-238542" lat="59.6676772446" lon="11.2227578599">
		<tag k="name" v="Bogen" />
		<tag k="natural" v="bay" />
		<tag k="ssr:stedsnr" v="630121" />
	</node>
	<node id="-238540" lat="59.5119333343" lon="11.4333638915">
		<tag k="name" v="Svarttjern" />
		<tag k="natural" v="water" />
		<tag k="ssr:stedsnr" v="630008" />
	</node>
	<node id="-238531" lat="59.6797111135" lon="11.1013027844">
		<tag k="name" v="Rudsvika" />
		<tag k="natural" v="bay" />
		<tag k="ssr:stedsnr" v="628661" />
	</node>
	<node id="-238529" lat="59.5886138898" lon="11.0966250087">
		<tag k="name" v="Nordbukta" />
		<tag k="natural" v="bay" />
		<tag k="ssr:stedsnr" v="628753" />
	</node>
	<node id="-240575" lat="59.6090833378" lon="10.9892583359">
		<tag k="alt_name" v="Storedalsbekken" />
		<tag k="name" v="Stordalsbekken" />
		<tag k="ssr:stedsnr" v="853119" />
		<tag k="waterway" v="stream" />
	</node>
	<node id="-238522" lat="59.5221388892" lon="11.2317777781">
		<tag k="name" v="Lekumevja" />
		<tag k="natural" v="bay" />
		<tag k="ssr:stedsnr" v="610761" />
	</node>
	<node id="-240568" lat="59.5044083328" lon="11.4129833276">
		<tag k="name" v="Lintjern" />
		<tag k="natural" v="water" />
		<tag k="ssr:stedsnr" v="840043" />
	</node>
	<node id="-240564" lat="59.4940749971" lon="11.465494445">
		<tag k="name" v="Bjørdalstjern" />
		<tag k="natural" v="water" />
		<tag k="ssr:stedsnr" v="839445" />
	</node>
	<node id="-238504" lat="59.5779000002" lon="10.9897027862">
		<tag k="name" v="Kroktjernet" />
		<tag k="natural" v="water" />
		<tag k="ssr:stedsnr" v="610204" />
	</node>
	<node id="-240548" lat="59.7085805514" lon="11.3676472278">
		<tag k="name" v="Gjeddeskjærtjern" />
		<tag k="natural" v="water" />
		<tag k="ssr:stedsnr" v="813555" />
	</node>
	<node id="-238494" lat="59.5032805574" lon="11.5286916756">
		<tag k="name" v="Steinsvannduplene" />
		<tag k="natural" v="water" />
		<tag k="ssr:stedsnr" v="718465" />
	</node>
	<node id="-238492" lat="59.4743222188" lon="11.5477694454">
		<tag k="name" v="Smaletjern" />
		<tag k="natural" v="water" />
		<tag k="ssr:stedsnr" v="718398" />
	</node>
	<node id="-238489" lat="59.4751805582" lon="11.5382638885">
		<tag k="name" v="Blankevann" />
		<tag k="natural" v="water" />
		<tag k="ssr:stedsnr" v="718393" />
	</node>
	<node id="-238488" lat="59.4721944412" lon="11.5486861044">
		<tag k="name" v="Vardetjern" />
		<tag k="natural" v="water" />
		<tag k="ssr:stedsnr" v="718391" />
	</node>
	<node id="-238487" lat="59.4822694473" lon="11.4407222156">
		<tag k="name" v="Furutjern" />
		<tag k="natural" v="water" />
		<tag k="ssr:stedsnr" v="718382" />
	</node>
	<node id="-240527" lat="59.6674083323" lon="11.4314583255">
		<tag k="name" v="Svarthølet" />
		<tag k="natural" v="water" />
		<tag k="ssr:stedsnr" v="812934" />
		<tag k="water" v="lake" />
	</node>
	<node id="-240519" lat="59.6176202883" lon="11.4463668585">
		<tag k="name" v="Gørdryppelen" />
		<tag k="natural" v="water" />
		<tag k="ssr:stedsnr" v="812848" />
		<tag k="water" v="lake" />
	</node>
	<node id="-240518" lat="59.6215083378" lon="11.4647972205">
		<tag k="name" v="Tyrihjellvika" />
		<tag k="natural" v="bay" />
		<tag k="ssr:stedsnr" v="812841" />
	</node>
	<node id="-240517" lat="59.6206722238" lon="11.4595388835">
		<tag k="name" v="Askedalsbekken" />
		<tag k="ssr:stedsnr" v="812838" />
		<tag k="waterway" v="stream" />
	</node>
	<node id="-238466" lat="59.6774005033" lon="11.4096954709">
		<tag k="name" v="Skjærvengen" />
		<tag k="natural" v="water" />
		<tag k="ssr:stedsnr" v="691896" />
		<tag k="water" v="lake" />
	</node>
	<node id="-240505" lat="59.5417583358" lon="11.3310555481">
		<tag k="name" v="Bergbekken" />
		<tag k="ssr:stedsnr" v="812385" />
		<tag k="waterway" v="stream" />
	</node>
	<node id="-240501" lat="59.5139944435" lon="11.4972277718">
		<tag k="name" v="Ulvåstjern" />
		<tag k="natural" v="water" />
		<tag k="ssr:stedsnr" v="812328" />
	</node>
	<node id="-238443" lat="59.704211109" lon="11.3518027773">
		<tag k="name" v="Grastjern" />
		<tag k="natural" v="water" />
		<tag k="ssr:stedsnr" v="691583" />
		<tag k="water" v="lake" />
	</node>
	<node id="-240489" lat="59.5827083347" lon="10.9967444433">
		<tag k="name" v="Moenbekken" />
		<tag k="ssr:stedsnr" v="811973" />
		<tag k="waterway" v="stream" />
	</node>
	<node id="-238435" lat="59.5124027772" lon="11.2481499958">
		<tag k="name" v="Husebybekken" />
		<tag k="ssr:stedsnr" v="691466" />
		<tag k="waterway" v="stream" />
	</node>
	<node id="-238434" lat="59.5233277751" lon="11.2479666684">
		<tag k="name" v="Lekumfoss" />
		<tag k="natural" v="waterfall" />
		<tag k="ssr:stedsnr" v="691465" />
	</node>
	<node id="-238433" lat="59.5350333342" lon="11.2591944488">
		<tag k="name" v="Moensbekken" />
		<tag k="ssr:stedsnr" v="691458" />
		<tag k="waterway" v="stream" />
	</node>
	<node id="-240479" lat="59.6834472629" lon="11.1331979756">
		<tag k="name" v="Søndre Tangevik" />
		<tag k="natural" v="bay" />
		<tag k="ssr:stedsnr" v="811702" />
	</node>
	<node id="-240474" lat="59.5017027788" lon="11.239188886">
		<tag k="name" v="Sørevja" />
		<tag k="natural" v="bay" />
		<tag k="ssr:stedsnr" v="811539" />
	</node>
	<node id="-238423" lat="59.6579944466" lon="11.2036500087">
		<tag k="name" v="Flatebynabben" />
		<tag k="natural" v="cape" />
		<tag k="ssr:stedsnr" v="691134" />
	</node>
	<node id="-238421" lat="59.676966667" lon="11.2191055571">
		<tag k="name" v="Tjueholmen" />
		<tag k="place" v="islet" />
		<tag k="ssr:stedsnr" v="691132" />
	</node>
	<node id="-238417" lat="59.5398388923" lon="11.5090972147">
		<tag k="name" v="Lintotjern" />
		<tag k="natural" v="water" />
		<tag k="ssr:stedsnr" v="691013" />
	</node>
	<node id="-238407" lat="59.5407305555" lon="11.0550250074">
		<tag k="name" v="Vesle Gravtjern" />
		<tag k="natural" v="water" />
		<tag k="ssr:stedsnr" v="689946" />
	</node>
	<node id="-238406" lat="59.5473762306" lon="10.9940624347">
		<tag k="name" v="Dammen" />
		<tag k="natural" v="water" />
		<tag k="ssr:stedsnr" v="689934" />
		<tag k="water" v="lake" />
	</node>
	<node id="-238399" lat="59.683055811" lon="11.0961176864">
		<tag k="name" v="Stallvika" />
		<tag k="natural" v="bay" />
		<tag k="ssr:stedsnr" v="689689" />
	</node>
	<node id="-238398" lat="59.6876655061" lon="11.1365944819">
		<tag k="name" v="Nordre Tangevik" />
		<tag k="natural" v="bay" />
		<tag k="ssr:stedsnr" v="689688" />
	</node>
	<node id="-237706" lat="59.6864653931" lon="11.1330245547">
		<tag k="name" v="Vøyentangen" />
		<tag k="natural" v="cape" />
		<tag k="ssr:stedsnr" v="246801" />
	</node>
	<node id="-240437" lat="59.6237527791" lon="11.2644111181">
		<tag k="fixme" v="multiple name tags, choose one and add the other to alt_name" />
		<tag k="name" v="Smalelva;Vestelva" />
		<tag k="ssr:stedsnr" v="792938" />
		<tag k="waterway" v="stream" />
	</node>
	<node id="-240430" lat="59.6960888926" lon="11.1196916606">
		<tag k="alt_name" v="Grinøya" />
		<tag k="name" v="Grønøya" />
		<tag k="place" v="island" />
		<tag k="ssr:stedsnr" v="792797" />
	</node>
	<node id="-238381" lat="59.5185972348" lon="11.5025245533">
		<tag k="name" v="Store Murttjern" />
		<tag k="natural" v="water" />
		<tag k="ssr:stedsnr" v="509295" />
		<tag k="water" v="lake" />
	</node>
	<node id="-238378" lat="59.5528361098" lon="11.5128694411">
		<tag k="name" v="Moentjern" />
		<tag k="natural" v="water" />
		<tag k="ssr:stedsnr" v="509280" />
	</node>
	<node id="-238374" lat="59.6563166681" lon="11.1842805559">
		<tag k="name" v="Rugga hølet" />
		<tag k="natural" v="bay" />
		<tag k="ssr:stedsnr" v="509117" />
	</node>
	<node id="-238372" lat="59.668338892" lon="11.2252666662">
		<tag k="name" v="Bognabben" />
		<tag k="natural" v="cape" />
		<tag k="ssr:stedsnr" v="509104" />
	</node>
	<node id="-238362" lat="59.6267611154" lon="11.0782250023">
		<tag k="name" v="Hyllibekken" />
		<tag k="ssr:stedsnr" v="507652" />
		<tag k="waterway" v="stream" />
	</node>
	<node id="-240406" lat="59.748669449" lon="11.3401333264">
		<tag k="name" v="Holmetjern" />
		<tag k="natural" v="water" />
		<tag k="ssr:stedsnr" v="792067" />
	</node>
	<node id="-238350" lat="59.6151250023" lon="11.127049997">
		<tag k="alt_name" v="Saksebøløya" />
		<tag k="name" v="Jutulbrua" />
		<tag k="place" v="islet" />
		<tag k="ssr:stedsnr" v="671925" />
	</node>
	<node id="-238349" lat="59.6180611136" lon="11.4596444452">
		<tag k="alt_name" v="Lierdamtjern nedre" />
		<tag k="name" v="Lier-Damtjern" />
		<tag k="natural" v="water" />
		<tag k="ssr:stedsnr" v="671921" />
	</node>
	<node id="-240387" lat="59.5116722219" lon="11.5188388885">
		<tag k="name" v="Gyrihellervika" />
		<tag k="natural" v="bay" />
		<tag k="ssr:stedsnr" v="779451" />
	</node>
	<node id="-240386" lat="59.4716916634" lon="11.5398555538">
		<tag k="name" v="Bergtjern" />
		<tag k="natural" v="water" />
		<tag k="ssr:stedsnr" v="779387" />
	</node>
	<node id="-238335" lat="59.6580777823" lon="11.3847305514">
		<tag k="name" v="Hæra" />
		<tag k="ssr:stedsnr" v="671772" />
		<tag k="waterway" v="river" />
	</node>
	<node id="-238333" lat="59.6587055544" lon="11.200674992">
		<tag k="name" v="Flatebyvika" />
		<tag k="natural" v="bay" />
		<tag k="ssr:stedsnr" v="671747" />
	</node>
	<node id="-240376" lat="59.5987201855" lon="11.3928581256">
		<tag k="name" v="Autentjern" />
		<tag k="natural" v="water" />
		<tag k="ssr:stedsnr" v="752880" />
		<tag k="water" v="lake" />
	</node>
	<node id="-240373" lat="59.617455552" lon="11.4557388906">
		<tag k="name" v="Håkonussen" />
		<tag k="natural" v="bay" />
		<tag k="ssr:stedsnr" v="752810" />
	</node>
	<node id="-240369" lat="59.7405305541" lon="11.257558335">
		<tag k="name" v="Lundskjæret" />
		<tag k="place" v="islet" />
		<tag k="ssr:stedsnr" v="752613" />
	</node>
	<node id="-240364" lat="59.7497583312" lon="11.2574888828">
		<tag k="name" v="Trosvika" />
		<tag k="natural" v="bay" />
		<tag k="ssr:stedsnr" v="752588" />
	</node>
	<node id="-240358" lat="59.7467027744" lon="11.3224638808">
		<tag k="name" v="Måsabytjern" />
		<tag k="natural" v="water" />
		<tag k="ssr:stedsnr" v="752535" />
		<tag k="water" v="lake" />
	</node>
	<node id="-238306" lat="59.5346083293" lon="11.4821472298">
		<tag k="alt_name" v="Damtjern, lille;Damtjern, l" />
		<tag k="name" v="Lille Damtjern" />
		<tag k="natural" v="water" />
		<tag k="ssr:stedsnr" v="671391" />
	</node>
	<node id="-238305" lat="59.524738889" lon="11.4872222283">
		<tag k="alt_name" v="Dalevann" />
		<tag k="name" v="Dalavannet" />
		<tag k="natural" v="water" />
		<tag k="ssr:stedsnr" v="671387" />
	</node>
	<node id="-240352" lat="59.7005112268" lon="11.358259108">
		<tag k="name" v="Svarttjern" />
		<tag k="natural" v="water" />
		<tag k="ssr:stedsnr" v="752457" />
		<tag k="water" v="lake" />
	</node>
	<node id="-238299" lat="59.5793748875" lon="11.017808324">
		<tag k="loc_name" v="Karusstjernet" />
		<tag k="name" v="Karustjernet" />
		<tag k="natural" v="water" />
		<tag k="ssr:stedsnr" v="671167" />
	</node>
	<node id="-240346" lat="59.5568083342" lon="11.2978833342">
		<tag k="name" v="Mysenelva" />
		<tag k="ssr:stedsnr" v="752349" />
		<tag k="waterway" v="river" />
	</node>
	<node id="-238293" lat="59.49348889" lon="11.5057861184">
		<tag k="name" v="Kulevannet" />
		<tag k="natural" v="water" />
		<tag k="ssr:stedsnr" v="670542" />
		<tag k="water" v="lake" />
	</node>
	<node id="-240338" lat="59.5885527814" lon="11.2096805523">
		<tag k="name" v="Eidarengbekken" />
		<tag k="ssr:stedsnr" v="752049" />
		<tag k="waterway" v="stream" />
	</node>
	<node id="-240337" lat="59.5277250004" lon="11.4993250065">
		<tag k="name" v="Vestre Hakatjern" />
		<tag k="natural" v="water" />
		<tag k="ssr:stedsnr" v="752012" />
	</node>
	<node id="-240331" lat="59.5113527744" lon="11.4885277748">
		<tag k="name" v="Store Hønntjern" />
		<tag k="natural" v="water" />
		<tag k="ssr:stedsnr" v="752259" />
	</node>
	<node id="-240329" lat="59.5207527744" lon="11.4881416648">
		<tag k="name" v="Setertjern" />
		<tag k="natural" v="water" />
		<tag k="ssr:stedsnr" v="751341" />
	</node>
	<node id="-240325" lat="59.5510472259" lon="11.1361694408">
		<tag k="name" v="Vrangentangen" />
		<tag k="natural" v="cape" />
		<tag k="ssr:stedsnr" v="750788" />
	</node>
	<node id="-240321" lat="59.5867722214" lon="11.0513444383">
		<tag k="name" v="Nykjosbekken" />
		<tag k="ssr:stedsnr" v="750770" />
		<tag k="waterway" v="stream" />
	</node>
	<node id="-238251" lat="59.4938055514" lon="11.4247361053">
		<tag k="name" v="Bikkjetjern" />
		<tag k="natural" v="water" />
		<tag k="ssr:stedsnr" v="657449" />
	</node>
	<node id="-238249" lat="59.479869442" lon="11.5461916726">
		<tag k="name" v="Blestjern" />
		<tag k="natural" v="water" />
		<tag k="ssr:stedsnr" v="657442" />
	</node>
	<node id="-240293" lat="59.6562666625" lon="11.4700277863">
		<tag k="name" v="Rundflu" />
		<tag k="place" v="island" />
		<tag k="ssr:stedsnr" v="643805" />
	</node>
	<node id="-240282" lat="59.5816361105" lon="11.3024972194">
		<tag k="name" v="Blekkemyrsbekken" />
		<tag k="ssr:stedsnr" v="630886" />
		<tag k="waterway" v="stream" />
	</node>
	<node id="-238230" lat="59.7344749996" lon="11.3557944415">
		<tag k="alt_name" v="Stikletjernet" />
		<tag k="name" v="Stiklatjern" />
		<tag k="natural" v="water" />
		<tag k="ssr:stedsnr" v="429117" />
	</node>
	<node id="-238227" lat="59.5305777756" lon="10.8810999922">
		<tag k="alt_name" v="Askerødtjern" />
		<tag k="name" v="Askerødtjernet" />
		<tag k="natural" v="water" />
		<tag k="ssr:stedsnr" v="429009" />
	</node>
	<node id="-240274" lat="59.6166966798" lon="11.4725484023">
		<tag k="name" v="Setervika" />
		<tag k="natural" v="bay" />
		<tag k="ssr:stedsnr" v="630776" />
	</node>
	<node id="-240272" lat="59.6551472232" lon="11.2601777811">
		<tag k="name" v="Kaninøya" />
		<tag k="place" v="island" />
		<tag k="ssr:stedsnr" v="630625" />
	</node>
	<node id="-240266" lat="59.73104444" lon="11.2596416708">
		<tag k="name" v="Sørvika" />
		<tag k="natural" v="bay" />
		<tag k="ssr:stedsnr" v="630593" />
	</node>
	<node id="-240261" lat="59.5265222182" lon="11.2705277783">
		<tag k="name" v="Skaltorpbekken" />
		<tag k="ssr:stedsnr" v="630392" />
		<tag k="waterway" v="stream" />
	</node>
	<node id="-240147" lat="59.589488891" lon="11.3288666747">
		<tag k="name" v="Geiterudbekken" />
		<tag k="ssr:stedsnr" v="569876" />
		<tag k="waterway" v="stream" />
	</node>
	<node id="-238203" lat="59.7027323717" lon="11.3498458853">
		<tag k="name" v="Kulpa" />
		<tag k="natural" v="water" />
		<tag k="ssr:stedsnr" v="509557" />
		<tag k="water" v="lake" />
	</node>
	<node id="-238202" lat="59.703841663" lon="11.3669027772">
		<tag k="name" v="Djupedaltjern" />
		<tag k="natural" v="water" />
		<tag k="ssr:stedsnr" v="509555" />
	</node>
	<node id="-238201" lat="59.7110416696" lon="11.3646027837">
		<tag k="name" v="Janetjern" />
		<tag k="natural" v="water" />
		<tag k="ssr:stedsnr" v="509553" />
		<tag k="water" v="lake" />
	</node>
	<node id="-240247" lat="59.5413666678" lon="11.0458083271">
		<tag k="name" v="Brønnstjern" />
		<tag k="natural" v="water" />
		<tag k="ssr:stedsnr" v="628932" />
	</node>
	<node id="-238191" lat="59.6639398591" lon="11.450617219">
		<tag k="name" v="Asketjern" />
		<tag k="natural" v="water" />
		<tag k="ssr:stedsnr" v="509233" />
		<tag k="water" v="lake" />
	</node>
	<node id="-238190" lat="59.6127638887" lon="11.4696527826">
		<tag k="name" v="Nybånntjern" />
		<tag k="natural" v="water" />
		<tag k="ssr:stedsnr" v="509224" />
	</node>
	<node id="-238186" lat="59.6237888929" lon="10.9403888843">
		<tag k="name" v="Tingulstadbekken" />
		<tag k="ssr:stedsnr" v="508933" />
		<tag k="waterway" v="stream" />
	</node>
	<node id="-240228" lat="59.5518166657" lon="11.1474499946">
		<tag k="name" v="Engerbukta" />
		<tag k="natural" v="bay" />
		<tag k="ssr:stedsnr" v="628614" />
	</node>
	<node id="-238176" lat="59.5202388916" lon="10.9803222271">
		<tag k="name" v="Nesoddammen" />
		<tag k="natural" v="water" />
		<tag k="ssr:stedsnr" v="507999" />
	</node>
	<node id="-238170" lat="59.5825472226" lon="11.0613583387">
		<tag k="name" v="Kjosebekken" />
		<tag k="ssr:stedsnr" v="507783" />
		<tag k="waterway" v="stream" />
	</node>
	<node id="-240214" lat="59.6238628006" lon="11.4537818623">
		<tag k="fixme" v="multiple name tags, choose one and add the other to alt_name" />
		<tag k="name" v="Kroktjern;Krokvannet" />
		<tag k="natural" v="water" />
		<tag k="ssr:stedsnr" v="610957" />
	</node>
	<node id="-238162" lat="59.6844527773" lon="11.1120277705">
		<tag k="name" v="Sørvika" />
		<tag k="natural" v="bay" />
		<tag k="ssr:stedsnr" v="507742" />
	</node>
	<node id="-238159" lat="59.5983916705" lon="11.3354361145">
		<tag k="name" v="Tjernsbekken" />
		<tag k="ssr:stedsnr" v="387876" />
		<tag k="waterway" v="stream" />
	</node>
	<node id="-240206" lat="59.686581597" lon="11.0963763248">
		<tag k="name" v="Haukenestangen" />
		<tag k="natural" v="cape" />
		<tag k="ssr:stedsnr" v="610835" />
	</node>
	<node id="-238154" lat="59.6648636943" lon="11.4448773151">
		<tag k="name" v="Abbortjern" />
		<tag k="natural" v="water" />
		<tag k="ssr:stedsnr" v="387920" />
		<tag k="water" v="lake" />
	</node>
	<node id="-240199" lat="59.5971666635" lon="11.480202782">
		<tag k="alt_name" v="Nøklevannet" />
		<tag k="name" v="Nøklevann" />
		<tag k="natural" v="water" />
		<tag k="ssr:stedsnr" v="610495" />
	</node>
	<node id="-240173" lat="59.4850472267" lon="11.5056027762">
		<tag k="name" v="Kjelene" />
		<tag k="natural" v="water" />
		<tag k="ssr:stedsnr" v="605895" />
	</node>
	<node id="-240169" lat="59.4926861095" lon="11.524119441">
		<tag k="name" v="Asketjern" />
		<tag k="natural" v="water" />
		<tag k="ssr:stedsnr" v="596401" />
	</node>
	<node id="-238099" lat="59.6225277813" lon="11.4019277867">
		<tag k="name" v="Grefslisjøen" />
		<tag k="natural" v="water" />
		<tag k="ssr:stedsnr" v="489919" />
		<tag k="water" v="lake" />
	</node>
	<node id="-240144" lat="59.6145888931" lon="11.3911166665">
		<tag k="name" v="Risbråtebekken" />
		<tag k="ssr:stedsnr" v="569868" />
		<tag k="waterway" v="stream" />
	</node>
	<node id="-240141" lat="59.5996805536" lon="11.4712972258">
		<tag k="name" v="Butjern" />
		<tag k="natural" v="water" />
		<tag k="ssr:stedsnr" v="569842" />
	</node>
	<node id="-240140" lat="59.6287611078" lon="11.4898416724">
		<tag k="name" v="Haratjern" />
		<tag k="natural" v="water" />
		<tag k="ssr:stedsnr" v="569831" />
	</node>
	<node id="-238089" lat="59.6968944425" lon="11.1309388958">
		<tag k="name" v="Storøya" />
		<tag k="place" v="island" />
		<tag k="ssr:stedsnr" v="489826" />
	</node>
	<node id="-240132" lat="59.7374087913" lon="11.2663479669">
		<tag k="name" v="Kopperudvika" />
		<tag k="natural" v="bay" />
		<tag k="ssr:stedsnr" v="569674" />
	</node>
	<node id="-238080" lat="59.6671444432" lon="11.4182611131">
		<tag k="alt_name" v="Nordbråtetjern" />
		<tag k="name" v="Bråtetjern" />
		<tag k="natural" v="water" />
		<tag k="ssr:stedsnr" v="489789" />
	</node>
	<node id="-240122" lat="59.6643611144" lon="11.3791222236">
		<tag k="name" v="Bruneset" />
		<tag k="natural" v="cape" />
		<tag k="ssr:stedsnr" v="569538" />
	</node>
	<node id="-240117" lat="59.5546805592" lon="11.3198805616">
		<tag k="name" v="Spinnerifossen" />
		<tag k="natural" v="waterfall" />
		<tag k="ssr:stedsnr" v="569396" />
	</node>
	<node id="-240113" lat="59.5113499966" lon="11.4478722152">
		<tag k="name" v="Murttjern" />
		<tag k="natural" v="water" />
		<tag k="ssr:stedsnr" v="569346" />
	</node>
	<node id="-238064" lat="59.5962750036" lon="11.292772226">
		<tag k="name" v="Stuputbekken" />
		<tag k="ssr:stedsnr" v="489625" />
		<tag k="waterway" v="stream" />
	</node>
	<node id="-240111" lat="59.5072805572" lon="11.4340972178">
		<tag k="name" v="Viutjern" />
		<tag k="natural" v="water" />
		<tag k="ssr:stedsnr" v="569340" />
	</node>
	<node id="-238053" lat="59.5726170024" lon="11.4975456502">
		<tag k="name" v="Hakatjerna" />
		<tag k="natural" v="water" />
		<tag k="ssr:stedsnr" v="489516" />
		<tag k="water" v="lake" />
	</node>
	<node id="-240100" lat="59.5330611095" lon="11.1930833279">
		<tag k="name" v="Valdisholm" />
		<tag k="place" v="islet" />
		<tag k="ssr:stedsnr" v="569003" />
	</node>
	<node id="-238050" lat="59.6986166622" lon="11.0860611139">
		<tag k="alt_name" v="Vasshytt-tjern" />
		<tag k="name" v="Vasstjernet" />
		<tag k="natural" v="water" />
		<tag k="ssr:stedsnr" v="489432" />
	</node>
	<node id="-238047" lat="59.6004305595" lon="10.9596749944">
		<tag k="name" v="Haslerudbekken" />
		<tag k="ssr:stedsnr" v="489149" />
		<tag k="waterway" v="stream" />
	</node>
	<node id="-240092" lat="59.5152194481" lon="11.0738749995">
		<tag k="name" v="Sollibekk" />
		<tag k="ssr:stedsnr" v="567867" />
		<tag k="waterway" v="stream" />
	</node>
	<node id="-238039" lat="59.5323388853" lon="11.0695861167">
		<tag k="alt_name" v="Gåsehalstjern" />
		<tag k="name" v="Gåsehalsen" />
		<tag k="natural" v="water" />
		<tag k="ssr:stedsnr" v="489002" />
	</node>
	<node id="-237645" lat="59.5446527757" lon="11.1420111027">
		<tag k="name" v="Vammasjøen" />
		<tag k="natural" v="water" />
		<tag k="ssr:stedsnr" v="64506" />
		<tag k="water" v="lake" />
	</node>
	<node id="-240069" lat="59.6052805512" lon="11.1597361117">
		<tag k="name" v="Kolstadbekken" />
		<tag k="ssr:stedsnr" v="567659" />
		<tag k="waterway" v="stream" />
	</node>
	<node id="-238007" lat="59.4905083335" lon="11.5228972251">
		<tag k="name" v="Søndre Asketjern" />
		<tag k="natural" v="water" />
		<tag k="ssr:stedsnr" v="475431" />
	</node>
	<node id="-238005" lat="59.6768083305" lon="11.412672227">
		<tag k="alt_name" v="Skjertjernet" />
		<tag k="name" v="Skjærtjern" />
		<tag k="natural" v="water" />
		<tag k="ssr:stedsnr" v="307804" />
	</node>
	<node id="-237998" lat="59.5008805561" lon="11.5222916688">
		<tag k="name" v="Hareputten" />
		<tag k="natural" v="water" />
		<tag k="ssr:stedsnr" v="294460" />
	</node>
	<node id="-237997" lat="59.4922194457" lon="11.4331194506">
		<tag k="name" v="Auretjern" />
		<tag k="natural" v="water" />
		<tag k="ssr:stedsnr" v="294454" />
	</node>
	<node id="-240041" lat="59.5315583336" lon="11.3605361073">
		<tag k="name" v="Bølju" />
		<tag k="ssr:stedsnr" v="550735" />
		<tag k="waterway" v="stream" />
	</node>
	<node id="-237988" lat="59.6842805525" lon="11.0829805544">
		<tag k="name" v="Kaninøya" />
		<tag k="place" v="islet" />
		<tag k="ssr:stedsnr" v="264726" />
	</node>
	<node id="-237983" lat="59.659369449" lon="11.4646444382">
		<tag k="name" v="Tangevika" />
		<tag k="natural" v="bay" />
		<tag k="ssr:stedsnr" v="449895" />
	</node>
	<node id="-240025" lat="59.5513749995" lon="10.9204555477">
		<tag k="alt_name" v="Bærøetjern" />
		<tag k="name" v="Bæretjernet" />
		<tag k="natural" v="water" />
		<tag k="ssr:stedsnr" v="550236" />
	</node>
	<node id="-237974" lat="59.7083694485" lon="11.3552944401">
		<tag k="name" v="Skreddertjern" />
		<tag k="natural" v="water" />
		<tag k="ssr:stedsnr" v="449578" />
		<tag k="water" v="lake" />
	</node>
	<node id="-240015" lat="59.5016749991" lon="10.9266416699">
		<tag k="fixme" v="multiple name tags, choose one and add the other to alt_name" />
		<tag k="name" v="Mørkelva;Trollhetta" />
		<tag k="ssr:stedsnr" v="550093" />
		<tag k="waterway" v="stream" />
	</node>
	<node id="-240012" lat="59.5451055521" lon="11.052463896">
		<tag k="alt_name" v="Gravtjern" />
		<tag k="name" v="Gravtjernet" />
		<tag k="natural" v="water" />
		<tag k="ssr:stedsnr" v="550024" />
	</node>
	<node id="-237954" lat="59.5384722243" lon="11.349819447">
		<tag k="name" v="Holmebekken" />
		<tag k="ssr:stedsnr" v="449353" />
		<tag k="waterway" v="stream" />
	</node>
	<node id="-240001" lat="59.5490777784" lon="11.4818277779">
		<tag k="alt_name" v="Lundebyvannet" />
		<tag k="name" v="Lundebytjern" />
		<tag k="natural" v="water" />
		<tag k="ssr:stedsnr" v="549446" />
		<tag k="water" v="lake" />
	</node>
	<node id="-237951" lat="59.6629583363" lon="11.2272527718">
		<tag k="name" v="Svarthølet" />
		<tag k="natural" v="bay" />
		<tag k="ssr:stedsnr" v="449096" />
	</node>
	<node id="-239998" lat="59.5280746084" lon="11.5009753488">
		<tag k="name" v="Hakatjerna" />
		<tag k="natural" v="water" />
		<tag k="ssr:stedsnr" v="549390" />
		<tag k="water" v="lake" />
	</node>
	<node id="-237946" lat="59.7133305514" lon="11.2559750025">
		<tag k="name" v="Grønntangen" />
		<tag k="natural" v="cape" />
		<tag k="ssr:stedsnr" v="448669" />
	</node>
	<node id="-237945" lat="59.7460611145" lon="11.2666361069">
		<tag k="name" v="Lundsåa" />
		<tag k="natural" v="bay" />
		<tag k="ssr:stedsnr" v="448664" />
	</node>
	<node id="-239982" lat="59.4874527743" lon="11.4707888881">
		<tag k="name" v="Bjørndalstjern" />
		<tag k="natural" v="water" />
		<tag k="ssr:stedsnr" v="536377" />
	</node>
	<node id="-239980" lat="59.4959972208" lon="11.5230055493">
		<tag k="name" v="Steinstjern" />
		<tag k="natural" v="water" />
		<tag k="ssr:stedsnr" v="535437" />
	</node>
	<node id="-237924" lat="59.4848176824" lon="11.4363147731">
		<tag k="name" v="Langard" />
		<tag k="natural" v="water" />
		<tag k="ssr:stedsnr" v="245059" />
		<tag k="water" v="lake" />
	</node>
	<node id="-237964" lat="59.699223133" lon="11.3468552815">
		<tag k="name" v="Lintotjern" />
		<tag k="natural" v="water" />
		<tag k="ssr:stedsnr" v="449458" />
		<tag k="water" v="lake" />
	</node>
	<node id="-239942" lat="59.721691671" lon="11.3612083286">
		<tag k="alt_name" v="Måstadtjernet" />
		<tag k="name" v="Måstadtjern" />
		<tag k="natural" v="water" />
		<tag k="old_name" v="Mastadtjernet" />
		<tag k="ssr:stedsnr" v="429092" />
	</node>
	<node id="-239941" lat="59.7262583321" lon="11.2494250006">
		<tag k="alt_name" v="Hanseholmen" />
		<tag k="name" v="Hansholmen" />
		<tag k="place" v="islet" />
		<tag k="ssr:stedsnr" v="429079" />
	</node>
	<node id="-237890" lat="59.474830559" lon="11.3589805594">
		<tag k="name" v="Vesterbybekken" />
		<tag k="ssr:stedsnr" v="294244" />
		<tag k="waterway" v="stream" />
	</node>
	<node id="-237889" lat="59.5488305592" lon="11.5347083394">
		<tag k="name" v="Rundtjern" />
		<tag k="natural" v="water" />
		<tag k="ssr:stedsnr" v="293422" />
	</node>
	<node id="-239934" lat="59.6971333353" lon="11.2302333413">
		<tag k="name" v="Øyeren" />
		<tag k="natural" v="water" />
		<tag k="ssr:stedsnr" v="428839" />
		<tag k="water" v="lake" />
	</node>
	<node id="-237879" lat="59.4933916656" lon="11.4517194527">
		<tag k="alt_name" v="Søndre Ertevann" />
		<tag k="name" v="Søndre Ertevannet" />
		<tag k="natural" v="water" />
		<tag k="ssr:stedsnr" v="184030" />
	</node>
	<node id="-237876" lat="59.653638893" lon="11.4692499989">
		<tag k="name" v="Delingsvika" />
		<tag k="natural" v="bay" />
		<tag k="ssr:stedsnr" v="279817" />
	</node>
	<node id="-237874" lat="59.6304277767" lon="11.3308333277">
		<tag k="name" v="Håtjern" />
		<tag k="natural" v="water" />
		<tag k="ssr:stedsnr" v="145973" />
		<tag k="water" v="lake" />
	</node>
	<node id="-239917" lat="59.4831166697" lon="11.5228555642">
		<tag k="name" v="Røstevannet" />
		<tag k="natural" v="water" />
		<tag k="ssr:stedsnr" v="427595" />
	</node>
	<node id="-237867" lat="59.5992555566" lon="11.3494444361">
		<tag k="name" v="Skrikerudtjern" />
		<tag k="natural" v="water" />
		<tag k="ssr:stedsnr" v="145873" />
		<tag k="water" v="lake" />
	</node>
	<node id="-239914" lat="60.9394388853" lon="11.516244439">
		<tag k="fixme" v="multiple name tags, choose one and add the other to alt_name" />
		<tag k="name" v="Glomma;Glåma" />
		<tag k="ssr:stedsnr" v="426301" />
		<tag k="waterway" v="river" />
	</node>
	<node id="-239913" lat="59.4985611076" lon="11.4715138842">
		<tag k="name" v="Midtre Bustein" />
		<tag k="natural" v="water" />
		<tag k="ssr:stedsnr" v="415485" />
	</node>
	<node id="-239912" lat="59.5001833361" lon="11.4703777807">
		<tag k="name" v="Nordre Bustein" />
		<tag k="natural" v="water" />
		<tag k="ssr:stedsnr" v="415482" />
	</node>
	<node id="-239911" lat="59.4964888932" lon="11.439822224">
		<tag k="name" v="Furutjern" />
		<tag k="natural" v="water" />
		<tag k="ssr:stedsnr" v="415466" />
	</node>
	<node id="-239910" lat="59.4884277754" lon="11.5353527851">
		<tag k="name" v="Østre Rundtjern" />
		<tag k="natural" v="water" />
		<tag k="ssr:stedsnr" v="415462" />
	</node>
	<node id="-239909" lat="59.5543583375" lon="11.5327166631">
		<tag k="name" v="Korstjern" />
		<tag k="natural" v="water" />
		<tag k="ssr:stedsnr" v="415412" />
	</node>
	<node id="-239906" lat="59.4888527801" lon="11.4727277765">
		<tag k="name" v="Sauetjern" />
		<tag k="natural" v="water" />
		<tag k="ssr:stedsnr" v="414432" />
	</node>
	<node id="-239903" lat="59.6560666703" lon="11.4634972261">
		<tag k="name" v="Bingsvika" />
		<tag k="natural" v="bay" />
		<tag k="ssr:stedsnr" v="400817" />
	</node>
	<node id="-239898" lat="59.6239111082" lon="11.383513894">
		<tag k="alt_name" v="Langsetertjern" />
		<tag k="name" v="Langsettjern" />
		<tag k="natural" v="water" />
		<tag k="ssr:stedsnr" v="387990" />
		<tag k="water" v="lake" />
	</node>
	<node id="-239886" lat="59.7273361122" lon="11.2685166673">
		<tag k="name" v="Trollerudbekken" />
		<tag k="ssr:stedsnr" v="387645" />
		<tag k="waterway" v="stream" />
	</node>
	<node id="-237836" lat="59.7143277735" lon="11.2475611161">
		<tag k="name" v="Gillingsrudnabben" />
		<tag k="natural" v="cape" />
		<tag k="ssr:stedsnr" v="266700" />
	</node>
	<node id="-239875" lat="59.5291527762" lon="11.502538886">
		<tag k="name" v="Østre Hakatjern" />
		<tag k="natural" v="water" />
		<tag k="ssr:stedsnr" v="387336" />
	</node>
	<node id="-237824" lat="59.7069083327" lon="11.3576277692">
		<tag k="name" v="Fela" />
		<tag k="natural" v="water" />
		<tag k="ssr:stedsnr" v="266589" />
		<tag k="water" v="lake" />
	</node>
	<node id="-239867" lat="59.5485888929" lon="10.9913888812">
		<tag k="name" v="Slorebråttjernet" />
		<tag k="natural" v="water" />
		<tag k="ssr:stedsnr" v="386934" />
	</node>
	<node id="-239864" lat="59.6766500009" lon="10.9540722146">
		<tag k="name" v="Sandbekken" />
		<tag k="ssr:stedsnr" v="386779" />
		<tag k="waterway" v="stream" />
	</node>
	<node id="-239863" lat="59.4932138906" lon="11.2642888975">
		<tag k="name" v="Tveitebekken" />
		<tag k="ssr:stedsnr" v="386531" />
		<tag k="waterway" v="stream" />
	</node>
	<node id="-239857" lat="59.6162555515" lon="11.1345805537">
		<tag k="name" v="Jutulen" />
		<tag k="natural" v="shoal" />
		<tag k="place" v="locality" />
		<tag k="ssr:stedsnr" v="385696" />
	</node>
	<node id="-237802" lat="59.6142583365" lon="10.8839277759">
		<tag k="name" v="Kroerbekken" />
		<tag k="ssr:stedsnr" v="265957" />
		<tag k="waterway" v="stream" />
	</node>
	<node id="-237800" lat="59.4980249957" lon="11.2454027766">
		<tag k="name" v="Lysakermoene" />
		<tag k="natural" v="bay" />
		<tag k="ssr:stedsnr" v="265560" />
	</node>
	<node id="-237799" lat="59.7206250034" lon="11.3695527743">
		<tag k="name" v="Blåtjern" />
		<tag k="natural" v="water" />
		<tag k="ssr:stedsnr" v="265222" />
	</node>
	<node id="-239841" lat="59.7681777777" lon="11.2601694454">
		<tag k="name" v="Teigsåa" />
		<tag k="ssr:stedsnr" v="368898" />
		<tag k="waterway" v="stream" />
	</node>
	<node id="-237779" lat="59.6103944484" lon="11.1386416727">
		<tag k="name" v="Gudimevja" />
		<tag k="natural" v="water" />
		<tag k="ssr:stedsnr" v="264664" />
		<tag k="water" v="lake" />
	</node>
	<node id="-237603" lat="59.6491500017" lon="10.9799250021">
		<tag k="name" v="Solbergbekken" />
		<tag k="ssr:stedsnr" v="22832" />
		<tag k="waterway" v="stream" />
	</node>
	<node id="-237775" lat="59.6275194402" lon="11.1563861049">
		<tag k="name" v="Tømtbekken" />
		<tag k="ssr:stedsnr" v="264632" />
		<tag k="waterway" v="stream" />
	</node>
	<node id="-237773" lat="59.4824305535" lon="11.543363892">
		<tag k="name" v="Bergstutjern" />
		<tag k="natural" v="water" />
		<tag k="ssr:stedsnr" v="112443" />
	</node>
	<node id="-237767" lat="59.7205596926" lon="11.3530977173">
		<tag k="name" v="Lindtjern" />
		<tag k="natural" v="water" />
		<tag k="ssr:stedsnr" v="84615" />
		<tag k="water" v="lake" />
	</node>
	<node id="-237764" lat="59.6603638853" lon="11.2225194523">
		<tag k="name" v="Mørkfoss" />
		<tag k="natural" v="waterfall" />
		<tag k="ssr:stedsnr" v="84721" />
	</node>
	<node id="-239807" lat="59.72996667" lon="11.2521500068">
		<tag k="name" v="Bukkeholmen" />
		<tag k="place" v="islet" />
		<tag k="ssr:stedsnr" v="368108" />
	</node>
	<node id="-237755" lat="59.5075722246" lon="11.4902611095">
		<tag k="name" v="Vesle Hønntjern" />
		<tag k="natural" v="water" />
		<tag k="ssr:stedsnr" v="84316" />
	</node>
	<node id="-237754" lat="59.6351194421" lon="11.3356638823">
		<tag k="name" v="Gravstjern" />
		<tag k="natural" v="water" />
		<tag k="ssr:stedsnr" v="84275" />
		<tag k="water" v="lake" />
	</node>
	<node id="-237751" lat="59.5944305529" lon="11.4730833326">
		<tag k="name" v="Huldretjern" />
		<tag k="natural" v="water" />
		<tag k="ssr:stedsnr" v="84004" />
	</node>
	<node id="-237747" lat="59.5899138925" lon="10.9911416597">
		<tag k="name" v="Mjærdammen" />
		<tag k="natural" v="water" />
		<tag k="ssr:stedsnr" v="82970" />
	</node>
	<node id="-239794" lat="59.5724881017" lon="11.1102261805">
		<tag k="alt_name" v="Glåmvika;Glomvikbukta" />
		<tag k="name" v="Glomvika" />
		<tag k="natural" v="bay" />
		<tag k="ssr:stedsnr" v="367591" />
	</node>
	<node id="-237741" lat="59.6883065923" lon="11.1136243637">
		<tag k="name" v="Tullebekkvika" />
		<tag k="natural" v="bay" />
		<tag k="ssr:stedsnr" v="82720" />
	</node>
	<node id="-237736" lat="59.6066805593" lon="11.1174833267">
		<tag k="name" v="Streta" />
		<tag k="natural" v="bay" />
		<tag k="ssr:stedsnr" v="82661" />
	</node>
	<node id="-237735" lat="59.6115138857" lon="11.1366611137">
		<tag k="name" v="Huertangen" />
		<tag k="natural" v="cape" />
		<tag k="ssr:stedsnr" v="82656" />
	</node>
	<node id="-237734" lat="59.5640527799" lon="11.1522944359">
		<tag k="name" v="Revaug vad" />
		<tag k="natural" v="beach" />
		<tag k="ssr:stedsnr" v="82621" />
	</node>
	<node id="-239781" lat="59.5320722236" lon="11.4841722277">
		<tag k="alt_name" v="Damtjern, store" />
		<tag k="name" v="Store Damtjern" />
		<tag k="natural" v="water" />
		<tag k="ssr:stedsnr" v="367339" />
	</node>
	<node id="-237730" lat="59.5220995324" lon="11.4216103561">
		<tag k="alt_name" v="Visterbekken" />
		<tag k="name" v="Dugla" />
		<tag k="ssr:stedsnr" v="247481" />
		<tag k="waterway" v="stream" />
	</node>
	<node id="-238619" lat="59.4995499967" lon="11.5077916581">
		<tag k="name" v="Søndre Lauvvannet" />
		<tag k="natural" v="water" />
		<tag k="ssr:stedsnr" v="657465" />
	</node>
	<node id="-239774" lat="59.4762055546" lon="11.5502055596">
		<tag k="name" v="Elgelabben" />
		<tag k="natural" v="water" />
		<tag k="ssr:stedsnr" v="366599" />
	</node>
	<node id="-239767" lat="59.4880555585" lon="11.4454138891">
		<tag k="name" v="Lomtjern" />
		<tag k="natural" v="water" />
		<tag k="ssr:stedsnr" v="354384" />
	</node>
	<node id="-237717" lat="59.542297222" lon="10.9855138862">
		<tag k="alt_name" v="Lommetjern" />
		<tag k="name" v="Lommetjernet" />
		<tag k="natural" v="water" />
		<tag k="ssr:stedsnr" v="247019" />
	</node>
	<node id="-239762" lat="59.6467666663" lon="11.4769611058">
		<tag k="name" v="Hestevika" />
		<tag k="natural" v="bay" />
		<tag k="ssr:stedsnr" v="340804" />
	</node>
	<node id="-239754" lat="59.6292500031" lon="11.4620472139">
		<tag k="name" v="Bingslitjern" />
		<tag k="natural" v="water" />
		<tag k="ssr:stedsnr" v="327782" />
	</node>
	<node id="-237692" lat="59.5419777815" lon="11.5362250028">
		<tag k="alt_name" v="Trollbærtjern" />
		<tag k="name" v="Trollebergtjern" />
		<tag k="natural" v="water" />
		<tag k="ssr:stedsnr" v="246433" />
	</node>
	<node id="-237690" lat="59.5168083336" lon="11.5153138877">
		<tag k="alt_name" v="Steinsvann" />
		<tag k="name" v="Steinsvannet" />
		<tag k="natural" v="water" />
		<tag k="ssr:stedsnr" v="246380" />
		<tag k="water" v="lake" />
	</node>
	<node id="-239737" lat="59.7336750008" lon="11.2640194459">
		<tag k="name" v="Nordvika" />
		<tag k="natural" v="bay" />
		<tag k="ssr:stedsnr" v="327635" />
	</node>
	<node id="-239731" lat="59.5697888916" lon="11.4781777817">
		<tag k="name" v="Ørkentjern" />
		<tag k="natural" v="water" />
		<tag k="ssr:stedsnr" v="327279" />
	</node>
	<node id="-239712" lat="59.5785027797" lon="11.0081805501">
		<tag k="name" v="Svarttjern" />
		<tag k="natural" v="water" />
		<tag k="ssr:stedsnr" v="325757" />
	</node>
	<node id="-239707" lat="59.6930583362" lon="11.1387555631">
		<tag k="name" v="Kattholmen" />
		<tag k="place" v="islet" />
		<tag k="ssr:stedsnr" v="325706" />
	</node>
	<node id="-239706" lat="59.6839611134" lon="11.1423611143">
		<tag k="name" v="Gulltjern" />
		<tag k="natural" v="water" />
		<tag k="ssr:stedsnr" v="325704" />
	</node>
	<node id="-239702" lat="59.6790138927" lon="11.1291638834">
		<tag k="name" v="Brudeberget" />
		<tag k="natural" v="cape" />
		<tag k="ssr:stedsnr" v="325674" />
	</node>
	<node id="-237648" lat="59.6664750043" lon="11.2270388937">
		<tag k="name" v="Sleppetangen" />
		<tag k="natural" v="cape" />
		<tag k="ssr:stedsnr" v="64803" />
	</node>
	<node id="-239693" lat="59.570894447" lon="11.1050027789">
		<tag k="name" v="Tobakksøya" />
		<tag k="place" v="island" />
		<tag k="ssr:stedsnr" v="325622" />
	</node>
	<node id="-237634" lat="59.4886583306" lon="11.4801694421">
		<tag k="name" v="Brutjern" />
		<tag k="natural" v="water" />
		<tag k="ssr:stedsnr" v="50419" />
	</node>
	<node id="-237632" lat="59.5183722259" lon="11.5176055617">
		<tag k="name" v="Setervika" />
		<tag k="natural" v="bay" />
		<tag k="ssr:stedsnr" v="233473" />
	</node>
	<node id="-237631" lat="59.5288083311" lon="11.5252111083">
		<tag k="name" v="Nøatjern" />
		<tag k="natural" v="water" />
		<tag k="ssr:stedsnr" v="233471" />
	</node>
	<node id="-237630" lat="59.492592252" lon="11.4398380034">
		<tag k="name" v="Slottstjerna" />
		<tag k="natural" v="water" />
		<tag k="ssr:stedsnr" v="233464" />
		<tag k="water" v="lake" />
	</node>
	<node id="-237628" lat="59.4864777756" lon="11.4852722175">
		<tag k="name" v="Vesle Basdal" />
		<tag k="natural" v="water" />
		<tag k="ssr:stedsnr" v="233401" />
	</node>
	<node id="-237619" lat="59.6483888925" lon="11.2451888965">
		<tag k="name" v="Bergerleira" />
		<tag k="natural" v="beach" />
		<tag k="ssr:stedsnr" v="24701" />
	</node>
	<node id="-237608" lat="59.6195527772" lon="11.4056722216">
		<tag k="name" v="Faugliholmen" />
		<tag k="natural" v="cape" />
		<tag k="ssr:stedsnr" v="24230" />
	</node>
	<node id="-239651" lat="59.5233333353" lon="11.4100555564">
		<tag k="name" v="Lintjern" />
		<tag k="natural" v="water" />
		<tag k="ssr:stedsnr" v="307752" />
	</node>
	<node id="-239645" lat="59.5159351499" lon="11.2153371564">
		<tag k="name" v="Grønsund" />
		<tag k="natural" v="strait" />
		<tag k="ssr:stedsnr" v="307700" />
	</node>
	<node id="-239643" lat="59.50161267" lon="11.4232610348">
		<tag k="fixme" v="multiple name tags, choose one and add the other to alt_name" />
		<tag k="name" v="Kroktjern;Krokvannet" />
		<tag k="natural" v="water" />
		<tag k="ssr:stedsnr" v="307670" />
	</node>
	<node id="-239621" lat="59.701350002" lon="11.0548777796">
		<tag k="name" v="Mjær" />
		<tag k="natural" v="water" />
		<tag k="ssr:stedsnr" v="307422" />
		<tag k="water" v="lake" />
	</node>
	<node id="-239620" lat="59.5316555596" lon="11.5218833424">
		<tag k="name" v="Nøadammen" />
		<tag k="natural" v="water" />
		<tag k="ssr:stedsnr" v="307406" />
	</node>
	<node id="-239618" lat="59.618302782" lon="11.4725749935">
		<tag k="alt_name" v="Lierdamtjern øvre" />
		<tag k="name" v="Damtjern" />
		<tag k="natural" v="water" />
		<tag k="ssr:stedsnr" v="307320" />
	</node>
</osm>
