<?xml version="1.0" encoding="UTF-8"?>
<<<<<<< HEAD
<osm version="0.6" generator="osmapis">
	<node lat="59.666334144231804" lon="11.264811388420362" id="-16486">
		<tag k="fixme" v="consider boundary=protected_area and relevant protect_class if not nature reserve" />
		<tag k="leisure" v="nature_reserve" />
		<tag k="name" v="Raknerud og Gimmingsrud naturreservat" />
		<tag k="ssr:stedsnr" v="971493" />
	</node>
	<node lat="59.666913213064326" lon="11.218559525156454" id="-16494">
		<tag k="fixme" v="consider boundary=protected_area and relevant protect_class if not nature reserve" />
		<tag k="leisure" v="nature_reserve" />
		<tag k="name" v="Bogen naturreservat" />
		<tag k="ssr:stedsnr" v="989138" />
	</node>
	<node lat="59.648122305084144" lon="11.246365943885216" id="-16496">
=======
<osm generator="osmapis" version="0.6">
	<node id="-240704" lat="59.6481223051" lon="11.2463659439">
>>>>>>> e1d4bc35ff8a6074a6f2e91616a996b547c36f15
		<tag k="fixme" v="consider boundary=protected_area and relevant protect_class if not nature reserve" />
		<tag k="leisure" v="nature_reserve" />
		<tag k="name" v="Rudslandet naturreservat" />
		<tag k="ssr:stedsnr" v="991085" />
	</node>
<<<<<<< HEAD
	<node lat="59.56906914894569" lon="11.257039490588708" id="-16497">
=======
	<node id="-240699" lat="59.6669132131" lon="11.2185595252">
>>>>>>> e1d4bc35ff8a6074a6f2e91616a996b547c36f15
		<tag k="fixme" v="consider boundary=protected_area and relevant protect_class if not nature reserve" />
		<tag k="leisure" v="nature_reserve" />
		<tag k="name" v="Slitu naturreservat" />
		<tag k="ssr:stedsnr" v="991086" />
	</node>
<<<<<<< HEAD
	<node lat="59.650975004110315" lon="11.266569438017275" id="-16596">
=======
	<node id="-239088" lat="59.6509750041" lon="11.266569438">
>>>>>>> e1d4bc35ff8a6074a6f2e91616a996b547c36f15
		<tag k="fixme" v="consider boundary=protected_area and relevant protect_class if not nature reserve" />
		<tag k="leisure" v="nature_reserve" />
		<tag k="name" v="Strønes naturreservat" />
		<tag k="ssr:stedsnr" v="24671" />
	</node>
<<<<<<< HEAD
	<node lat="59.551792970918356" lon="11.235528995006474" id="-17983">
=======
	<node id="-238955" lat="59.6735242062" lon="11.2530028238">
>>>>>>> e1d4bc35ff8a6074a6f2e91616a996b547c36f15
		<tag k="fixme" v="consider boundary=protected_area and relevant protect_class if not nature reserve" />
		<tag k="leisure" v="nature_reserve" />
		<tag k="name" v="Berg naturreservat" />
		<tag k="ssr:stedsnr" v="983537" />
	</node>
<<<<<<< HEAD
	<node lat="59.76439165549068" lon="11.252552932361986" id="-17984">
=======
	<node id="-238954" lat="59.7643916555" lon="11.2525529324">
>>>>>>> e1d4bc35ff8a6074a6f2e91616a996b547c36f15
		<tag k="fixme" v="consider boundary=protected_area and relevant protect_class if not nature reserve" />
		<tag k="leisure" v="nature_reserve" />
		<tag k="name" v="Flåtten naturreservat" />
		<tag k="ssr:stedsnr" v="983538" />
	</node>
<<<<<<< HEAD
	<node lat="59.67352420617916" lon="11.25300282376041" id="-17985">
=======
	<node id="-238953" lat="59.5517929709" lon="11.235528995">
>>>>>>> e1d4bc35ff8a6074a6f2e91616a996b547c36f15
		<tag k="fixme" v="consider boundary=protected_area and relevant protect_class if not nature reserve" />
		<tag k="leisure" v="nature_reserve" />
		<tag k="name" v="Håkås naturreservat" />
		<tag k="ssr:stedsnr" v="983539" />
	</node>
<<<<<<< HEAD
	<node lat="59.55874507356918" lon="11.29403354159774" id="-18008">
=======
	<node id="-238952" lat="59.6663341442" lon="11.2648113884">
>>>>>>> e1d4bc35ff8a6074a6f2e91616a996b547c36f15
		<tag k="fixme" v="consider boundary=protected_area and relevant protect_class if not nature reserve" />
		<tag k="leisure" v="nature_reserve" />
		<tag k="name" v="Holene naturreservat" />
		<tag k="ssr:stedsnr" v="1077479" />
	</node>
	<node lat="59.50948422255306" lon="11.5115878916063" id="-18009">
		<tag k="fixme" v="consider boundary=protected_area and relevant protect_class if not nature reserve" />
		<tag k="leisure" v="nature_reserve" />
		<tag k="name" v="Gyrihelleren naturreservat" />
		<tag k="ssr:stedsnr" v="1077480" />
	</node>
	<node lat="59.756108161952305" lon="11.256563753183318" id="-18010">
		<tag k="fixme" v="consider boundary=protected_area and relevant protect_class if not nature reserve" />
		<tag k="leisure" v="nature_reserve" />
		<tag k="name" v="Sæter naturreservat" />
		<tag k="ssr:stedsnr" v="1077481" />
	</node>
	<node id="-240705" lat="59.5690691489" lon="11.2570394906">
		<tag k="fixme" v="consider boundary=protected_area and relevant protect_class if not nature reserve" />
		<tag k="leisure" v="nature_reserve" />
		<tag k="name" v="Slitu naturreservat" />
		<tag k="ssr:stedsnr" v="991086" />
	</node>
</osm>
