<?xml version="1.0" encoding="UTF-8"?>
<osm generator="osmapis" version="0.6">
	<node id="-224764" lat="59.7579222238" lon="11.3200361111">
		<tag k="name" v="Vestre Midtfjellmyra" />
		<tag k="natural" v="wetland" />
		<tag k="ssr:stedsnr" v="267527" />
	</node>
	<node id="-224762" lat="59.7380277753" lon="11.2937083416">
		<tag k="name" v="Sorgenfri" />
		<tag k="place" v="locality" />
		<tag k="ssr:stedsnr" v="267520" />
	</node>
	<node id="-225785" lat="59.6695805513" lon="11.1675444433">
		<tag k="alt_name" v="Fjellsmyra" />
		<tag k="name" v="Fjellmosen" />
		<tag k="natural" v="wetland" />
		<tag k="ssr:stedsnr" v="854772" />
	</node>
	<node id="-226807" lat="59.6167055517" lon="11.3511750077">
		<tag k="name" v="Delingsmyra" />
		<tag k="natural" v="wetland" />
		<tag k="ssr:stedsnr" v="387984" />
	</node>
	<node id="-224756" lat="59.6339416673" lon="11.3140444508">
		<tag k="name" v="Gravshagen" />
		<tag k="place" v="locality" />
		<tag k="ssr:stedsnr" v="266954" />
	</node>
	<node id="-226801" lat="59.6137805566" lon="11.3473916622">
		<tag k="name" v="Bankemåsan" />
		<tag k="natural" v="wetland" />
		<tag k="ssr:stedsnr" v="387883" />
	</node>
	<node id="-224752" lat="59.6094833378" lon="11.3476583353">
		<tag k="name" v="Garsrudmyra" />
		<tag k="natural" v="wetland" />
		<tag k="ssr:stedsnr" v="266885" />
	</node>
	<node id="-225447" lat="59.5707694439" lon="11.0049861148">
		<tag k="name" v="Bremosen" />
		<tag k="natural" v="wetland" />
		<tag k="ssr:stedsnr" v="628974" />
	</node>
	<node id="-225768" lat="59.6872166623" lon="11.3906111197">
		<tag k="alt_name" v="Kløvsrøys" />
		<tag k="name" v="Kløvrøys" />
		<tag k="natural" v="stone" />
		<tag k="ssr:stedsnr" v="853825" />
	</node>
	<node id="-227299" lat="59.5644166671" lon="11.5361277722">
		<tag k="name" v="Hungerstein" />
		<tag k="natural" v="stone" />
		<tag k="ssr:stedsnr" v="780074" />
	</node>
	<node id="-226272" lat="59.5181444428" lon="11.4671472167">
		<tag k="name" v="Brumosen" />
		<tag k="natural" v="wetland" />
		<tag k="ssr:stedsnr" v="145283" />
	</node>
	<node id="-227293" lat="59.6202944478" lon="11.376325004">
		<tag k="name" v="Kirkejordet" />
		<tag k="place" v="locality" />
		<tag k="ssr:stedsnr" v="752972" />
	</node>
	<node id="-227292" lat="59.6248499994" lon="11.2879527699">
		<tag k="name" v="Myra" />
		<tag k="place" v="locality" />
		<tag k="ssr:stedsnr" v="752951" />
	</node>
	<node id="-226779" lat="59.533000003" lon="10.9906833256">
		<tag k="landuse" v="meadow" />
		<tag k="name" v="Bjørnenga" />
		<tag k="ssr:stedsnr" v="386947" />
	</node>
	<node id="-227288" lat="59.5913444465" lon="11.3306250057">
		<tag k="name" v="Torvmåsan" />
		<tag k="natural" v="wetland" />
		<tag k="ssr:stedsnr" v="752901" />
	</node>
	<node id="-227285" lat="59.6070888934" lon="11.4575361047">
		<tag k="name" v="Setermosen" />
		<tag k="natural" v="wetland" />
		<tag k="ssr:stedsnr" v="752846" />
	</node>
	<node id="-227284" lat="59.601952778" lon="11.4256305537">
		<tag k="name" v="Haga" />
		<tag k="place" v="locality" />
		<tag k="ssr:stedsnr" v="752827" />
	</node>
	<node id="-225746" lat="59.6141555525" lon="11.4288499979">
		<tag k="landuse" v="meadow" />
		<tag k="name" v="Fjellengen" />
		<tag k="ssr:stedsnr" v="934847" />
	</node>
	<node id="-226250" lat="59.6876749999" lon="11.018116675">
		<tag k="name" v="Holtsmosen" />
		<tag k="natural" v="wetland" />
		<tag k="ssr:stedsnr" v="143774" />
	</node>
	<node id="-227575" lat="59.5899111079" lon="11.3227833284">
		<tag k="name" v="Måsan" />
		<tag k="natural" v="wetland" />
		<tag k="ssr:stedsnr" v="873893" />
	</node>
	<node id="-226248" lat="59.6768947627" lon="10.963898252">
		<tag k="loc_name" v="Multemyra" />
		<tag k="name" v="Svanesundmyra" />
		<tag k="natural" v="wetland" />
		<tag k="ssr:stedsnr" v="143764" />
	</node>
	<node id="-227267" lat="59.7279694476" lon="11.2981805525">
		<tag k="name" v="Årmomåsan" />
		<tag k="natural" v="wetland" />
		<tag k="ssr:stedsnr" v="752530" />
	</node>
	<node id="-224706" lat="59.5351833372" lon="11.0292000062">
		<tag k="name" v="Bjørnstadmosen" />
		<tag k="natural" v="wetland" />
		<tag k="ssr:stedsnr" v="264995" />
	</node>
	<node id="-226239" lat="59.6701333292" lon="11.1666805521">
		<tag k="name" v="Hauglandmosen" />
		<tag k="natural" v="wetland" />
		<tag k="ssr:stedsnr" v="143695" />
	</node>
	<node id="-226749" lat="59.5910611123" lon="11.2437333267">
		<tag k="name" v="Rudsmosen" />
		<tag k="natural" v="wetland" />
		<tag k="ssr:stedsnr" v="368894" />
	</node>
	<node id="-224696" lat="59.6616833304" lon="11.0422083376">
		<tag k="name" v="Tjormyra" />
		<tag k="natural" v="wetland" />
		<tag k="ssr:stedsnr" v="264807" />
	</node>
	<node id="-226225" lat="59.6910833293" lon="11.3664305611">
		<tag k="name" v="Utenga" />
		<tag k="place" v="locality" />
		<tag k="ssr:stedsnr" v="145484" />
	</node>
	<node id="-226224" lat="59.6750361078" lon="11.3019944475">
		<tag k="landuse" v="meadow" />
		<tag k="name" v="Vestereng" />
		<tag k="ssr:stedsnr" v="145479" />
	</node>
	<node id="-224840" lat="59.6668083315" lon="11.080450001">
		<tag k="alt_name" v="Langmosen" />
		<tag k="name" v="Langmosan" />
		<tag k="natural" v="wetland" />
		<tag k="ssr:stedsnr" v="245456" />
	</node>
	<node id="-227244" lat="59.5542611082" lon="10.8485500072">
		<tag k="name" v="Sprangmyra" />
		<tag k="natural" v="wetland" />
		<tag k="ssr:stedsnr" v="751929" />
	</node>
	<node id="-225705" lat="59.5322583291" lon="11.0227833271">
		<tag k="name" v="Vinterveimyr" />
		<tag k="natural" v="wetland" />
		<tag k="ssr:stedsnr" v="932988" />
	</node>
	<node id="-225702" lat="59.5376694418" lon="11.0403944478">
		<tag k="name" v="Langmosen" />
		<tag k="natural" v="wetland" />
		<tag k="ssr:stedsnr" v="932940" />
	</node>
	<node id="-227236" lat="59.6386388852" lon="10.9557333274">
		<tag k="name" v="Mosseby" />
		<tag k="place" v="locality" />
		<tag k="ssr:stedsnr" v="750814" />
	</node>
	<node id="-226723" lat="59.5104138851" lon="11.4801361029">
		<tag k="name" v="Heiamosen" />
		<tag k="natural" v="wetland" />
		<tag k="ssr:stedsnr" v="368408" />
	</node>
	<node id="-225697" lat="59.5888194471" lon="11.0351138835">
		<tag k="name" v="Kjelstadmyra" />
		<tag k="natural" v="wetland" />
		<tag k="ssr:stedsnr" v="932762" />
	</node>
	<node id="-225184" lat="59.604775004" lon="11.3482166755">
		<tag k="name" v="Jonsrudmåsan" />
		<tag k="natural" v="wetland" />
		<tag k="ssr:stedsnr" v="449839" />
	</node>
	<node id="-224670" lat="59.730499998" lon="11.3531138826">
		<tag k="name" v="Bjørnemåsan" />
		<tag k="natural" v="wetland" />
		<tag k="ssr:stedsnr" v="84576" />
	</node>
	<node id="-225181" lat="59.7251499988" lon="11.329650006">
		<tag k="name" v="Bråta" />
		<tag k="place" v="locality" />
		<tag k="ssr:stedsnr" v="449536" />
	</node>
	<node id="-227226" lat="59.6763305596" lon="11.1636277715">
		<tag k="name" v="Sjutjernmosen" />
		<tag k="natural" v="wetland" />
		<tag k="ssr:stedsnr" v="750681" />
	</node>
	<node id="-227219" lat="59.5294083369" lon="11.010822221">
		<tag k="name" v="Trolleina" />
		<tag k="place" v="locality" />
		<tag k="ssr:stedsnr" v="750997" />
	</node>
	<node id="-225681" lat="59.5974444415" lon="11.0083333262">
		<tag k="name" v="Sagholtet" />
		<tag k="place" v="locality" />
		<tag k="ssr:stedsnr" v="932722" />
	</node>
	<node id="-227216" lat="59.5538944423" lon="11.0047777727">
		<tag k="name" v="Skogremmosen" />
		<tag k="natural" v="wetland" />
		<tag k="ssr:stedsnr" v="750974" />
	</node>
	<node id="-225666" lat="59.6324916641" lon="11.1106944471">
		<tag k="alt_name" v="Ramstadgrinna" />
		<tag k="name" v="Grinda" />
		<tag k="place" v="locality" />
		<tag k="ssr:stedsnr" v="792969" />
	</node>
	<node id="-224832" lat="59.5642583301" lon="11.0151638909">
		<tag k="name" v="Veslemosen" />
		<tag k="natural" v="wetland" />
		<tag k="ssr:stedsnr" v="447977" />
	</node>
	<node id="-227198" lat="59.7314666652" lon="11.3301777698">
		<tag k="name" v="Haga" />
		<tag k="place" v="locality" />
		<tag k="ssr:stedsnr" v="631534" />
	</node>
	<node id="-227196" lat="59.605136111" lon="11.2901750087">
		<tag k="name" v="Mellegårdshagan" />
		<tag k="place" v="locality" />
		<tag k="ssr:stedsnr" v="631000" />
	</node>
	<node id="-226623" lat="59.6864388879" lon="11.0165611053">
		<tag k="name" v="Holtet" />
		<tag k="place" v="locality" />
		<tag k="ssr:stedsnr" v="325765" />
	</node>
	<node id="-224630" lat="59.5339111108" lon="10.8978861044">
		<tag k="name" v="Fjærmosan" />
		<tag k="natural" v="wetland" />
		<tag k="ssr:stedsnr" v="247024" />
	</node>
	<node id="-227180" lat="59.7153027749" lon="11.3559055492">
		<tag k="name" v="Ånnerudlangmåsan" />
		<tag k="natural" v="wetland" />
		<tag k="ssr:stedsnr" v="630539" />
	</node>
	<node id="-227173" lat="59.6761666629" lon="11.3290361078">
		<tag k="name" v="Haga" />
		<tag k="place" v="locality" />
		<tag k="ssr:stedsnr" v="630445" />
	</node>
	<node id="-225635" lat="59.6694499968" lon="11.4014500083">
		<tag k="name" v="Kallakmosen" />
		<tag k="natural" v="wetland" />
		<tag k="ssr:stedsnr" v="914793" />
	</node>
	<node id="-226145" lat="59.4911916652" lon="11.4420027859">
		<tag k="name" v="Bliksen" />
		<tag k="natural" v="wetland" />
		<tag k="ssr:stedsnr" v="111416" />
	</node>
	<node id="-225168" lat="59.5414305563" lon="10.8443277728">
		<tag k="name" v="Lure" />
		<tag k="place" v="locality" />
		<tag k="ssr:stedsnr" v="447912" />
	</node>
	<node id="-227166" lat="59.6196472245" lon="11.2464083268">
		<tag k="name" v="Måsån" />
		<tag k="place" v="locality" />
		<tag k="ssr:stedsnr" v="630239" />
	</node>
	<node id="-227152" lat="59.6986388929" lon="10.9855166652">
		<tag k="name" v="Høymyra" />
		<tag k="natural" v="wetland" />
		<tag k="ssr:stedsnr" v="628795" />
	</node>
	<node id="-227145" lat="59.600422223" lon="11.0053694505">
		<tag k="landuse" v="meadow" />
		<tag k="name" v="Hysken" />
		<tag k="ssr:stedsnr" v="628736" />
	</node>
	<node id="-226119" lat="59.686644448" lon="11.3544444432">
		<tag k="name" v="Delingsmyra" />
		<tag k="natural" v="wetland" />
		<tag k="ssr:stedsnr" v="84534" />
	</node>
	<node id="-225087" lat="59.5295555583" lon="11.0169972268">
		<tag k="name" v="Vadmyr" />
		<tag k="natural" v="wetland" />
		<tag k="ssr:stedsnr" v="508000" />
	</node>
	<node id="-225595" lat="59.5182750034" lon="11.0715166616">
		<tag k="name" v="Heimyra" />
		<tag k="natural" v="wetland" />
		<tag k="ssr:stedsnr" v="914033" />
	</node>
	<node id="-225079" lat="59.5317722184" lon="11.0488888924">
		<tag k="name" v="Høymyr" />
		<tag k="natural" v="wetland" />
		<tag k="ssr:stedsnr" v="507995" />
	</node>
	<node id="-226613" lat="59.6668611118" lon="11.1496416737">
		<tag k="name" v="Nygård" />
		<tag k="place" v="locality" />
		<tag k="ssr:stedsnr" v="325684" />
	</node>
	<node id="-225074" lat="59.5956083355" lon="11.0042388947">
		<tag k="name" v="Hyskemosen" />
		<tag k="natural" v="wetland" />
		<tag k="ssr:stedsnr" v="507767" />
	</node>
	<node id="-226096" lat="59.6740055586" lon="11.1292250002">
		<tag k="name" v="Slorene" />
		<tag k="natural" v="wetland" />
		<tag k="ssr:stedsnr" v="82681" />
	</node>
	<node id="-225071" lat="59.6873333371" lon="11.144305552">
		<tag k="name" v="Grevlinghimosen" />
		<tag k="natural" v="wetland" />
		<tag k="ssr:stedsnr" v="507735" />
	</node>
	<node id="-225067" lat="59.628002781" lon="11.2863750067">
		<tag k="name" v="Flekken" />
		<tag k="place" v="locality" />
		<tag k="ssr:stedsnr" v="387957" />
	</node>
	<node id="-225065" lat="59.6624305545" lon="11.4627388914">
		<tag k="name" v="Seterbakken" />
		<tag k="place" v="locality" />
		<tag k="ssr:stedsnr" v="387926" />
	</node>
	<node id="-225062" lat="59.639522221" lon="11.3401388906">
		<tag k="name" v="Svenskemyra" />
		<tag k="natural" v="wetland" />
		<tag k="ssr:stedsnr" v="387557" />
	</node>
	<node id="-226597" lat="59.5745861125" lon="10.9773194515">
		<tag k="name" v="Breimyra" />
		<tag k="natural" v="wetland" />
		<tag k="ssr:stedsnr" v="325966" />
	</node>
	<node id="-225498" lat="59.5063638878" lon="11.5119027794">
		<tag k="alt_name" v="Jyrihellermosen" />
		<tag k="fixme" v="multiple name tags, choose one and add the other to alt_name" />
		<tag k="name" v="Trekantmyra;Gyrihellermosen" />
		<tag k="natural" v="wetland" />
		<tag k="ssr:stedsnr" v="732397" />
	</node>
	<node id="-225048" lat="59.6924083292" lon="10.9975611093">
		<tag k="name" v="Brånamosen" />
		<tag k="natural" v="wetland" />
		<tag k="ssr:stedsnr" v="386819" />
	</node>
	<node id="-225047" lat="59.6921777794" lon="11.0052277774">
		<tag k="name" v="Elgmyra" />
		<tag k="natural" v="wetland" />
		<tag k="ssr:stedsnr" v="386808" />
	</node>
	<node id="-225043" lat="59.6118000041" lon="10.975802772">
		<tag k="name" v="Lauvås" />
		<tag k="place" v="locality" />
		<tag k="ssr:stedsnr" v="386757" />
	</node>
	<node id="-225041" lat="59.608313885" lon="10.9991194364">
		<tag k="name" v="Grådalen" />
		<tag k="place" v="locality" />
		<tag k="ssr:stedsnr" v="386753" />
	</node>
	<node id="-225035" lat="59.6676972211" lon="11.1054222188">
		<tag k="name" v="Grøtjern" />
		<tag k="place" v="locality" />
		<tag k="ssr:stedsnr" v="385716" />
	</node>
	<node id="-225542" lat="59.6843750042" lon="11.0227527731">
		<tag k="name" v="Kloppmyra" />
		<tag k="natural" v="wetland" />
		<tag k="ssr:stedsnr" v="689757" />
	</node>
	<node id="-224517" lat="59.6226999976" lon="11.238719446">
		<tag k="name" v="Eikebergmåsan" />
		<tag k="natural" v="wetland" />
		<tag k="ssr:stedsnr" v="24218" />
	</node>
	<node id="-227588" lat="59.4828888882" lon="11.4784722295">
		<tag k="historic" v="shieling" />
		<tag k="name" v="Mellebyvollen" />
		<tag k="place" v="locality" />
		<tag k="ssr:stedsnr" v="961383" />
	</node>
	<node id="-225539" lat="59.5991194438" lon="11.0155472204">
		<tag k="name" v="Bølermosen" />
		<tag k="natural" v="wetland" />
		<tag k="ssr:stedsnr" v="689722" />
	</node>
	<node id="-225537" lat="59.5958472247" lon="10.9753999932">
		<tag k="name" v="Korsfurua" />
		<tag k="place" v="locality" />
		<tag k="ssr:stedsnr" v="689718" />
	</node>
	<node id="-225024" lat="59.5653833323" lon="10.9642583295">
		<tag k="name" v="Ertevassmyrene" />
		<tag k="natural" v="wetland" />
		<tag k="ssr:stedsnr" v="367157" />
	</node>
	<node id="-224508" lat="59.6443111078" lon="11.4588555602">
		<tag k="name" v="Bingslimosen" />
		<tag k="natural" v="wetland" />
		<tag k="ssr:stedsnr" v="219816" />
	</node>
	<node id="-227065" lat="59.6345916695" lon="11.3715527764">
		<tag k="name" v="Hovemåsan" />
		<tag k="natural" v="wetland" />
		<tag k="ssr:stedsnr" v="569961" />
	</node>
	<node id="-226260" lat="59.5626333323" lon="11.0053972238">
		<tag k="name" v="Høymyr" />
		<tag k="natural" v="wetland" />
		<tag k="ssr:stedsnr" v="143977" />
	</node>
	<node id="-227571" lat="59.6135583292" lon="11.45472778">
		<tag k="name" v="Svartemyra" />
		<tag k="natural" v="wetland" />
		<tag k="ssr:stedsnr" v="873843" />
	</node>
	<node id="-226258" lat="59.5343388872" lon="11.0113361088">
		<tag k="name" v="Myrvoll" />
		<tag k="natural" v="wetland" />
		<tag k="ssr:stedsnr" v="143933" />
	</node>
	<node id="-226598" lat="59.5864555567" lon="10.9463416623">
		<tag k="name" v="Merramyra" />
		<tag k="natural" v="wetland" />
		<tag k="ssr:stedsnr" v="325969" />
	</node>
	<node id="-227548" lat="59.5247222266" lon="10.9813611071">
		<tag k="name" v="Delingsmyr" />
		<tag k="natural" v="wetland" />
		<tag k="ssr:stedsnr" v="871987" />
	</node>
	<node id="-227546" lat="59.5647722199" lon="11.0225277744">
		<tag k="name" v="Fuglesangen" />
		<tag k="natural" v="wetland" />
		<tag k="ssr:stedsnr" v="871976" />
	</node>
	<node id="-226009" lat="59.6336055525" lon="11.3923083332">
		<tag k="name" v="Myråsmåsan" />
		<tag k="natural" v="wetland" />
		<tag k="ssr:stedsnr" v="24986" />
	</node>
	<node id="-227543" lat="59.6002555598" lon="10.9633250003">
		<tag k="name" v="Brånen" />
		<tag k="place" v="locality" />
		<tag k="ssr:stedsnr" v="871750" />
	</node>
	<node id="-227542" lat="59.6140027817" lon="10.9924055527">
		<tag k="name" v="Vestenga" />
		<tag k="place" v="locality" />
		<tag k="ssr:stedsnr" v="871747" />
	</node>
	<node id="-225492" lat="59.5728777798" lon="10.9938138876">
		<tag k="alt_name" v="Langmosen" />
		<tag k="name" v="Langmosan" />
		<tag k="natural" v="wetland" />
		<tag k="ssr:stedsnr" v="732222" />
	</node>
	<node id="-227538" lat="59.7010249957" lon="10.9937666675">
		<tag k="name" v="Gaupesteinmosen" />
		<tag k="natural" v="wetland" />
		<tag k="ssr:stedsnr" v="871792" />
	</node>
	<node id="-226001" lat="59.6328444452" lon="11.3999361074">
		<tag k="name" v="Skjæringsrudmosen" />
		<tag k="natural" v="wetland" />
		<tag k="ssr:stedsnr" v="24809" />
	</node>
	<node id="-224888" lat="59.6326194486" lon="11.3559250008">
		<tag k="name" v="Vardemyrene" />
		<tag k="natural" v="wetland" />
		<tag k="ssr:stedsnr" v="449947" />
	</node>
	<node id="-225995" lat="59.6810861112" lon="11.2868138887">
		<tag k="landuse" v="meadow" />
		<tag k="name" v="Østreng" />
		<tag k="ssr:stedsnr" v="24577" />
	</node>
	<node id="-225991" lat="59.6858249958" lon="11.3455722168">
		<tag k="name" v="Tassemåsan" />
		<tag k="natural" v="wetland" />
		<tag k="ssr:stedsnr" v="24498" />
	</node>
	<node id="-225473" lat="59.6262472241" lon="11.358566675">
		<tag k="name" v="Raudmåsan" />
		<tag k="natural" v="wetland" />
		<tag k="ssr:stedsnr" v="630975" />
	</node>
	<node id="-224953" lat="59.7404027751" lon="11.3457083261">
		<tag k="alt_name" v="Breidmosen" />
		<tag k="name" v="Breimåsan" />
		<tag k="natural" v="wetland" />
		<tag k="ssr:stedsnr" v="489078" />
	</node>
	<node id="-224950" lat="59.5348611103" lon="10.8151361072">
		<tag k="name" v="Stormyra" />
		<tag k="natural" v="wetland" />
		<tag k="ssr:stedsnr" v="489028" />
	</node>
	<node id="-225971" lat="59.5862277789" lon="10.9701194459">
		<tag k="name" v="Tjoremosen" />
		<tag k="natural" v="wetland" />
		<tag k="ssr:stedsnr" v="22973" />
	</node>
	<node id="-226994" lat="59.5930999979" lon="11.0376722161">
		<tag k="name" v="Tangenmyra" />
		<tag k="natural" v="wetland" />
		<tag k="ssr:stedsnr" v="567788" />
	</node>
	<node id="-225969" lat="59.5476805562" lon="11.0188638935">
		<tag k="name" v="Kvarudmyra" />
		<tag k="natural" v="wetland" />
		<tag k="ssr:stedsnr" v="22951" />
	</node>
	<node id="-226987" lat="59.6055083364" lon="11.0025694469">
		<tag k="name" v="Ødegården" />
		<tag k="place" v="locality" />
		<tag k="ssr:stedsnr" v="567750" />
	</node>
	<node id="-226983" lat="59.6885944469" lon="11.1450222151">
		<tag k="name" v="Jakobsmosen" />
		<tag k="natural" v="wetland" />
		<tag k="ssr:stedsnr" v="567714" />
	</node>
	<node id="-224931" lat="59.6113333344" lon="11.3571111133">
		<tag k="landuse" v="meadow" />
		<tag k="name" v="Tyrihjellen" />
		<tag k="ssr:stedsnr" v="327843" />
	</node>
	<node id="-227490" lat="59.7045888933" lon="10.9898916601">
		<tag k="name" v="Gaupestein" />
		<tag k="natural" v="stone" />
		<tag k="ssr:stedsnr" v="853383" />
	</node>
	<node id="-226462" lat="59.7494277786" lon="11.3064888915">
		<tag k="name" v="Fjellsmåsan" />
		<tag k="natural" v="wetland" />
		<tag k="ssr:stedsnr" v="206537" />
	</node>
	<node id="-227475" lat="59.4978861086" lon="11.4687250055">
		<tag k="historic" v="shieling" />
		<tag k="name" v="Eikevollen" />
		<tag k="place" v="locality" />
		<tag k="ssr:stedsnr" v="839449" />
	</node>
	<node id="-226960" lat="59.6785333372" lon="11.1947111043">
		<tag k="name" v="Tjernsmyra" />
		<tag k="natural" v="wetland" />
		<tag k="ssr:stedsnr" v="550809" />
	</node>
	<node id="-226619" lat="59.6082555573" lon="10.9614861084">
		<tag k="name" v="Dammen" />
		<tag k="place" v="locality" />
		<tag k="ssr:stedsnr" v="325739" />
	</node>
	<node id="-227468" lat="59.5941722188" lon="11.3241583262">
		<tag k="name" v="Snippen" />
		<tag k="place" v="locality" />
		<tag k="ssr:stedsnr" v="813996" />
	</node>
	<node id="-227465" lat="59.5868333373" lon="11.3220916634">
		<tag k="name" v="Geiterudmåsan" />
		<tag k="natural" v="wetland" />
		<tag k="ssr:stedsnr" v="813880" />
	</node>
	<node id="-225415" lat="59.5817027785" lon="10.8999416646">
		<tag k="name" v="Risermosan" />
		<tag k="natural" v="wetland" />
		<tag k="ssr:stedsnr" v="610206" />
	</node>
	<node id="-226414" lat="59.6776722253" lon="11.1551638966">
		<tag k="name" v="Lauvåsmosen" />
		<tag k="natural" v="wetland" />
		<tag k="ssr:stedsnr" v="204667" />
	</node>
	<node id="-227454" lat="59.7275055512" lon="11.3103333385">
		<tag k="name" v="Grisemyra" />
		<tag k="natural" v="wetland" />
		<tag k="ssr:stedsnr" v="813523" />
	</node>
	<node id="-224892" lat="59.6671138916" lon="11.4356638948">
		<tag k="name" v="Bjørnemosen" />
		<tag k="natural" v="wetland" />
		<tag k="ssr:stedsnr" v="449890" />
	</node>
	<node id="-226426" lat="59.7016666633" lon="10.9701083344">
		<tag k="name" v="Åremosen" />
		<tag k="natural" v="wetland" />
		<tag k="ssr:stedsnr" v="204803" />
	</node>
	<node id="-226936" lat="59.6943333291" lon="10.9770055532">
		<tag k="alt_name" v="Bredmosen" />
		<tag k="name" v="Breidmosan" />
		<tag k="natural" v="wetland" />
		<tag k="ssr:stedsnr" v="550406" />
	</node>
	<node id="-226422" lat="59.6986111146" lon="11.0131583363">
		<tag k="name" v="Nordli" />
		<tag k="place" v="locality" />
		<tag k="ssr:stedsnr" v="204773" />
	</node>
	<node id="-226420" lat="59.580188886" lon="11.0237138923">
		<tag k="name" v="Muråsmyra" />
		<tag k="natural" v="wetland" />
		<tag k="ssr:stedsnr" v="204767" />
	</node>
	<node id="-224531" lat="59.5890444408" lon="11.3174611107">
		<tag k="name" v="Jørentvetmåsan" />
		<tag k="natural" v="wetland" />
		<tag k="ssr:stedsnr" v="24901" />
	</node>
	<node id="-225902" lat="59.5227416697" lon="11.0665388896">
		<tag k="alt_name" v="Breimosen" />
		<tag k="name" v="Breidmosan" />
		<tag k="natural" v="wetland" />
		<tag k="ssr:stedsnr" v="4010" />
	</node>
	<node id="-226410" lat="59.6053388925" lon="11.1495555472">
		<tag k="name" v="Gudimhagen" />
		<tag k="place" v="locality" />
		<tag k="ssr:stedsnr" v="204647" />
	</node>
	<node id="-224873" lat="59.6848027784" lon="11.3535666715">
		<tag k="name" v="Rudsmåsan" />
		<tag k="natural" v="wetland" />
		<tag k="ssr:stedsnr" v="449453" />
	</node>
	<node id="-225378" lat="59.6680861079" lon="11.4409750062">
		<tag k="name" v="Stangrøys" />
		<tag k="natural" v="stone" />
		<tag k="ssr:stedsnr" v="691909" />
	</node>
	<node id="-224847" lat="59.6361388923" lon="11.2508083376">
		<tag k="name" v="Nordhagen" />
		<tag k="place" v="locality" />
		<tag k="ssr:stedsnr" v="448293" />
	</node>
	<node id="-226668" lat="59.7421888877" lon="11.3028944488">
		<tag k="name" v="Stiksdalsmyra" />
		<tag k="natural" v="wetland" />
		<tag k="ssr:stedsnr" v="328536" />
	</node>
	<node id="-227400" lat="59.5724166636" lon="10.9987999921">
		<tag k="name" v="Sundbymosen" />
		<tag k="natural" v="wetland" />
		<tag k="ssr:stedsnr" v="811981" />
	</node>
	<node id="-227398" lat="59.5275972269" lon="11.0654416583">
		<tag k="name" v="Gåsehalsen" />
		<tag k="natural" v="wetland" />
		<tag k="ssr:stedsnr" v="811829" />
	</node>
	<node id="-225633" lat="59.6628694477" lon="11.3759777859">
		<tag k="name" v="Hærsetmosen" />
		<tag k="natural" v="wetland" />
		<tag k="ssr:stedsnr" v="914779" />
	</node>
	<node id="-227393" lat="59.6125249965" lon="10.9914083338">
		<tag k="name" v="Nordreås" />
		<tag k="place" v="locality" />
		<tag k="ssr:stedsnr" v="811739" />
	</node>
	<node id="-227392" lat="59.5994638917" lon="10.9872361198">
		<tag k="name" v="Jutulen" />
		<tag k="place" v="locality" />
		<tag k="ssr:stedsnr" v="811735" />
	</node>
	<node id="-224823" lat="59.6724722209" lon="11.1634305516">
		<tag k="name" v="Svarthølet" />
		<tag k="place" v="locality" />
		<tag k="ssr:stedsnr" v="447691" />
	</node>
	<node id="-224821" lat="59.6769833357" lon="11.1361111089">
		<tag k="name" v="Bjørnemyr" />
		<tag k="natural" v="wetland" />
		<tag k="ssr:stedsnr" v="447676" />
	</node>
	<node id="-226654" lat="59.7067638908" lon="11.3492083413">
		<tag k="name" v="Stegmåsan" />
		<tag k="natural" v="wetland" />
		<tag k="ssr:stedsnr" v="327572" />
	</node>
	<node id="-227378" lat="59.6644444484" lon="11.0910666597">
		<tag k="name" v="Hollimosen" />
		<tag k="natural" v="wetland" />
		<tag k="ssr:stedsnr" v="810707" />
	</node>
	<node id="-226353" lat="59.5540305549" lon="10.9744222302">
		<tag k="alt_name" v="Seutmosen" />
		<tag k="name" v="Seutmosan" />
		<tag k="natural" v="wetland" />
		<tag k="ssr:stedsnr" v="186229" />
	</node>
	<node id="-225321" lat="59.5122111095" lon="10.9995361075">
		<tag k="name" v="Korsmyr" />
		<tag k="natural" v="wetland" />
		<tag k="ssr:stedsnr" v="689998" />
	</node>
	<node id="-225320" lat="59.5657583334" lon="10.9821666628">
		<tag k="name" v="Slora" />
		<tag k="natural" v="wetland" />
		<tag k="ssr:stedsnr" v="689983" />
	</node>
	<node id="-225319" lat="59.5797888859" lon="10.9880388872">
		<tag k="name" v="Slåmosen" />
		<tag k="natural" v="wetland" />
		<tag k="ssr:stedsnr" v="689971" />
	</node>
	<node id="-225318" lat="59.5360583325" lon="10.9965638956">
		<tag k="name" v="Vestenga" />
		<tag k="place" v="locality" />
		<tag k="ssr:stedsnr" v="689952" />
	</node>
	<node id="-226993" lat="59.5867333355" lon="11.0024555534">
		<tag k="name" v="Hvitmosen" />
		<tag k="natural" v="wetland" />
		<tag k="ssr:stedsnr" v="567783" />
	</node>
	<node id="-225313" lat="59.6864333369" lon="10.971119447">
		<tag k="name" v="Vienmosen" />
		<tag k="natural" v="wetland" />
		<tag k="ssr:stedsnr" v="689790" />
	</node>
	<node id="-225310" lat="59.6840916625" lon="11.1465444404">
		<tag k="name" v="Gulltjernmosen" />
		<tag k="natural" v="wetland" />
		<tag k="ssr:stedsnr" v="689699" />
	</node>
	<node id="-225814" lat="59.5091972248" lon="11.4638777785">
		<tag k="name" v="Merramosen" />
		<tag k="natural" v="wetland" />
		<tag k="ssr:stedsnr" v="873357" />
	</node>
	<node id="-226342" lat="59.5123500024" lon="11.0096305625">
		<tag k="alt_name" v="Mørkmosan" />
		<tag k="name" v="Mørkmosen" />
		<tag k="natural" v="wetland" />
		<tag k="ssr:stedsnr" v="186061" />
	</node>
	<node id="-224722" lat="59.5579638882" lon="11.467513894">
		<tag k="name" v="Skinnerudmosen" />
		<tag k="natural" v="wetland" />
		<tag k="ssr:stedsnr" v="266281" />
	</node>
	<node id="-225283" lat="59.6725472242" lon="11.1816777809">
		<tag k="name" v="Sandummosen" />
		<tag k="natural" v="wetland" />
		<tag k="ssr:stedsnr" v="509106" />
	</node>
</osm>
