<?xml version="1.0" encoding="UTF-8"?>
<osm version="0.6" generator="osmapis">
	<node lat="59.543999999728484" lon="11.220080559306416" id="-27162">
		<tag k="amenity" v="community_centre" />
		<tag k="name" v="Hoie" />
		<tag k="ssr:stedsnr" v="4549" />
	</node>
	<node lat="59.535900002434644" lon="11.525494442457736" id="-27179">
		<tag k="name" v="Skjæla" />
		<tag k="place" v="locality" />
		<tag k="ssr:stedsnr" v="233501" />
	</node>
	<node lat="59.646183329047176" lon="11.177252776031233" id="-27188">
		<tag k="name" v="Rælingen" />
		<tag k="place" v="locality" />
		<tag k="ssr:stedsnr" v="24016" />
	</node>
	<node lat="59.560969441864586" lon="11.26321388504367" id="-27294">
		<tag k="name" v="Tenor kirkeruin" />
		<tag k="place" v="locality" />
		<tag k="ssr:stedsnr" v="84434" />
	</node>
	<node lat="59.64670277749815" lon="11.45065556039402" id="-27304">
		<tag k="name" v="Blekket" />
		<tag k="place" v="locality" />
		<tag k="ssr:stedsnr" v="84830" />
	</node>
	<node lat="59.750830559818205" lon="11.308027770093087" id="-27310">
		<tag k="name" v="Styggdråga" />
		<tag k="place" v="locality" />
		<tag k="ssr:stedsnr" v="85486" />
	</node>
	<node lat="59.523472223301404" lon="11.239044436385784" id="-27496">
		<tag k="name" v="Dananeset" />
		<tag k="place" v="locality" />
		<tag k="ssr:stedsnr" v="266476" />
	</node>
	<node lat="59.71049166329852" lon="11.29484721748162" id="-27505">
		<tag k="name" v="Overgangen" />
		<tag k="place" v="locality" />
		<tag k="ssr:stedsnr" v="266609" />
	</node>
	<node lat="59.6521888869305" lon="11.191519448993866" id="-27507">
		<tag k="name" v="Hagalykkja" />
		<tag k="place" v="locality" />
		<tag k="ssr:stedsnr" v="266678" />
	</node>
	<node lat="59.607572219229105" lon="11.302944452774554" id="-27511">
		<tag k="name" v="Bråteneset" />
		<tag k="place" v="locality" />
		<tag k="ssr:stedsnr" v="266998" />
	</node>
	<node lat="59.64375555464103" lon="11.250236114958334" id="-27530">
		<tag k="name" v="Galteryggen" />
		<tag k="place" v="locality" />
		<tag k="ssr:stedsnr" v="206654" />
	</node>
	<node lat="59.650927781876334" lon="11.240069444185293" id="-27639">
		<tag k="name" v="Løytnantsberget" />
		<tag k="place" v="locality" />
		<tag k="ssr:stedsnr" v="266691" />
	</node>
	<node lat="59.587302779230875" lon="11.309227771247436" id="-27646">
		<tag k="name" v="Hallerud" />
		<tag k="place" v="locality" />
		<tag k="ssr:stedsnr" v="266913" />
	</node>
	<node lat="59.63321666961594" lon="11.237716671279756" id="-27720">
		<tag k="name" v="Petterhytta" />
		<tag k="place" v="locality" />
		<tag k="ssr:stedsnr" v="327257" />
	</node>
	<node lat="59.67730833757539" lon="11.389366666088558" id="-27726">
		<tag k="name" v="Persbråten" />
		<tag k="place" v="locality" />
		<tag k="ssr:stedsnr" v="327514" />
	</node>
	<node lat="59.61204721913416" lon="11.45038056402669" id="-27732">
		<tag k="name" v="Sørli" />
		<tag k="place" v="locality" />
		<tag k="ssr:stedsnr" v="327812" />
	</node>
	<node lat="59.589386115469345" lon="11.491841660784337" id="-27791">
		<tag k="name" v="Kølabånn" />
		<tag k="place" v="locality" />
		<tag k="ssr:stedsnr" v="387306" />
	</node>
	<node lat="59.64947500245628" lon="11.22685555321988" id="-27798">
		<tag k="name" v="Farvelgrinda" />
		<tag k="place" v="locality" />
		<tag k="ssr:stedsnr" v="387713" />
	</node>
	<node lat="59.71328888502824" lon="11.338427773818509" id="-27800">
		<tag k="name" v="Rauveien" />
		<tag k="place" v="locality" />
		<tag k="ssr:stedsnr" v="387609" />
	</node>
	<node lat="59.63439166522749" lon="11.310847217669963" id="-27810">
		<tag k="name" v="Rognerud" />
		<tag k="place" v="locality" />
		<tag k="ssr:stedsnr" v="387960" />
	</node>
	<node lat="59.51022222400346" lon="11.286863888698022" id="-27927">
		<tag k="name" v="Harkopp" />
		<tag k="place" v="locality" />
		<tag k="ssr:stedsnr" v="448426" />
	</node>
	<node lat="59.656561110424185" lon="11.189072216297065" id="-27934">
		<tag k="name" v="Tømmersleppa" />
		<tag k="place" v="locality" />
		<tag k="ssr:stedsnr" v="449109" />
	</node>
	<node lat="59.647436112123856" lon="11.238858339926614" id="-28042">
		<tag k="name" v="Riholen" />
		<tag k="place" v="locality" />
		<tag k="ssr:stedsnr" v="509673" />
	</node>
	<node lat="59.623049997861514" lon="11.419597228782777" id="-28043">
		<tag k="name" v="Halltorp" />
		<tag k="place" v="locality" />
		<tag k="ssr:stedsnr" v="509796" />
	</node>
	<node lat="59.64378610713107" lon="11.217341671569793" id="-28113">
		<tag k="name" v="Nordeng" />
		<tag k="place" v="locality" />
		<tag k="ssr:stedsnr" v="691704" />
	</node>
	<node lat="59.625355552371396" lon="10.98452777100542" id="-28218">
		<tag k="amenity" v="community_centre" />
		<tag k="name" v="Torp" />
		<tag k="ssr:stedsnr" v="628749" />
	</node>
	<node lat="59.51351389019069" lon="11.262366660545853" id="-28233">
		<tag k="name" v="Hurva" />
		<tag k="place" v="locality" />
		<tag k="ssr:stedsnr" v="630439" />
	</node>
	<node lat="59.54644999931386" lon="11.175958332435163" id="-28327">
		<tag k="name" v="Skjørtenhytta" />
		<tag k="place" v="locality" />
		<tag k="ssr:stedsnr" v="691106" />
	</node>
	<node lat="59.65705555458048" lon="11.195336111726679" id="-28329">
		<tag k="name" v="Brustedet" />
		<tag k="place" v="locality" />
		<tag k="ssr:stedsnr" v="691133" />
	</node>
	<node lat="59.54336388894874" lon="11.171922217820857" id="-28406">
		<tag k="name" v="Skrenten" />
		<tag k="place" v="locality" />
		<tag k="ssr:stedsnr" v="752066" />
	</node>
	<node lat="59.52668611246164" lon="11.249961117094253" id="-28412">
		<tag k="name" v="Kantskjærhytta" />
		<tag k="place" v="locality" />
		<tag k="ssr:stedsnr" v="752426" />
	</node>
	<node lat="59.63835555710606" lon="11.454533336163841" id="-28420">
		<tag k="name" v="Moserud" />
		<tag k="place" v="locality" />
		<tag k="ssr:stedsnr" v="752803" />
	</node>
	<node lat="59.5263972238757" lon="11.264091667615084" id="-28535">
		<tag k="name" v="Morkampen" />
		<tag k="place" v="locality" />
		<tag k="ssr:stedsnr" v="812446" />
	</node>
	<node lat="59.64107222351793" lon="11.274597217716101" id="-28536">
		<tag k="name" v="Høybakke" />
		<tag k="place" v="locality" />
		<tag k="ssr:stedsnr" v="812712" />
	</node>
	<node lat="59.63281388545176" lon="11.22612499427394" id="-28537">
		<tag k="name" v="Bøkkelstadheia" />
		<tag k="place" v="locality" />
		<tag k="ssr:stedsnr" v="812713" />
	</node>
	<node lat="59.75257500000368" lon="11.276425004777366" id="-28543">
		<tag k="name" v="Bakken" />
		<tag k="place" v="locality" />
		<tag k="ssr:stedsnr" v="812690" />
	</node>
	<node lat="59.66336666688178" lon="11.369002768923695" id="-28553">
		<tag k="name" v="Verkhaugen" />
		<tag k="place" v="locality" />
		<tag k="ssr:stedsnr" v="813494" />
	</node>
	<node lat="59.584227780028996" lon="11.302780552586208" id="-28559">
		<tag k="name" v="Myrene" />
		<tag k="place" v="locality" />
		<tag k="ssr:stedsnr" v="813883" />
	</node>
	<node lat="59.547077780470126" lon="11.339283331927925" id="-28642">
		<tag k="name" v="Mysenhagen" />
		<tag k="place" v="locality" />
		<tag k="ssr:stedsnr" v="934327" />
	</node>
	<node lat="59.679891666353626" lon="11.39308611305157" id="-28651">
		<tag k="name" v="Nygård" />
		<tag k="place" v="locality" />
		<tag k="ssr:stedsnr" v="934457" />
	</node>
	<node lat="59.618733329554" lon="11.280638885171735" id="-28655">
		<tag k="name" v="Pepperhusa" />
		<tag k="place" v="locality" />
		<tag k="ssr:stedsnr" v="934657" />
	</node>
	<node lat="59.64552500331926" lon="11.231402776401934" id="-28657">
		<tag k="name" v="Ilehøgda" />
		<tag k="place" v="locality" />
		<tag k="ssr:stedsnr" v="934670" />
	</node>
	<node lat="59.65509999746743" lon="11.236227782532591" id="-28729">
		<tag k="name" v="Hvitensand" />
		<tag k="place" v="locality" />
		<tag k="ssr:stedsnr" v="934650" />
	</node>
	<node lat="59.52829166444923" lon="11.263805557660389" id="-28841">
		<tag k="name" v="Grøpopp" />
		<tag k="place" v="locality" />
		<tag k="ssr:stedsnr" v="24400" />
	</node>
	<node lat="59.658613886198715" lon="11.225030556671447" id="-28845">
		<tag k="name" v="Gåsenakken" />
		<tag k="place" v="locality" />
		<tag k="ssr:stedsnr" v="24733" />
	</node>
	<node lat="59.551797221580614" lon="11.335958335268165" id="-28930">
		<tag k="name" v="Heggin" />
		<tag k="place" v="locality" />
		<tag k="ssr:stedsnr" v="84401" />
	</node>
	<node lat="59.51098055439149" lon="11.510550007634684" id="-28968">
		<tag k="name" v="Gyrihelleren" />
		<tag k="place" v="locality" />
		<tag k="ssr:stedsnr" v="112459" />
	</node>
	<node lat="59.75691944158672" lon="11.32087499800876" id="-29046">
		<tag k="name" v="Hovelsrudbråtan" />
		<tag k="place" v="locality" />
		<tag k="ssr:stedsnr" v="145563" />
	</node>
	<node lat="59.54568055422079" lon="11.325077776274085" id="-29052">
		<tag k="name" v="Flaten" />
		<tag k="place" v="locality" />
		<tag k="ssr:stedsnr" v="145339" />
	</node>
	<node lat="59.70227777873638" lon="11.332769452718402" id="-29068">
		<tag k="name" v="Løkkeby" />
		<tag k="place" v="locality" />
		<tag k="ssr:stedsnr" v="145588" />
	</node>
	<node lat="59.62712222146799" lon="11.32769443886035" id="-29079">
		<tag k="name" v="Roligheten" />
		<tag k="place" v="locality" />
		<tag k="ssr:stedsnr" v="145959" />
	</node>
	<node lat="59.623002778486324" lon="11.39192778392239" id="-29082">
		<tag k="name" v="Knarrestad" />
		<tag k="place" v="locality" />
		<tag k="ssr:stedsnr" v="145985" />
	</node>
	<node lat="59.48932499848347" lon="11.518233333903574" id="-29090">
		<tag k="name" v="Trengselvollen" />
		<tag k="place" v="locality" />
		<tag k="ssr:stedsnr" v="172442" />
	</node>
	<node lat="59.74677500173966" lon="11.277880548888971" id="-29189">
		<tag k="name" v="Hagan" />
		<tag k="place" v="locality" />
		<tag k="ssr:stedsnr" v="206593" />
	</node>
	<node lat="59.68125555182157" lon="11.298263894785357" id="-29194">
		<tag k="name" v="Vinhus" />
		<tag k="place" v="locality" />
		<tag k="ssr:stedsnr" v="206543" />
	</node>
	<node lat="59.65377221872304" lon="11.237205550678475" id="-29196">
		<tag k="name" v="Vaskestedet" />
		<tag k="place" v="locality" />
		<tag k="ssr:stedsnr" v="206678" />
	</node>
	<node lat="59.65484444514901" lon="11.207297223322154" id="-29198">
		<tag k="name" v="Holshytta" />
		<tag k="place" v="locality" />
		<tag k="ssr:stedsnr" v="206729" />
	</node>
	<node lat="59.5143222209768" lon="11.522147228832022" id="-29222">
		<tag k="name" v="Kjonestein" />
		<tag k="place" v="locality" />
		<tag k="ssr:stedsnr" v="294951" />
	</node>
	<node lat="59.647419441533586" lon="11.217208339515793" id="-29322">
		<tag k="name" v="Lurele" />
		<tag k="place" v="locality" />
		<tag k="ssr:stedsnr" v="327689" />
	</node>
	<node lat="59.650325004155576" lon="11.20673332666609" id="-29323">
		<tag k="name" v="Grønnbakke" />
		<tag k="place" v="locality" />
		<tag k="ssr:stedsnr" v="327701" />
	</node>
	<node lat="59.4801166686536" lon="11.514827770888523" id="-29346">
		<tag k="name" v="Tjærbuvollen" />
		<tag k="place" v="locality" />
		<tag k="ssr:stedsnr" v="354437" />
	</node>
	<node lat="59.578916667261936" lon="11.465800005950685" id="-29434">
		<tag k="name" v="Sagstuen" />
		<tag k="place" v="locality" />
		<tag k="ssr:stedsnr" v="387346" />
	</node>
	<node lat="59.64370000164162" lon="11.253516660211385" id="-29436">
		<tag k="name" v="Vollene" />
		<tag k="place" v="locality" />
		<tag k="ssr:stedsnr" v="387676" />
	</node>
	<node lat="59.673161112675395" lon="11.255369452527509" id="-29440">
		<tag k="amenity" v="place_of_worship" />
		<tag k="denomination" v="lutheran" />
		<tag k="name" v="Bechs kapell" />
		<tag k="religion" v="christian" />
		<tag k="ssr:stedsnr" v="387720" />
	</node>
	<node lat="59.658363888403954" lon="11.227641658672061" id="-29441">
		<tag k="name" v="Elvestadsletta" />
		<tag k="place" v="locality" />
		<tag k="ssr:stedsnr" v="387722" />
	</node>
	<node lat="59.6090027748416" lon="11.310486102222566" id="-29451">
		<tag k="name" v="Kattesundet" />
		<tag k="place" v="locality" />
		<tag k="ssr:stedsnr" v="387999" />
	</node>
	<node lat="59.63956944350972" lon="11.225508337505405" id="-29456">
		<tag k="name" v="Bjerkli" />
		<tag k="place" v="locality" />
		<tag k="ssr:stedsnr" v="448745" />
	</node>
	<node lat="59.64917221874265" lon="11.18234443928611" id="-29458">
		<tag k="name" v="Nordhytta" />
		<tag k="place" v="locality" />
		<tag k="ssr:stedsnr" v="449010" />
	</node>
	<node lat="59.64858333436755" lon="11.192775005638346" id="-29585">
		<tag k="name" v="Opp og ned" />
		<tag k="place" v="locality" />
		<tag k="ssr:stedsnr" v="509652" />
	</node>
	<node lat="59.650369440844614" lon="11.20898888068448" id="-29589">
		<tag k="name" v="Askelia" />
		<tag k="place" v="locality" />
		<tag k="ssr:stedsnr" v="509690" />
	</node>
	<node lat="59.72370555856743" lon="11.25292222893576" id="-29601">
		<tag k="name" v="Sagbakken" />
		<tag k="place" v="locality" />
		<tag k="ssr:stedsnr" v="510680" />
	</node>
	<node lat="59.466836109288096" lon="11.379236104379142" id="-29607">
		<tag k="name" v="Finnehuset" />
		<tag k="place" v="locality" />
		<tag k="ssr:stedsnr" v="536249" />
	</node>
	<node lat="59.676055554207636" lon="11.218336116486388" id="-29685">
		<tag k="name" v="Holmen" />
		<tag k="place" v="locality" />
		<tag k="ssr:stedsnr" v="569123" />
	</node>
	<node lat="59.66684166640463" lon="11.20155000463524" id="-29686">
		<tag k="name" v="Stegen" />
		<tag k="place" v="locality" />
		<tag k="ssr:stedsnr" v="569125" />
	</node>
	<node lat="59.74325833415216" lon="11.32416388616053" id="-29720">
		<tag k="name" v="Måsaby" />
		<tag k="place" v="locality" />
		<tag k="ssr:stedsnr" v="570495" />
	</node>
	<node lat="59.633374995747054" lon="11.265683330404547" id="-29789">
		<tag k="name" v="Grinda" />
		<tag k="place" v="locality" />
		<tag k="ssr:stedsnr" v="630254" />
	</node>
	<node lat="59.54830277805685" lon="11.334319448188092" id="-29806">
		<tag k="name" v="Bjerkelunden" />
		<tag k="place" v="locality" />
		<tag k="ssr:stedsnr" v="630351" />
	</node>
	<node lat="59.72763888733001" lon="11.292427781389707" id="-29829">
		<tag k="name" v="Pesate" />
		<tag k="place" v="locality" />
		<tag k="ssr:stedsnr" v="631550" />
	</node>
	<node lat="59.486891665948114" lon="11.52695277505436" id="-29835">
		<tag k="name" v="Oberstløytnantposten" />
		<tag k="place" v="locality" />
		<tag k="ssr:stedsnr" v="657444" />
	</node>
	<node lat="59.48477500395969" lon="11.5108805543199" id="-29860">
		<tag k="name" v="Kulevannsaga" />
		<tag k="place" v="locality" />
		<tag k="ssr:stedsnr" v="718397" />
	</node>
	<node lat="59.55376389006059" lon="11.48153332695852" id="-29936">
		<tag k="name" v="Moseby" />
		<tag k="place" v="locality" />
		<tag k="ssr:stedsnr" v="752224" />
	</node>
	<node lat="59.64310277604811" lon="11.319130557937779" id="-29946">
		<tag k="name" v="Vesle-Skrammerud" />
		<tag k="place" v="locality" />
		<tag k="ssr:stedsnr" v="752478" />
	</node>
	<node lat="59.73321111297946" lon="11.285586110799603" id="-29957">
		<tag k="name" v="Tuåsen" />
		<tag k="place" v="locality" />
		<tag k="ssr:stedsnr" v="752639" />
	</node>
	<node lat="59.65611944544841" lon="11.380794438759022" id="-29962">
		<tag k="name" v="Haugbru" />
		<tag k="place" v="locality" />
		<tag k="ssr:stedsnr" v="752941" />
	</node>
	<node lat="59.73553055832054" lon="11.357577771116732" id="-30040">
		<tag k="name" v="Tjernsmo" />
		<tag k="place" v="locality" />
		<tag k="ssr:stedsnr" v="813508" />
	</node>
	<node lat="59.63223889261094" lon="11.245669442438437" id="-30167">
		<tag k="name" v="Holtet" />
		<tag k="place" v="locality" />
		<tag k="ssr:stedsnr" v="873265" />
	</node>
	<node lat="59.67941944055388" lon="11.395805554478205" id="-30185">
		<tag k="name" v="Vestli" />
		<tag k="place" v="locality" />
		<tag k="ssr:stedsnr" v="873520" />
	</node>
	<node lat="59.73332499858237" lon="11.344255555643104" id="-30186">
		<tag k="name" v="Pappbråtan" />
		<tag k="place" v="locality" />
		<tag k="ssr:stedsnr" v="873533" />
	</node>
	<node lat="59.648016663203876" lon="11.219608338739192" id="-30196">
		<tag k="name" v="Slottet" />
		<tag k="place" v="locality" />
		<tag k="ssr:stedsnr" v="873684" />
	</node>
	<node lat="59.65266944652344" lon="11.261572216720616" id="-30198">
		<tag k="name" v="Sanddyna" />
		<tag k="place" v="locality" />
		<tag k="ssr:stedsnr" v="873643" />
	</node>
	<node lat="59.64369722614629" lon="11.268794439613915" id="-30201">
		<tag k="name" v="Verksholen" />
		<tag k="place" v="locality" />
		<tag k="ssr:stedsnr" v="873654" />
	</node>
	<node lat="59.63299444795647" lon="11.432730547857627" id="-30204">
		<tag k="name" v="Pekstad" />
		<tag k="place" v="locality" />
		<tag k="ssr:stedsnr" v="873813" />
	</node>
	<node lat="59.671297221654946" lon="11.419450002263943" id="-30210">
		<tag k="name" v="Åser" />
		<tag k="place" v="locality" />
		<tag k="ssr:stedsnr" v="873909" />
	</node>
	<node lat="59.638969445921155" lon="11.312636107943407" id="-30213">
		<tag k="name" v="Kirkeng" />
		<tag k="place" v="locality" />
		<tag k="ssr:stedsnr" v="873940" />
	</node>
</osm>
