<?xml version="1.0" encoding="UTF-8"?>
<osm generator="osmapis" version="0.6">
	<node id="-24687" lat="59.7022944488" lon="11.314333339">
		<tag k="fixme" v="consider natural=peak for the most distinct mountains in the district" />
		<tag k="name" v="Husebyåsen" />
		<tag k="natural" v="hill" />
		<tag k="place" v="locality" />
		<tag k="ssr:stedsnr" v="125850" />
	</node>
	<node id="-23296" lat="59.6689083354" lon="11.089538891">
		<tag k="fixme" v="consider natural=peak for the most distinct mountains in the district" />
		<tag k="name" v="Hollihøgda" />
		<tag k="natural" v="hill" />
		<tag k="place" v="locality" />
		<tag k="ssr:stedsnr" v="446701" />
	</node>
	<node id="-24062" lat="59.5605527767" lon="11.4112361153">
		<tag k="fixme" v="consider natural=peak for the most distinct mountains in the district" />
		<tag k="name" v="Torahyttåsen" />
		<tag k="natural" v="hill" />
		<tag k="place" v="locality" />
		<tag k="ssr:stedsnr" v="752236" />
	</node>
	<node id="-24572" lat="59.505983337" lon="10.9795583401">
		<tag k="name" v="Mørkdalen" />
		<tag k="natural" v="valley" />
		<tag k="place" v="locality" />
		<tag k="ssr:stedsnr" v="82939" />
	</node>
	<node id="-24571" lat="59.5420916638" lon="10.9971750077">
		<tag k="fixme" v="consider natural=peak for the most distinct mountains in the district" />
		<tag k="name" v="Høgåsen" />
		<tag k="natural" v="hill" />
		<tag k="place" v="locality" />
		<tag k="ssr:stedsnr" v="82931" />
	</node>
	<node id="-24058" lat="59.5064333304" lon="10.9888083398">
		<tag k="name" v="Seterholtet" />
		<tag k="place" v="locality" />
		<tag k="ssr:stedsnr" v="750935" />
	</node>
	<node id="-25590" lat="59.6789333347" lon="11.1694611072">
		<tag k="fixme" v="consider natural=peak for the most distinct mountains in the district" />
		<tag k="name" v="Hauglandsfjellet" />
		<tag k="natural" v="hill" />
		<tag k="place" v="locality" />
		<tag k="ssr:stedsnr" v="610820" />
	</node>
	<node id="-23539" lat="59.718330553" lon="11.3648499916">
		<tag k="name" v="Bjørndalen" />
		<tag k="natural" v="valley" />
		<tag k="place" v="locality" />
		<tag k="ssr:stedsnr" v="387602" />
	</node>
	<node id="-23534" lat="59.6523833349" lon="10.9789749974">
		<tag k="name" v="Plundropp" />
		<tag k="natural" v="slope" />
		<tag k="place" v="locality" />
		<tag k="ssr:stedsnr" v="386827" />
	</node>
	<node id="-25870" lat="59.68334722" lon="11.0223416614">
		<tag k="fixme" v="consider natural=peak for the most distinct mountains in the district" />
		<tag k="name" v="Surbyåsen" />
		<tag k="natural" v="hill" />
		<tag k="place" v="locality" />
		<tag k="ssr:stedsnr" v="811769" />
	</node>
	<node id="-24041" lat="59.5394750022" lon="10.9099611101">
		<tag k="fixme" v="consider natural=peak for the most distinct mountains in the district" />
		<tag k="name" v="Tjernsliåsen" />
		<tag k="natural" v="hill" />
		<tag k="place" v="locality" />
		<tag k="ssr:stedsnr" v="732015" />
	</node>
	<node id="-24040" lat="59.4962166685" lon="11.4624527844">
		<tag k="name" v="Bjørdalen" />
		<tag k="natural" v="valley" />
		<tag k="place" v="locality" />
		<tag k="ssr:stedsnr" v="900443" />
	</node>
	<node id="-23548" lat="59.6631722255" lon="11.4379527811">
		<tag k="name" v="Toredraget" />
		<tag k="natural" v="valley" />
		<tag k="place" v="locality" />
		<tag k="ssr:stedsnr" v="387918" />
	</node>
	<node id="-23014" lat="59.6764027808" lon="11.3454638863">
		<tag k="fixme" v="consider natural=peak for the most distinct mountains in the district" />
		<tag k="name" v="Slorbyåsen" />
		<tag k="natural" v="hill" />
		<tag k="place" v="locality" />
		<tag k="ssr:stedsnr" v="24527" />
	</node>
	<node id="-23013" lat="59.6789972225" lon="11.3987416681">
		<tag k="name" v="Krotoa" />
		<tag k="place" v="locality" />
		<tag k="ssr:stedsnr" v="24525" />
	</node>
	<node id="-24547" lat="59.5020166707" lon="11.2713750042">
		<tag k="fixme" v="consider natural=peak for the most distinct mountains in the district" />
		<tag k="name" v="Husebyåsen" />
		<tag k="natural" v="hill" />
		<tag k="place" v="locality" />
		<tag k="ssr:stedsnr" v="65647" />
	</node>
	<node id="-23522" lat="59.539597223" lon="10.8374194366">
		<tag k="fixme" v="consider natural=peak for the most distinct mountains in the district" />
		<tag k="name" v="Norderås" />
		<tag k="natural" v="hill" />
		<tag k="place" v="locality" />
		<tag k="ssr:stedsnr" v="385928" />
	</node>
	<node id="-24912" lat="59.5812750022" lon="10.9995250069">
		<tag k="name" v="Sandmoen" />
		<tag k="place" v="locality" />
		<tag k="ssr:stedsnr" v="204974" />
	</node>
	<node id="-25399" lat="59.5366611072" lon="10.9021611049">
		<tag k="fixme" v="consider natural=peak for the most distinct mountains in the district" />
		<tag k="name" v="Hytteåsen" />
		<tag k="natural" v="hill" />
		<tag k="place" v="locality" />
		<tag k="ssr:stedsnr" v="550034" />
	</node>
	<node id="-25765" lat="59.6629499982" lon="11.4306583367">
		<tag k="fixme" v="consider natural=peak for the most distinct mountains in the district" />
		<tag k="name" v="Røysås" />
		<tag k="natural" v="hill" />
		<tag k="place" v="locality" />
		<tag k="ssr:stedsnr" v="752916" />
	</node>
	<node id="-23002" lat="59.5124972207" lon="11.4692500027">
		<tag k="fixme" v="consider natural=peak for the most distinct mountains in the district" />
		<tag k="name" v="Sauetjernhøgda" />
		<tag k="natural" v="hill" />
		<tag k="place" v="locality" />
		<tag k="ssr:stedsnr" v="24011" />
	</node>
	<node id="-25935" lat="59.6064111089" lon="11.3253944502">
		<tag k="fixme" v="consider natural=peak for the most distinct mountains in the district" />
		<tag k="name" v="Furuåsen" />
		<tag k="natural" v="hill" />
		<tag k="place" v="locality" />
		<tag k="ssr:stedsnr" v="813847" />
	</node>
	<node id="-24996" lat="59.5827749962" lon="10.9599861061">
		<tag k="fixme" v="consider natural=peak for the most distinct mountains in the district" />
		<tag k="name" v="Bjørnås" />
		<tag k="natural" v="hill" />
		<tag k="place" v="locality" />
		<tag k="ssr:stedsnr" v="307184" />
	</node>
	<node id="-25045" lat="59.6624416627" lon="11.350399994">
		<tag k="fixme" v="consider natural=peak for the most distinct mountains in the district" />
		<tag k="name" v="Brattåsen" />
		<tag k="natural" v="hill" />
		<tag k="place" v="locality" />
		<tag k="ssr:stedsnr" v="307775" />
	</node>
	<node id="-22995" lat="59.5685611134" lon="11.4137500067">
		<tag k="fixme" v="consider natural=peak for the most distinct mountains in the district" />
		<tag k="name" v="Kvilleråsen" />
		<tag k="natural" v="hill" />
		<tag k="place" v="locality" />
		<tag k="ssr:stedsnr" v="4569" />
	</node>
	<node id="-24530" lat="59.5294694428" lon="11.3982555571">
		<tag k="alt_name" v="Dalehøgda" />
		<tag k="fixme" v="consider natural=peak for the most distinct mountains in the district" />
		<tag k="name" v="Dalshøgda" />
		<tag k="natural" v="hill" />
		<tag k="place" v="locality" />
		<tag k="ssr:stedsnr" v="64756" />
	</node>
	<node id="-25040" lat="59.6569111139" lon="11.1659805605">
		<tag k="fixme" v="consider natural=peak for the most distinct mountains in the district" />
		<tag k="name" v="Solliåsen" />
		<tag k="natural" v="hill" />
		<tag k="place" v="locality" />
		<tag k="ssr:stedsnr" v="307754" />
	</node>
	<node id="-24907" lat="59.6805361115" lon="10.9914055539">
		<tag k="fixme" v="consider natural=peak for the most distinct mountains in the district" />
		<tag k="name" v="Kølabånnåsen" />
		<tag k="natural" v="hill" />
		<tag k="place" v="locality" />
		<tag k="ssr:stedsnr" v="204815" />
	</node>
	<node id="-24225" lat="59.6358194444" lon="11.3607972217">
		<tag k="fixme" v="consider natural=peak for the most distinct mountains in the district" />
		<tag k="name" v="Tressåsen" />
		<tag k="natural" v="hill" />
		<tag k="place" v="locality" />
		<tag k="ssr:stedsnr" v="934968" />
	</node>
	<node id="-24012" lat="59.499927775" lon="11.4200499955">
		<tag k="fixme" v="consider natural=peak for the most distinct mountains in the district" />
		<tag k="name" v="Krokvannsåsen" />
		<tag k="natural" v="hill" />
		<tag k="place" v="locality" />
		<tag k="ssr:stedsnr" v="657470" />
	</node>
	<node id="-26057" lat="59.5023416666" lon="11.40951389">
		<tag k="fixme" v="consider natural=peak for the most distinct mountains in the district" />
		<tag k="name" v="Nepleåsen" />
		<tag k="natural" v="hill" />
		<tag k="place" v="locality" />
		<tag k="ssr:stedsnr" v="961045" />
	</node>
	<node id="-23494" lat="59.6160583321" lon="11.4399249976">
		<tag k="fixme" v="consider natural=peak for the most distinct mountains in the district" />
		<tag k="name" v="Hamnåsåsen" />
		<tag k="natural" v="hill" />
		<tag k="place" v="locality" />
		<tag k="ssr:stedsnr" v="489917" />
	</node>
	<node id="-26017" lat="59.6935083304" lon="10.9867222197">
		<tag k="fixme" v="consider natural=peak for the most distinct mountains in the district" />
		<tag k="name" v="Lauvåsen" />
		<tag k="natural" v="hill" />
		<tag k="place" v="locality" />
		<tag k="ssr:stedsnr" v="871796" />
	</node>
	<node id="-25078" lat="59.5137055601" lon="11.005616664">
		<tag k="fixme" v="consider natural=peak for the most distinct mountains in the district" />
		<tag k="name" v="Bekahyttåsen" />
		<tag k="natural" v="hill" />
		<tag k="place" v="locality" />
		<tag k="ssr:stedsnr" v="325999" />
	</node>
	<node id="-25538" lat="59.6513277796" lon="11.343661114">
		<tag k="fixme" v="consider natural=peak for the most distinct mountains in the district" />
		<tag k="name" v="Svartåsen" />
		<tag k="natural" v="hill" />
		<tag k="place" v="locality" />
		<tag k="ssr:stedsnr" v="569934" />
	</node>
	<node id="-26049" lat="59.57036111" lon="10.9373694472">
		<tag k="fixme" v="consider natural=peak for the most distinct mountains in the district" />
		<tag k="name" v="Svenskeåsen" />
		<tag k="natural" v="hill" />
		<tag k="place" v="locality" />
		<tag k="ssr:stedsnr" v="873902" />
	</node>
	<node id="-23999" lat="59.6679444402" lon="11.4415277755">
		<tag k="fixme" v="consider natural=peak for the most distinct mountains in the district" />
		<tag k="name" v="Maurneshøgda" />
		<tag k="natural" v="hill" />
		<tag k="place" v="locality" />
		<tag k="ssr:stedsnr" v="732789" />
	</node>
	<node id="-25674" lat="59.7381527755" lon="11.310108333">
		<tag k="name" v="Stiksdalen" />
		<tag k="natural" v="valley" />
		<tag k="place" v="locality" />
		<tag k="ssr:stedsnr" v="631544" />
	</node>
	<node id="-26041" lat="59.6397638919" lon="11.4411861178">
		<tag k="fixme" v="consider natural=peak for the most distinct mountains in the district" />
		<tag k="name" v="Kjonåsen" />
		<tag k="natural" v="hill" />
		<tag k="place" v="locality" />
		<tag k="ssr:stedsnr" v="873796" />
	</node>
	<node id="-23478" lat="59.6696638887" lon="11.1394361166">
		<tag k="fixme" v="consider natural=peak for the most distinct mountains in the district" />
		<tag k="name" v="Våifjellet" />
		<tag k="natural" v="hill" />
		<tag k="place" v="locality" />
		<tag k="ssr:stedsnr" v="489791" />
	</node>
	<node id="-26034" lat="59.6813361144" lon="11.3975611101">
		<tag k="fixme" v="consider natural=peak for the most distinct mountains in the district" />
		<tag k="name" v="Aslerudåsen" />
		<tag k="natural" v="hill" />
		<tag k="place" v="locality" />
		<tag k="ssr:stedsnr" v="873499" />
	</node>
	<node id="-25520" lat="59.657050003" lon="11.4479111179">
		<tag k="name" v="Iskleiva" />
		<tag k="natural" v="slope" />
		<tag k="place" v="locality" />
		<tag k="ssr:stedsnr" v="569783" />
	</node>
	<node id="-24582" lat="59.5942416693" lon="11.0323833291">
		<tag k="fixme" v="consider natural=peak for the most distinct mountains in the district" />
		<tag k="name" v="Tangenåsen" />
		<tag k="natural" v="hill" />
		<tag k="place" v="locality" />
		<tag k="ssr:stedsnr" v="82799" />
	</node>
	<node id="-23467" lat="59.5779749973" lon="11.4362444466">
		<tag k="alt_name" v="Røysåsen" />
		<tag k="fixme" v="consider natural=peak for the most distinct mountains in the district" />
		<tag k="name" v="Røysås" />
		<tag k="natural" v="hill" />
		<tag k="place" v="locality" />
		<tag k="ssr:stedsnr" v="489654" />
	</node>
	<node id="-24487" lat="59.6090444411" lon="11.3344749934">
		<tag k="fixme" v="consider natural=peak for the most distinct mountains in the district" />
		<tag k="name" v="Jonsrud" />
		<tag k="natural" v="hill" />
		<tag k="place" v="locality" />
		<tag k="ssr:stedsnr" v="24871" />
	</node>
	<node id="-24486" lat="59.6130722238" lon="11.4595500061">
		<tag k="name" v="Elgsgrava" />
		<tag k="place" v="locality" />
		<tag k="ssr:stedsnr" v="24865" />
	</node>
	<node id="-25509" lat="59.7147999982" lon="11.3176361142">
		<tag k="fixme" v="consider natural=peak for the most distinct mountains in the district" />
		<tag k="name" v="Galtebyåsen" />
		<tag k="natural" v="hill" />
		<tag k="place" v="locality" />
		<tag k="ssr:stedsnr" v="569606" />
	</node>
	<node id="-24484" lat="59.6060805524" lon="11.4365972144">
		<tag k="fixme" v="consider natural=peak for the most distinct mountains in the district" />
		<tag k="name" v="Festningsåsen" />
		<tag k="natural" v="hill" />
		<tag k="place" v="locality" />
		<tag k="ssr:stedsnr" v="24841" />
	</node>
	<node id="-26019" lat="59.5728166634" lon="11.0148888929">
		<tag k="name" v="Svartdal" />
		<tag k="natural" v="valley" />
		<tag k="place" v="locality" />
		<tag k="ssr:stedsnr" v="871983" />
	</node>
	<node id="-23457" lat="59.5719869075" lon="11.3007720773">
		<tag k="fixme" v="consider natural=peak for the most distinct mountains in the district" />
		<tag k="name" v="Monaryggen" />
		<tag k="natural" v="hill" />
		<tag k="place" v="locality" />
		<tag k="ssr:stedsnr" v="489595" />
	</node>
	<node id="-26016" lat="59.5419305568" lon="11.0076694379">
		<tag k="name" v="Sagbakkhølet" />
		<tag k="natural" v="valley" />
		<tag k="place" v="locality" />
		<tag k="ssr:stedsnr" v="871942" />
	</node>
	<node id="-24989" lat="59.4864972221" lon="11.5143833259">
		<tag k="fixme" v="consider natural=peak for the most distinct mountains in the district" />
		<tag k="name" v="Spattåsen" />
		<tag k="natural" v="hill" />
		<tag k="place" v="locality" />
		<tag k="ssr:stedsnr" v="306546" />
	</node>
	<node id="-24473" lat="59.6509111113" lon="11.3757027728">
		<tag k="name" v="Ulvelangen" />
		<tag k="place" v="locality" />
		<tag k="ssr:stedsnr" v="24943" />
	</node>
	<node id="-23447" lat="59.6876416633" lon="10.983486116">
		<tag k="fixme" v="consider natural=peak for the most distinct mountains in the district" />
		<tag k="name" v="Bergerudåsen" />
		<tag k="natural" v="hill" />
		<tag k="place" v="locality" />
		<tag k="ssr:stedsnr" v="489437" />
	</node>
	<node id="-26009" lat="59.692511107" lon="11.0091361172">
		<tag k="fixme" v="consider natural=peak for the most distinct mountains in the district" />
		<tag k="name" v="Elgmyråsen" />
		<tag k="natural" v="hill" />
		<tag k="place" v="locality" />
		<tag k="ssr:stedsnr" v="871779" />
	</node>
	<node id="-24468" lat="59.7319027784" lon="11.2957083374">
		<tag k="name" v="Bjørneklemma" />
		<tag k="natural" v="valley" />
		<tag k="place" v="locality" />
		<tag k="ssr:stedsnr" v="24562" />
	</node>
	<node id="-25582" lat="59.6919333362" lon="11.0107000007">
		<tag k="alt_name" v="Høgbråtetoppen" />
		<tag k="fixme" v="consider natural=peak for the most distinct mountains in the district" />
		<tag k="name" v="Høgbråten" />
		<tag k="natural" v="hill" />
		<tag k="place" v="locality" />
		<tag k="ssr:stedsnr" v="610452" />
	</node>
	<node id="-23952" lat="59.6668305566" lon="11.4340472259">
		<tag k="fixme" v="consider natural=peak for the most distinct mountains in the district" />
		<tag k="name" v="Torgjerberget" />
		<tag k="natural" v="hill" />
		<tag k="place" v="locality" />
		<tag k="ssr:stedsnr" v="630911" />
	</node>
	<node id="-25102" lat="59.6642666673" lon="11.0396222264">
		<tag k="name" v="Strevopp" />
		<tag k="natural" v="slope" />
		<tag k="place" v="locality" />
		<tag k="ssr:stedsnr" v="325772" />
	</node>
	<node id="-23950" lat="59.6475777796" lon="11.44278334">
		<tag k="fixme" v="consider natural=peak for the most distinct mountains in the district" />
		<tag k="name" v="Vardåsen" />
		<tag k="natural" v="hill" />
		<tag k="place" v="locality" />
		<tag k="ssr:stedsnr" v="630764" />
	</node>
	<node id="-25482" lat="59.5433305556" lon="10.881358334">
		<tag k="name" v="Askerød" />
		<tag k="natural" v="slope" />
		<tag k="place" v="locality" />
		<tag k="ssr:stedsnr" v="568923" />
	</node>
	<node id="-24968" lat="59.611622218" lon="11.3645416734">
		<tag k="fixme" v="consider natural=peak for the most distinct mountains in the district" />
		<tag k="name" v="Jorudtusten" />
		<tag k="natural" v="hill" />
		<tag k="place" v="locality" />
		<tag k="ssr:stedsnr" v="206874" />
	</node>
	<node id="-25479" lat="59.5391527817" lon="10.995058342">
		<tag k="name" v="Vestengdalen" />
		<tag k="natural" v="valley" />
		<tag k="place" v="locality" />
		<tag k="ssr:stedsnr" v="567944" />
	</node>
	<node id="-23942" lat="59.694097224" lon="11.2824944497">
		<tag k="name" v="Korsdalen" />
		<tag k="natural" v="valley" />
		<tag k="place" v="locality" />
		<tag k="ssr:stedsnr" v="630563" />
	</node>
	<node id="-24453" lat="59.6647055537" lon="11.0129972221">
		<tag k="name" v="Nordeng" />
		<tag k="natural" v="hill" />
		<tag k="place" v="locality" />
		<tag k="ssr:stedsnr" v="22748" />
	</node>
	<node id="-24964" lat="59.6319138916" lon="11.4207305619">
		<tag k="name" v="Linkerud" />
		<tag k="place" v="locality" />
		<tag k="ssr:stedsnr" v="206824" />
	</node>
	<node id="-24963" lat="59.6148750023" lon="11.4634777786">
		<tag k="fixme" v="consider natural=peak for the most distinct mountains in the district" />
		<tag k="name" v="Trollkjerka" />
		<tag k="natural" v="hill" />
		<tag k="place" v="locality" />
		<tag k="ssr:stedsnr" v="206821" />
	</node>
	<node id="-24450" lat="59.5685750008" lon="10.9729999942">
		<tag k="name" v="Stutefoss" />
		<tag k="place" v="locality" />
		<tag k="ssr:stedsnr" v="22972" />
	</node>
	<node id="-23425" lat="59.5485472221" lon="11.0494527752">
		<tag k="fixme" v="consider natural=peak for the most distinct mountains in the district" />
		<tag k="name" v="Røysås" />
		<tag k="natural" v="hill" />
		<tag k="place" v="locality" />
		<tag k="ssr:stedsnr" v="489259" />
	</node>
	<node id="-25471" lat="59.6883527814" lon="11.0029694426">
		<tag k="name" v="Spissdalen" />
		<tag k="natural" v="valley" />
		<tag k="place" v="locality" />
		<tag k="ssr:stedsnr" v="567802" />
	</node>
	<node id="-24446" lat="59.6068805542" lon="11.1509138811">
		<tag k="name" v="Kloden" />
		<tag k="natural" v="hill" />
		<tag k="place" v="locality" />
		<tag k="ssr:stedsnr" v="22668" />
	</node>
	<node id="-23421" lat="59.7268111116" lon="11.3459361195">
		<tag k="name" v="Høgda" />
		<tag k="place" v="locality" />
		<tag k="ssr:stedsnr" v="328523" />
	</node>
	<node id="-25467" lat="59.5794666675" lon="11.0472194528">
		<tag k="fixme" v="consider natural=peak for the most distinct mountains in the district" />
		<tag k="name" v="Bjørkås" />
		<tag k="natural" v="hill" />
		<tag k="place" v="locality" />
		<tag k="ssr:stedsnr" v="567778" />
	</node>
	<node id="-23418" lat="59.6375138909" lon="11.4293138962">
		<tag k="name" v="Raen" />
		<tag k="natural" v="ridge" />
		<tag k="place" v="locality" />
		<tag k="ssr:stedsnr" v="327910" />
	</node>
	<node id="-24383" lat="59.5262833347" lon="11.0821749931">
		<tag k="fixme" v="consider natural=peak for the most distinct mountains in the district" />
		<tag k="name" v="Røysås" />
		<tag k="natural" v="hill" />
		<tag k="place" v="locality" />
		<tag k="ssr:stedsnr" v="4038" />
	</node>
	<node id="-24950" lat="59.6445000003" lon="11.2742416604">
		<tag k="name" v="Ulvestudalen" />
		<tag k="natural" v="valley" />
		<tag k="place" v="locality" />
		<tag k="ssr:stedsnr" v="206662" />
	</node>
	<node id="-25577" lat="59.6003027768" lon="11.0792916733">
		<tag k="fixme" v="consider natural=peak for the most distinct mountains in the district" />
		<tag k="name" v="Grååsen" />
		<tag k="natural" v="hill" />
		<tag k="place" v="locality" />
		<tag k="ssr:stedsnr" v="610151" />
	</node>
	<node id="-25460" lat="59.6671222216" lon="11.0359805556">
		<tag k="fixme" v="consider natural=peak for the most distinct mountains in the district" />
		<tag k="name" v="Revåsen" />
		<tag k="natural" v="hill" />
		<tag k="place" v="locality" />
		<tag k="ssr:stedsnr" v="567743" />
	</node>
	<node id="-25459" lat="59.666999996" lon="11.0126972219">
		<tag k="name" v="Veggernesset" />
		<tag k="place" v="locality" />
		<tag k="ssr:stedsnr" v="567738" />
	</node>
	<node id="-24433" lat="59.6480249985" lon="11.4324472267">
		<tag k="fixme" v="consider natural=peak for the most distinct mountains in the district" />
		<tag k="name" v="Buråsen" />
		<tag k="natural" v="hill" />
		<tag k="place" v="locality" />
		<tag k="ssr:stedsnr" v="4990" />
	</node>
	<node id="-23408" lat="59.5401166643" lon="10.9206388908">
		<tag k="name" v="Orebru" />
		<tag k="natural" v="slope" />
		<tag k="place" v="locality" />
		<tag k="ssr:stedsnr" v="325918" />
	</node>
	<node id="-25455" lat="59.6802416672" lon="11.1574305593">
		<tag k="fixme" v="consider natural=peak for the most distinct mountains in the district" />
		<tag k="name" v="Skimtefjell" />
		<tag k="natural" v="hill" />
		<tag k="place" v="locality" />
		<tag k="ssr:stedsnr" v="567685" />
	</node>
	<node id="-25453" lat="59.6135472219" lon="11.1129000064">
		<tag k="name" v="Bovumdalen" />
		<tag k="natural" v="valley" />
		<tag k="place" v="locality" />
		<tag k="ssr:stedsnr" v="567655" />
	</node>
	<node id="-25963" lat="59.6912722198" lon="10.9690777689">
		<tag k="fixme" v="consider natural=peak for the most distinct mountains in the district" />
		<tag k="name" v="Vangsåsen" />
		<tag k="natural" v="hill" />
		<tag k="place" v="locality" />
		<tag k="ssr:stedsnr" v="853412" />
	</node>
	<node id="-25063" lat="59.6269361103" lon="11.3360138925">
		<tag k="alt_name" v="Tveitenåsen" />
		<tag k="fixme" v="consider natural=peak for the most distinct mountains in the district" />
		<tag k="name" v="Tveitåsen" />
		<tag k="natural" v="hill" />
		<tag k="place" v="locality" />
		<tag k="ssr:stedsnr" v="307952" />
	</node>
	<node id="-25148" lat="59.6564916705" lon="11.4614000001">
		<tag k="name" v="Slora" />
		<tag k="place" v="locality" />
		<tag k="ssr:stedsnr" v="340796" />
	</node>
	<node id="-24934" lat="59.6500444424" lon="11.3340583404">
		<tag k="fixme" v="consider natural=peak for the most distinct mountains in the district" />
		<tag k="name" v="Frøshovåsen" />
		<tag k="natural" v="hill" />
		<tag k="place" v="locality" />
		<tag k="ssr:stedsnr" v="206480" />
	</node>
	<node id="-23907" lat="59.5619916637" lon="11.2130527818">
		<tag k="fixme" v="consider natural=peak for the most distinct mountains in the district" />
		<tag k="name" v="Gruveåsen" />
		<tag k="natural" v="hill" />
		<tag k="place" v="locality" />
		<tag k="ssr:stedsnr" v="610611" />
	</node>
	<node id="-24417" lat="59.6627250039" lon="11.1381777856">
		<tag k="fixme" v="consider natural=peak for the most distinct mountains in the district" />
		<tag k="name" v="Liåsen" />
		<tag k="natural" v="hill" />
		<tag k="place" v="locality" />
		<tag k="ssr:stedsnr" v="4771" />
	</node>
	<node id="-25440" lat="59.6051055571" lon="11.3529861109">
		<tag k="fixme" v="consider natural=peak for the most distinct mountains in the district" />
		<tag k="name" v="Lauvhøgda" />
		<tag k="natural" v="hill" />
		<tag k="old_name" v="Lauhøgda" />
		<tag k="place" v="locality" />
		<tag k="ssr:stedsnr" v="550906" />
	</node>
	<node id="-23440" lat="59.7424138869" lon="11.3306166737">
		<tag k="alt_name" v="Faksen" />
		<tag k="fixme" v="consider natural=peak for the most distinct mountains in the district" />
		<tag k="name" v="Foksen" />
		<tag k="natural" v="hill" />
		<tag k="place" v="locality" />
		<tag k="ssr:stedsnr" v="489081" />
	</node>
	<node id="-24925" lat="59.5400277771" lon="11.4220416589">
		<tag k="fixme" v="consider natural=peak for the most distinct mountains in the district" />
		<tag k="name" v="Flaggåsen" />
		<tag k="natural" v="hill" />
		<tag k="place" v="locality" />
		<tag k="ssr:stedsnr" v="206308" />
	</node>
	<node id="-24923" lat="59.5204861139" lon="11.4953972161">
		<tag k="name" v="Murttjernliene" />
		<tag k="natural" v="slope" />
		<tag k="place" v="locality" />
		<tag k="ssr:stedsnr" v="206292" />
	</node>
	<node id="-25470" lat="59.6563638856" lon="11.0536277737">
		<tag k="fixme" v="consider natural=peak for the most distinct mountains in the district" />
		<tag k="name" v="Torudåsen" />
		<tag k="natural" v="hill" />
		<tag k="place" v="locality" />
		<tag k="ssr:stedsnr" v="567797" />
	</node>
	<node id="-25940" lat="59.6606805538" lon="11.4435250044">
		<tag k="fixme" v="consider natural=peak for the most distinct mountains in the district" />
		<tag k="name" v="Korpåsen" />
		<tag k="natural" v="hill" />
		<tag k="place" v="locality" />
		<tag k="ssr:stedsnr" v="813899" />
	</node>
	<node id="-23890" lat="59.5209805522" lon="11.0511027815">
		<tag k="fixme" v="consider natural=peak for the most distinct mountains in the district" />
		<tag k="name" v="Trollerudåsen" />
		<tag k="natural" v="hill" />
		<tag k="place" v="locality" />
		<tag k="ssr:stedsnr" v="610017" />
	</node>
	<node id="-23523" lat="59.5825444422" lon="11.0519694491">
		<tag k="name" v="Fosser" />
		<tag k="natural" v="slope" />
		<tag k="place" v="locality" />
		<tag k="ssr:stedsnr" v="385809" />
	</node>
	<node id="-25936" lat="59.6069249967" lon="11.3479750073">
		<tag k="name" v="Bjørndalen" />
		<tag k="natural" v="valley" />
		<tag k="place" v="locality" />
		<tag k="ssr:stedsnr" v="813852" />
	</node>
	<node id="-24399" lat="59.5526694468" lon="11.2098388875">
		<tag k="fixme" v="consider natural=peak for the most distinct mountains in the district" />
		<tag k="name" v="Torkelsrudåsen" />
		<tag k="natural" v="hill" />
		<tag k="place" v="locality" />
		<tag k="ssr:stedsnr" v="4531" />
	</node>
	<node id="-25934" lat="59.6279805568" lon="11.4114361132">
		<tag k="fixme" v="consider natural=peak for the most distinct mountains in the district" />
		<tag k="name" v="Ormåsen" />
		<tag k="natural" v="hill" />
		<tag k="place" v="locality" />
		<tag k="ssr:stedsnr" v="813792" />
	</node>
	<node id="-23371" lat="59.6177305525" lon="11.4644833335">
		<tag k="name" v="Sælaputtronga" />
		<tag k="natural" v="valley" />
		<tag k="place" v="locality" />
		<tag k="ssr:stedsnr" v="449791" />
	</node>
	<node id="-24393" lat="59.6241277744" lon="11.4771166618">
		<tag k="alt_name" v="Oppskott" />
		<tag k="name" v="Oppskot" />
		<tag k="natural" v="hill" />
		<tag k="place" v="locality" />
		<tag k="ssr:stedsnr" v="4280" />
	</node>
	<node id="-24904" lat="59.6884305551" lon="11.0010333383">
		<tag k="fixme" v="consider natural=peak for the most distinct mountains in the district" />
		<tag k="name" v="Vardåsen" />
		<tag k="natural" v="hill" />
		<tag k="place" v="locality" />
		<tag k="ssr:stedsnr" v="204797" />
	</node>
	<node id="-25925" lat="59.6589472218" lon="11.3610749911">
		<tag k="fixme" v="consider natural=peak for the most distinct mountains in the district" />
		<tag k="name" v="Kverneåsen" />
		<tag k="natural" v="hill" />
		<tag k="place" v="locality" />
		<tag k="ssr:stedsnr" v="813495" />
	</node>
	<node id="-25922" lat="59.6763749973" lon="11.3530833412">
		<tag k="name" v="Berget" />
		<tag k="natural" v="hill" />
		<tag k="place" v="locality" />
		<tag k="ssr:stedsnr" v="813486" />
	</node>
	<node id="-24715" lat="59.6796166659" lon="11.133247218">
		<tag k="name" v="Lysefjelldalen" />
		<tag k="natural" v="valley" />
		<tag k="place" v="locality" />
		<tag k="ssr:stedsnr" v="143685" />
	</node>
	<node id="-25920" lat="59.6484500019" lon="11.312436113">
		<tag k="name" v="Nordbydalen" />
		<tag k="natural" v="valley" />
		<tag k="place" v="locality" />
		<tag k="ssr:stedsnr" v="813464" />
	</node>
	<node id="-23871" lat="59.7536972217" lon="11.3256722213">
		<tag k="name" v="Langbråtan" />
		<tag k="place" v="locality" />
		<tag k="ssr:stedsnr" v="570510" />
	</node>
	<node id="-24894" lat="59.6436277745" lon="11.1541861065">
		<tag k="fixme" v="consider natural=peak for the most distinct mountains in the district" />
		<tag k="name" v="Holmsåsen" />
		<tag k="natural" v="hill" />
		<tag k="place" v="locality" />
		<tag k="ssr:stedsnr" v="204681" />
	</node>
	<node id="-23868" lat="59.5973527798" lon="11.3407333334">
		<tag k="fixme" v="consider natural=peak for the most distinct mountains in the district" />
		<tag k="name" v="Hagelåsen" />
		<tag k="natural" v="hill" />
		<tag k="place" v="locality" />
		<tag k="ssr:stedsnr" v="691998" />
	</node>
	<node id="-25915" lat="59.6279805598" lon="11.391377778">
		<tag k="name" v="Åmon" />
		<tag k="place" v="locality" />
		<tag k="ssr:stedsnr" v="812991" />
	</node>
	<node id="-25914" lat="59.636155558" lon="11.3853944377">
		<tag k="name" v="Bergtranga" />
		<tag k="natural" v="valley" />
		<tag k="place" v="locality" />
		<tag k="ssr:stedsnr" v="812989" />
	</node>
	<node id="-23351" lat="59.731666668" lon="11.2942000076">
		<tag k="fixme" v="consider natural=peak for the most distinct mountains in the district" />
		<tag k="name" v="Høgåsen" />
		<tag k="natural" v="hill" />
		<tag k="place" v="locality" />
		<tag k="ssr:stedsnr" v="449546" />
	</node>
	<node id="-24886" lat="59.6281555587" lon="11.0694194432">
		<tag k="fixme" v="consider natural=peak for the most distinct mountains in the district" />
		<tag k="name" v="Hylliåsen" />
		<tag k="natural" v="hill" />
		<tag k="place" v="locality" />
		<tag k="ssr:stedsnr" v="204613" />
	</node>
	<node id="-25908" lat="59.6125749976" lon="11.4259333252">
		<tag k="fixme" v="consider natural=peak for the most distinct mountains in the district" />
		<tag k="name" v="Hovelsrudåsen" />
		<tag k="natural" v="hill" />
		<tag k="place" v="locality" />
		<tag k="ssr:stedsnr" v="812884" />
	</node>
	<node id="-23346" lat="59.6632805529" lon="11.2178111173">
		<tag k="fixme" v="consider natural=peak for the most distinct mountains in the district" />
		<tag k="name" v="Nesåsen" />
		<tag k="natural" v="hill" />
		<tag k="place" v="locality" />
		<tag k="ssr:stedsnr" v="449091" />
	</node>
	<node id="-23265" lat="59.5963499966" lon="11.3506749965">
		<tag k="fixme" v="consider natural=peak for the most distinct mountains in the district" />
		<tag k="name" v="Skrikerudåsen" />
		<tag k="natural" v="hill" />
		<tag k="place" v="locality" />
		<tag k="ssr:stedsnr" v="145879" />
	</node>
	<node id="-23852" lat="59.6008249961" lon="11.35951388">
		<tag k="name" v="Delingsdalen" />
		<tag k="natural" v="valley" />
		<tag k="place" v="locality" />
		<tag k="ssr:stedsnr" v="691870" />
	</node>
	<node id="-24363" lat="59.5590527736" lon="10.9515499983">
		<tag k="fixme" v="consider natural=peak for the most distinct mountains in the district" />
		<tag k="name" v="Helvete" />
		<tag k="natural" v="hill" />
		<tag k="place" v="locality" />
		<tag k="ssr:stedsnr" v="3166" />
	</node>
	<node id="-24967" lat="59.6111416677" lon="11.3403638818">
		<tag k="fixme" v="consider natural=peak for the most distinct mountains in the district" />
		<tag k="name" v="Skallerudåsen" />
		<tag k="natural" v="hill" />
		<tag k="place" v="locality" />
		<tag k="ssr:stedsnr" v="206860" />
	</node>
	<node id="-25382" lat="59.5197999981" lon="11.4808416706">
		<tag k="name" v="Hekollen" />
		<tag k="natural" v="hill" />
		<tag k="place" v="locality" />
		<tag k="ssr:stedsnr" v="549383" />
	</node>
	<node id="-23845" lat="59.6358277814" lon="11.4190444449">
		<tag k="name" v="Tinghaug" />
		<tag k="place" v="locality" />
		<tag k="ssr:stedsnr" v="691816" />
	</node>
	<node id="-23844" lat="59.6501361103" lon="11.4370249928">
		<tag k="name" v="Lidalen" />
		<tag k="natural" v="valley" />
		<tag k="place" v="locality" />
		<tag k="ssr:stedsnr" v="691801" />
	</node>
	<node id="-23843" lat="59.6536611126" lon="11.4393583371">
		<tag k="fixme" v="consider natural=peak for the most distinct mountains in the district" />
		<tag k="name" v="Haraberget" />
		<tag k="natural" v="hill" />
		<tag k="place" v="locality" />
		<tag k="ssr:stedsnr" v="691796" />
	</node>
	<node id="-24863" lat="59.6773555546" lon="11.2033388904">
		<tag k="alt_name" v="Røysåsen" />
		<tag k="fixme" v="consider natural=peak for the most distinct mountains in the district" />
		<tag k="name" v="Mørkåsen" />
		<tag k="natural" v="hill" />
		<tag k="place" v="locality" />
		<tag k="ssr:stedsnr" v="186827" />
	</node>
	<node id="-23325" lat="59.4692138929" lon="11.5498361099">
		<tag k="alt_name" v="Vardehøgda" />
		<tag k="fixme" v="consider natural=peak for the most distinct mountains in the district" />
		<tag k="name" v="Søndre Stange varde" />
		<tag k="natural" v="hill" />
		<tag k="old_name" v="Søndre Stangevarde" />
		<tag k="place" v="locality" />
		<tag k="ssr:stedsnr" v="245558" />
	</node>
	<node id="-25371" lat="59.4874139579" lon="11.3128008956">
		<tag k="fixme" v="multiple name tags, choose one and add the other to alt_name; consider natural=peak for the most distinct mountains in the district" />
		<tag k="name" v="Bergerås;Vardåsen" />
		<tag k="natural" v="hill" />
		<tag k="place" v="locality" />
		<tag k="ssr:stedsnr" v="548039" />
	</node>
	<node id="-25881" lat="59.6588555588" lon="11.1818361156">
		<tag k="fixme" v="consider natural=peak for the most distinct mountains in the district" />
		<tag k="name" v="Brudeberget" />
		<tag k="natural" v="hill" />
		<tag k="place" v="locality" />
		<tag k="ssr:stedsnr" v="812147" />
	</node>
	<node id="-23831" lat="59.6874999977" lon="11.3513750072">
		<tag k="fixme" v="consider natural=peak for the most distinct mountains in the district" />
		<tag k="name" v="Rundfotåsen" />
		<tag k="natural" v="hill" />
		<tag k="place" v="locality" />
		<tag k="ssr:stedsnr" v="691509" />
	</node>
	<node id="-23830" lat="59.6837972201" lon="11.3423749977">
		<tag k="name" v="Fjellstad" />
		<tag k="place" v="locality" />
		<tag k="ssr:stedsnr" v="691506" />
	</node>
	<node id="-23317" lat="59.5830361098" lon="10.954441668">
		<tag k="name" v="Fugleleiken" />
		<tag k="place" v="locality" />
		<tag k="ssr:stedsnr" v="447968" />
	</node>
	<node id="-24628" lat="59.5001555535" lon="11.5202249923">
		<tag k="fixme" v="consider natural=peak for the most distinct mountains in the district" />
		<tag k="name" v="Tiuråsen" />
		<tag k="natural" v="hill" />
		<tag k="place" v="locality" />
		<tag k="ssr:stedsnr" v="112462" />
	</node>
	<node id="-25875" lat="59.5099083332" lon="10.9851083408">
		<tag k="fixme" v="consider natural=peak for the most distinct mountains in the district" />
		<tag k="name" v="Bjelleholåsen" />
		<tag k="natural" v="hill" />
		<tag k="place" v="locality" />
		<tag k="ssr:stedsnr" v="811995" />
	</node>
	<node id="-23264" lat="59.6026722224" lon="11.3616444387">
		<tag k="name" v="Raudkleiva" />
		<tag k="natural" v="slope" />
		<tag k="place" v="locality" />
		<tag k="ssr:stedsnr" v="145878" />
	</node>
	<node id="-24336" lat="59.6075944404" lon="11.4338888946">
		<tag k="fixme" v="consider natural=peak for the most distinct mountains in the district" />
		<tag k="name" v="Beljeåsen" />
		<tag k="natural" v="hill" />
		<tag k="place" v="locality" />
		<tag k="ssr:stedsnr" v="934814" />
	</node>
	<node id="-23256" lat="59.7033999992" lon="11.2925305622">
		<tag k="fixme" v="consider natural=peak for the most distinct mountains in the district" />
		<tag k="name" v="Kirkebyåsen" />
		<tag k="natural" v="hill" />
		<tag k="place" v="locality" />
		<tag k="ssr:stedsnr" v="145528" />
	</node>
	<node id="-23310" lat="59.6077666671" lon="10.950461105">
		<tag k="fixme" v="consider natural=peak for the most distinct mountains in the district" />
		<tag k="name" v="Høgåsen" />
		<tag k="natural" v="hill" />
		<tag k="place" v="locality" />
		<tag k="ssr:stedsnr" v="447735" />
	</node>
	<node id="-23820" lat="59.5273972179" lon="11.5076416723">
		<tag k="fixme" v="consider natural=peak for the most distinct mountains in the district" />
		<tag k="name" v="Hakatjernhøgda" />
		<tag k="natural" v="hill" />
		<tag k="place" v="locality" />
		<tag k="ssr:stedsnr" v="691347" />
	</node>
	<node id="-25474" lat="59.6902861074" lon="10.9760472193">
		<tag k="fixme" v="consider natural=peak for the most distinct mountains in the district" />
		<tag k="name" v="Engskula" />
		<tag k="natural" v="hill" />
		<tag k="place" v="locality" />
		<tag k="ssr:stedsnr" v="567821" />
	</node>
	<node id="-23306" lat="59.6076444454" lon="11.1659527861">
		<tag k="name" v="Haraldshaugen" />
		<tag k="natural" v="hill" />
		<tag k="place" v="locality" />
		<tag k="ssr:stedsnr" v="447660" />
	</node>
	<node id="-23817" lat="59.6785222181" lon="11.1760805572">
		<tag k="name" v="Livedalen" />
		<tag k="natural" v="valley" />
		<tag k="place" v="locality" />
		<tag k="ssr:stedsnr" v="691138" />
	</node>
	<node id="-23304" lat="59.6038222183" lon="10.9538527746">
		<tag k="fixme" v="consider natural=peak for the most distinct mountains in the district" />
		<tag k="name" v="Prestbråten" />
		<tag k="natural" v="hill" />
		<tag k="place" v="locality" />
		<tag k="ssr:stedsnr" v="447727" />
	</node>
	<node id="-23303" lat="59.6685555519" lon="11.0412305525">
		<tag k="name" v="Hovshytta" />
		<tag k="natural" v="slope" />
		<tag k="place" v="locality" />
		<tag k="ssr:stedsnr" v="447725" />
	</node>
	<node id="-25473" lat="59.6878749991" lon="10.9771888862">
		<tag k="name" v="Lønjedalen" />
		<tag k="natural" v="valley" />
		<tag k="place" v="locality" />
		<tag k="ssr:stedsnr" v="567816" />
	</node>
	<node id="-24324" lat="59.6442555584" lon="10.9668444466">
		<tag k="name" v="Kastet" />
		<tag k="natural" v="hill" />
		<tag k="place" v="locality" />
		<tag k="ssr:stedsnr" v="932809" />
	</node>
	<node id="-24323" lat="59.6689611105" lon="11.0152305512">
		<tag k="name" v="Norddalen" />
		<tag k="natural" v="valley" />
		<tag k="place" v="locality" />
		<tag k="ssr:stedsnr" v="932708" />
	</node>
	<node id="-24875" lat="59.6434055563" lon="11.1300277765">
		<tag k="fixme" v="consider natural=peak for the most distinct mountains in the district" />
		<tag k="name" v="Bøleråsen" />
		<tag k="natural" v="hill" />
		<tag k="place" v="locality" />
		<tag k="ssr:stedsnr" v="186976" />
	</node>
	<node id="-24320" lat="59.6322833367" lon="11.0653305485">
		<tag k="fixme" v="consider natural=peak for the most distinct mountains in the district" />
		<tag k="name" v="Klompåsen" />
		<tag k="natural" v="hill" />
		<tag k="place" v="locality" />
		<tag k="ssr:stedsnr" v="932606" />
	</node>
	<node id="-25258" lat="59.5926249964" lon="10.9759555531">
		<tag k="name" v="Ulvegravene" />
		<tag k="natural" v="valley" />
		<tag k="place" v="locality" />
		<tag k="ssr:stedsnr" v="386995" />
	</node>
	<node id="-24827" lat="59.5893055548" lon="10.9956722236">
		<tag k="fixme" v="consider natural=peak for the most distinct mountains in the district" />
		<tag k="name" v="Sponåsen" />
		<tag k="natural" v="hill" />
		<tag k="place" v="locality" />
		<tag k="ssr:stedsnr" v="186170" />
	</node>
	<node id="-24826" lat="59.5779000042" lon="11.0059638958">
		<tag k="fixme" v="consider natural=peak for the most distinct mountains in the district" />
		<tag k="name" v="Spydeberg varde" />
		<tag k="natural" v="hill" />
		<tag k="place" v="locality" />
		<tag k="ssr:stedsnr" v="186165" />
	</node>
	<node id="-25292" lat="59.5012583379" lon="11.3001111077">
		<tag k="fixme" v="consider natural=peak for the most distinct mountains in the district" />
		<tag k="name" v="Bjørnerudåsen" />
		<tag k="natural" v="hill" />
		<tag k="place" v="locality" />
		<tag k="ssr:stedsnr" v="415037" />
	</node>
	<node id="-24308" lat="59.6236861103" lon="11.3376361194">
		<tag k="name" v="Måsarød" />
		<tag k="place" v="locality" />
		<tag k="ssr:stedsnr" v="873963" />
	</node>
	<node id="-23422" lat="59.7270694404" lon="11.3404388917">
		<tag k="fixme" v="consider natural=peak for the most distinct mountains in the district" />
		<tag k="name" v="Gullknappen" />
		<tag k="natural" v="hill" />
		<tag k="place" v="locality" />
		<tag k="ssr:stedsnr" v="328528" />
	</node>
	<node id="-25718" lat="59.5752444417" lon="10.9287027853">
		<tag k="fixme" v="consider natural=peak for the most distinct mountains in the district" />
		<tag k="name" v="Bjørnåsen" />
		<tag k="natural" v="hill" />
		<tag k="place" v="locality" />
		<tag k="ssr:stedsnr" v="751923" />
	</node>
	<node id="-23604" lat="59.6122305561" lon="11.3275138966">
		<tag k="name" v="Vipa" />
		<tag k="place" v="locality" />
		<tag k="ssr:stedsnr" v="509841" />
	</node>
	<node id="-23789" lat="59.6524194422" lon="11.0886916752">
		<tag k="fixme" v="consider natural=peak for the most distinct mountains in the district" />
		<tag k="name" v="Høgås" />
		<tag k="natural" v="hill" />
		<tag k="place" v="locality" />
		<tag k="ssr:stedsnr" v="689664" />
	</node>
	<node id="-23365" lat="59.6773138921" lon="11.3579083391">
		<tag k="name" v="Åsrud" />
		<tag k="place" v="locality" />
		<tag k="ssr:stedsnr" v="449495" />
	</node>
	<node id="-23786" lat="59.6694583309" lon="11.1380249937">
		<tag k="fixme" v="consider natural=peak for the most distinct mountains in the district" />
		<tag k="name" v="Badstuåsen" />
		<tag k="natural" v="hill" />
		<tag k="place" v="locality" />
		<tag k="ssr:stedsnr" v="689657" />
	</node>
	<node id="-24297" lat="59.657944443" lon="11.2915222215">
		<tag k="fixme" v="consider natural=peak for the most distinct mountains in the district" />
		<tag k="name" v="Revåsen" />
		<tag k="natural" v="hill" />
		<tag k="place" v="locality" />
		<tag k="ssr:stedsnr" v="873512" />
	</node>
	<node id="-23784" lat="59.6459249989" lon="10.9319777733">
		<tag k="alt_name" v="Brekkaåsen" />
		<tag k="fixme" v="consider natural=peak for the most distinct mountains in the district" />
		<tag k="name" v="Brekkeåsen" />
		<tag k="natural" v="hill" />
		<tag k="place" v="locality" />
		<tag k="ssr:stedsnr" v="689481" />
	</node>
	<node id="-23271" lat="59.6463722206" lon="11.4596444531">
		<tag k="name" v="Soldaterbakken" />
		<tag k="place" v="locality" />
		<tag k="ssr:stedsnr" v="279815" />
	</node>
	<node id="-25318" lat="59.6976249979" lon="11.3037027863">
		<tag k="alt_name" v="Vardåsen" />
		<tag k="fixme" v="consider natural=peak for the most distinct mountains in the district" />
		<tag k="name" v="Vardås" />
		<tag k="natural" v="hill" />
		<tag k="place" v="locality" />
		<tag k="ssr:stedsnr" v="428836" />
	</node>
	<node id="-23249" lat="59.7487944478" lon="11.3118555577">
		<tag k="name" v="Grasdalen" />
		<tag k="natural" v="valley" />
		<tag k="place" v="locality" />
		<tag k="ssr:stedsnr" v="267522" />
	</node>
	<node id="-25828" lat="59.650461114" lon="11.4615083315">
		<tag k="fixme" v="consider natural=peak for the most distinct mountains in the district" />
		<tag k="name" v="Sundbyåsen" />
		<tag k="natural" v="hill" />
		<tag k="place" v="locality" />
		<tag k="ssr:stedsnr" v="793782" />
	</node>
	<node id="-23267" lat="59.6169416694" lon="11.3389222289">
		<tag k="fixme" v="consider natural=peak for the most distinct mountains in the district" />
		<tag k="name" v="Tullebekkåsen" />
		<tag k="natural" v="hill" />
		<tag k="place" v="locality" />
		<tag k="ssr:stedsnr" v="145957" />
	</node>
	<node id="-24290" lat="59.6269083296" lon="11.251041663">
		<tag k="fixme" v="consider natural=peak for the most distinct mountains in the district" />
		<tag k="name" v="Smellerudåsen" />
		<tag k="natural" v="hill" />
		<tag k="place" v="locality" />
		<tag k="ssr:stedsnr" v="873274" />
	</node>
	<node id="-25979" lat="59.533280558" lon="11.0250055551">
		<tag k="fixme" v="consider natural=peak for the most distinct mountains in the district" />
		<tag k="name" v="Trolleina" />
		<tag k="natural" v="hill" />
		<tag k="place" v="locality" />
		<tag k="ssr:stedsnr" v="854024" />
	</node>
	<node id="-24288" lat="59.6309388896" lon="11.2386305477">
		<tag k="fixme" v="consider natural=peak for the most distinct mountains in the district" />
		<tag k="name" v="Kaserudåsen" />
		<tag k="natural" v="hill" />
		<tag k="place" v="locality" />
		<tag k="ssr:stedsnr" v="873268" />
	</node>
	<node id="-25808" lat="59.5649833337" lon="11.5070250041">
		<tag k="fixme" v="consider natural=peak for the most distinct mountains in the district" />
		<tag k="name" v="Borgåsen" />
		<tag k="natural" v="hill" />
		<tag k="place" v="locality" />
		<tag k="ssr:stedsnr" v="792479" />
	</node>
	<node id="-24741" lat="59.6725388919" lon="11.4382138936">
		<tag k="name" v="Gukilhøgda" />
		<tag k="natural" v="hill" />
		<tag k="place" v="locality" />
		<tag k="ssr:stedsnr" v="144260" />
	</node>
	<node id="-23261" lat="59.6184583377" lon="11.4626222206">
		<tag k="fixme" v="consider natural=peak for the most distinct mountains in the district" />
		<tag k="name" v="Storsameia" />
		<tag k="natural" v="hill" />
		<tag k="place" v="locality" />
		<tag k="ssr:stedsnr" v="145821" />
	</node>
	<node id="-25466" lat="59.6783388881" lon="10.9694638951">
		<tag k="fixme" v="consider natural=peak for the most distinct mountains in the district" />
		<tag k="name" v="Multemyråsen" />
		<tag k="natural" v="hill" />
		<tag k="place" v="locality" />
		<tag k="ssr:stedsnr" v="567774" />
	</node>
	<node id="-25817" lat="59.5331083335" lon="11.4659027742">
		<tag k="fixme" v="consider natural=peak for the most distinct mountains in the district" />
		<tag k="name" v="Sanderhøgda" />
		<tag k="natural" v="hill" />
		<tag k="place" v="locality" />
		<tag k="ssr:stedsnr" v="792717" />
	</node>
	<node id="-24280" lat="59.5884083354" lon="11.1231888871">
		<tag k="fixme" v="consider natural=peak for the most distinct mountains in the district" />
		<tag k="name" v="Kråkåsen" />
		<tag k="natural" v="hill" />
		<tag k="place" v="locality" />
		<tag k="ssr:stedsnr" v="871817" />
	</node>
	<node id="-25636" lat="59.5440527761" lon="10.8858777801">
		<tag k="name" v="Tønnerøddalen" />
		<tag k="natural" v="valley" />
		<tag k="place" v="locality" />
		<tag k="ssr:stedsnr" v="629944" />
	</node>
	<node id="-25301" lat="59.4720500948" lon="11.5101382102">
		<tag k="fixme" v="consider natural=peak for the most distinct mountains in the district" />
		<tag k="name" v="Mustjernhøgda" />
		<tag k="natural" v="hill" />
		<tag k="place" v="locality" />
		<tag k="ssr:stedsnr" v="427587" />
	</node>
	<node id="-23762" lat="59.5466111114" lon="10.9409166741">
		<tag k="name" v="Brannstad" />
		<tag k="natural" v="valley" />
		<tag k="place" v="locality" />
		<tag k="ssr:stedsnr" v="507928" />
	</node>
	<node id="-23761" lat="59.5500222179" lon="10.9258416741">
		<tag k="fixme" v="consider natural=peak for the most distinct mountains in the district" />
		<tag k="name" v="Sagåsen" />
		<tag k="natural" v="hill" />
		<tag k="place" v="locality" />
		<tag k="ssr:stedsnr" v="507926" />
	</node>
	<node id="-23760" lat="59.5979027758" lon="11.152416674">
		<tag k="name" v="Offeret" />
		<tag k="natural" v="hill" />
		<tag k="place" v="locality" />
		<tag k="ssr:stedsnr" v="507681" />
	</node>
	<node id="-24271" lat="59.6337972231" lon="11.1566111043">
		<tag k="fixme" v="consider natural=peak for the most distinct mountains in the district" />
		<tag k="name" v="Tyrihjellåsen" />
		<tag k="natural" v="hill" />
		<tag k="place" v="locality" />
		<tag k="ssr:stedsnr" v="871628" />
	</node>
	<node id="-25805" lat="59.680572222" lon="10.9649527841">
		<tag k="fixme" v="consider natural=peak for the most distinct mountains in the district" />
		<tag k="name" v="Bjørnåsen" />
		<tag k="natural" v="hill" />
		<tag k="place" v="locality" />
		<tag k="ssr:stedsnr" v="792420" />
	</node>
	<node id="-25804" lat="59.5809250037" lon="11.1194527866">
		<tag k="fixme" v="consider natural=peak for the most distinct mountains in the district" />
		<tag k="name" v="Svinekleåsen" />
		<tag k="natural" v="hill" />
		<tag k="place" v="locality" />
		<tag k="ssr:stedsnr" v="792599" />
	</node>
	<node id="-23755" lat="59.7527305554" lon="11.3115916618">
		<tag k="alt_name" v="Lauvbærhøgda" />
		<tag k="fixme" v="consider natural=peak for the most distinct mountains in the district" />
		<tag k="name" v="Lauvberghøgda" />
		<tag k="natural" v="hill" />
		<tag k="place" v="locality" />
		<tag k="ssr:stedsnr" v="490904" />
	</node>
	<node id="-23753" lat="59.5693750037" lon="10.9558277705">
		<tag k="alt_name" v="Lægeråsen" />
		<tag k="fixme" v="consider natural=peak for the most distinct mountains in the district" />
		<tag k="name" v="Legeråsen" />
		<tag k="natural" v="hill" />
		<tag k="place" v="locality" />
		<tag k="ssr:stedsnr" v="489245" />
	</node>
	<node id="-24785" lat="59.5458258056" lon="11.5411506997">
		<tag k="name" v="Trollberg" />
		<tag k="natural" v="hill" />
		<tag k="place" v="locality" />
		<tag k="ssr:stedsnr" v="172391" />
	</node>
	<node id="-24774" lat="59.6096583336" lon="11.4432027789">
		<tag k="name" v="Kastet" />
		<tag k="natural" v="cliff" />
		<tag k="ssr:stedsnr" v="145841" />
	</node>
	<node id="-24772" lat="59.7560611095" lon="11.2892833346">
		<tag k="fixme" v="consider natural=peak for the most distinct mountains in the district" />
		<tag k="name" v="Krokedalåsen" />
		<tag k="natural" v="hill" />
		<tag k="place" v="locality" />
		<tag k="ssr:stedsnr" v="145644" />
	</node>
	<node id="-25795" lat="59.5990916694" lon="10.9925861025">
		<tag k="alt_name" v="Jutulåsen" />
		<tag k="fixme" v="consider natural=peak for the most distinct mountains in the district" />
		<tag k="name" v="Jutulen" />
		<tag k="natural" v="hill" />
		<tag k="place" v="locality" />
		<tag k="ssr:stedsnr" v="792138" />
	</node>
	<node id="-25794" lat="59.5945666655" lon="10.9946555643">
		<tag k="fixme" v="consider natural=peak for the most distinct mountains in the district" />
		<tag k="name" v="Gampåsen" />
		<tag k="natural" v="hill" />
		<tag k="place" v="locality" />
		<tag k="ssr:stedsnr" v="792137" />
	</node>
	<node id="-25792" lat="59.7421416708" lon="11.3133861171">
		<tag k="fixme" v="consider natural=peak for the most distinct mountains in the district" />
		<tag k="name" v="Stiklaåsen" />
		<tag k="natural" v="hill" />
		<tag k="place" v="locality" />
		<tag k="ssr:stedsnr" v="792068" />
	</node>
	<node id="-24767" lat="59.626852774" lon="11.2248972138">
		<tag k="fixme" v="consider natural=peak for the most distinct mountains in the district" />
		<tag k="name" v="Asgerrudåsen" />
		<tag k="natural" v="hill" />
		<tag k="place" v="locality" />
		<tag k="ssr:stedsnr" v="145682" />
	</node>
	<node id="-25631" lat="59.5443361106" lon="10.9133972302">
		<tag k="fixme" v="consider natural=peak for the most distinct mountains in the district" />
		<tag k="name" v="Marikova" />
		<tag k="natural" v="hill" />
		<tag k="place" v="locality" />
		<tag k="ssr:stedsnr" v="628908" />
	</node>
	<node id="-23210" lat="59.5176916666" lon="11.4881777729">
		<tag k="name" v="Hønntjerndalen" />
		<tag k="natural" v="valley" />
		<tag k="place" v="locality" />
		<tag k="ssr:stedsnr" v="266300" />
	</node>
	<node id="-24966" lat="59.6152083324" lon="11.3272944367">
		<tag k="name" v="Østhaugen" />
		<tag k="place" v="locality" />
		<tag k="ssr:stedsnr" v="206858" />
	</node>
	<node id="-24762" lat="59.5636305547" lon="11.3432472155">
		<tag k="fixme" v="consider natural=peak for the most distinct mountains in the district" />
		<tag k="name" v="Vardeåsen" />
		<tag k="natural" v="hill" />
		<tag k="place" v="locality" />
		<tag k="ssr:stedsnr" v="145375" />
	</node>
	<node id="-23244" lat="59.6018277755" lon="11.2903583373">
		<tag k="name" v="Langholen" />
		<tag k="natural" v="ridge" />
		<tag k="place" v="locality" />
		<tag k="ssr:stedsnr" v="266996" />
	</node>
	<node id="-23224" lat="59.7085472225" lon="11.3408527737">
		<tag k="fixme" v="consider natural=peak for the most distinct mountains in the district" />
		<tag k="name" v="Kudalsåsen" />
		<tag k="natural" v="hill" />
		<tag k="place" v="locality" />
		<tag k="ssr:stedsnr" v="266599" />
	</node>
	<node id="-23733" lat="59.6835666652" lon="11.3545416697">
		<tag k="fixme" v="consider natural=peak for the most distinct mountains in the district" />
		<tag k="name" v="Rudsåsen" />
		<tag k="natural" v="hill" />
		<tag k="place" v="locality" />
		<tag k="ssr:stedsnr" v="671785" />
	</node>
	<node id="-23219" lat="59.6664472261" lon="11.3550861158">
		<tag k="name" v="Finnskott" />
		<tag k="place" v="locality" />
		<tag k="ssr:stedsnr" v="266541" />
	</node>
	<node id="-24242" lat="59.5495888894" lon="10.9794861128">
		<tag k="alt_name" v="Gammeleriken" />
		<tag k="fixme" v="consider natural=peak for the most distinct mountains in the district" />
		<tag k="loc_name" v="Gamle-Eriken" />
		<tag k="name" v="Gamleeriken" />
		<tag k="natural" v="hill" />
		<tag k="place" v="locality" />
		<tag k="ssr:stedsnr" v="853206" />
	</node>
	<node id="-24752" lat="59.5266972256" lon="11.4957138866">
		<tag k="fixme" v="consider natural=peak for the most distinct mountains in the district" />
		<tag k="name" v="Rokovannshøgda" />
		<tag k="natural" v="hill" />
		<tag k="place" v="locality" />
		<tag k="ssr:stedsnr" v="145287" />
	</node>
	<node id="-23215" lat="59.6704416668" lon="11.3306805636">
		<tag k="name" v="Slora" />
		<tag k="place" v="locality" />
		<tag k="ssr:stedsnr" v="266496" />
	</node>
	<node id="-24761" lat="59.5443000017" lon="11.3534472257">
		<tag k="fixme" v="consider natural=peak for the most distinct mountains in the district" />
		<tag k="name" v="Kammerudåsen" />
		<tag k="natural" v="hill" />
		<tag k="place" v="locality" />
		<tag k="ssr:stedsnr" v="145353" />
	</node>
	<node id="-24748" lat="59.6581361102" lon="11.4604000047">
		<tag k="fixme" v="consider natural=peak for the most distinct mountains in the district" />
		<tag k="name" v="Storåsen" />
		<tag k="natural" v="hill" />
		<tag k="place" v="locality" />
		<tag k="ssr:stedsnr" v="145236" />
	</node>
	<node id="-24454" lat="59.6071444489" lon="10.9899333319">
		<tag k="name" v="Dalsenga" />
		<tag k="natural" v="slope" />
		<tag k="place" v="locality" />
		<tag k="ssr:stedsnr" v="22759" />
	</node>
	<node id="-24234" lat="59.7564611146" lon="11.2988722312">
		<tag k="name" v="Stokkedal" />
		<tag k="natural" v="valley" />
		<tag k="place" v="locality" />
		<tag k="ssr:stedsnr" v="935665" />
	</node>
	<node id="-25769" lat="59.6368388934" lon="11.4650694432">
		<tag k="name" v="Hvitefjell" />
		<tag k="natural" v="hill" />
		<tag k="place" v="locality" />
		<tag k="ssr:stedsnr" v="764828" />
	</node>
	<node id="-25254" lat="59.5460222247" lon="11.0086194478">
		<tag k="fixme" v="consider natural=peak for the most distinct mountains in the district" />
		<tag k="name" v="Sagbakkåsen" />
		<tag k="natural" v="hill" />
		<tag k="place" v="locality" />
		<tag k="ssr:stedsnr" v="386945" />
	</node>
	<node id="-23205" lat="59.6191583325" lon="11.4493027858">
		<tag k="name" v="Leggdalen" />
		<tag k="natural" v="valley" />
		<tag k="place" v="locality" />
		<tag k="ssr:stedsnr" v="266256" />
	</node>
	<node id="-25252" lat="59.5861833347" lon="10.9980944375">
		<tag k="fixme" v="consider natural=peak for the most distinct mountains in the district" />
		<tag k="name" v="Sponåsfestingen" />
		<tag k="natural" v="hill" />
		<tag k="place" v="locality" />
		<tag k="ssr:stedsnr" v="386978" />
	</node>
	<node id="-25251" lat="59.6797055515" lon="10.9972666579">
		<tag k="fixme" v="consider natural=peak for the most distinct mountains in the district" />
		<tag k="name" v="Fjøsåsen" />
		<tag k="natural" v="hill" />
		<tag k="place" v="locality" />
		<tag k="ssr:stedsnr" v="386832" />
	</node>
	<node id="-24226" lat="59.6261277737" lon="11.362777783">
		<tag k="fixme" v="consider natural=peak for the most distinct mountains in the district" />
		<tag k="name" v="Kjellås" />
		<tag k="natural" v="hill" />
		<tag k="place" v="locality" />
		<tag k="ssr:stedsnr" v="934982" />
	</node>
	<node id="-23713" lat="59.5812250036" lon="11.3667777813">
		<tag k="fixme" v="consider natural=peak for the most distinct mountains in the district" />
		<tag k="name" v="Torperåsen" />
		<tag k="natural" v="hill" />
		<tag k="place" v="locality" />
		<tag k="ssr:stedsnr" v="671610" />
	</node>
	<node id="-25248" lat="59.5169722201" lon="10.9835416686">
		<tag k="fixme" v="consider natural=peak for the most distinct mountains in the district" />
		<tag k="name" v="Havnedalsåsen" />
		<tag k="natural" v="hill" />
		<tag k="place" v="locality" />
		<tag k="ssr:stedsnr" v="385993" />
	</node>
	<node id="-25247" lat="59.5311249982" lon="11.0386333381">
		<tag k="fixme" v="consider natural=peak for the most distinct mountains in the district" />
		<tag k="name" v="Knollen" />
		<tag k="natural" v="hill" />
		<tag k="place" v="locality" />
		<tag k="ssr:stedsnr" v="385989" />
	</node>
	<node id="-23194" lat="59.5778638894" lon="10.9998583371">
		<tag k="name" v="Smedebølstangen" />
		<tag k="natural" v="valley" />
		<tag k="place" v="locality" />
		<tag k="ssr:stedsnr" v="265000" />
	</node>
	<node id="-23193" lat="59.534438889" lon="11.0525027791">
		<tag k="name" v="Volledalen" />
		<tag k="natural" v="valley" />
		<tag k="place" v="locality" />
		<tag k="ssr:stedsnr" v="264997" />
	</node>
	<node id="-24216" lat="59.6514694478" lon="11.2231194471">
		<tag k="fixme" v="consider natural=peak for the most distinct mountains in the district" />
		<tag k="name" v="Lokkeråsen" />
		<tag k="natural" v="hill" />
		<tag k="place" v="locality" />
		<tag k="ssr:stedsnr" v="934693" />
	</node>
	<node id="-23191" lat="59.5284638895" lon="10.9907472209">
		<tag k="fixme" v="consider natural=peak for the most distinct mountains in the district" />
		<tag k="name" v="Steinbrottåsen" />
		<tag k="natural" v="hill" />
		<tag k="place" v="locality" />
		<tag k="ssr:stedsnr" v="264993" />
	</node>
	<node id="-23190" lat="59.5598472215" lon="11.021272216">
		<tag k="fixme" v="consider natural=peak for the most distinct mountains in the district" />
		<tag k="name" v="Brånan" />
		<tag k="natural" v="hill" />
		<tag k="place" v="locality" />
		<tag k="ssr:stedsnr" v="264986" />
	</node>
	<node id="-25050" lat="59.704126803" lon="11.3630992441">
		<tag k="fixme" v="consider natural=peak for the most distinct mountains in the district" />
		<tag k="name" v="Viktjernhøgda" />
		<tag k="natural" v="hill" />
		<tag k="place" v="locality" />
		<tag k="ssr:stedsnr" v="307857" />
	</node>
	<node id="-24723" lat="59.6312694489" lon="11.0207583371">
		<tag k="fixme" v="consider natural=peak for the most distinct mountains in the district" />
		<tag k="name" v="Toenåsen" />
		<tag k="natural" v="hill" />
		<tag k="place" v="locality" />
		<tag k="ssr:stedsnr" v="143753" />
	</node>
	<node id="-24722" lat="59.596408329" lon="10.9954083348">
		<tag k="name" v="Merradalen" />
		<tag k="natural" v="valley" />
		<tag k="place" v="locality" />
		<tag k="ssr:stedsnr" v="143735" />
	</node>
	<node id="-24721" lat="59.6820228137" lon="11.0646963357">
		<tag k="name" v="Hallerudhøgda" />
		<tag k="natural" v="hill" />
		<tag k="place" v="locality" />
		<tag k="ssr:stedsnr" v="143714" />
	</node>
	<node id="-25744" lat="59.6941472206" lon="11.3084083289">
		<tag k="fixme" v="consider natural=peak for the most distinct mountains in the district" />
		<tag k="name" v="Mellebyåsen" />
		<tag k="natural" v="hill" />
		<tag k="place" v="locality" />
		<tag k="ssr:stedsnr" v="752541" />
	</node>
	<node id="-24206" lat="59.7227083353" lon="11.35473612">
		<tag k="fixme" v="consider natural=peak for the most distinct mountains in the district" />
		<tag k="name" v="Slottet" />
		<tag k="natural" v="hill" />
		<tag k="place" v="locality" />
		<tag k="ssr:stedsnr" v="934546" />
	</node>
	<node id="-23746" lat="59.6213611113" lon="11.2515888929">
		<tag k="fixme" v="consider natural=peak for the most distinct mountains in the district" />
		<tag k="name" v="Eikebergåsen" />
		<tag k="natural" v="hill" />
		<tag k="place" v="locality" />
		<tag k="ssr:stedsnr" v="671936" />
	</node>
	<node id="-24415" lat="59.5159333371" lon="11.3310166642">
		<tag k="alt_name" v="Sameia" />
		<tag k="fixme" v="consider natural=peak for the most distinct mountains in the district" />
		<tag k="name" v="Sameiga" />
		<tag k="natural" v="hill" />
		<tag k="place" v="locality" />
		<tag k="ssr:stedsnr" v="4759" />
	</node>
	<node id="-24599" lat="59.7002444452" lon="11.3640888898">
		<tag k="fixme" v="consider natural=peak for the most distinct mountains in the district" />
		<tag k="name" v="Stangrøyshøgda" />
		<tag k="natural" v="hill" />
		<tag k="place" v="locality" />
		<tag k="ssr:stedsnr" v="84536" />
	</node>
	<node id="-23173" lat="59.6084583313" lon="11.0749416743">
		<tag k="name" v="Bekkevoll" />
		<tag k="natural" v="slope" />
		<tag k="place" v="locality" />
		<tag k="ssr:stedsnr" v="264646" />
	</node>
	<node id="-24896" lat="59.5970527818" lon="11.0159638831">
		<tag k="fixme" v="consider natural=peak for the most distinct mountains in the district" />
		<tag k="name" v="Evensåsen" />
		<tag k="natural" v="hill" />
		<tag k="place" v="locality" />
		<tag k="ssr:stedsnr" v="204740" />
	</node>
	<node id="-23167" lat="59.6463444473" lon="11.353091671">
		<tag k="fixme" v="consider natural=peak for the most distinct mountains in the district" />
		<tag k="name" v="Djupedalsåsen" />
		<tag k="natural" v="hill" />
		<tag k="place" v="locality" />
		<tag k="ssr:stedsnr" v="84958" />
	</node>
	<node id="-23658" lat="59.5745888925" lon="10.9224999918">
		<tag k="fixme" v="consider natural=peak for the most distinct mountains in the district" />
		<tag k="name" v="Bøleråsen" />
		<tag k="natural" v="hill" />
		<tag k="place" v="locality" />
		<tag k="ssr:stedsnr" v="448916" />
	</node>
	<node id="-23162" lat="59.7193250044" lon="11.3500527788">
		<tag k="fixme" v="consider natural=peak for the most distinct mountains in the district" />
		<tag k="name" v="Måstadåsen" />
		<tag k="natural" v="hill" />
		<tag k="place" v="locality" />
		<tag k="ssr:stedsnr" v="84614" />
	</node>
	<node id="-23236" lat="59.620555554" lon="11.4336027759">
		<tag k="name" v="Ilebekk" />
		<tag k="place" v="locality" />
		<tag k="ssr:stedsnr" v="266832" />
	</node>
	<node id="-23670" lat="59.6477527745" lon="11.0343333278">
		<tag k="alt_name" v="Ulveåsen" />
		<tag k="fixme" v="consider natural=peak for the most distinct mountains in the district" />
		<tag k="name" v="Ulvåsen" />
		<tag k="natural" v="hill" />
		<tag k="place" v="locality" />
		<tag k="ssr:stedsnr" v="670262" />
	</node>
	<node id="-25961" lat="59.607222223" lon="11.0182861033">
		<tag k="fixme" v="consider natural=peak for the most distinct mountains in the district" />
		<tag k="name" v="Høgåsen" />
		<tag k="natural" v="hill" />
		<tag k="place" v="locality" />
		<tag k="ssr:stedsnr" v="853034" />
	</node>
	<node id="-24179" lat="59.6412250025" lon="11.0085638901">
		<tag k="fixme" v="consider natural=peak for the most distinct mountains in the district" />
		<tag k="name" v="Lillebyåsen" />
		<tag k="natural" v="hill" />
		<tag k="place" v="locality" />
		<tag k="ssr:stedsnr" v="932766" />
	</node>
	<node id="-24177" lat="59.5919444444" lon="11.0326833311">
		<tag k="fixme" v="consider natural=peak for the most distinct mountains in the district" />
		<tag k="name" v="Kjelstadåsen" />
		<tag k="natural" v="hill" />
		<tag k="place" v="locality" />
		<tag k="ssr:stedsnr" v="932759" />
	</node>
	<node id="-24176" lat="59.5880416628" lon="11.002280555">
		<tag k="name" v="Hareposten" />
		<tag k="natural" v="hill" />
		<tag k="place" v="locality" />
		<tag k="ssr:stedsnr" v="932751" />
	</node>
	<node id="-24175" lat="59.682986113" lon="11.1626833419">
		<tag k="name" v="Bjørnehidråget" />
		<tag k="natural" v="slope" />
		<tag k="place" v="locality" />
		<tag k="ssr:stedsnr" v="932701" />
	</node>
	<node id="-25709" lat="59.6744138897" lon="11.0402638901">
		<tag k="name" v="Spennivegg" />
		<tag k="natural" v="slope" />
		<tag k="place" v="locality" />
		<tag k="ssr:stedsnr" v="750785" />
	</node>
	<node id="-24172" lat="59.6542027811" lon="11.0743027728">
		<tag k="name" v="Kjerringdalen" />
		<tag k="natural" v="valley" />
		<tag k="place" v="locality" />
		<tag k="ssr:stedsnr" v="932675" />
	</node>
	<node id="-25707" lat="59.6842472205" lon="11.019291666">
		<tag k="fixme" v="consider natural=peak for the most distinct mountains in the district" />
		<tag k="name" v="Krokåsen" />
		<tag k="natural" v="hill" />
		<tag k="place" v="locality" />
		<tag k="ssr:stedsnr" v="750771" />
	</node>
	<node id="-24170" lat="59.6690361135" lon="11.1072583403">
		<tag k="name" v="Grøtjerntoppen" />
		<tag k="natural" v="hill" />
		<tag k="place" v="locality" />
		<tag k="ssr:stedsnr" v="932661" />
	</node>
	<node id="-25703" lat="59.6593888857" lon="11.0732444508">
		<tag k="fixme" v="consider natural=peak for the most distinct mountains in the district" />
		<tag k="name" v="Passoppåsen" />
		<tag k="natural" v="hill" />
		<tag k="place" v="locality" />
		<tag k="ssr:stedsnr" v="750691" />
	</node>
	<node id="-23144" lat="59.5682583292" lon="11.0204833293">
		<tag k="name" v="Vad" />
		<tag k="place" v="locality" />
		<tag k="ssr:stedsnr" v="82975" />
	</node>
	<node id="-23655" lat="59.5517527778" lon="11.0037472262">
		<tag k="fixme" v="consider natural=peak for the most distinct mountains in the district" />
		<tag k="name" v="Nygårdsåsen" />
		<tag k="natural" v="hill" />
		<tag k="place" v="locality" />
		<tag k="ssr:stedsnr" v="447941" />
	</node>
	<node id="-23142" lat="59.586974996" lon="10.9797666631">
		<tag k="fixme" v="consider natural=peak for the most distinct mountains in the district" />
		<tag k="name" v="Hytteåsen" />
		<tag k="natural" v="hill" />
		<tag k="place" v="locality" />
		<tag k="ssr:stedsnr" v="82969" />
	</node>
	<node id="-23141" lat="59.5802527809" lon="10.9951722262">
		<tag k="name" v="Moen" />
		<tag k="place" v="locality" />
		<tag k="ssr:stedsnr" v="82965" />
	</node>
	<node id="-25188" lat="59.5389611137" lon="10.9315111149">
		<tag k="fixme" v="consider natural=peak for the most distinct mountains in the district" />
		<tag k="name" v="Korsfuruåsen" />
		<tag k="natural" v="hill" />
		<tag k="place" v="locality" />
		<tag k="ssr:stedsnr" v="368017" />
	</node>
	<node id="-25699" lat="59.6096888882" lon="11.1285555551">
		<tag k="fixme" v="consider natural=peak for the most distinct mountains in the district" />
		<tag k="name" v="Batteriåsen" />
		<tag k="natural" v="hill" />
		<tag k="place" v="locality" />
		<tag k="ssr:stedsnr" v="750651" />
	</node>
	<node id="-24725" lat="59.5881333317" lon="11.1092916607">
		<tag k="fixme" v="consider natural=peak for the most distinct mountains in the district" />
		<tag k="name" v="Romsåsen" />
		<tag k="natural" v="hill" />
		<tag k="place" v="locality" />
		<tag k="ssr:stedsnr" v="143757" />
	</node>
	<node id="-23136" lat="59.6861388846" lon="11.1415777776">
		<tag k="fixme" v="consider natural=peak for the most distinct mountains in the district" />
		<tag k="name" v="Lysefjell" />
		<tag k="natural" v="hill" />
		<tag k="place" v="locality" />
		<tag k="ssr:stedsnr" v="82715" />
	</node>
	<node id="-25695" lat="59.525286108" lon="11.0341861086">
		<tag k="name" v="Svavedalen" />
		<tag k="natural" v="valley" />
		<tag k="place" v="locality" />
		<tag k="ssr:stedsnr" v="751000" />
	</node>
	<node id="-25690" lat="59.5877888857" lon="10.989122226">
		<tag k="fixme" v="consider natural=peak for the most distinct mountains in the district" />
		<tag k="name" v="Bjørnåsen" />
		<tag k="natural" v="hill" />
		<tag k="place" v="locality" />
		<tag k="ssr:stedsnr" v="750971" />
	</node>
	<node id="-25871" lat="59.6982916656" lon="11.0032194499">
		<tag k="fixme" v="consider natural=peak for the most distinct mountains in the district" />
		<tag k="name" v="Sponåsen" />
		<tag k="natural" v="hill" />
		<tag k="place" v="locality" />
		<tag k="ssr:stedsnr" v="811779" />
	</node>
	<node id="-23777" lat="59.5184861099" lon="11.4432888913">
		<tag k="fixme" v="consider natural=peak for the most distinct mountains in the district" />
		<tag k="name" v="Solberghøgda" />
		<tag k="natural" v="hill" />
		<tag k="place" v="locality" />
		<tag k="ssr:stedsnr" v="509323" />
	</node>
	<node id="-23419" lat="59.6433166686" lon="11.3456027713">
		<tag k="fixme" v="consider natural=peak for the most distinct mountains in the district" />
		<tag k="name" v="Solbergåsen" />
		<tag k="natural" v="hill" />
		<tag k="place" v="locality" />
		<tag k="ssr:stedsnr" v="327918" />
	</node>
	<node id="-23737" lat="59.7203444415" lon="11.26008889">
		<tag k="name" v="Jammerdalen" />
		<tag k="natural" v="valley" />
		<tag k="place" v="locality" />
		<tag k="ssr:stedsnr" v="671876" />
	</node>
	<node id="-23377" lat="59.6709361097" lon="11.4209361133">
		<tag k="name" v="Bjørndalen" />
		<tag k="natural" v="valley" />
		<tag k="place" v="locality" />
		<tag k="ssr:stedsnr" v="449878" />
	</node>
	<node id="-23122" lat="59.5874583325" lon="10.9400333404">
		<tag k="alt_name" v="Hobølvarde" />
		<tag k="fixme" v="consider natural=peak for the most distinct mountains in the district" />
		<tag k="name" v="Hobøl varde" />
		<tag k="natural" v="hill" />
		<tag k="place" v="locality" />
		<tag k="ssr:stedsnr" v="247181" />
	</node>
	<node id="-24163" lat="59.6040638848" lon="10.9491472249">
		<tag k="name" v="Ommedalen" />
		<tag k="natural" v="valley" />
		<tag k="place" v="locality" />
		<tag k="ssr:stedsnr" v="932727" />
	</node>
	<node id="-25677" lat="59.6465805553" lon="11.4691916702">
		<tag k="fixme" v="consider natural=peak for the most distinct mountains in the district" />
		<tag k="name" v="Hytteåsen" />
		<tag k="natural" v="hill" />
		<tag k="place" v="locality" />
		<tag k="ssr:stedsnr" v="643801" />
	</node>
	<node id="-23628" lat="59.5694472202" lon="10.9254166641">
		<tag k="fixme" v="consider natural=peak for the most distinct mountains in the district" />
		<tag k="name" v="Brånen" />
		<tag k="natural" v="hill" />
		<tag k="place" v="locality" />
		<tag k="ssr:stedsnr" v="429205" />
	</node>
	<node id="-23121" lat="59.5874166662" lon="10.9801722268">
		<tag k="alt_name" v="Juldalshøgda" />
		<tag k="fixme" v="consider natural=peak for the most distinct mountains in the district" />
		<tag k="name" v="Juledagshøgda" />
		<tag k="natural" v="hill" />
		<tag k="place" v="locality" />
		<tag k="ssr:stedsnr" v="247177" />
	</node>
	<node id="-25596" lat="59.5086000035" lon="11.4569194452">
		<tag k="fixme" v="consider natural=peak for the most distinct mountains in the district" />
		<tag k="name" v="Ivaråsen" />
		<tag k="natural" v="hill" />
		<tag k="place" v="locality" />
		<tag k="ssr:stedsnr" v="610732" />
	</node>
	<node id="-25672" lat="59.7318000024" lon="11.3326194482">
		<tag k="name" v="Haugen" />
		<tag k="place" v="locality" />
		<tag k="ssr:stedsnr" v="631531" />
	</node>
	<node id="-24911" lat="59.5456861148" lon="10.923175006">
		<tag k="name" v="Slora" />
		<tag k="natural" v="valley" />
		<tag k="place" v="locality" />
		<tag k="ssr:stedsnr" v="204930" />
	</node>
	<node id="-25670" lat="59.5970611154" lon="11.3630777782">
		<tag k="fixme" v="consider natural=peak for the most distinct mountains in the district" />
		<tag k="name" v="Majorhogget" />
		<tag k="natural" v="hill" />
		<tag k="place" v="locality" />
		<tag k="ssr:stedsnr" v="630848" />
	</node>
	<node id="-25668" lat="59.6644361151" lon="11.4264666647">
		<tag k="fixme" v="consider natural=peak for the most distinct mountains in the district" />
		<tag k="name" v="Laudalsåsen" />
		<tag k="natural" v="hill" />
		<tag k="place" v="locality" />
		<tag k="ssr:stedsnr" v="630899" />
	</node>
	<node id="-23187" lat="59.5369111135" lon="11.0052972157">
		<tag k="name" v="Nissehølet" />
		<tag k="natural" v="valley" />
		<tag k="place" v="locality" />
		<tag k="ssr:stedsnr" v="264945" />
	</node>
	<node id="-25666" lat="59.5987694453" lon="11.3534861194">
		<tag k="fixme" v="consider natural=peak for the most distinct mountains in the district" />
		<tag k="name" v="Kongemoen" />
		<tag k="natural" v="hill" />
		<tag k="place" v="locality" />
		<tag k="ssr:stedsnr" v="630834" />
	</node>
	<node id="-23054" lat="59.6060166655" lon="11.215805549">
		<tag k="fixme" v="consider natural=peak for the most distinct mountains in the district" />
		<tag k="name" v="Nylendeåsen" />
		<tag k="natural" v="hill" />
		<tag k="place" v="locality" />
		<tag k="ssr:stedsnr" v="65904" />
	</node>
	<node id="-24640" lat="59.6550388873" lon="11.0869583316">
		<tag k="fixme" v="consider natural=peak for the most distinct mountains in the district" />
		<tag k="name" v="Slottsåsen" />
		<tag k="natural" v="hill" />
		<tag k="place" v="locality" />
		<tag k="ssr:stedsnr" v="124202" />
	</node>
	<node id="-23614" lat="59.7328861132" lon="11.317858338">
		<tag k="name" v="Tuen" />
		<tag k="place" v="locality" />
		<tag k="ssr:stedsnr" v="510557" />
	</node>
	<node id="-23221" lat="59.7165222263" lon="11.36201944">
		<tag k="fixme" v="consider natural=peak for the most distinct mountains in the district" />
		<tag k="name" v="Haukereiråsen" />
		<tag k="natural" v="hill" />
		<tag k="place" v="locality" />
		<tag k="ssr:stedsnr" v="266593" />
	</node>
	<node id="-23612" lat="59.6231749972" lon="11.3566472193">
		<tag k="fixme" v="consider natural=peak for the most distinct mountains in the district" />
		<tag k="name" v="Raudås" />
		<tag k="natural" v="hill" />
		<tag k="place" v="locality" />
		<tag k="ssr:stedsnr" v="509979" />
	</node>
	<node id="-24123" lat="59.7067555566" lon="11.2510305619">
		<tag k="fixme" v="consider natural=peak for the most distinct mountains in the district" />
		<tag k="name" v="Muggebyåsen" />
		<tag k="natural" v="hill" />
		<tag k="place" v="locality" />
		<tag k="ssr:stedsnr" v="914840" />
	</node>
	<node id="-23609" lat="59.6507305556" lon="11.340813888">
		<tag k="name" v="Myrene" />
		<tag k="place" v="locality" />
		<tag k="ssr:stedsnr" v="509929" />
	</node>
	<node id="-25144" lat="59.6286666656" lon="11.3758694469">
		<tag k="fixme" v="consider natural=peak for the most distinct mountains in the district" />
		<tag k="name" v="Bergeråsen" />
		<tag k="natural" v="hill" />
		<tag k="place" v="locality" />
		<tag k="ssr:stedsnr" v="327985" />
	</node>
	<node id="-23607" lat="59.6631666689" lon="11.4465472239">
		<tag k="fixme" v="consider natural=peak for the most distinct mountains in the district" />
		<tag k="name" v="Abbortjernhøgda" />
		<tag k="natural" v="hill" />
		<tag k="place" v="locality" />
		<tag k="ssr:stedsnr" v="509895" />
	</node>
	<node id="-24118" lat="59.6863333291" lon="11.3100694361">
		<tag k="fixme" v="consider natural=peak for the most distinct mountains in the district" />
		<tag k="name" v="Eikåsen" />
		<tag k="natural" v="hill" />
		<tag k="place" v="locality" />
		<tag k="ssr:stedsnr" v="914803" />
	</node>
	<node id="-23049" lat="59.6923916692" lon="11.343327771">
		<tag k="fixme" v="consider natural=peak for the most distinct mountains in the district" />
		<tag k="name" v="Linnerudåsen" />
		<tag k="natural" v="hill" />
		<tag k="place" v="locality" />
		<tag k="ssr:stedsnr" v="64842" />
	</node>
	<node id="-24116" lat="59.6667805573" lon="11.4283555497">
		<tag k="fixme" v="consider natural=peak for the most distinct mountains in the district" />
		<tag k="name" v="Heståsen" />
		<tag k="natural" v="hill" />
		<tag k="place" v="locality" />
		<tag k="ssr:stedsnr" v="914780" />
	</node>
	<node id="-24128" lat="59.6004916687" lon="11.3638972299">
		<tag k="alt_name" v="Gulbrandsfjellet" />
		<tag k="fixme" v="consider natural=peak for the most distinct mountains in the district" />
		<tag k="name" v="Guldbrandsfjell" />
		<tag k="natural" v="hill" />
		<tag k="place" v="locality" />
		<tag k="ssr:stedsnr" v="914881" />
	</node>
	<node id="-25138" lat="59.6063194473" lon="11.3835277714">
		<tag k="fixme" v="consider natural=peak for the most distinct mountains in the district" />
		<tag k="name" v="Revehiåsen" />
		<tag k="natural" v="hill" />
		<tag k="place" v="locality" />
		<tag k="ssr:stedsnr" v="327846" />
	</node>
	<node id="-23654" lat="59.5441111067" lon="11.0299000079">
		<tag k="name" v="Fugleleiken" />
		<tag k="place" v="locality" />
		<tag k="ssr:stedsnr" v="447937" />
	</node>
	<node id="-23600" lat="59.6659888919" lon="11.4221750084">
		<tag k="name" v="Laudalen" />
		<tag k="natural" v="valley" />
		<tag k="place" v="locality" />
		<tag k="ssr:stedsnr" v="509891" />
	</node>
	<node id="-25704" lat="59.686549996" lon="11.067344451">
		<tag k="fixme" v="consider natural=peak for the most distinct mountains in the district" />
		<tag k="name" v="Hallerudåsen" />
		<tag k="natural" v="hill" />
		<tag k="place" v="locality" />
		<tag k="ssr:stedsnr" v="750708" />
	</node>
	<node id="-25642" lat="59.6263833331" lon="11.2612583334">
		<tag k="name" v="Odalen" />
		<tag k="natural" v="valley" />
		<tag k="place" v="locality" />
		<tag k="ssr:stedsnr" v="630247" />
	</node>
	<node id="-24961" lat="59.6489861078" lon="11.4501111151">
		<tag k="fixme" v="consider natural=peak for the most distinct mountains in the district" />
		<tag k="name" v="Sandåsen" />
		<tag k="natural" v="hill" />
		<tag k="place" v="locality" />
		<tag k="ssr:stedsnr" v="206815" />
	</node>
	<node id="-23076" lat="59.6061138856" lon="10.9682416721">
		<tag k="fixme" v="consider natural=peak for the most distinct mountains in the district" />
		<tag k="name" v="Høgåsen" />
		<tag k="natural" v="hill" />
		<tag k="place" v="locality" />
		<tag k="ssr:stedsnr" v="246147" />
	</node>
	<node id="-24611" lat="59.6145055549" lon="11.4515527855">
		<tag k="name" v="Moserud" />
		<tag k="place" v="locality" />
		<tag k="ssr:stedsnr" v="84884" />
	</node>
	<node id="-25122" lat="59.6781555545" lon="11.3141111074">
		<tag k="name" v="Hammerstadbakken" />
		<tag k="natural" v="slope" />
		<tag k="place" v="locality" />
		<tag k="ssr:stedsnr" v="327456" />
	</node>
	<node id="-25633" lat="59.5497527805" lon="11.0051222202">
		<tag k="name" v="Bjørkeklopp" />
		<tag k="natural" v="valley" />
		<tag k="place" v="locality" />
		<tag k="ssr:stedsnr" v="628935" />
	</node>
	<node id="-23072" lat="59.6439611114" lon="11.1853361167">
		<tag k="fixme" v="consider natural=peak for the most distinct mountains in the district" />
		<tag k="name" v="Vardeåsen" />
		<tag k="natural" v="hill" />
		<tag k="place" v="locality" />
		<tag k="ssr:stedsnr" v="248000" />
	</node>
	<node id="-24095" lat="59.5406638922" lon="11.4410138932">
		<tag k="fixme" v="consider natural=peak for the most distinct mountains in the district" />
		<tag k="name" v="Lienåsen" />
		<tag k="natural" v="hill" />
		<tag k="place" v="locality" />
		<tag k="ssr:stedsnr" v="914531" />
	</node>
	<node id="-26142" lat="59.7022283759" lon="11.3628800307">
		<tag k="fixme" v="consider natural=peak for the most distinct mountains in the district" />
		<tag k="name" v="Vikstjernåsen" />
		<tag k="natural" v="hill" />
		<tag k="place" v="locality" />
		<tag k="ssr:stedsnr" v="1078055" />
	</node>
	<node id="-25117" lat="59.6349833293" lon="11.2490472249">
		<tag k="name" v="Sagfjella" />
		<tag k="natural" v="hill" />
		<tag k="place" v="locality" />
		<tag k="ssr:stedsnr" v="327253" />
	</node>
	<node id="-25628" lat="59.6921027792" lon="10.9914611111">
		<tag k="fixme" v="consider natural=peak for the most distinct mountains in the district" />
		<tag k="name" v="Mellemhaugen" />
		<tag k="natural" v="hill" />
		<tag k="place" v="locality" />
		<tag k="ssr:stedsnr" v="628797" />
	</node>
	<node id="-24089" lat="59.6310555601" lon="11.4798444377">
		<tag k="fixme" v="consider natural=peak for the most distinct mountains in the district" />
		<tag k="name" v="Haratjernshøgda" />
		<tag k="natural" v="hill" />
		<tag k="place" v="locality" />
		<tag k="ssr:stedsnr" v="914313" />
	</node>
	<node id="-24600" lat="59.6937416697" lon="11.369530547">
		<tag k="fixme" v="consider natural=peak for the most distinct mountains in the district" />
		<tag k="name" v="Korpåsen" />
		<tag k="natural" v="hill" />
		<tag k="place" v="locality" />
		<tag k="ssr:stedsnr" v="84538" />
	</node>
	<node id="-24836" lat="59.5029555535" lon="11.4776305498">
		<tag k="alt_name" v="Jonsvasshøgda" />
		<tag k="name" v="Jonsvannshøgda" />
		<tag k="natural" v="hill" />
		<tag k="place" v="locality" />
		<tag k="ssr:stedsnr" v="186398" />
	</node>
	<node id="-25110" lat="59.5702611152" lon="10.8972138873">
		<tag k="name" v="Steintørt" />
		<tag k="natural" v="slope" />
		<tag k="place" v="locality" />
		<tag k="ssr:stedsnr" v="326931" />
	</node>
	<node id="-25621" lat="59.6044000007" lon="10.9483527807">
		<tag k="name" v="Kongehulen" />
		<tag k="natural" v="valley" />
		<tag k="place" v="locality" />
		<tag k="ssr:stedsnr" v="628742" />
	</node>
	<node id="-24084" lat="59.5687472233" lon="11.0091138803">
		<tag k="fixme" v="consider natural=peak for the most distinct mountains in the district" />
		<tag k="name" v="Sundbyvarden" />
		<tag k="natural" v="hill" />
		<tag k="place" v="locality" />
		<tag k="ssr:stedsnr" v="914225" />
	</node>
	<node id="-25864" lat="59.6034611104" lon="11.0518499925">
		<tag k="name" v="Mollehøgda" />
		<tag k="natural" v="hill" />
		<tag k="place" v="locality" />
		<tag k="ssr:stedsnr" v="811727" />
	</node>
	<node id="-25106" lat="59.6859944468" lon="10.958200005">
		<tag k="name" v="Tjernsli" />
		<tag k="natural" v="slope" />
		<tag k="place" v="locality" />
		<tag k="ssr:stedsnr" v="325800" />
	</node>
	<node id="-23569" lat="59.6961833355" lon="10.9709611185">
		<tag k="fixme" v="consider natural=peak for the most distinct mountains in the district" />
		<tag k="name" v="Mellegårdskula" />
		<tag k="natural" v="hill" />
		<tag k="place" v="locality" />
		<tag k="ssr:stedsnr" v="507830" />
	</node>
	<node id="-23568" lat="59.6891916643" lon="10.9820444359">
		<tag k="fixme" v="consider natural=peak for the most distinct mountains in the district" />
		<tag k="name" v="Lønjedalsåsen" />
		<tag k="natural" v="hill" />
		<tag k="place" v="locality" />
		<tag k="ssr:stedsnr" v="507829" />
	</node>
	<node id="-25478" lat="59.5414555518" lon="10.9303250061">
		<tag k="fixme" v="consider natural=peak for the most distinct mountains in the district" />
		<tag k="name" v="Østensmyråsen" />
		<tag k="natural" v="hill" />
		<tag k="place" v="locality" />
		<tag k="ssr:stedsnr" v="567938" />
	</node>
	<node id="-24078" lat="59.7277861135" lon="11.3149916634">
		<tag k="alt_name" v="Stinjulen" />
		<tag k="fixme" v="consider natural=peak for the most distinct mountains in the district" />
		<tag k="name" v="Steinjulen" />
		<tag k="natural" v="hill" />
		<tag k="place" v="locality" />
		<tag k="ssr:stedsnr" v="914121" />
	</node>
	<node id="-24892" lat="59.6764722207" lon="11.1323916654">
		<tag k="fixme" v="consider natural=peak for the most distinct mountains in the district" />
		<tag k="name" v="Jutulen" />
		<tag k="natural" v="hill" />
		<tag k="place" v="locality" />
		<tag k="ssr:stedsnr" v="204657" />
	</node>
	<node id="-23051" lat="59.735505558" lon="11.3245638979">
		<tag k="name" v="Stikladalen" />
		<tag k="natural" v="valley" />
		<tag k="place" v="locality" />
		<tag k="ssr:stedsnr" v="65111" />
	</node>
	<node id="-23050" lat="59.6910499997" lon="11.3585166618">
		<tag k="alt_name" v="Kamrøyshøgda" />
		<tag k="fixme" v="consider natural=peak for the most distinct mountains in the district" />
		<tag k="name" v="Kamrøysåsen" />
		<tag k="natural" v="hill" />
		<tag k="place" v="locality" />
		<tag k="ssr:stedsnr" v="64844" />
	</node>
	<node id="-25284" lat="59.5950055554" lon="11.3161166605">
		<tag k="fixme" v="consider natural=peak for the most distinct mountains in the district" />
		<tag k="name" v="Jørentvetåsen" />
		<tag k="natural" v="hill" />
		<tag k="place" v="locality" />
		<tag k="ssr:stedsnr" v="387994" />
	</node>
	<node id="-25937" lat="59.6150166657" lon="11.362725007">
		<tag k="fixme" v="consider natural=peak for the most distinct mountains in the district" />
		<tag k="name" v="Jorudåsen" />
		<tag k="natural" v="hill" />
		<tag k="place" v="locality" />
		<tag k="ssr:stedsnr" v="813858" />
	</node>
	<node id="-23558" lat="59.6684861105" lon="11.0139222237">
		<tag k="name" v="Veggerdalen" />
		<tag k="natural" v="valley" />
		<tag k="place" v="locality" />
		<tag k="ssr:stedsnr" v="507759" />
	</node>
	<node id="-25605" lat="59.6908861068" lon="11.3657555515">
		<tag k="alt_name" v="Ørderuddalen" />
		<tag k="name" v="Oldruddalen" />
		<tag k="natural" v="valley" />
		<tag k="place" v="locality" />
		<tag k="ssr:stedsnr" v="610845" />
	</node>
	<node id="-25630" lat="59.6336527756" lon="10.9793499958">
		<tag k="name" v="Ødegården" />
		<tag k="place" v="locality" />
		<tag k="ssr:stedsnr" v="628751" />
	</node>
	<node id="-24657" lat="59.5598416675" lon="11.0063361183">
		<tag k="fixme" v="consider natural=peak for the most distinct mountains in the district" />
		<tag k="name" v="Kattås" />
		<tag k="natural" v="hill" />
		<tag k="place" v="locality" />
		<tag k="ssr:stedsnr" v="125213" />
	</node>
	<node id="-25602" lat="59.6333499993" lon="11.3431500056">
		<tag k="fixme" v="consider natural=peak for the most distinct mountains in the district" />
		<tag k="name" v="Trøgstad varde" />
		<tag k="natural" v="hill" />
		<tag k="place" v="locality" />
		<tag k="ssr:stedsnr" v="610976" />
	</node>
	<node id="-25660" lat="59.6235333363" lon="11.4598194463">
		<tag k="name" v="Svenskelægeret" />
		<tag k="place" v="locality" />
		<tag k="ssr:stedsnr" v="630781" />
	</node>
</osm>
