<?xml version="1.0" encoding="UTF-8"?>
<osm generator="osmapis" version="0.6">
	<node id="-491515" lat="60.7708361144" lon="4.94517499676">
		<tag k="name" v="Blomhaugane" />
		<tag k="natural" v="hill" />
		<tag k="place" v="locality" />
		<tag k="ssr:stedsnr" v="251206" />
	</node>
	<node id="-492026" lat="60.7570833353" lon="4.94427222806">
		<tag k="name" v="Nordra Resest" />
		<tag k="natural" v="ridge" />
		<tag k="place" v="locality" />
		<tag k="ssr:stedsnr" v="955863" />
	</node>
	<node id="-492020" lat="60.7727777776" lon="4.91513611169">
		<tag k="name" v="Leddikhaugen" />
		<tag k="natural" v="hill" />
		<tag k="place" v="locality" />
		<tag k="ssr:stedsnr" v="955241" />
	</node>
	<node id="-492016" lat="60.7594194402" lon="4.97846944735">
		<tag k="name" v="Storhaugen" />
		<tag k="natural" v="hill" />
		<tag k="place" v="locality" />
		<tag k="ssr:stedsnr" v="955216" />
	</node>
	<node id="-492010" lat="60.7984305587" lon="4.91291389408">
		<tag k="name" v="Sætre" />
		<tag k="natural" v="hill" />
		<tag k="place" v="locality" />
		<tag k="ssr:stedsnr" v="935866" />
	</node>
	<node id="-492027" lat="60.7927277747" lon="5.0172555573">
		<tag k="name" v="Storhaugen" />
		<tag k="natural" v="hill" />
		<tag k="place" v="locality" />
		<tag k="ssr:stedsnr" v="955884" />
	</node>
	<node id="-491488" lat="60.7709805548" lon="4.99984443766">
		<tag k="name" v="Grønhaugen" />
		<tag k="natural" v="hill" />
		<tag k="place" v="locality" />
		<tag k="ssr:stedsnr" v="227868" />
	</node>
	<node id="-491486" lat="60.7470027774" lon="4.93945833338">
		<tag k="name" v="Storenyken" />
		<tag k="natural" v="hill" />
		<tag k="place" v="locality" />
		<tag k="ssr:stedsnr" v="226973" />
	</node>
	<node id="-491484" lat="60.7525499988" lon="4.95348055326">
		<tag k="name" v="Grønåsen" />
		<tag k="natural" v="hill" />
		<tag k="place" v="locality" />
		<tag k="ssr:stedsnr" v="226262" />
	</node>
	<node id="-491993" lat="60.8077055576" lon="4.95133055575">
		<tag k="name" v="Vardetua" />
		<tag k="natural" v="hill" />
		<tag k="place" v="locality" />
		<tag k="ssr:stedsnr" v="919036" />
	</node>
	<node id="-491984" lat="60.8252166696" lon="4.81119443921">
		<tag k="name" v="Risselen" />
		<tag k="natural" v="hill" />
		<tag k="place" v="locality" />
		<tag k="ssr:stedsnr" v="918113" />
	</node>
	<node id="-491465" lat="60.7629027791" lon="4.88092777839">
		<tag k="name" v="Knoppsteinen" />
		<tag k="natural" v="hill" />
		<tag k="place" v="locality" />
		<tag k="ssr:stedsnr" v="206837" />
	</node>
	<node id="-491595" lat="60.7911222216" lon="5.00702499117">
		<tag k="name" v="Straumshaugen" />
		<tag k="natural" v="hill" />
		<tag k="place" v="locality" />
		<tag k="ssr:stedsnr" v="470890" />
	</node>
	<node id="-491456" lat="60.7763444487" lon="4.90094722345">
		<tag k="name" v="Jamnhaugen" />
		<tag k="natural" v="hill" />
		<tag k="place" v="locality" />
		<tag k="ssr:stedsnr" v="190227" />
	</node>
	<node id="-491455" lat="60.7786999988" lon="4.8772750085">
		<tag k="name" v="Grønåsen" />
		<tag k="natural" v="hill" />
		<tag k="place" v="locality" />
		<tag k="ssr:stedsnr" v="190224" />
	</node>
	<node id="-491965" lat="60.8198249988" lon="4.81805554772">
		<tag k="name" v="Storhogen" />
		<tag k="natural" v="hill" />
		<tag k="place" v="locality" />
		<tag k="ssr:stedsnr" v="873713" />
	</node>
	<node id="-491439" lat="60.790200003" lon="4.95995833426">
		<tag k="name" v="Storhaugen" />
		<tag k="natural" v="hill" />
		<tag k="place" v="locality" />
		<tag k="ssr:stedsnr" v="190026" />
	</node>
	<node id="-491436" lat="60.8154111116" lon="4.99000277878">
		<tag k="fixme" v="consider natural=peak for the most distinct mountains in the district" />
		<tag k="name" v="Mulen" />
		<tag k="natural" v="hill" />
		<tag k="place" v="locality" />
		<tag k="ssr:stedsnr" v="177658" />
	</node>
	<node id="-491425" lat="60.8159833301" lon="4.88935000058">
		<tag k="name" v="Storhaugen" />
		<tag k="natural" v="hill" />
		<tag k="place" v="locality" />
		<tag k="ssr:stedsnr" v="166897" />
	</node>
	<node id="-491422" lat="60.7851472231" lon="4.98680277907">
		<tag k="fixme" v="consider natural=peak for the most distinct mountains in the district" />
		<tag k="name" v="Jakobsvarden" />
		<tag k="natural" v="hill" />
		<tag k="ssr:stedsnr" v="166874" />
	</node>
	<node id="-491418" lat="60.7427972258" lon="4.95416111382">
		<tag k="name" v="Eggena" />
		<tag k="natural" v="hill" />
		<tag k="place" v="locality" />
		<tag k="ssr:stedsnr" v="166857" />
	</node>
	<node id="-491417" lat="60.7567861088" lon="4.90669999778">
		<tag k="name" v="Kolsihaugen" />
		<tag k="natural" v="hill" />
		<tag k="place" v="locality" />
		<tag k="ssr:stedsnr" v="166849" />
	</node>
	<node id="-491416" lat="60.778294447" lon="4.9872888818">
		<tag k="name" v="Reset" />
		<tag k="natural" v="ridge" />
		<tag k="place" v="locality" />
		<tag k="ssr:stedsnr" v="166843" />
	</node>
	<node id="-491332" lat="60.7789944473" lon="4.98044167307">
		<tag k="name" v="Brekkene" />
		<tag k="natural" v="slope" />
		<tag k="place" v="locality" />
		<tag k="ssr:stedsnr" v="86862" />
	</node>
	<node id="-491922" lat="60.7617861105" lon="4.99935833755">
		<tag k="name" v="Brurebykset" />
		<tag k="place" v="locality" />
		<tag k="ssr:stedsnr" v="833906" />
	</node>
	<node id="-491407" lat="60.7692527785" lon="5.00671387977">
		<tag k="name" v="Skjørhaugen" />
		<tag k="natural" v="hill" />
		<tag k="place" v="locality" />
		<tag k="ssr:stedsnr" v="166222" />
	</node>
	<node id="-491903" lat="60.7679638908" lon="4.95428611094">
		<tag k="name" v="Åsen" />
		<tag k="natural" v="hill" />
		<tag k="place" v="locality" />
		<tag k="ssr:stedsnr" v="797192" />
	</node>
	<node id="-491901" lat="60.759869445" lon="5.02711388388">
		<tag k="name" v="Arehaugen" />
		<tag k="natural" v="hill" />
		<tag k="place" v="locality" />
		<tag k="ssr:stedsnr" v="797166" />
	</node>
	<node id="-491383" lat="60.7927777794" lon="4.88489999857">
		<tag k="name" v="Teindalen" />
		<tag k="natural" v="valley" />
		<tag k="place" v="locality" />
		<tag k="ssr:stedsnr" v="130038" />
	</node>
	<node id="-491382" lat="60.7950944461" lon="4.91627778217">
		<tag k="name" v="Grøndalen" />
		<tag k="natural" v="valley" />
		<tag k="place" v="locality" />
		<tag k="ssr:stedsnr" v="130039" />
	</node>
	<node id="-491378" lat="60.7801499985" lon="4.90461388873">
		<tag k="name" v="Øykedalen" />
		<tag k="natural" v="valley" />
		<tag k="place" v="locality" />
		<tag k="ssr:stedsnr" v="129244" />
	</node>
	<node id="-491887" lat="60.8055888886" lon="4.80213611076">
		<tag k="name" v="Baløyhaugen" />
		<tag k="natural" v="hill" />
		<tag k="place" v="locality" />
		<tag k="ssr:stedsnr" v="773977" />
	</node>
	<node id="-491884" lat="60.8206916685" lon="4.81073056007">
		<tag k="name" v="Ramsberghaugen" />
		<tag k="natural" v="hill" />
		<tag k="place" v="locality" />
		<tag k="ssr:stedsnr" v="773927" />
	</node>
	<node id="-491410" lat="60.7911333362" lon="4.98331666625">
		<tag k="name" v="Grønnapprinden" />
		<tag k="natural" v="ridge" />
		<tag k="place" v="locality" />
		<tag k="ssr:stedsnr" v="166230" />
	</node>
	<node id="-491882" lat="60.8053638898" lon="4.968500007">
		<tag k="name" v="Skarshaugen" />
		<tag k="natural" v="hill" />
		<tag k="place" v="locality" />
		<tag k="ssr:stedsnr" v="773871" />
	</node>
	<node id="-491369" lat="60.7880805532" lon="4.92144166228">
		<tag k="name" v="Smalevarden" />
		<tag k="natural" v="hill" />
		<tag k="place" v="locality" />
		<tag k="ssr:stedsnr" v="129036" />
	</node>
	<node id="-491880" lat="60.76550833" lon="4.94037500012">
		<tag k="name" v="Tverrhaugen" />
		<tag k="natural" v="hill" />
		<tag k="place" v="locality" />
		<tag k="ssr:stedsnr" v="773834" />
	</node>
	<node id="-491875" lat="60.8038472239" lon="4.99863610582">
		<tag k="fixme" v="consider natural=peak for the most distinct mountains in the district" />
		<tag k="name" v="Ekornsåta" />
		<tag k="natural" v="hill" />
		<tag k="ssr:stedsnr" v="772883" />
	</node>
	<node id="-491872" lat="60.8294000016" lon="4.80616388605">
		<tag k="name" v="Gavletua" />
		<tag k="natural" v="hill" />
		<tag k="place" v="locality" />
		<tag k="ssr:stedsnr" v="772831" />
	</node>
	<node id="-491359" lat="60.7532111087" lon="4.91067500021">
		<tag k="name" v="Stallhaugen" />
		<tag k="natural" v="hill" />
		<tag k="place" v="locality" />
		<tag k="ssr:stedsnr" v="105949" />
	</node>
	<node id="-491870" lat="60.7348638874" lon="4.96632222063">
		<tag k="name" v="Straumskletten" />
		<tag k="natural" v="hill" />
		<tag k="place" v="locality" />
		<tag k="ssr:stedsnr" v="772244" />
	</node>
	<node id="-491357" lat="60.8007305575" lon="5.00632499407">
		<tag k="name" v="Hyttena" />
		<tag k="place" v="locality" />
		<tag k="ssr:stedsnr" v="105932" />
	</node>
	<node id="-491356" lat="60.7831333298" lon="4.91855833663">
		<tag k="name" v="Gjerdhaugen" />
		<tag k="natural" v="hill" />
		<tag k="place" v="locality" />
		<tag k="ssr:stedsnr" v="105923" />
	</node>
	<node id="-491353" lat="60.7605305555" lon="4.95480277146">
		<tag k="name" v="Vassdalen" />
		<tag k="natural" v="valley" />
		<tag k="place" v="locality" />
		<tag k="ssr:stedsnr" v="105876" />
	</node>
	<node id="-491748" lat="60.773127782" lon="4.98860277449">
		<tag k="fixme" v="consider natural=peak for the most distinct mountains in the district" />
		<tag k="name" v="Storevarden" />
		<tag k="natural" v="hill" />
		<tag k="ssr:stedsnr" v="651225" />
	</node>
	<node id="-491348" lat="60.8253055556" lon="4.78111945052">
		<tag k="name" v="Svehaugen" />
		<tag k="natural" v="hill" />
		<tag k="place" v="locality" />
		<tag k="ssr:stedsnr" v="105843" />
	</node>
	<node id="-491346" lat="60.762388887" lon="4.93740000707">
		<tag k="name" v="Svehaugen" />
		<tag k="natural" v="hill" />
		<tag k="place" v="locality" />
		<tag k="ssr:stedsnr" v="105276" />
	</node>
	<node id="-491747" lat="60.8127527756" lon="4.99771666401">
		<tag k="name" v="Bøhaugen" />
		<tag k="natural" v="hill" />
		<tag k="place" v="locality" />
		<tag k="ssr:stedsnr" v="651219" />
	</node>
	<node id="-491344" lat="60.7931666682" lon="4.89407499415">
		<tag k="name" v="Sjevikhaugen" />
		<tag k="natural" v="hill" />
		<tag k="place" v="locality" />
		<tag k="ssr:stedsnr" v="105264" />
	</node>
	<node id="-491343" lat="60.7381166677" lon="4.96932777107">
		<tag k="name" v="Tindhaugen" />
		<tag k="natural" v="hill" />
		<tag k="place" v="locality" />
		<tag k="ssr:stedsnr" v="105254" />
	</node>
	<node id="-491342" lat="60.7383777798" lon="4.95145277942">
		<tag k="name" v="Litle Herslaupen" />
		<tag k="natural" v="hill" />
		<tag k="place" v="locality" />
		<tag k="ssr:stedsnr" v="105253" />
	</node>
	<node id="-491341" lat="60.7951916644" lon="4.97331944911">
		<tag k="name" v="Søre Straumhaugen" />
		<tag k="natural" v="hill" />
		<tag k="place" v="locality" />
		<tag k="ssr:stedsnr" v="105251" />
	</node>
	<node id="-491340" lat="60.7931166625" lon="4.91884999657">
		<tag k="name" v="Pytthaugen" />
		<tag k="natural" v="hill" />
		<tag k="place" v="locality" />
		<tag k="ssr:stedsnr" v="105248" />
	</node>
	<node id="-491575" lat="60.7996833296" lon="4.99519166225">
		<tag k="name" v="Skarphaugen" />
		<tag k="natural" v="hill" />
		<tag k="place" v="locality" />
		<tag k="ssr:stedsnr" v="469198" />
	</node>
	<node id="-491847" lat="60.772316668" lon="4.90666111947">
		<tag k="name" v="Resnipa" />
		<tag k="natural" v="hill" />
		<tag k="place" v="locality" />
		<tag k="ssr:stedsnr" v="736260" />
	</node>
	<node id="-491845" lat="60.7743499979" lon="4.88226666843">
		<tag k="name" v="Langbalen" />
		<tag k="natural" v="hill" />
		<tag k="place" v="locality" />
		<tag k="ssr:stedsnr" v="736255" />
	</node>
	<node id="-491844" lat="60.7772916695" lon="4.91617500701">
		<tag k="name" v="Makdalshaugen" />
		<tag k="natural" v="hill" />
		<tag k="place" v="locality" />
		<tag k="ssr:stedsnr" v="736232" />
	</node>
	<node id="-491574" lat="60.8060250035" lon="4.92474166617">
		<tag k="name" v="Vardhaugen" />
		<tag k="natural" v="hill" />
		<tag k="place" v="locality" />
		<tag k="ssr:stedsnr" v="469196" />
	</node>
	<node id="-491314" lat="60.7835500039" lon="4.92892776858">
		<tag k="name" v="Kyrkjehaugen" />
		<tag k="natural" v="hill" />
		<tag k="place" v="locality" />
		<tag k="ssr:stedsnr" v="69225" />
	</node>
	<node id="-491820" lat="60.8214305543" lon="4.81972776913">
		<tag k="name" v="Sjokletten" />
		<tag k="natural" v="hill" />
		<tag k="place" v="locality" />
		<tag k="ssr:stedsnr" v="712944" />
	</node>
	<node id="-491812" lat="60.769297223" lon="4.90321388695">
		<tag k="name" v="Træsbakken" />
		<tag k="natural" v="slope" />
		<tag k="place" v="locality" />
		<tag k="ssr:stedsnr" v="712852" />
	</node>
	<node id="-491295" lat="60.792977782" lon="4.82563889185">
		<tag k="name" v="Skotneshaugen" />
		<tag k="natural" v="hill" />
		<tag k="place" v="locality" />
		<tag k="ssr:stedsnr" v="69057" />
	</node>
	<node id="-491787" lat="60.7542527821" lon="4.93492500687">
		<tag k="name" v="Nonkletten" />
		<tag k="natural" v="hill" />
		<tag k="place" v="locality" />
		<tag k="ssr:stedsnr" v="676157" />
	</node>
	<node id="-491785" lat="60.7554111067" lon="4.92438332612">
		<tag k="name" v="Sømhaugen" />
		<tag k="natural" v="hill" />
		<tag k="place" v="locality" />
		<tag k="ssr:stedsnr" v="676151" />
	</node>
	<node id="-491269" lat="60.759824999" lon="4.9155138914">
		<tag k="name" v="Leitet" />
		<tag k="natural" v="hill" />
		<tag k="place" v="locality" />
		<tag k="ssr:stedsnr" v="44957" />
	</node>
	<node id="-491267" lat="60.8221499986" lon="4.77658056435">
		<tag k="name" v="Ørnhaugane" />
		<tag k="natural" v="hill" />
		<tag k="place" v="locality" />
		<tag k="ssr:stedsnr" v="44931" />
	</node>
	<node id="-491265" lat="60.8041888928" lon="5.01249443509">
		<tag k="name" v="Storospa" />
		<tag k="place" v="locality" />
		<tag k="ssr:stedsnr" v="44902" />
	</node>
	<node id="-491260" lat="60.7520055576" lon="4.9704999953">
		<tag k="name" v="Kvernhushaugane" />
		<tag k="natural" v="hill" />
		<tag k="place" v="locality" />
		<tag k="ssr:stedsnr" v="44251" />
	</node>
	<node id="-491769" lat="60.7933361068" lon="4.94948610812">
		<tag k="name" v="Brattebrekkene" />
		<tag k="natural" v="hill" />
		<tag k="place" v="locality" />
		<tag k="ssr:stedsnr" v="662537" />
	</node>
	<node id="-491869" lat="60.8039055583" lon="5.00827777825">
		<tag k="name" v="Kistehaugane" />
		<tag k="natural" v="hill" />
		<tag k="place" v="locality" />
		<tag k="ssr:stedsnr" v="772220" />
	</node>
	<node id="-491754" lat="60.7364666684" lon="4.95553889755">
		<tag k="name" v="Store Herslaupen" />
		<tag k="natural" v="hill" />
		<tag k="place" v="locality" />
		<tag k="ssr:stedsnr" v="651247" />
	</node>
	<node id="-491236" lat="60.7816527799" lon="4.87748054665">
		<tag k="name" v="Såtene" />
		<tag k="natural" v="hill" />
		<tag k="place" v="locality" />
		<tag k="ssr:stedsnr" v="8248" />
	</node>
	<node id="-491235" lat="60.7605361142" lon="4.93192499048">
		<tag k="name" v="Snapphaugane" />
		<tag k="natural" v="hill" />
		<tag k="place" v="locality" />
		<tag k="ssr:stedsnr" v="8238" />
	</node>
	<node id="-491232" lat="60.7732083357" lon="4.98878888506">
		<tag k="name" v="Stølane" />
		<tag k="natural" v="hill" />
		<tag k="place" v="locality" />
		<tag k="ssr:stedsnr" v="8214" />
	</node>
	<node id="-491209" lat="60.7921388912" lon="4.8184888847">
		<tag k="fixme" v="consider natural=peak for the most distinct mountains in the district" />
		<tag k="name" v="Litlevarden" />
		<tag k="natural" v="hill" />
		<tag k="ssr:stedsnr" v="895989" />
	</node>
	<node id="-491206" lat="60.7534777813" lon="4.99869721733">
		<tag k="name" v="Ospeskarhaugen" />
		<tag k="natural" v="hill" />
		<tag k="place" v="locality" />
		<tag k="ssr:stedsnr" v="895888" />
	</node>
	<node id="-491205" lat="60.7955472216" lon="5.01574166183">
		<tag k="name" v="Litlåsdalen" />
		<tag k="natural" v="valley" />
		<tag k="place" v="locality" />
		<tag k="ssr:stedsnr" v="895885" />
	</node>
	<node id="-491714" lat="60.8001472204" lon="4.91736667438">
		<tag k="name" v="Kansardalen" />
		<tag k="natural" v="valley" />
		<tag k="place" v="locality" />
		<tag k="ssr:stedsnr" v="591894" />
	</node>
	<node id="-491712" lat="60.7478499958" lon="4.96497499202">
		<tag k="name" v="Storehaugen" />
		<tag k="natural" v="hill" />
		<tag k="place" v="locality" />
		<tag k="ssr:stedsnr" v="591859" />
	</node>
	<node id="-491711" lat="60.7537361074" lon="4.98182222649">
		<tag k="name" v="Klubben" />
		<tag k="natural" v="hill" />
		<tag k="place" v="locality" />
		<tag k="ssr:stedsnr" v="590961" />
	</node>
	<node id="-491710" lat="60.7635750033" lon="5.01935277574">
		<tag k="name" v="Kuhalen" />
		<tag k="natural" v="hill" />
		<tag k="place" v="locality" />
		<tag k="ssr:stedsnr" v="590959" />
	</node>
	<node id="-491709" lat="60.7438305558" lon="5.00619721709">
		<tag k="name" v="Store Otrevikshaugen" />
		<tag k="natural" v="hill" />
		<tag k="place" v="locality" />
		<tag k="ssr:stedsnr" v="590955" />
	</node>
	<node id="-491194" lat="60.7603638863" lon="4.98535277628">
		<tag k="name" v="Grindhaugen" />
		<tag k="natural" v="hill" />
		<tag k="place" v="locality" />
		<tag k="ssr:stedsnr" v="894879" />
	</node>
	<node id="-491705" lat="60.7639416694" lon="4.9483916599">
		<tag k="name" v="Brubrekka" />
		<tag k="natural" v="slope" />
		<tag k="place" v="locality" />
		<tag k="ssr:stedsnr" v="590852" />
	</node>
	<node id="-491704" lat="60.7599138931" lon="4.90268610612">
		<tag k="name" v="Stølshaugen" />
		<tag k="natural" v="hill" />
		<tag k="place" v="locality" />
		<tag k="ssr:stedsnr" v="590843" />
	</node>
	<node id="-491703" lat="60.7917833304" lon="4.959983336">
		<tag k="fixme" v="consider natural=peak for the most distinct mountains in the district" />
		<tag k="name" v="Nipa" />
		<tag k="natural" v="hill" />
		<tag k="ssr:stedsnr" v="590839" />
	</node>
	<node id="-491721" lat="60.7888722191" lon="4.88408055761">
		<tag k="name" v="Storenipa" />
		<tag k="natural" v="hill" />
		<tag k="place" v="locality" />
		<tag k="ssr:stedsnr" v="614041" />
	</node>
	<node id="-491700" lat="60.7656222208" lon="4.91699444418">
		<tag k="name" v="Skråhaugen" />
		<tag k="natural" v="hill" />
		<tag k="place" v="locality" />
		<tag k="ssr:stedsnr" v="590256" />
	</node>
	<node id="-491186" lat="60.812219444" lon="5.0085388837">
		<tag k="name" v="Sanddalen" />
		<tag k="natural" v="valley" />
		<tag k="place" v="locality" />
		<tag k="ssr:stedsnr" v="894227" />
	</node>
	<node id="-491179" lat="60.7445638881" lon="5.01351111293">
		<tag k="fixme" v="consider natural=peak for the most distinct mountains in the district" />
		<tag k="name" v="Varden" />
		<tag k="natural" v="hill" />
		<tag k="ssr:stedsnr" v="409867" />
	</node>
	<node id="-491170" lat="60.7803361145" lon="4.90716666306">
		<tag k="name" v="Langedalshaugen" />
		<tag k="natural" v="hill" />
		<tag k="place" v="locality" />
		<tag k="ssr:stedsnr" v="408254" />
	</node>
	<node id="-491166" lat="60.7620027745" lon="5.00430554963">
		<tag k="name" v="Hellhaugen" />
		<tag k="natural" v="hill" />
		<tag k="place" v="locality" />
		<tag k="ssr:stedsnr" v="408223" />
	</node>
	<node id="-491675" lat="60.7863916621" lon="4.97583610651">
		<tag k="name" v="Trasthaugen" />
		<tag k="natural" v="hill" />
		<tag k="place" v="locality" />
		<tag k="ssr:stedsnr" v="554018" />
	</node>
	<node id="-491668" lat="60.7510888902" lon="4.94410277988">
		<tag k="name" v="Oksla" />
		<tag k="natural" v="hill" />
		<tag k="place" v="locality" />
		<tag k="ssr:stedsnr" v="530960" />
	</node>
	<node id="-491150" lat="60.7933861132" lon="4.87687499465">
		<tag k="name" v="Stølshaugen" />
		<tag k="natural" v="hill" />
		<tag k="place" v="locality" />
		<tag k="ssr:stedsnr" v="373036" />
	</node>
	<node id="-491149" lat="60.7964722184" lon="4.98681944893">
		<tag k="name" v="Høgesåta" />
		<tag k="natural" v="hill" />
		<tag k="place" v="locality" />
		<tag k="ssr:stedsnr" v="373007" />
	</node>
	<node id="-491660" lat="60.8107805537" lon="4.98695834251">
		<tag k="name" v="Leirvågsleitet" />
		<tag k="natural" v="slope" />
		<tag k="place" v="locality" />
		<tag k="ssr:stedsnr" v="530885" />
	</node>
	<node id="-491659" lat="60.800961109" lon="4.98208888498">
		<tag k="name" v="Sjågodthaugen" />
		<tag k="natural" v="hill" />
		<tag k="place" v="locality" />
		<tag k="ssr:stedsnr" v="530878" />
	</node>
	<node id="-491657" lat="60.794697219" lon="4.88428610761">
		<tag k="name" v="Midthaugen" />
		<tag k="natural" v="hill" />
		<tag k="place" v="locality" />
		<tag k="ssr:stedsnr" v="530859" />
	</node>
	<node id="-491656" lat="60.7840000007" lon="4.88371943987">
		<tag k="name" v="Høshaugane" />
		<tag k="natural" v="hill" />
		<tag k="place" v="locality" />
		<tag k="ssr:stedsnr" v="530858" />
	</node>
	<node id="-491654" lat="60.7696083323" lon="4.91529443556">
		<tag k="name" v="Slettebakken" />
		<tag k="natural" v="slope" />
		<tag k="place" v="locality" />
		<tag k="ssr:stedsnr" v="530846" />
	</node>
	<node id="-491651" lat="60.7803138917" lon="4.98832221509">
		<tag k="name" v="Geitarhaugen" />
		<tag k="natural" v="hill" />
		<tag k="place" v="locality" />
		<tag k="ssr:stedsnr" v="530844" />
	</node>
	<node id="-491648" lat="60.7497999968" lon="4.92285556101">
		<tag k="name" v="Litlenyken" />
		<tag k="natural" v="hill" />
		<tag k="place" v="locality" />
		<tag k="ssr:stedsnr" v="530282" />
	</node>
	<node id="-491647" lat="60.7877333292" lon="4.89190277885">
		<tag k="name" v="Ørnekulten" />
		<tag k="natural" v="hill" />
		<tag k="place" v="locality" />
		<tag k="ssr:stedsnr" v="530276" />
	</node>
	<node id="-491646" lat="60.741963892" lon="4.97525832839">
		<tag k="fixme" v="consider natural=peak for the most distinct mountains in the district" />
		<tag k="name" v="Nipen" />
		<tag k="natural" v="hill" />
		<tag k="ssr:stedsnr" v="530274" />
	</node>
	<node id="-491642" lat="60.7994055548" lon="5.03243056177">
		<tag k="name" v="Austrerindane" />
		<tag k="natural" v="ridge" />
		<tag k="place" v="locality" />
		<tag k="ssr:stedsnr" v="529958" />
	</node>
	<node id="-491129" lat="60.7624277739" lon="4.91125278088">
		<tag k="name" v="Lia" />
		<tag k="natural" v="slope" />
		<tag k="place" v="locality" />
		<tag k="ssr:stedsnr" v="348933" />
	</node>
	<node id="-491640" lat="60.8067444442" lon="5.00871945022">
		<tag k="name" v="Høghaugane" />
		<tag k="natural" v="hill" />
		<tag k="place" v="locality" />
		<tag k="ssr:stedsnr" v="529900" />
	</node>
	<node id="-491122" lat="60.8243194477" lon="4.86860555813">
		<tag k="name" v="Storhaugen" />
		<tag k="natural" v="hill" />
		<tag k="place" v="locality" />
		<tag k="ssr:stedsnr" v="348802" />
	</node>
	<node id="-491627" lat="60.787161113" lon="4.86587221441">
		<tag k="name" v="Orrhøyen" />
		<tag k="natural" v="hill" />
		<tag k="place" v="locality" />
		<tag k="ssr:stedsnr" v="510881" />
	</node>
	<node id="-491113" lat="60.7661611089" lon="5.00229722444">
		<tag k="name" v="Ryggen" />
		<tag k="natural" v="ridge" />
		<tag k="place" v="locality" />
		<tag k="ssr:stedsnr" v="347911" />
	</node>
	<node id="-492001" lat="60.7649777778" lon="4.9307555512">
		<tag k="name" v="Trollåsane" />
		<tag k="natural" v="hill" />
		<tag k="place" v="locality" />
		<tag k="ssr:stedsnr" v="919195" />
	</node>
	<node id="-491706" lat="60.7953222244" lon="4.95392222812">
		<tag k="name" v="Stølshaugen" />
		<tag k="natural" v="hill" />
		<tag k="place" v="locality" />
		<tag k="ssr:stedsnr" v="590865" />
	</node>
	<node id="-491610" lat="60.7946277751" lon="5.03251944906">
		<tag k="fixme" v="consider natural=peak for the most distinct mountains in the district" />
		<tag k="name" v="Litlåsfjellet" />
		<tag k="natural" v="hill" />
		<tag k="place" v="locality" />
		<tag k="ssr:stedsnr" v="494010" />
	</node>
	<node id="-491096" lat="60.7774777773" lon="4.9426305631">
		<tag k="name" v="Stonghaugen" />
		<tag k="natural" v="hill" />
		<tag k="place" v="locality" />
		<tag k="ssr:stedsnr" v="312218" />
	</node>
	<node id="-491089" lat="60.7565361148" lon="4.97105554617">
		<tag k="name" v="Fugletuene" />
		<tag k="natural" v="hill" />
		<tag k="place" v="locality" />
		<tag k="ssr:stedsnr" v="312148" />
	</node>
	<node id="-491600" lat="60.789513892" lon="4.82200832458">
		<tag k="fixme" v="consider natural=peak for the most distinct mountains in the district" />
		<tag k="name" v="Storevarden" />
		<tag k="natural" v="hill" />
		<tag k="ssr:stedsnr" v="470993" />
	</node>
	<node id="-491596" lat="60.7987777789" lon="4.96263332635">
		<tag k="name" v="Arihamrane" />
		<tag k="natural" v="ridge" />
		<tag k="place" v="locality" />
		<tag k="ssr:stedsnr" v="470897" />
	</node>
	<node id="-491083" lat="60.7993500006" lon="4.91602777201">
		<tag k="name" v="Kviteberget" />
		<tag k="natural" v="hill" />
		<tag k="place" v="locality" />
		<tag k="ssr:stedsnr" v="312019" />
	</node>
	<node id="-491594" lat="60.7790138887" lon="4.92980277004">
		<tag k="fixme" v="consider natural=peak for the most distinct mountains in the district" />
		<tag k="name" v="Storenipa" />
		<tag k="natural" v="hill" />
		<tag k="ssr:stedsnr" v="470879" />
	</node>
	<node id="-491589" lat="60.8184861086" lon="4.81980554986">
		<tag k="name" v="Nordre Harhaugen" />
		<tag k="natural" v="hill" />
		<tag k="place" v="locality" />
		<tag k="ssr:stedsnr" v="469949" />
	</node>
	<node id="-491584" lat="60.7559722207" lon="4.94970556426">
		<tag k="name" v="Søra Reset" />
		<tag k="natural" v="ridge" />
		<tag k="place" v="locality" />
		<tag k="ssr:stedsnr" v="469908" />
	</node>
	<node id="-491581" lat="60.7761444484" lon="4.95234166901">
		<tag k="name" v="Eldrihaugen" />
		<tag k="natural" v="hill" />
		<tag k="place" v="locality" />
		<tag k="ssr:stedsnr" v="469853" />
	</node>
	<node id="-491578" lat="60.7672472218" lon="4.90703055564">
		<tag k="name" v="Juberget" />
		<tag k="natural" v="hill" />
		<tag k="place" v="locality" />
		<tag k="ssr:stedsnr" v="469235" />
	</node>
	<node id="-491576" lat="60.8090722216" lon="5.00355000689">
		<tag k="name" v="Søre Leirvågsdalen" />
		<tag k="natural" v="valley" />
		<tag k="place" v="locality" />
		<tag k="ssr:stedsnr" v="469199" />
	</node>
	<node id="-491063" lat="60.797475002" lon="4.97814722267">
		<tag k="name" v="Krossen" />
		<tag k="place" v="locality" />
		<tag k="ssr:stedsnr" v="288895" />
	</node>
	<node id="-491062" lat="60.7462500013" lon="4.99814444609">
		<tag k="name" v="Stakken" />
		<tag k="place" v="locality" />
		<tag k="ssr:stedsnr" v="288888" />
	</node>
	<node id="-491059" lat="60.762255557" lon="4.88491666329">
		<tag k="name" v="Stølshaugen" />
		<tag k="natural" v="hill" />
		<tag k="place" v="locality" />
		<tag k="ssr:stedsnr" v="287966" />
	</node>
	<node id="-491053" lat="60.814352777" lon="5.00301943653">
		<tag k="fixme" v="consider natural=peak for the most distinct mountains in the district" />
		<tag k="name" v="Salessåta" />
		<tag k="natural" v="hill" />
		<tag k="ssr:stedsnr" v="287869" />
	</node>
	<node id="-491052" lat="60.7836527808" lon="4.96809166715">
		<tag k="name" v="Ingridhaugen" />
		<tag k="natural" v="hill" />
		<tag k="place" v="locality" />
		<tag k="ssr:stedsnr" v="287866" />
	</node>
	<node id="-491048" lat="60.7404638856" lon="4.95618610809">
		<tag k="name" v="Bjørkhaugen" />
		<tag k="natural" v="hill" />
		<tag k="place" v="locality" />
		<tag k="ssr:stedsnr" v="287261" />
	</node>
	<node id="-491047" lat="60.7989111101" lon="4.98511389168">
		<tag k="fixme" v="consider natural=peak for the most distinct mountains in the district" />
		<tag k="name" v="Kråkesåta" />
		<tag k="natural" v="hill" />
		<tag k="ssr:stedsnr" v="287240" />
	</node>
	<node id="-491046" lat="60.8077166681" lon="4.92476110596">
		<tag k="name" v="Ærhaugen" />
		<tag k="natural" v="hill" />
		<tag k="place" v="locality" />
		<tag k="ssr:stedsnr" v="287237" />
	</node>
	<node id="-491045" lat="60.7951166638" lon="5.00696665946">
		<tag k="name" v="Høljedalshaugen" />
		<tag k="natural" v="hill" />
		<tag k="place" v="locality" />
		<tag k="ssr:stedsnr" v="287232" />
	</node>
	<node id="-491554" lat="60.7734694417" lon="4.89802500121">
		<tag k="name" v="Breivikvarden" />
		<tag k="natural" v="hill" />
		<tag k="place" v="locality" />
		<tag k="ssr:stedsnr" v="433232" />
	</node>
	<node id="-491608" lat="60.782577775" lon="4.86222777952">
		<tag k="name" v="Nonkletten" />
		<tag k="natural" v="hill" />
		<tag k="place" v="locality" />
		<tag k="ssr:stedsnr" v="493226" />
	</node>
	<node id="-492034" lat="60.7507638903" lon="4.91638333686">
		<tag k="name" v="Juvikhaugen" />
		<tag k="natural" v="hill" />
		<tag k="place" v="locality" />
		<tag k="ssr:stedsnr" v="955978" />
	</node>
	<node id="-491489" lat="60.7482444404" lon="5.00193055223">
		<tag k="name" v="Kjosevikhaugen" />
		<tag k="natural" v="hill" />
		<tag k="place" v="locality" />
		<tag k="ssr:stedsnr" v="227871" />
	</node>
</osm>
