<?xml version="1.0" encoding="UTF-8"?>
<osm generator="osmapis" version="0.6">
	<node id="-490496" lat="60.8063527784" lon="4.98293888038">
		<tag k="name" v="Fonnes" />
		<tag k="place" v="farm" />
		<tag k="ssr:stedsnr" v="327350" />
	</node>
	<node id="-490495" lat="60.7959527738" lon="4.94998889371">
		<tag k="name" v="Utkilen" />
		<tag k="place" v="farm" />
		<tag k="ssr:stedsnr" v="327347" />
	</node>
	<node id="-490494" lat="60.7815277823" lon="4.97290000179">
		<tag k="name" v="Synnevågen" />
		<tag k="place" v="farm" />
		<tag k="ssr:stedsnr" v="327340" />
	</node>
	<node id="-491003" lat="60.7949172733" lon="4.94925228415">
		<tag k="fixme" v="consider place=hamlet" />
		<tag k="name" v="Utkilen" />
		<tag k="place" v="farm" />
		<tag k="ssr:stedsnr" v="494015" />
	</node>
	<node id="-490997" lat="60.7750549386" lon="4.94335337904">
		<tag k="fixme" v="consider place=hamlet" />
		<tag k="name" v="Leikvoll" />
		<tag k="place" v="farm" />
		<tag k="ssr:stedsnr" v="493194" />
	</node>
	<node id="-490962" lat="60.7859388872" lon="4.86835556154">
		<tag k="name" v="Rebnor" />
		<tag k="place" v="farm" />
		<tag k="ssr:stedsnr" v="451774" />
	</node>
	<node id="-490960" lat="60.7972812069" lon="4.86401758416">
		<tag k="fixme" v="consider place=hamlet" />
		<tag k="name" v="Øksneset" />
		<tag k="place" v="farm" />
		<tag k="ssr:stedsnr" v="451649" />
	</node>
	<node id="-490958" lat="60.8130555597" lon="4.80329167197">
		<tag k="name" v="Krossøyna" />
		<tag k="place" v="farm" />
		<tag k="ssr:stedsnr" v="450631" />
	</node>
	<node id="-490957" lat="60.7555333369" lon="4.92274444626">
		<tag k="name" v="Hopland" />
		<tag k="place" v="farm" />
		<tag k="ssr:stedsnr" v="450530" />
	</node>
	<node id="-490955" lat="60.8060361079" lon="4.9224861091">
		<tag k="name" v="Ulvøyna" />
		<tag k="place" v="farm" />
		<tag k="ssr:stedsnr" v="450440" />
	</node>
	<node id="-490953" lat="60.8007888879" lon="4.97087222404">
		<tag k="name" v="Fonnes" />
		<tag k="place" v="farm" />
		<tag k="ssr:stedsnr" v="449347" />
	</node>
	<node id="-490439" lat="60.7645055572" lon="4.91822778192">
		<tag k="name" v="Austrheim" />
		<tag k="place" v="farm" />
		<tag k="ssr:stedsnr" v="269782" />
	</node>
	<node id="-490438" lat="60.7602204628" lon="4.91498115304">
		<tag k="fixme" v="consider place=hamlet" />
		<tag k="name" v="Austrheim" />
		<tag k="place" v="farm" />
		<tag k="ssr:stedsnr" v="269781" />
	</node>
	<node id="-490437" lat="60.7855861081" lon="4.87211388225">
		<tag k="name" v="Rebnor" />
		<tag k="place" v="farm" />
		<tag k="ssr:stedsnr" v="269775" />
	</node>
	<node id="-490436" lat="60.7627222223" lon="4.90157777699">
		<tag k="name" v="Bergsvika" />
		<tag k="place" v="farm" />
		<tag k="ssr:stedsnr" v="269768" />
	</node>
	<node id="-490943" lat="60.7603249985" lon="4.90609999312">
		<tag k="name" v="Brekka" />
		<tag k="place" v="farm" />
		<tag k="ssr:stedsnr" v="433208" />
	</node>
	<node id="-491436" lat="60.783413887" lon="4.93235277138">
		<tag k="name" v="Austrheimparken" />
		<tag k="place" v="square" />
		<tag k="ssr:stedsnr" v="970640" />
	</node>
	<node id="-490916" lat="60.7737222204" lon="4.94480832735">
		<tag k="name" v="Leikvoll" />
		<tag k="place" v="farm" />
		<tag k="ssr:stedsnr" v="268453" />
	</node>
	<node id="-490915" lat="60.7966480004" lon="5.02249196588">
		<tag k="fixme" v="consider place=hamlet" />
		<tag k="name" v="Litlås" />
		<tag k="place" v="farm" />
		<tag k="ssr:stedsnr" v="268355" />
	</node>
	<node id="-490914" lat="60.8135750036" lon="4.99829721657">
		<tag k="name" v="Leirvågen" />
		<tag k="place" v="farm" />
		<tag k="ssr:stedsnr" v="268353" />
	</node>
	<node id="-490909" lat="60.7642553959" lon="4.95149163641">
		<tag k="fixme" v="consider place=hamlet" />
		<tag k="name" v="Solend" />
		<tag k="place" v="farm" />
		<tag k="ssr:stedsnr" v="251230" />
	</node>
	<node id="-490507" lat="60.7651916695" lon="4.95412778053">
		<tag k="name" v="Solend" />
		<tag k="place" v="farm" />
		<tag k="ssr:stedsnr" v="329484" />
	</node>
	<node id="-490896" lat="60.7901600371" lon="4.92634120312">
		<tag k="fixme" v="consider place=hamlet" />
		<tag k="name" v="Sætre" />
		<tag k="place" v="farm" />
		<tag k="ssr:stedsnr" v="251027" />
	</node>
	<node id="-491406" lat="60.7871083345" lon="4.92802222075">
		<tag k="name" v="Sætre" />
		<tag k="place" v="farm" />
		<tag k="ssr:stedsnr" v="936473" />
	</node>
	<node id="-491405" lat="60.7951916691" lon="4.92547777308">
		<tag k="name" v="Budalen" />
		<tag k="place" v="farm" />
		<tag k="ssr:stedsnr" v="936447" />
	</node>
	<node id="-491401" lat="60.7522944462" lon="4.91541388872">
		<tag k="name" v="Hopland" />
		<tag k="place" v="farm" />
		<tag k="ssr:stedsnr" v="935510" />
	</node>
	<node id="-491400" lat="60.7601027789" lon="4.98295833272">
		<tag k="name" v="Nordre Njøta" />
		<tag k="place" v="farm" />
		<tag k="ssr:stedsnr" v="934414" />
	</node>
	<node id="-491399" lat="60.7494583315" lon="4.992080562">
		<tag k="name" v="Søre Njøta" />
		<tag k="place" v="farm" />
		<tag k="ssr:stedsnr" v="934413" />
	</node>
	<node id="-491398" lat="60.8041055567" lon="4.9836749971">
		<tag k="name" v="Fonnes" />
		<tag k="place" v="farm" />
		<tag k="ssr:stedsnr" v="934332" />
	</node>
	<node id="-491397" lat="60.821694448" lon="4.81835832664">
		<tag k="name" v="Krossøyna" />
		<tag k="place" v="farm" />
		<tag k="ssr:stedsnr" v="935617" />
	</node>
	<node id="-491396" lat="60.8215293384" lon="4.7829906394">
		<tag k="fixme" v="consider place=hamlet" />
		<tag k="name" v="Rongeværet" />
		<tag k="place" v="farm" />
		<tag k="ssr:stedsnr" v="935613" />
	</node>
	<node id="-490645" lat="60.7863250034" lon="4.86936944098">
		<tag k="name" v="Rebnor" />
		<tag k="place" v="farm" />
		<tag k="ssr:stedsnr" v="26718" />
	</node>
	<node id="-491385" lat="60.8042166631" lon="4.97962778614">
		<tag k="name" v="Fonnes" />
		<tag k="place" v="farm" />
		<tag k="ssr:stedsnr" v="918988" />
	</node>
	<node id="-490870" lat="60.7603750008" lon="4.91145834085">
		<tag k="name" v="Bergsvika" />
		<tag k="place" v="farm" />
		<tag k="ssr:stedsnr" v="208764" />
	</node>
	<node id="-490869" lat="60.784822218" lon="4.86876389328">
		<tag k="name" v="Rebnor" />
		<tag k="place" v="farm" />
		<tag k="ssr:stedsnr" v="208758" />
	</node>
	<node id="-490868" lat="60.7876551739" lon="4.86621882776">
		<tag k="fixme" v="consider place=hamlet" />
		<tag k="name" v="Rebnor" />
		<tag k="place" v="farm" />
		<tag k="ssr:stedsnr" v="208754" />
	</node>
	<node id="-490643" lat="60.822266665" lon="4.78421943759">
		<tag k="name" v="Rongeværet" />
		<tag k="place" v="farm" />
		<tag k="ssr:stedsnr" v="25656" />
	</node>
	<node id="-491375" lat="60.7865555548" lon="4.93748888293">
		<tag k="fixme" v="consider place=suburb, village or hamlet" />
		<tag k="name" v="Mastrevikane" />
		<tag k="place" v="quarter" />
		<tag k="ssr:stedsnr" v="918021" />
	</node>
	<node id="-491374" lat="60.7549277734" lon="4.91271388957">
		<tag k="name" v="Marka" />
		<tag k="place" v="farm" />
		<tag k="ssr:stedsnr" v="880135" />
	</node>
	<node id="-490861" lat="60.7569944399" lon="4.92364721829">
		<tag k="name" v="Hopland" />
		<tag k="place" v="farm" />
		<tag k="ssr:stedsnr" v="207480" />
	</node>
	<node id="-491372" lat="60.7664111106" lon="4.94940833524">
		<tag k="name" v="Solend" />
		<tag k="place" v="farm" />
		<tag k="ssr:stedsnr" v="875481" />
	</node>
	<node id="-491371" lat="60.791463886" lon="4.92294721807">
		<tag k="name" v="Sætre" />
		<tag k="place" v="farm" />
		<tag k="ssr:stedsnr" v="875468" />
	</node>
	<node id="-491370" lat="60.7636527819" lon="4.9395583383">
		<tag k="name" v="Førland" />
		<tag k="place" v="farm" />
		<tag k="ssr:stedsnr" v="875459" />
	</node>
	<node id="-491369" lat="60.8039438004" lon="4.92885029346">
		<tag k="fixme" v="consider place=hamlet" />
		<tag k="name" v="Ulvøyna" />
		<tag k="place" v="farm" />
		<tag k="ssr:stedsnr" v="875450" />
	</node>
	<node id="-491368" lat="60.7950277748" lon="4.93148888529">
		<tag k="name" v="Budalen" />
		<tag k="place" v="farm" />
		<tag k="ssr:stedsnr" v="875445" />
	</node>
	<node id="-491367" lat="60.7627861071" lon="4.9111888985">
		<tag k="name" v="Austrheim" />
		<tag k="place" v="farm" />
		<tag k="ssr:stedsnr" v="875731" />
	</node>
	<node id="-491366" lat="60.7638749966" lon="4.88645278317">
		<tag k="name" v="Lerøyna" />
		<tag k="place" v="farm" />
		<tag k="ssr:stedsnr" v="875716" />
	</node>
	<node id="-491364" lat="60.8031632611" lon="4.81191794679">
		<tag k="fixme" v="consider place=hamlet" />
		<tag k="name" v="Sævrøyna" />
		<tag k="place" v="farm" />
		<tag k="ssr:stedsnr" v="874644" />
	</node>
	<node id="-491363" lat="60.7581444435" lon="4.98265555027">
		<tag k="name" v="Nordre Njøta" />
		<tag k="place" v="farm" />
		<tag k="ssr:stedsnr" v="874473" />
	</node>
	<node id="-491362" lat="60.78276667" lon="4.97423333221">
		<tag k="name" v="Synnevågen" />
		<tag k="place" v="farm" />
		<tag k="ssr:stedsnr" v="874378" />
	</node>
	<node id="-491361" lat="60.7967555568" lon="4.94950278051">
		<tag k="name" v="Utkilen" />
		<tag k="place" v="farm" />
		<tag k="ssr:stedsnr" v="874375" />
	</node>
	<node id="-491360" lat="60.7995000035" lon="4.99933054765">
		<tag k="name" v="Kaland" />
		<tag k="place" v="farm" />
		<tag k="ssr:stedsnr" v="874365" />
	</node>
	<node id="-490845" lat="60.7528305521" lon="4.94995000519">
		<tag k="name" v="Solvang" />
		<tag k="place" v="farm" />
		<tag k="ssr:stedsnr" v="190163" />
	</node>
	<node id="-491356" lat="60.7666916669" lon="4.90515833262">
		<tag k="name" v="Neset" />
		<tag k="place" v="farm" />
		<tag k="ssr:stedsnr" v="858246" />
	</node>
	<node id="-491354" lat="60.7770742863" lon="4.93461489142">
		<tag k="fixme" v="consider place=hamlet" />
		<tag k="name" v="Årås" />
		<tag k="place" v="farm" />
		<tag k="ssr:stedsnr" v="858230" />
	</node>
	<node id="-491352" lat="60.7635527803" lon="4.95730555794">
		<tag k="name" v="Solheim" />
		<tag k="place" v="farm" />
		<tag k="ssr:stedsnr" v="858218" />
	</node>
	<node id="-490724" lat="60.7955972218" lon="4.86426944886">
		<tag k="name" v="Øksneset" />
		<tag k="place" v="farm" />
		<tag k="ssr:stedsnr" v="87639" />
	</node>
	<node id="-491341" lat="60.7973750014" lon="5.01865555933">
		<tag k="alt_name" v="Åse" />
		<tag k="name" v="Litlås" />
		<tag k="place" v="farm" />
		<tag k="ssr:stedsnr" v="858023" />
	</node>
	<node id="-491339" lat="60.8036463615" lon="4.97919391105">
		<tag k="fixme" v="consider place=hamlet" />
		<tag k="name" v="Fonnes" />
		<tag k="place" v="farm" />
		<tag k="ssr:stedsnr" v="858017" />
	</node>
	<node id="-491331" lat="60.7964250019" lon="5.02271944869">
		<tag k="name" v="Litlås" />
		<tag k="place" v="farm" />
		<tag k="ssr:stedsnr" v="834959" />
	</node>
	<node id="-490720" lat="60.7896388912" lon="4.93101665779">
		<tag k="name" v="Sætre" />
		<tag k="place" v="farm" />
		<tag k="ssr:stedsnr" v="86467" />
	</node>
	<node id="-491321" lat="60.7594444477" lon="4.94816111805">
		<tag k="name" v="Ørnetua" />
		<tag k="place" v="farm" />
		<tag k="ssr:stedsnr" v="834855" />
	</node>
	<node id="-491313" lat="60.7606583308" lon="4.90058611978">
		<tag k="name" v="Bergsvika" />
		<tag k="place" v="farm" />
		<tag k="ssr:stedsnr" v="815752" />
	</node>
	<node id="-490800" lat="60.7972944438" lon="4.95398055422">
		<tag k="name" v="Utkilen" />
		<tag k="place" v="farm" />
		<tag k="ssr:stedsnr" v="166227" />
	</node>
	<node id="-490612" lat="60.8090026888" lon="4.83286847429">
		<tag k="fixme" v="consider place=hamlet" />
		<tag k="name" v="Langøyna" />
		<tag k="place" v="farm" />
		<tag k="ssr:stedsnr" v="267582" />
	</node>
	<node id="-491308" lat="60.7822333319" lon="4.94614721502">
		<tag k="name" v="Vikane" />
		<tag k="place" v="farm" />
		<tag k="ssr:stedsnr" v="814480" />
	</node>
	<node id="-490795" lat="60.7959361142" lon="4.86414721945">
		<tag k="name" v="Øksneset" />
		<tag k="place" v="farm" />
		<tag k="ssr:stedsnr" v="147612" />
	</node>
	<node id="-491306" lat="60.8038111076" lon="4.98041389183">
		<tag k="name" v="Fonnes" />
		<tag k="place" v="farm" />
		<tag k="ssr:stedsnr" v="813325" />
	</node>
	<node id="-490801" lat="60.7986861136" lon="4.93542221395">
		<tag k="name" v="Kilstraumen" />
		<tag k="place" v="farm" />
		<tag k="ssr:stedsnr" v="166226" />
	</node>
	<node id="-491301" lat="60.7774083351" lon="4.93274166063">
		<tag k="fixme" v="consider place=suburb, village or hamlet" />
		<tag k="name" v="Årås" />
		<tag k="place" v="quarter" />
		<tag k="ssr:stedsnr" v="797224" />
	</node>
	<node id="-490788" lat="60.7741749988" lon="4.94315833538">
		<tag k="name" v="Leikvoll" />
		<tag k="place" v="farm" />
		<tag k="ssr:stedsnr" v="146413" />
	</node>
	<node id="-491299" lat="60.7645575694" lon="5.00022558539">
		<tag k="fixme" v="consider place=hamlet" />
		<tag k="name" v="Monslaupen" />
		<tag k="place" v="farm" />
		<tag k="ssr:stedsnr" v="797216" />
	</node>
	<node id="-490786" lat="60.8077555543" lon="4.92301388826">
		<tag k="name" v="Ulvøyna" />
		<tag k="place" v="farm" />
		<tag k="ssr:stedsnr" v="146403" />
	</node>
	<node id="-490785" lat="60.7742472182" lon="4.93974165901">
		<tag k="name" v="Leikvoll" />
		<tag k="place" v="farm" />
		<tag k="ssr:stedsnr" v="268491" />
	</node>
	<node id="-490784" lat="60.7674083361" lon="4.95631111863">
		<tag k="name" v="Solend" />
		<tag k="place" v="farm" />
		<tag k="ssr:stedsnr" v="268487" />
	</node>
	<node id="-490783" lat="60.7880694419" lon="4.94108055694">
		<tag k="name" v="Sætre" />
		<tag k="place" v="farm" />
		<tag k="ssr:stedsnr" v="268468" />
	</node>
	<node id="-490782" lat="60.7873249982" lon="4.93873610966">
		<tag k="name" v="Sætre" />
		<tag k="place" v="farm" />
		<tag k="ssr:stedsnr" v="268466" />
	</node>
	<node id="-490781" lat="60.7739663395" lon="4.87566132231">
		<tag k="fixme" v="consider place=hamlet" />
		<tag k="name" v="Dyrneset" />
		<tag k="place" v="farm" />
		<tag k="ssr:stedsnr" v="130225" />
	</node>
	<node id="-490777" lat="60.7661805525" lon="4.96208889172">
		<tag k="name" v="Solesjøen" />
		<tag k="place" v="isolated_dwelling" />
		<tag k="ssr:stedsnr" v="130184" />
	</node>
	<node id="-490771" lat="60.7805603359" lon="4.94782014279">
		<tag k="fixme" v="consider place=hamlet" />
		<tag k="name" v="Vikane" />
		<tag k="place" v="farm" />
		<tag k="ssr:stedsnr" v="129249" />
	</node>
	<node id="-490767" lat="60.7832850942" lon="4.97444673795">
		<tag k="fixme" v="consider place=hamlet" />
		<tag k="name" v="Synnevågen" />
		<tag k="place" v="farm" />
		<tag k="ssr:stedsnr" v="129255" />
	</node>
	<node id="-490506" lat="60.7887027812" lon="4.92660554981">
		<tag k="name" v="Sætre" />
		<tag k="place" v="farm" />
		<tag k="ssr:stedsnr" v="329461" />
	</node>
	<node id="-491270" lat="60.8100305539" lon="5.00183056143">
		<tag k="name" v="Stølen" />
		<tag k="place" v="farm" />
		<tag k="ssr:stedsnr" v="772906" />
	</node>
	<node id="-490757" lat="60.7834416639" lon="4.9317972213">
		<tag k="name" v="Samuel Lervågs plass" />
		<tag k="place" v="square" />
		<tag k="ssr:stedsnr" v="121409" />
	</node>
	<node id="-491265" lat="60.7699416706" lon="4.9317138841">
		<tag k="name" v="Hjertås" />
		<tag k="place" v="farm" />
		<tag k="ssr:stedsnr" v="772260" />
	</node>
	<node id="-491261" lat="60.7605722257" lon="4.90734166822">
		<tag k="name" v="Bergsvika" />
		<tag k="place" v="farm" />
		<tag k="ssr:stedsnr" v="754736" />
	</node>
	<node id="-491259" lat="60.8079722223" lon="4.91097777302">
		<tag k="name" v="Kvalvågen" />
		<tag k="place" v="hamlet" />
		<tag k="ssr:stedsnr" v="753869" />
	</node>
	<node id="-491255" lat="60.8208808467" lon="4.81706484252">
		<tag k="fixme" v="consider place=hamlet" />
		<tag k="name" v="Krossøyna" />
		<tag k="place" v="farm" />
		<tag k="ssr:stedsnr" v="753583" />
	</node>
	<node id="-491252" lat="60.7748722185" lon="5.0017555538">
		<tag k="name" v="Straumstad" />
		<tag k="place" v="farm" />
		<tag k="ssr:stedsnr" v="752335" />
	</node>
	<node id="-490622" lat="60.7560944455" lon="4.91506943938">
		<tag k="name" v="Bakken" />
		<tag k="place" v="farm" />
		<tag k="ssr:stedsnr" v="8171" />
	</node>
	<node id="-491246" lat="60.8030138864" lon="4.97980000081">
		<tag k="fixme" v="consider place=suburb, village or hamlet" />
		<tag k="name" v="Fonnes" />
		<tag k="place" v="quarter" />
		<tag k="ssr:stedsnr" v="737024" />
	</node>
	<node id="-491245" lat="60.7937686938" lon="4.92582468965">
		<tag k="fixme" v="consider place=hamlet" />
		<tag k="name" v="Budalen" />
		<tag k="place" v="farm" />
		<tag k="ssr:stedsnr" v="737010" />
	</node>
	<node id="-490725" lat="60.7613694461" lon="4.91659445018">
		<tag k="name" v="Austrheim" />
		<tag k="place" v="farm" />
		<tag k="ssr:stedsnr" v="87760" />
	</node>
	<node id="-491236" lat="60.7669888873" lon="4.94755554956">
		<tag k="name" v="Rabben" />
		<tag k="place" v="farm" />
		<tag k="ssr:stedsnr" v="736228" />
	</node>
	<node id="-490721" lat="60.7502277817" lon="4.91818333493">
		<tag k="name" v="Hopland" />
		<tag k="place" v="farm" />
		<tag k="ssr:stedsnr" v="86534" />
	</node>
	<node id="-491232" lat="60.769281047" lon="4.93527629658">
		<tag k="fixme" v="consider place=hamlet" />
		<tag k="name" v="Hjertås" />
		<tag k="place" v="farm" />
		<tag k="ssr:stedsnr" v="736201" />
	</node>
	<node id="-490719" lat="60.7830638873" lon="4.94465000425">
		<tag k="name" v="Vikane" />
		<tag k="place" v="farm" />
		<tag k="ssr:stedsnr" v="86457" />
	</node>
	<node id="-490718" lat="60.7462472184" lon="4.96090278374">
		<tag k="name" v="Litlelindås" />
		<tag k="place" v="farm" />
		<tag k="ssr:stedsnr" v="86450" />
	</node>
	<node id="-490716" lat="60.8141166705" lon="4.80622778388">
		<tag k="name" v="Krossøyna" />
		<tag k="place" v="farm" />
		<tag k="ssr:stedsnr" v="85528" />
	</node>
	<node id="-490715" lat="60.7655277771" lon="4.94573332509">
		<tag k="name" v="Solend" />
		<tag k="place" v="farm" />
		<tag k="ssr:stedsnr" v="85373" />
	</node>
	<node id="-490714" lat="60.7984361148" lon="4.9976194481">
		<tag k="name" v="Kaland" />
		<tag k="place" v="farm" />
		<tag k="ssr:stedsnr" v="85284" />
	</node>
	<node id="-490713" lat="60.7930861156" lon="5.02521389341">
		<tag k="name" v="Litlås" />
		<tag k="place" v="farm" />
		<tag k="ssr:stedsnr" v="85282" />
	</node>
	<node id="-490446" lat="60.7524222224" lon="4.91587500727">
		<tag k="name" v="Hopland" />
		<tag k="place" v="farm" />
		<tag k="ssr:stedsnr" v="287269" />
	</node>
	<node id="-490787" lat="60.7457194474" lon="4.96889722347">
		<tag k="name" v="Litlelindås" />
		<tag k="place" v="farm" />
		<tag k="ssr:stedsnr" v="146407" />
	</node>
	<node id="-490704" lat="60.7618446029" lon="4.89056077653">
		<tag k="fixme" v="consider place=hamlet" />
		<tag k="name" v="Lerøyna" />
		<tag k="place" v="farm" />
		<tag k="ssr:stedsnr" v="69207" />
	</node>
	<node id="-490702" lat="60.7702000008" lon="4.93330832774">
		<tag k="name" v="Slettebakken" />
		<tag k="place" v="isolated_dwelling" />
		<tag k="ssr:stedsnr" v="69200" />
	</node>
	<node id="-490700" lat="60.75489444" lon="4.91511944251">
		<tag k="name" v="Marka" />
		<tag k="place" v="farm" />
		<tag k="ssr:stedsnr" v="69169" />
	</node>
	<node id="-491207" lat="60.7746250004" lon="4.92499166249">
		<tag k="leisure" v="pitch" />
		<tag k="name" v="Idrettsplass" />
		<tag k="ssr:stedsnr" v="712855" />
	</node>
	<node id="-491198" lat="60.7591749984" lon="4.919205552">
		<tag k="name" v="Austrheim" />
		<tag k="place" v="farm" />
		<tag k="ssr:stedsnr" v="693755" />
	</node>
	<node id="-491197" lat="60.758411113" lon="4.91075832954">
		<tag k="name" v="Bergsvika" />
		<tag k="place" v="farm" />
		<tag k="ssr:stedsnr" v="693756" />
	</node>
	<node id="-491196" lat="60.8011888933" lon="4.8651833414">
		<tag k="name" v="Øksneset" />
		<tag k="place" v="farm" />
		<tag k="ssr:stedsnr" v="693646" />
	</node>
	<node id="-491195" lat="60.7449166668" lon="4.95845278283">
		<tag k="name" v="Litlelindås" />
		<tag k="place" v="farm" />
		<tag k="ssr:stedsnr" v="693476" />
	</node>
	<node id="-491194" lat="60.7834968004" lon="4.92282126263">
		<tag k="fixme" v="consider place=hamlet" />
		<tag k="name" v="Åråsvågen" />
		<tag k="place" v="farm" />
		<tag k="ssr:stedsnr" v="693471" />
	</node>
	<node id="-491191" lat="60.8022194486" lon="4.81453610648">
		<tag k="name" v="Sævrøyna" />
		<tag k="place" v="farm" />
		<tag k="ssr:stedsnr" v="692619" />
	</node>
	<node id="-491190" lat="60.8014777773" lon="4.81496944878">
		<tag k="name" v="Sævrøyna" />
		<tag k="place" v="farm" />
		<tag k="ssr:stedsnr" v="692615" />
	</node>
	<node id="-491189" lat="60.7590861111" lon="4.98042500283">
		<tag k="name" v="Nordre Njøta" />
		<tag k="place" v="farm" />
		<tag k="ssr:stedsnr" v="692435" />
	</node>
	<node id="-491188" lat="60.7754305525" lon="4.93953610792">
		<tag k="name" v="Leikvoll" />
		<tag k="place" v="farm" />
		<tag k="ssr:stedsnr" v="693510" />
	</node>
	<node id="-491185" lat="60.7598760939" lon="4.94296359456">
		<tag k="fixme" v="consider place=hamlet" />
		<tag k="name" v="Førland" />
		<tag k="place" v="farm" />
		<tag k="ssr:stedsnr" v="676210" />
	</node>
	<node id="-491184" lat="60.7738991964" lon="5.00555120979">
		<tag k="fixme" v="consider place=hamlet" />
		<tag k="name" v="Straumstad" />
		<tag k="place" v="farm" />
		<tag k="ssr:stedsnr" v="676198" />
	</node>
	<node id="-490863" lat="60.802069441" lon="4.81955833711">
		<tag k="name" v="Sævrøyna" />
		<tag k="place" v="farm" />
		<tag k="ssr:stedsnr" v="207617" />
	</node>
	<node id="-491289" lat="60.7460361131" lon="4.96754445057">
		<tag k="name" v="Litlelindås" />
		<tag k="place" v="hamlet" />
		<tag k="ssr:stedsnr" v="795780" />
	</node>
	<node id="-490862" lat="60.7538861099" lon="4.91684166574">
		<tag k="name" v="Hopland" />
		<tag k="place" v="farm" />
		<tag k="ssr:stedsnr" v="207483" />
	</node>
	<node id="-490642" lat="60.8200166634" lon="4.80379166617">
		<tag k="name" v="Rongeværet" />
		<tag k="place" v="farm" />
		<tag k="ssr:stedsnr" v="25654" />
	</node>
	<node id="-490641" lat="60.7611722243" lon="4.94437778229">
		<tag k="name" v="Førland" />
		<tag k="place" v="farm" />
		<tag k="ssr:stedsnr" v="25443" />
	</node>
	<node id="-490640" lat="60.7609527803" lon="4.94073611074">
		<tag k="name" v="Førland" />
		<tag k="place" v="farm" />
		<tag k="ssr:stedsnr" v="25437" />
	</node>
	<node id="-490639" lat="60.8121888894" lon="4.99352778043">
		<tag k="name" v="Leirvågen" />
		<tag k="place" v="farm" />
		<tag k="ssr:stedsnr" v="25366" />
	</node>
	<node id="-490638" lat="60.7503166691" lon="4.99036388715">
		<tag k="name" v="Søre Njøta" />
		<tag k="place" v="farm" />
		<tag k="ssr:stedsnr" v="24448" />
	</node>
	<node id="-490637" lat="60.8072861065" lon="4.98182221614">
		<tag k="name" v="Fonnes" />
		<tag k="place" v="farm" />
		<tag k="ssr:stedsnr" v="24346" />
	</node>
	<node id="-490636" lat="60.8012777744" lon="4.97792778283">
		<tag k="name" v="Fonnes" />
		<tag k="place" v="farm" />
		<tag k="ssr:stedsnr" v="24344" />
	</node>
	<node id="-490635" lat="60.7972974436" lon="5.00220470437">
		<tag k="fixme" v="consider place=hamlet" />
		<tag k="name" v="Kaland" />
		<tag k="place" v="farm" />
		<tag k="ssr:stedsnr" v="24336" />
	</node>
	<node id="-490632" lat="60.8049666642" lon="4.92985554973">
		<tag k="name" v="Flotevika" />
		<tag k="place" v="farm" />
		<tag k="ssr:stedsnr" v="9021" />
	</node>
	<node id="-490860" lat="60.7630805531" lon="4.95058611426">
		<tag k="name" v="Solend" />
		<tag k="place" v="farm" />
		<tag k="ssr:stedsnr" v="207443" />
	</node>
	<node id="-490859" lat="60.7863805514" lon="4.94199999457">
		<tag k="name" v="Sætre" />
		<tag k="place" v="farm" />
		<tag k="ssr:stedsnr" v="207433" />
	</node>
	<node id="-490624" lat="60.7619880961" lon="4.90308790245">
		<tag k="fixme" v="consider place=hamlet" />
		<tag k="name" v="Bergsvika" />
		<tag k="place" v="farm" />
		<tag k="ssr:stedsnr" v="8230" />
	</node>
	<node id="-491135" lat="60.7735638888" lon="4.8746111063">
		<tag k="name" v="Dyrneset" />
		<tag k="place" v="farm" />
		<tag k="ssr:stedsnr" v="632707" />
	</node>
	<node id="-491134" lat="60.7925777762" lon="4.92397222418">
		<tag k="name" v="Sætre" />
		<tag k="place" v="farm" />
		<tag k="ssr:stedsnr" v="632477" />
	</node>
	<node id="-491133" lat="60.8033361082" lon="4.92590833022">
		<tag k="name" v="Ulvøyna" />
		<tag k="place" v="farm" />
		<tag k="ssr:stedsnr" v="632465" />
	</node>
	<node id="-491132" lat="60.7985245401" lon="4.93622798742">
		<tag k="fixme" v="consider place=hamlet" />
		<tag k="name" v="Kilstraumen" />
		<tag k="place" v="farm" />
		<tag k="ssr:stedsnr" v="632457" />
	</node>
	<node id="-490858" lat="60.7697388875" lon="4.9039444467">
		<tag k="name" v="Træsbakken" />
		<tag k="place" v="farm" />
		<tag k="ssr:stedsnr" v="206839" />
	</node>
	<node id="-490618" lat="60.8175709171" lon="4.87071007039">
		<tag k="fixme" v="consider place=hamlet" />
		<tag k="name" v="Børilden" />
		<tag k="place" v="farm" />
		<tag k="ssr:stedsnr" v="8098" />
	</node>
	<node id="-491129" lat="60.8153916684" lon="4.88922500119">
		<tag k="name" v="Børilden" />
		<tag k="place" v="farm" />
		<tag k="ssr:stedsnr" v="631618" />
	</node>
	<node id="-491124" lat="60.7653333341" lon="4.92297500652">
		<tag k="name" v="Solhaugen" />
		<tag k="place" v="farm" />
		<tag k="ssr:stedsnr" v="615188" />
	</node>
	<node id="-491123" lat="60.7593500044" lon="4.91733888828">
		<tag k="name" v="Åsen" />
		<tag k="place" v="farm" />
		<tag k="ssr:stedsnr" v="615187" />
	</node>
	<node id="-491121" lat="60.7520861093" lon="4.91245832504">
		<tag k="name" v="Hoplandssjøen" />
		<tag k="place" v="isolated_dwelling" />
		<tag k="ssr:stedsnr" v="615141" />
	</node>
	<node id="-490856" lat="60.7628805581" lon="5.00156111709">
		<tag k="name" v="Monslaupen" />
		<tag k="place" v="farm" />
		<tag k="ssr:stedsnr" v="206424" />
	</node>
	<node id="-490604" lat="60.8043277812" lon="4.91244166184">
		<tag k="name" v="Nothuset" />
		<tag k="place" v="locality" />
		<tag k="ssr:stedsnr" v="895899" />
	</node>
	<node id="-490855" lat="60.7500583331" lon="4.9906472149">
		<tag k="name" v="Søre Njøta" />
		<tag k="place" v="farm" />
		<tag k="ssr:stedsnr" v="206422" />
	</node>
	<node id="-490854" lat="60.805352775" lon="4.98133611151">
		<tag k="name" v="Fonnes" />
		<tag k="place" v="farm" />
		<tag k="ssr:stedsnr" v="206350" />
	</node>
	<node id="-490683" lat="60.8116854923" lon="4.99825021346">
		<tag k="fixme" v="consider place=hamlet" />
		<tag k="name" v="Leirvågen" />
		<tag k="place" v="farm" />
		<tag k="ssr:stedsnr" v="69025" />
	</node>
	<node id="-490582" lat="60.7636749984" lon="4.91238055477">
		<tag k="fixme" v="consider place=suburb, village or hamlet" />
		<tag k="name" v="Austrheim" />
		<tag k="place" v="quarter" />
		<tag k="ssr:stedsnr" v="889109" />
	</node>
	<node id="-491091" lat="60.7676111102" lon="4.90749445118">
		<tag k="name" v="Austrheim" />
		<tag k="place" v="farm" />
		<tag k="ssr:stedsnr" v="572772" />
	</node>
	<node id="-491090" lat="60.7607750005" lon="4.9132416694">
		<tag k="name" v="Austrheim" />
		<tag k="place" v="farm" />
		<tag k="ssr:stedsnr" v="572770" />
	</node>
	<node id="-491089" lat="60.785263892" lon="4.87012499835">
		<tag k="name" v="Rebnor" />
		<tag k="place" v="farm" />
		<tag k="ssr:stedsnr" v="572764" />
	</node>
	<node id="-491084" lat="60.7561997327" lon="4.91491209602">
		<tag k="fixme" v="consider place=hamlet" />
		<tag k="name" v="Hopland" />
		<tag k="place" v="farm" />
		<tag k="ssr:stedsnr" v="570450" />
	</node>
	<node id="-491083" lat="60.7792888929" lon="4.97580277154">
		<tag k="name" v="Synnevågen" />
		<tag k="place" v="farm" />
		<tag k="ssr:stedsnr" v="570313" />
	</node>
	<node id="-491082" lat="60.7817388929" lon="4.97584722677">
		<tag k="name" v="Synnevågen" />
		<tag k="place" v="farm" />
		<tag k="ssr:stedsnr" v="570312" />
	</node>
	<node id="-490679" lat="60.801777778" lon="4.99949443923">
		<tag k="fixme" v="consider place=suburb, village or hamlet" />
		<tag k="name" v="Kaland" />
		<tag k="place" v="quarter" />
		<tag k="ssr:stedsnr" v="69005" />
	</node>
	<node id="-491079" lat="60.7677008379" lon="5.00880563783">
		<tag k="fixme" v="consider place=hamlet" />
		<tag k="name" v="Bakka" />
		<tag k="place" v="farm" />
		<tag k="ssr:stedsnr" v="554228" />
	</node>
	<node id="-491077" lat="60.7588100815" lon="4.98441012735">
		<tag k="fixme" v="consider place=hamlet" />
		<tag k="name" v="Nordre Njøta" />
		<tag k="place" v="farm" />
		<tag k="ssr:stedsnr" v="554179" />
	</node>
	<node id="-490678" lat="60.7369083305" lon="4.96946944053">
		<tag k="name" v="Snekkevika" />
		<tag k="place" v="farm" />
		<tag k="ssr:stedsnr" v="67777" />
	</node>
	<node id="-490561" lat="60.7895749976" lon="4.86621944212">
		<tag k="name" v="Rebnor" />
		<tag k="place" v="farm" />
		<tag k="ssr:stedsnr" v="390732" />
	</node>
	<node id="-490560" lat="60.765213889" lon="4.95029444906">
		<tag k="name" v="Solend" />
		<tag k="place" v="farm" />
		<tag k="ssr:stedsnr" v="389507" />
	</node>
	<node id="-491070" lat="60.809355556" lon="4.90481388871">
		<tag k="name" v="Toftegård" />
		<tag k="place" v="farm" />
		<tag k="ssr:stedsnr" v="554029" />
	</node>
	<node id="-490556" lat="60.8214555523" lon="4.81649166919">
		<tag k="name" v="Krossøyna" />
		<tag k="place" v="farm" />
		<tag k="ssr:stedsnr" v="388585" />
	</node>
	<node id="-490555" lat="60.7637888933" lon="4.95718611184">
		<tag k="name" v="Solend" />
		<tag k="place" v="farm" />
		<tag k="ssr:stedsnr" v="388424" />
	</node>
	<node id="-490554" lat="60.7516583351" lon="4.98868610531">
		<tag k="name" v="Søre Njøta" />
		<tag k="place" v="farm" />
		<tag k="ssr:stedsnr" v="388417" />
	</node>
	<node id="-490553" lat="60.8030694439" lon="4.98528888731">
		<tag k="name" v="Fonnes" />
		<tag k="place" v="farm" />
		<tag k="ssr:stedsnr" v="388338" />
	</node>
	<node id="-490505" lat="60.7702660081" lon="4.93320411617">
		<tag k="name" v="Hjertås" />
		<tag k="place" v="farm" />
		<tag k="ssr:stedsnr" v="329449" />
	</node>
	<node id="-490545" lat="60.7714249963" lon="4.89442500799">
		<tag k="name" v="Breidvik" />
		<tag k="place" v="farm" />
		<tag k="ssr:stedsnr" v="372256" />
	</node>
	<node id="-490541" lat="60.7512231413" lon="4.98707753402">
		<tag k="fixme" v="consider place=hamlet" />
		<tag k="name" v="Søre Njøta" />
		<tag k="place" v="farm" />
		<tag k="ssr:stedsnr" v="372168" />
	</node>
	<node id="-490538" lat="60.8070600212" lon="4.91246261026">
		<tag k="fixme" v="consider place=hamlet" />
		<tag k="name" v="Kvalvågen" />
		<tag k="place" v="farm" />
		<tag k="ssr:stedsnr" v="372043" />
	</node>
	<node id="-490535" lat="60.7866027766" lon="4.86697222304">
		<tag k="name" v="Rebnor" />
		<tag k="place" v="hamlet" />
		<tag k="ssr:stedsnr" v="372002" />
	</node>
	<node id="-491027" lat="60.762033338" lon="4.90407778443">
		<tag k="name" v="Bergsvika" />
		<tag k="place" v="farm" />
		<tag k="ssr:stedsnr" v="511714" />
	</node>
	<node id="-490500" lat="60.8117861123" lon="4.80854166462">
		<tag k="name" v="Krossøyna" />
		<tag k="place" v="farm" />
		<tag k="ssr:stedsnr" v="328609" />
	</node>
	<node id="-491028" lat="60.762408332" lon="4.9016055632">
		<tag k="name" v="Bergsvika" />
		<tag k="place" v="farm" />
		<tag k="ssr:stedsnr" v="511717" />
	</node>
	<node id="-491231" lat="60.7594805553" lon="4.91484444099">
		<tag k="name" v="Hopland" />
		<tag k="place" v="hamlet" />
		<tag k="ssr:stedsnr" v="736170" />
	</node>
	<node id="-491026" lat="60.7618305528" lon="4.91483610982">
		<tag k="name" v="Austrheim" />
		<tag k="place" v="farm" />
		<tag k="ssr:stedsnr" v="511711" />
	</node>
	<node id="-491025" lat="60.7462475302" lon="4.96646842459">
		<tag k="fixme" v="consider place=hamlet" />
		<tag k="name" v="Litlelindås" />
		<tag k="place" v="farm" />
		<tag k="ssr:stedsnr" v="511451" />
	</node>
	<node id="-491024" lat="60.7771805589" lon="4.93424444945">
		<tag k="name" v="Årås" />
		<tag k="place" v="farm" />
		<tag k="ssr:stedsnr" v="511447" />
	</node>
	<node id="-491023" lat="60.8049961291" lon="4.92087986144">
		<tag k="fixme" v="consider place=hamlet" />
		<tag k="name" v="Skorholmen" />
		<tag k="place" v="farm" />
		<tag k="ssr:stedsnr" v="511441" />
	</node>
	<node id="-490508" lat="60.7968611096" lon="4.8662055542">
		<tag k="name" v="Øksneset" />
		<tag k="place" v="farm" />
		<tag k="ssr:stedsnr" v="329605" />
	</node>
	<node id="-491019" lat="60.802461107" lon="4.81340555394">
		<tag k="name" v="Sævrøyna" />
		<tag k="place" v="farm" />
		<tag k="ssr:stedsnr" v="510656" />
	</node>
	<node id="-491018" lat="60.8347305598" lon="4.87768888741">
		<tag k="name" v="Børilden" />
		<tag k="place" v="farm" />
		<tag k="ssr:stedsnr" v="510635" />
	</node>
	<node id="-491017" lat="60.7576500035" lon="4.91505833689">
		<tag k="name" v="Hopland" />
		<tag k="place" v="farm" />
		<tag k="ssr:stedsnr" v="510510" />
	</node>
	<node id="-491016" lat="60.7575416638" lon="4.91711666805">
		<tag k="name" v="Hopland" />
		<tag k="place" v="farm" />
		<tag k="ssr:stedsnr" v="510508" />
	</node>
	<node id="-491015" lat="60.7643722246" lon="4.95368055027">
		<tag k="name" v="Solend" />
		<tag k="place" v="farm" />
		<tag k="ssr:stedsnr" v="510472" />
	</node>
	<node id="-491014" lat="60.7905999984" lon="4.92470277666">
		<tag k="name" v="Sætre" />
		<tag k="place" v="farm" />
		<tag k="ssr:stedsnr" v="510446" />
	</node>
	<node id="-490501" lat="60.8176055537" lon="4.87262222521">
		<tag k="name" v="Børilden" />
		<tag k="place" v="farm" />
		<tag k="ssr:stedsnr" v="328615" />
	</node>
	<node id="-491012" lat="60.7613666632" lon="4.91667777238">
		<tag k="name" v="Tuftene" />
		<tag k="place" v="farm" />
		<tag k="ssr:stedsnr" v="494180" />
	</node>
	<node id="-490499" lat="60.7561611129" lon="4.91839444763">
		<tag k="name" v="Hopland" />
		<tag k="place" v="farm" />
		<tag k="ssr:stedsnr" v="328473" />
	</node>
	<node id="-490497" lat="60.7598250012" lon="4.98426944371">
		<tag k="name" v="Nordre Njøta" />
		<tag k="place" v="farm" />
		<tag k="ssr:stedsnr" v="327442" />
	</node>
</osm>
