<?xml version="1.0" encoding="UTF-8"?>
<osm version="0.6" generator="osmapis">
	<node lat="63.56896666502037" lon="9.32405832816126" id="-91770">
		<tag k="man_made" v="quay" />
		<tag k="name" v="Sørleksa kai" />
		<tag k="place" v="locality" />
		<tag k="ssr:stedsnr" v="40603" />
	</node>
	<node lat="63.62194722230327" lon="9.64682500249323" id="-91781">
		<tag k="landuse" v="harbour" />
		<tag k="name" v="Synnavika småbåthavn" />
		<tag k="seamark:type" v="harbour" />
		<tag k="ssr:stedsnr" v="59591" />
	</node>
	<node lat="63.39693055894864" lon="9.495483337824043" id="-91785">
		<tag k="leisure" v="marina" />
		<tag k="name" v="Krokstadøra marina" />
		<tag k="ssr:stedsnr" v="241511" />
	</node>
	<node lat="63.31592222424626" lon="9.864647220355184" id="-92196">
		<tag k="man_made" v="quay" />
		<tag k="name" v="Nakken" />
		<tag k="place" v="locality" />
		<tag k="ssr:stedsnr" v="155425" />
	</node>
	<node lat="63.587283335661375" lon="9.399197224754365" id="-92254">
		<tag k="amenity" v="ferry_terminal" />
		<tag k="name" v="Nordleksa ferjekai" />
		<tag k="ssr:stedsnr" v="161562" />
	</node>
	<node lat="63.13906111528346" lon="9.59857777680718" id="-92319">
		<tag k="highway" v="path" />
		<tag k="name" v="Vadet" />
		<tag k="ssr:stedsnr" v="211335" />
	</node>
	<node lat="63.31435277409931" lon="9.787980546945601" id="-92387">
		<tag k="highway" v="path" />
		<tag k="name" v="Stigen" />
		<tag k="ssr:stedsnr" v="216202" />
	</node>
	<node lat="63.089269442116645" lon="9.554802786133134" id="-92505">
		<tag k="ford" v="yes" />
		<tag k="name" v="Breivadet" />
		<tag k="place" v="locality" />
		<tag k="ssr:stedsnr" v="271150" />
	</node>
	<node lat="63.12761666435144" lon="9.84781943592118" id="-92632">
		<tag k="ford" v="yes" />
		<tag k="name" v="Buvadet" />
		<tag k="place" v="locality" />
		<tag k="ssr:stedsnr" v="453559" />
	</node>
	<node lat="63.509147220383205" lon="9.438519452106934" id="-92751">
		<tag k="highway" v="path" />
		<tag k="name" v="Setervegen" />
		<tag k="ssr:stedsnr" v="458043" />
	</node>
	<node lat="63.302354953243906" lon="9.83407784760276" id="-92913">
		<tag k="bridge" v="yes" />
		<tag k="layer" v="1" />
		<tag k="name" v="Gjølmebrua" />
		<tag k="ssr:stedsnr" v="276515" />
	</node>
	<node lat="63.375652776323115" lon="9.863455546583848" id="-92922">
		<tag k="highway" v="path" />
		<tag k="name" v="Sagbakkan" />
		<tag k="ssr:stedsnr" v="276706" />
	</node>
	<node lat="63.467655559543104" lon="9.817469446093009" id="-92997">
		<tag k="ford" v="yes" />
		<tag k="name" v="Hestlivadet" />
		<tag k="place" v="locality" />
		<tag k="ssr:stedsnr" v="281924" />
	</node>
	<node lat="62.9904611148949" lon="9.780736113644716" id="-93115">
		<tag k="ford" v="yes" />
		<tag k="name" v="Kålåsvadet" />
		<tag k="place" v="locality" />
		<tag k="ssr:stedsnr" v="332106" />
	</node>
	<node lat="63.50020062501479" lon="9.794259124402293" id="-93269">
		<tag k="bridge" v="yes" />
		<tag k="layer" v="1" />
		<tag k="name" v="Bakkbrua" />
		<tag k="ssr:stedsnr" v="342207" />
	</node>
	<node lat="63.34829444863626" lon="9.41512222958517" id="-93372">
		<tag k="highway" v="path" />
		<tag k="name" v="Kleivavegen" />
		<tag k="ssr:stedsnr" v="396412" />
	</node>
	<node lat="63.17377500269499" lon="9.576344448871996" id="-93436">
		<tag k="highway" v="path" />
		<tag k="name" v="Malmvegen" />
		<tag k="ssr:stedsnr" v="398630" />
	</node>
	<node lat="63.31836809672947" lon="9.87347967121185" id="-93499">
		<tag k="man_made" v="quay" />
		<tag k="name" v="Thamshamnkaia" />
		<tag k="place" v="locality" />
		<tag k="ssr:stedsnr" v="406859" />
	</node>
	<node lat="63.626405559002684" lon="9.74196112045416" id="-93501">
		<tag k="landuse" v="harbour" />
		<tag k="name" v="Breivika småbåthavn" />
		<tag k="seamark:type" v="harbour" />
		<tag k="ssr:stedsnr" v="423623" />
	</node>
	<node lat="62.99136388506319" lon="9.72000278610206" id="-93546">
		<tag k="fixme" v="consider highway=path" />
		<tag k="highway" v="track" />
		<tag k="name" v="Uvbakken" />
		<tag k="ssr:stedsnr" v="453108" />
	</node>
	<node lat="63.29698868832426" lon="9.84011128425567" id="-93630">
		<tag k="bridge" v="yes" />
		<tag k="layer" v="1" />
		<tag k="name" v="Bårdshaugbrua" />
		<tag k="ssr:stedsnr" v="458316" />
	</node>
	<node lat="63.63888333586289" lon="9.687480549798188" id="-93683">
		<tag k="amenity" v="ferry_terminal" />
		<tag k="name" v="Valset ferjekai" />
		<tag k="ssr:stedsnr" v="461865" />
	</node>
	<node lat="63.494905553516205" lon="9.702833331363326" id="-93704">
		<tag k="highway" v="path" />
		<tag k="name" v="Kollheistigan" />
		<tag k="ssr:stedsnr" v="463389" />
	</node>
	<node lat="63.49712221857026" lon="9.720769452935121" id="-93706">
		<tag k="highway" v="path" />
		<tag k="name" v="Hyllvegen" />
		<tag k="ssr:stedsnr" v="463392" />
	</node>
	<node lat="63.44100541830045" lon="9.486947457135424" id="-93720">
		<tag k="layer" v="-1" />
		<tag k="name" v="Storvasshammertunnelen" />
		<tag k="ssr:stedsnr" v="467709" />
		<tag k="tunnel" v="yes" />
	</node>
	<node lat="63.505305557276515" lon="9.830513895645494" id="-94037">
		<tag k="man_made" v="quay" />
		<tag k="name" v="Lensvik hurtigbåtkai" />
		<tag k="place" v="locality" />
		<tag k="ssr:stedsnr" v="540580" />
	</node>
	<node lat="63.361224999824074" lon="9.898091668404348" id="-94188">
		<tag k="highway" v="path" />
		<tag k="name" v="Kleiva" />
		<tag k="ssr:stedsnr" v="579501" />
	</node>
	<node lat="63.40075010363382" lon="9.501215119461087" id="-94628">
		<tag k="bridge" v="yes" />
		<tag k="layer" v="1" />
		<tag k="name" v="Krokstadbrua" />
		<tag k="ssr:stedsnr" v="639014" />
	</node>
	<node lat="63.316233332580076" lon="9.787816674136996" id="-94644">
		<tag k="fixme" v="consider highway=path" />
		<tag k="highway" v="track" />
		<tag k="name" v="Korsvegen" />
		<tag k="ssr:stedsnr" v="640217" />
	</node>
	<node lat="63.304122219410495" lon="9.659686112691848" id="-94699">
		<tag k="bridge" v="yes" />
		<tag k="layer" v="1" />
		<tag k="name" v="Skråbrua" />
		<tag k="ssr:stedsnr" v="641982" />
	</node>
	<node lat="63.321050995869946" lon="9.52918297652901" id="-94763">
		<tag k="bridge" v="yes" />
		<tag k="layer" v="1" />
		<tag k="name" v="Våddåbrua" />
		<tag k="ssr:stedsnr" v="645726" />
	</node>
	<node lat="63.31289999651429" lon="9.499508338739117" id="-94786">
		<tag k="amenity" v="parking" />
		<tag k="name" v="Langlidalen parkeringsplass" />
		<tag k="ssr:stedsnr" v="665610" />
	</node>
	<node lat="63.41878888505724" lon="9.618927772247822" id="-94787">
		<tag k="amenity" v="parking" />
		<tag k="name" v="Berg parkeringsplass" />
		<tag k="ssr:stedsnr" v="665612" />
	</node>
	<node lat="63.54704167033539" lon="9.719452776566182" id="-95019">
		<tag k="highway" v="path" />
		<tag k="name" v="Lykkjvegen" />
		<tag k="ssr:stedsnr" v="706925" />
	</node>
	<node lat="63.326508336776236" lon="9.899719446742406" id="-95030">
		<tag k="barrier" v="toll_booth" />
		<tag k="name" v="Thamshamn" />
		<tag k="ssr:stedsnr" v="898546" />
	</node>
	<node lat="63.61601389128371" lon="9.729424999773387" id="-95032">
		<tag k="man_made" v="quay" />
		<tag k="name" v="Selva industrikai" />
		<tag k="place" v="locality" />
		<tag k="ssr:stedsnr" v="725536" />
	</node>
	<node lat="63.19998888467682" lon="9.569686111077687" id="-95210">
		<tag k="highway" v="path" />
		<tag k="name" v="Kleivan" />
		<tag k="ssr:stedsnr" v="762805" />
	</node>
	<node lat="63.365344448748125" lon="9.858950002686301" id="-95215">
		<tag k="ford" v="yes" />
		<tag k="name" v="Løssevadet" />
		<tag k="place" v="locality" />
		<tag k="ssr:stedsnr" v="762593" />
	</node>
	<node lat="63.571919445053155" lon="9.787425008533296" id="-95261">
		<tag k="landuse" v="harbour" />
		<tag k="name" v="Årem småbåthavn" />
		<tag k="seamark:type" v="harbour" />
		<tag k="ssr:stedsnr" v="907544" />
	</node>
	<node lat="62.9736257042675" lon="9.694229299148821" id="-95351">
		<tag k="bridge" v="yes" />
		<tag k="layer" v="1" />
		<tag k="name" v="Otlbrua" />
		<tag k="ssr:stedsnr" v="818236" />
	</node>
	<node lat="63.51180860657178" lon="9.80328052020172" id="-95464">
		<tag k="bridge" v="yes" />
		<tag k="layer" v="1" />
		<tag k="name" v="Storbrua" />
		<tag k="ssr:stedsnr" v="827265" />
	</node>
	<node lat="63.05332221984868" lon="9.888713889435408" id="-95657">
		<tag k="highway" v="path" />
		<tag k="name" v="Pissbakken" />
		<tag k="ssr:stedsnr" v="878716" />
	</node>
	<node lat="63.377852773489394" lon="9.338938887634413" id="-95903">
		<tag k="highway" v="path" />
		<tag k="name" v="Bjørnåsstien" />
		<tag k="ssr:stedsnr" v="944206" />
	</node>
	<node lat="63.07554783076416" lon="9.616510179004974" id="-96181">
		<tag k="bridge" v="yes" />
		<tag k="layer" v="1" />
		<tag k="name" v="Losbrua" />
		<tag k="ssr:stedsnr" v="29276" />
	</node>
	<node lat="63.3997876516002" lon="9.514382930384214" id="-96256">
		<tag k="bridge" v="yes" />
		<tag k="layer" v="1" />
		<tag k="name" v="Rønningsbrua" />
		<tag k="ssr:stedsnr" v="33136" />
	</node>
	<node lat="63.31583611111113" lon="9.86129443584476" id="-96278">
		<tag k="man_made" v="breakwater" />
		<tag k="name" v="Langbrua" />
		<tag k="place" v="locality" />
		<tag k="ssr:stedsnr" v="33511" />
	</node>
	<node lat="63.507377779826264" lon="9.830755564498507" id="-96405">
		<tag k="landuse" v="harbour" />
		<tag k="name" v="Lensvik småbåthavn" />
		<tag k="seamark:type" v="harbour" />
		<tag k="ssr:stedsnr" v="55548" />
	</node>
	<node lat="63.35138610927209" lon="9.896388896328835" id="-96672">
		<tag k="highway" v="path" />
		<tag k="name" v="Råket" />
		<tag k="ssr:stedsnr" v="94489" />
	</node>
	<node lat="63.593443046162264" lon="9.534027447105688" id="-96794">
		<tag k="bridge" v="yes" />
		<tag k="layer" v="1" />
		<tag k="name" v="Hopabrua" />
		<tag k="ssr:stedsnr" v="99657" />
	</node>
	<node lat="63.28497619668161" lon="9.640544444408023" id="-96804">
		<tag k="bridge" v="yes" />
		<tag k="layer" v="1" />
		<tag k="name" v="Gangåsbrua" />
		<tag k="ssr:stedsnr" v="101726" />
	</node>
	<node lat="63.13247222103778" lon="9.582638882090752" id="-96971">
		<tag k="highway" v="path" />
		<tag k="name" v="Dombusvegen" />
		<tag k="ssr:stedsnr" v="150330" />
	</node>
	<node lat="63.39358333441914" lon="9.593969452018507" id="-97197">
		<tag k="amenity" v="parking" />
		<tag k="name" v="Snilldalen parkeringsplass" />
		<tag k="ssr:stedsnr" v="180542" />
	</node>
	<node lat="63.3104124942489" lon="9.828576493296076" id="-97199">
		<tag k="bridge" v="yes" />
		<tag k="layer" v="1" />
		<tag k="name" v="Grønørbrua" />
		<tag k="ssr:stedsnr" v="180997" />
	</node>
	<node lat="63.41711110705344" lon="8.682377784098458" id="-97298">
		<tag k="name" v="Trondheimsleia" />
		<tag k="place" v="locality" />
		<tag k="ssr:stedsnr" v="195235" />
	</node>
	<node lat="63.06597500377182" lon="9.533261102772517" id="-97382">
		<tag k="highway" v="path" />
		<tag k="name" v="Kluftan" />
		<tag k="ssr:stedsnr" v="211478" />
	</node>
	<node lat="63.31871388608436" lon="9.778716676083015" id="-97466">
		<tag k="highway" v="path" />
		<tag k="name" v="Høgkleiva" />
		<tag k="ssr:stedsnr" v="216157" />
	</node>
	<node lat="63.13133058005126" lon="9.712935463117123" id="-97879">
		<tag k="highway" v="path" />
		<tag k="name" v="Kleva" />
		<tag k="ssr:stedsnr" v="332276" />
	</node>
	<node lat="63.265490764818544" lon="9.799192888272009" id="-97958">
		<tag k="bridge" v="yes" />
		<tag k="layer" v="1" />
		<tag k="name" v="Forvebrua" />
		<tag k="ssr:stedsnr" v="337061" />
	</node>
	<node lat="63.4754682067443" lon="9.769389998501225" id="-98038">
		<tag k="bridge" v="yes" />
		<tag k="layer" v="1" />
		<tag k="name" v="Mjølkstadbrua" />
		<tag k="ssr:stedsnr" v="341422" />
	</node>
	<node lat="63.58766111493768" lon="9.398819449699234" id="-98072">
		<tag k="man_made" v="quay" />
		<tag k="name" v="Nordleksa kai" />
		<tag k="place" v="locality" />
		<tag k="ssr:stedsnr" v="343613" />
	</node>
	<node lat="63.2864277771347" lon="9.629966665048103" id="-98091">
		<tag k="bridge" v="yes" />
		<tag k="layer" v="1" />
		<tag k="name" v="Stokkhaugbrua" />
		<tag k="ssr:stedsnr" v="343758" />
	</node>
	<node lat="63.288444446848864" lon="9.716058328199106" id="-98389">
		<tag k="highway" v="path" />
		<tag k="name" v="Kvernbakken" />
		<tag k="ssr:stedsnr" v="398224" />
	</node>
	<node lat="63.18923055796024" lon="9.592011112340403" id="-98415">
		<tag k="highway" v="path" />
		<tag k="name" v="Kjerkvegen" />
		<tag k="ssr:stedsnr" v="398824" />
	</node>
	<node lat="63.286313503115515" lon="9.696310467066679" id="-98424">
		<tag k="bridge" v="yes" />
		<tag k="layer" v="1" />
		<tag k="name" v="Osbrua" />
		<tag k="ssr:stedsnr" v="398955" />
	</node>
	<node lat="63.580891670288366" lon="9.509538879063241" id="-98434">
		<tag k="amenity" v="ferry_terminal" />
		<tag k="name" v="Vernes ferjekai" />
		<tag k="old_name" v="Vernes kai" />
		<tag k="ssr:stedsnr" v="400571" />
	</node>
	<node lat="63.46764166277572" lon="9.420022230710964" id="-98512">
		<tag k="leisure" v="marina" />
		<tag k="name" v="Mjønestrø marina" />
		<tag k="ssr:stedsnr" v="423570" />
	</node>
	<node lat="63.05654166461041" lon="9.628844440916046" id="-98713">
		<tag k="highway" v="path" />
		<tag k="name" v="Råket" />
		<tag k="ssr:stedsnr" v="514156" />
	</node>
	<node lat="63.13588889087094" lon="9.612041664355957" id="-98721">
		<tag k="highway" v="path" />
		<tag k="name" v="Storgrendskleiva" />
		<tag k="ssr:stedsnr" v="514332" />
	</node>
	<node lat="63.20021010983336" lon="9.771992744116597" id="-98855">
		<tag k="bridge" v="yes" />
		<tag k="layer" v="1" />
		<tag k="loc_name" v="Øyum bru" />
		<tag k="name" v="Øyabrua" />
		<tag k="ssr:stedsnr" v="520926" />
	</node>
	<node lat="63.14661944442208" lon="9.7550250097068" id="-98884">
		<tag k="name" v="Granledet" />
		<tag k="place" v="locality" />
		<tag k="ssr:stedsnr" v="521685" />
	</node>
	<node lat="63.49240988840744" lon="9.79294833781877" id="-98917">
		<tag k="bridge" v="yes" />
		<tag k="layer" v="1" />
		<tag k="name" v="Vadbrua" />
		<tag k="ssr:stedsnr" v="524199" />
	</node>
	<node lat="63.54971388654445" lon="9.73016111199043" id="-98943">
		<tag k="highway" v="path" />
		<tag k="name" v="Skåvegen" />
		<tag k="ssr:stedsnr" v="524901" />
	</node>
	<node lat="63.58124721954568" lon="9.5206833285684" id="-98949">
		<tag k="landuse" v="harbour" />
		<tag k="name" v="Vernes småbåthavn" />
		<tag k="seamark:type" v="harbour" />
		<tag k="ssr:stedsnr" v="525588" />
	</node>
	<node lat="63.07696388957918" lon="9.696180561621434" id="-98958">
		<tag k="name" v="Olskastgrinda" />
		<tag k="place" v="locality" />
		<tag k="ssr:stedsnr" v="544291" />
	</node>
	<node lat="63.620891667163505" lon="9.60244166080699" id="-99306">
		<tag k="landuse" v="harbour" />
		<tag k="name" v="Røysa småbåthavn" />
		<tag k="seamark:type" v="harbour" />
		<tag k="ssr:stedsnr" v="587985" />
	</node>
	<node lat="63.00414722308821" lon="9.775311107147727" id="-99787">
		<tag k="highway" v="path" />
		<tag k="name" v="Saumyrbakken" />
		<tag k="ssr:stedsnr" v="757062" />
	</node>
	<node lat="63.39214444141721" lon="9.4562555602523" id="-99871">
		<tag k="highway" v="path" />
		<tag k="name" v="Dyrstien" />
		<tag k="ssr:stedsnr" v="761460" />
	</node>
	<node lat="63.50448611105638" lon="9.846100001509793" id="-100016">
		<tag k="man_made" v="quay" />
		<tag k="name" v="Lensvik industrikai" />
		<tag k="place" v="locality" />
		<tag k="ssr:stedsnr" v="783572" />
	</node>
	<node lat="63.476188889861895" lon="9.746672220467364" id="-100380">
		<tag k="name" v="Kanalen" />
		<tag k="ssr:stedsnr" v="827096" />
		<tag k="waterway" v="canal" />
	</node>
	<node lat="63.49008611182351" lon="9.705969444027325" id="-100389">
		<tag k="highway" v="path" />
		<tag k="name" v="Korsvegen" />
		<tag k="ssr:stedsnr" v="827457" />
	</node>
	<node lat="63.46458611496025" lon="9.810111110626138" id="-100415">
		<tag k="ford" v="yes" />
		<tag k="name" v="Nonsheivadet" />
		<tag k="place" v="locality" />
		<tag k="ssr:stedsnr" v="828882" />
	</node>
	<node lat="63.61518610957498" lon="9.722769447961854" id="-100428">
		<tag k="landuse" v="harbour" />
		<tag k="name" v="Selva småbåthavn" />
		<tag k="seamark:type" v="harbour" />
		<tag k="ssr:stedsnr" v="844602" />
	</node>
	<node lat="63.61770833241455" lon="9.720494438959982" id="-100754">
		<tag k="man_made" v="quay" />
		<tag k="name" v="Kai" />
		<tag k="place" v="locality" />
		<tag k="ssr:stedsnr" v="888173" />
	</node>
	<node lat="63.32601111245248" lon="9.833061105184589" id="-100955">
		<tag k="man_made" v="quay" />
		<tag k="name" v="Rovskaia" />
		<tag k="place" v="locality" />
		<tag k="ssr:stedsnr" v="944468" />
	</node>
	<node lat="63.58147954917952" lon="9.508187557375345" id="-101057">
		<tag k="landuse" v="harbour" />
		<tag k="name" v="Åkervika småbåthavn" />
		<tag k="seamark:type" v="harbour" />
		<tag k="ssr:stedsnr" v="950575" />
	</node>
</osm>
