<?xml version="1.0" encoding="UTF-8"?>
<osm generator="osmapis" version="0.6">
	<node id="-807999" lat="63.3447948322" lon="9.87471944378">
		<tag k="fixme" v="consider boundary=protected_area and relevant protect_class if not nature reserve" />
		<tag k="leisure" v="nature_reserve" />
		<tag k="name" v="Almlia naturreservat" />
		<tag k="ssr:stedsnr" v="980989" />
	</node>
	<node id="-807998" lat="63.3858816175" lon="9.8781342993">
		<tag k="fixme" v="consider boundary=protected_area and relevant protect_class if not nature reserve" />
		<tag k="leisure" v="nature_reserve" />
		<tag k="name" v="Rabbolen naturreservat" />
		<tag k="ssr:stedsnr" v="980988" />
	</node>
	<node id="-812735" lat="63.0495861072" lon="9.66873055467">
		<tag k="fixme" v="specify shooting=range, clay_pigeon etc" />
		<tag k="leisure" v="pitch" />
		<tag k="name" v="Bjørset pistolskytebane" />
		<tag k="sport" v="shooting" />
		<tag k="ssr:stedsnr" v="950566" />
	</node>
	<node id="-805846" lat="63.4074944487" lon="9.50285555926">
		<tag k="fixme" v="specify shooting=range, clay_pigeon etc" />
		<tag k="leisure" v="pitch" />
		<tag k="name" v="Krokstadøra motorbane" />
		<tag k="sport" v="shooting" />
		<tag k="ssr:stedsnr" v="544554" />
	</node>
	<node id="-805845" lat="63.4112222197" lon="9.23330555714">
		<tag k="fixme" v="specify shooting=range, clay_pigeon etc" />
		<tag k="leisure" v="pitch" />
		<tag k="name" v="Flesvik skytebane" />
		<tag k="sport" v="shooting" />
		<tag k="ssr:stedsnr" v="544551" />
	</node>
	<node id="-807988" lat="63.6001749979" lon="9.5305027781">
		<tag k="fixme" v="consider boundary=protected_area and relevant protect_class if not nature reserve" />
		<tag k="leisure" v="nature_reserve" />
		<tag k="name" v="Laukhaugen friområde" />
		<tag k="ssr:stedsnr" v="965604" />
	</node>
	<node id="-805552" lat="63.6081527776" lon="9.6531249983">
		<tag k="fixme" v="consider boundary=protected_area and relevant protect_class if not nature reserve" />
		<tag k="leisure" v="nature_reserve" />
		<tag k="name" v="Storvatnet friområde" />
		<tag k="ssr:stedsnr" v="666577" />
	</node>
	<node id="-812589" lat="63.4206888851" lon="9.52269721369">
		<tag k="fixme" v="specify shooting=range, clay_pigeon etc" />
		<tag k="leisure" v="pitch" />
		<tag k="name" v="Krokstadøra skytebane" />
		<tag k="sport" v="shooting" />
		<tag k="ssr:stedsnr" v="848567" />
	</node>
	<node id="-805548" lat="63.3367638877" lon="9.42877777077">
		<tag k="fixme" v="specify shooting=range, clay_pigeon etc" />
		<tag k="leisure" v="pitch" />
		<tag k="name" v="Vuttudal skytebane" />
		<tag k="sport" v="shooting" />
		<tag k="ssr:stedsnr" v="665607" />
	</node>
	<node id="-804173" lat="63.0109583294" lon="9.74376667368">
		<tag k="fixme" v="specify shooting=range, clay_pigeon etc" />
		<tag k="leisure" v="pitch" />
		<tag k="name" v="Småberga skytebane" />
		<tag k="sport" v="shooting" />
		<tag k="ssr:stedsnr" v="282534" />
	</node>
	<node id="-804077" lat="63.1274861151" lon="9.65350833541">
		<tag k="fixme" v="specify shooting=range, clay_pigeon etc" />
		<tag k="leisure" v="pitch" />
		<tag k="name" v="Løkken skytebane" />
		<tag k="sport" v="shooting" />
		<tag k="ssr:stedsnr" v="161553" />
	</node>
	<node id="-812807" lat="63.1110984161" lon="9.84613910126">
		<tag k="fixme" v="consider boundary=protected_area and relevant protect_class if not nature reserve" />
		<tag k="leisure" v="nature_reserve" />
		<tag k="name" v="Urvatnet-Litjbumyran naturreservat" />
		<tag k="ssr:stedsnr" v="990925" />
	</node>
	<node id="-812748" lat="63.4673472206" lon="9.71066944338">
		<tag k="fixme" v="consider boundary=protected_area and relevant protect_class if not nature reserve" />
		<tag k="leisure" v="nature_reserve" />
		<tag k="name" v="Øyangen friområde" />
		<tag k="ssr:stedsnr" v="967901" />
	</node>
	<node id="-806436" lat="63.0108805564" lon="9.74415555973">
		<tag k="military" v="range" />
		<tag k="name" v="Småberga" />
		<tag k="ssr:stedsnr" v="635054" />
	</node>
	<node id="-812109" lat="63.377641665" lon="9.69756943481">
		<tag k="fixme" v="consider boundary=protected_area and relevant protect_class if not nature reserve" />
		<tag k="leisure" v="nature_reserve" />
		<tag k="name" v="Grytdalen naturreservat" />
		<tag k="ssr:stedsnr" v="767487" />
	</node>
	<node id="-804217" lat="63.2302888873" lon="9.88311110956">
		<tag k="fixme" v="consider boundary=protected_area and relevant protect_class if not nature reserve" />
		<tag k="leisure" v="nature_reserve" />
		<tag k="name" v="Munklia naturreservat" />
		<tag k="ssr:stedsnr" v="295565" />
	</node>
</osm>
