<?xml version="1.0" encoding="UTF-8"?>
<osm version="0.6" generator="osmapis">
	<node lat="63.1197222242885" lon="9.554902784132732" id="-36155">
		<tag k="name" v="Grevjan" />
		<tag k="place" v="locality" />
		<tag k="ssr:stedsnr" v="29101" />
	</node>
	<node lat="62.98785833326406" lon="9.772652777548691" id="-36158">
		<tag k="name" v="Fosskleva" />
		<tag k="place" v="locality" />
		<tag k="ssr:stedsnr" v="29112" />
	</node>
	<node lat="63.082597225727845" lon="9.559163882062236" id="-36159">
		<tag k="name" v="Slåttøyan" />
		<tag k="place" v="locality" />
		<tag k="ssr:stedsnr" v="29116" />
	</node>
	<node lat="63.00197222624806" lon="9.770758330820689" id="-36167">
		<tag k="name" v="Jamnåsmyra" />
		<tag k="natural" v="wetland" />
		<tag k="ssr:stedsnr" v="29072" />
	</node>
	<node lat="63.09633333073799" lon="9.677452782772464" id="-36171">
		<tag k="name" v="Tjurruhjellan" />
		<tag k="place" v="locality" />
		<tag k="ssr:stedsnr" v="29228" />
	</node>
	<node lat="63.08671111535176" lon="9.647041659437265" id="-36173">
		<tag k="name" v="Tømret" />
		<tag k="place" v="locality" />
		<tag k="ssr:stedsnr" v="29236" />
	</node>
	<node lat="62.97990833030225" lon="9.591883324039935" id="-36174">
		<tag k="name" v="Fjelldalskjølen" />
		<tag k="natural" v="wetland" />
		<tag k="ssr:stedsnr" v="29237" />
	</node>
	<node lat="63.015058330044546" lon="9.688619446114638" id="-36176">
		<tag k="name" v="Homyra" />
		<tag k="natural" v="wetland" />
		<tag k="ssr:stedsnr" v="29206" />
	</node>
	<node lat="63.01413888662539" lon="9.699327781710153" id="-36178">
		<tag k="name" v="Storhåggån" />
		<tag k="place" v="locality" />
		<tag k="ssr:stedsnr" v="29209" />
	</node>
	<node lat="63.08625555687661" lon="9.600791659993398" id="-36180">
		<tag k="landuse" v="meadow" />
		<tag k="name" v="Jenshåggån" />
		<tag k="ssr:stedsnr" v="29214" />
	</node>
	<node lat="63.108188886014155" lon="9.644847222946522" id="-36183">
		<tag k="name" v="Litjskårgangen" />
		<tag k="place" v="locality" />
		<tag k="ssr:stedsnr" v="29316" />
	</node>
	<node lat="63.170886107132894" lon="9.471625009097604" id="-36190">
		<tag k="name" v="Syndre Gjerdet" />
		<tag k="place" v="locality" />
		<tag k="ssr:stedsnr" v="29373" />
	</node>
	<node lat="62.97316944217812" lon="9.51077499143964" id="-36191">
		<tag k="name" v="Vasslåtta" />
		<tag k="place" v="locality" />
		<tag k="ssr:stedsnr" v="29503" />
	</node>
	<node lat="63.02543888477592" lon="9.739025002205928" id="-36193">
		<tag k="name" v="Valbergshåggån" />
		<tag k="place" v="locality" />
		<tag k="ssr:stedsnr" v="29405" />
	</node>
	<node lat="63.03120833258889" lon="9.506811107292862" id="-36197">
		<tag k="name" v="Skrivarhøylua" />
		<tag k="place" v="locality" />
		<tag k="ssr:stedsnr" v="29426" />
	</node>
	<node lat="63.08262222303027" lon="9.761233335526903" id="-36199">
		<tag k="name" v="Hårråvika" />
		<tag k="place" v="locality" />
		<tag k="ssr:stedsnr" v="29470" />
	</node>
	<node lat="63.09757500020628" lon="9.726311103987028" id="-36200">
		<tag k="name" v="Innlegget" />
		<tag k="place" v="locality" />
		<tag k="ssr:stedsnr" v="29478" />
	</node>
	<node lat="63.42987777530749" lon="9.264927777269886" id="-36223">
		<tag k="name" v="Stormyra" />
		<tag k="natural" v="wetland" />
		<tag k="ssr:stedsnr" v="33176" />
	</node>
	<node lat="63.44640833325196" lon="9.348086109295252" id="-36226">
		<tag k="name" v="Løyftmyra" />
		<tag k="natural" v="wetland" />
		<tag k="ssr:stedsnr" v="33310" />
	</node>
	<node lat="63.42419166989885" lon="9.943627767991059" id="-36234">
		<tag k="name" v="Stormyra" />
		<tag k="natural" v="wetland" />
		<tag k="ssr:stedsnr" v="33708" />
	</node>
	<node lat="63.34907777631251" lon="9.893274993625434" id="-36237">
		<tag k="landuse" v="quarry" />
		<tag k="name" v="Duvagruva" />
		<tag k="ssr:stedsnr" v="33464" />
	</node>
	<node lat="63.47769721933876" lon="9.455980561338661" id="-36242">
		<tag k="name" v="Torvmyra" />
		<tag k="natural" v="wetland" />
		<tag k="ssr:stedsnr" v="33818" />
	</node>
	<node lat="63.219597220011174" lon="9.725641670417373" id="-36245">
		<tag k="name" v="Vargmyra" />
		<tag k="natural" v="wetland" />
		<tag k="ssr:stedsnr" v="34105" />
	</node>
	<node lat="63.1705472222284" lon="9.898130551267235" id="-36254">
		<tag k="name" v="Bergslættet" />
		<tag k="natural" v="wetland" />
		<tag k="ssr:stedsnr" v="34308" />
	</node>
	<node lat="63.176063887622455" lon="9.891958332808466" id="-36255">
		<tag k="name" v="Stormyra" />
		<tag k="natural" v="wetland" />
		<tag k="ssr:stedsnr" v="34311" />
	</node>
	<node lat="63.41813889047526" lon="9.963155559037952" id="-36260">
		<tag k="name" v="Kleivan" />
		<tag k="place" v="locality" />
		<tag k="ssr:stedsnr" v="34706" />
	</node>
	<node lat="63.213975002113614" lon="9.599230560153691" id="-36266">
		<tag k="name" v="Stormyra" />
		<tag k="natural" v="wetland" />
		<tag k="ssr:stedsnr" v="34808" />
	</node>
	<node lat="63.170327774910184" lon="9.735319446673095" id="-36267">
		<tag k="name" v="Vollplassen" />
		<tag k="place" v="locality" />
		<tag k="ssr:stedsnr" v="35229" />
	</node>
	<node lat="63.45351666691103" lon="9.918077785281099" id="-36283">
		<tag k="name" v="Gjøtmyra" />
		<tag k="natural" v="wetland" />
		<tag k="ssr:stedsnr" v="38080" />
	</node>
	<node lat="63.63366388791659" lon="9.679819453748856" id="-36286">
		<tag k="name" v="Lunden" />
		<tag k="place" v="locality" />
		<tag k="ssr:stedsnr" v="38308" />
	</node>
	<node lat="63.43139722626874" lon="9.77553610903426" id="-36300">
		<tag k="name" v="Kvellhagan" />
		<tag k="place" v="locality" />
		<tag k="ssr:stedsnr" v="39510" />
	</node>
	<node lat="63.438205556454655" lon="9.791022231834175" id="-36302">
		<tag k="name" v="Storlihalsen" />
		<tag k="place" v="locality" />
		<tag k="ssr:stedsnr" v="39527" />
	</node>
	<node lat="63.232369444923854" lon="9.44145834108249" id="-36313">
		<tag k="name" v="Storkjølen" />
		<tag k="natural" v="wetland" />
		<tag k="ssr:stedsnr" v="55580" />
	</node>
	<node lat="63.05931111267976" lon="9.727430564735398" id="-36348">
		<tag k="alt_name" v="Viktoria" />
		<tag k="landuse" v="quarry" />
		<tag k="name" v="Viktoriagruva" />
		<tag k="ssr:stedsnr" v="73626" />
	</node>
	<node lat="62.98705833554027" lon="9.897663885794318" id="-36357">
		<tag k="name" v="Raudhattfloen" />
		<tag k="natural" v="wetland" />
		<tag k="ssr:stedsnr" v="73772" />
	</node>
	<node lat="63.16435277798858" lon="9.55932778131746" id="-36377">
		<tag k="historic" v="shieling" />
		<tag k="name" v="Vavollan" />
		<tag k="place" v="locality" />
		<tag k="ssr:stedsnr" v="89010" />
	</node>
	<node lat="63.12500000381011" lon="9.552363883960023" id="-36379">
		<tag k="name" v="Svenskodden" />
		<tag k="place" v="locality" />
		<tag k="ssr:stedsnr" v="89019" />
	</node>
	<node lat="62.97726125257069" lon="9.71897415706911" id="-36382">
		<tag k="name" v="Malistuggu" />
		<tag k="place" v="locality" />
		<tag k="ssr:stedsnr" v="89123" />
	</node>
	<node lat="63.07402222377325" lon="9.567097215150756" id="-36383">
		<tag k="name" v="Skarmyra" />
		<tag k="natural" v="wetland" />
		<tag k="ssr:stedsnr" v="89124" />
	</node>
	<node lat="63.13611388826848" lon="9.715580564369525" id="-36386">
		<tag k="name" v="Kattråa" />
		<tag k="place" v="locality" />
		<tag k="ssr:stedsnr" v="89310" />
	</node>
	<node lat="63.13338611551807" lon="9.762822223687351" id="-36387">
		<tag k="name" v="Bakken" />
		<tag k="place" v="locality" />
		<tag k="ssr:stedsnr" v="89311" />
	</node>
	<node lat="63.13028888932342" lon="9.609755561785953" id="-36389">
		<tag k="name" v="Misjonshåggån" />
		<tag k="place" v="locality" />
		<tag k="ssr:stedsnr" v="89319" />
	</node>
	<node lat="62.95947500227501" lon="9.574244448701974" id="-36393">
		<tag k="name" v="Langlimyran" />
		<tag k="natural" v="wetland" />
		<tag k="ssr:stedsnr" v="89073" />
	</node>
	<node lat="63.01478333022677" lon="9.752161119943855" id="-36394">
		<tag k="name" v="Kvernaringen" />
		<tag k="place" v="locality" />
		<tag k="ssr:stedsnr" v="89076" />
	</node>
	<node lat="62.99575833409882" lon="9.759222226705365" id="-36395">
		<tag k="name" v="Fitjgjelan" />
		<tag k="place" v="locality" />
		<tag k="ssr:stedsnr" v="89078" />
	</node>
	<node lat="62.97620833034618" lon="9.641102783415961" id="-36396">
		<tag k="name" v="Storviholtet" />
		<tag k="place" v="locality" />
		<tag k="ssr:stedsnr" v="89228" />
	</node>
	<node lat="63.16935555575329" lon="9.52080278213574" id="-36397">
		<tag k="name" v="Plasshåggån" />
		<tag k="place" v="locality" />
		<tag k="ssr:stedsnr" v="89403" />
	</node>
	<node lat="63.46363332897198" lon="9.470502776028216" id="-36424">
		<tag k="name" v="Hyllan" />
		<tag k="place" v="locality" />
		<tag k="ssr:stedsnr" v="93414" />
	</node>
	<node lat="63.40801666278184" lon="9.457622219258251" id="-36427">
		<tag k="historic" v="shieling" />
		<tag k="name" v="Blautsetra" />
		<tag k="place" v="locality" />
		<tag k="ssr:stedsnr" v="93380" />
	</node>
	<node lat="63.294322224627585" lon="9.741627778029665" id="-36444">
		<tag k="historic" v="shieling" />
		<tag k="name" v="Haugemssætra" />
		<tag k="place" v="locality" />
		<tag k="ssr:stedsnr" v="94280" />
	</node>
	<node lat="63.28940000158037" lon="9.73150834080836" id="-36448">
		<tag k="name" v="Stormyra" />
		<tag k="natural" v="wetland" />
		<tag k="ssr:stedsnr" v="94288" />
	</node>
	<node lat="63.20618889240473" lon="9.867999990302224" id="-36450">
		<tag k="name" v="Granmyra" />
		<tag k="natural" v="wetland" />
		<tag k="ssr:stedsnr" v="94405" />
	</node>
	<node lat="63.39236388476541" lon="9.90273889367894" id="-36458">
		<tag k="name" v="Litlslættholman" />
		<tag k="natural" v="wetland" />
		<tag k="ssr:stedsnr" v="94703" />
	</node>
	<node lat="63.3790999962096" lon="9.297980554416707" id="-36463">
		<tag k="name" v="Svortmyra" />
		<tag k="natural" v="wetland" />
		<tag k="ssr:stedsnr" v="94952" />
	</node>
	<node lat="63.18338333626746" lon="9.452980549397745" id="-36464">
		<tag k="name" v="Tobakksmyra" />
		<tag k="natural" v="wetland" />
		<tag k="ssr:stedsnr" v="95562" />
	</node>
	<node lat="63.193247223399545" lon="9.54975833343894" id="-36465">
		<tag k="name" v="Flata" />
		<tag k="place" v="locality" />
		<tag k="ssr:stedsnr" v="95708" />
	</node>
	<node lat="63.20106666753179" lon="9.762247224627549" id="-36471">
		<tag k="name" v="Stigen" />
		<tag k="place" v="locality" />
		<tag k="ssr:stedsnr" v="95881" />
	</node>
	<node lat="63.283855556425124" lon="9.672908324207397" id="-36473">
		<tag k="name" v="Harangshåggån" />
		<tag k="place" v="locality" />
		<tag k="ssr:stedsnr" v="95964" />
	</node>
	<node lat="63.29579721936431" lon="9.59507776892873" id="-36475">
		<tag k="name" v="Stormyra" />
		<tag k="natural" v="wetland" />
		<tag k="ssr:stedsnr" v="95977" />
	</node>
	<node lat="63.15952500390547" lon="9.882530549723697" id="-36480">
		<tag k="name" v="Langmyran" />
		<tag k="natural" v="wetland" />
		<tag k="ssr:stedsnr" v="96726" />
	</node>
	<node lat="63.48111389063166" lon="9.84351110486257" id="-36489">
		<tag k="name" v="Snaunet" />
		<tag k="place" v="locality" />
		<tag k="ssr:stedsnr" v="99014" />
	</node>
	<node lat="63.452744443227054" lon="9.82031110296157" id="-36490">
		<tag k="historic" v="shieling" />
		<tag k="name" v="Vollen" />
		<tag k="place" v="locality" />
		<tag k="ssr:stedsnr" v="99060" />
	</node>
	<node lat="63.47729166322749" lon="9.771991671722516" id="-36498">
		<tag k="name" v="Melan" />
		<tag k="place" v="locality" />
		<tag k="ssr:stedsnr" v="99403" />
	</node>
	<node lat="63.023666664946624" lon="9.672575005007625" id="-36525">
		<tag k="name" v="Langura" />
		<tag k="natural" v="scree" />
		<tag k="ssr:stedsnr" v="133309" />
	</node>
	<node lat="63.07270277649208" lon="9.867919437269432" id="-36652">
		<tag k="name" v="Jonashåggån" />
		<tag k="place" v="locality" />
		<tag k="ssr:stedsnr" v="149706" />
	</node>
	<node lat="63.10441666581029" lon="9.531838893312013" id="-36655">
		<tag k="name" v="Hjellan" />
		<tag k="place" v="locality" />
		<tag k="ssr:stedsnr" v="150056" />
	</node>
	<node lat="62.974408334133784" lon="9.697683332534261" id="-36664">
		<tag k="name" v="Skulgjerdlotten" />
		<tag k="place" v="locality" />
		<tag k="ssr:stedsnr" v="150255" />
	</node>
	<node lat="63.05448332892304" lon="9.690619454054147" id="-36669">
		<tag k="name" v="Gjelan" />
		<tag k="place" v="locality" />
		<tag k="ssr:stedsnr" v="150158" />
	</node>
	<node lat="63.13448333006619" lon="9.602861116345387" id="-36670">
		<tag k="name" v="Linkjeldmyra" />
		<tag k="natural" v="wetland" />
		<tag k="ssr:stedsnr" v="150302" />
	</node>
	<node lat="63.13576110796849" lon="9.634941668778291" id="-36671">
		<tag k="name" v="Undøya" />
		<tag k="place" v="locality" />
		<tag k="ssr:stedsnr" v="150308" />
	</node>
	<node lat="63.10577222222367" lon="9.651533340476021" id="-36672">
		<tag k="landuse" v="meadow" />
		<tag k="name" v="Hestbeitet" />
		<tag k="ssr:stedsnr" v="150313" />
	</node>
	<node lat="63.05520555131289" lon="9.731205557095914" id="-36676">
		<tag k="name" v="Småslåtta" />
		<tag k="place" v="locality" />
		<tag k="ssr:stedsnr" v="150403" />
	</node>
	<node lat="63.07705555183268" lon="9.506897222716734" id="-36678">
		<tag k="name" v="Skarvkjølen" />
		<tag k="natural" v="wetland" />
		<tag k="ssr:stedsnr" v="150411" />
	</node>
	<node lat="62.936125003479106" lon="9.532016669099892" id="-36679">
		<tag k="name" v="Nedstuggujølenget" />
		<tag k="place" v="locality" />
		<tag k="ssr:stedsnr" v="150454" />
	</node>
	<node lat="62.93520277608368" lon="9.53665000577873" id="-36680">
		<tag k="name" v="Tuftjølenget" />
		<tag k="place" v="locality" />
		<tag k="ssr:stedsnr" v="150455" />
	</node>
	<node lat="63.05813055878138" lon="9.923780556941606" id="-36686">
		<tag k="name" v="Stormyra" />
		<tag k="natural" v="wetland" />
		<tag k="ssr:stedsnr" v="150619" />
	</node>
	<node lat="62.989613887021854" lon="9.50313333185537" id="-36690">
		<tag k="name" v="Vålåskarskjølen" />
		<tag k="natural" v="wetland" />
		<tag k="ssr:stedsnr" v="150504" />
	</node>
	<node lat="63.300030557934136" lon="9.423819437754682" id="-36705">
		<tag k="name" v="Meslættet" />
		<tag k="place" v="locality" />
		<tag k="ssr:stedsnr" v="154302" />
	</node>
	<node lat="63.27028889078448" lon="9.747772218925315" id="-36723">
		<tag k="name" v="Polmyra" />
		<tag k="natural" v="wetland" />
		<tag k="ssr:stedsnr" v="155009" />
	</node>
	<node lat="63.30608055252574" lon="9.87010556259939" id="-36734">
		<tag k="name" v="Spennsteinen" />
		<tag k="natural" v="stone" />
		<tag k="ssr:stedsnr" v="155436" />
	</node>
	<node lat="63.20747222117747" lon="9.868788898574818" id="-36736">
		<tag k="name" v="Fadervårskogen" />
		<tag k="place" v="locality" />
		<tag k="ssr:stedsnr" v="155312" />
	</node>
	<node lat="63.18559444307414" lon="9.876577773967657" id="-36739">
		<tag k="name" v="Snøtongjerdet" />
		<tag k="place" v="locality" />
		<tag k="ssr:stedsnr" v="155333" />
	</node>
	<node lat="63.34864166337011" lon="9.850888891193001" id="-36740">
		<tag k="historic" v="shieling" />
		<tag k="name" v="Gammelsætervollen" />
		<tag k="place" v="locality" />
		<tag k="ssr:stedsnr" v="155379" />
	</node>
	<node lat="63.432299996217594" lon="9.972672220776762" id="-36745">
		<tag k="historic" v="shieling" />
		<tag k="name" v="Rovollen" />
		<tag k="place" v="locality" />
		<tag k="ssr:stedsnr" v="155721" />
	</node>
	<node lat="63.38264722656145" lon="9.903011115212621" id="-36748">
		<tag k="name" v="Aundalsmyran" />
		<tag k="natural" v="wetland" />
		<tag k="ssr:stedsnr" v="155608" />
	</node>
	<node lat="63.18230000143964" lon="9.66756667178543" id="-36749">
		<tag k="name" v="Kvilsteinmyra" />
		<tag k="natural" v="wetland" />
		<tag k="ssr:stedsnr" v="155613" />
	</node>
	<node lat="63.38274167003993" lon="9.867130552788542" id="-36753">
		<tag k="name" v="Lunningsmyra" />
		<tag k="natural" v="wetland" />
		<tag k="ssr:stedsnr" v="155621" />
	</node>
	<node lat="63.27390555273534" lon="9.672177786243761" id="-36758">
		<tag k="name" v="Håggåmyra" />
		<tag k="natural" v="wetland" />
		<tag k="ssr:stedsnr" v="156799" />
	</node>
	<node lat="63.20363610986462" lon="9.700291656731649" id="-36761">
		<tag k="name" v="Storlykkja" />
		<tag k="place" v="locality" />
		<tag k="ssr:stedsnr" v="156928" />
	</node>
	<node lat="63.21224999674864" lon="9.55652500522913" id="-36764">
		<tag k="name" v="Danielsmyra" />
		<tag k="natural" v="wetland" />
		<tag k="ssr:stedsnr" v="156817" />
	</node>
	<node lat="63.3582666687074" lon="9.682866656919307" id="-36769">
		<tag k="name" v="Røysa" />
		<tag k="natural" v="scree" />
		<tag k="ssr:stedsnr" v="156897" />
	</node>
	<node lat="63.472041662275245" lon="9.714858329789388" id="-36773">
		<tag k="landuse" v="meadow" />
		<tag k="name" v="Stakkenget" />
		<tag k="ssr:stedsnr" v="159120" />
	</node>
	<node lat="63.500436114645865" lon="9.823588888310526" id="-36778">
		<tag k="name" v="Myran" />
		<tag k="place" v="locality" />
		<tag k="ssr:stedsnr" v="159011" />
	</node>
	<node lat="63.23024722355763" lon="9.422622215912057" id="-36793">
		<tag k="name" v="Stugguåkeren" />
		<tag k="place" v="locality" />
		<tag k="ssr:stedsnr" v="162564" />
	</node>
	<node lat="63.23163055141309" lon="9.47086110501149" id="-36794">
		<tag k="name" v="Storkjølen" />
		<tag k="natural" v="wetland" />
		<tag k="ssr:stedsnr" v="163561" />
	</node>
	<node lat="63.12726667003913" lon="9.646866658629603" id="-36797">
		<tag k="historic" v="shieling" />
		<tag k="name" v="Moshaugen " />
		<tag k="place" v="locality" />
		<tag k="ssr:stedsnr" v="272554" />
	</node>
	<node lat="63.161338885283506" lon="9.552880549555955" id="-36812">
		<tag k="name" v="Bjørnaråa" />
		<tag k="place" v="locality" />
		<tag k="ssr:stedsnr" v="211009" />
	</node>
	<node lat="63.15259722123416" lon="9.559988893723094" id="-36813">
		<tag k="name" v="Brentmyra" />
		<tag k="natural" v="wetland" />
		<tag k="ssr:stedsnr" v="211010" />
	</node>
	<node lat="63.06603610884382" lon="9.563486113803618" id="-36817">
		<tag k="name" v="Fjellslåtta" />
		<tag k="place" v="locality" />
		<tag k="ssr:stedsnr" v="211107" />
	</node>
	<node lat="63.122344444676756" lon="9.553866660508362" id="-36818">
		<tag k="name" v="Litjkåsen" />
		<tag k="place" v="locality" />
		<tag k="ssr:stedsnr" v="211111" />
	</node>
	<node lat="63.10241666700352" lon="9.562486110990827" id="-36821">
		<tag k="name" v="Lykkjon" />
		<tag k="place" v="locality" />
		<tag k="ssr:stedsnr" v="211126" />
	</node>
	<node lat="62.97470833194027" lon="9.776724993381933" id="-36822">
		<tag k="name" v="Loftet" />
		<tag k="place" v="locality" />
		<tag k="ssr:stedsnr" v="211131" />
	</node>
	<node lat="62.95889444377434" lon="9.652674995380112" id="-36825">
		<tag k="name" v="Kvernhusøya" />
		<tag k="place" v="locality" />
		<tag k="ssr:stedsnr" v="211143" />
	</node>
	<node lat="62.96846388754043" lon="9.702644442868275" id="-36830">
		<tag k="name" v="Letdållån" />
		<tag k="place" v="locality" />
		<tag k="ssr:stedsnr" v="211177" />
	</node>
	<node lat="63.10833055234278" lon="9.651822223223018" id="-36835">
		<tag k="name" v="Røsslåtta" />
		<tag k="place" v="locality" />
		<tag k="ssr:stedsnr" v="211310" />
	</node>
	<node lat="63.07884722419399" lon="9.602708335979091" id="-36841">
		<tag k="name" v="Olderøya" />
		<tag k="place" v="locality" />
		<tag k="ssr:stedsnr" v="211231" />
	</node>
	<node lat="63.128905559151185" lon="9.70388888293948" id="-36845">
		<tag k="landuse" v="meadow" />
		<tag k="name" v="Kjela" />
		<tag k="ssr:stedsnr" v="211289" />
	</node>
	<node lat="63.03225000026867" lon="9.714405551165115" id="-36847">
		<tag k="name" v="Kjeløyan" />
		<tag k="place" v="locality" />
		<tag k="ssr:stedsnr" v="211406" />
	</node>
	<node lat="63.10551388626789" lon="9.47844167557898" id="-36848">
		<tag k="name" v="Slættrabben" />
		<tag k="place" v="locality" />
		<tag k="ssr:stedsnr" v="211409" />
	</node>
	<node lat="63.03880000362118" lon="9.814238893236803" id="-36849">
		<tag k="name" v="Sølbergskjølen" />
		<tag k="natural" v="wetland" />
		<tag k="ssr:stedsnr" v="211411" />
	</node>
	<node lat="63.129594441781784" lon="9.486083328039946" id="-36863">
		<tag k="landuse" v="meadow" />
		<tag k="name" v="Omgangsenget" />
		<tag k="ssr:stedsnr" v="211384" />
	</node>
	<node lat="63.032066669982555" lon="9.929949998394925" id="-36867">
		<tag k="historic" v="shieling" />
		<tag k="name" v="Snikkarsætervollen" />
		<tag k="place" v="locality" />
		<tag k="ssr:stedsnr" v="211527" />
	</node>
	<node lat="63.54263888480109" lon="9.44828611835416" id="-36884">
		<tag k="name" v="Gammelgården" />
		<tag k="place" v="locality" />
		<tag k="ssr:stedsnr" v="215002" />
	</node>
	<node lat="63.4853638888447" lon="9.511941667077874" id="-36903">
		<tag k="name" v="Åststranda" />
		<tag k="place" v="locality" />
		<tag k="ssr:stedsnr" v="215074" />
	</node>
	<node lat="63.21159166706556" lon="9.894897213563008" id="-36928">
		<tag k="name" v="Solemslykkjon" />
		<tag k="place" v="locality" />
		<tag k="ssr:stedsnr" v="216276" />
	</node>
	<node lat="63.20198055163887" lon="9.849822229734622" id="-36931">
		<tag k="name" v="Vaulmyra" />
		<tag k="natural" v="wetland" />
		<tag k="ssr:stedsnr" v="216295" />
	</node>
	<node lat="63.30880833094296" lon="9.792380561862908" id="-36935">
		<tag k="name" v="Sagplassen" />
		<tag k="place" v="locality" />
		<tag k="ssr:stedsnr" v="216173" />
	</node>
	<node lat="63.295608334588586" lon="9.767186118228619" id="-36936">
		<tag k="name" v="Sætermyra" />
		<tag k="natural" v="wetland" />
		<tag k="ssr:stedsnr" v="216195" />
	</node>
	<node lat="63.208088887993576" lon="9.690980560058795" id="-36940">
		<tag k="name" v="Langmyra" />
		<tag k="natural" v="wetland" />
		<tag k="ssr:stedsnr" v="216624" />
	</node>
	<node lat="63.368138885520395" lon="9.871130560513778" id="-36955">
		<tag k="name" v="Såttån" />
		<tag k="place" v="locality" />
		<tag k="ssr:stedsnr" v="216594" />
	</node>
	<node lat="63.24806110838213" lon="9.565474993003226" id="-36959">
		<tag k="name" v="Osplienget" />
		<tag k="natural" v="wetland" />
		<tag k="ssr:stedsnr" v="216773" />
	</node>
	<node lat="63.212072226532" lon="9.741058334652013" id="-36962">
		<tag k="name" v="Ljøkjelmyra" />
		<tag k="natural" v="wetland" />
		<tag k="ssr:stedsnr" v="217102" />
	</node>
	<node lat="63.16524722210518" lon="9.862497214669657" id="-36963">
		<tag k="landuse" v="meadow" />
		<tag k="name" v="Rørtjønnhåggån" />
		<tag k="ssr:stedsnr" v="217414" />
	</node>
	<node lat="63.22854722429968" lon="9.8133055521597" id="-36966">
		<tag k="name" v="Langmyra" />
		<tag k="natural" v="wetland" />
		<tag k="ssr:stedsnr" v="217905" />
	</node>
	<node lat="63.21930555183393" lon="9.814344450074604" id="-36967">
		<tag k="name" v="Rambergmyra" />
		<tag k="natural" v="wetland" />
		<tag k="ssr:stedsnr" v="217908" />
	</node>
	<node lat="63.164699998649844" lon="9.795450000734261" id="-36969">
		<tag k="name" v="Myrlykkjhåggån" />
		<tag k="place" v="locality" />
		<tag k="ssr:stedsnr" v="217804" />
	</node>
	<node lat="63.30019999877019" lon="9.590316672641059" id="-36974">
		<tag k="name" v="Gauken" />
		<tag k="natural" v="wetland" />
		<tag k="ssr:stedsnr" v="217976" />
	</node>
	<node lat="63.45649999626815" lon="9.92407777185861" id="-36977">
		<tag k="name" v="Vikan" />
		<tag k="place" v="locality" />
		<tag k="ssr:stedsnr" v="220106" />
	</node>
	<node lat="63.46730277347646" lon="9.85628054633598" id="-36983">
		<tag k="name" v="Sjørgrova" />
		<tag k="place" v="locality" />
		<tag k="ssr:stedsnr" v="220090" />
	</node>
	<node lat="63.45709721912969" lon="9.737677779236256" id="-36986">
		<tag k="name" v="Smørauga" />
		<tag k="place" v="locality" />
		<tag k="ssr:stedsnr" v="220508" />
	</node>
	<node lat="62.971819441480484" lon="9.713836102231935" id="-36999">
		<tag k="landuse" v="meadow" />
		<tag k="name" v="Dålåbrekka" />
		<tag k="ssr:stedsnr" v="271003" />
	</node>
	<node lat="63.54751944714173" lon="9.723891671952288" id="-37014">
		<tag k="name" v="Lykkja" />
		<tag k="place" v="locality" />
		<tag k="ssr:stedsnr" v="221882" />
	</node>
	<node lat="63.5416694459435" lon="9.703722213900635" id="-37016">
		<tag k="name" v="Laksrenslet" />
		<tag k="natural" v="wetland" />
		<tag k="ssr:stedsnr" v="221889" />
	</node>
	<node lat="63.16607778135415" lon="9.527933341636889" id="-37020">
		<tag k="name" v="Kvernhusekra" />
		<tag k="place" v="locality" />
		<tag k="ssr:stedsnr" v="271037" />
	</node>
	<node lat="63.160550000449284" lon="9.537872223248458" id="-37022">
		<tag k="name" v="Heggflotten" />
		<tag k="place" v="locality" />
		<tag k="ssr:stedsnr" v="271054" />
	</node>
	<node lat="63.089019443956616" lon="9.589591676172889" id="-37024">
		<tag k="name" v="Raudtjønnmoen" />
		<tag k="place" v="locality" />
		<tag k="ssr:stedsnr" v="271062" />
	</node>
	<node lat="63.098244440355835" lon="9.601836108094382" id="-37026">
		<tag k="name" v="Tussan" />
		<tag k="place" v="locality" />
		<tag k="ssr:stedsnr" v="271068" />
	</node>
	<node lat="63.2241194433479" lon="9.393544449060158" id="-37027">
		<tag k="name" v="Vinterekra" />
		<tag k="place" v="locality" />
		<tag k="ssr:stedsnr" v="222723" />
	</node>
	<node lat="62.99688611048158" lon="9.79155556492495" id="-37031">
		<tag k="name" v="Torvmyra" />
		<tag k="natural" v="wetland" />
		<tag k="ssr:stedsnr" v="271086" />
	</node>
	<node lat="63.06425555888736" lon="9.560791672281933" id="-37033">
		<tag k="name" v="Fjellslåttkjølen" />
		<tag k="natural" v="wetland" />
		<tag k="ssr:stedsnr" v="271106" />
	</node>
	<node lat="63.05861111339852" lon="9.565238883899024" id="-37035">
		<tag k="name" v="Dombusenget" />
		<tag k="natural" v="wetland" />
		<tag k="ssr:stedsnr" v="271108" />
	</node>
	<node lat="63.06482777902637" lon="9.566872220148381" id="-37038">
		<tag k="name" v="Synnerkroken" />
		<tag k="place" v="locality" />
		<tag k="ssr:stedsnr" v="271127" />
	</node>
	<node lat="62.95972777921224" lon="9.594711120860492" id="-37048">
		<tag k="name" v="Flomyra" />
		<tag k="natural" v="wetland" />
		<tag k="ssr:stedsnr" v="271292" />
	</node>
	<node lat="63.127433336608476" lon="9.7779555570396" id="-37049">
		<tag k="landuse" v="meadow" />
		<tag k="name" v="Omgangsenget" />
		<tag k="ssr:stedsnr" v="271319" />
	</node>
</osm>
