<?xml version="1.0" encoding="UTF-8"?>
<osm generator="osmapis" version="0.6">
	<node id="-724991" lat="63.1255111082" lon="9.65089166039">
		<tag k="name" v="Moshaugtjønna" />
		<tag k="natural" v="water" />
		<tag k="ssr:stedsnr" v="150676" />
	</node>
	<node id="-724989" lat="63.0815722246" lon="9.91931944886">
		<tag k="name" v="Jutultjønna" />
		<tag k="natural" v="water" />
		<tag k="ssr:stedsnr" v="150654" />
	</node>
	<node id="-722939" lat="62.9921666647" lon="9.53177777488">
		<tag k="name" v="Snipvatna" />
		<tag k="natural" v="water" />
		<tag k="ssr:stedsnr" v="741214" />
	</node>
	<node id="-721919" lat="63.3295444429" lon="9.60037499516">
		<tag k="name" v="Revodden" />
		<tag k="natural" v="cape" />
		<tag k="ssr:stedsnr" v="558169" />
	</node>
	<node id="-720878" lat="63.0135527801" lon="9.91415833426">
		<tag k="name" v="Aurevatnet" />
		<tag k="natural" v="water" />
		<tag k="ssr:stedsnr" v="332321" />
		<tag k="water" v="lake" />
	</node>
	<node id="-722941" lat="63.2959111142" lon="9.69625000272">
		<tag k="name" v="Høglitjønna" />
		<tag k="natural" v="water" />
		<tag k="ssr:stedsnr" v="741270" />
	</node>
	<node id="-724919" lat="63.58867222" lon="9.58558888801">
		<tag k="name" v="Djupdalstjørn" />
		<tag k="natural" v="water" />
		<tag k="ssr:stedsnr" v="144573" />
	</node>
	<node id="-720077" lat="63.3100222184" lon="9.70694999696">
		<tag k="fixme" v="multiple name tags, choose one and add the other to alt_name" />
		<tag k="name" v="Fjellskardtjønna;Litltjønna" />
		<tag k="natural" v="water" />
		<tag k="ssr:stedsnr" v="195207" />
	</node>
	<node id="-722918" lat="63.2210527787" lon="9.41908334257">
		<tag k="name" v="Småholman" />
		<tag k="place" v="islet" />
		<tag k="ssr:stedsnr" v="740555" />
	</node>
	<node id="-722916" lat="63.1274611138" lon="9.50920554908">
		<tag k="name" v="Espåsvatnet" />
		<tag k="natural" v="water" />
		<tag k="ssr:stedsnr" v="740461" />
	</node>
	<node id="-724962" lat="63.146869446" lon="9.80048610638">
		<tag k="name" v="Bukkdalsbekken" />
		<tag k="ssr:stedsnr" v="150297" />
		<tag k="waterway" v="stream" />
	</node>
	<node id="-720863" lat="62.9735750028" lon="9.62007222362">
		<tag k="name" v="Litjela" />
		<tag k="ssr:stedsnr" v="332203" />
		<tag k="waterway" v="stream" />
	</node>
	<node id="-722907" lat="63.1352305545" lon="9.83118334244">
		<tag k="name" v="Mælan" />
		<tag k="natural" v="water" />
		<tag k="ssr:stedsnr" v="740080" />
	</node>
	<node id="-722906" lat="63.141249997" lon="9.80118333974">
		<tag k="name" v="Stavelitjønna" />
		<tag k="natural" v="water" />
		<tag k="ssr:stedsnr" v="740079" />
	</node>
	<node id="-724953" lat="63.0239055594" lon="9.66486665761">
		<tag k="name" v="Refsdalsbekken" />
		<tag k="ssr:stedsnr" v="150182" />
		<tag k="waterway" v="stream" />
	</node>
	<node id="-720856" lat="62.9660611132" lon="9.63253611282">
		<tag k="name" v="Storela" />
		<tag k="ssr:stedsnr" v="332120" />
		<tag k="waterway" v="river" />
	</node>
	<node id="-720855" lat="63.0496861084" lon="9.61446112062">
		<tag k="name" v="Skjerva" />
		<tag k="ssr:stedsnr" v="332116" />
		<tag k="waterway" v="river" />
	</node>
	<node id="-722902" lat="63.2218472242" lon="9.5296666585">
		<tag k="name" v="Tortlibekken" />
		<tag k="old_name" v="Trollbekken" />
		<tag k="ssr:stedsnr" v="723574" />
		<tag k="waterway" v="stream" />
	</node>
	<node id="-720849" lat="63.1501361096" lon="9.57828055158">
		<tag k="name" v="Lomtjønna" />
		<tag k="natural" v="water" />
		<tag k="ssr:stedsnr" v="332027" />
	</node>
	<node id="-724301" lat="63.5333222235" lon="9.67276110731">
		<tag k="name" v="Størdalselva" />
		<tag k="ssr:stedsnr" v="39519" />
		<tag k="waterway" v="river" />
	</node>
	<node id="-720839" lat="63.3649000001" lon="9.92157777132">
		<tag k="name" v="Langbekken" />
		<tag k="ssr:stedsnr" v="519656" />
		<tag k="waterway" v="stream" />
	</node>
	<node id="-720837" lat="63.4037444479" lon="9.94029443818">
		<tag k="name" v="Innerbekken" />
		<tag k="ssr:stedsnr" v="519647" />
		<tag k="waterway" v="stream" />
	</node>
	<node id="-724932" lat="63.0114166686" lon="9.82683611553">
		<tag k="name" v="Jonsholdbekken" />
		<tag k="ssr:stedsnr" v="150082" />
		<tag k="waterway" v="stream" />
	</node>
	<node id="-722882" lat="63.2302638856" lon="9.43197499791">
		<tag k="name" v="Dalabekken" />
		<tag k="ssr:stedsnr" v="890752" />
		<tag k="waterway" v="stream" />
	</node>
	<node id="-724929" lat="63.0958055528" lon="9.85728333753">
		<tag k="name" v="Vaulen" />
		<tag k="natural" v="bay" />
		<tag k="ssr:stedsnr" v="149761" />
	</node>
	<node id="-724927" lat="63.0552194478" lon="9.96049444917">
		<tag k="name" v="Hestskotjønna" />
		<tag k="natural" v="water" />
		<tag k="ssr:stedsnr" v="149392" />
	</node>
	<node id="-720830" lat="63.4063499971" lon="9.59307221348">
		<tag k="name" v="Hestfjelltjørna" />
		<tag k="natural" v="water" />
		<tag k="ssr:stedsnr" v="316810" />
	</node>
	<node id="-720829" lat="63.0674916638" lon="9.79994166629">
		<tag k="name" v="Lonflåa" />
		<tag k="ssr:stedsnr" v="316668" />
		<tag k="waterway" v="stream" />
	</node>
	<node id="-724922" lat="62.9878166709" lon="9.98118610145">
		<tag k="name" v="Boltjønna" />
		<tag k="natural" v="water" />
		<tag k="ssr:stedsnr" v="149330" />
	</node>
	<node id="-724920" lat="63.5983333292" lon="9.71283334059">
		<tag k="name" v="Stokkslættjørn" />
		<tag k="natural" v="water" />
		<tag k="ssr:stedsnr" v="144576" />
	</node>
	<node id="-722871" lat="63.228122225" lon="9.74042223173">
		<tag k="name" v="Lefstobekken" />
		<tag k="ssr:stedsnr" v="702112" />
		<tag k="waterway" v="stream" />
	</node>
	<node id="-721907" lat="63.383786109" lon="9.89829444838">
		<tag k="name" v="Anderskåsdammen" />
		<tag k="natural" v="water" />
		<tag k="ssr:stedsnr" v="701691" />
	</node>
	<node id="-722248" lat="63.2666749981" lon="9.60638054566">
		<tag k="name" v="Lomtjønna" />
		<tag k="natural" v="water" />
		<tag k="ssr:stedsnr" v="619014" />
	</node>
	<node id="-720814" lat="63.5509944427" lon="9.47889722624">
		<tag k="name" v="Litlvatnet" />
		<tag k="natural" v="water" />
		<tag k="ssr:stedsnr" v="316155" />
	</node>
	<node id="-724907" lat="63.5686611149" lon="9.77047777588">
		<tag k="name" v="Åremselva" />
		<tag k="ssr:stedsnr" v="134564" />
		<tag k="waterway" v="stream" />
	</node>
	<node id="-722530" lat="63.4069611085" lon="9.2701499993">
		<tag k="name" v="Norddalsbukta" />
		<tag k="natural" v="bay" />
		<tag k="ssr:stedsnr" v="882130" />
	</node>
	<node id="-722855" lat="63.2736194481" lon="9.89339443878">
		<tag k="name" v="Ståkkåtjønna" />
		<tag k="natural" v="water" />
		<tag k="ssr:stedsnr" v="701353" />
	</node>
	<node id="-720801" lat="63.2295833362" lon="9.8556833365">
		<tag k="name" v="Langtjønna" />
		<tag k="natural" v="water" />
		<tag k="ssr:stedsnr" v="315221" />
	</node>
	<node id="-720800" lat="62.9278736245" lon="9.45943766197">
		<tag k="name" v="Raudfjelltjønna" />
		<tag k="natural" v="water" />
		<tag k="old_name" v="Raudfjellvatnet" />
		<tag k="ssr:stedsnr" v="315210" />
		<tag k="water" v="lake" />
	</node>
	<node id="-720799" lat="63.1303027734" lon="9.78630555576">
		<tag k="name" v="Sjurdsåstjønnin" />
		<tag k="natural" v="water" />
		<tag k="ssr:stedsnr" v="315062" />
	</node>
	<node id="-722844" lat="63.2707500024" lon="9.75487221392">
		<tag k="name" v="Formobekken" />
		<tag k="ssr:stedsnr" v="701009" />
		<tag k="waterway" v="stream" />
	</node>
	<node id="-722843" lat="63.3050222264" lon="9.44551666118">
		<tag k="name" v="Slættesbekken" />
		<tag k="ssr:stedsnr" v="701266" />
		<tag k="waterway" v="stream" />
	</node>
	<node id="-724890" lat="63.5217472187" lon="9.61020000198">
		<tag k="name" v="Steinsdalselva" />
		<tag k="ssr:stedsnr" v="134193" />
		<tag k="waterway" v="stream" />
	</node>
	<node id="-722841" lat="63.3381277804" lon="9.73544443947">
		<tag k="name" v="Reitodden" />
		<tag k="natural" v="cape" />
		<tag k="ssr:stedsnr" v="701213" />
	</node>
	<node id="-722838" lat="63.4404944419" lon="9.33154999722">
		<tag k="name" v="Bugabekken" />
		<tag k="ssr:stedsnr" v="700908" />
		<tag k="waterway" v="stream" />
	</node>
	<node id="-720788" lat="63.2259222247" lon="9.41318888376">
		<tag k="name" v="Langnesbukta" />
		<tag k="natural" v="bay" />
		<tag k="ssr:stedsnr" v="465723" />
	</node>
	<node id="-724883" lat="63.2987805519" lon="9.6682750063">
		<tag k="name" v="Songa" />
		<tag k="ssr:stedsnr" v="134239" />
		<tag k="waterway" v="river" />
	</node>
	<node id="-723949" lat="63.3144555579" lon="9.41427499894">
		<tag k="name" v="Fjellbekken" />
		<tag k="ssr:stedsnr" v="13210" />
		<tag k="waterway" v="stream" />
	</node>
	<node id="-722825" lat="63.3994305584" lon="9.59328611388">
		<tag k="name" v="Stokkbrubekken" />
		<tag k="ssr:stedsnr" v="700113" />
		<tag k="waterway" v="stream" />
	</node>
	<node id="-724872" lat="63.3592666691" lon="9.48058333247">
		<tag k="name" v="Langvatnet" />
		<tag k="natural" v="water" />
		<tag k="ssr:stedsnr" v="134158" />
	</node>
	<node id="-724871" lat="63.5503305563" lon="9.62185833607">
		<tag k="name" v="Holtvatnet" />
		<tag k="natural" v="water" />
		<tag k="ssr:stedsnr" v="134153" />
	</node>
	<node id="-724867" lat="63.4775861146" lon="9.40461112106">
		<tag k="alt_name" v="Lomstjørna" />
		<tag k="name" v="Lomtjørna" />
		<tag k="natural" v="water" />
		<tag k="ssr:stedsnr" v="133993" />
	</node>
	<node id="-720767" lat="63.5211722221" lon="9.62801944173">
		<tag k="name" v="Skavla" />
		<tag k="ssr:stedsnr" v="463601" />
		<tag k="waterway" v="stream" />
	</node>
	<node id="-720533" lat="63.3203527786" lon="9.43244721299">
		<tag k="name" v="Seterbekken" />
		<tag k="ssr:stedsnr" v="458465" />
		<tag k="waterway" v="stream" />
	</node>
	<node id="-722812" lat="63.1378777787" lon="9.67128888635">
		<tag k="name" v="Litjvatnet" />
		<tag k="natural" v="water" />
		<tag k="ssr:stedsnr" v="696724" />
		<tag k="water" v="lake" />
	</node>
	<node id="-722811" lat="63.0652083318" lon="9.90459443503">
		<tag k="name" v="Stenåsfossen" />
		<tag k="natural" v="waterfall" />
		<tag k="ssr:stedsnr" v="696719" />
	</node>
	<node id="-722810" lat="63.0610194425" lon="9.90040555059">
		<tag k="name" v="Holbekken" />
		<tag k="ssr:stedsnr" v="696718" />
		<tag k="waterway" v="stream" />
	</node>
	<node id="-720759" lat="63.4810611082" lon="9.6466972141">
		<tag k="name" v="Sluppneset" />
		<tag k="natural" v="cape" />
		<tag k="ssr:stedsnr" v="463426" />
	</node>
	<node id="-720758" lat="63.5703083327" lon="9.70772777078">
		<tag k="name" v="Grønningselva" />
		<tag k="ssr:stedsnr" v="463485" />
		<tag k="waterway" v="river" />
	</node>
	<node id="-720755" lat="63.4647694422" lon="9.73080278435">
		<tag k="name" v="Stokkneset" />
		<tag k="natural" v="cape" />
		<tag k="ssr:stedsnr" v="463398" />
	</node>
	<node id="-724848" lat="63.0279083339" lon="9.84322500264">
		<tag k="name" v="Ryåndsjøen" />
		<tag k="natural" v="water" />
		<tag k="ssr:stedsnr" v="133644" />
	</node>
	<node id="-724844" lat="63.4090861073" lon="9.34019166127">
		<tag k="name" v="Ryplitjørna" />
		<tag k="natural" v="water" />
		<tag k="ssr:stedsnr" v="133742" />
	</node>
	<node id="-724842" lat="63.189388885" lon="9.6211194414">
		<tag k="name" v="Kalvhåggåtjønna" />
		<tag k="natural" v="water" />
		<tag k="ssr:stedsnr" v="133577" />
	</node>
	<node id="-724839" lat="63.0493722208" lon="9.93090833701">
		<tag k="name" v="Tittjønna" />
		<tag k="natural" v="water" />
		<tag k="ssr:stedsnr" v="133560" />
	</node>
	<node id="-723942" lat="63.3257277786" lon="9.59881944316">
		<tag k="name" v="Tjønnliholtjønna" />
		<tag k="natural" v="water" />
		<tag k="ssr:stedsnr" v="13171" />
	</node>
	<node id="-720187" lat="63.3183777769" lon="9.88522778574">
		<tag k="name" v="Kamsbekken" />
		<tag k="ssr:stedsnr" v="216442" />
		<tag k="waterway" v="stream" />
	</node>
	<node id="-724831" lat="63.1375916675" lon="9.67251944371">
		<tag k="name" v="Liahaugtjønna" />
		<tag k="natural" v="water" />
		<tag k="ssr:stedsnr" v="133483" />
	</node>
	<node id="-722782" lat="62.9599916672" lon="9.67556388448">
		<tag k="name" v="Druggu" />
		<tag k="ssr:stedsnr" v="696156" />
		<tag k="waterway" v="river" />
	</node>
	<node id="-724829" lat="63.0736666636" lon="9.84799166674">
		<tag k="name" v="Storlibekken" />
		<tag k="ssr:stedsnr" v="133460" />
		<tag k="waterway" v="stream" />
	</node>
	<node id="-724827" lat="63.0302833291" lon="9.69512499765">
		<tag k="name" v="Sya" />
		<tag k="ssr:stedsnr" v="133279" />
		<tag k="waterway" v="stream" />
	</node>
	<node id="-724964" lat="63.1274527736" lon="9.47424166013">
		<tag k="name" v="Litldalstjønna" />
		<tag k="natural" v="water" />
		<tag k="ssr:stedsnr" v="150378" />
	</node>
	<node id="-721891" lat="63.3333222185" lon="9.82721111851">
		<tag k="name" v="Gammeldammen" />
		<tag k="natural" v="water" />
		<tag k="ssr:stedsnr" v="701478" />
		<tag k="water" v="lake" />
	</node>
	<node id="-722765" lat="63.4402666646" lon="9.70999167308">
		<tag k="name" v="Litltjørna" />
		<tag k="natural" v="water" />
		<tag k="ssr:stedsnr" v="888895" />
	</node>
	<node id="-722764" lat="63.41805278" lon="9.78976945023">
		<tag k="name" v="Mjøvasseidet" />
		<tag k="natural" v="strait" />
		<tag k="ssr:stedsnr" v="888889" />
	</node>
	<node id="-723277" lat="63.4202611125" lon="9.66222777617">
		<tag k="name" v="Larsslættbekken" />
		<tag k="ssr:stedsnr" v="822015" />
		<tag k="waterway" v="stream" />
	</node>
	<node id="-720711" lat="63.1552527803" lon="9.86971110637">
		<tag k="name" v="Kjesgårdstjønna" />
		<tag k="natural" v="water" />
		<tag k="ssr:stedsnr" v="460466" />
	</node>
	<node id="-724806" lat="63.2466472221" lon="9.4594194357">
		<tag k="name" v="Fleskskinkøya" />
		<tag k="natural" v="cape" />
		<tag k="ssr:stedsnr" v="119583" />
	</node>
	<node id="-724804" lat="62.9827666677" lon="9.81378889775">
		<tag k="name" v="Koltjønna" />
		<tag k="natural" v="water" />
		<tag k="ssr:stedsnr" v="119284" />
	</node>
	<node id="-721206" lat="63.0623611143" lon="9.95834166373">
		<tag k="name" v="Litlbekken" />
		<tag k="ssr:stedsnr" v="514404" />
		<tag k="waterway" v="stream" />
	</node>
	<node id="-720706" lat="63.3360861103" lon="9.61138611482">
		<tag k="name" v="Åmotbekken" />
		<tag k="ssr:stedsnr" v="459987" />
		<tag k="waterway" v="stream" />
	</node>
	<node id="-722753" lat="63.5616166683" lon="9.63398611161">
		<tag k="name" v="Merradalstjørna" />
		<tag k="natural" v="water" />
		<tag k="ssr:stedsnr" v="888584" />
	</node>
	<node id="-724800" lat="62.9925305599" lon="9.83557500434">
		<tag k="name" v="Litlføssjøen" />
		<tag k="natural" v="water" />
		<tag k="ssr:stedsnr" v="114290" />
	</node>
	<node id="-722751" lat="63.5579166672" lon="9.67100000252">
		<tag k="name" v="Svartbakklitjørna" />
		<tag k="natural" v="water" />
		<tag k="ssr:stedsnr" v="888571" />
	</node>
	<node id="-722911" lat="63.2458027765" lon="9.89313612008">
		<tag k="name" v="Byavatnet" />
		<tag k="natural" v="water" />
		<tag k="ssr:stedsnr" v="740306" />
	</node>
	<node id="-724790" lat="63.2453722216" lon="9.38013611165">
		<tag k="name" v="Myrakjølbekken" />
		<tag k="ssr:stedsnr" v="101516" />
		<tag k="waterway" v="stream" />
	</node>
	<node id="-720691" lat="63.2010583293" lon="9.60305277791">
		<tag k="name" v="Holbekken" />
		<tag k="ssr:stedsnr" v="459836" />
		<tag k="waterway" v="stream" />
	</node>
	<node id="-722738" lat="63.4848777755" lon="9.7949749964">
		<tag k="name" v="Nilsskardbekken" />
		<tag k="ssr:stedsnr" v="888354" />
		<tag k="waterway" v="stream" />
	</node>
	<node id="-720688" lat="63.1997555521" lon="9.5633416569">
		<tag k="name" v="Nebben" />
		<tag k="natural" v="cape" />
		<tag k="ssr:stedsnr" v="459812" />
	</node>
	<node id="-720687" lat="63.2205916648" lon="9.56300277892">
		<tag k="name" v="Kvernbekken" />
		<tag k="ssr:stedsnr" v="459811" />
		<tag k="waterway" v="stream" />
	</node>
	<node id="-720686" lat="63.2494722195" lon="9.57016665721">
		<tag k="name" v="Grøtdalsbekken" />
		<tag k="ssr:stedsnr" v="459800" />
		<tag k="waterway" v="stream" />
	</node>
	<node id="-724780" lat="63.5456611123" lon="9.70815276853">
		<tag k="name" v="Kronbekken" />
		<tag k="ssr:stedsnr" v="99929" />
		<tag k="waterway" v="stream" />
	</node>
	<node id="-720683" lat="63.2711305576" lon="9.5798666685">
		<tag k="name" v="Trobekken" />
		<tag k="ssr:stedsnr" v="459778" />
		<tag k="waterway" v="stream" />
	</node>
	<node id="-724778" lat="63.549008335" lon="9.73520277268">
		<tag k="name" v="Gammelsagfossen" />
		<tag k="natural" v="waterfall" />
		<tag k="ssr:stedsnr" v="99923" />
	</node>
	<node id="-724776" lat="63.3903638845" lon="9.74486389351">
		<tag k="name" v="Holbekken" />
		<tag k="ssr:stedsnr" v="99640" />
		<tag k="waterway" v="stream" />
	</node>
	<node id="-724774" lat="63.3948222252" lon="9.77444166438">
		<tag k="name" v="Håvårdsdalstjørna" />
		<tag k="natural" v="water" />
		<tag k="ssr:stedsnr" v="99636" />
	</node>
	<node id="-724772" lat="63.562066664" lon="9.67829721768">
		<tag k="name" v="Klingermyrtjørna" />
		<tag k="natural" v="water" />
		<tag k="ssr:stedsnr" v="99627" />
	</node>
	<node id="-724771" lat="63.4229055585" lon="9.86629445269">
		<tag k="name" v="Seterbekken" />
		<tag k="ssr:stedsnr" v="99528" />
		<tag k="waterway" v="stream" />
	</node>
	<node id="-722721" lat="63.4272166699" lon="9.82082776966">
		<tag k="name" v="Rangvasselva" />
		<tag k="ssr:stedsnr" v="888152" />
		<tag k="waterway" v="river" />
	</node>
	<node id="-724768" lat="63.464097218" lon="9.73614444271">
		<tag k="name" v="Brann-neset" />
		<tag k="natural" v="cape" />
		<tag k="ssr:stedsnr" v="99449" />
	</node>
	<node id="-724767" lat="63.4584888889" lon="9.73285556461">
		<tag k="name" v="Valelva" />
		<tag k="ssr:stedsnr" v="99448" />
		<tag k="waterway" v="river" />
	</node>
	<node id="-724766" lat="63.4679111081" lon="9.73978610537">
		<tag k="name" v="Fjærvika" />
		<tag k="natural" v="bay" />
		<tag k="ssr:stedsnr" v="99442" />
	</node>
	<node id="-724613" lat="63.275541667" lon="9.77181111125">
		<tag k="name" v="Aunfossen" />
		<tag k="natural" v="waterfall" />
		<tag k="ssr:stedsnr" v="94267" />
	</node>
	<node id="-720668" lat="63.3844111144" lon="9.78854444148">
		<tag k="name" v="Rokolltjønna" />
		<tag k="natural" v="water" />
		<tag k="ssr:stedsnr" v="459332" />
	</node>
	<node id="-724761" lat="63.4275777759" lon="9.78137222035">
		<tag k="name" v="Urdtjørna" />
		<tag k="natural" v="water" />
		<tag k="ssr:stedsnr" v="99589" />
	</node>
	<node id="-724759" lat="63.4714749966" lon="9.68433887985">
		<tag k="name" v="Århønneset" />
		<tag k="natural" v="cape" />
		<tag k="ssr:stedsnr" v="99481" />
	</node>
	<node id="-724757" lat="63.4704722228" lon="9.76154721672">
		<tag k="name" v="Klumpbekken" />
		<tag k="ssr:stedsnr" v="99394" />
		<tag k="waterway" v="stream" />
	</node>
	<node id="-720660" lat="63.2617861129" lon="9.68097776904">
		<tag k="name" v="Kvitstranda" />
		<tag k="natural" v="beach" />
		<tag k="ssr:stedsnr" v="277811" />
	</node>
	<node id="-720999" lat="63.1832583333" lon="9.88924444262">
		<tag k="name" v="Snøtonvatnet" />
		<tag k="natural" v="water" />
		<tag k="ssr:stedsnr" v="498192" />
	</node>
	<node id="-720654" lat="63.1930972191" lon="9.49454166181">
		<tag k="name" v="Byabekken" />
		<tag k="ssr:stedsnr" v="277724" />
		<tag k="waterway" v="stream" />
	</node>
	<node id="-720653" lat="63.1957694425" lon="9.51304443555">
		<tag k="name" v="Fantguttjønna" />
		<tag k="natural" v="water" />
		<tag k="ssr:stedsnr" v="277718" />
	</node>
	<node id="-720651" lat="63.2652361133" lon="9.53808056151">
		<tag k="name" v="Fjellhusdalsbekken" />
		<tag k="ssr:stedsnr" v="277708" />
		<tag k="waterway" v="stream" />
	</node>
	<node id="-722697" lat="63.1476916688" lon="9.86765833347">
		<tag k="name" v="Djuposen" />
		<tag k="natural" v="bay" />
		<tag k="ssr:stedsnr" v="885715" />
	</node>
	<node id="-724743" lat="63.6099305524" lon="9.63045555169">
		<tag k="name" v="Reitneset" />
		<tag k="natural" v="cape" />
		<tag k="ssr:stedsnr" v="99293" />
	</node>
	<node id="-722694" lat="63.1606833294" lon="9.80137223057">
		<tag k="name" v="Litllomtjønna" />
		<tag k="natural" v="water" />
		<tag k="ssr:stedsnr" v="885429" />
	</node>
	<node id="-724741" lat="63.6030111089" lon="9.72126666363">
		<tag k="name" v="Spæltrolltjørna" />
		<tag k="natural" v="water" />
		<tag k="ssr:stedsnr" v="99192" />
	</node>
	<node id="-722689" lat="63.2238166677" lon="9.65478332578">
		<tag k="name" v="Dambukt" />
		<tag k="natural" v="bay" />
		<tag k="ssr:stedsnr" v="884844" />
	</node>
	<node id="-720639" lat="63.2460305564" lon="9.87963055107">
		<tag k="name" v="Kattjønna" />
		<tag k="natural" v="water" />
		<tag k="ssr:stedsnr" v="276363" />
	</node>
	<node id="-720637" lat="63.3803500021" lon="9.38901665993">
		<tag k="name" v="Seterbekken" />
		<tag k="ssr:stedsnr" v="276357" />
		<tag k="waterway" v="stream" />
	</node>
	<node id="-724732" lat="62.9735499992" lon="9.89447500571">
		<tag k="name" v="Blankvatnet" />
		<tag k="natural" v="water" />
		<tag k="ssr:stedsnr" v="97900" />
		<tag k="water" v="lake" />
	</node>
	<node id="-720630" lat="63.3545805561" lon="9.84591111687">
		<tag k="name" v="Isdalsosbekken" />
		<tag k="ssr:stedsnr" v="276468" />
		<tag k="waterway" v="stream" />
	</node>
	<node id="-722676" lat="63.2605555542" lon="9.53808056082">
		<tag k="name" v="Krokbekken" />
		<tag k="ssr:stedsnr" v="884673" />
		<tag k="waterway" v="stream" />
	</node>
	<node id="-722675" lat="63.2692361083" lon="9.6775638959">
		<tag k="name" v="Grasmyrbukta" />
		<tag k="natural" v="bay" />
		<tag k="ssr:stedsnr" v="884752" />
	</node>
	<node id="-720625" lat="63.3791777747" lon="9.92298889045">
		<tag k="name" v="Rypdalsbekken" />
		<tag k="ssr:stedsnr" v="276453" />
		<tag k="waterway" v="stream" />
	</node>
	<node id="-720622" lat="63.1852611087" lon="9.87369999914">
		<tag k="name" v="Snøtonbekken" />
		<tag k="ssr:stedsnr" v="276404" />
		<tag k="waterway" v="stream" />
	</node>
	<node id="-720621" lat="63.401236114" lon="9.32023888713">
		<tag k="name" v="Laugartjørna" />
		<tag k="natural" v="water" />
		<tag k="ssr:stedsnr" v="458924" />
	</node>
	<node id="-724716" lat="63.3183805575" lon="9.56447777034">
		<tag k="name" v="Svarttjønna" />
		<tag k="natural" v="water" />
		<tag k="ssr:stedsnr" v="95971" />
	</node>
	<node id="-720616" lat="63.2648472196" lon="9.75536110991">
		<tag k="name" v="Slettaunbekken" />
		<tag k="ssr:stedsnr" v="276009" />
		<tag k="waterway" v="stream" />
	</node>
	<node id="-720955" lat="63.0522302484" lon="9.7314474829">
		<tag k="name" v="Bjørnslebekken" />
		<tag k="ssr:stedsnr" v="497565" />
		<tag k="waterway" v="stream" />
	</node>
	<node id="-722661" lat="63.4277194431" lon="9.96892500823">
		<tag k="name" v="Steindalsbekken" />
		<tag k="ssr:stedsnr" v="883790" />
		<tag k="waterway" v="stream" />
	</node>
	<node id="-722658" lat="63.3669166707" lon="9.83623333181">
		<tag k="name" v="Bakkbekken" />
		<tag k="ssr:stedsnr" v="883692" />
		<tag k="waterway" v="stream" />
	</node>
	<node id="-724704" lat="63.2096499987" lon="9.82375000439">
		<tag k="name" v="Gorrtjønna" />
		<tag k="natural" v="water" />
		<tag k="ssr:stedsnr" v="95935" />
	</node>
	<node id="-724701" lat="63.2288555585" lon="9.60173055443">
		<tag k="name" v="Kattjønna" />
		<tag k="natural" v="water" />
		<tag k="ssr:stedsnr" v="95847" />
	</node>
	<node id="-724700" lat="63.2301388923" lon="9.63037499281">
		<tag k="name" v="Myralykkjtjønna" />
		<tag k="natural" v="water" />
		<tag k="ssr:stedsnr" v="95844" />
	</node>
	<node id="-720603" lat="63.3648444421" lon="9.59222500959">
		<tag k="name" v="Øylibekken" />
		<tag k="ssr:stedsnr" v="275102" />
		<tag k="waterway" v="stream" />
	</node>
	<node id="-724698" lat="63.193244445" lon="9.5553999993">
		<tag k="name" v="Sæterodden" />
		<tag k="natural" v="cape" />
		<tag k="ssr:stedsnr" v="95796" />
	</node>
	<node id="-720599" lat="63.4982777741" lon="9.52741944226">
		<tag k="name" v="Merratjørna" />
		<tag k="natural" v="water" />
		<tag k="ssr:stedsnr" v="275065" />
	</node>
	<node id="-722553" lat="63.4690611076" lon="9.5635694413">
		<tag k="alt_name" v="Remmasunda" />
		<tag k="name" v="Remmasundet" />
		<tag k="natural" v="strait" />
		<tag k="ssr:stedsnr" v="679975" />
	</node>
	<node id="-724690" lat="63.1880805593" lon="9.48474444494">
		<tag k="name" v="Lomunda" />
		<tag k="ssr:stedsnr" v="95691" />
		<tag k="waterway" v="stream" />
	</node>
	<node id="-720593" lat="63.4018111107" lon="9.65827777562">
		<tag k="name" v="Gammelsagfossen" />
		<tag k="natural" v="waterfall" />
		<tag k="ssr:stedsnr" v="275012" />
	</node>
	<node id="-722552" lat="63.0573194481" lon="9.80439444132">
		<tag k="name" v="Rogntjønna" />
		<tag k="natural" v="water" />
		<tag k="ssr:stedsnr" v="679562" />
	</node>
	<node id="-723916" lat="63.4188083364" lon="9.29900556192">
		<tag k="name" v="Ellingsholtjørna" />
		<tag k="natural" v="water" />
		<tag k="ssr:stedsnr" v="12771" />
	</node>
	<node id="-722630" lat="63.1856944431" lon="9.86871944308">
		<tag k="name" v="Høydalsbekken" />
		<tag k="ssr:stedsnr" v="883431" />
		<tag k="waterway" v="stream" />
	</node>
	<node id="-720581" lat="63.4206305571" lon="9.91512778752">
		<tag k="name" v="Vingelskardsbekken" />
		<tag k="ssr:stedsnr" v="458709" />
		<tag k="waterway" v="stream" />
	</node>
	<node id="-722628" lat="63.283588892" lon="9.85651944591">
		<tag k="name" v="Espabekken" />
		<tag k="ssr:stedsnr" v="883347" />
		<tag k="waterway" v="stream" />
	</node>
	<node id="-722626" lat="63.244191666" lon="9.85424999789">
		<tag k="name" v="Stamphusfossen" />
		<tag k="natural" v="waterfall" />
		<tag k="ssr:stedsnr" v="883383" />
	</node>
	<node id="-722625" lat="63.3853194483" lon="9.35977221794">
		<tag k="name" v="Inner Klungervik elva" />
		<tag k="ssr:stedsnr" v="883274" />
		<tag k="waterway" v="river" />
	</node>
	<node id="-722623" lat="63.3104888851" lon="9.76458610222">
		<tag k="name" v="Litlbekken" />
		<tag k="ssr:stedsnr" v="883248" />
		<tag k="waterway" v="stream" />
	</node>
	<node id="-724669" lat="63.409680554" lon="9.87761112066">
		<tag k="name" v="Grandalsbekken" />
		<tag k="ssr:stedsnr" v="94738" />
		<tag k="waterway" v="stream" />
	</node>
	<node id="-724666" lat="63.3858138869" lon="9.92083332892">
		<tag k="name" v="Sæterholmen" />
		<tag k="natural" v="water" />
		<tag k="ssr:stedsnr" v="94710" />
	</node>
	<node id="-720566" lat="63.4269805559" lon="9.42427500444">
		<tag k="name" v="Botnbekken" />
		<tag k="ssr:stedsnr" v="458558" />
		<tag k="waterway" v="stream" />
	</node>
	<node id="-724661" lat="63.3801416649" lon="9.86950278371">
		<tag k="name" v="Håggåøya" />
		<tag k="place" v="islet" />
		<tag k="ssr:stedsnr" v="94680" />
	</node>
	<node id="-724660" lat="63.3862305578" lon="9.94722500889">
		<tag k="name" v="Reinbekken" />
		<tag k="ssr:stedsnr" v="94671" />
		<tag k="waterway" v="stream" />
	</node>
	<node id="-722611" lat="63.3477222264" lon="9.71466111917">
		<tag k="name" v="Bjørndalsbukta" />
		<tag k="natural" v="bay" />
		<tag k="ssr:stedsnr" v="883169" />
	</node>
	<node id="-724658" lat="63.2845972201" lon="9.83572777733">
		<tag k="name" v="Follobekken" />
		<tag k="ssr:stedsnr" v="94558" />
		<tag k="waterway" v="stream" />
	</node>
	<node id="-721523" lat="63.3905833319" lon="9.88282778552">
		<tag k="name" v="Rabboltjønnin" />
		<tag k="natural" v="water" />
		<tag k="ssr:stedsnr" v="680417" />
	</node>
	<node id="-722607" lat="63.3262777739" lon="9.71250555922">
		<tag k="name" v="Bjørkøybekken" />
		<tag k="ssr:stedsnr" v="883143" />
		<tag k="waterway" v="stream" />
	</node>
	<node id="-724654" lat="63.347086115" lon="9.87933333993">
		<tag k="name" v="Styggdalsbekken" />
		<tag k="ssr:stedsnr" v="94492" />
		<tag k="waterway" v="stream" />
	</node>
	<node id="-722205" lat="63.1978333342" lon="9.52211944498">
		<tag k="name" v="Kjerringtjønna" />
		<tag k="natural" v="water" />
		<tag k="ssr:stedsnr" v="580717" />
	</node>
	<node id="-720555" lat="63.3427527762" lon="9.86376667524">
		<tag k="name" v="Langbekken" />
		<tag k="ssr:stedsnr" v="458497" />
		<tag k="waterway" v="stream" />
	</node>
	<node id="-722602" lat="63.2436722251" lon="9.71912499033">
		<tag k="name" v="Sæterlibekken" />
		<tag k="ssr:stedsnr" v="883072" />
		<tag k="waterway" v="stream" />
	</node>
	<node id="-724647" lat="63.316791669" lon="9.45486111585">
		<tag k="name" v="Seterbekken" />
		<tag k="ssr:stedsnr" v="94442" />
		<tag k="waterway" v="stream" />
	</node>
	<node id="-724643" lat="63.1687611143" lon="9.8593166583">
		<tag k="name" v="Vaulen" />
		<tag k="ssr:stedsnr" v="94426" />
		<tag k="waterway" v="stream" />
	</node>
	<node id="-722594" lat="63.3739166631" lon="9.78555556515">
		<tag k="name" v="Nedre Merratjønna" />
		<tag k="natural" v="water" />
		<tag k="ssr:stedsnr" v="681403" />
	</node>
	<node id="-724641" lat="63.1964527763" lon="9.88541110305">
		<tag k="name" v="Brattlitjønna" />
		<tag k="natural" v="water" />
		<tag k="ssr:stedsnr" v="94422" />
	</node>
	<node id="-724640" lat="63.1999194407" lon="9.86654721406">
		<tag k="name" v="Svarttjønna" />
		<tag k="natural" v="water" />
		<tag k="ssr:stedsnr" v="94421" />
	</node>
	<node id="-722591" lat="63.4549083322" lon="9.86795833505">
		<tag k="name" v="Grostadtjørna" />
		<tag k="natural" v="water" />
		<tag k="ssr:stedsnr" v="681071" />
	</node>
	<node id="-720542" lat="63.1420722239" lon="9.87426110132">
		<tag k="name" v="Røyadalstjønna" />
		<tag k="natural" v="water" />
		<tag k="ssr:stedsnr" v="271802" />
	</node>
	<node id="-722587" lat="63.3653805543" lon="9.46680834067">
		<tag k="alt_name" v="Fiskeløysvatnet" />
		<tag k="fixme" v="multiple name tags, choose one and add the other to alt_name" />
		<tag k="name" v="Fiskløysa;Fiskløysvatnet" />
		<tag k="natural" v="water" />
		<tag k="ssr:stedsnr" v="680864" />
	</node>
	<node id="-720537" lat="63.1433861156" lon="9.85658055883">
		<tag k="name" v="Gortjønna" />
		<tag k="natural" v="water" />
		<tag k="ssr:stedsnr" v="271606" />
	</node>
	<node id="-722584" lat="63.3534527799" lon="9.45264721229">
		<tag k="alt_name" v="Litlvatnet" />
		<tag k="name" v="Litlevatnet" />
		<tag k="natural" v="water" />
		<tag k="ssr:stedsnr" v="681122" />
	</node>
	<node id="-723908" lat="63.0369416672" lon="9.76506388503">
		<tag k="name" v="Tronnotjønna" />
		<tag k="natural" v="water" />
		<tag k="ssr:stedsnr" v="12585" />
	</node>
	<node id="-724630" lat="63.3117333322" lon="9.46385556359">
		<tag k="name" v="Mannholbekken" />
		<tag k="ssr:stedsnr" v="94389" />
		<tag k="waterway" v="stream" />
	</node>
	<node id="-722581" lat="63.0693416696" lon="9.93342499972">
		<tag k="name" v="Slåvatnet" />
		<tag k="natural" v="water" />
		<tag k="ssr:stedsnr" v="680677" />
	</node>
	<node id="-720532" lat="63.3485333313" lon="9.8710888907">
		<tag k="name" v="Lykkjbekken" />
		<tag k="ssr:stedsnr" v="458460" />
		<tag k="waterway" v="stream" />
	</node>
	<node id="-720531" lat="63.0875194464" lon="9.81438332594">
		<tag k="name" v="Østre Nertjønna" />
		<tag k="natural" v="water" />
		<tag k="ssr:stedsnr" v="271568" />
	</node>
	<node id="-722578" lat="63.0603333335" lon="9.75145277965">
		<tag k="name" v="Horvtjønna" />
		<tag k="natural" v="water" />
		<tag k="ssr:stedsnr" v="680669" />
	</node>
	<node id="-720529" lat="63.075624999" lon="9.79003055255">
		<tag k="name" v="Sæterbekken" />
		<tag k="ssr:stedsnr" v="271558" />
		<tag k="waterway" v="stream" />
	</node>
	<node id="-724623" lat="63.2914611101" lon="9.84844166361">
		<tag k="name" v="Evjensbekken" />
		<tag k="ssr:stedsnr" v="94325" />
		<tag k="waterway" v="stream" />
	</node>
	<node id="-724589" lat="63.2440083313" lon="9.74503332667">
		<tag k="name" v="Ratbekken" />
		<tag k="ssr:stedsnr" v="94072" />
		<tag k="waterway" v="stream" />
	</node>
	<node id="-724615" lat="63.3777611077" lon="9.36716388886">
		<tag k="name" v="Villvangbekken" />
		<tag k="ssr:stedsnr" v="94272" />
		<tag k="waterway" v="stream" />
	</node>
	<node id="-720517" lat="63.3578861144" lon="9.86915555307">
		<tag k="name" v="Hølbekken" />
		<tag k="ssr:stedsnr" v="458452" />
		<tag k="waterway" v="stream" />
	</node>
	<node id="-722564" lat="63.2547555534" lon="9.70979999807">
		<tag k="name" v="Høydalstjønna" />
		<tag k="natural" v="water" />
		<tag k="ssr:stedsnr" v="680018" />
	</node>
	<node id="-722563" lat="63.2657444477" lon="9.64065277217">
		<tag k="name" v="Rasmusholmen" />
		<tag k="place" v="islet" />
		<tag k="ssr:stedsnr" v="680017" />
	</node>
	<node id="-724609" lat="63.320916671" lon="9.75531944585">
		<tag k="name" v="Våmyrbekken" />
		<tag k="ssr:stedsnr" v="94232" />
		<tag k="waterway" v="stream" />
	</node>
	<node id="-722559" lat="63.5338277806" lon="9.46139444072">
		<tag k="name" v="Saratjørna" />
		<tag k="natural" v="water" />
		<tag k="ssr:stedsnr" v="680154" />
	</node>
	<node id="-724604" lat="63.5089305512" lon="9.54409443919">
		<tag k="name" v="Stengvatnet" />
		<tag k="natural" v="water" />
		<tag k="ssr:stedsnr" v="94196" />
		<tag k="water" v="lake" />
	</node>
	<node id="-724601" lat="63.3475750004" lon="9.78338611121">
		<tag k="name" v="Fjellkjøselva" />
		<tag k="ssr:stedsnr" v="94172" />
		<tag k="waterway" v="river" />
	</node>
	<node id="-724600" lat="63.3521666671" lon="9.78022221606">
		<tag k="name" v="Fjell-libekken" />
		<tag k="ssr:stedsnr" v="94169" />
		<tag k="waterway" v="stream" />
	</node>
	<node id="-724244" lat="63.2901750001" lon="9.68713887918">
		<tag k="name" v="Kalvhåggåbekken" />
		<tag k="ssr:stedsnr" v="34961" />
		<tag k="waterway" v="stream" />
	</node>
	<node id="-724597" lat="63.3446333325" lon="9.7711027794">
		<tag k="name" v="Kjerringhølen" />
		<tag k="place" v="locality" />
		<tag k="ssr:stedsnr" v="94162" />
	</node>
	<node id="-720498" lat="62.9823972244" lon="9.72137777215">
		<tag k="name" v="Kronoffkjelda" />
		<tag k="ssr:stedsnr" v="271117" />
		<tag k="waterway" v="stream" />
	</node>
	<node id="-724925" lat="63.0283277802" lon="9.99676111675">
		<tag k="name" v="Kluftbekken" />
		<tag k="ssr:stedsnr" v="149385" />
		<tag k="waterway" v="stream" />
	</node>
	<node id="-722538" lat="63.3928194428" lon="9.43319443675">
		<tag k="name" v="Setervatnet" />
		<tag k="natural" v="water" />
		<tag k="ssr:stedsnr" v="882406" />
	</node>
	<node id="-721511" lat="63.2090638876" lon="9.89922499316">
		<tag k="alt_name" v="Gjøtavatnet" />
		<tag k="name" v="Gjøtvatnet" />
		<tag k="natural" v="water" />
		<tag k="ssr:stedsnr" v="680220" />
	</node>
	<node id="-724583" lat="63.3793416694" lon="9.32164166511">
		<tag k="name" v="Ytter Klungervikelva" />
		<tag k="ssr:stedsnr" v="93946" />
		<tag k="waterway" v="river" />
	</node>
	<node id="-723558" lat="63.2350083363" lon="9.87069722401">
		<tag k="name" v="Storslettmyrbekken" />
		<tag k="ssr:stedsnr" v="944341" />
		<tag k="waterway" v="stream" />
	</node>
	<node id="-720482" lat="63.1835861074" lon="9.84197499083">
		<tag k="name" v="Småtjønnin" />
		<tag k="natural" v="water" />
		<tag k="ssr:stedsnr" v="458389" />
	</node>
	<node id="-724577" lat="63.5228194431" lon="9.3772499983">
		<tag k="name" v="Nordalstjørna" />
		<tag k="natural" v="water" />
		<tag k="ssr:stedsnr" v="93639" />
	</node>
	<node id="-720478" lat="63.2403611139" lon="9.85410554792">
		<tag k="name" v="Langtjønndalbekken" />
		<tag k="ssr:stedsnr" v="458358" />
		<tag k="waterway" v="stream" />
	</node>
	<node id="-722523" lat="63.4517527736" lon="9.5230750015">
		<tag k="name" v="Storlitjørna" />
		<tag k="natural" v="water" />
		<tag k="ssr:stedsnr" v="882078" />
	</node>
	<node id="-720474" lat="63.3595944433" lon="9.45704723153">
		<tag k="name" v="Fiskløysbekken" />
		<tag k="ssr:stedsnr" v="458292" />
		<tag k="waterway" v="stream" />
	</node>
	<node id="-720473" lat="63.433577775" lon="9.46040277988">
		<tag k="name" v="Seterneset" />
		<tag k="natural" v="cape" />
		<tag k="ssr:stedsnr" v="458282" />
	</node>
	<node id="-720470" lat="63.5173527758" lon="9.38267776776">
		<tag k="name" v="Halsaelva" />
		<tag k="ssr:stedsnr" v="458247" />
		<tag k="waterway" v="river" />
	</node>
	<node id="-722517" lat="63.3999500016" lon="9.603686117">
		<tag k="name" v="Turrukallbekken" />
		<tag k="ssr:stedsnr" v="882057" />
		<tag k="waterway" v="stream" />
	</node>
	<node id="-722514" lat="63.3996111091" lon="9.20473889082">
		<tag k="name" v="Snigeldalsbekken" />
		<tag k="ssr:stedsnr" v="882045" />
		<tag k="waterway" v="stream" />
	</node>
	<node id="-724555" lat="63.4198388847" lon="9.53382777693">
		<tag k="name" v="Skardshaugbekken" />
		<tag k="ssr:stedsnr" v="93094" />
		<tag k="waterway" v="stream" />
	</node>
	<node id="-720458" lat="63.3539138892" lon="9.81639444656">
		<tag k="name" v="Bukktjønna" />
		<tag k="natural" v="water" />
		<tag k="ssr:stedsnr" v="458141" />
	</node>
	<node id="-720457" lat="63.3526805569" lon="9.8224194505">
		<tag k="alt_name" v="Bakktjønna" />
		<tag k="name" v="Bukktjønna" />
		<tag k="natural" v="water" />
		<tag k="ssr:stedsnr" v="458140" />
	</node>
	<node id="-724549" lat="63.3778499976" lon="9.57509166339">
		<tag k="name" v="Ørbekken" />
		<tag k="ssr:stedsnr" v="93079" />
		<tag k="waterway" v="stream" />
	</node>
	<node id="-720452" lat="63.4654944471" lon="9.49852222227">
		<tag k="name" v="Hattvatnet" />
		<tag k="natural" v="water" />
		<tag k="ssr:stedsnr" v="458113" />
		<tag k="water" v="lake" />
	</node>
	<node id="-722497" lat="63.1177861089" lon="9.83032222194">
		<tag k="name" v="Hola" />
		<tag k="ssr:stedsnr" v="878759" />
		<tag k="waterway" v="stream" />
	</node>
	<node id="-722495" lat="63.0231583342" lon="9.49020000105">
		<tag k="name" v="Stubbhosso" />
		<tag k="ssr:stedsnr" v="878756" />
		<tag k="waterway" v="stream" />
	</node>
	<node id="-720445" lat="63.4108888896" lon="9.61816110726">
		<tag k="name" v="Kregdalsbekken" />
		<tag k="ssr:stedsnr" v="458085" />
		<tag k="waterway" v="stream" />
	</node>
	<node id="-722490" lat="63.085994446" lon="9.93260555904">
		<tag k="name" v="Kvernbekken" />
		<tag k="ssr:stedsnr" v="878735" />
		<tag k="waterway" v="stream" />
	</node>
	<node id="-721503" lat="63.5665805563" lon="9.65851389278">
		<tag k="name" v="Svartvatnet" />
		<tag k="natural" v="water" />
		<tag k="ssr:stedsnr" v="680130" />
		<tag k="water" v="lake" />
	</node>
	<node id="-720439" lat="63.5068388929" lon="9.43223889525">
		<tag k="name" v="Imsterelva" />
		<tag k="ssr:stedsnr" v="458045" />
		<tag k="waterway" v="river" />
	</node>
	<node id="-722486" lat="63.0637666633" lon="9.86784166503">
		<tag k="name" v="Pungtjønna" />
		<tag k="natural" v="water" />
		<tag k="ssr:stedsnr" v="878720" />
	</node>
	<node id="-724533" lat="63.5147527765" lon="9.51008333525">
		<tag k="name" v="Attmuskråa" />
		<tag k="natural" v="bay" />
		<tag k="ssr:stedsnr" v="93025" />
	</node>
	<node id="-724532" lat="63.542444442" lon="9.50208889754">
		<tag k="name" v="Kleppskardbekken" />
		<tag k="ssr:stedsnr" v="93023" />
		<tag k="waterway" v="stream" />
	</node>
	<node id="-721434" lat="63.451377779" lon="9.89216666205">
		<tag k="name" v="Grostadbekken" />
		<tag k="ssr:stedsnr" v="463057" />
		<tag k="waterway" v="stream" />
	</node>
	<node id="-724530" lat="63.4124249985" lon="9.6785805506">
		<tag k="name" v="Granåsbekken" />
		<tag k="ssr:stedsnr" v="93012" />
		<tag k="waterway" v="stream" />
	</node>
	<node id="-722481" lat="62.9776750012" lon="9.94116388602">
		<tag k="name" v="Langdalsbekken" />
		<tag k="ssr:stedsnr" v="878686" />
		<tag k="waterway" v="stream" />
	</node>
	<node id="-724528" lat="63.3753402908" lon="9.82385184754">
		<tag k="alt_name" v="Fjelltjønna" />
		<tag k="name" v="Øvre Fjelltjønna" />
		<tag k="natural" v="water" />
		<tag k="ssr:stedsnr" v="95436" />
	</node>
	<node id="-722183" lat="63.3722555541" lon="9.83150832996">
		<tag k="name" v="Fjellbotn" />
		<tag k="natural" v="water" />
		<tag k="ssr:stedsnr" v="579678" />
	</node>
	<node id="-724520" lat="63.1078527774" lon="9.83337500083">
		<tag k="name" v="Litjbratthustjønna" />
		<tag k="natural" v="water" />
		<tag k="ssr:stedsnr" v="89750" />
	</node>
	<node id="-722471" lat="62.9681472266" lon="9.53741387912">
		<tag k="name" v="Krokbekken" />
		<tag k="ssr:stedsnr" v="878575" />
		<tag k="waterway" v="stream" />
	</node>
	<node id="-720420" lat="63.3978750027" lon="9.65211389297">
		<tag k="name" v="Saglibekken" />
		<tag k="ssr:stedsnr" v="457110" />
		<tag k="waterway" v="stream" />
	</node>
	<node id="-720417" lat="63.4223083344" lon="9.70598889652">
		<tag k="name" v="Fjellbekke" />
		<tag k="ssr:stedsnr" v="457101" />
		<tag k="waterway" v="stream" />
	</node>
	<node id="-722926" lat="63.4912833305" lon="9.60922777875">
		<tag k="name" v="Langvatnet" />
		<tag k="natural" v="water" />
		<tag k="ssr:stedsnr" v="740865" />
	</node>
	<node id="-724509" lat="63.0611777821" lon="9.9517111104">
		<tag k="name" v="Skomakerøya" />
		<tag k="place" v="island" />
		<tag k="ssr:stedsnr" v="89680" />
	</node>
	<node id="-724508" lat="62.9820916688" lon="9.91863611259">
		<tag k="name" v="Langtjønnbekken" />
		<tag k="ssr:stedsnr" v="89679" />
		<tag k="waterway" v="stream" />
	</node>
	<node id="-724570" lat="63.3915722267" lon="9.42381110622">
		<tag k="name" v="Skardbekken" />
		<tag k="ssr:stedsnr" v="93399" />
		<tag k="waterway" v="stream" />
	</node>
	<node id="-720408" lat="63.5274833345" lon="9.50691388878">
		<tag k="name" v="Almvika" />
		<tag k="natural" v="bay" />
		<tag k="ssr:stedsnr" v="457021" />
	</node>
	<node id="-720404" lat="63.489344444" lon="9.59598054792">
		<tag k="name" v="Herdalselva" />
		<tag k="ssr:stedsnr" v="463087" />
		<tag k="waterway" v="river" />
	</node>
	<node id="-722449" lat="63.1220416697" lon="9.51929722969">
		<tag k="name" v="Tverrbekken" />
		<tag k="ssr:stedsnr" v="878461" />
		<tag k="waterway" v="stream" />
	</node>
	<node id="-722438" lat="63.1580472242" lon="9.48418333839">
		<tag k="name" v="Gårdslykkjtjønna" />
		<tag k="natural" v="water" />
		<tag k="ssr:stedsnr" v="878413" />
	</node>
	<node id="-720389" lat="63.0408527786" lon="9.63956666403">
		<tag k="name" v="Litjvatnet" />
		<tag k="natural" v="water" />
		<tag k="ssr:stedsnr" v="454593" />
	</node>
	<node id="-722436" lat="63.0150916699" lon="9.93658888023">
		<tag k="name" v="Lomtjønna" />
		<tag k="natural" v="water" />
		<tag k="ssr:stedsnr" v="878387" />
	</node>
	<node id="-721493" lat="63.4957944445" lon="9.75445278261">
		<tag k="name" v="Utnesvatnet" />
		<tag k="natural" v="water" />
		<tag k="ssr:stedsnr" v="680034" />
		<tag k="water" v="lake" />
	</node>
	<node id="-723607" lat="63.3950583317" lon="9.30461944883">
		<tag k="name" v="Gåstjørna" />
		<tag k="natural" v="water" />
		<tag k="ssr:stedsnr" v="944927" />
	</node>
	<node id="-720381" lat="63.0700611102" lon="9.81775833698">
		<tag k="name" v="Holbekken" />
		<tag k="ssr:stedsnr" v="454487" />
		<tag k="waterway" v="stream" />
	</node>
	<node id="-724475" lat="63.0058138893" lon="9.70907777101">
		<tag k="name" v="Skratla" />
		<tag k="ssr:stedsnr" v="89457" />
		<tag k="waterway" v="stream" />
	</node>
	<node id="-720378" lat="63.1308250005" lon="9.62873888216">
		<tag k="name" v="Kjela" />
		<tag k="natural" v="water" />
		<tag k="ssr:stedsnr" v="454300" />
		<tag k="water" v="lake" />
	</node>
	<node id="-720374" lat="62.9178166676" lon="9.59777777616">
		<tag k="name" v="Midter Bjugntjønna" />
		<tag k="natural" v="water" />
		<tag k="ssr:stedsnr" v="454186" />
	</node>
	<node id="-724469" lat="63.0323611082" lon="9.70889445424">
		<tag k="name" v="Syøset" />
		<tag k="ssr:stedsnr" v="89433" />
		<tag k="waterway" v="river" />
	</node>
	<node id="-723061" lat="63.1160555543" lon="9.83833054802">
		<tag k="name" v="Litjsvarttjønna" />
		<tag k="natural" v="water" />
		<tag k="ssr:stedsnr" v="922047" />
	</node>
	<node id="-720371" lat="62.921661114" lon="9.59807777572">
		<tag k="name" v="Fremmer Bjugntjønna" />
		<tag k="natural" v="water" />
		<tag k="ssr:stedsnr" v="454176" />
	</node>
	<node id="-720370" lat="62.9228527813" lon="9.6107388971">
		<tag k="name" v="Frostmyrtjønna" />
		<tag k="natural" v="water" />
		<tag k="ssr:stedsnr" v="454175" />
	</node>
	<node id="-722417" lat="62.9835416704" lon="9.63832776936">
		<tag k="name" v="Storkulpen" />
		<tag k="place" v="locality" />
		<tag k="ssr:stedsnr" v="878253" />
	</node>
	<node id="-721015" lat="63.4228111079" lon="9.842325">
		<tag k="name" v="Sæterelva" />
		<tag k="ssr:stedsnr" v="376112" />
		<tag k="waterway" v="stream" />
	</node>
	<node id="-721149" lat="63.4886361134" lon="9.58246389855">
		<tag k="name" v="Rognlieidet" />
		<tag k="natural" v="strait" />
		<tag k="ssr:stedsnr" v="403471" />
	</node>
	<node id="-722412" lat="63.0831388917" lon="9.61263611302">
		<tag k="name" v="Maristilla" />
		<tag k="natural" v="water" />
		<tag k="ssr:stedsnr" v="878219" />
		<tag k="water" v="lake" />
	</node>
	<node id="-724458" lat="63.157924999" lon="9.49404444476">
		<tag k="name" v="Lomtjønna" />
		<tag k="natural" v="water" />
		<tag k="ssr:stedsnr" v="89378" />
	</node>
	<node id="-720360" lat="63.106661107" lon="9.88793610271">
		<tag k="name" v="Sætertjønna" />
		<tag k="natural" v="water" />
		<tag k="ssr:stedsnr" v="453779" />
	</node>
	<node id="-720359" lat="63.1024472245" lon="9.84457778178">
		<tag k="name" v="Lertjønna" />
		<tag k="natural" v="water" />
		<tag k="ssr:stedsnr" v="453778" />
	</node>
	<node id="-720357" lat="63.0763638907" lon="9.86162500363">
		<tag k="name" v="Falteinbekken" />
		<tag k="ssr:stedsnr" v="453754" />
		<tag k="waterway" v="stream" />
	</node>
	<node id="-721498" lat="63.4857972184" lon="9.81880277169">
		<tag k="alt_name" v="Innergårdsbekken" />
		<tag k="name" v="Innergårdbekken" />
		<tag k="old_name" v="Indergardbekken" />
		<tag k="ssr:stedsnr" v="680048" />
		<tag k="waterway" v="stream" />
	</node>
	<node id="-720354" lat="63.0610972264" lon="9.94422500972">
		<tag k="name" v="Heggøya" />
		<tag k="place" v="island" />
		<tag k="ssr:stedsnr" v="453689" />
	</node>
	<node id="-720351" lat="62.9935527751" lon="9.95035277056">
		<tag k="name" v="Kringltjønna" />
		<tag k="natural" v="water" />
		<tag k="ssr:stedsnr" v="453677" />
	</node>
	<node id="-724445" lat="63.1344500001" lon="9.7810277761">
		<tag k="name" v="Breva" />
		<tag k="ssr:stedsnr" v="89294" />
		<tag k="waterway" v="river" />
	</node>
	<node id="-722388" lat="63.0126333304" lon="9.80196666962">
		<tag k="name" v="Stordalsbekken" />
		<tag k="ssr:stedsnr" v="878095" />
		<tag k="waterway" v="stream" />
	</node>
	<node id="-721355" lat="63.3303500037" lon="9.82428610336">
		<tag k="name" v="Reitlibekken" />
		<tag k="ssr:stedsnr" v="519429" />
		<tag k="waterway" v="stream" />
	</node>
	<node id="-722386" lat="63.0067611071" lon="9.7959277719">
		<tag k="name" v="Sandåa" />
		<tag k="ssr:stedsnr" v="878092" />
		<tag k="waterway" v="stream" />
	</node>
	<node id="-722383" lat="62.901952782" lon="9.57983333898">
		<tag k="name" v="Fjellbekken" />
		<tag k="ssr:stedsnr" v="878083" />
		<tag k="waterway" v="stream" />
	</node>
	<node id="-721082" lat="63.0420138893" lon="9.60105276811">
		<tag k="name" v="Slåttbekken" />
		<tag k="ssr:stedsnr" v="392160" />
		<tag k="waterway" v="stream" />
	</node>
	<node id="-720331" lat="63.3856888869" lon="9.26838888541">
		<tag k="name" v="Sæterbekken" />
		<tag k="ssr:stedsnr" v="255854" />
		<tag k="waterway" v="stream" />
	</node>
	<node id="-724425" lat="63.051111107" lon="9.61844721301">
		<tag k="name" v="Kalkrokbekken" />
		<tag k="ssr:stedsnr" v="89152" />
		<tag k="waterway" v="stream" />
	</node>
	<node id="-724628" lat="63.2524694428" lon="9.86837222392">
		<tag k="name" v="Kardusbekken" />
		<tag k="ssr:stedsnr" v="94376" />
		<tag k="waterway" v="stream" />
	</node>
	<node id="-724897" lat="63.5491583345" lon="9.779108336">
		<tag k="name" v="Selneselva" />
		<tag k="ssr:stedsnr" v="134612" />
		<tag k="waterway" v="stream" />
	</node>
	<node id="-724420" lat="62.975397225" lon="9.5640527784">
		<tag k="name" v="Daltjønna" />
		<tag k="natural" v="water" />
		<tag k="ssr:stedsnr" v="89100" />
	</node>
	<node id="-720323" lat="63.4617000005" lon="9.49559721324">
		<tag k="name" v="Nervatnet" />
		<tag k="natural" v="water" />
		<tag k="ssr:stedsnr" v="255965" />
	</node>
	<node id="-720319" lat="63.4938027804" lon="9.64051111482">
		<tag k="alt_name" v="Øvervatnet" />
		<tag k="name" v="Øvrevatnet" />
		<tag k="natural" v="water" />
		<tag k="ssr:stedsnr" v="255905" />
	</node>
	<node id="-722365" lat="63.1429722219" lon="9.57201111669">
		<tag k="name" v="Hoslynga" />
		<tag k="natural" v="water" />
		<tag k="ssr:stedsnr" v="878023" />
		<tag k="water" v="lake" />
	</node>
	<node id="-722364" lat="63.1687527782" lon="9.58877222701">
		<tag k="name" v="Kottjønna" />
		<tag k="natural" v="water" />
		<tag k="ssr:stedsnr" v="878018" />
	</node>
	<node id="-720311" lat="63.1863388884" lon="9.56603333195">
		<tag k="name" v="Hostovatnet" />
		<tag k="natural" v="water" />
		<tag k="ssr:stedsnr" v="255620" />
		<tag k="water" v="lake" />
	</node>
	<node id="-722505" lat="63.0730611144" lon="9.67400000507">
		<tag k="name" v="Fugltjønna" />
		<tag k="natural" v="water" />
		<tag k="ssr:stedsnr" v="879540" />
	</node>
	<node id="-720302" lat="63.0909694431" lon="9.50310555291">
		<tag k="name" v="Liabekken" />
		<tag k="ssr:stedsnr" v="453451" />
		<tag k="waterway" v="stream" />
	</node>
	<node id="-722162" lat="63.3881805535" lon="9.59200834288">
		<tag k="name" v="Fossan" />
		<tag k="ssr:stedsnr" v="578089" />
		<tag k="waterway" v="rapids" />
	</node>
	<node id="-720295" lat="63.1702249992" lon="9.5449249996">
		<tag k="name" v="Ringavatnet" />
		<tag k="natural" v="water" />
		<tag k="ssr:stedsnr" v="255522" />
		<tag k="water" v="lake" />
	</node>
	<node id="-724390" lat="63.3898416638" lon="9.74132222244">
		<tag k="name" v="Hølbekken" />
		<tag k="ssr:stedsnr" v="74380" />
		<tag k="waterway" v="stream" />
	</node>
	<node id="-720293" lat="63.0548555545" lon="9.6507888804">
		<tag k="name" v="Øya" />
		<tag k="natural" v="cape" />
		<tag k="ssr:stedsnr" v="255352" />
	</node>
	<node id="-720289" lat="62.9398555538" lon="9.47190000185">
		<tag k="name" v="Raudfjellbekken" />
		<tag k="ssr:stedsnr" v="255220" />
		<tag k="waterway" v="river" />
	</node>
	<node id="-724381" lat="63.318177779" lon="9.55490832949">
		<tag k="name" v="Svarttjønnbukta" />
		<tag k="natural" v="bay" />
		<tag k="ssr:stedsnr" v="74163" />
	</node>
	<node id="-722331" lat="63.3752388883" lon="9.29293888105">
		<tag k="name" v="Lauvbudalsbekken" />
		<tag k="ssr:stedsnr" v="640939" />
		<tag k="waterway" v="stream" />
	</node>
	<node id="-720281" lat="63.3291388891" lon="9.54058333458">
		<tag k="name" v="Våvatnet" />
		<tag k="natural" v="water" />
		<tag k="ssr:stedsnr" v="255172" />
		<tag k="water" v="lake" />
	</node>
	<node id="-724376" lat="63.4067361123" lon="9.77579999226">
		<tag k="name" v="Åltjørna" />
		<tag k="natural" v="water" />
		<tag k="ssr:stedsnr" v="74119" />
	</node>
	<node id="-722325" lat="62.956530554" lon="9.52392499066">
		<tag k="name" v="Stillresa" />
		<tag k="ssr:stedsnr" v="635510" />
		<tag k="waterway" v="river" />
	</node>
	<node id="-724372" lat="63.4519027817" lon="9.73946111109">
		<tag k="name" v="Valtjørna" />
		<tag k="natural" v="water" />
		<tag k="ssr:stedsnr" v="74076" />
	</node>
	<node id="-722323" lat="62.9506027756" lon="9.53690555902">
		<tag k="name" v="Treveløya" />
		<tag k="place" v="island" />
		<tag k="ssr:stedsnr" v="635506" />
	</node>
	<node id="-720272" lat="63.6016555547" lon="9.62001666358">
		<tag k="name" v="Bersetholmen" />
		<tag k="place" v="islet" />
		<tag k="ssr:stedsnr" v="255106" />
	</node>
	<node id="-720269" lat="63.2596694457" lon="9.44476389425">
		<tag k="alt_name" v="Hundsåvatnet, øvre" />
		<tag k="name" v="Øvre Hundsåvatnet" />
		<tag k="natural" v="water" />
		<tag k="ssr:stedsnr" v="255012" />
	</node>
	<node id="-724363" lat="63.408761113" lon="9.45143610115">
		<tag k="alt_name" v="Krokstadsetervatnet;Krokstadseter-vatnet" />
		<tag k="name" v="Krokstadtjørna" />
		<tag k="natural" v="water" />
		<tag k="ssr:stedsnr" v="73767" />
	</node>
	<node id="-724362" lat="62.9835583327" lon="9.98911666772">
		<tag k="name" v="Skjetna" />
		<tag k="ssr:stedsnr" v="73763" />
		<tag k="waterway" v="stream" />
	</node>
	<node id="-724360" lat="63.4827694405" lon="9.38930555558">
		<tag k="alt_name" v="Nessavatnet" />
		<tag k="name" v="Nesavatnet" />
		<tag k="natural" v="water" />
		<tag k="ssr:stedsnr" v="73994" />
	</node>
	<node id="-724359" lat="63.5066916651" lon="9.74606388355">
		<tag k="name" v="Myrbekken" />
		<tag k="ssr:stedsnr" v="73748" />
		<tag k="waterway" v="stream" />
	</node>
	<node id="-720262" lat="63.1783555598" lon="9.51677777876">
		<tag k="name" v="Kjøltjønna" />
		<tag k="natural" v="water" />
		<tag k="ssr:stedsnr" v="453376" />
	</node>
	<node id="-724357" lat="63.0153527811" lon="9.9827055512">
		<tag k="name" v="Skjelbreidtjønna" />
		<tag k="natural" v="water" />
		<tag k="ssr:stedsnr" v="73676" />
	</node>
	<node id="-724356" lat="63.2601694407" lon="9.3468055478">
		<tag k="name" v="Leirvatnet" />
		<tag k="natural" v="water" />
		<tag k="ssr:stedsnr" v="73675" />
	</node>
	<node id="-724355" lat="63.0420861155" lon="9.74457778728">
		<tag k="name" v="Grøta" />
		<tag k="ssr:stedsnr" v="73600" />
		<tag k="waterway" v="stream" />
	</node>
	<node id="-724351" lat="63.0393222228" lon="9.85178056116">
		<tag k="name" v="Kjeglvatnet" />
		<tag k="natural" v="water" />
		<tag k="ssr:stedsnr" v="73590" />
	</node>
	<node id="-720254" lat="63.1629057692" lon="9.47487140539">
		<tag k="name" v="Kaldtjønna" />
		<tag k="natural" v="water" />
		<tag k="ssr:stedsnr" v="453353" />
	</node>
	<node id="-722301" lat="63.147627775" lon="9.46043333835">
		<tag k="name" v="Bårdshaugbekken" />
		<tag k="ssr:stedsnr" v="635354" />
		<tag k="waterway" v="stream" />
	</node>
	<node id="-720252" lat="62.9761694475" lon="9.97523611511">
		<tag k="name" v="Skjetntjønnin" />
		<tag k="natural" v="water" />
		<tag k="ssr:stedsnr" v="453350" />
	</node>
	<node id="-724345" lat="63.1033999983" lon="9.52473334208">
		<tag k="name" v="Bergbekken" />
		<tag k="ssr:stedsnr" v="73475" />
		<tag k="waterway" v="stream" />
	</node>
	<node id="-724341" lat="63.1356333308" lon="9.55007222445">
		<tag k="fixme" v="multiple name tags, choose one and add the other to alt_name" />
		<tag k="name" v="Gruvdammen;Nedre Gruvdammen" />
		<tag k="natural" v="water" />
		<tag k="ssr:stedsnr" v="73553" />
	</node>
	<node id="-724340" lat="63.1384416677" lon="9.56317500393">
		<tag k="name" v="Mjovatnet" />
		<tag k="natural" v="water" />
		<tag k="ssr:stedsnr" v="73552" />
	</node>
	<node id="-724339" lat="63.1430194422" lon="9.57211110776">
		<tag k="name" v="Hoslenga" />
		<tag k="natural" v="water" />
		<tag k="ssr:stedsnr" v="73550" />
	</node>
	<node id="-720237" lat="62.9742388854" lon="9.58643332619">
		<tag k="name" v="Storela" />
		<tag k="ssr:stedsnr" v="453247" />
		<tag k="waterway" v="river" />
	</node>
	<node id="-720235" lat="63.1712583297" lon="9.84798332573">
		<tag k="name" v="Liavatnet" />
		<tag k="natural" v="water" />
		<tag k="ssr:stedsnr" v="254121" />
	</node>
	<node id="-724330" lat="63.0180555576" lon="9.51656388933">
		<tag k="name" v="Tortjønna" />
		<tag k="natural" v="water" />
		<tag k="ssr:stedsnr" v="73286" />
	</node>
	<node id="-720228" lat="63.1463750015" lon="9.7011583403">
		<tag k="name" v="Vemmertjønna" />
		<tag k="natural" v="water" />
		<tag k="ssr:stedsnr" v="453059" />
	</node>
	<node id="-724323" lat="62.9775500003" lon="9.45556111175">
		<tag k="name" v="Langvatnet" />
		<tag k="natural" v="water" />
		<tag k="ssr:stedsnr" v="73174" />
		<tag k="water" v="lake" />
	</node>
	<node id="-720226" lat="63.0843166689" lon="9.58914166151">
		<tag k="name" v="Merkesbekken" />
		<tag k="ssr:stedsnr" v="453051" />
		<tag k="waterway" v="stream" />
	</node>
	<node id="-724321" lat="62.9608222236" lon="9.5971027844">
		<tag k="name" v="Stobekken" />
		<tag k="ssr:stedsnr" v="73150" />
		<tag k="waterway" v="stream" />
	</node>
	<node id="-720223" lat="63.1229527783" lon="9.55717221251">
		<tag k="name" v="Kaldvetlet" />
		<tag k="natural" v="spring" />
		<tag k="ssr:stedsnr" v="453019" />
	</node>
	<node id="-720221" lat="62.9609166637" lon="9.7122361202">
		<tag k="name" v="Fagerdalsbekken" />
		<tag k="ssr:stedsnr" v="453013" />
		<tag k="waterway" v="stream" />
	</node>
	<node id="-721010" lat="63.1048000029" lon="9.87834722884">
		<tag k="name" v="Fosstjønna" />
		<tag k="natural" v="water" />
		<tag k="ssr:stedsnr" v="376005" />
	</node>
	<node id="-722265" lat="63.4038366583" lon="9.4557171502">
		<tag k="alt_name" v="Litlslett-tjørna" />
		<tag k="fixme" v="multiple name tags, choose one and add the other to alt_name" />
		<tag k="name" v="Lykkjeslettjørna;Litlslættjørna" />
		<tag k="natural" v="water" />
		<tag k="ssr:stedsnr" v="619902" />
	</node>
	<node id="-724312" lat="63.2469944461" lon="9.35735832776">
		<tag k="alt_name" v="Leirvatnet;Øver Leirvatnet" />
		<tag k="name" v="Øvre Leirvatnet" />
		<tag k="natural" v="water" />
		<tag k="ssr:stedsnr" v="58203" />
	</node>
	<node id="-722261" lat="63.1218416658" lon="9.5802638929">
		<tag k="name" v="Kattjønna" />
		<tag k="natural" v="water" />
		<tag k="ssr:stedsnr" v="619539" />
	</node>
	<node id="-720212" lat="63.4667666648" lon="9.66925555662">
		<tag k="name" v="Maliholneset" />
		<tag k="natural" v="cape" />
		<tag k="ssr:stedsnr" v="221209" />
	</node>
	<node id="-720211" lat="63.4119638859" lon="9.84456111474">
		<tag k="alt_name" v="Håvardsdalsbekken" />
		<tag k="name" v="Håvårdsdalsbekken" />
		<tag k="ssr:stedsnr" v="220575" />
		<tag k="waterway" v="stream" />
	</node>
	<node id="-720207" lat="63.4741250041" lon="9.86298888807">
		<tag k="name" v="Kvernhusfossen" />
		<tag k="natural" v="waterfall" />
		<tag k="ssr:stedsnr" v="219003" />
	</node>
	<node id="-722253" lat="63.4223999966" lon="9.8133055614">
		<tag k="name" v="Rangvatnet" />
		<tag k="natural" v="water" />
		<tag k="ssr:stedsnr" v="619117" />
		<tag k="water" v="lake" />
	</node>
	<node id="-724300" lat="63.4551972226" lon="9.69509999249">
		<tag k="name" v="Froskholbukta" />
		<tag k="natural" v="bay" />
		<tag k="ssr:stedsnr" v="39334" />
	</node>
	<node id="-724298" lat="63.4195861069" lon="9.74320000793">
		<tag k="name" v="Granlitjørna" />
		<tag k="natural" v="water" />
		<tag k="ssr:stedsnr" v="38943" />
	</node>
	<node id="-724297" lat="63.5486333297" lon="9.74245834096">
		<tag k="name" v="Snurrbekken" />
		<tag k="ssr:stedsnr" v="38932" />
		<tag k="waterway" v="stream" />
	</node>
	<node id="-724296" lat="63.5524083295" lon="9.74224166358">
		<tag k="name" v="Skreddarbekken" />
		<tag k="ssr:stedsnr" v="38930" />
		<tag k="waterway" v="stream" />
	</node>
	<node id="-724294" lat="63.5939055561" lon="9.63591388308">
		<tag k="name" v="Rivdalsfossen" />
		<tag k="natural" v="waterfall" />
		<tag k="ssr:stedsnr" v="38694" />
	</node>
	<node id="-720196" lat="63.1862333375" lon="9.55775000536">
		<tag k="name" v="Litlholmen" />
		<tag k="place" v="islet" />
		<tag k="ssr:stedsnr" v="216803" />
	</node>
	<node id="-723055" lat="63.4545111097" lon="9.66396112003">
		<tag k="name" v="Raudlibukta" />
		<tag k="natural" v="bay" />
		<tag k="ssr:stedsnr" v="922932" />
	</node>
	<node id="-721120" lat="63.1444083301" lon="9.6582222144">
		<tag k="name" v="Eggabekken" />
		<tag k="ssr:stedsnr" v="393658" />
		<tag k="waterway" v="stream" />
	</node>
	<node id="-724283" lat="63.5585333328" lon="9.77571944805">
		<tag k="name" v="Størdalselva" />
		<tag k="ssr:stedsnr" v="38238" />
		<tag k="waterway" v="river" />
	</node>
	<node id="-722233" lat="63.543336107" lon="9.58418333951">
		<tag k="name" v="Holtbekken" />
		<tag k="ssr:stedsnr" v="584658" />
		<tag k="waterway" v="stream" />
	</node>
	<node id="-724280" lat="63.5924805588" lon="9.66079443694">
		<tag k="name" v="Vollaelva" />
		<tag k="ssr:stedsnr" v="38120" />
		<tag k="waterway" v="river" />
	</node>
	<node id="-722229" lat="63.5633527803" lon="9.57955000566">
		<tag k="name" v="Langstrandbekken" />
		<tag k="ssr:stedsnr" v="584502" />
		<tag k="waterway" v="stream" />
	</node>
	<node id="-720776" lat="63.515552777" lon="9.71823332477">
		<tag k="name" v="Vasslibekken" />
		<tag k="ssr:stedsnr" v="463940" />
		<tag k="waterway" v="stream" />
	</node>
	<node id="-724266" lat="63.4686194452" lon="9.69361111449">
		<tag k="name" v="Brann-neset" />
		<tag k="natural" v="cape" />
		<tag k="ssr:stedsnr" v="38098" />
	</node>
	<node id="-724264" lat="63.4835305514" lon="9.72641665987">
		<tag k="name" v="Vollabekken" />
		<tag k="ssr:stedsnr" v="38087" />
		<tag k="waterway" v="stream" />
	</node>
	<node id="-720165" lat="63.4072583346" lon="9.41951944679">
		<tag k="name" v="Sverrivatnet" />
		<tag k="natural" v="water" />
		<tag k="ssr:stedsnr" v="215504" />
		<tag k="water" v="lake" />
	</node>
	<node id="-722211" lat="63.16370278" lon="9.77615000967">
		<tag k="name" v="Sprangbekken" />
		<tag k="ssr:stedsnr" v="581840" />
		<tag k="waterway" v="stream" />
	</node>
	<node id="-720162" lat="63.502900001" lon="9.45116665762">
		<tag k="name" v="Litlvatnet" />
		<tag k="natural" v="water" />
		<tag k="ssr:stedsnr" v="215033" />
	</node>
	<node id="-720161" lat="63.4943416692" lon="9.44816666925">
		<tag k="name" v="Toreholtjørna" />
		<tag k="natural" v="water" />
		<tag k="ssr:stedsnr" v="215032" />
	</node>
	<node id="-724255" lat="63.1627722179" lon="9.84090000627">
		<tag k="name" v="Rørtjønnbekken" />
		<tag k="ssr:stedsnr" v="35727" />
		<tag k="waterway" v="stream" />
	</node>
	<node id="-720158" lat="63.484227782" lon="9.4518916633">
		<tag k="name" v="Botnan" />
		<tag k="natural" v="water" />
		<tag k="ssr:stedsnr" v="215018" />
	</node>
	<node id="-720157" lat="63.4816944432" lon="9.46696943463">
		<tag k="name" v="Migaren" />
		<tag k="ssr:stedsnr" v="215015" />
		<tag k="waterway" v="stream" />
	</node>
	<node id="-720156" lat="63.5174305564" lon="9.46684721693">
		<tag k="alt_name" v="Hesthol-litjørna" />
		<tag k="name" v="Hesthollitjørna" />
		<tag k="natural" v="water" />
		<tag k="ssr:stedsnr" v="215006" />
	</node>
	<node id="-720153" lat="63.398380558" lon="9.49922221886">
		<tag k="name" v="Bergselva" />
		<tag k="ssr:stedsnr" v="215143" />
		<tag k="waterway" v="river" />
	</node>
	<node id="-720152" lat="63.3456027814" lon="9.51538889883">
		<tag k="name" v="Tverrelva" />
		<tag k="ssr:stedsnr" v="215136" />
		<tag k="waterway" v="river" />
	</node>
	<node id="-720148" lat="63.4272138867" lon="9.50939999833">
		<tag k="name" v="Glashyllbekken" />
		<tag k="ssr:stedsnr" v="215113" />
		<tag k="waterway" v="stream" />
	</node>
	<node id="-720147" lat="63.4293666669" lon="9.47570554866">
		<tag k="name" v="Fagerdalselva" />
		<tag k="ssr:stedsnr" v="215111" />
		<tag k="waterway" v="river" />
	</node>
	<node id="-720146" lat="63.3799861067" lon="9.58478334255">
		<tag k="name" v="Ørfossan" />
		<tag k="natural" v="waterfall" />
		<tag k="ssr:stedsnr" v="215110" />
	</node>
	<node id="-722191" lat="63.2201111088" lon="9.3988027719">
		<tag k="name" v="Langholmen" />
		<tag k="place" v="islet" />
		<tag k="ssr:stedsnr" v="708752" />
	</node>
	<node id="-720138" lat="63.1041972255" lon="9.71513055241">
		<tag k="name" v="Vollbekken" />
		<tag k="ssr:stedsnr" v="211733" />
		<tag k="waterway" v="stream" />
	</node>
	<node id="-722135" lat="63.0399499976" lon="9.54493888298">
		<tag k="name" v="Hånnåkambtjønnin" />
		<tag k="natural" v="water" />
		<tag k="ssr:stedsnr" v="574517" />
	</node>
	<node id="-724231" lat="63.3696611071" lon="9.67296667296">
		<tag k="name" v="Sundagsslættbekken" />
		<tag k="ssr:stedsnr" v="34890" />
		<tag k="waterway" v="stream" />
	</node>
	<node id="-724229" lat="63.3568444415" lon="9.63796945066">
		<tag k="name" v="Jamtgardsbekken" />
		<tag k="ssr:stedsnr" v="34881" />
		<tag k="waterway" v="stream" />
	</node>
	<node id="-720132" lat="63.1193722204" lon="9.85312499103">
		<tag k="name" v="Storsautjønna" />
		<tag k="natural" v="water" />
		<tag k="ssr:stedsnr" v="211711" />
	</node>
	<node id="-722179" lat="63.2496694461" lon="9.82982222658">
		<tag k="name" v="Sveeggbekken" />
		<tag k="ssr:stedsnr" v="579335" />
		<tag k="waterway" v="stream" />
	</node>
	<node id="-724225" lat="63.2279777737" lon="9.65665832478">
		<tag k="name" v="Vasslibekken" />
		<tag k="ssr:stedsnr" v="34845" />
		<tag k="waterway" v="stream" />
	</node>
	<node id="-721007" lat="63.3140888913" lon="9.51597221845">
		<tag k="name" v="Ytre Våddåa" />
		<tag k="ssr:stedsnr" v="498213" />
		<tag k="waterway" v="stream" />
	</node>
	<node id="-724223" lat="63.1916444446" lon="9.61454721531">
		<tag k="name" v="Kalvhåggåtjønna" />
		<tag k="natural" v="water" />
		<tag k="ssr:stedsnr" v="34802" />
	</node>
	<node id="-722174" lat="63.3471750045" lon="9.41748332805">
		<tag k="name" v="Framgards-elva" />
		<tag k="ssr:stedsnr" v="579258" />
		<tag k="waterway" v="river" />
	</node>
	<node id="-721450" lat="63.3984416653" lon="9.79871110283">
		<tag k="name" v="Håvårdsdalsbekken" />
		<tag k="ssr:stedsnr" v="463502" />
		<tag k="waterway" v="stream" />
	</node>
	<node id="-722170" lat="63.397202777" lon="9.52423333943">
		<tag k="name" v="Tverrbekken" />
		<tag k="ssr:stedsnr" v="579118" />
		<tag k="waterway" v="stream" />
	</node>
	<node id="-720121" lat="63.1357611095" lon="9.83734722286">
		<tag k="name" v="Killingøya" />
		<tag k="place" v="island" />
		<tag k="ssr:stedsnr" v="211530" />
	</node>
	<node id="-724215" lat="63.4024444443" lon="9.95421110692">
		<tag k="name" v="Ytterbekken" />
		<tag k="ssr:stedsnr" v="34662" />
		<tag k="waterway" v="stream" />
	</node>
	<node id="-724211" lat="63.1845083292" lon="9.61353611869">
		<tag k="name" v="Kutjønna" />
		<tag k="natural" v="water" />
		<tag k="ssr:stedsnr" v="34623" />
	</node>
	<node id="-724210" lat="63.1862138896" lon="9.63300276813">
		<tag k="name" v="Topptjønna" />
		<tag k="natural" v="water" />
		<tag k="ssr:stedsnr" v="34620" />
	</node>
	<node id="-720111" lat="62.97877778" lon="9.77892223199">
		<tag k="name" v="Øyan" />
		<tag k="place" v="island" />
		<tag k="ssr:stedsnr" v="211132" />
	</node>
	<node id="-724206" lat="63.1641361121" lon="9.63605000333">
		<tag k="name" v="Våtbekken" />
		<tag k="ssr:stedsnr" v="34576" />
		<tag k="waterway" v="stream" />
	</node>
	<node id="-722157" lat="63.4871194466" lon="9.52909444289">
		<tag k="name" v="Tinnfossen" />
		<tag k="natural" v="waterfall" />
		<tag k="ssr:stedsnr" v="578076" />
	</node>
	<node id="-720108" lat="62.9910333324" lon="9.77956110905">
		<tag k="name" v="Vinna" />
		<tag k="ssr:stedsnr" v="211120" />
		<tag k="waterway" v="stream" />
	</node>
	<node id="-723495" lat="63.4209250024" lon="9.22252223113">
		<tag k="name" v="Slurven" />
		<tag k="ssr:stedsnr" v="943178" />
		<tag k="waterway" v="stream" />
	</node>
	<node id="-724198" lat="63.2270472205" lon="9.87809445023">
		<tag k="name" v="Blomliåstjønna" />
		<tag k="natural" v="water" />
		<tag k="ssr:stedsnr" v="34275" />
	</node>
	<node id="-724197" lat="63.2289666632" lon="9.84131945124">
		<tag k="name" v="Krestoffertjønna" />
		<tag k="natural" v="water" />
		<tag k="ssr:stedsnr" v="34269" />
	</node>
	<node id="-720098" lat="62.9893250013" lon="9.70129444783">
		<tag k="name" v="Vargdalsbekken" />
		<tag k="ssr:stedsnr" v="211234" />
		<tag k="waterway" v="stream" />
	</node>
	<node id="-724191" lat="63.281922222" lon="9.73514165877">
		<tag k="name" v="Aunbekken" />
		<tag k="ssr:stedsnr" v="34219" />
		<tag k="waterway" v="stream" />
	</node>
	<node id="-724188" lat="63.3044750025" lon="9.73846666391">
		<tag k="name" v="Kleivabekken" />
		<tag k="ssr:stedsnr" v="34207" />
		<tag k="waterway" v="stream" />
	</node>
	<node id="-722139" lat="63.0727111136" lon="9.92052222648">
		<tag k="name" v="Røyadalstjønna" />
		<tag k="natural" v="water" />
		<tag k="ssr:stedsnr" v="574718" />
	</node>
	<node id="-724175" lat="63.3425833354" lon="9.75457500954">
		<tag k="name" v="Sandvika" />
		<tag k="natural" v="bay" />
		<tag k="ssr:stedsnr" v="34147" />
	</node>
	<node id="-724183" lat="63.3164416686" lon="9.79689444718">
		<tag k="name" v="Tungbekken" />
		<tag k="ssr:stedsnr" v="34190" />
		<tag k="waterway" v="stream" />
	</node>
	<node id="-720085" lat="63.3766027774" lon="9.71148610395">
		<tag k="name" v="Svarttjønna" />
		<tag k="natural" v="water" />
		<tag k="ssr:stedsnr" v="195828" />
	</node>
	<node id="-724176" lat="63.3519999976" lon="9.72713334126">
		<tag k="name" v="Brølibekken" />
		<tag k="ssr:stedsnr" v="34153" />
		<tag k="waterway" v="stream" />
	</node>
	<node id="-720079" lat="63.3033722202" lon="9.37828610749">
		<tag k="name" v="Tverrelva" />
		<tag k="ssr:stedsnr" v="195243" />
		<tag k="waterway" v="stream" />
	</node>
	<node id="-724173" lat="63.215102779" lon="9.75755276817">
		<tag k="name" v="Krokbekken" />
		<tag k="ssr:stedsnr" v="34120" />
		<tag k="waterway" v="stream" />
	</node>
	<node id="-724170" lat="63.2615138904" lon="9.79307778389">
		<tag k="name" v="Solhuskjela" />
		<tag k="natural" v="water" />
		<tag k="ssr:stedsnr" v="34069" />
		<tag k="water" v="lake" />
	</node>
	<node id="-724855" lat="63.4376666635" lon="9.3462833403">
		<tag k="alt_name" v="Kvernstadbekken" />
		<tag k="name" v="Kvennstadelva" />
		<tag k="ssr:stedsnr" v="133796" />
		<tag k="waterway" v="stream" />
	</node>
	<node id="-722120" lat="63.1131333313" lon="9.8135611056">
		<tag k="name" v="Merratjønna" />
		<tag k="natural" v="water" />
		<tag k="ssr:stedsnr" v="574335" />
	</node>
	<node id="-724167" lat="63.3886555596" lon="9.32369167655">
		<tag k="name" v="Krobekken" />
		<tag k="ssr:stedsnr" v="33923" />
		<tag k="waterway" v="stream" />
	</node>
	<node id="-722118" lat="63.1237888908" lon="9.79440000171">
		<tag k="name" v="Bjørkhaugtjønna" />
		<tag k="natural" v="water" />
		<tag k="ssr:stedsnr" v="574331" />
	</node>
	<node id="-722117" lat="63.1076750013" lon="9.81025832617">
		<tag k="name" v="Nodalstjønna" />
		<tag k="natural" v="water" />
		<tag k="ssr:stedsnr" v="574328" />
	</node>
	<node id="-720068" lat="63.2214638891" lon="9.68455277352">
		<tag k="name" v="Hiråstjønna" />
		<tag k="natural" v="water" />
		<tag k="ssr:stedsnr" v="194519" />
	</node>
	<node id="-720067" lat="63.1585083314" lon="9.5658861015">
		<tag k="name" v="Langbekken" />
		<tag k="ssr:stedsnr" v="194510" />
		<tag k="waterway" v="stream" />
	</node>
	<node id="-724160" lat="63.401111114" lon="9.88023611655">
		<tag k="name" v="Midter Vasslivatnet" />
		<tag k="natural" v="water" />
		<tag k="ssr:stedsnr" v="33717" />
	</node>
	<node id="-724157" lat="63.3718444486" lon="9.85105276954">
		<tag k="name" v="Snåkkådalsbekken" />
		<tag k="ssr:stedsnr" v="33695" />
		<tag k="waterway" v="stream" />
	</node>
	<node id="-724155" lat="63.3796722214" lon="9.8252805509">
		<tag k="name" v="Nedre Fjelltjønna" />
		<tag k="natural" v="water" />
		<tag k="ssr:stedsnr" v="33672" />
	</node>
	<node id="-720058" lat="62.9793055598" lon="9.69136944218">
		<tag k="name" v="Otla" />
		<tag k="ssr:stedsnr" v="194136" />
		<tag k="waterway" v="river" />
	</node>
	<node id="-722102" lat="63.4370805593" lon="9.74016944347">
		<tag k="name" v="Skjeldbreifossen" />
		<tag k="natural" v="waterfall" />
		<tag k="ssr:stedsnr" v="706997" />
	</node>
	<node id="-720048" lat="63.2338499961" lon="9.37624445397">
		<tag k="name" v="Krokbekken" />
		<tag k="ssr:stedsnr" v="178805" />
		<tag k="waterway" v="stream" />
	</node>
	<node id="-720072" lat="63.3911250001" lon="9.70634166273">
		<tag k="name" v="Lombekken" />
		<tag k="ssr:stedsnr" v="194841" />
		<tag k="waterway" v="stream" />
	</node>
	<node id="-722461" lat="63.1026111136" lon="9.75765833865">
		<tag k="name" v="Katt-tjønna" />
		<tag k="natural" v="water" />
		<tag k="ssr:stedsnr" v="878524" />
	</node>
	<node id="-720043" lat="63.4445888906" lon="9.3805305604">
		<tag k="name" v="Engvikbekken" />
		<tag k="ssr:stedsnr" v="283091" />
		<tag k="waterway" v="stream" />
	</node>
	<node id="-722090" lat="63.5612388853" lon="9.66075000708">
		<tag k="name" v="Osen" />
		<tag k="natural" v="bay" />
		<tag k="ssr:stedsnr" v="706569" />
	</node>
	<node id="-720040" lat="63.5635833291" lon="9.7324249994">
		<tag k="name" v="Storvasslibekken" />
		<tag k="ssr:stedsnr" v="281993" />
		<tag k="waterway" v="stream" />
	</node>
	<node id="-720039" lat="63.4424611083" lon="9.73900554552">
		<tag k="name" v="Saglielva" />
		<tag k="ssr:stedsnr" v="281980" />
		<tag k="waterway" v="river" />
	</node>
	<node id="-720036" lat="63.433094449" lon="9.67588332455">
		<tag k="name" v="Svarttjørna" />
		<tag k="natural" v="water" />
		<tag k="ssr:stedsnr" v="281966" />
	</node>
	<node id="-720035" lat="63.5138444452" lon="9.73687222651">
		<tag k="name" v="Geitholbekken" />
		<tag k="ssr:stedsnr" v="281956" />
		<tag k="waterway" v="stream" />
	</node>
	<node id="-722081" lat="63.4645638891" lon="9.69092222633">
		<tag k="name" v="Fuggeløya" />
		<tag k="place" v="island" />
		<tag k="ssr:stedsnr" v="706402" />
	</node>
	<node id="-720030" lat="63.4238194453" lon="9.81018333717">
		<tag k="name" v="Granneset" />
		<tag k="natural" v="cape" />
		<tag k="ssr:stedsnr" v="281919" />
	</node>
	<node id="-722077" lat="63.4679416681" lon="9.70607499832">
		<tag k="name" v="Øyangsbukta" />
		<tag k="natural" v="bay" />
		<tag k="ssr:stedsnr" v="706386" />
	</node>
	<node id="-720028" lat="63.5797527792" lon="9.57903333439">
		<tag k="name" v="Vikabekken" />
		<tag k="ssr:stedsnr" v="281677" />
		<tag k="waterway" v="stream" />
	</node>
	<node id="-722075" lat="63.4588638898" lon="9.71328610177">
		<tag k="name" v="Seterdalsbekken" />
		<tag k="ssr:stedsnr" v="706367" />
		<tag k="waterway" v="stream" />
	</node>
	<node id="-724120" lat="63.4033249978" lon="9.34533055829">
		<tag k="name" v="Svartholtjørna" />
		<tag k="natural" v="water" />
		<tag k="ssr:stedsnr" v="33299" />
	</node>
	<node id="-722071" lat="63.6154416664" lon="9.6766861138">
		<tag k="name" v="Løstadelva" />
		<tag k="ssr:stedsnr" v="706296" />
		<tag k="waterway" v="stream" />
	</node>
	<node id="-721433" lat="63.4591472253" lon="9.90126944371">
		<tag k="name" v="Kvernhushølen" />
		<tag k="place" v="locality" />
		<tag k="ssr:stedsnr" v="463052" />
	</node>
	<node id="-720020" lat="63.4365500046" lon="9.78388054635">
		<tag k="name" v="Karusdammen" />
		<tag k="natural" v="water" />
		<tag k="ssr:stedsnr" v="281621" />
	</node>
	<node id="-722065" lat="63.462833334" lon="9.65919999526">
		<tag k="name" v="Maliholbukta" />
		<tag k="natural" v="bay" />
		<tag k="ssr:stedsnr" v="706234" />
	</node>
	<node id="-724504" lat="63.0419194403" lon="9.95684167447">
		<tag k="name" v="Oppigardstjønna" />
		<tag k="natural" v="water" />
		<tag k="ssr:stedsnr" v="89660" />
	</node>
	<node id="-720014" lat="63.4840194476" lon="9.67065000159">
		<tag k="name" v="Ytter Storbulineset" />
		<tag k="natural" v="cape" />
		<tag k="ssr:stedsnr" v="281491" />
	</node>
	<node id="-720013" lat="63.4856833318" lon="9.6720416662">
		<tag k="name" v="Storbulibukta" />
		<tag k="natural" v="bay" />
		<tag k="ssr:stedsnr" v="281488" />
	</node>
	<node id="-721090" lat="63.0687444489" lon="9.58105832941">
		<tag k="name" v="Storslåttbekken" />
		<tag k="ssr:stedsnr" v="392264" />
		<tag k="waterway" v="stream" />
	</node>
	<node id="-722986" lat="63.4677833325" lon="9.57572778427">
		<tag k="name" v="Holmneset" />
		<tag k="natural" v="cape" />
		<tag k="ssr:stedsnr" v="761466" />
	</node>
	<node id="-720008" lat="63.468669981" lon="9.63357396805">
		<tag k="name" v="Gorrtjørna" />
		<tag k="natural" v="water" />
		<tag k="ssr:stedsnr" v="281464" />
	</node>
	<node id="-720006" lat="63.461663885" lon="9.73366945391">
		<tag k="name" v="Valelvosen" />
		<tag k="natural" v="bay" />
		<tag k="ssr:stedsnr" v="281458" />
	</node>
	<node id="-720004" lat="63.466444448" lon="9.7113638949">
		<tag k="name" v="Katt-tjørna" />
		<tag k="natural" v="water" />
		<tag k="ssr:stedsnr" v="281451" />
	</node>
	<node id="-722051" lat="63.5206361094" lon="9.79468055885">
		<tag k="name" v="Rønningbekken" />
		<tag k="ssr:stedsnr" v="705746" />
		<tag k="waterway" v="stream" />
	</node>
	<node id="-724098" lat="63.4180222189" lon="9.58654722014">
		<tag k="name" v="Pinnsylfossen" />
		<tag k="natural" v="waterfall" />
		<tag k="ssr:stedsnr" v="33091" />
	</node>
	<node id="-722049" lat="63.5890111114" lon="9.58564999612">
		<tag k="name" v="Djupdalstjørna" />
		<tag k="natural" v="water" />
		<tag k="ssr:stedsnr" v="705723" />
	</node>
	<node id="-723185" lat="63.105674996" lon="9.82163888985">
		<tag k="name" v="Mjovatnet" />
		<tag k="natural" v="water" />
		<tag k="ssr:stedsnr" v="801014" />
		<tag k="water" v="lake" />
	</node>
	<node id="-719999" lat="63.5456611124" lon="9.76419445143">
		<tag k="name" v="Svartlibekken" />
		<tag k="ssr:stedsnr" v="281366" />
		<tag k="waterway" v="stream" />
	</node>
	<node id="-724094" lat="63.5210222255" lon="9.50384166513">
		<tag k="name" v="Almvikneset" />
		<tag k="natural" v="cape" />
		<tag k="ssr:stedsnr" v="33042" />
	</node>
	<node id="-724088" lat="63.5464222188" lon="9.45201389337">
		<tag k="name" v="Slavikbekken" />
		<tag k="ssr:stedsnr" v="33004" />
		<tag k="waterway" v="stream" />
	</node>
	<node id="-723476" lat="63.0248638927" lon="9.90382499928">
		<tag k="name" v="Aurebekken" />
		<tag k="ssr:stedsnr" v="939927" />
		<tag k="waterway" v="stream" />
	</node>
	<node id="-719989" lat="63.6099444402" lon="9.62272777148">
		<tag k="name" v="Larsbukta" />
		<tag k="natural" v="bay" />
		<tag k="ssr:stedsnr" v="281316" />
	</node>
	<node id="-724081" lat="63.1138194484" lon="9.87678888914">
		<tag k="name" v="Regnfossen" />
		<tag k="natural" v="waterfall" />
		<tag k="ssr:stedsnr" v="29752" />
	</node>
	<node id="-719982" lat="63.4948305538" lon="9.77638333143">
		<tag k="name" v="Ulkstadelva" />
		<tag k="ssr:stedsnr" v="281265" />
		<tag k="waterway" v="river" />
	</node>
	<node id="-722027" lat="63.4982444408" lon="9.83675833825">
		<tag k="name" v="Leirbekken" />
		<tag k="ssr:stedsnr" v="705068" />
		<tag k="waterway" v="stream" />
	</node>
	<node id="-721002" lat="63.3392055538" lon="9.5368972141">
		<tag k="alt_name" v="Setergardsbukta" />
		<tag k="name" v="Sætergardsbukta" />
		<tag k="natural" v="bay" />
		<tag k="ssr:stedsnr" v="498199" />
	</node>
	<node id="-722023" lat="63.479036107" lon="9.86305833717">
		<tag k="name" v="Sørlottbekken" />
		<tag k="ssr:stedsnr" v="705030" />
		<tag k="waterway" v="stream" />
	</node>
	<node id="-719974" lat="63.445997221" lon="9.92099167411">
		<tag k="name" v="Djupdalsbekken" />
		<tag k="ssr:stedsnr" v="281124" />
		<tag k="waterway" v="stream" />
	</node>
	<node id="-719971" lat="63.4957138846" lon="9.60706667434">
		<tag k="name" v="Svinslættbekken" />
		<tag k="ssr:stedsnr" v="281087" />
		<tag k="waterway" v="stream" />
	</node>
	<node id="-722107" lat="63.0143583321" lon="9.75416388233">
		<tag k="name" v="Gjelarhølen" />
		<tag k="place" v="locality" />
		<tag k="ssr:stedsnr" v="574072" />
	</node>
	<node id="-722013" lat="63.1589111091" lon="9.80482221282">
		<tag k="name" v="Storlomtjønna" />
		<tag k="natural" v="water" />
		<tag k="ssr:stedsnr" v="703451" />
	</node>
	<node id="-719964" lat="63.4626361126" lon="9.89234444454">
		<tag k="name" v="Vikabekken" />
		<tag k="ssr:stedsnr" v="281036" />
		<tag k="waterway" v="stream" />
	</node>
	<node id="-723130" lat="63.2403472256" lon="9.87312221387">
		<tag k="name" v="Munklitjønna" />
		<tag k="natural" v="water" />
		<tag k="ssr:stedsnr" v="923284" />
	</node>
	<node id="-719199" lat="63.3165805543" lon="9.69223055573">
		<tag k="name" v="Rundtjønna" />
		<tag k="natural" v="water" />
		<tag k="ssr:stedsnr" v="217990" />
	</node>
	<node id="-724057" lat="63.0992694401" lon="9.48074444986">
		<tag k="name" v="Vaulen" />
		<tag k="ssr:stedsnr" v="29451" />
		<tag k="waterway" v="stream" />
	</node>
	<node id="-719957" lat="63.5160111119" lon="9.75431667537">
		<tag k="name" v="Tverrabekken" />
		<tag k="ssr:stedsnr" v="280346" />
		<tag k="waterway" v="stream" />
	</node>
	<node id="-722001" lat="63.2873250017" lon="9.63514722665">
		<tag k="name" v="Sæterbekken" />
		<tag k="ssr:stedsnr" v="702955" />
		<tag k="waterway" v="stream" />
	</node>
	<node id="-721421" lat="63.6081527776" lon="9.6531249983">
		<tag k="name" v="Storvatnet friområde" />
		<tag k="natural" v="beach" />
		<tag k="ssr:stedsnr" v="666577" />
	</node>
	<node id="-721996" lat="63.1879638861" lon="9.55545277036">
		<tag k="name" v="Litlholmen" />
		<tag k="place" v="islet" />
		<tag k="ssr:stedsnr" v="702800" />
	</node>
	<node id="-724043" lat="63.1638805598" lon="9.49145277078">
		<tag k="name" v="Storsegltjønna" />
		<tag k="natural" v="water" />
		<tag k="ssr:stedsnr" v="29367" />
	</node>
	<node id="-721994" lat="63.2407527739" lon="9.58695555403">
		<tag k="name" v="Selmobekken" />
		<tag k="ssr:stedsnr" v="702779" />
		<tag k="waterway" v="stream" />
	</node>
	<node id="-724041" lat="63.1602722264" lon="9.5217416761">
		<tag k="name" v="Nåvårdalsbekken" />
		<tag k="ssr:stedsnr" v="29358" />
		<tag k="waterway" v="stream" />
	</node>
	<node id="-721410" lat="63.3668027774" lon="9.79773611285">
		<tag k="name" v="Brutjønna" />
		<tag k="natural" v="water" />
		<tag k="ssr:stedsnr" v="459153" />
	</node>
	<node id="-724037" lat="63.1042277743" lon="9.67954444633">
		<tag k="name" v="Skjetnbekkloppa" />
		<tag k="ssr:stedsnr" v="29325" />
		<tag k="waterway" v="stream" />
	</node>
	<node id="-721988" lat="63.2407749989" lon="9.69797221445">
		<tag k="name" v="Røstjønna" />
		<tag k="natural" v="water" />
		<tag k="ssr:stedsnr" v="702746" />
	</node>
	<node id="-722501" lat="63.1162638881" lon="9.87578056193">
		<tag k="name" v="Slættfossen" />
		<tag k="natural" v="waterfall" />
		<tag k="ssr:stedsnr" v="878773" />
	</node>
	<node id="-719938" lat="63.5404388848" lon="9.76597778525">
		<tag k="name" v="Slættbekken" />
		<tag k="ssr:stedsnr" v="160306" />
		<tag k="waterway" v="stream" />
	</node>
	<node id="-719934" lat="63.5584111139" lon="9.79119167083">
		<tag k="name" v="Litlnesbekken" />
		<tag k="ssr:stedsnr" v="160163" />
		<tag k="waterway" v="stream" />
	</node>
	<node id="-721980" lat="63.1826555577" lon="9.48562222766">
		<tag k="name" v="Dalbekken" />
		<tag k="ssr:stedsnr" v="702695" />
		<tag k="waterway" v="stream" />
	</node>
	<node id="-719931" lat="63.4842222251" lon="9.6775805563">
		<tag k="name" v="Fremmerneset" />
		<tag k="natural" v="cape" />
		<tag k="ssr:stedsnr" v="160406" />
	</node>
	<node id="-721908" lat="63.388086113" lon="9.90268887946">
		<tag k="name" v="Anderskåsbekken" />
		<tag k="ssr:stedsnr" v="701693" />
		<tag k="waterway" v="stream" />
	</node>
	<node id="-723319" lat="63.1865138858" lon="9.89457776964">
		<tag k="name" v="Krokbekken" />
		<tag k="ssr:stedsnr" v="823305" />
		<tag k="waterway" v="stream" />
	</node>
	<node id="-724023" lat="62.9691666675" lon="9.61445555454">
		<tag k="name" v="Eldammen" />
		<tag k="ssr:stedsnr" v="29263" />
		<tag k="waterway" v="dam" />
	</node>
	<node id="-721974" lat="63.1947138914" lon="9.67539721903">
		<tag k="name" v="Lykkjbekken" />
		<tag k="ssr:stedsnr" v="702637" />
		<tag k="waterway" v="stream" />
	</node>
	<node id="-721973" lat="63.2103083352" lon="9.65439722661">
		<tag k="name" v="Fjølåstjønna" />
		<tag k="natural" v="water" />
		<tag k="ssr:stedsnr" v="702864" />
	</node>
	<node id="-721972" lat="63.2123777819" lon="9.65035556314">
		<tag k="name" v="Gjøribekken" />
		<tag k="ssr:stedsnr" v="702862" />
		<tag k="waterway" v="stream" />
	</node>
	<node id="-719921" lat="63.4803527816" lon="9.70503889156">
		<tag k="name" v="Frostadalstjørna" />
		<tag k="natural" v="water" />
		<tag k="ssr:stedsnr" v="159122" />
	</node>
	<node id="-719919" lat="63.478383329" lon="9.83864722787">
		<tag k="name" v="Tennelselva" />
		<tag k="ssr:stedsnr" v="159005" />
		<tag k="waterway" v="river" />
	</node>
	<node id="-721963" lat="63.2903111113" lon="9.5904472212">
		<tag k="name" v="Hyllbekken" />
		<tag k="ssr:stedsnr" v="559211" />
		<tag k="waterway" v="stream" />
	</node>
	<node id="-721961" lat="63.3901027803" lon="9.93434167278">
		<tag k="name" v="Sagbekken" />
		<tag k="ssr:stedsnr" v="559359" />
		<tag k="waterway" v="stream" />
	</node>
	<node id="-719911" lat="63.1518777743" lon="9.84347221575">
		<tag k="name" v="Steingruvtjønna" />
		<tag k="natural" v="water" />
		<tag k="ssr:stedsnr" v="278697" />
	</node>
	<node id="-719905" lat="63.1557916705" lon="9.82930554949">
		<tag k="name" v="Haugabekken" />
		<tag k="ssr:stedsnr" v="278431" />
		<tag k="waterway" v="stream" />
	</node>
	<node id="-719898" lat="63.2414444451" lon="9.64878610894">
		<tag k="name" v="Svorkåstjønna" />
		<tag k="natural" v="water" />
		<tag k="ssr:stedsnr" v="277753" />
	</node>
	<node id="-724143" lat="63.4778083363" lon="9.58084722666">
		<tag k="name" v="Damtjørna" />
		<tag k="natural" v="water" />
		<tag k="ssr:stedsnr" v="33477" />
	</node>
	<node id="-723801" lat="62.9112333355" lon="9.55291666894">
		<tag k="name" v="Langtjønna" />
		<tag k="natural" v="water" />
		<tag k="ssr:stedsnr" v="939088" />
	</node>
	<node id="-719892" lat="63.2256500015" lon="9.67747222399">
		<tag k="name" v="Småtjønnin" />
		<tag k="natural" v="water" />
		<tag k="ssr:stedsnr" v="277879" />
	</node>
	<node id="-721939" lat="63.121938886" lon="9.47703332933">
		<tag k="name" v="Merratjønna" />
		<tag k="natural" v="water" />
		<tag k="ssr:stedsnr" v="558512" />
	</node>
	<node id="-720953" lat="63.224311109" lon="9.60837777025">
		<tag k="name" v="Bjørbekken" />
		<tag k="ssr:stedsnr" v="497558" />
		<tag k="waterway" v="stream" />
	</node>
	<node id="-721936" lat="63.0598833344" lon="9.62676666895">
		<tag k="name" v="Holtjønna" />
		<tag k="natural" v="water" />
		<tag k="ssr:stedsnr" v="558369" />
	</node>
	<node id="-720045" lat="63.2201472234" lon="9.41463611603">
		<tag k="name" v="Svartholodden" />
		<tag k="natural" v="cape" />
		<tag k="ssr:stedsnr" v="283707" />
	</node>
	<node id="-719883" lat="63.1855916681" lon="9.64354722149">
		<tag k="name" v="Holbekken" />
		<tag k="ssr:stedsnr" v="277640" />
		<tag k="waterway" v="stream" />
	</node>
	<node id="-721930" lat="63.0678249992" lon="9.53557222054">
		<tag k="name" v="Jøngbekken" />
		<tag k="ssr:stedsnr" v="558409" />
		<tag k="waterway" v="stream" />
	</node>
	<node id="-723977" lat="63.0214981386" lon="9.94344948506">
		<tag k="name" v="Hørrvassbekken" />
		<tag k="ssr:stedsnr" v="28542" />
		<tag k="waterway" v="stream" />
	</node>
	<node id="-723974" lat="63.0403055531" lon="9.99264722514">
		<tag k="name" v="Pungtjønna" />
		<tag k="natural" v="water" />
		<tag k="ssr:stedsnr" v="28374" />
	</node>
	<node id="-719874" lat="63.3472861131" lon="9.78814722139">
		<tag k="name" v="Gorvassbekken" />
		<tag k="ssr:stedsnr" v="155149" />
		<tag k="waterway" v="stream" />
	</node>
	<node id="-719873" lat="63.3455694458" lon="9.79292778695">
		<tag k="name" v="Melandsholmen" />
		<tag k="place" v="islet" />
		<tag k="ssr:stedsnr" v="155139" />
	</node>
	<node id="-723967" lat="63.5026333341" lon="9.79503611016">
		<tag k="name" v="Lena" />
		<tag k="ssr:stedsnr" v="13759" />
		<tag k="waterway" v="river" />
	</node>
	<node id="-721918" lat="63.3301944488" lon="9.67263889098">
		<tag k="alt_name" v="Bergslættjønna" />
		<tag k="name" v="Bergslettjønna" />
		<tag k="natural" v="water" />
		<tag k="ssr:stedsnr" v="558168" />
	</node>
	<node id="-723152" lat="63.1540944466" lon="9.48317777285">
		<tag k="name" v="Morrtjønna" />
		<tag k="natural" v="water" />
		<tag k="ssr:stedsnr" v="923594" />
	</node>
	<node id="-721066" lat="62.9821861079" lon="9.88462777042">
		<tag k="name" v="Svartvatna" />
		<tag k="natural" v="water" />
		<tag k="ssr:stedsnr" v="498829" />
		<tag k="water" v="lake" />
	</node>
	<node id="-723960" lat="63.5007249983" lon="9.78447777934">
		<tag k="name" v="Stertelva" />
		<tag k="ssr:stedsnr" v="13726" />
		<tag k="waterway" v="stream" />
	</node>
	<node id="-723959" lat="63.3380166629" lon="9.74125000377">
		<tag k="name" v="Fjellkjøsvatnet" />
		<tag k="natural" v="water" />
		<tag k="ssr:stedsnr" v="13498" />
		<tag k="water" v="lake" />
	</node>
	<node id="-723956" lat="63.3022055587" lon="9.74968610273">
		<tag k="name" v="Skjenaldelva" />
		<tag k="ssr:stedsnr" v="13368" />
		<tag k="waterway" v="river" />
	</node>
	<node id="-723955" lat="63.3200416672" lon="9.71881111059">
		<tag k="name" v="Dyndalstjønna" />
		<tag k="natural" v="water" />
		<tag k="ssr:stedsnr" v="13281" />
	</node>
	<node id="-721064" lat="62.9859555562" lon="9.93940833287">
		<tag k="name" v="Langtjønna" />
		<tag k="natural" v="water" />
		<tag k="ssr:stedsnr" v="498785" />
	</node>
	<node id="-723950" lat="63.3130750014" lon="9.53291666845">
		<tag k="name" v="Trollbekken" />
		<tag k="ssr:stedsnr" v="13213" />
		<tag k="waterway" v="stream" />
	</node>
	<node id="-719853" lat="63.3700694489" lon="9.57202778531">
		<tag k="name" v="Slåttalibekken" />
		<tag k="ssr:stedsnr" v="276476" />
		<tag k="waterway" v="stream" />
	</node>
	<node id="-723948" lat="63.309097225" lon="9.36938055442">
		<tag k="name" v="Damvatnet" />
		<tag k="natural" v="water" />
		<tag k="ssr:stedsnr" v="13208" />
	</node>
	<node id="-719849" lat="63.2610777774" lon="9.82750000653">
		<tag k="name" v="Jamtåsbekken" />
		<tag k="ssr:stedsnr" v="276328" />
		<tag k="waterway" v="stream" />
	</node>
	<node id="-723944" lat="63.3315416701" lon="9.43354999122">
		<tag k="name" v="Vuttudalselva" />
		<tag k="ssr:stedsnr" v="13174" />
		<tag k="waterway" v="river" />
	</node>
	<node id="-723943" lat="63.5142805581" lon="9.46435556426">
		<tag k="name" v="Korsvatnet" />
		<tag k="natural" v="water" />
		<tag k="ssr:stedsnr" v="13173" />
	</node>
	<node id="-719846" lat="63.3145583326" lon="9.43101943654">
		<tag k="name" v="Tverrelva" />
		<tag k="ssr:stedsnr" v="276433" />
		<tag k="waterway" v="river" />
	</node>
	<node id="-723941" lat="63.3459611106" lon="9.50503611988">
		<tag k="name" v="Tverrelvtjørna" />
		<tag k="natural" v="water" />
		<tag k="ssr:stedsnr" v="13158" />
	</node>
	<node id="-723939" lat="63.5595743999" lon="9.6649711201">
		<tag k="name" v="Grønningsvatnet" />
		<tag k="natural" v="water" />
		<tag k="ssr:stedsnr" v="13147" />
	</node>
	<node id="-722427" lat="63.1048250004" lon="9.65186389408">
		<tag k="name" v="Dambakken" />
		<tag k="ssr:stedsnr" v="878342" />
		<tag k="waterway" v="dam" />
	</node>
	<node id="-721885" lat="63.3772138897" lon="9.93268889766">
		<tag k="name" v="Haugnesbekken" />
		<tag k="ssr:stedsnr" v="701440" />
		<tag k="waterway" v="stream" />
	</node>
	<node id="-719835" lat="63.4150861084" lon="9.26688888641">
		<tag k="name" v="Øverelva" />
		<tag k="ssr:stedsnr" v="276198" />
		<tag k="waterway" v="river" />
	</node>
	<node id="-721882" lat="63.3026916672" lon="9.44633610974">
		<tag k="name" v="Grønlibekken" />
		<tag k="ssr:stedsnr" v="701424" />
		<tag k="waterway" v="stream" />
	</node>
	<node id="-723927" lat="63.258724999" lon="9.46002778689">
		<tag k="name" v="Skinka" />
		<tag k="ssr:stedsnr" v="13021" />
		<tag k="waterway" v="stream" />
	</node>
	<node id="-723926" lat="63.2676861076" lon="9.67303610835">
		<tag k="name" v="Gjønnesneset" />
		<tag k="natural" v="cape" />
		<tag k="ssr:stedsnr" v="13016" />
	</node>
	<node id="-723925" lat="63.4889666625" lon="9.69606388223">
		<tag k="alt_name" v="Kjøltjørna" />
		<tag k="name" v="Kjølvatnet" />
		<tag k="natural" v="water" />
		<tag k="ssr:stedsnr" v="13000" />
	</node>
	<node id="-721338" lat="63.2417333344" lon="9.88017778112">
		<tag k="name" v="Byavassbekken" />
		<tag k="ssr:stedsnr" v="519330" />
		<tag k="waterway" v="stream" />
	</node>
	<node id="-721875" lat="63.346352778" lon="9.40130555604">
		<tag k="name" v="Sagdalsbekken" />
		<tag k="ssr:stedsnr" v="701338" />
		<tag k="waterway" v="stream" />
	</node>
	<node id="-722083" lat="63.4842722246" lon="9.61311111641">
		<tag k="name" v="Bjugnskardtjørna" />
		<tag k="natural" v="water" />
		<tag k="ssr:stedsnr" v="706443" />
	</node>
	<node id="-719824" lat="63.3849027822" lon="9.32620277857">
		<tag k="name" v="Ytter Klungervikelva" />
		<tag k="ssr:stedsnr" v="275926" />
		<tag k="waterway" v="river" />
	</node>
	<node id="-723919" lat="63.42375833" lon="9.33764167009">
		<tag k="name" v="Damtjørna" />
		<tag k="natural" v="water" />
		<tag k="ssr:stedsnr" v="12789" />
	</node>
	<node id="-723918" lat="63.4332138898" lon="9.67751667188">
		<tag k="name" v="Svarttjørna" />
		<tag k="natural" v="water" />
		<tag k="ssr:stedsnr" v="12787" />
	</node>
	<node id="-723917" lat="63.4346166653" lon="9.49749721347">
		<tag k="alt_name" v="Polltjørna" />
		<tag k="name" v="Pullvatnet" />
		<tag k="natural" v="water" />
		<tag k="ssr:stedsnr" v="12783" />
	</node>
	<node id="-719820" lat="63.4831583308" lon="9.32539445116">
		<tag k="name" v="Fossdalselva" />
		<tag k="ssr:stedsnr" v="275541" />
		<tag k="waterway" v="stream" />
	</node>
	<node id="-723913" lat="63.0291749967" lon="9.99044166826">
		<tag k="name" v="Trivja" />
		<tag k="ssr:stedsnr" v="12679" />
		<tag k="waterway" v="river" />
	</node>
	<node id="-719816" lat="63.438941667" lon="9.43531945256">
		<tag k="alt_name" v="Høttslett-tjørna" />
		<tag k="name" v="Høttslettjørna" />
		<tag k="natural" v="water" />
		<tag k="ssr:stedsnr" v="275445" />
	</node>
	<node id="-721863" lat="63.4872111138" lon="9.54918889226">
		<tag k="name" v="Sagholtjørna" />
		<tag k="natural" v="water" />
		<tag k="ssr:stedsnr" v="701184" />
	</node>
	<node id="-723653" lat="63.3548777745" lon="9.60500000983">
		<tag k="name" v="Yttertjønna" />
		<tag k="natural" v="water" />
		<tag k="ssr:stedsnr" v="945912" />
	</node>
	<node id="-719812" lat="63.3932638848" lon="9.46549999428">
		<tag k="name" v="Kroknesbekken" />
		<tag k="ssr:stedsnr" v="275390" />
		<tag k="waterway" v="stream" />
	</node>
	<node id="-723907" lat="63.2212222196" lon="9.37706945018">
		<tag k="name" v="Søvatnet" />
		<tag k="natural" v="water" />
		<tag k="ssr:stedsnr" v="12584" />
		<tag k="water" v="lake" />
	</node>
	<node id="-723906" lat="63.037819445" lon="9.83161389545">
		<tag k="name" v="Råtjønna" />
		<tag k="natural" v="water" />
		<tag k="ssr:stedsnr" v="12582" />
	</node>
	<node id="-721854" lat="63.3441138846" lon="9.79301667453">
		<tag k="name" v="Melandsbekken" />
		<tag k="ssr:stedsnr" v="701139" />
		<tag k="waterway" v="stream" />
	</node>
	<node id="-722421" lat="63.1747583319" lon="9.55156667018">
		<tag k="name" v="Strandholmen" />
		<tag k="place" v="islet" />
		<tag k="ssr:stedsnr" v="878307" />
	</node>
	<node id="-720325" lat="62.9916805552" lon="9.53164999882">
		<tag k="name" v="Vålåskarstjønnin" />
		<tag k="natural" v="water" />
		<tag k="ssr:stedsnr" v="453484" />
	</node>
	<node id="-719800" lat="63.3735944467" lon="9.60626110748">
		<tag k="name" v="Djupdalsbekken" />
		<tag k="ssr:stedsnr" v="275092" />
		<tag k="waterway" v="stream" />
	</node>
	<node id="-719798" lat="63.4267222251" lon="9.51997500056">
		<tag k="name" v="Gortjørna" />
		<tag k="natural" v="water" />
		<tag k="ssr:stedsnr" v="275084" />
	</node>
	<node id="-721843" lat="63.4796722198" lon="9.34876111316">
		<tag k="name" v="Kvernabekken" />
		<tag k="ssr:stedsnr" v="700651" />
		<tag k="waterway" v="stream" />
	</node>
	<node id="-723889" lat="63.0980416689" lon="9.79576945096">
		<tag k="name" v="Prestbuvatnet" />
		<tag k="natural" v="water" />
		<tag k="ssr:stedsnr" v="12557" />
		<tag k="water" v="lake" />
	</node>
	<node id="-723886" lat="63.0958666712" lon="9.89590277461">
		<tag k="name" v="Bjørnlivatnet" />
		<tag k="natural" v="water" />
		<tag k="ssr:stedsnr" v="12539" />
	</node>
	<node id="-719789" lat="62.9737194465" lon="9.52527777351">
		<tag k="name" v="Storvika" />
		<tag k="natural" v="bay" />
		<tag k="ssr:stedsnr" v="150467" />
	</node>
	<node id="-721836" lat="63.3874166672" lon="9.44264723096">
		<tag k="name" v="Gjerdabekken" />
		<tag k="ssr:stedsnr" v="700483" />
		<tag k="waterway" v="stream" />
	</node>
	<node id="-724466" lat="63.1303555538" lon="9.4770249915">
		<tag k="name" v="Dalatjønna" />
		<tag k="natural" v="water" />
		<tag k="ssr:stedsnr" v="89414" />
	</node>
	<node id="-721834" lat="63.4131944414" lon="9.25236945035">
		<tag k="name" v="Rotneset" />
		<tag k="natural" v="cape" />
		<tag k="ssr:stedsnr" v="700188" />
	</node>
	<node id="-723879" lat="63.1957327832" lon="9.85035105231">
		<tag k="fixme" v="multiple name tags, choose one and add the other to alt_name" />
		<tag k="name" v="Nedre Damtjønna;Nedre Damlitjønna" />
		<tag k="natural" v="water" />
		<tag k="ssr:stedsnr" v="12195" />
	</node>
	<node id="-723878" lat="63.1961472187" lon="9.87962223038">
		<tag k="name" v="Austlitjønna" />
		<tag k="natural" v="water" />
		<tag k="ssr:stedsnr" v="12176" />
	</node>
	<node id="-722758" lat="63.4270694432" lon="9.71409166657">
		<tag k="name" v="Fjellbekken" />
		<tag k="ssr:stedsnr" v="888995" />
		<tag k="waterway" v="stream" />
	</node>
	<node id="-723874" lat="63.1539826022" lon="9.83881021372">
		<tag k="name" v="Langkjøstjønnin" />
		<tag k="natural" v="water" />
		<tag k="ssr:stedsnr" v="12130" />
	</node>
	<node id="-721822" lat="63.3638611142" lon="9.56442777569">
		<tag k="name" v="Merkesbekken" />
		<tag k="ssr:stedsnr" v="700134" />
		<tag k="waterway" v="stream" />
	</node>
	<node id="-721819" lat="63.4953833359" lon="9.49626943698">
		<tag k="name" v="Rørlitjørna" />
		<tag k="natural" v="water" />
		<tag k="ssr:stedsnr" v="700095" />
	</node>
	<node id="-721816" lat="63.4119638911" lon="9.57130554768">
		<tag k="name" v="Råbekken" />
		<tag k="ssr:stedsnr" v="700079" />
		<tag k="waterway" v="stream" />
	</node>
	<node id="-721815" lat="63.535075002" lon="9.44258889122">
		<tag k="name" v="Ramvikbekken" />
		<tag k="ssr:stedsnr" v="700072" />
		<tag k="waterway" v="stream" />
	</node>
	<node id="-721811" lat="63.0066277733" lon="9.86745833941">
		<tag k="name" v="Gammelslåttjønna" />
		<tag k="natural" v="water" />
		<tag k="ssr:stedsnr" v="696890" />
	</node>
	<node id="-719762" lat="62.9370666695" lon="9.56403333534">
		<tag k="name" v="Kroktjønna" />
		<tag k="natural" v="water" />
		<tag k="ssr:stedsnr" v="150068" />
	</node>
	<node id="-721809" lat="63.0915666639" lon="9.83937778242">
		<tag k="name" v="Grantjønna" />
		<tag k="natural" v="water" />
		<tag k="ssr:stedsnr" v="696741" />
	</node>
	<node id="-721808" lat="63.113194447" lon="9.71011111464">
		<tag k="name" v="Ospengbekken" />
		<tag k="ssr:stedsnr" v="696740" />
		<tag k="waterway" v="stream" />
	</node>
	<node id="-723096" lat="63.2564722242" lon="9.59296110702">
		<tag k="name" v="Damtjønna" />
		<tag k="natural" v="water" />
		<tag k="ssr:stedsnr" v="923026" />
	</node>
	<node id="-721805" lat="63.1137194412" lon="9.83504165899">
		<tag k="name" v="Purkskinnet" />
		<tag k="natural" v="water" />
		<tag k="ssr:stedsnr" v="696732" />
	</node>
	<node id="-723851" lat="63.5501416706" lon="9.72865555239">
		<tag k="name" v="Risdambekken" />
		<tag k="ssr:stedsnr" v="949903" />
		<tag k="waterway" v="stream" />
	</node>
	<node id="-719754" lat="62.9834166671" lon="9.91222777712">
		<tag k="name" v="Kattjønna" />
		<tag k="natural" v="water" />
		<tag k="ssr:stedsnr" v="149668" />
	</node>
	<node id="-723848" lat="63.426616668" lon="9.80972778055">
		<tag k="name" v="Hjortkamneset" />
		<tag k="natural" v="cape" />
		<tag k="ssr:stedsnr" v="949517" />
	</node>
	<node id="-721540" lat="63.1294027809" lon="9.68180555066">
		<tag k="name" v="Bjørnlivatnet" />
		<tag k="natural" v="water" />
		<tag k="ssr:stedsnr" v="680530" />
	</node>
	<node id="-723846" lat="63.4680611071" lon="9.73246945217">
		<tag k="name" v="Naustbukta" />
		<tag k="natural" v="bay" />
		<tag k="ssr:stedsnr" v="949370" />
	</node>
	<node id="-723845" lat="63.4673222262" lon="9.75063054755">
		<tag k="name" v="Kubukta" />
		<tag k="natural" v="bay" />
		<tag k="ssr:stedsnr" v="949365" />
	</node>
	<node id="-719745" lat="63.1242055584" lon="9.66572499224">
		<tag k="name" v="Liahaugtjønna" />
		<tag k="natural" v="water" />
		<tag k="ssr:stedsnr" v="271783" />
	</node>
	<node id="-721792" lat="63.0413555578" lon="9.87527778567">
		<tag k="name" v="Kjeglvassbekken" />
		<tag k="ssr:stedsnr" v="696693" />
		<tag k="waterway" v="stream" />
	</node>
	<node id="-723837" lat="63.5992833372" lon="9.63408054658">
		<tag k="name" v="Musdalsneset" />
		<tag k="natural" v="cape" />
		<tag k="ssr:stedsnr" v="949263" />
	</node>
	<node id="-722410" lat="63.0916361152" lon="9.64103054601">
		<tag k="name" v="Nylykkjbekken" />
		<tag k="ssr:stedsnr" v="878215" />
		<tag k="waterway" v="stream" />
	</node>
	<node id="-720994" lat="63.1618083348" lon="9.84389723201">
		<tag k="name" v="Svarttjønna" />
		<tag k="natural" v="water" />
		<tag k="ssr:stedsnr" v="498156" />
	</node>
	<node id="-719737" lat="62.9769750041" lon="9.9024250079">
		<tag k="name" v="Fjellbekken" />
		<tag k="ssr:stedsnr" v="271719" />
		<tag k="waterway" v="stream" />
	</node>
	<node id="-719736" lat="63.0527250042" lon="9.93655554912">
		<tag k="name" v="Middagstjønna" />
		<tag k="natural" v="water" />
		<tag k="ssr:stedsnr" v="271700" />
	</node>
	<node id="-721044" lat="63.1296861112" lon="9.65472499389">
		<tag k="name" v="Dalatjønna" />
		<tag k="natural" v="water" />
		<tag k="ssr:stedsnr" v="498530" />
	</node>
	<node id="-719733" lat="63.0967722204" lon="9.46891944675">
		<tag k="name" v="Baklibekken" />
		<tag k="ssr:stedsnr" v="271498" />
		<tag k="waterway" v="stream" />
	</node>
	<node id="-721779" lat="63.0247444404" lon="9.9086638943">
		<tag k="name" v="Aurebekken" />
		<tag k="ssr:stedsnr" v="696575" />
		<tag k="waterway" v="stream" />
	</node>
	<node id="-721772" lat="63.0181361117" lon="9.99814721746">
		<tag k="name" v="Dammen" />
		<tag k="place" v="locality" />
		<tag k="ssr:stedsnr" v="696399" />
	</node>
	<node id="-719719" lat="63.1437611139" lon="9.7164166675">
		<tag k="name" v="Håmmårbekken" />
		<tag k="ssr:stedsnr" v="271343" />
		<tag k="waterway" v="stream" />
	</node>
	<node id="-719718" lat="63.0098416678" lon="9.99305832614">
		<tag k="name" v="Litjholmen" />
		<tag k="place" v="islet" />
		<tag k="ssr:stedsnr" v="271339" />
	</node>
	<node id="-721763" lat="63.0860472202" lon="9.48230834088">
		<tag k="name" v="Skjerva" />
		<tag k="ssr:stedsnr" v="696467" />
		<tag k="waterway" v="river" />
	</node>
	<node id="-723810" lat="62.9850916642" lon="9.52390556102">
		<tag k="name" v="Rattjønna" />
		<tag k="natural" v="water" />
		<tag k="ssr:stedsnr" v="939488" />
	</node>
	<node id="-719713" lat="63.0956111148" lon="9.82557777834">
		<tag k="name" v="Sandåa" />
		<tag k="ssr:stedsnr" v="271575" />
		<tag k="waterway" v="river" />
	</node>
	<node id="-721759" lat="62.989872224" lon="10.0014916591">
		<tag k="name" v="Liatjønna" />
		<tag k="natural" v="water" />
		<tag k="ssr:stedsnr" v="696351" />
	</node>
	<node id="-721753" lat="63.1399277754" lon="9.71155277353">
		<tag k="name" v="Raubekken" />
		<tag k="ssr:stedsnr" v="696293" />
		<tag k="waterway" v="stream" />
	</node>
	<node id="-721752" lat="63.0099972205" lon="9.98998888222">
		<tag k="name" v="Ravholmen" />
		<tag k="place" v="islet" />
		<tag k="ssr:stedsnr" v="696291" />
	</node>
	<node id="-723794" lat="63.1336694418" lon="9.55174165959">
		<tag k="name" v="Øvre Gruvdammen" />
		<tag k="natural" v="water" />
		<tag k="ssr:stedsnr" v="935107" />
	</node>
	<node id="-721745" lat="63.0870333332" lon="9.69363889658">
		<tag k="name" v="Djupa" />
		<tag k="ssr:stedsnr" v="696227" />
		<tag k="waterway" v="stream" />
	</node>
	<node id="-719694" lat="62.9794222209" lon="9.77770832525">
		<tag k="name" v="Måssåosen" />
		<tag k="natural" v="bay" />
		<tag k="ssr:stedsnr" v="271151" />
	</node>
	<node id="-723787" lat="63.0097166711" lon="9.99866944695">
		<tag k="name" v="Holsjøen" />
		<tag k="natural" v="water" />
		<tag k="ssr:stedsnr" v="923662" />
		<tag k="water" v="lake" />
	</node>
	<node id="-719687" lat="62.9327000039" lon="9.56986945265">
		<tag k="name" v="Siltjønna" />
		<tag k="natural" v="water" />
		<tag k="ssr:stedsnr" v="271079" />
	</node>
	<node id="-723781" lat="63.4164361082" lon="9.74829444232">
		<tag k="name" v="Lysvatnet" />
		<tag k="natural" v="water" />
		<tag k="ssr:stedsnr" v="888930" />
		<tag k="water" v="lake" />
	</node>
	<node id="-723780" lat="63.5539972218" lon="9.71989166119">
		<tag k="name" v="Stakkengsbekken" />
		<tag k="ssr:stedsnr" v="888918" />
		<tag k="waterway" v="stream" />
	</node>
	<node id="-719681" lat="63.0447361139" lon="9.63435556226">
		<tag k="name" v="Litjholmen" />
		<tag k="place" v="islet" />
		<tag k="ssr:stedsnr" v="271189" />
	</node>
	<node id="-721727" lat="62.9743361119" lon="9.76071666105">
		<tag k="name" v="Halsbekken" />
		<tag k="ssr:stedsnr" v="696126" />
		<tag k="waterway" v="stream" />
	</node>
	<node id="-723774" lat="63.4871527766" lon="9.65004722428">
		<tag k="name" v="Herdalsosen" />
		<tag k="natural" v="bay" />
		<tag k="ssr:stedsnr" v="888412" />
	</node>
	<node id="-723772" lat="63.547813889" lon="9.79067778347">
		<tag k="name" v="Tverråsbekken" />
		<tag k="ssr:stedsnr" v="888309" />
		<tag k="waterway" v="stream" />
	</node>
	<node id="-723082" lat="63.2391750014" lon="9.40119167171">
		<tag k="name" v="Kjerringbekken" />
		<tag k="ssr:stedsnr" v="922557" />
		<tag k="waterway" v="stream" />
	</node>
	<node id="-721719" lat="63.1147749974" lon="9.54701667637">
		<tag k="name" v="Hansslættbekken" />
		<tag k="ssr:stedsnr" v="696077" />
		<tag k="waterway" v="stream" />
	</node>
	<node id="-721718" lat="63.1040111141" lon="9.5384888949">
		<tag k="name" v="Stavåa" />
		<tag k="ssr:stedsnr" v="696070" />
		<tag k="waterway" v="stream" />
	</node>
	<node id="-719663" lat="63.4277138851" lon="9.83349444346">
		<tag k="name" v="Buttulsjøa" />
		<tag k="natural" v="water" />
		<tag k="old_name" v="Butulsjøva" />
		<tag k="ssr:stedsnr" v="134134" />
	</node>
	<node id="-719662" lat="63.5870500032" lon="9.61657500729">
		<tag k="name" v="Musdalselva" />
		<tag k="ssr:stedsnr" v="134125" />
		<tag k="waterway" v="stream" />
	</node>
	<node id="-719657" lat="63.3219638905" lon="9.53180554754">
		<tag k="name" v="Våddåosen" />
		<tag k="natural" v="bay" />
		<tag k="ssr:stedsnr" v="134208" />
	</node>
	<node id="-719656" lat="63.254583336" lon="9.670797231">
		<tag k="name" v="Åltjønna" />
		<tag k="natural" v="water" />
		<tag k="ssr:stedsnr" v="134027" />
	</node>
	<node id="-721703" lat="63.3919888864" lon="9.77012221989">
		<tag k="name" v="Øybekken" />
		<tag k="ssr:stedsnr" v="524555" />
		<tag k="waterway" v="stream" />
	</node>
	<node id="-721702" lat="63.4854416696" lon="9.64957499545">
		<tag k="name" v="Kvernaneset" />
		<tag k="natural" v="cape" />
		<tag k="ssr:stedsnr" v="524387" />
	</node>
	<node id="-721700" lat="63.5984555532" lon="9.59747778339">
		<tag k="name" v="Stordalsbekken" />
		<tag k="ssr:stedsnr" v="524370" />
		<tag k="waterway" v="stream" />
	</node>
	<node id="-723037" lat="63.624580558" lon="9.72277777976">
		<tag k="name" v="Kvernhusbekken" />
		<tag k="ssr:stedsnr" v="766330" />
		<tag k="waterway" v="stream" />
	</node>
	<node id="-721698" lat="63.4818361114" lon="9.65791110261">
		<tag k="name" v="Rognneset" />
		<tag k="natural" v="cape" />
		<tag k="ssr:stedsnr" v="524406" />
	</node>
	<node id="-719646" lat="63.1582805558" lon="9.44072777787">
		<tag k="name" v="Lomunda" />
		<tag k="ssr:stedsnr" v="133445" />
		<tag k="waterway" v="river" />
	</node>
	<node id="-719643" lat="63.128655557" lon="9.59729444089">
		<tag k="name" v="Druggu" />
		<tag k="ssr:stedsnr" v="133423" />
		<tag k="waterway" v="stream" />
	</node>
	<node id="-719642" lat="63.1355666666" lon="9.84723889142">
		<tag k="name" v="Sagelva" />
		<tag k="ssr:stedsnr" v="133421" />
		<tag k="waterway" v="river" />
	</node>
	<node id="-724100" lat="63.503441663" lon="9.52480000353">
		<tag k="name" v="Svartdalsbekken" />
		<tag k="ssr:stedsnr" v="33095" />
		<tag k="waterway" v="stream" />
	</node>
	<node id="-722150" lat="63.2322888864" lon="9.48708611343">
		<tag k="name" v="Ytter Svorksjøen" />
		<tag k="natural" v="water" />
		<tag k="ssr:stedsnr" v="707816" />
		<tag k="water" v="lake" />
	</node>
	<node id="-724099" lat="63.4960638848" lon="9.51317221296">
		<tag k="name" v="Kvernavatnet" />
		<tag k="natural" v="water" />
		<tag k="ssr:stedsnr" v="33093" />
		<tag k="water" v="lake" />
	</node>
	<node id="-721877" lat="63.2693027735" lon="9.83183611993">
		<tag k="name" v="Kvamsbekken" />
		<tag k="ssr:stedsnr" v="701341" />
		<tag k="waterway" v="stream" />
	</node>
	<node id="-723726" lat="63.4813555539" lon="9.55137777461">
		<tag k="name" v="Gammelseterbekken" />
		<tag k="ssr:stedsnr" v="883512" />
		<tag k="waterway" v="stream" />
	</node>
	<node id="-719629" lat="63.3365027745" lon="9.82330556376">
		<tag k="fixme" v="multiple name tags, choose one and add the other to alt_name" />
		<tag k="name" v="Rovsdammen;Rovstjønna" />
		<tag k="natural" v="water" />
		<tag k="ssr:stedsnr" v="256430" />
	</node>
	<node id="-719626" lat="63.2878416652" lon="9.4892638981">
		<tag k="name" v="Bergholtjønna" />
		<tag k="natural" v="water" />
		<tag k="ssr:stedsnr" v="256246" />
	</node>
	<node id="-723719" lat="63.3718106555" lon="9.24407299801">
		<tag k="name" v="Kverndalsbekken" />
		<tag k="ssr:stedsnr" v="883204" />
		<tag k="waterway" v="stream" />
	</node>
	<node id="-723717" lat="63.12072778" lon="9.81281110176">
		<tag k="name" v="Urvatnet" />
		<tag k="natural" v="water" />
		<tag k="ssr:stedsnr" v="874954" />
		<tag k="water" v="lake" />
	</node>
	<node id="-719619" lat="63.508174996" lon="9.37687222771">
		<tag k="name" v="Halsavatnet" />
		<tag k="natural" v="water" />
		<tag k="ssr:stedsnr" v="256178" />
	</node>
	<node id="-719618" lat="63.317083334" lon="9.58843888647">
		<tag k="name" v="Trondholet" />
		<tag k="place" v="locality" />
		<tag k="ssr:stedsnr" v="256176" />
	</node>
	<node id="-724779" lat="63.5433333289" lon="9.7296694522">
		<tag k="name" v="Seterbekken" />
		<tag k="ssr:stedsnr" v="99928" />
		<tag k="waterway" v="stream" />
	</node>
	<node id="-719616" lat="63.5460780447" lon="9.69075949097">
		<tag k="name" v="Høybuvatnet" />
		<tag k="natural" v="water" />
		<tag k="ssr:stedsnr" v="256149" />
	</node>
	<node id="-719614" lat="63.5565361098" lon="9.61633889371">
		<tag k="name" v="Fjordavatnet" />
		<tag k="natural" v="water" />
		<tag k="ssr:stedsnr" v="256110" />
	</node>
	<node id="-723704" lat="63.4818555594" lon="9.68321388992">
		<tag k="name" v="Slupposen" />
		<tag k="natural" v="bay" />
		<tag k="ssr:stedsnr" v="949396" />
	</node>
	<node id="-723702" lat="63.6198000042" lon="9.63998889335">
		<tag k="name" v="Heggaelva" />
		<tag k="ssr:stedsnr" v="949241" />
		<tag k="waterway" v="river" />
	</node>
	<node id="-721705" lat="63.3922305601" lon="9.73042499387">
		<tag k="name" v="Kringlåtbekken" />
		<tag k="ssr:stedsnr" v="691718" />
		<tag k="waterway" v="stream" />
	</node>
	<node id="-721652" lat="63.1804361087" lon="9.55365555322">
		<tag k="name" v="Litjklubben" />
		<tag k="natural" v="cape" />
		<tag k="ssr:stedsnr" v="514309" />
	</node>
	<node id="-723699" lat="63.6159944449" lon="9.5903111073">
		<tag k="name" v="Naustøra" />
		<tag k="natural" v="cape" />
		<tag k="ssr:stedsnr" v="949384" />
	</node>
	<node id="-721363" lat="62.9820055536" lon="9.72476944368">
		<tag k="name" v="Slera" />
		<tag k="ssr:stedsnr" v="453111" />
		<tag k="waterway" v="stream" />
	</node>
	<node id="-721648" lat="63.0976222189" lon="9.78044445228">
		<tag k="name" v="Boggo" />
		<tag k="ssr:stedsnr" v="514473" />
		<tag k="waterway" v="river" />
	</node>
	<node id="-722728" lat="63.5040416703" lon="9.79676388252">
		<tag k="name" v="Storelva" />
		<tag k="ssr:stedsnr" v="888196" />
		<tag k="waterway" v="river" />
	</node>
	<node id="-719595" lat="63.5305555529" lon="9.59969999453">
		<tag k="name" v="Kjerringbekken" />
		<tag k="ssr:stedsnr" v="99471" />
		<tag k="waterway" v="stream" />
	</node>
	<node id="-721642" lat="63.038763888" lon="9.59793888584">
		<tag k="name" v="Fjellbekken" />
		<tag k="ssr:stedsnr" v="514270" />
		<tag k="waterway" v="stream" />
	</node>
	<node id="-719593" lat="63.472424996" lon="9.65351388118">
		<tag k="name" v="Litl Raudlitjørna" />
		<tag k="natural" v="water" />
		<tag k="ssr:stedsnr" v="99454" />
	</node>
	<node id="-719590" lat="63.4901000007" lon="9.72575278408">
		<tag k="name" v="Graslitjørna" />
		<tag k="natural" v="water" />
		<tag k="ssr:stedsnr" v="99415" />
	</node>
	<node id="-723685" lat="63.5661527795" lon="9.67446112103">
		<tag k="name" v="Damslættjørna" />
		<tag k="natural" v="water" />
		<tag k="ssr:stedsnr" v="948681" />
	</node>
	<node id="-719588" lat="63.4777166654" lon="9.79328888477">
		<tag k="name" v="Slættbekken" />
		<tag k="ssr:stedsnr" v="99406" />
		<tag k="waterway" v="stream" />
	</node>
	<node id="-724126" lat="63.2509416677" lon="9.84924999703">
		<tag k="name" v="Stamphusfossen" />
		<tag k="natural" v="waterfall" />
		<tag k="ssr:stedsnr" v="33351" />
	</node>
	<node id="-719582" lat="63.429483335" lon="9.86695554687">
		<tag k="name" v="Seterbekken" />
		<tag k="ssr:stedsnr" v="99172" />
		<tag k="waterway" v="stream" />
	</node>
	<node id="-719580" lat="63.5568472196" lon="9.75470833998">
		<tag k="name" v="Nilsstubekken" />
		<tag k="ssr:stedsnr" v="99153" />
		<tag k="waterway" v="stream" />
	</node>
	<node id="-719579" lat="63.4843277775" lon="9.69109999508">
		<tag k="name" v="Nausttjørna" />
		<tag k="natural" v="water" />
		<tag k="ssr:stedsnr" v="99118" />
	</node>
	<node id="-719577" lat="63.492877782" lon="9.62439165703">
		<tag k="name" v="Gryta" />
		<tag k="natural" v="water" />
		<tag k="ssr:stedsnr" v="99108" />
	</node>
	<node id="-719576" lat="63.4946138902" lon="9.61525000127">
		<tag k="name" v="Langvassbekken" />
		<tag k="ssr:stedsnr" v="99106" />
		<tag k="waterway" v="stream" />
	</node>
	<node id="-719574" lat="63.438372219" lon="9.56414721807">
		<tag k="alt_name" v="Gjøafjelltjørnane" />
		<tag k="name" v="Gjøafjelltjørnan" />
		<tag k="natural" v="water" />
		<tag k="ssr:stedsnr" v="255824" />
	</node>
	<node id="-721017" lat="62.9044305572" lon="9.59044443751">
		<tag k="name" v="Langvatnet" />
		<tag k="natural" v="water" />
		<tag k="ssr:stedsnr" v="498296" />
	</node>
	<node id="-719572" lat="63.4352027735" lon="9.48133333542">
		<tag k="fixme" v="multiple name tags, choose one and add the other to alt_name" />
		<tag k="name" v="Slørdalsvatnet;Storvatnet" />
		<tag k="natural" v="water" />
		<tag k="ssr:stedsnr" v="255822" />
		<tag k="water" v="lake" />
	</node>
	<node id="-721618" lat="62.9928499983" lon="9.71036666516">
		<tag k="name" v="Vargdalsbekken" />
		<tag k="ssr:stedsnr" v="514105" />
		<tag k="waterway" v="stream" />
	</node>
	<node id="-722723" lat="63.6018499978" lon="9.70547499253">
		<tag k="name" v="Smådalsbekken" />
		<tag k="ssr:stedsnr" v="888164" />
		<tag k="waterway" v="stream" />
	</node>
	<node id="-723664" lat="63.324502778" lon="9.56644444975">
		<tag k="name" v="Båtvika" />
		<tag k="natural" v="bay" />
		<tag k="ssr:stedsnr" v="945979" />
	</node>
	<node id="-723663" lat="63.2766309469" lon="9.70164382272">
		<tag k="name" v="Tjønnlitjønna" />
		<tag k="natural" v="water" />
		<tag k="ssr:stedsnr" v="945975" />
	</node>
	<node id="-723661" lat="63.2760472214" lon="9.59551945195">
		<tag k="name" v="Skotthaugbekken" />
		<tag k="ssr:stedsnr" v="945963" />
		<tag k="waterway" v="stream" />
	</node>
	<node id="-719561" lat="63.0106444411" lon="9.96646944598">
		<tag k="name" v="Raudåstjønna" />
		<tag k="natural" v="water" />
		<tag k="ssr:stedsnr" v="255689" />
	</node>
	<node id="-721608" lat="63.367530555" lon="9.64685556472">
		<tag k="name" v="Klokkarbekken" />
		<tag k="ssr:stedsnr" v="681132" />
		<tag k="waterway" v="stream" />
	</node>
	<node id="-721607" lat="63.3944972207" lon="9.38430834138">
		<tag k="name" v="Storvatnet" />
		<tag k="natural" v="water" />
		<tag k="ssr:stedsnr" v="498878" />
	</node>
	<node id="-720175" lat="63.384438886" lon="9.80559444046">
		<tag k="name" v="Tuvtjønna" />
		<tag k="natural" v="water" />
		<tag k="ssr:stedsnr" v="216331" />
	</node>
	<node id="-724125" lat="63.2482999975" lon="9.85141111302">
		<tag k="name" v="Kvernbekken" />
		<tag k="ssr:stedsnr" v="33350" />
		<tag k="waterway" v="stream" />
	</node>
	<node id="-719555" lat="63.5040805564" lon="9.82269721986">
		<tag k="name" v="Sandabekken" />
		<tag k="ssr:stedsnr" v="98006" />
		<tag k="waterway" v="stream" />
	</node>
	<node id="-724427" lat="63.0553555555" lon="9.64949444251">
		<tag k="name" v="Kjerringøya" />
		<tag k="natural" v="cape" />
		<tag k="ssr:stedsnr" v="89169" />
	</node>
	<node id="-719552" lat="63.2284555581" lon="9.51884444475">
		<tag k="name" v="Sæterbekken" />
		<tag k="ssr:stedsnr" v="255588" />
		<tag k="waterway" v="stream" />
	</node>
	<node id="-719551" lat="63.2216138898" lon="9.41156945312">
		<tag k="name" v="Langneset" />
		<tag k="natural" v="cape" />
		<tag k="ssr:stedsnr" v="255581" />
	</node>
	<node id="-721597" lat="63.0562249975" lon="9.44292500704">
		<tag k="name" v="Stabbvatnet" />
		<tag k="natural" v="water" />
		<tag k="ssr:stedsnr" v="498472" />
	</node>
	<node id="-721594" lat="63.3955749971" lon="9.86324443457">
		<tag k="name" v="Langengelva" />
		<tag k="ssr:stedsnr" v="498457" />
		<tag k="waterway" v="river" />
	</node>
	<node id="-719545" lat="63.2324916638" lon="9.58892777504">
		<tag k="name" v="Svorka" />
		<tag k="ssr:stedsnr" v="255461" />
		<tag k="waterway" v="stream" />
	</node>
	<node id="-723638" lat="63.2733277814" lon="9.66101110443">
		<tag k="name" v="Raudneset" />
		<tag k="natural" v="cape" />
		<tag k="ssr:stedsnr" v="945768" />
	</node>
	<node id="-721533" lat="63.0778222179" lon="9.82737223161">
		<tag k="name" v="Raudåtjønna" />
		<tag k="natural" v="water" />
		<tag k="ssr:stedsnr" v="680581" />
	</node>
	<node id="-719537" lat="63.079688888" lon="9.70800555401">
		<tag k="name" v="Olskjeldsdalsbekken" />
		<tag k="ssr:stedsnr" v="255381" />
		<tag k="waterway" v="stream" />
	</node>
	<node id="-723632" lat="63.2520333339" lon="9.67808610542">
		<tag k="name" v="Høydalsbekken" />
		<tag k="ssr:stedsnr" v="945740" />
		<tag k="waterway" v="stream" />
	</node>
	<node id="-719534" lat="63.2834999979" lon="9.82005555998">
		<tag k="name" v="Trettøya" />
		<tag k="natural" v="cape" />
		<tag k="ssr:stedsnr" v="255365" />
	</node>
	<node id="-719533" lat="63.1092055587" lon="9.55914167594">
		<tag k="name" v="Spjøtåa" />
		<tag k="ssr:stedsnr" v="255436" />
		<tag k="waterway" v="stream" />
	</node>
	<node id="-721580" lat="63.4243388897" lon="9.51326666846">
		<tag k="name" v="Glashylltjørna" />
		<tag k="natural" v="water" />
		<tag k="ssr:stedsnr" v="680830" />
	</node>
	<node id="-723627" lat="63.1999333297" lon="9.55002777399">
		<tag k="name" v="Storbekken" />
		<tag k="ssr:stedsnr" v="945694" />
		<tag k="waterway" v="stream" />
	</node>
	<node id="-719530" lat="63.0220222196" lon="9.63350277404">
		<tag k="name" v="Rånnåmelbekken" />
		<tag k="ssr:stedsnr" v="255336" />
		<tag k="waterway" v="stream" />
	</node>
	<node id="-721577" lat="63.3316055583" lon="9.76974444724">
		<tag k="name" v="Lomtjønna" />
		<tag k="natural" v="water" />
		<tag k="ssr:stedsnr" v="498327" />
	</node>
	<node id="-721573" lat="62.9981666697" lon="9.84769999697">
		<tag k="name" v="Føssjøen" />
		<tag k="natural" v="water" />
		<tag k="ssr:stedsnr" v="680803" />
		<tag k="water" v="lake" />
	</node>
	<node id="-719524" lat="63.2236166699" lon="9.66442499402">
		<tag k="name" v="Gryttjønna" />
		<tag k="natural" v="water" />
		<tag k="ssr:stedsnr" v="95864" />
	</node>
	<node id="-719523" lat="63.2158666697" lon="9.64927777798">
		<tag k="name" v="Fagersanden" />
		<tag k="natural" v="beach" />
		<tag k="ssr:stedsnr" v="95857" />
	</node>
	<node id="-723739" lat="63.3507416704" lon="9.42305554787">
		<tag k="name" v="Fossli- bekken" />
		<tag k="ssr:stedsnr" v="883478" />
		<tag k="waterway" v="stream" />
	</node>
	<node id="-719517" lat="62.9216055516" lon="9.59803612041">
		<tag k="name" v="Bjogntjønnin" />
		<tag k="natural" v="water" />
		<tag k="ssr:stedsnr" v="255243" />
	</node>
	<node id="-719513" lat="63.2693361088" lon="9.6673833249">
		<tag k="name" v="Naustnebben" />
		<tag k="place" v="islet" />
		<tag k="ssr:stedsnr" v="95759" />
	</node>
	<node id="-720324" lat="63.604427774" lon="9.72973332776">
		<tag k="alt_name" v="Skreatjørna" />
		<tag k="name" v="Skretjørna" />
		<tag k="natural" v="water" />
		<tag k="ssr:stedsnr" v="255972" />
	</node>
	<node id="-723606" lat="63.3946472203" lon="9.32921111547">
		<tag k="name" v="Granholtjørna" />
		<tag k="natural" v="water" />
		<tag k="ssr:stedsnr" v="944926" />
	</node>
	<node id="-719509" lat="62.9369472192" lon="9.56505555746">
		<tag k="name" v="Gravurtjønna" />
		<tag k="natural" v="water" />
		<tag k="ssr:stedsnr" v="255229" />
	</node>
	<node id="-721556" lat="63.2669777768" lon="9.88452777243">
		<tag k="alt_name" v="Håmanntjønna" />
		<tag k="name" v="Håmånntjønna" />
		<tag k="natural" v="water" />
		<tag k="ssr:stedsnr" v="680787" />
	</node>
	<node id="-724078" lat="63.1207861139" lon="9.84679167412">
		<tag k="name" v="Litjsautjønna" />
		<tag k="natural" v="water" />
		<tag k="ssr:stedsnr" v="29730" />
	</node>
	<node id="-723602" lat="63.4402361085" lon="9.48487777496">
		<tag k="name" v="Storvassbukta" />
		<tag k="natural" v="bay" />
		<tag k="ssr:stedsnr" v="944791" />
	</node>
	<node id="-723601" lat="63.4250138861" lon="9.50495276803">
		<tag k="name" v="Aurenessbekken" />
		<tag k="ssr:stedsnr" v="944789" />
		<tag k="waterway" v="stream" />
	</node>
	<node id="-721552" lat="63.2271500009" lon="9.36389445405">
		<tag k="name" v="Kuøra" />
		<tag k="natural" v="cape" />
		<tag k="ssr:stedsnr" v="680636" />
	</node>
	<node id="-719503" lat="63.2031361117" lon="9.86635277606">
		<tag k="name" v="Gjøta" />
		<tag k="ssr:stedsnr" v="255196" />
		<tag k="waterway" v="stream" />
	</node>
	<node id="-721550" lat="63.2169499984" lon="9.70427777277">
		<tag k="name" v="Skjettvatnet" />
		<tag k="natural" v="water" />
		<tag k="ssr:stedsnr" v="680617" />
	</node>
	<node id="-721005" lat="63.3220694441" lon="9.58978055902">
		<tag k="name" v="Bjørnholtjønna" />
		<tag k="natural" v="water" />
		<tag k="ssr:stedsnr" v="498208" />
	</node>
	<node id="-721545" lat="63.1382777778" lon="9.59927777145">
		<tag k="name" v="Segla" />
		<tag k="ssr:stedsnr" v="680597" />
		<tag k="waterway" v="stream" />
	</node>
	<node id="-719496" lat="63.1111611109" lon="9.78578887909">
		<tag k="name" v="Lykkjtjønna" />
		<tag k="natural" v="water" />
		<tag k="ssr:stedsnr" v="255037" />
	</node>
	<node id="-719493" lat="63.0437916653" lon="9.9352138809">
		<tag k="name" v="Langvatnet" />
		<tag k="natural" v="water" />
		<tag k="ssr:stedsnr" v="254564" />
	</node>
	<node id="-723588" lat="63.433347224" lon="9.91862777515">
		<tag k="name" v="Kvernhusfossen" />
		<tag k="natural" v="waterfall" />
		<tag k="ssr:stedsnr" v="944692" />
	</node>
	<node id="-721605" lat="63.3851500031" lon="9.50714443805">
		<tag k="name" v="Aunelva" />
		<tag k="ssr:stedsnr" v="498861" />
		<tag k="waterway" v="stream" />
	</node>
	<node id="-721537" lat="63.1159444418" lon="9.52420556421">
		<tag k="name" v="Råbekken" />
		<tag k="ssr:stedsnr" v="680487" />
		<tag k="waterway" v="stream" />
	</node>
	<node id="-721535" lat="63.1739027809" lon="9.5830499958">
		<tag k="name" v="Stokkvassbekken" />
		<tag k="ssr:stedsnr" v="680587" />
		<tag k="waterway" v="stream" />
	</node>
	<node id="-721534" lat="63.5666277767" lon="9.7410666591">
		<tag k="name" v="Åremsvatnet" />
		<tag k="natural" v="water" />
		<tag k="ssr:stedsnr" v="680583" />
	</node>
	<node id="-722709" lat="63.4935611072" lon="9.59501389118">
		<tag k="name" v="Storslættbekken" />
		<tag k="ssr:stedsnr" v="888082" />
		<tag k="waterway" v="stream" />
	</node>
	<node id="-719483" lat="62.9930999975" lon="9.73862776808">
		<tag k="name" v="Damøya" />
		<tag k="place" v="island" />
		<tag k="ssr:stedsnr" v="89125" />
	</node>
	<node id="-721529" lat="63.3953249972" lon="9.77543056412">
		<tag k="name" v="Håvardsdalstjørna" />
		<tag k="natural" v="water" />
		<tag k="ssr:stedsnr" v="680436" />
	</node>
	<node id="-721528" lat="63.0692178433" lon="9.68684953313">
		<tag k="name" v="Lomtjønna" />
		<tag k="natural" v="water" />
		<tag k="ssr:stedsnr" v="680434" />
	</node>
	<node id="-721524" lat="63.3794064314" lon="9.73524710086">
		<tag k="alt_name" v="Kattuglbekken;Kringslothaugbekken" />
		<tag k="name" v="Kringlothaugbekken" />
		<tag k="ssr:stedsnr" v="680420" />
		<tag k="waterway" v="stream" />
	</node>
	<node id="-723571" lat="63.3880472185" lon="9.81082500606">
		<tag k="name" v="Skomakertjønna" />
		<tag k="natural" v="water" />
		<tag k="ssr:stedsnr" v="944407" />
	</node>
	<node id="-723569" lat="63.1735194422" lon="9.89402221543">
		<tag k="name" v="Lykkjbekken" />
		<tag k="ssr:stedsnr" v="944402" />
		<tag k="waterway" v="stream" />
	</node>
	<node id="-721520" lat="63.1141777796" lon="9.63181943738">
		<tag k="name" v="Damlivatnet" />
		<tag k="natural" v="water" />
		<tag k="ssr:stedsnr" v="680481" />
	</node>
	<node id="-723567" lat="63.4051166686" lon="9.72176666118">
		<tag k="name" v="Hyllbergtjønnin" />
		<tag k="natural" v="water" />
		<tag k="ssr:stedsnr" v="944400" />
	</node>
	<node id="-719470" lat="63.3712416654" lon="9.72788888834">
		<tag k="alt_name" v="Kringla" />
		<tag k="name" v="Blanka" />
		<tag k="natural" v="water" />
		<tag k="ssr:stedsnr" v="74407" />
	</node>
	<node id="-719468" lat="63.4624555561" lon="9.53525277404">
		<tag k="alt_name" v="Remmabekken" />
		<tag k="name" v="Remmadalsbekken" />
		<tag k="ssr:stedsnr" v="73962" />
		<tag k="waterway" v="stream" />
	</node>
	<node id="-721513" lat="63.3016222195" lon="9.55099723212">
		<tag k="alt_name" v="Våda, indre;Inner Våddåa" />
		<tag k="name" v="Indre Våda" />
		<tag k="ssr:stedsnr" v="680236" />
		<tag k="waterway" v="stream" />
	</node>
	<node id="-719463" lat="63.006624998" lon="9.86775278089">
		<tag k="name" v="Gammelslåttjønnan" />
		<tag k="natural" v="water" />
		<tag k="ssr:stedsnr" v="73658" />
	</node>
	<node id="-719462" lat="63.0070444432" lon="9.73166110791">
		<tag k="name" v="Tørbersøya" />
		<tag k="place" v="islet" />
		<tag k="ssr:stedsnr" v="73653" />
	</node>
	<node id="-719633" lat="63.375566664" lon="9.55227499882">
		<tag k="name" v="Storfjelltjørna" />
		<tag k="natural" v="water" />
		<tag k="ssr:stedsnr" v="256774" />
	</node>
	<node id="-721508" lat="63.238625003" lon="9.89112499719">
		<tag k="name" v="Kjeløybekken" />
		<tag k="ssr:stedsnr" v="680281" />
		<tag k="waterway" v="stream" />
	</node>
	<node id="-720998" lat="63.3302694488" lon="9.63813333362">
		<tag k="alt_name" v="Sandåa" />
		<tag k="name" v="Sagelva" />
		<tag k="ssr:stedsnr" v="498182" />
		<tag k="waterway" v="stream" />
	</node>
	<node id="-721505" lat="63.5523757353" lon="9.68568106967">
		<tag k="name" v="Prekstollitjørna" />
		<tag k="natural" v="water" />
		<tag k="ssr:stedsnr" v="680144" />
	</node>
	<node id="-719455" lat="63.077263891" lon="9.75943055058">
		<tag k="name" v="Vollabekken" />
		<tag k="ssr:stedsnr" v="73530" />
		<tag k="waterway" v="stream" />
	</node>
	<node id="-719454" lat="63.1699944401" lon="9.6422888892">
		<tag k="name" v="Ela" />
		<tag k="ssr:stedsnr" v="73529" />
		<tag k="waterway" v="stream" />
	</node>
	<node id="-723549" lat="63.4867861142" lon="9.35186666592">
		<tag k="name" v="Langhaugbekken" />
		<tag k="ssr:stedsnr" v="944248" />
		<tag k="waterway" v="stream" />
	</node>
	<node id="-721500" lat="63.5146249987" lon="9.43767221276">
		<tag k="name" v="Norddalsvatnet" />
		<tag k="natural" v="water" />
		<tag k="ssr:stedsnr" v="680177" />
	</node>
	<node id="-721499" lat="63.5126388854" lon="9.58036389835">
		<tag k="name" v="Espevatnet" />
		<tag k="natural" v="water" />
		<tag k="ssr:stedsnr" v="680176" />
	</node>
	<node id="-719450" lat="63.2761972181" lon="9.5561555469">
		<tag k="name" v="Kvernbekken" />
		<tag k="ssr:stedsnr" v="73238" />
		<tag k="waterway" v="stream" />
	</node>
	<node id="-721495" lat="63.4653944444" lon="9.51466388447">
		<tag k="name" v="Skardtjørna" />
		<tag k="natural" v="water" />
		<tag k="ssr:stedsnr" v="679950" />
	</node>
	<node id="-723541" lat="63.3066055576" lon="9.7652083394">
		<tag k="name" v="Bakbubekken" />
		<tag k="ssr:stedsnr" v="944217" />
		<tag k="waterway" v="stream" />
	</node>
	<node id="-719444" lat="63.2171444447" lon="9.87602499481">
		<tag k="name" v="Lomtjønna" />
		<tag k="natural" v="water" />
		<tag k="ssr:stedsnr" v="73215" />
	</node>
	<node id="-721490" lat="63.4691916658" lon="9.3754777871">
		<tag k="alt_name" v="Gråknubbtjørna" />
		<tag k="name" v="Gråknubbvatnet" />
		<tag k="natural" v="water" />
		<tag k="ssr:stedsnr" v="679981" />
	</node>
	<node id="-719440" lat="62.9713972185" lon="9.60134166435">
		<tag k="name" v="Ela" />
		<tag k="ssr:stedsnr" v="73142" />
		<tag k="waterway" v="river" />
	</node>
	<node id="-721484" lat="63.0945999986" lon="9.84038332624">
		<tag k="name" v="Buvatnet" />
		<tag k="natural" v="water" />
		<tag k="ssr:stedsnr" v="679497" />
	</node>
	<node id="-721483" lat="63.4448555528" lon="9.61110832952">
		<tag k="name" v="Langtjørna" />
		<tag k="natural" v="water" />
		<tag k="ssr:stedsnr" v="679779" />
	</node>
	<node id="-723530" lat="63.3650888929" lon="9.79589444972">
		<tag k="name" v="Litltjønna" />
		<tag k="natural" v="water" />
		<tag k="ssr:stedsnr" v="944150" />
	</node>
	<node id="-720909" lat="63.459744448" lon="9.35159721405">
		<tag k="name" v="Stålbekken" />
		<tag k="ssr:stedsnr" v="336275" />
		<tag k="waterway" v="stream" />
	</node>
	<node id="-721473" lat="62.9627972247" lon="9.52272778266">
		<tag k="name" v="Resvatnet" />
		<tag k="natural" v="water" />
		<tag k="ssr:stedsnr" v="679139" />
		<tag k="water" v="lake" />
	</node>
	<node id="-723518" lat="63.249152777" lon="9.74002221469">
		<tag k="name" v="Skålholtbekken" />
		<tag k="ssr:stedsnr" v="944061" />
		<tag k="waterway" v="stream" />
	</node>
	<node id="-721674" lat="63.0744027756" lon="9.90339999578">
		<tag k="name" v="Klipråa" />
		<tag k="ssr:stedsnr" v="514709" />
		<tag k="waterway" v="stream" />
	</node>
	<node id="-723514" lat="63.2624361135" lon="9.77768610321">
		<tag k="name" v="Gilbekken" />
		<tag k="ssr:stedsnr" v="944045" />
		<tag k="waterway" v="stream" />
	</node>
	<node id="-719415" lat="63.4590972203" lon="9.90076666488">
		<tag k="name" v="Ingdalsfossen" />
		<tag k="natural" v="waterfall" />
		<tag k="ssr:stedsnr" v="237590" />
	</node>
	<node id="-723506" lat="63.4821833337" lon="9.38706667288">
		<tag k="name" v="Vass - stranda" />
		<tag k="natural" v="beach" />
		<tag k="ssr:stedsnr" v="943626" />
	</node>
	<node id="-719409" lat="63.3114861111" lon="9.84660000734">
		<tag k="name" v="Gammelosen" />
		<tag k="natural" v="water" />
		<tag k="ssr:stedsnr" v="40413" />
	</node>
	<node id="-723503" lat="63.3859277748" lon="9.42235555386">
		<tag k="name" v="Nessabekken" />
		<tag k="ssr:stedsnr" v="943470" />
		<tag k="waterway" v="stream" />
	</node>
	<node id="-721453" lat="63.5572888878" lon="9.58554999202">
		<tag k="name" v="Fjordabekken" />
		<tag k="ssr:stedsnr" v="463472" />
		<tag k="waterway" v="stream" />
	</node>
	<node id="-719402" lat="63.437122222" lon="9.6757833322">
		<tag k="name" v="Svarttjørnbekken" />
		<tag k="ssr:stedsnr" v="38954" />
		<tag k="waterway" v="stream" />
	</node>
	<node id="-721449" lat="63.5996972264" lon="9.62992778438">
		<tag k="name" v="Bukkholet" />
		<tag k="natural" v="bay" />
		<tag k="ssr:stedsnr" v="463268" />
	</node>
	<node id="-719399" lat="63.4479833292" lon="9.79387777347">
		<tag k="name" v="Grønlitjørna" />
		<tag k="natural" v="water" />
		<tag k="ssr:stedsnr" v="38920" />
	</node>
	<node id="-721345" lat="63.4162527818" lon="9.70836110179">
		<tag k="name" v="Granlitjørna" />
		<tag k="natural" v="water" />
		<tag k="ssr:stedsnr" v="437760" />
	</node>
	<node id="-719393" lat="63.568366671" lon="9.57981110639">
		<tag k="name" v="Lauvnesbekken" />
		<tag k="ssr:stedsnr" v="38510" />
		<tag k="waterway" v="stream" />
	</node>
	<node id="-721439" lat="63.6336138894" lon="9.71628610171">
		<tag k="name" v="Ormtjørna" />
		<tag k="natural" v="water" />
		<tag k="ssr:stedsnr" v="463303" />
	</node>
	<node id="-719390" lat="63.4770527766" lon="9.82208887991">
		<tag k="name" v="Litlbekken" />
		<tag k="ssr:stedsnr" v="38255" />
		<tag k="waterway" v="stream" />
	</node>
	<node id="-719386" lat="63.1992472226" lon="9.36681389278">
		<tag k="name" v="Kvennbekken" />
		<tag k="ssr:stedsnr" v="38051" />
		<tag k="waterway" v="stream" />
	</node>
	<node id="-719385" lat="63.5514888921" lon="9.75700278017">
		<tag k="name" v="Oppigardbekken" />
		<tag k="ssr:stedsnr" v="38362" />
		<tag k="waterway" v="stream" />
	</node>
	<node id="-723478" lat="63.5071527817" lon="9.4734888853">
		<tag k="name" v="Korsvasslitjørna" />
		<tag k="natural" v="water" />
		<tag k="ssr:stedsnr" v="943039" />
	</node>
	<node id="-723477" lat="63.4553805567" lon="9.44295278304">
		<tag k="name" v="Aundalsbekken" />
		<tag k="ssr:stedsnr" v="943002" />
		<tag k="waterway" v="stream" />
	</node>
	<node id="-719380" lat="63.5648833289" lon="9.75485000187">
		<tag k="name" v="Skardbekken" />
		<tag k="ssr:stedsnr" v="38155" />
		<tag k="waterway" v="stream" />
	</node>
	<node id="-724398" lat="63.3740472199" lon="9.59324444312">
		<tag k="name" v="Djupdalstjørna" />
		<tag k="natural" v="water" />
		<tag k="ssr:stedsnr" v="74796" />
	</node>
	<node id="-719377" lat="63.4936750044" lon="9.62475556567">
		<tag k="name" v="Grytøya" />
		<tag k="place" v="island" />
		<tag k="ssr:stedsnr" v="38101" />
	</node>
	<node id="-723472" lat="63.1412833367" lon="9.88616111806">
		<tag k="name" v="Orvika" />
		<tag k="natural" v="bay" />
		<tag k="ssr:stedsnr" v="939733" />
	</node>
	<node id="-720984" lat="63.1082027758" lon="9.85030833258">
		<tag k="name" v="Bergtjønna" />
		<tag k="natural" v="water" />
		<tag k="ssr:stedsnr" v="498034" />
	</node>
	<node id="-723469" lat="63.060883331" lon="9.91146389837">
		<tag k="name" v="Lomtjønna" />
		<tag k="natural" v="water" />
		<tag k="ssr:stedsnr" v="939715" />
	</node>
	<node id="-721419" lat="63.0708166704" lon="9.6997166687">
		<tag k="name" v="Bukkbubekken" />
		<tag k="ssr:stedsnr" v="665333" />
		<tag k="waterway" v="stream" />
	</node>
	<node id="-724662" lat="63.409094448" lon="9.94564721617">
		<tag k="name" v="Halsbekken" />
		<tag k="ssr:stedsnr" v="94688" />
		<tag k="waterway" v="stream" />
	</node>
	<node id="-723463" lat="63.0479499964" lon="9.90727777785">
		<tag k="name" v="Litjortjønna" />
		<tag k="natural" v="water" />
		<tag k="ssr:stedsnr" v="939691" />
	</node>
	<node id="-721686" lat="63.4689638857" lon="9.89111944212">
		<tag k="name" v="Aunbekken" />
		<tag k="ssr:stedsnr" v="524108" />
		<tag k="waterway" v="stream" />
	</node>
	<node id="-723458" lat="62.9967111113" lon="9.83726666434">
		<tag k="name" v="Føssjødammen" />
		<tag k="ssr:stedsnr" v="939658" />
		<tag k="waterway" v="dam" />
	</node>
	<node id="-721322" lat="63.3048999963" lon="9.78668334297">
		<tag k="name" v="Grindabekken" />
		<tag k="ssr:stedsnr" v="519208" />
		<tag k="waterway" v="stream" />
	</node>
	<node id="-723448" lat="63.0024305592" lon="9.72671667626">
		<tag k="name" v="Undteighølen" />
		<tag k="place" v="locality" />
		<tag k="ssr:stedsnr" v="939442" />
	</node>
	<node id="-723445" lat="63.0301444418" lon="9.5045055652">
		<tag k="name" v="Stangabokbekken" />
		<tag k="ssr:stedsnr" v="939432" />
		<tag k="waterway" v="stream" />
	</node>
	<node id="-721396" lat="63.0766601025" lon="9.94670539244">
		<tag k="name" v="Middagstjønna" />
		<tag k="natural" v="water" />
		<tag k="ssr:stedsnr" v="454815" />
	</node>
	<node id="-719347" lat="63.0710361074" lon="9.69883055634">
		<tag k="name" v="Koltjønna" />
		<tag k="natural" v="water" />
		<tag k="ssr:stedsnr" v="29575" />
	</node>
	<node id="-723436" lat="63.1514444419" lon="9.46120554891">
		<tag k="name" v="Holbekken" />
		<tag k="ssr:stedsnr" v="939360" />
		<tag k="waterway" v="stream" />
	</node>
	<node id="-719345" lat="63.080108331" lon="9.68097223207">
		<tag k="name" v="Sæteråsen" />
		<tag k="natural" v="water" />
		<tag k="ssr:stedsnr" v="29561" />
	</node>
	<node id="-723440" lat="62.9703472205" lon="9.98308056279">
		<tag k="name" v="Ljøsåa" />
		<tag k="ssr:stedsnr" v="939392" />
		<tag k="waterway" v="stream" />
	</node>
	<node id="-721320" lat="63.3234611082" lon="9.7747555645">
		<tag k="name" v="Skorvtjønnbekken" />
		<tag k="ssr:stedsnr" v="519183" />
		<tag k="waterway" v="stream" />
	</node>
	<node id="-723438" lat="63.1711388855" lon="9.4681027804">
		<tag k="name" v="Kvernbekken" />
		<tag k="ssr:stedsnr" v="939378" />
		<tag k="waterway" v="stream" />
	</node>
	<node id="-723437" lat="63.0127999972" lon="9.90594722934">
		<tag k="name" v="Aurevatnet" />
		<tag k="natural" v="water" />
		<tag k="ssr:stedsnr" v="939374" />
		<tag k="water" v="lake" />
	</node>
	<node id="-721388" lat="63.1485249969" lon="9.5658277797">
		<tag k="name" v="Øvre Pungtjønna" />
		<tag k="natural" v="water" />
		<tag k="ssr:stedsnr" v="454008" />
	</node>
	<node id="-720978" lat="63.4814749959" lon="9.6210444358">
		<tag k="alt_name" v="Bjugna" />
		<tag k="name" v="Bjugn" />
		<tag k="natural" v="bay" />
		<tag k="ssr:stedsnr" v="497992" />
	</node>
	<node id="-722076" lat="63.4629944456" lon="9.70418610393">
		<tag k="name" v="Seterdalsholmen" />
		<tag k="place" v="islet" />
		<tag k="ssr:stedsnr" v="706385" />
	</node>
	<node id="-723433" lat="63.0171777803" lon="9.93723334071">
		<tag k="name" v="Lomtjønna" />
		<tag k="natural" v="water" />
		<tag k="ssr:stedsnr" v="939339" />
	</node>
	<node id="-721380" lat="63.0618000002" lon="9.76453887962">
		<tag k="name" v="Rogntjønna" />
		<tag k="natural" v="water" />
		<tag k="ssr:stedsnr" v="453522" />
	</node>
	<node id="-721378" lat="63.0780611104" lon="9.82713334224">
		<tag k="name" v="Rosstjønna" />
		<tag k="natural" v="water" />
		<tag k="ssr:stedsnr" v="453510" />
	</node>
	<node id="-723422" lat="63.1129000041" lon="9.79300834289">
		<tag k="name" v="Rønningstjønna" />
		<tag k="natural" v="water" />
		<tag k="ssr:stedsnr" v="939303" />
	</node>
	<node id="-721373" lat="63.1302222191" lon="9.79084722762">
		<tag k="name" v="Litjsjursåstjønna" />
		<tag k="natural" v="water" />
		<tag k="ssr:stedsnr" v="453302" />
	</node>
	<node id="-721372" lat="63.0161361086" lon="9.689719435">
		<tag k="name" v="Homyrtjønna" />
		<tag k="natural" v="water" />
		<tag k="ssr:stedsnr" v="453237" />
	</node>
	<node id="-719323" lat="63.3857444479" lon="9.83523888868">
		<tag k="name" v="Langtjønna" />
		<tag k="natural" v="water" />
		<tag k="ssr:stedsnr" v="13415" />
	</node>
	<node id="-719321" lat="63.3552805532" lon="9.57125277242">
		<tag k="name" v="Kvernbekken" />
		<tag k="ssr:stedsnr" v="13139" />
		<tag k="waterway" v="stream" />
	</node>
	<node id="-724168" lat="63.3921472204" lon="9.29411112001">
		<tag k="name" v="Indreslibekken" />
		<tag k="ssr:stedsnr" v="33931" />
		<tag k="waterway" v="stream" />
	</node>
	<node id="-723415" lat="63.1270777797" lon="9.76745556337">
		<tag k="name" v="Raudbekken" />
		<tag k="ssr:stedsnr" v="939269" />
		<tag k="waterway" v="stream" />
	</node>
	<node id="-723413" lat="62.9663333357" lon="9.59775834056">
		<tag k="name" v="Sæterbekken" />
		<tag k="ssr:stedsnr" v="939261" />
		<tag k="waterway" v="stream" />
	</node>
	<node id="-723412" lat="62.9652277787" lon="9.61162222459">
		<tag k="name" v="Litlslættbekken" />
		<tag k="ssr:stedsnr" v="939257" />
		<tag k="waterway" v="stream" />
	</node>
	<node id="-723411" lat="62.9539249977" lon="9.62573055313">
		<tag k="name" v="Dammen" />
		<tag k="place" v="locality" />
		<tag k="ssr:stedsnr" v="939255" />
	</node>
	<node id="-721315" lat="63.4046444441" lon="9.53776388453">
		<tag k="name" v="Selfossen" />
		<tag k="natural" v="waterfall" />
		<tag k="ssr:stedsnr" v="519148" />
	</node>
	<node id="-719311" lat="63.3453750016" lon="9.79836111839">
		<tag k="name" v="Gorvatnet" />
		<tag k="natural" v="water" />
		<tag k="ssr:stedsnr" v="13522" />
	</node>
	<node id="-723405" lat="63.0342055531" lon="9.67520278526">
		<tag k="name" v="Liamyrbekken" />
		<tag k="ssr:stedsnr" v="939218" />
		<tag k="waterway" v="stream" />
	</node>
	<node id="-719307" lat="63.4023944469" lon="9.36775833734">
		<tag k="alt_name" v="Storfjelltjørnen" />
		<tag k="name" v="Storfjelltjørna" />
		<tag k="natural" v="water" />
		<tag k="ssr:stedsnr" v="12845" />
	</node>
	<node id="-724594" lat="63.2511777744" lon="9.80095555252">
		<tag k="name" v="Mobekken" />
		<tag k="ssr:stedsnr" v="94143" />
		<tag k="waterway" v="stream" />
	</node>
	<node id="-721353" lat="63.3558305593" lon="9.43874721735">
		<tag k="name" v="Vollbekken" />
		<tag k="ssr:stedsnr" v="519400" />
		<tag k="waterway" v="stream" />
	</node>
	<node id="-721352" lat="63.3390972198" lon="9.43735277509">
		<tag k="name" v="Jutulsbekken" />
		<tag k="ssr:stedsnr" v="519398" />
		<tag k="waterway" v="stream" />
	</node>
	<node id="-719303" lat="63.0632999962" lon="9.75608334029">
		<tag k="name" v="Vollabekktjønna" />
		<tag k="natural" v="water" />
		<tag k="ssr:stedsnr" v="12618" />
	</node>
	<node id="-719301" lat="63.0574916689" lon="9.78974167489">
		<tag k="name" v="Fjelltjønna" />
		<tag k="natural" v="water" />
		<tag k="ssr:stedsnr" v="12609" />
	</node>
	<node id="-723396" lat="63.1379111125" lon="9.87271388418">
		<tag k="name" v="Åmundsvika" />
		<tag k="natural" v="bay" />
		<tag k="ssr:stedsnr" v="939558" />
	</node>
	<node id="-722678" lat="63.2211972182" lon="9.52090277926">
		<tag k="name" v="Ytter Svartbekken" />
		<tag k="ssr:stedsnr" v="884675" />
		<tag k="waterway" v="stream" />
	</node>
	<node id="-719298" lat="63.060433331" lon="9.91240555123">
		<tag k="name" v="Lomtjønna" />
		<tag k="natural" v="water" />
		<tag k="ssr:stedsnr" v="12603" />
	</node>
	<node id="-723393" lat="63.0265277776" lon="9.92592499172">
		<tag k="name" v="Småvatna" />
		<tag k="natural" v="water" />
		<tag k="ssr:stedsnr" v="939536" />
		<tag k="water" v="lake" />
	</node>
	<node id="-723392" lat="63.0886166666" lon="9.81204999949">
		<tag k="name" v="Vestre Nertjønna" />
		<tag k="natural" v="water" />
		<tag k="ssr:stedsnr" v="939528" />
	</node>
	<node id="-721312" lat="63.249952775" lon="9.71218332813">
		<tag k="name" v="Gunnarbekken" />
		<tag k="ssr:stedsnr" v="519103" />
		<tag k="waterway" v="stream" />
	</node>
	<node id="-719294" lat="63.2356555554" lon="9.71846666385">
		<tag k="name" v="Kvålsætertjønnin" />
		<tag k="natural" v="water" />
		<tag k="ssr:stedsnr" v="12245" />
	</node>
	<node id="-719293" lat="62.9182722191" lon="9.62147500032">
		<tag k="name" v="Frostmyrtjønna" />
		<tag k="natural" v="water" />
		<tag k="ssr:stedsnr" v="12242" />
	</node>
	<node id="-721340" lat="63.307094447" lon="9.41056389799">
		<tag k="name" v="Damvassbekken" />
		<tag k="ssr:stedsnr" v="519355" />
		<tag k="waterway" v="stream" />
	</node>
	<node id="-723387" lat="63.1533944426" lon="9.64658611638">
		<tag k="name" v="Haukåsøya" />
		<tag k="natural" v="cape" />
		<tag k="ssr:stedsnr" v="939044" />
	</node>
	<node id="-719290" lat="62.9444138929" lon="9.51573888552">
		<tag k="name" v="Hattbekken" />
		<tag k="ssr:stedsnr" v="12229" />
		<tag k="waterway" v="stream" />
	</node>
	<node id="-722957" lat="63.2211194441" lon="9.53894166549">
		<tag k="name" v="Svartbekken" />
		<tag k="ssr:stedsnr" v="216678" />
		<tag k="waterway" v="stream" />
	</node>
	<node id="-719604" lat="63.4123749972" lon="9.7747722278">
		<tag k="name" v="Litlåltjørna" />
		<tag k="natural" v="water" />
		<tag k="ssr:stedsnr" v="99909" />
	</node>
	<node id="-719285" lat="63.2106694483" lon="9.38606388977">
		<tag k="name" v="Søråa" />
		<tag k="ssr:stedsnr" v="222494" />
		<tag k="waterway" v="river" />
	</node>
	<node id="-719281" lat="63.4352527823" lon="9.74338332475">
		<tag k="name" v="Skjeldbreiosen" />
		<tag k="natural" v="bay" />
		<tag k="ssr:stedsnr" v="221986" />
	</node>
	<node id="-719280" lat="63.4345611138" lon="9.72018334326">
		<tag k="name" v="Fjellbekken" />
		<tag k="ssr:stedsnr" v="221962" />
		<tag k="waterway" v="stream" />
	</node>
	<node id="-721324" lat="63.304405554" lon="9.75566945357">
		<tag k="name" v="Kalvhåggåbekken" />
		<tag k="ssr:stedsnr" v="519222" />
		<tag k="waterway" v="stream" />
	</node>
	<node id="-723370" lat="63.045613887" lon="9.62721667193">
		<tag k="name" v="Lomtjønnbekken" />
		<tag k="ssr:stedsnr" v="939129" />
		<tag k="waterway" v="stream" />
	</node>
	<node id="-719272" lat="63.5421138897" lon="9.69512222884">
		<tag k="name" v="Høybubekken" />
		<tag k="ssr:stedsnr" v="221888" />
		<tag k="waterway" v="stream" />
	</node>
	<node id="-723367" lat="62.983416671" lon="9.94597500771">
		<tag k="name" v="Djuptjønna" />
		<tag k="natural" v="water" />
		<tag k="ssr:stedsnr" v="936728" />
	</node>
	<node id="-719270" lat="63.4445555533" lon="9.70323611461">
		<tag k="alt_name" v="Hanstjørna, nedre;Nedre Hanstjørna" />
		<tag k="name" v="Ner Hanstjørna" />
		<tag k="natural" v="water" />
		<tag k="ssr:stedsnr" v="221871" />
	</node>
	<node id="-722673" lat="63.242666668" lon="9.6725888791">
		<tag k="name" v="Fuglåsbekken" />
		<tag k="ssr:stedsnr" v="884725" />
		<tag k="waterway" v="stream" />
	</node>
	<node id="-719267" lat="63.5507972205" lon="9.66412777597">
		<tag k="name" v="Grønningsbekken" />
		<tag k="ssr:stedsnr" v="221550" />
		<tag k="waterway" v="stream" />
	</node>
	<node id="-719264" lat="63.4848194416" lon="9.65917500814">
		<tag k="name" v="Spikarneset" />
		<tag k="natural" v="cape" />
		<tag k="ssr:stedsnr" v="221435" />
	</node>
	<node id="-719260" lat="63.475611115" lon="9.6478611138">
		<tag k="name" v="Stjørna" />
		<tag k="natural" v="bay" />
		<tag k="ssr:stedsnr" v="221412" />
	</node>
	<node id="-719259" lat="63.4696722236" lon="9.63883889666">
		<tag k="name" v="Ner Dyrstilitjørna" />
		<tag k="natural" v="water" />
		<tag k="ssr:stedsnr" v="221403" />
	</node>
	<node id="-719258" lat="63.4623500018" lon="9.69127222653">
		<tag k="name" v="Småskjera" />
		<tag k="place" v="islet" />
		<tag k="ssr:stedsnr" v="221370" />
	</node>
	<node id="-722149" lat="63.121372221" lon="9.74327221308">
		<tag k="name" v="Hestdalstjønna" />
		<tag k="natural" v="water" />
		<tag k="ssr:stedsnr" v="575670" />
	</node>
	<node id="-719250" lat="63.555675002" lon="9.76907222466">
		<tag k="name" v="Tverrlibekken" />
		<tag k="ssr:stedsnr" v="221120" />
		<tag k="waterway" v="stream" />
	</node>
	<node id="-721987" lat="63.2455583292" lon="9.6584388869">
		<tag k="name" v="Brandåstjønna" />
		<tag k="natural" v="water" />
		<tag k="ssr:stedsnr" v="702729" />
	</node>
	<node id="-719245" lat="63.4412888925" lon="9.67781944098">
		<tag k="name" v="Tuvtjørna" />
		<tag k="natural" v="water" />
		<tag k="ssr:stedsnr" v="220943" />
	</node>
	<node id="-719243" lat="63.5815166654" lon="9.70858332992">
		<tag k="name" v="Granslætt-tjørna" />
		<tag k="natural" v="water" />
		<tag k="ssr:stedsnr" v="220749" />
	</node>
	<node id="-723331" lat="63.4205388857" lon="9.94578332531">
		<tag k="name" v="Kjørelva" />
		<tag k="ssr:stedsnr" v="823614" />
		<tag k="waterway" v="stream" />
	</node>
	<node id="-723691" lat="63.5760750025" lon="9.64141110927">
		<tag k="name" v="Litlvatnet" />
		<tag k="natural" v="water" />
		<tag k="ssr:stedsnr" v="948744" />
		<tag k="water" v="lake" />
	</node>
	<node id="-721279" lat="63.3938916665" lon="9.4712277773">
		<tag k="name" v="Raudberg-bekken" />
		<tag k="ssr:stedsnr" v="518419" />
		<tag k="waterway" v="stream" />
	</node>
	<node id="-721278" lat="63.3761694487" lon="9.45175556159">
		<tag k="name" v="Jevikdalsbekken" />
		<tag k="ssr:stedsnr" v="518418" />
		<tag k="waterway" v="stream" />
	</node>
	<node id="-723322" lat="63.3515722184" lon="9.84230555873">
		<tag k="name" v="Svartbekken" />
		<tag k="ssr:stedsnr" v="823355" />
		<tag k="waterway" v="stream" />
	</node>
	<node id="-720276" lat="63.5781972207" lon="9.63626388965">
		<tag k="name" v="Langvatnet" />
		<tag k="natural" v="water" />
		<tag k="ssr:stedsnr" v="255122" />
	</node>
	<node id="-723689" lat="63.4825083295" lon="9.79275277691">
		<tag k="name" v="Stormyrbekken" />
		<tag k="ssr:stedsnr" v="948446" />
		<tag k="waterway" v="stream" />
	</node>
	<node id="-719219" lat="63.4924277791" lon="9.79083055189">
		<tag k="name" v="Pinøya" />
		<tag k="natural" v="cape" />
		<tag k="ssr:stedsnr" v="220288" />
	</node>
	<node id="-723313" lat="63.2513249998" lon="9.77275833284">
		<tag k="name" v="Leirbekken" />
		<tag k="ssr:stedsnr" v="823071" />
		<tag k="waterway" v="stream" />
	</node>
	<node id="-723312" lat="63.4873500019" lon="9.52722776955">
		<tag k="name" v="Storfossen" />
		<tag k="natural" v="waterfall" />
		<tag k="ssr:stedsnr" v="822824" />
	</node>
	<node id="-721263" lat="63.4203305578" lon="9.61346110268">
		<tag k="name" v="Storslættbekken" />
		<tag k="ssr:stedsnr" v="518081" />
		<tag k="waterway" v="stream" />
	</node>
	<node id="-721262" lat="63.4219694446" lon="9.57795833228">
		<tag k="name" v="Bårdsvollbekken" />
		<tag k="ssr:stedsnr" v="518080" />
		<tag k="waterway" v="stream" />
	</node>
	<node id="-723308" lat="63.4005277739" lon="9.31836666316">
		<tag k="name" v="Hjorttjørna" />
		<tag k="natural" v="water" />
		<tag k="ssr:stedsnr" v="822924" />
	</node>
	<node id="-723346" lat="63.2023916648" lon="9.55313054733">
		<tag k="name" v="Vikalykkjbekken" />
		<tag k="ssr:stedsnr" v="823775" />
		<tag k="waterway" v="stream" />
	</node>
	<node id="-719210" lat="63.5400499964" lon="9.81958334172">
		<tag k="name" v="Kinebbelva" />
		<tag k="ssr:stedsnr" v="220048" />
		<tag k="waterway" v="stream" />
	</node>
	<node id="-723305" lat="63.4742361077" lon="9.40189444553">
		<tag k="name" v="Lomstjørnbekken" />
		<tag k="ssr:stedsnr" v="822708" />
		<tag k="waterway" v="stream" />
	</node>
	<node id="-719205" lat="63.464522222" lon="9.84812223047">
		<tag k="name" v="Øyabekken" />
		<tag k="ssr:stedsnr" v="220067" />
		<tag k="waterway" v="stream" />
	</node>
	<node id="-723300" lat="63.4735277791" lon="9.57358610251">
		<tag k="name" v="Myrengtjørna" />
		<tag k="natural" v="water" />
		<tag k="ssr:stedsnr" v="822468" />
	</node>
	<node id="-721251" lat="63.481455558" lon="9.41391110988">
		<tag k="name" v="Lomtjørnbekken" />
		<tag k="ssr:stedsnr" v="518033" />
		<tag k="waterway" v="stream" />
	</node>
	<node id="-723298" lat="63.3363833336" lon="9.41714167005">
		<tag k="name" v="Andersbakk bekken" />
		<tag k="ssr:stedsnr" v="822456" />
		<tag k="waterway" v="stream" />
	</node>
	<node id="-721979" lat="63.1830444426" lon="9.50056111985">
		<tag k="name" v="Fantguttjønna" />
		<tag k="natural" v="water" />
		<tag k="ssr:stedsnr" v="702693" />
	</node>
	<node id="-723296" lat="63.304088892" lon="9.44011944431">
		<tag k="name" v="Omndalsbekken" />
		<tag k="ssr:stedsnr" v="822419" />
		<tag k="waterway" v="stream" />
	</node>
	<node id="-723295" lat="63.4527777799" lon="9.46750833848">
		<tag k="name" v="Litlbulitjørna" />
		<tag k="natural" v="water" />
		<tag k="ssr:stedsnr" v="822522" />
	</node>
	<node id="-719191" lat="63.2209583318" lon="9.76974722715">
		<tag k="name" v="Tonga" />
		<tag k="ssr:stedsnr" v="217927" />
		<tag k="waterway" v="drain" />
	</node>
	<node id="-723285" lat="63.4296583354" lon="9.5018361193">
		<tag k="name" v="Langneset" />
		<tag k="natural" v="cape" />
		<tag k="ssr:stedsnr" v="822119" />
	</node>
	<node id="-721236" lat="63.1312250005" lon="9.66701388829">
		<tag k="name" v="Granatjønna" />
		<tag k="natural" v="water" />
		<tag k="ssr:stedsnr" v="514701" />
	</node>
	<node id="-719186" lat="63.2493166684" lon="9.60242500961">
		<tag k="name" v="Kvernbekken" />
		<tag k="ssr:stedsnr" v="217732" />
		<tag k="waterway" v="stream" />
	</node>
	<node id="-723683" lat="63.4032833361" lon="9.82219723089">
		<tag k="name" v="Håvårdsdalsbekken" />
		<tag k="ssr:stedsnr" v="948585" />
		<tag k="waterway" v="stream" />
	</node>
	<node id="-723280" lat="63.4222111145" lon="9.60438054707">
		<tag k="name" v="Merkesbekken" />
		<tag k="ssr:stedsnr" v="822071" />
		<tag k="waterway" v="stream" />
	</node>
	<node id="-723279" lat="63.5031388887" lon="9.53430277154">
		<tag k="name" v="Holmtjørna" />
		<tag k="natural" v="water" />
		<tag k="ssr:stedsnr" v="822062" />
	</node>
	<node id="-724365" lat="63.4248861119" lon="9.34989722926">
		<tag k="name" v="Botntjørna" />
		<tag k="natural" v="water" />
		<tag k="ssr:stedsnr" v="73796" />
	</node>
	<node id="-723274" lat="63.402230552" lon="9.4971194348">
		<tag k="name" v="Kaldbekken" />
		<tag k="ssr:stedsnr" v="822007" />
		<tag k="waterway" v="stream" />
	</node>
	<node id="-719176" lat="63.3666500011" lon="9.78685832497">
		<tag k="name" v="Midtre Merratjønna" />
		<tag k="natural" v="water" />
		<tag k="ssr:stedsnr" v="217477" />
	</node>
	<node id="-723271" lat="63.1150305579" lon="9.87660277867">
		<tag k="name" v="Litjbufossen" />
		<tag k="natural" v="waterfall" />
		<tag k="ssr:stedsnr" v="818756" />
	</node>
	<node id="-725059" lat="63.4483055523" lon="9.49081111471">
		<tag k="name" v="Tjørnbukta" />
		<tag k="natural" v="bay" />
		<tag k="ssr:stedsnr" v="154833" />
	</node>
	<node id="-724629" lat="63.3817027788" lon="9.34870832778">
		<tag k="name" v="Inner Klunger vikelva" />
		<tag k="ssr:stedsnr" v="94381" />
		<tag k="waterway" v="river" />
	</node>
	<node id="-723254" lat="62.9628472237" lon="9.70735000803">
		<tag k="name" v="Raudmyrbekken" />
		<tag k="ssr:stedsnr" v="818162" />
		<tag k="waterway" v="stream" />
	</node>
	<node id="-721203" lat="63.0035083364" lon="9.89702777222">
		<tag k="name" v="Stenslåttdalstjønna" />
		<tag k="natural" v="water" />
		<tag k="ssr:stedsnr" v="514374" />
	</node>
	<node id="-721202" lat="62.9996777822" lon="9.89729167009">
		<tag k="name" v="Fjelldalstjønna" />
		<tag k="natural" v="water" />
		<tag k="ssr:stedsnr" v="514373" />
	</node>
	<node id="-723249" lat="63.0780222259" lon="9.61757499826">
		<tag k="name" v="Bruhølen" />
		<tag k="place" v="locality" />
		<tag k="ssr:stedsnr" v="818259" />
	</node>
	<node id="-721200" lat="63.0125111079" lon="9.93509166757">
		<tag k="name" v="Litlbekken" />
		<tag k="ssr:stedsnr" v="514363" />
		<tag k="waterway" v="stream" />
	</node>
	<node id="-721929" lat="63.0699055537" lon="9.46658056024">
		<tag k="name" v="Litlholtvatnet" />
		<tag k="natural" v="water" />
		<tag k="ssr:stedsnr" v="558402" />
	</node>
	<node id="-723237" lat="63.0481083301" lon="9.89159167184">
		<tag k="name" v="Ortjønnbekken" />
		<tag k="ssr:stedsnr" v="817692" />
		<tag k="waterway" v="stream" />
	</node>
	<node id="-723236" lat="63.0682277792" lon="9.94673611109">
		<tag k="name" v="Pungtjønna" />
		<tag k="natural" v="water" />
		<tag k="ssr:stedsnr" v="817667" />
	</node>
	<node id="-722310" lat="62.9078888929" lon="9.57790278754">
		<tag k="name" v="Langvatnet" />
		<tag k="natural" v="water" />
		<tag k="ssr:stedsnr" v="635067" />
	</node>
	<node id="-721656" lat="63.0759583352" lon="9.81782222068">
		<tag k="name" v="Pungtjønna" />
		<tag k="natural" v="water" />
		<tag k="ssr:stedsnr" v="514508" />
	</node>
	<node id="-724699" lat="63.1981027746" lon="9.55149721998">
		<tag k="name" v="Såmmårfjøsbekken" />
		<tag k="ssr:stedsnr" v="95798" />
		<tag k="waterway" v="stream" />
	</node>
	<node id="-723088" lat="63.4313891088" lon="9.71001851403">
		<tag k="alt_name" v="Hanstjørna, øvre" />
		<tag k="name" v="Øvre Hanstjørna" />
		<tag k="natural" v="water" />
		<tag k="ssr:stedsnr" v="922751" />
	</node>
	<node id="-721182" lat="63.0494111121" lon="9.65484722182">
		<tag k="name" v="Dulubekken" />
		<tag k="ssr:stedsnr" v="514174" />
		<tag k="waterway" v="stream" />
	</node>
	<node id="-723228" lat="63.1474000001" lon="9.83435556041">
		<tag k="name" v="Bukkbekken" />
		<tag k="ssr:stedsnr" v="817759" />
		<tag k="waterway" v="stream" />
	</node>
	<node id="-723224" lat="63.0028527807" lon="9.89340833062">
		<tag k="name" v="Stenslåttdalstjønna" />
		<tag k="natural" v="water" />
		<tag k="ssr:stedsnr" v="817356" />
	</node>
	<node id="-723221" lat="63.2865527797" lon="9.90628333637">
		<tag k="name" v="Pikhaugtjønna" />
		<tag k="natural" v="water" />
		<tag k="ssr:stedsnr" v="802360" />
	</node>
	<node id="-723217" lat="63.2834222241" lon="9.68574166594">
		<tag k="name" v="Vollavika" />
		<tag k="natural" v="bay" />
		<tag k="ssr:stedsnr" v="802278" />
	</node>
	<node id="-721168" lat="63.1461111101" lon="9.62611389331">
		<tag k="name" v="Gammeldammen" />
		<tag k="ssr:stedsnr" v="514042" />
		<tag k="waterway" v="stream" />
	</node>
	<node id="-723210" lat="63.4021722224" lon="9.61322499971">
		<tag k="name" v="Myrtjørna" />
		<tag k="natural" v="water" />
		<tag k="ssr:stedsnr" v="801831" />
	</node>
	<node id="-724695" lat="63.2143694443" lon="9.69600000498">
		<tag k="name" v="Sæterbekken" />
		<tag k="ssr:stedsnr" v="95786" />
		<tag k="waterway" v="stream" />
	</node>
	<node id="-721281" lat="63.4032111103" lon="9.44159444696">
		<tag k="name" v="Bekkakroktjørna" />
		<tag k="natural" v="water" />
		<tag k="ssr:stedsnr" v="518436" />
	</node>
	<node id="-723203" lat="63.0544694407" lon="9.95927777351">
		<tag k="name" v="Hesteskotjønna" />
		<tag k="natural" v="water" />
		<tag k="ssr:stedsnr" v="801583" />
	</node>
	<node id="-723202" lat="63.049213893" lon="9.85723055887">
		<tag k="name" v="Smidalsbekken" />
		<tag k="ssr:stedsnr" v="801575" />
		<tag k="waterway" v="stream" />
	</node>
	<node id="-721153" lat="63.2259111108" lon="9.40479166511">
		<tag k="name" v="Ellinsgardbukta" />
		<tag k="natural" v="bay" />
		<tag k="ssr:stedsnr" v="404509" />
	</node>
	<node id="-723197" lat="63.214433336" lon="9.43951388552">
		<tag k="name" v="Rørtjønna" />
		<tag k="natural" v="water" />
		<tag k="ssr:stedsnr" v="801608" />
	</node>
	<node id="-723195" lat="63.0859638918" lon="9.67922499715">
		<tag k="name" v="Djupbekken" />
		<tag k="ssr:stedsnr" v="801415" />
		<tag k="waterway" v="stream" />
	</node>
	<node id="-721146" lat="63.4779499976" lon="9.60831666585">
		<tag k="name" v="Ingebriktbukta" />
		<tag k="natural" v="bay" />
		<tag k="ssr:stedsnr" v="403463" />
	</node>
	<node id="-721145" lat="63.4800083314" lon="9.61179444415">
		<tag k="name" v="Kjøkkenbukta" />
		<tag k="natural" v="bay" />
		<tag k="ssr:stedsnr" v="403460" />
	</node>
	<node id="-723191" lat="63.1961416629" lon="9.92194444485">
		<tag k="name" v="Medskogsvatnet" />
		<tag k="natural" v="water" />
		<tag k="ssr:stedsnr" v="801176" />
	</node>
	<node id="-723190" lat="62.9055805539" lon="9.48935556492">
		<tag k="loc_name" v="Halvforentjønna" />
		<tag k="name" v="Langtjønna" />
		<tag k="natural" v="water" />
		<tag k="ssr:stedsnr" v="801229" />
		<tag k="water" v="lake" />
	</node>
	<node id="-724350" lat="63.2143111075" lon="9.68444444714">
		<tag k="alt_name" v="Gåstjønna" />
		<tag k="name" v="Gåsvatnet" />
		<tag k="natural" v="water" />
		<tag k="ssr:stedsnr" v="73635" />
	</node>
	<node id="-721138" lat="63.5859138873" lon="9.67541944244">
		<tag k="name" v="Hjertlibekken" />
		<tag k="ssr:stedsnr" v="402704" />
		<tag k="waterway" v="stream" />
	</node>
	<node id="-725233" lat="63.47035" lon="9.40906389542">
		<tag k="name" v="Kverndalsbekken" />
		<tag k="ssr:stedsnr" v="176377" />
		<tag k="waterway" v="stream" />
	</node>
	<node id="-723729" lat="63.341819447" lon="9.86739722788">
		<tag k="name" v="Tverrbekken" />
		<tag k="ssr:stedsnr" v="883526" />
		<tag k="waterway" v="stream" />
	</node>
	<node id="-725228" lat="63.2319611074" lon="9.40366110591">
		<tag k="name" v="Dalbekken" />
		<tag k="ssr:stedsnr" v="162745" />
		<tag k="waterway" v="stream" />
	</node>
	<node id="-723700" lat="63.5983472228" lon="9.71251666013">
		<tag k="name" v="Stakkslættjørna" />
		<tag k="natural" v="water" />
		<tag k="ssr:stedsnr" v="949134" />
	</node>
	<node id="-721050" lat="63.0786611156" lon="9.92530833272">
		<tag k="name" v="Stordamvatnet" />
		<tag k="natural" v="water" />
		<tag k="ssr:stedsnr" v="498569" />
	</node>
	<node id="-723175" lat="63.393805557" lon="9.3916444436">
		<tag k="alt_name" v="Bjørnholtjørna" />
		<tag k="name" v="Bjørnholvatnet" />
		<tag k="natural" v="water" />
		<tag k="ssr:stedsnr" v="923870" />
	</node>
	<node id="-723173" lat="63.3953833291" lon="9.35029722643">
		<tag k="alt_name" v="Lomtjørna" />
		<tag k="name" v="Longtjørna" />
		<tag k="natural" v="water" />
		<tag k="ssr:stedsnr" v="923865" />
	</node>
	<node id="-723172" lat="63.3868361149" lon="9.37298055618">
		<tag k="alt_name" v="Setervatnet" />
		<tag k="name" v="Sætertjørna" />
		<tag k="natural" v="water" />
		<tag k="ssr:stedsnr" v="923849" />
	</node>
	<node id="-725218" lat="63.4881138859" lon="9.6474527695">
		<tag k="name" v="Gryta" />
		<tag k="natural" v="water" />
		<tag k="ssr:stedsnr" v="160394" />
	</node>
	<node id="-725200" lat="63.5591841737" lon="9.6443456503">
		<tag k="name" v="Svantjørna" />
		<tag k="natural" v="water" />
		<tag k="ssr:stedsnr" v="159683" />
	</node>
	<node id="-723168" lat="63.4096722203" lon="9.57497778272">
		<tag k="name" v="Råtjørna" />
		<tag k="natural" v="water" />
		<tag k="ssr:stedsnr" v="923790" />
	</node>
	<node id="-725215" lat="63.4681416644" lon="9.66091667213">
		<tag k="name" v="Søreidet" />
		<tag k="natural" v="strait" />
		<tag k="ssr:stedsnr" v="160386" />
	</node>
	<node id="-722472" lat="63.0204055525" lon="9.9369749992">
		<tag k="name" v="Gammelsagdammen" />
		<tag k="natural" v="water" />
		<tag k="ssr:stedsnr" v="878582" />
		<tag k="water" v="lake" />
	</node>
	<node id="-723159" lat="63.2022750018" lon="9.56157500086">
		<tag k="name" v="Vikabukta" />
		<tag k="natural" v="bay" />
		<tag k="ssr:stedsnr" v="923634" />
	</node>
	<node id="-723157" lat="63.1826916644" lon="9.7108333362">
		<tag k="name" v="Røsvassbekken" />
		<tag k="ssr:stedsnr" v="923622" />
		<tag k="waterway" v="stream" />
	</node>
	<node id="-723156" lat="63.1889722239" lon="9.60537223063">
		<tag k="name" v="Svartbotntjønna" />
		<tag k="natural" v="water" />
		<tag k="ssr:stedsnr" v="923620" />
	</node>
	<node id="-719471" lat="63.384813888" lon="9.90806111567">
		<tag k="name" v="Lomstjønna" />
		<tag k="natural" v="water" />
		<tag k="ssr:stedsnr" v="74421" />
	</node>
	<node id="-721103" lat="63.1080111146" lon="9.54885832391">
		<tag k="name" v="Fromslibekken" />
		<tag k="ssr:stedsnr" v="393074" />
		<tag k="waterway" v="stream" />
	</node>
	<node id="-725196" lat="63.490277782" lon="9.79399166159">
		<tag k="name" v="Malifosshølen" />
		<tag k="place" v="locality" />
		<tag k="ssr:stedsnr" v="159441" />
	</node>
	<node id="-721098" lat="62.9911055513" lon="9.9128888857">
		<tag k="name" v="Raudhattjønna" />
		<tag k="natural" v="water" />
		<tag k="ssr:stedsnr" v="392715" />
	</node>
	<node id="-721271" lat="63.4081777781" lon="9.6400666704">
		<tag k="name" v="Kallhaugtjørna" />
		<tag k="natural" v="water" />
		<tag k="ssr:stedsnr" v="518125" />
	</node>
	<node id="-721095" lat="63.0878611079" lon="9.75275556041">
		<tag k="name" v="Merkesbekken" />
		<tag k="ssr:stedsnr" v="392510" />
		<tag k="waterway" v="stream" />
	</node>
	<node id="-724001" lat="63.0333305564" lon="9.558505548">
		<tag k="name" v="Stylbekken" />
		<tag k="ssr:stedsnr" v="29088" />
		<tag k="waterway" v="stream" />
	</node>
	<node id="-723139" lat="63.0471444437" lon="9.61043332587">
		<tag k="name" v="Mosbrunnskjerva" />
		<tag k="ssr:stedsnr" v="923387" />
		<tag k="waterway" v="stream" />
	</node>
	<node id="-723138" lat="63.0496500006" lon="9.44760834238">
		<tag k="name" v="Snausvatnet" />
		<tag k="natural" v="water" />
		<tag k="ssr:stedsnr" v="923384" />
	</node>
	<node id="-723137" lat="63.2441166706" lon="9.86557223102">
		<tag k="name" v="Gorrtjønna" />
		<tag k="natural" v="water" />
		<tag k="ssr:stedsnr" v="923359" />
	</node>
	<node id="-721269" lat="63.4190555584" lon="9.65120278041">
		<tag k="name" v="Kvernhusbekken" />
		<tag k="ssr:stedsnr" v="518105" />
		<tag k="waterway" v="stream" />
	</node>
	<node id="-725178" lat="63.4979583328" lon="9.82202223181">
		<tag k="name" v="Merkesgrøfta" />
		<tag k="ssr:stedsnr" v="159010" />
		<tag k="waterway" v="drain" />
	</node>
	<node id="-721931" lat="63.4004722235" lon="9.32999722214">
		<tag k="name" v="Kvitsteinlitjørna" />
		<tag k="natural" v="water" />
		<tag k="ssr:stedsnr" v="701904" />
	</node>
	<node id="-722884" lat="63.2176611092" lon="9.38191944987">
		<tag k="name" v="Bergholmen" />
		<tag k="place" v="islet" />
		<tag k="ssr:stedsnr" v="890768" />
	</node>
	<node id="-723124" lat="63.3143250043" lon="9.69469999144">
		<tag k="name" v="Annølstjønna" />
		<tag k="natural" v="water" />
		<tag k="ssr:stedsnr" v="923225" />
	</node>
	<node id="-722948" lat="63.6372472258" lon="9.72437777225">
		<tag k="name" v="Lomtjørna" />
		<tag k="natural" v="water" />
		<tag k="ssr:stedsnr" v="741956" />
	</node>
	<node id="-721584" lat="63.4218361069" lon="9.2936277744">
		<tag k="name" v="Stengvatnet" />
		<tag k="natural" v="water" />
		<tag k="ssr:stedsnr" v="680840" />
	</node>
	<node id="-721071" lat="63.5209499985" lon="9.49546389333">
		<tag k="name" v="Storvassholmen" />
		<tag k="place" v="islet" />
		<tag k="ssr:stedsnr" v="387855" />
	</node>
	<node id="-723118" lat="63.161755557" lon="9.86434721906">
		<tag k="name" v="Rørtjønna" />
		<tag k="natural" v="water" />
		<tag k="ssr:stedsnr" v="923165" />
	</node>
	<node id="-723117" lat="63.1688611069" lon="9.82841388949">
		<tag k="alt_name" v="Røsvatnet" />
		<tag k="name" v="Ryvatnet" />
		<tag k="natural" v="water" />
		<tag k="ssr:stedsnr" v="923164" />
	</node>
	<node id="-723114" lat="63.357405553" lon="9.61491110745">
		<tag k="name" v="Jamtgardstjønna" />
		<tag k="natural" v="water" />
		<tag k="ssr:stedsnr" v="923158" />
	</node>
	<node id="-721065" lat="62.9776249959" lon="9.9350749971">
		<tag k="name" v="Fjellvollbekken" />
		<tag k="ssr:stedsnr" v="498826" />
		<tag k="waterway" v="stream" />
	</node>
	<node id="-725160" lat="63.3638166701" lon="9.66766389647">
		<tag k="name" v="Klokkarbekken" />
		<tag k="ssr:stedsnr" v="156908" />
		<tag k="waterway" v="stream" />
	</node>
	<node id="-725159" lat="63.3513583343" lon="9.6332111195">
		<tag k="name" v="Stokksæterbekken" />
		<tag k="ssr:stedsnr" v="156898" />
		<tag k="waterway" v="stream" />
	</node>
	<node id="-723110" lat="63.427399999" lon="9.78190833667">
		<tag k="name" v="Matbrønn" />
		<tag k="natural" v="water" />
		<tag k="ssr:stedsnr" v="923125" />
	</node>
	<node id="-725156" lat="63.2214055573" lon="9.67616110625">
		<tag k="name" v="Lomtjønna" />
		<tag k="natural" v="water" />
		<tag k="ssr:stedsnr" v="156867" />
	</node>
	<node id="-723106" lat="63.4426638846" lon="9.75732499723">
		<tag k="name" v="Svarttjørna" />
		<tag k="natural" v="water" />
		<tag k="ssr:stedsnr" v="923096" />
	</node>
	<node id="-720015" lat="63.4784750013" lon="9.6797444533">
		<tag k="name" v="Hoøyneset" />
		<tag k="natural" v="cape" />
		<tag k="ssr:stedsnr" v="281493" />
	</node>
	<node id="-724677" lat="63.4168527777" lon="9.29411944051">
		<tag k="name" v="Fjellslættjørna" />
		<tag k="natural" v="water" />
		<tag k="ssr:stedsnr" v="94921" />
	</node>
	<node id="-723100" lat="63.4849499957" lon="9.74376666568">
		<tag k="alt_name" v="Frostavatnet" />
		<tag k="name" v="Frostadvatnet" />
		<tag k="natural" v="water" />
		<tag k="ssr:stedsnr" v="923056" />
		<tag k="water" v="lake" />
	</node>
	<node id="-725147" lat="63.2700944472" lon="9.69388054868">
		<tag k="name" v="Munktjønna" />
		<tag k="natural" v="water" />
		<tag k="ssr:stedsnr" v="156796" />
	</node>
	<node id="-723098" lat="63.1064388925" lon="9.87756667229">
		<tag k="name" v="Sætertjønna" />
		<tag k="natural" v="water" />
		<tag k="ssr:stedsnr" v="923033" />
	</node>
	<node id="-725144" lat="63.2667861125" lon="9.55251667665">
		<tag k="name" v="Grindbekken" />
		<tag k="ssr:stedsnr" v="156777" />
		<tag k="waterway" v="stream" />
	</node>
	<node id="-723095" lat="63.2598805568" lon="9.71143889096">
		<tag k="alt_name" v="Paultjønna" />
		<tag k="name" v="Paulstjønna" />
		<tag k="natural" v="water" />
		<tag k="ssr:stedsnr" v="923009" />
	</node>
	<node id="-723092" lat="62.9689333329" lon="9.92613888893">
		<tag k="name" v="Fjellbekken" />
		<tag k="ssr:stedsnr" v="922770" />
		<tag k="waterway" v="stream" />
	</node>
	<node id="-725139" lat="63.1882888902" lon="9.49232778545">
		<tag k="name" v="Styggdalsbekken" />
		<tag k="ssr:stedsnr" v="156705" />
		<tag k="waterway" v="stream" />
	</node>
	<node id="-725136" lat="63.1703722257" lon="9.65014721934">
		<tag k="name" v="Tømra" />
		<tag k="ssr:stedsnr" v="156635" />
		<tag k="waterway" v="stream" />
	</node>
	<node id="-723087" lat="63.4052444486" lon="9.27399723037">
		<tag k="alt_name" v="Heggstadsætervatnet, øvre;Øver Heggstadsetervatnet" />
		<tag k="name" v="Øvre Heggstadsætervatnet" />
		<tag k="natural" v="water" />
		<tag k="ssr:stedsnr" v="922739" />
		<tag k="water" v="lake" />
	</node>
	<node id="-721651" lat="63.1794888891" lon="9.55206667251">
		<tag k="name" v="Vaulen" />
		<tag k="natural" v="strait" />
		<tag k="ssr:stedsnr" v="514308" />
	</node>
	<node id="-721035" lat="63.0648888893" lon="9.76807499434">
		<tag k="name" v="Kråktjønna" />
		<tag k="natural" v="water" />
		<tag k="ssr:stedsnr" v="498657" />
	</node>
	<node id="-725130" lat="63.2308444411" lon="9.73773332999">
		<tag k="name" v="Silardalsbekken" />
		<tag k="ssr:stedsnr" v="156097" />
		<tag k="waterway" v="stream" />
	</node>
	<node id="-725216" lat="63.471958329" lon="9.63671388662">
		<tag k="name" v="Øver Dyrstilitjørna" />
		<tag k="natural" v="water" />
		<tag k="ssr:stedsnr" v="160389" />
	</node>
	<node id="-725126" lat="63.3967222206" lon="9.28689445381">
		<tag k="name" v="Vasslibekken" />
		<tag k="natural" v="water" />
		<tag k="ssr:stedsnr" v="155922" />
	</node>
	<node id="-723074" lat="63.0839305574" lon="9.80558055523">
		<tag k="name" v="Svartvatnet" />
		<tag k="natural" v="water" />
		<tag k="ssr:stedsnr" v="922481" />
		<tag k="water" v="lake" />
	</node>
	<node id="-721023" lat="63.092099997" lon="9.66574444143">
		<tag k="fixme" v="multiple name tags, choose one and add the other to alt_name" />
		<tag k="name" v="Slåttjønna;Gårsengdalstjønna" />
		<tag k="natural" v="water" />
		<tag k="ssr:stedsnr" v="376425" />
	</node>
	<node id="-721019" lat="63.0705527781" lon="9.58311944809">
		<tag k="fixme" v="multiple name tags, choose one and add the other to alt_name" />
		<tag k="name" v="Toråa;Lykkjbekken" />
		<tag k="ssr:stedsnr" v="376406" />
		<tag k="waterway" v="stream" />
	</node>
	<node id="-721599" lat="63.3843999981" lon="9.73628334043">
		<tag k="name" v="Kringla" />
		<tag k="natural" v="water" />
		<tag k="ssr:stedsnr" v="498491" />
	</node>
	<node id="-725112" lat="63.1850250043" lon="9.66864999138">
		<tag k="name" v="Kvilsteinbekken" />
		<tag k="ssr:stedsnr" v="155615" />
		<tag k="waterway" v="stream" />
	</node>
	<node id="-723988" lat="62.9554055577" lon="9.71438332889">
		<tag k="name" v="Klevabekken" />
		<tag k="ssr:stedsnr" v="29013" />
		<tag k="waterway" v="stream" />
	</node>
	<node id="-719209" lat="63.4722972258" lon="9.83425000946">
		<tag k="name" v="Rønningsbekken" />
		<tag k="ssr:stedsnr" v="220024" />
		<tag k="waterway" v="stream" />
	</node>
	<node id="-721012" lat="63.3052555517" lon="9.53383056078">
		<tag k="fixme" v="multiple name tags, choose one and add the other to alt_name" />
		<tag k="name" v="Bånkroktjønna;Jomfrutjønna" />
		<tag k="natural" v="water" />
		<tag k="ssr:stedsnr" v="498273" />
	</node>
	<node id="-723058" lat="63.102380556" lon="9.84401943783">
		<tag k="name" v="Leirtjønna" />
		<tag k="natural" v="water" />
		<tag k="ssr:stedsnr" v="922004" />
	</node>
	<node id="-723057" lat="63.1046083347" lon="9.85850834069">
		<tag k="name" v="Auretjønna" />
		<tag k="natural" v="water" />
		<tag k="ssr:stedsnr" v="922001" />
	</node>
	<node id="-723056" lat="63.4690025169" lon="9.63357137115">
		<tag k="name" v="Gorrtjørna" />
		<tag k="natural" v="water" />
		<tag k="ssr:stedsnr" v="922975" />
	</node>
	<node id="-725103" lat="63.3337527803" lon="9.84267499511">
		<tag k="name" v="Furbekken" />
		<tag k="ssr:stedsnr" v="155418" />
		<tag k="waterway" v="stream" />
	</node>
	<node id="-723053" lat="63.2305861111" lon="9.68794167342">
		<tag k="name" v="Litltjønna" />
		<tag k="natural" v="water" />
		<tag k="ssr:stedsnr" v="216863" />
	</node>
	<node id="-721004" lat="63.1923351324" lon="9.85345398433">
		<tag k="fixme" v="multiple name tags, choose one and add the other to alt_name" />
		<tag k="name" v="Øvre Damtjønna;Øvre Damlitjønna" />
		<tag k="natural" v="water" />
		<tag k="ssr:stedsnr" v="498205" />
	</node>
	<node id="-723051" lat="63.4830388889" lon="9.65978055863">
		<tag k="name" v="Kvernhusholmen" />
		<tag k="place" v="islet" />
		<tag k="ssr:stedsnr" v="767466" />
	</node>
	<node id="-725098" lat="63.3482083311" lon="9.87988610769">
		<tag k="name" v="Meslættbekken" />
		<tag k="ssr:stedsnr" v="155391" />
		<tag k="waterway" v="stream" />
	</node>
	<node id="-721000" lat="63.3376027742" lon="9.64622499045">
		<tag k="name" v="Songlitjønna" />
		<tag k="natural" v="water" />
		<tag k="ssr:stedsnr" v="498196" />
	</node>
	<node id="-725095" lat="63.3317111077" lon="9.41957222704">
		<tag k="name" v="Medagsbekken" />
		<tag k="ssr:stedsnr" v="155382" />
		<tag k="waterway" v="stream" />
	</node>
	<node id="-723046" lat="63.4679527741" lon="9.81751667483">
		<tag k="name" v="Tennelselva" />
		<tag k="ssr:stedsnr" v="766902" />
		<tag k="waterway" v="river" />
	</node>
	<node id="-720974" lat="63.4976138858" lon="9.45631110659">
		<tag k="name" v="Imstervatnet" />
		<tag k="natural" v="water" />
		<tag k="ssr:stedsnr" v="497898" />
	</node>
	<node id="-722127" lat="63.1596555568" lon="9.45074721669">
		<tag k="name" v="Sagbekken" />
		<tag k="ssr:stedsnr" v="574472" />
		<tag k="waterway" v="stream" />
	</node>
	<node id="-725090" lat="63.181619443" lon="9.86819443564">
		<tag k="name" v="Mjovassbekken" />
		<tag k="ssr:stedsnr" v="155329" />
		<tag k="waterway" v="stream" />
	</node>
	<node id="-720993" lat="63.3620749957" lon="9.71470278366">
		<tag k="fixme" v="multiple name tags, choose one and add the other to alt_name" />
		<tag k="name" v="Furtjønna;Furutjønna" />
		<tag k="natural" v="water" />
		<tag k="ssr:stedsnr" v="498154" />
	</node>
	<node id="-725088" lat="63.315777776" lon="9.46741944869">
		<tag k="name" v="Brekkholbekken" />
		<tag k="ssr:stedsnr" v="155308" />
		<tag k="waterway" v="stream" />
	</node>
	<node id="-725087" lat="63.2921722204" lon="9.41723611044">
		<tag k="name" v="Nyslættdalsbekken" />
		<tag k="ssr:stedsnr" v="155295" />
		<tag k="waterway" v="stream" />
	</node>
	<node id="-720990" lat="63.5653698225" lon="9.61495115791">
		<tag k="name" v="Svantjørna" />
		<tag k="natural" v="water" />
		<tag k="ssr:stedsnr" v="498131" />
	</node>
	<node id="-725085" lat="63.3753361074" lon="9.35656388402">
		<tag k="name" v="Storvikbekken" />
		<tag k="ssr:stedsnr" v="155285" />
		<tag k="waterway" v="stream" />
	</node>
	<node id="-720988" lat="63.5804333291" lon="9.6020694366">
		<tag k="name" v="Lauvnestjørna" />
		<tag k="natural" v="water" />
		<tag k="ssr:stedsnr" v="498120" />
	</node>
	<node id="-722618" lat="63.3967750031" lon="9.32374166899">
		<tag k="name" v="Langtjørna" />
		<tag k="natural" v="water" />
		<tag k="ssr:stedsnr" v="883221" />
	</node>
	<node id="-723033" lat="63.4449055599" lon="9.91006667187">
		<tag k="name" v="Litlelva" />
		<tag k="ssr:stedsnr" v="766109" />
		<tag k="waterway" v="river" />
	</node>
	<node id="-723032" lat="63.4830861085" lon="9.69286389837">
		<tag k="name" v="Ytter Slupptjørna" />
		<tag k="natural" v="water" />
		<tag k="ssr:stedsnr" v="766100" />
	</node>
	<node id="-725079" lat="63.3014694404" lon="9.76081944856">
		<tag k="name" v="Grandalsbekken" />
		<tag k="ssr:stedsnr" v="155209" />
		<tag k="waterway" v="stream" />
	</node>
	<node id="-725078" lat="63.3021333333" lon="9.78191111836">
		<tag k="name" v="Ålvassbekken" />
		<tag k="ssr:stedsnr" v="155207" />
		<tag k="waterway" v="stream" />
	</node>
	<node id="-720981" lat="63.2582527821" lon="9.68261665831">
		<tag k="alt_name" v="Ikorntjønna" />
		<tag k="name" v="Ekorntjønna" />
		<tag k="natural" v="water" />
		<tag k="ssr:stedsnr" v="498020" />
	</node>
	<node id="-725074" lat="63.33061944" lon="9.81461110949">
		<tag k="name" v="Dållån" />
		<tag k="ssr:stedsnr" v="155174" />
		<tag k="waterway" v="stream" />
	</node>
	<node id="-725073" lat="63.376528261" lon="9.77851109252">
		<tag k="name" v="Merratjønnbekken" />
		<tag k="ssr:stedsnr" v="155161" />
		<tag k="waterway" v="stream" />
	</node>
	<node id="-720976" lat="63.4740694464" lon="9.38750276866">
		<tag k="alt_name" v="Gortjørna" />
		<tag k="name" v="Gardviktjørna" />
		<tag k="natural" v="water" />
		<tag k="ssr:stedsnr" v="497981" />
	</node>
	<node id="-721308" lat="63.2393583303" lon="9.73963610683">
		<tag k="name" v="Hauka" />
		<tag k="ssr:stedsnr" v="519071" />
		<tag k="waterway" v="stream" />
	</node>
	<node id="-725070" lat="63.2651277767" lon="9.80405000256">
		<tag k="name" v="Skåggåberghølen" />
		<tag k="natural" v="water" />
		<tag k="ssr:stedsnr" v="155083" />
	</node>
	<node id="-723021" lat="63.1905666657" lon="9.71999721906">
		<tag k="name" v="Røsbekken" />
		<tag k="ssr:stedsnr" v="762916" />
		<tag k="waterway" v="stream" />
	</node>
	<node id="-720972" lat="63.4904666642" lon="9.35356944075">
		<tag k="alt_name" v="Fossdalstjørna" />
		<tag k="name" v="Fossdalsvatnet" />
		<tag k="natural" v="water" />
		<tag k="ssr:stedsnr" v="497881" />
	</node>
	<node id="-724513" lat="63.0632361138" lon="9.8560277729">
		<tag k="name" v="Snurulibekken" />
		<tag k="ssr:stedsnr" v="89713" />
		<tag k="waterway" v="stream" />
	</node>
	<node id="-720967" lat="63.4269333302" lon="9.63799722857">
		<tag k="name" v="Kleivtjørna" />
		<tag k="natural" v="water" />
		<tag k="ssr:stedsnr" v="497767" />
	</node>
	<node id="-725062" lat="63.4393111117" lon="9.30838056374">
		<tag k="name" v="Fættabekken" />
		<tag k="ssr:stedsnr" v="154890" />
		<tag k="waterway" v="stream" />
	</node>
	<node id="-720965" lat="63.4113138918" lon="9.54535277145">
		<tag k="name" v="Lomtjørna" />
		<tag k="natural" v="water" />
		<tag k="ssr:stedsnr" v="497755" />
	</node>
	<node id="-720964" lat="63.3962277766" lon="9.44397499866">
		<tag k="alt_name" v="Stengvatnet" />
		<tag k="name" v="Stengvasstjørna" />
		<tag k="natural" v="water" />
		<tag k="ssr:stedsnr" v="497863" />
	</node>
	<node id="-722614" lat="63.4935833355" lon="9.54114167644">
		<tag k="name" v="Finnbekken" />
		<tag k="ssr:stedsnr" v="883192" />
		<tag k="waterway" v="stream" />
	</node>
	<node id="-720962" lat="63.0965500009" lon="9.564819441">
		<tag k="name" v="Åsskjerva" />
		<tag k="ssr:stedsnr" v="497396" />
		<tag k="waterway" v="river" />
	</node>
	<node id="-725057" lat="63.3852499977" lon="9.4846388886">
		<tag k="name" v="Løyftbekken" />
		<tag k="ssr:stedsnr" v="154822" />
		<tag k="waterway" v="stream" />
	</node>
	<node id="-720956" lat="63.2161194464" lon="9.38814445297">
		<tag k="name" v="Stugguholmen" />
		<tag k="place" v="islet" />
		<tag k="ssr:stedsnr" v="497591" />
	</node>
	<node id="-725051" lat="63.410811112" lon="9.43279722452">
		<tag k="name" v="Langtjørna" />
		<tag k="natural" v="water" />
		<tag k="ssr:stedsnr" v="154511" />
	</node>
	<node id="-724319" lat="63.1346083326" lon="9.83535556317">
		<tag k="name" v="Bergtjønna" />
		<tag k="natural" v="water" />
		<tag k="old_name" v="Borgtjørna;Borgtjønna" />
		<tag k="ssr:stedsnr" v="73067" />
	</node>
	<node id="-722612" lat="63.4198638894" lon="9.28020554969">
		<tag k="alt_name" v="Tjørnskardslætt-tjørna" />
		<tag k="name" v="Tjørnskardslættjørna" />
		<tag k="natural" v="water" />
		<tag k="ssr:stedsnr" v="883179" />
	</node>
	<node id="-720950" lat="63.0749999966" lon="9.78013610606">
		<tag k="name" v="Fjøsbekken" />
		<tag k="ssr:stedsnr" v="497490" />
		<tag k="waterway" v="stream" />
	</node>
	<node id="-722997" lat="63.2321444477" lon="9.76000554857">
		<tag k="name" v="Kjelbekken" />
		<tag k="ssr:stedsnr" v="762079" />
		<tag k="waterway" v="stream" />
	</node>
	<node id="-722996" lat="63.2363999975" lon="9.75041667425">
		<tag k="name" v="Aunbekken" />
		<tag k="ssr:stedsnr" v="762076" />
		<tag k="waterway" v="stream" />
	</node>
	<node id="-722995" lat="63.2573027786" lon="9.77323334181">
		<tag k="name" v="Kalvhåggåbekken" />
		<tag k="ssr:stedsnr" v="762065" />
		<tag k="waterway" v="stream" />
	</node>
	<node id="-720966" lat="63.4273277802" lon="9.42872777333">
		<tag k="name" v="Botntjørna" />
		<tag k="natural" v="water" />
		<tag k="ssr:stedsnr" v="497766" />
	</node>
	<node id="-720943" lat="63.2108749958" lon="9.77778888467">
		<tag k="name" v="Øran" />
		<tag k="place" v="islet" />
		<tag k="ssr:stedsnr" v="497190" />
	</node>
	<node id="-720942" lat="63.0146055571" lon="9.62358054862">
		<tag k="name" v="Storsya" />
		<tag k="ssr:stedsnr" v="497279" />
		<tag k="waterway" v="stream" />
	</node>
	<node id="-725037" lat="63.2977583295" lon="9.41424166627">
		<tag k="name" v="Styggdalsbekken" />
		<tag k="ssr:stedsnr" v="154301" />
		<tag k="waterway" v="stream" />
	</node>
	<node id="-721034" lat="63.429744441" lon="9.34446388443">
		<tag k="name" v="Litlevatnet" />
		<tag k="natural" v="water" />
		<tag k="ssr:stedsnr" v="376816" />
	</node>
	<node id="-725034" lat="63.3895388866" lon="9.32991389189">
		<tag k="name" v="Litldalstjørna" />
		<tag k="natural" v="water" />
		<tag k="ssr:stedsnr" v="154258" />
	</node>
	<node id="-723148" lat="63.1434361156" lon="9.54664721734">
		<tag k="name" v="Malisætertjønna" />
		<tag k="natural" v="water" />
		<tag k="ssr:stedsnr" v="923576" />
	</node>
	<node id="-722125" lat="63.0775000007" lon="9.47297777598">
		<tag k="name" v="Slåttbekken" />
		<tag k="ssr:stedsnr" v="574463" />
		<tag k="waterway" v="stream" />
	</node>
	<node id="-722982" lat="63.395508334" lon="9.41368334075">
		<tag k="name" v="Langvatna" />
		<tag k="natural" v="water" />
		<tag k="ssr:stedsnr" v="761505" />
		<tag k="water" v="lake" />
	</node>
	<node id="-724854" lat="63.4492555573" lon="9.51738056178">
		<tag k="name" v="Svartdalstjørna" />
		<tag k="natural" v="water" />
		<tag k="ssr:stedsnr" v="133788" />
	</node>
	<node id="-722977" lat="63.3914166674" lon="9.2695972185">
		<tag k="name" v="Innerelva" />
		<tag k="ssr:stedsnr" v="761204" />
		<tag k="waterway" v="river" />
	</node>
	<node id="-720928" lat="63.2100999962" lon="9.6139111192">
		<tag k="name" v="Dalbekken" />
		<tag k="ssr:stedsnr" v="338833" />
		<tag k="waterway" v="stream" />
	</node>
	<node id="-725023" lat="63.4073583347" lon="9.49946111797">
		<tag k="name" v="Ellingsbekken" />
		<tag k="ssr:stedsnr" v="154147" />
		<tag k="waterway" v="stream" />
	</node>
	<node id="-720926" lat="63.1827027771" lon="9.55796944694">
		<tag k="name" v="Klubben" />
		<tag k="place" v="islet" />
		<tag k="ssr:stedsnr" v="338812" />
	</node>
	<node id="-720924" lat="63.2735694474" lon="9.59343610137">
		<tag k="name" v="Kalvhåggåbekken" />
		<tag k="ssr:stedsnr" v="338773" />
		<tag k="waterway" v="stream" />
	</node>
	<node id="-720923" lat="63.2545388879" lon="9.64383889251">
		<tag k="name" v="Bakksætertjønna" />
		<tag k="natural" v="water" />
		<tag k="ssr:stedsnr" v="338769" />
	</node>
	<node id="-720922" lat="63.2569805549" lon="9.65748056197">
		<tag k="name" v="Sagbekken" />
		<tag k="ssr:stedsnr" v="338768" />
		<tag k="waterway" v="stream" />
	</node>
	<node id="-722968" lat="63.0483111098" lon="9.91358889171">
		<tag k="name" v="Midtortjønna" />
		<tag k="natural" v="water" />
		<tag k="ssr:stedsnr" v="757656" />
	</node>
	<node id="-722967" lat="63.1226805537" lon="9.6789361095">
		<tag k="name" v="Fagerlivatnet" />
		<tag k="natural" v="water" />
		<tag k="ssr:stedsnr" v="757714" />
		<tag k="water" v="lake" />
	</node>
	<node id="-721860" lat="63.5633916679" lon="9.52226389332">
		<tag k="name" v="Springarbekken" />
		<tag k="ssr:stedsnr" v="701178" />
		<tag k="waterway" v="stream" />
	</node>
	<node id="-725010" lat="63.3988472229" lon="9.60763611661">
		<tag k="name" v="Litlbekken" />
		<tag k="ssr:stedsnr" v="154072" />
		<tag k="waterway" v="stream" />
	</node>
	<node id="-722947" lat="63.5525444457" lon="9.77535556406">
		<tag k="name" v="Tverrlitjørna" />
		<tag k="natural" v="water" />
		<tag k="ssr:stedsnr" v="741653" />
	</node>
	<node id="-720911" lat="63.4868111122" lon="9.39195834105">
		<tag k="name" v="Elvaelva" />
		<tag k="ssr:stedsnr" v="336604" />
		<tag k="waterway" v="stream" />
	</node>
	<node id="-725005" lat="63.499116667" lon="9.41304999856">
		<tag k="name" v="Myrabekken" />
		<tag k="ssr:stedsnr" v="154038" />
		<tag k="waterway" v="stream" />
	</node>
	<node id="-722465" lat="63.0614166678" lon="9.52866110491">
		<tag k="name" v="Solemsbekken" />
		<tag k="ssr:stedsnr" v="878538" />
		<tag k="waterway" v="stream" />
	</node>
	<node id="-722549" lat="63.2308777734" lon="9.75824999898">
		<tag k="name" v="Byakjela" />
		<tag k="natural" v="water" />
		<tag k="ssr:stedsnr" v="679214" />
	</node>
	<node id="-720901" lat="63.5020222231" lon="9.42847776849">
		<tag k="name" v="Løftabekken" />
		<tag k="ssr:stedsnr" v="336045" />
		<tag k="waterway" v="stream" />
	</node>
	<node id="-724996" lat="63.1291388873" lon="9.68837500558">
		<tag k="name" v="Bjørnlivassdammen" />
		<tag k="ssr:stedsnr" v="150694" />
		<tag k="waterway" v="dam" />
	</node>
	<node id="-724995" lat="63.1159388896" lon="9.75398889748">
		<tag k="name" v="Gruvtjønna" />
		<tag k="natural" v="water" />
		<tag k="ssr:stedsnr" v="150685" />
	</node>
	<node id="-722946" lat="63.2558444444" lon="9.87817222001">
		<tag k="name" v="Lomtjønna" />
		<tag k="natural" v="water" />
		<tag k="ssr:stedsnr" v="741755" />
	</node>
</osm>
