<?xml version="1.0" encoding="UTF-8"?>
<osm version="0.6" generator="osmapis">
	<node lat="63.20125277868092" lon="9.726955558263498" id="-36108">
		<tag k="name" v="Dalen" />
		<tag k="place" v="farm" />
		<tag k="ssr:stedsnr" v="12209" />
	</node>
	<node lat="63.19969444465128" lon="9.769858341838685" id="-36109">
		<tag k="name" v="Vormstad" />
		<tag k="place" v="village" />
		<tag k="ssr:stedsnr" v="12210" />
	</node>
	<node lat="63.02973889248062" lon="9.552622230655455" id="-36112">
		<tag k="name" v="Systosætra" />
		<tag k="place" v="isolated_dwelling" />
		<tag k="ssr:stedsnr" v="12322" />
	</node>
	<node lat="63.16482189264495" lon="9.553431849926552" id="-36113">
		<tag k="fixme" v="consider place=hamlet" />
		<tag k="name" v="Sandvika" />
		<tag k="place" v="farm" />
		<tag k="ssr:stedsnr" v="12503" />
	</node>
	<node lat="63.17207859480666" lon="9.559268034785285" id="-36115">
		<tag k="fixme" v="consider place=hamlet" />
		<tag k="name" v="Stranda" />
		<tag k="place" v="farm" />
		<tag k="ssr:stedsnr" v="12516" />
	</node>
	<node lat="63.0849796450715" lon="9.760013095990805" id="-36116">
		<tag k="fixme" v="consider place=hamlet" />
		<tag k="name" v="Stollsmoen" />
		<tag k="place" v="farm" />
		<tag k="ssr:stedsnr" v="12520" />
	</node>
	<node lat="63.01810631461486" lon="9.752810432159606" id="-36117">
		<tag k="name" v="Sølberg" />
		<tag k="place" v="hamlet" />
		<tag k="ssr:stedsnr" v="12666" />
	</node>
	<node lat="63.387505557539626" lon="9.236594440979957" id="-36120">
		<tag k="fixme" v="consider place=hamlet" />
		<tag k="name" v="Tannvikvågen" />
		<tag k="place" v="village" />
		<tag k="ssr:stedsnr" v="12832" />
	</node>
	<node lat="63.47438055658212" lon="9.880652784301455" id="-36127">
		<tag k="name" v="Tangvika" />
		<tag k="old_name" v="Tangvik" />
		<tag k="place" v="isolated_dwelling" />
		<tag k="ssr:stedsnr" v="13072" />
	</node>
	<node lat="63.47278333415683" lon="9.89023610692732" id="-36128">
		<tag k="alt_name" v="Vikamoen" />
		<tag k="name" v="Vikamo" />
		<tag k="place" v="farm" />
		<tag k="ssr:stedsnr" v="13075" />
	</node>
	<node lat="63.446644441710546" lon="9.916977779770047" id="-36134">
		<tag k="name" v="Solberg" />
		<tag k="place" v="farm" />
		<tag k="ssr:stedsnr" v="13103" />
	</node>
	<node lat="63.430150000054205" lon="9.96397777132904" id="-36137">
		<tag k="name" v="Åsheim" />
		<tag k="place" v="farm" />
		<tag k="ssr:stedsnr" v="13117" />
	</node>
	<node lat="63.31426666227272" lon="9.796302769559317" id="-36144">
		<tag k="name" v="Dyndalshaugen" />
		<tag k="place" v="farm" />
		<tag k="ssr:stedsnr" v="13312" />
	</node>
	<node lat="63.2837388854625" lon="9.811191668280442" id="-36146">
		<tag k="name" v="Vollmoen" />
		<tag k="place" v="farm" />
		<tag k="ssr:stedsnr" v="13401" />
	</node>
	<node lat="63.55629159313805" lon="9.76142571470257" id="-36148">
		<tag k="fixme" v="consider place=hamlet" />
		<tag k="name" v="Størdal" />
		<tag k="place" v="farm" />
		<tag k="ssr:stedsnr" v="13622" />
	</node>
	<node lat="63.29851666541493" lon="9.739358338989888" id="-36150">
		<tag k="alt_name" v="Annølsøya" />
		<tag k="name" v="Øyan" />
		<tag k="place" v="farm" />
		<tag k="ssr:stedsnr" v="13369" />
	</node>
	<node lat="63.34780750740115" lon="9.728507309444705" id="-36151">
		<tag k="fixme" v="consider place=hamlet" />
		<tag k="name" v="Brølia" />
		<tag k="place" v="farm" />
		<tag k="ssr:stedsnr" v="13520" />
	</node>
	<node lat="63.039165038603045" lon="9.96067874183456" id="-36153">
		<tag k="historic" v="shieling" />
		<tag k="name" v="Fossætrin" />
		<tag k="place" v="isolated_dwelling" />
		<tag k="ssr:stedsnr" v="28368" />
	</node>
	<node lat="63.04966944770424" lon="9.879288895814037" id="-36154">
		<tag k="name" v="Holvollkneppet" />
		<tag k="place" v="isolated_dwelling" />
		<tag k="ssr:stedsnr" v="28708" />
	</node>
	<node lat="62.954652780673406" lon="9.556780561218872" id="-36166">
		<tag k="historic" v="shieling" />
		<tag k="name" v="Vollen" />
		<tag k="place" v="isolated_dwelling" />
		<tag k="ssr:stedsnr" v="29070" />
	</node>
	<node lat="62.97823333519596" lon="9.631308338073671" id="-36168">
		<tag k="name" v="Tisethytta" />
		<tag k="place" v="isolated_dwelling" />
		<tag k="ssr:stedsnr" v="29222" />
	</node>
	<node lat="63.122550003394856" lon="9.796541671145713" id="-36182">
		<tag k="name" v="Bjørkhaugen" />
		<tag k="place" v="locality" />
		<tag k="ssr:stedsnr" v="29312" />
	</node>
	<node lat="63.07362778074327" lon="9.486677778818505" id="-36196">
		<tag k="historic" v="shieling" />
		<tag k="name" v="Liasætra" />
		<tag k="place" v="isolated_dwelling" />
		<tag k="ssr:stedsnr" v="29423" />
	</node>
	<node lat="63.032322224792466" lon="9.695675007010584" id="-36203">
		<tag k="name" v="Systogjerdet" />
		<tag k="place" v="farm" />
		<tag k="ssr:stedsnr" v="29616" />
	</node>
	<node lat="63.03702499859972" lon="9.688855547790636" id="-36204">
		<tag k="name" v="Systoflotten" />
		<tag k="place" v="farm" />
		<tag k="ssr:stedsnr" v="29619" />
	</node>
	<node lat="63.13054166446398" lon="9.663661101934137" id="-36205">
		<tag k="name" v="Grana" />
		<tag k="place" v="farm" />
		<tag k="ssr:stedsnr" v="29605" />
	</node>
	<node lat="63.12574444608601" lon="9.685719446567985" id="-36206">
		<tag k="name" v="Gammelhåggån" />
		<tag k="place" v="farm" />
		<tag k="ssr:stedsnr" v="29606" />
	</node>
	<node lat="63.108700002955786" lon="9.590830550821847" id="-36208">
		<tag k="name" v="Lornshåggån" />
		<tag k="place" v="farm" />
		<tag k="ssr:stedsnr" v="29581" />
	</node>
	<node lat="63.27394791514192" lon="9.757842911735152" id="-36214">
		<tag k="fixme" v="consider place=hamlet" />
		<tag k="name" v="Nyhusan" />
		<tag k="place" v="farm" />
		<tag k="ssr:stedsnr" v="33011" />
	</node>
	<node lat="63.399941666921436" lon="9.503616663264465" id="-36215">
		<tag k="name" v="Å" />
		<tag k="place" v="farm" />
		<tag k="ssr:stedsnr" v="33016" />
	</node>
	<node lat="63.23072500436231" lon="9.750183335639868" id="-36247">
		<tag k="name" v="Lefstad" />
		<tag k="place" v="farm" />
		<tag k="ssr:stedsnr" v="34124" />
	</node>
	<node lat="63.26569166440576" lon="9.776602779312643" id="-36249">
		<tag k="name" v="Slettaunet" />
		<tag k="place" v="farm" />
		<tag k="ssr:stedsnr" v="34012" />
	</node>
	<node lat="63.277708333318344" lon="9.763394441601097" id="-36252">
		<tag k="fixme" v="consider place=hamlet" />
		<tag k="name" v="Svelstad" />
		<tag k="place" v="farm" />
		<tag k="ssr:stedsnr" v="34211" />
	</node>
	<node lat="63.16071944173326" lon="9.674363882456644" id="-36258">
		<tag k="name" v="Kvikne" />
		<tag k="place" v="farm" />
		<tag k="ssr:stedsnr" v="34591" />
	</node>
	<node lat="63.155863893103536" lon="9.652391656896537" id="-36259">
		<tag k="name" v="Vallstadmelan" />
		<tag k="place" v="farm" />
		<tag k="ssr:stedsnr" v="34600" />
	</node>
	<node lat="63.166380556783665" lon="9.733405556161316" id="-36271">
		<tag k="name" v="Haugagårdsøya" />
		<tag k="place" v="farm" />
		<tag k="ssr:stedsnr" v="35708" />
	</node>
	<node lat="63.57553333752463" lon="9.328322218058865" id="-36275">
		<tag k="fixme" v="consider place=hamlet" />
		<tag k="name" v="Sørleksa" />
		<tag k="place" v="village" />
		<tag k="ssr:stedsnr" v="37971" />
	</node>
	<node lat="63.48265000276902" lon="9.848469441001667" id="-36280">
		<tag k="name" v="Øverstu" />
		<tag k="place" v="farm" />
		<tag k="ssr:stedsnr" v="38015" />
	</node>
	<node lat="63.116077773645415" lon="9.631300009812598" id="-36307">
		<tag k="name" v="Sæterlia" />
		<tag k="place" v="farm" />
		<tag k="ssr:stedsnr" v="272541" />
	</node>
	<node lat="63.58168611055341" lon="9.518275009112559" id="-36309">
		<tag k="name" v="Vernes camping" />
		<tag k="ssr:stedsnr" v="40610" />
		<tag k="tourism" v="camp_site" />
	</node>
	<node lat="63.505450000348986" lon="9.820894447206928" id="-36311">
		<tag k="amenity" v="kindergarten" />
		<tag k="name" v="Lensvik barnehage" />
		<tag k="ssr:stedsnr" v="237572" />
	</node>
	<node lat="63.3769020431013" lon="9.31987944855498" id="-36312">
		<tag k="alt_name" v="Klungervik" />
		<tag k="fixme" v="consider place=hamlet" />
		<tag k="name" v="Klungervik ytre" />
		<tag k="place" v="farm" />
		<tag k="ssr:stedsnr" v="44974" />
	</node>
	<node lat="63.23838889187199" lon="9.509805557304917" id="-36316">
		<tag k="name" v="Kåsen" />
		<tag k="place" v="locality" />
		<tag k="ssr:stedsnr" v="55590" />
	</node>
	<node lat="63.24822499938034" lon="9.4736805567304" id="-36317">
		<tag k="alt_name" v="Foss-sætra" />
		<tag k="historic" v="shieling" />
		<tag k="name" v="Fossætra" />
		<tag k="place" v="isolated_dwelling" />
		<tag k="ssr:stedsnr" v="55593" />
	</node>
	<node lat="63.28707427266974" lon="9.626318258198095" id="-36320">
		<tag k="fixme" v="consider place=hamlet" />
		<tag k="name" v="Gangåsvassbygda" />
		<tag k="place" v="village" />
		<tag k="ssr:stedsnr" v="240544" />
	</node>
	<node lat="63.26271111309179" lon="9.745797222461093" id="-36321">
		<tag k="leisure" v="pitch" />
		<tag k="name" v="Knyken skisenter" />
		<tag k="ssr:stedsnr" v="240545" />
	</node>
	<node lat="63.433208329488046" lon="9.967949993234143" id="-36328">
		<tag k="name" v="Berget" />
		<tag k="place" v="farm" />
		<tag k="ssr:stedsnr" v="73108" />
	</node>
	<node lat="63.42240555593687" lon="9.968049999281337" id="-36329">
		<tag k="name" v="Langvika" />
		<tag k="place" v="farm" />
		<tag k="ssr:stedsnr" v="73117" />
	</node>
	<node lat="63.63598826274955" lon="9.695674202356354" id="-36331">
		<tag k="fixme" v="consider place=hamlet" />
		<tag k="name" v="Valset" />
		<tag k="place" v="farm" />
		<tag k="ssr:stedsnr" v="73071" />
	</node>
	<node lat="62.951866669499715" lon="9.678677787563016" id="-36332">
		<tag k="historic" v="shieling" />
		<tag k="name" v="Grøtengsætra" />
		<tag k="place" v="isolated_dwelling" />
		<tag k="ssr:stedsnr" v="73214" />
	</node>
	<node lat="63.21539117531976" lon="9.792089765517769" id="-36334">
		<tag k="name" v="Solbu" />
		<tag k="place" v="hamlet" />
		<tag k="ssr:stedsnr" v="73216" />
	</node>
	<node lat="63.223611111769564" lon="9.74831112012021" id="-36336">
		<tag k="name" v="Handbergmoen" />
		<tag k="place" v="farm" />
		<tag k="ssr:stedsnr" v="73223" />
	</node>
	<node lat="63.063454366391184" lon="9.629349240241842" id="-36338">
		<tag k="fixme" v="consider place=hamlet" />
		<tag k="name" v="Hove" />
		<tag k="place" v="farm" />
		<tag k="ssr:stedsnr" v="73366" />
	</node>
	<node lat="63.28159409772575" lon="9.777288123978737" id="-36339">
		<tag k="fixme" v="consider place=hamlet" />
		<tag k="name" v="Ustmo" />
		<tag k="place" v="farm" />
		<tag k="ssr:stedsnr" v="73374" />
	</node>
	<node lat="63.27862500307799" lon="9.83558611048101" id="-36340">
		<tag k="alt_name" v="Sorenskrivargard" />
		<tag k="name" v="Sorenskrivergården" />
		<tag k="place" v="farm" />
		<tag k="ssr:stedsnr" v="73378" />
	</node>
	<node lat="63.125819441625794" lon="9.705183331450652" id="-36343">
		<tag k="name" v="Løkken Verk" />
		<tag k="place" v="village" />
		<tag k="ssr:stedsnr" v="73511" />
	</node>
	<node lat="63.23444841875978" lon="9.643692183792911" id="-36345">
		<tag k="name" v="Myrhaug" />
		<tag k="place" v="farm" />
		<tag k="ssr:stedsnr" v="73610" />
	</node>
	<node lat="63.183804553893516" lon="9.479911759917496" id="-36346">
		<tag k="name" v="Risan" />
		<tag k="place" v="hamlet" />
		<tag k="ssr:stedsnr" v="73612" />
	</node>
	<node lat="63.189568366446615" lon="9.457359721012905" id="-36347">
		<tag k="fixme" v="consider place=hamlet" />
		<tag k="name" v="Stuggudalen" />
		<tag k="place" v="farm" />
		<tag k="ssr:stedsnr" v="73618" />
	</node>
	<node lat="63.24348344189338" lon="9.597719139631815" id="-36351">
		<tag k="alt_name" v="Eide" />
		<tag k="fixme" v="consider place=hamlet" />
		<tag k="name" v="Eidet" />
		<tag k="place" v="farm" />
		<tag k="ssr:stedsnr" v="73667" />
	</node>
	<node lat="63.01437777920397" lon="9.871063895710824" id="-36352">
		<tag k="historic" v="shieling" />
		<tag k="name" v="Jamtslættet" />
		<tag k="old_name" v="Jamtslettet" />
		<tag k="place" v="isolated_dwelling" />
		<tag k="ssr:stedsnr" v="73673" />
	</node>
	<node lat="63.46302778103853" lon="9.397944436697996" id="-36361">
		<tag k="alt_name" v="Skrevikhalsen;Skreivikhalsen" />
		<tag k="name" v="Skreivika" />
		<tag k="place" v="farm" />
		<tag k="ssr:stedsnr" v="73965" />
	</node>
	<node lat="63.30162778152544" lon="9.427316657673542" id="-36367">
		<tag k="historic" v="shieling" />
		<tag k="name" v="Kudalen" />
		<tag k="place" v="isolated_dwelling" />
		<tag k="ssr:stedsnr" v="74201" />
	</node>
	<node lat="63.359707925095755" lon="9.824100039854983" id="-36370">
		<tag k="fixme" v="consider place=hamlet" />
		<tag k="name" v="Kvernamoen" />
		<tag k="place" v="farm" />
		<tag k="ssr:stedsnr" v="74456" />
	</node>
	<node lat="63.27636666756872" lon="9.835644437302935" id="-36371">
		<tag k="fixme" v="consider place=hamlet" />
		<tag k="name" v="Kleivan" />
		<tag k="place" v="farm" />
		<tag k="ssr:stedsnr" v="74354" />
	</node>
	<node lat="63.55859444745184" lon="9.800963884178753" id="-36374">
		<tag k="alt_name" v="Lauvvika" />
		<tag k="name" v="Løvika" />
		<tag k="place" v="farm" />
		<tag k="ssr:stedsnr" v="74613" />
	</node>
	<node lat="63.51348025893448" lon="9.784038636089871" id="-36375">
		<tag k="fixme" v="consider place=hamlet" />
		<tag k="name" v="Landrø" />
		<tag k="place" v="farm" />
		<tag k="ssr:stedsnr" v="74654" />
	</node>
	<node lat="63.128186113795294" lon="9.709966661325636" id="-36400">
		<tag k="name" v="Sørgjerdet" />
		<tag k="place" v="farm" />
		<tag k="ssr:stedsnr" v="89599" />
	</node>
	<node lat="63.02130277527661" lon="9.707311119151518" id="-36401">
		<tag k="fixme" v="consider place=hamlet" />
		<tag k="name" v="Hillstad" />
		<tag k="place" v="farm" />
		<tag k="ssr:stedsnr" v="89706" />
	</node>
	<node lat="63.10928889006481" lon="9.59591944865107" id="-36406">
		<tag k="name" v="Kariberget" />
		<tag k="place" v="farm" />
		<tag k="ssr:stedsnr" v="89603" />
	</node>
	<node lat="63.13025277777263" lon="9.606755561477598" id="-36407">
		<tag k="name" v="Blåkkåhaugen" />
		<tag k="place" v="farm" />
		<tag k="ssr:stedsnr" v="89606" />
	</node>
	<node lat="63.09589166252414" lon="9.69593888717435" id="-36408">
		<tag k="name" v="Skarpmoen" />
		<tag k="place" v="farm" />
		<tag k="ssr:stedsnr" v="89668" />
	</node>
	<node lat="63.0840194435964" lon="9.614936101265261" id="-36409">
		<tag k="name" v="Marihåggån" />
		<tag k="place" v="farm" />
		<tag k="ssr:stedsnr" v="89672" />
	</node>
	<node lat="63.09464999739818" lon="9.59944999278296" id="-36410">
		<tag k="name" v="Brubakkhåggån" />
		<tag k="place" v="farm" />
		<tag k="ssr:stedsnr" v="89673" />
	</node>
	<node lat="63.01654719589952" lon="9.75485585596729" id="-36414">
		<tag k="fixme" v="consider place=hamlet" />
		<tag k="name" v="Sølberg" />
		<tag k="place" v="farm" />
		<tag k="ssr:stedsnr" v="89695" />
	</node>
	<node lat="63.10517777605981" lon="9.70811388163375" id="-36415">
		<tag k="name" v="Sagegga" />
		<tag k="place" v="farm" />
		<tag k="ssr:stedsnr" v="89616" />
	</node>
	<node lat="63.31459999988152" lon="9.533586119135661" id="-36425">
		<tag k="name" v="Langlidalshytta" />
		<tag k="place" v="isolated_dwelling" />
		<tag k="ssr:stedsnr" v="93375" />
	</node>
	<node lat="63.283919443262526" lon="9.786280562975453" id="-36433">
		<tag k="name" v="Nystuggu" />
		<tag k="place" v="farm" />
		<tag k="ssr:stedsnr" v="94018" />
	</node>
	<node lat="63.26454444887237" lon="9.794363881505248" id="-36434">
		<tag k="fixme" v="consider place=hamlet" />
		<tag k="name" v="Forve" />
		<tag k="place" v="farm" />
		<tag k="ssr:stedsnr" v="94063" />
	</node>
	<node lat="63.247527781899954" lon="9.769061105232826" id="-36436">
		<tag k="name" v="Kvålsvoll" />
		<tag k="place" v="farm" />
		<tag k="ssr:stedsnr" v="94084" />
	</node>
	<node lat="63.261186106868664" lon="9.810072226936379" id="-36437">
		<tag k="amenity" v="school" />
		<tag k="name" v="Grøtte skole" />
		<tag k="ssr:stedsnr" v="94104" />
	</node>
	<node lat="63.27749166810253" lon="9.735177784779326" id="-36445">
		<tag k="fixme" v="consider place=hamlet" />
		<tag k="name" v="Solem" />
		<tag k="place" v="farm" />
		<tag k="ssr:stedsnr" v="94284" />
	</node>
	<node lat="63.27800277666553" lon="9.73088056219089" id="-36446">
		<tag k="name" v="Solemsli" />
		<tag k="place" v="farm" />
		<tag k="ssr:stedsnr" v="94286" />
	</node>
	<node lat="63.36570000243462" lon="9.92767777697987" id="-36451">
		<tag k="fixme" v="consider place=hamlet" />
		<tag k="name" v="Nordåstan" />
		<tag k="place" v="farm" />
		<tag k="ssr:stedsnr" v="94466" />
	</node>
	<node lat="63.30026944523834" lon="9.84761943840073" id="-36456">
		<tag k="alt_name" v="Grindplassen" />
		<tag k="name" v="Rosenvik" />
		<tag k="place" v="farm" />
		<tag k="ssr:stedsnr" v="94520" />
	</node>
	<node lat="63.41677777354135" lon="9.966533337710493" id="-36461">
		<tag k="fixme" v="consider place=hamlet" />
		<tag k="name" v="Nerkjøra" />
		<tag k="place" v="village" />
		<tag k="ssr:stedsnr" v="94764" />
	</node>
	<node lat="63.19727222520372" lon="9.574427784766334" id="-36468">
		<tag k="name" v="Utigard" />
		<tag k="place" v="farm" />
		<tag k="ssr:stedsnr" v="95810" />
	</node>
	<node lat="63.16969999983848" lon="9.742530548782286" id="-36476">
		<tag k="name" v="Volløyan" />
		<tag k="place" v="quarter" />
		<tag k="ssr:stedsnr" v="96226" />
	</node>
	<node lat="63.15754999788535" lon="9.833558330284362" id="-36477">
		<tag k="name" v="Bøverdalshaugen" />
		<tag k="place" v="isolated_dwelling" />
		<tag k="ssr:stedsnr" v="96381" />
	</node>
	<node lat="63.1590194483787" lon="9.732961108669347" id="-36478">
		<tag k="name" v="Klingstuggu" />
		<tag k="place" v="farm" />
		<tag k="ssr:stedsnr" v="96671" />
	</node>
	<node lat="63.45642777493426" lon="9.902652774610628" id="-36493">
		<tag k="name" v="Meland" />
		<tag k="place" v="farm" />
		<tag k="ssr:stedsnr" v="99073" />
	</node>
	<node lat="63.611036112209064" lon="9.696861104088173" id="-36495">
		<tag k="name" v="Selven" />
		<tag k="place" v="farm" />
		<tag k="ssr:stedsnr" v="99210" />
	</node>
	<node lat="63.61369444852719" lon="9.586388884159359" id="-36502">
		<tag k="name" v="Raustein" />
		<tag k="place" v="farm" />
		<tag k="ssr:stedsnr" v="99461" />
	</node>
	<node lat="63.13058333170573" lon="9.709008332198762" id="-36514">
		<tag k="leisure" v="pitch" />
		<tag k="name" v="Løkken stadion" />
		<tag k="ssr:stedsnr" v="100527" />
	</node>
	<node lat="63.39939166777785" lon="9.513041662840388" id="-36515">
		<tag k="building" v="commercial" />
		<tag k="name" v="Krokstadøra bensinstasjon" />
		<tag k="ssr:stedsnr" v="100686" />
	</node>
	<node lat="63.072530556843496" lon="9.623319444008484" id="-36516">
		<tag k="building" v="industrial" />
		<tag k="name" v="Meldal gjenbrukstorg" />
		<tag k="ssr:stedsnr" v="100564" />
	</node>
	<node lat="63.234111109501974" lon="9.438561112798668" id="-36519">
		<tag k="name" v="Svelihaugen" />
		<tag k="place" v="farm" />
		<tag k="ssr:stedsnr" v="116621" />
	</node>
	<node lat="63.50617499746881" lon="9.800480560994371" id="-36520">
		<tag k="leisure" v="pitch" />
		<tag k="name" v="Åsmyra fotballstadion" />
		<tag k="ssr:stedsnr" v="116568" />
	</node>
	<node lat="62.97662221898026" lon="9.55473333083952" id="-36522">
		<tag k="alt_name" v="Mjukinnsætra" />
		<tag k="name" v="Mjuksætra" />
		<tag k="place" v="isolated_dwelling" />
		<tag k="ssr:stedsnr" v="133125" />
	</node>
	<node lat="63.17049199899842" lon="9.805761588784474" id="-36523">
		<tag k="fixme" v="consider place=hamlet" />
		<tag k="name" v="Aunet" />
		<tag k="place" v="farm" />
		<tag k="ssr:stedsnr" v="133126" />
	</node>
	<node lat="63.14502500384983" lon="9.633202783687809" id="-36529">
		<tag k="name" v="Helliaunet" />
		<tag k="place" v="isolated_dwelling" />
		<tag k="ssr:stedsnr" v="133506" />
	</node>
	<node lat="63.09353055374345" lon="9.72549445287149" id="-36530">
		<tag k="name" v="Skarålia" />
		<tag k="place" v="farm" />
		<tag k="ssr:stedsnr" v="133509" />
	</node>
	<node lat="63.24354167034146" lon="9.813766673269619" id="-36532">
		<tag k="alt_name" v="Megardslia" />
		<tag k="name" v="Medgardslykkja" />
		<tag k="place" v="farm" />
		<tag k="ssr:stedsnr" v="133272" />
	</node>
	<node lat="63.08832413611092" lon="9.936622719156055" id="-36536">
		<tag k="fixme" v="consider place=hamlet" />
		<tag k="name" v="Litlnæve" />
		<tag k="place" v="farm" />
		<tag k="ssr:stedsnr" v="133476" />
	</node>
	<node lat="63.24316106069805" lon="9.703253490971601" id="-36538">
		<tag k="alt_name" v="Lillery" />
		<tag k="fixme" v="consider place=hamlet" />
		<tag k="name" v="Litlry" />
		<tag k="place" v="farm" />
		<tag k="ssr:stedsnr" v="133555" />
	</node>
	<node lat="63.433608333208674" lon="9.45567500446287" id="-36542">
		<tag k="alt_name" v="Gammelsetra" />
		<tag k="historic" v="shieling" />
		<tag k="name" v="Gammalsætra" />
		<tag k="place" v="isolated_dwelling" />
		<tag k="ssr:stedsnr" v="133768" />
	</node>
	<node lat="63.27801110739218" lon="9.67642500779707" id="-36544">
		<tag k="fixme" v="multiple name tags, choose one and add the other to alt_name" />
		<tag k="name" v="Gjønneshaugen;Haugan" />
		<tag k="place" v="farm" />
		<tag k="ssr:stedsnr" v="134010" />
	</node>
	<node lat="63.48095277348165" lon="9.785838881275277" id="-36545">
		<tag k="alt_name" v="Slætta" />
		<tag k="name" v="Sletta" />
		<tag k="place" v="farm" />
		<tag k="ssr:stedsnr" v="134067" />
	</node>
	<node lat="63.182418506683945" lon="9.747514345553974" id="-36548">
		<tag k="name" v="Aspølan" />
		<tag k="place" v="hamlet" />
		<tag k="ssr:stedsnr" v="134216" />
	</node>
	<node lat="63.461394446076866" lon="9.339166657433175" id="-36551">
		<tag k="alt_name" v="Stålvik" />
		<tag k="name" v="Stålvika" />
		<tag k="place" v="farm" />
		<tag k="ssr:stedsnr" v="133966" />
	</node>
	<node lat="63.436616665375986" lon="9.973497217404551" id="-36552">
		<tag k="name" v="Jostu" />
		<tag k="place" v="farm" />
		<tag k="ssr:stedsnr" v="134118" />
	</node>
	<node lat="63.434625004295874" lon="9.951341672429221" id="-36553">
		<tag k="name" v="Sandberg" />
		<tag k="place" v="farm" />
		<tag k="ssr:stedsnr" v="134120" />
	</node>
	<node lat="63.306983332123124" lon="9.774313895635972" id="-36557">
		<tag k="name" v="Kjellarenget" />
		<tag k="place" v="farm" />
		<tag k="ssr:stedsnr" v="134353" />
	</node>
	<node lat="63.29265555425412" lon="9.71908889854113" id="-36558">
		<tag k="alt_name" v="Fossengard;Foss" />
		<tag k="fixme" v="consider place=hamlet" />
		<tag k="name" v="Fossen" />
		<tag k="place" v="farm" />
		<tag k="ssr:stedsnr" v="134361" />
	</node>
	<node lat="63.29246944438698" lon="9.81331111814334" id="-36560">
		<tag k="name" v="Ustsætra" />
		<tag k="place" v="farm" />
		<tag k="ssr:stedsnr" v="134373" />
	</node>
	<node lat="63.28262871693849" lon="9.844279663452534" id="-36561">
		<tag k="alt_name" v="Gymnas" />
		<tag k="amenity" v="school" />
		<tag k="name" v="Orkdal videregående skole" />
		<tag k="old_name" v="Orkdal gymnas" />
		<tag k="ssr:stedsnr" v="134416" />
	</node>
	<node lat="63.28343000383055" lon="9.861122399680964" id="-36562">
		<tag k="fixme" v="consider place=hamlet" />
		<tag k="name" v="Espa" />
		<tag k="place" v="farm" />
		<tag k="ssr:stedsnr" v="134417" />
	</node>
	<node lat="63.255893739766044" lon="9.774633811062703" id="-36567">
		<tag k="fixme" v="consider place=hamlet" />
		<tag k="name" v="Ødyn" />
		<tag k="place" v="farm" />
		<tag k="ssr:stedsnr" v="134709" />
	</node>
	<node lat="63.62562222073056" lon="9.733827768684241" id="-36569">
		<tag k="name" v="Breivika" />
		<tag k="place" v="farm" />
		<tag k="ssr:stedsnr" v="134907" />
	</node>
	<node lat="63.046505557092516" lon="9.893697216953763" id="-36576">
		<tag k="historic" v="shieling" />
		<tag k="name" v="Rikstosætra" />
		<tag k="place" v="isolated_dwelling" />
		<tag k="ssr:stedsnr" v="254566" />
	</node>
	<node lat="63.15913888706355" lon="9.760524997927842" id="-36579">
		<tag k="name" v="Sprangflotten" />
		<tag k="place" v="farm" />
		<tag k="ssr:stedsnr" v="255134" />
	</node>
	<node lat="63.19677777631265" lon="9.731713889251894" id="-36582">
		<tag k="name" v="Håggån" />
		<tag k="place" v="farm" />
		<tag k="ssr:stedsnr" v="255198" />
	</node>
	<node lat="63.32600968941576" lon="9.829674334798497" id="-36583">
		<tag k="fixme" v="consider place=hamlet" />
		<tag k="name" v="Roven" />
		<tag k="place" v="farm" />
		<tag k="ssr:stedsnr" v="255288" />
	</node>
	<node lat="63.166794443282285" lon="9.763302774158594" id="-36584">
		<tag k="name" v="Berga" />
		<tag k="place" v="farm" />
		<tag k="ssr:stedsnr" v="255144" />
	</node>
	<node lat="63.16518055535411" lon="9.80819444579319" id="-36585">
		<tag k="fixme" v="consider place=hamlet" />
		<tag k="name" v="Bøverlia" />
		<tag k="place" v="farm" />
		<tag k="ssr:stedsnr" v="255146" />
	</node>
	<node lat="62.95842822392245" lon="9.527734717863886" id="-36586">
		<tag k="name" v="Resheim" />
		<tag k="place" v="isolated_dwelling" />
		<tag k="ssr:stedsnr" v="255154" />
	</node>
	<node lat="63.35207222358331" lon="9.632041663353856" id="-36587">
		<tag k="name" v="Stokksætra" />
		<tag k="place" v="locality" />
		<tag k="ssr:stedsnr" v="255157" />
	</node>
	<node lat="62.95118055392708" lon="9.591741668059667" id="-36588">
		<tag k="historic" v="shieling" />
		<tag k="name" v="Kjerstosætra" />
		<tag k="place" v="isolated_dwelling" />
		<tag k="ssr:stedsnr" v="255159" />
	</node>
	<node lat="63.23057729001099" lon="9.796541320513793" id="-36589">
		<tag k="fixme" v="consider place=hamlet" />
		<tag k="name" v="Høston" />
		<tag k="place" v="farm" />
		<tag k="ssr:stedsnr" v="255240" />
	</node>
	<node lat="62.921274995678296" lon="9.541755563090145" id="-36591">
		<tag k="name" v="Ågjerdsætra" />
		<tag k="place" v="isolated_dwelling" />
		<tag k="ssr:stedsnr" v="255246" />
	</node>
	<node lat="63.05469166767684" lon="9.63571388437415" id="-36595">
		<tag k="name" v="Blåkkåskaret" />
		<tag k="place" v="isolated_dwelling" />
		<tag k="ssr:stedsnr" v="255349" />
	</node>
	<node lat="63.07000277565396" lon="9.616300002527163" id="-36598">
		<tag k="name" v="Fossvollan" />
		<tag k="place" v="farm" />
		<tag k="ssr:stedsnr" v="255387" />
	</node>
	<node lat="63.10882438675777" lon="9.59251038755724" id="-36600">
		<tag k="fixme" v="consider place=hamlet" />
		<tag k="name" v="Halset" />
		<tag k="place" v="farm" />
		<tag k="ssr:stedsnr" v="255434" />
	</node>
	<node lat="63.10803327204861" lon="9.680405211436172" id="-36603">
		<tag k="fixme" v="consider place=hamlet" />
		<tag k="name" v="Snuruåsen" />
		<tag k="place" v="farm" />
		<tag k="ssr:stedsnr" v="255450" />
	</node>
	<node lat="63.10415629805647" lon="9.585165513873848" id="-36605">
		<tag k="fixme" v="consider place=hamlet" />
		<tag k="name" v="Litlåsen" />
		<tag k="place" v="farm" />
		<tag k="ssr:stedsnr" v="255453" />
	</node>
	<node lat="63.084969448486646" lon="9.732111101918722" id="-36607">
		<tag k="historic" v="shieling" />
		<tag k="name" v="Frillsjøsætra" />
		<tag k="place" v="isolated_dwelling" />
		<tag k="ssr:stedsnr" v="255524" />
	</node>
	<node lat="63.15328611238526" lon="9.461174998937674" id="-36610">
		<tag k="name" v="Høglisætra" />
		<tag k="place" v="isolated_dwelling" />
		<tag k="ssr:stedsnr" v="255501" />
	</node>
	<node lat="63.23504301209012" lon="9.60547544669042" id="-36612">
		<tag k="fixme" v="consider place=hamlet" />
		<tag k="name" v="Bjørklia" />
		<tag k="place" v="farm" />
		<tag k="ssr:stedsnr" v="255596" />
	</node>
	<node lat="63.19647375731" lon="9.698667708522779" id="-36613">
		<tag k="fixme" v="consider place=hamlet" />
		<tag k="name" v="Ry" />
		<tag k="place" v="farm" />
		<tag k="ssr:stedsnr" v="255605" />
	</node>
	<node lat="63.41743055697" lon="9.528424992904437" id="-36616">
		<tag k="name" v="Hesthaugen" />
		<tag k="place" v="farm" />
		<tag k="ssr:stedsnr" v="255778" />
	</node>
	<node lat="63.08991110764465" lon="9.747680554882216" id="-36619">
		<tag k="alt_name" v="Karlstadsætra;Kallstadsætra" />
		<tag k="historic" v="shieling" />
		<tag k="name" v="Kalstadsætra" />
		<tag k="place" v="isolated_dwelling" />
		<tag k="ssr:stedsnr" v="255553" />
	</node>
	<node lat="63.15760287547981" lon="9.692393245122547" id="-36620">
		<tag k="fixme" v="consider place=hamlet" />
		<tag k="name" v="Svinsøya" />
		<tag k="place" v="farm" />
		<tag k="ssr:stedsnr" v="255558" />
	</node>
	<node lat="63.22206543992175" lon="9.63044589721106" id="-36621">
		<tag k="alt_name" v="Vasslibakkan" />
		<tag k="fixme" v="consider place=hamlet" />
		<tag k="name" v="Vasslia" />
		<tag k="place" v="farm" />
		<tag k="ssr:stedsnr" v="255561" />
	</node>
	<node lat="63.440513884785524" lon="9.306066674837476" id="-36632">
		<tag k="alt_name" v="Fætten" />
		<tag k="fixme" v="consider place=hamlet" />
		<tag k="name" v="Feta" />
		<tag k="place" v="farm" />
		<tag k="ssr:stedsnr" v="255841" />
	</node>
	<node lat="63.36328611029241" lon="9.575430559178159" id="-36638">
		<tag k="name" v="Myrheim" />
		<tag k="place" v="farm" />
		<tag k="ssr:stedsnr" v="256133" />
	</node>
	<node lat="63.3083444473576" lon="9.558911110940914" id="-36641">
		<tag k="name" v="Nova" />
		<tag k="place" v="isolated_dwelling" />
		<tag k="ssr:stedsnr" v="256198" />
	</node>
	<node lat="63.289844448361436" lon="9.626411102968866" id="-36643">
		<tag k="fixme" v="consider place=hamlet" />
		<tag k="name" v="Halsteinli" />
		<tag k="old_name" v="Halsteili" />
		<tag k="place" v="farm" />
		<tag k="ssr:stedsnr" v="256238" />
	</node>
	<node lat="63.05825555653733" lon="9.983588881534416" id="-36645">
		<tag k="historic" v="shieling" />
		<tag k="name" v="Djuplilykkja" />
		<tag k="place" v="isolated_dwelling" />
		<tag k="ssr:stedsnr" v="149359" />
	</node>
	<node lat="63.28345285068846" lon="9.608132653799064" id="-36648">
		<tag k="fixme" v="consider place=hamlet" />
		<tag k="name" v="Sæterbakk" />
		<tag k="place" v="farm" />
		<tag k="ssr:stedsnr" v="256249" />
	</node>
	<node lat="63.31426655349629" lon="9.805111202725858" id="-36649">
		<tag k="fixme" v="consider place=hamlet" />
		<tag k="name" v="Skjenald" />
		<tag k="place" v="farm" />
		<tag k="ssr:stedsnr" v="256253" />
	</node>
	<node lat="63.318633382238346" lon="9.876576785318116" id="-36650">
		<tag k="alt_name" v="Tamshamn" />
		<tag k="name" v="Thamshamn" />
		<tag k="place" v="quarter" />
		<tag k="ssr:stedsnr" v="256284" />
	</node>
	<node lat="63.42598999031175" lon="9.194235032952927" id="-36654">
		<tag k="fixme" v="consider place=hamlet" />
		<tag k="name" v="Stokkaunet" />
		<tag k="place" v="farm" />
		<tag k="ssr:stedsnr" v="256381" />
	</node>
	<node lat="63.08068055718692" lon="9.610686114252573" id="-36662">
		<tag k="name" v="Marirønningen" />
		<tag k="place" v="quarter" />
		<tag k="ssr:stedsnr" v="150208" />
	</node>
	<node lat="63.36352500197534" lon="9.8892333352899" id="-36666">
		<tag k="alt_name" v="Lykkjflata" />
		<tag k="name" v="Lykkjeflata" />
		<tag k="place" v="farm" />
		<tag k="ssr:stedsnr" v="256417" />
	</node>
	<node lat="63.36433611436319" lon="9.844052781720453" id="-36673">
		<tag k="name" v="Bakken" />
		<tag k="place" v="farm" />
		<tag k="ssr:stedsnr" v="256419" />
	</node>
	<node lat="63.33339999925611" lon="9.74181111692379" id="-36675">
		<tag k="alt_name" v="Tungnaustvollen" />
		<tag k="name" v="Naustvollen" />
		<tag k="place" v="isolated_dwelling" />
		<tag k="ssr:stedsnr" v="256431" />
	</node>
	<node lat="63.043133332613586" lon="9.722202774336209" id="-36677">
		<tag k="amenity" v="nursing_home" />
		<tag k="name" v="Meldal sykehjem" />
		<tag k="ssr:stedsnr" v="150408" />
	</node>
	<node lat="62.99235288186933" lon="9.760714739613357" id="-36684">
		<tag k="name" v="Hol" />
		<tag k="place" v="hamlet" />
		<tag k="ssr:stedsnr" v="150612" />
	</node>
	<node lat="62.977586113098795" lon="9.752483337541657" id="-36685">
		<tag k="name" v="Bakkgjerdet" />
		<tag k="place" v="farm" />
		<tag k="ssr:stedsnr" v="150618" />
	</node>
	<node lat="62.9805972226158" lon="9.738758342268842" id="-36687">
		<tag k="fixme" v="consider place=hamlet" />
		<tag k="name" v="Båggåvoll" />
		<tag k="place" v="farm" />
		<tag k="ssr:stedsnr" v="150620" />
	</node>
	<node lat="63.130958337158326" lon="9.706283343326799" id="-36693">
		<tag k="fixme" v="consider place=hamlet" />
		<tag k="name" v="Langeng" />
		<tag k="place" v="farm" />
		<tag k="ssr:stedsnr" v="150562" />
	</node>
	<node lat="63.12903055554747" lon="9.707099998128843" id="-36694">
		<tag k="name" v="Stensmoen" />
		<tag k="place" v="farm" />
		<tag k="ssr:stedsnr" v="150563" />
	</node>
	<node lat="63.27088466992296" lon="9.787117586774743" id="-36695">
		<tag k="alt_name" v="Kråkdal" />
		<tag k="fixme" v="consider place=hamlet" />
		<tag k="name" v="Kråkdalen" />
		<tag k="place" v="farm" />
		<tag k="ssr:stedsnr" v="256330" />
	</node>
	<node lat="63.131905558441936" lon="9.847891662065805" id="-36696">
		<tag k="name" v="Litlhåggån" />
		<tag k="place" v="farm" />
		<tag k="ssr:stedsnr" v="150653" />
	</node>
	<node lat="63.56811944725622" lon="9.789736113584782" id="-36697">
		<tag k="alt_name" v="Åremmen" />
		<tag k="name" v="Årstein" />
		<tag k="place" v="farm" />
		<tag k="ssr:stedsnr" v="256486" />
	</node>
	<node lat="63.252575001810655" lon="9.728925000444189" id="-36698">
		<tag k="name" v="Fosslykkja" />
		<tag k="place" v="farm" />
		<tag k="ssr:stedsnr" v="256662" />
	</node>
	<node lat="63.26649376253918" lon="9.81579004103647" id="-36700">
		<tag k="fixme" v="consider place=suburb, village or hamlet" />
		<tag k="name" v="Fannrem" />
		<tag k="place" v="quarter" />
		<tag k="ssr:stedsnr" v="256707" />
	</node>
	<node lat="63.38770277860031" lon="9.23808611888067" id="-36711">
		<tag k="name" v="Unnlendet" />
		<tag k="place" v="farm" />
		<tag k="ssr:stedsnr" v="154223" />
	</node>
	<node lat="63.34759444621572" lon="9.423050009784442" id="-36717">
		<tag k="name" v="Østeråkeren" />
		<tag k="place" v="farm" />
		<tag k="ssr:stedsnr" v="154509" />
	</node>
	<node lat="63.25881666314189" lon="9.752941670931785" id="-36724">
		<tag k="name" v="Egglykkja" />
		<tag k="place" v="farm" />
		<tag k="ssr:stedsnr" v="155012" />
	</node>
	<node lat="63.270079809801906" lon="9.80005165515011" id="-36725">
		<tag k="fixme" v="consider place=hamlet" />
		<tag k="name" v="Ferjstad" />
		<tag k="place" v="farm" />
		<tag k="ssr:stedsnr" v="155054" />
	</node>
	<node lat="63.361305559473955" lon="9.920886105794452" id="-36729">
		<tag k="name" v="Rønningen" />
		<tag k="place" v="farm" />
		<tag k="ssr:stedsnr" v="155404" />
	</node>
	<node lat="63.34472777740843" lon="9.882613880789535" id="-36742">
		<tag k="fixme" v="consider place=hamlet" />
		<tag k="name" v="Almlia" />
		<tag k="place" v="farm" />
		<tag k="ssr:stedsnr" v="155388" />
	</node>
	<node lat="63.340791669235244" lon="9.873402786292628" id="-36743">
		<tag k="name" v="Nebba" />
		<tag k="place" v="farm" />
		<tag k="ssr:stedsnr" v="155389" />
	</node>
	<node lat="63.248805554967966" lon="9.822061108237216" id="-36755">
		<tag k="name" v="Leirvegen" />
		<tag k="place" v="farm" />
		<tag k="ssr:stedsnr" v="156107" />
	</node>
	<node lat="63.233297221561415" lon="9.642288896202688" id="-36757">
		<tag k="fixme" v="consider place=hamlet" />
		<tag k="name" v="Myra" />
		<tag k="place" v="farm" />
		<tag k="ssr:stedsnr" v="156757" />
	</node>
	<node lat="63.22371110967102" lon="9.64001943941416" id="-36766">
		<tag k="name" v="Ingebriktstuggu" />
		<tag k="place" v="farm" />
		<tag k="ssr:stedsnr" v="156860" />
	</node>
	<node lat="63.50440277629591" lon="9.813452783181438" id="-36780">
		<tag k="name" v="Øverle" />
		<tag k="place" v="farm" />
		<tag k="ssr:stedsnr" v="159248" />
	</node>
	<node lat="63.515338891973606" lon="9.798222222191333" id="-36784">
		<tag k="alt_name" v="Haugen øvre" />
		<tag k="name" v="Øvre Haugen" />
		<tag k="place" v="farm" />
		<tag k="ssr:stedsnr" v="159399" />
	</node>
	<node lat="63.09637222644337" lon="9.69199166198518" id="-36788">
		<tag k="landuse" v="winter_sports" />
		<tag k="name" v="Steigalia skitrekk" />
		<tag k="piste:type" v="downhill" />
		<tag k="ssr:stedsnr" v="161557" />
	</node>
	<node lat="63.04592499816942" lon="9.711338894817256" id="-36789">
		<tag k="amenity" v="townhall" />
		<tag k="name" v="Meldal kommunehus" />
		<tag k="old_name" v="Meldal rådhus" />
		<tag k="ssr:stedsnr" v="161561" />
	</node>
	<node lat="63.13095833230368" lon="9.654872225026805" id="-36798">
		<tag k="name" v="Fagerlidalen" />
		<tag k="place" v="farm" />
		<tag k="ssr:stedsnr" v="272557" />
	</node>
	<node lat="63.262567146805864" lon="9.84268193741857" id="-36801">
		<tag k="name" v="Tuflåt" />
		<tag k="place" v="farm" />
		<tag k="ssr:stedsnr" v="180481" />
	</node>
	<node lat="63.05418611252334" lon="9.672258331548557" id="-36803">
		<tag k="name" v="Engly" />
		<tag k="place" v="farm" />
		<tag k="ssr:stedsnr" v="272564" />
	</node>
	<node lat="63.08146834415281" lon="9.548419198031995" id="-36805">
		<tag k="fixme" v="consider place=hamlet" />
		<tag k="name" v="Hauklia" />
		<tag k="place" v="farm" />
		<tag k="ssr:stedsnr" v="263152" />
	</node>
	<node lat="62.956897218328436" lon="9.690172216510021" id="-36828">
		<tag k="historic" v="shieling" />
		<tag k="name" v="Rønningen" />
		<tag k="place" v="isolated_dwelling" />
		<tag k="ssr:stedsnr" v="211174" />
	</node>
	<node lat="63.08657499864497" lon="9.623905551346475" id="-36833">
		<tag k="name" v="Litjgryta" />
		<tag k="place" v="isolated_dwelling" />
		<tag k="ssr:stedsnr" v="211195" />
	</node>
	<node lat="63.13608888467681" lon="9.76986945212201" id="-36842">
		<tag k="name" v="Pettershåggån" />
		<tag k="place" v="locality" />
		<tag k="ssr:stedsnr" v="211276" />
	</node>
	<node lat="63.1376083345858" lon="9.768869444553797" id="-36843">
		<tag k="name" v="Tjønnåsen" />
		<tag k="place" v="locality" />
		<tag k="ssr:stedsnr" v="211277" />
	</node>
	<node lat="63.04628474585856" lon="9.71029558118249" id="-36851">
		<tag k="building" v="industrial" />
		<tag k="industrial" v="factory" />
		<tag k="name" v="Meldal meieri" />
		<tag k="ssr:stedsnr" v="211428" />
	</node>
	<node lat="63.1539638900624" lon="9.461061101755725" id="-36858">
		<tag k="fixme" v="consider place=hamlet" />
		<tag k="name" v="Høglia" />
		<tag k="place" v="farm" />
		<tag k="ssr:stedsnr" v="211355" />
	</node>
	<node lat="63.110614086000176" lon="9.704755191396313" id="-36872">
		<tag k="fixme" v="consider place=hamlet" />
		<tag k="name" v="Haugen" />
		<tag k="place" v="farm" />
		<tag k="ssr:stedsnr" v="211592" />
	</node>
	<node lat="63.10241111123767" lon="9.47761389231002" id="-36873">
		<tag k="name" v="Garberg" />
		<tag k="place" v="farm" />
		<tag k="ssr:stedsnr" v="211623" />
	</node>
	<node lat="63.09897777792657" lon="9.444925001958875" id="-36874">
		<tag k="fixme" v="consider place=hamlet" />
		<tag k="name" v="Litjholtan" />
		<tag k="place" v="farm" />
		<tag k="ssr:stedsnr" v="211626" />
	</node>
	<node lat="63.01519166806153" lon="9.756361117869206" id="-36877">
		<tag k="name" v="Bergekra" />
		<tag k="place" v="farm" />
		<tag k="ssr:stedsnr" v="211643" />
	</node>
	<node lat="63.09785277722571" lon="9.845141663213116" id="-36880">
		<tag k="name" v="Gravråkstuggu" />
		<tag k="place" v="isolated_dwelling" />
		<tag k="ssr:stedsnr" v="211727" />
	</node>
	<node lat="63.27124721843918" lon="9.737138885358766" id="-36920">
		<tag k="fixme" v="consider place=hamlet" />
		<tag k="name" v="Fagerholtet" />
		<tag k="place" v="farm" />
		<tag k="ssr:stedsnr" v="216005" />
	</node>
	<node lat="63.254552774035275" lon="9.745805551270882" id="-36921">
		<tag k="name" v="Fossan" />
		<tag k="place" v="hamlet" />
		<tag k="ssr:stedsnr" v="216007" />
	</node>
	<node lat="63.20381667005094" lon="9.833713879262588" id="-36930">
		<tag k="fixme" v="consider place=hamlet" />
		<tag k="name" v="Melby" />
		<tag k="place" v="farm" />
		<tag k="ssr:stedsnr" v="216279" />
	</node>
	<node lat="63.305102779745134" lon="9.868483325254488" id="-36933">
		<tag k="name" v="Joplassen" />
		<tag k="place" v="locality" />
		<tag k="ssr:stedsnr" v="216423" />
	</node>
	<node lat="63.18969026091788" lon="9.872267477204996" id="-36938">
		<tag k="name" v="Grø" />
		<tag k="place" v="hamlet" />
		<tag k="ssr:stedsnr" v="216306" />
	</node>
	<node lat="63.19675555747874" lon="9.597716671642637" id="-36949">
		<tag k="name" v="Nordigard" />
		<tag k="place" v="farm" />
		<tag k="ssr:stedsnr" v="216813" />
	</node>
	<node lat="63.419511114912815" lon="9.958847227343183" id="-36956">
		<tag k="name" v="Nikolaikjøra" />
		<tag k="place" v="farm" />
		<tag k="ssr:stedsnr" v="216703" />
	</node>
	<node lat="63.190611110381035" lon="9.800200004177492" id="-36965">
		<tag k="name" v="Sandbrauta" />
		<tag k="place" v="farm" />
		<tag k="ssr:stedsnr" v="217902" />
	</node>
	<node lat="63.477025000625765" lon="9.833333328182627" id="-36987">
		<tag k="name" v="Vollan" />
		<tag k="place" v="farm" />
		<tag k="ssr:stedsnr" v="220271" />
	</node>
	<node lat="63.585491671115264" lon="9.55292778198911" id="-36993">
		<tag k="name" v="Gravvikan" />
		<tag k="place" v="farm" />
		<tag k="ssr:stedsnr" v="220691" />
	</node>
	<node lat="63.58239721842579" lon="9.56845832897954" id="-36996">
		<tag k="name" v="Setran" />
		<tag k="place" v="farm" />
		<tag k="ssr:stedsnr" v="220714" />
	</node>
	<node lat="63.17974722339307" lon="9.536147221712813" id="-37019">
		<tag k="historic" v="shieling" />
		<tag k="name" v="Huluenget" />
		<tag k="place" v="isolated_dwelling" />
		<tag k="ssr:stedsnr" v="271035" />
	</node>
	<node lat="62.98677221855713" lon="9.746469453345002" id="-37039">
		<tag k="fixme" v="consider place=suburb, village or hamlet" />
		<tag k="name" v="Fossmoan" />
		<tag k="place" v="quarter" />
		<tag k="ssr:stedsnr" v="271129" />
	</node>
	<node lat="62.953147218654955" lon="9.68608611123695" id="-37046">
		<tag k="historic" v="shieling" />
		<tag k="name" v="Nystuggusætra" />
		<tag k="place" v="isolated_dwelling" />
		<tag k="ssr:stedsnr" v="271198" />
	</node>
	<node lat="63.129283331653276" lon="9.708816668127056" id="-37052">
		<tag k="fixme" v="consider place=suburb, village or hamlet" />
		<tag k="name" v="Stensmoen" />
		<tag k="place" v="quarter" />
		<tag k="ssr:stedsnr" v="271344" />
	</node>
</osm>
