<?xml version="1.0" encoding="UTF-8"?>
<osm version="0.6" generator="osmapis">
	<node lat="63.58288373395902" lon="9.516285818717007" id="-43766">
		<tag k="alt_name" v="Agdenes" />
		<tag k="amenity" v="place_of_worship" />
		<tag k="denomination" v="lutheran" />
		<tag k="name" v="Agdenes kirke" />
		<tag k="religion" v="christian" />
		<tag k="ssr:stedsnr" v="13118" />
	</node>
	<node lat="63.45819444299661" lon="9.90603334068616" id="-43917">
		<tag k="alt_name" v="Ingdalen kirke" />
		<tag k="amenity" v="place_of_worship" />
		<tag k="denomination" v="lutheran" />
		<tag k="name" v="Ingdalen kapell" />
		<tag k="religion" v="christian" />
		<tag k="ssr:stedsnr" v="38538" />
	</node>
	<node lat="63.40699722291613" lon="9.501886115497275" id="-43951">
		<tag k="amenity" v="community_centre" />
		<tag k="name" v="Skogly forsamlingshus" />
		<tag k="ssr:stedsnr" v="241514" />
	</node>
	<node lat="63.41650833401643" lon="9.233288889045001" id="-44169">
		<tag k="alt_name" v="Ungdomshus" />
		<tag k="amenity" v="community_centre" />
		<tag k="name" v="Stølsvangen" />
		<tag k="ssr:stedsnr" v="133758" />
	</node>
	<node lat="63.645772250829495" lon="9.747387773544217" id="-44430">
		<tag k="name" v="Agdenes fyr" />
		<tag k="ssr:stedsnr" v="180575" />
		<tag k="tourism" v="museum" />
	</node>
	<node lat="63.38903055755876" lon="9.606316658886938" id="-45039">
		<tag k="name" v="Dyrgrava" />
		<tag k="place" v="locality" />
		<tag k="ssr:stedsnr" v="275069" />
	</node>
	<node lat="63.36507683515568" lon="9.925500453920728" id="-45264">
		<tag k="amenity" v="place_of_worship" />
		<tag k="denomination" v="lutheran" />
		<tag k="name" v="Geitastrand kirke" />
		<tag k="religion" v="christian" />
		<tag k="ssr:stedsnr" v="316514" />
	</node>
	<node lat="63.187716067681635" lon="9.765816464950293" id="-45463">
		<tag k="amenity" v="place_of_worship" />
		<tag k="denomination" v="lutheran" />
		<tag k="name" v="Moe kirke" />
		<tag k="old_name" v="Orkland;Orkland kirke" />
		<tag k="religion" v="christian" />
		<tag k="ssr:stedsnr" v="376205" />
	</node>
	<node lat="63.575094441418415" lon="9.328255556326186" id="-45870">
		<tag k="amenity" v="community_centre" />
		<tag k="name" v="Leksa forsamlingshus" />
		<tag k="ssr:stedsnr" v="465582" />
	</node>
	<node lat="63.514795654795634" lon="9.806686701535106" id="-46020">
		<tag k="alt_name" v="Lensvik" />
		<tag k="amenity" v="place_of_worship" />
		<tag k="denomination" v="lutheran" />
		<tag k="name" v="Lensvik kirke" />
		<tag k="religion" v="christian" />
		<tag k="ssr:stedsnr" v="498675" />
	</node>
	<node lat="63.31000278089708" lon="9.85152499597813" id="-46506">
		<tag k="amenity" v="place_of_worship" />
		<tag k="denomination" v="lutheran" />
		<tag k="name" v="Orkanger kirke" />
		<tag k="religion" v="christian" />
		<tag k="ssr:stedsnr" v="599450" />
	</node>
	<node lat="63.30858888860687" lon="9.847891671884087" id="-46507">
		<tag k="amenity" v="place_of_worship" />
		<tag k="denomination" v="lutheran" />
		<tag k="name" v="Den gode hyrdes kapell" />
		<tag k="religion" v="christian" />
		<tag k="ssr:stedsnr" v="599452" />
	</node>
	<node lat="63.35431111301338" lon="9.57006388126198" id="-46523">
		<tag k="name" v="Kvernhuset" />
		<tag k="place" v="locality" />
		<tag k="ssr:stedsnr" v="700118" />
	</node>
	<node lat="63.12727650697702" lon="9.682829632924696" id="-46642">
		<tag k="amenity" v="place_of_worship" />
		<tag k="denomination" v="lutheran" />
		<tag k="name" v="Løkken kirke" />
		<tag k="religion" v="christian" />
		<tag k="ssr:stedsnr" v="619525" />
	</node>
	<node lat="63.646133336984235" lon="9.74905833516699" id="-46708">
		<tag k="name" v="Kong Øysteins hamn" />
		<tag k="place" v="locality" />
		<tag k="ssr:stedsnr" v="632108" />
	</node>
	<node lat="63.10794166435468" lon="9.87857222647077" id="-46756">
		<tag k="name" v="Litjbusaga" />
		<tag k="place" v="locality" />
		<tag k="ssr:stedsnr" v="635727" />
	</node>
	<node lat="63.47760278036463" lon="9.765197227531281" id="-46931">
		<tag k="amenity" v="community_centre" />
		<tag k="name" v="Singstadskolen forsamlingshus" />
		<tag k="ssr:stedsnr" v="662581" />
	</node>
	<node lat="63.20599166642675" lon="9.579344436059998" id="-47296">
		<tag k="name" v="Hostokammen" />
		<tag k="place" v="locality" />
		<tag k="ssr:stedsnr" v="905878" />
	</node>
	<node lat="63.30831944480122" lon="9.776799994484863" id="-47342">
		<tag k="name" v="Finnbua" />
		<tag k="place" v="locality" />
		<tag k="ssr:stedsnr" v="762201" />
	</node>
	<node lat="63.509030559061735" lon="9.786013880515817" id="-47715">
		<tag k="amenity" v="community_centre" />
		<tag k="name" v="Nordbygda grendahus" />
		<tag k="ssr:stedsnr" v="844584" />
	</node>
	<node lat="63.59300277869856" lon="9.538372226064268" id="-47716">
		<tag k="amenity" v="community_centre" />
		<tag k="name" v="Slettvika forsamlingshus" />
		<tag k="ssr:stedsnr" v="846583" />
	</node>
	<node lat="63.2299444418197" lon="9.761369438014" id="-47883">
		<tag k="amenity" v="community_centre" />
		<tag k="name" v="Grendstuggu" />
		<tag k="ssr:stedsnr" v="884902" />
	</node>
	<node lat="63.0500527747054" lon="9.713061119276713" id="-48142">
		<tag k="name" v="Meldalstunet" />
		<tag k="ssr:stedsnr" v="950533" />
		<tag k="tourism" v="museum" />
	</node>
	<node lat="63.50530555240295" lon="9.827419439638508" id="-48152">
		<tag k="amenity" v="place_of_worship" />
		<tag k="fixme" v="specify religion=*, denomination=*, building=* etc" />
		<tag k="name" v="Lensvik bedehus" />
		<tag k="ssr:stedsnr" v="969604" />
	</node>
	<node lat="63.6139305513922" lon="9.64910555527115" id="-48153">
		<tag k="amenity" v="community_centre" />
		<tag k="name" v="Vassbygda bedehus" />
		<tag k="ssr:stedsnr" v="969608" />
	</node>
	<node lat="62.962221268776204" lon="9.551777498711964" id="-48168">
		<tag k="name" v="Finntrøa" />
		<tag k="place" v="locality" />
		<tag k="ssr:stedsnr" v="971333" />
	</node>
	<node lat="63.42811944142164" lon="9.952049995870958" id="-48246">
		<tag k="alt_name" v="Kjørmo" />
		<tag k="amenity" v="community_centre" />
		<tag k="name" v="Kjørmoen grendahus" />
		<tag k="ssr:stedsnr" v="13126" />
	</node>
	<node lat="63.26447032851412" lon="9.814124476791681" id="-48267">
		<tag k="alt_name" v="Orkdal" />
		<tag k="amenity" v="place_of_worship" />
		<tag k="denomination" v="lutheran" />
		<tag k="name" v="Orkdal kirke" />
		<tag k="religion" v="christian" />
		<tag k="ssr:stedsnr" v="13752" />
	</node>
	<node lat="63.04507254507111" lon="9.719133009111925" id="-48956">
		<tag k="alt_name" v="Meldal" />
		<tag k="amenity" v="place_of_worship" />
		<tag k="denomination" v="lutheran" />
		<tag k="name" v="Meldal kirke" />
		<tag k="religion" v="christian" />
		<tag k="ssr:stedsnr" v="133567" />
	</node>
	<node lat="63.125086108988754" lon="9.789336110888884" id="-49094">
		<tag k="alt_name" v="Urvass-saga" />
		<tag k="name" v="Urvassaga" />
		<tag k="place" v="locality" />
		<tag k="ssr:stedsnr" v="150274" />
	</node>
	<node lat="63.50493888540304" lon="9.822366657237986" id="-49325">
		<tag k="amenity" v="community_centre" />
		<tag k="name" v="Lensvik flerbrukshus" />
		<tag k="ssr:stedsnr" v="176525" />
	</node>
</osm>
