<?xml version="1.0" encoding="UTF-8"?>
<osm version="0.6" generator="osmapis">
	<node lat="63.380186108510244" lon="9.230166673936935" id="-43329">
		<tag k="name" v="Tannvikvågen" />
		<tag k="natural" v="bay" />
		<tag k="ssr:stedsnr" v="12824" />
	</node>
	<node lat="63.58777222333042" lon="9.52779444858601" id="-43346">
		<tag k="name" v="Vernes" />
		<tag k="natural" v="cape" />
		<tag k="ssr:stedsnr" v="13111" />
	</node>
	<node lat="63.44638889025208" lon="9.364494441606237" id="-43437">
		<tag k="name" v="Kvennstadbukta" />
		<tag k="natural" v="bay" />
		<tag k="ssr:stedsnr" v="33314" />
	</node>
	<node lat="63.46922778186914" lon="9.464991667071125" id="-43440">
		<tag k="name" v="Merkesbukta" />
		<tag k="natural" v="bay" />
		<tag k="ssr:stedsnr" v="33267" />
	</node>
	<node lat="63.461547222732634" lon="9.92604721552933" id="-43492">
		<tag k="name" v="Ramnåsneset" />
		<tag k="natural" v="cape" />
		<tag k="ssr:stedsnr" v="38065" />
	</node>
	<node lat="63.469988893259014" lon="9.904916676578166" id="-43568">
		<tag k="name" v="Stokkbergneset" />
		<tag k="natural" v="cape" />
		<tag k="ssr:stedsnr" v="74059" />
	</node>
	<node lat="63.47803889190449" lon="9.874941668372342" id="-43569">
		<tag k="name" v="Kleivtangen" />
		<tag k="natural" v="cape" />
		<tag k="ssr:stedsnr" v="74068" />
	</node>
	<node lat="63.571294444145714" lon="9.500305555775492" id="-43572">
		<tag k="fixme" v="consider seamark:type=rock or natural=shoal" />
		<tag k="name" v="Grønnskjæret" />
		<tag k="place" v="islet" />
		<tag k="ssr:stedsnr" v="74117" />
	</node>
	<node lat="63.56892778061432" lon="9.548830565134502" id="-43628">
		<tag k="name" v="Mulen" />
		<tag k="natural" v="cape" />
		<tag k="ssr:stedsnr" v="93021" />
	</node>
	<node lat="63.45449166284816" lon="9.399694443646109" id="-43639">
		<tag k="name" v="Kuvikneset" />
		<tag k="natural" v="cape" />
		<tag k="ssr:stedsnr" v="93572" />
	</node>
	<node lat="63.50784166272901" lon="9.396663894125531" id="-43640">
		<tag k="fixme" v="consider seamark:type=rock or natural=shoal" />
		<tag k="name" v="Storstein" />
		<tag k="place" v="islet" />
		<tag k="ssr:stedsnr" v="93589" />
	</node>
	<node lat="63.580177774276635" lon="9.765494444422101" id="-43692">
		<tag k="name" v="Buvika" />
		<tag k="natural" v="bay" />
		<tag k="ssr:stedsnr" v="99169" />
	</node>
	<node lat="63.620569442349506" lon="9.60181667516532" id="-43695">
		<tag k="name" v="Grøthaugbukta" />
		<tag k="natural" v="bay" />
		<tag k="ssr:stedsnr" v="99308" />
	</node>
	<node lat="63.6219527749697" lon="9.620616662686638" id="-43707">
		<tag k="name" v="Kasperberget" />
		<tag k="natural" v="cape" />
		<tag k="ssr:stedsnr" v="99268" />
	</node>
	<node lat="63.56308611511607" lon="9.571669435918066" id="-43717">
		<tag k="name" v="Langstranda" />
		<tag k="natural" v="beach" />
		<tag k="ssr:stedsnr" v="99502" />
	</node>
	<node lat="63.57029444753873" lon="9.558480551762555" id="-43718">
		<tag k="name" v="Grindviktangen" />
		<tag k="natural" v="cape" />
		<tag k="ssr:stedsnr" v="99506" />
	</node>
	<node lat="63.50095555278994" lon="9.851197214437494" id="-43778">
		<tag k="name" v="Nålneset" />
		<tag k="natural" v="cape" />
		<tag k="ssr:stedsnr" v="134755" />
	</node>
	<node lat="63.64104444343094" lon="9.693022222413758" id="-43788">
		<tag k="name" v="Høgholmen" />
		<tag k="place" v="islet" />
		<tag k="ssr:stedsnr" v="255063" />
	</node>
	<node lat="63.538627777011946" lon="9.830858340897041" id="-43824">
		<tag k="name" v="Kinebbvika" />
		<tag k="natural" v="bay" />
		<tag k="ssr:stedsnr" v="255686" />
	</node>
	<node lat="63.386136114705856" lon="9.214575001710726" id="-43834">
		<tag k="name" v="Buvika" />
		<tag k="natural" v="bay" />
		<tag k="ssr:stedsnr" v="255747" />
	</node>
	<node lat="63.50711110702398" lon="9.828394453341465" id="-43835">
		<tag k="name" v="Hamnaneset" />
		<tag k="natural" v="cape" />
		<tag k="ssr:stedsnr" v="255752" />
	</node>
	<node lat="63.45012777984488" lon="9.356155554385564" id="-43930">
		<tag k="alt_name" v="Kvernstadskjæret" />
		<tag k="fixme" v="consider seamark:type=rock or natural=shoal" />
		<tag k="name" v="Kvennstadaunskjæret" />
		<tag k="place" v="islet" />
		<tag k="ssr:stedsnr" v="154716" />
	</node>
	<node lat="63.30952221869133" lon="9.846727784185834" id="-43943">
		<tag k="name" v="Pynten" />
		<tag k="natural" v="beach" />
		<tag k="ssr:stedsnr" v="155427" />
	</node>
	<node lat="63.420636109712746" lon="9.970277786726042" id="-43954">
		<tag k="name" v="Vikaneset" />
		<tag k="natural" v="cape" />
		<tag k="ssr:stedsnr" v="155717" />
	</node>
	<node lat="63.573911113634615" lon="9.346508338650823" id="-44005">
		<tag k="name" v="Storholmflua" />
		<tag k="natural" v="shoal" />
		<tag k="place" v="locality" />
		<tag k="ssr:stedsnr" v="167960" />
	</node>
	<node lat="63.58766388890933" lon="9.377261113935234" id="-44006">
		<tag k="name" v="Sundet" />
		<tag k="natural" v="strait" />
		<tag k="ssr:stedsnr" v="167962" />
	</node>
	<node lat="63.44251388930021" lon="9.270430545636305" id="-44106">
		<tag k="name" v="Heggstadneset" />
		<tag k="natural" v="cape" />
		<tag k="ssr:stedsnr" v="215174" />
	</node>
	<node lat="63.38051110998694" lon="9.415550004129456" id="-44118">
		<tag k="fixme" v="consider seamark:type=rock or natural=shoal" />
		<tag k="name" v="Ytre Breivikskjæret" />
		<tag k="place" v="islet" />
		<tag k="ssr:stedsnr" v="215275" />
	</node>
	<node lat="63.389847221211504" lon="9.468630557432432" id="-44124">
		<tag k="name" v="Vedberget" />
		<tag k="natural" v="shoal" />
		<tag k="place" v="locality" />
		<tag k="ssr:stedsnr" v="215476" />
	</node>
	<node lat="63.594041667343475" lon="9.375330556629274" id="-44328">
		<tag k="name" v="Sundflua" />
		<tag k="natural" v="shoal" />
		<tag k="place" v="locality" />
		<tag k="ssr:stedsnr" v="471932" />
	</node>
	<node lat="63.58121609772385" lon="9.507887483519799" id="-44430">
		<tag k="name" v="Åkervika" />
		<tag k="natural" v="bay" />
		<tag k="ssr:stedsnr" v="255111" />
	</node>
	<node lat="63.57384166980763" lon="9.337644454275313" id="-44432">
		<tag k="name" v="Storholmen" />
		<tag k="place" v="islet" />
		<tag k="ssr:stedsnr" v="255117" />
	</node>
	<node lat="63.44276389190287" lon="9.976736114110217" id="-44466">
		<tag k="name" v="Geitaneset" />
		<tag k="natural" v="cape" />
		<tag k="ssr:stedsnr" v="256075" />
	</node>
	<node lat="63.462622219703334" lon="9.491438893758065" id="-44476">
		<tag k="name" v="Lauvneset" />
		<tag k="natural" v="cape" />
		<tag k="ssr:stedsnr" v="457085" />
	</node>
	<node lat="63.43977777767686" lon="9.291913881757031" id="-44483">
		<tag k="fixme" v="consider seamark:type=rock or natural=shoal" />
		<tag k="name" v="Grønskjæret" />
		<tag k="place" v="islet" />
		<tag k="ssr:stedsnr" v="457870" />
	</node>
	<node lat="63.47558055339963" lon="9.324824999646015" id="-44512">
		<tag k="name" v="Storvika" />
		<tag k="natural" v="bay" />
		<tag k="ssr:stedsnr" v="458256" />
	</node>
	<node lat="63.46448333244417" lon="9.463719436910278" id="-44537">
		<tag k="name" v="Hundneset" />
		<tag k="natural" v="cape" />
		<tag k="ssr:stedsnr" v="458551" />
	</node>
	<node lat="63.513036113737286" lon="9.394044454325872" id="-44547">
		<tag k="name" v="Størkaneset" />
		<tag k="natural" v="cape" />
		<tag k="ssr:stedsnr" v="458733" />
	</node>
	<node lat="63.44665833789756" lon="9.965644438274877" id="-44548">
		<tag k="bay" v="fjord" />
		<tag k="name" v="Korsfjorden" />
		<tag k="natural" v="bay" />
		<tag k="ssr:stedsnr" v="458744" />
	</node>
	<node lat="63.54590278083939" lon="9.44638054695021" id="-44613">
		<tag k="name" v="Slavikskjæret" />
		<tag k="natural" v="cape" />
		<tag k="ssr:stedsnr" v="275002" />
	</node>
	<node lat="63.5527777734528" lon="9.46383055430355" id="-44614">
		<tag k="name" v="Litlhåvika" />
		<tag k="natural" v="bay" />
		<tag k="ssr:stedsnr" v="275003" />
	</node>
	<node lat="63.38136944020399" lon="9.41519721483056" id="-44626">
		<tag k="name" v="Breivikbukta" />
		<tag k="natural" v="bay" />
		<tag k="ssr:stedsnr" v="275392" />
	</node>
	<node lat="63.437224997491235" lon="9.265227771813265" id="-44642">
		<tag k="alt_name" v="Ytre Heggstadbugen" />
		<tag k="name" v="Heggstadbukta" />
		<tag k="natural" v="bay" />
		<tag k="ssr:stedsnr" v="276191" />
	</node>
	<node lat="63.416430557637355" lon="9.967183334332402" id="-44668">
		<tag k="name" v="Kjørabukta" />
		<tag k="natural" v="bay" />
		<tag k="ssr:stedsnr" v="276774" />
	</node>
	<node lat="63.510908333522906" lon="9.818786119188673" id="-44711">
		<tag k="name" v="Vika" />
		<tag k="natural" v="bay" />
		<tag k="ssr:stedsnr" v="280006" />
	</node>
	<node lat="63.624416663876" lon="9.659908328835561" id="-44725">
		<tag k="name" v="Varvika" />
		<tag k="natural" v="bay" />
		<tag k="ssr:stedsnr" v="281303" />
	</node>
	<node lat="63.634580559848594" lon="9.67655833876168" id="-44727">
		<tag k="name" v="Meholmbukta" />
		<tag k="natural" v="bay" />
		<tag k="ssr:stedsnr" v="281313" />
	</node>
	<node lat="63.5787805535021" lon="9.34176389521696" id="-44743">
		<tag k="name" v="Håvika" />
		<tag k="natural" v="bay" />
		<tag k="ssr:stedsnr" v="281969" />
	</node>
	<node lat="63.46823610780824" lon="9.429219442396816" id="-44747">
		<tag k="name" v="Innerbukta" />
		<tag k="natural" v="bay" />
		<tag k="ssr:stedsnr" v="288111" />
	</node>
	<node lat="63.45943888627165" lon="9.417533338686036" id="-44748">
		<tag k="name" v="Mælabukta" />
		<tag k="natural" v="bay" />
		<tag k="ssr:stedsnr" v="288112" />
	</node>
	<node lat="63.57734999836816" lon="9.498697213715285" id="-44749">
		<tag k="name" v="Tindviktangen" />
		<tag k="natural" v="cape" />
		<tag k="ssr:stedsnr" v="289989" />
	</node>
	<node lat="63.57426944344973" lon="9.522327784087105" id="-44750">
		<tag k="name" v="Holmgrunnen" />
		<tag k="natural" v="shoal" />
		<tag k="place" v="locality" />
		<tag k="ssr:stedsnr" v="289997" />
	</node>
	<node lat="63.591194440277086" lon="9.363033330622859" id="-44761">
		<tag k="name" v="Småholman" />
		<tag k="place" v="islet" />
		<tag k="ssr:stedsnr" v="462934" />
	</node>
	<node lat="63.58753055317717" lon="9.360441663802026" id="-44762">
		<tag k="name" v="Ratvika" />
		<tag k="natural" v="bay" />
		<tag k="ssr:stedsnr" v="462935" />
	</node>
	<node lat="63.596741665769024" lon="9.385647221309215" id="-44763">
		<tag k="name" v="Svennholman" />
		<tag k="place" v="islet" />
		<tag k="ssr:stedsnr" v="462946" />
	</node>
	<node lat="63.46366110687783" lon="9.910630552175265" id="-44764">
		<tag k="name" v="Ingdalsbukta" />
		<tag k="natural" v="bay" />
		<tag k="ssr:stedsnr" v="463029" />
	</node>
	<node lat="63.64434444730481" lon="9.72321666406528" id="-44768">
		<tag k="fixme" v="consider seamark:type=rock or natural=shoal" />
		<tag k="name" v="Larsskjeret" />
		<tag k="place" v="islet" />
		<tag k="ssr:stedsnr" v="463038" />
	</node>
	<node lat="63.54117500001205" lon="9.829261113769812" id="-44852">
		<tag k="alt_name" v="Kinebbeneset" />
		<tag k="name" v="Kinebbneset" />
		<tag k="natural" v="cape" />
		<tag k="ssr:stedsnr" v="316712" />
	</node>
	<node lat="63.50551666562899" lon="9.844966673060183" id="-44856">
		<tag k="alt_name" v="Bergannesflua" />
		<tag k="name" v="Berganesflua" />
		<tag k="natural" v="shoal" />
		<tag k="place" v="locality" />
		<tag k="ssr:stedsnr" v="469125" />
	</node>
	<node lat="63.45409444507298" lon="9.386633332012199" id="-44857">
		<tag k="name" v="Engvikflua" />
		<tag k="natural" v="shoal" />
		<tag k="place" v="locality" />
		<tag k="ssr:stedsnr" v="470087" />
	</node>
	<node lat="63.555244443854725" lon="9.447130551883578" id="-44899">
		<tag k="fixme" v="consider seamark:type=rock or natural=shoal" />
		<tag k="name" v="Håvikskjæret" />
		<tag k="place" v="islet" />
		<tag k="ssr:stedsnr" v="470992" />
	</node>
	<node lat="63.43563333077883" lon="9.253383342507476" id="-44921">
		<tag k="name" v="Avrista" />
		<tag k="natural" v="cape" />
		<tag k="ssr:stedsnr" v="336162" />
	</node>
	<node lat="63.5013000042599" lon="9.419894436507242" id="-44933">
		<tag k="fixme" v="consider seamark:type=rock or natural=shoal" />
		<tag k="name" v="Salmonskjæret" />
		<tag k="place" v="islet" />
		<tag k="ssr:stedsnr" v="336049" />
	</node>
	<node lat="63.429972223597005" lon="9.185602784071476" id="-44934">
		<tag k="fixme" v="consider seamark:type=rock or natural=shoal" />
		<tag k="name" v="Stokkaunskjæret" />
		<tag k="place" v="islet" />
		<tag k="ssr:stedsnr" v="336057" />
	</node>
	<node lat="63.531880555302735" lon="9.42783888268549" id="-44936">
		<tag k="name" v="Skjevikvågen" />
		<tag k="natural" v="bay" />
		<tag k="ssr:stedsnr" v="336061" />
	</node>
	<node lat="63.31216666980777" lon="9.849519443757252" id="-44962">
		<tag k="name" v="Fallet" />
		<tag k="natural" v="beach" />
		<tag k="ssr:stedsnr" v="337453" />
	</node>
	<node lat="63.438566664802465" lon="9.976716664694107" id="-44965">
		<tag k="name" v="Storvika" />
		<tag k="natural" v="bay" />
		<tag k="ssr:stedsnr" v="337707" />
	</node>
	<node lat="63.47497499999168" lon="9.304602780352212" id="-44967">
		<tag k="name" v="Leirvika" />
		<tag k="natural" v="bay" />
		<tag k="ssr:stedsnr" v="337597" />
	</node>
	<node lat="63.644686112087165" lon="9.726166671311098" id="-45001">
		<tag k="fixme" v="consider seamark:type=rock or natural=shoal" />
		<tag k="name" v="Kvitskjeret" />
		<tag k="place" v="islet" />
		<tag k="ssr:stedsnr" v="341050" />
	</node>
	<node lat="63.54950000435983" lon="9.571888885362053" id="-45007">
		<tag k="alt_name" v="Skjeret;Fjordaskjeret" />
		<tag k="fixme" v="consider seamark:type=rock or natural=shoal" />
		<tag k="name" v="Fjordaskjæret" />
		<tag k="place" v="islet" />
		<tag k="ssr:stedsnr" v="341716" />
	</node>
	<node lat="63.46325277515586" lon="9.458936108420538" id="-45039">
		<tag k="name" v="Storvika" />
		<tag k="natural" v="bay" />
		<tag k="ssr:stedsnr" v="348675" />
	</node>
	<node lat="63.58824729968987" lon="9.397234341087305" id="-45202">
		<tag k="name" v="Heradsvika" />
		<tag k="natural" v="bay" />
		<tag k="ssr:stedsnr" v="401931" />
	</node>
	<node lat="63.561288889845024" lon="9.788869440376041" id="-45213">
		<tag k="name" v="Størdalsøra" />
		<tag k="natural" v="beach" />
		<tag k="ssr:stedsnr" v="402227" />
	</node>
	<node lat="63.6222111124128" lon="9.649233323310934" id="-45214">
		<tag k="name" v="Synnavika" />
		<tag k="natural" v="bay" />
		<tag k="ssr:stedsnr" v="402283" />
	</node>
	<node lat="63.62498055635298" lon="9.634666659287568" id="-45263">
		<tag k="fixme" v="consider seamark:type=rock or natural=shoal" />
		<tag k="name" v="Heggagalten" />
		<tag k="place" v="islet" />
		<tag k="ssr:stedsnr" v="438055" />
	</node>
	<node lat="63.619407224173145" lon="9.597157735684688" id="-45338">
		<tag k="name" v="Røysaneset" />
		<tag k="natural" v="cape" />
		<tag k="ssr:stedsnr" v="455342" />
	</node>
	<node lat="63.57364722332923" lon="9.447755563150691" id="-45343">
		<tag k="name" v="Småholman" />
		<tag k="place" v="islet" />
		<tag k="ssr:stedsnr" v="457044" />
	</node>
	<node lat="63.47601666901359" lon="9.460719453363179" id="-45352">
		<tag k="name" v="Kuppåberget" />
		<tag k="natural" v="cape" />
		<tag k="ssr:stedsnr" v="458021" />
	</node>
	<node lat="63.426405555784356" lon="9.187949999435713" id="-45357">
		<tag k="name" v="Kjerkneset" />
		<tag k="natural" v="cape" />
		<tag k="ssr:stedsnr" v="458066" />
	</node>
	<node lat="63.37341111228856" lon="9.307175006215111" id="-45396">
		<tag k="name" v="Klungervikkalvvika" />
		<tag k="natural" v="bay" />
		<tag k="ssr:stedsnr" v="458946" />
	</node>
	<node lat="63.646211113605844" lon="9.737011110740537" id="-45420">
		<tag k="name" v="Agdenesbukta" />
		<tag k="natural" v="bay" />
		<tag k="ssr:stedsnr" v="463018" />
	</node>
	<node lat="63.5449277760593" lon="9.825602785871327" id="-45422">
		<tag k="name" v="Ludduneset" />
		<tag k="natural" v="cape" />
		<tag k="ssr:stedsnr" v="463024" />
	</node>
	<node lat="63.60673889014208" lon="9.56324999832257" id="-45433">
		<tag k="fixme" v="consider seamark:type=rock or natural=shoal" />
		<tag k="name" v="Storskjeret" />
		<tag k="place" v="islet" />
		<tag k="ssr:stedsnr" v="463416" />
	</node>
	<node lat="63.56211111376066" lon="9.788802774770009" id="-45455">
		<tag k="name" v="Størdalsbugen" />
		<tag k="natural" v="beach" />
		<tag k="ssr:stedsnr" v="466980" />
	</node>
	<node lat="63.61016666865251" lon="9.569225003190475" id="-45490">
		<tag k="name" v="Stavneset" />
		<tag k="natural" v="cape" />
		<tag k="ssr:stedsnr" v="680085" />
	</node>
	<node lat="63.6044555569406" lon="9.547822215523846" id="-45491">
		<tag k="name" v="Brekstadskjæret" />
		<tag k="natural" v="cape" />
		<tag k="ssr:stedsnr" v="680087" />
	</node>
	<node lat="63.45150832932278" lon="9.333233342649647" id="-45569">
		<tag k="bay" v="fjord" />
		<tag k="name" v="Åstfjorden" />
		<tag k="natural" v="bay" />
		<tag k="old_name" v="Åstfjoren" />
		<tag k="ssr:stedsnr" v="497947" />
	</node>
	<node lat="63.57801944850841" lon="9.519475001554326" id="-45573">
		<tag k="name" v="Vernesholmen" />
		<tag k="place" v="islet" />
		<tag k="ssr:stedsnr" v="498106" />
	</node>
	<node lat="63.61332499752683" lon="9.74073055147631" id="-45609">
		<tag k="alt_name" v="Hambårbukta" />
		<tag k="name" v="Hamborbukta" />
		<tag k="natural" v="bay" />
		<tag k="ssr:stedsnr" v="681984" />
	</node>
	<node lat="63.47376944314492" lon="9.451913884906002" id="-45669">
		<tag k="name" v="Ytterneset" />
		<tag k="natural" v="cape" />
		<tag k="ssr:stedsnr" v="518022" />
	</node>
	<node lat="63.429922225962386" lon="9.191852785081972" id="-45672">
		<tag k="name" v="Kvithylla" />
		<tag k="natural" v="cape" />
		<tag k="ssr:stedsnr" v="518060" />
	</node>
	<node lat="63.51248333064126" lon="9.416674999523599" id="-45673">
		<tag k="name" v="Furuneset" />
		<tag k="natural" v="cape" />
		<tag k="ssr:stedsnr" v="518062" />
	</node>
	<node lat="63.530336111905804" lon="9.416477777890275" id="-45674">
		<tag k="name" v="Rønnessundet" />
		<tag k="natural" v="strait" />
		<tag k="ssr:stedsnr" v="518063" />
	</node>
	<node lat="63.45857777546335" lon="9.407380564629577" id="-45685">
		<tag k="name" v="Ytter Lauvnestangen" />
		<tag k="natural" v="cape" />
		<tag k="ssr:stedsnr" v="518631" />
	</node>
	<node lat="63.374236110709305" lon="9.353130556389363" id="-45704">
		<tag k="name" v="Storvika" />
		<tag k="natural" v="bay" />
		<tag k="ssr:stedsnr" v="519307" />
	</node>
	<node lat="63.51637222610651" lon="9.80683611554903" id="-45745">
		<tag k="name" v="Melangsøra" />
		<tag k="natural" v="beach" />
		<tag k="ssr:stedsnr" v="523411" />
	</node>
	<node lat="63.59555000290731" lon="9.521133325460742" id="-45750">
		<tag k="name" v="Rishaugtangen" />
		<tag k="natural" v="cape" />
		<tag k="ssr:stedsnr" v="523715" />
	</node>
	<node lat="63.45459444275826" lon="9.928902772246719" id="-45755">
		<tag k="name" v="Purkvika" />
		<tag k="natural" v="bay" />
		<tag k="ssr:stedsnr" v="524109" />
	</node>
	<node lat="63.393952781698616" lon="9.19364167045114" id="-45770">
		<tag k="fixme" v="consider seamark:type=rock or natural=shoal" />
		<tag k="name" v="Snigeldalsskjæret" />
		<tag k="place" v="islet" />
		<tag k="ssr:stedsnr" v="531796" />
	</node>
	<node lat="63.597086110121026" lon="9.38401665955132" id="-45779">
		<tag k="name" v="Svennholman" />
		<tag k="place" v="islet" />
		<tag k="ssr:stedsnr" v="558102" />
	</node>
	<node lat="63.43543333310161" lon="9.228311110510509" id="-45804">
		<tag k="name" v="Vikaholmen" />
		<tag k="place" v="islet" />
		<tag k="ssr:stedsnr" v="558848" />
	</node>
	<node lat="63.47319166889175" lon="9.304649996662453" id="-45816">
		<tag k="name" v="Halsneset" />
		<tag k="natural" v="cape" />
		<tag k="ssr:stedsnr" v="558989" />
	</node>
	<node lat="63.56261944792355" lon="9.794111118670694" id="-45822">
		<tag k="name" v="Størdalsbukta" />
		<tag k="natural" v="bay" />
		<tag k="ssr:stedsnr" v="559607" />
	</node>
	<node lat="63.612505555265784" lon="9.743230548804467" id="-45824">
		<tag k="alt_name" v="Hambårneset" />
		<tag k="name" v="Hambortåa" />
		<tag k="natural" v="cape" />
		<tag k="ssr:stedsnr" v="559990" />
	</node>
	<node lat="63.4664388863067" lon="9.428455562835497" id="-45889">
		<tag k="name" v="Mjønesneset" />
		<tag k="natural" v="cape" />
		<tag k="ssr:stedsnr" v="578010" />
	</node>
	<node lat="63.47340833513068" lon="9.444980563167848" id="-45895">
		<tag k="name" v="Kvitbergbukta" />
		<tag k="natural" v="bay" />
		<tag k="ssr:stedsnr" v="578022" />
	</node>
	<node lat="63.57462500330053" lon="9.45591943900794" id="-45897">
		<tag k="name" v="Bjørnøyaunet" />
		<tag k="natural" v="cape" />
		<tag k="ssr:stedsnr" v="578046" />
	</node>
	<node lat="63.38469166422627" lon="9.43641667171167" id="-45900">
		<tag k="name" v="Hundstubben" />
		<tag k="natural" v="cape" />
		<tag k="ssr:stedsnr" v="578418" />
	</node>
	<node lat="63.31726944565086" lon="9.820927769046515" id="-45904">
		<tag k="name" v="Sandbanken" />
		<tag k="natural" v="beach" />
		<tag k="ssr:stedsnr" v="579202" />
	</node>
	<node lat="63.46150277844284" lon="9.428583332481223" id="-45907">
		<tag k="name" v="Skogaholmen" />
		<tag k="place" v="islet" />
		<tag k="ssr:stedsnr" v="579248" />
	</node>
	<node lat="63.4372694443481" lon="9.238477773314575" id="-45913">
		<tag k="name" v="Valholmen" />
		<tag k="place" v="islet" />
		<tag k="ssr:stedsnr" v="579157" />
	</node>
	<node lat="63.43844167065833" lon="9.27965000274925" id="-45914">
		<tag k="name" v="Båtvika" />
		<tag k="natural" v="bay" />
		<tag k="ssr:stedsnr" v="579158" />
	</node>
	<node lat="63.49681111108777" lon="9.848597220870728" id="-45960">
		<tag k="name" v="Ratvika" />
		<tag k="natural" v="bay" />
		<tag k="ssr:stedsnr" v="584041" />
	</node>
	<node lat="63.641950332838434" lon="9.694599474626509" id="-45961">
		<tag k="name" v="Fokkenborg" />
		<tag k="natural" v="cape" />
		<tag k="ssr:stedsnr" v="584043" />
	</node>
	<node lat="63.644013890408424" lon="9.70608054667474" id="-45962">
		<tag k="fixme" v="consider seamark:type=rock or natural=shoal" />
		<tag k="name" v="Valsetskjera" />
		<tag k="place" v="islet" />
		<tag k="ssr:stedsnr" v="584045" />
	</node>
	<node lat="63.584358331279724" lon="9.547891672996423" id="-45985">
		<tag k="fixme" v="consider seamark:type=rock or natural=shoal" />
		<tag k="name" v="Gravvikskjeret" />
		<tag k="place" v="islet" />
		<tag k="ssr:stedsnr" v="584644" />
	</node>
	<node lat="63.580811108870044" lon="9.521516659602732" id="-45986">
		<tag k="fixme" v="consider seamark:type=rock or natural=shoal" />
		<tag k="name" v="Skjeret" />
		<tag k="place" v="islet" />
		<tag k="ssr:stedsnr" v="584655" />
	</node>
	<node lat="63.58479722670701" lon="9.391911120764128" id="-46087">
		<tag k="name" v="Gårdersbukta" />
		<tag k="natural" v="bay" />
		<tag k="ssr:stedsnr" v="592958" />
	</node>
	<node lat="63.31307499823261" lon="9.826827770609501" id="-46092">
		<tag k="loc_name" v="Gjølmesøra" />
		<tag k="name" v="Gjølmesøran" />
		<tag k="natural" v="beach" />
		<tag k="ssr:stedsnr" v="605018" />
	</node>
	<node lat="63.62533055635675" lon="9.741608326421096" id="-46097">
		<tag k="name" v="Breiviktåa" />
		<tag k="natural" v="cape" />
		<tag k="ssr:stedsnr" v="699944" />
	</node>
	<node lat="63.62361666724732" lon="9.739930549520283" id="-46098">
		<tag k="fixme" v="consider seamark:type=rock or natural=shoal" />
		<tag k="name" v="Breivikskjæret" />
		<tag k="place" v="islet" />
		<tag k="ssr:stedsnr" v="699950" />
	</node>
	<node lat="63.46181944238359" lon="9.383022226687244" id="-46118">
		<tag k="name" v="Tollvikneset" />
		<tag k="natural" v="cape" />
		<tag k="ssr:stedsnr" v="700293" />
	</node>
	<node lat="63.39081666623007" lon="9.470338891065857" id="-46122">
		<tag k="name" v="Krokneset" />
		<tag k="natural" v="cape" />
		<tag k="ssr:stedsnr" v="700441" />
	</node>
	<node lat="63.554030556482054" lon="9.568258333307242" id="-46123">
		<tag k="name" v="Digerneset" />
		<tag k="natural" v="cape" />
		<tag k="ssr:stedsnr" v="700449" />
	</node>
	<node lat="63.3719611094205" lon="9.233663897793784" id="-46156">
		<tag k="name" v="Kalvika" />
		<tag k="natural" v="bay" />
		<tag k="ssr:stedsnr" v="701199" />
	</node>
	<node lat="63.50433333052668" lon="9.403630560206565" id="-46159">
		<tag k="name" v="Djupvika" />
		<tag k="natural" v="bay" />
		<tag k="ssr:stedsnr" v="701242" />
	</node>
	<node lat="63.51659166553174" lon="9.413638893364231" id="-46195">
		<tag k="name" v="Ramsvikholman" />
		<tag k="place" v="islet" />
		<tag k="ssr:stedsnr" v="701814" />
	</node>
	<node lat="63.466916669735625" lon="9.490072219608908" id="-46196">
		<tag k="name" v="Sagneset" />
		<tag k="natural" v="cape" />
		<tag k="ssr:stedsnr" v="701822" />
	</node>
	<node lat="63.3745166664387" lon="9.320469453348709" id="-46204">
		<tag k="name" v="Klungervikbukta" />
		<tag k="natural" v="bay" />
		<tag k="ssr:stedsnr" v="701937" />
	</node>
	<node lat="63.57715555194955" lon="9.317644434508667" id="-46212">
		<tag k="name" v="Sørleksa" />
		<tag k="place" v="island" />
		<tag k="ssr:stedsnr" v="619106" />
	</node>
	<node lat="63.451469441696915" lon="9.941852783416534" id="-46239">
		<tag k="name" v="Djupdalsvika" />
		<tag k="natural" v="bay" />
		<tag k="ssr:stedsnr" v="620076" />
	</node>
	<node lat="63.60868611484601" lon="9.746155559656547" id="-46243">
		<tag k="alt_name" v="Skrebukta" />
		<tag k="name" v="Skreabukta" />
		<tag k="natural" v="bay" />
		<tag k="ssr:stedsnr" v="619982" />
	</node>
	<node lat="63.62370555783427" lon="9.609680552628172" id="-46351">
		<tag k="name" v="Røysastøtta" />
		<tag k="natural" v="shoal" />
		<tag k="place" v="locality" />
		<tag k="ssr:stedsnr" v="637306" />
	</node>
	<node lat="63.38663888688888" lon="9.211722224714466" id="-46363">
		<tag k="name" v="Buvikneset" />
		<tag k="natural" v="cape" />
		<tag k="ssr:stedsnr" v="639075" />
	</node>
	<node lat="63.46303888987473" lon="9.336652786841492" id="-46381">
		<tag k="name" v="Bustlistraumen" />
		<tag k="natural" v="strait" />
		<tag k="ssr:stedsnr" v="640240" />
	</node>
	<node lat="63.372730553244416" lon="9.324658337016542" id="-46409">
		<tag k="name" v="Klungervikneset" />
		<tag k="natural" v="cape" />
		<tag k="ssr:stedsnr" v="640929" />
	</node>
	<node lat="63.59553055212321" lon="9.397552786249676" id="-46410">
		<tag k="name" v="Hestneset" />
		<tag k="natural" v="cape" />
		<tag k="ssr:stedsnr" v="705965" />
	</node>
	<node lat="63.56415555286916" lon="9.791613887692186" id="-46438">
		<tag k="name" v="Laksvorpa" />
		<tag k="natural" v="cape" />
		<tag k="ssr:stedsnr" v="706184" />
	</node>
	<node lat="63.50823611167544" lon="9.824191676440062" id="-46454">
		<tag k="name" v="Hamnavika" />
		<tag k="natural" v="bay" />
		<tag k="ssr:stedsnr" v="644003" />
	</node>
	<node lat="63.56726389317959" lon="9.322205559262287" id="-46474">
		<tag k="name" v="Neset" />
		<tag k="natural" v="cape" />
		<tag k="ssr:stedsnr" v="644972" />
	</node>
	<node lat="63.565663885203115" lon="9.29583334182165" id="-46475">
		<tag k="name" v="Beinvika" />
		<tag k="natural" v="bay" />
		<tag k="ssr:stedsnr" v="644974" />
	</node>
	<node lat="63.56801111520332" lon="9.792852778592358" id="-46488">
		<tag k="alt_name" v="Årsteinneset" />
		<tag k="name" v="Årsteinsneset" />
		<tag k="natural" v="cape" />
		<tag k="ssr:stedsnr" v="645185" />
	</node>
	<node lat="63.364705553908706" lon="9.928300008301193" id="-46508">
		<tag k="name" v="Ofsneset" />
		<tag k="natural" v="cape" />
		<tag k="ssr:stedsnr" v="650137" />
	</node>
	<node lat="63.47523610996994" lon="9.489733323485487" id="-46540">
		<tag k="name" v="Hestøya" />
		<tag k="place" v="islet" />
		<tag k="ssr:stedsnr" v="679977" />
	</node>
	<node lat="63.56713055617333" lon="9.27841111554726" id="-46547">
		<tag k="name" v="Rognan" />
		<tag k="place" v="islet" />
		<tag k="ssr:stedsnr" v="680122" />
	</node>
	<node lat="63.557777780435025" lon="9.283533327638322" id="-46589">
		<tag k="name" v="Årsgrunnen" />
		<tag k="natural" v="shoal" />
		<tag k="place" v="locality" />
		<tag k="ssr:stedsnr" v="894864" />
	</node>
	<node lat="63.45821110970881" lon="9.407127780377419" id="-46639">
		<tag k="name" v="Lauvneset" />
		<tag k="natural" v="cape" />
		<tag k="ssr:stedsnr" v="895105" />
	</node>
	<node lat="63.572994446108375" lon="9.453372213997456" id="-46640">
		<tag k="name" v="Gunnarøysundet" />
		<tag k="natural" v="strait" />
		<tag k="ssr:stedsnr" v="895980" />
	</node>
	<node lat="63.57164444371486" lon="9.42843888503788" id="-46641">
		<tag k="name" v="Skallen" />
		<tag k="natural" v="shoal" />
		<tag k="place" v="locality" />
		<tag k="ssr:stedsnr" v="895984" />
	</node>
	<node lat="63.64420833112724" lon="9.705174995180665" id="-46642">
		<tag k="fixme" v="consider seamark:type=rock or natural=shoal" />
		<tag k="name" v="Valsetskjæret" />
		<tag k="place" v="islet" />
		<tag k="ssr:stedsnr" v="699985" />
	</node>
	<node lat="63.600608332182375" lon="9.405672229978004" id="-46725">
		<tag k="name" v="Nordflua" />
		<tag k="natural" v="shoal" />
		<tag k="place" v="locality" />
		<tag k="ssr:stedsnr" v="896952" />
	</node>
	<node lat="63.58098333330438" lon="9.500452772515484" id="-46726">
		<tag k="alt_name" v="Værnestangen" />
		<tag k="name" v="Vernestangen" />
		<tag k="natural" v="cape" />
		<tag k="ssr:stedsnr" v="705711" />
	</node>
	<node lat="63.52546388725433" lon="9.824775003981019" id="-46734">
		<tag k="name" v="Biskophamna" />
		<tag k="natural" v="bay" />
		<tag k="ssr:stedsnr" v="706225" />
	</node>
	<node lat="63.466511113062715" lon="9.435313891662467" id="-46760">
		<tag k="name" v="Naustflua" />
		<tag k="natural" v="shoal" />
		<tag k="place" v="locality" />
		<tag k="ssr:stedsnr" v="712935" />
	</node>
	<node lat="63.4313111076409" lon="9.220644443633969" id="-46762">
		<tag k="name" v="Kråknesbukta" />
		<tag k="natural" v="bay" />
		<tag k="ssr:stedsnr" v="713781" />
	</node>
	<node lat="63.52638333452393" lon="9.40407500961785" id="-46801">
		<tag k="name" v="Kattøya" />
		<tag k="place" v="islet" />
		<tag k="ssr:stedsnr" v="741199" />
	</node>
	<node lat="63.56035833784095" lon="9.798516663936125" id="-46812">
		<tag k="alt_name" v="Litlneset" />
		<tag k="name" v="Litleneset" />
		<tag k="natural" v="cape" />
		<tag k="ssr:stedsnr" v="741683" />
	</node>
	<node lat="63.5872472201479" lon="9.398936118986652" id="-46815">
		<tag k="name" v="Heradsvikneset" />
		<tag k="natural" v="cape" />
		<tag k="ssr:stedsnr" v="228952" />
	</node>
</osm>
