<?xml version="1.0" encoding="UTF-8"?>
<osm version="0.6" generator="osmapis">
	<node lat="63.02735833769758" lon="9.663733338143432" id="-32985">
		<tag k="name" v="Refsdalen" />
		<tag k="natural" v="valley" />
		<tag k="place" v="locality" />
		<tag k="ssr:stedsnr" v="12320" />
	</node>
	<node lat="63.16189166824161" lon="9.509911115659277" id="-32988">
		<tag k="name" v="Haldoslættet" />
		<tag k="place" v="locality" />
		<tag k="ssr:stedsnr" v="12506" />
	</node>
	<node lat="62.973263887644066" lon="9.776600004066774" id="-32992">
		<tag k="name" v="Ramberget" />
		<tag k="natural" v="hill" />
		<tag k="place" v="locality" />
		<tag k="ssr:stedsnr" v="12807" />
	</node>
	<node lat="63.313872226241465" lon="9.615897222634139" id="-33007">
		<tag k="fixme" v="consider natural=peak for the most distinct mountains in the district" />
		<tag k="name" v="Jamtfjellet" />
		<tag k="natural" v="hill" />
		<tag k="place" v="locality" />
		<tag k="ssr:stedsnr" v="13218" />
	</node>
	<node lat="63.442275001614384" lon="9.923288879377647" id="-33009">
		<tag k="fixme" v="consider natural=peak for the most distinct mountains in the district" />
		<tag k="name" v="Djupdalsfjellet" />
		<tag k="natural" v="hill" />
		<tag k="place" v="locality" />
		<tag k="ssr:stedsnr" v="13105" />
	</node>
	<node lat="63.51829444813305" lon="9.588761102138676" id="-33016">
		<tag k="name" v="Middagshaugen" />
		<tag k="natural" v="hill" />
		<tag k="place" v="locality" />
		<tag k="ssr:stedsnr" v="13175" />
	</node>
	<node lat="63.32899167011239" lon="9.403222229450956" id="-33017">
		<tag k="name" v="Urdlia" />
		<tag k="natural" v="slope" />
		<tag k="place" v="locality" />
		<tag k="ssr:stedsnr" v="13177" />
	</node>
	<node lat="63.3095166707096" lon="9.891680550068454" id="-33019">
		<tag k="name" v="Ulvåsen" />
		<tag k="natural" v="hill" />
		<tag k="place" v="locality" />
		<tag k="ssr:stedsnr" v="13317" />
	</node>
	<node lat="63.37659444706975" lon="9.345627770845367" id="-33026">
		<tag k="fixme" v="consider natural=peak for the most distinct mountains in the district" />
		<tag k="name" v="Bjørnastigen" />
		<tag k="natural" v="hill" />
		<tag k="place" v="locality" />
		<tag k="ssr:stedsnr" v="13818" />
	</node>
	<node lat="63.050047220573724" lon="9.57811943852338" id="-33030">
		<tag k="name" v="Syndre Grønlihaugen" />
		<tag k="natural" v="hill" />
		<tag k="place" v="locality" />
		<tag k="ssr:stedsnr" v="29105" />
	</node>
	<node lat="63.055508335617745" lon="9.574619435877567" id="-33031">
		<tag k="name" v="Nørdste Grønlihaugen" />
		<tag k="natural" v="hill" />
		<tag k="place" v="locality" />
		<tag k="ssr:stedsnr" v="29107" />
	</node>
	<node lat="62.98332778097762" lon="9.791497225907898" id="-33034">
		<tag k="fixme" v="consider natural=peak for the most distinct mountains in the district" />
		<tag k="name" v="Småhamran" />
		<tag k="natural" v="hill" />
		<tag k="place" v="locality" />
		<tag k="ssr:stedsnr" v="29118" />
	</node>
	<node lat="62.988505555354685" lon="9.793063881923448" id="-33035">
		<tag k="name" v="Kisstenslia" />
		<tag k="natural" v="slope" />
		<tag k="place" v="locality" />
		<tag k="ssr:stedsnr" v="29121" />
	</node>
	<node lat="63.08610277927416" lon="9.57249723092913" id="-33036">
		<tag k="name" v="Skrivarstuggu" />
		<tag k="natural" v="slope" />
		<tag k="place" v="locality" />
		<tag k="ssr:stedsnr" v="29003" />
	</node>
	<node lat="62.98411111369137" lon="9.799336115565335" id="-33037">
		<tag k="fixme" v="consider natural=peak for the most distinct mountains in the district" />
		<tag k="name" v="Storhamran" />
		<tag k="natural" v="hill" />
		<tag k="place" v="locality" />
		<tag k="ssr:stedsnr" v="29004" />
	</node>
	<node lat="63.15746666723749" lon="9.567627776280224" id="-33038">
		<tag k="name" v="Trobekkdalen" />
		<tag k="natural" v="valley" />
		<tag k="place" v="locality" />
		<tag k="ssr:stedsnr" v="29012" />
	</node>
	<node lat="62.9799361141543" lon="9.628661116675548" id="-33043">
		<tag k="name" v="Namnberget" />
		<tag k="natural" v="hill" />
		<tag k="place" v="locality" />
		<tag k="ssr:stedsnr" v="29223" />
	</node>
	<node lat="63.08898055916857" lon="9.678236111591307" id="-33044">
		<tag k="fixme" v="consider natural=peak for the most distinct mountains in the district" />
		<tag k="name" v="Kåsan" />
		<tag k="natural" v="hill" />
		<tag k="place" v="locality" />
		<tag k="ssr:stedsnr" v="29224" />
	</node>
	<node lat="63.09230000310041" lon="9.675588880832578" id="-33046">
		<tag k="name" v="Våttålia" />
		<tag k="natural" v="slope" />
		<tag k="place" v="locality" />
		<tag k="ssr:stedsnr" v="29229" />
	</node>
	<node lat="63.091477774343794" lon="9.636733342144275" id="-33049">
		<tag k="name" v="Nylykkjberga" />
		<tag k="natural" v="hill" />
		<tag k="place" v="locality" />
		<tag k="ssr:stedsnr" v="29205" />
	</node>
	<node lat="63.097108332865005" lon="9.638605562395474" id="-33051">
		<tag k="fixme" v="consider natural=peak for the most distinct mountains in the district" />
		<tag k="name" v="Røsåsen" />
		<tag k="natural" v="hill" />
		<tag k="place" v="locality" />
		<tag k="ssr:stedsnr" v="29208" />
	</node>
	<node lat="63.00930832897295" lon="9.685305558873592" id="-33053">
		<tag k="name" v="Kjerstodalen" />
		<tag k="natural" v="valley" />
		<tag k="place" v="locality" />
		<tag k="ssr:stedsnr" v="29210" />
	</node>
	<node lat="63.12243333047714" lon="9.791080545723368" id="-33055">
		<tag k="fixme" v="consider natural=peak for the most distinct mountains in the district" />
		<tag k="name" v="Bjørkhaugåsen" />
		<tag k="natural" v="hill" />
		<tag k="place" v="locality" />
		<tag k="ssr:stedsnr" v="29311" />
	</node>
	<node lat="63.1096944421696" lon="9.805108325786328" id="-33058">
		<tag k="fixme" v="consider natural=peak for the most distinct mountains in the district" />
		<tag k="name" v="Granåskjølen" />
		<tag k="natural" v="hill" />
		<tag k="place" v="locality" />
		<tag k="ssr:stedsnr" v="29320" />
	</node>
	<node lat="63.11319722656984" lon="9.624027778127514" id="-33060">
		<tag k="name" v="Ramådalen" />
		<tag k="natural" v="valley" />
		<tag k="place" v="locality" />
		<tag k="ssr:stedsnr" v="29326" />
	</node>
	<node lat="63.139655559477035" lon="9.601377770181157" id="-33061">
		<tag k="fixme" v="consider natural=peak for the most distinct mountains in the district" />
		<tag k="name" v="Lykkjåsen" />
		<tag k="natural" v="hill" />
		<tag k="place" v="locality" />
		<tag k="ssr:stedsnr" v="29332" />
	</node>
	<node lat="63.12414722072044" lon="9.600688881293607" id="-33062">
		<tag k="fixme" v="consider natural=peak for the most distinct mountains in the district" />
		<tag k="name" v="Håmmåren" />
		<tag k="natural" v="hill" />
		<tag k="place" v="locality" />
		<tag k="ssr:stedsnr" v="29333" />
	</node>
	<node lat="62.95877778089102" lon="9.535619444628717" id="-33066">
		<tag k="name" v="Maudalen" />
		<tag k="natural" v="valley" />
		<tag k="place" v="locality" />
		<tag k="ssr:stedsnr" v="29514" />
	</node>
	<node lat="63.1211527759273" lon="9.520749994277175" id="-33068">
		<tag k="fixme" v="consider natural=peak for the most distinct mountains in the district" />
		<tag k="name" v="Høyluåsen" />
		<tag k="natural" v="hill" />
		<tag k="place" v="locality" />
		<tag k="ssr:stedsnr" v="29412" />
	</node>
	<node lat="63.10504999978781" lon="9.444922215737733" id="-33069">
		<tag k="fixme" v="consider natural=peak for the most distinct mountains in the district" />
		<tag k="name" v="Svahyllon" />
		<tag k="natural" v="hill" />
		<tag k="place" v="locality" />
		<tag k="ssr:stedsnr" v="29420" />
	</node>
	<node lat="63.014866666388215" lon="9.731458327255348" id="-33072">
		<tag k="name" v="Ulberget" />
		<tag k="natural" v="hill" />
		<tag k="place" v="locality" />
		<tag k="ssr:stedsnr" v="29432" />
	</node>
	<node lat="63.072166664714594" lon="9.54420833113394" id="-33075">
		<tag k="name" v="Kjøladalen" />
		<tag k="natural" v="valley" />
		<tag k="place" v="locality" />
		<tag k="ssr:stedsnr" v="29483" />
	</node>
	<node lat="63.110838892866404" lon="9.828511105485743" id="-33076">
		<tag k="name" v="Bratthusslættet" />
		<tag k="place" v="locality" />
		<tag k="ssr:stedsnr" v="29488" />
	</node>
	<node lat="63.10836944564966" lon="9.755044446601143" id="-33083">
		<tag k="name" v="Brandan" />
		<tag k="natural" v="hill" />
		<tag k="place" v="locality" />
		<tag k="ssr:stedsnr" v="29709" />
	</node>
	<node lat="63.10875277718508" lon="9.761519451950909" id="-33084">
		<tag k="name" v="Kamben" />
		<tag k="natural" v="ridge" />
		<tag k="place" v="locality" />
		<tag k="ssr:stedsnr" v="29712" />
	</node>
	<node lat="63.1397027785787" lon="9.672799993490973" id="-33085">
		<tag k="fixme" v="consider natural=peak for the most distinct mountains in the district" />
		<tag k="name" v="Litjvassåsen" />
		<tag k="natural" v="hill" />
		<tag k="place" v="locality" />
		<tag k="ssr:stedsnr" v="29682" />
	</node>
	<node lat="63.34775555248359" lon="9.411861103194875" id="-33086">
		<tag k="fixme" v="consider natural=peak for the most distinct mountains in the district" />
		<tag k="name" v="Tømmeråsen" />
		<tag k="natural" v="hill" />
		<tag k="place" v="locality" />
		<tag k="ssr:stedsnr" v="32387" />
	</node>
	<node lat="63.44883055781314" lon="9.503902783965405" id="-33090">
		<tag k="name" v="Svartdalen" />
		<tag k="natural" v="valley" />
		<tag k="place" v="locality" />
		<tag k="ssr:stedsnr" v="33105" />
	</node>
	<node lat="63.45802777550298" lon="9.520588890864598" id="-33091">
		<tag k="name" v="Knubuldalsranken" />
		<tag k="natural" v="ridge" />
		<tag k="place" v="locality" />
		<tag k="ssr:stedsnr" v="33107" />
	</node>
	<node lat="63.43419167075613" lon="9.514127771011063" id="-33092">
		<tag k="name" v="Pollskardet" />
		<tag k="natural" v="valley" />
		<tag k="place" v="locality" />
		<tag k="ssr:stedsnr" v="33114" />
	</node>
	<node lat="63.42018611482168" lon="9.22004721665845" id="-33093">
		<tag k="name" v="Vikalia" />
		<tag k="natural" v="slope" />
		<tag k="place" v="locality" />
		<tag k="ssr:stedsnr" v="33165" />
	</node>
	<node lat="63.3070972186297" lon="9.485358326637872" id="-33094">
		<tag k="name" v="Langlidalskjølen" />
		<tag k="natural" v="ridge" />
		<tag k="place" v="locality" />
		<tag k="ssr:stedsnr" v="33167" />
	</node>
	<node lat="63.31378610951806" lon="9.49399443799704" id="-33095">
		<tag k="name" v="Kjellstadslættet" />
		<tag k="natural" v="slope" />
		<tag k="place" v="locality" />
		<tag k="ssr:stedsnr" v="33168" />
	</node>
	<node lat="63.36161666229368" lon="9.548352771445337" id="-33096">
		<tag k="fixme" v="consider natural=peak for the most distinct mountains in the district" />
		<tag k="name" v="Rogndalsfjellet" />
		<tag k="natural" v="hill" />
		<tag k="place" v="locality" />
		<tag k="ssr:stedsnr" v="33174" />
	</node>
	<node lat="63.345166667652535" lon="9.543413892902226" id="-33098">
		<tag k="name" v="Våvasskollen" />
		<tag k="natural" v="hill" />
		<tag k="place" v="locality" />
		<tag k="ssr:stedsnr" v="33180" />
	</node>
	<node lat="63.463886107286235" lon="9.405761116209966" id="-33099">
		<tag k="name" v="Nesa" />
		<tag k="natural" v="slope" />
		<tag k="place" v="locality" />
		<tag k="ssr:stedsnr" v="33303" />
	</node>
	<node lat="63.2914333353471" lon="9.423127779334271" id="-33102">
		<tag k="name" v="Pynten" />
		<tag k="natural" v="hill" />
		<tag k="place" v="locality" />
		<tag k="ssr:stedsnr" v="33362" />
	</node>
	<node lat="63.44922777589387" lon="9.45785555595616" id="-33103">
		<tag k="name" v="Aundalshalsen" />
		<tag k="natural" v="valley" />
		<tag k="place" v="locality" />
		<tag k="ssr:stedsnr" v="33265" />
	</node>
	<node lat="63.32193055899359" lon="9.44775832418914" id="-33105">
		<tag k="name" v="Kjørylldalen" />
		<tag k="natural" v="valley" />
		<tag k="place" v="locality" />
		<tag k="ssr:stedsnr" v="33401" />
	</node>
	<node lat="63.34816666733508" lon="9.858155556534339" id="-33106">
		<tag k="name" v="Gjeleshaugan" />
		<tag k="natural" v="hill" />
		<tag k="place" v="locality" />
		<tag k="ssr:stedsnr" v="33444" />
	</node>
	<node lat="63.37442500432604" lon="9.866630550077502" id="-33107">
		<tag k="name" v="Sagbakklia" />
		<tag k="natural" v="slope" />
		<tag k="place" v="locality" />
		<tag k="ssr:stedsnr" v="33702" />
	</node>
	<node lat="63.38465555192079" lon="9.868266661194482" id="-33110">
		<tag k="name" v="Haugnesslættet" />
		<tag k="place" v="locality" />
		<tag k="ssr:stedsnr" v="33722" />
	</node>
	<node lat="63.476338884493764" lon="9.306755551236169" id="-33112">
		<tag k="name" v="Krengelvika" />
		<tag k="natural" v="slope" />
		<tag k="place" v="locality" />
		<tag k="ssr:stedsnr" v="33661" />
	</node>
	<node lat="63.48543333542344" lon="9.408188897094194" id="-33114">
		<tag k="name" v="Storholthammaren" />
		<tag k="natural" v="hill" />
		<tag k="place" v="locality" />
		<tag k="ssr:stedsnr" v="33675" />
	</node>
	<node lat="63.40808055464963" lon="9.52443889669114" id="-33115">
		<tag k="name" v="Myrmelskardet" />
		<tag k="natural" v="valley" />
		<tag k="place" v="locality" />
		<tag k="ssr:stedsnr" v="33805" />
	</node>
	<node lat="63.40715277610504" lon="9.283405558720025" id="-33117">
		<tag k="name" v="Slættet" />
		<tag k="natural" v="slope" />
		<tag k="place" v="locality" />
		<tag k="ssr:stedsnr" v="33915" />
	</node>
	<node lat="63.377100001062445" lon="9.272658324899174" id="-33122">
		<tag k="name" v="Grønlia" />
		<tag k="natural" v="slope" />
		<tag k="place" v="locality" />
		<tag k="ssr:stedsnr" v="33866" />
	</node>
	<node lat="63.306238884549266" lon="9.778113880994994" id="-33124">
		<tag k="name" v="Siverhåggån" />
		<tag k="place" v="locality" />
		<tag k="ssr:stedsnr" v="34202" />
	</node>
	<node lat="63.276205556356736" lon="9.736705555134932" id="-33127">
		<tag k="name" v="Hermannsberget" />
		<tag k="natural" v="hill" />
		<tag k="place" v="locality" />
		<tag k="ssr:stedsnr" v="34216" />
	</node>
	<node lat="63.306397220461285" lon="9.886063895596083" id="-33130">
		<tag k="name" v="Ulvåsdalen" />
		<tag k="natural" v="valley" />
		<tag k="place" v="locality" />
		<tag k="ssr:stedsnr" v="34423" />
	</node>
	<node lat="63.16321388990542" lon="9.623916667688492" id="-33131">
		<tag k="fixme" v="consider natural=peak for the most distinct mountains in the district" />
		<tag k="name" v="Litlsæteråsen" />
		<tag k="natural" v="hill" />
		<tag k="place" v="locality" />
		<tag k="ssr:stedsnr" v="34493" />
	</node>
	<node lat="63.1822499960387" lon="9.505508333717072" id="-33135">
		<tag k="name" v="Risdalen" />
		<tag k="natural" v="valley" />
		<tag k="place" v="locality" />
		<tag k="ssr:stedsnr" v="34710" />
	</node>
	<node lat="63.180127776717235" lon="9.495911118778835" id="-33136">
		<tag k="name" v="Brentberga" />
		<tag k="natural" v="hill" />
		<tag k="place" v="locality" />
		<tag k="ssr:stedsnr" v="34712" />
	</node>
	<node lat="63.18418055686814" lon="9.532619439694189" id="-33137">
		<tag k="name" v="Tronget" />
		<tag k="natural" v="valley" />
		<tag k="place" v="locality" />
		<tag k="ssr:stedsnr" v="34715" />
	</node>
	<node lat="63.22844444833807" lon="9.778802785726395" id="-33138">
		<tag k="fixme" v="consider natural=peak for the most distinct mountains in the district" />
		<tag k="name" v="Kleivan" />
		<tag k="natural" v="hill" />
		<tag k="place" v="locality" />
		<tag k="ssr:stedsnr" v="34907" />
	</node>
	<node lat="63.181922226462824" lon="9.770372222547413" id="-33142">
		<tag k="name" v="Hongsloøyberga" />
		<tag k="natural" v="hill" />
		<tag k="place" v="locality" />
		<tag k="ssr:stedsnr" v="35569" />
	</node>
	<node lat="63.187869441914316" lon="9.705241660016043" id="-33143">
		<tag k="fixme" v="consider natural=peak for the most distinct mountains in the district" />
		<tag k="name" v="Granåsen" />
		<tag k="natural" v="hill" />
		<tag k="place" v="locality" />
		<tag k="ssr:stedsnr" v="35577" />
	</node>
	<node lat="63.17515277903886" lon="9.755063888958606" id="-33144">
		<tag k="name" v="Storøya" />
		<tag k="place" v="locality" />
		<tag k="ssr:stedsnr" v="35487" />
	</node>
	<node lat="63.16639721875998" lon="9.770086106880983" id="-33146">
		<tag k="name" v="Ormhaugen" />
		<tag k="natural" v="hill" />
		<tag k="place" v="locality" />
		<tag k="ssr:stedsnr" v="35779" />
	</node>
	<node lat="63.47413611439472" lon="9.87602777710935" id="-33147">
		<tag k="name" v="Tangviklia" />
		<tag k="natural" v="slope" />
		<tag k="place" v="locality" />
		<tag k="ssr:stedsnr" v="37001" />
	</node>
	<node lat="63.49883055453287" lon="9.818183327164363" id="-33148">
		<tag k="name" v="Liahalsen" />
		<tag k="natural" v="slope" />
		<tag k="place" v="locality" />
		<tag k="ssr:stedsnr" v="37012" />
	</node>
	<node lat="63.47144722662553" lon="9.697038881957688" id="-33151">
		<tag k="name" v="Øyangskammen" />
		<tag k="natural" v="ridge" />
		<tag k="place" v="locality" />
		<tag k="ssr:stedsnr" v="38108" />
	</node>
	<node lat="63.47790278132306" lon="9.698736108834114" id="-33152">
		<tag k="name" v="Ytter Bjørnaskardet" />
		<tag k="natural" v="valley" />
		<tag k="place" v="locality" />
		<tag k="ssr:stedsnr" v="38111" />
	</node>
	<node lat="63.46462499796896" lon="9.864877784341296" id="-33155">
		<tag k="name" v="Revurden" />
		<tag k="natural" v="hill" />
		<tag k="place" v="locality" />
		<tag k="ssr:stedsnr" v="38061" />
	</node>
	<node lat="63.60017221830749" lon="9.712877776854615" id="-33158">
		<tag k="fixme" v="consider natural=peak for the most distinct mountains in the district" />
		<tag k="name" v="Stakkslættet" />
		<tag k="natural" v="hill" />
		<tag k="place" v="locality" />
		<tag k="ssr:stedsnr" v="38203" />
	</node>
	<node lat="63.62295833151189" lon="9.66796667252925" id="-33159">
		<tag k="name" v="Kallklovabakken" />
		<tag k="natural" v="slope" />
		<tag k="place" v="locality" />
		<tag k="ssr:stedsnr" v="38306" />
	</node>
	<node lat="63.476880558003955" lon="9.587636110100057" id="-33161">
		<tag k="fixme" v="consider natural=peak for the most distinct mountains in the district" />
		<tag k="name" v="Prekstolen" />
		<tag k="natural" v="hill" />
		<tag k="place" v="locality" />
		<tag k="ssr:stedsnr" v="38501" />
	</node>
	<node lat="63.47744999639053" lon="9.780305545680388" id="-33164">
		<tag k="name" v="Slætta" />
		<tag k="place" v="locality" />
		<tag k="ssr:stedsnr" v="38417" />
	</node>
	<node lat="63.565733333349534" lon="9.65097222877353" id="-33165">
		<tag k="name" v="Merradalen" />
		<tag k="natural" v="valley" />
		<tag k="place" v="locality" />
		<tag k="ssr:stedsnr" v="38613" />
	</node>
	<node lat="63.411408333005035" lon="9.789461111013132" id="-33166">
		<tag k="name" v="Sør Mjøvasslia" />
		<tag k="natural" v="slope" />
		<tag k="place" v="locality" />
		<tag k="ssr:stedsnr" v="38911" />
	</node>
	<node lat="63.42026666837078" lon="9.768708330177557" id="-33167">
		<tag k="name" v="Matbrunndalen" />
		<tag k="natural" v="valley" />
		<tag k="place" v="locality" />
		<tag k="ssr:stedsnr" v="38913" />
	</node>
	<node lat="63.46038611406806" lon="9.814555550245606" id="-33168">
		<tag k="name" v="Bjørndalshaugan" />
		<tag k="natural" v="hill" />
		<tag k="place" v="locality" />
		<tag k="ssr:stedsnr" v="38919" />
	</node>
	<node lat="63.46467777446046" lon="9.774763884624539" id="-33170">
		<tag k="name" v="Møssmerbakken" />
		<tag k="natural" v="slope" />
		<tag k="place" v="locality" />
		<tag k="ssr:stedsnr" v="38924" />
	</node>
	<node lat="63.46231944831069" lon="9.758347227678438" id="-33171">
		<tag k="name" v="Klumpaksla" />
		<tag k="natural" v="hill" />
		<tag k="place" v="locality" />
		<tag k="ssr:stedsnr" v="38926" />
	</node>
	<node lat="63.43397499710421" lon="9.76563611317" id="-33173">
		<tag k="name" v="Kleiva" />
		<tag k="place" v="locality" />
		<tag k="ssr:stedsnr" v="39506" />
	</node>
	<node lat="63.398122222706846" lon="9.795449990839936" id="-33177">
		<tag k="name" v="Litlhåvårdsdalen" />
		<tag k="natural" v="valley" />
		<tag k="place" v="locality" />
		<tag k="ssr:stedsnr" v="39540" />
	</node>
	<node lat="63.52140277530298" lon="9.619066669812918" id="-33178">
		<tag k="name" v="Storlia" />
		<tag k="natural" v="slope" />
		<tag k="place" v="locality" />
		<tag k="ssr:stedsnr" v="39408" />
	</node>
	<node lat="63.53984444454283" lon="9.688824998875512" id="-33179">
		<tag k="name" v="Skjeggbakken" />
		<tag k="natural" v="slope" />
		<tag k="place" v="locality" />
		<tag k="ssr:stedsnr" v="39902" />
	</node>
	<node lat="63.28186944673791" lon="9.783791666252478" id="-33184">
		<tag k="name" v="Ustjåren" />
		<tag k="place" v="locality" />
		<tag k="ssr:stedsnr" v="237471" />
	</node>
	<node lat="63.22070833636969" lon="9.514627779528244" id="-33188">
		<tag k="name" v="Kåsan" />
		<tag k="natural" v="slope" />
		<tag k="place" v="locality" />
		<tag k="ssr:stedsnr" v="55582" />
	</node>
	<node lat="63.24423055328215" lon="9.520002780093687" id="-33189">
		<tag k="name" v="Fatet" />
		<tag k="place" v="locality" />
		<tag k="ssr:stedsnr" v="55587" />
	</node>
	<node lat="63.26004722612608" lon="9.501663892575609" id="-33198">
		<tag k="alt_name" v="Dørdalsfjellet" />
		<tag k="fixme" v="consider natural=peak for the most distinct mountains in the district" />
		<tag k="name" v="Knippfjellet" />
		<tag k="natural" v="hill" />
		<tag k="place" v="locality" />
		<tag k="ssr:stedsnr" v="73004" />
	</node>
	<node lat="63.26206666396613" lon="9.588855552714403" id="-33199">
		<tag k="name" v="Svorkdalskjølen" />
		<tag k="natural" v="hill" />
		<tag k="place" v="locality" />
		<tag k="ssr:stedsnr" v="73018" />
	</node>
	<node lat="63.434483330075665" lon="9.907825003212418" id="-33200">
		<tag k="alt_name" v="Plasshaugen" />
		<tag k="fixme" v="consider natural=peak for the most distinct mountains in the district" />
		<tag k="name" v="Grubben" />
		<tag k="natural" v="hill" />
		<tag k="place" v="locality" />
		<tag k="ssr:stedsnr" v="73104" />
	</node>
	<node lat="63.429549998505365" lon="9.90187778138218" id="-33201">
		<tag k="fixme" v="consider natural=peak for the most distinct mountains in the district" />
		<tag k="name" v="Bjørnbetkammen" />
		<tag k="natural" v="hill" />
		<tag k="place" v="locality" />
		<tag k="ssr:stedsnr" v="73105" />
	</node>
	<node lat="63.21281111438172" lon="9.73273333316088" id="-33209">
		<tag k="name" v="Tangdalen" />
		<tag k="natural" v="valley" />
		<tag k="place" v="locality" />
		<tag k="ssr:stedsnr" v="73221" />
	</node>
	<node lat="63.05473611172881" lon="9.60475833728185" id="-33211">
		<tag k="name" v="Berga" />
		<tag k="natural" v="hill" />
		<tag k="place" v="locality" />
		<tag k="ssr:stedsnr" v="73364" />
	</node>
	<node lat="63.07955833770116" lon="9.524502784305335" id="-33215">
		<tag k="fixme" v="consider natural=peak for the most distinct mountains in the district" />
		<tag k="name" v="Høgliåsen" />
		<tag k="natural" v="hill" />
		<tag k="place" v="locality" />
		<tag k="ssr:stedsnr" v="73387" />
	</node>
	<node lat="63.07975277401386" lon="9.606502777158214" id="-33216">
		<tag k="name" v="Moen" />
		<tag k="place" v="locality" />
		<tag k="ssr:stedsnr" v="73391" />
	</node>
	<node lat="63.205847218052" lon="9.579280546448679" id="-33223">
		<tag k="fixme" v="consider natural=peak for the most distinct mountains in the district" />
		<tag k="name" v="Hostokamben" />
		<tag k="natural" v="hill" />
		<tag k="place" v="locality" />
		<tag k="ssr:stedsnr" v="73629" />
	</node>
	<node lat="63.41150555185664" lon="9.768858332704513" id="-33237">
		<tag k="name" v="Styggholknubben" />
		<tag k="natural" v="hill" />
		<tag k="place" v="locality" />
		<tag k="ssr:stedsnr" v="74118" />
	</node>
	<node lat="63.32431944462425" lon="9.41176110614315" id="-33240">
		<tag k="alt_name" v="Seterfjella" />
		<tag k="fixme" v="consider natural=peak for the most distinct mountains in the district" />
		<tag k="name" v="Sæterfjellet" />
		<tag k="natural" v="hill" />
		<tag k="place" v="locality" />
		<tag k="ssr:stedsnr" v="74166" />
	</node>
	<node lat="63.39204166945183" lon="9.816749998864802" id="-33246">
		<tag k="name" v="Sollihøgda" />
		<tag k="natural" v="hill" />
		<tag k="place" v="locality" />
		<tag k="ssr:stedsnr" v="74373" />
	</node>
	<node lat="63.55685555412064" lon="9.7490666601551" id="-33247">
		<tag k="fixme" v="consider natural=peak for the most distinct mountains in the district" />
		<tag k="name" v="Stakkengåsen" />
		<tag k="natural" v="hill" />
		<tag k="place" v="locality" />
		<tag k="ssr:stedsnr" v="74609" />
	</node>
	<node lat="63.500108331358085" lon="9.815036116321615" id="-33250">
		<tag k="fixme" v="consider natural=peak for the most distinct mountains in the district" />
		<tag k="name" v="Vollahaugen" />
		<tag k="natural" v="hill" />
		<tag k="place" v="locality" />
		<tag k="ssr:stedsnr" v="87092" />
	</node>
	<node lat="62.969458329754055" lon="9.82721666102896" id="-33252">
		<tag k="name" v="Litjstorhaugen" />
		<tag k="natural" v="hill" />
		<tag k="place" v="locality" />
		<tag k="ssr:stedsnr" v="89018" />
	</node>
	<node lat="63.079358337074524" lon="9.555744441299037" id="-33254">
		<tag k="name" v="Slåttliin" />
		<tag k="natural" v="slope" />
		<tag k="place" v="locality" />
		<tag k="ssr:stedsnr" v="89119" />
	</node>
	<node lat="62.98716111442813" lon="9.71869721434574" id="-33255">
		<tag k="name" v="Uvdalen" />
		<tag k="natural" v="valley" />
		<tag k="place" v="locality" />
		<tag k="ssr:stedsnr" v="89120" />
	</node>
	<node lat="63.146455559462666" lon="9.70591943582319" id="-33259">
		<tag k="name" v="Flottberga" />
		<tag k="natural" v="hill" />
		<tag k="place" v="locality" />
		<tag k="ssr:stedsnr" v="89306" />
	</node>
	<node lat="63.12180278014328" lon="9.800652768536825" id="-33264">
		<tag k="name" v="Skavlian" />
		<tag k="natural" v="slope" />
		<tag k="place" v="locality" />
		<tag k="ssr:stedsnr" v="89323" />
	</node>
	<node lat="63.10860277340515" lon="9.672791674077155" id="-33265">
		<tag k="fixme" v="consider natural=peak for the most distinct mountains in the district" />
		<tag k="name" v="Granin" />
		<tag k="natural" v="hill" />
		<tag k="place" v="locality" />
		<tag k="ssr:stedsnr" v="89328" />
	</node>
	<node lat="63.082127773564125" lon="9.58741943999348" id="-33266">
		<tag k="name" v="Torhaugen" />
		<tag k="natural" v="hill" />
		<tag k="place" v="locality" />
		<tag k="ssr:stedsnr" v="89069" />
	</node>
	<node lat="63.096338886407146" lon="9.741119441683047" id="-33272">
		<tag k="name" v="Stakkslættet" />
		<tag k="place" v="locality" />
		<tag k="ssr:stedsnr" v="89504" />
	</node>
	<node lat="62.96360000278413" lon="9.510263884673583" id="-33273">
		<tag k="fixme" v="consider natural=peak for the most distinct mountains in the district" />
		<tag k="name" v="Gammelåsen" />
		<tag k="natural" v="hill" />
		<tag k="place" v="locality" />
		<tag k="ssr:stedsnr" v="89515" />
	</node>
	<node lat="63.08802222666496" lon="9.856413897727958" id="-33277">
		<tag k="name" v="Merkesberget" />
		<tag k="natural" v="hill" />
		<tag k="place" v="locality" />
		<tag k="ssr:stedsnr" v="89717" />
	</node>
	<node lat="63.07174999625578" lon="9.91350278504517" id="-33278">
		<tag k="name" v="Røyadalen" />
		<tag k="natural" v="valley" />
		<tag k="place" v="locality" />
		<tag k="ssr:stedsnr" v="89721" />
	</node>
	<node lat="63.126780558757325" lon="9.696822219376875" id="-33279">
		<tag k="name" v="Letan" />
		<tag k="natural" v="slope" />
		<tag k="place" v="locality" />
		<tag k="ssr:stedsnr" v="89726" />
	</node>
	<node lat="63.06411110689466" lon="9.950247218054606" id="-33287">
		<tag k="name" v="Sæterhaugan" />
		<tag k="natural" v="hill" />
		<tag k="place" v="locality" />
		<tag k="ssr:stedsnr" v="89686" />
	</node>
	<node lat="63.50302500304221" lon="9.497588881369978" id="-33290">
		<tag k="name" v="Raudlia" />
		<tag k="natural" v="slope" />
		<tag k="place" v="locality" />
		<tag k="ssr:stedsnr" v="93007" />
	</node>
	<node lat="63.54834166650621" lon="9.50483054970844" id="-33295">
		<tag k="name" v="Mossarabben" />
		<tag k="natural" v="hill" />
		<tag k="place" v="locality" />
		<tag k="ssr:stedsnr" v="93027" />
	</node>
	<node lat="63.39299999744195" lon="9.672558329504904" id="-33296">
		<tag k="name" v="Seterlihøgda" />
		<tag k="natural" v="hill" />
		<tag k="place" v="locality" />
		<tag k="ssr:stedsnr" v="93102" />
	</node>
	<node lat="63.39804444403326" lon="9.445686111109158" id="-33297">
		<tag k="name" v="Hestberget" />
		<tag k="natural" v="hill" />
		<tag k="place" v="locality" />
		<tag k="ssr:stedsnr" v="93407" />
	</node>
	<node lat="63.40698055162476" lon="9.460361113058331" id="-33300">
		<tag k="fixme" v="consider natural=peak for the most distinct mountains in the district" />
		<tag k="name" v="Dørafjellet" />
		<tag k="natural" v="hill" />
		<tag k="place" v="locality" />
		<tag k="ssr:stedsnr" v="93376" />
	</node>
	<node lat="63.4151611083151" lon="9.464594447615427" id="-33302">
		<tag k="name" v="Gausdalen" />
		<tag k="natural" v="valley" />
		<tag k="place" v="locality" />
		<tag k="ssr:stedsnr" v="93387" />
	</node>
	<node lat="63.41009722623482" lon="9.324047232278398" id="-33305">
		<tag k="name" v="Rypliheia" />
		<tag k="natural" v="hill" />
		<tag k="place" v="locality" />
		<tag k="ssr:stedsnr" v="93868" />
	</node>
	<node lat="63.25881388758131" lon="9.758205557259053" id="-33306">
		<tag k="name" v="Ødynhaugen" />
		<tag k="natural" v="hill" />
		<tag k="place" v="locality" />
		<tag k="ssr:stedsnr" v="94010" />
	</node>
	<node lat="63.35433611472988" lon="9.787047222144386" id="-33313">
		<tag k="name" v="Fjellilia" />
		<tag k="natural" v="slope" />
		<tag k="place" v="locality" />
		<tag k="ssr:stedsnr" v="94165" />
	</node>
	<node lat="63.39577778180864" lon="9.482172224016018" id="-33314">
		<tag k="name" v="Halvardstubakken" />
		<tag k="natural" v="slope" />
		<tag k="place" v="locality" />
		<tag k="ssr:stedsnr" v="94168" />
	</node>
	<node lat="63.32080277744306" lon="9.769322215669137" id="-33317">
		<tag k="name" v="Maritmyrbakken" />
		<tag k="natural" v="slope" />
		<tag k="place" v="locality" />
		<tag k="ssr:stedsnr" v="94210" />
	</node>
	<node lat="63.48755277749123" lon="9.355438879497367" id="-33321">
		<tag k="name" v="Amundknubben" />
		<tag k="natural" v="hill" />
		<tag k="place" v="locality" />
		<tag k="ssr:stedsnr" v="94287" />
	</node>
	<node lat="63.20715833360616" lon="9.856102786681793" id="-33323">
		<tag k="name" v="Merrabakken" />
		<tag k="natural" v="slope" />
		<tag k="place" v="locality" />
		<tag k="ssr:stedsnr" v="94402" />
	</node>
	<node lat="63.35651388519971" lon="9.440694435770917" id="-33326">
		<tag k="name" v="Hallardalen" />
		<tag k="natural" v="valley" />
		<tag k="place" v="locality" />
		<tag k="ssr:stedsnr" v="94468" />
	</node>
	<node lat="63.194155555969715" lon="9.857866674952222" id="-33327">
		<tag k="fixme" v="consider natural=peak for the most distinct mountains in the district" />
		<tag k="name" v="Damtjønnåsen" />
		<tag k="natural" v="hill" />
		<tag k="place" v="locality" />
		<tag k="ssr:stedsnr" v="94410" />
	</node>
	<node lat="63.216572222415365" lon="9.894772226890435" id="-33328">
		<tag k="fixme" v="consider natural=peak for the most distinct mountains in the district" />
		<tag k="name" v="Petteråsen" />
		<tag k="natural" v="hill" />
		<tag k="place" v="locality" />
		<tag k="ssr:stedsnr" v="94392" />
	</node>
	<node lat="63.23127499571481" lon="9.845822218424882" id="-33329">
		<tag k="fixme" v="consider natural=peak for the most distinct mountains in the district" />
		<tag k="name" v="Langtjønnåsen" />
		<tag k="natural" v="hill" />
		<tag k="place" v="locality" />
		<tag k="ssr:stedsnr" v="94396" />
	</node>
	<node lat="63.510041668904826" lon="9.550611115220137" id="-33331">
		<tag k="name" v="Storheia" />
		<tag k="natural" v="hill" />
		<tag k="place" v="locality" />
		<tag k="ssr:stedsnr" v="94830" />
	</node>
	<node lat="63.40328888728756" lon="9.89739166736172" id="-33333">
		<tag k="name" v="Durmeldalen" />
		<tag k="natural" v="valley" />
		<tag k="place" v="locality" />
		<tag k="ssr:stedsnr" v="94706" />
	</node>
	<node lat="63.248283335392586" lon="9.635741660989902" id="-33340">
		<tag k="fixme" v="consider natural=peak for the most distinct mountains in the district" />
		<tag k="name" v="Sæteråsen" />
		<tag k="natural" v="hill" />
		<tag k="place" v="locality" />
		<tag k="ssr:stedsnr" v="95721" />
	</node>
	<node lat="63.20618888811917" lon="9.591549997555989" id="-33341">
		<tag k="name" v="Brattråkhaugan" />
		<tag k="natural" v="hill" />
		<tag k="place" v="locality" />
		<tag k="ssr:stedsnr" v="95802" />
	</node>
	<node lat="63.217000001769655" lon="9.677969441627596" id="-33344">
		<tag k="name" v="Sæterberga" />
		<tag k="natural" v="hill" />
		<tag k="place" v="locality" />
		<tag k="ssr:stedsnr" v="95868" />
	</node>
	<node lat="63.2553138929528" lon="9.672511114967369" id="-33346">
		<tag k="name" v="Ormhaugen" />
		<tag k="natural" v="hill" />
		<tag k="place" v="locality" />
		<tag k="ssr:stedsnr" v="95776" />
	</node>
	<node lat="63.17866110868318" lon="9.792719453582038" id="-33353">
		<tag k="fixme" v="consider natural=peak for the most distinct mountains in the district" />
		<tag k="name" v="Kolmilåsen" />
		<tag k="natural" v="hill" />
		<tag k="place" v="locality" />
		<tag k="ssr:stedsnr" v="96561" />
	</node>
	<node lat="63.1563861088896" lon="9.774463885984906" id="-33355">
		<tag k="name" v="Dalen" />
		<tag k="natural" v="valley" />
		<tag k="place" v="locality" />
		<tag k="ssr:stedsnr" v="96767" />
	</node>
	<node lat="63.44314444218359" lon="9.847133323391544" id="-33358">
		<tag k="name" v="Storlia" />
		<tag k="natural" v="slope" />
		<tag k="place" v="locality" />
		<tag k="ssr:stedsnr" v="99182" />
	</node>
	<node lat="63.63465555742093" lon="9.696963881682079" id="-33360">
		<tag k="name" v="Lågja" />
		<tag k="natural" v="valley" />
		<tag k="place" v="locality" />
		<tag k="ssr:stedsnr" v="99322" />
	</node>
	<node lat="63.547555556863124" lon="9.801130557605035" id="-33361">
		<tag k="fixme" v="consider natural=peak for the most distinct mountains in the district" />
		<tag k="name" v="Svarthaugen" />
		<tag k="natural" v="hill" />
		<tag k="place" v="locality" />
		<tag k="ssr:stedsnr" v="99372" />
	</node>
	<node lat="63.47833610799485" lon="9.849080552847091" id="-33362">
		<tag k="name" v="Dølholet" />
		<tag k="place" v="locality" />
		<tag k="ssr:stedsnr" v="99009" />
	</node>
	<node lat="63.45099166849202" lon="9.857150003415038" id="-33365">
		<tag k="name" v="Sannerdalshaugan" />
		<tag k="natural" v="hill" />
		<tag k="place" v="locality" />
		<tag k="ssr:stedsnr" v="99064" />
	</node>
	<node lat="63.45908055947464" lon="9.896455565236808" id="-33366">
		<tag k="name" v="Kvernhusbakken" />
		<tag k="natural" v="slope" />
		<tag k="place" v="locality" />
		<tag k="ssr:stedsnr" v="99070" />
	</node>
	<node lat="63.44833888721812" lon="9.89782221643481" id="-33368">
		<tag k="fixme" v="consider natural=peak for the most distinct mountains in the district" />
		<tag k="name" v="Nonshaugen" />
		<tag k="natural" v="hill" />
		<tag k="place" v="locality" />
		<tag k="ssr:stedsnr" v="99074" />
	</node>
	<node lat="63.566275000851036" lon="9.779300007732166" id="-33370">
		<tag k="name" v="Stormyrskardet" />
		<tag k="natural" v="valley" />
		<tag k="place" v="locality" />
		<tag k="ssr:stedsnr" v="99223" />
	</node>
	<node lat="63.505061109212086" lon="9.697780546059297" id="-33374">
		<tag k="fixme" v="consider natural=peak for the most distinct mountains in the district" />
		<tag k="name" v="Renne" />
		<tag k="natural" v="hill" />
		<tag k="place" v="locality" />
		<tag k="ssr:stedsnr" v="99409" />
	</node>
	<node lat="63.438347221268884" lon="9.817344451353348" id="-33379">
		<tag k="name" v="Mortenenghøgda" />
		<tag k="natural" v="hill" />
		<tag k="place" v="locality" />
		<tag k="ssr:stedsnr" v="99615" />
	</node>
	<node lat="63.44061944429366" lon="9.758722225108695" id="-33383">
		<tag k="name" v="Sannerdalshaugan" />
		<tag k="natural" v="hill" />
		<tag k="place" v="locality" />
		<tag k="ssr:stedsnr" v="99584" />
	</node>
	<node lat="63.461802775998926" lon="9.811730560812702" id="-33385">
		<tag k="name" v="Jonslættet" />
		<tag k="place" v="locality" />
		<tag k="ssr:stedsnr" v="99915" />
	</node>
	<node lat="63.46640833659561" lon="9.76875832579697" id="-33386">
		<tag k="name" v="Orrhønbakkan" />
		<tag k="natural" v="slope" />
		<tag k="place" v="locality" />
		<tag k="ssr:stedsnr" v="99919" />
	</node>
	<node lat="63.232088890777895" lon="9.39021111601537" id="-33391">
		<tag k="name" v="Kjerringdalsbrunen" />
		<tag k="natural" v="slope" />
		<tag k="place" v="locality" />
		<tag k="ssr:stedsnr" v="101505" />
	</node>
	<node lat="62.97659011660267" lon="9.534900487810992" id="-33395">
		<tag k="fixme" v="multiple name tags, choose one and add the other to alt_name; consider natural=peak for the most distinct mountains in the district" />
		<tag k="name" v="Kveldshomna;Kjerka" />
		<tag k="natural" v="hill" />
		<tag k="place" v="locality" />
		<tag k="ssr:stedsnr" v="133123" />
	</node>
	<node lat="63.12585277840315" lon="9.879022214240004" id="-33398">
		<tag k="fixme" v="multiple name tags, choose one and add the other to alt_name; consider natural=peak for the most distinct mountains in the district" />
		<tag k="name" v="Bjørnåsen;Brannåsen" />
		<tag k="natural" v="hill" />
		<tag k="place" v="locality" />
		<tag k="ssr:stedsnr" v="133061" />
	</node>
	<node lat="63.069352779292565" lon="9.634369446618408" id="-33400">
		<tag k="name" v="Skjulberget" />
		<tag k="natural" v="hill" />
		<tag k="place" v="locality" />
		<tag k="ssr:stedsnr" v="133359" />
	</node>
	<node lat="63.09300833703146" lon="9.533141663990147" id="-33401">
		<tag k="name" v="Storhaugen" />
		<tag k="natural" v="hill" />
		<tag k="place" v="locality" />
		<tag k="ssr:stedsnr" v="133364" />
	</node>
	<node lat="63.098008335155015" lon="9.645713883855938" id="-33402">
		<tag k="fixme" v="consider natural=peak for the most distinct mountains in the district" />
		<tag k="name" v="Losåsen" />
		<tag k="natural" v="hill" />
		<tag k="place" v="locality" />
		<tag k="ssr:stedsnr" v="133369" />
	</node>
	<node lat="63.15450555910077" lon="9.619936102293352" id="-33405">
		<tag k="fixme" v="consider natural=peak for the most distinct mountains in the district" />
		<tag k="name" v="Haukåskamben" />
		<tag k="natural" v="hill" />
		<tag k="place" v="locality" />
		<tag k="ssr:stedsnr" v="133512" />
	</node>
	<node lat="63.06588333640408" lon="9.57012499911861" id="-33407">
		<tag k="fixme" v="consider natural=peak for the most distinct mountains in the district" />
		<tag k="name" v="Storslåttåsen" />
		<tag k="natural" v="hill" />
		<tag k="place" v="locality" />
		<tag k="ssr:stedsnr" v="133412" />
	</node>
	<node lat="63.38373055144991" lon="9.27891389467801" id="-33411">
		<tag k="name" v="Rognlia" />
		<tag k="natural" v="slope" />
		<tag k="place" v="locality" />
		<tag k="ssr:stedsnr" v="133817" />
	</node>
	<node lat="63.42356111397777" lon="9.683880550419012" id="-33414">
		<tag k="name" v="Kollheia" />
		<tag k="natural" v="hill" />
		<tag k="place" v="locality" />
		<tag k="ssr:stedsnr" v="133753" />
	</node>
	<node lat="63.43968888897103" lon="9.369477780792556" id="-33417">
		<tag k="alt_name" v="Kvernstadfjellet" />
		<tag k="fixme" v="consider natural=peak for the most distinct mountains in the district" />
		<tag k="name" v="Kvennstadfjellet" />
		<tag k="natural" v="hill" />
		<tag k="place" v="locality" />
		<tag k="ssr:stedsnr" v="133769" />
	</node>
	<node lat="63.48137778164462" lon="9.75840832907001" id="-33420">
		<tag k="alt_name" v="Høkollen" />
		<tag k="fixme" v="consider natural=peak for the most distinct mountains in the district" />
		<tag k="name" v="Høgkollen" />
		<tag k="natural" v="hill" />
		<tag k="place" v="locality" />
		<tag k="ssr:stedsnr" v="134069" />
	</node>
	<node lat="63.50590555961712" lon="9.389802772355878" id="-33423">
		<tag k="fixme" v="consider natural=peak for the most distinct mountains in the district" />
		<tag k="name" v="Vikaheia" />
		<tag k="natural" v="hill" />
		<tag k="place" v="locality" />
		<tag k="ssr:stedsnr" v="134217" />
	</node>
	<node lat="63.45988333523653" lon="9.544049992091757" id="-33424">
		<tag k="fixme" v="consider natural=peak for the most distinct mountains in the district" />
		<tag k="name" v="Remmaheia" />
		<tag k="natural" v="hill" />
		<tag k="place" v="locality" />
		<tag k="ssr:stedsnr" v="133956" />
	</node>
	<node lat="63.53361388924446" lon="9.516555560459615" id="-33430">
		<tag k="fixme" v="consider natural=peak for the most distinct mountains in the district" />
		<tag k="name" v="Kleppskardklumpen" />
		<tag k="natural" v="hill" />
		<tag k="place" v="locality" />
		<tag k="ssr:stedsnr" v="134170" />
	</node>
	<node lat="63.29292499894363" lon="9.769011101157222" id="-33433">
		<tag k="name" v="Usthåmmåren" />
		<tag k="natural" v="hill" />
		<tag k="old_name" v="Usthammaren" />
		<tag k="place" v="locality" />
		<tag k="ssr:stedsnr" v="134369" />
	</node>
	<node lat="63.37044166627092" lon="9.795200001986984" id="-33437">
		<tag k="fixme" v="consider natural=peak for the most distinct mountains in the district" />
		<tag k="name" v="Vargheia" />
		<tag k="natural" v="hill" />
		<tag k="place" v="locality" />
		<tag k="ssr:stedsnr" v="134457" />
	</node>
	<node lat="63.53390833032634" lon="9.722399995333081" id="-33439">
		<tag k="fixme" v="consider natural=peak for the most distinct mountains in the district" />
		<tag k="name" v="Svartdalsheia" />
		<tag k="natural" v="hill" />
		<tag k="place" v="locality" />
		<tag k="ssr:stedsnr" v="134704" />
	</node>
	<node lat="63.25235555973935" lon="9.78141388086545" id="-33440">
		<tag k="name" v="Engbrumoen" />
		<tag k="place" v="locality" />
		<tag k="ssr:stedsnr" v="134708" />
	</node>
	<node lat="63.386158337075976" lon="9.401483335557455" id="-33444">
		<tag k="fixme" v="consider natural=peak for the most distinct mountains in the district" />
		<tag k="name" v="Aksla" />
		<tag k="natural" v="hill" />
		<tag k="place" v="locality" />
		<tag k="ssr:stedsnr" v="134862" />
	</node>
	<node lat="63.14311110950811" lon="9.747205546179803" id="-33445">
		<tag k="fixme" v="consider natural=peak for the most distinct mountains in the district" />
		<tag k="name" v="Slåttåsen" />
		<tag k="natural" v="hill" />
		<tag k="place" v="locality" />
		<tag k="ssr:stedsnr" v="254078" />
	</node>
	<node lat="63.22556388618067" lon="9.885947213635038" id="-33448">
		<tag k="fixme" v="consider natural=peak for the most distinct mountains in the district" />
		<tag k="name" v="Blomliåsen" />
		<tag k="natural" v="hill" />
		<tag k="place" v="locality" />
		<tag k="ssr:stedsnr" v="255234" />
	</node>
	<node lat="63.044827773369846" lon="9.739330562478623" id="-33451">
		<tag k="fixme" v="multiple name tags, choose one and add the other to alt_name" />
		<tag k="name" v="Høgåsen;Storhaugen" />
		<tag k="natural" v="hill" />
		<tag k="place" v="locality" />
		<tag k="ssr:stedsnr" v="254573" />
	</node>
	<node lat="63.32050277850202" lon="9.464666675584374" id="-33454">
		<tag k="fixme" v="consider natural=peak for the most distinct mountains in the district" />
		<tag k="name" v="Almbergpynten" />
		<tag k="natural" v="hill" />
		<tag k="place" v="locality" />
		<tag k="ssr:stedsnr" v="255186" />
	</node>
	<node lat="62.917049999634024" lon="9.43450278475435" id="-33466">
		<tag k="fixme" v="consider natural=peak for the most distinct mountains in the district" />
		<tag k="loc_name" v="Midthatten" />
		<tag k="name" v="Midthattan" />
		<tag k="natural" v="hill" />
		<tag k="place" v="locality" />
		<tag k="ssr:stedsnr" v="255250" />
	</node>
	<node lat="62.908336108963745" lon="9.44007778032783" id="-33467">
		<tag k="name" v="Skaret" />
		<tag k="natural" v="valley" />
		<tag k="place" v="locality" />
		<tag k="ssr:stedsnr" v="255254" />
	</node>
	<node lat="63.1155833353681" lon="9.70780834055838" id="-33473">
		<tag k="fixme" v="consider natural=peak for the most distinct mountains in the district" />
		<tag k="name" v="Gråhåmmåren" />
		<tag k="natural" v="hill" />
		<tag k="place" v="locality" />
		<tag k="ssr:stedsnr" v="255496" />
	</node>
	<node lat="63.116374998077134" lon="9.46595832721914" id="-33476">
		<tag k="fixme" v="consider natural=peak for the most distinct mountains in the district" />
		<tag k="name" v="Garbergsfjellet" />
		<tag k="natural" v="hill" />
		<tag k="place" v="locality" />
		<tag k="ssr:stedsnr" v="255440" />
	</node>
	<node lat="63.11529002892119" lon="9.680751702219675" id="-33478">
		<tag k="name" v="Litjslåtthaugen" />
		<tag k="natural" v="hill" />
		<tag k="place" v="locality" />
		<tag k="ssr:stedsnr" v="255451" />
	</node>
	<node lat="63.08564166701379" lon="9.82018332651301" id="-33482">
		<tag k="fixme" v="consider natural=peak for the most distinct mountains in the district" />
		<tag k="name" v="Prestsæteråsen" />
		<tag k="natural" v="hill" />
		<tag k="place" v="locality" />
		<tag k="ssr:stedsnr" v="255528" />
	</node>
	<node lat="63.13501944829408" lon="9.684041671740387" id="-33483">
		<tag k="fixme" v="consider natural=peak for the most distinct mountains in the district" />
		<tag k="name" v="Liaåsen" />
		<tag k="natural" v="hill" />
		<tag k="place" v="locality" />
		<tag k="ssr:stedsnr" v="255533" />
	</node>
	<node lat="63.40639166583345" lon="9.234286101790179" id="-33491">
		<tag k="name" v="Asphaugen" />
		<tag k="natural" v="hill" />
		<tag k="place" v="locality" />
		<tag k="ssr:stedsnr" v="255785" />
	</node>
	<node lat="63.15523332965904" lon="9.471130557769177" id="-33492">
		<tag k="name" v="Bjønnaråa" />
		<tag k="natural" v="valley" />
		<tag k="place" v="locality" />
		<tag k="ssr:stedsnr" v="255544" />
	</node>
	<node lat="63.06598611165972" lon="9.804413889429977" id="-33497">
		<tag k="name" v="Bjørnadalen" />
		<tag k="natural" v="valley" />
		<tag k="place" v="locality" />
		<tag k="ssr:stedsnr" v="255632" />
	</node>
	<node lat="63.43134999701728" lon="9.427944438984253" id="-33500">
		<tag k="name" v="Botn" />
		<tag k="natural" v="valley" />
		<tag k="place" v="locality" />
		<tag k="ssr:stedsnr" v="255823" />
	</node>
	<node lat="63.398844442422686" lon="9.317752771850694" id="-33502">
		<tag k="name" v="Utvikdalen" />
		<tag k="natural" v="valley" />
		<tag k="place" v="locality" />
		<tag k="ssr:stedsnr" v="255886" />
	</node>
	<node lat="63.39938889271778" lon="9.297722215372982" id="-33503">
		<tag k="alt_name" v="Vasslibotnan" />
		<tag k="name" v="Vasslibotn" />
		<tag k="natural" v="valley" />
		<tag k="place" v="locality" />
		<tag k="ssr:stedsnr" v="255887" />
	</node>
	<node lat="63.399469442740184" lon="9.384294442987086" id="-33504">
		<tag k="alt_name" v="Storvassheia" />
		<tag k="fixme" v="consider natural=peak for the most distinct mountains in the district" />
		<tag k="name" v="Storevassheia" />
		<tag k="natural" v="hill" />
		<tag k="place" v="locality" />
		<tag k="ssr:stedsnr" v="255898" />
	</node>
	<node lat="63.42639166292661" lon="9.271694436015508" id="-33505">
		<tag k="alt_name" v="Mellomåsen" />
		<tag k="fixme" v="consider natural=peak for the most distinct mountains in the district" />
		<tag k="name" v="Mellomåskammen" />
		<tag k="natural" v="hill" />
		<tag k="place" v="locality" />
		<tag k="ssr:stedsnr" v="255827" />
	</node>
	<node lat="63.433819441129636" lon="9.295994452554313" id="-33507">
		<tag k="alt_name" v="Skjettfella" />
		<tag k="name" v="Skiftefallet" />
		<tag k="natural" v="valley" />
		<tag k="place" v="locality" />
		<tag k="ssr:stedsnr" v="255842" />
	</node>
	<node lat="63.383888893256994" lon="9.345936102951082" id="-33508">
		<tag k="fixme" v="consider natural=peak for the most distinct mountains in the district" />
		<tag k="name" v="Sæteråskammen" />
		<tag k="natural" v="hill" />
		<tag k="place" v="locality" />
		<tag k="ssr:stedsnr" v="255853" />
	</node>
	<node lat="63.46300833783056" lon="9.622488894032005" id="-33510">
		<tag k="name" v="Remmadalen" />
		<tag k="natural" v="valley" />
		<tag k="place" v="locality" />
		<tag k="ssr:stedsnr" v="255961" />
	</node>
	<node lat="63.479461109660285" lon="9.31989166275431" id="-33511">
		<tag k="fixme" v="consider natural=peak for the most distinct mountains in the district" />
		<tag k="name" v="Hyllfjellet" />
		<tag k="natural" v="hill" />
		<tag k="place" v="locality" />
		<tag k="ssr:stedsnr" v="255992" />
	</node>
	<node lat="63.51600833368205" lon="9.618197221724731" id="-33514">
		<tag k="fixme" v="consider natural=peak for the most distinct mountains in the district" />
		<tag k="name" v="Steinsdalsheia" />
		<tag k="natural" v="hill" />
		<tag k="place" v="locality" />
		<tag k="ssr:stedsnr" v="256184" />
	</node>
	<node lat="63.291213888326816" lon="9.416175007797323" id="-33516">
		<tag k="alt_name" v="Nyslættdalen" />
		<tag k="name" v="Nyslettdalen" />
		<tag k="natural" v="valley" />
		<tag k="place" v="locality" />
		<tag k="ssr:stedsnr" v="256231" />
	</node>
	<node lat="63.04185555288964" lon="9.996197219705644" id="-33520">
		<tag k="name" v="Litllykkjdalen" />
		<tag k="natural" v="valley" />
		<tag k="place" v="locality" />
		<tag k="ssr:stedsnr" v="149361" />
	</node>
	<node lat="63.04737499849855" lon="9.999250002639055" id="-33521">
		<tag k="fixme" v="consider natural=peak for the most distinct mountains in the district" />
		<tag k="name" v="Skårhåmmåren" />
		<tag k="natural" v="hill" />
		<tag k="place" v="locality" />
		<tag k="ssr:stedsnr" v="149369" />
	</node>
	<node lat="62.95816389135444" lon="9.5654583333456" id="-33530">
		<tag k="name" v="Stakksenghaugen" />
		<tag k="natural" v="hill" />
		<tag k="place" v="locality" />
		<tag k="ssr:stedsnr" v="150060" />
	</node>
	<node lat="63.0065944445151" lon="9.784186108695856" id="-33531">
		<tag k="name" v="Høyvadbakken" />
		<tag k="natural" v="slope" />
		<tag k="place" v="locality" />
		<tag k="ssr:stedsnr" v="150067" />
	</node>
	<node lat="62.94918055933015" lon="9.57387222293045" id="-33532">
		<tag k="name" v="Gravurliin" />
		<tag k="natural" v="slope" />
		<tag k="place" v="locality" />
		<tag k="ssr:stedsnr" v="150069" />
	</node>
	<node lat="63.00681667079988" lon="9.792430560856689" id="-33533">
		<tag k="name" v="Sandøymoen" />
		<tag k="place" v="locality" />
		<tag k="ssr:stedsnr" v="150071" />
	</node>
	<node lat="62.99939166421282" lon="9.695158337096359" id="-33534">
		<tag k="fixme" v="consider natural=peak for the most distinct mountains in the district" />
		<tag k="name" v="Snodalsbrunin" />
		<tag k="natural" v="hill" />
		<tag k="place" v="locality" />
		<tag k="ssr:stedsnr" v="150202" />
	</node>
	<node lat="63.08793888844478" lon="9.632094445526091" id="-33535">
		<tag k="name" v="Brekkhaugen" />
		<tag k="natural" v="hill" />
		<tag k="place" v="locality" />
		<tag k="ssr:stedsnr" v="150204" />
	</node>
	<node lat="63.0811055551203" lon="9.642975003476803" id="-33537">
		<tag k="name" v="Glennberga" />
		<tag k="natural" v="hill" />
		<tag k="place" v="locality" />
		<tag k="ssr:stedsnr" v="150224" />
	</node>
	<node lat="62.98057500382932" lon="9.69554999769715" id="-33539">
		<tag k="fixme" v="consider natural=peak for the most distinct mountains in the district" />
		<tag k="name" v="Øvståsen" />
		<tag k="natural" v="hill" />
		<tag k="place" v="locality" />
		<tag k="ssr:stedsnr" v="150257" />
	</node>
	<node lat="62.991247218983084" lon="9.78177500365923" id="-33541">
		<tag k="name" v="Kålåslia" />
		<tag k="natural" v="slope" />
		<tag k="place" v="locality" />
		<tag k="ssr:stedsnr" v="150109" />
	</node>
	<node lat="62.969897223050765" lon="9.646750008323735" id="-33542">
		<tag k="name" v="Stakkstenghaugen" />
		<tag k="natural" v="hill" />
		<tag k="place" v="locality" />
		<tag k="ssr:stedsnr" v="150124" />
	</node>
	<node lat="63.08555000420923" lon="9.80568055552882" id="-33555">
		<tag k="fixme" v="consider natural=peak for the most distinct mountains in the district" />
		<tag k="name" v="Nørdre Svartvassåsen" />
		<tag k="natural" v="hill" />
		<tag k="place" v="locality" />
		<tag k="ssr:stedsnr" v="150458" />
	</node>
	<node lat="62.986602778095474" lon="9.538713891206339" id="-33556">
		<tag k="name" v="Ettre Djupdalen" />
		<tag k="natural" v="valley" />
		<tag k="place" v="locality" />
		<tag k="ssr:stedsnr" v="150464" />
	</node>
	<node lat="63.17864722615747" lon="9.50755555307982" id="-33562">
		<tag k="name" v="Måssådalen" />
		<tag k="natural" v="valley" />
		<tag k="place" v="locality" />
		<tag k="ssr:stedsnr" v="150359" />
	</node>
	<node lat="63.18244999871029" lon="9.525519442252026" id="-33563">
		<tag k="name" v="Lyttarhaugen" />
		<tag k="natural" v="hill" />
		<tag k="place" v="locality" />
		<tag k="ssr:stedsnr" v="150368" />
	</node>
	<node lat="63.06782500274518" lon="9.726872231377858" id="-33565">
		<tag k="fixme" v="consider natural=peak for the most distinct mountains in the district" />
		<tag k="name" v="Stenkåsa" />
		<tag k="natural" v="hill" />
		<tag k="place" v="locality" />
		<tag k="ssr:stedsnr" v="150508" />
	</node>
	<node lat="62.91943611543361" lon="9.549874997888313" id="-33566">
		<tag k="name" v="Jølkroken" />
		<tag k="natural" v="valley" />
		<tag k="place" v="locality" />
		<tag k="ssr:stedsnr" v="150516" />
	</node>
	<node lat="63.55248888516527" lon="9.47538888910053" id="-33575">
		<tag k="name" v="Litlvassmoen" />
		<tag k="place" v="locality" />
		<tag k="ssr:stedsnr" v="154002" />
	</node>
	<node lat="63.45488332949528" lon="9.411686117754986" id="-33576">
		<tag k="name" v="Saunesknubben" />
		<tag k="natural" v="hill" />
		<tag k="place" v="locality" />
		<tag k="ssr:stedsnr" v="154005" />
	</node>
	<node lat="63.45040277711979" lon="9.419475000511461" id="-33577">
		<tag k="name" v="Urshausen" />
		<tag k="natural" v="hill" />
		<tag k="place" v="locality" />
		<tag k="ssr:stedsnr" v="154010" />
	</node>
	<node lat="63.40327500317001" lon="9.476013889650675" id="-33578">
		<tag k="name" v="Storklumpen" />
		<tag k="natural" v="ridge" />
		<tag k="place" v="locality" />
		<tag k="ssr:stedsnr" v="154148" />
	</node>
	<node lat="63.459822224128" lon="9.354938887986199" id="-33580">
		<tag k="name" v="Stålet" />
		<tag k="natural" v="slope" />
		<tag k="place" v="locality" />
		<tag k="ssr:stedsnr" v="154310" />
	</node>
	<node lat="63.46315555370332" lon="9.377166662979942" id="-33581">
		<tag k="name" v="Tollviklia" />
		<tag k="natural" v="slope" />
		<tag k="place" v="locality" />
		<tag k="ssr:stedsnr" v="154315" />
	</node>
	<node lat="63.522825002331544" lon="9.42412222252779" id="-33582">
		<tag k="name" v="Rønnesheia" />
		<tag k="natural" v="hill" />
		<tag k="place" v="locality" />
		<tag k="ssr:stedsnr" v="154048" />
	</node>
	<node lat="63.52090555747364" lon="9.427449994200822" id="-33583">
		<tag k="name" v="Ramsvikbakken" />
		<tag k="natural" v="slope" />
		<tag k="place" v="locality" />
		<tag k="ssr:stedsnr" v="154051" />
	</node>
	<node lat="63.398322220227364" lon="9.262366658852656" id="-33584">
		<tag k="name" v="Spondalen" />
		<tag k="natural" v="valley" />
		<tag k="place" v="locality" />
		<tag k="ssr:stedsnr" v="154213" />
	</node>
	<node lat="63.390172218765144" lon="9.336783335643087" id="-33587">
		<tag k="fixme" v="consider natural=peak for the most distinct mountains in the district" />
		<tag k="name" v="Mjølkråa" />
		<tag k="natural" v="hill" />
		<tag k="place" v="locality" />
		<tag k="ssr:stedsnr" v="154259" />
	</node>
	<node lat="63.31562778009417" lon="9.440691668839298" id="-33588">
		<tag k="name" v="Storlia" />
		<tag k="natural" v="slope" />
		<tag k="place" v="locality" />
		<tag k="ssr:stedsnr" v="154448" />
	</node>
	<node lat="63.34175555626944" lon="9.407799995546476" id="-33589">
		<tag k="name" v="Nerpollen" />
		<tag k="natural" v="hill" />
		<tag k="place" v="locality" />
		<tag k="ssr:stedsnr" v="154499" />
	</node>
	<node lat="63.34860555802035" lon="9.415319454321937" id="-33590">
		<tag k="name" v="Kleiva" />
		<tag k="natural" v="slope" />
		<tag k="place" v="locality" />
		<tag k="ssr:stedsnr" v="154507" />
	</node>
	<node lat="63.474780551782615" lon="9.383594454008556" id="-33593">
		<tag k="name" v="Mjøneslia" />
		<tag k="natural" v="slope" />
		<tag k="place" v="locality" />
		<tag k="ssr:stedsnr" v="154706" />
	</node>
	<node lat="63.48641666878499" lon="9.395683342454168" id="-33595">
		<tag k="name" v="Litlbuslættet" />
		<tag k="place" v="locality" />
		<tag k="ssr:stedsnr" v="154701" />
	</node>
	<node lat="63.268652775133006" lon="9.753427773449348" id="-33596">
		<tag k="name" v="Høglia" />
		<tag k="natural" v="slope" />
		<tag k="place" v="locality" />
		<tag k="ssr:stedsnr" v="155005" />
	</node>
	<node lat="63.382044446870175" lon="9.341477769269002" id="-33600">
		<tag k="fixme" v="consider natural=peak for the most distinct mountains in the district" />
		<tag k="name" v="Seteråsen" />
		<tag k="natural" v="hill" />
		<tag k="place" v="locality" />
		<tag k="ssr:stedsnr" v="154964" />
	</node>
	<node lat="63.324255553942095" lon="9.826730564479673" id="-33604">
		<tag k="name" v="Andåkerberget" />
		<tag k="natural" v="hill" />
		<tag k="place" v="locality" />
		<tag k="ssr:stedsnr" v="155409" />
	</node>
	<node lat="63.18113889201891" lon="9.875761118420165" id="-33612">
		<tag k="name" v="Ramberga" />
		<tag k="natural" v="hill" />
		<tag k="place" v="locality" />
		<tag k="ssr:stedsnr" v="155330" />
	</node>
	<node lat="63.3769777780948" lon="9.890344436417307" id="-33620">
		<tag k="name" v="Aundalen" />
		<tag k="natural" v="valley" />
		<tag k="place" v="locality" />
		<tag k="ssr:stedsnr" v="155606" />
	</node>
	<node lat="63.168763887154746" lon="9.691463881175265" id="-33621">
		<tag k="name" v="Kambskardet" />
		<tag k="natural" v="valley" />
		<tag k="place" v="locality" />
		<tag k="ssr:stedsnr" v="155607" />
	</node>
	<node lat="63.179136113956964" lon="9.699524992027749" id="-33625">
		<tag k="fixme" v="consider natural=peak for the most distinct mountains in the district" />
		<tag k="name" v="Røsvassåsen" />
		<tag k="natural" v="hill" />
		<tag k="place" v="locality" />
		<tag k="ssr:stedsnr" v="155616" />
	</node>
	<node lat="63.176608329755865" lon="9.688305555970064" id="-33626">
		<tag k="name" v="Ryphaugen" />
		<tag k="natural" v="hill" />
		<tag k="place" v="locality" />
		<tag k="ssr:stedsnr" v="155617" />
	</node>
	<node lat="63.430702777534705" lon="9.923872212639179" id="-33628">
		<tag k="name" v="Vardlia" />
		<tag k="natural" v="slope" />
		<tag k="place" v="locality" />
		<tag k="ssr:stedsnr" v="155660" />
	</node>
	<node lat="63.19429721974774" lon="9.743933333695681" id="-33634">
		<tag k="name" v="Vormlia" />
		<tag k="natural" v="slope" />
		<tag k="place" v="locality" />
		<tag k="ssr:stedsnr" v="156920" />
	</node>
	<node lat="63.27612499977154" lon="9.640658329113583" id="-33636">
		<tag k="name" v="Kalvhåggålia" />
		<tag k="natural" v="slope" />
		<tag k="place" v="locality" />
		<tag k="ssr:stedsnr" v="156932" />
	</node>
	<node lat="63.23074166614414" lon="9.565116657904206" id="-33637">
		<tag k="name" v="Spranget" />
		<tag k="natural" v="cliff" />
		<tag k="ssr:stedsnr" v="156809" />
	</node>
	<node lat="63.202830551871564" lon="9.570905551115034" id="-33639">
		<tag k="fixme" v="consider natural=peak for the most distinct mountains in the district" />
		<tag k="name" v="Styggråket" />
		<tag k="natural" v="hill" />
		<tag k="place" v="locality" />
		<tag k="ssr:stedsnr" v="156822" />
	</node>
	<node lat="63.22493333668993" lon="9.670113882293453" id="-33641">
		<tag k="fixme" v="consider natural=peak for the most distinct mountains in the district" />
		<tag k="name" v="Grytdalsbrunen" />
		<tag k="natural" v="hill" />
		<tag k="place" v="locality" />
		<tag k="ssr:stedsnr" v="156864" />
	</node>
	<node lat="63.15591944533434" lon="9.70534722806485" id="-33645">
		<tag k="name" v="Øvermoen" />
		<tag k="place" v="locality" />
		<tag k="ssr:stedsnr" v="157629" />
	</node>
	<node lat="63.1864388874021" lon="9.817458333978609" id="-33646">
		<tag k="name" v="Polstadhaugen" />
		<tag k="natural" v="hill" />
		<tag k="place" v="locality" />
		<tag k="ssr:stedsnr" v="157899" />
	</node>
	<node lat="63.47206666405699" lon="9.860500005078123" id="-33649">
		<tag k="name" v="Kollhaugen" />
		<tag k="natural" v="hill" />
		<tag k="place" v="locality" />
		<tag k="ssr:stedsnr" v="159002" />
	</node>
	<node lat="63.49742777953453" lon="9.842352787351405" id="-33653">
		<tag k="name" v="Granåshaugen" />
		<tag k="natural" v="hill" />
		<tag k="place" v="locality" />
		<tag k="ssr:stedsnr" v="159049" />
	</node>
	<node lat="63.48932222174809" lon="9.776416674477861" id="-33655">
		<tag k="name" v="Åsmullia" />
		<tag k="natural" v="slope" />
		<tag k="place" v="locality" />
		<tag k="ssr:stedsnr" v="159419" />
	</node>
	<node lat="63.47251944297755" lon="9.784022223170412" id="-33656">
		<tag k="name" v="Lykkja" />
		<tag k="natural" v="slope" />
		<tag k="place" v="locality" />
		<tag k="ssr:stedsnr" v="159422" />
	</node>
	<node lat="63.49757500195562" lon="9.733363892769708" id="-33657">
		<tag k="name" v="Solemslia" />
		<tag k="natural" v="slope" />
		<tag k="place" v="locality" />
		<tag k="ssr:stedsnr" v="159463" />
	</node>
	<node lat="63.58562222670219" lon="9.669491667818603" id="-33659">
		<tag k="name" v="Attvendtdalen" />
		<tag k="natural" v="valley" />
		<tag k="place" v="locality" />
		<tag k="ssr:stedsnr" v="159713" />
	</node>
	<node lat="63.58453055229297" lon="9.653763891673952" id="-33660">
		<tag k="fixme" v="consider natural=peak for the most distinct mountains in the district" />
		<tag k="name" v="Vesterfjella" />
		<tag k="natural" v="hill" />
		<tag k="place" v="locality" />
		<tag k="ssr:stedsnr" v="159715" />
	</node>
	<node lat="63.232699995609636" lon="9.366774997474394" id="-33665">
		<tag k="name" v="Knebbradden" />
		<tag k="natural" v="ridge" />
		<tag k="place" v="locality" />
		<tag k="ssr:stedsnr" v="162521" />
	</node>
	<node lat="63.22813055915544" lon="9.45665556258724" id="-33666">
		<tag k="name" v="Fuggelåsøya" />
		<tag k="place" v="locality" />
		<tag k="ssr:stedsnr" v="162552" />
	</node>
	<node lat="63.24321666367421" lon="9.479311104491142" id="-33673">
		<tag k="fixme" v="consider natural=peak for the most distinct mountains in the district" />
		<tag k="name" v="Litlfjellet" />
		<tag k="natural" v="hill" />
		<tag k="place" v="locality" />
		<tag k="ssr:stedsnr" v="176606" />
	</node>
	<node lat="63.33611944705356" lon="9.431005556323251" id="-33678">
		<tag k="name" v="Vuttudalen" />
		<tag k="natural" v="valley" />
		<tag k="place" v="locality" />
		<tag k="ssr:stedsnr" v="181405" />
	</node>
	<node lat="63.29854166814448" lon="9.868577780224802" id="-33680">
		<tag k="alt_name" v="Rømmeskammen" />
		<tag k="fixme" v="consider natural=peak for the most distinct mountains in the district" />
		<tag k="name" v="Rødkammen" />
		<tag k="natural" v="hill" />
		<tag k="place" v="locality" />
		<tag k="ssr:stedsnr" v="195365" />
	</node>
	<node lat="63.051963889717335" lon="9.485636109673516" id="-33681">
		<tag k="fixme" v="consider natural=peak for the most distinct mountains in the district" />
		<tag k="name" v="Jøngfjellet" />
		<tag k="natural" v="hill" />
		<tag k="place" v="locality" />
		<tag k="ssr:stedsnr" v="195368" />
	</node>
	<node lat="63.0472222212025" lon="9.60361667172935" id="-33682">
		<tag k="fixme" v="consider natural=peak for the most distinct mountains in the district" />
		<tag k="name" v="Hånnåkamben" />
		<tag k="natural" v="hill" />
		<tag k="place" v="locality" />
		<tag k="ssr:stedsnr" v="195370" />
	</node>
	<node lat="63.04850597176543" lon="9.636207993557782" id="-33683">
		<tag k="fixme" v="consider natural=peak for the most distinct mountains in the district" />
		<tag k="name" v="Storheia" />
		<tag k="natural" v="hill" />
		<tag k="place" v="locality" />
		<tag k="ssr:stedsnr" v="195371" />
	</node>
	<node lat="63.5024027762049" lon="9.677441670617972" id="-33684">
		<tag k="name" v="Solemsdalen" />
		<tag k="natural" v="valley" />
		<tag k="place" v="locality" />
		<tag k="ssr:stedsnr" v="266864" />
	</node>
	<node lat="63.010713891215794" lon="9.782691667628098" id="-33688">
		<tag k="name" v="Liin" />
		<tag k="natural" v="slope" />
		<tag k="place" v="locality" />
		<tag k="ssr:stedsnr" v="211076" />
	</node>
	<node lat="62.97036666722566" lon="9.579711103064032" id="-33689">
		<tag k="name" v="Storhaugen" />
		<tag k="natural" v="hill" />
		<tag k="place" v="locality" />
		<tag k="ssr:stedsnr" v="211081" />
	</node>
	<node lat="63.07416666716948" lon="9.563555550050584" id="-33690">
		<tag k="name" v="Baklidalen" />
		<tag k="natural" v="valley" />
		<tag k="place" v="locality" />
		<tag k="ssr:stedsnr" v="211103" />
	</node>
	<node lat="62.9798138919658" lon="9.754594437643245" id="-33693">
		<tag k="name" v="Århaugen" />
		<tag k="natural" v="hill" />
		<tag k="place" v="locality" />
		<tag k="ssr:stedsnr" v="211115" />
	</node>
	<node lat="62.97091666477252" lon="9.643461103821464" id="-33698">
		<tag k="name" v="Snødalen" />
		<tag k="natural" v="valley" />
		<tag k="place" v="locality" />
		<tag k="ssr:stedsnr" v="211140" />
	</node>
	<node lat="63.04793610750508" lon="9.62004723091235" id="-33700">
		<tag k="name" v="Ytre Styggdalen" />
		<tag k="natural" v="valley" />
		<tag k="place" v="locality" />
		<tag k="ssr:stedsnr" v="211147" />
	</node>
	<node lat="62.958605555924045" lon="9.644294439274463" id="-33701">
		<tag k="name" v="Taløya" />
		<tag k="place" v="locality" />
		<tag k="ssr:stedsnr" v="211149" />
	</node>
	<node lat="63.034091663361956" lon="9.669388889596705" id="-33705">
		<tag k="name" v="Brekkhaugen" />
		<tag k="natural" v="hill" />
		<tag k="place" v="locality" />
		<tag k="ssr:stedsnr" v="211185" />
	</node>
	<node lat="62.94759444191037" lon="9.66448334190867" id="-33706">
		<tag k="name" v="Kringlåthaugen" />
		<tag k="natural" v="hill" />
		<tag k="place" v="locality" />
		<tag k="ssr:stedsnr" v="211189" />
	</node>
	<node lat="63.012961113011116" lon="9.67958334318076" id="-33708">
		<tag k="name" v="Storkløfta" />
		<tag k="natural" v="valley" />
		<tag k="place" v="locality" />
		<tag k="ssr:stedsnr" v="211198" />
	</node>
	<node lat="63.026791662537484" lon="9.690719442646012" id="-33710">
		<tag k="name" v="Telibakken" />
		<tag k="natural" v="slope" />
		<tag k="place" v="locality" />
		<tag k="ssr:stedsnr" v="211205" />
	</node>
	<node lat="63.09037222137018" lon="9.627788896233838" id="-33711">
		<tag k="name" v="Nystuggulia" />
		<tag k="natural" v="slope" />
		<tag k="place" v="locality" />
		<tag k="ssr:stedsnr" v="211206" />
	</node>
	<node lat="62.973699996237265" lon="9.634930561484008" id="-33712">
		<tag k="name" v="Litlslåttberget" />
		<tag k="natural" v="hill" />
		<tag k="place" v="locality" />
		<tag k="ssr:stedsnr" v="211210" />
	</node>
	<node lat="63.00853611285165" lon="9.696911109293808" id="-33713">
		<tag k="name" v="Brattbakken" />
		<tag k="natural" v="slope" />
		<tag k="place" v="locality" />
		<tag k="ssr:stedsnr" v="211225" />
	</node>
	<node lat="62.99022222323521" lon="9.702938884762869" id="-33714">
		<tag k="name" v="Vargdalen" />
		<tag k="natural" v="valley" />
		<tag k="place" v="locality" />
		<tag k="ssr:stedsnr" v="211227" />
	</node>
	<node lat="63.09441110970111" lon="9.444105549665585" id="-33720">
		<tag k="name" v="Flottabakkan" />
		<tag k="natural" v="slope" />
		<tag k="place" v="locality" />
		<tag k="ssr:stedsnr" v="211404" />
	</node>
	<node lat="63.07431111080618" lon="9.478744445771941" id="-33724">
		<tag k="name" v="Grevjan" />
		<tag k="natural" v="hill" />
		<tag k="place" v="locality" />
		<tag k="ssr:stedsnr" v="211423" />
	</node>
	<node lat="63.0797416710512" lon="9.494030563737649" id="-33726">
		<tag k="name" v="Fonndalen" />
		<tag k="natural" v="valley" />
		<tag k="place" v="locality" />
		<tag k="ssr:stedsnr" v="211430" />
	</node>
	<node lat="63.114961109227046" lon="9.812466663967031" id="-33727">
		<tag k="name" v="Svartdalen" />
		<tag k="natural" v="valley" />
		<tag k="place" v="locality" />
		<tag k="ssr:stedsnr" v="211312" />
	</node>
	<node lat="63.12417222237927" lon="9.78411665993638" id="-33728">
		<tag k="name" v="Kisvedlia" />
		<tag k="natural" v="slope" />
		<tag k="place" v="locality" />
		<tag k="ssr:stedsnr" v="211333" />
	</node>
	<node lat="62.99649444505864" lon="9.92365554996852" id="-33730">
		<tag k="name" v="Solsida" />
		<tag k="natural" v="slope" />
		<tag k="place" v="locality" />
		<tag k="ssr:stedsnr" v="211344" />
	</node>
	<node lat="63.0015083306663" lon="9.910752768472356" id="-33733">
		<tag k="name" v="Svorkstoan" />
		<tag k="natural" v="slope" />
		<tag k="place" v="locality" />
		<tag k="ssr:stedsnr" v="211364" />
	</node>
	<node lat="63.1749833341234" lon="9.518880561392443" id="-33734">
		<tag k="fixme" v="consider natural=peak for the most distinct mountains in the district" />
		<tag k="name" v="Fuglåsen" />
		<tag k="natural" v="hill" />
		<tag k="place" v="locality" />
		<tag k="ssr:stedsnr" v="211374" />
	</node>
	<node lat="63.12486388954532" lon="9.713952770416915" id="-33735">
		<tag k="fixme" v="consider natural=peak for the most distinct mountains in the district" />
		<tag k="name" v="Såttån" />
		<tag k="natural" v="hill" />
		<tag k="place" v="locality" />
		<tag k="ssr:stedsnr" v="211378" />
	</node>
	<node lat="62.99968055524062" lon="9.988955564490116" id="-33736">
		<tag k="name" v="Brenthaugan" />
		<tag k="natural" v="hill" />
		<tag k="place" v="locality" />
		<tag k="ssr:stedsnr" v="211381" />
	</node>
	<node lat="62.99616388697961" lon="10.006933332047282" id="-33738">
		<tag k="name" v="Høgda" />
		<tag k="natural" v="hill" />
		<tag k="place" v="locality" />
		<tag k="ssr:stedsnr" v="211385" />
	</node>
	<node lat="63.13744166492977" lon="9.480291671119337" id="-33739">
		<tag k="name" v="Svartdalen" />
		<tag k="natural" v="valley" />
		<tag k="place" v="locality" />
		<tag k="ssr:stedsnr" v="211386" />
	</node>
	<node lat="63.13072222308477" lon="9.480366663259298" id="-33740">
		<tag k="name" v="Dalan" />
		<tag k="natural" v="valley" />
		<tag k="place" v="locality" />
		<tag k="ssr:stedsnr" v="211391" />
	</node>
	<node lat="63.13450833327323" lon="9.831594452649856" id="-33743">
		<tag k="name" v="Øyabakkan" />
		<tag k="natural" v="slope" />
		<tag k="place" v="locality" />
		<tag k="ssr:stedsnr" v="211531" />
	</node>
	<node lat="63.133855556318686" lon="9.837477773076289" id="-33744">
		<tag k="name" v="Vinterslættet" />
		<tag k="place" v="locality" />
		<tag k="ssr:stedsnr" v="211533" />
	</node>
	<node lat="63.133397221170036" lon="9.8650416643716" id="-33745">
		<tag k="name" v="Olsslættet" />
		<tag k="place" v="locality" />
		<tag k="ssr:stedsnr" v="211539" />
	</node>
	<node lat="62.99060000184731" lon="9.908102777435191" id="-33750">
		<tag k="name" v="Hesthomna" />
		<tag k="natural" v="hill" />
		<tag k="place" v="locality" />
		<tag k="ssr:stedsnr" v="211636" />
	</node>
	<node lat="62.96737798087246" lon="9.56349628927436" id="-33753">
		<tag k="fixme" v="consider natural=peak for the most distinct mountains in the district" />
		<tag k="name" v="Tølløvåsen" />
		<tag k="natural" v="hill" />
		<tag k="place" v="locality" />
		<tag k="ssr:stedsnr" v="211675" />
	</node>
	<node lat="63.11605833016963" lon="9.70592777428153" id="-33755">
		<tag k="fixme" v="consider natural=peak for the most distinct mountains in the district" />
		<tag k="name" v="Duppelgrova" />
		<tag k="natural" v="hill" />
		<tag k="place" v="locality" />
		<tag k="ssr:stedsnr" v="211728" />
	</node>
	<node lat="63.4506833339351" lon="9.492069436099948" id="-33761">
		<tag k="name" v="Tjørnhaugan" />
		<tag k="natural" v="hill" />
		<tag k="place" v="locality" />
		<tag k="ssr:stedsnr" v="215102" />
	</node>
	<node lat="63.425072218881105" lon="9.534494449356096" id="-33762">
		<tag k="name" v="Annalia" />
		<tag k="natural" v="slope" />
		<tag k="place" v="locality" />
		<tag k="ssr:stedsnr" v="215103" />
	</node>
	<node lat="63.459063888890626" lon="9.498722214504864" id="-33763">
		<tag k="name" v="Fjøsaberget" />
		<tag k="natural" v="hill" />
		<tag k="place" v="locality" />
		<tag k="ssr:stedsnr" v="215106" />
	</node>
	<node lat="63.359291664607824" lon="9.575091676300232" id="-33764">
		<tag k="name" v="Kunstigan" />
		<tag k="natural" v="slope" />
		<tag k="place" v="locality" />
		<tag k="ssr:stedsnr" v="215108" />
	</node>
	<node lat="63.4823194406364" lon="9.578875001839757" id="-33768">
		<tag k="name" v="Selstaddalen" />
		<tag k="natural" v="valley" />
		<tag k="place" v="locality" />
		<tag k="ssr:stedsnr" v="215123" />
	</node>
	<node lat="63.39415555158447" lon="9.533141660926917" id="-33769">
		<tag k="name" v="Toreslættet" />
		<tag k="natural" v="slope" />
		<tag k="place" v="locality" />
		<tag k="ssr:stedsnr" v="215131" />
	</node>
	<node lat="63.3507944473426" lon="9.541716661576155" id="-33771">
		<tag k="name" v="Setergardsdalen" />
		<tag k="natural" v="valley" />
		<tag k="place" v="locality" />
		<tag k="ssr:stedsnr" v="215178" />
	</node>
	<node lat="63.40641388923639" lon="9.267447220275756" id="-33772">
		<tag k="name" v="Norddalen" />
		<tag k="natural" v="valley" />
		<tag k="place" v="locality" />
		<tag k="ssr:stedsnr" v="215183" />
	</node>
	<node lat="63.4241555574647" lon="9.24155000464605" id="-33773">
		<tag k="name" v="Storskardet" />
		<tag k="natural" v="valley" />
		<tag k="place" v="locality" />
		<tag k="ssr:stedsnr" v="215186" />
	</node>
	<node lat="63.548836112359346" lon="9.49305277635286" id="-33774">
		<tag k="name" v="Reksterkammen" />
		<tag k="natural" v="hill" />
		<tag k="place" v="locality" />
		<tag k="ssr:stedsnr" v="215187" />
	</node>
	<node lat="63.39765278024071" lon="9.248461111853713" id="-33775">
		<tag k="name" v="Mosodalen" />
		<tag k="natural" v="valley" />
		<tag k="place" v="locality" />
		<tag k="ssr:stedsnr" v="215188" />
	</node>
	<node lat="63.40620833483513" lon="9.2567499993252" id="-33776">
		<tag k="name" v="Norddalskammen" />
		<tag k="natural" v="ridge" />
		<tag k="place" v="locality" />
		<tag k="ssr:stedsnr" v="215189" />
	</node>
	<node lat="63.376858336418266" lon="9.574566662236602" id="-33779">
		<tag k="name" v="Myrkleiva" />
		<tag k="natural" v="slope" />
		<tag k="place" v="locality" />
		<tag k="ssr:stedsnr" v="215087" />
	</node>
	<node lat="63.38780833583539" lon="9.592747227612469" id="-33780">
		<tag k="name" v="Hestvelta" />
		<tag k="natural" v="valley" />
		<tag k="place" v="locality" />
		<tag k="ssr:stedsnr" v="215089" />
	</node>
	<node lat="63.456269447653696" lon="9.512355549615096" id="-33781">
		<tag k="name" v="Knubuldalen" />
		<tag k="natural" v="valley" />
		<tag k="place" v="locality" />
		<tag k="ssr:stedsnr" v="215094" />
	</node>
	<node lat="63.344022220120976" lon="9.444402775767232" id="-33783">
		<tag k="name" v="Mannheia" />
		<tag k="natural" v="hill" />
		<tag k="place" v="locality" />
		<tag k="ssr:stedsnr" v="215280" />
	</node>
	<node lat="63.3570861114762" lon="9.450891666072836" id="-33784">
		<tag k="fixme" v="consider natural=peak for the most distinct mountains in the district" />
		<tag k="name" v="Akslen" />
		<tag k="natural" v="hill" />
		<tag k="place" v="locality" />
		<tag k="ssr:stedsnr" v="215292" />
	</node>
	<node lat="63.41000277584442" lon="9.467969452272252" id="-33786">
		<tag k="fixme" v="consider natural=peak for the most distinct mountains in the district" />
		<tag k="name" v="Gullbrandslættfjellet" />
		<tag k="natural" v="hill" />
		<tag k="place" v="locality" />
		<tag k="ssr:stedsnr" v="215514" />
	</node>
	<node lat="63.476419446276616" lon="9.357991665748354" id="-33789">
		<tag k="name" v="Bustliknubben" />
		<tag k="natural" v="hill" />
		<tag k="place" v="locality" />
		<tag k="ssr:stedsnr" v="215685" />
	</node>
	<node lat="63.443911107270495" lon="9.545816669278846" id="-33791">
		<tag k="name" v="Grønlia" />
		<tag k="natural" v="slope" />
		<tag k="place" v="locality" />
		<tag k="ssr:stedsnr" v="215828" />
	</node>
	<node lat="63.379324999647004" lon="9.265649999389016" id="-33793">
		<tag k="name" v="Mjølkbudalen" />
		<tag k="natural" v="valley" />
		<tag k="place" v="locality" />
		<tag k="ssr:stedsnr" v="215884" />
	</node>
	<node lat="63.371541670158635" lon="9.815850003671782" id="-33796">
		<tag k="name" v="Fjelltjønndalen" />
		<tag k="natural" v="valley" />
		<tag k="place" v="locality" />
		<tag k="ssr:stedsnr" v="216116" />
	</node>
	<node lat="63.242236112763074" lon="9.887674997363165" id="-33798">
		<tag k="fixme" v="consider natural=peak for the most distinct mountains in the district" />
		<tag k="name" v="Kjeløyåsen" />
		<tag k="natural" v="hill" />
		<tag k="place" v="locality" />
		<tag k="ssr:stedsnr" v="216270" />
	</node>
	<node lat="63.22240832928811" lon="9.840763887337747" id="-33799">
		<tag k="fixme" v="consider natural=peak for the most distinct mountains in the district" />
		<tag k="name" v="Rognåsen" />
		<tag k="natural" v="hill" />
		<tag k="place" v="locality" />
		<tag k="ssr:stedsnr" v="216272" />
	</node>
	<node lat="63.24246944793434" lon="9.86390834133013" id="-33800">
		<tag k="name" v="Torthaugen" />
		<tag k="natural" v="hill" />
		<tag k="place" v="locality" />
		<tag k="ssr:stedsnr" v="216274" />
	</node>
	<node lat="63.217941665250684" lon="9.891116660947393" id="-33803">
		<tag k="alt_name" v="Engsæterdalen" />
		<tag k="name" v="Engseterdalen" />
		<tag k="natural" v="valley" />
		<tag k="place" v="locality" />
		<tag k="ssr:stedsnr" v="216277" />
	</node>
	<node lat="63.31617499777628" lon="9.884813891638752" id="-33808">
		<tag k="fixme" v="consider natural=peak for the most distinct mountains in the district" />
		<tag k="name" v="Ramlet" />
		<tag k="natural" v="hill" />
		<tag k="place" v="locality" />
		<tag k="ssr:stedsnr" v="216444" />
	</node>
	<node lat="63.294666666450055" lon="9.733491667329675" id="-33811">
		<tag k="name" v="Slødalen" />
		<tag k="natural" v="valley" />
		<tag k="place" v="locality" />
		<tag k="ssr:stedsnr" v="216196" />
	</node>
	<node lat="63.20005277681826" lon="9.656469447372613" id="-33815">
		<tag k="name" v="Berghaugen" />
		<tag k="natural" v="hill" />
		<tag k="place" v="locality" />
		<tag k="ssr:stedsnr" v="216627" />
	</node>
	<node lat="63.395427781957224" lon="9.872508333361125" id="-33816">
		<tag k="fixme" v="consider natural=peak for the most distinct mountains in the district" />
		<tag k="name" v="Langkåsen" />
		<tag k="natural" v="hill" />
		<tag k="place" v="locality" />
		<tag k="ssr:stedsnr" v="216628" />
	</node>
	<node lat="63.43451944377003" lon="9.97274722003182" id="-33818">
		<tag k="name" v="Naustbakken" />
		<tag k="natural" v="slope" />
		<tag k="place" v="locality" />
		<tag k="ssr:stedsnr" v="216681" />
	</node>
	<node lat="63.30074166345018" lon="9.512983335702053" id="-33819">
		<tag k="fixme" v="consider natural=peak for the most distinct mountains in the district" />
		<tag k="name" v="Klumpan" />
		<tag k="natural" v="hill" />
		<tag k="place" v="locality" />
		<tag k="ssr:stedsnr" v="216682" />
	</node>
	<node lat="63.44351111319608" lon="9.970027771829232" id="-33820">
		<tag k="name" v="Vorplia" />
		<tag k="natural" v="slope" />
		<tag k="place" v="locality" />
		<tag k="ssr:stedsnr" v="216683" />
	</node>
	<node lat="63.44132500173542" lon="9.971891670766636" id="-33821">
		<tag k="name" v="Neslia" />
		<tag k="natural" v="slope" />
		<tag k="place" v="locality" />
		<tag k="ssr:stedsnr" v="216685" />
	</node>
	<node lat="63.376780557243656" lon="9.83227778341675" id="-33824">
		<tag k="name" v="Magnhilddalen" />
		<tag k="natural" v="valley" />
		<tag k="place" v="locality" />
		<tag k="ssr:stedsnr" v="216573" />
	</node>
	<node lat="63.18353333359233" lon="9.438063889532943" id="-33826">
		<tag k="fixme" v="consider natural=peak for the most distinct mountains in the district" />
		<tag k="name" v="Jolikua" />
		<tag k="natural" v="hill" />
		<tag k="place" v="locality" />
		<tag k="ssr:stedsnr" v="216575" />
	</node>
	<node lat="63.163327776914855" lon="9.610516657604391" id="-33827">
		<tag k="fixme" v="consider natural=peak for the most distinct mountains in the district" />
		<tag k="name" v="Brandåsen" />
		<tag k="natural" v="hill" />
		<tag k="place" v="locality" />
		<tag k="ssr:stedsnr" v="216579" />
	</node>
	<node lat="63.15673889146059" lon="9.688658328263141" id="-33828">
		<tag k="fixme" v="consider natural=peak for the most distinct mountains in the district" />
		<tag k="name" v="Egga" />
		<tag k="natural" v="hill" />
		<tag k="place" v="locality" />
		<tag k="ssr:stedsnr" v="216583" />
	</node>
	<node lat="63.430036115005116" lon="9.967216675867176" id="-33831">
		<tag k="name" v="Middagshaugen" />
		<tag k="natural" v="hill" />
		<tag k="place" v="locality" />
		<tag k="ssr:stedsnr" v="216708" />
	</node>
	<node lat="63.42770277651826" lon="9.959136111290587" id="-33832">
		<tag k="name" v="Litlmyrbakken" />
		<tag k="natural" v="slope" />
		<tag k="place" v="locality" />
		<tag k="ssr:stedsnr" v="216712" />
	</node>
	<node lat="63.24707778074935" lon="9.563324990205029" id="-33834">
		<tag k="name" v="Gråtarhaugen" />
		<tag k="natural" v="hill" />
		<tag k="place" v="locality" />
		<tag k="ssr:stedsnr" v="216775" />
	</node>
	<node lat="63.15592777550259" lon="9.756758325532774" id="-33838">
		<tag k="fixme" v="consider natural=peak for the most distinct mountains in the district" />
		<tag k="name" v="Haugamyra" />
		<tag k="natural" v="hill" />
		<tag k="place" v="locality" />
		<tag k="ssr:stedsnr" v="217702" />
	</node>
	<node lat="63.197477781953275" lon="9.725913880825573" id="-33844">
		<tag k="name" v="Bjørnamoen" />
		<tag k="place" v="locality" />
		<tag k="ssr:stedsnr" v="217876" />
	</node>
	<node lat="63.338550001924915" lon="9.679386115275893" id="-33845">
		<tag k="fixme" v="consider natural=peak for the most distinct mountains in the district" />
		<tag k="name" v="Ellingsgardsfjellet" />
		<tag k="natural" v="hill" />
		<tag k="place" v="locality" />
		<tag k="ssr:stedsnr" v="217879" />
	</node>
	<node lat="63.32938055483285" lon="9.632622225390149" id="-33846">
		<tag k="name" v="Nonslættet" />
		<tag k="place" v="locality" />
		<tag k="ssr:stedsnr" v="217884" />
	</node>
	<node lat="63.34500555136181" lon="9.658502785856532" id="-33847">
		<tag k="name" v="Baklia" />
		<tag k="natural" v="slope" />
		<tag k="place" v="locality" />
		<tag k="ssr:stedsnr" v="217886" />
	</node>
	<node lat="63.17416388694206" lon="9.773644450395977" id="-33849">
		<tag k="fixme" v="consider natural=peak for the most distinct mountains in the district" />
		<tag k="name" v="Gumdalsåsen" />
		<tag k="natural" v="hill" />
		<tag k="place" v="locality" />
		<tag k="ssr:stedsnr" v="218487" />
	</node>
	<node lat="63.49340000120869" lon="9.607436103517289" id="-33852">
		<tag k="name" v="Svinslættet" />
		<tag k="place" v="locality" />
		<tag k="ssr:stedsnr" v="220126" />
	</node>
	<node lat="63.462900004267084" lon="9.848966663347284" id="-33854">
		<tag k="name" v="Fremmer Neverhaugen" />
		<tag k="natural" v="hill" />
		<tag k="place" v="locality" />
		<tag k="ssr:stedsnr" v="220072" />
	</node>
	<node lat="63.459838889111175" lon="9.849999996511675" id="-33855">
		<tag k="fixme" v="consider natural=peak for the most distinct mountains in the district" />
		<tag k="name" v="Inner Neverhaugen" />
		<tag k="natural" v="hill" />
		<tag k="place" v="locality" />
		<tag k="ssr:stedsnr" v="220074" />
	</node>
	<node lat="63.44860000405683" lon="9.867036115158523" id="-33856">
		<tag k="name" v="Høglia" />
		<tag k="natural" v="slope" />
		<tag k="place" v="locality" />
		<tag k="ssr:stedsnr" v="220084" />
	</node>
	<node lat="63.62184166411894" lon="9.727958340312432" id="-33858">
		<tag k="name" v="Oterholet" />
		<tag k="natural" v="slope" />
		<tag k="place" v="locality" />
		<tag k="ssr:stedsnr" v="220379" />
	</node>
	<node lat="63.544661110166274" lon="9.773869446811084" id="-33859">
		<tag k="name" v="Tollhaugan" />
		<tag k="natural" v="hill" />
		<tag k="place" v="locality" />
		<tag k="ssr:stedsnr" v="220395" />
	</node>
	<node lat="63.608916662833906" lon="9.737036101018763" id="-33863">
		<tag k="name" v="Steinvikdalen" />
		<tag k="natural" v="valley" />
		<tag k="place" v="locality" />
		<tag k="ssr:stedsnr" v="220295" />
	</node>
	<node lat="63.51804444399844" lon="9.75417223023035" id="-33864">
		<tag k="name" v="Tverradalen" />
		<tag k="natural" v="valley" />
		<tag k="place" v="locality" />
		<tag k="ssr:stedsnr" v="220411" />
	</node>
	<node lat="63.4608555515762" lon="9.721494449858946" id="-33865">
		<tag k="name" v="Geitstigen" />
		<tag k="natural" v="slope" />
		<tag k="place" v="locality" />
		<tag k="ssr:stedsnr" v="220475" />
	</node>
	<node lat="63.52866667071729" lon="9.64879444329343" id="-33866">
		<tag k="name" v="Holbekkdalen" />
		<tag k="natural" v="valley" />
		<tag k="place" v="locality" />
		<tag k="ssr:stedsnr" v="220684" />
	</node>
	<node lat="63.594672223885695" lon="9.618208334158115" id="-33869">
		<tag k="name" v="Musdalen" />
		<tag k="natural" v="valley" />
		<tag k="place" v="locality" />
		<tag k="ssr:stedsnr" v="220711" />
	</node>
	<node lat="63.588263886929916" lon="9.683280561498291" id="-33871">
		<tag k="name" v="Hjertligjøta" />
		<tag k="natural" v="valley" />
		<tag k="place" v="locality" />
		<tag k="ssr:stedsnr" v="220718" />
	</node>
	<node lat="62.96821388520279" lon="9.720836116196184" id="-33874">
		<tag k="name" v="Liin" />
		<tag k="natural" v="slope" />
		<tag k="place" v="locality" />
		<tag k="ssr:stedsnr" v="271012" />
	</node>
	<node lat="63.16143055427671" lon="9.570636105621803" id="-33875">
		<tag k="name" v="Blomlia" />
		<tag k="natural" v="slope" />
		<tag k="place" v="locality" />
		<tag k="ssr:stedsnr" v="271014" />
	</node>
	<node lat="63.12684166697693" lon="9.556561113366318" id="-33876">
		<tag k="name" v="Bjørtjønnbakken" />
		<tag k="natural" v="slope" />
		<tag k="place" v="locality" />
		<tag k="ssr:stedsnr" v="271016" />
	</node>
	<node lat="63.57052499996292" lon="9.728391656861064" id="-33877">
		<tag k="name" v="Tjurruhjellen" />
		<tag k="place" v="locality" />
		<tag k="ssr:stedsnr" v="220990" />
	</node>
	<node lat="63.45730833357906" lon="9.89238332918401" id="-33878">
		<tag k="name" v="Grostadkleiva" />
		<tag k="natural" v="slope" />
		<tag k="place" v="locality" />
		<tag k="ssr:stedsnr" v="221110" />
	</node>
	<node lat="63.60893611214392" lon="9.61375277133893" id="-33879">
		<tag k="name" v="Kobbhyllan" />
		<tag k="natural" v="ridge" />
		<tag k="place" v="locality" />
		<tag k="ssr:stedsnr" v="221111" />
	</node>
	<node lat="63.55784999614692" lon="9.752347231867043" id="-33881">
		<tag k="name" v="Størdalsskardet" />
		<tag k="natural" v="valley" />
		<tag k="place" v="locality" />
		<tag k="ssr:stedsnr" v="221127" />
	</node>
	<node lat="63.51788888629015" lon="9.587850002436673" id="-33884">
		<tag k="name" v="Seterkollen" />
		<tag k="natural" v="hill" />
		<tag k="place" v="locality" />
		<tag k="ssr:stedsnr" v="221422" />
	</node>
	<node lat="63.526858329001996" lon="9.584091665536242" id="-33885">
		<tag k="name" v="Øra" />
		<tag k="place" v="locality" />
		<tag k="ssr:stedsnr" v="221427" />
	</node>
	<node lat="63.536119440663526" lon="9.700841658247434" id="-33891">
		<tag k="name" v="Høybuskardet" />
		<tag k="natural" v="valley" />
		<tag k="place" v="locality" />
		<tag k="ssr:stedsnr" v="221890" />
	</node>
	<node lat="63.410086114873565" lon="9.764833326200295" id="-33892">
		<tag k="name" v="Styggholet" />
		<tag k="natural" v="valley" />
		<tag k="place" v="locality" />
		<tag k="ssr:stedsnr" v="221891" />
	</node>
	<node lat="63.15034167090996" lon="9.682133335773045" id="-33895">
		<tag k="name" v="Høgberga" />
		<tag k="natural" v="hill" />
		<tag k="place" v="locality" />
		<tag k="ssr:stedsnr" v="271047" />
	</node>
	<node lat="63.09030833693172" lon="9.52981945268592" id="-33897">
		<tag k="name" v="Storhaugen" />
		<tag k="natural" v="hill" />
		<tag k="place" v="locality" />
		<tag k="ssr:stedsnr" v="271059" />
	</node>
	<node lat="63.09908611464936" lon="9.545177787123993" id="-33899">
		<tag k="name" v="Sollia" />
		<tag k="natural" v="slope" />
		<tag k="place" v="locality" />
		<tag k="ssr:stedsnr" v="271065" />
	</node>
	<node lat="63.22945555468999" lon="9.440499994699712" id="-33903">
		<tag k="name" v="Haugan" />
		<tag k="natural" v="hill" />
		<tag k="place" v="locality" />
		<tag k="ssr:stedsnr" v="222487" />
	</node>
	<node lat="63.01327222468373" lon="9.81435278511655" id="-33906">
		<tag k="name" v="Husmannsglenna" />
		<tag k="natural" v="slope" />
		<tag k="place" v="locality" />
		<tag k="ssr:stedsnr" v="271105" />
	</node>
	<node lat="63.061605558841556" lon="9.552922224244439" id="-33908">
		<tag k="fixme" v="consider natural=peak for the most distinct mountains in the district" />
		<tag k="name" v="Litlfjellet" />
		<tag k="natural" v="hill" />
		<tag k="place" v="locality" />
		<tag k="ssr:stedsnr" v="271107" />
	</node>
	<node lat="63.07091110769858" lon="9.56924166319064" id="-33911">
		<tag k="fixme" v="consider natural=peak for the most distinct mountains in the district" />
		<tag k="name" v="Toreslåttåsen" />
		<tag k="natural" v="hill" />
		<tag k="place" v="locality" />
		<tag k="ssr:stedsnr" v="271125" />
	</node>
	<node lat="63.10507500321203" lon="9.564972217311448" id="-33914">
		<tag k="fixme" v="consider natural=peak for the most distinct mountains in the district" />
		<tag k="name" v="Linkjeldåsen" />
		<tag k="natural" v="hill" />
		<tag k="place" v="locality" />
		<tag k="ssr:stedsnr" v="271145" />
	</node>
	<node lat="63.03940000071021" lon="9.608961114505824" id="-33916">
		<tag k="name" v="Ytter Kloppdalen" />
		<tag k="natural" v="valley" />
		<tag k="place" v="locality" />
		<tag k="ssr:stedsnr" v="271162" />
	</node>
	<node lat="62.98915833688541" lon="9.69524444261544" id="-33917">
		<tag k="name" v="Korsmyrhaugen" />
		<tag k="natural" v="hill" />
		<tag k="place" v="locality" />
		<tag k="ssr:stedsnr" v="271261" />
	</node>
	<node lat="62.977511110805914" lon="9.694277782180412" id="-33918">
		<tag k="name" v="Haukhaugen" />
		<tag k="natural" v="hill" />
		<tag k="place" v="locality" />
		<tag k="ssr:stedsnr" v="271262" />
	</node>
	<node lat="63.14782500154592" lon="9.70255276952123" id="-33919">
		<tag k="name" v="Vemmerberga" />
		<tag k="natural" v="hill" />
		<tag k="place" v="locality" />
		<tag k="ssr:stedsnr" v="271334" />
	</node>
	<node lat="63.055375001295815" lon="9.580124999706547" id="-33921">
		<tag k="name" v="Gjelberget" />
		<tag k="natural" v="hill" />
		<tag k="place" v="locality" />
		<tag k="ssr:stedsnr" v="271289" />
	</node>
</osm>
