<?xml version="1.0" encoding="UTF-8"?>
<osm generator="osmapis" version="0.6">
	<node id="-572220" lat="62.3821333358" lon="6.98708333928">
		<tag k="name" v="Stordal kommune" />
		<tag k="ssr:date" v="2016-05-10" />
		<tag k="ssr:gruppe" v="administrativeIndelinger" />
		<tag k="ssr:hovedgruppe" v="offentligAdministrasjon" />
		<tag k="ssr:stedsnr" v="511478" />
		<tag k="ssr:type" v="kommune" />
	</node>
	<node id="-572158" lat="62.374320451" lon="6.93413419499">
		<tag k="name" v="Stordalsholmen" />
		<tag k="old_name" v="Storholmen" />
		<tag k="ssr:date" v="2018-09-04" />
		<tag k="ssr:gruppe" v="navigasjon" />
		<tag k="ssr:hovedgruppe" v="infrastruktur" />
		<tag k="ssr:stedsnr" v="435718" />
		<tag k="ssr:type" v="fyrlykt" />
	</node>
	<node id="-572548" lat="60.8816104596" lon="6.30047518531">
		<tag k="name" v="Vestlandet" />
		<tag k="ssr:date" v="2019-01-06" />
		<tag k="ssr:gruppe" v="administrativeIndelinger" />
		<tag k="ssr:hovedgruppe" v="offentligAdministrasjon" />
		<tag k="ssr:stedsnr" v="974777" />
		<tag k="ssr:type" v="annenAdministrativInndeling" />
	</node>
	<node id="-572193" lat="62.3819305539" lon="7.16146945326">
		<tag k="name" v="Nakkevegen" />
		<tag k="ssr:date" v="2016-05-10" />
		<tag k="ssr:gruppe" v="veg" />
		<tag k="ssr:hovedgruppe" v="infrastruktur" />
		<tag k="ssr:stedsnr" v="460127" />
		<tag k="ssr:type" v="vegstrekning" />
	</node>
</osm>
