<?xml version="1.0" encoding="UTF-8"?>
<osm generator="osmapis" version="0.6">
	<node id="-9275" lat="62.9603333306" lon="8.48338888722">
		<tag k="name" v="Torvikneset" />
		<tag k="ssr:date" v="2016-05-10" />
		<tag k="ssr:gruppe" v="navigasjon" />
		<tag k="ssr:hovedgruppe" v="infrastruktur" />
		<tag k="ssr:stedsnr" v="231834" />
		<tag k="ssr:type" v="fyrlykt" />
	</node>
	<node id="-11416" lat="62.9845771295" lon="8.73363670974">
		<tag k="name" v="Bergjesvegen" />
		<tag k="ssr:date" v="2019-08-21" />
		<tag k="ssr:gruppe" v="veg" />
		<tag k="ssr:hovedgruppe" v="infrastruktur" />
		<tag k="ssr:stedsnr" v="1072342" />
		<tag k="ssr:type" v="adressenavn" />
	</node>
	<node id="-11415" lat="63.0209526785" lon="8.34913653055">
		<tag k="name" v="Solbakksvingen" />
		<tag k="ssr:date" v="2019-08-21" />
		<tag k="ssr:gruppe" v="veg" />
		<tag k="ssr:hovedgruppe" v="infrastruktur" />
		<tag k="ssr:stedsnr" v="1072336" />
		<tag k="ssr:type" v="adressenavn" />
	</node>
	<node id="-11414" lat="63.0091300256" lon="8.36790570062">
		<tag k="name" v="BÃ¸bakkan" />
		<tag k="ssr:date" v="2019-08-21" />
		<tag k="ssr:gruppe" v="veg" />
		<tag k="ssr:hovedgruppe" v="infrastruktur" />
		<tag k="ssr:stedsnr" v="1072334" />
		<tag k="ssr:type" v="adressenavn" />
	</node>
	<node id="-10900" lat="63.0052833327" lon="8.99093611415">
		<tag k="name" v="Skjermoen" />
		<tag k="ssr:date" v="2016-05-11" />
		<tag k="ssr:gruppe" v="veg" />
		<tag k="ssr:hovedgruppe" v="infrastruktur" />
		<tag k="ssr:stedsnr" v="767350" />
		<tag k="ssr:type" v="adressetilleggsnavn" />
	</node>
	<node id="-9240" lat="62.9980222231" lon="8.94510000281">
		<tag k="name" v="Vollbu" />
		<tag k="ssr:date" v="2016-05-10" />
		<tag k="ssr:gruppe" v="veg" />
		<tag k="ssr:hovedgruppe" v="infrastruktur" />
		<tag k="ssr:stedsnr" v="222334" />
		<tag k="ssr:type" v="adressetilleggsnavn" />
	</node>
	<node id="-9239" lat="63.0088111137" lon="8.34644165785">
		<tag k="name" v="Staknes" />
		<tag k="ssr:date" v="2016-05-10" />
		<tag k="ssr:gruppe" v="navigasjon" />
		<tag k="ssr:hovedgruppe" v="infrastruktur" />
		<tag k="ssr:stedsnr" v="221464" />
		<tag k="ssr:type" v="fyrlykt" />
	</node>
	<node id="-10036" lat="63.0273416692" lon="8.72668612059">
		<tag k="name" v="Nordmarksvegen" />
		<tag k="ssr:date" v="2016-05-10" />
		<tag k="ssr:gruppe" v="veg" />
		<tag k="ssr:hovedgruppe" v="infrastruktur" />
		<tag k="ssr:stedsnr" v="327445" />
		<tag k="ssr:type" v="vegstrekning" />
	</node>
	<node id="-11271" lat="63.0461277737" lon="9.0258361175">
		<tag k="name" v="Krokvassvegen" />
		<tag k="ssr:date" v="2016-05-11" />
		<tag k="ssr:gruppe" v="veg" />
		<tag k="ssr:hovedgruppe" v="infrastruktur" />
		<tag k="ssr:stedsnr" v="884568" />
		<tag k="ssr:type" v="vegstrekning" />
	</node>
	<node id="-10503" lat="62.9966477483" lon="8.89354145108">
		<tag k="name" v="Sveahaugen" />
		<tag k="ssr:date" v="2018-09-28" />
		<tag k="ssr:gruppe" v="veg" />
		<tag k="ssr:hovedgruppe" v="infrastruktur" />
		<tag k="ssr:stedsnr" v="707375" />
		<tag k="ssr:type" v="adressetilleggsnavn" />
	</node>
	<node id="-9507" lat="63.0149944419" lon="9.1348611074">
		<tag k="name" v="Folddalsvegen" />
		<tag k="ssr:date" v="2016-05-10" />
		<tag k="ssr:gruppe" v="veg" />
		<tag k="ssr:hovedgruppe" v="infrastruktur" />
		<tag k="ssr:stedsnr" v="277685" />
		<tag k="ssr:type" v="vegstrekning" />
	</node>
</osm>
