<?xml version="1.0" encoding="UTF-8"?>
<osm version="0.6" generator="osmapis">
	<node id="4984964079" lat="64.576419" lon="12.2476647" version="1" timestamp="2017-07-21T13:26:01Z" changeset="50459073" uid="5732597" user="ENTUR Johan Wiklund" />
	<node id="4984965427" lat="64.5764935" lon="12.2480652" version="1" timestamp="2017-07-21T13:26:18Z" changeset="50459073" uid="5732597" user="ENTUR Johan Wiklund" />
	<node id="4984964462" lat="64.6042988" lon="12.270284" version="1" timestamp="2017-07-21T13:26:04Z" changeset="50459073" uid="5732597" user="ENTUR Johan Wiklund" />
	<node id="4984964707" lat="64.6039838" lon="12.2697483" version="1" timestamp="2017-07-21T13:26:24Z" changeset="50459073" uid="5732597" user="ENTUR Johan Wiklund" />
	<node id="4984951681" lat="64.6117667" lon="12.2736424" version="1" timestamp="2017-07-21T13:23:03Z" changeset="50458994" uid="5732597" user="ENTUR Johan Wiklund" />
	<node id="4984951888" lat="64.6118657" lon="12.2741151" version="1" timestamp="2017-07-21T13:23:07Z" changeset="50458994" uid="5732597" user="ENTUR Johan Wiklund" />
	<node id="273453705" lat="64.6266702" lon="12.3057902" version="4" timestamp="2022-01-24T21:00:15Z" changeset="116559033" uid="3497659" user="NKA" />
	<node id="4984954700" lat="64.6264589" lon="12.3061685" version="1" timestamp="2017-07-21T13:23:50Z" changeset="50458994" uid="5732597" user="ENTUR Johan Wiklund" />
	<node id="4984955149" lat="64.6268492" lon="12.3055434" version="1" timestamp="2017-07-21T13:23:57Z" changeset="50458994" uid="5732597" user="ENTUR Johan Wiklund" />
	<node id="4984955502" lat="64.6265375" lon="12.3060149" version="2" timestamp="2022-01-24T21:00:15Z" changeset="116559033" uid="3497659" user="NKA" />
	<node id="9445777797" lat="64.6267513" lon="12.3056746" version="1" timestamp="2022-01-24T21:00:15Z" changeset="116559033" uid="3497659" user="NKA" />
	<node id="9445777798" lat="64.6265967" lon="12.3059079" version="1" timestamp="2022-01-24T21:00:15Z" changeset="116559033" uid="3497659" user="NKA" />
	<node id="4984948562" lat="64.6240091" lon="12.3123836" version="1" timestamp="2017-07-21T13:23:52Z" changeset="50458994" uid="5732597" user="ENTUR Johan Wiklund" />
	<node id="4984954174" lat="64.6241684" lon="12.3121757" version="1" timestamp="2017-07-21T13:23:42Z" changeset="50458994" uid="5732597" user="ENTUR Johan Wiklund" />
	<node id="4984957008" lat="64.646342" lon="12.3079709" version="2" timestamp="2022-01-24T21:00:15Z" changeset="116559033" uid="3497659" user="NKA" />
	<node id="4984957278" lat="64.6462511" lon="12.3080976" version="2" timestamp="2022-01-24T21:00:15Z" changeset="116559033" uid="3497659" user="NKA" />
	<node id="4984954222" lat="64.6122791" lon="12.3599076" version="1" timestamp="2017-07-21T13:23:42Z" changeset="50458994" uid="5732597" user="ENTUR Johan Wiklund" />
	<node id="4984954924" lat="64.6122216" lon="12.3599634" version="1" timestamp="2017-07-21T13:23:53Z" changeset="50458994" uid="5732597" user="ENTUR Johan Wiklund" />
	<node id="4984964277" lat="64.6808881" lon="12.3228069" version="1" timestamp="2017-07-21T13:26:02Z" changeset="50459073" uid="5732597" user="ENTUR Johan Wiklund" />
	<node id="4984965271" lat="64.6809882" lon="12.3228205" version="1" timestamp="2017-07-21T13:26:20Z" changeset="50459073" uid="5732597" user="ENTUR Johan Wiklund" />
	<node id="4984958801" lat="64.6933126" lon="12.3297635" version="1" timestamp="2017-07-21T13:24:52Z" changeset="50458994" uid="5732597" user="ENTUR Johan Wiklund" />
	<node id="4984964573" lat="64.6932689" lon="12.330485" version="1" timestamp="2017-07-21T13:26:06Z" changeset="50459073" uid="5732597" user="ENTUR Johan Wiklund" />
	<node id="4984957207" lat="64.7321585" lon="12.3125856" version="1" timestamp="2017-07-21T13:24:54Z" changeset="50458994" uid="5732597" user="ENTUR Johan Wiklund" />
	<node id="4984959170" lat="64.7322034" lon="12.3123696" version="1" timestamp="2017-07-21T13:24:56Z" changeset="50458994" uid="5732597" user="ENTUR Johan Wiklund" />
	<node id="4984963916" lat="64.7169596" lon="12.3635225" version="1" timestamp="2017-07-21T13:26:01Z" changeset="50459073" uid="5732597" user="ENTUR Johan Wiklund" />
	<node id="4984964568" lat="64.7174124" lon="12.3638444" version="1" timestamp="2017-07-21T13:26:06Z" changeset="50459073" uid="5732597" user="ENTUR Johan Wiklund" />
	<node id="4984965387" lat="64.7174613" lon="12.3638577" version="1" timestamp="2017-07-21T13:26:18Z" changeset="50459073" uid="5732597" user="ENTUR Johan Wiklund" />
	<node id="4984965448" lat="64.7170224" lon="12.3635846" version="1" timestamp="2017-07-21T13:26:19Z" changeset="50459073" uid="5732597" user="ENTUR Johan Wiklund" />
	<node id="4984965568" lat="64.7173129" lon="12.3637974" version="1" timestamp="2017-07-21T13:26:22Z" changeset="50459073" uid="5732597" user="ENTUR Johan Wiklund" />
	<node id="4984965928" lat="64.7172157" lon="12.3637388" version="1" timestamp="2017-07-21T13:26:24Z" changeset="50459073" uid="5732597" user="ENTUR Johan Wiklund" />
	<node id="4984962614" lat="64.7453837" lon="12.354865" version="1" timestamp="2017-07-21T13:26:05Z" changeset="50459073" uid="5732597" user="ENTUR Johan Wiklund" />
	<node id="4984963818" lat="64.7450741" lon="12.3551598" version="1" timestamp="2017-07-21T13:25:59Z" changeset="50459073" uid="5732597" user="ENTUR Johan Wiklund" />
	<node id="4984964887" lat="64.7451091" lon="12.3551275" version="1" timestamp="2017-07-21T13:26:11Z" changeset="50459073" uid="5732597" user="ENTUR Johan Wiklund" />
	<node id="4984964436" lat="64.8137402" lon="12.3749524" version="1" timestamp="2017-07-21T13:26:03Z" changeset="50459073" uid="5732597" user="ENTUR Johan Wiklund" />
	<node id="4984965434" lat="64.8136027" lon="12.3749144" version="1" timestamp="2017-07-21T13:26:18Z" changeset="50459073" uid="5732597" user="ENTUR Johan Wiklund" />
	<node id="4984964269" lat="64.8222429" lon="12.3767525" version="1" timestamp="2017-07-21T13:26:02Z" changeset="50459073" uid="5732597" user="ENTUR Johan Wiklund" />
	<node id="4984965348" lat="64.8221514" lon="12.3766762" version="1" timestamp="2017-07-21T13:26:17Z" changeset="50459073" uid="5732597" user="ENTUR Johan Wiklund" />
	<node id="4984965306" lat="64.850952" lon="12.4124852" version="1" timestamp="2017-07-21T13:26:21Z" changeset="50459073" uid="5732597" user="ENTUR Johan Wiklund" />
	<node id="4984965570" lat="64.8507357" lon="12.4125332" version="1" timestamp="2017-07-21T13:26:22Z" changeset="50459073" uid="5732597" user="ENTUR Johan Wiklund" />
	<node id="4984964021" lat="64.9102878" lon="12.3887497" version="1" timestamp="2017-07-21T13:26:00Z" changeset="50459073" uid="5732597" user="ENTUR Johan Wiklund" />
	<node id="4984964891" lat="64.9103844" lon="12.3885612" version="1" timestamp="2017-07-21T13:26:11Z" changeset="50459073" uid="5732597" user="ENTUR Johan Wiklund" />
	<node id="4984961776" lat="64.8754558" lon="12.435736" version="1" timestamp="2017-07-21T13:25:42Z" changeset="50459073" uid="5732597" user="ENTUR Johan Wiklund" />
	<node id="4984962812" lat="64.8754405" lon="12.4360952" version="1" timestamp="2017-07-21T13:25:50Z" changeset="50459073" uid="5732597" user="ENTUR Johan Wiklund" />
	<node id="4984961774" lat="64.8817686" lon="12.4580446" version="2" timestamp="2022-01-24T21:00:15Z" changeset="116559033" uid="3497659" user="NKA" />
	<node id="4984961964" lat="64.8813134" lon="12.457863" version="1" timestamp="2017-07-21T13:25:35Z" changeset="50458994" uid="5732597" user="ENTUR Johan Wiklund" />
	<node id="9445777834" lat="64.8816819" lon="12.4580052" version="1" timestamp="2022-01-24T21:00:15Z" changeset="116559033" uid="3497659" user="NKA" />
	<node id="9445777835" lat="64.8813859" lon="12.4579006" version="1" timestamp="2022-01-24T21:00:15Z" changeset="116559033" uid="3497659" user="NKA" />
	<node id="9445777836" lat="64.8814588" lon="12.4579328" version="1" timestamp="2022-01-24T21:00:15Z" changeset="116559033" uid="3497659" user="NKA" />
	<way id="220663621" version="7" timestamp="2022-01-24T21:00:15Z" changeset="116559033" uid="3497659" user="NKA">
		<tag k="bridge" v="yes" />
		<tag k="highway" v="secondary" />
		<tag k="lanes" v="1" />
		<tag k="layer" v="1" />
		<tag k="maxspeed" v="80" />
		<tag k="name" v="Nylendbrua" />
		<tag k="ref" v="7044" />
		<tag k="ssr:stedsnr" v="533897" />
		<tag k="surface" v="asphalt" />
		<nd ref="4984951888" />
		<nd ref="4984951681" />
	</way>
	<way id="337572187" version="3" timestamp="2022-01-24T21:00:15Z" changeset="116559033" uid="3497659" user="NKA">
		<tag k="bridge" v="yes" />
		<tag k="highway" v="primary" />
		<tag k="layer" v="1" />
		<tag k="maxspeed" v="60" />
		<tag k="name" v="Brembubrua" />
		<tag k="ref" v="775" />
		<tag k="ssr:stedsnr" v="594891" />
		<nd ref="4984954700" />
		<nd ref="4984955502" />
		<nd ref="9445777798" />
		<nd ref="273453705" />
		<nd ref="9445777797" />
		<nd ref="4984955149" />
	</way>
	<way id="425404062" version="6" timestamp="2022-01-24T21:00:15Z" changeset="116559033" uid="3497659" user="NKA">
		<tag k="bridge" v="yes" />
		<tag k="cycleway:both" v="no" />
		<tag k="highway" v="primary" />
		<tag k="lanes" v="2" />
		<tag k="layer" v="1" />
		<tag k="maxspeed" v="60" />
		<tag k="name" v="Flottbrua" />
		<tag k="ref" v="17" />
		<tag k="ssr:stedsnr" v="898895" />
		<tag k="surface" v="asphalt" />
		<nd ref="4984958801" />
		<nd ref="4984964573" />
	</way>
	<way id="509242553" version="3" timestamp="2022-01-24T21:00:15Z" changeset="116559033" uid="3497659" user="NKA">
		<tag k="bridge" v="yes" />
		<tag k="highway" v="secondary" />
		<tag k="layer" v="1" />
		<tag k="maxspeed" v="80" />
		<tag k="name" v="Nordfoldbrua" />
		<tag k="ref" v="7048" />
		<tag k="ssr:stedsnr" v="958892" />
		<nd ref="4984961964" />
		<nd ref="9445777835" />
		<nd ref="9445777836" />
		<nd ref="9445777834" />
		<nd ref="4984961774" />
	</way>
	<way id="509242555" version="3" timestamp="2022-01-24T21:00:15Z" changeset="116559033" uid="3497659" user="NKA">
		<tag k="bridge" v="yes" />
		<tag k="highway" v="secondary" />
		<tag k="layer" v="1" />
		<tag k="maxspeed" v="80" />
		<tag k="name" v="Kongsmoelvbrua" />
		<tag k="ref" v="7048" />
		<tag k="ssr:stedsnr" v="169864" />
		<nd ref="4984961776" />
		<nd ref="4984962812" />
	</way>
	<way id="509242567" version="2" timestamp="2022-01-24T21:00:15Z" changeset="116559033" uid="3497659" user="NKA">
		<tag k="bridge" v="yes" />
		<tag k="highway" v="primary" />
		<tag k="layer" v="1" />
		<tag k="maxspeed" v="80" />
		<tag k="name" v="Mørkvedbrua" />
		<tag k="ref" v="17" />
		<tag k="ssr:stedsnr" v="594882" />
		<nd ref="4984964707" />
		<nd ref="4984964462" />
	</way>
	<way id="509242933" version="2" timestamp="2022-01-24T21:00:15Z" changeset="116559033" uid="3497659" user="NKA">
		<tag k="bridge" v="yes" />
		<tag k="highway" v="primary" />
		<tag k="layer" v="1" />
		<tag k="maxspeed" v="80" />
		<tag k="name" v="Brynnbrua" />
		<tag k="ref" v="775" />
		<tag k="ssr:stedsnr" v="776908" />
		<nd ref="4984948562" />
		<nd ref="4984954174" />
	</way>
	<way id="509242939" version="2" timestamp="2022-01-24T21:00:15Z" changeset="116559033" uid="3497659" user="NKA">
		<tag k="bridge" v="yes" />
		<tag k="highway" v="primary" />
		<tag k="layer" v="1" />
		<tag k="maxspeed" v="80" />
		<tag k="name" v="Hessiengbrua" />
		<tag k="ref" v="775" />
		<tag k="ssr:stedsnr" v="351896" />
		<nd ref="4984954924" />
		<nd ref="4984954222" />
	</way>
	<way id="509243048" version="2" timestamp="2022-01-24T21:00:15Z" changeset="116559033" uid="3497659" user="NKA">
		<tag k="bridge" v="yes" />
		<tag k="highway" v="residential" />
		<tag k="layer" v="1" />
		<tag k="name" v="Almåsbrua" />
		<tag k="ssr:stedsnr" v="594880" />
		<nd ref="4984957278" />
		<nd ref="4984957008" />
	</way>
	<way id="509243121" version="3" timestamp="2022-01-24T21:00:15Z" changeset="116559033" uid="3497659" user="NKA">
		<tag k="bridge" v="yes" />
		<tag k="highway" v="secondary" />
		<tag k="layer" v="1" />
		<tag k="maxspeed" v="80" />
		<tag k="name" v="Hognesbrua" />
		<tag k="ref" v="7046" />
		<tag k="ssr:stedsnr" v="533895" />
		<nd ref="4984957207" />
		<nd ref="4984959170" />
	</way>
	<way id="509243407" version="2" timestamp="2022-01-24T21:00:15Z" changeset="116559033" uid="3497659" user="NKA">
		<tag k="bridge" v="yes" />
		<tag k="highway" v="primary" />
		<tag k="layer" v="1" />
		<tag k="maxspeed" v="80" />
		<tag k="name" v="Miskåbrua" />
		<tag k="ref" v="17" />
		<tag k="ssr:stedsnr" v="109885" />
		<nd ref="4984965348" />
		<nd ref="4984964269" />
	</way>
	<way id="509243412" version="2" timestamp="2022-01-24T21:00:15Z" changeset="116559033" uid="3497659" user="NKA">
		<tag k="bridge" v="yes" />
		<tag k="highway" v="primary" />
		<tag k="layer" v="1" />
		<tag k="maxspeed" v="80" />
		<tag k="name" v="Hjelmsengbrua" />
		<tag k="ref" v="17" />
		<tag k="ssr:stedsnr" v="654903" />
		<nd ref="4984965434" />
		<nd ref="4984964436" />
	</way>
	<way id="509243414" version="2" timestamp="2022-01-24T21:00:15Z" changeset="116559033" uid="3497659" user="NKA">
		<tag k="bridge" v="yes" />
		<tag k="highway" v="primary" />
		<tag k="layer" v="1" />
		<tag k="maxspeed" v="80" />
		<tag k="name" v="Kjølstadbrua" />
		<tag k="ref" v="17" />
		<tag k="ssr:stedsnr" v="48905" />
		<nd ref="4984963916" />
		<nd ref="4984965448" />
		<nd ref="4984965928" />
		<nd ref="4984965568" />
		<nd ref="4984964568" />
		<nd ref="4984965387" />
	</way>
	<way id="509243416" version="2" timestamp="2022-01-24T21:00:15Z" changeset="116559033" uid="3497659" user="NKA">
		<tag k="bridge" v="yes" />
		<tag k="highway" v="primary" />
		<tag k="layer" v="1" />
		<tag k="maxspeed" v="80" />
		<tag k="name" v="Hellingåbrua" />
		<tag k="ref" v="17" />
		<tag k="ssr:stedsnr" v="654909" />
		<nd ref="4984965570" />
		<nd ref="4984965306" />
	</way>
	<way id="509243419" version="2" timestamp="2022-01-24T21:00:15Z" changeset="116559033" uid="3497659" user="NKA">
		<tag k="bridge" v="yes" />
		<tag k="highway" v="primary" />
		<tag k="layer" v="1" />
		<tag k="maxspeed" v="80" />
		<tag k="name" v="Bjøråbrua" />
		<tag k="ref" v="17" />
		<tag k="ssr:stedsnr" v="776906" />
		<nd ref="4984964021" />
		<nd ref="4984964891" />
	</way>
	<way id="509243426" version="2" timestamp="2022-01-24T21:00:15Z" changeset="116559033" uid="3497659" user="NKA">
		<tag k="bridge" v="yes" />
		<tag k="highway" v="primary" />
		<tag k="layer" v="1" />
		<tag k="maxspeed" v="80" />
		<tag k="name" v="Grøtåbrua" />
		<tag k="ref" v="17" />
		<tag k="ssr:stedsnr" v="533911" />
		<nd ref="4984964277" />
		<nd ref="4984965271" />
	</way>
	<way id="509243427" version="2" timestamp="2022-01-24T21:00:15Z" changeset="116559033" uid="3497659" user="NKA">
		<tag k="bridge" v="yes" />
		<tag k="highway" v="primary" />
		<tag k="layer" v="1" />
		<tag k="maxspeed" v="80" />
		<tag k="name" v="Åvassmarkbrua" />
		<tag k="ref" v="17" />
		<tag k="ssr:stedsnr" v="230890" />
		<nd ref="4984964079" />
		<nd ref="4984965427" />
	</way>
	<way id="509243432" version="2" timestamp="2022-01-24T21:00:15Z" changeset="116559033" uid="3497659" user="NKA">
		<tag k="bridge" v="yes" />
		<tag k="highway" v="primary" />
		<tag k="layer" v="1" />
		<tag k="maxspeed" v="80" />
		<tag k="name" v="Øybrua" />
		<tag k="ref" v="17" />
		<tag k="ssr:stedsnr" v="48906" />
		<nd ref="4984963818" />
		<nd ref="4984964887" />
		<nd ref="4984962614" />
	</way>
</osm>
