<?xml version="1.0" encoding="UTF-8"?>
<osm version="0.6" generator="osmapis">
	<node lat="69.84255003086938" lon="21.88044194443422" id="-100481">
		<tag k="name" v="Kvænangstraumen" />
		<tag k="ssr:date" v="2020-11-10" />
		<tag k="ssr:gruppe" v="navigasjon" />
		<tag k="ssr:hovedgruppe" v="infrastruktur" />
		<tag k="ssr:stedsnr" v="227091" />
		<tag k="ssr:type" v="fyrlykt" />
	</node>
	<node lat="69.75205353434583" lon="22.08371821996964" id="-100669">
		<tag k="loc_name:no" v="Tangnesgrunnen" />
		<tag k="name" v="Tangneslandet" />
		<tag k="name:fkv" v="Tangasenpoot" />
		<tag k="name:no" v="Tangneslandet" />
		<tag k="ssr:date" v="2019-12-27" />
		<tag k="ssr:gruppe" v="farvann" />
		<tag k="ssr:hovedgruppe" v="sjø" />
		<tag k="ssr:stedsnr" v="479731" />
		<tag k="ssr:type" v="fiskeplassISjø" />
	</node>
	<node lat="70.0244189855949" lon="21.286802935873883" id="-100691">
		<tag k="name" v="Lille Haukøy" />
		<tag k="old_name" v="Haukøy, l" />
		<tag k="ssr:date" v="2020-09-10" />
		<tag k="ssr:gruppe" v="navigasjon" />
		<tag k="ssr:hovedgruppe" v="infrastruktur" />
		<tag k="ssr:stedsnr" v="383353" />
		<tag k="ssr:type" v="fyrlykt" />
	</node>
	<node lat="69.89700555623502" lon="21.87279440945389" id="-100894">
		<tag k="name" v="Midtvollbakken" />
		<tag k="ssr:date" v="2019-12-27" />
		<tag k="ssr:gruppe" v="sjøbunn" />
		<tag k="ssr:hovedgruppe" v="sjø" />
		<tag k="ssr:stedsnr" v="591256" />
		<tag k="ssr:type" v="bakkeISjø" />
	</node>
	<node lat="69.93889722062409" lon="22.049333299707087" id="-101068">
		<tag k="loc_name:se" v="Návuona suohkan" />
		<tag k="name" v="Kvænangen kommune" />
		<tag k="name:no" v="Kvænangen kommune" />
		<tag k="ssr:date" v="2019-12-27" />
		<tag k="ssr:gruppe" v="administrativeIndelinger" />
		<tag k="ssr:hovedgruppe" v="offentligAdministrasjon" />
		<tag k="ssr:stedsnr" v="754612" />
		<tag k="ssr:type" v="kommune" />
	</node>
	<node lat="69.8063888920149" lon="22.006447176015513" id="-101272">
		<tag k="name" v="Årøylandet" />
		<tag k="ssr:date" v="2019-12-27" />
		<tag k="ssr:gruppe" v="farvann" />
		<tag k="ssr:hovedgruppe" v="sjø" />
		<tag k="ssr:stedsnr" v="964538" />
		<tag k="ssr:type" v="fiskeplassISjø" />
	</node>
	<node lat="70.06101289312288" lon="21.86169868671409" id="-101440">
		<tag k="name" v="Jøkelfjord" />
		<tag k="ssr:date" v="2020-11-19" />
		<tag k="ssr:gruppe" v="navigasjon" />
		<tag k="ssr:hovedgruppe" v="infrastruktur" />
		<tag k="ssr:stedsnr" v="80431" />
		<tag k="ssr:type" v="fyrlykt" />
	</node>
	<node lat="70.01802583960874" lon="21.548370697886778" id="-102008">
		<tag k="name" v="Skagklubben" />
		<tag k="ssr:date" v="2020-09-17" />
		<tag k="ssr:gruppe" v="navigasjon" />
		<tag k="ssr:hovedgruppe" v="infrastruktur" />
		<tag k="ssr:stedsnr" v="504321" />
		<tag k="ssr:type" v="fyrlykt" />
	</node>
	<node lat="69.99145689229671" lon="21.68495415811489" id="-102127">
		<tag k="fixme" v="multiple name tags, choose one and add the other to alt_name" />
		<tag k="name" v="Spildra;Dunvik" />
		<tag k="ssr:date" v="2020-09-17" />
		<tag k="ssr:gruppe" v="navigasjon" />
		<tag k="ssr:hovedgruppe" v="infrastruktur" />
		<tag k="ssr:stedsnr" v="591713" />
		<tag k="ssr:type" v="fyrlykt" />
	</node>
	<node lat="69.94058333817686" lon="21.84936107972229" id="-102454">
		<tag k="name" v="Røholmen" />
		<tag k="old_name" v="Raudholmen" />
		<tag k="ssr:date" v="2019-12-27" />
		<tag k="ssr:gruppe" v="navigasjon" />
		<tag k="ssr:hovedgruppe" v="infrastruktur" />
		<tag k="ssr:stedsnr" v="808131" />
		<tag k="ssr:type" v="fyrlykt" />
	</node>
	<node lat="69.88606667113808" lon="22.03636661846578" id="-102602">
		<tag k="name" v="Kvænangen" />
		<tag k="ssr:date" v="2019-12-27" />
		<tag k="ssr:gruppe" v="terrengområder" />
		<tag k="ssr:hovedgruppe" v="terreng" />
		<tag k="ssr:stedsnr" v="878789" />
		<tag k="ssr:type" v="landskapsområde" />
	</node>
	<node lat="69.85051111011622" lon="21.819019402439896" id="-102653">
		<tag k="name" v="Karviklandet" />
		<tag k="ssr:date" v="2019-12-27" />
		<tag k="ssr:gruppe" v="farvann" />
		<tag k="ssr:hovedgruppe" v="sjø" />
		<tag k="ssr:stedsnr" v="964277" />
		<tag k="ssr:type" v="fiskeplassISjø" />
	</node>
	<node lat="70.02931445509364" lon="22.099999317822093" id="-102676">
		<tag k="name" v="Sollia" />
		<tag k="ssr:date" v="2019-12-27" />
		<tag k="ssr:gruppe" v="veg" />
		<tag k="ssr:hovedgruppe" v="infrastruktur" />
		<tag k="ssr:stedsnr" v="979074" />
		<tag k="ssr:type" v="adressenavn" />
	</node>
</osm>
