<?xml version="1.0" encoding="UTF-8"?>
<osm generator="osmapis" version="0.6">
	<node id="-137216" lat="60.4249277794" lon="10.7647527833">
		<tag k="name" v="Tommelsjøholen" />
		<tag k="natural" v="hill" />
		<tag k="place" v="locality" />
		<tag k="ssr:stedsnr" v="431650" />
	</node>
	<node id="-137210" lat="60.3920083291" lon="10.8736722276">
		<tag k="name" v="Nordsæterhaugen" />
		<tag k="natural" v="hill" />
		<tag k="place" v="locality" />
		<tag k="ssr:stedsnr" v="431598" />
	</node>
	<node id="-137208" lat="60.346405552" lon="10.8373305483">
		<tag k="alt_name" v="Sandbotnhaug, vestre" />
		<tag k="name" v="Vestre Sandbotnhaugen" />
		<tag k="natural" v="hill" />
		<tag k="place" v="locality" />
		<tag k="ssr:stedsnr" v="431553" />
	</node>
	<node id="-137206" lat="60.4344777746" lon="10.2072249911">
		<tag k="fixme" v="consider natural=peak for the most distinct mountains in the district" />
		<tag k="name" v="Sæterkollen" />
		<tag k="natural" v="hill" />
		<tag k="place" v="locality" />
		<tag k="ssr:stedsnr" v="431386" />
	</node>
	<node id="-137190" lat="60.4041416669" lon="10.6271499999">
		<tag k="alt_name" v="Hemsæterhaugen" />
		<tag k="fixme" v="consider natural=peak for the most distinct mountains in the district" />
		<tag k="name" v="Hemsæterhøgda" />
		<tag k="natural" v="hill" />
		<tag k="place" v="locality" />
		<tag k="ssr:stedsnr" v="431187" />
	</node>
	<node id="-137162" lat="60.3651055513" lon="10.709080553">
		<tag k="fixme" v="consider natural=peak for the most distinct mountains in the district" />
		<tag k="name" v="Marikleivhaugen" />
		<tag k="natural" v="hill" />
		<tag k="place" v="locality" />
		<tag k="ssr:stedsnr" v="431011" />
	</node>
	<node id="-137161" lat="60.4569916643" lon="10.3352416756">
		<tag k="fixme" v="consider natural=peak for the most distinct mountains in the district" />
		<tag k="name" v="Fallakampen" />
		<tag k="natural" v="hill" />
		<tag k="place" v="locality" />
		<tag k="ssr:stedsnr" v="430542" />
	</node>
	<node id="-137155" lat="60.4599444421" lon="10.3722777756">
		<tag k="name" v="Pålseruddalen" />
		<tag k="natural" v="valley" />
		<tag k="place" v="locality" />
		<tag k="ssr:stedsnr" v="416838" />
	</node>
	<node id="-137152" lat="60.4308750034" lon="10.2906055489">
		<tag k="name" v="Østre Hovseterås" />
		<tag k="natural" v="hill" />
		<tag k="place" v="locality" />
		<tag k="ssr:stedsnr" v="415929" />
	</node>
	<node id="-137150" lat="60.4643555541" lon="10.2100750085">
		<tag k="name" v="Skansen" />
		<tag k="natural" v="hill" />
		<tag k="place" v="locality" />
		<tag k="ssr:stedsnr" v="415805" />
	</node>
	<node id="-137146" lat="60.3659722241" lon="10.7600749992">
		<tag k="name" v="Søre Glåmen" />
		<tag k="natural" v="hill" />
		<tag k="place" v="locality" />
		<tag k="ssr:stedsnr" v="415697" />
	</node>
	<node id="-137141" lat="60.3177638859" lon="10.8303361138">
		<tag k="name" v="Langvasshaugen" />
		<tag k="natural" v="hill" />
		<tag k="place" v="locality" />
		<tag k="ssr:stedsnr" v="415592" />
	</node>
	<node id="-137139" lat="60.4399444404" lon="10.3777055519">
		<tag k="name" v="Mastedalen" />
		<tag k="natural" v="valley" />
		<tag k="place" v="locality" />
		<tag k="ssr:stedsnr" v="415550" />
	</node>
	<node id="-137136" lat="60.3873944479" lon="10.3413027797">
		<tag k="name" v="Veltadalen" />
		<tag k="natural" v="valley" />
		<tag k="place" v="locality" />
		<tag k="ssr:stedsnr" v="415503" />
	</node>
	<node id="-137885" lat="60.4696500036" lon="10.2458361119">
		<tag k="fixme" v="consider natural=peak for the most distinct mountains in the district" />
		<tag k="name" v="Gjørsbråtåberga" />
		<tag k="natural" v="hill" />
		<tag k="place" v="locality" />
		<tag k="ssr:stedsnr" v="673570" />
	</node>
	<node id="-137131" lat="60.3522055535" lon="10.6969666737">
		<tag k="name" v="Sæterhaugen" />
		<tag k="natural" v="hill" />
		<tag k="place" v="locality" />
		<tag k="ssr:stedsnr" v="415350" />
	</node>
	<node id="-137117" lat="60.4822805536" lon="10.189477771">
		<tag k="name" v="Grastjernlia" />
		<tag k="natural" v="slope" />
		<tag k="place" v="locality" />
		<tag k="ssr:stedsnr" v="415181" />
	</node>
	<node id="-137092" lat="60.4232222189" lon="10.7913638919">
		<tag k="fixme" v="consider natural=peak for the most distinct mountains in the district" />
		<tag k="name" v="Fuglåsen" />
		<tag k="natural" v="hill" />
		<tag k="place" v="locality" />
		<tag k="ssr:stedsnr" v="249626" />
	</node>
	<node id="-137083" lat="60.5244000039" lon="10.2929944382">
		<tag k="name" v="Bjoneberget" />
		<tag k="natural" v="hill" />
		<tag k="place" v="locality" />
		<tag k="ssr:stedsnr" v="249481" />
	</node>
	<node id="-137057" lat="60.3916611094" lon="10.6700055635">
		<tag k="fixme" v="consider natural=peak for the most distinct mountains in the district" />
		<tag k="name" v="Framstadsæterfjellet" />
		<tag k="natural" v="hill" />
		<tag k="place" v="locality" />
		<tag k="ssr:stedsnr" v="249074" />
	</node>
	<node id="-137056" lat="60.3879388931" lon="10.7086555582">
		<tag k="fixme" v="consider natural=peak for the most distinct mountains in the district" />
		<tag k="name" v="Vassbråskurven" />
		<tag k="natural" v="hill" />
		<tag k="place" v="locality" />
		<tag k="ssr:stedsnr" v="249071" />
	</node>
	<node id="-137052" lat="60.3566805601" lon="10.6592694396">
		<tag k="fixme" v="consider natural=peak for the most distinct mountains in the district" />
		<tag k="name" v="Kaperalen" />
		<tag k="natural" v="hill" />
		<tag k="place" v="locality" />
		<tag k="ssr:stedsnr" v="249052" />
	</node>
	<node id="-137047" lat="60.3384555535" lon="10.5021166618">
		<tag k="fixme" v="consider natural=peak for the most distinct mountains in the district" />
		<tag k="name" v="Buhammaren" />
		<tag k="natural" v="hill" />
		<tag k="place" v="locality" />
		<tag k="ssr:stedsnr" v="248977" />
	</node>
	<node id="-137046" lat="60.4928916648" lon="10.301569447">
		<tag k="fixme" v="consider natural=peak for the most distinct mountains in the district" />
		<tag k="name" v="Kvitberget" />
		<tag k="natural" v="hill" />
		<tag k="place" v="locality" />
		<tag k="ssr:stedsnr" v="248737" />
	</node>
	<node id="-137045" lat="60.3838388852" lon="10.3149083325">
		<tag k="alt_name" v="Styggdalen" />
		<tag k="name" v="Styggedalen" />
		<tag k="natural" v="valley" />
		<tag k="place" v="locality" />
		<tag k="ssr:stedsnr" v="248631" />
	</node>
	<node id="-137017" lat="60.4822111117" lon="10.2225972231">
		<tag k="name" v="Geitryggen" />
		<tag k="natural" v="hill" />
		<tag k="place" v="locality" />
		<tag k="ssr:stedsnr" v="233702" />
	</node>
	<node id="-137012" lat="60.3262027747" lon="10.874055561">
		<tag k="name" v="Kvernsjølia" />
		<tag k="natural" v="valley" />
		<tag k="place" v="locality" />
		<tag k="ssr:stedsnr" v="233611" />
	</node>
	<node id="-137010" lat="60.4800611112" lon="10.175491662">
		<tag k="name" v="Styggdalen" />
		<tag k="natural" v="valley" />
		<tag k="place" v="locality" />
		<tag k="ssr:stedsnr" v="233542" />
	</node>
	<node id="-136995" lat="60.4681083374" lon="10.335813896">
		<tag k="name" v="Vardehøgda" />
		<tag k="natural" v="hill" />
		<tag k="place" v="locality" />
		<tag k="ssr:stedsnr" v="233177" />
	</node>
	<node id="-136991" lat="60.4971416709" lon="10.1960194434">
		<tag k="name" v="Furuberga" />
		<tag k="natural" v="slope" />
		<tag k="place" v="locality" />
		<tag k="ssr:stedsnr" v="232575" />
	</node>
	<node id="-136990" lat="60.4318166634" lon="10.3724527713">
		<tag k="name" v="Kophauger" />
		<tag k="natural" v="hill" />
		<tag k="place" v="locality" />
		<tag k="ssr:stedsnr" v="232478" />
	</node>
	<node id="-136988" lat="60.513330554" lon="10.2905277792">
		<tag k="name" v="Gjerdingshaugen" />
		<tag k="natural" v="hill" />
		<tag k="place" v="locality" />
		<tag k="ssr:stedsnr" v="232431" />
	</node>
	<node id="-136971" lat="60.5012527806" lon="10.642969451">
		<tag k="name" v="Geitberget" />
		<tag k="natural" v="hill" />
		<tag k="place" v="locality" />
		<tag k="ssr:stedsnr" v="215572" />
	</node>
	<node id="-136958" lat="60.4172694479" lon="10.472905553">
		<tag k="name" v="Svarthaugen" />
		<tag k="natural" v="hill" />
		<tag k="place" v="locality" />
		<tag k="ssr:stedsnr" v="213933" />
	</node>
	<node id="-136956" lat="60.4761888876" lon="10.5662972234">
		<tag k="name" v="Flyndreberget" />
		<tag k="natural" v="hill" />
		<tag k="place" v="locality" />
		<tag k="ssr:stedsnr" v="213748" />
	</node>
	<node id="-136949" lat="60.5356944468" lon="10.4203166741">
		<tag k="name" v="Budalen" />
		<tag k="natural" v="valley" />
		<tag k="place" v="locality" />
		<tag k="ssr:stedsnr" v="213668" />
	</node>
	<node id="-136932" lat="60.4469861138" lon="10.4681194498">
		<tag k="name" v="Gauken" />
		<tag k="natural" v="hill" />
		<tag k="place" v="locality" />
		<tag k="ssr:stedsnr" v="213004" />
	</node>
	<node id="-136922" lat="60.3939583289" lon="10.6199416733">
		<tag k="fixme" v="consider natural=peak for the most distinct mountains in the district" />
		<tag k="name" v="Rånåsen" />
		<tag k="natural" v="hill" />
		<tag k="place" v="locality" />
		<tag k="ssr:stedsnr" v="211583" />
	</node>
	<node id="-136909" lat="60.5142583338" lon="10.2746416668">
		<tag k="name" v="Saghaugen" />
		<tag k="natural" v="hill" />
		<tag k="place" v="locality" />
		<tag k="ssr:stedsnr" v="189466" />
	</node>
	<node id="-136903" lat="60.3403222265" lon="10.6498416681">
		<tag k="name" v="Randsberget" />
		<tag k="natural" v="hill" />
		<tag k="place" v="locality" />
		<tag k="ssr:stedsnr" v="188991" />
	</node>
	<node id="-136897" lat="60.485341665" lon="10.1989999975">
		<tag k="fixme" v="consider natural=peak for the most distinct mountains in the district" />
		<tag k="name" v="Sytterhaugen" />
		<tag k="natural" v="hill" />
		<tag k="place" v="locality" />
		<tag k="ssr:stedsnr" v="188739" />
	</node>
	<node id="-136887" lat="60.3986750036" lon="10.7445666739">
		<tag k="name" v="Knatthaugen" />
		<tag k="natural" v="hill" />
		<tag k="place" v="locality" />
		<tag k="ssr:stedsnr" v="188639" />
	</node>
	<node id="-136886" lat="60.3893583311" lon="10.8353833386">
		<tag k="alt_name" v="Kalvdykkjehaugen" />
		<tag k="name" v="Kalvlykkjehaugen" />
		<tag k="natural" v="hill" />
		<tag k="place" v="locality" />
		<tag k="ssr:stedsnr" v="188629" />
	</node>
	<node id="-136885" lat="60.3877333347" lon="10.791544439">
		<tag k="name" v="Lauvhaugen" />
		<tag k="natural" v="hill" />
		<tag k="place" v="locality" />
		<tag k="ssr:stedsnr" v="188626" />
	</node>
	<node id="-136844" lat="60.5113944453" lon="10.5008722186">
		<tag k="fixme" v="consider natural=peak for the most distinct mountains in the district" />
		<tag k="name" v="Munken" />
		<tag k="natural" v="hill" />
		<tag k="place" v="locality" />
		<tag k="ssr:stedsnr" v="188083" />
	</node>
	<node id="-136834" lat="60.4603111111" lon="10.3748527809">
		<tag k="name" v="Pålshaugen" />
		<tag k="natural" v="hill" />
		<tag k="place" v="locality" />
		<tag k="ssr:stedsnr" v="173836" />
	</node>
	<node id="-136829" lat="60.3905777763" lon="10.8595388957">
		<tag k="name" v="Helmenhaugene" />
		<tag k="natural" v="hill" />
		<tag k="place" v="locality" />
		<tag k="ssr:stedsnr" v="173414" />
	</node>
	<node id="-136826" lat="60.4269277795" lon="10.6772833405">
		<tag k="name" v="Veslelushaugen" />
		<tag k="natural" v="hill" />
		<tag k="place" v="locality" />
		<tag k="ssr:stedsnr" v="173502" />
	</node>
	<node id="-136817" lat="60.453741664" lon="10.3827555579">
		<tag k="name" v="Dagsens Hammer" />
		<tag k="natural" v="hill" />
		<tag k="place" v="locality" />
		<tag k="ssr:stedsnr" v="172791" />
	</node>
	<node id="-136813" lat="60.417604817" lon="10.6606727252">
		<tag k="name" v="Svartdalen" />
		<tag k="natural" v="valley" />
		<tag k="place" v="locality" />
		<tag k="ssr:stedsnr" v="172585" />
	</node>
	<node id="-136805" lat="60.4852222235" lon="10.3283694469">
		<tag k="fixme" v="consider natural=peak for the most distinct mountains in the district" />
		<tag k="name" v="Storås" />
		<tag k="natural" v="hill" />
		<tag k="place" v="locality" />
		<tag k="ssr:stedsnr" v="172251" />
	</node>
	<node id="-136787" lat="60.4936638874" lon="10.6228111088">
		<tag k="name" v="Vestre Styggdalen" />
		<tag k="natural" v="valley" />
		<tag k="place" v="locality" />
		<tag k="ssr:stedsnr" v="154542" />
	</node>
	<node id="-136786" lat="60.4864222236" lon="10.6386222267">
		<tag k="name" v="Nordhelgedalslia" />
		<tag k="natural" v="slope" />
		<tag k="place" v="locality" />
		<tag k="ssr:stedsnr" v="154532" />
	</node>
	<node id="-136783" lat="60.46366389" lon="10.6589277769">
		<tag k="name" v="Gammelsæterhaugen" />
		<tag k="natural" v="hill" />
		<tag k="place" v="locality" />
		<tag k="ssr:stedsnr" v="153547" />
	</node>
	<node id="-136780" lat="60.417391669" lon="10.4671694466">
		<tag k="name" v="Høgmoen" />
		<tag k="natural" v="hill" />
		<tag k="place" v="locality" />
		<tag k="ssr:stedsnr" v="152929" />
	</node>
	<node id="-136773" lat="60.5146472213" lon="10.4672444397">
		<tag k="fixme" v="consider natural=peak for the most distinct mountains in the district" />
		<tag k="name" v="Ellenbrenna" />
		<tag k="natural" v="hill" />
		<tag k="place" v="locality" />
		<tag k="ssr:stedsnr" v="152634" />
	</node>
	<node id="-136761" lat="60.4657138881" lon="10.4658277841">
		<tag k="name" v="Sørstuhaugen" />
		<tag k="natural" v="hill" />
		<tag k="place" v="locality" />
		<tag k="ssr:stedsnr" v="152206" />
	</node>
	<node id="-136753" lat="60.3605472228" lon="10.6405194388">
		<tag k="name" v="Midtdala" />
		<tag k="natural" v="valley" />
		<tag k="place" v="locality" />
		<tag k="ssr:stedsnr" v="150978" />
	</node>
	<node id="-136746" lat="60.4163194459" lon="10.4983416614">
		<tag k="name" v="Tomtehaugen" />
		<tag k="natural" v="hill" />
		<tag k="place" v="locality" />
		<tag k="ssr:stedsnr" v="150166" />
	</node>
	<node id="-136732" lat="60.5301277744" lon="10.2359305519">
		<tag k="alt_name" v="Skjellemyrhaugen" />
		<tag k="name" v="Skillemyrhaugen" />
		<tag k="natural" v="hill" />
		<tag k="place" v="locality" />
		<tag k="ssr:stedsnr" v="128518" />
	</node>
	<node id="-136715" lat="60.4053999988" lon="10.8783500046">
		<tag k="fixme" v="consider natural=peak for the most distinct mountains in the district" />
		<tag k="name" v="Rognhaugen" />
		<tag k="natural" v="hill" />
		<tag k="place" v="locality" />
		<tag k="ssr:stedsnr" v="127652" />
	</node>
	<node id="-136714" lat="60.4050638854" lon="10.7670861105">
		<tag k="name" v="Svarthaugen" />
		<tag k="natural" v="hill" />
		<tag k="place" v="locality" />
		<tag k="ssr:stedsnr" v="127649" />
	</node>
	<node id="-136689" lat="60.4497722178" lon="10.6834472235">
		<tag k="fixme" v="consider natural=peak for the most distinct mountains in the district" />
		<tag k="name" v="Lauvhaugen" />
		<tag k="natural" v="hill" />
		<tag k="place" v="locality" />
		<tag k="ssr:stedsnr" v="127264" />
	</node>
	<node id="-136659" lat="60.4086222218" lon="10.5020750018">
		<tag k="name" v="Grindåkerflaten" />
		<tag k="place" v="locality" />
		<tag k="ssr:stedsnr" v="115072" />
	</node>
	<node id="-136657" lat="60.4706666637" lon="10.3776527715">
		<tag k="name" v="Lokkeberget" />
		<tag k="natural" v="hill" />
		<tag k="place" v="locality" />
		<tag k="ssr:stedsnr" v="112783" />
	</node>
	<node id="-136653" lat="60.4421027822" lon="10.3664555491">
		<tag k="name" v="Liabakken" />
		<tag k="natural" v="slope" />
		<tag k="place" v="locality" />
		<tag k="ssr:stedsnr" v="112542" />
	</node>
	<node id="-138693" lat="60.414761111" lon="10.8129972248">
		<tag k="name" v="Huldretjernsberget" />
		<tag k="natural" v="hill" />
		<tag k="old_name" v="Huldretjersberget" />
		<tag k="place" v="locality" />
		<tag k="ssr:stedsnr" v="962873" />
	</node>
	<node id="-138690" lat="60.4745416691" lon="10.3882111194">
		<tag k="name" v="Ovnsløkka" />
		<tag k="place" v="locality" />
		<tag k="ssr:stedsnr" v="961950" />
	</node>
	<node id="-138684" lat="60.455633333" lon="10.3783555547">
		<tag k="name" v="Hulderstaddalen" />
		<tag k="natural" v="valley" />
		<tag k="place" v="locality" />
		<tag k="ssr:stedsnr" v="961770" />
	</node>
	<node id="-136635" lat="60.3644055554" lon="10.719516675">
		<tag k="name" v="Styggdalen" />
		<tag k="natural" v="valley" />
		<tag k="place" v="locality" />
		<tag k="ssr:stedsnr" v="112355" />
	</node>
	<node id="-136634" lat="60.3612666707" lon="10.6812861167">
		<tag k="name" v="Kastelia" />
		<tag k="natural" v="slope" />
		<tag k="place" v="locality" />
		<tag k="ssr:stedsnr" v="112338" />
	</node>
	<node id="-138681" lat="60.4798583323" lon="10.2061388808">
		<tag k="name" v="Sytterlia" />
		<tag k="natural" v="slope" />
		<tag k="place" v="locality" />
		<tag k="ssr:stedsnr" v="961586" />
	</node>
	<node id="-138679" lat="60.4148777744" lon="10.2396000084">
		<tag k="name" v="Bjørnsjøhøgda" />
		<tag k="natural" v="hill" />
		<tag k="place" v="locality" />
		<tag k="ssr:stedsnr" v="961562" />
	</node>
	<node id="-138674" lat="60.5281361148" lon="10.2700249941">
		<tag k="name" v="Bjonemyrhaugen" />
		<tag k="natural" v="hill" />
		<tag k="place" v="locality" />
		<tag k="ssr:stedsnr" v="961382" />
	</node>
	<node id="-138673" lat="60.3543777736" lon="10.6673833241">
		<tag k="name" v="Kaperalen" />
		<tag k="natural" v="hill" />
		<tag k="place" v="locality" />
		<tag k="ssr:stedsnr" v="961319" />
	</node>
	<node id="-136624" lat="60.5304888906" lon="10.4975555505">
		<tag k="name" v="Åtdalen" />
		<tag k="natural" v="valley" />
		<tag k="place" v="locality" />
		<tag k="ssr:stedsnr" v="93648" />
	</node>
	<node id="-136622" lat="60.4818749981" lon="10.6604944375">
		<tag k="name" v="Helgedalen" />
		<tag k="natural" v="valley" />
		<tag k="place" v="locality" />
		<tag k="ssr:stedsnr" v="93405" />
	</node>
	<node id="-138657" lat="60.4779916626" lon="10.6105138809">
		<tag k="name" v="Ormeberga" />
		<tag k="natural" v="ridge" />
		<tag k="place" v="locality" />
		<tag k="ssr:stedsnr" v="943367" />
	</node>
	<node id="-138656" lat="60.5383500013" lon="10.5520444523">
		<tag k="name" v="Parislia" />
		<tag k="natural" v="slope" />
		<tag k="place" v="locality" />
		<tag k="ssr:stedsnr" v="943351" />
	</node>
	<node id="-136605" lat="60.5491222253" lon="10.4547250036">
		<tag k="name" v="Holmetjernslia" />
		<tag k="natural" v="slope" />
		<tag k="place" v="locality" />
		<tag k="ssr:stedsnr" v="92434" />
	</node>
	<node id="-138652" lat="60.4721833303" lon="10.5793361136">
		<tag k="name" v="Morderknipen" />
		<tag k="place" v="locality" />
		<tag k="ssr:stedsnr" v="942733" />
	</node>
	<node id="-136603" lat="60.4949833295" lon="10.590969443">
		<tag k="name" v="Høgkorslia" />
		<tag k="natural" v="slope" />
		<tag k="place" v="locality" />
		<tag k="ssr:stedsnr" v="92342" />
	</node>
	<node id="-136602" lat="60.4986777793" lon="10.5638805481">
		<tag k="name" v="Korshaugen" />
		<tag k="natural" v="hill" />
		<tag k="place" v="locality" />
		<tag k="ssr:stedsnr" v="92333" />
	</node>
	<node id="-136585" lat="60.4264694404" lon="10.6233083332">
		<tag k="name" v="Spranglia" />
		<tag k="natural" v="slope" />
		<tag k="place" v="locality" />
		<tag k="ssr:stedsnr" v="90952" />
	</node>
	<node id="-136583" lat="60.3856166672" lon="10.6147277782">
		<tag k="fixme" v="consider natural=peak for the most distinct mountains in the district" />
		<tag k="name" v="Øverhagamana" />
		<tag k="natural" v="hill" />
		<tag k="place" v="locality" />
		<tag k="ssr:stedsnr" v="90798" />
	</node>
	<node id="-136582" lat="60.3721472251" lon="10.6311027833">
		<tag k="name" v="Olabråtålia" />
		<tag k="natural" v="slope" />
		<tag k="place" v="locality" />
		<tag k="ssr:stedsnr" v="90732" />
	</node>
	<node id="-138626" lat="60.40203056" lon="10.5465888853">
		<tag k="name" v="Erikshaugen" />
		<tag k="natural" v="hill" />
		<tag k="place" v="locality" />
		<tag k="ssr:stedsnr" v="939841" />
	</node>
	<node id="-136569" lat="60.5253416662" lon="10.4795611151">
		<tag k="name" v="Toppdalen" />
		<tag k="natural" v="valley" />
		<tag k="place" v="locality" />
		<tag k="ssr:stedsnr" v="85549" />
	</node>
	<node id="-138615" lat="60.5310388863" lon="10.4827611165">
		<tag k="fixme" v="consider natural=peak for the most distinct mountains in the district" />
		<tag k="name" v="Toppåsen" />
		<tag k="natural" v="hill" />
		<tag k="place" v="locality" />
		<tag k="ssr:stedsnr" v="934593" />
	</node>
	<node id="-138610" lat="60.3996333355" lon="10.2963694467">
		<tag k="alt_name" v="Abborhaugen" />
		<tag k="name" v="Åbortjernshaugen" />
		<tag k="natural" v="hill" />
		<tag k="place" v="locality" />
		<tag k="ssr:stedsnr" v="917265" />
	</node>
	<node id="-136551" lat="60.424399999" lon="10.7186500057">
		<tag k="name" v="Jønnlidalen" />
		<tag k="natural" v="valley" />
		<tag k="place" v="locality" />
		<tag k="ssr:stedsnr" v="67637" />
	</node>
	<node id="-136549" lat="60.3567527742" lon="10.8108694418">
		<tag k="name" v="Gullenhaugen" />
		<tag k="natural" v="hill" />
		<tag k="place" v="locality" />
		<tag k="ssr:stedsnr" v="67565" />
	</node>
	<node id="-138591" lat="60.3685250008" lon="10.8616305602">
		<tag k="name" v="Bjørnvikhaugen" />
		<tag k="natural" v="hill" />
		<tag k="place" v="locality" />
		<tag k="ssr:stedsnr" v="916573" />
	</node>
	<node id="-138589" lat="60.4546361126" lon="10.1985972285">
		<tag k="fixme" v="consider natural=peak for the most distinct mountains in the district" />
		<tag k="name" v="Vestlandsfjellet" />
		<tag k="natural" v="hill" />
		<tag k="place" v="locality" />
		<tag k="ssr:stedsnr" v="916546" />
	</node>
	<node id="-138588" lat="60.4226472239" lon="10.196369445">
		<tag k="fixme" v="consider natural=peak for the most distinct mountains in the district" />
		<tag k="name" v="Tretjernshøgda" />
		<tag k="natural" v="hill" />
		<tag k="place" v="locality" />
		<tag k="ssr:stedsnr" v="916397" />
	</node>
	<node id="-138585" lat="60.4308750012" lon="10.2883749914">
		<tag k="fixme" v="consider natural=peak for the most distinct mountains in the district" />
		<tag k="name" v="Hovsæteråsen" />
		<tag k="natural" v="hill" />
		<tag k="place" v="locality" />
		<tag k="ssr:stedsnr" v="916374" />
	</node>
	<node id="-138570" lat="60.3830250038" lon="10.691925002">
		<tag k="fixme" v="consider natural=peak for the most distinct mountains in the district" />
		<tag k="name" v="Mykjegodthaugen" />
		<tag k="natural" v="hill" />
		<tag k="place" v="locality" />
		<tag k="ssr:stedsnr" v="916137" />
	</node>
	<node id="-136521" lat="60.399136108" lon="10.6718499958">
		<tag k="fixme" v="consider natural=peak for the most distinct mountains in the district" />
		<tag k="name" v="Stormyrhaugen" />
		<tag k="natural" v="hill" />
		<tag k="place" v="locality" />
		<tag k="ssr:stedsnr" v="67188" />
	</node>
	<node id="-138558" lat="60.338338891" lon="10.8134388839">
		<tag k="name" v="Rusaberga" />
		<tag k="natural" v="hill" />
		<tag k="place" v="locality" />
		<tag k="ssr:stedsnr" v="901757" />
	</node>
	<node id="-138554" lat="60.3175000032" lon="10.7964083302">
		<tag k="name" v="Kråkhaugen" />
		<tag k="natural" v="hill" />
		<tag k="place" v="locality" />
		<tag k="ssr:stedsnr" v="901560" />
	</node>
	<node id="-136504" lat="60.41041111" lon="10.8226583335">
		<tag k="fixme" v="consider natural=peak for the most distinct mountains in the district" />
		<tag k="name" v="Fugleåsen" />
		<tag k="natural" v="hill" />
		<tag k="place" v="locality" />
		<tag k="ssr:stedsnr" v="52686" />
	</node>
	<node id="-136502" lat="60.4741972257" lon="10.37626944">
		<tag k="name" v="Korpeberget" />
		<tag k="natural" v="hill" />
		<tag k="place" v="locality" />
		<tag k="ssr:stedsnr" v="51944" />
	</node>
	<node id="-136501" lat="60.4751083376" lon="10.3772944405">
		<tag k="name" v="Kujutulen" />
		<tag k="natural" v="hill" />
		<tag k="place" v="locality" />
		<tag k="ssr:stedsnr" v="51945" />
	</node>
	<node id="-136500" lat="60.5261499963" lon="10.1567222205">
		<tag k="name" v="Vardehaugkollen" />
		<tag k="natural" v="hill" />
		<tag k="place" v="locality" />
		<tag k="ssr:stedsnr" v="51901" />
	</node>
	<node id="-138546" lat="60.4375250035" lon="10.2872111029">
		<tag k="name" v="Lokkeberget" />
		<tag k="natural" v="hill" />
		<tag k="place" v="locality" />
		<tag k="ssr:stedsnr" v="900595" />
	</node>
	<node id="-136496" lat="60.4828527738" lon="10.22906111">
		<tag k="name" v="Frysihjeldalen" />
		<tag k="natural" v="valley" />
		<tag k="place" v="locality" />
		<tag k="ssr:stedsnr" v="51711" />
	</node>
	<node id="-138542" lat="60.3481055551" lon="10.8421722202">
		<tag k="name" v="Høvernhøgda" />
		<tag k="natural" v="hill" />
		<tag k="place" v="locality" />
		<tag k="ssr:stedsnr" v="900257" />
	</node>
	<node id="-138540" lat="60.3680388925" lon="10.8443833298">
		<tag k="name" v="Storstulia" />
		<tag k="natural" v="slope" />
		<tag k="place" v="locality" />
		<tag k="ssr:stedsnr" v="900244" />
	</node>
	<node id="-136488" lat="60.3338444473" lon="10.6729583411">
		<tag k="name" v="Skarbrenna" />
		<tag k="natural" v="slope" />
		<tag k="place" v="locality" />
		<tag k="ssr:stedsnr" v="51424" />
	</node>
	<node id="-136481" lat="60.3587055574" lon="10.8620666751">
		<tag k="name" v="Koperudhaugen" />
		<tag k="natural" v="hill" />
		<tag k="place" v="locality" />
		<tag k="ssr:stedsnr" v="51200" />
	</node>
	<node id="-136479" lat="60.4998416689" lon="10.2259638915">
		<tag k="name" v="Flattumslette" />
		<tag k="place" v="locality" />
		<tag k="ssr:stedsnr" v="51191" />
	</node>
	<node id="-138524" lat="60.4696222209" lon="10.5600027751">
		<tag k="name" v="Goddalshaugen" />
		<tag k="natural" v="hill" />
		<tag k="place" v="locality" />
		<tag k="ssr:stedsnr" v="881716" />
	</node>
	<node id="-138522" lat="60.45896111" lon="10.5861722252">
		<tag k="name" v="Skålsæterhaugen" />
		<tag k="natural" v="hill" />
		<tag k="place" v="locality" />
		<tag k="ssr:stedsnr" v="881697" />
	</node>
	<node id="-138520" lat="60.539727778" lon="10.4220277692">
		<tag k="name" v="Gjersjølia" />
		<tag k="natural" v="slope" />
		<tag k="place" v="locality" />
		<tag k="ssr:stedsnr" v="881626" />
	</node>
	<node id="-136463" lat="60.4363250035" lon="10.6403499919">
		<tag k="name" v="Kvitberga" />
		<tag k="natural" v="hill" />
		<tag k="place" v="locality" />
		<tag k="ssr:stedsnr" v="32668" />
	</node>
	<node id="-136459" lat="60.4760472225" lon="10.6530138978">
		<tag k="name" v="Lokkebekkhaugane" />
		<tag k="natural" v="ridge" />
		<tag k="place" v="locality" />
		<tag k="ssr:stedsnr" v="32507" />
	</node>
	<node id="-138455" lat="60.4255055515" lon="10.3028527839">
		<tag k="name" v="Grindåkerdalen" />
		<tag k="natural" v="valley" />
		<tag k="place" v="locality" />
		<tag k="ssr:stedsnr" v="856409" />
	</node>
	<node id="-136455" lat="60.4708388865" lon="10.6188472181">
		<tag k="name" v="Kambuhøgda" />
		<tag k="natural" v="hill" />
		<tag k="place" v="locality" />
		<tag k="ssr:stedsnr" v="32315" />
	</node>
	<node id="-136454" lat="60.5473194482" lon="10.4247805509">
		<tag k="name" v="Slåttmyrbakken" />
		<tag k="natural" v="slope" />
		<tag k="place" v="locality" />
		<tag k="ssr:stedsnr" v="32190" />
	</node>
	<node id="-136453" lat="60.5446555544" lon="10.4183555504">
		<tag k="name" v="Gjersjøholen" />
		<tag k="natural" v="valley" />
		<tag k="place" v="locality" />
		<tag k="ssr:stedsnr" v="32191" />
	</node>
	<node id="-136451" lat="60.5172027769" lon="10.5636444503">
		<tag k="name" v="Hugælnbråtån" />
		<tag k="place" v="locality" />
		<tag k="ssr:stedsnr" v="32124" />
	</node>
	<node id="-136437" lat="60.4300388896" lon="10.6491722298">
		<tag k="name" v="Lauvlisæterhaugen" />
		<tag k="natural" v="hill" />
		<tag k="place" v="locality" />
		<tag k="ssr:stedsnr" v="29981" />
	</node>
	<node id="-136433" lat="60.4157194419" lon="10.4894694439">
		<tag k="name" v="Raudhaugen" />
		<tag k="natural" v="hill" />
		<tag k="place" v="locality" />
		<tag k="ssr:stedsnr" v="29196" />
	</node>
	<node id="-136426" lat="60.4106611106" lon="10.5435111193">
		<tag k="name" v="Feierhaugen" />
		<tag k="natural" v="hill" />
		<tag k="place" v="locality" />
		<tag k="ssr:stedsnr" v="28056" />
	</node>
	<node id="-136424" lat="60.5261972258" lon="10.4669527838">
		<tag k="name" v="Lushattbakken" />
		<tag k="natural" v="slope" />
		<tag k="place" v="locality" />
		<tag k="ssr:stedsnr" v="24621" />
	</node>
	<node id="-136060" lat="60.4378694486" lon="10.1961805534">
		<tag k="name" v="Sæterkollen" />
		<tag k="natural" v="hill" />
		<tag k="place" v="locality" />
		<tag k="ssr:stedsnr" v="354300" />
	</node>
	<node id="-136421" lat="60.5487250029" lon="10.1488694378">
		<tag k="alt_name" v="Skjellrøyskollen" />
		<tag k="fixme" v="consider natural=peak for the most distinct mountains in the district" />
		<tag k="name" v="Skillerøyskollen" />
		<tag k="natural" v="hill" />
		<tag k="place" v="locality" />
		<tag k="ssr:stedsnr" v="7491" />
	</node>
	<node id="-136411" lat="60.4879249958" lon="10.274622225">
		<tag k="fixme" v="consider natural=peak for the most distinct mountains in the district" />
		<tag k="name" v="Gusberghaugen" />
		<tag k="natural" v="hill" />
		<tag k="place" v="locality" />
		<tag k="ssr:stedsnr" v="6715" />
	</node>
	<node id="-136407" lat="60.4617888848" lon="10.3105083345">
		<tag k="name" v="Ljosdalen" />
		<tag k="natural" v="valley" />
		<tag k="place" v="locality" />
		<tag k="ssr:stedsnr" v="6581" />
	</node>
	<node id="-136405" lat="60.3710361102" lon="10.7417749986">
		<tag k="alt_name" v="Glåmen, nordre" />
		<tag k="name" v="Nordre Glåmen" />
		<tag k="natural" v="hill" />
		<tag k="place" v="locality" />
		<tag k="ssr:stedsnr" v="6576" />
	</node>
	<node id="-136392" lat="60.4594138881" lon="10.5896583278">
		<tag k="fixme" v="consider natural=peak for the most distinct mountains in the district" />
		<tag k="name" v="Fagerberget" />
		<tag k="natural" v="hill" />
		<tag k="place" v="locality" />
		<tag k="ssr:stedsnr" v="6250" />
	</node>
	<node id="-136376" lat="60.3499277794" lon="10.5206944485">
		<tag k="fixme" v="consider natural=peak for the most distinct mountains in the district" />
		<tag k="name" v="Gammehaugen" />
		<tag k="natural" v="hill" />
		<tag k="place" v="locality" />
		<tag k="ssr:stedsnr" v="6060" />
	</node>
	<node id="-136373" lat="60.3641583328" lon="10.6988138946">
		<tag k="fixme" v="consider natural=peak for the most distinct mountains in the district" />
		<tag k="name" v="Grasåsen" />
		<tag k="natural" v="hill" />
		<tag k="place" v="locality" />
		<tag k="ssr:stedsnr" v="6018" />
	</node>
	<node id="-138408" lat="60.4321861145" lon="10.7152083282">
		<tag k="name" v="Jønnlidalen" />
		<tag k="natural" v="valley" />
		<tag k="place" v="locality" />
		<tag k="ssr:stedsnr" v="841505" />
	</node>
	<node id="-138402" lat="60.3835777761" lon="10.8296111114">
		<tag k="name" v="Hønefosslia" />
		<tag k="natural" v="slope" />
		<tag k="place" v="locality" />
		<tag k="ssr:stedsnr" v="840877" />
	</node>
	<node id="-138383" lat="60.3427527775" lon="10.8888722224">
		<tag k="name" v="Bjørgelia" />
		<tag k="natural" v="slope" />
		<tag k="place" v="locality" />
		<tag k="ssr:stedsnr" v="840166" />
	</node>
	<node id="-138376" lat="60.34368611" lon="10.76024722">
		<tag k="name" v="Gullensæterlia" />
		<tag k="natural" v="slope" />
		<tag k="place" v="locality" />
		<tag k="ssr:stedsnr" v="839347" />
	</node>
	<node id="-136043" lat="60.4907500002" lon="10.2260472245">
		<tag k="name" v="Stormyrlia" />
		<tag k="natural" v="slope" />
		<tag k="place" v="locality" />
		<tag k="ssr:stedsnr" v="353645" />
	</node>
	<node id="-138365" lat="60.4675749971" lon="10.6704277759">
		<tag k="name" v="Lokkeberget" />
		<tag k="natural" v="hill" />
		<tag k="place" v="locality" />
		<tag k="ssr:stedsnr" v="821569" />
	</node>
	<node id="-138357" lat="60.5138972253" lon="10.5042583249">
		<tag k="name" v="Festningshøgda" />
		<tag k="natural" v="hill" />
		<tag k="place" v="locality" />
		<tag k="ssr:stedsnr" v="821116" />
	</node>
	<node id="-138352" lat="60.5332361081" lon="10.382761109">
		<tag k="name" v="Kampesletta" />
		<tag k="place" v="locality" />
		<tag k="ssr:stedsnr" v="820671" />
	</node>
	<node id="-136294" lat="60.5352333313" lon="10.5370499968">
		<tag k="name" v="Kløvfalla" />
		<tag k="natural" v="slope" />
		<tag k="place" v="locality" />
		<tag k="ssr:stedsnr" v="882644" />
	</node>
	<node id="-136292" lat="60.471449996" lon="10.6978222197">
		<tag k="name" v="Grandalen" />
		<tag k="natural" v="valley" />
		<tag k="place" v="locality" />
		<tag k="ssr:stedsnr" v="882491" />
	</node>
	<node id="-136288" lat="60.4935305569" lon="10.6753361137">
		<tag k="name" v="Bekkedalen" />
		<tag k="natural" v="valley" />
		<tag k="place" v="locality" />
		<tag k="ssr:stedsnr" v="882431" />
	</node>
	<node id="-136286" lat="60.4982916625" lon="10.6465444369">
		<tag k="name" v="Sagatåjet" />
		<tag k="place" v="locality" />
		<tag k="ssr:stedsnr" v="882408" />
	</node>
	<node id="-136283" lat="60.546763888" lon="10.4063999934">
		<tag k="name" v="Flaskehalsberget" />
		<tag k="natural" v="hill" />
		<tag k="place" v="locality" />
		<tag k="ssr:stedsnr" v="882153" />
	</node>
	<node id="-138328" lat="60.4321638921" lon="10.6313166631">
		<tag k="name" v="Bakkehaugsdalen" />
		<tag k="natural" v="valley" />
		<tag k="place" v="locality" />
		<tag k="ssr:stedsnr" v="818976" />
	</node>
	<node id="-136279" lat="60.5201666654" lon="10.5136305577">
		<tag k="name" v="Kåreshaugen" />
		<tag k="natural" v="hill" />
		<tag k="place" v="locality" />
		<tag k="ssr:stedsnr" v="882111" />
	</node>
	<node id="-136274" lat="60.4788361121" lon="10.2253944389">
		<tag k="name" v="Svarttjernshøgda" />
		<tag k="natural" v="hill" />
		<tag k="place" v="locality" />
		<tag k="ssr:stedsnr" v="476585" />
	</node>
	<node id="-136273" lat="60.4526305523" lon="10.2070777697">
		<tag k="name" v="Rovtjernsskaret" />
		<tag k="natural" v="valley" />
		<tag k="place" v="locality" />
		<tag k="ssr:stedsnr" v="476526" />
	</node>
	<node id="-136272" lat="60.4255249968" lon="10.7112888844">
		<tag k="name" v="Slettanghaugen" />
		<tag k="natural" v="hill" />
		<tag k="place" v="locality" />
		<tag k="ssr:stedsnr" v="476507" />
	</node>
	<node id="-136269" lat="60.4670888904" lon="10.362038897">
		<tag k="name" v="Rolibrænnsnaret" />
		<tag k="place" v="locality" />
		<tag k="ssr:stedsnr" v="476336" />
	</node>
	<node id="-136264" lat="60.4285111126" lon="10.2868416605">
		<tag k="name" v="Søndre Hovseterås" />
		<tag k="natural" v="hill" />
		<tag k="place" v="locality" />
		<tag k="ssr:stedsnr" v="475914" />
	</node>
	<node id="-136263" lat="60.5293638908" lon="10.1507638822">
		<tag k="name" v="Beritlykjedalen" />
		<tag k="natural" v="valley" />
		<tag k="place" v="locality" />
		<tag k="ssr:stedsnr" v="475894" />
	</node>
	<node id="-138306" lat="60.54166667" lon="10.1563416664">
		<tag k="name" v="Luserudkollen" />
		<tag k="natural" v="hill" />
		<tag k="place" v="locality" />
		<tag k="ssr:stedsnr" v="796547" />
	</node>
	<node id="-136254" lat="60.4902333327" lon="10.344863886">
		<tag k="name" v="Langbråtåberget" />
		<tag k="natural" v="hill" />
		<tag k="place" v="locality" />
		<tag k="ssr:stedsnr" v="475241" />
	</node>
	<node id="-136248" lat="60.416672218" lon="10.3511611089">
		<tag k="name" v="Korpeberget" />
		<tag k="natural" v="hill" />
		<tag k="place" v="locality" />
		<tag k="ssr:stedsnr" v="475093" />
	</node>
	<node id="-138289" lat="60.3707805516" lon="10.8454750082">
		<tag k="name" v="Langshaugen" />
		<tag k="natural" v="hill" />
		<tag k="place" v="locality" />
		<tag k="ssr:stedsnr" v="795594" />
	</node>
	<node id="-138286" lat="60.354255559" lon="10.8460805496">
		<tag k="name" v="Sandbotnhaugen" />
		<tag k="natural" v="hill" />
		<tag k="place" v="locality" />
		<tag k="ssr:stedsnr" v="795575" />
	</node>
	<node id="-136233" lat="60.4546555582" lon="10.6325972292">
		<tag k="name" v="Kvileberget" />
		<tag k="natural" v="hill" />
		<tag k="place" v="locality" />
		<tag k="ssr:stedsnr" v="396662" />
	</node>
	<node id="-136232" lat="60.4632777792" lon="10.6767777727">
		<tag k="name" v="Pikmyrlia" />
		<tag k="natural" v="slope" />
		<tag k="place" v="locality" />
		<tag k="ssr:stedsnr" v="396551" />
	</node>
	<node id="-136231" lat="60.4535166709" lon="10.6985055566">
		<tag k="name" v="Kåvemyrdalen" />
		<tag k="natural" v="valley" />
		<tag k="place" v="locality" />
		<tag k="ssr:stedsnr" v="396548" />
	</node>
	<node id="-136229" lat="60.5267027765" lon="10.5758361138">
		<tag k="fixme" v="consider natural=peak for the most distinct mountains in the district" />
		<tag k="name" v="Fuglåsen" />
		<tag k="natural" v="hill" />
		<tag k="place" v="locality" />
		<tag k="ssr:stedsnr" v="396441" />
	</node>
	<node id="-136228" lat="60.4854111101" lon="10.6565583359">
		<tag k="name" v="Geitryggen" />
		<tag k="natural" v="ridge" />
		<tag k="place" v="locality" />
		<tag k="ssr:stedsnr" v="396430" />
	</node>
	<node id="-138272" lat="60.4151027777" lon="10.3266416611">
		<tag k="name" v="Kroktjernshaugen" />
		<tag k="natural" v="hill" />
		<tag k="place" v="locality" />
		<tag k="ssr:stedsnr" v="795289" />
	</node>
	<node id="-136221" lat="60.5036166701" lon="10.5522083361">
		<tag k="name" v="Rundhaugen" />
		<tag k="natural" v="hill" />
		<tag k="place" v="locality" />
		<tag k="ssr:stedsnr" v="396128" />
	</node>
	<node id="-136210" lat="60.5247833338" lon="10.4250250085">
		<tag k="name" v="Haukberget" />
		<tag k="natural" v="ridge" />
		<tag k="place" v="locality" />
		<tag k="ssr:stedsnr" v="395659" />
	</node>
	<node id="-136197" lat="60.4523861075" lon="10.4616277847">
		<tag k="name" v="Kjerringberget" />
		<tag k="natural" v="hill" />
		<tag k="place" v="locality" />
		<tag k="ssr:stedsnr" v="395002" />
	</node>
	<node id="-136185" lat="60.4127416641" lon="10.6320055599">
		<tag k="name" v="Hallomshøgda" />
		<tag k="natural" v="hill" />
		<tag k="place" v="locality" />
		<tag k="ssr:stedsnr" v="393581" />
	</node>
	<node id="-138229" lat="60.4702305525" lon="10.3376611194">
		<tag k="fixme" v="consider natural=peak for the most distinct mountains in the district" />
		<tag k="name" v="Skjukuåsen" />
		<tag k="natural" v="hill" />
		<tag k="place" v="locality" />
		<tag k="ssr:stedsnr" v="794558" />
	</node>
	<node id="-136170" lat="60.5294333361" lon="10.4690027838">
		<tag k="name" v="Moterudslia" />
		<tag k="natural" v="slope" />
		<tag k="place" v="locality" />
		<tag k="ssr:stedsnr" v="388609" />
	</node>
	<node id="-136168" lat="60.5209444451" lon="10.4744055623">
		<tag k="name" v="Moterudshaugane" />
		<tag k="natural" v="ridge" />
		<tag k="place" v="locality" />
		<tag k="ssr:stedsnr" v="388559" />
	</node>
	<node id="-136166" lat="60.5339249977" lon="10.4860916616">
		<tag k="fixme" v="consider natural=peak for the most distinct mountains in the district" />
		<tag k="name" v="Toppåsen" />
		<tag k="natural" v="hill" />
		<tag k="place" v="locality" />
		<tag k="ssr:stedsnr" v="371095" />
	</node>
	<node id="-136165" lat="60.5407888864" lon="10.500105564">
		<tag k="name" v="Svartdalen" />
		<tag k="natural" v="valley" />
		<tag k="place" v="locality" />
		<tag k="ssr:stedsnr" v="371093" />
	</node>
	<node id="-138211" lat="60.4308888874" lon="10.2865027724">
		<tag k="fixme" v="consider natural=peak for the most distinct mountains in the district" />
		<tag k="name" v="Hovsæteråsen" />
		<tag k="natural" v="hill" />
		<tag k="place" v="locality" />
		<tag k="ssr:stedsnr" v="779607" />
	</node>
	<node id="-136162" lat="60.3398277733" lon="10.6697916655">
		<tag k="fixme" v="consider natural=peak for the most distinct mountains in the district" />
		<tag k="name" v="Skalbrennhøgda" />
		<tag k="natural" v="hill" />
		<tag k="place" v="locality" />
		<tag k="ssr:stedsnr" v="370988" />
	</node>
	<node id="-138209" lat="60.4559277789" lon="10.3602527711">
		<tag k="name" v="Hermanrud" />
		<tag k="natural" v="hill" />
		<tag k="place" v="locality" />
		<tag k="ssr:stedsnr" v="779597" />
	</node>
	<node id="-138207" lat="60.518894446" lon="10.276124991">
		<tag k="name" v="Kvernhushaugen" />
		<tag k="natural" v="hill" />
		<tag k="place" v="locality" />
		<tag k="ssr:stedsnr" v="779457" />
	</node>
	<node id="-138205" lat="60.5259111142" lon="10.2547583391">
		<tag k="name" v="Rykkekleiva" />
		<tag k="place" v="locality" />
		<tag k="ssr:stedsnr" v="779388" />
	</node>
	<node id="-138195" lat="60.3409888922" lon="10.8695250051">
		<tag k="name" v="Lyhaugen" />
		<tag k="natural" v="hill" />
		<tag k="place" v="locality" />
		<tag k="ssr:stedsnr" v="779160" />
	</node>
	<node id="-136141" lat="60.406919447" lon="10.2432194514">
		<tag k="fixme" v="consider natural=peak for the most distinct mountains in the district" />
		<tag k="name" v="Bjørnsjøhøgda" />
		<tag k="natural" v="hill" />
		<tag k="place" v="locality" />
		<tag k="ssr:stedsnr" v="370325" />
	</node>
	<node id="-138186" lat="60.4943249985" lon="10.6311416715">
		<tag k="name" v="Styggdalen" />
		<tag k="natural" v="valley" />
		<tag k="place" v="locality" />
		<tag k="ssr:stedsnr" v="761521" />
	</node>
	<node id="-136136" lat="60.4686472254" lon="10.6197972166">
		<tag k="alt_name" v="Hengedyhaugane" />
		<tag k="fixme" v="consider natural=peak for the most distinct mountains in the district" />
		<tag k="name" v="Hengedyhaugen" />
		<tag k="natural" v="hill" />
		<tag k="place" v="locality" />
		<tag k="ssr:stedsnr" v="370251" />
	</node>
	<node id="-138179" lat="60.4588222234" lon="10.703316675">
		<tag k="name" v="Styggbrenna" />
		<tag k="natural" v="slope" />
		<tag k="place" v="locality" />
		<tag k="ssr:stedsnr" v="760574" />
	</node>
	<node id="-136122" lat="60.4316083329" lon="10.3683361041">
		<tag k="fixme" v="consider natural=peak for the most distinct mountains in the district" />
		<tag k="name" v="Kophaug" />
		<tag k="natural" v="hill" />
		<tag k="place" v="locality" />
		<tag k="ssr:stedsnr" v="370177" />
	</node>
	<node id="-138165" lat="60.4658694466" lon="10.5458805546">
		<tag k="name" v="Styggdalen" />
		<tag k="natural" v="valley" />
		<tag k="place" v="locality" />
		<tag k="ssr:stedsnr" v="759713" />
	</node>
	<node id="-138162" lat="60.5355333292" lon="10.4043222166">
		<tag k="name" v="Geitryggen" />
		<tag k="natural" v="ridge" />
		<tag k="place" v="locality" />
		<tag k="ssr:stedsnr" v="759676" />
	</node>
	<node id="-138161" lat="60.5387694458" lon="10.395747216">
		<tag k="fixme" v="consider natural=peak for the most distinct mountains in the district" />
		<tag k="name" v="Krullfuruputthøgda" />
		<tag k="natural" v="hill" />
		<tag k="place" v="locality" />
		<tag k="ssr:stedsnr" v="759673" />
	</node>
	<node id="-138156" lat="60.480019441" lon="10.3745166654">
		<tag k="name" v="Risfallhaugen" />
		<tag k="natural" v="hill" />
		<tag k="place" v="locality" />
		<tag k="ssr:stedsnr" v="759421" />
	</node>
	<node id="-138150" lat="60.4923583345" lon="10.469327783">
		<tag k="name" v="Kudalen" />
		<tag k="natural" v="valley" />
		<tag k="place" v="locality" />
		<tag k="ssr:stedsnr" v="759260" />
	</node>
	<node id="-136101" lat="60.4069083313" lon="10.8640888916">
		<tag k="name" v="Hekkentjernslia" />
		<tag k="natural" v="slope" />
		<tag k="place" v="locality" />
		<tag k="ssr:stedsnr" v="414084" />
	</node>
	<node id="-136100" lat="60.3382027788" lon="10.9085305571">
		<tag k="name" v="Isdalen" />
		<tag k="natural" v="valley" />
		<tag k="place" v="locality" />
		<tag k="ssr:stedsnr" v="414080" />
	</node>
	<node id="-138137" lat="60.4472194477" lon="10.4834138942">
		<tag k="name" v="Rundshaugen" />
		<tag k="natural" v="hill" />
		<tag k="place" v="locality" />
		<tag k="ssr:stedsnr" v="759003" />
	</node>
	<node id="-136085" lat="60.3708749979" lon="10.3463166696">
		<tag k="name" v="Perkastet" />
		<tag k="natural" v="slope" />
		<tag k="place" v="locality" />
		<tag k="ssr:stedsnr" v="355423" />
	</node>
	<node id="-138130" lat="60.3823388928" lon="10.6532472219">
		<tag k="name" v="Ullvildsdalen" />
		<tag k="natural" v="valley" />
		<tag k="place" v="locality" />
		<tag k="ssr:stedsnr" v="757773" />
	</node>
	<node id="-136080" lat="60.3736583346" lon="10.8339277702">
		<tag k="name" v="Langshaugen" />
		<tag k="natural" v="hill" />
		<tag k="place" v="locality" />
		<tag k="ssr:stedsnr" v="354869" />
	</node>
	<node id="-136078" lat="60.4682694423" lon="10.2006499939">
		<tag k="name" v="Fjellenden" />
		<tag k="natural" v="hill" />
		<tag k="place" v="locality" />
		<tag k="ssr:stedsnr" v="354791" />
	</node>
	<node id="-136076" lat="60.3537666698" lon="10.7536666597">
		<tag k="name" v="Mastefallet" />
		<tag k="natural" v="hill" />
		<tag k="place" v="locality" />
		<tag k="ssr:stedsnr" v="354656" />
	</node>
	<node id="-136075" lat="60.4958527751" lon="10.1700055631">
		<tag k="name" v="Blekketjernshaugen" />
		<tag k="natural" v="hill" />
		<tag k="place" v="locality" />
		<tag k="ssr:stedsnr" v="354652" />
	</node>
	<node id="-136074" lat="60.4462111141" lon="10.3031722234">
		<tag k="name" v="Stokksjøhøgda" />
		<tag k="natural" v="hill" />
		<tag k="place" v="locality" />
		<tag k="ssr:stedsnr" v="354593" />
	</node>
	<node id="-136068" lat="60.4109083362" lon="10.3503361082">
		<tag k="name" v="Korpeberget" />
		<tag k="natural" v="hill" />
		<tag k="place" v="locality" />
		<tag k="ssr:stedsnr" v="354436" />
	</node>
	<node id="-136066" lat="60.461341666" lon="10.3575027868">
		<tag k="name" v="Totjernhaugen" />
		<tag k="natural" v="hill" />
		<tag k="place" v="locality" />
		<tag k="ssr:stedsnr" v="354365" />
	</node>
	<node id="-136064" lat="60.3686944412" lon="10.6678666718">
		<tag k="name" v="Korpeputthaugen" />
		<tag k="natural" v="hill" />
		<tag k="place" v="locality" />
		<tag k="ssr:stedsnr" v="354330" />
	</node>
	<node id="-138108" lat="60.5129222205" lon="10.4433194526">
		<tag k="name" v="Bråtålykkja" />
		<tag k="place" v="locality" />
		<tag k="ssr:stedsnr" v="752544" />
	</node>
	<node id="-136054" lat="60.4871444428" lon="10.3228527759">
		<tag k="name" v="Klyfta" />
		<tag k="place" v="locality" />
		<tag k="ssr:stedsnr" v="354231" />
	</node>
	<node id="-138091" lat="60.4914777805" lon="10.2363527819">
		<tag k="name" v="Flattumshaugen" />
		<tag k="natural" v="hill" />
		<tag k="place" v="locality" />
		<tag k="ssr:stedsnr" v="734735" />
	</node>
	<node id="-136036" lat="60.5464111154" lon="10.493144452">
		<tag k="name" v="Toppåslia" />
		<tag k="natural" v="slope" />
		<tag k="place" v="locality" />
		<tag k="ssr:stedsnr" v="336684" />
	</node>
	<node id="-136035" lat="60.4484305549" lon="10.6030027815">
		<tag k="name" v="Svartbråtådalen" />
		<tag k="natural" v="valley" />
		<tag k="place" v="locality" />
		<tag k="ssr:stedsnr" v="336675" />
	</node>
	<node id="-138078" lat="60.3459249993" lon="10.9243750067">
		<tag k="name" v="Heggkollen" />
		<tag k="natural" v="hill" />
		<tag k="place" v="locality" />
		<tag k="ssr:stedsnr" v="734560" />
	</node>
	<node id="-138070" lat="60.3321805521" lon="10.8809083274">
		<tag k="name" v="Lomtjernshaugen" />
		<tag k="natural" v="hill" />
		<tag k="place" v="locality" />
		<tag k="ssr:stedsnr" v="734320" />
	</node>
	<node id="-138064" lat="60.4702305585" lon="10.6519888939">
		<tag k="alt_name" v="Siljusæterhaugen" />
		<tag k="fixme" v="consider natural=peak for the most distinct mountains in the district" />
		<tag k="name" v="Syljusæterhaugen" />
		<tag k="natural" v="hill" />
		<tag k="place" v="locality" />
		<tag k="ssr:stedsnr" v="734236" />
	</node>
	<node id="-136003" lat="60.4344277743" lon="10.472502781">
		<tag k="alt_name" v="Mysmørhaugen" />
		<tag k="name" v="Myssmørhaugen" />
		<tag k="natural" v="hill" />
		<tag k="place" v="locality" />
		<tag k="ssr:stedsnr" v="334087" />
	</node>
	<node id="-138044" lat="60.3708277773" lon="10.480583335">
		<tag k="fixme" v="consider natural=peak for the most distinct mountains in the district" />
		<tag k="name" v="Sølvsberget" />
		<tag k="natural" v="hill" />
		<tag k="place" v="locality" />
		<tag k="ssr:stedsnr" v="734029" />
	</node>
	<node id="-135995" lat="60.4001749964" lon="10.6438500026">
		<tag k="name" v="Fagerbakka" />
		<tag k="natural" v="slope" />
		<tag k="place" v="locality" />
		<tag k="ssr:stedsnr" v="332588" />
	</node>
	<node id="-138036" lat="60.4492138878" lon="10.3601277716">
		<tag k="name" v="Treskeberget" />
		<tag k="natural" v="hill" />
		<tag k="place" v="locality" />
		<tag k="ssr:stedsnr" v="719523" />
	</node>
	<node id="-138032" lat="60.4242861104" lon="10.692972225">
		<tag k="name" v="Solstompen" />
		<tag k="natural" v="hill" />
		<tag k="place" v="locality" />
		<tag k="ssr:stedsnr" v="719510" />
	</node>
	<node id="-138031" lat="60.4229499983" lon="10.6746555548">
		<tag k="name" v="Malsjølia" />
		<tag k="natural" v="slope" />
		<tag k="place" v="locality" />
		<tag k="ssr:stedsnr" v="719495" />
	</node>
	<node id="-135976" lat="60.5363361123" lon="10.5478277757">
		<tag k="name" v="Gampedalen" />
		<tag k="natural" v="valley" />
		<tag k="place" v="locality" />
		<tag k="ssr:stedsnr" v="310100" />
	</node>
	<node id="-135972" lat="60.5187999958" lon="10.4616583368">
		<tag k="alt_name" v="Sytjernsdalen" />
		<tag k="name" v="Sytjerndalen" />
		<tag k="natural" v="valley" />
		<tag k="place" v="locality" />
		<tag k="ssr:stedsnr" v="310077" />
	</node>
	<node id="-138015" lat="60.3147138856" lon="10.7626027783">
		<tag k="name" v="Grautbrudalen" />
		<tag k="natural" v="valley" />
		<tag k="place" v="locality" />
		<tag k="ssr:stedsnr" v="718582" />
	</node>
	<node id="-138013" lat="60.4809888899" lon="10.1785305559">
		<tag k="name" v="Bundingstikklia" />
		<tag k="natural" v="slope" />
		<tag k="place" v="locality" />
		<tag k="ssr:stedsnr" v="718537" />
	</node>
	<node id="-138012" lat="60.4011138906" lon="10.702188882">
		<tag k="name" v="Handklehaugen" />
		<tag k="natural" v="hill" />
		<tag k="place" v="locality" />
		<tag k="ssr:stedsnr" v="718475" />
	</node>
	<node id="-135983" lat="60.4136861107" lon="10.8533749936">
		<tag k="alt_name" v="Lomtjernhøgda" />
		<tag k="name" v="Lomtjernhaugen" />
		<tag k="natural" v="hill" />
		<tag k="place" v="locality" />
		<tag k="ssr:stedsnr" v="310625" />
	</node>
	<node id="-138007" lat="60.4176638928" lon="10.3046666659">
		<tag k="name" v="Skrikerud" />
		<tag k="natural" v="hill" />
		<tag k="place" v="locality" />
		<tag k="ssr:stedsnr" v="718934" />
	</node>
	<node id="-135955" lat="60.4147527767" lon="10.8129972149">
		<tag k="name" v="Huldertjernsberget" />
		<tag k="natural" v="hill" />
		<tag k="place" v="locality" />
		<tag k="ssr:stedsnr" v="309632" />
	</node>
	<node id="-138002" lat="60.3484805512" lon="10.9008722216">
		<tag k="name" v="Pyramiden" />
		<tag k="natural" v="hill" />
		<tag k="place" v="locality" />
		<tag k="ssr:stedsnr" v="718092" />
	</node>
	<node id="-138001" lat="60.3388361079" lon="10.904405551">
		<tag k="name" v="Gullbergdalen" />
		<tag k="natural" v="valley" />
		<tag k="place" v="locality" />
		<tag k="ssr:stedsnr" v="718090" />
	</node>
	<node id="-137997" lat="60.4388861076" lon="10.2016111097">
		<tag k="name" v="Sæterskaret" />
		<tag k="natural" v="valley" />
		<tag k="place" v="locality" />
		<tag k="ssr:stedsnr" v="718286" />
	</node>
	<node id="-135943" lat="60.3139138853" lon="10.7834444498">
		<tag k="alt_name" v="Hemtjernshaugen" />
		<tag k="name" v="Himtjernshaugen" />
		<tag k="natural" v="hill" />
		<tag k="place" v="locality" />
		<tag k="ssr:stedsnr" v="309297" />
	</node>
	<node id="-135940" lat="60.4481499993" lon="10.4919277789">
		<tag k="alt_name" v="Brandberget" />
		<tag k="fixme" v="consider natural=peak for the most distinct mountains in the district" />
		<tag k="name" v="Brandbukampen" />
		<tag k="natural" v="hill" />
		<tag k="place" v="locality" />
		<tag k="ssr:stedsnr" v="309278" />
	</node>
	<node id="-137985" lat="60.5463833373" lon="10.566161106">
		<tag k="name" v="Gåshaugen" />
		<tag k="natural" v="hill" />
		<tag k="place" v="locality" />
		<tag k="ssr:stedsnr" v="700718" />
	</node>
	<node id="-137981" lat="60.4638361132" lon="10.6626916593">
		<tag k="name" v="Gryta" />
		<tag k="natural" v="valley" />
		<tag k="place" v="locality" />
		<tag k="ssr:stedsnr" v="700595" />
	</node>
	<node id="-137978" lat="60.4915805514" lon="10.6102472167">
		<tag k="fixme" v="consider natural=peak for the most distinct mountains in the district" />
		<tag k="name" v="Elkensæterhøgda" />
		<tag k="natural" v="hill" />
		<tag k="place" v="locality" />
		<tag k="ssr:stedsnr" v="700493" />
	</node>
	<node id="-137970" lat="60.5164416703" lon="10.5076111191">
		<tag k="name" v="Benstihaugen" />
		<tag k="natural" v="hill" />
		<tag k="place" v="locality" />
		<tag k="ssr:stedsnr" v="700148" />
	</node>
	<node id="-137967" lat="60.4578500025" lon="10.5885750056">
		<tag k="name" v="Skålsæterdalen" />
		<tag k="natural" v="valley" />
		<tag k="place" v="locality" />
		<tag k="ssr:stedsnr" v="699689" />
	</node>
	<node id="-137960" lat="60.5296277787" lon="10.3332583265">
		<tag k="name" v="Gammelkleiva" />
		<tag k="natural" v="valley" />
		<tag k="place" v="locality" />
		<tag k="ssr:stedsnr" v="698685" />
	</node>
	<node id="-135904" lat="60.4233222184" lon="10.8162888977">
		<tag k="name" v="Langmyrdalen" />
		<tag k="natural" v="valley" />
		<tag k="place" v="locality" />
		<tag k="ssr:stedsnr" v="294997" />
	</node>
	<node id="-137944" lat="60.3375805574" lon="10.4304777738">
		<tag k="fixme" v="consider natural=peak for the most distinct mountains in the district" />
		<tag k="name" v="Håtveithaugen" />
		<tag k="natural" v="hill" />
		<tag k="place" v="locality" />
		<tag k="ssr:stedsnr" v="698129" />
	</node>
	<node id="-135895" lat="60.4884333306" lon="10.1798805511">
		<tag k="name" v="Nysæterlia" />
		<tag k="natural" v="slope" />
		<tag k="place" v="locality" />
		<tag k="ssr:stedsnr" v="294529" />
	</node>
	<node id="-137940" lat="60.3836722207" lon="10.5177666679">
		<tag k="name" v="Pildalen" />
		<tag k="natural" v="valley" />
		<tag k="place" v="locality" />
		<tag k="ssr:stedsnr" v="696713" />
	</node>
	<node id="-135890" lat="60.3655694429" lon="10.7482416713">
		<tag k="name" v="Djupdalen" />
		<tag k="natural" v="valley" />
		<tag k="place" v="locality" />
		<tag k="ssr:stedsnr" v="294671" />
	</node>
	<node id="-135887" lat="60.3239111086" lon="10.7625583398">
		<tag k="name" v="Gåsdalen" />
		<tag k="natural" v="valley" />
		<tag k="place" v="locality" />
		<tag k="ssr:stedsnr" v="294624" />
	</node>
	<node id="-135882" lat="60.3544249981" lon="10.6730722179">
		<tag k="name" v="Blyberget" />
		<tag k="natural" v="hill" />
		<tag k="place" v="locality" />
		<tag k="ssr:stedsnr" v="294298" />
	</node>
	<node id="-135880" lat="60.3724944466" lon="10.5866777711">
		<tag k="name" v="Gjøsenhaug" />
		<tag k="natural" v="hill" />
		<tag k="place" v="locality" />
		<tag k="ssr:stedsnr" v="294279" />
	</node>
	<node id="-135877" lat="60.4696472263" lon="10.3731527782">
		<tag k="name" v="Sæterhaugen" />
		<tag k="natural" v="hill" />
		<tag k="place" v="locality" />
		<tag k="ssr:stedsnr" v="293774" />
	</node>
	<node id="-137924" lat="60.5162611154" lon="10.4711277827">
		<tag k="name" v="Slurperudsdalen" />
		<tag k="natural" v="valley" />
		<tag k="place" v="locality" />
		<tag k="ssr:stedsnr" v="692557" />
	</node>
	<node id="-135874" lat="60.4750305519" lon="10.1925583315">
		<tag k="name" v="Skjellingerkollen" />
		<tag k="natural" v="hill" />
		<tag k="place" v="locality" />
		<tag k="ssr:stedsnr" v="293653" />
	</node>
	<node id="-137915" lat="60.5244916649" lon="10.1550750027">
		<tag k="fixme" v="consider natural=peak for the most distinct mountains in the district" />
		<tag k="name" v="Vardhugukollen" />
		<tag k="natural" v="hill" />
		<tag k="place" v="locality" />
		<tag k="ssr:stedsnr" v="674468" />
	</node>
	<node id="-135859" lat="60.5515194479" lon="10.5270972135">
		<tag k="name" v="Valbergsfalla" />
		<tag k="natural" v="hill" />
		<tag k="place" v="locality" />
		<tag k="ssr:stedsnr" v="275686" />
	</node>
	<node id="-135858" lat="60.4478333364" lon="10.6849750064">
		<tag k="name" v="Nysæterlia" />
		<tag k="natural" v="slope" />
		<tag k="place" v="locality" />
		<tag k="ssr:stedsnr" v="275534" />
	</node>
	<node id="-137903" lat="60.3576249983" lon="10.7002333278">
		<tag k="fixme" v="consider natural=peak for the most distinct mountains in the district" />
		<tag k="name" v="Rundelshaugen" />
		<tag k="natural" v="hill" />
		<tag k="place" v="locality" />
		<tag k="ssr:stedsnr" v="674058" />
	</node>
	<node id="-137902" lat="60.3566777814" lon="10.6733583264">
		<tag k="fixme" v="consider natural=peak for the most distinct mountains in the district" />
		<tag k="name" v="Brandhaugen" />
		<tag k="natural" v="hill" />
		<tag k="place" v="locality" />
		<tag k="ssr:stedsnr" v="674055" />
	</node>
	<node id="-135850" lat="60.5248277801" lon="10.3280722155">
		<tag k="name" v="Hornskleiva" />
		<tag k="natural" v="slope" />
		<tag k="place" v="locality" />
		<tag k="ssr:stedsnr" v="274674" />
	</node>
	<node id="-137890" lat="60.4277499994" lon="10.7470527766">
		<tag k="name" v="Langfallhaugen" />
		<tag k="natural" v="hill" />
		<tag k="place" v="locality" />
		<tag k="ssr:stedsnr" v="673641" />
	</node>
	<node id="-136645" lat="60.3558277771" lon="10.5858027805">
		<tag k="name" v="Morstadbakken" />
		<tag k="natural" v="slope" />
		<tag k="place" v="locality" />
		<tag k="ssr:stedsnr" v="112085" />
	</node>
	<node id="-135833" lat="60.4023972195" lon="10.6355527785">
		<tag k="name" v="Olabråtålia" />
		<tag k="natural" v="slope" />
		<tag k="place" v="locality" />
		<tag k="ssr:stedsnr" v="272551" />
	</node>
	<node id="-137879" lat="60.3246027735" lon="10.8028111136">
		<tag k="name" v="Putthaugen" />
		<tag k="natural" v="hill" />
		<tag k="place" v="locality" />
		<tag k="ssr:stedsnr" v="673286" />
	</node>
	<node id="-137871" lat="60.3910222182" lon="10.6189166673">
		<tag k="alt_name" v="Hvalebykampen" />
		<tag k="fixme" v="consider natural=peak for the most distinct mountains in the district" />
		<tag k="name" v="Hvalabykampen" />
		<tag k="natural" v="hill" />
		<tag k="place" v="locality" />
		<tag k="ssr:stedsnr" v="673103" />
	</node>
	<node id="-137861" lat="60.4170499958" lon="10.8243472258">
		<tag k="name" v="Badstufalldalen" />
		<tag k="natural" v="valley" />
		<tag k="place" v="locality" />
		<tag k="ssr:stedsnr" v="658881" />
	</node>
	<node id="-137854" lat="60.4885444425" lon="10.1742583413">
		<tag k="name" v="Valtjernshøgda" />
		<tag k="natural" v="hill" />
		<tag k="place" v="locality" />
		<tag k="ssr:stedsnr" v="658520" />
	</node>
	<node id="-137851" lat="60.5017194452" lon="10.3200361047">
		<tag k="name" v="Åtedalen" />
		<tag k="natural" v="valley" />
		<tag k="place" v="locality" />
		<tag k="ssr:stedsnr" v="658404" />
	</node>
	<node id="-137850" lat="60.5014472233" lon="10.3156722162">
		<tag k="name" v="Kampen" />
		<tag k="natural" v="hill" />
		<tag k="place" v="locality" />
		<tag k="ssr:stedsnr" v="658402" />
	</node>
	<node id="-137838" lat="60.4666722251" lon="10.2246333378">
		<tag k="name" v="Søthølkollen" />
		<tag k="natural" v="hill" />
		<tag k="place" v="locality" />
		<tag k="ssr:stedsnr" v="657736" />
	</node>
	<node id="-137836" lat="60.4556472231" lon="10.3763583339">
		<tag k="name" v="Hulderstad" />
		<tag k="natural" v="hill" />
		<tag k="place" v="locality" />
		<tag k="ssr:stedsnr" v="657706" />
	</node>
	<node id="-137829" lat="60.3434055547" lon="10.6802416719">
		<tag k="name" v="Hamartjernberget" />
		<tag k="natural" v="hill" />
		<tag k="place" v="locality" />
		<tag k="ssr:stedsnr" v="657395" />
	</node>
	<node id="-137828" lat="60.3439749957" lon="10.6963583261">
		<tag k="name" v="Nordre Kudalen" />
		<tag k="natural" v="valley" />
		<tag k="place" v="locality" />
		<tag k="ssr:stedsnr" v="657396" />
	</node>
	<node id="-137824" lat="60.3454472234" lon="10.8789972189">
		<tag k="name" v="Bjørgesæterlia" />
		<tag k="natural" v="slope" />
		<tag k="place" v="locality" />
		<tag k="ssr:stedsnr" v="657169" />
	</node>
	<node id="-136633" lat="60.3804277784" lon="10.5931166673">
		<tag k="name" v="Skjønsberget" />
		<tag k="natural" v="hill" />
		<tag k="place" v="locality" />
		<tag k="ssr:stedsnr" v="112336" />
	</node>
	<node id="-137807" lat="60.5582500008" lon="10.5151361128">
		<tag k="name" v="Glåmhaugen" />
		<tag k="natural" v="hill" />
		<tag k="place" v="locality" />
		<tag k="ssr:stedsnr" v="639726" />
	</node>
	<node id="-137803" lat="60.4774666706" lon="10.6545388929">
		<tag k="name" v="Klypen" />
		<tag k="natural" v="valley" />
		<tag k="place" v="locality" />
		<tag k="ssr:stedsnr" v="639562" />
	</node>
	<node id="-137802" lat="60.5050305589" lon="10.6273833286">
		<tag k="name" v="Prestsæterlia" />
		<tag k="natural" v="slope" />
		<tag k="place" v="locality" />
		<tag k="ssr:stedsnr" v="639540" />
	</node>
	<node id="-137793" lat="60.5133944489" lon="10.5154222163">
		<tag k="name" v="Bruvollen" />
		<tag k="place" v="locality" />
		<tag k="ssr:stedsnr" v="639148" />
	</node>
	<node id="-138336" lat="60.498508334" lon="10.4575444434">
		<tag k="name" v="Jensefallet" />
		<tag k="natural" v="ridge" />
		<tag k="place" v="locality" />
		<tag k="ssr:stedsnr" v="820294" />
	</node>
	<node id="-137788" lat="60.4773111138" lon="10.5022861144">
		<tag k="name" v="Jeserbakken" />
		<tag k="natural" v="slope" />
		<tag k="place" v="locality" />
		<tag k="ssr:stedsnr" v="638641" />
	</node>
	<node id="-137780" lat="60.5295333311" lon="10.3844944357">
		<tag k="name" v="Bergehushøgda" />
		<tag k="natural" v="hill" />
		<tag k="place" v="locality" />
		<tag k="ssr:stedsnr" v="637690" />
	</node>
	<node id="-137778" lat="60.531474998" lon="10.423724991">
		<tag k="name" v="Vendbrennbakken" />
		<tag k="natural" v="slope" />
		<tag k="place" v="locality" />
		<tag k="ssr:stedsnr" v="637657" />
	</node>
	<node id="-137776" lat="60.5392999964" lon="10.439813883">
		<tag k="name" v="Fotbekkdalen" />
		<tag k="natural" v="valley" />
		<tag k="place" v="locality" />
		<tag k="ssr:stedsnr" v="637651" />
	</node>
	<node id="-136625" lat="60.5259999961" lon="10.5126833387">
		<tag k="name" v="Nilsehaugen" />
		<tag k="natural" v="hill" />
		<tag k="place" v="locality" />
		<tag k="ssr:stedsnr" v="93652" />
	</node>
	<node id="-137764" lat="60.3531722266" lon="10.6441972263">
		<tag k="name" v="Bikkjeberget" />
		<tag k="natural" v="hill" />
		<tag k="place" v="locality" />
		<tag k="ssr:stedsnr" v="635988" />
	</node>
	<node id="-137762" lat="60.381666665" lon="10.6402861175">
		<tag k="name" v="Linlandet" />
		<tag k="place" v="locality" />
		<tag k="ssr:stedsnr" v="635796" />
	</node>
	<node id="-137752" lat="60.4244555554" lon="10.6001500012">
		<tag k="name" v="Rognhaugen" />
		<tag k="natural" v="hill" />
		<tag k="place" v="locality" />
		<tag k="ssr:stedsnr" v="635574" />
	</node>
	<node id="-136280" lat="60.5049999991" lon="10.4916694448">
		<tag k="name" v="Svartputtberget" />
		<tag k="natural" v="hill" />
		<tag k="place" v="locality" />
		<tag k="ssr:stedsnr" v="882121" />
	</node>
	<node id="-137733" lat="60.441794445" lon="10.6311083406">
		<tag k="fixme" v="consider natural=peak for the most distinct mountains in the district" />
		<tag k="name" v="Halmbråtåhøgda" />
		<tag k="natural" v="hill" />
		<tag k="place" v="locality" />
		<tag k="ssr:stedsnr" v="613223" />
	</node>
	<node id="-137717" lat="60.3392500006" lon="10.6900749919">
		<tag k="fixme" v="consider natural=peak for the most distinct mountains in the district" />
		<tag k="name" v="Skjerveknatten" />
		<tag k="natural" v="hill" />
		<tag k="place" v="locality" />
		<tag k="ssr:stedsnr" v="612988" />
	</node>
	<node id="-137707" lat="60.3977388905" lon="10.7904944521">
		<tag k="name" v="Glåmberget" />
		<tag k="natural" v="hill" />
		<tag k="place" v="locality" />
		<tag k="ssr:stedsnr" v="612617" />
	</node>
	<node id="-137698" lat="60.4840388859" lon="10.6063083324">
		<tag k="alt_name" v="Høykorsvarden" />
		<tag k="fixme" v="consider natural=peak for the most distinct mountains in the district" />
		<tag k="name" v="Høgkorset" />
		<tag k="natural" v="hill" />
		<tag k="place" v="locality" />
		<tag k="ssr:stedsnr" v="612321" />
	</node>
	<node id="-137695" lat="60.3238916705" lon="10.8914555554">
		<tag k="name" v="Korpehaugen" />
		<tag k="natural" v="hill" />
		<tag k="place" v="locality" />
		<tag k="ssr:stedsnr" v="612280" />
	</node>
	<node id="-137690" lat="60.4746277791" lon="10.6700722154">
		<tag k="name" v="Helgedalen" />
		<tag k="natural" v="valley" />
		<tag k="place" v="locality" />
		<tag k="ssr:stedsnr" v="612216" />
	</node>
	<node id="-137665" lat="60.543594441" lon="10.1538666609">
		<tag k="name" v="Storåsdalen" />
		<tag k="natural" v="valley" />
		<tag k="place" v="locality" />
		<tag k="ssr:stedsnr" v="601855" />
	</node>
	<node id="-137659" lat="60.3887194421" lon="10.7736472184">
		<tag k="name" v="Steinfallhaugen" />
		<tag k="natural" v="hill" />
		<tag k="place" v="locality" />
		<tag k="ssr:stedsnr" v="597775" />
	</node>
	<node id="-137658" lat="60.3992166685" lon="10.7965916642">
		<tag k="name" v="Brattåsen" />
		<tag k="natural" v="slope" />
		<tag k="place" v="locality" />
		<tag k="ssr:stedsnr" v="597739" />
	</node>
	<node id="-137655" lat="60.4933611131" lon="10.1795444385">
		<tag k="name" v="Valstjernlia" />
		<tag k="natural" v="slope" />
		<tag k="place" v="locality" />
		<tag k="ssr:stedsnr" v="597577" />
	</node>
	<node id="-137647" lat="60.3973999964" lon="10.217058326">
		<tag k="name" v="Beretbrenna" />
		<tag k="natural" v="hill" />
		<tag k="place" v="locality" />
		<tag k="ssr:stedsnr" v="597291" />
	</node>
	<node id="-137645" lat="60.4929194454" lon="10.3620611096">
		<tag k="name" v="Tostenhaugen" />
		<tag k="natural" v="hill" />
		<tag k="place" v="locality" />
		<tag k="ssr:stedsnr" v="597267" />
	</node>
	<node id="-137631" lat="60.3714999979" lon="10.8362583278">
		<tag k="name" v="Langshaugen" />
		<tag k="natural" v="hill" />
		<tag k="place" v="locality" />
		<tag k="ssr:stedsnr" v="596227" />
	</node>
	<node id="-137628" lat="60.4925277745" lon="10.2339527838">
		<tag k="name" v="Søthølet" />
		<tag k="natural" v="slope" />
		<tag k="place" v="locality" />
		<tag k="ssr:stedsnr" v="595612" />
	</node>
	<node id="-137623" lat="60.4103750019" lon="10.1976027722">
		<tag k="name" v="Tretjernshøyda" />
		<tag k="natural" v="hill" />
		<tag k="place" v="locality" />
		<tag k="ssr:stedsnr" v="584281" />
	</node>
	<node id="-137621" lat="60.5351888894" lon="10.4908194491">
		<tag k="fixme" v="consider natural=peak for the most distinct mountains in the district" />
		<tag k="name" v="Filleblåen" />
		<tag k="natural" v="hill" />
		<tag k="place" v="locality" />
		<tag k="ssr:stedsnr" v="578699" />
	</node>
	<node id="-137620" lat="60.541616664" lon="10.506913889">
		<tag k="name" v="Svartdalslia" />
		<tag k="natural" v="slope" />
		<tag k="place" v="locality" />
		<tag k="ssr:stedsnr" v="578697" />
	</node>
	<node id="-137615" lat="60.5065416633" lon="10.7019611133">
		<tag k="name" v="Brannelvlia" />
		<tag k="natural" v="slope" />
		<tag k="place" v="locality" />
		<tag k="ssr:stedsnr" v="578505" />
	</node>
	<node id="-137614" lat="60.5042499977" lon="10.6817805502">
		<tag k="name" v="Slåtthagalia" />
		<tag k="natural" v="slope" />
		<tag k="place" v="locality" />
		<tag k="ssr:stedsnr" v="578504" />
	</node>
	<node id="-137603" lat="60.5299805568" lon="10.3505194356">
		<tag k="name" v="Høkleberget" />
		<tag k="natural" v="hill" />
		<tag k="place" v="locality" />
		<tag k="ssr:stedsnr" v="577730" />
	</node>
	<node id="-137602" lat="60.5307027774" lon="10.3420805525">
		<tag k="name" v="Utsikten" />
		<tag k="natural" v="hill" />
		<tag k="place" v="locality" />
		<tag k="ssr:stedsnr" v="577728" />
	</node>
	<node id="-137601" lat="60.5366888877" lon="10.3926527832">
		<tag k="name" v="Kampen" />
		<tag k="natural" v="hill" />
		<tag k="place" v="locality" />
		<tag k="ssr:stedsnr" v="577700" />
	</node>
	<node id="-137599" lat="60.5320611122" lon="10.4369805518">
		<tag k="name" v="Toregjellen" />
		<tag k="natural" v="valley" />
		<tag k="place" v="locality" />
		<tag k="ssr:stedsnr" v="577629" />
	</node>
	<node id="-137597" lat="60.5517388887" lon="10.4711611186">
		<tag k="name" v="Tuterberga" />
		<tag k="natural" v="hill" />
		<tag k="place" v="locality" />
		<tag k="ssr:stedsnr" v="577476" />
	</node>
	<node id="-137596" lat="60.3356277741" lon="10.4906944409">
		<tag k="name" v="Viksberget" />
		<tag k="natural" v="ridge" />
		<tag k="place" v="locality" />
		<tag k="ssr:stedsnr" v="577437" />
	</node>
	<node id="-137586" lat="60.459661114" lon="10.451555558">
		<tag k="name" v="Geitberget" />
		<tag k="natural" v="hill" />
		<tag k="place" v="locality" />
		<tag k="ssr:stedsnr" v="577187" />
	</node>
	<node id="-137574" lat="60.3912555587" lon="10.6331888823">
		<tag k="name" v="Burvollen" />
		<tag k="natural" v="hill" />
		<tag k="place" v="locality" />
		<tag k="ssr:stedsnr" v="575789" />
	</node>
	<node id="-137556" lat="60.5576583309" lon="10.5148111115">
		<tag k="fixme" v="consider natural=peak for the most distinct mountains in the district" />
		<tag k="name" v="Kvitingen" />
		<tag k="natural" v="hill" />
		<tag k="place" v="locality" />
		<tag k="ssr:stedsnr" v="553101" />
	</node>
	<node id="-137520" lat="60.4860666685" lon="10.6851499984">
		<tag k="alt_name" v="Jøråshøgda" />
		<tag k="fixme" v="consider natural=peak for the most distinct mountains in the district" />
		<tag k="name" v="Jørushøgda" />
		<tag k="natural" v="hill" />
		<tag k="place" v="locality" />
		<tag k="ssr:stedsnr" v="552227" />
	</node>
	<node id="-137515" lat="60.4074277739" lon="10.7107111181">
		<tag k="fixme" v="consider natural=peak for the most distinct mountains in the district" />
		<tag k="name" v="Ognilsberga" />
		<tag k="natural" v="hill" />
		<tag k="place" v="locality" />
		<tag k="ssr:stedsnr" v="552196" />
	</node>
	<node id="-137507" lat="60.5114555532" lon="10.614222225">
		<tag k="name" v="Korssæterhaugen" />
		<tag k="natural" v="hill" />
		<tag k="place" v="locality" />
		<tag k="ssr:stedsnr" v="552084" />
	</node>
	<node id="-137506" lat="60.5119527754" lon="10.4653888892">
		<tag k="alt_name" v="Ilhøgda" />
		<tag k="fixme" v="consider natural=peak for the most distinct mountains in the district" />
		<tag k="name" v="Eilhøgda" />
		<tag k="natural" v="hill" />
		<tag k="place" v="locality" />
		<tag k="ssr:stedsnr" v="552083" />
	</node>
	<node id="-137504" lat="60.3561138888" lon="10.6417277795">
		<tag k="fixme" v="consider natural=peak for the most distinct mountains in the district" />
		<tag k="name" v="Svartbråtåberget" />
		<tag k="natural" v="hill" />
		<tag k="place" v="locality" />
		<tag k="ssr:stedsnr" v="552073" />
	</node>
	<node id="-137481" lat="60.4327527763" lon="10.7280999987">
		<tag k="name" v="Steinholen" />
		<tag k="natural" v="hill" />
		<tag k="place" v="locality" />
		<tag k="ssr:stedsnr" v="537868" />
	</node>
	<node id="-137479" lat="60.3456388914" lon="10.8304999957">
		<tag k="name" v="Vesle Sandbotnhaugen" />
		<tag k="natural" v="hill" />
		<tag k="place" v="locality" />
		<tag k="ssr:stedsnr" v="537728" />
	</node>
	<node id="-137474" lat="60.3544222262" lon="10.69343334">
		<tag k="name" v="Geitberget" />
		<tag k="natural" v="hill" />
		<tag k="place" v="locality" />
		<tag k="ssr:stedsnr" v="537282" />
	</node>
	<node id="-137465" lat="60.4997222217" lon="10.2703833371">
		<tag k="name" v="Juvet" />
		<tag k="natural" v="gorge" />
		<tag k="ssr:stedsnr" v="536441" />
	</node>
	<node id="-137460" lat="60.4441277803" lon="10.1835805587">
		<tag k="fixme" v="consider natural=peak for the most distinct mountains in the district" />
		<tag k="name" v="Persrudhaugene" />
		<tag k="natural" v="hill" />
		<tag k="place" v="locality" />
		<tag k="ssr:stedsnr" v="536271" />
	</node>
	<node id="-137448" lat="60.5261499963" lon="10.1567222205">
		<tag k="name" v="Luserudkollen" />
		<tag k="natural" v="hill" />
		<tag k="place" v="locality" />
		<tag k="ssr:stedsnr" v="536012" />
	</node>
	<node id="-137432" lat="60.4642861119" lon="10.6613638799">
		<tag k="fixme" v="consider natural=peak for the most distinct mountains in the district" />
		<tag k="name" v="Gammelsæterhøgda" />
		<tag k="natural" v="hill" />
		<tag k="place" v="locality" />
		<tag k="ssr:stedsnr" v="518554" />
	</node>
	<node id="-137431" lat="60.446847226" lon="10.6601250086">
		<tag k="fixme" v="consider natural=peak for the most distinct mountains in the district" />
		<tag k="name" v="Skarvåsen" />
		<tag k="natural" v="hill" />
		<tag k="place" v="locality" />
		<tag k="ssr:stedsnr" v="518550" />
	</node>
	<node id="-137429" lat="60.4753083364" lon="10.6083222264">
		<tag k="name" v="Kambudalen" />
		<tag k="natural" v="valley" />
		<tag k="place" v="locality" />
		<tag k="ssr:stedsnr" v="518365" />
	</node>
	<node id="-137427" lat="60.5102611086" lon="10.5841722174">
		<tag k="name" v="Heimtjernshøgda" />
		<tag k="natural" v="hill" />
		<tag k="place" v="locality" />
		<tag k="ssr:stedsnr" v="518166" />
	</node>
	<node id="-137423" lat="60.5257694429" lon="10.5841083414">
		<tag k="name" v="Gåshaugen" />
		<tag k="natural" v="hill" />
		<tag k="place" v="locality" />
		<tag k="ssr:stedsnr" v="518086" />
	</node>
	<node id="-137421" lat="60.452105556" lon="10.534672225">
		<tag k="name" v="Langmyrhaugen" />
		<tag k="natural" v="hill" />
		<tag k="place" v="locality" />
		<tag k="ssr:stedsnr" v="517781" />
	</node>
	<node id="-137419" lat="60.4965250029" lon="10.5803916617">
		<tag k="name" v="Åstjernsplassen" />
		<tag k="place" v="locality" />
		<tag k="ssr:stedsnr" v="517338" />
	</node>
	<node id="-137418" lat="60.4927916673" lon="10.550319438">
		<tag k="name" v="Østefallhaugen" />
		<tag k="natural" v="hill" />
		<tag k="place" v="locality" />
		<tag k="ssr:stedsnr" v="517325" />
	</node>
	<node id="-137413" lat="60.500824997" lon="10.4818749923">
		<tag k="name" v="Kalvebakken" />
		<tag k="natural" v="slope" />
		<tag k="place" v="locality" />
		<tag k="ssr:stedsnr" v="516606" />
	</node>
	<node id="-137411" lat="60.5075138903" lon="10.4822611127">
		<tag k="name" v="Oterflata" />
		<tag k="place" v="locality" />
		<tag k="ssr:stedsnr" v="516593" />
	</node>
	<node id="-137404" lat="60.3598138876" lon="10.4350444519">
		<tag k="name" v="Hvindenhaugen" />
		<tag k="natural" v="hill" />
		<tag k="place" v="locality" />
		<tag k="ssr:stedsnr" v="516267" />
	</node>
	<node id="-137399" lat="60.4567027809" lon="10.4710416642">
		<tag k="name" v="Hella" />
		<tag k="natural" v="hill" />
		<tag k="place" v="locality" />
		<tag k="ssr:stedsnr" v="516005" />
	</node>
	<node id="-137397" lat="60.3690916668" lon="10.6394666576">
		<tag k="name" v="Lærensæterberget" />
		<tag k="natural" v="hill" />
		<tag k="place" v="locality" />
		<tag k="ssr:stedsnr" v="514947" />
	</node>
	<node id="-137396" lat="60.4112805556" lon="10.5442527854">
		<tag k="name" v="Feierdalen" />
		<tag k="natural" v="valley" />
		<tag k="place" v="locality" />
		<tag k="ssr:stedsnr" v="514839" />
	</node>
	<node id="-137372" lat="60.4308036022" lon="10.6872944607">
		<tag k="fixme" v="consider natural=peak for the most distinct mountains in the district" />
		<tag k="name" v="Lushaugen" />
		<tag k="natural" v="hill" />
		<tag k="place" v="locality" />
		<tag k="ssr:stedsnr" v="492114" />
	</node>
	<node id="-137370" lat="60.4315250041" lon="10.6457666733">
		<tag k="fixme" v="consider natural=peak for the most distinct mountains in the district" />
		<tag k="name" v="Knørra" />
		<tag k="natural" v="hill" />
		<tag k="place" v="locality" />
		<tag k="ssr:stedsnr" v="492111" />
	</node>
	<node id="-135876" lat="60.4692000028" lon="10.2073249934">
		<tag k="name" v="Åtedalen" />
		<tag k="natural" v="valley" />
		<tag k="place" v="locality" />
		<tag k="ssr:stedsnr" v="293766" />
	</node>
	<node id="-137360" lat="60.336574999" lon="10.4910361065">
		<tag k="fixme" v="consider natural=peak for the most distinct mountains in the district" />
		<tag k="name" v="Kjekshushaugen" />
		<tag k="natural" v="hill" />
		<tag k="place" v="locality" />
		<tag k="ssr:stedsnr" v="491980" />
	</node>
	<node id="-137353" lat="60.4967249962" lon="10.3213666684">
		<tag k="fixme" v="consider natural=peak for the most distinct mountains in the district" />
		<tag k="name" v="Sæterhaugen" />
		<tag k="natural" v="hill" />
		<tag k="place" v="locality" />
		<tag k="ssr:stedsnr" v="491717" />
	</node>
	<node id="-137351" lat="60.3869833316" lon="10.7837083284">
		<tag k="name" v="Skreihaugen" />
		<tag k="natural" v="hill" />
		<tag k="place" v="locality" />
		<tag k="ssr:stedsnr" v="491598" />
	</node>
	<node id="-137346" lat="60.3590583328" lon="10.8488250029">
		<tag k="name" v="Sandbotnlia" />
		<tag k="natural" v="slope" />
		<tag k="place" v="locality" />
		<tag k="ssr:stedsnr" v="491560" />
	</node>
	<node id="-137344" lat="60.4737583324" lon="10.2156861053">
		<tag k="fixme" v="consider natural=peak for the most distinct mountains in the district" />
		<tag k="name" v="Svarttjernshøgda" />
		<tag k="natural" v="hill" />
		<tag k="place" v="locality" />
		<tag k="ssr:stedsnr" v="491693" />
	</node>
	<node id="-137339" lat="60.4312694409" lon="10.309574999">
		<tag k="fixme" v="consider natural=peak for the most distinct mountains in the district" />
		<tag k="name" v="Bjørnhaugen" />
		<tag k="natural" v="hill" />
		<tag k="place" v="locality" />
		<tag k="ssr:stedsnr" v="491374" />
	</node>
	<node id="-137335" lat="60.3381499991" lon="10.8548638828">
		<tag k="name" v="Sæterhaugen" />
		<tag k="natural" v="hill" />
		<tag k="place" v="locality" />
		<tag k="ssr:stedsnr" v="491294" />
	</node>
	<node id="-137308" lat="60.4476694451" lon="10.6539277701">
		<tag k="fixme" v="consider natural=peak for the most distinct mountains in the district" />
		<tag k="name" v="Skarvåsen" />
		<tag k="natural" v="hill" />
		<tag k="place" v="locality" />
		<tag k="ssr:stedsnr" v="491227" />
	</node>
	<node id="-137296" lat="60.5598277771" lon="10.486066663">
		<tag k="name" v="Vestre Kvitingslia" />
		<tag k="natural" v="slope" />
		<tag k="place" v="locality" />
		<tag k="ssr:stedsnr" v="457694" />
	</node>
	<node id="-137291" lat="60.4742916632" lon="10.6624361135">
		<tag k="name" v="Lokkebakka" />
		<tag k="natural" v="slope" />
		<tag k="place" v="locality" />
		<tag k="ssr:stedsnr" v="457528" />
	</node>
	<node id="-137288" lat="60.4896111083" lon="10.683580552">
		<tag k="name" v="Lomtjernslia" />
		<tag k="natural" v="slope" />
		<tag k="place" v="locality" />
		<tag k="ssr:stedsnr" v="457468" />
	</node>
	<node id="-137285" lat="60.5130749974" lon="10.5567472282">
		<tag k="name" v="Budeiholen" />
		<tag k="natural" v="valley" />
		<tag k="place" v="locality" />
		<tag k="ssr:stedsnr" v="457136" />
	</node>
	<node id="-137278" lat="60.5095416649" lon="10.4816083318">
		<tag k="name" v="Knutsbråtån" />
		<tag k="natural" v="slope" />
		<tag k="place" v="locality" />
		<tag k="ssr:stedsnr" v="456606" />
	</node>
	<node id="-137276" lat="60.4851722238" lon="10.3751694533">
		<tag k="name" v="Kleiva" />
		<tag k="natural" v="slope" />
		<tag k="place" v="locality" />
		<tag k="ssr:stedsnr" v="456422" />
	</node>
	<node id="-137271" lat="60.4378277736" lon="10.4705166607">
		<tag k="name" v="Rundshaugen" />
		<tag k="natural" v="hill" />
		<tag k="place" v="locality" />
		<tag k="ssr:stedsnr" v="456040" />
	</node>
	<node id="-137258" lat="60.366008331" lon="10.6186888936">
		<tag k="name" v="Karensberget" />
		<tag k="natural" v="hill" />
		<tag k="place" v="locality" />
		<tag k="ssr:stedsnr" v="454488" />
	</node>
	<node id="-137252" lat="60.3558055568" lon="10.5380861143">
		<tag k="fixme" v="consider natural=peak for the most distinct mountains in the district" />
		<tag k="name" v="Granåsen" />
		<tag k="natural" v="hill" />
		<tag k="place" v="locality" />
		<tag k="ssr:stedsnr" v="453635" />
	</node>
	<node id="-137248" lat="60.4040638891" lon="10.5813750083">
		<tag k="name" v="Geitryggen" />
		<tag k="natural" v="hill" />
		<tag k="place" v="locality" />
		<tag k="ssr:stedsnr" v="453148" />
	</node>
	<node id="-137245" lat="60.4053277746" lon="10.5296416689">
		<tag k="name" v="Kakuhaugen" />
		<tag k="natural" v="hill" />
		<tag k="place" v="locality" />
		<tag k="ssr:stedsnr" v="453025" />
	</node>
	<node id="-137243" lat="60.5115555529" lon="10.4473916651">
		<tag k="name" v="Gravmoen" />
		<tag k="place" v="locality" />
		<tag k="ssr:stedsnr" v="449562" />
	</node>
	<node id="-137241" lat="60.5238416623" lon="10.3222750078">
		<tag k="name" v="Hornsberget" />
		<tag k="natural" v="hill" />
		<tag k="place" v="locality" />
		<tag k="ssr:stedsnr" v="432511" />
	</node>
	<node id="-137237" lat="60.5366888877" lon="10.3926527832">
		<tag k="alt_name" v="Kampen" />
		<tag k="fixme" v="consider natural=peak for the most distinct mountains in the district" />
		<tag k="name" v="Gjerdvikskampen" />
		<tag k="natural" v="hill" />
		<tag k="place" v="locality" />
		<tag k="ssr:stedsnr" v="432100" />
	</node>
</osm>
