<?xml version="1.0" encoding="UTF-8"?>
<osm generator="osmapis" version="0.6">
	<node id="-137215" lat="60.4180277799" lon="10.7312750005">
		<tag k="name" v="Hesjemyra" />
		<tag k="natural" v="wetland" />
		<tag k="ssr:stedsnr" v="431642" />
	</node>
	<node id="-136188" lat="60.428169447" lon="10.6431277846">
		<tag k="name" v="Lauvlisætermyra" />
		<tag k="natural" v="wetland" />
		<tag k="ssr:stedsnr" v="393974" />
	</node>
	<node id="-136181" lat="60.4146416668" lon="10.534850006">
		<tag k="name" v="Skjella" />
		<tag k="place" v="locality" />
		<tag k="ssr:stedsnr" v="393197" />
	</node>
	<node id="-138228" lat="60.4602666636" lon="10.3359250053">
		<tag k="name" v="Geitputtmyra" />
		<tag k="natural" v="wetland" />
		<tag k="ssr:stedsnr" v="794535" />
	</node>
	<node id="-137982" lat="60.4463944418" lon="10.6235388954">
		<tag k="name" v="Hølmyra" />
		<tag k="natural" v="wetland" />
		<tag k="ssr:stedsnr" v="700680" />
	</node>
	<node id="-137482" lat="60.4225277782" lon="10.8236555564">
		<tag k="name" v="Lisæterstormyra" />
		<tag k="natural" v="wetland" />
		<tag k="ssr:stedsnr" v="537883" />
	</node>
	<node id="-136218" lat="60.5121027759" lon="10.4989388875">
		<tag k="name" v="Høgdemyra" />
		<tag k="natural" v="wetland" />
		<tag k="ssr:stedsnr" v="396098" />
	</node>
	<node id="-136018" lat="60.4913805554" lon="10.5554750031">
		<tag k="name" v="Kalvemyrene" />
		<tag k="natural" v="wetland" />
		<tag k="ssr:stedsnr" v="335339" />
	</node>
	<node id="-136169" lat="60.5068055541" lon="10.4331805615">
		<tag k="name" v="Sinnerudshagen" />
		<tag k="place" v="locality" />
		<tag k="ssr:stedsnr" v="388600" />
	</node>
	<node id="-136167" lat="60.5638555552" lon="10.5126750008">
		<tag k="name" v="Kvitingsmyrene" />
		<tag k="natural" v="wetland" />
		<tag k="ssr:stedsnr" v="371135" />
	</node>
	<node id="-138214" lat="60.4909276336" lon="10.2140069511">
		<tag k="name" v="Puttmyra" />
		<tag k="natural" v="wetland" />
		<tag k="ssr:stedsnr" v="779691" />
	</node>
	<node id="-138662" lat="60.4993888926" lon="10.2199305511">
		<tag k="name" v="Hyttemyra" />
		<tag k="natural" v="wetland" />
		<tag k="ssr:stedsnr" v="960623" />
	</node>
	<node id="-138198" lat="60.3539833339" lon="10.9060305495">
		<tag k="name" v="Dragmyra" />
		<tag k="natural" v="wetland" />
		<tag k="ssr:stedsnr" v="779254" />
	</node>
	<node id="-136782" lat="60.4895694469" lon="10.5734750073">
		<tag k="name" v="Åstjern beitelag" />
		<tag k="place" v="locality" />
		<tag k="ssr:stedsnr" v="153373" />
	</node>
	<node id="-137169" lat="60.5118611136" lon="10.68020556">
		<tag k="name" v="Hølbekkmyra" />
		<tag k="natural" v="wetland" />
		<tag k="ssr:stedsnr" v="431060" />
	</node>
	<node id="-136656" lat="60.3355111139" lon="10.7955249971">
		<tag k="name" v="Kalvemyra" />
		<tag k="natural" v="wetland" />
		<tag k="ssr:stedsnr" v="112753" />
	</node>
	<node id="-137464" lat="60.4137944488" lon="10.7068833307">
		<tag k="name" v="Kvernmyra" />
		<tag k="natural" v="wetland" />
		<tag k="ssr:stedsnr" v="536438" />
	</node>
	<node id="-137856" lat="60.4316194401" lon="10.6704666618">
		<tag k="name" v="Lustjernsmyrene" />
		<tag k="natural" v="wetland" />
		<tag k="ssr:stedsnr" v="658561" />
	</node>
	<node id="-136140" lat="60.3277500018" lon="10.8945999938">
		<tag k="name" v="Svartbekkskurven" />
		<tag k="place" v="locality" />
		<tag k="ssr:stedsnr" v="370315" />
	</node>
	<node id="-136610" lat="60.5012249958" lon="10.4792861182">
		<tag k="name" v="Nysætermyra" />
		<tag k="natural" v="wetland" />
		<tag k="ssr:stedsnr" v="92621" />
	</node>
	<node id="-138185" lat="60.4921138864" lon="10.6392083392">
		<tag k="name" v="Liabråtån" />
		<tag k="place" v="locality" />
		<tag k="ssr:stedsnr" v="761514" />
	</node>
	<node id="-138184" lat="60.4732694432" lon="10.606947228">
		<tag k="name" v="Kambumyra" />
		<tag k="natural" v="wetland" />
		<tag k="ssr:stedsnr" v="761409" />
	</node>
	<node id="-138183" lat="60.5558083355" lon="10.5384999956">
		<tag k="name" v="Puttmyra" />
		<tag k="natural" v="wetland" />
		<tag k="ssr:stedsnr" v="760708" />
	</node>
	<node id="-137670" lat="60.3719833329" lon="10.3260027692">
		<tag k="name" v="Stormyrene" />
		<tag k="natural" v="wetland" />
		<tag k="ssr:stedsnr" v="611607" />
	</node>
	<node id="-138181" lat="60.4576472229" lon="10.669808328">
		<tag k="name" v="Pikmyra" />
		<tag k="natural" v="wetland" />
		<tag k="ssr:stedsnr" v="760581" />
	</node>
	<node id="-138692" lat="60.4133833334" lon="10.7325444533">
		<tag k="name" v="Kvernmyra" />
		<tag k="natural" v="wetland" />
		<tag k="ssr:stedsnr" v="962724" />
	</node>
	<node id="-138691" lat="60.3743805572" lon="10.882380551">
		<tag k="name" v="Brennholmmyra" />
		<tag k="natural" v="wetland" />
		<tag k="ssr:stedsnr" v="962445" />
	</node>
	<node id="-138178" lat="60.4764388906" lon="10.6956527818">
		<tag k="name" v="Syslemyrene" />
		<tag k="natural" v="wetland" />
		<tag k="ssr:stedsnr" v="760552" />
	</node>
	<node id="-138177" lat="60.4689166679" lon="10.6608083338">
		<tag k="name" v="Siljusætermyra" />
		<tag k="natural" v="wetland" />
		<tag k="ssr:stedsnr" v="760550" />
	</node>
	<node id="-138176" lat="60.5046166691" lon="10.640977779">
		<tag k="name" v="Dælenbråtån" />
		<tag k="place" v="locality" />
		<tag k="ssr:stedsnr" v="760502" />
	</node>
	<node id="-138173" lat="60.4874972243" lon="10.6000749965">
		<tag k="name" v="Hemstumyra" />
		<tag k="natural" v="wetland" />
		<tag k="ssr:stedsnr" v="760353" />
	</node>
	<node id="-138172" lat="60.5451388915" lon="10.3910555625">
		<tag k="historic" v="shieling" />
		<tag k="name" v="Gjerviksætra" />
		<tag k="place" v="locality" />
		<tag k="ssr:stedsnr" v="760201" />
	</node>
	<node id="-138171" lat="60.5130249993" lon="10.5753333416">
		<tag k="name" v="Oksebakka" />
		<tag k="place" v="locality" />
		<tag k="ssr:stedsnr" v="760164" />
	</node>
	<node id="-138170" lat="60.5044194466" lon="10.5099111041">
		<tag k="name" v="Villingrud" />
		<tag k="place" v="locality" />
		<tag k="ssr:stedsnr" v="760137" />
	</node>
	<node id="-138168" lat="60.4120666696" lon="10.4789527805">
		<tag k="name" v="Onsvoll" />
		<tag k="place" v="locality" />
		<tag k="ssr:stedsnr" v="759820" />
	</node>
	<node id="-138166" lat="60.4477444459" lon="10.5060638821">
		<tag k="name" v="Homlebakkmyra" />
		<tag k="natural" v="wetland" />
		<tag k="ssr:stedsnr" v="759762" />
	</node>
	<node id="-138675" lat="60.3903750005" lon="10.3261611157">
		<tag k="name" v="Myremyrene" />
		<tag k="natural" v="wetland" />
		<tag k="ssr:stedsnr" v="961472" />
	</node>
	<node id="-138160" lat="60.5345916657" lon="10.420744438">
		<tag k="name" v="Kringelmyra" />
		<tag k="natural" v="wetland" />
		<tag k="ssr:stedsnr" v="759641" />
	</node>
	<node id="-137135" lat="60.4097666654" lon="10.7097888973">
		<tag k="name" v="Ognillsbrenna" />
		<tag k="place" v="locality" />
		<tag k="ssr:stedsnr" v="415486" />
	</node>
	<node id="-137646" lat="60.439461108" lon="10.1878527802">
		<tag k="name" v="Storlunden" />
		<tag k="place" v="locality" />
		<tag k="ssr:stedsnr" v="597284" />
	</node>
	<node id="-138653" lat="60.4674527802" lon="10.5963694448">
		<tag k="name" v="Storbrenna" />
		<tag k="natural" v="wetland" />
		<tag k="ssr:stedsnr" v="942736" />
	</node>
	<node id="-136620" lat="60.5184694447" lon="10.5584111083">
		<tag k="name" v="Nybråtålia" />
		<tag k="place" v="locality" />
		<tag k="ssr:stedsnr" v="93142" />
	</node>
	<node id="-136619" lat="60.5070166629" lon="10.5642749932">
		<tag k="name" v="Kaldhølmyrene" />
		<tag k="natural" v="wetland" />
		<tag k="ssr:stedsnr" v="93136" />
	</node>
	<node id="-136618" lat="60.5181833313" lon="10.5075805584">
		<tag k="name" v="Briskemyra" />
		<tag k="natural" v="wetland" />
		<tag k="ssr:stedsnr" v="93106" />
	</node>
	<node id="-136615" lat="60.4679805524" lon="10.5604472149">
		<tag k="name" v="Nysæterbrenna" />
		<tag k="place" v="locality" />
		<tag k="ssr:stedsnr" v="92720" />
	</node>
	<node id="-136102" lat="60.3418027755" lon="10.8943555476">
		<tag k="name" v="Bekkemyra" />
		<tag k="natural" v="wetland" />
		<tag k="ssr:stedsnr" v="414083" />
	</node>
	<node id="-137457" lat="60.4817444469" lon="10.3430694438">
		<tag k="name" v="Flågåmyra" />
		<tag k="natural" v="wetland" />
		<tag k="ssr:stedsnr" v="536241" />
	</node>
	<node id="-138659" lat="60.4519305531" lon="10.6367305557">
		<tag k="name" v="Stormyra" />
		<tag k="natural" v="wetland" />
		<tag k="ssr:stedsnr" v="943675" />
	</node>
	<node id="-138658" lat="60.5067944435" lon="10.7087305536">
		<tag k="name" v="Brannelvmyra" />
		<tag k="natural" v="wetland" />
		<tag k="ssr:stedsnr" v="943553" />
	</node>
	<node id="-137343" lat="60.4132027749" lon="10.8572611142">
		<tag k="name" v="Sjuputtmyra" />
		<tag k="natural" v="wetland" />
		<tag k="ssr:stedsnr" v="491624" />
	</node>
	<node id="-136606" lat="60.5441583342" lon="10.4413555601">
		<tag k="name" v="Århanemyrene" />
		<tag k="natural" v="wetland" />
		<tag k="ssr:stedsnr" v="92438" />
	</node>
	<node id="-138141" lat="60.4647527823" lon="10.4712888813">
		<tag k="name" v="Molykkja" />
		<tag k="place" v="locality" />
		<tag k="ssr:stedsnr" v="759189" />
	</node>
	<node id="-136604" lat="60.4882277737" lon="10.5333722223">
		<tag k="name" v="Oksemyra" />
		<tag k="natural" v="wetland" />
		<tag k="ssr:stedsnr" v="92359" />
	</node>
	<node id="-138139" lat="60.4464027762" lon="10.4547722247">
		<tag k="name" v="Vintermyra" />
		<tag k="natural" v="wetland" />
		<tag k="ssr:stedsnr" v="759013" />
	</node>
	<node id="-138647" lat="60.4458500043" lon="10.5115444502">
		<tag k="name" v="Tryterud" />
		<tag k="place" v="locality" />
		<tag k="ssr:stedsnr" v="941765" />
	</node>
	<node id="-136086" lat="60.3988277783" lon="10.7877750061">
		<tag k="name" v="Sjuputtmyra" />
		<tag k="natural" v="wetland" />
		<tag k="ssr:stedsnr" v="355695" />
	</node>
	<node id="-138644" lat="60.5385583332" lon="10.4631194444">
		<tag k="name" v="Bikkjeputtmyra" />
		<tag k="natural" v="wetland" />
		<tag k="ssr:stedsnr" v="941643" />
	</node>
	<node id="-137107" lat="60.5297305562" lon="10.4789444485">
		<tag k="name" v="Langmyra" />
		<tag k="natural" v="wetland" />
		<tag k="ssr:stedsnr" v="267606" />
	</node>
	<node id="-137618" lat="60.4554194409" lon="10.6093194503">
		<tag k="name" v="Hengedymyra" />
		<tag k="natural" v="wetland" />
		<tag k="ssr:stedsnr" v="578667" />
	</node>
	<node id="-137617" lat="60.4517583329" lon="10.70166944">
		<tag k="alt_name" v="Kåvamyra" />
		<tag k="name" v="Kåvemyra" />
		<tag k="natural" v="wetland" />
		<tag k="ssr:stedsnr" v="578550" />
	</node>
	<node id="-137616" lat="60.4378833376" lon="10.6698583353">
		<tag k="name" v="Gåsbakkmyra" />
		<tag k="natural" v="wetland" />
		<tag k="ssr:stedsnr" v="578543" />
	</node>
	<node id="-136079" lat="60.463225004" lon="10.3703861067">
		<tag k="name" v="Bundingstikkmyrene" />
		<tag k="natural" v="wetland" />
		<tag k="ssr:stedsnr" v="354814" />
	</node>
	<node id="-137613" lat="60.5076222248" lon="10.6136138879">
		<tag k="name" v="Sinnermyra" />
		<tag k="natural" v="wetland" />
		<tag k="ssr:stedsnr" v="578462" />
	</node>
	<node id="-136588" lat="60.4178111074" lon="10.6420111143">
		<tag k="name" v="Stadstamyra" />
		<tag k="natural" v="wetland" />
		<tag k="ssr:stedsnr" v="90971" />
	</node>
	<node id="-137611" lat="60.5196361077" lon="10.5647972241">
		<tag k="name" v="Bjørnmyra" />
		<tag k="natural" v="wetland" />
		<tag k="ssr:stedsnr" v="578144" />
	</node>
	<node id="-137609" lat="60.4452555559" lon="10.5949666658">
		<tag k="name" v="Torvmyra" />
		<tag k="natural" v="wetland" />
		<tag k="ssr:stedsnr" v="577846" />
	</node>
	<node id="-138632" lat="60.4724305566" lon="10.4629944489">
		<tag k="name" v="Tronerud" />
		<tag k="place" v="locality" />
		<tag k="ssr:stedsnr" v="941153" />
	</node>
	<node id="-137607" lat="60.4711916692" lon="10.5601416687">
		<tag k="landuse" v="meadow" />
		<tag k="name" v="Nysætergjerdinga" />
		<tag k="ssr:stedsnr" v="577762" />
	</node>
	<node id="-137606" lat="60.4651999999" lon="10.5781666607">
		<tag k="name" v="Blokkhuslykkja" />
		<tag k="place" v="locality" />
		<tag k="ssr:stedsnr" v="577755" />
	</node>
	<node id="-137604" lat="60.4662888924" lon="10.5915027702">
		<tag k="name" v="Storbrennmyra" />
		<tag k="natural" v="wetland" />
		<tag k="ssr:stedsnr" v="577750" />
	</node>
	<node id="-137089" lat="60.3711250004" lon="10.7804555578">
		<tag k="name" v="Korsmyra" />
		<tag k="natural" v="wetland" />
		<tag k="ssr:stedsnr" v="249556" />
	</node>
	<node id="-137280" lat="60.5346138922" lon="10.4000333342">
		<tag k="name" v="Elvehella" />
		<tag k="place" v="locality" />
		<tag k="ssr:stedsnr" v="456669" />
	</node>
	<node id="-137598" lat="60.5262722264" lon="10.4370500005">
		<tag k="name" v="Sinnerudstormyra" />
		<tag k="natural" v="wetland" />
		<tag k="ssr:stedsnr" v="577626" />
	</node>
	<node id="-136370" lat="60.4668999955" lon="10.1836388966">
		<tag k="name" v="Venemyr" />
		<tag k="natural" v="wetland" />
		<tag k="ssr:stedsnr" v="5543" />
	</node>
	<node id="-136284" lat="60.5447305563" lon="10.4228555578">
		<tag k="name" v="Teiemyra" />
		<tag k="natural" v="wetland" />
		<tag k="ssr:stedsnr" v="882184" />
	</node>
	<node id="-137593" lat="60.4989500034" lon="10.558947222">
		<tag k="name" v="Øvre Slåttmyra" />
		<tag k="natural" v="wetland" />
		<tag k="ssr:stedsnr" v="577339" />
	</node>
	<node id="-137705" lat="60.3605499996" lon="10.7885000073">
		<tag k="alt_name" v="Storengmyra" />
		<tag k="name" v="Stormyra" />
		<tag k="natural" v="wetland" />
		<tag k="ssr:stedsnr" v="612560" />
	</node>
	<node id="-138099" lat="60.5332472218" lon="10.4140194534">
		<tag k="name" v="Puttmyra" />
		<tag k="natural" v="wetland" />
		<tag k="ssr:stedsnr" v="735073" />
	</node>
	<node id="-135827" lat="60.4144416709" lon="10.5151250014">
		<tag k="name" v="Grindåkerstykket" />
		<tag k="place" v="locality" />
		<tag k="ssr:stedsnr" v="272188" />
	</node>
	<node id="-136559" lat="60.5414361148" lon="10.5794499948">
		<tag k="name" v="Brennsteinsmyrene" />
		<tag k="natural" v="wetland" />
		<tag k="ssr:stedsnr" v="68120" />
	</node>
	<node id="-136260" lat="60.3908416644" lon="10.7604111127">
		<tag k="name" v="Stormyra" />
		<tag k="natural" v="wetland" />
		<tag k="ssr:stedsnr" v="475750" />
	</node>
	<node id="-135911" lat="60.3425999995" lon="10.8745944363">
		<tag k="name" v="Bjørgesætermyra" />
		<tag k="natural" v="wetland" />
		<tag k="ssr:stedsnr" v="309543" />
	</node>
	<node id="-138085" lat="60.3844027754" lon="10.8091000089">
		<tag k="name" v="Toputtmyra" />
		<tag k="natural" v="wetland" />
		<tag k="ssr:stedsnr" v="734614" />
	</node>
	<node id="-136031" lat="60.4396361138" lon="10.6727361031">
		<tag k="name" v="Grågampen" />
		<tag k="natural" v="stone" />
		<tag k="ssr:stedsnr" v="336555" />
	</node>
	<node id="-136030" lat="60.5067555565" lon="10.693097214">
		<tag k="name" v="Langmyra" />
		<tag k="natural" v="wetland" />
		<tag k="ssr:stedsnr" v="336530" />
	</node>
	<node id="-137565" lat="60.4171750018" lon="10.5421333291">
		<tag k="name" v="Jøtbråtån" />
		<tag k="place" v="locality" />
		<tag k="ssr:stedsnr" v="574222" />
	</node>
	<node id="-136420" lat="60.5470388908" lon="10.4206111031">
		<tag k="name" v="Fløyta" />
		<tag k="natural" v="wetland" />
		<tag k="ssr:stedsnr" v="7134" />
	</node>
	<node id="-138127" lat="60.434297225" lon="10.5845499917">
		<tag k="name" v="Petrinebingen" />
		<tag k="place" v="locality" />
		<tag k="ssr:stedsnr" v="757597" />
	</node>
	<node id="-137559" lat="60.5097333324" lon="10.4387972131">
		<tag k="name" v="Smørstein" />
		<tag k="natural" v="stone" />
		<tag k="ssr:stedsnr" v="570577" />
	</node>
	<node id="-138579" lat="60.3304499987" lon="10.8158249939">
		<tag k="name" v="Stormyra" />
		<tag k="natural" v="wetland" />
		<tag k="ssr:stedsnr" v="916282" />
	</node>
	<node id="-137554" lat="60.5380722257" lon="10.4816888976">
		<tag k="alt_name" v="Stormyrene" />
		<tag k="name" v="Stormyra" />
		<tag k="natural" v="wetland" />
		<tag k="ssr:stedsnr" v="553091" />
	</node>
	<node id="-136017" lat="60.4983916707" lon="10.5716333401">
		<tag k="name" v="Nedre Korshaugmyra" />
		<tag k="natural" v="wetland" />
		<tag k="ssr:stedsnr" v="335331" />
	</node>
	<node id="-136016" lat="60.5449777742" lon="10.4016972301">
		<tag k="name" v="Monsemyr" />
		<tag k="natural" v="wetland" />
		<tag k="ssr:stedsnr" v="335171" />
	</node>
	<node id="-137272" lat="60.4401999998" lon="10.4446861197">
		<tag k="name" v="Momyra" />
		<tag k="natural" v="wetland" />
		<tag k="ssr:stedsnr" v="456252" />
	</node>
	<node id="-136013" lat="60.5219916699" lon="10.4254694512">
		<tag k="name" v="Vollmyra" />
		<tag k="natural" v="wetland" />
		<tag k="ssr:stedsnr" v="334620" />
	</node>
	<node id="-136012" lat="60.5342472178" lon="10.4313694408">
		<tag k="name" v="Toregjellmyra" />
		<tag k="natural" v="wetland" />
		<tag k="ssr:stedsnr" v="334617" />
	</node>
	<node id="-136969" lat="60.481416669" lon="10.6269777864">
		<tag k="name" v="Svartbekkmyra" />
		<tag k="natural" v="wetland" />
		<tag k="ssr:stedsnr" v="215531" />
	</node>
	<node id="-136004" lat="60.4711666632" lon="10.4595666742">
		<tag k="name" v="Rud" />
		<tag k="place" v="locality" />
		<tag k="ssr:stedsnr" v="334160" />
	</node>
	<node id="-136743" lat="60.358850004" lon="10.526038887">
		<tag k="name" v="Helgumsmarka" />
		<tag k="place" v="locality" />
		<tag k="ssr:stedsnr" v="149636" />
	</node>
	<node id="-135989" lat="60.4125833291" lon="10.5150083397">
		<tag k="name" v="Kvernhusbråtån" />
		<tag k="place" v="locality" />
		<tag k="ssr:stedsnr" v="332063" />
	</node>
	<node id="-137019" lat="60.4067666628" lon="10.8104166633">
		<tag k="name" v="Huldertjernsbrenna" />
		<tag k="place" v="locality" />
		<tag k="ssr:stedsnr" v="233757" />
	</node>
	<node id="-137018" lat="60.4881388863" lon="10.2095527727">
		<tag k="name" v="Mærramyra" />
		<tag k="natural" v="wetland" />
		<tag k="ssr:stedsnr" v="233721" />
	</node>
	<node id="-136505" lat="60.3349555554" lon="10.8222083245">
		<tag k="name" v="Hattemyrfløyta" />
		<tag k="natural" v="wetland" />
		<tag k="ssr:stedsnr" v="52723" />
	</node>
	<node id="-137016" lat="60.3226777792" lon="10.7762388858">
		<tag k="name" v="Hanskemyra" />
		<tag k="natural" v="wetland" />
		<tag k="ssr:stedsnr" v="233634" />
	</node>
	<node id="-136503" lat="60.432491665" lon="10.7115027726">
		<tag k="name" v="Lessemyra" />
		<tag k="natural" v="wetland" />
		<tag k="ssr:stedsnr" v="52469" />
	</node>
	<node id="-138549" lat="60.5247611126" lon="10.1834250044">
		<tag k="name" v="Dragmyra" />
		<tag k="natural" v="wetland" />
		<tag k="ssr:stedsnr" v="900892" />
	</node>
	<node id="-138547" lat="60.4547055525" lon="10.3805638856">
		<tag k="name" v="Flåtjernsmyrene" />
		<tag k="natural" v="wetland" />
		<tag k="ssr:stedsnr" v="900733" />
	</node>
	<node id="-137007" lat="60.3805138919" lon="10.8866166696">
		<tag k="name" v="Sundmyra" />
		<tag k="natural" v="wetland" />
		<tag k="ssr:stedsnr" v="233493" />
	</node>
	<node id="-135847" lat="60.4962055594" lon="10.559124998">
		<tag k="name" v="Tjyrueldsmyra" />
		<tag k="natural" v="wetland" />
		<tag k="ssr:stedsnr" v="274308" />
	</node>
	<node id="-138538" lat="60.3294055544" lon="10.8892583261">
		<tag k="name" v="Svartbekkskurven" />
		<tag k="place" v="locality" />
		<tag k="ssr:stedsnr" v="900159" />
	</node>
	<node id="-136998" lat="60.4789916706" lon="10.3535055468">
		<tag k="name" v="Grenmyra" />
		<tag k="natural" v="wetland" />
		<tag k="ssr:stedsnr" v="233276" />
	</node>
	<node id="-138533" lat="60.5086583311" lon="10.2829833421">
		<tag k="name" v="Gjellemyra" />
		<tag k="natural" v="wetland" />
		<tag k="ssr:stedsnr" v="900446" />
	</node>
	<node id="-136996" lat="60.3324916712" lon="10.849011106">
		<tag k="name" v="Hadelandsmyra" />
		<tag k="natural" v="wetland" />
		<tag k="ssr:stedsnr" v="233188" />
	</node>
	<node id="-136994" lat="60.3369888889" lon="10.8891499925">
		<tag k="name" v="Jutulbakka" />
		<tag k="place" v="locality" />
		<tag k="ssr:stedsnr" v="233170" />
	</node>
	<node id="-138017" lat="60.3609861143" lon="10.7313666754">
		<tag k="name" v="Storåbrenna" />
		<tag k="place" v="locality" />
		<tag k="ssr:stedsnr" v="718633" />
	</node>
	<node id="-136992" lat="60.525930555" lon="10.1908722142">
		<tag k="name" v="Kjelleren" />
		<tag k="place" v="locality" />
		<tag k="ssr:stedsnr" v="233012" />
	</node>
	<node id="-138525" lat="60.4722416694" lon="10.5529361173">
		<tag k="name" v="Roligbrenna" />
		<tag k="place" v="locality" />
		<tag k="ssr:stedsnr" v="881715" />
	</node>
	<node id="-138523" lat="60.4597027736" lon="10.5453694352">
		<tag k="name" v="Gammelsætermyra" />
		<tag k="natural" v="wetland" />
		<tag k="ssr:stedsnr" v="881704" />
	</node>
	<node id="-138543" lat="60.3524888899" lon="10.8976166744">
		<tag k="name" v="Kultmyra" />
		<tag k="natural" v="wetland" />
		<tag k="ssr:stedsnr" v="900274" />
	</node>
	<node id="-138519" lat="60.5407388907" lon="10.4278666681">
		<tag k="name" v="Vendbrenna" />
		<tag k="place" v="locality" />
		<tag k="ssr:stedsnr" v="881624" />
	</node>
	<node id="-138518" lat="60.5336944463" lon="10.4587888963">
		<tag k="name" v="Merramyra" />
		<tag k="natural" v="wetland" />
		<tag k="ssr:stedsnr" v="881621" />
	</node>
	<node id="-138004" lat="60.3405888918" lon="10.8967388825">
		<tag k="name" v="Hansbråtåmyra" />
		<tag k="natural" v="wetland" />
		<tag k="ssr:stedsnr" v="718098" />
	</node>
	<node id="-138515" lat="60.5457499963" lon="10.4428722263">
		<tag k="name" v="Pumpedammyra" />
		<tag k="natural" v="wetland" />
		<tag k="ssr:stedsnr" v="881424" />
	</node>
	<node id="-138514" lat="60.5202666656" lon="10.3861388953">
		<tag k="name" v="Kjærsrud" />
		<tag k="place" v="locality" />
		<tag k="ssr:stedsnr" v="881369" />
	</node>
	<node id="-136977" lat="60.545047223" lon="10.503830551">
		<tag k="name" v="Toppåsleikmyra" />
		<tag k="natural" v="wetland" />
		<tag k="ssr:stedsnr" v="215755" />
	</node>
	<node id="-137488" lat="60.3472499989" lon="10.9065777817">
		<tag k="name" v="Stærtoppmyra" />
		<tag k="natural" v="wetland" />
		<tag k="ssr:stedsnr" v="551491" />
	</node>
	<node id="-138511" lat="60.4670055576" lon="10.480777787">
		<tag k="name" v="Jentemyra" />
		<tag k="place" v="locality" />
		<tag k="ssr:stedsnr" v="881172" />
	</node>
	<node id="-136460" lat="60.5125527793" lon="10.6828805571">
		<tag k="name" v="Bikkjemyra" />
		<tag k="natural" v="wetland" />
		<tag k="ssr:stedsnr" v="32510" />
	</node>
	<node id="-136970" lat="60.5083861123" lon="10.6381833376">
		<tag k="name" v="Evjumyra" />
		<tag k="natural" v="wetland" />
		<tag k="ssr:stedsnr" v="215570" />
	</node>
	<node id="-136457" lat="60.5174222261" lon="10.6038222134">
		<tag k="name" v="Hesterangelmyra" />
		<tag k="natural" v="wetland" />
		<tag k="ssr:stedsnr" v="32476" />
	</node>
	<node id="-138504" lat="60.452980559" lon="10.4829527709">
		<tag k="name" v="Brauta" />
		<tag k="place" v="locality" />
		<tag k="ssr:stedsnr" v="881007" />
	</node>
	<node id="-136966" lat="60.4534444424" lon="10.66458056">
		<tag k="name" v="Grevsjømyra" />
		<tag k="natural" v="wetland" />
		<tag k="ssr:stedsnr" v="214564" />
	</node>
	<node id="-136065" lat="60.4762138886" lon="10.3609916611">
		<tag k="name" v="Basunmyra" />
		<tag k="natural" v="wetland" />
		<tag k="ssr:stedsnr" v="354341" />
	</node>
	<node id="-136452" lat="60.512591666" lon="10.56668889">
		<tag k="name" v="Merramyra" />
		<tag k="natural" v="wetland" />
		<tag k="ssr:stedsnr" v="32131" />
	</node>
	<node id="-136962" lat="60.4831666708" lon="10.5158499927">
		<tag k="name" v="Slettmyra" />
		<tag k="natural" v="wetland" />
		<tag k="ssr:stedsnr" v="214351" />
	</node>
	<node id="-137984" lat="60.546633332" lon="10.5499611161">
		<tag k="name" v="Margretemyra" />
		<tag k="natural" v="wetland" />
		<tag k="ssr:stedsnr" v="700704" />
	</node>
	<node id="-137983" lat="60.4556472221" lon="10.6265444434">
		<tag k="name" v="Svarttjernsmyra" />
		<tag k="natural" v="wetland" />
		<tag k="ssr:stedsnr" v="700694" />
	</node>
	<node id="-138494" lat="60.5325444436" lon="10.4277583388">
		<tag k="name" v="Vendbrenna" />
		<tag k="place" v="locality" />
		<tag k="ssr:stedsnr" v="881618" />
	</node>
	<node id="-137980" lat="60.4631555596" lon="10.6957000045">
		<tag k="name" v="Bergstormyra" />
		<tag k="natural" v="wetland" />
		<tag k="ssr:stedsnr" v="700592" />
	</node>
	<node id="-137977" lat="60.5337194484" lon="10.592525009">
		<tag k="name" v="Hadelandslangmyra" />
		<tag k="natural" v="wetland" />
		<tag k="ssr:stedsnr" v="700489" />
	</node>
	<node id="-137976" lat="60.5275555559" lon="10.5613888814">
		<tag k="name" v="Vollmyra" />
		<tag k="natural" v="wetland" />
		<tag k="ssr:stedsnr" v="700481" />
	</node>
	<node id="-138486" lat="60.3434861098" lon="10.6268555483">
		<tag k="name" v="Kjeiverudhagen" />
		<tag k="place" v="locality" />
		<tag k="ssr:stedsnr" v="879429" />
	</node>
	<node id="-137973" lat="60.5174750006" lon="10.5736555491">
		<tag k="name" v="Søtholet" />
		<tag k="place" v="locality" />
		<tag k="ssr:stedsnr" v="700186" />
	</node>
	<node id="-136399" lat="60.3994583378" lon="10.2201638953">
		<tag k="name" v="Buvassmyrene" />
		<tag k="natural" v="wetland" />
		<tag k="ssr:stedsnr" v="6312" />
	</node>
	<node id="-136212" lat="60.5369833296" lon="10.4030694462">
		<tag k="name" v="Raudmyra" />
		<tag k="natural" v="wetland" />
		<tag k="ssr:stedsnr" v="395705" />
	</node>
	<node id="-137969" lat="60.4449472244" lon="10.5901361039">
		<tag k="name" v="Kjellmyra" />
		<tag k="natural" v="wetland" />
		<tag k="ssr:stedsnr" v="699826" />
	</node>
	<node id="-136945" lat="60.55333056" lon="10.4539250034">
		<tag k="name" v="Kjærsallmenningen" />
		<tag k="place" v="locality" />
		<tag k="ssr:stedsnr" v="213489" />
	</node>
	<node id="-137965" lat="60.3390250025" lon="10.5099527861">
		<tag k="landuse" v="quarry" />
		<tag k="name" v="Marmorbrudd" />
		<tag k="ssr:stedsnr" v="699415" />
	</node>
	<node id="-137961" lat="60.4115138878" lon="10.4811722261">
		<tag k="name" v="Kringommyra" />
		<tag k="natural" v="wetland" />
		<tag k="ssr:stedsnr" v="698823" />
	</node>
	<node id="-136423" lat="60.5168611153" lon="10.4801888801">
		<tag k="name" v="Nedre Tjyrueldsmyra" />
		<tag k="natural" v="wetland" />
		<tag k="ssr:stedsnr" v="24581" />
	</node>
	<node id="-137957" lat="60.5400166639" lon="10.4523055566">
		<tag k="name" v="Rognbakka" />
		<tag k="place" v="locality" />
		<tag k="ssr:stedsnr" v="698634" />
	</node>
	<node id="-137956" lat="60.5412277802" lon="10.4469916649">
		<tag k="name" v="Århanemyrene" />
		<tag k="natural" v="wetland" />
		<tag k="ssr:stedsnr" v="698607" />
	</node>
	<node id="-136486" lat="60.5106527798" lon="10.2576527831">
		<tag k="name" v="Snurumyra" />
		<tag k="natural" v="wetland" />
		<tag k="ssr:stedsnr" v="51346" />
	</node>
	<node id="-136930" lat="60.4346111073" lon="10.639972223">
		<tag k="name" v="Fillekremmermyra" />
		<tag k="natural" v="wetland" />
		<tag k="ssr:stedsnr" v="211974" />
	</node>
	<node id="-136827" lat="60.5291888901" lon="10.2707944501">
		<tag k="name" v="Bjonemyra" />
		<tag k="natural" v="wetland" />
		<tag k="ssr:stedsnr" v="173340" />
	</node>
	<node id="-137438" lat="60.5254722228" lon="10.503105555">
		<tag k="name" v="Korsfløyta" />
		<tag k="natural" v="wetland" />
		<tag k="ssr:stedsnr" v="518698" />
	</node>
	<node id="-137437" lat="60.555008337" lon="10.5027972295">
		<tag k="name" v="Kvitingsflakene" />
		<tag k="natural" v="wetland" />
		<tag k="ssr:stedsnr" v="518694" />
	</node>
	<node id="-137436" lat="60.5488250039" lon="10.5741138831">
		<tag k="name" v="Gulbrandsmyra" />
		<tag k="natural" v="wetland" />
		<tag k="ssr:stedsnr" v="518692" />
	</node>
	<node id="-136577" lat="60.3412611106" lon="10.6561250071">
		<tag k="name" v="Langmyra" />
		<tag k="natural" v="wetland" />
		<tag k="ssr:stedsnr" v="90413" />
	</node>
	<node id="-137945" lat="60.4732500028" lon="10.4792055609">
		<tag k="name" v="Askemyra" />
		<tag k="natural" v="wetland" />
		<tag k="ssr:stedsnr" v="698141" />
	</node>
	<node id="-136484" lat="60.4639194447" lon="10.2547055584">
		<tag k="name" v="Sevaldrudmyrene" />
		<tag k="natural" v="wetland" />
		<tag k="ssr:stedsnr" v="51329" />
	</node>
	<node id="-136918" lat="60.368555556" lon="10.6162333258">
		<tag k="name" v="Tajet" />
		<tag k="place" v="locality" />
		<tag k="ssr:stedsnr" v="211488" />
	</node>
	<node id="-136404" lat="60.3641444403" lon="10.8096138957">
		<tag k="alt_name" v="Hesjemyrene" />
		<tag k="name" v="Hesjemyrane" />
		<tag k="natural" v="wetland" />
		<tag k="ssr:stedsnr" v="6571" />
	</node>
	<node id="-135886" lat="60.5127944428" lon="10.1980055471">
		<tag k="name" v="Gørrbumyra" />
		<tag k="natural" v="wetland" />
		<tag k="ssr:stedsnr" v="294391" />
	</node>
	<node id="-137426" lat="60.5164361068" lon="10.5212833406">
		<tag k="name" v="Sevaldrudmyra" />
		<tag k="natural" v="wetland" />
		<tag k="ssr:stedsnr" v="518157" />
	</node>
	<node id="-137424" lat="60.5084166668" lon="10.5073888851">
		<tag k="name" v="Nordre Bleikenmyra" />
		<tag k="natural" v="wetland" />
		<tag k="ssr:stedsnr" v="518147" />
	</node>
	<node id="-136911" lat="60.5179861086" lon="10.4771583305">
		<tag k="name" v="Øvre Tjyrueldsmyra" />
		<tag k="natural" v="wetland" />
		<tag k="ssr:stedsnr" v="206552" />
	</node>
	<node id="-137422" lat="60.4546722201" lon="10.5361111143">
		<tag k="name" v="Langmyra" />
		<tag k="natural" v="wetland" />
		<tag k="ssr:stedsnr" v="517782" />
	</node>
	<node id="-137420" lat="60.5564472195" lon="10.4784888877">
		<tag k="name" v="Eidsallmenningen" />
		<tag k="place" v="locality" />
		<tag k="ssr:stedsnr" v="517446" />
	</node>
	<node id="-135970" lat="60.5027138866" lon="10.561622226">
		<tag k="name" v="Toputtmyra" />
		<tag k="natural" v="wetland" />
		<tag k="ssr:stedsnr" v="310063" />
	</node>
	<node id="-136906" lat="60.5282555544" lon="10.5932583278">
		<tag k="name" v="Lysingsmyra" />
		<tag k="natural" v="wetland" />
		<tag k="ssr:stedsnr" v="189079" />
	</node>
	<node id="-136311" lat="60.5011900301" lon="10.1624571399">
		<tag k="name" v="Snellrøysa" />
		<tag k="natural" v="scree" />
		<tag k="ssr:stedsnr" v="26842" />
	</node>
	<node id="-137416" lat="60.5406111086" lon="10.3784388951">
		<tag k="name" v="Torvmyra" />
		<tag k="natural" v="wetland" />
		<tag k="ssr:stedsnr" v="516650" />
	</node>
	<node id="-137415" lat="60.5396916677" lon="10.4747000078">
		<tag k="name" v="Tolassmyra" />
		<tag k="natural" v="wetland" />
		<tag k="ssr:stedsnr" v="516647" />
	</node>
	<node id="-137926" lat="60.490397226" lon="10.5667749937">
		<tag k="name" v="Fløtamyra" />
		<tag k="natural" v="wetland" />
		<tag k="ssr:stedsnr" v="699341" />
	</node>
	<node id="-136480" lat="60.364963887" lon="10.85973888">
		<tag k="name" v="Skinkerudmyrene" />
		<tag k="natural" v="wetland" />
		<tag k="ssr:stedsnr" v="51197" />
	</node>
	<node id="-136893" lat="60.3760749993" lon="10.8604277747">
		<tag k="name" v="Oksemyra" />
		<tag k="natural" v="wetland" />
		<tag k="ssr:stedsnr" v="188596" />
	</node>
	<node id="-136394" lat="60.3257749994" lon="10.8543777774">
		<tag k="name" v="Hadelandsmyra" />
		<tag k="natural" v="wetland" />
		<tag k="ssr:stedsnr" v="6287" />
	</node>
	<node id="-136890" lat="60.344388885" lon="10.8534416698">
		<tag k="name" v="Fjøsmyra" />
		<tag k="natural" v="wetland" />
		<tag k="ssr:stedsnr" v="188567" />
	</node>
	<node id="-136375" lat="60.3463916638" lon="10.509650006">
		<tag k="name" v="Delimarka" />
		<tag k="place" v="locality" />
		<tag k="ssr:stedsnr" v="6061" />
	</node>
	<node id="-137284" lat="60.5204944455" lon="10.5409416685">
		<tag k="name" v="Skarpefløyta" />
		<tag k="natural" v="wetland" />
		<tag k="ssr:stedsnr" v="457123" />
	</node>
	<node id="-135860" lat="60.5291361096" lon="10.4930111136">
		<tag k="name" v="Kjosbråtån" />
		<tag k="place" v="locality" />
		<tag k="ssr:stedsnr" v="275693" />
	</node>
	<node id="-136960" lat="60.5421916644" lon="10.5512944405">
		<tag k="name" v="Sætermyra" />
		<tag k="natural" v="wetland" />
		<tag k="ssr:stedsnr" v="214314" />
	</node>
	<node id="-135857" lat="60.5275555559" lon="10.5613888814">
		<tag k="name" v="Vollmyra" />
		<tag k="natural" v="wetland" />
		<tag k="ssr:stedsnr" v="275301" />
	</node>
	<node id="-135855" lat="60.5136055563" lon="10.5656444502">
		<tag k="name" v="Måsåmyra" />
		<tag k="natural" v="wetland" />
		<tag k="ssr:stedsnr" v="275147" />
	</node>
	<node id="-135854" lat="60.5142250001" lon="10.4912222271">
		<tag k="name" v="Storfløyta" />
		<tag k="natural" v="wetland" />
		<tag k="ssr:stedsnr" v="275113" />
	</node>
	<node id="-138413" lat="60.3319638864" lon="10.7820666667">
		<tag k="name" v="Krukkemyra" />
		<tag k="natural" v="wetland" />
		<tag k="ssr:stedsnr" v="855280" />
	</node>
	<node id="-136875" lat="60.4887250013" lon="10.3510666607">
		<tag k="name" v="Langmyra" />
		<tag k="natural" v="wetland" />
		<tag k="ssr:stedsnr" v="188337" />
	</node>
	<node id="-135879" lat="60.4393472237" lon="10.1905805508">
		<tag k="name" v="Lysingen" />
		<tag k="place" v="locality" />
		<tag k="ssr:stedsnr" v="294268" />
	</node>
	<node id="-135848" lat="60.3380166692" lon="10.5080222271">
		<tag k="name" v="Trollmyra" />
		<tag k="natural" v="wetland" />
		<tag k="ssr:stedsnr" v="274391" />
	</node>
	<node id="-137895" lat="60.4893833324" lon="10.3251083415">
		<tag k="name" v="Grytebekkmyra" />
		<tag k="natural" v="wetland" />
		<tag k="ssr:stedsnr" v="673708" />
	</node>
	<node id="-137382" lat="60.5090777751" lon="10.4593166592">
		<tag k="historic" v="shieling" />
		<tag k="name" v="Nordre Syljusætra" />
		<tag k="place" v="locality" />
		<tag k="ssr:stedsnr" v="509540" />
	</node>
	<node id="-135844" lat="60.4442583326" lon="10.4588944446">
		<tag k="name" v="Bakkegjerdinga" />
		<tag k="place" v="locality" />
		<tag k="ssr:stedsnr" v="274014" />
	</node>
	<node id="-138403" lat="60.534916666" lon="10.1602861146">
		<tag k="name" v="Tjurueldsmyrene" />
		<tag k="natural" v="wetland" />
		<tag k="ssr:stedsnr" v="840937" />
	</node>
	<node id="-137889" lat="60.3897555555" lon="10.7547527688">
		<tag k="name" v="Bestemorsmyra" />
		<tag k="natural" v="wetland" />
		<tag k="ssr:stedsnr" v="673598" />
	</node>
	<node id="-138400" lat="60.4755166633" lon="10.2206250009">
		<tag k="name" v="Søthølmyra" />
		<tag k="natural" v="wetland" />
		<tag k="ssr:stedsnr" v="840769" />
	</node>
	<node id="-135836" lat="60.4017972257" lon="10.5541722201">
		<tag k="name" v="Gjefsenmoen" />
		<tag k="place" v="locality" />
		<tag k="ssr:stedsnr" v="272805" />
	</node>
	<node id="-138395" lat="60.3167500013" lon="10.7882444411">
		<tag k="name" v="Høgmyra" />
		<tag k="natural" v="wetland" />
		<tag k="ssr:stedsnr" v="840545" />
	</node>
	<node id="-136047" lat="60.3398638893" lon="10.9146972206">
		<tag k="name" v="Tangensæterlia" />
		<tag k="place" v="locality" />
		<tag k="ssr:stedsnr" v="354089" />
	</node>
	<node id="-136584" lat="60.4254777799" lon="10.6092055499">
		<tag k="name" v="Revhiholmyra" />
		<tag k="natural" v="wetland" />
		<tag k="ssr:stedsnr" v="90949" />
	</node>
	<node id="-138009" lat="60.3390055567" lon="10.7300027759">
		<tag k="name" v="Handklemoen" />
		<tag k="place" v="locality" />
		<tag k="ssr:stedsnr" v="718358" />
	</node>
	<node id="-137363" lat="60.5074833328" lon="10.2753361026">
		<tag k="name" v="Husmyra" />
		<tag k="natural" v="wetland" />
		<tag k="ssr:stedsnr" v="492426" />
	</node>
	<node id="-138385" lat="60.3525388911" lon="10.8928166671">
		<tag k="name" v="Bokerud" />
		<tag k="place" v="locality" />
		<tag k="ssr:stedsnr" v="840252" />
	</node>
	<node id="-138384" lat="60.3468166691" lon="10.8659277815">
		<tag k="name" v="Bekkemyra" />
		<tag k="natural" v="wetland" />
		<tag k="ssr:stedsnr" v="840177" />
	</node>
	<node id="-138382" lat="60.5065833321" lon="10.1782111031">
		<tag k="name" v="Nilsebråtåbrenna" />
		<tag k="place" v="locality" />
		<tag k="ssr:stedsnr" v="840079" />
	</node>
	<node id="-136842" lat="60.3559361072" lon="10.689233341">
		<tag k="name" v="Stormyra" />
		<tag k="natural" v="wetland" />
		<tag k="ssr:stedsnr" v="188074" />
	</node>
	<node id="-137153" lat="60.4277527777" lon="10.2902111193">
		<tag k="name" v="Kvitmåsåmyra" />
		<tag k="natural" v="wetland" />
		<tag k="ssr:stedsnr" v="415931" />
	</node>
	<node id="-138372" lat="60.3567888906" lon="10.8895972249">
		<tag k="name" v="Hyttemyra" />
		<tag k="natural" v="wetland" />
		<tag k="ssr:stedsnr" v="834210" />
	</node>
	<node id="-137859" lat="60.4839583301" lon="10.2438861119">
		<tag k="name" v="Bergerstormyra" />
		<tag k="natural" v="wetland" />
		<tag k="ssr:stedsnr" v="658669" />
	</node>
	<node id="-138369" lat="60.3768138889" lon="10.3302055526">
		<tag k="name" v="Småmultemyra" />
		<tag k="natural" v="wetland" />
		<tag k="ssr:stedsnr" v="822493" />
	</node>
	<node id="-138368" lat="60.5269333366" lon="10.486561111">
		<tag k="name" v="Sjumannsbråtån" />
		<tag k="place" v="locality" />
		<tag k="ssr:stedsnr" v="821725" />
	</node>
	<node id="-138367" lat="60.5464111095" lon="10.5139361144">
		<tag k="name" v="Tårnmyra" />
		<tag k="natural" v="wetland" />
		<tag k="ssr:stedsnr" v="821718" />
	</node>
	<node id="-138366" lat="60.4409166627" lon="10.6224277703">
		<tag k="name" v="Størrhalsmyra" />
		<tag k="natural" v="wetland" />
		<tag k="ssr:stedsnr" v="821693" />
	</node>
	<node id="-138363" lat="60.4661444426" lon="10.6337472228">
		<tag k="name" v="Valdresmyra" />
		<tag k="natural" v="wetland" />
		<tag k="ssr:stedsnr" v="821531" />
	</node>
	<node id="-138362" lat="60.5125305589" lon="10.602258341">
		<tag k="name" v="Åstjern beitelag" />
		<tag k="place" v="locality" />
		<tag k="ssr:stedsnr" v="821487" />
	</node>
	<node id="-138360" lat="60.5236944415" lon="10.5379916586">
		<tag k="name" v="Småmyrene" />
		<tag k="natural" v="wetland" />
		<tag k="ssr:stedsnr" v="821232" />
	</node>
	<node id="-138516" lat="60.5500833327" lon="10.4337583265">
		<tag k="name" v="Slåttmyrene" />
		<tag k="natural" v="wetland" />
		<tag k="ssr:stedsnr" v="881427" />
	</node>
	<node id="-136293" lat="60.4413416642" lon="10.6029194496">
		<tag k="name" v="Rundmyra" />
		<tag k="natural" v="wetland" />
		<tag k="ssr:stedsnr" v="882596" />
	</node>
	<node id="-137843" lat="60.5068861087" lon="10.2583805632">
		<tag k="name" v="Larsmyra" />
		<tag k="natural" v="wetland" />
		<tag k="ssr:stedsnr" v="658302" />
	</node>
	<node id="-138407" lat="60.3861277762" lon="10.8583055513">
		<tag k="name" v="Merratjernsmyra" />
		<tag k="natural" v="wetland" />
		<tag k="ssr:stedsnr" v="841445" />
	</node>
	<node id="-136979" lat="60.3375388933" lon="10.8937527753">
		<tag k="name" v="Korsmyra" />
		<tag k="natural" v="wetland" />
		<tag k="ssr:stedsnr" v="232078" />
	</node>
	<node id="-138350" lat="60.5326083378" lon="10.4018194515">
		<tag k="name" v="Blekjemyra" />
		<tag k="natural" v="wetland" />
		<tag k="ssr:stedsnr" v="820667" />
	</node>
	<node id="-136037" lat="60.5239666625" lon="10.5277361073">
		<tag k="name" v="Korsbråtåmyra" />
		<tag k="natural" v="wetland" />
		<tag k="ssr:stedsnr" v="336709" />
	</node>
	<node id="-138347" lat="60.4708777761" lon="10.5085111075">
		<tag k="name" v="Kvernvollen" />
		<tag k="place" v="locality" />
		<tag k="ssr:stedsnr" v="820639" />
	</node>
	<node id="-137111" lat="60.4755249962" lon="10.2206083407">
		<tag k="name" v="Stormyra" />
		<tag k="natural" v="wetland" />
		<tag k="ssr:stedsnr" v="415100" />
	</node>
	<node id="-136023" lat="60.5093305582" lon="10.5167027697">
		<tag k="name" v="Svinningsætergjerdinga" />
		<tag k="place" v="locality" />
		<tag k="ssr:stedsnr" v="336145" />
	</node>
	<node id="-138513" lat="60.4887638858" lon="10.5456277712">
		<tag k="name" v="Østefallmyra" />
		<tag k="natural" v="wetland" />
		<tag k="ssr:stedsnr" v="881335" />
	</node>
	<node id="-137147" lat="60.369386107" lon="10.725644439">
		<tag k="name" v="Kalvebrenna" />
		<tag k="place" v="locality" />
		<tag k="ssr:stedsnr" v="415710" />
	</node>
	<node id="-136287" lat="60.4944416691" lon="10.6908166664">
		<tag k="name" v="Stormyra" />
		<tag k="natural" v="wetland" />
		<tag k="ssr:stedsnr" v="882428" />
	</node>
	<node id="-137822" lat="60.4012750022" lon="10.8517833375">
		<tag k="name" v="Sleppmyra" />
		<tag k="natural" v="wetland" />
		<tag k="ssr:stedsnr" v="657090" />
	</node>
	<node id="-137573" lat="60.4082333333" lon="10.6579833348">
		<tag k="name" v="Stormyra" />
		<tag k="natural" v="wetland" />
		<tag k="ssr:stedsnr" v="575565" />
	</node>
	<node id="-137104" lat="60.5344888853" lon="10.588133325">
		<tag k="name" v="Ormsteinsmyra" />
		<tag k="natural" v="wetland" />
		<tag k="ssr:stedsnr" v="250104" />
	</node>
	<node id="-136599" lat="60.4760472253" lon="10.458419448">
		<tag k="name" v="Nordre Bålerud" />
		<tag k="place" v="locality" />
		<tag k="ssr:stedsnr" v="92156" />
	</node>
	<node id="-137946" lat="60.4743944435" lon="10.4773972199">
		<tag k="name" v="Mællerlykkja" />
		<tag k="place" v="locality" />
		<tag k="ssr:stedsnr" v="698150" />
	</node>
	<node id="-136278" lat="60.517700004" lon="10.5023583267">
		<tag k="name" v="Benstimyra" />
		<tag k="natural" v="wetland" />
		<tag k="ssr:stedsnr" v="882109" />
	</node>
	<node id="-136941" lat="60.4875027803" lon="10.4741138931">
		<tag k="name" v="Evenslykkja" />
		<tag k="place" v="locality" />
		<tag k="ssr:stedsnr" v="213345" />
	</node>
	<node id="-138323" lat="60.4320583299" lon="10.5577194425">
		<tag k="name" v="Dælenhagan" />
		<tag k="place" v="locality" />
		<tag k="ssr:stedsnr" v="818641" />
	</node>
	<node id="-137383" lat="60.5154944445" lon="10.4503250053">
		<tag k="name" v="Hallåpmyra" />
		<tag k="natural" v="wetland" />
		<tag k="ssr:stedsnr" v="509547" />
	</node>
	<node id="-136785" lat="60.5197555545" lon="10.5528333338">
		<tag k="landuse" v="quarry" />
		<tag k="name" v="Revhiholen" />
		<tag k="ssr:stedsnr" v="154200" />
	</node>
	<node id="-137144" lat="60.3185888931" lon="10.7632944518">
		<tag k="name" v="Grautbrumyra" />
		<tag k="natural" v="wetland" />
		<tag k="ssr:stedsnr" v="415634" />
	</node>
	<node id="-137294" lat="60.5561694414" lon="10.5477388963">
		<tag k="name" v="Kutjernsmyrene" />
		<tag k="natural" v="wetland" />
		<tag k="ssr:stedsnr" v="457683" />
	</node>
	<node id="-137293" lat="60.4390638892" lon="10.6174222148">
		<tag k="name" v="Skjellmyra" />
		<tag k="natural" v="wetland" />
		<tag k="ssr:stedsnr" v="457656" />
	</node>
	<node id="-137804" lat="60.5044944444" lon="10.6883138812">
		<tag k="name" v="Mosemyra" />
		<tag k="natural" v="wetland" />
		<tag k="ssr:stedsnr" v="639567" />
	</node>
	<node id="-137290" lat="60.5109472212" lon="10.6907083268">
		<tag k="name" v="Rundmyra" />
		<tag k="natural" v="wetland" />
		<tag k="ssr:stedsnr" v="457517" />
	</node>
	<node id="-137289" lat="60.4607138933" lon="10.6074638917">
		<tag k="name" v="Hengedymyrene" />
		<tag k="natural" v="wetland" />
		<tag k="ssr:stedsnr" v="457512" />
	</node>
	<node id="-137800" lat="60.4896166682" lon="10.6028333357">
		<tag k="name" v="Heimstumyra" />
		<tag k="natural" v="wetland" />
		<tag k="ssr:stedsnr" v="639494" />
	</node>
	<node id="-137287" lat="60.3773583369" lon="10.343849995">
		<tag k="name" v="Kvilesteinen" />
		<tag k="natural" v="stone" />
		<tag k="ssr:stedsnr" v="457434" />
	</node>
	<node id="-137798" lat="60.5025805534" lon="10.555599993">
		<tag k="name" v="Nedre Slåttmyra" />
		<tag k="natural" v="wetland" />
		<tag k="ssr:stedsnr" v="639187" />
	</node>
	<node id="-137797" lat="60.5106861137" lon="10.4894638836">
		<tag k="name" v="Veslefløyta" />
		<tag k="natural" v="wetland" />
		<tag k="ssr:stedsnr" v="639154" />
	</node>
	<node id="-137796" lat="60.5058472243" lon="10.5045861196">
		<tag k="name" v="Midtre Bleikenmyra" />
		<tag k="natural" v="wetland" />
		<tag k="ssr:stedsnr" v="639153" />
	</node>
	<node id="-137794" lat="60.5186694487" lon="10.5196666578">
		<tag k="name" v="Puttmyra" />
		<tag k="natural" v="wetland" />
		<tag k="ssr:stedsnr" v="639150" />
	</node>
	<node id="-137792" lat="60.5099944487" lon="10.4944916733">
		<tag k="name" v="Svartputtmyra" />
		<tag k="natural" v="wetland" />
		<tag k="ssr:stedsnr" v="639142" />
	</node>
	<node id="-137275" lat="60.486972218" lon="10.5705027828">
		<tag k="name" v="Skyttermyra" />
		<tag k="natural" v="wetland" />
		<tag k="ssr:stedsnr" v="456341" />
	</node>
	<node id="-137274" lat="60.4905833361" lon="10.5711944479">
		<tag k="name" v="Kommerikemyrene" />
		<tag k="natural" v="wetland" />
		<tag k="ssr:stedsnr" v="456340" />
	</node>
	<node id="-136249" lat="60.3397611082" lon="10.867327777">
		<tag k="name" v="Sætermyra" />
		<tag k="natural" v="wetland" />
		<tag k="ssr:stedsnr" v="475132" />
	</node>
	<node id="-137784" lat="60.5475750027" lon="10.4113861171">
		<tag k="landuse" v="meadow" />
		<tag k="name" v="Gammalsæterbråtån" />
		<tag k="ssr:stedsnr" v="638159" />
	</node>
	<node id="-136246" lat="60.4178111107" lon="10.3354666627">
		<tag k="name" v="Kilmyra" />
		<tag k="natural" v="wetland" />
		<tag k="ssr:stedsnr" v="475066" />
	</node>
	<node id="-137269" lat="60.4450999958" lon="10.4454083294">
		<tag k="name" v="Klebersteinsenga" />
		<tag k="place" v="locality" />
		<tag k="ssr:stedsnr" v="456017" />
	</node>
	<node id="-137267" lat="60.4499055573" lon="10.4596666591">
		<tag k="name" v="Skolemestermyra" />
		<tag k="natural" v="wetland" />
		<tag k="ssr:stedsnr" v="456010" />
	</node>
	<node id="-136467" lat="60.3515888923" lon="10.8610944359">
		<tag k="name" v="Godmyra" />
		<tag k="natural" v="wetland" />
		<tag k="ssr:stedsnr" v="44210" />
	</node>
	<node id="-136627" lat="60.3574249976" lon="10.8822805532">
		<tag k="name" v="Den skakke myra" />
		<tag k="natural" v="wetland" />
		<tag k="old_name" v="Denskakkemyra" />
		<tag k="ssr:stedsnr" v="105227" />
	</node>
	<node id="-136752" lat="60.4195888848" lon="10.6170111049">
		<tag k="name" v="Kringlemyra" />
		<tag k="natural" v="wetland" />
		<tag k="ssr:stedsnr" v="150950" />
	</node>
	<node id="-136456" lat="60.4758694489" lon="10.6141583249">
		<tag k="name" v="Ormebergmyra" />
		<tag k="natural" v="wetland" />
		<tag k="ssr:stedsnr" v="32318" />
	</node>
	<node id="-136238" lat="60.531986114" lon="10.5067972237">
		<tag k="name" v="Almsmyra" />
		<tag k="natural" v="wetland" />
		<tag k="ssr:stedsnr" v="396697" />
	</node>
	<node id="-136285" lat="60.4943527762" lon="10.6468250035">
		<tag k="name" v="Lygnstad" />
		<tag k="place" v="locality" />
		<tag k="ssr:stedsnr" v="882402" />
	</node>
	<node id="-137286" lat="60.50493056" lon="10.5758249949">
		<tag k="name" v="Enputtmyra" />
		<tag k="natural" v="wetland" />
		<tag k="ssr:stedsnr" v="457143" />
	</node>
	<node id="-136234" lat="60.5553138867" lon="10.5669750082">
		<tag k="name" v="Furteroa" />
		<tag k="place" v="locality" />
		<tag k="ssr:stedsnr" v="396669" />
	</node>
	<node id="-136819" lat="60.5347444414" lon="10.1820555479">
		<tag k="name" v="Jonsrudmyrene" />
		<tag k="natural" v="wetland" />
		<tag k="ssr:stedsnr" v="172955" />
	</node>
	<node id="-137767" lat="60.3447055588" lon="10.6384055643">
		<tag k="name" v="Badstubråtån" />
		<tag k="place" v="locality" />
		<tag k="ssr:stedsnr" v="636435" />
	</node>
	<node id="-136230" lat="60.4984972262" lon="10.6830416703">
		<tag k="name" v="Demningsmyra" />
		<tag k="natural" v="wetland" />
		<tag k="ssr:stedsnr" v="396470" />
	</node>
	<node id="-136742" lat="60.3511916641" lon="10.4872138907">
		<tag k="name" v="Bjønnerud" />
		<tag k="place" v="locality" />
		<tag k="ssr:stedsnr" v="149589" />
	</node>
	<node id="-136226" lat="60.5237555591" lon="10.5238416723">
		<tag k="name" v="Fiskemyra" />
		<tag k="natural" v="wetland" />
		<tag k="ssr:stedsnr" v="396207" />
	</node>
	<node id="-136222" lat="60.506647226" lon="10.5702277694">
		<tag k="name" v="Nyleiksmyra" />
		<tag k="natural" v="wetland" />
		<tag k="ssr:stedsnr" v="396134" />
	</node>
	<node id="-136965" lat="60.462963891" lon="10.6145083334">
		<tag k="name" v="Brumyra" />
		<tag k="natural" v="wetland" />
		<tag k="ssr:stedsnr" v="214527" />
	</node>
	<node id="-136220" lat="60.5020749956" lon="10.5089055502">
		<tag k="name" v="Bølhaugmyra" />
		<tag k="natural" v="wetland" />
		<tag k="ssr:stedsnr" v="396105" />
	</node>
	<node id="-136219" lat="60.5028666626" lon="10.5047333369">
		<tag k="name" v="Søre Bleikenmyra" />
		<tag k="natural" v="wetland" />
		<tag k="ssr:stedsnr" v="396104" />
	</node>
	<node id="-137242" lat="60.4668694447" lon="10.5640694502">
		<tag k="name" v="Torvmyra" />
		<tag k="natural" v="wetland" />
		<tag k="ssr:stedsnr" v="456724" />
	</node>
	<node id="-136217" lat="60.4449277816" lon="10.5658833308">
		<tag k="name" v="Maribingen" />
		<tag k="place" v="locality" />
		<tag k="ssr:stedsnr" v="395838" />
	</node>
	<node id="-136216" lat="60.4674527734" lon="10.5560888919">
		<tag k="name" v="Goddalsmyra" />
		<tag k="natural" v="wetland" />
		<tag k="ssr:stedsnr" v="395747" />
	</node>
	<node id="-136281" lat="60.5173833364" lon="10.5498416683">
		<tag k="name" v="Måsåmyra" />
		<tag k="natural" v="wetland" />
		<tag k="ssr:stedsnr" v="882137" />
	</node>
	<node id="-138260" lat="60.40753333" lon="10.6618055606">
		<tag k="name" v="Stormyra" />
		<tag k="natural" v="wetland" />
		<tag k="ssr:stedsnr" v="795216" />
	</node>
	<node id="-137134" lat="60.4089638899" lon="10.6876138867">
		<tag k="name" v="Malsjøbrenna" />
		<tag k="place" v="locality" />
		<tag k="ssr:stedsnr" v="415457" />
	</node>
	<node id="-136209" lat="60.5078805586" lon="10.4676805581">
		<tag k="name" v="Husbråtåmyra" />
		<tag k="natural" v="wetland" />
		<tag k="ssr:stedsnr" v="395636" />
	</node>
	<node id="-136750" lat="60.3779527784" lon="10.6292916616">
		<tag k="name" v="Embrumyr" />
		<tag k="natural" v="wetland" />
		<tag k="ssr:stedsnr" v="150726" />
	</node>
	<node id="-136205" lat="60.4822305522" lon="10.5038722295">
		<tag k="name" v="Søtbekkmyra" />
		<tag k="natural" v="wetland" />
		<tag k="ssr:stedsnr" v="395370" />
	</node>
	<node id="-136450" lat="60.5075055565" lon="10.5098000082">
		<tag k="name" v="Haverbråtåmyra" />
		<tag k="natural" v="wetland" />
		<tag k="ssr:stedsnr" v="32109" />
	</node>
	<node id="-138249" lat="60.5058611131" lon="10.5921083287">
		<tag k="alt_name" v="Råssumsæterstormyra" />
		<tag k="name" v="Rossumsætermyra" />
		<tag k="natural" v="wetland" />
		<tag k="ssr:stedsnr" v="795106" />
	</node>
	<node id="-138247" lat="60.5014583343" lon="10.5687805536">
		<tag k="alt_name" v="Korshaugmyra" />
		<tag k="name" v="Øvre Korshaugmyra" />
		<tag k="natural" v="wetland" />
		<tag k="ssr:stedsnr" v="795093" />
	</node>
	<node id="-135851" lat="60.4746888856" lon="10.5721249938">
		<tag k="name" v="Stormyra" />
		<tag k="natural" v="wetland" />
		<tag k="ssr:stedsnr" v="274704" />
	</node>
</osm>
