<?xml version="1.0" encoding="UTF-8"?>
<osm generator="osmapis" version="0.6">
	<node id="-136157" lat="60.4627277787" lon="10.636702785">
		<tag k="fixme" v="specify shooting=range, clay_pigeon etc" />
		<tag k="leisure" v="pitch" />
		<tag k="name" v="Lygna skytebane" />
		<tag k="sport" v="shooting" />
		<tag k="ssr:stedsnr" v="336523" />
	</node>
	<node id="-136432" lat="60.3589754766" lon="10.4219717833">
		<tag k="fixme" v="consider boundary=protected_area and relevant protect_class if not nature reserve" />
		<tag k="leisure" v="nature_reserve" />
		<tag k="name" v="Jøvika og Tønnerud naturreservat" />
		<tag k="ssr:stedsnr" v="981246" />
	</node>
	<node id="-137706" lat="60.426152782" lon="10.6507944448">
		<tag k="name" v="Tingelstad allmenning" />
		<tag k="place" v="locality" />
		<tag k="ssr:stedsnr" v="575976" />
	</node>
	<node id="-136489" lat="60.3560554225" lon="10.6984450003">
		<tag k="fixme" v="consider boundary=protected_area and relevant protect_class if not nature reserve" />
		<tag k="leisure" v="nature_reserve" />
		<tag k="name" v="Vesleåa naturreservat" />
		<tag k="ssr:stedsnr" v="991096" />
	</node>
	<node id="-136488" lat="60.4001249864" lon="10.7774777452">
		<tag k="fixme" v="consider boundary=protected_area and relevant protect_class if not nature reserve" />
		<tag k="leisure" v="nature_reserve" />
		<tag k="name" v="Avrillen naturreservat" />
		<tag k="ssr:stedsnr" v="991095" />
	</node>
	<node id="-138787" lat="60.5013222266" lon="10.1623777784">
		<tag k="historic" v="boundary_stone" />
		<tag k="man_made" v="cairn" />
		<tag k="name" v="Snellrøysa" />
		<tag k="place" v="locality" />
		<tag k="ssr:stedsnr" v="961071" />
	</node>
</osm>
