<?xml version="1.0" encoding="UTF-8"?>
<osm version="0.6" generator="osmapis">
	<node id="357406765" lat="59.9691298" lon="10.348475" version="2" timestamp="2022-04-15T05:27:20Z" changeset="119736214" uid="3497659" user="NKA">
		<tag k="name" v="Høymyr" />
		<tag k="place" v="farm" />
		<tag k="ssr:stedsnr" v="914030" />
	</node>
	<node id="620105271" lat="60.0770611" lon="10.2790778" version="2" timestamp="2022-04-15T05:27:20Z" changeset="119736214" uid="3497659" user="NKA">
		<tag k="name" v="Vik" />
		<tag k="place" v="village" />
		<tag k="ssr:stedsnr" v="854282" />
	</node>
	<node id="2982482204" lat="59.9698961" lon="10.3548222" version="5" timestamp="2022-04-15T05:27:20Z" changeset="119736214" uid="3497659" user="NKA">
		<tag k="alt_name" v="Niskinnsetra" />
		<tag k="end_date" v="1936" />
		<tag k="historic" v="shieling" />
		<tag k="historic:operator" v="Nordre Sørum;Midtre Sørum" />
		<tag k="name" v="Sørumsetra" />
		<tag k="place" v="isolated_dwelling" />
		<tag k="ssr:stedsnr" v="451299" />
	</node>
	<node id="2983075778" lat="60.000469" lon="10.381139" version="5" timestamp="2022-04-15T05:27:20Z" changeset="119736214" uid="3497659" user="NKA">
		<tag k="alt_name" v="Bjerkesetra" />
		<tag k="end_date" v="1936" />
		<tag k="historic" v="shieling" />
		<tag k="historic:operator" v="Øderå" />
		<tag k="name" v="Bjørkesetra" />
		<tag k="official_name" v="Bjerkesetra" />
		<tag k="place" v="locality" />
		<tag k="ssr:stedsnr" v="147155" />
	</node>
	<node id="2983075779" lat="60.0288141" lon="10.2857881" version="5" timestamp="2022-04-15T05:27:20Z" changeset="119736214" uid="3497659" user="NKA">
		<tag k="alt_name" v="By-Flaksetra" />
		<tag k="historic" v="shieling" />
		<tag k="historic:operator" v="By;Vestre By;Libakke" />
		<tag k="name" v="Byflaksetra" />
		<tag k="official_name" v="By-Flaksetra" />
		<tag k="place" v="isolated_dwelling" />
		<tag k="ssr:stedsnr" v="793346" />
	</node>
	<node id="2983075780" lat="60.0217035" lon="10.3054657" version="7" timestamp="2022-04-15T05:27:20Z" changeset="119736214" uid="3497659" user="NKA">
		<tag k="alt_name" v="Finne-Flaksætra" />
		<tag k="end_date" v="1945" />
		<tag k="historic" v="shieling" />
		<tag k="historic:operator" v="Frøyhov/Frøhaug;Nordre Gjesval" />
		<tag k="name" v="Finneflaksetra" />
		<tag k="old_name" v="Flagsetra" />
		<tag k="place" v="isolated_dwelling" />
		<tag k="ssr:stedsnr" v="733318" />
	</node>
	<node id="2983075782" lat="60.0216156" lon="10.3384349" version="6" timestamp="2022-04-15T05:27:20Z" changeset="119736214" uid="3497659" user="NKA">
		<tag k="alt_name" v="Kneikasetra" />
		<tag k="end_date" v="1947" />
		<tag k="historic" v="shieling" />
		<tag k="historic:operator" v="Nordre Dæli;Fjell" />
		<tag k="name" v="Kneikasetra" />
		<tag k="official_name" v="Kneika" />
		<tag k="place" v="isolated_dwelling" />
		<tag k="ssr:stedsnr" v="430337" />
	</node>
	<node id="2983075783" lat="60.0325807" lon="10.4128455" version="6" timestamp="2022-04-15T05:27:20Z" changeset="119736214" uid="3497659" user="NKA">
		<tag k="alt_name" v="Myrsetra" />
		<tag k="historic" v="shieling" />
		<tag k="historic:operator" v="Østre Rud;Ner-Nigarden Hårum" />
		<tag k="loc_name" v="Myrersetrene" />
		<tag k="name" v="Myrsetra" />
		<tag k="official_name" v="Myrsætra" />
		<tag k="old_name" v="Mosbergmyrsetra" />
		<tag k="place" v="isolated_dwelling" />
		<tag k="ssr:stedsnr" v="842954" />
	</node>
	<node id="2983075785" lat="60.0137351" lon="10.2912734" version="6" timestamp="2022-04-15T05:27:20Z" changeset="119736214" uid="3497659" user="NKA">
		<tag k="alt_name" v="Nessetra" />
		<tag k="end_date" v="1950" />
		<tag k="historic" v="shieling" />
		<tag k="name" v="Nesseter" />
		<tag k="official_name" v="Nessetra" />
		<tag k="place" v="isolated_dwelling" />
		<tag k="ssr:stedsnr" v="248388" />
	</node>
	<node id="2983075786" lat="60.0355775" lon="10.3237049" version="6" timestamp="2022-04-15T05:27:20Z" changeset="119736214" uid="3497659" user="NKA">
		<tag k="end_date" v="1938" />
		<tag k="historic" v="shieling" />
		<tag k="historic:operator" v="Fekjær;Bili;Øvre Vik;Rudsødegården;Hole prestegård;Kroksund" />
		<tag k="name" v="Nordsetra" />
		<tag k="official_name" v="Nordseter" />
		<tag k="place" v="isolated_dwelling" />
		<tag k="ssr:stedsnr" v="490312" />
	</node>
	<node id="2983075787" lat="59.9921389" lon="10.3415583" version="5" timestamp="2022-04-15T05:27:20Z" changeset="119736214" uid="3497659" user="NKA">
		<tag k="end_date" v="1935" />
		<tag k="historic" v="shieling" />
		<tag k="historic:operator" v="Lille Hundstad;Gomnes;Vestre Rud" />
		<tag k="name" v="Nysetra" />
		<tag k="place" v="locality" />
		<tag k="ssr:stedsnr" v="269345" />
	</node>
	<node id="2983075788" lat="60.0193179" lon="10.4074676" version="6" timestamp="2022-04-15T05:27:20Z" changeset="119736214" uid="3497659" user="NKA">
		<tag k="alt_name" v="Soterudsetrene" />
		<tag k="historic" v="shieling" />
		<tag k="historic:operator" v="Hafnor;Øvre Leine;Østre Bjørke;Øderå" />
		<tag k="name" v="Soterudsetra" />
		<tag k="official_name" v="Soterud" />
		<tag k="old_name" v="Soterud" />
		<tag k="place" v="locality" />
		<tag k="ssr:stedsnr" v="734984" />
	</node>
	<node id="2983075789" lat="59.9877028" lon="10.3973305" version="5" timestamp="2022-04-15T05:27:20Z" changeset="119736214" uid="3497659" user="NKA">
		<tag k="end_date" v="1930" />
		<tag k="historic" v="shieling" />
		<tag k="historic:operator" v="Stein" />
		<tag k="name" v="Steinsvollen" />
		<tag k="place" v="isolated_dwelling" />
		<tag k="ssr:stedsnr" v="914110" />
	</node>
	<node id="2983075790" lat="60.0000767" lon="10.3005923" version="5" timestamp="2022-04-15T05:27:20Z" changeset="119736214" uid="3497659" user="NKA">
		<tag k="alt_name" v="Sønsterudsetra" />
		<tag k="end_date" v="1860" />
		<tag k="historic" v="shieling" />
		<tag k="name" v="Sønsterudseter" />
		<tag k="official_name" v="Sønsterudsetra" />
		<tag k="place" v="isolated_dwelling" />
		<tag k="ssr:stedsnr" v="188476" />
	</node>
	<node id="2983075791" lat="60.0200741" lon="10.3288716" version="6" timestamp="2022-04-15T05:27:20Z" changeset="119736214" uid="3497659" user="NKA">
		<tag k="historic" v="shieling" />
		<tag k="historic:operator" v="Hamnor/Hafnor;Domholt;Kroksundødegården østre og vestre;Øverjordet;Kroksund;Øvre Løken;Nedre Løken;Søndre Gjesval;Nordre Gjesval;Gomnes søndre;Gomnes nordre;Vestre Vik;Mosenga (Leine)" />
		<tag k="name" v="Sørsetra" />
		<tag k="official_name" v="Sørseter" />
		<tag k="place" v="hamlet" />
		<tag k="ssr:stedsnr" v="733317" />
	</node>
	<node id="2983075792" lat="60.0423285" lon="10.343158" version="7" timestamp="2022-04-15T05:27:20Z" changeset="119736214" uid="3497659" user="NKA">
		<tag k="alt_name" v="Torgesetra" />
		<tag k="end_date" v="1950" />
		<tag k="historic" v="shieling" />
		<tag k="historic:operator" v="Vestre Bjørke" />
		<tag k="loc_name" v="Tørje" />
		<tag k="name" v="Torgesetra" />
		<tag k="official_name" v="Torgesætra" />
		<tag k="old_name" v="Torget" />
		<tag k="place" v="isolated_dwelling" />
		<tag k="ssr:stedsnr" v="356970" />
	</node>
	<node id="2983078914" lat="60.032628" lon="10.3739172" version="7" timestamp="2022-04-15T05:27:20Z" changeset="119736214" uid="3497659" user="NKA">
		<tag k="alt_name" v="Øskjevallsetrene" />
		<tag k="end_date" v="1952" />
		<tag k="historic" v="shieling" />
		<tag k="historic:operator" v="Søhol (Øvre Ullern);Dæli;Lille Bønsnes;Gomnes" />
		<tag k="loc_name" v="Øsjevalsetra" />
		<tag k="name" v="Øskjevallsetra" />
		<tag k="place" v="isolated_dwelling" />
		<tag k="ssr:stedsnr" v="842956" />
	</node>
	<node id="2983078916" lat="60.004992" lon="10.396928" version="5" timestamp="2022-04-15T05:27:20Z" changeset="119736214" uid="3497659" user="NKA">
		<tag k="alt_name" v="Øyersetra" />
		<tag k="end_date" v="1920" />
		<tag k="historic" v="shieling" />
		<tag k="historic:operator" v="Onsager;Nordre Gjesval" />
		<tag k="loc_name" v="Øiersetra" />
		<tag k="name" v="Øyersetra" />
		<tag k="place" v="locality" />
		<tag k="ssr:stedsnr" v="369876" />
	</node>
	<node id="2984320573" lat="60.0591748" lon="10.3472838" version="8" timestamp="2022-04-15T05:27:20Z" changeset="119736214" uid="3497659" user="NKA">
		<tag k="end_date" v="1972" />
		<tag k="historic" v="shieling" />
		<tag k="historic:operator" v="Mo (Nedre Mo);Hundstad;Svarstad;Fjelstad;Hamnor;Ullern;Libakke;[Søndre Lore]" />
		<tag k="name" v="Retthella" />
		<tag k="old_name" v="Retelseter" />
		<tag k="operator" v="Hole Historielag" />
		<tag k="place" v="isolated_dwelling" />
		<tag k="ssr:stedsnr" v="6213" />
	</node>
	<node id="2986654881" lat="60.0410474" lon="10.4522758" version="6" timestamp="2022-04-15T05:27:20Z" changeset="119736214" uid="3497659" user="NKA">
		<tag k="alt_name" v="Kampeseter" />
		<tag k="end_date" v="1890" />
		<tag k="historic" v="shieling" />
		<tag k="historic:operator" v="Høgstua og Vestigarden Hårum;Lore;Norderhov prestegård;Vestre Hønen (Ringvold);Gusgården;Trøgstad" />
		<tag k="loc_name" v="Kampesetrene" />
		<tag k="name" v="Kampesetra" />
		<tag k="official_name" v="Kampesætra" />
		<tag k="place" v="hamlet" />
		<tag k="ssr:stedsnr" v="843943" />
	</node>
	<node id="2986654882" lat="59.9866694" lon="10.3558305" version="8" timestamp="2022-04-15T05:27:20Z" changeset="119736214" uid="3497659" user="NKA">
		<tag k="alt_name" v="Rønningen;Rønningssetermarken" />
		<tag k="historic" v="shieling" />
		<tag k="historic:operator" v="Søndre By;Helgeland" />
		<tag k="name" v="Rønningsetra" />
		<tag k="official_name" v="Rønningen" />
		<tag k="place" v="locality" />
		<tag k="ssr:stedsnr" v="793108" />
	</node>
	<node id="2986657876" lat="60.0152222" lon="10.3901334" version="4" timestamp="2022-04-15T05:27:20Z" changeset="119736214" uid="3497659" user="NKA">
		<tag k="alt_name" v="Dammersplass" />
		<tag k="end_date" v="1949" />
		<tag k="historic" v="shieling" />
		<tag k="historic:operator" v="Øver-Nigarden Hårum" />
		<tag k="name" v="Dammersplassen" />
		<tag k="old_name" v="Langen" />
		<tag k="place" v="isolated_dwelling" />
		<tag k="ssr:stedsnr" v="916978" />
	</node>
	<node id="2991208034" lat="59.9700621" lon="10.3229056" version="2" timestamp="2022-04-15T05:27:20Z" changeset="119736214" uid="3497659" user="NKA">
		<tag k="abandoned" v="yes" />
		<tag k="name" v="Fjulsrud" />
		<tag k="place" v="farm" />
		<tag k="ssr:stedsnr" v="186532" />
	</node>
	<node id="3376772362" lat="59.9685291" lon="10.3295604" version="3" timestamp="2022-04-15T05:27:20Z" changeset="119736214" uid="3497659" user="NKA">
		<tag k="name" v="Gorrmyr" />
		<tag k="official_name" v="Myra" />
		<tag k="place" v="isolated_dwelling" />
		<tag k="ssr:stedsnr" v="64470" />
	</node>
	<node id="3667041832" lat="59.9751232" lon="10.3328846" version="4" timestamp="2022-04-15T05:27:20Z" changeset="119736214" uid="3497659" user="NKA">
		<tag k="name" v="Berntsegård" />
		<tag k="place" v="locality" />
		<tag k="ssr:stedsnr" v="633301" />
	</node>
	<node id="4267003356" lat="59.9949366" lon="10.3221419" version="3" timestamp="2022-04-15T05:27:20Z" changeset="119736214" uid="3497659" user="NKA">
		<tag k="description" v="Ved Høgås sto det ei hytte som fungerte som skjenke- og hvilested for kølakjørere. Hytta ble kalt Møllbakk “stedet mellom bakkene”. Møllbakk var et knutepunkt, der flere skogsveger møttes." />
		<tag k="historic" v="croft" />
		<tag k="name" v="Møllbakk" />
		<tag k="place" v="locality" />
		<tag k="ssr:stedsnr" v="429449" />
	</node>
	<node id="4294935730" lat="60.0506127" lon="10.4209566" version="2" timestamp="2022-04-15T05:27:20Z" changeset="119736214" uid="3497659" user="NKA">
		<tag k="name" v="Monsebråten" />
		<tag k="official_name" v="Monsebråtan" />
		<tag k="place" v="farm" />
		<tag k="ssr:stedsnr" v="369186" />
	</node>
	<node id="4295811582" lat="60.031118" lon="10.4010538" version="2" timestamp="2022-04-15T05:27:20Z" changeset="119736214" uid="3497659" user="NKA">
		<tag k="alt_name" v="Lomvollhytta" />
		<tag k="name" v="Lomvoll" />
		<tag k="place" v="isolated_dwelling" />
		<tag k="ssr:stedsnr" v="127000" />
	</node>
	<node id="4348906630" lat="59.9986959" lon="10.2799361" version="2" timestamp="2022-04-15T05:27:20Z" changeset="119736214" uid="3497659" user="NKA">
		<tag k="name" v="Nedre Nes" />
		<tag k="place" v="farm" />
		<tag k="ssr:stedsnr" v="307479" />
	</node>
	<node id="4348906682" lat="60.0057706" lon="10.2713746" version="2" timestamp="2022-04-15T05:27:20Z" changeset="119736214" uid="3497659" user="NKA">
		<tag k="name" v="Øvre Nes" />
		<tag k="official_name" v="Øgarden" />
		<tag k="place" v="farm" />
		<tag k="ssr:stedsnr" v="430392" />
	</node>
	<node id="4348907190" lat="60.0028273" lon="10.2684858" version="2" timestamp="2022-04-15T05:27:20Z" changeset="119736214" uid="3497659" user="NKA">
		<tag k="alt_name" v="Nes Store" />
		<tag k="name" v="Store Nes" />
		<tag k="official_name" v="Øvre Nes" />
		<tag k="place" v="farm" />
		<tag k="ssr:stedsnr" v="916452" />
	</node>
	<node id="4485937514" lat="59.9604522" lon="10.340206" version="2" timestamp="2022-04-15T05:27:20Z" changeset="119736214" uid="3497659" user="NKA">
		<tag k="name" v="Skrenten" />
		<tag k="place" v="isolated_dwelling" />
		<tag k="ssr:stedsnr" v="204540" />
	</node>
	<node id="6230982391" lat="60.0783353" lon="10.1968082" version="2" timestamp="2022-04-15T05:27:20Z" changeset="119736214" uid="3497659" user="NKA">
		<tag k="name" v="Røyse" />
		<tag k="place" v="quarter" />
		<tag k="ssr:stedsnr" v="566177" />
	</node>
	<node id="6234312533" lat="60.062583" lon="10.3071438" version="5" timestamp="2022-04-15T05:27:20Z" changeset="119736214" uid="3497659" user="NKA">
		<tag k="name" v="Sundvollen" />
		<tag k="place" v="village" />
		<tag k="population" v="1175" />
		<tag k="population:date" v="2021-01-01" />
		<tag k="ref:ssb_tettsted" v="2045" />
		<tag k="source:population" v="SSB - befolkning i tettstedet" />
		<tag k="ssr:stedsnr" v="490334" />
	</node>
	<node id="6900391446" lat="60.0914259" lon="10.2106842" version="2" timestamp="2022-01-31T06:42:31Z" changeset="116807300" uid="3497659" user="NKA">
		<tag k="junction" v="yes" />
		<tag k="name" v="Familiekroken" />
		<tag k="ssr:stedsnr" v="146665" />
	</node>
	<node id="6900400265" lat="60.0615697" lon="10.1815379" version="2" timestamp="2022-01-31T06:42:31Z" changeset="116807300" uid="3497659" user="NKA">
		<tag k="junction" v="yes" />
		<tag k="name" v="Kroken" />
		<tag k="ssr:stedsnr" v="936525" />
	</node>
	<node id="7149692639" lat="60.0888795" lon="10.2881619" version="4" timestamp="2022-04-15T05:27:20Z" changeset="119736214" uid="3497659" user="NKA">
		<tag k="name" v="Steinsåsen" />
		<tag k="place" v="quarter" />
		<tag k="population" v="2052" />
		<tag k="population:date" v="2021-01-01" />
		<tag k="ref:ssb_tettsted" v="2041" />
		<tag k="source:population" v="SSB - befolkning i tettstedet" />
		<tag k="ssr:stedsnr" v="733276" />
	</node>
	<node id="7149692640" lat="60.0782966" lon="10.1743623" version="4" timestamp="2022-04-15T05:27:20Z" changeset="119736214" uid="3497659" user="NKA">
		<tag k="name" v="Gomnes" />
		<tag k="place" v="quarter" />
		<tag k="population" v="368" />
		<tag k="population:date" v="2021-01-01" />
		<tag k="ref:ssb_tettsted" v="2043" />
		<tag k="source:population" v="SSB - befolkning i tettstedet" />
		<tag k="ssr:stedsnr" v="126286" />
	</node>
	<node id="7149692641" lat="60.1154514" lon="10.2332154" version="4" timestamp="2022-04-15T05:27:20Z" changeset="119736214" uid="3497659" user="NKA">
		<tag k="name" v="Helgelandsmoen" />
		<tag k="old_name" v="Snadden" />
		<tag k="place" v="quarter" />
		<tag k="population" v="546" />
		<tag k="population:date" v="2021-01-01" />
		<tag k="ref:ssb_tettsted" v="2042" />
		<tag k="source:population" v="SSB - befolkning i tettstedet" />
		<tag k="ssr:stedsnr" v="222326" />
	</node>
	<node id="7149692642" lat="60.0663285" lon="10.2969919" version="4" timestamp="2022-04-15T05:27:20Z" changeset="119736214" uid="3497659" user="NKA">
		<tag k="name" v="Kroksund" />
		<tag k="place" v="quarter" />
		<tag k="population" v="330" />
		<tag k="population:date" v="2021-01-01" />
		<tag k="ref:ssb_tettsted" v="2044" />
		<tag k="source:population" v="SSB - befolkning i tettstedet" />
		<tag k="ssr:stedsnr" v="5328" />
	</node>
	<node id="9667317264" lat="59.9720389" lon="10.3232528" version="1" timestamp="2022-04-15T05:27:20Z" changeset="119736214" uid="3497659" user="NKA">
		<tag k="name" v="Nordland" />
		<tag k="place" v="farm" />
		<tag k="ssr:stedsnr" v="64485" />
	</node>
	<node id="9667317265" lat="60.0958805" lon="10.2138805" version="1" timestamp="2022-04-15T05:27:20Z" changeset="119736214" uid="3497659" user="NKA">
		<tag k="name" v="Kirkevoll" />
		<tag k="place" v="farm" />
		<tag k="ssr:stedsnr" v="753639" />
	</node>
	<node id="9667317266" lat="60.0932084" lon="10.2182362" version="1" timestamp="2022-04-15T05:27:20Z" changeset="119736214" uid="3497659" user="NKA">
		<tag k="name" v="Libakke" />
		<tag k="place" v="farm" />
		<tag k="ssr:stedsnr" v="490264" />
	</node>
	<node id="9667317267" lat="60.0568944" lon="10.2982166" version="1" timestamp="2022-04-15T05:27:20Z" changeset="119736214" uid="3497659" user="NKA">
		<tag k="name" v="Tyriheim" />
		<tag k="old_name" v="Tyriheimen" />
		<tag k="place" v="isolated_dwelling" />
		<tag k="ssr:stedsnr" v="5348" />
	</node>
	<node id="9667317268" lat="60.069225" lon="10.19865" version="1" timestamp="2022-04-15T05:27:20Z" changeset="119736214" uid="3497659" user="NKA">
		<tag k="name" v="Mosenga" />
		<tag k="place" v="farm" />
		<tag k="ssr:stedsnr" v="247252" />
	</node>
	<node id="9667317269" lat="60.0128667" lon="10.2658945" version="1" timestamp="2022-04-15T05:27:20Z" changeset="119736214" uid="3497659" user="NKA">
		<tag k="name" v="Berget" />
		<tag k="place" v="farm" />
		<tag k="ssr:stedsnr" v="915391" />
	</node>
	<node id="9667317270" lat="60.0801922" lon="10.2185014" version="1" timestamp="2022-04-15T05:27:20Z" changeset="119736214" uid="3497659" user="NKA">
		<tag k="alt_name" v="Ulleren" />
		<tag k="name" v="Ullern" />
		<tag k="place" v="hamlet" />
		<tag k="ssr:stedsnr" v="308274" />
	</node>
	<node id="9667317271" lat="60.0812278" lon="10.2076028" version="1" timestamp="2022-04-15T05:27:20Z" changeset="119736214" uid="3497659" user="NKA">
		<tag k="name" v="Nedre Fjelstad" />
		<tag k="place" v="farm" />
		<tag k="ssr:stedsnr" v="814979" />
	</node>
	<node id="9667317272" lat="60.1030139" lon="10.1992111" version="1" timestamp="2022-04-15T05:27:20Z" changeset="119736214" uid="3497659" user="NKA">
		<tag k="name" v="Tomta" />
		<tag k="place" v="isolated_dwelling" />
		<tag k="ssr:stedsnr" v="633673" />
	</node>
	<node id="9667317273" lat="60.0638" lon="10.173325" version="1" timestamp="2022-04-15T05:27:20Z" changeset="119736214" uid="3497659" user="NKA">
		<tag k="alt_name" v="Hodt" />
		<tag k="name" v="Hott" />
		<tag k="place" v="farm" />
		<tag k="ssr:stedsnr" v="308251" />
	</node>
	<node id="9667317274" lat="60.0943278" lon="10.2114778" version="1" timestamp="2022-04-15T05:27:20Z" changeset="119736214" uid="3497659" user="NKA">
		<tag k="name" v="Kirkenær" />
		<tag k="place" v="farm" />
		<tag k="ssr:stedsnr" v="268663" />
	</node>
	<node id="9667317275" lat="60.0775002" lon="10.27686" version="1" timestamp="2022-04-15T05:27:20Z" changeset="119736214" uid="3497659" user="NKA">
		<tag k="alt_name" v="Vik Søndre" />
		<tag k="name" v="Søndre Vik" />
		<tag k="place" v="farm" />
		<tag k="ssr:stedsnr" v="817610" />
	</node>
	<node id="9667317276" lat="60.0126472" lon="10.4026695" version="1" timestamp="2022-04-15T05:27:20Z" changeset="119736214" uid="3497659" user="NKA">
		<tag k="name" v="Soterudhytta" />
		<tag k="place" v="isolated_dwelling" />
		<tag k="ssr:stedsnr" v="248891" />
	</node>
	<node id="9667317277" lat="60.0664414" lon="10.3779512" version="1" timestamp="2022-04-15T05:27:20Z" changeset="119736214" uid="3497659" user="NKA">
		<tag k="alt_name" v="Fjellsetrene" />
		<tag k="historic" v="shieling" />
		<tag k="name" v="Fjellsetra" />
		<tag k="place" v="hamlet" />
		<tag k="ssr:stedsnr" v="660213" />
	</node>
	<node id="9667317278" lat="60.081583" lon="10.280275" version="1" timestamp="2022-04-15T05:27:20Z" changeset="119736214" uid="3497659" user="NKA">
		<tag k="name" v="Vik" />
		<tag k="place" v="farm" />
		<tag k="ssr:stedsnr" v="331628" />
	</node>
	<node id="9667317279" lat="60.0891528" lon="10.2630749" version="1" timestamp="2022-04-15T05:27:20Z" changeset="119736214" uid="3497659" user="NKA">
		<tag k="alt_name" v="Storbråtan" />
		<tag k="name" v="Bråtan" />
		<tag k="place" v="farm" />
		<tag k="ssr:stedsnr" v="368310" />
	</node>
	<node id="9667317280" lat="60.0838472" lon="10.2307416" version="1" timestamp="2022-04-15T05:27:20Z" changeset="119736214" uid="3497659" user="NKA">
		<tag k="name" v="Gunnhaug" />
		<tag k="place" v="farm" />
		<tag k="ssr:stedsnr" v="450986" />
	</node>
	<node id="9667317281" lat="60.0722365" lon="10.172718" version="1" timestamp="2022-04-15T05:27:20Z" changeset="119736214" uid="3497659" user="NKA">
		<tag k="alt_name" v="Vestre Rud;Rud vestre" />
		<tag k="name" v="Rud" />
		<tag k="place" v="hamlet" />
		<tag k="ssr:stedsnr" v="915234" />
	</node>
	<node id="9667317282" lat="60.0690257" lon="10.2636132" version="1" timestamp="2022-04-15T05:27:20Z" changeset="119736214" uid="3497659" user="NKA">
		<tag k="name" v="Flata" />
		<tag k="place" v="farm" />
		<tag k="ssr:stedsnr" v="511882" />
	</node>
	<node id="9667317283" lat="60.0487584" lon="10.262725" version="1" timestamp="2022-04-15T05:27:20Z" changeset="119736214" uid="3497659" user="NKA">
		<tag k="name" v="Blomsplassen" />
		<tag k="place" v="farm" />
		<tag k="ssr:stedsnr" v="874652" />
	</node>
	<node id="9667317284" lat="60.0273152" lon="10.2611616" version="1" timestamp="2022-04-15T05:27:20Z" changeset="119736214" uid="3497659" user="NKA">
		<tag k="name" v="Utvika" />
		<tag k="place" v="hamlet" />
		<tag k="ssr:stedsnr" v="308290" />
	</node>
	<node id="9667317285" lat="60.034681" lon="10.3389834" version="1" timestamp="2022-04-15T05:27:20Z" changeset="119736214" uid="3497659" user="NKA">
		<tag k="name" v="Bureheim" />
		<tag k="place" v="isolated_dwelling" />
		<tag k="ssr:stedsnr" v="915307" />
	</node>
	<node id="9667317286" lat="60.0960639" lon="10.2713944" version="1" timestamp="2022-04-15T05:27:20Z" changeset="119736214" uid="3497659" user="NKA">
		<tag k="name" v="Bekkebråtan" />
		<tag k="place" v="farm" />
		<tag k="ssr:stedsnr" v="451696" />
	</node>
	<node id="9667317287" lat="60.0738778" lon="10.1700833" version="1" timestamp="2022-04-15T05:27:20Z" changeset="119736214" uid="3497659" user="NKA">
		<tag k="name" v="Sersjantløkka" />
		<tag k="place" v="farm" />
		<tag k="ssr:stedsnr" v="550250" />
	</node>
	<node id="9667317288" lat="60.0657639" lon="10.1970167" version="1" timestamp="2022-04-15T05:27:20Z" changeset="119736214" uid="3497659" user="NKA">
		<tag k="name" v="Jurpland" />
		<tag k="place" v="farm" />
		<tag k="ssr:stedsnr" v="451542" />
	</node>
	<node id="9667317289" lat="59.9961706" lon="10.2871593" version="1" timestamp="2022-04-15T05:27:20Z" changeset="119736214" uid="3497659" user="NKA">
		<tag k="name" v="Hassellund" />
		<tag k="place" v="farm" />
		<tag k="ssr:stedsnr" v="1081606" />
	</node>
	<node id="9667317290" lat="60.0620889" lon="10.1983333" version="1" timestamp="2022-04-15T05:27:20Z" changeset="119736214" uid="3497659" user="NKA">
		<tag k="name" v="Nylendet" />
		<tag k="place" v="farm" />
		<tag k="ssr:stedsnr" v="693545" />
	</node>
	<node id="9667317291" lat="60.1041917" lon="10.2015" version="1" timestamp="2022-04-15T05:27:20Z" changeset="119736214" uid="3497659" user="NKA">
		<tag k="name" v="Domholt" />
		<tag k="place" v="farm" />
		<tag k="ssr:stedsnr" v="733703" />
	</node>
	<node id="9667317292" lat="60.0601875" lon="10.206916" version="1" timestamp="2022-04-15T05:27:20Z" changeset="119736214" uid="3497659" user="NKA">
		<tag k="name" v="Søndre Svarstad" />
		<tag k="place" v="farm" />
		<tag k="ssr:stedsnr" v="208561" />
	</node>
	<node id="9667317293" lat="60.0882955" lon="10.2660278" version="1" timestamp="2022-04-15T05:27:20Z" changeset="119736214" uid="3497659" user="NKA">
		<tag k="name" v="Åsstua" />
		<tag k="place" v="farm" />
		<tag k="ssr:stedsnr" v="877535" />
	</node>
	<node id="9667317294" lat="59.9947138" lon="10.2908666" version="1" timestamp="2022-04-15T05:27:20Z" changeset="119736214" uid="3497659" user="NKA">
		<tag k="name" v="Bråtan" />
		<tag k="place" v="hamlet" />
		<tag k="ssr:stedsnr" v="512388" />
	</node>
	<node id="9667317295" lat="60.1106417" lon="10.2075583" version="1" timestamp="2022-04-15T05:27:20Z" changeset="119736214" uid="3497659" user="NKA">
		<tag k="name" v="Tjernet" />
		<tag k="place" v="farm" />
		<tag k="ssr:stedsnr" v="875661" />
	</node>
	<node id="9667317296" lat="60.0793167" lon="10.2031056" version="1" timestamp="2022-04-15T05:27:20Z" changeset="119736214" uid="3497659" user="NKA">
		<tag k="name" v="Sørdalen" />
		<tag k="place" v="farm" />
		<tag k="ssr:stedsnr" v="86982" />
	</node>
	<node id="9667317297" lat="60.0919349" lon="10.2894581" version="1" timestamp="2022-04-15T05:27:20Z" changeset="119736214" uid="3497659" user="NKA">
		<tag k="alt_name" v="Østre Rud" />
		<tag k="name" v="Rud" />
		<tag k="place" v="neighbourhood" />
		<tag k="ssr:stedsnr" v="4289" />
	</node>
	<node id="9667317298" lat="60.0922639" lon="10.2653001" version="1" timestamp="2022-04-15T05:27:20Z" changeset="119736214" uid="3497659" user="NKA">
		<tag k="name" v="Sønsteby" />
		<tag k="place" v="farm" />
		<tag k="ssr:stedsnr" v="512722" />
	</node>
	<node id="9667317299" lat="59.9654056" lon="10.3400556" version="1" timestamp="2022-04-15T05:27:20Z" changeset="119736214" uid="3497659" user="NKA">
		<tag k="name" v="Kleiva" />
		<tag k="place" v="farm" />
		<tag k="ssr:stedsnr" v="147274" />
	</node>
	<node id="9667317300" lat="60.0971556" lon="10.2676417" version="1" timestamp="2022-04-15T05:27:20Z" changeset="119736214" uid="3497659" user="NKA">
		<tag k="name" v="Brenna" />
		<tag k="place" v="farm" />
		<tag k="ssr:stedsnr" v="65725" />
	</node>
	<node id="9667317301" lat="60.064675" lon="10.29005" version="1" timestamp="2022-04-15T05:27:20Z" changeset="119736214" uid="3497659" user="NKA">
		<tag k="name" v="Rudsøgarden" />
		<tag k="place" v="farm" />
		<tag k="ssr:stedsnr" v="490260" />
	</node>
	<node id="9667317302" lat="60.1221872" lon="10.3022293" version="1" timestamp="2022-04-15T05:27:20Z" changeset="119736214" uid="3497659" user="NKA">
		<tag k="name" v="Åserud" />
		<tag k="place" v="farm" />
		<tag k="ssr:stedsnr" v="510453" />
	</node>
	<node id="9667317303" lat="60.0727778" lon="10.1818888" version="1" timestamp="2022-04-15T05:27:20Z" changeset="119736214" uid="3497659" user="NKA">
		<tag k="name" v="Bråtan" />
		<tag k="place" v="farm" />
		<tag k="ssr:stedsnr" v="571703" />
	</node>
	<node id="9667317304" lat="60.0887556" lon="10.2736492" version="1" timestamp="2022-04-15T05:27:20Z" changeset="119736214" uid="3497659" user="NKA">
		<tag k="name" v="Steinsrud" />
		<tag k="place" v="farm" />
		<tag k="ssr:stedsnr" v="271696" />
	</node>
	<node id="9667317305" lat="60.0010173" lon="10.2768654" version="1" timestamp="2022-04-15T05:27:20Z" changeset="119736214" uid="3497659" user="NKA">
		<tag k="name" v="Nes" />
		<tag k="place" v="hamlet" />
		<tag k="ssr:stedsnr" v="301808" />
	</node>
	<node id="9667317306" lat="60.0765278" lon="10.1683916" version="1" timestamp="2022-04-15T05:27:20Z" changeset="119736214" uid="3497659" user="NKA">
		<tag k="name" v="Plassen" />
		<tag k="place" v="farm" />
		<tag k="ssr:stedsnr" v="753778" />
	</node>
	<node id="9667317307" lat="60.0367496" lon="10.33734" version="1" timestamp="2022-04-15T05:27:20Z" changeset="119736214" uid="3497659" user="NKA">
		<tag k="name" v="Grantopp" />
		<tag k="place" v="farm" />
		<tag k="ssr:stedsnr" v="25488" />
	</node>
	<node id="9667317308" lat="60.0872068" lon="10.2675284" version="1" timestamp="2022-04-15T05:27:20Z" changeset="119736214" uid="3497659" user="NKA">
		<tag k="name" v="Halvorsbråtan" />
		<tag k="place" v="farm" />
		<tag k="ssr:stedsnr" v="391660" />
	</node>
	<node id="9667317309" lat="60.04365" lon="10.2684611" version="1" timestamp="2022-04-15T05:27:20Z" changeset="119736214" uid="3497659" user="NKA">
		<tag k="alt_name" v="Bråtan" />
		<tag k="name" v="Bråten" />
		<tag k="place" v="farm" />
		<tag k="ssr:stedsnr" v="369345" />
	</node>
	<node id="9667317310" lat="60.0293167" lon="10.4083111" version="1" timestamp="2022-04-15T05:27:20Z" changeset="119736214" uid="3497659" user="NKA">
		<tag k="name" v="Myrehytta" />
		<tag k="place" v="isolated_dwelling" />
		<tag k="ssr:stedsnr" v="248985" />
	</node>
	<node id="9667317311" lat="60.0135834" lon="10.3853611" version="1" timestamp="2022-04-15T05:27:20Z" changeset="119736214" uid="3497659" user="NKA">
		<tag k="name" v="Hygga" />
		<tag k="place" v="isolated_dwelling" />
		<tag k="ssr:stedsnr" v="87074" />
	</node>
	<node id="9667317312" lat="60.0644833" lon="10.1973972" version="1" timestamp="2022-04-15T05:27:20Z" changeset="119736214" uid="3497659" user="NKA">
		<tag k="name" v="Sandhaugen" />
		<tag k="place" v="farm" />
		<tag k="ssr:stedsnr" v="451544" />
	</node>
	<node id="9667317313" lat="60.0862444" lon="10.2195834" version="1" timestamp="2022-04-15T05:27:20Z" changeset="119736214" uid="3497659" user="NKA">
		<tag k="name" v="Smiubakken" />
		<tag k="place" v="farm" />
		<tag k="ssr:stedsnr" v="753981" />
	</node>
	<node id="9667317314" lat="60.072625" lon="10.1875389" version="1" timestamp="2022-04-15T05:27:20Z" changeset="119736214" uid="3497659" user="NKA">
		<tag k="name" v="Myra" />
		<tag k="place" v="farm" />
		<tag k="ssr:stedsnr" v="611257" />
	</node>
	<node id="9667317315" lat="60.0542055" lon="10.3778028" version="1" timestamp="2022-04-15T05:27:20Z" changeset="119736214" uid="3497659" user="NKA">
		<tag k="name" v="Fjellstadhytta" />
		<tag k="place" v="isolated_dwelling" />
		<tag k="ssr:stedsnr" v="916211" />
	</node>
	<node id="9667317316" lat="60.076502" lon="10.2157155" version="1" timestamp="2022-04-15T05:27:20Z" changeset="119736214" uid="3497659" user="NKA">
		<tag k="name" v="Nøstret" />
		<tag k="place" v="farm" />
		<tag k="ssr:stedsnr" v="247244" />
	</node>
	<node id="9667337017" lat="60.0859361" lon="10.2378251" version="1" timestamp="2022-04-15T05:27:20Z" changeset="119736214" uid="3497659" user="NKA">
		<tag k="name" v="Sjellom" />
		<tag k="place" v="farm" />
		<tag k="ssr:stedsnr" v="814968" />
	</node>
	<node id="9667337018" lat="60.093164" lon="10.2931621" version="1" timestamp="2022-04-15T05:27:20Z" changeset="119736214" uid="3497659" user="NKA">
		<tag k="name" v="Steinsby" />
		<tag k="place" v="farm" />
		<tag k="ssr:stedsnr" v="1077068" />
	</node>
	<node id="9667337019" lat="60.0669" lon="10.1752416" version="1" timestamp="2022-04-15T05:27:20Z" changeset="119736214" uid="3497659" user="NKA">
		<tag k="name" v="Vestbråtan" />
		<tag k="place" v="farm" />
		<tag k="ssr:stedsnr" v="550268" />
	</node>
	<node id="9667337020" lat="60.0940598" lon="10.2909465" version="1" timestamp="2022-04-15T05:27:20Z" changeset="119736214" uid="3497659" user="NKA">
		<tag k="name" v="Steinsbyhaugen" />
		<tag k="place" v="farm" />
		<tag k="ssr:stedsnr" v="1077069" />
	</node>
	<node id="9667337021" lat="60.1166527" lon="10.3156445" version="1" timestamp="2022-04-15T05:27:20Z" changeset="119736214" uid="3497659" user="NKA">
		<tag k="name" v="Loreåsen" />
		<tag k="place" v="neighbourhood" />
		<tag k="ssr:stedsnr" v="937729" />
	</node>
	<node id="9667337022" lat="60.08045" lon="10.2683639" version="1" timestamp="2022-04-15T05:27:20Z" changeset="119736214" uid="3497659" user="NKA">
		<tag k="name" v="Bili" />
		<tag k="place" v="farm" />
		<tag k="ssr:stedsnr" v="733294" />
	</node>
	<node id="9667337023" lat="60.0628361" lon="10.1830222" version="1" timestamp="2022-04-15T05:27:20Z" changeset="119736214" uid="3497659" user="NKA">
		<tag k="name" v="Søndre Leine" />
		<tag k="place" v="farm" />
		<tag k="ssr:stedsnr" v="26522" />
	</node>
	<node id="9667337024" lat="60.1011845" lon="10.2116434" version="1" timestamp="2022-04-15T05:27:20Z" changeset="119736214" uid="3497659" user="NKA">
		<tag k="name" v="Helgeland" />
		<tag k="place" v="hamlet" />
		<tag k="ssr:stedsnr" v="429723" />
	</node>
	<node id="9667337025" lat="60.0764722" lon="10.2752195" version="1" timestamp="2022-04-15T05:27:20Z" changeset="119736214" uid="3497659" user="NKA">
		<tag k="name" v="Sørenga" />
		<tag k="place" v="farm" />
		<tag k="ssr:stedsnr" v="149618" />
	</node>
	<node id="9667337026" lat="60.0906889" lon="10.264136" version="1" timestamp="2022-04-15T05:27:20Z" changeset="119736214" uid="3497659" user="NKA">
		<tag k="name" v="Storbråtan" />
		<tag k="place" v="farm" />
		<tag k="ssr:stedsnr" v="269712" />
	</node>
	<node id="9667337027" lat="60.075275" lon="10.2685945" version="1" timestamp="2022-04-15T05:27:20Z" changeset="119736214" uid="3497659" user="NKA">
		<tag k="name" v="Løken" />
		<tag k="place" v="farm" />
		<tag k="ssr:stedsnr" v="550253" />
	</node>
	<node id="9667337028" lat="60.0836972" lon="10.2491056" version="1" timestamp="2022-04-15T05:27:20Z" changeset="119736214" uid="3497659" user="NKA">
		<tag k="name" v="Hunangen" />
		<tag k="place" v="farm" />
		<tag k="ssr:stedsnr" v="389969" />
	</node>
	<node id="9667337029" lat="60.09425" lon="10.2188861" version="1" timestamp="2022-04-15T05:27:20Z" changeset="119736214" uid="3497659" user="NKA">
		<tag k="name" v="Nedre Libakke" />
		<tag k="place" v="farm" />
		<tag k="ssr:stedsnr" v="632602" />
	</node>
	<node id="9667337030" lat="60.0674306" lon="10.1913527" version="1" timestamp="2022-04-15T05:27:20Z" changeset="119736214" uid="3497659" user="NKA">
		<tag k="name" v="Kolsås" />
		<tag k="place" v="hamlet" />
		<tag k="ssr:stedsnr" v="693552" />
	</node>
	<node id="9667337031" lat="60.0854583" lon="10.3409306" version="1" timestamp="2022-04-15T05:27:20Z" changeset="119736214" uid="3497659" user="NKA">
		<tag k="name" v="Hellerud" />
		<tag k="place" v="farm" />
		<tag k="ssr:stedsnr" v="611299" />
	</node>
	<node id="9667337032" lat="60.0797306" lon="10.2649389" version="1" timestamp="2022-04-15T05:27:20Z" changeset="119736214" uid="3497659" user="NKA">
		<tag k="name" v="Borgestad" />
		<tag k="place" v="farm" />
		<tag k="ssr:stedsnr" v="550292" />
	</node>
	<node id="9667337033" lat="60.0638417" lon="10.1777805" version="1" timestamp="2022-04-15T05:27:20Z" changeset="119736214" uid="3497659" user="NKA">
		<tag k="name" v="Leinetajet" />
		<tag k="place" v="hamlet" />
		<tag k="ssr:stedsnr" v="147521" />
	</node>
	<node id="9667337034" lat="60.1176913" lon="10.2831382" version="1" timestamp="2022-04-15T05:27:20Z" changeset="119736214" uid="3497659" user="NKA">
		<tag k="name" v="Sonerud" />
		<tag k="place" v="farm" />
		<tag k="ssr:stedsnr" v="4705" />
	</node>
	<node id="9667337035" lat="60.1247232" lon="10.2977173" version="1" timestamp="2022-04-15T05:27:20Z" changeset="119736214" uid="3497659" user="NKA">
		<tag k="alt_name" v="Kleiva" />
		<tag k="name" v="Kleven" />
		<tag k="place" v="farm" />
		<tag k="ssr:stedsnr" v="186742" />
	</node>
	<node id="9667337036" lat="60.0819473" lon="10.1701694" version="1" timestamp="2022-04-15T05:27:20Z" changeset="119736214" uid="3497659" user="NKA">
		<tag k="alt_name" v="Hagastu" />
		<tag k="name" v="Hagastua" />
		<tag k="place" v="farm" />
		<tag k="ssr:stedsnr" v="186299" />
	</node>
	<node id="9667337037" lat="60.0667258" lon="10.2109082" version="1" timestamp="2022-04-15T05:27:20Z" changeset="119736214" uid="3497659" user="NKA">
		<tag k="name" v="Svarstad" />
		<tag k="place" v="hamlet" />
		<tag k="ssr:stedsnr" v="611265" />
	</node>
	<node id="9667337038" lat="60.0122306" lon="10.3772527" version="1" timestamp="2022-04-15T05:27:20Z" changeset="119736214" uid="3497659" user="NKA">
		<tag k="name" v="Midtskogen" />
		<tag k="place" v="farm" />
		<tag k="ssr:stedsnr" v="126878" />
	</node>
	<node id="9667337039" lat="60.046999" lon="10.3289329" version="1" timestamp="2022-04-15T05:27:20Z" changeset="119736214" uid="3497659" user="NKA">
		<tag k="name" v="Solstua" />
		<tag k="place" v="farm" />
		<tag k="ssr:stedsnr" v="1076994" />
	</node>
	<node id="9667337040" lat="60.0746861" lon="10.2541194" version="1" timestamp="2022-04-15T05:27:20Z" changeset="119736214" uid="3497659" user="NKA">
		<tag k="name" v="Vestbråtan" />
		<tag k="place" v="farm" />
		<tag k="ssr:stedsnr" v="571971" />
	</node>
	<node id="9667337041" lat="60.1007556" lon="10.2304695" version="1" timestamp="2022-04-15T05:27:20Z" changeset="119736214" uid="3497659" user="NKA">
		<tag k="name" v="Prestemoen" />
		<tag k="place" v="farm" />
		<tag k="ssr:stedsnr" v="693696" />
	</node>
	<node id="9667337042" lat="60.0853091" lon="10.2169015" version="1" timestamp="2022-04-15T05:27:20Z" changeset="119736214" uid="3497659" user="NKA">
		<tag k="alt_name" v="Søndre By" />
		<tag k="name" v="By" />
		<tag k="place" v="farm" />
		<tag k="ssr:stedsnr" v="65280" />
	</node>
	<node id="9667337043" lat="60.0760118" lon="10.2105383" version="1" timestamp="2022-04-15T05:27:20Z" changeset="119736214" uid="3497659" user="NKA">
		<tag k="name" v="Søhol" />
		<tag k="place" v="hamlet" />
		<tag k="ssr:stedsnr" v="550256" />
	</node>
	<node id="9667337044" lat="60.0813739" lon="10.2643496" version="1" timestamp="2022-04-15T05:27:20Z" changeset="119736214" uid="3497659" user="NKA">
		<tag k="name" v="Borgeng" />
		<tag k="place" v="farm" />
		<tag k="ssr:stedsnr" v="875890" />
	</node>
	<node id="9667337045" lat="60.099098" lon="10.2047546" version="1" timestamp="2022-04-15T05:27:20Z" changeset="119736214" uid="3497659" user="NKA">
		<tag k="name" v="Hafnor" />
		<tag k="place" v="farm" />
		<tag k="ssr:stedsnr" v="989042" />
	</node>
	<node id="9667337046" lat="60.0867388" lon="10.1786055" version="1" timestamp="2022-04-15T05:27:20Z" changeset="119736214" uid="3497659" user="NKA">
		<tag k="name" v="Tyribakken" />
		<tag k="place" v="farm" />
		<tag k="ssr:stedsnr" v="753708" />
	</node>
	<node id="9667337047" lat="60.0714125" lon="10.3079094" version="1" timestamp="2022-04-15T05:27:20Z" changeset="119736214" uid="3497659" user="NKA">
		<tag k="name" v="Amundsøya" />
		<tag k="place" v="farm" />
		<tag k="ssr:stedsnr" v="1083566" />
	</node>
	<node id="9667337048" lat="60.072711" lon="10.2970409" version="1" timestamp="2022-04-15T05:27:20Z" changeset="119736214" uid="3497659" user="NKA">
		<tag k="name" v="Sundet" />
		<tag k="place" v="farm" />
		<tag k="ssr:stedsnr" v="988948" />
	</node>
	<node id="9667337049" lat="60.0944167" lon="10.2087279" version="1" timestamp="2022-04-15T05:27:20Z" changeset="119736214" uid="3497659" user="NKA">
		<tag k="name" v="Bredvoll" />
		<tag k="place" v="farm" />
		<tag k="ssr:stedsnr" v="511656" />
	</node>
	<node id="9667337050" lat="60.0937242" lon="10.1973637" version="1" timestamp="2022-04-15T05:27:20Z" changeset="119736214" uid="3497659" user="NKA">
		<tag k="name" v="Frøyshov" />
		<tag k="place" v="hamlet" />
		<tag k="ssr:stedsnr" v="87642" />
	</node>
	<node id="9667337051" lat="60.0840278" lon="10.2646528" version="1" timestamp="2022-04-15T05:27:20Z" changeset="119736214" uid="3497659" user="NKA">
		<tag k="name" v="Viksenga" />
		<tag k="place" v="farm" />
		<tag k="ssr:stedsnr" v="186317" />
	</node>
	<node id="9667337052" lat="60.0687778" lon="10.175975" version="1" timestamp="2022-04-15T05:27:20Z" changeset="119736214" uid="3497659" user="NKA">
		<tag k="name" v="Gata" />
		<tag k="place" v="farm" />
		<tag k="ssr:stedsnr" v="753847" />
	</node>
	<node id="9667337053" lat="60.0371722" lon="10.3474333" version="1" timestamp="2022-04-15T05:27:20Z" changeset="119736214" uid="3497659" user="NKA">
		<tag k="name" v="Oterbu" />
		<tag k="place" v="isolated_dwelling" />
		<tag k="ssr:stedsnr" v="794961" />
	</node>
	<node id="9667337054" lat="59.9784139" lon="10.3403862" version="1" timestamp="2022-04-15T05:27:20Z" changeset="119736214" uid="3497659" user="NKA">
		<tag k="name" v="Løkenmyra" />
		<tag k="place" v="locality" />
		<tag k="ssr:stedsnr" v="428448" />
	</node>
	<node id="9667337055" lat="60.0764454" lon="10.2833395" version="1" timestamp="2022-04-15T05:27:20Z" changeset="119736214" uid="3497659" user="NKA">
		<tag k="name" v="Tajet" />
		<tag k="place" v="locality" />
		<tag k="ssr:stedsnr" v="88449" />
	</node>
	<node id="9667337056" lat="60.0825195" lon="10.2511695" version="1" timestamp="2022-04-15T05:27:20Z" changeset="119736214" uid="3497659" user="NKA">
		<tag k="name" v="Faltinrud" />
		<tag k="place" v="farm" />
		<tag k="ssr:stedsnr" v="936964" />
	</node>
	<node id="9667337057" lat="60.0904369" lon="10.2212185" version="1" timestamp="2022-04-15T05:27:20Z" changeset="119736214" uid="3497659" user="NKA">
		<tag k="name" v="Mo" />
		<tag k="place" v="hamlet" />
		<tag k="ssr:stedsnr" v="854248" />
	</node>
	<node id="9667337058" lat="60.0776505" lon="10.2596261" version="1" timestamp="2022-04-15T05:27:20Z" changeset="119736214" uid="3497659" user="NKA">
		<tag k="name" v="Bråtan" />
		<tag k="place" v="farm" />
		<tag k="ssr:stedsnr" v="149628" />
	</node>
	<node id="9667337059" lat="59.9594873" lon="10.3397917" version="1" timestamp="2022-04-15T05:27:20Z" changeset="119736214" uid="3497659" user="NKA">
		<tag k="name" v="Rotaryhytta" />
		<tag k="place" v="isolated_dwelling" />
		<tag k="ssr:stedsnr" v="690634" />
	</node>
	<node id="9667337060" lat="60.0935945" lon="10.1850722" version="1" timestamp="2022-04-15T05:27:20Z" changeset="119736214" uid="3497659" user="NKA">
		<tag k="name" v="Onsakerbråten" />
		<tag k="place" v="farm" />
		<tag k="ssr:stedsnr" v="572633" />
	</node>
	<node id="9667337061" lat="60.0534218" lon="10.2905441" version="1" timestamp="2022-04-15T05:27:20Z" changeset="119736214" uid="3497659" user="NKA">
		<tag k="name" v="Rørvikberget" />
		<tag k="place" v="farm" />
		<tag k="ssr:stedsnr" v="308333" />
	</node>
	<node id="9667337062" lat="60.0324278" lon="10.2625027" version="1" timestamp="2022-04-15T05:27:20Z" changeset="119736214" uid="3497659" user="NKA">
		<tag k="alt_name" v="Sørbråtan" />
		<tag k="name" v="Sørbråten" />
		<tag k="place" v="farm" />
		<tag k="ssr:stedsnr" v="793342" />
	</node>
	<node id="9667337063" lat="60.0777614" lon="10.2688926" version="1" timestamp="2022-04-15T05:27:20Z" changeset="119736214" uid="3497659" user="NKA">
		<tag k="name" v="Løkenmoen" />
		<tag k="place" v="neighbourhood" />
		<tag k="ssr:stedsnr" v="815939" />
	</node>
	<node id="9667337064" lat="60.092675" lon="10.2685639" version="1" timestamp="2022-04-15T05:27:20Z" changeset="119736214" uid="3497659" user="NKA">
		<tag k="alt_name" v="Sørumshaugen" />
		<tag k="name" v="Haugen" />
		<tag k="place" v="farm" />
		<tag k="ssr:stedsnr" v="854265" />
	</node>
	<node id="9667337065" lat="60.052059" lon="10.279895" version="1" timestamp="2022-04-15T05:27:20Z" changeset="119736214" uid="3497659" user="NKA">
		<tag k="alt_name" v="Elgstangen" />
		<tag k="name" v="Elstangen" />
		<tag k="place" v="farm" />
		<tag k="ssr:stedsnr" v="733336" />
	</node>
	<node id="9667337066" lat="60.0547694" lon="10.2590695" version="1" timestamp="2022-04-15T05:27:20Z" changeset="119736214" uid="3497659" user="NKA">
		<tag k="name" v="Gulsplassen" />
		<tag k="place" v="farm" />
		<tag k="ssr:stedsnr" v="813630" />
	</node>
	<node id="9667337067" lat="60.1204077" lon="10.2798568" version="1" timestamp="2022-04-15T05:27:20Z" changeset="119736214" uid="3497659" user="NKA">
		<tag k="alt_name" v="Øde-Rå" />
		<tag k="name" v="Øderå" />
		<tag k="place" v="farm" />
		<tag k="ssr:stedsnr" v="186723" />
	</node>
	<node id="9667337068" lat="60.0817604" lon="10.2579354" version="1" timestamp="2022-04-15T05:27:20Z" changeset="119736214" uid="3497659" user="NKA">
		<tag k="name" v="Rønningen" />
		<tag k="place" v="farm" />
		<tag k="ssr:stedsnr" v="634659" />
	</node>
	<node id="9667337069" lat="60.0375361" lon="10.2657111" version="1" timestamp="2022-04-15T05:27:20Z" changeset="119736214" uid="3497659" user="NKA">
		<tag k="name" v="Øverby" />
		<tag k="place" v="hamlet" />
		<tag k="ssr:stedsnr" v="308282" />
	</node>
	<node id="9667337070" lat="60.1195783" lon="10.3056963" version="1" timestamp="2022-04-15T05:27:20Z" changeset="119736214" uid="3497659" user="NKA">
		<tag k="name" v="Fossum" />
		<tag k="place" v="farm" />
		<tag k="ssr:stedsnr" v="389488" />
	</node>
	<node id="9667337071" lat="59.9612556" lon="10.3390306" version="1" timestamp="2022-04-15T05:27:20Z" changeset="119736214" uid="3497659" user="NKA">
		<tag k="name" v="Skaustua" />
		<tag k="place" v="isolated_dwelling" />
		<tag k="ssr:stedsnr" v="22575" />
	</node>
	<node id="9667337072" lat="60.0614544" lon="10.2103978" version="1" timestamp="2022-04-15T05:27:20Z" changeset="119736214" uid="3497659" user="NKA">
		<tag k="name" v="Engen" />
		<tag k="place" v="farm" />
		<tag k="ssr:stedsnr" v="26560" />
	</node>
	<node id="9667337073" lat="60.0569611" lon="10.1951472" version="1" timestamp="2022-04-15T05:27:20Z" changeset="119736214" uid="3497659" user="NKA">
		<tag k="name" v="Tangerud" />
		<tag k="place" v="farm" />
		<tag k="ssr:stedsnr" v="693555" />
	</node>
	<node id="9667337074" lat="60.0389387" lon="10.2715532" version="1" timestamp="2022-04-15T05:27:20Z" changeset="119736214" uid="3497659" user="NKA">
		<tag k="name" v="Høgkastet" />
		<tag k="place" v="farm" />
		<tag k="ssr:stedsnr" v="247301" />
	</node>
	<node id="9667337075" lat="60.088832" lon="10.2159727" version="1" timestamp="2022-04-15T05:27:20Z" changeset="119736214" uid="3497659" user="NKA">
		<tag k="name" v="Frøyhov" />
		<tag k="old_name" v="Frøyshov" />
		<tag k="place" v="farm" />
		<tag k="ssr:stedsnr" v="672253" />
	</node>
	<node id="9667337076" lat="60.104925" lon="10.2154695" version="1" timestamp="2022-04-15T05:27:20Z" changeset="119736214" uid="3497659" user="NKA">
		<tag k="name" v="Bråtan" />
		<tag k="place" v="farm" />
		<tag k="ssr:stedsnr" v="814673" />
	</node>
	<node id="9667337077" lat="60.0806028" lon="10.1685221" version="1" timestamp="2022-04-15T05:27:20Z" changeset="119736214" uid="3497659" user="NKA">
		<tag k="name" v="Hassellykkja" />
		<tag k="place" v="farm" />
		<tag k="ssr:stedsnr" v="693762" />
	</node>
	<node id="9667337078" lat="60.0901723" lon="10.3450661" version="1" timestamp="2022-04-15T05:27:20Z" changeset="119736214" uid="3497659" user="NKA">
		<tag k="name" v="Steinsetra" />
		<tag k="old_name" v="Steinsæteren" />
		<tag k="place" v="farm" />
		<tag k="ssr:stedsnr" v="430128" />
	</node>
	<node id="9667337079" lat="60.0806639" lon="10.2540528" version="1" timestamp="2022-04-15T05:27:20Z" changeset="119736214" uid="3497659" user="NKA">
		<tag k="name" v="Byrhaugen" />
		<tag k="place" v="farm" />
		<tag k="ssr:stedsnr" v="936965" />
	</node>
	<node id="9667337080" lat="60.0680077" lon="10.3233953" version="1" timestamp="2022-04-15T05:27:20Z" changeset="119736214" uid="3497659" user="NKA">
		<tag k="name" v="Sundvollen næringspark" />
		<tag k="place" v="neighbourhood" />
		<tag k="ssr:stedsnr" v="978846" />
	</node>
	<node id="9667337081" lat="60.0869362" lon="10.2312492" version="1" timestamp="2022-04-15T05:27:20Z" changeset="119736214" uid="3497659" user="NKA">
		<tag k="alt_name" v="Lille By" />
		<tag k="name" v="Lilleby" />
		<tag k="place" v="farm" />
		<tag k="ssr:stedsnr" v="247289" />
	</node>
	<node id="9667337082" lat="60.112932" lon="10.2754888" version="1" timestamp="2022-04-15T05:27:20Z" changeset="119736214" uid="3497659" user="NKA">
		<tag k="name" v="Bjørke" />
		<tag k="place" v="hamlet" />
		<tag k="ssr:stedsnr" v="126715" />
	</node>
	<node id="9667337083" lat="60.0951556" lon="10.2257555" version="1" timestamp="2022-04-15T05:27:20Z" changeset="119736214" uid="3497659" user="NKA">
		<tag k="name" v="Nygård" />
		<tag k="place" v="farm" />
		<tag k="ssr:stedsnr" v="693641" />
	</node>
	<node id="9667337084" lat="60.0492389" lon="10.2455278" version="1" timestamp="2022-04-15T05:27:20Z" changeset="119736214" uid="3497659" user="NKA">
		<tag k="alt_name" v="Storøen" />
		<tag k="name" v="Storøya" />
		<tag k="place" v="farm" />
		<tag k="ssr:stedsnr" v="308348" />
	</node>
	<node id="9667337085" lat="60.0755889" lon="10.3334639" version="1" timestamp="2022-04-15T05:27:20Z" changeset="119736214" uid="3497659" user="NKA">
		<tag k="name" v="Skogli" />
		<tag k="place" v="farm" />
		<tag k="ssr:stedsnr" v="571944" />
	</node>
	<node id="9667337086" lat="59.9815166" lon="10.3103528" version="1" timestamp="2022-04-15T05:27:20Z" changeset="119736214" uid="3497659" user="NKA">
		<tag k="name" v="Furuhaugen" />
		<tag k="place" v="farm" />
		<tag k="ssr:stedsnr" v="451354" />
	</node>
	<node id="9667337087" lat="60.1012499" lon="10.2961309" version="1" timestamp="2022-04-15T05:27:20Z" changeset="119736214" uid="3497659" user="NKA">
		<tag k="name" v="Stein" />
		<tag k="place" v="hamlet" />
		<tag k="ssr:stedsnr" v="672718" />
	</node>
	<node id="9667337088" lat="60.0683166" lon="10.1668251" version="1" timestamp="2022-04-15T05:27:20Z" changeset="119736214" uid="3497659" user="NKA">
		<tag k="name" v="Roaløkka" />
		<tag k="place" v="farm" />
		<tag k="ssr:stedsnr" v="26771" />
	</node>
	<node id="9667337089" lat="60.099" lon="10.2172861" version="1" timestamp="2022-04-15T05:27:20Z" changeset="119736214" uid="3497659" user="NKA">
		<tag k="name" v="Hole prestegård" />
		<tag k="place" v="farm" />
		<tag k="ssr:stedsnr" v="632667" />
	</node>
	<node id="9667337090" lat="60.0999084" lon="10.2763416" version="1" timestamp="2022-04-15T05:27:20Z" changeset="119736214" uid="3497659" user="NKA">
		<tag k="name" v="Selte" />
		<tag k="old_name" v="Sælte" />
		<tag k="place" v="farm" />
		<tag k="ssr:stedsnr" v="854709" />
	</node>
	<node id="9667337091" lat="60.084572" lon="10.1767761" version="1" timestamp="2022-04-15T05:27:20Z" changeset="119736214" uid="3497659" user="NKA">
		<tag k="alt_name" v="Gomnes" />
		<tag k="name" v="Søndre Gomnes" />
		<tag k="place" v="farm" />
		<tag k="ssr:stedsnr" v="829303" />
	</node>
	<node id="9667337092" lat="60.0733362" lon="10.312705" version="1" timestamp="2022-04-15T05:27:20Z" changeset="119736214" uid="3497659" user="NKA">
		<tag k="name" v="Tvillingøya" />
		<tag k="place" v="farm" />
		<tag k="ssr:stedsnr" v="1083567" />
	</node>
	<node id="9667337093" lat="60.0259068" lon="10.3598228" version="1" timestamp="2022-04-15T05:27:20Z" changeset="119736214" uid="3497659" user="NKA">
		<tag k="alt_name" v="Bruløkka" />
		<tag k="name" v="Bruløkkene" />
		<tag k="place" v="farm" />
		<tag k="ssr:stedsnr" v="551999" />
	</node>
	<node id="9667337094" lat="60.0723931" lon="10.1997263" version="1" timestamp="2022-04-15T05:27:20Z" changeset="119736214" uid="3497659" user="NKA">
		<tag k="alt_name" v="Hundstad Store" />
		<tag k="name" v="Hundstad" />
		<tag k="place" v="hamlet" />
		<tag k="ssr:stedsnr" v="126241" />
	</node>
	<node id="9667337095" lat="60.1221569" lon="10.295917" version="1" timestamp="2022-04-15T05:27:20Z" changeset="119736214" uid="3497659" user="NKA">
		<tag k="alt_name" v="Veisten;Veisten søndre" />
		<tag k="name" v="Kongelv" />
		<tag k="place" v="farm" />
		<tag k="ssr:stedsnr" v="65698" />
	</node>
	<node id="9667337096" lat="60.0955361" lon="10.2664417" version="1" timestamp="2022-04-15T05:27:20Z" changeset="119736214" uid="3497659" user="NKA">
		<tag k="name" v="Sørmoen" />
		<tag k="place" v="farm" />
		<tag k="ssr:stedsnr" v="815667" />
	</node>
	<node id="9667337097" lat="59.9586604" lon="10.3421" version="1" timestamp="2022-04-15T05:27:20Z" changeset="119736214" uid="3497659" user="NKA">
		<tag k="name" v="Lille B" />
		<tag k="place" v="isolated_dwelling" />
		<tag k="ssr:stedsnr" v="265607" />
	</node>
	<node id="9667337098" lat="60.0060778" lon="10.3818945" version="1" timestamp="2022-04-15T05:27:20Z" changeset="119736214" uid="3497659" user="NKA">
		<tag k="name" v="Benteplassen" />
		<tag k="place" v="isolated_dwelling" />
		<tag k="ssr:stedsnr" v="430872" />
	</node>
	<node id="9667337099" lat="59.9806814" lon="10.3120781" version="1" timestamp="2022-04-15T05:27:20Z" changeset="119736214" uid="3497659" user="NKA">
		<tag k="name" v="Humledal" />
		<tag k="place" v="farm" />
		<tag k="ssr:stedsnr" v="570438" />
	</node>
	<node id="9667337100" lat="60.0981111" lon="10.2687611" version="1" timestamp="2022-04-15T05:27:20Z" changeset="119736214" uid="3497659" user="NKA">
		<tag k="name" v="Solvang" />
		<tag k="place" v="farm" />
		<tag k="ssr:stedsnr" v="147655" />
	</node>
	<node id="9667337101" lat="60.0749055" lon="10.169211" version="1" timestamp="2022-04-15T05:27:20Z" changeset="119736214" uid="3497659" user="NKA">
		<tag k="name" v="Langløkka" />
		<tag k="place" v="farm" />
		<tag k="ssr:stedsnr" v="451828" />
	</node>
	<node id="9667337102" lat="60.0967904" lon="10.1931459" version="1" timestamp="2022-04-15T05:27:20Z" changeset="119736214" uid="3497659" user="NKA">
		<tag k="name" v="Stadum" />
		<tag k="place" v="hamlet" />
		<tag k="ssr:stedsnr" v="989041" />
	</node>
	<node id="9667337103" lat="60.0628003" lon="10.3160919" version="1" timestamp="2022-04-15T05:27:20Z" changeset="119736214" uid="3497659" user="NKA">
		<tag k="name" v="Jonsbråten" />
		<tag k="place" v="locality" />
		<tag k="ssr:stedsnr" v="989045" />
	</node>
	<node id="9667337104" lat="60.1142662" lon="10.2308298" version="1" timestamp="2022-04-15T05:27:20Z" changeset="119736214" uid="3497659" user="NKA">
		<tag k="name" v="Helgelandsmoen Næringspark AS" />
		<tag k="place" v="neighbourhood" />
		<tag k="ssr:stedsnr" v="179992" />
	</node>
	<node id="9667337105" lat="60.0164777" lon="10.2639973" version="1" timestamp="2022-04-15T05:27:20Z" changeset="119736214" uid="3497659" user="NKA">
		<tag k="name" v="Portebakken" />
		<tag k="place" v="hamlet" />
		<tag k="ssr:stedsnr" v="450481" />
	</node>
	<node id="9667337106" lat="60.0950555" lon="10.2637806" version="1" timestamp="2022-04-15T05:27:20Z" changeset="119736214" uid="3497659" user="NKA">
		<tag k="name" v="Bråtan" />
		<tag k="place" v="farm" />
		<tag k="ssr:stedsnr" v="915280" />
	</node>
	<node id="9667337107" lat="60.0661833" lon="10.1895027" version="1" timestamp="2022-04-15T05:27:20Z" changeset="119736214" uid="3497659" user="NKA">
		<tag k="name" v="Øvre Leine" />
		<tag k="place" v="farm" />
		<tag k="ssr:stedsnr" v="693547" />
	</node>
	<node id="9667337108" lat="60.0423906" lon="10.3419223" version="1" timestamp="2022-04-15T05:27:20Z" changeset="119736214" uid="3497659" user="NKA">
		<tag k="name" v="Torget" />
		<tag k="place" v="farm" />
		<tag k="ssr:stedsnr" v="490313" />
	</node>
	<node id="9667337109" lat="60.0753434" lon="10.1884629" version="1" timestamp="2022-04-15T05:27:20Z" changeset="119736214" uid="3497659" user="NKA">
		<tag k="name" v="Fjell" />
		<tag k="place" v="hamlet" />
		<tag k="ssr:stedsnr" v="988954" />
	</node>
	<node id="9667337110" lat="60.0760048" lon="10.2622807" version="1" timestamp="2022-04-15T05:27:20Z" changeset="119736214" uid="3497659" user="NKA">
		<tag k="name" v="Østeng" />
		<tag k="place" v="farm" />
		<tag k="ssr:stedsnr" v="331629" />
	</node>
	<node id="9667337111" lat="60.0650278" lon="10.1869806" version="1" timestamp="2022-04-15T05:27:20Z" changeset="119736214" uid="3497659" user="NKA">
		<tag k="alt_name" v="Nordre Leine" />
		<tag k="name" v="Leine" />
		<tag k="place" v="hamlet" />
		<tag k="ssr:stedsnr" v="854245" />
	</node>
	<node id="9667337112" lat="60.0639528" lon="10.1974221" version="1" timestamp="2022-04-15T05:27:20Z" changeset="119736214" uid="3497659" user="NKA">
		<tag k="name" v="Rønningen" />
		<tag k="place" v="farm" />
		<tag k="ssr:stedsnr" v="815503" />
	</node>
	<node id="9667337113" lat="60.1051778" lon="10.2199055" version="1" timestamp="2022-04-15T05:27:20Z" changeset="119736214" uid="3497659" user="NKA">
		<tag k="name" v="Skog" />
		<tag k="place" v="farm" />
		<tag k="ssr:stedsnr" v="511650" />
	</node>
	<node id="9667337114" lat="60.0978917" lon="10.2207667" version="1" timestamp="2022-04-15T05:27:20Z" changeset="119736214" uid="3497659" user="NKA">
		<tag k="name" v="Østvoll" />
		<tag k="place" v="farm" />
		<tag k="ssr:stedsnr" v="854713" />
	</node>
	<node id="9667337115" lat="60.104817" lon="10.2680094" version="1" timestamp="2022-04-15T05:27:20Z" changeset="119736214" uid="3497659" user="NKA">
		<tag k="name" v="Sørum" />
		<tag k="place" v="hamlet" />
		<tag k="ssr:stedsnr" v="733702" />
	</node>
	<node id="9667337116" lat="60.0869713" lon="10.2909743" version="1" timestamp="2022-04-15T05:27:20Z" changeset="119736214" uid="3497659" user="NKA">
		<tag k="name" v="Rudshagan" />
		<tag k="place" v="farm" />
		<tag k="ssr:stedsnr" v="511916" />
	</node>
	<node id="9667337117" lat="60.0531333" lon="10.2458166" version="1" timestamp="2022-04-15T05:27:20Z" changeset="119736214" uid="3497659" user="NKA">
		<tag k="name" v="Sundland" />
		<tag k="place" v="isolated_dwelling" />
		<tag k="ssr:stedsnr" v="733332" />
	</node>
	<node id="9667337118" lat="60.0887555" lon="10.3425388" version="1" timestamp="2022-04-15T05:27:20Z" changeset="119736214" uid="3497659" user="NKA">
		<tag k="name" v="Bjørnsvika" />
		<tag k="place" v="farm" />
		<tag k="ssr:stedsnr" v="126273" />
	</node>
	<node id="9667337119" lat="60.0213315" lon="10.2613784" version="1" timestamp="2022-04-15T05:27:20Z" changeset="119736214" uid="3497659" user="NKA">
		<tag k="alt_name" v="Ødelien;Øde-Lien" />
		<tag k="name" v="Lia" />
		<tag k="place" v="farm" />
		<tag k="ssr:stedsnr" v="126338" />
	</node>
	<node id="9667337120" lat="60.0527111" lon="10.2666556" version="1" timestamp="2022-04-15T05:27:20Z" changeset="119736214" uid="3497659" user="NKA">
		<tag k="name" v="Kuskeplassen" />
		<tag k="place" v="farm" />
		<tag k="ssr:stedsnr" v="570595" />
	</node>
	<node id="9667337121" lat="60.0786583" lon="10.3359111" version="1" timestamp="2022-04-15T05:27:20Z" changeset="119736214" uid="3497659" user="NKA">
		<tag k="name" v="Baserud" />
		<tag k="place" v="farm" />
		<tag k="ssr:stedsnr" v="490290" />
	</node>
	<node id="9667337122" lat="60.0643917" lon="10.2545861" version="1" timestamp="2022-04-15T05:27:20Z" changeset="119736214" uid="3497659" user="NKA">
		<tag k="alt_name" v="Rytteraker" />
		<tag k="name" v="Rytteråker" />
		<tag k="place" v="hamlet" />
		<tag k="ssr:stedsnr" v="368299" />
	</node>
	<node id="9667337123" lat="60.084413" lon="10.3460195" version="1" timestamp="2022-04-15T05:27:20Z" changeset="119736214" uid="3497659" user="NKA">
		<tag k="name" v="Bråtan" />
		<tag k="place" v="farm" />
		<tag k="ssr:stedsnr" v="26936" />
	</node>
	<node id="9667337124" lat="60.0857194" lon="10.2090806" version="1" timestamp="2022-04-15T05:27:20Z" changeset="119736214" uid="3497659" user="NKA">
		<tag k="name" v="Øvre Fjelstad" />
		<tag k="place" v="farm" />
		<tag k="ssr:stedsnr" v="511971" />
	</node>
	<node id="9667337125" lat="60.1220356" lon="10.2812601" version="1" timestamp="2022-04-15T05:27:20Z" changeset="119736214" uid="3497659" user="NKA">
		<tag k="name" v="Gile" />
		<tag k="place" v="farm" />
		<tag k="ssr:stedsnr" v="814417" />
	</node>
	<node id="9667337126" lat="60.0778167" lon="10.246314" version="1" timestamp="2022-04-15T05:27:20Z" changeset="119736214" uid="3497659" user="NKA">
		<tag k="name" v="Rolighet" />
		<tag k="place" v="isolated_dwelling" />
		<tag k="ssr:stedsnr" v="753750" />
	</node>
	<node id="9667337127" lat="60.0728427" lon="10.2790748" version="1" timestamp="2022-04-15T05:27:20Z" changeset="119736214" uid="3497659" user="NKA">
		<tag k="name" v="Gjesval" />
		<tag k="place" v="hamlet" />
		<tag k="ssr:stedsnr" v="988947" />
	</node>
	<node id="9667337128" lat="60.12534" lon="10.3077048" version="1" timestamp="2022-04-15T05:27:20Z" changeset="119736214" uid="3497659" user="NKA">
		<tag k="name" v="Sjåheim" />
		<tag k="place" v="isolated_dwelling" />
		<tag k="ssr:stedsnr" v="571479" />
	</node>
	<node id="9667337129" lat="60.0499806" lon="10.2854027" version="1" timestamp="2022-04-15T05:27:20Z" changeset="119736214" uid="3497659" user="NKA">
		<tag k="name" v="Klokkerbråtan" />
		<tag k="place" v="isolated_dwelling" />
		<tag k="ssr:stedsnr" v="369344" />
	</node>
	<node id="9667337130" lat="60.0784972" lon="10.3338251" version="1" timestamp="2022-04-15T05:27:20Z" changeset="119736214" uid="3497659" user="NKA">
		<tag k="name" v="Korneliusbråten" />
		<tag k="place" v="farm" />
		<tag k="ssr:stedsnr" v="632944" />
	</node>
	<node id="9667337131" lat="60.1092167" lon="10.2766999" version="1" timestamp="2022-04-15T05:27:20Z" changeset="119736214" uid="3497659" user="NKA">
		<tag k="name" v="Bjørnstad" />
		<tag k="place" v="farm" />
		<tag k="ssr:stedsnr" v="672740" />
	</node>
	<node id="9667337132" lat="60.0787906" lon="10.1694562" version="1" timestamp="2022-04-15T05:27:20Z" changeset="119736214" uid="3497659" user="NKA">
		<tag k="name" v="Gomnesbråten" />
		<tag k="old_name" v="Braataan;Braaten" />
		<tag k="place" v="farm" />
		<tag k="ssr:stedsnr" v="632779" />
	</node>
	<node id="9667337133" lat="60.084694" lon="10.1711163" version="1" timestamp="2022-04-15T05:27:20Z" changeset="119736214" uid="3497659" user="NKA">
		<tag k="name" v="Olastua" />
		<tag k="place" v="isolated_dwelling" />
		<tag k="ssr:stedsnr" v="753828" />
	</node>
	<node id="9667337134" lat="60.080125" lon="10.2484722" version="1" timestamp="2022-04-15T05:27:20Z" changeset="119736214" uid="3497659" user="NKA">
		<tag k="name" v="Pålerud" />
		<tag k="place" v="farm" />
		<tag k="ssr:stedsnr" v="854284" />
	</node>
	<node id="9667337135" lat="60.09665" lon="10.2344416" version="1" timestamp="2022-04-15T05:27:20Z" changeset="119736214" uid="3497659" user="NKA">
		<tag k="name" v="Svingerud" />
		<tag k="place" v="farm" />
		<tag k="ssr:stedsnr" v="186752" />
	</node>
	<node id="9667337136" lat="60.0515611" lon="10.178103" version="1" timestamp="2022-04-15T05:27:20Z" changeset="119736214" uid="3497659" user="NKA">
		<tag k="name" v="Frognøya" />
		<tag k="place" v="farm" />
		<tag k="ssr:stedsnr" v="65354" />
	</node>
	<node id="9667337137" lat="60.0706361" lon="10.2928028" version="1" timestamp="2022-04-15T05:27:20Z" changeset="119736214" uid="3497659" user="NKA">
		<tag k="alt_name" v="Sundet" />
		<tag k="name" v="Kroksundøgarden" />
		<tag k="place" v="farm" />
		<tag k="ssr:stedsnr" v="915245" />
	</node>
	<node id="9667337138" lat="60.0840111" lon="10.2757499" version="1" timestamp="2022-04-15T05:27:20Z" changeset="119736214" uid="3497659" user="NKA">
		<tag k="alt_name" v="Halden" />
		<tag k="name" v="Viksbråtan" />
		<tag k="place" v="farm" />
		<tag k="ssr:stedsnr" v="854280" />
	</node>
	<node id="9667337139" lat="60.0919781" lon="10.1899867" version="1" timestamp="2022-04-15T05:27:20Z" changeset="119736214" uid="3497659" user="NKA">
		<tag k="name" v="Onsaker" />
		<tag k="place" v="hamlet" />
		<tag k="ssr:stedsnr" v="4273" />
	</node>
	<node id="9667337140" lat="60.0951056" lon="10.1944999" version="1" timestamp="2022-04-15T05:27:20Z" changeset="119736214" uid="3497659" user="NKA">
		<tag k="name" v="Frøystad" />
		<tag k="place" v="farm" />
		<tag k="ssr:stedsnr" v="87612" />
	</node>
	<node id="9667337141" lat="60.0744301" lon="10.3307696" version="1" timestamp="2022-04-15T05:27:20Z" changeset="119736214" uid="3497659" user="NKA">
		<tag k="alt_name" v="Lorvika" />
		<tag k="name" v="Lårvika" />
		<tag k="place" v="hamlet" />
		<tag k="ssr:stedsnr" v="4266" />
	</node>
	<node id="9667337142" lat="60.0072108" lon="10.2643985" version="1" timestamp="2022-04-15T05:27:20Z" changeset="119736214" uid="3497659" user="NKA">
		<tag k="name" v="Kløvvika" />
		<tag k="place" v="farm" />
		<tag k="ssr:stedsnr" v="430390" />
	</node>
	<node id="9667337143" lat="59.9934778" lon="10.2875916" version="1" timestamp="2022-04-15T05:27:20Z" changeset="119736214" uid="3497659" user="NKA">
		<tag k="alt_name" v="Skjelegarden" />
		<tag k="name" v="Skjellegård" />
		<tag k="place" v="farm" />
		<tag k="ssr:stedsnr" v="671459" />
	</node>
	<node id="9667337144" lat="60.0942" lon="10.27275" version="1" timestamp="2022-04-15T05:27:20Z" changeset="119736214" uid="3497659" user="NKA">
		<tag k="name" v="Bergebråtan" />
		<tag k="place" v="farm" />
		<tag k="ssr:stedsnr" v="87694" />
	</node>
	<node id="9667337145" lat="59.9576023" lon="10.3405152" version="1" timestamp="2022-04-15T05:27:20Z" changeset="119736214" uid="3497659" user="NKA">
		<tag k="name" v="Seimskollen" />
		<tag k="place" v="isolated_dwelling" />
		<tag k="ssr:stedsnr" v="265608" />
	</node>
	<node id="9667337146" lat="60.0719159" lon="10.2595629" version="1" timestamp="2022-04-15T05:27:20Z" changeset="119736214" uid="3497659" user="NKA">
		<tag k="name" v="Borgen" />
		<tag k="place" v="hamlet" />
		<tag k="ssr:stedsnr" v="672235" />
	</node>
	<node id="9667337147" lat="60.1241863" lon="10.3074785" version="1" timestamp="2022-04-15T05:27:20Z" changeset="119736214" uid="3497659" user="NKA">
		<tag k="name" v="Hårum" />
		<tag k="old_name" v="Haarum" />
		<tag k="place" v="farm" />
		<tag k="ssr:stedsnr" v="509898" />
	</node>
	<node id="9667337148" lat="60.0836167" lon="10.2271583" version="1" timestamp="2022-04-15T05:27:20Z" changeset="119736214" uid="3497659" user="NKA">
		<tag k="name" v="Berg" />
		<tag k="place" v="farm" />
		<tag k="ssr:stedsnr" v="126297" />
	</node>
	<node id="9667337149" lat="59.9899263" lon="10.2927377" version="1" timestamp="2022-04-15T05:27:20Z" changeset="119736214" uid="3497659" user="NKA">
		<tag k="name" v="Sønsterud" />
		<tag k="place" v="farm" />
		<tag k="ssr:stedsnr" v="550452" />
	</node>
	<node id="9667337150" lat="60.0999777" lon="10.2150222" version="1" timestamp="2022-04-15T05:27:20Z" changeset="119736214" uid="3497659" user="NKA">
		<tag k="name" v="Ringhol" />
		<tag k="place" v="farm" />
		<tag k="ssr:stedsnr" v="571613" />
	</node>
	<node id="9667337151" lat="60.0903546" lon="10.1743831" version="1" timestamp="2022-04-15T05:27:20Z" changeset="119736214" uid="3497659" user="NKA">
		<tag k="alt_name" v="Gomnes" />
		<tag k="name" v="Nordre Gomnes" />
		<tag k="place" v="farm" />
		<tag k="ssr:stedsnr" v="101266" />
	</node>
	<node id="9667337152" lat="60.0745915" lon="10.1976001" version="1" timestamp="2022-04-15T05:27:20Z" changeset="119736214" uid="3497659" user="NKA">
		<tag k="name" v="Hundstad lille" />
		<tag k="place" v="farm" />
		<tag k="ssr:stedsnr" v="753710" />
	</node>
	<node id="9667337153" lat="59.9965205" lon="10.2845709" version="1" timestamp="2022-04-15T05:27:20Z" changeset="119736214" uid="3497659" user="NKA">
		<tag k="name" v="Oreløkka" />
		<tag k="place" v="farm" />
		<tag k="ssr:stedsnr" v="4454" />
	</node>
	<node id="9667337154" lat="59.9852302" lon="10.4109865" version="1" timestamp="2022-04-15T05:27:20Z" changeset="119736214" uid="3497659" user="NKA">
		<tag k="alt_name" v="Langbru" />
		<tag k="name" v="Langebru" />
		<tag k="place" v="farm" />
		<tag k="ssr:stedsnr" v="4113" />
	</node>
	<node id="9667337155" lat="60.0959723" lon="10.2238388" version="1" timestamp="2022-04-15T05:27:20Z" changeset="119736214" uid="3497659" user="NKA">
		<tag k="name" v="Klokkerplassen" />
		<tag k="place" v="farm" />
		<tag k="ssr:stedsnr" v="511601" />
	</node>
	<node id="9667337156" lat="60.088775" lon="10.1874139" version="1" timestamp="2022-04-15T05:27:20Z" changeset="119736214" uid="3497659" user="NKA">
		<tag k="name" v="Teigen" />
		<tag k="place" v="farm" />
		<tag k="ssr:stedsnr" v="329714" />
	</node>
	<node id="9667337157" lat="60.1201042" lon="10.2959167" version="1" timestamp="2022-04-15T05:27:20Z" changeset="119736214" uid="3497659" user="NKA">
		<tag k="name" v="Hagen" />
		<tag k="place" v="farm" />
		<tag k="ssr:stedsnr" v="631353" />
	</node>
	<node id="9667337158" lat="60.07655" lon="10.1817305" version="1" timestamp="2022-04-15T05:27:20Z" changeset="119736214" uid="3497659" user="NKA">
		<tag k="name" v="Øgarden" />
		<tag k="place" v="isolated_dwelling" />
		<tag k="ssr:stedsnr" v="126282" />
	</node>
	<node id="9667337159" lat="60.0578889" lon="10.1937305" version="1" timestamp="2022-04-15T05:27:20Z" changeset="119736214" uid="3497659" user="NKA">
		<tag k="name" v="Pålerud" />
		<tag k="place" v="farm" />
		<tag k="ssr:stedsnr" v="572543" />
	</node>
	<node id="9667337160" lat="60.1178495" lon="10.2821274" version="1" timestamp="2022-04-15T05:27:20Z" changeset="119736214" uid="3497659" user="NKA">
		<tag k="name" v="Vangen" />
		<tag k="place" v="farm" />
		<tag k="ssr:stedsnr" v="268365" />
	</node>
	<node id="9667337161" lat="60.0757583" lon="10.1800639" version="1" timestamp="2022-04-15T05:27:20Z" changeset="119736214" uid="3497659" user="NKA">
		<tag k="name" v="Stubberud" />
		<tag k="place" v="farm" />
		<tag k="ssr:stedsnr" v="25746" />
	</node>
	<node id="9667337162" lat="60.0748739" lon="10.2801225" version="1" timestamp="2022-04-15T05:27:20Z" changeset="119736214" uid="3497659" user="NKA">
		<tag k="name" v="Nordre Gjesval" />
		<tag k="place" v="farm" />
		<tag k="ssr:stedsnr" v="28651" />
	</node>
	<node id="9667337163" lat="60.0848035" lon="10.1899681" version="1" timestamp="2022-04-15T05:27:20Z" changeset="119736214" uid="3497659" user="NKA">
		<tag k="name" v="Dæli" />
		<tag k="place" v="farm" />
		<tag k="ssr:stedsnr" v="4292" />
	</node>
	<node id="9667337164" lat="60.068325" lon="10.2969688" version="1" timestamp="2022-04-15T05:27:20Z" changeset="119736214" uid="3497659" user="NKA">
		<tag k="name" v="Øverjordet" />
		<tag k="place" v="farm" />
		<tag k="ssr:stedsnr" v="570600" />
	</node>
	<node id="9667337165" lat="60.0871426" lon="10.262141" version="1" timestamp="2022-04-15T05:27:20Z" changeset="119736214" uid="3497659" user="NKA">
		<tag k="name" v="Jenserud" />
		<tag k="place" v="farm" />
		<tag k="ssr:stedsnr" v="331640" />
	</node>
	<node id="9667337166" lat="60.0107917" lon="10.2659056" version="1" timestamp="2022-04-15T05:27:20Z" changeset="119736214" uid="3497659" user="NKA">
		<tag k="name" v="Nes" />
		<tag k="place" v="farm" />
		<tag k="ssr:stedsnr" v="814493" />
	</node>
	<node id="9667337167" lat="60.0838271" lon="10.261745" version="1" timestamp="2022-04-15T05:27:20Z" changeset="119736214" uid="3497659" user="NKA">
		<tag k="name" v="Skredshaugen" />
		<tag k="place" v="farm" />
		<tag k="ssr:stedsnr" v="210648" />
	</node>
	<node id="9667337168" lat="60.0581639" lon="10.1861139" version="1" timestamp="2022-04-15T05:27:20Z" changeset="119736214" uid="3497659" user="NKA">
		<tag k="name" v="Elstøa" />
		<tag k="place" v="farm" />
		<tag k="ssr:stedsnr" v="147514" />
	</node>
	<node id="9667337169" lat="60.0241057" lon="10.2497716" version="1" timestamp="2022-04-15T05:27:20Z" changeset="119736214" uid="3497659" user="NKA">
		<tag k="name" v="Utøya" />
		<tag k="place" v="farm" />
		<tag k="ssr:stedsnr" v="989043" />
	</node>
	<node id="9667337170" lat="60.0659067" lon="10.2800308" version="1" timestamp="2022-04-15T05:27:20Z" changeset="119736214" uid="3497659" user="NKA">
		<tag k="alt_name" v="Fekjær" />
		<tag k="name" v="Fetjar" />
		<tag k="old_name" v="Fækjær;Fekjer" />
		<tag k="place" v="hamlet" />
		<tag k="ssr:stedsnr" v="672247" />
	</node>
	<node id="9667337171" lat="60.0872963" lon="10.2635432" version="1" timestamp="2022-04-15T05:27:20Z" changeset="119736214" uid="3497659" user="NKA">
		<tag k="name" v="Jomfruland" />
		<tag k="place" v="farm" />
		<tag k="ssr:stedsnr" v="695654" />
	</node>
	<node id="9667337172" lat="60.0941777" lon="10.3458583" version="1" timestamp="2022-04-15T05:27:20Z" changeset="119736214" uid="3497659" user="NKA">
		<tag k="name" v="Nordenga" />
		<tag k="place" v="farm" />
		<tag k="ssr:stedsnr" v="369133" />
	</node>
	<node id="9667337173" lat="60.0413183" lon="10.3297853" version="1" timestamp="2022-04-15T05:27:20Z" changeset="119736214" uid="3497659" user="NKA">
		<tag k="name" v="Holiattentitt" />
		<tag k="place" v="isolated_dwelling" />
		<tag k="ssr:stedsnr" v="85435" />
	</node>
	<node id="9667337174" lat="60.0846653" lon="10.2896663" version="1" timestamp="2022-04-15T05:27:20Z" changeset="119736214" uid="3497659" user="NKA">
		<tag k="name" v="Kroksvik" />
		<tag k="place" v="farm" />
		<tag k="ssr:stedsnr" v="632920" />
	</node>
	<node id="9667337175" lat="60.1132886" lon="10.3090383" version="1" timestamp="2022-04-15T05:27:20Z" changeset="119736214" uid="3497659" user="NKA">
		<tag k="alt_name" v="Lore søndre" />
		<tag k="name" v="Lore" />
		<tag k="place" v="farm" />
		<tag k="ssr:stedsnr" v="126709" />
	</node>
	<node id="9667337176" lat="60.1133664" lon="10.3001275" version="1" timestamp="2022-04-15T05:27:20Z" changeset="119736214" uid="3497659" user="NKA">
		<tag k="name" v="Hårum" />
		<tag k="place" v="hamlet" />
		<tag k="ssr:stedsnr" v="146411" />
	</node>
	<node id="9667337177" lat="60.0604199" lon="10.196948" version="1" timestamp="2022-04-15T05:27:20Z" changeset="119736214" uid="3497659" user="NKA">
		<tag k="name" v="Bønsnes" />
		<tag k="place" v="hamlet" />
		<tag k="ssr:stedsnr" v="65252" />
	</node>
	<node id="9667337178" lat="60.0821002" lon="10.2072617" version="1" timestamp="2022-04-15T05:27:20Z" changeset="119736214" uid="3497659" user="NKA">
		<tag k="name" v="Fjelstad" />
		<tag k="place" v="hamlet" />
		<tag k="ssr:stedsnr" v="368313" />
	</node>
	<node id="9667337179" lat="60.0566466" lon="10.2899346" version="1" timestamp="2022-04-15T05:27:20Z" changeset="119736214" uid="3497659" user="NKA">
		<tag k="name" v="Rørvika" />
		<tag k="place" v="hamlet" />
		<tag k="ssr:stedsnr" v="854329" />
	</node>
	<node id="9667337180" lat="59.9964277" lon="10.3503611" version="1" timestamp="2022-04-15T05:27:20Z" changeset="119736214" uid="3497659" user="NKA">
		<tag k="name" v="Toresplassen" />
		<tag k="place" v="farm" />
		<tag k="ssr:stedsnr" v="307095" />
	</node>
	<node id="9667337181" lat="60.1091107" lon="10.2701892" version="1" timestamp="2022-04-15T05:27:20Z" changeset="119736214" uid="3497659" user="NKA">
		<tag k="name" v="Mo" />
		<tag k="place" v="hamlet" />
		<tag k="ssr:stedsnr" v="793765" />
	</node>
	<node id="9667337182" lat="60.0954945" lon="10.2277806" version="1" timestamp="2022-04-15T05:27:20Z" changeset="119736214" uid="3497659" user="NKA">
		<tag k="name" v="Skogstad" />
		<tag k="place" v="farm" />
		<tag k="ssr:stedsnr" v="571605" />
	</node>
	<node id="9667337183" lat="60.024175" lon="10.2891556" version="1" timestamp="2022-04-15T05:27:20Z" changeset="119736214" uid="3497659" user="NKA">
		<tag k="name" v="Hundstadhytta" />
		<tag k="place" v="isolated_dwelling" />
		<tag k="ssr:stedsnr" v="733311" />
	</node>
	<node id="9667337184" lat="60.087925" lon="10.2815416" version="1" timestamp="2022-04-15T05:27:20Z" changeset="119736214" uid="3497659" user="NKA">
		<tag k="name" v="Koksrud" />
		<tag k="place" v="farm" />
		<tag k="ssr:stedsnr" v="793305" />
	</node>
	<node id="9667337185" lat="60.1085042" lon="10.2955154" version="1" timestamp="2022-04-15T05:27:20Z" changeset="119736214" uid="3497659" user="NKA">
		<tag k="name" v="Hungerholt" />
		<tag k="place" v="farm" />
		<tag k="ssr:stedsnr" v="915732" />
	</node>
	<node id="9667337186" lat="60.0955222" lon="10.2113527" version="1" timestamp="2022-04-15T05:27:20Z" changeset="119736214" uid="3497659" user="NKA">
		<tag k="name" v="Lysgård" />
		<tag k="place" v="farm" />
		<tag k="ssr:stedsnr" v="207660" />
	</node>
	<node id="9667337187" lat="60.0057896" lon="10.2655172" version="1" timestamp="2022-04-15T05:27:20Z" changeset="119736214" uid="3497659" user="NKA">
		<tag k="alt_name" v="Appendiks" />
		<tag k="name" v="Rovestuen" />
		<tag k="place" v="isolated_dwelling" />
		<tag k="ssr:stedsnr" v="571486" />
	</node>
	<node id="9667337188" lat="60.0821361" lon="10.1919945" version="1" timestamp="2022-04-15T05:27:20Z" changeset="119736214" uid="3497659" user="NKA">
		<tag k="name" v="Nordenga" />
		<tag k="place" v="farm" />
		<tag k="ssr:stedsnr" v="693758" />
	</node>
	<node id="9667337189" lat="60.0968778" lon="10.1842639" version="1" timestamp="2022-04-15T05:27:20Z" changeset="119736214" uid="3497659" user="NKA">
		<tag k="name" v="Rundtom" />
		<tag k="place" v="isolated_dwelling" />
		<tag k="ssr:stedsnr" v="269657" />
	</node>
	<node id="9667337190" lat="60.1198273" lon="10.2735184" version="1" timestamp="2022-04-15T05:27:20Z" changeset="119736214" uid="3497659" user="NKA">
		<tag k="name" v="Bergerstua" />
		<tag k="place" v="farm" />
		<tag k="ssr:stedsnr" v="328349" />
	</node>
	<node id="9667337191" lat="60.0872365" lon="10.2337984" version="1" timestamp="2022-04-15T05:27:20Z" changeset="119736214" uid="3497659" user="NKA">
		<tag k="name" v="Svensrud" />
		<tag k="place" v="neighbourhood" />
		<tag k="ssr:stedsnr" v="65278" />
	</node>
	<node id="9667337192" lat="60.0752028" lon="10.25025" version="1" timestamp="2022-04-15T05:27:20Z" changeset="119736214" uid="3497659" user="NKA">
		<tag k="name" v="Sandvika" />
		<tag k="place" v="isolated_dwelling" />
		<tag k="ssr:stedsnr" v="672238" />
	</node>
	<node id="9667337193" lat="60.0854028" lon="10.1831027" version="1" timestamp="2022-04-15T05:27:20Z" changeset="119736214" uid="3497659" user="NKA">
		<tag k="name" v="Tuløkka" />
		<tag k="place" v="farm" />
		<tag k="ssr:stedsnr" v="389737" />
	</node>
	<node id="9667337194" lat="60.0436315" lon="10.395759" version="1" timestamp="2022-04-15T05:27:20Z" changeset="119736214" uid="3497659" user="NKA">
		<tag k="name" v="Mattisplassen" />
		<tag k="place" v="farm" />
		<tag k="ssr:stedsnr" v="187959" />
	</node>
	<node id="9667337195" lat="60.0202874" lon="10.3616652" version="1" timestamp="2022-04-15T05:27:20Z" changeset="119736214" uid="3497659" user="NKA">
		<tag k="name" v="Djupdalsbrautet" />
		<tag k="place" v="farm" />
		<tag k="ssr:stedsnr" v="1083568" />
	</node>
	<node id="9667337196" lat="60.0658166" lon="10.1699222" version="1" timestamp="2022-04-15T05:27:20Z" changeset="119736214" uid="3497659" user="NKA">
		<tag k="name" v="Solheim" />
		<tag k="place" v="farm" />
		<tag k="ssr:stedsnr" v="611267" />
	</node>
	<node id="9667337197" lat="60.095575" lon="10.2203195" version="1" timestamp="2022-04-15T05:27:20Z" changeset="119736214" uid="3497659" user="NKA">
		<tag k="name" v="Sauløkka" />
		<tag k="place" v="farm" />
		<tag k="ssr:stedsnr" v="936614" />
	</node>
	<node id="9667337198" lat="59.9699269" lon="10.3600194" version="1" timestamp="2022-04-15T05:27:20Z" changeset="119736214" uid="3497659" user="NKA">
		<tag k="name" v="Niskinn" />
		<tag k="place" v="farm" />
		<tag k="ssr:stedsnr" v="671033" />
	</node>
	<node id="9667337199" lat="60.0727166" lon="10.33195" version="1" timestamp="2022-04-15T05:27:20Z" changeset="119736214" uid="3497659" user="NKA">
		<tag k="name" v="Lyse" />
		<tag k="place" v="farm" />
		<tag k="ssr:stedsnr" v="550263" />
	</node>
</osm>
