<?xml version="1.0" encoding="UTF-8"?>
<osm generator="osmapis" version="0.6">
	<node id="-264192" lat="60.5229666635" lon="8.85560277285">
		<tag k="name" v="Tamburmyran" />
		<tag k="natural" v="wetland" />
		<tag k="ssr:stedsnr" v="795636" />
	</node>
	<node id="-262911" lat="60.6220583376" lon="9.26136944207">
		<tag k="name" v="Puttemyran" />
		<tag k="natural" v="wetland" />
		<tag k="ssr:stedsnr" v="450472" />
	</node>
	<node id="-263546" lat="60.4406055571" lon="9.19517778154">
		<tag k="name" v="Svangtjernmyre" />
		<tag k="natural" v="wetland" />
		<tag k="ssr:stedsnr" v="67360" />
	</node>
	<node id="-263799" lat="60.5006500043" lon="9.10157777591">
		<tag k="name" v="Høgelimyre" />
		<tag k="natural" v="wetland" />
		<tag k="ssr:stedsnr" v="310508" />
	</node>
	<node id="-262902" lat="60.468108336" lon="9.02702778276">
		<tag k="name" v="Storemyre" />
		<tag k="natural" v="wetland" />
		<tag k="ssr:stedsnr" v="450084" />
	</node>
	<node id="-263924" lat="60.6329166686" lon="9.04502778">
		<tag k="name" v="Brekkestein" />
		<tag k="natural" v="stone" />
		<tag k="ssr:stedsnr" v="389842" />
	</node>
	<node id="-264177" lat="60.4744194452" lon="9.16044721499">
		<tag k="loc_name" v="Storemyre" />
		<tag k="name" v="Stormyr" />
		<tag k="natural" v="wetland" />
		<tag k="old_name" v="Stormyre" />
		<tag k="ssr:stedsnr" v="875706" />
	</node>
	<node id="-262763" lat="60.503461107" lon="8.98851111017">
		<tag k="name" v="Fleddin" />
		<tag k="natural" v="wetland" />
		<tag k="ssr:stedsnr" v="67544" />
	</node>
	<node id="-262887" lat="60.5393416691" lon="9.01299723047">
		<tag k="name" v="Einan" />
		<tag k="natural" v="wetland" />
		<tag k="ssr:stedsnr" v="208449" />
	</node>
	<node id="-263526" lat="60.6394638899" lon="9.05510277336">
		<tag k="name" v="Strykebråten" />
		<tag k="place" v="locality" />
		<tag k="ssr:stedsnr" v="24979" />
	</node>
	<node id="-263524" lat="60.6002805555" lon="9.1721416738">
		<tag k="name" v="Hølskogen" />
		<tag k="place" v="locality" />
		<tag k="ssr:stedsnr" v="25168" />
	</node>
	<node id="-263138" lat="60.6321416629" lon="9.0474416624">
		<tag k="name" v="Oldebråten" />
		<tag k="place" v="locality" />
		<tag k="ssr:stedsnr" v="691986" />
	</node>
	<node id="-263777" lat="60.5470416707" lon="8.8099833329">
		<tag k="name" v="Smedsmyran" />
		<tag k="natural" v="wetland" />
		<tag k="ssr:stedsnr" v="310215" />
	</node>
	<node id="-262879" lat="60.5544027804" lon="9.14018889584">
		<tag k="name" v="Einan" />
		<tag k="place" v="locality" />
		<tag k="ssr:stedsnr" v="146063" />
	</node>
	<node id="-264284" lat="60.4305361145" lon="9.17694999165">
		<tag k="name" v="Storemyre" />
		<tag k="natural" v="wetland" />
		<tag k="ssr:stedsnr" v="856380" />
	</node>
	<node id="-264283" lat="60.6224638862" lon="8.8789222145">
		<tag k="historic" v="shieling" />
		<tag k="name" v="Synneivset" />
		<tag k="place" v="locality" />
		<tag k="ssr:stedsnr" v="856548" />
	</node>
	<node id="-262873" lat="60.4966666678" lon="8.88368055488">
		<tag k="name" v="Flåmyre" />
		<tag k="natural" v="wetland" />
		<tag k="ssr:stedsnr" v="268635" />
	</node>
	<node id="-262872" lat="60.4380083347" lon="9.17315555492">
		<tag k="name" v="Storemyre" />
		<tag k="natural" v="wetland" />
		<tag k="ssr:stedsnr" v="268493" />
	</node>
	<node id="-264023" lat="60.5292361071" lon="9.13687500681">
		<tag k="historic" v="shieling" />
		<tag k="name" v="Lindegarden" />
		<tag k="place" v="locality" />
		<tag k="ssr:stedsnr" v="570956" />
	</node>
	<node id="-264146" lat="60.6315166647" lon="9.05245276992">
		<tag k="name" v="Grønlibråten" />
		<tag k="place" v="locality" />
		<tag k="ssr:stedsnr" v="752980" />
	</node>
	<node id="-263631" lat="60.5342361136" lon="8.85718611161">
		<tag k="name" v="Øyslettan" />
		<tag k="natural" v="wetland" />
		<tag k="ssr:stedsnr" v="128551" />
	</node>
	<node id="-263501" lat="60.5345638896" lon="9.01118889526">
		<tag k="name" v="Klypemyran" />
		<tag k="natural" v="wetland" />
		<tag k="ssr:stedsnr" v="7563" />
	</node>
	<node id="-263756" lat="60.4921083341" lon="9.08498610216">
		<tag k="name" v="Fetjaremmen" />
		<tag k="natural" v="wetland" />
		<tag k="ssr:stedsnr" v="207689" />
	</node>
	<node id="-263626" lat="60.6275027818" lon="9.12983333012">
		<tag k="name" v="Lukasmyre" />
		<tag k="natural" v="wetland" />
		<tag k="ssr:stedsnr" v="128465" />
	</node>
	<node id="-263671" lat="60.5339972192" lon="8.99837500125">
		<tag k="name" v="Andreseinan" />
		<tag k="natural" v="wetland" />
		<tag k="ssr:stedsnr" v="147438" />
	</node>
	<node id="-263100" lat="60.4918500027" lon="9.27472499999">
		<tag k="name" v="Raudmyre" />
		<tag k="natural" v="wetland" />
		<tag k="ssr:stedsnr" v="673329" />
	</node>
	<node id="-264129" lat="60.4633027754" lon="9.2611222185">
		<tag k="name" v="Tjerndalen" />
		<tag k="place" v="locality" />
		<tag k="ssr:stedsnr" v="631922" />
	</node>
	<node id="-263359" lat="60.4718611117" lon="9.01548334126">
		<tag k="name" v="Sloddemyre" />
		<tag k="natural" v="wetland" />
		<tag k="ssr:stedsnr" v="815054" />
	</node>
	<node id="-264126" lat="60.4721138855" lon="9.24896111883">
		<tag k="landuse" v="meadow" />
		<tag k="name" v="Bergsengene" />
		<tag k="ssr:stedsnr" v="631907" />
	</node>
	<node id="-264141" lat="60.5891333349" lon="9.40228055886">
		<tag k="historic" v="shieling" />
		<tag k="name" v="Heimensetran" />
		<tag k="place" v="locality" />
		<tag k="ssr:stedsnr" v="752661" />
	</node>
	<node id="-264251" lat="60.4380083347" lon="9.17315555492">
		<tag k="name" v="Langemyre" />
		<tag k="natural" v="wetland" />
		<tag k="ssr:stedsnr" v="814514" />
	</node>
	<node id="-262842" lat="60.467116664" lon="9.15598610398">
		<tag k="name" v="Abaksmyran" />
		<tag k="natural" v="wetland" />
		<tag k="ssr:stedsnr" v="86710" />
	</node>
	<node id="-263868" lat="60.4457805571" lon="9.16490000594">
		<tag k="name" v="Dugurdsmyre" />
		<tag k="natural" v="wetland" />
		<tag k="ssr:stedsnr" v="370379" />
	</node>
	<node id="-262839" lat="60.4817166678" lon="9.23806389306">
		<tag k="name" v="Hestemyr" />
		<tag k="natural" v="wetland" />
		<tag k="ssr:stedsnr" v="86609" />
	</node>
	<node id="-263605" lat="60.4622944426" lon="8.87566944061">
		<tag k="name" v="Langedragmyran" />
		<tag k="natural" v="wetland" />
		<tag k="ssr:stedsnr" v="126267" />
	</node>
	<node id="-263601" lat="60.5013722188" lon="8.98846388056">
		<tag k="name" v="Stormyre" />
		<tag k="natural" v="wetland" />
		<tag k="ssr:stedsnr" v="103735" />
	</node>
	<node id="-263629" lat="60.6262805576" lon="8.88194443845">
		<tag k="historic" v="shieling" />
		<tag k="name" v="Haugaplassvollen" />
		<tag k="place" v="locality" />
		<tag k="ssr:stedsnr" v="128476" />
	</node>
	<node id="-263597" lat="60.4943722244" lon="9.07388333436">
		<tag k="name" v="Fetjamyran" />
		<tag k="natural" v="wetland" />
		<tag k="ssr:stedsnr" v="86688" />
	</node>
	<node id="-263980" lat="60.5211222245" lon="9.18464999468">
		<tag k="name" v="Stormyre" />
		<tag k="natural" v="wetland" />
		<tag k="ssr:stedsnr" v="552661" />
	</node>
	<node id="-264107" lat="60.5896666688" lon="9.16686667046">
		<tag k="name" v="Svartepytt" />
		<tag k="place" v="locality" />
		<tag k="ssr:stedsnr" v="630838" />
	</node>
	<node id="-263592" lat="60.6162944471" lon="9.30749443756">
		<tag k="name" v="Jutulstein" />
		<tag k="natural" v="stone" />
		<tag k="ssr:stedsnr" v="86476" />
	</node>
	<node id="-262950" lat="60.4055833315" lon="9.0712166666">
		<tag k="name" v="Gråurde" />
		<tag k="natural" v="scree" />
		<tag k="ssr:stedsnr" v="329327" />
	</node>
	<node id="-262821" lat="60.5401055517" lon="8.77324444824">
		<tag k="name" v="Jutulmyre" />
		<tag k="natural" v="wetland" />
		<tag k="ssr:stedsnr" v="250232" />
	</node>
	<node id="-263228" lat="60.6022388878" lon="9.21669444774">
		<tag k="name" v="Reiarrudningen" />
		<tag k="place" v="locality" />
		<tag k="ssr:stedsnr" v="735445" />
	</node>
	<node id="-262946" lat="60.4473416626" lon="9.20600833556">
		<tag k="name" v="Tungan" />
		<tag k="natural" v="wetland" />
		<tag k="ssr:stedsnr" v="328915" />
	</node>
	<node id="-263899" lat="60.537641668" lon="8.87734444427">
		<tag k="name" v="Stormyre" />
		<tag k="natural" v="wetland" />
		<tag k="ssr:stedsnr" v="371547" />
	</node>
	<node id="-263968" lat="60.4568361143" lon="9.17515277873">
		<tag k="name" v="Sverigsetermyran" />
		<tag k="natural" v="wetland" />
		<tag k="ssr:stedsnr" v="552337" />
	</node>
	<node id="-263583" lat="60.5669972243" lon="9.10869721947">
		<tag k="name" v="Jørnmojordet" />
		<tag k="place" v="locality" />
		<tag k="ssr:stedsnr" v="86092" />
	</node>
	<node id="-262937" lat="60.6100749982" lon="8.96097222005">
		<tag k="name" v="Grasvollan" />
		<tag k="natural" v="wetland" />
		<tag k="ssr:stedsnr" v="327922" />
	</node>
	<node id="-263064" lat="60.6144805565" lon="9.2284416609">
		<tag k="name" v="Kåpestakkmyre" />
		<tag k="natural" v="wetland" />
		<tag k="ssr:stedsnr" v="511450" />
	</node>
	<node id="-263625" lat="60.6086388868" lon="9.19135000328">
		<tag k="name" v="Stormyre" />
		<tag k="natural" v="wetland" />
		<tag k="ssr:stedsnr" v="128445" />
	</node>
	<node id="-263059" lat="60.6169111135" lon="9.2272250058">
		<tag k="name" v="Bekkedalsmyre" />
		<tag k="natural" v="wetland" />
		<tag k="ssr:stedsnr" v="511453" />
	</node>
	<node id="-263567" lat="60.5459138855" lon="8.8619638898">
		<tag k="name" v="Nystølmyran" />
		<tag k="natural" v="wetland" />
		<tag k="ssr:stedsnr" v="68592" />
	</node>
	<node id="-263956" lat="60.6348083376" lon="9.20880833664">
		<tag k="name" v="Ilemyre" />
		<tag k="natural" v="wetland" />
		<tag k="ssr:stedsnr" v="432477" />
	</node>
	<node id="-264330" lat="60.4524249977" lon="9.02208611053">
		<tag k="loc_name" v="Langeleine" />
		<tag k="name" v="Langeleina" />
		<tag k="natural" v="wetland" />
		<tag k="ssr:stedsnr" v="876067" />
	</node>
	<node id="-263687" lat="60.428669443" lon="9.16740832852">
		<tag k="name" v="Langemyre" />
		<tag k="natural" v="wetland" />
		<tag k="ssr:stedsnr" v="188374" />
	</node>
	<node id="-262917" lat="60.6159555522" lon="9.1023750084">
		<tag k="name" v="Brennelimyre" />
		<tag k="natural" v="wetland" />
		<tag k="ssr:stedsnr" v="450772" />
	</node>
</osm>
