<?xml version="1.0" encoding="UTF-8"?>
<osm version="0.6" generator="osmapis">
	<node lat="60.43351388831093" lon="9.065152783181873" id="-31366">
		<tag k="name" v="Øyvatnet" />
		<tag k="natural" v="water" />
		<tag k="ssr:stedsnr" v="6612" />
		<tag k="water" v="lake" />
	</node>
	<node lat="60.62232285668157" lon="9.29260195607134" id="-31371">
		<tag k="name" v="Eihellervatnet" />
		<tag k="natural" v="water" />
		<tag k="ssr:stedsnr" v="7608" />
		<tag k="water" v="lake" />
	</node>
	<node lat="60.64862222459763" lon="9.355708325131882" id="-31374">
		<tag k="name" v="Kroktjern" />
		<tag k="natural" v="water" />
		<tag k="ssr:stedsnr" v="7627" />
	</node>
	<node lat="60.61377222013358" lon="9.40086943864373" id="-31378">
		<tag k="name" v="Strøen" />
		<tag k="natural" v="water" />
		<tag k="ssr:stedsnr" v="7662" />
		<tag k="water" v="lake" />
	</node>
	<node lat="60.53238055433298" lon="9.181430564632324" id="-31388">
		<tag k="name" v="Loppetjern" />
		<tag k="natural" v="water" />
		<tag k="ssr:stedsnr" v="25180" />
		<tag k="water" v="pond" />
	</node>
	<node lat="60.452708334773504" lon="8.994016672614025" id="-31393">
		<tag k="name" v="Nørdre Småvatn" />
		<tag k="natural" v="water" />
		<tag k="ssr:stedsnr" v="26009" />
	</node>
	<node lat="60.5544777788815" lon="9.140222224516886" id="-31395">
		<tag k="alt_name" v="Einan" />
		<tag k="name" v="Øynan" />
		<tag k="place" v="island" />
		<tag k="ssr:stedsnr" v="234614" />
	</node>
	<node lat="60.563514595105715" lon="8.910275300158437" id="-31408">
		<tag k="name" v="Damtjern" />
		<tag k="natural" v="water" />
		<tag k="ssr:stedsnr" v="67442" />
	</node>
	<node lat="60.6274361115981" lon="9.170874994444194" id="-31422">
		<tag k="name" v="Fiskebekken" />
		<tag k="ssr:stedsnr" v="68501" />
		<tag k="waterway" v="stream" />
	</node>
	<node lat="60.622761114590354" lon="9.102122224862736" id="-31423">
		<tag k="name" v="Elgtjern" />
		<tag k="natural" v="water" />
		<tag k="ssr:stedsnr" v="68504" />
	</node>
	<node lat="60.61048889170922" lon="9.239499999550977" id="-31433">
		<tag k="name" v="Krossløken" />
		<tag k="natural" v="water" />
		<tag k="ssr:stedsnr" v="68693" />
	</node>
	<node lat="60.59406111430442" lon="8.935925004761181" id="-31438">
		<tag k="name" v="Langetjern" />
		<tag k="natural" v="water" />
		<tag k="ssr:stedsnr" v="85977" />
	</node>
	<node lat="60.599786111472106" lon="9.2608611073711" id="-31448">
		<tag k="name" v="Jutulbekken" />
		<tag k="ssr:stedsnr" v="86478" />
		<tag k="waterway" v="stream" />
	</node>
	<node lat="60.577986107461946" lon="8.737119441074112" id="-31458">
		<tag k="name" v="Fjellsetvatnet" />
		<tag k="natural" v="water" />
		<tag k="ssr:stedsnr" v="249030" />
	</node>
	<node lat="60.639852777110406" lon="9.184488884125741" id="-31469">
		<tag k="name" v="Fjellsetbekken" />
		<tag k="ssr:stedsnr" v="249505" />
		<tag k="waterway" v="stream" />
	</node>
	<node lat="60.55116944698034" lon="9.16669721653972" id="-31491">
		<tag k="name" v="Åstjernet" />
		<tag k="natural" v="water" />
		<tag k="ssr:stedsnr" v="250551" />
	</node>
	<node lat="60.5345833303114" lon="9.160944443965123" id="-31492">
		<tag k="name" v="Brommafjorden" />
		<tag k="natural" v="water" />
		<tag k="ssr:stedsnr" v="250564" />
		<tag k="water" v="lake" />
	</node>
	<node lat="60.60614444540813" lon="9.311791668644856" id="-31500">
		<tag k="name" v="Mattjern" />
		<tag k="natural" v="water" />
		<tag k="ssr:stedsnr" v="250672" />
	</node>
	<node lat="60.442788892070745" lon="9.19773888136696" id="-31509">
		<tag k="name" v="Svangtjern" />
		<tag k="natural" v="water" />
		<tag k="ssr:stedsnr" v="127350" />
	</node>
	<node lat="60.62945832944917" lon="9.30898333193694" id="-31523">
		<tag k="name" v="Fisketjernbekken" />
		<tag k="ssr:stedsnr" v="128616" />
		<tag k="waterway" v="stream" />
	</node>
	<node lat="60.603572223565145" lon="9.367322229758608" id="-31524">
		<tag k="name" v="Sollitjern" />
		<tag k="natural" v="water" />
		<tag k="ssr:stedsnr" v="128652" />
	</node>
	<node lat="60.51338288969393" lon="9.31849870768446" id="-31525">
		<tag k="name" v="Bødalsvatnet" />
		<tag k="natural" v="water" />
		<tag k="ssr:stedsnr" v="128790" />
		<tag k="water" v="lake" />
	</node>
	<node lat="60.56266388509746" lon="9.295177778565288" id="-31526">
		<tag k="name" v="Øyvatnet" />
		<tag k="natural" v="water" />
		<tag k="ssr:stedsnr" v="128843" />
	</node>
	<node lat="60.615563893186696" lon="9.170849995249817" id="-31556">
		<tag k="name" v="Todalsbekken" />
		<tag k="ssr:stedsnr" v="189424" />
		<tag k="waterway" v="stream" />
	</node>
	<node lat="60.616291669849595" lon="9.210752773158616" id="-31557">
		<tag k="name" v="Skjegletjern" />
		<tag k="natural" v="water" />
		<tag k="ssr:stedsnr" v="189425" />
	</node>
	<node lat="60.59165833775903" lon="9.317677773380634" id="-31562">
		<tag k="name" v="Svartetjern" />
		<tag k="natural" v="water" />
		<tag k="ssr:stedsnr" v="189787" />
	</node>
	<node lat="60.46016666959757" lon="9.259994439165506" id="-31567">
		<tag k="name" v="Bergaøyne" />
		<tag k="place" v="island" />
		<tag k="ssr:stedsnr" v="267777" />
	</node>
	<node lat="60.50547121418655" lon="8.714913735399888" id="-31585">
		<tag k="name" v="Tjuverihallvatnet" />
		<tag k="natural" v="water" />
		<tag k="ssr:stedsnr" v="207025" />
		<tag k="water" v="lake" />
	</node>
	<node lat="60.534408329195855" lon="8.71029167387585" id="-31586">
		<tag k="name" v="Smalvassbekken" />
		<tag k="ssr:stedsnr" v="207030" />
		<tag k="waterway" v="stream" />
	</node>
	<node lat="60.62018610765299" lon="9.231419446134511" id="-31591">
		<tag k="name" v="Øvre Bekkedalstjern" />
		<tag k="natural" v="water" />
		<tag k="ssr:stedsnr" v="207421" />
	</node>
	<node lat="60.60993055187436" lon="8.892102786353036" id="-31595">
		<tag k="name" v="Steintjern" />
		<tag k="natural" v="water" />
		<tag k="ssr:stedsnr" v="268815" />
	</node>
	<node lat="60.511458337692716" lon="9.250172224162172" id="-31608">
		<tag k="name" v="Geitsundtjern" />
		<tag k="natural" v="water" />
		<tag k="ssr:stedsnr" v="449629" />
		<tag k="water" v="pond" />
	</node>
	<node lat="60.61022500381062" lon="9.41713611173978" id="-31610">
		<tag k="name" v="Langodden" />
		<tag k="natural" v="cape" />
		<tag k="ssr:stedsnr" v="449679" />
	</node>
	<node lat="60.55593333264195" lon="9.14097222728369" id="-31621">
		<tag k="name" v="Holmtjern" />
		<tag k="natural" v="water" />
		<tag k="ssr:stedsnr" v="450063" />
	</node>
	<node lat="60.559822225049864" lon="9.128775004415013" id="-31624">
		<tag k="name" v="Småøyne" />
		<tag k="place" v="island" />
		<tag k="ssr:stedsnr" v="450200" />
	</node>
	<node lat="60.580138891768904" lon="9.33609443815684" id="-31627">
		<tag k="name" v="Mattjern" />
		<tag k="natural" v="water" />
		<tag k="ssr:stedsnr" v="450284" />
	</node>
	<node lat="60.621844442084566" lon="9.305716670372675" id="-31629">
		<tag k="name" v="Eihellervassdypilen" />
		<tag k="natural" v="water" />
		<tag k="ssr:stedsnr" v="450436" />
		<tag k="water" v="pond" />
	</node>
	<node lat="60.47243888596671" lon="9.12741944362357" id="-31631">
		<tag k="loc_name" v="Holmevatn" />
		<tag k="name" v="Øyvatn" />
		<tag k="natural" v="water" />
		<tag k="ssr:stedsnr" v="450727" />
	</node>
	<node lat="60.68459721984428" lon="9.304663896423364" id="-31652">
		<tag k="name" v="Andersentjern" />
		<tag k="natural" v="water" />
		<tag k="ssr:stedsnr" v="267898" />
	</node>
	<node lat="60.68236666548594" lon="9.292322222992231" id="-31653">
		<tag k="name" v="Valdreslibekken" />
		<tag k="ssr:stedsnr" v="267900" />
		<tag k="waterway" v="stream" />
	</node>
	<node lat="60.44123900649605" lon="9.057778950013438" id="-31674">
		<tag k="name" v="Haglevatnet" />
		<tag k="natural" v="water" />
		<tag k="ssr:stedsnr" v="309357" />
		<tag k="water" v="lake" />
	</node>
	<node lat="60.53156389160878" lon="8.816669442250864" id="-31676">
		<tag k="name" v="Mykingsjøen" />
		<tag k="natural" v="water" />
		<tag k="ssr:stedsnr" v="310202" />
		<tag k="water" v="lake" />
	</node>
	<node lat="60.5530092389631" lon="8.799501741923375" id="-31680">
		<tag k="alt_name" v="Skårsrudvatnet" />
		<tag k="name" v="Skålsrudvatnet" />
		<tag k="natural" v="water" />
		<tag k="old_name" v="Skaarsrudvatnet;Skaalsrud Vand" />
		<tag k="ssr:stedsnr" v="310230" />
		<tag k="water" v="lake" />
	</node>
	<node lat="60.57532777470646" lon="9.155144445898996" id="-31684">
		<tag k="name" v="Trytetjern" />
		<tag k="natural" v="water" />
		<tag k="ssr:stedsnr" v="310435" />
	</node>
	<node lat="60.55454721853659" lon="9.2956694370128" id="-31698">
		<tag k="name" v="Lusvatn" />
		<tag k="natural" v="water" />
		<tag k="ssr:stedsnr" v="310846" />
	</node>
	<node lat="60.530486111289036" lon="9.299925004533074" id="-31702">
		<tag k="name" v="Osetjerndipilen" />
		<tag k="natural" v="water" />
		<tag k="ssr:stedsnr" v="327220" />
	</node>
	<node lat="60.54566388845319" lon="9.3117055628204" id="-31704">
		<tag k="name" v="Blåfjelltjern" />
		<tag k="natural" v="water" />
		<tag k="ssr:stedsnr" v="327926" />
	</node>
	<node lat="60.533238888371265" lon="9.22893888547775" id="-31708">
		<tag k="name" v="Liabergvatnet" />
		<tag k="natural" v="water" />
		<tag k="ssr:stedsnr" v="328421" />
	</node>
	<node lat="60.65590833770224" lon="8.887549996537425" id="-31719">
		<tag k="name" v="Ivarslitjern" />
		<tag k="natural" v="water" />
		<tag k="ssr:stedsnr" v="328977" />
	</node>
	<node lat="60.46500000327782" lon="9.00682500372622" id="-31721">
		<tag k="name" v="Gamlevollstjern" />
		<tag k="natural" v="water" />
		<tag k="ssr:stedsnr" v="329064" />
	</node>
	<node lat="60.561688890422914" lon="8.862097229518561" id="-31739">
		<tag k="name" v="Belgefetløken" />
		<tag k="place" v="locality" />
		<tag k="ssr:stedsnr" v="370470" />
	</node>
	<node lat="60.5119027740661" lon="8.939508338928423" id="-31750">
		<tag k="name" v="Storhalltjernet" />
		<tag k="natural" v="water" />
		<tag k="ssr:stedsnr" v="371502" />
	</node>
	<node lat="60.62136666466106" lon="9.020883337496716" id="-31753">
		<tag k="name" v="Brabantbekken" />
		<tag k="ssr:stedsnr" v="371471" />
		<tag k="waterway" v="stream" />
	</node>
	<node lat="60.4712416696686" lon="8.94947221705201" id="-31764">
		<tag k="name" v="Åkerfjellvatn" />
		<tag k="natural" v="water" />
		<tag k="ssr:stedsnr" v="388859" />
		<tag k="water" v="lake" />
	</node>
	<node lat="60.54082499690033" lon="9.177044444491449" id="-31765">
		<tag k="name" v="Loppetjern" />
		<tag k="natural" v="water" />
		<tag k="ssr:stedsnr" v="388950" />
	</node>
	<node lat="60.47946111079833" lon="9.23858888031634" id="-31776">
		<tag k="name" v="Mobekken" />
		<tag k="ssr:stedsnr" v="389619" />
		<tag k="waterway" v="stream" />
	</node>
	<node lat="60.46242499789758" lon="9.099777781768177" id="-31800">
		<tag k="name" v="Haugatjern" />
		<tag k="natural" v="water" />
		<tag k="ssr:stedsnr" v="491297" />
	</node>
	<node lat="60.652927781138466" lon="9.110599996584554" id="-31802">
		<tag k="name" v="Fesheimfjorden" />
		<tag k="natural" v="water" />
		<tag k="ssr:stedsnr" v="431304" />
	</node>
	<node lat="60.4826916691538" lon="9.255405548611314" id="-31805">
		<tag k="name" v="Finnesetbekken" />
		<tag k="ssr:stedsnr" v="431350" />
		<tag k="waterway" v="stream" />
	</node>
	<node lat="60.52183889276177" lon="8.981502771064411" id="-31827">
		<tag k="name" v="Kulusetbekken" />
		<tag k="ssr:stedsnr" v="492561" />
		<tag k="waterway" v="stream" />
	</node>
	<node lat="60.53231666675417" lon="9.333113894203724" id="-31831">
		<tag k="name" v="Ormevatnet" />
		<tag k="natural" v="water" />
		<tag k="ssr:stedsnr" v="492745" />
	</node>
	<node lat="60.527008331225005" lon="9.310827773590232" id="-31835">
		<tag k="name" v="Løken" />
		<tag k="natural" v="water" />
		<tag k="ssr:stedsnr" v="449229" />
	</node>
	<node lat="60.44831111052389" lon="9.007469451837963" id="-31852">
		<tag k="name" v="Søre Småvatn" />
		<tag k="natural" v="water" />
		<tag k="ssr:stedsnr" v="451007" />
	</node>
	<node lat="60.598711476393454" lon="9.272218478109448" id="-31880">
		<tag k="name" v="Gampetjern" />
		<tag k="natural" v="water" />
		<tag k="ssr:stedsnr" v="674678" />
	</node>
	<node lat="60.63009296251165" lon="9.2881439043393" id="-31882">
		<tag k="name" v="Fisketjern" />
		<tag k="natural" v="water" />
		<tag k="ssr:stedsnr" v="674631" />
	</node>
	<node lat="60.602300002986766" lon="8.918225007778968" id="-31886">
		<tag k="name" v="Vesleausa" />
		<tag k="natural" v="water" />
		<tag k="ssr:stedsnr" v="675486" />
	</node>
	<node lat="60.473738887147576" lon="9.078024992393708" id="-31894">
		<tag k="name" v="Brisketjern" />
		<tag k="natural" v="water" />
		<tag k="ssr:stedsnr" v="491316" />
	</node>
	<node lat="60.48345277534471" lon="8.921724997158803" id="-31899">
		<tag k="name" v="Nedre Grågalttjern" />
		<tag k="natural" v="water" />
		<tag k="ssr:stedsnr" v="491280" />
	</node>
	<node lat="60.58540000023003" lon="9.022155554498442" id="-31909">
		<tag k="name" v="Damtjern" />
		<tag k="natural" v="water" />
		<tag k="ssr:stedsnr" v="492388" />
	</node>
	<node lat="60.485041665292094" lon="9.19072499160199" id="-31935">
		<tag k="name" v="Søgardsbekken" />
		<tag k="ssr:stedsnr" v="513171" />
		<tag k="waterway" v="stream" />
	</node>
	<node lat="60.65053611502037" lon="9.158213880741739" id="-31948">
		<tag k="name" v="Haratjernet" />
		<tag k="natural" v="water" />
		<tag k="ssr:stedsnr" v="552311" />
	</node>
	<node lat="60.656925004027585" lon="9.174888880630848" id="-31949">
		<tag k="name" v="Fiskebekken" />
		<tag k="ssr:stedsnr" v="552315" />
		<tag k="waterway" v="river" />
	</node>
	<node lat="60.466249996849484" lon="8.971986108891873" id="-31952">
		<tag k="name" v="Kringletjern" />
		<tag k="natural" v="water" />
		<tag k="ssr:stedsnr" v="552324" />
	</node>
	<node lat="60.53041388805147" lon="8.83705000413291" id="-31955">
		<tag k="name" v="Stryktjernet" />
		<tag k="natural" v="water" />
		<tag k="ssr:stedsnr" v="553200" />
	</node>
	<node lat="60.60058055928053" lon="9.39873333223116" id="-31962">
		<tag k="name" v="Trytetjern" />
		<tag k="natural" v="water" />
		<tag k="ssr:stedsnr" v="553678" />
	</node>
	<node lat="60.533708335184656" lon="9.30347777818304" id="-31965">
		<tag k="name" v="Svartetjern" />
		<tag k="natural" v="water" />
		<tag k="ssr:stedsnr" v="553884" />
	</node>
	<node lat="60.50413333561436" lon="9.290466664157337" id="-31966">
		<tag k="name" v="Geitsundbekken" />
		<tag k="ssr:stedsnr" v="691852" />
		<tag k="waterway" v="stream" />
	</node>
	<node lat="60.53068055936277" lon="8.700874996174916" id="-31967">
		<tag k="name" v="Olsetløken" />
		<tag k="place" v="locality" />
		<tag k="ssr:stedsnr" v="692035" />
	</node>
	<node lat="60.45336389275405" lon="9.041891663119982" id="-31976">
		<tag k="name" v="Ørnenattjern" />
		<tag k="natural" v="water" />
		<tag k="ssr:stedsnr" v="693031" />
	</node>
	<node lat="60.43896111165384" lon="9.204308326585723" id="-31997">
		<tag k="name" v="Kjeltjern" />
		<tag k="natural" v="water" />
		<tag k="ssr:stedsnr" v="571918" />
	</node>
	<node lat="60.56073889059895" lon="9.280222224073594" id="-32034">
		<tag k="name" v="Krøren" />
		<tag k="natural" v="water" />
		<tag k="ssr:stedsnr" v="613835" />
	</node>
	<node lat="60.536652938699845" lon="9.235491067186015" id="-32036">
		<tag k="name" v="Liavatnet" />
		<tag k="natural" v="water" />
		<tag k="ssr:stedsnr" v="613873" />
		<tag k="water" v="lake" />
	</node>
	<node lat="60.56088333386862" lon="9.289602780723971" id="-32038">
		<tag k="name" v="Vesledypilen" />
		<tag k="natural" v="water" />
		<tag k="ssr:stedsnr" v="630932" />
	</node>
	<node lat="60.47058333302117" lon="9.23844722448868" id="-32045">
		<tag k="name" v="Sevrefossen" />
		<tag k="natural" v="waterfall" />
		<tag k="ssr:stedsnr" v="631908" />
	</node>
	<node lat="60.47361111125281" lon="9.223741658349555" id="-32055">
		<tag k="name" v="Kjerringvikje" />
		<tag k="natural" v="bay" />
		<tag k="ssr:stedsnr" v="632883" />
	</node>
	<node lat="60.69223333023164" lon="9.270508325378131" id="-32087">
		<tag k="name" v="Andsjøen" />
		<tag k="natural" v="water" />
		<tag k="ssr:stedsnr" v="674718" />
	</node>
	<node lat="60.66678055381175" lon="9.350016659506844" id="-32091">
		<tag k="name" v="Bergatjern" />
		<tag k="natural" v="water" />
		<tag k="ssr:stedsnr" v="675757" />
	</node>
	<node lat="60.59182500127273" lon="9.237177774547375" id="-32103">
		<tag k="name" v="Ormetjern" />
		<tag k="natural" v="water" />
		<tag k="ssr:stedsnr" v="693490" />
	</node>
	<node lat="60.47473611539046" lon="9.227880557284454" id="-32105">
		<tag k="name" v="Bukkøynan" />
		<tag k="place" v="island" />
		<tag k="ssr:stedsnr" v="693881" />
	</node>
	<node lat="60.45106110894301" lon="9.056627782607109" id="-32120">
		<tag k="name" v="Steintjern" />
		<tag k="natural" v="water" />
		<tag k="ssr:stedsnr" v="734339" />
	</node>
	<node lat="60.55065000224492" lon="8.833922214362723" id="-32124">
		<tag k="alt_name" v="Skårsrudbekken" />
		<tag k="name" v="Skålsrudbekken" />
		<tag k="old_name" v="Skaarsrudbekken;Skaalsrud Aae" />
		<tag k="ssr:stedsnr" v="735233" />
		<tag k="waterway" v="river" />
	</node>
	<node lat="60.57938333586818" lon="9.100399995215072" id="-32128">
		<tag k="name" v="Myrefjorden" />
		<tag k="natural" v="water" />
		<tag k="ssr:stedsnr" v="735422" />
	</node>
	<node lat="60.670619447399346" lon="9.248622224619762" id="-32143">
		<tag k="name" v="Mortenstjern" />
		<tag k="natural" v="water" />
		<tag k="ssr:stedsnr" v="752904" />
	</node>
	<node lat="60.56148055140731" lon="8.779622215258783" id="-32145">
		<tag k="name" v="Ausebekken" />
		<tag k="ssr:stedsnr" v="752876" />
		<tag k="waterway" v="stream" />
	</node>
	<node lat="60.5373583368902" lon="9.321558339488213" id="-32171">
		<tag k="alt_name" v="Grårovun" />
		<tag k="fixme" v="multiple name tags, choose one and add the other to alt_name" />
		<tag k="name" v="Grårova;Grårovetjern" />
		<tag k="natural" v="water" />
		<tag k="ssr:stedsnr" v="787794" />
	</node>
	<node lat="60.52411385493019" lon="8.731322657265062" id="-32177">
		<tag k="name" v="Olfisken" />
		<tag k="natural" v="water" />
		<tag k="old_name" v="Orfisken" />
		<tag k="ssr:stedsnr" v="796214" />
		<tag k="water" v="lake" />
	</node>
	<node lat="60.49520555325357" lon="8.736922213194685" id="-32186">
		<tag k="alt_name" v="Langevatn;Langetjørm" />
		<tag k="name" v="Langevatnet" />
		<tag k="natural" v="water" />
		<tag k="ssr:stedsnr" v="916037" />
		<tag k="water" v="lake" />
	</node>
	<node lat="60.45091388950662" lon="9.108124998490807" id="-32192">
		<tag k="name" v="Lauvtangen" />
		<tag k="natural" v="cape" />
		<tag k="ssr:stedsnr" v="916349" />
	</node>
	<node lat="60.64815700944444" lon="8.917619895026148" id="-32205">
		<tag k="name" v="Storevatn" />
		<tag k="natural" v="water" />
		<tag k="ssr:stedsnr" v="917243" />
		<tag k="water" v="lake" />
	</node>
	<node lat="60.58674444461307" lon="8.976580562233277" id="-32209">
		<tag k="name" v="Trytetjern" />
		<tag k="natural" v="water" />
		<tag k="ssr:stedsnr" v="917373" />
	</node>
	<node lat="60.588716670270024" lon="9.207188884273103" id="-32211">
		<tag k="name" v="Svinetjernet" />
		<tag k="natural" v="water" />
		<tag k="ssr:stedsnr" v="917378" />
	</node>
	<node lat="60.50365277863572" lon="9.108377776445609" id="-32214">
		<tag k="name" v="Tjernosen" />
		<tag k="natural" v="water" />
		<tag k="ssr:stedsnr" v="917492" />
	</node>
	<node lat="60.52683611158976" lon="9.228808333571601" id="-32224">
		<tag k="name" v="Svartetjern" />
		<tag k="natural" v="water" />
		<tag k="ssr:stedsnr" v="917741" />
	</node>
	<node lat="60.49092499927244" lon="9.034516662071601" id="-32232">
		<tag k="name" v="Sølvbergbekken" />
		<tag k="ssr:stedsnr" v="814711" />
		<tag k="waterway" v="stream" />
	</node>
	<node lat="60.444583337656425" lon="9.20357778658419" id="-32237">
		<tag k="name" v="Vesle Kjeltjern" />
		<tag k="natural" v="water" />
		<tag k="ssr:stedsnr" v="814933" />
	</node>
	<node lat="60.47771111125219" lon="8.925836108962807" id="-32247">
		<tag k="name" v="Midtre Grågalttjern" />
		<tag k="natural" v="water" />
		<tag k="ssr:stedsnr" v="855286" />
	</node>
	<node lat="60.65060278002164" lon="8.999613891186678" id="-32254">
		<tag k="name" v="Trytetjern" />
		<tag k="natural" v="water" />
		<tag k="ssr:stedsnr" v="856294" />
	</node>
	<node lat="60.402536151648285" lon="9.141935398743842" id="-32256">
		<tag k="name" v="Krysskottjern" />
		<tag k="natural" v="water" />
		<tag k="ssr:stedsnr" v="856403" />
	</node>
	<node lat="60.45353888558497" lon="9.158355555883114" id="-32262">
		<tag k="name" v="Kimbetjern" />
		<tag k="natural" v="water" />
		<tag k="ssr:stedsnr" v="856333" />
	</node>
	<node lat="60.58825302291761" lon="8.764071135919377" id="-32270">
		<tag k="alt_name" v="Belgavatnet" />
		<tag k="name" v="Øvre Belgevatnet" />
		<tag k="natural" v="water" />
		<tag k="ssr:stedsnr" v="857040" />
		<tag k="water" v="lake" />
	</node>
	<node lat="60.5142972239858" lon="9.229561118613494" id="-32280">
		<tag k="name" v="Bekretjern" />
		<tag k="natural" v="water" />
		<tag k="ssr:stedsnr" v="857778" />
	</node>
	<node lat="60.60721388850765" lon="9.125441663886813" id="-32285">
		<tag k="name" v="Vinkeltjern" />
		<tag k="natural" v="water" />
		<tag k="ssr:stedsnr" v="876457" />
	</node>
	<node lat="60.637077776715856" lon="9.361430561673618" id="-32304">
		<tag k="name" v="Vangsbekken" />
		<tag k="ssr:stedsnr" v="908816" />
		<tag k="waterway" v="stream" />
	</node>
	<node lat="60.505580555724876" lon="8.889827783895281" id="-32322">
		<tag k="name" v="Svarteløken" />
		<tag k="place" v="locality" />
		<tag k="ssr:stedsnr" v="917506" />
	</node>
	<node lat="60.552844448283636" lon="9.302338887328997" id="-32337">
		<tag k="name" v="Vesle Ausa" />
		<tag k="natural" v="water" />
		<tag k="ssr:stedsnr" v="935472" />
		<tag k="water" v="pond" />
	</node>
	<node lat="60.644066670441106" lon="9.05353333889957" id="-32340">
		<tag k="name" v="Hallifossen" />
		<tag k="natural" v="waterfall" />
		<tag k="ssr:stedsnr" v="935849" />
	</node>
	<node lat="60.631100004136584" lon="9.032730559455961" id="-32342">
		<tag k="name" v="Brabantbekken" />
		<tag k="ssr:stedsnr" v="935855" />
		<tag k="waterway" v="stream" />
	</node>
	<node lat="60.61531667007168" lon="9.222472228066414" id="-32343">
		<tag k="name" v="Nedre Bekkedalstjern" />
		<tag k="natural" v="water" />
		<tag k="ssr:stedsnr" v="936433" />
	</node>
	<node lat="60.41699722570961" lon="9.154388889372756" id="-32378">
		<tag k="name" v="Nørdringsbekken" />
		<tag k="ssr:stedsnr" v="6353" />
		<tag k="waterway" v="stream" />
	</node>
	<node lat="60.5643122436453" lon="9.349278354434027" id="-32382">
		<tag k="name" v="Buvatnet" />
		<tag k="natural" v="water" />
		<tag k="ssr:stedsnr" v="6849" />
		<tag k="water" v="lake" />
	</node>
	<node lat="60.506586114872526" lon="8.771602779626427" id="-32387">
		<tag k="name" v="Stor-Lyseren" />
		<tag k="natural" v="water" />
		<tag k="ssr:stedsnr" v="7198" />
		<tag k="water" v="lake" />
	</node>
	<node lat="60.536638891049265" lon="9.108269443720195" id="-32400">
		<tag k="name" v="Leirtjern" />
		<tag k="natural" v="water" />
		<tag k="ssr:stedsnr" v="7566" />
	</node>
	<node lat="60.69898495322847" lon="9.317911317669438" id="-32404">
		<tag k="name" v="Høvren" />
		<tag k="natural" v="water" />
		<tag k="ssr:stedsnr" v="7686" />
		<tag k="water" v="lake" />
	</node>
	<node lat="60.473202779976376" lon="8.896213884928155" id="-32431">
		<tag k="name" v="Øyvassbekken" />
		<tag k="ssr:stedsnr" v="66273" />
		<tag k="waterway" v="stream" />
	</node>
	<node lat="60.58440703552881" lon="8.787800258222191" id="-32435">
		<tag k="name" v="Øystøltjernet" />
		<tag k="natural" v="water" />
		<tag k="ssr:stedsnr" v="67029" />
	</node>
	<node lat="60.51203888471273" lon="8.86727777072425" id="-32448">
		<tag k="name" v="Hallingbekken" />
		<tag k="ssr:stedsnr" v="67560" />
		<tag k="waterway" v="stream" />
	</node>
	<node lat="60.522341663301624" lon="9.327266662708066" id="-32452">
		<tag k="name" v="Brennåstjern" />
		<tag k="natural" v="water" />
		<tag k="ssr:stedsnr" v="68780" />
	</node>
	<node lat="60.57145833441475" lon="9.253441670882586" id="-32460">
		<tag k="name" v="Kvitevatnet" />
		<tag k="natural" v="water" />
		<tag k="ssr:stedsnr" v="68830" />
		<tag k="water" v="lake" />
	</node>
	<node lat="60.56664444804022" lon="9.31066666002872" id="-32478">
		<tag k="name" v="Raudtjern" />
		<tag k="natural" v="water" />
		<tag k="ssr:stedsnr" v="86462" />
	</node>
	<node lat="60.74769999803476" lon="8.767986110455281" id="-32500">
		<tag k="name" v="Vola" />
		<tag k="ssr:stedsnr" v="127833" />
		<tag k="waterway" v="river" />
	</node>
	<node lat="60.555325003775955" lon="8.742483330620075" id="-32503">
		<tag k="name" v="Svartevatnet" />
		<tag k="natural" v="water" />
		<tag k="ssr:stedsnr" v="128220" />
	</node>
	<node lat="60.55547499907089" lon="8.929166670633707" id="-32510">
		<tag k="name" v="Damtjernbekken" />
		<tag k="ssr:stedsnr" v="128382" />
		<tag k="waterway" v="stream" />
	</node>
	<node lat="60.5531833295359" lon="9.30763611620667" id="-32531">
		<tag k="name" v="Ausa" />
		<tag k="natural" v="water" />
		<tag k="ssr:stedsnr" v="128851" />
	</node>
	<node lat="60.528600311238314" lon="9.32276545808823" id="-32533">
		<tag k="name" v="Vesle Ormevatnet" />
		<tag k="natural" v="water" />
		<tag k="ssr:stedsnr" v="128754" />
	</node>
	<node lat="60.52730555462254" lon="9.298816671564529" id="-32538">
		<tag k="name" v="Pottetjern" />
		<tag k="natural" v="water" />
		<tag k="ssr:stedsnr" v="145223" />
	</node>
	<node lat="60.60438888797726" lon="8.94310832659802" id="-32544">
		<tag k="name" v="Fugletjernet" />
		<tag k="natural" v="water" />
		<tag k="ssr:stedsnr" v="145978" />
	</node>
	<node lat="60.53526110671808" lon="8.927716672836159" id="-32581">
		<tag k="name" v="Rukkedøla" />
		<tag k="ssr:stedsnr" v="189532" />
		<tag k="waterway" v="river" />
	</node>
	<node lat="60.51104166970884" lon="8.855011110259834" id="-32594">
		<tag k="name" v="Trolltjern" />
		<tag k="natural" v="water" />
		<tag k="ssr:stedsnr" v="189488" />
	</node>
	<node lat="60.52813055397563" lon="9.303755558664797" id="-32600">
		<tag k="name" v="Osetjern" />
		<tag k="natural" v="water" />
		<tag k="ssr:stedsnr" v="189734" />
	</node>
	<node lat="60.46865277900259" lon="9.256594439426587" id="-32617">
		<tag k="name" v="Tubba" />
		<tag k="place" v="islet" />
		<tag k="ssr:stedsnr" v="207888" />
	</node>
	<node lat="60.424650077744154" lon="9.026037792400883" id="-32642">
		<tag k="name" v="Hundevatne" />
		<tag k="natural" v="water" />
		<tag k="ssr:stedsnr" v="309375" />
		<tag k="water" v="lake" />
	</node>
	<node lat="60.58481696481888" lon="9.034873607438355" id="-32654">
		<tag k="name" v="Busketjern" />
		<tag k="natural" v="water" />
		<tag k="ssr:stedsnr" v="310419" />
	</node>
	<node lat="60.52200833071931" lon="9.226313883694347" id="-32664">
		<tag k="name" v="Heimtjern" />
		<tag k="natural" v="water" />
		<tag k="ssr:stedsnr" v="310767" />
	</node>
	<node lat="60.514191665009335" lon="9.318766673975688" id="-32665">
		<tag k="name" v="Gylta" />
		<tag k="natural" v="cape" />
		<tag k="ssr:stedsnr" v="327185" />
	</node>
	<node lat="60.53031388628938" lon="9.166824993392375" id="-32683">
		<tag k="name" v="Liasanden" />
		<tag k="natural" v="beach" />
		<tag k="ssr:stedsnr" v="329193" />
	</node>
	<node lat="60.44546111520287" lon="9.163433334596482" id="-32687">
		<tag k="name" v="Raubekk" />
		<tag k="ssr:stedsnr" v="329499" />
		<tag k="waterway" v="stream" />
	</node>
	<node lat="60.65661111183403" lon="9.304580555476186" id="-32702">
		<tag k="name" v="Buvatnet" />
		<tag k="natural" v="water" />
		<tag k="ssr:stedsnr" v="370732" />
		<tag k="water" v="lake" />
	</node>
	<node lat="60.53803703008123" lon="9.015251602639385" id="-32726">
		<tag k="alt_name" v="Øynantjernet" />
		<tag k="name" v="Einetjern" />
		<tag k="natural" v="water" />
		<tag k="ssr:stedsnr" v="371556" />
	</node>
	<node lat="60.615277775648494" lon="9.295074997407031" id="-32729">
		<tag k="name" v="Hellervatnet" />
		<tag k="natural" v="water" />
		<tag k="ssr:stedsnr" v="371689" />
	</node>
	<node lat="60.59628055742908" lon="9.23233055564852" id="-32751">
		<tag k="name" v="Brøtsetdammen" />
		<tag k="ssr:stedsnr" v="389484" />
		<tag k="waterway" v="dam" />
	</node>
	<node lat="60.51835555819515" lon="8.697388884247996" id="-32757">
		<tag k="name" v="Såtenattjernan" />
		<tag k="natural" v="water" />
		<tag k="ssr:stedsnr" v="390421" />
		<tag k="water" v="lake" />
	</node>
	<node lat="60.46821388889407" lon="8.933219449018374" id="-32772">
		<tag k="name" v="Øvre Grågalttjern" />
		<tag k="natural" v="water" />
		<tag k="ssr:stedsnr" v="430272" />
	</node>
	<node lat="60.6293333349931" lon="9.367227779651714" id="-32779">
		<tag k="name" v="Strøstjern" />
		<tag k="natural" v="water" />
		<tag k="ssr:stedsnr" v="431662" />
	</node>
	<node lat="60.60181944239995" lon="9.158138886276697" id="-32784">
		<tag k="name" v="Todøla" />
		<tag k="ssr:stedsnr" v="432435" />
		<tag k="waterway" v="river" />
	</node>
	<node lat="60.661947874518106" lon="9.354140425819988" id="-32800">
		<tag k="name" v="Haugatjern" />
		<tag k="natural" v="water" />
		<tag k="ssr:stedsnr" v="432720" />
	</node>
	<node lat="60.471413891534034" lon="9.265958337628398" id="-32809">
		<tag k="name" v="Kolbråtbekken" />
		<tag k="ssr:stedsnr" v="509749" />
		<tag k="waterway" v="stream" />
	</node>
	<node lat="60.60091944435261" lon="9.304666663234515" id="-32825">
		<tag k="name" v="Elumstjerndypilen" />
		<tag k="natural" v="water" />
		<tag k="ssr:stedsnr" v="511463" />
		<tag k="water" v="pond" />
	</node>
	<node lat="60.68141111465678" lon="9.319633341338735" id="-32855">
		<tag k="name" v="Valdresbekken" />
		<tag k="ssr:stedsnr" v="552731" />
		<tag k="waterway" v="stream" />
	</node>
	<node lat="60.553327773678575" lon="8.927963895394472" id="-32867">
		<tag k="name" v="Syningsbekken" />
		<tag k="ssr:stedsnr" v="553391" />
		<tag k="waterway" v="stream" />
	</node>
	<node lat="60.50973611025242" lon="9.294950001032873" id="-32870">
		<tag k="name" v="Grisetjern" />
		<tag k="natural" v="water" />
		<tag k="ssr:stedsnr" v="553787" />
	</node>
	<node lat="60.62220833216057" lon="9.210919441034573" id="-32875">
		<tag k="name" v="Tjernsettjern" />
		<tag k="natural" v="water" />
		<tag k="ssr:stedsnr" v="553473" />
	</node>
	<node lat="60.59855716725104" lon="9.435061651940657" id="-32876">
		<tag k="name" v="Strøsdammen" />
		<tag k="ssr:stedsnr" v="553674" />
		<tag k="waterway" v="dam" />
	</node>
	<node lat="60.62333333641066" lon="9.304680557493032" id="-32896">
		<tag k="name" v="Bananputten" />
		<tag k="natural" v="water" />
		<tag k="ssr:stedsnr" v="571445" />
		<tag k="water" v="pond" />
	</node>
	<node lat="60.600033335317434" lon="8.866299999685431" id="-32906">
		<tag k="name" v="Nattatjern" />
		<tag k="natural" v="water" />
		<tag k="ssr:stedsnr" v="603442" />
	</node>
	<node lat="60.44329296832754" lon="9.070431548990243" id="-32918">
		<tag k="name" v="Grisetjern" />
		<tag k="natural" v="water" />
		<tag k="ssr:stedsnr" v="612341" />
	</node>
	<node lat="60.568552774152224" lon="8.759144448141983" id="-32922">
		<tag k="name" v="Auseskaftet" />
		<tag k="natural" v="water" />
		<tag k="ssr:stedsnr" v="613006" />
	</node>
	<node lat="60.59219167075803" lon="9.228758333720467" id="-32944">
		<tag k="name" v="Brynhildstjern" />
		<tag k="natural" v="water" />
		<tag k="ssr:stedsnr" v="613647" />
	</node>
	<node lat="60.5071777742832" lon="9.287730556735314" id="-32951">
		<tag k="name" v="Grisetjernbekken" />
		<tag k="ssr:stedsnr" v="630833" />
		<tag k="waterway" v="stream" />
	</node>
	<node lat="60.57670555568547" lon="8.993380562569076" id="-32967">
		<tag k="name" v="Uredalsbekken" />
		<tag k="ssr:stedsnr" v="631943" />
		<tag k="waterway" v="stream" />
	</node>
	<node lat="60.63297500341496" lon="8.855694437623386" id="-32968">
		<tag k="name" v="Gråtjern" />
		<tag k="natural" v="water" />
		<tag k="ssr:stedsnr" v="631976" />
	</node>
	<node lat="60.44072499828568" lon="9.00095277232383" id="-33001">
		<tag k="name" v="Lille Storvardetjern" />
		<tag k="natural" v="water" />
		<tag k="ssr:stedsnr" v="734351" />
	</node>
	<node lat="60.439786111862006" lon="8.995902770187168" id="-33002">
		<tag k="name" v="Store Storvardetjern" />
		<tag k="natural" v="water" />
		<tag k="ssr:stedsnr" v="734352" />
	</node>
	<node lat="60.60303333389172" lon="8.926841666449835" id="-33011">
		<tag k="name" v="Trytetjern" />
		<tag k="natural" v="water" />
		<tag k="ssr:stedsnr" v="735452" />
	</node>
	<node lat="60.64199722044939" lon="9.351286111456732" id="-33018">
		<tag k="name" v="Trytetjern" />
		<tag k="natural" v="water" />
		<tag k="ssr:stedsnr" v="735647" />
	</node>
	<node lat="60.592641663589966" lon="9.398675007626622" id="-33020">
		<tag k="name" v="Trytetjernbekken" />
		<tag k="ssr:stedsnr" v="735801" />
		<tag k="waterway" v="stream" />
	</node>
	<node lat="60.55942499975821" lon="9.316619438235833" id="-33028">
		<tag k="name" v="Svartetjern" />
		<tag k="natural" v="water" />
		<tag k="ssr:stedsnr" v="735846" />
	</node>
	<node lat="60.54451111126082" lon="9.25029721541304" id="-33029">
		<tag k="name" v="Huldratjern" />
		<tag k="natural" v="water" />
		<tag k="ssr:stedsnr" v="735864" />
	</node>
	<node lat="60.465472223346374" lon="9.252072231269123" id="-33031">
		<tag k="name" v="Sandøyrtjern" />
		<tag k="natural" v="water" />
		<tag k="ssr:stedsnr" v="752789" />
	</node>
	<node lat="60.48510278005466" lon="9.096224994944446" id="-33067">
		<tag k="name" v="Purketjern" />
		<tag k="natural" v="water" />
		<tag k="ssr:stedsnr" v="794254" />
	</node>
	<node lat="60.548233332014426" lon="8.785602774643914" id="-33072">
		<tag k="name" v="Veslevatnet" />
		<tag k="natural" v="water" />
		<tag k="ssr:stedsnr" v="796232" />
		<tag k="water" v="lake" />
	</node>
	<node lat="60.49557500079766" lon="9.269674991787372" id="-33075">
		<tag k="name" v="Løken" />
		<tag k="place" v="locality" />
		<tag k="ssr:stedsnr" v="795346" />
	</node>
	<node lat="60.39878333280022" lon="9.083022225897412" id="-33076">
		<tag k="name" v="Reinsjøen" />
		<tag k="natural" v="water" />
		<tag k="ssr:stedsnr" v="795412" />
		<tag k="water" v="lake" />
	</node>
	<node lat="60.603329896807004" lon="8.988639303678964" id="-33089">
		<tag k="name" v="Heimtjern" />
		<tag k="natural" v="water" />
		<tag k="ssr:stedsnr" v="796456" />
	</node>
	<node lat="60.59937500375406" lon="8.919766669552597" id="-33090">
		<tag k="name" v="Storausa" />
		<tag k="natural" v="water" />
		<tag k="ssr:stedsnr" v="796462" />
	</node>
	<node lat="60.61907778195635" lon="9.169972228148612" id="-33091">
		<tag k="name" v="Elgesgrovbekken" />
		<tag k="ssr:stedsnr" v="796435" />
		<tag k="waterway" v="stream" />
	</node>
	<node lat="60.61001944180045" lon="8.902369443463964" id="-33093">
		<tag k="name" v="Gamlemannstjern" />
		<tag k="natural" v="water" />
		<tag k="old_name" v="Gamlemannstjernet" />
		<tag k="ssr:stedsnr" v="796437" />
	</node>
	<node lat="60.470591666575075" lon="9.240252776662558" id="-33117">
		<tag k="name" v="Veaøyne" />
		<tag k="place" v="island" />
		<tag k="ssr:stedsnr" v="813790" />
	</node>
	<node lat="60.55596666523809" lon="9.27191110965504" id="-33131">
		<tag k="name" v="Venelitjern" />
		<tag k="natural" v="water" />
		<tag k="ssr:stedsnr" v="814479" />
	</node>
	<node lat="60.44563611042166" lon="9.151411109401645" id="-33156">
		<tag k="name" v="Mytetjern" />
		<tag k="natural" v="water" />
		<tag k="ssr:stedsnr" v="856354" />
	</node>
	<node lat="60.540366671017544" lon="8.720694446739886" id="-33176">
		<tag k="name" v="Smalvatnet" />
		<tag k="natural" v="water" />
		<tag k="ssr:stedsnr" v="857250" />
	</node>
	<node lat="60.606900001252846" lon="9.20502777157019" id="-33180">
		<tag k="name" v="Øvre Stalltjern" />
		<tag k="natural" v="water" />
		<tag k="ssr:stedsnr" v="857460" />
	</node>
	<node lat="60.53358332891853" lon="8.80476945112308" id="-33191">
		<tag k="name" v="Hurrahaugtjern" />
		<tag k="natural" v="water" />
		<tag k="ssr:stedsnr" v="874199" />
	</node>
	<node lat="60.53374444788845" lon="8.848688893425999" id="-33192">
		<tag k="name" v="Fjerdingsbekk" />
		<tag k="ssr:stedsnr" v="874206" />
		<tag k="waterway" v="stream" />
	</node>
	<node lat="60.53732777723194" lon="8.797658326866468" id="-33194">
		<tag k="name" v="Raudbekk" />
		<tag k="ssr:stedsnr" v="874208" />
		<tag k="waterway" v="stream" />
	</node>
	<node lat="60.509533826966965" lon="9.263713861032166" id="-33206">
		<tag k="name" v="Knutshøltjern" />
		<tag k="natural" v="water" />
		<tag k="ssr:stedsnr" v="874983" />
	</node>
	<node lat="60.58371111406146" lon="9.096772226072831" id="-33207">
		<tag k="name" v="Kavringen" />
		<tag k="place" v="islet" />
		<tag k="ssr:stedsnr" v="875084" />
	</node>
	<node lat="60.607827777951506" lon="9.302505562317572" id="-33216">
		<tag k="name" v="Elumtjernbekken" />
		<tag k="ssr:stedsnr" v="875471" />
		<tag k="waterway" v="stream" />
	</node>
	<node lat="60.61857222194041" lon="9.217038897009893" id="-33221">
		<tag k="name" v="Nedre Skjegletjern" />
		<tag k="natural" v="water" />
		<tag k="ssr:stedsnr" v="875427" />
	</node>
	<node lat="60.61324444099178" lon="9.31615554892083" id="-33222">
		<tag k="name" v="Kattugletjern" />
		<tag k="natural" v="water" />
		<tag k="ssr:stedsnr" v="875446" />
	</node>
	<node lat="60.435138888580916" lon="9.208552770963259" id="-33226">
		<tag k="name" v="Nystølfossen" />
		<tag k="natural" v="waterfall" />
		<tag k="ssr:stedsnr" v="875914" />
	</node>
	<node lat="60.63423611395345" lon="9.06927777185838" id="-33233">
		<tag k="name" v="Krusetjernbekken" />
		<tag k="ssr:stedsnr" v="965461" />
		<tag k="waterway" v="stream" />
	</node>
</osm>
