<?xml version="1.0" encoding="UTF-8"?>
<osm version="0.6" generator="osmapis">
	<node lat="60.6271611129331" lon="9.055177784873013" id="-14443">
		<tag k="bridge" v="yes" />
		<tag k="layer" v="1" />
		<tag k="name" v="Dokken" />
		<tag k="ssr:stedsnr" v="46793" />
	</node>
	<node lat="60.5000527750043" lon="9.168555564550283" id="-14444">
		<tag k="bridge" v="yes" />
		<tag k="layer" v="1" />
		<tag k="name" v="Nordhagen" />
		<tag k="ssr:stedsnr" v="46816" />
	</node>
	<node lat="60.558305559086456" lon="9.077722217205888" id="-14515">
		<tag k="bridge" v="yes" />
		<tag k="layer" v="1" />
		<tag k="name" v="Vad" />
		<tag k="ssr:stedsnr" v="107819" />
	</node>
	<node lat="60.487219443582546" lon="9.192361113365468" id="-14633">
		<tag k="bridge" v="yes" />
		<tag k="layer" v="1" />
		<tag k="name" v="Børtnes" />
		<tag k="ssr:stedsnr" v="228803" />
	</node>
	<node lat="60.46577221826631" lon="9.227286103315906" id="-14655">
		<tag k="highway" v="path" />
		<tag k="name" v="Støskardet" />
		<tag k="ssr:stedsnr" v="451907" />
	</node>
	<node lat="60.51904166953913" lon="8.908005547393435" id="-14782">
		<tag k="alt_name" v="Grårova Nedre" />
		<tag k="bridge" v="yes" />
		<tag k="layer" v="1" />
		<tag k="name" v="Nedre Grårova" />
		<tag k="ssr:stedsnr" v="410803" />
	</node>
	<node lat="60.5277666679721" lon="8.916702778181858" id="-14916">
		<tag k="bridge" v="yes" />
		<tag k="layer" v="1" />
		<tag k="name" v="Rukke" />
		<tag k="ssr:stedsnr" v="532802" />
	</node>
	<node lat="60.524172219876995" lon="8.985661116583389" id="-14951">
		<tag k="bridge" v="yes" />
		<tag k="layer" v="1" />
		<tag k="name" v="Sollivadet" />
		<tag k="ssr:stedsnr" v="570604" />
	</node>
	<node lat="60.562586111795014" lon="8.99578054684887" id="-14969">
		<tag k="bridge" v="yes" />
		<tag k="layer" v="1" />
		<tag k="name" v="Skjervåni" />
		<tag k="ssr:stedsnr" v="592857" />
	</node>
	<node lat="60.57231110814028" lon="9.112177786834856" id="-15056">
		<tag k="bridge" v="yes" />
		<tag k="layer" v="1" />
		<tag k="name" v="Nesbyen" />
		<tag k="ssr:stedsnr" v="896840" />
	</node>
	<node lat="60.481466665429366" lon="8.806013890043713" id="-15057">
		<tag k="bridge" v="yes" />
		<tag k="layer" v="1" />
		<tag k="name" v="Krafsebekk" />
		<tag k="ssr:stedsnr" v="896842" />
	</node>
	<node lat="60.50020833386276" lon="8.875969444950053" id="-15058">
		<tag k="bridge" v="yes" />
		<tag k="layer" v="1" />
		<tag k="name" v="Synstevann" />
		<tag k="ssr:stedsnr" v="714804" />
	</node>
	<node lat="60.43204444370725" lon="9.072480557799787" id="-15087">
		<tag k="bridge" v="yes" />
		<tag k="layer" v="1" />
		<tag k="name" v="Hellervad" />
		<tag k="ssr:stedsnr" v="753576" />
	</node>
	<node lat="60.50388888716678" lon="8.928505559247794" id="-15206">
		<tag k="highway" v="path" />
		<tag k="name" v="Drifteslepa" />
		<tag k="ssr:stedsnr" v="934979" />
	</node>
	<node lat="60.55781666577234" lon="9.142547224164987" id="-15353">
		<tag k="name" v="Grønna" />
		<tag k="railway" v="halt" />
		<tag k="ssr:stedsnr" v="86071" />
		<tag k="train" v="yes" />
	</node>
	<node lat="60.43321389060816" lon="9.204836109296096" id="-15479">
		<tag k="bridge" v="yes" />
		<tag k="layer" v="1" />
		<tag k="name" v="Valdresvadet" />
		<tag k="ssr:stedsnr" v="207914" />
	</node>
	<node lat="60.4431916668875" lon="9.20064722723413" id="-15484">
		<tag k="bridge" v="yes" />
		<tag k="layer" v="1" />
		<tag k="name" v="Svangtjern" />
		<tag k="ssr:stedsnr" v="289857" />
	</node>
	<node lat="60.47242777615878" lon="9.22519443641282" id="-15532">
		<tag k="bridge" v="yes" />
		<tag k="layer" v="1" />
		<tag k="name" v="Sevre" />
		<tag k="ssr:stedsnr" v="350790" />
	</node>
	<node lat="60.52626944418765" lon="9.16121388554895" id="-15533">
		<tag k="bridge" v="yes" />
		<tag k="layer" v="1" />
		<tag k="name" v="Liodden" />
		<tag k="ssr:stedsnr" v="350792" />
	</node>
	<node lat="60.59779444842983" lon="9.080169447470436" id="-15594">
		<tag k="bridge" v="yes" />
		<tag k="layer" v="1" />
		<tag k="name" v="Sjong" />
		<tag k="ssr:stedsnr" v="410808" />
	</node>
	<node lat="60.576669445252584" lon="9.113402783429025" id="-15799">
		<tag k="name" v="Nesbyen stasjon" />
		<tag k="railway" v="station" />
		<tag k="ssr:stedsnr" v="735415" />
		<tag k="train" v="yes" />
	</node>
	<node lat="60.536944440343575" lon="8.929944449011225" id="-15848">
		<tag k="bridge" v="yes" />
		<tag k="layer" v="1" />
		<tag k="name" v="Vola" />
		<tag k="ssr:stedsnr" v="774814" />
	</node>
	<node lat="60.47193888650848" lon="9.19411389406259" id="-15849">
		<tag k="bridge" v="yes" />
		<tag k="layer" v="1" />
		<tag k="name" v="Heio" />
		<tag k="ssr:stedsnr" v="775801" />
	</node>
	<node lat="60.42509166805314" lon="9.195813892572094" id="-15999">
		<tag k="bridge" v="yes" />
		<tag k="layer" v="1" />
		<tag k="name" v="Bruhaug" />
		<tag k="ssr:stedsnr" v="957769" />
	</node>
</osm>
