<?xml version="1.0" encoding="UTF-8"?>
<<<<<<< HEAD
<osm version="0.6" generator="osmapis">
	<node lat="60.49896666248184" lon="8.873052783187408" id="-14499">
		<tag k="amenity" v="community_centre" />
		<tag k="name" v="Synstevassbu" />
		<tag k="ssr:stedsnr" v="249238" />
	</node>
	<node lat="60.59632222536069" lon="9.254999996369307" id="-14733">
		<tag k="name" v="Hestekrokløken" />
		<tag k="place" v="locality" />
		<tag k="ssr:stedsnr" v="329471" />
	</node>
	<node lat="60.48958055728952" lon="9.179275000477649" id="-14917">
		<tag k="amenity" v="community_centre" />
		<tag k="name" v="Valhall" />
		<tag k="ssr:stedsnr" v="753443" />
	</node>
	<node lat="60.46236388608455" lon="9.197952776423621" id="-14963">
		<tag k="name" v="Kølbrøten" />
		<tag k="place" v="locality" />
		<tag k="ssr:stedsnr" v="571686" />
	</node>
	<node lat="60.62751388981973" lon="9.055769436254328" id="-14966">
		<tag k="amenity" v="community_centre" />
		<tag k="name" v="Dokken" />
		<tag k="ssr:stedsnr" v="571751" />
	</node>
	<node lat="60.43176944362596" lon="9.224922218011232" id="-15054">
		<tag k="name" v="Nybuseter" />
		<tag k="place" v="locality" />
		<tag k="ssr:stedsnr" v="693917" />
	</node>
	<node lat="60.54046666780227" lon="8.940666662932863" id="-15161">
=======
<osm generator="osmapis" version="0.6">
	<node id="-271968" lat="60.5404666678" lon="8.94066666293">
>>>>>>> e1d4bc35ff8a6074a6f2e91616a996b547c36f15
		<tag k="amenity" v="community_centre" />
		<tag k="name" v="Sjugurdsrud" />
		<tag k="ssr:stedsnr" v="814832" />
	</node>
<<<<<<< HEAD
	<node lat="60.56549722346817" lon="9.090502770474918" id="-15351">
		<tag k="name" v="Hallingdal folkemuseum" />
		<tag k="ssr:stedsnr" v="86090" />
		<tag k="tourism" v="attraction" />
	</node>
	<node lat="60.56324167088247" lon="9.095961111135022" id="-15357">
		<tag k="name" v="Storesvingen" />
=======
	<node id="-272351" lat="60.5643138905" lon="9.09029444747">
		<tag k="name" v="Øvre Prestbakken" />
		<tag k="ssr:stedsnr" v="207074" />
		<tag k="tourism" v="attraction" />
	</node>
	<node id="-271771" lat="60.4317694436" lon="9.22492221801">
		<tag k="name" v="Nybuseter" />
>>>>>>> e1d4bc35ff8a6074a6f2e91616a996b547c36f15
		<tag k="place" v="locality" />
		<tag k="ssr:stedsnr" v="86093" />
	</node>
<<<<<<< HEAD
	<node lat="60.564313890484456" lon="9.090294447470086" id="-15467">
		<tag k="name" v="Øvre Prestbakken" />
		<tag k="ssr:stedsnr" v="207074" />
		<tag k="tourism" v="attraction" />
	</node>
	<node lat="60.56525278127229" lon="9.090916672996745" id="-15568">
		<tag k="name" v="Nedre Prestbakken" />
		<tag k="ssr:stedsnr" v="389077" />
		<tag k="tourism" v="attraction" />
	</node>
	<node lat="60.56691944482861" lon="9.103538894833779" id="-15729">
=======
	<node id="-272658" lat="60.6275138898" lon="9.05576943625">
		<tag k="amenity" v="community_centre" />
		<tag k="name" v="Dokken" />
		<tag k="ssr:stedsnr" v="571751" />
	</node>
	<node id="-272689" lat="60.5669194448" lon="9.10353889483">
>>>>>>> e1d4bc35ff8a6074a6f2e91616a996b547c36f15
		<tag k="alt_name" v="Nes" />
		<tag k="amenity" v="place_of_worship" />
		<tag k="denomination" v="lutheran" />
		<tag k="name" v="Nes kirke" />
		<tag k="religion" v="christian" />
		<tag k="ssr:stedsnr" v="613386" />
	</node>
<<<<<<< HEAD
=======
	<node id="-272655" lat="60.4623638861" lon="9.19795277642">
		<tag k="name" v="Kølbrøten" />
		<tag k="place" v="locality" />
		<tag k="ssr:stedsnr" v="571686" />
	</node>
	<node id="-272524" lat="60.5652527813" lon="9.090916673">
		<tag k="name" v="Nedre Prestbakken" />
		<tag k="ssr:stedsnr" v="389077" />
		<tag k="tourism" v="attraction" />
	</node>
	<node id="-272458" lat="60.5963222254" lon="9.25499999637">
		<tag k="name" v="Hestekrokløken" />
		<tag k="place" v="locality" />
		<tag k="ssr:stedsnr" v="329471" />
	</node>
	<node id="-271398" lat="60.4989666625" lon="8.87305278319">
		<tag k="amenity" v="community_centre" />
		<tag k="name" v="Synstevassbu" />
		<tag k="ssr:stedsnr" v="249238" />
	</node>
	<node id="-272196" lat="60.5632416709" lon="9.09596111114">
		<tag k="name" v="Storesvingen" />
		<tag k="place" v="locality" />
		<tag k="ssr:stedsnr" v="86093" />
	</node>
	<node id="-272771" lat="60.4895805573" lon="9.17927500048">
		<tag k="amenity" v="community_centre" />
		<tag k="name" v="Valhall" />
		<tag k="ssr:stedsnr" v="753443" />
	</node>
	<node id="-272194" lat="60.5654972235" lon="9.09050277047">
		<tag k="name" v="Hallingdal folkemuseum" />
		<tag k="ssr:stedsnr" v="86090" />
		<tag k="tourism" v="attraction" />
	</node>
>>>>>>> e1d4bc35ff8a6074a6f2e91616a996b547c36f15
</osm>
