<?xml version="1.0" encoding="UTF-8"?>
<osm version="0.6" generator="osmapis">
	<node lat="60.66633888479141" lon="8.937405556546334" id="-31363">
		<tag k="name" v="Meåsen" />
		<tag k="natural" v="hill" />
		<tag k="place" v="locality" />
		<tag k="ssr:stedsnr" v="6265" />
	</node>
	<node lat="60.519261111968014" lon="8.966719450266659" id="-31367">
		<tag k="name" v="Kulusetberget" />
		<tag k="natural" v="hill" />
		<tag k="place" v="locality" />
		<tag k="ssr:stedsnr" v="6621" />
	</node>
	<node lat="60.62589722472609" lon="9.27557778536287" id="-31372">
		<tag k="fixme" v="consider natural=peak for the most distinct mountains in the district" />
		<tag k="name" v="Grønåsbrenna" />
		<tag k="natural" v="hill" />
		<tag k="place" v="locality" />
		<tag k="ssr:stedsnr" v="7609" />
	</node>
	<node lat="60.63135833223026" lon="9.236402786100884" id="-31373">
		<tag k="fixme" v="consider natural=peak for the most distinct mountains in the district" />
		<tag k="name" v="Tjernsetåsen" />
		<tag k="natural" v="hill" />
		<tag k="place" v="locality" />
		<tag k="ssr:stedsnr" v="7613" />
	</node>
	<node lat="60.55593055934616" lon="8.752047226837508" id="-31387">
		<tag k="name" v="Svartevasshøgde" />
		<tag k="natural" v="hill" />
		<tag k="place" v="locality" />
		<tag k="ssr:stedsnr" v="25208" />
	</node>
	<node lat="60.48162500086341" lon="9.256269451744988" id="-31391">
		<tag k="name" v="Finnesetbakkan" />
		<tag k="natural" v="slope" />
		<tag k="place" v="locality" />
		<tag k="ssr:stedsnr" v="25598" />
	</node>
	<node lat="60.466707838952274" lon="9.042838620706542" id="-31411">
		<tag k="fixme" v="consider natural=peak for the most distinct mountains in the district" />
		<tag k="name" v="Karilinatten" />
		<tag k="natural" v="hill" />
		<tag k="place" v="locality" />
		<tag k="ssr:stedsnr" v="67308" />
	</node>
	<node lat="60.62019444507693" lon="9.369191661473657" id="-31430">
		<tag k="fixme" v="consider natural=peak for the most distinct mountains in the district" />
		<tag k="name" v="Brenna" />
		<tag k="natural" v="hill" />
		<tag k="place" v="locality" />
		<tag k="ssr:stedsnr" v="68703" />
	</node>
	<node lat="60.47567778037524" lon="9.162297213361077" id="-31454">
		<tag k="name" v="Stormyrhaugen" />
		<tag k="natural" v="hill" />
		<tag k="place" v="locality" />
		<tag k="ssr:stedsnr" v="248280" />
	</node>
	<node lat="60.466424996885415" lon="9.133827774156396" id="-31460">
		<tag k="fixme" v="consider natural=peak for the most distinct mountains in the district" />
		<tag k="name" v="Rustadstølfjellet" />
		<tag k="natural" v="hill" />
		<tag k="place" v="locality" />
		<tag k="ssr:stedsnr" v="249277" />
	</node>
	<node lat="60.59705833117721" lon="9.417422224922818" id="-31499">
		<tag k="fixme" v="consider natural=peak for the most distinct mountains in the district" />
		<tag k="name" v="Trytetjernåsen" />
		<tag k="natural" v="hill" />
		<tag k="place" v="locality" />
		<tag k="ssr:stedsnr" v="250652" />
	</node>
	<node lat="60.47769166728602" lon="9.192444442646316" id="-31528">
		<tag k="name" v="Toreslette" />
		<tag k="place" v="locality" />
		<tag k="ssr:stedsnr" v="145716" />
	</node>
	<node lat="60.53017222272775" lon="9.195019442781865" id="-31564">
		<tag k="name" v="Flutonatten" />
		<tag k="natural" v="hill" />
		<tag k="place" v="locality" />
		<tag k="ssr:stedsnr" v="267128" />
	</node>
	<node lat="60.52602500385932" lon="9.30899721616413" id="-31576">
		<tag k="name" v="Osetjernhaugen" />
		<tag k="natural" v="hill" />
		<tag k="place" v="locality" />
		<tag k="ssr:stedsnr" v="206218" />
	</node>
	<node lat="60.53337222093886" lon="9.296672222114926" id="-31577">
		<tag k="fixme" v="consider natural=peak for the most distinct mountains in the district" />
		<tag k="name" v="Svartetjernåsen" />
		<tag k="natural" v="hill" />
		<tag k="place" v="locality" />
		<tag k="ssr:stedsnr" v="206224" />
	</node>
	<node lat="60.60738333229538" lon="9.233458328133638" id="-31578">
		<tag k="name" v="Lauvhaugen" />
		<tag k="natural" v="hill" />
		<tag k="place" v="locality" />
		<tag k="ssr:stedsnr" v="268447" />
	</node>
	<node lat="60.483722225360786" lon="9.195283335538635" id="-31580">
		<tag k="name" v="Søgardsnatten" />
		<tag k="natural" v="hill" />
		<tag k="place" v="locality" />
		<tag k="ssr:stedsnr" v="206727" />
	</node>
	<node lat="60.492002774719985" lon="9.212227784213276" id="-31581">
		<tag k="name" v="Bergahølet" />
		<tag k="natural" v="valley" />
		<tag k="place" v="locality" />
		<tag k="ssr:stedsnr" v="268608" />
	</node>
	<node lat="60.47602499707165" lon="9.148141667553803" id="-31611">
		<tag k="name" v="Primbakkan" />
		<tag k="natural" v="slope" />
		<tag k="place" v="locality" />
		<tag k="ssr:stedsnr" v="449707" />
	</node>
	<node lat="60.454247220399786" lon="9.202619449171856" id="-31632">
		<tag k="name" v="Langebakk" />
		<tag k="natural" v="slope" />
		<tag k="place" v="locality" />
		<tag k="ssr:stedsnr" v="450939" />
	</node>
	<node lat="60.44803055250316" lon="9.218072218226679" id="-31633">
		<tag k="name" v="Rotveltedalen" />
		<tag k="natural" v="valley" />
		<tag k="place" v="locality" />
		<tag k="ssr:stedsnr" v="450942" />
	</node>
	<node lat="60.48089444621249" lon="9.28405554677481" id="-31640">
		<tag k="name" v="Grøndalen" />
		<tag k="natural" v="valley" />
		<tag k="place" v="locality" />
		<tag k="ssr:stedsnr" v="451908" />
	</node>
	<node lat="60.468913892594244" lon="9.208669446882654" id="-31643">
		<tag k="loc_name" v="Haugan" />
		<tag k="name" v="Haugane" />
		<tag k="natural" v="hill" />
		<tag k="place" v="locality" />
		<tag k="ssr:stedsnr" v="249303" />
	</node>
	<node lat="60.49705277779124" lon="9.177161104544759" id="-31666">
		<tag k="name" v="Purkeberget" />
		<tag k="natural" v="ridge" />
		<tag k="place" v="locality" />
		<tag k="ssr:stedsnr" v="268729" />
	</node>
	<node lat="60.587416668833626" lon="9.135252781089411" id="-31683">
		<tag k="fixme" v="consider natural=peak for the most distinct mountains in the district" />
		<tag k="name" v="Klevarudnatten" />
		<tag k="natural" v="hill" />
		<tag k="place" v="locality" />
		<tag k="ssr:stedsnr" v="310429" />
	</node>
	<node lat="60.49921944841492" lon="9.184166674774485" id="-31709">
		<tag k="fixme" v="consider natural=peak for the most distinct mountains in the district" />
		<tag k="name" v="Veslenatten" />
		<tag k="natural" v="hill" />
		<tag k="place" v="locality" />
		<tag k="ssr:stedsnr" v="328165" />
	</node>
	<node lat="60.646549998358125" lon="8.866858332686673" id="-31718">
		<tag k="name" v="Efesus" />
		<tag k="natural" v="hill" />
		<tag k="place" v="locality" />
		<tag k="ssr:stedsnr" v="328974" />
	</node>
	<node lat="60.618672219797126" lon="9.252036115108927" id="-31722">
		<tag k="name" v="Hattegrønhaugen" />
		<tag k="natural" v="hill" />
		<tag k="place" v="locality" />
		<tag k="ssr:stedsnr" v="329455" />
	</node>
	<node lat="60.662600002883664" lon="9.212591668711909" id="-31734">
		<tag k="fixme" v="consider natural=peak for the most distinct mountains in the district" />
		<tag k="name" v="Vardefjell" />
		<tag k="natural" v="hill" />
		<tag k="place" v="locality" />
		<tag k="ssr:stedsnr" v="370316" />
	</node>
	<node lat="60.50457222640784" lon="9.238502774785664" id="-31761">
		<tag k="name" v="Baklie" />
		<tag k="natural" v="slope" />
		<tag k="place" v="locality" />
		<tag k="ssr:stedsnr" v="388742" />
	</node>
	<node lat="60.63502500072789" lon="9.0110583293737" id="-31762">
		<tag k="name" v="Sagbakkan" />
		<tag k="natural" v="slope" />
		<tag k="place" v="locality" />
		<tag k="ssr:stedsnr" v="388753" />
	</node>
	<node lat="60.443049999974356" lon="9.06492500843709" id="-31801">
		<tag k="name" v="Vargnatten" />
		<tag k="natural" v="hill" />
		<tag k="place" v="locality" />
		<tag k="ssr:stedsnr" v="491318" />
	</node>
	<node lat="60.522099995850695" lon="8.877386106871581" id="-31825">
		<tag k="fixme" v="consider natural=peak for the most distinct mountains in the district" />
		<tag k="name" v="Grytåsen" />
		<tag k="natural" v="hill" />
		<tag k="place" v="locality" />
		<tag k="ssr:stedsnr" v="492557" />
	</node>
	<node lat="60.55021389002289" lon="8.746663891757201" id="-31860">
		<tag k="fixme" v="consider natural=peak for the most distinct mountains in the district" />
		<tag k="name" v="Holmevassnatten" />
		<tag k="natural" v="hill" />
		<tag k="place" v="locality" />
		<tag k="ssr:stedsnr" v="674234" />
	</node>
	<node lat="60.55200555414134" lon="8.910700001698656" id="-31866">
		<tag k="fixme" v="consider natural=peak for the most distinct mountains in the district" />
		<tag k="name" v="Syningen" />
		<tag k="natural" v="hill" />
		<tag k="place" v="locality" />
		<tag k="ssr:stedsnr" v="674379" />
	</node>
	<node lat="60.45944999778495" lon="9.054805561291472" id="-31895">
		<tag k="name" v="Ørnenatten" />
		<tag k="natural" v="hill" />
		<tag k="place" v="locality" />
		<tag k="ssr:stedsnr" v="491323" />
	</node>
	<node lat="60.57257500151022" lon="8.76834443692871" id="-31900">
		<tag k="name" v="Reisehaugen" />
		<tag k="natural" v="hill" />
		<tag k="place" v="locality" />
		<tag k="ssr:stedsnr" v="492004" />
	</node>
	<node lat="60.60491666621416" lon="9.1492249975518" id="-31905">
		<tag k="name" v="Todalen" />
		<tag k="natural" v="valley" />
		<tag k="place" v="locality" />
		<tag k="ssr:stedsnr" v="492428" />
	</node>
	<node lat="60.50775555144797" lon="8.701877777903091" id="-31925">
		<tag k="name" v="Rommeleine" />
		<tag k="natural" v="slope" />
		<tag k="place" v="locality" />
		<tag k="ssr:stedsnr" v="510037" />
	</node>
	<node lat="60.60866110804611" lon="9.21735277041245" id="-31931">
		<tag k="fixme" v="consider natural=peak for the most distinct mountains in the district" />
		<tag k="name" v="Heimdalshøgde" />
		<tag k="natural" v="hill" />
		<tag k="place" v="locality" />
		<tag k="ssr:stedsnr" v="511449" />
	</node>
	<node lat="60.62190833570864" lon="9.236066675055286" id="-31933">
		<tag k="name" v="Kvilarslette" />
		<tag k="place" v="locality" />
		<tag k="ssr:stedsnr" v="511452" />
	</node>
	<node lat="60.648619447733985" lon="8.998444449441969" id="-31950">
		<tag k="name" v="Branden" />
		<tag k="natural" v="slope" />
		<tag k="place" v="locality" />
		<tag k="ssr:stedsnr" v="552318" />
	</node>
	<node lat="60.50107777838437" lon="9.192800000980208" id="-31958">
		<tag k="fixme" v="consider natural=peak for the most distinct mountains in the district" />
		<tag k="name" v="Benterudnatten" />
		<tag k="natural" v="hill" />
		<tag k="place" v="locality" />
		<tag k="ssr:stedsnr" v="553508" />
	</node>
	<node lat="60.46196389009825" lon="9.212011115988489" id="-31974">
		<tag k="name" v="Juvin" />
		<tag k="natural" v="gorge" />
		<tag k="ssr:stedsnr" v="692561" />
	</node>
	<node lat="60.541447221886216" lon="9.006113892258016" id="-31975">
		<tag k="name" v="Jonsejuvet" />
		<tag k="natural" v="gorge" />
		<tag k="ssr:stedsnr" v="692631" />
	</node>
	<node lat="60.48477500048326" lon="9.128775000416436" id="-32011">
		<tag k="name" v="Skrivarnatten" />
		<tag k="natural" v="hill" />
		<tag k="place" v="locality" />
		<tag k="ssr:stedsnr" v="612285" />
	</node>
	<node lat="60.47704166698467" lon="9.288252779411284" id="-32018">
		<tag k="fixme" v="consider natural=peak for the most distinct mountains in the district" />
		<tag k="name" v="Kleivåsen" />
		<tag k="natural" v="hill" />
		<tag k="place" v="locality" />
		<tag k="ssr:stedsnr" v="612381" />
	</node>
	<node lat="60.579361109279205" lon="9.043227778785427" id="-32025">
		<tag k="fixme" v="consider natural=peak for the most distinct mountains in the district" />
		<tag k="name" v="Espesetåsen" />
		<tag k="natural" v="hill" />
		<tag k="place" v="locality" />
		<tag k="ssr:stedsnr" v="613425" />
	</node>
	<node lat="60.64528610716792" lon="8.971119439950282" id="-32047">
		<tag k="name" v="Ospehallene" />
		<tag k="natural" v="slope" />
		<tag k="place" v="locality" />
		<tag k="ssr:stedsnr" v="631983" />
	</node>
	<node lat="60.45072499960676" lon="9.168536106546913" id="-32050">
		<tag k="name" v="Kastet" />
		<tag k="natural" v="slope" />
		<tag k="place" v="locality" />
		<tag k="ssr:stedsnr" v="632507" />
	</node>
	<node lat="60.450861112436606" lon="9.14964444819281" id="-32051">
		<tag k="name" v="Stupet" />
		<tag k="natural" v="cliff" />
		<tag k="ssr:stedsnr" v="632511" />
	</node>
	<node lat="60.454213892855094" lon="9.144088881816089" id="-32072">
		<tag k="fixme" v="consider natural=peak for the most distinct mountains in the district" />
		<tag k="name" v="Darren" />
		<tag k="natural" v="hill" />
		<tag k="place" v="locality" />
		<tag k="ssr:stedsnr" v="673327" />
	</node>
	<node lat="60.5295361141778" lon="9.236766666750942" id="-32089">
		<tag k="fixme" v="consider natural=peak for the most distinct mountains in the district" />
		<tag k="name" v="Liafjell" />
		<tag k="natural" v="hill" />
		<tag k="place" v="locality" />
		<tag k="ssr:stedsnr" v="674865" />
	</node>
	<node lat="60.570061107649444" lon="9.39311944357076" id="-32090">
		<tag k="fixme" v="consider natural=peak for the most distinct mountains in the district" />
		<tag k="name" v="Bringen" />
		<tag k="natural" v="hill" />
		<tag k="place" v="locality" />
		<tag k="ssr:stedsnr" v="675845" />
	</node>
	<node lat="60.62446944057936" lon="8.905049999196745" id="-32094">
		<tag k="name" v="Sollinatten" />
		<tag k="natural" v="ridge" />
		<tag k="place" v="locality" />
		<tag k="ssr:stedsnr" v="691890" />
	</node>
	<node lat="60.548788892574215" lon="9.047661103463808" id="-32125">
		<tag k="name" v="Dugurdsnatten" />
		<tag k="natural" v="hill" />
		<tag k="place" v="locality" />
		<tag k="ssr:stedsnr" v="735388" />
	</node>
	<node lat="60.53446111283045" lon="9.489466660120629" id="-32142">
		<tag k="name" v="Vassfaret" />
		<tag k="natural" v="valley" />
		<tag k="place" v="locality" />
		<tag k="ssr:stedsnr" v="735876" />
	</node>
	<node lat="60.66447500433559" lon="8.989244443894023" id="-32155">
		<tag k="name" v="Djupedalan" />
		<tag k="natural" v="valley" />
		<tag k="place" v="locality" />
		<tag k="ssr:stedsnr" v="753971" />
	</node>
	<node lat="60.47400000079419" lon="9.274847227257089" id="-32156">
		<tag k="name" v="Ospelund" />
		<tag k="natural" v="slope" />
		<tag k="place" v="locality" />
		<tag k="ssr:stedsnr" v="753864" />
	</node>
	<node lat="60.63120833489601" lon="8.84336110217146" id="-32165">
		<tag k="loc_name" v="Storhøgde" />
		<tag k="name" v="Storhøgda" />
		<tag k="natural" v="hill" />
		<tag k="place" v="locality" />
		<tag k="ssr:stedsnr" v="783048" />
	</node>
	<node lat="60.641774995972085" lon="9.340202780183558" id="-32175">
		<tag k="fixme" v="consider natural=peak for the most distinct mountains in the district" />
		<tag k="name" v="Sløåsen" />
		<tag k="natural" v="hill" />
		<tag k="place" v="locality" />
		<tag k="ssr:stedsnr" v="795677" />
	</node>
	<node lat="60.48715000157602" lon="9.294725005468512" id="-32193">
		<tag k="fixme" v="consider natural=peak for the most distinct mountains in the district" />
		<tag k="name" v="Svartetjernåsen" />
		<tag k="natural" v="hill" />
		<tag k="place" v="locality" />
		<tag k="ssr:stedsnr" v="916357" />
	</node>
	<node lat="60.60949722631776" lon="9.256280547224636" id="-32197">
		<tag k="fixme" v="consider natural=peak for the most distinct mountains in the district" />
		<tag k="name" v="Grønhovden" />
		<tag k="natural" v="hill" />
		<tag k="place" v="locality" />
		<tag k="ssr:stedsnr" v="917659" />
	</node>
	<node lat="60.57053055258286" lon="9.080727783777197" id="-32226">
		<tag k="name" v="Høvabakkan" />
		<tag k="natural" v="slope" />
		<tag k="place" v="locality" />
		<tag k="ssr:stedsnr" v="813542" />
	</node>
	<node lat="60.637122219222555" lon="8.885777771131249" id="-32265">
		<tag k="fixme" v="consider natural=peak for the most distinct mountains in the district" />
		<tag k="name" v="Skifuruåsen" />
		<tag k="natural" v="hill" />
		<tag k="place" v="locality" />
		<tag k="ssr:stedsnr" v="856534" />
	</node>
	<node lat="60.65392777663139" lon="9.288019437443571" id="-32269">
		<tag k="fixme" v="consider natural=peak for the most distinct mountains in the district" />
		<tag k="name" v="Buvasskollen" />
		<tag k="natural" v="hill" />
		<tag k="place" v="locality" />
		<tag k="ssr:stedsnr" v="856736" />
	</node>
	<node lat="60.50882777604427" lon="8.744363887251303" id="-32271">
		<tag k="fixme" v="consider natural=peak for the most distinct mountains in the district" />
		<tag k="name" v="Skurvenatten" />
		<tag k="natural" v="hill" />
		<tag k="place" v="locality" />
		<tag k="ssr:stedsnr" v="857209" />
	</node>
	<node lat="60.53445833367604" lon="9.138238889361368" id="-32283">
		<tag k="name" v="Påverudlie" />
		<tag k="natural" v="slope" />
		<tag k="place" v="locality" />
		<tag k="ssr:stedsnr" v="875975" />
	</node>
	<node lat="60.50386389089831" lon="9.177438881780816" id="-32296">
		<tag k="name" v="Sundenatten" />
		<tag k="natural" v="hill" />
		<tag k="place" v="locality" />
		<tag k="ssr:stedsnr" v="935157" />
	</node>
	<node lat="60.511258330344816" lon="9.19247222015404" id="-32297">
		<tag k="name" v="Hundehaugen" />
		<tag k="natural" v="hill" />
		<tag k="place" v="locality" />
		<tag k="ssr:stedsnr" v="935159" />
	</node>
	<node lat="60.593966669545146" lon="9.02195278622268" id="-32299">
		<tag k="name" v="Dalføret" />
		<tag k="natural" v="valley" />
		<tag k="place" v="locality" />
		<tag k="ssr:stedsnr" v="935407" />
	</node>
	<node lat="60.53737221988433" lon="8.942500007422977" id="-32324">
		<tag k="name" v="Rukkedalen" />
		<tag k="natural" v="valley" />
		<tag k="place" v="locality" />
		<tag k="ssr:stedsnr" v="917550" />
	</node>
	<node lat="60.519358333294896" lon="8.863844451241079" id="-32326">
		<tag k="name" v="Øystølhovda" />
		<tag k="natural" v="hill" />
		<tag k="place" v="locality" />
		<tag k="ssr:stedsnr" v="917577" />
	</node>
	<node lat="60.51645555292517" lon="9.223636106741234" id="-32329">
		<tag k="fixme" v="consider natural=peak for the most distinct mountains in the district" />
		<tag k="name" v="Bekretjernåsen" />
		<tag k="natural" v="hill" />
		<tag k="place" v="locality" />
		<tag k="ssr:stedsnr" v="917755" />
	</node>
	<node lat="60.660775003772514" lon="9.142374996069968" id="-32364">
		<tag k="name" v="Fuglehaugen" />
		<tag k="natural" v="hill" />
		<tag k="place" v="locality" />
		<tag k="ssr:stedsnr" v="6279" />
	</node>
	<node lat="60.469650001402655" lon="8.929416658231474" id="-32373">
		<tag k="name" v="Grågalten" />
		<tag k="natural" v="ridge" />
		<tag k="old_name" v="Graagalten;Gragalten" />
		<tag k="place" v="locality" />
		<tag k="ssr:stedsnr" v="5270" />
	</node>
	<node lat="60.56842777840081" lon="8.770108325766158" id="-32383">
		<tag k="name" v="Langhøgde" />
		<tag k="natural" v="hill" />
		<tag k="place" v="locality" />
		<tag k="ssr:stedsnr" v="7021" />
	</node>
	<node lat="60.562194444940694" lon="8.939738894554797" id="-32391">
		<tag k="name" v="Gudbrandsrudnatten" />
		<tag k="natural" v="hill" />
		<tag k="place" v="locality" />
		<tag k="ssr:stedsnr" v="7375" />
	</node>
	<node lat="60.562583329548325" lon="9.054733334743744" id="-32393">
		<tag k="name" v="Høgehaug" />
		<tag k="natural" v="hill" />
		<tag k="place" v="locality" />
		<tag k="ssr:stedsnr" v="7382" />
	</node>
	<node lat="60.54901667042641" lon="9.073416670914057" id="-32402">
		<tag k="name" v="Hågeberg" />
		<tag k="natural" v="hill" />
		<tag k="place" v="locality" />
		<tag k="ssr:stedsnr" v="7581" />
	</node>
	<node lat="60.50867499553861" lon="9.262305562337401" id="-32462">
		<tag k="name" v="Knutshøl" />
		<tag k="natural" v="valley" />
		<tag k="place" v="locality" />
		<tag k="ssr:stedsnr" v="85839" />
	</node>
	<node lat="60.49709444698325" lon="9.198838897181444" id="-32463">
		<tag k="name" v="Skardet" />
		<tag k="natural" v="valley" />
		<tag k="place" v="locality" />
		<tag k="ssr:stedsnr" v="85686" />
	</node>
	<node lat="60.62556666478885" lon="9.033422213251155" id="-32515">
		<tag k="name" v="Kvernahushaugen" />
		<tag k="natural" v="hill" />
		<tag k="place" v="locality" />
		<tag k="ssr:stedsnr" v="128473" />
	</node>
	<node lat="60.55016944633819" lon="9.10185277470673" id="-32546">
		<tag k="name" v="Føndalen" />
		<tag k="natural" v="valley" />
		<tag k="place" v="locality" />
		<tag k="ssr:stedsnr" v="146056" />
	</node>
	<node lat="60.524702775757035" lon="8.971394451718819" id="-32551">
		<tag k="name" v="Sollibrekka" />
		<tag k="natural" v="hill" />
		<tag k="place" v="locality" />
		<tag k="ssr:stedsnr" v="146638" />
	</node>
	<node lat="60.603463070490406" lon="9.299343392194546" id="-32574">
		<tag k="fixme" v="consider natural=peak for the most distinct mountains in the district" />
		<tag k="name" v="Veslefjell" />
		<tag k="natural" v="hill" />
		<tag k="place" v="locality" />
		<tag k="ssr:stedsnr" v="189623" />
	</node>
	<node lat="60.5679555574004" lon="8.714019437054185" id="-32577">
		<tag k="fixme" v="consider natural=peak for the most distinct mountains in the district" />
		<tag k="name" v="Vesle Dyna" />
		<tag k="natural" v="hill" />
		<tag k="place" v="locality" />
		<tag k="ssr:stedsnr" v="189003" />
	</node>
	<node lat="60.60209444701365" lon="8.9573444503851" id="-32578">
		<tag k="fixme" v="consider natural=peak for the most distinct mountains in the district" />
		<tag k="name" v="Sandanåsen" />
		<tag k="natural" v="hill" />
		<tag k="place" v="locality" />
		<tag k="ssr:stedsnr" v="189439" />
	</node>
	<node lat="60.545811112093894" lon="9.02535554971876" id="-32585">
		<tag k="name" v="Klovsteindalen" />
		<tag k="natural" v="valley" />
		<tag k="place" v="locality" />
		<tag k="ssr:stedsnr" v="189555" />
	</node>
	<node lat="60.54417222458396" lon="8.705591665244915" id="-32603">
		<tag k="fixme" v="consider natural=peak for the most distinct mountains in the district" />
		<tag k="name" v="Skurvenatten" />
		<tag k="natural" v="hill" />
		<tag k="place" v="locality" />
		<tag k="ssr:stedsnr" v="189889" />
	</node>
	<node lat="60.46655277684024" lon="9.214308330384668" id="-32611">
		<tag k="name" v="Natteberget" />
		<tag k="natural" v="ridge" />
		<tag k="place" v="locality" />
		<tag k="ssr:stedsnr" v="207564" />
	</node>
	<node lat="60.52803055273287" lon="9.173563891695395" id="-32613">
		<tag k="name" v="Juvet" />
		<tag k="natural" v="gorge" />
		<tag k="ssr:stedsnr" v="207174" />
	</node>
	<node lat="60.60803055373029" lon="9.222230560041808" id="-32624">
		<tag k="name" v="Heimdalen" />
		<tag k="natural" v="valley" />
		<tag k="place" v="locality" />
		<tag k="ssr:stedsnr" v="208463" />
	</node>
	<node lat="60.58116389335985" lon="9.184102783943588" id="-32645">
		<tag k="name" v="Ulvedalen" />
		<tag k="natural" v="valley" />
		<tag k="place" v="locality" />
		<tag k="ssr:stedsnr" v="310444" />
	</node>
	<node lat="60.57476944820179" lon="9.071286111443415" id="-32646">
		<tag k="name" v="Bringenatten" />
		<tag k="natural" v="hill" />
		<tag k="place" v="locality" />
		<tag k="ssr:stedsnr" v="310447" />
	</node>
	<node lat="60.674163892935894" lon="9.288894442841615" id="-32662">
		<tag k="fixme" v="consider natural=peak for the most distinct mountains in the district" />
		<tag k="name" v="Buhovdkollen" />
		<tag k="natural" v="hill" />
		<tag k="place" v="locality" />
		<tag k="ssr:stedsnr" v="310751" />
	</node>
	<node lat="60.569499997441454" lon="8.744763894314955" id="-32666">
		<tag k="name" v="Dugurdsnatten" />
		<tag k="natural" v="hill" />
		<tag k="place" v="locality" />
		<tag k="ssr:stedsnr" v="327498" />
	</node>
	<node lat="60.54471944479491" lon="9.098963895419624" id="-32670">
		<tag k="fixme" v="consider natural=peak for the most distinct mountains in the district" />
		<tag k="name" v="Gråhøgde" />
		<tag k="natural" v="hill" />
		<tag k="place" v="locality" />
		<tag k="ssr:stedsnr" v="328060" />
	</node>
	<node lat="60.451922225888296" lon="9.221769448801169" id="-32679">
		<tag k="name" v="Heimseterdalen" />
		<tag k="natural" v="valley" />
		<tag k="place" v="locality" />
		<tag k="ssr:stedsnr" v="328918" />
	</node>
	<node lat="60.596058335509866" lon="8.860599997670679" id="-32694">
		<tag k="fixme" v="consider natural=peak for the most distinct mountains in the district" />
		<tag k="name" v="Natten" />
		<tag k="natural" v="hill" />
		<tag k="old_name" v="Blåbærhøgda" />
		<tag k="place" v="locality" />
		<tag k="ssr:stedsnr" v="360432" />
	</node>
	<node lat="60.516377779548264" lon="8.802202782579247" id="-32711">
		<tag k="name" v="Brusethøgde" />
		<tag k="natural" v="hill" />
		<tag k="place" v="locality" />
		<tag k="ssr:stedsnr" v="371185" />
	</node>
	<node lat="60.60824444272149" lon="9.17521110311849" id="-32715">
		<tag k="name" v="Todalsnatten" />
		<tag k="natural" v="hill" />
		<tag k="place" v="locality" />
		<tag k="ssr:stedsnr" v="371440" />
	</node>
	<node lat="60.52061110815194" lon="8.719005559104819" id="-32738">
		<tag k="name" v="Høgehaug" />
		<tag k="natural" v="hill" />
		<tag k="place" v="locality" />
		<tag k="ssr:stedsnr" v="389027" />
	</node>
	<node lat="60.540663887121994" lon="9.190777786507674" id="-32748">
		<tag k="name" v="Hallandnatten" />
		<tag k="natural" v="hill" />
		<tag k="place" v="locality" />
		<tag k="ssr:stedsnr" v="389185" />
	</node>
	<node lat="60.46737221900455" lon="9.17519722468532" id="-32753">
		<tag k="name" v="Juvet" />
		<tag k="natural" v="gorge" />
		<tag k="ssr:stedsnr" v="389520" />
	</node>
	<node lat="60.621086111863214" lon="8.961497227930405" id="-32805">
		<tag k="name" v="Nonshaugen" />
		<tag k="natural" v="hill" />
		<tag k="place" v="locality" />
		<tag k="ssr:stedsnr" v="510843" />
	</node>
	<node lat="60.532211114227195" lon="9.184449994323705" id="-32807">
		<tag k="name" v="Nilsesprang" />
		<tag k="natural" v="gorge" />
		<tag k="ssr:stedsnr" v="509171" />
	</node>
	<node lat="60.48096111049956" lon="9.242483342409475" id="-32818">
		<tag k="name" v="Slåen" />
		<tag k="natural" v="ridge" />
		<tag k="place" v="locality" />
		<tag k="ssr:stedsnr" v="510628" />
	</node>
	<node lat="60.48365278117345" lon="9.21134167414526" id="-32819">
		<tag k="name" v="Steinarbråten" />
		<tag k="natural" v="slope" />
		<tag k="place" v="locality" />
		<tag k="ssr:stedsnr" v="510631" />
	</node>
	<node lat="60.57458611011717" lon="9.0774777848935" id="-32820">
		<tag k="name" v="Rundenatten" />
		<tag k="natural" v="hill" />
		<tag k="place" v="locality" />
		<tag k="ssr:stedsnr" v="510590" />
	</node>
	<node lat="60.48012499863291" lon="9.153227779789328" id="-32837">
		<tag k="name" v="Rundenatten" />
		<tag k="natural" v="hill" />
		<tag k="place" v="locality" />
		<tag k="ssr:stedsnr" v="551281" />
	</node>
	<node lat="60.483888892347856" lon="9.145725002664571" id="-32838">
		<tag k="fixme" v="consider natural=peak for the most distinct mountains in the district" />
		<tag k="name" v="Kvelvåsen" />
		<tag k="natural" v="hill" />
		<tag k="place" v="locality" />
		<tag k="ssr:stedsnr" v="551282" />
	</node>
	<node lat="60.564391670642394" lon="8.955147221931304" id="-32841">
		<tag k="name" v="Fussenatten" />
		<tag k="natural" v="hill" />
		<tag k="place" v="locality" />
		<tag k="ssr:stedsnr" v="552423" />
	</node>
	<node lat="60.593319440536646" lon="8.793858332878138" id="-32858">
		<tag k="name" v="Dalane" />
		<tag k="natural" v="valley" />
		<tag k="place" v="locality" />
		<tag k="ssr:stedsnr" v="553056" />
	</node>
	<node lat="60.5120878054156" lon="8.681491275685447" id="-32860">
		<tag k="fixme" v="consider natural=peak for the most distinct mountains in the district" />
		<tag k="name" v="Såtenatten" />
		<tag k="natural" v="hill" />
		<tag k="place" v="locality" />
		<tag k="ssr:stedsnr" v="553180" />
	</node>
	<node lat="60.56195833200359" lon="9.167183338116159" id="-32866">
		<tag k="fixme" v="consider natural=peak for the most distinct mountains in the district" />
		<tag k="name" v="Mørkedokknatten" />
		<tag k="natural" v="hill" />
		<tag k="place" v="locality" />
		<tag k="ssr:stedsnr" v="553389" />
	</node>
	<node lat="60.579730555667325" lon="9.313644445434033" id="-32871">
		<tag k="fixme" v="consider natural=peak for the most distinct mountains in the district" />
		<tag k="name" v="Leinenatten" />
		<tag k="natural" v="hill" />
		<tag k="place" v="locality" />
		<tag k="ssr:stedsnr" v="553824" />
	</node>
	<node lat="60.505155559677796" lon="9.298686111911653" id="-32883">
		<tag k="name" v="Dugurdshaugen" />
		<tag k="natural" v="hill" />
		<tag k="place" v="locality" />
		<tag k="ssr:stedsnr" v="570845" />
	</node>
	<node lat="60.53660277962885" lon="8.808688885012268" id="-32886">
		<tag k="name" v="Mohaugen" />
		<tag k="natural" v="hill" />
		<tag k="place" v="locality" />
		<tag k="ssr:stedsnr" v="571186" />
	</node>
	<node lat="60.50371666597524" lon="8.981755562158751" id="-32888">
		<tag k="name" v="Langehaug" />
		<tag k="natural" v="hill" />
		<tag k="place" v="locality" />
		<tag k="ssr:stedsnr" v="570957" />
	</node>
	<node lat="60.50968055265155" lon="8.981080547782966" id="-32889">
		<tag k="name" v="Rundehaug" />
		<tag k="natural" v="hill" />
		<tag k="place" v="locality" />
		<tag k="ssr:stedsnr" v="570959" />
	</node>
	<node lat="60.49676110873257" lon="8.928969437673613" id="-32890">
		<tag k="name" v="Driftevasshøgde" />
		<tag k="natural" v="hill" />
		<tag k="place" v="locality" />
		<tag k="ssr:stedsnr" v="570968" />
	</node>
	<node lat="60.5853444414146" lon="9.286616674002818" id="-32897">
		<tag k="fixme" v="consider natural=peak for the most distinct mountains in the district" />
		<tag k="name" v="Grånatten" />
		<tag k="natural" v="hill" />
		<tag k="place" v="locality" />
		<tag k="ssr:stedsnr" v="571477" />
	</node>
	<node lat="60.47722222672561" lon="9.23636667300542" id="-32898">
		<tag k="name" v="Kjerringskard" />
		<tag k="natural" v="valley" />
		<tag k="place" v="locality" />
		<tag k="ssr:stedsnr" v="571594" />
	</node>
	<node lat="60.58803969997523" lon="9.027803228700442" id="-32902">
		<tag k="fixme" v="consider natural=peak for the most distinct mountains in the district" />
		<tag k="name" v="Espesetåsen" />
		<tag k="natural" v="hill" />
		<tag k="place" v="locality" />
		<tag k="ssr:stedsnr" v="571827" />
	</node>
	<node lat="60.48058333778068" lon="9.09053611958587" id="-32913">
		<tag k="name" v="Såtepiggen" />
		<tag k="natural" v="hill" />
		<tag k="place" v="locality" />
		<tag k="ssr:stedsnr" v="612291" />
	</node>
	<node lat="60.55877499854412" lon="8.754000007494682" id="-32924">
		<tag k="name" v="Ausehøgde" />
		<tag k="natural" v="hill" />
		<tag k="place" v="locality" />
		<tag k="ssr:stedsnr" v="613240" />
	</node>
	<node lat="60.66699166757931" lon="8.77783333641298" id="-32952">
		<tag k="name" v="Hallingdal" />
		<tag k="natural" v="valley" />
		<tag k="place" v="locality" />
		<tag k="ssr:stedsnr" v="630909" />
	</node>
	<node lat="60.43615000316198" lon="9.200133326314253" id="-32973">
		<tag k="name" v="Bakkehaugen" />
		<tag k="natural" v="hill" />
		<tag k="place" v="locality" />
		<tag k="ssr:stedsnr" v="631929" />
	</node>
	<node lat="60.46216944457089" lon="9.244916664484968" id="-32997">
		<tag k="fixme" v="consider natural=peak for the most distinct mountains in the district" />
		<tag k="name" v="Høgrauk" />
		<tag k="natural" v="hill" />
		<tag k="place" v="locality" />
		<tag k="ssr:stedsnr" v="734395" />
	</node>
	<node lat="60.53651666963913" lon="9.062216667871645" id="-33015">
		<tag k="fixme" v="consider natural=peak for the most distinct mountains in the district" />
		<tag k="name" v="Syningen" />
		<tag k="natural" v="hill" />
		<tag k="place" v="locality" />
		<tag k="ssr:stedsnr" v="735550" />
	</node>
	<node lat="60.648075000558" lon="9.03396388815317" id="-33032">
		<tag k="name" v="Osteberglie" />
		<tag k="natural" v="slope" />
		<tag k="place" v="locality" />
		<tag k="ssr:stedsnr" v="752978" />
	</node>
	<node lat="60.50658332920969" lon="8.711472216335995" id="-33040">
		<tag k="name" v="Tjuverihalle" />
		<tag k="natural" v="valley" />
		<tag k="place" v="locality" />
		<tag k="ssr:stedsnr" v="753022" />
	</node>
	<node lat="60.543527777545066" lon="9.129897223148342" id="-33041">
		<tag k="name" v="Påverudlie" />
		<tag k="natural" v="slope" />
		<tag k="place" v="locality" />
		<tag k="ssr:stedsnr" v="753045" />
	</node>
	<node lat="60.513680557787076" lon="9.176330557553941" id="-33042">
		<tag k="name" v="Veltenatten" />
		<tag k="natural" v="hill" />
		<tag k="place" v="locality" />
		<tag k="ssr:stedsnr" v="753142" />
	</node>
	<node lat="60.444047223423844" lon="9.15651389501788" id="-33046">
		<tag k="name" v="Øvreklanten" />
		<tag k="natural" v="hill" />
		<tag k="place" v="locality" />
		<tag k="ssr:stedsnr" v="753423" />
	</node>
	<node lat="60.63329166980382" lon="9.025827784592682" id="-33050">
		<tag k="name" v="Kvernbakkan" />
		<tag k="natural" v="slope" />
		<tag k="place" v="locality" />
		<tag k="ssr:stedsnr" v="753737" />
	</node>
	<node lat="60.47661111007671" lon="9.135625002096639" id="-33069">
		<tag k="name" v="Nonsnatten" />
		<tag k="natural" v="hill" />
		<tag k="place" v="locality" />
		<tag k="ssr:stedsnr" v="794274" />
	</node>
	<node lat="60.43039066602095" lon="9.2363913710137" id="-33073">
		<tag k="fixme" v="consider natural=peak for the most distinct mountains in the district" />
		<tag k="name" v="Ålungruken" />
		<tag k="natural" v="hill" />
		<tag k="place" v="locality" />
		<tag k="ssr:stedsnr" v="795222" />
	</node>
	<node lat="60.48542500207638" lon="9.276924999024661" id="-33074">
		<tag k="fixme" v="consider natural=peak for the most distinct mountains in the district" />
		<tag k="name" v="Finnesetkollen" />
		<tag k="natural" v="hill" />
		<tag k="place" v="locality" />
		<tag k="ssr:stedsnr" v="795371" />
	</node>
	<node lat="60.53920277539259" lon="9.330852780091092" id="-33084">
		<tag k="fixme" v="consider natural=peak for the most distinct mountains in the district" />
		<tag k="name" v="Blåfjell" />
		<tag k="natural" v="hill" />
		<tag k="place" v="locality" />
		<tag k="ssr:stedsnr" v="796884" />
	</node>
	<node lat="60.61228611042717" lon="8.8967361101164" id="-33094">
		<tag k="name" v="Gamlemannshovda" />
		<tag k="natural" v="hill" />
		<tag k="place" v="locality" />
		<tag k="ssr:stedsnr" v="796445" />
	</node>
	<node lat="60.445105551254855" lon="9.099894445993339" id="-33110">
		<tag k="name" v="Imleberget" />
		<tag k="natural" v="hill" />
		<tag k="place" v="locality" />
		<tag k="ssr:stedsnr" v="813457" />
	</node>
	<node lat="60.539266668290935" lon="8.975719438958151" id="-33113">
		<tag k="name" v="Slagghaug" />
		<tag k="natural" v="hill" />
		<tag k="place" v="locality" />
		<tag k="ssr:stedsnr" v="813635" />
	</node>
	<node lat="60.530311107843026" lon="9.213272228366048" id="-33114">
		<tag k="name" v="Ureberg" />
		<tag k="natural" v="ridge" />
		<tag k="place" v="locality" />
		<tag k="ssr:stedsnr" v="813638" />
	</node>
	<node lat="60.63510833722715" lon="8.966533325715982" id="-33118">
		<tag k="name" v="Storebakkan" />
		<tag k="natural" v="slope" />
		<tag k="place" v="locality" />
		<tag k="ssr:stedsnr" v="813988" />
	</node>
	<node lat="60.58548888686662" lon="9.190247230490332" id="-33121">
		<tag k="name" v="Ulvedalen" />
		<tag k="natural" v="valley" />
		<tag k="place" v="locality" />
		<tag k="ssr:stedsnr" v="814218" />
	</node>
	<node lat="60.61356111022144" lon="9.230461105253424" id="-33141">
		<tag k="name" v="Lyarberget" />
		<tag k="natural" v="hill" />
		<tag k="place" v="locality" />
		<tag k="ssr:stedsnr" v="815453" />
	</node>
	<node lat="60.52210555597136" lon="8.82370554930726" id="-33174">
		<tag k="fixme" v="consider natural=peak for the most distinct mountains in the district" />
		<tag k="name" v="Flatåsen" />
		<tag k="natural" v="hill" />
		<tag k="place" v="locality" />
		<tag k="ssr:stedsnr" v="857222" />
	</node>
	<node lat="60.50151388911987" lon="9.073399997776267" id="-33186">
		<tag k="name" v="Bærsenden" />
		<tag k="natural" v="hill" />
		<tag k="place" v="locality" />
		<tag k="ssr:stedsnr" v="874137" />
	</node>
	<node lat="60.63774166815712" lon="9.040119450141068" id="-33189">
		<tag k="name" v="Salen" />
		<tag k="natural" v="hill" />
		<tag k="place" v="locality" />
		<tag k="ssr:stedsnr" v="874156" />
	</node>
	<node lat="60.67069167091641" lon="8.99958610916853" id="-33196">
		<tag k="name" v="Stille" />
		<tag k="natural" v="hill" />
		<tag k="place" v="locality" />
		<tag k="ssr:stedsnr" v="874963" />
	</node>
	<node lat="60.458044441349195" lon="9.208566674472578" id="-33200">
		<tag k="name" v="Juvhaugen" />
		<tag k="natural" v="hill" />
		<tag k="place" v="locality" />
		<tag k="ssr:stedsnr" v="874580" />
	</node>
	<node lat="60.496108333256146" lon="8.81666110269784" id="-33205">
		<tag k="name" v="Skreiva" />
		<tag k="natural" v="slope" />
		<tag k="place" v="locality" />
		<tag k="ssr:stedsnr" v="875009" />
	</node>
	<node lat="60.443736114591296" lon="9.158850005326283" id="-33218">
		<tag k="name" v="Vesleklanten" />
		<tag k="natural" v="hill" />
		<tag k="place" v="locality" />
		<tag k="ssr:stedsnr" v="875490" />
	</node>
	<node lat="60.59543333501479" lon="9.135761106497931" id="-33223">
		<tag k="name" v="Baklie" />
		<tag k="natural" v="slope" />
		<tag k="place" v="locality" />
		<tag k="ssr:stedsnr" v="875777" />
	</node>
	<node lat="60.4919194436754" lon="9.194986105383178" id="-33224">
		<tag k="fixme" v="consider natural=peak for the most distinct mountains in the district" />
		<tag k="name" v="Lauvviknatten" />
		<tag k="natural" v="hill" />
		<tag k="place" v="locality" />
		<tag k="ssr:stedsnr" v="875726" />
	</node>
	<node lat="60.453166670534074" lon="9.200213882564377" id="-33227">
		<tag k="name" v="Brattebakk" />
		<tag k="natural" v="slope" />
		<tag k="place" v="locality" />
		<tag k="ssr:stedsnr" v="875921" />
	</node>
</osm>
