<?xml version="1.0" encoding="UTF-8"?>
<osm generator="osmapis" version="0.6">
	<node id="-264189" lat="60.4606527803" lon="9.2545277768">
		<tag k="name" v="Søre Rauk" />
		<tag k="place" v="farm" />
		<tag k="ssr:stedsnr" v="794343" />
	</node>
	<node id="-264188" lat="60.4778499992" lon="9.27184999096">
		<tag k="name" v="Kvelven" />
		<tag k="place" v="isolated_dwelling" />
		<tag k="ssr:stedsnr" v="794327" />
	</node>
	<node id="-264182" lat="60.6411027797" lon="9.05221111813">
		<tag k="name" v="Hallibakken" />
		<tag k="place" v="farm" />
		<tag k="ssr:stedsnr" v="875837" />
	</node>
	<node id="-264176" lat="60.4661888856" lon="9.19603055991">
		<tag k="name" v="Søre Mjølid" />
		<tag k="place" v="farm" />
		<tag k="ssr:stedsnr" v="875695" />
	</node>
	<node id="-264175" lat="60.4669083378" lon="9.19591943966">
		<tag k="name" v="Midtre Mjølid" />
		<tag k="place" v="farm" />
		<tag k="ssr:stedsnr" v="875694" />
	</node>
	<node id="-264174" lat="60.5819722195" lon="9.10889721873">
		<tag k="name" v="Østenforskogen" />
		<tag k="place" v="quarter" />
		<tag k="ssr:stedsnr" v="769417" />
	</node>
	<node id="-264170" lat="60.475713892" lon="9.22368888481">
		<tag k="name" v="Geiterygghaugen" />
		<tag k="place" v="farm" />
		<tag k="ssr:stedsnr" v="754898" />
	</node>
	<node id="-264168" lat="60.5648194476" lon="9.00398889708">
		<tag k="name" v="Skjervemoen" />
		<tag k="place" v="farm" />
		<tag k="ssr:stedsnr" v="753947" />
	</node>
	<node id="-264165" lat="60.6172833289" lon="9.06832499543">
		<tag k="name" v="Fingarmoen" />
		<tag k="place" v="farm" />
		<tag k="ssr:stedsnr" v="753763" />
	</node>
	<node id="-264162" lat="60.5715500021" lon="9.04331110421">
		<tag k="name" v="Sommarhaugen" />
		<tag k="place" v="farm" />
		<tag k="ssr:stedsnr" v="753634" />
	</node>
	<node id="-264153" lat="60.6537388866" lon="9.3536694392">
		<tag k="historic" v="shieling" />
		<tag k="name" v="Indre Trytehølet" />
		<tag k="place" v="locality" />
		<tag k="ssr:stedsnr" v="753244" />
	</node>
	<node id="-264152" lat="60.4695999956" lon="9.23387500861">
		<tag k="name" v="Nørdre Sevre" />
		<tag k="place" v="farm" />
		<tag k="ssr:stedsnr" v="753231" />
	</node>
	<node id="-264140" lat="60.5390805538" lon="9.14777221862">
		<tag k="name" v="Roløkken camping" />
		<tag k="ssr:stedsnr" v="654567" />
		<tag k="tourism" v="camp_site" />
	</node>
	<node id="-264139" lat="60.5126305544" lon="8.94587777295">
		<tag k="name" v="Storhalle" />
		<tag k="place" v="neighbourhood" />
		<tag k="ssr:stedsnr" v="648393" />
	</node>
	<node id="-264136" lat="60.4811638882" lon="9.23150278545">
		<tag k="name" v="Velta" />
		<tag k="place" v="farm" />
		<tag k="ssr:stedsnr" v="632877" />
	</node>
	<node id="-264133" lat="60.4451416646" lon="9.18151111582">
		<tag k="name" v="Bukkemyr" />
		<tag k="place" v="farm" />
		<tag k="ssr:stedsnr" v="632502" />
	</node>
	<node id="-264124" lat="60.6544444483" lon="9.04369166386">
		<tag k="name" v="Svenkerud" />
		<tag k="place" v="farm" />
		<tag k="ssr:stedsnr" v="631874" />
	</node>
	<node id="-264123" lat="60.6281694444" lon="9.06296388785">
		<tag k="name" v="Gunbjørndokk" />
		<tag k="place" v="farm" />
		<tag k="ssr:stedsnr" v="631866" />
	</node>
	<node id="-264121" lat="60.6446999995" lon="9.03206944063">
		<tag k="name" v="Nørdre Garnås" />
		<tag k="place" v="farm" />
		<tag k="ssr:stedsnr" v="631821" />
	</node>
	<node id="-264120" lat="60.610744444" lon="9.15985000512">
		<tag k="name" v="Todalshytta" />
		<tag k="place" v="isolated_dwelling" />
		<tag k="ssr:stedsnr" v="631806" />
	</node>
	<node id="-264119" lat="60.5695611143" lon="9.03945556396">
		<tag k="name" v="Hermundsgarden" />
		<tag k="place" v="farm" />
		<tag k="ssr:stedsnr" v="631643" />
	</node>
	<node id="-264118" lat="60.6509986703" lon="9.19383230324">
		<tag k="historic" v="shieling" />
		<tag k="name" v="Preinset" />
		<tag k="place" v="locality" />
		<tag k="ssr:stedsnr" v="631449" />
	</node>
	<node id="-264117" lat="60.5630222193" lon="9.22300277152">
		<tag k="name" v="Tovasslihytta" />
		<tag k="place" v="isolated_dwelling" />
		<tag k="ssr:stedsnr" v="631438" />
	</node>
	<node id="-264116" lat="60.5627138847" lon="9.00908888431">
		<tag k="name" v="Jørnengen" />
		<tag k="place" v="locality" />
		<tag k="ssr:stedsnr" v="631105" />
	</node>
	<node id="-264110" lat="60.5703666659" lon="9.09801388986">
		<tag k="name" v="Bruvollen" />
		<tag k="place" v="farm" />
		<tag k="ssr:stedsnr" v="631083" />
	</node>
	<node id="-264109" lat="60.5249277793" lon="8.96478611332">
		<tag k="name" v="Trollset" />
		<tag k="place" v="neighbourhood" />
		<tag k="ssr:stedsnr" v="630952" />
	</node>
	<node id="-264103" lat="60.6799999992" lon="9.24796110302">
		<tag k="historic" v="shieling" />
		<tag k="name" v="Bekkjeset" />
		<tag k="place" v="locality" />
		<tag k="ssr:stedsnr" v="613686" />
	</node>
	<node id="-264102" lat="60.5343722237" lon="9.23177776926">
		<tag k="name" v="Liaberg" />
		<tag k="place" v="isolated_dwelling" />
		<tag k="ssr:stedsnr" v="613869" />
	</node>
	<node id="-264101" lat="60.5020972232" lon="9.29098611391">
		<tag k="historic" v="shieling" />
		<tag k="name" v="Siggeset" />
		<tag k="place" v="locality" />
		<tag k="ssr:stedsnr" v="613779" />
	</node>
	<node id="-264099" lat="60.50772928" lon="9.13519465096">
		<tag k="fixme" v="consider place=hamlet" />
		<tag k="name" v="Gire" />
		<tag k="place" v="farm" />
		<tag k="ssr:stedsnr" v="613532" />
	</node>
	<node id="-264093" lat="60.5329666678" lon="9.15514167346">
		<tag k="alt_name" v="Viki" />
		<tag k="name" v="Viken" />
		<tag k="place" v="farm" />
		<tag k="ssr:stedsnr" v="613613" />
	</node>
	<node id="-264092" lat="60.531663887" lon="8.98443610875">
		<tag k="historic" v="shieling" />
		<tag k="name" v="Sollistølan" />
		<tag k="place" v="locality" />
		<tag k="ssr:stedsnr" v="613607" />
	</node>
	<node id="-264089" lat="60.5959416695" lon="9.24925277323">
		<tag k="historic" v="shieling" />
		<tag k="name" v="Brøtset" />
		<tag k="place" v="locality" />
		<tag k="ssr:stedsnr" v="613661" />
	</node>
	<node id="-264085" lat="60.6329333345" lon="9.07059167558">
		<tag k="alt_name" v="Haugen" />
		<tag k="name" v="Nedre Haugen" />
		<tag k="place" v="farm" />
		<tag k="ssr:stedsnr" v="613485" />
	</node>
	<node id="-264082" lat="60.6184222226" lon="8.99358611071">
		<tag k="historic" v="shieling" />
		<tag k="name" v="Miljostølen" />
		<tag k="place" v="locality" />
		<tag k="ssr:stedsnr" v="613455" />
	</node>
	<node id="-264080" lat="60.5680888859" lon="9.10275833844">
		<tag k="name" v="Nesbyen" />
		<tag k="place" v="village" />
		<tag k="ssr:stedsnr" v="613433" />
	</node>
	<node id="-264078" lat="60.5600194425" lon="9.00486667503">
		<tag k="name" v="Jørgenenge" />
		<tag k="place" v="farm" />
		<tag k="ssr:stedsnr" v="613399" />
	</node>
	<node id="-264070" lat="60.4591111086" lon="9.20079722863">
		<tag k="name" v="Lykkja" />
		<tag k="place" v="farm" />
		<tag k="ssr:stedsnr" v="612322" />
	</node>
	<node id="-264068" lat="60.4784262025" lon="9.21096522509">
		<tag k="fixme" v="consider place=hamlet" />
		<tag k="name" v="Kåterud" />
		<tag k="place" v="farm" />
		<tag k="ssr:stedsnr" v="612311" />
	</node>
	<node id="-264066" lat="60.4877833303" lon="9.157050001">
		<tag k="historic" v="shieling" />
		<tag k="name" v="Kvelven" />
		<tag k="place" v="locality" />
		<tag k="ssr:stedsnr" v="612297" />
	</node>
	<node id="-264065" lat="60.4957059964" lon="9.17036809804">
		<tag k="fixme" v="multiple name tags, choose one and add the other to alt_name; consider place=hamlet" />
		<tag k="name" v="Nordhagen;Søre Nordhagen" />
		<tag k="place" v="farm" />
		<tag k="ssr:stedsnr" v="612296" />
	</node>
	<node id="-264063" lat="60.4799305519" lon="9.09807500765">
		<tag k="name" v="Purkeset" />
		<tag k="place" v="isolated_dwelling" />
		<tag k="ssr:stedsnr" v="612287" />
	</node>
	<node id="-264061" lat="60.4852122649" lon="9.2054242048">
		<tag k="fixme" v="consider place=hamlet" />
		<tag k="name" v="Islandsrud" />
		<tag k="place" v="farm" />
		<tag k="ssr:stedsnr" v="612283" />
	</node>
	<node id="-264059" lat="60.4894499999" lon="9.05198333817">
		<tag k="historic" v="shieling" />
		<tag k="name" v="Fetjan" />
		<tag k="place" v="locality" />
		<tag k="ssr:stedsnr" v="612265" />
	</node>
	<node id="-264056" lat="60.4716250022" lon="9.22587499479">
		<tag k="name" v="Sevrestøen" />
		<tag k="place" v="farm" />
		<tag k="ssr:stedsnr" v="612375" />
	</node>
	<node id="-264055" lat="60.4748593062" lon="9.2445599753">
		<tag k="fixme" v="consider place=hamlet" />
		<tag k="name" v="Langåker" />
		<tag k="place" v="farm" />
		<tag k="ssr:stedsnr" v="612373" />
	</node>
	<node id="-264050" lat="60.5388388894" lon="9.13549166174">
		<tag k="name" v="Knutsbråten" />
		<tag k="place" v="locality" />
		<tag k="ssr:stedsnr" v="571969" />
	</node>
	<node id="-264049" lat="60.5656749968" lon="9.01675000551">
		<tag k="name" v="Skollerud" />
		<tag k="place" v="farm" />
		<tag k="ssr:stedsnr" v="571955" />
	</node>
	<node id="-264045" lat="60.4952916707" lon="9.17878888717">
		<tag k="fixme" v="multiple name tags, choose one and add the other to alt_name" />
		<tag k="name" v="Engen;Hovdeengen" />
		<tag k="old_name" v="Hofdeengen" />
		<tag k="place" v="farm" />
		<tag k="ssr:stedsnr" v="571696" />
	</node>
	<node id="-264042" lat="60.4260583353" lon="9.1962888943">
		<tag k="name" v="Panten" />
		<tag k="place" v="isolated_dwelling" />
		<tag k="ssr:stedsnr" v="571669" />
	</node>
	<node id="-264040" lat="60.4807722192" lon="9.18486944552">
		<tag k="name" v="Asleplassen" />
		<tag k="place" v="locality" />
		<tag k="ssr:stedsnr" v="571222" />
	</node>
	<node id="-264036" lat="60.485444448" lon="9.18881110495">
		<tag k="name" v="Lauvli" />
		<tag k="place" v="isolated_dwelling" />
		<tag k="ssr:stedsnr" v="571153" />
	</node>
	<node id="-264029" lat="60.5630861127" lon="9.02342777109">
		<tag k="name" v="Eidal" />
		<tag k="place" v="farm" />
		<tag k="ssr:stedsnr" v="571126" />
	</node>
	<node id="-264022" lat="60.5654305533" lon="9.03489444374">
		<tag k="name" v="Sveinegarden" />
		<tag k="place" v="farm" />
		<tag k="ssr:stedsnr" v="570635" />
	</node>
	<node id="-264011" lat="60.6038194469" lon="9.39071945167">
		<tag k="name" v="Venedokk" />
		<tag k="place" v="locality" />
		<tag k="ssr:stedsnr" v="553676" />
	</node>
	<node id="-264007" lat="60.6034472225" lon="8.8890583356">
		<tag k="historic" v="shieling" />
		<tag k="name" v="Vardan" />
		<tag k="place" v="locality" />
		<tag k="ssr:stedsnr" v="553451" />
	</node>
	<node id="-264000" lat="60.5501944411" lon="8.94738056054">
		<tag k="name" v="Isakrud" />
		<tag k="place" v="farm" />
		<tag k="ssr:stedsnr" v="553396" />
	</node>
	<node id="-263995" lat="60.5671722218" lon="9.13326943759">
		<tag k="name" v="Todokk" />
		<tag k="place" v="farm" />
		<tag k="ssr:stedsnr" v="553374" />
	</node>
	<node id="-263993" lat="60.5629888865" lon="9.13033611533">
		<tag k="name" v="Engen" />
		<tag k="place" v="farm" />
		<tag k="ssr:stedsnr" v="553372" />
	</node>
	<node id="-263992" lat="60.5680001851" lon="9.09670888572">
		<tag k="fixme" v="consider place=hamlet" />
		<tag k="name" v="Devegge" />
		<tag k="place" v="farm" />
		<tag k="ssr:stedsnr" v="553368" />
	</node>
	<node id="-263986" lat="60.5513111121" lon="9.28942222755">
		<tag k="historic" v="shieling" />
		<tag k="name" v="Lushøl" />
		<tag k="place" v="locality" />
		<tag k="ssr:stedsnr" v="552878" />
	</node>
	<node id="-263983" lat="60.5241285866" lon="9.18012493675">
		<tag k="fixme" v="consider place=hamlet" />
		<tag k="name" v="Gullingsrud" />
		<tag k="place" v="farm" />
		<tag k="ssr:stedsnr" v="552673" />
	</node>
	<node id="-263979" lat="60.5185305557" lon="9.10941110523">
		<tag k="name" v="Saupeset" />
		<tag k="place" v="neighbourhood" />
		<tag k="ssr:stedsnr" v="552660" />
	</node>
	<node id="-263978" lat="60.5168083289" lon="8.96069722533">
		<tag k="name" v="Kuluset" />
		<tag k="place" v="neighbourhood" />
		<tag k="ssr:stedsnr" v="552655" />
	</node>
	<node id="-263976" lat="60.6418166707" lon="9.03648888991">
		<tag k="name" v="Garnåshaugen" />
		<tag k="place" v="farm" />
		<tag k="ssr:stedsnr" v="552558" />
	</node>
	<node id="-263974" lat="60.5643055588" lon="9.04206110584">
		<tag k="name" v="Øygarden" />
		<tag k="place" v="farm" />
		<tag k="ssr:stedsnr" v="552427" />
	</node>
	<node id="-263972" lat="60.4759361115" lon="9.24655278611">
		<tag k="name" v="Nørdre Berg" />
		<tag k="place" v="farm" />
		<tag k="ssr:stedsnr" v="552385" />
	</node>
	<node id="-263961" lat="60.5291580481" lon="8.90547131801">
		<tag k="fixme" v="consider place=hamlet" />
		<tag k="name" v="Rukkelien" />
		<tag k="place" v="farm" />
		<tag k="ssr:stedsnr" v="432598" />
	</node>
	<node id="-263960" lat="60.5296388906" lon="8.88963056331">
		<tag k="name" v="Storeli" />
		<tag k="place" v="farm" />
		<tag k="ssr:stedsnr" v="432585" />
	</node>
	<node id="-263959" lat="60.5423081947" lon="8.94138750559">
		<tag k="fixme" v="consider place=hamlet" />
		<tag k="name" v="Sjugurdsrud" />
		<tag k="place" v="farm" />
		<tag k="ssr:stedsnr" v="432561" />
	</node>
	<node id="-263958" lat="60.5537583334" lon="9.13212222611">
		<tag k="name" v="Døleplass" />
		<tag k="place" v="farm" />
		<tag k="ssr:stedsnr" v="432559" />
	</node>
	<node id="-263957" lat="60.5420916703" lon="9.19342777625">
		<tag k="name" v="Øvre Storeli" />
		<tag k="place" v="farm" />
		<tag k="ssr:stedsnr" v="432557" />
	</node>
	<node id="-263955" lat="60.6299111129" lon="9.05950832842">
		<tag k="name" v="Nørdre Dokken" />
		<tag k="place" v="farm" />
		<tag k="ssr:stedsnr" v="432472" />
	</node>
	<node id="-263954" lat="60.6241666653" lon="9.05651943682">
		<tag k="name" v="Søre Dokken" />
		<tag k="place" v="farm" />
		<tag k="ssr:stedsnr" v="432471" />
	</node>
	<node id="-263953" lat="60.6234704732" lon="9.06788888768">
		<tag k="name" v="Laddemoen" />
		<tag k="place" v="farm" />
		<tag k="ssr:stedsnr" v="432470" />
	</node>
	<node id="-263951" lat="60.6098777765" lon="9.23460278529">
		<tag k="historic" v="shieling" />
		<tag k="name" v="Krossløken" />
		<tag k="place" v="locality" />
		<tag k="ssr:stedsnr" v="432654" />
	</node>
	<node id="-263950" lat="60.5695333318" lon="9.14221944687">
		<tag k="name" v="Ellingsbråten" />
		<tag k="place" v="farm" />
		<tag k="ssr:stedsnr" v="432375" />
	</node>
	<node id="-263947" lat="60.622016663" lon="9.06620000127">
		<tag k="name" v="Bråten" />
		<tag k="place" v="farm" />
		<tag k="ssr:stedsnr" v="432427" />
	</node>
	<node id="-263946" lat="60.5588305583" lon="9.05342499818">
		<tag k="name" v="Langeslett" />
		<tag k="place" v="farm" />
		<tag k="ssr:stedsnr" v="432371" />
	</node>
	<node id="-263944" lat="60.5546444473" lon="9.03180000836">
		<tag k="name" v="Lien" />
		<tag k="place" v="farm" />
		<tag k="ssr:stedsnr" v="432362" />
	</node>
	<node id="-263943" lat="60.5595694404" lon="9.00209721999">
		<tag k="name" v="Ivarsbråten" />
		<tag k="place" v="locality" />
		<tag k="ssr:stedsnr" v="432361" />
	</node>
	<node id="-263942" lat="60.5612805566" lon="9.13434167229">
		<tag k="name" v="Monseplassen" />
		<tag k="place" v="farm" />
		<tag k="ssr:stedsnr" v="432351" />
	</node>
	<node id="-263941" lat="60.6349916681" lon="9.32781110557">
		<tag k="historic" v="shieling" />
		<tag k="name" v="Løken" />
		<tag k="place" v="locality" />
		<tag k="ssr:stedsnr" v="431671" />
	</node>
	<node id="-263939" lat="60.5306361072" lon="9.18705555949">
		<tag k="name" v="Djupedal" />
		<tag k="place" v="farm" />
		<tag k="ssr:stedsnr" v="431638" />
	</node>
	<node id="-263936" lat="60.6597333313" lon="9.00475555727">
		<tag k="historic" v="shieling" />
		<tag k="name" v="Nedrestølen" />
		<tag k="place" v="locality" />
		<tag k="ssr:stedsnr" v="431284" />
	</node>
	<node id="-263934" lat="60.4931388868" lon="9.064927779">
		<tag k="historic" v="shieling" />
		<tag k="name" v="Ormelie" />
		<tag k="place" v="locality" />
		<tag k="ssr:stedsnr" v="431275" />
	</node>
	<node id="-263932" lat="60.477793012" lon="9.17798187693">
		<tag k="fixme" v="consider place=hamlet" />
		<tag k="name" v="Rustad" />
		<tag k="place" v="farm" />
		<tag k="ssr:stedsnr" v="430287" />
	</node>
	<node id="-263931" lat="60.4724277814" lon="9.19438610975">
		<tag k="name" v="Heio" />
		<tag k="place" v="isolated_dwelling" />
		<tag k="ssr:stedsnr" v="430284" />
	</node>
	<node id="-263925" lat="60.6332194443" lon="9.07214999836">
		<tag k="name" v="Øvre Haugen" />
		<tag k="place" v="farm" />
		<tag k="ssr:stedsnr" v="389844" />
	</node>
	<node id="-263923" lat="60.6038391818" lon="9.03039506275">
		<tag k="historic" v="shieling" />
		<tag k="name" v="Melevollen" />
		<tag k="place" v="locality" />
		<tag k="ssr:stedsnr" v="389834" />
	</node>
	<node id="-263914" lat="60.5606638867" lon="9.04735554898">
		<tag k="name" v="Engen" />
		<tag k="place" v="farm" />
		<tag k="ssr:stedsnr" v="389129" />
	</node>
	<node id="-263913" lat="60.5612416709" lon="9.04291667099">
		<tag k="name" v="Ytterengen" />
		<tag k="place" v="farm" />
		<tag k="ssr:stedsnr" v="389127" />
	</node>
	<node id="-263906" lat="60.5361250025" lon="9.14062222434">
		<tag k="name" v="Majorbråten" />
		<tag k="place" v="locality" />
		<tag k="ssr:stedsnr" v="388964" />
	</node>
	<node id="-263904" lat="60.5652852526" lon="9.03014146125">
		<tag k="fixme" v="consider place=hamlet" />
		<tag k="name" v="Eidal" />
		<tag k="place" v="farm" />
		<tag k="ssr:stedsnr" v="388650" />
	</node>
	<node id="-263903" lat="60.5367527741" lon="9.27367499442">
		<tag k="name" v="Urdelie" />
		<tag k="place" v="isolated_dwelling" />
		<tag k="ssr:stedsnr" v="371873" />
	</node>
	<node id="-263897" lat="60.6319583374" lon="9.03487222618">
		<tag k="name" v="Brabant" />
		<tag k="old_name" v="Braband" />
		<tag k="place" v="farm" />
		<tag k="ssr:stedsnr" v="371450" />
	</node>
	<node id="-263896" lat="60.6321472261" lon="9.06152222254">
		<tag k="name" v="Stryken" />
		<tag k="place" v="farm" />
		<tag k="ssr:stedsnr" v="371446" />
	</node>
	<node id="-263894" lat="60.5443028036" lon="8.99446680559">
		<tag k="fixme" v="consider place=hamlet" />
		<tag k="name" v="Tronrud" />
		<tag k="place" v="farm" />
		<tag k="ssr:stedsnr" v="371577" />
	</node>
	<node id="-263890" lat="60.5036305551" lon="8.89988610797">
		<tag k="historic" v="shieling" />
		<tag k="name" v="Eivindslie" />
		<tag k="place" v="locality" />
		<tag k="ssr:stedsnr" v="371486" />
	</node>
	<node id="-263883" lat="60.608533335" lon="8.92007223078">
		<tag k="historic" v="shieling" />
		<tag k="name" v="Nystølen" />
		<tag k="place" v="locality" />
		<tag k="ssr:stedsnr" v="371419" />
	</node>
	<node id="-263880" lat="60.526163885" lon="9.16800834109">
		<tag k="name" v="Liodden" />
		<tag k="place" v="farm" />
		<tag k="ssr:stedsnr" v="370631" />
	</node>
	<node id="-263878" lat="60.523149999" lon="9.17083610818">
		<tag k="name" v="Rødningen" />
		<tag k="place" v="farm" />
		<tag k="ssr:stedsnr" v="370623" />
	</node>
	<node id="-263875" lat="60.5743277803" lon="9.02586945301">
		<tag k="name" v="Sletten" />
		<tag k="place" v="farm" />
		<tag k="ssr:stedsnr" v="370481" />
	</node>
	<node id="-263873" lat="60.5747555575" lon="8.92644166842">
		<tag k="historic" v="shieling" />
		<tag k="name" v="Fussestølen" />
		<tag k="place" v="locality" />
		<tag k="ssr:stedsnr" v="370475" />
	</node>
	<node id="-263870" lat="60.5871111152" lon="9.08734722494">
		<tag k="name" v="Melen" />
		<tag k="place" v="farm" />
		<tag k="ssr:stedsnr" v="370456" />
	</node>
	<node id="-263869" lat="60.4820250044" lon="9.23255000099">
		<tag k="name" v="Lauvskardbråten" />
		<tag k="place" v="farm" />
		<tag k="ssr:stedsnr" v="370383" />
	</node>
	<node id="-263867" lat="60.4425884718" lon="9.15814554157">
		<tag k="historic" v="shieling" />
		<tag k="name" v="Hovdesetre" />
		<tag k="place" v="locality" />
		<tag k="ssr:stedsnr" v="370374" />
	</node>
	<node id="-263866" lat="60.6572527752" lon="8.94517777928">
		<tag k="historic" v="shieling" />
		<tag k="name" v="Joneflatdalen" />
		<tag k="place" v="locality" />
		<tag k="ssr:stedsnr" v="370317" />
	</node>
	<node id="-263863" lat="60.4887055541" lon="8.95646110827">
		<tag k="name" v="Bardalhytta" />
		<tag k="place" v="isolated_dwelling" />
		<tag k="ssr:stedsnr" v="370304" />
	</node>
	<node id="-263862" lat="60.4924944473" lon="9.05325000029">
		<tag k="historic" v="shieling" />
		<tag k="name" v="Liaset" />
		<tag k="place" v="locality" />
		<tag k="ssr:stedsnr" v="370299" />
	</node>
	<node id="-263860" lat="60.5739305534" lon="8.75924999767">
		<tag k="historic" v="shieling" />
		<tag k="name" v="Fjellset" />
		<tag k="place" v="locality" />
		<tag k="ssr:stedsnr" v="370004" />
	</node>
	<node id="-263859" lat="60.4618111085" lon="9.26793610362">
		<tag k="name" v="Dekkin" />
		<tag k="place" v="locality" />
		<tag k="ssr:stedsnr" v="369332" />
	</node>
	<node id="-263855" lat="60.4734175754" lon="9.18625105663">
		<tag k="name" v="Nedre Børdalen" />
		<tag k="place" v="farm" />
		<tag k="ssr:stedsnr" v="369273" />
	</node>
	<node id="-263854" lat="60.4931250039" lon="9.18349999669">
		<tag k="name" v="Gråsult" />
		<tag k="place" v="farm" />
		<tag k="ssr:stedsnr" v="369266" />
	</node>
	<node id="-263853" lat="60.5913305593" lon="8.83216388858">
		<tag k="historic" v="shieling" />
		<tag k="name" v="Buglebjørk" />
		<tag k="place" v="locality" />
		<tag k="ssr:stedsnr" v="362435" />
	</node>
	<node id="-263848" lat="60.4904833378" lon="9.17700277912">
		<tag k="name" v="Søre Melum" />
		<tag k="place" v="farm" />
		<tag k="ssr:stedsnr" v="329497" />
	</node>
	<node id="-263843" lat="60.5073027757" lon="9.29836388878">
		<tag k="historic" v="shieling" />
		<tag k="name" v="Rakketjern" />
		<tag k="place" v="locality" />
		<tag k="ssr:stedsnr" v="329085" />
	</node>
	<node id="-263839" lat="60.5641888894" lon="9.00647499164">
		<tag k="name" v="Klypet" />
		<tag k="place" v="farm" />
		<tag k="ssr:stedsnr" v="328955" />
	</node>
	<node id="-263838" lat="60.5177194443" lon="8.94610555195">
		<tag k="historic" v="shieling" />
		<tag k="name" v="Brennskogtjernan" />
		<tag k="place" v="locality" />
		<tag k="ssr:stedsnr" v="328799" />
	</node>
	<node id="-263837" lat="60.6186611141" lon="9.06736666018">
		<tag k="name" v="Brenno" />
		<tag k="place" v="farm" />
		<tag k="ssr:stedsnr" v="328773" />
	</node>
	<node id="-263836" lat="60.6136861126" lon="9.0695277722">
		<tag k="name" v="Søre Brenno" />
		<tag k="place" v="farm" />
		<tag k="ssr:stedsnr" v="328770" />
	</node>
	<node id="-263835" lat="60.4693305569" lon="9.23305832858">
		<tag k="alt_name" v="Nordre Sevre" />
		<tag k="name" v="Nørdre Sevre" />
		<tag k="place" v="farm" />
		<tag k="ssr:stedsnr" v="328761" />
	</node>
	<node id="-263833" lat="60.6552388925" lon="9.14668888482">
		<tag k="historic" v="shieling" />
		<tag k="name" v="Dokkmøne" />
		<tag k="place" v="locality" />
		<tag k="ssr:stedsnr" v="328442" />
	</node>
	<node id="-263830" lat="60.561508337" lon="9.08968888451">
		<tag k="leisure" v="pitch" />
		<tag k="name" v="Storetoppen" />
		<tag k="ssr:stedsnr" v="328081" />
	</node>
	<node id="-263820" lat="60.5568694487" lon="9.31974443823">
		<tag k="historic" v="shieling" />
		<tag k="name" v="Båtstjernlie" />
		<tag k="place" v="locality" />
		<tag k="ssr:stedsnr" v="310851" />
	</node>
	<node id="-263816" lat="60.57388056" lon="9.21967222946">
		<tag k="name" v="Slåttelien" />
		<tag k="place" v="locality" />
		<tag k="ssr:stedsnr" v="310830" />
	</node>
	<node id="-263808" lat="60.5998805529" lon="9.28684443787">
		<tag k="historic" v="shieling" />
		<tag k="name" v="Lyseren" />
		<tag k="place" v="locality" />
		<tag k="ssr:stedsnr" v="310670" />
	</node>
	<node id="-263807" lat="60.5179916648" lon="9.09565833408">
		<tag k="name" v="Bakkeset" />
		<tag k="place" v="isolated_dwelling" />
		<tag k="ssr:stedsnr" v="310608" />
	</node>
	<node id="-263805" lat="60.560733611" lon="9.10836949227">
		<tag k="fixme" v="consider place=hamlet" />
		<tag k="name" v="Roen" />
		<tag k="place" v="farm" />
		<tag k="ssr:stedsnr" v="310581" />
	</node>
	<node id="-263804" lat="60.5418055594" lon="9.19207778253">
		<tag k="name" v="Halland" />
		<tag k="place" v="isolated_dwelling" />
		<tag k="ssr:stedsnr" v="310580" />
	</node>
	<node id="-263803" lat="60.5129472229" lon="9.14535832695">
		<tag k="name" v="Vardan" />
		<tag k="place" v="locality" />
		<tag k="ssr:stedsnr" v="310540" />
	</node>
	<node id="-263802" lat="60.5159935936" lon="9.13700941065">
		<tag k="fixme" v="consider place=hamlet" />
		<tag k="name" v="Påverud" />
		<tag k="place" v="farm" />
		<tag k="ssr:stedsnr" v="310538" />
	</node>
	<node id="-263798" lat="60.498127775" lon="9.0519999964">
		<tag k="historic" v="shieling" />
		<tag k="name" v="Heimlie" />
		<tag k="place" v="locality" />
		<tag k="ssr:stedsnr" v="310506" />
	</node>
	<node id="-263796" lat="60.6046083321" lon="9.154938893">
		<tag k="name" v="Todalsdammen" />
		<tag k="place" v="isolated_dwelling" />
		<tag k="ssr:stedsnr" v="310481" />
	</node>
	<node id="-263792" lat="60.5724777791" lon="9.00944166329">
		<tag k="name" v="Øvre Sandanbråten" />
		<tag k="place" v="isolated_dwelling" />
		<tag k="ssr:stedsnr" v="310449" />
	</node>
	<node id="-263791" lat="60.5732583308" lon="9.02849722999">
		<tag k="name" v="Medås" />
		<tag k="place" v="farm" />
		<tag k="ssr:stedsnr" v="310448" />
	</node>
	<node id="-263782" lat="60.5586277744" lon="9.04373055586">
		<tag k="name" v="Vestheim" />
		<tag k="place" v="farm" />
		<tag k="ssr:stedsnr" v="310396" />
	</node>
	<node id="-263781" lat="60.5643138886" lon="9.0631638902">
		<tag k="name" v="Brattli" />
		<tag k="place" v="farm" />
		<tag k="ssr:stedsnr" v="310391" />
	</node>
	<node id="-263776" lat="60.5388861151" lon="8.82169999527">
		<tag k="name" v="Fagerhøy Fjellstue" />
		<tag k="ssr:stedsnr" v="310205" />
		<tag k="tourism" v="hotel" />
	</node>
	<node id="-263773" lat="60.4785" lon="9.22150000447">
		<tag k="name" v="Geiterygg" />
		<tag k="place" v="farm" />
		<tag k="ssr:stedsnr" v="309373" />
	</node>
	<node id="-263768" lat="60.4984555566" lon="9.1674833335">
		<tag k="alt_name" v="Nordre Nordhagen" />
		<tag k="name" v="Nørdre Nordhagen" />
		<tag k="place" v="farm" />
		<tag k="ssr:stedsnr" v="309318" />
	</node>
	<node id="-263767" lat="60.4904055518" lon="8.88582499484">
		<tag k="name" v="Liaset" />
		<tag k="place" v="hamlet" />
		<tag k="ssr:stedsnr" v="309290" />
	</node>
	<node id="-263766" lat="60.4863249968" lon="8.81767499562">
		<tag k="name" v="Buvassbrenna" />
		<tag k="place" v="isolated_dwelling" />
		<tag k="ssr:stedsnr" v="309092" />
	</node>
	<node id="-263765" lat="60.4847472267" lon="9.22975834044">
		<tag k="name" v="Martinsbråten" />
		<tag k="place" v="farm" />
		<tag k="ssr:stedsnr" v="208896" />
	</node>
	<node id="-263763" lat="60.5663749978" lon="9.01302500727">
		<tag k="name" v="Stupa" />
		<tag k="place" v="farm" />
		<tag k="ssr:stedsnr" v="207953" />
	</node>
	<node id="-263759" lat="60.4640222259" lon="9.17567222342">
		<tag k="historic" v="shieling" />
		<tag k="name" v="Skriustølen" />
		<tag k="place" v="locality" />
		<tag k="ssr:stedsnr" v="207703" />
	</node>
	<node id="-263758" lat="60.4671305552" lon="9.19470832502">
		<tag k="name" v="Nørdre Mjølid" />
		<tag k="place" v="farm" />
		<tag k="ssr:stedsnr" v="207699" />
	</node>
	<node id="-263755" lat="60.5726666658" lon="9.03092500408">
		<tag k="name" v="Renslebråten" />
		<tag k="place" v="farm" />
		<tag k="ssr:stedsnr" v="207654" />
	</node>
	<node id="-263754" lat="60.5650083357" lon="9.02761666372">
		<tag k="amenity" v="school" />
		<tag k="name" v="Rukkedalen skole" />
		<tag k="ssr:stedsnr" v="207653" />
	</node>
	<node id="-263753" lat="60.5692416708" lon="9.0495361023">
		<tag k="name" v="Sjugurdjordet" />
		<tag k="place" v="farm" />
		<tag k="ssr:stedsnr" v="207625" />
	</node>
	<node id="-263752" lat="60.57265278" lon="9.05159445337">
		<tag k="name" v="Træo" />
		<tag k="place" v="farm" />
		<tag k="ssr:stedsnr" v="207621" />
	</node>
	<node id="-263745" lat="60.6539138863" lon="9.33902777551">
		<tag k="historic" v="shieling" />
		<tag k="name" v="Fremre Trytehølet" />
		<tag k="place" v="locality" />
		<tag k="ssr:stedsnr" v="207284" />
	</node>
	<node id="-263725" lat="60.554061107" lon="9.26227777528">
		<tag k="historic" v="shieling" />
		<tag k="name" v="Mortetjernhaugen" />
		<tag k="place" v="locality" />
		<tag k="ssr:stedsnr" v="189829" />
	</node>
	<node id="-263724" lat="60.5680361144" lon="9.26863054896">
		<tag k="historic" v="shieling" />
		<tag k="name" v="Kvitevasslie" />
		<tag k="place" v="locality" />
		<tag k="ssr:stedsnr" v="189816" />
	</node>
	<node id="-263715" lat="60.6471083344" lon="9.30361389373">
		<tag k="name" v="Bjørnalie" />
		<tag k="place" v="hamlet" />
		<tag k="ssr:stedsnr" v="189605" />
	</node>
	<node id="-263712" lat="60.5161055522" lon="9.18433055117">
		<tag k="name" v="Li" />
		<tag k="place" v="farm" />
		<tag k="ssr:stedsnr" v="189568" />
	</node>
	<node id="-263710" lat="60.5576583372" lon="9.1452499965">
		<tag k="name" v="Grønna" />
		<tag k="place" v="farm" />
		<tag k="ssr:stedsnr" v="189546" />
	</node>
	<node id="-263704" lat="60.500602778" lon="9.20038055164">
		<tag k="name" v="Skaret" />
		<tag k="place" v="farm" />
		<tag k="ssr:stedsnr" v="189482" />
	</node>
	<node id="-263703" lat="60.6283749978" lon="9.07195555751">
		<tag k="alt_name" v="Bråten" />
		<tag k="name" v="Nedre Bråten" />
		<tag k="place" v="farm" />
		<tag k="ssr:stedsnr" v="189458" />
	</node>
	<node id="-263698" lat="60.6075277816" lon="9.07663611448">
		<tag k="name" v="Skogen" />
		<tag k="place" v="farm" />
		<tag k="ssr:stedsnr" v="189423" />
	</node>
	<node id="-263697" lat="60.5745111711" lon="9.10191802502">
		<tag k="name" v="Deveggemyre" />
		<tag k="old_name" v="Myri;Myre" />
		<tag k="place" v="farm" />
		<tag k="ssr:stedsnr" v="189406" />
	</node>
	<node id="-263696" lat="60.5586944478" lon="8.96317777363">
		<tag k="name" v="Fusserud" />
		<tag k="place" v="farm" />
		<tag k="ssr:stedsnr" v="189380" />
	</node>
	<node id="-263695" lat="60.5529305519" lon="9.02771389073">
		<tag k="name" v="Lien" />
		<tag k="place" v="farm" />
		<tag k="ssr:stedsnr" v="189369" />
	</node>
	<node id="-263694" lat="60.5656194472" lon="8.92515833003">
		<tag k="name" v="Nybue" />
		<tag k="place" v="isolated_dwelling" />
		<tag k="ssr:stedsnr" v="189357" />
	</node>
	<node id="-263693" lat="60.5690482544" lon="9.09227548931">
		<tag k="fixme" v="consider place=hamlet" />
		<tag k="name" v="Høva" />
		<tag k="place" v="farm" />
		<tag k="ssr:stedsnr" v="189349" />
	</node>
	<node id="-263688" lat="60.4748749977" lon="9.23015000538">
		<tag k="name" v="Kleven" />
		<tag k="place" v="farm" />
		<tag k="ssr:stedsnr" v="188385" />
	</node>
	<node id="-263686" lat="60.4213611107" lon="9.15675000389">
		<tag k="historic" v="shieling" />
		<tag k="name" v="Nørdre Buhovd" />
		<tag k="place" v="locality" />
		<tag k="ssr:stedsnr" v="188363" />
	</node>
	<node id="-263681" lat="60.4579750016" lon="9.20610000714">
		<tag k="name" v="Juvhaugen" />
		<tag k="place" v="farm" />
		<tag k="ssr:stedsnr" v="188321" />
	</node>
	<node id="-263679" lat="60.4990750005" lon="9.09037500628">
		<tag k="historic" v="shieling" />
		<tag k="name" v="Liaberg" />
		<tag k="place" v="locality" />
		<tag k="ssr:stedsnr" v="188276" />
	</node>
	<node id="-263678" lat="60.4908527793" lon="9.03579721925">
		<tag k="historic" v="shieling" />
		<tag k="name" v="Smylilie" />
		<tag k="place" v="locality" />
		<tag k="ssr:stedsnr" v="188274" />
	</node>
	<node id="-263676" lat="60.4865305523" lon="9.18269999898">
		<tag k="name" v="Hankenhus" />
		<tag k="place" v="farm" />
		<tag k="ssr:stedsnr" v="187254" />
	</node>
	<node id="-263675" lat="60.5934305578" lon="8.854972229">
		<tag k="historic" v="shieling" />
		<tag k="name" v="Buglebjørk" />
		<tag k="place" v="locality" />
		<tag k="ssr:stedsnr" v="180432" />
	</node>
	<node id="-263674" lat="60.4354083374" lon="9.10695277356">
		<tag k="name" v="Pederbu" />
		<tag k="place" v="isolated_dwelling" />
		<tag k="ssr:stedsnr" v="172456" />
	</node>
	<node id="-263673" lat="60.5255305582" lon="9.02903888367">
		<tag k="name" v="Tverrlie" />
		<tag k="place" v="neighbourhood" />
		<tag k="ssr:stedsnr" v="163350" />
	</node>
	<node id="-263672" lat="60.6259638909" lon="9.11914722912">
		<tag k="name" v="Lysverkhytta" />
		<tag k="place" v="isolated_dwelling" />
		<tag k="ssr:stedsnr" v="147440" />
	</node>
	<node id="-263666" lat="60.6314305599" lon="9.11232776906">
		<tag k="historic" v="shieling" />
		<tag k="name" v="Røyrpipetjern" />
		<tag k="place" v="locality" />
		<tag k="ssr:stedsnr" v="146433" />
	</node>
	<node id="-263665" lat="60.5735138885" lon="9.228744452">
		<tag k="historic" v="shieling" />
		<tag k="name" v="Tabor" />
		<tag k="place" v="locality" />
		<tag k="ssr:stedsnr" v="146417" />
	</node>
	<node id="-263664" lat="60.5433722232" lon="9.14658333548">
		<tag k="name" v="Hansamoen" />
		<tag k="place" v="farm" />
		<tag k="ssr:stedsnr" v="146180" />
	</node>
	<node id="-263663" lat="60.4855750013" lon="9.19844166895">
		<tag k="name" v="Fjordblink" />
		<tag k="place" v="isolated_dwelling" />
		<tag k="ssr:stedsnr" v="146128" />
	</node>
	<node id="-263662" lat="60.4855777786" lon="9.19867500909">
		<tag k="name" v="Nedre Bakko" />
		<tag k="place" v="farm" />
		<tag k="ssr:stedsnr" v="146127" />
	</node>
	<node id="-263659" lat="60.4869638905" lon="9.25408333345">
		<tag k="historic" v="shieling" />
		<tag k="name" v="Veslesetran" />
		<tag k="place" v="locality" />
		<tag k="ssr:stedsnr" v="145942" />
	</node>
	<node id="-263656" lat="60.6459277803" lon="9.28008611744">
		<tag k="name" v="Åsgrende" />
		<tag k="place" v="neighbourhood" />
		<tag k="ssr:stedsnr" v="145897" />
	</node>
	<node id="-263653" lat="60.4874444482" lon="9.19135554844">
		<tag k="fixme" v="consider place=hamlet" />
		<tag k="name" v="Bromma" />
		<tag k="place" v="village" />
		<tag k="ssr:stedsnr" v="145026" />
	</node>
	<node id="-263652" lat="60.5434305583" lon="9.24201388023">
		<tag k="name" v="Granlie" />
		<tag k="place" v="isolated_dwelling" />
		<tag k="ssr:stedsnr" v="128862" />
	</node>
	<node id="-263647" lat="60.5193527794" lon="9.3110305607">
		<tag k="historic" v="shieling" />
		<tag k="name" v="Bergsbødalen" />
		<tag k="place" v="locality" />
		<tag k="ssr:stedsnr" v="128760" />
	</node>
	<node id="-263646" lat="60.6741972249" lon="9.24486110496">
		<tag k="historic" v="shieling" />
		<tag k="name" v="Nystølen" />
		<tag k="place" v="locality" />
		<tag k="ssr:stedsnr" v="128671" />
	</node>
	<node id="-263645" lat="60.5209027795" lon="9.15841944858">
		<tag k="name" v="Bø" />
		<tag k="place" v="farm" />
		<tag k="ssr:stedsnr" v="128588" />
	</node>
	<node id="-263644" lat="60.5222444401" lon="9.14146666691">
		<tag k="name" v="Ankerbråten" />
		<tag k="place" v="isolated_dwelling" />
		<tag k="ssr:stedsnr" v="128587" />
	</node>
	<node id="-263642" lat="60.5259222253" lon="9.18710000774">
		<tag k="name" v="Nørdre Li" />
		<tag k="place" v="farm" />
		<tag k="ssr:stedsnr" v="128580" />
	</node>
	<node id="-263641" lat="60.5490277803" lon="9.16240277877">
		<tag k="name" v="Åsen" />
		<tag k="place" v="farm" />
		<tag k="ssr:stedsnr" v="128578" />
	</node>
	<node id="-263640" lat="60.5498277785" lon="8.86191111837">
		<tag k="historic" v="shieling" />
		<tag k="name" v="Nystølen" />
		<tag k="place" v="locality" />
		<tag k="ssr:stedsnr" v="128572" />
	</node>
	<node id="-263639" lat="60.5548777793" lon="9.1148222198">
		<tag k="name" v="Olsenbråten" />
		<tag k="place" v="farm" />
		<tag k="ssr:stedsnr" v="128568" />
	</node>
	<node id="-263638" lat="60.5589472548" lon="9.13710180726">
		<tag k="fixme" v="consider place=hamlet" />
		<tag k="name" v="Kvarteig" />
		<tag k="place" v="farm" />
		<tag k="ssr:stedsnr" v="128567" />
	</node>
	<node id="-263637" lat="60.5392277795" lon="9.15989167169">
		<tag k="name" v="Blingsmoen" />
		<tag k="place" v="farm" />
		<tag k="ssr:stedsnr" v="128563" />
	</node>
	<node id="-263633" lat="60.5374805588" lon="8.92899443706">
		<tag k="name" v="Velta" />
		<tag k="place" v="farm" />
		<tag k="ssr:stedsnr" v="128553" />
	</node>
	<node id="-263632" lat="60.536744445" lon="8.92739166968">
		<tag k="fixme" v="multiple name tags, choose one and add the other to alt_name" />
		<tag k="loc_name" v="Slettumplassen" />
		<tag k="name" v="Slettom;Slettumplass" />
		<tag k="old_name" v="Slettumpladsen" />
		<tag k="place" v="farm" />
		<tag k="ssr:stedsnr" v="128552" />
	</node>
	<node id="-263630" lat="60.5019194459" lon="9.13737221955">
		<tag k="name" v="Kleppebråten" />
		<tag k="place" v="isolated_dwelling" />
		<tag k="ssr:stedsnr" v="128496" />
	</node>
	<node id="-263622" lat="60.6175472227" lon="9.14352776919">
		<tag k="historic" v="shieling" />
		<tag k="name" v="Fingarvollen" />
		<tag k="place" v="locality" />
		<tag k="ssr:stedsnr" v="128423" />
	</node>
	<node id="-263621" lat="60.6054833367" lon="8.98441945006">
		<tag k="historic" v="shieling" />
		<tag k="name" v="Melestølan" />
		<tag k="place" v="locality" />
		<tag k="ssr:stedsnr" v="128421" />
	</node>
	<node id="-263620" lat="60.5843277777" lon="9.08843056349">
		<tag k="name" v="Melen" />
		<tag k="place" v="isolated_dwelling" />
		<tag k="ssr:stedsnr" v="128392" />
	</node>
	<node id="-263619" lat="60.5833388927" lon="8.93668611548">
		<tag k="historic" v="shieling" />
		<tag k="name" v="Feten" />
		<tag k="place" v="locality" />
		<tag k="ssr:stedsnr" v="128388" />
	</node>
	<node id="-263617" lat="60.5583444411" lon="9.0620944421">
		<tag k="name" v="Tamburplassen" />
		<tag k="place" v="farm" />
		<tag k="ssr:stedsnr" v="128372" />
	</node>
	<node id="-263616" lat="60.5599638849" lon="9.01539166713">
		<tag k="name" v="Granli" />
		<tag k="place" v="farm" />
		<tag k="ssr:stedsnr" v="128363" />
	</node>
	<node id="-263610" lat="60.4422777811" lon="9.10317499387">
		<tag k="historic" v="shieling" />
		<tag k="name" v="Gørrbu" />
		<tag k="place" v="locality" />
		<tag k="ssr:stedsnr" v="127340" />
	</node>
	<node id="-263608" lat="60.4941416627" lon="9.05020833453">
		<tag k="historic" v="shieling" />
		<tag k="name" v="Lisleset" />
		<tag k="place" v="locality" />
		<tag k="ssr:stedsnr" v="127278" />
	</node>
	<node id="-263606" lat="60.4709722241" lon="9.21206666354">
		<tag k="name" v="Brøto" />
		<tag k="place" v="farm" />
		<tag k="ssr:stedsnr" v="126269" />
	</node>
	<node id="-263603" lat="60.5802888893" lon="9.11358056353">
		<tag k="name" v="Jordet" />
		<tag k="place" v="farm" />
		<tag k="ssr:stedsnr" v="118096" />
	</node>
	<node id="-263600" lat="60.4685160998" lon="9.00726468086">
		<tag k="name" v="Brynhildstølen" />
		<tag k="place" v="hamlet" />
		<tag k="ssr:stedsnr" v="101289" />
	</node>
	<node id="-263596" lat="60.4901194469" lon="9.06999166315">
		<tag k="name" v="Sisselhaugen" />
		<tag k="place" v="isolated_dwelling" />
		<tag k="ssr:stedsnr" v="86687" />
	</node>
	<node id="-263595" lat="60.477969448" lon="8.96248333576">
		<tag k="name" v="Saupeset sameie" />
		<tag k="place" v="locality" />
		<tag k="ssr:stedsnr" v="86640" />
	</node>
	<node id="-263591" lat="60.5250333307" lon="9.18669445309">
		<tag k="amenity" v="school" />
		<tag k="name" v="Li skole" />
		<tag k="ssr:stedsnr" v="86198" />
	</node>
	<node id="-263581" lat="60.5837138858" lon="9.09956389365">
		<tag k="name" v="Danmark" />
		<tag k="place" v="farm" />
		<tag k="ssr:stedsnr" v="86079" />
	</node>
	<node id="-263578" lat="60.4809277814" lon="9.18416944269">
		<tag k="name" v="Asleplassen" />
		<tag k="place" v="locality" />
		<tag k="ssr:stedsnr" v="85689" />
	</node>
	<node id="-263569" lat="60.6030277787" lon="9.27595277454">
		<tag k="historic" v="shieling" />
		<tag k="name" v="Syningset" />
		<tag k="place" v="locality" />
		<tag k="ssr:stedsnr" v="68679" />
	</node>
	<node id="-263568" lat="60.5498999989" lon="9.13939722677">
		<tag k="name" v="Husemoen" />
		<tag k="place" v="farm" />
		<tag k="ssr:stedsnr" v="68599" />
	</node>
	<node id="-263564" lat="60.6086157897" lon="9.06573461946">
		<tag k="fixme" v="consider place=hamlet" />
		<tag k="name" v="Målarmoen" />
		<tag k="place" v="farm" />
		<tag k="ssr:stedsnr" v="68461" />
	</node>
	<node id="-263563" lat="60.5948638893" lon="9.17009999757">
		<tag k="historic" v="shieling" />
		<tag k="name" v="Hølskogen" />
		<tag k="place" v="locality" />
		<tag k="ssr:stedsnr" v="68441" />
	</node>
	<node id="-263561" lat="60.5911296427" lon="9.09286428643">
		<tag k="fixme" v="consider place=hamlet" />
		<tag k="name" v="Rud" />
		<tag k="place" v="farm" />
		<tag k="ssr:stedsnr" v="68439" />
	</node>
	<node id="-263557" lat="60.6554111095" lon="9.34146111268">
		<tag k="historic" v="shieling" />
		<tag k="name" v="Trytehølstølan" />
		<tag k="place" v="locality" />
		<tag k="ssr:stedsnr" v="67721" />
	</node>
	<node id="-263555" lat="60.562825407" lon="9.11156449039">
		<tag k="name" v="Hagaled" />
		<tag k="place" v="farm" />
		<tag k="ssr:stedsnr" v="67397" />
	</node>
	<node id="-263554" lat="60.4119805595" lon="9.16510277223">
		<tag k="historic" v="shieling" />
		<tag k="name" v="Søre Buhovd" />
		<tag k="place" v="locality" />
		<tag k="ssr:stedsnr" v="67378" />
	</node>
	<node id="-263553" lat="60.5171388927" lon="9.15998333806">
		<tag k="name" v="Årtun" />
		<tag k="place" v="farm" />
		<tag k="ssr:stedsnr" v="67626" />
	</node>
	<node id="-263542" lat="60.4754499965" lon="9.1897499994">
		<tag k="name" v="Høllo" />
		<tag k="place" v="farm" />
		<tag k="ssr:stedsnr" v="66288" />
	</node>
	<node id="-263541" lat="60.4919361095" lon="9.20047500489">
		<tag k="name" v="Lauvviken" />
		<tag k="place" v="farm" />
		<tag k="ssr:stedsnr" v="66281" />
	</node>
	<node id="-263538" lat="60.6444735891" lon="9.0975338522">
		<tag k="name" v="Kastet" />
		<tag k="place" v="farm" />
		<tag k="ssr:stedsnr" v="55443" />
	</node>
	<node id="-263535" lat="60.457197223" lon="9.26396944938">
		<tag k="name" v="Kleivi" />
		<tag k="place" v="locality" />
		<tag k="ssr:stedsnr" v="41587" />
	</node>
	<node id="-263532" lat="60.6279194432" lon="9.1596750043">
		<tag k="name" v="Bjørhushytta" />
		<tag k="place" v="locality" />
		<tag k="ssr:stedsnr" v="25796" />
	</node>
	<node id="-263531" lat="60.572519442" lon="9.02353888281">
		<tag k="name" v="Nybråten" />
		<tag k="place" v="farm" />
		<tag k="ssr:stedsnr" v="25964" />
	</node>
	<node id="-263523" lat="60.5184722229" lon="9.15927500907">
		<tag k="name" v="Brunsvoll" />
		<tag k="place" v="farm" />
		<tag k="ssr:stedsnr" v="25144" />
	</node>
	<node id="-263516" lat="60.5290000008" lon="9.24851944854">
		<tag k="historic" v="shieling" />
		<tag k="name" v="Heimstølan" />
		<tag k="place" v="locality" />
		<tag k="ssr:stedsnr" v="7749" />
	</node>
	<node id="-263510" lat="60.5872805539" lon="9.31250554887">
		<tag k="historic" v="shieling" />
		<tag k="name" v="Tverrlie" />
		<tag k="place" v="locality" />
		<tag k="ssr:stedsnr" v="7630" />
	</node>
	<node id="-263505" lat="60.5444166646" lon="9.14338611959">
		<tag k="name" v="Bringerud" />
		<tag k="place" v="farm" />
		<tag k="ssr:stedsnr" v="7582" />
	</node>
	<node id="-263500" lat="60.5476999971" lon="9.19599443973">
		<tag k="name" v="Ankerbråten" />
		<tag k="place" v="isolated_dwelling" />
		<tag k="ssr:stedsnr" v="7551" />
	</node>
	<node id="-263499" lat="60.5102472254" lon="9.13336388822">
		<tag k="name" v="Sjugurdsbråten" />
		<tag k="place" v="farm" />
		<tag k="ssr:stedsnr" v="7511" />
	</node>
	<node id="-263498" lat="60.5065972229" lon="9.19533710931">
		<tag k="fixme" v="consider place=hamlet" />
		<tag k="name" v="Benterud" />
		<tag k="place" v="farm" />
		<tag k="ssr:stedsnr" v="7502" />
	</node>
	<node id="-263495" lat="60.6258888885" lon="8.86487499523">
		<tag k="historic" v="shieling" />
		<tag k="name" v="Billestølen" />
		<tag k="place" v="locality" />
		<tag k="ssr:stedsnr" v="7478" />
	</node>
	<node id="-263494" lat="60.6376611128" lon="8.97467778029">
		<tag k="name" v="Nyhytta" />
		<tag k="place" v="isolated_dwelling" />
		<tag k="ssr:stedsnr" v="7464" />
	</node>
	<node id="-263493" lat="60.6217916664" lon="8.90368611287">
		<tag k="historic" v="shieling" />
		<tag k="name" v="Sollie" />
		<tag k="place" v="locality" />
		<tag k="ssr:stedsnr" v="7442" />
	</node>
	<node id="-263492" lat="60.6222444462" lon="9.03246944475">
		<tag k="name" v="Brabantstølen" />
		<tag k="place" v="locality" />
		<tag k="ssr:stedsnr" v="7437" />
	</node>
	<node id="-263491" lat="60.612691669" lon="9.07560556021">
		<tag k="name" v="Brennelien" />
		<tag k="place" v="farm" />
		<tag k="ssr:stedsnr" v="7433" />
	</node>
	<node id="-263490" lat="60.5572583375" lon="9.02748889717">
		<tag k="name" v="Øvre Vissebråten" />
		<tag k="place" v="farm" />
		<tag k="ssr:stedsnr" v="7391" />
	</node>
	<node id="-263488" lat="60.5612777756" lon="9.02056666892">
		<tag k="name" v="Brusletten" />
		<tag k="place" v="farm" />
		<tag k="ssr:stedsnr" v="7379" />
	</node>
	<node id="-263483" lat="60.5923277772" lon="8.83936945093">
		<tag k="historic" v="shieling" />
		<tag k="name" v="Buglebjørk" />
		<tag k="place" v="locality" />
		<tag k="ssr:stedsnr" v="7049" />
	</node>
	<node id="-263478" lat="60.4473361116" lon="9.19692500815">
		<tag k="historic" v="shieling" />
		<tag k="name" v="Svangtjernseter" />
		<tag k="place" v="locality" />
		<tag k="ssr:stedsnr" v="6349" />
	</node>
	<node id="-263477" lat="60.4447694471" lon="9.14595833538">
		<tag k="historic" v="shieling" />
		<tag k="name" v="Myte" />
		<tag k="place" v="locality" />
		<tag k="ssr:stedsnr" v="6345" />
	</node>
	<node id="-263475" lat="60.456377777" lon="9.19703611971">
		<tag k="name" v="Heiehaugen" />
		<tag k="place" v="farm" />
		<tag k="ssr:stedsnr" v="6319" />
	</node>
	<node id="-263471" lat="60.4949361094" lon="9.16594165802">
		<tag k="name" v="Bergo" />
		<tag k="place" v="farm" />
		<tag k="ssr:stedsnr" v="6293" />
	</node>
	<node id="-263470" lat="60.6537222259" lon="9.19375000589">
		<tag k="name" v="Slåtta" />
		<tag k="place" v="locality" />
		<tag k="ssr:stedsnr" v="6292" />
	</node>
	<node id="-263469" lat="60.653548942" lon="9.04639726453">
		<tag k="fixme" v="consider place=hamlet" />
		<tag k="name" v="Svenkerud" />
		<tag k="place" v="farm" />
		<tag k="ssr:stedsnr" v="6283" />
	</node>
	<node id="-263468" lat="60.6530333326" lon="8.92715000551">
		<tag k="historic" v="shieling" />
		<tag k="name" v="Flatdalsstølen" />
		<tag k="place" v="locality" />
		<tag k="ssr:stedsnr" v="6282" />
	</node>
	<node id="-263461" lat="60.5006138859" lon="8.81977777953">
		<tag k="historic" v="shieling" />
		<tag k="name" v="Lyseren" />
		<tag k="place" v="locality" />
		<tag k="ssr:stedsnr" v="6050" />
	</node>
	<node id="-263460" lat="60.5730027782" lon="8.73818333513">
		<tag k="historic" v="shieling" />
		<tag k="name" v="Gamle Fjellset" />
		<tag k="place" v="locality" />
		<tag k="ssr:stedsnr" v="6034" />
	</node>
	<node id="-263458" lat="60.4634728471" lon="9.25349607099">
		<tag k="name" v="Nørdre Rauk" />
		<tag k="place" v="farm" />
		<tag k="ssr:stedsnr" v="5346" />
	</node>
	<node id="-263456" lat="60.4829749988" lon="9.17734999394">
		<tag k="name" v="Brenno" />
		<tag k="place" v="farm" />
		<tag k="ssr:stedsnr" v="5266" />
	</node>
	<node id="-263455" lat="60.4877601591" lon="9.18709773345">
		<tag k="name" v="Sverig" />
		<tag k="place" v="farm" />
		<tag k="ssr:stedsnr" v="5265" />
	</node>
	<node id="-263454" lat="60.5666006649" lon="9.09253219013">
		<tag k="fixme" v="consider place=hamlet" />
		<tag k="name" v="Nes prestegård" />
		<tag k="place" v="farm" />
		<tag k="ssr:stedsnr" v="1072310" />
	</node>
	<node id="-263442" lat="60.6070583301" lon="9.33213054989">
		<tag k="historic" v="shieling" />
		<tag k="name" v="Brenthøl" />
		<tag k="place" v="locality" />
		<tag k="ssr:stedsnr" v="917656" />
	</node>
	<node id="-263438" lat="60.6655305581" lon="9.30032777015">
		<tag k="name" v="Buvasstølan" />
		<tag k="place" v="hamlet" />
		<tag k="ssr:stedsnr" v="917721" />
	</node>
	<node id="-263437" lat="60.6452194452" lon="9.24114444296">
		<tag k="historic" v="shieling" />
		<tag k="name" v="Langevasstølan" />
		<tag k="place" v="locality" />
		<tag k="ssr:stedsnr" v="917704" />
	</node>
	<node id="-263435" lat="60.5392277774" lon="9.14789166699">
		<tag k="alt_name" v="Rolykkja" />
		<tag k="name" v="Roløkken" />
		<tag k="place" v="farm" />
		<tag k="ssr:stedsnr" v="917556" />
	</node>
	<node id="-263430" lat="60.6187083291" lon="9.05263611345">
		<tag k="name" v="Tyribakken" />
		<tag k="place" v="farm" />
		<tag k="ssr:stedsnr" v="917424" />
	</node>
	<node id="-263429" lat="60.619105553" lon="9.0102861115">
		<tag k="name" v="Furumohytta" />
		<tag k="place" v="isolated_dwelling" />
		<tag k="ssr:stedsnr" v="917420" />
	</node>
	<node id="-263428" lat="60.5703694471" lon="9.17759722661">
		<tag k="name" v="Toengan" />
		<tag k="place" v="farm" />
		<tag k="ssr:stedsnr" v="917379" />
	</node>
	<node id="-263426" lat="60.5853472265" lon="9.09802778146">
		<tag k="name" v="Fagervik" />
		<tag k="place" v="farm" />
		<tag k="ssr:stedsnr" v="917375" />
	</node>
	<node id="-263424" lat="60.5795527774" lon="8.94403056158">
		<tag k="name" v="Gammalvollen" />
		<tag k="place" v="isolated_dwelling" />
		<tag k="ssr:stedsnr" v="917372" />
	</node>
	<node id="-263422" lat="60.5648750015" lon="9.10923888818">
		<tag k="alt_name" v="Jørenmoen" />
		<tag k="name" v="Jørgenmoen" />
		<tag k="place" v="farm" />
		<tag k="ssr:stedsnr" v="917356" />
	</node>
	<node id="-263421" lat="60.5629777768" lon="9.06373888">
		<tag k="name" v="Renslo" />
		<tag k="place" v="farm" />
		<tag k="ssr:stedsnr" v="917353" />
	</node>
	<node id="-263420" lat="60.5185444422" lon="8.80835000364">
		<tag k="name" v="Bruset" />
		<tag k="place" v="hamlet" />
		<tag k="ssr:stedsnr" v="917167" />
	</node>
	<node id="-263411" lat="60.5080888915" lon="9.15608056041">
		<tag k="name" v="Skåterud" />
		<tag k="place" v="locality" />
		<tag k="ssr:stedsnr" v="874866" />
	</node>
	<node id="-263410" lat="60.5016499969" lon="9.11683889101">
		<tag k="historic" v="shieling" />
		<tag k="name" v="Buhovdseter" />
		<tag k="place" v="locality" />
		<tag k="ssr:stedsnr" v="874865" />
	</node>
	<node id="-263409" lat="60.4169972257" lon="9.15438888937">
		<tag k="name" v="Gislerudhytta" />
		<tag k="place" v="isolated_dwelling" />
		<tag k="ssr:stedsnr" v="874656" />
	</node>
	<node id="-263408" lat="60.5694883767" lon="9.04468496332">
		<tag k="fixme" v="consider place=hamlet" />
		<tag k="name" v="Rolfshus" />
		<tag k="place" v="farm" />
		<tag k="ssr:stedsnr" v="874655" />
	</node>
	<node id="-263405" lat="60.5849194454" lon="9.3656138946">
		<tag k="historic" v="shieling" />
		<tag k="name" v="Strøslie" />
		<tag k="place" v="locality" />
		<tag k="ssr:stedsnr" v="857823" />
	</node>
	<node id="-263397" lat="60.5459805587" lon="9.29628332962">
		<tag k="name" v="Krokset" />
		<tag k="place" v="isolated_dwelling" />
		<tag k="ssr:stedsnr" v="856879" />
	</node>
	<node id="-263396" lat="60.545683331" lon="9.27123333573">
		<tag k="historic" v="shieling" />
		<tag k="name" v="Tjernset" />
		<tag k="place" v="locality" />
		<tag k="ssr:stedsnr" v="856875" />
	</node>
	<node id="-263394" lat="60.5562111126" lon="9.25038888652">
		<tag k="historic" v="shieling" />
		<tag k="name" v="Haugan" />
		<tag k="place" v="locality" />
		<tag k="ssr:stedsnr" v="856864" />
	</node>
	<node id="-263393" lat="60.5535972251" lon="9.23539721735">
		<tag k="historic" v="shieling" />
		<tag k="name" v="Nybu" />
		<tag k="place" v="locality" />
		<tag k="ssr:stedsnr" v="856862" />
	</node>
	<node id="-263391" lat="60.5127694449" lon="9.19188610423">
		<tag k="name" v="Søre Li" />
		<tag k="place" v="farm" />
		<tag k="ssr:stedsnr" v="856575" />
	</node>
	<node id="-263390" lat="60.5852277743" lon="9.08722222747">
		<tag k="name" v="Frekeplass" />
		<tag k="place" v="farm" />
		<tag k="ssr:stedsnr" v="856465" />
	</node>
	<node id="-263389" lat="60.5686444421" lon="9.01878889454">
		<tag k="name" v="Solheim" />
		<tag k="place" v="farm" />
		<tag k="ssr:stedsnr" v="856425" />
	</node>
	<node id="-263388" lat="60.5637855498" lon="9.11663416531">
		<tag k="fixme" v="consider place=hamlet" />
		<tag k="name" v="Rødningen" />
		<tag k="place" v="farm" />
		<tag k="ssr:stedsnr" v="856419" />
	</node>
	<node id="-263386" lat="60.4822833317" lon="9.26132500808">
		<tag k="name" v="Finneset" />
		<tag k="place" v="locality" />
		<tag k="ssr:stedsnr" v="856356" />
	</node>
	<node id="-263381" lat="60.488375" lon="9.22222500204">
		<tag k="name" v="Geitsund" />
		<tag k="place" v="farm" />
		<tag k="ssr:stedsnr" v="855303" />
	</node>
	<node id="-263380" lat="60.4921483931" lon="9.17606765271">
		<tag k="fixme" v="consider place=hamlet" />
		<tag k="name" v="Melum" />
		<tag k="place" v="farm" />
		<tag k="ssr:stedsnr" v="842168" />
	</node>
	<node id="-263376" lat="60.5638444471" lon="8.99709722577">
		<tag k="name" v="Moen" />
		<tag k="place" v="farm" />
		<tag k="ssr:stedsnr" v="935973" />
	</node>
	<node id="-263374" lat="60.6482416669" lon="9.04999721703">
		<tag k="name" v="Svenkerud" />
		<tag k="place" v="hamlet" />
		<tag k="ssr:stedsnr" v="935852" />
	</node>
	<node id="-263371" lat="60.581583333" lon="9.08976944546">
		<tag k="name" v="Bankeplassen" />
		<tag k="place" v="isolated_dwelling" />
		<tag k="ssr:stedsnr" v="935190" />
	</node>
	<node id="-263370" lat="60.5464361107" lon="9.14444999528">
		<tag k="name" v="Skåterudmoen" />
		<tag k="place" v="farm" />
		<tag k="ssr:stedsnr" v="935180" />
	</node>
	<node id="-263367" lat="60.5631761524" lon="9.0886320358">
		<tag k="leisure" v="pitch" />
		<tag k="name" v="Storetoppen" />
		<tag k="ssr:stedsnr" v="935060" />
	</node>
	<node id="-263366" lat="60.5467666631" lon="9.14276388149">
		<tag k="name" v="Skåterudmoen" />
		<tag k="place" v="farm" />
		<tag k="ssr:stedsnr" v="935047" />
	</node>
	<node id="-263358" lat="60.6309416642" lon="9.07175556308">
		<tag k="name" v="Øvre Bråten" />
		<tag k="place" v="farm" />
		<tag k="ssr:stedsnr" v="814859" />
	</node>
	<node id="-263357" lat="60.6289499981" lon="9.06319722656">
		<tag k="name" v="Velta" />
		<tag k="place" v="farm" />
		<tag k="ssr:stedsnr" v="814855" />
	</node>
	<node id="-263350" lat="60.617358336" lon="9.19428055747">
		<tag k="name" v="Vardevollen" />
		<tag k="place" v="isolated_dwelling" />
		<tag k="ssr:stedsnr" v="796436" />
	</node>
	<node id="-263347" lat="60.5512749974" lon="8.93585555104">
		<tag k="name" v="Nystølen" />
		<tag k="place" v="locality" />
		<tag k="ssr:stedsnr" v="796405" />
	</node>
	<node id="-263344" lat="60.4760000039" lon="9.25187778557">
		<tag k="name" v="Søre Berg" />
		<tag k="place" v="farm" />
		<tag k="ssr:stedsnr" v="795397" />
	</node>
	<node id="-263338" lat="60.52851111" lon="9.31059167181">
		<tag k="historic" v="shieling" />
		<tag k="name" v="Fjølaset" />
		<tag k="place" v="locality" />
		<tag k="ssr:stedsnr" v="917749" />
	</node>
	<node id="-263335" lat="60.5480666675" lon="9.19789167127">
		<tag k="name" v="Skriu" />
		<tag k="place" v="farm" />
		<tag k="ssr:stedsnr" v="917542" />
	</node>
	<node id="-263333" lat="60.5295333324" lon="8.9190250077">
		<tag k="name" v="Låflate" />
		<tag k="place" v="farm" />
		<tag k="ssr:stedsnr" v="917589" />
	</node>
	<node id="-263332" lat="60.5336444472" lon="9.19202777736">
		<tag k="name" v="Hestedokken" />
		<tag k="place" v="farm" />
		<tag k="ssr:stedsnr" v="917588" />
	</node>
	<node id="-263331" lat="60.5187388855" lon="9.18159444791">
		<tag k="name" v="Haugajordet" />
		<tag k="place" v="farm" />
		<tag k="ssr:stedsnr" v="917587" />
	</node>
	<node id="-263330" lat="60.5170000001" lon="9.17803055703">
		<tag k="name" v="Bentehaugen" />
		<tag k="place" v="farm" />
		<tag k="ssr:stedsnr" v="917583" />
	</node>
	<node id="-263325" lat="60.613733329" lon="9.16598056196">
		<tag k="name" v="Todalen" />
		<tag k="place" v="farm" />
		<tag k="ssr:stedsnr" v="917444" />
	</node>
	<node id="-263319" lat="60.6573416698" lon="9.20302222753">
		<tag k="historic" v="shieling" />
		<tag k="name" v="Nørdre Fjellset" />
		<tag k="place" v="locality" />
		<tag k="ssr:stedsnr" v="917242" />
	</node>
	<node id="-263317" lat="60.5348555579" lon="8.78474165955">
		<tag k="name" v="Ranten" />
		<tag k="ssr:stedsnr" v="917181" />
		<tag k="tourism" v="hotel" />
	</node>
	<node id="-263314" lat="60.4674500016" lon="9.2136333415">
		<tag k="name" v="Skaret" />
		<tag k="place" v="farm" />
		<tag k="ssr:stedsnr" v="916336" />
	</node>
	<node id="-263313" lat="60.4923027773" lon="9.2575500039">
		<tag k="name" v="Nyhytta" />
		<tag k="place" v="isolated_dwelling" />
		<tag k="ssr:stedsnr" v="916329" />
	</node>
	<node id="-263312" lat="60.4570749959" lon="9.1683527788">
		<tag k="name" v="Bratteli" />
		<tag k="place" v="isolated_dwelling" />
		<tag k="ssr:stedsnr" v="916327" />
	</node>
	<node id="-263311" lat="60.4685031628" lon="9.00952822466">
		<tag k="historic" v="shieling" />
		<tag k="name" v="Austre Brynhildstølen" />
		<tag k="place" v="locality" />
		<tag k="ssr:stedsnr" v="916301" />
	</node>
	<node id="-263310" lat="60.4867722187" lon="9.14018889573">
		<tag k="name" v="Bakvendt" />
		<tag k="place" v="locality" />
		<tag k="ssr:stedsnr" v="916281" />
	</node>
	<node id="-263307" lat="60.4920583338" lon="8.7793138833">
		<tag k="historic" v="shieling" />
		<tag k="name" v="Krafselien" />
		<tag k="place" v="locality" />
		<tag k="ssr:stedsnr" v="916034" />
	</node>
	<node id="-263305" lat="60.5624681455" lon="9.11277072442">
		<tag k="fixme" v="consider place=hamlet" />
		<tag k="name" v="Søre Devegge" />
		<tag k="place" v="farm" />
		<tag k="ssr:stedsnr" v="910583" />
	</node>
	<node id="-263304" lat="60.563991664" lon="9.02521388851">
		<tag k="name" v="Haugen" />
		<tag k="place" v="farm" />
		<tag k="ssr:stedsnr" v="753934" />
	</node>
	<node id="-263303" lat="60.5707416692" lon="9.01010000146">
		<tag k="name" v="Nedre Sandanbråten" />
		<tag k="place" v="isolated_dwelling" />
		<tag k="ssr:stedsnr" v="753927" />
	</node>
	<node id="-263298" lat="60.5071111121" lon="9.17348055452">
		<tag k="name" v="Støen" />
		<tag k="place" v="farm" />
		<tag k="ssr:stedsnr" v="735511" />
	</node>
	<node id="-263292" lat="60.468736107" lon="9.26059722657">
		<tag k="name" v="Padderud" />
		<tag k="place" v="locality" />
		<tag k="ssr:stedsnr" v="693914" />
	</node>
	<node id="-263289" lat="60.4845416678" lon="9.19836388715">
		<tag k="name" v="Bakko" />
		<tag k="place" v="locality" />
		<tag k="ssr:stedsnr" v="692721" />
	</node>
	<node id="-263280" lat="60.5290305586" lon="9.17984721345">
		<tag k="name" v="Bråten" />
		<tag k="place" v="farm" />
		<tag k="ssr:stedsnr" v="674619" />
	</node>
	<node id="-263279" lat="60.6472638898" lon="9.04286388703">
		<tag k="name" v="Maribråten" />
		<tag k="place" v="farm" />
		<tag k="ssr:stedsnr" v="674474" />
	</node>
	<node id="-263276" lat="60.5451305535" lon="9.1968916685">
		<tag k="name" v="Espelund" />
		<tag k="place" v="farm" />
		<tag k="ssr:stedsnr" v="674565" />
	</node>
	<node id="-263275" lat="60.5461527822" lon="9.1972972182">
		<tag k="name" v="Berget" />
		<tag k="place" v="farm" />
		<tag k="ssr:stedsnr" v="674564" />
	</node>
	<node id="-263274" lat="60.5117500023" lon="9.16170554676">
		<tag k="name" v="Skreddargarden" />
		<tag k="place" v="farm" />
		<tag k="ssr:stedsnr" v="674527" />
	</node>
	<node id="-263273" lat="60.5119138892" lon="9.17885277288">
		<tag k="name" v="Haugo" />
		<tag k="place" v="farm" />
		<tag k="ssr:stedsnr" v="674525" />
	</node>
	<node id="-263271" lat="60.511711115" lon="9.10193888658">
		<tag k="historic" v="shieling" />
		<tag k="name" v="Bekkeset" />
		<tag k="place" v="locality" />
		<tag k="ssr:stedsnr" v="674518" />
	</node>
	<node id="-263269" lat="60.5028222265" lon="9.17853888932">
		<tag k="name" v="Sundet" />
		<tag k="place" v="farm" />
		<tag k="ssr:stedsnr" v="674510" />
	</node>
	<node id="-263268" lat="60.6560222259" lon="8.9734583337">
		<tag k="historic" v="shieling" />
		<tag k="name" v="Lie" />
		<tag k="place" v="locality" />
		<tag k="ssr:stedsnr" v="674257" />
	</node>
	<node id="-263267" lat="60.5357159963" lon="8.82160715698">
		<tag k="name" v="Myking" />
		<tag k="place" v="neighbourhood" />
		<tag k="ssr:stedsnr" v="674213" />
	</node>
	<node id="-263258" lat="60.5556250043" lon="9.27410833809">
		<tag k="historic" v="shieling" />
		<tag k="name" v="Venelie" />
		<tag k="place" v="locality" />
		<tag k="ssr:stedsnr" v="735840" />
	</node>
	<node id="-263256" lat="60.5760593461" lon="9.32896384945">
		<tag k="historic" v="shieling" />
		<tag k="name" v="Kråkehaugen" />
		<tag k="place" v="locality" />
		<tag k="ssr:stedsnr" v="735822" />
	</node>
	<node id="-263254" lat="60.583297222" lon="9.41069165832">
		<tag k="name" v="Trytetjernvelta" />
		<tag k="place" v="locality" />
		<tag k="ssr:stedsnr" v="735816" />
	</node>
	<node id="-263249" lat="60.520241664" lon="9.27772500584">
		<tag k="historic" v="shieling" />
		<tag k="name" v="Lauvåsen" />
		<tag k="place" v="locality" />
		<tag k="ssr:stedsnr" v="735761" />
	</node>
	<node id="-263246" lat="60.6639444411" lon="9.30252500361">
		<tag k="name" v="Engene fjellstue" />
		<tag k="ssr:stedsnr" v="735722" />
		<tag k="tourism" v="hotel" />
	</node>
	<node id="-263241" lat="60.5290361142" lon="8.91054722181">
		<tag k="name" v="Timelidokken" />
		<tag k="place" v="farm" />
		<tag k="ssr:stedsnr" v="735602" />
	</node>
	<node id="-263240" lat="60.5294416626" lon="8.90115555591">
		<tag k="name" v="Nedrestølen" />
		<tag k="place" v="farm" />
		<tag k="ssr:stedsnr" v="735598" />
	</node>
	<node id="-263239" lat="60.5212972237" lon="9.18838610218">
		<tag k="name" v="Myro" />
		<tag k="place" v="farm" />
		<tag k="ssr:stedsnr" v="735595" />
	</node>
	<node id="-263238" lat="60.5168569277" lon="9.1586756792">
		<tag k="fixme" v="consider place=hamlet" />
		<tag k="name" v="Brunsvoll" />
		<tag k="place" v="farm" />
		<tag k="ssr:stedsnr" v="735589" />
	</node>
	<node id="-263236" lat="60.5470972257" lon="8.94651110723">
		<tag k="name" v="Sjugurdsrudplassen" />
		<tag k="place" v="farm" />
		<tag k="ssr:stedsnr" v="735571" />
	</node>
	<node id="-263227" lat="60.574202782" lon="8.94958610912">
		<tag k="name" v="Slåtta" />
		<tag k="place" v="isolated_dwelling" />
		<tag k="ssr:stedsnr" v="735424" />
	</node>
	<node id="-263221" lat="60.6410758254" lon="9.02761095613">
		<tag k="fixme" v="consider place=hamlet" />
		<tag k="name" v="Garnås" />
		<tag k="place" v="village" />
		<tag k="ssr:stedsnr" v="735273" />
	</node>
	<node id="-263218" lat="60.6617055527" lon="9.04030832712">
		<tag k="name" v="Øyne" />
		<tag k="place" v="farm" />
		<tag k="ssr:stedsnr" v="735253" />
	</node>
	<node id="-263208" lat="60.4691302009" lon="9.19252395767">
		<tag k="fixme" v="consider place=hamlet" />
		<tag k="name" v="Ålton" />
		<tag k="place" v="farm" />
		<tag k="ssr:stedsnr" v="734349" />
	</node>
	<node id="-263207" lat="60.4626583325" lon="9.20072778103">
		<tag k="name" v="Tørrisplassen" />
		<tag k="place" v="farm" />
		<tag k="ssr:stedsnr" v="734348" />
	</node>
	<node id="-263204" lat="60.4747111135" lon="9.17780000281">
		<tag k="name" v="Guteplass" />
		<tag k="place" v="farm" />
		<tag k="ssr:stedsnr" v="734332" />
	</node>
	<node id="-263201" lat="60.4735305588" lon="9.19146666969">
		<tag k="name" v="Teigen" />
		<tag k="place" v="farm" />
		<tag k="ssr:stedsnr" v="632704" />
	</node>
	<node id="-263193" lat="60.5663722245" lon="9.15511111301">
		<tag k="name" v="Paddedokk" />
		<tag k="place" v="isolated_dwelling" />
		<tag k="ssr:stedsnr" v="631204" />
	</node>
	<node id="-263192" lat="60.5620583289" lon="9.13214444807">
		<tag k="name" v="Halsteinplass" />
		<tag k="place" v="farm" />
		<tag k="ssr:stedsnr" v="631067" />
	</node>
	<node id="-263190" lat="60.5551916641" lon="8.78224166239">
		<tag k="alt_name" v="Skårsrudstølen" />
		<tag k="historic" v="shieling" />
		<tag k="name" v="Skålsrudstølen" />
		<tag k="place" v="locality" />
		<tag k="ssr:stedsnr" v="726291" />
	</node>
	<node id="-263187" lat="60.6568305559" lon="9.23077221936">
		<tag k="historic" v="shieling" />
		<tag k="name" v="Fjellstølen" />
		<tag k="place" v="locality" />
		<tag k="ssr:stedsnr" v="614769" />
	</node>
	<node id="-263185" lat="60.5148694402" lon="8.95918611628">
		<tag k="historic" v="shieling" />
		<tag k="name" v="Nystølen" />
		<tag k="place" v="locality" />
		<tag k="ssr:stedsnr" v="613583" />
	</node>
	<node id="-263184" lat="60.5530388899" lon="9.1506250062">
		<tag k="name" v="Nymoen" />
		<tag k="place" v="farm" />
		<tag k="ssr:stedsnr" v="613576" />
	</node>
	<node id="-263183" lat="60.5580940892" lon="9.11641031801">
		<tag k="fixme" v="consider place=hamlet" />
		<tag k="name" v="Haraldset" />
		<tag k="place" v="farm" />
		<tag k="ssr:stedsnr" v="613571" />
	</node>
	<node id="-263181" lat="60.5400305599" lon="8.97871111321">
		<tag k="name" v="Veslestølen" />
		<tag k="place" v="locality" />
		<tag k="ssr:stedsnr" v="613563" />
	</node>
	<node id="-263180" lat="60.5560100521" lon="8.94794349832">
		<tag k="fixme" v="consider place=hamlet" />
		<tag k="name" v="Gudbrandsrud" />
		<tag k="place" v="farm" />
		<tag k="ssr:stedsnr" v="613413" />
	</node>
	<node id="-263178" lat="60.5325499973" lon="8.76296944745">
		<tag k="name" v="Grønhovd" />
		<tag k="place" v="hamlet" />
		<tag k="ssr:stedsnr" v="613216" />
	</node>
	<node id="-263177" lat="60.5290638902" lon="8.72973889675">
		<tag k="historic" v="shieling" />
		<tag k="name" v="Olfisken" />
		<tag k="old_name" v="Orfisklien St" />
		<tag k="place" v="locality" />
		<tag k="ssr:stedsnr" v="613215" />
	</node>
	<node id="-263171" lat="60.4822444453" lon="9.23096667051">
		<tag k="name" v="Isakbråten" />
		<tag k="place" v="farm" />
		<tag k="ssr:stedsnr" v="571889" />
	</node>
	<node id="-263170" lat="60.4866222178" lon="9.22718889358">
		<tag k="name" v="Søre Geitsund" />
		<tag k="place" v="farm" />
		<tag k="ssr:stedsnr" v="571884" />
	</node>
	<node id="-263166" lat="60.5325694408" lon="8.87705555157">
		<tag k="name" v="Øvre Foss" />
		<tag k="place" v="hamlet" />
		<tag k="ssr:stedsnr" v="553612" />
	</node>
	<node id="-263157" lat="60.4578694454" lon="9.19280555814">
		<tag k="name" v="Setra" />
		<tag k="place" v="locality" />
		<tag k="ssr:stedsnr" v="693742" />
	</node>
	<node id="-263155" lat="60.5803138848" lon="9.10518611298">
		<tag k="alt_name" v="Østenfor" />
		<tag k="name" v="Austafor" />
		<tag k="place" v="farm" />
		<tag k="ssr:stedsnr" v="544449" />
	</node>
	<node id="-263154" lat="60.455311844" lon="9.17943982406">
		<tag k="historic" v="shieling" />
		<tag k="name" v="Sverigseter" />
		<tag k="place" v="locality" />
		<tag k="ssr:stedsnr" v="693726" />
	</node>
	<node id="-263153" lat="60.6345833372" lon="9.22728332452">
		<tag k="historic" v="shieling" />
		<tag k="name" v="Langevassenden" />
		<tag k="place" v="locality" />
		<tag k="ssr:stedsnr" v="693440" />
	</node>
	<node id="-263147" lat="60.5690972252" lon="9.12039721914">
		<tag k="name" v="Brattestø" />
		<tag k="place" v="farm" />
		<tag k="ssr:stedsnr" v="692080" />
	</node>
	<node id="-263146" lat="60.5779227212" lon="9.10881615088">
		<tag k="fixme" v="consider place=hamlet" />
		<tag k="name" v="Bæken" />
		<tag k="place" v="farm" />
		<tag k="ssr:stedsnr" v="692077" />
	</node>
	<node id="-263145" lat="60.5555972235" lon="9.13185000147">
		<tag k="name" v="Plassen" />
		<tag k="place" v="farm" />
		<tag k="ssr:stedsnr" v="692062" />
	</node>
	<node id="-263134" lat="60.5608527807" lon="9.28706388552">
		<tag k="name" v="Dypilen" />
		<tag k="place" v="neighbourhood" />
		<tag k="ssr:stedsnr" v="527412" />
	</node>
	<node id="-263133" lat="60.5164490394" lon="9.18589594104">
		<tag k="fixme" v="consider place=hamlet" />
		<tag k="name" v="Li" />
		<tag k="place" v="farm" />
		<tag k="ssr:stedsnr" v="525189" />
	</node>
	<node id="-263132" lat="60.4771000044" lon="9.24119999422">
		<tag k="name" v="Lauvskarmoen" />
		<tag k="place" v="farm" />
		<tag k="ssr:stedsnr" v="511888" />
	</node>
	<node id="-263131" lat="60.5705222178" lon="9.05185834131">
		<tag k="name" v="Espeset" />
		<tag k="place" v="farm" />
		<tag k="ssr:stedsnr" v="510671" />
	</node>
	<node id="-263130" lat="60.4845944418" lon="9.19901666842">
		<tag k="name" v="Øvre Bakko" />
		<tag k="place" v="farm" />
		<tag k="ssr:stedsnr" v="510133" />
	</node>
	<node id="-263129" lat="60.4867666694" lon="9.19043333247">
		<tag k="name" v="Lysenvoll" />
		<tag k="place" v="isolated_dwelling" />
		<tag k="ssr:stedsnr" v="510129" />
	</node>
	<node id="-263125" lat="60.5260888916" lon="8.91355277952">
		<tag k="name" v="Åmellom" />
		<tag k="place" v="farm" />
		<tag k="ssr:stedsnr" v="675631" />
	</node>
	<node id="-263122" lat="60.6551277794" lon="9.26867778303">
		<tag k="historic" v="shieling" />
		<tag k="name" v="Storelie" />
		<tag k="place" v="locality" />
		<tag k="ssr:stedsnr" v="674738" />
	</node>
	<node id="-263121" lat="60.6768777774" lon="9.27495555903">
		<tag k="historic" v="shieling" />
		<tag k="name" v="Valdreslie" />
		<tag k="place" v="locality" />
		<tag k="ssr:stedsnr" v="674706" />
	</node>
	<node id="-263120" lat="60.6202499982" lon="9.35534167369">
		<tag k="historic" v="shieling" />
		<tag k="name" v="Raunelie" />
		<tag k="place" v="locality" />
		<tag k="ssr:stedsnr" v="674690" />
	</node>
	<node id="-263117" lat="60.5457666692" lon="8.91016666472">
		<tag k="name" v="Saupeset" />
		<tag k="place" v="neighbourhood" />
		<tag k="ssr:stedsnr" v="674583" />
	</node>
	<node id="-263115" lat="60.5576333352" lon="8.93750277287">
		<tag k="historic" v="shieling" />
		<tag k="name" v="Stigen" />
		<tag k="place" v="locality" />
		<tag k="ssr:stedsnr" v="674380" />
	</node>
	<node id="-263113" lat="60.5646305596" lon="9.05869444273">
		<tag k="name" v="Valdresbråten" />
		<tag k="place" v="farm" />
		<tag k="ssr:stedsnr" v="674373" />
	</node>
	<node id="-263112" lat="60.5642499973" lon="9.13543056012">
		<tag k="name" v="Bottolvssletten" />
		<tag k="place" v="farm" />
		<tag k="ssr:stedsnr" v="674368" />
	</node>
	<node id="-263111" lat="60.5615888913" lon="9.10967221773">
		<tag k="name" v="Majormoen" />
		<tag k="place" v="farm" />
		<tag k="ssr:stedsnr" v="674365" />
	</node>
	<node id="-263110" lat="60.5001166665" lon="9.08171667513">
		<tag k="historic" v="shieling" />
		<tag k="name" v="Liaset" />
		<tag k="place" v="locality" />
		<tag k="ssr:stedsnr" v="674500" />
	</node>
	<node id="-263103" lat="60.4669361145" lon="9.24431388542">
		<tag k="name" v="Søre Sevre" />
		<tag k="place" v="farm" />
		<tag k="ssr:stedsnr" v="673379" />
	</node>
	<node id="-263102" lat="60.4784000036" lon="9.24134999165">
		<tag k="name" v="Torgerhus" />
		<tag k="place" v="farm" />
		<tag k="ssr:stedsnr" v="673367" />
	</node>
	<node id="-263095" lat="60.6030974336" lon="9.07289050603">
		<tag k="alt_name" v="Nedre Sjong" />
		<tag k="name" v="Nedre Skjong" />
		<tag k="old_name" v="ned Skjong" />
		<tag k="place" v="farm" />
		<tag k="ssr:stedsnr" v="667750" />
	</node>
	<node id="-263094" lat="60.5375361118" lon="8.78024445018">
		<tag k="name" v="Nilsebu" />
		<tag k="place" v="isolated_dwelling" />
		<tag k="ssr:stedsnr" v="466217" />
	</node>
	<node id="-263089" lat="60.5591527756" lon="8.87397222839">
		<tag k="name" v="Belgefet" />
		<tag k="place" v="hamlet" />
		<tag k="ssr:stedsnr" v="450810" />
	</node>
	<node id="-263088" lat="60.5518888893" lon="8.96701666752">
		<tag k="name" v="Nørdre Johannesgarden" />
		<tag k="place" v="farm" />
		<tag k="ssr:stedsnr" v="450806" />
	</node>
	<node id="-263077" lat="60.5712916669" lon="9.03577500254">
		<tag k="name" v="Storebråten" />
		<tag k="place" v="farm" />
		<tag k="ssr:stedsnr" v="449624" />
	</node>
	<node id="-263074" lat="60.5899416641" lon="9.3742277734">
		<tag k="historic" v="shieling" />
		<tag k="name" v="Saulie" />
		<tag k="place" v="locality" />
		<tag k="ssr:stedsnr" v="432803" />
	</node>
	<node id="-263068" lat="60.4503833361" lon="9.153649997">
		<tag k="name" v="Tjørnset" />
		<tag k="place" v="isolated_dwelling" />
		<tag k="ssr:stedsnr" v="431347" />
	</node>
	<node id="-263053" lat="60.6416222254" lon="9.02658056273">
		<tag k="name" v="Ellingbråten" />
		<tag k="place" v="farm" />
		<tag k="ssr:stedsnr" v="510981" />
	</node>
	<node id="-263042" lat="60.5780749964" lon="9.09477222359">
		<tag k="name" v="Støen" />
		<tag k="place" v="farm" />
		<tag k="ssr:stedsnr" v="510090" />
	</node>
	<node id="-263040" lat="60.5649833329" lon="9.02242500123">
		<tag k="name" v="Smette" />
		<tag k="place" v="farm" />
		<tag k="ssr:stedsnr" v="509182" />
	</node>
	<node id="-263036" lat="60.4634868262" lon="9.2551115161">
		<tag k="name" v="Rauk" />
		<tag k="place" v="farm" />
		<tag k="ssr:stedsnr" v="389862" />
	</node>
	<node id="-263030" lat="60.5411611125" lon="9.14695278292">
		<tag k="name" v="Hornløkken" />
		<tag k="place" v="farm" />
		<tag k="ssr:stedsnr" v="389177" />
	</node>
	<node id="-263029" lat="60.5222361106" lon="9.14334166133">
		<tag k="name" v="Grøteplass" />
		<tag k="place" v="farm" />
		<tag k="ssr:stedsnr" v="389175" />
	</node>
	<node id="-263028" lat="60.5383055583" lon="8.93392499287">
		<tag k="name" v="Stakkestø" />
		<tag k="place" v="isolated_dwelling" />
		<tag k="ssr:stedsnr" v="388957" />
	</node>
	<node id="-263020" lat="60.6024916711" lon="9.38149445174">
		<tag k="historic" v="shieling" />
		<tag k="name" v="Skardet" />
		<tag k="place" v="locality" />
		<tag k="ssr:stedsnr" v="371652" />
	</node>
	<node id="-263018" lat="60.5292222229" lon="8.91093889643">
		<tag k="name" v="Gunvaldsrukke" />
		<tag k="place" v="farm" />
		<tag k="ssr:stedsnr" v="371605" />
	</node>
	<node id="-263016" lat="60.6283916672" lon="9.11919443644">
		<tag k="name" v="Lomtjernhytta" />
		<tag k="place" v="isolated_dwelling" />
		<tag k="ssr:stedsnr" v="371465" />
	</node>
	<node id="-263013" lat="60.6330583369" lon="8.98420555775">
		<tag k="name" v="Meksiko" />
		<tag k="place" v="isolated_dwelling" />
		<tag k="ssr:stedsnr" v="371452" />
	</node>
	<node id="-263010" lat="60.5657972706" lon="9.0943789168">
		<tag k="fixme" v="consider place=hamlet" />
		<tag k="name" v="Arnegård" />
		<tag k="place" v="farm" />
		<tag k="ssr:stedsnr" v="371365" />
	</node>
	<node id="-263009" lat="60.5586277789" lon="9.06904167072">
		<tag k="name" v="Medrødningen" />
		<tag k="place" v="farm" />
		<tag k="ssr:stedsnr" v="371364" />
	</node>
	<node id="-263008" lat="60.5601388851" lon="9.06476110401">
		<tag k="name" v="Renslo" />
		<tag k="place" v="farm" />
		<tag k="ssr:stedsnr" v="371362" />
	</node>
	<node id="-263005" lat="60.5014055579" lon="8.82237778069">
		<tag k="name" v="Lyseren" />
		<tag k="place" v="hamlet" />
		<tag k="ssr:stedsnr" v="492890" />
	</node>
	<node id="-262999" lat="60.6211333319" lon="9.31497500379">
		<tag k="historic" v="shieling" />
		<tag k="name" v="Nystølen" />
		<tag k="place" v="locality" />
		<tag k="ssr:stedsnr" v="492661" />
	</node>
	<node id="-262995" lat="60.6254138865" lon="9.22120833579">
		<tag k="historic" v="shieling" />
		<tag k="name" v="Tjernset" />
		<tag k="place" v="locality" />
		<tag k="ssr:stedsnr" v="492606" />
	</node>
	<node id="-262994" lat="60.5281333311" lon="9.19093888562">
		<tag k="name" v="Fluto" />
		<tag k="place" v="farm" />
		<tag k="ssr:stedsnr" v="492585" />
	</node>
	<node id="-262992" lat="60.5315666655" lon="8.91295554668">
		<tag k="name" v="Myrerukke" />
		<tag k="place" v="farm" />
		<tag k="ssr:stedsnr" v="492580" />
	</node>
	<node id="-262986" lat="60.5172888897" lon="8.90086388273">
		<tag k="alt_name" v="Skreddarstølan" />
		<tag k="historic" v="shieling" />
		<tag k="name" v="Skreddarstølen" />
		<tag k="place" v="locality" />
		<tag k="ssr:stedsnr" v="492554" />
	</node>
	<node id="-262985" lat="60.5408694462" lon="9.0448194429">
		<tag k="name" v="Natten" />
		<tag k="place" v="neighbourhood" />
		<tag k="ssr:stedsnr" v="492553" />
	</node>
	<node id="-262984" lat="60.5059805556" lon="9.13721110331">
		<tag k="name" v="Gire" />
		<tag k="place" v="farm" />
		<tag k="ssr:stedsnr" v="492493" />
	</node>
	<node id="-262983" lat="60.5082138865" lon="9.18291945045">
		<tag k="name" v="Fløten" />
		<tag k="place" v="farm" />
		<tag k="ssr:stedsnr" v="492484" />
	</node>
	<node id="-262981" lat="60.5020805599" lon="9.16888611615">
		<tag k="name" v="Sanden" />
		<tag k="place" v="farm" />
		<tag k="ssr:stedsnr" v="492473" />
	</node>
	<node id="-262976" lat="60.6131916627" lon="9.06309443677">
		<tag k="alt_name" v="Smedsgården hotell;Smedsgården" />
		<tag k="name" v="Smedsgården Pensjonat" />
		<tag k="ssr:stedsnr" v="492422" />
		<tag k="tourism" v="guest_house" />
	</node>
	<node id="-262969" lat="60.5706043952" lon="9.05446143996">
		<tag k="fixme" v="consider place=hamlet" />
		<tag k="name" v="Espeset" />
		<tag k="place" v="farm" />
		<tag k="ssr:stedsnr" v="492371" />
	</node>
	<node id="-262968" lat="60.5614694458" lon="9.02562223068">
		<tag k="name" v="Engen" />
		<tag k="place" v="farm" />
		<tag k="ssr:stedsnr" v="492369" />
	</node>
	<node id="-262967" lat="60.6624972261" lon="9.00213888975">
		<tag k="historic" v="shieling" />
		<tag k="name" v="Øvrestølen" />
		<tag k="place" v="locality" />
		<tag k="ssr:stedsnr" v="492224" />
	</node>
	<node id="-262963" lat="60.472374999" lon="9.23282499234">
		<tag k="name" v="Bergshagen" />
		<tag k="place" v="farm" />
		<tag k="ssr:stedsnr" v="491369" />
	</node>
	<node id="-262962" lat="60.4610750008" lon="9.20381110646">
		<tag k="name" v="Malstenbråten" />
		<tag k="place" v="farm" />
		<tag k="ssr:stedsnr" v="491324" />
	</node>
	<node id="-262958" lat="60.4746000007" lon="9.18067499458">
		<tag k="name" v="Stensrud" />
		<tag k="place" v="farm" />
		<tag k="ssr:stedsnr" v="491312" />
	</node>
	<node id="-262957" lat="60.4770695648" lon="9.18687399518">
		<tag k="fixme" v="consider place=hamlet" />
		<tag k="name" v="Mikkelsplass" />
		<tag k="place" v="farm" />
		<tag k="ssr:stedsnr" v="491310" />
	</node>
	<node id="-262954" lat="60.4800611109" lon="9.14419445223">
		<tag k="name" v="Nordhagahaugen" />
		<tag k="place" v="locality" />
		<tag k="ssr:stedsnr" v="491278" />
	</node>
	<node id="-262953" lat="60.4812583309" lon="9.1991500048">
		<tag k="name" v="Dokken" />
		<tag k="place" v="farm" />
		<tag k="ssr:stedsnr" v="491273" />
	</node>
	<node id="-262952" lat="60.4858555589" lon="9.19140277877">
		<tag k="fixme" v="multiple name tags, choose one and add the other to alt_name" />
		<tag k="name" v="Børtnes;Sørgarden" />
		<tag k="old_name" v="Børtnes søndre" />
		<tag k="place" v="farm" />
		<tag k="ssr:stedsnr" v="491271" />
	</node>
	<node id="-262945" lat="60.5988305551" lon="9.07708054933">
		<tag k="name" v="Øvre Sjong" />
		<tag k="place" v="farm" />
		<tag k="ssr:stedsnr" v="328845" />
	</node>
	<node id="-262944" lat="60.5277583356" lon="8.90506389671">
		<tag k="name" v="Nedre Rukkelien" />
		<tag k="place" v="farm" />
		<tag k="ssr:stedsnr" v="328827" />
	</node>
	<node id="-262943" lat="60.6416444434" lon="9.03140554727">
		<tag k="name" v="Søre Garnås" />
		<tag k="place" v="farm" />
		<tag k="ssr:stedsnr" v="328810" />
	</node>
	<node id="-262942" lat="60.6476166653" lon="9.0471722202">
		<tag k="name" v="Svenkerud" />
		<tag k="place" v="farm" />
		<tag k="ssr:stedsnr" v="328808" />
	</node>
	<node id="-262935" lat="60.5322333312" lon="8.91506110894">
		<tag k="name" v="Smedrukke" />
		<tag k="place" v="farm" />
		<tag k="ssr:stedsnr" v="268821" />
	</node>
	<node id="-262931" lat="60.4740916705" lon="9.18471667346">
		<tag k="name" v="Øvre Børdalen" />
		<tag k="place" v="farm" />
		<tag k="ssr:stedsnr" v="268703" />
	</node>
	<node id="-262930" lat="60.4903777759" lon="8.89053332746">
		<tag k="historic" v="shieling" />
		<tag k="name" v="Liasethaugen" />
		<tag k="place" v="locality" />
		<tag k="ssr:stedsnr" v="268610" />
	</node>
	<node id="-262928" lat="60.5736333322" lon="9.378091671">
		<tag k="historic" v="shieling" />
		<tag k="name" v="Nyseter" />
		<tag k="place" v="locality" />
		<tag k="ssr:stedsnr" v="268425" />
	</node>
	<node id="-262926" lat="60.6449138904" lon="9.22862778027">
		<tag k="historic" v="shieling" />
		<tag k="name" v="Dypilen" />
		<tag k="place" v="locality" />
		<tag k="ssr:stedsnr" v="268414" />
	</node>
	<node id="-262923" lat="60.5691722261" lon="9.16593610491">
		<tag k="name" v="Røyremyr" />
		<tag k="place" v="farm" />
		<tag k="ssr:stedsnr" v="268221" />
	</node>
	<node id="-262921" lat="60.5612194411" lon="9.1197083339">
		<tag k="name" v="Haga" />
		<tag k="place" v="farm" />
		<tag k="ssr:stedsnr" v="268063" />
	</node>
	<node id="-262920" lat="60.5676817938" lon="9.00893609956">
		<tag k="fixme" v="consider place=hamlet" />
		<tag k="name" v="Kolhus" />
		<tag k="place" v="farm" />
		<tag k="ssr:stedsnr" v="267964" />
	</node>
	<node id="-262913" lat="60.5286777762" lon="8.91515000535">
		<tag k="name" v="Nedre Rukke" />
		<tag k="place" v="farm" />
		<tag k="ssr:stedsnr" v="450819" />
	</node>
	<node id="-262903" lat="60.5573722219" lon="9.11856945033">
		<tag k="name" v="Haraldset" />
		<tag k="place" v="farm" />
		<tag k="ssr:stedsnr" v="450197" />
	</node>
	<node id="-262901" lat="60.5686611117" lon="9.38618333488">
		<tag k="historic" v="shieling" />
		<tag k="name" v="Gamlevollen" />
		<tag k="place" v="locality" />
		<tag k="ssr:stedsnr" v="450080" />
	</node>
	<node id="-262899" lat="60.5542722191" lon="9.13444444331">
		<tag k="name" v="Persmoen" />
		<tag k="place" v="farm" />
		<tag k="ssr:stedsnr" v="450054" />
	</node>
	<node id="-262893" lat="60.5695805566" lon="9.04653332466">
		<tag k="name" v="Rolfshus" />
		<tag k="place" v="farm" />
		<tag k="ssr:stedsnr" v="449632" />
	</node>
	<node id="-262884" lat="60.5642444421" lon="9.01017777418">
		<tag k="name" v="Søre Klypet" />
		<tag k="place" v="farm" />
		<tag k="ssr:stedsnr" v="146952" />
	</node>
	<node id="-262882" lat="60.4787444427" lon="9.04023888807">
		<tag k="name" v="Fetjan-Brynhildstjernsameiet" />
		<tag k="place" v="locality" />
		<tag k="ssr:stedsnr" v="146622" />
	</node>
	<node id="-262880" lat="60.5701222201" lon="9.12806666938">
		<tag k="name" v="Dokken" />
		<tag k="place" v="isolated_dwelling" />
		<tag k="ssr:stedsnr" v="146069" />
	</node>
	<node id="-262877" lat="60.5280861149" lon="9.16699166609">
		<tag k="name" v="Gullingsrudodden" />
		<tag k="place" v="farm" />
		<tag k="ssr:stedsnr" v="146157" />
	</node>
	<node id="-262876" lat="60.654722221" lon="9.21443889546">
		<tag k="historic" v="shieling" />
		<tag k="name" v="Søre Fjellset" />
		<tag k="place" v="locality" />
		<tag k="ssr:stedsnr" v="145603" />
	</node>
	<node id="-262875" lat="60.5317888873" lon="8.88598888196">
		<tag k="name" v="Nedre Foss" />
		<tag k="place" v="hamlet" />
		<tag k="ssr:stedsnr" v="268826" />
	</node>
	<node id="-262866" lat="60.5727652367" lon="9.09869324706">
		<tag k="name" v="Låplassen" />
		<tag k="place" v="farm" />
		<tag k="ssr:stedsnr" v="268097" />
	</node>
	<node id="-262865" lat="60.5821138901" lon="9.09164722461">
		<tag k="name" v="Solvang" />
		<tag k="place" v="farm" />
		<tag k="ssr:stedsnr" v="268096" />
	</node>
	<node id="-262855" lat="60.5101166677" lon="9.17703055801">
		<tag k="name" v="Velta" />
		<tag k="place" v="farm" />
		<tag k="ssr:stedsnr" v="128504" />
	</node>
	<node id="-262854" lat="60.5069333313" lon="8.96460278527">
		<tag k="historic" v="shieling" />
		<tag k="name" v="Timmermannsstølen" />
		<tag k="place" v="locality" />
		<tag k="ssr:stedsnr" v="128503" />
	</node>
	<node id="-262852" lat="60.5741555589" lon="9.09424721345">
		<tag k="name" v="Sjåheim" />
		<tag k="place" v="farm" />
		<tag k="ssr:stedsnr" v="128403" />
	</node>
	<node id="-262851" lat="60.568577782" lon="9.13978888136">
		<tag k="name" v="Skriubråten" />
		<tag k="place" v="farm" />
		<tag k="ssr:stedsnr" v="128402" />
	</node>
	<node id="-262838" lat="60.5862083334" lon="9.21964166374">
		<tag k="name" v="Bravollen" />
		<tag k="place" v="isolated_dwelling" />
		<tag k="ssr:stedsnr" v="86472" />
	</node>
	<node id="-262834" lat="60.4935611081" lon="9.16032222156">
		<tag k="name" v="Isakbråten" />
		<tag k="place" v="farm" />
		<tag k="ssr:stedsnr" v="86510" />
	</node>
	<node id="-262833" lat="60.5596472236" lon="9.12525277089">
		<tag k="name" v="Bringo" />
		<tag k="place" v="farm" />
		<tag k="ssr:stedsnr" v="86072" />
	</node>
	<node id="-262831" lat="60.556155554" lon="9.09522221567">
		<tag k="name" v="Veslekleive" />
		<tag k="place" v="farm" />
		<tag k="ssr:stedsnr" v="86068" />
	</node>
	<node id="-262830" lat="60.5384694449" lon="9.1904527814">
		<tag k="name" v="Nedre Storeli" />
		<tag k="place" v="farm" />
		<tag k="ssr:stedsnr" v="250612" />
	</node>
	<node id="-262829" lat="60.5375305534" lon="9.20440278209">
		<tag k="historic" v="shieling" />
		<tag k="name" v="Djupeskard" />
		<tag k="place" v="locality" />
		<tag k="ssr:stedsnr" v="250609" />
	</node>
	<node id="-262827" lat="60.6476694411" lon="9.27303332667">
		<tag k="name" v="Langevasshytta" />
		<tag k="place" v="isolated_dwelling" />
		<tag k="ssr:stedsnr" v="85866" />
	</node>
	<node id="-262826" lat="60.5453361133" lon="9.15625833929">
		<tag k="name" v="Svang" />
		<tag k="place" v="farm" />
		<tag k="ssr:stedsnr" v="250583" />
	</node>
	<node id="-262819" lat="60.5399027745" lon="9.28238889544">
		<tag k="name" v="Tjernsetlie" />
		<tag k="place" v="isolated_dwelling" />
		<tag k="ssr:stedsnr" v="249868" />
	</node>
	<node id="-262817" lat="60.5648722243" lon="9.2783083245">
		<tag k="historic" v="shieling" />
		<tag k="name" v="Krøren" />
		<tag k="place" v="locality" />
		<tag k="ssr:stedsnr" v="249842" />
	</node>
	<node id="-262816" lat="60.561055554" lon="9.28732222023">
		<tag k="historic" v="shieling" />
		<tag k="name" v="Dypilen" />
		<tag k="place" v="locality" />
		<tag k="ssr:stedsnr" v="249840" />
	</node>
	<node id="-262812" lat="60.6292249961" lon="9.33584722854">
		<tag k="historic" v="shieling" />
		<tag k="name" v="Bekkevollan" />
		<tag k="place" v="locality" />
		<tag k="ssr:stedsnr" v="249618" />
	</node>
	<node id="-262810" lat="60.5169777817" lon="8.99338888998">
		<tag k="name" v="Bøgaset" />
		<tag k="place" v="neighbourhood" />
		<tag k="ssr:stedsnr" v="249583" />
	</node>
	<node id="-262809" lat="60.5102694463" lon="9.16231667393">
		<tag k="name" v="Desarud" />
		<tag k="place" v="farm" />
		<tag k="ssr:stedsnr" v="249536" />
	</node>
	<node id="-262805" lat="60.6416861069" lon="9.14796665979">
		<tag k="historic" v="shieling" />
		<tag k="name" v="Møne" />
		<tag k="place" v="locality" />
		<tag k="ssr:stedsnr" v="249493" />
	</node>
	<node id="-262804" lat="60.644525004" lon="9.12837777908">
		<tag k="name" v="Gråbeinhytta" />
		<tag k="place" v="isolated_dwelling" />
		<tag k="ssr:stedsnr" v="249491" />
	</node>
	<node id="-262803" lat="60.6359138849" lon="9.04736388317">
		<tag k="name" v="Hanserud" />
		<tag k="place" v="farm" />
		<tag k="ssr:stedsnr" v="249482" />
	</node>
	<node id="-262799" lat="60.4726750039" lon="9.2396833424">
		<tag k="name" v="Nedre Berg" />
		<tag k="place" v="farm" />
		<tag k="ssr:stedsnr" v="249347" />
	</node>
	<node id="-262793" lat="60.4635500001" lon="9.20340832903">
		<tag k="name" v="Myrhaugen" />
		<tag k="place" v="farm" />
		<tag k="ssr:stedsnr" v="249307" />
	</node>
	<node id="-262791" lat="60.4564999981" lon="9.19945555768">
		<tag k="name" v="Vollen" />
		<tag k="place" v="farm" />
		<tag k="ssr:stedsnr" v="249299" />
	</node>
	<node id="-262790" lat="60.4648000032" lon="8.98425000707">
		<tag k="historic" v="shieling" />
		<tag k="name" v="Vestre Brynhildstølen" />
		<tag k="place" v="locality" />
		<tag k="ssr:stedsnr" v="249286" />
	</node>
	<node id="-262783" lat="60.473799997" lon="9.15197778528">
		<tag k="historic" v="shieling" />
		<tag k="name" v="Rustadstølen" />
		<tag k="place" v="locality" />
		<tag k="ssr:stedsnr" v="248281" />
	</node>
	<node id="-262781" lat="60.4697611085" lon="9.20177221991">
		<tag k="name" v="Hallen" />
		<tag k="place" v="farm" />
		<tag k="ssr:stedsnr" v="248274" />
	</node>
	<node id="-262780" lat="60.5632333291" lon="9.03737777413">
		<tag k="name" v="Kvarve" />
		<tag k="place" v="farm" />
		<tag k="ssr:stedsnr" v="249394" />
	</node>
	<node id="-262779" lat="60.5611722185" lon="9.03435832534">
		<tag k="name" v="Stuvengen" />
		<tag k="place" v="farm" />
		<tag k="ssr:stedsnr" v="249393" />
	</node>
	<node id="-262772" lat="60.5167611089" lon="8.7389277817">
		<tag k="historic" v="shieling" />
		<tag k="name" v="Såten" />
		<tag k="place" v="locality" />
		<tag k="ssr:stedsnr" v="68206" />
	</node>
	<node id="-262771" lat="60.5862388907" lon="8.8468638967">
		<tag k="historic" v="shieling" />
		<tag k="name" v="Haugostølen" />
		<tag k="place" v="locality" />
		<tag k="ssr:stedsnr" v="68435" />
	</node>
	<node id="-262770" lat="60.5952694441" lon="9.04522221513">
		<tag k="historic" v="shieling" />
		<tag k="name" v="Gunvaldvollen" />
		<tag k="place" v="locality" />
		<tag k="ssr:stedsnr" v="68428" />
	</node>
	<node id="-262769" lat="60.5541972216" lon="8.97487221431">
		<tag k="name" v="Søre Johannesgarden" />
		<tag k="place" v="farm" />
		<tag k="ssr:stedsnr" v="68420" />
	</node>
	<node id="-262765" lat="60.5172027767" lon="8.92042500822">
		<tag k="historic" v="shieling" />
		<tag k="name" v="Jordeslie" />
		<tag k="place" v="locality" />
		<tag k="ssr:stedsnr" v="67612" />
	</node>
	<node id="-262764" lat="60.5531527745" lon="8.95663887984">
		<tag k="name" v="Jordet" />
		<tag k="place" v="farm" />
		<tag k="ssr:stedsnr" v="67424" />
	</node>
	<node id="-262762" lat="60.5017055601" lon="8.95672777815">
		<tag k="historic" v="shieling" />
		<tag k="name" v="Båtstjernlie" />
		<tag k="place" v="locality" />
		<tag k="ssr:stedsnr" v="67542" />
	</node>
	<node id="-262758" lat="60.6385833328" lon="9.03660000866">
		<tag k="name" v="Garnåsjordet" />
		<tag k="place" v="farm" />
		<tag k="ssr:stedsnr" v="67503" />
	</node>
	<node id="-262757" lat="60.6525416689" lon="9.20813611077">
		<tag k="alt_name" v="Leinastølen" />
		<tag k="historic" v="shieling" />
		<tag k="name" v="Leina" />
		<tag k="place" v="locality" />
		<tag k="ssr:stedsnr" v="67302" />
	</node>
	<node id="-262754" lat="60.486128509" lon="9.19142167305">
		<tag k="fixme" v="consider place=hamlet" />
		<tag k="name" v="Børtnes" />
		<tag k="old_name" v="Børtnæs" />
		<tag k="place" v="farm" />
		<tag k="ssr:stedsnr" v="53063" />
	</node>
	<node id="-262752" lat="60.6534222234" lon="9.34028888763">
		<tag k="name" v="Fremre Trytehølet" />
		<tag k="place" v="neighbourhood" />
		<tag k="ssr:stedsnr" v="41415" />
	</node>
	<node id="-262749" lat="60.5826944479" lon="9.17720556072">
		<tag k="name" v="Toplassen" />
		<tag k="place" v="isolated_dwelling" />
		<tag k="ssr:stedsnr" v="25229" />
	</node>
	<node id="-262746" lat="60.5578611079" lon="8.98489722708">
		<tag k="name" v="Grasdokk" />
		<tag k="place" v="farm" />
		<tag k="ssr:stedsnr" v="25121" />
	</node>
	<node id="-262745" lat="60.5624194457" lon="9.01847500497">
		<tag k="name" v="Gjerdingen" />
		<tag k="place" v="farm" />
		<tag k="ssr:stedsnr" v="25116" />
	</node>
	<node id="-262744" lat="60.5874500025" lon="9.09686945337">
		<tag k="name" v="Rud" />
		<tag k="place" v="quarter" />
		<tag k="ssr:stedsnr" v="223415" />
	</node>
	<node id="-262743" lat="60.5041277762" lon="8.95002500709">
		<tag k="name" v="Båtstjernlie" />
		<tag k="place" v="neighbourhood" />
		<tag k="ssr:stedsnr" v="223410" />
	</node>
	<node id="-264345" lat="60.5645561975" lon="9.09065959459">
		<tag k="fixme" v="consider place=hamlet" />
		<tag k="name" v="Prestbakken" />
		<tag k="place" v="farm" />
		<tag k="ssr:stedsnr" v="1072309" />
	</node>
	<node id="-264344" lat="60.5342738438" lon="8.81794162876">
		<tag k="fixme" v="consider place=hamlet" />
		<tag k="name" v="Myking" />
		<tag k="place" v="farm" />
		<tag k="ssr:stedsnr" v="1072308" />
	</node>
	<node id="-264343" lat="60.5325839297" lon="8.91330727036">
		<tag k="fixme" v="consider place=hamlet" />
		<tag k="name" v="Rukke" />
		<tag k="place" v="farm" />
		<tag k="ssr:stedsnr" v="1072307" />
	</node>
	<node id="-264342" lat="60.5693166629" lon="9.02174098382">
		<tag k="fixme" v="consider place=hamlet" />
		<tag k="name" v="Nybråten" />
		<tag k="place" v="farm" />
		<tag k="ssr:stedsnr" v="1072306" />
	</node>
	<node id="-264341" lat="60.5636942878" lon="9.19877572702">
		<tag k="fixme" v="consider place=hamlet" />
		<tag k="name" v="Toen" />
		<tag k="place" v="farm" />
		<tag k="ssr:stedsnr" v="1072304" />
	</node>
	<node id="-264340" lat="60.4754337831" lon="9.25245234988">
		<tag k="fixme" v="consider place=hamlet" />
		<tag k="name" v="Berg" />
		<tag k="place" v="farm" />
		<tag k="ssr:stedsnr" v="1072303" />
	</node>
	<node id="-264338" lat="60.5787103499" lon="9.32721289942">
		<tag k="fixme" v="consider tourism=alpine_hut or tourism=chalet" />
		<tag k="name" v="Vassfartoppen" />
		<tag k="ssr:stedsnr" v="985799" />
		<tag k="tourism" v="wilderness_hut" />
	</node>
	<node id="-264335" lat="60.5643413332" lon="9.11266146059">
		<tag k="name" v="Peiseplassen" />
		<tag k="place" v="farm" />
		<tag k="ssr:stedsnr" v="973801" />
	</node>
	<node id="-264333" lat="60.5561777752" lon="8.80415278003">
		<tag k="alt_name" v="Skårsrudstølen;Skålsrudstølane" />
		<tag k="loc_name" v="Skålsrudstølan" />
		<tag k="name" v="Skålsrudstølen" />
		<tag k="old_name" v="Skardsrud Sr;Skaalsrud-Stølene;Skårsrudstølane;Skaarsrudstølanne;Skaalsrudstølen" />
		<tag k="place" v="hamlet" />
		<tag k="ssr:stedsnr" v="968943" />
	</node>
	<node id="-264332" lat="60.6259388879" lon="9.06891389143">
		<tag k="alt_name" v="Tolpinnrud;Tolpinrud" />
		<tag k="name" v="Tollpinnrud" />
		<tag k="place" v="farm" />
		<tag k="ssr:stedsnr" v="963536" />
	</node>
	<node id="-264320" lat="60.4679111131" lon="9.236702774">
		<tag k="name" v="Nørdre Sevre" />
		<tag k="place" v="farm" />
		<tag k="ssr:stedsnr" v="875298" />
	</node>
	<node id="-264316" lat="60.4702777788" lon="9.25956666081">
		<tag k="name" v="Kolbråten" />
		<tag k="place" v="locality" />
		<tag k="ssr:stedsnr" v="874786" />
	</node>
	<node id="-264315" lat="60.5718055576" lon="9.04269445001">
		<tag k="name" v="Nørdre Espeset" />
		<tag k="place" v="farm" />
		<tag k="ssr:stedsnr" v="874651" />
	</node>
	<node id="-264314" lat="60.4665722218" lon="9.20087500177">
		<tag k="name" v="Øvre-Hallen" />
		<tag k="place" v="farm" />
		<tag k="ssr:stedsnr" v="874583" />
	</node>
	<node id="-264312" lat="60.5703972253" lon="9.06288888256">
		<tag k="name" v="Djupedokk" />
		<tag k="place" v="farm" />
		<tag k="ssr:stedsnr" v="874574" />
	</node>
	<node id="-264310" lat="60.5379472254" lon="8.81814166913">
		<tag k="name" v="Venehalle" />
		<tag k="ssr:stedsnr" v="874207" />
		<tag k="tourism" v="guest_house" />
	</node>
	<node id="-264297" lat="60.5432111067" lon="8.99115832441">
		<tag k="name" v="Bjørnerud" />
		<tag k="place" v="farm" />
		<tag k="ssr:stedsnr" v="857601" />
	</node>
	<node id="-264296" lat="60.593474998" lon="9.08298888688">
		<tag k="name" v="Mattismoen" />
		<tag k="place" v="farm" />
		<tag k="ssr:stedsnr" v="857433" />
	</node>
	<node id="-264291" lat="60.5644666639" lon="9.31252221467">
		<tag k="historic" v="shieling" />
		<tag k="name" v="Sandfet" />
		<tag k="place" v="locality" />
		<tag k="ssr:stedsnr" v="856852" />
	</node>
	<node id="-264288" lat="60.5181444453" lon="9.17106665882">
		<tag k="name" v="Skomakarhaugen" />
		<tag k="place" v="farm" />
		<tag k="ssr:stedsnr" v="856635" />
	</node>
	<node id="-264286" lat="60.5662583359" lon="9.19583332436">
		<tag k="name" v="Nørdre Toen" />
		<tag k="place" v="farm" />
		<tag k="ssr:stedsnr" v="856445" />
	</node>
	<node id="-264285" lat="60.5632555586" lon="9.19813055471">
		<tag k="name" v="Søre Toen" />
		<tag k="place" v="farm" />
		<tag k="ssr:stedsnr" v="856442" />
	</node>
	<node id="-264282" lat="60.6443193902" lon="9.09747765344">
		<tag k="name" v="Øvre Kastet" />
		<tag k="place" v="farm" />
		<tag k="ssr:stedsnr" v="856537" />
	</node>
	<node id="-264279" lat="60.6402944428" lon="9.04901389322">
		<tag k="name" v="Solli" />
		<tag k="place" v="farm" />
		<tag k="ssr:stedsnr" v="856529" />
	</node>
	<node id="-264278" lat="60.5701250032" lon="9.02927777681">
		<tag k="name" v="Bakkerud" />
		<tag k="place" v="farm" />
		<tag k="ssr:stedsnr" v="856495" />
	</node>
	<node id="-264274" lat="60.4580499979" lon="9.09896388449">
		<tag k="historic" v="shieling" />
		<tag k="name" v="Imlan" />
		<tag k="place" v="locality" />
		<tag k="ssr:stedsnr" v="856337" />
	</node>
	<node id="-264272" lat="60.6506277784" lon="9.02593611928">
		<tag k="name" v="Holtegardsbråten" />
		<tag k="place" v="farm" />
		<tag k="ssr:stedsnr" v="856295" />
	</node>
	<node id="-264269" lat="60.4424750011" lon="9.22295000659">
		<tag k="historic" v="shieling" />
		<tag k="name" v="Nysetre" />
		<tag k="place" v="locality" />
		<tag k="ssr:stedsnr" v="856124" />
	</node>
	<node id="-264268" lat="60.4339055535" lon="9.10769443572">
		<tag k="name" v="Buvasslie" />
		<tag k="place" v="isolated_dwelling" />
		<tag k="ssr:stedsnr" v="856377" />
	</node>
	<node id="-264265" lat="60.4916484489" lon="9.17558150264">
		<tag k="name" v="Nørdre Melum" />
		<tag k="place" v="farm" />
		<tag k="ssr:stedsnr" v="855293" />
	</node>
	<node id="-264263" lat="60.6034748567" lon="9.07320979032">
		<tag k="fixme" v="consider place=hamlet" />
		<tag k="name" v="Skjong" />
		<tag k="place" v="farm" />
		<tag k="ssr:stedsnr" v="841449" />
	</node>
	<node id="-264258" lat="60.4709250034" lon="9.19803888041">
		<tag k="name" v="Bråten" />
		<tag k="place" v="farm" />
		<tag k="ssr:stedsnr" v="814734" />
	</node>
	<node id="-264257" lat="60.4946888847" lon="9.13856943837">
		<tag k="historic" v="shieling" />
		<tag k="name" v="Gireliseter" />
		<tag k="place" v="locality" />
		<tag k="ssr:stedsnr" v="814722" />
	</node>
	<node id="-264255" lat="60.4807972182" lon="9.22441945043">
		<tag k="name" v="Bjørnaengen" />
		<tag k="place" v="farm" />
		<tag k="ssr:stedsnr" v="814628" />
	</node>
	<node id="-264243" lat="60.5360111115" lon="9.18973055776">
		<tag k="name" v="Kultom" />
		<tag k="place" v="isolated_dwelling" />
		<tag k="ssr:stedsnr" v="814232" />
	</node>
	<node id="-264240" lat="60.5566277786" lon="9.05737221827">
		<tag k="name" v="Søre Langeslett" />
		<tag k="place" v="farm" />
		<tag k="ssr:stedsnr" v="814145" />
	</node>
	<node id="-264238" lat="60.5806194466" lon="9.09256389401">
		<tag k="name" v="Endreplass" />
		<tag k="place" v="farm" />
		<tag k="ssr:stedsnr" v="814101" />
	</node>
	<node id="-264229" lat="60.5723666649" lon="9.04537499793">
		<tag k="name" v="Mellom-Espeset" />
		<tag k="place" v="farm" />
		<tag k="ssr:stedsnr" v="813665" />
	</node>
	<node id="-264228" lat="60.5648638906" lon="9.03618888412">
		<tag k="name" v="Søre Eidal" />
		<tag k="place" v="farm" />
		<tag k="ssr:stedsnr" v="813664" />
	</node>
	<node id="-264221" lat="60.6064833364" lon="9.19609999333">
		<tag k="name" v="Stormyrhytta" />
		<tag k="place" v="isolated_dwelling" />
		<tag k="ssr:stedsnr" v="814801" />
	</node>
	<node id="-264220" lat="60.6139944412" lon="9.07576110818">
		<tag k="name" v="Nørdre Brennelien" />
		<tag k="place" v="farm" />
		<tag k="ssr:stedsnr" v="814789" />
	</node>
	<node id="-264216" lat="60.5773222221" lon="9.2536527781">
		<tag k="historic" v="shieling" />
		<tag k="name" v="Rundestølen" />
		<tag k="place" v="locality" />
		<tag k="ssr:stedsnr" v="796842" />
	</node>
	<node id="-264214" lat="60.5084949246" lon="9.18901699059">
		<tag k="fixme" v="consider place=hamlet" />
		<tag k="name" v="Hovde" />
		<tag k="place" v="farm" />
		<tag k="ssr:stedsnr" v="796524" />
	</node>
	<node id="-264210" lat="60.6409305553" lon="9.01641666513">
		<tag k="name" v="Livgard" />
		<tag k="old_name" v="Livgaarden" />
		<tag k="place" v="farm" />
		<tag k="ssr:stedsnr" v="796470" />
	</node>
	<node id="-264205" lat="60.5420611139" lon="9.15558611107">
		<tag k="name" v="Nørdre Rudsviken" />
		<tag k="place" v="farm" />
		<tag k="ssr:stedsnr" v="796591" />
	</node>
	<node id="-264204" lat="60.5366305576" lon="9.14974166823">
		<tag k="name" v="Grøtodden" />
		<tag k="place" v="farm" />
		<tag k="ssr:stedsnr" v="796581" />
	</node>
	<node id="-264203" lat="60.5394388917" lon="8.87845277564">
		<tag k="name" v="Volelie" />
		<tag k="place" v="hamlet" />
		<tag k="ssr:stedsnr" v="796565" />
	</node>
	<node id="-264199" lat="60.5586305592" lon="9.02609444781">
		<tag k="name" v="Nedre Vissebråten" />
		<tag k="place" v="farm" />
		<tag k="ssr:stedsnr" v="796395" />
	</node>
	<node id="-264198" lat="60.6707305533" lon="9.26408610312">
		<tag k="historic" v="shieling" />
		<tag k="name" v="Valdreslie" />
		<tag k="place" v="locality" />
		<tag k="ssr:stedsnr" v="795702" />
	</node>
	<node id="-264194" lat="60.579158329" lon="9.17824722546">
		<tag k="name" v="Torydningen" />
		<tag k="place" v="isolated_dwelling" />
		<tag k="ssr:stedsnr" v="795492" />
	</node>
	<node id="-264193" lat="60.5714305522" lon="9.13325277748">
		<tag k="name" v="Dalen" />
		<tag k="place" v="farm" />
		<tag k="ssr:stedsnr" v="795483" />
	</node>
</osm>
