<?xml version="1.0" encoding="UTF-8"?>
<osm version="0.6" generator="osmapis">
	<node lat="60.66633888479141" lon="8.937405556546334" id="-31363">
		<tag k="name" v="Meåsen" />
		<tag k="natural" v="hill" />
		<tag k="place" v="locality" />
		<tag k="ssr:stedsnr" v="6265" />
	</node>
	<node lat="60.43351388831093" lon="9.065152783181873" id="-31366">
		<tag k="name" v="Øyvatnet" />
		<tag k="natural" v="water" />
		<tag k="ssr:stedsnr" v="6612" />
		<tag k="water" v="lake" />
	</node>
	<node lat="60.519261111968014" lon="8.966719450266659" id="-31367">
		<tag k="name" v="Kulusetberget" />
		<tag k="natural" v="hill" />
		<tag k="place" v="locality" />
		<tag k="ssr:stedsnr" v="6621" />
	</node>
	<node lat="60.50659722294049" lon="9.195337109307504" id="-31369">
		<tag k="fixme" v="consider place=hamlet" />
		<tag k="name" v="Benterud" />
		<tag k="place" v="farm" />
		<tag k="ssr:stedsnr" v="7502" />
	</node>
	<node lat="60.62232285668157" lon="9.29260195607134" id="-31371">
		<tag k="name" v="Eihellervatnet" />
		<tag k="natural" v="water" />
		<tag k="ssr:stedsnr" v="7608" />
		<tag k="water" v="lake" />
	</node>
	<node lat="60.62589722472609" lon="9.27557778536287" id="-31372">
		<tag k="fixme" v="consider natural=peak for the most distinct mountains in the district" />
		<tag k="name" v="Grønåsbrenna" />
		<tag k="natural" v="hill" />
		<tag k="place" v="locality" />
		<tag k="ssr:stedsnr" v="7609" />
	</node>
	<node lat="60.63135833223026" lon="9.236402786100884" id="-31373">
		<tag k="fixme" v="consider natural=peak for the most distinct mountains in the district" />
		<tag k="name" v="Tjernsetåsen" />
		<tag k="natural" v="hill" />
		<tag k="place" v="locality" />
		<tag k="ssr:stedsnr" v="7613" />
	</node>
	<node lat="60.64862222459763" lon="9.355708325131882" id="-31374">
		<tag k="name" v="Kroktjern" />
		<tag k="natural" v="water" />
		<tag k="ssr:stedsnr" v="7627" />
	</node>
	<node lat="60.61377222013358" lon="9.40086943864373" id="-31378">
		<tag k="name" v="Strøen" />
		<tag k="natural" v="water" />
		<tag k="ssr:stedsnr" v="7662" />
		<tag k="water" v="lake" />
	</node>
	<node lat="60.54769999712431" lon="9.195994439726721" id="-31379">
		<tag k="name" v="Ankerbråten" />
		<tag k="place" v="isolated_dwelling" />
		<tag k="ssr:stedsnr" v="7551" />
	</node>
	<node lat="60.63946388988435" lon="9.055102773364286" id="-31383">
		<tag k="name" v="Strykebråten" />
		<tag k="place" v="locality" />
		<tag k="ssr:stedsnr" v="24979" />
	</node>
	<node lat="60.55593055934616" lon="8.752047226837508" id="-31387">
		<tag k="name" v="Svartevasshøgde" />
		<tag k="natural" v="hill" />
		<tag k="place" v="locality" />
		<tag k="ssr:stedsnr" v="25208" />
	</node>
	<node lat="60.53238055433298" lon="9.181430564632324" id="-31388">
		<tag k="name" v="Loppetjern" />
		<tag k="natural" v="water" />
		<tag k="ssr:stedsnr" v="25180" />
		<tag k="water" v="pond" />
	</node>
	<node lat="60.48162500086341" lon="9.256269451744988" id="-31391">
		<tag k="name" v="Finnesetbakkan" />
		<tag k="natural" v="slope" />
		<tag k="place" v="locality" />
		<tag k="ssr:stedsnr" v="25598" />
	</node>
	<node lat="60.452708334773504" lon="8.994016672614025" id="-31393">
		<tag k="name" v="Nørdre Småvatn" />
		<tag k="natural" v="water" />
		<tag k="ssr:stedsnr" v="26009" />
	</node>
	<node lat="60.5544777788815" lon="9.140222224516886" id="-31395">
		<tag k="alt_name" v="Einan" />
		<tag k="name" v="Øynan" />
		<tag k="place" v="island" />
		<tag k="ssr:stedsnr" v="234614" />
	</node>
	<node lat="60.6271611129331" lon="9.055177784873013" id="-31398">
		<tag k="bridge" v="yes" />
		<tag k="layer" v="1" />
		<tag k="name" v="Dokken" />
		<tag k="ssr:stedsnr" v="46793" />
	</node>
	<node lat="60.5000527750043" lon="9.168555564550283" id="-31399">
		<tag k="bridge" v="yes" />
		<tag k="layer" v="1" />
		<tag k="name" v="Nordhagen" />
		<tag k="ssr:stedsnr" v="46816" />
	</node>
	<node lat="60.55315277448081" lon="8.956638879843942" id="-31407">
		<tag k="name" v="Jordet" />
		<tag k="place" v="farm" />
		<tag k="ssr:stedsnr" v="67424" />
	</node>
	<node lat="60.563514595105715" lon="8.910275300158437" id="-31408">
		<tag k="name" v="Damtjern" />
		<tag k="natural" v="water" />
		<tag k="ssr:stedsnr" v="67442" />
	</node>
	<node lat="60.652541668901975" lon="9.208136110772925" id="-31410">
		<tag k="alt_name" v="Leinastølen" />
		<tag k="historic" v="shieling" />
		<tag k="name" v="Leina" />
		<tag k="place" v="isolated_dwelling" />
		<tag k="ssr:stedsnr" v="67302" />
	</node>
	<node lat="60.466707838952274" lon="9.042838620706542" id="-31411">
		<tag k="fixme" v="consider natural=peak for the most distinct mountains in the district" />
		<tag k="name" v="Karilinatten" />
		<tag k="natural" v="hill" />
		<tag k="place" v="locality" />
		<tag k="ssr:stedsnr" v="67308" />
	</node>
	<node lat="60.6274361115981" lon="9.170874994444194" id="-31422">
		<tag k="name" v="Fiskebekken" />
		<tag k="ssr:stedsnr" v="68501" />
		<tag k="waterway" v="stream" />
	</node>
	<node lat="60.622761114590354" lon="9.102122224862736" id="-31423">
		<tag k="name" v="Elgtjern" />
		<tag k="natural" v="water" />
		<tag k="ssr:stedsnr" v="68504" />
	</node>
	<node lat="60.58623889067763" lon="8.846863896704365" id="-31426">
		<tag k="historic" v="shieling" />
		<tag k="name" v="Haugostølen" />
		<tag k="place" v="isolated_dwelling" />
		<tag k="ssr:stedsnr" v="68435" />
	</node>
	<node lat="60.59112964265916" lon="9.092864286428357" id="-31427">
		<tag k="fixme" v="consider place=hamlet" />
		<tag k="name" v="Rud" />
		<tag k="place" v="farm" />
		<tag k="ssr:stedsnr" v="68439" />
	</node>
	<node lat="60.62019444507693" lon="9.369191661473657" id="-31430">
		<tag k="fixme" v="consider natural=peak for the most distinct mountains in the district" />
		<tag k="name" v="Brenna" />
		<tag k="natural" v="hill" />
		<tag k="place" v="locality" />
		<tag k="ssr:stedsnr" v="68703" />
	</node>
	<node lat="60.61048889170922" lon="9.239499999550977" id="-31433">
		<tag k="name" v="Krossløken" />
		<tag k="natural" v="water" />
		<tag k="ssr:stedsnr" v="68693" />
	</node>
	<node lat="60.6476694411246" lon="9.273033326674959" id="-31437">
		<tag k="name" v="Langevasshytta" />
		<tag k="place" v="isolated_dwelling" />
		<tag k="ssr:stedsnr" v="85866" />
	</node>
	<node lat="60.59406111430442" lon="8.935925004761181" id="-31438">
		<tag k="name" v="Langetjern" />
		<tag k="natural" v="water" />
		<tag k="ssr:stedsnr" v="85977" />
	</node>
	<node lat="60.58371388581432" lon="9.099563893650776" id="-31441">
		<tag k="name" v="Danmark" />
		<tag k="place" v="farm" />
		<tag k="ssr:stedsnr" v="86079" />
	</node>
	<node lat="60.52503333070637" lon="9.186694453088737" id="-31444">
		<tag k="amenity" v="school" />
		<tag k="name" v="Li skole" />
		<tag k="ssr:stedsnr" v="86198" />
	</node>
	<node lat="60.61629444714941" lon="9.307494437562903" id="-31447">
		<tag k="name" v="Jutulstein" />
		<tag k="natural" v="stone" />
		<tag k="ssr:stedsnr" v="86476" />
	</node>
	<node lat="60.599786111472106" lon="9.2608611073711" id="-31448">
		<tag k="name" v="Jutulbekken" />
		<tag k="ssr:stedsnr" v="86478" />
		<tag k="waterway" v="stream" />
	</node>
	<node lat="60.48171666775707" lon="9.238063893057086" id="-31449">
		<tag k="name" v="Hestemyr" />
		<tag k="natural" v="wetland" />
		<tag k="ssr:stedsnr" v="86609" />
	</node>
	<node lat="60.490119446907094" lon="9.06999166315336" id="-31450">
		<tag k="name" v="Sisselhaugen" />
		<tag k="place" v="isolated_dwelling" />
		<tag k="ssr:stedsnr" v="86687" />
	</node>
	<node lat="60.47567778037524" lon="9.162297213361077" id="-31454">
		<tag k="name" v="Stormyrhaugen" />
		<tag k="natural" v="hill" />
		<tag k="place" v="locality" />
		<tag k="ssr:stedsnr" v="248280" />
	</node>
	<node lat="60.577986107461946" lon="8.737119441074112" id="-31458">
		<tag k="name" v="Fjellsetvatnet" />
		<tag k="natural" v="water" />
		<tag k="ssr:stedsnr" v="249030" />
	</node>
	<node lat="60.466424996885415" lon="9.133827774156396" id="-31460">
		<tag k="fixme" v="consider natural=peak for the most distinct mountains in the district" />
		<tag k="name" v="Rustadstølfjellet" />
		<tag k="natural" v="hill" />
		<tag k="place" v="locality" />
		<tag k="ssr:stedsnr" v="249277" />
	</node>
	<node lat="60.49896666248184" lon="8.873052783187408" id="-31462">
		<tag k="amenity" v="community_centre" />
		<tag k="name" v="Synstevassbu" />
		<tag k="ssr:stedsnr" v="249238" />
	</node>
	<node lat="60.635913884927234" lon="9.047363883172261" id="-31466">
		<tag k="name" v="Hanserud" />
		<tag k="place" v="farm" />
		<tag k="ssr:stedsnr" v="249482" />
	</node>
	<node lat="60.639852777110406" lon="9.184488884125741" id="-31469">
		<tag k="name" v="Fjellsetbekken" />
		<tag k="ssr:stedsnr" v="249505" />
		<tag k="waterway" v="stream" />
	</node>
	<node lat="60.51026944628212" lon="9.162316673931171" id="-31475">
		<tag k="name" v="Desarud" />
		<tag k="place" v="farm" />
		<tag k="ssr:stedsnr" v="249536" />
	</node>
	<node lat="60.558305559086456" lon="9.077722217205888" id="-31478">
		<tag k="bridge" v="yes" />
		<tag k="layer" v="1" />
		<tag k="name" v="Vad" />
		<tag k="ssr:stedsnr" v="107819" />
	</node>
	<node lat="60.56105555395634" lon="9.287322220228779" id="-31484">
		<tag k="historic" v="shieling" />
		<tag k="name" v="Dypilen" />
		<tag k="place" v="isolated_dwelling" />
		<tag k="ssr:stedsnr" v="249840" />
	</node>
	<node lat="60.56487222427838" lon="9.278308324495415" id="-31485">
		<tag k="historic" v="shieling" />
		<tag k="name" v="Krøren" />
		<tag k="place" v="isolated_dwelling" />
		<tag k="ssr:stedsnr" v="249842" />
	</node>
	<node lat="60.55116944698034" lon="9.16669721653972" id="-31491">
		<tag k="name" v="Åstjernet" />
		<tag k="natural" v="water" />
		<tag k="ssr:stedsnr" v="250551" />
	</node>
	<node lat="60.5345833303114" lon="9.160944443965123" id="-31492">
		<tag k="name" v="Brommafjorden" />
		<tag k="natural" v="water" />
		<tag k="ssr:stedsnr" v="250564" />
		<tag k="water" v="lake" />
	</node>
	<node lat="60.54533611328077" lon="9.156258339294995" id="-31495">
		<tag k="name" v="Svang" />
		<tag k="place" v="farm" />
		<tag k="ssr:stedsnr" v="250583" />
	</node>
	<node lat="60.53846944485206" lon="9.190452781397024" id="-31497">
		<tag k="name" v="Nedre Storeli" />
		<tag k="place" v="farm" />
		<tag k="ssr:stedsnr" v="250612" />
	</node>
	<node lat="60.59705833117721" lon="9.417422224922818" id="-31499">
		<tag k="fixme" v="consider natural=peak for the most distinct mountains in the district" />
		<tag k="name" v="Trytetjernåsen" />
		<tag k="natural" v="hill" />
		<tag k="place" v="locality" />
		<tag k="ssr:stedsnr" v="250652" />
	</node>
	<node lat="60.60614444540813" lon="9.311791668644856" id="-31500">
		<tag k="name" v="Mattjern" />
		<tag k="natural" v="water" />
		<tag k="ssr:stedsnr" v="250672" />
	</node>
	<node lat="60.442788892070745" lon="9.19773888136696" id="-31509">
		<tag k="name" v="Svangtjern" />
		<tag k="natural" v="water" />
		<tag k="ssr:stedsnr" v="127350" />
	</node>
	<node lat="60.57415555886858" lon="9.094247213454253" id="-31514">
		<tag k="name" v="Sjåheim" />
		<tag k="place" v="farm" />
		<tag k="ssr:stedsnr" v="128403" />
	</node>
	<node lat="60.51011666773932" lon="9.177030558012165" id="-31518">
		<tag k="name" v="Velta" />
		<tag k="place" v="farm" />
		<tag k="ssr:stedsnr" v="128504" />
	</node>
	<node lat="60.52224444008953" lon="9.141466666907688" id="-31520">
		<tag k="name" v="Ankerbråten" />
		<tag k="place" v="isolated_dwelling" />
		<tag k="ssr:stedsnr" v="128587" />
	</node>
	<node lat="60.520902779517456" lon="9.158419448584981" id="-31521">
		<tag k="name" v="Bø" />
		<tag k="place" v="farm" />
		<tag k="ssr:stedsnr" v="128588" />
	</node>
	<node lat="60.50191944594885" lon="9.137372219554404" id="-31522">
		<tag k="name" v="Kleppebråten" />
		<tag k="place" v="isolated_dwelling" />
		<tag k="ssr:stedsnr" v="128496" />
	</node>
	<node lat="60.62945832944917" lon="9.30898333193694" id="-31523">
		<tag k="name" v="Fisketjernbekken" />
		<tag k="ssr:stedsnr" v="128616" />
		<tag k="waterway" v="stream" />
	</node>
	<node lat="60.603572223565145" lon="9.367322229758608" id="-31524">
		<tag k="name" v="Sollitjern" />
		<tag k="natural" v="water" />
		<tag k="ssr:stedsnr" v="128652" />
	</node>
	<node lat="60.51338288969393" lon="9.31849870768446" id="-31525">
		<tag k="name" v="Bødalsvatnet" />
		<tag k="natural" v="water" />
		<tag k="ssr:stedsnr" v="128790" />
		<tag k="water" v="lake" />
	</node>
	<node lat="60.56266388509746" lon="9.295177778565288" id="-31526">
		<tag k="name" v="Øyvatnet" />
		<tag k="natural" v="water" />
		<tag k="ssr:stedsnr" v="128843" />
	</node>
	<node lat="60.47769166728602" lon="9.192444442646316" id="-31528">
		<tag k="name" v="Toreslette" />
		<tag k="place" v="locality" />
		<tag k="ssr:stedsnr" v="145716" />
	</node>
	<node lat="60.54337222323938" lon="9.146583335483871" id="-31534">
		<tag k="name" v="Hansamoen" />
		<tag k="place" v="farm" />
		<tag k="ssr:stedsnr" v="146180" />
	</node>
	<node lat="60.43540833739776" lon="9.106952773564553" id="-31542">
		<tag k="name" v="Pederbu" />
		<tag k="place" v="isolated_dwelling" />
		<tag k="ssr:stedsnr" v="172456" />
	</node>
	<node lat="60.4748749977304" lon="9.230150005375734" id="-31551">
		<tag k="name" v="Kleven" />
		<tag k="place" v="farm" />
		<tag k="ssr:stedsnr" v="188385" />
	</node>
	<node lat="60.60752778161227" lon="9.076636114483833" id="-31555">
		<tag k="name" v="Skogen" />
		<tag k="place" v="farm" />
		<tag k="ssr:stedsnr" v="189423" />
	</node>
	<node lat="60.615563893186696" lon="9.170849995249817" id="-31556">
		<tag k="name" v="Todalsbekken" />
		<tag k="ssr:stedsnr" v="189424" />
		<tag k="waterway" v="stream" />
	</node>
	<node lat="60.616291669849595" lon="9.210752773158616" id="-31557">
		<tag k="name" v="Skjegletjern" />
		<tag k="natural" v="water" />
		<tag k="ssr:stedsnr" v="189425" />
	</node>
	<node lat="60.59165833775903" lon="9.317677773380634" id="-31562">
		<tag k="name" v="Svartetjern" />
		<tag k="natural" v="water" />
		<tag k="ssr:stedsnr" v="189787" />
	</node>
	<node lat="60.53017222272775" lon="9.195019442781865" id="-31564">
		<tag k="name" v="Flutonatten" />
		<tag k="natural" v="hill" />
		<tag k="place" v="locality" />
		<tag k="ssr:stedsnr" v="267128" />
	</node>
	<node lat="60.46016666959757" lon="9.259994439165506" id="-31567">
		<tag k="name" v="Bergaøyne" />
		<tag k="place" v="island" />
		<tag k="ssr:stedsnr" v="267777" />
	</node>
	<node lat="60.56892394508505" lon="9.175283137590629" id="-31569">
		<tag k="bridge" v="yes" />
		<tag k="layer" v="1" />
		<tag k="name" v="Toengbrue" />
		<tag k="ssr:stedsnr" v="267969" />
	</node>
	<node lat="60.56121944111335" lon="9.119708333898238" id="-31570">
		<tag k="name" v="Haga" />
		<tag k="place" v="farm" />
		<tag k="ssr:stedsnr" v="268063" />
	</node>
	<node lat="60.569172226059905" lon="9.165936104911852" id="-31572">
		<tag k="name" v="Røyremyr" />
		<tag k="place" v="farm" />
		<tag k="ssr:stedsnr" v="268221" />
	</node>
	<node lat="60.52602500385932" lon="9.30899721616413" id="-31576">
		<tag k="name" v="Osetjernhaugen" />
		<tag k="natural" v="hill" />
		<tag k="place" v="locality" />
		<tag k="ssr:stedsnr" v="206218" />
	</node>
	<node lat="60.53337222093886" lon="9.296672222114926" id="-31577">
		<tag k="fixme" v="consider natural=peak for the most distinct mountains in the district" />
		<tag k="name" v="Svartetjernåsen" />
		<tag k="natural" v="hill" />
		<tag k="place" v="locality" />
		<tag k="ssr:stedsnr" v="206224" />
	</node>
	<node lat="60.60738333229538" lon="9.233458328133638" id="-31578">
		<tag k="name" v="Lauvhaugen" />
		<tag k="natural" v="hill" />
		<tag k="place" v="locality" />
		<tag k="ssr:stedsnr" v="268447" />
	</node>
	<node lat="60.483722225360786" lon="9.195283335538635" id="-31580">
		<tag k="name" v="Søgardsnatten" />
		<tag k="natural" v="hill" />
		<tag k="place" v="locality" />
		<tag k="ssr:stedsnr" v="206727" />
	</node>
	<node lat="60.492002774719985" lon="9.212227784213276" id="-31581">
		<tag k="name" v="Bergahølet" />
		<tag k="natural" v="valley" />
		<tag k="place" v="locality" />
		<tag k="ssr:stedsnr" v="268608" />
	</node>
	<node lat="60.49037777585853" lon="8.89053332746157" id="-31582">
		<tag k="historic" v="shieling" />
		<tag k="name" v="Liasethaugen" />
		<tag k="place" v="isolated_dwelling" />
		<tag k="ssr:stedsnr" v="268610" />
	</node>
	<node lat="60.50547121418655" lon="8.714913735399888" id="-31585">
		<tag k="name" v="Tjuverihallvatnet" />
		<tag k="natural" v="water" />
		<tag k="ssr:stedsnr" v="207025" />
		<tag k="water" v="lake" />
	</node>
	<node lat="60.534408329195855" lon="8.71029167387585" id="-31586">
		<tag k="name" v="Smalvassbekken" />
		<tag k="ssr:stedsnr" v="207030" />
		<tag k="waterway" v="stream" />
	</node>
	<node lat="60.62018610765299" lon="9.231419446134511" id="-31591">
		<tag k="name" v="Øvre Bekkedalstjern" />
		<tag k="natural" v="water" />
		<tag k="ssr:stedsnr" v="207421" />
	</node>
	<node lat="60.60993055187436" lon="8.892102786353036" id="-31595">
		<tag k="name" v="Steintjern" />
		<tag k="natural" v="water" />
		<tag k="ssr:stedsnr" v="268815" />
	</node>
	<node lat="60.5726527799731" lon="9.051594453374976" id="-31598">
		<tag k="name" v="Træo" />
		<tag k="place" v="farm" />
		<tag k="ssr:stedsnr" v="207621" />
	</node>
	<node lat="60.587450002502464" lon="9.096869453371607" id="-31606">
		<tag k="name" v="Rud" />
		<tag k="place" v="quarter" />
		<tag k="ssr:stedsnr" v="223415" />
	</node>
	<node lat="60.487219443582546" lon="9.192361113365468" id="-31607">
		<tag k="bridge" v="yes" />
		<tag k="layer" v="1" />
		<tag k="name" v="Børtnes" />
		<tag k="ssr:stedsnr" v="228803" />
	</node>
	<node lat="60.511458337692716" lon="9.250172224162172" id="-31608">
		<tag k="name" v="Geitsundtjern" />
		<tag k="natural" v="water" />
		<tag k="ssr:stedsnr" v="449629" />
		<tag k="water" v="pond" />
	</node>
	<node lat="60.61022500381062" lon="9.41713611173978" id="-31610">
		<tag k="name" v="Langodden" />
		<tag k="natural" v="cape" />
		<tag k="ssr:stedsnr" v="449679" />
	</node>
	<node lat="60.47602499707165" lon="9.148141667553803" id="-31611">
		<tag k="name" v="Primbakkan" />
		<tag k="natural" v="slope" />
		<tag k="place" v="locality" />
		<tag k="ssr:stedsnr" v="449707" />
	</node>
	<node lat="60.46810833596019" lon="9.027027782759877" id="-31618">
		<tag k="name" v="Storemyre" />
		<tag k="natural" v="wetland" />
		<tag k="ssr:stedsnr" v="450084" />
	</node>
	<node lat="60.554272219137324" lon="9.134444443312017" id="-31620">
		<tag k="name" v="Persmoen" />
		<tag k="place" v="farm" />
		<tag k="ssr:stedsnr" v="450054" />
	</node>
	<node lat="60.55593333264195" lon="9.14097222728369" id="-31621">
		<tag k="name" v="Holmtjern" />
		<tag k="natural" v="water" />
		<tag k="ssr:stedsnr" v="450063" />
	</node>
	<node lat="60.55737222188284" lon="9.118569450331998" id="-31623">
		<tag k="name" v="Haraldset" />
		<tag k="place" v="farm" />
		<tag k="ssr:stedsnr" v="450197" />
	</node>
	<node lat="60.559822225049864" lon="9.128775004415013" id="-31624">
		<tag k="name" v="Småøyne" />
		<tag k="place" v="island" />
		<tag k="ssr:stedsnr" v="450200" />
	</node>
	<node lat="60.580138891768904" lon="9.33609443815684" id="-31627">
		<tag k="name" v="Mattjern" />
		<tag k="natural" v="water" />
		<tag k="ssr:stedsnr" v="450284" />
	</node>
	<node lat="60.621844442084566" lon="9.305716670372675" id="-31629">
		<tag k="name" v="Eihellervassdypilen" />
		<tag k="natural" v="water" />
		<tag k="ssr:stedsnr" v="450436" />
		<tag k="water" v="pond" />
	</node>
	<node lat="60.47243888596671" lon="9.12741944362357" id="-31631">
		<tag k="loc_name" v="Holmevatn" />
		<tag k="name" v="Øyvatn" />
		<tag k="natural" v="water" />
		<tag k="ssr:stedsnr" v="450727" />
	</node>
	<node lat="60.454247220399786" lon="9.202619449171856" id="-31632">
		<tag k="name" v="Langebakk" />
		<tag k="natural" v="slope" />
		<tag k="place" v="locality" />
		<tag k="ssr:stedsnr" v="450939" />
	</node>
	<node lat="60.44803055250316" lon="9.218072218226679" id="-31633">
		<tag k="name" v="Rotveltedalen" />
		<tag k="natural" v="valley" />
		<tag k="place" v="locality" />
		<tag k="ssr:stedsnr" v="450942" />
	</node>
	<node lat="60.48089444621249" lon="9.28405554677481" id="-31640">
		<tag k="name" v="Grøndalen" />
		<tag k="natural" v="valley" />
		<tag k="place" v="locality" />
		<tag k="ssr:stedsnr" v="451908" />
	</node>
	<node lat="60.468913892594244" lon="9.208669446882654" id="-31643">
		<tag k="loc_name" v="Haugan" />
		<tag k="name" v="Haugane" />
		<tag k="natural" v="hill" />
		<tag k="place" v="locality" />
		<tag k="ssr:stedsnr" v="249303" />
	</node>
	<node lat="60.46355000011011" lon="9.2034083290286" id="-31644">
		<tag k="name" v="Myrhaugen" />
		<tag k="place" v="farm" />
		<tag k="ssr:stedsnr" v="249307" />
	</node>
	<node lat="60.456499998069475" lon="9.199455557683116" id="-31651">
		<tag k="name" v="Vollen" />
		<tag k="place" v="farm" />
		<tag k="ssr:stedsnr" v="249299" />
	</node>
	<node lat="60.68459721984428" lon="9.304663896423364" id="-31652">
		<tag k="name" v="Andersentjern" />
		<tag k="natural" v="water" />
		<tag k="ssr:stedsnr" v="267898" />
	</node>
	<node lat="60.68236666548594" lon="9.292322222992231" id="-31653">
		<tag k="name" v="Valdreslibekken" />
		<tag k="ssr:stedsnr" v="267900" />
		<tag k="waterway" v="stream" />
	</node>
	<node lat="60.582113890104324" lon="9.091647224609183" id="-31656">
		<tag k="name" v="Solvang" />
		<tag k="place" v="farm" />
		<tag k="ssr:stedsnr" v="268096" />
	</node>
	<node lat="60.57276523672183" lon="9.098693247055925" id="-31657">
		<tag k="name" v="Låplassen" />
		<tag k="place" v="farm" />
		<tag k="ssr:stedsnr" v="268097" />
	</node>
	<node lat="60.49705277779124" lon="9.177161104544759" id="-31666">
		<tag k="name" v="Purkeberget" />
		<tag k="natural" v="ridge" />
		<tag k="place" v="locality" />
		<tag k="ssr:stedsnr" v="268729" />
	</node>
	<node lat="60.486324996825246" lon="8.817674995623548" id="-31672">
		<tag k="name" v="Buvassbrenna" />
		<tag k="place" v="isolated_dwelling" />
		<tag k="ssr:stedsnr" v="309092" />
	</node>
	<node lat="60.44123900649605" lon="9.057778950013438" id="-31674">
		<tag k="name" v="Haglevatnet" />
		<tag k="natural" v="water" />
		<tag k="ssr:stedsnr" v="309357" />
		<tag k="water" v="lake" />
	</node>
	<node lat="60.53156389160878" lon="8.816669442250864" id="-31676">
		<tag k="name" v="Mykingsjøen" />
		<tag k="natural" v="water" />
		<tag k="ssr:stedsnr" v="310202" />
		<tag k="water" v="lake" />
	</node>
	<node lat="60.53888611511806" lon="8.821699995272436" id="-31677">
		<tag k="name" v="Fagerhøy Fjellstue" />
		<tag k="ssr:stedsnr" v="310205" />
		<tag k="tourism" v="hotel" />
	</node>
	<node lat="60.5530092389631" lon="8.799501741923375" id="-31680">
		<tag k="alt_name" v="Skårsrudvatnet" />
		<tag k="name" v="Skålsrudvatnet" />
		<tag k="natural" v="water" />
		<tag k="old_name" v="Skaarsrudvatnet;Skaalsrud Vand" />
		<tag k="ssr:stedsnr" v="310230" />
		<tag k="water" v="lake" />
	</node>
	<node lat="60.587416668833626" lon="9.135252781089411" id="-31683">
		<tag k="fixme" v="consider natural=peak for the most distinct mountains in the district" />
		<tag k="name" v="Klevarudnatten" />
		<tag k="natural" v="hill" />
		<tag k="place" v="locality" />
		<tag k="ssr:stedsnr" v="310429" />
	</node>
	<node lat="60.57532777470646" lon="9.155144445898996" id="-31684">
		<tag k="name" v="Trytetjern" />
		<tag k="natural" v="water" />
		<tag k="ssr:stedsnr" v="310435" />
	</node>
	<node lat="60.60460833213395" lon="9.154938893001567" id="-31685">
		<tag k="name" v="Todalsdammen" />
		<tag k="place" v="isolated_dwelling" />
		<tag k="ssr:stedsnr" v="310481" />
	</node>
	<node lat="60.55454721853659" lon="9.2956694370128" id="-31698">
		<tag k="name" v="Lusvatn" />
		<tag k="natural" v="water" />
		<tag k="ssr:stedsnr" v="310846" />
	</node>
	<node lat="60.530486111289036" lon="9.299925004533074" id="-31702">
		<tag k="name" v="Osetjerndipilen" />
		<tag k="natural" v="water" />
		<tag k="ssr:stedsnr" v="327220" />
	</node>
	<node lat="60.61007499821277" lon="8.96097222004518" id="-31703">
		<tag k="name" v="Grasvollan" />
		<tag k="natural" v="wetland" />
		<tag k="ssr:stedsnr" v="327922" />
	</node>
	<node lat="60.54566388845319" lon="9.3117055628204" id="-31704">
		<tag k="name" v="Blåfjelltjern" />
		<tag k="natural" v="water" />
		<tag k="ssr:stedsnr" v="327926" />
	</node>
	<node lat="60.533238888371265" lon="9.22893888547775" id="-31708">
		<tag k="name" v="Liabergvatnet" />
		<tag k="natural" v="water" />
		<tag k="ssr:stedsnr" v="328421" />
	</node>
	<node lat="60.49921944841492" lon="9.184166674774485" id="-31709">
		<tag k="fixme" v="consider natural=peak for the most distinct mountains in the district" />
		<tag k="name" v="Veslenatten" />
		<tag k="natural" v="hill" />
		<tag k="place" v="locality" />
		<tag k="ssr:stedsnr" v="328165" />
	</node>
	<node lat="60.469330556878575" lon="9.233058328575561" id="-31711">
		<tag k="alt_name" v="Nordre Sevre" />
		<tag k="name" v="Nørdre Sevre" />
		<tag k="place" v="farm" />
		<tag k="ssr:stedsnr" v="328761" />
	</node>
	<node lat="60.64761666534062" lon="9.047172220196154" id="-31714">
		<tag k="name" v="Svenkerud" />
		<tag k="place" v="farm" />
		<tag k="ssr:stedsnr" v="328808" />
	</node>
	<node lat="60.646549998358125" lon="8.866858332686673" id="-31718">
		<tag k="name" v="Efesus" />
		<tag k="natural" v="hill" />
		<tag k="place" v="locality" />
		<tag k="ssr:stedsnr" v="328974" />
	</node>
	<node lat="60.65590833770224" lon="8.887549996537425" id="-31719">
		<tag k="name" v="Ivarslitjern" />
		<tag k="natural" v="water" />
		<tag k="ssr:stedsnr" v="328977" />
	</node>
	<node lat="60.46500000327782" lon="9.00682500372622" id="-31721">
		<tag k="name" v="Gamlevollstjern" />
		<tag k="natural" v="water" />
		<tag k="ssr:stedsnr" v="329064" />
	</node>
	<node lat="60.618672219797126" lon="9.252036115108927" id="-31722">
		<tag k="name" v="Hattegrønhaugen" />
		<tag k="natural" v="hill" />
		<tag k="place" v="locality" />
		<tag k="ssr:stedsnr" v="329455" />
	</node>
	<node lat="60.59632222536069" lon="9.254999996369307" id="-31723">
		<tag k="name" v="Hestekrokløken" />
		<tag k="place" v="locality" />
		<tag k="ssr:stedsnr" v="329471" />
	</node>
	<node lat="60.48870555414687" lon="8.956461108270371" id="-31732">
		<tag k="name" v="Bardalhytta" />
		<tag k="place" v="isolated_dwelling" />
		<tag k="ssr:stedsnr" v="370304" />
	</node>
	<node lat="60.662600002883664" lon="9.212591668711909" id="-31734">
		<tag k="fixme" v="consider natural=peak for the most distinct mountains in the district" />
		<tag k="name" v="Vardefjell" />
		<tag k="natural" v="hill" />
		<tag k="place" v="locality" />
		<tag k="ssr:stedsnr" v="370316" />
	</node>
	<node lat="60.561688890422914" lon="8.862097229518561" id="-31739">
		<tag k="name" v="Belgefetløken" />
		<tag k="place" v="locality" />
		<tag k="ssr:stedsnr" v="370470" />
	</node>
	<node lat="60.574755557539454" lon="8.9264416684236" id="-31741">
		<tag k="historic" v="shieling" />
		<tag k="name" v="Fussestølen" />
		<tag k="place" v="isolated_dwelling" />
		<tag k="ssr:stedsnr" v="370475" />
	</node>
	<node lat="60.5119027740661" lon="8.939508338928423" id="-31750">
		<tag k="name" v="Storhalltjernet" />
		<tag k="natural" v="water" />
		<tag k="ssr:stedsnr" v="371502" />
	</node>
	<node lat="60.62839166724194" lon="9.119194436440566" id="-31752">
		<tag k="name" v="Lomtjernhytta" />
		<tag k="place" v="isolated_dwelling" />
		<tag k="ssr:stedsnr" v="371465" />
	</node>
	<node lat="60.62136666466106" lon="9.020883337496716" id="-31753">
		<tag k="name" v="Brabantbekken" />
		<tag k="ssr:stedsnr" v="371471" />
		<tag k="waterway" v="stream" />
	</node>
	<node lat="60.50457222640784" lon="9.238502774785664" id="-31761">
		<tag k="name" v="Baklie" />
		<tag k="natural" v="slope" />
		<tag k="place" v="locality" />
		<tag k="ssr:stedsnr" v="388742" />
	</node>
	<node lat="60.63502500072789" lon="9.0110583293737" id="-31762">
		<tag k="name" v="Sagbakkan" />
		<tag k="natural" v="slope" />
		<tag k="place" v="locality" />
		<tag k="ssr:stedsnr" v="388753" />
	</node>
	<node lat="60.4712416696686" lon="8.94947221705201" id="-31764">
		<tag k="name" v="Åkerfjellvatn" />
		<tag k="natural" v="water" />
		<tag k="ssr:stedsnr" v="388859" />
		<tag k="water" v="lake" />
	</node>
	<node lat="60.54082499690033" lon="9.177044444491449" id="-31765">
		<tag k="name" v="Loppetjern" />
		<tag k="natural" v="water" />
		<tag k="ssr:stedsnr" v="388950" />
	</node>
	<node lat="60.47946111079833" lon="9.23858888031634" id="-31776">
		<tag k="name" v="Mobekken" />
		<tag k="ssr:stedsnr" v="389619" />
		<tag k="waterway" v="stream" />
	</node>
	<node lat="60.46348682618042" lon="9.25511151610495" id="-31778">
		<tag k="name" v="Rauk" />
		<tag k="place" v="farm" />
		<tag k="ssr:stedsnr" v="389862" />
	</node>
	<node lat="60.51904166953913" lon="8.908005547393435" id="-31794">
		<tag k="alt_name" v="Grårova Nedre" />
		<tag k="bridge" v="yes" />
		<tag k="layer" v="1" />
		<tag k="name" v="Nedre Grårova" />
		<tag k="ssr:stedsnr" v="410803" />
	</node>
	<node lat="60.46242499789758" lon="9.099777781768177" id="-31800">
		<tag k="name" v="Haugatjern" />
		<tag k="natural" v="water" />
		<tag k="ssr:stedsnr" v="491297" />
	</node>
	<node lat="60.443049999974356" lon="9.06492500843709" id="-31801">
		<tag k="name" v="Vargnatten" />
		<tag k="natural" v="hill" />
		<tag k="place" v="locality" />
		<tag k="ssr:stedsnr" v="491318" />
	</node>
	<node lat="60.652927781138466" lon="9.110599996584554" id="-31802">
		<tag k="name" v="Fesheimfjorden" />
		<tag k="natural" v="water" />
		<tag k="ssr:stedsnr" v="431304" />
	</node>
	<node lat="60.45038333608143" lon="9.15364999699585" id="-31804">
		<tag k="name" v="Tjørnset" />
		<tag k="place" v="isolated_dwelling" />
		<tag k="ssr:stedsnr" v="431347" />
	</node>
	<node lat="60.4826916691538" lon="9.255405548611314" id="-31805">
		<tag k="name" v="Finnesetbekken" />
		<tag k="ssr:stedsnr" v="431350" />
		<tag k="waterway" v="stream" />
	</node>
	<node lat="60.530636107197154" lon="9.18705555949265" id="-31807">
		<tag k="name" v="Djupedal" />
		<tag k="place" v="farm" />
		<tag k="ssr:stedsnr" v="431638" />
	</node>
	<node lat="60.485855558934915" lon="9.19140277877253" id="-31809">
		<tag k="fixme" v="multiple name tags, choose one and add the other to alt_name" />
		<tag k="name" v="Børtnes;Sørgarden" />
		<tag k="old_name" v="Børtnes søndre" />
		<tag k="place" v="farm" />
		<tag k="ssr:stedsnr" v="491271" />
	</node>
	<node lat="60.47237499901227" lon="9.232824992341056" id="-31810">
		<tag k="name" v="Bergshagen" />
		<tag k="place" v="farm" />
		<tag k="ssr:stedsnr" v="491369" />
	</node>
	<node lat="60.502080559949015" lon="9.168886116153898" id="-31816">
		<tag k="name" v="Sanden" />
		<tag k="place" v="farm" />
		<tag k="ssr:stedsnr" v="492473" />
	</node>
	<node lat="60.50598055560163" lon="9.137211103311094" id="-31822">
		<tag k="name" v="Gire" />
		<tag k="place" v="farm" />
		<tag k="ssr:stedsnr" v="492493" />
	</node>
	<node lat="60.51728888967866" lon="8.900863882727318" id="-31824">
		<tag k="alt_name" v="Skreddarstølan" />
		<tag k="historic" v="shieling" />
		<tag k="name" v="Skreddarstølen" />
		<tag k="place" v="isolated_dwelling" />
		<tag k="ssr:stedsnr" v="492554" />
	</node>
	<node lat="60.522099995850695" lon="8.877386106871581" id="-31825">
		<tag k="fixme" v="consider natural=peak for the most distinct mountains in the district" />
		<tag k="name" v="Grytåsen" />
		<tag k="natural" v="hill" />
		<tag k="place" v="locality" />
		<tag k="ssr:stedsnr" v="492557" />
	</node>
	<node lat="60.52183889276177" lon="8.981502771064411" id="-31827">
		<tag k="name" v="Kulusetbekken" />
		<tag k="ssr:stedsnr" v="492561" />
		<tag k="waterway" v="stream" />
	</node>
	<node lat="60.53231666675417" lon="9.333113894203724" id="-31831">
		<tag k="name" v="Ormevatnet" />
		<tag k="natural" v="water" />
		<tag k="ssr:stedsnr" v="492745" />
	</node>
	<node lat="60.501405557875984" lon="8.822377780690655" id="-31834">
		<tag k="name" v="Lyseren" />
		<tag k="place" v="hamlet" />
		<tag k="ssr:stedsnr" v="492890" />
	</node>
	<node lat="60.527008331225005" lon="9.310827773590232" id="-31835">
		<tag k="name" v="Løken" />
		<tag k="natural" v="water" />
		<tag k="ssr:stedsnr" v="449229" />
	</node>
	<node lat="60.571291666897956" lon="9.035775002544012" id="-31837">
		<tag k="name" v="Storebråten" />
		<tag k="place" v="farm" />
		<tag k="ssr:stedsnr" v="449624" />
	</node>
	<node lat="60.62205833764273" lon="9.26136944207202" id="-31845">
		<tag k="name" v="Puttemyran" />
		<tag k="natural" v="wetland" />
		<tag k="ssr:stedsnr" v="450472" />
	</node>
	<node lat="60.559152775569025" lon="8.87397222838814" id="-31849">
		<tag k="name" v="Belgefet" />
		<tag k="place" v="hamlet" />
		<tag k="ssr:stedsnr" v="450810" />
	</node>
	<node lat="60.44831111052389" lon="9.007469451837963" id="-31852">
		<tag k="name" v="Søre Småvatn" />
		<tag k="natural" v="water" />
		<tag k="ssr:stedsnr" v="451007" />
	</node>
	<node lat="60.466936114514574" lon="9.244313885419336" id="-31857">
		<tag k="name" v="Søre Sevre" />
		<tag k="place" v="farm" />
		<tag k="ssr:stedsnr" v="673379" />
	</node>
	<node lat="60.55021389002289" lon="8.746663891757201" id="-31860">
		<tag k="fixme" v="consider natural=peak for the most distinct mountains in the district" />
		<tag k="name" v="Holmevassnatten" />
		<tag k="natural" v="hill" />
		<tag k="place" v="locality" />
		<tag k="ssr:stedsnr" v="674234" />
	</node>
	<node lat="60.5615888912793" lon="9.109672217730717" id="-31863">
		<tag k="name" v="Majormoen" />
		<tag k="place" v="farm" />
		<tag k="ssr:stedsnr" v="674365" />
	</node>
	<node lat="60.56463055963148" lon="9.05869444273315" id="-31865">
		<tag k="name" v="Valdresbråten" />
		<tag k="place" v="farm" />
		<tag k="ssr:stedsnr" v="674373" />
	</node>
	<node lat="60.55200555414134" lon="8.910700001698656" id="-31866">
		<tag k="fixme" v="consider natural=peak for the most distinct mountains in the district" />
		<tag k="name" v="Syningen" />
		<tag k="natural" v="hill" />
		<tag k="place" v="locality" />
		<tag k="ssr:stedsnr" v="674379" />
	</node>
	<node lat="60.557633335249335" lon="8.937502772868049" id="-31867">
		<tag k="historic" v="shieling" />
		<tag k="name" v="Stigen" />
		<tag k="place" v="isolated_dwelling" />
		<tag k="ssr:stedsnr" v="674380" />
	</node>
	<node lat="60.51191388918791" lon="9.178852772880253" id="-31872">
		<tag k="name" v="Haugo" />
		<tag k="place" v="farm" />
		<tag k="ssr:stedsnr" v="674525" />
	</node>
	<node lat="60.647263889842904" lon="9.042863887034816" id="-31874">
		<tag k="name" v="Maribråten" />
		<tag k="place" v="farm" />
		<tag k="ssr:stedsnr" v="674474" />
	</node>
	<node lat="60.54576666921957" lon="8.910166664724732" id="-31879">
		<tag k="name" v="Saupeset" />
		<tag k="place" v="neighbourhood" />
		<tag k="ssr:stedsnr" v="674583" />
	</node>
	<node lat="60.598711476393454" lon="9.272218478109448" id="-31880">
		<tag k="name" v="Gampetjern" />
		<tag k="natural" v="water" />
		<tag k="ssr:stedsnr" v="674678" />
	</node>
	<node lat="60.63009296251165" lon="9.2881439043393" id="-31882">
		<tag k="name" v="Fisketjern" />
		<tag k="natural" v="water" />
		<tag k="ssr:stedsnr" v="674631" />
	</node>
	<node lat="60.53753611176167" lon="8.780244450175537" id="-31884">
		<tag k="name" v="Nilsebu" />
		<tag k="place" v="isolated_dwelling" />
		<tag k="ssr:stedsnr" v="466217" />
	</node>
	<node lat="60.602300002986766" lon="8.918225007778968" id="-31886">
		<tag k="name" v="Vesleausa" />
		<tag k="natural" v="water" />
		<tag k="ssr:stedsnr" v="675486" />
	</node>
	<node lat="60.52608889157899" lon="8.913552779517385" id="-31887">
		<tag k="name" v="Åmellom" />
		<tag k="place" v="farm" />
		<tag k="ssr:stedsnr" v="675631" />
	</node>
	<node lat="60.473738887147576" lon="9.078024992393708" id="-31894">
		<tag k="name" v="Brisketjern" />
		<tag k="natural" v="water" />
		<tag k="ssr:stedsnr" v="491316" />
	</node>
	<node lat="60.45944999778495" lon="9.054805561291472" id="-31895">
		<tag k="name" v="Ørnenatten" />
		<tag k="natural" v="hill" />
		<tag k="place" v="locality" />
		<tag k="ssr:stedsnr" v="491323" />
	</node>
	<node lat="60.48021135451918" lon="9.144422909037335" id="-31898">
		<tag k="name" v="Nordhagahaugen" />
		<tag k="place" v="farm" />
		<tag k="ssr:stedsnr" v="491278" />
	</node>
	<node lat="60.48345277534471" lon="8.921724997158803" id="-31899">
		<tag k="name" v="Nedre Grågalttjern" />
		<tag k="natural" v="water" />
		<tag k="ssr:stedsnr" v="491280" />
	</node>
	<node lat="60.57257500151022" lon="8.76834443692871" id="-31900">
		<tag k="name" v="Reisehaugen" />
		<tag k="natural" v="hill" />
		<tag k="place" v="locality" />
		<tag k="ssr:stedsnr" v="492004" />
	</node>
	<node lat="60.61319166273272" lon="9.063094436768246" id="-31904">
		<tag k="alt_name" v="Smedsgården hotell;Smedsgården" />
		<tag k="name" v="Smedsgården Pensjonat" />
		<tag k="ssr:stedsnr" v="492422" />
		<tag k="tourism" v="guest_house" />
	</node>
	<node lat="60.60491666621416" lon="9.1492249975518" id="-31905">
		<tag k="name" v="Todalen" />
		<tag k="natural" v="valley" />
		<tag k="place" v="locality" />
		<tag k="ssr:stedsnr" v="492428" />
	</node>
	<node lat="60.58540000023003" lon="9.022155554498442" id="-31909">
		<tag k="name" v="Damtjern" />
		<tag k="natural" v="water" />
		<tag k="ssr:stedsnr" v="492388" />
	</node>
	<node lat="60.625413886521656" lon="9.221208335794913" id="-31913">
		<tag k="historic" v="shieling" />
		<tag k="name" v="Tjernset" />
		<tag k="place" v="isolated_dwelling" />
		<tag k="ssr:stedsnr" v="492606" />
	</node>
	<node lat="60.52813333112598" lon="9.190938885622721" id="-31921">
		<tag k="name" v="Fluto" />
		<tag k="place" v="farm" />
		<tag k="ssr:stedsnr" v="492585" />
	</node>
	<node lat="60.5649833328863" lon="9.022425001227663" id="-31922">
		<tag k="name" v="Smette" />
		<tag k="place" v="farm" />
		<tag k="ssr:stedsnr" v="509182" />
	</node>
	<node lat="60.50775555144797" lon="8.701877777903091" id="-31925">
		<tag k="name" v="Rommeleine" />
		<tag k="natural" v="slope" />
		<tag k="place" v="locality" />
		<tag k="ssr:stedsnr" v="510037" />
	</node>
	<node lat="60.60866110804611" lon="9.21735277041245" id="-31931">
		<tag k="fixme" v="consider natural=peak for the most distinct mountains in the district" />
		<tag k="name" v="Heimdalshøgde" />
		<tag k="natural" v="hill" />
		<tag k="place" v="locality" />
		<tag k="ssr:stedsnr" v="511449" />
	</node>
	<node lat="60.614480556477496" lon="9.228441660901607" id="-31932">
		<tag k="name" v="Kåpestakkmyre" />
		<tag k="natural" v="wetland" />
		<tag k="ssr:stedsnr" v="511450" />
	</node>
	<node lat="60.62190833570864" lon="9.236066675055286" id="-31933">
		<tag k="name" v="Kvilarslette" />
		<tag k="place" v="locality" />
		<tag k="ssr:stedsnr" v="511452" />
	</node>
	<node lat="60.61691111345004" lon="9.227225005803513" id="-31934">
		<tag k="name" v="Bekkedalsmyre" />
		<tag k="natural" v="wetland" />
		<tag k="ssr:stedsnr" v="511453" />
	</node>
	<node lat="60.485041665292094" lon="9.19072499160199" id="-31935">
		<tag k="name" v="Søgardsbekken" />
		<tag k="ssr:stedsnr" v="513171" />
		<tag k="waterway" v="stream" />
	</node>
	<node lat="60.56085278072852" lon="9.287063885519991" id="-31936">
		<tag k="name" v="Dypilen" />
		<tag k="place" v="neighbourhood" />
		<tag k="ssr:stedsnr" v="527412" />
	</node>
	<node lat="60.5277666679721" lon="8.916702778181858" id="-31937">
		<tag k="bridge" v="yes" />
		<tag k="layer" v="1" />
		<tag k="name" v="Rukke" />
		<tag k="ssr:stedsnr" v="532802" />
	</node>
	<node lat="60.65053611502037" lon="9.158213880741739" id="-31948">
		<tag k="name" v="Haratjernet" />
		<tag k="natural" v="water" />
		<tag k="ssr:stedsnr" v="552311" />
	</node>
	<node lat="60.656925004027585" lon="9.174888880630848" id="-31949">
		<tag k="name" v="Fiskebekken" />
		<tag k="ssr:stedsnr" v="552315" />
		<tag k="waterway" v="river" />
	</node>
	<node lat="60.648619447733985" lon="8.998444449441969" id="-31950">
		<tag k="name" v="Branden" />
		<tag k="natural" v="slope" />
		<tag k="place" v="locality" />
		<tag k="ssr:stedsnr" v="552318" />
	</node>
	<node lat="60.466249996849484" lon="8.971986108891873" id="-31952">
		<tag k="name" v="Kringletjern" />
		<tag k="natural" v="water" />
		<tag k="ssr:stedsnr" v="552324" />
	</node>
	<node lat="60.53041388805147" lon="8.83705000413291" id="-31955">
		<tag k="name" v="Stryktjernet" />
		<tag k="natural" v="water" />
		<tag k="ssr:stedsnr" v="553200" />
	</node>
	<node lat="60.50107777838437" lon="9.192800000980208" id="-31958">
		<tag k="fixme" v="consider natural=peak for the most distinct mountains in the district" />
		<tag k="name" v="Benterudnatten" />
		<tag k="natural" v="hill" />
		<tag k="place" v="locality" />
		<tag k="ssr:stedsnr" v="553508" />
	</node>
	<node lat="60.60058055928053" lon="9.39873333223116" id="-31962">
		<tag k="name" v="Trytetjern" />
		<tag k="natural" v="water" />
		<tag k="ssr:stedsnr" v="553678" />
	</node>
	<node lat="60.533708335184656" lon="9.30347777818304" id="-31965">
		<tag k="name" v="Svartetjern" />
		<tag k="natural" v="water" />
		<tag k="ssr:stedsnr" v="553884" />
	</node>
	<node lat="60.50413333561436" lon="9.290466664157337" id="-31966">
		<tag k="name" v="Geitsundbekken" />
		<tag k="ssr:stedsnr" v="691852" />
		<tag k="waterway" v="stream" />
	</node>
	<node lat="60.53068055936277" lon="8.700874996174916" id="-31967">
		<tag k="name" v="Olsetløken" />
		<tag k="place" v="locality" />
		<tag k="ssr:stedsnr" v="692035" />
	</node>
	<node lat="60.555597223482636" lon="9.131850001468848" id="-31972">
		<tag k="name" v="Plassen" />
		<tag k="place" v="farm" />
		<tag k="ssr:stedsnr" v="692062" />
	</node>
	<node lat="60.46196389009825" lon="9.212011115988489" id="-31974">
		<tag k="name" v="Juvin" />
		<tag k="natural" v="gorge" />
		<tag k="ssr:stedsnr" v="692561" />
	</node>
	<node lat="60.541447221886216" lon="9.006113892258016" id="-31975">
		<tag k="name" v="Jonsejuvet" />
		<tag k="natural" v="gorge" />
		<tag k="ssr:stedsnr" v="692631" />
	</node>
	<node lat="60.45336389275405" lon="9.041891663119982" id="-31976">
		<tag k="name" v="Ørnenattjern" />
		<tag k="natural" v="water" />
		<tag k="ssr:stedsnr" v="693031" />
	</node>
	<node lat="60.524172219876995" lon="8.985661116583389" id="-31979">
		<tag k="bridge" v="yes" />
		<tag k="layer" v="1" />
		<tag k="name" v="Sollivadet" />
		<tag k="ssr:stedsnr" v="570604" />
	</node>
	<node lat="60.563086112699416" lon="9.023427771094333" id="-31983">
		<tag k="name" v="Eidal" />
		<tag k="place" v="farm" />
		<tag k="ssr:stedsnr" v="571126" />
	</node>
	<node lat="60.48544444800722" lon="9.188811104947023" id="-31986">
		<tag k="name" v="Lauvli" />
		<tag k="place" v="isolated_dwelling" />
		<tag k="ssr:stedsnr" v="571153" />
	</node>
	<node lat="60.592511025487774" lon="9.237266471145016" id="-31991">
		<tag k="bridge" v="yes" />
		<tag k="layer" v="1" />
		<tag k="loc_name" v="Brøsetbrue" />
		<tag k="name" v="Brøtsetbrua" />
		<tag k="ssr:stedsnr" v="571470" />
	</node>
	<node lat="60.4578694453791" lon="9.192805558140776" id="-31992">
		<tag k="name" v="Setra" />
		<tag k="place" v="locality" />
		<tag k="ssr:stedsnr" v="693742" />
	</node>
	<node lat="60.46236388608455" lon="9.197952776423621" id="-31993">
		<tag k="name" v="Kølbrøten" />
		<tag k="place" v="locality" />
		<tag k="ssr:stedsnr" v="571686" />
	</node>
	<node lat="60.49529167068511" lon="9.178788887171443" id="-31995">
		<tag k="fixme" v="multiple name tags, choose one and add the other to alt_name" />
		<tag k="name" v="Hovdeengen;Engen" />
		<tag k="old_name" v="Hofdeengen" />
		<tag k="place" v="farm" />
		<tag k="ssr:stedsnr" v="571696" />
	</node>
	<node lat="60.43896111165384" lon="9.204308326585723" id="-31997">
		<tag k="name" v="Kjeltjern" />
		<tag k="natural" v="water" />
		<tag k="ssr:stedsnr" v="571918" />
	</node>
	<node lat="60.562586111795014" lon="8.99578054684887" id="-32001">
		<tag k="bridge" v="yes" />
		<tag k="layer" v="1" />
		<tag k="name" v="Skjervåni" />
		<tag k="ssr:stedsnr" v="592857" />
	</node>
	<node lat="60.485212264877795" lon="9.20542420480292" id="-32010">
		<tag k="fixme" v="consider place=hamlet" />
		<tag k="name" v="Islandsrud" />
		<tag k="place" v="farm" />
		<tag k="ssr:stedsnr" v="612283" />
	</node>
	<node lat="60.48477500048326" lon="9.128775000416436" id="-32011">
		<tag k="name" v="Skrivarnatten" />
		<tag k="natural" v="hill" />
		<tag k="place" v="locality" />
		<tag k="ssr:stedsnr" v="612285" />
	</node>
	<node lat="60.47993055192057" lon="9.09807500764965" id="-32012">
		<tag k="name" v="Purkeset" />
		<tag k="place" v="isolated_dwelling" />
		<tag k="ssr:stedsnr" v="612287" />
	</node>
	<node lat="60.47704166698467" lon="9.288252779411284" id="-32018">
		<tag k="fixme" v="consider natural=peak for the most distinct mountains in the district" />
		<tag k="name" v="Kleivåsen" />
		<tag k="natural" v="hill" />
		<tag k="place" v="locality" />
		<tag k="ssr:stedsnr" v="612381" />
	</node>
	<node lat="60.5290638902369" lon="8.729738896750398" id="-32022">
		<tag k="historic" v="shieling" />
		<tag k="name" v="Olfisken" />
		<tag k="old_name" v="Orfisklien St" />
		<tag k="place" v="isolated_dwelling" />
		<tag k="ssr:stedsnr" v="613215" />
	</node>
	<node lat="60.532549997320736" lon="8.762969447447139" id="-32023">
		<tag k="name" v="Grønhovd" />
		<tag k="place" v="hamlet" />
		<tag k="ssr:stedsnr" v="613216" />
	</node>
	<node lat="60.5560100521262" lon="8.947943498317718" id="-32024">
		<tag k="fixme" v="consider place=hamlet" />
		<tag k="name" v="Gudbrandsrud" />
		<tag k="place" v="farm" />
		<tag k="ssr:stedsnr" v="613413" />
	</node>
	<node lat="60.579361109279205" lon="9.043227778785427" id="-32025">
		<tag k="fixme" v="consider natural=peak for the most distinct mountains in the district" />
		<tag k="name" v="Espesetåsen" />
		<tag k="natural" v="hill" />
		<tag k="place" v="locality" />
		<tag k="ssr:stedsnr" v="613425" />
	</node>
	<node lat="60.63293333445422" lon="9.070591675577072" id="-32026">
		<tag k="alt_name" v="Haugen" />
		<tag k="name" v="Nedre Haugen" />
		<tag k="place" v="farm" />
		<tag k="ssr:stedsnr" v="613485" />
	</node>
	<node lat="60.51486944016491" lon="8.959186116280279" id="-32032">
		<tag k="historic" v="shieling" />
		<tag k="name" v="Nystølen" />
		<tag k="place" v="isolated_dwelling" />
		<tag k="ssr:stedsnr" v="613583" />
	</node>
	<node lat="60.56073889059895" lon="9.280222224073594" id="-32034">
		<tag k="name" v="Krøren" />
		<tag k="natural" v="water" />
		<tag k="ssr:stedsnr" v="613835" />
	</node>
	<node lat="60.536652938699845" lon="9.235491067186015" id="-32036">
		<tag k="name" v="Liavatnet" />
		<tag k="natural" v="water" />
		<tag k="ssr:stedsnr" v="613873" />
		<tag k="water" v="lake" />
	</node>
	<node lat="60.58966666883284" lon="9.166866670455564" id="-32037">
		<tag k="name" v="Svartepytt" />
		<tag k="place" v="locality" />
		<tag k="ssr:stedsnr" v="630838" />
	</node>
	<node lat="60.56088333386862" lon="9.289602780723971" id="-32038">
		<tag k="name" v="Vesledypilen" />
		<tag k="natural" v="water" />
		<tag k="ssr:stedsnr" v="630932" />
	</node>
	<node lat="60.56243183816771" lon="9.008897425604134" id="-32039">
		<tag k="name" v="Jørnengen" />
		<tag k="place" v="locality" />
		<tag k="ssr:stedsnr" v="631105" />
	</node>
	<node lat="60.57036666586745" lon="9.098013889858537" id="-32040">
		<tag k="name" v="Bruvollen" />
		<tag k="place" v="farm" />
		<tag k="ssr:stedsnr" v="631083" />
	</node>
	<node lat="60.47211388553071" lon="9.24896111883248" id="-32044">
		<tag k="landuse" v="meadow" />
		<tag k="name" v="Bergsengene" />
		<tag k="ssr:stedsnr" v="631907" />
	</node>
	<node lat="60.47058333302117" lon="9.23844722448868" id="-32045">
		<tag k="name" v="Sevrefossen" />
		<tag k="natural" v="waterfall" />
		<tag k="ssr:stedsnr" v="631908" />
	</node>
	<node lat="60.64528610716792" lon="8.971119439950282" id="-32047">
		<tag k="name" v="Ospehallene" />
		<tag k="natural" v="slope" />
		<tag k="place" v="locality" />
		<tag k="ssr:stedsnr" v="631983" />
	</node>
	<node lat="60.45072499960676" lon="9.168536106546913" id="-32050">
		<tag k="name" v="Kastet" />
		<tag k="natural" v="slope" />
		<tag k="place" v="locality" />
		<tag k="ssr:stedsnr" v="632507" />
	</node>
	<node lat="60.450861112436606" lon="9.14964444819281" id="-32051">
		<tag k="name" v="Stupet" />
		<tag k="natural" v="cliff" />
		<tag k="ssr:stedsnr" v="632511" />
	</node>
	<node lat="60.473530558814126" lon="9.191466669690536" id="-32054">
		<tag k="name" v="Teigen" />
		<tag k="place" v="farm" />
		<tag k="ssr:stedsnr" v="632704" />
	</node>
	<node lat="60.47361111125281" lon="9.223741658349555" id="-32055">
		<tag k="name" v="Kjerringvikje" />
		<tag k="natural" v="bay" />
		<tag k="ssr:stedsnr" v="632883" />
	</node>
	<node lat="60.454213892855094" lon="9.144088881816089" id="-32072">
		<tag k="fixme" v="consider natural=peak for the most distinct mountains in the district" />
		<tag k="name" v="Darren" />
		<tag k="natural" v="hill" />
		<tag k="place" v="locality" />
		<tag k="ssr:stedsnr" v="673327" />
	</node>
	<node lat="60.47840000357384" lon="9.241349991646668" id="-32074">
		<tag k="name" v="Torgerhus" />
		<tag k="place" v="farm" />
		<tag k="ssr:stedsnr" v="673367" />
	</node>
	<node lat="60.502822226460175" lon="9.17853888932389" id="-32078">
		<tag k="name" v="Sundet" />
		<tag k="place" v="farm" />
		<tag k="ssr:stedsnr" v="674510" />
	</node>
	<node lat="60.529030558606536" lon="9.179847213445324" id="-32080">
		<tag k="name" v="Bråten" />
		<tag k="place" v="farm" />
		<tag k="ssr:stedsnr" v="674619" />
	</node>
	<node lat="60.69223333023164" lon="9.270508325378131" id="-32087">
		<tag k="name" v="Andsjøen" />
		<tag k="natural" v="water" />
		<tag k="ssr:stedsnr" v="674718" />
	</node>
	<node lat="60.5295361141778" lon="9.236766666750942" id="-32089">
		<tag k="fixme" v="consider natural=peak for the most distinct mountains in the district" />
		<tag k="name" v="Liafjell" />
		<tag k="natural" v="hill" />
		<tag k="place" v="locality" />
		<tag k="ssr:stedsnr" v="674865" />
	</node>
	<node lat="60.570061107649444" lon="9.39311944357076" id="-32090">
		<tag k="fixme" v="consider natural=peak for the most distinct mountains in the district" />
		<tag k="name" v="Bringen" />
		<tag k="natural" v="hill" />
		<tag k="place" v="locality" />
		<tag k="ssr:stedsnr" v="675845" />
	</node>
	<node lat="60.66678055381175" lon="9.350016659506844" id="-32091">
		<tag k="name" v="Bergatjern" />
		<tag k="natural" v="water" />
		<tag k="ssr:stedsnr" v="675757" />
	</node>
	<node lat="60.62446944057936" lon="8.905049999196745" id="-32094">
		<tag k="name" v="Sollinatten" />
		<tag k="natural" v="ridge" />
		<tag k="place" v="locality" />
		<tag k="ssr:stedsnr" v="691890" />
	</node>
	<node lat="60.577922721230465" lon="9.108816150875697" id="-32096">
		<tag k="fixme" v="consider place=hamlet" />
		<tag k="name" v="Bæken" />
		<tag k="place" v="farm" />
		<tag k="ssr:stedsnr" v="692077" />
	</node>
	<node lat="60.56909722517826" lon="9.120397219143493" id="-32097">
		<tag k="name" v="Brattestø" />
		<tag k="place" v="farm" />
		<tag k="ssr:stedsnr" v="692080" />
	</node>
	<node lat="60.632141662946026" lon="9.047441662399182" id="-32098">
		<tag k="name" v="Oldebråten" />
		<tag k="place" v="locality" />
		<tag k="ssr:stedsnr" v="691986" />
	</node>
	<node lat="60.484541667790175" lon="9.19836388715424" id="-32101">
		<tag k="name" v="Bakko" />
		<tag k="place" v="locality" />
		<tag k="ssr:stedsnr" v="692721" />
	</node>
	<node lat="60.59182500127273" lon="9.237177774547375" id="-32103">
		<tag k="name" v="Ormetjern" />
		<tag k="natural" v="water" />
		<tag k="ssr:stedsnr" v="693490" />
	</node>
	<node lat="60.4553118440126" lon="9.17943982405916" id="-32104">
		<tag k="historic" v="shieling" />
		<tag k="name" v="Sverigseter" />
		<tag k="place" v="isolated_dwelling" />
		<tag k="ssr:stedsnr" v="693726" />
	</node>
	<node lat="60.47473611539046" lon="9.227880557284454" id="-32105">
		<tag k="name" v="Bukkøynan" />
		<tag k="place" v="island" />
		<tag k="ssr:stedsnr" v="693881" />
	</node>
	<node lat="60.43176944362596" lon="9.224922218011232" id="-32108">
		<tag k="name" v="Nybuseter" />
		<tag k="place" v="locality" />
		<tag k="ssr:stedsnr" v="693917" />
	</node>
	<node lat="60.57231110814028" lon="9.112177786834856" id="-32110">
		<tag k="bridge" v="yes" />
		<tag k="layer" v="1" />
		<tag k="name" v="Nesbyen" />
		<tag k="ssr:stedsnr" v="896840" />
	</node>
	<node lat="60.481466665429366" lon="8.806013890043713" id="-32111">
		<tag k="bridge" v="yes" />
		<tag k="layer" v="1" />
		<tag k="name" v="Krafsebekk" />
		<tag k="ssr:stedsnr" v="896842" />
	</node>
	<node lat="60.50020833386276" lon="8.875969444950053" id="-32112">
		<tag k="bridge" v="yes" />
		<tag k="layer" v="1" />
		<tag k="name" v="Synstevann" />
		<tag k="ssr:stedsnr" v="714804" />
	</node>
	<node lat="60.55519166408734" lon="8.782241662391849" id="-32113">
		<tag k="alt_name" v="Skårsrudstølen" />
		<tag k="historic" v="shieling" />
		<tag k="name" v="Skålsrudstølen" />
		<tag k="place" v="isolated_dwelling" />
		<tag k="ssr:stedsnr" v="726291" />
	</node>
	<node lat="60.45106110894301" lon="9.056627782607109" id="-32120">
		<tag k="name" v="Steintjern" />
		<tag k="natural" v="water" />
		<tag k="ssr:stedsnr" v="734339" />
	</node>
	<node lat="60.55065000224492" lon="8.833922214362723" id="-32124">
		<tag k="alt_name" v="Skårsrudbekken" />
		<tag k="name" v="Skålsrudbekken" />
		<tag k="old_name" v="Skaarsrudbekken;Skaalsrud Aae" />
		<tag k="ssr:stedsnr" v="735233" />
		<tag k="waterway" v="river" />
	</node>
	<node lat="60.548788892574215" lon="9.047661103463808" id="-32125">
		<tag k="name" v="Dugurdsnatten" />
		<tag k="natural" v="hill" />
		<tag k="place" v="locality" />
		<tag k="ssr:stedsnr" v="735388" />
	</node>
	<node lat="60.57938333586818" lon="9.100399995215072" id="-32128">
		<tag k="name" v="Myrefjorden" />
		<tag k="natural" v="water" />
		<tag k="ssr:stedsnr" v="735422" />
	</node>
	<node lat="60.57420278197084" lon="8.949586109123095" id="-32129">
		<tag k="name" v="Slåtta" />
		<tag k="place" v="isolated_dwelling" />
		<tag k="ssr:stedsnr" v="735424" />
	</node>
	<node lat="60.66394444108571" lon="9.30252500361347" id="-32137">
		<tag k="name" v="Engene fjellstue" />
		<tag k="ssr:stedsnr" v="735722" />
		<tag k="tourism" v="hotel" />
	</node>
	<node lat="60.53446111283045" lon="9.489466660120629" id="-32142">
		<tag k="name" v="Vassfaret" />
		<tag k="natural" v="valley" />
		<tag k="place" v="locality" />
		<tag k="ssr:stedsnr" v="735876" />
	</node>
	<node lat="60.670619447399346" lon="9.248622224619762" id="-32143">
		<tag k="name" v="Mortenstjern" />
		<tag k="natural" v="water" />
		<tag k="ssr:stedsnr" v="752904" />
	</node>
	<node lat="60.589133334912134" lon="9.402280558861678" id="-32144">
		<tag k="historic" v="shieling" />
		<tag k="name" v="Heimensetran" />
		<tag k="place" v="locality" />
		<tag k="ssr:stedsnr" v="752661" />
	</node>
	<node lat="60.56148055140731" lon="8.779622215258783" id="-32145">
		<tag k="name" v="Ausebekken" />
		<tag k="ssr:stedsnr" v="752876" />
		<tag k="waterway" v="stream" />
	</node>
	<node lat="60.66447500433559" lon="8.989244443894023" id="-32155">
		<tag k="name" v="Djupedalan" />
		<tag k="natural" v="valley" />
		<tag k="place" v="locality" />
		<tag k="ssr:stedsnr" v="753971" />
	</node>
	<node lat="60.47400000079419" lon="9.274847227257089" id="-32156">
		<tag k="name" v="Ospelund" />
		<tag k="natural" v="slope" />
		<tag k="place" v="locality" />
		<tag k="ssr:stedsnr" v="753864" />
	</node>
	<node lat="60.58197221954467" lon="9.10889721873123" id="-32158">
		<tag k="name" v="Østenforskogen" />
		<tag k="place" v="quarter" />
		<tag k="ssr:stedsnr" v="769417" />
	</node>
	<node lat="60.63120833489601" lon="8.84336110217146" id="-32165">
		<tag k="loc_name" v="Storhøgde" />
		<tag k="name" v="Storhøgda" />
		<tag k="natural" v="hill" />
		<tag k="place" v="locality" />
		<tag k="ssr:stedsnr" v="783048" />
	</node>
	<node lat="60.5373583368902" lon="9.321558339488213" id="-32171">
		<tag k="alt_name" v="Grårovun" />
		<tag k="fixme" v="multiple name tags, choose one and add the other to alt_name" />
		<tag k="name" v="Grårova;Grårovetjern" />
		<tag k="natural" v="water" />
		<tag k="ssr:stedsnr" v="787794" />
	</node>
	<node lat="60.57143055224863" lon="9.133252777475386" id="-32173">
		<tag k="name" v="Dalen" />
		<tag k="place" v="farm" />
		<tag k="ssr:stedsnr" v="795483" />
	</node>
	<node lat="60.641774995972085" lon="9.340202780183558" id="-32175">
		<tag k="fixme" v="consider natural=peak for the most distinct mountains in the district" />
		<tag k="name" v="Sløåsen" />
		<tag k="natural" v="hill" />
		<tag k="place" v="locality" />
		<tag k="ssr:stedsnr" v="795677" />
	</node>
	<node lat="60.52411385493019" lon="8.731322657265062" id="-32177">
		<tag k="name" v="Olfisken" />
		<tag k="natural" v="water" />
		<tag k="old_name" v="Orfisken" />
		<tag k="ssr:stedsnr" v="796214" />
		<tag k="water" v="lake" />
	</node>
	<node lat="60.55120698355708" lon="8.935908359293638" id="-32179">
		<tag k="historic" v="shieling" />
		<tag k="name" v="Nystølen" />
		<tag k="place" v="locality" />
		<tag k="ssr:stedsnr" v="796405" />
	</node>
	<node lat="60.49520555325357" lon="8.736922213194685" id="-32186">
		<tag k="alt_name" v="Langevatn;Langetjørm" />
		<tag k="name" v="Langevatnet" />
		<tag k="natural" v="water" />
		<tag k="ssr:stedsnr" v="916037" />
		<tag k="water" v="lake" />
	</node>
	<node lat="60.45091388950662" lon="9.108124998490807" id="-32192">
		<tag k="name" v="Lauvtangen" />
		<tag k="natural" v="cape" />
		<tag k="ssr:stedsnr" v="916349" />
	</node>
	<node lat="60.48715000157602" lon="9.294725005468512" id="-32193">
		<tag k="fixme" v="consider natural=peak for the most distinct mountains in the district" />
		<tag k="name" v="Svartetjernåsen" />
		<tag k="natural" v="hill" />
		<tag k="place" v="locality" />
		<tag k="ssr:stedsnr" v="916357" />
	</node>
	<node lat="60.60949722631776" lon="9.256280547224636" id="-32197">
		<tag k="fixme" v="consider natural=peak for the most distinct mountains in the district" />
		<tag k="name" v="Grønhovden" />
		<tag k="natural" v="hill" />
		<tag k="place" v="locality" />
		<tag k="ssr:stedsnr" v="917659" />
	</node>
	<node lat="60.51854444217911" lon="8.808350003638434" id="-32201">
		<tag k="name" v="Bruset" />
		<tag k="place" v="hamlet" />
		<tag k="ssr:stedsnr" v="917167" />
	</node>
	<node lat="60.53485555790972" lon="8.784741659546052" id="-32202">
		<tag k="name" v="Ranten" />
		<tag k="ssr:stedsnr" v="917181" />
		<tag k="tourism" v="hotel" />
	</node>
	<node lat="60.64815700944444" lon="8.917619895026148" id="-32205">
		<tag k="name" v="Storevatn" />
		<tag k="natural" v="water" />
		<tag k="ssr:stedsnr" v="917243" />
		<tag k="water" v="lake" />
	</node>
	<node lat="60.58674444461307" lon="8.976580562233277" id="-32209">
		<tag k="name" v="Trytetjern" />
		<tag k="natural" v="water" />
		<tag k="ssr:stedsnr" v="917373" />
	</node>
	<node lat="60.585347226504076" lon="9.098027781455551" id="-32210">
		<tag k="name" v="Fagervik" />
		<tag k="place" v="farm" />
		<tag k="ssr:stedsnr" v="917375" />
	</node>
	<node lat="60.588716670270024" lon="9.207188884273103" id="-32211">
		<tag k="name" v="Svinetjernet" />
		<tag k="natural" v="water" />
		<tag k="ssr:stedsnr" v="917378" />
	</node>
	<node lat="60.50365277863572" lon="9.108377776445609" id="-32214">
		<tag k="name" v="Tjernosen" />
		<tag k="natural" v="water" />
		<tag k="ssr:stedsnr" v="917492" />
	</node>
	<node lat="60.56487500146367" lon="9.109238888178256" id="-32217">
		<tag k="alt_name" v="Jørenmoen" />
		<tag k="name" v="Jørgenmoen" />
		<tag k="place" v="farm" />
		<tag k="ssr:stedsnr" v="917356" />
	</node>
	<node lat="60.61373332901249" lon="9.165980561956832" id="-32219">
		<tag k="name" v="Todalen" />
		<tag k="place" v="farm" />
		<tag k="ssr:stedsnr" v="917444" />
	</node>
	<node lat="60.51873888554997" lon="9.18159444791243" id="-32220">
		<tag k="name" v="Haugajordet" />
		<tag k="place" v="farm" />
		<tag k="ssr:stedsnr" v="917587" />
	</node>
	<node lat="60.52683611158976" lon="9.228808333571601" id="-32224">
		<tag k="name" v="Svartetjern" />
		<tag k="natural" v="water" />
		<tag k="ssr:stedsnr" v="917741" />
	</node>
	<node lat="60.528511109980826" lon="9.310591671810364" id="-32225">
		<tag k="historic" v="shieling" />
		<tag k="name" v="Fjølaset" />
		<tag k="place" v="isolated_dwelling" />
		<tag k="ssr:stedsnr" v="917749" />
	</node>
	<node lat="60.57053055258286" lon="9.080727783777197" id="-32226">
		<tag k="name" v="Høvabakkan" />
		<tag k="natural" v="slope" />
		<tag k="place" v="locality" />
		<tag k="ssr:stedsnr" v="813542" />
	</node>
	<node lat="60.49092499927244" lon="9.034516662071601" id="-32232">
		<tag k="name" v="Sølvbergbekken" />
		<tag k="ssr:stedsnr" v="814711" />
		<tag k="waterway" v="stream" />
	</node>
	<node lat="60.49468888466236" lon="9.138569438365343" id="-32233">
		<tag k="historic" v="shieling" />
		<tag k="name" v="Gireliseter" />
		<tag k="place" v="isolated_dwelling" />
		<tag k="ssr:stedsnr" v="814722" />
	</node>
	<node lat="60.54046666780227" lon="8.940666662932863" id="-32236">
		<tag k="amenity" v="community_centre" />
		<tag k="name" v="Sjugurdsrud" />
		<tag k="ssr:stedsnr" v="814832" />
	</node>
	<node lat="60.444583337656425" lon="9.20357778658419" id="-32237">
		<tag k="name" v="Vesle Kjeltjern" />
		<tag k="natural" v="water" />
		<tag k="ssr:stedsnr" v="814933" />
	</node>
	<node lat="60.4883750000158" lon="9.222225002039632" id="-32246">
		<tag k="name" v="Geitsund" />
		<tag k="place" v="farm" />
		<tag k="ssr:stedsnr" v="855303" />
	</node>
	<node lat="60.47771111125219" lon="8.925836108962807" id="-32247">
		<tag k="name" v="Midtre Grågalttjern" />
		<tag k="natural" v="water" />
		<tag k="ssr:stedsnr" v="855286" />
	</node>
	<node lat="60.65060278002164" lon="8.999613891186678" id="-32254">
		<tag k="name" v="Trytetjern" />
		<tag k="natural" v="water" />
		<tag k="ssr:stedsnr" v="856294" />
	</node>
	<node lat="60.402536151648285" lon="9.141935398743842" id="-32256">
		<tag k="name" v="Krysskottjern" />
		<tag k="natural" v="water" />
		<tag k="ssr:stedsnr" v="856403" />
	</node>
	<node lat="60.5701250032372" lon="9.029277776805115" id="-32260">
		<tag k="name" v="Bakkerud" />
		<tag k="place" v="farm" />
		<tag k="ssr:stedsnr" v="856495" />
	</node>
	<node lat="60.45353888558497" lon="9.158355555883114" id="-32262">
		<tag k="name" v="Kimbetjern" />
		<tag k="natural" v="water" />
		<tag k="ssr:stedsnr" v="856333" />
	</node>
	<node lat="60.637122219222555" lon="8.885777771131249" id="-32265">
		<tag k="fixme" v="consider natural=peak for the most distinct mountains in the district" />
		<tag k="name" v="Skifuruåsen" />
		<tag k="natural" v="hill" />
		<tag k="place" v="locality" />
		<tag k="ssr:stedsnr" v="856534" />
	</node>
	<node lat="60.65392777663139" lon="9.288019437443571" id="-32269">
		<tag k="fixme" v="consider natural=peak for the most distinct mountains in the district" />
		<tag k="name" v="Buvasskollen" />
		<tag k="natural" v="hill" />
		<tag k="place" v="locality" />
		<tag k="ssr:stedsnr" v="856736" />
	</node>
	<node lat="60.58825302291761" lon="8.764071135919377" id="-32270">
		<tag k="alt_name" v="Belgavatnet" />
		<tag k="name" v="Øvre Belgevatnet" />
		<tag k="natural" v="water" />
		<tag k="ssr:stedsnr" v="857040" />
		<tag k="water" v="lake" />
	</node>
	<node lat="60.50882777604427" lon="8.744363887251303" id="-32271">
		<tag k="fixme" v="consider natural=peak for the most distinct mountains in the district" />
		<tag k="name" v="Skurvenatten" />
		<tag k="natural" v="hill" />
		<tag k="place" v="locality" />
		<tag k="ssr:stedsnr" v="857209" />
	</node>
	<node lat="60.59347499799756" lon="9.082988886877038" id="-32272">
		<tag k="name" v="Mattismoen" />
		<tag k="place" v="farm" />
		<tag k="ssr:stedsnr" v="857433" />
	</node>
	<node lat="60.5142972239858" lon="9.229561118613494" id="-32280">
		<tag k="name" v="Bekretjern" />
		<tag k="natural" v="water" />
		<tag k="ssr:stedsnr" v="857778" />
	</node>
	<node lat="60.47441944517541" lon="9.160447214990942" id="-32282">
		<tag k="loc_name" v="Storemyre" />
		<tag k="name" v="Stormyr" />
		<tag k="natural" v="wetland" />
		<tag k="old_name" v="Stormyre" />
		<tag k="ssr:stedsnr" v="875706" />
	</node>
	<node lat="60.53445833367604" lon="9.138238889361368" id="-32283">
		<tag k="name" v="Påverudlie" />
		<tag k="natural" v="slope" />
		<tag k="place" v="locality" />
		<tag k="ssr:stedsnr" v="875975" />
	</node>
	<node lat="60.45242499765839" lon="9.022086110528495" id="-32284">
		<tag k="loc_name" v="Langeleine" />
		<tag k="name" v="Langeleina" />
		<tag k="natural" v="wetland" />
		<tag k="ssr:stedsnr" v="876067" />
	</node>
	<node lat="60.60721388850765" lon="9.125441663886813" id="-32285">
		<tag k="name" v="Vinkeltjern" />
		<tag k="natural" v="water" />
		<tag k="ssr:stedsnr" v="876457" />
	</node>
	<node lat="60.58158333304014" lon="9.08976944545628" id="-32287">
		<tag k="name" v="Bankeplassen" />
		<tag k="place" v="isolated_dwelling" />
		<tag k="ssr:stedsnr" v="935190" />
	</node>
	<node lat="60.50388888716678" lon="8.928505559247794" id="-32289">
		<tag k="highway" v="path" />
		<tag k="name" v="Drifteslepa" />
		<tag k="ssr:stedsnr" v="934979" />
	</node>
	<node lat="60.50386389089831" lon="9.177438881780816" id="-32296">
		<tag k="name" v="Sundenatten" />
		<tag k="natural" v="hill" />
		<tag k="place" v="locality" />
		<tag k="ssr:stedsnr" v="935157" />
	</node>
	<node lat="60.511258330344816" lon="9.19247222015404" id="-32297">
		<tag k="name" v="Hundehaugen" />
		<tag k="natural" v="hill" />
		<tag k="place" v="locality" />
		<tag k="ssr:stedsnr" v="935159" />
	</node>
	<node lat="60.54643611070602" lon="9.144449995280029" id="-32298">
		<tag k="name" v="Skåterudmoen" />
		<tag k="place" v="farm" />
		<tag k="ssr:stedsnr" v="935180" />
	</node>
	<node lat="60.593966669545146" lon="9.02195278622268" id="-32299">
		<tag k="name" v="Dalføret" />
		<tag k="natural" v="valley" />
		<tag k="place" v="locality" />
		<tag k="ssr:stedsnr" v="935407" />
	</node>
	<node lat="60.637077776715856" lon="9.361430561673618" id="-32304">
		<tag k="name" v="Vangsbekken" />
		<tag k="ssr:stedsnr" v="908816" />
		<tag k="waterway" v="stream" />
	</node>
	<node lat="60.56246814553163" lon="9.112770724415848" id="-32308">
		<tag k="fixme" v="consider place=hamlet" />
		<tag k="name" v="Søre Devegge" />
		<tag k="place" v="farm" />
		<tag k="ssr:stedsnr" v="910583" />
	</node>
	<node lat="60.49230277725576" lon="9.257550003904802" id="-32311">
		<tag k="name" v="Nyhytta" />
		<tag k="place" v="isolated_dwelling" />
		<tag k="ssr:stedsnr" v="916329" />
	</node>
	<node lat="60.61870832910146" lon="9.0526361134493" id="-32314">
		<tag k="name" v="Tyribakken" />
		<tag k="place" v="farm" />
		<tag k="ssr:stedsnr" v="917424" />
	</node>
	<node lat="60.505580555724876" lon="8.889827783895281" id="-32322">
		<tag k="name" v="Svarteløken" />
		<tag k="place" v="locality" />
		<tag k="ssr:stedsnr" v="917506" />
	</node>
	<node lat="60.53737221988433" lon="8.942500007422977" id="-32324">
		<tag k="name" v="Rukkedalen" />
		<tag k="natural" v="valley" />
		<tag k="place" v="locality" />
		<tag k="ssr:stedsnr" v="917550" />
	</node>
	<node lat="60.53922777741279" lon="9.14789166698896" id="-32325">
		<tag k="alt_name" v="Rolykkja" />
		<tag k="name" v="Roløkken" />
		<tag k="place" v="farm" />
		<tag k="ssr:stedsnr" v="917556" />
	</node>
	<node lat="60.519358333294896" lon="8.863844451241079" id="-32326">
		<tag k="name" v="Øystølhovda" />
		<tag k="natural" v="hill" />
		<tag k="place" v="locality" />
		<tag k="ssr:stedsnr" v="917577" />
	</node>
	<node lat="60.51700000009775" lon="9.17803055702534" id="-32328">
		<tag k="name" v="Bentehaugen" />
		<tag k="place" v="farm" />
		<tag k="ssr:stedsnr" v="917583" />
	</node>
	<node lat="60.51645555292517" lon="9.223636106741234" id="-32329">
		<tag k="fixme" v="consider natural=peak for the most distinct mountains in the district" />
		<tag k="name" v="Bekretjernåsen" />
		<tag k="natural" v="hill" />
		<tag k="place" v="locality" />
		<tag k="ssr:stedsnr" v="917755" />
	</node>
	<node lat="60.54676666310793" lon="9.14276388149451" id="-32335">
		<tag k="name" v="Skåterudmoen" />
		<tag k="place" v="farm" />
		<tag k="ssr:stedsnr" v="935047" />
	</node>
	<node lat="60.563176152360285" lon="9.088632035803977" id="-32336">
		<tag k="leisure" v="pitch" />
		<tag k="name" v="Storetoppen" />
		<tag k="ssr:stedsnr" v="935060" />
	</node>
	<node lat="60.552844448283636" lon="9.302338887328997" id="-32337">
		<tag k="name" v="Vesle Ausa" />
		<tag k="natural" v="water" />
		<tag k="ssr:stedsnr" v="935472" />
		<tag k="water" v="pond" />
	</node>
	<node lat="60.644066670441106" lon="9.05353333889957" id="-32340">
		<tag k="name" v="Hallifossen" />
		<tag k="natural" v="waterfall" />
		<tag k="ssr:stedsnr" v="935849" />
	</node>
	<node lat="60.64824166690659" lon="9.049997217034718" id="-32341">
		<tag k="name" v="Svenkerud" />
		<tag k="place" v="hamlet" />
		<tag k="ssr:stedsnr" v="935852" />
	</node>
	<node lat="60.631100004136584" lon="9.032730559455961" id="-32342">
		<tag k="name" v="Brabantbekken" />
		<tag k="ssr:stedsnr" v="935855" />
		<tag k="waterway" v="stream" />
	</node>
	<node lat="60.61531667007168" lon="9.222472228066414" id="-32343">
		<tag k="name" v="Nedre Bekkedalstjern" />
		<tag k="natural" v="water" />
		<tag k="ssr:stedsnr" v="936433" />
	</node>
	<node lat="60.625938887860784" lon="9.068913891430524" id="-32347">
		<tag k="alt_name" v="Tolpinnrud;Tolpinrud" />
		<tag k="name" v="Tollpinnrud" />
		<tag k="place" v="farm" />
		<tag k="ssr:stedsnr" v="963536" />
	</node>
	<node lat="60.56434133320219" lon="9.11266146059472" id="-32353">
		<tag k="name" v="Peiseplassen" />
		<tag k="place" v="farm" />
		<tag k="ssr:stedsnr" v="973801" />
	</node>
	<node lat="60.660775003772514" lon="9.142374996069968" id="-32364">
		<tag k="name" v="Fuglehaugen" />
		<tag k="natural" v="hill" />
		<tag k="place" v="locality" />
		<tag k="ssr:stedsnr" v="6279" />
	</node>
	<node lat="60.653548941968715" lon="9.046397264532562" id="-32366">
		<tag k="fixme" v="consider place=hamlet" />
		<tag k="name" v="Svenkerud" />
		<tag k="place" v="farm" />
		<tag k="ssr:stedsnr" v="6283" />
	</node>
	<node lat="60.49493610943345" lon="9.165941658023355" id="-32368">
		<tag k="name" v="Bergo" />
		<tag k="place" v="farm" />
		<tag k="ssr:stedsnr" v="6293" />
	</node>
	<node lat="60.487760159105406" lon="9.187097733448207" id="-32371">
		<tag k="name" v="Sverig" />
		<tag k="place" v="farm" />
		<tag k="ssr:stedsnr" v="5265" />
	</node>
	<node lat="60.482974998751466" lon="9.177349993941938" id="-32372">
		<tag k="name" v="Brenno" />
		<tag k="place" v="farm" />
		<tag k="ssr:stedsnr" v="5266" />
	</node>
	<node lat="60.469650001402655" lon="8.929416658231474" id="-32373">
		<tag k="name" v="Grågalten" />
		<tag k="natural" v="ridge" />
		<tag k="old_name" v="Graagalten;Gragalten" />
		<tag k="place" v="locality" />
		<tag k="ssr:stedsnr" v="5270" />
	</node>
	<node lat="60.463472847072566" lon="9.253496070987449" id="-32374">
		<tag k="name" v="Nørdre Rauk" />
		<tag k="place" v="farm" />
		<tag k="ssr:stedsnr" v="5346" />
	</node>
	<node lat="60.50061388588973" lon="8.819777779528335" id="-32377">
		<tag k="historic" v="shieling" />
		<tag k="name" v="Lyseren" />
		<tag k="place" v="isolated_dwelling" />
		<tag k="ssr:stedsnr" v="6050" />
	</node>
	<node lat="60.41699722570961" lon="9.154388889372756" id="-32378">
		<tag k="name" v="Nørdringsbekken" />
		<tag k="ssr:stedsnr" v="6353" />
		<tag k="waterway" v="stream" />
	</node>
	<node lat="60.5643122436453" lon="9.349278354434027" id="-32382">
		<tag k="name" v="Buvatnet" />
		<tag k="natural" v="water" />
		<tag k="ssr:stedsnr" v="6849" />
		<tag k="water" v="lake" />
	</node>
	<node lat="60.56842777840081" lon="8.770108325766158" id="-32383">
		<tag k="name" v="Langhøgde" />
		<tag k="natural" v="hill" />
		<tag k="place" v="locality" />
		<tag k="ssr:stedsnr" v="7021" />
	</node>
	<node lat="60.506586114872526" lon="8.771602779626427" id="-32387">
		<tag k="name" v="Stor-Lyseren" />
		<tag k="natural" v="water" />
		<tag k="ssr:stedsnr" v="7198" />
		<tag k="water" v="lake" />
	</node>
	<node lat="60.62224359203355" lon="9.032474596751067" id="-32389">
		<tag k="name" v="Brabantstølen" />
		<tag k="place" v="locality" />
		<tag k="ssr:stedsnr" v="7437" />
	</node>
	<node lat="60.562194444940694" lon="8.939738894554797" id="-32391">
		<tag k="name" v="Gudbrandsrudnatten" />
		<tag k="natural" v="hill" />
		<tag k="place" v="locality" />
		<tag k="ssr:stedsnr" v="7375" />
	</node>
	<node lat="60.562583329548325" lon="9.054733334743744" id="-32393">
		<tag k="name" v="Høgehaug" />
		<tag k="natural" v="hill" />
		<tag k="place" v="locality" />
		<tag k="ssr:stedsnr" v="7382" />
	</node>
	<node lat="60.534563889587176" lon="9.011188895264425" id="-32399">
		<tag k="name" v="Klypemyran" />
		<tag k="natural" v="wetland" />
		<tag k="ssr:stedsnr" v="7563" />
	</node>
	<node lat="60.536638891049265" lon="9.108269443720195" id="-32400">
		<tag k="name" v="Leirtjern" />
		<tag k="natural" v="water" />
		<tag k="ssr:stedsnr" v="7566" />
	</node>
	<node lat="60.54901667042641" lon="9.073416670914057" id="-32402">
		<tag k="name" v="Hågeberg" />
		<tag k="natural" v="hill" />
		<tag k="place" v="locality" />
		<tag k="ssr:stedsnr" v="7581" />
	</node>
	<node lat="60.69898495322847" lon="9.317911317669438" id="-32404">
		<tag k="name" v="Høvren" />
		<tag k="natural" v="water" />
		<tag k="ssr:stedsnr" v="7686" />
		<tag k="water" v="lake" />
	</node>
	<node lat="60.56241944568044" lon="9.018475004968733" id="-32409">
		<tag k="name" v="Gjerdingen" />
		<tag k="place" v="farm" />
		<tag k="ssr:stedsnr" v="25116" />
	</node>
	<node lat="60.62789024076431" lon="9.159430311858882" id="-32415">
		<tag k="name" v="Bjørhushytta" />
		<tag k="place" v="locality" />
		<tag k="ssr:stedsnr" v="25796" />
	</node>
	<node lat="60.57251944196601" lon="9.023538882814806" id="-32416">
		<tag k="name" v="Nybråten" />
		<tag k="place" v="farm" />
		<tag k="ssr:stedsnr" v="25964" />
	</node>
	<node lat="60.45719722301534" lon="9.26396944938071" id="-32418">
		<tag k="name" v="Kleivi" />
		<tag k="place" v="locality" />
		<tag k="ssr:stedsnr" v="41587" />
	</node>
	<node lat="60.486128508988514" lon="9.191421673054135" id="-32419">
		<tag k="fixme" v="consider place=hamlet" />
		<tag k="name" v="Børtnes" />
		<tag k="old_name" v="Børtnæs" />
		<tag k="place" v="farm" />
		<tag k="ssr:stedsnr" v="53063" />
	</node>
	<node lat="60.6444735891097" lon="9.097533852203378" id="-32420">
		<tag k="name" v="Kastet" />
		<tag k="place" v="farm" />
		<tag k="ssr:stedsnr" v="55443" />
	</node>
	<node lat="60.473202779976376" lon="8.896213884928155" id="-32431">
		<tag k="name" v="Øyvassbekken" />
		<tag k="ssr:stedsnr" v="66273" />
		<tag k="waterway" v="stream" />
	</node>
	<node lat="60.58440703552881" lon="8.787800258222191" id="-32435">
		<tag k="name" v="Øystøltjernet" />
		<tag k="natural" v="water" />
		<tag k="ssr:stedsnr" v="67029" />
	</node>
	<node lat="60.51713889273098" lon="9.15998333805909" id="-32442">
		<tag k="name" v="Årtun" />
		<tag k="place" v="farm" />
		<tag k="ssr:stedsnr" v="67626" />
	</node>
	<node lat="60.51203888471273" lon="8.86727777072425" id="-32448">
		<tag k="name" v="Hallingbekken" />
		<tag k="ssr:stedsnr" v="67560" />
		<tag k="waterway" v="stream" />
	</node>
	<node lat="60.522341663301624" lon="9.327266662708066" id="-32452">
		<tag k="name" v="Brennåstjern" />
		<tag k="natural" v="water" />
		<tag k="ssr:stedsnr" v="68780" />
	</node>
	<node lat="60.60302777871213" lon="9.275952774541985" id="-32457">
		<tag k="historic" v="shieling" />
		<tag k="name" v="Syningset" />
		<tag k="place" v="isolated_dwelling" />
		<tag k="ssr:stedsnr" v="68679" />
	</node>
	<node lat="60.549899998880136" lon="9.1393972267723" id="-32459">
		<tag k="name" v="Husemoen" />
		<tag k="place" v="farm" />
		<tag k="ssr:stedsnr" v="68599" />
	</node>
	<node lat="60.57145833441475" lon="9.253441670882586" id="-32460">
		<tag k="name" v="Kvitevatnet" />
		<tag k="natural" v="water" />
		<tag k="ssr:stedsnr" v="68830" />
		<tag k="water" v="lake" />
	</node>
	<node lat="60.50867499553861" lon="9.262305562337401" id="-32462">
		<tag k="name" v="Knutshøl" />
		<tag k="natural" v="valley" />
		<tag k="place" v="locality" />
		<tag k="ssr:stedsnr" v="85839" />
	</node>
	<node lat="60.49709444698325" lon="9.198838897181444" id="-32463">
		<tag k="name" v="Skardet" />
		<tag k="natural" v="valley" />
		<tag k="place" v="locality" />
		<tag k="ssr:stedsnr" v="85686" />
	</node>
	<node lat="60.4809277813776" lon="9.18416944269193" id="-32464">
		<tag k="name" v="Asleplassen" />
		<tag k="place" v="locality" />
		<tag k="ssr:stedsnr" v="85689" />
	</node>
	<node lat="60.56549722346817" lon="9.090502770474918" id="-32469">
		<tag k="name" v="Hallingdal folkemuseum" />
		<tag k="ssr:stedsnr" v="86090" />
		<tag k="tourism" v="attraction" />
	</node>
	<node lat="60.55781666577234" lon="9.142547224164987" id="-32471">
		<tag k="name" v="Grønna" />
		<tag k="railway" v="halt" />
		<tag k="ssr:stedsnr" v="86071" />
		<tag k="train" v="yes" />
	</node>
	<node lat="60.55964722357998" lon="9.125252770893773" id="-32472">
		<tag k="name" v="Bringo" />
		<tag k="place" v="farm" />
		<tag k="ssr:stedsnr" v="86072" />
	</node>
	<node lat="60.56699722426182" lon="9.108697219468633" id="-32474">
		<tag k="name" v="Jørnmojordet" />
		<tag k="place" v="locality" />
		<tag k="ssr:stedsnr" v="86092" />
	</node>
	<node lat="60.56324167088247" lon="9.095961111135022" id="-32475">
		<tag k="name" v="Storesvingen" />
		<tag k="place" v="locality" />
		<tag k="ssr:stedsnr" v="86093" />
	</node>
	<node lat="60.49356110810984" lon="9.160322221560186" id="-32477">
		<tag k="name" v="Isakbråten" />
		<tag k="place" v="farm" />
		<tag k="ssr:stedsnr" v="86510" />
	</node>
	<node lat="60.56664444804022" lon="9.31066666002872" id="-32478">
		<tag k="name" v="Raudtjern" />
		<tag k="natural" v="water" />
		<tag k="ssr:stedsnr" v="86462" />
	</node>
	<node lat="60.47796944803153" lon="8.962483335756717" id="-32479">
		<tag k="name" v="Saupeset sameie" />
		<tag k="place" v="locality" />
		<tag k="ssr:stedsnr" v="86640" />
	</node>
	<node lat="60.74769999803476" lon="8.767986110455281" id="-32500">
		<tag k="name" v="Vola" />
		<tag k="ssr:stedsnr" v="127833" />
		<tag k="waterway" v="river" />
	</node>
	<node lat="60.555325003775955" lon="8.742483330620075" id="-32503">
		<tag k="name" v="Svartevatnet" />
		<tag k="natural" v="water" />
		<tag k="ssr:stedsnr" v="128220" />
	</node>
	<node lat="60.55996388487514" lon="9.015391667130114" id="-32508">
		<tag k="name" v="Granli" />
		<tag k="place" v="farm" />
		<tag k="ssr:stedsnr" v="128363" />
	</node>
	<node lat="60.55547499907089" lon="8.929166670633707" id="-32510">
		<tag k="name" v="Damtjernbekken" />
		<tag k="ssr:stedsnr" v="128382" />
		<tag k="waterway" v="stream" />
	</node>
	<node lat="60.62556666478885" lon="9.033422213251155" id="-32515">
		<tag k="name" v="Kvernahushaugen" />
		<tag k="natural" v="hill" />
		<tag k="place" v="locality" />
		<tag k="ssr:stedsnr" v="128473" />
	</node>
	<node lat="60.53674444495122" lon="8.927391669677851" id="-32519">
		<tag k="fixme" v="multiple name tags, choose one and add the other to alt_name" />
		<tag k="loc_name" v="Slettumplassen" />
		<tag k="name" v="Slettom;Slettumplass" />
		<tag k="old_name" v="Slettumpladsen" />
		<tag k="place" v="farm" />
		<tag k="ssr:stedsnr" v="128552" />
	</node>
	<node lat="60.53748055875483" lon="8.928994437064281" id="-32520">
		<tag k="name" v="Velta" />
		<tag k="place" v="farm" />
		<tag k="ssr:stedsnr" v="128553" />
	</node>
	<node lat="60.53922777953199" lon="9.159891671689977" id="-32524">
		<tag k="name" v="Blingsmoen" />
		<tag k="place" v="farm" />
		<tag k="ssr:stedsnr" v="128563" />
	</node>
	<node lat="60.554877779326695" lon="9.11482221980074" id="-32526">
		<tag k="name" v="Olsenbråten" />
		<tag k="place" v="farm" />
		<tag k="ssr:stedsnr" v="128568" />
	</node>
	<node lat="60.549827778475176" lon="8.861911118372253" id="-32527">
		<tag k="historic" v="shieling" />
		<tag k="name" v="Nystølen" />
		<tag k="place" v="isolated_dwelling" />
		<tag k="ssr:stedsnr" v="128572" />
	</node>
	<node lat="60.54902778030869" lon="9.16240277876893" id="-32528">
		<tag k="name" v="Åsen" />
		<tag k="place" v="farm" />
		<tag k="ssr:stedsnr" v="128578" />
	</node>
	<node lat="60.67419722494703" lon="9.244861104962913" id="-32530">
		<tag k="historic" v="shieling" />
		<tag k="name" v="Nystølen" />
		<tag k="place" v="isolated_dwelling" />
		<tag k="ssr:stedsnr" v="128671" />
	</node>
	<node lat="60.5531833295359" lon="9.30763611620667" id="-32531">
		<tag k="name" v="Ausa" />
		<tag k="natural" v="water" />
		<tag k="ssr:stedsnr" v="128851" />
	</node>
	<node lat="60.528600311238314" lon="9.32276545808823" id="-32533">
		<tag k="name" v="Vesle Ormevatnet" />
		<tag k="natural" v="water" />
		<tag k="ssr:stedsnr" v="128754" />
	</node>
	<node lat="60.48744444821683" lon="9.191355548437414" id="-32537">
		<tag k="fixme" v="consider place=hamlet" />
		<tag k="name" v="Bromma" />
		<tag k="place" v="village" />
		<tag k="ssr:stedsnr" v="145026" />
	</node>
	<node lat="60.52730555462254" lon="9.298816671564529" id="-32538">
		<tag k="name" v="Pottetjern" />
		<tag k="natural" v="water" />
		<tag k="ssr:stedsnr" v="145223" />
	</node>
	<node lat="60.554402780351474" lon="9.140188895840142" id="-32540">
		<tag k="name" v="Einan" />
		<tag k="place" v="locality" />
		<tag k="ssr:stedsnr" v="146063" />
	</node>
	<node lat="60.48696389053642" lon="9.254083333446605" id="-32543">
		<tag k="historic" v="shieling" />
		<tag k="name" v="Veslesetran" />
		<tag k="place" v="isolated_dwelling" />
		<tag k="ssr:stedsnr" v="145942" />
	</node>
	<node lat="60.60438888797726" lon="8.94310832659802" id="-32544">
		<tag k="name" v="Fugletjernet" />
		<tag k="natural" v="water" />
		<tag k="ssr:stedsnr" v="145978" />
	</node>
	<node lat="60.55016944633819" lon="9.10185277470673" id="-32546">
		<tag k="name" v="Føndalen" />
		<tag k="natural" v="valley" />
		<tag k="place" v="locality" />
		<tag k="ssr:stedsnr" v="146056" />
	</node>
	<node lat="60.485577778618" lon="9.19867500908711" id="-32547">
		<tag k="name" v="Nedre Bakko" />
		<tag k="place" v="farm" />
		<tag k="ssr:stedsnr" v="146127" />
	</node>
	<node lat="60.48557500129824" lon="9.198441668951075" id="-32548">
		<tag k="name" v="Fjordblink" />
		<tag k="place" v="isolated_dwelling" />
		<tag k="ssr:stedsnr" v="146128" />
	</node>
	<node lat="60.5280861149432" lon="9.166991666085192" id="-32549">
		<tag k="name" v="Gullingsrudodden" />
		<tag k="place" v="farm" />
		<tag k="ssr:stedsnr" v="146157" />
	</node>
	<node lat="60.478744442657046" lon="9.040238888072011" id="-32550">
		<tag k="name" v="Fetjan-Brynhildstjernsameiet" />
		<tag k="place" v="locality" />
		<tag k="ssr:stedsnr" v="146622" />
	</node>
	<node lat="60.524702775757035" lon="8.971394451718819" id="-32551">
		<tag k="name" v="Sollibrekka" />
		<tag k="natural" v="hill" />
		<tag k="place" v="locality" />
		<tag k="ssr:stedsnr" v="146638" />
	</node>
	<node lat="60.53399721921914" lon="8.998375001253228" id="-32554">
		<tag k="name" v="Andreseinan" />
		<tag k="natural" v="wetland" />
		<tag k="ssr:stedsnr" v="147438" />
	</node>
	<node lat="60.62596389094317" lon="9.119147229117521" id="-32555">
		<tag k="name" v="Lysverkhytta" />
		<tag k="place" v="isolated_dwelling" />
		<tag k="ssr:stedsnr" v="147440" />
	</node>
	<node lat="60.49907500050799" lon="9.090375006282372" id="-32569">
		<tag k="historic" v="shieling" />
		<tag k="name" v="Liaberg" />
		<tag k="place" v="isolated_dwelling" />
		<tag k="ssr:stedsnr" v="188276" />
	</node>
	<node lat="60.486530552259055" lon="9.182699998976407" id="-32570">
		<tag k="name" v="Hankenhus" />
		<tag k="place" v="farm" />
		<tag k="ssr:stedsnr" v="187254" />
	</node>
	<node lat="60.603463070490406" lon="9.299343392194546" id="-32574">
		<tag k="fixme" v="consider natural=peak for the most distinct mountains in the district" />
		<tag k="name" v="Veslefjell" />
		<tag k="natural" v="hill" />
		<tag k="place" v="locality" />
		<tag k="ssr:stedsnr" v="189623" />
	</node>
	<node lat="60.5679555574004" lon="8.714019437054185" id="-32577">
		<tag k="fixme" v="consider natural=peak for the most distinct mountains in the district" />
		<tag k="name" v="Vesle Dyna" />
		<tag k="natural" v="hill" />
		<tag k="place" v="locality" />
		<tag k="ssr:stedsnr" v="189003" />
	</node>
	<node lat="60.60209444701365" lon="8.9573444503851" id="-32578">
		<tag k="fixme" v="consider natural=peak for the most distinct mountains in the district" />
		<tag k="name" v="Sandanåsen" />
		<tag k="natural" v="hill" />
		<tag k="place" v="locality" />
		<tag k="ssr:stedsnr" v="189439" />
	</node>
	<node lat="60.62837499779208" lon="9.071955557510837" id="-32580">
		<tag k="alt_name" v="Bråten" />
		<tag k="name" v="Nedre Bråten" />
		<tag k="place" v="farm" />
		<tag k="ssr:stedsnr" v="189458" />
	</node>
	<node lat="60.53526110671808" lon="8.927716672836159" id="-32581">
		<tag k="name" v="Rukkedøla" />
		<tag k="ssr:stedsnr" v="189532" />
		<tag k="waterway" v="river" />
	</node>
	<node lat="60.55765833719099" lon="9.145249996499816" id="-32584">
		<tag k="name" v="Grønna" />
		<tag k="place" v="farm" />
		<tag k="ssr:stedsnr" v="189546" />
	</node>
	<node lat="60.545811112093894" lon="9.02535554971876" id="-32585">
		<tag k="name" v="Klovsteindalen" />
		<tag k="natural" v="valley" />
		<tag k="place" v="locality" />
		<tag k="ssr:stedsnr" v="189555" />
	</node>
	<node lat="60.56904825444895" lon="9.0922754893086" id="-32590">
		<tag k="fixme" v="consider place=hamlet" />
		<tag k="name" v="Høva" />
		<tag k="place" v="farm" />
		<tag k="ssr:stedsnr" v="189349" />
	</node>
	<node lat="60.51104166970884" lon="8.855011110259834" id="-32594">
		<tag k="name" v="Trolltjern" />
		<tag k="natural" v="water" />
		<tag k="ssr:stedsnr" v="189488" />
	</node>
	<node lat="60.51610555223472" lon="9.184330551170858" id="-32595">
		<tag k="name" v="Li" />
		<tag k="place" v="farm" />
		<tag k="ssr:stedsnr" v="189568" />
	</node>
	<node lat="60.52813055397563" lon="9.303755558664797" id="-32600">
		<tag k="name" v="Osetjern" />
		<tag k="natural" v="water" />
		<tag k="ssr:stedsnr" v="189734" />
	</node>
	<node lat="60.54417222458396" lon="8.705591665244915" id="-32603">
		<tag k="fixme" v="consider natural=peak for the most distinct mountains in the district" />
		<tag k="name" v="Skurvenatten" />
		<tag k="natural" v="hill" />
		<tag k="place" v="locality" />
		<tag k="ssr:stedsnr" v="189889" />
	</node>
	<node lat="60.564313890484456" lon="9.090294447470086" id="-32610">
		<tag k="name" v="Øvre Prestbakken" />
		<tag k="ssr:stedsnr" v="207074" />
		<tag k="tourism" v="attraction" />
	</node>
	<node lat="60.46655277684024" lon="9.214308330384668" id="-32611">
		<tag k="name" v="Natteberget" />
		<tag k="natural" v="ridge" />
		<tag k="place" v="locality" />
		<tag k="ssr:stedsnr" v="207564" />
	</node>
	<node lat="60.52803055273287" lon="9.173563891695395" id="-32613">
		<tag k="name" v="Juvet" />
		<tag k="natural" v="gorge" />
		<tag k="ssr:stedsnr" v="207174" />
	</node>
	<node lat="60.46865277900259" lon="9.256594439426587" id="-32617">
		<tag k="name" v="Tubba" />
		<tag k="place" v="islet" />
		<tag k="ssr:stedsnr" v="207888" />
	</node>
	<node lat="60.5393416691083" lon="9.012997230471806" id="-32623">
		<tag k="name" v="Einan" />
		<tag k="natural" v="wetland" />
		<tag k="ssr:stedsnr" v="208449" />
	</node>
	<node lat="60.60803055373029" lon="9.222230560041808" id="-32624">
		<tag k="name" v="Heimdalen" />
		<tag k="natural" v="valley" />
		<tag k="place" v="locality" />
		<tag k="ssr:stedsnr" v="208463" />
	</node>
	<node lat="60.4431916668875" lon="9.20064722723413" id="-32629">
		<tag k="bridge" v="yes" />
		<tag k="layer" v="1" />
		<tag k="name" v="Svangtjern" />
		<tag k="ssr:stedsnr" v="289857" />
	</node>
	<node lat="60.490405551776774" lon="8.885824994841437" id="-32638">
		<tag k="name" v="Liaset" />
		<tag k="place" v="hamlet" />
		<tag k="ssr:stedsnr" v="309290" />
	</node>
	<node lat="60.49845555659665" lon="9.167483333501822" id="-32639">
		<tag k="alt_name" v="Nordre Nordhagen" />
		<tag k="name" v="Nørdre Nordhagen" />
		<tag k="place" v="farm" />
		<tag k="ssr:stedsnr" v="309318" />
	</node>
	<node lat="60.424650077744154" lon="9.026037792400883" id="-32642">
		<tag k="name" v="Hundevatne" />
		<tag k="natural" v="water" />
		<tag k="ssr:stedsnr" v="309375" />
		<tag k="water" v="lake" />
	</node>
	<node lat="60.58116389335985" lon="9.184102783943588" id="-32645">
		<tag k="name" v="Ulvedalen" />
		<tag k="natural" v="valley" />
		<tag k="place" v="locality" />
		<tag k="ssr:stedsnr" v="310444" />
	</node>
	<node lat="60.57476944820179" lon="9.071286111443415" id="-32646">
		<tag k="name" v="Bringenatten" />
		<tag k="natural" v="hill" />
		<tag k="place" v="locality" />
		<tag k="ssr:stedsnr" v="310447" />
	</node>
	<node lat="60.51599359362344" lon="9.137009410650535" id="-32652">
		<tag k="fixme" v="consider place=hamlet" />
		<tag k="name" v="Påverud" />
		<tag k="place" v="farm" />
		<tag k="ssr:stedsnr" v="310538" />
	</node>
	<node lat="60.58481696481888" lon="9.034873607438355" id="-32654">
		<tag k="name" v="Busketjern" />
		<tag k="natural" v="water" />
		<tag k="ssr:stedsnr" v="310419" />
	</node>
	<node lat="60.541805559395485" lon="9.192077782530061" id="-32656">
		<tag k="name" v="Halland" />
		<tag k="place" v="isolated_dwelling" />
		<tag k="ssr:stedsnr" v="310580" />
	</node>
	<node lat="60.59988055287663" lon="9.286844437874457" id="-32659">
		<tag k="historic" v="shieling" />
		<tag k="name" v="Lyseren" />
		<tag k="place" v="isolated_dwelling" />
		<tag k="ssr:stedsnr" v="310670" />
	</node>
	<node lat="60.674163892935894" lon="9.288894442841615" id="-32662">
		<tag k="fixme" v="consider natural=peak for the most distinct mountains in the district" />
		<tag k="name" v="Buhovdkollen" />
		<tag k="natural" v="hill" />
		<tag k="place" v="locality" />
		<tag k="ssr:stedsnr" v="310751" />
	</node>
	<node lat="60.52200833071931" lon="9.226313883694347" id="-32664">
		<tag k="name" v="Heimtjern" />
		<tag k="natural" v="water" />
		<tag k="ssr:stedsnr" v="310767" />
	</node>
	<node lat="60.514191665009335" lon="9.318766673975688" id="-32665">
		<tag k="name" v="Gylta" />
		<tag k="natural" v="cape" />
		<tag k="ssr:stedsnr" v="327185" />
	</node>
	<node lat="60.569499997441454" lon="8.744763894314955" id="-32666">
		<tag k="name" v="Dugurdsnatten" />
		<tag k="natural" v="hill" />
		<tag k="place" v="locality" />
		<tag k="ssr:stedsnr" v="327498" />
	</node>
	<node lat="60.54471944479491" lon="9.098963895419624" id="-32670">
		<tag k="fixme" v="consider natural=peak for the most distinct mountains in the district" />
		<tag k="name" v="Gråhøgde" />
		<tag k="natural" v="hill" />
		<tag k="place" v="locality" />
		<tag k="ssr:stedsnr" v="328060" />
	</node>
	<node lat="60.56150833696293" lon="9.089688884513357" id="-32671">
		<tag k="leisure" v="pitch" />
		<tag k="name" v="Storetoppen" />
		<tag k="ssr:stedsnr" v="328081" />
	</node>
	<node lat="60.65523889246262" lon="9.146688884819422" id="-32676">
		<tag k="historic" v="shieling" />
		<tag k="name" v="Dokkmøne" />
		<tag k="place" v="isolated_dwelling" />
		<tag k="ssr:stedsnr" v="328442" />
	</node>
	<node lat="60.5988305550552" lon="9.07708054933038" id="-32678">
		<tag k="alt_name" v="Øvre Sjong" />
		<tag k="name" v="Øvre Skjong" />
		<tag k="place" v="farm" />
		<tag k="ssr:stedsnr" v="328845" />
	</node>
	<node lat="60.451922225888296" lon="9.221769448801169" id="-32679">
		<tag k="name" v="Heimseterdalen" />
		<tag k="natural" v="valley" />
		<tag k="place" v="locality" />
		<tag k="ssr:stedsnr" v="328918" />
	</node>
	<node lat="60.50730277570161" lon="9.298363888780836" id="-32681">
		<tag k="historic" v="shieling" />
		<tag k="name" v="Rakketjern" />
		<tag k="place" v="isolated_dwelling" />
		<tag k="ssr:stedsnr" v="329085" />
	</node>
	<node lat="60.53031388628938" lon="9.166824993392375" id="-32683">
		<tag k="name" v="Liasanden" />
		<tag k="natural" v="beach" />
		<tag k="ssr:stedsnr" v="329193" />
	</node>
	<node lat="60.44546111520287" lon="9.163433334596482" id="-32687">
		<tag k="name" v="Raubekk" />
		<tag k="ssr:stedsnr" v="329499" />
		<tag k="waterway" v="stream" />
	</node>
	<node lat="60.47242777615878" lon="9.22519443641282" id="-32692">
		<tag k="bridge" v="yes" />
		<tag k="layer" v="1" />
		<tag k="name" v="Sevre" />
		<tag k="ssr:stedsnr" v="350790" />
	</node>
	<node lat="60.52626944418765" lon="9.16121388554895" id="-32693">
		<tag k="bridge" v="yes" />
		<tag k="layer" v="1" />
		<tag k="name" v="Liodden" />
		<tag k="ssr:stedsnr" v="350792" />
	</node>
	<node lat="60.596058335509866" lon="8.860599997670679" id="-32694">
		<tag k="fixme" v="consider natural=peak for the most distinct mountains in the district" />
		<tag k="name" v="Natten" />
		<tag k="natural" v="hill" />
		<tag k="old_name" v="Blåbærhøgda" />
		<tag k="place" v="locality" />
		<tag k="ssr:stedsnr" v="360432" />
	</node>
	<node lat="60.65661111183403" lon="9.304580555476186" id="-32702">
		<tag k="name" v="Buvatnet" />
		<tag k="natural" v="water" />
		<tag k="ssr:stedsnr" v="370732" />
		<tag k="water" v="lake" />
	</node>
	<node lat="60.52616388497124" lon="9.168008341090527" id="-32708">
		<tag k="name" v="Liodden" />
		<tag k="place" v="farm" />
		<tag k="ssr:stedsnr" v="370631" />
	</node>
	<node lat="60.54430280356541" lon="8.994466805590488" id="-32710">
		<tag k="fixme" v="consider place=hamlet" />
		<tag k="name" v="Tronrud" />
		<tag k="place" v="farm" />
		<tag k="ssr:stedsnr" v="371577" />
	</node>
	<node lat="60.516377779548264" lon="8.802202782579247" id="-32711">
		<tag k="name" v="Brusethøgde" />
		<tag k="natural" v="hill" />
		<tag k="place" v="locality" />
		<tag k="ssr:stedsnr" v="371185" />
	</node>
	<node lat="60.60853333501884" lon="8.920072230778175" id="-32712">
		<tag k="historic" v="shieling" />
		<tag k="name" v="Nystølen" />
		<tag k="place" v="isolated_dwelling" />
		<tag k="ssr:stedsnr" v="371419" />
	</node>
	<node lat="60.60824444272149" lon="9.17521110311849" id="-32715">
		<tag k="name" v="Todalsnatten" />
		<tag k="natural" v="hill" />
		<tag k="place" v="locality" />
		<tag k="ssr:stedsnr" v="371440" />
	</node>
	<node lat="60.632147226137256" lon="9.061522222539017" id="-32716">
		<tag k="name" v="Stryken" />
		<tag k="place" v="farm" />
		<tag k="ssr:stedsnr" v="371446" />
	</node>
	<node lat="60.63195833736127" lon="9.034872226181708" id="-32717">
		<tag k="name" v="Brabant" />
		<tag k="old_name" v="Braband" />
		<tag k="place" v="farm" />
		<tag k="ssr:stedsnr" v="371450" />
	</node>
	<node lat="60.53803703008123" lon="9.015251602639385" id="-32726">
		<tag k="alt_name" v="Øynantjernet" />
		<tag k="name" v="Einetjern" />
		<tag k="natural" v="water" />
		<tag k="ssr:stedsnr" v="371556" />
	</node>
	<node lat="60.615277775648494" lon="9.295074997407031" id="-32729">
		<tag k="name" v="Hellervatnet" />
		<tag k="natural" v="water" />
		<tag k="ssr:stedsnr" v="371689" />
	</node>
	<node lat="60.56525278127229" lon="9.090916672996745" id="-32732">
		<tag k="name" v="Nedre Prestbakken" />
		<tag k="ssr:stedsnr" v="389077" />
		<tag k="tourism" v="attraction" />
	</node>
	<node lat="60.53830555826635" lon="8.93392499286514" id="-32733">
		<tag k="name" v="Stakkestø" />
		<tag k="place" v="isolated_dwelling" />
		<tag k="ssr:stedsnr" v="388957" />
	</node>
	<node lat="60.53612500247835" lon="9.140622224336484" id="-32734">
		<tag k="name" v="Majorbråten" />
		<tag k="place" v="locality" />
		<tag k="ssr:stedsnr" v="388964" />
	</node>
	<node lat="60.52061110815194" lon="8.719005559104819" id="-32738">
		<tag k="name" v="Høgehaug" />
		<tag k="natural" v="hill" />
		<tag k="place" v="locality" />
		<tag k="ssr:stedsnr" v="389027" />
	</node>
	<node lat="60.52223611060658" lon="9.14334166132955" id="-32746">
		<tag k="name" v="Grøteplass" />
		<tag k="place" v="farm" />
		<tag k="ssr:stedsnr" v="389175" />
	</node>
	<node lat="60.54116111250807" lon="9.146952782917685" id="-32747">
		<tag k="name" v="Hornløkken" />
		<tag k="place" v="farm" />
		<tag k="ssr:stedsnr" v="389177" />
	</node>
	<node lat="60.540663887121994" lon="9.190777786507674" id="-32748">
		<tag k="name" v="Hallandnatten" />
		<tag k="natural" v="hill" />
		<tag k="place" v="locality" />
		<tag k="ssr:stedsnr" v="389185" />
	</node>
	<node lat="60.59628055742908" lon="9.23233055564852" id="-32751">
		<tag k="name" v="Brøtsetdammen" />
		<tag k="ssr:stedsnr" v="389484" />
		<tag k="waterway" v="dam" />
	</node>
	<node lat="60.46737221900455" lon="9.17519722468532" id="-32753">
		<tag k="name" v="Juvet" />
		<tag k="natural" v="gorge" />
		<tag k="ssr:stedsnr" v="389520" />
	</node>
	<node lat="60.60383918183731" lon="9.030395062749873" id="-32754">
		<tag k="historic" v="shieling" />
		<tag k="name" v="Melevollen" />
		<tag k="place" v="isolated_dwelling" />
		<tag k="ssr:stedsnr" v="389834" />
	</node>
	<node lat="60.63291666857988" lon="9.045027779997545" id="-32755">
		<tag k="name" v="Brekkestein" />
		<tag k="natural" v="stone" />
		<tag k="ssr:stedsnr" v="389842" />
	</node>
	<node lat="60.63321944432958" lon="9.072149998358993" id="-32756">
		<tag k="name" v="Øvre Haugen" />
		<tag k="place" v="farm" />
		<tag k="ssr:stedsnr" v="389844" />
	</node>
	<node lat="60.51835555819515" lon="8.697388884247996" id="-32757">
		<tag k="name" v="Såtenattjernan" />
		<tag k="natural" v="water" />
		<tag k="ssr:stedsnr" v="390421" />
		<tag k="water" v="lake" />
	</node>
	<node lat="60.59779444842983" lon="9.080169447470436" id="-32760">
		<tag k="bridge" v="yes" />
		<tag k="layer" v="1" />
		<tag k="name" v="Sjong" />
		<tag k="ssr:stedsnr" v="410808" />
	</node>
	<node lat="60.46821388889407" lon="8.933219449018374" id="-32772">
		<tag k="name" v="Øvre Grågalttjern" />
		<tag k="natural" v="water" />
		<tag k="ssr:stedsnr" v="430272" />
	</node>
	<node lat="60.47242778136325" lon="9.194386109745109" id="-32773">
		<tag k="name" v="Heio" />
		<tag k="place" v="isolated_dwelling" />
		<tag k="ssr:stedsnr" v="430284" />
	</node>
	<node lat="60.6293333349931" lon="9.367227779651714" id="-32779">
		<tag k="name" v="Strøstjern" />
		<tag k="natural" v="water" />
		<tag k="ssr:stedsnr" v="431662" />
	</node>
	<node lat="60.6220166630446" lon="9.066200001269323" id="-32783">
		<tag k="name" v="Bråten" />
		<tag k="place" v="farm" />
		<tag k="ssr:stedsnr" v="432427" />
	</node>
	<node lat="60.60181944239995" lon="9.158138886276697" id="-32784">
		<tag k="name" v="Todøla" />
		<tag k="ssr:stedsnr" v="432435" />
		<tag k="waterway" v="river" />
	</node>
	<node lat="60.62347047322454" lon="9.06788888768205" id="-32786">
		<tag k="name" v="Laddemoen" />
		<tag k="place" v="farm" />
		<tag k="ssr:stedsnr" v="432470" />
	</node>
	<node lat="60.542091670304735" lon="9.193427776247708" id="-32790">
		<tag k="name" v="Øvre Storeli" />
		<tag k="place" v="farm" />
		<tag k="ssr:stedsnr" v="432557" />
	</node>
	<node lat="60.542308194677936" lon="8.941387505585112" id="-32792">
		<tag k="fixme" v="consider place=hamlet" />
		<tag k="name" v="Sjugurdsrud" />
		<tag k="place" v="farm" />
		<tag k="ssr:stedsnr" v="432561" />
	</node>
	<node lat="60.569533331809836" lon="9.142219446873892" id="-32798">
		<tag k="name" v="Ellingsbråten" />
		<tag k="place" v="farm" />
		<tag k="ssr:stedsnr" v="432375" />
	</node>
	<node lat="60.661947874518106" lon="9.354140425819988" id="-32800">
		<tag k="name" v="Haugatjern" />
		<tag k="natural" v="water" />
		<tag k="ssr:stedsnr" v="432720" />
	</node>
	<node lat="60.621086111863214" lon="8.961497227930405" id="-32805">
		<tag k="name" v="Nonshaugen" />
		<tag k="natural" v="hill" />
		<tag k="place" v="locality" />
		<tag k="ssr:stedsnr" v="510843" />
	</node>
	<node lat="60.48459444177111" lon="9.199016668415046" id="-32806">
		<tag k="name" v="Øvre Bakko" />
		<tag k="place" v="farm" />
		<tag k="ssr:stedsnr" v="510133" />
	</node>
	<node lat="60.532211114227195" lon="9.184449994323705" id="-32807">
		<tag k="name" v="Nilsesprang" />
		<tag k="natural" v="gorge" />
		<tag k="ssr:stedsnr" v="509171" />
	</node>
	<node lat="60.471413891534034" lon="9.265958337628398" id="-32809">
		<tag k="name" v="Kolbråtbekken" />
		<tag k="ssr:stedsnr" v="509749" />
		<tag k="waterway" v="stream" />
	</node>
	<node lat="60.48676666935566" lon="9.190433332469196" id="-32811">
		<tag k="name" v="Lysenvoll" />
		<tag k="place" v="isolated_dwelling" />
		<tag k="ssr:stedsnr" v="510129" />
	</node>
	<node lat="60.57807499637897" lon="9.09477222359076" id="-32812">
		<tag k="name" v="Støen" />
		<tag k="place" v="farm" />
		<tag k="ssr:stedsnr" v="510090" />
	</node>
	<node lat="60.48096111049956" lon="9.242483342409475" id="-32818">
		<tag k="name" v="Slåen" />
		<tag k="natural" v="ridge" />
		<tag k="place" v="locality" />
		<tag k="ssr:stedsnr" v="510628" />
	</node>
	<node lat="60.48365278117345" lon="9.21134167414526" id="-32819">
		<tag k="name" v="Steinarbråten" />
		<tag k="natural" v="slope" />
		<tag k="place" v="locality" />
		<tag k="ssr:stedsnr" v="510631" />
	</node>
	<node lat="60.57458611011717" lon="9.0774777848935" id="-32820">
		<tag k="name" v="Rundenatten" />
		<tag k="natural" v="hill" />
		<tag k="place" v="locality" />
		<tag k="ssr:stedsnr" v="510590" />
	</node>
	<node lat="60.64162222537553" lon="9.026580562730992" id="-32821">
		<tag k="name" v="Ellingbråten" />
		<tag k="place" v="farm" />
		<tag k="ssr:stedsnr" v="510981" />
	</node>
	<node lat="60.60091944435261" lon="9.304666663234515" id="-32825">
		<tag k="name" v="Elumstjerndypilen" />
		<tag k="natural" v="water" />
		<tag k="ssr:stedsnr" v="511463" />
		<tag k="water" v="pond" />
	</node>
	<node lat="60.51644903935186" lon="9.185895941044516" id="-32827">
		<tag k="fixme" v="consider place=hamlet" />
		<tag k="name" v="Li" />
		<tag k="place" v="farm" />
		<tag k="ssr:stedsnr" v="525189" />
	</node>
	<node lat="60.580313884796425" lon="9.105186112984619" id="-32831">
		<tag k="alt_name" v="Østenfor" />
		<tag k="name" v="Austafor" />
		<tag k="place" v="farm" />
		<tag k="ssr:stedsnr" v="544449" />
	</node>
	<node lat="60.48012499863291" lon="9.153227779789328" id="-32837">
		<tag k="name" v="Rundenatten" />
		<tag k="natural" v="hill" />
		<tag k="place" v="locality" />
		<tag k="ssr:stedsnr" v="551281" />
	</node>
	<node lat="60.483888892347856" lon="9.145725002664571" id="-32838">
		<tag k="fixme" v="consider natural=peak for the most distinct mountains in the district" />
		<tag k="name" v="Kvelvåsen" />
		<tag k="natural" v="hill" />
		<tag k="place" v="locality" />
		<tag k="ssr:stedsnr" v="551282" />
	</node>
	<node lat="60.564391670642394" lon="8.955147221931304" id="-32841">
		<tag k="name" v="Fussenatten" />
		<tag k="natural" v="hill" />
		<tag k="place" v="locality" />
		<tag k="ssr:stedsnr" v="552423" />
	</node>
	<node lat="60.56430555879455" lon="9.04206110583577" id="-32842">
		<tag k="name" v="Øygarden" />
		<tag k="place" v="farm" />
		<tag k="ssr:stedsnr" v="552427" />
	</node>
	<node lat="60.51680832887991" lon="8.960697225334595" id="-32848">
		<tag k="name" v="Kuluset" />
		<tag k="place" v="neighbourhood" />
		<tag k="ssr:stedsnr" v="552655" />
	</node>
	<node lat="60.518530555711074" lon="9.10941110523386" id="-32849">
		<tag k="name" v="Saupeset" />
		<tag k="place" v="neighbourhood" />
		<tag k="ssr:stedsnr" v="552660" />
	</node>
	<node lat="60.524128586603325" lon="9.180124936747687" id="-32853">
		<tag k="fixme" v="consider place=hamlet" />
		<tag k="name" v="Gullingsrud" />
		<tag k="place" v="farm" />
		<tag k="ssr:stedsnr" v="552673" />
	</node>
	<node lat="60.68141111465678" lon="9.319633341338735" id="-32855">
		<tag k="name" v="Valdresbekken" />
		<tag k="ssr:stedsnr" v="552731" />
		<tag k="waterway" v="stream" />
	</node>
	<node lat="60.593319440536646" lon="8.793858332878138" id="-32858">
		<tag k="name" v="Dalane" />
		<tag k="natural" v="valley" />
		<tag k="place" v="locality" />
		<tag k="ssr:stedsnr" v="553056" />
	</node>
	<node lat="60.5120878054156" lon="8.681491275685447" id="-32860">
		<tag k="fixme" v="consider natural=peak for the most distinct mountains in the district" />
		<tag k="name" v="Såtenatten" />
		<tag k="natural" v="hill" />
		<tag k="place" v="locality" />
		<tag k="ssr:stedsnr" v="553180" />
	</node>
	<node lat="60.568000185109135" lon="9.096708885717632" id="-32861">
		<tag k="fixme" v="consider place=hamlet" />
		<tag k="name" v="Devegge" />
		<tag k="place" v="farm" />
		<tag k="ssr:stedsnr" v="553368" />
	</node>
	<node lat="60.56717222179833" lon="9.133269437588353" id="-32864">
		<tag k="name" v="Todokk" />
		<tag k="place" v="farm" />
		<tag k="ssr:stedsnr" v="553374" />
	</node>
	<node lat="60.56195833200359" lon="9.167183338116159" id="-32866">
		<tag k="fixme" v="consider natural=peak for the most distinct mountains in the district" />
		<tag k="name" v="Mørkedokknatten" />
		<tag k="natural" v="hill" />
		<tag k="place" v="locality" />
		<tag k="ssr:stedsnr" v="553389" />
	</node>
	<node lat="60.553327773678575" lon="8.927963895394472" id="-32867">
		<tag k="name" v="Syningsbekken" />
		<tag k="ssr:stedsnr" v="553391" />
		<tag k="waterway" v="stream" />
	</node>
	<node lat="60.550194441085026" lon="8.94738056054115" id="-32869">
		<tag k="name" v="Isakrud" />
		<tag k="place" v="farm" />
		<tag k="ssr:stedsnr" v="553396" />
	</node>
	<node lat="60.50973611025242" lon="9.294950001032873" id="-32870">
		<tag k="name" v="Grisetjern" />
		<tag k="natural" v="water" />
		<tag k="ssr:stedsnr" v="553787" />
	</node>
	<node lat="60.579730555667325" lon="9.313644445434033" id="-32871">
		<tag k="fixme" v="consider natural=peak for the most distinct mountains in the district" />
		<tag k="name" v="Leinenatten" />
		<tag k="natural" v="hill" />
		<tag k="place" v="locality" />
		<tag k="ssr:stedsnr" v="553824" />
	</node>
	<node lat="60.62220833216057" lon="9.210919441034573" id="-32875">
		<tag k="name" v="Tjernsettjern" />
		<tag k="natural" v="water" />
		<tag k="ssr:stedsnr" v="553473" />
	</node>
	<node lat="60.59855716725104" lon="9.435061651940657" id="-32876">
		<tag k="name" v="Strøsdammen" />
		<tag k="ssr:stedsnr" v="553674" />
		<tag k="waterway" v="dam" />
	</node>
	<node lat="60.505155559677796" lon="9.298686111911653" id="-32883">
		<tag k="name" v="Dugurdshaugen" />
		<tag k="natural" v="hill" />
		<tag k="place" v="locality" />
		<tag k="ssr:stedsnr" v="570845" />
	</node>
	<node lat="60.52923610711012" lon="9.136875006811447" id="-32884">
		<tag k="historic" v="shieling" />
		<tag k="name" v="Lindegarden" />
		<tag k="place" v="locality" />
		<tag k="ssr:stedsnr" v="570956" />
	</node>
	<node lat="60.53660277962885" lon="8.808688885012268" id="-32886">
		<tag k="name" v="Mohaugen" />
		<tag k="natural" v="hill" />
		<tag k="place" v="locality" />
		<tag k="ssr:stedsnr" v="571186" />
	</node>
	<node lat="60.50371666597524" lon="8.981755562158751" id="-32888">
		<tag k="name" v="Langehaug" />
		<tag k="natural" v="hill" />
		<tag k="place" v="locality" />
		<tag k="ssr:stedsnr" v="570957" />
	</node>
	<node lat="60.50968055265155" lon="8.981080547782966" id="-32889">
		<tag k="name" v="Rundehaug" />
		<tag k="natural" v="hill" />
		<tag k="place" v="locality" />
		<tag k="ssr:stedsnr" v="570959" />
	</node>
	<node lat="60.49676110873257" lon="8.928969437673613" id="-32890">
		<tag k="name" v="Driftevasshøgde" />
		<tag k="natural" v="hill" />
		<tag k="place" v="locality" />
		<tag k="ssr:stedsnr" v="570968" />
	</node>
	<node lat="60.48077221916517" lon="9.184869445524807" id="-32895">
		<tag k="name" v="Asleplassen" />
		<tag k="place" v="locality" />
		<tag k="ssr:stedsnr" v="571222" />
	</node>
	<node lat="60.62333333641066" lon="9.304680557493032" id="-32896">
		<tag k="name" v="Bananputten" />
		<tag k="natural" v="water" />
		<tag k="ssr:stedsnr" v="571445" />
		<tag k="water" v="pond" />
	</node>
	<node lat="60.5853444414146" lon="9.286616674002818" id="-32897">
		<tag k="fixme" v="consider natural=peak for the most distinct mountains in the district" />
		<tag k="name" v="Grånatten" />
		<tag k="natural" v="hill" />
		<tag k="place" v="locality" />
		<tag k="ssr:stedsnr" v="571477" />
	</node>
	<node lat="60.47722222672561" lon="9.23636667300542" id="-32898">
		<tag k="name" v="Kjerringskard" />
		<tag k="natural" v="valley" />
		<tag k="place" v="locality" />
		<tag k="ssr:stedsnr" v="571594" />
	</node>
	<node lat="60.58803969997523" lon="9.027803228700442" id="-32902">
		<tag k="fixme" v="consider natural=peak for the most distinct mountains in the district" />
		<tag k="name" v="Espesetåsen" />
		<tag k="natural" v="hill" />
		<tag k="place" v="locality" />
		<tag k="ssr:stedsnr" v="571827" />
	</node>
	<node lat="60.53883888944444" lon="9.135491661743503" id="-32905">
		<tag k="name" v="Knutsbråten" />
		<tag k="place" v="locality" />
		<tag k="ssr:stedsnr" v="571969" />
	</node>
	<node lat="60.600033335317434" lon="8.866299999685431" id="-32906">
		<tag k="name" v="Nattatjern" />
		<tag k="natural" v="water" />
		<tag k="ssr:stedsnr" v="603442" />
	</node>
	<node lat="60.48058333778068" lon="9.09053611958587" id="-32913">
		<tag k="name" v="Såtepiggen" />
		<tag k="natural" v="hill" />
		<tag k="place" v="locality" />
		<tag k="ssr:stedsnr" v="612291" />
	</node>
	<node lat="60.44329296832754" lon="9.070431548990243" id="-32918">
		<tag k="name" v="Grisetjern" />
		<tag k="natural" v="water" />
		<tag k="ssr:stedsnr" v="612341" />
	</node>
	<node lat="60.568552774152224" lon="8.759144448141983" id="-32922">
		<tag k="name" v="Auseskaftet" />
		<tag k="natural" v="water" />
		<tag k="ssr:stedsnr" v="613006" />
	</node>
	<node lat="60.55877499854412" lon="8.754000007494682" id="-32924">
		<tag k="name" v="Ausehøgde" />
		<tag k="natural" v="hill" />
		<tag k="place" v="locality" />
		<tag k="ssr:stedsnr" v="613240" />
	</node>
	<node lat="60.56691944482861" lon="9.103538894833779" id="-32925">
		<tag k="alt_name" v="Nes" />
		<tag k="amenity" v="place_of_worship" />
		<tag k="denomination" v="lutheran" />
		<tag k="name" v="Nes kirke" />
		<tag k="religion" v="christian" />
		<tag k="ssr:stedsnr" v="613386" />
	</node>
	<node lat="60.54003055993557" lon="8.97871111320549" id="-32929">
		<tag k="name" v="Veslestølen" />
		<tag k="place" v="locality" />
		<tag k="ssr:stedsnr" v="613563" />
	</node>
	<node lat="60.558094089179896" lon="9.116410318009436" id="-32931">
		<tag k="fixme" v="consider place=hamlet" />
		<tag k="name" v="Haraldset" />
		<tag k="place" v="farm" />
		<tag k="ssr:stedsnr" v="613571" />
	</node>
	<node lat="60.553038889892946" lon="9.150625006199018" id="-32932">
		<tag k="name" v="Nymoen" />
		<tag k="place" v="farm" />
		<tag k="ssr:stedsnr" v="613576" />
	</node>
	<node lat="60.568088885913504" lon="9.102758338440005" id="-32935">
		<tag k="name" v="Nesbyen" />
		<tag k="place" v="village" />
		<tag k="ssr:stedsnr" v="613433" />
	</node>
	<node lat="60.53296666777814" lon="9.155141673464673" id="-32940">
		<tag k="alt_name" v="Viki" />
		<tag k="name" v="Viken" />
		<tag k="place" v="farm" />
		<tag k="ssr:stedsnr" v="613613" />
	</node>
	<node lat="60.59219167075803" lon="9.228758333720467" id="-32944">
		<tag k="name" v="Brynhildstjern" />
		<tag k="natural" v="water" />
		<tag k="ssr:stedsnr" v="613647" />
	</node>
	<node lat="60.656830555853105" lon="9.230772219364447" id="-32948">
		<tag k="historic" v="shieling" />
		<tag k="name" v="Fjellstølen" />
		<tag k="place" v="isolated_dwelling" />
		<tag k="ssr:stedsnr" v="614769" />
	</node>
	<node lat="60.5071777742832" lon="9.287730556735314" id="-32951">
		<tag k="name" v="Grisetjernbekken" />
		<tag k="ssr:stedsnr" v="630833" />
		<tag k="waterway" v="stream" />
	</node>
	<node lat="60.66699166757931" lon="8.77783333641298" id="-32952">
		<tag k="name" v="Hallingdal" />
		<tag k="natural" v="valley" />
		<tag k="place" v="locality" />
		<tag k="ssr:stedsnr" v="630909" />
	</node>
	<node lat="60.566372224506466" lon="9.155111113012735" id="-32955">
		<tag k="name" v="Paddedokk" />
		<tag k="place" v="isolated_dwelling" />
		<tag k="ssr:stedsnr" v="631204" />
	</node>
	<node lat="60.562058328930085" lon="9.132144448065967" id="-32961">
		<tag k="name" v="Halsteinplass" />
		<tag k="place" v="farm" />
		<tag k="ssr:stedsnr" v="631067" />
	</node>
	<node lat="60.654444448318365" lon="9.043691663862205" id="-32966">
		<tag k="name" v="Svenkerud" />
		<tag k="place" v="farm" />
		<tag k="ssr:stedsnr" v="631874" />
	</node>
	<node lat="60.57670555568547" lon="8.993380562569076" id="-32967">
		<tag k="name" v="Uredalsbekken" />
		<tag k="ssr:stedsnr" v="631943" />
		<tag k="waterway" v="stream" />
	</node>
	<node lat="60.63297500341496" lon="8.855694437623386" id="-32968">
		<tag k="name" v="Gråtjern" />
		<tag k="natural" v="water" />
		<tag k="ssr:stedsnr" v="631976" />
	</node>
	<node lat="60.43615000316198" lon="9.200133326314253" id="-32973">
		<tag k="name" v="Bakkehaugen" />
		<tag k="natural" v="hill" />
		<tag k="place" v="locality" />
		<tag k="ssr:stedsnr" v="631929" />
	</node>
	<node lat="60.445141664649114" lon="9.181511115823982" id="-32974">
		<tag k="name" v="Bukkemyr" />
		<tag k="place" v="farm" />
		<tag k="ssr:stedsnr" v="632502" />
	</node>
	<node lat="60.53908055375361" lon="9.147772218616595" id="-32977">
		<tag k="name" v="Roløkken camping" />
		<tag k="ssr:stedsnr" v="654567" />
		<tag k="tourism" v="camp_site" />
	</node>
	<node lat="60.60309743357406" lon="9.072890506027443" id="-32981">
		<tag k="alt_name" v="Nedre Sjong" />
		<tag k="name" v="Nedre Skjong" />
		<tag k="old_name" v="ned Skjong" />
		<tag k="place" v="farm" />
		<tag k="ssr:stedsnr" v="667750" />
	</node>
	<node lat="60.46216944457089" lon="9.244916664484968" id="-32997">
		<tag k="fixme" v="consider natural=peak for the most distinct mountains in the district" />
		<tag k="name" v="Høgrauk" />
		<tag k="natural" v="hill" />
		<tag k="place" v="locality" />
		<tag k="ssr:stedsnr" v="734395" />
	</node>
	<node lat="60.46265833252191" lon="9.200727781031214" id="-32999">
		<tag k="name" v="Tørrisplassen" />
		<tag k="place" v="farm" />
		<tag k="ssr:stedsnr" v="734348" />
	</node>
	<node lat="60.44072499828568" lon="9.00095277232383" id="-33001">
		<tag k="name" v="Lille Storvardetjern" />
		<tag k="natural" v="water" />
		<tag k="ssr:stedsnr" v="734351" />
	</node>
	<node lat="60.439786111862006" lon="8.995902770187168" id="-33002">
		<tag k="name" v="Store Storvardetjern" />
		<tag k="natural" v="water" />
		<tag k="ssr:stedsnr" v="734352" />
	</node>
	<node lat="60.576669445252584" lon="9.113402783429025" id="-33007">
		<tag k="name" v="Nesbyen stasjon" />
		<tag k="railway" v="station" />
		<tag k="ssr:stedsnr" v="735415" />
		<tag k="train" v="yes" />
	</node>
	<node lat="60.60303333389172" lon="8.926841666449835" id="-33011">
		<tag k="name" v="Trytetjern" />
		<tag k="natural" v="water" />
		<tag k="ssr:stedsnr" v="735452" />
	</node>
	<node lat="60.53651666963913" lon="9.062216667871645" id="-33015">
		<tag k="fixme" v="consider natural=peak for the most distinct mountains in the district" />
		<tag k="name" v="Syningen" />
		<tag k="natural" v="hill" />
		<tag k="place" v="locality" />
		<tag k="ssr:stedsnr" v="735550" />
	</node>
	<node lat="60.64199722044939" lon="9.351286111456732" id="-33018">
		<tag k="name" v="Trytetjern" />
		<tag k="natural" v="water" />
		<tag k="ssr:stedsnr" v="735647" />
	</node>
	<node lat="60.592641663589966" lon="9.398675007626622" id="-33020">
		<tag k="name" v="Trytetjernbekken" />
		<tag k="ssr:stedsnr" v="735801" />
		<tag k="waterway" v="stream" />
	</node>
	<node lat="60.55942499975821" lon="9.316619438235833" id="-33028">
		<tag k="name" v="Svartetjern" />
		<tag k="natural" v="water" />
		<tag k="ssr:stedsnr" v="735846" />
	</node>
	<node lat="60.54451111126082" lon="9.25029721541304" id="-33029">
		<tag k="name" v="Huldratjern" />
		<tag k="natural" v="water" />
		<tag k="ssr:stedsnr" v="735864" />
	</node>
	<node lat="60.465472223346374" lon="9.252072231269123" id="-33031">
		<tag k="name" v="Sandøyrtjern" />
		<tag k="natural" v="water" />
		<tag k="ssr:stedsnr" v="752789" />
	</node>
	<node lat="60.648075000558" lon="9.03396388815317" id="-33032">
		<tag k="name" v="Osteberglie" />
		<tag k="natural" v="slope" />
		<tag k="place" v="locality" />
		<tag k="ssr:stedsnr" v="752978" />
	</node>
	<node lat="60.631516664697564" lon="9.052452769916718" id="-33033">
		<tag k="name" v="Grønlibråten" />
		<tag k="place" v="locality" />
		<tag k="ssr:stedsnr" v="752980" />
	</node>
	<node lat="60.50658332920969" lon="8.711472216335995" id="-33040">
		<tag k="name" v="Tjuverihalle" />
		<tag k="natural" v="valley" />
		<tag k="place" v="locality" />
		<tag k="ssr:stedsnr" v="753022" />
	</node>
	<node lat="60.543527777545066" lon="9.129897223148342" id="-33041">
		<tag k="name" v="Påverudlie" />
		<tag k="natural" v="slope" />
		<tag k="place" v="locality" />
		<tag k="ssr:stedsnr" v="753045" />
	</node>
	<node lat="60.513680557787076" lon="9.176330557553941" id="-33042">
		<tag k="name" v="Veltenatten" />
		<tag k="natural" v="hill" />
		<tag k="place" v="locality" />
		<tag k="ssr:stedsnr" v="753142" />
	</node>
	<node lat="60.444047223423844" lon="9.15651389501788" id="-33046">
		<tag k="name" v="Øvreklanten" />
		<tag k="natural" v="hill" />
		<tag k="place" v="locality" />
		<tag k="ssr:stedsnr" v="753423" />
	</node>
	<node lat="60.63329166980382" lon="9.025827784592682" id="-33050">
		<tag k="name" v="Kvernbakkan" />
		<tag k="natural" v="slope" />
		<tag k="place" v="locality" />
		<tag k="ssr:stedsnr" v="753737" />
	</node>
	<node lat="60.56399166397433" lon="9.025213888508622" id="-33055">
		<tag k="name" v="Haugen" />
		<tag k="place" v="farm" />
		<tag k="ssr:stedsnr" v="753934" />
	</node>
	<node lat="60.564819447604556" lon="9.003988897084847" id="-33056">
		<tag k="name" v="Skjervemoen" />
		<tag k="place" v="farm" />
		<tag k="ssr:stedsnr" v="753947" />
	</node>
	<node lat="60.536944440343575" lon="8.929944449011225" id="-33061">
		<tag k="bridge" v="yes" />
		<tag k="layer" v="1" />
		<tag k="name" v="Vola" />
		<tag k="ssr:stedsnr" v="774814" />
	</node>
	<node lat="60.47193888650848" lon="9.19411389406259" id="-33062">
		<tag k="bridge" v="yes" />
		<tag k="layer" v="1" />
		<tag k="name" v="Heio" />
		<tag k="ssr:stedsnr" v="775801" />
	</node>
	<node lat="60.48510278005466" lon="9.096224994944446" id="-33067">
		<tag k="name" v="Purketjern" />
		<tag k="natural" v="water" />
		<tag k="ssr:stedsnr" v="794254" />
	</node>
	<node lat="60.47784999918869" lon="9.271849990957811" id="-33068">
		<tag k="name" v="Kvelven" />
		<tag k="place" v="isolated_dwelling" />
		<tag k="ssr:stedsnr" v="794327" />
	</node>
	<node lat="60.47661111007671" lon="9.135625002096639" id="-33069">
		<tag k="name" v="Nonsnatten" />
		<tag k="natural" v="hill" />
		<tag k="place" v="locality" />
		<tag k="ssr:stedsnr" v="794274" />
	</node>
	<node lat="60.548233332014426" lon="8.785602774643914" id="-33072">
		<tag k="name" v="Veslevatnet" />
		<tag k="natural" v="water" />
		<tag k="ssr:stedsnr" v="796232" />
		<tag k="water" v="lake" />
	</node>
	<node lat="60.43039066602095" lon="9.2363913710137" id="-33073">
		<tag k="fixme" v="consider natural=peak for the most distinct mountains in the district" />
		<tag k="name" v="Ålungruken" />
		<tag k="natural" v="hill" />
		<tag k="place" v="locality" />
		<tag k="ssr:stedsnr" v="795222" />
	</node>
	<node lat="60.48542500207638" lon="9.276924999024661" id="-33074">
		<tag k="fixme" v="consider natural=peak for the most distinct mountains in the district" />
		<tag k="name" v="Finnesetkollen" />
		<tag k="natural" v="hill" />
		<tag k="place" v="locality" />
		<tag k="ssr:stedsnr" v="795371" />
	</node>
	<node lat="60.49557500079766" lon="9.269674991787372" id="-33075">
		<tag k="name" v="Løken" />
		<tag k="place" v="locality" />
		<tag k="ssr:stedsnr" v="795346" />
	</node>
	<node lat="60.39878333280022" lon="9.083022225897412" id="-33076">
		<tag k="name" v="Reinsjøen" />
		<tag k="natural" v="water" />
		<tag k="ssr:stedsnr" v="795412" />
		<tag k="water" v="lake" />
	</node>
	<node lat="60.57915832901967" lon="9.178247225462291" id="-33078">
		<tag k="name" v="Torydningen" />
		<tag k="place" v="isolated_dwelling" />
		<tag k="ssr:stedsnr" v="795492" />
	</node>
	<node lat="60.53920277539259" lon="9.330852780091092" id="-33084">
		<tag k="fixme" v="consider natural=peak for the most distinct mountains in the district" />
		<tag k="name" v="Blåfjell" />
		<tag k="natural" v="hill" />
		<tag k="place" v="locality" />
		<tag k="ssr:stedsnr" v="796884" />
	</node>
	<node lat="60.603329896807004" lon="8.988639303678964" id="-33089">
		<tag k="name" v="Heimtjern" />
		<tag k="natural" v="water" />
		<tag k="ssr:stedsnr" v="796456" />
	</node>
	<node lat="60.59937500375406" lon="8.919766669552597" id="-33090">
		<tag k="name" v="Storausa" />
		<tag k="natural" v="water" />
		<tag k="ssr:stedsnr" v="796462" />
	</node>
	<node lat="60.61907778195635" lon="9.169972228148612" id="-33091">
		<tag k="name" v="Elgesgrovbekken" />
		<tag k="ssr:stedsnr" v="796435" />
		<tag k="waterway" v="stream" />
	</node>
	<node lat="60.617358336023436" lon="9.194280557467955" id="-33092">
		<tag k="name" v="Vardevollen" />
		<tag k="place" v="isolated_dwelling" />
		<tag k="ssr:stedsnr" v="796436" />
	</node>
	<node lat="60.61001944180045" lon="8.902369443463964" id="-33093">
		<tag k="name" v="Gamlemannstjern" />
		<tag k="natural" v="water" />
		<tag k="old_name" v="Gamlemannstjernet" />
		<tag k="ssr:stedsnr" v="796437" />
	</node>
	<node lat="60.61228611042717" lon="8.8967361101164" id="-33094">
		<tag k="name" v="Gamlemannshovda" />
		<tag k="natural" v="hill" />
		<tag k="place" v="locality" />
		<tag k="ssr:stedsnr" v="796445" />
	</node>
	<node lat="60.50849492462262" lon="9.189016990585795" id="-33097">
		<tag k="fixme" v="consider place=hamlet" />
		<tag k="name" v="Hovde" />
		<tag k="place" v="farm" />
		<tag k="ssr:stedsnr" v="796524" />
	</node>
	<node lat="60.53663055760376" lon="9.149741668234462" id="-33100">
		<tag k="name" v="Grøtodden" />
		<tag k="place" v="farm" />
		<tag k="ssr:stedsnr" v="796581" />
	</node>
	<node lat="60.445105551254855" lon="9.099894445993339" id="-33110">
		<tag k="name" v="Imleberget" />
		<tag k="natural" v="hill" />
		<tag k="place" v="locality" />
		<tag k="ssr:stedsnr" v="813457" />
	</node>
	<node lat="60.539266668290935" lon="8.975719438958151" id="-33113">
		<tag k="name" v="Slagghaug" />
		<tag k="natural" v="hill" />
		<tag k="place" v="locality" />
		<tag k="ssr:stedsnr" v="813635" />
	</node>
	<node lat="60.530311107843026" lon="9.213272228366048" id="-33114">
		<tag k="name" v="Ureberg" />
		<tag k="natural" v="ridge" />
		<tag k="place" v="locality" />
		<tag k="ssr:stedsnr" v="813638" />
	</node>
	<node lat="60.470591666575075" lon="9.240252776662558" id="-33117">
		<tag k="name" v="Veaøyne" />
		<tag k="place" v="island" />
		<tag k="ssr:stedsnr" v="813790" />
	</node>
	<node lat="60.63510833722715" lon="8.966533325715982" id="-33118">
		<tag k="name" v="Storebakkan" />
		<tag k="natural" v="slope" />
		<tag k="place" v="locality" />
		<tag k="ssr:stedsnr" v="813988" />
	</node>
	<node lat="60.58061944657226" lon="9.092563894010887" id="-33119">
		<tag k="name" v="Endreplass" />
		<tag k="place" v="farm" />
		<tag k="ssr:stedsnr" v="814101" />
	</node>
	<node lat="60.58548888686662" lon="9.190247230490332" id="-33121">
		<tag k="name" v="Ulvedalen" />
		<tag k="natural" v="valley" />
		<tag k="place" v="locality" />
		<tag k="ssr:stedsnr" v="814218" />
	</node>
	<node lat="60.536011111501615" lon="9.189730557764328" id="-33128">
		<tag k="name" v="Kultom" />
		<tag k="place" v="isolated_dwelling" />
		<tag k="ssr:stedsnr" v="814232" />
	</node>
	<node lat="60.55596666523809" lon="9.27191110965504" id="-33131">
		<tag k="name" v="Venelitjern" />
		<tag k="natural" v="water" />
		<tag k="ssr:stedsnr" v="814479" />
	</node>
	<node lat="60.63094166422065" lon="9.071755563077938" id="-33139">
		<tag k="name" v="Øvre Bråten" />
		<tag k="place" v="farm" />
		<tag k="ssr:stedsnr" v="814859" />
	</node>
	<node lat="60.47186111171826" lon="9.015483341262943" id="-33140">
		<tag k="name" v="Sloddemyre" />
		<tag k="natural" v="wetland" />
		<tag k="ssr:stedsnr" v="815054" />
	</node>
	<node lat="60.61356111022144" lon="9.230461105253424" id="-33141">
		<tag k="name" v="Lyarberget" />
		<tag k="natural" v="hill" />
		<tag k="place" v="locality" />
		<tag k="ssr:stedsnr" v="815453" />
	</node>
	<node lat="60.60124282676258" lon="9.073874173217936" id="-33144">
		<tag k="fixme" v="consider place=hamlet" />
		<tag k="name" v="Skjong" />
		<tag k="place" v="farm" />
		<tag k="ssr:stedsnr" v="841449" />
	</node>
	<node lat="60.44563611042166" lon="9.151411109401645" id="-33156">
		<tag k="name" v="Mytetjern" />
		<tag k="natural" v="water" />
		<tag k="ssr:stedsnr" v="856354" />
	</node>
	<node lat="60.48228333170941" lon="9.261325008082473" id="-33157">
		<tag k="name" v="Finneset" />
		<tag k="place" v="locality" />
		<tag k="ssr:stedsnr" v="856356" />
	</node>
	<node lat="60.585227774265114" lon="9.087222227467166" id="-33160">
		<tag k="name" v="Frekeplass" />
		<tag k="place" v="farm" />
		<tag k="ssr:stedsnr" v="856465" />
	</node>
	<node lat="60.51276944486283" lon="9.191886104225063" id="-33162">
		<tag k="name" v="Søre Li" />
		<tag k="place" v="farm" />
		<tag k="ssr:stedsnr" v="856575" />
	</node>
	<node lat="60.640294442760016" lon="9.049013893218069" id="-33166">
		<tag k="name" v="Solli" />
		<tag k="place" v="farm" />
		<tag k="ssr:stedsnr" v="856529" />
	</node>
	<node lat="60.545980558706944" lon="9.296283329615758" id="-33167">
		<tag k="name" v="Krokset" />
		<tag k="place" v="isolated_dwelling" />
		<tag k="ssr:stedsnr" v="856879" />
	</node>
	<node lat="60.56446666385846" lon="9.3125222146721" id="-33169">
		<tag k="historic" v="shieling" />
		<tag k="name" v="Sandfet" />
		<tag k="place" v="isolated_dwelling" />
		<tag k="ssr:stedsnr" v="856852" />
	</node>
	<node lat="60.55359722509045" lon="9.235397217347087" id="-33170">
		<tag k="historic" v="shieling" />
		<tag k="name" v="Nybu" />
		<tag k="place" v="isolated_dwelling" />
		<tag k="ssr:stedsnr" v="856862" />
	</node>
	<node lat="60.55621111260067" lon="9.250388886520689" id="-33171">
		<tag k="historic" v="shieling" />
		<tag k="name" v="Haugan" />
		<tag k="place" v="isolated_dwelling" />
		<tag k="ssr:stedsnr" v="856864" />
	</node>
	<node lat="60.52210555597136" lon="8.82370554930726" id="-33174">
		<tag k="fixme" v="consider natural=peak for the most distinct mountains in the district" />
		<tag k="name" v="Flatåsen" />
		<tag k="natural" v="hill" />
		<tag k="place" v="locality" />
		<tag k="ssr:stedsnr" v="857222" />
	</node>
	<node lat="60.540366671017544" lon="8.720694446739886" id="-33176">
		<tag k="name" v="Smalvatnet" />
		<tag k="natural" v="water" />
		<tag k="ssr:stedsnr" v="857250" />
	</node>
	<node lat="60.606900001252846" lon="9.20502777157019" id="-33180">
		<tag k="name" v="Øvre Stalltjern" />
		<tag k="natural" v="water" />
		<tag k="ssr:stedsnr" v="857460" />
	</node>
	<node lat="60.50151388911987" lon="9.073399997776267" id="-33186">
		<tag k="name" v="Bærsenden" />
		<tag k="natural" v="hill" />
		<tag k="place" v="locality" />
		<tag k="ssr:stedsnr" v="874137" />
	</node>
	<node lat="60.63774166815712" lon="9.040119450141068" id="-33189">
		<tag k="name" v="Salen" />
		<tag k="natural" v="hill" />
		<tag k="place" v="locality" />
		<tag k="ssr:stedsnr" v="874156" />
	</node>
	<node lat="60.53358332891853" lon="8.80476945112308" id="-33191">
		<tag k="name" v="Hurrahaugtjern" />
		<tag k="natural" v="water" />
		<tag k="ssr:stedsnr" v="874199" />
	</node>
	<node lat="60.53374444788845" lon="8.848688893425999" id="-33192">
		<tag k="name" v="Fjerdingsbekk" />
		<tag k="ssr:stedsnr" v="874206" />
		<tag k="waterway" v="stream" />
	</node>
	<node lat="60.538034642901394" lon="8.818202743142391" id="-33193">
		<tag k="historic" v="shieling" />
		<tag k="name" v="Venehalle" />
		<tag k="place" v="isolated_dwelling" />
		<tag k="ssr:stedsnr" v="874207" />
	</node>
	<node lat="60.53732777723194" lon="8.797658326866468" id="-33194">
		<tag k="name" v="Raudbekk" />
		<tag k="ssr:stedsnr" v="874208" />
		<tag k="waterway" v="stream" />
	</node>
	<node lat="60.47027777883206" lon="9.25956666081465" id="-33195">
		<tag k="name" v="Kolbråten" />
		<tag k="place" v="locality" />
		<tag k="ssr:stedsnr" v="874786" />
	</node>
	<node lat="60.67069167091641" lon="8.99958610916853" id="-33196">
		<tag k="name" v="Stille" />
		<tag k="natural" v="hill" />
		<tag k="place" v="locality" />
		<tag k="ssr:stedsnr" v="874963" />
	</node>
	<node lat="60.41699722570961" lon="9.154388889372756" id="-33198">
		<tag k="name" v="Gislerudhytta" />
		<tag k="place" v="isolated_dwelling" />
		<tag k="ssr:stedsnr" v="874656" />
	</node>
	<node lat="60.458044441349195" lon="9.208566674472578" id="-33200">
		<tag k="name" v="Juvhaugen" />
		<tag k="natural" v="hill" />
		<tag k="place" v="locality" />
		<tag k="ssr:stedsnr" v="874580" />
	</node>
	<node lat="60.46657222183515" lon="9.200875001769928" id="-33201">
		<tag k="name" v="Øvre-Hallen" />
		<tag k="place" v="farm" />
		<tag k="ssr:stedsnr" v="874583" />
	</node>
	<node lat="60.50164999685786" lon="9.116838891012465" id="-33203">
		<tag k="historic" v="shieling" />
		<tag k="name" v="Buhovdseter" />
		<tag k="place" v="isolated_dwelling" />
		<tag k="ssr:stedsnr" v="874865" />
	</node>
	<node lat="60.50808889147056" lon="9.156080560406512" id="-33204">
		<tag k="name" v="Skåterud" />
		<tag k="place" v="locality" />
		<tag k="ssr:stedsnr" v="874866" />
	</node>
	<node lat="60.496108333256146" lon="8.81666110269784" id="-33205">
		<tag k="name" v="Skreiva" />
		<tag k="natural" v="slope" />
		<tag k="place" v="locality" />
		<tag k="ssr:stedsnr" v="875009" />
	</node>
	<node lat="60.509533826966965" lon="9.263713861032166" id="-33206">
		<tag k="name" v="Knutshøltjern" />
		<tag k="natural" v="water" />
		<tag k="ssr:stedsnr" v="874983" />
	</node>
	<node lat="60.58371111406146" lon="9.096772226072831" id="-33207">
		<tag k="name" v="Kavringen" />
		<tag k="place" v="islet" />
		<tag k="ssr:stedsnr" v="875084" />
	</node>
	<node lat="60.607827777951506" lon="9.302505562317572" id="-33216">
		<tag k="name" v="Elumtjernbekken" />
		<tag k="ssr:stedsnr" v="875471" />
		<tag k="waterway" v="stream" />
	</node>
	<node lat="60.443736114591296" lon="9.158850005326283" id="-33218">
		<tag k="name" v="Vesleklanten" />
		<tag k="natural" v="hill" />
		<tag k="place" v="locality" />
		<tag k="ssr:stedsnr" v="875490" />
	</node>
	<node lat="60.61857222194041" lon="9.217038897009893" id="-33221">
		<tag k="name" v="Nedre Skjegletjern" />
		<tag k="natural" v="water" />
		<tag k="ssr:stedsnr" v="875427" />
	</node>
	<node lat="60.61324444099178" lon="9.31615554892083" id="-33222">
		<tag k="name" v="Kattugletjern" />
		<tag k="natural" v="water" />
		<tag k="ssr:stedsnr" v="875446" />
	</node>
	<node lat="60.59543333501479" lon="9.135761106497931" id="-33223">
		<tag k="name" v="Baklie" />
		<tag k="natural" v="slope" />
		<tag k="place" v="locality" />
		<tag k="ssr:stedsnr" v="875777" />
	</node>
	<node lat="60.4919194436754" lon="9.194986105383178" id="-33224">
		<tag k="fixme" v="consider natural=peak for the most distinct mountains in the district" />
		<tag k="name" v="Lauvviknatten" />
		<tag k="natural" v="hill" />
		<tag k="place" v="locality" />
		<tag k="ssr:stedsnr" v="875726" />
	</node>
	<node lat="60.64110277967405" lon="9.052211118125133" id="-33225">
		<tag k="name" v="Hallibakken" />
		<tag k="place" v="farm" />
		<tag k="ssr:stedsnr" v="875837" />
	</node>
	<node lat="60.435138888580916" lon="9.208552770963259" id="-33226">
		<tag k="name" v="Nystølfossen" />
		<tag k="natural" v="waterfall" />
		<tag k="ssr:stedsnr" v="875914" />
	</node>
	<node lat="60.453166670534074" lon="9.200213882564377" id="-33227">
		<tag k="name" v="Brattebakk" />
		<tag k="natural" v="slope" />
		<tag k="place" v="locality" />
		<tag k="ssr:stedsnr" v="875921" />
	</node>
	<node lat="60.42509166805314" lon="9.195813892572094" id="-33232">
		<tag k="bridge" v="yes" />
		<tag k="layer" v="1" />
		<tag k="name" v="Bruhaug" />
		<tag k="ssr:stedsnr" v="957769" />
	</node>
	<node lat="60.63423611395345" lon="9.06927777185838" id="-33233">
		<tag k="name" v="Krusetjernbekken" />
		<tag k="ssr:stedsnr" v="965461" />
		<tag k="waterway" v="stream" />
	</node>
	<node lat="60.55617777524257" lon="8.804152780034814" id="-33234">
		<tag k="alt_name" v="Skårsrudstølen;Skålsrudstølane" />
		<tag k="loc_name" v="Skålsrudstølan" />
		<tag k="name" v="Skålsrudstølen" />
		<tag k="old_name" v="Skardsrud Sr;Skaalsrud-Stølene;Skårsrudstølane;Skaarsrudstølanne;Skaalsrudstølen" />
		<tag k="place" v="hamlet" />
		<tag k="ssr:stedsnr" v="968943" />
	</node>
	<node lat="60.578710349892994" lon="9.327212899423149" id="-33242">
		<tag k="fixme" v="consider tourism=alpine_hut or tourism=chalet" />
		<tag k="name" v="Vassfartoppen" />
		<tag k="ssr:stedsnr" v="985799" />
		<tag k="tourism" v="wilderness_hut" />
	</node>
	<node lat="60.47490061456766" lon="9.248723005894092" id="-33282">
		<tag k="fixme" v="consider place=hamlet" />
		<tag k="name" v="Berg" />
		<tag k="place" v="farm" />
		<tag k="ssr:stedsnr" v="1072303" />
	</node>
	<node lat="60.56369428781997" lon="9.198775727020807" id="-33283">
		<tag k="fixme" v="consider place=hamlet" />
		<tag k="name" v="Toen" />
		<tag k="place" v="farm" />
		<tag k="ssr:stedsnr" v="1072304" />
	</node>
	<node lat="60.56931666287879" lon="9.021740983815874" id="-33284">
		<tag k="fixme" v="consider place=hamlet" />
		<tag k="name" v="Nybråten" />
		<tag k="place" v="farm" />
		<tag k="ssr:stedsnr" v="1072306" />
	</node>
	<node lat="60.5325839297086" lon="8.913307270355556" id="-33285">
		<tag k="fixme" v="consider place=hamlet" />
		<tag k="name" v="Rukke" />
		<tag k="place" v="farm" />
		<tag k="ssr:stedsnr" v="1072307" />
	</node>
	<node lat="60.53427384381095" lon="8.817941628755202" id="-33286">
		<tag k="fixme" v="consider place=hamlet" />
		<tag k="name" v="Myking" />
		<tag k="place" v="farm" />
		<tag k="ssr:stedsnr" v="1072308" />
	</node>
	<node lat="60.56455619745428" lon="9.090659594590504" id="-33287">
		<tag k="fixme" v="consider place=hamlet" />
		<tag k="name" v="Prestbakken" />
		<tag k="place" v="farm" />
		<tag k="ssr:stedsnr" v="1072309" />
	</node>
	<node lat="60.566600664904726" lon="9.092532190130155" id="-33288">
		<tag k="fixme" v="consider place=hamlet" />
		<tag k="name" v="Nes prestegård" />
		<tag k="place" v="farm" />
		<tag k="ssr:stedsnr" v="1072310" />
	</node>
	<node lat="60.56328842978508" lon="9.002289976270387" id="-33320">
		<tag k="name" v="Huse" />
		<tag k="place" v="farm" />
		<tag k="ssr:stedsnr" v="1078465" />
	</node>
	<node lat="60.47387282633281" lon="9.185692276335155" id="-33325">
		<tag k="fixme" v="consider place=hamlet" />
		<tag k="name" v="Børdalen" />
		<tag k="place" v="farm" />
		<tag k="ssr:stedsnr" v="1080326" />
	</node>
	<node lat="60.47558729426886" lon="9.249275692347139" id="-33331">
		<tag k="name" v="Bergheim" />
		<tag k="place" v="locality" />
		<tag k="ssr:stedsnr" v="1083319" />
	</node>
</osm>
