<?xml version="1.0" encoding="UTF-8"?>
<<<<<<< HEAD
<osm version="0.6" generator="osmapis">
	<node lat="59.92990555828613" lon="11.082280564546918" id="-14825">
		<tag k="name" v="Gressnebben" />
		<tag k="natural" v="cape" />
		<tag k="ssr:stedsnr" v="24582" />
	</node>
	<node lat="59.92461666505365" lon="11.085358329384983" id="-14826">
		<tag k="name" v="Engavika" />
		<tag k="natural" v="bay" />
		<tag k="ssr:stedsnr" v="24584" />
	</node>
	<node lat="59.88070277914583" lon="11.050258329235158" id="-14830">
		<tag k="name" v="Fiskelausen" />
		<tag k="natural" v="water" />
		<tag k="old_name" v="Fiskeløysa" />
		<tag k="ssr:stedsnr" v="65186" />
	</node>
	<node lat="59.93191388751948" lon="11.079361103336788" id="-14836">
		<tag k="name" v="Sundet" />
		<tag k="natural" v="strait" />
		<tag k="ssr:stedsnr" v="85503" />
	</node>
	<node lat="59.863086110011025" lon="11.04986945221583" id="-14838">
		<tag k="alt_name" v="Langvann" />
		<tag k="name" v="Langvannet" />
		<tag k="natural" v="water" />
		<tag k="old_name" v="Langvatn" />
		<tag k="ssr:stedsnr" v="247136" />
	</node>
	<node lat="59.86752222005348" lon="11.04253334081358" id="-14839">
		<tag k="alt_name" v="Bjørtjerna, øvre" />
		<tag k="name" v="Søndre Bjørtjern" />
		<tag k="natural" v="water" />
		<tag k="ssr:stedsnr" v="247138" />
	</node>
	<node lat="59.854258336788185" lon="11.01777499139947" id="-14841">
		<tag k="alt_name" v="Biritjern" />
		<tag k="name" v="Biritjernet" />
		<tag k="natural" v="water" />
		<tag k="ssr:stedsnr" v="247214" />
	</node>
	<node lat="59.88564722494701" lon="11.078863888262772" id="-14842">
		<tag k="alt_name" v="Lintjernet" />
		<tag k="name" v="Lintjenn" />
		<tag k="natural" v="water" />
		<tag k="ssr:stedsnr" v="102210" />
	</node>
	<node lat="59.91720797299425" lon="11.057183317183744" id="-14855">
		<tag k="alt_name" v="Fjerdingbyputten" />
		<tag k="name" v="Fjerdingbydammen" />
		<tag k="natural" v="water" />
		<tag k="ssr:stedsnr" v="186107" />
		<tag k="water" v="pond" />
	</node>
	<node lat="59.86473610925758" lon="11.053705549314401" id="-14858">
		<tag k="name" v="Søndre Mørkåstjern" />
		<tag k="natural" v="water" />
		<tag k="ssr:stedsnr" v="266498" />
	</node>
	<node lat="59.87400833199103" lon="11.109966658615583" id="-14864">
		<tag k="name" v="Grøtnesnabben" />
		<tag k="natural" v="cape" />
		<tag k="ssr:stedsnr" v="267583" />
	</node>
	<node lat="59.88436316692662" lon="11.029475004120203" id="-14883">
		<tag k="name" v="Huketjerna" />
		<tag k="natural" v="water" />
		<tag k="ssr:stedsnr" v="308148" />
		<tag k="water" v="lake" />
	</node>
	<node lat="59.87363055265789" lon="11.059044445061621" id="-14884">
		<tag k="name" v="Nordre Merratjern" />
		<tag k="natural" v="water" />
		<tag k="ssr:stedsnr" v="327465" />
	</node>
	<node lat="59.839336111513695" lon="11.03027499848533" id="-14894">
		<tag k="alt_name" v="Midtre Krokvann" />
		<tag k="name" v="Midtre Krokvannet" />
		<tag k="natural" v="water" />
		<tag k="old_name" v="Krokvatnet, m" />
		<tag k="ssr:stedsnr" v="368221" />
	</node>
	<node lat="59.876291667074874" lon="11.088263881445124" id="-14900">
		<tag k="name" v="Gjellebekken" />
		<tag k="ssr:stedsnr" v="387647" />
		<tag k="waterway" v="stream" />
	</node>
	<node lat="59.948172225382066" lon="11.046905549841675" id="-14903">
		<tag k="name" v="Sørlivika" />
		<tag k="natural" v="bay" />
		<tag k="ssr:stedsnr" v="387697" />
	</node>
	<node lat="59.90553601924117" lon="11.028810614810851" id="-14915">
		<tag k="alt_name" v="Blåtjern" />
		<tag k="name" v="Blåtjernet" />
		<tag k="natural" v="water" />
		<tag k="ssr:stedsnr" v="430062" />
	</node>
	<node lat="59.90104166995735" lon="11.12199443884504" id="-14922">
		<tag k="name" v="Fautøya" />
		<tag k="place" v="island" />
		<tag k="ssr:stedsnr" v="671637" />
	</node>
	<node lat="59.8624111104035" lon="11.078663880203095" id="-14924">
		<tag k="name" v="Myrdammen" />
		<tag k="natural" v="water" />
		<tag k="ssr:stedsnr" v="672132" />
	</node>
	<node lat="59.847272224474345" lon="11.078900006707343" id="-14925">
		<tag k="alt_name" v="Brasmetjern" />
		<tag k="name" v="Brasmetjernet" />
		<tag k="natural" v="water" />
		<tag k="ssr:stedsnr" v="672227" />
	</node>
	<node lat="59.871327778484115" lon="11.100200003469938" id="-14926">
		<tag k="name" v="Gjellebekkvika" />
		<tag k="natural" v="bay" />
		<tag k="ssr:stedsnr" v="672666" />
	</node>
	<node lat="59.84499068396147" lon="11.082395975116688" id="-14929">
		<tag k="alt_name" v="Bikkjetjern" />
		<tag k="name" v="Bikkjetjerna" />
		<tag k="natural" v="water" />
		<tag k="ssr:stedsnr" v="489221" />
		<tag k="water" v="lake" />
	</node>
	<node lat="59.85268889305411" lon="11.046758341898864" id="-14931">
		<tag k="alt_name" v="Auretjern" />
		<tag k="name" v="Aurtjernet" />
		<tag k="natural" v="water" />
		<tag k="ssr:stedsnr" v="490232" />
	</node>
	<node lat="59.90913195764373" lon="11.052066381588032" id="-14941">
		<tag k="name" v="Olaputten" />
		<tag k="natural" v="water" />
		<tag k="ssr:stedsnr" v="550126" />
		<tag k="water" v="pond" />
	</node>
	<node lat="59.840572222318826" lon="11.063755560189525" id="-14945">
		<tag k="alt_name" v="Morttjern" />
		<tag k="name" v="Morttjernet" />
		<tag k="natural" v="water" />
		<tag k="ssr:stedsnr" v="551510" />
	</node>
	<node lat="59.853497223190544" lon="11.083786111486601" id="-14946">
		<tag k="alt_name" v="Svarttjern" />
		<tag k="name" v="Svarttjernet" />
		<tag k="natural" v="water" />
		<tag k="ssr:stedsnr" v="551241" />
	</node>
	<node lat="59.841752781077155" lon="11.057491671919367" id="-14958">
		<tag k="name" v="Svarttjernet" />
		<tag k="natural" v="water" />
		<tag k="ssr:stedsnr" v="611194" />
	</node>
	<node lat="59.883222222536624" lon="11.105405549287594" id="-14965">
		<tag k="name" v="Kvennhusfossen" />
		<tag k="natural" v="waterfall" />
		<tag k="ssr:stedsnr" v="630588" />
	</node>
	<node lat="59.8574861090386" lon="11.040911107346346" id="-14968">
		<tag k="alt_name" v="Østre Bjørntjern" />
		<tag k="name" v="Morttjernet" />
=======
<osm generator="osmapis" version="0.6">
	<node id="-255391" lat="59.8946944404" lon="11.1198861071">
		<tag k="name" v="Skogholtsåa" />
		<tag k="ssr:stedsnr" v="873482" />
		<tag k="waterway" v="river" />
	</node>
	<node id="-255390" lat="59.884480554" lon="11.0434583289">
		<tag k="name" v="Øvre Setertjern" />
>>>>>>> e1d4bc35ff8a6074a6f2e91616a996b547c36f15
		<tag k="natural" v="water" />
		<tag k="ssr:stedsnr" v="672207" />
	</node>
<<<<<<< HEAD
	<node lat="59.85203888666086" lon="11.023738894652572" id="-14969">
		<tag k="alt_name" v="Krokvannskalven" />
		<tag k="name" v="Kalven" />
		<tag k="natural" v="bay" />
		<tag k="ssr:stedsnr" v="672221" />
	</node>
	<node lat="59.83149444187648" lon="11.078583337475477" id="-14970">
		<tag k="name" v="Åborvannet" />
=======
	<node id="-255379" lat="59.8777027817" lon="11.1082472254">
		<tag k="name" v="Fettavika" />
		<tag k="natural" v="bay" />
		<tag k="ssr:stedsnr" v="812722" />
	</node>
	<node id="-255367" lat="59.906255559" lon="11.030369438">
		<tag k="name" v="Blåtjerntangen" />
		<tag k="natural" v="cape" />
		<tag k="ssr:stedsnr" v="812552" />
	</node>
	<node id="-255359" lat="59.8709777759" lon="11.0764749911">
		<tag k="name" v="Gryta" />
>>>>>>> e1d4bc35ff8a6074a6f2e91616a996b547c36f15
		<tag k="natural" v="water" />
		<tag k="ssr:stedsnr" v="672272" />
	</node>
<<<<<<< HEAD
	<node lat="59.849586112805326" lon="11.09706111652073" id="-14971">
		<tag k="name" v="Vesledammen" />
=======
	<node id="-255357" lat="59.9190305591" lon="11.0271555612">
		<tag k="name" v="Åmotdammen" />
>>>>>>> e1d4bc35ff8a6074a6f2e91616a996b547c36f15
		<tag k="natural" v="water" />
		<tag k="ssr:stedsnr" v="672730" />
	</node>
<<<<<<< HEAD
	<node lat="59.89076667106094" lon="11.042352780570383" id="-14974">
		<tag k="name" v="Nordre Skurvåstjern" />
=======
	<node id="-255354" lat="59.8761833316" lon="11.0271555564">
		<tag k="alt_name" v="Opptjern" />
		<tag k="name" v="Opptjernet" />
>>>>>>> e1d4bc35ff8a6074a6f2e91616a996b547c36f15
		<tag k="natural" v="water" />
		<tag k="ssr:stedsnr" v="691481" />
	</node>
	<node lat="59.90463888723821" lon="11.123069438811726" id="-14986">
		<tag k="alt_name" v="Rusholet" />
		<tag k="name" v="Rudsholet" />
		<tag k="natural" v="strait" />
		<tag k="ssr:stedsnr" v="733580" />
	</node>
<<<<<<< HEAD
	<node lat="59.88534166478929" lon="11.10061667235196" id="-14992">
=======
	<node id="-255343" lat="59.8853416648" lon="11.1006166724">
>>>>>>> e1d4bc35ff8a6074a6f2e91616a996b547c36f15
		<tag k="name" v="Søstufossen" />
		<tag k="natural" v="waterfall" />
		<tag k="ssr:stedsnr" v="751674" />
	</node>
<<<<<<< HEAD
	<node lat="59.87097777587849" lon="11.076474991120865" id="-14994">
		<tag k="name" v="Gryta" />
		<tag k="natural" v="water" />
		<tag k="ssr:stedsnr" v="793152" />
	</node>
	<node lat="59.8587944444683" lon="11.024836112591125" id="-14999">
		<tag k="alt_name" v="Murterudvannet" />
		<tag k="name" v="Morterudvann" />
=======
	<node id="-255336" lat="59.8832222225" lon="11.1054055493">
		<tag k="name" v="Kvennhusfossen" />
		<tag k="natural" v="waterfall" />
		<tag k="ssr:stedsnr" v="630588" />
	</node>
	<node id="-255331" lat="59.828886108" lon="11.091330552">
		<tag k="alt_name" v="Vestre Morttjern" />
		<tag k="name" v="Morttjernet" />
>>>>>>> e1d4bc35ff8a6074a6f2e91616a996b547c36f15
		<tag k="natural" v="water" />
		<tag k="old_name" v="Morterudvatn" />
		<tag k="ssr:stedsnr" v="915200" />
	</node>
<<<<<<< HEAD
	<node lat="59.86163611331306" lon="11.034608330131423" id="-15000">
		<tag k="alt_name" v="Vestre Bjørntjern" />
		<tag k="name" v="Bjørnholttjernet" />
=======
	<node id="-255329" lat="59.8417527811" lon="11.0574916719">
		<tag k="name" v="Svarttjernet" />
>>>>>>> e1d4bc35ff8a6074a6f2e91616a996b547c36f15
		<tag k="natural" v="water" />
		<tag k="ssr:stedsnr" v="915143" />
	</node>
<<<<<<< HEAD
	<node lat="59.8860520523338" lon="11.121646365715653" id="-15002">
		<tag k="name" v="Snekkervika" />
		<tag k="natural" v="bay" />
		<tag k="ssr:stedsnr" v="915631" />
	</node>
	<node lat="59.90625555904289" lon="11.03036943804024" id="-15005">
		<tag k="name" v="Blåtjerntangen" />
		<tag k="natural" v="cape" />
		<tag k="ssr:stedsnr" v="812552" />
	</node>
	<node lat="59.87300162413971" lon="11.05861209142076" id="-15016">
		<tag k="name" v="Merratjerna" />
=======
	<node id="-255321" lat="59.8526055582" lon="11.0682444418">
		<tag k="name" v="Bjørnholmen" />
		<tag k="place" v="island" />
		<tag k="ssr:stedsnr" v="569682" />
	</node>
	<node id="-255313" lat="59.8405722223" lon="11.0637555602">
		<tag k="alt_name" v="Morttjern" />
		<tag k="name" v="Morttjernet" />
		<tag k="natural" v="water" />
		<tag k="ssr:stedsnr" v="551510" />
	</node>
	<node id="-255312" lat="59.8534972232" lon="11.0837861115">
		<tag k="alt_name" v="Svarttjern" />
		<tag k="name" v="Svarttjernet" />
>>>>>>> e1d4bc35ff8a6074a6f2e91616a996b547c36f15
		<tag k="natural" v="water" />
		<tag k="ssr:stedsnr" v="854113" />
		<tag k="water" v="lake" />
	</node>
<<<<<<< HEAD
	<node lat="59.88030278027781" lon="11.059224991531778" id="-15017">
		<tag k="name" v="Stutauet" />
=======
	<node id="-255307" lat="59.887880934" lon="11.0584138537">
		<tag k="name" v="Ramstadsjøen" />
>>>>>>> e1d4bc35ff8a6074a6f2e91616a996b547c36f15
		<tag k="natural" v="water" />
		<tag k="ssr:stedsnr" v="934427" />
	</node>
<<<<<<< HEAD
	<node lat="59.89642500086378" lon="11.041899997364075" id="-15018">
		<tag k="name" v="Minketjern" />
=======
	<node id="-255305" lat="59.9091319576" lon="11.0520663816">
		<tag k="name" v="Olaputten" />
>>>>>>> e1d4bc35ff8a6074a6f2e91616a996b547c36f15
		<tag k="natural" v="water" />
		<tag k="ssr:stedsnr" v="934429" />
	</node>
<<<<<<< HEAD
	<node lat="59.87262222626376" lon="11.057236111521002" id="-15019">
		<tag k="name" v="Søndre Merratjern" />
=======
	<node id="-255300" lat="59.9055360192" lon="11.0288106148">
		<tag k="alt_name" v="Blåtjern" />
		<tag k="name" v="Blåtjernet" />
>>>>>>> e1d4bc35ff8a6074a6f2e91616a996b547c36f15
		<tag k="natural" v="water" />
		<tag k="ssr:stedsnr" v="934445" />
	</node>
<<<<<<< HEAD
	<node lat="59.85853888655066" lon="11.070238882352431" id="-15027">
		<tag k="name" v="Isdalsvika" />
=======
	<node id="-255299" lat="59.8625305565" lon="11.1071111025">
		<tag k="name" v="Ullervika" />
>>>>>>> e1d4bc35ff8a6074a6f2e91616a996b547c36f15
		<tag k="natural" v="bay" />
		<tag k="ssr:stedsnr" v="934565" />
	</node>
<<<<<<< HEAD
	<node lat="59.87300833168964" lon="11.104036114573749" id="-15028">
		<tag k="name" v="Nesvika" />
		<tag k="natural" v="bay" />
		<tag k="ssr:stedsnr" v="934568" />
	</node>
	<node lat="59.85059722472271" lon="11.038549998337283" id="-15032">
		<tag k="alt_name" v="Bjørntjernet" />
		<tag k="name" v="Småtjern" />
		<tag k="natural" v="water" />
		<tag k="ssr:stedsnr" v="915223" />
	</node>
	<node lat="59.94501388895596" lon="11.054377771123791" id="-15037">
		<tag k="name" v="Tangerudvika" />
		<tag k="natural" v="bay" />
		<tag k="ssr:stedsnr" v="934685" />
	</node>
	<node lat="59.84939722291546" lon="11.073175003155834" id="-15041">
		<tag k="name" v="Nordbysjøen" />
=======
	<node id="-255294" lat="59.6971333353" lon="11.2302333413">
		<tag k="name" v="Øyeren" />
		<tag k="natural" v="water" />
		<tag k="ssr:stedsnr" v="428839" />
		<tag k="water" v="lake" />
	</node>
	<node id="-255285" lat="59.8762916671" lon="11.0882638814">
		<tag k="name" v="Gjellebekken" />
		<tag k="ssr:stedsnr" v="387647" />
		<tag k="waterway" v="stream" />
	</node>
	<node id="-255281" lat="59.9481722254" lon="11.0469055498">
		<tag k="name" v="Sørlivika" />
		<tag k="natural" v="bay" />
		<tag k="ssr:stedsnr" v="387697" />
	</node>
	<node id="-255278" lat="59.8843249987" lon="11.0307999966">
		<tag k="name" v="Østre Huktjern" />
		<tag k="natural" v="water" />
		<tag k="ssr:stedsnr" v="387538" />
	</node>
	<node id="-255276" lat="59.865488567" lon="11.0561788237">
		<tag k="name" v="Mørkåstjerna" />
		<tag k="natural" v="water" />
		<tag k="ssr:stedsnr" v="369137" />
		<tag k="water" v="lake" />
	</node>
	<node id="-255275" lat="59.8854472197" lon="11.0993222147">
		<tag k="alt_name" v="Mogna" />
		<tag k="name" v="Ramstadbekken" />
		<tag k="ssr:stedsnr" v="368702" />
		<tag k="waterway" v="stream" />
	</node>
	<node id="-255274" lat="59.8328972227" lon="11.0389138864">
		<tag k="alt_name" v="Søndre Krokvann" />
		<tag k="name" v="Søndre Krokvannet" />
>>>>>>> e1d4bc35ff8a6074a6f2e91616a996b547c36f15
		<tag k="natural" v="water" />
		<tag k="ssr:stedsnr" v="5250" />
		<tag k="water" v="lake" />
	</node>
<<<<<<< HEAD
	<node lat="59.919280552920796" lon="11.093066661903002" id="-15042">
		<tag k="alt_name" v="Hammeren" />
		<tag k="name" v="Hammaren" />
=======
	<node id="-255272" lat="59.9465694437" lon="11.0525888811">
		<tag k="name" v="Torva" />
>>>>>>> e1d4bc35ff8a6074a6f2e91616a996b547c36f15
		<tag k="natural" v="cape" />
		<tag k="ssr:stedsnr" v="5584" />
	</node>
<<<<<<< HEAD
	<node lat="59.844013885068634" lon="11.098905561882491" id="-15048">
		<tag k="name" v="Slortjern" />
		<tag k="natural" v="water" />
		<tag k="ssr:stedsnr" v="65737" />
	</node>
	<node lat="59.89978610903025" lon="11.068375003434523" id="-15051">
		<tag k="name" v="Trestilen" />
		<tag k="natural" v="water" />
		<tag k="ssr:stedsnr" v="66068" />
	</node>
	<node lat="59.93660277903281" lon="11.016294448034737" id="-15055">
		<tag k="name" v="Kurlandsbekken" />
		<tag k="ssr:stedsnr" v="84554" />
		<tag k="waterway" v="stream" />
	</node>
	<node lat="59.83687500220169" lon="11.037519436587878" id="-15056">
		<tag k="name" v="Søndre Høgkolltjern" />
		<tag k="natural" v="water" />
		<tag k="ssr:stedsnr" v="84566" />
	</node>
	<node lat="59.88394444320527" lon="11.028105560308378" id="-15061">
		<tag k="name" v="Vestre Huktjern" />
=======
	<node id="-255264" lat="59.8736305527" lon="11.0590444451">
		<tag k="name" v="Nordre Merratjern" />
		<tag k="natural" v="water" />
		<tag k="ssr:stedsnr" v="327465" />
	</node>
	<node id="-255263" lat="59.8939583297" lon="11.120024991">
		<tag k="name" v="Årnestangen" />
		<tag k="natural" v="cape" />
		<tag k="ssr:stedsnr" v="308634" />
	</node>
	<node id="-255262" lat="59.8843631669" lon="11.0294750041">
		<tag k="name" v="Huketjerna" />
		<tag k="natural" v="water" />
		<tag k="ssr:stedsnr" v="308148" />
		<tag k="water" v="lake" />
	</node>
	<node id="-255249" lat="59.8580777739" lon="11.0525972172">
		<tag k="name" v="Nordre Nessetertjern" />
		<tag k="natural" v="water" />
		<tag k="ssr:stedsnr" v="205559" />
	</node>
	<node id="-255247" lat="59.8802388932" lon="11.1096083356">
		<tag k="alt_name" v="Mognavika" />
		<tag k="name" v="Mognevika" />
		<tag k="natural" v="bay" />
		<tag k="ssr:stedsnr" v="187625" />
	</node>
	<node id="-255246" lat="59.8710944479" lon="11.0397499979">
		<tag k="alt_name" v="Bjørtjerna, nedre" />
		<tag k="name" v="Nordre Bjørtjern" />
>>>>>>> e1d4bc35ff8a6074a6f2e91616a996b547c36f15
		<tag k="natural" v="water" />
		<tag k="ssr:stedsnr" v="84523" />
	</node>
<<<<<<< HEAD
	<node lat="59.876863889900626" lon="11.13636110991794" id="-15062">
		<tag k="name" v="Løkkadjupet" />
		<tag k="place" v="locality" />
		<tag k="ssr:stedsnr" v="84526" />
	</node>
	<node lat="59.88906666818673" lon="11.045016666388927" id="-15071">
		<tag k="alt_name" v="Skurvåstjernet" />
		<tag k="name" v="Søndre Skurvåstjern" />
=======
	<node id="-255238" lat="59.8528944426" lon="11.1078361112">
		<tag k="name" v="Byåa" />
		<tag k="ssr:stedsnr" v="144706" />
		<tag k="waterway" v="stream" />
	</node>
	<node id="-255229" lat="59.839697221" lon="11.0356944365">
		<tag k="name" v="Nordre Høgkolltjern" />
>>>>>>> e1d4bc35ff8a6074a6f2e91616a996b547c36f15
		<tag k="natural" v="water" />
		<tag k="ssr:stedsnr" v="125092" />
	</node>
	<node lat="59.89284999813022" lon="11.135344442549677" id="-15073">
		<tag k="name" v="Storråka" />
		<tag k="natural" v="strait" />
		<tag k="ssr:stedsnr" v="125663" />
	</node>
<<<<<<< HEAD
	<node lat="59.83398333328292" lon="11.1055749926798" id="-15074">
=======
	<node id="-255226" lat="59.8339833333" lon="11.1055749927">
>>>>>>> e1d4bc35ff8a6074a6f2e91616a996b547c36f15
		<tag k="name" v="Gjeddevann" />
		<tag k="natural" v="water" />
		<tag k="ssr:stedsnr" v="126712" />
	</node>
<<<<<<< HEAD
	<node lat="59.87099154130106" lon="11.146698271017488" id="-15075">
=======
	<node id="-255225" lat="59.8709915413" lon="11.146698271">
>>>>>>> e1d4bc35ff8a6074a6f2e91616a996b547c36f15
		<tag k="fixme" v="multiple name tags, choose one and add the other to alt_name" />
		<tag k="name" v="Rundsand;Møkkøya" />
		<tag k="place" v="islet" />
		<tag k="ssr:stedsnr" v="126670" />
	</node>
<<<<<<< HEAD
	<node lat="59.839697221016344" lon="11.035694436538078" id="-15078">
		<tag k="name" v="Nordre Høgkolltjern" />
		<tag k="natural" v="water" />
		<tag k="ssr:stedsnr" v="144567" />
	</node>
	<node lat="59.852894442591854" lon="11.107836111196406" id="-15086">
		<tag k="name" v="Byåa" />
		<tag k="ssr:stedsnr" v="144706" />
		<tag k="waterway" v="stream" />
	</node>
	<node lat="59.87109444790764" lon="11.03974999786649" id="-15093">
		<tag k="alt_name" v="Bjørtjerna, nedre" />
		<tag k="name" v="Nordre Bjørtjern" />
=======
	<node id="-255221" lat="59.8928499981" lon="11.1353444425">
		<tag k="name" v="Storråka" />
		<tag k="natural" v="strait" />
		<tag k="ssr:stedsnr" v="125663" />
	</node>
	<node id="-255218" lat="59.8890666682" lon="11.0450166664">
		<tag k="alt_name" v="Skurvåstjernet" />
		<tag k="name" v="Søndre Skurvåstjern" />
>>>>>>> e1d4bc35ff8a6074a6f2e91616a996b547c36f15
		<tag k="natural" v="water" />
		<tag k="ssr:stedsnr" v="187148" />
	</node>
<<<<<<< HEAD
	<node lat="59.88023889319669" lon="11.109608335583834" id="-15094">
		<tag k="alt_name" v="Mognavika" />
		<tag k="name" v="Mognevika" />
		<tag k="natural" v="bay" />
		<tag k="ssr:stedsnr" v="187625" />
	</node>
	<node lat="59.85807777390947" lon="11.052597217227431" id="-15096">
		<tag k="name" v="Nordre Nessetertjern" />
=======
	<node id="-255216" lat="59.8856472249" lon="11.0788638883">
		<tag k="alt_name" v="Lintjernet" />
		<tag k="name" v="Lintjenn" />
>>>>>>> e1d4bc35ff8a6074a6f2e91616a996b547c36f15
		<tag k="natural" v="water" />
		<tag k="ssr:stedsnr" v="205559" />
	</node>
<<<<<<< HEAD
	<node lat="59.893958329670156" lon="11.120024991010949" id="-15103">
		<tag k="name" v="Årnestangen" />
		<tag k="natural" v="cape" />
		<tag k="ssr:stedsnr" v="308634" />
	</node>
	<node lat="59.94656944367664" lon="11.052588881052923" id="-15106">
		<tag k="name" v="Torva" />
		<tag k="natural" v="cape" />
		<tag k="ssr:stedsnr" v="327675" />
	</node>
	<node lat="59.832897222686405" lon="11.038913886445016" id="-15107">
		<tag k="alt_name" v="Søndre Krokvann" />
		<tag k="name" v="Søndre Krokvannet" />
=======
	<node id="-255209" lat="59.9319138875" lon="11.0793611033">
		<tag k="name" v="Sundet" />
		<tag k="natural" v="strait" />
		<tag k="ssr:stedsnr" v="85503" />
	</node>
	<node id="-255204" lat="59.899786109" lon="11.0683750034">
		<tag k="name" v="Trestilen" />
>>>>>>> e1d4bc35ff8a6074a6f2e91616a996b547c36f15
		<tag k="natural" v="water" />
		<tag k="ssr:stedsnr" v="368328" />
	</node>
<<<<<<< HEAD
	<node lat="59.88544721971253" lon="11.099322214742777" id="-15108">
		<tag k="alt_name" v="Mogna" />
		<tag k="name" v="Ramstadbekken" />
		<tag k="ssr:stedsnr" v="368702" />
		<tag k="waterway" v="stream" />
	</node>
	<node lat="59.86548856698218" lon="11.056178823719836" id="-15109">
		<tag k="name" v="Mørkåstjerna" />
=======
	<node id="-255202" lat="59.8807027791" lon="11.0502583292">
		<tag k="name" v="Fiskelausen" />
>>>>>>> e1d4bc35ff8a6074a6f2e91616a996b547c36f15
		<tag k="natural" v="water" />
		<tag k="ssr:stedsnr" v="369137" />
		<tag k="water" v="lake" />
	</node>
<<<<<<< HEAD
	<node lat="59.88432499867434" lon="11.030799996571629" id="-15111">
		<tag k="name" v="Østre Huktjern" />
		<tag k="natural" v="water" />
		<tag k="ssr:stedsnr" v="387538" />
	</node>
	<node lat="59.88371666720959" lon="11.131436113477834" id="-15122">
		<tag k="name" v="Rælingsøya" />
=======
	<node id="-255199" lat="59.9246166651" lon="11.0853583294">
		<tag k="name" v="Engavika" />
		<tag k="natural" v="bay" />
		<tag k="ssr:stedsnr" v="24584" />
	</node>
	<node id="-255198" lat="59.9299055583" lon="11.0822805645">
		<tag k="name" v="Gressnebben" />
>>>>>>> e1d4bc35ff8a6074a6f2e91616a996b547c36f15
		<tag k="natural" v="cape" />
		<tag k="ssr:stedsnr" v="429627" />
	</node>
<<<<<<< HEAD
	<node lat="59.86253055646511" lon="11.107111102476582" id="-15123">
		<tag k="name" v="Ullervika" />
		<tag k="natural" v="bay" />
		<tag k="ssr:stedsnr" v="429693" />
	</node>
	<node lat="59.69713333525679" lon="11.230233341257843" id="-15124">
		<tag k="name" v="Øyeren" />
=======
	<node id="-255191" lat="59.9192805529" lon="11.0930666619">
		<tag k="alt_name" v="Hammeren" />
		<tag k="name" v="Hammaren" />
		<tag k="natural" v="cape" />
		<tag k="ssr:stedsnr" v="5584" />
	</node>
	<node id="-255189" lat="59.8493972229" lon="11.0731750032">
		<tag k="name" v="Nordbysjøen" />
>>>>>>> e1d4bc35ff8a6074a6f2e91616a996b547c36f15
		<tag k="natural" v="water" />
		<tag k="ssr:stedsnr" v="428839" />
		<tag k="water" v="lake" />
	</node>
<<<<<<< HEAD
	<node lat="59.88099722213503" lon="11.035508335419298" id="-15130">
		<tag k="name" v="Nedre Setertjern" />
=======
	<node id="-255179" lat="59.8964250009" lon="11.0418999974">
		<tag k="name" v="Minketjern" />
>>>>>>> e1d4bc35ff8a6074a6f2e91616a996b547c36f15
		<tag k="natural" v="water" />
		<tag k="ssr:stedsnr" v="448537" />
	</node>
<<<<<<< HEAD
	<node lat="59.85842500291968" lon="11.057241673453245" id="-15139">
		<tag k="name" v="Drøpla" />
=======
	<node id="-255178" lat="59.8803027803" lon="11.0592249915">
		<tag k="name" v="Stutauet" />
>>>>>>> e1d4bc35ff8a6074a6f2e91616a996b547c36f15
		<tag k="natural" v="water" />
		<tag k="ssr:stedsnr" v="509447" />
	</node>
<<<<<<< HEAD
	<node lat="59.847533332571004" lon="11.064280564331956" id="-15144">
		<tag k="name" v="Struten" />
		<tag k="natural" v="bay" />
		<tag k="ssr:stedsnr" v="509648" />
	</node>
	<node lat="59.838655551995195" lon="11.03804166850208" id="-15147">
		<tag k="name" v="Midtre Høgkolltjern" />
=======
	<node id="-255176" lat="59.8505972247" lon="11.0385499983">
		<tag k="alt_name" v="Bjørntjernet" />
		<tag k="name" v="Småtjern" />
>>>>>>> e1d4bc35ff8a6074a6f2e91616a996b547c36f15
		<tag k="natural" v="water" />
		<tag k="ssr:stedsnr" v="509489" />
	</node>
<<<<<<< HEAD
	<node lat="59.86329999795227" lon="11.082300006251767" id="-15149">
		<tag k="name" v="Sveltetangen" />
=======
	<node id="-255175" lat="59.9152111132" lon="11.0975194498">
		<tag k="name" v="Holtnebbet" />
>>>>>>> e1d4bc35ff8a6074a6f2e91616a996b547c36f15
		<tag k="natural" v="cape" />
		<tag k="ssr:stedsnr" v="509579" />
	</node>
<<<<<<< HEAD
	<node lat="59.86884999790732" lon="11.10892222012986" id="-15150">
		<tag k="name" v="Nordbyleira" />
		<tag k="natural" v="shoal" />
		<tag k="ssr:stedsnr" v="509580" />
	</node>
	<node lat="59.88788093402922" lon="11.058413853670634" id="-15155">
		<tag k="name" v="Ramstadsjøen" />
=======
	<node id="-255168" lat="59.8889722231" lon="11.0940722258">
		<tag k="name" v="Svarttjennbekken" />
		<tag k="ssr:stedsnr" v="873612" />
		<tag k="waterway" v="stream" />
	</node>
	<node id="-255166" lat="59.8445777753" lon="11.0487666578">
		<tag k="name" v="Vesle Grinderen" />
>>>>>>> e1d4bc35ff8a6074a6f2e91616a996b547c36f15
		<tag k="natural" v="water" />
		<tag k="ssr:stedsnr" v="550181" />
		<tag k="water" v="lake" />
	</node>
<<<<<<< HEAD
	<node lat="59.852605558180834" lon="11.068244441791192" id="-15163">
		<tag k="name" v="Bjørnholmen" />
		<tag k="place" v="island" />
		<tag k="ssr:stedsnr" v="569682" />
	</node>
	<node lat="59.82888610802311" lon="11.091330551965576" id="-15171">
		<tag k="alt_name" v="Vestre Morttjern" />
		<tag k="name" v="Morttjernet" />
=======
	<node id="-255165" lat="59.8458361067" lon="11.0380194447">
		<tag k="name" v="Tappenbergvann" />
>>>>>>> e1d4bc35ff8a6074a6f2e91616a996b547c36f15
		<tag k="natural" v="water" />
		<tag k="ssr:stedsnr" v="611300" />
	</node>
<<<<<<< HEAD
	<node lat="59.88324999586958" lon="11.039824998359729" id="-15173">
		<tag k="name" v="Midtre Setertjern" />
		<tag k="natural" v="water" />
		<tag k="ssr:stedsnr" v="630455" />
	</node>
	<node lat="59.85585278208084" lon="11.051900008362818" id="-15183">
		<tag k="fixme" v="multiple name tags, choose one and add the other to alt_name" />
		<tag k="name" v="Søndre Nessetertjern;Setertjernet" />
		<tag k="natural" v="water" />
		<tag k="ssr:stedsnr" v="733211" />
	</node>
	<node lat="59.85985277760373" lon="11.08488054842597" id="-15184">
		<tag k="alt_name" v="Lintjern" />
		<tag k="name" v="Lintjernet" />
		<tag k="natural" v="water" />
		<tag k="ssr:stedsnr" v="733212" />
	</node>
	<node lat="59.83622222136404" lon="11.046994437518661" id="-15185">
		<tag k="name" v="Stingsildtjern" />
		<tag k="natural" v="water" />
		<tag k="ssr:stedsnr" v="751523" />
	</node>
	<node lat="59.866763889680676" lon="11.05485556195469" id="-15186">
		<tag k="name" v="Nordre Mørkåstjern" />
=======
	<node id="-255162" lat="59.8730016241" lon="11.0586120914">
		<tag k="name" v="Merratjerna" />
		<tag k="natural" v="water" />
		<tag k="ssr:stedsnr" v="854113" />
		<tag k="water" v="lake" />
	</node>
	<node id="-255161" lat="59.945013889" lon="11.0543777711">
		<tag k="name" v="Tangerudvika" />
		<tag k="natural" v="bay" />
		<tag k="ssr:stedsnr" v="934685" />
	</node>
	<node id="-255158" lat="59.8730083317" lon="11.1040361146">
		<tag k="name" v="Nesvika" />
		<tag k="natural" v="bay" />
		<tag k="ssr:stedsnr" v="934568" />
	</node>
	<node id="-255157" lat="59.8585388866" lon="11.0702388824">
		<tag k="name" v="Isdalsvika" />
		<tag k="natural" v="bay" />
		<tag k="ssr:stedsnr" v="934565" />
	</node>
	<node id="-255149" lat="59.8726222263" lon="11.0572361115">
		<tag k="name" v="Søndre Merratjern" />
>>>>>>> e1d4bc35ff8a6074a6f2e91616a996b547c36f15
		<tag k="natural" v="water" />
		<tag k="ssr:stedsnr" v="751526" />
	</node>
<<<<<<< HEAD
	<node lat="59.91396666222759" lon="11.08405278239444" id="-15190">
		<tag k="name" v="Sørlibekken" />
		<tag k="ssr:stedsnr" v="751788" />
		<tag k="waterway" v="stream" />
	</node>
	<node lat="59.91903055912972" lon="11.02715556121246" id="-15194">
		<tag k="name" v="Åmotdammen" />
=======
	<node id="-255148" lat="59.8976555538" lon="11.0788638884">
		<tag k="alt_name" v="Svarttjern" />
		<tag k="name" v="Svarttjernet" />
>>>>>>> e1d4bc35ff8a6074a6f2e91616a996b547c36f15
		<tag k="natural" v="water" />
		<tag k="ssr:stedsnr" v="793100" />
		<tag k="water" v="lake" />
	</node>
<<<<<<< HEAD
	<node lat="59.88253713604254" lon="11.04012497391217" id="-15195">
=======
	<node id="-255147" lat="59.882537136" lon="11.0401249739">
>>>>>>> e1d4bc35ff8a6074a6f2e91616a996b547c36f15
		<tag k="name" v="Sætertjerna" />
		<tag k="natural" v="water" />
		<tag k="ssr:stedsnr" v="793178" />
		<tag k="water" v="lake" />
	</node>
<<<<<<< HEAD
	<node lat="59.87618333155907" lon="11.027155556422105" id="-15196">
		<tag k="alt_name" v="Opptjern" />
		<tag k="name" v="Opptjernet" />
=======
	<node id="-255146" lat="59.8860520523" lon="11.1216463657">
		<tag k="name" v="Snekkervika" />
		<tag k="natural" v="bay" />
		<tag k="ssr:stedsnr" v="915631" />
	</node>
	<node id="-255145" lat="59.8587944445" lon="11.0248361126">
		<tag k="alt_name" v="Murterudvannet" />
		<tag k="name" v="Morterudvann" />
>>>>>>> e1d4bc35ff8a6074a6f2e91616a996b547c36f15
		<tag k="natural" v="water" />
		<tag k="ssr:stedsnr" v="793193" />
	</node>
<<<<<<< HEAD
	<node lat="59.89765555383733" lon="11.07886388835691" id="-15198">
		<tag k="alt_name" v="Svarttjern" />
		<tag k="name" v="Svarttjernet" />
=======
	<node id="-255143" lat="59.8616361133" lon="11.0346083301">
		<tag k="alt_name" v="Vestre Bjørntjern" />
		<tag k="name" v="Bjørnholttjernet" />
>>>>>>> e1d4bc35ff8a6074a6f2e91616a996b547c36f15
		<tag k="natural" v="water" />
		<tag k="ssr:stedsnr" v="794056" />
	</node>
<<<<<<< HEAD
	<node lat="59.87770278170111" lon="11.108247225385165" id="-15203">
		<tag k="name" v="Fettavika" />
		<tag k="natural" v="bay" />
		<tag k="ssr:stedsnr" v="812722" />
	</node>
	<node lat="59.84583610674483" lon="11.038019444713145" id="-15214">
		<tag k="name" v="Tappenbergvann" />
=======
	<node id="-255141" lat="59.8667638897" lon="11.054855562">
		<tag k="name" v="Nordre Mørkåstjern" />
		<tag k="natural" v="water" />
		<tag k="ssr:stedsnr" v="751526" />
	</node>
	<node id="-255140" lat="59.8362222214" lon="11.0469944375">
		<tag k="name" v="Stingsildtjern" />
>>>>>>> e1d4bc35ff8a6074a6f2e91616a996b547c36f15
		<tag k="natural" v="water" />
		<tag k="ssr:stedsnr" v="855257" />
	</node>
<<<<<<< HEAD
	<node lat="59.9152111131746" lon="11.097519449765102" id="-15216">
		<tag k="name" v="Holtnebbet" />
		<tag k="natural" v="cape" />
		<tag k="ssr:stedsnr" v="873720" />
	</node>
	<node lat="59.884480553978605" lon="11.043458328886464" id="-15219">
		<tag k="name" v="Øvre Setertjern" />
=======
	<node id="-255139" lat="59.8598527776" lon="11.0848805484">
		<tag k="alt_name" v="Lintjern" />
		<tag k="name" v="Lintjernet" />
		<tag k="natural" v="water" />
		<tag k="ssr:stedsnr" v="733212" />
	</node>
	<node id="-255138" lat="59.8558527821" lon="11.0519000084">
		<tag k="fixme" v="multiple name tags, choose one and add the other to alt_name" />
		<tag k="name" v="Setertjernet;Søndre Nessetertjern" />
>>>>>>> e1d4bc35ff8a6074a6f2e91616a996b547c36f15
		<tag k="natural" v="water" />
		<tag k="ssr:stedsnr" v="873479" />
	</node>
<<<<<<< HEAD
	<node lat="59.89469444038268" lon="11.11988610705014" id="-15220">
		<tag k="name" v="Skogholtsåa" />
		<tag k="ssr:stedsnr" v="873482" />
		<tag k="waterway" v="river" />
	</node>
	<node lat="59.84457777534861" lon="11.048766657789486" id="-15222">
		<tag k="name" v="Vesle Grinderen" />
=======
	<node id="-255130" lat="59.9046388872" lon="11.1230694388">
		<tag k="alt_name" v="Rusholet" />
		<tag k="name" v="Rudsholet" />
		<tag k="natural" v="strait" />
		<tag k="ssr:stedsnr" v="733580" />
	</node>
	<node id="-255125" lat="59.8832499959" lon="11.0398249984">
		<tag k="name" v="Midtre Setertjern" />
>>>>>>> e1d4bc35ff8a6074a6f2e91616a996b547c36f15
		<tag k="natural" v="water" />
		<tag k="ssr:stedsnr" v="873521" />
	</node>
<<<<<<< HEAD
	<node lat="59.88897222310337" lon="11.094072225757166" id="-15227">
		<tag k="name" v="Svarttjennbekken" />
		<tag k="ssr:stedsnr" v="873612" />
=======
	<node id="-255122" lat="59.9139666622" lon="11.0840527824">
		<tag k="name" v="Sørlibekken" />
		<tag k="ssr:stedsnr" v="751788" />
>>>>>>> e1d4bc35ff8a6074a6f2e91616a996b547c36f15
		<tag k="waterway" v="stream" />
	</node>
	<node id="-255108" lat="59.8907666711" lon="11.0423527806">
		<tag k="name" v="Nordre Skurvåstjern" />
		<tag k="natural" v="water" />
		<tag k="ssr:stedsnr" v="691481" />
	</node>
	<node id="-255099" lat="59.844990684" lon="11.0823959751">
		<tag k="alt_name" v="Bikkjetjern" />
		<tag k="name" v="Bikkjetjerna" />
		<tag k="natural" v="water" />
		<tag k="ssr:stedsnr" v="489221" />
		<tag k="water" v="lake" />
	</node>
	<node id="-255098" lat="59.8495861128" lon="11.0970611165">
		<tag k="name" v="Vesledammen" />
		<tag k="natural" v="water" />
		<tag k="ssr:stedsnr" v="672730" />
	</node>
	<node id="-255097" lat="59.8713277785" lon="11.1002000035">
		<tag k="name" v="Gjellebekkvika" />
		<tag k="natural" v="bay" />
		<tag k="ssr:stedsnr" v="672666" />
	</node>
	<node id="-255095" lat="59.8314944419" lon="11.0785833375">
		<tag k="name" v="Åborvannet" />
		<tag k="natural" v="water" />
		<tag k="ssr:stedsnr" v="672272" />
	</node>
	<node id="-255094" lat="59.8472722245" lon="11.0789000067">
		<tag k="alt_name" v="Brasmetjern" />
		<tag k="name" v="Brasmetjernet" />
		<tag k="natural" v="water" />
		<tag k="ssr:stedsnr" v="672227" />
	</node>
	<node id="-255093" lat="59.8520388867" lon="11.0237388947">
		<tag k="alt_name" v="Krokvannskalven" />
		<tag k="name" v="Kalven" />
		<tag k="natural" v="bay" />
		<tag k="ssr:stedsnr" v="672221" />
	</node>
	<node id="-255092" lat="59.857486109" lon="11.0409111073">
		<tag k="alt_name" v="Østre Bjørntjern" />
		<tag k="name" v="Morttjernet" />
		<tag k="natural" v="water" />
		<tag k="ssr:stedsnr" v="672207" />
	</node>
	<node id="-255091" lat="59.8624111104" lon="11.0786638802">
		<tag k="name" v="Myrdammen" />
		<tag k="natural" v="water" />
		<tag k="ssr:stedsnr" v="672132" />
	</node>
	<node id="-255088" lat="59.90104167" lon="11.1219944388">
		<tag k="name" v="Fautøya" />
		<tag k="place" v="islet" />
		<tag k="ssr:stedsnr" v="671637" />
	</node>
	<node id="-255084" lat="59.8809972221" lon="11.0355083354">
		<tag k="name" v="Nedre Setertjern" />
		<tag k="natural" v="water" />
		<tag k="ssr:stedsnr" v="448537" />
	</node>
	<node id="-255082" lat="59.8837166672" lon="11.1314361135">
		<tag k="name" v="Rælingsøya" />
		<tag k="natural" v="cape" />
		<tag k="ssr:stedsnr" v="429627" />
	</node>
	<node id="-255078" lat="59.8475333326" lon="11.0642805643">
		<tag k="name" v="Struten" />
		<tag k="natural" v="bay" />
		<tag k="ssr:stedsnr" v="509648" />
	</node>
	<node id="-255070" lat="59.8688499979" lon="11.1089222201">
		<tag k="name" v="Nordbyleira" />
		<tag k="natural" v="shoal" />
		<tag k="place" v="locality" />
		<tag k="ssr:stedsnr" v="509580" />
	</node>
	<node id="-255069" lat="59.863299998" lon="11.0823000063">
		<tag k="name" v="Sveltetangen" />
		<tag k="natural" v="cape" />
		<tag k="ssr:stedsnr" v="509579" />
	</node>
	<node id="-255065" lat="59.838655552" lon="11.0380416685">
		<tag k="name" v="Midtre Høgkolltjern" />
		<tag k="natural" v="water" />
		<tag k="ssr:stedsnr" v="509489" />
	</node>
	<node id="-255063" lat="59.8584250029" lon="11.0572416735">
		<tag k="name" v="Drøpla" />
		<tag k="natural" v="water" />
		<tag k="ssr:stedsnr" v="509447" />
	</node>
	<node id="-255058" lat="59.8393361115" lon="11.0302749985">
		<tag k="alt_name" v="Midtre Krokvann" />
		<tag k="name" v="Midtre Krokvannet" />
		<tag k="natural" v="water" />
		<tag k="old_name" v="Krokvatnet, m" />
		<tag k="ssr:stedsnr" v="368221" />
	</node>
	<node id="-255056" lat="59.8526888931" lon="11.0467583419">
		<tag k="alt_name" v="Auretjern" />
		<tag k="name" v="Aurtjernet" />
		<tag k="natural" v="water" />
		<tag k="ssr:stedsnr" v="490232" />
	</node>
	<node id="-255031" lat="59.9170222266" lon="11.0574999979">
		<tag k="alt_name" v="Fjerdingbydammen" />
		<tag k="name" v="Fjerdingbyputten" />
		<tag k="natural" v="water" />
		<tag k="ssr:stedsnr" v="186107" />
		<tag k="water" v="pond" />
	</node>
	<node id="-255021" lat="59.874008332" lon="11.1099666586">
		<tag k="name" v="Grøtnesnabben" />
		<tag k="natural" v="cape" />
		<tag k="ssr:stedsnr" v="267583" />
	</node>
	<node id="-255012" lat="59.8647361093" lon="11.0537055493">
		<tag k="name" v="Søndre Mørkåstjern" />
		<tag k="natural" v="water" />
		<tag k="ssr:stedsnr" v="266498" />
	</node>
	<node id="-255004" lat="59.8368750022" lon="11.0375194366">
		<tag k="name" v="Søndre Høgkolltjern" />
		<tag k="natural" v="water" />
		<tag k="ssr:stedsnr" v="84566" />
	</node>
	<node id="-255003" lat="59.936602779" lon="11.016294448">
		<tag k="name" v="Kurlandsbekken" />
		<tag k="ssr:stedsnr" v="84554" />
		<tag k="waterway" v="stream" />
	</node>
	<node id="-255001" lat="59.8768638899" lon="11.1363611099">
		<tag k="name" v="Løkkadjupet" />
		<tag k="place" v="locality" />
		<tag k="ssr:stedsnr" v="84526" />
	</node>
	<node id="-255000" lat="59.8839444432" lon="11.0281055603">
		<tag k="name" v="Vestre Huktjern" />
		<tag k="natural" v="water" />
		<tag k="ssr:stedsnr" v="84523" />
	</node>
	<node id="-254998" lat="59.8542583368" lon="11.0177749914">
		<tag k="alt_name" v="Biritjern" />
		<tag k="name" v="Biritjernet" />
		<tag k="natural" v="water" />
		<tag k="ssr:stedsnr" v="247214" />
	</node>
	<node id="-254996" lat="59.8675222201" lon="11.0425333408">
		<tag k="alt_name" v="Bjørtjerna, øvre" />
		<tag k="name" v="Søndre Bjørtjern" />
		<tag k="natural" v="water" />
		<tag k="ssr:stedsnr" v="247138" />
	</node>
	<node id="-254995" lat="59.86308611" lon="11.0498694522">
		<tag k="alt_name" v="Langvann" />
		<tag k="name" v="Langvannet" />
		<tag k="natural" v="water" />
		<tag k="old_name" v="Langvatn" />
		<tag k="ssr:stedsnr" v="247136" />
	</node>
	<node id="-254989" lat="59.8440138851" lon="11.0989055619">
		<tag k="name" v="Slortjern" />
		<tag k="natural" v="water" />
		<tag k="ssr:stedsnr" v="65737" />
	</node>
</osm>
