<?xml version="1.0" encoding="UTF-8"?>
<<<<<<< HEAD
<osm version="0.6" generator="osmapis">
	<node lat="59.835441667072075" lon="11.097313892836466" id="-14820">
		<tag k="fixme" v="consider natural=peak for the most distinct mountains in the district" />
		<tag k="name" v="Sæteråsen" />
		<tag k="natural" v="hill" />
		<tag k="place" v="locality" />
		<tag k="ssr:stedsnr" v="5511" />
	</node>
	<node lat="59.845863884975344" lon="11.067827784993499" id="-14821">
		<tag k="fixme" v="consider natural=peak for the most distinct mountains in the district" />
		<tag k="name" v="Svarttjernåsen" />
		<tag k="natural" v="hill" />
		<tag k="place" v="locality" />
		<tag k="ssr:stedsnr" v="23710" />
	</node>
	<node lat="59.83592222567289" lon="11.09072222175249" id="-14822">
		<tag k="name" v="Hakkemåsan" />
		<tag k="natural" v="wetland" />
		<tag k="ssr:stedsnr" v="23712" />
	</node>
	<node lat="59.89466944725324" lon="11.114066660557846" id="-14823">
		<tag k="name" v="Buret" />
		<tag k="place" v="hamlet" />
		<tag k="ssr:stedsnr" v="23680" />
	</node>
	<node lat="59.922430552224824" lon="11.077869440910243" id="-14824">
		<tag k="name" v="Nordgarden" />
		<tag k="place" v="farm" />
		<tag k="ssr:stedsnr" v="24579" />
	</node>
	<node lat="59.92990555828613" lon="11.082280564546918" id="-14825">
		<tag k="name" v="Gressnebben" />
		<tag k="natural" v="cape" />
		<tag k="ssr:stedsnr" v="24582" />
	</node>
	<node lat="59.92461666505365" lon="11.085358329384983" id="-14826">
		<tag k="name" v="Engavika" />
		<tag k="natural" v="bay" />
		<tag k="ssr:stedsnr" v="24584" />
	</node>
	<node lat="59.920886107321884" lon="11.06998055292478" id="-14827">
		<tag k="name" v="Oladalen" />
		<tag k="natural" v="valley" />
		<tag k="place" v="locality" />
		<tag k="ssr:stedsnr" v="24586" />
	</node>
	<node lat="59.86662777630728" lon="11.081974994667583" id="-14828">
		<tag k="name" v="Hurtigdråga" />
		<tag k="natural" v="valley" />
		<tag k="place" v="locality" />
		<tag k="ssr:stedsnr" v="24603" />
	</node>
	<node lat="59.91232874427004" lon="11.091365808754691" id="-14829">
		<tag k="fixme" v="consider place=hamlet" />
		<tag k="name" v="Holt" />
		<tag k="place" v="farm" />
		<tag k="ssr:stedsnr" v="65102" />
	</node>
	<node lat="59.88070277914583" lon="11.050258329235158" id="-14830">
		<tag k="name" v="Fiskelausen" />
		<tag k="natural" v="water" />
		<tag k="old_name" v="Fiskeløysa" />
		<tag k="ssr:stedsnr" v="65186" />
	</node>
	<node lat="59.901875002446836" lon="11.091977780058786" id="-14831">
		<tag k="alt_name" v="Flateby" />
		<tag k="name" v="Flatby" />
		<tag k="place" v="farm" />
		<tag k="ssr:stedsnr" v="65632" />
	</node>
	<node lat="59.877647225294055" lon="11.093291658256785" id="-14832">
		<tag k="alt_name" v="Grini Øststua" />
		<tag k="name" v="Grini" />
		<tag k="place" v="farm" />
		<tag k="ssr:stedsnr" v="66501" />
	</node>
	<node lat="59.87820833151967" lon="11.089727780309277" id="-14833">
		<tag k="name" v="Øvergarden" />
		<tag k="place" v="farm" />
		<tag k="ssr:stedsnr" v="84678" />
	</node>
	<node lat="59.923713889453225" lon="11.068944452188267" id="-14834">
		<tag k="amenity" v="school" />
		<tag k="name" v="Fjerdingby skole" />
		<tag k="ssr:stedsnr" v="85491" />
	</node>
	<node lat="59.919852776586765" lon="11.081855558673197" id="-14835">
		<tag k="name" v="Søgarden" />
		<tag k="place" v="farm" />
		<tag k="ssr:stedsnr" v="85492" />
	</node>
	<node lat="59.93191388751948" lon="11.079361103336788" id="-14836">
		<tag k="name" v="Sundet" />
		<tag k="natural" v="strait" />
		<tag k="ssr:stedsnr" v="85503" />
	</node>
	<node lat="59.857399995998755" lon="11.0655555600227" id="-14837">
		<tag k="name" v="Gamlesetermyra" />
		<tag k="natural" v="wetland" />
		<tag k="ssr:stedsnr" v="85533" />
	</node>
	<node lat="59.863086110011025" lon="11.04986945221583" id="-14838">
		<tag k="alt_name" v="Langvann" />
		<tag k="name" v="Langvannet" />
		<tag k="natural" v="water" />
		<tag k="old_name" v="Langvatn" />
		<tag k="ssr:stedsnr" v="247136" />
	</node>
	<node lat="59.86752222005348" lon="11.04253334081358" id="-14839">
		<tag k="alt_name" v="Bjørtjerna, øvre" />
		<tag k="name" v="Søndre Bjørtjern" />
		<tag k="natural" v="water" />
		<tag k="ssr:stedsnr" v="247138" />
	</node>
	<node lat="59.86548611299491" lon="11.064747224741481" id="-14840">
		<tag k="alt_name" v="Tjuvestuåsen" />
		<tag k="fixme" v="consider natural=peak for the most distinct mountains in the district" />
		<tag k="name" v="Tjuvstuåsen" />
		<tag k="natural" v="hill" />
		<tag k="place" v="locality" />
		<tag k="ssr:stedsnr" v="247150" />
	</node>
	<node lat="59.854258336788185" lon="11.01777499139947" id="-14841">
		<tag k="alt_name" v="Biritjern" />
		<tag k="name" v="Biritjernet" />
		<tag k="natural" v="water" />
		<tag k="ssr:stedsnr" v="247214" />
	</node>
	<node lat="59.88564722494701" lon="11.078863888262772" id="-14842">
		<tag k="alt_name" v="Lintjernet" />
		<tag k="name" v="Lintjenn" />
		<tag k="natural" v="water" />
		<tag k="ssr:stedsnr" v="102210" />
	</node>
	<node lat="59.927083335159196" lon="11.077024992057" id="-14843">
		<tag k="name" v="Lund" />
		<tag k="place" v="farm" />
		<tag k="ssr:stedsnr" v="125005" />
	</node>
	<node lat="59.89975277634145" lon="11.093111105061572" id="-14844">
		<tag k="name" v="Slette" />
		<tag k="old_name" v="Stette" />
		<tag k="place" v="isolated_dwelling" />
		<tag k="ssr:stedsnr" v="125656" />
	</node>
	<node lat="59.93604454955581" lon="11.065468027635063" id="-14845">
		<tag k="name" v="Åmot" />
		<tag k="place" v="hamlet" />
		<tag k="ssr:stedsnr" v="126060" />
	</node>
	<node lat="59.91630277949442" lon="11.086850008857406" id="-14846">
		<tag k="name" v="Haugen" />
		<tag k="place" v="farm" />
		<tag k="ssr:stedsnr" v="126101" />
	</node>
	<node lat="59.885714157899926" lon="11.103772093421664" id="-14847">
		<tag k="name" v="Tveiter" />
		<tag k="place" v="hamlet" />
		<tag k="ssr:stedsnr" v="126648" />
	</node>
	<node lat="59.90675833109381" lon="11.048755561074161" id="-14848">
		<tag k="name" v="Purkeryggen" />
		<tag k="natural" v="ridge" />
		<tag k="place" v="locality" />
		<tag k="ssr:stedsnr" v="144578" />
	</node>
	<node lat="59.905838886670715" lon="11.10374445174236" id="-14849">
		<tag k="name" v="Støa" />
		<tag k="place" v="farm" />
		<tag k="ssr:stedsnr" v="144748" />
	</node>
	<node lat="59.856294445693" lon="11.083088897722083" id="-14850">
		<tag k="name" v="Fellemyra" />
		<tag k="natural" v="wetland" />
		<tag k="ssr:stedsnr" v="145606" />
	</node>
	<node lat="59.86099444789655" lon="11.093355554339203" id="-14851">
		<tag k="name" v="Fjellstad" />
		<tag k="place" v="hamlet" />
		<tag k="ssr:stedsnr" v="145609" />
	</node>
	<node lat="59.870905552609905" lon="11.091850001606346" id="-14852">
		<tag k="name" v="Opphaugen" />
		<tag k="place" v="farm" />
		<tag k="ssr:stedsnr" v="145614" />
	</node>
	<node lat="59.859891666665554" lon="11.074711105064688" id="-14853">
		<tag k="name" v="Sjødalen" />
		<tag k="natural" v="valley" />
		<tag k="place" v="locality" />
		<tag k="ssr:stedsnr" v="145657" />
	</node>
	<node lat="59.87106944844384" lon="11.064502775947322" id="-14854">
		<tag k="fixme" v="consider natural=peak for the most distinct mountains in the district" />
		<tag k="name" v="Seteråsen" />
		<tag k="natural" v="hill" />
		<tag k="place" v="locality" />
		<tag k="ssr:stedsnr" v="145664" />
	</node>
	<node lat="59.91720797299425" lon="11.057183317183744" id="-14855">
		<tag k="alt_name" v="Fjerdingbyputten" />
		<tag k="name" v="Fjerdingbydammen" />
		<tag k="natural" v="water" />
		<tag k="ssr:stedsnr" v="186107" />
		<tag k="water" v="pond" />
	</node>
	<node lat="59.90190367659715" lon="11.100394682426039" id="-14856">
		<tag k="fixme" v="consider place=hamlet" />
		<tag k="name" v="Støtterud" />
		<tag k="place" v="farm" />
		<tag k="ssr:stedsnr" v="186677" />
	</node>
	<node lat="59.952127774707044" lon="11.037250002102027" id="-14857">
		<tag k="bridge" v="yes" />
		<tag k="layer" v="1" />
		<tag k="name" v="Lillestrøm bru" />
		<tag k="ssr:stedsnr" v="266718" />
	</node>
	<node lat="59.86473610925758" lon="11.053705549314401" id="-14858">
		<tag k="name" v="Søndre Mørkåstjern" />
		<tag k="natural" v="water" />
		<tag k="ssr:stedsnr" v="266498" />
	</node>
	<node lat="59.90377499856874" lon="11.060783327619623" id="-14859">
		<tag k="name" v="Langmyra" />
		<tag k="natural" v="wetland" />
		<tag k="ssr:stedsnr" v="266501" />
	</node>
	<node lat="59.93350030717238" lon="11.031768521373296" id="-14860">
		<tag k="amenity" v="sports_centre" />
		<tag k="name" v="Sandbekkhallen" />
		<tag k="ssr:stedsnr" v="266546" />
	</node>
	<node lat="59.92212222026371" lon="11.032597223298504" id="-14861">
		<tag k="historic" v="shieling" />
		<tag k="name" v="Åmotsetra" />
		<tag k="place" v="locality" />
		<tag k="ssr:stedsnr" v="266550" />
	</node>
	<node lat="59.84026388734623" lon="11.09709443549827" id="-14862">
		<tag k="fixme" v="consider natural=peak for the most distinct mountains in the district" />
		<tag k="name" v="Elggrasåsen" />
		<tag k="natural" v="hill" />
		<tag k="place" v="locality" />
		<tag k="ssr:stedsnr" v="266667" />
	</node>
	<node lat="59.84674166620029" lon="11.102494439058104" id="-14863">
		<tag k="name" v="Bjørnmyra" />
		<tag k="natural" v="wetland" />
		<tag k="ssr:stedsnr" v="266669" />
	</node>
	<node lat="59.87400833199103" lon="11.109966658615583" id="-14864">
		<tag k="name" v="Grøtnesnabben" />
		<tag k="natural" v="cape" />
		<tag k="ssr:stedsnr" v="267583" />
	</node>
	<node lat="59.85797499702318" lon="11.104316671891" id="-14865">
		<tag k="name" v="Sør-Uller" />
		<tag k="place" v="farm" />
		<tag k="ssr:stedsnr" v="267599" />
	</node>
	<node lat="59.86795278117509" lon="11.083933337110775" id="-14866">
		<tag k="name" v="Sjudråga" />
		<tag k="natural" v="valley" />
		<tag k="place" v="locality" />
		<tag k="ssr:stedsnr" v="267577" />
	</node>
	<node lat="59.8791111146187" lon="11.03265000430965" id="-14867">
		<tag k="name" v="Badstudalen" />
		<tag k="natural" v="valley" />
		<tag k="place" v="locality" />
		<tag k="ssr:stedsnr" v="205595" />
	</node>
	<node lat="59.9260817816098" lon="11.058512582942878" id="-14868">
		<tag k="amenity" v="place_of_worship" />
		<tag k="fixme" v="specify religion=*, denomination=*, building=* etc" />
		<tag k="name" v="Fjellet bedehus" />
		<tag k="ssr:stedsnr" v="205601" />
	</node>
	<node lat="59.85329444666924" lon="11.102366674928401" id="-14869">
		<tag k="name" v="Smedbakken" />
		<tag k="place" v="locality" />
		<tag k="ssr:stedsnr" v="205726" />
	</node>
	<node lat="59.884519443596446" lon="11.072277779303555" id="-14870">
		<tag k="fixme" v="consider natural=peak for the most distinct mountains in the district" />
		<tag k="name" v="Kulfjellåsen" />
		<tag k="natural" v="hill" />
		<tag k="place" v="locality" />
		<tag k="ssr:stedsnr" v="205730" />
	</node>
	<node lat="59.94677499611955" lon="11.035483330839565" id="-14871">
		<tag k="alt_name" v="Øvre Rælingen" />
		<tag k="amenity" v="place_of_worship" />
		<tag k="denomination" v="lutheran" />
		<tag k="name" v="Øvre Rælingen kirke" />
		<tag k="religion" v="christian" />
		<tag k="ssr:stedsnr" v="205736" />
	</node>
	<node lat="59.875388891667065" lon="11.101883327185526" id="-14872">
		<tag k="name" v="Søstua Nes" />
		<tag k="place" v="farm" />
		<tag k="ssr:stedsnr" v="205699" />
	</node>
	<node lat="59.87913333622212" lon="11.065261117768664" id="-14873">
		<tag k="bridge" v="yes" />
		<tag k="layer" v="1" />
		<tag k="name" v="Annekloppa" />
		<tag k="ssr:stedsnr" v="206635" />
	</node>
	<node lat="59.9458888866884" lon="11.038483326245931" id="-14874">
		<tag k="bridge" v="yes" />
		<tag k="layer" v="1" />
		<tag k="name" v="Stormyrvegen" />
		<tag k="ssr:stedsnr" v="228033" />
	</node>
	<node lat="59.923691667631836" lon="11.066350005879096" id="-14875">
		<tag k="bridge" v="yes" />
		<tag k="layer" v="1" />
		<tag k="name" v="Fjerdingby" />
		<tag k="ssr:stedsnr" v="228036" />
	</node>
	<node lat="59.924111107197206" lon="11.062819437068448" id="-14876">
		<tag k="amenity" v="school" />
		<tag k="name" v="Marikollen ungdomsskole" />
		<tag k="ssr:stedsnr" v="449565" />
	</node>
	<node lat="59.87103055132363" lon="11.089016663240633" id="-14877">
		<tag k="alt_name" v="Hestløkka" />
		<tag k="name" v="Hesteløkka" />
		<tag k="place" v="isolated_dwelling" />
		<tag k="ssr:stedsnr" v="247118" />
	</node>
	<node lat="59.87745291112854" lon="11.0906510245542" id="-14878">
		<tag k="fixme" v="consider place=hamlet" />
		<tag k="name" v="Grini" />
		<tag k="place" v="farm" />
		<tag k="ssr:stedsnr" v="247120" />
	</node>
	<node lat="59.877022218682534" lon="11.030972228976015" id="-14879">
		<tag k="historic" v="shieling" />
		<tag k="name" v="Tvetersetra" />
		<tag k="place" v="locality" />
		<tag k="ssr:stedsnr" v="266507" />
	</node>
	<node lat="59.88816944520344" lon="11.087291671066925" id="-14880">
		<tag k="name" v="Veslekleiva" />
		<tag k="natural" v="valley" />
		<tag k="place" v="locality" />
		<tag k="ssr:stedsnr" v="266687" />
	</node>
	<node lat="59.933011106998144" lon="11.074877781676001" id="-14881">
		<tag k="name" v="Bålsrud" />
		<tag k="place" v="farm" />
		<tag k="ssr:stedsnr" v="267533" />
	</node>
	<node lat="59.9356799125254" lon="11.06342334388375" id="-14882">
		<tag k="name" v="Øvre Åmot" />
		<tag k="place" v="farm" />
		<tag k="ssr:stedsnr" v="267537" />
	</node>
	<node lat="59.88436316692662" lon="11.029475004120203" id="-14883">
		<tag k="name" v="Huketjerna" />
		<tag k="natural" v="water" />
		<tag k="ssr:stedsnr" v="308148" />
		<tag k="water" v="lake" />
	</node>
	<node lat="59.87363055265789" lon="11.059044445061621" id="-14884">
		<tag k="name" v="Nordre Merratjern" />
		<tag k="natural" v="water" />
		<tag k="ssr:stedsnr" v="327465" />
	</node>
	<node lat="59.85889167075534" lon="11.037694449358233" id="-14885">
		<tag k="name" v="Bjørntjernmåsan" />
		<tag k="natural" v="wetland" />
		<tag k="ssr:stedsnr" v="327483" />
	</node>
	<node lat="59.88336111151232" lon="11.019094442770255" id="-14886">
		<tag k="name" v="Slåssmyra" />
		<tag k="natural" v="wetland" />
		<tag k="ssr:stedsnr" v="327486" />
	</node>
	<node lat="59.89086111212867" lon="11.04793889574252" id="-14887">
		<tag k="name" v="Skurvåsmåsan" />
		<tag k="natural" v="wetland" />
		<tag k="ssr:stedsnr" v="327489" />
	</node>
	<node lat="59.870538890756215" lon="11.02976943923401" id="-14888">
		<tag k="fixme" v="consider natural=peak for the most distinct mountains in the district" />
		<tag k="name" v="Ottedageråsen" />
		<tag k="natural" v="hill" />
		<tag k="place" v="locality" />
		<tag k="ssr:stedsnr" v="327490" />
	</node>
	<node lat="59.85160000324267" lon="11.101822219550792" id="-14889">
		<tag k="name" v="Bjørnmyrdalen" />
		<tag k="natural" v="valley" />
		<tag k="place" v="locality" />
		<tag k="ssr:stedsnr" v="327660" />
	</node>
	<node lat="59.914308337379325" lon="11.033355557712444" id="-14890">
		<tag k="fixme" v="consider natural=peak for the most distinct mountains in the district" />
		<tag k="name" v="Maråsen" />
		<tag k="natural" v="hill" />
		<tag k="place" v="locality" />
		<tag k="ssr:stedsnr" v="327523" />
	</node>
	<node lat="59.90594722064675" lon="11.091819452278154" id="-14891">
		<tag k="name" v="Myrvoll" />
		<tag k="place" v="hamlet" />
		<tag k="ssr:stedsnr" v="327711" />
	</node>
	<node lat="59.90829166423453" lon="11.076513895102213" id="-14892">
		<tag k="name" v="Brenndammen" />
		<tag k="natural" v="wetland" />
		<tag k="ssr:stedsnr" v="327719" />
	</node>
	<node lat="59.872736113411015" lon="11.024174993351474" id="-14893">
		<tag k="name" v="Jonsokhøgda" />
		<tag k="natural" v="hill" />
		<tag k="place" v="locality" />
		<tag k="ssr:stedsnr" v="368207" />
	</node>
	<node lat="59.839336111513695" lon="11.03027499848533" id="-14894">
		<tag k="alt_name" v="Midtre Krokvann" />
		<tag k="name" v="Midtre Krokvannet" />
		<tag k="natural" v="water" />
		<tag k="old_name" v="Krokvatnet, m" />
		<tag k="ssr:stedsnr" v="368221" />
	</node>
	<node lat="59.92249214176443" lon="11.072521695516114" id="-14895">
		<tag k="name" v="Hauger" />
		<tag k="place" v="farm" />
		<tag k="ssr:stedsnr" v="368123" />
	</node>
	<node lat="59.87967499926822" lon="11.051944443611315" id="-14896">
		<tag k="name" v="Fiskelausmåsan" />
		<tag k="natural" v="wetland" />
		<tag k="ssr:stedsnr" v="387555" />
	</node>
	<node lat="59.87013889300902" lon="11.053080563733007" id="-14897">
		<tag k="fixme" v="consider natural=peak for the most distinct mountains in the district" />
		<tag k="name" v="Baråsen" />
		<tag k="natural" v="hill" />
		<tag k="place" v="locality" />
		<tag k="ssr:stedsnr" v="387564" />
	</node>
	<node lat="59.882552777448204" lon="11.082008340087622" id="-14898">
		<tag k="name" v="Store Breimåsan" />
		<tag k="natural" v="wetland" />
		<tag k="ssr:stedsnr" v="387644" />
	</node>
	<node lat="59.89318888905473" lon="11.07354722326929" id="-14899">
		<tag k="name" v="Tyrihuken" />
		<tag k="place" v="locality" />
		<tag k="ssr:stedsnr" v="387646" />
	</node>
	<node lat="59.876291667074874" lon="11.088263881445124" id="-14900">
		<tag k="name" v="Gjellebekken" />
		<tag k="ssr:stedsnr" v="387647" />
		<tag k="waterway" v="stream" />
	</node>
	<node lat="59.88840000070078" lon="11.099563886434925" id="-14901">
		<tag k="junction" v="yes" />
		<tag k="name" v="Tveitertørje" />
		<tag k="place" v="locality" />
		<tag k="ssr:stedsnr" v="387650" />
	</node>
	<node lat="59.94544722394809" lon="11.042686109465325" id="-14902">
		<tag k="amenity" v="school" />
		<tag k="name" v="Rud skole" />
		<tag k="ssr:stedsnr" v="387696" />
	</node>
	<node lat="59.948172225382066" lon="11.046905549841675" id="-14903">
		<tag k="name" v="Sørlivika" />
		<tag k="natural" v="bay" />
		<tag k="ssr:stedsnr" v="387697" />
	</node>
	<node lat="59.911991664771854" lon="11.08596388783173" id="-14904">
		<tag k="fixme" v="consider natural=peak for the most distinct mountains in the district" />
		<tag k="name" v="Hagaåsen" />
		<tag k="natural" v="hill" />
		<tag k="place" v="locality" />
		<tag k="ssr:stedsnr" v="387744" />
	</node>
	<node lat="59.87067499860608" lon="11.096061114347403" id="-14905">
		<tag k="name" v="Svingen" />
		<tag k="place" v="farm" />
		<tag k="ssr:stedsnr" v="388596" />
	</node>
	<node lat="59.86859166796959" lon="11.095700008975529" id="-14906">
		<tag k="name" v="Kikut" />
		<tag k="place" v="isolated_dwelling" />
		<tag k="ssr:stedsnr" v="388603" />
	</node>
	<node lat="59.884522219600925" lon="11.095527779412969" id="-14907">
		<tag k="highway" v="path" />
		<tag k="name" v="Kongevegen" />
		<tag k="ssr:stedsnr" v="388639" />
	</node>
	<node lat="59.85090555128954" lon="10.97485000485798" id="-14908">
		<tag k="name" v="Østmarka" />
		<tag k="natural" v="wood" />
		<tag k="ssr:stedsnr" v="490224" />
	</node>
	<node lat="59.947160968654956" lon="11.04031612875618" id="-14909">
		<tag k="fixme" v="consider place=hamlet" />
		<tag k="name" v="Rud" />
		<tag k="place" v="farm" />
		<tag k="ssr:stedsnr" v="490051" />
	</node>
	<node lat="59.902883336127495" lon="11.073163881177557" id="-14910">
		<tag k="fixme" v="consider natural=peak for the most distinct mountains in the district" />
		<tag k="name" v="Trestilåsen" />
		<tag k="natural" v="hill" />
		<tag k="place" v="locality" />
		<tag k="ssr:stedsnr" v="490074" />
	</node>
	<node lat="59.88477499712283" lon="11.034683338089229" id="-14911">
		<tag k="alt_name" v="Snelleåsen" />
		<tag k="fixme" v="consider natural=peak for the most distinct mountains in the district" />
		<tag k="name" v="Snellås" />
		<tag k="natural" v="hill" />
		<tag k="place" v="locality" />
		<tag k="ssr:stedsnr" v="490166" />
	</node>
	<node lat="59.89550278118516" lon="11.058922226454273" id="-14912">
		<tag k="fixme" v="consider natural=peak for the most distinct mountains in the district" />
		<tag k="name" v="Hektnerhøgåsen" />
		<tag k="natural" v="hill" />
		<tag k="place" v="locality" />
		<tag k="ssr:stedsnr" v="429072" />
	</node>
	<node lat="59.9307055526567" lon="11.078577779946027" id="-14913">
		<tag k="name" v="Ensrud" />
		<tag k="place" v="isolated_dwelling" />
		<tag k="ssr:stedsnr" v="429007" />
	</node>
	<node lat="59.9190555554623" lon="11.05096944478533" id="-14914">
		<tag k="name" v="Marikollen" />
		<tag k="natural" v="hill" />
		<tag k="place" v="locality" />
		<tag k="ssr:stedsnr" v="429104" />
	</node>
	<node lat="59.90553601924117" lon="11.028810614810851" id="-14915">
		<tag k="alt_name" v="Blåtjern" />
		<tag k="name" v="Blåtjernet" />
		<tag k="natural" v="water" />
		<tag k="ssr:stedsnr" v="430062" />
	</node>
	<node lat="59.84547500155848" lon="11.02777500146183" id="-14916">
		<tag k="name" v="Bokhytta" />
		<tag k="place" v="isolated_dwelling" />
		<tag k="ssr:stedsnr" v="448427" />
	</node>
	<node lat="59.93813055415229" lon="11.04097221737261" id="-14917">
		<tag k="leisure" v="pitch" />
		<tag k="name" v="Stormyrbakken" />
		<tag k="ssr:stedsnr" v="448602" />
	</node>
	<node lat="59.8442250011442" lon="11.086388882577683" id="-14918">
		<tag k="name" v="Byseter" />
		<tag k="place" v="locality" />
		<tag k="ssr:stedsnr" v="448727" />
	</node>
	<node lat="59.88740833268656" lon="11.07128056103344" id="-14919">
		<tag k="fixme" v="consider natural=peak for the most distinct mountains in the district" />
		<tag k="name" v="Korpåsen" />
		<tag k="natural" v="hill" />
		<tag k="place" v="locality" />
		<tag k="ssr:stedsnr" v="448733" />
	</node>
	<node lat="59.94834721850746" lon="11.03704999805478" id="-14920">
		<tag k="name" v="Strømsborg" />
		<tag k="place" v="quarter" />
		<tag k="ssr:stedsnr" v="448738" />
	</node>
	<node lat="59.86555833220378" lon="11.094180547521177" id="-14921">
		<tag k="amenity" v="school" />
		<tag k="name" v="Nordby skole" />
		<tag k="ssr:stedsnr" v="449613" />
	</node>
	<node lat="59.90104166995735" lon="11.12199443884504" id="-14922">
		<tag k="name" v="Fautøya" />
		<tag k="place" v="island" />
		<tag k="ssr:stedsnr" v="671637" />
	</node>
	<node lat="59.925436109751296" lon="11.058824993277941" id="-14923">
		<tag k="name" v="Korsvegen" />
		<tag k="place" v="farm" />
		<tag k="ssr:stedsnr" v="672001" />
	</node>
	<node lat="59.8624111104035" lon="11.078663880203095" id="-14924">
		<tag k="name" v="Myrdammen" />
		<tag k="natural" v="water" />
		<tag k="ssr:stedsnr" v="672132" />
	</node>
	<node lat="59.847272224474345" lon="11.078900006707343" id="-14925">
		<tag k="alt_name" v="Brasmetjern" />
		<tag k="name" v="Brasmetjernet" />
		<tag k="natural" v="water" />
		<tag k="ssr:stedsnr" v="672227" />
	</node>
	<node lat="59.871327778484115" lon="11.100200003469938" id="-14926">
		<tag k="name" v="Gjellebekkvika" />
		<tag k="natural" v="bay" />
		<tag k="ssr:stedsnr" v="672666" />
	</node>
	<node lat="59.88613333259931" lon="11.11233888719484" id="-14927">
		<tag k="alt_name" v="Tveiterhagan" />
		<tag k="building" v="industrial" />
		<tag k="industrial" v="factory" />
		<tag k="name" v="Tveiterhagen" />
		<tag k="ssr:stedsnr" v="672640" />
	</node>
	<node lat="59.90196110780259" lon="11.025369447236557" id="-14928">
		<tag k="fixme" v="consider natural=peak for the most distinct mountains in the district" />
		<tag k="name" v="Skolemesteren" />
		<tag k="natural" v="hill" />
		<tag k="place" v="locality" />
		<tag k="ssr:stedsnr" v="691531" />
	</node>
	<node lat="59.84499068396147" lon="11.082395975116688" id="-14929">
		<tag k="alt_name" v="Bikkjetjern" />
		<tag k="name" v="Bikkjetjerna" />
		<tag k="natural" v="water" />
		<tag k="ssr:stedsnr" v="489221" />
		<tag k="water" v="lake" />
	</node>
	<node lat="59.93007499653758" lon="11.030252786219704" id="-14930">
		<tag k="name" v="Sandbekken" />
		<tag k="place" v="isolated_dwelling" />
		<tag k="ssr:stedsnr" v="490003" />
	</node>
	<node lat="59.85268889305411" lon="11.046758341898864" id="-14931">
		<tag k="alt_name" v="Auretjern" />
		<tag k="name" v="Aurtjernet" />
		<tag k="natural" v="water" />
		<tag k="ssr:stedsnr" v="490232" />
	</node>
	<node lat="59.93024722565287" lon="11.063138896758268" id="-14932">
		<tag k="alt_name" v="Sundhagan" />
		<tag k="name" v="Hagan" />
		<tag k="old_name" v="Hagen" />
		<tag k="place" v="isolated_dwelling" />
		<tag k="ssr:stedsnr" v="490001" />
	</node>
	<node lat="59.86440833043504" lon="11.04191389226326" id="-14933">
		<tag k="name" v="Byttingsdalen" />
		<tag k="natural" v="valley" />
		<tag k="place" v="locality" />
		<tag k="ssr:stedsnr" v="509504" />
	</node>
	<node lat="59.939255551231454" lon="11.063791664334785" id="-14934">
		<tag k="name" v="Nyland" />
		<tag k="place" v="hamlet" />
		<tag k="ssr:stedsnr" v="509556" />
	</node>
	<node lat="59.85874444476471" lon="11.048638887264921" id="-14935">
		<tag k="name" v="Vivangen" />
		<tag k="place" v="locality" />
		<tag k="ssr:stedsnr" v="509459" />
	</node>
	<node lat="59.89562499918455" lon="11.112802772763434" id="-14936">
		<tag k="name" v="Trollykkja" />
		<tag k="place" v="hamlet" />
		<tag k="ssr:stedsnr" v="509607" />
	</node>
	<node lat="59.89591388777352" lon="11.092141658984753" id="-14937">
		<tag k="name" v="Solli" />
		<tag k="place" v="farm" />
		<tag k="ssr:stedsnr" v="509610" />
	</node>
	<node lat="59.893819442471695" lon="11.101011113038373" id="-14938">
		<tag k="name" v="Nordre Hektner" />
		<tag k="place" v="farm" />
		<tag k="ssr:stedsnr" v="509613" />
	</node>
	<node lat="59.91283610971244" lon="11.080744440933946" id="-14939">
		<tag k="fixme" v="consider natural=peak for the most distinct mountains in the district" />
		<tag k="name" v="Sørliåsen" />
		<tag k="natural" v="hill" />
		<tag k="place" v="locality" />
		<tag k="ssr:stedsnr" v="509708" />
	</node>
	<node lat="59.90133055440898" lon="11.092441658146585" id="-14940">
		<tag k="name" v="Oppsal" />
		<tag k="place" v="hamlet" />
		<tag k="ssr:stedsnr" v="509711" />
	</node>
	<node lat="59.90913195764373" lon="11.052066381588032" id="-14941">
		<tag k="name" v="Olaputten" />
		<tag k="natural" v="water" />
		<tag k="ssr:stedsnr" v="550126" />
		<tag k="water" v="pond" />
	</node>
	<node lat="59.92708333663772" lon="11.05980555325074" id="-14942">
		<tag k="alt_name" v="Nygard" />
		<tag k="name" v="Nygård" />
		<tag k="place" v="isolated_dwelling" />
		<tag k="ssr:stedsnr" v="550004" />
	</node>
	<node lat="59.93148337733065" lon="11.07787608328689" id="-14943">
		<tag k="fixme" v="consider place=hamlet" />
		<tag k="name" v="Sundet" />
		<tag k="place" v="farm" />
		<tag k="ssr:stedsnr" v="550008" />
	</node>
	<node lat="59.94787500353294" lon="11.030950005398923" id="-14944">
		<tag k="alt_name" v="Strøm, østre" />
		<tag k="name" v="Østre Strøm" />
		<tag k="place" v="farm" />
		<tag k="ssr:stedsnr" v="550047" />
	</node>
	<node lat="59.840572222318826" lon="11.063755560189525" id="-14945">
		<tag k="alt_name" v="Morttjern" />
		<tag k="name" v="Morttjernet" />
		<tag k="natural" v="water" />
		<tag k="ssr:stedsnr" v="551510" />
	</node>
	<node lat="59.853497223190544" lon="11.083786111486601" id="-14946">
		<tag k="alt_name" v="Svarttjern" />
		<tag k="name" v="Svarttjernet" />
		<tag k="natural" v="water" />
		<tag k="ssr:stedsnr" v="551241" />
	</node>
	<node lat="59.8452194444804" lon="11.05624721922549" id="-14947">
		<tag k="name" v="Paraplymyra" />
		<tag k="natural" v="wetland" />
		<tag k="ssr:stedsnr" v="691500" />
	</node>
	<node lat="59.89383888744533" lon="11.021119449148216" id="-14948">
		<tag k="name" v="Isdalen" />
		<tag k="natural" v="valley" />
		<tag k="place" v="locality" />
		<tag k="ssr:stedsnr" v="691538" />
	</node>
	<node lat="59.8769750026944" lon="11.090624991855268" id="-14949">
		<tag k="name" v="Oppistua" />
		<tag k="place" v="farm" />
		<tag k="ssr:stedsnr" v="691644" />
	</node>
	<node lat="59.921302774033904" lon="11.079886106540032" id="-14950">
		<tag k="name" v="Tajet" />
		<tag k="place" v="farm" />
		<tag k="ssr:stedsnr" v="692560" />
	</node>
	<node lat="59.88597499689722" lon="11.102449998533881" id="-14951">
		<tag k="name" v="Søstua Tveiter" />
		<tag k="place" v="farm" />
		<tag k="ssr:stedsnr" v="569655" />
	</node>
	<node lat="59.85464444100008" lon="11.050441660483537" id="-14952">
		<tag k="historic" v="shieling" />
		<tag k="name" v="Nesseter" />
		<tag k="place" v="locality" />
		<tag k="ssr:stedsnr" v="569522" />
	</node>
	<node lat="59.93410000336967" lon="11.060391664599717" id="-14953">
		<tag k="fixme" v="consider place=suburb, village or hamlet" />
		<tag k="name" v="Norum" />
		<tag k="place" v="quarter" />
		<tag k="ssr:stedsnr" v="569557" />
	</node>
	<node lat="59.91887825264146" lon="11.046677331253314" id="-14954">
		<tag k="alt_name" v="Marikollenslottet" />
		<tag k="name" v="Marikollslottet" />
		<tag k="natural" v="hill" />
		<tag k="place" v="locality" />
		<tag k="ssr:stedsnr" v="569559" />
	</node>
	<node lat="59.8597305542947" lon="11.077436115622824" id="-14955">
		<tag k="name" v="Fjelldalen" />
		<tag k="natural" v="valley" />
		<tag k="place" v="locality" />
		<tag k="ssr:stedsnr" v="570563" />
	</node>
	<node lat="59.88867896752402" lon="11.092204212372042" id="-14956">
		<tag k="fixme" v="consider place=hamlet" />
		<tag k="name" v="Ramstad" />
		<tag k="place" v="farm" />
		<tag k="ssr:stedsnr" v="611081" />
	</node>
	<node lat="59.84080277685153" lon="11.04053055735551" id="-14957">
		<tag k="fixme" v="consider natural=peak for the most distinct mountains in the district" />
		<tag k="name" v="Høgkollen" />
		<tag k="natural" v="hill" />
		<tag k="place" v="locality" />
		<tag k="ssr:stedsnr" v="611193" />
	</node>
	<node lat="59.841752781077155" lon="11.057491671919367" id="-14958">
		<tag k="name" v="Svarttjernet" />
		<tag k="natural" v="water" />
		<tag k="ssr:stedsnr" v="611194" />
	</node>
	<node lat="59.890073129798104" lon="11.09964543612814" id="-14959">
		<tag k="fixme" v="consider place=hamlet" />
		<tag k="name" v="Østegarden" />
		<tag k="place" v="farm" />
		<tag k="ssr:stedsnr" v="611671" />
	</node>
	<node lat="59.85878775608062" lon="11.104862923022893" id="-14960">
		<tag k="fixme" v="consider place=hamlet" />
		<tag k="name" v="Uller" />
		<tag k="place" v="farm" />
		<tag k="ssr:stedsnr" v="611722" />
	</node>
	<node lat="59.848155524168554" lon="11.12535233388975" id="-14961">
		<tag k="fixme" v="consider place=hamlet" />
		<tag k="name" v="Teigen" />
		<tag k="place" v="farm" />
		<tag k="ssr:stedsnr" v="611748" />
	</node>
	<node lat="59.93022777941906" lon="11.030119438181075" id="-14962">
		<tag k="name" v="Blystadhytta" />
		<tag k="place" v="isolated_dwelling" />
		<tag k="ssr:stedsnr" v="630494" />
	</node>
	<node lat="59.93508055254132" lon="11.060313892180023" id="-14963">
		<tag k="name" v="Lognsdalen" />
		<tag k="natural" v="valley" />
		<tag k="place" v="locality" />
		<tag k="ssr:stedsnr" v="630500" />
	</node>
	<node lat="59.845588892654774" lon="11.093427769862144" id="-14964">
		<tag k="name" v="Tømmermannsmyra" />
		<tag k="natural" v="wetland" />
		<tag k="ssr:stedsnr" v="630643" />
	</node>
	<node lat="59.883222222536624" lon="11.105405549287594" id="-14965">
		<tag k="name" v="Kvennhusfossen" />
		<tag k="natural" v="waterfall" />
		<tag k="ssr:stedsnr" v="630588" />
	</node>
	<node lat="59.89287222236483" lon="11.09779166137359" id="-14966">
		<tag k="amenity" v="community_centre" />
		<tag k="name" v="Filadelfia" />
		<tag k="ssr:stedsnr" v="630602" />
	</node>
	<node lat="59.90312778127873" lon="11.051702782603446" id="-14967">
		<tag k="name" v="Brudalen" />
		<tag k="natural" v="valley" />
		<tag k="place" v="locality" />
		<tag k="ssr:stedsnr" v="672068" />
	</node>
	<node lat="59.8574861090386" lon="11.040911107346346" id="-14968">
		<tag k="alt_name" v="Østre Bjørntjern" />
		<tag k="name" v="Morttjernet" />
		<tag k="natural" v="water" />
		<tag k="ssr:stedsnr" v="672207" />
	</node>
	<node lat="59.85203888666086" lon="11.023738894652572" id="-14969">
		<tag k="alt_name" v="Krokvannskalven" />
		<tag k="name" v="Kalven" />
		<tag k="natural" v="bay" />
		<tag k="ssr:stedsnr" v="672221" />
	</node>
	<node lat="59.83149444187648" lon="11.078583337475477" id="-14970">
		<tag k="name" v="Åborvannet" />
		<tag k="natural" v="water" />
		<tag k="ssr:stedsnr" v="672272" />
	</node>
	<node lat="59.849586112805326" lon="11.09706111652073" id="-14971">
		<tag k="name" v="Vesledammen" />
		<tag k="natural" v="water" />
		<tag k="ssr:stedsnr" v="672730" />
	</node>
	<node lat="59.89785833025501" lon="11.051030562494931" id="-14972">
		<tag k="historic" v="shieling" />
		<tag k="name" v="Skovholtseter" />
		<tag k="place" v="locality" />
		<tag k="ssr:stedsnr" v="691395" />
	</node>
	<node lat="59.86712777655658" lon="11.059363890367196" id="-14973">
		<tag k="name" v="Lauvbråtemyra" />
		<tag k="natural" v="wetland" />
		<tag k="ssr:stedsnr" v="691503" />
	</node>
	<node lat="59.89076667106094" lon="11.042352780570383" id="-14974">
		<tag k="name" v="Nordre Skurvåstjern" />
		<tag k="natural" v="water" />
		<tag k="ssr:stedsnr" v="691481" />
	</node>
	<node lat="59.852774999713674" lon="11.071569443859053" id="-14975">
		<tag k="name" v="Geitungholmen" />
		<tag k="place" v="island" />
		<tag k="ssr:stedsnr" v="691681" />
	</node>
	<node lat="59.94195000336734" lon="11.059197227961306" id="-14976">
		<tag k="name" v="Berg" />
		<tag k="place" v="hamlet" />
		<tag k="ssr:stedsnr" v="691697" />
	</node>
	<node lat="59.92180000041523" lon="11.073816660607102" id="-14977">
		<tag k="junction" v="yes" />
		<tag k="name" v="Fjerdingby" />
		<tag k="place" v="locality" />
		<tag k="ssr:stedsnr" v="691587" />
	</node>
	<node lat="59.91228333304711" lon="11.081277780554526" id="-14978">
		<tag k="name" v="Sørli" />
		<tag k="place" v="farm" />
		<tag k="ssr:stedsnr" v="691724" />
	</node>
	<node lat="59.90520555272198" lon="11.097805558946895" id="-14979">
		<tag k="name" v="Søndre Smestad" />
		<tag k="place" v="farm" />
		<tag k="ssr:stedsnr" v="691730" />
	</node>
	<node lat="59.90695277590258" lon="11.061650000999348" id="-14980">
		<tag k="fixme" v="consider natural=peak for the most distinct mountains in the district" />
		<tag k="name" v="Langmyråsen" />
		<tag k="natural" v="hill" />
		<tag k="place" v="locality" />
		<tag k="ssr:stedsnr" v="691735" />
	</node>
	<node lat="59.87478333466035" lon="11.085377777495086" id="-14981">
		<tag k="amenity" v="community_centre" />
		<tag k="name" v="Åsvang samfunnshus" />
		<tag k="ssr:stedsnr" v="692607" />
	</node>
	<node lat="59.87346110767803" lon="11.084075004305829" id="-14982">
		<tag k="building" v="commercial" />
		<tag k="name" v="Skjønberg landhandleri" />
		<tag k="ssr:stedsnr" v="692608" />
	</node>
	<node lat="59.86208611097024" lon="11.094513894500345" id="-14983">
		<tag k="bridge" v="yes" />
		<tag k="layer" v="1" />
		<tag k="name" v="Fjellstad" />
		<tag k="ssr:stedsnr" v="896024" />
	</node>
	<node lat="59.85338055485444" lon="11.101055562309671" id="-14984">
		<tag k="bridge" v="yes" />
		<tag k="layer" v="1" />
		<tag k="name" v="By" />
		<tag k="ssr:stedsnr" v="713026" />
	</node>
	<node lat="59.920157557383504" lon="11.079525033069135" id="-14985">
		<tag k="name" v="Fjerdingby" />
		<tag k="place" v="hamlet" />
		<tag k="ssr:stedsnr" v="733122" />
	</node>
	<node lat="59.90463888723821" lon="11.123069438811726" id="-14986">
		<tag k="alt_name" v="Rusholet" />
		<tag k="name" v="Rudsholet" />
		<tag k="natural" v="strait" />
		<tag k="ssr:stedsnr" v="733580" />
	</node>
	<node lat="59.901616665607726" lon="11.056000006333512" id="-14987">
		<tag k="historic" v="shieling" />
		<tag k="name" v="Årnesseter" />
		<tag k="place" v="locality" />
		<tag k="ssr:stedsnr" v="751418" />
	</node>
	<node lat="59.88153055198284" lon="11.087238891972474" id="-14988">
=======
<osm generator="osmapis" version="0.6">
	<node id="-255404" lat="59.8509055513" lon="10.9748500049">
		<tag k="name" v="Østmarka" />
		<tag k="natural" v="wood" />
		<tag k="ssr:stedsnr" v="490224" />
	</node>
	<node id="-255399" lat="59.8785638891" lon="11.0834777716">
		<tag k="name" v="Grinibråtan" />
		<tag k="place" v="locality" />
		<tag k="ssr:stedsnr" v="874685" />
	</node>
	<node id="-255398" lat="59.8625916685" lon="11.0660083406">
		<tag k="name" v="Indre Isdalshøgda" />
		<tag k="natural" v="hill" />
		<tag k="place" v="locality" />
		<tag k="ssr:stedsnr" v="874684" />
	</node>
	<node id="-255397" lat="59.8623166628" lon="11.1035333251">
		<tag k="name" v="Østby" />
		<tag k="place" v="isolated_dwelling" />
		<tag k="ssr:stedsnr" v="874636" />
	</node>
	<node id="-255396" lat="59.8591111093" lon="11.0931472233">
		<tag k="name" v="Løkka" />
		<tag k="place" v="hamlet" />
		<tag k="ssr:stedsnr" v="874629" />
	</node>
	<node id="-255395" lat="59.9259916631" lon="11.0637777715">
		<tag k="name" v="Bjørnholthagan" />
		<tag k="natural" v="hill" />
		<tag k="place" v="locality" />
		<tag k="ssr:stedsnr" v="874589" />
	</node>
	<node id="-255394" lat="59.8918388924" lon="11.1266555602">
		<tag k="name" v="Storfloa" />
		<tag k="place" v="locality" />
		<tag k="ssr:stedsnr" v="873497" />
	</node>
	<node id="-255393" lat="59.8700000022" lon="11.0463472151">
		<tag k="name" v="Holoa" />
		<tag k="place" v="locality" />
		<tag k="ssr:stedsnr" v="873495" />
	</node>
	<node id="-255392" lat="59.8414333366" lon="11.0692138848">
		<tag k="name" v="Festningsdalen" />
		<tag k="natural" v="valley" />
		<tag k="place" v="locality" />
		<tag k="ssr:stedsnr" v="873652" />
	</node>
	<node id="-255391" lat="59.8946944404" lon="11.1198861071">
		<tag k="name" v="Skogholtsåa" />
		<tag k="ssr:stedsnr" v="873482" />
		<tag k="waterway" v="river" />
	</node>
	<node id="-255390" lat="59.884480554" lon="11.0434583289">
		<tag k="name" v="Øvre Setertjern" />
		<tag k="natural" v="water" />
		<tag k="ssr:stedsnr" v="873479" />
	</node>
	<node id="-255389" lat="59.8778916696" lon="11.0423916651">
		<tag k="name" v="Romperud" />
		<tag k="place" v="locality" />
		<tag k="ssr:stedsnr" v="873390" />
	</node>
	<node id="-255388" lat="59.8588222224" lon="11.1033666664">
		<tag k="name" v="Stuetomta" />
		<tag k="place" v="isolated_dwelling" />
		<tag k="ssr:stedsnr" v="813608" />
	</node>
	<node id="-255387" lat="59.8704638863" lon="11.083588893">
		<tag k="name" v="Oppvestby" />
		<tag k="place" v="hamlet" />
		<tag k="ssr:stedsnr" v="813596" />
	</node>
	<node id="-255385" lat="59.904869446" lon="11.0700277712">
		<tag k="name" v="Høgåsdammen" />
		<tag k="natural" v="wetland" />
		<tag k="ssr:stedsnr" v="812776" />
	</node>
	<node id="-255384" lat="59.8990194449" lon="11.1064000024">
		<tag k="name" v="Skogholthagan" />
		<tag k="place" v="locality" />
		<tag k="ssr:stedsnr" v="812774" />
	</node>
	<node id="-255383" lat="59.912438889" lon="11.0902444445">
		<tag k="name" v="Vestby" />
		<tag k="place" v="hamlet" />
		<tag k="ssr:stedsnr" v="812766" />
	</node>
	<node id="-255382" lat="59.9142444471" lon="11.0863388938">
		<tag k="name" v="Holthagan" />
		<tag k="place" v="locality" />
		<tag k="ssr:stedsnr" v="812758" />
	</node>
	<node id="-255381" lat="59.904308333" lon="11.0904694401">
		<tag k="name" v="Skoglund" />
		<tag k="place" v="farm" />
		<tag k="ssr:stedsnr" v="812756" />
	</node>
	<node id="-255380" lat="59.8843027749" lon="11.0905305616">
		<tag k="fixme" v="consider natural=peak for the most distinct mountains in the district" />
		<tag k="name" v="Tveiteråsen" />
		<tag k="natural" v="hill" />
		<tag k="place" v="locality" />
		<tag k="ssr:stedsnr" v="812724" />
	</node>
	<node id="-255379" lat="59.8777027817" lon="11.1082472254">
		<tag k="name" v="Fettavika" />
		<tag k="natural" v="bay" />
		<tag k="ssr:stedsnr" v="812722" />
	</node>
	<node id="-255378" lat="59.8400666674" lon="11.0769444462">
		<tag k="fixme" v="consider natural=peak for the most distinct mountains in the district" />
		<tag k="name" v="Oskaråsen" />
		<tag k="natural" v="hill" />
		<tag k="place" v="locality" />
		<tag k="ssr:stedsnr" v="812710" />
	</node>
	<node id="-255377" lat="59.8457027801" lon="11.0895611114">
		<tag k="fixme" v="consider natural=peak for the most distinct mountains in the district" />
		<tag k="name" v="Gutubråtaåsen" />
		<tag k="natural" v="hill" />
		<tag k="place" v="locality" />
		<tag k="ssr:stedsnr" v="812704" />
	</node>
	<node id="-255376" lat="59.8837555576" lon="11.0966666756">
		<tag k="name" v="Nordstua Jaer" />
		<tag k="place" v="farm" />
		<tag k="ssr:stedsnr" v="812685" />
	</node>
	<node id="-255375" lat="59.8960250024" lon="11.1025527691">
		<tag k="name" v="Solbu" />
		<tag k="place" v="farm" />
		<tag k="ssr:stedsnr" v="812678" />
	</node>
	<node id="-255374" lat="59.9238805552" lon="11.0588916721">
		<tag k="leisure" v="pitch" />
		<tag k="name" v="Rælingen stadion" />
		<tag k="ssr:stedsnr" v="812598" />
	</node>
	<node id="-255373" lat="59.9288027789" lon="11.0446277732">
		<tag k="name" v="Åshøgda" />
		<tag k="natural" v="hill" />
		<tag k="place" v="locality" />
		<tag k="ssr:stedsnr" v="812593" />
	</node>
	<node id="-255372" lat="59.9335754669" lon="11.0298294798">
		<tag k="alt_name" v="Sandbekken ungd. skole" />
		<tag k="amenity" v="school" />
		<tag k="name" v="Sandbekken ungdomsskole" />
		<tag k="ssr:stedsnr" v="812585" />
	</node>
	<node id="-255371" lat="59.8431388904" lon="11.0335305573">
		<tag k="name" v="Tappenberg" />
		<tag k="natural" v="hill" />
		<tag k="place" v="locality" />
		<tag k="ssr:stedsnr" v="812569" />
	</node>
	<node id="-255370" lat="59.8518805528" lon="11.0422999975">
		<tag k="name" v="Tørrbiten" />
		<tag k="natural" v="hill" />
		<tag k="place" v="locality" />
		<tag k="ssr:stedsnr" v="812567" />
	</node>
	<node id="-255369" lat="59.8648777811" lon="11.0468472166">
		<tag k="name" v="Langtjernhøgda" />
		<tag k="natural" v="hill" />
		<tag k="place" v="locality" />
		<tag k="ssr:stedsnr" v="812561" />
	</node>
	<node id="-255368" lat="59.8794222211" lon="11.0198444417">
		<tag k="name" v="Hvitvannsmyra" />
		<tag k="natural" v="wetland" />
		<tag k="ssr:stedsnr" v="812556" />
	</node>
	<node id="-255367" lat="59.906255559" lon="11.030369438">
		<tag k="name" v="Blåtjerntangen" />
		<tag k="natural" v="cape" />
		<tag k="ssr:stedsnr" v="812552" />
	</node>
	<node id="-255366" lat="59.8912583345" lon="11.0238138941">
		<tag k="historic" v="shieling" />
		<tag k="name" v="Vestegårdsetra" />
		<tag k="place" v="locality" />
		<tag k="ssr:stedsnr" v="812548" />
	</node>
	<node id="-255365" lat="59.8901833351" lon="11.0226055575">
		<tag k="historic" v="shieling" />
		<tag k="name" v="Østegårdsetra" />
		<tag k="place" v="locality" />
		<tag k="ssr:stedsnr" v="812547" />
	</node>
	<node id="-255364" lat="59.8951444476" lon="11.0480277744">
		<tag k="name" v="Kommunehytta" />
		<tag k="place" v="isolated_dwelling" />
		<tag k="ssr:stedsnr" v="812403" />
	</node>
	<node id="-255363" lat="59.8418166641" lon="11.1396972153">
		<tag k="name" v="Sofiedal" />
		<tag k="place" v="isolated_dwelling" />
		<tag k="ssr:stedsnr" v="794747" />
	</node>
	<node id="-255362" lat="59.8558944474" lon="11.1069055591">
		<tag k="name" v="By" />
		<tag k="place" v="farm" />
		<tag k="ssr:stedsnr" v="793741" />
	</node>
	<node id="-255361" lat="59.8601472187" lon="11.0983888913">
		<tag k="name" v="Karlstad" />
		<tag k="place" v="farm" />
		<tag k="ssr:stedsnr" v="793719" />
	</node>
	<node id="-255360" lat="59.8955305543" lon="11.1029277719">
		<tag k="name" v="Skogholt" />
		<tag k="place" v="farm" />
		<tag k="ssr:stedsnr" v="793674" />
	</node>
	<node id="-255359" lat="59.8709777759" lon="11.0764749911">
		<tag k="name" v="Gryta" />
		<tag k="natural" v="water" />
		<tag k="ssr:stedsnr" v="793152" />
	</node>
	<node id="-255358" lat="59.8646027745" lon="11.0854638903">
		<tag k="fixme" v="consider natural=peak for the most distinct mountains in the district" />
		<tag k="name" v="Tjanåsen" />
		<tag k="natural" v="hill" />
		<tag k="place" v="locality" />
		<tag k="ssr:stedsnr" v="793151" />
	</node>
	<node id="-255357" lat="59.9190305591" lon="11.0271555612">
		<tag k="name" v="Åmotdammen" />
		<tag k="natural" v="water" />
		<tag k="ssr:stedsnr" v="793100" />
		<tag k="water" v="lake" />
	</node>
	<node id="-255356" lat="59.9446027753" lon="11.0224722198">
		<tag k="name" v="Stalsberghagen" />
		<tag k="place" v="locality" />
		<tag k="ssr:stedsnr" v="793034" />
	</node>
	<node id="-255355" lat="59.92566111" lon="11.070274999">
		<tag k="name" v="Bjørnholt" />
		<tag k="place" v="farm" />
		<tag k="ssr:stedsnr" v="793002" />
	</node>
	<node id="-255354" lat="59.8761833316" lon="11.0271555564">
		<tag k="alt_name" v="Opptjern" />
		<tag k="name" v="Opptjernet" />
		<tag k="natural" v="water" />
		<tag k="ssr:stedsnr" v="793193" />
	</node>
	<node id="-255353" lat="59.8643527802" lon="11.0719944497">
		<tag k="name" v="Fremste Isdalshøgda" />
		<tag k="natural" v="hill" />
		<tag k="place" v="locality" />
		<tag k="ssr:stedsnr" v="752634" />
	</node>
	<node id="-255352" lat="59.8734555595" lon="11.0937916588">
		<tag k="name" v="Neshagan" />
		<tag k="place" v="locality" />
		<tag k="ssr:stedsnr" v="752594" />
	</node>
	<node id="-255351" lat="59.9370388932" lon="11.0648916674">
		<tag k="name" v="Nedre Åmot" />
		<tag k="place" v="farm" />
		<tag k="ssr:stedsnr" v="752550" />
	</node>
	<node id="-255350" lat="59.9436444459" lon="11.0298555527">
		<tag k="name" v="Furukollen" />
		<tag k="natural" v="hill" />
		<tag k="place" v="locality" />
		<tag k="ssr:stedsnr" v="751772" />
	</node>
	<node id="-255349" lat="59.9433138922" lon="11.0564166662">
		<tag k="name" v="Borgen" />
		<tag k="place" v="hamlet" />
		<tag k="ssr:stedsnr" v="751729" />
	</node>
	<node id="-255348" lat="59.949924996" lon="11.0422444388">
		<tag k="name" v="Rudsberget" />
		<tag k="place" v="isolated_dwelling" />
		<tag k="ssr:stedsnr" v="751727" />
	</node>
	<node id="-255347" lat="59.8899833307" lon="11.0775444381">
		<tag k="name" v="Storkleiva" />
		<tag k="natural" v="valley" />
		<tag k="place" v="locality" />
		<tag k="ssr:stedsnr" v="751722" />
	</node>
	<node id="-255346" lat="59.881530552" lon="11.087238892">
		<tag k="fixme" v="consider natural=peak for the most distinct mountains in the district" />
		<tag k="name" v="Jaeråsen" />
		<tag k="natural" v="hill" />
		<tag k="place" v="locality" />
		<tag k="ssr:stedsnr" v="751721" />
	</node>
	<node id="-255345" lat="59.8761805518" lon="11.0922638972">
		<tag k="alt_name" v="Grini Søgarden" />
		<tag k="name" v="Søgarden Grini" />
		<tag k="place" v="farm" />
		<tag k="ssr:stedsnr" v="751685" />
	</node>
	<node id="-255344" lat="59.9016166656" lon="11.0560000063">
		<tag k="historic" v="shieling" />
		<tag k="name" v="Årnesseter" />
		<tag k="place" v="locality" />
		<tag k="ssr:stedsnr" v="751418" />
	</node>
	<node id="-255343" lat="59.8853416648" lon="11.1006166724">
		<tag k="name" v="Søstufossen" />
		<tag k="natural" v="waterfall" />
		<tag k="ssr:stedsnr" v="751674" />
	</node>
	<node id="-255342" lat="59.8455888927" lon="11.0934277699">
		<tag k="name" v="Tømmermannsmyra" />
		<tag k="natural" v="wetland" />
		<tag k="ssr:stedsnr" v="630643" />
	</node>
	<node id="-255341" lat="59.8350027773" lon="11.0678000005">
		<tag k="name" v="Otertjernmyra" />
		<tag k="natural" v="wetland" />
		<tag k="ssr:stedsnr" v="630631" />
	</node>
	<node id="-255340" lat="59.9350805525" lon="11.0603138922">
		<tag k="name" v="Lognsdalen" />
		<tag k="natural" v="valley" />
		<tag k="place" v="locality" />
		<tag k="ssr:stedsnr" v="630500" />
	</node>
	<node id="-255339" lat="59.9302277794" lon="11.0301194382">
		<tag k="name" v="Blystadhytta" />
		<tag k="place" v="isolated_dwelling" />
		<tag k="ssr:stedsnr" v="630494" />
	</node>
	<node id="-255338" lat="59.8846333377" lon="11.0599000083">
		<tag k="name" v="Den hvite måsan" />
		<tag k="natural" v="wetland" />
		<tag k="ssr:stedsnr" v="630470" />
	</node>
	<node id="-255337" lat="59.8928722224" lon="11.0977916614">
		<tag k="amenity" v="community_centre" />
		<tag k="name" v="Filadelfia" />
		<tag k="ssr:stedsnr" v="630602" />
	</node>
	<node id="-255336" lat="59.8832222225" lon="11.1054055493">
		<tag k="name" v="Kvennhusfossen" />
		<tag k="natural" v="waterfall" />
		<tag k="ssr:stedsnr" v="630588" />
	</node>
	<node id="-255335" lat="59.8481222211" lon="11.125069441">
		<tag k="name" v="Teigen" />
		<tag k="place" v="farm" />
		<tag k="ssr:stedsnr" v="611748" />
	</node>
	<node id="-255334" lat="59.8587877561" lon="11.104862923">
		<tag k="name" v="Uller" />
		<tag k="place" v="farm" />
		<tag k="ssr:stedsnr" v="611722" />
	</node>
	<node id="-255333" lat="59.8686166662" lon="11.1023694389">
		<tag k="building" v="industrial" />
		<tag k="industrial" v="factory" />
		<tag k="name" v="Nordby bruk" />
		<tag k="ssr:stedsnr" v="611700" />
	</node>
	<node id="-255332" lat="59.8901583326" lon="11.0988305622">
		<tag k="name" v="Østegarden" />
		<tag k="place" v="farm" />
		<tag k="ssr:stedsnr" v="611671" />
	</node>
	<node id="-255331" lat="59.828886108" lon="11.091330552">
		<tag k="alt_name" v="Vestre Morttjern" />
		<tag k="name" v="Morttjernet" />
		<tag k="natural" v="water" />
		<tag k="ssr:stedsnr" v="611300" />
	</node>
	<node id="-255330" lat="59.8879249985" lon="11.0905750016">
		<tag k="name" v="Ramstad" />
		<tag k="place" v="farm" />
		<tag k="ssr:stedsnr" v="611081" />
	</node>
	<node id="-255329" lat="59.8417527811" lon="11.0574916719">
		<tag k="name" v="Svarttjernet" />
		<tag k="natural" v="water" />
		<tag k="ssr:stedsnr" v="611194" />
	</node>
	<node id="-255328" lat="59.8408027769" lon="11.0405305574">
		<tag k="fixme" v="consider natural=peak for the most distinct mountains in the district" />
		<tag k="name" v="Høgkollen" />
		<tag k="natural" v="hill" />
		<tag k="place" v="locality" />
		<tag k="ssr:stedsnr" v="611193" />
	</node>
	<node id="-255327" lat="59.9483166699" lon="11.024494453">
		<tag k="alt_name" v="Strøm, vestre" />
		<tag k="name" v="Vestre Strøm" />
		<tag k="place" v="farm" />
		<tag k="ssr:stedsnr" v="611046" />
	</node>
	<node id="-255326" lat="59.9376222259" lon="11.0592249961">
		<tag k="name" v="Øgården" />
		<tag k="place" v="isolated_dwelling" />
		<tag k="ssr:stedsnr" v="611063" />
	</node>
	<node id="-255325" lat="59.8606833328" lon="11.0863777723">
		<tag k="fixme" v="consider natural=peak for the most distinct mountains in the district" />
		<tag k="name" v="Splinteråsen" />
		<tag k="natural" v="hill" />
		<tag k="place" v="locality" />
		<tag k="ssr:stedsnr" v="570636" />
	</node>
	<node id="-255324" lat="59.8579388925" lon="11.0950555608">
		<tag k="name" v="Tomter" />
		<tag k="place" v="hamlet" />
		<tag k="ssr:stedsnr" v="570574" />
	</node>
	<node id="-255323" lat="59.8597305543" lon="11.0774361156">
		<tag k="name" v="Fjelldalen" />
		<tag k="natural" v="valley" />
		<tag k="place" v="locality" />
		<tag k="ssr:stedsnr" v="570563" />
	</node>
	<node id="-255322" lat="59.8515777802" lon="11.0803416587">
		<tag k="name" v="Korsveihøgdene" />
		<tag k="natural" v="ridge" />
		<tag k="place" v="locality" />
		<tag k="ssr:stedsnr" v="569684" />
	</node>
	<node id="-255321" lat="59.8526055582" lon="11.0682444418">
		<tag k="name" v="Bjørnholmen" />
		<tag k="place" v="island" />
		<tag k="ssr:stedsnr" v="569682" />
	</node>
	<node id="-255320" lat="59.9407638923" lon="11.0178416653">
		<tag k="fixme" v="consider natural=peak for the most distinct mountains in the district" />
		<tag k="name" v="Bassengåsen" />
		<tag k="natural" v="hill" />
		<tag k="place" v="locality" />
		<tag k="ssr:stedsnr" v="569675" />
	</node>
	<node id="-255319" lat="59.8859749969" lon="11.1024499985">
		<tag k="name" v="Søstua Tveiter" />
		<tag k="place" v="farm" />
		<tag k="ssr:stedsnr" v="569655" />
	</node>
	<node id="-255318" lat="59.9188782526" lon="11.0466773313">
		<tag k="alt_name" v="Marikollenslottet" />
		<tag k="name" v="Marikollslottet" />
		<tag k="natural" v="hill" />
		<tag k="place" v="locality" />
		<tag k="ssr:stedsnr" v="569559" />
	</node>
	<node id="-255317" lat="59.9341000034" lon="11.0603916646">
		<tag k="fixme" v="consider place=suburb, village or hamlet" />
		<tag k="name" v="Norum" />
		<tag k="place" v="quarter" />
		<tag k="ssr:stedsnr" v="569557" />
	</node>
	<node id="-255316" lat="59.9366305584" lon="11.0278999998">
		<tag k="amenity" v="school" />
		<tag k="name" v="Løvenstad skole" />
		<tag k="ssr:stedsnr" v="569551" />
	</node>
	<node id="-255315" lat="59.854644441" lon="11.0504416605">
		<tag k="historic" v="shieling" />
		<tag k="name" v="Nesseter" />
		<tag k="place" v="locality" />
		<tag k="ssr:stedsnr" v="569522" />
	</node>
	<node id="-255314" lat="59.9093000001" lon="11.0372305622">
		<tag k="historic" v="shieling" />
		<tag k="name" v="Fjerdingbyseter" />
		<tag k="place" v="locality" />
		<tag k="ssr:stedsnr" v="569378" />
	</node>
	<node id="-255313" lat="59.8405722223" lon="11.0637555602">
		<tag k="alt_name" v="Morttjern" />
		<tag k="name" v="Morttjernet" />
		<tag k="natural" v="water" />
		<tag k="ssr:stedsnr" v="551510" />
	</node>
	<node id="-255312" lat="59.8534972232" lon="11.0837861115">
		<tag k="alt_name" v="Svarttjern" />
		<tag k="name" v="Svarttjernet" />
		<tag k="natural" v="water" />
		<tag k="ssr:stedsnr" v="551241" />
	</node>
	<node id="-255311" lat="59.8904750046" lon="11.0207499919">
		<tag k="name" v="Djupdalshytta" />
		<tag k="place" v="isolated_dwelling" />
		<tag k="ssr:stedsnr" v="551087" />
	</node>
	<node id="-255310" lat="59.8679249982" lon="11.0939638946">
		<tag k="name" v="Nordby" />
		<tag k="place" v="farm" />
		<tag k="ssr:stedsnr" v="550689" />
	</node>
	<node id="-255309" lat="59.8653833347" lon="11.1000638871">
		<tag k="alt_name" v="Tomta" />
		<tag k="name" v="Tomter" />
		<tag k="place" v="farm" />
		<tag k="ssr:stedsnr" v="550687" />
	</node>
	<node id="-255308" lat="59.8986694436" lon="11.110536116">
		<tag k="name" v="Nordhagan" />
		<tag k="place" v="farm" />
		<tag k="ssr:stedsnr" v="550619" />
	</node>
	<node id="-255307" lat="59.887880934" lon="11.0584138537">
		<tag k="name" v="Ramstadsjøen" />
		<tag k="natural" v="water" />
		<tag k="ssr:stedsnr" v="550181" />
		<tag k="water" v="lake" />
	</node>
	<node id="-255306" lat="59.8873416684" lon="11.047499995">
		<tag k="name" v="Hektnersetra" />
		<tag k="place" v="locality" />
		<tag k="ssr:stedsnr" v="550179" />
	</node>
	<node id="-255305" lat="59.9091319576" lon="11.0520663816">
		<tag k="name" v="Olaputten" />
		<tag k="natural" v="water" />
		<tag k="ssr:stedsnr" v="550126" />
		<tag k="water" v="pond" />
	</node>
	<node id="-255304" lat="59.9478750035" lon="11.0309500054">
		<tag k="alt_name" v="Strøm, østre" />
		<tag k="name" v="Østre Strøm" />
		<tag k="place" v="farm" />
		<tag k="ssr:stedsnr" v="550047" />
	</node>
	<node id="-255303" lat="59.9313083317" lon="11.0774000043">
		<tag k="name" v="Sundet" />
		<tag k="place" v="isolated_dwelling" />
		<tag k="ssr:stedsnr" v="550008" />
	</node>
	<node id="-255302" lat="59.9270833366" lon="11.0598055533">
		<tag k="alt_name" v="Nygard" />
		<tag k="name" v="Nygård" />
		<tag k="place" v="isolated_dwelling" />
		<tag k="ssr:stedsnr" v="550004" />
	</node>
	<node id="-255301" lat="59.8487249966" lon="11.0356777749">
		<tag k="name" v="Falkehøgda" />
		<tag k="natural" v="hill" />
		<tag k="place" v="locality" />
		<tag k="ssr:stedsnr" v="430233" />
	</node>
	<node id="-255300" lat="59.9055360192" lon="11.0288106148">
		<tag k="alt_name" v="Blåtjern" />
		<tag k="name" v="Blåtjernet" />
		<tag k="natural" v="water" />
		<tag k="ssr:stedsnr" v="430062" />
	</node>
	<node id="-255299" lat="59.8625305565" lon="11.1071111025">
		<tag k="name" v="Ullervika" />
		<tag k="natural" v="bay" />
		<tag k="ssr:stedsnr" v="429693" />
	</node>
	<node id="-255298" lat="59.8790694412" lon="11.0879694417">
		<tag k="name" v="Grinitajet" />
		<tag k="place" v="quarter" />
		<tag k="ssr:stedsnr" v="429167" />
	</node>
	<node id="-255297" lat="59.9208333354" lon="11.0832222154">
		<tag k="alt_name" v="Rælingen" />
		<tag k="amenity" v="place_of_worship" />
		<tag k="denomination" v="lutheran" />
		<tag k="name" v="Rælingen kirke" />
		<tag k="religion" v="christian" />
		<tag k="ssr:stedsnr" v="429094" />
	</node>
	<node id="-255296" lat="59.8955027812" lon="11.0589222265">
		<tag k="fixme" v="consider natural=peak for the most distinct mountains in the district" />
		<tag k="name" v="Hektnerhøgåsen" />
		<tag k="natural" v="hill" />
		<tag k="place" v="locality" />
		<tag k="ssr:stedsnr" v="429072" />
	</node>
	<node id="-255295" lat="59.9375583331" lon="11.0273666701">
		<tag k="name" v="Løvenstad" />
		<tag k="place" v="quarter" />
		<tag k="ssr:stedsnr" v="429051" />
	</node>
	<node id="-255294" lat="59.6971333353" lon="11.2302333413">
		<tag k="name" v="Øyeren" />
		<tag k="natural" v="water" />
		<tag k="ssr:stedsnr" v="428839" />
		<tag k="water" v="lake" />
	</node>
	<node id="-255293" lat="59.9468916689" lon="11.0470555536">
		<tag k="bridge" v="yes" />
		<tag k="layer" v="1" />
		<tag k="name" v="Rudveien" />
		<tag k="ssr:stedsnr" v="410025" />
	</node>
	<node id="-255292" lat="59.8845222196" lon="11.0955277794">
		<tag k="highway" v="path" />
		<tag k="name" v="Kongevegen" />
		<tag k="ssr:stedsnr" v="388639" />
	</node>
	<node id="-255291" lat="59.868591668" lon="11.095700009">
		<tag k="name" v="Kikut" />
		<tag k="place" v="isolated_dwelling" />
		<tag k="ssr:stedsnr" v="388603" />
	</node>
	<node id="-255290" lat="59.8706749986" lon="11.0960611143">
		<tag k="name" v="Svingen" />
		<tag k="place" v="farm" />
		<tag k="ssr:stedsnr" v="388596" />
	</node>
	<node id="-255289" lat="59.9119916648" lon="11.0859638878">
		<tag k="fixme" v="consider natural=peak for the most distinct mountains in the district" />
		<tag k="name" v="Hagaåsen" />
		<tag k="natural" v="hill" />
		<tag k="place" v="locality" />
		<tag k="ssr:stedsnr" v="387744" />
	</node>
	<node id="-255288" lat="59.9148805528" lon="11.0819166643">
		<tag k="name" v="Haug" />
		<tag k="place" v="hamlet" />
		<tag k="ssr:stedsnr" v="387735" />
	</node>
	<node id="-255287" lat="59.9032527814" lon="11.0917944445">
		<tag k="name" v="Fjell" />
		<tag k="place" v="hamlet" />
		<tag k="ssr:stedsnr" v="387733" />
	</node>
	<node id="-255286" lat="59.8884000007" lon="11.0995638864">
		<tag k="junction" v="yes" />
		<tag k="name" v="Tveitertørje" />
		<tag k="place" v="locality" />
		<tag k="ssr:stedsnr" v="387650" />
	</node>
	<node id="-255285" lat="59.8762916671" lon="11.0882638814">
		<tag k="name" v="Gjellebekken" />
		<tag k="ssr:stedsnr" v="387647" />
		<tag k="waterway" v="stream" />
	</node>
	<node id="-255284" lat="59.8931888891" lon="11.0735472233">
		<tag k="name" v="Tyrihuken" />
		<tag k="place" v="locality" />
		<tag k="ssr:stedsnr" v="387646" />
	</node>
	<node id="-255283" lat="59.8825527774" lon="11.0820083401">
		<tag k="name" v="Store Breimåsan" />
		<tag k="natural" v="wetland" />
		<tag k="ssr:stedsnr" v="387644" />
	</node>
	<node id="-255282" lat="59.9258472248" lon="11.0467166648">
		<tag k="fixme" v="consider natural=peak for the most distinct mountains in the district" />
		<tag k="name" v="Brentås" />
		<tag k="natural" v="hill" />
		<tag k="place" v="locality" />
		<tag k="ssr:stedsnr" v="387585" />
	</node>
	<node id="-255281" lat="59.9481722254" lon="11.0469055498">
		<tag k="name" v="Sørlivika" />
		<tag k="natural" v="bay" />
		<tag k="ssr:stedsnr" v="387697" />
	</node>
	<node id="-255280" lat="59.9454472239" lon="11.0426861095">
		<tag k="amenity" v="school" />
		<tag k="name" v="Rud skole" />
		<tag k="ssr:stedsnr" v="387696" />
	</node>
	<node id="-255279" lat="59.9039833304" lon="11.0417611166">
		<tag k="name" v="Slottsmåsan" />
		<tag k="natural" v="wetland" />
		<tag k="ssr:stedsnr" v="387540" />
	</node>
	<node id="-255278" lat="59.8843249987" lon="11.0307999966">
		<tag k="name" v="Østre Huktjern" />
		<tag k="natural" v="water" />
		<tag k="ssr:stedsnr" v="387538" />
	</node>
	<node id="-255277" lat="59.9066499967" lon="11.0968000065">
		<tag k="alt_name" v="Smedstad" />
		<tag k="name" v="Smestad" />
		<tag k="place" v="farm" />
		<tag k="ssr:stedsnr" v="369561" />
	</node>
	<node id="-255276" lat="59.865488567" lon="11.0561788237">
		<tag k="name" v="Mørkåstjerna" />
		<tag k="natural" v="water" />
		<tag k="ssr:stedsnr" v="369137" />
		<tag k="water" v="lake" />
	</node>
	<node id="-255275" lat="59.8854472197" lon="11.0993222147">
		<tag k="alt_name" v="Mogna" />
		<tag k="name" v="Ramstadbekken" />
		<tag k="ssr:stedsnr" v="368702" />
		<tag k="waterway" v="stream" />
	</node>
	<node id="-255274" lat="59.8328972227" lon="11.0389138864">
		<tag k="alt_name" v="Søndre Krokvann" />
		<tag k="name" v="Søndre Krokvannet" />
		<tag k="natural" v="water" />
		<tag k="ssr:stedsnr" v="368328" />
	</node>
	<node id="-255273" lat="59.9224921418" lon="11.0725216955">
		<tag k="name" v="Hauger" />
		<tag k="place" v="farm" />
		<tag k="ssr:stedsnr" v="368123" />
	</node>
	<node id="-255272" lat="59.9465694437" lon="11.0525888811">
		<tag k="name" v="Torva" />
		<tag k="natural" v="cape" />
		<tag k="ssr:stedsnr" v="327675" />
	</node>
	<node id="-255271" lat="59.8642277768" lon="11.1043777732">
		<tag k="name" v="Fiskebygda" />
		<tag k="place" v="hamlet" />
		<tag k="ssr:stedsnr" v="327590" />
	</node>
	<node id="-255270" lat="59.8555166648" lon="11.0906361128">
		<tag k="name" v="Stumyra" />
		<tag k="natural" v="wetland" />
		<tag k="ssr:stedsnr" v="327589" />
	</node>
	<node id="-255269" lat="59.8516000032" lon="11.1018222196">
		<tag k="name" v="Bjørnmyrdalen" />
		<tag k="natural" v="valley" />
		<tag k="place" v="locality" />
		<tag k="ssr:stedsnr" v="327660" />
	</node>
	<node id="-255268" lat="59.8705388908" lon="11.0297694392">
		<tag k="fixme" v="consider natural=peak for the most distinct mountains in the district" />
		<tag k="name" v="Ottedageråsen" />
		<tag k="natural" v="hill" />
		<tag k="place" v="locality" />
		<tag k="ssr:stedsnr" v="327490" />
	</node>
	<node id="-255267" lat="59.8908611121" lon="11.0479388957">
		<tag k="name" v="Skurvåsmåsan" />
		<tag k="natural" v="wetland" />
		<tag k="ssr:stedsnr" v="327489" />
	</node>
	<node id="-255266" lat="59.8833611115" lon="11.0190944428">
		<tag k="name" v="Slåssmyra" />
		<tag k="natural" v="wetland" />
		<tag k="ssr:stedsnr" v="327486" />
	</node>
	<node id="-255265" lat="59.8588916708" lon="11.0376944494">
		<tag k="name" v="Bjørntjernmåsan" />
		<tag k="natural" v="wetland" />
		<tag k="ssr:stedsnr" v="327483" />
	</node>
	<node id="-255264" lat="59.8736305527" lon="11.0590444451">
		<tag k="name" v="Nordre Merratjern" />
		<tag k="natural" v="water" />
		<tag k="ssr:stedsnr" v="327465" />
	</node>
	<node id="-255263" lat="59.8939583297" lon="11.120024991">
		<tag k="name" v="Årnestangen" />
		<tag k="natural" v="cape" />
		<tag k="ssr:stedsnr" v="308634" />
	</node>
	<node id="-255262" lat="59.8843631669" lon="11.0294750041">
		<tag k="name" v="Huketjerna" />
		<tag k="natural" v="water" />
		<tag k="ssr:stedsnr" v="308148" />
		<tag k="water" v="lake" />
	</node>
	<node id="-255261" lat="59.9208555572" lon="11.0409611109">
		<tag k="alt_name" v="Knollsmåsan" />
		<tag k="name" v="Knølsmåsan" />
		<tag k="natural" v="wetland" />
		<tag k="old_name" v="Knølsmosan" />
		<tag k="ssr:stedsnr" v="308090" />
	</node>
	<node id="-255260" lat="59.8791333362" lon="11.0652611178">
		<tag k="bridge" v="yes" />
		<tag k="layer" v="1" />
		<tag k="name" v="Annekloppa" />
		<tag k="ssr:stedsnr" v="206635" />
	</node>
	<node id="-255259" lat="59.870091669" lon="11.0962666663">
		<tag k="name" v="Dølahaugen" />
		<tag k="place" v="hamlet" />
		<tag k="ssr:stedsnr" v="206590" />
	</node>
	<node id="-255258" lat="59.8549277805" lon="11.0667611033">
		<tag k="name" v="Sauemyra" />
		<tag k="natural" v="wetland" />
		<tag k="ssr:stedsnr" v="206583" />
	</node>
	<node id="-255257" lat="59.9237583324" lon="11.0848500045">
		<tag k="name" v="Enga" />
		<tag k="place" v="isolated_dwelling" />
		<tag k="ssr:stedsnr" v="206548" />
	</node>
	<node id="-255256" lat="59.9467749961" lon="11.0354833308">
		<tag k="alt_name" v="Øvre Rælingen" />
		<tag k="amenity" v="place_of_worship" />
		<tag k="denomination" v="lutheran" />
		<tag k="name" v="Øvre Rælingen kirke" />
		<tag k="religion" v="christian" />
		<tag k="ssr:stedsnr" v="205736" />
	</node>
	<node id="-255255" lat="59.8845194436" lon="11.0722777793">
		<tag k="fixme" v="consider natural=peak for the most distinct mountains in the district" />
		<tag k="name" v="Kulfjellåsen" />
		<tag k="natural" v="hill" />
		<tag k="place" v="locality" />
		<tag k="ssr:stedsnr" v="205730" />
	</node>
	<node id="-255254" lat="59.8532944467" lon="11.1023666749">
		<tag k="name" v="Smedbakken" />
		<tag k="place" v="locality" />
		<tag k="ssr:stedsnr" v="205726" />
	</node>
	<node id="-255253" lat="59.8753888917" lon="11.1018833272">
		<tag k="name" v="Søstua Nes" />
		<tag k="place" v="farm" />
		<tag k="ssr:stedsnr" v="205699" />
	</node>
	<node id="-255252" lat="59.9260817816" lon="11.0585125829">
		<tag k="amenity" v="place_of_worship" />
		<tag k="fixme" v="specify religion=*, denomination=*, building=* etc" />
		<tag k="name" v="Fjellet bedehus" />
		<tag k="ssr:stedsnr" v="205601" />
	</node>
	<node id="-255251" lat="59.8791111146" lon="11.0326500043">
		<tag k="name" v="Badstudalen" />
		<tag k="natural" v="valley" />
		<tag k="place" v="locality" />
		<tag k="ssr:stedsnr" v="205595" />
	</node>
	<node id="-255250" lat="59.8493527784" lon="11.0560416607">
		<tag k="name" v="Neslangmyra" />
		<tag k="natural" v="wetland" />
		<tag k="ssr:stedsnr" v="205568" />
	</node>
	<node id="-255249" lat="59.8580777739" lon="11.0525972172">
		<tag k="name" v="Nordre Nessetertjern" />
		<tag k="natural" v="water" />
		<tag k="ssr:stedsnr" v="205559" />
	</node>
	<node id="-255248" lat="59.8839722244" lon="11.0969249914">
		<tag k="name" v="Jar" />
		<tag k="place" v="farm" />
		<tag k="ssr:stedsnr" v="187628" />
	</node>
	<node id="-255247" lat="59.8802388932" lon="11.1096083356">
		<tag k="alt_name" v="Mognavika" />
		<tag k="name" v="Mognevika" />
		<tag k="natural" v="bay" />
		<tag k="ssr:stedsnr" v="187625" />
	</node>
	<node id="-255246" lat="59.8710944479" lon="11.0397499979">
		<tag k="alt_name" v="Bjørtjerna, nedre" />
		<tag k="name" v="Nordre Bjørtjern" />
		<tag k="natural" v="water" />
		<tag k="ssr:stedsnr" v="187148" />
	</node>
	<node id="-255245" lat="59.8648611124" lon="11.1051138936">
		<tag k="name" v="Berget" />
		<tag k="place" v="isolated_dwelling" />
		<tag k="ssr:stedsnr" v="186726" />
	</node>
	<node id="-255244" lat="59.9022027813" lon="11.1011305548">
		<tag k="name" v="Støtterud" />
		<tag k="place" v="farm" />
		<tag k="ssr:stedsnr" v="186677" />
	</node>
	<node id="-255243" lat="59.8920833311" lon="11.0835027724">
>>>>>>> e1d4bc35ff8a6074a6f2e91616a996b547c36f15
		<tag k="fixme" v="consider natural=peak for the most distinct mountains in the district" />
		<tag k="name" v="Sisselrudåsen" />
		<tag k="natural" v="hill" />
		<tag k="place" v="locality" />
<<<<<<< HEAD
		<tag k="ssr:stedsnr" v="751721" />
	</node>
	<node lat="59.889983330743476" lon="11.07754443805494" id="-14989">
		<tag k="name" v="Storkleiva" />
		<tag k="natural" v="valley" />
		<tag k="place" v="locality" />
		<tag k="ssr:stedsnr" v="751722" />
	</node>
	<node lat="59.94992499599358" lon="11.042244438829261" id="-14990">
		<tag k="name" v="Rudsberget" />
		<tag k="place" v="isolated_dwelling" />
		<tag k="ssr:stedsnr" v="751727" />
	</node>
	<node lat="59.943313892174984" lon="11.056416666226694" id="-14991">
		<tag k="name" v="Borgen" />
		<tag k="place" v="hamlet" />
		<tag k="ssr:stedsnr" v="751729" />
	</node>
	<node lat="59.88534166478929" lon="11.10061667235196" id="-14992">
		<tag k="name" v="Søstufossen" />
		<tag k="natural" v="waterfall" />
		<tag k="ssr:stedsnr" v="751674" />
	</node>
	<node lat="59.864602774479565" lon="11.085463890304993" id="-14993">
		<tag k="fixme" v="consider natural=peak for the most distinct mountains in the district" />
		<tag k="name" v="Tjanåsen" />
		<tag k="natural" v="hill" />
		<tag k="place" v="locality" />
		<tag k="ssr:stedsnr" v="793151" />
	</node>
	<node lat="59.87097777587849" lon="11.076474991120865" id="-14994">
		<tag k="name" v="Gryta" />
		<tag k="natural" v="water" />
		<tag k="ssr:stedsnr" v="793152" />
	</node>
	<node lat="59.944602775343526" lon="11.022472219838729" id="-14995">
		<tag k="name" v="Stalsberghagen" />
		<tag k="place" v="locality" />
		<tag k="ssr:stedsnr" v="793034" />
	</node>
	<node lat="59.89552771409606" lon="11.10411898121376" id="-14996">
		<tag k="fixme" v="consider place=hamlet" />
		<tag k="name" v="Skogholt" />
		<tag k="place" v="farm" />
		<tag k="ssr:stedsnr" v="793674" />
	</node>
	<node lat="59.860147218711134" lon="11.098388891276263" id="-14997">
		<tag k="name" v="Karlstad" />
		<tag k="place" v="farm" />
		<tag k="ssr:stedsnr" v="793719" />
	</node>
	<node lat="59.86064722408657" lon="11.018530558519956" id="-14998">
		<tag k="name" v="Morterudkoia" />
		<tag k="place" v="isolated_dwelling" />
		<tag k="ssr:stedsnr" v="915198" />
	</node>
	<node lat="59.8587944444683" lon="11.024836112591125" id="-14999">
		<tag k="alt_name" v="Murterudvannet" />
		<tag k="name" v="Morterudvann" />
		<tag k="natural" v="water" />
		<tag k="old_name" v="Morterudvatn" />
		<tag k="ssr:stedsnr" v="915200" />
	</node>
	<node lat="59.86163611331306" lon="11.034608330131423" id="-15000">
		<tag k="alt_name" v="Vestre Bjørntjern" />
		<tag k="name" v="Bjørnholttjernet" />
		<tag k="natural" v="water" />
		<tag k="ssr:stedsnr" v="915143" />
	</node>
	<node lat="59.89316851059697" lon="11.100309383048634" id="-15001">
		<tag k="fixme" v="consider place=hamlet" />
		<tag k="name" v="Hektner" />
		<tag k="place" v="farm" />
		<tag k="ssr:stedsnr" v="915628" />
	</node>
	<node lat="59.8860520523338" lon="11.121646365715653" id="-15002">
		<tag k="name" v="Snekkervika" />
		<tag k="natural" v="bay" />
		<tag k="ssr:stedsnr" v="915631" />
	</node>
	<node lat="59.890183335108766" lon="11.022605557530696" id="-15003">
		<tag k="historic" v="shieling" />
		<tag k="name" v="Østegårdsetra" />
		<tag k="place" v="locality" />
		<tag k="ssr:stedsnr" v="812547" />
	</node>
	<node lat="59.891258334498275" lon="11.02381389411394" id="-15004">
		<tag k="historic" v="shieling" />
		<tag k="name" v="Vestegårdsetra" />
		<tag k="place" v="locality" />
		<tag k="ssr:stedsnr" v="812548" />
	</node>
	<node lat="59.90625555904289" lon="11.03036943804024" id="-15005">
		<tag k="name" v="Blåtjerntangen" />
		<tag k="natural" v="cape" />
		<tag k="ssr:stedsnr" v="812552" />
	</node>
	<node lat="59.879422221071394" lon="11.019844441741185" id="-15006">
		<tag k="name" v="Hvitvannsmyra" />
		<tag k="natural" v="wetland" />
		<tag k="ssr:stedsnr" v="812556" />
	</node>
	<node lat="59.864877781089945" lon="11.046847216634909" id="-15007">
		<tag k="name" v="Langtjernhøgda" />
		<tag k="natural" v="hill" />
		<tag k="place" v="locality" />
		<tag k="ssr:stedsnr" v="812561" />
	</node>
	<node lat="59.851880552826444" lon="11.042299997476798" id="-15008">
		<tag k="name" v="Tørrbiten" />
		<tag k="natural" v="hill" />
		<tag k="place" v="locality" />
		<tag k="ssr:stedsnr" v="812567" />
	</node>
	<node lat="59.843138890449346" lon="11.033530557316164" id="-15009">
		<tag k="name" v="Tappenberg" />
		<tag k="natural" v="hill" />
		<tag k="place" v="locality" />
		<tag k="ssr:stedsnr" v="812569" />
	</node>
	<node lat="59.8951444476204" lon="11.048027774376772" id="-15010">
		<tag k="name" v="Kommunehytta" />
		<tag k="place" v="isolated_dwelling" />
		<tag k="ssr:stedsnr" v="812403" />
	</node>
	<node lat="59.84570278012683" lon="11.089561111423862" id="-15011">
		<tag k="fixme" v="consider natural=peak for the most distinct mountains in the district" />
		<tag k="name" v="Gutubråtaåsen" />
		<tag k="natural" v="hill" />
		<tag k="place" v="locality" />
		<tag k="ssr:stedsnr" v="812704" />
	</node>
	<node lat="59.84006666735243" lon="11.076944446195876" id="-15012">
		<tag k="fixme" v="consider natural=peak for the most distinct mountains in the district" />
		<tag k="name" v="Oskaråsen" />
		<tag k="natural" v="hill" />
		<tag k="place" v="locality" />
		<tag k="ssr:stedsnr" v="812710" />
	</node>
	<node lat="59.89602500242763" lon="11.102552769121855" id="-15013">
		<tag k="name" v="Solbu" />
		<tag k="place" v="farm" />
		<tag k="ssr:stedsnr" v="812678" />
	</node>
	<node lat="59.88375555758692" lon="11.096666675623881" id="-15014">
		<tag k="name" v="Nordstua Jaer" />
		<tag k="place" v="farm" />
		<tag k="ssr:stedsnr" v="812685" />
	</node>
	<node lat="59.858822222430895" lon="11.103366666383417" id="-15015">
		<tag k="name" v="Stuetomta" />
		<tag k="place" v="isolated_dwelling" />
		<tag k="ssr:stedsnr" v="813608" />
	</node>
	<node lat="59.87300162413971" lon="11.05861209142076" id="-15016">
		<tag k="name" v="Merratjerna" />
		<tag k="natural" v="water" />
		<tag k="ssr:stedsnr" v="854113" />
		<tag k="water" v="lake" />
	</node>
	<node lat="59.88030278027781" lon="11.059224991531778" id="-15017">
		<tag k="name" v="Stutauet" />
		<tag k="natural" v="water" />
		<tag k="ssr:stedsnr" v="934427" />
	</node>
	<node lat="59.89642500086378" lon="11.041899997364075" id="-15018">
		<tag k="name" v="Minketjern" />
		<tag k="natural" v="water" />
		<tag k="ssr:stedsnr" v="934429" />
	</node>
	<node lat="59.87262222626376" lon="11.057236111521002" id="-15019">
		<tag k="name" v="Søndre Merratjern" />
		<tag k="natural" v="water" />
		<tag k="ssr:stedsnr" v="934445" />
	</node>
	<node lat="59.916666665183925" lon="11.031747214075061" id="-15020">
		<tag k="name" v="Mortensmyra" />
		<tag k="natural" v="wetland" />
		<tag k="ssr:stedsnr" v="934449" />
	</node>
	<node lat="59.91689722396515" lon="11.044533332436728" id="-15021">
		<tag k="name" v="Merramyra" />
		<tag k="natural" v="wetland" />
		<tag k="ssr:stedsnr" v="934451" />
	</node>
	<node lat="59.83888610770243" lon="11.059341667356161" id="-15022">
		<tag k="historic" v="shieling" />
		<tag k="name" v="Tomtersetra" />
		<tag k="place" v="locality" />
		<tag k="ssr:stedsnr" v="934455" />
	</node>
	<node lat="59.895405553689" lon="11.046547228097078" id="-15023">
		<tag k="name" v="Skauholtmyra" />
		<tag k="natural" v="wetland" />
		<tag k="ssr:stedsnr" v="934469" />
	</node>
	<node lat="59.83907499734294" lon="11.033449996210601" id="-15024">
		<tag k="fixme" v="consider natural=peak for the most distinct mountains in the district" />
		<tag k="name" v="Ørnåsen" />
		<tag k="natural" v="hill" />
		<tag k="place" v="locality" />
		<tag k="ssr:stedsnr" v="934473" />
	</node>
	<node lat="59.865441670121044" lon="11.034933334064968" id="-15025">
		<tag k="name" v="Jaertangene" />
		<tag k="natural" v="hill" />
		<tag k="place" v="locality" />
		<tag k="ssr:stedsnr" v="934476" />
	</node>
	<node lat="59.885352779398765" lon="11.025225005883215" id="-15026">
		<tag k="fixme" v="consider natural=peak for the most distinct mountains in the district" />
		<tag k="name" v="Hukåsen" />
		<tag k="natural" v="hill" />
		<tag k="place" v="locality" />
		<tag k="ssr:stedsnr" v="934479" />
	</node>
	<node lat="59.85853888655066" lon="11.070238882352431" id="-15027">
		<tag k="name" v="Isdalsvika" />
		<tag k="natural" v="bay" />
		<tag k="ssr:stedsnr" v="934565" />
	</node>
	<node lat="59.87300833168964" lon="11.104036114573749" id="-15028">
		<tag k="name" v="Nesvika" />
		<tag k="natural" v="bay" />
		<tag k="ssr:stedsnr" v="934568" />
	</node>
	<node lat="59.87847777699208" lon="11.07086944463176" id="-15029">
		<tag k="fixme" v="consider natural=peak for the most distinct mountains in the district" />
		<tag k="name" v="Høgåsen" />
		<tag k="natural" v="hill" />
		<tag k="place" v="locality" />
		<tag k="ssr:stedsnr" v="934665" />
	</node>
	<node lat="59.943708336644654" lon="11.024761114432732" id="-15030">
		<tag k="name" v="Setersletta" />
		<tag k="place" v="locality" />
		<tag k="ssr:stedsnr" v="934709" />
	</node>
	<node lat="59.90683055274613" lon="11.096908325601614" id="-15031">
		<tag k="name" v="Nordre Smestad" />
		<tag k="place" v="farm" />
		<tag k="ssr:stedsnr" v="934720" />
	</node>
	<node lat="59.85059722472271" lon="11.038549998337283" id="-15032">
		<tag k="alt_name" v="Bjørntjernet" />
		<tag k="name" v="Småtjern" />
		<tag k="natural" v="water" />
		<tag k="ssr:stedsnr" v="915223" />
	</node>
	<node lat="59.882224996469795" lon="11.055616666397514" id="-15033">
		<tag k="name" v="Stabburdalen" />
		<tag k="natural" v="valley" />
		<tag k="place" v="locality" />
		<tag k="ssr:stedsnr" v="934503" />
	</node>
	<node lat="59.93124166560871" lon="11.037861113571408" id="-15034">
		<tag k="name" v="Blystadlia" />
		<tag k="place" v="quarter" />
		<tag k="ssr:stedsnr" v="934516" />
	</node>
	<node lat="59.87524722108519" lon="11.104591661838509" id="-15035">
		<tag k="name" v="Nordstua Nes" />
		<tag k="place" v="farm" />
		<tag k="ssr:stedsnr" v="934614" />
	</node>
	<node lat="59.863102780002876" lon="11.069283328989744" id="-15036">
		<tag k="name" v="Isdalen" />
		<tag k="natural" v="valley" />
		<tag k="place" v="locality" />
		<tag k="ssr:stedsnr" v="934635" />
	</node>
	<node lat="59.94501388895596" lon="11.054377771123791" id="-15037">
		<tag k="name" v="Tangerudvika" />
		<tag k="natural" v="bay" />
		<tag k="ssr:stedsnr" v="934685" />
	</node>
	<node lat="59.83820562801601" lon="11.046235313356213" id="-15038">
		<tag k="fixme" v="consider boundary=protected_area and relevant protect_class if not nature reserve" />
		<tag k="leisure" v="nature_reserve" />
		<tag k="name" v="Østmarka naturreservat" />
		<tag k="ssr:stedsnr" v="972728" />
	</node>
	<node lat="59.90278318347859" lon="11.041864593451127" id="-15039">
		<tag k="fixme" v="consider boundary=protected_area and relevant protect_class if not nature reserve" />
		<tag k="leisure" v="nature_reserve" />
		<tag k="name" v="Ramstadslottet naturreservat" />
		<tag k="ssr:stedsnr" v="972730" />
	</node>
	<node lat="59.93319999754683" lon="11.041927784278645" id="-15040">
		<tag k="alt_name" v="Rælingåsen" />
		<tag k="fixme" v="consider natural=peak for the most distinct mountains in the district" />
		<tag k="name" v="Rælingsåsen" />
		<tag k="natural" v="hill" />
		<tag k="place" v="locality" />
		<tag k="ssr:stedsnr" v="4001" />
	</node>
	<node lat="59.84939722291546" lon="11.073175003155834" id="-15041">
		<tag k="name" v="Nordbysjøen" />
		<tag k="natural" v="water" />
		<tag k="ssr:stedsnr" v="5250" />
		<tag k="water" v="lake" />
	</node>
	<node lat="59.919280552920796" lon="11.093066661903002" id="-15042">
		<tag k="alt_name" v="Hammeren" />
		<tag k="name" v="Hammaren" />
		<tag k="natural" v="cape" />
		<tag k="ssr:stedsnr" v="5584" />
	</node>
	<node lat="59.887544443962256" lon="11.019816665427008" id="-15043">
		<tag k="name" v="Slåssmyrdalen" />
		<tag k="natural" v="valley" />
		<tag k="place" v="locality" />
		<tag k="ssr:stedsnr" v="23595" />
	</node>
	<node lat="59.908552775144" lon="11.05072222119012" id="-15044">
		<tag k="loc_name" v="Røde Kors-hytta" />
		<tag k="name" v="Røde Kors hytta" />
		<tag k="place" v="isolated_dwelling" />
		<tag k="ssr:stedsnr" v="23458" />
	</node>
	<node lat="59.909100001356855" lon="11.099016674997173" id="-15045">
		<tag k="name" v="Oleberg" />
		<tag k="place" v="isolated_dwelling" />
		<tag k="ssr:stedsnr" v="23765" />
	</node>
	<node lat="59.94819444588456" lon="11.042219446584017" id="-15046">
		<tag k="name" v="Haugen" />
		<tag k="natural" v="hill" />
		<tag k="place" v="locality" />
		<tag k="ssr:stedsnr" v="23769" />
	</node>
	<node lat="59.869511107927245" lon="11.066516669031449" id="-15047">
		<tag k="fixme" v="consider natural=peak for the most distinct mountains in the district" />
		<tag k="name" v="Velbråtaåsen" />
		<tag k="natural" v="hill" />
		<tag k="place" v="locality" />
		<tag k="ssr:stedsnr" v="24670" />
	</node>
	<node lat="59.844013885068634" lon="11.098905561882491" id="-15048">
		<tag k="name" v="Slortjern" />
		<tag k="natural" v="water" />
		<tag k="ssr:stedsnr" v="65737" />
	</node>
	<node lat="59.84898888799626" lon="11.122016660934465" id="-15049">
		<tag k="name" v="Bråten" />
		<tag k="place" v="farm" />
		<tag k="ssr:stedsnr" v="65739" />
	</node>
	<node lat="59.87542791677788" lon="11.103456119983994" id="-15050">
		<tag k="fixme" v="consider place=hamlet" />
		<tag k="name" v="Nes" />
		<tag k="place" v="farm" />
		<tag k="ssr:stedsnr" v="65683" />
	</node>
	<node lat="59.89978610903025" lon="11.068375003434523" id="-15051">
		<tag k="name" v="Trestilen" />
		<tag k="natural" v="water" />
		<tag k="ssr:stedsnr" v="66068" />
	</node>
	<node lat="59.90371666562829" lon="11.040833330089882" id="-15052">
		<tag k="fixme" v="consider natural=peak for the most distinct mountains in the district" />
		<tag k="name" v="Ramstadslottet" />
		<tag k="natural" v="hill" />
		<tag k="place" v="locality" />
		<tag k="ssr:stedsnr" v="66071" />
	</node>
	<node lat="59.828766662822645" lon="11.19463888175793" id="-15053">
		<tag k="fixme" v="consider boundary=protected_area and relevant protect_class if not nature reserve" />
		<tag k="leisure" v="nature_reserve" />
		<tag k="name" v="Nordre Øyeren naturreservat" />
		<tag k="ssr:stedsnr" v="83359" />
	</node>
	<node lat="59.8398055521141" lon="11.059155557115014" id="-15054">
		<tag k="fixme" v="consider natural=peak for the most distinct mountains in the district" />
		<tag k="name" v="Morttjernåsen" />
		<tag k="natural" v="hill" />
		<tag k="place" v="locality" />
		<tag k="ssr:stedsnr" v="84552" />
	</node>
	<node lat="59.93660277903281" lon="11.016294448034737" id="-15055">
		<tag k="name" v="Kurlandsbekken" />
		<tag k="ssr:stedsnr" v="84554" />
		<tag k="waterway" v="stream" />
	</node>
	<node lat="59.83687500220169" lon="11.037519436587878" id="-15056">
		<tag k="name" v="Søndre Høgkolltjern" />
		<tag k="natural" v="water" />
		<tag k="ssr:stedsnr" v="84566" />
	</node>
	<node lat="59.88343055782613" lon="11.049791674954777" id="-15057">
		<tag k="fixme" v="consider natural=peak for the most distinct mountains in the district" />
		<tag k="name" v="Petteråsen" />
		<tag k="natural" v="hill" />
		<tag k="place" v="locality" />
		<tag k="ssr:stedsnr" v="84569" />
	</node>
	<node lat="59.85536110776795" lon="11.047247223425513" id="-15058">
		<tag k="name" v="Auretjerndalen" />
		<tag k="natural" v="valley" />
		<tag k="place" v="locality" />
		<tag k="ssr:stedsnr" v="84571" />
	</node>
	<node lat="59.93125277335163" lon="11.041322223731411" id="-15059">
		<tag k="amenity" v="school" />
		<tag k="name" v="Blystadlia skole" />
		<tag k="ssr:stedsnr" v="84572" />
	</node>
	<node lat="59.891891663796635" lon="11.098366675294573" id="-15060">
		<tag k="name" v="Søndre Hektner" />
		<tag k="place" v="farm" />
		<tag k="ssr:stedsnr" v="84682" />
	</node>
	<node lat="59.88394444320527" lon="11.028105560308378" id="-15061">
		<tag k="name" v="Vestre Huktjern" />
		<tag k="natural" v="water" />
		<tag k="ssr:stedsnr" v="84523" />
	</node>
	<node lat="59.876863889900626" lon="11.13636110991794" id="-15062">
		<tag k="name" v="Løkkadjupet" />
		<tag k="place" v="locality" />
		<tag k="ssr:stedsnr" v="84526" />
	</node>
	<node lat="59.90190277760645" lon="11.09445276902594" id="-15063">
		<tag k="name" v="Norum" />
		<tag k="place" v="farm" />
		<tag k="ssr:stedsnr" v="84757" />
	</node>
	<node lat="59.9151083359468" lon="11.082158330578833" id="-15064">
		<tag k="name" v="Nybakk" />
		<tag k="place" v="farm" />
		<tag k="ssr:stedsnr" v="84760" />
	</node>
	<node lat="59.91452777436764" lon="11.093261103476548" id="-15065">
		<tag k="name" v="Nedre Holt" />
		<tag k="place" v="farm" />
		<tag k="ssr:stedsnr" v="84761" />
	</node>
	<node lat="59.912202774632966" lon="11.091919441518433" id="-15066">
		<tag k="name" v="Øvre Holt" />
		<tag k="place" v="farm" />
		<tag k="ssr:stedsnr" v="84763" />
	</node>
	<node lat="59.91711388907068" lon="11.063452774492879" id="-15067">
		<tag k="name" v="Fjerdingbyhøgda" />
		<tag k="natural" v="hill" />
		<tag k="place" v="locality" />
		<tag k="ssr:stedsnr" v="84779" />
	</node>
	<node lat="59.93624444055113" lon="11.070852771326553" id="-15068">
		<tag k="name" v="Tangen" />
		<tag k="place" v="hamlet" />
		<tag k="ssr:stedsnr" v="85501" />
	</node>
	<node lat="59.86421944154938" lon="11.102933331597667" id="-15069">
		<tag k="name" v="Flaen" />
		<tag k="place" v="hamlet" />
		<tag k="ssr:stedsnr" v="85539" />
	</node>
	<node lat="59.860466662750476" lon="11.104433334603065" id="-15070">
		<tag k="name" v="Ner-Uller" />
		<tag k="place" v="farm" />
		<tag k="ssr:stedsnr" v="85545" />
	</node>
	<node lat="59.88906666818673" lon="11.045016666388927" id="-15071">
		<tag k="alt_name" v="Skurvåstjernet" />
		<tag k="name" v="Søndre Skurvåstjern" />
		<tag k="natural" v="water" />
		<tag k="ssr:stedsnr" v="125092" />
	</node>
	<node lat="59.89260059001877" lon="11.11591109842468" id="-15072">
		<tag k="fixme" v="consider place=hamlet" />
		<tag k="name" v="Årnes" />
		<tag k="place" v="farm" />
		<tag k="ssr:stedsnr" v="125659" />
	</node>
	<node lat="59.89284999813022" lon="11.135344442549677" id="-15073">
		<tag k="name" v="Storråka" />
		<tag k="natural" v="strait" />
		<tag k="ssr:stedsnr" v="125663" />
	</node>
	<node lat="59.83398333328292" lon="11.1055749926798" id="-15074">
		<tag k="name" v="Gjeddevann" />
		<tag k="natural" v="water" />
		<tag k="ssr:stedsnr" v="126712" />
	</node>
	<node lat="59.87099154130106" lon="11.146698271017488" id="-15075">
		<tag k="fixme" v="multiple name tags, choose one and add the other to alt_name" />
		<tag k="name" v="Rundsand;Møkkøya" />
		<tag k="place" v="islet" />
		<tag k="ssr:stedsnr" v="126670" />
	</node>
	<node lat="59.868452776912896" lon="11.050416666912989" id="-15076">
		<tag k="name" v="Mørkåshøgda" />
		<tag k="natural" v="hill" />
		<tag k="place" v="locality" />
		<tag k="ssr:stedsnr" v="144556" />
	</node>
	<node lat="59.89425833659835" lon="11.0257027822862" id="-15077">
		<tag k="fixme" v="consider natural=peak for the most distinct mountains in the district" />
		<tag k="name" v="Skolemesteråsen" />
		<tag k="natural" v="hill" />
		<tag k="place" v="locality" />
		<tag k="ssr:stedsnr" v="144557" />
	</node>
	<node lat="59.839697221016344" lon="11.035694436538078" id="-15078">
		<tag k="name" v="Nordre Høgkolltjern" />
		<tag k="natural" v="water" />
		<tag k="ssr:stedsnr" v="144567" />
	</node>
	<node lat="59.90203720411424" lon="11.035671257288096" id="-15079">
		<tag k="alt_name" v="Barlinderåsen" />
		<tag k="fixme" v="consider natural=peak for the most distinct mountains in the district" />
		<tag k="name" v="Barlindåsen" />
		<tag k="natural" v="hill" />
		<tag k="place" v="locality" />
		<tag k="ssr:stedsnr" v="144570" />
	</node>
	<node lat="59.88472500366019" lon="11.084347217061431" id="-15080">
		<tag k="name" v="Hansemyra" />
		<tag k="natural" v="wetland" />
		<tag k="ssr:stedsnr" v="144662" />
	</node>
	<node lat="59.88693889060483" lon="11.102966659225745" id="-15081">
		<tag k="alt_name" v="Tveiter Nordgarden" />
		<tag k="name" v="Nordgarden Tveiter" />
		<tag k="place" v="farm" />
		<tag k="ssr:stedsnr" v="144671" />
	</node>
	<node lat="59.88314166479826" lon="11.095580560506878" id="-15082">
		<tag k="name" v="Søstua Jaer" />
		<tag k="place" v="farm" />
		<tag k="ssr:stedsnr" v="144674" />
	</node>
	<node lat="59.878938885617295" lon="11.092011115903126" id="-15083">
		<tag k="alt_name" v="Grini Nordgarden" />
		<tag k="name" v="Nordgarden Grini" />
		<tag k="place" v="farm" />
		<tag k="ssr:stedsnr" v="144681" />
	</node>
	<node lat="59.87845833306667" lon="11.10963333491269" id="-15084">
		<tag k="name" v="Fetta" />
		<tag k="place" v="isolated_dwelling" />
		<tag k="ssr:stedsnr" v="144686" />
	</node>
	<node lat="59.840280556759325" lon="11.081477776163283" id="-15085">
		<tag k="fixme" v="consider natural=peak for the most distinct mountains in the district" />
		<tag k="name" v="Brasmetjernåsen" />
		<tag k="natural" v="hill" />
		<tag k="place" v="locality" />
		<tag k="ssr:stedsnr" v="144705" />
	</node>
	<node lat="59.852894442591854" lon="11.107836111196406" id="-15086">
		<tag k="name" v="Byåa" />
		<tag k="ssr:stedsnr" v="144706" />
		<tag k="waterway" v="stream" />
	</node>
	<node lat="59.86941666856786" lon="11.098158331305623" id="-15087">
		<tag k="name" v="Lindemark" />
		<tag k="place" v="isolated_dwelling" />
		<tag k="ssr:stedsnr" v="145619" />
	</node>
	<node lat="59.87319444739616" lon="11.073611113900023" id="-15088">
		<tag k="fixme" v="consider natural=peak for the most distinct mountains in the district" />
		<tag k="name" v="Gryteåsen" />
		<tag k="natural" v="hill" />
		<tag k="place" v="locality" />
		<tag k="ssr:stedsnr" v="145661" />
	</node>
	<node lat="59.9220638884541" lon="11.07125833478561" id="-15089">
		<tag k="name" v="Fjerdingby" />
		<tag k="place" v="quarter" />
		<tag k="ssr:stedsnr" v="146589" />
	</node>
	<node lat="59.92858333018089" lon="11.069961115656406" id="-15090">
		<tag k="bridge" v="yes" />
		<tag k="layer" v="1" />
		<tag k="name" v="Sundhagen" />
		<tag k="ssr:stedsnr" v="167029" />
	</node>
	<node lat="59.89208333111128" lon="11.083502772378411" id="-15091">
		<tag k="fixme" v="consider natural=peak for the most distinct mountains in the district" />
		<tag k="name" v="Sisselrudåsen" />
		<tag k="natural" v="hill" />
		<tag k="place" v="locality" />
		<tag k="ssr:stedsnr" v="186075" />
	</node>
	<node lat="59.86486111236148" lon="11.105113893641617" id="-15092">
		<tag k="name" v="Berget" />
		<tag k="place" v="isolated_dwelling" />
		<tag k="ssr:stedsnr" v="186726" />
	</node>
	<node lat="59.87109444790764" lon="11.03974999786649" id="-15093">
		<tag k="alt_name" v="Bjørtjerna, nedre" />
		<tag k="name" v="Nordre Bjørtjern" />
		<tag k="natural" v="water" />
		<tag k="ssr:stedsnr" v="187148" />
	</node>
	<node lat="59.88023889319669" lon="11.109608335583834" id="-15094">
		<tag k="alt_name" v="Mognavika" />
		<tag k="name" v="Mognevika" />
=======
		<tag k="ssr:stedsnr" v="186075" />
	</node>
	<node id="-255242" lat="59.9285833302" lon="11.0699611157">
		<tag k="bridge" v="yes" />
		<tag k="layer" v="1" />
		<tag k="name" v="Sundhagen" />
		<tag k="ssr:stedsnr" v="167029" />
	</node>
	<node id="-255241" lat="59.9220638885" lon="11.0712583348">
		<tag k="name" v="Fjerdingby" />
		<tag k="place" v="quarter" />
		<tag k="ssr:stedsnr" v="146589" />
	</node>
	<node id="-255240" lat="59.8694166686" lon="11.0981583313">
		<tag k="name" v="Lindemark" />
		<tag k="place" v="isolated_dwelling" />
		<tag k="ssr:stedsnr" v="145619" />
	</node>
	<node id="-255239" lat="59.9058388867" lon="11.1037444517">
		<tag k="name" v="Støa" />
		<tag k="place" v="farm" />
		<tag k="ssr:stedsnr" v="144748" />
	</node>
	<node id="-255238" lat="59.8528944426" lon="11.1078361112">
		<tag k="name" v="Byåa" />
		<tag k="ssr:stedsnr" v="144706" />
		<tag k="waterway" v="stream" />
	</node>
	<node id="-255237" lat="59.8402805568" lon="11.0814777762">
		<tag k="fixme" v="consider natural=peak for the most distinct mountains in the district" />
		<tag k="name" v="Brasmetjernåsen" />
		<tag k="natural" v="hill" />
		<tag k="place" v="locality" />
		<tag k="ssr:stedsnr" v="144705" />
	</node>
	<node id="-255236" lat="59.8784583331" lon="11.1096333349">
		<tag k="name" v="Fetta" />
		<tag k="place" v="isolated_dwelling" />
		<tag k="ssr:stedsnr" v="144686" />
	</node>
	<node id="-255235" lat="59.8789388856" lon="11.0920111159">
		<tag k="alt_name" v="Grini Nordgarden" />
		<tag k="name" v="Nordgarden Grini" />
		<tag k="place" v="farm" />
		<tag k="ssr:stedsnr" v="144681" />
	</node>
	<node id="-255234" lat="59.8831416648" lon="11.0955805605">
		<tag k="name" v="Søstua Jaer" />
		<tag k="place" v="farm" />
		<tag k="ssr:stedsnr" v="144674" />
	</node>
	<node id="-255233" lat="59.8869388906" lon="11.1029666592">
		<tag k="alt_name" v="Tveiter Nordgarden" />
		<tag k="name" v="Nordgarden Tveiter" />
		<tag k="place" v="farm" />
		<tag k="ssr:stedsnr" v="144671" />
	</node>
	<node id="-255232" lat="59.8847250037" lon="11.0843472171">
		<tag k="name" v="Hansemyra" />
		<tag k="natural" v="wetland" />
		<tag k="ssr:stedsnr" v="144662" />
	</node>
	<node id="-255231" lat="59.9067583311" lon="11.0487555611">
		<tag k="name" v="Purkeryggen" />
		<tag k="natural" v="ridge" />
		<tag k="place" v="locality" />
		<tag k="ssr:stedsnr" v="144578" />
	</node>
	<node id="-255230" lat="59.9020372041" lon="11.0356712573">
		<tag k="alt_name" v="Barlinderåsen" />
		<tag k="fixme" v="consider natural=peak for the most distinct mountains in the district" />
		<tag k="name" v="Barlindåsen" />
		<tag k="natural" v="hill" />
		<tag k="place" v="locality" />
		<tag k="ssr:stedsnr" v="144570" />
	</node>
	<node id="-255229" lat="59.839697221" lon="11.0356944365">
		<tag k="name" v="Nordre Høgkolltjern" />
		<tag k="natural" v="water" />
		<tag k="ssr:stedsnr" v="144567" />
	</node>
	<node id="-255228" lat="59.8942583366" lon="11.0257027823">
		<tag k="fixme" v="consider natural=peak for the most distinct mountains in the district" />
		<tag k="name" v="Skolemesteråsen" />
		<tag k="natural" v="hill" />
		<tag k="place" v="locality" />
		<tag k="ssr:stedsnr" v="144557" />
	</node>
	<node id="-255227" lat="59.8684527769" lon="11.0504166669">
		<tag k="name" v="Mørkåshøgda" />
		<tag k="natural" v="hill" />
		<tag k="place" v="locality" />
		<tag k="ssr:stedsnr" v="144556" />
	</node>
	<node id="-255226" lat="59.8339833333" lon="11.1055749927">
		<tag k="name" v="Gjeddevann" />
		<tag k="natural" v="water" />
		<tag k="ssr:stedsnr" v="126712" />
	</node>
	<node id="-255225" lat="59.8709915413" lon="11.146698271">
		<tag k="fixme" v="multiple name tags, choose one and add the other to alt_name" />
		<tag k="name" v="Møkkøya;Rundsand" />
		<tag k="place" v="islet" />
		<tag k="ssr:stedsnr" v="126670" />
	</node>
	<node id="-255224" lat="59.8847694438" lon="11.1049611136">
		<tag k="name" v="Tveiter" />
		<tag k="place" v="farm" />
		<tag k="ssr:stedsnr" v="126648" />
	</node>
	<node id="-255223" lat="59.9163027795" lon="11.0868500089">
		<tag k="name" v="Haugen" />
		<tag k="place" v="farm" />
		<tag k="ssr:stedsnr" v="126101" />
	</node>
	<node id="-255222" lat="59.9360445496" lon="11.0654680276">
		<tag k="fixme" v="consider place=hamlet" />
		<tag k="name" v="Åmot" />
		<tag k="place" v="farm" />
		<tag k="ssr:stedsnr" v="126060" />
	</node>
	<node id="-255221" lat="59.8928499981" lon="11.1353444425">
		<tag k="name" v="Storråka" />
		<tag k="natural" v="strait" />
		<tag k="ssr:stedsnr" v="125663" />
	</node>
	<node id="-255220" lat="59.8925000017" lon="11.115480564">
		<tag k="name" v="Årnes" />
		<tag k="place" v="farm" />
		<tag k="ssr:stedsnr" v="125659" />
	</node>
	<node id="-255219" lat="59.8997527763" lon="11.0931111051">
		<tag k="name" v="Slette" />
		<tag k="old_name" v="Stette" />
		<tag k="place" v="isolated_dwelling" />
		<tag k="ssr:stedsnr" v="125656" />
	</node>
	<node id="-255218" lat="59.8890666682" lon="11.0450166664">
		<tag k="alt_name" v="Skurvåstjernet" />
		<tag k="name" v="Søndre Skurvåstjern" />
		<tag k="natural" v="water" />
		<tag k="ssr:stedsnr" v="125092" />
	</node>
	<node id="-255217" lat="59.9270833352" lon="11.0770249921">
		<tag k="name" v="Lund" />
		<tag k="place" v="farm" />
		<tag k="ssr:stedsnr" v="125005" />
	</node>
	<node id="-255216" lat="59.8856472249" lon="11.0788638883">
		<tag k="alt_name" v="Lintjernet" />
		<tag k="name" v="Lintjenn" />
		<tag k="natural" v="water" />
		<tag k="ssr:stedsnr" v="102210" />
	</node>
	<node id="-255215" lat="59.9362444406" lon="11.0708527713">
		<tag k="name" v="Tangen" />
		<tag k="place" v="hamlet" />
		<tag k="ssr:stedsnr" v="85501" />
	</node>
	<node id="-255214" lat="59.9198527766" lon="11.0818555587">
		<tag k="name" v="Søgarden" />
		<tag k="place" v="farm" />
		<tag k="ssr:stedsnr" v="85492" />
	</node>
	<node id="-255213" lat="59.9237138895" lon="11.0689444522">
		<tag k="amenity" v="school" />
		<tag k="name" v="Fjerdingby skole" />
		<tag k="ssr:stedsnr" v="85491" />
	</node>
	<node id="-255212" lat="59.8604666628" lon="11.1044333346">
		<tag k="name" v="Ner-Uller" />
		<tag k="place" v="farm" />
		<tag k="ssr:stedsnr" v="85545" />
	</node>
	<node id="-255211" lat="59.8642194415" lon="11.1029333316">
		<tag k="name" v="Flaen" />
		<tag k="place" v="hamlet" />
		<tag k="ssr:stedsnr" v="85539" />
	</node>
	<node id="-255210" lat="59.857399996" lon="11.06555556">
		<tag k="name" v="Gamlesetermyra" />
		<tag k="natural" v="wetland" />
		<tag k="ssr:stedsnr" v="85533" />
	</node>
	<node id="-255209" lat="59.9319138875" lon="11.0793611033">
		<tag k="name" v="Sundet" />
		<tag k="natural" v="strait" />
		<tag k="ssr:stedsnr" v="85503" />
	</node>
	<node id="-255208" lat="59.8918916638" lon="11.0983666753">
		<tag k="name" v="Søndre Hektner" />
		<tag k="place" v="farm" />
		<tag k="ssr:stedsnr" v="84682" />
	</node>
	<node id="-255207" lat="59.9171138891" lon="11.0634527745">
		<tag k="name" v="Fjerdingbyhøgda" />
		<tag k="natural" v="hill" />
		<tag k="place" v="locality" />
		<tag k="ssr:stedsnr" v="84779" />
	</node>
	<node id="-255206" lat="59.9122027746" lon="11.0919194415">
		<tag k="name" v="Øvre Holt" />
		<tag k="place" v="farm" />
		<tag k="ssr:stedsnr" v="84763" />
	</node>
	<node id="-255205" lat="59.9037166656" lon="11.0408333301">
		<tag k="fixme" v="consider natural=peak for the most distinct mountains in the district" />
		<tag k="name" v="Ramstadslottet" />
		<tag k="natural" v="hill" />
		<tag k="place" v="locality" />
		<tag k="ssr:stedsnr" v="66071" />
	</node>
	<node id="-255204" lat="59.899786109" lon="11.0683750034">
		<tag k="name" v="Trestilen" />
		<tag k="natural" v="water" />
		<tag k="ssr:stedsnr" v="66068" />
	</node>
	<node id="-255203" lat="59.8754694433" lon="11.1039638858">
		<tag k="name" v="Nes" />
		<tag k="place" v="farm" />
		<tag k="ssr:stedsnr" v="65683" />
	</node>
	<node id="-255202" lat="59.8807027791" lon="11.0502583292">
		<tag k="name" v="Fiskelausen" />
		<tag k="natural" v="water" />
		<tag k="old_name" v="Fiskeløysa" />
		<tag k="ssr:stedsnr" v="65186" />
	</node>
	<node id="-255201" lat="59.8695111079" lon="11.066516669">
		<tag k="fixme" v="consider natural=peak for the most distinct mountains in the district" />
		<tag k="name" v="Velbråtaåsen" />
		<tag k="natural" v="hill" />
		<tag k="place" v="locality" />
		<tag k="ssr:stedsnr" v="24670" />
	</node>
	<node id="-255200" lat="59.9208861073" lon="11.0699805529">
		<tag k="name" v="Oladalen" />
		<tag k="natural" v="valley" />
		<tag k="place" v="locality" />
		<tag k="ssr:stedsnr" v="24586" />
	</node>
	<node id="-255199" lat="59.9246166651" lon="11.0853583294">
		<tag k="name" v="Engavika" />
		<tag k="natural" v="bay" />
		<tag k="ssr:stedsnr" v="24584" />
	</node>
	<node id="-255198" lat="59.9299055583" lon="11.0822805645">
		<tag k="name" v="Gressnebben" />
		<tag k="natural" v="cape" />
		<tag k="ssr:stedsnr" v="24582" />
	</node>
	<node id="-255197" lat="59.9224305522" lon="11.0778694409">
		<tag k="name" v="Nordgarden" />
		<tag k="place" v="farm" />
		<tag k="ssr:stedsnr" v="24579" />
	</node>
	<node id="-255196" lat="59.8946694473" lon="11.1140666606">
		<tag k="name" v="Buret" />
		<tag k="place" v="hamlet" />
		<tag k="ssr:stedsnr" v="23680" />
	</node>
	<node id="-255195" lat="59.9481944459" lon="11.0422194466">
		<tag k="name" v="Haugen" />
		<tag k="natural" v="hill" />
		<tag k="place" v="locality" />
		<tag k="ssr:stedsnr" v="23769" />
	</node>
	<node id="-255194" lat="59.9091000014" lon="11.099016675">
		<tag k="name" v="Oleberg" />
		<tag k="place" v="isolated_dwelling" />
		<tag k="ssr:stedsnr" v="23765" />
	</node>
	<node id="-255193" lat="59.9085527751" lon="11.0507222212">
		<tag k="loc_name" v="Røde Kors-hytta" />
		<tag k="name" v="Røde Kors hytta" />
		<tag k="place" v="isolated_dwelling" />
		<tag k="ssr:stedsnr" v="23458" />
	</node>
	<node id="-255192" lat="59.887544444" lon="11.0198166654">
		<tag k="name" v="Slåssmyrdalen" />
		<tag k="natural" v="valley" />
		<tag k="place" v="locality" />
		<tag k="ssr:stedsnr" v="23595" />
	</node>
	<node id="-255191" lat="59.9192805529" lon="11.0930666619">
		<tag k="alt_name" v="Hammeren" />
		<tag k="name" v="Hammaren" />
		<tag k="natural" v="cape" />
		<tag k="ssr:stedsnr" v="5584" />
	</node>
	<node id="-255190" lat="59.8354416671" lon="11.0973138928">
		<tag k="fixme" v="consider natural=peak for the most distinct mountains in the district" />
		<tag k="name" v="Sæteråsen" />
		<tag k="natural" v="hill" />
		<tag k="place" v="locality" />
		<tag k="ssr:stedsnr" v="5511" />
	</node>
	<node id="-255189" lat="59.8493972229" lon="11.0731750032">
		<tag k="name" v="Nordbysjøen" />
		<tag k="natural" v="water" />
		<tag k="ssr:stedsnr" v="5250" />
		<tag k="water" v="lake" />
	</node>
	<node id="-255188" lat="59.9331999975" lon="11.0419277843">
		<tag k="alt_name" v="Rælingåsen" />
		<tag k="fixme" v="consider natural=peak for the most distinct mountains in the district" />
		<tag k="name" v="Rælingsåsen" />
		<tag k="natural" v="hill" />
		<tag k="place" v="locality" />
		<tag k="ssr:stedsnr" v="4001" />
	</node>
	<node id="-255187" lat="59.9027831835" lon="11.0418645935">
		<tag k="fixme" v="consider boundary=protected_area and relevant protect_class if not nature reserve" />
		<tag k="leisure" v="nature_reserve" />
		<tag k="name" v="Ramstadslottet naturreservat" />
		<tag k="ssr:stedsnr" v="972730" />
	</node>
	<node id="-255186" lat="59.838205628" lon="11.0462353134">
		<tag k="fixme" v="consider boundary=protected_area and relevant protect_class if not nature reserve" />
		<tag k="leisure" v="nature_reserve" />
		<tag k="name" v="Østmarka naturreservat" />
		<tag k="ssr:stedsnr" v="972728" />
	</node>
	<node id="-255185" lat="59.9068305527" lon="11.0969083256">
		<tag k="name" v="Nordre Smestad" />
		<tag k="place" v="farm" />
		<tag k="ssr:stedsnr" v="934720" />
	</node>
	<node id="-255184" lat="59.9437083366" lon="11.0247611144">
		<tag k="name" v="Setersletta" />
		<tag k="place" v="locality" />
		<tag k="ssr:stedsnr" v="934709" />
	</node>
	<node id="-255183" lat="59.9312416656" lon="11.0378611136">
		<tag k="name" v="Blystadlia" />
		<tag k="place" v="quarter" />
		<tag k="ssr:stedsnr" v="934516" />
	</node>
	<node id="-255182" lat="59.8822249965" lon="11.0556166664">
		<tag k="name" v="Stabburdalen" />
		<tag k="natural" v="valley" />
		<tag k="place" v="locality" />
		<tag k="ssr:stedsnr" v="934503" />
	</node>
	<node id="-255181" lat="59.8900388877" lon="11.070261111">
		<tag k="name" v="Hesteberga" />
		<tag k="place" v="locality" />
		<tag k="ssr:stedsnr" v="934619" />
	</node>
	<node id="-255180" lat="59.8752472211" lon="11.1045916618">
		<tag k="name" v="Nordstua Nes" />
		<tag k="place" v="farm" />
		<tag k="ssr:stedsnr" v="934614" />
	</node>
	<node id="-255179" lat="59.8964250009" lon="11.0418999974">
		<tag k="name" v="Minketjern" />
		<tag k="natural" v="water" />
		<tag k="ssr:stedsnr" v="934429" />
	</node>
	<node id="-255178" lat="59.8803027803" lon="11.0592249915">
		<tag k="name" v="Stutauet" />
		<tag k="natural" v="water" />
		<tag k="ssr:stedsnr" v="934427" />
	</node>
	<node id="-255177" lat="59.8935805513" lon="11.101033333">
		<tag k="name" v="Hektner" />
		<tag k="place" v="farm" />
		<tag k="ssr:stedsnr" v="915628" />
	</node>
	<node id="-255176" lat="59.8505972247" lon="11.0385499983">
		<tag k="alt_name" v="Bjørntjernet" />
		<tag k="name" v="Småtjern" />
		<tag k="natural" v="water" />
		<tag k="ssr:stedsnr" v="915223" />
	</node>
	<node id="-255175" lat="59.9152111132" lon="11.0975194498">
		<tag k="name" v="Holtnebbet" />
		<tag k="natural" v="cape" />
		<tag k="ssr:stedsnr" v="873720" />
	</node>
	<node id="-255174" lat="59.9147666709" lon="11.0712527712">
		<tag k="fixme" v="consider natural=peak for the most distinct mountains in the district" />
		<tag k="name" v="Hansefellåsen" />
		<tag k="natural" v="hill" />
		<tag k="place" v="locality" />
		<tag k="ssr:stedsnr" v="873718" />
	</node>
	<node id="-255173" lat="59.8941388919" lon="11.0880861163">
		<tag k="name" v="Vestegardssletta" />
		<tag k="place" v="locality" />
		<tag k="ssr:stedsnr" v="873664" />
	</node>
	<node id="-255172" lat="59.8945138906" lon="11.1092472295">
		<tag k="name" v="Steinhølet" />
		<tag k="natural" v="valley" />
		<tag k="place" v="locality" />
		<tag k="ssr:stedsnr" v="873662" />
	</node>
	<node id="-255171" lat="59.8487055575" lon="11.0909749916">
		<tag k="name" v="Kattuldalen" />
		<tag k="natural" v="valley" />
		<tag k="place" v="locality" />
		<tag k="ssr:stedsnr" v="873659" />
	</node>
	<node id="-255170" lat="59.8833388893" lon="11.1008527848">
		<tag k="name" v="Jaersjordet" />
		<tag k="place" v="farm" />
		<tag k="ssr:stedsnr" v="873621" />
	</node>
	<node id="-255169" lat="59.8849833354" lon="11.105402776">
		<tag k="name" v="Nesøgarden" />
		<tag k="place" v="farm" />
		<tag k="ssr:stedsnr" v="873617" />
	</node>
	<node id="-255168" lat="59.8889722231" lon="11.0940722258">
		<tag k="name" v="Svarttjennbekken" />
		<tag k="ssr:stedsnr" v="873612" />
		<tag k="waterway" v="stream" />
	</node>
	<node id="-255167" lat="59.8821083301" lon="11.0706888942">
		<tag k="name" v="Fellemyra" />
		<tag k="natural" v="wetland" />
		<tag k="ssr:stedsnr" v="873610" />
	</node>
	<node id="-255166" lat="59.8445777753" lon="11.0487666578">
		<tag k="name" v="Vesle Grinderen" />
		<tag k="natural" v="water" />
		<tag k="ssr:stedsnr" v="873521" />
	</node>
	<node id="-255165" lat="59.8458361067" lon="11.0380194447">
		<tag k="name" v="Tappenbergvann" />
		<tag k="natural" v="water" />
		<tag k="ssr:stedsnr" v="855257" />
	</node>
	<node id="-255164" lat="59.9184555559" lon="11.0390027764">
		<tag k="alt_name" v="Bjørnåsen" />
		<tag k="fixme" v="consider natural=peak for the most distinct mountains in the district" />
		<tag k="name" v="Bjønnåsen" />
		<tag k="natural" v="hill" />
		<tag k="place" v="locality" />
		<tag k="ssr:stedsnr" v="854085" />
	</node>
	<node id="-255163" lat="59.8742805519" lon="11.0526055598">
		<tag k="fixme" v="consider natural=peak for the most distinct mountains in the district" />
		<tag k="name" v="Langmyråsen" />
		<tag k="natural" v="hill" />
		<tag k="place" v="locality" />
		<tag k="ssr:stedsnr" v="854175" />
	</node>
	<node id="-255162" lat="59.8730016241" lon="11.0586120914">
		<tag k="name" v="Merratjerna" />
		<tag k="natural" v="water" />
		<tag k="ssr:stedsnr" v="854113" />
		<tag k="water" v="lake" />
	</node>
	<node id="-255161" lat="59.945013889" lon="11.0543777711">
		<tag k="name" v="Tangerudvika" />
		<tag k="natural" v="bay" />
		<tag k="ssr:stedsnr" v="934685" />
	</node>
	<node id="-255160" lat="59.878477777" lon="11.0708694446">
		<tag k="fixme" v="consider natural=peak for the most distinct mountains in the district" />
		<tag k="name" v="Høgåsen" />
		<tag k="natural" v="hill" />
		<tag k="place" v="locality" />
		<tag k="ssr:stedsnr" v="934665" />
	</node>
	<node id="-255159" lat="59.86310278" lon="11.069283329">
		<tag k="name" v="Isdalen" />
		<tag k="natural" v="valley" />
		<tag k="place" v="locality" />
		<tag k="ssr:stedsnr" v="934635" />
	</node>
	<node id="-255158" lat="59.8730083317" lon="11.1040361146">
		<tag k="name" v="Nesvika" />
		<tag k="natural" v="bay" />
		<tag k="ssr:stedsnr" v="934568" />
	</node>
	<node id="-255157" lat="59.8585388866" lon="11.0702388824">
		<tag k="name" v="Isdalsvika" />
		<tag k="natural" v="bay" />
		<tag k="ssr:stedsnr" v="934565" />
	</node>
	<node id="-255156" lat="59.8853527794" lon="11.0252250059">
		<tag k="fixme" v="consider natural=peak for the most distinct mountains in the district" />
		<tag k="name" v="Hukåsen" />
		<tag k="natural" v="hill" />
		<tag k="place" v="locality" />
		<tag k="ssr:stedsnr" v="934479" />
	</node>
	<node id="-255155" lat="59.8654416701" lon="11.0349333341">
		<tag k="name" v="Jaertangene" />
		<tag k="natural" v="hill" />
		<tag k="place" v="locality" />
		<tag k="ssr:stedsnr" v="934476" />
	</node>
	<node id="-255154" lat="59.8390749973" lon="11.0334499962">
		<tag k="fixme" v="consider natural=peak for the most distinct mountains in the district" />
		<tag k="name" v="Ørnåsen" />
		<tag k="natural" v="hill" />
		<tag k="place" v="locality" />
		<tag k="ssr:stedsnr" v="934473" />
	</node>
	<node id="-255153" lat="59.8954055537" lon="11.0465472281">
		<tag k="name" v="Skauholtmyra" />
		<tag k="natural" v="wetland" />
		<tag k="ssr:stedsnr" v="934469" />
	</node>
	<node id="-255152" lat="59.8388861077" lon="11.0593416674">
		<tag k="historic" v="shieling" />
		<tag k="name" v="Tomtersetra" />
		<tag k="place" v="locality" />
		<tag k="ssr:stedsnr" v="934455" />
	</node>
	<node id="-255151" lat="59.916897224" lon="11.0445333324">
		<tag k="name" v="Merramyra" />
		<tag k="natural" v="wetland" />
		<tag k="ssr:stedsnr" v="934451" />
	</node>
	<node id="-255150" lat="59.9166666652" lon="11.0317472141">
		<tag k="name" v="Mortensmyra" />
		<tag k="natural" v="wetland" />
		<tag k="ssr:stedsnr" v="934449" />
	</node>
	<node id="-255149" lat="59.8726222263" lon="11.0572361115">
		<tag k="name" v="Søndre Merratjern" />
		<tag k="natural" v="water" />
		<tag k="ssr:stedsnr" v="934445" />
	</node>
	<node id="-255148" lat="59.8976555538" lon="11.0788638884">
		<tag k="alt_name" v="Svarttjern" />
		<tag k="name" v="Svarttjernet" />
		<tag k="natural" v="water" />
		<tag k="ssr:stedsnr" v="794056" />
	</node>
	<node id="-255147" lat="59.882537136" lon="11.0401249739">
		<tag k="name" v="Sætertjerna" />
		<tag k="natural" v="water" />
		<tag k="ssr:stedsnr" v="793178" />
		<tag k="water" v="lake" />
	</node>
	<node id="-255146" lat="59.8860520523" lon="11.1216463657">
		<tag k="name" v="Snekkervika" />
>>>>>>> e1d4bc35ff8a6074a6f2e91616a996b547c36f15
		<tag k="natural" v="bay" />
		<tag k="ssr:stedsnr" v="915631" />
	</node>
<<<<<<< HEAD
	<node lat="59.88397456698194" lon="11.096908178783705" id="-15095">
		<tag k="fixme" v="consider place=hamlet" />
		<tag k="name" v="Jar" />
		<tag k="place" v="farm" />
		<tag k="ssr:stedsnr" v="187628" />
	</node>
	<node lat="59.85807777390947" lon="11.052597217227431" id="-15096">
		<tag k="name" v="Nordre Nessetertjern" />
		<tag k="natural" v="water" />
		<tag k="ssr:stedsnr" v="205559" />
	</node>
	<node lat="59.849352778413966" lon="11.0560416606884" id="-15097">
		<tag k="name" v="Neslangmyra" />
		<tag k="natural" v="wetland" />
		<tag k="ssr:stedsnr" v="205568" />
	</node>
	<node lat="59.85492778050187" lon="11.066761103282486" id="-15098">
		<tag k="name" v="Sauemyra" />
		<tag k="natural" v="wetland" />
		<tag k="ssr:stedsnr" v="206583" />
	</node>
	<node lat="59.87009166900265" lon="11.096266666259735" id="-15099">
		<tag k="name" v="Dølahaugen" />
		<tag k="place" v="hamlet" />
		<tag k="ssr:stedsnr" v="206590" />
	</node>
	<node lat="59.923758332399196" lon="11.084850004532605" id="-15100">
		<tag k="name" v="Enga" />
		<tag k="place" v="isolated_dwelling" />
		<tag k="ssr:stedsnr" v="206548" />
	</node>
	<node lat="59.92554444480248" lon="11.060988887555943" id="-15101">
		<tag k="bridge" v="yes" />
		<tag k="layer" v="1" />
		<tag k="name" v="Marikollen" />
		<tag k="ssr:stedsnr" v="289024" />
	</node>
	<node lat="59.920855557223575" lon="11.04096111093505" id="-15102">
		<tag k="alt_name" v="Knollsmåsan" />
		<tag k="name" v="Knølsmåsan" />
		<tag k="natural" v="wetland" />
		<tag k="old_name" v="Knølsmosan" />
		<tag k="ssr:stedsnr" v="308090" />
	</node>
	<node lat="59.893958329670156" lon="11.120024991010949" id="-15103">
		<tag k="name" v="Årnestangen" />
		<tag k="natural" v="cape" />
		<tag k="ssr:stedsnr" v="308634" />
	</node>
	<node lat="59.85551666476864" lon="11.090636112825361" id="-15104">
		<tag k="name" v="Stumyra" />
		<tag k="natural" v="wetland" />
		<tag k="ssr:stedsnr" v="327589" />
	</node>
	<node lat="59.86422777682815" lon="11.104377773215493" id="-15105">
		<tag k="name" v="Fiskebygda" />
		<tag k="place" v="hamlet" />
		<tag k="ssr:stedsnr" v="327590" />
	</node>
	<node lat="59.94656944367664" lon="11.052588881052923" id="-15106">
		<tag k="name" v="Torva" />
		<tag k="natural" v="cape" />
		<tag k="ssr:stedsnr" v="327675" />
	</node>
	<node lat="59.832897222686405" lon="11.038913886445016" id="-15107">
		<tag k="alt_name" v="Søndre Krokvann" />
		<tag k="name" v="Søndre Krokvannet" />
		<tag k="natural" v="water" />
		<tag k="ssr:stedsnr" v="368328" />
	</node>
	<node lat="59.88544721971253" lon="11.099322214742777" id="-15108">
		<tag k="alt_name" v="Mogna" />
		<tag k="name" v="Ramstadbekken" />
		<tag k="ssr:stedsnr" v="368702" />
		<tag k="waterway" v="stream" />
	</node>
	<node lat="59.86548856698218" lon="11.056178823719836" id="-15109">
		<tag k="name" v="Mørkåstjerna" />
		<tag k="natural" v="water" />
		<tag k="ssr:stedsnr" v="369137" />
		<tag k="water" v="lake" />
	</node>
	<node lat="59.905983020362214" lon="11.096257881097616" id="-15110">
		<tag k="alt_name" v="Smedstad" />
		<tag k="fixme" v="consider place=hamlet" />
		<tag k="name" v="Smestad" />
		<tag k="place" v="farm" />
		<tag k="ssr:stedsnr" v="369561" />
	</node>
	<node lat="59.88432499867434" lon="11.030799996571629" id="-15111">
		<tag k="name" v="Østre Huktjern" />
		<tag k="natural" v="water" />
		<tag k="ssr:stedsnr" v="387538" />
	</node>
	<node lat="59.90398333044779" lon="11.041761116565128" id="-15112">
		<tag k="name" v="Slottsmåsan" />
		<tag k="natural" v="wetland" />
		<tag k="ssr:stedsnr" v="387540" />
	</node>
	<node lat="59.925847224813246" lon="11.046716664794797" id="-15113">
		<tag k="fixme" v="consider natural=peak for the most distinct mountains in the district" />
		<tag k="name" v="Brentås" />
		<tag k="natural" v="hill" />
		<tag k="place" v="locality" />
		<tag k="ssr:stedsnr" v="387585" />
	</node>
	<node lat="59.90632778091451" lon="11.0701333247589" id="-15114">
		<tag k="fixme" v="consider natural=peak for the most distinct mountains in the district" />
		<tag k="name" v="Høgåsen" />
		<tag k="natural" v="hill" />
		<tag k="place" v="locality" />
		<tag k="ssr:stedsnr" v="387760" />
	</node>
	<node lat="59.90325278139286" lon="11.091794444482032" id="-15115">
		<tag k="name" v="Fjell" />
		<tag k="place" v="hamlet" />
		<tag k="ssr:stedsnr" v="387733" />
	</node>
	<node lat="59.914880552849944" lon="11.081916664260273" id="-15116">
		<tag k="name" v="Haug" />
		<tag k="place" v="hamlet" />
		<tag k="ssr:stedsnr" v="387735" />
	</node>
	<node lat="59.94284444341882" lon="11.048411112405072" id="-15117">
		<tag k="name" v="Herredshus" />
		<tag k="place" v="locality" />
		<tag k="ssr:stedsnr" v="448753" />
	</node>
	<node lat="59.90992222051574" lon="11.092608338544753" id="-15118">
		<tag k="amenity" v="school" />
		<tag k="name" v="Holt skole" />
		<tag k="ssr:stedsnr" v="448763" />
	</node>
	<node lat="59.90022222634667" lon="11.08008333903432" id="-15119">
		<tag k="fixme" v="consider natural=peak for the most distinct mountains in the district" />
		<tag k="name" v="Nautåsen" />
		<tag k="natural" v="hill" />
		<tag k="place" v="locality" />
		<tag k="ssr:stedsnr" v="448795" />
	</node>
	<node lat="59.94689166886864" lon="11.047055553622286" id="-15121">
		<tag k="bridge" v="yes" />
		<tag k="layer" v="1" />
		<tag k="name" v="Rudveien" />
		<tag k="ssr:stedsnr" v="410025" />
	</node>
	<node lat="59.88371666720959" lon="11.131436113477834" id="-15122">
		<tag k="name" v="Rælingsøya" />
		<tag k="natural" v="cape" />
		<tag k="ssr:stedsnr" v="429627" />
	</node>
	<node lat="59.86253055646511" lon="11.107111102476582" id="-15123">
		<tag k="name" v="Ullervika" />
		<tag k="natural" v="bay" />
		<tag k="ssr:stedsnr" v="429693" />
	</node>
	<node lat="59.69713333525679" lon="11.230233341257843" id="-15124">
		<tag k="name" v="Øyeren" />
		<tag k="natural" v="water" />
		<tag k="ssr:stedsnr" v="428839" />
		<tag k="water" v="lake" />
	</node>
	<node lat="59.937558333131754" lon="11.027366670111345" id="-15125">
		<tag k="name" v="Løvenstad" />
		<tag k="place" v="quarter" />
		<tag k="ssr:stedsnr" v="429051" />
	</node>
	<node lat="59.879069441242436" lon="11.087969441669708" id="-15126">
		<tag k="name" v="Grinitajet" />
		<tag k="place" v="quarter" />
		<tag k="ssr:stedsnr" v="429167" />
	</node>
	<node lat="59.920833335434644" lon="11.083222215408904" id="-15127">
		<tag k="alt_name" v="Rælingen" />
		<tag k="amenity" v="place_of_worship" />
		<tag k="denomination" v="lutheran" />
		<tag k="name" v="Rælingen kirke" />
		<tag k="religion" v="christian" />
		<tag k="ssr:stedsnr" v="429094" />
	</node>
	<node lat="59.85109924827744" lon="11.110800050755051" id="-15128">
		<tag k="fixme" v="consider place=hamlet" />
		<tag k="name" v="Narvestad" />
		<tag k="place" v="farm" />
		<tag k="ssr:stedsnr" v="429719" />
	</node>
	<node lat="59.84872499657897" lon="11.035677774856234" id="-15129">
		<tag k="name" v="Falkehøgda" />
		<tag k="natural" v="hill" />
		<tag k="place" v="locality" />
		<tag k="ssr:stedsnr" v="430233" />
	</node>
	<node lat="59.88099722213503" lon="11.035508335419298" id="-15130">
		<tag k="name" v="Nedre Setertjern" />
		<tag k="natural" v="water" />
		<tag k="ssr:stedsnr" v="448537" />
	</node>
	<node lat="59.83918889020976" lon="11.028533341204556" id="-15131">
		<tag k="name" v="Borkedammen" />
		<tag k="natural" v="wetland" />
		<tag k="ssr:stedsnr" v="448552" />
	</node>
	<node lat="59.87232222037996" lon="11.046408342114095" id="-15132">
		<tag k="fixme" v="consider natural=peak for the most distinct mountains in the district" />
		<tag k="name" v="Regnåsen" />
		<tag k="natural" v="hill" />
		<tag k="place" v="locality" />
		<tag k="ssr:stedsnr" v="448562" />
	</node>
	<node lat="59.937819442607285" lon="11.05220833272544" id="-15133">
		<tag k="name" v="Øgardshøgda" />
		<tag k="place" v="quarter" />
		<tag k="ssr:stedsnr" v="448572" />
	</node>
	<node lat="59.9223972182116" lon="11.053802771210359" id="-15134">
		<tag k="alt_name" v="Marikollen" />
		<tag k="leisure" v="pitch" />
		<tag k="name" v="Marikollen skisenter" />
		<tag k="ssr:stedsnr" v="448601" />
	</node>
	<node lat="59.885169441381755" lon="11.067733335938549" id="-15135">
		<tag k="historic" v="shieling" />
		<tag k="name" v="Trollsetra" />
		<tag k="place" v="locality" />
		<tag k="ssr:stedsnr" v="448690" />
	</node>
	<node lat="59.891228540361865" lon="11.09630702697463" id="-15136">
		<tag k="fixme" v="consider place=hamlet" />
		<tag k="name" v="Vestegarden" />
		<tag k="place" v="farm" />
		<tag k="ssr:stedsnr" v="448699" />
	</node>
	<node lat="59.89956666397698" lon="11.10375278184428" id="-15137">
		<tag k="fixme" v="consider natural=peak for the most distinct mountains in the district" />
		<tag k="name" v="Trollåsen" />
		<tag k="natural" v="hill" />
		<tag k="place" v="locality" />
		<tag k="ssr:stedsnr" v="448779" />
	</node>
	<node lat="59.877233331815745" lon="11.055208329808986" id="-15138">
		<tag k="historic" v="shieling" />
		<tag k="name" v="Jaersetervangen" />
		<tag k="place" v="locality" />
		<tag k="ssr:stedsnr" v="509346" />
	</node>
	<node lat="59.85842500291968" lon="11.057241673453245" id="-15139">
		<tag k="name" v="Drøpla" />
		<tag k="natural" v="water" />
		<tag k="ssr:stedsnr" v="509447" />
	</node>
	<node lat="59.92124999665686" lon="11.036558329632198" id="-15140">
		<tag k="fixme" v="consider natural=peak for the most distinct mountains in the district" />
		<tag k="name" v="Buåsen" />
		<tag k="natural" v="hill" />
		<tag k="place" v="locality" />
		<tag k="ssr:stedsnr" v="509516" />
	</node>
	<node lat="59.93221944500517" lon="11.068955561821348" id="-15141">
		<tag k="amenity" v="community_centre" />
		<tag k="loc_name" v="Åmot grendehus" />
		<tag k="name" v="Aamodt grendehus" />
		<tag k="ssr:stedsnr" v="509543" />
	</node>
	<node lat="59.855877781251145" lon="11.068741666227993" id="-15142">
		<tag k="name" v="Bakhonkastet" />
		<tag k="natural" v="slope" />
		<tag k="place" v="locality" />
		<tag k="ssr:stedsnr" v="509629" />
	</node>
	<node lat="59.849911114610585" lon="11.075383332473308" id="-15143">
		<tag k="name" v="Tyrigrava" />
		<tag k="place" v="locality" />
		<tag k="ssr:stedsnr" v="509646" />
	</node>
	<node lat="59.847533332571004" lon="11.064280564331956" id="-15144">
		<tag k="name" v="Struten" />
		<tag k="natural" v="bay" />
		<tag k="ssr:stedsnr" v="509648" />
	</node>
	<node lat="59.8357305582804" lon="11.082958340602623" id="-15145">
		<tag k="name" v="Breimåsan" />
		<tag k="natural" v="wetland" />
		<tag k="ssr:stedsnr" v="509650" />
	</node>
	<node lat="59.8576138853003" lon="11.018563879796664" id="-15146">
		<tag k="fixme" v="consider natural=peak for the most distinct mountains in the district" />
		<tag k="name" v="Haraåsen" />
		<tag k="natural" v="hill" />
		<tag k="place" v="locality" />
		<tag k="ssr:stedsnr" v="509471" />
	</node>
	<node lat="59.838655551995195" lon="11.03804166850208" id="-15147">
		<tag k="name" v="Midtre Høgkolltjern" />
		<tag k="natural" v="water" />
		<tag k="ssr:stedsnr" v="509489" />
	</node>
	<node lat="59.889241670647934" lon="11.047475002664669" id="-15148">
		<tag k="fixme" v="consider natural=peak for the most distinct mountains in the district" />
		<tag k="name" v="Skurvåsen" />
		<tag k="natural" v="hill" />
		<tag k="place" v="locality" />
		<tag k="ssr:stedsnr" v="509493" />
	</node>
	<node lat="59.86329999795227" lon="11.082300006251767" id="-15149">
		<tag k="name" v="Sveltetangen" />
		<tag k="natural" v="cape" />
		<tag k="ssr:stedsnr" v="509579" />
	</node>
	<node lat="59.86884999790732" lon="11.10892222012986" id="-15150">
		<tag k="name" v="Nordbyleira" />
		<tag k="natural" v="shoal" />
		<tag k="ssr:stedsnr" v="509580" />
	</node>
	<node lat="59.86982500435142" lon="11.064219445343035" id="-15151">
		<tag k="historic" v="shieling" />
		<tag k="name" v="Grinisetervangen" />
		<tag k="place" v="locality" />
		<tag k="ssr:stedsnr" v="509584" />
	</node>
	<node lat="59.871397224577265" lon="11.094919438545915" id="-15152">
		<tag k="name" v="Nerhaugen" />
		<tag k="place" v="farm" />
		<tag k="ssr:stedsnr" v="509587" />
	</node>
	<node lat="59.904036108624524" lon="11.094024996875845" id="-15153">
		<tag k="name" v="Løvlia" />
		<tag k="place" v="hamlet" />
		<tag k="ssr:stedsnr" v="509699" />
	</node>
	<node lat="59.887341668362524" lon="11.047499994981171" id="-15154">
		<tag k="name" v="Hektnersetra" />
		<tag k="place" v="locality" />
		<tag k="ssr:stedsnr" v="550179" />
	</node>
	<node lat="59.88788093402922" lon="11.058413853670634" id="-15155">
		<tag k="name" v="Ramstadsjøen" />
		<tag k="natural" v="water" />
		<tag k="ssr:stedsnr" v="550181" />
		<tag k="water" v="lake" />
	</node>
	<node lat="59.89866944357329" lon="11.110536115991318" id="-15156">
		<tag k="name" v="Nordhagan" />
		<tag k="place" v="farm" />
		<tag k="ssr:stedsnr" v="550619" />
	</node>
	<node lat="59.865025916483674" lon="11.100013072574423" id="-15157">
		<tag k="alt_name" v="Tomta" />
		<tag k="fixme" v="consider place=hamlet" />
		<tag k="name" v="Tomter" />
		<tag k="place" v="farm" />
		<tag k="ssr:stedsnr" v="550687" />
	</node>
	<node lat="59.86812896621406" lon="11.094594520798871" id="-15158">
		<tag k="fixme" v="consider place=hamlet" />
		<tag k="name" v="Nordby" />
		<tag k="place" v="farm" />
		<tag k="ssr:stedsnr" v="550689" />
	</node>
	<node lat="59.89047500455114" lon="11.020749991897308" id="-15159">
		<tag k="name" v="Djupdalshytta" />
		<tag k="place" v="isolated_dwelling" />
		<tag k="ssr:stedsnr" v="551087" />
	</node>
	<node lat="59.909300000119636" lon="11.037230562207215" id="-15160">
		<tag k="historic" v="shieling" />
		<tag k="name" v="Fjerdingbyseter" />
		<tag k="place" v="locality" />
		<tag k="ssr:stedsnr" v="569378" />
	</node>
	<node lat="59.93663055839324" lon="11.027899999836" id="-15161">
		<tag k="amenity" v="school" />
		<tag k="name" v="Løvenstad skole" />
		<tag k="ssr:stedsnr" v="569551" />
	</node>
	<node lat="59.94076389229985" lon="11.017841665314558" id="-15162">
		<tag k="fixme" v="consider natural=peak for the most distinct mountains in the district" />
		<tag k="name" v="Bassengåsen" />
		<tag k="natural" v="hill" />
		<tag k="place" v="locality" />
		<tag k="ssr:stedsnr" v="569675" />
	</node>
	<node lat="59.852605558180834" lon="11.068244441791192" id="-15163">
		<tag k="name" v="Bjørnholmen" />
		<tag k="place" v="island" />
		<tag k="ssr:stedsnr" v="569682" />
	</node>
	<node lat="59.851577780180264" lon="11.080341658733573" id="-15164">
		<tag k="name" v="Korsveihøgdene" />
		<tag k="natural" v="ridge" />
		<tag k="place" v="locality" />
		<tag k="ssr:stedsnr" v="569684" />
	</node>
	<node lat="59.9197111147458" lon="11.075916669059128" id="-15165">
		<tag k="name" v="Kirkeby" />
		<tag k="place" v="isolated_dwelling" />
		<tag k="ssr:stedsnr" v="570521" />
	</node>
	<node lat="59.86068333276213" lon="11.086377772340505" id="-15166">
		<tag k="fixme" v="consider natural=peak for the most distinct mountains in the district" />
		<tag k="name" v="Splinteråsen" />
		<tag k="natural" v="hill" />
		<tag k="place" v="locality" />
		<tag k="ssr:stedsnr" v="570636" />
	</node>
	<node lat="59.85793889250479" lon="11.095055560823115" id="-15167">
		<tag k="name" v="Tomter" />
		<tag k="place" v="hamlet" />
		<tag k="ssr:stedsnr" v="570574" />
	</node>
	<node lat="59.932247226517774" lon="11.068038897462362" id="-15168">
		<tag k="bridge" v="yes" />
		<tag k="layer" v="1" />
		<tag k="name" v="Åmot" />
		<tag k="ssr:stedsnr" v="592028" />
	</node>
	<node lat="59.948316669850456" lon="11.024494452951902" id="-15169">
		<tag k="alt_name" v="Strøm, vestre" />
		<tag k="name" v="Vestre Strøm" />
		<tag k="place" v="farm" />
		<tag k="ssr:stedsnr" v="611046" />
	</node>
	<node lat="59.937622225857474" lon="11.0592249961437" id="-15170">
		<tag k="name" v="Øgården" />
		<tag k="place" v="isolated_dwelling" />
		<tag k="ssr:stedsnr" v="611063" />
	</node>
	<node lat="59.82888610802311" lon="11.091330551965576" id="-15171">
		<tag k="alt_name" v="Vestre Morttjern" />
		<tag k="name" v="Morttjernet" />
		<tag k="natural" v="water" />
		<tag k="ssr:stedsnr" v="611300" />
	</node>
	<node lat="59.86861666616341" lon="11.102369438883727" id="-15172">
		<tag k="building" v="industrial" />
		<tag k="industrial" v="factory" />
		<tag k="name" v="Nordby bruk" />
		<tag k="ssr:stedsnr" v="611700" />
	</node>
	<node lat="59.88324999586958" lon="11.039824998359729" id="-15173">
		<tag k="name" v="Midtre Setertjern" />
		<tag k="natural" v="water" />
		<tag k="ssr:stedsnr" v="630455" />
	</node>
	<node lat="59.83923611412557" lon="11.053269450950918" id="-15174">
		<tag k="historic" v="shieling" />
		<tag k="name" v="Nordbysetra" />
		<tag k="place" v="locality" />
		<tag k="ssr:stedsnr" v="630462" />
	</node>
	<node lat="59.88463333771472" lon="11.05990000828694" id="-15175">
		<tag k="name" v="Den hvite måsan" />
		<tag k="natural" v="wetland" />
		<tag k="ssr:stedsnr" v="630470" />
	</node>
	<node lat="59.86638610791529" lon="11.06914443562009" id="-15176">
		<tag k="name" v="Vangmyra" />
		<tag k="natural" v="wetland" />
		<tag k="ssr:stedsnr" v="630565" />
	</node>
	<node lat="59.8350027773296" lon="11.067800000516884" id="-15177">
		<tag k="name" v="Otertjernmyra" />
		<tag k="natural" v="wetland" />
		<tag k="ssr:stedsnr" v="630631" />
	</node>
	<node lat="59.89370000152353" lon="11.035822221678915" id="-15178">
		<tag k="name" v="Djupdalsmyra" />
		<tag k="natural" v="wetland" />
		<tag k="ssr:stedsnr" v="732095" />
	</node>
	<node lat="59.90941944494017" lon="11.065050005960066" id="-15179">
		<tag k="fixme" v="multiple name tags, choose one and add the other to alt_name" />
		<tag k="name" v="Holtbreimåsan;Breidmåsan" />
		<tag k="natural" v="wetland" />
		<tag k="old_name" v="Breidmosan" />
		<tag k="ssr:stedsnr" v="733135" />
	</node>
	<node lat="59.89882500380421" lon="11.100022225639394" id="-15180">
		<tag k="name" v="Hagan" />
		<tag k="place" v="farm" />
		<tag k="ssr:stedsnr" v="732663" />
	</node>
	<node lat="59.939547226748765" lon="11.038099996294303" id="-15181">
		<tag k="name" v="Stormyra" />
		<tag k="natural" v="wetland" />
		<tag k="ssr:stedsnr" v="733068" />
	</node>
	<node lat="59.857313887251024" lon="11.03236388355899" id="-15182">
		<tag k="fixme" v="consider natural=peak for the most distinct mountains in the district" />
		<tag k="name" v="Bjørntjernåsen" />
		<tag k="natural" v="hill" />
		<tag k="place" v="locality" />
		<tag k="ssr:stedsnr" v="733209" />
	</node>
	<node lat="59.85585278208084" lon="11.051900008362818" id="-15183">
		<tag k="fixme" v="multiple name tags, choose one and add the other to alt_name" />
		<tag k="name" v="Søndre Nessetertjern;Setertjernet" />
		<tag k="natural" v="water" />
		<tag k="ssr:stedsnr" v="733211" />
	</node>
	<node lat="59.85985277760373" lon="11.08488054842597" id="-15184">
		<tag k="alt_name" v="Lintjern" />
		<tag k="name" v="Lintjernet" />
		<tag k="natural" v="water" />
		<tag k="ssr:stedsnr" v="733212" />
	</node>
	<node lat="59.83622222136404" lon="11.046994437518661" id="-15185">
		<tag k="name" v="Stingsildtjern" />
		<tag k="natural" v="water" />
		<tag k="ssr:stedsnr" v="751523" />
	</node>
	<node lat="59.866763889680676" lon="11.05485556195469" id="-15186">
		<tag k="name" v="Nordre Mørkåstjern" />
		<tag k="natural" v="water" />
		<tag k="ssr:stedsnr" v="751526" />
	</node>
	<node lat="59.87579444717348" lon="11.051205560229091" id="-15187">
		<tag k="name" v="Jaerlangmyra" />
		<tag k="natural" v="wetland" />
		<tag k="ssr:stedsnr" v="751534" />
	</node>
	<node lat="59.87618055176648" lon="11.092263897158631" id="-15188">
		<tag k="alt_name" v="Grini Søgarden" />
		<tag k="name" v="Søgarden Grini" />
		<tag k="place" v="farm" />
		<tag k="ssr:stedsnr" v="751685" />
	</node>
	<node lat="59.94364444588755" lon="11.029855552733304" id="-15189">
		<tag k="name" v="Furukollen" />
		<tag k="natural" v="hill" />
		<tag k="place" v="locality" />
		<tag k="ssr:stedsnr" v="751772" />
	</node>
	<node lat="59.91396666222759" lon="11.08405278239444" id="-15190">
		<tag k="name" v="Sørlibekken" />
		<tag k="ssr:stedsnr" v="751788" />
		<tag k="waterway" v="stream" />
	</node>
	<node lat="59.937038893188216" lon="11.064891667431446" id="-15191">
		<tag k="name" v="Nedre Åmot" />
		<tag k="place" v="farm" />
		<tag k="ssr:stedsnr" v="752550" />
	</node>
	<node lat="59.86435278023702" lon="11.071994449727482" id="-15192">
		<tag k="name" v="Fremste Isdalshøgda" />
		<tag k="natural" v="hill" />
		<tag k="place" v="locality" />
		<tag k="ssr:stedsnr" v="752634" />
	</node>
	<node lat="59.92591354019645" lon="11.07047283912753" id="-15193">
		<tag k="fixme" v="consider place=hamlet" />
		<tag k="name" v="Bjørnholt" />
		<tag k="place" v="farm" />
		<tag k="ssr:stedsnr" v="793002" />
	</node>
	<node lat="59.91903055912972" lon="11.02715556121246" id="-15194">
		<tag k="name" v="Åmotdammen" />
		<tag k="natural" v="water" />
		<tag k="ssr:stedsnr" v="793100" />
		<tag k="water" v="lake" />
	</node>
	<node lat="59.88253713604254" lon="11.04012497391217" id="-15195">
		<tag k="name" v="Sætertjerna" />
		<tag k="natural" v="water" />
		<tag k="ssr:stedsnr" v="793178" />
		<tag k="water" v="lake" />
	</node>
	<node lat="59.87618333155907" lon="11.027155556422105" id="-15196">
		<tag k="alt_name" v="Opptjern" />
		<tag k="name" v="Opptjernet" />
		<tag k="natural" v="water" />
		<tag k="ssr:stedsnr" v="793193" />
	</node>
	<node lat="59.85565499504574" lon="11.107044606919612" id="-15197">
		<tag k="fixme" v="consider place=hamlet" />
		<tag k="name" v="By" />
		<tag k="place" v="farm" />
		<tag k="ssr:stedsnr" v="793741" />
	</node>
	<node lat="59.89765555383733" lon="11.07886388835691" id="-15198">
		<tag k="alt_name" v="Svarttjern" />
		<tag k="name" v="Svarttjernet" />
		<tag k="natural" v="water" />
		<tag k="ssr:stedsnr" v="794056" />
	</node>
	<node lat="59.841816664149306" lon="11.139697215271084" id="-15199">
		<tag k="name" v="Sofiedal" />
		<tag k="place" v="isolated_dwelling" />
		<tag k="ssr:stedsnr" v="794747" />
	</node>
	<node lat="59.933575466871794" lon="11.029829479808942" id="-15200">
		<tag k="alt_name" v="Sandbekken ungd. skole" />
		<tag k="amenity" v="school" />
		<tag k="name" v="Sandbekken ungdomsskole" />
		<tag k="ssr:stedsnr" v="812585" />
	</node>
	<node lat="59.928802778946945" lon="11.04462777317537" id="-15201">
		<tag k="name" v="Åshøgda" />
		<tag k="natural" v="hill" />
		<tag k="place" v="locality" />
		<tag k="ssr:stedsnr" v="812593" />
	</node>
	<node lat="59.92388055517436" lon="11.058891672125357" id="-15202">
		<tag k="leisure" v="pitch" />
		<tag k="name" v="Rælingen stadion" />
		<tag k="ssr:stedsnr" v="812598" />
	</node>
	<node lat="59.87770278170111" lon="11.108247225385165" id="-15203">
		<tag k="name" v="Fettavika" />
		<tag k="natural" v="bay" />
		<tag k="ssr:stedsnr" v="812722" />
	</node>
	<node lat="59.88430277488498" lon="11.090530561582545" id="-15204">
		<tag k="fixme" v="consider natural=peak for the most distinct mountains in the district" />
		<tag k="name" v="Tveiteråsen" />
		<tag k="natural" v="hill" />
		<tag k="place" v="locality" />
		<tag k="ssr:stedsnr" v="812724" />
	</node>
	<node lat="59.90430833296865" lon="11.09046944005086" id="-15205">
		<tag k="name" v="Skoglund" />
		<tag k="place" v="farm" />
		<tag k="ssr:stedsnr" v="812756" />
	</node>
	<node lat="59.914244447080954" lon="11.086338893790158" id="-15206">
		<tag k="name" v="Holthagan" />
		<tag k="place" v="locality" />
		<tag k="ssr:stedsnr" v="812758" />
	</node>
	<node lat="59.91243888899292" lon="11.090244444495823" id="-15207">
		<tag k="name" v="Vestby" />
		<tag k="place" v="hamlet" />
		<tag k="ssr:stedsnr" v="812766" />
	</node>
	<node lat="59.899019444903814" lon="11.106400002379075" id="-15208">
		<tag k="name" v="Skogholthagan" />
		<tag k="place" v="locality" />
		<tag k="ssr:stedsnr" v="812774" />
	</node>
	<node lat="59.90486944601093" lon="11.07002777116891" id="-15209">
		<tag k="name" v="Høgåsdammen" />
		<tag k="natural" v="wetland" />
		<tag k="ssr:stedsnr" v="812776" />
	</node>
	<node lat="59.87046388633636" lon="11.083588893036474" id="-15211">
		<tag k="name" v="Oppvestby" />
		<tag k="place" v="hamlet" />
		<tag k="ssr:stedsnr" v="813596" />
	</node>
	<node lat="59.918455555907215" lon="11.039002776397789" id="-15212">
		<tag k="alt_name" v="Bjørnåsen" />
		<tag k="fixme" v="consider natural=peak for the most distinct mountains in the district" />
		<tag k="name" v="Bjønnåsen" />
		<tag k="natural" v="hill" />
		<tag k="place" v="locality" />
		<tag k="ssr:stedsnr" v="854085" />
	</node>
	<node lat="59.87428055194633" lon="11.052605559775904" id="-15213">
		<tag k="fixme" v="consider natural=peak for the most distinct mountains in the district" />
		<tag k="name" v="Langmyråsen" />
		<tag k="natural" v="hill" />
		<tag k="place" v="locality" />
		<tag k="ssr:stedsnr" v="854175" />
	</node>
	<node lat="59.84583610674483" lon="11.038019444713145" id="-15214">
		<tag k="name" v="Tappenbergvann" />
		<tag k="natural" v="water" />
		<tag k="ssr:stedsnr" v="855257" />
	</node>
	<node lat="59.914766670855514" lon="11.071252771247496" id="-15215">
		<tag k="fixme" v="consider natural=peak for the most distinct mountains in the district" />
		<tag k="name" v="Hansefellåsen" />
		<tag k="natural" v="hill" />
		<tag k="place" v="locality" />
		<tag k="ssr:stedsnr" v="873718" />
	</node>
	<node lat="59.9152111131746" lon="11.097519449765102" id="-15216">
		<tag k="name" v="Holtnebbet" />
		<tag k="natural" v="cape" />
		<tag k="ssr:stedsnr" v="873720" />
	</node>
	<node lat="59.89183889241821" lon="11.126655560223698" id="-15217">
		<tag k="name" v="Storfloa" />
		<tag k="place" v="locality" />
		<tag k="ssr:stedsnr" v="873497" />
	</node>
	<node lat="59.87789166963769" lon="11.042391665082421" id="-15218">
		<tag k="name" v="Romperud" />
		<tag k="place" v="locality" />
		<tag k="ssr:stedsnr" v="873390" />
	</node>
	<node lat="59.884480553978605" lon="11.043458328886464" id="-15219">
		<tag k="name" v="Øvre Setertjern" />
		<tag k="natural" v="water" />
		<tag k="ssr:stedsnr" v="873479" />
	</node>
	<node lat="59.89469444038268" lon="11.11988610705014" id="-15220">
		<tag k="name" v="Skogholtsåa" />
		<tag k="ssr:stedsnr" v="873482" />
		<tag k="waterway" v="river" />
	</node>
	<node lat="59.87000000219158" lon="11.046347215090229" id="-15221">
		<tag k="name" v="Holoa" />
		<tag k="place" v="locality" />
		<tag k="ssr:stedsnr" v="873495" />
	</node>
	<node lat="59.84457777534861" lon="11.048766657789486" id="-15222">
		<tag k="name" v="Vesle Grinderen" />
		<tag k="natural" v="water" />
		<tag k="ssr:stedsnr" v="873521" />
	</node>
	<node lat="59.84870555753017" lon="11.090974991550548" id="-15223">
		<tag k="name" v="Kattuldalen" />
		<tag k="natural" v="valley" />
		<tag k="place" v="locality" />
		<tag k="ssr:stedsnr" v="873659" />
	</node>
	<node lat="59.89451389055407" lon="11.109247229450403" id="-15224">
		<tag k="name" v="Steinhølet" />
		<tag k="natural" v="valley" />
		<tag k="place" v="locality" />
		<tag k="ssr:stedsnr" v="873662" />
	</node>
	<node lat="59.89413889190941" lon="11.088086116259696" id="-15225">
		<tag k="name" v="Vestegardssletta" />
		<tag k="place" v="locality" />
		<tag k="ssr:stedsnr" v="873664" />
	</node>
	<node lat="59.88210833009858" lon="11.070688894243656" id="-15226">
		<tag k="name" v="Fellemyra" />
		<tag k="natural" v="wetland" />
		<tag k="ssr:stedsnr" v="873610" />
	</node>
	<node lat="59.88897222310337" lon="11.094072225757166" id="-15227">
		<tag k="name" v="Svarttjennbekken" />
		<tag k="ssr:stedsnr" v="873612" />
		<tag k="waterway" v="stream" />
	</node>
	<node lat="59.88498333541058" lon="11.10540277599657" id="-15228">
		<tag k="name" v="Nesøgarden" />
		<tag k="place" v="farm" />
		<tag k="ssr:stedsnr" v="873617" />
	</node>
	<node lat="59.88333888930451" lon="11.100852784766223" id="-15229">
		<tag k="name" v="Jaersjordet" />
		<tag k="place" v="farm" />
		<tag k="ssr:stedsnr" v="873621" />
	</node>
	<node lat="59.84143333660095" lon="11.069213884776651" id="-15230">
		<tag k="name" v="Festningsdalen" />
		<tag k="natural" v="valley" />
		<tag k="place" v="locality" />
		<tag k="ssr:stedsnr" v="873652" />
	</node>
	<node lat="59.92599166311622" lon="11.063777771508766" id="-15231">
		<tag k="name" v="Bjørnholthagan" />
		<tag k="natural" v="hill" />
		<tag k="place" v="locality" />
		<tag k="ssr:stedsnr" v="874589" />
	</node>
	<node lat="59.859111109329355" lon="11.093147223300088" id="-15232">
		<tag k="name" v="Løkka" />
		<tag k="place" v="hamlet" />
		<tag k="ssr:stedsnr" v="874629" />
	</node>
	<node lat="59.86231666276687" lon="11.103533325148637" id="-15233">
		<tag k="name" v="Østby" />
		<tag k="place" v="isolated_dwelling" />
		<tag k="ssr:stedsnr" v="874636" />
	</node>
	<node lat="59.862591668504066" lon="11.066008340583611" id="-15234">
		<tag k="name" v="Indre Isdalshøgda" />
		<tag k="natural" v="hill" />
		<tag k="place" v="locality" />
		<tag k="ssr:stedsnr" v="874684" />
	</node>
	<node lat="59.878563889084184" lon="11.083477771640663" id="-15235">
		<tag k="name" v="Grinibråtan" />
		<tag k="place" v="locality" />
		<tag k="ssr:stedsnr" v="874685" />
=======
	<node id="-255145" lat="59.8587944445" lon="11.0248361126">
		<tag k="alt_name" v="Murterudvannet" />
		<tag k="name" v="Morterudvann" />
		<tag k="natural" v="water" />
		<tag k="old_name" v="Morterudvatn" />
		<tag k="ssr:stedsnr" v="915200" />
	</node>
	<node id="-255144" lat="59.8606472241" lon="11.0185305585">
		<tag k="name" v="Morterudkoia" />
		<tag k="place" v="isolated_dwelling" />
		<tag k="ssr:stedsnr" v="915198" />
	</node>
	<node id="-255143" lat="59.8616361133" lon="11.0346083301">
		<tag k="alt_name" v="Vestre Bjørntjern" />
		<tag k="name" v="Bjørnholttjernet" />
		<tag k="natural" v="water" />
		<tag k="ssr:stedsnr" v="915143" />
	</node>
	<node id="-255142" lat="59.8757944472" lon="11.0512055602">
		<tag k="name" v="Jaerlangmyra" />
		<tag k="natural" v="wetland" />
		<tag k="ssr:stedsnr" v="751534" />
	</node>
	<node id="-255141" lat="59.8667638897" lon="11.054855562">
		<tag k="name" v="Nordre Mørkåstjern" />
		<tag k="natural" v="water" />
		<tag k="ssr:stedsnr" v="751526" />
	</node>
	<node id="-255140" lat="59.8362222214" lon="11.0469944375">
		<tag k="name" v="Stingsildtjern" />
		<tag k="natural" v="water" />
		<tag k="ssr:stedsnr" v="751523" />
	</node>
	<node id="-255139" lat="59.8598527776" lon="11.0848805484">
		<tag k="alt_name" v="Lintjern" />
		<tag k="name" v="Lintjernet" />
		<tag k="natural" v="water" />
		<tag k="ssr:stedsnr" v="733212" />
	</node>
	<node id="-255138" lat="59.8558527821" lon="11.0519000084">
		<tag k="fixme" v="multiple name tags, choose one and add the other to alt_name" />
		<tag k="name" v="Setertjernet;Søndre Nessetertjern" />
		<tag k="natural" v="water" />
		<tag k="ssr:stedsnr" v="733211" />
	</node>
	<node id="-255137" lat="59.8573138873" lon="11.0323638836">
		<tag k="fixme" v="consider natural=peak for the most distinct mountains in the district" />
		<tag k="name" v="Bjørntjernåsen" />
		<tag k="natural" v="hill" />
		<tag k="place" v="locality" />
		<tag k="ssr:stedsnr" v="733209" />
	</node>
	<node id="-255136" lat="59.9094194449" lon="11.065050006">
		<tag k="fixme" v="multiple name tags, choose one and add the other to alt_name" />
		<tag k="name" v="Holtbreimåsan;Breidmåsan" />
		<tag k="natural" v="wetland" />
		<tag k="old_name" v="Breidmosan" />
		<tag k="ssr:stedsnr" v="733135" />
	</node>
	<node id="-255135" lat="59.9219388857" lon="11.0775999949">
		<tag k="name" v="Fjerdingby" />
		<tag k="place" v="farm" />
		<tag k="ssr:stedsnr" v="733122" />
	</node>
	<node id="-255134" lat="59.862086111" lon="11.0945138945">
		<tag k="bridge" v="yes" />
		<tag k="layer" v="1" />
		<tag k="name" v="Fjellstad" />
		<tag k="ssr:stedsnr" v="896024" />
	</node>
	<node id="-255133" lat="59.8533805549" lon="11.1010555623">
		<tag k="bridge" v="yes" />
		<tag k="layer" v="1" />
		<tag k="name" v="By" />
		<tag k="ssr:stedsnr" v="713026" />
	</node>
	<node id="-255132" lat="59.921302774" lon="11.0798861065">
		<tag k="name" v="Tajet" />
		<tag k="place" v="farm" />
		<tag k="ssr:stedsnr" v="692560" />
	</node>
	<node id="-255131" lat="59.8747833347" lon="11.0853777775">
		<tag k="amenity" v="community_centre" />
		<tag k="name" v="Åsvang samfunnshus" />
		<tag k="ssr:stedsnr" v="692607" />
	</node>
	<node id="-255130" lat="59.9046388872" lon="11.1230694388">
		<tag k="alt_name" v="Rusholet" />
		<tag k="name" v="Rudsholet" />
		<tag k="natural" v="strait" />
		<tag k="ssr:stedsnr" v="733580" />
	</node>
	<node id="-255129" lat="59.9395472267" lon="11.0380999963">
		<tag k="name" v="Stormyra" />
		<tag k="natural" v="wetland" />
		<tag k="ssr:stedsnr" v="733068" />
	</node>
	<node id="-255128" lat="59.8988250038" lon="11.1000222256">
		<tag k="name" v="Hagan" />
		<tag k="place" v="farm" />
		<tag k="ssr:stedsnr" v="732663" />
	</node>
	<node id="-255127" lat="59.8937000015" lon="11.0358222217">
		<tag k="name" v="Djupdalsmyra" />
		<tag k="natural" v="wetland" />
		<tag k="ssr:stedsnr" v="732095" />
	</node>
	<node id="-255126" lat="59.8392361141" lon="11.053269451">
		<tag k="historic" v="shieling" />
		<tag k="name" v="Nordbysetra" />
		<tag k="place" v="locality" />
		<tag k="ssr:stedsnr" v="630462" />
	</node>
	<node id="-255125" lat="59.8832499959" lon="11.0398249984">
		<tag k="name" v="Midtre Setertjern" />
		<tag k="natural" v="water" />
		<tag k="ssr:stedsnr" v="630455" />
	</node>
	<node id="-255124" lat="59.8663861079" lon="11.0691444356">
		<tag k="name" v="Vangmyra" />
		<tag k="natural" v="wetland" />
		<tag k="ssr:stedsnr" v="630565" />
	</node>
	<node id="-255123" lat="59.9322472265" lon="11.0680388975">
		<tag k="bridge" v="yes" />
		<tag k="layer" v="1" />
		<tag k="name" v="Åmot" />
		<tag k="ssr:stedsnr" v="592028" />
	</node>
	<node id="-255122" lat="59.9139666622" lon="11.0840527824">
		<tag k="name" v="Sørlibekken" />
		<tag k="ssr:stedsnr" v="751788" />
		<tag k="waterway" v="stream" />
	</node>
	<node id="-255121" lat="59.9197111147" lon="11.0759166691">
		<tag k="name" v="Kirkeby" />
		<tag k="place" v="isolated_dwelling" />
		<tag k="ssr:stedsnr" v="570521" />
	</node>
	<node id="-255120" lat="59.8734611077" lon="11.0840750043">
		<tag k="building" v="commercial" />
		<tag k="name" v="Skjønberg landhandleri" />
		<tag k="ssr:stedsnr" v="692608" />
	</node>
	<node id="-255119" lat="59.9069527759" lon="11.061650001">
		<tag k="fixme" v="consider natural=peak for the most distinct mountains in the district" />
		<tag k="name" v="Langmyråsen" />
		<tag k="natural" v="hill" />
		<tag k="place" v="locality" />
		<tag k="ssr:stedsnr" v="691735" />
	</node>
	<node id="-255118" lat="59.9052055527" lon="11.0978055589">
		<tag k="name" v="Søndre Smestad" />
		<tag k="place" v="farm" />
		<tag k="ssr:stedsnr" v="691730" />
	</node>
	<node id="-255117" lat="59.912283333" lon="11.0812777806">
		<tag k="name" v="Sørli" />
		<tag k="place" v="farm" />
		<tag k="ssr:stedsnr" v="691724" />
	</node>
	<node id="-255116" lat="59.9419500034" lon="11.059197228">
		<tag k="name" v="Berg" />
		<tag k="place" v="hamlet" />
		<tag k="ssr:stedsnr" v="691697" />
	</node>
	<node id="-255115" lat="59.8527749997" lon="11.0715694439">
		<tag k="name" v="Geitungholmen" />
		<tag k="place" v="island" />
		<tag k="ssr:stedsnr" v="691681" />
	</node>
	<node id="-255114" lat="59.8769750027" lon="11.0906249919">
		<tag k="name" v="Oppistua" />
		<tag k="place" v="farm" />
		<tag k="ssr:stedsnr" v="691644" />
	</node>
	<node id="-255113" lat="59.9218000004" lon="11.0738166606">
		<tag k="junction" v="yes" />
		<tag k="name" v="Fjerdingby" />
		<tag k="place" v="locality" />
		<tag k="ssr:stedsnr" v="691587" />
	</node>
	<node id="-255112" lat="59.8938388874" lon="11.0211194491">
		<tag k="name" v="Isdalen" />
		<tag k="natural" v="valley" />
		<tag k="place" v="locality" />
		<tag k="ssr:stedsnr" v="691538" />
	</node>
	<node id="-255111" lat="59.9019611078" lon="11.0253694472">
		<tag k="fixme" v="consider natural=peak for the most distinct mountains in the district" />
		<tag k="name" v="Skolemesteren" />
		<tag k="natural" v="hill" />
		<tag k="place" v="locality" />
		<tag k="ssr:stedsnr" v="691531" />
	</node>
	<node id="-255110" lat="59.8671277766" lon="11.0593638904">
		<tag k="name" v="Lauvbråtemyra" />
		<tag k="natural" v="wetland" />
		<tag k="ssr:stedsnr" v="691503" />
	</node>
	<node id="-255109" lat="59.8452194445" lon="11.0562472192">
		<tag k="name" v="Paraplymyra" />
		<tag k="natural" v="wetland" />
		<tag k="ssr:stedsnr" v="691500" />
	</node>
	<node id="-255108" lat="59.8907666711" lon="11.0423527806">
		<tag k="name" v="Nordre Skurvåstjern" />
		<tag k="natural" v="water" />
		<tag k="ssr:stedsnr" v="691481" />
	</node>
	<node id="-255107" lat="59.8978583303" lon="11.0510305625">
		<tag k="historic" v="shieling" />
		<tag k="name" v="Skovholtseter" />
		<tag k="place" v="locality" />
		<tag k="ssr:stedsnr" v="691395" />
	</node>
	<node id="-255106" lat="59.9013305544" lon="11.0924416581">
		<tag k="name" v="Oppsal" />
		<tag k="place" v="hamlet" />
		<tag k="ssr:stedsnr" v="509711" />
	</node>
	<node id="-255105" lat="59.9128361097" lon="11.0807444409">
		<tag k="fixme" v="consider natural=peak for the most distinct mountains in the district" />
		<tag k="name" v="Sørliåsen" />
		<tag k="natural" v="hill" />
		<tag k="place" v="locality" />
		<tag k="ssr:stedsnr" v="509708" />
	</node>
	<node id="-255104" lat="59.8576138853" lon="11.0185638798">
		<tag k="fixme" v="consider natural=peak for the most distinct mountains in the district" />
		<tag k="name" v="Haraåsen" />
		<tag k="natural" v="hill" />
		<tag k="place" v="locality" />
		<tag k="ssr:stedsnr" v="509471" />
	</node>
	<node id="-255103" lat="59.8587444448" lon="11.0486388873">
		<tag k="name" v="Vivangen" />
		<tag k="place" v="locality" />
		<tag k="ssr:stedsnr" v="509459" />
	</node>
	<node id="-255102" lat="59.9212499967" lon="11.0365583296">
		<tag k="fixme" v="consider natural=peak for the most distinct mountains in the district" />
		<tag k="name" v="Buåsen" />
		<tag k="natural" v="hill" />
		<tag k="place" v="locality" />
		<tag k="ssr:stedsnr" v="509516" />
	</node>
	<node id="-255101" lat="59.8644083304" lon="11.0419138923">
		<tag k="name" v="Byttingsdalen" />
		<tag k="natural" v="valley" />
		<tag k="place" v="locality" />
		<tag k="ssr:stedsnr" v="509504" />
	</node>
	<node id="-255100" lat="59.9300749965" lon="11.0302527862">
		<tag k="name" v="Sandbekken" />
		<tag k="place" v="isolated_dwelling" />
		<tag k="ssr:stedsnr" v="490003" />
	</node>
	<node id="-255099" lat="59.844990684" lon="11.0823959751">
		<tag k="alt_name" v="Bikkjetjern" />
		<tag k="name" v="Bikkjetjerna" />
		<tag k="natural" v="water" />
		<tag k="ssr:stedsnr" v="489221" />
		<tag k="water" v="lake" />
	</node>
	<node id="-255098" lat="59.8495861128" lon="11.0970611165">
		<tag k="name" v="Vesledammen" />
		<tag k="natural" v="water" />
		<tag k="ssr:stedsnr" v="672730" />
	</node>
	<node id="-255097" lat="59.8713277785" lon="11.1002000035">
		<tag k="name" v="Gjellebekkvika" />
		<tag k="natural" v="bay" />
		<tag k="ssr:stedsnr" v="672666" />
	</node>
	<node id="-255096" lat="59.8861333326" lon="11.1123388872">
		<tag k="alt_name" v="Tveiterhagan" />
		<tag k="building" v="industrial" />
		<tag k="industrial" v="factory" />
		<tag k="name" v="Tveiterhagen" />
		<tag k="ssr:stedsnr" v="672640" />
	</node>
	<node id="-255095" lat="59.8314944419" lon="11.0785833375">
		<tag k="name" v="Åborvannet" />
		<tag k="natural" v="water" />
		<tag k="ssr:stedsnr" v="672272" />
	</node>
	<node id="-255094" lat="59.8472722245" lon="11.0789000067">
		<tag k="alt_name" v="Brasmetjern" />
		<tag k="name" v="Brasmetjernet" />
		<tag k="natural" v="water" />
		<tag k="ssr:stedsnr" v="672227" />
	</node>
	<node id="-255093" lat="59.8520388867" lon="11.0237388947">
		<tag k="alt_name" v="Krokvannskalven" />
		<tag k="name" v="Kalven" />
		<tag k="natural" v="bay" />
		<tag k="ssr:stedsnr" v="672221" />
	</node>
	<node id="-255092" lat="59.857486109" lon="11.0409111073">
		<tag k="alt_name" v="Østre Bjørntjern" />
		<tag k="name" v="Morttjernet" />
		<tag k="natural" v="water" />
		<tag k="ssr:stedsnr" v="672207" />
	</node>
	<node id="-255091" lat="59.8624111104" lon="11.0786638802">
		<tag k="name" v="Myrdammen" />
		<tag k="natural" v="water" />
		<tag k="ssr:stedsnr" v="672132" />
	</node>
	<node id="-255090" lat="59.9031277813" lon="11.0517027826">
		<tag k="name" v="Brudalen" />
		<tag k="natural" v="valley" />
		<tag k="place" v="locality" />
		<tag k="ssr:stedsnr" v="672068" />
	</node>
	<node id="-255089" lat="59.9254361098" lon="11.0588249933">
		<tag k="name" v="Korsvegen" />
		<tag k="place" v="farm" />
		<tag k="ssr:stedsnr" v="672001" />
	</node>
	<node id="-255088" lat="59.90104167" lon="11.1219944388">
		<tag k="name" v="Fautøya" />
		<tag k="place" v="islet" />
		<tag k="ssr:stedsnr" v="671637" />
	</node>
	<node id="-255087" lat="59.8655583322" lon="11.0941805475">
		<tag k="amenity" v="school" />
		<tag k="name" v="Nordby skole" />
		<tag k="ssr:stedsnr" v="449613" />
	</node>
	<node id="-255086" lat="59.9381305542" lon="11.0409722174">
		<tag k="leisure" v="pitch" />
		<tag k="name" v="Stormyrbakken" />
		<tag k="ssr:stedsnr" v="448602" />
	</node>
	<node id="-255085" lat="59.8391888902" lon="11.0285333412">
		<tag k="name" v="Borkedammen" />
		<tag k="natural" v="wetland" />
		<tag k="ssr:stedsnr" v="448552" />
	</node>
	<node id="-255084" lat="59.8809972221" lon="11.0355083354">
		<tag k="name" v="Nedre Setertjern" />
		<tag k="natural" v="water" />
		<tag k="ssr:stedsnr" v="448537" />
	</node>
	<node id="-255083" lat="59.8512194402" lon="11.1105750063">
		<tag k="name" v="Narvestad" />
		<tag k="place" v="farm" />
		<tag k="ssr:stedsnr" v="429719" />
	</node>
	<node id="-255082" lat="59.8837166672" lon="11.1314361135">
		<tag k="name" v="Rælingsøya" />
		<tag k="natural" v="cape" />
		<tag k="ssr:stedsnr" v="429627" />
	</node>
	<node id="-255081" lat="59.9190555555" lon="11.0509694448">
		<tag k="name" v="Marikollen" />
		<tag k="natural" v="hill" />
		<tag k="place" v="locality" />
		<tag k="ssr:stedsnr" v="429104" />
	</node>
	<node id="-255080" lat="59.9307055527" lon="11.0785777799">
		<tag k="name" v="Ensrud" />
		<tag k="place" v="isolated_dwelling" />
		<tag k="ssr:stedsnr" v="429007" />
	</node>
	<node id="-255079" lat="59.8357305583" lon="11.0829583406">
		<tag k="name" v="Breimåsan" />
		<tag k="natural" v="wetland" />
		<tag k="ssr:stedsnr" v="509650" />
	</node>
	<node id="-255078" lat="59.8475333326" lon="11.0642805643">
		<tag k="name" v="Struten" />
		<tag k="natural" v="bay" />
		<tag k="ssr:stedsnr" v="509648" />
	</node>
	<node id="-255077" lat="59.8499111146" lon="11.0753833325">
		<tag k="name" v="Tyrigrava" />
		<tag k="place" v="locality" />
		<tag k="ssr:stedsnr" v="509646" />
	</node>
	<node id="-255076" lat="59.8558777813" lon="11.0687416662">
		<tag k="name" v="Bakhonkastet" />
		<tag k="natural" v="slope" />
		<tag k="place" v="locality" />
		<tag k="ssr:stedsnr" v="509629" />
	</node>
	<node id="-255075" lat="59.8938194425" lon="11.101011113">
		<tag k="name" v="Nordre Hektner" />
		<tag k="place" v="farm" />
		<tag k="ssr:stedsnr" v="509613" />
	</node>
	<node id="-255074" lat="59.8959138878" lon="11.092141659">
		<tag k="name" v="Solli" />
		<tag k="place" v="farm" />
		<tag k="ssr:stedsnr" v="509610" />
	</node>
	<node id="-255073" lat="59.8956249992" lon="11.1128027728">
		<tag k="name" v="Trollykkja" />
		<tag k="place" v="hamlet" />
		<tag k="ssr:stedsnr" v="509607" />
	</node>
	<node id="-255072" lat="59.8713972246" lon="11.0949194385">
		<tag k="name" v="Nerhaugen" />
		<tag k="place" v="farm" />
		<tag k="ssr:stedsnr" v="509587" />
	</node>
	<node id="-255071" lat="59.8698250044" lon="11.0642194453">
		<tag k="historic" v="shieling" />
		<tag k="name" v="Grinisetervangen" />
		<tag k="place" v="locality" />
		<tag k="ssr:stedsnr" v="509584" />
	</node>
	<node id="-255070" lat="59.8688499979" lon="11.1089222201">
		<tag k="name" v="Nordbyleira" />
		<tag k="natural" v="shoal" />
		<tag k="place" v="locality" />
		<tag k="ssr:stedsnr" v="509580" />
	</node>
	<node id="-255069" lat="59.863299998" lon="11.0823000063">
		<tag k="name" v="Sveltetangen" />
		<tag k="natural" v="cape" />
		<tag k="ssr:stedsnr" v="509579" />
	</node>
	<node id="-255068" lat="59.9392555512" lon="11.0637916643">
		<tag k="name" v="Nyland" />
		<tag k="place" v="hamlet" />
		<tag k="ssr:stedsnr" v="509556" />
	</node>
	<node id="-255067" lat="59.932219445" lon="11.0689555618">
		<tag k="amenity" v="community_centre" />
		<tag k="loc_name" v="Åmot grendehus" />
		<tag k="name" v="Aamodt grendehus" />
		<tag k="ssr:stedsnr" v="509543" />
	</node>
	<node id="-255066" lat="59.8892416706" lon="11.0474750027">
		<tag k="fixme" v="consider natural=peak for the most distinct mountains in the district" />
		<tag k="name" v="Skurvåsen" />
		<tag k="natural" v="hill" />
		<tag k="place" v="locality" />
		<tag k="ssr:stedsnr" v="509493" />
	</node>
	<node id="-255065" lat="59.838655552" lon="11.0380416685">
		<tag k="name" v="Midtre Høgkolltjern" />
		<tag k="natural" v="water" />
		<tag k="ssr:stedsnr" v="509489" />
	</node>
	<node id="-255064" lat="59.9040361086" lon="11.0940249969">
		<tag k="name" v="Løvlia" />
		<tag k="place" v="hamlet" />
		<tag k="ssr:stedsnr" v="509699" />
	</node>
	<node id="-255063" lat="59.8584250029" lon="11.0572416735">
		<tag k="name" v="Drøpla" />
		<tag k="natural" v="water" />
		<tag k="ssr:stedsnr" v="509447" />
	</node>
	<node id="-255062" lat="59.8772333318" lon="11.0552083298">
		<tag k="historic" v="shieling" />
		<tag k="name" v="Jaersetervangen" />
		<tag k="place" v="locality" />
		<tag k="ssr:stedsnr" v="509346" />
	</node>
	<node id="-255061" lat="59.9063277809" lon="11.0701333248">
		<tag k="fixme" v="consider natural=peak for the most distinct mountains in the district" />
		<tag k="name" v="Høgåsen" />
		<tag k="natural" v="hill" />
		<tag k="place" v="locality" />
		<tag k="ssr:stedsnr" v="387760" />
	</node>
	<node id="-255060" lat="59.870138893" lon="11.0530805637">
		<tag k="fixme" v="consider natural=peak for the most distinct mountains in the district" />
		<tag k="name" v="Baråsen" />
		<tag k="natural" v="hill" />
		<tag k="place" v="locality" />
		<tag k="ssr:stedsnr" v="387564" />
	</node>
	<node id="-255059" lat="59.8796749993" lon="11.0519444436">
		<tag k="name" v="Fiskelausmåsan" />
		<tag k="natural" v="wetland" />
		<tag k="ssr:stedsnr" v="387555" />
	</node>
	<node id="-255058" lat="59.8393361115" lon="11.0302749985">
		<tag k="alt_name" v="Midtre Krokvann" />
		<tag k="name" v="Midtre Krokvannet" />
		<tag k="natural" v="water" />
		<tag k="old_name" v="Krokvatnet, m" />
		<tag k="ssr:stedsnr" v="368221" />
	</node>
	<node id="-255057" lat="59.8727361134" lon="11.0241749934">
		<tag k="name" v="Jonsokhøgda" />
		<tag k="natural" v="hill" />
		<tag k="place" v="locality" />
		<tag k="ssr:stedsnr" v="368207" />
	</node>
	<node id="-255056" lat="59.8526888931" lon="11.0467583419">
		<tag k="alt_name" v="Auretjern" />
		<tag k="name" v="Aurtjernet" />
		<tag k="natural" v="water" />
		<tag k="ssr:stedsnr" v="490232" />
	</node>
	<node id="-255055" lat="59.8847749971" lon="11.0346833381">
		<tag k="alt_name" v="Snelleåsen" />
		<tag k="fixme" v="consider natural=peak for the most distinct mountains in the district" />
		<tag k="name" v="Snellås" />
		<tag k="natural" v="hill" />
		<tag k="place" v="locality" />
		<tag k="ssr:stedsnr" v="490166" />
	</node>
	<node id="-255054" lat="59.9302472257" lon="11.0631388968">
		<tag k="alt_name" v="Sundhagan" />
		<tag k="name" v="Hagan" />
		<tag k="old_name" v="Hagen" />
		<tag k="place" v="isolated_dwelling" />
		<tag k="ssr:stedsnr" v="490001" />
	</node>
	<node id="-255053" lat="59.9028833361" lon="11.0731638812">
		<tag k="fixme" v="consider natural=peak for the most distinct mountains in the district" />
		<tag k="name" v="Trestilåsen" />
		<tag k="natural" v="hill" />
		<tag k="place" v="locality" />
		<tag k="ssr:stedsnr" v="490074" />
	</node>
	<node id="-255052" lat="59.94675556" lon="11.0400999989">
		<tag k="name" v="Rud" />
		<tag k="place" v="farm" />
		<tag k="ssr:stedsnr" v="490051" />
	</node>
	<node id="-255051" lat="59.9082916642" lon="11.0765138951">
		<tag k="name" v="Brenndammen" />
		<tag k="natural" v="wetland" />
		<tag k="ssr:stedsnr" v="327719" />
	</node>
	<node id="-255050" lat="59.9059472206" lon="11.0918194523">
		<tag k="name" v="Myrvoll" />
		<tag k="place" v="hamlet" />
		<tag k="ssr:stedsnr" v="327711" />
	</node>
	<node id="-255049" lat="59.9143083374" lon="11.0333555577">
		<tag k="fixme" v="consider natural=peak for the most distinct mountains in the district" />
		<tag k="name" v="Maråsen" />
		<tag k="natural" v="hill" />
		<tag k="place" v="locality" />
		<tag k="ssr:stedsnr" v="327523" />
	</node>
	<node id="-255048" lat="59.9255444448" lon="11.0609888876">
		<tag k="bridge" v="yes" />
		<tag k="layer" v="1" />
		<tag k="name" v="Marikollen" />
		<tag k="ssr:stedsnr" v="289024" />
	</node>
	<node id="-255047" lat="59.8679527812" lon="11.0839333371">
		<tag k="name" v="Sjudråga" />
		<tag k="natural" v="valley" />
		<tag k="place" v="locality" />
		<tag k="ssr:stedsnr" v="267577" />
	</node>
	<node id="-255046" lat="59.9241111072" lon="11.0628194371">
		<tag k="amenity" v="school" />
		<tag k="name" v="Marikollen ungdomsskole" />
		<tag k="ssr:stedsnr" v="449565" />
	</node>
	<node id="-255045" lat="59.9002222263" lon="11.080083339">
		<tag k="fixme" v="consider natural=peak for the most distinct mountains in the district" />
		<tag k="name" v="Nautåsen" />
		<tag k="natural" v="hill" />
		<tag k="place" v="locality" />
		<tag k="ssr:stedsnr" v="448795" />
	</node>
	<node id="-255044" lat="59.899566664" lon="11.1037527818">
		<tag k="fixme" v="consider natural=peak for the most distinct mountains in the district" />
		<tag k="name" v="Trollåsen" />
		<tag k="natural" v="hill" />
		<tag k="place" v="locality" />
		<tag k="ssr:stedsnr" v="448779" />
	</node>
	<node id="-255042" lat="59.8910722182" lon="11.0958611023">
		<tag k="name" v="Vestegarden" />
		<tag k="place" v="farm" />
		<tag k="ssr:stedsnr" v="448699" />
	</node>
	<node id="-255041" lat="59.8851694414" lon="11.0677333359">
		<tag k="historic" v="shieling" />
		<tag k="name" v="Trollsetra" />
		<tag k="place" v="locality" />
		<tag k="ssr:stedsnr" v="448690" />
	</node>
	<node id="-255040" lat="59.9099222205" lon="11.0926083385">
		<tag k="amenity" v="school" />
		<tag k="name" v="Holt skole" />
		<tag k="ssr:stedsnr" v="448763" />
	</node>
	<node id="-255039" lat="59.9428444434" lon="11.0484111124">
		<tag k="name" v="Herredshus" />
		<tag k="place" v="locality" />
		<tag k="ssr:stedsnr" v="448753" />
	</node>
	<node id="-255038" lat="59.9483472185" lon="11.0370499981">
		<tag k="name" v="Strømsborg" />
		<tag k="place" v="quarter" />
		<tag k="ssr:stedsnr" v="448738" />
	</node>
	<node id="-255037" lat="59.8874083327" lon="11.071280561">
		<tag k="fixme" v="consider natural=peak for the most distinct mountains in the district" />
		<tag k="name" v="Korpåsen" />
		<tag k="natural" v="hill" />
		<tag k="place" v="locality" />
		<tag k="ssr:stedsnr" v="448733" />
	</node>
	<node id="-255036" lat="59.8442250011" lon="11.0863888826">
		<tag k="name" v="Byseter" />
		<tag k="place" v="locality" />
		<tag k="ssr:stedsnr" v="448727" />
	</node>
	<node id="-255035" lat="59.9223972182" lon="11.0538027712">
		<tag k="alt_name" v="Marikollen" />
		<tag k="leisure" v="pitch" />
		<tag k="name" v="Marikollen skisenter" />
		<tag k="ssr:stedsnr" v="448601" />
	</node>
	<node id="-255034" lat="59.9378194426" lon="11.0522083327">
		<tag k="name" v="Øgardshøgda" />
		<tag k="place" v="quarter" />
		<tag k="ssr:stedsnr" v="448572" />
	</node>
	<node id="-255033" lat="59.8723222204" lon="11.0464083421">
		<tag k="fixme" v="consider natural=peak for the most distinct mountains in the district" />
		<tag k="name" v="Regnåsen" />
		<tag k="natural" v="hill" />
		<tag k="place" v="locality" />
		<tag k="ssr:stedsnr" v="448562" />
	</node>
	<node id="-255032" lat="59.8454750016" lon="11.0277750015">
		<tag k="name" v="Bokhytta" />
		<tag k="place" v="isolated_dwelling" />
		<tag k="ssr:stedsnr" v="448427" />
	</node>
	<node id="-255031" lat="59.9170222266" lon="11.0574999979">
		<tag k="alt_name" v="Fjerdingbydammen" />
		<tag k="name" v="Fjerdingbyputten" />
		<tag k="natural" v="water" />
		<tag k="ssr:stedsnr" v="186107" />
		<tag k="water" v="pond" />
	</node>
	<node id="-255030" lat="59.8710694484" lon="11.0645027759">
		<tag k="fixme" v="consider natural=peak for the most distinct mountains in the district" />
		<tag k="name" v="Seteråsen" />
		<tag k="natural" v="hill" />
		<tag k="place" v="locality" />
		<tag k="ssr:stedsnr" v="145664" />
	</node>
	<node id="-255029" lat="59.8731944474" lon="11.0736111139">
		<tag k="fixme" v="consider natural=peak for the most distinct mountains in the district" />
		<tag k="name" v="Gryteåsen" />
		<tag k="natural" v="hill" />
		<tag k="place" v="locality" />
		<tag k="ssr:stedsnr" v="145661" />
	</node>
	<node id="-255028" lat="59.8598916667" lon="11.0747111051">
		<tag k="name" v="Sjødalen" />
		<tag k="natural" v="valley" />
		<tag k="place" v="locality" />
		<tag k="ssr:stedsnr" v="145657" />
	</node>
	<node id="-255027" lat="59.8709055526" lon="11.0918500016">
		<tag k="name" v="Opphaugen" />
		<tag k="place" v="farm" />
		<tag k="ssr:stedsnr" v="145614" />
	</node>
	<node id="-255026" lat="59.8609944479" lon="11.0933555543">
		<tag k="name" v="Fjellstad" />
		<tag k="place" v="hamlet" />
		<tag k="ssr:stedsnr" v="145609" />
	</node>
	<node id="-255025" lat="59.8562944457" lon="11.0830888977">
		<tag k="name" v="Fellemyra" />
		<tag k="natural" v="wetland" />
		<tag k="ssr:stedsnr" v="145606" />
	</node>
	<node id="-255024" lat="59.9356799125" lon="11.0634233439">
		<tag k="name" v="Øvre Åmot" />
		<tag k="place" v="farm" />
		<tag k="ssr:stedsnr" v="267537" />
	</node>
	<node id="-255023" lat="59.933011107" lon="11.0748777817">
		<tag k="name" v="Bålsrud" />
		<tag k="place" v="farm" />
		<tag k="ssr:stedsnr" v="267533" />
	</node>
	<node id="-255022" lat="59.857974997" lon="11.1043166719">
		<tag k="name" v="Sør-Uller" />
		<tag k="place" v="farm" />
		<tag k="ssr:stedsnr" v="267599" />
	</node>
	<node id="-255021" lat="59.874008332" lon="11.1099666586">
		<tag k="name" v="Grøtnesnabben" />
		<tag k="natural" v="cape" />
		<tag k="ssr:stedsnr" v="267583" />
	</node>
	<node id="-255020" lat="59.9521277747" lon="11.0372500021">
		<tag k="bridge" v="yes" />
		<tag k="layer" v="1" />
		<tag k="name" v="Lillestrøm bru" />
		<tag k="ssr:stedsnr" v="266718" />
	</node>
	<node id="-255019" lat="59.8881694452" lon="11.0872916711">
		<tag k="name" v="Veslekleiva" />
		<tag k="natural" v="valley" />
		<tag k="place" v="locality" />
		<tag k="ssr:stedsnr" v="266687" />
	</node>
	<node id="-255018" lat="59.8467416662" lon="11.1024944391">
		<tag k="name" v="Bjørnmyra" />
		<tag k="natural" v="wetland" />
		<tag k="ssr:stedsnr" v="266669" />
	</node>
	<node id="-255017" lat="59.8402638873" lon="11.0970944355">
		<tag k="fixme" v="consider natural=peak for the most distinct mountains in the district" />
		<tag k="name" v="Elggrasåsen" />
		<tag k="natural" v="hill" />
		<tag k="place" v="locality" />
		<tag k="ssr:stedsnr" v="266667" />
	</node>
	<node id="-255016" lat="59.9221222203" lon="11.0325972233">
		<tag k="historic" v="shieling" />
		<tag k="name" v="Åmotsetra" />
		<tag k="place" v="locality" />
		<tag k="ssr:stedsnr" v="266550" />
	</node>
	<node id="-255015" lat="59.9335003072" lon="11.0317685214">
		<tag k="amenity" v="sports_centre" />
		<tag k="name" v="Sandbekkhallen" />
		<tag k="ssr:stedsnr" v="266546" />
	</node>
	<node id="-255014" lat="59.8770222187" lon="11.030972229">
		<tag k="historic" v="shieling" />
		<tag k="name" v="Tvetersetra" />
		<tag k="place" v="locality" />
		<tag k="ssr:stedsnr" v="266507" />
	</node>
	<node id="-255013" lat="59.9037749986" lon="11.0607833276">
		<tag k="name" v="Langmyra" />
		<tag k="natural" v="wetland" />
		<tag k="ssr:stedsnr" v="266501" />
	</node>
	<node id="-255012" lat="59.8647361093" lon="11.0537055493">
		<tag k="name" v="Søndre Mørkåstjern" />
		<tag k="natural" v="water" />
		<tag k="ssr:stedsnr" v="266498" />
	</node>
	<node id="-255011" lat="59.9145277744" lon="11.0932611035">
		<tag k="name" v="Nedre Holt" />
		<tag k="place" v="farm" />
		<tag k="ssr:stedsnr" v="84761" />
	</node>
	<node id="-255010" lat="59.9151083359" lon="11.0821583306">
		<tag k="name" v="Nybakk" />
		<tag k="place" v="farm" />
		<tag k="ssr:stedsnr" v="84760" />
	</node>
	<node id="-255009" lat="59.9019027776" lon="11.094452769">
		<tag k="name" v="Norum" />
		<tag k="place" v="farm" />
		<tag k="ssr:stedsnr" v="84757" />
	</node>
	<node id="-255008" lat="59.8782083315" lon="11.0897277803">
		<tag k="name" v="Øvergarden" />
		<tag k="place" v="farm" />
		<tag k="ssr:stedsnr" v="84678" />
	</node>
	<node id="-255007" lat="59.9312527734" lon="11.0413222237">
		<tag k="amenity" v="school" />
		<tag k="name" v="Blystadlia skole" />
		<tag k="ssr:stedsnr" v="84572" />
	</node>
	<node id="-255006" lat="59.8553611078" lon="11.0472472234">
		<tag k="name" v="Auretjerndalen" />
		<tag k="natural" v="valley" />
		<tag k="place" v="locality" />
		<tag k="ssr:stedsnr" v="84571" />
	</node>
	<node id="-255005" lat="59.8834305578" lon="11.049791675">
		<tag k="fixme" v="consider natural=peak for the most distinct mountains in the district" />
		<tag k="name" v="Petteråsen" />
		<tag k="natural" v="hill" />
		<tag k="place" v="locality" />
		<tag k="ssr:stedsnr" v="84569" />
	</node>
	<node id="-255004" lat="59.8368750022" lon="11.0375194366">
		<tag k="name" v="Søndre Høgkolltjern" />
		<tag k="natural" v="water" />
		<tag k="ssr:stedsnr" v="84566" />
	</node>
	<node id="-255003" lat="59.936602779" lon="11.016294448">
		<tag k="name" v="Kurlandsbekken" />
		<tag k="ssr:stedsnr" v="84554" />
		<tag k="waterway" v="stream" />
	</node>
	<node id="-255002" lat="59.8398055521" lon="11.0591555571">
		<tag k="fixme" v="consider natural=peak for the most distinct mountains in the district" />
		<tag k="name" v="Morttjernåsen" />
		<tag k="natural" v="hill" />
		<tag k="place" v="locality" />
		<tag k="ssr:stedsnr" v="84552" />
	</node>
	<node id="-255001" lat="59.8768638899" lon="11.1363611099">
		<tag k="name" v="Løkkadjupet" />
		<tag k="place" v="locality" />
		<tag k="ssr:stedsnr" v="84526" />
	</node>
	<node id="-255000" lat="59.8839444432" lon="11.0281055603">
		<tag k="name" v="Vestre Huktjern" />
		<tag k="natural" v="water" />
		<tag k="ssr:stedsnr" v="84523" />
	</node>
	<node id="-254999" lat="59.8287666628" lon="11.1946388818">
		<tag k="fixme" v="consider boundary=protected_area and relevant protect_class if not nature reserve" />
		<tag k="leisure" v="nature_reserve" />
		<tag k="name" v="Nordre Øyeren naturreservat" />
		<tag k="ssr:stedsnr" v="83359" />
	</node>
	<node id="-254998" lat="59.8542583368" lon="11.0177749914">
		<tag k="alt_name" v="Biritjern" />
		<tag k="name" v="Biritjernet" />
		<tag k="natural" v="water" />
		<tag k="ssr:stedsnr" v="247214" />
	</node>
	<node id="-254997" lat="59.865486113" lon="11.0647472247">
		<tag k="alt_name" v="Tjuvestuåsen" />
		<tag k="fixme" v="consider natural=peak for the most distinct mountains in the district" />
		<tag k="name" v="Tjuvstuåsen" />
		<tag k="natural" v="hill" />
		<tag k="place" v="locality" />
		<tag k="ssr:stedsnr" v="247150" />
	</node>
	<node id="-254996" lat="59.8675222201" lon="11.0425333408">
		<tag k="alt_name" v="Bjørtjerna, øvre" />
		<tag k="name" v="Søndre Bjørtjern" />
		<tag k="natural" v="water" />
		<tag k="ssr:stedsnr" v="247138" />
	</node>
	<node id="-254995" lat="59.86308611" lon="11.0498694522">
		<tag k="alt_name" v="Langvann" />
		<tag k="name" v="Langvannet" />
		<tag k="natural" v="water" />
		<tag k="old_name" v="Langvatn" />
		<tag k="ssr:stedsnr" v="247136" />
	</node>
	<node id="-254994" lat="59.8773222265" lon="11.089725002">
		<tag k="name" v="Grini" />
		<tag k="place" v="farm" />
		<tag k="ssr:stedsnr" v="247120" />
	</node>
	<node id="-254993" lat="59.8710305513" lon="11.0890166632">
		<tag k="alt_name" v="Hestløkka" />
		<tag k="name" v="Hesteløkka" />
		<tag k="place" v="isolated_dwelling" />
		<tag k="ssr:stedsnr" v="247118" />
	</node>
	<node id="-254992" lat="59.8776472253" lon="11.0932916583">
		<tag k="alt_name" v="Grini Øststua" />
		<tag k="name" v="Grini" />
		<tag k="place" v="farm" />
		<tag k="ssr:stedsnr" v="66501" />
	</node>
	<node id="-254991" lat="59.9018750024" lon="11.0919777801">
		<tag k="alt_name" v="Flateby" />
		<tag k="name" v="Flatby" />
		<tag k="place" v="farm" />
		<tag k="ssr:stedsnr" v="65632" />
	</node>
	<node id="-254990" lat="59.848988888" lon="11.1220166609">
		<tag k="name" v="Bråten" />
		<tag k="place" v="farm" />
		<tag k="ssr:stedsnr" v="65739" />
	</node>
	<node id="-254989" lat="59.8440138851" lon="11.0989055619">
		<tag k="name" v="Slortjern" />
		<tag k="natural" v="water" />
		<tag k="ssr:stedsnr" v="65737" />
	</node>
	<node id="-254988" lat="59.9124830648" lon="11.0911153518">
		<tag k="name" v="Holt" />
		<tag k="place" v="farm" />
		<tag k="ssr:stedsnr" v="65102" />
	</node>
	<node id="-254987" lat="59.9236916676" lon="11.0663500059">
		<tag k="bridge" v="yes" />
		<tag k="layer" v="1" />
		<tag k="name" v="Fjerdingby" />
		<tag k="ssr:stedsnr" v="228036" />
	</node>
	<node id="-254986" lat="59.9458888867" lon="11.0384833262">
		<tag k="bridge" v="yes" />
		<tag k="layer" v="1" />
		<tag k="name" v="Stormyrvegen" />
		<tag k="ssr:stedsnr" v="228033" />
	</node>
	<node id="-254985" lat="59.8666277763" lon="11.0819749947">
		<tag k="name" v="Hurtigdråga" />
		<tag k="natural" v="valley" />
		<tag k="place" v="locality" />
		<tag k="ssr:stedsnr" v="24603" />
	</node>
	<node id="-254984" lat="59.8359222257" lon="11.0907222218">
		<tag k="name" v="Hakkemåsan" />
		<tag k="natural" v="wetland" />
		<tag k="ssr:stedsnr" v="23712" />
	</node>
	<node id="-254983" lat="59.845863885" lon="11.067827785">
		<tag k="fixme" v="consider natural=peak for the most distinct mountains in the district" />
		<tag k="name" v="Svarttjernåsen" />
		<tag k="natural" v="hill" />
		<tag k="place" v="locality" />
		<tag k="ssr:stedsnr" v="23710" />
>>>>>>> e1d4bc35ff8a6074a6f2e91616a996b547c36f15
	</node>
</osm>
