<?xml version="1.0" encoding="UTF-8"?>
<<<<<<< HEAD
<osm version="0.6" generator="osmapis">
	<node lat="59.835441667072075" lon="11.097313892836466" id="-14820">
		<tag k="fixme" v="consider natural=peak for the most distinct mountains in the district" />
		<tag k="name" v="Sæteråsen" />
		<tag k="natural" v="hill" />
		<tag k="place" v="locality" />
		<tag k="ssr:stedsnr" v="5511" />
	</node>
	<node lat="59.845863884975344" lon="11.067827784993499" id="-14821">
		<tag k="fixme" v="consider natural=peak for the most distinct mountains in the district" />
		<tag k="name" v="Svarttjernåsen" />
		<tag k="natural" v="hill" />
		<tag k="place" v="locality" />
		<tag k="ssr:stedsnr" v="23710" />
	</node>
	<node lat="59.920886107321884" lon="11.06998055292478" id="-14827">
		<tag k="name" v="Oladalen" />
		<tag k="natural" v="valley" />
		<tag k="place" v="locality" />
		<tag k="ssr:stedsnr" v="24586" />
	</node>
	<node lat="59.86662777630728" lon="11.081974994667583" id="-14828">
		<tag k="name" v="Hurtigdråga" />
		<tag k="natural" v="valley" />
		<tag k="place" v="locality" />
		<tag k="ssr:stedsnr" v="24603" />
	</node>
	<node lat="59.86548611299491" lon="11.064747224741481" id="-14840">
		<tag k="alt_name" v="Tjuvestuåsen" />
		<tag k="fixme" v="consider natural=peak for the most distinct mountains in the district" />
		<tag k="name" v="Tjuvstuåsen" />
		<tag k="natural" v="hill" />
		<tag k="place" v="locality" />
		<tag k="ssr:stedsnr" v="247150" />
	</node>
	<node lat="59.90675833109381" lon="11.048755561074161" id="-14848">
		<tag k="name" v="Purkeryggen" />
		<tag k="natural" v="ridge" />
		<tag k="place" v="locality" />
		<tag k="ssr:stedsnr" v="144578" />
	</node>
	<node lat="59.859891666665554" lon="11.074711105064688" id="-14853">
		<tag k="name" v="Sjødalen" />
		<tag k="natural" v="valley" />
		<tag k="place" v="locality" />
		<tag k="ssr:stedsnr" v="145657" />
	</node>
	<node lat="59.87106944844384" lon="11.064502775947322" id="-14854">
		<tag k="fixme" v="consider natural=peak for the most distinct mountains in the district" />
		<tag k="name" v="Seteråsen" />
		<tag k="natural" v="hill" />
		<tag k="place" v="locality" />
		<tag k="ssr:stedsnr" v="145664" />
	</node>
	<node lat="59.84026388734623" lon="11.09709443549827" id="-14862">
		<tag k="fixme" v="consider natural=peak for the most distinct mountains in the district" />
		<tag k="name" v="Elggrasåsen" />
		<tag k="natural" v="hill" />
		<tag k="place" v="locality" />
		<tag k="ssr:stedsnr" v="266667" />
	</node>
	<node lat="59.86795278117509" lon="11.083933337110775" id="-14866">
		<tag k="name" v="Sjudråga" />
		<tag k="natural" v="valley" />
		<tag k="place" v="locality" />
		<tag k="ssr:stedsnr" v="267577" />
	</node>
	<node lat="59.8791111146187" lon="11.03265000430965" id="-14867">
		<tag k="name" v="Badstudalen" />
		<tag k="natural" v="valley" />
		<tag k="place" v="locality" />
		<tag k="ssr:stedsnr" v="205595" />
	</node>
	<node lat="59.884519443596446" lon="11.072277779303555" id="-14870">
		<tag k="fixme" v="consider natural=peak for the most distinct mountains in the district" />
		<tag k="name" v="Kulfjellåsen" />
		<tag k="natural" v="hill" />
		<tag k="place" v="locality" />
		<tag k="ssr:stedsnr" v="205730" />
	</node>
	<node lat="59.88816944520344" lon="11.087291671066925" id="-14880">
		<tag k="name" v="Veslekleiva" />
		<tag k="natural" v="valley" />
		<tag k="place" v="locality" />
		<tag k="ssr:stedsnr" v="266687" />
	</node>
	<node lat="59.870538890756215" lon="11.02976943923401" id="-14888">
		<tag k="fixme" v="consider natural=peak for the most distinct mountains in the district" />
		<tag k="name" v="Ottedageråsen" />
		<tag k="natural" v="hill" />
		<tag k="place" v="locality" />
		<tag k="ssr:stedsnr" v="327490" />
	</node>
	<node lat="59.85160000324267" lon="11.101822219550792" id="-14889">
		<tag k="name" v="Bjørnmyrdalen" />
		<tag k="natural" v="valley" />
		<tag k="place" v="locality" />
		<tag k="ssr:stedsnr" v="327660" />
	</node>
	<node lat="59.914308337379325" lon="11.033355557712444" id="-14890">
		<tag k="fixme" v="consider natural=peak for the most distinct mountains in the district" />
		<tag k="name" v="Maråsen" />
		<tag k="natural" v="hill" />
		<tag k="place" v="locality" />
		<tag k="ssr:stedsnr" v="327523" />
	</node>
	<node lat="59.872736113411015" lon="11.024174993351474" id="-14893">
		<tag k="name" v="Jonsokhøgda" />
		<tag k="natural" v="hill" />
		<tag k="place" v="locality" />
		<tag k="ssr:stedsnr" v="368207" />
	</node>
	<node lat="59.87013889300902" lon="11.053080563733007" id="-14897">
		<tag k="fixme" v="consider natural=peak for the most distinct mountains in the district" />
		<tag k="name" v="Baråsen" />
		<tag k="natural" v="hill" />
		<tag k="place" v="locality" />
		<tag k="ssr:stedsnr" v="387564" />
	</node>
	<node lat="59.911991664771854" lon="11.08596388783173" id="-14904">
		<tag k="fixme" v="consider natural=peak for the most distinct mountains in the district" />
		<tag k="name" v="Hagaåsen" />
		<tag k="natural" v="hill" />
		<tag k="place" v="locality" />
		<tag k="ssr:stedsnr" v="387744" />
	</node>
	<node lat="59.85090555128954" lon="10.97485000485798" id="-14908">
		<tag k="name" v="Østmarka" />
		<tag k="natural" v="wood" />
		<tag k="ssr:stedsnr" v="490224" />
	</node>
	<node lat="59.902883336127495" lon="11.073163881177557" id="-14910">
		<tag k="fixme" v="consider natural=peak for the most distinct mountains in the district" />
		<tag k="name" v="Trestilåsen" />
		<tag k="natural" v="hill" />
		<tag k="place" v="locality" />
		<tag k="ssr:stedsnr" v="490074" />
	</node>
	<node lat="59.88477499712283" lon="11.034683338089229" id="-14911">
		<tag k="alt_name" v="Snelleåsen" />
		<tag k="fixme" v="consider natural=peak for the most distinct mountains in the district" />
		<tag k="name" v="Snellås" />
		<tag k="natural" v="hill" />
		<tag k="place" v="locality" />
		<tag k="ssr:stedsnr" v="490166" />
	</node>
	<node lat="59.89550278118516" lon="11.058922226454273" id="-14912">
		<tag k="fixme" v="consider natural=peak for the most distinct mountains in the district" />
		<tag k="name" v="Hektnerhøgåsen" />
		<tag k="natural" v="hill" />
		<tag k="place" v="locality" />
		<tag k="ssr:stedsnr" v="429072" />
	</node>
	<node lat="59.9190555554623" lon="11.05096944478533" id="-14914">
		<tag k="name" v="Marikollen" />
		<tag k="natural" v="hill" />
		<tag k="place" v="locality" />
		<tag k="ssr:stedsnr" v="429104" />
	</node>
	<node lat="59.88740833268656" lon="11.07128056103344" id="-14919">
		<tag k="fixme" v="consider natural=peak for the most distinct mountains in the district" />
		<tag k="name" v="Korpåsen" />
		<tag k="natural" v="hill" />
		<tag k="place" v="locality" />
		<tag k="ssr:stedsnr" v="448733" />
	</node>
	<node lat="59.90196110780259" lon="11.025369447236557" id="-14928">
		<tag k="fixme" v="consider natural=peak for the most distinct mountains in the district" />
		<tag k="name" v="Skolemesteren" />
		<tag k="natural" v="hill" />
		<tag k="place" v="locality" />
		<tag k="ssr:stedsnr" v="691531" />
	</node>
	<node lat="59.86440833043504" lon="11.04191389226326" id="-14933">
		<tag k="name" v="Byttingsdalen" />
		<tag k="natural" v="valley" />
		<tag k="place" v="locality" />
		<tag k="ssr:stedsnr" v="509504" />
	</node>
	<node lat="59.91283610971244" lon="11.080744440933946" id="-14939">
		<tag k="fixme" v="consider natural=peak for the most distinct mountains in the district" />
		<tag k="name" v="Sørliåsen" />
		<tag k="natural" v="hill" />
		<tag k="place" v="locality" />
		<tag k="ssr:stedsnr" v="509708" />
	</node>
	<node lat="59.89383888744533" lon="11.021119449148216" id="-14948">
		<tag k="name" v="Isdalen" />
		<tag k="natural" v="valley" />
		<tag k="place" v="locality" />
		<tag k="ssr:stedsnr" v="691538" />
	</node>
	<node lat="59.91887825264146" lon="11.046677331253314" id="-14954">
		<tag k="alt_name" v="Marikollenslottet" />
		<tag k="name" v="Marikollslottet" />
		<tag k="natural" v="hill" />
		<tag k="place" v="locality" />
		<tag k="ssr:stedsnr" v="569559" />
	</node>
	<node lat="59.8597305542947" lon="11.077436115622824" id="-14955">
		<tag k="name" v="Fjelldalen" />
		<tag k="natural" v="valley" />
		<tag k="place" v="locality" />
		<tag k="ssr:stedsnr" v="570563" />
	</node>
	<node lat="59.84080277685153" lon="11.04053055735551" id="-14957">
		<tag k="fixme" v="consider natural=peak for the most distinct mountains in the district" />
		<tag k="name" v="Høgkollen" />
		<tag k="natural" v="hill" />
		<tag k="place" v="locality" />
		<tag k="ssr:stedsnr" v="611193" />
	</node>
	<node lat="59.93508055254132" lon="11.060313892180023" id="-14963">
		<tag k="name" v="Lognsdalen" />
		<tag k="natural" v="valley" />
		<tag k="place" v="locality" />
		<tag k="ssr:stedsnr" v="630500" />
	</node>
	<node lat="59.90312778127873" lon="11.051702782603446" id="-14967">
		<tag k="name" v="Brudalen" />
		<tag k="natural" v="valley" />
		<tag k="place" v="locality" />
		<tag k="ssr:stedsnr" v="672068" />
	</node>
	<node lat="59.90695277590258" lon="11.061650000999348" id="-14980">
		<tag k="fixme" v="consider natural=peak for the most distinct mountains in the district" />
		<tag k="name" v="Langmyråsen" />
		<tag k="natural" v="hill" />
		<tag k="place" v="locality" />
		<tag k="ssr:stedsnr" v="691735" />
	</node>
	<node lat="59.88153055198284" lon="11.087238891972474" id="-14988">
		<tag k="fixme" v="consider natural=peak for the most distinct mountains in the district" />
		<tag k="name" v="Jaeråsen" />
		<tag k="natural" v="hill" />
		<tag k="place" v="locality" />
		<tag k="ssr:stedsnr" v="751721" />
	</node>
	<node lat="59.889983330743476" lon="11.07754443805494" id="-14989">
		<tag k="name" v="Storkleiva" />
		<tag k="natural" v="valley" />
		<tag k="place" v="locality" />
		<tag k="ssr:stedsnr" v="751722" />
	</node>
	<node lat="59.864602774479565" lon="11.085463890304993" id="-14993">
		<tag k="fixme" v="consider natural=peak for the most distinct mountains in the district" />
		<tag k="name" v="Tjanåsen" />
		<tag k="natural" v="hill" />
		<tag k="place" v="locality" />
		<tag k="ssr:stedsnr" v="793151" />
	</node>
	<node lat="59.864877781089945" lon="11.046847216634909" id="-15007">
		<tag k="name" v="Langtjernhøgda" />
=======
<osm generator="osmapis" version="0.6">
	<node id="-255404" lat="59.8509055513" lon="10.9748500049">
		<tag k="name" v="Østmarka" />
		<tag k="natural" v="wood" />
		<tag k="ssr:stedsnr" v="490224" />
	</node>
	<node id="-255398" lat="59.8625916685" lon="11.0660083406">
		<tag k="name" v="Indre Isdalshøgda" />
>>>>>>> e1d4bc35ff8a6074a6f2e91616a996b547c36f15
		<tag k="natural" v="hill" />
		<tag k="place" v="locality" />
		<tag k="ssr:stedsnr" v="812561" />
	</node>
<<<<<<< HEAD
	<node lat="59.851880552826444" lon="11.042299997476798" id="-15008">
		<tag k="name" v="Tørrbiten" />
=======
	<node id="-255395" lat="59.9259916631" lon="11.0637777715">
		<tag k="name" v="Bjørnholthagan" />
>>>>>>> e1d4bc35ff8a6074a6f2e91616a996b547c36f15
		<tag k="natural" v="hill" />
		<tag k="place" v="locality" />
		<tag k="ssr:stedsnr" v="812567" />
	</node>
<<<<<<< HEAD
	<node lat="59.843138890449346" lon="11.033530557316164" id="-15009">
		<tag k="name" v="Tappenberg" />
		<tag k="natural" v="hill" />
=======
	<node id="-255392" lat="59.8414333366" lon="11.0692138848">
		<tag k="name" v="Festningsdalen" />
		<tag k="natural" v="valley" />
>>>>>>> e1d4bc35ff8a6074a6f2e91616a996b547c36f15
		<tag k="place" v="locality" />
		<tag k="ssr:stedsnr" v="812569" />
	</node>
<<<<<<< HEAD
	<node lat="59.84570278012683" lon="11.089561111423862" id="-15011">
=======
	<node id="-255380" lat="59.8843027749" lon="11.0905305616">
>>>>>>> e1d4bc35ff8a6074a6f2e91616a996b547c36f15
		<tag k="fixme" v="consider natural=peak for the most distinct mountains in the district" />
		<tag k="name" v="Gutubråtaåsen" />
		<tag k="natural" v="hill" />
		<tag k="place" v="locality" />
		<tag k="ssr:stedsnr" v="812704" />
	</node>
<<<<<<< HEAD
	<node lat="59.84006666735243" lon="11.076944446195876" id="-15012">
=======
	<node id="-255378" lat="59.8400666674" lon="11.0769444462">
>>>>>>> e1d4bc35ff8a6074a6f2e91616a996b547c36f15
		<tag k="fixme" v="consider natural=peak for the most distinct mountains in the district" />
		<tag k="name" v="Oskaråsen" />
		<tag k="natural" v="hill" />
		<tag k="place" v="locality" />
		<tag k="ssr:stedsnr" v="812710" />
	</node>
<<<<<<< HEAD
	<node lat="59.83907499734294" lon="11.033449996210601" id="-15024">
		<tag k="fixme" v="consider natural=peak for the most distinct mountains in the district" />
		<tag k="name" v="Ørnåsen" />
=======
	<node id="-255377" lat="59.8457027801" lon="11.0895611114">
		<tag k="fixme" v="consider natural=peak for the most distinct mountains in the district" />
		<tag k="name" v="Gutubråtaåsen" />
		<tag k="natural" v="hill" />
		<tag k="place" v="locality" />
		<tag k="ssr:stedsnr" v="812704" />
	</node>
	<node id="-255373" lat="59.9288027789" lon="11.0446277732">
		<tag k="name" v="Åshøgda" />
		<tag k="natural" v="hill" />
		<tag k="place" v="locality" />
		<tag k="ssr:stedsnr" v="812593" />
	</node>
	<node id="-255371" lat="59.8431388904" lon="11.0335305573">
		<tag k="name" v="Tappenberg" />
>>>>>>> e1d4bc35ff8a6074a6f2e91616a996b547c36f15
		<tag k="natural" v="hill" />
		<tag k="place" v="locality" />
		<tag k="ssr:stedsnr" v="934473" />
	</node>
<<<<<<< HEAD
	<node lat="59.865441670121044" lon="11.034933334064968" id="-15025">
		<tag k="name" v="Jaertangene" />
=======
	<node id="-255370" lat="59.8518805528" lon="11.0422999975">
		<tag k="name" v="Tørrbiten" />
>>>>>>> e1d4bc35ff8a6074a6f2e91616a996b547c36f15
		<tag k="natural" v="hill" />
		<tag k="place" v="locality" />
		<tag k="ssr:stedsnr" v="934476" />
	</node>
<<<<<<< HEAD
	<node lat="59.885352779398765" lon="11.025225005883215" id="-15026">
		<tag k="fixme" v="consider natural=peak for the most distinct mountains in the district" />
		<tag k="name" v="Hukåsen" />
=======
	<node id="-255369" lat="59.8648777811" lon="11.0468472166">
		<tag k="name" v="Langtjernhøgda" />
>>>>>>> e1d4bc35ff8a6074a6f2e91616a996b547c36f15
		<tag k="natural" v="hill" />
		<tag k="place" v="locality" />
		<tag k="ssr:stedsnr" v="934479" />
	</node>
<<<<<<< HEAD
	<node lat="59.87847777699208" lon="11.07086944463176" id="-15029">
=======
	<node id="-255358" lat="59.8646027745" lon="11.0854638903">
>>>>>>> e1d4bc35ff8a6074a6f2e91616a996b547c36f15
		<tag k="fixme" v="consider natural=peak for the most distinct mountains in the district" />
		<tag k="name" v="Høgåsen" />
		<tag k="natural" v="hill" />
		<tag k="place" v="locality" />
		<tag k="ssr:stedsnr" v="934665" />
	</node>
<<<<<<< HEAD
	<node lat="59.943708336644654" lon="11.024761114432732" id="-15030">
		<tag k="name" v="Setersletta" />
=======
	<node id="-255353" lat="59.8643527802" lon="11.0719944497">
		<tag k="name" v="Fremste Isdalshøgda" />
		<tag k="natural" v="hill" />
>>>>>>> e1d4bc35ff8a6074a6f2e91616a996b547c36f15
		<tag k="place" v="locality" />
		<tag k="ssr:stedsnr" v="934709" />
	</node>
<<<<<<< HEAD
	<node lat="59.882224996469795" lon="11.055616666397514" id="-15033">
		<tag k="name" v="Stabburdalen" />
		<tag k="natural" v="valley" />
=======
	<node id="-255350" lat="59.9436444459" lon="11.0298555527">
		<tag k="name" v="Furukollen" />
		<tag k="natural" v="hill" />
>>>>>>> e1d4bc35ff8a6074a6f2e91616a996b547c36f15
		<tag k="place" v="locality" />
		<tag k="ssr:stedsnr" v="934503" />
	</node>
<<<<<<< HEAD
	<node lat="59.863102780002876" lon="11.069283328989744" id="-15036">
		<tag k="name" v="Isdalen" />
=======
	<node id="-255347" lat="59.8899833307" lon="11.0775444381">
		<tag k="name" v="Storkleiva" />
>>>>>>> e1d4bc35ff8a6074a6f2e91616a996b547c36f15
		<tag k="natural" v="valley" />
		<tag k="place" v="locality" />
		<tag k="ssr:stedsnr" v="934635" />
	</node>
<<<<<<< HEAD
	<node lat="59.93319999754683" lon="11.041927784278645" id="-15040">
		<tag k="alt_name" v="Rælingåsen" />
=======
	<node id="-255346" lat="59.881530552" lon="11.087238892">
>>>>>>> e1d4bc35ff8a6074a6f2e91616a996b547c36f15
		<tag k="fixme" v="consider natural=peak for the most distinct mountains in the district" />
		<tag k="name" v="Rælingsåsen" />
		<tag k="natural" v="hill" />
		<tag k="place" v="locality" />
		<tag k="ssr:stedsnr" v="4001" />
	</node>
<<<<<<< HEAD
	<node lat="59.887544443962256" lon="11.019816665427008" id="-15043">
		<tag k="name" v="Slåssmyrdalen" />
=======
	<node id="-255340" lat="59.9350805525" lon="11.0603138922">
		<tag k="name" v="Lognsdalen" />
>>>>>>> e1d4bc35ff8a6074a6f2e91616a996b547c36f15
		<tag k="natural" v="valley" />
		<tag k="place" v="locality" />
		<tag k="ssr:stedsnr" v="23595" />
	</node>
<<<<<<< HEAD
	<node lat="59.94819444588456" lon="11.042219446584017" id="-15046">
		<tag k="name" v="Haugen" />
=======
	<node id="-255328" lat="59.8408027769" lon="11.0405305574">
		<tag k="fixme" v="consider natural=peak for the most distinct mountains in the district" />
		<tag k="name" v="Høgkollen" />
>>>>>>> e1d4bc35ff8a6074a6f2e91616a996b547c36f15
		<tag k="natural" v="hill" />
		<tag k="place" v="locality" />
		<tag k="ssr:stedsnr" v="23769" />
	</node>
<<<<<<< HEAD
	<node lat="59.869511107927245" lon="11.066516669031449" id="-15047">
=======
	<node id="-255325" lat="59.8606833328" lon="11.0863777723">
>>>>>>> e1d4bc35ff8a6074a6f2e91616a996b547c36f15
		<tag k="fixme" v="consider natural=peak for the most distinct mountains in the district" />
		<tag k="name" v="Velbråtaåsen" />
		<tag k="natural" v="hill" />
		<tag k="place" v="locality" />
		<tag k="ssr:stedsnr" v="24670" />
	</node>
<<<<<<< HEAD
	<node lat="59.90371666562829" lon="11.040833330089882" id="-15052">
		<tag k="fixme" v="consider natural=peak for the most distinct mountains in the district" />
		<tag k="name" v="Ramstadslottet" />
		<tag k="natural" v="hill" />
=======
	<node id="-255323" lat="59.8597305543" lon="11.0774361156">
		<tag k="name" v="Fjelldalen" />
		<tag k="natural" v="valley" />
>>>>>>> e1d4bc35ff8a6074a6f2e91616a996b547c36f15
		<tag k="place" v="locality" />
		<tag k="ssr:stedsnr" v="66071" />
	</node>
<<<<<<< HEAD
	<node lat="59.8398055521141" lon="11.059155557115014" id="-15054">
		<tag k="fixme" v="consider natural=peak for the most distinct mountains in the district" />
		<tag k="name" v="Morttjernåsen" />
		<tag k="natural" v="hill" />
=======
	<node id="-255322" lat="59.8515777802" lon="11.0803416587">
		<tag k="name" v="Korsveihøgdene" />
		<tag k="natural" v="ridge" />
>>>>>>> e1d4bc35ff8a6074a6f2e91616a996b547c36f15
		<tag k="place" v="locality" />
		<tag k="ssr:stedsnr" v="84552" />
	</node>
<<<<<<< HEAD
	<node lat="59.88343055782613" lon="11.049791674954777" id="-15057">
=======
	<node id="-255320" lat="59.9407638923" lon="11.0178416653">
>>>>>>> e1d4bc35ff8a6074a6f2e91616a996b547c36f15
		<tag k="fixme" v="consider natural=peak for the most distinct mountains in the district" />
		<tag k="name" v="Petteråsen" />
		<tag k="natural" v="hill" />
		<tag k="place" v="locality" />
		<tag k="ssr:stedsnr" v="84569" />
	</node>
<<<<<<< HEAD
	<node lat="59.85536110776795" lon="11.047247223425513" id="-15058">
		<tag k="name" v="Auretjerndalen" />
		<tag k="natural" v="valley" />
=======
	<node id="-255318" lat="59.9188782526" lon="11.0466773313">
		<tag k="alt_name" v="Marikollenslottet" />
		<tag k="name" v="Marikollslottet" />
		<tag k="natural" v="hill" />
>>>>>>> e1d4bc35ff8a6074a6f2e91616a996b547c36f15
		<tag k="place" v="locality" />
		<tag k="ssr:stedsnr" v="84571" />
	</node>
<<<<<<< HEAD
	<node lat="59.91711388907068" lon="11.063452774492879" id="-15067">
		<tag k="name" v="Fjerdingbyhøgda" />
=======
	<node id="-255301" lat="59.8487249966" lon="11.0356777749">
		<tag k="name" v="Falkehøgda" />
>>>>>>> e1d4bc35ff8a6074a6f2e91616a996b547c36f15
		<tag k="natural" v="hill" />
		<tag k="place" v="locality" />
		<tag k="ssr:stedsnr" v="84779" />
	</node>
<<<<<<< HEAD
	<node lat="59.868452776912896" lon="11.050416666912989" id="-15076">
		<tag k="name" v="Mørkåshøgda" />
=======
	<node id="-255296" lat="59.8955027812" lon="11.0589222265">
		<tag k="fixme" v="consider natural=peak for the most distinct mountains in the district" />
		<tag k="name" v="Hektnerhøgåsen" />
>>>>>>> e1d4bc35ff8a6074a6f2e91616a996b547c36f15
		<tag k="natural" v="hill" />
		<tag k="place" v="locality" />
		<tag k="ssr:stedsnr" v="144556" />
	</node>
<<<<<<< HEAD
	<node lat="59.89425833659835" lon="11.0257027822862" id="-15077">
=======
	<node id="-255289" lat="59.9119916648" lon="11.0859638878">
>>>>>>> e1d4bc35ff8a6074a6f2e91616a996b547c36f15
		<tag k="fixme" v="consider natural=peak for the most distinct mountains in the district" />
		<tag k="name" v="Skolemesteråsen" />
		<tag k="natural" v="hill" />
		<tag k="place" v="locality" />
		<tag k="ssr:stedsnr" v="144557" />
	</node>
<<<<<<< HEAD
	<node lat="59.90203720411424" lon="11.035671257288096" id="-15079">
		<tag k="alt_name" v="Barlinderåsen" />
=======
	<node id="-255282" lat="59.9258472248" lon="11.0467166648">
>>>>>>> e1d4bc35ff8a6074a6f2e91616a996b547c36f15
		<tag k="fixme" v="consider natural=peak for the most distinct mountains in the district" />
		<tag k="name" v="Barlindåsen" />
		<tag k="natural" v="hill" />
		<tag k="place" v="locality" />
<<<<<<< HEAD
		<tag k="ssr:stedsnr" v="144570" />
	</node>
	<node lat="59.840280556759325" lon="11.081477776163283" id="-15085">
=======
		<tag k="ssr:stedsnr" v="387585" />
	</node>
	<node id="-255269" lat="59.8516000032" lon="11.1018222196">
		<tag k="name" v="Bjørnmyrdalen" />
		<tag k="natural" v="valley" />
		<tag k="place" v="locality" />
		<tag k="ssr:stedsnr" v="327660" />
	</node>
	<node id="-255268" lat="59.8705388908" lon="11.0297694392">
>>>>>>> e1d4bc35ff8a6074a6f2e91616a996b547c36f15
		<tag k="fixme" v="consider natural=peak for the most distinct mountains in the district" />
		<tag k="name" v="Brasmetjernåsen" />
		<tag k="natural" v="hill" />
		<tag k="place" v="locality" />
		<tag k="ssr:stedsnr" v="144705" />
	</node>
<<<<<<< HEAD
	<node lat="59.87319444739616" lon="11.073611113900023" id="-15088">
=======
	<node id="-255255" lat="59.8845194436" lon="11.0722777793">
>>>>>>> e1d4bc35ff8a6074a6f2e91616a996b547c36f15
		<tag k="fixme" v="consider natural=peak for the most distinct mountains in the district" />
		<tag k="name" v="Gryteåsen" />
		<tag k="natural" v="hill" />
		<tag k="place" v="locality" />
<<<<<<< HEAD
		<tag k="ssr:stedsnr" v="145661" />
	</node>
	<node lat="59.89208333111128" lon="11.083502772378411" id="-15091">
=======
		<tag k="ssr:stedsnr" v="205730" />
	</node>
	<node id="-255251" lat="59.8791111146" lon="11.0326500043">
		<tag k="name" v="Badstudalen" />
		<tag k="natural" v="valley" />
		<tag k="place" v="locality" />
		<tag k="ssr:stedsnr" v="205595" />
	</node>
	<node id="-255243" lat="59.8920833311" lon="11.0835027724">
>>>>>>> e1d4bc35ff8a6074a6f2e91616a996b547c36f15
		<tag k="fixme" v="consider natural=peak for the most distinct mountains in the district" />
		<tag k="name" v="Sisselrudåsen" />
		<tag k="natural" v="hill" />
		<tag k="place" v="locality" />
		<tag k="ssr:stedsnr" v="186075" />
	</node>
<<<<<<< HEAD
	<node lat="59.925847224813246" lon="11.046716664794797" id="-15113">
=======
	<node id="-255237" lat="59.8402805568" lon="11.0814777762">
>>>>>>> e1d4bc35ff8a6074a6f2e91616a996b547c36f15
		<tag k="fixme" v="consider natural=peak for the most distinct mountains in the district" />
		<tag k="name" v="Brentås" />
		<tag k="natural" v="hill" />
		<tag k="place" v="locality" />
<<<<<<< HEAD
		<tag k="ssr:stedsnr" v="387585" />
	</node>
	<node lat="59.90632778091451" lon="11.0701333247589" id="-15114">
=======
		<tag k="ssr:stedsnr" v="144705" />
	</node>
	<node id="-255231" lat="59.9067583311" lon="11.0487555611">
		<tag k="name" v="Purkeryggen" />
		<tag k="natural" v="ridge" />
		<tag k="place" v="locality" />
		<tag k="ssr:stedsnr" v="144578" />
	</node>
	<node id="-255230" lat="59.9020372041" lon="11.0356712573">
		<tag k="alt_name" v="Barlinderåsen" />
>>>>>>> e1d4bc35ff8a6074a6f2e91616a996b547c36f15
		<tag k="fixme" v="consider natural=peak for the most distinct mountains in the district" />
		<tag k="name" v="Høgåsen" />
		<tag k="natural" v="hill" />
		<tag k="place" v="locality" />
		<tag k="ssr:stedsnr" v="387760" />
	</node>
<<<<<<< HEAD
	<node lat="59.90022222634667" lon="11.08008333903432" id="-15119">
=======
	<node id="-255228" lat="59.8942583366" lon="11.0257027823">
>>>>>>> e1d4bc35ff8a6074a6f2e91616a996b547c36f15
		<tag k="fixme" v="consider natural=peak for the most distinct mountains in the district" />
		<tag k="name" v="Nautåsen" />
		<tag k="natural" v="hill" />
		<tag k="place" v="locality" />
		<tag k="ssr:stedsnr" v="448795" />
	</node>
<<<<<<< HEAD
	<node lat="59.84872499657897" lon="11.035677774856234" id="-15129">
		<tag k="name" v="Falkehøgda" />
=======
	<node id="-255227" lat="59.8684527769" lon="11.0504166669">
		<tag k="name" v="Mørkåshøgda" />
>>>>>>> e1d4bc35ff8a6074a6f2e91616a996b547c36f15
		<tag k="natural" v="hill" />
		<tag k="place" v="locality" />
		<tag k="ssr:stedsnr" v="430233" />
	</node>
<<<<<<< HEAD
	<node lat="59.87232222037996" lon="11.046408342114095" id="-15132">
		<tag k="fixme" v="consider natural=peak for the most distinct mountains in the district" />
		<tag k="name" v="Regnåsen" />
=======
	<node id="-255207" lat="59.9171138891" lon="11.0634527745">
		<tag k="name" v="Fjerdingbyhøgda" />
>>>>>>> e1d4bc35ff8a6074a6f2e91616a996b547c36f15
		<tag k="natural" v="hill" />
		<tag k="place" v="locality" />
		<tag k="ssr:stedsnr" v="448562" />
	</node>
<<<<<<< HEAD
	<node lat="59.89956666397698" lon="11.10375278184428" id="-15137">
=======
	<node id="-255205" lat="59.9037166656" lon="11.0408333301">
>>>>>>> e1d4bc35ff8a6074a6f2e91616a996b547c36f15
		<tag k="fixme" v="consider natural=peak for the most distinct mountains in the district" />
		<tag k="name" v="Trollåsen" />
		<tag k="natural" v="hill" />
		<tag k="place" v="locality" />
		<tag k="ssr:stedsnr" v="448779" />
	</node>
<<<<<<< HEAD
	<node lat="59.92124999665686" lon="11.036558329632198" id="-15140">
=======
	<node id="-255201" lat="59.8695111079" lon="11.066516669">
>>>>>>> e1d4bc35ff8a6074a6f2e91616a996b547c36f15
		<tag k="fixme" v="consider natural=peak for the most distinct mountains in the district" />
		<tag k="name" v="Buåsen" />
		<tag k="natural" v="hill" />
		<tag k="place" v="locality" />
		<tag k="ssr:stedsnr" v="509516" />
	</node>
<<<<<<< HEAD
	<node lat="59.855877781251145" lon="11.068741666227993" id="-15142">
		<tag k="name" v="Bakhonkastet" />
		<tag k="natural" v="slope" />
=======
	<node id="-255200" lat="59.9208861073" lon="11.0699805529">
		<tag k="name" v="Oladalen" />
		<tag k="natural" v="valley" />
>>>>>>> e1d4bc35ff8a6074a6f2e91616a996b547c36f15
		<tag k="place" v="locality" />
		<tag k="ssr:stedsnr" v="509629" />
	</node>
<<<<<<< HEAD
	<node lat="59.8576138853003" lon="11.018563879796664" id="-15146">
		<tag k="fixme" v="consider natural=peak for the most distinct mountains in the district" />
		<tag k="name" v="Haraåsen" />
		<tag k="natural" v="hill" />
		<tag k="place" v="locality" />
		<tag k="ssr:stedsnr" v="509471" />
	</node>
	<node lat="59.889241670647934" lon="11.047475002664669" id="-15148">
=======
	<node id="-255195" lat="59.9481944459" lon="11.0422194466">
		<tag k="name" v="Haugen" />
		<tag k="natural" v="hill" />
		<tag k="place" v="locality" />
		<tag k="ssr:stedsnr" v="23769" />
	</node>
	<node id="-255192" lat="59.887544444" lon="11.0198166654">
		<tag k="name" v="Slåssmyrdalen" />
		<tag k="natural" v="valley" />
		<tag k="place" v="locality" />
		<tag k="ssr:stedsnr" v="23595" />
	</node>
	<node id="-255190" lat="59.8354416671" lon="11.0973138928">
>>>>>>> e1d4bc35ff8a6074a6f2e91616a996b547c36f15
		<tag k="fixme" v="consider natural=peak for the most distinct mountains in the district" />
		<tag k="name" v="Skurvåsen" />
		<tag k="natural" v="hill" />
		<tag k="place" v="locality" />
		<tag k="ssr:stedsnr" v="509493" />
	</node>
<<<<<<< HEAD
	<node lat="59.94076389229985" lon="11.017841665314558" id="-15162">
=======
	<node id="-255188" lat="59.9331999975" lon="11.0419277843">
		<tag k="alt_name" v="Rælingåsen" />
>>>>>>> e1d4bc35ff8a6074a6f2e91616a996b547c36f15
		<tag k="fixme" v="consider natural=peak for the most distinct mountains in the district" />
		<tag k="name" v="Bassengåsen" />
		<tag k="natural" v="hill" />
		<tag k="place" v="locality" />
		<tag k="ssr:stedsnr" v="569675" />
	</node>
<<<<<<< HEAD
	<node lat="59.851577780180264" lon="11.080341658733573" id="-15164">
		<tag k="name" v="Korsveihøgdene" />
		<tag k="natural" v="ridge" />
=======
	<node id="-255184" lat="59.9437083366" lon="11.0247611144">
		<tag k="name" v="Setersletta" />
>>>>>>> e1d4bc35ff8a6074a6f2e91616a996b547c36f15
		<tag k="place" v="locality" />
		<tag k="ssr:stedsnr" v="569684" />
	</node>
<<<<<<< HEAD
	<node lat="59.86068333276213" lon="11.086377772340505" id="-15166">
		<tag k="fixme" v="consider natural=peak for the most distinct mountains in the district" />
		<tag k="name" v="Splinteråsen" />
		<tag k="natural" v="hill" />
=======
	<node id="-255182" lat="59.8822249965" lon="11.0556166664">
		<tag k="name" v="Stabburdalen" />
		<tag k="natural" v="valley" />
>>>>>>> e1d4bc35ff8a6074a6f2e91616a996b547c36f15
		<tag k="place" v="locality" />
		<tag k="ssr:stedsnr" v="570636" />
	</node>
<<<<<<< HEAD
	<node lat="59.857313887251024" lon="11.03236388355899" id="-15182">
=======
	<node id="-255174" lat="59.9147666709" lon="11.0712527712">
>>>>>>> e1d4bc35ff8a6074a6f2e91616a996b547c36f15
		<tag k="fixme" v="consider natural=peak for the most distinct mountains in the district" />
		<tag k="name" v="Bjørntjernåsen" />
		<tag k="natural" v="hill" />
		<tag k="place" v="locality" />
		<tag k="ssr:stedsnr" v="733209" />
	</node>
<<<<<<< HEAD
	<node lat="59.94364444588755" lon="11.029855552733304" id="-15189">
		<tag k="name" v="Furukollen" />
		<tag k="natural" v="hill" />
=======
	<node id="-255173" lat="59.8941388919" lon="11.0880861163">
		<tag k="name" v="Vestegardssletta" />
>>>>>>> e1d4bc35ff8a6074a6f2e91616a996b547c36f15
		<tag k="place" v="locality" />
		<tag k="ssr:stedsnr" v="751772" />
	</node>
<<<<<<< HEAD
	<node lat="59.86435278023702" lon="11.071994449727482" id="-15192">
		<tag k="name" v="Fremste Isdalshøgda" />
		<tag k="natural" v="hill" />
=======
	<node id="-255172" lat="59.8945138906" lon="11.1092472295">
		<tag k="name" v="Steinhølet" />
		<tag k="natural" v="valley" />
>>>>>>> e1d4bc35ff8a6074a6f2e91616a996b547c36f15
		<tag k="place" v="locality" />
		<tag k="ssr:stedsnr" v="752634" />
	</node>
<<<<<<< HEAD
	<node lat="59.928802778946945" lon="11.04462777317537" id="-15201">
		<tag k="name" v="Åshøgda" />
		<tag k="natural" v="hill" />
=======
	<node id="-255171" lat="59.8487055575" lon="11.0909749916">
		<tag k="name" v="Kattuldalen" />
		<tag k="natural" v="valley" />
>>>>>>> e1d4bc35ff8a6074a6f2e91616a996b547c36f15
		<tag k="place" v="locality" />
		<tag k="ssr:stedsnr" v="812593" />
	</node>
	<node lat="59.88430277488498" lon="11.090530561582545" id="-15204">
		<tag k="fixme" v="consider natural=peak for the most distinct mountains in the district" />
		<tag k="name" v="Tveiteråsen" />
		<tag k="natural" v="hill" />
		<tag k="place" v="locality" />
		<tag k="ssr:stedsnr" v="812724" />
	</node>
<<<<<<< HEAD
	<node lat="59.918455555907215" lon="11.039002776397789" id="-15212">
=======
	<node id="-255164" lat="59.9184555559" lon="11.0390027764">
>>>>>>> e1d4bc35ff8a6074a6f2e91616a996b547c36f15
		<tag k="alt_name" v="Bjørnåsen" />
		<tag k="fixme" v="consider natural=peak for the most distinct mountains in the district" />
		<tag k="name" v="Bjønnåsen" />
		<tag k="natural" v="hill" />
		<tag k="place" v="locality" />
		<tag k="ssr:stedsnr" v="854085" />
	</node>
<<<<<<< HEAD
	<node lat="59.87428055194633" lon="11.052605559775904" id="-15213">
=======
	<node id="-255163" lat="59.8742805519" lon="11.0526055598">
>>>>>>> e1d4bc35ff8a6074a6f2e91616a996b547c36f15
		<tag k="fixme" v="consider natural=peak for the most distinct mountains in the district" />
		<tag k="name" v="Langmyråsen" />
		<tag k="natural" v="hill" />
		<tag k="place" v="locality" />
		<tag k="ssr:stedsnr" v="854175" />
	</node>
<<<<<<< HEAD
	<node lat="59.914766670855514" lon="11.071252771247496" id="-15215">
=======
	<node id="-255160" lat="59.878477777" lon="11.0708694446">
>>>>>>> e1d4bc35ff8a6074a6f2e91616a996b547c36f15
		<tag k="fixme" v="consider natural=peak for the most distinct mountains in the district" />
		<tag k="name" v="Hansefellåsen" />
		<tag k="natural" v="hill" />
		<tag k="place" v="locality" />
		<tag k="ssr:stedsnr" v="873718" />
	</node>
<<<<<<< HEAD
	<node lat="59.84870555753017" lon="11.090974991550548" id="-15223">
		<tag k="name" v="Kattuldalen" />
		<tag k="natural" v="valley" />
		<tag k="place" v="locality" />
		<tag k="ssr:stedsnr" v="873659" />
	</node>
	<node lat="59.89451389055407" lon="11.109247229450403" id="-15224">
		<tag k="name" v="Steinhølet" />
		<tag k="natural" v="valley" />
=======
	<node id="-255159" lat="59.86310278" lon="11.069283329">
		<tag k="name" v="Isdalen" />
		<tag k="natural" v="valley" />
		<tag k="place" v="locality" />
		<tag k="ssr:stedsnr" v="934635" />
	</node>
	<node id="-255156" lat="59.8853527794" lon="11.0252250059">
		<tag k="fixme" v="consider natural=peak for the most distinct mountains in the district" />
		<tag k="name" v="Hukåsen" />
		<tag k="natural" v="hill" />
		<tag k="place" v="locality" />
		<tag k="ssr:stedsnr" v="934479" />
	</node>
	<node id="-255155" lat="59.8654416701" lon="11.0349333341">
		<tag k="name" v="Jaertangene" />
		<tag k="natural" v="hill" />
>>>>>>> e1d4bc35ff8a6074a6f2e91616a996b547c36f15
		<tag k="place" v="locality" />
		<tag k="ssr:stedsnr" v="873662" />
	</node>
<<<<<<< HEAD
	<node lat="59.89413889190941" lon="11.088086116259696" id="-15225">
		<tag k="name" v="Vestegardssletta" />
=======
	<node id="-255154" lat="59.8390749973" lon="11.0334499962">
		<tag k="fixme" v="consider natural=peak for the most distinct mountains in the district" />
		<tag k="name" v="Ørnåsen" />
		<tag k="natural" v="hill" />
>>>>>>> e1d4bc35ff8a6074a6f2e91616a996b547c36f15
		<tag k="place" v="locality" />
		<tag k="ssr:stedsnr" v="873664" />
	</node>
<<<<<<< HEAD
	<node lat="59.84143333660095" lon="11.069213884776651" id="-15230">
		<tag k="name" v="Festningsdalen" />
		<tag k="natural" v="valley" />
=======
	<node id="-255137" lat="59.8573138873" lon="11.0323638836">
		<tag k="fixme" v="consider natural=peak for the most distinct mountains in the district" />
		<tag k="name" v="Bjørntjernåsen" />
		<tag k="natural" v="hill" />
>>>>>>> e1d4bc35ff8a6074a6f2e91616a996b547c36f15
		<tag k="place" v="locality" />
		<tag k="ssr:stedsnr" v="873652" />
	</node>
<<<<<<< HEAD
	<node lat="59.92599166311622" lon="11.063777771508766" id="-15231">
		<tag k="name" v="Bjørnholthagan" />
		<tag k="natural" v="hill" />
		<tag k="place" v="locality" />
		<tag k="ssr:stedsnr" v="874589" />
	</node>
	<node lat="59.862591668504066" lon="11.066008340583611" id="-15234">
		<tag k="name" v="Indre Isdalshøgda" />
=======
	<node id="-255119" lat="59.9069527759" lon="11.061650001">
		<tag k="fixme" v="consider natural=peak for the most distinct mountains in the district" />
		<tag k="name" v="Langmyråsen" />
		<tag k="natural" v="hill" />
		<tag k="place" v="locality" />
		<tag k="ssr:stedsnr" v="691735" />
	</node>
	<node id="-255112" lat="59.8938388874" lon="11.0211194491">
		<tag k="name" v="Isdalen" />
		<tag k="natural" v="valley" />
		<tag k="place" v="locality" />
		<tag k="ssr:stedsnr" v="691538" />
	</node>
	<node id="-255111" lat="59.9019611078" lon="11.0253694472">
		<tag k="fixme" v="consider natural=peak for the most distinct mountains in the district" />
		<tag k="name" v="Skolemesteren" />
>>>>>>> e1d4bc35ff8a6074a6f2e91616a996b547c36f15
		<tag k="natural" v="hill" />
		<tag k="place" v="locality" />
		<tag k="ssr:stedsnr" v="874684" />
	</node>
	<node id="-255105" lat="59.9128361097" lon="11.0807444409">
		<tag k="fixme" v="consider natural=peak for the most distinct mountains in the district" />
		<tag k="name" v="Sørliåsen" />
		<tag k="natural" v="hill" />
		<tag k="place" v="locality" />
		<tag k="ssr:stedsnr" v="509708" />
	</node>
	<node id="-255104" lat="59.8576138853" lon="11.0185638798">
		<tag k="fixme" v="consider natural=peak for the most distinct mountains in the district" />
		<tag k="name" v="Haraåsen" />
		<tag k="natural" v="hill" />
		<tag k="place" v="locality" />
		<tag k="ssr:stedsnr" v="509471" />
	</node>
	<node id="-255102" lat="59.9212499967" lon="11.0365583296">
		<tag k="fixme" v="consider natural=peak for the most distinct mountains in the district" />
		<tag k="name" v="Buåsen" />
		<tag k="natural" v="hill" />
		<tag k="place" v="locality" />
		<tag k="ssr:stedsnr" v="509516" />
	</node>
	<node id="-255101" lat="59.8644083304" lon="11.0419138923">
		<tag k="name" v="Byttingsdalen" />
		<tag k="natural" v="valley" />
		<tag k="place" v="locality" />
		<tag k="ssr:stedsnr" v="509504" />
	</node>
	<node id="-255090" lat="59.9031277813" lon="11.0517027826">
		<tag k="name" v="Brudalen" />
		<tag k="natural" v="valley" />
		<tag k="place" v="locality" />
		<tag k="ssr:stedsnr" v="672068" />
	</node>
	<node id="-255081" lat="59.9190555555" lon="11.0509694448">
		<tag k="name" v="Marikollen" />
		<tag k="natural" v="hill" />
		<tag k="place" v="locality" />
		<tag k="ssr:stedsnr" v="429104" />
	</node>
	<node id="-255076" lat="59.8558777813" lon="11.0687416662">
		<tag k="name" v="Bakhonkastet" />
		<tag k="natural" v="slope" />
		<tag k="place" v="locality" />
		<tag k="ssr:stedsnr" v="509629" />
	</node>
	<node id="-255066" lat="59.8892416706" lon="11.0474750027">
		<tag k="fixme" v="consider natural=peak for the most distinct mountains in the district" />
		<tag k="name" v="Skurvåsen" />
		<tag k="natural" v="hill" />
		<tag k="place" v="locality" />
		<tag k="ssr:stedsnr" v="509493" />
	</node>
	<node id="-255061" lat="59.9063277809" lon="11.0701333248">
		<tag k="fixme" v="consider natural=peak for the most distinct mountains in the district" />
		<tag k="name" v="Høgåsen" />
		<tag k="natural" v="hill" />
		<tag k="place" v="locality" />
		<tag k="ssr:stedsnr" v="387760" />
	</node>
	<node id="-255060" lat="59.870138893" lon="11.0530805637">
		<tag k="fixme" v="consider natural=peak for the most distinct mountains in the district" />
		<tag k="name" v="Baråsen" />
		<tag k="natural" v="hill" />
		<tag k="place" v="locality" />
		<tag k="ssr:stedsnr" v="387564" />
	</node>
	<node id="-255057" lat="59.8727361134" lon="11.0241749934">
		<tag k="name" v="Jonsokhøgda" />
		<tag k="natural" v="hill" />
		<tag k="place" v="locality" />
		<tag k="ssr:stedsnr" v="368207" />
	</node>
	<node id="-255055" lat="59.8847749971" lon="11.0346833381">
		<tag k="alt_name" v="Snelleåsen" />
		<tag k="fixme" v="consider natural=peak for the most distinct mountains in the district" />
		<tag k="name" v="Snellås" />
		<tag k="natural" v="hill" />
		<tag k="place" v="locality" />
		<tag k="ssr:stedsnr" v="490166" />
	</node>
	<node id="-255053" lat="59.9028833361" lon="11.0731638812">
		<tag k="fixme" v="consider natural=peak for the most distinct mountains in the district" />
		<tag k="name" v="Trestilåsen" />
		<tag k="natural" v="hill" />
		<tag k="place" v="locality" />
		<tag k="ssr:stedsnr" v="490074" />
	</node>
	<node id="-255049" lat="59.9143083374" lon="11.0333555577">
		<tag k="fixme" v="consider natural=peak for the most distinct mountains in the district" />
		<tag k="name" v="Maråsen" />
		<tag k="natural" v="hill" />
		<tag k="place" v="locality" />
		<tag k="ssr:stedsnr" v="327523" />
	</node>
	<node id="-255047" lat="59.8679527812" lon="11.0839333371">
		<tag k="name" v="Sjudråga" />
		<tag k="natural" v="valley" />
		<tag k="place" v="locality" />
		<tag k="ssr:stedsnr" v="267577" />
	</node>
	<node id="-255045" lat="59.9002222263" lon="11.080083339">
		<tag k="fixme" v="consider natural=peak for the most distinct mountains in the district" />
		<tag k="name" v="Nautåsen" />
		<tag k="natural" v="hill" />
		<tag k="place" v="locality" />
		<tag k="ssr:stedsnr" v="448795" />
	</node>
	<node id="-255044" lat="59.899566664" lon="11.1037527818">
		<tag k="fixme" v="consider natural=peak for the most distinct mountains in the district" />
		<tag k="name" v="Trollåsen" />
		<tag k="natural" v="hill" />
		<tag k="place" v="locality" />
		<tag k="ssr:stedsnr" v="448779" />
	</node>
	<node id="-255037" lat="59.8874083327" lon="11.071280561">
		<tag k="fixme" v="consider natural=peak for the most distinct mountains in the district" />
		<tag k="name" v="Korpåsen" />
		<tag k="natural" v="hill" />
		<tag k="place" v="locality" />
		<tag k="ssr:stedsnr" v="448733" />
	</node>
	<node id="-255033" lat="59.8723222204" lon="11.0464083421">
		<tag k="fixme" v="consider natural=peak for the most distinct mountains in the district" />
		<tag k="name" v="Regnåsen" />
		<tag k="natural" v="hill" />
		<tag k="place" v="locality" />
		<tag k="ssr:stedsnr" v="448562" />
	</node>
	<node id="-255030" lat="59.8710694484" lon="11.0645027759">
		<tag k="fixme" v="consider natural=peak for the most distinct mountains in the district" />
		<tag k="name" v="Seteråsen" />
		<tag k="natural" v="hill" />
		<tag k="place" v="locality" />
		<tag k="ssr:stedsnr" v="145664" />
	</node>
	<node id="-255029" lat="59.8731944474" lon="11.0736111139">
		<tag k="fixme" v="consider natural=peak for the most distinct mountains in the district" />
		<tag k="name" v="Gryteåsen" />
		<tag k="natural" v="hill" />
		<tag k="place" v="locality" />
		<tag k="ssr:stedsnr" v="145661" />
	</node>
	<node id="-255028" lat="59.8598916667" lon="11.0747111051">
		<tag k="name" v="Sjødalen" />
		<tag k="natural" v="valley" />
		<tag k="place" v="locality" />
		<tag k="ssr:stedsnr" v="145657" />
	</node>
	<node id="-255019" lat="59.8881694452" lon="11.0872916711">
		<tag k="name" v="Veslekleiva" />
		<tag k="natural" v="valley" />
		<tag k="place" v="locality" />
		<tag k="ssr:stedsnr" v="266687" />
	</node>
	<node id="-255017" lat="59.8402638873" lon="11.0970944355">
		<tag k="fixme" v="consider natural=peak for the most distinct mountains in the district" />
		<tag k="name" v="Elggrasåsen" />
		<tag k="natural" v="hill" />
		<tag k="place" v="locality" />
		<tag k="ssr:stedsnr" v="266667" />
	</node>
	<node id="-255006" lat="59.8553611078" lon="11.0472472234">
		<tag k="name" v="Auretjerndalen" />
		<tag k="natural" v="valley" />
		<tag k="place" v="locality" />
		<tag k="ssr:stedsnr" v="84571" />
	</node>
	<node id="-255005" lat="59.8834305578" lon="11.049791675">
		<tag k="fixme" v="consider natural=peak for the most distinct mountains in the district" />
		<tag k="name" v="Petteråsen" />
		<tag k="natural" v="hill" />
		<tag k="place" v="locality" />
		<tag k="ssr:stedsnr" v="84569" />
	</node>
	<node id="-255002" lat="59.8398055521" lon="11.0591555571">
		<tag k="fixme" v="consider natural=peak for the most distinct mountains in the district" />
		<tag k="name" v="Morttjernåsen" />
		<tag k="natural" v="hill" />
		<tag k="place" v="locality" />
		<tag k="ssr:stedsnr" v="84552" />
	</node>
	<node id="-254997" lat="59.865486113" lon="11.0647472247">
		<tag k="alt_name" v="Tjuvestuåsen" />
		<tag k="fixme" v="consider natural=peak for the most distinct mountains in the district" />
		<tag k="name" v="Tjuvstuåsen" />
		<tag k="natural" v="hill" />
		<tag k="place" v="locality" />
		<tag k="ssr:stedsnr" v="247150" />
	</node>
	<node id="-254985" lat="59.8666277763" lon="11.0819749947">
		<tag k="name" v="Hurtigdråga" />
		<tag k="natural" v="valley" />
		<tag k="place" v="locality" />
		<tag k="ssr:stedsnr" v="24603" />
	</node>
	<node id="-254983" lat="59.845863885" lon="11.067827785">
		<tag k="fixme" v="consider natural=peak for the most distinct mountains in the district" />
		<tag k="name" v="Svarttjernåsen" />
		<tag k="natural" v="hill" />
		<tag k="place" v="locality" />
		<tag k="ssr:stedsnr" v="23710" />
	</node>
</osm>
