<?xml version="1.0" encoding="UTF-8"?>
<<<<<<< HEAD
<osm version="0.6" generator="osmapis">
	<node lat="59.89466944725324" lon="11.114066660557846" id="-14823">
		<tag k="name" v="Buret" />
		<tag k="place" v="hamlet" />
		<tag k="ssr:stedsnr" v="23680" />
	</node>
	<node lat="59.922430552224824" lon="11.077869440910243" id="-14824">
		<tag k="name" v="Nordgarden" />
		<tag k="place" v="farm" />
		<tag k="ssr:stedsnr" v="24579" />
	</node>
	<node lat="59.91232874427004" lon="11.091365808754691" id="-14829">
		<tag k="fixme" v="consider place=hamlet" />
		<tag k="name" v="Holt" />
		<tag k="place" v="farm" />
		<tag k="ssr:stedsnr" v="65102" />
	</node>
	<node lat="59.901875002446836" lon="11.091977780058786" id="-14831">
		<tag k="alt_name" v="Flateby" />
		<tag k="name" v="Flatby" />
		<tag k="place" v="farm" />
		<tag k="ssr:stedsnr" v="65632" />
	</node>
	<node lat="59.877647225294055" lon="11.093291658256785" id="-14832">
		<tag k="alt_name" v="Grini Øststua" />
		<tag k="name" v="Grini" />
		<tag k="place" v="farm" />
		<tag k="ssr:stedsnr" v="66501" />
	</node>
	<node lat="59.87820833151967" lon="11.089727780309277" id="-14833">
		<tag k="name" v="Øvergarden" />
		<tag k="place" v="farm" />
		<tag k="ssr:stedsnr" v="84678" />
	</node>
	<node lat="59.923713889453225" lon="11.068944452188267" id="-14834">
		<tag k="amenity" v="school" />
		<tag k="name" v="Fjerdingby skole" />
		<tag k="ssr:stedsnr" v="85491" />
	</node>
	<node lat="59.919852776586765" lon="11.081855558673197" id="-14835">
		<tag k="name" v="Søgarden" />
		<tag k="place" v="farm" />
		<tag k="ssr:stedsnr" v="85492" />
	</node>
	<node lat="59.927083335159196" lon="11.077024992057" id="-14843">
		<tag k="name" v="Lund" />
		<tag k="place" v="farm" />
		<tag k="ssr:stedsnr" v="125005" />
	</node>
	<node lat="59.89975277634145" lon="11.093111105061572" id="-14844">
		<tag k="name" v="Slette" />
		<tag k="old_name" v="Stette" />
		<tag k="place" v="isolated_dwelling" />
		<tag k="ssr:stedsnr" v="125656" />
	</node>
	<node lat="59.93604454955581" lon="11.065468027635063" id="-14845">
		<tag k="name" v="Åmot" />
		<tag k="place" v="hamlet" />
		<tag k="ssr:stedsnr" v="126060" />
	</node>
	<node lat="59.91630277949442" lon="11.086850008857406" id="-14846">
		<tag k="name" v="Haugen" />
		<tag k="place" v="farm" />
		<tag k="ssr:stedsnr" v="126101" />
	</node>
	<node lat="59.885714157899926" lon="11.103772093421664" id="-14847">
		<tag k="name" v="Tveiter" />
		<tag k="place" v="hamlet" />
		<tag k="ssr:stedsnr" v="126648" />
	</node>
	<node lat="59.905838886670715" lon="11.10374445174236" id="-14849">
		<tag k="name" v="Støa" />
		<tag k="place" v="farm" />
		<tag k="ssr:stedsnr" v="144748" />
	</node>
	<node lat="59.86099444789655" lon="11.093355554339203" id="-14851">
		<tag k="name" v="Fjellstad" />
		<tag k="place" v="hamlet" />
		<tag k="ssr:stedsnr" v="145609" />
	</node>
	<node lat="59.870905552609905" lon="11.091850001606346" id="-14852">
		<tag k="name" v="Opphaugen" />
		<tag k="place" v="farm" />
		<tag k="ssr:stedsnr" v="145614" />
	</node>
	<node lat="59.90190367659715" lon="11.100394682426039" id="-14856">
		<tag k="fixme" v="consider place=hamlet" />
		<tag k="name" v="Støtterud" />
		<tag k="place" v="farm" />
		<tag k="ssr:stedsnr" v="186677" />
	</node>
	<node lat="59.93350030717238" lon="11.031768521373296" id="-14860">
		<tag k="amenity" v="sports_centre" />
		<tag k="name" v="Sandbekkhallen" />
		<tag k="ssr:stedsnr" v="266546" />
	</node>
	<node lat="59.85797499702318" lon="11.104316671891" id="-14865">
		<tag k="name" v="Sør-Uller" />
		<tag k="place" v="farm" />
		<tag k="ssr:stedsnr" v="267599" />
	</node>
	<node lat="59.85329444666924" lon="11.102366674928401" id="-14869">
		<tag k="name" v="Smedbakken" />
		<tag k="place" v="locality" />
		<tag k="ssr:stedsnr" v="205726" />
	</node>
	<node lat="59.875388891667065" lon="11.101883327185526" id="-14872">
		<tag k="name" v="Søstua Nes" />
		<tag k="place" v="farm" />
		<tag k="ssr:stedsnr" v="205699" />
	</node>
	<node lat="59.924111107197206" lon="11.062819437068448" id="-14876">
		<tag k="amenity" v="school" />
		<tag k="name" v="Marikollen ungdomsskole" />
		<tag k="ssr:stedsnr" v="449565" />
	</node>
	<node lat="59.87103055132363" lon="11.089016663240633" id="-14877">
		<tag k="alt_name" v="Hestløkka" />
		<tag k="name" v="Hesteløkka" />
		<tag k="place" v="isolated_dwelling" />
		<tag k="ssr:stedsnr" v="247118" />
	</node>
	<node lat="59.87745291112854" lon="11.0906510245542" id="-14878">
		<tag k="fixme" v="consider place=hamlet" />
		<tag k="name" v="Grini" />
		<tag k="place" v="farm" />
		<tag k="ssr:stedsnr" v="247120" />
	</node>
	<node lat="59.933011106998144" lon="11.074877781676001" id="-14881">
		<tag k="name" v="Bålsrud" />
		<tag k="place" v="farm" />
		<tag k="ssr:stedsnr" v="267533" />
	</node>
	<node lat="59.9356799125254" lon="11.06342334388375" id="-14882">
		<tag k="name" v="Øvre Åmot" />
		<tag k="place" v="farm" />
		<tag k="ssr:stedsnr" v="267537" />
	</node>
	<node lat="59.90594722064675" lon="11.091819452278154" id="-14891">
		<tag k="name" v="Myrvoll" />
		<tag k="place" v="hamlet" />
		<tag k="ssr:stedsnr" v="327711" />
	</node>
	<node lat="59.92249214176443" lon="11.072521695516114" id="-14895">
		<tag k="name" v="Hauger" />
		<tag k="place" v="farm" />
		<tag k="ssr:stedsnr" v="368123" />
	</node>
	<node lat="59.94544722394809" lon="11.042686109465325" id="-14902">
		<tag k="amenity" v="school" />
		<tag k="name" v="Rud skole" />
		<tag k="ssr:stedsnr" v="387696" />
	</node>
	<node lat="59.87067499860608" lon="11.096061114347403" id="-14905">
		<tag k="name" v="Svingen" />
		<tag k="place" v="farm" />
		<tag k="ssr:stedsnr" v="388596" />
	</node>
	<node lat="59.86859166796959" lon="11.095700008975529" id="-14906">
		<tag k="name" v="Kikut" />
		<tag k="place" v="isolated_dwelling" />
		<tag k="ssr:stedsnr" v="388603" />
	</node>
	<node lat="59.947160968654956" lon="11.04031612875618" id="-14909">
		<tag k="fixme" v="consider place=hamlet" />
		<tag k="name" v="Rud" />
		<tag k="place" v="farm" />
		<tag k="ssr:stedsnr" v="490051" />
	</node>
	<node lat="59.9307055526567" lon="11.078577779946027" id="-14913">
		<tag k="name" v="Ensrud" />
=======
<osm generator="osmapis" version="0.6">
	<node id="-255399" lat="59.8785638891" lon="11.0834777716">
		<tag k="name" v="Grinibråtan" />
		<tag k="place" v="locality" />
		<tag k="ssr:stedsnr" v="874685" />
	</node>
	<node id="-255397" lat="59.8623166628" lon="11.1035333251">
		<tag k="name" v="Østby" />
		<tag k="place" v="isolated_dwelling" />
		<tag k="ssr:stedsnr" v="874636" />
	</node>
	<node id="-255396" lat="59.8591111093" lon="11.0931472233">
		<tag k="name" v="Løkka" />
		<tag k="place" v="hamlet" />
		<tag k="ssr:stedsnr" v="874629" />
	</node>
	<node id="-255389" lat="59.8778916696" lon="11.0423916651">
		<tag k="name" v="Romperud" />
		<tag k="place" v="locality" />
		<tag k="ssr:stedsnr" v="873390" />
	</node>
	<node id="-255388" lat="59.8588222224" lon="11.1033666664">
		<tag k="name" v="Stuetomta" />
>>>>>>> e1d4bc35ff8a6074a6f2e91616a996b547c36f15
		<tag k="place" v="isolated_dwelling" />
		<tag k="ssr:stedsnr" v="429007" />
	</node>
<<<<<<< HEAD
	<node lat="59.84547500155848" lon="11.02777500146183" id="-14916">
		<tag k="name" v="Bokhytta" />
		<tag k="place" v="isolated_dwelling" />
		<tag k="ssr:stedsnr" v="448427" />
	</node>
	<node lat="59.93813055415229" lon="11.04097221737261" id="-14917">
		<tag k="leisure" v="pitch" />
		<tag k="name" v="Stormyrbakken" />
		<tag k="ssr:stedsnr" v="448602" />
	</node>
	<node lat="59.8442250011442" lon="11.086388882577683" id="-14918">
		<tag k="name" v="Byseter" />
=======
	<node id="-255387" lat="59.8704638863" lon="11.083588893">
		<tag k="name" v="Oppvestby" />
		<tag k="place" v="hamlet" />
		<tag k="ssr:stedsnr" v="813596" />
	</node>
	<node id="-255383" lat="59.912438889" lon="11.0902444445">
		<tag k="name" v="Vestby" />
		<tag k="place" v="hamlet" />
		<tag k="ssr:stedsnr" v="812766" />
	</node>
	<node id="-255382" lat="59.9142444471" lon="11.0863388938">
		<tag k="name" v="Holthagan" />
>>>>>>> e1d4bc35ff8a6074a6f2e91616a996b547c36f15
		<tag k="place" v="locality" />
		<tag k="ssr:stedsnr" v="448727" />
	</node>
<<<<<<< HEAD
	<node lat="59.94834721850746" lon="11.03704999805478" id="-14920">
		<tag k="name" v="Strømsborg" />
		<tag k="place" v="quarter" />
		<tag k="ssr:stedsnr" v="448738" />
	</node>
	<node lat="59.86555833220378" lon="11.094180547521177" id="-14921">
		<tag k="amenity" v="school" />
		<tag k="name" v="Nordby skole" />
		<tag k="ssr:stedsnr" v="449613" />
	</node>
	<node lat="59.925436109751296" lon="11.058824993277941" id="-14923">
		<tag k="name" v="Korsvegen" />
=======
	<node id="-255381" lat="59.904308333" lon="11.0904694401">
		<tag k="name" v="Skoglund" />
		<tag k="place" v="farm" />
		<tag k="ssr:stedsnr" v="812756" />
	</node>
	<node id="-255376" lat="59.8837555576" lon="11.0966666756">
		<tag k="name" v="Nordstua Jaer" />
		<tag k="place" v="farm" />
		<tag k="ssr:stedsnr" v="812685" />
	</node>
	<node id="-255375" lat="59.8960250024" lon="11.1025527691">
		<tag k="name" v="Solbu" />
>>>>>>> e1d4bc35ff8a6074a6f2e91616a996b547c36f15
		<tag k="place" v="farm" />
		<tag k="ssr:stedsnr" v="672001" />
	</node>
<<<<<<< HEAD
	<node lat="59.88613333259931" lon="11.11233888719484" id="-14927">
		<tag k="alt_name" v="Tveiterhagan" />
		<tag k="building" v="industrial" />
		<tag k="industrial" v="factory" />
		<tag k="name" v="Tveiterhagen" />
		<tag k="ssr:stedsnr" v="672640" />
	</node>
	<node lat="59.93007499653758" lon="11.030252786219704" id="-14930">
		<tag k="name" v="Sandbekken" />
=======
	<node id="-255374" lat="59.9238805552" lon="11.0588916721">
		<tag k="leisure" v="pitch" />
		<tag k="name" v="Rælingen stadion" />
		<tag k="ssr:stedsnr" v="812598" />
	</node>
	<node id="-255372" lat="59.9335754669" lon="11.0298294798">
		<tag k="alt_name" v="Sandbekken ungd. skole" />
		<tag k="amenity" v="school" />
		<tag k="name" v="Sandbekken ungdomsskole" />
		<tag k="ssr:stedsnr" v="812585" />
	</node>
	<node id="-255364" lat="59.8951444476" lon="11.0480277744">
		<tag k="name" v="Kommunehytta" />
>>>>>>> e1d4bc35ff8a6074a6f2e91616a996b547c36f15
		<tag k="place" v="isolated_dwelling" />
		<tag k="ssr:stedsnr" v="490003" />
	</node>
<<<<<<< HEAD
	<node lat="59.93024722565287" lon="11.063138896758268" id="-14932">
		<tag k="alt_name" v="Sundhagan" />
		<tag k="name" v="Hagan" />
		<tag k="old_name" v="Hagen" />
		<tag k="place" v="isolated_dwelling" />
		<tag k="ssr:stedsnr" v="490001" />
	</node>
	<node lat="59.939255551231454" lon="11.063791664334785" id="-14934">
		<tag k="name" v="Nyland" />
		<tag k="place" v="hamlet" />
		<tag k="ssr:stedsnr" v="509556" />
	</node>
	<node lat="59.89562499918455" lon="11.112802772763434" id="-14936">
		<tag k="name" v="Trollykkja" />
		<tag k="place" v="hamlet" />
		<tag k="ssr:stedsnr" v="509607" />
	</node>
	<node lat="59.89591388777352" lon="11.092141658984753" id="-14937">
		<tag k="name" v="Solli" />
		<tag k="place" v="farm" />
		<tag k="ssr:stedsnr" v="509610" />
	</node>
	<node lat="59.893819442471695" lon="11.101011113038373" id="-14938">
		<tag k="name" v="Nordre Hektner" />
=======
	<node id="-255363" lat="59.8418166641" lon="11.1396972153">
		<tag k="name" v="Sofiedal" />
		<tag k="place" v="isolated_dwelling" />
		<tag k="ssr:stedsnr" v="794747" />
	</node>
	<node id="-255362" lat="59.8558944474" lon="11.1069055591">
		<tag k="name" v="By" />
		<tag k="place" v="farm" />
		<tag k="ssr:stedsnr" v="793741" />
	</node>
	<node id="-255361" lat="59.8601472187" lon="11.0983888913">
		<tag k="name" v="Karlstad" />
		<tag k="place" v="farm" />
		<tag k="ssr:stedsnr" v="793719" />
	</node>
	<node id="-255360" lat="59.8955305543" lon="11.1029277719">
		<tag k="name" v="Skogholt" />
		<tag k="place" v="farm" />
		<tag k="ssr:stedsnr" v="793674" />
	</node>
	<node id="-255355" lat="59.92566111" lon="11.070274999">
		<tag k="name" v="Bjørnholt" />
		<tag k="place" v="farm" />
		<tag k="ssr:stedsnr" v="793002" />
	</node>
	<node id="-255352" lat="59.8734555595" lon="11.0937916588">
		<tag k="name" v="Neshagan" />
		<tag k="place" v="locality" />
		<tag k="ssr:stedsnr" v="752594" />
	</node>
	<node id="-255351" lat="59.9370388932" lon="11.0648916674">
		<tag k="name" v="Nedre Åmot" />
>>>>>>> e1d4bc35ff8a6074a6f2e91616a996b547c36f15
		<tag k="place" v="farm" />
		<tag k="ssr:stedsnr" v="509613" />
	</node>
<<<<<<< HEAD
	<node lat="59.90133055440898" lon="11.092441658146585" id="-14940">
		<tag k="name" v="Oppsal" />
		<tag k="place" v="hamlet" />
		<tag k="ssr:stedsnr" v="509711" />
	</node>
	<node lat="59.92708333663772" lon="11.05980555325074" id="-14942">
		<tag k="alt_name" v="Nygard" />
		<tag k="name" v="Nygård" />
		<tag k="place" v="isolated_dwelling" />
		<tag k="ssr:stedsnr" v="550004" />
	</node>
	<node lat="59.93148337733065" lon="11.07787608328689" id="-14943">
		<tag k="fixme" v="consider place=hamlet" />
		<tag k="name" v="Sundet" />
		<tag k="place" v="farm" />
		<tag k="ssr:stedsnr" v="550008" />
	</node>
	<node lat="59.94787500353294" lon="11.030950005398923" id="-14944">
		<tag k="alt_name" v="Strøm, østre" />
		<tag k="name" v="Østre Strøm" />
=======
	<node id="-255349" lat="59.9433138922" lon="11.0564166662">
		<tag k="name" v="Borgen" />
		<tag k="place" v="hamlet" />
		<tag k="ssr:stedsnr" v="751729" />
	</node>
	<node id="-255348" lat="59.949924996" lon="11.0422444388">
		<tag k="name" v="Rudsberget" />
		<tag k="place" v="isolated_dwelling" />
		<tag k="ssr:stedsnr" v="751727" />
	</node>
	<node id="-255345" lat="59.8761805518" lon="11.0922638972">
		<tag k="alt_name" v="Grini Søgarden" />
		<tag k="name" v="Søgarden Grini" />
		<tag k="place" v="farm" />
		<tag k="ssr:stedsnr" v="751685" />
	</node>
	<node id="-255339" lat="59.9302277794" lon="11.0301194382">
		<tag k="name" v="Blystadhytta" />
		<tag k="place" v="isolated_dwelling" />
		<tag k="ssr:stedsnr" v="630494" />
	</node>
	<node id="-255335" lat="59.8481222211" lon="11.125069441">
		<tag k="name" v="Teigen" />
		<tag k="place" v="farm" />
		<tag k="ssr:stedsnr" v="611748" />
	</node>
	<node id="-255334" lat="59.8587877561" lon="11.104862923">
		<tag k="name" v="Uller" />
		<tag k="place" v="farm" />
		<tag k="ssr:stedsnr" v="611722" />
	</node>
	<node id="-255333" lat="59.8686166662" lon="11.1023694389">
		<tag k="building" v="industrial" />
		<tag k="industrial" v="factory" />
		<tag k="name" v="Nordby bruk" />
		<tag k="ssr:stedsnr" v="611700" />
	</node>
	<node id="-255332" lat="59.8901583326" lon="11.0988305622">
		<tag k="name" v="Østegarden" />
>>>>>>> e1d4bc35ff8a6074a6f2e91616a996b547c36f15
		<tag k="place" v="farm" />
		<tag k="ssr:stedsnr" v="550047" />
	</node>
<<<<<<< HEAD
	<node lat="59.8769750026944" lon="11.090624991855268" id="-14949">
		<tag k="name" v="Oppistua" />
=======
	<node id="-255330" lat="59.8879249985" lon="11.0905750016">
		<tag k="name" v="Ramstad" />
>>>>>>> e1d4bc35ff8a6074a6f2e91616a996b547c36f15
		<tag k="place" v="farm" />
		<tag k="ssr:stedsnr" v="691644" />
	</node>
<<<<<<< HEAD
	<node lat="59.921302774033904" lon="11.079886106540032" id="-14950">
		<tag k="name" v="Tajet" />
		<tag k="place" v="farm" />
		<tag k="ssr:stedsnr" v="692560" />
	</node>
	<node lat="59.88597499689722" lon="11.102449998533881" id="-14951">
=======
	<node id="-255327" lat="59.9483166699" lon="11.024494453">
		<tag k="alt_name" v="Strøm, vestre" />
		<tag k="name" v="Vestre Strøm" />
		<tag k="place" v="farm" />
		<tag k="ssr:stedsnr" v="611046" />
	</node>
	<node id="-255326" lat="59.9376222259" lon="11.0592249961">
		<tag k="name" v="Øgården" />
		<tag k="place" v="isolated_dwelling" />
		<tag k="ssr:stedsnr" v="611063" />
	</node>
	<node id="-255324" lat="59.8579388925" lon="11.0950555608">
		<tag k="name" v="Tomter" />
		<tag k="place" v="hamlet" />
		<tag k="ssr:stedsnr" v="570574" />
	</node>
	<node id="-255319" lat="59.8859749969" lon="11.1024499985">
>>>>>>> e1d4bc35ff8a6074a6f2e91616a996b547c36f15
		<tag k="name" v="Søstua Tveiter" />
		<tag k="place" v="farm" />
		<tag k="ssr:stedsnr" v="569655" />
	</node>
<<<<<<< HEAD
	<node lat="59.93410000336967" lon="11.060391664599717" id="-14953">
=======
	<node id="-255317" lat="59.9341000034" lon="11.0603916646">
>>>>>>> e1d4bc35ff8a6074a6f2e91616a996b547c36f15
		<tag k="fixme" v="consider place=suburb, village or hamlet" />
		<tag k="name" v="Norum" />
		<tag k="place" v="quarter" />
		<tag k="ssr:stedsnr" v="569557" />
	</node>
<<<<<<< HEAD
	<node lat="59.88867896752402" lon="11.092204212372042" id="-14956">
		<tag k="fixme" v="consider place=hamlet" />
		<tag k="name" v="Ramstad" />
=======
	<node id="-255316" lat="59.9366305584" lon="11.0278999998">
		<tag k="amenity" v="school" />
		<tag k="name" v="Løvenstad skole" />
		<tag k="ssr:stedsnr" v="569551" />
	</node>
	<node id="-255311" lat="59.8904750046" lon="11.0207499919">
		<tag k="name" v="Djupdalshytta" />
		<tag k="place" v="isolated_dwelling" />
		<tag k="ssr:stedsnr" v="551087" />
	</node>
	<node id="-255310" lat="59.8679249982" lon="11.0939638946">
		<tag k="name" v="Nordby" />
>>>>>>> e1d4bc35ff8a6074a6f2e91616a996b547c36f15
		<tag k="place" v="farm" />
		<tag k="ssr:stedsnr" v="611081" />
	</node>
<<<<<<< HEAD
	<node lat="59.890073129798104" lon="11.09964543612814" id="-14959">
		<tag k="fixme" v="consider place=hamlet" />
		<tag k="name" v="Østegarden" />
=======
	<node id="-255309" lat="59.8653833347" lon="11.1000638871">
		<tag k="alt_name" v="Tomta" />
		<tag k="name" v="Tomter" />
>>>>>>> e1d4bc35ff8a6074a6f2e91616a996b547c36f15
		<tag k="place" v="farm" />
		<tag k="ssr:stedsnr" v="611671" />
	</node>
<<<<<<< HEAD
	<node lat="59.85878775608062" lon="11.104862923022893" id="-14960">
		<tag k="fixme" v="consider place=hamlet" />
		<tag k="name" v="Uller" />
		<tag k="place" v="farm" />
		<tag k="ssr:stedsnr" v="611722" />
	</node>
	<node lat="59.848155524168554" lon="11.12535233388975" id="-14961">
		<tag k="fixme" v="consider place=hamlet" />
		<tag k="name" v="Teigen" />
		<tag k="place" v="farm" />
		<tag k="ssr:stedsnr" v="611748" />
	</node>
	<node lat="59.93022777941906" lon="11.030119438181075" id="-14962">
		<tag k="name" v="Blystadhytta" />
		<tag k="place" v="isolated_dwelling" />
		<tag k="ssr:stedsnr" v="630494" />
	</node>
	<node lat="59.94195000336734" lon="11.059197227961306" id="-14976">
		<tag k="name" v="Berg" />
		<tag k="place" v="hamlet" />
		<tag k="ssr:stedsnr" v="691697" />
	</node>
	<node lat="59.91228333304711" lon="11.081277780554526" id="-14978">
		<tag k="name" v="Sørli" />
		<tag k="place" v="farm" />
		<tag k="ssr:stedsnr" v="691724" />
	</node>
	<node lat="59.90520555272198" lon="11.097805558946895" id="-14979">
		<tag k="name" v="Søndre Smestad" />
=======
	<node id="-255308" lat="59.8986694436" lon="11.110536116">
		<tag k="name" v="Nordhagan" />
		<tag k="place" v="farm" />
		<tag k="ssr:stedsnr" v="550619" />
	</node>
	<node id="-255306" lat="59.8873416684" lon="11.047499995">
		<tag k="name" v="Hektnersetra" />
		<tag k="place" v="locality" />
		<tag k="ssr:stedsnr" v="550179" />
	</node>
	<node id="-255304" lat="59.9478750035" lon="11.0309500054">
		<tag k="alt_name" v="Strøm, østre" />
		<tag k="name" v="Østre Strøm" />
		<tag k="place" v="farm" />
		<tag k="ssr:stedsnr" v="550047" />
	</node>
	<node id="-255303" lat="59.9313083317" lon="11.0774000043">
		<tag k="name" v="Sundet" />
		<tag k="place" v="isolated_dwelling" />
		<tag k="ssr:stedsnr" v="550008" />
	</node>
	<node id="-255302" lat="59.9270833366" lon="11.0598055533">
		<tag k="alt_name" v="Nygard" />
		<tag k="name" v="Nygård" />
		<tag k="place" v="isolated_dwelling" />
		<tag k="ssr:stedsnr" v="550004" />
	</node>
	<node id="-255298" lat="59.8790694412" lon="11.0879694417">
		<tag k="name" v="Grinitajet" />
		<tag k="place" v="quarter" />
		<tag k="ssr:stedsnr" v="429167" />
	</node>
	<node id="-255295" lat="59.9375583331" lon="11.0273666701">
		<tag k="name" v="Løvenstad" />
		<tag k="place" v="quarter" />
		<tag k="ssr:stedsnr" v="429051" />
	</node>
	<node id="-255291" lat="59.868591668" lon="11.095700009">
		<tag k="name" v="Kikut" />
		<tag k="place" v="isolated_dwelling" />
		<tag k="ssr:stedsnr" v="388603" />
	</node>
	<node id="-255290" lat="59.8706749986" lon="11.0960611143">
		<tag k="name" v="Svingen" />
>>>>>>> e1d4bc35ff8a6074a6f2e91616a996b547c36f15
		<tag k="place" v="farm" />
		<tag k="ssr:stedsnr" v="691730" />
	</node>
<<<<<<< HEAD
	<node lat="59.87346110767803" lon="11.084075004305829" id="-14982">
		<tag k="building" v="commercial" />
		<tag k="name" v="Skjønberg landhandleri" />
		<tag k="ssr:stedsnr" v="692608" />
	</node>
	<node lat="59.920157557383504" lon="11.079525033069135" id="-14985">
		<tag k="name" v="Fjerdingby" />
=======
	<node id="-255288" lat="59.9148805528" lon="11.0819166643">
		<tag k="name" v="Haug" />
		<tag k="place" v="hamlet" />
		<tag k="ssr:stedsnr" v="387735" />
	</node>
	<node id="-255287" lat="59.9032527814" lon="11.0917944445">
		<tag k="name" v="Fjell" />
>>>>>>> e1d4bc35ff8a6074a6f2e91616a996b547c36f15
		<tag k="place" v="hamlet" />
		<tag k="ssr:stedsnr" v="733122" />
	</node>
<<<<<<< HEAD
	<node lat="59.94992499599358" lon="11.042244438829261" id="-14990">
		<tag k="name" v="Rudsberget" />
		<tag k="place" v="isolated_dwelling" />
		<tag k="ssr:stedsnr" v="751727" />
	</node>
	<node lat="59.943313892174984" lon="11.056416666226694" id="-14991">
		<tag k="name" v="Borgen" />
		<tag k="place" v="hamlet" />
		<tag k="ssr:stedsnr" v="751729" />
	</node>
	<node lat="59.89552771409606" lon="11.10411898121376" id="-14996">
		<tag k="fixme" v="consider place=hamlet" />
		<tag k="name" v="Skogholt" />
=======
	<node id="-255280" lat="59.9454472239" lon="11.0426861095">
		<tag k="amenity" v="school" />
		<tag k="name" v="Rud skole" />
		<tag k="ssr:stedsnr" v="387696" />
	</node>
	<node id="-255277" lat="59.9066499967" lon="11.0968000065">
		<tag k="alt_name" v="Smedstad" />
		<tag k="name" v="Smestad" />
>>>>>>> e1d4bc35ff8a6074a6f2e91616a996b547c36f15
		<tag k="place" v="farm" />
		<tag k="ssr:stedsnr" v="793674" />
	</node>
<<<<<<< HEAD
	<node lat="59.860147218711134" lon="11.098388891276263" id="-14997">
		<tag k="name" v="Karlstad" />
=======
	<node id="-255273" lat="59.9224921418" lon="11.0725216955">
		<tag k="name" v="Hauger" />
>>>>>>> e1d4bc35ff8a6074a6f2e91616a996b547c36f15
		<tag k="place" v="farm" />
		<tag k="ssr:stedsnr" v="793719" />
	</node>
<<<<<<< HEAD
	<node lat="59.86064722408657" lon="11.018530558519956" id="-14998">
		<tag k="name" v="Morterudkoia" />
		<tag k="place" v="isolated_dwelling" />
		<tag k="ssr:stedsnr" v="915198" />
	</node>
	<node lat="59.89316851059697" lon="11.100309383048634" id="-15001">
		<tag k="fixme" v="consider place=hamlet" />
		<tag k="name" v="Hektner" />
		<tag k="place" v="farm" />
		<tag k="ssr:stedsnr" v="915628" />
	</node>
	<node lat="59.8951444476204" lon="11.048027774376772" id="-15010">
		<tag k="name" v="Kommunehytta" />
		<tag k="place" v="isolated_dwelling" />
		<tag k="ssr:stedsnr" v="812403" />
	</node>
	<node lat="59.89602500242763" lon="11.102552769121855" id="-15013">
		<tag k="name" v="Solbu" />
=======
	<node id="-255271" lat="59.8642277768" lon="11.1043777732">
		<tag k="name" v="Fiskebygda" />
		<tag k="place" v="hamlet" />
		<tag k="ssr:stedsnr" v="327590" />
	</node>
	<node id="-255259" lat="59.870091669" lon="11.0962666663">
		<tag k="name" v="Dølahaugen" />
		<tag k="place" v="hamlet" />
		<tag k="ssr:stedsnr" v="206590" />
	</node>
	<node id="-255257" lat="59.9237583324" lon="11.0848500045">
		<tag k="name" v="Enga" />
		<tag k="place" v="isolated_dwelling" />
		<tag k="ssr:stedsnr" v="206548" />
	</node>
	<node id="-255254" lat="59.8532944467" lon="11.1023666749">
		<tag k="name" v="Smedbakken" />
		<tag k="place" v="locality" />
		<tag k="ssr:stedsnr" v="205726" />
	</node>
	<node id="-255253" lat="59.8753888917" lon="11.1018833272">
		<tag k="name" v="Søstua Nes" />
>>>>>>> e1d4bc35ff8a6074a6f2e91616a996b547c36f15
		<tag k="place" v="farm" />
		<tag k="ssr:stedsnr" v="812678" />
	</node>
<<<<<<< HEAD
	<node lat="59.88375555758692" lon="11.096666675623881" id="-15014">
		<tag k="name" v="Nordstua Jaer" />
=======
	<node id="-255248" lat="59.8839722244" lon="11.0969249914">
		<tag k="name" v="Jar" />
>>>>>>> e1d4bc35ff8a6074a6f2e91616a996b547c36f15
		<tag k="place" v="farm" />
		<tag k="ssr:stedsnr" v="812685" />
	</node>
<<<<<<< HEAD
	<node lat="59.858822222430895" lon="11.103366666383417" id="-15015">
		<tag k="name" v="Stuetomta" />
=======
	<node id="-255245" lat="59.8648611124" lon="11.1051138936">
		<tag k="name" v="Berget" />
>>>>>>> e1d4bc35ff8a6074a6f2e91616a996b547c36f15
		<tag k="place" v="isolated_dwelling" />
		<tag k="ssr:stedsnr" v="813608" />
	</node>
<<<<<<< HEAD
	<node lat="59.90683055274613" lon="11.096908325601614" id="-15031">
		<tag k="name" v="Nordre Smestad" />
=======
	<node id="-255244" lat="59.9022027813" lon="11.1011305548">
		<tag k="name" v="Støtterud" />
>>>>>>> e1d4bc35ff8a6074a6f2e91616a996b547c36f15
		<tag k="place" v="farm" />
		<tag k="ssr:stedsnr" v="934720" />
	</node>
<<<<<<< HEAD
	<node lat="59.93124166560871" lon="11.037861113571408" id="-15034">
		<tag k="name" v="Blystadlia" />
		<tag k="place" v="quarter" />
		<tag k="ssr:stedsnr" v="934516" />
	</node>
	<node lat="59.87524722108519" lon="11.104591661838509" id="-15035">
		<tag k="name" v="Nordstua Nes" />
=======
	<node id="-255241" lat="59.9220638885" lon="11.0712583348">
		<tag k="name" v="Fjerdingby" />
		<tag k="place" v="quarter" />
		<tag k="ssr:stedsnr" v="146589" />
	</node>
	<node id="-255240" lat="59.8694166686" lon="11.0981583313">
		<tag k="name" v="Lindemark" />
		<tag k="place" v="isolated_dwelling" />
		<tag k="ssr:stedsnr" v="145619" />
	</node>
	<node id="-255239" lat="59.9058388867" lon="11.1037444517">
		<tag k="name" v="Støa" />
>>>>>>> e1d4bc35ff8a6074a6f2e91616a996b547c36f15
		<tag k="place" v="farm" />
		<tag k="ssr:stedsnr" v="934614" />
	</node>
<<<<<<< HEAD
	<node lat="59.908552775144" lon="11.05072222119012" id="-15044">
		<tag k="loc_name" v="Røde Kors-hytta" />
		<tag k="name" v="Røde Kors hytta" />
=======
	<node id="-255236" lat="59.8784583331" lon="11.1096333349">
		<tag k="name" v="Fetta" />
>>>>>>> e1d4bc35ff8a6074a6f2e91616a996b547c36f15
		<tag k="place" v="isolated_dwelling" />
		<tag k="ssr:stedsnr" v="23458" />
	</node>
<<<<<<< HEAD
	<node lat="59.909100001356855" lon="11.099016674997173" id="-15045">
		<tag k="name" v="Oleberg" />
		<tag k="place" v="isolated_dwelling" />
		<tag k="ssr:stedsnr" v="23765" />
	</node>
	<node lat="59.84898888799626" lon="11.122016660934465" id="-15049">
		<tag k="name" v="Bråten" />
=======
	<node id="-255235" lat="59.8789388856" lon="11.0920111159">
		<tag k="alt_name" v="Grini Nordgarden" />
		<tag k="name" v="Nordgarden Grini" />
		<tag k="place" v="farm" />
		<tag k="ssr:stedsnr" v="144681" />
	</node>
	<node id="-255234" lat="59.8831416648" lon="11.0955805605">
		<tag k="name" v="Søstua Jaer" />
>>>>>>> e1d4bc35ff8a6074a6f2e91616a996b547c36f15
		<tag k="place" v="farm" />
		<tag k="ssr:stedsnr" v="65739" />
	</node>
<<<<<<< HEAD
	<node lat="59.87542791677788" lon="11.103456119983994" id="-15050">
		<tag k="fixme" v="consider place=hamlet" />
		<tag k="name" v="Nes" />
=======
	<node id="-255233" lat="59.8869388906" lon="11.1029666592">
		<tag k="alt_name" v="Tveiter Nordgarden" />
		<tag k="name" v="Nordgarden Tveiter" />
>>>>>>> e1d4bc35ff8a6074a6f2e91616a996b547c36f15
		<tag k="place" v="farm" />
		<tag k="ssr:stedsnr" v="65683" />
	</node>
<<<<<<< HEAD
	<node lat="59.93125277335163" lon="11.041322223731411" id="-15059">
		<tag k="amenity" v="school" />
		<tag k="name" v="Blystadlia skole" />
		<tag k="ssr:stedsnr" v="84572" />
	</node>
	<node lat="59.891891663796635" lon="11.098366675294573" id="-15060">
		<tag k="name" v="Søndre Hektner" />
=======
	<node id="-255224" lat="59.8847694438" lon="11.1049611136">
		<tag k="name" v="Tveiter" />
		<tag k="place" v="farm" />
		<tag k="ssr:stedsnr" v="126648" />
	</node>
	<node id="-255223" lat="59.9163027795" lon="11.0868500089">
		<tag k="name" v="Haugen" />
>>>>>>> e1d4bc35ff8a6074a6f2e91616a996b547c36f15
		<tag k="place" v="farm" />
		<tag k="ssr:stedsnr" v="84682" />
	</node>
<<<<<<< HEAD
	<node lat="59.90190277760645" lon="11.09445276902594" id="-15063">
		<tag k="name" v="Norum" />
=======
	<node id="-255222" lat="59.9360445496" lon="11.0654680276">
		<tag k="fixme" v="consider place=hamlet" />
		<tag k="name" v="Åmot" />
>>>>>>> e1d4bc35ff8a6074a6f2e91616a996b547c36f15
		<tag k="place" v="farm" />
		<tag k="ssr:stedsnr" v="84757" />
	</node>
<<<<<<< HEAD
	<node lat="59.9151083359468" lon="11.082158330578833" id="-15064">
		<tag k="name" v="Nybakk" />
=======
	<node id="-255220" lat="59.8925000017" lon="11.115480564">
		<tag k="name" v="Årnes" />
>>>>>>> e1d4bc35ff8a6074a6f2e91616a996b547c36f15
		<tag k="place" v="farm" />
		<tag k="ssr:stedsnr" v="84760" />
	</node>
<<<<<<< HEAD
	<node lat="59.91452777436764" lon="11.093261103476548" id="-15065">
		<tag k="name" v="Nedre Holt" />
		<tag k="place" v="farm" />
		<tag k="ssr:stedsnr" v="84761" />
	</node>
	<node lat="59.912202774632966" lon="11.091919441518433" id="-15066">
		<tag k="name" v="Øvre Holt" />
=======
	<node id="-255219" lat="59.8997527763" lon="11.0931111051">
		<tag k="name" v="Slette" />
		<tag k="old_name" v="Stette" />
		<tag k="place" v="isolated_dwelling" />
		<tag k="ssr:stedsnr" v="125656" />
	</node>
	<node id="-255217" lat="59.9270833352" lon="11.0770249921">
		<tag k="name" v="Lund" />
>>>>>>> e1d4bc35ff8a6074a6f2e91616a996b547c36f15
		<tag k="place" v="farm" />
		<tag k="ssr:stedsnr" v="84763" />
	</node>
<<<<<<< HEAD
	<node lat="59.93624444055113" lon="11.070852771326553" id="-15068">
=======
	<node id="-255215" lat="59.9362444406" lon="11.0708527713">
>>>>>>> e1d4bc35ff8a6074a6f2e91616a996b547c36f15
		<tag k="name" v="Tangen" />
		<tag k="place" v="hamlet" />
		<tag k="ssr:stedsnr" v="85501" />
	</node>
<<<<<<< HEAD
	<node lat="59.86421944154938" lon="11.102933331597667" id="-15069">
		<tag k="name" v="Flaen" />
		<tag k="place" v="hamlet" />
		<tag k="ssr:stedsnr" v="85539" />
	</node>
	<node lat="59.860466662750476" lon="11.104433334603065" id="-15070">
=======
	<node id="-255214" lat="59.9198527766" lon="11.0818555587">
		<tag k="name" v="Søgarden" />
		<tag k="place" v="farm" />
		<tag k="ssr:stedsnr" v="85492" />
	</node>
	<node id="-255213" lat="59.9237138895" lon="11.0689444522">
		<tag k="amenity" v="school" />
		<tag k="name" v="Fjerdingby skole" />
		<tag k="ssr:stedsnr" v="85491" />
	</node>
	<node id="-255212" lat="59.8604666628" lon="11.1044333346">
>>>>>>> e1d4bc35ff8a6074a6f2e91616a996b547c36f15
		<tag k="name" v="Ner-Uller" />
		<tag k="place" v="farm" />
		<tag k="ssr:stedsnr" v="85545" />
	</node>
<<<<<<< HEAD
	<node lat="59.89260059001877" lon="11.11591109842468" id="-15072">
		<tag k="fixme" v="consider place=hamlet" />
		<tag k="name" v="Årnes" />
		<tag k="place" v="farm" />
		<tag k="ssr:stedsnr" v="125659" />
	</node>
	<node lat="59.88693889060483" lon="11.102966659225745" id="-15081">
		<tag k="alt_name" v="Tveiter Nordgarden" />
		<tag k="name" v="Nordgarden Tveiter" />
=======
	<node id="-255211" lat="59.8642194415" lon="11.1029333316">
		<tag k="name" v="Flaen" />
		<tag k="place" v="hamlet" />
		<tag k="ssr:stedsnr" v="85539" />
	</node>
	<node id="-255208" lat="59.8918916638" lon="11.0983666753">
		<tag k="name" v="Søndre Hektner" />
>>>>>>> e1d4bc35ff8a6074a6f2e91616a996b547c36f15
		<tag k="place" v="farm" />
		<tag k="ssr:stedsnr" v="144671" />
	</node>
<<<<<<< HEAD
	<node lat="59.88314166479826" lon="11.095580560506878" id="-15082">
		<tag k="name" v="Søstua Jaer" />
=======
	<node id="-255206" lat="59.9122027746" lon="11.0919194415">
		<tag k="name" v="Øvre Holt" />
>>>>>>> e1d4bc35ff8a6074a6f2e91616a996b547c36f15
		<tag k="place" v="farm" />
		<tag k="ssr:stedsnr" v="144674" />
	</node>
<<<<<<< HEAD
	<node lat="59.878938885617295" lon="11.092011115903126" id="-15083">
		<tag k="alt_name" v="Grini Nordgarden" />
		<tag k="name" v="Nordgarden Grini" />
=======
	<node id="-255203" lat="59.8754694433" lon="11.1039638858">
		<tag k="name" v="Nes" />
>>>>>>> e1d4bc35ff8a6074a6f2e91616a996b547c36f15
		<tag k="place" v="farm" />
		<tag k="ssr:stedsnr" v="144681" />
	</node>
<<<<<<< HEAD
	<node lat="59.87845833306667" lon="11.10963333491269" id="-15084">
		<tag k="name" v="Fetta" />
		<tag k="place" v="isolated_dwelling" />
		<tag k="ssr:stedsnr" v="144686" />
	</node>
	<node lat="59.86941666856786" lon="11.098158331305623" id="-15087">
		<tag k="name" v="Lindemark" />
		<tag k="place" v="isolated_dwelling" />
		<tag k="ssr:stedsnr" v="145619" />
	</node>
	<node lat="59.9220638884541" lon="11.07125833478561" id="-15089">
		<tag k="name" v="Fjerdingby" />
		<tag k="place" v="quarter" />
		<tag k="ssr:stedsnr" v="146589" />
	</node>
	<node lat="59.86486111236148" lon="11.105113893641617" id="-15092">
		<tag k="name" v="Berget" />
		<tag k="place" v="isolated_dwelling" />
		<tag k="ssr:stedsnr" v="186726" />
	</node>
	<node lat="59.88397456698194" lon="11.096908178783705" id="-15095">
		<tag k="fixme" v="consider place=hamlet" />
		<tag k="name" v="Jar" />
=======
	<node id="-255197" lat="59.9224305522" lon="11.0778694409">
		<tag k="name" v="Nordgarden" />
>>>>>>> e1d4bc35ff8a6074a6f2e91616a996b547c36f15
		<tag k="place" v="farm" />
		<tag k="ssr:stedsnr" v="187628" />
	</node>
<<<<<<< HEAD
	<node lat="59.87009166900265" lon="11.096266666259735" id="-15099">
		<tag k="name" v="Dølahaugen" />
=======
	<node id="-255196" lat="59.8946694473" lon="11.1140666606">
		<tag k="name" v="Buret" />
>>>>>>> e1d4bc35ff8a6074a6f2e91616a996b547c36f15
		<tag k="place" v="hamlet" />
		<tag k="ssr:stedsnr" v="206590" />
	</node>
<<<<<<< HEAD
	<node lat="59.923758332399196" lon="11.084850004532605" id="-15100">
		<tag k="name" v="Enga" />
=======
	<node id="-255194" lat="59.9091000014" lon="11.099016675">
		<tag k="name" v="Oleberg" />
>>>>>>> e1d4bc35ff8a6074a6f2e91616a996b547c36f15
		<tag k="place" v="isolated_dwelling" />
		<tag k="ssr:stedsnr" v="206548" />
	</node>
<<<<<<< HEAD
	<node lat="59.86422777682815" lon="11.104377773215493" id="-15105">
		<tag k="name" v="Fiskebygda" />
		<tag k="place" v="hamlet" />
		<tag k="ssr:stedsnr" v="327590" />
	</node>
	<node lat="59.905983020362214" lon="11.096257881097616" id="-15110">
		<tag k="alt_name" v="Smedstad" />
		<tag k="fixme" v="consider place=hamlet" />
		<tag k="name" v="Smestad" />
=======
	<node id="-255193" lat="59.9085527751" lon="11.0507222212">
		<tag k="loc_name" v="Røde Kors-hytta" />
		<tag k="name" v="Røde Kors hytta" />
		<tag k="place" v="isolated_dwelling" />
		<tag k="ssr:stedsnr" v="23458" />
	</node>
	<node id="-255185" lat="59.9068305527" lon="11.0969083256">
		<tag k="name" v="Nordre Smestad" />
>>>>>>> e1d4bc35ff8a6074a6f2e91616a996b547c36f15
		<tag k="place" v="farm" />
		<tag k="ssr:stedsnr" v="369561" />
	</node>
<<<<<<< HEAD
	<node lat="59.90325278139286" lon="11.091794444482032" id="-15115">
		<tag k="name" v="Fjell" />
		<tag k="place" v="hamlet" />
		<tag k="ssr:stedsnr" v="387733" />
	</node>
	<node lat="59.914880552849944" lon="11.081916664260273" id="-15116">
		<tag k="name" v="Haug" />
		<tag k="place" v="hamlet" />
		<tag k="ssr:stedsnr" v="387735" />
	</node>
	<node lat="59.90992222051574" lon="11.092608338544753" id="-15118">
		<tag k="amenity" v="school" />
		<tag k="name" v="Holt skole" />
		<tag k="ssr:stedsnr" v="448763" />
	</node>
	<node lat="59.937558333131754" lon="11.027366670111345" id="-15125">
		<tag k="name" v="Løvenstad" />
=======
	<node id="-255183" lat="59.9312416656" lon="11.0378611136">
		<tag k="name" v="Blystadlia" />
>>>>>>> e1d4bc35ff8a6074a6f2e91616a996b547c36f15
		<tag k="place" v="quarter" />
		<tag k="ssr:stedsnr" v="429051" />
	</node>
	<node lat="59.879069441242436" lon="11.087969441669708" id="-15126">
		<tag k="name" v="Grinitajet" />
		<tag k="place" v="quarter" />
		<tag k="ssr:stedsnr" v="429167" />
	</node>
	<node lat="59.85109924827744" lon="11.110800050755051" id="-15128">
		<tag k="fixme" v="consider place=hamlet" />
		<tag k="name" v="Narvestad" />
		<tag k="place" v="farm" />
		<tag k="ssr:stedsnr" v="429719" />
	</node>
	<node lat="59.937819442607285" lon="11.05220833272544" id="-15133">
		<tag k="name" v="Øgardshøgda" />
		<tag k="place" v="quarter" />
		<tag k="ssr:stedsnr" v="448572" />
	</node>
	<node lat="59.9223972182116" lon="11.053802771210359" id="-15134">
		<tag k="alt_name" v="Marikollen" />
		<tag k="leisure" v="pitch" />
		<tag k="name" v="Marikollen skisenter" />
		<tag k="ssr:stedsnr" v="448601" />
	</node>
	<node lat="59.891228540361865" lon="11.09630702697463" id="-15136">
		<tag k="fixme" v="consider place=hamlet" />
		<tag k="name" v="Vestegarden" />
		<tag k="place" v="farm" />
		<tag k="ssr:stedsnr" v="448699" />
	</node>
<<<<<<< HEAD
	<node lat="59.849911114610585" lon="11.075383332473308" id="-15143">
		<tag k="name" v="Tyrigrava" />
=======
	<node id="-255181" lat="59.8900388877" lon="11.070261111">
		<tag k="name" v="Hesteberga" />
>>>>>>> e1d4bc35ff8a6074a6f2e91616a996b547c36f15
		<tag k="place" v="locality" />
		<tag k="ssr:stedsnr" v="509646" />
	</node>
<<<<<<< HEAD
	<node lat="59.871397224577265" lon="11.094919438545915" id="-15152">
		<tag k="name" v="Nerhaugen" />
=======
	<node id="-255180" lat="59.8752472211" lon="11.1045916618">
		<tag k="name" v="Nordstua Nes" />
>>>>>>> e1d4bc35ff8a6074a6f2e91616a996b547c36f15
		<tag k="place" v="farm" />
		<tag k="ssr:stedsnr" v="509587" />
	</node>
<<<<<<< HEAD
	<node lat="59.904036108624524" lon="11.094024996875845" id="-15153">
		<tag k="name" v="Løvlia" />
		<tag k="place" v="hamlet" />
		<tag k="ssr:stedsnr" v="509699" />
	</node>
	<node lat="59.887341668362524" lon="11.047499994981171" id="-15154">
		<tag k="name" v="Hektnersetra" />
		<tag k="place" v="locality" />
		<tag k="ssr:stedsnr" v="550179" />
	</node>
	<node lat="59.89866944357329" lon="11.110536115991318" id="-15156">
		<tag k="name" v="Nordhagan" />
=======
	<node id="-255177" lat="59.8935805513" lon="11.101033333">
		<tag k="name" v="Hektner" />
>>>>>>> e1d4bc35ff8a6074a6f2e91616a996b547c36f15
		<tag k="place" v="farm" />
		<tag k="ssr:stedsnr" v="550619" />
	</node>
<<<<<<< HEAD
	<node lat="59.865025916483674" lon="11.100013072574423" id="-15157">
		<tag k="alt_name" v="Tomta" />
		<tag k="fixme" v="consider place=hamlet" />
		<tag k="name" v="Tomter" />
=======
	<node id="-255170" lat="59.8833388893" lon="11.1008527848">
		<tag k="name" v="Jaersjordet" />
>>>>>>> e1d4bc35ff8a6074a6f2e91616a996b547c36f15
		<tag k="place" v="farm" />
		<tag k="ssr:stedsnr" v="550687" />
	</node>
<<<<<<< HEAD
	<node lat="59.86812896621406" lon="11.094594520798871" id="-15158">
		<tag k="fixme" v="consider place=hamlet" />
		<tag k="name" v="Nordby" />
=======
	<node id="-255169" lat="59.8849833354" lon="11.105402776">
		<tag k="name" v="Nesøgarden" />
>>>>>>> e1d4bc35ff8a6074a6f2e91616a996b547c36f15
		<tag k="place" v="farm" />
		<tag k="ssr:stedsnr" v="550689" />
	</node>
<<<<<<< HEAD
	<node lat="59.89047500455114" lon="11.020749991897308" id="-15159">
		<tag k="name" v="Djupdalshytta" />
=======
	<node id="-255144" lat="59.8606472241" lon="11.0185305585">
		<tag k="name" v="Morterudkoia" />
>>>>>>> e1d4bc35ff8a6074a6f2e91616a996b547c36f15
		<tag k="place" v="isolated_dwelling" />
		<tag k="ssr:stedsnr" v="551087" />
	</node>
<<<<<<< HEAD
	<node lat="59.93663055839324" lon="11.027899999836" id="-15161">
		<tag k="amenity" v="school" />
		<tag k="name" v="Løvenstad skole" />
		<tag k="ssr:stedsnr" v="569551" />
	</node>
	<node lat="59.9197111147458" lon="11.075916669059128" id="-15165">
		<tag k="name" v="Kirkeby" />
		<tag k="place" v="isolated_dwelling" />
		<tag k="ssr:stedsnr" v="570521" />
	</node>
	<node lat="59.85793889250479" lon="11.095055560823115" id="-15167">
		<tag k="name" v="Tomter" />
		<tag k="place" v="hamlet" />
		<tag k="ssr:stedsnr" v="570574" />
	</node>
	<node lat="59.948316669850456" lon="11.024494452951902" id="-15169">
		<tag k="alt_name" v="Strøm, vestre" />
		<tag k="name" v="Vestre Strøm" />
=======
	<node id="-255135" lat="59.9219388857" lon="11.0775999949">
		<tag k="name" v="Fjerdingby" />
		<tag k="place" v="farm" />
		<tag k="ssr:stedsnr" v="733122" />
	</node>
	<node id="-255132" lat="59.921302774" lon="11.0798861065">
		<tag k="name" v="Tajet" />
>>>>>>> e1d4bc35ff8a6074a6f2e91616a996b547c36f15
		<tag k="place" v="farm" />
		<tag k="ssr:stedsnr" v="611046" />
	</node>
<<<<<<< HEAD
	<node lat="59.937622225857474" lon="11.0592249961437" id="-15170">
		<tag k="name" v="Øgården" />
		<tag k="place" v="isolated_dwelling" />
		<tag k="ssr:stedsnr" v="611063" />
	</node>
	<node lat="59.86861666616341" lon="11.102369438883727" id="-15172">
		<tag k="building" v="industrial" />
		<tag k="industrial" v="factory" />
		<tag k="name" v="Nordby bruk" />
		<tag k="ssr:stedsnr" v="611700" />
	</node>
	<node lat="59.89882500380421" lon="11.100022225639394" id="-15180">
=======
	<node id="-255128" lat="59.8988250038" lon="11.1000222256">
>>>>>>> e1d4bc35ff8a6074a6f2e91616a996b547c36f15
		<tag k="name" v="Hagan" />
		<tag k="place" v="farm" />
		<tag k="ssr:stedsnr" v="732663" />
	</node>
<<<<<<< HEAD
	<node lat="59.87618055176648" lon="11.092263897158631" id="-15188">
		<tag k="alt_name" v="Grini Søgarden" />
		<tag k="name" v="Søgarden Grini" />
		<tag k="place" v="farm" />
		<tag k="ssr:stedsnr" v="751685" />
	</node>
	<node lat="59.937038893188216" lon="11.064891667431446" id="-15191">
		<tag k="name" v="Nedre Åmot" />
		<tag k="place" v="farm" />
		<tag k="ssr:stedsnr" v="752550" />
	</node>
	<node lat="59.92591354019645" lon="11.07047283912753" id="-15193">
		<tag k="fixme" v="consider place=hamlet" />
		<tag k="name" v="Bjørnholt" />
=======
	<node id="-255121" lat="59.9197111147" lon="11.0759166691">
		<tag k="name" v="Kirkeby" />
		<tag k="place" v="isolated_dwelling" />
		<tag k="ssr:stedsnr" v="570521" />
	</node>
	<node id="-255120" lat="59.8734611077" lon="11.0840750043">
		<tag k="building" v="commercial" />
		<tag k="name" v="Skjønberg landhandleri" />
		<tag k="ssr:stedsnr" v="692608" />
	</node>
	<node id="-255118" lat="59.9052055527" lon="11.0978055589">
		<tag k="name" v="Søndre Smestad" />
>>>>>>> e1d4bc35ff8a6074a6f2e91616a996b547c36f15
		<tag k="place" v="farm" />
		<tag k="ssr:stedsnr" v="793002" />
	</node>
<<<<<<< HEAD
	<node lat="59.85565499504574" lon="11.107044606919612" id="-15197">
		<tag k="fixme" v="consider place=hamlet" />
		<tag k="name" v="By" />
=======
	<node id="-255117" lat="59.912283333" lon="11.0812777806">
		<tag k="name" v="Sørli" />
>>>>>>> e1d4bc35ff8a6074a6f2e91616a996b547c36f15
		<tag k="place" v="farm" />
		<tag k="ssr:stedsnr" v="793741" />
	</node>
<<<<<<< HEAD
	<node lat="59.841816664149306" lon="11.139697215271084" id="-15199">
		<tag k="name" v="Sofiedal" />
		<tag k="place" v="isolated_dwelling" />
		<tag k="ssr:stedsnr" v="794747" />
	</node>
	<node lat="59.933575466871794" lon="11.029829479808942" id="-15200">
		<tag k="alt_name" v="Sandbekken ungd. skole" />
		<tag k="amenity" v="school" />
		<tag k="name" v="Sandbekken ungdomsskole" />
		<tag k="ssr:stedsnr" v="812585" />
	</node>
	<node lat="59.92388055517436" lon="11.058891672125357" id="-15202">
		<tag k="leisure" v="pitch" />
		<tag k="name" v="Rælingen stadion" />
		<tag k="ssr:stedsnr" v="812598" />
	</node>
	<node lat="59.90430833296865" lon="11.09046944005086" id="-15205">
		<tag k="name" v="Skoglund" />
		<tag k="place" v="farm" />
		<tag k="ssr:stedsnr" v="812756" />
	</node>
	<node lat="59.914244447080954" lon="11.086338893790158" id="-15206">
		<tag k="name" v="Holthagan" />
		<tag k="place" v="locality" />
		<tag k="ssr:stedsnr" v="812758" />
	</node>
	<node lat="59.91243888899292" lon="11.090244444495823" id="-15207">
		<tag k="name" v="Vestby" />
=======
	<node id="-255116" lat="59.9419500034" lon="11.059197228">
		<tag k="name" v="Berg" />
>>>>>>> e1d4bc35ff8a6074a6f2e91616a996b547c36f15
		<tag k="place" v="hamlet" />
		<tag k="ssr:stedsnr" v="812766" />
	</node>
<<<<<<< HEAD
	<node lat="59.87046388633636" lon="11.083588893036474" id="-15211">
		<tag k="name" v="Oppvestby" />
		<tag k="place" v="hamlet" />
		<tag k="ssr:stedsnr" v="813596" />
	</node>
	<node lat="59.87789166963769" lon="11.042391665082421" id="-15218">
		<tag k="name" v="Romperud" />
		<tag k="place" v="locality" />
		<tag k="ssr:stedsnr" v="873390" />
	</node>
	<node lat="59.88498333541058" lon="11.10540277599657" id="-15228">
		<tag k="name" v="Nesøgarden" />
=======
	<node id="-255114" lat="59.8769750027" lon="11.0906249919">
		<tag k="name" v="Oppistua" />
>>>>>>> e1d4bc35ff8a6074a6f2e91616a996b547c36f15
		<tag k="place" v="farm" />
		<tag k="ssr:stedsnr" v="873617" />
	</node>
	<node lat="59.88333888930451" lon="11.100852784766223" id="-15229">
		<tag k="name" v="Jaersjordet" />
		<tag k="place" v="farm" />
		<tag k="ssr:stedsnr" v="873621" />
	</node>
	<node lat="59.859111109329355" lon="11.093147223300088" id="-15232">
		<tag k="name" v="Løkka" />
		<tag k="place" v="hamlet" />
		<tag k="ssr:stedsnr" v="874629" />
	</node>
	<node lat="59.86231666276687" lon="11.103533325148637" id="-15233">
		<tag k="name" v="Østby" />
		<tag k="place" v="isolated_dwelling" />
		<tag k="ssr:stedsnr" v="874636" />
	</node>
	<node lat="59.878563889084184" lon="11.083477771640663" id="-15235">
		<tag k="name" v="Grinibråtan" />
		<tag k="place" v="locality" />
		<tag k="ssr:stedsnr" v="874685" />
	</node>
	<node id="-255106" lat="59.9013305544" lon="11.0924416581">
		<tag k="name" v="Oppsal" />
		<tag k="place" v="hamlet" />
		<tag k="ssr:stedsnr" v="509711" />
	</node>
	<node id="-255100" lat="59.9300749965" lon="11.0302527862">
		<tag k="name" v="Sandbekken" />
		<tag k="place" v="isolated_dwelling" />
		<tag k="ssr:stedsnr" v="490003" />
	</node>
	<node id="-255096" lat="59.8861333326" lon="11.1123388872">
		<tag k="alt_name" v="Tveiterhagan" />
		<tag k="building" v="industrial" />
		<tag k="industrial" v="factory" />
		<tag k="name" v="Tveiterhagen" />
		<tag k="ssr:stedsnr" v="672640" />
	</node>
	<node id="-255089" lat="59.9254361098" lon="11.0588249933">
		<tag k="name" v="Korsvegen" />
		<tag k="place" v="farm" />
		<tag k="ssr:stedsnr" v="672001" />
	</node>
	<node id="-255087" lat="59.8655583322" lon="11.0941805475">
		<tag k="amenity" v="school" />
		<tag k="name" v="Nordby skole" />
		<tag k="ssr:stedsnr" v="449613" />
	</node>
	<node id="-255086" lat="59.9381305542" lon="11.0409722174">
		<tag k="leisure" v="pitch" />
		<tag k="name" v="Stormyrbakken" />
		<tag k="ssr:stedsnr" v="448602" />
	</node>
	<node id="-255083" lat="59.8512194402" lon="11.1105750063">
		<tag k="name" v="Narvestad" />
		<tag k="place" v="farm" />
		<tag k="ssr:stedsnr" v="429719" />
	</node>
	<node id="-255080" lat="59.9307055527" lon="11.0785777799">
		<tag k="name" v="Ensrud" />
		<tag k="place" v="isolated_dwelling" />
		<tag k="ssr:stedsnr" v="429007" />
	</node>
	<node id="-255077" lat="59.8499111146" lon="11.0753833325">
		<tag k="name" v="Tyrigrava" />
		<tag k="place" v="locality" />
		<tag k="ssr:stedsnr" v="509646" />
	</node>
	<node id="-255075" lat="59.8938194425" lon="11.101011113">
		<tag k="name" v="Nordre Hektner" />
		<tag k="place" v="farm" />
		<tag k="ssr:stedsnr" v="509613" />
	</node>
	<node id="-255074" lat="59.8959138878" lon="11.092141659">
		<tag k="name" v="Solli" />
		<tag k="place" v="farm" />
		<tag k="ssr:stedsnr" v="509610" />
	</node>
	<node id="-255073" lat="59.8956249992" lon="11.1128027728">
		<tag k="name" v="Trollykkja" />
		<tag k="place" v="hamlet" />
		<tag k="ssr:stedsnr" v="509607" />
	</node>
	<node id="-255072" lat="59.8713972246" lon="11.0949194385">
		<tag k="name" v="Nerhaugen" />
		<tag k="place" v="farm" />
		<tag k="ssr:stedsnr" v="509587" />
	</node>
	<node id="-255068" lat="59.9392555512" lon="11.0637916643">
		<tag k="name" v="Nyland" />
		<tag k="place" v="hamlet" />
		<tag k="ssr:stedsnr" v="509556" />
	</node>
	<node id="-255064" lat="59.9040361086" lon="11.0940249969">
		<tag k="name" v="Løvlia" />
		<tag k="place" v="hamlet" />
		<tag k="ssr:stedsnr" v="509699" />
	</node>
	<node id="-255054" lat="59.9302472257" lon="11.0631388968">
		<tag k="alt_name" v="Sundhagan" />
		<tag k="name" v="Hagan" />
		<tag k="old_name" v="Hagen" />
		<tag k="place" v="isolated_dwelling" />
		<tag k="ssr:stedsnr" v="490001" />
	</node>
	<node id="-255052" lat="59.94675556" lon="11.0400999989">
		<tag k="name" v="Rud" />
		<tag k="place" v="farm" />
		<tag k="ssr:stedsnr" v="490051" />
	</node>
	<node id="-255050" lat="59.9059472206" lon="11.0918194523">
		<tag k="name" v="Myrvoll" />
		<tag k="place" v="hamlet" />
		<tag k="ssr:stedsnr" v="327711" />
	</node>
	<node id="-255046" lat="59.9241111072" lon="11.0628194371">
		<tag k="amenity" v="school" />
		<tag k="name" v="Marikollen ungdomsskole" />
		<tag k="ssr:stedsnr" v="449565" />
	</node>
	<node id="-255042" lat="59.8910722182" lon="11.0958611023">
		<tag k="name" v="Vestegarden" />
		<tag k="place" v="farm" />
		<tag k="ssr:stedsnr" v="448699" />
	</node>
	<node id="-255040" lat="59.9099222205" lon="11.0926083385">
		<tag k="amenity" v="school" />
		<tag k="name" v="Holt skole" />
		<tag k="ssr:stedsnr" v="448763" />
	</node>
	<node id="-255038" lat="59.9483472185" lon="11.0370499981">
		<tag k="name" v="Strømsborg" />
		<tag k="place" v="quarter" />
		<tag k="ssr:stedsnr" v="448738" />
	</node>
	<node id="-255036" lat="59.8442250011" lon="11.0863888826">
		<tag k="name" v="Byseter" />
		<tag k="place" v="locality" />
		<tag k="ssr:stedsnr" v="448727" />
	</node>
	<node id="-255035" lat="59.9223972182" lon="11.0538027712">
		<tag k="alt_name" v="Marikollen" />
		<tag k="leisure" v="pitch" />
		<tag k="name" v="Marikollen skisenter" />
		<tag k="ssr:stedsnr" v="448601" />
	</node>
	<node id="-255034" lat="59.9378194426" lon="11.0522083327">
		<tag k="name" v="Øgardshøgda" />
		<tag k="place" v="quarter" />
		<tag k="ssr:stedsnr" v="448572" />
	</node>
	<node id="-255032" lat="59.8454750016" lon="11.0277750015">
		<tag k="name" v="Bokhytta" />
		<tag k="place" v="isolated_dwelling" />
		<tag k="ssr:stedsnr" v="448427" />
	</node>
	<node id="-255027" lat="59.8709055526" lon="11.0918500016">
		<tag k="name" v="Opphaugen" />
		<tag k="place" v="farm" />
		<tag k="ssr:stedsnr" v="145614" />
	</node>
	<node id="-255026" lat="59.8609944479" lon="11.0933555543">
		<tag k="name" v="Fjellstad" />
		<tag k="place" v="hamlet" />
		<tag k="ssr:stedsnr" v="145609" />
	</node>
	<node id="-255024" lat="59.9356799125" lon="11.0634233439">
		<tag k="name" v="Øvre Åmot" />
		<tag k="place" v="farm" />
		<tag k="ssr:stedsnr" v="267537" />
	</node>
	<node id="-255023" lat="59.933011107" lon="11.0748777817">
		<tag k="name" v="Bålsrud" />
		<tag k="place" v="farm" />
		<tag k="ssr:stedsnr" v="267533" />
	</node>
	<node id="-255022" lat="59.857974997" lon="11.1043166719">
		<tag k="name" v="Sør-Uller" />
		<tag k="place" v="farm" />
		<tag k="ssr:stedsnr" v="267599" />
	</node>
	<node id="-255015" lat="59.9335003072" lon="11.0317685214">
		<tag k="amenity" v="sports_centre" />
		<tag k="name" v="Sandbekkhallen" />
		<tag k="ssr:stedsnr" v="266546" />
	</node>
	<node id="-255011" lat="59.9145277744" lon="11.0932611035">
		<tag k="name" v="Nedre Holt" />
		<tag k="place" v="farm" />
		<tag k="ssr:stedsnr" v="84761" />
	</node>
	<node id="-255010" lat="59.9151083359" lon="11.0821583306">
		<tag k="name" v="Nybakk" />
		<tag k="place" v="farm" />
		<tag k="ssr:stedsnr" v="84760" />
	</node>
	<node id="-255009" lat="59.9019027776" lon="11.094452769">
		<tag k="name" v="Norum" />
		<tag k="place" v="farm" />
		<tag k="ssr:stedsnr" v="84757" />
	</node>
	<node id="-255008" lat="59.8782083315" lon="11.0897277803">
		<tag k="name" v="Øvergarden" />
		<tag k="place" v="farm" />
		<tag k="ssr:stedsnr" v="84678" />
	</node>
	<node id="-255007" lat="59.9312527734" lon="11.0413222237">
		<tag k="amenity" v="school" />
		<tag k="name" v="Blystadlia skole" />
		<tag k="ssr:stedsnr" v="84572" />
	</node>
	<node id="-254994" lat="59.8773222265" lon="11.089725002">
		<tag k="name" v="Grini" />
		<tag k="place" v="farm" />
		<tag k="ssr:stedsnr" v="247120" />
	</node>
	<node id="-254993" lat="59.8710305513" lon="11.0890166632">
		<tag k="alt_name" v="Hestløkka" />
		<tag k="name" v="Hesteløkka" />
		<tag k="place" v="isolated_dwelling" />
		<tag k="ssr:stedsnr" v="247118" />
	</node>
	<node id="-254992" lat="59.8776472253" lon="11.0932916583">
		<tag k="alt_name" v="Grini Øststua" />
		<tag k="name" v="Grini" />
		<tag k="place" v="farm" />
		<tag k="ssr:stedsnr" v="66501" />
	</node>
	<node id="-254991" lat="59.9018750024" lon="11.0919777801">
		<tag k="alt_name" v="Flateby" />
		<tag k="name" v="Flatby" />
		<tag k="place" v="farm" />
		<tag k="ssr:stedsnr" v="65632" />
	</node>
	<node id="-254990" lat="59.848988888" lon="11.1220166609">
		<tag k="name" v="Bråten" />
		<tag k="place" v="farm" />
		<tag k="ssr:stedsnr" v="65739" />
	</node>
	<node id="-254988" lat="59.9124830648" lon="11.0911153518">
		<tag k="name" v="Holt" />
		<tag k="place" v="farm" />
		<tag k="ssr:stedsnr" v="65102" />
	</node>
</osm>
