<?xml version="1.0" encoding="UTF-8"?>
<osm generator="osmapis" version="0.6">
	<node id="-24704" lat="59.7982117584" lon="10.7771016481">
		<tag k="name" v="Store Rørvik" />
		<tag k="natural" v="bay" />
		<tag k="ssr:stedsnr" v="205716" />
	</node>
	<node id="-24702" lat="59.7979305549" lon="10.7722916591">
		<tag k="name" v="Sandvadodden" />
		<tag k="natural" v="cape" />
		<tag k="ssr:stedsnr" v="205709" />
	</node>
	<node id="-24828" lat="59.8031143965" lon="10.7991719765">
		<tag k="alt_name" v="Kolbotnvannet" />
		<tag k="name" v="Kolbotntjernet" />
		<tag k="natural" v="water" />
		<tag k="ssr:stedsnr" v="855267" />
		<tag k="water" v="lake" />
	</node>
	<node id="-24820" lat="59.8179638886" lon="10.7713638893">
		<tag k="name" v="Gjersjøelva" />
		<tag k="old_name" v="Hvitebjørnselv" />
		<tag k="ssr:stedsnr" v="854251" />
		<tag k="waterway" v="stream" />
	</node>
	<node id="-24819" lat="59.8126000036" lon="10.7721666605">
		<tag k="name" v="Nydammen" />
		<tag k="natural" v="water" />
		<tag k="ssr:stedsnr" v="854241" />
	</node>
	<node id="-24806" lat="59.7886972263" lon="10.7406944411">
		<tag k="name" v="Kvernhusbekken" />
		<tag k="ssr:stedsnr" v="786309" />
		<tag k="waterway" v="stream" />
	</node>
	<node id="-24678" lat="59.7987249671" lon="10.7822487404">
		<tag k="name" v="Makrellbukta" />
		<tag k="natural" v="bay" />
		<tag k="ssr:stedsnr" v="84698" />
	</node>
	<node id="-24795" lat="59.7705361105" lon="10.7437416748">
		<tag k="name" v="Majorskilden" />
		<tag k="ssr:stedsnr" v="751711" />
		<tag k="waterway" v="stream" />
	</node>
	<node id="-24794" lat="59.7790972192" lon="10.7821694397">
		<tag k="name" v="Kurudodden" />
		<tag k="natural" v="cape" />
		<tag k="ssr:stedsnr" v="751701" />
	</node>
	<node id="-24793" lat="59.7778277752" lon="10.7470777728">
		<tag k="name" v="Båleruddammen" />
		<tag k="ssr:stedsnr" v="751119" />
		<tag k="waterway" v="dam" />
	</node>
	<node id="-24792" lat="59.7606444457" lon="10.7763361032">
		<tag k="name" v="Tangen" />
		<tag k="natural" v="cape" />
		<tag k="ssr:stedsnr" v="733500" />
	</node>
	<node id="-24661" lat="59.7849055536" lon="10.7809722273">
		<tag k="name" v="Gjersjøen" />
		<tag k="natural" v="water" />
		<tag k="ssr:stedsnr" v="4314" />
		<tag k="water" v="lake" />
	</node>
	<node id="-24783" lat="59.7841805558" lon="10.8254861047">
		<tag k="name" v="Grytebekken" />
		<tag k="ssr:stedsnr" v="691680" />
		<tag k="waterway" v="stream" />
	</node>
	<node id="-24780" lat="59.7903861144" lon="10.79008055">
		<tag k="alt_name" v="Eistern" />
		<tag k="name" v="Eidsted" />
		<tag k="natural" v="beach" />
		<tag k="ssr:stedsnr" v="672304" />
	</node>
	<node id="-24772" lat="59.8047499971" lon="10.7982916609">
		<tag k="name" v="Fiskern" />
		<tag k="natural" v="beach" />
		<tag k="ssr:stedsnr" v="630622" />
	</node>
	<node id="-24765" lat="59.7887249961" lon="10.8083888902">
		<tag k="fixme" v="multiple name tags, choose one and add the other to alt_name" />
		<tag k="name" v="Lille Kolbotntjernet;Tømtetjern" />
		<tag k="natural" v="water" />
		<tag k="ssr:stedsnr" v="611346" />
	</node>
	<node id="-24632" lat="59.7922749959" lon="10.7833555569">
		<tag k="name" v="Geitungen" />
		<tag k="place" v="islet" />
		<tag k="ssr:stedsnr" v="126345" />
	</node>
	<node id="-24628" lat="59.801052776" lon="10.7795277739">
		<tag k="name" v="Kantorodden" />
		<tag k="natural" v="cape" />
		<tag k="ssr:stedsnr" v="327637" />
	</node>
	<node id="-24629" lat="59.7688361141" lon="10.7367166626">
		<tag k="name" v="Trolldalsbekken" />
		<tag k="ssr:stedsnr" v="327644" />
		<tag k="waterway" v="stream" />
	</node>
	<node id="-24756" lat="59.7953722189" lon="10.7716583312">
		<tag k="name" v="Skjervika" />
		<tag k="natural" v="bay" />
		<tag k="ssr:stedsnr" v="569681" />
	</node>
	<node id="-24753" lat="59.7771916635" lon="10.7482416674">
		<tag k="name" v="Søndredammen" />
		<tag k="ssr:stedsnr" v="569131" />
		<tag k="waterway" v="dam" />
	</node>
	<node id="-24739" lat="59.8011888612" lon="10.7758093763">
		<tag k="name" v="Lille Rørvik" />
		<tag k="natural" v="bay" />
		<tag k="ssr:stedsnr" v="509651" />
	</node>
	<node id="-24731" lat="59.8060861147" lon="10.8029333334">
		<tag k="name" v="Storebukta" />
		<tag k="natural" v="bay" />
		<tag k="ssr:stedsnr" v="448721" />
	</node>
	<node id="-24730" lat="59.8086194467" lon="10.8001722242">
		<tag k="name" v="Veslebukta" />
		<tag k="natural" v="bay" />
		<tag k="ssr:stedsnr" v="448719" />
	</node>
	<node id="-24729" lat="59.7971555581" lon="10.7992333363">
		<tag k="name" v="Storøya" />
		<tag k="place" v="islet" />
		<tag k="ssr:stedsnr" v="448714" />
	</node>
	<node id="-24665" lat="59.7646207083" lon="10.8025100627">
		<tag k="name" v="Greverudbekken" />
		<tag k="ssr:stedsnr" v="23715" />
		<tag k="waterway" v="stream" />
	</node>
	<node id="-24722" lat="59.7957638926" lon="10.7783388919">
		<tag k="name" v="Kjerringnebba" />
		<tag k="place" v="islet" />
		<tag k="ssr:stedsnr" v="429340" />
	</node>
	<node id="-24666" lat="59.7990666697" lon="10.7997999957">
		<tag k="name" v="Vesleøya" />
		<tag k="place" v="islet" />
		<tag k="ssr:stedsnr" v="23718" />
	</node>
</osm>
