<?xml version="1.0" encoding="UTF-8"?>
<osm generator="osmapis" version="0.6">
	<node id="-24839" lat="59.8160888149" lon="10.830662457">
		<tag k="layer" v="-1" />
		<tag k="name" v="Blixtunnelen" />
		<tag k="ssr:stedsnr" v="975837" />
		<tag k="tunnel" v="yes" />
	</node>
	<node id="-24837" lat="59.830511108" lon="10.762038885">
		<tag k="name" v="Elveflua" />
		<tag k="natural" v="shoal" />
		<tag k="place" v="locality" />
		<tag k="ssr:stedsnr" v="935290" />
	</node>
	<node id="-24836" lat="59.8044527754" lon="10.7377916664">
		<tag k="name" v="Tangen" />
		<tag k="natural" v="cape" />
		<tag k="ssr:stedsnr" v="935191" />
	</node>
	<node id="-24835" lat="59.8048361094" lon="10.7484805513">
		<tag k="fixme" v="consider natural=peak for the most distinct mountains in the district" />
		<tag k="name" v="Brannfjell" />
		<tag k="natural" v="hill" />
		<tag k="place" v="locality" />
		<tag k="ssr:stedsnr" v="934704" />
	</node>
	<node id="-24834" lat="59.8141444469" lon="10.7811722174">
		<tag k="name" v="Trolldalen" />
		<tag k="natural" v="valley" />
		<tag k="place" v="locality" />
		<tag k="ssr:stedsnr" v="934700" />
	</node>
	<node id="-24833" lat="59.7640249992" lon="10.7392722216">
		<tag k="fixme" v="consider natural=peak for the most distinct mountains in the district" />
		<tag k="name" v="Sjødalåsen" />
		<tag k="natural" v="hill" />
		<tag k="place" v="locality" />
		<tag k="ssr:stedsnr" v="934679" />
	</node>
	<node id="-24832" lat="59.8237166625" lon="10.8111805551">
		<tag k="name" v="Øvre Ormerud" />
		<tag k="place" v="quarter" />
		<tag k="ssr:stedsnr" v="934651" />
	</node>
	<node id="-24831" lat="59.7684388888" lon="10.8198749981">
		<tag k="fixme" v="consider place=suburb, village or hamlet" />
		<tag k="name" v="Sætreskogen" />
		<tag k="place" v="quarter" />
		<tag k="ssr:stedsnr" v="915411" />
	</node>
	<node id="-24830" lat="59.7625000028" lon="10.8093138976">
		<tag k="name" v="Sætre" />
		<tag k="place" v="isolated_dwelling" />
		<tag k="ssr:stedsnr" v="915373" />
	</node>
	<node id="-24829" lat="59.7916972267" lon="10.7746305564">
		<tag k="name" v="Tyrigrava" />
		<tag k="place" v="isolated_dwelling" />
		<tag k="ssr:stedsnr" v="915325" />
	</node>
	<node id="-24828" lat="59.7892750025" lon="10.7731472214">
		<tag k="alt_name" v="Villa Sandvigen" />
		<tag k="name" v="Sandvika" />
		<tag k="place" v="isolated_dwelling" />
		<tag k="ssr:stedsnr" v="915323" />
	</node>
	<node id="-24827" lat="59.7859842433" lon="10.8008968531">
		<tag k="name" v="Myrvoll holdeplass" />
		<tag k="railway" v="halt" />
		<tag k="ssr:stedsnr" v="915320" />
		<tag k="train" v="yes" />
	</node>
	<node id="-24826" lat="59.8185555553" lon="10.8162249937">
		<tag k="name" v="Tårnåsen" />
		<tag k="place" v="isolated_dwelling" />
		<tag k="ssr:stedsnr" v="915265" />
	</node>
	<node id="-24825" lat="59.7764472266" lon="10.7324861193">
		<tag k="name" v="Djupholet" />
		<tag k="natural" v="bay" />
		<tag k="ssr:stedsnr" v="906753" />
	</node>
	<node id="-24824" lat="59.8009777765" lon="10.732369449">
		<tag k="name" v="Kalvatngrunnen" />
		<tag k="natural" v="shoal" />
		<tag k="place" v="locality" />
		<tag k="ssr:stedsnr" v="875226" />
	</node>
	<node id="-24823" lat="59.7919361119" lon="10.7954416725">
		<tag k="fixme" v="consider natural=peak for the most distinct mountains in the district" />
		<tag k="name" v="Strutåsen" />
		<tag k="natural" v="hill" />
		<tag k="place" v="locality" />
		<tag k="ssr:stedsnr" v="873688" />
	</node>
	<node id="-24822" lat="59.763569446" lon="10.735680559">
		<tag k="name" v="Sjødalen" />
		<tag k="natural" v="valley" />
		<tag k="place" v="locality" />
		<tag k="ssr:stedsnr" v="873681" />
	</node>
	<node id="-24821" lat="59.7778361137" lon="10.7677750048">
		<tag k="name" v="Rytterkleiva" />
		<tag k="natural" v="valley" />
		<tag k="place" v="locality" />
		<tag k="ssr:stedsnr" v="873679" />
	</node>
	<node id="-24820" lat="59.7980916659" lon="10.7710750016">
		<tag k="junction" v="yes" />
		<tag k="name" v="Sandvad" />
		<tag k="place" v="locality" />
		<tag k="ssr:stedsnr" v="873121" />
	</node>
	<node id="-24819" lat="59.805638891" lon="10.7385583392">
		<tag k="name" v="Mjølsekken" />
		<tag k="natural" v="cape" />
		<tag k="ssr:stedsnr" v="855284" />
	</node>
	<node id="-24818" lat="59.8089888871" lon="10.832933325">
		<tag k="name" v="Grønlimyra" />
		<tag k="natural" v="wetland" />
		<tag k="ssr:stedsnr" v="855272" />
	</node>
	<node id="-24817" lat="59.8068638886" lon="10.8199361047">
		<tag k="fixme" v="consider place=suburb, village or hamlet" />
		<tag k="name" v="Hellerasten" />
		<tag k="place" v="quarter" />
		<tag k="ssr:stedsnr" v="855270" />
	</node>
	<node id="-24816" lat="59.8031143965" lon="10.7991719765">
		<tag k="alt_name" v="Kolbotnvannet" />
		<tag k="name" v="Kolbotntjernet" />
		<tag k="natural" v="water" />
		<tag k="ssr:stedsnr" v="855267" />
		<tag k="water" v="lake" />
	</node>
	<node id="-24815" lat="59.8109393288" lon="10.8011916033">
		<tag k="alt_name" v="Kolbotn" />
		<tag k="name" v="Kolbotn stasjon" />
		<tag k="railway" v="station" />
		<tag k="ssr:stedsnr" v="855268" />
		<tag k="train" v="yes" />
	</node>
	<node id="-24814" lat="59.8108500034" lon="10.7436611143">
		<tag k="name" v="Linnebukta" />
		<tag k="natural" v="bay" />
		<tag k="ssr:stedsnr" v="855265" />
	</node>
	<node id="-24813" lat="59.7750833372" lon="10.8024694429">
		<tag k="alt_name" v="Greverud" />
		<tag k="amenity" v="place_of_worship" />
		<tag k="denomination" v="lutheran" />
		<tag k="name" v="Greverud kirke" />
		<tag k="religion" v="christian" />
		<tag k="ssr:stedsnr" v="854419" />
	</node>
	<node id="-24812" lat="59.7655999987" lon="10.7802083263">
		<tag k="name" v="Sjeisen" />
		<tag k="place" v="isolated_dwelling" />
		<tag k="ssr:stedsnr" v="854401" />
	</node>
	<node id="-24811" lat="59.7650873082" lon="10.813352545">
		<tag k="alt_name" v="Oppegård" />
		<tag k="name" v="Oppegård stasjon" />
		<tag k="railway" v="station" />
		<tag k="ssr:stedsnr" v="854382" />
		<tag k="train" v="yes" />
	</node>
	<node id="-24810" lat="59.8028499964" lon="10.786975001">
		<tag k="name" v="Vassbonn" />
		<tag k="place" v="isolated_dwelling" />
		<tag k="ssr:stedsnr" v="854341" />
	</node>
	<node id="-24809" lat="59.8220611146" lon="10.7529861112">
		<tag k="name" v="Sandbukta" />
		<tag k="place" v="isolated_dwelling" />
		<tag k="ssr:stedsnr" v="854278" />
	</node>
	<node id="-24808" lat="59.8179638886" lon="10.7713638893">
		<tag k="name" v="Gjersjøelva" />
		<tag k="old_name" v="Hvitebjørnselv" />
		<tag k="ssr:stedsnr" v="854251" />
		<tag k="waterway" v="stream" />
	</node>
	<node id="-24807" lat="59.8126000036" lon="10.7721666605">
		<tag k="name" v="Nydammen" />
		<tag k="natural" v="water" />
		<tag k="ssr:stedsnr" v="854241" />
	</node>
	<node id="-24806" lat="59.8059166682" lon="10.8057611069">
		<tag k="bridge" v="yes" />
		<tag k="layer" v="1" />
		<tag k="name" v="Skiveien" />
		<tag k="ssr:stedsnr" v="835135" />
	</node>
	<node id="-24805" lat="59.8133638903" lon="10.822219442">
		<tag k="amenity" v="school" />
		<tag k="name" v="Tårnåsen skole" />
		<tag k="ssr:stedsnr" v="813475" />
	</node>
	<node id="-24804" lat="59.7736472242" lon="10.8281888935">
		<tag k="name" v="Laugskollen" />
		<tag k="natural" v="hill" />
		<tag k="place" v="locality" />
		<tag k="ssr:stedsnr" v="812732" />
	</node>
	<node id="-24803" lat="59.8212305561" lon="10.7512833389">
		<tag k="name" v="Sandbukta" />
		<tag k="natural" v="bay" />
		<tag k="ssr:stedsnr" v="812720" />
	</node>
	<node id="-24802" lat="59.764572225" lon="10.8254999958">
		<tag k="name" v="Fjell" />
		<tag k="place" v="locality" />
		<tag k="ssr:stedsnr" v="812140" />
	</node>
	<node id="-24801" lat="59.8020638912" lon="10.7914305483">
		<tag k="landuse" v="winter_sports" />
		<tag k="name" v="Ingierkollen" />
		<tag k="piste:type" v="downhill" />
		<tag k="ssr:stedsnr" v="812135" />
	</node>
	<node id="-24800" lat="59.7858805583" lon="10.7444194375">
		<tag k="leisure" v="pitch" />
		<tag k="name" v="Vestenga idrettsplass" />
		<tag k="ssr:stedsnr" v="812133" />
	</node>
	<node id="-24799" lat="59.823763885" lon="10.7527388968">
		<tag k="alt_name" v="Bjørnehodet" />
		<tag k="name" v="Bjørnehue" />
		<tag k="natural" v="cape" />
		<tag k="ssr:stedsnr" v="794511" />
	</node>
	<node id="-24798" lat="59.8025916662" lon="10.8196166674">
		<tag k="alt_name" v="Øgården" />
		<tag k="name" v="Ødegården" />
		<tag k="place" v="isolated_dwelling" />
		<tag k="ssr:stedsnr" v="794240" />
	</node>
	<node id="-24797" lat="59.8090916707" lon="10.742499997">
		<tag k="name" v="Strandkollen" />
		<tag k="place" v="isolated_dwelling" />
		<tag k="ssr:stedsnr" v="794235" />
	</node>
	<node id="-24796" lat="59.7758999972" lon="10.7514805548">
		<tag k="alt_name" v="Oppegård, søndre" />
		<tag k="name" v="Søndre Oppegård" />
		<tag k="place" v="farm" />
		<tag k="ssr:stedsnr" v="793340" />
	</node>
	<node id="-24795" lat="59.8225749987" lon="10.7742222211">
		<tag k="alt_name" v="Mastemyr industriområde" />
		<tag k="name" v="Mastemyr" />
		<tag k="place" v="quarter" />
		<tag k="ssr:stedsnr" v="793319" />
	</node>
	<node id="-24794" lat="59.7886972263" lon="10.7406944411">
		<tag k="name" v="Kvernhusbekken" />
		<tag k="ssr:stedsnr" v="786309" />
		<tag k="waterway" v="stream" />
	</node>
	<node id="-24793" lat="59.7716250023" lon="10.8049722138">
		<tag k="alt_name" v="Greverud, vestre" />
		<tag k="name" v="Vestre Greverud" />
		<tag k="place" v="farm" />
		<tag k="ssr:stedsnr" v="793466" />
	</node>
	<node id="-24792" lat="59.7675500025" lon="10.7898027756">
		<tag k="name" v="Flåtestad" />
		<tag k="place" v="farm" />
		<tag k="ssr:stedsnr" v="793457" />
	</node>
	<node id="-24791" lat="59.7695749975" lon="10.778833326">
		<tag k="name" v="Kurud" />
		<tag k="place" v="farm" />
		<tag k="ssr:stedsnr" v="793455" />
	</node>
	<node id="-24790" lat="59.7898194474" lon="10.7995249991">
		<tag k="bridge" v="yes" />
		<tag k="layer" v="1" />
		<tag k="name" v="Ekornrud" />
		<tag k="ssr:stedsnr" v="774122" />
	</node>
	<node id="-24789" lat="59.8109444435" lon="10.7393583287">
		<tag k="name" v="Spirebuktgrunnen" />
		<tag k="natural" v="shoal" />
		<tag k="place" v="locality" />
		<tag k="ssr:stedsnr" v="753275" />
	</node>
	<node id="-24788" lat="59.7944666635" lon="10.8128361141">
		<tag k="amenity" v="school" />
		<tag k="name" v="Oppegård v.g. skole" />
		<tag k="ssr:stedsnr" v="752488" />
	</node>
	<node id="-24787" lat="59.807211113" lon="10.7756694444">
		<tag k="fixme" v="consider natural=peak for the most distinct mountains in the district" />
		<tag k="name" v="Gjersjøbruåsen" />
		<tag k="natural" v="hill" />
		<tag k="place" v="locality" />
		<tag k="ssr:stedsnr" v="751754" />
	</node>
	<node id="-24786" lat="59.7887138917" lon="10.7470555582">
		<tag k="name" v="Oredalen" />
		<tag k="natural" v="valley" />
		<tag k="place" v="locality" />
		<tag k="ssr:stedsnr" v="751746" />
	</node>
	<node id="-24785" lat="59.8074916667" lon="10.7977638903">
		<tag k="name" v="Båtsleppa" />
		<tag k="place" v="hamlet" />
		<tag k="ssr:stedsnr" v="751723" />
	</node>
	<node id="-24784" lat="59.769680556" lon="10.8255972211">
		<tag k="name" v="Ryberg" />
		<tag k="place" v="hamlet" />
		<tag k="ssr:stedsnr" v="751714" />
	</node>
	<node id="-24783" lat="59.7705361105" lon="10.7437416748">
		<tag k="name" v="Majorskilden" />
		<tag k="ssr:stedsnr" v="751711" />
		<tag k="waterway" v="stream" />
	</node>
	<node id="-24782" lat="59.7790972192" lon="10.7821694397">
		<tag k="name" v="Kurudodden" />
		<tag k="natural" v="cape" />
		<tag k="ssr:stedsnr" v="751701" />
	</node>
	<node id="-24781" lat="59.7778277752" lon="10.7470777728">
		<tag k="name" v="Båleruddammen" />
		<tag k="ssr:stedsnr" v="751119" />
		<tag k="waterway" v="dam" />
	</node>
	<node id="-24780" lat="59.7606444457" lon="10.7763361032">
		<tag k="name" v="Tangen" />
		<tag k="natural" v="cape" />
		<tag k="ssr:stedsnr" v="733500" />
	</node>
	<node id="-24779" lat="59.7689749975" lon="10.7993000031">
		<tag k="fixme" v="consider natural=peak for the most distinct mountains in the district" />
		<tag k="name" v="Nyjordåsen" />
		<tag k="natural" v="hill" />
		<tag k="place" v="locality" />
		<tag k="ssr:stedsnr" v="733408" />
	</node>
	<node id="-24778" lat="59.7632249976" lon="10.7519833349">
		<tag k="alt_name" v="Rødkilden" />
		<tag k="name" v="Rødkjelda" />
		<tag k="place" v="farm" />
		<tag k="ssr:stedsnr" v="733398" />
	</node>
	<node id="-24777" lat="59.7658083367" lon="10.7738250082">
		<tag k="name" v="Tjoredalen" />
		<tag k="natural" v="valley" />
		<tag k="place" v="locality" />
		<tag k="ssr:stedsnr" v="733396" />
	</node>
	<node id="-24776" lat="59.8138999997" lon="10.752899996">
		<tag k="name" v="Delingsdalen" />
		<tag k="natural" v="valley" />
		<tag k="place" v="locality" />
		<tag k="ssr:stedsnr" v="733268" />
	</node>
	<node id="-24775" lat="59.7992249978" lon="10.826561109">
		<tag k="name" v="Fløysbonn" />
		<tag k="place" v="farm" />
		<tag k="ssr:stedsnr" v="732363" />
	</node>
	<node id="-24774" lat="59.7767388895" lon="10.8147055467">
		<tag k="alt_name" v="Greverud, østre" />
		<tag k="name" v="Østre Greverud" />
		<tag k="place" v="farm" />
		<tag k="ssr:stedsnr" v="732322" />
	</node>
	<node id="-24773" lat="59.8240944459" lon="10.7777833413">
		<tag k="junction" v="yes" />
		<tag k="name" v="Mastemyr" />
		<tag k="place" v="locality" />
		<tag k="ssr:stedsnr" v="691691" />
	</node>
	<node id="-24772" lat="59.7970222262" lon="10.8203555556">
		<tag k="name" v="Fløysbonn industriområde" />
		<tag k="place" v="quarter" />
		<tag k="ssr:stedsnr" v="691684" />
	</node>
	<node id="-24771" lat="59.7841805558" lon="10.8254861047">
		<tag k="name" v="Grytebekken" />
		<tag k="ssr:stedsnr" v="691680" />
		<tag k="waterway" v="stream" />
	</node>
	<node id="-24770" lat="59.7808472221" lon="10.8213333334">
		<tag k="name" v="Grytebråtan" />
		<tag k="place" v="locality" />
		<tag k="ssr:stedsnr" v="691146" />
	</node>
	<node id="-24769" lat="59.7885472245" lon="10.7590666695">
		<tag k="name" v="Leirskallen" />
		<tag k="place" v="isolated_dwelling" />
		<tag k="ssr:stedsnr" v="672306" />
	</node>
	<node id="-24768" lat="59.7903861144" lon="10.79008055">
		<tag k="alt_name" v="Eistern" />
		<tag k="name" v="Eidsted" />
		<tag k="natural" v="beach" />
		<tag k="ssr:stedsnr" v="672304" />
	</node>
	<node id="-24767" lat="59.7788416626" lon="10.7529166736">
		<tag k="name" v="Grønmo" />
		<tag k="place" v="farm" />
		<tag k="ssr:stedsnr" v="672294" />
	</node>
	<node id="-24766" lat="59.8209777787" lon="10.8137499919">
		<tag k="name" v="Høyås" />
		<tag k="place" v="isolated_dwelling" />
		<tag k="ssr:stedsnr" v="672277" />
	</node>
	<node id="-24765" lat="59.8154277814" lon="10.7617361158">
		<tag k="fixme" v="consider natural=peak for the most distinct mountains in the district" />
		<tag k="name" v="Hvitebjørnåsen" />
		<tag k="natural" v="hill" />
		<tag k="place" v="locality" />
		<tag k="ssr:stedsnr" v="672257" />
	</node>
	<node id="-24764" lat="59.8202027812" lon="10.7850805505">
		<tag k="name" v="Lienga" />
		<tag k="place" v="isolated_dwelling" />
		<tag k="ssr:stedsnr" v="672245" />
	</node>
	<node id="-24763" lat="59.7825194416" lon="10.7639333315">
		<tag k="bridge" v="yes" />
		<tag k="layer" v="1" />
		<tag k="name" v="Dal" />
		<tag k="ssr:stedsnr" v="652106" />
	</node>
	<node id="-24762" lat="59.8149388872" lon="10.7906666706">
		<tag k="name" v="Iskulen" />
		<tag k="natural" v="hill" />
		<tag k="place" v="locality" />
		<tag k="ssr:stedsnr" v="630662" />
	</node>
	<node id="-24761" lat="59.7987750032" lon="10.8366638881">
		<tag k="name" v="Fløysbonnmyra" />
		<tag k="natural" v="wetland" />
		<tag k="ssr:stedsnr" v="630624" />
	</node>
	<node id="-24760" lat="59.8047499971" lon="10.7982916609">
		<tag k="name" v="Fiskern" />
		<tag k="natural" v="beach" />
		<tag k="ssr:stedsnr" v="630622" />
	</node>
	<node id="-24759" lat="59.786180552" lon="10.73394723">
		<tag k="name" v="Roald Amundsens hjem" />
		<tag k="place" v="isolated_dwelling" />
		<tag k="ssr:stedsnr" v="630478" />
	</node>
	<node id="-24758" lat="59.7961777801" lon="10.8105416613">
		<tag k="alt_name" v="Sofiemyr" />
		<tag k="amenity" v="place_of_worship" />
		<tag k="denomination" v="lutheran" />
		<tag k="name" v="Sofiemyr kirke" />
		<tag k="religion" v="christian" />
		<tag k="ssr:stedsnr" v="628890" />
	</node>
	<node id="-24757" lat="59.7649999996" lon="10.7972861067">
		<tag k="name" v="Holen" />
		<tag k="place" v="isolated_dwelling" />
		<tag k="ssr:stedsnr" v="611405" />
	</node>
	<node id="-24756" lat="59.7953388883" lon="10.7524027865">
		<tag k="alt_name" v="Torbjørnrud" />
		<tag k="name" v="Torbjørnsrud" />
		<tag k="place" v="farm" />
		<tag k="ssr:stedsnr" v="611379" />
	</node>
	<node id="-24755" lat="59.7967222251" lon="10.8135638879">
		<tag k="fixme" v="consider place=suburb, village or hamlet" />
		<tag k="name" v="Sofiemyr" />
		<tag k="place" v="quarter" />
		<tag k="ssr:stedsnr" v="611369" />
	</node>
	<node id="-24754" lat="59.7851666629" lon="10.7324749944">
		<tag k="alt_name" v="Bålerud brygge" />
		<tag k="man_made" v="quay" />
		<tag k="name" v="Bålerudbrygga" />
		<tag k="old_name" v="Bålerudbrygge" />
		<tag k="place" v="locality" />
		<tag k="ssr:stedsnr" v="611348" />
	</node>
	<node id="-24753" lat="59.7887249961" lon="10.8083888902">
		<tag k="fixme" v="multiple name tags, choose one and add the other to alt_name" />
		<tag k="name" v="Lille Kolbotntjernet;Tømtetjern" />
		<tag k="natural" v="water" />
		<tag k="ssr:stedsnr" v="611346" />
	</node>
	<node id="-24752" lat="59.784211113" lon="10.7518805613">
		<tag k="alt_name" v="Oppegård, vestre" />
		<tag k="name" v="Vestre Oppegård" />
		<tag k="place" v="farm" />
		<tag k="ssr:stedsnr" v="611327" />
	</node>
	<node id="-24751" lat="59.7801138931" lon="10.8239138928">
		<tag k="fixme" v="consider natural=peak for the most distinct mountains in the district" />
		<tag k="name" v="Gryteåsen" />
		<tag k="natural" v="hill" />
		<tag k="place" v="locality" />
		<tag k="ssr:stedsnr" v="611325" />
	</node>
	<node id="-24750" lat="59.7765611134" lon="10.775625009">
		<tag k="alt_name" v="Kullmileåsen" />
		<tag k="fixme" v="consider natural=peak for the most distinct mountains in the district" />
		<tag k="name" v="Kolmileåsen" />
		<tag k="natural" v="hill" />
		<tag k="place" v="locality" />
		<tag k="ssr:stedsnr" v="611320" />
	</node>
	<node id="-24749" lat="59.8270555568" lon="10.7591916637">
		<tag k="name" v="Bestemorstranda" />
		<tag k="natural" v="beach" />
		<tag k="place" v="locality" />
		<tag k="ssr:stedsnr" v="611297" />
	</node>
	<node id="-24748" lat="59.8228999963" lon="10.7650750042">
		<tag k="fixme" v="consider natural=peak for the most distinct mountains in the district" />
		<tag k="name" v="Kruttmølleåsen" />
		<tag k="natural" v="hill" />
		<tag k="place" v="locality" />
		<tag k="ssr:stedsnr" v="611295" />
	</node>
	<node id="-24747" lat="59.8045666656" lon="10.7871555565">
		<tag k="bridge" v="yes" />
		<tag k="layer" v="1" />
		<tag k="loc_name" v="Slalåmgjennomgangen" />
		<tag k="name" v="Slalomgjennomgangen" />
		<tag k="ssr:stedsnr" v="592135" />
	</node>
	<node id="-24746" lat="59.8130694464" lon="10.8036194499">
		<tag k="amenity" v="school" />
		<tag k="name" v="Kolbotn skole" />
		<tag k="ssr:stedsnr" v="570466" />
	</node>
	<node id="-24745" lat="59.8086444422" lon="10.7867944524">
		<tag k="fixme" v="consider natural=peak for the most distinct mountains in the district" />
		<tag k="name" v="Vestre Ingieråsen" />
		<tag k="natural" v="hill" />
		<tag k="place" v="locality" />
		<tag k="ssr:stedsnr" v="569683" />
	</node>
	<node id="-24744" lat="59.7953722189" lon="10.7716583312">
		<tag k="name" v="Skjervika" />
		<tag k="natural" v="bay" />
		<tag k="ssr:stedsnr" v="569681" />
	</node>
	<node id="-24743" lat="59.8059527736" lon="10.8307583319">
		<tag k="name" v="Snipeholen" />
		<tag k="place" v="locality" />
		<tag k="ssr:stedsnr" v="569678" />
	</node>
	<node id="-24742" lat="59.7814499957" lon="10.7490527747">
		<tag k="name" v="Solheim" />
		<tag k="place" v="farm" />
		<tag k="ssr:stedsnr" v="569535" />
	</node>
	<node id="-24741" lat="59.7771916635" lon="10.7482416674">
		<tag k="name" v="Søndredammen" />
		<tag k="ssr:stedsnr" v="569131" />
		<tag k="waterway" v="dam" />
	</node>
	<node id="-24740" lat="59.7873777815" lon="10.7612055482">
		<tag k="junction" v="yes" />
		<tag k="name" v="Bekkenstein" />
		<tag k="place" v="locality" />
		<tag k="ssr:stedsnr" v="569126" />
	</node>
	<node id="-24739" lat="59.7842361096" lon="10.7545916658">
		<tag k="alt_name" v="Oppegård, østre" />
		<tag k="name" v="Østre Oppegård" />
		<tag k="place" v="farm" />
		<tag k="ssr:stedsnr" v="550310" />
	</node>
	<node id="-24738" lat="59.7822333302" lon="10.8076388909">
		<tag k="alt_name" v="Østli (nedl.)" />
		<tag k="name" v="Østli" />
		<tag k="place" v="isolated_dwelling" />
		<tag k="ssr:stedsnr" v="550307" />
	</node>
	<node id="-24737" lat="59.8156666654" lon="10.7475916603">
		<tag k="alt_name" v="Jonstrand" />
		<tag k="name" v="Jonstranda" />
		<tag k="place" v="isolated_dwelling" />
		<tag k="ssr:stedsnr" v="550274" />
	</node>
	<node id="-24736" lat="59.8156472222" lon="10.801102777">
		<tag k="fixme" v="consider natural=peak for the most distinct mountains in the district" />
		<tag k="name" v="Rikeåsen" />
		<tag k="natural" v="hill" />
		<tag k="place" v="locality" />
		<tag k="ssr:stedsnr" v="550266" />
	</node>
	<node id="-24735" lat="59.808744442" lon="10.7414555465">
		<tag k="name" v="Sandbukta" />
		<tag k="natural" v="bay" />
		<tag k="ssr:stedsnr" v="543335" />
	</node>
	<node id="-24734" lat="59.8109222221" lon="10.7725361028">
		<tag k="bridge" v="yes" />
		<tag k="layer" v="1" />
		<tag k="name" v="Nydammen" />
		<tag k="ssr:stedsnr" v="531130" />
	</node>
	<node id="-24733" lat="59.7866083297" lon="10.8039777747">
		<tag k="bridge" v="yes" />
		<tag k="layer" v="1" />
		<tag k="name" v="Østli" />
		<tag k="ssr:stedsnr" v="531125" />
	</node>
	<node id="-24732" lat="59.7876305516" lon="10.7996222218">
		<tag k="bridge" v="yes" />
		<tag k="layer" v="1" />
		<tag k="name" v="Tverrveien" />
		<tag k="ssr:stedsnr" v="531120" />
	</node>
	<node id="-24731" lat="59.8350055599" lon="10.751641659">
		<tag k="name" v="Hvitebjørnflua" />
		<tag k="natural" v="shoal" />
		<tag k="place" v="locality" />
		<tag k="ssr:stedsnr" v="510285" />
	</node>
	<node id="-24730" lat="59.785694447" lon="10.7909416752">
		<tag k="name" v="Nordre Gjersjøli" />
		<tag k="natural" v="slope" />
		<tag k="place" v="locality" />
		<tag k="ssr:stedsnr" v="509687" />
	</node>
	<node id="-24729" lat="59.8126222244" lon="10.800152769">
		<tag k="name" v="Rasten" />
		<tag k="place" v="hamlet" />
		<tag k="ssr:stedsnr" v="509672" />
	</node>
	<node id="-24728" lat="59.8285249987" lon="10.7611249969">
		<tag k="name" v="Kattøyodden" />
		<tag k="natural" v="cape" />
		<tag k="ssr:stedsnr" v="509664" />
	</node>
	<node id="-24727" lat="59.8011888612" lon="10.7758093763">
		<tag k="name" v="Lille Rørvik" />
		<tag k="natural" v="bay" />
		<tag k="ssr:stedsnr" v="509651" />
	</node>
	<node id="-24726" lat="59.796144442" lon="10.8141444375">
		<tag k="amenity" v="school" />
		<tag k="name" v="Fløysbonn ungdomsskole" />
		<tag k="ssr:stedsnr" v="509484" />
	</node>
	<node id="-24725" lat="59.761138886" lon="10.7426611116">
		<tag k="name" v="Bergstuløkka" />
		<tag k="place" v="locality" />
		<tag k="ssr:stedsnr" v="509111" />
	</node>
	<node id="-24724" lat="59.7663388924" lon="10.8275472257">
		<tag k="name" v="Tusse" />
		<tag k="place" v="isolated_dwelling" />
		<tag k="ssr:stedsnr" v="490377" />
	</node>
	<node id="-24723" lat="59.8071027804" lon="10.8063555544">
		<tag k="alt_name" v="Kolbotn" />
		<tag k="amenity" v="place_of_worship" />
		<tag k="denomination" v="lutheran" />
		<tag k="name" v="Kolbotn kirke" />
		<tag k="religion" v="christian" />
		<tag k="ssr:stedsnr" v="490249" />
	</node>
	<node id="-24722" lat="59.7820222215" lon="10.8184055468">
		<tag k="name" v="Dammen" />
		<tag k="place" v="isolated_dwelling" />
		<tag k="ssr:stedsnr" v="449497" />
	</node>
	<node id="-24721" lat="59.7869194471" lon="10.7393972194">
		<tag k="fixme" v="consider natural=peak for the most distinct mountains in the district" />
		<tag k="name" v="Rødsteinåsen" />
		<tag k="natural" v="hill" />
		<tag k="place" v="locality" />
		<tag k="ssr:stedsnr" v="448739" />
	</node>
	<node id="-24720" lat="59.8111388916" lon="10.805324993">
		<tag k="name" v="Kullebund" />
		<tag k="place" v="quarter" />
		<tag k="ssr:stedsnr" v="448725" />
	</node>
	<node id="-24719" lat="59.8060861147" lon="10.8029333334">
		<tag k="name" v="Storebukta" />
		<tag k="natural" v="bay" />
		<tag k="ssr:stedsnr" v="448721" />
	</node>
	<node id="-24718" lat="59.8086194467" lon="10.8001722242">
		<tag k="name" v="Veslebukta" />
		<tag k="natural" v="bay" />
		<tag k="ssr:stedsnr" v="448719" />
	</node>
	<node id="-24717" lat="59.7971555581" lon="10.7992333363">
		<tag k="name" v="Storøya" />
		<tag k="place" v="islet" />
		<tag k="ssr:stedsnr" v="448714" />
	</node>
	<node id="-24715" lat="59.8183055576" lon="10.7483416653">
		<tag k="fixme" v="consider natural=beach + surface=sand" />
		<tag k="leisure" v="swimming_area" />
		<tag k="name" v="Ingierstrand bad" />
		<tag k="place" v="locality" />
		<tag k="ssr:stedsnr" v="448130" />
	</node>
	<node id="-24714" lat="59.8145908211" lon="10.7906903481">
		<tag k="fixme" v="consider natural=peak for the most distinct mountains in the district" />
		<tag k="name" v="Øståsen" />
		<tag k="natural" v="hill" />
		<tag k="place" v="locality" />
		<tag k="ssr:stedsnr" v="430270" />
	</node>
	<node id="-24713" lat="59.8008555569" lon="10.7503583342">
		<tag k="name" v="Revedalen" />
		<tag k="natural" v="valley" />
		<tag k="place" v="locality" />
		<tag k="ssr:stedsnr" v="430257" />
	</node>
	<node id="-24712" lat="59.8034833366" lon="10.7567333293">
		<tag k="name" v="Bjørnsrud" />
		<tag k="place" v="farm" />
		<tag k="ssr:stedsnr" v="430255" />
	</node>
	<node id="-24711" lat="59.7956805531" lon="10.7344583329">
		<tag k="name" v="Prosted" />
		<tag k="place" v="isolated_dwelling" />
		<tag k="ssr:stedsnr" v="429346" />
	</node>
	<node id="-24710" lat="59.7957638926" lon="10.7783388919">
		<tag k="name" v="Kjerringnebba" />
		<tag k="place" v="islet" />
		<tag k="ssr:stedsnr" v="429340" />
	</node>
	<node id="-24709" lat="59.7963111107" lon="10.7942305636">
		<tag k="name" v="Åsen" />
		<tag k="place" v="isolated_dwelling" />
		<tag k="ssr:stedsnr" v="429339" />
	</node>
	<node id="-24708" lat="59.7751833337" lon="10.732241659">
		<tag k="alt_name" v="Svartskog brygge" />
		<tag k="man_made" v="quay" />
		<tag k="name" v="Svartskogbrygga" />
		<tag k="old_name" v="Svartskogbrygge" />
		<tag k="place" v="locality" />
		<tag k="ssr:stedsnr" v="429294" />
	</node>
	<node id="-24707" lat="59.8206333313" lon="10.7878361039">
		<tag k="name" v="Li" />
		<tag k="place" v="farm" />
		<tag k="ssr:stedsnr" v="429287" />
	</node>
	<node id="-24706" lat="59.7905388899" lon="10.7909277788">
		<tag k="name" v="Eidsdalen" />
		<tag k="natural" v="valley" />
		<tag k="place" v="locality" />
		<tag k="ssr:stedsnr" v="266714" />
	</node>
	<node id="-24705" lat="59.8199972215" lon="10.7915861072">
		<tag k="leisure" v="park" />
		<tag k="name" v="Kolbotn gravlund" />
		<tag k="ssr:stedsnr" v="266676" />
	</node>
	<node id="-24704" lat="59.7931111127" lon="10.826875008">
		<tag k="name" v="Fløysbonn" />
		<tag k="place" v="locality" />
		<tag k="ssr:stedsnr" v="266674" />
	</node>
	<node id="-24703" lat="59.7755416631" lon="10.7513027715">
		<tag k="fixme" v="consider place=hamlet" />
		<tag k="name" v="Søndre Oppegård" />
		<tag k="place" v="village" />
		<tag k="ssr:stedsnr" v="266671" />
	</node>
	<node id="-24702" lat="59.7849027737" lon="10.7393638974">
		<tag k="name" v="Rødstein" />
		<tag k="place" v="isolated_dwelling" />
		<tag k="ssr:stedsnr" v="247323" />
	</node>
	<node id="-24701" lat="59.783711108" lon="10.8164305509">
		<tag k="name" v="Korsveien" />
		<tag k="place" v="isolated_dwelling" />
		<tag k="ssr:stedsnr" v="247303" />
	</node>
	<node id="-24700" lat="59.7813111079" lon="10.7949722157">
		<tag k="alt_name" v="Stangåsen" />
		<tag k="fixme" v="consider natural=peak for the most distinct mountains in the district" />
		<tag k="name" v="Stangeåsen" />
		<tag k="natural" v="hill" />
		<tag k="place" v="locality" />
		<tag k="ssr:stedsnr" v="247299" />
	</node>
	<node id="-24699" lat="59.8186111114" lon="10.7871833372">
		<tag k="bridge" v="yes" />
		<tag k="layer" v="1" />
		<tag k="name" v="Trollåsveien" />
		<tag k="ssr:stedsnr" v="228134" />
	</node>
	<node id="-24698" lat="59.7874527782" lon="10.7616138885">
		<tag k="bridge" v="yes" />
		<tag k="layer" v="1" />
		<tag k="name" v="Lerskallen" />
		<tag k="ssr:stedsnr" v="228127" />
	</node>
	<node id="-24697" lat="59.8095388904" lon="10.7703361133">
		<tag k="bridge" v="yes" />
		<tag k="layer" v="1" />
		<tag k="name" v="Hvitebjørn" />
		<tag k="ssr:stedsnr" v="228125" />
	</node>
	<node id="-24696" lat="59.7752749996" lon="10.8013888805">
		<tag k="fixme" v="consider place=suburb, village or hamlet" />
		<tag k="name" v="Greverud" />
		<tag k="place" v="quarter" />
		<tag k="ssr:stedsnr" v="207655" />
	</node>
	<node id="-24695" lat="59.7853638902" lon="10.8001722262">
		<tag k="fixme" v="consider place=suburb, village or hamlet" />
		<tag k="name" v="Myrvoll" />
		<tag k="place" v="quarter" />
		<tag k="ssr:stedsnr" v="207555" />
	</node>
	<node id="-24694" lat="59.7900666689" lon="10.8007972216">
		<tag k="building" v="commercial" />
		<tag k="name" v="Kolbotn trelast" />
		<tag k="ssr:stedsnr" v="206499" />
	</node>
	<node id="-24693" lat="59.781133335" lon="10.7887416691">
		<tag k="name" v="Søndre Gjersjøli" />
		<tag k="natural" v="slope" />
		<tag k="place" v="locality" />
		<tag k="ssr:stedsnr" v="205747" />
	</node>
	<node id="-24692" lat="59.7982117584" lon="10.7771016481">
		<tag k="name" v="Store Rørvik" />
		<tag k="natural" v="bay" />
		<tag k="ssr:stedsnr" v="205716" />
	</node>
	<node id="-24691" lat="59.7929777819" lon="10.7360694519">
		<tag k="name" v="Bekkenstenfeltet" />
		<tag k="place" v="isolated_dwelling" />
		<tag k="ssr:stedsnr" v="205713" />
	</node>
	<node id="-24690" lat="59.7979305549" lon="10.7722916591">
		<tag k="name" v="Sandvadodden" />
		<tag k="natural" v="cape" />
		<tag k="ssr:stedsnr" v="205709" />
	</node>
	<node id="-24689" lat="59.7857722177" lon="10.810200007">
		<tag k="name" v="Ødegård skog" />
		<tag k="place" v="locality" />
		<tag k="ssr:stedsnr" v="205710" />
	</node>
	<node id="-24688" lat="59.769569442" lon="10.7872083408">
		<tag k="fixme" v="consider natural=beach + surface=sand" />
		<tag k="leisure" v="swimming_area" />
		<tag k="name" v="Julekvelden" />
		<tag k="place" v="locality" />
		<tag k="ssr:stedsnr" v="205131" />
	</node>
	<node id="-24687" lat="59.8114277787" lon="10.7971055634">
		<tag k="amenity" v="townhall" />
		<tag k="name" v="Oppegård rådhus" />
		<tag k="ssr:stedsnr" v="205068" />
	</node>
	<node id="-24686" lat="59.8150000003" lon="10.8212444486">
		<tag k="name" v="Tårnåsen" />
		<tag k="place" v="isolated_dwelling" />
		<tag k="ssr:stedsnr" v="187502" />
	</node>
	<node id="-24685" lat="59.7657583348" lon="10.733299996">
		<tag k="name" v="Sjødalstrand" />
		<tag k="place" v="farm" />
		<tag k="ssr:stedsnr" v="187383" />
	</node>
	<node id="-24684" lat="59.7816138857" lon="10.7410750048">
		<tag k="fixme" v="consider place=hamlet" />
		<tag k="name" v="Svartskog" />
		<tag k="place" v="village" />
		<tag k="ssr:stedsnr" v="187313" />
	</node>
	<node id="-24683" lat="59.8024249992" lon="10.7365027732">
		<tag k="name" v="Strandskogen" />
		<tag k="place" v="isolated_dwelling" />
		<tag k="ssr:stedsnr" v="186381" />
	</node>
	<node id="-24682" lat="59.7896138892" lon="10.8188361037">
		<tag k="name" v="Sønsterud" />
		<tag k="place" v="farm" />
		<tag k="ssr:stedsnr" v="186348" />
	</node>
	<node id="-24681" lat="59.7845972265" lon="10.7667333397">
		<tag k="name" v="Dal" />
		<tag k="place" v="farm" />
		<tag k="ssr:stedsnr" v="186335" />
	</node>
	<node id="-24680" lat="59.8219027743" lon="10.775713891">
		<tag k="bridge" v="yes" />
		<tag k="layer" v="1" />
		<tag k="name" v="Sagflisbakken" />
		<tag k="ssr:stedsnr" v="167143" />
	</node>
	<node id="-24679" lat="59.7669750045" lon="10.812858325">
		<tag k="name" v="Oppegård" />
		<tag k="place" v="village" />
		<tag k="ssr:stedsnr" v="145666" />
	</node>
	<node id="-24678" lat="59.7919972193" lon="10.8142166645">
		<tag k="name" v="Sofiemyråsen" />
		<tag k="place" v="quarter" />
		<tag k="ssr:stedsnr" v="144703" />
	</node>
	<node id="-24677" lat="59.8162083313" lon="10.7947916629">
		<tag k="name" v="Solkollen" />
		<tag k="place" v="quarter" />
		<tag k="ssr:stedsnr" v="144702" />
	</node>
	<node id="-24676" lat="59.7912611127" lon="10.763938887">
		<tag k="name" v="Åsen" />
		<tag k="place" v="farm" />
		<tag k="ssr:stedsnr" v="144555" />
	</node>
	<node id="-24675" lat="59.8168888888" lon="10.7769333257">
		<tag k="fixme" v="consider natural=peak for the most distinct mountains in the district" />
		<tag k="name" v="Trolldalsåsen" />
		<tag k="natural" v="hill" />
		<tag k="place" v="locality" />
		<tag k="ssr:stedsnr" v="126526" />
	</node>
	<node id="-24674" lat="59.7672861098" lon="10.7561861103">
		<tag k="alt_name" v="Grauttorget" />
		<tag k="name" v="Grøtorget" />
		<tag k="place" v="locality" />
		<tag k="ssr:stedsnr" v="125454" />
	</node>
	<node id="-24673" lat="59.8012666672" lon="10.7528055634">
		<tag k="fixme" v="consider natural=peak for the most distinct mountains in the district" />
		<tag k="name" v="Gråbeinåsen" />
		<tag k="natural" v="hill" />
		<tag k="place" v="locality" />
		<tag k="ssr:stedsnr" v="125382" />
	</node>
	<node id="-24672" lat="59.8008512754" lon="10.8044666156">
		<tag k="alt_name" v="Solbråtan" />
		<tag k="name" v="Solbråtan holdeplass" />
		<tag k="railway" v="halt" />
		<tag k="ssr:stedsnr" v="125378" />
		<tag k="train" v="yes" />
	</node>
	<node id="-24671" lat="59.8236666626" lon="10.7763472251">
		<tag k="bridge" v="yes" />
		<tag k="layer" v="1" />
		<tag k="name" v="Mastemyr" />
		<tag k="ssr:stedsnr" v="107095" />
	</node>
	<node id="-24670" lat="59.8105611076" lon="10.8038916656">
		<tag k="name" v="Kolbotn" />
		<tag k="place" v="village" />
		<tag k="ssr:stedsnr" v="85582" />
	</node>
	<node id="-24669" lat="59.7659583311" lon="10.7388138955">
		<tag k="name" v="Guristuen" />
		<tag k="place" v="isolated_dwelling" />
		<tag k="ssr:stedsnr" v="85445" />
	</node>
	<node id="-24668" lat="59.7724722191" lon="10.7902888944">
		<tag k="fixme" v="consider natural=peak for the most distinct mountains in the district" />
		<tag k="name" v="Flåtestadåsen" />
		<tag k="natural" v="hill" />
		<tag k="place" v="locality" />
		<tag k="ssr:stedsnr" v="84734" />
	</node>
	<node id="-24667" lat="59.8288500022" lon="10.7651972199">
		<tag k="name" v="Ljansbruket" />
		<tag k="place" v="quarter" />
		<tag k="ssr:stedsnr" v="84706" />
	</node>
	<node id="-24666" lat="59.7987249671" lon="10.7822487404">
		<tag k="name" v="Makrellbukta" />
		<tag k="natural" v="bay" />
		<tag k="ssr:stedsnr" v="84698" />
	</node>
	<node id="-24665" lat="59.8100638919" lon="10.7896222197">
		<tag k="fixme" v="consider place=suburb, village or hamlet" />
		<tag k="name" v="Ingieråsen" />
		<tag k="place" v="quarter" />
		<tag k="ssr:stedsnr" v="66245" />
	</node>
	<node id="-24664" lat="59.7695611099" lon="10.7389972179">
		<tag k="name" v="Trolldalen" />
		<tag k="natural" v="valley" />
		<tag k="place" v="locality" />
		<tag k="ssr:stedsnr" v="65421" />
	</node>
	<node id="-24663" lat="59.7847500004" lon="10.8225805514">
		<tag k="alt_name" v="Sagstuen" />
		<tag k="name" v="Sagstua" />
		<tag k="place" v="farm" />
		<tag k="ssr:stedsnr" v="65324" />
	</node>
	<node id="-24662" lat="59.7905999958" lon="10.8066472279">
		<tag k="alt_name" v="Tømtehytta" />
		<tag k="name" v="Øvre Ekornrud" />
		<tag k="place" v="farm" />
		<tag k="ssr:stedsnr" v="65322" />
	</node>
	<node id="-24661" lat="59.8139555549" lon="10.7648666613">
		<tag k="name" v="Hvitebjørn" />
		<tag k="place" v="farm" />
		<tag k="ssr:stedsnr" v="65266" />
	</node>
	<node id="-24660" lat="59.8164916685" lon="10.7889499915">
		<tag k="bridge" v="yes" />
		<tag k="layer" v="1" />
		<tag k="name" v="Sagmesterveien" />
		<tag k="ssr:stedsnr" v="46137" />
	</node>
	<node id="-24658" lat="59.7732083362" lon="10.8103972149">
		<tag k="fixme" v="consider natural=peak for the most distinct mountains in the district" />
		<tag k="name" v="Delerudåsen" />
		<tag k="natural" v="hill" />
		<tag k="place" v="locality" />
		<tag k="ssr:stedsnr" v="23758" />
	</node>
	<node id="-24657" lat="59.8027861138" lon="10.833502773">
		<tag k="fixme" v="consider natural=peak for the most distinct mountains in the district" />
		<tag k="name" v="Snipeåsen" />
		<tag k="natural" v="hill" />
		<tag k="place" v="locality" />
		<tag k="ssr:stedsnr" v="23757" />
	</node>
	<node id="-24656" lat="59.7989916657" lon="10.8055166602">
		<tag k="fixme" v="consider natural=peak for the most distinct mountains in the district" />
		<tag k="name" v="Bjørkås" />
		<tag k="natural" v="hill" />
		<tag k="place" v="locality" />
		<tag k="ssr:stedsnr" v="23754" />
	</node>
	<node id="-24655" lat="59.7960694414" lon="10.7339444506">
		<tag k="alt_name" v="Prostedskjæret" />
		<tag k="fixme" v="consider seamark:type=rock or natural=shoal" />
		<tag k="name" v="Prosted" />
		<tag k="place" v="islet" />
		<tag k="ssr:stedsnr" v="23724" />
	</node>
	<node id="-24654" lat="59.7990666697" lon="10.7997999957">
		<tag k="name" v="Vesleøya" />
		<tag k="place" v="islet" />
		<tag k="ssr:stedsnr" v="23718" />
	</node>
	<node id="-24653" lat="59.7646207083" lon="10.8025100627">
		<tag k="name" v="Greverudbekken" />
		<tag k="ssr:stedsnr" v="23715" />
		<tag k="waterway" v="stream" />
	</node>
	<node id="-24652" lat="59.7727073857" lon="10.8068806503">
		<tag k="alt_name" v="Greverud" />
		<tag k="name" v="Greverud holdeplass" />
		<tag k="railway" v="halt" />
		<tag k="ssr:stedsnr" v="4430" />
		<tag k="train" v="yes" />
	</node>
	<node id="-24651" lat="59.7943555601" lon="10.7986888813">
		<tag k="alt_name" v="Ekornrud" />
		<tag k="name" v="Nedre Ekornrud" />
		<tag k="place" v="isolated_dwelling" />
		<tag k="ssr:stedsnr" v="4329" />
	</node>
	<node id="-24650" lat="59.7780722211" lon="10.803886111">
		<tag k="name" v="Frydenberg" />
		<tag k="place" v="farm" />
		<tag k="ssr:stedsnr" v="4316" />
	</node>
	<node id="-24649" lat="59.7849055536" lon="10.7809722273">
		<tag k="name" v="Gjersjøen" />
		<tag k="natural" v="water" />
		<tag k="ssr:stedsnr" v="4314" />
		<tag k="water" v="lake" />
	</node>
	<node id="-24648" lat="59.8190222196" lon="10.8150944441">
		<tag k="building" v="commercial" />
		<tag k="name" v="Tårnåsen senter" />
		<tag k="ssr:stedsnr" v="267476" />
	</node>
	<node id="-24647" lat="59.8134694418" lon="10.814713892">
		<tag k="amenity" v="school" />
		<tag k="name" v="Hellerasten skole" />
		<tag k="ssr:stedsnr" v="267468" />
	</node>
	<node id="-24645" lat="59.7701285194" lon="10.7410337328">
		<tag k="fixme" v="consider boundary=protected_area and relevant protect_class if not nature reserve" />
		<tag k="leisure" v="nature_reserve" />
		<tag k="name" v="Trolldalen naturreservat" />
		<tag k="ssr:stedsnr" v="989129" />
	</node>
	<node id="-24644" lat="59.8006289778" lon="10.8040429749">
		<tag k="fixme" v="consider place=suburb, village or hamlet" />
		<tag k="name" v="Solbråtan" />
		<tag k="place" v="quarter" />
		<tag k="ssr:stedsnr" v="987843" />
	</node>
	<node id="-24643" lat="59.7742249976" lon="10.8047499972">
		<tag k="bridge" v="yes" />
		<tag k="layer" v="1" />
		<tag k="name" v="Greverudgangen" />
		<tag k="ssr:stedsnr" v="896107" />
	</node>
	<node id="-24642" lat="59.8230305591" lon="10.7830527776">
		<tag k="bridge" v="yes" />
		<tag k="layer" v="1" />
		<tag k="name" v="Lienga" />
		<tag k="ssr:stedsnr" v="410115" />
	</node>
	<node id="-24641" lat="59.77433056" lon="10.7329638839">
		<tag k="name" v="Linnekastet" />
		<tag k="place" v="isolated_dwelling" />
		<tag k="ssr:stedsnr" v="389210" />
	</node>
	<node id="-24640" lat="59.7665083314" lon="10.7388388807">
		<tag k="name" v="Trolldalshytta" />
		<tag k="place" v="isolated_dwelling" />
		<tag k="ssr:stedsnr" v="388492" />
	</node>
	<node id="-24639" lat="59.8202666647" lon="10.7949666747">
		<tag k="name" v="Likollen" />
		<tag k="natural" v="hill" />
		<tag k="place" v="locality" />
		<tag k="ssr:stedsnr" v="387698" />
	</node>
	<node id="-24638" lat="59.8043472206" lon="10.8218944483">
		<tag k="name" v="Nordre Ødegården" />
		<tag k="place" v="hamlet" />
		<tag k="ssr:stedsnr" v="387686" />
	</node>
	<node id="-24637" lat="59.8253861099" lon="10.7600361188">
		<tag k="name" v="Sandbuktfeltet" />
		<tag k="place" v="isolated_dwelling" />
		<tag k="ssr:stedsnr" v="387675" />
	</node>
	<node id="-24636" lat="59.7664361088" lon="10.7821527808">
		<tag k="fixme" v="consider natural=peak for the most distinct mountains in the district" />
		<tag k="name" v="Sjeisenåsen" />
		<tag k="natural" v="hill" />
		<tag k="place" v="locality" />
		<tag k="ssr:stedsnr" v="387723" />
	</node>
	<node id="-24635" lat="59.7669972263" lon="10.8007694419">
		<tag k="name" v="Greverudlia" />
		<tag k="natural" v="slope" />
		<tag k="place" v="locality" />
		<tag k="ssr:stedsnr" v="387714" />
	</node>
	<node id="-24634" lat="59.8103444488" lon="10.7828138939">
		<tag k="fixme" v="consider natural=peak for the most distinct mountains in the district" />
		<tag k="name" v="Mellomåsen" />
		<tag k="natural" v="hill" />
		<tag k="place" v="locality" />
		<tag k="ssr:stedsnr" v="369462" />
	</node>
	<node id="-24633" lat="59.8174500026" lon="10.7478999919">
		<tag k="name" v="Ingierstrand" />
		<tag k="natural" v="beach" />
		<tag k="place" v="locality" />
		<tag k="ssr:stedsnr" v="369271" />
	</node>
	<node id="-24632" lat="59.7711972184" lon="10.8256249911">
		<tag k="name" v="Slåbråtan" />
		<tag k="old_name" v="Slåbråten" />
		<tag k="place" v="isolated_dwelling" />
		<tag k="ssr:stedsnr" v="368458" />
	</node>
	<node id="-24631" lat="59.7713611087" lon="10.7629527801">
		<tag k="fixme" v="consider natural=peak for the most distinct mountains in the district" />
		<tag k="name" v="Furuåsen" />
		<tag k="natural" v="hill" />
		<tag k="place" v="locality" />
		<tag k="ssr:stedsnr" v="368456" />
	</node>
	<node id="-24630" lat="59.761411111" lon="10.7359361195">
		<tag k="name" v="Sjødalenga" />
		<tag k="place" v="isolated_dwelling" />
		<tag k="ssr:stedsnr" v="368444" />
	</node>
	<node id="-24629" lat="59.7952888876" lon="10.7635999953">
		<tag k="alt_name" v="Bråte" />
		<tag k="name" v="Bråtan" />
		<tag k="old_name" v="Bråten" />
		<tag k="place" v="farm" />
		<tag k="ssr:stedsnr" v="368390" />
	</node>
	<node id="-24628" lat="59.8021749965" lon="10.7935749918">
		<tag k="fixme" v="consider natural=peak for the most distinct mountains in the district" />
		<tag k="name" v="Kantoråsen" />
		<tag k="natural" v="hill" />
		<tag k="place" v="locality" />
		<tag k="ssr:stedsnr" v="368386" />
	</node>
	<node id="-24627" lat="59.7913999975" lon="10.7331666593">
		<tag k="alt_name" v="Bekkensten" />
		<tag k="name" v="Bekkenstein" />
		<tag k="place" v="isolated_dwelling" />
		<tag k="ssr:stedsnr" v="368369" />
	</node>
	<node id="-24626" lat="59.7843250016" lon="10.7931777776">
		<tag k="fixme" v="consider natural=peak for the most distinct mountains in the district" />
		<tag k="name" v="Byåsen" />
		<tag k="natural" v="hill" />
		<tag k="place" v="locality" />
		<tag k="ssr:stedsnr" v="368352" />
	</node>
	<node id="-24625" lat="59.7719361107" lon="10.7332499962">
		<tag k="name" v="Bålerudstranda" />
		<tag k="natural" v="beach" />
		<tag k="place" v="locality" />
		<tag k="ssr:stedsnr" v="359748" />
	</node>
	<node id="-24624" lat="59.7874222196" lon="10.802144452">
		<tag k="bridge" v="yes" />
		<tag k="layer" v="1" />
		<tag k="name" v="Myrvoll" />
		<tag k="ssr:stedsnr" v="349156" />
	</node>
	<node id="-24623" lat="59.7635861145" lon="10.812558339">
		<tag k="bridge" v="yes" />
		<tag k="layer" v="1" />
		<tag k="name" v="Tusse" />
		<tag k="ssr:stedsnr" v="349151" />
	</node>
	<node id="-24622" lat="59.7932861078" lon="10.7602111126">
		<tag k="bridge" v="yes" />
		<tag k="layer" v="1" />
		<tag k="name" v="Bråthe" />
		<tag k="ssr:stedsnr" v="349149" />
	</node>
	<node id="-24621" lat="59.8019444464" lon="10.7609666614">
		<tag k="bridge" v="yes" />
		<tag k="layer" v="1" />
		<tag k="name" v="Bjørnsrud" />
		<tag k="ssr:stedsnr" v="349147" />
	</node>
	<node id="-24620" lat="59.7922749959" lon="10.7833555569">
		<tag k="name" v="Geitungen" />
		<tag k="place" v="islet" />
		<tag k="ssr:stedsnr" v="126345" />
	</node>
	<node id="-24619" lat="59.7787666692" lon="10.7505638859">
		<tag k="alt_name" v="Oppegård" />
		<tag k="amenity" v="place_of_worship" />
		<tag k="denomination" v="lutheran" />
		<tag k="name" v="Oppegård kirke" />
		<tag k="religion" v="christian" />
		<tag k="ssr:stedsnr" v="126320" />
	</node>
	<node id="-24618" lat="59.7755361068" lon="10.7327055571">
		<tag k="name" v="Odden" />
		<tag k="natural" v="cape" />
		<tag k="ssr:stedsnr" v="328198" />
	</node>
	<node id="-24617" lat="59.7688361141" lon="10.7367166626">
		<tag k="name" v="Trolldalsbekken" />
		<tag k="ssr:stedsnr" v="327644" />
		<tag k="waterway" v="stream" />
	</node>
	<node id="-24616" lat="59.801052776" lon="10.7795277739">
		<tag k="name" v="Kantorodden" />
		<tag k="natural" v="cape" />
		<tag k="ssr:stedsnr" v="327637" />
	</node>
	<node id="-24615" lat="59.7680222234" lon="10.8087944456">
		<tag k="amenity" v="school" />
		<tag k="name" v="Greverud skole" />
		<tag k="ssr:stedsnr" v="327529" />
	</node>
	<node id="-24614" lat="59.8113694428" lon="10.799327783">
		<tag k="building" v="commercial" />
		<tag k="name" v="Solgården" />
		<tag k="ssr:stedsnr" v="327515" />
	</node>
	<node id="-24613" lat="59.7803749992" lon="10.7534305616">
		<tag k="junction" v="yes" />
		<tag k="name" v="Måkeskjær" />
		<tag k="place" v="locality" />
		<tag k="ssr:stedsnr" v="327112" />
	</node>
	<node id="-24612" lat="59.7632805548" lon="10.7456000057">
		<tag k="name" v="Sjødal" />
		<tag k="place" v="farm" />
		<tag k="ssr:stedsnr" v="308383" />
	</node>
	<node id="-24611" lat="59.7799138898" lon="10.7469833327">
		<tag k="name" v="Bålerud" />
		<tag k="place" v="farm" />
		<tag k="ssr:stedsnr" v="308286" />
	</node>
	<node id="-24610" lat="59.7785194461" lon="10.8202527775">
		<tag k="alt_name" v="Nylendet (nedl.)" />
		<tag k="name" v="Nylenda" />
		<tag k="place" v="isolated_dwelling" />
		<tag k="ssr:stedsnr" v="308285" />
	</node>
	<node id="-24609" lat="59.8124444437" lon="10.8001361189">
		<tag k="bridge" v="yes" />
		<tag k="layer" v="1" />
		<tag k="name" v="Kolbotn" />
		<tag k="ssr:stedsnr" v="289106" />
	</node>
</osm>
