<?xml version="1.0" encoding="UTF-8"?>
<osm generator="osmapis" version="0.6">
	<node id="-24700" lat="59.7813111079" lon="10.7949722157">
		<tag k="alt_name" v="Stangåsen" />
		<tag k="fixme" v="consider natural=peak for the most distinct mountains in the district" />
		<tag k="name" v="Stangeåsen" />
		<tag k="natural" v="hill" />
		<tag k="place" v="locality" />
		<tag k="ssr:stedsnr" v="247299" />
	</node>
	<node id="-24823" lat="59.7919361119" lon="10.7954416725">
		<tag k="fixme" v="consider natural=peak for the most distinct mountains in the district" />
		<tag k="name" v="Strutåsen" />
		<tag k="natural" v="hill" />
		<tag k="place" v="locality" />
		<tag k="ssr:stedsnr" v="873688" />
	</node>
	<node id="-24822" lat="59.763569446" lon="10.735680559">
		<tag k="name" v="Sjødalen" />
		<tag k="natural" v="valley" />
		<tag k="place" v="locality" />
		<tag k="ssr:stedsnr" v="873681" />
	</node>
	<node id="-24821" lat="59.7778361137" lon="10.7677750048">
		<tag k="name" v="Rytterkleiva" />
		<tag k="natural" v="valley" />
		<tag k="place" v="locality" />
		<tag k="ssr:stedsnr" v="873679" />
	</node>
	<node id="-24658" lat="59.7732083362" lon="10.8103972149">
		<tag k="fixme" v="consider natural=peak for the most distinct mountains in the district" />
		<tag k="name" v="Delerudåsen" />
		<tag k="natural" v="hill" />
		<tag k="place" v="locality" />
		<tag k="ssr:stedsnr" v="23758" />
	</node>
	<node id="-24804" lat="59.7736472242" lon="10.8281888935">
		<tag k="name" v="Laugskollen" />
		<tag k="natural" v="hill" />
		<tag k="place" v="locality" />
		<tag k="ssr:stedsnr" v="812732" />
	</node>
	<node id="-24675" lat="59.8168888888" lon="10.7769333257">
		<tag k="fixme" v="consider natural=peak for the most distinct mountains in the district" />
		<tag k="name" v="Trolldalsåsen" />
		<tag k="natural" v="hill" />
		<tag k="place" v="locality" />
		<tag k="ssr:stedsnr" v="126526" />
	</node>
	<node id="-24674" lat="59.7672861098" lon="10.7561861103">
		<tag k="alt_name" v="Grauttorget" />
		<tag k="name" v="Grøtorget" />
		<tag k="place" v="locality" />
		<tag k="ssr:stedsnr" v="125454" />
	</node>
	<node id="-24673" lat="59.8012666672" lon="10.7528055634">
		<tag k="fixme" v="consider natural=peak for the most distinct mountains in the district" />
		<tag k="name" v="Gråbeinåsen" />
		<tag k="natural" v="hill" />
		<tag k="place" v="locality" />
		<tag k="ssr:stedsnr" v="125382" />
	</node>
	<node id="-24668" lat="59.7724722191" lon="10.7902888944">
		<tag k="fixme" v="consider natural=peak for the most distinct mountains in the district" />
		<tag k="name" v="Flåtestadåsen" />
		<tag k="natural" v="hill" />
		<tag k="place" v="locality" />
		<tag k="ssr:stedsnr" v="84734" />
	</node>
	<node id="-24634" lat="59.8103444488" lon="10.7828138939">
		<tag k="fixme" v="consider natural=peak for the most distinct mountains in the district" />
		<tag k="name" v="Mellomåsen" />
		<tag k="natural" v="hill" />
		<tag k="place" v="locality" />
		<tag k="ssr:stedsnr" v="369462" />
	</node>
	<node id="-24664" lat="59.7695611099" lon="10.7389972179">
		<tag k="name" v="Trolldalen" />
		<tag k="natural" v="valley" />
		<tag k="place" v="locality" />
		<tag k="ssr:stedsnr" v="65421" />
	</node>
	<node id="-24787" lat="59.807211113" lon="10.7756694444">
		<tag k="fixme" v="consider natural=peak for the most distinct mountains in the district" />
		<tag k="name" v="Gjersjøbruåsen" />
		<tag k="natural" v="hill" />
		<tag k="place" v="locality" />
		<tag k="ssr:stedsnr" v="751754" />
	</node>
	<node id="-24786" lat="59.7887138917" lon="10.7470555582">
		<tag k="name" v="Oredalen" />
		<tag k="natural" v="valley" />
		<tag k="place" v="locality" />
		<tag k="ssr:stedsnr" v="751746" />
	</node>
	<node id="-24657" lat="59.8027861138" lon="10.833502773">
		<tag k="fixme" v="consider natural=peak for the most distinct mountains in the district" />
		<tag k="name" v="Snipeåsen" />
		<tag k="natural" v="hill" />
		<tag k="place" v="locality" />
		<tag k="ssr:stedsnr" v="23757" />
	</node>
	<node id="-24656" lat="59.7989916657" lon="10.8055166602">
		<tag k="fixme" v="consider natural=peak for the most distinct mountains in the district" />
		<tag k="name" v="Bjørkås" />
		<tag k="natural" v="hill" />
		<tag k="place" v="locality" />
		<tag k="ssr:stedsnr" v="23754" />
	</node>
	<node id="-24779" lat="59.7689749975" lon="10.7993000031">
		<tag k="fixme" v="consider natural=peak for the most distinct mountains in the district" />
		<tag k="name" v="Nyjordåsen" />
		<tag k="natural" v="hill" />
		<tag k="place" v="locality" />
		<tag k="ssr:stedsnr" v="733408" />
	</node>
	<node id="-24777" lat="59.7658083367" lon="10.7738250082">
		<tag k="name" v="Tjoredalen" />
		<tag k="natural" v="valley" />
		<tag k="place" v="locality" />
		<tag k="ssr:stedsnr" v="733396" />
	</node>
	<node id="-24776" lat="59.8138999997" lon="10.752899996">
		<tag k="name" v="Delingsdalen" />
		<tag k="natural" v="valley" />
		<tag k="place" v="locality" />
		<tag k="ssr:stedsnr" v="733268" />
	</node>
	<node id="-24639" lat="59.8202666647" lon="10.7949666747">
		<tag k="name" v="Likollen" />
		<tag k="natural" v="hill" />
		<tag k="place" v="locality" />
		<tag k="ssr:stedsnr" v="387698" />
	</node>
	<node id="-24765" lat="59.8154277814" lon="10.7617361158">
		<tag k="fixme" v="consider natural=peak for the most distinct mountains in the district" />
		<tag k="name" v="Hvitebjørnåsen" />
		<tag k="natural" v="hill" />
		<tag k="place" v="locality" />
		<tag k="ssr:stedsnr" v="672257" />
	</node>
	<node id="-24636" lat="59.7664361088" lon="10.7821527808">
		<tag k="fixme" v="consider natural=peak for the most distinct mountains in the district" />
		<tag k="name" v="Sjeisenåsen" />
		<tag k="natural" v="hill" />
		<tag k="place" v="locality" />
		<tag k="ssr:stedsnr" v="387723" />
	</node>
	<node id="-24635" lat="59.7669972263" lon="10.8007694419">
		<tag k="name" v="Greverudlia" />
		<tag k="natural" v="slope" />
		<tag k="place" v="locality" />
		<tag k="ssr:stedsnr" v="387714" />
	</node>
	<node id="-24762" lat="59.8149388872" lon="10.7906666706">
		<tag k="name" v="Iskulen" />
		<tag k="natural" v="hill" />
		<tag k="place" v="locality" />
		<tag k="ssr:stedsnr" v="630662" />
	</node>
	<node id="-24631" lat="59.7713611087" lon="10.7629527801">
		<tag k="fixme" v="consider natural=peak for the most distinct mountains in the district" />
		<tag k="name" v="Furuåsen" />
		<tag k="natural" v="hill" />
		<tag k="place" v="locality" />
		<tag k="ssr:stedsnr" v="368456" />
	</node>
	<node id="-24693" lat="59.781133335" lon="10.7887416691">
		<tag k="name" v="Søndre Gjersjøli" />
		<tag k="natural" v="slope" />
		<tag k="place" v="locality" />
		<tag k="ssr:stedsnr" v="205747" />
	</node>
	<node id="-24626" lat="59.7843250016" lon="10.7931777776">
		<tag k="fixme" v="consider natural=peak for the most distinct mountains in the district" />
		<tag k="name" v="Byåsen" />
		<tag k="natural" v="hill" />
		<tag k="place" v="locality" />
		<tag k="ssr:stedsnr" v="368352" />
	</node>
	<node id="-24751" lat="59.7801138931" lon="10.8239138928">
		<tag k="fixme" v="consider natural=peak for the most distinct mountains in the district" />
		<tag k="name" v="Gryteåsen" />
		<tag k="natural" v="hill" />
		<tag k="place" v="locality" />
		<tag k="ssr:stedsnr" v="611325" />
	</node>
	<node id="-24750" lat="59.7765611134" lon="10.775625009">
		<tag k="alt_name" v="Kullmileåsen" />
		<tag k="fixme" v="consider natural=peak for the most distinct mountains in the district" />
		<tag k="name" v="Kolmileåsen" />
		<tag k="natural" v="hill" />
		<tag k="place" v="locality" />
		<tag k="ssr:stedsnr" v="611320" />
	</node>
	<node id="-24748" lat="59.8228999963" lon="10.7650750042">
		<tag k="fixme" v="consider natural=peak for the most distinct mountains in the district" />
		<tag k="name" v="Kruttmølleåsen" />
		<tag k="natural" v="hill" />
		<tag k="place" v="locality" />
		<tag k="ssr:stedsnr" v="611295" />
	</node>
	<node id="-24745" lat="59.8086444422" lon="10.7867944524">
		<tag k="fixme" v="consider natural=peak for the most distinct mountains in the district" />
		<tag k="name" v="Vestre Ingieråsen" />
		<tag k="natural" v="hill" />
		<tag k="place" v="locality" />
		<tag k="ssr:stedsnr" v="569683" />
	</node>
	<node id="-24736" lat="59.8156472222" lon="10.801102777">
		<tag k="fixme" v="consider natural=peak for the most distinct mountains in the district" />
		<tag k="name" v="Rikeåsen" />
		<tag k="natural" v="hill" />
		<tag k="place" v="locality" />
		<tag k="ssr:stedsnr" v="550266" />
	</node>
	<node id="-24730" lat="59.785694447" lon="10.7909416752">
		<tag k="name" v="Nordre Gjersjøli" />
		<tag k="natural" v="slope" />
		<tag k="place" v="locality" />
		<tag k="ssr:stedsnr" v="509687" />
	</node>
	<node id="-24628" lat="59.8021749965" lon="10.7935749918">
		<tag k="fixme" v="consider natural=peak for the most distinct mountains in the district" />
		<tag k="name" v="Kantoråsen" />
		<tag k="natural" v="hill" />
		<tag k="place" v="locality" />
		<tag k="ssr:stedsnr" v="368386" />
	</node>
	<node id="-24721" lat="59.7869194471" lon="10.7393972194">
		<tag k="fixme" v="consider natural=peak for the most distinct mountains in the district" />
		<tag k="name" v="Rødsteinåsen" />
		<tag k="natural" v="hill" />
		<tag k="place" v="locality" />
		<tag k="ssr:stedsnr" v="448739" />
	</node>
	<node id="-24706" lat="59.7905388899" lon="10.7909277788">
		<tag k="name" v="Eidsdalen" />
		<tag k="natural" v="valley" />
		<tag k="place" v="locality" />
		<tag k="ssr:stedsnr" v="266714" />
	</node>
	<node id="-24714" lat="59.8145908211" lon="10.7906903481">
		<tag k="fixme" v="consider natural=peak for the most distinct mountains in the district" />
		<tag k="name" v="Øståsen" />
		<tag k="natural" v="hill" />
		<tag k="place" v="locality" />
		<tag k="ssr:stedsnr" v="430270" />
	</node>
	<node id="-24713" lat="59.8008555569" lon="10.7503583342">
		<tag k="name" v="Revedalen" />
		<tag k="natural" v="valley" />
		<tag k="place" v="locality" />
		<tag k="ssr:stedsnr" v="430257" />
	</node>
	<node id="-24835" lat="59.8048361094" lon="10.7484805513">
		<tag k="fixme" v="consider natural=peak for the most distinct mountains in the district" />
		<tag k="name" v="Brannfjell" />
		<tag k="natural" v="hill" />
		<tag k="place" v="locality" />
		<tag k="ssr:stedsnr" v="934704" />
	</node>
	<node id="-24834" lat="59.8141444469" lon="10.7811722174">
		<tag k="name" v="Trolldalen" />
		<tag k="natural" v="valley" />
		<tag k="place" v="locality" />
		<tag k="ssr:stedsnr" v="934700" />
	</node>
	<node id="-24833" lat="59.7640249992" lon="10.7392722216">
		<tag k="fixme" v="consider natural=peak for the most distinct mountains in the district" />
		<tag k="name" v="Sjødalåsen" />
		<tag k="natural" v="hill" />
		<tag k="place" v="locality" />
		<tag k="ssr:stedsnr" v="934679" />
	</node>
</osm>
