<?xml version="1.0" encoding="UTF-8"?>
<osm generator="osmapis" version="0.6">
	<node id="-24832" lat="59.7980916659" lon="10.7710750016">
		<tag k="junction" v="yes" />
		<tag k="name" v="Sandvad" />
		<tag k="place" v="locality" />
		<tag k="ssr:stedsnr" v="873121" />
	</node>
	<node id="-24827" lat="59.8109393288" lon="10.8011916033">
		<tag k="alt_name" v="Kolbotn" />
		<tag k="name" v="Kolbotn stasjon" />
		<tag k="railway" v="station" />
		<tag k="ssr:stedsnr" v="855268" />
		<tag k="train" v="yes" />
	</node>
	<node id="-24823" lat="59.7650873082" lon="10.813352545">
		<tag k="alt_name" v="Oppegård" />
		<tag k="name" v="Oppegård stasjon" />
		<tag k="railway" v="station" />
		<tag k="ssr:stedsnr" v="854382" />
		<tag k="train" v="yes" />
	</node>
	<node id="-24692" lat="59.8219027743" lon="10.775713891">
		<tag k="bridge" v="yes" />
		<tag k="layer" v="1" />
		<tag k="name" v="Sagflisbakken" />
		<tag k="ssr:stedsnr" v="167143" />
	</node>
	<node id="-24818" lat="59.8059166682" lon="10.8057611069">
		<tag k="bridge" v="yes" />
		<tag k="layer" v="1" />
		<tag k="name" v="Skiveien" />
		<tag k="ssr:stedsnr" v="835135" />
	</node>
	<node id="-24684" lat="59.8008512754" lon="10.8044666156">
		<tag k="alt_name" v="Solbråtan" />
		<tag k="name" v="Solbråtan holdeplass" />
		<tag k="railway" v="halt" />
		<tag k="ssr:stedsnr" v="125378" />
		<tag k="train" v="yes" />
	</node>
	<node id="-24683" lat="59.8236666626" lon="10.7763472251">
		<tag k="bridge" v="yes" />
		<tag k="layer" v="1" />
		<tag k="name" v="Mastemyr" />
		<tag k="ssr:stedsnr" v="107095" />
	</node>
	<node id="-24802" lat="59.7898194474" lon="10.7995249991">
		<tag k="bridge" v="yes" />
		<tag k="layer" v="1" />
		<tag k="name" v="Ekornrud" />
		<tag k="ssr:stedsnr" v="774122" />
	</node>
	<node id="-24672" lat="59.8164916685" lon="10.7889499915">
		<tag k="bridge" v="yes" />
		<tag k="layer" v="1" />
		<tag k="name" v="Sagmesterveien" />
		<tag k="ssr:stedsnr" v="46137" />
	</node>
	<node id="-24664" lat="59.7727073857" lon="10.8068806503">
		<tag k="alt_name" v="Greverud" />
		<tag k="name" v="Greverud holdeplass" />
		<tag k="railway" v="halt" />
		<tag k="ssr:stedsnr" v="4430" />
		<tag k="train" v="yes" />
	</node>
	<node id="-24839" lat="59.7859842433" lon="10.8008968531">
		<tag k="name" v="Myrvoll holdeplass" />
		<tag k="railway" v="halt" />
		<tag k="ssr:stedsnr" v="915320" />
		<tag k="train" v="yes" />
	</node>
	<node id="-24785" lat="59.8240944459" lon="10.7777833413">
		<tag k="junction" v="yes" />
		<tag k="name" v="Mastemyr" />
		<tag k="place" v="locality" />
		<tag k="ssr:stedsnr" v="691691" />
	</node>
	<node id="-24655" lat="59.7742249976" lon="10.8047499972">
		<tag k="bridge" v="yes" />
		<tag k="layer" v="1" />
		<tag k="name" v="Greverudgangen" />
		<tag k="ssr:stedsnr" v="896107" />
	</node>
	<node id="-24654" lat="59.8230305591" lon="10.7830527776">
		<tag k="bridge" v="yes" />
		<tag k="layer" v="1" />
		<tag k="name" v="Lienga" />
		<tag k="ssr:stedsnr" v="410115" />
	</node>
	<node id="-24775" lat="59.7825194416" lon="10.7639333315">
		<tag k="bridge" v="yes" />
		<tag k="layer" v="1" />
		<tag k="name" v="Dal" />
		<tag k="ssr:stedsnr" v="652106" />
	</node>
	<node id="-24766" lat="59.7851666629" lon="10.7324749944">
		<tag k="alt_name" v="Bålerud brygge" />
		<tag k="man_made" v="quay" />
		<tag k="name" v="Bålerudbrygga" />
		<tag k="old_name" v="Bålerudbrygge" />
		<tag k="place" v="locality" />
		<tag k="ssr:stedsnr" v="611348" />
	</node>
	<node id="-24636" lat="59.7874222196" lon="10.802144452">
		<tag k="bridge" v="yes" />
		<tag k="layer" v="1" />
		<tag k="name" v="Myrvoll" />
		<tag k="ssr:stedsnr" v="349156" />
	</node>
	<node id="-24635" lat="59.7635861145" lon="10.812558339">
		<tag k="bridge" v="yes" />
		<tag k="layer" v="1" />
		<tag k="name" v="Tusse" />
		<tag k="ssr:stedsnr" v="349151" />
	</node>
	<node id="-24634" lat="59.7932861078" lon="10.7602111126">
		<tag k="bridge" v="yes" />
		<tag k="layer" v="1" />
		<tag k="name" v="Bråthe" />
		<tag k="ssr:stedsnr" v="349149" />
	</node>
	<node id="-24633" lat="59.8019444464" lon="10.7609666614">
		<tag k="bridge" v="yes" />
		<tag k="layer" v="1" />
		<tag k="name" v="Bjørnsrud" />
		<tag k="ssr:stedsnr" v="349147" />
	</node>
	<node id="-24759" lat="59.8045666656" lon="10.7871555565">
		<tag k="bridge" v="yes" />
		<tag k="layer" v="1" />
		<tag k="loc_name" v="Slalåmgjennomgangen" />
		<tag k="name" v="Slalomgjennomgangen" />
		<tag k="ssr:stedsnr" v="592135" />
	</node>
	<node id="-24625" lat="59.7803749992" lon="10.7534305616">
		<tag k="junction" v="yes" />
		<tag k="name" v="Måkeskjær" />
		<tag k="place" v="locality" />
		<tag k="ssr:stedsnr" v="327112" />
	</node>
	<node id="-24752" lat="59.7873777815" lon="10.7612055482">
		<tag k="junction" v="yes" />
		<tag k="name" v="Bekkenstein" />
		<tag k="place" v="locality" />
		<tag k="ssr:stedsnr" v="569126" />
	</node>
	<node id="-24621" lat="59.8124444437" lon="10.8001361189">
		<tag k="bridge" v="yes" />
		<tag k="layer" v="1" />
		<tag k="name" v="Kolbotn" />
		<tag k="ssr:stedsnr" v="289106" />
	</node>
	<node id="-24746" lat="59.8109222221" lon="10.7725361028">
		<tag k="bridge" v="yes" />
		<tag k="layer" v="1" />
		<tag k="name" v="Nydammen" />
		<tag k="ssr:stedsnr" v="531130" />
	</node>
	<node id="-24745" lat="59.7866083297" lon="10.8039777747">
		<tag k="bridge" v="yes" />
		<tag k="layer" v="1" />
		<tag k="name" v="Østli" />
		<tag k="ssr:stedsnr" v="531125" />
	</node>
	<node id="-24744" lat="59.7876305516" lon="10.7996222218">
		<tag k="bridge" v="yes" />
		<tag k="layer" v="1" />
		<tag k="name" v="Tverrveien" />
		<tag k="ssr:stedsnr" v="531120" />
	</node>
	<node id="-24851" lat="59.8160888149" lon="10.830662457">
		<tag k="layer" v="-1" />
		<tag k="name" v="Blixtunnelen" />
		<tag k="ssr:stedsnr" v="975837" />
		<tag k="tunnel" v="yes" />
	</node>
	<node id="-24720" lat="59.7751833337" lon="10.732241659">
		<tag k="alt_name" v="Svartskog brygge" />
		<tag k="man_made" v="quay" />
		<tag k="name" v="Svartskogbrygga" />
		<tag k="old_name" v="Svartskogbrygge" />
		<tag k="place" v="locality" />
		<tag k="ssr:stedsnr" v="429294" />
	</node>
	<node id="-24711" lat="59.8186111114" lon="10.7871833372">
		<tag k="bridge" v="yes" />
		<tag k="layer" v="1" />
		<tag k="name" v="Trollåsveien" />
		<tag k="ssr:stedsnr" v="228134" />
	</node>
	<node id="-24710" lat="59.7874527782" lon="10.7616138885">
		<tag k="bridge" v="yes" />
		<tag k="layer" v="1" />
		<tag k="name" v="Lerskallen" />
		<tag k="ssr:stedsnr" v="228127" />
	</node>
	<node id="-24709" lat="59.8095388904" lon="10.7703361133">
		<tag k="bridge" v="yes" />
		<tag k="layer" v="1" />
		<tag k="name" v="Hvitebjørn" />
		<tag k="ssr:stedsnr" v="228125" />
	</node>
</osm>
