<?xml version="1.0" encoding="UTF-8"?>
<osm version="0.6" generator="osmapis">
	<node id="116774" lat="68.3293913" lon="16.753251" version="3" timestamp="2022-01-26T06:22:04Z" changeset="116610177" uid="3497659" user="NKA">
		<tag k="junction" v="yes" />
		<tag k="name" v="Melkedalskrysset" />
		<tag k="ssr:stedsnr" v="502661" />
	</node>
	<node id="20981180" lat="68.4383796" lon="17.4271978" version="15" timestamp="2022-08-05T09:34:16Z" changeset="124513828" uid="8774347" user="Misa_zumba">
		<tag k="name" v="Narvik - Áhkánjárga" />
		<tag k="name:fkv" v="Victorianhamina" />
		<tag k="name:no" v="Narvik" />
		<tag k="name:pl" v="Narwik" />
		<tag k="name:ru" v="Нарвик" />
		<tag k="name:se" v="Áhkánjárga" />
		<tag k="name:smj" v="Áhkánjárgga" />
		<tag k="old_name" v="Victoriahavn" />
		<tag k="place" v="town" />
		<tag k="population" v="14015" />
		<tag k="population:date" v="2021-01-01" />
		<tag k="ref:ssb_tettsted" v="7512" />
		<tag k="source:population" v="SSB - befolkning i tettstedet" />
		<tag k="ssr:stedsnr" v="260979" />
		<tag k="wikidata" v="Q59101" />
		<tag k="wikipedia" v="en:Narvik (town)" />
	</node>
	<node id="21518368" lat="68.342872" lon="16.8313381" version="8" timestamp="2022-07-13T06:05:00Z" changeset="123545445" uid="3497659" user="NKA">
		<tag k="name" v="Ballangen - Bálák" />
		<tag k="name:no" v="Ballangen" />
		<tag k="name:ru" v="Балланген" />
		<tag k="name:se" v="Bálák" />
		<tag k="place" v="village" />
		<tag k="population" v="841" />
		<tag k="population:date" v="2021-01-01" />
		<tag k="ref:ssb_tettsted" v="7761" />
		<tag k="source:population" v="SSB - befolkning i tettstedet" />
		<tag k="ssr:stedsnr" v="502692" />
	</node>
	<node id="21518369" lat="68.4057274" lon="16.6604872" version="3" timestamp="2022-07-13T06:05:00Z" changeset="123545445" uid="3497659" user="NKA">
		<tag k="name" v="Kjeldebotn - Gáldovuotna" />
		<tag k="name:no" v="Kjeldebotn" />
		<tag k="name:ru" v="Кельдеботн" />
		<tag k="name:se" v="Gáldovuotna" />
		<tag k="place" v="village" />
		<tag k="ssr:stedsnr" v="77749" />
	</node>
	<node id="130159606" lat="68.5491657" lon="17.5571481" version="9" timestamp="2022-07-13T06:05:00Z" changeset="123545445" uid="3497659" user="NKA">
		<tag k="name" v="Bjerkvik - Rahkka" />
		<tag k="name:no" v="Bjerkvik" />
		<tag k="name:ru" v="Бьерквик" />
		<tag k="name:se" v="Rahkka" />
		<tag k="place" v="village" />
		<tag k="population" v="1131" />
		<tag k="population:date" v="2021-01-01" />
		<tag k="ref:ssb_tettsted" v="7511" />
		<tag k="source:population" v="SSB - befolkning i tettstedet" />
		<tag k="ssr:stedsnr" v="450068" />
	</node>
	<node id="224351183" lat="68.0973005" lon="16.3786373" version="8" timestamp="2022-07-13T06:05:00Z" changeset="123545445" uid="3497659" user="NKA">
		<tag k="name" v="Gásluokta - Kjøpsvik" />
		<tag k="name:no" v="Kjøpsvik" />
		<tag k="name:smj" v="Gásluokta" />
		<tag k="place" v="village" />
		<tag k="population" v="831" />
		<tag k="population:date" v="2021-01-01" />
		<tag k="ref:ssb_tettsted" v="7721" />
		<tag k="source:population" v="SSB - befolkning i tettstedet" />
		<tag k="ssr:stedsnr" v="441535" />
	</node>
	<node id="721618237" lat="68.4410389" lon="17.4098944" version="3" timestamp="2022-07-13T06:05:00Z" changeset="123545445" uid="3497659" user="NKA">
		<tag k="name" v="Frydenlund" />
		<tag k="place" v="suburb" />
		<tag k="ssr:stedsnr" v="273755" />
	</node>
	<node id="721618271" lat="68.4452417" lon="17.4432778" version="2" timestamp="2022-07-13T06:05:00Z" changeset="123545445" uid="3497659" user="NKA">
		<tag k="name" v="Taraldsvik" />
		<tag k="place" v="suburb" />
		<tag k="ssr:stedsnr" v="273745" />
	</node>
	<node id="724546495" lat="68.4209629" lon="17.3805026" version="3" timestamp="2022-07-27T10:22:45Z" changeset="124133227" uid="17110" user="steinarh">
		<tag k="name" v="Ankenes - Oŋká" />
		<tag k="name:no" v="Ankenes" />
		<tag k="name:se" v="Oŋká" />
		<tag k="place" v="neighbourhood" />
		<tag k="ssr:stedsnr" v="631525" />
	</node>
	<node id="724546502" lat="68.4118451" lon="17.4306866" version="3" timestamp="2022-07-27T10:22:45Z" changeset="124133227" uid="17110" user="steinarh">
		<tag k="name" v="Fagernes - Čoalbmi" />
		<tag k="name:no" v="Fagernes" />
		<tag k="name:se" v="Čoalbmi" />
		<tag k="place" v="neighbourhood" />
		<tag k="ssr:stedsnr" v="138272" />
	</node>
	<node id="724546556" lat="68.3761714" lon="17.5962873" version="6" timestamp="2022-07-13T06:05:00Z" changeset="123545445" uid="3497659" user="NKA">
		<tag k="name" v="Beisfjord - Ušmá" />
		<tag k="name:no" v="Beisfjord" />
		<tag k="name:se" v="Ušmá" />
		<tag k="place" v="village" />
		<tag k="population" v="678" />
		<tag k="population:date" v="2021-01-01" />
		<tag k="ref:ssb_tettsted" v="7513" />
		<tag k="source:population" v="SSB - befolkning i tettstedet" />
		<tag k="ssr:stedsnr" v="138161" />
	</node>
	<node id="808611732" lat="68.1457113" lon="16.2663603" version="2" timestamp="2022-07-13T06:05:00Z" changeset="123545445" uid="3497659" user="NKA">
		<tag k="name" v="Benasuoloj - Hundholmen" />
		<tag k="name:no" v="Hundholmen" />
		<tag k="name:smj" v="Benasuoloj" />
		<tag k="place" v="hamlet" />
		<tag k="ssr:stedsnr" v="138619" />
	</node>
	<node id="1147903008" lat="68.2748173" lon="17.3972086" version="3" timestamp="2022-07-13T06:05:00Z" changeset="123545445" uid="3497659" user="NKA">
		<tag k="name" v="Aspevik" />
		<tag k="place" v="farm" />
		<tag k="ssr:stedsnr" v="17846" />
	</node>
	<node id="1276932424" lat="68.4048185" lon="17.3082522" version="8" timestamp="2022-07-13T06:05:00Z" changeset="123545445" uid="3497659" user="NKA">
		<tag k="alt_name:no" v="Håkvika" />
		<tag k="name" v="Håkvik - Ginnasluokta" />
		<tag k="name:no" v="Håkvik" />
		<tag k="name:se" v="Ginnasluokta" />
		<tag k="place" v="village" />
		<tag k="population" v="756" />
		<tag k="population:date" v="2021-01-01" />
		<tag k="ref:ssb_tettsted" v="7514" />
		<tag k="source:population" v="SSB - befolkning i tettstedet" />
		<tag k="ssr:stedsnr" v="268934" />
		<tag k="wikidata" v="Q1846965" />
		<tag k="wikipedia" v="en:Håkvik" />
	</node>
	<node id="1581232177" lat="68.5315346" lon="17.4712583" version="2" timestamp="2022-07-13T06:05:00Z" changeset="123545445" uid="3497659" user="NKA">
		<tag k="name" v="Herjangen - Hearjjak" />
		<tag k="name:no" v="Herjangen" />
		<tag k="name:se" v="Hearjjak" />
		<tag k="place" v="hamlet" />
		<tag k="ssr:stedsnr" v="381763" />
	</node>
	<node id="1693129679" lat="68.2312069" lon="16.2400565" version="2" timestamp="2022-07-13T06:05:00Z" changeset="123545445" uid="3497659" user="NKA">
		<tag k="name" v="Skárffabákte - Skarberget" />
		<tag k="name:no" v="Skarberget" />
		<tag k="name:smj" v="Skárffabákte" />
		<tag k="place" v="hamlet" />
		<tag k="ssr:stedsnr" v="77510" />
	</node>
	<node id="1720501166" lat="68.4735127" lon="17.6437049" version="2" timestamp="2022-07-13T06:05:00Z" changeset="123545445" uid="3497659" user="NKA">
		<tag k="name" v="Trældal - Raltták" />
		<tag k="name:no" v="Trældal" />
		<tag k="name:se" v="Raltták" />
		<tag k="place" v="hamlet" />
		<tag k="ssr:stedsnr" v="624782" />
	</node>
	<node id="1721768289" lat="68.2421973" lon="16.3540409" version="2" timestamp="2022-07-13T06:05:00Z" changeset="123545445" uid="3497659" user="NKA">
		<tag k="name" v="Ulbegiedde - Ulvika" />
		<tag k="name:no" v="Ulvika" />
		<tag k="name:smj" v="Ulbegiedde" />
		<tag k="place" v="hamlet" />
		<tag k="ssr:stedsnr" v="927563" />
	</node>
	<node id="2515547433" lat="68.0417258" lon="16.3597371" version="5" timestamp="2022-07-13T06:05:00Z" changeset="123545445" uid="3497659" user="NKA">
		<tag k="name" v="Tørnes" />
		<tag k="place" v="hamlet" />
		<tag k="ssr:stedsnr" v="1076542" />
	</node>
	<node id="2943517283" lat="68.3905909" lon="17.1414342" version="2" timestamp="2022-07-13T06:05:00Z" changeset="123545445" uid="3497659" user="NKA">
		<tag k="name" v="Vidrek - Vierák" />
		<tag k="name:no" v="Vidrek" />
		<tag k="name:se" v="Vierák" />
		<tag k="place" v="hamlet" />
		<tag k="population" v="70" />
		<tag k="ssr:stedsnr" v="18939" />
	</node>
	<node id="3304394497" lat="68.2712189" lon="16.3458653" version="3" timestamp="2022-07-13T06:05:00Z" changeset="123545445" uid="3497659" user="NKA">
		<tag k="name" v="Ájdevuolle - Eidet" />
		<tag k="name:no" v="Eidet" />
		<tag k="name:smj" v="Ájdevuolle" />
		<tag k="place" v="hamlet" />
		<tag k="ssr:stedsnr" v="745541" />
	</node>
	<node id="4226426803" lat="68.1776111" lon="17.7813251" version="2" timestamp="2022-07-13T06:05:00Z" changeset="123545445" uid="3497659" user="NKA">
		<tag k="name" v="Stasjonsholmen" />
		<tag k="place" v="locality" />
		<tag k="ssr:stedsnr" v="684654" />
	</node>
	<node id="6203579952" lat="68.4191908" lon="16.6315696" version="2" timestamp="2022-07-13T06:05:00Z" changeset="123545445" uid="3497659" user="NKA">
		<tag k="name" v="Kjelde - Gáldu" />
		<tag k="name:no" v="Kjelde" />
		<tag k="name:se" v="Gáldu" />
		<tag k="place" v="hamlet" />
		<tag k="ssr:stedsnr" v="563460" />
	</node>
	<node id="6205774441" lat="68.0739003" lon="16.3925098" version="2" timestamp="2022-07-13T06:05:00Z" changeset="123545445" uid="3497659" user="NKA">
		<tag k="name" v="Jågåsijdda - Storå" />
		<tag k="name:no" v="Storå" />
		<tag k="name:smj" v="Jågåsijdda" />
		<tag k="old_name:smj" v="Jogasiida" />
		<tag k="place" v="hamlet" />
		<tag k="ssr:stedsnr" v="562562" />
	</node>
	<node id="6205774463" lat="68.2563423" lon="17.4025713" version="2" timestamp="2022-07-13T06:05:00Z" changeset="123545445" uid="3497659" user="NKA">
		<tag k="alt_name:no" v="Elvegård" />
		<tag k="loc_name:se" v="Jogasiida" />
		<tag k="name" v="Elvegården" />
		<tag k="name:no" v="Elvegården" />
		<tag k="place" v="village" />
		<tag k="ssr:stedsnr" v="78820" />
	</node>
	<node id="9884377521" lat="68.3621901" lon="16.5591912" version="1" timestamp="2022-07-13T06:05:00Z" changeset="123545445" uid="3497659" user="NKA">
		<tag k="name" v="Klippenborg" />
		<tag k="place" v="farm" />
		<tag k="ssr:stedsnr" v="442750" />
	</node>
	<node id="9884377522" lat="68.2530307" lon="17.324938" version="1" timestamp="2022-07-13T06:05:00Z" changeset="123545445" uid="3497659" user="NKA">
		<tag k="name" v="Tømmernes" />
		<tag k="place" v="locality" />
		<tag k="ssr:stedsnr" v="1076506" />
	</node>
	<node id="9884377523" lat="68.2344733" lon="17.3028285" version="1" timestamp="2022-07-13T06:05:00Z" changeset="123545445" uid="3497659" user="NKA">
		<tag k="name" v="Frostisen" />
		<tag k="place" v="farm" />
		<tag k="ssr:stedsnr" v="867760" />
	</node>
	<node id="9884377524" lat="68.0943306" lon="16.3552805" version="1" timestamp="2022-07-13T06:05:00Z" changeset="123545445" uid="3497659" user="NKA">
		<tag k="name" v="Smines" />
		<tag k="place" v="neighbourhood" />
		<tag k="ssr:stedsnr" v="21760" />
	</node>
	<node id="9884377525" lat="68.3615365" lon="16.8528925" version="1" timestamp="2022-07-13T06:05:00Z" changeset="123545445" uid="3497659" user="NKA">
		<tag k="name" v="Vassbotn" />
		<tag k="place" v="farm" />
		<tag k="ssr:stedsnr" v="381946" />
	</node>
	<node id="9884377526" lat="68.362575" lon="16.8853407" version="1" timestamp="2022-07-13T06:05:00Z" changeset="123545445" uid="3497659" user="NKA">
		<tag k="name" v="Sandbakk" />
		<tag k="place" v="farm" />
		<tag k="ssr:stedsnr" v="806939" />
	</node>
	<node id="9884377527" lat="68.2278671" lon="16.3500866" version="1" timestamp="2022-07-13T06:05:00Z" changeset="123545445" uid="3497659" user="NKA">
		<tag k="alt_name" v="Kristenheimen" />
		<tag k="name" v="Eidvika" />
		<tag k="place" v="farm" />
		<tag k="ssr:stedsnr" v="380530" />
	</node>
	<node id="9884377528" lat="68.292808" lon="17.232708" version="1" timestamp="2022-07-13T06:05:00Z" changeset="123545445" uid="3497659" user="NKA">
		<tag k="historic" v="shieling" />
		<tag k="name" v="Klubbviksætra" />
		<tag k="place" v="isolated_dwelling" />
		<tag k="ssr:stedsnr" v="806836" />
	</node>
	<node id="9884377529" lat="68.2836305" lon="17.3854334" version="1" timestamp="2022-07-13T06:05:00Z" changeset="123545445" uid="3497659" user="NKA">
		<tag k="historic" v="shieling" />
		<tag k="name" v="Berglundsætran" />
		<tag k="place" v="isolated_dwelling" />
		<tag k="ssr:stedsnr" v="847748" />
	</node>
	<node id="9884377530" lat="68.3910793" lon="17.5452659" version="1" timestamp="2022-07-13T06:05:00Z" changeset="123545445" uid="3497659" user="NKA">
		<tag k="name" v="Oldernes" />
		<tag k="place" v="farm" />
		<tag k="ssr:stedsnr" v="1076487" />
	</node>
	<node id="9884377531" lat="68.3548361" lon="16.8657304" version="1" timestamp="2022-07-13T06:05:00Z" changeset="123545445" uid="3497659" user="NKA">
		<tag k="alt_name" v="Slåttstranda" />
		<tag k="name" v="Slåttstrand" />
		<tag k="place" v="hamlet" />
		<tag k="ssr:stedsnr" v="321872" />
	</node>
	<node id="9884377532" lat="68.4113319" lon="16.5807234" version="1" timestamp="2022-07-13T06:05:00Z" changeset="123545445" uid="3497659" user="NKA">
		<tag k="name" v="Hamnesstranda" />
		<tag k="place" v="hamlet" />
		<tag k="ssr:stedsnr" v="684733" />
	</node>
	<node id="9884377533" lat="68.3143586" lon="16.4485366" version="1" timestamp="2022-07-13T06:05:00Z" changeset="123545445" uid="3497659" user="NKA">
		<tag k="name" v="Reppvika" />
		<tag k="place" v="hamlet" />
		<tag k="ssr:stedsnr" v="260651" />
	</node>
	<node id="9884377534" lat="68.1900878" lon="17.3141494" version="1" timestamp="2022-07-13T06:05:00Z" changeset="123545445" uid="3497659" user="NKA">
		<tag k="name" v="Skjombotn" />
		<tag k="place" v="hamlet" />
		<tag k="ssr:stedsnr" v="623717" />
	</node>
	<node id="9884377535" lat="68.350888" lon="16.9442331" version="1" timestamp="2022-07-13T06:05:00Z" changeset="123545445" uid="3497659" user="NKA">
		<tag k="name" v="Arnes" />
		<tag k="place" v="hamlet" />
		<tag k="ssr:stedsnr" v="321868" />
	</node>
	<node id="9884377536" lat="68.2314834" lon="16.4640612" version="1" timestamp="2022-07-13T06:05:00Z" changeset="123545445" uid="3497659" user="NKA">
		<tag k="name" v="Vik" />
		<tag k="place" v="isolated_dwelling" />
		<tag k="ssr:stedsnr" v="104252" />
	</node>
	<node id="9884377537" lat="68.3347543" lon="17.2795883" version="1" timestamp="2022-07-13T06:05:00Z" changeset="123545445" uid="3497659" user="NKA">
		<tag k="name" v="Mehus" />
		<tag k="place" v="farm" />
		<tag k="ssr:stedsnr" v="321830" />
	</node>
	<node id="9884377538" lat="68.2608834" lon="17.4074639" version="1" timestamp="2022-07-13T06:05:00Z" changeset="123545445" uid="3497659" user="NKA">
		<tag k="name" v="Nordgård" />
		<tag k="place" v="farm" />
		<tag k="ssr:stedsnr" v="570516" />
	</node>
	<node id="9884377539" lat="68.3888945" lon="16.5989472" version="1" timestamp="2022-07-13T06:05:00Z" changeset="123545445" uid="3497659" user="NKA">
		<tag k="name" v="Kjelde" />
		<tag k="place" v="farm" />
		<tag k="ssr:stedsnr" v="242141" />
	</node>
	<node id="9884377540" lat="68.3735722" lon="16.8376027" version="1" timestamp="2022-07-13T06:05:00Z" changeset="123545445" uid="3497659" user="NKA">
		<tag k="name" v="Bødalen" />
		<tag k="place" v="farm" />
		<tag k="ssr:stedsnr" v="320916" />
	</node>
	<node id="9884377541" lat="68.2431027" lon="16.3556339" version="1" timestamp="2022-07-13T06:05:00Z" changeset="123545445" uid="3497659" user="NKA">
		<tag k="name" v="Bukta" />
		<tag k="place" v="farm" />
		<tag k="ssr:stedsnr" v="710449" />
	</node>
	<node id="9884377542" lat="68.1877973" lon="17.324161" version="1" timestamp="2022-07-13T06:05:00Z" changeset="123545445" uid="3497659" user="NKA">
		<tag k="name" v="Nygård" />
		<tag k="place" v="farm" />
		<tag k="ssr:stedsnr" v="502703" />
	</node>
	<node id="9884377543" lat="68.2268683" lon="16.4467336" version="1" timestamp="2022-07-13T06:05:00Z" changeset="123545445" uid="3497659" user="NKA">
		<tag k="name" v="Sildpollneset" />
		<tag k="place" v="hamlet" />
		<tag k="ssr:stedsnr" v="628748" />
	</node>
	<node id="9884377544" lat="68.3891552" lon="17.1854364" version="1" timestamp="2022-07-13T06:05:00Z" changeset="123545445" uid="3497659" user="NKA">
		<tag k="name" v="Røsåsen" />
		<tag k="place" v="farm" />
		<tag k="ssr:stedsnr" v="260969" />
	</node>
	<node id="9884377545" lat="68.4896033" lon="17.5160105" version="1" timestamp="2022-07-13T06:05:00Z" changeset="123545445" uid="3497659" user="NKA">
		<tag k="alt_name" v="Litlemoen" />
		<tag k="name" v="Lillemo" />
		<tag k="place" v="farm" />
		<tag k="ssr:stedsnr" v="624763" />
	</node>
	<node id="9884377546" lat="68.4013972" lon="16.6344778" version="1" timestamp="2022-07-13T06:05:00Z" changeset="123545445" uid="3497659" user="NKA">
		<tag k="name" v="Kjelde" />
		<tag k="place" v="farm" />
		<tag k="ssr:stedsnr" v="242131" />
	</node>
	<node id="9884377547" lat="68.3834056" lon="16.8965444" version="1" timestamp="2022-07-13T06:05:00Z" changeset="123545445" uid="3497659" user="NKA">
		<tag k="name" v="Ytterbø" />
		<tag k="place" v="farm" />
		<tag k="ssr:stedsnr" v="148073" />
	</node>
	<node id="9884377548" lat="68.2848188" lon="17.30695" version="1" timestamp="2022-07-13T06:05:00Z" changeset="123545445" uid="3497659" user="NKA">
		<tag k="name" v="Forsa" />
		<tag k="old_name" v="Forselv" />
		<tag k="place" v="farm" />
		<tag k="ssr:stedsnr" v="563860" />
	</node>
	<node id="9884377549" lat="68.348875" lon="16.5853" version="1" timestamp="2022-07-13T06:05:00Z" changeset="123545445" uid="3497659" user="NKA">
		<tag k="alt_name" v="Fjellfoss" />
		<tag k="name" v="Fjellfors" />
		<tag k="place" v="farm" />
		<tag k="ssr:stedsnr" v="138692" />
	</node>
	<node id="9884377550" lat="68.2983154" lon="17.2695294" version="1" timestamp="2022-07-13T06:05:00Z" changeset="123545445" uid="3497659" user="NKA">
		<tag k="name" v="Klubbvika" />
		<tag k="place" v="farm" />
		<tag k="ssr:stedsnr" v="563838" />
	</node>
	<node id="9884377551" lat="68.3191742" lon="17.2855203" version="1" timestamp="2022-07-13T06:05:00Z" changeset="123545445" uid="3497659" user="NKA">
		<tag k="alt_name" v="Lengnes nordre" />
		<tag k="name" v="Nordre Lengnes" />
		<tag k="place" v="farm" />
		<tag k="ssr:stedsnr" v="631961" />
	</node>
	<node id="9884377552" lat="68.5534333" lon="17.7148666" version="1" timestamp="2022-07-13T06:05:00Z" changeset="123545445" uid="3497659" user="NKA">
		<tag k="name" v="Bakkejorda" />
		<tag k="place" v="isolated_dwelling" />
		<tag k="ssr:stedsnr" v="685672" />
	</node>
	<node id="9884377553" lat="68.226041" lon="16.3754044" version="1" timestamp="2022-07-13T06:05:00Z" changeset="123545445" uid="3497659" user="NKA">
		<tag k="name" v="Eidstø" />
		<tag k="place" v="farm" />
		<tag k="ssr:stedsnr" v="562509" />
	</node>
	<node id="9884377554" lat="68.489435" lon="17.5107226" version="1" timestamp="2022-07-13T06:05:00Z" changeset="123545445" uid="3497659" user="NKA">
		<tag k="name" v="Seines - Seavgu" />
		<tag k="name:no" v="Seines" />
		<tag k="name:se" v="Seavgu" />
		<tag k="place" v="hamlet" />
		<tag k="ssr:stedsnr" v="343909" />
	</node>
	<node id="9884377555" lat="68.225725" lon="16.3490778" version="1" timestamp="2022-07-13T06:05:00Z" changeset="123545445" uid="3497659" user="NKA">
		<tag k="name" v="Strandskogen" />
		<tag k="place" v="farm" />
		<tag k="ssr:stedsnr" v="562503" />
	</node>
	<node id="9884377556" lat="68.3887716" lon="17.5519172" version="1" timestamp="2022-07-13T06:05:00Z" changeset="123545445" uid="3497659" user="NKA">
		<tag k="name" v="Gammelheimen" />
		<tag k="place" v="locality" />
		<tag k="ssr:stedsnr" v="342050" />
	</node>
	<node id="9884377557" lat="68.3480146" lon="16.5833699" version="1" timestamp="2022-07-13T06:05:00Z" changeset="123545445" uid="3497659" user="NKA">
		<tag k="name" v="Kvitfors" />
		<tag k="place" v="hamlet" />
		<tag k="ssr:stedsnr" v="806689" />
	</node>
	<node id="9884377558" lat="68.3156805" lon="17.0625973" version="1" timestamp="2022-07-13T06:05:00Z" changeset="123545445" uid="3497659" user="NKA">
		<tag k="alt_name" v="Nordmoen, øvre" />
		<tag k="name" v="Øvre Nordmoen" />
		<tag k="place" v="farm" />
		<tag k="ssr:stedsnr" v="321828" />
	</node>
	<node id="9884377559" lat="68.325038" lon="17.2904085" version="1" timestamp="2022-07-13T06:05:00Z" changeset="123545445" uid="3497659" user="NKA">
		<tag k="name" v="Bakken" />
		<tag k="place" v="farm" />
		<tag k="ssr:stedsnr" v="455970" />
	</node>
	<node id="9884377560" lat="68.3770533" lon="16.5724942" version="1" timestamp="2022-07-13T06:05:00Z" changeset="123545445" uid="3497659" user="NKA">
		<tag k="name" v="Fagerli" />
		<tag k="place" v="farm" />
		<tag k="ssr:stedsnr" v="745742" />
	</node>
	<node id="9884377561" lat="68.2277658" lon="16.4635905" version="1" timestamp="2022-07-13T06:05:00Z" changeset="123545445" uid="3497659" user="NKA">
		<tag k="name" v="Sluodnerågge - Blomhola" />
		<tag k="name:no" v="Blomhola" />
		<tag k="name:smj" v="Sluodnerågge" />
		<tag k="place" v="farm" />
		<tag k="ssr:stedsnr" v="380526" />
	</node>
	<node id="9884377562" lat="68.3370806" lon="16.5503029" version="1" timestamp="2022-07-13T06:05:00Z" changeset="123545445" uid="3497659" user="NKA">
		<tag k="name" v="Elvebakken" />
		<tag k="place" v="farm" />
		<tag k="ssr:stedsnr" v="502665" />
	</node>
	<node id="9884377563" lat="68.4143324" lon="16.5750843" version="1" timestamp="2022-07-13T06:05:00Z" changeset="123545445" uid="3497659" user="NKA">
		<tag k="name" v="Hamnes" />
		<tag k="place" v="hamlet" />
		<tag k="ssr:stedsnr" v="684731" />
	</node>
	<node id="9884377564" lat="68.3363648" lon="16.5464146" version="1" timestamp="2022-07-13T06:05:00Z" changeset="123545445" uid="3497659" user="NKA">
		<tag k="alt_name" v="Rundhaug" />
		<tag k="name" v="Rundhaugen" />
		<tag k="place" v="farm" />
		<tag k="ssr:stedsnr" v="442662" />
	</node>
	<node id="9884377565" lat="68.5785084" lon="17.6044306" version="1" timestamp="2022-07-13T06:05:00Z" changeset="123545445" uid="3497659" user="NKA">
		<tag k="name" v="Vestre Kvanndalen" />
		<tag k="place" v="farm" />
		<tag k="ssr:stedsnr" v="149427" />
	</node>
	<node id="9884377566" lat="68.3167105" lon="16.5758485" version="1" timestamp="2022-07-13T06:05:00Z" changeset="123545445" uid="3497659" user="NKA">
		<tag k="name" v="Håfjell" />
		<tag k="place" v="locality" />
		<tag k="ssr:stedsnr" v="1076671" />
	</node>
	<node id="9884377567" lat="68.2256186" lon="16.4017111" version="1" timestamp="2022-07-13T06:05:00Z" changeset="123545445" uid="3497659" user="NKA">
		<tag k="name" v="Solheim" />
		<tag k="place" v="farm" />
		<tag k="ssr:stedsnr" v="199508" />
	</node>
	<node id="9884377568" lat="68.232169" lon="17.3415414" version="1" timestamp="2022-07-13T06:05:00Z" changeset="123545445" uid="3497659" user="NKA">
		<tag k="name" v="Brennmoen" />
		<tag k="place" v="farm" />
		<tag k="ssr:stedsnr" v="320746" />
	</node>
	<node id="9884377569" lat="68.0924076" lon="16.3650239" version="1" timestamp="2022-07-13T06:05:00Z" changeset="123545445" uid="3497659" user="NKA">
		<tag k="name" v="Oaffe - Kjøpsnes" />
		<tag k="name:no" v="Kjøpsnes" />
		<tag k="name:smj" v="Oaffe" />
		<tag k="old_name:smj" v="Oaffi" />
		<tag k="place" v="neighbourhood" />
		<tag k="ssr:stedsnr" v="16510" />
	</node>
	<node id="9884377570" lat="68.3555445" lon="16.5822666" version="1" timestamp="2022-07-13T06:05:00Z" changeset="123545445" uid="3497659" user="NKA">
		<tag k="name" v="Slåttli" />
		<tag k="place" v="farm" />
		<tag k="ssr:stedsnr" v="828699" />
	</node>
	<node id="9884377571" lat="68.3983833" lon="16.5943805" version="1" timestamp="2022-07-13T06:05:00Z" changeset="123545445" uid="3497659" user="NKA">
		<tag k="name" v="Furuholt" />
		<tag k="place" v="farm" />
		<tag k="ssr:stedsnr" v="866726" />
	</node>
	<node id="9884377572" lat="68.3644417" lon="16.5818722" version="1" timestamp="2022-07-13T06:05:00Z" changeset="123545445" uid="3497659" user="NKA">
		<tag k="name" v="Henrikhaugen" />
		<tag k="place" v="farm" />
		<tag k="ssr:stedsnr" v="502732" />
	</node>
	<node id="9884377573" lat="68.3914889" lon="16.5834805" version="1" timestamp="2022-07-13T06:05:00Z" changeset="123545445" uid="3497659" user="NKA">
		<tag k="alt_name" v="Forshaug" />
		<tag k="name" v="Fosshaugen" />
		<tag k="place" v="farm" />
		<tag k="ssr:stedsnr" v="745759" />
	</node>
	<node id="9884377574" lat="68.4446793" lon="17.4591618" version="1" timestamp="2022-07-13T06:05:00Z" changeset="123545445" uid="3497659" user="NKA">
		<tag k="name" v="Furumoen" />
		<tag k="place" v="suburb" />
		<tag k="ssr:stedsnr" v="177128" />
	</node>
	<node id="9884377575" lat="68.5628612" lon="17.6575694" version="1" timestamp="2022-07-13T06:05:00Z" changeset="123545445" uid="3497659" user="NKA">
		<tag k="name" v="Myrhaug" />
		<tag k="place" v="isolated_dwelling" />
		<tag k="ssr:stedsnr" v="806726" />
	</node>
	<node id="9884377576" lat="68.5629346" lon="17.6591615" version="1" timestamp="2022-07-13T06:05:00Z" changeset="123545445" uid="3497659" user="NKA">
		<tag k="alt_name" v="Fjeldal" />
		<tag k="name" v="Fjelldal" />
		<tag k="place" v="farm" />
		<tag k="ssr:stedsnr" v="806723" />
	</node>
	<node id="9884377577" lat="68.4449701" lon="17.4304372" version="1" timestamp="2022-07-13T06:05:00Z" changeset="123545445" uid="3497659" user="NKA">
		<tag k="name" v="Finnbekken" />
		<tag k="place" v="farm" />
		<tag k="ssr:stedsnr" v="30711" />
	</node>
	<node id="9884377578" lat="68.1275719" lon="16.301195" version="1" timestamp="2022-07-13T06:05:00Z" changeset="123545445" uid="3497659" user="NKA">
		<tag k="name" v="Ráhtáluokta - Fredagsvika" />
		<tag k="name:no" v="Fredagsvika" />
		<tag k="name:smj" v="Ráhtáluokta" />
		<tag k="place" v="hamlet" />
		<tag k="ssr:stedsnr" v="442561" />
	</node>
	<node id="9884377579" lat="68.4442056" lon="17.4253305" version="1" timestamp="2022-07-13T06:05:00Z" changeset="123545445" uid="3497659" user="NKA">
		<tag k="name" v="Vassvik" />
		<tag k="place" v="suburb" />
		<tag k="ssr:stedsnr" v="601121" />
	</node>
	<node id="9884377580" lat="68.1915029" lon="16.4550989" version="1" timestamp="2022-07-13T06:05:00Z" changeset="123545445" uid="3497659" user="NKA">
		<tag k="name" v="Dimbarásse - Tømmeråsen" />
		<tag k="name:no" v="Tømmeråsen" />
		<tag k="name:smj" v="Dimbarásse" />
		<tag k="place" v="hamlet" />
		<tag k="ssr:stedsnr" v="441528" />
	</node>
	<node id="9884377581" lat="68.2414278" lon="16.2995972" version="1" timestamp="2022-07-13T06:05:00Z" changeset="123545445" uid="3497659" user="NKA">
		<tag k="name" v="Sommarset" />
		<tag k="place" v="isolated_dwelling" />
		<tag k="ssr:stedsnr" v="380596" />
	</node>
	<node id="9884377582" lat="68.3251534" lon="16.6992231" version="1" timestamp="2022-07-13T06:05:00Z" changeset="123545445" uid="3497659" user="NKA">
		<tag k="name" v="Kalvåsen" />
		<tag k="place" v="hamlet" />
		<tag k="ssr:stedsnr" v="684628" />
	</node>
	<node id="9884377583" lat="68.3685146" lon="16.6105643" version="1" timestamp="2022-07-13T06:05:00Z" changeset="123545445" uid="3497659" user="NKA">
		<tag k="name" v="Kjeldemarka - Gáldovuopmi" />
		<tag k="name:no" v="Kjeldemarka" />
		<tag k="name:se" v="Gáldovuopmi" />
		<tag k="place" v="farm" />
		<tag k="ssr:stedsnr" v="606184" />
	</node>
	<node id="9884377584" lat="68.5573582" lon="17.6260015" version="1" timestamp="2022-07-13T06:05:00Z" changeset="123545445" uid="3497659" user="NKA">
		<tag k="name" v="Bergetun" />
		<tag k="place" v="farm" />
		<tag k="ssr:stedsnr" v="685668" />
	</node>
	<node id="9884377585" lat="68.478735" lon="17.5512773" version="1" timestamp="2022-07-13T06:05:00Z" changeset="123545445" uid="3497659" user="NKA">
		<tag k="name" v="Lauksletta" />
		<tag k="place" v="farm" />
		<tag k="ssr:stedsnr" v="940325" />
	</node>
	<node id="9884377586" lat="68.2643361" lon="17.3353583" version="1" timestamp="2022-07-13T06:05:00Z" changeset="123545445" uid="3497659" user="NKA">
		<tag k="name" v="Mortenjorda" />
		<tag k="place" v="locality" />
		<tag k="ssr:stedsnr" v="200764" />
	</node>
	<node id="9884377587" lat="68.3312236" lon="16.3664555" version="1" timestamp="2022-07-13T06:05:00Z" changeset="123545445" uid="3497659" user="NKA">
		<tag k="name" v="Langvågen" />
		<tag k="place" v="hamlet" />
		<tag k="ssr:stedsnr" v="260668" />
	</node>
	<node id="9884377588" lat="68.4723333" lon="17.5025305" version="1" timestamp="2022-07-13T06:05:00Z" changeset="123545445" uid="3497659" user="NKA">
		<tag k="name" v="Øverlund" />
		<tag k="place" v="farm" />
		<tag k="ssr:stedsnr" v="936268" />
	</node>
	<node id="9884377589" lat="68.3407889" lon="16.5658196" version="1" timestamp="2022-07-13T06:05:00Z" changeset="123545445" uid="3497659" user="NKA">
		<tag k="name" v="Høgli" />
		<tag k="place" v="farm" />
		<tag k="ssr:stedsnr" v="563672" />
	</node>
	<node id="9884377590" lat="68.5701528" lon="17.5738861" version="1" timestamp="2022-07-13T06:05:00Z" changeset="123545445" uid="3497659" user="NKA">
		<tag k="name" v="Nylund" />
		<tag k="place" v="farm" />
		<tag k="ssr:stedsnr" v="381748" />
	</node>
	<node id="9884377591" lat="68.5587746" lon="17.721147" version="1" timestamp="2022-07-13T06:05:00Z" changeset="123545445" uid="3497659" user="NKA">
		<tag k="name" v="Solli" />
		<tag k="place" v="farm" />
		<tag k="ssr:stedsnr" v="503688" />
	</node>
	<node id="9884377592" lat="68.5594612" lon="17.5695139" version="1" timestamp="2022-07-13T06:05:00Z" changeset="123545445" uid="3497659" user="NKA">
		<tag k="alt_name" v="Dalmoen" />
		<tag k="name" v="Dalmo" />
		<tag k="place" v="isolated_dwelling" />
		<tag k="ssr:stedsnr" v="442712" />
	</node>
	<node id="9884377593" lat="68.4714711" lon="17.5040779" version="1" timestamp="2022-07-13T06:05:00Z" changeset="123545445" uid="3497659" user="NKA">
		<tag k="name" v="Øyjorda" />
		<tag k="place" v="hamlet" />
		<tag k="ssr:stedsnr" v="928763" />
	</node>
	<node id="9884377594" lat="68.4769073" lon="17.5652539" version="1" timestamp="2022-07-13T06:05:00Z" changeset="123545445" uid="3497659" user="NKA">
		<tag k="alt_name" v="Leirvik" />
		<tag k="name" v="Leirvika" />
		<tag k="place" v="hamlet" />
		<tag k="ssr:stedsnr" v="928726" />
	</node>
	<node id="9884377595" lat="68.1408195" lon="16.3361332" version="1" timestamp="2022-07-13T06:05:00Z" changeset="123545445" uid="3497659" user="NKA">
		<tag k="name" v="Mellagården" />
		<tag k="place" v="farm" />
		<tag k="ssr:stedsnr" v="82952" />
	</node>
	<node id="9884377596" lat="68.2948668" lon="17.3592339" version="1" timestamp="2022-07-13T06:05:00Z" changeset="123545445" uid="3497659" user="NKA">
		<tag k="name" v="Rosenborg" />
		<tag k="place" v="farm" />
		<tag k="ssr:stedsnr" v="403692" />
	</node>
	<node id="9884377597" lat="68.5529707" lon="17.6028565" version="1" timestamp="2022-07-13T06:05:00Z" changeset="123545445" uid="3497659" user="NKA">
		<tag k="name" v="Elverum" />
		<tag k="place" v="farm" />
		<tag k="ssr:stedsnr" v="321660" />
	</node>
	<node id="9884377598" lat="68.2833192" lon="17.3763449" version="1" timestamp="2022-07-13T06:05:00Z" changeset="123545445" uid="3497659" user="NKA">
		<tag k="name" v="Aspelund" />
		<tag k="place" v="farm" />
		<tag k="ssr:stedsnr" v="180757" />
	</node>
	<node id="9884377599" lat="68.234475" lon="17.3073804" version="1" timestamp="2022-07-13T06:05:00Z" changeset="123545445" uid="3497659" user="NKA">
		<tag k="name" v="Pund isen" />
		<tag k="place" v="farm" />
		<tag k="ssr:stedsnr" v="342823" />
	</node>
	<node id="9884377600" lat="68.5532288" lon="17.7447246" version="1" timestamp="2022-07-13T06:05:00Z" changeset="123545445" uid="3497659" user="NKA">
		<tag k="alt_name" v="Elvemoen" />
		<tag k="name" v="Elvemo" />
		<tag k="place" v="farm" />
		<tag k="ssr:stedsnr" v="260787" />
	</node>
	<node id="9884377601" lat="68.5565047" lon="17.6081262" version="1" timestamp="2022-07-13T06:05:00Z" changeset="123545445" uid="3497659" user="NKA">
		<tag k="name" v="Dalberget" />
		<tag k="place" v="hamlet" />
		<tag k="ssr:stedsnr" v="745724" />
	</node>
	<node id="9884377602" lat="68.5588187" lon="17.7367776" version="1" timestamp="2022-07-13T06:05:00Z" changeset="123545445" uid="3497659" user="NKA">
		<tag k="alt_name:no" v="Nordkild" />
		<tag k="name" v="Nordkjelda - Latnja" />
		<tag k="name:no" v="Nordkjelda" />
		<tag k="name:se" v="Latnja" />
		<tag k="place" v="hamlet" />
		<tag k="ssr:stedsnr" v="389047" />
	</node>
	<node id="9884377603" lat="68.2522805" lon="17.4064" version="1" timestamp="2022-07-13T06:05:00Z" changeset="123545445" uid="3497659" user="NKA">
		<tag k="name" v="Lundemo" />
		<tag k="place" v="farm" />
		<tag k="ssr:stedsnr" v="146548" />
	</node>
	<node id="9884377604" lat="68.5575305" lon="17.6195444" version="1" timestamp="2022-07-13T06:05:00Z" changeset="123545445" uid="3497659" user="NKA">
		<tag k="name" v="Fagerjorda" />
		<tag k="place" v="farm" />
		<tag k="ssr:stedsnr" v="17728" />
	</node>
	<node id="9884377605" lat="68.2870072" lon="16.4769283" version="1" timestamp="2022-07-13T06:05:00Z" changeset="123545445" uid="3497659" user="NKA">
		<tag k="name" v="Sætran" />
		<tag k="place" v="neighbourhood" />
		<tag k="ssr:stedsnr" v="16555" />
	</node>
	<node id="9884377606" lat="68.2043312" lon="16.4821823" version="1" timestamp="2022-07-13T06:05:00Z" changeset="123545445" uid="3497659" user="NKA">
		<tag k="name" v="Inner-Stefjordneset" />
		<tag k="place" v="farm" />
		<tag k="ssr:stedsnr" v="17536" />
	</node>
	<node id="9884377607" lat="68.5615312" lon="17.7860992" version="1" timestamp="2022-07-13T06:05:00Z" changeset="123545445" uid="3497659" user="NKA">
		<tag k="name" v="Vassdalen" />
		<tag k="place" v="locality" />
		<tag k="ssr:stedsnr" v="1076471" />
	</node>
	<node id="9884377608" lat="68.561517" lon="17.6896674" version="1" timestamp="2022-07-13T06:05:00Z" changeset="123545445" uid="3497659" user="NKA">
		<tag k="name" v="Vestgård" />
		<tag k="place" v="farm" />
		<tag k="ssr:stedsnr" v="928653" />
	</node>
	<node id="9884377609" lat="68.3880528" lon="16.643789" version="1" timestamp="2022-07-13T06:05:00Z" changeset="123545445" uid="3497659" user="NKA">
		<tag k="alt_name" v="Lauvslett" />
		<tag k="name" v="Løvslett" />
		<tag k="place" v="farm" />
		<tag k="ssr:stedsnr" v="381759" />
	</node>
	<node id="9884377610" lat="68.5559698" lon="17.5623643" version="1" timestamp="2022-07-13T06:05:00Z" changeset="123545445" uid="3497659" user="NKA">
		<tag k="name" v="Bjørkvang" />
		<tag k="place" v="farm" />
		<tag k="ssr:stedsnr" v="745727" />
	</node>
	<node id="9884377611" lat="68.5579633" lon="17.7223768" version="1" timestamp="2022-07-13T06:05:00Z" changeset="123545445" uid="3497659" user="NKA">
		<tag k="name" v="Vassdalen - Áravuopmi" />
		<tag k="name:no" v="Vassdalen" />
		<tag k="name:se" v="Áravuopmi" />
		<tag k="place" v="hamlet" />
		<tag k="ssr:stedsnr" v="867769" />
	</node>
	<node id="9884377612" lat="68.4917555" lon="17.7629416" version="1" timestamp="2022-07-13T06:05:00Z" changeset="123545445" uid="3497659" user="NKA">
		<tag k="name" v="Gammelheimen" />
		<tag k="place" v="isolated_dwelling" />
		<tag k="ssr:stedsnr" v="321728" />
	</node>
	<node id="9884377613" lat="68.5539066" lon="17.6071028" version="1" timestamp="2022-07-13T06:05:00Z" changeset="123545445" uid="3497659" user="NKA">
		<tag k="name" v="Myrvang" />
		<tag k="place" v="farm" />
		<tag k="ssr:stedsnr" v="745708" />
	</node>
	<node id="9884377614" lat="68.4156861" lon="16.5872638" version="1" timestamp="2022-07-13T06:05:00Z" changeset="123545445" uid="3497659" user="NKA">
		<tag k="name" v="Porsøya" />
		<tag k="place" v="neighbourhood" />
		<tag k="ssr:stedsnr" v="298592" />
	</node>
	<node id="9884377615" lat="68.1889471" lon="17.32168" version="1" timestamp="2022-07-13T06:05:00Z" changeset="123545445" uid="3497659" user="NKA">
		<tag k="name" v="Laborg" />
		<tag k="place" v="hamlet" />
		<tag k="ssr:stedsnr" v="77701" />
	</node>
	<node id="9884377616" lat="68.5603546" lon="17.7060878" version="1" timestamp="2022-07-13T06:05:00Z" changeset="123545445" uid="3497659" user="NKA">
		<tag k="name" v="Midtgård" />
		<tag k="place" v="farm" />
		<tag k="ssr:stedsnr" v="78696" />
	</node>
	<node id="9884377617" lat="68.5623805" lon="17.669364" version="1" timestamp="2022-07-13T06:05:00Z" changeset="123545445" uid="3497659" user="NKA">
		<tag k="historic" v="shieling" />
		<tag k="name" v="Sæter" />
		<tag k="place" v="isolated_dwelling" />
		<tag k="ssr:stedsnr" v="631038" />
	</node>
	<node id="9884377618" lat="68.3610443" lon="16.5762542" version="1" timestamp="2022-07-13T06:05:00Z" changeset="123545445" uid="3497659" user="NKA">
		<tag k="name" v="Kjelde" />
		<tag k="place" v="farm" />
		<tag k="ssr:stedsnr" v="242167" />
	</node>
	<node id="9884377619" lat="68.5158972" lon="17.5581222" version="1" timestamp="2022-07-13T06:05:00Z" changeset="123545445" uid="3497659" user="NKA">
		<tag k="name" v="Geisvik" />
		<tag k="place" v="hamlet" />
		<tag k="ssr:stedsnr" v="685631" />
	</node>
	<node id="9884377620" lat="68.5169782" lon="17.5595832" version="1" timestamp="2022-07-13T06:05:00Z" changeset="123545445" uid="3497659" user="NKA">
		<tag k="name" v="Halsen" />
		<tag k="place" v="farm" />
		<tag k="ssr:stedsnr" v="563649" />
	</node>
	<node id="9884377621" lat="68.5585892" lon="17.569142" version="1" timestamp="2022-07-13T06:05:00Z" changeset="123545445" uid="3497659" user="NKA">
		<tag k="alt_name" v="Øymoen" />
		<tag k="name" v="Øymo" />
		<tag k="place" v="farm" />
		<tag k="ssr:stedsnr" v="563731" />
	</node>
	<node id="9884377622" lat="68.5573576" lon="17.6259998" version="1" timestamp="2022-07-13T06:05:00Z" changeset="123545445" uid="3497659" user="NKA">
		<tag k="name" v="Berglund" />
		<tag k="place" v="farm" />
		<tag k="ssr:stedsnr" v="563715" />
	</node>
	<node id="9884377623" lat="68.3739111" lon="16.6167666" version="1" timestamp="2022-07-13T06:05:00Z" changeset="123545445" uid="3497659" user="NKA">
		<tag k="name" v="Kjeldebotn" />
		<tag k="place" v="farm" />
		<tag k="ssr:stedsnr" v="60199" />
	</node>
	<node id="9884377624" lat="68.5581647" lon="17.7165546" version="1" timestamp="2022-07-13T06:05:00Z" changeset="123545445" uid="3497659" user="NKA">
		<tag k="alt_name:no" v="Anderheimen" />
		<tag k="name" v="Andersheimen - Ánttagoahti" />
		<tag k="name:no" v="Andersheimen" />
		<tag k="name:se" v="Ánttagoahti" />
		<tag k="place" v="farm" />
		<tag k="ssr:stedsnr" v="624683" />
	</node>
	<node id="9884377625" lat="68.5617179" lon="17.6949812" version="1" timestamp="2022-07-13T06:05:00Z" changeset="123545445" uid="3497659" user="NKA">
		<tag k="name" v="Fedreheim" />
		<tag k="place" v="farm" />
		<tag k="ssr:stedsnr" v="624700" />
	</node>
	<node id="9884377626" lat="68.4431326" lon="17.6532146" version="1" timestamp="2022-07-13T06:05:00Z" changeset="123545445" uid="3497659" user="NKA">
		<tag k="name" v="Nordre Straumsnes" />
		<tag k="place" v="farm" />
		<tag k="ssr:stedsnr" v="978699" />
	</node>
	<node id="9884377627" lat="68.2430477" lon="16.9231501" version="1" timestamp="2022-07-13T06:05:00Z" changeset="123545445" uid="3497659" user="NKA">
		<tag k="name" v="Botnmoen" />
		<tag k="place" v="locality" />
		<tag k="ssr:stedsnr" v="745795" />
	</node>
	<node id="9884377628" lat="68.4360886" lon="17.7137524" version="1" timestamp="2022-07-13T06:05:00Z" changeset="123545445" uid="3497659" user="NKA">
		<tag k="name" v="Austre Straumsnes" />
		<tag k="place" v="hamlet" />
		<tag k="ssr:stedsnr" v="978546" />
	</node>
	<node id="9884377629" lat="68.3470124" lon="16.5707615" version="1" timestamp="2022-07-13T06:05:00Z" changeset="123545445" uid="3497659" user="NKA">
		<tag k="name" v="Haugen" />
		<tag k="place" v="farm" />
		<tag k="ssr:stedsnr" v="17710" />
	</node>
	<node id="9884377630" lat="68.4712026" lon="17.4744346" version="1" timestamp="2022-07-13T06:05:00Z" changeset="123545445" uid="3497659" user="NKA">
		<tag k="name" v="Laukvik" />
		<tag k="place" v="isolated_dwelling" />
		<tag k="ssr:stedsnr" v="212314" />
	</node>
	<node id="9884377631" lat="68.4284656" lon="17.7108027" version="1" timestamp="2022-07-13T06:05:00Z" changeset="123545445" uid="3497659" user="NKA">
		<tag k="name" v="Straumsnes" />
		<tag k="place" v="farm" />
		<tag k="ssr:stedsnr" v="978555" />
	</node>
	<node id="9884377632" lat="68.3485028" lon="16.8940332" version="1" timestamp="2022-07-13T06:05:00Z" changeset="123545445" uid="3497659" user="NKA">
		<tag k="name" v="Fornes" />
		<tag k="place" v="neighbourhood" />
		<tag k="ssr:stedsnr" v="662608" />
	</node>
	<node id="9884377633" lat="68.4268346" lon="17.746363" version="1" timestamp="2022-07-13T06:05:00Z" changeset="123545445" uid="3497659" user="NKA">
		<tag k="name" v="Kuberget" />
		<tag k="place" v="farm" />
		<tag k="ssr:stedsnr" v="563199" />
	</node>
	<node id="9884377634" lat="68.4571819" lon="17.7038538" version="1" timestamp="2022-07-13T06:05:00Z" changeset="123545445" uid="3497659" user="NKA">
		<tag k="name" v="Hergot - Hearrágoahti" />
		<tag k="name:no" v="Hergot" />
		<tag k="name:se" v="Hearrágoahti" />
		<tag k="place" v="hamlet" />
		<tag k="ssr:stedsnr" v="563208" />
	</node>
	<node id="9884377635" lat="68.3703583" lon="16.578214" version="1" timestamp="2022-07-13T06:05:00Z" changeset="123545445" uid="3497659" user="NKA">
		<tag k="name" v="Myrslett" />
		<tag k="place" v="farm" />
		<tag k="ssr:stedsnr" v="874177" />
	</node>
	<node id="9884377636" lat="68.4713615" lon="17.6466154" version="1" timestamp="2022-07-13T06:05:00Z" changeset="123545445" uid="3497659" user="NKA">
		<tag k="name" v="Liljedal" />
		<tag k="place" v="farm" />
		<tag k="ssr:stedsnr" v="200748" />
	</node>
	<node id="9884377637" lat="68.2496149" lon="16.8742884" version="1" timestamp="2022-07-13T06:05:00Z" changeset="123545445" uid="3497659" user="NKA">
		<tag k="name" v="Kvannmoen" />
		<tag k="place" v="locality" />
		<tag k="ssr:stedsnr" v="563779" />
	</node>
	<node id="9884377638" lat="68.2946527" lon="16.6540976" version="1" timestamp="2022-07-13T06:05:00Z" changeset="123545445" uid="3497659" user="NKA">
		<tag k="name" v="Skafoss" />
		<tag k="place" v="locality" />
		<tag k="ssr:stedsnr" v="1076628" />
	</node>
	<node id="9884377639" lat="68.3268107" lon="16.6031199" version="1" timestamp="2022-07-13T06:05:00Z" changeset="123545445" uid="3497659" user="NKA">
		<tag k="alt_name" v="Nordhaugen;Nordhaug" />
		<tag k="name" v="Nordre Grindhaugen" />
		<tag k="place" v="farm" />
		<tag k="ssr:stedsnr" v="1076627" />
	</node>
	<node id="9884377640" lat="68.4193416" lon="16.7237472" version="1" timestamp="2022-07-13T06:05:00Z" changeset="123545445" uid="3497659" user="NKA">
		<tag k="name" v="Lønset" />
		<tag k="place" v="hamlet" />
		<tag k="ssr:stedsnr" v="198465" />
	</node>
	<node id="9884377641" lat="68.4814111" lon="17.555339" version="1" timestamp="2022-07-13T06:05:00Z" changeset="123545445" uid="3497659" user="NKA">
		<tag k="name" v="Holtan" />
		<tag k="place" v="farm" />
		<tag k="ssr:stedsnr" v="200726" />
	</node>
	<node id="9884377642" lat="68.2766176" lon="16.8555126" version="1" timestamp="2022-07-13T06:05:00Z" changeset="123545445" uid="3497659" user="NKA">
		<tag k="alt_name" v="Søndre Stokkedalen" />
		<tag k="name" v="Stokkedalen" />
		<tag k="place" v="farm" />
		<tag k="ssr:stedsnr" v="138850" />
	</node>
	<node id="9884377643" lat="68.2993322" lon="16.645874" version="1" timestamp="2022-07-13T06:05:00Z" changeset="123545445" uid="3497659" user="NKA">
		<tag k="name" v="Djupvatnet" />
		<tag k="place" v="farm" />
		<tag k="ssr:stedsnr" v="1076604" />
	</node>
	<node id="9884377644" lat="68.2963889" lon="16.6350001" version="1" timestamp="2022-07-13T06:05:00Z" changeset="123545445" uid="3497659" user="NKA">
		<tag k="name" v="Ivarhaug" />
		<tag k="place" v="farm" />
		<tag k="ssr:stedsnr" v="889706" />
	</node>
	<node id="9884377645" lat="68.5693361" lon="17.7955777" version="1" timestamp="2022-07-13T06:05:00Z" changeset="123545445" uid="3497659" user="NKA">
		<tag k="name" v="Karengamma" />
		<tag k="place" v="locality" />
		<tag k="ssr:stedsnr" v="543255" />
	</node>
	<node id="9884377646" lat="68.2976333" lon="16.6351639" version="1" timestamp="2022-07-13T06:05:00Z" changeset="123545445" uid="3497659" user="NKA">
		<tag k="name" v="Ivarjord nedre" />
		<tag k="place" v="farm" />
		<tag k="ssr:stedsnr" v="888703" />
	</node>
	<node id="9884377647" lat="68.456661" lon="17.7026231" version="1" timestamp="2022-07-13T06:05:00Z" changeset="123545445" uid="3497659" user="NKA">
		<tag k="name" v="Søndre Hergot" />
		<tag k="place" v="farm" />
		<tag k="ssr:stedsnr" v="453408" />
	</node>
	<node id="9884377648" lat="68.5512816" lon="17.7163286" version="1" timestamp="2022-07-13T06:05:00Z" changeset="123545445" uid="3497659" user="NKA">
		<tag k="name" v="Sørgård" />
		<tag k="place" v="farm" />
		<tag k="ssr:stedsnr" v="381713" />
	</node>
	<node id="9884377649" lat="68.4639412" lon="17.6883306" version="1" timestamp="2022-07-13T06:05:00Z" changeset="123545445" uid="3497659" user="NKA">
		<tag k="name" v="Nygård" />
		<tag k="place" v="hamlet" />
		<tag k="ssr:stedsnr" v="624226" />
	</node>
	<node id="9884377650" lat="68.437475" lon="17.4351027" version="1" timestamp="2022-07-13T06:05:00Z" changeset="123545445" uid="3497659" user="NKA">
		<tag k="name" v="Oscarsborg" />
		<tag k="place" v="suburb" />
		<tag k="ssr:stedsnr" v="723141" />
	</node>
	<node id="9884377651" lat="68.3552281" lon="16.1541311" version="1" timestamp="2022-07-13T06:05:00Z" changeset="123545445" uid="3497659" user="NKA">
		<tag k="name" v="Barøya" />
		<tag k="place" v="hamlet" />
		<tag k="ssr:stedsnr" v="502331" />
	</node>
	<node id="9884377652" lat="68.4339863" lon="17.6950819" version="1" timestamp="2022-07-13T06:05:00Z" changeset="123545445" uid="3497659" user="NKA">
		<tag k="name" v="Inner-Straumsnes" />
		<tag k="place" v="hamlet" />
		<tag k="ssr:stedsnr" v="697335" />
	</node>
	<node id="9884377653" lat="68.3536759" lon="16.8195988" version="1" timestamp="2022-07-13T06:05:00Z" changeset="123545445" uid="3497659" user="NKA">
		<tag k="name" v="Langsett" />
		<tag k="place" v="farm" />
		<tag k="ssr:stedsnr" v="989483" />
	</node>
	<node id="9884377654" lat="68.1742333" lon="16.4629749" version="1" timestamp="2022-07-13T06:05:00Z" changeset="123545445" uid="3497659" user="NKA">
		<tag k="name" v="Kariheimen" />
		<tag k="place" v="locality" />
		<tag k="ssr:stedsnr" v="750755" />
	</node>
	<node id="9884377655" lat="68.306903" lon="16.4501407" version="1" timestamp="2022-07-13T06:05:00Z" changeset="123545445" uid="3497659" user="NKA">
		<tag k="name" v="Ytter-Sandvika" />
		<tag k="place" v="farm" />
		<tag k="ssr:stedsnr" v="78618" />
	</node>
	<node id="9884377656" lat="68.2943341" lon="16.4420737" version="1" timestamp="2022-07-13T06:05:00Z" changeset="123545445" uid="3497659" user="NKA">
		<tag k="name" v="Pollan" />
		<tag k="place" v="farm" />
		<tag k="ssr:stedsnr" v="199609" />
	</node>
	<node id="9884377657" lat="68.065598" lon="16.3696337" version="1" timestamp="2022-07-13T06:05:00Z" changeset="123545445" uid="3497659" user="NKA">
		<tag k="name" v="Måhkke" />
		<tag k="name:smj" v="Måhkke" />
		<tag k="old_name:smj" v="Mohkki" />
		<tag k="place" v="isolated_dwelling" />
		<tag k="ssr:stedsnr" v="219859" />
	</node>
	<node id="9884377658" lat="68.0617657" lon="16.3594186" version="1" timestamp="2022-07-13T06:05:00Z" changeset="123545445" uid="3497659" user="NKA">
		<tag k="name" v="Bjørkenes" />
		<tag k="place" v="farm" />
		<tag k="ssr:stedsnr" v="932644" />
	</node>
	<node id="9884377659" lat="68.3747083" lon="16.8855638" version="1" timestamp="2022-07-13T06:05:00Z" changeset="123545445" uid="3497659" user="NKA">
		<tag k="name" v="Øversletta" />
		<tag k="place" v="farm" />
		<tag k="ssr:stedsnr" v="928963" />
	</node>
	<node id="9884377660" lat="68.367225" lon="16.6461721" version="1" timestamp="2022-07-13T06:05:00Z" changeset="123545445" uid="3497659" user="NKA">
		<tag k="name" v="Håfjellet" />
		<tag k="place" v="neighbourhood" />
		<tag k="ssr:stedsnr" v="601556" />
	</node>
	<node id="9884377661" lat="68.0623483" lon="16.3613767" version="1" timestamp="2022-07-13T06:05:00Z" changeset="123545445" uid="3497659" user="NKA">
		<tag k="name" v="Bjerkneset" />
		<tag k="place" v="farm" />
		<tag k="ssr:stedsnr" v="1076541" />
	</node>
	<node id="9884377662" lat="68.3918861" lon="16.8603112" version="1" timestamp="2022-07-13T06:05:00Z" changeset="123545445" uid="3497659" user="NKA">
		<tag k="alt_name" v="Aspelund" />
		<tag k="name" v="Asplund" />
		<tag k="place" v="farm" />
		<tag k="ssr:stedsnr" v="685999" />
	</node>
	<node id="9884377663" lat="68.3021057" lon="16.641615" version="1" timestamp="2022-07-13T06:05:00Z" changeset="123545445" uid="3497659" user="NKA">
		<tag k="name" v="Djupvatn" />
		<tag k="place" v="farm" />
		<tag k="ssr:stedsnr" v="645700" />
	</node>
	<node id="9884377664" lat="68.5371105" lon="17.5764731" version="1" timestamp="2022-07-13T06:05:00Z" changeset="123545445" uid="3497659" user="NKA">
		<tag k="name" v="Medby" />
		<tag k="place" v="farm" />
		<tag k="ssr:stedsnr" v="828140" />
	</node>
	<node id="9884377665" lat="68.4478944" lon="17.71465" version="1" timestamp="2022-07-13T06:05:00Z" changeset="123545445" uid="3497659" user="NKA">
		<tag k="name" v="Hornberget" />
		<tag k="place" v="farm" />
		<tag k="ssr:stedsnr" v="450009" />
	</node>
	<node id="9884377666" lat="68.3239939" lon="16.3481188" version="1" timestamp="2022-07-13T06:05:00Z" changeset="123545445" uid="3497659" user="NKA">
		<tag k="name" v="Pollsnes" />
		<tag k="place" v="farm" />
		<tag k="ssr:stedsnr" v="810560" />
	</node>
	<node id="9884377667" lat="68.4150667" lon="16.6277501" version="1" timestamp="2022-07-13T06:05:00Z" changeset="123545445" uid="3497659" user="NKA">
		<tag k="name" v="Magretjorda" />
		<tag k="place" v="farm" />
		<tag k="ssr:stedsnr" v="571480" />
	</node>
	<node id="9884377668" lat="68.420025" lon="16.7274445" version="1" timestamp="2022-07-13T06:05:00Z" changeset="123545445" uid="3497659" user="NKA">
		<tag k="name" v="Lenset" />
		<tag k="place" v="farm" />
		<tag k="ssr:stedsnr" v="512326" />
	</node>
	<node id="9884377669" lat="68.2604942" lon="17.0476584" version="1" timestamp="2022-07-13T06:05:00Z" changeset="123545445" uid="3497659" user="NKA">
		<tag k="name" v="Rånvassbotn - Ránuvuopmi" />
		<tag k="name:no" v="Rånvassbotn" />
		<tag k="name:se" v="Ránuvuopmi" />
		<tag k="old_name:se" v="Ranovuobmi" />
		<tag k="place" v="hamlet" />
		<tag k="ssr:stedsnr" v="442809" />
	</node>
	<node id="9884377670" lat="68.4341445" lon="18.003386" version="1" timestamp="2022-07-13T06:05:00Z" changeset="123545445" uid="3497659" user="NKA">
		<tag k="name" v="Søsterbekk" />
		<tag k="place" v="neighbourhood" />
		<tag k="ssr:stedsnr" v="385733" />
	</node>
	<node id="9884377671" lat="68.3192889" lon="16.6643027" version="1" timestamp="2022-07-13T06:05:00Z" changeset="123545445" uid="3497659" user="NKA">
		<tag k="name" v="Ertsås" />
		<tag k="place" v="farm" />
		<tag k="ssr:stedsnr" v="442634" />
	</node>
	<node id="9884377672" lat="68.4172821" lon="17.9058197" version="1" timestamp="2022-07-13T06:05:00Z" changeset="123545445" uid="3497659" user="NKA">
		<tag k="name" v="Rombaksbotn" />
		<tag k="place" v="locality" />
		<tag k="ssr:stedsnr" v="385717" />
	</node>
	<node id="9884377673" lat="68.576061" lon="17.6216335" version="1" timestamp="2022-07-13T06:05:00Z" changeset="123545445" uid="3497659" user="NKA">
		<tag k="name" v="Kvanndalen - Luotnegohpi" />
		<tag k="name:no" v="Kvanndalen" />
		<tag k="name:se" v="Luotnegohpi" />
		<tag k="place" v="hamlet" />
		<tag k="ssr:stedsnr" v="685174" />
	</node>
	<node id="9884377674" lat="68.5303756" lon="17.4622791" version="1" timestamp="2022-07-13T06:05:00Z" changeset="123545445" uid="3497659" user="NKA">
		<tag k="alt_name" v="Kråberget" />
		<tag k="name" v="Kråkberget" />
		<tag k="place" v="farm" />
		<tag k="ssr:stedsnr" v="745761" />
	</node>
	<node id="9884377675" lat="68.3725263" lon="16.6072262" version="1" timestamp="2022-07-13T06:05:00Z" changeset="123545445" uid="3497659" user="NKA">
		<tag k="name" v="Karihaugen" />
		<tag k="place" v="hamlet" />
		<tag k="ssr:stedsnr" v="562695" />
	</node>
	<node id="9884377676" lat="68.5584417" lon="17.5386" version="1" timestamp="2022-07-13T06:05:00Z" changeset="123545445" uid="3497659" user="NKA">
		<tag k="name" v="Nybakken" />
		<tag k="place" v="farm" />
		<tag k="ssr:stedsnr" v="603170" />
	</node>
	<node id="9884377677" lat="68.1645746" lon="16.4737702" version="1" timestamp="2022-07-13T06:05:00Z" changeset="123545445" uid="3497659" user="NKA">
		<tag k="name" v="Dimbarásvuodna - Tømmeråsfjorden" />
		<tag k="name:no" v="Tømmeråsfjorden" />
		<tag k="name:smj" v="Dimbarásvuodna" />
		<tag k="place" v="hamlet" />
		<tag k="ssr:stedsnr" v="385779" />
	</node>
	<node id="9884377678" lat="68.247304" lon="16.3669659" version="1" timestamp="2022-07-13T06:05:00Z" changeset="123545445" uid="3497659" user="NKA">
		<tag k="name" v="Siládemluokta - Skjellesvika" />
		<tag k="name:no" v="Skjellesvika" />
		<tag k="name:smj" v="Siládemluokta" />
		<tag k="place" v="farm" />
		<tag k="ssr:stedsnr" v="805564" />
	</node>
	<node id="9884377679" lat="68.2848111" lon="16.591536" version="1" timestamp="2022-07-13T06:05:00Z" changeset="123545445" uid="3497659" user="NKA">
		<tag k="name" v="Storvika" />
		<tag k="place" v="isolated_dwelling" />
		<tag k="ssr:stedsnr" v="380611" />
	</node>
	<node id="9884377680" lat="68.2157148" lon="16.2913386" version="1" timestamp="2022-07-13T06:05:00Z" changeset="123545445" uid="3497659" user="NKA">
		<tag k="name" v="Skálltjonjárgga - Skjellnes" />
		<tag k="name:no" v="Skjellnes" />
		<tag k="name:smj" v="Skálltjonjárgga" />
		<tag k="place" v="farm" />
		<tag k="ssr:stedsnr" v="806514" />
	</node>
	<node id="9884377681" lat="68.3011876" lon="16.7090691" version="1" timestamp="2022-07-13T06:05:00Z" changeset="123545445" uid="3497659" user="NKA">
		<tag k="name" v="Djupåsen" />
		<tag k="place" v="hamlet" />
		<tag k="ssr:stedsnr" v="381608" />
	</node>
	<node id="9884377682" lat="68.3150445" lon="16.4317055" version="1" timestamp="2022-07-13T06:05:00Z" changeset="123545445" uid="3497659" user="NKA">
		<tag k="name" v="Håkonsethavn" />
		<tag k="place" v="neighbourhood" />
		<tag k="ssr:stedsnr" v="541625" />
	</node>
	<node id="9884377683" lat="68.5525126" lon="17.6117172" version="1" timestamp="2022-07-13T06:05:00Z" changeset="123545445" uid="3497659" user="NKA">
		<tag k="alt_name" v="Fjeldheim" />
		<tag k="name" v="Fjellheim" />
		<tag k="place" v="farm" />
		<tag k="ssr:stedsnr" v="381770" />
	</node>
	<node id="9884377684" lat="68.2991444" lon="16.7070973" version="1" timestamp="2022-07-13T06:05:00Z" changeset="123545445" uid="3497659" user="NKA">
		<tag k="name" v="Sørli" />
		<tag k="place" v="farm" />
		<tag k="ssr:stedsnr" v="381606" />
	</node>
	<node id="9884377685" lat="68.2658327" lon="16.3157055" version="1" timestamp="2022-07-13T06:05:00Z" changeset="123545445" uid="3497659" user="NKA">
		<tag k="name" v="Sildvågen" />
		<tag k="place" v="farm" />
		<tag k="ssr:stedsnr" v="689996" />
	</node>
	<node id="9884377686" lat="68.2692945" lon="16.2757834" version="1" timestamp="2022-07-13T06:05:00Z" changeset="123545445" uid="3497659" user="NKA">
		<tag k="name" v="Elvebakk" />
		<tag k="place" v="locality" />
		<tag k="ssr:stedsnr" v="689992" />
	</node>
	<node id="9884377687" lat="68.3239445" lon="17.2847305" version="1" timestamp="2022-07-13T06:05:00Z" changeset="123545445" uid="3497659" user="NKA">
		<tag k="name" v="Rydningen" />
		<tag k="place" v="farm" />
		<tag k="ssr:stedsnr" v="267983" />
	</node>
	<node id="9884377688" lat="68.3373931" lon="16.5581764" version="1" timestamp="2022-07-13T06:05:00Z" changeset="123545445" uid="3497659" user="NKA">
		<tag k="alt_name" v="Elveslett;Søndre Elvesletta" />
		<tag k="name" v="Elvesletta" />
		<tag k="place" v="hamlet" />
		<tag k="ssr:stedsnr" v="623672" />
	</node>
	<node id="9884377689" lat="68.3131888" lon="16.4162864" version="1" timestamp="2022-07-13T06:05:00Z" changeset="123545445" uid="3497659" user="NKA">
		<tag k="name" v="Håkonset" />
		<tag k="place" v="hamlet" />
		<tag k="ssr:stedsnr" v="359621" />
	</node>
	<node id="9884377690" lat="68.2980195" lon="16.6297362" version="1" timestamp="2022-07-13T06:05:00Z" changeset="123545445" uid="3497659" user="NKA">
		<tag k="alt_name" v="Fagermo" />
		<tag k="name" v="Fagermoen" />
		<tag k="place" v="farm" />
		<tag k="ssr:stedsnr" v="623623" />
	</node>
	<node id="9884377691" lat="68.5515548" lon="17.6140795" version="1" timestamp="2022-07-13T06:05:00Z" changeset="123545445" uid="3497659" user="NKA">
		<tag k="name" v="Fjellmoen" />
		<tag k="place" v="farm" />
		<tag k="ssr:stedsnr" v="321704" />
	</node>
	<node id="9884377692" lat="68.4010389" lon="16.647261" version="1" timestamp="2022-07-13T06:05:00Z" changeset="123545445" uid="3497659" user="NKA">
		<tag k="name" v="Skavåsen" />
		<tag k="place" v="neighbourhood" />
		<tag k="ssr:stedsnr" v="359616" />
	</node>
	<node id="9884377693" lat="68.1244013" lon="16.4028833" version="1" timestamp="2022-07-13T06:05:00Z" changeset="123545445" uid="3497659" user="NKA">
		<tag k="name" v="Skihytta" />
		<tag k="place" v="isolated_dwelling" />
		<tag k="ssr:stedsnr" v="507964" />
	</node>
	<node id="9884377694" lat="68.1428917" lon="16.347825" version="1" timestamp="2022-07-13T06:05:00Z" changeset="123545445" uid="3497659" user="NKA">
		<tag k="name" v="Vollen" />
		<tag k="place" v="farm" />
		<tag k="ssr:stedsnr" v="446965" />
	</node>
	<node id="9884377695" lat="68.0982861" lon="16.38695" version="1" timestamp="2022-07-13T06:05:00Z" changeset="123545445" uid="3497659" user="NKA">
		<tag k="name" v="Hestnes" />
		<tag k="place" v="neighbourhood" />
		<tag k="ssr:stedsnr" v="507753" />
	</node>
	<node id="9884377696" lat="68.5540889" lon="17.5402166" version="1" timestamp="2022-07-13T06:05:00Z" changeset="123545445" uid="3497659" user="NKA">
		<tag k="name" v="Elvelund" />
		<tag k="place" v="farm" />
		<tag k="ssr:stedsnr" v="179201" />
	</node>
	<node id="9884377697" lat="68.5370889" lon="17.5752084" version="1" timestamp="2022-07-13T06:05:00Z" changeset="123545445" uid="3497659" user="NKA">
		<tag k="name" v="Medby søndre" />
		<tag k="place" v="farm" />
		<tag k="ssr:stedsnr" v="160129" />
	</node>
	<node id="9884377698" lat="68.3049465" lon="16.6348693" version="1" timestamp="2022-07-13T06:05:00Z" changeset="123545445" uid="3497659" user="NKA">
		<tag k="name" v="Nordmo" />
		<tag k="place" v="farm" />
		<tag k="ssr:stedsnr" v="342665" />
	</node>
	<node id="9884377699" lat="68.266325" lon="16.2702527" version="1" timestamp="2022-07-13T06:05:00Z" changeset="123545445" uid="3497659" user="NKA">
		<tag k="name" v="Myrset" />
		<tag k="place" v="farm" />
		<tag k="ssr:stedsnr" v="380600" />
	</node>
	<node id="9884377700" lat="68.4377993" lon="17.6577141" version="1" timestamp="2022-07-13T06:05:00Z" changeset="123545445" uid="3497659" user="NKA">
		<tag k="alt_name" v="Vestre Straumsnes" />
		<tag k="name" v="Ytter-Straumsnes" />
		<tag k="place" v="farm" />
		<tag k="ssr:stedsnr" v="880301" />
	</node>
	<node id="9884377701" lat="68.4189083" lon="16.7197166" version="1" timestamp="2022-07-13T06:05:00Z" changeset="123545445" uid="3497659" user="NKA">
		<tag k="name" v="Kjeldebotn" />
		<tag k="place" v="neighbourhood" />
		<tag k="ssr:stedsnr" v="177602" />
	</node>
	<node id="9884377702" lat="68.4021584" lon="16.5457499" version="1" timestamp="2022-07-13T06:05:00Z" changeset="123545445" uid="3497659" user="NKA">
		<tag k="name" v="Skogmo" />
		<tag k="place" v="farm" />
		<tag k="ssr:stedsnr" v="342576" />
	</node>
	<node id="9884377703" lat="68.5668505" lon="17.574085" version="1" timestamp="2022-07-13T06:05:00Z" changeset="123545445" uid="3497659" user="NKA">
		<tag k="name" v="Nordmo" />
		<tag k="place" v="farm" />
		<tag k="ssr:stedsnr" v="78717" />
	</node>
	<node id="9884377704" lat="68.5499666" lon="17.5118223" version="1" timestamp="2022-07-13T06:05:00Z" changeset="123545445" uid="3497659" user="NKA">
		<tag k="name" v="Myrbakken" />
		<tag k="place" v="farm" />
		<tag k="ssr:stedsnr" v="25425" />
	</node>
	<node id="9884377705" lat="68.0985722" lon="16.3638666" version="1" timestamp="2022-07-13T06:05:00Z" changeset="123545445" uid="3497659" user="NKA">
		<tag k="name" v="Pæsa" />
		<tag k="place" v="neighbourhood" />
		<tag k="ssr:stedsnr" v="264747" />
	</node>
	<node id="9884377706" lat="68.3238034" lon="16.6034864" version="1" timestamp="2022-07-13T06:05:00Z" changeset="123545445" uid="3497659" user="NKA">
		<tag k="name" v="Grindhaugen" />
		<tag k="place" v="farm" />
		<tag k="ssr:stedsnr" v="78644" />
	</node>
	<node id="9884377707" lat="68.4141222" lon="16.6924027" version="1" timestamp="2022-07-13T06:05:00Z" changeset="123545445" uid="3497659" user="NKA">
		<tag k="name" v="Busthaugen" />
		<tag k="place" v="farm" />
		<tag k="ssr:stedsnr" v="85165" />
	</node>
	<node id="9884377708" lat="68.5599662" lon="17.6667829" version="1" timestamp="2022-07-13T06:05:00Z" changeset="123545445" uid="3497659" user="NKA">
		<tag k="name" v="Larsheimen - Várregoahti" />
		<tag k="name:no" v="Larsheimen" />
		<tag k="name:se" v="Várregoahti" />
		<tag k="place" v="locality" />
		<tag k="ssr:stedsnr" v="1076467" />
	</node>
	<node id="9884377709" lat="68.4881528" lon="17.7618706" version="1" timestamp="2022-07-13T06:05:00Z" changeset="123545445" uid="3497659" user="NKA">
		<tag k="name" v="Stormoen" />
		<tag k="place" v="farm" />
		<tag k="ssr:stedsnr" v="567666" />
	</node>
	<node id="9884377710" lat="68.5514748" lon="17.5316551" version="1" timestamp="2022-07-13T06:05:00Z" changeset="123545445" uid="3497659" user="NKA">
		<tag k="alt_name:no" v="Prestjord" />
		<tag k="loc_name:se" v="Spárbalássá" />
		<tag k="name" v="Prestjorda" />
		<tag k="name:no" v="Prestjorda" />
		<tag k="place" v="hamlet" />
		<tag k="ssr:stedsnr" v="875464" />
	</node>
	<node id="9884377711" lat="68.35376" lon="16.5875196" version="1" timestamp="2022-07-13T06:05:00Z" changeset="123545445" uid="3497659" user="NKA">
		<tag k="name" v="Bakken" />
		<tag k="place" v="farm" />
		<tag k="ssr:stedsnr" v="138714" />
	</node>
	<node id="9884377712" lat="68.5265038" lon="17.4568928" version="1" timestamp="2022-07-13T06:05:00Z" changeset="123545445" uid="3497659" user="NKA">
		<tag k="alt_name" v="Ytregaard" />
		<tag k="name" v="Ytregård" />
		<tag k="place" v="farm" />
		<tag k="ssr:stedsnr" v="746628" />
	</node>
	<node id="9884377713" lat="68.5480666" lon="17.5235527" version="1" timestamp="2022-07-13T06:05:00Z" changeset="123545445" uid="3497659" user="NKA">
		<tag k="name" v="Sletthaug" />
		<tag k="place" v="farm" />
		<tag k="ssr:stedsnr" v="875421" />
	</node>
	<node id="9884377714" lat="68.5413027" lon="17.570749" version="1" timestamp="2022-07-13T06:05:00Z" changeset="123545445" uid="3497659" user="NKA">
		<tag k="name" v="Rødberget" />
		<tag k="place" v="farm" />
		<tag k="ssr:stedsnr" v="867756" />
	</node>
	<node id="9884377715" lat="68.4575004" lon="17.7015262" version="1" timestamp="2022-07-13T06:05:00Z" changeset="123545445" uid="3497659" user="NKA">
		<tag k="name" v="Nordre Hergot" />
		<tag k="place" v="farm" />
		<tag k="ssr:stedsnr" v="453411" />
	</node>
	<node id="9884377716" lat="68.2176528" lon="16.2397194" version="1" timestamp="2022-07-13T06:05:00Z" changeset="123545445" uid="3497659" user="NKA">
		<tag k="name" v="Inner-Skarberget" />
		<tag k="place" v="hamlet" />
		<tag k="ssr:stedsnr" v="77524" />
	</node>
	<node id="9884377717" lat="68.5304053" lon="17.4832169" version="1" timestamp="2022-07-13T06:05:00Z" changeset="123545445" uid="3497659" user="NKA">
		<tag k="alt_name" v="Sletjorden" />
		<tag k="name" v="Slettjorda" />
		<tag k="place" v="farm" />
		<tag k="ssr:stedsnr" v="624713" />
	</node>
	<node id="9884377718" lat="68.1477225" lon="16.343275" version="1" timestamp="2022-07-13T06:05:00Z" changeset="123545445" uid="3497659" user="NKA">
		<tag k="name" v="Straumsnes" />
		<tag k="place" v="farm" />
		<tag k="ssr:stedsnr" v="22952" />
	</node>
	<node id="9884377719" lat="68.2231905" lon="16.3219401" version="1" timestamp="2022-07-13T06:05:00Z" changeset="123545445" uid="3497659" user="NKA">
		<tag k="name" v="Lattásj - Lysvoll" />
		<tag k="name:no" v="Lysvoll" />
		<tag k="name:smj" v="Lattásj" />
		<tag k="old_name:smj" v="Láttaš" />
		<tag k="place" v="hamlet" />
		<tag k="ssr:stedsnr" v="16480" />
	</node>
	<node id="9884377720" lat="68.3443583" lon="16.1913611" version="1" timestamp="2022-07-13T06:05:00Z" changeset="123545445" uid="3497659" user="NKA">
		<tag k="name" v="Olaheimen" />
		<tag k="place" v="locality" />
		<tag k="ssr:stedsnr" v="160237" />
	</node>
	<node id="9884377721" lat="68.1730709" lon="16.4207047" version="1" timestamp="2022-07-13T06:05:00Z" changeset="123545445" uid="3497659" user="NKA">
		<tag k="name" v="Mulbukta" />
		<tag k="place" v="locality" />
		<tag k="ssr:stedsnr" v="1076515" />
	</node>
	<node id="9884377722" lat="68.547319" lon="17.523778" version="1" timestamp="2022-07-13T06:05:00Z" changeset="123545445" uid="3497659" user="NKA">
		<tag k="name" v="Bekkevoll" />
		<tag k="place" v="farm" />
		<tag k="ssr:stedsnr" v="585101" />
	</node>
	<node id="9884377723" lat="68.3297666" lon="16.3089051" version="1" timestamp="2022-07-13T06:05:00Z" changeset="123545445" uid="3497659" user="NKA">
		<tag k="name" v="Rødøya" />
		<tag k="place" v="farm" />
		<tag k="ssr:stedsnr" v="1076543" />
	</node>
	<node id="9884377724" lat="68.0947603" lon="16.3695123" version="1" timestamp="2022-07-13T06:05:00Z" changeset="123545445" uid="3497659" user="NKA">
		<tag k="name" v="Kjøpsnes" />
		<tag k="place" v="neighbourhood" />
		<tag k="ssr:stedsnr" v="1076517" />
	</node>
	<node id="9884377725" lat="68.0830532" lon="16.400022" version="1" timestamp="2022-07-13T06:05:00Z" changeset="123545445" uid="3497659" user="NKA">
		<tag k="name" v="Vika" />
		<tag k="place" v="farm" />
		<tag k="ssr:stedsnr" v="198534" />
	</node>
	<node id="9884377726" lat="68.2014061" lon="16.3731862" version="1" timestamp="2022-07-13T06:05:00Z" changeset="123545445" uid="3497659" user="NKA">
		<tag k="name" v="Lyngmo" />
		<tag k="place" v="farm" />
		<tag k="ssr:stedsnr" v="892470" />
	</node>
	<node id="9884377727" lat="68.528951" lon="17.4615226" version="1" timestamp="2022-07-13T06:05:00Z" changeset="123545445" uid="3497659" user="NKA">
		<tag k="alt_name" v="Kråkberget store" />
		<tag k="name" v="Store Kråkberget" />
		<tag k="place" v="farm" />
		<tag k="ssr:stedsnr" v="631250" />
	</node>
	<node id="9884377728" lat="68.5765699" lon="17.6198702" version="1" timestamp="2022-07-13T06:05:00Z" changeset="123545445" uid="3497659" user="NKA">
		<tag k="name" v="Midtre Kvanndalen" />
		<tag k="place" v="farm" />
		<tag k="ssr:stedsnr" v="453442" />
	</node>
	<node id="9884377729" lat="68.5761028" lon="17.6073288" version="1" timestamp="2022-07-13T06:05:00Z" changeset="123545445" uid="3497659" user="NKA">
		<tag k="name" v="Nedre Kvanndalen" />
		<tag k="place" v="farm" />
		<tag k="ssr:stedsnr" v="420524" />
	</node>
	<node id="9884377730" lat="68.5481326" lon="17.529324" version="1" timestamp="2022-07-13T06:05:00Z" changeset="123545445" uid="3497659" user="NKA">
		<tag k="name" v="Skog" />
		<tag k="place" v="farm" />
		<tag k="ssr:stedsnr" v="450327" />
	</node>
	<node id="9884377731" lat="68.5488455" lon="17.5377757" version="1" timestamp="2022-07-13T06:05:00Z" changeset="123545445" uid="3497659" user="NKA">
		<tag k="name" v="Nergård" />
		<tag k="place" v="farm" />
		<tag k="ssr:stedsnr" v="282096" />
	</node>
	<node id="9884377732" lat="68.2108712" lon="16.4773763" version="1" timestamp="2022-07-13T06:05:00Z" changeset="123545445" uid="3497659" user="NKA">
		<tag k="name" v="Ytter-Stefjordneset" />
		<tag k="place" v="farm" />
		<tag k="ssr:stedsnr" v="745509" />
	</node>
	<node id="9884377733" lat="68.3376858" lon="16.3379891" version="1" timestamp="2022-07-13T06:05:00Z" changeset="123545445" uid="3497659" user="NKA">
		<tag k="name" v="Stor-Kobbvika" />
		<tag k="place" v="farm" />
		<tag k="ssr:stedsnr" v="567528" />
	</node>
	<node id="9884377734" lat="68.3113372" lon="17.0649808" version="1" timestamp="2022-07-13T06:05:00Z" changeset="123545445" uid="3497659" user="NKA">
		<tag k="name" v="Elvestad" />
		<tag k="place" v="farm" />
		<tag k="ssr:stedsnr" v="828914" />
	</node>
	<node id="9884377735" lat="68.4632967" lon="17.6889023" version="1" timestamp="2022-07-13T06:05:00Z" changeset="123545445" uid="3497659" user="NKA">
		<tag k="name" v="Solbakken" />
		<tag k="place" v="farm" />
		<tag k="ssr:stedsnr" v="25011" />
	</node>
	<node id="9884377736" lat="68.4652666" lon="17.6977473" version="1" timestamp="2022-07-13T06:05:00Z" changeset="123545445" uid="3497659" user="NKA">
		<tag k="name" v="Nymoen" />
		<tag k="place" v="farm" />
		<tag k="ssr:stedsnr" v="138774" />
	</node>
	<node id="9884377737" lat="68.3455111" lon="16.3228916" version="1" timestamp="2022-07-13T06:05:00Z" changeset="123545445" uid="3497659" user="NKA">
		<tag k="name" v="Sæterosen" />
		<tag k="place" v="neighbourhood" />
		<tag k="ssr:stedsnr" v="420643" />
	</node>
	<node id="9884377738" lat="68.336075" lon="17.0172916" version="1" timestamp="2022-07-13T06:05:00Z" changeset="123545445" uid="3497659" user="NKA">
		<tag k="name" v="Lasseheimen" />
		<tag k="place" v="farm" />
		<tag k="ssr:stedsnr" v="685853" />
	</node>
	<node id="9884377739" lat="68.3078333" lon="17.0831083" version="1" timestamp="2022-07-13T06:05:00Z" changeset="123545445" uid="3497659" user="NKA">
		<tag k="name" v="Daleng" />
		<tag k="place" v="isolated_dwelling" />
		<tag k="ssr:stedsnr" v="503817" />
	</node>
	<node id="9884377740" lat="68.2136422" lon="16.2771951" version="1" timestamp="2022-07-13T06:05:00Z" changeset="123545445" uid="3497659" user="NKA">
		<tag k="name" v="Sommarset" />
		<tag k="place" v="isolated_dwelling" />
		<tag k="ssr:stedsnr" v="320496" />
	</node>
	<node id="9884377741" lat="68.3366233" lon="16.2812335" version="1" timestamp="2022-07-13T06:05:00Z" changeset="123545445" uid="3497659" user="NKA">
		<tag k="name" v="Strandneset" />
		<tag k="place" v="farm" />
		<tag k="ssr:stedsnr" v="810539" />
	</node>
	<node id="9884377742" lat="68.5401583" lon="17.5745056" version="1" timestamp="2022-07-13T06:05:00Z" changeset="123545445" uid="3497659" user="NKA">
		<tag k="name" v="Medby nordre" />
		<tag k="place" v="farm" />
		<tag k="ssr:stedsnr" v="524133" />
	</node>
	<node id="9884377743" lat="68.3373389" lon="16.3441944" version="1" timestamp="2022-07-13T06:05:00Z" changeset="123545445" uid="3497659" user="NKA">
		<tag k="name" v="Kobbvik" />
		<tag k="place" v="neighbourhood" />
		<tag k="ssr:stedsnr" v="784631" />
	</node>
	<node id="9884377744" lat="68.2643278" lon="17.0516193" version="1" timestamp="2022-07-13T06:05:00Z" changeset="123545445" uid="3497659" user="NKA">
		<tag k="name" v="Solli" />
		<tag k="place" v="farm" />
		<tag k="ssr:stedsnr" v="260830" />
	</node>
	<node id="9884377745" lat="68.5453187" lon="17.571023" version="1" timestamp="2022-07-13T06:05:00Z" changeset="123545445" uid="3497659" user="NKA">
		<tag k="name" v="Elvegården - Jogasiida" />
		<tag k="name:no" v="Elvegården" />
		<tag k="name:se" v="Jogasiida" />
		<tag k="place" v="farm" />
		<tag k="ssr:stedsnr" v="342073" />
	</node>
	<node id="9884377746" lat="68.3470984" lon="17.5057293" version="1" timestamp="2022-07-13T06:05:00Z" changeset="123545445" uid="3497659" user="NKA">
		<tag k="name" v="Munklia" />
		<tag k="place" v="hamlet" />
		<tag k="ssr:stedsnr" v="502122" />
	</node>
	<node id="9884377747" lat="68.5481306" lon="17.5715917" version="1" timestamp="2022-07-13T06:05:00Z" changeset="123545445" uid="3497659" user="NKA">
		<tag k="name" v="Øverland" />
		<tag k="place" v="farm" />
		<tag k="ssr:stedsnr" v="282156" />
	</node>
	<node id="9884377748" lat="68.3674393" lon="16.2794782" version="1" timestamp="2022-07-13T06:05:00Z" changeset="123545445" uid="3497659" user="NKA">
		<tag k="name" v="Skarstad" />
		<tag k="place" v="hamlet" />
		<tag k="ssr:stedsnr" v="381743" />
	</node>
	<node id="9884377749" lat="68.3108778" lon="17.0755584" version="1" timestamp="2022-07-13T06:05:00Z" changeset="123545445" uid="3497659" user="NKA">
		<tag k="name" v="Elverum" />
		<tag k="place" v="farm" />
		<tag k="ssr:stedsnr" v="200831" />
	</node>
	<node id="9884377750" lat="68.3194159" lon="17.0629749" version="1" timestamp="2022-07-13T06:05:00Z" changeset="123545445" uid="3497659" user="NKA">
		<tag k="name" v="Stemnes" />
		<tag k="place" v="hamlet" />
		<tag k="ssr:stedsnr" v="1076585" />
	</node>
	<node id="9884377751" lat="68.5418755" lon="17.5706212" version="1" timestamp="2022-07-13T06:05:00Z" changeset="123545445" uid="3497659" user="NKA">
		<tag k="name" v="Medby" />
		<tag k="place" v="hamlet" />
		<tag k="ssr:stedsnr" v="18660" />
	</node>
	<node id="9884377752" lat="68.3238764" lon="17.1090886" version="1" timestamp="2022-07-13T06:05:00Z" changeset="123545445" uid="3497659" user="NKA">
		<tag k="name" v="Indre Ballangen" />
		<tag k="place" v="locality" />
		<tag k="ssr:stedsnr" v="1076672" />
	</node>
	<node id="9884377753" lat="68.3690723" lon="17.4324417" version="1" timestamp="2022-07-13T06:05:00Z" changeset="123545445" uid="3497659" user="NKA">
		<tag k="name" v="Fagerli" />
		<tag k="place" v="farm" />
		<tag k="ssr:stedsnr" v="100634" />
	</node>
	<node id="9884377754" lat="68.3204068" lon="16.3759277" version="1" timestamp="2022-07-13T06:05:00Z" changeset="123545445" uid="3497659" user="NKA">
		<tag k="name" v="Lillevågen" />
		<tag k="place" v="hamlet" />
		<tag k="ssr:stedsnr" v="199649" />
	</node>
	<node id="9884377755" lat="68.3117071" lon="16.3709275" version="1" timestamp="2022-07-13T06:05:00Z" changeset="123545445" uid="3497659" user="NKA">
		<tag k="name" v="Forneset" />
		<tag k="place" v="farm" />
		<tag k="ssr:stedsnr" v="624466" />
	</node>
	<node id="9884377756" lat="68.3213166" lon="17.0566029" version="1" timestamp="2022-07-13T06:05:00Z" changeset="123545445" uid="3497659" user="NKA">
		<tag k="alt_name" v="Stemnes" />
		<tag k="name" v="Nedre Stemnes" />
		<tag k="place" v="farm" />
		<tag k="ssr:stedsnr" v="867865" />
	</node>
	<node id="9884377757" lat="68.3616964" lon="17.4727684" version="1" timestamp="2022-07-13T06:05:00Z" changeset="123545445" uid="3497659" user="NKA">
		<tag k="name" v="Holmesletten" />
		<tag k="place" v="farm" />
		<tag k="ssr:stedsnr" v="889639" />
	</node>
	<node id="9884377758" lat="68.3351288" lon="17.2816456" version="1" timestamp="2022-07-13T06:05:00Z" changeset="123545445" uid="3497659" user="NKA">
		<tag k="name" v="Kongsbakk" />
		<tag k="place" v="hamlet" />
		<tag k="ssr:stedsnr" v="867870" />
	</node>
	<node id="9884377759" lat="68.3169332" lon="17.2876958" version="1" timestamp="2022-07-13T06:05:00Z" changeset="123545445" uid="3497659" user="NKA">
		<tag k="alt_name" v="Lengnes søndre" />
		<tag k="name" v="Søndre Lengnes" />
		<tag k="place" v="farm" />
		<tag k="ssr:stedsnr" v="874943" />
	</node>
	<node id="9884377760" lat="68.3610487" lon="17.4803106" version="1" timestamp="2022-07-13T06:05:00Z" changeset="123545445" uid="3497659" user="NKA">
		<tag k="name" v="Hauklia - Háikkarápma" />
		<tag k="name:no" v="Hauklia" />
		<tag k="name:se" v="Háikkarápma" />
		<tag k="place" v="farm" />
		<tag k="ssr:stedsnr" v="502134" />
	</node>
	<node id="9884377761" lat="68.3140518" lon="17.0648533" version="1" timestamp="2022-07-13T06:05:00Z" changeset="123545445" uid="3497659" user="NKA">
		<tag k="name" v="Eiterdalmo" />
		<tag k="place" v="farm" />
		<tag k="ssr:stedsnr" v="645927" />
	</node>
	<node id="9884377762" lat="68.3752554" lon="17.3955594" version="1" timestamp="2022-07-13T06:05:00Z" changeset="123545445" uid="3497659" user="NKA">
		<tag k="alt_name" v="Mattisjord nedre;Mattisjorden nedre" />
		<tag k="name" v="Nedre Mattisjorda" />
		<tag k="place" v="farm" />
		<tag k="ssr:stedsnr" v="767682" />
	</node>
	<node id="9884377763" lat="68.335578" lon="16.3508154" version="1" timestamp="2022-07-13T06:05:00Z" changeset="123545445" uid="3497659" user="NKA">
		<tag k="name" v="Kobbvika" />
		<tag k="place" v="hamlet" />
		<tag k="ssr:stedsnr" v="563657" />
	</node>
	<node id="9884377764" lat="68.3735702" lon="17.4141191" version="1" timestamp="2022-07-13T06:05:00Z" changeset="123545445" uid="3497659" user="NKA">
		<tag k="name" v="Myrhaug" />
		<tag k="place" v="farm" />
		<tag k="ssr:stedsnr" v="342644" />
	</node>
	<node id="9884377765" lat="68.3547623" lon="17.4871311" version="1" timestamp="2022-07-13T06:05:00Z" changeset="123545445" uid="3497659" user="NKA">
		<tag k="alt_name" v="Vandmoen" />
		<tag k="name" v="Vassmoen" />
		<tag k="place" v="farm" />
		<tag k="ssr:stedsnr" v="623145" />
	</node>
	<node id="9884377766" lat="68.3740905" lon="17.4116905" version="1" timestamp="2022-07-13T06:05:00Z" changeset="123545445" uid="3497659" user="NKA">
		<tag k="alt_name" v="Mattisjorden øvre" />
		<tag k="name" v="Øvre Mattisjorda" />
		<tag k="place" v="farm" />
		<tag k="ssr:stedsnr" v="342646" />
	</node>
	<node id="9884377767" lat="68.4408877" lon="17.4320564" version="1" timestamp="2022-07-13T06:05:00Z" changeset="123545445" uid="3497659" user="NKA">
		<tag k="name" v="Bromsgård" />
		<tag k="place" v="farm" />
		<tag k="ssr:stedsnr" v="697697" />
	</node>
	<node id="9884377768" lat="68.3629854" lon="17.4656776" version="1" timestamp="2022-07-13T06:05:00Z" changeset="123545445" uid="3497659" user="NKA">
		<tag k="alt_name" v="Hauklien nedre" />
		<tag k="name" v="Nedre Hauklia" />
		<tag k="place" v="farm" />
		<tag k="ssr:stedsnr" v="342609" />
	</node>
	<node id="9884377769" lat="68.3577639" lon="16.2755612" version="1" timestamp="2022-07-13T06:05:00Z" changeset="123545445" uid="3497659" user="NKA">
		<tag k="name" v="Finnkorhallen" />
		<tag k="place" v="neighbourhood" />
		<tag k="ssr:stedsnr" v="420642" />
	</node>
	<node id="9884377770" lat="68.4114194" lon="17.3117473" version="1" timestamp="2022-07-13T06:05:00Z" changeset="123545445" uid="3497659" user="NKA">
		<tag k="name" v="Løvoll" />
		<tag k="place" v="farm" />
		<tag k="ssr:stedsnr" v="692488" />
	</node>
	<node id="9884377771" lat="68.3086176" lon="17.0713544" version="1" timestamp="2022-07-13T06:05:00Z" changeset="123545445" uid="3497659" user="NKA">
		<tag k="name" v="Haugen" />
		<tag k="place" v="farm" />
		<tag k="ssr:stedsnr" v="282936" />
	</node>
	<node id="9884377772" lat="68.1876044" lon="17.3163551" version="1" timestamp="2022-07-13T06:05:00Z" changeset="123545445" uid="3497659" user="NKA">
		<tag k="loc_name:se" v="Orjješ-Skievvá" />
		<tag k="name" v="Sør-Skjomen" />
		<tag k="name:no" v="Sør-Skjomen" />
		<tag k="place" v="hamlet" />
		<tag k="ssr:stedsnr" v="688601" />
	</node>
	<node id="9884377773" lat="68.361036" lon="16.2724834" version="1" timestamp="2022-07-13T06:05:00Z" changeset="123545445" uid="3497659" user="NKA">
		<tag k="name" v="Hamn" />
		<tag k="place" v="farm" />
		<tag k="ssr:stedsnr" v="325534" />
	</node>
	<node id="9884377774" lat="68.3791176" lon="16.4080869" version="1" timestamp="2022-07-13T06:05:00Z" changeset="123545445" uid="3497659" user="NKA">
		<tag k="name" v="Finnvika" />
		<tag k="place" v="farm" />
		<tag k="ssr:stedsnr" v="260767" />
	</node>
	<node id="9884377775" lat="68.188942" lon="16.715031" version="1" timestamp="2022-07-13T06:05:00Z" changeset="123545445" uid="3497659" user="NKA">
		<tag k="name" v="Sommarbakk" />
		<tag k="place" v="locality" />
		<tag k="ssr:stedsnr" v="927602" />
	</node>
	<node id="9884377776" lat="68.2417334" lon="16.5870305" version="1" timestamp="2022-07-13T06:05:00Z" changeset="123545445" uid="3497659" user="NKA">
		<tag k="name" v="Nymo" />
		<tag k="place" v="farm" />
		<tag k="ssr:stedsnr" v="932964" />
	</node>
	<node id="9884377777" lat="68.3102472" lon="16.7880999" version="1" timestamp="2022-07-13T06:05:00Z" changeset="123545445" uid="3497659" user="NKA">
		<tag k="name" v="Storvika" />
		<tag k="place" v="hamlet" />
		<tag k="ssr:stedsnr" v="927621" />
	</node>
	<node id="9884377778" lat="68.3169278" lon="17.0626611" version="1" timestamp="2022-07-13T06:05:00Z" changeset="123545445" uid="3497659" user="NKA">
		<tag k="name" v="Øvre Stemnes" />
		<tag k="place" v="farm" />
		<tag k="ssr:stedsnr" v="221895" />
	</node>
	<node id="9884377779" lat="68.1932714" lon="16.7031683" version="1" timestamp="2022-07-13T06:05:00Z" changeset="123545445" uid="3497659" user="NKA">
		<tag k="name" v="Strand" />
		<tag k="place" v="farm" />
		<tag k="ssr:stedsnr" v="927528" />
	</node>
	<node id="9884377780" lat="68.2849557" lon="17.0420131" version="1" timestamp="2022-07-13T06:05:00Z" changeset="123545445" uid="3497659" user="NKA">
		<tag k="name" v="Skogly" />
		<tag k="place" v="isolated_dwelling" />
		<tag k="ssr:stedsnr" v="143362" />
	</node>
	<node id="9884377781" lat="68.4966538" lon="17.5322179" version="1" timestamp="2022-07-13T06:05:00Z" changeset="123545445" uid="3497659" user="NKA">
		<tag k="name" v="Linstrand" />
		<tag k="place" v="farm" />
		<tag k="ssr:stedsnr" v="503758" />
	</node>
	<node id="9884377782" lat="68.1933" lon="16.7032279" version="1" timestamp="2022-07-13T06:05:00Z" changeset="123545445" uid="3497659" user="NKA">
		<tag k="name" v="Allmenningen" />
		<tag k="place" v="isolated_dwelling" />
		<tag k="ssr:stedsnr" v="927530" />
	</node>
	<node id="9884377783" lat="68.3475229" lon="16.3014404" version="1" timestamp="2022-07-13T06:05:00Z" changeset="123545445" uid="3497659" user="NKA">
		<tag k="name" v="Slåttvika" />
		<tag k="place" v="farm" />
		<tag k="ssr:stedsnr" v="138698" />
	</node>
	<node id="9884377784" lat="68.5616188" lon="17.7314154" version="1" timestamp="2022-07-13T06:05:00Z" changeset="123545445" uid="3497659" user="NKA">
		<tag k="name" v="Bakkelund" />
		<tag k="place" v="farm" />
		<tag k="ssr:stedsnr" v="806737" />
	</node>
	<node id="9884377785" lat="68.5575957" lon="17.7245166" version="1" timestamp="2022-07-13T06:05:00Z" changeset="123545445" uid="3497659" user="NKA">
		<tag k="name" v="Solbakk" />
		<tag k="place" v="farm" />
		<tag k="ssr:stedsnr" v="935046" />
	</node>
	<node id="9884377786" lat="68.3356082" lon="16.5458128" version="1" timestamp="2022-07-13T06:05:00Z" changeset="123545445" uid="3497659" user="NKA">
		<tag k="alt_name" v="Rundhaug Vestre" />
		<tag k="name" v="Vestre Rundhaugen" />
		<tag k="place" v="farm" />
		<tag k="ssr:stedsnr" v="767352" />
	</node>
	<node id="9884377787" lat="68.1828167" lon="16.6814138" version="1" timestamp="2022-07-13T06:05:00Z" changeset="123545445" uid="3497659" user="NKA">
		<tag k="name" v="Råna - Rávnno" />
		<tag k="name:no" v="Råna" />
		<tag k="name:smj" v="Rávnno" />
		<tag k="old_name:smj" v="Rátnu" />
		<tag k="place" v="isolated_dwelling" />
		<tag k="ssr:stedsnr" v="745591" />
	</node>
	<node id="9884377788" lat="68.2661972" lon="16.6372917" version="1" timestamp="2022-07-13T06:05:00Z" changeset="123545445" uid="3497659" user="NKA">
		<tag k="name" v="Sommarset" />
		<tag k="place" v="hamlet" />
		<tag k="ssr:stedsnr" v="745544" />
	</node>
	<node id="9884377789" lat="68.4014306" lon="16.7864777" version="1" timestamp="2022-07-13T06:05:00Z" changeset="123545445" uid="3497659" user="NKA">
		<tag k="name" v="Djupvik" />
		<tag k="place" v="neighbourhood" />
		<tag k="ssr:stedsnr" v="784593" />
	</node>
	<node id="9884377790" lat="68.2145778" lon="17.497836" version="1" timestamp="2022-07-13T06:05:00Z" changeset="123545445" uid="3497659" user="NKA">
		<tag k="name" v="Yttermo" />
		<tag k="place" v="farm" />
		<tag k="ssr:stedsnr" v="381675" />
	</node>
	<node id="9884377791" lat="68.2014972" lon="17.5018944" version="1" timestamp="2022-07-13T06:05:00Z" changeset="123545445" uid="3497659" user="NKA">
		<tag k="name" v="Råvi" />
		<tag k="place" v="locality" />
		<tag k="ssr:stedsnr" v="320658" />
	</node>
	<node id="9884377792" lat="68.3173667" lon="16.7698917" version="1" timestamp="2022-07-13T06:05:00Z" changeset="123545445" uid="3497659" user="NKA">
		<tag k="name" v="Brattåsen" />
		<tag k="place" v="farm" />
		<tag k="ssr:stedsnr" v="806639" />
	</node>
	<node id="9884377793" lat="68.4343861" lon="17.4161082" version="1" timestamp="2022-07-13T06:05:00Z" changeset="123545445" uid="3497659" user="NKA">
		<tag k="name" v="Trekanten" />
		<tag k="place" v="suburb" />
		<tag k="ssr:stedsnr" v="299116" />
	</node>
	<node id="9884377794" lat="68.2252978" lon="16.4102412" version="1" timestamp="2022-07-13T06:05:00Z" changeset="123545445" uid="3497659" user="NKA">
		<tag k="name" v="Julpållneset" />
		<tag k="place" v="farm" />
		<tag k="ssr:stedsnr" v="684507" />
	</node>
	<node id="9884377795" lat="68.2923222" lon="16.4725196" version="1" timestamp="2022-07-13T06:05:00Z" changeset="123545445" uid="3497659" user="NKA">
		<tag k="alt_name" v="Hallvardøya" />
		<tag k="name" v="Halvarøy" />
		<tag k="place" v="neighbourhood" />
		<tag k="ssr:stedsnr" v="662628" />
	</node>
	<node id="9884377796" lat="68.3195043" lon="16.6752586" version="1" timestamp="2022-07-13T06:05:00Z" changeset="123545445" uid="3497659" user="NKA">
		<tag k="name" v="Langbakken" />
		<tag k="place" v="farm" />
		<tag k="ssr:stedsnr" v="563622" />
	</node>
	<node id="9884377797" lat="68.2958208" lon="16.8071143" version="1" timestamp="2022-07-13T06:05:00Z" changeset="123545445" uid="3497659" user="NKA">
		<tag k="alt_name" v="Hestnesvik" />
		<tag k="name" v="Vika" />
		<tag k="place" v="farm" />
		<tag k="ssr:stedsnr" v="745590" />
	</node>
	<node id="9884377798" lat="68.4106417" lon="17.4080444" version="1" timestamp="2022-07-13T06:05:00Z" changeset="123545445" uid="3497659" user="NKA">
		<tag k="name" v="Nyborg" />
		<tag k="place" v="neighbourhood" />
		<tag k="ssr:stedsnr" v="260988" />
	</node>
	<node id="9884377799" lat="68.3262384" lon="17.2893966" version="1" timestamp="2022-07-13T06:05:00Z" changeset="123545445" uid="3497659" user="NKA">
		<tag k="alt_name" v="Lundlien" />
		<tag k="name" v="Lundlia" />
		<tag k="place" v="hamlet" />
		<tag k="ssr:stedsnr" v="260877" />
	</node>
	<node id="9884377800" lat="68.3246364" lon="16.6259539" version="1" timestamp="2022-07-13T06:05:00Z" changeset="123545445" uid="3497659" user="NKA">
		<tag k="alt_name" v="Håfjell" />
		<tag k="name" v="Håfjellet" />
		<tag k="place" v="farm" />
		<tag k="ssr:stedsnr" v="563666" />
	</node>
	<node id="9884377801" lat="68.5522577" lon="17.7299536" version="1" timestamp="2022-07-13T06:05:00Z" changeset="123545445" uid="3497659" user="NKA">
		<tag k="name" v="Elvebakk" />
		<tag k="place" v="farm" />
		<tag k="ssr:stedsnr" v="321711" />
	</node>
	<node id="9884377802" lat="68.2151334" lon="17.4744111" version="1" timestamp="2022-07-13T06:05:00Z" changeset="123545445" uid="3497659" user="NKA">
		<tag k="name" v="Sæterbrukan" />
		<tag k="place" v="isolated_dwelling" />
		<tag k="ssr:stedsnr" v="259640" />
	</node>
	<node id="9884377803" lat="68.4010104" lon="17.2923946" version="1" timestamp="2022-07-13T06:05:00Z" changeset="123545445" uid="3497659" user="NKA">
		<tag k="alt_name" v="Håkvik søndre" />
		<tag k="name" v="Søndre Håkvik" />
		<tag k="old_name" v="Håkvika, s" />
		<tag k="place" v="hamlet" />
		<tag k="ssr:stedsnr" v="139996" />
	</node>
	<node id="9884377804" lat="68.3162555" lon="17.2908277" version="1" timestamp="2022-07-13T06:05:00Z" changeset="123545445" uid="3497659" user="NKA">
		<tag k="name" v="Øvergård" />
		<tag k="place" v="farm" />
		<tag k="ssr:stedsnr" v="207960" />
	</node>
	<node id="9884377805" lat="68.3412583" lon="16.78315" version="1" timestamp="2022-07-13T06:05:00Z" changeset="123545445" uid="3497659" user="NKA">
		<tag k="name" v="Utheim" />
		<tag k="place" v="farm" />
		<tag k="ssr:stedsnr" v="442700" />
	</node>
	<node id="9884377806" lat="68.3733805" lon="17.4157749" version="1" timestamp="2022-07-13T06:05:00Z" changeset="123545445" uid="3497659" user="NKA">
		<tag k="name" v="Bakkehaug" />
		<tag k="place" v="farm" />
		<tag k="ssr:stedsnr" v="160665" />
	</node>
	<node id="9884377807" lat="68.3443825" lon="17.5162716" version="1" timestamp="2022-07-13T06:05:00Z" changeset="123545445" uid="3497659" user="NKA">
		<tag k="name" v="Sjursheimen - Skiresiida" />
		<tag k="name:no" v="Sjursheimen" />
		<tag k="name:se" v="Skiresiida" />
		<tag k="place" v="farm" />
		<tag k="ssr:stedsnr" v="502123" />
	</node>
	<node id="9884377808" lat="68.3977308" lon="16.8196993" version="1" timestamp="2022-07-13T06:05:00Z" changeset="123545445" uid="3497659" user="NKA">
		<tag k="name" v="Hekkelstrand" />
		<tag k="place" v="hamlet" />
		<tag k="ssr:stedsnr" v="382992" />
	</node>
	<node id="9884377809" lat="68.2833964" lon="16.6850352" version="1" timestamp="2022-07-13T06:05:00Z" changeset="123545445" uid="3497659" user="NKA">
		<tag k="name" v="Kjølstad" />
		<tag k="place" v="farm" />
		<tag k="ssr:stedsnr" v="502568" />
	</node>
	<node id="9884377810" lat="68.3031778" lon="17.3671056" version="1" timestamp="2022-07-13T06:05:00Z" changeset="123545445" uid="3497659" user="NKA">
		<tag k="name" v="Øvergammen" />
		<tag k="place" v="locality" />
		<tag k="ssr:stedsnr" v="39640" />
	</node>
	<node id="9884377811" lat="68.2760429" lon="16.6286953" version="1" timestamp="2022-07-13T06:05:00Z" changeset="123545445" uid="3497659" user="NKA">
		<tag k="name" v="Øvre Forså" />
		<tag k="place" v="farm" />
		<tag k="ssr:stedsnr" v="485698" />
	</node>
	<node id="9884377812" lat="68.3582472" lon="16.86755" version="1" timestamp="2022-07-13T06:05:00Z" changeset="123545445" uid="3497659" user="NKA">
		<tag k="name" v="Fagerli" />
		<tag k="place" v="farm" />
		<tag k="ssr:stedsnr" v="321919" />
	</node>
	<node id="9884377813" lat="68.2998625" lon="17.3476473" version="1" timestamp="2022-07-13T06:05:00Z" changeset="123545445" uid="3497659" user="NKA">
		<tag k="name" v="Forså" />
		<tag k="place" v="farm" />
		<tag k="ssr:stedsnr" v="78831" />
	</node>
	<node id="9884377814" lat="68.5532737" lon="17.7191041" version="1" timestamp="2022-07-13T06:05:00Z" changeset="123545445" uid="3497659" user="NKA">
		<tag k="alt_name" v="Gamberget" />
		<tag k="name" v="Gamberg" />
		<tag k="place" v="hamlet" />
		<tag k="ssr:stedsnr" v="78745" />
	</node>
	<node id="9884377815" lat="68.3049123" lon="16.7822367" version="1" timestamp="2022-07-13T06:05:00Z" changeset="123545445" uid="3497659" user="NKA">
		<tag k="name" v="Hestnes" />
		<tag k="place" v="farm" />
		<tag k="ssr:stedsnr" v="442632" />
	</node>
	<node id="9884377816" lat="68.3612434" lon="16.8499277" version="1" timestamp="2022-07-13T06:05:00Z" changeset="123545445" uid="3497659" user="NKA">
		<tag k="name" v="Ålund" />
		<tag k="place" v="farm" />
		<tag k="ssr:stedsnr" v="260954" />
	</node>
	<node id="9884377817" lat="68.5616869" lon="17.7310377" version="1" timestamp="2022-07-13T06:05:00Z" changeset="123545445" uid="3497659" user="NKA">
		<tag k="name" v="Badjegoahti" />
		<tag k="name:se" v="Badjegoahti" />
		<tag k="place" v="locality" />
		<tag k="ssr:stedsnr" v="1083578" />
	</node>
	<node id="9884377818" lat="68.3037488" lon="16.7427706" version="1" timestamp="2022-07-13T06:05:00Z" changeset="123545445" uid="3497659" user="NKA">
		<tag k="name" v="Haugen" />
		<tag k="place" v="farm" />
		<tag k="ssr:stedsnr" v="138609" />
	</node>
	<node id="9884377819" lat="68.2933465" lon="17.3596036" version="1" timestamp="2022-07-13T06:05:00Z" changeset="123545445" uid="3497659" user="NKA">
		<tag k="alt_name" v="Sandvika;Sandvik søndre" />
		<tag k="name" v="Søndre Sandvika" />
		<tag k="place" v="farm" />
		<tag k="ssr:stedsnr" v="17838" />
	</node>
	<node id="9884377820" lat="68.3008445" lon="16.5113741" version="1" timestamp="2022-07-13T06:05:00Z" changeset="123545445" uid="3497659" user="NKA">
		<tag k="name" v="Kjerringvika - Gálgoluokta" />
		<tag k="name:no" v="Kjerringvika" />
		<tag k="name:se" v="Gálgoluokta" />
		<tag k="place" v="hamlet" />
		<tag k="ssr:stedsnr" v="442623" />
	</node>
	<node id="9884377821" lat="68.5609103" lon="17.7323489" version="1" timestamp="2022-07-13T06:05:00Z" changeset="123545445" uid="3497659" user="NKA">
		<tag k="name" v="Vasshaugen" />
		<tag k="place" v="farm" />
		<tag k="ssr:stedsnr" v="200694" />
	</node>
	<node id="9884377822" lat="68.3760398" lon="17.4062607" version="1" timestamp="2022-07-13T06:05:00Z" changeset="123545445" uid="3497659" user="NKA">
		<tag k="name" v="Mattisjorda" />
		<tag k="place" v="hamlet" />
		<tag k="ssr:stedsnr" v="18952" />
	</node>
	<node id="9884377823" lat="68.5623874" lon="17.6940177" version="1" timestamp="2022-07-13T06:05:00Z" changeset="123545445" uid="3497659" user="NKA">
		<tag k="alt_name:no" v="Nedre Harvigvatnet" />
		<tag k="name" v="Nedre Hartvikvatnet - Jávregođik" />
		<tag k="name:no" v="Nedre Hartvikvatnet" />
		<tag k="name:se" v="Jávregođik" />
		<tag k="place" v="farm" />
		<tag k="ssr:stedsnr" v="1076468" />
	</node>
	<node id="9884377824" lat="68.5562106" lon="17.7335006" version="1" timestamp="2022-07-13T06:05:00Z" changeset="123545445" uid="3497659" user="NKA">
		<tag k="name" v="Vassdalen" />
		<tag k="place" v="farm" />
		<tag k="ssr:stedsnr" v="1076470" />
	</node>
	<node id="9884377825" lat="68.5571219" lon="17.737069" version="1" timestamp="2022-07-13T06:05:00Z" changeset="123545445" uid="3497659" user="NKA">
		<tag k="name" v="Lyngmoen" />
		<tag k="place" v="farm" />
		<tag k="ssr:stedsnr" v="199763" />
	</node>
	<node id="9884377826" lat="68.3326685" lon="16.719759" version="1" timestamp="2022-07-13T06:05:00Z" changeset="123545445" uid="3497659" user="NKA">
		<tag k="name" v="Hesjelia" />
		<tag k="place" v="hamlet" />
		<tag k="ssr:stedsnr" v="381689" />
	</node>
	<node id="9884377827" lat="68.4422798" lon="17.6465185" version="1" timestamp="2022-07-13T06:05:00Z" changeset="123545445" uid="3497659" user="NKA">
		<tag k="name" v="Vestre Straumsnes" />
		<tag k="place" v="farm" />
		<tag k="ssr:stedsnr" v="978557" />
	</node>
	<node id="9884377828" lat="68.3168124" lon="16.7112316" version="1" timestamp="2022-07-13T06:05:00Z" changeset="123545445" uid="3497659" user="NKA">
		<tag k="name" v="Tuva" />
		<tag k="place" v="hamlet" />
		<tag k="ssr:stedsnr" v="381652" />
	</node>
	<node id="9884377829" lat="68.3305032" lon="16.7902576" version="1" timestamp="2022-07-13T06:05:00Z" changeset="123545445" uid="3497659" user="NKA">
		<tag k="name" v="Bjørkåsen" />
		<tag k="place" v="quarter" />
		<tag k="ssr:stedsnr" v="199666" />
	</node>
	<node id="9884377830" lat="68.3321528" lon="16.7827195" version="1" timestamp="2022-07-13T06:05:00Z" changeset="123545445" uid="3497659" user="NKA">
		<tag k="name" v="Storkroken" />
		<tag k="place" v="farm" />
		<tag k="ssr:stedsnr" v="745679" />
	</node>
	<node id="9884377831" lat="68.4924453" lon="17.3275983" version="1" timestamp="2022-07-13T06:05:00Z" changeset="123545445" uid="3497659" user="NKA">
		<tag k="name" v="Tortenås" />
		<tag k="place" v="locality" />
		<tag k="ssr:stedsnr" v="1076465" />
	</node>
	<node id="9884377832" lat="68.2945602" lon="17.3571871" version="1" timestamp="2022-07-13T06:05:00Z" changeset="123545445" uid="3497659" user="NKA">
		<tag k="name" v="Sandvika" />
		<tag k="place" v="hamlet" />
		<tag k="ssr:stedsnr" v="1076504" />
	</node>
	<node id="9884377833" lat="68.3173477" lon="16.7394726" version="1" timestamp="2022-07-13T06:05:00Z" changeset="123545445" uid="3497659" user="NKA">
		<tag k="name" v="Bruksjorda" />
		<tag k="place" v="farm" />
		<tag k="ssr:stedsnr" v="706493" />
	</node>
	<node id="9884377834" lat="68.4462197" lon="17.447187" version="1" timestamp="2022-07-13T06:05:00Z" changeset="123545445" uid="3497659" user="NKA">
		<tag k="alt_name" v="Taraldsvik" />
		<tag k="name" v="Taraldsvika" />
		<tag k="place" v="farm" />
		<tag k="ssr:stedsnr" v="1076482" />
	</node>
	<node id="9884377835" lat="68.4474" lon="17.4408307" version="1" timestamp="2022-07-13T06:05:00Z" changeset="123545445" uid="3497659" user="NKA">
		<tag k="name" v="Groms plass" />
		<tag k="place" v="square" />
		<tag k="ssr:stedsnr" v="665702" />
	</node>
	<node id="9884377836" lat="68.4116584" lon="16.7829721" version="1" timestamp="2022-07-13T06:05:00Z" changeset="123545445" uid="3497659" user="NKA">
		<tag k="name" v="Djupvikneset" />
		<tag k="place" v="neighbourhood" />
		<tag k="ssr:stedsnr" v="541593" />
	</node>
	<node id="9884377837" lat="68.3445907" lon="16.77265" version="1" timestamp="2022-07-13T06:05:00Z" changeset="123545445" uid="3497659" user="NKA">
		<tag k="alt_name" v="Storfjeld" />
		<tag k="name" v="Storfjell" />
		<tag k="place" v="farm" />
		<tag k="ssr:stedsnr" v="563711" />
	</node>
	<node id="9884377838" lat="68.4464353" lon="17.4097684" version="1" timestamp="2022-07-13T06:05:00Z" changeset="123545445" uid="3497659" user="NKA">
		<tag k="alt_name" v="Lillevik" />
		<tag k="name" v="Lillevika" />
		<tag k="place" v="locality" />
		<tag k="ssr:stedsnr" v="1076483" />
	</node>
	<node id="9884377839" lat="68.4052405" lon="17.4147668" version="1" timestamp="2022-07-13T06:05:00Z" changeset="123545445" uid="3497659" user="NKA">
		<tag k="name" v="Millerjord" />
		<tag k="place" v="farm" />
		<tag k="ssr:stedsnr" v="874603" />
	</node>
	<node id="9884377840" lat="68.2059599" lon="16.4043873" version="1" timestamp="2022-07-13T06:05:00Z" changeset="123545445" uid="3497659" user="NKA">
		<tag k="name" v="Ávkke - Haukøya" />
		<tag k="name:no" v="Haukøya" />
		<tag k="name:smj" v="Ávkke" />
		<tag k="place" v="hamlet" />
		<tag k="ssr:stedsnr" v="263395" />
	</node>
	<node id="9884377841" lat="68.34525" lon="16.8162555" version="1" timestamp="2022-07-13T06:05:00Z" changeset="123545445" uid="3497659" user="NKA">
		<tag k="name" v="Utland" />
		<tag k="place" v="farm" />
		<tag k="ssr:stedsnr" v="381709" />
	</node>
	<node id="9884377842" lat="68.2017887" lon="16.6717213" version="1" timestamp="2022-07-13T06:05:00Z" changeset="123545445" uid="3497659" user="NKA">
		<tag k="name" v="Aspenes" />
		<tag k="place" v="locality" />
		<tag k="ssr:stedsnr" v="259504" />
	</node>
	<node id="9884377843" lat="68.3385361" lon="16.7736362" version="1" timestamp="2022-07-13T06:05:00Z" changeset="123545445" uid="3497659" user="NKA">
		<tag k="name" v="Slettås" />
		<tag k="place" v="farm" />
		<tag k="ssr:stedsnr" v="623680" />
	</node>
	<node id="9884377844" lat="68.2010111" lon="16.6761361" version="1" timestamp="2022-07-13T06:05:00Z" changeset="123545445" uid="3497659" user="NKA">
		<tag k="name" v="Aspvik" />
		<tag k="place" v="isolated_dwelling" />
		<tag k="ssr:stedsnr" v="164552" />
	</node>
	<node id="9884377845" lat="68.2848278" lon="16.6570166" version="1" timestamp="2022-07-13T06:05:00Z" changeset="123545445" uid="3497659" user="NKA">
		<tag k="name" v="Aspenes" />
		<tag k="place" v="isolated_dwelling" />
		<tag k="ssr:stedsnr" v="259557" />
	</node>
	<node id="9884377846" lat="68.4115278" lon="16.7785778" version="1" timestamp="2022-07-13T06:05:00Z" changeset="123545445" uid="3497659" user="NKA">
		<tag k="name" v="Djupvikåsen" />
		<tag k="place" v="neighbourhood" />
		<tag k="ssr:stedsnr" v="177604" />
	</node>
	<node id="9884377847" lat="68.2066777" lon="17.5186388" version="1" timestamp="2022-07-13T06:05:00Z" changeset="123545445" uid="3497659" user="NKA">
		<tag k="name" v="Einmoen" />
		<tag k="place" v="farm" />
		<tag k="ssr:stedsnr" v="828102" />
	</node>
	<node id="9884377848" lat="68.2195194" lon="16.6425973" version="1" timestamp="2022-07-13T06:05:00Z" changeset="123545445" uid="3497659" user="NKA">
		<tag k="name" v="Bukta" />
		<tag k="place" v="isolated_dwelling" />
		<tag k="ssr:stedsnr" v="138521" />
	</node>
	<node id="9884377849" lat="68.3801611" lon="16.3414249" version="1" timestamp="2022-07-13T06:05:00Z" changeset="123545445" uid="3497659" user="NKA">
		<tag k="name" v="Lyngvika" />
		<tag k="place" v="neighbourhood" />
		<tag k="ssr:stedsnr" v="723595" />
	</node>
	<node id="9884377850" lat="68.2307473" lon="16.6480999" version="1" timestamp="2022-07-13T06:05:00Z" changeset="123545445" uid="3497659" user="NKA">
		<tag k="name" v="Sommarset" />
		<tag k="place" v="locality" />
		<tag k="ssr:stedsnr" v="100597" />
	</node>
	<node id="9884377851" lat="68.2917957" lon="16.4323886" version="1" timestamp="2022-07-13T06:05:00Z" changeset="123545445" uid="3497659" user="NKA">
		<tag k="name" v="Leirpollen" />
		<tag k="place" v="neighbourhood" />
		<tag k="ssr:stedsnr" v="56620" />
	</node>
	<node id="9884377852" lat="68.2434926" lon="16.7519716" version="1" timestamp="2022-07-13T06:05:00Z" changeset="123545445" uid="3497659" user="NKA">
		<tag k="alt_name" v="Skogheim" />
		<tag k="name" v="Sjurvassli" />
		<tag k="place" v="farm" />
		<tag k="ssr:stedsnr" v="1076569" />
	</node>
	<node id="9884377853" lat="68.2223583" lon="16.4813306" version="1" timestamp="2022-07-13T06:05:00Z" changeset="123545445" uid="3497659" user="NKA">
		<tag k="name" v="Doaresgádde - Tverrlandet" />
		<tag k="name:no" v="Tverrlandet" />
		<tag k="name:smj" v="Doaresgádde" />
		<tag k="place" v="hamlet" />
		<tag k="ssr:stedsnr" v="82763" />
	</node>
	<node id="9884377854" lat="68.2315897" lon="16.7378736" version="1" timestamp="2022-07-13T06:05:00Z" changeset="123545445" uid="3497659" user="NKA">
		<tag k="name" v="Rognstad" />
		<tag k="place" v="farm" />
		<tag k="ssr:stedsnr" v="77519" />
	</node>
	<node id="9884377855" lat="68.1738889" lon="17.5458168" version="1" timestamp="2022-07-13T06:05:00Z" changeset="123545445" uid="3497659" user="NKA">
		<tag k="alt_name" v="Tangen, øvre;Tangen øvre" />
		<tag k="name" v="Øvre Tangen" />
		<tag k="place" v="farm" />
		<tag k="ssr:stedsnr" v="684616" />
	</node>
	<node id="9884377856" lat="68.4676416" lon="17.6894834" version="1" timestamp="2022-07-13T06:05:00Z" changeset="123545445" uid="3497659" user="NKA">
		<tag k="name" v="Lian" />
		<tag k="place" v="farm" />
		<tag k="ssr:stedsnr" v="685755" />
	</node>
	<node id="9884377857" lat="68.2568479" lon="16.7041103" version="1" timestamp="2022-07-13T06:05:00Z" changeset="123545445" uid="3497659" user="NKA">
		<tag k="name" v="Fosslund" />
		<tag k="place" v="locality" />
		<tag k="ssr:stedsnr" v="1076655" />
	</node>
	<node id="9884377858" lat="68.1611597" lon="17.5607498" version="1" timestamp="2022-07-13T06:05:00Z" changeset="123545445" uid="3497659" user="NKA">
		<tag k="name" v="Fjellbu" />
		<tag k="place" v="hamlet" />
		<tag k="ssr:stedsnr" v="138641" />
	</node>
	<node id="9884377859" lat="68.2664988" lon="16.7155752" version="1" timestamp="2022-07-13T06:05:00Z" changeset="123545445" uid="3497659" user="NKA">
		<tag k="name" v="Bjørk" />
		<tag k="place" v="farm" />
		<tag k="ssr:stedsnr" v="1076654" />
	</node>
	<node id="9884377860" lat="68.338155" lon="16.5512378" version="1" timestamp="2022-07-13T06:05:00Z" changeset="123545445" uid="3497659" user="NKA">
		<tag k="name" v="Østre Rundhaugen" />
		<tag k="place" v="farm" />
		<tag k="ssr:stedsnr" v="1076653" />
	</node>
	<node id="9884377861" lat="68.3434019" lon="16.8351679" version="1" timestamp="2022-07-13T06:05:00Z" changeset="123545445" uid="3497659" user="NKA">
		<tag k="name" v="Gammelgården" />
		<tag k="place" v="farm" />
		<tag k="ssr:stedsnr" v="874437" />
	</node>
	<node id="9884377862" lat="68.3130333" lon="17.6382612" version="1" timestamp="2022-07-13T06:05:00Z" changeset="123545445" uid="3497659" user="NKA">
		<tag k="name" v="Myrmoen" />
		<tag k="place" v="isolated_dwelling" />
		<tag k="ssr:stedsnr" v="685178" />
	</node>
	<node id="9884377863" lat="68.3336663" lon="16.0657686" version="1" timestamp="2022-07-13T06:05:00Z" changeset="123545445" uid="3497659" user="NKA">
		<tag k="name" v="Barøyodden" />
		<tag k="place" v="isolated_dwelling" />
		<tag k="ssr:stedsnr" v="218108" />
	</node>
	<node id="9884377864" lat="68.4477576" lon="17.718222" version="1" timestamp="2022-07-13T06:05:00Z" changeset="123545445" uid="3497659" user="NKA">
		<tag k="alt_name" v="Tyttebærvik" />
		<tag k="name" v="Tyttebærvika" />
		<tag k="place" v="hamlet" />
		<tag k="ssr:stedsnr" v="685186" />
	</node>
	<node id="9884377865" lat="68.3400877" lon="16.567622" version="1" timestamp="2022-07-13T06:05:00Z" changeset="123545445" uid="3497659" user="NKA">
		<tag k="name" v="Nordre Elvesletta" />
		<tag k="place" v="farm" />
		<tag k="ssr:stedsnr" v="1076652" />
	</node>
	<node id="9884377866" lat="68.2026239" lon="17.5289975" version="1" timestamp="2022-07-13T06:05:00Z" changeset="123545445" uid="3497659" user="NKA">
		<tag k="alt_name" v="Lauvås" />
		<tag k="name" v="Løvås" />
		<tag k="place" v="farm" />
		<tag k="ssr:stedsnr" v="806698" />
	</node>
	<node id="9884377867" lat="68.3058522" lon="16.7894383" version="1" timestamp="2022-07-13T06:05:00Z" changeset="123545445" uid="3497659" user="NKA">
		<tag k="alt_name" v="Hestnes" />
		<tag k="name" v="Hestneset" />
		<tag k="place" v="farm" />
		<tag k="ssr:stedsnr" v="1076650" />
	</node>
	<node id="9884377868" lat="68.4433695" lon="17.6457082" version="1" timestamp="2022-07-13T06:05:00Z" changeset="123545445" uid="3497659" user="NKA">
		<tag k="name" v="Sletten østre" />
		<tag k="place" v="farm" />
		<tag k="ssr:stedsnr" v="510344" />
	</node>
	<node id="9884377869" lat="68.4408719" lon="17.6559363" version="1" timestamp="2022-07-13T06:05:00Z" changeset="123545445" uid="3497659" user="NKA">
		<tag k="name" v="Straumsnes" />
		<tag k="place" v="hamlet" />
		<tag k="ssr:stedsnr" v="510318" />
	</node>
	<node id="9884377870" lat="68.2831009" lon="16.8427258" version="1" timestamp="2022-07-13T06:05:00Z" changeset="123545445" uid="3497659" user="NKA">
		<tag k="name" v="Nordre Stokkedalen" />
		<tag k="place" v="locality" />
		<tag k="ssr:stedsnr" v="1076651" />
	</node>
	<node id="9884377871" lat="68.2719914" lon="16.7020872" version="1" timestamp="2022-07-13T06:05:00Z" changeset="123545445" uid="3497659" user="NKA">
		<tag k="name" v="Søndre Langåsen" />
		<tag k="place" v="farm" />
		<tag k="ssr:stedsnr" v="1076648" />
	</node>
	<node id="9884377872" lat="68.2936573" lon="16.6568004" version="1" timestamp="2022-07-13T06:05:00Z" changeset="123545445" uid="3497659" user="NKA">
		<tag k="name" v="Langåsen" />
		<tag k="place" v="locality" />
		<tag k="ssr:stedsnr" v="1076644" />
	</node>
	<node id="9884377873" lat="68.3300829" lon="16.798926" version="1" timestamp="2022-07-13T06:05:00Z" changeset="123545445" uid="3497659" user="NKA">
		<tag k="name" v="Ballangen" />
		<tag k="place" v="neighbourhood" />
		<tag k="ssr:stedsnr" v="1076599" />
	</node>
	<node id="9884377874" lat="68.4455373" lon="17.6252998" version="1" timestamp="2022-07-13T06:05:00Z" changeset="123545445" uid="3497659" user="NKA">
		<tag k="name" v="Fagerjorda" />
		<tag k="place" v="hamlet" />
		<tag k="ssr:stedsnr" v="503186" />
	</node>
	<node id="9884377875" lat="68.2511183" lon="16.7364393" version="1" timestamp="2022-07-13T06:05:00Z" changeset="123545445" uid="3497659" user="NKA">
		<tag k="alt_name" v="Øvre Melkedalen" />
		<tag k="name" v="Melkedalen" />
		<tag k="place" v="farm" />
		<tag k="ssr:stedsnr" v="1076575" />
	</node>
	<node id="9884377876" lat="68.2823253" lon="16.685082" version="1" timestamp="2022-07-13T06:05:00Z" changeset="123545445" uid="3497659" user="NKA">
		<tag k="name" v="Midtre Langåsen" />
		<tag k="place" v="farm" />
		<tag k="ssr:stedsnr" v="1076633" />
	</node>
	<node id="9884377877" lat="68.2516449" lon="16.7159881" version="1" timestamp="2022-07-13T06:05:00Z" changeset="123545445" uid="3497659" user="NKA">
		<tag k="alt_name" v="Lillevann" />
		<tag k="name" v="Litlevatnet" />
		<tag k="place" v="farm" />
		<tag k="ssr:stedsnr" v="1076579" />
	</node>
	<node id="9884377878" lat="68.2360558" lon="16.7235746" version="1" timestamp="2022-07-13T06:05:00Z" changeset="123545445" uid="3497659" user="NKA">
		<tag k="name" v="Lyngmo" />
		<tag k="place" v="locality" />
		<tag k="ssr:stedsnr" v="1076578" />
	</node>
	<node id="9884377879" lat="68.3178098" lon="16.6296422" version="1" timestamp="2022-07-13T06:05:00Z" changeset="123545445" uid="3497659" user="NKA">
		<tag k="alt_name" v="Djupdalåsen" />
		<tag k="name" v="Djupdalsåsen" />
		<tag k="place" v="hamlet" />
		<tag k="ssr:stedsnr" v="745626" />
	</node>
	<node id="9884377880" lat="68.3441878" lon="16.7718603" version="1" timestamp="2022-07-13T06:05:00Z" changeset="123545445" uid="3497659" user="NKA">
		<tag k="name" v="Brattland" />
		<tag k="place" v="hamlet" />
		<tag k="ssr:stedsnr" v="745703" />
	</node>
	<node id="9884377881" lat="68.3365833" lon="16.8323361" version="1" timestamp="2022-07-13T06:05:00Z" changeset="123545445" uid="3497659" user="NKA">
		<tag k="name" v="Ballangsleira" />
		<tag k="place" v="neighbourhood" />
		<tag k="ssr:stedsnr" v="662609" />
	</node>
	<node id="9884377882" lat="68.1755893" lon="16.5519908" version="1" timestamp="2022-07-13T06:05:00Z" changeset="123545445" uid="3497659" user="NKA">
		<tag k="name" v="Vássjá - Storelva" />
		<tag k="name:no" v="Storelva" />
		<tag k="name:smj" v="Vássjá" />
		<tag k="place" v="isolated_dwelling" />
		<tag k="ssr:stedsnr" v="866579" />
	</node>
	<node id="9884377883" lat="68.2614667" lon="16.7077944" version="1" timestamp="2022-07-13T06:05:00Z" changeset="123545445" uid="3497659" user="NKA">
		<tag k="name" v="Nerdal" />
		<tag k="place" v="isolated_dwelling" />
		<tag k="ssr:stedsnr" v="199555" />
	</node>
	<node id="9884377884" lat="68.1834864" lon="16.6086764" version="1" timestamp="2022-07-13T06:05:00Z" changeset="123545445" uid="3497659" user="NKA">
		<tag k="name" v="Vuodnagiehtje - Stefjordbotn" />
		<tag k="name:no" v="Stefjordbotn" />
		<tag k="name:smj" v="Vuodnagiehtje" />
		<tag k="place" v="hamlet" />
		<tag k="ssr:stedsnr" v="866574" />
	</node>
	<node id="9884377885" lat="68.2626677" lon="16.3039539" version="1" timestamp="2022-07-13T06:05:00Z" changeset="123545445" uid="3497659" user="NKA">
		<tag k="name" v="Skårnes" />
		<tag k="place" v="hamlet" />
		<tag k="ssr:stedsnr" v="927551" />
	</node>
	<node id="9884377886" lat="68.1760222" lon="16.7020082" version="1" timestamp="2022-07-13T06:05:00Z" changeset="123545445" uid="3497659" user="NKA">
		<tag k="name" v="Stonga" />
		<tag k="place" v="isolated_dwelling" />
		<tag k="ssr:stedsnr" v="199617" />
	</node>
	<node id="9884377887" lat="68.3166223" lon="16.6483889" version="1" timestamp="2022-07-13T06:05:00Z" changeset="123545445" uid="3497659" user="NKA">
		<tag k="name" v="Åsen Gård" />
		<tag k="place" v="farm" />
		<tag k="ssr:stedsnr" v="524710" />
	</node>
	<node id="9884377888" lat="68.3336445" lon="16.8141306" version="1" timestamp="2022-07-13T06:05:00Z" changeset="123545445" uid="3497659" user="NKA">
		<tag k="name" v="Stormyra" />
		<tag k="place" v="neighbourhood" />
		<tag k="ssr:stedsnr" v="845643" />
	</node>
	<node id="9884377889" lat="68.338225" lon="16.7680305" version="1" timestamp="2022-07-13T06:05:00Z" changeset="123545445" uid="3497659" user="NKA">
		<tag k="name" v="Kvannmoen" />
		<tag k="place" v="farm" />
		<tag k="ssr:stedsnr" v="502684" />
	</node>
	<node id="9884377890" lat="68.4643396" lon="17.6858131" version="1" timestamp="2022-07-13T06:05:00Z" changeset="123545445" uid="3497659" user="NKA">
		<tag k="name" v="Hjemmemoen" />
		<tag k="place" v="farm" />
		<tag k="ssr:stedsnr" v="139743" />
	</node>
	<node id="9884377891" lat="68.3233" lon="17.2690417" version="1" timestamp="2022-07-13T06:05:00Z" changeset="123545445" uid="3497659" user="NKA">
		<tag k="name" v="Solhaug" />
		<tag k="place" v="farm" />
		<tag k="ssr:stedsnr" v="689633" />
	</node>
	<node id="9884377892" lat="68.206633" lon="16.4787331" version="1" timestamp="2022-07-13T06:05:00Z" changeset="123545445" uid="3497659" user="NKA">
		<tag k="name" v="Áhkávuonnjárgga - Stefjordneset" />
		<tag k="name:no" v="Stefjordneset" />
		<tag k="name:smj" v="Áhkávuonnjárgga" />
		<tag k="place" v="hamlet" />
		<tag k="ssr:stedsnr" v="566360" />
	</node>
	<node id="9884377893" lat="68.4395366" lon="17.6580591" version="1" timestamp="2022-07-13T06:05:00Z" changeset="123545445" uid="3497659" user="NKA">
		<tag k="name" v="Søndre Straumsnes" />
		<tag k="place" v="farm" />
		<tag k="ssr:stedsnr" v="935005" />
	</node>
	<node id="9884377894" lat="68.2964722" lon="16.6974445" version="1" timestamp="2022-07-13T06:05:00Z" changeset="123545445" uid="3497659" user="NKA">
		<tag k="name" v="Brattli" />
		<tag k="place" v="farm" />
		<tag k="ssr:stedsnr" v="684586" />
	</node>
	<node id="9884377895" lat="68.431463" lon="17.7294242" version="1" timestamp="2022-07-13T06:05:00Z" changeset="123545445" uid="3497659" user="NKA">
		<tag k="alt_name" v="Klubneset" />
		<tag k="name" v="Klubbneset" />
		<tag k="place" v="farm" />
		<tag k="ssr:stedsnr" v="1076480" />
	</node>
	<node id="9884377896" lat="68.3501973" lon="16.2902221" version="1" timestamp="2022-07-13T06:05:00Z" changeset="123545445" uid="3497659" user="NKA">
		<tag k="name" v="Straumen" />
		<tag k="place" v="neighbourhood" />
		<tag k="ssr:stedsnr" v="541628" />
	</node>
	<node id="9884377897" lat="68.1186928" lon="16.3041557" version="1" timestamp="2022-07-13T06:05:00Z" changeset="123545445" uid="3497659" user="NKA">
		<tag k="name" v="Kobbvika" />
		<tag k="place" v="isolated_dwelling" />
		<tag k="ssr:stedsnr" v="104290" />
	</node>
	<node id="9884377898" lat="68.3462412" lon="16.8071847" version="1" timestamp="2022-07-13T06:05:00Z" changeset="123545445" uid="3497659" user="NKA">
		<tag k="name" v="Vårtun" />
		<tag k="place" v="farm" />
		<tag k="ssr:stedsnr" v="260734" />
	</node>
	<node id="9884377899" lat="68.3907483" lon="17.1578715" version="1" timestamp="2022-07-13T06:05:00Z" changeset="123545445" uid="3497659" user="NKA">
		<tag k="name" v="Åsheim" />
		<tag k="place" v="farm" />
		<tag k="ssr:stedsnr" v="814857" />
	</node>
	<node id="9884377900" lat="68.3633778" lon="17.5972278" version="1" timestamp="2022-07-13T06:05:00Z" changeset="123545445" uid="3497659" user="NKA">
		<tag k="name" v="Gamman" />
		<tag k="place" v="farm" />
		<tag k="ssr:stedsnr" v="745185" />
	</node>
	<node id="9884377901" lat="68.0910157" lon="16.6743364" version="1" timestamp="2022-07-13T06:05:00Z" changeset="123545445" uid="3497659" user="NKA">
		<tag k="name" v="Davve-Strávve - Ytter-Straumen" />
		<tag k="name:no" v="Ytter-Straumen" />
		<tag k="name:smj" v="Davve-Strávve" />
		<tag k="place" v="farm" />
		<tag k="ssr:stedsnr" v="502529" />
	</node>
	<node id="9884377902" lat="68.0813667" lon="16.5513722" version="1" timestamp="2022-07-13T06:05:00Z" changeset="123545445" uid="3497659" user="NKA">
		<tag k="alt_name" v="Sommarset" />
		<tag k="name" v="Geinnodahka" />
		<tag k="place" v="isolated_dwelling" />
		<tag k="ssr:stedsnr" v="502547" />
	</node>
	<node id="9884377903" lat="68.0888806" lon="16.6904667" version="1" timestamp="2022-07-13T06:05:00Z" changeset="123545445" uid="3497659" user="NKA">
		<tag k="name" v="Sis-Strávve - Inner-Straumen" />
		<tag k="name:no" v="Inner-Straumen" />
		<tag k="name:smj" v="Sis-Strávve" />
		<tag k="place" v="farm" />
		<tag k="ssr:stedsnr" v="441537" />
	</node>
	<node id="9884377904" lat="68.1876299" lon="17.3118631" version="1" timestamp="2022-07-13T06:05:00Z" changeset="123545445" uid="3497659" user="NKA">
		<tag k="name" v="Sandvoll" />
		<tag k="place" v="farm" />
		<tag k="ssr:stedsnr" v="810628" />
	</node>
	<node id="9884377905" lat="68.3592" lon="17.6136056" version="1" timestamp="2022-07-13T06:05:00Z" changeset="123545445" uid="3497659" user="NKA">
		<tag k="alt_name" v="Tømmerbakken, øvre" />
		<tag k="name" v="Øvre Tømmerbakken" />
		<tag k="place" v="farm" />
		<tag k="ssr:stedsnr" v="562135" />
	</node>
	<node id="9884377906" lat="68.0796877" lon="16.6114762" version="1" timestamp="2022-07-13T06:05:00Z" changeset="123545445" uid="3497659" user="NKA">
		<tag k="name" v="Tsåhkulahka - Grunnvoll" />
		<tag k="name:no" v="Grunnvoll" />
		<tag k="name:smj" v="Tsåhkulahka" />
		<tag k="place" v="hamlet" />
		<tag k="ssr:stedsnr" v="380587" />
	</node>
	<node id="9884377907" lat="68.1229944" lon="16.4263722" version="1" timestamp="2022-07-13T06:05:00Z" changeset="123545445" uid="3497659" user="NKA">
		<tag k="name" v="Brattli" />
		<tag k="place" v="farm" />
		<tag k="ssr:stedsnr" v="264756" />
	</node>
	<node id="9884377908" lat="68.4434627" lon="17.640959" version="1" timestamp="2022-07-13T06:05:00Z" changeset="123545445" uid="3497659" user="NKA">
		<tag k="alt_name" v="Sletten vestre" />
		<tag k="name" v="Vestre Sletten" />
		<tag k="place" v="farm" />
		<tag k="ssr:stedsnr" v="571361" />
	</node>
	<node id="9884377909" lat="68.0798528" lon="16.6567166" version="1" timestamp="2022-07-13T06:05:00Z" changeset="123545445" uid="3497659" user="NKA">
		<tag k="name" v="Forrhågen" />
		<tag k="place" v="locality" />
		<tag k="ssr:stedsnr" v="259539" />
	</node>
	<node id="9884377910" lat="68.3754194" lon="17.4118805" version="1" timestamp="2022-07-13T06:05:00Z" changeset="123545445" uid="3497659" user="NKA">
		<tag k="name" v="Dalhaug" />
		<tag k="place" v="farm" />
		<tag k="ssr:stedsnr" v="828678" />
	</node>
	<node id="9884377911" lat="68.3535556" lon="17.9814277" version="1" timestamp="2022-07-13T06:05:00Z" changeset="123545445" uid="3497659" user="NKA">
		<tag k="name" v="Smimuren" />
		<tag k="place" v="isolated_dwelling" />
		<tag k="ssr:stedsnr" v="199148" />
	</node>
	<node id="9884377912" lat="68.3367833" lon="16.3251278" version="1" timestamp="2022-07-13T06:05:00Z" changeset="123545445" uid="3497659" user="NKA">
		<tag k="name" v="Storkobbvik" />
		<tag k="place" v="neighbourhood" />
		<tag k="ssr:stedsnr" v="601593" />
	</node>
	<node id="9884377913" lat="68.3610374" lon="17.6132536" version="1" timestamp="2022-07-13T06:05:00Z" changeset="123545445" uid="3497659" user="NKA">
		<tag k="alt_name" v="Tømmerbakken, nedre" />
		<tag k="name" v="Nedre Tømmerbakken" />
		<tag k="place" v="farm" />
		<tag k="ssr:stedsnr" v="623168" />
	</node>
	<node id="9884377914" lat="68.3430111" lon="16.3111139" version="1" timestamp="2022-07-13T06:05:00Z" changeset="123545445" uid="3497659" user="NKA">
		<tag k="name" v="Lomtjern" />
		<tag k="place" v="neighbourhood" />
		<tag k="ssr:stedsnr" v="601594" />
	</node>
	<node id="9884377915" lat="68.3251022" lon="16.2298895" version="1" timestamp="2022-07-13T06:05:00Z" changeset="123545445" uid="3497659" user="NKA">
		<tag k="name" v="Valle" />
		<tag k="place" v="hamlet" />
		<tag k="ssr:stedsnr" v="381664" />
	</node>
	<node id="9884377916" lat="68.3422862" lon="16.1963056" version="1" timestamp="2022-07-13T06:05:00Z" changeset="123545445" uid="3497659" user="NKA">
		<tag k="name" v="Løbukta" />
		<tag k="place" v="isolated_dwelling" />
		<tag k="ssr:stedsnr" v="585236" />
	</node>
	<node id="9884377917" lat="68.1273553" lon="16.5235167" version="1" timestamp="2022-07-13T06:05:00Z" changeset="123545445" uid="3497659" user="NKA">
		<tag k="name" v="Gárjjelgoade - Russvika" />
		<tag k="name:no" v="Russvika" />
		<tag k="name:smj" v="Gárjjelgoade" />
		<tag k="place" v="isolated_dwelling" />
		<tag k="ssr:stedsnr" v="563546" />
	</node>
	<node id="9884377918" lat="68.2808047" lon="17.3322974" version="1" timestamp="2022-07-13T06:05:00Z" changeset="123545445" uid="3497659" user="NKA">
		<tag k="name" v="Kjerringneset" />
		<tag k="place" v="hamlet" />
		<tag k="ssr:stedsnr" v="689632" />
	</node>
	<node id="9884377919" lat="68.4079164" lon="16.6088166" version="1" timestamp="2022-07-13T06:05:00Z" changeset="123545445" uid="3497659" user="NKA">
		<tag k="name" v="Bjørnkammeret" />
		<tag k="place" v="isolated_dwelling" />
		<tag k="ssr:stedsnr" v="813404" />
	</node>
	<node id="9884377922" lat="68.3723011" lon="17.5986259" version="1" timestamp="2022-07-13T06:05:00Z" changeset="123545445" uid="3497659" user="NKA">
		<tag k="name" v="Brenna" />
		<tag k="place" v="farm" />
		<tag k="ssr:stedsnr" v="147339" />
	</node>
	<node id="9884377923" lat="68.3222027" lon="16.6555862" version="1" timestamp="2022-07-13T06:05:00Z" changeset="123545445" uid="3497659" user="NKA">
		<tag k="name" v="Brattbakken" />
		<tag k="place" v="farm" />
		<tag k="ssr:stedsnr" v="563623" />
	</node>
	<node id="9884377924" lat="68.4178045" lon="16.6162271" version="1" timestamp="2022-07-13T06:05:00Z" changeset="123545445" uid="3497659" user="NKA">
		<tag k="alt_name" v="Løkke" />
		<tag k="name" v="Austvika" />
		<tag k="place" v="hamlet" />
		<tag k="ssr:stedsnr" v="745466" />
	</node>
	<node id="9884377925" lat="68.3215103" lon="16.360591" version="1" timestamp="2022-07-13T06:05:00Z" changeset="123545445" uid="3497659" user="NKA">
		<tag k="name" v="Soleng" />
		<tag k="place" v="farm" />
		<tag k="ssr:stedsnr" v="871543" />
	</node>
	<node id="9884377926" lat="68.3879119" lon="16.6279974" version="1" timestamp="2022-07-13T06:05:00Z" changeset="123545445" uid="3497659" user="NKA">
		<tag k="name" v="Brattli" />
		<tag k="place" v="farm" />
		<tag k="ssr:stedsnr" v="442762" />
	</node>
	<node id="9884377927" lat="68.3681085" lon="16.6031377" version="1" timestamp="2022-07-13T06:05:00Z" changeset="123545445" uid="3497659" user="NKA">
		<tag k="name" v="Karihaugen" />
		<tag k="place" v="farm" />
		<tag k="ssr:stedsnr" v="464351" />
	</node>
	<node id="9884377928" lat="68.4145333" lon="16.6508" version="1" timestamp="2022-07-13T06:05:00Z" changeset="123545445" uid="3497659" user="NKA">
		<tag k="alt_name" v="Rognan" />
		<tag k="name" v="Rognmo" />
		<tag k="place" v="farm" />
		<tag k="ssr:stedsnr" v="380495" />
	</node>
	<node id="9884377929" lat="68.5501277" lon="17.7162112" version="1" timestamp="2022-07-13T06:05:00Z" changeset="123545445" uid="3497659" user="NKA">
		<tag k="name" v="Nyheim" />
		<tag k="place" v="farm" />
		<tag k="ssr:stedsnr" v="442779" />
	</node>
	<node id="9884377930" lat="68.3675695" lon="16.6404584" version="1" timestamp="2022-07-13T06:05:00Z" changeset="123545445" uid="3497659" user="NKA">
		<tag k="name" v="Kjeldebotn" />
		<tag k="place" v="farm" />
		<tag k="ssr:stedsnr" v="242177" />
	</node>
	<node id="9884377931" lat="68.2973904" lon="16.6303319" version="1" timestamp="2022-07-13T06:05:00Z" changeset="123545445" uid="3497659" user="NKA">
		<tag k="alt_name" v="Ivarjord" />
		<tag k="name" v="Ivarjorda" />
		<tag k="place" v="farm" />
		<tag k="ssr:stedsnr" v="381588" />
	</node>
	<node id="9884377932" lat="68.2904889" lon="16.6253277" version="1" timestamp="2022-07-13T06:05:00Z" changeset="123545445" uid="3497659" user="NKA">
		<tag k="name" v="Hestvika" />
		<tag k="place" v="farm" />
		<tag k="ssr:stedsnr" v="138591" />
	</node>
	<node id="9884377933" lat="68.2011277" lon="17.5407528" version="1" timestamp="2022-07-13T06:05:00Z" changeset="123545445" uid="3497659" user="NKA">
		<tag k="name" v="Elvebakken" />
		<tag k="place" v="farm" />
		<tag k="ssr:stedsnr" v="320665" />
	</node>
	<node id="9884377934" lat="68.408895" lon="16.6149115" version="1" timestamp="2022-07-13T06:05:00Z" changeset="123545445" uid="3497659" user="NKA">
		<tag k="name" v="Kjelde - Gáldu" />
		<tag k="name:no" v="Kjelde" />
		<tag k="name:se" v="Gáldu" />
		<tag k="place" v="farm" />
		<tag k="ssr:stedsnr" v="121133" />
	</node>
	<node id="9884377935" lat="68.3845639" lon="16.627686" version="1" timestamp="2022-07-13T06:05:00Z" changeset="123545445" uid="3497659" user="NKA">
		<tag k="name" v="Henrikheimen" />
		<tag k="place" v="farm" />
		<tag k="ssr:stedsnr" v="875240" />
	</node>
	<node id="9884377936" lat="68.2659754" lon="16.3219009" version="1" timestamp="2022-07-13T06:05:00Z" changeset="123545445" uid="3497659" user="NKA">
		<tag k="name" v="Råssenjárgga - Hestneset" />
		<tag k="name:no" v="Hestneset" />
		<tag k="name:smj" v="Råssenjárgga" />
		<tag k="place" v="hamlet" />
		<tag k="ssr:stedsnr" v="805568" />
	</node>
	<node id="9884377937" lat="68.3827472" lon="16.6065444" version="1" timestamp="2022-07-13T06:05:00Z" changeset="123545445" uid="3497659" user="NKA">
		<tag k="name" v="Kjelde" />
		<tag k="place" v="farm" />
		<tag k="ssr:stedsnr" v="849173" />
	</node>
	<node id="9884377938" lat="68.1808483" lon="17.5532931" version="1" timestamp="2022-07-13T06:05:00Z" changeset="123545445" uid="3497659" user="NKA">
		<tag k="alt_name" v="Bogholmen" />
		<tag k="name" v="Bokholmen" />
		<tag k="place" v="hamlet" />
		<tag k="ssr:stedsnr" v="259662" />
	</node>
	<node id="9884377939" lat="68.2759421" lon="16.6255489" version="1" timestamp="2022-07-13T06:05:00Z" changeset="123545445" uid="3497659" user="NKA">
		<tag k="name" v="Forsa - Fuorsu" />
		<tag k="name:no" v="Forsa" />
		<tag k="name:se" v="Fuorsu" />
		<tag k="place" v="hamlet" />
		<tag k="ssr:stedsnr" v="485696" />
	</node>
	<node id="9884377940" lat="68.3499887" lon="16.800035" version="1" timestamp="2022-07-13T06:05:00Z" changeset="123545445" uid="3497659" user="NKA">
		<tag k="name" v="Solvoll" />
		<tag k="place" v="farm" />
		<tag k="ssr:stedsnr" v="989480" />
	</node>
	<node id="9884377941" lat="68.2864616" lon="16.6213802" version="1" timestamp="2022-07-13T06:05:00Z" changeset="123545445" uid="3497659" user="NKA">
		<tag k="name" v="Skogvoll" />
		<tag k="place" v="farm" />
		<tag k="ssr:stedsnr" v="137551" />
	</node>
	<node id="9884377942" lat="68.2587111" lon="16.6246362" version="1" timestamp="2022-07-13T06:05:00Z" changeset="123545445" uid="3497659" user="NKA">
		<tag k="name" v="Lappnes" />
		<tag k="place" v="isolated_dwelling" />
		<tag k="ssr:stedsnr" v="158536" />
	</node>
	<node id="9884377943" lat="68.5600941" lon="17.6310588" version="1" timestamp="2022-07-13T06:05:00Z" changeset="123545445" uid="3497659" user="NKA">
		<tag k="alt_name:no" v="Gammalheimen" />
		<tag k="name" v="Gammelheimen - Vuollegoahti" />
		<tag k="name:no" v="Gammelheimen" />
		<tag k="name:se" v="Vuollegoahti" />
		<tag k="place" v="locality" />
		<tag k="ssr:stedsnr" v="685667" />
	</node>
	<node id="9884377944" lat="68.3523" lon="16.8104917" version="1" timestamp="2022-07-13T06:05:00Z" changeset="123545445" uid="3497659" user="NKA">
		<tag k="name" v="Fjellheim" />
		<tag k="place" v="farm" />
		<tag k="ssr:stedsnr" v="927699" />
	</node>
	<node id="9884377945" lat="68.3588222" lon="16.8409807" version="1" timestamp="2022-07-13T06:05:00Z" changeset="123545445" uid="3497659" user="NKA">
		<tag k="name" v="Vinterhesjan" />
		<tag k="place" v="farm" />
		<tag k="ssr:stedsnr" v="806928" />
	</node>
	<node id="9884377946" lat="68.2815055" lon="16.5084166" version="1" timestamp="2022-07-13T06:05:00Z" changeset="123545445" uid="3497659" user="NKA">
		<tag k="name" v="Halvarøy i Efjord" />
		<tag k="place" v="neighbourhood" />
		<tag k="ssr:stedsnr" v="56621" />
	</node>
	<node id="9884377947" lat="68.2926358" lon="16.6420507" version="1" timestamp="2022-07-13T06:05:00Z" changeset="123545445" uid="3497659" user="NKA">
		<tag k="name" v="Skafosli" />
		<tag k="place" v="farm" />
		<tag k="ssr:stedsnr" v="1079826" />
	</node>
	<node id="9884377948" lat="68.4158305" lon="16.7039706" version="1" timestamp="2022-07-13T06:05:00Z" changeset="123545445" uid="3497659" user="NKA">
		<tag k="name" v="Skårnes" />
		<tag k="place" v="farm" />
		<tag k="ssr:stedsnr" v="767512" />
	</node>
	<node id="9884377949" lat="68.4005334" lon="16.7990972" version="1" timestamp="2022-07-13T06:05:00Z" changeset="123545445" uid="3497659" user="NKA">
		<tag k="name" v="Silsandmoen" />
		<tag k="place" v="farm" />
		<tag k="ssr:stedsnr" v="755318" />
	</node>
	<node id="9884377950" lat="68.2774906" lon="16.5197776" version="1" timestamp="2022-07-13T06:05:00Z" changeset="123545445" uid="3497659" user="NKA">
		<tag k="name" v="Henriknes" />
		<tag k="place" v="farm" />
		<tag k="ssr:stedsnr" v="1081434" />
	</node>
	<node id="9884377951" lat="68.1855528" lon="17.3157556" version="1" timestamp="2022-07-13T06:05:00Z" changeset="123545445" uid="3497659" user="NKA">
		<tag k="name" v="Sandmo" />
		<tag k="place" v="farm" />
		<tag k="ssr:stedsnr" v="16663" />
	</node>
	<node id="9884377952" lat="68.276193" lon="16.4232684" version="1" timestamp="2022-07-13T06:05:00Z" changeset="123545445" uid="3497659" user="NKA">
		<tag k="name" v="Haugen" />
		<tag k="place" v="locality" />
		<tag k="ssr:stedsnr" v="1076566" />
	</node>
	<node id="9884377953" lat="68.4019565" lon="16.7688438" version="1" timestamp="2022-07-13T06:05:00Z" changeset="123545445" uid="3497659" user="NKA">
		<tag k="alt_name" v="Djupvik" />
		<tag k="name" v="Djupvika" />
		<tag k="place" v="hamlet" />
		<tag k="ssr:stedsnr" v="745789" />
	</node>
	<node id="9884377954" lat="68.2799746" lon="16.6384247" version="1" timestamp="2022-07-13T06:05:00Z" changeset="123545445" uid="3497659" user="NKA">
		<tag k="alt_name" v="Slottli" />
		<tag k="name" v="Slåttlia" />
		<tag k="place" v="farm" />
		<tag k="ssr:stedsnr" v="198569" />
	</node>
	<node id="9884377955" lat="68.2958528" lon="16.6922473" version="1" timestamp="2022-07-13T06:05:00Z" changeset="123545445" uid="3497659" user="NKA">
		<tag k="name" v="Neset" />
		<tag k="place" v="farm" />
		<tag k="ssr:stedsnr" v="745601" />
	</node>
	<node id="9884377956" lat="68.33905" lon="16.7451918" version="1" timestamp="2022-07-13T06:05:00Z" changeset="123545445" uid="3497659" user="NKA">
		<tag k="name" v="Granlia" />
		<tag k="place" v="farm" />
		<tag k="ssr:stedsnr" v="745690" />
	</node>
	<node id="9884377957" lat="68.3542111" lon="16.1538778" version="1" timestamp="2022-07-13T06:05:00Z" changeset="123545445" uid="3497659" user="NKA">
		<tag k="name" v="Barøygården" />
		<tag k="place" v="farm" />
		<tag k="ssr:stedsnr" v="100252" />
	</node>
	<node id="9884377958" lat="68.2913089" lon="16.5554057" version="1" timestamp="2022-07-13T06:05:00Z" changeset="123545445" uid="3497659" user="NKA">
		<tag k="name" v="Vårset" />
		<tag k="place" v="hamlet" />
		<tag k="ssr:stedsnr" v="199598" />
	</node>
	<node id="9884377959" lat="68.2751304" lon="16.6258675" version="1" timestamp="2022-07-13T06:05:00Z" changeset="123545445" uid="3497659" user="NKA">
		<tag k="name" v="Nedre Forsa" />
		<tag k="place" v="farm" />
		<tag k="ssr:stedsnr" v="363124" />
	</node>
	<node id="9884377960" lat="68.2462222" lon="16.7156723" version="1" timestamp="2022-07-13T06:05:00Z" changeset="123545445" uid="3497659" user="NKA">
		<tag k="name" v="Furuhaug" />
		<tag k="place" v="farm" />
		<tag k="ssr:stedsnr" v="805561" />
	</node>
	<node id="9884377961" lat="68.3545725" lon="16.9654466" version="1" timestamp="2022-07-13T06:05:00Z" changeset="123545445" uid="3497659" user="NKA">
		<tag k="name" v="Hamn" />
		<tag k="place" v="hamlet" />
		<tag k="ssr:stedsnr" v="207432" />
	</node>
	<node id="9884377962" lat="68.4059166" lon="17.827305" version="1" timestamp="2022-07-13T06:05:00Z" changeset="123545445" uid="3497659" user="NKA">
		<tag k="name" v="Sildvik" />
		<tag k="place" v="locality" />
		<tag k="ssr:stedsnr" v="142752" />
	</node>
	<node id="9884377963" lat="68.4075295" lon="17.4500841" version="1" timestamp="2022-07-13T06:05:00Z" changeset="123545445" uid="3497659" user="NKA">
		<tag k="name" v="Kvitsandøyra" />
		<tag k="place" v="neighbourhood" />
		<tag k="ssr:stedsnr" v="968720" />
	</node>
	<node id="9884377964" lat="68.3089083" lon="17.0637056" version="1" timestamp="2022-07-13T06:05:00Z" changeset="123545445" uid="3497659" user="NKA">
		<tag k="name" v="Gammelgården" />
		<tag k="place" v="farm" />
		<tag k="ssr:stedsnr" v="99945" />
	</node>
	<node id="9884377965" lat="68.4219417" lon="17.3663139" version="1" timestamp="2022-07-13T06:05:00Z" changeset="123545445" uid="3497659" user="NKA">
		<tag k="name" v="Stranda" />
		<tag k="place" v="neighbourhood" />
		<tag k="ssr:stedsnr" v="787220" />
	</node>
	<node id="9884377966" lat="68.3925605" lon="16.8523977" version="1" timestamp="2022-07-13T06:05:00Z" changeset="123545445" uid="3497659" user="NKA">
		<tag k="name" v="Heggemoen" />
		<tag k="place" v="farm" />
		<tag k="ssr:stedsnr" v="339696" />
	</node>
	<node id="9884377967" lat="68.4305889" lon="17.4488971" version="1" timestamp="2022-07-13T06:05:00Z" changeset="123545445" uid="3497659" user="NKA">
		<tag k="name" v="Skistua" />
		<tag k="place" v="isolated_dwelling" />
		<tag k="ssr:stedsnr" v="726532" />
	</node>
	<node id="9884377968" lat="68.4143286" lon="17.433719" version="1" timestamp="2022-07-13T06:05:00Z" changeset="123545445" uid="3497659" user="NKA">
		<tag k="name" v="Orhaugen" />
		<tag k="place" v="isolated_dwelling" />
		<tag k="ssr:stedsnr" v="698892" />
	</node>
	<node id="9884377969" lat="68.2380447" lon="16.6025969" version="1" timestamp="2022-07-13T06:05:00Z" changeset="123545445" uid="3497659" user="NKA">
		<tag k="name" v="Kobbeneset" />
		<tag k="place" v="farm" />
		<tag k="ssr:stedsnr" v="82962" />
	</node>
	<node id="9884377970" lat="68.3430333" lon="16.8202472" version="1" timestamp="2022-07-13T06:05:00Z" changeset="123545445" uid="3497659" user="NKA">
		<tag k="name" v="Langåsen" />
		<tag k="place" v="neighbourhood" />
		<tag k="ssr:stedsnr" v="298583" />
	</node>
	<node id="9884377971" lat="68.3193056" lon="16.7384722" version="1" timestamp="2022-07-13T06:05:00Z" changeset="123545445" uid="3497659" user="NKA">
		<tag k="name" v="Bakkan" />
		<tag k="place" v="farm" />
		<tag k="ssr:stedsnr" v="320620" />
	</node>
	<node id="9884377972" lat="68.3464611" lon="16.8896612" version="1" timestamp="2022-07-13T06:05:00Z" changeset="123545445" uid="3497659" user="NKA">
		<tag k="alt_name" v="Fornes" />
		<tag k="name" v="Forrnes" />
		<tag k="place" v="farm" />
		<tag k="ssr:stedsnr" v="928889" />
	</node>
	<node id="9884377973" lat="68.3995611" lon="17.3405527" version="1" timestamp="2022-07-13T06:05:00Z" changeset="123545445" uid="3497659" user="NKA">
		<tag k="name" v="Fredheim" />
		<tag k="place" v="farm" />
		<tag k="ssr:stedsnr" v="450961" />
	</node>
	<node id="9884377974" lat="68.4360507" lon="17.4399841" version="1" timestamp="2022-07-13T06:05:00Z" changeset="123545445" uid="3497659" user="NKA">
		<tag k="name" v="Oskarsborg" />
		<tag k="place" v="isolated_dwelling" />
		<tag k="ssr:stedsnr" v="333681" />
	</node>
	<node id="9884377975" lat="68.4194243" lon="17.3821653" version="1" timestamp="2022-07-13T06:05:00Z" changeset="123545445" uid="3497659" user="NKA">
		<tag k="name" v="Haugen" />
		<tag k="place" v="isolated_dwelling" />
		<tag k="ssr:stedsnr" v="394978" />
	</node>
	<node id="9884377976" lat="68.3828972" lon="16.3950833" version="1" timestamp="2022-07-13T06:05:00Z" changeset="123545445" uid="3497659" user="NKA">
		<tag k="name" v="Krokneset" />
		<tag k="place" v="farm" />
		<tag k="ssr:stedsnr" v="806750" />
	</node>
	<node id="9884377977" lat="68.1407441" lon="16.3405238" version="1" timestamp="2022-07-13T06:05:00Z" changeset="123545445" uid="3497659" user="NKA">
		<tag k="name" v="Gielkká - Kjelkvika" />
		<tag k="name:no" v="Kjelkvika" />
		<tag k="name:smj" v="Gielkká" />
		<tag k="place" v="hamlet" />
		<tag k="ssr:stedsnr" v="927566" />
	</node>
	<node id="9884377978" lat="68.3981881" lon="16.8156698" version="1" timestamp="2022-07-13T06:05:00Z" changeset="123545445" uid="3497659" user="NKA">
		<tag k="loc_name:no" v="Hekkelstranda" />
		<tag k="name" v="Geargegáddi" />
		<tag k="name:se" v="Geargegáddi" />
		<tag k="place" v="farm" />
		<tag k="ssr:stedsnr" v="483960" />
	</node>
	<node id="9884377979" lat="68.2369876" lon="16.7486936" version="1" timestamp="2022-07-13T06:05:00Z" changeset="123545445" uid="3497659" user="NKA">
		<tag k="name" v="Sjurvassbotn" />
		<tag k="place" v="farm" />
		<tag k="ssr:stedsnr" v="1076570" />
	</node>
	<node id="9884377980" lat="68.4024667" lon="16.6034861" version="1" timestamp="2022-07-13T06:05:00Z" changeset="123545445" uid="3497659" user="NKA">
		<tag k="name" v="Harvollen" />
		<tag k="place" v="farm" />
		<tag k="ssr:stedsnr" v="805732" />
	</node>
	<node id="9884377981" lat="68.2852394" lon="16.6811749" version="1" timestamp="2022-07-13T06:05:00Z" changeset="123545445" uid="3497659" user="NKA">
		<tag k="name" v="Nordre Langåsen" />
		<tag k="place" v="locality" />
		<tag k="ssr:stedsnr" v="1076629" />
	</node>
	<node id="9884377982" lat="68.2607994" lon="16.6962975" version="1" timestamp="2022-07-13T06:05:00Z" changeset="123545445" uid="3497659" user="NKA">
		<tag k="name" v="Kjønnstad" />
		<tag k="place" v="farm" />
		<tag k="ssr:stedsnr" v="1076580" />
	</node>
	<node id="9884377983" lat="68.4285763" lon="17.4275672" version="1" timestamp="2022-07-13T06:05:00Z" changeset="123545445" uid="3497659" user="NKA">
		<tag k="name" v="Kleiva" />
		<tag k="place" v="isolated_dwelling" />
		<tag k="ssr:stedsnr" v="151736" />
	</node>
	<node id="9884377984" lat="68.2582232" lon="16.7198004" version="1" timestamp="2022-07-13T06:05:00Z" changeset="123545445" uid="3497659" user="NKA">
		<tag k="name" v="Melkedalen" />
		<tag k="place" v="farm" />
		<tag k="ssr:stedsnr" v="1076560" />
	</node>
	<node id="9884377985" lat="68.3699805" lon="16.8185999" version="1" timestamp="2022-07-13T06:05:00Z" changeset="123545445" uid="3497659" user="NKA">
		<tag k="name" v="Forsheim" />
		<tag k="place" v="farm" />
		<tag k="ssr:stedsnr" v="78923" />
	</node>
	<node id="9884377986" lat="68.4189361" lon="16.6094222" version="1" timestamp="2022-07-13T06:05:00Z" changeset="123545445" uid="3497659" user="NKA">
		<tag k="name" v="Storskarhaugen" />
		<tag k="place" v="neighbourhood" />
		<tag k="ssr:stedsnr" v="784627" />
	</node>
	<node id="9884377987" lat="68.3367083" lon="16.7592751" version="1" timestamp="2022-07-13T06:05:00Z" changeset="123545445" uid="3497659" user="NKA">
		<tag k="name" v="Solheim" />
		<tag k="place" v="farm" />
		<tag k="ssr:stedsnr" v="78671" />
	</node>
	<node id="9884377988" lat="68.3344306" lon="16.8365972" version="1" timestamp="2022-07-13T06:05:00Z" changeset="123545445" uid="3497659" user="NKA">
		<tag k="alt_name" v="Ballangen, store" />
		<tag k="name" v="Storballangen" />
		<tag k="place" v="farm" />
		<tag k="ssr:stedsnr" v="746817" />
	</node>
	<node id="9884377989" lat="68.2795847" lon="16.7212751" version="1" timestamp="2022-07-13T06:05:00Z" changeset="123545445" uid="3497659" user="NKA">
		<tag k="name" v="Skjåfjellet" />
		<tag k="place" v="hamlet" />
		<tag k="ssr:stedsnr" v="744537" />
	</node>
	<node id="9884377990" lat="68.3843861" lon="16.37975" version="1" timestamp="2022-07-13T06:05:00Z" changeset="123545445" uid="3497659" user="NKA">
		<tag k="name" v="Løneset" />
		<tag k="place" v="farm" />
		<tag k="ssr:stedsnr" v="745773" />
	</node>
	<node id="9884377991" lat="68.2723861" lon="16.6342278" version="1" timestamp="2022-07-13T06:05:00Z" changeset="123545445" uid="3497659" user="NKA">
		<tag k="name" v="Forsaelva" />
		<tag k="place" v="farm" />
		<tag k="ssr:stedsnr" v="728117" />
	</node>
	<node id="9884377992" lat="68.3620861" lon="16.8704222" version="1" timestamp="2022-07-13T06:05:00Z" changeset="123545445" uid="3497659" user="NKA">
		<tag k="name" v="Einhaugen" />
		<tag k="place" v="farm" />
		<tag k="ssr:stedsnr" v="25280" />
	</node>
	<node id="9884377993" lat="68.3668777" lon="16.8851915" version="1" timestamp="2022-07-13T06:05:00Z" changeset="123545445" uid="3497659" user="NKA">
		<tag k="name" v="Jonsvollen" />
		<tag k="place" v="farm" />
		<tag k="ssr:stedsnr" v="17920" />
	</node>
	<node id="9884377994" lat="68.1581084" lon="16.7375472" version="1" timestamp="2022-07-13T06:05:00Z" changeset="123545445" uid="3497659" user="NKA">
		<tag k="name" v="Tauselva" />
		<tag k="place" v="locality" />
		<tag k="ssr:stedsnr" v="684591" />
	</node>
	<node id="9884377995" lat="68.072917" lon="16.6911793" version="1" timestamp="2022-07-13T06:05:00Z" changeset="123545445" uid="3497659" user="NKA">
		<tag k="name" v="Bieggeluokta - Bukta" />
		<tag k="name:no" v="Bukta" />
		<tag k="name:smj" v="Bieggeluokta" />
		<tag k="place" v="hamlet" />
		<tag k="ssr:stedsnr" v="199548" />
	</node>
	<node id="9884377996" lat="68.307487" lon="17.0632577" version="1" timestamp="2022-07-13T06:05:00Z" changeset="123545445" uid="3497659" user="NKA">
		<tag k="name" v="Elveseter Råndalen" />
		<tag k="place" v="neighbourhood" />
		<tag k="ssr:stedsnr" v="662613" />
	</node>
	<node id="9884377997" lat="68.38465" lon="16.8869723" version="1" timestamp="2022-07-13T06:05:00Z" changeset="123545445" uid="3497659" user="NKA">
		<tag k="name" v="Bømoen" />
		<tag k="place" v="farm" />
		<tag k="ssr:stedsnr" v="200936" />
	</node>
	<node id="9884377998" lat="68.4189278" lon="16.7590749" version="1" timestamp="2022-07-13T06:05:00Z" changeset="123545445" uid="3497659" user="NKA">
		<tag k="name" v="Pundsvikneset" />
		<tag k="place" v="neighbourhood" />
		<tag k="ssr:stedsnr" v="601544" />
	</node>
	<node id="9884377999" lat="68.3433222" lon="16.8856361" version="1" timestamp="2022-07-13T06:05:00Z" changeset="123545445" uid="3497659" user="NKA">
		<tag k="name" v="Nybø" />
		<tag k="place" v="farm" />
		<tag k="ssr:stedsnr" v="200881" />
	</node>
	<node id="9884378000" lat="68.2458049" lon="16.722498" version="1" timestamp="2022-07-13T06:05:00Z" changeset="123545445" uid="3497659" user="NKA">
		<tag k="name" v="Nymo" />
		<tag k="place" v="farm" />
		<tag k="ssr:stedsnr" v="585589" />
	</node>
	<node id="9884378001" lat="68.3795682" lon="17.601834" version="1" timestamp="2022-07-13T06:05:00Z" changeset="123545445" uid="3497659" user="NKA">
		<tag k="name" v="Beisfjord" />
		<tag k="place" v="farm" />
		<tag k="ssr:stedsnr" v="1076488" />
	</node>
	<node id="9884378002" lat="68.4080095" lon="17.4586911" version="1" timestamp="2022-07-13T06:05:00Z" changeset="123545445" uid="3497659" user="NKA">
		<tag k="name" v="Fagernes" />
		<tag k="place" v="locality" />
		<tag k="ssr:stedsnr" v="1076486" />
	</node>
	<node id="9884378003" lat="68.3245357" lon="16.7487018" version="1" timestamp="2022-07-13T06:05:00Z" changeset="123545445" uid="3497659" user="NKA">
		<tag k="alt_name" v="Reinvadhøgda" />
		<tag k="name" v="Reinveghøgda" />
		<tag k="place" v="farm" />
		<tag k="ssr:stedsnr" v="502660" />
	</node>
	<node id="9884378004" lat="68.27391" lon="16.7255951" version="1" timestamp="2022-07-13T06:05:00Z" changeset="123545445" uid="3497659" user="NKA">
		<tag k="name" v="Grunnstad" />
		<tag k="place" v="farm" />
		<tag k="ssr:stedsnr" v="562565" />
	</node>
	<node id="9884378005" lat="68.3160637" lon="16.7273206" version="1" timestamp="2022-07-13T06:05:00Z" changeset="123545445" uid="3497659" user="NKA">
		<tag k="name" v="Bruksåsen" />
		<tag k="place" v="farm" />
		<tag k="ssr:stedsnr" v="1076600" />
	</node>
	<node id="9884378006" lat="68.2815221" lon="16.6654519" version="1" timestamp="2022-07-13T06:05:00Z" changeset="123545445" uid="3497659" user="NKA">
		<tag k="alt_name" v="Sørelv" />
		<tag k="name" v="Venes" />
		<tag k="place" v="farm" />
		<tag k="ssr:stedsnr" v="380608" />
	</node>
	<node id="9884378007" lat="68.0897731" lon="16.682634" version="1" timestamp="2022-07-13T06:05:00Z" changeset="123545445" uid="3497659" user="NKA">
		<tag k="name" v="Strávve - Straumen" />
		<tag k="name:no" v="Straumen" />
		<tag k="name:smj" v="Strávve" />
		<tag k="place" v="hamlet" />
		<tag k="ssr:stedsnr" v="627367" />
	</node>
	<node id="9884378008" lat="68.270925" lon="16.2800721" version="1" timestamp="2022-07-13T06:05:00Z" changeset="123545445" uid="3497659" user="NKA">
		<tag k="historic" v="shieling" />
		<tag k="name" v="Sommarset" />
		<tag k="place" v="isolated_dwelling" />
		<tag k="ssr:stedsnr" v="380595" />
	</node>
	<node id="9884378009" lat="68.4198194" lon="16.7195305" version="1" timestamp="2022-07-13T06:05:00Z" changeset="123545445" uid="3497659" user="NKA">
		<tag k="name" v="Eidet" />
		<tag k="place" v="farm" />
		<tag k="ssr:stedsnr" v="874232" />
	</node>
	<node id="9884378010" lat="68.3899917" lon="16.87315" version="1" timestamp="2022-07-13T06:05:00Z" changeset="123545445" uid="3497659" user="NKA">
		<tag k="name" v="Hestvika" />
		<tag k="place" v="farm" />
		<tag k="ssr:stedsnr" v="867946" />
	</node>
	<node id="9884378011" lat="68.3998094" lon="17.2711141" version="1" timestamp="2022-07-13T06:05:00Z" changeset="123545445" uid="3497659" user="NKA">
		<tag k="name" v="Skjomnes" />
		<tag k="place" v="hamlet" />
		<tag k="ssr:stedsnr" v="624995" />
	</node>
	<node id="9884378012" lat="68.2851785" lon="16.7152271" version="1" timestamp="2022-07-13T06:05:00Z" changeset="123545445" uid="3497659" user="NKA">
		<tag k="name" v="Sjåfjell" />
		<tag k="place" v="farm" />
		<tag k="ssr:stedsnr" v="100628" />
	</node>
	<node id="9884378013" lat="68.3002722" lon="16.64585" version="1" timestamp="2022-07-13T06:05:00Z" changeset="123545445" uid="3497659" user="NKA">
		<tag k="name" v="Vassli" />
		<tag k="place" v="hamlet" />
		<tag k="ssr:stedsnr" v="138604" />
	</node>
	<node id="9884378014" lat="68.409235" lon="17.3143235" version="1" timestamp="2022-07-13T06:05:00Z" changeset="123545445" uid="3497659" user="NKA">
		<tag k="alt_name" v="Håkvik nordre;Håkvika, nordre" />
		<tag k="name" v="Nordre Håkvik" />
		<tag k="place" v="hamlet" />
		<tag k="ssr:stedsnr" v="503978" />
	</node>
	<node id="9884378015" lat="68.2316389" lon="16.2616362" version="1" timestamp="2022-07-13T06:05:00Z" changeset="123545445" uid="3497659" user="NKA">
		<tag k="name" v="Lappvika" />
		<tag k="place" v="isolated_dwelling" />
		<tag k="ssr:stedsnr" v="137488" />
	</node>
	<node id="9884378016" lat="68.3918612" lon="16.5873473" version="1" timestamp="2022-07-13T06:05:00Z" changeset="123545445" uid="3497659" user="NKA">
		<tag k="name" v="Kjelde" />
		<tag k="place" v="farm" />
		<tag k="ssr:stedsnr" v="60184" />
	</node>
	<node id="9884378017" lat="68.2905918" lon="16.6462325" version="1" timestamp="2022-07-13T06:05:00Z" changeset="123545445" uid="3497659" user="NKA">
		<tag k="name" v="Skafossnes" />
		<tag k="place" v="farm" />
		<tag k="ssr:stedsnr" v="1079831" />
	</node>
	<node id="9884378018" lat="68.4066584" lon="17.3253862" version="1" timestamp="2022-07-13T06:05:00Z" changeset="123545445" uid="3497659" user="NKA">
		<tag k="name" v="Heimstad" />
		<tag k="place" v="farm" />
		<tag k="ssr:stedsnr" v="631512" />
	</node>
	<node id="9884378019" lat="68.3286555" lon="17.2856221" version="1" timestamp="2022-07-13T06:05:00Z" changeset="123545445" uid="3497659" user="NKA">
		<tag k="alt_name" v="Hallervik" />
		<tag k="name" v="Hallaarvik" />
		<tag k="place" v="farm" />
		<tag k="ssr:stedsnr" v="814987" />
	</node>
	<node id="9884378020" lat="68.3950742" lon="16.8486175" version="1" timestamp="2022-07-13T06:05:00Z" changeset="123545445" uid="3497659" user="NKA">
		<tag k="alt_name" v="Karvevik" />
		<tag k="name" v="Karvevika" />
		<tag k="place" v="hamlet" />
		<tag k="ssr:stedsnr" v="845641" />
	</node>
	<node id="9884378021" lat="68.3439491" lon="17.2248837" version="1" timestamp="2022-07-13T06:05:00Z" changeset="123545445" uid="3497659" user="NKA">
		<tag k="name" v="Mattisheimen" />
		<tag k="place" v="locality" />
		<tag k="ssr:stedsnr" v="18862" />
	</node>
	<node id="9884378022" lat="68.360475" lon="16.8464611" version="1" timestamp="2022-07-13T06:05:00Z" changeset="123545445" uid="3497659" user="NKA">
		<tag k="name" v="Molund" />
		<tag k="place" v="farm" />
		<tag k="ssr:stedsnr" v="78937" />
	</node>
	<node id="9884378023" lat="68.353462" lon="16.8646396" version="1" timestamp="2022-07-13T06:05:00Z" changeset="123545445" uid="3497659" user="NKA">
		<tag k="alt_name" v="Hamnvik" />
		<tag k="name" v="Hamn" />
		<tag k="place" v="farm" />
		<tag k="ssr:stedsnr" v="78906" />
	</node>
	<node id="9884378024" lat="68.344375" lon="16.8280305" version="1" timestamp="2022-07-13T06:05:00Z" changeset="123545445" uid="3497659" user="NKA">
		<tag k="name" v="Sentrum Nord" />
		<tag k="place" v="neighbourhood" />
		<tag k="ssr:stedsnr" v="845639" />
	</node>
	<node id="9884378025" lat="68.2960173" lon="17.0246092" version="1" timestamp="2022-07-13T06:05:00Z" changeset="123545445" uid="3497659" user="NKA">
		<tag k="alt_name" v="Nesan" />
		<tag k="name" v="Gamnesholmen" />
		<tag k="place" v="locality" />
		<tag k="ssr:stedsnr" v="78452" />
	</node>
	<node id="9884378026" lat="68.5470111" lon="17.5275529" version="1" timestamp="2022-07-13T06:05:00Z" changeset="123545445" uid="3497659" user="NKA">
		<tag k="name" v="Haugen" />
		<tag k="place" v="neighbourhood" />
		<tag k="ssr:stedsnr" v="745797" />
	</node>
	<node id="9884378027" lat="68.0857642" lon="16.6818633" version="1" timestamp="2022-07-13T06:05:00Z" changeset="123545445" uid="3497659" user="NKA">
		<tag k="name" v="Tsagán - Tennstranda" />
		<tag k="name:no" v="Tennstranda" />
		<tag k="name:smj" v="Tsagán" />
		<tag k="place" v="farm" />
		<tag k="ssr:stedsnr" v="77571" />
	</node>
	<node id="9884378028" lat="68.516987" lon="17.5577011" version="1" timestamp="2022-07-13T06:05:00Z" changeset="123545445" uid="3497659" user="NKA">
		<tag k="name" v="Myra" />
		<tag k="place" v="farm" />
		<tag k="ssr:stedsnr" v="685629" />
	</node>
	<node id="9884378029" lat="68.3343055" lon="16.9455193" version="1" timestamp="2022-07-13T06:05:00Z" changeset="123545445" uid="3497659" user="NKA">
		<tag k="name" v="Arneslia-Bruavann" />
		<tag k="place" v="neighbourhood" />
		<tag k="ssr:stedsnr" v="601560" />
	</node>
	<node id="9884378030" lat="68.1831194" lon="16.7366223" version="1" timestamp="2022-07-13T06:05:00Z" changeset="123545445" uid="3497659" user="NKA">
		<tag k="name" v="Langstranda" />
		<tag k="place" v="locality" />
		<tag k="ssr:stedsnr" v="77625" />
	</node>
	<node id="9884378031" lat="68.3153917" lon="16.7312889" version="1" timestamp="2022-07-13T06:05:00Z" changeset="123545445" uid="3497659" user="NKA">
		<tag k="name" v="Bruksåsmoen" />
		<tag k="place" v="farm" />
		<tag k="ssr:stedsnr" v="510411" />
	</node>
	<node id="9884378032" lat="68.3135167" lon="16.7127667" version="1" timestamp="2022-07-13T06:05:00Z" changeset="123545445" uid="3497659" user="NKA">
		<tag k="name" v="Skogvoll" />
		<tag k="place" v="farm" />
		<tag k="ssr:stedsnr" v="502625" />
	</node>
	<node id="9884378033" lat="68.2999889" lon="16.6706249" version="1" timestamp="2022-07-13T06:05:00Z" changeset="123545445" uid="3497659" user="NKA">
		<tag k="name" v="Ramstad" />
		<tag k="place" v="isolated_dwelling" />
		<tag k="ssr:stedsnr" v="563592" />
	</node>
	<node id="9884378034" lat="68.3762584" lon="16.8856917" version="1" timestamp="2022-07-13T06:05:00Z" changeset="123545445" uid="3497659" user="NKA">
		<tag k="name" v="Åsheim" />
		<tag k="place" v="farm" />
		<tag k="ssr:stedsnr" v="564955" />
	</node>
	<node id="9884378035" lat="68.243456" lon="16.7549219" version="1" timestamp="2022-07-13T06:05:00Z" changeset="123545445" uid="3497659" user="NKA">
		<tag k="name" v="Skogheim" />
		<tag k="place" v="hamlet" />
		<tag k="ssr:stedsnr" v="320542" />
	</node>
	<node id="9884378036" lat="68.3342861" lon="16.761186" version="1" timestamp="2022-07-13T06:05:00Z" changeset="123545445" uid="3497659" user="NKA">
		<tag k="name" v="Bjerke" />
		<tag k="old_name" v="Mørkhola" />
		<tag k="place" v="farm" />
		<tag k="ssr:stedsnr" v="477373" />
	</node>
	<node id="9884378037" lat="68.3555219" lon="17.0114933" version="1" timestamp="2022-07-13T06:05:00Z" changeset="123545445" uid="3497659" user="NKA">
		<tag k="name" v="Råna" />
		<tag k="place" v="hamlet" />
		<tag k="ssr:stedsnr" v="116546" />
	</node>
	<node id="9884378038" lat="68.3219417" lon="16.6797833" version="1" timestamp="2022-07-13T06:05:00Z" changeset="123545445" uid="3497659" user="NKA">
		<tag k="name" v="Pippira sijda" />
		<tag k="name:smj" v="Pippira sijda" />
		<tag k="place" v="hamlet" />
		<tag k="ssr:stedsnr" v="420620" />
	</node>
	<node id="9884378039" lat="68.4361042" lon="17.3999662" version="1" timestamp="2022-07-13T06:05:00Z" changeset="123545445" uid="3497659" user="NKA">
		<tag k="name" v="Framnes" />
		<tag k="place" v="suburb" />
		<tag k="ssr:stedsnr" v="86003" />
	</node>
	<node id="9884378040" lat="68.3863972" lon="16.8720556" version="1" timestamp="2022-07-13T06:05:00Z" changeset="123545445" uid="3497659" user="NKA">
		<tag k="name" v="Myrlund" />
		<tag k="place" v="farm" />
		<tag k="ssr:stedsnr" v="624931" />
	</node>
	<node id="9884378041" lat="68.390513" lon="17.1747362" version="1" timestamp="2022-07-13T06:05:00Z" changeset="123545445" uid="3497659" user="NKA">
		<tag k="name" v="Bjerkelund" />
		<tag k="place" v="farm" />
		<tag k="ssr:stedsnr" v="78986" />
	</node>
	<node id="9884378042" lat="68.3509726" lon="16.9580462" version="1" timestamp="2022-07-13T06:05:00Z" changeset="123545445" uid="3497659" user="NKA">
		<tag k="name" v="Arnes" />
		<tag k="place" v="farm" />
		<tag k="ssr:stedsnr" v="1076598" />
	</node>
	<node id="9884378043" lat="68.3865589" lon="16.8893562" version="1" timestamp="2022-07-13T06:05:00Z" changeset="123545445" uid="3497659" user="NKA">
		<tag k="name" v="Bøstrand" />
		<tag k="place" v="hamlet" />
		<tag k="ssr:stedsnr" v="624936" />
	</node>
	<node id="9884378044" lat="68.370468" lon="16.5594708" version="1" timestamp="2022-07-13T06:05:00Z" changeset="123545445" uid="3497659" user="NKA">
		<tag k="alt_name" v="Løvdalen" />
		<tag k="name" v="Lauvdalen" />
		<tag k="place" v="farm" />
		<tag k="ssr:stedsnr" v="867733" />
	</node>
	<node id="9884378045" lat="68.2976111" lon="17.1337639" version="1" timestamp="2022-07-13T06:05:00Z" changeset="123545445" uid="3497659" user="NKA">
		<tag k="name" v="Sætran" />
		<tag k="place" v="locality" />
		<tag k="ssr:stedsnr" v="745839" />
	</node>
	<node id="9884378046" lat="68.1054278" lon="16.5433916" version="1" timestamp="2022-07-13T06:05:00Z" changeset="123545445" uid="3497659" user="NKA">
		<tag k="name" v="Goahttse - Forrhaugan" />
		<tag k="name:no" v="Forrhaugan" />
		<tag k="name:smj" v="Goahttse" />
		<tag k="place" v="hamlet" />
		<tag k="ssr:stedsnr" v="745580" />
	</node>
	<node id="9884378047" lat="68.3383537" lon="17.0145419" version="1" timestamp="2022-07-13T06:05:00Z" changeset="123545445" uid="3497659" user="NKA">
		<tag k="name" v="Råna" />
		<tag k="place" v="farm" />
		<tag k="ssr:stedsnr" v="1076587" />
	</node>
	<node id="9884378048" lat="68.207875" lon="17.5143028" version="1" timestamp="2022-07-13T06:05:00Z" changeset="123545445" uid="3497659" user="NKA">
		<tag k="name" v="Nymoen" />
		<tag k="place" v="farm" />
		<tag k="ssr:stedsnr" v="927680" />
	</node>
	<node id="9884378049" lat="68.2110706" lon="17.5059945" version="1" timestamp="2022-07-13T06:05:00Z" changeset="123545445" uid="3497659" user="NKA">
		<tag k="name" v="Haugbakken" />
		<tag k="place" v="hamlet" />
		<tag k="ssr:stedsnr" v="927678" />
	</node>
	<node id="9884378050" lat="68.3585139" lon="16.8781195" version="1" timestamp="2022-07-13T06:05:00Z" changeset="123545445" uid="3497659" user="NKA">
		<tag k="name" v="Skjønnvika" />
		<tag k="place" v="farm" />
		<tag k="ssr:stedsnr" v="442943" />
	</node>
	<node id="9884378051" lat="68.3836694" lon="16.5775" version="1" timestamp="2022-07-13T06:05:00Z" changeset="123545445" uid="3497659" user="NKA">
		<tag k="name" v="Grønli" />
		<tag k="place" v="farm" />
		<tag k="ssr:stedsnr" v="442765" />
	</node>
	<node id="9884378052" lat="68.1492774" lon="16.2800268" version="1" timestamp="2022-07-13T06:05:00Z" changeset="123545445" uid="3497659" user="NKA">
		<tag k="name" v="Skjæran" />
		<tag k="place" v="isolated_dwelling" />
		<tag k="ssr:stedsnr" v="199630" />
	</node>
	<node id="9884378053" lat="68.3456612" lon="16.8335277" version="1" timestamp="2022-07-13T06:05:00Z" changeset="123545445" uid="3497659" user="NKA">
		<tag k="name" v="Husvannet" />
		<tag k="place" v="neighbourhood" />
		<tag k="ssr:stedsnr" v="359612" />
	</node>
	<node id="9884378054" lat="68.3602103" lon="16.8886025" version="1" timestamp="2022-07-13T06:05:00Z" changeset="123545445" uid="3497659" user="NKA">
		<tag k="name" v="Murstrand" />
		<tag k="place" v="isolated_dwelling" />
		<tag k="ssr:stedsnr" v="279750" />
	</node>
	<node id="9884378055" lat="68.3894833" lon="17.1408723" version="1" timestamp="2022-07-13T06:05:00Z" changeset="123545445" uid="3497659" user="NKA">
		<tag k="name" v="Vollen" />
		<tag k="place" v="farm" />
		<tag k="ssr:stedsnr" v="207852" />
	</node>
	<node id="9884378056" lat="68.3927069" lon="16.8531896" version="1" timestamp="2022-07-13T06:05:00Z" changeset="123545445" uid="3497659" user="NKA">
		<tag k="name" v="Heggåa" />
		<tag k="place" v="farm" />
		<tag k="ssr:stedsnr" v="403561" />
	</node>
	<node id="9884378057" lat="68.2513183" lon="17.4000218" version="1" timestamp="2022-07-13T06:05:00Z" changeset="123545445" uid="3497659" user="NKA">
		<tag k="name" v="Øvergarden" />
		<tag k="place" v="farm" />
		<tag k="ssr:stedsnr" v="692552" />
	</node>
	<node id="9884378058" lat="68.1822777" lon="17.5536001" version="1" timestamp="2022-07-13T06:05:00Z" changeset="123545445" uid="3497659" user="NKA">
		<tag k="name" v="Rosenvoll" />
		<tag k="place" v="farm" />
		<tag k="ssr:stedsnr" v="684651" />
	</node>
	<node id="9884378059" lat="68.3519834" lon="16.8685417" version="1" timestamp="2022-07-13T06:05:00Z" changeset="123545445" uid="3497659" user="NKA">
		<tag k="name" v="Ytre Ballangen" />
		<tag k="place" v="farm" />
		<tag k="ssr:stedsnr" v="279667" />
	</node>
	<node id="9884378060" lat="68.404175" lon="17.986286" version="1" timestamp="2022-07-13T06:05:00Z" changeset="123545445" uid="3497659" user="NKA">
		<tag k="name" v="Norddalen" />
		<tag k="place" v="isolated_dwelling" />
		<tag k="ssr:stedsnr" v="750722" />
	</node>
	<node id="9884378061" lat="68.3325916" lon="16.809436" version="1" timestamp="2022-07-13T06:05:00Z" changeset="123545445" uid="3497659" user="NKA">
		<tag k="name" v="Kiselva" />
		<tag k="place" v="neighbourhood" />
		<tag k="ssr:stedsnr" v="116605" />
	</node>
	<node id="9884378062" lat="68.2147523" lon="17.3600542" version="1" timestamp="2022-07-13T06:05:00Z" changeset="123545445" uid="3497659" user="NKA">
		<tag k="name" v="Sætran" />
		<tag k="place" v="locality" />
		<tag k="ssr:stedsnr" v="576929" />
	</node>
	<node id="9884378063" lat="68.3588" lon="16.8567612" version="1" timestamp="2022-07-13T06:05:00Z" changeset="123545445" uid="3497659" user="NKA">
		<tag k="alt_name" v="Sørslett" />
		<tag k="name" v="Sørsletta" />
		<tag k="place" v="farm" />
		<tag k="ssr:stedsnr" v="138938" />
	</node>
	<node id="9884378064" lat="68.1444639" lon="16.2541639" version="1" timestamp="2022-07-13T06:05:00Z" changeset="123545445" uid="3497659" user="NKA">
		<tag k="name" v="Gådjeluokta - Grindvika" />
		<tag k="name:no" v="Grindvika" />
		<tag k="name:smj" v="Gådjeluokta" />
		<tag k="place" v="isolated_dwelling" />
		<tag k="ssr:stedsnr" v="138634" />
	</node>
	<node id="9884378065" lat="68.3669522" lon="17.042608" version="1" timestamp="2022-07-13T06:05:00Z" changeset="123545445" uid="3497659" user="NKA">
		<tag k="name" v="Rånbogen" />
		<tag k="place" v="hamlet" />
		<tag k="ssr:stedsnr" v="503879" />
	</node>
	<node id="9884378066" lat="68.2361339" lon="17.3476825" version="1" timestamp="2022-07-13T06:05:00Z" changeset="123545445" uid="3497659" user="NKA">
		<tag k="name" v="Laukvik" />
		<tag k="place" v="farm" />
		<tag k="ssr:stedsnr" v="502750" />
	</node>
	<node id="9884378067" lat="68.2018365" lon="17.5392859" version="1" timestamp="2022-07-13T06:05:00Z" changeset="123545445" uid="3497659" user="NKA">
		<tag k="name" v="Gamnes" />
		<tag k="place" v="hamlet" />
		<tag k="ssr:stedsnr" v="502694" />
	</node>
	<node id="9884378068" lat="68.5587667" lon="17.7091083" version="1" timestamp="2022-07-13T06:05:00Z" changeset="123545445" uid="3497659" user="NKA">
		<tag k="name" v="Lundli" />
		<tag k="place" v="farm" />
		<tag k="ssr:stedsnr" v="814050" />
	</node>
	<node id="9884378069" lat="68.5555343" lon="17.525845" version="1" timestamp="2022-07-13T06:05:00Z" changeset="123545445" uid="3497659" user="NKA">
		<tag k="name" v="Vollan" />
		<tag k="place" v="farm" />
		<tag k="ssr:stedsnr" v="928658" />
	</node>
	<node id="9884378070" lat="68.3865667" lon="17.1284444" version="1" timestamp="2022-07-13T06:05:00Z" changeset="123545445" uid="3497659" user="NKA">
		<tag k="name" v="Skogset" />
		<tag k="place" v="farm" />
		<tag k="ssr:stedsnr" v="563957" />
	</node>
	<node id="9884378071" lat="68.0437177" lon="16.360579" version="1" timestamp="2022-07-13T06:05:00Z" changeset="123545445" uid="3497659" user="NKA">
		<tag k="alt_name" v="Tørnes nordre" />
		<tag k="name" v="Nordre Tørnes" />
		<tag k="place" v="farm" />
		<tag k="ssr:stedsnr" v="828185" />
	</node>
	<node id="9884378072" lat="68.1040405" lon="16.4472891" version="1" timestamp="2022-07-13T06:05:00Z" changeset="123545445" uid="3497659" user="NKA">
		<tag k="name" v="Råssegiedde - Hestvika" />
		<tag k="name:no" v="Hestvika" />
		<tag k="name:smj" v="Råssegiedde" />
		<tag k="old_name:smj" v="Rossegiedde" />
		<tag k="place" v="hamlet" />
		<tag k="ssr:stedsnr" v="745582" />
	</node>
	<node id="9884378073" lat="68.382525" lon="17.0586638" version="1" timestamp="2022-07-13T06:05:00Z" changeset="123545445" uid="3497659" user="NKA">
		<tag k="name" v="Sildvikneset" />
		<tag k="place" v="neighbourhood" />
		<tag k="ssr:stedsnr" v="480604" />
	</node>
	<node id="9884378074" lat="68.3869478" lon="16.62625" version="1" timestamp="2022-07-13T06:05:00Z" changeset="123545445" uid="3497659" user="NKA">
		<tag k="name" v="Jakobheimen" />
		<tag k="place" v="farm" />
		<tag k="ssr:stedsnr" v="813181" />
	</node>
	<node id="9884378075" lat="68.406102" lon="16.5218343" version="1" timestamp="2022-07-13T06:05:00Z" changeset="123545445" uid="3497659" user="NKA">
		<tag k="name" v="Jevika" />
		<tag k="place" v="farm" />
		<tag k="ssr:stedsnr" v="927494" />
	</node>
	<node id="9884378076" lat="68.4019597" lon="16.5347095" version="1" timestamp="2022-07-13T06:05:00Z" changeset="123545445" uid="3497659" user="NKA">
		<tag k="name" v="Sæterteigen" />
		<tag k="place" v="farm" />
		<tag k="ssr:stedsnr" v="805730" />
	</node>
	<node id="9884378077" lat="68.3313414" lon="16.3502478" version="1" timestamp="2022-07-13T06:05:00Z" changeset="123545445" uid="3497659" user="NKA">
		<tag k="name" v="Kjørsneset" />
		<tag k="place" v="farm" />
		<tag k="ssr:stedsnr" v="806655" />
	</node>
	<node id="9884378078" lat="68.2540876" lon="17.3995826" version="1" timestamp="2022-07-13T06:05:00Z" changeset="123545445" uid="3497659" user="NKA">
		<tag k="name" v="Vollen" />
		<tag k="place" v="farm" />
		<tag k="ssr:stedsnr" v="328566" />
	</node>
	<node id="9884378079" lat="68.3819861" lon="17.1238307" version="1" timestamp="2022-07-13T06:05:00Z" changeset="123545445" uid="3497659" user="NKA">
		<tag k="name" v="Brubakken" />
		<tag k="place" v="farm" />
		<tag k="ssr:stedsnr" v="624945" />
	</node>
	<node id="9884378080" lat="68.2077" lon="17.5157556" version="1" timestamp="2022-07-13T06:05:00Z" changeset="123545445" uid="3497659" user="NKA">
		<tag k="name" v="Stibergmoen" />
		<tag k="place" v="farm" />
		<tag k="ssr:stedsnr" v="320670" />
	</node>
	<node id="9884378081" lat="68.3770861" lon="17.0382944" version="1" timestamp="2022-07-13T06:05:00Z" changeset="123545445" uid="3497659" user="NKA">
		<tag k="name" v="Saltviknes" />
		<tag k="place" v="neighbourhood" />
		<tag k="ssr:stedsnr" v="237598" />
	</node>
	<node id="9884378082" lat="68.2100861" lon="17.5076111" version="1" timestamp="2022-07-13T06:05:00Z" changeset="123545445" uid="3497659" user="NKA">
		<tag k="name" v="Nygård" />
		<tag k="place" v="farm" />
		<tag k="ssr:stedsnr" v="320668" />
	</node>
	<node id="9884378083" lat="68.1042361" lon="16.5033196" version="1" timestamp="2022-07-13T06:05:00Z" changeset="123545445" uid="3497659" user="NKA">
		<tag k="name" v="Allmenningen" />
		<tag k="place" v="isolated_dwelling" />
		<tag k="ssr:stedsnr" v="138590" />
	</node>
	<node id="9884378084" lat="68.2726417" lon="17.3993277" version="1" timestamp="2022-07-13T06:05:00Z" changeset="123545445" uid="3497659" user="NKA">
		<tag k="name" v="Aspevik søndre" />
		<tag k="place" v="farm" />
		<tag k="ssr:stedsnr" v="240735" />
	</node>
	<node id="9884378085" lat="68.1237472" lon="16.4235659" version="1" timestamp="2022-07-13T06:05:00Z" changeset="123545445" uid="3497659" user="NKA">
		<tag k="name" v="Tjihkkomluokta - Kikvika" />
		<tag k="name:no" v="Kikvika" />
		<tag k="name:smj" v="Tjihkkomluokta" />
		<tag k="place" v="hamlet" />
		<tag k="ssr:stedsnr" v="78565" />
	</node>
	<node id="9884378086" lat="68.4199395" lon="17.3208352" version="1" timestamp="2022-07-13T06:05:00Z" changeset="123545445" uid="3497659" user="NKA">
		<tag k="loc_name:se" v="Ibbogieddi" />
		<tag k="name" v="Emmenes" />
		<tag k="name:no" v="Emmenes" />
		<tag k="place" v="quarter" />
		<tag k="ssr:stedsnr" v="576091" />
	</node>
	<node id="9884378087" lat="68.311475" lon="16.4492278" version="1" timestamp="2022-07-13T06:05:00Z" changeset="123545445" uid="3497659" user="NKA">
		<tag k="name" v="Skjåvika" />
		<tag k="place" v="isolated_dwelling" />
		<tag k="ssr:stedsnr" v="381645" />
	</node>
	<node id="9884378088" lat="68.2414016" lon="17.4116248" version="1" timestamp="2022-07-13T06:05:00Z" changeset="123545445" uid="3497659" user="NKA">
		<tag k="name" v="Sandmoen" />
		<tag k="place" v="farm" />
		<tag k="ssr:stedsnr" v="146471" />
	</node>
	<node id="9884378089" lat="68.0966406" lon="16.3785486" version="1" timestamp="2022-07-13T06:05:00Z" changeset="123545445" uid="3497659" user="NKA">
		<tag k="name" v="Kjøpsneshaugen" />
		<tag k="place" v="neighbourhood" />
		<tag k="ssr:stedsnr" v="1076518" />
	</node>
	<node id="9884378090" lat="68.2509611" lon="17.395175" version="1" timestamp="2022-07-13T06:05:00Z" changeset="123545445" uid="3497659" user="NKA">
		<tag k="name" v="Lillejorden" />
		<tag k="place" v="farm" />
		<tag k="ssr:stedsnr" v="510601" />
	</node>
	<node id="9884378091" lat="68.2543183" lon="17.4064277" version="1" timestamp="2022-07-13T06:05:00Z" changeset="123545445" uid="3497659" user="NKA">
		<tag k="alt_name:no" v="Elvegården" />
		<tag k="name" v="Midtre Elvegården - Jogasiida" />
		<tag k="name:no" v="Midtre Elvegården" />
		<tag k="name:se" v="Jogasiida" />
		<tag k="place" v="farm" />
		<tag k="ssr:stedsnr" v="180723" />
	</node>
	<node id="9884378092" lat="68.4022417" lon="17.332825" version="1" timestamp="2022-07-13T06:05:00Z" changeset="123545445" uid="3497659" user="NKA">
		<tag k="name" v="Åsli" />
		<tag k="place" v="farm" />
		<tag k="ssr:stedsnr" v="503993" />
	</node>
	<node id="9884378093" lat="68.1884882" lon="17.3137288" version="1" timestamp="2022-07-13T06:05:00Z" changeset="123545445" uid="3497659" user="NKA">
		<tag k="name" v="Solvang" />
		<tag k="place" v="farm" />
		<tag k="ssr:stedsnr" v="507638" />
	</node>
	<node id="9884378094" lat="68.3274889" lon="16.7982777" version="1" timestamp="2022-07-13T06:05:00Z" changeset="123545445" uid="3497659" user="NKA">
		<tag k="name" v="Sjåhaugen" />
		<tag k="place" v="neighbourhood" />
		<tag k="ssr:stedsnr" v="965606" />
	</node>
	<node id="9884378095" lat="68.0967216" lon="16.3568083" version="1" timestamp="2022-07-13T06:05:00Z" changeset="123545445" uid="3497659" user="NKA">
		<tag k="name" v="Kjøpsvik" />
		<tag k="place" v="locality" />
		<tag k="ssr:stedsnr" v="1076516" />
	</node>
	<node id="9884378096" lat="68.3830369" lon="16.8903091" version="1" timestamp="2022-07-13T06:05:00Z" changeset="123545445" uid="3497659" user="NKA">
		<tag k="name" v="Bø" />
		<tag k="place" v="hamlet" />
		<tag k="ssr:stedsnr" v="928959" />
	</node>
	<node id="9884378097" lat="68.0965063" lon="16.3617548" version="1" timestamp="2022-07-13T06:05:00Z" changeset="123545445" uid="3497659" user="NKA">
		<tag k="name" v="Kleiva" />
		<tag k="place" v="neighbourhood" />
		<tag k="ssr:stedsnr" v="871729" />
	</node>
	<node id="9884378098" lat="68.3928861" lon="16.8603112" version="1" timestamp="2022-07-13T06:05:00Z" changeset="123545445" uid="3497659" user="NKA">
		<tag k="alt_name" v="Norheim" />
		<tag k="name" v="Nordheim" />
		<tag k="place" v="farm" />
		<tag k="ssr:stedsnr" v="928943" />
	</node>
	<node id="9884378099" lat="68.0950223" lon="16.3414417" version="1" timestamp="2022-07-13T06:05:00Z" changeset="123545445" uid="3497659" user="NKA">
		<tag k="alt_name" v="Oldervika" />
		<tag k="name" v="Oldervik" />
		<tag k="place" v="isolated_dwelling" />
		<tag k="ssr:stedsnr" v="867605" />
	</node>
	<node id="9884378100" lat="68.1792" lon="17.5541" version="1" timestamp="2022-07-13T06:05:00Z" changeset="123545445" uid="3497659" user="NKA">
		<tag k="name" v="Grønvoll" />
		<tag k="place" v="farm" />
		<tag k="ssr:stedsnr" v="17709" />
	</node>
	<node id="9884378101" lat="68.2073178" lon="17.5206308" version="1" timestamp="2022-07-13T06:05:00Z" changeset="123545445" uid="3497659" user="NKA">
		<tag k="name" v="Stiberg" />
		<tag k="place" v="farm" />
		<tag k="ssr:stedsnr" v="17725" />
	</node>
	<node id="9884378102" lat="68.1754098" lon="17.5346684" version="1" timestamp="2022-07-13T06:05:00Z" changeset="123545445" uid="3497659" user="NKA">
		<tag k="name" v="Tangen" />
		<tag k="place" v="locality" />
		<tag k="ssr:stedsnr" v="1076505" />
	</node>
	<node id="9884378103" lat="68.5266656" lon="17.4450908" version="1" timestamp="2022-07-13T06:05:00Z" changeset="123545445" uid="3497659" user="NKA">
		<tag k="alt_name" v="Bakkejorden" />
		<tag k="name" v="Bakkejorda" />
		<tag k="place" v="hamlet" />
		<tag k="ssr:stedsnr" v="442654" />
	</node>
	<node id="9884378104" lat="68.1639477" lon="16.4727071" version="1" timestamp="2022-07-13T06:05:00Z" changeset="123545445" uid="3497659" user="NKA">
		<tag k="name" v="Nygård" />
		<tag k="place" v="farm" />
		<tag k="ssr:stedsnr" v="893255" />
	</node>
	<node id="9884378105" lat="68.0394432" lon="16.3666609" version="1" timestamp="2022-07-13T06:05:00Z" changeset="123545445" uid="3497659" user="NKA">
		<tag k="alt_name" v="Tørnes søndre" />
		<tag k="name" v="Søndre Tørnes" />
		<tag k="place" v="farm" />
		<tag k="ssr:stedsnr" v="706193" />
	</node>
	<node id="9884378106" lat="68.0812194" lon="16.3983751" version="1" timestamp="2022-07-13T06:05:00Z" changeset="123545445" uid="3497659" user="NKA">
		<tag k="name" v="Stenseng" />
		<tag k="place" v="locality" />
		<tag k="ssr:stedsnr" v="689707" />
	</node>
	<node id="9884378107" lat="68.0944" lon="16.3506389" version="1" timestamp="2022-07-13T06:05:00Z" changeset="123545445" uid="3497659" user="NKA">
		<tag k="name" v="Sommarset" />
		<tag k="place" v="neighbourhood" />
		<tag k="ssr:stedsnr" v="204719" />
	</node>
	<node id="9884378108" lat="68.3650398" lon="17.0436144" version="1" timestamp="2022-07-13T06:05:00Z" changeset="123545445" uid="3497659" user="NKA">
		<tag k="name" v="Ranset" />
		<tag k="place" v="farm" />
		<tag k="ssr:stedsnr" v="745929" />
	</node>
	<node id="9884378109" lat="68.2573139" lon="17.411175" version="1" timestamp="2022-07-13T06:05:00Z" changeset="123545445" uid="3497659" user="NKA">
		<tag k="name" v="Stongmobakken" />
		<tag k="place" v="neighbourhood" />
		<tag k="ssr:stedsnr" v="662113" />
	</node>
	<node id="9884378110" lat="68.0949332" lon="16.4385081" version="1" timestamp="2022-07-13T06:05:00Z" changeset="123545445" uid="3497659" user="NKA">
		<tag k="name" v="Storvika" />
		<tag k="place" v="locality" />
		<tag k="ssr:stedsnr" v="528305" />
	</node>
	<node id="9884378111" lat="68.3470146" lon="16.786157" version="1" timestamp="2022-07-13T06:05:00Z" changeset="123545445" uid="3497659" user="NKA">
		<tag k="name" v="Kråfjellet" />
		<tag k="place" v="farm" />
		<tag k="ssr:stedsnr" v="692419" />
	</node>
	<node id="9884378112" lat="68.3211552" lon="17.2830175" version="1" timestamp="2022-07-13T06:05:00Z" changeset="123545445" uid="3497659" user="NKA">
		<tag k="alt_name" v="Lengnes nordre ytre" />
		<tag k="name" v="Lengenes ytre" />
		<tag k="place" v="farm" />
		<tag k="ssr:stedsnr" v="692977" />
	</node>
	<node id="9884378113" lat="68.5574167" lon="17.5584473" version="1" timestamp="2022-07-13T06:05:00Z" changeset="123545445" uid="3497659" user="NKA">
		<tag k="name" v="Enrum" />
		<tag k="place" v="farm" />
		<tag k="ssr:stedsnr" v="321662" />
	</node>
	<node id="9884378114" lat="68.3705035" lon="16.8948222" version="1" timestamp="2022-07-13T06:05:00Z" changeset="123545445" uid="3497659" user="NKA">
		<tag k="name" v="Balsnes" />
		<tag k="place" v="hamlet" />
		<tag k="ssr:stedsnr" v="972868" />
	</node>
	<node id="9884378115" lat="68.2962886" lon="17.3569116" version="1" timestamp="2022-07-13T06:05:00Z" changeset="123545445" uid="3497659" user="NKA">
		<tag k="alt_name" v="Sandvik nordre;Sandvika" />
		<tag k="name" v="Nordre Sandvika" />
		<tag k="place" v="farm" />
		<tag k="ssr:stedsnr" v="524671" />
	</node>
	<node id="9884378116" lat="68.2806352" lon="17.3821245" version="1" timestamp="2022-07-13T06:05:00Z" changeset="123545445" uid="3497659" user="NKA">
		<tag k="name" v="Berglund" />
		<tag k="place" v="farm" />
		<tag k="ssr:stedsnr" v="321819" />
	</node>
	<node id="9884378117" lat="68.4188083" lon="16.7432527" version="1" timestamp="2022-07-13T06:05:00Z" changeset="123545445" uid="3497659" user="NKA">
		<tag k="name" v="Aspemoen" />
		<tag k="place" v="farm" />
		<tag k="ssr:stedsnr" v="684470" />
	</node>
	<node id="9884378118" lat="68.3736306" lon="17.2533896" version="1" timestamp="2022-07-13T06:05:00Z" changeset="123545445" uid="3497659" user="NKA">
		<tag k="name" v="Grindjorda" />
		<tag k="place" v="hamlet" />
		<tag k="ssr:stedsnr" v="685970" />
	</node>
	<node id="9884378119" lat="68.36255" lon="16.8743834" version="1" timestamp="2022-07-13T06:05:00Z" changeset="123545445" uid="3497659" user="NKA">
		<tag k="name" v="Brenna" />
		<tag k="place" v="farm" />
		<tag k="ssr:stedsnr" v="928940" />
	</node>
	<node id="9884378120" lat="68.3041889" lon="17.3349528" version="1" timestamp="2022-07-13T06:05:00Z" changeset="123545445" uid="3497659" user="NKA">
		<tag k="name" v="Fredheim" />
		<tag k="place" v="farm" />
		<tag k="ssr:stedsnr" v="464887" />
	</node>
	<node id="9884378121" lat="68.4139966" lon="16.7592412" version="1" timestamp="2022-07-13T06:05:00Z" changeset="123545445" uid="3497659" user="NKA">
		<tag k="name" v="Pundsvika" />
		<tag k="place" v="hamlet" />
		<tag k="ssr:stedsnr" v="545723" />
	</node>
	<node id="9884378122" lat="68.2540943" lon="17.4018147" version="1" timestamp="2022-07-13T06:05:00Z" changeset="123545445" uid="3497659" user="NKA">
		<tag k="name" v="Pundsletta" />
		<tag k="place" v="locality" />
		<tag k="ssr:stedsnr" v="449567" />
	</node>
	<node id="9884378123" lat="68.1416006" lon="16.335455" version="1" timestamp="2022-07-13T06:05:00Z" changeset="123545445" uid="3497659" user="NKA">
		<tag k="name" v="Nes" />
		<tag k="place" v="farm" />
		<tag k="ssr:stedsnr" v="562628" />
	</node>
	<node id="9884378124" lat="68.252583" lon="17.3979945" version="1" timestamp="2022-07-13T06:05:00Z" changeset="123545445" uid="3497659" user="NKA">
		<tag k="alt_name" v="Elvegården" />
		<tag k="name" v="Søndre Elvegården" />
		<tag k="place" v="farm" />
		<tag k="ssr:stedsnr" v="260789" />
	</node>
	<node id="9884378125" lat="68.3853406" lon="17.1922604" version="1" timestamp="2022-07-13T06:05:00Z" changeset="123545445" uid="3497659" user="NKA">
		<tag k="name" v="Holtvik" />
		<tag k="place" v="farm" />
		<tag k="ssr:stedsnr" v="503926" />
	</node>
	<node id="9884378126" lat="68.3895348" lon="17.1644524" version="1" timestamp="2022-07-13T06:05:00Z" changeset="123545445" uid="3497659" user="NKA">
		<tag k="name" v="Vidrek" />
		<tag k="place" v="farm" />
		<tag k="ssr:stedsnr" v="813454" />
	</node>
	<node id="9884378127" lat="68.3811669" lon="17.076643" version="1" timestamp="2022-07-13T06:05:00Z" changeset="123545445" uid="3497659" user="NKA">
		<tag k="name" v="Nygård" />
		<tag k="place" v="hamlet" />
		<tag k="ssr:stedsnr" v="503947" />
	</node>
	<node id="9884378128" lat="68.3766102" lon="17.0429648" version="1" timestamp="2022-07-13T06:05:00Z" changeset="123545445" uid="3497659" user="NKA">
		<tag k="name" v="Saltvika" />
		<tag k="place" v="hamlet" />
		<tag k="ssr:stedsnr" v="443965" />
	</node>
	<node id="9884378129" lat="68.3109778" lon="16.7169582" version="1" timestamp="2022-07-13T06:05:00Z" changeset="123545445" uid="3497659" user="NKA">
		<tag k="name" v="Elvenes" />
		<tag k="place" v="farm" />
		<tag k="ssr:stedsnr" v="502624" />
	</node>
	<node id="9884378130" lat="68.0631611" lon="16.3631556" version="1" timestamp="2022-07-13T06:05:00Z" changeset="123545445" uid="3497659" user="NKA">
		<tag k="name" v="Mokki" />
		<tag k="place" v="isolated_dwelling" />
		<tag k="ssr:stedsnr" v="628677" />
	</node>
	<node id="9884378131" lat="68.3733195" lon="16.8924778" version="1" timestamp="2022-07-13T06:05:00Z" changeset="123545445" uid="3497659" user="NKA">
		<tag k="name" v="Sletta" />
		<tag k="place" v="farm" />
		<tag k="ssr:stedsnr" v="806916" />
	</node>
	<node id="9884378132" lat="68.3849146" lon="16.7133177" version="1" timestamp="2022-07-13T06:05:00Z" changeset="123545445" uid="3497659" user="NKA">
		<tag k="name" v="Storhaugen" />
		<tag k="place" v="hamlet" />
		<tag k="ssr:stedsnr" v="806757" />
	</node>
	<node id="9884378133" lat="68.3130704" lon="17.0679701" version="1" timestamp="2022-07-13T06:05:00Z" changeset="123545445" uid="3497659" user="NKA">
		<tag k="name" v="Eiterelvmoen" />
		<tag k="place" v="farm" />
		<tag k="ssr:stedsnr" v="443826" />
	</node>
	<node id="9884378134" lat="68.5573945" lon="17.6540222" version="1" timestamp="2022-07-13T06:05:00Z" changeset="123545445" uid="3497659" user="NKA">
		<tag k="name" v="Gammelgården - Jávregeahči" />
		<tag k="name:no" v="Gammelgården" />
		<tag k="name:se" v="Jávregeahči" />
		<tag k="place" v="farm" />
		<tag k="ssr:stedsnr" v="86468" />
	</node>
	<node id="9884378135" lat="68.3197139" lon="17.0583084" version="1" timestamp="2022-07-13T06:05:00Z" changeset="123545445" uid="3497659" user="NKA">
		<tag k="alt_name" v="Nordmoen, nedre" />
		<tag k="name" v="Nedre Nordmoen" />
		<tag k="place" v="farm" />
		<tag k="ssr:stedsnr" v="382833" />
	</node>
	<node id="9884378136" lat="68.3740699" lon="16.8909332" version="1" timestamp="2022-07-13T06:05:00Z" changeset="123545445" uid="3497659" user="NKA">
		<tag k="alt_name" v="Elvesletta" />
		<tag k="name" v="Elvsletta" />
		<tag k="place" v="farm" />
		<tag k="ssr:stedsnr" v="753282" />
	</node>
	<node id="9884378137" lat="68.5582098" lon="17.645739" version="1" timestamp="2022-07-13T06:05:00Z" changeset="123545445" uid="3497659" user="NKA">
		<tag k="name" v="Vassbakken - Jávregeahči" />
		<tag k="name:no" v="Vassbakken" />
		<tag k="name:se" v="Jávregeahči" />
		<tag k="place" v="farm" />
		<tag k="ssr:stedsnr" v="928646" />
	</node>
	<node id="9884378138" lat="68.3443611" lon="16.9049527" version="1" timestamp="2022-07-13T06:05:00Z" changeset="123545445" uid="3497659" user="NKA">
		<tag k="name" v="Krokdalen" />
		<tag k="place" v="farm" />
		<tag k="ssr:stedsnr" v="753315" />
	</node>
	<node id="9884378139" lat="68.3493055" lon="16.9341138" version="1" timestamp="2022-07-13T06:05:00Z" changeset="123545445" uid="3497659" user="NKA">
		<tag k="name" v="Skjellneset" />
		<tag k="place" v="farm" />
		<tag k="ssr:stedsnr" v="753317" />
	</node>
	<node id="9884378140" lat="68.2880429" lon="17.2998872" version="1" timestamp="2022-07-13T06:05:00Z" changeset="123545445" uid="3497659" user="NKA">
		<tag k="name" v="Slettjorda" />
		<tag k="place" v="farm" />
		<tag k="ssr:stedsnr" v="320828" />
	</node>
	<node id="9884378141" lat="68.3200723" lon="16.7820417" version="1" timestamp="2022-07-13T06:05:00Z" changeset="123545445" uid="3497659" user="NKA">
		<tag k="name" v="Midtsynken" />
		<tag k="place" v="farm" />
		<tag k="ssr:stedsnr" v="328397" />
	</node>
	<node id="9884378142" lat="68.4103494" lon="16.6873114" version="1" timestamp="2022-07-13T06:05:00Z" changeset="123545445" uid="3497659" user="NKA">
		<tag k="name" v="Skårnes" />
		<tag k="place" v="hamlet" />
		<tag k="ssr:stedsnr" v="745786" />
	</node>
	<node id="9884378143" lat="68.2530861" lon="17.4039999" version="1" timestamp="2022-07-13T06:05:00Z" changeset="123545445" uid="3497659" user="NKA">
		<tag k="name" v="Tangen" />
		<tag k="place" v="farm" />
		<tag k="ssr:stedsnr" v="207562" />
	</node>
	<node id="9884378144" lat="68.3450167" lon="16.8374499" version="1" timestamp="2022-07-13T06:05:00Z" changeset="123545445" uid="3497659" user="NKA">
		<tag k="name" v="Bakkehaug" />
		<tag k="place" v="farm" />
		<tag k="ssr:stedsnr" v="321880" />
	</node>
	<node id="9884378145" lat="68.3031611" lon="17.3581556" version="1" timestamp="2022-07-13T06:05:00Z" changeset="123545445" uid="3497659" user="NKA">
		<tag k="name" v="Nergammen" />
		<tag k="place" v="locality" />
		<tag k="ssr:stedsnr" v="160670" />
	</node>
	<node id="9884378146" lat="68.3083865" lon="17.0680546" version="1" timestamp="2022-07-13T06:05:00Z" changeset="123545445" uid="3497659" user="NKA">
		<tag k="name" v="Bakkeli" />
		<tag k="place" v="farm" />
		<tag k="ssr:stedsnr" v="261839" />
	</node>
	<node id="9884378147" lat="68.5624519" lon="17.6922287" version="1" timestamp="2022-07-13T06:05:00Z" changeset="123545445" uid="3497659" user="NKA">
		<tag k="name" v="Nordgård" />
		<tag k="place" v="farm" />
		<tag k="ssr:stedsnr" v="200693" />
	</node>
	<node id="9884378148" lat="68.0408472" lon="16.3685944" version="1" timestamp="2022-07-13T06:05:00Z" changeset="123545445" uid="3497659" user="NKA">
		<tag k="name" v="Lia" />
		<tag k="place" v="farm" />
		<tag k="ssr:stedsnr" v="285141" />
	</node>
	<node id="9884378149" lat="68.3887278" lon="16.8569138" version="1" timestamp="2022-07-13T06:05:00Z" changeset="123545445" uid="3497659" user="NKA">
		<tag k="name" v="Nordgård" />
		<tag k="place" v="farm" />
		<tag k="ssr:stedsnr" v="79929" />
	</node>
	<node id="9884378150" lat="68.1222" lon="16.4236249" version="1" timestamp="2022-07-13T06:05:00Z" changeset="123545445" uid="3497659" user="NKA">
		<tag k="name" v="Sørli" />
		<tag k="place" v="farm" />
		<tag k="ssr:stedsnr" v="346282" />
	</node>
	<node id="9884378151" lat="68.3098578" lon="17.0644146" version="1" timestamp="2022-07-13T06:05:00Z" changeset="123545445" uid="3497659" user="NKA">
		<tag k="name" v="Elvesæter" />
		<tag k="place" v="farm" />
		<tag k="ssr:stedsnr" v="79856" />
	</node>
	<node id="9884378152" lat="68.0808051" lon="16.3983262" version="1" timestamp="2022-07-13T06:05:00Z" changeset="123545445" uid="3497659" user="NKA">
		<tag k="name" v="Lapplæger" />
		<tag k="place" v="isolated_dwelling" />
		<tag k="ssr:stedsnr" v="224035" />
	</node>
	<node id="9884378153" lat="68.3257015" lon="17.2904405" version="1" timestamp="2022-07-13T06:05:00Z" changeset="123545445" uid="3497659" user="NKA">
		<tag k="name" v="Hallarvik" />
		<tag k="place" v="farm" />
		<tag k="ssr:stedsnr" v="1076498" />
	</node>
	<node id="9884378154" lat="68.5685669" lon="17.5705223" version="1" timestamp="2022-07-13T06:05:00Z" changeset="123545445" uid="3497659" user="NKA">
		<tag k="name" v="Skoglund" />
		<tag k="place" v="farm" />
		<tag k="ssr:stedsnr" v="867739" />
	</node>
	<node id="9884378155" lat="68.4153978" lon="17.3799761" version="1" timestamp="2022-07-13T06:05:00Z" changeset="123545445" uid="3497659" user="NKA">
		<tag k="name" v="Ankenes" />
		<tag k="place" v="locality" />
		<tag k="ssr:stedsnr" v="1076489" />
	</node>
	<node id="9884378156" lat="68.0981722" lon="16.3833001" version="1" timestamp="2022-07-13T06:05:00Z" changeset="123545445" uid="3497659" user="NKA">
		<tag k="name" v="Prestgården" />
		<tag k="place" v="farm" />
		<tag k="ssr:stedsnr" v="142758" />
	</node>
	<node id="9884378157" lat="68.5743063" lon="17.5761896" version="1" timestamp="2022-07-13T06:05:00Z" changeset="123545445" uid="3497659" user="NKA">
		<tag k="alt_name" v="Lille Bjerkvik" />
		<tag k="name" v="Bjerkvik" />
		<tag k="place" v="farm" />
		<tag k="ssr:stedsnr" v="1076466" />
	</node>
	<node id="9884378158" lat="68.0282695" lon="16.4787611" version="1" timestamp="2022-07-13T06:05:00Z" changeset="123545445" uid="3497659" user="NKA">
		<tag k="name" v="Sommarset" />
		<tag k="place" v="isolated_dwelling" />
		<tag k="ssr:stedsnr" v="103210" />
	</node>
	<node id="9884378159" lat="68.0710917" lon="16.3817112" version="1" timestamp="2022-07-13T06:05:00Z" changeset="123545445" uid="3497659" user="NKA">
		<tag k="name" v="Stranda" />
		<tag k="place" v="farm" />
		<tag k="ssr:stedsnr" v="142706" />
	</node>
	<node id="9884378160" lat="68.4244587" lon="17.4393612" version="1" timestamp="2022-07-13T06:05:00Z" changeset="123545445" uid="3497659" user="NKA">
		<tag k="name" v="Narvik" />
		<tag k="place" v="locality" />
		<tag k="ssr:stedsnr" v="1076485" />
	</node>
	<node id="9884378161" lat="68.3188488" lon="17.2905494" version="1" timestamp="2022-07-13T06:05:00Z" changeset="123545445" uid="3497659" user="NKA">
		<tag k="alt_name" v="Lengenes" />
		<tag k="name" v="Lengnes" />
		<tag k="place" v="hamlet" />
		<tag k="ssr:stedsnr" v="1075779" />
	</node>
	<node id="9884378162" lat="68.5465167" lon="17.5120749" version="1" timestamp="2022-07-13T06:05:00Z" changeset="123545445" uid="3497659" user="NKA">
		<tag k="name" v="Løberg" />
		<tag k="place" v="farm" />
		<tag k="ssr:stedsnr" v="450339" />
	</node>
	<node id="9884378163" lat="68.2566583" lon="17.4062916" version="1" timestamp="2022-07-13T06:05:00Z" changeset="123545445" uid="3497659" user="NKA">
		<tag k="alt_name" v="Nordre Elvegård" />
		<tag k="name" v="Nordre Elvegården" />
		<tag k="place" v="farm" />
		<tag k="ssr:stedsnr" v="909255" />
	</node>
	<node id="9884378164" lat="68.5524773" lon="17.7126202" version="1" timestamp="2022-07-13T06:05:00Z" changeset="123545445" uid="3497659" user="NKA">
		<tag k="name" v="Øvre Hartvikvatnet" />
		<tag k="place" v="farm" />
		<tag k="ssr:stedsnr" v="1076472" />
	</node>
	<node id="9884378165" lat="68.0872972" lon="16.4081566" version="1" timestamp="2022-07-13T06:05:00Z" changeset="123545445" uid="3497659" user="NKA">
		<tag k="name" v="Njássje - Nes" />
		<tag k="name:no" v="Nes" />
		<tag k="name:smj" v="Njássje" />
		<tag k="old_name:smj" v="Nášši" />
		<tag k="place" v="farm" />
		<tag k="ssr:stedsnr" v="77553" />
	</node>
	<node id="9884378166" lat="68.3513" lon="16.8158805" version="1" timestamp="2022-07-13T06:05:00Z" changeset="123545445" uid="3497659" user="NKA">
		<tag k="name" v="Haugen" />
		<tag k="place" v="farm" />
		<tag k="ssr:stedsnr" v="442721" />
	</node>
	<node id="6894759470" lat="68.3702985" lon="17.2326425" version="1" timestamp="2019-10-18T06:32:59Z" changeset="75873301" uid="3497659" user="NKA" />
	<node id="268526" lat="68.3712865" lon="17.248392" version="7" timestamp="2019-10-18T06:32:59Z" changeset="75873301" uid="3497659" user="NKA" />
	<node id="2421710035" lat="68.3713071" lon="17.2486828" version="2" timestamp="2019-10-18T06:32:59Z" changeset="75873301" uid="3497659" user="NKA" />
	<node id="6894759469" lat="68.371336" lon="17.2489848" version="1" timestamp="2019-10-18T06:32:59Z" changeset="75873301" uid="3497659" user="NKA" />
	<node id="268525" lat="68.3713656" lon="17.249247" version="6" timestamp="2019-10-18T06:32:59Z" changeset="75873301" uid="3497659" user="NKA" />
	<node id="6894759468" lat="68.3714324" lon="17.249727" version="1" timestamp="2019-10-18T06:32:59Z" changeset="75873301" uid="3497659" user="NKA" />
	<node id="78497" lat="68.4063681" lon="17.4194202" version="7" timestamp="2022-05-19T16:03:30Z" changeset="121202669" uid="3497659" user="NKA" />
	<node id="1199529602" lat="68.4088842" lon="17.4255475" version="1" timestamp="2011-03-13T00:56:28Z" changeset="7540076" uid="32112" user="SverigeFan" />
	<node id="932436708" lat="68.4534715" lon="17.4811535" version="4" timestamp="2019-01-25T14:42:15Z" changeset="66633928" uid="605010" user="Noen" />
	<node id="1245184202" lat="68.4525621" lon="17.4797415" version="3" timestamp="2019-01-25T14:42:15Z" changeset="66633928" uid="605010" user="Noen" />
	<node id="3937976891" lat="68.4527572" lon="17.4801653" version="2" timestamp="2019-01-25T14:42:15Z" changeset="66633928" uid="605010" user="Noen" />
	<node id="3937976893" lat="68.4530267" lon="17.4806404" version="2" timestamp="2019-01-25T14:42:15Z" changeset="66633928" uid="605010" user="Noen" />
	<node id="3937976895" lat="68.4532258" lon="17.4809068" version="2" timestamp="2019-01-25T14:42:15Z" changeset="66633928" uid="605010" user="Noen" />
	<node id="3937976897" lat="68.4533529" lon="17.4810411" version="2" timestamp="2019-01-25T14:42:15Z" changeset="66633928" uid="605010" user="Noen" />
	<node id="3937976900" lat="68.4537008" lon="17.4813251" version="2" timestamp="2019-01-25T14:42:15Z" changeset="66633928" uid="605010" user="Noen" />
	<node id="3937976902" lat="68.4539114" lon="17.4814208" version="2" timestamp="2019-01-25T14:42:15Z" changeset="66633928" uid="605010" user="Noen" />
	<node id="3937976904" lat="68.4541729" lon="17.4814822" version="2" timestamp="2019-01-25T14:42:15Z" changeset="66633928" uid="605010" user="Noen" />
	<node id="3937976906" lat="68.4544509" lon="17.4815185" version="3" timestamp="2019-01-25T14:42:15Z" changeset="66633928" uid="605010" user="Noen" />
	<node id="6236302100" lat="68.4535961" lon="17.4812534" version="1" timestamp="2019-01-25T14:42:14Z" changeset="66633928" uid="605010" user="Noen" />
	<node id="6236302101" lat="68.4538069" lon="17.4813786" version="1" timestamp="2019-01-25T14:42:14Z" changeset="66633928" uid="605010" user="Noen" />
	<node id="6236302102" lat="68.4540261" lon="17.4814491" version="1" timestamp="2019-01-25T14:42:14Z" changeset="66633928" uid="605010" user="Noen" />
	<node id="6236302103" lat="68.4543005" lon="17.4814984" version="1" timestamp="2019-01-25T14:42:14Z" changeset="66633928" uid="605010" user="Noen" />
	<node id="6236302109" lat="68.4531196" lon="17.4807716" version="1" timestamp="2019-01-25T14:42:14Z" changeset="66633928" uid="605010" user="Noen" />
	<node id="6236302110" lat="68.4528535" lon="17.4803467" version="1" timestamp="2019-01-25T14:42:14Z" changeset="66633928" uid="605010" user="Noen" />
	<node id="6236302113" lat="68.4529331" lon="17.4804918" version="1" timestamp="2019-01-25T14:42:14Z" changeset="66633928" uid="605010" user="Noen" />
	<node id="6236302114" lat="68.4526685" lon="17.4799818" version="1" timestamp="2019-01-25T14:42:14Z" changeset="66633928" uid="605010" user="Noen" />
	<node id="6236302132" lat="68.4524648" lon="17.4795055" version="1" timestamp="2019-01-25T14:42:14Z" changeset="66633928" uid="605010" user="Noen" />
	<node id="3937976914" lat="68.467077" lon="17.4821287" version="2" timestamp="2019-01-25T14:42:15Z" changeset="66633928" uid="605010" user="Noen" />
	<node id="3937976949" lat="68.4682135" lon="17.4821911" version="2" timestamp="2019-01-25T14:42:15Z" changeset="66633928" uid="605010" user="Noen" />
	<node id="5874028292" lat="68.4648749" lon="17.4820128" version="2" timestamp="2019-01-25T14:42:15Z" changeset="66633928" uid="605010" user="Noen">
		<tag k="bridge:support" v="pier" />
	</node>
	<node id="9755010573" lat="68.4662726" lon="17.4820864" version="1" timestamp="2022-05-19T16:03:30Z" changeset="121202669" uid="3497659" user="NKA" />
	<node id="21522264" lat="68.5460153" lon="17.5633004" version="10" timestamp="2018-09-02T00:05:04Z" changeset="62208891" uid="32112" user="SverigeFan" />
	<node id="1581164000" lat="68.5462305" lon="17.5629239" version="3" timestamp="2018-09-02T00:05:09Z" changeset="62208891" uid="32112" user="SverigeFan" />
	<node id="289222543" lat="68.439919" lon="17.7073249" version="7" timestamp="2019-10-18T11:14:51Z" changeset="75887714" uid="3497659" user="NKA" />
	<node id="380865799" lat="68.4442863" lon="17.7016215" version="5" timestamp="2019-10-18T11:14:51Z" changeset="75887714" uid="3497659" user="NKA" />
	<node id="380865800" lat="68.4436965" lon="17.7021425" version="7" timestamp="2019-10-18T11:14:51Z" changeset="75887714" uid="3497659" user="NKA" />
	<node id="2588504900" lat="68.444" lon="17.7018314" version="3" timestamp="2019-10-18T11:14:51Z" changeset="75887714" uid="3497659" user="NKA" />
	<node id="2588504913" lat="68.4446091" lon="17.7014735" version="3" timestamp="2019-10-18T11:14:51Z" changeset="75887714" uid="3497659" user="NKA" />
	<node id="2589534951" lat="68.4429242" lon="17.7031911" version="3" timestamp="2019-10-18T11:14:51Z" changeset="75887714" uid="3497659" user="NKA" />
	<node id="6236261263" lat="68.4444081" lon="17.7015555" version="2" timestamp="2019-10-18T11:14:51Z" changeset="75887714" uid="3497659" user="NKA" />
	<node id="6236261264" lat="68.4441625" lon="17.7017066" version="2" timestamp="2019-10-18T11:14:51Z" changeset="75887714" uid="3497659" user="NKA" />
	<node id="6236261265" lat="68.4437939" lon="17.7020314" version="2" timestamp="2019-10-18T11:14:51Z" changeset="75887714" uid="3497659" user="NKA" />
	<node id="6895547216" lat="68.4446928" lon="17.7014567" version="1" timestamp="2019-10-18T11:14:51Z" changeset="75887714" uid="3497659" user="NKA" />
	<node id="2589534944" lat="68.4387534" lon="17.7087032" version="3" timestamp="2019-10-18T11:14:51Z" changeset="75887714" uid="3497659" user="NKA" />
	<node id="6236261226" lat="68.4391947" lon="17.7083036" version="2" timestamp="2019-10-18T11:14:51Z" changeset="75887714" uid="3497659" user="NKA" />
	<node id="6236261227" lat="68.4388394" lon="17.7086466" version="2" timestamp="2019-10-18T11:14:51Z" changeset="75887714" uid="3497659" user="NKA" />
	<node id="6236261228" lat="68.4385809" lon="17.7087907" version="2" timestamp="2019-10-18T11:14:51Z" changeset="75887714" uid="3497659" user="NKA" />
	<node id="6236261232" lat="68.4390234" lon="17.7084881" version="2" timestamp="2019-10-18T11:14:51Z" changeset="75887714" uid="3497659" user="NKA" />
	<node id="6895547206" lat="68.4385152" lon="17.7088175" version="1" timestamp="2019-10-18T11:14:51Z" changeset="75887714" uid="3497659" user="NKA" />
	<way id="4589792" version="16" timestamp="2022-05-19T16:03:30Z" changeset="121202669" uid="3497659" user="NKA">
		<tag k="alt_name" v="Skjomenbrua" />
		<tag k="bridge" v="yes" />
		<tag k="bridge:description" v="Skjomen" />
		<tag k="bridge:structure" v="suspension" />
		<tag k="highway" v="trunk" />
		<tag k="layer" v="1" />
		<tag k="maxspeed" v="80" />
		<tag k="name" v="Skjombrua" />
		<tag k="ref" v="E 6" />
		<tag k="ssr:stedsnr" v="138959" />
		<tag k="surface" v="concrete" />
		<tag k="wikidata" v="Q1774942" />
		<nd ref="6894759470" />
		<nd ref="268526" />
		<nd ref="2421710035" />
		<nd ref="6894759469" />
		<nd ref="268525" />
		<nd ref="6894759468" />
	</way>
	<way id="26400368" version="15" timestamp="2022-05-19T16:03:30Z" changeset="121202669" uid="3497659" user="NKA">
		<tag k="bridge" v="yes" />
		<tag k="bridge:structure" v="suspension" />
		<tag k="highway" v="secondary" />
		<tag k="layer" v="1" />
		<tag k="maxspeed" v="80" />
		<tag k="name" v="Rombaksbrua" />
		<tag k="old_ref" v="E 6" />
		<tag k="ref" v="7575" />
		<tag k="ssr:stedsnr" v="442226" />
		<nd ref="6895547206" />
		<nd ref="6236261228" />
		<nd ref="2589534944" />
		<nd ref="6236261227" />
		<nd ref="6236261232" />
		<nd ref="6236261226" />
		<nd ref="289222543" />
		<nd ref="2589534951" />
		<nd ref="380865800" />
		<nd ref="6236261265" />
		<nd ref="2588504900" />
		<nd ref="6236261264" />
		<nd ref="380865799" />
		<nd ref="6236261263" />
		<nd ref="2588504913" />
		<nd ref="6895547216" />
	</way>
	<way id="79877191" version="22" timestamp="2022-05-19T16:03:30Z" changeset="121202669" uid="3497659" user="NKA">
		<tag k="bridge" v="yes" />
		<tag k="bridge:structure" v="suspension" />
		<tag k="highway" v="trunk" />
		<tag k="layer" v="1" />
		<tag k="lit" v="yes" />
		<tag k="maxspeed" v="80" />
		<tag k="name" v="Hålogalandsbrua - Holgolátrovvi" />
		<tag k="name:no" v="Hålogalandsbrua" />
		<tag k="name:se" v="Holgolátrovvi" />
		<tag k="name:tr" v="Halogaland Köprüsü" />
		<tag k="ref" v="E 6" />
		<tag k="ssr:stedsnr" v="984146" />
		<tag k="surface" v="asphalt" />
		<tag k="toll" v="yes" />
		<tag k="wikidata" v="Q11976408" />
		<tag k="wikipedia" v="no:Hålogalandsbrua" />
		<nd ref="6236302132" />
		<nd ref="1245184202" />
		<nd ref="6236302114" />
		<nd ref="3937976891" />
		<nd ref="6236302110" />
		<nd ref="6236302113" />
		<nd ref="3937976893" />
		<nd ref="6236302109" />
		<nd ref="3937976895" />
		<nd ref="3937976897" />
		<nd ref="932436708" />
		<nd ref="6236302100" />
		<nd ref="3937976900" />
		<nd ref="6236302101" />
		<nd ref="3937976902" />
		<nd ref="6236302102" />
		<nd ref="3937976904" />
		<nd ref="6236302103" />
		<nd ref="3937976906" />
		<nd ref="5874028292" />
		<nd ref="9755010573" />
		<nd ref="3937976914" />
	</way>
	<way id="103924784" version="6" timestamp="2022-05-19T16:03:30Z" changeset="121202669" uid="3497659" user="NKA">
		<tag k="bridge" v="yes" />
		<tag k="bridge:description" v="Beisfjord" />
		<tag k="bridge:structure" v="beam" />
		<tag k="highway" v="trunk" />
		<tag k="layer" v="1" />
		<tag k="maxspeed" v="60" />
		<tag k="name" v="Beisfjordbrua" />
		<tag k="ref" v="E 6" />
		<tag k="ssr:stedsnr" v="510542" />
		<tag k="wikidata" v="Q1777369" />
		<nd ref="1199529602" />
		<nd ref="78497" />
	</way>
	<way id="144571279" version="4" timestamp="2022-05-19T16:03:30Z" changeset="121202669" uid="3497659" user="NKA">
		<tag k="bridge" v="yes" />
		<tag k="bridge:description" v="Elvegårdselv" />
		<tag k="highway" v="trunk" />
		<tag k="layer" v="1" />
		<tag k="maxspeed" v="70" />
		<tag k="name" v="Elvegårdsbrua" />
		<tag k="ref" v="E 6;E 10" />
		<tag k="ssr:stedsnr" v="510427" />
		<nd ref="21522264" />
		<nd ref="1581164000" />
	</way>
	<way id="390633768" version="8" timestamp="2022-05-19T16:03:30Z" changeset="121202669" uid="3497659" user="NKA">
		<tag k="bridge" v="yes" />
		<tag k="bridge:description" v="Øyjord bru" />
		<tag k="bridge:structure" v="beam" />
		<tag k="highway" v="trunk" />
		<tag k="layer" v="1" />
		<tag k="maxspeed" v="80" />
		<tag k="name" v="Øyjordbrua" />
		<tag k="ref" v="E 6" />
		<tag k="ssr:stedsnr" v="984156" />
		<tag k="surface" v="asphalt" />
		<tag k="toll" v="yes" />
		<nd ref="3937976914" />
		<nd ref="3937976949" />
	</way>
</osm>
