<?xml version="1.0" encoding="UTF-8"?>
<osm generator="osmapis" version="0.6">
	<node id="-406482" lat="58.9446333339" lon="5.55477500834">
		<tag k="name" v="Nesjaflu lysbøye" />
		<tag k="ssr:date" v="2016-05-10" />
		<tag k="ssr:gruppe" v="navigasjon" />
		<tag k="ssr:hovedgruppe" v="infrastruktur" />
		<tag k="ssr:stedsnr" v="284679" />
		<tag k="ssr:type" v="lysbøye" />
	</node>
	<node id="-407118" lat="58.9007239469" lon="5.61457726406">
		<tag k="name" v="Gotebergveien" />
		<tag k="ssr:date" v="2019-05-30" />
		<tag k="ssr:gruppe" v="veg" />
		<tag k="ssr:hovedgruppe" v="infrastruktur" />
		<tag k="ssr:stedsnr" v="980183" />
		<tag k="ssr:type" v="adressenavn" />
	</node>
	<node id="-407117" lat="58.9562129697" lon="5.59766979571">
		<tag k="name" v="Bakkelandstunet" />
		<tag k="ssr:date" v="2019-05-30" />
		<tag k="ssr:gruppe" v="veg" />
		<tag k="ssr:hovedgruppe" v="infrastruktur" />
		<tag k="ssr:stedsnr" v="980176" />
		<tag k="ssr:type" v="adressenavn" />
	</node>
	<node id="-407116" lat="58.9341667681" lon="5.5870571132">
		<tag k="name" v="Nornevegen" />
		<tag k="ssr:date" v="2019-05-30" />
		<tag k="ssr:gruppe" v="veg" />
		<tag k="ssr:hovedgruppe" v="infrastruktur" />
		<tag k="ssr:stedsnr" v="980173" />
		<tag k="ssr:type" v="adressenavn" />
	</node>
	<node id="-407115" lat="58.8852338395" lon="5.66312636538">
		<tag k="name" v="Kjelsbergbakken" />
		<tag k="ssr:date" v="2019-05-30" />
		<tag k="ssr:gruppe" v="veg" />
		<tag k="ssr:hovedgruppe" v="infrastruktur" />
		<tag k="ssr:stedsnr" v="979957" />
		<tag k="ssr:type" v="adressenavn" />
	</node>
	<node id="-407114" lat="58.9254795564" lon="5.61707109309">
		<tag k="name" v="Grindaskaret" />
		<tag k="ssr:date" v="2019-05-30" />
		<tag k="ssr:gruppe" v="veg" />
		<tag k="ssr:hovedgruppe" v="infrastruktur" />
		<tag k="ssr:stedsnr" v="979956" />
		<tag k="ssr:type" v="adressenavn" />
	</node>
	<node id="-407113" lat="58.8507428844" lon="5.56938640256">
		<tag k="name" v="Vetesvingen" />
		<tag k="ssr:date" v="2019-05-30" />
		<tag k="ssr:gruppe" v="veg" />
		<tag k="ssr:hovedgruppe" v="infrastruktur" />
		<tag k="ssr:stedsnr" v="979955" />
		<tag k="ssr:type" v="adressenavn" />
	</node>
	<node id="-407112" lat="58.8751050349" lon="5.58648216319">
		<tag k="name" v="Strandhagane" />
		<tag k="ssr:date" v="2019-05-30" />
		<tag k="ssr:gruppe" v="veg" />
		<tag k="ssr:hovedgruppe" v="infrastruktur" />
		<tag k="ssr:stedsnr" v="975768" />
		<tag k="ssr:type" v="adressenavn" />
	</node>
	<node id="-407111" lat="58.9321216869" lon="5.69663685405">
		<tag k="name" v="Novstemmen" />
		<tag k="ssr:date" v="2019-05-30" />
		<tag k="ssr:gruppe" v="veg" />
		<tag k="ssr:hovedgruppe" v="infrastruktur" />
		<tag k="ssr:stedsnr" v="975588" />
		<tag k="ssr:type" v="adressenavn" />
	</node>
	<node id="-407110" lat="58.8842901567" lon="5.67741885152">
		<tag k="name" v="Geilen" />
		<tag k="ssr:date" v="2019-05-30" />
		<tag k="ssr:gruppe" v="veg" />
		<tag k="ssr:hovedgruppe" v="infrastruktur" />
		<tag k="ssr:stedsnr" v="975587" />
		<tag k="ssr:type" v="adressenavn" />
	</node>
	<node id="-407109" lat="58.883114937" lon="5.6816982139">
		<tag k="name" v="Eikefaret" />
		<tag k="ssr:date" v="2019-05-30" />
		<tag k="ssr:gruppe" v="veg" />
		<tag k="ssr:hovedgruppe" v="infrastruktur" />
		<tag k="ssr:stedsnr" v="975586" />
		<tag k="ssr:type" v="adressenavn" />
	</node>
	<node id="-407108" lat="58.8516653339" lon="5.56926038176">
		<tag k="name" v="Kvitheiveien" />
		<tag k="ssr:date" v="2019-05-30" />
		<tag k="ssr:gruppe" v="veg" />
		<tag k="ssr:hovedgruppe" v="infrastruktur" />
		<tag k="ssr:stedsnr" v="975585" />
		<tag k="ssr:type" v="adressenavn" />
	</node>
	<node id="-407107" lat="58.9479415235" lon="5.58258704778">
		<tag k="name" v="Havterneveien" />
		<tag k="ssr:date" v="2019-05-30" />
		<tag k="ssr:gruppe" v="veg" />
		<tag k="ssr:hovedgruppe" v="infrastruktur" />
		<tag k="ssr:stedsnr" v="975581" />
		<tag k="ssr:type" v="adressenavn" />
	</node>
	<node id="-407106" lat="58.9473000937" lon="5.58042415779">
		<tag k="name" v="Havmåkeveien" />
		<tag k="ssr:date" v="2019-05-30" />
		<tag k="ssr:gruppe" v="veg" />
		<tag k="ssr:hovedgruppe" v="infrastruktur" />
		<tag k="ssr:stedsnr" v="975580" />
		<tag k="ssr:type" v="adressenavn" />
	</node>
	<node id="-406977" lat="58.9224068902" lon="5.55546350697">
		<tag k="name" v="Fladholmen fyr" />
		<tag k="ssr:date" v="2016-11-17" />
		<tag k="ssr:gruppe" v="navigasjon" />
		<tag k="ssr:hovedgruppe" v="infrastruktur" />
		<tag k="ssr:stedsnr" v="789002" />
		<tag k="ssr:type" v="fyrstasjon" />
	</node>
	<node id="-407104" lat="58.9477757128" lon="5.57971607128">
		<tag k="name" v="Havsuleveien" />
		<tag k="ssr:date" v="2019-05-30" />
		<tag k="ssr:gruppe" v="veg" />
		<tag k="ssr:hovedgruppe" v="infrastruktur" />
		<tag k="ssr:stedsnr" v="975578" />
		<tag k="ssr:type" v="adressenavn" />
	</node>
	<node id="-407103" lat="60.8816104596" lon="6.30047518531">
		<tag k="name" v="Vestlandet" />
		<tag k="ssr:date" v="2019-01-06" />
		<tag k="ssr:gruppe" v="administrativeIndelinger" />
		<tag k="ssr:hovedgruppe" v="offentligAdministrasjon" />
		<tag k="ssr:stedsnr" v="974777" />
		<tag k="ssr:type" v="annenAdministrativInndeling" />
	</node>
	<node id="-407102" lat="58.9277638118" lon="5.58360541567">
		<tag k="name" v="Melingsholmen lykt" />
		<tag k="ssr:date" v="2016-11-30" />
		<tag k="ssr:gruppe" v="navigasjon" />
		<tag k="ssr:hovedgruppe" v="infrastruktur" />
		<tag k="ssr:stedsnr" v="973043" />
		<tag k="ssr:type" v="fyrlykt" />
	</node>
	<node id="-407097" lat="58.8439833805" lon="5.57684831862">
		<tag k="name" v="Tormodvarden båke" />
		<tag k="ssr:date" v="2016-12-29" />
		<tag k="ssr:gruppe" v="navigasjon" />
		<tag k="ssr:hovedgruppe" v="infrastruktur" />
		<tag k="ssr:stedsnr" v="972919" />
		<tag k="ssr:type" v="båke" />
	</node>
	<node id="-407095" lat="58.9377777814" lon="5.53269443741">
		<tag k="name" v="Nilsagrunnen lysbøye" />
		<tag k="ssr:date" v="2016-05-11" />
		<tag k="ssr:gruppe" v="navigasjon" />
		<tag k="ssr:hovedgruppe" v="infrastruktur" />
		<tag k="ssr:stedsnr" v="968726" />
		<tag k="ssr:type" v="lysbøye" />
	</node>
	<node id="-406580" lat="58.954623568" lon="5.60182785842">
		<tag k="name" v="Jåsundenga" />
		<tag k="ssr:date" v="2019-05-30" />
		<tag k="ssr:gruppe" v="veg" />
		<tag k="ssr:hovedgruppe" v="infrastruktur" />
		<tag k="ssr:stedsnr" v="987415" />
		<tag k="ssr:type" v="adressenavn" />
	</node>
	<node id="-406579" lat="58.9549405324" lon="5.60191842824">
		<tag k="name" v="Jåsundtunet" />
		<tag k="ssr:date" v="2019-05-30" />
		<tag k="ssr:gruppe" v="veg" />
		<tag k="ssr:hovedgruppe" v="infrastruktur" />
		<tag k="ssr:stedsnr" v="987416" />
		<tag k="ssr:type" v="adressenavn" />
	</node>
	<node id="-406578" lat="58.9550389895" lon="5.60156078496">
		<tag k="name" v="Jåsundmarka" />
		<tag k="ssr:date" v="2019-05-30" />
		<tag k="ssr:gruppe" v="veg" />
		<tag k="ssr:hovedgruppe" v="infrastruktur" />
		<tag k="ssr:stedsnr" v="987414" />
		<tag k="ssr:type" v="adressenavn" />
	</node>
	<node id="-406577" lat="58.9551749361" lon="5.59613677133">
		<tag k="name" v="Ekrebuen" />
		<tag k="ssr:date" v="2019-05-30" />
		<tag k="ssr:gruppe" v="veg" />
		<tag k="ssr:hovedgruppe" v="infrastruktur" />
		<tag k="ssr:stedsnr" v="987413" />
		<tag k="ssr:type" v="adressenavn" />
	</node>
	<node id="-406832" lat="58.9304638901" lon="5.53956666328">
		<tag k="name" v="Midtfjæra lanterne" />
		<tag k="ssr:date" v="2016-05-10" />
		<tag k="ssr:gruppe" v="navigasjon" />
		<tag k="ssr:hovedgruppe" v="infrastruktur" />
		<tag k="ssr:stedsnr" v="544698" />
		<tag k="ssr:type" v="lanterne" />
	</node>
	<node id="-406575" lat="58.8779905596" lon="5.66977845101">
		<tag k="name" v="Tronholberget" />
		<tag k="ssr:date" v="2019-05-30" />
		<tag k="ssr:gruppe" v="veg" />
		<tag k="ssr:hovedgruppe" v="infrastruktur" />
		<tag k="ssr:stedsnr" v="987411" />
		<tag k="ssr:type" v="adressenavn" />
	</node>
	<node id="-406574" lat="58.8986801106" lon="5.64890698907">
		<tag k="name" v="Joaflaten" />
		<tag k="ssr:date" v="2019-05-30" />
		<tag k="ssr:gruppe" v="veg" />
		<tag k="ssr:hovedgruppe" v="infrastruktur" />
		<tag k="ssr:stedsnr" v="983794" />
		<tag k="ssr:type" v="adressenavn" />
	</node>
	<node id="-406699" lat="58.8880555529" lon="5.6472777835">
		<tag k="loc_name" v="Sola" />
		<tag k="name" v="Sola kommune" />
		<tag k="ssr:date" v="2017-04-04" />
		<tag k="ssr:gruppe" v="administrativeIndelinger" />
		<tag k="ssr:hovedgruppe" v="offentligAdministrasjon" />
		<tag k="ssr:stedsnr" v="205913" />
		<tag k="ssr:type" v="kommune" />
	</node>
	<node id="-406694" lat="58.9249666709" lon="5.50658611568">
		<tag k="name" v="Rottnesodden lanterne" />
		<tag k="ssr:date" v="2016-05-10" />
		<tag k="ssr:gruppe" v="navigasjon" />
		<tag k="ssr:hovedgruppe" v="infrastruktur" />
		<tag k="ssr:stedsnr" v="183060" />
		<tag k="ssr:type" v="lanterne" />
	</node>
	<node id="-406576" lat="58.9558441591" lon="5.59697544864">
		<tag k="name" v="Ekreveien" />
		<tag k="ssr:date" v="2019-05-30" />
		<tag k="ssr:gruppe" v="veg" />
		<tag k="ssr:hovedgruppe" v="infrastruktur" />
		<tag k="ssr:stedsnr" v="987412" />
		<tag k="ssr:type" v="adressenavn" />
	</node>
	<node id="-406917" lat="58.9469731468" lon="5.53023016165">
		<tag k="name" v="Oksafodskjer lykt" />
		<tag k="ssr:date" v="2016-11-30" />
		<tag k="ssr:gruppe" v="navigasjon" />
		<tag k="ssr:hovedgruppe" v="infrastruktur" />
		<tag k="ssr:stedsnr" v="688981" />
		<tag k="ssr:type" v="fyrlykt" />
	</node>
	<node id="-406682" lat="58.8635070072" lon="5.48796839141">
		<tag k="name" v="Sørskot lanterne" />
		<tag k="ssr:date" v="2016-12-29" />
		<tag k="ssr:gruppe" v="navigasjon" />
		<tag k="ssr:hovedgruppe" v="infrastruktur" />
		<tag k="ssr:stedsnr" v="160815" />
		<tag k="ssr:type" v="lanterne" />
	</node>
	<node id="-406936" lat="58.9286062778" lon="5.5704636008">
		<tag k="name" v="Laksholmbåen lanterne" />
		<tag k="ssr:date" v="2016-12-28" />
		<tag k="ssr:gruppe" v="navigasjon" />
		<tag k="ssr:hovedgruppe" v="infrastruktur" />
		<tag k="ssr:stedsnr" v="708672" />
		<tag k="ssr:type" v="lanterne" />
	</node>
	<node id="-407061" lat="58.8901916684" lon="5.54411667425">
		<tag k="alt_name" v="Kolnesholmane" />
		<tag k="name" v="Kolnesholmane lykt" />
		<tag k="ssr:date" v="2016-05-11" />
		<tag k="ssr:gruppe" v="navigasjon" />
		<tag k="ssr:hovedgruppe" v="infrastruktur" />
		<tag k="ssr:stedsnr" v="911950" />
		<tag k="ssr:type" v="fyrlykt" />
	</node>
	<node id="-407059" lat="58.9314055563" lon="5.57521666747">
		<tag k="name" v="Tananger" />
		<tag k="old_name" v="Tananger lykt" />
		<tag k="ssr:date" v="2016-05-11" />
		<tag k="ssr:gruppe" v="navigasjon" />
		<tag k="ssr:hovedgruppe" v="infrastruktur" />
		<tag k="ssr:stedsnr" v="911071" />
		<tag k="ssr:type" v="fyrlykt" />
	</node>
	<node id="-407105" lat="58.9482872706" lon="5.58206578064">
		<tag k="name" v="Havhestveien" />
		<tag k="ssr:date" v="2019-05-30" />
		<tag k="ssr:gruppe" v="veg" />
		<tag k="ssr:hovedgruppe" v="infrastruktur" />
		<tag k="ssr:stedsnr" v="975579" />
		<tag k="ssr:type" v="adressenavn" />
	</node>
</osm>
