<?xml version="1.0" encoding="UTF-8"?>
<osm generator="osmapis" version="0.6">
	<node id="-520829" lat="61.3087416697" lon="7.84462778594">
		<tag k="layer" v="-1" />
		<tag k="name" v="Rausdal I" />
		<tag k="ssr:stedsnr" v="894419" />
		<tag k="tunnel" v="yes" />
	</node>
	<node id="-520828" lat="61.2837111094" lon="7.93720278272">
		<tag k="layer" v="-1" />
		<tag k="name" v="Biskopgjel" />
		<tag k="ssr:stedsnr" v="894139" />
		<tag k="tunnel" v="yes" />
	</node>
	<node id="-521465" lat="61.3089777752" lon="7.815436115">
		<tag k="bridge" v="yes" />
		<tag k="layer" v="1" />
		<tag k="name" v="Rausdøla" />
		<tag k="ssr:stedsnr" v="652253" />
	</node>
	<node id="-521463" lat="61.2344000027" lon="7.71593889672">
		<tag k="layer" v="-1" />
		<tag k="name" v="Finnsås" />
		<tag k="ssr:stedsnr" v="650393" />
		<tag k="tunnel" v="yes" />
	</node>
	<node id="-520805" lat="61.2747194413" lon="8.02144167467">
		<tag k="bridge" v="yes" />
		<tag k="layer" v="1" />
		<tag k="name" v="Mansberg" />
		<tag k="ssr:stedsnr" v="410301" />
	</node>
	<node id="-520724" lat="61.2642361081" lon="7.76354165922">
		<tag k="layer" v="-1" />
		<tag k="name" v="Steiggja" />
		<tag k="ssr:stedsnr" v="347727" />
		<tag k="tunnel" v="yes" />
	</node>
	<node id="-521058" lat="61.305377775" lon="7.83167500262">
		<tag k="layer" v="-1" />
		<tag k="name" v="Jåteli II" />
		<tag k="ssr:stedsnr" v="165257" />
		<tag k="tunnel" v="yes" />
	</node>
	<node id="-521057" lat="61.2205388882" lon="7.65555555309">
		<tag k="layer" v="-1" />
		<tag k="name" v="Kolnostunnelen" />
		<tag k="ssr:stedsnr" v="142375" />
		<tag k="tunnel" v="yes" />
	</node>
	<node id="-521311" lat="61.30795556" lon="7.81216388872">
		<tag k="bridge" v="yes" />
		<tag k="layer" v="1" />
		<tag k="name" v="Vee Lille" />
		<tag k="ssr:stedsnr" v="531298" />
	</node>
	<node id="-521692" lat="61.2525416658" lon="7.65520556096">
		<tag k="bridge" v="yes" />
		<tag k="layer" v="1" />
		<tag k="name" v="Dalaker" />
		<tag k="ssr:stedsnr" v="835305" />
	</node>
	<node id="-520666" lat="61.2362944452" lon="7.70043888924">
		<tag k="bridge" v="yes" />
		<tag k="layer" v="1" />
		<tag k="name" v="Hæreid" />
		<tag k="ssr:stedsnr" v="289276" />
	</node>
	<node id="-520664" lat="61.2207111086" lon="7.66752499301">
		<tag k="layer" v="-1" />
		<tag k="name" v="Kolnos" />
		<tag k="ssr:stedsnr" v="287296" />
		<tag k="tunnel" v="yes" />
	</node>
	<node id="-521081" lat="61.2404111081" lon="7.63590832917">
		<tag k="alt_name" v="Ofredalstunnelen" />
		<tag k="layer" v="-1" />
		<tag k="name" v="Offerdalstunnelen" />
		<tag k="ssr:stedsnr" v="172818" />
		<tag k="tunnel" v="yes" />
	</node>
	<node id="-520912" lat="61.1934027741" lon="7.55463333553">
		<tag k="layer" v="-1" />
		<tag k="name" v="Timreskred" />
		<tag k="ssr:stedsnr" v="44690" />
		<tag k="tunnel" v="yes" />
	</node>
	<node id="-520910" lat="61.1934361147" lon="7.55465277655">
		<tag k="layer" v="-1" />
		<tag k="name" v="Timreskredtunnelen" />
		<tag k="ssr:stedsnr" v="21406" />
		<tag k="tunnel" v="yes" />
	</node>
	<node id="-521805" lat="61.1820138892" lon="7.48775277033">
		<tag k="layer" v="-1" />
		<tag k="name" v="Bermålstunnelen" />
		<tag k="ssr:stedsnr" v="931398" />
		<tag k="tunnel" v="yes" />
	</node>
	<node id="-520802" lat="61.3066000011" lon="7.8275305536">
		<tag k="layer" v="-1" />
		<tag k="name" v="Rausdal II" />
		<tag k="ssr:stedsnr" v="408402" />
		<tag k="tunnel" v="yes" />
	</node>
	<node id="-520801" lat="61.2850416711" lon="7.76511945357">
		<tag k="layer" v="-1" />
		<tag k="name" v="Midnes" />
		<tag k="ssr:stedsnr" v="408356" />
		<tag k="tunnel" v="yes" />
	</node>
	<node id="-521538" lat="61.2344027782" lon="7.71593332526">
		<tag k="layer" v="-1" />
		<tag k="name" v="Finnsåstunnelen" />
		<tag k="ssr:stedsnr" v="688403" />
		<tag k="tunnel" v="yes" />
	</node>
	<node id="-521133" lat="61.2641555548" lon="7.7635666603">
		<tag k="layer" v="-1" />
		<tag k="name" v="Steiggjetunnelen" />
		<tag k="ssr:stedsnr" v="203408" />
		<tag k="tunnel" v="yes" />
	</node>
	<node id="-520731" lat="61.3068861138" lon="7.8085083368">
		<tag k="bridge" v="yes" />
		<tag k="layer" v="1" />
		<tag k="name" v="Krokåkerhole" />
		<tag k="ssr:stedsnr" v="349344" />
	</node>
	<node id="-521376" lat="61.2426861154" lon="7.63541943663">
		<tag k="highway" v="path" />
		<tag k="name" v="Åsavegen" />
		<tag k="ssr:stedsnr" v="592536" />
	</node>
	<node id="-521373" lat="61.271886107" lon="7.76578056149">
		<tag k="bridge" v="yes" />
		<tag k="layer" v="1" />
		<tag k="name" v="Bremborg" />
		<tag k="ssr:stedsnr" v="592306" />
	</node>
	<node id="-520987" lat="61.2997628896" lon="7.90434789253">
		<tag k="bridge" v="yes" />
		<tag k="layer" v="1" />
		<tag k="name" v="Holsbru" />
		<tag k="ssr:stedsnr" v="107286" />
	</node>
	<node id="-520986" lat="61.1870972239" lon="7.50437499152">
		<tag k="bridge" v="yes" />
		<tag k="layer" v="1" />
		<tag k="name" v="Sagelva" />
		<tag k="ssr:stedsnr" v="107284" />
	</node>
	<node id="-520985" lat="61.2195861152" lon="7.68648888429">
		<tag k="bridge" v="yes" />
		<tag k="layer" v="1" />
		<tag k="name" v="Kvannagjel" />
		<tag k="ssr:stedsnr" v="107283" />
	</node>
	<node id="-520909" lat="61.3027777767" lon="7.79508055704">
		<tag k="layer" v="-1" />
		<tag k="name" v="Naustebukttunnelen" />
		<tag k="ssr:stedsnr" v="21402" />
		<tag k="tunnel" v="yes" />
	</node>
	<node id="-520981" lat="61.3009750033" lon="7.89954721741">
		<tag k="layer" v="-1" />
		<tag k="name" v="Holsbru" />
		<tag k="ssr:stedsnr" v="105517" />
		<tag k="tunnel" v="yes" />
	</node>
	<node id="-520980" lat="61.1821111069" lon="7.48785555986">
		<tag k="layer" v="-1" />
		<tag k="name" v="Bermål" />
		<tag k="ssr:stedsnr" v="105136" />
		<tag k="tunnel" v="yes" />
	</node>
	<node id="-521234" lat="61.2847583339" lon="7.76539999807">
		<tag k="layer" v="-1" />
		<tag k="name" v="Midnestunnelen" />
		<tag k="ssr:stedsnr" v="446401" />
		<tag k="tunnel" v="yes" />
	</node>
	<node id="-521237" lat="61.3437333345" lon="7.87983055894">
		<tag k="bridge" v="yes" />
		<tag k="layer" v="1" />
		<tag k="name" v="Hjelle" />
		<tag k="ssr:stedsnr" v="470264" />
	</node>
	<node id="-521610" lat="61.2744888892" lon="8.13990556434">
		<tag k="bridge" v="yes" />
		<tag k="layer" v="1" />
		<tag k="name" v="Tyinoset" />
		<tag k="ssr:stedsnr" v="774321" />
	</node>
	<node id="-521495" lat="61.4183055567" lon="7.97340555677">
		<tag k="highway" v="path" />
		<tag k="name" v="Kyrkjestigen" />
		<tag k="ssr:stedsnr" v="675538" />
	</node>
	<node id="-521607" lat="61.3028888906" lon="7.79523888591">
		<tag k="layer" v="-1" />
		<tag k="name" v="Naustbukt" />
		<tag k="ssr:stedsnr" v="772355" />
		<tag k="tunnel" v="yes" />
	</node>
	<node id="-521606" lat="61.3078833367" lon="7.85650556348">
		<tag k="layer" v="-1" />
		<tag k="name" v="Jåteli I" />
		<tag k="ssr:stedsnr" v="772280" />
		<tag k="tunnel" v="yes" />
	</node>
	<node id="-520834" lat="61.3071166624" lon="7.84696667601">
		<tag k="bridge" v="yes" />
		<tag k="layer" v="1" />
		<tag k="name" v="Moadalen" />
		<tag k="ssr:stedsnr" v="896294" />
	</node>
	<node id="-520833" lat="61.3176611149" lon="7.81615555463">
		<tag k="bridge" v="yes" />
		<tag k="layer" v="1" />
		<tag k="name" v="Øyni" />
		<tag k="ssr:stedsnr" v="896291" />
	</node>
</osm>
