<?xml version="1.0" encoding="UTF-8"?>
<osm version="0.6" generator="osmapis">
	<node lat="69.10136666381534" lon="18.442422209088036" id="-39241">
		<tag k="name" v="Sivertberget" />
		<tag k="natural" v="hill" />
		<tag k="place" v="locality" />
		<tag k="ssr:stedsnr" v="232014" />
	</node>
	<node lat="69.03404999767746" lon="18.696894432194313" id="-39242">
		<tag k="name" v="Elgstøen" />
		<tag k="place" v="locality" />
		<tag k="ssr:stedsnr" v="232142" />
	</node>
	<node lat="69.03676388626374" lon="18.771663885566433" id="-39243">
		<tag k="name" v="Andstaden" />
		<tag k="natural" v="bay" />
		<tag k="ssr:stedsnr" v="232147" />
	</node>
	<node lat="69.08941388916935" lon="18.69195278100035" id="-39244">
		<tag k="name" v="Enokvatnet" />
		<tag k="natural" v="water" />
		<tag k="ssr:stedsnr" v="232150" />
	</node>
	<node lat="69.01731388698023" lon="18.75763888180985" id="-39245">
		<tag k="name" v="Sagfossen" />
		<tag k="natural" v="waterfall" />
		<tag k="ssr:stedsnr" v="232152" />
	</node>
	<node lat="69.03886944241565" lon="18.664433316607337" id="-39246">
		<tag k="name" v="Lystringshaugan" />
		<tag k="natural" v="hill" />
		<tag k="place" v="locality" />
		<tag k="ssr:stedsnr" v="232126" />
	</node>
	<node lat="69.02155000492802" lon="18.74533610057746" id="-39247">
		<tag k="name" v="Kjervelvkjeften" />
		<tag k="natural" v="bay" />
		<tag k="ssr:stedsnr" v="232153" />
	</node>
	<node lat="69.01546388520093" lon="18.80111110978787" id="-39248">
		<tag k="name" v="Heimmoen" />
		<tag k="place" v="locality" />
		<tag k="ssr:stedsnr" v="232163" />
	</node>
	<node lat="69.13698055216452" lon="18.67451388845364" id="-39249">
		<tag k="name" v="Sølabekkmoen" />
		<tag k="place" v="locality" />
		<tag k="ssr:stedsnr" v="232171" />
	</node>
	<node lat="69.15032777441748" lon="18.69596665579175" id="-39250">
		<tag k="name" v="Fjellslåtten" />
		<tag k="place" v="locality" />
		<tag k="ssr:stedsnr" v="232230" />
	</node>
	<node lat="68.98739444848033" lon="19.39543054663537" id="-39251">
		<tag k="name" v="Storhaugtjønna" />
		<tag k="natural" v="water" />
		<tag k="ssr:stedsnr" v="232245" />
	</node>
	<node lat="69.13794444370325" lon="18.85346110404634" id="-39252">
		<tag k="name" v="Karlvassbekken" />
		<tag k="ssr:stedsnr" v="232319" />
		<tag k="waterway" v="stream" />
	</node>
	<node lat="69.02794444721347" lon="19.297155559393488" id="-39253">
		<tag k="amenity" v="school" />
		<tag k="name" v="Bjørkeng skole" />
		<tag k="ssr:stedsnr" v="232256" />
	</node>
	<node lat="69.03539166811257" lon="19.387966645430033" id="-39254">
		<tag k="name" v="Stenflåan" />
		<tag k="natural" v="hill" />
		<tag k="place" v="locality" />
		<tag k="ssr:stedsnr" v="232257" />
	</node>
	<node lat="69.21684166488866" lon="18.696124995579865" id="-39255">
		<tag k="name" v="Steinlia" />
		<tag k="natural" v="slope" />
		<tag k="place" v="locality" />
		<tag k="ssr:stedsnr" v="232258" />
	</node>
	<node lat="69.22396388839579" lon="18.702016663755657" id="-39256">
		<tag k="name" v="Skredbekkskaret" />
		<tag k="natural" v="valley" />
		<tag k="place" v="locality" />
		<tag k="ssr:stedsnr" v="232259" />
	</node>
	<node lat="69.01163055130117" lon="19.433777775992" id="-39257">
		<tag k="name" v="Gammelromkjosen" />
		<tag k="natural" v="bay" />
		<tag k="ssr:stedsnr" v="232346" />
	</node>
	<node lat="68.99798611088431" lon="19.030258337315413" id="-39258">
		<tag k="name" v="Skog" />
		<tag k="place" v="farm" />
		<tag k="ssr:stedsnr" v="232501" />
	</node>
	<node lat="68.89499722357841" lon="19.012566667526553" id="-39259">
		<tag k="name" v="Skredgjerdet" />
		<tag k="place" v="isolated_dwelling" />
		<tag k="ssr:stedsnr" v="232523" />
	</node>
	<node lat="69.19974166440386" lon="18.72893887879078" id="-39260">
		<tag k="name" v="Slettmoen" />
		<tag k="place" v="locality" />
		<tag k="ssr:stedsnr" v="233297" />
	</node>
	<node lat="69.00100555714003" lon="18.605627774962382" id="-39261">
		<tag k="name" v="Trolldalen" />
		<tag k="natural" v="valley" />
		<tag k="place" v="locality" />
		<tag k="ssr:stedsnr" v="232470" />
	</node>
	<node lat="69.03581389002302" lon="19.27029165830578" id="-39262">
		<tag k="name" v="Finnteltrommet" />
		<tag k="place" v="locality" />
		<tag k="ssr:stedsnr" v="232579" />
	</node>
	<node lat="69.17045277557814" lon="18.34449166965093" id="-39263">
		<tag k="highway" v="path" />
		<tag k="name" v="Reisveien" />
		<tag k="ssr:stedsnr" v="232761" />
	</node>
	<node lat="69.0109611116935" lon="18.86000554200661" id="-39264">
		<tag k="name" v="Kjosan" />
		<tag k="natural" v="bay" />
		<tag k="ssr:stedsnr" v="232765" />
	</node>
	<node lat="69.01291388786147" lon="18.870530559677263" id="-39265">
		<tag k="name" v="Heimneset" />
		<tag k="natural" v="cape" />
		<tag k="ssr:stedsnr" v="232770" />
	</node>
	<node lat="69.06870278056718" lon="18.549016652627262" id="-39266">
		<tag k="name" v="Einbakkan" />
		<tag k="natural" v="slope" />
		<tag k="place" v="locality" />
		<tag k="ssr:stedsnr" v="232841" />
	</node>
	<node lat="69.16548889229817" lon="18.470199997109948" id="-39267">
		<tag k="name" v="Johan-Karlbekken" />
		<tag k="ssr:stedsnr" v="232845" />
		<tag k="waterway" v="stream" />
	</node>
	<node lat="69.16338333663165" lon="18.465527784865962" id="-39268">
		<tag k="name" v="Sæterbakkmyra" />
		<tag k="natural" v="wetland" />
		<tag k="ssr:stedsnr" v="232849" />
	</node>
	<node lat="69.01563055554222" lon="19.22752499933645" id="-39269">
		<tag k="fixme" v="consider natural=peak for the most distinct mountains in the district" />
		<tag k="name" v="Veslkalvhauet" />
		<tag k="natural" v="hill" />
		<tag k="place" v="locality" />
		<tag k="ssr:stedsnr" v="232850" />
	</node>
	<node lat="69.0751638867188" lon="18.588913894955866" id="-39270">
		<tag k="name" v="Hølmyra" />
		<tag k="natural" v="wetland" />
		<tag k="ssr:stedsnr" v="232857" />
	</node>
	<node lat="69.06717778174429" lon="18.628066659164418" id="-39271">
		<tag k="name" v="Brumoen" />
		<tag k="place" v="locality" />
		<tag k="ssr:stedsnr" v="232862" />
	</node>
	<node lat="69.21088889010055" lon="18.414238882042508" id="-39272">
		<tag k="name" v="Tjæramilene" />
		<tag k="natural" v="slope" />
		<tag k="place" v="locality" />
		<tag k="ssr:stedsnr" v="232924" />
	</node>
	<node lat="69.2584111088661" lon="18.63348331898728" id="-39273">
		<tag k="name" v="Kvannlia" />
		<tag k="natural" v="slope" />
		<tag k="place" v="locality" />
		<tag k="ssr:stedsnr" v="233016" />
	</node>
	<node lat="69.26713610842125" lon="18.65481944846127" id="-39274">
		<tag k="name" v="Fjellmyra" />
		<tag k="natural" v="wetland" />
		<tag k="ssr:stedsnr" v="233020" />
	</node>
	<node lat="68.7669750025027" lon="19.621161090818674" id="-39275">
		<tag k="name" v="Rasbekken" />
		<tag k="ssr:stedsnr" v="17215" />
		<tag k="waterway" v="stream" />
	</node>
	<node lat="68.92220278232404" lon="19.862980540873007" id="-39276">
		<tag k="fixme" v="consider natural=peak for the most distinct mountains in the district" />
		<tag k="name" v="Høglikka" />
		<tag k="natural" v="hill" />
		<tag k="place" v="locality" />
		<tag k="ssr:stedsnr" v="17159" />
	</node>
	<node lat="68.90976389389637" lon="20.06636109011971" id="-39277">
		<tag k="fixme" v="consider natural=peak for the most distinct mountains in the district" />
		<tag k="name" v="Áslatvárri" />
		<tag k="name:se" v="Áslatvárri" />
		<tag k="natural" v="hill" />
		<tag k="place" v="locality" />
		<tag k="ssr:stedsnr" v="17164" />
	</node>
	<node lat="68.91104166490365" lon="20.297388881841666" id="-39278">
		<tag k="name" v="Šalbmi" />
		<tag k="name:se" v="Šalbmi" />
		<tag k="natural" v="valley" />
		<tag k="place" v="locality" />
		<tag k="ssr:stedsnr" v="17166" />
	</node>
	<node lat="69.05119444850406" lon="18.538383318011988" id="-39279">
		<tag k="name" v="Elvekroken" />
		<tag k="natural" v="bay" />
		<tag k="ssr:stedsnr" v="232973" />
	</node>
	<node lat="69.23749166787665" lon="18.45726389732899" id="-39280">
		<tag k="name" v="Sørknutheimen" />
		<tag k="place" v="farm" />
		<tag k="ssr:stedsnr" v="233115" />
	</node>
	<node lat="69.25849444200337" lon="18.670641662053164" id="-39281">
		<tag k="name" v="Holmen" />
		<tag k="natural" v="cape" />
		<tag k="ssr:stedsnr" v="233192" />
	</node>
	<node lat="69.24005555175805" lon="18.35080276863716" id="-39282">
		<tag k="name" v="Rydeng" />
		<tag k="place" v="farm" />
		<tag k="ssr:stedsnr" v="17704" />
	</node>
	<node lat="69.21349444284097" lon="18.47011944003606" id="-39283">
		<tag k="fixme" v="consider place=hamlet" />
		<tag k="name" v="Karlstad" />
		<tag k="place" v="village" />
		<tag k="ssr:stedsnr" v="17741" />
	</node>
	<node lat="69.2860999956462" lon="18.48195833838857" id="-39284">
		<tag k="name" v="Salinberget" />
		<tag k="natural" v="hill" />
		<tag k="place" v="locality" />
		<tag k="ssr:stedsnr" v="233037" />
	</node>
	<node lat="69.13665555984475" lon="18.607288881052618" id="-39285">
		<tag k="fixme" v="verify maritime location" />
		<tag k="mooring" v="yes" />
		<tag k="name" v="Moastøa" />
		<tag k="place" v="locality" />
		<tag k="ssr:stedsnr" v="233048" />
	</node>
	<node lat="69.17143889380655" lon="18.704477764725926" id="-39286">
		<tag k="name" v="Ole-Jansavatnet" />
		<tag k="natural" v="water" />
		<tag k="ssr:stedsnr" v="17810" />
	</node>
	<node lat="68.8034527806953" lon="20.15638054969637" id="-39287">
		<tag k="name" v="Hárvesjávri" />
		<tag k="name:se" v="Hárvesjávri" />
		<tag k="natural" v="water" />
		<tag k="ssr:stedsnr" v="18101" />
		<tag k="water" v="lake" />
	</node>
	<node lat="69.24683055408647" lon="18.38903333444672" id="-39288">
		<tag k="highway" v="path" />
		<tag k="name" v="Leirveien" />
		<tag k="ssr:stedsnr" v="233075" />
	</node>
	<node lat="69.32727221864572" lon="18.546886094629937" id="-39289">
		<tag k="name" v="Forraberget" />
		<tag k="natural" v="hill" />
		<tag k="place" v="locality" />
		<tag k="ssr:stedsnr" v="233149" />
	</node>
	<node lat="69.26347087060289" lon="18.693953557249806" id="-39290">
		<tag k="name" v="Sørelvmoen" />
		<tag k="place" v="farm" />
		<tag k="ssr:stedsnr" v="233153" />
	</node>
	<node lat="69.27874722231239" lon="18.6428444279237" id="-39291">
		<tag k="name" v="Storelva" />
		<tag k="ssr:stedsnr" v="233165" />
		<tag k="waterway" v="stream" />
	</node>
	<node lat="68.87381110842526" lon="19.553313877243138" id="-39292">
		<tag k="name" v="Svalheim" />
		<tag k="place" v="farm" />
		<tag k="ssr:stedsnr" v="18150" />
	</node>
	<node lat="68.9738861150243" lon="18.77849998942947" id="-39293">
		<tag k="name" v="Banelvdalen" />
		<tag k="natural" v="valley" />
		<tag k="place" v="locality" />
		<tag k="ssr:stedsnr" v="18349" />
	</node>
	<node lat="69.02001111425739" lon="19.72207499870749" id="-39294">
		<tag k="fixme" v="consider natural=peak for the most distinct mountains in the district" />
		<tag k="name" v="Brattlifjellet" />
		<tag k="natural" v="hill" />
		<tag k="place" v="locality" />
		<tag k="ssr:stedsnr" v="18359" />
	</node>
	<node lat="69.1453000036678" lon="18.323366656356033" id="-39295">
		<tag k="name" v="Vakkerhumpvatnet" />
		<tag k="natural" v="water" />
		<tag k="ssr:stedsnr" v="18515" />
	</node>
	<node lat="69.13952499547013" lon="18.352758336320147" id="-39296">
		<tag k="name" v="Sommarrovatnet" />
		<tag k="natural" v="water" />
		<tag k="ssr:stedsnr" v="18517" />
	</node>
	<node lat="69.11792221875139" lon="18.826041650111257" id="-39297">
		<tag k="name" v="Storhaugen" />
		<tag k="natural" v="hill" />
		<tag k="place" v="locality" />
		<tag k="ssr:stedsnr" v="18802" />
	</node>
	<node lat="69.12096389063396" lon="18.731497210480804" id="-39298">
		<tag k="alt_name" v="Ørstad" />
		<tag k="name" v="Aurstad" />
		<tag k="place" v="farm" />
		<tag k="ssr:stedsnr" v="18809" />
	</node>
	<node lat="69.14964999893158" lon="18.728683318455584" id="-39299">
		<tag k="fixme" v="consider natural=peak for the most distinct mountains in the district" />
		<tag k="name" v="Sollitinden" />
		<tag k="natural" v="hill" />
		<tag k="place" v="locality" />
		<tag k="ssr:stedsnr" v="18702" />
	</node>
	<node lat="69.33955000288681" lon="18.542124994117398" id="-39300">
		<tag k="name" v="Djupvik" />
		<tag k="place" v="farm" />
		<tag k="ssr:stedsnr" v="18716" />
	</node>
	<node lat="69.13550833603342" lon="18.68501943649006" id="-39301">
		<tag k="name" v="Teigen" />
		<tag k="place" v="farm" />
		<tag k="ssr:stedsnr" v="18751" />
	</node>
	<node lat="69.11048938517166" lon="18.878030158754083" id="-39302">
		<tag k="alt_name" v="Holmesletten" />
		<tag k="fixme" v="consider place=hamlet" />
		<tag k="name" v="Holmesletta" />
		<tag k="place" v="farm" />
		<tag k="ssr:stedsnr" v="18779" />
	</node>
	<node lat="69.31467499946595" lon="18.55844164963583" id="-39303">
		<tag k="name" v="Rubben" />
		<tag k="natural" v="hill" />
		<tag k="place" v="locality" />
		<tag k="ssr:stedsnr" v="233253" />
	</node>
	<node lat="69.2475861100522" lon="18.55606665973588" id="-39304">
		<tag k="name" v="Vedlia" />
		<tag k="natural" v="slope" />
		<tag k="place" v="locality" />
		<tag k="ssr:stedsnr" v="233266" />
	</node>
	<node lat="69.23856944281064" lon="18.537147220386206" id="-39305">
		<tag k="name" v="Sturrabben" />
		<tag k="natural" v="hill" />
		<tag k="place" v="locality" />
		<tag k="ssr:stedsnr" v="233267" />
	</node>
	<node lat="69.00705555330894" lon="18.841791651601877" id="-39306">
		<tag k="name" v="Sandvik" />
		<tag k="place" v="farm" />
		<tag k="ssr:stedsnr" v="19154" />
	</node>
	<node lat="69.01121111120405" lon="19.19780276595202" id="-39307">
		<tag k="alt_name" v="Holmtjørna" />
		<tag k="name" v="Holmtjønna" />
		<tag k="natural" v="water" />
		<tag k="ssr:stedsnr" v="19157" />
	</node>
	<node lat="69.1010638893444" lon="18.906288892986176" id="-39308">
		<tag k="name" v="Skavbakken" />
		<tag k="natural" v="slope" />
		<tag k="place" v="locality" />
		<tag k="ssr:stedsnr" v="233431" />
	</node>
	<node lat="69.22452499761401" lon="18.324994440354036" id="-39309">
		<tag k="name" v="Krakkhola" />
		<tag k="natural" v="valley" />
		<tag k="place" v="locality" />
		<tag k="ssr:stedsnr" v="233432" />
	</node>
	<node lat="69.22748333704897" lon="18.313933334875518" id="-39310">
		<tag k="name" v="Kvalryggen" />
		<tag k="natural" v="ridge" />
		<tag k="place" v="locality" />
		<tag k="ssr:stedsnr" v="233433" />
	</node>
	<node lat="68.98879722375644" lon="18.905391654335215" id="-39311">
		<tag k="name" v="Revmoen" />
		<tag k="place" v="locality" />
		<tag k="ssr:stedsnr" v="233443" />
	</node>
	<node lat="68.93811389152279" lon="18.943380540320057" id="-39312">
		<tag k="name" v="Revhimælen" />
		<tag k="place" v="locality" />
		<tag k="ssr:stedsnr" v="233453" />
	</node>
	<node lat="69.19585833134693" lon="18.683930546994265" id="-39313">
		<tag k="name" v="Øverfossen" />
		<tag k="natural" v="waterfall" />
		<tag k="ssr:stedsnr" v="233340" />
	</node>
	<node lat="69.19481944405257" lon="18.704941650894092" id="-39314">
		<tag k="historic" v="shieling" />
		<tag k="name" v="Martinsætra" />
		<tag k="place" v="isolated_dwelling" />
		<tag k="ssr:stedsnr" v="233342" />
	</node>
	<node lat="69.19711738472623" lon="18.72127433848707" id="-39315">
		<tag k="fixme" v="consider place=hamlet" />
		<tag k="name" v="Skardalen" />
		<tag k="place" v="farm" />
		<tag k="ssr:stedsnr" v="233345" />
	</node>
	<node lat="69.03515277584928" lon="19.35822500136911" id="-39316">
		<tag k="name" v="Moeng" />
		<tag k="place" v="farm" />
		<tag k="ssr:stedsnr" v="19419" />
	</node>
	<node lat="69.20934444666258" lon="18.53378887689424" id="-39317">
		<tag k="name" v="Falkberget" />
		<tag k="natural" v="hill" />
		<tag k="place" v="locality" />
		<tag k="ssr:stedsnr" v="233367" />
	</node>
	<node lat="68.97648611169922" lon="19.288966652686508" id="-39318">
		<tag k="name" v="Nerøyen" />
		<tag k="place" v="locality" />
		<tag k="ssr:stedsnr" v="233371" />
	</node>
	<node lat="69.15397499628122" lon="18.286847209897488" id="-39319">
		<tag k="name" v="Hamnelvvatnan" />
		<tag k="natural" v="water" />
		<tag k="ssr:stedsnr" v="19511" />
		<tag k="water" v="lake" />
	</node>
	<node lat="69.04156944264724" lon="18.81589165818475" id="-39320">
		<tag k="name" v="Bergestua" />
		<tag k="place" v="locality" />
		<tag k="ssr:stedsnr" v="233373" />
	</node>
	<node lat="69.21940833442" lon="18.612405559606458" id="-39321">
		<tag k="name" v="Akkamyra" />
		<tag k="natural" v="wetland" />
		<tag k="ssr:stedsnr" v="233376" />
	</node>
	<node lat="69.31141689692163" lon="18.582459283111437" id="-39322">
		<tag k="fixme" v="consider place=hamlet" />
		<tag k="name" v="Indre Navaren" />
		<tag k="place" v="farm" />
		<tag k="ssr:stedsnr" v="19800" />
	</node>
	<node lat="69.13565277846047" lon="18.36934444536372" id="-39323">
		<tag k="name" v="Sennavassdalen" />
		<tag k="natural" v="valley" />
		<tag k="place" v="locality" />
		<tag k="ssr:stedsnr" v="233394" />
	</node>
	<node lat="69.14244721985854" lon="18.389377778916444" id="-39324">
		<tag k="name" v="Trongen" />
		<tag k="natural" v="valley" />
		<tag k="place" v="locality" />
		<tag k="ssr:stedsnr" v="233395" />
	</node>
	<node lat="69.19751666325287" lon="18.621169446123982" id="-39325">
		<tag k="name" v="Svartvassbekken" />
		<tag k="ssr:stedsnr" v="233396" />
		<tag k="waterway" v="stream" />
	</node>
	<node lat="69.10219166971916" lon="18.887683326180476" id="-39326">
		<tag k="name" v="Kaldbekken" />
		<tag k="ssr:stedsnr" v="233410" />
		<tag k="waterway" v="stream" />
	</node>
	<node lat="69.18595277426847" lon="18.698130549961643" id="-39327">
		<tag k="landuse" v="military" />
		<tag k="name" v="Akkasætra" />
		<tag k="ssr:stedsnr" v="19988" />
	</node>
	<node lat="69.10004167023959" lon="18.890905562717148" id="-39328">
		<tag k="name" v="Vedhøgsten" />
		<tag k="natural" v="slope" />
		<tag k="place" v="locality" />
		<tag k="ssr:stedsnr" v="233414" />
	</node>
	<node lat="69.1797555525326" lon="18.65181388272643" id="-39329">
		<tag k="name" v="Storfinnhaugmyra" />
		<tag k="natural" v="wetland" />
		<tag k="ssr:stedsnr" v="233421" />
	</node>
	<node lat="69.2366500039393" lon="18.310016657008664" id="-39330">
		<tag k="name" v="Krøkebærhaugen" />
		<tag k="natural" v="hill" />
		<tag k="place" v="locality" />
		<tag k="ssr:stedsnr" v="233424" />
	</node>
	<node lat="69.17689722215667" lon="18.571133324442542" id="-39331">
		<tag k="name" v="Broderstadbekken" />
		<tag k="ssr:stedsnr" v="233518" />
		<tag k="waterway" v="stream" />
	</node>
	<node lat="68.9481305524887" lon="18.938477769384697" id="-39332">
		<tag k="name" v="Langleite" />
		<tag k="natural" v="water" />
		<tag k="ssr:stedsnr" v="233456" />
		<tag k="water" v="lake" />
	</node>
	<node lat="69.19254999782154" lon="18.41651944524578" id="-39333">
		<tag k="name" v="Holtan" />
		<tag k="place" v="locality" />
		<tag k="ssr:stedsnr" v="233587" />
	</node>
	<node lat="69.26209166864274" lon="18.498597209643577" id="-39334">
		<tag k="name" v="Øvre Kjerresnes" />
		<tag k="place" v="farm" />
		<tag k="ssr:stedsnr" v="21209" />
	</node>
	<node lat="69.33282201791924" lon="18.579360580204785" id="-39335">
		<tag k="fixme" v="consider place=hamlet" />
		<tag k="name" v="Ytre Navaren" />
		<tag k="place" v="farm" />
		<tag k="ssr:stedsnr" v="21213" />
	</node>
	<node lat="68.90770833038543" lon="19.537249980050024" id="-39336">
		<tag k="name" v="Bjørneborg" />
		<tag k="place" v="locality" />
		<tag k="ssr:stedsnr" v="233544" />
	</node>
	<node lat="68.89787222126708" lon="19.53772777861678" id="-39337">
		<tag k="name" v="Skålpfloen" />
		<tag k="natural" v="water" />
		<tag k="ssr:stedsnr" v="233549" />
		<tag k="water" v="lake" />
	</node>
	<node lat="68.99704722550152" lon="19.064305554123166" id="-39338">
		<tag k="name" v="Åsmyra" />
		<tag k="natural" v="wetland" />
		<tag k="ssr:stedsnr" v="233550" />
	</node>
	<node lat="68.80937500483303" lon="19.604422210592038" id="-39339">
		<tag k="name" v="Skjærbekken" />
		<tag k="ssr:stedsnr" v="233557" />
		<tag k="waterway" v="stream" />
	</node>
	<node lat="68.99353611227593" lon="19.08952222348604" id="-39340">
		<tag k="name" v="Revhaugan" />
		<tag k="natural" v="hill" />
		<tag k="place" v="locality" />
		<tag k="ssr:stedsnr" v="233559" />
	</node>
	<node lat="68.97642222676141" lon="18.99582776359239" id="-39341">
		<tag k="name" v="Sennamyra" />
		<tag k="natural" v="wetland" />
		<tag k="ssr:stedsnr" v="233563" />
	</node>
	<node lat="68.99516110911966" lon="19.10241109245295" id="-39342">
		<tag k="name" v="Hølbekkmoen" />
		<tag k="place" v="locality" />
		<tag k="ssr:stedsnr" v="233569" />
	</node>
	<node lat="69.00692222418667" lon="18.96657498151404" id="-39343">
		<tag k="name" v="Bussta" />
		<tag k="natural" v="slope" />
		<tag k="place" v="locality" />
		<tag k="ssr:stedsnr" v="233578" />
	</node>
	<node lat="68.86600833574217" lon="19.07115832710882" id="-39344">
		<tag k="name" v="Holmengrena" />
		<tag k="ssr:stedsnr" v="233651" />
		<tag k="waterway" v="stream" />
	</node>
	<node lat="68.86684166696644" lon="19.083791655344434" id="-39345">
		<tag k="name" v="Bjørkåsflatene" />
		<tag k="place" v="locality" />
		<tag k="ssr:stedsnr" v="233656" />
	</node>
	<node lat="68.9186444478353" lon="18.977266655156757" id="-39346">
		<tag k="name" v="Badtjønna" />
		<tag k="natural" v="water" />
		<tag k="ssr:stedsnr" v="233660" />
	</node>
	<node lat="69.2198777742399" lon="18.473399990853707" id="-39347">
		<tag k="name" v="Kjosen" />
		<tag k="natural" v="bay" />
		<tag k="ssr:stedsnr" v="233595" />
	</node>
	<node lat="69.17396388913916" lon="18.401622208762763" id="-39348">
		<tag k="name" v="Nattmålshaugen" />
		<tag k="natural" v="hill" />
		<tag k="place" v="locality" />
		<tag k="ssr:stedsnr" v="233745" />
	</node>
	<node lat="69.17319166858913" lon="18.39813053984525" id="-39349">
		<tag k="name" v="Kavelbakken" />
		<tag k="natural" v="slope" />
		<tag k="place" v="locality" />
		<tag k="ssr:stedsnr" v="233746" />
	</node>
	<node lat="68.84587777863558" lon="19.60038610478416" id="-39350">
		<tag k="name" v="Ørnreirberget" />
		<tag k="natural" v="hill" />
		<tag k="place" v="locality" />
		<tag k="ssr:stedsnr" v="233747" />
	</node>
	<node lat="69.02450555273208" lon="18.963144424486714" id="-39351">
		<tag k="name" v="Tekkja" />
		<tag k="natural" v="slope" />
		<tag k="place" v="locality" />
		<tag k="ssr:stedsnr" v="233772" />
	</node>
	<node lat="69.0289611084887" lon="18.971172205987934" id="-39352">
		<tag k="name" v="Fjellslåttbergan" />
		<tag k="natural" v="hill" />
		<tag k="place" v="locality" />
		<tag k="ssr:stedsnr" v="233774" />
	</node>
	<node lat="69.02118333401035" lon="18.961624990169877" id="-39353">
		<tag k="name" v="Mortenvelta" />
		<tag k="natural" v="slope" />
		<tag k="place" v="locality" />
		<tag k="ssr:stedsnr" v="233782" />
	</node>
	<node lat="69.0224472257735" lon="19.005580560356044" id="-39354">
		<tag k="name" v="Myra og Haugen" />
		<tag k="natural" v="hill" />
		<tag k="place" v="locality" />
		<tag k="ssr:stedsnr" v="233785" />
	</node>
	<node lat="68.77193611580813" lon="19.701099989380598" id="-39355">
		<tag k="name" v="Bersvendholmen" />
		<tag k="place" v="islet" />
		<tag k="ssr:stedsnr" v="233811" />
	</node>
	<node lat="69.03064722280513" lon="19.574174996807564" id="-39356">
		<tag k="name" v="Småbekkan" />
		<tag k="ssr:stedsnr" v="233813" />
		<tag k="waterway" v="stream" />
	</node>
	<node lat="68.72196944499261" lon="19.73156665929063" id="-39357">
		<tag k="name" v="Langnesbekken" />
		<tag k="ssr:stedsnr" v="233836" />
		<tag k="waterway" v="stream" />
	</node>
	<node lat="68.74803333648717" lon="19.727438868578304" id="-39358">
		<tag k="name" v="Søndre Henbergnes" />
		<tag k="natural" v="cape" />
		<tag k="ssr:stedsnr" v="233842" />
	</node>
	<node lat="69.06762222519953" lon="18.659763882663224" id="-39359">
		<tag k="name" v="Stordalen" />
		<tag k="natural" v="valley" />
		<tag k="place" v="locality" />
		<tag k="ssr:stedsnr" v="233704" />
	</node>
	<node lat="68.92774722446234" lon="19.507108333767864" id="-39360">
		<tag k="name" v="Langbakken" />
		<tag k="natural" v="slope" />
		<tag k="place" v="locality" />
		<tag k="ssr:stedsnr" v="233719" />
	</node>
	<node lat="68.96136666568502" lon="19.723577753027" id="-39361">
		<tag k="name" v="Furumyra" />
		<tag k="natural" v="wetland" />
		<tag k="ssr:stedsnr" v="233963" />
	</node>
	<node lat="69.02183333350108" lon="19.630947204988757" id="-39362">
		<tag k="name" v="Kvennelvskaret" />
		<tag k="natural" v="valley" />
		<tag k="place" v="locality" />
		<tag k="ssr:stedsnr" v="233973" />
	</node>
	<node lat="69.22053055568996" lon="18.51080833416793" id="-39363">
		<tag k="name" v="Rundhaugen" />
		<tag k="natural" v="hill" />
		<tag k="place" v="locality" />
		<tag k="ssr:stedsnr" v="35373" />
	</node>
	<node lat="69.13302499654681" lon="19.01829165714426" id="-39364">
		<tag k="name" v="Stormyra" />
		<tag k="natural" v="wetland" />
		<tag k="ssr:stedsnr" v="50613" />
	</node>
	<node lat="69.11621944580317" lon="18.978244429878178" id="-39365">
		<tag k="alt_name" v="Hompen" />
		<tag k="name" v="Humpen" />
		<tag k="natural" v="hill" />
		<tag k="place" v="locality" />
		<tag k="ssr:stedsnr" v="50619" />
	</node>
	<node lat="69.11995278248631" lon="18.95644442952573" id="-39366">
		<tag k="name" v="Peder-Larsalia" />
		<tag k="natural" v="slope" />
		<tag k="place" v="locality" />
		<tag k="ssr:stedsnr" v="50622" />
	</node>
	<node lat="68.9733555529738" lon="19.199947223790993" id="-39367">
		<tag k="name" v="Slåtthaugen" />
		<tag k="natural" v="hill" />
		<tag k="place" v="locality" />
		<tag k="ssr:stedsnr" v="50623" />
	</node>
	<node lat="69.0241777800631" lon="18.60898887671037" id="-39368">
		<tag k="name" v="Nedre Langmyrrygg" />
		<tag k="natural" v="ridge" />
		<tag k="place" v="locality" />
		<tag k="ssr:stedsnr" v="50901" />
	</node>
	<node lat="69.08226944881248" lon="18.586174986954358" id="-39369">
		<tag k="name" v="Gustavrommet" />
		<tag k="place" v="locality" />
		<tag k="ssr:stedsnr" v="50912" />
	</node>
	<node lat="69.09985833021646" lon="18.584888878053828" id="-39370">
		<tag k="name" v="Sagstillingsmoen" />
		<tag k="place" v="locality" />
		<tag k="ssr:stedsnr" v="50920" />
	</node>
	<node lat="69.08470852106585" lon="18.638243542690017" id="-39371">
		<tag k="alt_name" v="Nordre Rognmo" />
		<tag k="name" v="Nordre Rognmoen" />
		<tag k="place" v="farm" />
		<tag k="ssr:stedsnr" v="50922" />
	</node>
	<node lat="68.98535000083743" lon="19.196394433218526" id="-39372">
		<tag k="name" v="Hølbekken" />
		<tag k="ssr:stedsnr" v="50801" />
		<tag k="waterway" v="stream" />
	</node>
	<node lat="69.2334027794542" lon="18.450913874880264" id="-39373">
		<tag k="name" v="Kringlemoen" />
		<tag k="place" v="locality" />
		<tag k="ssr:stedsnr" v="51108" />
	</node>
	<node lat="68.9894222200077" lon="18.79321111098778" id="-39374">
		<tag k="name" v="Bjønnbåsaksla" />
		<tag k="place" v="locality" />
		<tag k="ssr:stedsnr" v="51110" />
	</node>
	<node lat="69.24920833040223" lon="18.692841665537596" id="-39375">
		<tag k="name" v="Storneset" />
		<tag k="natural" v="cape" />
		<tag k="ssr:stedsnr" v="51169" />
	</node>
	<node lat="69.24515278201447" lon="18.710983320308486" id="-39376">
		<tag k="alt_name" v="Berghompen" />
		<tag k="name" v="Berghumpen" />
		<tag k="natural" v="hill" />
		<tag k="place" v="locality" />
		<tag k="ssr:stedsnr" v="51173" />
	</node>
	<node lat="69.23557500419095" lon="18.689888890148122" id="-39377">
		<tag k="name" v="Neset" />
		<tag k="natural" v="cape" />
		<tag k="ssr:stedsnr" v="51175" />
	</node>
	<node lat="69.23799166548275" lon="18.66337776384423" id="-39378">
		<tag k="name" v="Småslettene" />
		<tag k="place" v="locality" />
		<tag k="ssr:stedsnr" v="51176" />
	</node>
	<node lat="69.26667778266328" lon="18.67396665367656" id="-39379">
		<tag k="name" v="Geitberget" />
		<tag k="natural" v="hill" />
		<tag k="place" v="locality" />
		<tag k="ssr:stedsnr" v="51179" />
	</node>
	<node lat="69.14125555495208" lon="18.712788871069915" id="-39380">
		<tag k="name" v="Skitaberglia" />
		<tag k="natural" v="slope" />
		<tag k="place" v="locality" />
		<tag k="ssr:stedsnr" v="51180" />
	</node>
	<node lat="69.25953333276385" lon="18.665211095641876" id="-39381">
		<tag k="name" v="Johanneslabekken" />
		<tag k="ssr:stedsnr" v="51181" />
		<tag k="waterway" v="stream" />
	</node>
	<node lat="69.25283333426465" lon="18.669449997328734" id="-39382">
		<tag k="name" v="Slettene" />
		<tag k="place" v="locality" />
		<tag k="ssr:stedsnr" v="51184" />
	</node>
	<node lat="69.20480278040058" lon="18.720683316576164" id="-39383">
		<tag k="name" v="Melkeberget" />
		<tag k="natural" v="hill" />
		<tag k="place" v="locality" />
		<tag k="ssr:stedsnr" v="51304" />
	</node>
	<node lat="69.00121666263195" lon="19.39422221438412" id="-39384">
		<tag k="fixme" v="consider natural=peak for the most distinct mountains in the district" />
		<tag k="name" v="Neråsen" />
		<tag k="natural" v="hill" />
		<tag k="place" v="locality" />
		<tag k="ssr:stedsnr" v="51307" />
	</node>
	<node lat="68.99999722517393" lon="19.41136943798473" id="-39385">
		<tag k="name" v="Sørhalla" />
		<tag k="natural" v="slope" />
		<tag k="place" v="locality" />
		<tag k="ssr:stedsnr" v="51311" />
	</node>
	<node lat="69.03020555463891" lon="18.50377777691547" id="-39386">
		<tag k="amenity" v="school" />
		<tag k="loc_name:se" v="Beardogoržži joatkkaskovlá" />
		<tag k="name" v="Bardufoss videregående skole" />
		<tag k="name:no" v="Bardufoss videregående skole" />
		<tag k="ssr:stedsnr" v="51074" />
	</node>
	<node lat="69.00533888838785" lon="18.699774993006166" id="-39387">
		<tag k="name" v="Tortenlitjønna" />
		<tag k="natural" v="water" />
		<tag k="ssr:stedsnr" v="51076" />
	</node>
	<node lat="69.01505555363438" lon="18.662508336979997" id="-39388">
		<tag k="name" v="Tekkjmyra" />
		<tag k="natural" v="wetland" />
		<tag k="ssr:stedsnr" v="51077" />
	</node>
	<node lat="68.98592222163936" lon="18.71393054716289" id="-39389">
		<tag k="name" v="Kjervelvlia" />
		<tag k="natural" v="slope" />
		<tag k="place" v="locality" />
		<tag k="ssr:stedsnr" v="51079" />
	</node>
	<node lat="69.00549166497615" lon="18.759319430680062" id="-39390">
		<tag k="name" v="Tjæramilmyra" />
		<tag k="natural" v="wetland" />
		<tag k="ssr:stedsnr" v="51085" />
	</node>
	<node lat="69.22741388789835" lon="18.68294444808315" id="-39391">
		<tag k="name" v="Finnheimen" />
		<tag k="place" v="locality" />
		<tag k="ssr:stedsnr" v="51279" />
	</node>
	<node lat="69.23764999966673" lon="18.537505556857894" id="-39392">
		<tag k="name" v="Høyhågbakken" />
		<tag k="natural" v="slope" />
		<tag k="place" v="locality" />
		<tag k="ssr:stedsnr" v="51285" />
	</node>
	<node lat="69.17675277468875" lon="18.67390555009812" id="-39393">
		<tag k="name" v="Fosslia" />
		<tag k="natural" v="slope" />
		<tag k="place" v="locality" />
		<tag k="ssr:stedsnr" v="51287" />
	</node>
	<node lat="69.14373888650653" lon="18.94653887280671" id="-39394">
		<tag k="name" v="Stormyra" />
		<tag k="natural" v="wetland" />
		<tag k="ssr:stedsnr" v="51406" />
	</node>
	<node lat="68.96551666655716" lon="19.360438872661174" id="-39395">
		<tag k="name" v="Langfjellaksla" />
		<tag k="place" v="locality" />
		<tag k="ssr:stedsnr" v="51379" />
	</node>
	<node lat="69.03022777491606" lon="18.95324720710021" id="-39396">
		<tag k="historic" v="shieling" />
		<tag k="name" v="Mosætra" />
		<tag k="place" v="isolated_dwelling" />
		<tag k="ssr:stedsnr" v="51501" />
	</node>
	<node lat="69.03476388812484" lon="18.93656110967619" id="-39397">
		<tag k="historic" v="shieling" />
		<tag k="name" v="Gardsætra" />
		<tag k="place" v="isolated_dwelling" />
		<tag k="ssr:stedsnr" v="51502" />
	</node>
	<node lat="69.019647217684" lon="19.40802222170645" id="-39398">
		<tag k="name" v="Ågårdlia" />
		<tag k="natural" v="slope" />
		<tag k="place" v="locality" />
		<tag k="ssr:stedsnr" v="51569" />
	</node>
	<node lat="68.97580277644427" lon="19.007427770119975" id="-39399">
		<tag k="name" v="Snauhaugen" />
		<tag k="natural" v="hill" />
		<tag k="place" v="locality" />
		<tag k="ssr:stedsnr" v="51574" />
	</node>
	<node lat="69.01262500455212" lon="18.961716658703544" id="-39400">
		<tag k="name" v="Brannhaugen" />
		<tag k="natural" v="hill" />
		<tag k="place" v="locality" />
		<tag k="ssr:stedsnr" v="51582" />
	</node>
	<node lat="69.20727222559886" lon="18.47059721725129" id="-39401">
		<tag k="name" v="Kjosen" />
		<tag k="natural" v="bay" />
		<tag k="ssr:stedsnr" v="51585" />
	</node>
	<node lat="69.220063889051" lon="18.423536106188678" id="-39402">
		<tag k="name" v="Langmyra" />
		<tag k="natural" v="wetland" />
		<tag k="ssr:stedsnr" v="51590" />
	</node>
	<node lat="69.07951666843265" lon="18.720741665970685" id="-39403">
		<tag k="name" v="Finnteltholtet" />
		<tag k="natural" v="hill" />
		<tag k="place" v="locality" />
		<tag k="ssr:stedsnr" v="51703" />
	</node>
	<node lat="69.06667499617645" lon="18.6556249968754" id="-39404">
		<tag k="name" v="Bjønnmoen" />
		<tag k="place" v="locality" />
		<tag k="ssr:stedsnr" v="51705" />
	</node>
	<node lat="69.06846944375113" lon="18.66662498313878" id="-39405">
		<tag k="name" v="Mellamoen" />
		<tag k="place" v="locality" />
		<tag k="ssr:stedsnr" v="51707" />
	</node>
	<node lat="69.25887222192117" lon="18.499372213074086" id="-39406">
		<tag k="fixme" v="consider seamark:type=rock or natural=shoal" />
		<tag k="name" v="Hamnesstroket" />
		<tag k="place" v="islet" />
		<tag k="ssr:stedsnr" v="51469" />
	</node>
	<node lat="69.25780555694674" lon="18.49683610593431" id="-39407">
		<tag k="name" v="Holmen" />
		<tag k="natural" v="cape" />
		<tag k="ssr:stedsnr" v="51472" />
	</node>
	<node lat="68.9434388870859" lon="18.91428888995247" id="-39408">
		<tag k="name" v="Prostmoen" />
		<tag k="place" v="locality" />
		<tag k="ssr:stedsnr" v="51482" />
	</node>
	<node lat="69.01949166469743" lon="18.918541658414604" id="-39409">
		<tag k="name" v="Leirdalen" />
		<tag k="natural" v="valley" />
		<tag k="place" v="locality" />
		<tag k="ssr:stedsnr" v="51487" />
	</node>
	<node lat="69.01171389032241" lon="19.009255543204134" id="-39410">
		<tag k="name" v="Veslenggrindbakken" />
		<tag k="natural" v="slope" />
		<tag k="place" v="locality" />
		<tag k="ssr:stedsnr" v="51602" />
	</node>
	<node lat="69.22248333316786" lon="18.459624994556425" id="-39411">
		<tag k="name" v="Hesttrøa" />
		<tag k="place" v="islet" />
		<tag k="ssr:stedsnr" v="51606" />
	</node>
	<node lat="69.17710000187927" lon="18.436033331299445" id="-39412">
		<tag k="name" v="Ola-lafossen" />
		<tag k="natural" v="waterfall" />
		<tag k="ssr:stedsnr" v="51801" />
	</node>
	<node lat="69.16742222070917" lon="18.394002765840114" id="-39413">
		<tag k="name" v="Kjørmyra" />
		<tag k="natural" v="wetland" />
		<tag k="ssr:stedsnr" v="51878" />
	</node>
	<node lat="69.16500833319067" lon="18.381030540866206" id="-39414">
		<tag k="name" v="Reierfossen" />
		<tag k="natural" v="waterfall" />
		<tag k="ssr:stedsnr" v="51881" />
	</node>
	<node lat="69.08716944500664" lon="18.614894448753056" id="-39415">
		<tag k="name" v="Brannskogsand" />
		<tag k="place" v="farm" />
		<tag k="ssr:stedsnr" v="51889" />
	</node>
	<node lat="69.23920277548883" lon="18.463841661260258" id="-39416">
		<tag k="name" v="Skjelldalen" />
		<tag k="natural" v="valley" />
		<tag k="place" v="locality" />
		<tag k="ssr:stedsnr" v="52025" />
	</node>
	<node lat="69.24607500193846" lon="18.38897221713267" id="-39417">
		<tag k="name" v="Langegga" />
		<tag k="natural" v="hill" />
		<tag k="place" v="locality" />
		<tag k="ssr:stedsnr" v="52068" />
	</node>
	<node lat="69.23814166928955" lon="18.46189166754772" id="-39418">
		<tag k="name" v="Knutheimbakken" />
		<tag k="natural" v="slope" />
		<tag k="place" v="locality" />
		<tag k="ssr:stedsnr" v="52078" />
	</node>
	<node lat="69.17680278075822" lon="18.463916652665656" id="-39419">
		<tag k="name" v="Myra" />
		<tag k="place" v="farm" />
		<tag k="ssr:stedsnr" v="51774" />
	</node>
	<node lat="68.8207361151841" lon="19.628366663234218" id="-39420">
		<tag k="name" v="Fossmobekken" />
		<tag k="ssr:stedsnr" v="51781" />
		<tag k="waterway" v="stream" />
	</node>
	<node lat="68.84728888850782" lon="19.63161664862872" id="-39421">
		<tag k="name" v="Langkjostjønna" />
		<tag k="natural" v="water" />
		<tag k="ssr:stedsnr" v="51786" />
	</node>
	<node lat="68.96906666457907" lon="18.787980540236987" id="-39422">
		<tag k="historic" v="shieling" />
		<tag k="name" v="Banelvdalssætra" />
		<tag k="place" v="isolated_dwelling" />
		<tag k="ssr:stedsnr" v="51917" />
	</node>
	<node lat="68.81437500469752" lon="19.651474986066603" id="-39423">
		<tag k="name" v="Fiskbergholmen" />
		<tag k="place" v="islet" />
		<tag k="ssr:stedsnr" v="51970" />
	</node>
	<node lat="68.99028333456685" lon="18.60721944276092" id="-39424">
		<tag k="name" v="Inglebyhaugan" />
		<tag k="natural" v="hill" />
		<tag k="place" v="locality" />
		<tag k="ssr:stedsnr" v="51979" />
	</node>
	<node lat="68.84063333129527" lon="19.58343611024834" id="-39425">
		<tag k="name" v="Båthølet" />
		<tag k="natural" v="bay" />
		<tag k="ssr:stedsnr" v="52710" />
	</node>
	<node lat="68.83857777831327" lon="19.57567222377626" id="-39426">
		<tag k="name" v="Storhaugen" />
		<tag k="natural" v="hill" />
		<tag k="place" v="locality" />
		<tag k="ssr:stedsnr" v="52679" />
	</node>
	<node lat="68.83298888861752" lon="19.610483326185193" id="-39427">
		<tag k="name" v="Nedre Fosstjønn" />
		<tag k="natural" v="water" />
		<tag k="ssr:stedsnr" v="52684" />
	</node>
	<node lat="69.00704999798434" lon="19.467652756879396" id="-39428">
		<tag k="name" v="Kråa" />
		<tag k="natural" v="strait" />
		<tag k="ssr:stedsnr" v="52813" />
	</node>
	<node lat="69.01739721944521" lon="19.622213882989687" id="-39429">
		<tag k="name" v="Kvasshaugen" />
		<tag k="natural" v="hill" />
		<tag k="place" v="locality" />
		<tag k="ssr:stedsnr" v="52913" />
	</node>
	<node lat="68.93811667086784" lon="19.504861097480603" id="-39430">
		<tag k="name" v="Attkjippneset" />
		<tag k="natural" v="cape" />
		<tag k="ssr:stedsnr" v="52868" />
	</node>
	<node lat="68.9096111143926" lon="20.19321942170299" id="-39431">
		<tag k="name" v="Moskánláhku" />
		<tag k="name:se" v="Moskánláhku" />
		<tag k="natural" v="valley" />
		<tag k="place" v="locality" />
		<tag k="ssr:stedsnr" v="78149" />
	</node>
	<node lat="68.87837499919554" lon="20.23353331331113" id="-39432">
		<tag k="name" v="Spállogas" />
		<tag k="name:se" v="Spállogas" />
		<tag k="natural" v="hill" />
		<tag k="place" v="locality" />
		<tag k="ssr:stedsnr" v="78154" />
	</node>
	<node lat="68.8678388925721" lon="20.11268610431311" id="-39433">
		<tag k="name" v="Gassavákkejohka" />
		<tag k="name:se" v="Gassavákkejohka" />
		<tag k="ssr:stedsnr" v="78155" />
		<tag k="waterway" v="river" />
	</node>
	<node lat="68.8620583303635" lon="19.55604444440494" id="-39434">
		<tag k="name" v="Østlund" />
		<tag k="place" v="farm" />
		<tag k="ssr:stedsnr" v="78163" />
	</node>
	<node lat="68.96810277619649" lon="19.698538878763788" id="-39435">
		<tag k="name" v="Elvevoll" />
		<tag k="place" v="farm" />
		<tag k="ssr:stedsnr" v="78254" />
	</node>
	<node lat="68.71696666209819" lon="19.422074996581085" id="-39436">
		<tag k="name" v="Geimmojohka" />
		<tag k="name:se" v="Geimmojohka" />
		<tag k="ssr:stedsnr" v="78422" />
		<tag k="waterway" v="stream" />
	</node>
	<node lat="68.99235833202557" lon="18.761730542340832" id="-39437">
		<tag k="name" v="Vakkermoen" />
		<tag k="place" v="locality" />
		<tag k="ssr:stedsnr" v="78425" />
	</node>
	<node lat="68.65106389154403" lon="19.774149981199564" id="-39438">
		<tag k="name" v="Skjærbekken" />
		<tag k="ssr:stedsnr" v="78396" />
		<tag k="waterway" v="stream" />
	</node>
</osm>
