<?xml version="1.0" encoding="UTF-8"?>
<osm version="0.6" generator="osmapis">
	<node lat="69.29757222547404" lon="18.613202776207817" id="-101562">
		<tag k="name" v="Oterholbukta" />
		<tag k="natural" v="bay" />
		<tag k="ssr:stedsnr" v="50188" />
	</node>
	<node lat="69.25887222192115" lon="18.499372213074086" id="-101587">
		<tag k="fixme" v="consider seamark:type=rock or natural=shoal" />
		<tag k="name" v="Hamnesstroket" />
		<tag k="place" v="islet" />
		<tag k="ssr:stedsnr" v="51469" />
	</node>
	<node lat="69.32050277603749" lon="18.553644434266193" id="-101781">
		<tag k="name" v="Eidet" />
		<tag k="natural" v="isthmus" />
		<tag k="place" v="locality" />
		<tag k="ssr:stedsnr" v="112168" />
	</node>
	<node lat="69.28536388829443" lon="18.491905558567645" id="-101842">
		<tag k="name" v="Sandholmen" />
		<tag k="place" v="islet" />
		<tag k="ssr:stedsnr" v="140830" />
	</node>
	<node lat="69.30841388431624" lon="18.59454722678536" id="-101848">
		<tag k="name" v="Mortenneset" />
		<tag k="natural" v="cape" />
		<tag k="ssr:stedsnr" v="171168" />
	</node>
	<node lat="69.29532778176572" lon="18.54195554681654" id="-101921">
		<tag k="name" v="Vika" />
		<tag k="natural" v="bay" />
		<tag k="ssr:stedsnr" v="208777" />
	</node>
	<node lat="69.28509709523303" lon="18.533952627573527" id="-102018">
		<tag k="name" v="Hollendernes" />
		<tag k="natural" v="cape" />
		<tag k="ssr:stedsnr" v="443810" />
	</node>
	<node lat="69.2852472221325" lon="18.653519442205628" id="-102135">
		<tag k="name" v="Slaktarvika" />
		<tag k="natural" v="bay" />
		<tag k="ssr:stedsnr" v="294137" />
	</node>
	<node lat="69.33199166943567" lon="18.529174990955738" id="-102278">
		<tag k="name" v="Målsneset" />
		<tag k="natural" v="cape" />
		<tag k="ssr:stedsnr" v="382764" />
	</node>
	<node lat="69.28195832975615" lon="18.666483324055203" id="-102390">
		<tag k="name" v="Litjevika" />
		<tag k="natural" v="bay" />
		<tag k="ssr:stedsnr" v="475746" />
	</node>
	<node lat="69.3308166654789" lon="18.581997215472253" id="-102403">
		<tag k="name" v="Navarneset" />
		<tag k="natural" v="cape" />
		<tag k="ssr:stedsnr" v="476137" />
	</node>
	<node lat="69.28025277477161" lon="18.536519430383827" id="-102468">
		<tag k="name" v="Leikneset" />
		<tag k="natural" v="cape" />
		<tag k="ssr:stedsnr" v="443807" />
	</node>
	<node lat="69.30678888624723" lon="18.544563879733087" id="-102516">
		<tag k="name" v="Furuneset" />
		<tag k="natural" v="cape" />
		<tag k="ssr:stedsnr" v="476226" />
	</node>
	<node lat="69.35715277934348" lon="18.562616657471953" id="-102552">
		<tag k="name" v="Målsnesodden" />
		<tag k="natural" v="cape" />
		<tag k="ssr:stedsnr" v="503705" />
	</node>
	<node lat="69.28790833629994" lon="18.64730000323679" id="-102593">
		<tag k="fixme" v="consider seamark:type=rock or natural=shoal" />
		<tag k="name" v="Fangsteinen" />
		<tag k="place" v="islet" />
		<tag k="ssr:stedsnr" v="537131" />
	</node>
	<node lat="69.27824166773694" lon="18.68448331676004" id="-102731">
		<tag k="name" v="Perhansanesodden" />
		<tag k="natural" v="cape" />
		<tag k="ssr:stedsnr" v="596724" />
	</node>
	<node lat="69.32072777734047" lon="18.57144444710548" id="-102790">
		<tag k="name" v="Eidbukta" />
		<tag k="natural" v="bay" />
		<tag k="ssr:stedsnr" v="686780" />
	</node>
	<node lat="69.2561777739453" lon="18.702708323097927" id="-102876">
		<tag k="name" v="Kjosen" />
		<tag k="natural" v="bay" />
		<tag k="ssr:stedsnr" v="658186" />
	</node>
	<node lat="69.35331944596898" lon="18.574519452166886" id="-102929">
		<tag k="name" v="Korrisøra" />
		<tag k="natural" v="cape" />
		<tag k="ssr:stedsnr" v="689206" />
	</node>
	<node lat="69.30521944595225" lon="18.52208333093266" id="-103090">
		<tag k="name" v="Ørbanken" />
		<tag k="natural" v="shoal" />
		<tag k="place" v="locality" />
		<tag k="ssr:stedsnr" v="901207" />
	</node>
	<node lat="69.32973055772318" lon="18.581991656577458" id="-103226">
		<tag k="name" v="Navargrunnen" />
		<tag k="natural" v="shoal" />
		<tag k="place" v="locality" />
		<tag k="ssr:stedsnr" v="841134" />
	</node>
	<node lat="69.34391666243293" lon="18.58568888940858" id="-103299">
		<tag k="name" v="Storvikneset" />
		<tag k="natural" v="cape" />
		<tag k="ssr:stedsnr" v="901112" />
	</node>
	<node lat="69.33941388491442" lon="18.537247218495533" id="-103300">
		<tag k="alt_name" v="Dypvika" />
		<tag k="name" v="Djupvika" />
		<tag k="natural" v="bay" />
		<tag k="ssr:stedsnr" v="901114" />
	</node>
	<node lat="69.27151944085129" lon="18.69771387610635" id="-103304">
		<tag k="name" v="Keianeset" />
		<tag k="natural" v="cape" />
		<tag k="ssr:stedsnr" v="901159" />
	</node>
	<node lat="69.27858611142645" lon="18.49910000280808" id="-103483">
		<tag k="name" v="Gressholmen" />
		<tag k="place" v="islet" />
		<tag k="ssr:stedsnr" v="19822" />
	</node>
	<node lat="69.31844999590365" lon="18.541055548036685" id="-103502">
		<tag k="name" v="Perneset" />
		<tag k="natural" v="cape" />
		<tag k="ssr:stedsnr" v="51143" />
	</node>
	<node lat="69.25780555694674" lon="18.49683610593431" id="-103559">
		<tag k="name" v="Holmen" />
		<tag k="natural" v="cape" />
		<tag k="ssr:stedsnr" v="51472" />
	</node>
	<node lat="69.32217777507431" lon="18.540758325478308" id="-103707">
		<tag k="name" v="Grimstadbukta" />
		<tag k="natural" v="bay" />
		<tag k="ssr:stedsnr" v="112161" />
	</node>
	<node lat="69.33736388580564" lon="18.588022221832567" id="-103888">
		<tag k="name" v="Litjevika" />
		<tag k="natural" v="bay" />
		<tag k="ssr:stedsnr" v="173112" />
	</node>
	<node lat="69.25521944662485" lon="18.70475832754949" id="-103890">
		<tag k="name" v="Aursfjordbotn" />
		<tag k="natural" v="bay" />
		<tag k="ssr:stedsnr" v="173126" />
	</node>
	<node lat="69.2887499977621" lon="18.66346387123787" id="-104233">
		<tag k="bay" v="fjord" />
		<tag k="loc_name:se" v="Árvovuotna;Árvuotna" />
		<tag k="name" v="Aursfjorden" />
		<tag k="name:no" v="Aursfjorden" />
		<tag k="natural" v="bay" />
		<tag k="ssr:stedsnr" v="322773" />
	</node>
	<node lat="69.27935277570602" lon="18.68131109556218" id="-104250">
		<tag k="fixme" v="consider seamark:type=rock or natural=shoal" />
		<tag k="name" v="Draugsteinen" />
		<tag k="place" v="islet" />
		<tag k="ssr:stedsnr" v="353754" />
	</node>
	<node lat="69.34545833251555" lon="18.58094166503947" id="-104405">
		<tag k="name" v="Navarstorvika" />
		<tag k="natural" v="bay" />
		<tag k="ssr:stedsnr" v="382738" />
	</node>
	<node lat="69.34099999836334" lon="18.51178055742975" id="-104406">
		<tag k="bay" v="fjord" />
		<tag k="name" v="Målselvfjorden" />
		<tag k="natural" v="bay" />
		<tag k="ssr:stedsnr" v="382757" />
	</node>
	<node lat="69.34633055655407" lon="18.534680545755098" id="-104583">
		<tag k="name" v="Gressnes" />
		<tag k="natural" v="cape" />
		<tag k="ssr:stedsnr" v="503724" />
	</node>
	<node lat="69.3287250038718" lon="18.53376389409949" id="-104603">
		<tag k="name" v="Revnes" />
		<tag k="natural" v="cape" />
		<tag k="ssr:stedsnr" v="504781" />
	</node>
	<node lat="69.32290278192727" lon="18.56982777422268" id="-104683">
		<tag k="name" v="Satovarneset" />
		<tag k="natural" v="cape" />
		<tag k="ssr:stedsnr" v="537120" />
	</node>
	<node lat="69.29171111325014" lon="18.63666665092591" id="-104834">
		<tag k="fixme" v="consider seamark:type=rock or natural=shoal" />
		<tag k="name" v="Storsteinen" />
		<tag k="place" v="islet" />
		<tag k="ssr:stedsnr" v="597148" />
	</node>
	<node lat="69.29414722077199" lon="18.494794442139558" id="-105110">
		<tag k="name" v="Steinørbukta" />
		<tag k="natural" v="cape" />
		<tag k="ssr:stedsnr" v="719021" />
	</node>
	<node lat="69.3057249983203" lon="18.544100003700056" id="-105182">
		<tag k="name" v="Ørbanken" />
		<tag k="natural" v="bay" />
		<tag k="ssr:stedsnr" v="746768" />
	</node>
	<node lat="69.34993888720531" lon="18.539708339057114" id="-105518">
		<tag k="name" v="Langstrand" />
		<tag k="natural" v="beach" />
		<tag k="ssr:stedsnr" v="868724" />
	</node>
	<node lat="69.41708610949948" lon="18.427299988675863" id="-105579">
		<tag k="bay" v="fjord" />
		<tag k="loc_name:se" v="Málatvuotna" />
		<tag k="name" v="Malangen" />
		<tag k="name:no" v="Malangen" />
		<tag k="natural" v="bay" />
		<tag k="ssr:stedsnr" v="929638" />
	</node>
	<node lat="69.34790277845981" lon="18.535388883924853" id="-105625">
		<tag k="alt_name" v="Gresnesbukta" />
		<tag k="name" v="Gressnesbukta" />
		<tag k="natural" v="bay" />
		<tag k="ssr:stedsnr" v="961129" />
	</node>
</osm>
