<?xml version="1.0" encoding="UTF-8"?>
<osm version="0.6" generator="osmapis">
	<node lat="69.03676388626374" lon="18.771663885566433" id="-39243">
		<tag k="name" v="Andstaden" />
		<tag k="natural" v="bay" />
		<tag k="ssr:stedsnr" v="232147" />
	</node>
	<node lat="69.08941388916935" lon="18.69195278100035" id="-39244">
		<tag k="name" v="Enokvatnet" />
		<tag k="natural" v="water" />
		<tag k="ssr:stedsnr" v="232150" />
	</node>
	<node lat="69.01731388698023" lon="18.75763888180985" id="-39245">
		<tag k="name" v="Sagfossen" />
		<tag k="natural" v="waterfall" />
		<tag k="ssr:stedsnr" v="232152" />
	</node>
	<node lat="69.02155000492802" lon="18.74533610057746" id="-39247">
		<tag k="name" v="Kjervelvkjeften" />
		<tag k="natural" v="bay" />
		<tag k="ssr:stedsnr" v="232153" />
	</node>
	<node lat="68.98739444848033" lon="19.39543054663537" id="-39251">
		<tag k="name" v="Storhaugtjønna" />
		<tag k="natural" v="water" />
		<tag k="ssr:stedsnr" v="232245" />
	</node>
	<node lat="69.13794444370325" lon="18.85346110404634" id="-39252">
		<tag k="name" v="Karlvassbekken" />
		<tag k="ssr:stedsnr" v="232319" />
		<tag k="waterway" v="stream" />
	</node>
	<node lat="69.01163055130117" lon="19.433777775992" id="-39257">
		<tag k="name" v="Gammelromkjosen" />
		<tag k="natural" v="bay" />
		<tag k="ssr:stedsnr" v="232346" />
	</node>
	<node lat="69.0109611116935" lon="18.86000554200661" id="-39264">
		<tag k="name" v="Kjosan" />
		<tag k="natural" v="bay" />
		<tag k="ssr:stedsnr" v="232765" />
	</node>
	<node lat="69.01291388786147" lon="18.870530559677263" id="-39265">
		<tag k="name" v="Heimneset" />
		<tag k="natural" v="cape" />
		<tag k="ssr:stedsnr" v="232770" />
	</node>
	<node lat="69.16548889229817" lon="18.470199997109948" id="-39267">
		<tag k="name" v="Johan-Karlbekken" />
		<tag k="ssr:stedsnr" v="232845" />
		<tag k="waterway" v="stream" />
	</node>
	<node lat="68.7669750025027" lon="19.621161090818674" id="-39275">
		<tag k="name" v="Rasbekken" />
		<tag k="ssr:stedsnr" v="17215" />
		<tag k="waterway" v="stream" />
	</node>
	<node lat="69.05119444850406" lon="18.538383318011988" id="-39279">
		<tag k="name" v="Elvekroken" />
		<tag k="natural" v="bay" />
		<tag k="ssr:stedsnr" v="232973" />
	</node>
	<node lat="69.25849444200337" lon="18.670641662053164" id="-39281">
		<tag k="name" v="Holmen" />
		<tag k="natural" v="cape" />
		<tag k="ssr:stedsnr" v="233192" />
	</node>
	<node lat="69.17143889380655" lon="18.704477764725926" id="-39286">
		<tag k="name" v="Ole-Jansavatnet" />
		<tag k="natural" v="water" />
		<tag k="ssr:stedsnr" v="17810" />
	</node>
	<node lat="68.8034527806953" lon="20.15638054969637" id="-39287">
		<tag k="name" v="Hárvesjávri" />
		<tag k="name:se" v="Hárvesjávri" />
		<tag k="natural" v="water" />
		<tag k="ssr:stedsnr" v="18101" />
		<tag k="water" v="lake" />
	</node>
	<node lat="69.27874722231239" lon="18.6428444279237" id="-39291">
		<tag k="name" v="Storelva" />
		<tag k="ssr:stedsnr" v="233165" />
		<tag k="waterway" v="stream" />
	</node>
	<node lat="69.1453000036678" lon="18.323366656356033" id="-39295">
		<tag k="name" v="Vakkerhumpvatnet" />
		<tag k="natural" v="water" />
		<tag k="ssr:stedsnr" v="18515" />
	</node>
	<node lat="69.13952499547013" lon="18.352758336320147" id="-39296">
		<tag k="name" v="Sommarrovatnet" />
		<tag k="natural" v="water" />
		<tag k="ssr:stedsnr" v="18517" />
	</node>
	<node lat="69.01121111120405" lon="19.19780276595202" id="-39307">
		<tag k="alt_name" v="Holmtjørna" />
		<tag k="name" v="Holmtjønna" />
		<tag k="natural" v="water" />
		<tag k="ssr:stedsnr" v="19157" />
	</node>
	<node lat="69.19585833134693" lon="18.683930546994265" id="-39313">
		<tag k="name" v="Øverfossen" />
		<tag k="natural" v="waterfall" />
		<tag k="ssr:stedsnr" v="233340" />
	</node>
	<node lat="69.15397499628122" lon="18.286847209897488" id="-39319">
		<tag k="name" v="Hamnelvvatnan" />
		<tag k="natural" v="water" />
		<tag k="ssr:stedsnr" v="19511" />
		<tag k="water" v="lake" />
	</node>
	<node lat="69.19751666325287" lon="18.621169446123982" id="-39325">
		<tag k="name" v="Svartvassbekken" />
		<tag k="ssr:stedsnr" v="233396" />
		<tag k="waterway" v="stream" />
	</node>
	<node lat="69.10219166971916" lon="18.887683326180476" id="-39326">
		<tag k="name" v="Kaldbekken" />
		<tag k="ssr:stedsnr" v="233410" />
		<tag k="waterway" v="stream" />
	</node>
	<node lat="69.17689722215667" lon="18.571133324442542" id="-39331">
		<tag k="name" v="Broderstadbekken" />
		<tag k="ssr:stedsnr" v="233518" />
		<tag k="waterway" v="stream" />
	</node>
	<node lat="68.9481305524887" lon="18.938477769384697" id="-39332">
		<tag k="name" v="Langleite" />
		<tag k="natural" v="water" />
		<tag k="ssr:stedsnr" v="233456" />
		<tag k="water" v="lake" />
	</node>
	<node lat="68.89787222126708" lon="19.53772777861678" id="-39337">
		<tag k="name" v="Skålpfloen" />
		<tag k="natural" v="water" />
		<tag k="ssr:stedsnr" v="233549" />
		<tag k="water" v="lake" />
	</node>
	<node lat="68.80937500483303" lon="19.604422210592038" id="-39339">
		<tag k="name" v="Skjærbekken" />
		<tag k="ssr:stedsnr" v="233557" />
		<tag k="waterway" v="stream" />
	</node>
	<node lat="68.86600833574217" lon="19.07115832710882" id="-39344">
		<tag k="name" v="Holmengrena" />
		<tag k="ssr:stedsnr" v="233651" />
		<tag k="waterway" v="stream" />
	</node>
	<node lat="68.9186444478353" lon="18.977266655156757" id="-39346">
		<tag k="name" v="Badtjønna" />
		<tag k="natural" v="water" />
		<tag k="ssr:stedsnr" v="233660" />
	</node>
	<node lat="69.2198777742399" lon="18.473399990853707" id="-39347">
		<tag k="name" v="Kjosen" />
		<tag k="natural" v="bay" />
		<tag k="ssr:stedsnr" v="233595" />
	</node>
	<node lat="68.77193611580813" lon="19.701099989380598" id="-39355">
		<tag k="name" v="Bersvendholmen" />
		<tag k="place" v="islet" />
		<tag k="ssr:stedsnr" v="233811" />
	</node>
	<node lat="69.03064722280513" lon="19.574174996807564" id="-39356">
		<tag k="name" v="Småbekkan" />
		<tag k="ssr:stedsnr" v="233813" />
		<tag k="waterway" v="stream" />
	</node>
	<node lat="68.72196944499261" lon="19.73156665929063" id="-39357">
		<tag k="name" v="Langnesbekken" />
		<tag k="ssr:stedsnr" v="233836" />
		<tag k="waterway" v="stream" />
	</node>
	<node lat="68.74803333648717" lon="19.727438868578304" id="-39358">
		<tag k="name" v="Søndre Henbergnes" />
		<tag k="natural" v="cape" />
		<tag k="ssr:stedsnr" v="233842" />
	</node>
	<node lat="68.98535000083743" lon="19.196394433218526" id="-39372">
		<tag k="name" v="Hølbekken" />
		<tag k="ssr:stedsnr" v="50801" />
		<tag k="waterway" v="stream" />
	</node>
	<node lat="69.24920833040223" lon="18.692841665537596" id="-39375">
		<tag k="name" v="Storneset" />
		<tag k="natural" v="cape" />
		<tag k="ssr:stedsnr" v="51169" />
	</node>
	<node lat="69.23557500419095" lon="18.689888890148122" id="-39377">
		<tag k="name" v="Neset" />
		<tag k="natural" v="cape" />
		<tag k="ssr:stedsnr" v="51175" />
	</node>
	<node lat="69.25953333276385" lon="18.665211095641876" id="-39381">
		<tag k="name" v="Johanneslabekken" />
		<tag k="ssr:stedsnr" v="51181" />
		<tag k="waterway" v="stream" />
	</node>
	<node lat="69.00533888838785" lon="18.699774993006166" id="-39387">
		<tag k="name" v="Tortenlitjønna" />
		<tag k="natural" v="water" />
		<tag k="ssr:stedsnr" v="51076" />
	</node>
	<node lat="69.20727222559886" lon="18.47059721725129" id="-39401">
		<tag k="name" v="Kjosen" />
		<tag k="natural" v="bay" />
		<tag k="ssr:stedsnr" v="51585" />
	</node>
	<node lat="69.22248333316786" lon="18.459624994556425" id="-39411">
		<tag k="name" v="Hesttrøa" />
		<tag k="place" v="islet" />
		<tag k="ssr:stedsnr" v="51606" />
	</node>
	<node lat="69.17710000187927" lon="18.436033331299445" id="-39412">
		<tag k="name" v="Ola-lafossen" />
		<tag k="natural" v="waterfall" />
		<tag k="ssr:stedsnr" v="51801" />
	</node>
	<node lat="69.16500833319067" lon="18.381030540866206" id="-39414">
		<tag k="name" v="Reierfossen" />
		<tag k="natural" v="waterfall" />
		<tag k="ssr:stedsnr" v="51881" />
	</node>
	<node lat="68.8207361151841" lon="19.628366663234218" id="-39420">
		<tag k="name" v="Fossmobekken" />
		<tag k="ssr:stedsnr" v="51781" />
		<tag k="waterway" v="stream" />
	</node>
	<node lat="68.84728888850782" lon="19.63161664862872" id="-39421">
		<tag k="name" v="Langkjostjønna" />
		<tag k="natural" v="water" />
		<tag k="ssr:stedsnr" v="51786" />
	</node>
	<node lat="68.81437500469752" lon="19.651474986066603" id="-39423">
		<tag k="name" v="Fiskbergholmen" />
		<tag k="place" v="islet" />
		<tag k="ssr:stedsnr" v="51970" />
	</node>
	<node lat="68.84063333129527" lon="19.58343611024834" id="-39425">
		<tag k="name" v="Båthølet" />
		<tag k="natural" v="bay" />
		<tag k="ssr:stedsnr" v="52710" />
	</node>
	<node lat="68.83298888861752" lon="19.610483326185193" id="-39427">
		<tag k="name" v="Nedre Fosstjønn" />
		<tag k="natural" v="water" />
		<tag k="ssr:stedsnr" v="52684" />
	</node>
	<node lat="69.00704999798434" lon="19.467652756879396" id="-39428">
		<tag k="name" v="Kråa" />
		<tag k="natural" v="strait" />
		<tag k="ssr:stedsnr" v="52813" />
	</node>
	<node lat="68.93811667086784" lon="19.504861097480603" id="-39430">
		<tag k="name" v="Attkjippneset" />
		<tag k="natural" v="cape" />
		<tag k="ssr:stedsnr" v="52868" />
	</node>
	<node lat="68.8678388925721" lon="20.11268610431311" id="-39433">
		<tag k="name" v="Gassavákkejohka" />
		<tag k="name:se" v="Gassavákkejohka" />
		<tag k="ssr:stedsnr" v="78155" />
		<tag k="waterway" v="river" />
	</node>
	<node lat="68.71696666209819" lon="19.422074996581085" id="-39436">
		<tag k="name" v="Geimmojohka" />
		<tag k="name:se" v="Geimmojohka" />
		<tag k="ssr:stedsnr" v="78422" />
		<tag k="waterway" v="stream" />
	</node>
	<node lat="68.65106389154403" lon="19.774149981199564" id="-39438">
		<tag k="name" v="Skjærbekken" />
		<tag k="ssr:stedsnr" v="78396" />
		<tag k="waterway" v="stream" />
	</node>
</osm>
