<?xml version="1.0" encoding="UTF-8"?>
<osm version="0.6" generator="osmapis">
	<node lat="69.10136666381534" lon="18.442422209088036" id="-39241">
		<tag k="name" v="Sivertberget" />
		<tag k="natural" v="hill" />
		<tag k="place" v="locality" />
		<tag k="ssr:stedsnr" v="232014" />
	</node>
	<node lat="69.03886944241565" lon="18.664433316607337" id="-39246">
		<tag k="name" v="Lystringshaugan" />
		<tag k="natural" v="hill" />
		<tag k="place" v="locality" />
		<tag k="ssr:stedsnr" v="232126" />
	</node>
	<node lat="69.01546388520093" lon="18.80111110978787" id="-39248">
		<tag k="name" v="Heimmoen" />
		<tag k="place" v="locality" />
		<tag k="ssr:stedsnr" v="232163" />
	</node>
	<node lat="69.13698055216452" lon="18.67451388845364" id="-39249">
		<tag k="name" v="Sølabekkmoen" />
		<tag k="place" v="locality" />
		<tag k="ssr:stedsnr" v="232171" />
	</node>
	<node lat="69.03539166811257" lon="19.387966645430033" id="-39254">
		<tag k="name" v="Stenflåan" />
		<tag k="natural" v="hill" />
		<tag k="place" v="locality" />
		<tag k="ssr:stedsnr" v="232257" />
	</node>
	<node lat="69.21684166488866" lon="18.696124995579865" id="-39255">
		<tag k="name" v="Steinlia" />
		<tag k="natural" v="slope" />
		<tag k="place" v="locality" />
		<tag k="ssr:stedsnr" v="232258" />
	</node>
	<node lat="69.22396388839579" lon="18.702016663755657" id="-39256">
		<tag k="name" v="Skredbekkskaret" />
		<tag k="natural" v="valley" />
		<tag k="place" v="locality" />
		<tag k="ssr:stedsnr" v="232259" />
	</node>
	<node lat="69.19974166440386" lon="18.72893887879078" id="-39260">
		<tag k="name" v="Slettmoen" />
		<tag k="place" v="locality" />
		<tag k="ssr:stedsnr" v="233297" />
	</node>
	<node lat="69.00100555714003" lon="18.605627774962382" id="-39261">
		<tag k="name" v="Trolldalen" />
		<tag k="natural" v="valley" />
		<tag k="place" v="locality" />
		<tag k="ssr:stedsnr" v="232470" />
	</node>
	<node lat="69.03581389002302" lon="19.27029165830578" id="-39262">
		<tag k="name" v="Finnteltrommet" />
		<tag k="place" v="locality" />
		<tag k="ssr:stedsnr" v="232579" />
	</node>
	<node lat="69.06870278056718" lon="18.549016652627262" id="-39266">
		<tag k="name" v="Einbakkan" />
		<tag k="natural" v="slope" />
		<tag k="place" v="locality" />
		<tag k="ssr:stedsnr" v="232841" />
	</node>
	<node lat="69.01563055554222" lon="19.22752499933645" id="-39269">
		<tag k="fixme" v="consider natural=peak for the most distinct mountains in the district" />
		<tag k="name" v="Veslkalvhauet" />
		<tag k="natural" v="hill" />
		<tag k="place" v="locality" />
		<tag k="ssr:stedsnr" v="232850" />
	</node>
	<node lat="69.06717778174429" lon="18.628066659164418" id="-39271">
		<tag k="name" v="Brumoen" />
		<tag k="place" v="locality" />
		<tag k="ssr:stedsnr" v="232862" />
	</node>
	<node lat="69.21088889010055" lon="18.414238882042508" id="-39272">
		<tag k="name" v="Tjæramilene" />
		<tag k="natural" v="slope" />
		<tag k="place" v="locality" />
		<tag k="ssr:stedsnr" v="232924" />
	</node>
	<node lat="69.2584111088661" lon="18.63348331898728" id="-39273">
		<tag k="name" v="Kvannlia" />
		<tag k="natural" v="slope" />
		<tag k="place" v="locality" />
		<tag k="ssr:stedsnr" v="233016" />
	</node>
	<node lat="68.92220278232404" lon="19.862980540873007" id="-39276">
		<tag k="fixme" v="consider natural=peak for the most distinct mountains in the district" />
		<tag k="name" v="Høglikka" />
		<tag k="natural" v="hill" />
		<tag k="place" v="locality" />
		<tag k="ssr:stedsnr" v="17159" />
	</node>
	<node lat="68.90976389389637" lon="20.06636109011971" id="-39277">
		<tag k="fixme" v="consider natural=peak for the most distinct mountains in the district" />
		<tag k="name" v="Áslatvárri" />
		<tag k="name:se" v="Áslatvárri" />
		<tag k="natural" v="hill" />
		<tag k="place" v="locality" />
		<tag k="ssr:stedsnr" v="17164" />
	</node>
	<node lat="68.91104166490365" lon="20.297388881841666" id="-39278">
		<tag k="name" v="Šalbmi" />
		<tag k="name:se" v="Šalbmi" />
		<tag k="natural" v="valley" />
		<tag k="place" v="locality" />
		<tag k="ssr:stedsnr" v="17166" />
	</node>
	<node lat="69.2860999956462" lon="18.48195833838857" id="-39284">
		<tag k="name" v="Salinberget" />
		<tag k="natural" v="hill" />
		<tag k="place" v="locality" />
		<tag k="ssr:stedsnr" v="233037" />
	</node>
	<node lat="69.32727221864572" lon="18.546886094629937" id="-39289">
		<tag k="name" v="Forraberget" />
		<tag k="natural" v="hill" />
		<tag k="place" v="locality" />
		<tag k="ssr:stedsnr" v="233149" />
	</node>
	<node lat="68.9738861150243" lon="18.77849998942947" id="-39293">
		<tag k="name" v="Banelvdalen" />
		<tag k="natural" v="valley" />
		<tag k="place" v="locality" />
		<tag k="ssr:stedsnr" v="18349" />
	</node>
	<node lat="69.02001111425739" lon="19.72207499870749" id="-39294">
		<tag k="fixme" v="consider natural=peak for the most distinct mountains in the district" />
		<tag k="name" v="Brattlifjellet" />
		<tag k="natural" v="hill" />
		<tag k="place" v="locality" />
		<tag k="ssr:stedsnr" v="18359" />
	</node>
	<node lat="69.11792221875139" lon="18.826041650111257" id="-39297">
		<tag k="name" v="Storhaugen" />
		<tag k="natural" v="hill" />
		<tag k="place" v="locality" />
		<tag k="ssr:stedsnr" v="18802" />
	</node>
	<node lat="69.14964999893158" lon="18.728683318455584" id="-39299">
		<tag k="fixme" v="consider natural=peak for the most distinct mountains in the district" />
		<tag k="name" v="Sollitinden" />
		<tag k="natural" v="hill" />
		<tag k="place" v="locality" />
		<tag k="ssr:stedsnr" v="18702" />
	</node>
	<node lat="69.31467499946595" lon="18.55844164963583" id="-39303">
		<tag k="name" v="Rubben" />
		<tag k="natural" v="hill" />
		<tag k="place" v="locality" />
		<tag k="ssr:stedsnr" v="233253" />
	</node>
	<node lat="69.2475861100522" lon="18.55606665973588" id="-39304">
		<tag k="name" v="Vedlia" />
		<tag k="natural" v="slope" />
		<tag k="place" v="locality" />
		<tag k="ssr:stedsnr" v="233266" />
	</node>
	<node lat="69.23856944281064" lon="18.537147220386206" id="-39305">
		<tag k="name" v="Sturrabben" />
		<tag k="natural" v="hill" />
		<tag k="place" v="locality" />
		<tag k="ssr:stedsnr" v="233267" />
	</node>
	<node lat="69.1010638893444" lon="18.906288892986176" id="-39308">
		<tag k="name" v="Skavbakken" />
		<tag k="natural" v="slope" />
		<tag k="place" v="locality" />
		<tag k="ssr:stedsnr" v="233431" />
	</node>
	<node lat="69.22452499761401" lon="18.324994440354036" id="-39309">
		<tag k="name" v="Krakkhola" />
		<tag k="natural" v="valley" />
		<tag k="place" v="locality" />
		<tag k="ssr:stedsnr" v="233432" />
	</node>
	<node lat="69.22748333704897" lon="18.313933334875518" id="-39310">
		<tag k="name" v="Kvalryggen" />
		<tag k="natural" v="ridge" />
		<tag k="place" v="locality" />
		<tag k="ssr:stedsnr" v="233433" />
	</node>
	<node lat="68.98879722375644" lon="18.905391654335215" id="-39311">
		<tag k="name" v="Revmoen" />
		<tag k="place" v="locality" />
		<tag k="ssr:stedsnr" v="233443" />
	</node>
	<node lat="69.20934444666258" lon="18.53378887689424" id="-39317">
		<tag k="name" v="Falkberget" />
		<tag k="natural" v="hill" />
		<tag k="place" v="locality" />
		<tag k="ssr:stedsnr" v="233367" />
	</node>
	<node lat="68.97648611169922" lon="19.288966652686508" id="-39318">
		<tag k="name" v="Nerøyen" />
		<tag k="place" v="locality" />
		<tag k="ssr:stedsnr" v="233371" />
	</node>
	<node lat="69.13565277846047" lon="18.36934444536372" id="-39323">
		<tag k="name" v="Sennavassdalen" />
		<tag k="natural" v="valley" />
		<tag k="place" v="locality" />
		<tag k="ssr:stedsnr" v="233394" />
	</node>
	<node lat="69.14244721985854" lon="18.389377778916444" id="-39324">
		<tag k="name" v="Trongen" />
		<tag k="natural" v="valley" />
		<tag k="place" v="locality" />
		<tag k="ssr:stedsnr" v="233395" />
	</node>
	<node lat="69.10004167023959" lon="18.890905562717148" id="-39328">
		<tag k="name" v="Vedhøgsten" />
		<tag k="natural" v="slope" />
		<tag k="place" v="locality" />
		<tag k="ssr:stedsnr" v="233414" />
	</node>
	<node lat="69.2366500039393" lon="18.310016657008664" id="-39330">
		<tag k="name" v="Krøkebærhaugen" />
		<tag k="natural" v="hill" />
		<tag k="place" v="locality" />
		<tag k="ssr:stedsnr" v="233424" />
	</node>
	<node lat="68.90770833038543" lon="19.537249980050024" id="-39336">
		<tag k="name" v="Bjørneborg" />
		<tag k="place" v="locality" />
		<tag k="ssr:stedsnr" v="233544" />
	</node>
	<node lat="68.99353611227593" lon="19.08952222348604" id="-39340">
		<tag k="name" v="Revhaugan" />
		<tag k="natural" v="hill" />
		<tag k="place" v="locality" />
		<tag k="ssr:stedsnr" v="233559" />
	</node>
	<node lat="68.99516110911966" lon="19.10241109245295" id="-39342">
		<tag k="name" v="Hølbekkmoen" />
		<tag k="place" v="locality" />
		<tag k="ssr:stedsnr" v="233569" />
	</node>
	<node lat="69.00692222418667" lon="18.96657498151404" id="-39343">
		<tag k="name" v="Bussta" />
		<tag k="natural" v="slope" />
		<tag k="place" v="locality" />
		<tag k="ssr:stedsnr" v="233578" />
	</node>
	<node lat="68.86684166696644" lon="19.083791655344434" id="-39345">
		<tag k="name" v="Bjørkåsflatene" />
		<tag k="place" v="locality" />
		<tag k="ssr:stedsnr" v="233656" />
	</node>
	<node lat="69.17396388913916" lon="18.401622208762763" id="-39348">
		<tag k="name" v="Nattmålshaugen" />
		<tag k="natural" v="hill" />
		<tag k="place" v="locality" />
		<tag k="ssr:stedsnr" v="233745" />
	</node>
	<node lat="69.17319166858913" lon="18.39813053984525" id="-39349">
		<tag k="name" v="Kavelbakken" />
		<tag k="natural" v="slope" />
		<tag k="place" v="locality" />
		<tag k="ssr:stedsnr" v="233746" />
	</node>
	<node lat="68.84587777863558" lon="19.60038610478416" id="-39350">
		<tag k="name" v="Ørnreirberget" />
		<tag k="natural" v="hill" />
		<tag k="place" v="locality" />
		<tag k="ssr:stedsnr" v="233747" />
	</node>
	<node lat="69.02450555273208" lon="18.963144424486714" id="-39351">
		<tag k="name" v="Tekkja" />
		<tag k="natural" v="slope" />
		<tag k="place" v="locality" />
		<tag k="ssr:stedsnr" v="233772" />
	</node>
	<node lat="69.0289611084887" lon="18.971172205987934" id="-39352">
		<tag k="name" v="Fjellslåttbergan" />
		<tag k="natural" v="hill" />
		<tag k="place" v="locality" />
		<tag k="ssr:stedsnr" v="233774" />
	</node>
	<node lat="69.02118333401035" lon="18.961624990169877" id="-39353">
		<tag k="name" v="Mortenvelta" />
		<tag k="natural" v="slope" />
		<tag k="place" v="locality" />
		<tag k="ssr:stedsnr" v="233782" />
	</node>
	<node lat="69.0224472257735" lon="19.005580560356044" id="-39354">
		<tag k="name" v="Myra og Haugen" />
		<tag k="natural" v="hill" />
		<tag k="place" v="locality" />
		<tag k="ssr:stedsnr" v="233785" />
	</node>
	<node lat="69.06762222519953" lon="18.659763882663224" id="-39359">
		<tag k="name" v="Stordalen" />
		<tag k="natural" v="valley" />
		<tag k="place" v="locality" />
		<tag k="ssr:stedsnr" v="233704" />
	</node>
	<node lat="68.92774722446234" lon="19.507108333767864" id="-39360">
		<tag k="name" v="Langbakken" />
		<tag k="natural" v="slope" />
		<tag k="place" v="locality" />
		<tag k="ssr:stedsnr" v="233719" />
	</node>
	<node lat="69.02183333350108" lon="19.630947204988757" id="-39362">
		<tag k="name" v="Kvennelvskaret" />
		<tag k="natural" v="valley" />
		<tag k="place" v="locality" />
		<tag k="ssr:stedsnr" v="233973" />
	</node>
	<node lat="69.22053055568996" lon="18.51080833416793" id="-39363">
		<tag k="name" v="Rundhaugen" />
		<tag k="natural" v="hill" />
		<tag k="place" v="locality" />
		<tag k="ssr:stedsnr" v="35373" />
	</node>
	<node lat="69.11621944580317" lon="18.978244429878178" id="-39365">
		<tag k="alt_name" v="Hompen" />
		<tag k="name" v="Humpen" />
		<tag k="natural" v="hill" />
		<tag k="place" v="locality" />
		<tag k="ssr:stedsnr" v="50619" />
	</node>
	<node lat="69.11995278248631" lon="18.95644442952573" id="-39366">
		<tag k="name" v="Peder-Larsalia" />
		<tag k="natural" v="slope" />
		<tag k="place" v="locality" />
		<tag k="ssr:stedsnr" v="50622" />
	</node>
	<node lat="68.9733555529738" lon="19.199947223790993" id="-39367">
		<tag k="name" v="Slåtthaugen" />
		<tag k="natural" v="hill" />
		<tag k="place" v="locality" />
		<tag k="ssr:stedsnr" v="50623" />
	</node>
	<node lat="69.0241777800631" lon="18.60898887671037" id="-39368">
		<tag k="name" v="Nedre Langmyrrygg" />
		<tag k="natural" v="ridge" />
		<tag k="place" v="locality" />
		<tag k="ssr:stedsnr" v="50901" />
	</node>
	<node lat="69.08226944881248" lon="18.586174986954358" id="-39369">
		<tag k="name" v="Gustavrommet" />
		<tag k="place" v="locality" />
		<tag k="ssr:stedsnr" v="50912" />
	</node>
	<node lat="69.09985833021646" lon="18.584888878053828" id="-39370">
		<tag k="name" v="Sagstillingsmoen" />
		<tag k="place" v="locality" />
		<tag k="ssr:stedsnr" v="50920" />
	</node>
	<node lat="69.2334027794542" lon="18.450913874880264" id="-39373">
		<tag k="name" v="Kringlemoen" />
		<tag k="place" v="locality" />
		<tag k="ssr:stedsnr" v="51108" />
	</node>
	<node lat="68.9894222200077" lon="18.79321111098778" id="-39374">
		<tag k="name" v="Bjønnbåsaksla" />
		<tag k="place" v="locality" />
		<tag k="ssr:stedsnr" v="51110" />
	</node>
	<node lat="69.24515278201447" lon="18.710983320308486" id="-39376">
		<tag k="alt_name" v="Berghompen" />
		<tag k="name" v="Berghumpen" />
		<tag k="natural" v="hill" />
		<tag k="place" v="locality" />
		<tag k="ssr:stedsnr" v="51173" />
	</node>
	<node lat="69.23799166548275" lon="18.66337776384423" id="-39378">
		<tag k="name" v="Småslettene" />
		<tag k="place" v="locality" />
		<tag k="ssr:stedsnr" v="51176" />
	</node>
	<node lat="69.26667778266328" lon="18.67396665367656" id="-39379">
		<tag k="name" v="Geitberget" />
		<tag k="natural" v="hill" />
		<tag k="place" v="locality" />
		<tag k="ssr:stedsnr" v="51179" />
	</node>
	<node lat="69.14125555495208" lon="18.712788871069915" id="-39380">
		<tag k="name" v="Skitaberglia" />
		<tag k="natural" v="slope" />
		<tag k="place" v="locality" />
		<tag k="ssr:stedsnr" v="51180" />
	</node>
	<node lat="69.25283333426465" lon="18.669449997328734" id="-39382">
		<tag k="name" v="Slettene" />
		<tag k="place" v="locality" />
		<tag k="ssr:stedsnr" v="51184" />
	</node>
	<node lat="69.20480278040058" lon="18.720683316576164" id="-39383">
		<tag k="name" v="Melkeberget" />
		<tag k="natural" v="hill" />
		<tag k="place" v="locality" />
		<tag k="ssr:stedsnr" v="51304" />
	</node>
	<node lat="69.00121666263195" lon="19.39422221438412" id="-39384">
		<tag k="fixme" v="consider natural=peak for the most distinct mountains in the district" />
		<tag k="name" v="Neråsen" />
		<tag k="natural" v="hill" />
		<tag k="place" v="locality" />
		<tag k="ssr:stedsnr" v="51307" />
	</node>
	<node lat="68.99999722517393" lon="19.41136943798473" id="-39385">
		<tag k="name" v="Sørhalla" />
		<tag k="natural" v="slope" />
		<tag k="place" v="locality" />
		<tag k="ssr:stedsnr" v="51311" />
	</node>
	<node lat="68.98592222163936" lon="18.71393054716289" id="-39389">
		<tag k="name" v="Kjervelvlia" />
		<tag k="natural" v="slope" />
		<tag k="place" v="locality" />
		<tag k="ssr:stedsnr" v="51079" />
	</node>
	<node lat="69.23764999966673" lon="18.537505556857894" id="-39392">
		<tag k="name" v="Høyhågbakken" />
		<tag k="natural" v="slope" />
		<tag k="place" v="locality" />
		<tag k="ssr:stedsnr" v="51285" />
	</node>
	<node lat="69.17675277468875" lon="18.67390555009812" id="-39393">
		<tag k="name" v="Fosslia" />
		<tag k="natural" v="slope" />
		<tag k="place" v="locality" />
		<tag k="ssr:stedsnr" v="51287" />
	</node>
	<node lat="68.96551666655716" lon="19.360438872661174" id="-39395">
		<tag k="name" v="Langfjellaksla" />
		<tag k="place" v="locality" />
		<tag k="ssr:stedsnr" v="51379" />
	</node>
	<node lat="69.019647217684" lon="19.40802222170645" id="-39398">
		<tag k="name" v="Ågårdlia" />
		<tag k="natural" v="slope" />
		<tag k="place" v="locality" />
		<tag k="ssr:stedsnr" v="51569" />
	</node>
	<node lat="68.97580277644427" lon="19.007427770119975" id="-39399">
		<tag k="name" v="Snauhaugen" />
		<tag k="natural" v="hill" />
		<tag k="place" v="locality" />
		<tag k="ssr:stedsnr" v="51574" />
	</node>
	<node lat="69.01262500455212" lon="18.961716658703544" id="-39400">
		<tag k="name" v="Brannhaugen" />
		<tag k="natural" v="hill" />
		<tag k="place" v="locality" />
		<tag k="ssr:stedsnr" v="51582" />
	</node>
	<node lat="69.07951666843265" lon="18.720741665970685" id="-39403">
		<tag k="name" v="Finnteltholtet" />
		<tag k="natural" v="hill" />
		<tag k="place" v="locality" />
		<tag k="ssr:stedsnr" v="51703" />
	</node>
	<node lat="69.06667499617645" lon="18.6556249968754" id="-39404">
		<tag k="name" v="Bjønnmoen" />
		<tag k="place" v="locality" />
		<tag k="ssr:stedsnr" v="51705" />
	</node>
	<node lat="69.06846944375113" lon="18.66662498313878" id="-39405">
		<tag k="name" v="Mellamoen" />
		<tag k="place" v="locality" />
		<tag k="ssr:stedsnr" v="51707" />
	</node>
	<node lat="68.9434388870859" lon="18.91428888995247" id="-39408">
		<tag k="name" v="Prostmoen" />
		<tag k="place" v="locality" />
		<tag k="ssr:stedsnr" v="51482" />
	</node>
	<node lat="69.01949166469743" lon="18.918541658414604" id="-39409">
		<tag k="name" v="Leirdalen" />
		<tag k="natural" v="valley" />
		<tag k="place" v="locality" />
		<tag k="ssr:stedsnr" v="51487" />
	</node>
	<node lat="69.01171389032241" lon="19.009255543204134" id="-39410">
		<tag k="name" v="Veslenggrindbakken" />
		<tag k="natural" v="slope" />
		<tag k="place" v="locality" />
		<tag k="ssr:stedsnr" v="51602" />
	</node>
	<node lat="69.23920277548883" lon="18.463841661260258" id="-39416">
		<tag k="name" v="Skjelldalen" />
		<tag k="natural" v="valley" />
		<tag k="place" v="locality" />
		<tag k="ssr:stedsnr" v="52025" />
	</node>
	<node lat="69.24607500193846" lon="18.38897221713267" id="-39417">
		<tag k="name" v="Langegga" />
		<tag k="natural" v="hill" />
		<tag k="place" v="locality" />
		<tag k="ssr:stedsnr" v="52068" />
	</node>
	<node lat="69.23814166928955" lon="18.46189166754772" id="-39418">
		<tag k="name" v="Knutheimbakken" />
		<tag k="natural" v="slope" />
		<tag k="place" v="locality" />
		<tag k="ssr:stedsnr" v="52078" />
	</node>
	<node lat="68.99028333456685" lon="18.60721944276092" id="-39424">
		<tag k="name" v="Inglebyhaugan" />
		<tag k="natural" v="hill" />
		<tag k="place" v="locality" />
		<tag k="ssr:stedsnr" v="51979" />
	</node>
	<node lat="68.83857777831327" lon="19.57567222377626" id="-39426">
		<tag k="name" v="Storhaugen" />
		<tag k="natural" v="hill" />
		<tag k="place" v="locality" />
		<tag k="ssr:stedsnr" v="52679" />
	</node>
	<node lat="69.01739721944521" lon="19.622213882989687" id="-39429">
		<tag k="name" v="Kvasshaugen" />
		<tag k="natural" v="hill" />
		<tag k="place" v="locality" />
		<tag k="ssr:stedsnr" v="52913" />
	</node>
	<node lat="68.9096111143926" lon="20.19321942170299" id="-39431">
		<tag k="name" v="Moskánláhku" />
		<tag k="name:se" v="Moskánláhku" />
		<tag k="natural" v="valley" />
		<tag k="place" v="locality" />
		<tag k="ssr:stedsnr" v="78149" />
	</node>
	<node lat="68.87837499919554" lon="20.23353331331113" id="-39432">
		<tag k="name" v="Spállogas" />
		<tag k="name:se" v="Spállogas" />
		<tag k="natural" v="hill" />
		<tag k="place" v="locality" />
		<tag k="ssr:stedsnr" v="78154" />
	</node>
	<node lat="68.99235833202557" lon="18.761730542340832" id="-39437">
		<tag k="name" v="Vakkermoen" />
		<tag k="place" v="locality" />
		<tag k="ssr:stedsnr" v="78425" />
	</node>
</osm>
