<?xml version="1.0" encoding="UTF-8"?>
<osm version="0.6" generator="osmapis">
	<node lat="69.24683055408647" lon="18.38903333444672" id="-98442">
		<tag k="highway" v="path" />
		<tag k="name" v="Leirveien" />
		<tag k="ssr:stedsnr" v="233075" />
	</node>
	<node lat="68.73112777594638" lon="19.73845831920535" id="-98553">
		<tag k="highway" v="path" />
		<tag k="name" v="Finnbruene" />
		<tag k="ssr:stedsnr" v="112802" />
	</node>
	<node lat="68.98660833624278" lon="19.458177777799143" id="-98555">
		<tag k="highway" v="path" />
		<tag k="name" v="Gammelveien" />
		<tag k="ssr:stedsnr" v="112823" />
	</node>
	<node lat="69.18617499729898" lon="18.619936095040554" id="-98608">
		<tag k="highway" v="path" />
		<tag k="name" v="Sæterveien" />
		<tag k="ssr:stedsnr" v="172397" />
	</node>
	<node lat="69.17045277557814" lon="18.34449166965093" id="-98758">
		<tag k="highway" v="path" />
		<tag k="name" v="Reisveien" />
		<tag k="ssr:stedsnr" v="232761" />
	</node>
	<node lat="68.98147778105412" lon="19.207008320645848" id="-98759">
		<tag k="highway" v="path" />
		<tag k="name" v="Valdemarvegen" />
		<tag k="ssr:stedsnr" v="232793" />
	</node>
	<node lat="69.13665555984475" lon="18.607288881052618" id="-98764">
		<tag k="fixme" v="verify maritime location" />
		<tag k="mooring" v="yes" />
		<tag k="name" v="Moastøa" />
		<tag k="place" v="locality" />
		<tag k="ssr:stedsnr" v="233048" />
	</node>
	<node lat="68.90360832905448" lon="19.675269436327103" id="-98796">
		<tag k="highway" v="path" />
		<tag k="name" v="Martinveien" />
		<tag k="ssr:stedsnr" v="233949" />
	</node>
	<node lat="69.0430361084239" lon="18.749119443437994" id="-98860">
		<tag k="highway" v="path" />
		<tag k="name" v="Gammelveien" />
		<tag k="ssr:stedsnr" v="293183" />
	</node>
	<node lat="68.96903694611312" lon="18.925388672108067" id="-98973">
		<tag k="bridge" v="yes" />
		<tag k="layer" v="1" />
		<tag k="loc_name" v="Ryengbrua" />
		<tag k="name" v="Ryeng bru" />
		<tag k="ssr:stedsnr" v="354374" />
	</node>
	<node lat="69.07742500037725" lon="18.60089442996318" id="-99006">
		<tag k="highway" v="path" />
		<tag k="name" v="Lensmannsveien" />
		<tag k="ssr:stedsnr" v="354866" />
	</node>
	<node lat="69.15478611277017" lon="18.411263892451576" id="-99007">
		<tag k="ford" v="yes" />
		<tag k="name" v="Greinvaet" />
		<tag k="place" v="locality" />
		<tag k="ssr:stedsnr" v="354870" />
	</node>
	<node lat="69.25083888680486" lon="18.359872213002284" id="-99143">
		<tag k="highway" v="path" />
		<tag k="name" v="Storgrubbveien" />
		<tag k="ssr:stedsnr" v="476093" />
	</node>
	<node lat="69.14318888590265" lon="18.695713877599633" id="-99231">
		<tag k="highway" v="path" />
		<tag k="name" v="Blåtindveien" />
		<tag k="ssr:stedsnr" v="475167" />
	</node>
	<node lat="68.97947500302561" lon="18.916499982861477" id="-99236">
		<tag k="fixme" v="verify maritime location" />
		<tag k="mooring" v="yes" />
		<tag k="name" v="Båtstøa" />
		<tag k="place" v="locality" />
		<tag k="ssr:stedsnr" v="475471" />
	</node>
	<node lat="68.83355832980286" lon="19.559363879498996" id="-99360">
		<tag k="highway" v="path" />
		<tag k="name" v="Bandfjellveien" />
		<tag k="ssr:stedsnr" v="537680" />
	</node>
	<node lat="69.21241111148416" lon="18.475305553477035" id="-99514">
		<tag k="fixme" v="verify maritime location" />
		<tag k="mooring" v="yes" />
		<tag k="name" v="Elvstøa" />
		<tag k="place" v="locality" />
		<tag k="ssr:stedsnr" v="597560" />
	</node>
	<node lat="69.17216111064053" lon="18.280774988500703" id="-99761">
		<tag k="highway" v="path" />
		<tag k="name" v="Reisveien" />
		<tag k="ssr:stedsnr" v="779320" />
	</node>
	<node lat="69.2003111068504" lon="18.68330555548338" id="-99764">
		<tag k="highway" v="path" />
		<tag k="name" v="Storskarheimveien" />
		<tag k="ssr:stedsnr" v="779259" />
	</node>
	<node lat="69.06944166275856" lon="18.68404167121173" id="-99770">
		<tag k="highway" v="path" />
		<tag k="name" v="Gammelveien" />
		<tag k="ssr:stedsnr" v="779675" />
	</node>
	<node lat="69.16257499745858" lon="18.378500001865408" id="-99779">
		<tag k="highway" v="path" />
		<tag k="name" v="Liveien" />
		<tag k="ssr:stedsnr" v="779863" />
	</node>
	<node lat="68.99384722002613" lon="18.763580552482416" id="-99794">
		<tag k="highway" v="path" />
		<tag k="name" v="Snevegen" />
		<tag k="ssr:stedsnr" v="900102" />
	</node>
	<node lat="68.83083333726749" lon="19.61878333475422" id="-99884">
		<tag k="ford" v="yes" />
		<tag k="name" v="Fossbruene" />
		<tag k="place" v="locality" />
		<tag k="ssr:stedsnr" v="901788" />
	</node>
	<node lat="69.07929999709336" lon="18.520133318329574" id="-99888">
		<tag k="ford" v="yes" />
		<tag k="name" v="Vaet" />
		<tag k="place" v="locality" />
		<tag k="ssr:stedsnr" v="901916" />
	</node>
	<node lat="69.19757221933507" lon="18.468944445867" id="-99922">
		<tag k="highway" v="path" />
		<tag k="name" v="Beritveien" />
		<tag k="ssr:stedsnr" v="839554" />
	</node>
	<node lat="69.19711388921098" lon="18.4908638871449" id="-99923">
		<tag k="fixme" v="verify maritime location" />
		<tag k="mooring" v="yes" />
		<tag k="name" v="Nerstøa" />
		<tag k="place" v="locality" />
		<tag k="ssr:stedsnr" v="839556" />
	</node>
	<node lat="68.86001388915821" lon="19.12004999205227" id="-99962">
		<tag k="highway" v="path" />
		<tag k="name" v="Stenvegen" />
		<tag k="ssr:stedsnr" v="840602" />
	</node>
	<node lat="69.08329722318554" lon="18.608916661927044" id="-99969">
		<tag k="highway" v="path" />
		<tag k="name" v="Kirkeveien" />
		<tag k="ssr:stedsnr" v="840888" />
	</node>
	<node lat="69.01032222269768" lon="18.9884583243064" id="-100033">
		<tag k="highway" v="path" />
		<tag k="name" v="Gammelvegen" />
		<tag k="ssr:stedsnr" v="900562" />
	</node>
	<node lat="69.0818888902325" lon="18.59603611207683" id="-100046">
		<tag k="fixme" v="verify maritime location" />
		<tag k="mooring" v="yes" />
		<tag k="name" v="Liastøa" />
		<tag k="place" v="locality" />
		<tag k="ssr:stedsnr" v="900915" />
	</node>
	<node lat="69.05619166901434" lon="18.536505559343436" id="-100111">
		<tag k="aeroway" v="aerodrome" />
		<tag k="alt_name:no" v="Bardufoss" />
		<tag k="name" v="Bardufoss lufthavn - Beardogoržži girdihámman" />
		<tag k="name:no" v="Bardufoss lufthavn" />
		<tag k="name:se" v="Beardogoržži girdihámman" />
		<tag k="ssr:stedsnr" v="929909" />
	</node>
	<node lat="69.09239722180452" lon="18.620005558733144" id="-100130">
		<tag k="fixme" v="verify maritime location" />
		<tag k="mooring" v="yes" />
		<tag k="name" v="Ottestøa" />
		<tag k="place" v="locality" />
		<tag k="ssr:stedsnr" v="960915" />
	</node>
	<node lat="68.99275833637273" lon="18.748436107270987" id="-100135">
		<tag k="highway" v="path" />
		<tag k="name" v="Vintervegen" />
		<tag k="ssr:stedsnr" v="961106" />
	</node>
	<node lat="69.14834444420131" lon="18.68259999781496" id="-100140">
		<tag k="highway" v="path" />
		<tag k="name" v="Buveien" />
		<tag k="ssr:stedsnr" v="961243" />
	</node>
	<node lat="68.86141944400356" lon="19.12047776431257" id="-100161">
		<tag k="highway" v="path" />
		<tag k="name" v="Kjørvegen" />
		<tag k="ssr:stedsnr" v="961620" />
	</node>
	<node lat="69.11248333393719" lon="18.821663881566447" id="-100275">
		<tag k="highway" v="path" />
		<tag k="name" v="Gammelveien" />
		<tag k="ssr:stedsnr" v="51262" />
	</node>
	<node lat="69.09918055740019" lon="18.5104138765352" id="-100402">
		<tag k="highway" v="path" />
		<tag k="name" v="Sæterveien" />
		<tag k="ssr:stedsnr" v="97590" />
	</node>
	<node lat="69.04618333025631" lon="18.61421388217666" id="-100413">
		<tag k="fixme" v="verify maritime location" />
		<tag k="mooring" v="yes" />
		<tag k="name" v="Øverstøa" />
		<tag k="place" v="locality" />
		<tag k="ssr:stedsnr" v="110944" />
	</node>
	<node lat="69.07911389021568" lon="18.588355551200372" id="-100445">
		<tag k="fixme" v="verify maritime location" />
		<tag k="mooring" v="yes" />
		<tag k="name" v="Liastøa" />
		<tag k="place" v="locality" />
		<tag k="ssr:stedsnr" v="111841" />
	</node>
	<node lat="69.12734444894969" lon="18.83812222059788" id="-100832">
		<tag k="highway" v="path" />
		<tag k="name" v="Fjellveien" />
		<tag k="ssr:stedsnr" v="293408" />
	</node>
	<node lat="69.07241389218194" lon="18.58848887873195" id="-100856">
		<tag k="highway" v="path" />
		<tag k="name" v="Mettiveien" />
		<tag k="ssr:stedsnr" v="293875" />
	</node>
	<node lat="69.02189053792998" lon="19.44455466192617" id="-100873">
		<tag k="bridge" v="yes" />
		<tag k="layer" v="1" />
		<tag k="name" v="Tamokbrua" />
		<tag k="ssr:stedsnr" v="294829" />
	</node>
	<node lat="69.00726278138077" lon="19.27637106671702" id="-100997">
		<tag k="bridge" v="yes" />
		<tag k="layer" v="1" />
		<tag k="name" v="Skjeggesnesbrua" />
		<tag k="ssr:stedsnr" v="353646" />
	</node>
	<node lat="68.99538055609462" lon="19.005880555258035" id="-101052">
		<tag k="highway" v="path" />
		<tag k="name" v="Evenmovegen" />
		<tag k="ssr:stedsnr" v="354559" />
	</node>
	<node lat="69.06940833235888" lon="18.565777770089547" id="-101068">
		<tag k="fixme" v="verify maritime location" />
		<tag k="mooring" v="yes" />
		<tag k="name" v="Andselvstøa" />
		<tag k="place" v="locality" />
		<tag k="ssr:stedsnr" v="354856" />
	</node>
	<node lat="69.04724166746828" lon="18.61159167268633" id="-101364">
		<tag k="fixme" v="verify maritime location" />
		<tag k="mooring" v="yes" />
		<tag k="name" v="Nerstøa" />
		<tag k="place" v="locality" />
		<tag k="ssr:stedsnr" v="535940" />
	</node>
	<node lat="68.86021944465513" lon="19.104547220769337" id="-101418">
		<tag k="highway" v="path" />
		<tag k="name" v="Korsvegan" />
		<tag k="ssr:stedsnr" v="536596" />
	</node>
	<node lat="69.07304167097638" lon="18.584102779635774" id="-101435">
		<tag k="highway" v="path" />
		<tag k="name" v="Kirkeveien" />
		<tag k="ssr:stedsnr" v="536863" />
	</node>
	<node lat="69.00727222353747" lon="18.798402777979412" id="-101532">
		<tag k="highway" v="path" />
		<tag k="name" v="Larsvegen" />
		<tag k="ssr:stedsnr" v="596091" />
	</node>
	<node lat="69.00421666970982" lon="19.002627770184034" id="-101559">
		<tag k="fixme" v="verify maritime location" />
		<tag k="mooring" v="yes" />
		<tag k="name" v="Båtstøa" />
		<tag k="place" v="locality" />
		<tag k="ssr:stedsnr" v="596535" />
	</node>
	<node lat="69.2467777769191" lon="18.39751666284401" id="-101587">
		<tag k="highway" v="path" />
		<tag k="name" v="Sæterveien" />
		<tag k="ssr:stedsnr" v="597079" />
	</node>
	<node lat="69.02196944339161" lon="19.459027756064106" id="-101622">
		<tag k="fixme" v="verify maritime location" />
		<tag k="mooring" v="yes" />
		<tag k="name" v="Vinterveistøa" />
		<tag k="place" v="locality" />
		<tag k="ssr:stedsnr" v="597842" />
	</node>
	<node lat="69.14701389166738" lon="18.69926388818375" id="-101697">
		<tag k="highway" v="path" />
		<tag k="name" v="Blåtindveien" />
		<tag k="ssr:stedsnr" v="657233" />
	</node>
	<node lat="68.97815555323056" lon="18.889358328604963" id="-101720">
		<tag k="highway" v="path" />
		<tag k="name" v="Kvennbekkstillvegen" />
		<tag k="ssr:stedsnr" v="657422" />
	</node>
	<node lat="69.06865277970829" lon="18.509438895199533" id="-101738">
		<tag k="highway" v="path" />
		<tag k="name" v="Mursteinveien" />
		<tag k="ssr:stedsnr" v="657821" />
	</node>
	<node lat="68.94211741698578" lon="18.913323332173796" id="-102077">
		<tag k="bridge" v="yes" />
		<tag k="layer" v="1" />
		<tag k="name" v="Finnbrua" />
		<tag k="ssr:stedsnr" v="807352" />
	</node>
	<node lat="69.15346110800388" lon="18.646505558039294" id="-102111">
		<tag k="highway" v="path" />
		<tag k="name" v="Fjellbuveien" />
		<tag k="ssr:stedsnr" v="839424" />
	</node>
	<node lat="69.0563611133348" lon="18.610572227806593" id="-102142">
		<tag k="fixme" v="verify maritime location" />
		<tag k="mooring" v="yes" />
		<tag k="name" v="Hauglistøa" />
		<tag k="place" v="locality" />
		<tag k="ssr:stedsnr" v="839945" />
	</node>
	<node lat="69.22719722172326" lon="18.40423332614002" id="-102174">
		<tag k="ford" v="yes" />
		<tag k="name" v="Sætervaet" />
		<tag k="place" v="locality" />
		<tag k="ssr:stedsnr" v="840851" />
	</node>
	<node lat="69.24947222178079" lon="18.36163334091364" id="-102192">
		<tag k="ford" v="yes" />
		<tag k="name" v="Kildbekkvaet" />
		<tag k="place" v="locality" />
		<tag k="ssr:stedsnr" v="841084" />
	</node>
	<node lat="69.23759722277498" lon="18.429805551706963" id="-102365">
		<tag k="highway" v="path" />
		<tag k="name" v="Nyjordveien" />
		<tag k="ssr:stedsnr" v="961063" />
	</node>
	<node lat="69.00712221991468" lon="19.42534166253523" id="-102401">
		<tag k="highway" v="path" />
		<tag k="name" v="Dalavegen" />
		<tag k="ssr:stedsnr" v="961275" />
	</node>
	<node lat="68.84283055694937" lon="19.57174997796178" id="-102416">
		<tag k="highway" v="path" />
		<tag k="name" v="Storhaugveien" />
		<tag k="ssr:stedsnr" v="961765" />
	</node>
</osm>
