<?xml version="1.0" encoding="UTF-8"?>
<osm generator="osmapis" version="0.6">
	<node id="-763646" lat="68.6659277749" lon="20.2028222116">
		<tag k="historic" v="boundary_stone" />
		<tag k="man_made" v="cairn" />
		<tag k="name" v="Ravdukiolmarøysa" />
		<tag k="old_name" v="Raudekiolma Røset" />
		<tag k="place" v="locality" />
		<tag k="ssr:stedsnr" v="595220" />
	</node>
	<node id="-763645" lat="68.7402694455" lon="20.2738388781">
		<tag k="historic" v="boundary_stone" />
		<tag k="man_made" v="cairn" />
		<tag k="name" v="Jerbelerøysa" />
		<tag k="old_name" v="Jierbele Røset" />
		<tag k="place" v="locality" />
		<tag k="ssr:stedsnr" v="595219" />
	</node>
	<node id="-764155" lat="69.0191666664" lon="19.3716527615">
		<tag k="fixme" v="specify shooting=range, clay_pigeon etc" />
		<tag k="leisure" v="pitch" />
		<tag k="name" v="Råvatn skytebane" />
		<tag k="sport" v="shooting" />
		<tag k="ssr:stedsnr" v="808399" />
	</node>
	<node id="-763767" lat="69.1692083343" lon="18.5385055609">
		<tag k="name" v="Lamoallmeningen" />
		<tag k="place" v="locality" />
		<tag k="ssr:stedsnr" v="597486" />
	</node>
	<node id="-762227" lat="69.1810333325" lon="18.2232472207">
		<tag k="name" v="Reinvassallmenningen" />
		<tag k="place" v="locality" />
		<tag k="ssr:stedsnr" v="961261" />
	</node>
	<node id="-761585" lat="69.1438138883" lon="18.33289443">
		<tag k="name" v="Reinvassalmenningen" />
		<tag k="place" v="locality" />
		<tag k="ssr:stedsnr" v="536358" />
	</node>
	<node id="-762606" lat="69.0065611134" lon="19.5475666518">
		<tag k="name" v="Allmenningen" />
		<tag k="place" v="locality" />
		<tag k="ssr:stedsnr" v="112757" />
	</node>
	<node id="-760813" lat="69.1467749984" lon="18.3138666559">
		<tag k="name" v="Reinvassallmenningen" />
		<tag k="place" v="locality" />
		<tag k="ssr:stedsnr" v="294245" />
	</node>
	<node id="-763053" lat="68.5910694458" lon="20.0522360833">
		<tag k="historic" v="boundary_stone" />
		<tag k="man_made" v="cairn" />
		<tag k="name" v="Havgavuobmirøysa" />
		<tag k="old_name" v="Hauka vuosma Røset" />
		<tag k="place" v="locality" />
		<tag k="ssr:stedsnr" v="353276" />
	</node>
	<node id="-763490" lat="69.1811777799" lon="18.344949992">
		<tag k="name" v="Reinvassallmenningen" />
		<tag k="place" v="locality" />
		<tag k="ssr:stedsnr" v="536723" />
	</node>
	<node id="-761302" lat="69.0199527813" lon="19.4771166517">
		<tag k="name" v="Rosta-Allmenningen" />
		<tag k="place" v="locality" />
		<tag k="ssr:stedsnr" v="416817" />
	</node>
	<node id="-763985" lat="69.1774444469" lon="18.2795611209">
		<tag k="name" v="Reinvassallmenningen" />
		<tag k="place" v="locality" />
		<tag k="ssr:stedsnr" v="779264" />
	</node>
	<node id="-762958" lat="68.7952361083" lon="19.8722694362">
		<tag k="alt_name" v="Dividal nasjonalpark, øvre" />
		<tag k="fixme" v="consider boundary=protected_area and relevant protect_class if not nature reserve" />
		<tag k="leisure" v="nature_reserve" />
		<tag k="name" v="Øvre Dividal nasjonalpark" />
		<tag k="ssr:stedsnr" v="321092" />
	</node>
	<node id="-761549" lat="69.0146777769" lon="19.5026583182">
		<tag k="alt_name" v="Almenningen" />
		<tag k="name" v="Allmenningen" />
		<tag k="place" v="locality" />
		<tag k="ssr:stedsnr" v="686387" />
	</node>
	<node id="-762722" lat="68.6734055555" lon="20.0058555361">
		<tag k="fixme" v="consider boundary=protected_area and relevant protect_class if not nature reserve" />
		<tag k="leisure" v="nature_reserve" />
		<tag k="name" v="Øvre Dividal nasjonalpark" />
		<tag k="old_name" v="Øvre Dividal" />
		<tag k="ssr:stedsnr" v="146349" />
	</node>
	<node id="-762555" lat="69.1607805546" lon="18.3376277656">
		<tag k="name" v="Reinvassallmeningen" />
		<tag k="place" v="locality" />
		<tag k="ssr:stedsnr" v="111839" />
	</node>
	<node id="-761392" lat="69.1668916656" lon="18.2407833322">
		<tag k="name" v="Reinvassallmenningen" />
		<tag k="place" v="locality" />
		<tag k="ssr:stedsnr" v="658299" />
	</node>
	<node id="-763309" lat="68.9560749967" lon="20.2378694299">
		<tag k="historic" v="boundary_stone" />
		<tag k="man_made" v="cairn" />
		<tag k="name" v="Moskángáisi" />
		<tag k="old_name" v="Moskonwara" />
		<tag k="place" v="locality" />
		<tag k="ssr:stedsnr" v="414709" />
	</node>
	<node id="-763052" lat="69.0219277803" lon="20.1083555359">
		<tag k="historic" v="boundary_stone" />
		<tag k="man_made" v="cairn" />
		<tag k="name" v="Nordre Måskanvarrirøysa" />
		<tag k="old_name" v="Nordre Moskonwara Røset" />
		<tag k="place" v="locality" />
		<tag k="ssr:stedsnr" v="352715" />
	</node>
	<node id="-761771" lat="69.1713111064" lon="18.4969611166">
		<tag k="name" v="Allmeningen" />
		<tag k="place" v="locality" />
		<tag k="ssr:stedsnr" v="657509" />
	</node>
	<node id="-764434" lat="69.1925083288" lon="18.6836055573">
		<tag k="name" v="Allmenningsjordet" />
		<tag k="place" v="locality" />
		<tag k="ssr:stedsnr" v="961311" />
	</node>
	<node id="-763373" lat="69.1629694403" lon="18.285400005">
		<tag k="name" v="Reinvassallmenningen" />
		<tag k="place" v="locality" />
		<tag k="ssr:stedsnr" v="415502" />
	</node>
	<node id="-763402" lat="69.1754222229" lon="18.4848111122">
		<tag k="name" v="Allmenningen" />
		<tag k="place" v="locality" />
		<tag k="ssr:stedsnr" v="415799" />
	</node>
	<node id="-761734" lat="69.1759666704" lon="18.3249249857">
		<tag k="name" v="Reinvassallmenningen" />
		<tag k="place" v="locality" />
		<tag k="ssr:stedsnr" v="719259" />
	</node>
</osm>
