<?xml version="1.0" encoding="UTF-8"?>
<osm version="0.6" generator="osmapis">
	<node lat="69.02794444721347" lon="19.297155559393488" id="-37767">
		<tag k="amenity" v="school" />
		<tag k="name" v="Bjørkeng skole" />
		<tag k="ssr:stedsnr" v="232256" />
	</node>
	<node lat="68.99798611088431" lon="19.030258337315413" id="-37772">
		<tag k="name" v="Skog" />
		<tag k="place" v="farm" />
		<tag k="ssr:stedsnr" v="232501" />
	</node>
	<node lat="68.89499722357841" lon="19.012566667526553" id="-37773">
		<tag k="name" v="Skredgjerdet" />
		<tag k="place" v="isolated_dwelling" />
		<tag k="ssr:stedsnr" v="232523" />
	</node>
	<node lat="69.23749166787665" lon="18.45726389732899" id="-37794">
		<tag k="name" v="Sørknutheimen" />
		<tag k="place" v="farm" />
		<tag k="ssr:stedsnr" v="233115" />
	</node>
	<node lat="69.24005555175805" lon="18.35080276863716" id="-37796">
		<tag k="name" v="Rydeng" />
		<tag k="place" v="farm" />
		<tag k="ssr:stedsnr" v="17704" />
	</node>
	<node lat="69.21349444284097" lon="18.47011944003606" id="-37797">
		<tag k="fixme" v="consider place=hamlet" />
		<tag k="name" v="Karlstad" />
		<tag k="place" v="village" />
		<tag k="ssr:stedsnr" v="17741" />
	</node>
	<node lat="69.26347087060289" lon="18.693953557249806" id="-37804">
		<tag k="name" v="Sørelvmoen" />
		<tag k="place" v="farm" />
		<tag k="ssr:stedsnr" v="233153" />
	</node>
	<node lat="68.87381110842526" lon="19.553313877243138" id="-37806">
		<tag k="name" v="Svalheim" />
		<tag k="place" v="farm" />
		<tag k="ssr:stedsnr" v="18150" />
	</node>
	<node lat="69.12096389063396" lon="18.731497210480804" id="-37812">
		<tag k="alt_name" v="Ørstad" />
		<tag k="name" v="Aurstad" />
		<tag k="place" v="farm" />
		<tag k="ssr:stedsnr" v="18809" />
	</node>
	<node lat="69.33955000288681" lon="18.542124994117398" id="-37814">
		<tag k="name" v="Djupvik" />
		<tag k="place" v="farm" />
		<tag k="ssr:stedsnr" v="18716" />
	</node>
	<node lat="69.13550833603342" lon="18.68501943649006" id="-37815">
		<tag k="name" v="Teigen" />
		<tag k="place" v="farm" />
		<tag k="ssr:stedsnr" v="18751" />
	</node>
	<node lat="69.11048938517166" lon="18.878030158754083" id="-37816">
		<tag k="alt_name" v="Holmesletten" />
		<tag k="fixme" v="consider place=hamlet" />
		<tag k="name" v="Holmesletta" />
		<tag k="place" v="farm" />
		<tag k="ssr:stedsnr" v="18779" />
	</node>
	<node lat="69.00705555330894" lon="18.841791651601877" id="-37820">
		<tag k="name" v="Sandvik" />
		<tag k="place" v="farm" />
		<tag k="ssr:stedsnr" v="19154" />
	</node>
	<node lat="69.19481944405257" lon="18.704941650894092" id="-37828">
		<tag k="historic" v="shieling" />
		<tag k="name" v="Martinsætra" />
		<tag k="place" v="isolated_dwelling" />
		<tag k="ssr:stedsnr" v="233342" />
	</node>
	<node lat="69.19711738472623" lon="18.72127433848707" id="-37829">
		<tag k="fixme" v="consider place=hamlet" />
		<tag k="name" v="Skardalen" />
		<tag k="place" v="farm" />
		<tag k="ssr:stedsnr" v="233345" />
	</node>
	<node lat="69.03515277584928" lon="19.35822500136911" id="-37830">
		<tag k="name" v="Moeng" />
		<tag k="place" v="farm" />
		<tag k="ssr:stedsnr" v="19419" />
	</node>
	<node lat="69.04156944264724" lon="18.81589165818475" id="-37834">
		<tag k="name" v="Bergestua" />
		<tag k="place" v="locality" />
		<tag k="ssr:stedsnr" v="233373" />
	</node>
	<node lat="69.31141689692163" lon="18.582459283111437" id="-37836">
		<tag k="fixme" v="consider place=hamlet" />
		<tag k="name" v="Indre Navaren" />
		<tag k="place" v="farm" />
		<tag k="ssr:stedsnr" v="19800" />
	</node>
	<node lat="69.18595277426847" lon="18.698130549961643" id="-37841">
		<tag k="landuse" v="military" />
		<tag k="name" v="Akkasætra" />
		<tag k="ssr:stedsnr" v="19988" />
	</node>
	<node lat="69.26209166864274" lon="18.498597209643577" id="-37848">
		<tag k="name" v="Øvre Kjerresnes" />
		<tag k="place" v="farm" />
		<tag k="ssr:stedsnr" v="21209" />
	</node>
	<node lat="69.33282201791924" lon="18.579360580204785" id="-37849">
		<tag k="fixme" v="consider place=hamlet" />
		<tag k="name" v="Ytre Navaren" />
		<tag k="place" v="farm" />
		<tag k="ssr:stedsnr" v="21213" />
	</node>
	<node lat="69.08470852106585" lon="18.638243542690017" id="-37885">
		<tag k="alt_name" v="Nordre Rognmo" />
		<tag k="name" v="Nordre Rognmoen" />
		<tag k="place" v="farm" />
		<tag k="ssr:stedsnr" v="50922" />
	</node>
	<node lat="69.03020555463891" lon="18.50377777691547" id="-37900">
		<tag k="amenity" v="school" />
		<tag k="loc_name:se" v="Beardogoržži joatkkaskovlá" />
		<tag k="name" v="Bardufoss videregående skole" />
		<tag k="name:no" v="Bardufoss videregående skole" />
		<tag k="ssr:stedsnr" v="51074" />
	</node>
	<node lat="69.22741388789835" lon="18.68294444808315" id="-37905">
		<tag k="name" v="Finnheimen" />
		<tag k="place" v="locality" />
		<tag k="ssr:stedsnr" v="51279" />
	</node>
	<node lat="69.03022777491606" lon="18.95324720710021" id="-37910">
		<tag k="historic" v="shieling" />
		<tag k="name" v="Mosætra" />
		<tag k="place" v="isolated_dwelling" />
		<tag k="ssr:stedsnr" v="51501" />
	</node>
	<node lat="69.03476388812484" lon="18.93656110967619" id="-37911">
		<tag k="historic" v="shieling" />
		<tag k="name" v="Gardsætra" />
		<tag k="place" v="isolated_dwelling" />
		<tag k="ssr:stedsnr" v="51502" />
	</node>
	<node lat="69.08716944500664" lon="18.614894448753056" id="-37929">
		<tag k="name" v="Brannskogsand" />
		<tag k="place" v="farm" />
		<tag k="ssr:stedsnr" v="51889" />
	</node>
	<node lat="69.17680278075822" lon="18.463916652665656" id="-37933">
		<tag k="name" v="Myra" />
		<tag k="place" v="farm" />
		<tag k="ssr:stedsnr" v="51774" />
	</node>
	<node lat="68.96906666457907" lon="18.787980540236987" id="-37936">
		<tag k="historic" v="shieling" />
		<tag k="name" v="Banelvdalssætra" />
		<tag k="place" v="isolated_dwelling" />
		<tag k="ssr:stedsnr" v="51917" />
	</node>
	<node lat="68.8620583303635" lon="19.55604444440494" id="-37948">
		<tag k="name" v="Østlund" />
		<tag k="place" v="farm" />
		<tag k="ssr:stedsnr" v="78163" />
	</node>
	<node lat="68.96810277619649" lon="19.698538878763788" id="-37949">
		<tag k="name" v="Elvevoll" />
		<tag k="place" v="farm" />
		<tag k="ssr:stedsnr" v="78254" />
	</node>
	<node lat="68.9751333368759" lon="19.02005833448763" id="-37953">
		<tag k="historic" v="shieling" />
		<tag k="name" v="Alapmosetra - Állatmuvaseahtar" />
		<tag k="name:no" v="Alapmosetra" />
		<tag k="name:se" v="Állatmuvaseahtar" />
		<tag k="place" v="isolated_dwelling" />
		<tag k="ssr:stedsnr" v="78400" />
	</node>
	<node lat="68.99663610649604" lon="19.254463890497863" id="-37956">
		<tag k="name" v="Skjeggestad" />
		<tag k="place" v="farm" />
		<tag k="ssr:stedsnr" v="79242" />
	</node>
	<node lat="68.99384722098898" lon="19.43288332622778" id="-37957">
		<tag k="name" v="Åsen" />
		<tag k="place" v="farm" />
		<tag k="ssr:stedsnr" v="79243" />
	</node>
	<node lat="69.01171666983741" lon="18.974991649371965" id="-37961">
		<tag k="name" v="Moholt" />
		<tag k="place" v="farm" />
		<tag k="ssr:stedsnr" v="79199" />
	</node>
	<node lat="69.01242778219286" lon="18.76409443089809" id="-37962">
		<tag k="alt_name" v="Åsmoen" />
		<tag k="name" v="Åsmo" />
		<tag k="place" v="farm" />
		<tag k="ssr:stedsnr" v="79201" />
	</node>
	<node lat="68.86939999854549" lon="19.071958330764595" id="-37964">
		<tag k="name" v="Åsbakk" />
		<tag k="place" v="farm" />
		<tag k="ssr:stedsnr" v="79293" />
	</node>
	<node lat="68.86986944027781" lon="19.078655557977996" id="-37965">
		<tag k="alt_name" v="Tuvmoen" />
		<tag k="name" v="Tuvmo" />
		<tag k="place" v="farm" />
		<tag k="ssr:stedsnr" v="79297" />
	</node>
	<node lat="69.1792749999136" lon="18.59609443677731" id="-37967">
		<tag k="name" v="Fossbakken" />
		<tag k="place" v="farm" />
		<tag k="ssr:stedsnr" v="79498" />
	</node>
	<node lat="69.02580000502789" lon="19.554683317716847" id="-37969">
		<tag k="name" v="Skoglund" />
		<tag k="place" v="farm" />
		<tag k="ssr:stedsnr" v="79393" />
	</node>
	<node lat="69.2993250051062" lon="18.54320276344553" id="-37971">
		<tag k="name" v="Nordstrand" />
		<tag k="place" v="farm" />
		<tag k="ssr:stedsnr" v="79806" />
	</node>
	<node lat="69.07740711556261" lon="18.666959717400026" id="-37972">
		<tag k="alt_name" v="Rognmoen, nordre" />
		<tag k="fixme" v="consider place=hamlet" />
		<tag k="name" v="Nordre Rognmoen" />
		<tag k="place" v="farm" />
		<tag k="ssr:stedsnr" v="79839" />
	</node>
	<node lat="68.99823333782554" lon="19.11750276135429" id="-37982">
		<tag k="name" v="Øya" />
		<tag k="place" v="farm" />
		<tag k="ssr:stedsnr" v="111483" />
	</node>
	<node lat="69.24275555734194" lon="18.524900005012057" id="-38028">
		<tag k="name" v="Bjørkeli" />
		<tag k="place" v="farm" />
		<tag k="ssr:stedsnr" v="138693" />
	</node>
	<node lat="69.0235555542508" lon="18.809944428151102" id="-38030">
		<tag k="alt_name" v="Grimsbu" />
		<tag k="name" v="Grimsbo" />
		<tag k="place" v="farm" />
		<tag k="ssr:stedsnr" v="139192" />
	</node>
	<node lat="69.01864444294709" lon="18.81681944069847" id="-38031">
		<tag k="name" v="Birkeland" />
		<tag k="place" v="farm" />
		<tag k="ssr:stedsnr" v="139193" />
	</node>
	<node lat="69.03245555393227" lon="18.81159444587916" id="-38035">
		<tag k="name" v="Kvammen" />
		<tag k="place" v="farm" />
		<tag k="ssr:stedsnr" v="139237" />
	</node>
	<node lat="69.04042782751903" lon="18.636306856102998" id="-38036">
		<tag k="fixme" v="consider place=hamlet" />
		<tag k="name" v="Elvskiftnes" />
		<tag k="place" v="farm" />
		<tag k="ssr:stedsnr" v="139247" />
	</node>
	<node lat="68.84036110798047" lon="19.115605553798428" id="-38037">
		<tag k="name" v="Kirkesjordsætra" />
		<tag k="place" v="locality" />
		<tag k="ssr:stedsnr" v="139298" />
	</node>
	<node lat="69.00941944558394" lon="19.414958320321976" id="-38038">
		<tag k="name" v="Moland" />
		<tag k="place" v="farm" />
		<tag k="ssr:stedsnr" v="139406" />
	</node>
	<node lat="69.2745916670755" lon="18.50098054347534" id="-38041">
		<tag k="name" v="Nedre Kjerresnes" />
		<tag k="place" v="farm" />
		<tag k="ssr:stedsnr" v="140833" />
	</node>
	<node lat="69.05575555612664" lon="18.490208336531886" id="-38043">
		<tag k="name" v="Rustahøgda" />
		<tag k="place" v="hamlet" />
		<tag k="ssr:stedsnr" v="145529" />
	</node>
	<node lat="68.7639416640278" lon="19.71796108980435" id="-38048">
		<tag k="fixme" v="consider tourism=alpine_hut or tourism=chalet" />
		<tag k="name" v="Ventebu" />
		<tag k="ssr:stedsnr" v="162812" />
		<tag k="tourism" v="wilderness_hut" />
	</node>
	<node lat="68.67583055214008" lon="19.82305831317065" id="-38049">
		<tag k="fixme" v="consider tourism=alpine_hut or tourism=chalet" />
		<tag k="name" v="Dividalshytta" />
		<tag k="ssr:stedsnr" v="260127" />
		<tag k="tourism" v="wilderness_hut" />
	</node>
	<node lat="68.8188888910245" lon="20.10805831692026" id="-38053">
		<tag k="fixme" v="consider tourism=alpine_hut or tourism=chalet" />
		<tag k="name" v="Dærtahytta" />
		<tag k="ssr:stedsnr" v="260143" />
		<tag k="tourism" v="wilderness_hut" />
	</node>
	<node lat="68.94309167072353" lon="19.492224990391676" id="-38055">
		<tag k="name" v="Oppi" />
		<tag k="place" v="farm" />
		<tag k="ssr:stedsnr" v="260230" />
	</node>
	<node lat="68.92622247951513" lon="19.51783953224132" id="-38057">
		<tag k="fixme" v="consider place=hamlet" />
		<tag k="name" v="Dividalen" />
		<tag k="place" v="farm" />
		<tag k="ssr:stedsnr" v="260238" />
	</node>
	<node lat="68.93178610999391" lon="19.506236109198312" id="-38058">
		<tag k="alt_name" v="Steinberg" />
		<tag k="name" v="Stenberg" />
		<tag k="place" v="farm" />
		<tag k="ssr:stedsnr" v="260247" />
	</node>
	<node lat="68.97752221885317" lon="19.721316646740917" id="-38061">
		<tag k="name" v="Bjørnhaug" />
		<tag k="place" v="farm" />
		<tag k="ssr:stedsnr" v="260275" />
	</node>
	<node lat="68.97261666388992" lon="19.662086100483414" id="-38066">
		<tag k="name" v="Mo" />
		<tag k="place" v="farm" />
		<tag k="ssr:stedsnr" v="260281" />
	</node>
	<node lat="68.8885509198189" lon="19.057953442213744" id="-38069">
		<tag k="alt_name" v="Kirkesjord" />
		<tag k="fixme" v="consider place=hamlet" />
		<tag k="name" v="Kirkesjorda" />
		<tag k="place" v="farm" />
		<tag k="ssr:stedsnr" v="260367" />
	</node>
	<node lat="68.93096666915078" lon="18.96092776216762" id="-38071">
		<tag k="name" v="Rydland" />
		<tag k="place" v="farm" />
		<tag k="ssr:stedsnr" v="260382" />
	</node>
	<node lat="68.94283610949428" lon="18.89146666361749" id="-38074">
		<tag k="name" v="Vestlisætra" />
		<tag k="place" v="isolated_dwelling" />
		<tag k="ssr:stedsnr" v="260392" />
	</node>
	<node lat="68.98838333597539" lon="19.153594435510232" id="-38076">
		<tag k="alt_name" v="Tillermo, øvre;Øvre Tillermo" />
		<tag k="name" v="Tillermoen øvre" />
		<tag k="place" v="farm" />
		<tag k="ssr:stedsnr" v="260424" />
	</node>
	<node lat="68.98980277898282" lon="18.904119434891317" id="-38078">
		<tag k="name" v="Heggenes" />
		<tag k="place" v="farm" />
		<tag k="ssr:stedsnr" v="260444" />
	</node>
	<node lat="69.217269626122" lon="18.49647905520273" id="-38080">
		<tag k="alt_name" v="Guldhav" />
		<tag k="fixme" v="consider place=hamlet" />
		<tag k="name" v="Gullhav" />
		<tag k="place" v="farm" />
		<tag k="ssr:stedsnr" v="260731" />
	</node>
	<node lat="69.21716666748824" lon="18.442380543339215" id="-38081">
		<tag k="name" v="Holmsætra" />
		<tag k="place" v="farm" />
		<tag k="ssr:stedsnr" v="260735" />
	</node>
</osm>
