<?xml version="1.0" encoding="UTF-8"?>
<osm generator="osmapis" version="0.6">
	<node id="-108731" lat="68.997341667" lon="19.1325361132">
		<tag k="amenity" v="place_of_worship" />
		<tag k="denomination" v="lutheran" />
		<tag k="name" v="Øverbygd" />
		<tag k="religion" v="christian" />
		<tag k="ssr:stedsnr" v="685381" />
	</node>
	<node id="-108154" lat="68.8398194454" lon="19.119377777">
		<tag k="alt_name" v="Heggevoldsætra" />
		<tag k="name" v="Heggevollsætra" />
		<tag k="place" v="locality" />
		<tag k="ssr:stedsnr" v="443299" />
	</node>
	<node id="-109508" lat="69.1763694463" lon="18.5738138911">
		<tag k="amenity" v="place_of_worship" />
		<tag k="denomination" v="lutheran" />
		<tag k="name" v="Målselv" />
		<tag k="religion" v="christian" />
		<tag k="ssr:stedsnr" v="18475" />
	</node>
	<node id="-109040" lat="68.9177666701" lon="18.9856722219">
		<tag k="amenity" v="community_centre" />
		<tag k="name" v="Granly ungdomshus" />
		<tag k="ssr:stedsnr" v="718620" />
	</node>
	<node id="-108396" lat="69.2716055546" lon="18.5023277686">
		<tag k="cemetery" v="grave" />
		<tag k="name" v="Kjerresnes gravlund" />
		<tag k="place" v="locality" />
		<tag k="ssr:stedsnr" v="328525" />
	</node>
	<node id="-110663" lat="69.1521250029" lon="18.8587944415">
		<tag k="name" v="Mortengammen" />
		<tag k="place" v="locality" />
		<tag k="ssr:stedsnr" v="536379" />
	</node>
	<node id="-110437" lat="69.0054333356" lon="18.8942583216">
		<tag k="amenity" v="place_of_worship" />
		<tag k="denomination" v="lutheran" />
		<tag k="name" v="Kirkesnesmoen" />
		<tag k="religion" v="christian" />
		<tag k="ssr:stedsnr" v="382169" />
	</node>
	<node id="-109956" lat="69.1391944483" lon="18.8600861054">
		<tag k="name" v="Andreas-Arnesengammen" />
		<tag k="place" v="locality" />
		<tag k="ssr:stedsnr" v="172342" />
	</node>
</osm>
