<?xml version="1.0" encoding="UTF-8"?>
<osm version="0.6" generator="osmapis">
	<node lat="69.03404999767746" lon="18.696894432194313" id="-39242">
		<tag k="name" v="Elgstøen" />
		<tag k="place" v="locality" />
		<tag k="ssr:stedsnr" v="232142" />
	</node>
	<node lat="69.15032777441748" lon="18.69596665579175" id="-39250">
		<tag k="name" v="Fjellslåtten" />
		<tag k="place" v="locality" />
		<tag k="ssr:stedsnr" v="232230" />
	</node>
	<node lat="69.16338333663165" lon="18.465527784865962" id="-39268">
		<tag k="name" v="Sæterbakkmyra" />
		<tag k="natural" v="wetland" />
		<tag k="ssr:stedsnr" v="232849" />
	</node>
	<node lat="69.0751638867188" lon="18.588913894955866" id="-39270">
		<tag k="name" v="Hølmyra" />
		<tag k="natural" v="wetland" />
		<tag k="ssr:stedsnr" v="232857" />
	</node>
	<node lat="69.26713610842125" lon="18.65481944846127" id="-39274">
		<tag k="name" v="Fjellmyra" />
		<tag k="natural" v="wetland" />
		<tag k="ssr:stedsnr" v="233020" />
	</node>
	<node lat="68.93811389152279" lon="18.943380540320057" id="-39312">
		<tag k="name" v="Revhimælen" />
		<tag k="place" v="locality" />
		<tag k="ssr:stedsnr" v="233453" />
	</node>
	<node lat="69.21940833442" lon="18.612405559606458" id="-39321">
		<tag k="name" v="Akkamyra" />
		<tag k="natural" v="wetland" />
		<tag k="ssr:stedsnr" v="233376" />
	</node>
	<node lat="69.1797555525326" lon="18.65181388272643" id="-39329">
		<tag k="name" v="Storfinnhaugmyra" />
		<tag k="natural" v="wetland" />
		<tag k="ssr:stedsnr" v="233421" />
	</node>
	<node lat="69.19254999782154" lon="18.41651944524578" id="-39333">
		<tag k="name" v="Holtan" />
		<tag k="place" v="locality" />
		<tag k="ssr:stedsnr" v="233587" />
	</node>
	<node lat="68.99704722550152" lon="19.064305554123166" id="-39338">
		<tag k="name" v="Åsmyra" />
		<tag k="natural" v="wetland" />
		<tag k="ssr:stedsnr" v="233550" />
	</node>
	<node lat="68.97642222676141" lon="18.99582776359239" id="-39341">
		<tag k="name" v="Sennamyra" />
		<tag k="natural" v="wetland" />
		<tag k="ssr:stedsnr" v="233563" />
	</node>
	<node lat="68.96136666568502" lon="19.723577753027" id="-39361">
		<tag k="name" v="Furumyra" />
		<tag k="natural" v="wetland" />
		<tag k="ssr:stedsnr" v="233963" />
	</node>
	<node lat="69.13302499654681" lon="19.01829165714426" id="-39364">
		<tag k="name" v="Stormyra" />
		<tag k="natural" v="wetland" />
		<tag k="ssr:stedsnr" v="50613" />
	</node>
	<node lat="69.01505555363438" lon="18.662508336979997" id="-39388">
		<tag k="name" v="Tekkjmyra" />
		<tag k="natural" v="wetland" />
		<tag k="ssr:stedsnr" v="51077" />
	</node>
	<node lat="69.00549166497615" lon="18.759319430680062" id="-39390">
		<tag k="name" v="Tjæramilmyra" />
		<tag k="natural" v="wetland" />
		<tag k="ssr:stedsnr" v="51085" />
	</node>
	<node lat="69.14373888650653" lon="18.94653887280671" id="-39394">
		<tag k="name" v="Stormyra" />
		<tag k="natural" v="wetland" />
		<tag k="ssr:stedsnr" v="51406" />
	</node>
	<node lat="69.220063889051" lon="18.423536106188678" id="-39402">
		<tag k="name" v="Langmyra" />
		<tag k="natural" v="wetland" />
		<tag k="ssr:stedsnr" v="51590" />
	</node>
	<node lat="69.16742222070917" lon="18.394002765840114" id="-39413">
		<tag k="name" v="Kjørmyra" />
		<tag k="natural" v="wetland" />
		<tag k="ssr:stedsnr" v="51878" />
	</node>
</osm>
