<?xml version="1.0" encoding="UTF-8"?>
<osm version="0.6" generator="osmapis">
	<node lat="59.45616388793004" lon="11.588544442578863" id="-25702">
		<tag k="fixme" v="consider natural=peak for the most distinct mountains in the district" />
		<tag k="name" v="Elgåsen" />
		<tag k="natural" v="hill" />
		<tag k="place" v="locality" />
		<tag k="ssr:stedsnr" v="2611" />
	</node>
	<node lat="59.565930554968176" lon="11.672702783047432" id="-25707">
		<tag k="alt_name" v="Blekketjernshøgd" />
		<tag k="fixme" v="consider natural=peak for the most distinct mountains in the district" />
		<tag k="name" v="Blekktjernhøgda" />
		<tag k="natural" v="hill" />
		<tag k="place" v="locality" />
		<tag k="ssr:stedsnr" v="3433" />
	</node>
	<node lat="59.3605750032377" lon="11.799086108677162" id="-25711">
		<tag k="fixme" v="consider natural=peak for the most distinct mountains in the district" />
		<tag k="name" v="Stokkdalshøgda" />
		<tag k="natural" v="hill" />
		<tag k="place" v="locality" />
		<tag k="ssr:stedsnr" v="3672" />
	</node>
	<node lat="59.352916666300864" lon="11.573358341664514" id="-25712">
		<tag k="fixme" v="consider natural=peak for the most distinct mountains in the district" />
		<tag k="name" v="Galteryggen" />
		<tag k="natural" v="hill" />
		<tag k="place" v="locality" />
		<tag k="ssr:stedsnr" v="3693" />
	</node>
	<node lat="59.33096388959351" lon="11.58405832952686" id="-25715">
		<tag k="fixme" v="consider natural=peak for the most distinct mountains in the district" />
		<tag k="name" v="Kasaåsen" />
		<tag k="natural" v="hill" />
		<tag k="place" v="locality" />
		<tag k="ssr:stedsnr" v="3727" />
	</node>
	<node lat="59.36481388743589" lon="11.65004999202125" id="-25721">
		<tag k="fixme" v="consider natural=peak for the most distinct mountains in the district" />
		<tag k="name" v="Resbråthaugen" />
		<tag k="natural" v="hill" />
		<tag k="place" v="locality" />
		<tag k="ssr:stedsnr" v="233334" />
	</node>
	<node lat="59.431411107663465" lon="11.63659721497111" id="-25732">
		<tag k="name" v="Tømmermyråsen" />
		<tag k="natural" v="hill" />
		<tag k="place" v="locality" />
		<tag k="ssr:stedsnr" v="233658" />
	</node>
	<node lat="59.477186109971086" lon="11.56214722054235" id="-25738">
		<tag k="name" v="Grandalen" />
		<tag k="natural" v="valley" />
		<tag k="place" v="locality" />
		<tag k="ssr:stedsnr" v="233821" />
	</node>
	<node lat="59.357008337388535" lon="11.762380557980725" id="-25739">
		<tag k="name" v="Jerpedråget" />
		<tag k="natural" v="valley" />
		<tag k="place" v="locality" />
		<tag k="ssr:stedsnr" v="233828" />
	</node>
	<node lat="59.35719722685097" lon="11.785624992394132" id="-25741">
		<tag k="name" v="Tiuråsen" />
		<tag k="natural" v="hill" />
		<tag k="place" v="locality" />
		<tag k="ssr:stedsnr" v="233832" />
	</node>
	<node lat="59.35878611302673" lon="11.612061108563292" id="-25749">
		<tag k="fixme" v="consider natural=peak for the most distinct mountains in the district" />
		<tag k="name" v="Kuklevhøgda" />
		<tag k="natural" v="hill" />
		<tag k="place" v="locality" />
		<tag k="ssr:stedsnr" v="234062" />
	</node>
	<node lat="59.64635555862108" lon="11.629422229062982" id="-25768">
		<tag k="name" v="Auretjerndalen" />
		<tag k="natural" v="valley" />
		<tag k="place" v="locality" />
		<tag k="ssr:stedsnr" v="234442" />
	</node>
	<node lat="59.605533331499075" lon="11.64672221761895" id="-25791">
		<tag k="name" v="Iledalen" />
		<tag k="natural" v="valley" />
		<tag k="place" v="locality" />
		<tag k="ssr:stedsnr" v="234664" />
	</node>
	<node lat="59.46642499798937" lon="11.736583341345602" id="-25794">
		<tag k="name" v="Seljedalen" />
		<tag k="natural" v="valley" />
		<tag k="place" v="locality" />
		<tag k="ssr:stedsnr" v="234915" />
	</node>
	<node lat="59.48901388479447" lon="11.616763884662294" id="-25795">
		<tag k="name" v="Skonsbergmyrhøgda" />
		<tag k="natural" v="ridge" />
		<tag k="place" v="locality" />
		<tag k="ssr:stedsnr" v="234942" />
	</node>
	<node lat="59.41268333268571" lon="11.773613883879303" id="-25806">
		<tag k="fixme" v="consider natural=peak for the most distinct mountains in the district" />
		<tag k="name" v="Ulvehiåsen" />
		<tag k="natural" v="hill" />
		<tag k="place" v="locality" />
		<tag k="ssr:stedsnr" v="51904" />
	</node>
	<node lat="59.57461111423008" lon="11.550638886255973" id="-25810">
		<tag k="fixme" v="consider natural=peak for the most distinct mountains in the district" />
		<tag k="name" v="Høgås" />
		<tag k="natural" v="hill" />
		<tag k="place" v="locality" />
		<tag k="ssr:stedsnr" v="52207" />
	</node>
	<node lat="59.52707447412476" lon="11.590243623694242" id="-25827">
		<tag k="name" v="Lundshaugen" />
		<tag k="natural" v="hill" />
		<tag k="place" v="locality" />
		<tag k="ssr:stedsnr" v="52971" />
	</node>
	<node lat="59.41645833546962" lon="11.61260554790429" id="-25831">
		<tag k="fixme" v="consider natural=peak for the most distinct mountains in the district" />
		<tag k="name" v="Sandhaug" />
		<tag k="natural" v="hill" />
		<tag k="place" v="locality" />
		<tag k="ssr:stedsnr" v="53177" />
	</node>
	<node lat="59.43582222175544" lon="11.618669437506778" id="-25836">
		<tag k="fixme" v="consider natural=peak for the most distinct mountains in the district" />
		<tag k="name" v="Jarshøgda" />
		<tag k="natural" v="hill" />
		<tag k="place" v="locality" />
		<tag k="ssr:stedsnr" v="63622" />
	</node>
	<node lat="59.490572223349005" lon="11.543800007448576" id="-25846">
		<tag k="name" v="Elghue" />
		<tag k="natural" v="hill" />
		<tag k="place" v="locality" />
		<tag k="ssr:stedsnr" v="245544" />
	</node>
	<node lat="59.3669194453666" lon="11.720958340103513" id="-25849">
		<tag k="fixme" v="consider natural=peak for the most distinct mountains in the district" />
		<tag k="name" v="Ruketjernhøgda" />
		<tag k="natural" v="hill" />
		<tag k="place" v="locality" />
		<tag k="ssr:stedsnr" v="245676" />
	</node>
	<node lat="59.418788892477586" lon="11.681469436959292" id="-25852">
		<tag k="fixme" v="consider natural=peak for the most distinct mountains in the district" />
		<tag k="name" v="Trengselåsen" />
		<tag k="natural" v="hill" />
		<tag k="place" v="locality" />
		<tag k="ssr:stedsnr" v="246472" />
	</node>
	<node lat="59.55130833495756" lon="11.549602777788085" id="-25856">
		<tag k="alt_name" v="Hiåsen" />
		<tag k="fixme" v="consider natural=peak for the most distinct mountains in the district" />
		<tag k="name" v="Hieåsen" />
		<tag k="natural" v="hill" />
		<tag k="place" v="locality" />
		<tag k="ssr:stedsnr" v="246450" />
	</node>
	<node lat="59.3325572837709" lon="11.812309335371907" id="-25862">
		<tag k="fixme" v="multiple name tags, choose one and add the other to alt_name; consider natural=peak for the most distinct mountains in the district" />
		<tag k="name" v="Slottsåsen;Slottshøgda" />
		<tag k="natural" v="hill" />
		<tag k="place" v="locality" />
		<tag k="ssr:stedsnr" v="246595" />
	</node>
	<node lat="59.36082222586441" lon="11.709083327540197" id="-25863">
		<tag k="fixme" v="consider natural=peak for the most distinct mountains in the district" />
		<tag k="name" v="Saksåsen" />
		<tag k="natural" v="hill" />
		<tag k="place" v="locality" />
		<tag k="ssr:stedsnr" v="246683" />
	</node>
	<node lat="59.378624996060736" lon="11.690711115459242" id="-25867">
		<tag k="fixme" v="consider natural=peak for the most distinct mountains in the district" />
		<tag k="name" v="Ørnekollen" />
		<tag k="natural" v="hill" />
		<tag k="place" v="locality" />
		<tag k="ssr:stedsnr" v="112519" />
	</node>
	<node lat="59.4376916632558" lon="11.611527780517916" id="-25871">
		<tag k="name" v="Galteryggen" />
		<tag k="natural" v="ridge" />
		<tag k="place" v="locality" />
		<tag k="ssr:stedsnr" v="112781" />
	</node>
	<node lat="59.360227780907636" lon="11.7796083384994" id="-25874">
		<tag k="name" v="Langedråga" />
		<tag k="natural" v="valley" />
		<tag k="place" v="locality" />
		<tag k="ssr:stedsnr" v="112814" />
	</node>
	<node lat="59.50503333081419" lon="11.734002783097093" id="-25889">
		<tag k="name" v="Andersberget" />
		<tag k="natural" v="cliff" />
		<tag k="ssr:stedsnr" v="113242" />
	</node>
	<node lat="59.61422500347774" lon="11.530611107522933" id="-25894">
		<tag k="fixme" v="consider natural=peak for the most distinct mountains in the district" />
		<tag k="name" v="Tavleåsen" />
		<tag k="natural" v="hill" />
		<tag k="place" v="locality" />
		<tag k="ssr:stedsnr" v="113507" />
	</node>
	<node lat="59.475727779345256" lon="11.712666666333215" id="-25909">
		<tag k="fixme" v="consider natural=peak for the most distinct mountains in the district" />
		<tag k="name" v="Kalvemyrhøgda" />
		<tag k="natural" v="hill" />
		<tag k="place" v="locality" />
		<tag k="ssr:stedsnr" v="123641" />
	</node>
	<node lat="59.362274997473264" lon="11.659494435464332" id="-25913">
		<tag k="fixme" v="consider natural=peak for the most distinct mountains in the district" />
		<tag k="name" v="Vardåsen" />
		<tag k="natural" v="hill" />
		<tag k="place" v="locality" />
		<tag k="ssr:stedsnr" v="124660" />
	</node>
	<node lat="59.54965277926748" lon="11.688455550076412" id="-25937">
		<tag k="fixme" v="consider natural=peak for the most distinct mountains in the district" />
		<tag k="name" v="Hueråsene" />
		<tag k="natural" v="hill" />
		<tag k="place" v="locality" />
		<tag k="ssr:stedsnr" v="173367" />
	</node>
	<node lat="59.60864444727209" lon="11.651044450072671" id="-25943">
		<tag k="fixme" v="consider natural=peak for the most distinct mountains in the district" />
		<tag k="name" v="Hølvannsknatten" />
		<tag k="natural" v="hill" />
		<tag k="place" v="locality" />
		<tag k="ssr:stedsnr" v="173615" />
	</node>
	<node lat="59.611602775949386" lon="11.663777772677447" id="-25944">
		<tag k="fixme" v="consider natural=peak for the most distinct mountains in the district" />
		<tag k="name" v="Seterhåttene" />
		<tag k="natural" v="hill" />
		<tag k="place" v="locality" />
		<tag k="ssr:stedsnr" v="173619" />
	</node>
	<node lat="59.618216670951035" lon="11.661091660523521" id="-25948">
		<tag k="fixme" v="consider natural=peak for the most distinct mountains in the district" />
		<tag k="name" v="Fugleleiken" />
		<tag k="natural" v="hill" />
		<tag k="place" v="locality" />
		<tag k="ssr:stedsnr" v="173576" />
	</node>
	<node lat="59.34661110774038" lon="11.71028888103924" id="-25965">
		<tag k="fixme" v="consider natural=peak for the most distinct mountains in the district" />
		<tag k="name" v="Brenteåsen" />
		<tag k="natural" v="hill" />
		<tag k="place" v="locality" />
		<tag k="ssr:stedsnr" v="174410" />
	</node>
	<node lat="59.49408055481095" lon="11.588763884599842" id="-25980">
		<tag k="alt_name" v="Svartvassåsen" />
		<tag k="fixme" v="consider natural=peak for the most distinct mountains in the district" />
		<tag k="name" v="Svartevannsåsen" />
		<tag k="natural" v="hill" />
		<tag k="place" v="locality" />
		<tag k="ssr:stedsnr" v="184584" />
	</node>
	<node lat="59.50076666654267" lon="11.603713891479673" id="-25987">
		<tag k="fixme" v="consider natural=peak for the most distinct mountains in the district" />
		<tag k="name" v="Buknatten" />
		<tag k="natural" v="hill" />
		<tag k="place" v="locality" />
		<tag k="ssr:stedsnr" v="186040" />
	</node>
	<node lat="59.618511108333784" lon="11.705413883381905" id="-25988">
		<tag k="alt_name" v="Linnemoen" />
		<tag k="name" v="Lindemoen" />
		<tag k="place" v="locality" />
		<tag k="ssr:stedsnr" v="186285" />
	</node>
	<node lat="59.35821944038426" lon="11.80081111694751" id="-26001">
		<tag k="name" v="Stokkedalen" />
		<tag k="natural" v="valley" />
		<tag k="place" v="locality" />
		<tag k="ssr:stedsnr" v="233889" />
	</node>
	<node lat="59.392897219288365" lon="11.772913889230983" id="-26002">
		<tag k="name" v="Bærtjerndalen" />
		<tag k="natural" v="valley" />
		<tag k="place" v="locality" />
		<tag k="ssr:stedsnr" v="233898" />
	</node>
	<node lat="59.6413833356925" lon="11.593647225189951" id="-26008">
		<tag k="fixme" v="consider natural=peak for the most distinct mountains in the district" />
		<tag k="name" v="Grunntjernhøgda" />
		<tag k="natural" v="hill" />
		<tag k="place" v="locality" />
		<tag k="ssr:stedsnr" v="234080" />
	</node>
	<node lat="59.35530833705875" lon="11.624638886990445" id="-26022">
		<tag k="fixme" v="consider natural=peak for the most distinct mountains in the district" />
		<tag k="name" v="Blokketjernhøgda" />
		<tag k="natural" v="hill" />
		<tag k="place" v="locality" />
		<tag k="ssr:stedsnr" v="234409" />
	</node>
	<node lat="59.65563055386014" lon="11.605877782018979" id="-26024">
		<tag k="name" v="Sankthansdalen" />
		<tag k="natural" v="valley" />
		<tag k="place" v="locality" />
		<tag k="ssr:stedsnr" v="234412" />
	</node>
	<node lat="59.59600833182856" lon="11.548963884155544" id="-26032">
		<tag k="fixme" v="consider natural=peak for the most distinct mountains in the district" />
		<tag k="name" v="Nordbyåsen" />
		<tag k="natural" v="hill" />
		<tag k="place" v="locality" />
		<tag k="ssr:stedsnr" v="234508" />
	</node>
	<node lat="59.60365277453908" lon="11.627730553806897" id="-26037">
		<tag k="name" v="Fossedalen" />
		<tag k="natural" v="valley" />
		<tag k="place" v="locality" />
		<tag k="ssr:stedsnr" v="234685" />
	</node>
	<node lat="59.334183332929115" lon="11.631394440951436" id="-26044">
		<tag k="fixme" v="consider natural=peak for the most distinct mountains in the district" />
		<tag k="name" v="Bekkåsen" />
		<tag k="natural" v="hill" />
		<tag k="place" v="locality" />
		<tag k="ssr:stedsnr" v="235381" />
	</node>
	<node lat="59.660605558335845" lon="11.665516666572938" id="-26050">
		<tag k="alt_name" v="Risenhøgda" />
		<tag k="fixme" v="consider natural=peak for the most distinct mountains in the district" />
		<tag k="name" v="Østre Risenhøgda" />
		<tag k="natural" v="hill" />
		<tag k="place" v="locality" />
		<tag k="ssr:stedsnr" v="246278" />
	</node>
	<node lat="59.33990832925947" lon="11.74164444534552" id="-26055">
		<tag k="fixme" v="consider natural=peak for the most distinct mountains in the district" />
		<tag k="name" v="Blekkelihøgda" />
		<tag k="natural" v="hill" />
		<tag k="place" v="locality" />
		<tag k="ssr:stedsnr" v="246702" />
	</node>
	<node lat="59.56597778185734" lon="11.558874995343059" id="-26065">
		<tag k="fixme" v="consider natural=peak for the most distinct mountains in the district" />
		<tag k="name" v="Ilerudåsen" />
		<tag k="natural" v="hill" />
		<tag k="place" v="locality" />
		<tag k="ssr:stedsnr" v="266046" />
	</node>
	<node lat="59.438602774860556" lon="11.592372229234124" id="-26067">
		<tag k="name" v="Ulvedalen" />
		<tag k="natural" v="valley" />
		<tag k="place" v="locality" />
		<tag k="ssr:stedsnr" v="294205" />
	</node>
	<node lat="59.53233333620693" lon="11.686119439438515" id="-26071">
		<tag k="name" v="Kjerringdalen" />
		<tag k="natural" v="valley" />
		<tag k="place" v="locality" />
		<tag k="ssr:stedsnr" v="294414" />
	</node>
	<node lat="59.52826944759928" lon="11.60003332669193" id="-26073">
		<tag k="name" v="Kråkesølvåsen" />
		<tag k="natural" v="hill" />
		<tag k="place" v="locality" />
		<tag k="ssr:stedsnr" v="294428" />
	</node>
	<node lat="59.52939721861995" lon="11.654277772647125" id="-26074">
		<tag k="fixme" v="consider natural=peak for the most distinct mountains in the district" />
		<tag k="name" v="Port Arthur" />
		<tag k="natural" v="hill" />
		<tag k="place" v="locality" />
		<tag k="ssr:stedsnr" v="294441" />
	</node>
	<node lat="59.354863888529174" lon="11.75122778637285" id="-26083">
		<tag k="name" v="Roperberget" />
		<tag k="natural" v="hill" />
		<tag k="place" v="locality" />
		<tag k="ssr:stedsnr" v="294807" />
	</node>
	<node lat="59.65772222647182" lon="11.669849991876802" id="-26105">
		<tag k="name" v="Ospedråga" />
		<tag k="natural" v="valley" />
		<tag k="place" v="locality" />
		<tag k="ssr:stedsnr" v="295429" />
	</node>
	<node lat="59.491758328975976" lon="11.73849444799119" id="-26118">
		<tag k="name" v="Kistedalen" />
		<tag k="natural" v="valley" />
		<tag k="place" v="locality" />
		<tag k="ssr:stedsnr" v="295939" />
	</node>
	<node lat="59.60152222053336" lon="11.668102779723311" id="-26119">
		<tag k="name" v="Svarverdalen" />
		<tag k="natural" v="valley" />
		<tag k="place" v="locality" />
		<tag k="ssr:stedsnr" v="295685" />
	</node>
	<node lat="59.49601666350924" lon="11.539669436823115" id="-26123">
		<tag k="fixme" v="consider natural=peak for the most distinct mountains in the district" />
		<tag k="name" v="Hytteåsen" />
		<tag k="natural" v="hill" />
		<tag k="place" v="locality" />
		<tag k="ssr:stedsnr" v="306920" />
	</node>
	<node lat="59.328169442137366" lon="11.600319448317235" id="-26127">
		<tag k="fixme" v="consider natural=peak for the most distinct mountains in the district" />
		<tag k="name" v="Stueåsen" />
		<tag k="natural" v="hill" />
		<tag k="place" v="locality" />
		<tag k="ssr:stedsnr" v="307654" />
	</node>
	<node lat="59.57600833230278" lon="11.693977773172474" id="-26129">
		<tag k="fixme" v="consider natural=peak for the most distinct mountains in the district" />
		<tag k="name" v="Vittenbergtoppen" />
		<tag k="natural" v="hill" />
		<tag k="place" v="locality" />
		<tag k="ssr:stedsnr" v="307507" />
	</node>
	<node lat="59.3840083308564" lon="11.745363892755837" id="-26146">
		<tag k="fixme" v="consider natural=peak for the most distinct mountains in the district" />
		<tag k="name" v="Torbråtåsen" />
		<tag k="natural" v="hill" />
		<tag k="place" v="locality" />
		<tag k="ssr:stedsnr" v="354880" />
	</node>
	<node lat="59.378361109728566" lon="11.779597217635416" id="-26149">
		<tag k="name" v="Seljedalen" />
		<tag k="natural" v="valley" />
		<tag k="place" v="locality" />
		<tag k="ssr:stedsnr" v="354909" />
	</node>
	<node lat="59.42863803787528" lon="11.759671402134966" id="-26150">
		<tag k="alt_name" v="Slaklevhøgda" />
		<tag k="name" v="Slakleivhøgda" />
		<tag k="natural" v="hill" />
		<tag k="place" v="locality" />
		<tag k="ssr:stedsnr" v="354924" />
	</node>
	<node lat="59.60071111554909" lon="11.641627778181146" id="-26157">
		<tag k="fixme" v="consider natural=peak for the most distinct mountains in the district" />
		<tag k="name" v="Ulfsbyåsen" />
		<tag k="natural" v="hill" />
		<tag k="place" v="locality" />
		<tag k="ssr:stedsnr" v="355286" />
	</node>
	<node lat="59.65656944366476" lon="11.642436119741532" id="-26161">
		<tag k="fixme" v="consider natural=peak for the most distinct mountains in the district" />
		<tag k="name" v="Damvannsåsen" />
		<tag k="natural" v="hill" />
		<tag k="place" v="locality" />
		<tag k="ssr:stedsnr" v="355414" />
	</node>
	<node lat="59.31959166977964" lon="11.81118333251167" id="-26163">
		<tag k="fixme" v="consider natural=peak for the most distinct mountains in the district" />
		<tag k="name" v="Løvikhøgda" />
		<tag k="natural" v="hill" />
		<tag k="place" v="locality" />
		<tag k="ssr:stedsnr" v="355426" />
	</node>
	<node lat="59.50143332984286" lon="11.611683330117925" id="-26179">
		<tag k="fixme" v="consider natural=peak for the most distinct mountains in the district" />
		<tag k="name" v="Tjoreberget" />
		<tag k="natural" v="hill" />
		<tag k="place" v="locality" />
		<tag k="ssr:stedsnr" v="355870" />
	</node>
	<node lat="59.49116667004822" lon="11.581313889128205" id="-26182">
		<tag k="name" v="Krokvannstangene" />
		<tag k="natural" v="ridge" />
		<tag k="place" v="locality" />
		<tag k="ssr:stedsnr" v="356027" />
	</node>
	<node lat="59.396058332124134" lon="11.614611110885413" id="-26184">
		<tag k="fixme" v="consider natural=peak for the most distinct mountains in the district" />
		<tag k="name" v="Vesle Grimsfjell" />
		<tag k="natural" v="hill" />
		<tag k="place" v="locality" />
		<tag k="ssr:stedsnr" v="356187" />
	</node>
	<node lat="59.381030557612135" lon="11.746355556341173" id="-26188">
		<tag k="alt_name" v="Høyås" />
		<tag k="fixme" v="consider natural=peak for the most distinct mountains in the district" />
		<tag k="name" v="Høgås" />
		<tag k="natural" v="hill" />
		<tag k="place" v="locality" />
		<tag k="ssr:stedsnr" v="494797" />
	</node>
	<node lat="59.63760833735492" lon="11.563936105134916" id="-26190">
		<tag k="name" v="Gjeddevikdalen" />
		<tag k="natural" v="valley" />
		<tag k="place" v="locality" />
		<tag k="ssr:stedsnr" v="476091" />
	</node>
	<node lat="59.6647833313672" lon="11.694847224316915" id="-26201">
		<tag k="fixme" v="consider natural=peak for the most distinct mountains in the district" />
		<tag k="name" v="Fjellstuhøgda" />
		<tag k="natural" v="hill" />
		<tag k="place" v="locality" />
		<tag k="ssr:stedsnr" v="476325" />
	</node>
	<node lat="59.33609167073312" lon="11.717436119294154" id="-26204">
		<tag k="fixme" v="consider natural=peak for the most distinct mountains in the district" />
		<tag k="name" v="Vestre Rødtjernhøgda" />
		<tag k="natural" v="hill" />
		<tag k="place" v="locality" />
		<tag k="ssr:stedsnr" v="476334" />
	</node>
	<node lat="59.35316110716321" lon="11.6268472171226" id="-26205">
		<tag k="name" v="Trolldalen" />
		<tag k="natural" v="valley" />
		<tag k="place" v="locality" />
		<tag k="ssr:stedsnr" v="476424" />
	</node>
	<node lat="59.35378611358176" lon="11.660802780373581" id="-26208">
		<tag k="fixme" v="consider natural=peak for the most distinct mountains in the district" />
		<tag k="name" v="Dyrehaug" />
		<tag k="natural" v="hill" />
		<tag k="place" v="locality" />
		<tag k="ssr:stedsnr" v="476392" />
	</node>
	<node lat="59.34780833717741" lon="11.642811110100627" id="-26209">
		<tag k="fixme" v="consider natural=peak for the most distinct mountains in the district" />
		<tag k="name" v="Kasåsen" />
		<tag k="natural" v="hill" />
		<tag k="place" v="locality" />
		<tag k="ssr:stedsnr" v="476396" />
	</node>
	<node lat="59.603950000532706" lon="11.693927771126146" id="-26226">
		<tag k="loc_name" v="Myrhytthella" />
		<tag k="name" v="Myrhytthalla" />
		<tag k="natural" v="slope" />
		<tag k="place" v="locality" />
		<tag k="ssr:stedsnr" v="476691" />
	</node>
	<node lat="59.425225001741794" lon="11.59284722740754" id="-26228">
		<tag k="fixme" v="consider natural=peak for the most distinct mountains in the district" />
		<tag k="name" v="Elgkollene" />
		<tag k="natural" v="hill" />
		<tag k="place" v="locality" />
		<tag k="ssr:stedsnr" v="476784" />
	</node>
	<node lat="59.50051944384767" lon="11.600249991726708" id="-26231">
		<tag k="name" v="Askedalene" />
		<tag k="natural" v="valley" />
		<tag k="place" v="locality" />
		<tag k="ssr:stedsnr" v="476894" />
	</node>
	<node lat="59.3682638882281" lon="11.781163895856299" id="-26233">
		<tag k="fixme" v="consider natural=peak for the most distinct mountains in the district" />
		<tag k="name" v="Modalshøgda" />
		<tag k="natural" v="hill" />
		<tag k="place" v="locality" />
		<tag k="ssr:stedsnr" v="476991" />
	</node>
	<node lat="59.48704999890587" lon="11.584480556890027" id="-26234">
		<tag k="fixme" v="consider natural=peak for the most distinct mountains in the district" />
		<tag k="name" v="Svartevannsåsen" />
		<tag k="natural" v="hill" />
		<tag k="place" v="locality" />
		<tag k="ssr:stedsnr" v="477026" />
	</node>
	<node lat="59.55955555176071" lon="11.544119436847618" id="-26239">
		<tag k="fixme" v="consider natural=peak for the most distinct mountains in the district" />
		<tag k="name" v="Skjøttås" />
		<tag k="natural" v="hill" />
		<tag k="place" v="locality" />
		<tag k="ssr:stedsnr" v="477062" />
	</node>
	<node lat="59.36430555764252" lon="11.61058334159934" id="-26242">
		<tag k="fixme" v="consider natural=peak for the most distinct mountains in the district" />
		<tag k="name" v="Tranetjernhøgda" />
		<tag k="natural" v="hill" />
		<tag k="place" v="locality" />
		<tag k="ssr:stedsnr" v="477083" />
	</node>
	<node lat="59.38161110982608" lon="11.607847216999216" id="-26243">
		<tag k="fixme" v="consider natural=peak for the most distinct mountains in the district" />
		<tag k="name" v="Røsåsen" />
		<tag k="natural" v="hill" />
		<tag k="place" v="locality" />
		<tag k="ssr:stedsnr" v="477092" />
	</node>
	<node lat="59.3833166665494" lon="11.593905560296312" id="-26244">
		<tag k="name" v="Svenskedalen" />
		<tag k="natural" v="valley" />
		<tag k="place" v="locality" />
		<tag k="ssr:stedsnr" v="477093" />
	</node>
	<node lat="59.59036666688702" lon="11.558105547852172" id="-26247">
		<tag k="fixme" v="consider natural=peak for the most distinct mountains in the district" />
		<tag k="name" v="Draken" />
		<tag k="natural" v="hill" />
		<tag k="place" v="locality" />
		<tag k="ssr:stedsnr" v="477196" />
	</node>
	<node lat="59.56243333402633" lon="11.592030555984405" id="-26252">
		<tag k="name" v="Kirkehaugen" />
		<tag k="natural" v="hill" />
		<tag k="place" v="locality" />
		<tag k="ssr:stedsnr" v="477253" />
	</node>
	<node lat="59.508566666664215" lon="11.728649992158122" id="-26256">
		<tag k="name" v="Linnedalen" />
		<tag k="natural" v="valley" />
		<tag k="place" v="locality" />
		<tag k="ssr:stedsnr" v="477375" />
	</node>
	<node lat="59.651394442417875" lon="11.646058328643832" id="-26261">
		<tag k="name" v="Jeppeberget" />
		<tag k="place" v="locality" />
		<tag k="ssr:stedsnr" v="477468" />
	</node>
	<node lat="59.57606944647743" lon="11.659283333613404" id="-26263">
		<tag k="name" v="Abbortjerndalen" />
		<tag k="natural" v="valley" />
		<tag k="place" v="locality" />
		<tag k="ssr:stedsnr" v="477479" />
	</node>
	<node lat="59.57884444643326" lon="11.651355562951162" id="-26264">
		<tag k="fixme" v="consider natural=peak for the most distinct mountains in the district" />
		<tag k="name" v="Korstjernhøgda" />
		<tag k="natural" v="hill" />
		<tag k="place" v="locality" />
		<tag k="ssr:stedsnr" v="477487" />
	</node>
	<node lat="59.61552778241396" lon="11.632719436117723" id="-26270">
		<tag k="name" v="Isedalen" />
		<tag k="natural" v="valley" />
		<tag k="place" v="locality" />
		<tag k="ssr:stedsnr" v="477641" />
	</node>
	<node lat="59.37692221924401" lon="11.779883341883531" id="-26289">
		<tag k="fixme" v="consider natural=peak for the most distinct mountains in the district" />
		<tag k="name" v="Bæråsen" />
		<tag k="natural" v="hill" />
		<tag k="place" v="locality" />
		<tag k="ssr:stedsnr" v="367671" />
	</node>
	<node lat="59.513177781343614" lon="11.61138332656429" id="-26290">
		<tag k="fixme" v="consider natural=peak for the most distinct mountains in the district" />
		<tag k="name" v="Husås" />
		<tag k="natural" v="hill" />
		<tag k="place" v="locality" />
		<tag k="ssr:stedsnr" v="368410" />
	</node>
	<node lat="59.61763611423171" lon="11.636249993854035" id="-26291">
		<tag k="fixme" v="consider natural=peak for the most distinct mountains in the district" />
		<tag k="name" v="Høgås" />
		<tag k="natural" v="hill" />
		<tag k="place" v="locality" />
		<tag k="ssr:stedsnr" v="368311" />
	</node>
	<node lat="59.555024996184144" lon="11.558555562970426" id="-26293">
		<tag k="fixme" v="consider natural=peak for the most distinct mountains in the district" />
		<tag k="name" v="Røysås" />
		<tag k="natural" v="hill" />
		<tag k="place" v="locality" />
		<tag k="ssr:stedsnr" v="389039" />
	</node>
	<node lat="59.47235555336502" lon="11.746333340299111" id="-26297">
		<tag k="alt_name" v="Høyås" />
		<tag k="fixme" v="consider natural=peak for the most distinct mountains in the district" />
		<tag k="name" v="Høgås" />
		<tag k="natural" v="hill" />
		<tag k="place" v="locality" />
		<tag k="ssr:stedsnr" v="487636" />
	</node>
	<node lat="59.66701388735427" lon="11.63286944846129" id="-26322">
		<tag k="name" v="Steinsdalen" />
		<tag k="natural" v="valley" />
		<tag k="place" v="locality" />
		<tag k="ssr:stedsnr" v="416409" />
	</node>
	<node lat="59.647933336383836" lon="11.669233337971232" id="-26323">
		<tag k="fixme" v="consider natural=peak for the most distinct mountains in the district" />
		<tag k="name" v="Krokseterkollen" />
		<tag k="natural" v="hill" />
		<tag k="place" v="locality" />
		<tag k="ssr:stedsnr" v="416423" />
	</node>
	<node lat="59.60266389059181" lon="11.636675002554961" id="-26326">
		<tag k="name" v="Trolldråga" />
		<tag k="natural" v="valley" />
		<tag k="place" v="locality" />
		<tag k="ssr:stedsnr" v="416635" />
	</node>
	<node lat="59.4986777815833" lon="11.695177771696999" id="-26334">
		<tag k="fixme" v="consider natural=peak for the most distinct mountains in the district" />
		<tag k="name" v="Trøssåsen" />
		<tag k="natural" v="hill" />
		<tag k="place" v="locality" />
		<tag k="ssr:stedsnr" v="417003" />
	</node>
	<node lat="59.4858527789075" lon="11.604155562438534" id="-26336">
		<tag k="name" v="Sverdalen" />
		<tag k="natural" v="valley" />
		<tag k="place" v="locality" />
		<tag k="ssr:stedsnr" v="416906" />
	</node>
	<node lat="59.52048610842348" lon="11.690747220235728" id="-26341">
		<tag k="name" v="Elgedråga" />
		<tag k="natural" v="valley" />
		<tag k="place" v="locality" />
		<tag k="ssr:stedsnr" v="417395" />
	</node>
	<node lat="59.349541664126804" lon="11.676777771306044" id="-26342">
		<tag k="fixme" v="consider natural=peak for the most distinct mountains in the district" />
		<tag k="name" v="Pinnekashøgda" />
		<tag k="natural" v="hill" />
		<tag k="place" v="locality" />
		<tag k="ssr:stedsnr" v="417403" />
	</node>
	<node lat="59.42133889306144" lon="11.756477769870289" id="-26346">
		<tag k="alt_name" v="Elveåsen" />
		<tag k="fixme" v="consider natural=peak for the most distinct mountains in the district" />
		<tag k="name" v="Elvåsen" />
		<tag k="natural" v="hill" />
		<tag k="place" v="locality" />
		<tag k="ssr:stedsnr" v="488511" />
	</node>
	<node lat="59.33074166463446" lon="11.606952781348186" id="-26350">
		<tag k="alt_name" v="Saksåsen" />
		<tag k="fixme" v="consider natural=peak for the most distinct mountains in the district" />
		<tag k="name" v="Sakseåsen" />
		<tag k="natural" v="hill" />
		<tag k="place" v="locality" />
		<tag k="ssr:stedsnr" v="488738" />
	</node>
	<node lat="59.39798055978277" lon="11.60473610779037" id="-26364">
		<tag k="fixme" v="consider natural=peak for the most distinct mountains in the district" />
		<tag k="name" v="Trollhøgda" />
		<tag k="natural" v="hill" />
		<tag k="place" v="locality" />
		<tag k="ssr:stedsnr" v="428510" />
	</node>
	<node lat="59.63266389045217" lon="11.638191665690808" id="-26376">
		<tag k="name" v="Varden" />
		<tag k="natural" v="hill" />
		<tag k="place" v="locality" />
		<tag k="ssr:stedsnr" v="671286" />
	</node>
	<node lat="59.62902777334406" lon="11.706030555705494" id="-26378">
		<tag k="alt_name" v="Valthornhøgda" />
		<tag k="name" v="Valdhornhøgda" />
		<tag k="natural" v="hill" />
		<tag k="place" v="locality" />
		<tag k="ssr:stedsnr" v="671288" />
	</node>
	<node lat="59.549030556425514" lon="11.66375000340336" id="-26382">
		<tag k="alt_name" v="Mærrakleiva;Merrakleva" />
		<tag k="name" v="Merrakleiva" />
		<tag k="natural" v="hill" />
		<tag k="place" v="locality" />
		<tag k="ssr:stedsnr" v="671467" />
	</node>
	<node lat="59.48569999929932" lon="11.641272225607835" id="-26390">
		<tag k="name" v="Ørjeberga" />
		<tag k="natural" v="slope" />
		<tag k="place" v="locality" />
		<tag k="ssr:stedsnr" v="476224" />
	</node>
	<node lat="59.599702776039464" lon="11.65466389187971" id="-26395">
		<tag k="name" v="Langmosetangen" />
		<tag k="natural" v="ridge" />
		<tag k="place" v="locality" />
		<tag k="ssr:stedsnr" v="476669" />
	</node>
	<node lat="59.48264722292454" lon="11.603961119889078" id="-26405">
		<tag k="name" v="Sverdalen" />
		<tag k="natural" v="valley" />
		<tag k="place" v="locality" />
		<tag k="ssr:stedsnr" v="476816" />
	</node>
	<node lat="59.4156000023289" lon="11.61768888053029" id="-26410">
		<tag k="fixme" v="consider natural=peak for the most distinct mountains in the district" />
		<tag k="name" v="Langetjernhøgda" />
		<tag k="natural" v="hill" />
		<tag k="place" v="locality" />
		<tag k="ssr:stedsnr" v="477171" />
	</node>
	<node lat="59.403452780615716" lon="11.60554444866026" id="-26412">
		<tag k="name" v="Vestre Bastedalen" />
		<tag k="natural" v="valley" />
		<tag k="place" v="locality" />
		<tag k="ssr:stedsnr" v="477177" />
	</node>
	<node lat="59.577202780074735" lon="11.559655562668437" id="-26419">
		<tag k="fixme" v="consider natural=peak for the most distinct mountains in the district" />
		<tag k="name" v="Kjonåsen" />
		<tag k="natural" v="hill" />
		<tag k="place" v="locality" />
		<tag k="ssr:stedsnr" v="477223" />
	</node>
	<node lat="59.473316668421695" lon="11.623547215641361" id="-26424">
		<tag k="name" v="Kollebudalshøgda" />
		<tag k="natural" v="ridge" />
		<tag k="place" v="locality" />
		<tag k="ssr:stedsnr" v="477715" />
	</node>
	<node lat="59.5822666699242" lon="11.641649993226578" id="-26425">
		<tag k="name" v="Kulemastehøgda" />
		<tag k="natural" v="ridge" />
		<tag k="place" v="locality" />
		<tag k="ssr:stedsnr" v="477460" />
	</node>
	<node lat="59.59298333706447" lon="11.59007499914273" id="-26428">
		<tag k="name" v="Blåsopp" />
		<tag k="natural" v="hill" />
		<tag k="place" v="locality" />
		<tag k="ssr:stedsnr" v="477922" />
	</node>
	<node lat="59.36208888813143" lon="11.621991666454203" id="-26434">
		<tag k="alt_name" v="Høyfjell" />
		<tag k="fixme" v="consider natural=peak for the most distinct mountains in the district" />
		<tag k="name" v="Høgefjell" />
		<tag k="natural" v="hill" />
		<tag k="place" v="locality" />
		<tag k="ssr:stedsnr" v="488700" />
	</node>
	<node lat="59.53255833318267" lon="11.698236114535398" id="-26445">
		<tag k="fixme" v="consider natural=peak for the most distinct mountains in the district" />
		<tag k="name" v="Buknatten" />
		<tag k="natural" v="hill" />
		<tag k="place" v="locality" />
		<tag k="ssr:stedsnr" v="489409" />
	</node>
	<node lat="59.43370555870711" lon="11.605894452260756" id="-26457">
		<tag k="fixme" v="consider natural=peak for the most distinct mountains in the district" />
		<tag k="name" v="Gurihøgda" />
		<tag k="natural" v="hill" />
		<tag k="place" v="locality" />
		<tag k="ssr:stedsnr" v="537202" />
	</node>
	<node lat="59.66072777563322" lon="11.621988889241432" id="-26460">
		<tag k="fixme" v="consider natural=peak for the most distinct mountains in the district" />
		<tag k="name" v="Grå merra" />
		<tag k="natural" v="hill" />
		<tag k="place" v="locality" />
		<tag k="ssr:stedsnr" v="537414" />
	</node>
	<node lat="59.419136115651824" lon="11.767302770396046" id="-26472">
		<tag k="fixme" v="consider natural=peak for the most distinct mountains in the district" />
		<tag k="name" v="Apalåsen" />
		<tag k="natural" v="hill" />
		<tag k="place" v="locality" />
		<tag k="ssr:stedsnr" v="537904" />
	</node>
	<node lat="59.52119444692464" lon="11.589747223025007" id="-26474">
		<tag k="name" v="Lerdal" />
		<tag k="natural" v="valley" />
		<tag k="place" v="locality" />
		<tag k="ssr:stedsnr" v="537971" />
	</node>
	<node lat="59.38846667090202" lon="11.606963889436765" id="-26476">
		<tag k="name" v="Skaffenbergdalen" />
		<tag k="natural" v="valley" />
		<tag k="place" v="locality" />
		<tag k="ssr:stedsnr" v="538102" />
	</node>
	<node lat="59.39192778137961" lon="11.760080549133237" id="-26479">
		<tag k="fixme" v="consider natural=peak for the most distinct mountains in the district" />
		<tag k="name" v="Linnsjervaåsen" />
		<tag k="natural" v="hill" />
		<tag k="place" v="locality" />
		<tag k="ssr:stedsnr" v="537875" />
	</node>
	<node lat="59.49839721982939" lon="11.590933326484501" id="-26480">
		<tag k="name" v="Holoseterdalen" />
		<tag k="natural" v="valley" />
		<tag k="place" v="locality" />
		<tag k="ssr:stedsnr" v="537877" />
	</node>
	<node lat="59.35919166719029" lon="11.605808324657119" id="-26487">
		<tag k="fixme" v="consider natural=peak for the most distinct mountains in the district" />
		<tag k="name" v="Stintarklevhøgda" />
		<tag k="natural" v="hill" />
		<tag k="place" v="locality" />
		<tag k="ssr:stedsnr" v="538079" />
	</node>
	<node lat="59.5232027819679" lon="11.545108330896811" id="-26494">
		<tag k="name" v="Bjørkebrudalen" />
		<tag k="natural" v="valley" />
		<tag k="place" v="locality" />
		<tag k="ssr:stedsnr" v="538316" />
	</node>
	<node lat="59.38167499722333" lon="11.763913880692135" id="-26511">
		<tag k="alt_name" v="Bærtjernstorvet" />
		<tag k="fixme" v="consider natural=peak for the most distinct mountains in the district" />
		<tag k="name" v="Bæretjernstorget" />
		<tag k="natural" v="hill" />
		<tag k="place" v="locality" />
		<tag k="ssr:stedsnr" v="548566" />
	</node>
	<node lat="59.60187500433874" lon="11.66085833405746" id="-26524">
		<tag k="name" v="Storåsen" />
		<tag k="natural" v="hill" />
		<tag k="place" v="locality" />
		<tag k="ssr:stedsnr" v="550444" />
	</node>
	<node lat="59.330872220471356" lon="11.593527771014188" id="-26527">
		<tag k="fixme" v="consider natural=peak for the most distinct mountains in the district" />
		<tag k="name" v="Seljedalsåsen" />
		<tag k="natural" v="hill" />
		<tag k="place" v="locality" />
		<tag k="ssr:stedsnr" v="597108" />
	</node>
	<node lat="59.50517222525907" lon="11.54472222560179" id="-26537">
		<tag k="fixme" v="consider natural=peak for the most distinct mountains in the district" />
		<tag k="name" v="Seterhøgda" />
		<tag k="natural" v="hill" />
		<tag k="place" v="locality" />
		<tag k="ssr:stedsnr" v="597916" />
	</node>
	<node lat="59.603841667993684" lon="11.589794446564795" id="-26538">
		<tag k="fixme" v="consider natural=peak for the most distinct mountains in the district" />
		<tag k="name" v="Holmeåsen" />
		<tag k="natural" v="hill" />
		<tag k="place" v="locality" />
		<tag k="ssr:stedsnr" v="597923" />
	</node>
	<node lat="59.466513889039376" lon="11.698652770641926" id="-26545">
		<tag k="name" v="Potetløkka" />
		<tag k="place" v="locality" />
		<tag k="ssr:stedsnr" v="598034" />
	</node>
	<node lat="59.41358611360794" lon="11.619119450212565" id="-26551">
		<tag k="name" v="Kollen" />
		<tag k="natural" v="hill" />
		<tag k="place" v="locality" />
		<tag k="ssr:stedsnr" v="598169" />
	</node>
	<node lat="59.57161111001071" lon="11.680058337021357" id="-26558">
		<tag k="fixme" v="consider natural=peak for the most distinct mountains in the district" />
		<tag k="name" v="Svartvannshøgda" />
		<tag k="natural" v="hill" />
		<tag k="place" v="locality" />
		<tag k="ssr:stedsnr" v="598454" />
	</node>
	<node lat="59.3411944443393" lon="11.689383341824902" id="-26559">
		<tag k="fixme" v="consider natural=peak for the most distinct mountains in the district" />
		<tag k="name" v="Tinghaugen" />
		<tag k="natural" v="hill" />
		<tag k="place" v="locality" />
		<tag k="ssr:stedsnr" v="598352" />
	</node>
	<node lat="59.62360000125822" lon="11.66048888129164" id="-26562">
		<tag k="name" v="Fluetjernsdalen" />
		<tag k="natural" v="valley" />
		<tag k="place" v="locality" />
		<tag k="ssr:stedsnr" v="598508" />
	</node>
	<node lat="59.62374167114873" lon="11.642922217176014" id="-26566">
		<tag k="name" v="Krokslottet" />
		<tag k="place" v="locality" />
		<tag k="ssr:stedsnr" v="598521" />
	</node>
	<node lat="59.599233335821374" lon="11.620455556916328" id="-26570">
		<tag k="name" v="Dyrhaugen" />
		<tag k="natural" v="hill" />
		<tag k="place" v="locality" />
		<tag k="ssr:stedsnr" v="598923" />
	</node>
	<node lat="59.35694722162216" lon="11.658216659468698" id="-26592">
		<tag k="name" v="Jettegrytene" />
		<tag k="natural" v="valley" />
		<tag k="place" v="locality" />
		<tag k="ssr:stedsnr" v="658307" />
	</node>
	<node lat="59.533324997436885" lon="11.68465833807315" id="-26593">
		<tag k="name" v="Seterhøgda" />
		<tag k="natural" v="hill" />
		<tag k="place" v="locality" />
		<tag k="ssr:stedsnr" v="658405" />
	</node>
	<node lat="59.531758332812494" lon="11.659205556131623" id="-26594">
		<tag k="fixme" v="consider natural=peak for the most distinct mountains in the district" />
		<tag k="name" v="Kølås" />
		<tag k="natural" v="hill" />
		<tag k="place" v="locality" />
		<tag k="ssr:stedsnr" v="658430" />
	</node>
	<node lat="59.44249444516109" lon="11.659372213491206" id="-26601">
		<tag k="name" v="Nissegrytene" />
		<tag k="place" v="locality" />
		<tag k="ssr:stedsnr" v="658506" />
	</node>
	<node lat="59.42774721974992" lon="11.732594437973033" id="-26602">
		<tag k="fixme" v="consider natural=peak for the most distinct mountains in the district" />
		<tag k="name" v="Brattåsen" />
		<tag k="natural" v="hill" />
		<tag k="place" v="locality" />
		<tag k="ssr:stedsnr" v="658534" />
	</node>
	<node lat="59.39373333216472" lon="11.642072229408745" id="-26614">
		<tag k="name" v="Galteryggen" />
		<tag k="natural" v="ridge" />
		<tag k="place" v="locality" />
		<tag k="ssr:stedsnr" v="658803" />
	</node>
	<node lat="59.46756944205655" lon="11.576477782438225" id="-26616">
		<tag k="fixme" v="consider natural=peak for the most distinct mountains in the district" />
		<tag k="name" v="Svarttjernhøgda" />
		<tag k="natural" v="hill" />
		<tag k="place" v="locality" />
		<tag k="ssr:stedsnr" v="658834" />
	</node>
	<node lat="59.6164805594409" lon="11.626852775262357" id="-26628">
		<tag k="fixme" v="consider natural=peak for the most distinct mountains in the district" />
		<tag k="name" v="Høgås" />
		<tag k="natural" v="hill" />
		<tag k="place" v="locality" />
		<tag k="ssr:stedsnr" v="659141" />
	</node>
	<node lat="59.64206667093265" lon="11.650202784373247" id="-26641">
		<tag k="name" v="Grinddalen" />
		<tag k="natural" v="valley" />
		<tag k="place" v="locality" />
		<tag k="ssr:stedsnr" v="659536" />
	</node>
	<node lat="59.63388610742933" lon="11.686533328954136" id="-26692">
		<tag k="name" v="Jåvallseterberget" />
		<tag k="natural" v="hill" />
		<tag k="place" v="locality" />
		<tag k="ssr:stedsnr" v="719528" />
	</node>
	<node lat="59.426650003198446" lon="11.627605557048962" id="-26695">
		<tag k="fixme" v="consider natural=peak for the most distinct mountains in the district" />
		<tag k="name" v="Trytjernåsen" />
		<tag k="natural" v="hill" />
		<tag k="place" v="locality" />
		<tag k="ssr:stedsnr" v="719579" />
	</node>
	<node lat="59.48164722336251" lon="11.60905834142107" id="-26700">
		<tag k="name" v="Gjøvannsdalen" />
		<tag k="natural" v="valley" />
		<tag k="place" v="locality" />
		<tag k="ssr:stedsnr" v="719810" />
	</node>
	<node lat="59.349236107924355" lon="11.79231111129856" id="-26703">
		<tag k="name" v="Styggemyrdalen" />
		<tag k="natural" v="valley" />
		<tag k="place" v="locality" />
		<tag k="ssr:stedsnr" v="719790" />
	</node>
	<node lat="59.35688333534753" lon="11.756474995427304" id="-26705">
		<tag k="name" v="Iverpasset" />
		<tag k="place" v="locality" />
		<tag k="ssr:stedsnr" v="719796" />
	</node>
	<node lat="59.634488886049525" lon="11.578761119662884" id="-26708">
		<tag k="name" v="Lensehøgda" />
		<tag k="natural" v="ridge" />
		<tag k="place" v="locality" />
		<tag k="ssr:stedsnr" v="720235" />
	</node>
	<node lat="59.51079722585925" lon="11.725630559309487" id="-26713">
		<tag k="fixme" v="consider natural=peak for the most distinct mountains in the district" />
		<tag k="name" v="Joarknatten" />
		<tag k="natural" v="hill" />
		<tag k="place" v="locality" />
		<tag k="ssr:stedsnr" v="720373" />
	</node>
	<node lat="59.646663887232805" lon="11.709633330354675" id="-26715">
		<tag k="fixme" v="consider natural=peak for the most distinct mountains in the district" />
		<tag k="name" v="Rødvannsåsen" />
		<tag k="natural" v="hill" />
		<tag k="place" v="locality" />
		<tag k="ssr:stedsnr" v="720472" />
	</node>
	<node lat="59.49920555657862" lon="11.732488881253799" id="-26724">
		<tag k="alt_name" v="Allerudhøgda" />
		<tag k="fixme" v="consider natural=peak for the most distinct mountains in the district" />
		<tag k="name" v="Alerudhøgda" />
		<tag k="natural" v="hill" />
		<tag k="place" v="locality" />
		<tag k="ssr:stedsnr" v="730629" />
	</node>
	<node lat="59.3690944431556" lon="11.631547223162716" id="-26725">
		<tag k="fixme" v="consider natural=peak for the most distinct mountains in the district" />
		<tag k="name" v="Laåsen" />
		<tag k="natural" v="hill" />
		<tag k="place" v="locality" />
		<tag k="ssr:stedsnr" v="901276" />
	</node>
	<node lat="59.341616670120814" lon="11.607627778114493" id="-26733">
		<tag k="fixme" v="consider natural=peak for the most distinct mountains in the district" />
		<tag k="name" v="Vindsknatten" />
		<tag k="natural" v="hill" />
		<tag k="place" v="locality" />
		<tag k="ssr:stedsnr" v="731716" />
	</node>
	<node lat="59.343658333509694" lon="11.806838886703986" id="-26734">
		<tag k="fixme" v="consider natural=peak for the most distinct mountains in the district" />
		<tag k="name" v="Lystjernhøgda" />
		<tag k="natural" v="hill" />
		<tag k="place" v="locality" />
		<tag k="ssr:stedsnr" v="731724" />
	</node>
	<node lat="59.53770833037696" lon="11.67809166863382" id="-26737">
		<tag k="name" v="Kåtås" />
		<tag k="natural" v="hill" />
		<tag k="place" v="locality" />
		<tag k="ssr:stedsnr" v="901389" />
	</node>
	<node lat="59.395811114122054" lon="11.682119450160982" id="-26745">
		<tag k="fixme" v="consider natural=peak for the most distinct mountains in the district" />
		<tag k="name" v="Mårudåsen" />
		<tag k="natural" v="hill" />
		<tag k="place" v="locality" />
		<tag k="ssr:stedsnr" v="901538" />
	</node>
	<node lat="59.409572225014124" lon="11.633805554867694" id="-26748">
		<tag k="name" v="Skjortemyrdalen" />
		<tag k="natural" v="valley" />
		<tag k="place" v="locality" />
		<tag k="ssr:stedsnr" v="901548" />
	</node>
	<node lat="59.3883111081218" lon="11.623280547830854" id="-26757">
		<tag k="fixme" v="consider natural=peak for the most distinct mountains in the district" />
		<tag k="name" v="Bønsåsen" />
		<tag k="natural" v="hill" />
		<tag k="place" v="locality" />
		<tag k="ssr:stedsnr" v="901830" />
	</node>
	<node lat="59.386691667691494" lon="11.749755559808511" id="-26760">
		<tag k="fixme" v="consider natural=peak for the most distinct mountains in the district" />
		<tag k="name" v="Lyåsen" />
		<tag k="natural" v="hill" />
		<tag k="place" v="locality" />
		<tag k="ssr:stedsnr" v="901885" />
	</node>
	<node lat="59.52052222514046" lon="11.560024998579497" id="-26764">
		<tag k="fixme" v="consider natural=peak for the most distinct mountains in the district" />
		<tag k="name" v="Pålsåsen" />
		<tag k="natural" v="hill" />
		<tag k="place" v="locality" />
		<tag k="ssr:stedsnr" v="901966" />
	</node>
	<node lat="59.520449996860805" lon="11.544813885563837" id="-26765">
		<tag k="fixme" v="consider natural=peak for the most distinct mountains in the district" />
		<tag k="name" v="Bjørkebruhøgda" />
		<tag k="natural" v="hill" />
		<tag k="place" v="locality" />
		<tag k="ssr:stedsnr" v="901971" />
	</node>
	<node lat="59.37231110689951" lon="11.597080561952918" id="-26771">
		<tag k="fixme" v="consider natural=peak for the most distinct mountains in the district" />
		<tag k="name" v="Skrangleåsene" />
		<tag k="natural" v="hill" />
		<tag k="place" v="locality" />
		<tag k="ssr:stedsnr" v="902089" />
	</node>
	<node lat="59.59065277751705" lon="11.590730555539333" id="-26775">
		<tag k="fixme" v="consider natural=peak for the most distinct mountains in the district" />
		<tag k="name" v="Kjoneåsen" />
		<tag k="natural" v="hill" />
		<tag k="place" v="locality" />
		<tag k="ssr:stedsnr" v="902145" />
	</node>
	<node lat="59.5817083321077" lon="11.683697213813803" id="-26778">
		<tag k="fixme" v="consider natural=peak for the most distinct mountains in the district" />
		<tag k="name" v="Gravås" />
		<tag k="natural" v="hill" />
		<tag k="place" v="locality" />
		<tag k="ssr:stedsnr" v="902325" />
	</node>
	<node lat="59.591261108226334" lon="11.514283328356099" id="-26779">
		<tag k="fixme" v="consider natural=peak for the most distinct mountains in the district" />
		<tag k="name" v="Grautåsen" />
		<tag k="natural" v="hill" />
		<tag k="place" v="locality" />
		<tag k="ssr:stedsnr" v="902188" />
	</node>
	<node lat="59.52242499988953" lon="11.713855549449647" id="-26787">
		<tag k="name" v="Rødtjerndalen" />
		<tag k="natural" v="valley" />
		<tag k="place" v="locality" />
		<tag k="ssr:stedsnr" v="902394" />
	</node>
	<node lat="59.58054721948216" lon="11.620827786094203" id="-26801">
		<tag k="fixme" v="consider natural=peak for the most distinct mountains in the district" />
		<tag k="name" v="Jørnehaugtoppen" />
		<tag k="natural" v="hill" />
		<tag k="place" v="locality" />
		<tag k="ssr:stedsnr" v="902764" />
	</node>
	<node lat="59.579724999948795" lon="11.658899993103645" id="-26833">
		<tag k="loc_name" v="Morttjernhellene" />
		<tag k="name" v="Morttjernhallene" />
		<tag k="natural" v="slope" />
		<tag k="place" v="locality" />
		<tag k="ssr:stedsnr" v="780404" />
	</node>
	<node lat="59.58971944132934" lon="11.669327769254547" id="-26834">
		<tag k="name" v="Langås" />
		<tag k="natural" v="ridge" />
		<tag k="place" v="locality" />
		<tag k="ssr:stedsnr" v="780407" />
	</node>
	<node lat="59.57133332998584" lon="11.669127771222914" id="-26835">
		<tag k="name" v="Bergtjerndalen" />
		<tag k="natural" v="valley" />
		<tag k="place" v="locality" />
		<tag k="ssr:stedsnr" v="780410" />
	</node>
	<node lat="59.47631944874226" lon="11.572411105838086" id="-26850">
		<tag k="fixme" v="consider natural=peak for the most distinct mountains in the district" />
		<tag k="name" v="Storelihøgda" />
		<tag k="natural" v="hill" />
		<tag k="place" v="locality" />
		<tag k="ssr:stedsnr" v="780768" />
	</node>
	<node lat="59.52479444469732" lon="11.595752782812049" id="-26854">
		<tag k="name" v="Munkeberget" />
		<tag k="natural" v="hill" />
		<tag k="place" v="locality" />
		<tag k="ssr:stedsnr" v="780957" />
	</node>
	<node lat="59.47706944430545" lon="11.639769452021852" id="-26855">
		<tag k="fixme" v="consider natural=peak for the most distinct mountains in the district" />
		<tag k="name" v="Hestehagåsen" />
		<tag k="natural" v="hill" />
		<tag k="place" v="locality" />
		<tag k="ssr:stedsnr" v="780700" />
	</node>
	<node lat="59.6538833298147" lon="11.634891670780435" id="-26861">
		<tag k="name" v="Røytjerndalen" />
		<tag k="natural" v="valley" />
		<tag k="place" v="locality" />
		<tag k="ssr:stedsnr" v="781564" />
	</node>
	<node lat="59.48626666832764" lon="11.6225388863436" id="-26867">
		<tag k="alt_name" v="Gjøvannshøgda" />
		<tag k="fixme" v="consider natural=peak for the most distinct mountains in the district" />
		<tag k="name" v="Gjøvasshøgda" />
		<tag k="natural" v="hill" />
		<tag k="place" v="locality" />
		<tag k="ssr:stedsnr" v="791547" />
	</node>
	<node lat="59.358813886231054" lon="11.67150833789442" id="-26873">
		<tag k="name" v="Ballen" />
		<tag k="natural" v="hill" />
		<tag k="place" v="locality" />
		<tag k="ssr:stedsnr" v="792694" />
	</node>
	<node lat="59.63099722382957" lon="11.638083326386026" id="-26877">
		<tag k="fixme" v="consider natural=peak for the most distinct mountains in the district" />
		<tag k="name" v="Krokslottet" />
		<tag k="natural" v="hill" />
		<tag k="place" v="locality" />
		<tag k="ssr:stedsnr" v="793289" />
	</node>
	<node lat="59.3701638858815" lon="11.697063887550405" id="-26895">
		<tag k="fixme" v="consider natural=peak for the most distinct mountains in the district" />
		<tag k="name" v="Struteåsen" />
		<tag k="natural" v="hill" />
		<tag k="place" v="locality" />
		<tag k="ssr:stedsnr" v="840308" />
	</node>
	<node lat="59.353244447065954" lon="11.635702770777732" id="-26898">
		<tag k="fixme" v="consider natural=peak for the most distinct mountains in the district" />
		<tag k="name" v="Svartetjernhøgda" />
		<tag k="natural" v="hill" />
		<tag k="place" v="locality" />
		<tag k="ssr:stedsnr" v="840404" />
	</node>
	<node lat="59.6324166707689" lon="11.57861944254909" id="-26917">
		<tag k="name" v="Djupedal" />
		<tag k="natural" v="valley" />
		<tag k="place" v="locality" />
		<tag k="ssr:stedsnr" v="841242" />
	</node>
	<node lat="59.539308328827815" lon="11.708986117537638" id="-26924">
		<tag k="name" v="Lysingstjernhøgda" />
		<tag k="natural" v="ridge" />
		<tag k="place" v="locality" />
		<tag k="ssr:stedsnr" v="841402" />
	</node>
	<node lat="59.627644440923824" lon="11.649863880185547" id="-26927">
		<tag k="fixme" v="consider natural=peak for the most distinct mountains in the district" />
		<tag k="name" v="Hølendingsåsen" />
		<tag k="natural" v="hill" />
		<tag k="place" v="locality" />
		<tag k="ssr:stedsnr" v="841515" />
	</node>
	<node lat="59.655499997591946" lon="11.606986115674648" id="-26935">
		<tag k="name" v="Midtås" />
		<tag k="natural" v="ridge" />
		<tag k="place" v="locality" />
		<tag k="ssr:stedsnr" v="841426" />
	</node>
	<node lat="59.61625555998546" lon="11.661611110317894" id="-26946">
		<tag k="name" v="Kudrågfjellet" />
		<tag k="natural" v="cliff" />
		<tag k="ssr:stedsnr" v="841577" />
	</node>
	<node lat="59.50696944306165" lon="11.612480557215527" id="-26951">
		<tag k="fixme" v="consider natural=peak for the most distinct mountains in the district" />
		<tag k="name" v="Trollås" />
		<tag k="natural" v="hill" />
		<tag k="place" v="locality" />
		<tag k="ssr:stedsnr" v="841925" />
	</node>
	<node lat="59.36973055485678" lon="11.598044449302105" id="-26960">
		<tag k="name" v="Smaledalen" />
		<tag k="natural" v="valley" />
		<tag k="place" v="locality" />
		<tag k="ssr:stedsnr" v="842077" />
	</node>
	<node lat="59.39054444318822" lon="11.613569440379786" id="-26961">
		<tag k="fixme" v="consider natural=peak for the most distinct mountains in the district" />
		<tag k="name" v="Klevtjernråsen" />
		<tag k="natural" v="hill" />
		<tag k="place" v="locality" />
		<tag k="ssr:stedsnr" v="842085" />
	</node>
	<node lat="59.55757500263161" lon="11.692519437166174" id="-26965">
		<tag k="name" v="Øksedråga" />
		<tag k="natural" v="valley" />
		<tag k="place" v="locality" />
		<tag k="ssr:stedsnr" v="842377" />
	</node>
	<node lat="59.34634444764291" lon="11.732011109543398" id="-26972">
		<tag k="alt_name" v="Hiåsen" />
		<tag k="fixme" v="consider natural=peak for the most distinct mountains in the district" />
		<tag k="name" v="Hidåsen" />
		<tag k="natural" v="hill" />
		<tag k="place" v="locality" />
		<tag k="ssr:stedsnr" v="853713" />
	</node>
	<node lat="59.33763610919764" lon="11.709750000305458" id="-26973">
		<tag k="fixme" v="consider natural=peak for the most distinct mountains in the district" />
		<tag k="name" v="Brenna" />
		<tag k="natural" v="hill" />
		<tag k="place" v="locality" />
		<tag k="ssr:stedsnr" v="853729" />
	</node>
	<node lat="59.62636944725516" lon="11.543033334163006" id="-26976">
		<tag k="fixme" v="consider natural=peak for the most distinct mountains in the district" />
		<tag k="name" v="Svinåsen" />
		<tag k="natural" v="hill" />
		<tag k="place" v="locality" />
		<tag k="ssr:stedsnr" v="854249" />
	</node>
	<node lat="59.445833330789675" lon="11.610991657798397" id="-26986">
		<tag k="fixme" v="consider natural=peak for the most distinct mountains in the district" />
		<tag k="name" v="Abbortjernhøgda" />
		<tag k="natural" v="hill" />
		<tag k="place" v="locality" />
		<tag k="ssr:stedsnr" v="901305" />
	</node>
	<node lat="59.59491944047726" lon="11.69013889701689" id="-26990">
		<tag k="name" v="Rognedråga" />
		<tag k="natural" v="valley" />
		<tag k="place" v="locality" />
		<tag k="ssr:stedsnr" v="901705" />
	</node>
	<node lat="59.38810833710405" lon="11.76651666605751" id="-26999">
		<tag k="fixme" v="consider natural=peak for the most distinct mountains in the district" />
		<tag k="name" v="Hagatjernåsen" />
		<tag k="natural" v="hill" />
		<tag k="place" v="locality" />
		<tag k="ssr:stedsnr" v="901911" />
	</node>
	<node lat="59.57005555942411" lon="11.615352783433009" id="-27004">
		<tag k="name" v="Danseråsen" />
		<tag k="natural" v="hill" />
		<tag k="place" v="locality" />
		<tag k="ssr:stedsnr" v="902012" />
	</node>
	<node lat="59.5815722198791" lon="11.539227775515375" id="-27008">
		<tag k="name" v="Fjellfoten" />
		<tag k="natural" v="cliff" />
		<tag k="ssr:stedsnr" v="902209" />
	</node>
	<node lat="59.636672226393245" lon="11.70001111850081" id="-27018">
		<tag k="name" v="Søndre Åkevannstangen" />
		<tag k="natural" v="ridge" />
		<tag k="place" v="locality" />
		<tag k="ssr:stedsnr" v="902494" />
	</node>
	<node lat="59.471086108524965" lon="11.631638885652162" id="-27020">
		<tag k="name" v="Blenderingsåsen" />
		<tag k="natural" v="hill" />
		<tag k="place" v="locality" />
		<tag k="ssr:stedsnr" v="902716" />
	</node>
	<node lat="59.33375555601094" lon="11.814816665035684" id="-27036">
		<tag k="name" v="Kløvbergdalen" />
		<tag k="natural" v="valley" />
		<tag k="place" v="locality" />
		<tag k="ssr:stedsnr" v="961827" />
	</node>
	<node lat="59.486861113939355" lon="11.635305553153472" id="-27045">
		<tag k="fixme" v="consider natural=peak for the most distinct mountains in the district" />
		<tag k="name" v="Kolletjernhøgda" />
		<tag k="natural" v="hill" />
		<tag k="place" v="locality" />
		<tag k="ssr:stedsnr" v="962207" />
	</node>
	<node lat="59.64790555908563" lon="11.660852775177203" id="-27056">
		<tag k="fixme" v="consider natural=peak for the most distinct mountains in the district" />
		<tag k="name" v="Korpereiret" />
		<tag k="natural" v="hill" />
		<tag k="place" v="locality" />
		<tag k="ssr:stedsnr" v="962468" />
	</node>
	<node lat="59.54074722464015" lon="11.707649995248898" id="-27063">
		<tag k="name" v="Galtedalen" />
		<tag k="natural" v="valley" />
		<tag k="place" v="locality" />
		<tag k="ssr:stedsnr" v="962385" />
	</node>
	<node lat="59.480005559270154" lon="11.574494440846973" id="-27068">
		<tag k="name" v="Det runde berget" />
		<tag k="natural" v="hill" />
		<tag k="place" v="locality" />
		<tag k="ssr:stedsnr" v="962785" />
	</node>
	<node lat="59.472769442704966" lon="11.58061666454253" id="-27069">
		<tag k="name" v="Skumpehøgda" />
		<tag k="natural" v="ridge" />
		<tag k="place" v="locality" />
		<tag k="ssr:stedsnr" v="962788" />
	</node>
	<node lat="59.498174996605776" lon="11.558897213201696" id="-27074">
		<tag k="name" v="Lundseterdalen" />
		<tag k="natural" v="valley" />
		<tag k="place" v="locality" />
		<tag k="ssr:stedsnr" v="962884" />
	</node>
	<node lat="59.649547224292256" lon="11.602813896984644" id="-27080">
		<tag k="name" v="Mellemdalen" />
		<tag k="natural" v="valley" />
		<tag k="place" v="locality" />
		<tag k="ssr:stedsnr" v="963606" />
	</node>
	<node lat="59.41148611261116" lon="11.68230278209553" id="-27137">
		<tag k="fixme" v="consider natural=peak for the most distinct mountains in the district" />
		<tag k="name" v="Jervåsen" />
		<tag k="natural" v="hill" />
		<tag k="place" v="locality" />
		<tag k="ssr:stedsnr" v="3474" />
	</node>
	<node lat="59.52554444546059" lon="11.56047777386215" id="-27141">
		<tag k="fixme" v="consider natural=peak for the most distinct mountains in the district" />
		<tag k="name" v="Sagåsen" />
		<tag k="natural" v="hill" />
		<tag k="place" v="locality" />
		<tag k="ssr:stedsnr" v="3348" />
	</node>
	<node lat="59.35870555301002" lon="11.642338889848103" id="-27158">
		<tag k="fixme" v="consider natural=peak for the most distinct mountains in the district" />
		<tag k="name" v="Kjesåsen" />
		<tag k="natural" v="hill" />
		<tag k="place" v="locality" />
		<tag k="ssr:stedsnr" v="51345" />
	</node>
	<node lat="59.352094448207744" lon="11.79940832729636" id="-27165">
		<tag k="fixme" v="consider natural=peak for the most distinct mountains in the district" />
		<tag k="name" v="Foleåsene" />
		<tag k="natural" v="hill" />
		<tag k="place" v="locality" />
		<tag k="ssr:stedsnr" v="51829" />
	</node>
	<node lat="59.39101944542583" lon="11.645683339949233" id="-27170">
		<tag k="fixme" v="consider natural=peak for the most distinct mountains in the district" />
		<tag k="name" v="Duenesåsen" />
		<tag k="natural" v="hill" />
		<tag k="place" v="locality" />
		<tag k="ssr:stedsnr" v="51848" />
	</node>
	<node lat="59.57691666567904" lon="11.535069447975564" id="-27183">
		<tag k="fixme" v="consider natural=peak for the most distinct mountains in the district" />
		<tag k="name" v="Kvernhushøgda" />
		<tag k="natural" v="hill" />
		<tag k="place" v="locality" />
		<tag k="ssr:stedsnr" v="52217" />
	</node>
	<node lat="59.6663920262985" lon="11.634804372001772" id="-27187">
		<tag k="fixme" v="consider natural=peak for the most distinct mountains in the district" />
		<tag k="name" v="Vestre Risenhøgda" />
		<tag k="natural" v="hill" />
		<tag k="place" v="locality" />
		<tag k="ssr:stedsnr" v="52393" />
	</node>
	<node lat="59.62825277617449" lon="11.635188889978778" id="-27190">
		<tag k="name" v="Stuetjernhalla" />
		<tag k="natural" v="slope" />
		<tag k="place" v="locality" />
		<tag k="ssr:stedsnr" v="52480" />
	</node>
	<node lat="59.63149444185283" lon="11.637944435630283" id="-27191">
		<tag k="name" v="Krakkene" />
		<tag k="place" v="locality" />
		<tag k="ssr:stedsnr" v="52481" />
	</node>
	<node lat="59.5064416651071" lon="11.5925750067369" id="-27192">
		<tag k="fixme" v="consider natural=peak for the most distinct mountains in the district" />
		<tag k="name" v="Kisleberget" />
		<tag k="natural" v="hill" />
		<tag k="place" v="locality" />
		<tag k="ssr:stedsnr" v="52484" />
	</node>
	<node lat="59.602105556192065" lon="11.641666674807357" id="-27197">
		<tag k="name" v="Bjørndalen" />
		<tag k="natural" v="valley" />
		<tag k="place" v="locality" />
		<tag k="ssr:stedsnr" v="52265" />
	</node>
	<node lat="59.59595278167157" lon="11.657983336412697" id="-27198">
		<tag k="name" v="Seteråsen" />
		<tag k="natural" v="ridge" />
		<tag k="place" v="locality" />
		<tag k="ssr:stedsnr" v="52267" />
	</node>
	<node lat="59.52049722197025" lon="11.714105548718384" id="-27200">
		<tag k="fixme" v="consider natural=peak for the most distinct mountains in the district" />
		<tag k="name" v="Tiuråsen" />
		<tag k="natural" v="hill" />
		<tag k="place" v="locality" />
		<tag k="ssr:stedsnr" v="52336" />
	</node>
	<node lat="59.350302781878476" lon="11.63932777040917" id="-27201">
		<tag k="fixme" v="consider natural=peak for the most distinct mountains in the district" />
		<tag k="name" v="Ørnås" />
		<tag k="natural" v="hill" />
		<tag k="place" v="locality" />
		<tag k="ssr:stedsnr" v="52348" />
	</node>
	<node lat="59.62466388479596" lon="11.715469445117645" id="-27206">
		<tag k="name" v="Sandfallet" />
		<tag k="natural" v="ridge" />
		<tag k="place" v="locality" />
		<tag k="ssr:stedsnr" v="52533" />
	</node>
	<node lat="59.63172222175236" lon="11.658294444253333" id="-27218">
		<tag k="loc_name" v="Fluettjernshellene" />
		<tag k="name" v="Fluetjernshallene" />
		<tag k="natural" v="slope" />
		<tag k="place" v="locality" />
		<tag k="ssr:stedsnr" v="52498" />
	</node>
	<node lat="59.46854166410037" lon="11.58177776891101" id="-27221">
		<tag k="name" v="Svarttjerndråga" />
		<tag k="natural" v="cliff" />
		<tag k="ssr:stedsnr" v="52784" />
	</node>
	<node lat="59.49894721886054" lon="11.618699994890637" id="-27223">
		<tag k="fixme" v="consider natural=peak for the most distinct mountains in the district" />
		<tag k="name" v="Mikkelås" />
		<tag k="natural" v="hill" />
		<tag k="place" v="locality" />
		<tag k="ssr:stedsnr" v="52888" />
	</node>
	<node lat="59.49800555675802" lon="11.576199996978332" id="-27224">
		<tag k="fixme" v="consider natural=peak for the most distinct mountains in the district" />
		<tag k="name" v="Opptjernhøgda" />
		<tag k="natural" v="hill" />
		<tag k="place" v="locality" />
		<tag k="ssr:stedsnr" v="52891" />
	</node>
	<node lat="59.41039444772724" lon="11.599502785180949" id="-27234">
		<tag k="fixme" v="consider natural=peak for the most distinct mountains in the district" />
		<tag k="name" v="Killingtjernåsen" />
		<tag k="natural" v="hill" />
		<tag k="place" v="locality" />
		<tag k="ssr:stedsnr" v="53181" />
	</node>
	<node lat="59.48129166651468" lon="11.618727784514066" id="-27236">
		<tag k="fixme" v="consider natural=peak for the most distinct mountains in the district" />
		<tag k="name" v="Gjøvannshøgda" />
		<tag k="natural" v="hill" />
		<tag k="place" v="locality" />
		<tag k="ssr:stedsnr" v="53494" />
	</node>
	<node lat="59.33744722027492" lon="11.724386115180357" id="-27248">
		<tag k="alt_name" v="Bottenhøgda" />
		<tag k="fixme" v="consider natural=peak for the most distinct mountains in the district" />
		<tag k="name" v="Rødtjernhøgda" />
		<tag k="natural" v="hill" />
		<tag k="place" v="locality" />
		<tag k="ssr:stedsnr" v="64621" />
	</node>
	<node lat="59.59518888788227" lon="11.57619166774069" id="-27250">
		<tag k="fixme" v="consider natural=peak for the most distinct mountains in the district" />
		<tag k="name" v="Vardåsen" />
		<tag k="natural" v="hill" />
		<tag k="place" v="locality" />
		<tag k="ssr:stedsnr" v="65035" />
	</node>
	<node lat="59.62928889136108" lon="11.58632778174008" id="-27252">
		<tag k="fixme" v="consider natural=peak for the most distinct mountains in the district" />
		<tag k="name" v="Kråkehatt" />
		<tag k="natural" v="hill" />
		<tag k="place" v="locality" />
		<tag k="ssr:stedsnr" v="65275" />
	</node>
	<node lat="59.33714444824807" lon="11.811402784432575" id="-27263">
		<tag k="fixme" v="consider natural=peak for the most distinct mountains in the district" />
		<tag k="name" v="Grevlingåsen" />
		<tag k="natural" v="hill" />
		<tag k="place" v="locality" />
		<tag k="ssr:stedsnr" v="112800" />
	</node>
	<node lat="59.37902777752975" lon="11.603191667122585" id="-27265">
		<tag k="fixme" v="consider natural=peak for the most distinct mountains in the district" />
		<tag k="name" v="Lauåshøgda" />
		<tag k="natural" v="hill" />
		<tag k="place" v="locality" />
		<tag k="ssr:stedsnr" v="113080" />
	</node>
	<node lat="59.504213890284674" lon="11.708538887076593" id="-27271">
		<tag k="fixme" v="consider natural=peak for the most distinct mountains in the district" />
		<tag k="name" v="Skøllingsåsen" />
		<tag k="natural" v="hill" />
		<tag k="place" v="locality" />
		<tag k="ssr:stedsnr" v="112148" />
	</node>
	<node lat="59.604916668392505" lon="11.636800007473274" id="-27277">
		<tag k="name" v="Tangenåsen" />
		<tag k="natural" v="hill" />
		<tag k="place" v="locality" />
		<tag k="ssr:stedsnr" v="113658" />
	</node>
	<node lat="59.36434721978769" lon="11.700247216374093" id="-27279">
		<tag k="fixme" v="consider natural=peak for the most distinct mountains in the district" />
		<tag k="name" v="Styggemyråsen" />
		<tag k="natural" v="hill" />
		<tag k="place" v="locality" />
		<tag k="ssr:stedsnr" v="112344" />
	</node>
	<node lat="59.54178055290601" lon="11.598208341234349" id="-27286">
		<tag k="fixme" v="consider natural=peak for the most distinct mountains in the district" />
		<tag k="name" v="Vardeåsen" />
		<tag k="natural" v="hill" />
		<tag k="place" v="locality" />
		<tag k="ssr:stedsnr" v="112463" />
	</node>
	<node lat="59.410577779976165" lon="11.684027777516988" id="-27290">
		<tag k="name" v="Merradalen" />
		<tag k="natural" v="valley" />
		<tag k="place" v="locality" />
		<tag k="ssr:stedsnr" v="112590" />
	</node>
	<node lat="59.38425555253511" lon="11.631383329397554" id="-27292">
		<tag k="fixme" v="consider natural=peak for the most distinct mountains in the district" />
		<tag k="name" v="Holteåsen" />
		<tag k="natural" v="hill" />
		<tag k="place" v="locality" />
		<tag k="ssr:stedsnr" v="112827" />
	</node>
	<node lat="59.47506110997198" lon="11.591952786099474" id="-27294">
		<tag k="fixme" v="consider natural=peak for the most distinct mountains in the district" />
		<tag k="name" v="Nilsås" />
		<tag k="natural" v="hill" />
		<tag k="place" v="locality" />
		<tag k="ssr:stedsnr" v="112859" />
	</node>
	<node lat="59.35654166556955" lon="11.804033325275" id="-27295">
		<tag k="name" v="Passet" />
		<tag k="place" v="locality" />
		<tag k="ssr:stedsnr" v="112865" />
	</node>
	<node lat="59.361894447379115" lon="11.766280551193042" id="-27296">
		<tag k="name" v="Mårberget" />
		<tag k="natural" v="hill" />
		<tag k="place" v="locality" />
		<tag k="ssr:stedsnr" v="112951" />
	</node>
	<node lat="59.55173611093359" lon="11.592305550918905" id="-27299">
		<tag k="name" v="Nilsedalen" />
		<tag k="natural" v="valley" />
		<tag k="place" v="locality" />
		<tag k="ssr:stedsnr" v="113054" />
	</node>
	<node lat="59.550386113304675" lon="11.681558326282822" id="-27301">
		<tag k="name" v="Iseberget" />
		<tag k="natural" v="hill" />
		<tag k="place" v="locality" />
		<tag k="ssr:stedsnr" v="113378" />
	</node>
	<node lat="59.64537222326369" lon="11.67490277178542" id="-27309">
		<tag k="name" v="Perehalsen" />
		<tag k="natural" v="valley" />
		<tag k="place" v="locality" />
		<tag k="ssr:stedsnr" v="113450" />
	</node>
	<node lat="59.403922223550225" lon="11.60861110400097" id="-27313">
		<tag k="name" v="Østre Bastedalen" />
		<tag k="natural" v="valley" />
		<tag k="place" v="locality" />
		<tag k="ssr:stedsnr" v="113164" />
	</node>
	<node lat="59.34501944338602" lon="11.64518056322761" id="-27316">
		<tag k="fixme" v="consider natural=peak for the most distinct mountains in the district" />
		<tag k="name" v="Brattås" />
		<tag k="natural" v="hill" />
		<tag k="place" v="locality" />
		<tag k="ssr:stedsnr" v="113346" />
	</node>
	<node lat="59.35460555509893" lon="11.67026110906244" id="-27318">
		<tag k="name" v="Sandrevet" />
		<tag k="place" v="locality" />
		<tag k="ssr:stedsnr" v="113350" />
	</node>
	<node lat="59.46171111095455" lon="11.651013896980908" id="-27320">
		<tag k="name" v="Lihammeren" />
		<tag k="place" v="locality" />
		<tag k="ssr:stedsnr" v="113474" />
	</node>
	<node lat="59.61895555695545" lon="11.680747213981867" id="-27321">
		<tag k="name" v="Klomma" />
		<tag k="natural" v="valley" />
		<tag k="place" v="locality" />
		<tag k="ssr:stedsnr" v="113481" />
	</node>
	<node lat="59.401244440235715" lon="11.613213888102507" id="-27341">
		<tag k="alt_name" v="Grimsfjell" />
		<tag k="fixme" v="consider natural=peak for the most distinct mountains in the district" />
		<tag k="name" v="Grimsfjellet" />
		<tag k="natural" v="hill" />
		<tag k="place" v="locality" />
		<tag k="ssr:stedsnr" v="124489" />
	</node>
	<node lat="59.345719447142265" lon="11.797386106329046" id="-27352">
		<tag k="alt_name" v="Kisselbergdalen" />
		<tag k="name" v="Kiselbergdalen" />
		<tag k="natural" v="valley" />
		<tag k="place" v="locality" />
		<tag k="ssr:stedsnr" v="124677" />
	</node>
	<node lat="59.54582580556568" lon="11.541150699733352" id="-27355">
		<tag k="name" v="Trollberg" />
		<tag k="natural" v="hill" />
		<tag k="place" v="locality" />
		<tag k="ssr:stedsnr" v="172391" />
	</node>
	<node lat="59.34184999807189" lon="11.714077771474207" id="-27357">
		<tag k="fixme" v="consider natural=peak for the most distinct mountains in the district" />
		<tag k="name" v="Kjøttåsene" />
		<tag k="natural" v="hill" />
		<tag k="place" v="locality" />
		<tag k="ssr:stedsnr" v="172340" />
	</node>
	<node lat="59.347788891364004" lon="11.806144445942552" id="-27362">
		<tag k="fixme" v="consider natural=peak for the most distinct mountains in the district" />
		<tag k="name" v="Kiselberghøgda" />
		<tag k="natural" v="hill" />
		<tag k="place" v="locality" />
		<tag k="ssr:stedsnr" v="173786" />
	</node>
	<node lat="59.3533972208048" lon="11.59676110634057" id="-27370">
		<tag k="fixme" v="consider natural=peak for the most distinct mountains in the district" />
		<tag k="name" v="Seteråsen" />
		<tag k="natural" v="hill" />
		<tag k="place" v="locality" />
		<tag k="ssr:stedsnr" v="173099" />
	</node>
	<node lat="59.58461389190387" lon="11.535666660210365" id="-27371">
		<tag k="fixme" v="consider natural=peak for the most distinct mountains in the district" />
		<tag k="name" v="Vindåsen" />
		<tag k="natural" v="hill" />
		<tag k="place" v="locality" />
		<tag k="ssr:stedsnr" v="173182" />
	</node>
	<node lat="59.53752777923331" lon="11.672469451629677" id="-27378">
		<tag k="name" v="Tertittåsen" />
		<tag k="natural" v="hill" />
		<tag k="place" v="locality" />
		<tag k="ssr:stedsnr" v="173397" />
	</node>
	<node lat="59.40761110698598" lon="11.62845554714162" id="-27398">
		<tag k="fixme" v="consider natural=peak for the most distinct mountains in the district" />
		<tag k="name" v="Skautjernhøgda" />
		<tag k="natural" v="hill" />
		<tag k="place" v="locality" />
		<tag k="ssr:stedsnr" v="173549" />
	</node>
	<node lat="59.36363888937924" lon="11.778902778007147" id="-27406">
		<tag k="fixme" v="consider natural=peak for the most distinct mountains in the district" />
		<tag k="name" v="Fugleåsen" />
		<tag k="natural" v="hill" />
		<tag k="place" v="locality" />
		<tag k="ssr:stedsnr" v="173948" />
	</node>
	<node lat="59.354927782135064" lon="11.794222225851692" id="-27415">
		<tag k="name" v="Kistedalen" />
		<tag k="natural" v="valley" />
		<tag k="place" v="locality" />
		<tag k="ssr:stedsnr" v="173879" />
	</node>
	<node lat="59.410861107466836" lon="11.611594450211514" id="-27422">
		<tag k="fixme" v="consider natural=peak for the most distinct mountains in the district" />
		<tag k="name" v="Hagatjernhøgda" />
		<tag k="natural" v="hill" />
		<tag k="place" v="locality" />
		<tag k="ssr:stedsnr" v="174190" />
	</node>
	<node lat="59.404905554793885" lon="11.611152785021693" id="-27423">
		<tag k="fixme" v="consider natural=peak for the most distinct mountains in the district" />
		<tag k="name" v="Svarttjernhøgda" />
		<tag k="natural" v="hill" />
		<tag k="place" v="locality" />
		<tag k="ssr:stedsnr" v="174197" />
	</node>
	<node lat="59.642058331853455" lon="11.666066671155392" id="-27425">
		<tag k="name" v="Vakthyttmotangen" />
		<tag k="natural" v="ridge" />
		<tag k="place" v="locality" />
		<tag k="ssr:stedsnr" v="174539" />
	</node>
	<node lat="59.668327781771055" lon="11.62874443717719" id="-27428">
		<tag k="name" v="Gunnarsdalen" />
		<tag k="natural" v="valley" />
		<tag k="place" v="locality" />
		<tag k="ssr:stedsnr" v="174590" />
	</node>
	<node lat="59.48128611393777" lon="11.643594436307604" id="-27430">
		<tag k="name" v="Lille Utkikstårn" />
		<tag k="natural" v="hill" />
		<tag k="place" v="locality" />
		<tag k="ssr:stedsnr" v="174781" />
	</node>
	<node lat="59.45858888531472" lon="11.71812222557254" id="-27438">
		<tag k="alt_name" v="Kleivtjernåsen" />
		<tag k="fixme" v="consider natural=peak for the most distinct mountains in the district" />
		<tag k="name" v="Klevtjernåsen" />
		<tag k="natural" v="hill" />
		<tag k="place" v="locality" />
		<tag k="ssr:stedsnr" v="184601" />
	</node>
	<node lat="59.571069448414384" lon="11.550316664192442" id="-27441">
		<tag k="fixme" v="consider natural=peak for the most distinct mountains in the district" />
		<tag k="name" v="Vikebyhøgda" />
		<tag k="natural" v="hill" />
		<tag k="place" v="locality" />
		<tag k="ssr:stedsnr" v="185452" />
	</node>
	<node lat="59.50911110856967" lon="11.539311113801006" id="-27450">
		<tag k="name" v="Svarteberget" />
		<tag k="natural" v="hill" />
		<tag k="place" v="locality" />
		<tag k="ssr:stedsnr" v="186406" />
	</node>
	<node lat="59.43502499963042" lon="11.636013897659565" id="-27455">
		<tag k="fixme" v="consider natural=peak for the most distinct mountains in the district" />
		<tag k="name" v="Elgåsen" />
		<tag k="natural" v="hill" />
		<tag k="place" v="locality" />
		<tag k="ssr:stedsnr" v="191780" />
	</node>
	<node lat="59.429558329846564" lon="11.653119450082013" id="-27466">
		<tag k="name" v="Korpeberget" />
		<tag k="natural" v="cliff" />
		<tag k="ssr:stedsnr" v="294652" />
	</node>
	<node lat="59.374416664165835" lon="11.690922214698643" id="-27468">
		<tag k="fixme" v="consider natural=peak for the most distinct mountains in the district" />
		<tag k="name" v="Brattåsen" />
		<tag k="natural" v="hill" />
		<tag k="place" v="locality" />
		<tag k="ssr:stedsnr" v="294295" />
	</node>
	<node lat="59.357094444625126" lon="11.7924805547912" id="-27479">
		<tag k="name" v="Orreberget" />
		<tag k="natural" v="hill" />
		<tag k="place" v="locality" />
		<tag k="ssr:stedsnr" v="294883" />
	</node>
	<node lat="59.50611111442908" lon="11.599724995233586" id="-27480">
		<tag k="name" v="Tybastdalen" />
		<tag k="natural" v="valley" />
		<tag k="place" v="locality" />
		<tag k="ssr:stedsnr" v="294898" />
	</node>
	<node lat="59.43027778180837" lon="11.757983337158803" id="-27485">
		<tag k="fixme" v="consider natural=peak for the most distinct mountains in the district" />
		<tag k="name" v="Fjellingåsen" />
		<tag k="natural" v="hill" />
		<tag k="place" v="locality" />
		<tag k="ssr:stedsnr" v="294923" />
	</node>
	<node lat="59.514372219570404" lon="11.676433335063459" id="-27493">
		<tag k="fixme" v="consider natural=peak for the most distinct mountains in the district" />
		<tag k="name" v="Brattås" />
		<tag k="natural" v="hill" />
		<tag k="place" v="locality" />
		<tag k="ssr:stedsnr" v="295360" />
	</node>
	<node lat="59.59188889171595" lon="11.630019450893052" id="-27499">
		<tag k="fixme" v="consider natural=peak for the most distinct mountains in the district" />
		<tag k="name" v="Hehøgda" />
		<tag k="natural" v="hill" />
		<tag k="place" v="locality" />
		<tag k="ssr:stedsnr" v="295446" />
	</node>
	<node lat="59.482330555329064" lon="11.647102782053565" id="-27523">
		<tag k="name" v="Åsekleva" />
		<tag k="natural" v="cliff" />
		<tag k="ssr:stedsnr" v="295763" />
	</node>
	<node lat="59.373163892608765" lon="11.666597222882704" id="-27527">
		<tag k="name" v="Monsåsen" />
		<tag k="natural" v="hill" />
		<tag k="place" v="locality" />
		<tag k="ssr:stedsnr" v="306665" />
	</node>
	<node lat="59.43364722033664" lon="11.637513880538519" id="-27545">
		<tag k="name" v="Ekedalen" />
		<tag k="natural" v="valley" />
		<tag k="place" v="locality" />
		<tag k="ssr:stedsnr" v="354645" />
	</node>
	<node lat="59.4623833289657" lon="11.585597219515636" id="-27552">
		<tag k="fixme" v="consider natural=peak for the most distinct mountains in the district" />
		<tag k="name" v="Elgåsen" />
		<tag k="natural" v="hill" />
		<tag k="place" v="locality" />
		<tag k="ssr:stedsnr" v="354863" />
	</node>
	<node lat="59.351947218408654" lon="11.630905551852885" id="-27565">
		<tag k="name" v="Tyvehula" />
		<tag k="natural" v="cave_entrance" />
		<tag k="ssr:stedsnr" v="355360" />
	</node>
	<node lat="59.54774166493988" lon="11.661544446117377" id="-27567">
		<tag k="name" v="Hienåsen" />
		<tag k="natural" v="hill" />
		<tag k="place" v="locality" />
		<tag k="ssr:stedsnr" v="355363" />
	</node>
	<node lat="59.537683333825136" lon="11.687641673819265" id="-27568">
		<tag k="name" v="Ulvåsen" />
		<tag k="natural" v="hill" />
		<tag k="place" v="locality" />
		<tag k="ssr:stedsnr" v="355368" />
	</node>
	<node lat="59.65707500327104" lon="11.623994436681333" id="-27569">
		<tag k="name" v="Syltemyrdalen" />
		<tag k="natural" v="valley" />
		<tag k="place" v="locality" />
		<tag k="ssr:stedsnr" v="355389" />
	</node>
	<node lat="59.59995278050071" lon="11.689086118632734" id="-27579">
		<tag k="name" v="Lange berga" />
		<tag k="natural" v="ridge" />
		<tag k="place" v="locality" />
		<tag k="ssr:stedsnr" v="355657" />
	</node>
	<node lat="59.44669444142086" lon="11.65248611398165" id="-27584">
		<tag k="fixme" v="consider natural=peak for the most distinct mountains in the district" />
		<tag k="name" v="Kalvåsen" />
		<tag k="natural" v="hill" />
		<tag k="place" v="locality" />
		<tag k="ssr:stedsnr" v="355479" />
	</node>
	<node lat="59.49888610865531" lon="11.581550003960107" id="-27605">
		<tag k="fixme" v="consider natural=peak for the most distinct mountains in the district" />
		<tag k="name" v="Den brente åsen" />
		<tag k="natural" v="hill" />
		<tag k="place" v="locality" />
		<tag k="ssr:stedsnr" v="355876" />
	</node>
	<node lat="59.3681333365819" lon="11.591216670627851" id="-27609">
		<tag k="fixme" v="consider natural=peak for the most distinct mountains in the district" />
		<tag k="name" v="Smaledalshøgda" />
		<tag k="natural" v="hill" />
		<tag k="place" v="locality" />
		<tag k="ssr:stedsnr" v="356074" />
	</node>
	<node lat="59.514200000539795" lon="11.559952779747263" id="-27611">
		<tag k="fixme" v="consider natural=peak for the most distinct mountains in the district" />
		<tag k="name" v="Kaståsen" />
		<tag k="natural" v="hill" />
		<tag k="place" v="locality" />
		<tag k="ssr:stedsnr" v="356309" />
	</node>
	<node lat="59.35051388655701" lon="11.688908330283386" id="-27613">
		<tag k="fixme" v="consider natural=peak for the most distinct mountains in the district" />
		<tag k="name" v="Stokkåsen" />
		<tag k="natural" v="hill" />
		<tag k="place" v="locality" />
		<tag k="ssr:stedsnr" v="356357" />
	</node>
	<node lat="59.507677779760066" lon="11.690027770977064" id="-27617">
		<tag k="fixme" v="consider natural=peak for the most distinct mountains in the district" />
		<tag k="name" v="Kisleberget" />
		<tag k="natural" v="hill" />
		<tag k="place" v="locality" />
		<tag k="ssr:stedsnr" v="356344" />
	</node>
	<node lat="59.483691663844866" lon="11.551019445805554" id="-27624">
		<tag k="alt_name" v="Nordre Stangevarde;Stange varde" />
		<tag k="fixme" v="consider natural=peak for the most distinct mountains in the district" />
		<tag k="name" v="Nordre Stange varde" />
		<tag k="natural" v="hill" />
		<tag k="place" v="locality" />
		<tag k="ssr:stedsnr" v="366600" />
	</node>
	<node lat="59.65017222624538" lon="11.594769450101543" id="-27626">
		<tag k="alt_name" v="Kluftefjell" />
		<tag k="fixme" v="consider natural=peak for the most distinct mountains in the district" />
		<tag k="loc_name" v="Kløftefjellene" />
		<tag k="name" v="Kløftefjella" />
		<tag k="natural" v="hill" />
		<tag k="place" v="locality" />
		<tag k="ssr:stedsnr" v="367196" />
	</node>
	<node lat="59.588441669585" lon="11.666816670304454" id="-27630">
		<tag k="alt_name" v="Hønnås" />
		<tag k="fixme" v="consider natural=peak for the most distinct mountains in the district" />
		<tag k="name" v="Hornåsen" />
		<tag k="natural" v="hill" />
		<tag k="place" v="locality" />
		<tag k="ssr:stedsnr" v="368466" />
	</node>
	<node lat="59.59630277717307" lon="11.652461115662273" id="-27631">
		<tag k="alt_name" v="Tuterhøgda" />
		<tag k="name" v="Tutarhøgda" />
		<tag k="natural" v="hill" />
		<tag k="place" v="locality" />
		<tag k="ssr:stedsnr" v="368474" />
	</node>
	<node lat="59.602094444791376" lon="11.683691668786809" id="-27635">
		<tag k="name" v="Lauvhøgda" />
		<tag k="natural" v="hill" />
		<tag k="place" v="locality" />
		<tag k="ssr:stedsnr" v="368493" />
	</node>
	<node lat="59.36317221978508" lon="11.660411103203597" id="-27645">
		<tag k="name" v="Kjerringdroga" />
		<tag k="natural" v="valley" />
		<tag k="place" v="locality" />
		<tag k="ssr:stedsnr" v="415316" />
	</node>
	<node lat="59.355147222509586" lon="11.663125000267694" id="-27646">
		<tag k="name" v="Jakobsfurua" />
		<tag k="place" v="locality" />
		<tag k="ssr:stedsnr" v="415327" />
	</node>
	<node lat="59.423186113741515" lon="11.660236114701153" id="-27652">
		<tag k="name" v="Folungberget" />
		<tag k="natural" v="hill" />
		<tag k="place" v="locality" />
		<tag k="ssr:stedsnr" v="415674" />
	</node>
	<node lat="59.36386111078307" lon="11.788636119577891" id="-27653">
		<tag k="fixme" v="consider natural=peak for the most distinct mountains in the district" />
		<tag k="name" v="Linehøgda" />
		<tag k="natural" v="hill" />
		<tag k="place" v="locality" />
		<tag k="ssr:stedsnr" v="415911" />
	</node>
	<node lat="59.48564722225818" lon="11.642027781063321" id="-27661">
		<tag k="name" v="Ørjeberga" />
		<tag k="natural" v="slope" />
		<tag k="place" v="locality" />
		<tag k="ssr:stedsnr" v="416223" />
	</node>
	<node lat="59.59821666439948" lon="11.528130548456607" id="-27668">
		<tag k="fixme" v="consider natural=peak for the most distinct mountains in the district" />
		<tag k="name" v="Ulfsbyåsen" />
		<tag k="natural" v="hill" />
		<tag k="place" v="locality" />
		<tag k="ssr:stedsnr" v="416466" />
	</node>
	<node lat="59.49823055775759" lon="11.676691674719153" id="-27678">
		<tag k="name" v="Garverihaugen" />
		<tag k="natural" v="hill" />
		<tag k="place" v="locality" />
		<tag k="ssr:stedsnr" v="416182" />
	</node>
	<node lat="59.58728055737911" lon="11.550605559558718" id="-27679">
		<tag k="name" v="Toståsen" />
		<tag k="natural" v="hill" />
		<tag k="place" v="locality" />
		<tag k="ssr:stedsnr" v="416183" />
	</node>
	<node lat="59.59771944816612" lon="11.680152781299551" id="-27680">
		<tag k="fixme" v="consider natural=peak for the most distinct mountains in the district" />
		<tag k="name" v="Ulvvannshøgda" />
		<tag k="natural" v="hill" />
		<tag k="place" v="locality" />
		<tag k="ssr:stedsnr" v="416252" />
	</node>
	<node lat="59.54071944081319" lon="11.702905551482282" id="-27685">
		<tag k="name" v="Krokvannsdalen" />
		<tag k="natural" v="valley" />
		<tag k="place" v="locality" />
		<tag k="ssr:stedsnr" v="416365" />
	</node>
	<node lat="59.35509166988993" lon="11.620275004099044" id="-27687">
		<tag k="name" v="Lagmannsdroga" />
		<tag k="natural" v="valley" />
		<tag k="place" v="locality" />
		<tag k="ssr:stedsnr" v="416381" />
	</node>
	<node lat="59.59206111115463" lon="11.674386115865264" id="-27691">
		<tag k="name" v="Lønjedalshøgda" />
		<tag k="natural" v="hill" />
		<tag k="place" v="locality" />
		<tag k="ssr:stedsnr" v="416400" />
	</node>
	<node lat="59.628225001734684" lon="11.709744444021165" id="-27696">
		<tag k="name" v="Plankedråga" />
		<tag k="place" v="locality" />
		<tag k="ssr:stedsnr" v="416527" />
	</node>
	<node lat="59.48366388761679" lon="11.566311117394749" id="-27705">
		<tag k="fixme" v="consider natural=peak for the most distinct mountains in the district" />
		<tag k="name" v="Burumtjernkula" />
		<tag k="natural" v="hill" />
		<tag k="place" v="locality" />
		<tag k="ssr:stedsnr" v="416768" />
	</node>
	<node lat="59.59754166714351" lon="11.573041670867239" id="-27708">
		<tag k="fixme" v="consider natural=peak for the most distinct mountains in the district" />
		<tag k="name" v="Vittenbergåsen" />
		<tag k="natural" v="hill" />
		<tag k="place" v="locality" />
		<tag k="ssr:stedsnr" v="416883" />
	</node>
	<node lat="59.50989166832503" lon="11.547252777422493" id="-27717">
		<tag k="fixme" v="consider natural=peak for the most distinct mountains in the district" />
		<tag k="name" v="Seterhøgda" />
		<tag k="natural" v="hill" />
		<tag k="place" v="locality" />
		<tag k="ssr:stedsnr" v="416934" />
	</node>
	<node lat="59.525055556215584" lon="11.674238881069778" id="-27722">
		<tag k="fixme" v="consider natural=peak for the most distinct mountains in the district" />
		<tag k="name" v="Bjørnhyttåsen" />
		<tag k="natural" v="hill" />
		<tag k="place" v="locality" />
		<tag k="ssr:stedsnr" v="417379" />
	</node>
	<node lat="59.51509721931716" lon="11.723538881081774" id="-27733">
		<tag k="fixme" v="consider natural=peak for the most distinct mountains in the district" />
		<tag k="name" v="Tiurhøgda" />
		<tag k="natural" v="hill" />
		<tag k="place" v="locality" />
		<tag k="ssr:stedsnr" v="429365" />
	</node>
	<node lat="59.451902816528836" lon="11.637496126638434" id="-27740">
		<tag k="name" v="Voll" />
		<tag k="place" v="locality" />
		<tag k="ssr:stedsnr" v="537496" />
	</node>
	<node lat="59.646950001057334" lon="11.585611108557432" id="-27755">
		<tag k="name" v="Olasdalen" />
		<tag k="natural" v="valley" />
		<tag k="place" v="locality" />
		<tag k="ssr:stedsnr" v="537081" />
	</node>
	<node lat="59.329488888693206" lon="11.604358327397517" id="-27756">
		<tag k="name" v="Ørnedalen" />
		<tag k="natural" v="valley" />
		<tag k="place" v="locality" />
		<tag k="ssr:stedsnr" v="537099" />
	</node>
	<node lat="59.438313886735074" lon="11.58749721479701" id="-27758">
		<tag k="name" v="Kråkulldalen" />
		<tag k="natural" v="valley" />
		<tag k="place" v="locality" />
		<tag k="ssr:stedsnr" v="537198" />
	</node>
	<node lat="59.42026111127923" lon="11.649427775846819" id="-27764">
		<tag k="fixme" v="consider natural=peak for the most distinct mountains in the district" />
		<tag k="name" v="Bernhusåsen" />
		<tag k="natural" v="hill" />
		<tag k="place" v="locality" />
		<tag k="ssr:stedsnr" v="537524" />
	</node>
	<node lat="59.59006388437669" lon="11.53396667123562" id="-27766">
		<tag k="fixme" v="consider natural=peak for the most distinct mountains in the district" />
		<tag k="name" v="Seteråsen" />
		<tag k="natural" v="hill" />
		<tag k="place" v="locality" />
		<tag k="ssr:stedsnr" v="537161" />
	</node>
	<node lat="59.446461111521664" lon="11.597947223524974" id="-27786">
		<tag k="fixme" v="consider natural=peak for the most distinct mountains in the district" />
		<tag k="name" v="Ulvedalshøgda" />
		<tag k="natural" v="hill" />
		<tag k="place" v="locality" />
		<tag k="ssr:stedsnr" v="537796" />
	</node>
	<node lat="59.36088055908334" lon="11.76452778237066" id="-27787">
		<tag k="fixme" v="consider natural=peak for the most distinct mountains in the district" />
		<tag k="name" v="Kjenslihøgda" />
		<tag k="natural" v="hill" />
		<tag k="place" v="locality" />
		<tag k="ssr:stedsnr" v="537797" />
	</node>
	<node lat="59.39484444624635" lon="11.607963884960007" id="-27789">
		<tag k="name" v="Trolldalen" />
		<tag k="natural" v="valley" />
		<tag k="place" v="locality" />
		<tag k="ssr:stedsnr" v="538182" />
	</node>
	<node lat="59.58853055778224" lon="11.62417778680333" id="-27813">
		<tag k="name" v="Bjørndalen" />
		<tag k="natural" v="valley" />
		<tag k="place" v="locality" />
		<tag k="ssr:stedsnr" v="538755" />
	</node>
	<node lat="59.33553889224607" lon="11.618555556056567" id="-27824">
		<tag k="alt_name" v="Lindalåsen" />
		<tag k="fixme" v="consider natural=peak for the most distinct mountains in the district" />
		<tag k="name" v="Lindalsåsen" />
		<tag k="natural" v="hill" />
		<tag k="place" v="locality" />
		<tag k="ssr:stedsnr" v="549726" />
	</node>
	<node lat="59.47599999584738" lon="11.730188883894733" id="-27835">
		<tag k="name" v="Håbytangen" />
		<tag k="natural" v="hill" />
		<tag k="place" v="locality" />
		<tag k="ssr:stedsnr" v="597029" />
	</node>
	<node lat="59.40642778012907" lon="11.660244446705295" id="-27844">
		<tag k="name" v="Kirkehaugen" />
		<tag k="natural" v="hill" />
		<tag k="place" v="locality" />
		<tag k="ssr:stedsnr" v="597556" />
	</node>
	<node lat="59.40525555854543" lon="11.636166658803077" id="-27845">
		<tag k="fixme" v="consider natural=peak for the most distinct mountains in the district" />
		<tag k="name" v="Røsåsen" />
		<tag k="natural" v="hill" />
		<tag k="place" v="locality" />
		<tag k="ssr:stedsnr" v="597558" />
	</node>
	<node lat="59.454627781572555" lon="11.59621111993631" id="-27852">
		<tag k="fixme" v="consider natural=peak for the most distinct mountains in the district" />
		<tag k="name" v="Mellemhøgda" />
		<tag k="natural" v="hill" />
		<tag k="place" v="locality" />
		<tag k="ssr:stedsnr" v="597779" />
	</node>
	<node lat="59.491280552279704" lon="11.633599991418745" id="-27871">
		<tag k="name" v="Revjatranga" />
		<tag k="natural" v="valley" />
		<tag k="place" v="locality" />
		<tag k="ssr:stedsnr" v="598216" />
	</node>
	<node lat="59.51389999653444" lon="11.583847218932823" id="-27875">
		<tag k="fixme" v="consider natural=peak for the most distinct mountains in the district" />
		<tag k="name" v="Englandsåsen" />
		<tag k="natural" v="hill" />
		<tag k="place" v="locality" />
		<tag k="ssr:stedsnr" v="597984" />
	</node>
	<node lat="59.344502779296405" lon="11.635183331914154" id="-27889">
		<tag k="fixme" v="consider natural=peak for the most distinct mountains in the district" />
		<tag k="name" v="Gjeteberga" />
		<tag k="natural" v="hill" />
		<tag k="place" v="locality" />
		<tag k="ssr:stedsnr" v="598338" />
	</node>
	<node lat="59.33682221976974" lon="11.629277769124247" id="-27891">
		<tag k="fixme" v="consider natural=peak for the most distinct mountains in the district" />
		<tag k="name" v="Sootåsen" />
		<tag k="natural" v="hill" />
		<tag k="place" v="locality" />
		<tag k="ssr:stedsnr" v="598346" />
	</node>
	<node lat="59.340494448392555" lon="11.637036106648756" id="-27892">
		<tag k="fixme" v="consider natural=peak for the most distinct mountains in the district" />
		<tag k="name" v="Korpås" />
		<tag k="natural" v="hill" />
		<tag k="place" v="locality" />
		<tag k="ssr:stedsnr" v="598348" />
	</node>
	<node lat="59.55346111120062" lon="11.661624995738581" id="-27897">
		<tag k="fixme" v="consider natural=peak for the most distinct mountains in the district" />
		<tag k="name" v="Nautmosehøgda" />
		<tag k="natural" v="hill" />
		<tag k="place" v="locality" />
		<tag k="ssr:stedsnr" v="598386" />
	</node>
	<node lat="59.41224166819568" lon="11.73666944246798" id="-27920">
		<tag k="name" v="Buret" />
		<tag k="place" v="locality" />
		<tag k="ssr:stedsnr" v="610562" />
	</node>
	<node lat="59.480986107875616" lon="11.72034721752705" id="-27928">
		<tag k="name" v="Brutjernstangene" />
		<tag k="natural" v="hill" />
		<tag k="place" v="locality" />
		<tag k="ssr:stedsnr" v="658023" />
	</node>
	<node lat="59.66012777866422" lon="11.616508338530574" id="-27937">
		<tag k="name" v="Hestetjernsdalen" />
		<tag k="natural" v="valley" />
		<tag k="place" v="locality" />
		<tag k="ssr:stedsnr" v="658429" />
	</node>
	<node lat="59.452013889173664" lon="11.644519448283964" id="-27939">
		<tag k="name" v="Pengehaugen" />
		<tag k="natural" v="hill" />
		<tag k="place" v="locality" />
		<tag k="ssr:stedsnr" v="658513" />
	</node>
	<node lat="59.41969722478162" lon="11.633800006031096" id="-27949">
		<tag k="fixme" v="consider natural=peak for the most distinct mountains in the district" />
		<tag k="name" v="Pengeberget" />
		<tag k="natural" v="hill" />
		<tag k="place" v="locality" />
		<tag k="ssr:stedsnr" v="658550" />
	</node>
	<node lat="59.467855554069985" lon="11.613113881649106" id="-27956">
		<tag k="fixme" v="consider natural=peak for the most distinct mountains in the district" />
		<tag k="name" v="Mellemvadhøgda" />
		<tag k="natural" v="hill" />
		<tag k="place" v="locality" />
		<tag k="ssr:stedsnr" v="658828" />
	</node>
	<node lat="59.363694443196806" lon="11.794783331588482" id="-27962">
		<tag k="name" v="Aspelia" />
		<tag k="natural" v="slope" />
		<tag k="place" v="locality" />
		<tag k="ssr:stedsnr" v="658863" />
	</node>
	<node lat="59.33930555365447" lon="11.69431665868501" id="-27973">
		<tag k="fixme" v="consider natural=peak for the most distinct mountains in the district" />
		<tag k="name" v="Kutjernåsen" />
		<tag k="natural" v="hill" />
		<tag k="place" v="locality" />
		<tag k="ssr:stedsnr" v="659362" />
	</node>
	<node lat="59.62412777815031" lon="11.637099991998255" id="-27986">
		<tag k="name" v="Revehiåsen" />
		<tag k="natural" v="hill" />
		<tag k="place" v="locality" />
		<tag k="ssr:stedsnr" v="659528" />
	</node>
	<node lat="59.49326666699485" lon="11.744888885020497" id="-27987">
		<tag k="fixme" v="consider natural=peak for the most distinct mountains in the district" />
		<tag k="name" v="Håfjellet" />
		<tag k="natural" v="hill" />
		<tag k="place" v="locality" />
		<tag k="ssr:stedsnr" v="659952" />
	</node>
	<node lat="59.435477779876116" lon="11.597336111592742" id="-28013">
		<tag k="fixme" v="consider natural=peak for the most distinct mountains in the district" />
		<tag k="name" v="Høye kolle" />
		<tag k="natural" v="hill" />
		<tag k="place" v="locality" />
		<tag k="ssr:stedsnr" v="719198" />
	</node>
	<node lat="59.49638611173758" lon="11.733675001904396" id="-28021">
		<tag k="name" v="Kistedalen" />
		<tag k="natural" v="valley" />
		<tag k="place" v="locality" />
		<tag k="ssr:stedsnr" v="719245" />
	</node>
	<node lat="59.41277777907559" lon="11.630794437736707" id="-28027">
		<tag k="fixme" v="consider natural=peak for the most distinct mountains in the district" />
		<tag k="name" v="Langemyrhøgda" />
		<tag k="natural" v="hill" />
		<tag k="place" v="locality" />
		<tag k="ssr:stedsnr" v="719498" />
	</node>
	<node lat="59.53061389167306" lon="11.534063883029903" id="-28036">
		<tag k="name" v="Høgrøs" />
		<tag k="natural" v="ridge" />
		<tag k="place" v="locality" />
		<tag k="ssr:stedsnr" v="719550" />
	</node>
	<node lat="59.60733611544643" lon="11.637983337221122" id="-28037">
		<tag k="fixme" v="consider natural=peak for the most distinct mountains in the district" />
		<tag k="name" v="Bråtenåsen" />
		<tag k="natural" v="hill" />
		<tag k="place" v="locality" />
		<tag k="ssr:stedsnr" v="719611" />
	</node>
	<node lat="59.505111115144686" lon="11.601608340261567" id="-28040">
		<tag k="fixme" v="consider natural=peak for the most distinct mountains in the district" />
		<tag k="name" v="Brattfjell" />
		<tag k="natural" v="hill" />
		<tag k="place" v="locality" />
		<tag k="ssr:stedsnr" v="719856" />
	</node>
	<node lat="59.607658331660225" lon="11.65351943755022" id="-28044">
		<tag k="name" v="Breie dråga" />
		<tag k="natural" v="valley" />
		<tag k="place" v="locality" />
		<tag k="ssr:stedsnr" v="719627" />
	</node>
	<node lat="59.60308055573006" lon="11.66129443840038" id="-28046">
		<tag k="fixme" v="consider natural=peak for the most distinct mountains in the district" />
		<tag k="name" v="Storåsen" />
		<tag k="natural" v="hill" />
		<tag k="place" v="locality" />
		<tag k="ssr:stedsnr" v="719643" />
	</node>
	<node lat="59.464611109728324" lon="11.754055549952607" id="-28056">
		<tag k="fixme" v="consider natural=peak for the most distinct mountains in the district" />
		<tag k="name" v="Grytehøgda" />
		<tag k="natural" v="hill" />
		<tag k="place" v="locality" />
		<tag k="ssr:stedsnr" v="719886" />
	</node>
	<node lat="59.52238333380346" lon="11.579227781866269" id="-28059">
		<tag k="name" v="Bastardråga" />
		<tag k="natural" v="cliff" />
		<tag k="ssr:stedsnr" v="719970" />
	</node>
	<node lat="59.361727782318816" lon="11.781666665160351" id="-28060">
		<tag k="name" v="Mellemåsen" />
		<tag k="natural" v="hill" />
		<tag k="place" v="locality" />
		<tag k="ssr:stedsnr" v="719982" />
	</node>
	<node lat="59.524994448679564" lon="11.535200002578009" id="-28061">
		<tag k="name" v="Tjuvgodsdalen" />
		<tag k="natural" v="valley" />
		<tag k="place" v="locality" />
		<tag k="ssr:stedsnr" v="719944" />
	</node>
	<node lat="59.35746111391229" lon="11.61630555913193" id="-28064">
		<tag k="fixme" v="consider natural=peak for the most distinct mountains in the district" />
		<tag k="name" v="Lystjernhøgda" />
		<tag k="natural" v="hill" />
		<tag k="place" v="locality" />
		<tag k="ssr:stedsnr" v="720081" />
	</node>
	<node lat="59.35832777728246" lon="11.590555562975391" id="-28065">
		<tag k="name" v="Bukkedroga" />
		<tag k="natural" v="valley" />
		<tag k="place" v="locality" />
		<tag k="ssr:stedsnr" v="720083" />
	</node>
	<node lat="59.56270000365975" lon="11.652705560023682" id="-28077">
		<tag k="name" v="Tretteråsen" />
		<tag k="natural" v="hill" />
		<tag k="place" v="locality" />
		<tag k="ssr:stedsnr" v="720396" />
	</node>
	<node lat="59.594955558336906" lon="11.544933339833259" id="-28084">
		<tag k="fixme" v="consider natural=peak for the most distinct mountains in the district" />
		<tag k="name" v="Maurtuåsen" />
		<tag k="natural" v="hill" />
		<tag k="place" v="locality" />
		<tag k="ssr:stedsnr" v="720544" />
	</node>
	<node lat="59.654794445463146" lon="11.628394452859624" id="-28096">
		<tag k="fixme" v="consider natural=peak for the most distinct mountains in the district" />
		<tag k="name" v="Setertjernåsen" />
		<tag k="natural" v="hill" />
		<tag k="place" v="locality" />
		<tag k="ssr:stedsnr" v="732277" />
	</node>
	<node lat="59.66146254408874" lon="11.63820609622915" id="-28097">
		<tag k="alt_name" v="Gorotjernhøgda" />
		<tag k="fixme" v="consider natural=peak for the most distinct mountains in the district" />
		<tag k="name" v="Gorotjernshøgda" />
		<tag k="natural" v="hill" />
		<tag k="place" v="locality" />
		<tag k="ssr:stedsnr" v="732286" />
	</node>
	<node lat="59.507727776453095" lon="11.601755560667256" id="-28099">
		<tag k="fixme" v="consider natural=peak for the most distinct mountains in the district" />
		<tag k="name" v="Brattfjell" />
		<tag k="natural" v="hill" />
		<tag k="place" v="locality" />
		<tag k="ssr:stedsnr" v="732391" />
	</node>
	<node lat="59.56507778128683" lon="11.622952770773159" id="-28119">
		<tag k="name" v="Skredderdalen" />
		<tag k="natural" v="valley" />
		<tag k="place" v="locality" />
		<tag k="ssr:stedsnr" v="780016" />
	</node>
	<node lat="59.643602773421335" lon="11.557047223541748" id="-28125">
		<tag k="fixme" v="consider natural=peak for the most distinct mountains in the district" />
		<tag k="name" v="Elgsgravhaugen" />
		<tag k="natural" v="hill" />
		<tag k="place" v="locality" />
		<tag k="ssr:stedsnr" v="780085" />
	</node>
	<node lat="59.57873055218023" lon="11.690811113440203" id="-28132">
		<tag k="fixme" v="consider natural=peak for the most distinct mountains in the district" />
		<tag k="name" v="Vittenberg" />
		<tag k="natural" v="hill" />
		<tag k="place" v="locality" />
		<tag k="ssr:stedsnr" v="780289" />
	</node>
	<node lat="59.653355553317475" lon="11.598830546953332" id="-28134">
		<tag k="name" v="Blekkedalen" />
		<tag k="natural" v="valley" />
		<tag k="place" v="locality" />
		<tag k="ssr:stedsnr" v="780380" />
	</node>
	<node lat="59.674838887091674" lon="11.630161114358918" id="-28136">
		<tag k="name" v="Steinstjernsdalen" />
		<tag k="natural" v="valley" />
		<tag k="place" v="locality" />
		<tag k="ssr:stedsnr" v="780387" />
	</node>
	<node lat="59.58932499759513" lon="11.6798388921315" id="-28137">
		<tag k="name" v="Kjelleren" />
		<tag k="natural" v="valley" />
		<tag k="place" v="locality" />
		<tag k="ssr:stedsnr" v="780390" />
	</node>
	<node lat="59.50846388461087" lon="11.585163887650204" id="-28142">
		<tag k="fixme" v="consider natural=peak for the most distinct mountains in the district" />
		<tag k="name" v="Hammerås" />
		<tag k="natural" v="hill" />
		<tag k="place" v="locality" />
		<tag k="ssr:stedsnr" v="780462" />
	</node>
	<node lat="59.54049722116466" lon="11.673588882863418" id="-28151">
		<tag k="fixme" v="consider natural=peak for the most distinct mountains in the district" />
		<tag k="name" v="Elvåsen" />
		<tag k="natural" v="hill" />
		<tag k="place" v="locality" />
		<tag k="ssr:stedsnr" v="780338" />
	</node>
	<node lat="59.57928055205337" lon="11.645383338406942" id="-28152">
		<tag k="name" v="Søndre Askedalen" />
		<tag k="natural" v="valley" />
		<tag k="place" v="locality" />
		<tag k="ssr:stedsnr" v="780415" />
	</node>
	<node lat="59.58032777938562" lon="11.6394083336404" id="-28153">
		<tag k="name" v="Nordre Askedalen" />
		<tag k="natural" v="valley" />
		<tag k="place" v="locality" />
		<tag k="ssr:stedsnr" v="780416" />
	</node>
	<node lat="59.5363444423114" lon="11.545269439877305" id="-28159">
		<tag k="name" v="Slesvikhøgda" />
		<tag k="natural" v="ridge" />
		<tag k="place" v="locality" />
		<tag k="ssr:stedsnr" v="780531" />
	</node>
	<node lat="59.60931666610178" lon="11.686450005642618" id="-28163">
		<tag k="name" v="Skålvannsdråga" />
		<tag k="natural" v="valley" />
		<tag k="place" v="locality" />
		<tag k="ssr:stedsnr" v="780635" />
	</node>
	<node lat="59.6136972244868" lon="11.630324992562196" id="-28166">
		<tag k="name" v="Bekkefallet" />
		<tag k="natural" v="valley" />
		<tag k="place" v="locality" />
		<tag k="ssr:stedsnr" v="780586" />
	</node>
	<node lat="59.484872217853955" lon="11.6204000005054" id="-28173">
		<tag k="name" v="Tiurleken" />
		<tag k="natural" v="hill" />
		<tag k="place" v="locality" />
		<tag k="ssr:stedsnr" v="780895" />
	</node>
	<node lat="59.367730558547656" lon="11.5871194493536" id="-28181">
		<tag k="name" v="Kleppedalen" />
		<tag k="natural" v="valley" />
		<tag k="place" v="locality" />
		<tag k="ssr:stedsnr" v="781075" />
	</node>
	<node lat="59.40406111445407" lon="11.765825004987008" id="-28198">
		<tag k="fixme" v="consider natural=peak for the most distinct mountains in the district" />
		<tag k="name" v="Haraåsen" />
		<tag k="natural" v="hill" />
		<tag k="place" v="locality" />
		<tag k="ssr:stedsnr" v="792527" />
	</node>
	<node lat="59.612069443709686" lon="11.675622217552922" id="-28201">
		<tag k="fixme" v="consider natural=peak for the most distinct mountains in the district" />
		<tag k="name" v="Lysingtjernhøgda" />
		<tag k="natural" v="hill" />
		<tag k="place" v="locality" />
		<tag k="ssr:stedsnr" v="793496" />
	</node>
	<node lat="59.43481944590883" lon="11.572505560750068" id="-28207">
		<tag k="fixme" v="consider natural=peak for the most distinct mountains in the district" />
		<tag k="name" v="Vierstenhøgda" />
		<tag k="natural" v="hill" />
		<tag k="place" v="locality" />
		<tag k="ssr:stedsnr" v="840184" />
	</node>
	<node lat="59.540191663587635" lon="11.600049998154725" id="-28210">
		<tag k="fixme" v="consider natural=peak for the most distinct mountains in the district" />
		<tag k="name" v="Kjenneråsen" />
		<tag k="natural" v="hill" />
		<tag k="place" v="locality" />
		<tag k="ssr:stedsnr" v="840441" />
	</node>
	<node lat="59.40154444209978" lon="11.7701138936767" id="-28217">
		<tag k="name" v="Ulvehidalen" />
		<tag k="natural" v="valley" />
		<tag k="place" v="locality" />
		<tag k="ssr:stedsnr" v="840896" />
	</node>
	<node lat="59.66113333102915" lon="11.715491665586208" id="-28225">
		<tag k="name" v="Presteborddalen" />
		<tag k="natural" v="valley" />
		<tag k="place" v="locality" />
		<tag k="ssr:stedsnr" v="841321" />
	</node>
	<node lat="59.654422221504625" lon="11.599783335670063" id="-28226">
		<tag k="name" v="Kjerringryggen" />
		<tag k="natural" v="ridge" />
		<tag k="place" v="locality" />
		<tag k="ssr:stedsnr" v="841424" />
	</node>
	<node lat="59.416902779890606" lon="11.628452779908079" id="-28229">
		<tag k="fixme" v="consider natural=peak for the most distinct mountains in the district" />
		<tag k="name" v="Bernhusbrenna" />
		<tag k="natural" v="hill" />
		<tag k="place" v="locality" />
		<tag k="ssr:stedsnr" v="841522" />
	</node>
	<node lat="59.36761666402179" lon="11.77268055545294" id="-28232">
		<tag k="name" v="Mortenshøyder" />
		<tag k="natural" v="hill" />
		<tag k="place" v="locality" />
		<tag k="ssr:stedsnr" v="841991" />
	</node>
	<node lat="59.65111666208494" lon="11.67386945149536" id="-28234">
		<tag k="name" v="Lønjedalen" />
		<tag k="natural" v="valley" />
		<tag k="place" v="locality" />
		<tag k="ssr:stedsnr" v="841446" />
	</node>
	<node lat="59.57437222621596" lon="11.636994446501337" id="-28238">
		<tag k="fixme" v="consider natural=peak for the most distinct mountains in the district" />
		<tag k="name" v="Bergtjernåsen" />
		<tag k="natural" v="hill" />
		<tag k="place" v="locality" />
		<tag k="ssr:stedsnr" v="841459" />
	</node>
	<node lat="59.41020278170037" lon="11.64790277738156" id="-28239">
		<tag k="fixme" v="consider natural=peak for the most distinct mountains in the district" />
		<tag k="name" v="Uttersrudåsen" />
		<tag k="natural" v="hill" />
		<tag k="place" v="locality" />
		<tag k="ssr:stedsnr" v="841536" />
	</node>
	<node lat="59.478963890235434" lon="11.647827782219114" id="-28242">
		<tag k="name" v="Ørjekollen" />
		<tag k="natural" v="hill" />
		<tag k="place" v="locality" />
		<tag k="ssr:stedsnr" v="841736" />
	</node>
	<node lat="59.48744166223712" lon="11.56333055416258" id="-28247">
		<tag k="name" v="Vardedalen" />
		<tag k="natural" v="valley" />
		<tag k="place" v="locality" />
		<tag k="ssr:stedsnr" v="841951" />
	</node>
	<node lat="59.64898332918264" lon="11.607138892062618" id="-28250">
		<tag k="loc_name" v="Grønnmyrhella" />
		<tag k="name" v="Grønnmyrhalla" />
		<tag k="natural" v="slope" />
		<tag k="place" v="locality" />
		<tag k="ssr:stedsnr" v="842417" />
	</node>
	<node lat="59.52470277551895" lon="11.686255547472648" id="-28254">
		<tag k="fixme" v="consider natural=peak for the most distinct mountains in the district" />
		<tag k="name" v="Revås" />
		<tag k="natural" v="hill" />
		<tag k="place" v="locality" />
		<tag k="ssr:stedsnr" v="842341" />
	</node>
	<node lat="59.52072221935579" lon="11.695008339184927" id="-28256">
		<tag k="fixme" v="consider natural=peak for the most distinct mountains in the district" />
		<tag k="name" v="Langevannsåsen" />
		<tag k="natural" v="hill" />
		<tag k="place" v="locality" />
		<tag k="ssr:stedsnr" v="842343" />
	</node>
	<node lat="59.34893611253356" lon="11.717705561942113" id="-28259">
		<tag k="fixme" v="consider natural=peak for the most distinct mountains in the district" />
		<tag k="name" v="Sundsåsen" />
		<tag k="natural" v="hill" />
		<tag k="place" v="locality" />
		<tag k="ssr:stedsnr" v="842548" />
	</node>
	<node lat="59.59010277692912" lon="11.538505555735457" id="-28262">
		<tag k="name" v="Slåttåsen" />
		<tag k="natural" v="hill" />
		<tag k="place" v="locality" />
		<tag k="ssr:stedsnr" v="841190" />
	</node>
	<node lat="59.37840555796081" lon="11.608602784842002" id="-28271">
		<tag k="alt_name" v="Snilefjell" />
		<tag k="fixme" v="consider natural=peak for the most distinct mountains in the district" />
		<tag k="name" v="Snilefjellet" />
		<tag k="natural" v="hill" />
		<tag k="place" v="locality" />
		<tag k="ssr:stedsnr" v="853521" />
	</node>
	<node lat="59.365716668199646" lon="11.583058331372703" id="-28273">
		<tag k="fixme" v="consider natural=peak for the most distinct mountains in the district" />
		<tag k="name" v="Linnekleppen" />
		<tag k="natural" v="hill" />
		<tag k="place" v="locality" />
		<tag k="ssr:stedsnr" v="853678" />
	</node>
	<node lat="59.38514444764754" lon="11.766836119136693" id="-28292">
		<tag k="name" v="Klokkestensdråga" />
		<tag k="place" v="locality" />
		<tag k="ssr:stedsnr" v="961921" />
	</node>
	<node lat="59.586594448244874" lon="11.634655562234766" id="-28327">
		<tag k="fixme" v="consider natural=peak for the most distinct mountains in the district" />
		<tag k="name" v="Mikkelmosehøgda" />
		<tag k="natural" v="hill" />
		<tag k="place" v="locality" />
		<tag k="ssr:stedsnr" v="962427" />
	</node>
	<node lat="59.654483331919415" lon="11.68589166280092" id="-28329">
		<tag k="name" v="Steinstjernsbrenna" />
		<tag k="natural" v="slope" />
		<tag k="place" v="locality" />
		<tag k="ssr:stedsnr" v="962430" />
	</node>
	<node lat="59.610361115271374" lon="11.692808339779656" id="-28337">
		<tag k="name" v="Plankedråga" />
		<tag k="natural" v="valley" />
		<tag k="place" v="locality" />
		<tag k="ssr:stedsnr" v="962673" />
	</node>
	<node lat="59.522574996855475" lon="11.550630558024174" id="-28343">
		<tag k="fixme" v="consider natural=peak for the most distinct mountains in the district" />
		<tag k="name" v="Bjørkebruhøgda" />
		<tag k="natural" v="hill" />
		<tag k="place" v="locality" />
		<tag k="ssr:stedsnr" v="962955" />
	</node>
	<node lat="59.38316111347504" lon="11.61171666617499" id="-28351">
		<tag k="fixme" v="consider natural=peak for the most distinct mountains in the district" />
		<tag k="name" v="Ørnehaugen" />
		<tag k="natural" v="hill" />
		<tag k="place" v="locality" />
		<tag k="ssr:stedsnr" v="963090" />
	</node>
	<node lat="59.63157403790608" lon="11.663080781579346" id="-28541">
		<tag k="alt_name" v="Fluetjernåsen" />
		<tag k="fixme" v="consider natural=peak for the most distinct mountains in the district" />
		<tag k="name" v="Fluetjernsåsen" />
		<tag k="natural" v="hill" />
		<tag k="place" v="locality" />
		<tag k="ssr:stedsnr" v="1072673" />
	</node>
</osm>
