<?xml version="1.0" encoding="UTF-8"?>
<<<<<<< HEAD
<osm version="0.6" generator="osmapis">
	<node lat="59.326852777794855" lon="11.790313895662836" id="-13444">
		<tag k="name" v="Rødkastet" />
		<tag k="place" v="locality" />
		<tag k="ssr:stedsnr" v="233437" />
	</node>
	<node lat="59.37468610739905" lon="11.677299991353063" id="-13445">
		<tag k="name" v="Bjørnemyra" />
		<tag k="place" v="locality" />
		<tag k="ssr:stedsnr" v="233337" />
	</node>
	<node lat="59.437519441336825" lon="11.661027769793622" id="-13455">
		<tag k="name" v="Kolstadkastet" />
		<tag k="place" v="locality" />
		<tag k="ssr:stedsnr" v="233663" />
	</node>
	<node lat="59.42470278222222" lon="11.661588886267415" id="-13456">
		<tag k="name" v="Berkaskastet" />
		<tag k="place" v="locality" />
		<tag k="ssr:stedsnr" v="233665" />
	</node>
	<node lat="59.330255558668796" lon="11.618202780107817" id="-13480">
		<tag k="name" v="Fødselsfurua" />
		<tag k="place" v="locality" />
		<tag k="ssr:stedsnr" v="234417" />
	</node>
	<node lat="59.61887222551145" lon="11.664105562186398" id="-13494">
		<tag k="name" v="Ulfsbykastet" />
		<tag k="place" v="locality" />
		<tag k="ssr:stedsnr" v="234491" />
	</node>
	<node lat="59.59397777773541" lon="11.528608329430169" id="-13496">
		<tag k="name" v="Fintenfjell" />
		<tag k="place" v="locality" />
		<tag k="ssr:stedsnr" v="234493" />
	</node>
	<node lat="59.59805832909823" lon="11.520569442481182" id="-13498">
		<tag k="name" v="Skjåte" />
		<tag k="place" v="locality" />
		<tag k="ssr:stedsnr" v="234496" />
	</node>
	<node lat="59.63666111568029" lon="11.637977769523578" id="-13500">
		<tag k="name" v="Roligheta" />
		<tag k="place" v="locality" />
		<tag k="ssr:stedsnr" v="234516" />
	</node>
	<node lat="59.5130083338742" lon="11.559330548757433" id="-13518">
		<tag k="name" v="Falkesteinene" />
		<tag k="place" v="locality" />
		<tag k="ssr:stedsnr" v="234961" />
	</node>
	<node lat="59.5310250014574" lon="11.61278610405426" id="-13522">
		<tag k="name" v="Brudeberget" />
		<tag k="place" v="locality" />
		<tag k="ssr:stedsnr" v="51485" />
	</node>
	<node lat="59.48871944757105" lon="11.636827780448831" id="-13534">
		<tag k="name" v="Nordre Kastet" />
		<tag k="place" v="locality" />
		<tag k="ssr:stedsnr" v="52221" />
	</node>
	<node lat="59.39463055400952" lon="11.700947213803227" id="-13540">
		<tag k="name" v="Lerdal" />
		<tag k="place" v="locality" />
		<tag k="ssr:stedsnr" v="52468" />
	</node>
	<node lat="59.47126944416059" lon="11.646183326908691" id="-13542">
		<tag k="name" v="Nisseberget" />
		<tag k="place" v="locality" />
		<tag k="ssr:stedsnr" v="52667" />
	</node>
	<node lat="59.603024998932135" lon="11.58466388232522" id="-13546">
		<tag k="name" v="Hagan" />
		<tag k="place" v="locality" />
		<tag k="ssr:stedsnr" v="52909" />
	</node>
	<node lat="59.56278055651699" lon="11.655863886351009" id="-13554">
		<tag k="name" v="Kastet" />
		<tag k="place" v="locality" />
		<tag k="ssr:stedsnr" v="53412" />
	</node>
	<node lat="59.38365555385512" lon="11.698558335505059" id="-13589">
		<tag k="name" v="Sandbekk" />
		<tag k="place" v="locality" />
		<tag k="ssr:stedsnr" v="112529" />
	</node>
	<node lat="59.53948055208654" lon="11.677505549655118" id="-13590">
		<tag k="name" v="Måstadbråten" />
		<tag k="place" v="locality" />
		<tag k="ssr:stedsnr" v="112410" />
	</node>
	<node lat="59.35530555607417" lon="11.761344441896783" id="-13594">
		<tag k="name" v="Vedtorvet" />
		<tag k="place" v="locality" />
		<tag k="ssr:stedsnr" v="112807" />
	</node>
	<node lat="59.37089444222083" lon="11.739672219147057" id="-13596">
		<tag k="name" v="Katissa" />
		<tag k="place" v="locality" />
		<tag k="ssr:stedsnr" v="112820" />
	</node>
	<node lat="59.33841944401672" lon="11.686702769882762" id="-13601">
		<tag k="name" v="Hungersnippen" />
		<tag k="place" v="locality" />
		<tag k="ssr:stedsnr" v="113304" />
	</node>
	<node lat="59.492938892626405" lon="11.626272224280457" id="-13602">
		<tag k="name" v="Slaberget" />
		<tag k="place" v="locality" />
		<tag k="ssr:stedsnr" v="113211" />
	</node>
	<node lat="59.50009722111998" lon="11.635719441198884" id="-13603">
		<tag k="name" v="Paradis" />
		<tag k="place" v="locality" />
		<tag k="ssr:stedsnr" v="113214" />
	</node>
	<node lat="59.47904166608865" lon="11.736049997385832" id="-13625">
		<tag k="name" v="Håbybakkene" />
		<tag k="place" v="locality" />
		<tag k="ssr:stedsnr" v="113915" />
	</node>
	<node lat="59.3648138862066" lon="11.630422221179243" id="-13645">
		<tag k="name" v="Brodal" />
		<tag k="place" v="locality" />
		<tag k="ssr:stedsnr" v="172316" />
	</node>
	<node lat="59.57977778200296" lon="11.55243055269656" id="-13651">
		<tag k="name" v="Elvestad" />
		<tag k="place" v="locality" />
		<tag k="ssr:stedsnr" v="173209" />
	</node>
	<node lat="59.633550000458584" lon="11.550480562656515" id="-13652">
		<tag k="name" v="Bråstupen" />
		<tag k="place" v="locality" />
		<tag k="ssr:stedsnr" v="173214" />
	</node>
	<node lat="59.62696666533977" lon="11.558230552962437" id="-13653">
		<tag k="name" v="Fjellsleet" />
		<tag k="place" v="locality" />
		<tag k="ssr:stedsnr" v="173215" />
	</node>
	<node lat="59.330900004022084" lon="11.784158326528777" id="-13657">
		<tag k="name" v="Klokkernebba" />
		<tag k="place" v="locality" />
		<tag k="ssr:stedsnr" v="173366" />
	</node>
	<node lat="59.57370277708555" lon="11.611774997892645" id="-13670">
		<tag k="name" v="Kjempegrava" />
		<tag k="place" v="locality" />
		<tag k="ssr:stedsnr" v="173714" />
	</node>
	<node lat="59.606616668090965" lon="11.582580548320106" id="-13673">
		<tag k="name" v="Tomtene" />
		<tag k="place" v="locality" />
		<tag k="ssr:stedsnr" v="173904" />
	</node>
	<node lat="59.608166670263856" lon="11.589116662419759" id="-13675">
		<tag k="name" v="Nebba" />
		<tag k="place" v="locality" />
		<tag k="ssr:stedsnr" v="173912" />
	</node>
	<node lat="59.33448610918544" lon="11.596177776825716" id="-13684">
		<tag k="name" v="Revesnaret" />
		<tag k="place" v="locality" />
		<tag k="ssr:stedsnr" v="174141" />
	</node>
	<node lat="59.64526666862846" lon="11.669924992051424" id="-13691">
		<tag k="name" v="Komanskoen" />
		<tag k="place" v="locality" />
		<tag k="ssr:stedsnr" v="174515" />
	</node>
	<node lat="59.32233055718628" lon="11.797080564265864" id="-13714">
		<tag k="name" v="Hammerkastet" />
		<tag k="place" v="locality" />
		<tag k="ssr:stedsnr" v="233509" />
	</node>
	<node lat="59.60312222285064" lon="11.569266665442688" id="-13721">
		<tag k="name" v="Kattås" />
		<tag k="place" v="locality" />
		<tag k="ssr:stedsnr" v="233922" />
	</node>
	<node lat="59.55939721809548" lon="11.596469438357538" id="-13727">
		<tag k="name" v="Jemtland" />
		<tag k="place" v="locality" />
		<tag k="ssr:stedsnr" v="234037" />
	</node>
	<node lat="59.44685833274762" lon="11.602866661097423" id="-13736">
		<tag k="name" v="Ulvedalen" />
		<tag k="place" v="locality" />
		<tag k="ssr:stedsnr" v="234303" />
	</node>
	<node lat="59.49248055659225" lon="11.636483328128943" id="-13738">
		<tag k="name" v="Mikkelvoll" />
		<tag k="place" v="locality" />
		<tag k="ssr:stedsnr" v="234206" />
	</node>
	<node lat="59.34920000230206" lon="11.619291664673616" id="-13749">
		<tag k="name" v="Fugleleken" />
		<tag k="place" v="locality" />
		<tag k="ssr:stedsnr" v="234380" />
	</node>
	<node lat="59.59779166700392" lon="11.557888893245405" id="-13755">
		<tag k="name" v="Rabbåkeren" />
		<tag k="place" v="locality" />
		<tag k="ssr:stedsnr" v="234512" />
	</node>
	<node lat="59.39798610877718" lon="11.630458326705154" id="-13774">
		<tag k="alt_name" v="Skogen" />
		<tag k="name" v="Østre Skogen" />
		<tag k="place" v="locality" />
		<tag k="ssr:stedsnr" v="246507" />
	</node>
	<node lat="59.548786110696796" lon="11.644550007382051" id="-13790">
		<tag k="name" v="Sandvad" />
		<tag k="place" v="locality" />
		<tag k="ssr:stedsnr" v="294410" />
	</node>
	<node lat="59.329066670964686" lon="11.809733332643606" id="-13793">
		<tag k="name" v="Blindtarmen" />
		<tag k="place" v="locality" />
		<tag k="ssr:stedsnr" v="294421" />
	</node>
	<node lat="59.40943055769346" lon="11.690441660453718" id="-13799">
		<tag k="name" v="Moseby" />
		<tag k="place" v="locality" />
		<tag k="ssr:stedsnr" v="294610" />
	</node>
	<node lat="59.428819443217854" lon="11.63235833088934" id="-13801">
		<tag k="name" v="Kjøkkenet" />
		<tag k="place" v="locality" />
		<tag k="ssr:stedsnr" v="294634" />
	</node>
	<node lat="59.473758328982264" lon="11.575555551974038" id="-13803">
		<tag k="name" v="Vassbuleet" />
		<tag k="place" v="locality" />
		<tag k="ssr:stedsnr" v="294804" />
	</node>
	<node lat="59.45135833322072" lon="11.61683611031318" id="-13805">
		<tag k="name" v="Sagtangen" />
		<tag k="place" v="locality" />
		<tag k="ssr:stedsnr" v="294812" />
	</node>
	<node lat="59.378491669843946" lon="11.605738885770018" id="-13817">
		<tag k="loc_name" v="Holtesetret" />
		<tag k="name" v="Holtesætre" />
		<tag k="place" v="locality" />
		<tag k="ssr:stedsnr" v="295089" />
	</node>
	<node lat="59.33741666959497" lon="11.578005547539016" id="-13818">
		<tag k="name" v="Haugen" />
		<tag k="place" v="locality" />
		<tag k="ssr:stedsnr" v="295128" />
	</node>
	<node lat="59.58747222468853" lon="11.543038896753538" id="-13820">
		<tag k="name" v="Klerudbråten" />
		<tag k="place" v="locality" />
		<tag k="ssr:stedsnr" v="295177" />
	</node>
	<node lat="59.464194442916806" lon="11.754197213687046" id="-13836">
		<tag k="name" v="Vestre Brenna" />
		<tag k="place" v="locality" />
		<tag k="ssr:stedsnr" v="295917" />
	</node>
	<node lat="59.46508055648948" lon="11.735911104866586" id="-13838">
		<tag k="name" v="Reveberget" />
		<tag k="place" v="locality" />
		<tag k="ssr:stedsnr" v="295920" />
	</node>
	<node lat="59.55924166827955" lon="11.56521389445279" id="-13854">
		<tag k="alt_name" v="Smeby vestre" />
		<tag k="name" v="Vestre Smeby" />
		<tag k="place" v="locality" />
		<tag k="ssr:stedsnr" v="329057" />
	</node>
	<node lat="59.534300000186896" lon="11.60212777960107" id="-13862">
		<tag k="name" v="Elvestad" />
		<tag k="place" v="locality" />
		<tag k="ssr:stedsnr" v="354451" />
	</node>
	<node lat="59.635677775208755" lon="11.606691661638441" id="-13873">
		<tag k="name" v="Nyengen" />
		<tag k="place" v="locality" />
		<tag k="ssr:stedsnr" v="355108" />
	</node>
	<node lat="59.65939166281858" lon="11.717161118787876" id="-13886">
		<tag k="name" v="Prestebordsand" />
		<tag k="place" v="locality" />
		<tag k="ssr:stedsnr" v="355304" />
	</node>
	<node lat="59.417186110484224" lon="11.64024999858856" id="-13888">
		<tag k="name" v="Myra" />
		<tag k="place" v="locality" />
		<tag k="ssr:stedsnr" v="355502" />
	</node>
	<node lat="59.477041670738046" lon="11.639749995185433" id="-13894">
		<tag k="name" v="Store Utkikstårn" />
		<tag k="ssr:stedsnr" v="355722" />
		<tag k="tourism" v="viewpoint" />
	</node>
	<node lat="59.4948861131433" lon="11.59898611232477" id="-13898">
		<tag k="name" v="Grønnli" />
		<tag k="place" v="locality" />
		<tag k="ssr:stedsnr" v="355907" />
	</node>
	<node lat="59.59408316752115" lon="11.501298145819066" id="-13906">
		<tag k="name" v="Tavlene" />
		<tag k="place" v="locality" />
		<tag k="ssr:stedsnr" v="356303" />
	</node>
	<node lat="59.55332500183629" lon="11.698111102808564" id="-13907">
		<tag k="name" v="Brenna" />
		<tag k="place" v="locality" />
		<tag k="ssr:stedsnr" v="356398" />
	</node>
	<node lat="59.341333335009125" lon="11.579411105820057" id="-13914">
		<tag k="name" v="Søgårdsødegård" />
		<tag k="place" v="locality" />
		<tag k="ssr:stedsnr" v="476133" />
	</node>
	<node lat="59.502755556238434" lon="11.623713890101829" id="-13916">
		<tag k="name" v="Mikkelberg" />
		<tag k="place" v="locality" />
		<tag k="ssr:stedsnr" v="476192" />
	</node>
	<node lat="59.49358610799611" lon="11.632861116877093" id="-13919">
		<tag k="name" v="Kverndalshaugen" />
		<tag k="place" v="locality" />
		<tag k="ssr:stedsnr" v="476204" />
	</node>
	<node lat="59.66510278096911" lon="11.706933336538173" id="-13924">
		<tag k="name" v="Snøplogskiftet" />
		<tag k="place" v="locality" />
		<tag k="ssr:stedsnr" v="476328" />
	</node>
	<node lat="59.374263889260945" lon="11.775791660168915" id="-13953">
		<tag k="name" v="Gjeta" />
		<tag k="place" v="locality" />
		<tag k="ssr:stedsnr" v="476987" />
	</node>
	<node lat="59.35632778070013" lon="11.58897777447481" id="-13962">
		<tag k="name" v="Bukkeklev" />
		<tag k="place" v="locality" />
		<tag k="ssr:stedsnr" v="477077" />
	</node>
	<node lat="59.59538333277295" lon="11.635927776373299" id="-13970">
		<tag k="name" v="Langbråteleet" />
		<tag k="place" v="locality" />
		<tag k="ssr:stedsnr" v="477293" />
	</node>
	<node lat="59.566438887621615" lon="11.665888886898273" id="-13980">
		<tag k="name" v="Høgsetet" />
		<tag k="place" v="locality" />
		<tag k="ssr:stedsnr" v="477397" />
	</node>
	<node lat="59.58803889321367" lon="11.58880833436723" id="-13994">
		<tag k="name" v="Sofienlund" />
		<tag k="place" v="locality" />
		<tag k="ssr:stedsnr" v="477536" />
	</node>
	<node lat="59.45002221783422" lon="11.586080558094942" id="-14023">
		<tag k="name" v="Frønesjøbakken" />
		<tag k="place" v="locality" />
		<tag k="ssr:stedsnr" v="415818" />
	</node>
	<node lat="59.45728055222352" lon="11.605133327087685" id="-14024">
		<tag k="name" v="Liseter" />
		<tag k="place" v="locality" />
		<tag k="ssr:stedsnr" v="415831" />
	</node>
	<node lat="59.359486114977166" lon="11.787027774217247" id="-14025">
		<tag k="name" v="Løytnantstømra" />
		<tag k="old_name" v="Løytnanstømra" />
		<tag k="place" v="locality" />
		<tag k="ssr:stedsnr" v="415835" />
	</node>
	<node lat="59.42447777738126" lon="11.745413892956604" id="-14029">
		<tag k="name" v="Ilebekk" />
		<tag k="place" v="locality" />
		<tag k="ssr:stedsnr" v="415938" />
	</node>
	<node lat="59.44355278146504" lon="11.735052779336785" id="-14030">
		<tag k="name" v="Libakken" />
		<tag k="place" v="locality" />
		<tag k="ssr:stedsnr" v="415939" />
	</node>
	<node lat="59.52016111339716" lon="11.603794448817698" id="-14045">
		<tag k="name" v="Holoenga" />
		<tag k="place" v="locality" />
		<tag k="ssr:stedsnr" v="416444" />
	</node>
	<node lat="59.60191389063404" lon="11.57732778656654" id="-14054">
		<tag k="name" v="Bråte" />
		<tag k="place" v="locality" />
		<tag k="ssr:stedsnr" v="416894" />
	</node>
	<node lat="59.3734527820453" lon="11.761466668333528" id="-14058">
		<tag k="name" v="Runde mose" />
		<tag k="place" v="locality" />
		<tag k="ssr:stedsnr" v="416984" />
	</node>
	<node lat="59.58806666674171" lon="11.59473055004006" id="-14073">
		<tag k="amenity" v="place_of_worship" />
		<tag k="denomination" v="lutheran" />
		<tag k="name" v="Rødenes kirke" />
		<tag k="religion" v="christian" />
		<tag k="ssr:stedsnr" v="489461" />
	</node>
	<node lat="59.46774444631835" lon="11.728427780034002" id="-14080">
		<tag k="name" v="Kavlebrua" />
		<tag k="place" v="locality" />
		<tag k="ssr:stedsnr" v="427588" />
	</node>
	<node lat="59.390027776796245" lon="11.747136115372797" id="-14095">
		<tag k="name" v="Stenbakken" />
		<tag k="place" v="locality" />
		<tag k="ssr:stedsnr" v="433907" />
	</node>
	<node lat="59.52449166551543" lon="11.636933339031689" id="-14101">
		<tag k="amenity" v="place_of_worship" />
		<tag k="denomination" v="lutheran" />
		<tag k="name" v="Klund kirke" />
		<tag k="religion" v="christian" />
		<tag k="ssr:stedsnr" v="671384" />
	</node>
	<node lat="59.31829722377891" lon="11.58618888314804" id="-14103">
		<tag k="name" v="Torvet" />
		<tag k="place" v="locality" />
		<tag k="ssr:stedsnr" v="476124" />
	</node>
	<node lat="59.32345833319535" lon="11.603141667498033" id="-14104">
		<tag k="name" v="Nøtteholtet" />
		<tag k="place" v="locality" />
		<tag k="ssr:stedsnr" v="476126" />
	</node>
	<node lat="59.61264166660634" lon="11.66119999442166" id="-14114">
		<tag k="name" v="Svingbakken" />
		<tag k="place" v="locality" />
		<tag k="ssr:stedsnr" v="476663" />
	</node>
	<node lat="59.367194443594194" lon="11.755747226392034" id="-14124">
		<tag k="name" v="Korsora" />
		<tag k="place" v="locality" />
		<tag k="ssr:stedsnr" v="476815" />
	</node>
	<node lat="59.35579721895575" lon="11.626311107670002" id="-14170">
		<tag k="name" v="Harelihølet" />
		<tag k="place" v="locality" />
		<tag k="ssr:stedsnr" v="536305" />
	</node>
	<node lat="59.35595833614844" lon="11.64402500175141" id="-14171">
		<tag k="name" v="Klevkas" />
		<tag k="place" v="locality" />
		<tag k="ssr:stedsnr" v="536306" />
	</node>
	<node lat="59.50385555578795" lon="11.660877771548964" id="-14173">
		<tag k="name" v="Lesby" />
		<tag k="place" v="locality" />
		<tag k="ssr:stedsnr" v="537183" />
	</node>
	<node lat="59.58596111523037" lon="11.54595277252866" id="-14174">
		<tag k="name" v="Østre Vestby" />
		<tag k="place" v="locality" />
		<tag k="ssr:stedsnr" v="537184" />
	</node>
	<node lat="59.44288610870658" lon="11.583030550923977" id="-14191">
		<tag k="name" v="Klunkelia" />
		<tag k="place" v="locality" />
		<tag k="ssr:stedsnr" v="537768" />
	</node>
	<node lat="59.366058335668406" lon="11.76996388624531" id="-14195">
		<tag k="name" v="Tjæregravsbakken" />
		<tag k="place" v="locality" />
		<tag k="ssr:stedsnr" v="537983" />
	</node>
	<node lat="59.40273055632991" lon="11.757911115777144" id="-14201">
		<tag k="name" v="Lindkjervvadet" />
		<tag k="place" v="locality" />
		<tag k="ssr:stedsnr" v="537881" />
	</node>
	<node lat="59.557086115604385" lon="11.577138885604517" id="-14204">
		<tag k="name" v="Vesleenga" />
		<tag k="place" v="locality" />
		<tag k="ssr:stedsnr" v="538069" />
	</node>
	<node lat="59.348136110887765" lon="11.678672216399246" id="-14209">
		<tag k="name" v="Pinnekasa" />
		<tag k="place" v="locality" />
		<tag k="ssr:stedsnr" v="538402" />
	</node>
	<node lat="59.52480833243173" lon="11.57368334191805" id="-14213">
		<tag k="name" v="Bjørnlia" />
		<tag k="place" v="locality" />
		<tag k="ssr:stedsnr" v="538308" />
	</node>
	<node lat="59.5105555532566" lon="11.572083334109495" id="-14254">
		<tag k="name" v="Delingsdråga" />
		<tag k="place" v="locality" />
		<tag k="ssr:stedsnr" v="597522" />
	</node>
	<node lat="59.6060694444418" lon="11.592997213847166" id="-14259">
		<tag k="name" v="Nordholmen" />
		<tag k="place" v="locality" />
		<tag k="ssr:stedsnr" v="597926" />
	</node>
	<node lat="59.4454277803038" lon="11.740408327242225" id="-14260">
		<tag k="name" v="Stenerud" />
		<tag k="place" v="locality" />
		<tag k="ssr:stedsnr" v="597928" />
	</node>
	<node lat="59.49708055723788" lon="11.601149996967383" id="-14261">
		<tag k="name" v="Torget" />
		<tag k="place" v="locality" />
		<tag k="ssr:stedsnr" v="597929" />
	</node>
	<node lat="59.50383611282498" lon="11.642708328540742" id="-14263">
		<tag k="name" v="Kolsand" />
		<tag k="place" v="locality" />
		<tag k="ssr:stedsnr" v="598003" />
	</node>
	<node lat="59.3411888861763" lon="11.588494451151847" id="-14270">
		<tag k="name" v="Bjørkeholtet" />
		<tag k="place" v="locality" />
		<tag k="ssr:stedsnr" v="598124" />
	</node>
	<node lat="59.324833337893736" lon="11.589111107611712" id="-14311">
		<tag k="name" v="Engebråten" />
		<tag k="place" v="locality" />
		<tag k="ssr:stedsnr" v="658110" />
	</node>
	<node lat="59.456152778356795" lon="11.601727785097944" id="-14328">
		<tag k="name" v="Grønne bakke" />
		<tag k="place" v="locality" />
		<tag k="ssr:stedsnr" v="658786" />
	</node>
	<node lat="59.358402780727644" lon="11.785988896904858" id="-14329">
		<tag k="name" v="Dansefurua" />
		<tag k="place" v="locality" />
		<tag k="ssr:stedsnr" v="658790" />
	</node>
	<node lat="59.501452773912405" lon="11.615608334988547" id="-14332">
		<tag k="name" v="Skåbommen" />
		<tag k="place" v="locality" />
		<tag k="ssr:stedsnr" v="658914" />
	</node>
	<node lat="59.47777222320405" lon="11.600194445180435" id="-14335">
		<tag k="name" v="Brenna" />
		<tag k="place" v="locality" />
		<tag k="ssr:stedsnr" v="658809" />
	</node>
	<node lat="59.36260277652922" lon="11.595491675211543" id="-14340">
		<tag k="name" v="Oreslora" />
		<tag k="place" v="locality" />
		<tag k="ssr:stedsnr" v="659083" />
	</node>
	<node lat="59.58583333059962" lon="11.521355563944576" id="-14343">
		<tag k="name" v="Hytta" />
		<tag k="place" v="locality" />
		<tag k="ssr:stedsnr" v="659209" />
	</node>
	<node lat="59.62553055592363" lon="11.556311115384492" id="-14345">
		<tag k="name" v="Roås" />
		<tag k="place" v="locality" />
		<tag k="ssr:stedsnr" v="659235" />
	</node>
	<node lat="59.508805554609026" lon="11.683788896950027" id="-14351">
		<tag k="name" v="Julleet" />
		<tag k="place" v="locality" />
		<tag k="ssr:stedsnr" v="659345" />
	</node>
	<node lat="59.55151110935318" lon="11.653327770136636" id="-14352">
		<tag k="name" v="Sletta" />
		<tag k="place" v="locality" />
		<tag k="ssr:stedsnr" v="659407" />
	</node>
	<node lat="59.6393472190709" lon="11.639377778313987" id="-14355">
		<tag k="name" v="Brudeberget" />
		<tag k="place" v="locality" />
		<tag k="ssr:stedsnr" v="659498" />
	</node>
	<node lat="59.61388332934118" lon="11.532019437380429" id="-14358">
		<tag k="name" v="Rokka" />
		<tag k="place" v="locality" />
		<tag k="ssr:stedsnr" v="659530" />
	</node>
	<node lat="59.59857222251888" lon="11.585419444004428" id="-14365">
		<tag k="name" v="Haslerud" />
		<tag k="place" v="locality" />
		<tag k="ssr:stedsnr" v="659905" />
	</node>
	<node lat="59.58882222172127" lon="11.568175003749495" id="-14393">
		<tag k="name" v="Folkenborg" />
		<tag k="place" v="locality" />
		<tag k="ssr:stedsnr" v="719142" />
	</node>
	<node lat="59.37387222119362" lon="11.72533611376134" id="-14396">
		<tag k="name" v="Vikshytta" />
		<tag k="place" v="locality" />
		<tag k="ssr:stedsnr" v="719309" />
	</node>
	<node lat="59.5485166671271" lon="11.635219452676866" id="-14407">
		<tag k="name" v="Hellevad" />
		<tag k="place" v="locality" />
		<tag k="ssr:stedsnr" v="719374" />
	</node>
	<node lat="59.35908611376401" lon="11.78009721411528" id="-14419">
		<tag k="name" v="Sandbekk" />
		<tag k="place" v="locality" />
		<tag k="ssr:stedsnr" v="719803" />
	</node>
	<node lat="59.34748611433652" lon="11.798094443678313" id="-14422">
		<tag k="name" v="Sootfurua" />
		<tag k="place" v="locality" />
		<tag k="ssr:stedsnr" v="719789" />
	</node>
	<node lat="59.62855832914809" lon="11.567380562452717" id="-14427">
		<tag k="name" v="Trossevik" />
		<tag k="place" v="locality" />
		<tag k="ssr:stedsnr" v="720233" />
	</node>
	<node lat="59.3829694410785" lon="11.613991658081048" id="-14429">
		<tag k="name" v="Kusvingen" />
		<tag k="place" v="locality" />
		<tag k="ssr:stedsnr" v="720107" />
	</node>
	<node lat="59.63224999954393" lon="11.62091943652377" id="-14430">
		<tag k="name" v="Mørres" />
		<tag k="place" v="locality" />
		<tag k="ssr:stedsnr" v="720169" />
	</node>
	<node lat="59.62802222610759" lon="11.662683328243686" id="-14438">
		<tag k="name" v="Ertsgravene" />
		<tag k="place" v="locality" />
		<tag k="ssr:stedsnr" v="720528" />
	</node>
	<node lat="59.617583336605904" lon="11.580922214879719" id="-14440">
		<tag k="name" v="Sundåsen" />
		<tag k="place" v="locality" />
		<tag k="ssr:stedsnr" v="720970" />
	</node>
	<node lat="59.37575277995177" lon="11.706999999656244" id="-14448">
		<tag k="name" v="Hundehuset" />
		<tag k="place" v="locality" />
		<tag k="ssr:stedsnr" v="901288" />
	</node>
	<node lat="59.416074996565825" lon="11.629463884213198" id="-14467">
		<tag k="name" v="Enebutt" />
		<tag k="place" v="locality" />
		<tag k="ssr:stedsnr" v="901547" />
	</node>
	<node lat="59.43077778173618" lon="11.653602773091814" id="-14472">
		<tag k="name" v="Slupstad" />
		<tag k="place" v="locality" />
		<tag k="ssr:stedsnr" v="901630" />
	</node>
	<node lat="59.43755555866067" lon="11.650747216235013" id="-14473">
		<tag k="name" v="Hulteporten" />
		<tag k="place" v="locality" />
		<tag k="ssr:stedsnr" v="901631" />
	</node>
	<node lat="59.39671944621817" lon="11.77266110493973" id="-14481">
		<tag k="name" v="Bringebærholta" />
		<tag k="place" v="locality" />
		<tag k="ssr:stedsnr" v="901897" />
	</node>
	<node lat="59.37309166635393" lon="11.613775000332438" id="-14487">
		<tag k="name" v="Slasvull" />
		<tag k="place" v="locality" />
		<tag k="ssr:stedsnr" v="902087" />
	</node>
	<node lat="59.654291669042834" lon="11.60909444514967" id="-14511">
		<tag k="name" v="Brennebakken" />
		<tag k="place" v="locality" />
		<tag k="ssr:stedsnr" v="902467" />
	</node>
	<node lat="59.59916944147887" lon="11.55921667013654" id="-14515">
		<tag k="name" v="Meieriet" />
		<tag k="place" v="locality" />
		<tag k="ssr:stedsnr" v="902565" />
	</node>
	<node lat="59.48080833748602" lon="11.673636106030829" id="-14519">
		<tag k="name" v="Åstoppen" />
		<tag k="place" v="locality" />
		<tag k="ssr:stedsnr" v="902747" />
	</node>
	<node lat="59.53835555758119" lon="11.609233328806177" id="-14530">
		<tag k="name" v="Verket" />
		<tag k="place" v="locality" />
		<tag k="ssr:stedsnr" v="779453" />
	</node>
	<node lat="59.45546388977807" lon="11.578891668941814" id="-14533">
		<tag k="name" v="Kastbakken" />
		<tag k="place" v="locality" />
		<tag k="ssr:stedsnr" v="779757" />
	</node>
	<node lat="59.441050001216674" lon="11.758366660976504" id="-14536">
		<tag k="name" v="Djupekost" />
		<tag k="place" v="locality" />
		<tag k="ssr:stedsnr" v="779918" />
	</node>
	<node lat="59.574872222039076" lon="11.544672228269768" id="-14540">
		<tag k="name" v="Kallehytta" />
		<tag k="place" v="locality" />
		<tag k="ssr:stedsnr" v="780215" />
	</node>
	<node lat="59.5806111080034" lon="11.524327779786388" id="-14542">
		<tag k="name" v="Kattisa" />
		<tag k="place" v="locality" />
		<tag k="ssr:stedsnr" v="780224" />
	</node>
	<node lat="59.61607222271816" lon="11.543286106011786" id="-14543">
		<tag k="name" v="Fokkenborgbråten" />
		<tag k="place" v="locality" />
		<tag k="ssr:stedsnr" v="780227" />
	</node>
	<node lat="59.32708055900511" lon="11.592677769813994" id="-14545">
		<tag k="name" v="Jakobshytta" />
		<tag k="place" v="locality" />
		<tag k="ssr:stedsnr" v="780115" />
	</node>
	<node lat="59.494755559293324" lon="11.724477769413253" id="-14547">
		<tag k="name" v="Vinterleet" />
		<tag k="place" v="locality" />
		<tag k="ssr:stedsnr" v="780129" />
	</node>
	<node lat="59.41497222204809" lon="11.635513886040357" id="-14558">
		<tag k="name" v="Engebråten" />
		<tag k="place" v="locality" />
		<tag k="ssr:stedsnr" v="780488" />
	</node>
	<node lat="59.4149527815386" lon="11.629377772183847" id="-14561">
		<tag k="name" v="Store Svenskekleva" />
		<tag k="place" v="locality" />
		<tag k="ssr:stedsnr" v="780494" />
	</node>
	<node lat="59.4092305575038" lon="11.662577769399096" id="-14562">
		<tag k="name" v="Gjøngerud" />
		<tag k="place" v="locality" />
		<tag k="ssr:stedsnr" v="780500" />
	</node>
	<node lat="59.53183333083727" lon="11.70038888295429" id="-14563">
		<tag k="name" v="Kjelleren" />
		<tag k="place" v="locality" />
		<tag k="ssr:stedsnr" v="780352" />
	</node>
	<node lat="59.51263055335604" lon="11.564872218158001" id="-14571">
		<tag k="name" v="Stormoen" />
		<tag k="place" v="locality" />
		<tag k="ssr:stedsnr" v="780924" />
	</node>
	<node lat="59.601344446877036" lon="11.614558333446043" id="-14576">
		<tag k="name" v="Morteberget" />
		<tag k="place" v="locality" />
		<tag k="ssr:stedsnr" v="780901" />
	</node>
	<node lat="59.51942777518574" lon="11.70970555249995" id="-14578">
		<tag k="name" v="Hestestallene" />
		<tag k="place" v="locality" />
		<tag k="ssr:stedsnr" v="781363" />
	</node>
	<node lat="59.36911944685554" lon="11.691541672714672" id="-14616">
		<tag k="name" v="Svennehullet" />
		<tag k="place" v="locality" />
		<tag k="ssr:stedsnr" v="840309" />
	</node>
	<node lat="59.36774166769365" lon="11.622941671460495" id="-14617">
		<tag k="name" v="Hytta" />
		<tag k="place" v="locality" />
		<tag k="ssr:stedsnr" v="840291" />
	</node>
	<node lat="59.46325832927828" lon="11.71516111872655" id="-14631">
		<tag k="name" v="Bergby" />
		<tag k="place" v="locality" />
		<tag k="ssr:stedsnr" v="841032" />
	</node>
	<node lat="59.62275555842996" lon="11.566333330552874" id="-14634">
		<tag k="name" v="Torebråten" />
		<tag k="place" v="locality" />
		<tag k="ssr:stedsnr" v="841235" />
	</node>
	<node lat="59.62220555908309" lon="11.561413881586788" id="-14635">
		<tag k="alt_name" v="Bråten nordre" />
		<tag k="name" v="Nordre Bråten" />
		<tag k="place" v="locality" />
		<tag k="ssr:stedsnr" v="841237" />
	</node>
	<node lat="59.56515278148928" lon="11.57115277272398" id="-14639">
		<tag k="name" v="Myrås" />
		<tag k="place" v="locality" />
		<tag k="ssr:stedsnr" v="841248" />
	</node>
	<node lat="59.383719445619505" lon="11.645466660012218" id="-14640">
		<tag k="name" v="Valby" />
		<tag k="place" v="locality" />
		<tag k="ssr:stedsnr" v="841325" />
	</node>
	<node lat="59.59958055525139" lon="11.560136104166427" id="-14648">
		<tag k="name" v="Veiby" />
		<tag k="place" v="locality" />
		<tag k="ssr:stedsnr" v="841517" />
	</node>
	<node lat="59.641113888319325" lon="11.654672230053697" id="-14650">
		<tag k="name" v="Eggesteinene" />
		<tag k="place" v="locality" />
		<tag k="ssr:stedsnr" v="841525" />
	</node>
	<node lat="59.64167777995274" lon="11.644955557027949" id="-14651">
		<tag k="alt_name" v="Vaet" />
		<tag k="name" v="Vadet" />
		<tag k="place" v="locality" />
		<tag k="ssr:stedsnr" v="841529" />
	</node>
	<node lat="59.608633330944016" lon="11.52568611702132" id="-14652">
		<tag k="name" v="Damjordet" />
		<tag k="place" v="locality" />
		<tag k="ssr:stedsnr" v="841530" />
	</node>
	<node lat="59.322438885343054" lon="11.815022215305172" id="-14654">
		<tag k="name" v="Demmarydningen" />
		<tag k="place" v="locality" />
		<tag k="ssr:stedsnr" v="841409" />
	</node>
	<node lat="59.656994440432435" lon="11.693158330962616" id="-14657">
		<tag k="name" v="Fjellstubakken" />
		<tag k="place" v="locality" />
		<tag k="ssr:stedsnr" v="841430" />
	</node>
	<node lat="59.33170833371469" lon="11.705286112320824" id="-14658">
		<tag k="name" v="Bjørnstad" />
		<tag k="place" v="locality" />
		<tag k="ssr:stedsnr" v="841433" />
	</node>
	<node lat="59.59777222307767" lon="11.582222230780582" id="-14668">
		<tag k="name" v="Vittenberg" />
		<tag k="place" v="locality" />
		<tag k="ssr:stedsnr" v="841904" />
	</node>
	<node lat="59.47499999644456" lon="11.745436116134849" id="-14669">
		<tag k="name" v="Øvre Håbybakkene" />
		<tag k="place" v="locality" />
		<tag k="ssr:stedsnr" v="841910" />
	</node>
	<node lat="59.36642500136817" lon="11.78303888692406" id="-14678">
		<tag k="name" v="Melkebråten" />
		<tag k="place" v="locality" />
		<tag k="ssr:stedsnr" v="841987" />
	</node>
	<node lat="59.387674997697445" lon="11.599805563921752" id="-14684">
		<tag k="name" v="Langetjernkleva" />
		<tag k="place" v="locality" />
		<tag k="ssr:stedsnr" v="842092" />
	</node>
	<node lat="59.557330551255006" lon="11.651680549771015" id="-14686">
		<tag k="name" v="Håby" />
		<tag k="place" v="locality" />
		<tag k="ssr:stedsnr" v="842397" />
	</node>
	<node lat="59.5964972210216" lon="11.61352777287226" id="-14697">
		<tag k="amenity" v="community_centre" />
		<tag k="name" v="Bondestua" />
		<tag k="ssr:stedsnr" v="854447" />
	</node>
	<node lat="59.54386110723329" lon="11.603358326017775" id="-14704">
		<tag k="name" v="Månevik" />
		<tag k="place" v="locality" />
		<tag k="ssr:stedsnr" v="901457" />
	</node>
	<node lat="59.53541944436618" lon="11.55630832573684" id="-14712">
		<tag k="name" v="Slesvik" />
		<tag k="place" v="locality" />
		<tag k="ssr:stedsnr" v="901606" />
	</node>
	<node lat="59.53369999896262" lon="11.556530552073808" id="-14713">
		<tag k="name" v="Holstein" />
		<tag k="place" v="locality" />
		<tag k="ssr:stedsnr" v="901607" />
	</node>
	<node lat="59.39590000422644" lon="11.626491661003392" id="-14716">
		<tag k="name" v="Nordal" />
		<tag k="place" v="locality" />
		<tag k="ssr:stedsnr" v="901825" />
	</node>
	<node lat="59.37976666887159" lon="11.75866944814964" id="-14720">
		<tag k="name" v="Sandbakken" />
		<tag k="place" v="locality" />
		<tag k="ssr:stedsnr" v="901914" />
	</node>
	<node lat="59.3644055579308" lon="11.767822221679959" id="-14721">
		<tag k="name" v="Dalakasa" />
		<tag k="place" v="locality" />
		<tag k="ssr:stedsnr" v="901988" />
	</node>
	<node lat="59.37091944276216" lon="11.767772214265474" id="-14722">
		<tag k="name" v="Stråmyr" />
		<tag k="place" v="locality" />
		<tag k="ssr:stedsnr" v="901990" />
	</node>
	<node lat="59.50219166706703" lon="11.623191661696936" id="-14726">
		<tag k="name" v="Mikkelvoll" />
		<tag k="place" v="locality" />
		<tag k="ssr:stedsnr" v="902205" />
	</node>
	<node lat="59.338202780537365" lon="11.813197215617551" id="-14744">
		<tag k="name" v="Korsbjørka" />
		<tag k="place" v="locality" />
		<tag k="ssr:stedsnr" v="902822" />
	</node>
	<node lat="59.37314444096989" lon="11.695980559084873" id="-14754">
		<tag k="name" v="Strutehytta" />
		<tag k="place" v="locality" />
		<tag k="ssr:stedsnr" v="961309" />
	</node>
	<node lat="59.37135278155405" lon="11.629644437085645" id="-14755">
		<tag k="name" v="Inntaket" />
		<tag k="place" v="locality" />
		<tag k="ssr:stedsnr" v="961295" />
	</node>
	<node lat="59.458855557862016" lon="11.610388882364287" id="-14757">
		<tag k="name" v="Seterle" />
		<tag k="place" v="locality" />
		<tag k="ssr:stedsnr" v="961829" />
	</node>
	<node lat="59.458047222492155" lon="11.59686110853432" id="-14761">
		<tag k="name" v="Kullkleva" />
		<tag k="place" v="locality" />
		<tag k="ssr:stedsnr" v="961792" />
	</node>
	<node lat="59.403591671131856" lon="11.647755551119449" id="-14779">
		<tag k="name" v="Svelteroa" />
		<tag k="place" v="locality" />
		<tag k="ssr:stedsnr" v="962491" />
	</node>
	<node lat="59.45447500340024" lon="11.63562499898488" id="-14780">
		<tag k="name" v="Jarskleva" />
		<tag k="place" v="locality" />
		<tag k="ssr:stedsnr" v="962493" />
	</node>
	<node lat="59.61009166369899" lon="11.605736119587425" id="-14790">
		<tag k="loc_name" v="Veinemoen nedre" />
		<tag k="name" v="Veinemo" />
		<tag k="place" v="locality" />
		<tag k="ssr:stedsnr" v="962907" />
	</node>
	<node lat="59.640966174617056" lon="11.605127628350434" id="-14808">
		<tag k="name" v="Dalen" />
		<tag k="place" v="locality" />
		<tag k="ssr:stedsnr" v="3273" />
	</node>
	<node lat="59.36238055660411" lon="11.79106667464648" id="-14831">
		<tag k="name" v="Linemosen" />
		<tag k="place" v="locality" />
		<tag k="ssr:stedsnr" v="51894" />
	</node>
	<node lat="59.45181944857543" lon="11.590577777191607" id="-14837">
		<tag k="name" v="Feltspaten" />
		<tag k="place" v="locality" />
		<tag k="ssr:stedsnr" v="51811" />
	</node>
	<node lat="59.3564388881241" lon="11.75153055618708" id="-14841">
		<tag k="name" v="Vinterstø" />
		<tag k="place" v="locality" />
		<tag k="ssr:stedsnr" v="51830" />
	</node>
	<node lat="59.354397224497625" lon="11.759705547699332" id="-14842">
		<tag k="name" v="Hestesprengen" />
		<tag k="place" v="locality" />
		<tag k="ssr:stedsnr" v="51831" />
	</node>
	<node lat="59.3523222230068" lon="11.584344437894165" id="-14854">
		<tag k="name" v="Fleseren" />
		<tag k="place" v="locality" />
		<tag k="ssr:stedsnr" v="52098" />
	</node>
	<node lat="59.668927780187275" lon="11.665769448168371" id="-14859">
		<tag k="name" v="Orregrana" />
		<tag k="place" v="locality" />
		<tag k="ssr:stedsnr" v="52385" />
	</node>
	<node lat="59.59281389134537" lon="11.563500003023867" id="-14868">
		<tag k="name" v="Homannshaugen" />
		<tag k="place" v="locality" />
		<tag k="ssr:stedsnr" v="52486" />
	</node>
	<node lat="59.50438889285113" lon="11.699238888620217" id="-14870">
		<tag k="name" v="Skåbommen" />
		<tag k="place" v="locality" />
		<tag k="ssr:stedsnr" v="52234" />
	</node>
	<node lat="59.52665555256884" lon="11.685172213477884" id="-14874">
		<tag k="name" v="Grand hotell" />
		<tag k="place" v="locality" />
		<tag k="ssr:stedsnr" v="52329" />
	</node>
	<node lat="59.405852776813745" lon="11.647069451368795" id="-14879">
		<tag k="name" v="Perebråten" />
		<tag k="place" v="locality" />
		<tag k="ssr:stedsnr" v="52455" />
	</node>
	<node lat="59.51137499861367" lon="11.61724166698291" id="-14880">
		<tag k="name" v="Viksenga" />
		<tag k="place" v="locality" />
		<tag k="ssr:stedsnr" v="52463" />
	</node>
	<node lat="59.54335000118552" lon="11.541213889765523" id="-14883">
		<tag k="name" v="Svingbakken" />
		<tag k="place" v="locality" />
		<tag k="ssr:stedsnr" v="52548" />
	</node>
	<node lat="59.614036109057125" lon="11.532955562743753" id="-14891">
		<tag k="name" v="Skjoldenhytta" />
		<tag k="place" v="locality" />
		<tag k="ssr:stedsnr" v="52493" />
	</node>
	<node lat="59.60139444791405" lon="11.631366674195512" id="-14900">
		<tag k="name" v="Kjone" />
		<tag k="place" v="locality" />
		<tag k="ssr:stedsnr" v="52651" />
	</node>
	<node lat="59.506791665737886" lon="11.709080546861246" id="-14907">
		<tag k="name" v="Torgmosen" />
		<tag k="place" v="locality" />
		<tag k="ssr:stedsnr" v="53031" />
	</node>
	<node lat="59.42239722532331" lon="11.599047213683825" id="-14936">
		<tag k="name" v="Larsbrenna" />
		<tag k="place" v="locality" />
		<tag k="ssr:stedsnr" v="112788" />
	</node>
	<node lat="59.41810277936035" lon="11.75195000108189" id="-14939">
		<tag k="name" v="Inntaket" />
		<tag k="place" v="locality" />
		<tag k="ssr:stedsnr" v="112917" />
	</node>
	<node lat="59.629397226333765" lon="11.603188896121194" id="-14944">
		<tag k="name" v="Hestehagevelta" />
		<tag k="place" v="locality" />
		<tag k="ssr:stedsnr" v="113138" />
	</node>
	<node lat="59.35268055372296" lon="11.705725004863448" id="-14955">
		<tag k="name" v="Brygga" />
		<tag k="place" v="locality" />
		<tag k="ssr:stedsnr" v="112350" />
	</node>
	<node lat="59.53554444842101" lon="11.57368889474842" id="-14958">
		<tag k="name" v="Ødegården" />
		<tag k="place" v="locality" />
		<tag k="ssr:stedsnr" v="112437" />
	</node>
	<node lat="59.323761111761634" lon="11.808311115475101" id="-14960">
		<tag k="name" v="Halmstad" />
		<tag k="place" v="locality" />
		<tag k="ssr:stedsnr" v="112495" />
	</node>
	<node lat="59.58178055195455" lon="11.546966661986502" id="-14975">
		<tag k="name" v="Sandgrava" />
		<tag k="place" v="locality" />
		<tag k="ssr:stedsnr" v="113196" />
	</node>
	<node lat="59.65115833363451" lon="11.681097216968961" id="-14980">
		<tag k="name" v="Tiuren" />
		<tag k="place" v="locality" />
		<tag k="ssr:stedsnr" v="113426" />
	</node>
	<node lat="59.452388886937946" lon="11.639344446074022" id="-14997">
		<tag k="name" v="Kalveroa" />
		<tag k="place" v="locality" />
		<tag k="ssr:stedsnr" v="113492" />
	</node>
	<node lat="59.465869440432634" lon="11.752780550693993" id="-15006">
		<tag k="name" v="Nordre Brenna" />
		<tag k="place" v="locality" />
		<tag k="ssr:stedsnr" v="113899" />
	</node>
	<node lat="59.469941662309125" lon="11.747922226974707" id="-15007">
		<tag k="name" v="Reveberget" />
		<tag k="place" v="locality" />
		<tag k="ssr:stedsnr" v="113900" />
	</node>
	<node lat="59.601094440826415" lon="11.587916668679636" id="-15011">
=======
<osm generator="osmapis" version="0.6">
	<node id="-237562" lat="59.5736388892" lon="11.6199361099">
		<tag k="name" v="Ødegård" />
		<tag k="place" v="locality" />
		<tag k="ssr:stedsnr" v="962736" />
	</node>
	<node id="-237553" lat="59.4544750034" lon="11.635624999">
		<tag k="name" v="Jarskleva" />
		<tag k="place" v="locality" />
		<tag k="ssr:stedsnr" v="962493" />
	</node>
	<node id="-237552" lat="59.4035916711" lon="11.6477555511">
		<tag k="name" v="Svelteroa" />
		<tag k="place" v="locality" />
		<tag k="ssr:stedsnr" v="962491" />
	</node>
	<node id="-235495" lat="59.5880388932" lon="11.5888083344">
		<tag k="name" v="Sofienlund" />
		<tag k="place" v="locality" />
		<tag k="ssr:stedsnr" v="477536" />
	</node>
	<node id="-237537" lat="59.6355361142" lon="11.5403583326">
		<tag k="name" v="Torget" />
		<tag k="place" v="locality" />
		<tag k="ssr:stedsnr" v="962239" />
	</node>
	<node id="-237536" lat="59.6329750037" lon="11.5426666663">
		<tag k="name" v="Hølbekk" />
		<tag k="place" v="locality" />
		<tag k="ssr:stedsnr" v="962238" />
	</node>
	<node id="-237535" lat="59.5195472239" lon="11.6857388856">
		<tag k="name" v="Hansehytta" />
		<tag k="place" v="locality" />
		<tag k="ssr:stedsnr" v="962336" />
	</node>
	<node id="-235483" lat="59.5664388876" lon="11.6658888869">
		<tag k="name" v="Høgsetet" />
		<tag k="place" v="locality" />
		<tag k="ssr:stedsnr" v="477397" />
	</node>
	<node id="-237530" lat="59.5650055514" lon="11.5723444482">
		<tag k="name" v="Berget" />
		<tag k="place" v="locality" />
		<tag k="ssr:stedsnr" v="962230" />
	</node>
	<node id="-237526" lat="59.575905556" lon="11.5251638841">
		<tag k="name" v="Tunskau" />
		<tag k="place" v="locality" />
		<tag k="ssr:stedsnr" v="962222" />
	</node>
	<node id="-237524" lat="59.5852999981" lon="11.5511666733">
		<tag k="name" v="Stinastua" />
		<tag k="place" v="locality" />
		<tag k="ssr:stedsnr" v="962182" />
	</node>
	<node id="-235472" lat="59.5953833328" lon="11.6359277764">
		<tag k="name" v="Langbråteleet" />
		<tag k="place" v="locality" />
		<tag k="ssr:stedsnr" v="477293" />
	</node>
	<node id="-237518" lat="59.4588555579" lon="11.6103888824">
		<tag k="name" v="Seterle" />
		<tag k="place" v="locality" />
		<tag k="ssr:stedsnr" v="961829" />
	</node>
	<node id="-237515" lat="59.4580472225" lon="11.5968611085">
		<tag k="name" v="Kullkleva" />
		<tag k="place" v="locality" />
		<tag k="ssr:stedsnr" v="961792" />
	</node>
	<node id="-237514" lat="59.373144441" lon="11.6959805591">
		<tag k="name" v="Strutehytta" />
		<tag k="place" v="locality" />
		<tag k="ssr:stedsnr" v="961309" />
	</node>
	<node id="-237510" lat="59.3713527816" lon="11.6296444371">
		<tag k="name" v="Inntaket" />
		<tag k="place" v="locality" />
		<tag k="ssr:stedsnr" v="961295" />
	</node>
	<node id="-237503" lat="59.596497221" lon="11.6135277729">
		<tag k="amenity" v="community_centre" />
		<tag k="name" v="Bondestua" />
		<tag k="ssr:stedsnr" v="854447" />
	</node>
	<node id="-235452" lat="59.3742638893" lon="11.7757916602">
		<tag k="name" v="Gjeta" />
		<tag k="place" v="locality" />
		<tag k="ssr:stedsnr" v="476987" />
	</node>
	<node id="-237487" lat="59.6463888867" lon="11.6884916751">
		<tag k="name" v="Veatorget" />
		<tag k="place" v="locality" />
		<tag k="ssr:stedsnr" v="853233" />
	</node>
	<node id="-235165" lat="59.5627805565" lon="11.6558638864">
		<tag k="name" v="Kastet" />
		<tag k="place" v="locality" />
		<tag k="ssr:stedsnr" v="53412" />
	</node>
	<node id="-235431" lat="59.665102781" lon="11.7069333365">
		<tag k="name" v="Snøplogskiftet" />
		<tag k="place" v="locality" />
		<tag k="ssr:stedsnr" v="476328" />
	</node>
	<node id="-237478" lat="59.5573305513" lon="11.6516805498">
		<tag k="name" v="Håby" />
		<tag k="place" v="locality" />
		<tag k="ssr:stedsnr" v="842397" />
	</node>
	<node id="-237476" lat="59.3876749977" lon="11.5998055639">
		<tag k="name" v="Langetjernkleva" />
		<tag k="place" v="locality" />
		<tag k="ssr:stedsnr" v="842092" />
	</node>
	<node id="-235420" lat="59.493586108" lon="11.6328611169">
		<tag k="name" v="Kverndalshaugen" />
		<tag k="place" v="locality" />
		<tag k="ssr:stedsnr" v="476204" />
	</node>
	<node id="-235417" lat="59.5027555562" lon="11.6237138901">
		<tag k="name" v="Mikkelberg" />
		<tag k="place" v="locality" />
		<tag k="ssr:stedsnr" v="476192" />
	</node>
	<node id="-237464" lat="59.4749999964" lon="11.7454361161">
		<tag k="name" v="Øvre Håbybakkene" />
		<tag k="place" v="locality" />
		<tag k="ssr:stedsnr" v="841910" />
	</node>
	<node id="-235412" lat="59.3234583332" lon="11.6031416675">
		<tag k="name" v="Nøtteholtet" />
		<tag k="place" v="locality" />
		<tag k="ssr:stedsnr" v="476126" />
	</node>
	<node id="-237459" lat="59.3664250014" lon="11.7830388869">
		<tag k="name" v="Melkebråten" />
		<tag k="place" v="locality" />
		<tag k="ssr:stedsnr" v="841987" />
	</node>
	<node id="-237458" lat="59.481183334" lon="11.6495916713">
		<tag k="name" v="Tippesletta" />
		<tag k="place" v="locality" />
		<tag k="ssr:stedsnr" v="841740" />
	</node>
	<node id="-237452" lat="59.4471916703" lon="11.717030554">
		<tag k="name" v="Høkelund" />
		<tag k="place" v="locality" />
		<tag k="ssr:stedsnr" v="841699" />
	</node>
	<node id="-237450" lat="59.6086333309" lon="11.525686117">
		<tag k="name" v="Damjordet" />
		<tag k="place" v="locality" />
		<tag k="ssr:stedsnr" v="841530" />
	</node>
	<node id="-237449" lat="59.64167778" lon="11.644955557">
		<tag k="alt_name" v="Vaet" />
		<tag k="name" v="Vadet" />
		<tag k="place" v="locality" />
		<tag k="ssr:stedsnr" v="841529" />
	</node>
	<node id="-237448" lat="59.6411138883" lon="11.6546722301">
		<tag k="name" v="Eggesteinene" />
		<tag k="place" v="locality" />
		<tag k="ssr:stedsnr" v="841525" />
	</node>
	<node id="-237444" lat="59.5995805553" lon="11.5601361042">
		<tag k="name" v="Veiby" />
		<tag k="place" v="locality" />
		<tag k="ssr:stedsnr" v="841517" />
	</node>
	<node id="-237434" lat="59.3317083337" lon="11.7052861123">
		<tag k="name" v="Bjørnstad" />
		<tag k="place" v="locality" />
		<tag k="ssr:stedsnr" v="841433" />
	</node>
	<node id="-237433" lat="59.6569944404" lon="11.693158331">
		<tag k="name" v="Fjellstubakken" />
		<tag k="place" v="locality" />
		<tag k="ssr:stedsnr" v="841430" />
	</node>
	<node id="-237429" lat="59.3224388853" lon="11.8150222153">
		<tag k="name" v="Demmarydningen" />
		<tag k="place" v="locality" />
		<tag k="ssr:stedsnr" v="841409" />
	</node>
	<node id="-235380" lat="59.3223305572" lon="11.7970805643">
		<tag k="name" v="Hammerkastet" />
		<tag k="place" v="locality" />
		<tag k="ssr:stedsnr" v="233509" />
	</node>
	<node id="-237423" lat="59.5651527815" lon="11.5711527727">
		<tag k="name" v="Myrås" />
		<tag k="place" v="locality" />
		<tag k="ssr:stedsnr" v="841248" />
	</node>
	<node id="-235373" lat="59.4641944429" lon="11.7541972137">
		<tag k="name" v="Vestre Brenna" />
		<tag k="place" v="locality" />
		<tag k="ssr:stedsnr" v="295917" />
	</node>
	<node id="-237419" lat="59.6222055591" lon="11.5614138816">
		<tag k="alt_name" v="Bråten nordre" />
		<tag k="name" v="Nordre Bråten" />
		<tag k="place" v="locality" />
		<tag k="ssr:stedsnr" v="841237" />
	</node>
	<node id="-237418" lat="59.6227555584" lon="11.5663333306">
		<tag k="name" v="Torebråten" />
		<tag k="place" v="locality" />
		<tag k="ssr:stedsnr" v="841235" />
	</node>
	<node id="-235364" lat="59.4716361151" lon="11.6542638954">
		<tag k="name" v="Tittut" />
		<tag k="place" v="locality" />
		<tag k="ssr:stedsnr" v="295713" />
	</node>
	<node id="-237404" lat="59.4632583293" lon="11.7151611187">
		<tag k="name" v="Bergby" />
		<tag k="place" v="locality" />
		<tag k="ssr:stedsnr" v="841032" />
	</node>
	<node id="-237403" lat="59.374224998" lon="11.7699805543">
		<tag k="name" v="Fosbystykket" />
		<tag k="place" v="locality" />
		<tag k="ssr:stedsnr" v="840984" />
	</node>
	<node id="-237402" lat="59.3725277781" lon="11.7757916715">
		<tag k="name" v="Posemosen" />
		<tag k="place" v="locality" />
		<tag k="ssr:stedsnr" v="840981" />
	</node>
	<node id="-237392" lat="59.3677416677" lon="11.6229416715">
		<tag k="name" v="Hytta" />
		<tag k="place" v="locality" />
		<tag k="ssr:stedsnr" v="840291" />
	</node>
	<node id="-235331" lat="59.5147138871" lon="11.6742166746">
		<tag k="name" v="Østby" />
		<tag k="place" v="locality" />
		<tag k="ssr:stedsnr" v="295361" />
	</node>
	<node id="-235325" lat="59.5778638896" lon="11.5506555622">
		<tag k="name" v="Halvorshytta" />
		<tag k="place" v="locality" />
		<tag k="ssr:stedsnr" v="295229" />
	</node>
	<node id="-235321" lat="59.5874722247" lon="11.5430388968">
		<tag k="name" v="Klerudbråten" />
		<tag k="place" v="locality" />
		<tag k="ssr:stedsnr" v="295177" />
	</node>
	<node id="-235317" lat="59.3374166696" lon="11.5780055475">
		<tag k="name" v="Haugen" />
		<tag k="place" v="locality" />
		<tag k="ssr:stedsnr" v="295128" />
	</node>
	<node id="-235316" lat="59.3784916698" lon="11.6057388858">
		<tag k="loc_name" v="Holtesetret" />
		<tag k="name" v="Holtesætre" />
		<tag k="place" v="locality" />
		<tag k="ssr:stedsnr" v="295089" />
	</node>
	<node id="-235313" lat="59.5549277807" lon="11.5712388972">
		<tag k="name" v="Lybekk" />
		<tag k="place" v="locality" />
		<tag k="ssr:stedsnr" v="295066" />
	</node>
	<node id="-235309" lat="59.4920305587" lon="11.6145944493">
		<tag k="name" v="Torget" />
		<tag k="place" v="locality" />
		<tag k="ssr:stedsnr" v="294945" />
	</node>
	<node id="-237354" lat="59.5194277752" lon="11.7097055525">
		<tag k="name" v="Hestestallene" />
		<tag k="place" v="locality" />
		<tag k="ssr:stedsnr" v="781363" />
	</node>
	<node id="-235299" lat="59.3951277754" lon="11.6416694396">
		<tag k="name" v="Svarverud" />
		<tag k="place" v="locality" />
		<tag k="ssr:stedsnr" v="294820" />
	</node>
	<node id="-235295" lat="59.4513583332" lon="11.6168361103">
		<tag k="name" v="Sagtangen" />
		<tag k="place" v="locality" />
		<tag k="ssr:stedsnr" v="294812" />
	</node>
	<node id="-237342" lat="59.4946694423" lon="11.5331361034">
		<tag k="name" v="Vaktmesterposten" />
		<tag k="place" v="locality" />
		<tag k="ssr:stedsnr" v="780941" />
	</node>
	<node id="-237341" lat="59.6161222215" lon="11.5692138955">
		<tag k="name" v="Hagahaugen" />
		<tag k="place" v="locality" />
		<tag k="ssr:stedsnr" v="780939" />
	</node>
	<node id="-237340" lat="59.5126305534" lon="11.5648722182">
		<tag k="name" v="Stormoen" />
		<tag k="place" v="locality" />
		<tag k="ssr:stedsnr" v="780924" />
	</node>
	<node id="-237339" lat="59.6013444469" lon="11.6145583334">
		<tag k="name" v="Morteberget" />
		<tag k="place" v="locality" />
		<tag k="ssr:stedsnr" v="780901" />
	</node>
	<node id="-235286" lat="59.4288194432" lon="11.6323583309">
		<tag k="name" v="Kjøkkenet" />
		<tag k="place" v="locality" />
		<tag k="ssr:stedsnr" v="294634" />
	</node>
	<node id="-235284" lat="59.4094305577" lon="11.6904416605">
		<tag k="name" v="Moseby" />
		<tag k="place" v="locality" />
		<tag k="ssr:stedsnr" v="294610" />
	</node>
	<node id="-235282" lat="59.4337555513" lon="11.6326166655">
		<tag k="name" v="Paradis" />
		<tag k="place" v="locality" />
		<tag k="ssr:stedsnr" v="294586" />
	</node>
	<node id="-235277" lat="59.329066671" lon="11.8097333326">
		<tag k="name" v="Blindtarmen" />
		<tag k="place" v="locality" />
		<tag k="ssr:stedsnr" v="294421" />
	</node>
	<node id="-235274" lat="59.5487861107" lon="11.6445500074">
		<tag k="name" v="Sandvad" />
		<tag k="place" v="locality" />
		<tag k="ssr:stedsnr" v="294410" />
	</node>
	<node id="-237313" lat="59.4092305575" lon="11.6625777694">
		<tag k="name" v="Gjøngerud" />
		<tag k="place" v="locality" />
		<tag k="ssr:stedsnr" v="780500" />
	</node>
	<node id="-237312" lat="59.4149527815" lon="11.6293777722">
		<tag k="name" v="Store Svenskekleva" />
		<tag k="place" v="locality" />
		<tag k="ssr:stedsnr" v="780494" />
	</node>
	<node id="-237309" lat="59.414972222" lon="11.635513886">
		<tag k="name" v="Engebråten" />
		<tag k="place" v="locality" />
		<tag k="ssr:stedsnr" v="780488" />
	</node>
	<node id="-235260" lat="59.6452666686" lon="11.6699249921">
		<tag k="name" v="Komanskoen" />
		<tag k="place" v="locality" />
		<tag k="ssr:stedsnr" v="174515" />
	</node>
	<node id="-237307" lat="59.3773361123" lon="11.671274998">
		<tag k="name" v="Lerdal" />
		<tag k="place" v="locality" />
		<tag k="ssr:stedsnr" v="780473" />
	</node>
	<node id="-237306" lat="59.3910694413" lon="11.6868000047">
		<tag k="name" v="Tangen" />
		<tag k="place" v="locality" />
		<tag k="ssr:stedsnr" v="780470" />
	</node>
	<node id="-237302" lat="59.6004888885" lon="11.5314388812">
		<tag k="name" v="Røllerud" />
		<tag k="place" v="locality" />
		<tag k="ssr:stedsnr" v="780464" />
	</node>
	<node id="-237299" lat="59.4579499977" lon="11.6356833259">
		<tag k="name" v="Fossumhagen" />
		<tag k="place" v="locality" />
		<tag k="ssr:stedsnr" v="780457" />
	</node>
	<node id="-237298" lat="59.5931222248" lon="11.5268611133">
		<tag k="name" v="Sandemhytta" />
		<tag k="place" v="locality" />
		<tag k="ssr:stedsnr" v="780452" />
	</node>
	<node id="-235249" lat="59.4790416661" lon="11.7360499974">
		<tag k="name" v="Håbybakkene" />
		<tag k="place" v="locality" />
		<tag k="ssr:stedsnr" v="113915" />
	</node>
	<node id="-235239" lat="59.338419444" lon="11.6867027699">
		<tag k="name" v="Hungersnippen" />
		<tag k="place" v="locality" />
		<tag k="ssr:stedsnr" v="113304" />
	</node>
	<node id="-235231" lat="59.5000972211" lon="11.6357194412">
		<tag k="name" v="Paradis" />
		<tag k="place" v="locality" />
		<tag k="ssr:stedsnr" v="113214" />
	</node>
	<node id="-235230" lat="59.4929388926" lon="11.6262722243">
		<tag k="name" v="Slaberget" />
		<tag k="place" v="locality" />
		<tag k="ssr:stedsnr" v="113211" />
	</node>
	<node id="-235228" lat="59.4181027794" lon="11.7519500011">
		<tag k="name" v="Inntaket" />
		<tag k="place" v="locality" />
		<tag k="ssr:stedsnr" v="112917" />
	</node>
	<node id="-237271" lat="59.6160722227" lon="11.543286106">
		<tag k="name" v="Fokkenborgbråten" />
		<tag k="place" v="locality" />
		<tag k="ssr:stedsnr" v="780227" />
	</node>
	<node id="-237270" lat="59.580611108" lon="11.5243277798">
		<tag k="name" v="Kattisa" />
		<tag k="place" v="locality" />
		<tag k="ssr:stedsnr" v="780224" />
	</node>
	<node id="-235221" lat="59.3553055561" lon="11.7613444419">
		<tag k="name" v="Vedtorvet" />
		<tag k="place" v="locality" />
		<tag k="ssr:stedsnr" v="112807" />
	</node>
	<node id="-237268" lat="59.574872222" lon="11.5446722283">
		<tag k="name" v="Kallehytta" />
		<tag k="place" v="locality" />
		<tag k="ssr:stedsnr" v="780215" />
	</node>
	<node id="-235218" lat="59.5355444484" lon="11.5736888947">
		<tag k="name" v="Ødegården" />
		<tag k="place" v="locality" />
		<tag k="ssr:stedsnr" v="112437" />
	</node>
	<node id="-235216" lat="59.5394805521" lon="11.6775055497">
		<tag k="name" v="Måstadbråten" />
		<tag k="place" v="locality" />
		<tag k="ssr:stedsnr" v="112410" />
	</node>
	<node id="-237257" lat="59.4410500012" lon="11.758366661">
		<tag k="name" v="Djupekost" />
		<tag k="place" v="locality" />
		<tag k="ssr:stedsnr" v="779918" />
	</node>
	<node id="-237254" lat="59.3957361087" lon="11.7669972138">
		<tag k="name" v="Østre Ekenes" />
		<tag k="place" v="locality" />
		<tag k="ssr:stedsnr" v="779893" />
	</node>
	<node id="-237252" lat="59.3707944409" lon="11.7887833319">
		<tag k="name" v="Kjelleren" />
		<tag k="place" v="locality" />
		<tag k="ssr:stedsnr" v="779882" />
	</node>
	<node id="-237251" lat="59.3839500001" lon="11.7490388873">
		<tag k="name" v="Rødklev" />
		<tag k="place" v="locality" />
		<tag k="ssr:stedsnr" v="779877" />
	</node>
	<node id="-235199" lat="59.3979861088" lon="11.6304583267">
		<tag k="alt_name" v="Skogen" />
		<tag k="name" v="Østre Skogen" />
		<tag k="place" v="locality" />
		<tag k="ssr:stedsnr" v="246507" />
	</node>
	<node id="-237246" lat="59.4554638898" lon="11.5788916689">
		<tag k="name" v="Kastbakken" />
		<tag k="place" v="locality" />
		<tag k="ssr:stedsnr" v="779757" />
	</node>
	<node id="-237245" lat="59.425594447" lon="11.6487166607">
		<tag k="name" v="Karelske nes" />
		<tag k="place" v="locality" />
		<tag k="ssr:stedsnr" v="779638" />
	</node>
	<node id="-237243" lat="59.5381083361" lon="11.5671277845">
		<tag k="name" v="Tøften" />
		<tag k="place" v="locality" />
		<tag k="ssr:stedsnr" v="779487" />
	</node>
	<node id="-237242" lat="59.5280944464" lon="11.5789027697">
		<tag k="name" v="Kamperudneset" />
		<tag k="place" v="locality" />
		<tag k="ssr:stedsnr" v="779473" />
	</node>
	<node id="-237240" lat="59.5383555576" lon="11.6092333288">
		<tag k="name" v="Verket" />
		<tag k="place" v="locality" />
		<tag k="ssr:stedsnr" v="779453" />
	</node>
	<node id="-237239" lat="59.3683111096" lon="11.7010722217">
		<tag k="name" v="Strutevollen" />
		<tag k="place" v="locality" />
		<tag k="ssr:stedsnr" v="779314" />
	</node>
	<node id="-237238" lat="59.3751111127" lon="11.6388611077">
		<tag k="name" v="Sjursenga" />
		<tag k="place" v="locality" />
		<tag k="ssr:stedsnr" v="779303" />
	</node>
	<node id="-237213" lat="59.484216666" lon="11.645750002">
		<tag k="name" v="Karl Johans klev" />
		<tag k="place" v="locality" />
		<tag k="ssr:stedsnr" v="598729" />
	</node>
	<node id="-237210" lat="59.4694444417" lon="11.6498361164">
		<tag k="name" v="Lihammeren" />
		<tag k="place" v="locality" />
		<tag k="ssr:stedsnr" v="598683" />
	</node>
	<node id="-235151" lat="59.6030249989" lon="11.5846638823">
		<tag k="name" v="Hagan" />
		<tag k="place" v="locality" />
		<tag k="ssr:stedsnr" v="52909" />
	</node>
	<node id="-235145" lat="59.4712694442" lon="11.6461833269">
		<tag k="name" v="Nisseberget" />
		<tag k="place" v="locality" />
		<tag k="ssr:stedsnr" v="52667" />
	</node>
	<node id="-235144" lat="59.6013944479" lon="11.6313666742">
		<tag k="name" v="Kjone" />
		<tag k="place" v="locality" />
		<tag k="ssr:stedsnr" v="52651" />
	</node>
	<node id="-235137" lat="59.4058527768" lon="11.6470694514">
		<tag k="name" v="Perebråten" />
		<tag k="place" v="locality" />
		<tag k="ssr:stedsnr" v="52455" />
	</node>
	<node id="-237176" lat="59.5769277744" lon="11.5576694439">
		<tag k="name" v="Sandgrava" />
		<tag k="place" v="locality" />
		<tag k="ssr:stedsnr" v="598224" />
	</node>
	<node id="-237172" lat="59.4964000028" lon="11.6292638896">
		<tag k="name" v="Slaberget" />
		<tag k="place" v="locality" />
		<tag k="ssr:stedsnr" v="598210" />
	</node>
	<node id="-237171" lat="59.5887583303" lon="11.5415583363">
		<tag k="name" v="Nordbråten" />
		<tag k="place" v="locality" />
		<tag k="ssr:stedsnr" v="598183" />
	</node>
	<node id="-237167" lat="59.3411888862" lon="11.5884944512">
		<tag k="name" v="Bjørkeholtet" />
		<tag k="place" v="locality" />
		<tag k="ssr:stedsnr" v="598124" />
	</node>
	<node id="-237163" lat="59.641655552" lon="11.5633222137">
		<tag k="name" v="Veslefossen" />
		<tag k="place" v="locality" />
		<tag k="ssr:stedsnr" v="598085" />
	</node>
	<node id="-235111" lat="59.5130083339" lon="11.5593305488">
		<tag k="name" v="Falkesteinene" />
		<tag k="place" v="locality" />
		<tag k="ssr:stedsnr" v="234961" />
	</node>
	<node id="-237156" lat="59.5038361128" lon="11.6427083285">
		<tag k="name" v="Kolsand" />
		<tag k="place" v="locality" />
		<tag k="ssr:stedsnr" v="598003" />
	</node>
	<node id="-237153" lat="59.4940999982" lon="11.5572277719">
		<tag k="name" v="Virehølet" />
		<tag k="place" v="locality" />
		<tag k="ssr:stedsnr" v="597968" />
	</node>
	<node id="-237152" lat="59.5184861069" lon="11.5645194486">
		<tag k="name" v="Pålsehytta" />
		<tag k="place" v="locality" />
		<tag k="ssr:stedsnr" v="597962" />
	</node>
	<node id="-237151" lat="59.3322833324" lon="11.750033326">
		<tag k="name" v="Vestre Omvik" />
		<tag k="place" v="locality" />
		<tag k="ssr:stedsnr" v="597956" />
	</node>
	<node id="-237148" lat="59.4970805572" lon="11.601149997">
		<tag k="name" v="Torget" />
		<tag k="place" v="locality" />
		<tag k="ssr:stedsnr" v="597929" />
	</node>
	<node id="-237147" lat="59.4454277803" lon="11.7404083272">
		<tag k="name" v="Stenerud" />
		<tag k="place" v="locality" />
		<tag k="ssr:stedsnr" v="597928" />
	</node>
	<node id="-237146" lat="59.6060694444" lon="11.5929972138">
		<tag k="name" v="Nordholmen" />
		<tag k="place" v="locality" />
		<tag k="ssr:stedsnr" v="597926" />
	</node>
	<node id="-237142" lat="59.3583583329" lon="11.7943611028">
		<tag k="name" v="Danserfurumyra" />
		<tag k="place" v="locality" />
		<tag k="ssr:stedsnr" v="597894" />
	</node>
	<node id="-235088" lat="59.5980583291" lon="11.5205694425">
		<tag k="name" v="Skjåte" />
		<tag k="place" v="locality" />
		<tag k="ssr:stedsnr" v="234496" />
	</node>
	<node id="-235086" lat="59.5939777777" lon="11.5286083294">
		<tag k="name" v="Fintenfjell" />
		<tag k="place" v="locality" />
		<tag k="ssr:stedsnr" v="234493" />
	</node>
	<node id="-235084" lat="59.6188722255" lon="11.6641055622">
		<tag k="name" v="Ulfsbykastet" />
		<tag k="place" v="locality" />
		<tag k="ssr:stedsnr" v="234491" />
	</node>
	<node id="-237130" lat="59.4344555556" lon="11.6441555578">
		<tag k="name" v="Langebråten" />
		<tag k="place" v="locality" />
		<tag k="ssr:stedsnr" v="597629" />
	</node>
	<node id="-235075" lat="59.3302555587" lon="11.6182027801">
		<tag k="name" v="Fødselsfurua" />
		<tag k="place" v="locality" />
		<tag k="ssr:stedsnr" v="234417" />
	</node>
	<node id="-237122" lat="59.5105555533" lon="11.5720833341">
		<tag k="name" v="Delingsdråga" />
		<tag k="place" v="locality" />
		<tag k="ssr:stedsnr" v="597522" />
	</node>
	<node id="-235065" lat="59.3492000023" lon="11.6192916647">
		<tag k="name" v="Fugleleken" />
		<tag k="place" v="locality" />
		<tag k="ssr:stedsnr" v="234380" />
	</node>
	<node id="-235059" lat="59.4468583327" lon="11.6028666611">
		<tag k="name" v="Ulvedalen" />
		<tag k="place" v="locality" />
		<tag k="ssr:stedsnr" v="234303" />
	</node>
	<node id="-235052" lat="59.4924805566" lon="11.6364833281">
		<tag k="name" v="Mikkelvoll" />
		<tag k="place" v="locality" />
		<tag k="ssr:stedsnr" v="234206" />
	</node>
	<node id="-235031" lat="59.5593972181" lon="11.5964694384">
		<tag k="name" v="Jemtland" />
		<tag k="place" v="locality" />
		<tag k="ssr:stedsnr" v="234037" />
	</node>
	<node id="-235028" lat="59.6031222229" lon="11.5692666654">
		<tag k="name" v="Kattås" />
		<tag k="place" v="locality" />
		<tag k="ssr:stedsnr" v="233922" />
	</node>
	<node id="-235025" lat="59.6366611157" lon="11.6379777695">
		<tag k="name" v="Roligheta" />
		<tag k="place" v="locality" />
		<tag k="ssr:stedsnr" v="234516" />
	</node>
	<node id="-235023" lat="59.597791667" lon="11.5578888932">
		<tag k="name" v="Rabbåkeren" />
		<tag k="place" v="locality" />
		<tag k="ssr:stedsnr" v="234512" />
	</node>
	<node id="-235012" lat="59.4247027822" lon="11.6615888863">
		<tag k="name" v="Berkaskastet" />
		<tag k="place" v="locality" />
		<tag k="ssr:stedsnr" v="233665" />
	</node>
	<node id="-235011" lat="59.4375194413" lon="11.6610277698">
		<tag k="name" v="Kolstadkastet" />
		<tag k="place" v="locality" />
		<tag k="ssr:stedsnr" v="233663" />
	</node>
	<node id="-237055" lat="59.5248083324" lon="11.5736833419">
		<tag k="name" v="Bjørnlia" />
		<tag k="place" v="locality" />
		<tag k="ssr:stedsnr" v="538308" />
	</node>
	<node id="-235002" lat="59.3268527778" lon="11.7903138957">
		<tag k="name" v="Rødkastet" />
		<tag k="place" v="locality" />
		<tag k="ssr:stedsnr" v="233437" />
	</node>
	<node id="-234998" lat="59.3746861074" lon="11.6772999914">
		<tag k="name" v="Bjørnemyra" />
		<tag k="place" v="locality" />
		<tag k="ssr:stedsnr" v="233337" />
	</node>
	<node id="-237044" lat="59.5570861156" lon="11.5771388856">
		<tag k="name" v="Vesleenga" />
		<tag k="place" v="locality" />
		<tag k="ssr:stedsnr" v="538069" />
	</node>
	<node id="-237042" lat="59.4025194421" lon="11.6014888954">
		<tag k="name" v="Mjølkista" />
		<tag k="place" v="locality" />
		<tag k="ssr:stedsnr" v="538179" />
	</node>
	<node id="-237032" lat="59.4027305563" lon="11.7579111158">
		<tag k="name" v="Lindkjervvadet" />
		<tag k="place" v="locality" />
		<tag k="ssr:stedsnr" v="537881" />
	</node>
	<node id="-237021" lat="59.4575472241" lon="11.6199972281">
		<tag k="name" v="Teigen" />
		<tag k="place" v="locality" />
		<tag k="ssr:stedsnr" v="537787" />
	</node>
	<node id="-237017" lat="59.4428861087" lon="11.5830305509">
		<tag k="name" v="Klunkelia" />
		<tag k="place" v="locality" />
		<tag k="ssr:stedsnr" v="537768" />
	</node>
	<node id="-237013" lat="59.4188944459" lon="11.6321333315">
		<tag k="name" v="Langedråga" />
		<tag k="place" v="locality" />
		<tag k="ssr:stedsnr" v="537535" />
	</node>
	<node id="-237012" lat="59.4196027788" lon="11.6437722291">
		<tag k="name" v="Dulleklev" />
		<tag k="place" v="locality" />
		<tag k="ssr:stedsnr" v="537528" />
	</node>
	<node id="-237010" lat="59.4101805557" lon="11.6259222257">
		<tag k="name" v="Åsmundrudkleva" />
		<tag k="place" v="locality" />
		<tag k="ssr:stedsnr" v="537523" />
	</node>
	<node id="-236998" lat="59.5712916645" lon="11.627244449">
		<tag k="name" v="Bunes" />
		<tag k="place" v="locality" />
		<tag k="ssr:stedsnr" v="537455" />
	</node>
	<node id="-236991" lat="59.5425277734" lon="11.672633334">
		<tag k="name" v="Tobakksmoen" />
		<tag k="place" v="locality" />
		<tag k="ssr:stedsnr" v="537363" />
	</node>
	<node id="-236985" lat="59.4697777737" lon="11.7330583251">
		<tag k="name" v="Sætre" />
		<tag k="place" v="locality" />
		<tag k="ssr:stedsnr" v="537051" />
	</node>
	<node id="-236977" lat="59.5975722191" lon="11.6396277791">
		<tag k="name" v="Vabakkleet" />
		<tag k="place" v="locality" />
		<tag k="ssr:stedsnr" v="537262" />
	</node>
	<node id="-236976" lat="59.5744527815" lon="11.5560277707">
		<tag k="name" v="Skogsle" />
		<tag k="place" v="locality" />
		<tag k="ssr:stedsnr" v="537199" />
	</node>
	<node id="-236973" lat="59.3559583361" lon="11.6440250018">
		<tag k="name" v="Klevkas" />
		<tag k="place" v="locality" />
		<tag k="ssr:stedsnr" v="536306" />
	</node>
	<node id="-236972" lat="59.355797219" lon="11.6263111077">
		<tag k="name" v="Harelihølet" />
		<tag k="place" v="locality" />
		<tag k="ssr:stedsnr" v="536305" />
	</node>
	<node id="-236946" lat="59.4677444463" lon="11.72842778">
		<tag k="name" v="Kavlebrua" />
		<tag k="place" v="locality" />
		<tag k="ssr:stedsnr" v="427588" />
	</node>
	<node id="-235416" lat="59.341333335" lon="11.5794111058">
		<tag k="name" v="Søgårdsødegård" />
		<tag k="place" v="locality" />
		<tag k="ssr:stedsnr" v="476133" />
	</node>
	<node id="-236928" lat="59.373452782" lon="11.7614666683">
		<tag k="name" v="Runde mose" />
		<tag k="place" v="locality" />
		<tag k="ssr:stedsnr" v="416984" />
	</node>
	<node id="-236926" lat="59.6088805518" lon="11.6129277805">
		<tag k="name" v="Jåvallmoen" />
		<tag k="place" v="locality" />
		<tag k="ssr:stedsnr" v="416958" />
	</node>
	<node id="-236925" lat="59.6092472208" lon="11.6210249956">
		<tag k="name" v="Østre Lindtjernmosen" />
		<tag k="place" v="locality" />
		<tag k="ssr:stedsnr" v="416944" />
	</node>
	<node id="-236924" lat="59.6145166695" lon="11.5755277814">
		<tag k="name" v="Fjell" />
		<tag k="place" v="locality" />
		<tag k="ssr:stedsnr" v="416943" />
	</node>
	<node id="-236913" lat="59.6019138906" lon="11.5773277866">
		<tag k="name" v="Bråte" />
		<tag k="place" v="locality" />
		<tag k="ssr:stedsnr" v="416894" />
	</node>
	<node id="-236902" lat="59.469836112" lon="11.6499555557">
		<tag k="name" v="Søndre Fort" />
		<tag k="ssr:stedsnr" v="416668" />
		<tag k="tourism" v="attraction" />
	</node>
	<node id="-236891" lat="59.3264250036" lon="11.7914055535">
		<tag k="name" v="Hasledal" />
		<tag k="place" v="locality" />
		<tag k="ssr:stedsnr" v="416366" />
	</node>
	<node id="-236889" lat="59.5412666682" lon="11.6895027857">
		<tag k="name" v="Huer" />
		<tag k="place" v="locality" />
		<tag k="ssr:stedsnr" v="416362" />
	</node>
	<node id="-236884" lat="59.5992944437" lon="11.5536250075">
		<tag k="name" v="Nordby" />
		<tag k="place" v="locality" />
		<tag k="ssr:stedsnr" v="416483" />
	</node>
	<node id="-236880" lat="59.4265055595" lon="11.6871777771">
		<tag k="name" v="Trengselet" />
		<tag k="place" v="locality" />
		<tag k="ssr:stedsnr" v="416474" />
	</node>
	<node id="-236872" lat="59.4526833297" lon="11.6296083248">
		<tag k="name" v="Arnebråten" />
		<tag k="place" v="locality" />
		<tag k="ssr:stedsnr" v="416451" />
	</node>
	<node id="-236871" lat="59.5201611134" lon="11.6037944488">
		<tag k="name" v="Holoenga" />
		<tag k="place" v="locality" />
		<tag k="ssr:stedsnr" v="416444" />
	</node>
	<node id="-236862" lat="59.6377472187" lon="11.5411111027">
		<tag k="name" v="Kaln" />
		<tag k="place" v="locality" />
		<tag k="ssr:stedsnr" v="416075" />
	</node>
	<node id="-236861" lat="59.5542805545" lon="11.5684805631">
		<tag k="name" v="Leggerud" />
		<tag k="place" v="locality" />
		<tag k="ssr:stedsnr" v="416058" />
	</node>
	<node id="-236857" lat="59.4435527815" lon="11.7350527793">
		<tag k="name" v="Libakken" />
		<tag k="place" v="locality" />
		<tag k="ssr:stedsnr" v="415939" />
	</node>
	<node id="-236856" lat="59.4244777774" lon="11.745413893">
		<tag k="name" v="Ilebekk" />
		<tag k="place" v="locality" />
		<tag k="ssr:stedsnr" v="415938" />
	</node>
	<node id="-236850" lat="59.3599388924" lon="11.7517249955">
		<tag k="name" v="Elgpasset" />
		<tag k="place" v="locality" />
		<tag k="ssr:stedsnr" v="415837" />
	</node>
	<node id="-236849" lat="59.359486115" lon="11.7870277742">
		<tag k="name" v="Løytnantstømra" />
		<tag k="old_name" v="Løytnanstømra" />
		<tag k="place" v="locality" />
		<tag k="ssr:stedsnr" v="415835" />
	</node>
	<node id="-236848" lat="59.4572805522" lon="11.6051333271">
		<tag k="name" v="Liseter" />
		<tag k="place" v="locality" />
		<tag k="ssr:stedsnr" v="415831" />
	</node>
	<node id="-236847" lat="59.4500222178" lon="11.5860805581">
		<tag k="name" v="Frønesjøbakken" />
		<tag k="place" v="locality" />
		<tag k="ssr:stedsnr" v="415818" />
	</node>
	<node id="-236793" lat="59.5533250018" lon="11.6981111028">
		<tag k="name" v="Brenna" />
		<tag k="place" v="locality" />
		<tag k="ssr:stedsnr" v="356398" />
	</node>
	<node id="-236785" lat="59.593619445" lon="11.4929138881">
		<tag k="name" v="Tavlene" />
		<tag k="place" v="locality" />
		<tag k="ssr:stedsnr" v="356303" />
	</node>
	<node id="-236776" lat="59.4948861131" lon="11.5989861123">
		<tag k="name" v="Grønnli" />
		<tag k="place" v="locality" />
		<tag k="ssr:stedsnr" v="355907" />
	</node>
	<node id="-236774" lat="59.6045583309" lon="11.5867305573">
		<tag k="name" v="Lillehammer" />
		<tag k="place" v="locality" />
		<tag k="ssr:stedsnr" v="355893" />
	</node>
	<node id="-236764" lat="59.4770416707" lon="11.6397499952">
		<tag k="name" v="Store Utkikstårn" />
		<tag k="ssr:stedsnr" v="355722" />
		<tag k="tourism" v="viewpoint" />
	</node>
	<node id="-236748" lat="59.4171861105" lon="11.6402499986">
		<tag k="name" v="Myra" />
		<tag k="place" v="locality" />
		<tag k="ssr:stedsnr" v="355502" />
	</node>
	<node id="-236746" lat="59.4105305514" lon="11.6307805615">
		<tag k="name" v="Torvet" />
		<tag k="place" v="locality" />
		<tag k="ssr:stedsnr" v="355495" />
	</node>
	<node id="-236732" lat="59.4538361144" lon="11.6320972254">
		<tag k="name" v="Elvestad" />
		<tag k="place" v="locality" />
		<tag k="ssr:stedsnr" v="355461" />
	</node>
	<node id="-236712" lat="59.5445666702" lon="11.6762472282">
		<tag k="name" v="Dynepus" />
		<tag k="place" v="locality" />
		<tag k="ssr:stedsnr" v="355352" />
	</node>
	<node id="-236710" lat="59.6593916628" lon="11.7171611188">
		<tag k="name" v="Prestebordsand" />
		<tag k="place" v="locality" />
		<tag k="ssr:stedsnr" v="355304" />
	</node>
	<node id="-236700" lat="59.4846944409" lon="11.6456111121">
		<tag k="name" v="Søndre Kastet" />
		<tag k="place" v="locality" />
		<tag k="ssr:stedsnr" v="355235" />
	</node>
	<node id="-235375" lat="59.4650805565" lon="11.7359111049">
		<tag k="name" v="Reveberget" />
		<tag k="place" v="locality" />
		<tag k="ssr:stedsnr" v="295920" />
	</node>
	<node id="-236692" lat="59.6356777752" lon="11.6066916616">
		<tag k="name" v="Nyengen" />
		<tag k="place" v="locality" />
		<tag k="ssr:stedsnr" v="355108" />
	</node>
	<node id="-236675" lat="59.5343000002" lon="11.6021277796">
		<tag k="name" v="Elvestad" />
		<tag k="place" v="locality" />
		<tag k="ssr:stedsnr" v="354451" />
	</node>
	<node id="-236666" lat="59.5592416683" lon="11.5652138945">
		<tag k="alt_name" v="Smeby vestre" />
		<tag k="name" v="Vestre Smeby" />
		<tag k="place" v="locality" />
		<tag k="ssr:stedsnr" v="329057" />
	</node>
	<node id="-236654" lat="59.5031416658" lon="11.6277194482">
		<tag k="amenity" v="place_of_worship" />
		<tag k="fixme" v="specify religion=*, denomination=*, building=* etc" />
		<tag k="name" v="Sjøglimt" />
		<tag k="ssr:stedsnr" v="307383" />
	</node>
	<node id="-236646" lat="59.4198222194" lon="11.6639388905">
		<tag k="amenity" v="place_of_worship" />
		<tag k="denomination" v="lutheran" />
		<tag k="name" v="Øymark kirke" />
		<tag k="religion" v="christian" />
		<tag k="ssr:stedsnr" v="306473" />
	</node>
	<node id="-236644" lat="59.5641777793" lon="11.5600305619">
		<tag k="name" v="Ilerud" />
		<tag k="place" v="locality" />
		<tag k="ssr:stedsnr" v="189044" />
	</node>
	<node id="-236581" lat="59.3344861092" lon="11.5961777768">
		<tag k="name" v="Revesnaret" />
		<tag k="place" v="locality" />
		<tag k="ssr:stedsnr" v="174141" />
	</node>
	<node id="-236574" lat="59.3678916673" lon="11.7750083356">
		<tag k="name" v="Skatemyrene" />
		<tag k="place" v="locality" />
		<tag k="ssr:stedsnr" v="173994" />
	</node>
	<node id="-236573" lat="59.5231194424" lon="11.5965083342">
		<tag k="name" v="Grantapp" />
		<tag k="place" v="locality" />
		<tag k="ssr:stedsnr" v="173964" />
	</node>
	<node id="-235354" lat="59.60599167" lon="11.5405916583">
		<tag k="name" v="Bakke" />
		<tag k="place" v="locality" />
		<tag k="ssr:stedsnr" v="295547" />
	</node>
	<node id="-236563" lat="59.6081666703" lon="11.5891166624">
		<tag k="name" v="Nebba" />
		<tag k="place" v="locality" />
		<tag k="ssr:stedsnr" v="173912" />
	</node>
	<node id="-236561" lat="59.6066166681" lon="11.5825805483">
		<tag k="name" v="Tomtene" />
		<tag k="place" v="locality" />
		<tag k="ssr:stedsnr" v="173904" />
	</node>
	<node id="-236558" lat="59.3603749981" lon="11.7962694374">
		<tag k="name" v="Dammyr" />
		<tag k="place" v="locality" />
		<tag k="ssr:stedsnr" v="173881" />
	</node>
	<node id="-236550" lat="59.4420166643" lon="11.5960027853">
		<tag k="name" v="Elgekleva" />
		<tag k="place" v="locality" />
		<tag k="ssr:stedsnr" v="173771" />
	</node>
	<node id="-236547" lat="59.5737027771" lon="11.6117749979">
		<tag k="name" v="Kjempegrava" />
		<tag k="place" v="locality" />
		<tag k="ssr:stedsnr" v="173714" />
	</node>
	<node id="-236529" lat="59.3311388895" lon="11.6318638898">
		<tag k="name" v="Saghytta" />
		<tag k="place" v="locality" />
		<tag k="ssr:stedsnr" v="173372" />
	</node>
	<node id="-236528" lat="59.332244446" lon="11.6233138974">
		<tag k="name" v="Kjerringløkka" />
		<tag k="place" v="locality" />
		<tag k="ssr:stedsnr" v="173371" />
	</node>
	<node id="-236526" lat="59.330900004" lon="11.7841583265">
		<tag k="name" v="Klokkernebba" />
		<tag k="place" v="locality" />
		<tag k="ssr:stedsnr" v="173366" />
	</node>
	<node id="-236523" lat="59.5486222194" lon="11.6680916717">
		<tag k="name" v="Lauvbråta" />
		<tag k="place" v="locality" />
		<tag k="ssr:stedsnr" v="173353" />
	</node>
	<node id="-236521" lat="59.3463555542" lon="11.6360305548">
		<tag k="name" v="Langeklev" />
		<tag k="place" v="locality" />
		<tag k="ssr:stedsnr" v="173345" />
	</node>
	<node id="-236520" lat="59.6339805596" lon="11.5380416687">
		<tag k="name" v="Måsan" />
		<tag k="place" v="locality" />
		<tag k="ssr:stedsnr" v="173239" />
	</node>
	<node id="-236518" lat="59.6269666653" lon="11.558230553">
		<tag k="name" v="Fjellsleet" />
		<tag k="place" v="locality" />
		<tag k="ssr:stedsnr" v="173215" />
	</node>
	<node id="-236517" lat="59.6335500005" lon="11.5504805627">
		<tag k="name" v="Bråstupen" />
		<tag k="place" v="locality" />
		<tag k="ssr:stedsnr" v="173214" />
	</node>
	<node id="-236516" lat="59.579777782" lon="11.5524305527">
		<tag k="name" v="Elvestad" />
		<tag k="place" v="locality" />
		<tag k="ssr:stedsnr" v="173209" />
	</node>
	<node id="-236505" lat="59.3890416676" lon="11.6360166627">
		<tag k="name" v="Korshogne grana" />
		<tag k="place" v="locality" />
		<tag k="ssr:stedsnr" v="172852" />
	</node>
	<node id="-236496" lat="59.3648138862" lon="11.6304222212">
		<tag k="name" v="Brodal" />
		<tag k="place" v="locality" />
		<tag k="ssr:stedsnr" v="172316" />
	</node>
	<node id="-236493" lat="59.4136083305" lon="11.6505305526">
		<tag k="name" v="Revehula" />
		<tag k="place" v="locality" />
		<tag k="ssr:stedsnr" v="173501" />
	</node>
	<node id="-236489" lat="59.3821250041" lon="11.6318527801">
		<tag k="name" v="Holtet" />
		<tag k="place" v="locality" />
		<tag k="ssr:stedsnr" v="173481" />
	</node>
	<node id="-236449" lat="59.6010944408" lon="11.5879166687">
>>>>>>> e1d4bc35ff8a6074a6f2e91616a996b547c36f15
		<tag k="name" v="Faukerud" />
		<tag k="place" v="locality" />
		<tag k="ssr:stedsnr" v="114559" />
	</node>
<<<<<<< HEAD
	<node lat="59.44201666433746" lon="11.59600278531149" id="-15034">
		<tag k="name" v="Elgekleva" />
		<tag k="place" v="locality" />
		<tag k="ssr:stedsnr" v="173771" />
	</node>
	<node lat="59.38904166763218" lon="11.636016662746032" id="-15040">
		<tag k="name" v="Korshogne grana" />
		<tag k="place" v="locality" />
		<tag k="ssr:stedsnr" v="172852" />
	</node>
	<node lat="59.33224444597178" lon="11.623313897389284" id="-15048">
		<tag k="name" v="Kjerringløkka" />
		<tag k="place" v="locality" />
		<tag k="ssr:stedsnr" v="173371" />
	</node>
	<node lat="59.33113888951285" lon="11.631863889836259" id="-15049">
		<tag k="name" v="Saghytta" />
		<tag k="place" v="locality" />
		<tag k="ssr:stedsnr" v="173372" />
	</node>
	<node lat="59.63398055955778" lon="11.53804166865464" id="-15054">
		<tag k="name" v="Måsan" />
		<tag k="place" v="locality" />
		<tag k="ssr:stedsnr" v="173239" />
	</node>
	<node lat="59.34635555422759" lon="11.636030554841197" id="-15055">
		<tag k="name" v="Langeklev" />
		<tag k="place" v="locality" />
		<tag k="ssr:stedsnr" v="173345" />
	</node>
	<node lat="59.54862221941804" lon="11.668091671666298" id="-15057">
		<tag k="name" v="Lauvbråta" />
		<tag k="place" v="locality" />
		<tag k="ssr:stedsnr" v="173353" />
	</node>
	<node lat="59.382125004118855" lon="11.631852780129538" id="-15065">
		<tag k="name" v="Holtet" />
		<tag k="place" v="locality" />
		<tag k="ssr:stedsnr" v="173481" />
	</node>
	<node lat="59.41360833048776" lon="11.650530552557537" id="-15069">
		<tag k="name" v="Revehula" />
		<tag k="place" v="locality" />
		<tag k="ssr:stedsnr" v="173501" />
	</node>
	<node lat="59.52311944235515" lon="11.596508334165366" id="-15082">
		<tag k="name" v="Grantapp" />
		<tag k="place" v="locality" />
		<tag k="ssr:stedsnr" v="173964" />
	</node>
	<node lat="59.36789166728858" lon="11.775008335610204" id="-15083">
		<tag k="name" v="Skatemyrene" />
		<tag k="place" v="locality" />
		<tag k="ssr:stedsnr" v="173994" />
	</node>
	<node lat="59.360374998073176" lon="11.796269437376832" id="-15091">
		<tag k="name" v="Dammyr" />
		<tag k="place" v="locality" />
		<tag k="ssr:stedsnr" v="173881" />
	</node>
	<node lat="59.64460000332148" lon="11.655088894520732" id="-15099">
		<tag k="name" v="Veåstjern" />
		<tag k="place" v="locality" />
		<tag k="ssr:stedsnr" v="174528" />
	</node>
	<node lat="59.564177779316694" lon="11.560030561928993" id="-15129">
		<tag k="name" v="Ilerud" />
		<tag k="place" v="locality" />
		<tag k="ssr:stedsnr" v="189044" />
	</node>
	<node lat="59.43375555132152" lon="11.632616665509666" id="-15150">
		<tag k="name" v="Paradis" />
		<tag k="place" v="locality" />
		<tag k="ssr:stedsnr" v="294586" />
	</node>
	<node lat="59.39512777535671" lon="11.641669439604831" id="-15152">
		<tag k="name" v="Svarverud" />
		<tag k="place" v="locality" />
		<tag k="ssr:stedsnr" v="294820" />
	</node>
	<node lat="59.57786388962781" lon="11.550655562215509" id="-15156">
		<tag k="name" v="Halvorshytta" />
		<tag k="place" v="locality" />
		<tag k="ssr:stedsnr" v="295229" />
	</node>
	<node lat="59.49203055874054" lon="11.614594449267031" id="-15160">
		<tag k="name" v="Torget" />
		<tag k="place" v="locality" />
		<tag k="ssr:stedsnr" v="294945" />
	</node>
	<node lat="59.554927780693966" lon="11.571238897226753" id="-15162">
		<tag k="name" v="Lybekk" />
		<tag k="place" v="locality" />
		<tag k="ssr:stedsnr" v="295066" />
	</node>
	<node lat="59.514713887110524" lon="11.674216674553248" id="-15168">
		<tag k="name" v="Østby" />
		<tag k="place" v="locality" />
		<tag k="ssr:stedsnr" v="295361" />
	</node>
	<node lat="59.605991670047096" lon="11.540591658308292" id="-15186">
		<tag k="name" v="Bakke" />
		<tag k="place" v="locality" />
		<tag k="ssr:stedsnr" v="295547" />
	</node>
	<node lat="59.47163611511614" lon="11.654263895394811" id="-15191">
		<tag k="name" v="Tittut" />
		<tag k="place" v="locality" />
		<tag k="ssr:stedsnr" v="295713" />
	</node>
	<node lat="59.419822219388394" lon="11.663938890511107" id="-15199">
		<tag k="amenity" v="place_of_worship" />
		<tag k="denomination" v="lutheran" />
		<tag k="name" v="Øymark kirke" />
		<tag k="religion" v="christian" />
		<tag k="ssr:stedsnr" v="306473" />
	</node>
	<node lat="59.50314166576959" lon="11.627719448240965" id="-15205">
		<tag k="amenity" v="place_of_worship" />
		<tag k="fixme" v="specify religion=*, denomination=*, building=* etc" />
		<tag k="name" v="Sjøglimt" />
		<tag k="ssr:stedsnr" v="307383" />
	</node>
	<node lat="59.453836114376465" lon="11.632097225429678" id="-15217">
		<tag k="name" v="Elvestad" />
		<tag k="place" v="locality" />
		<tag k="ssr:stedsnr" v="355461" />
	</node>
	<node lat="59.35980278206996" lon="11.747544441714275" id="-15221">
		<tag k="name" v="Grønne bakke" />
		<tag k="place" v="locality" />
		<tag k="ssr:stedsnr" v="354822" />
	</node>
	<node lat="59.444352778342285" lon="11.614422222218437" id="-15222">
		<tag k="name" v="Høyseter" />
		<tag k="place" v="locality" />
		<tag k="ssr:stedsnr" v="354823" />
	</node>
	<node lat="59.484694440893655" lon="11.645611112144843" id="-15234">
		<tag k="name" v="Søndre Kastet" />
		<tag k="place" v="locality" />
		<tag k="ssr:stedsnr" v="355235" />
	</node>
	<node lat="59.54456667024717" lon="11.676247228168393" id="-15237">
		<tag k="name" v="Dynepus" />
		<tag k="place" v="locality" />
		<tag k="ssr:stedsnr" v="355352" />
	</node>
	<node lat="59.41053055139687" lon="11.63078056147633" id="-15266">
		<tag k="name" v="Torvet" />
		<tag k="place" v="locality" />
		<tag k="ssr:stedsnr" v="355495" />
	</node>
	<node lat="59.60455833085153" lon="11.586730557291643" id="-15281">
		<tag k="name" v="Lillehammer" />
		<tag k="place" v="locality" />
		<tag k="ssr:stedsnr" v="355893" />
	</node>
	<node lat="59.35993889237712" lon="11.75172499548298" id="-15324">
		<tag k="name" v="Elgpasset" />
=======
	<node id="-236445" lat="59.4699416623" lon="11.747922227">
		<tag k="name" v="Reveberget" />
		<tag k="place" v="locality" />
		<tag k="ssr:stedsnr" v="113900" />
	</node>
	<node id="-236444" lat="59.4658694404" lon="11.7527805507">
		<tag k="name" v="Nordre Brenna" />
		<tag k="place" v="locality" />
		<tag k="ssr:stedsnr" v="113899" />
	</node>
	<node id="-236438" lat="59.4523888869" lon="11.6393444461">
		<tag k="name" v="Kalveroa" />
		<tag k="place" v="locality" />
		<tag k="ssr:stedsnr" v="113492" />
	</node>
	<node id="-236425" lat="59.6511583336" lon="11.681097217">
		<tag k="name" v="Tiuren" />
		<tag k="place" v="locality" />
		<tag k="ssr:stedsnr" v="113426" />
	</node>
	<node id="-236414" lat="59.581780552" lon="11.546966662">
		<tag k="name" v="Sandgrava" />
		<tag k="place" v="locality" />
		<tag k="ssr:stedsnr" v="113196" />
	</node>
	<node id="-236398" lat="59.6293972263" lon="11.6031888961">
		<tag k="name" v="Hestehagevelta" />
		<tag k="place" v="locality" />
		<tag k="ssr:stedsnr" v="113138" />
	</node>
	<node id="-236386" lat="59.4223972253" lon="11.5990472137">
		<tag k="name" v="Larsbrenna" />
		<tag k="place" v="locality" />
		<tag k="ssr:stedsnr" v="112788" />
	</node>
	<node id="-236384" lat="59.3237611118" lon="11.8083111155">
		<tag k="name" v="Halmstad" />
		<tag k="place" v="locality" />
		<tag k="ssr:stedsnr" v="112495" />
	</node>
	<node id="-236377" lat="59.3836555539" lon="11.6985583355">
		<tag k="name" v="Sandbekk" />
		<tag k="place" v="locality" />
		<tag k="ssr:stedsnr" v="112529" />
	</node>
	<node id="-236375" lat="59.3526805537" lon="11.7057250049">
		<tag k="name" v="Brygga" />
		<tag k="place" v="locality" />
		<tag k="ssr:stedsnr" v="112350" />
	</node>
	<node id="-236347" lat="59.5067916657" lon="11.7090805469">
		<tag k="name" v="Torgmosen" />
		<tag k="place" v="locality" />
		<tag k="ssr:stedsnr" v="53031" />
	</node>
	<node id="-236345" lat="59.5433500012" lon="11.5412138898">
		<tag k="name" v="Svingbakken" />
		<tag k="place" v="locality" />
		<tag k="ssr:stedsnr" v="52548" />
	</node>
	<node id="-236335" lat="59.6140361091" lon="11.5329555627">
		<tag k="name" v="Skjoldenhytta" />
		<tag k="place" v="locality" />
		<tag k="ssr:stedsnr" v="52493" />
	</node>
	<node id="-236332" lat="59.5928138913" lon="11.563500003">
		<tag k="name" v="Homannshaugen" />
		<tag k="place" v="locality" />
		<tag k="ssr:stedsnr" v="52486" />
	</node>
	<node id="-236327" lat="59.5266555526" lon="11.6851722135">
		<tag k="name" v="Grand hotell" />
		<tag k="place" v="locality" />
		<tag k="ssr:stedsnr" v="52329" />
	</node>
	<node id="-236325" lat="59.5043888929" lon="11.6992388886">
		<tag k="name" v="Skåbommen" />
		<tag k="place" v="locality" />
		<tag k="ssr:stedsnr" v="52234" />
	</node>
	<node id="-236322" lat="59.4887194476" lon="11.6368277804">
		<tag k="name" v="Nordre Kastet" />
		<tag k="place" v="locality" />
		<tag k="ssr:stedsnr" v="52221" />
	</node>
	<node id="-236316" lat="59.394630554" lon="11.7009472138">
		<tag k="name" v="Lerdal" />
		<tag k="place" v="locality" />
		<tag k="ssr:stedsnr" v="52468" />
	</node>
	<node id="-236315" lat="59.5113749986" lon="11.617241667">
		<tag k="name" v="Viksenga" />
		<tag k="place" v="locality" />
		<tag k="ssr:stedsnr" v="52463" />
	</node>
	<node id="-236310" lat="59.6689277802" lon="11.6657694482">
		<tag k="name" v="Orregrana" />
		<tag k="place" v="locality" />
		<tag k="ssr:stedsnr" v="52385" />
	</node>
	<node id="-236307" lat="59.352322223" lon="11.5843444379">
		<tag k="name" v="Fleseren" />
		<tag k="place" v="locality" />
		<tag k="ssr:stedsnr" v="52098" />
	</node>
	<node id="-236306" lat="59.3623805566" lon="11.7910666746">
		<tag k="name" v="Linemosen" />
		<tag k="place" v="locality" />
		<tag k="ssr:stedsnr" v="51894" />
	</node>
	<node id="-236294" lat="59.3543972245" lon="11.7597055477">
		<tag k="name" v="Hestesprengen" />
		<tag k="place" v="locality" />
		<tag k="ssr:stedsnr" v="51831" />
	</node>
	<node id="-236293" lat="59.3564388881" lon="11.7515305562">
		<tag k="name" v="Vinterstø" />
		<tag k="place" v="locality" />
		<tag k="ssr:stedsnr" v="51830" />
	</node>
	<node id="-236291" lat="59.4518194486" lon="11.5905777772">
		<tag k="name" v="Feltspaten" />
		<tag k="place" v="locality" />
		<tag k="ssr:stedsnr" v="51811" />
	</node>
	<node id="-236285" lat="59.5310250015" lon="11.6127861041">
		<tag k="name" v="Brudeberget" />
		<tag k="place" v="locality" />
		<tag k="ssr:stedsnr" v="51485" />
	</node>
	<node id="-236260" lat="59.6409661746" lon="11.6051276284">
		<tag k="name" v="Dalen" />
		<tag k="place" v="locality" />
		<tag k="ssr:stedsnr" v="3273" />
	</node>
	<node id="-237297" lat="59.517591668" lon="11.597091672">
		<tag k="name" v="Vemmelbråten" />
		<tag k="place" v="locality" />
		<tag k="ssr:stedsnr" v="780444" />
	</node>
	<node id="-236246" lat="59.4133805515" lon="11.5862305629">
		<tag k="name" v="Kjella" />
>>>>>>> e1d4bc35ff8a6074a6f2e91616a996b547c36f15
		<tag k="place" v="locality" />
		<tag k="ssr:stedsnr" v="963162" />
	</node>
<<<<<<< HEAD
	<node lat="59.5542805544726" lon="11.568480563081708" id="-15330">
		<tag k="name" v="Leggerud" />
		<tag k="place" v="locality" />
		<tag k="ssr:stedsnr" v="416058" />
	</node>
	<node lat="59.6377472187181" lon="11.541111102703143" id="-15331">
		<tag k="name" v="Kaln" />
		<tag k="place" v="locality" />
		<tag k="ssr:stedsnr" v="416075" />
	</node>
	<node lat="59.61704722510462" lon="11.535166666492197" id="-15334">
		<tag k="loc_name" v="Basmoen skanse" />
		<tag k="name" v="Basmo skanse" />
		<tag k="ssr:stedsnr" v="416217" />
		<tag k="tourism" v="attraction" />
	</node>
	<node lat="59.56455832946005" lon="11.592227770891416" id="-15336">
		<tag k="name" v="Slorebakk" />
		<tag k="place" v="locality" />
		<tag k="ssr:stedsnr" v="416230" />
	</node>
	<node lat="59.45268332966429" lon="11.629608324808192" id="-15337">
		<tag k="name" v="Arnebråten" />
		<tag k="place" v="locality" />
		<tag k="ssr:stedsnr" v="416451" />
	</node>
	<node lat="59.42650555953066" lon="11.68717777709268" id="-15345">
		<tag k="name" v="Trengselet" />
		<tag k="place" v="locality" />
		<tag k="ssr:stedsnr" v="416474" />
	</node>
	<node lat="59.59929444371818" lon="11.553625007483554" id="-15349">
		<tag k="name" v="Nordby" />
		<tag k="place" v="locality" />
		<tag k="ssr:stedsnr" v="416483" />
	</node>
	<node lat="59.54126666820321" lon="11.689502785700961" id="-15358">
		<tag k="name" v="Huer" />
		<tag k="place" v="locality" />
		<tag k="ssr:stedsnr" v="416362" />
	</node>
	<node lat="59.326425003567536" lon="11.791405553503264" id="-15360">
		<tag k="name" v="Hasledal" />
		<tag k="place" v="locality" />
		<tag k="ssr:stedsnr" v="416366" />
	</node>
	<node lat="59.469836112021746" lon="11.649955555697531" id="-15376">
		<tag k="name" v="Søndre Fort" />
		<tag k="ssr:stedsnr" v="416668" />
		<tag k="tourism" v="attraction" />
	</node>
	<node lat="59.61451666948354" lon="11.575527781357577" id="-15384">
		<tag k="name" v="Fjell" />
		<tag k="place" v="locality" />
		<tag k="ssr:stedsnr" v="416943" />
	</node>
	<node lat="59.60924722084088" lon="11.621024995613341" id="-15385">
		<tag k="name" v="Østre Lindtjernmosen" />
		<tag k="place" v="locality" />
		<tag k="ssr:stedsnr" v="416944" />
	</node>
	<node lat="59.60888055177248" lon="11.61292778054036" id="-15386">
		<tag k="name" v="Jåvallmoen" />
		<tag k="place" v="locality" />
		<tag k="ssr:stedsnr" v="416958" />
	</node>
	<node lat="59.46977777372181" lon="11.733058325115097" id="-15427">
		<tag k="name" v="Sætre" />
		<tag k="place" v="locality" />
		<tag k="ssr:stedsnr" v="537051" />
	</node>
	<node lat="59.57445278147618" lon="11.556027770748186" id="-15433">
		<tag k="name" v="Skogsle" />
		<tag k="place" v="locality" />
		<tag k="ssr:stedsnr" v="537199" />
	</node>
	<node lat="59.41018055569147" lon="11.625922225678053" id="-15437">
		<tag k="name" v="Åsmundrudkleva" />
		<tag k="place" v="locality" />
		<tag k="ssr:stedsnr" v="537523" />
	</node>
	<node lat="59.41960277876181" lon="11.643772229090184" id="-15439">
		<tag k="name" v="Dulleklev" />
		<tag k="place" v="locality" />
		<tag k="ssr:stedsnr" v="537528" />
	</node>
	<node lat="59.59757221907845" lon="11.639627779088336" id="-15442">
		<tag k="name" v="Vabakkleet" />
		<tag k="place" v="locality" />
		<tag k="ssr:stedsnr" v="537262" />
	</node>
	<node lat="59.542527773431885" lon="11.672633334001125" id="-15443">
		<tag k="name" v="Tobakksmoen" />
		<tag k="place" v="locality" />
		<tag k="ssr:stedsnr" v="537363" />
	</node>
	<node lat="59.57129166452176" lon="11.62724444904158" id="-15448">
		<tag k="name" v="Bunes" />
		<tag k="place" v="locality" />
		<tag k="ssr:stedsnr" v="537455" />
	</node>
	<node lat="59.60577499564175" lon="11.665388890400994" id="-15450">
		<tag k="loc_name" v="Ulvvannshella" />
		<tag k="name" v="Ulvvannshalla" />
		<tag k="place" v="locality" />
		<tag k="ssr:stedsnr" v="537637" />
	</node>
	<node lat="59.418894445916585" lon="11.632133331481382" id="-15451">
		<tag k="name" v="Langedråga" />
		<tag k="place" v="locality" />
		<tag k="ssr:stedsnr" v="537535" />
	</node>
	<node lat="59.45754722412973" lon="11.619997228079695" id="-15457">
		<tag k="name" v="Teigen" />
		<tag k="place" v="locality" />
		<tag k="ssr:stedsnr" v="537787" />
	</node>
	<node lat="59.40251944212034" lon="11.601488895382456" id="-15462">
		<tag k="name" v="Mjølkista" />
		<tag k="place" v="locality" />
		<tag k="ssr:stedsnr" v="538179" />
	</node>
	<node lat="59.57437778067954" lon="11.617141666147713" id="-15488">
		<tag k="name" v="Ødegård" />
		<tag k="place" v="locality" />
		<tag k="ssr:stedsnr" v="538757" />
	</node>
	<node lat="59.43445555560401" lon="11.644155557840953" id="-15525">
		<tag k="name" v="Langebråten" />
		<tag k="place" v="locality" />
		<tag k="ssr:stedsnr" v="597629" />
	</node>
	<node lat="59.33228333242549" lon="11.750033325958114" id="-15534">
		<tag k="name" v="Vestre Omvik" />
		<tag k="place" v="locality" />
		<tag k="ssr:stedsnr" v="597956" />
	</node>
	<node lat="59.518486106910075" lon="11.56451944861752" id="-15535">
		<tag k="name" v="Pålsehytta" />
		<tag k="place" v="locality" />
		<tag k="ssr:stedsnr" v="597962" />
	</node>
	<node lat="59.494099998242596" lon="11.557227771931824" id="-15536">
		<tag k="name" v="Virehølet" />
		<tag k="place" v="locality" />
		<tag k="ssr:stedsnr" v="597968" />
	</node>
	<node lat="59.358358332934806" lon="11.794361102804364" id="-15539">
		<tag k="name" v="Danserfurumyra" />
		<tag k="place" v="locality" />
		<tag k="ssr:stedsnr" v="597894" />
	</node>
	<node lat="59.496400002755074" lon="11.62926388961443" id="-15543">
		<tag k="name" v="Slaberget" />
		<tag k="place" v="locality" />
		<tag k="ssr:stedsnr" v="598210" />
	</node>
	<node lat="59.576927774376195" lon="11.557669443904972" id="-15547">
		<tag k="name" v="Sandgrava" />
		<tag k="place" v="locality" />
		<tag k="ssr:stedsnr" v="598224" />
	</node>
	<node lat="59.641655552027956" lon="11.563322213678294" id="-15551">
		<tag k="name" v="Veslefossen" />
		<tag k="place" v="locality" />
		<tag k="ssr:stedsnr" v="598085" />
	</node>
	<node lat="59.58875833028563" lon="11.541558336345938" id="-15555">
		<tag k="name" v="Nordbråten" />
		<tag k="place" v="locality" />
		<tag k="ssr:stedsnr" v="598183" />
	</node>
	<node lat="59.46944444169957" lon="11.649836116399996" id="-15576">
		<tag k="name" v="Lihammeren" />
		<tag k="place" v="locality" />
		<tag k="ssr:stedsnr" v="598683" />
	</node>
	<node lat="59.48421666604832" lon="11.645750002034747" id="-15579">
		<tag k="name" v="Karl Johans klev" />
		<tag k="place" v="locality" />
		<tag k="ssr:stedsnr" v="598729" />
	</node>
	<node lat="59.55388333556673" lon="11.580469452079338" id="-15600">
		<tag k="name" v="Hytta" />
		<tag k="place" v="locality" />
		<tag k="ssr:stedsnr" v="658021" />
	</node>
	<node lat="59.553986115267634" lon="11.5739638859844" id="-15601">
		<tag k="name" v="Bråten" />
		<tag k="place" v="locality" />
		<tag k="ssr:stedsnr" v="658022" />
	</node>
	<node lat="59.45466111490152" lon="11.710377778753928" id="-15608">
		<tag k="name" v="Iverbråten" />
		<tag k="place" v="locality" />
		<tag k="ssr:stedsnr" v="658320" />
	</node>
	<node lat="59.38151666702463" lon="11.703761108448527" id="-15615">
		<tag k="name" v="Korsås" />
		<tag k="place" v="locality" />
		<tag k="ssr:stedsnr" v="658522" />
	</node>
	<node lat="59.31175277842151" lon="11.82134443577263" id="-15620">
		<tag k="name" v="Ottawa" />
		<tag k="place" v="locality" />
		<tag k="ssr:stedsnr" v="658457" />
	</node>
	<node lat="59.406902778112816" lon="11.653336115299297" id="-15624">
		<tag k="name" v="Sundås" />
		<tag k="place" v="locality" />
		<tag k="ssr:stedsnr" v="658562" />
	</node>
	<node lat="59.377022221872025" lon="11.628322220819815" id="-15628">
		<tag k="name" v="Jerperud" />
		<tag k="place" v="locality" />
		<tag k="ssr:stedsnr" v="658812" />
	</node>
	<node lat="59.46587222371465" lon="11.604452781870963" id="-15629">
		<tag k="name" v="Tyrigrava" />
		<tag k="place" v="locality" />
		<tag k="ssr:stedsnr" v="658827" />
	</node>
	<node lat="59.55560277747892" lon="11.599769440471439" id="-15641">
		<tag k="name" v="Hytta" />
		<tag k="place" v="locality" />
		<tag k="ssr:stedsnr" v="659045" />
	</node>
	<node lat="59.62938888868795" lon="11.654116665223206" id="-15657">
		<tag k="name" v="Fluetjernsmoen" />
		<tag k="place" v="locality" />
		<tag k="ssr:stedsnr" v="659518" />
	</node>
	<node lat="59.62914722107117" lon="11.647019453032533" id="-15658">
		<tag k="name" v="Bjørnebakken" />
		<tag k="place" v="locality" />
		<tag k="ssr:stedsnr" v="659519" />
	</node>
	<node lat="59.60068055494875" lon="11.530866662882003" id="-15659">
		<tag k="name" v="Myrås" />
		<tag k="place" v="locality" />
		<tag k="ssr:stedsnr" v="659523" />
	</node>
	<node lat="59.48113889053469" lon="11.6595833278914" id="-15672">
		<tag k="amenity" v="place_of_worship" />
		<tag k="denomination" v="lutheran" />
		<tag k="name" v="Ørje kirke" />
		<tag k="religion" v="christian" />
		<tag k="ssr:stedsnr" v="670529" />
	</node>
	<node lat="59.58596111523037" lon="11.54595277252866" id="-15685">
		<tag k="alt_name" v="Mellem-Vestby" />
		<tag k="name" v="Mellom-Vestby" />
		<tag k="place" v="locality" />
		<tag k="ssr:stedsnr" v="719194" />
	</node>
	<node lat="59.49514999760617" lon="11.64757777347942" id="-15688">
		<tag k="name" v="Ysterudbråten" />
		<tag k="place" v="locality" />
		<tag k="ssr:stedsnr" v="719199" />
	</node>
	<node lat="59.38088333557821" lon="11.691472220024396" id="-15698">
		<tag k="name" v="Paradis" />
		<tag k="place" v="locality" />
		<tag k="ssr:stedsnr" v="719463" />
	</node>
	<node lat="59.42216944062675" lon="11.631877783566317" id="-15706">
		<tag k="name" v="Brenna" />
		<tag k="place" v="locality" />
		<tag k="ssr:stedsnr" v="719538" />
	</node>
	<node lat="59.40544722486704" lon="11.682722221001299" id="-15708">
		<tag k="name" v="Linto" />
		<tag k="place" v="locality" />
		<tag k="ssr:stedsnr" v="719546" />
	</node>
	<node lat="59.612261115445854" lon="11.633458334156675" id="-15717">
		<tag k="name" v="Iseberget" />
		<tag k="place" v="locality" />
		<tag k="ssr:stedsnr" v="719624" />
	</node>
	<node lat="59.35117222489758" lon="11.689591671424314" id="-15725">
		<tag k="name" v="Knollehytta" />
		<tag k="place" v="locality" />
		<tag k="ssr:stedsnr" v="720377" />
	</node>
	<node lat="59.433597224317374" lon="11.614527770397821" id="-15727">
		<tag k="name" v="Signalrøset" />
		<tag k="place" v="locality" />
		<tag k="ssr:stedsnr" v="719755" />
	</node>
	<node lat="59.43046389261012" lon="11.610336104294019" id="-15728">
		<tag k="name" v="Bjørnestokken" />
		<tag k="place" v="locality" />
		<tag k="ssr:stedsnr" v="719757" />
	</node>
	<node lat="59.564599996131825" lon="11.564999992536876" id="-15737">
		<tag k="alt_name" v="Smeby nordre" />
		<tag k="name" v="Nordre Smeby" />
		<tag k="place" v="locality" />
		<tag k="ssr:stedsnr" v="720059" />
	</node>
	<node lat="59.36888610858363" lon="11.60486111847421" id="-15741">
=======
	<node id="-236238" lat="59.6100916637" lon="11.6057361196">
		<tag k="loc_name" v="Veinemoen nedre" />
		<tag k="name" v="Veinemo" />
		<tag k="place" v="locality" />
		<tag k="ssr:stedsnr" v="962907" />
	</node>
	<node id="-236236" lat="59.4759194405" lon="11.5884861184">
		<tag k="name" v="Skumpen" />
		<tag k="place" v="locality" />
		<tag k="ssr:stedsnr" v="962821" />
	</node>
	<node id="-236215" lat="59.589522222" lon="11.5155166619">
		<tag k="alt_name" v="Berkas" />
		<tag k="name" v="Spjern" />
		<tag k="place" v="locality" />
		<tag k="ssr:stedsnr" v="962174" />
	</node>
	<node id="-235293" lat="59.473758329" lon="11.575555552">
		<tag k="name" v="Vassbuleet" />
		<tag k="place" v="locality" />
		<tag k="ssr:stedsnr" v="294804" />
	</node>
	<node id="-236204" lat="59.4840888901" lon="11.6020583341">
		<tag k="name" v="Pinihel" />
		<tag k="place" v="locality" />
		<tag k="ssr:stedsnr" v="961853" />
	</node>
	<node id="-236201" lat="59.4175333349" lon="11.6332805645">
		<tag k="name" v="Lille Svenskekleva" />
		<tag k="place" v="locality" />
		<tag k="ssr:stedsnr" v="961553" />
	</node>
	<node id="-236195" lat="59.5991694415" lon="11.5592166701">
		<tag k="name" v="Meieriet" />
		<tag k="place" v="locality" />
		<tag k="ssr:stedsnr" v="902565" />
	</node>
	<node id="-236192" lat="59.654291669" lon="11.6090944451">
		<tag k="name" v="Brennebakken" />
		<tag k="place" v="locality" />
		<tag k="ssr:stedsnr" v="902467" />
	</node>
	<node id="-236179" lat="59.5021916671" lon="11.6231916617">
		<tag k="name" v="Mikkelvoll" />
		<tag k="place" v="locality" />
		<tag k="ssr:stedsnr" v="902205" />
	</node>
	<node id="-236178" lat="59.3959000042" lon="11.626491661">
		<tag k="name" v="Nordal" />
		<tag k="place" v="locality" />
		<tag k="ssr:stedsnr" v="901825" />
	</node>
	<node id="-236174" lat="59.3797666689" lon="11.7586694481">
		<tag k="name" v="Sandbakken" />
		<tag k="place" v="locality" />
		<tag k="ssr:stedsnr" v="901914" />
	</node>
	<node id="-236169" lat="59.533699999" lon="11.5565305521">
		<tag k="name" v="Holstein" />
		<tag k="place" v="locality" />
		<tag k="ssr:stedsnr" v="901607" />
	</node>
	<node id="-236168" lat="59.5354194444" lon="11.5563083257">
		<tag k="name" v="Slesvik" />
		<tag k="place" v="locality" />
		<tag k="ssr:stedsnr" v="901606" />
	</node>
	<node id="-236166" lat="59.5438611072" lon="11.603358326">
		<tag k="name" v="Månevik" />
		<tag k="place" v="locality" />
		<tag k="ssr:stedsnr" v="901457" />
	</node>
	<node id="-236152" lat="59.3441583367" lon="11.6947194402">
		<tag k="name" v="Bergerud" />
		<tag k="place" v="locality" />
		<tag k="ssr:stedsnr" v="842358" />
	</node>
	<node id="-236145" lat="59.5977722231" lon="11.5822222308">
		<tag k="name" v="Vittenberg" />
		<tag k="place" v="locality" />
		<tag k="ssr:stedsnr" v="841904" />
	</node>
	<node id="-236132" lat="59.3837194456" lon="11.64546666">
		<tag k="name" v="Valby" />
		<tag k="place" v="locality" />
		<tag k="ssr:stedsnr" v="841325" />
	</node>
	<node id="-236123" lat="59.3691194469" lon="11.6915416727">
		<tag k="name" v="Svennehullet" />
		<tag k="place" v="locality" />
		<tag k="ssr:stedsnr" v="840309" />
	</node>
	<node id="-236108" lat="59.4791527739" lon="11.6472944375">
		<tag k="name" v="Nordre Fort" />
		<tag k="ssr:stedsnr" v="780708" />
		<tag k="tourism" v="attraction" />
	</node>
	<node id="-236105" lat="59.4947555593" lon="11.7244777694">
		<tag k="name" v="Vinterleet" />
		<tag k="place" v="locality" />
		<tag k="ssr:stedsnr" v="780129" />
	</node>
	<node id="-236103" lat="59.327080559" lon="11.5926777698">
		<tag k="name" v="Jakobshytta" />
		<tag k="place" v="locality" />
		<tag k="ssr:stedsnr" v="780115" />
	</node>
	<node id="-236080" lat="59.3382027805" lon="11.8131972156">
		<tag k="name" v="Korsbjørka" />
		<tag k="place" v="locality" />
		<tag k="ssr:stedsnr" v="902822" />
	</node>
	<node id="-236077" lat="59.4808083375" lon="11.673636106">
		<tag k="name" v="Åstoppen" />
		<tag k="place" v="locality" />
		<tag k="ssr:stedsnr" v="902747" />
	</node>
	<node id="-236043" lat="59.3709194428" lon="11.7677722143">
		<tag k="name" v="Stråmyr" />
		<tag k="place" v="locality" />
		<tag k="ssr:stedsnr" v="901990" />
	</node>
	<node id="-236042" lat="59.3644055579" lon="11.7678222217">
		<tag k="name" v="Dalakasa" />
		<tag k="place" v="locality" />
		<tag k="ssr:stedsnr" v="901988" />
	</node>
	<node id="-236036" lat="59.3730916664" lon="11.6137750003">
		<tag k="name" v="Slasvull" />
		<tag k="place" v="locality" />
		<tag k="ssr:stedsnr" v="902087" />
	</node>
	<node id="-236034" lat="59.3967194462" lon="11.7726611049">
		<tag k="name" v="Bringebærholta" />
		<tag k="place" v="locality" />
		<tag k="ssr:stedsnr" v="901897" />
	</node>
	<node id="-236026" lat="59.4375555587" lon="11.6507472162">
		<tag k="name" v="Hulteporten" />
		<tag k="place" v="locality" />
		<tag k="ssr:stedsnr" v="901631" />
	</node>
	<node id="-236025" lat="59.4307777817" lon="11.6536027731">
		<tag k="name" v="Slupstad" />
		<tag k="place" v="locality" />
		<tag k="ssr:stedsnr" v="901630" />
	</node>
	<node id="-236019" lat="59.4160749966" lon="11.6294638842">
		<tag k="name" v="Enebutt" />
		<tag k="place" v="locality" />
		<tag k="ssr:stedsnr" v="901547" />
	</node>
	<node id="-235261" lat="59.6446000033" lon="11.6550888945">
		<tag k="name" v="Veåstjern" />
		<tag k="place" v="locality" />
		<tag k="ssr:stedsnr" v="174528" />
	</node>
	<node id="-236010" lat="59.37575278" lon="11.7069999997">
		<tag k="name" v="Hundehuset" />
		<tag k="place" v="locality" />
		<tag k="ssr:stedsnr" v="901288" />
	</node>
	<node id="-235995" lat="59.6175833366" lon="11.5809222149">
		<tag k="name" v="Sundåsen" />
		<tag k="place" v="locality" />
		<tag k="ssr:stedsnr" v="720970" />
	</node>
	<node id="-235984" lat="59.3511722249" lon="11.6895916714">
		<tag k="name" v="Knollehytta" />
		<tag k="place" v="locality" />
		<tag k="ssr:stedsnr" v="720377" />
	</node>
	<node id="-235978" lat="59.6322499995" lon="11.6209194365">
		<tag k="name" v="Mørres" />
		<tag k="place" v="locality" />
		<tag k="ssr:stedsnr" v="720169" />
	</node>
	<node id="-235974" lat="59.4304638926" lon="11.6103361043">
		<tag k="name" v="Bjørnestokken" />
		<tag k="place" v="locality" />
		<tag k="ssr:stedsnr" v="719757" />
	</node>
	<node id="-235973" lat="59.4335972243" lon="11.6145277704">
		<tag k="name" v="Signalrøset" />
		<tag k="place" v="locality" />
		<tag k="ssr:stedsnr" v="719755" />
	</node>
	<node id="-235969" lat="59.3590861138" lon="11.7800972141">
		<tag k="name" v="Sandbekk" />
		<tag k="place" v="locality" />
		<tag k="ssr:stedsnr" v="719803" />
	</node>
	<node id="-235967" lat="59.6122611154" lon="11.6334583342">
		<tag k="name" v="Iseberget" />
		<tag k="place" v="locality" />
		<tag k="ssr:stedsnr" v="719624" />
	</node>
	<node id="-235947" lat="59.5985722225" lon="11.585419444">
		<tag k="name" v="Haslerud" />
		<tag k="place" v="locality" />
		<tag k="ssr:stedsnr" v="659905" />
	</node>
	<node id="-235944" lat="59.6138833293" lon="11.5320194374">
		<tag k="name" v="Rokka" />
		<tag k="place" v="locality" />
		<tag k="ssr:stedsnr" v="659530" />
	</node>
	<node id="-235942" lat="59.6006805549" lon="11.5308666629">
		<tag k="name" v="Myrås" />
		<tag k="place" v="locality" />
		<tag k="ssr:stedsnr" v="659523" />
	</node>
	<node id="-235941" lat="59.6291472211" lon="11.647019453">
		<tag k="name" v="Bjørnebakken" />
		<tag k="place" v="locality" />
		<tag k="ssr:stedsnr" v="659519" />
	</node>
	<node id="-235940" lat="59.6293888887" lon="11.6541166652">
		<tag k="name" v="Fluetjernsmoen" />
		<tag k="place" v="locality" />
		<tag k="ssr:stedsnr" v="659518" />
	</node>
	<node id="-235930" lat="59.5515111094" lon="11.6533277701">
		<tag k="name" v="Sletta" />
		<tag k="place" v="locality" />
		<tag k="ssr:stedsnr" v="659407" />
	</node>
	<node id="-235926" lat="59.5014527739" lon="11.615608335">
		<tag k="name" v="Skåbommen" />
		<tag k="place" v="locality" />
		<tag k="ssr:stedsnr" v="658914" />
	</node>
	<node id="-235921" lat="59.381516667" lon="11.7037611084">
		<tag k="name" v="Korsås" />
		<tag k="place" v="locality" />
		<tag k="ssr:stedsnr" v="658522" />
	</node>
	<node id="-235915" lat="59.3117527784" lon="11.8213444358">
		<tag k="name" v="Ottawa" />
		<tag k="place" v="locality" />
		<tag k="ssr:stedsnr" v="658457" />
	</node>
	<node id="-235912" lat="59.3248333379" lon="11.5891111076">
		<tag k="name" v="Engebråten" />
		<tag k="place" v="locality" />
		<tag k="ssr:stedsnr" v="658110" />
	</node>
	<node id="-235884" lat="59.6126833301" lon="11.5415583351">
		<tag k="name" v="Haslerud" />
		<tag k="place" v="locality" />
		<tag k="ssr:stedsnr" v="720551" />
	</node>
	<node id="-237287" lat="59.5918055576" lon="11.6391222294">
		<tag k="name" v="Fredrikstol" />
		<tag k="place" v="locality" />
		<tag k="ssr:stedsnr" v="780395" />
	</node>
	<node id="-235879" lat="59.6280222261" lon="11.6626833282">
		<tag k="name" v="Ertsgravene" />
		<tag k="place" v="locality" />
		<tag k="ssr:stedsnr" v="720528" />
	</node>
	<node id="-235875" lat="59.5117388862" lon="11.6809444443">
		<tag k="name" v="Åseby" />
		<tag k="place" v="locality" />
		<tag k="ssr:stedsnr" v="720346" />
	</node>
	<node id="-235872" lat="59.6285583291" lon="11.5673805625">
		<tag k="name" v="Trossevik" />
		<tag k="place" v="locality" />
		<tag k="ssr:stedsnr" v="720233" />
	</node>
	<node id="-235871" lat="59.3829694411" lon="11.6139916581">
		<tag k="name" v="Kusvingen" />
		<tag k="place" v="locality" />
		<tag k="ssr:stedsnr" v="720107" />
	</node>
	<node id="-235870" lat="59.3757833332" lon="11.6153750021">
		<tag k="name" v="Benranglet" />
		<tag k="place" v="locality" />
		<tag k="ssr:stedsnr" v="720095" />
	</node>
	<node id="-235869" lat="59.3698638933" lon="11.6076305513">
		<tag k="name" v="Svingberget" />
		<tag k="place" v="locality" />
		<tag k="ssr:stedsnr" v="720092" />
	</node>
	<node id="-235868" lat="59.3688861086" lon="11.6048611185">
>>>>>>> e1d4bc35ff8a6074a6f2e91616a996b547c36f15
		<tag k="name" v="Torvet" />
		<tag k="place" v="locality" />
		<tag k="ssr:stedsnr" v="720091" />
	</node>
<<<<<<< HEAD
	<node lat="59.36986389327014" lon="11.607630551316435" id="-15742">
		<tag k="name" v="Svingberget" />
		<tag k="place" v="locality" />
		<tag k="ssr:stedsnr" v="720092" />
	</node>
	<node lat="59.37578333320425" lon="11.615375002081038" id="-15743">
		<tag k="name" v="Benranglet" />
		<tag k="place" v="locality" />
		<tag k="ssr:stedsnr" v="720095" />
	</node>
	<node lat="59.511738886164395" lon="11.680944444298396" id="-15745">
		<tag k="name" v="Åseby" />
		<tag k="place" v="locality" />
		<tag k="ssr:stedsnr" v="720346" />
	</node>
	<node lat="59.61268333005869" lon="11.541558335066211" id="-15761">
		<tag k="name" v="Haslerud" />
		<tag k="place" v="locality" />
		<tag k="ssr:stedsnr" v="720551" />
	</node>
	<node lat="59.3751111126911" lon="11.638861107666337" id="-15782">
		<tag k="name" v="Sjursenga" />
		<tag k="place" v="locality" />
		<tag k="ssr:stedsnr" v="779303" />
	</node>
	<node lat="59.368311109591936" lon="11.701072221695354" id="-15783">
		<tag k="name" v="Strutevollen" />
		<tag k="place" v="locality" />
		<tag k="ssr:stedsnr" v="779314" />
	</node>
	<node lat="59.528094446447334" lon="11.578902769673533" id="-15784">
		<tag k="name" v="Kamperudneset" />
		<tag k="place" v="locality" />
		<tag k="ssr:stedsnr" v="779473" />
	</node>
	<node lat="59.53810833607448" lon="11.567127784473938" id="-15785">
		<tag k="name" v="Tøften" />
		<tag k="place" v="locality" />
		<tag k="ssr:stedsnr" v="779487" />
	</node>
	<node lat="59.42559444701241" lon="11.648716660728391" id="-15786">
		<tag k="name" v="Karelske nes" />
		<tag k="place" v="locality" />
		<tag k="ssr:stedsnr" v="779638" />
	</node>
	<node lat="59.38395000007734" lon="11.749038887251551" id="-15789">
		<tag k="name" v="Rødklev" />
		<tag k="place" v="locality" />
		<tag k="ssr:stedsnr" v="779877" />
	</node>
	<node lat="59.37079444091407" lon="11.788783331873546" id="-15790">
		<tag k="name" v="Kjelleren" />
		<tag k="place" v="locality" />
		<tag k="ssr:stedsnr" v="779882" />
	</node>
	<node lat="59.39573610873136" lon="11.766997213760524" id="-15792">
		<tag k="name" v="Østre Ekenes" />
		<tag k="place" v="locality" />
		<tag k="ssr:stedsnr" v="779893" />
	</node>
	<node lat="59.5918055575853" lon="11.63912222939825" id="-15813">
		<tag k="name" v="Fredrikstol" />
		<tag k="place" v="locality" />
		<tag k="ssr:stedsnr" v="780395" />
	</node>
	<node lat="59.59312222481" lon="11.52686111325349" id="-15814">
		<tag k="name" v="Sandemhytta" />
		<tag k="place" v="locality" />
		<tag k="ssr:stedsnr" v="780452" />
	</node>
	<node lat="59.45794999768234" lon="11.63568332593378" id="-15815">
		<tag k="name" v="Fossumhagen" />
		<tag k="place" v="locality" />
		<tag k="ssr:stedsnr" v="780457" />
	</node>
	<node lat="59.60048888846163" lon="11.531438881164751" id="-15818">
		<tag k="name" v="Røllerud" />
		<tag k="place" v="locality" />
		<tag k="ssr:stedsnr" v="780464" />
	</node>
	<node lat="59.39106944129779" lon="11.686800004659586" id="-15822">
		<tag k="name" v="Tangen" />
		<tag k="place" v="locality" />
		<tag k="ssr:stedsnr" v="780470" />
	</node>
	<node lat="59.377336112302636" lon="11.671274997992775" id="-15823">
		<tag k="name" v="Lerdal" />
		<tag k="place" v="locality" />
		<tag k="ssr:stedsnr" v="780473" />
	</node>
	<node lat="59.51759166799591" lon="11.59709167203797" id="-15829">
		<tag k="name" v="Vemmelbråten" />
		<tag k="place" v="locality" />
		<tag k="ssr:stedsnr" v="780444" />
	</node>
	<node lat="59.47915277385733" lon="11.64729443747239" id="-15848">
		<tag k="name" v="Nordre Fort" />
		<tag k="ssr:stedsnr" v="780708" />
		<tag k="tourism" v="attraction" />
	</node>
	<node lat="59.616122221521046" lon="11.569213895532044" id="-15850">
		<tag k="name" v="Hagahaugen" />
		<tag k="place" v="locality" />
		<tag k="ssr:stedsnr" v="780939" />
	</node>
	<node lat="59.494669442274336" lon="11.533136103367147" id="-15851">
		<tag k="name" v="Vaktmesterposten" />
		<tag k="place" v="locality" />
		<tag k="ssr:stedsnr" v="780941" />
	</node>
	<node lat="59.372527778078684" lon="11.77579167146328" id="-15892">
		<tag k="name" v="Posemosen" />
		<tag k="place" v="locality" />
		<tag k="ssr:stedsnr" v="840981" />
	</node>
	<node lat="59.37422499799358" lon="11.769980554269543" id="-15893">
		<tag k="name" v="Fosbystykket" />
		<tag k="place" v="locality" />
		<tag k="ssr:stedsnr" v="840984" />
	</node>
	<node lat="59.447191670306594" lon="11.717030554037462" id="-15904">
		<tag k="name" v="Høkelund" />
		<tag k="place" v="locality" />
		<tag k="ssr:stedsnr" v="841699" />
	</node>
	<node lat="59.48118333396951" lon="11.649591671323352" id="-15917">
		<tag k="name" v="Tippesletta" />
		<tag k="place" v="locality" />
		<tag k="ssr:stedsnr" v="841740" />
	</node>
	<node lat="59.344158336725734" lon="11.694719440152525" id="-15931">
		<tag k="name" v="Bergerud" />
		<tag k="place" v="locality" />
		<tag k="ssr:stedsnr" v="842358" />
	</node>
	<node lat="59.646388886677045" lon="11.688491675135364" id="-15940">
		<tag k="name" v="Veatorget" />
		<tag k="place" v="locality" />
		<tag k="ssr:stedsnr" v="853233" />
	</node>
	<node lat="59.417533334870996" lon="11.633280564457541" id="-15958">
		<tag k="name" v="Lille Svenskekleva" />
		<tag k="place" v="locality" />
		<tag k="ssr:stedsnr" v="961553" />
	</node>
	<node lat="59.48408889005765" lon="11.60205833408383" id="-15960">
		<tag k="name" v="Pinihel" />
		<tag k="place" v="locality" />
		<tag k="ssr:stedsnr" v="961853" />
	</node>
	<node lat="59.573638889237216" lon="11.619936109898429" id="-15962">
		<tag k="name" v="Ødegård" />
		<tag k="place" v="locality" />
		<tag k="ssr:stedsnr" v="962736" />
	</node>
	<node lat="59.58952222196179" lon="11.515516661936365" id="-15971">
		<tag k="alt_name" v="Berkas" />
		<tag k="name" v="Spjern" />
		<tag k="place" v="locality" />
		<tag k="ssr:stedsnr" v="962174" />
	</node>
	<node lat="59.58529999807229" lon="11.551166673265222" id="-15972">
		<tag k="name" v="Stinastua" />
		<tag k="place" v="locality" />
		<tag k="ssr:stedsnr" v="962182" />
	</node>
	<node lat="59.63297500370882" lon="11.542666666334583" id="-15973">
		<tag k="name" v="Hølbekk" />
		<tag k="place" v="locality" />
		<tag k="ssr:stedsnr" v="962238" />
	</node>
	<node lat="59.635536114200306" lon="11.54035833260351" id="-15974">
		<tag k="name" v="Torget" />
		<tag k="place" v="locality" />
		<tag k="ssr:stedsnr" v="962239" />
	</node>
	<node lat="59.575905556011456" lon="11.525163884096191" id="-15978">
		<tag k="name" v="Tunskau" />
		<tag k="place" v="locality" />
		<tag k="ssr:stedsnr" v="962222" />
	</node>
	<node lat="59.565005551445175" lon="11.572344448231972" id="-15982">
		<tag k="name" v="Berget" />
		<tag k="place" v="locality" />
		<tag k="ssr:stedsnr" v="962230" />
	</node>
	<node lat="59.519547223857366" lon="11.685738885567426" id="-15988">
		<tag k="name" v="Hansehytta" />
		<tag k="place" v="locality" />
		<tag k="ssr:stedsnr" v="962336" />
	</node>
	<node lat="59.5136027739286" lon="11.565652785864915" id="-16012">
		<tag k="name" v="Seterbua" />
		<tag k="place" v="locality" />
		<tag k="ssr:stedsnr" v="962950" />
	</node>
	<node lat="59.47591944053756" lon="11.588486118388406" id="-16013">
		<tag k="name" v="Skumpen" />
		<tag k="place" v="locality" />
		<tag k="ssr:stedsnr" v="962821" />
	</node>
	<node lat="59.41338055147535" lon="11.586230562905198" id="-16020">
		<tag k="name" v="Kjella" />
		<tag k="place" v="locality" />
		<tag k="ssr:stedsnr" v="963162" />
=======
	<node id="-235864" lat="59.5645999961" lon="11.5649999925">
		<tag k="alt_name" v="Smeby nordre" />
		<tag k="name" v="Nordre Smeby" />
		<tag k="place" v="locality" />
		<tag k="ssr:stedsnr" v="720059" />
	</node>
	<node id="-235834" lat="59.3474861143" lon="11.7980944437">
		<tag k="name" v="Sootfurua" />
		<tag k="place" v="locality" />
		<tag k="ssr:stedsnr" v="719789" />
	</node>
	<node id="-237279" lat="59.5318333308" lon="11.700388883">
		<tag k="name" v="Kjelleren" />
		<tag k="place" v="locality" />
		<tag k="ssr:stedsnr" v="780352" />
	</node>
	<node id="-235827" lat="59.4054472249" lon="11.682722221">
		<tag k="name" v="Linto" />
		<tag k="place" v="locality" />
		<tag k="ssr:stedsnr" v="719546" />
	</node>
	<node id="-235825" lat="59.4221694406" lon="11.6318777836">
		<tag k="name" v="Brenna" />
		<tag k="place" v="locality" />
		<tag k="ssr:stedsnr" v="719538" />
	</node>
	<node id="-235809" lat="59.3808833356" lon="11.69147222">
		<tag k="name" v="Paradis" />
		<tag k="place" v="locality" />
		<tag k="ssr:stedsnr" v="719463" />
	</node>
	<node id="-235804" lat="59.5485166671" lon="11.6352194527">
		<tag k="name" v="Hellevad" />
		<tag k="place" v="locality" />
		<tag k="ssr:stedsnr" v="719374" />
	</node>
	<node id="-235800" lat="59.3738722212" lon="11.7253361138">
		<tag k="name" v="Vikshytta" />
		<tag k="place" v="locality" />
		<tag k="ssr:stedsnr" v="719309" />
	</node>
	<node id="-235794" lat="59.4951499976" lon="11.6475777735">
		<tag k="name" v="Ysterudbråten" />
		<tag k="place" v="locality" />
		<tag k="ssr:stedsnr" v="719199" />
	</node>
	<node id="-235791" lat="59.5859611152" lon="11.5459527725">
		<tag k="alt_name" v="Mellem-Vestby" />
		<tag k="name" v="Mellom-Vestby" />
		<tag k="place" v="locality" />
		<tag k="ssr:stedsnr" v="719194" />
	</node>
	<node id="-235790" lat="59.5888222217" lon="11.5681750037">
		<tag k="name" v="Folkenborg" />
		<tag k="place" v="locality" />
		<tag k="ssr:stedsnr" v="719142" />
	</node>
	<node id="-235223" lat="59.3708944422" lon="11.7396722191">
		<tag k="name" v="Katissa" />
		<tag k="place" v="locality" />
		<tag k="ssr:stedsnr" v="112820" />
	</node>
	<node id="-235768" lat="59.5743777807" lon="11.6171416661">
		<tag k="name" v="Ødegård" />
		<tag k="place" v="locality" />
		<tag k="ssr:stedsnr" v="538757" />
	</node>
	<node id="-235761" lat="59.3481361109" lon="11.6786722164">
		<tag k="name" v="Pinnekasa" />
		<tag k="place" v="locality" />
		<tag k="ssr:stedsnr" v="538402" />
	</node>
	<node id="-235756" lat="59.3660583357" lon="11.7699638862">
		<tag k="name" v="Tjæregravsbakken" />
		<tag k="place" v="locality" />
		<tag k="ssr:stedsnr" v="537983" />
	</node>
	<node id="-235749" lat="59.6057749956" lon="11.6653888904">
		<tag k="loc_name" v="Ulvvannshella" />
		<tag k="name" v="Ulvvannshalla" />
		<tag k="place" v="locality" />
		<tag k="ssr:stedsnr" v="537637" />
	</node>
	<node id="-235744" lat="59.5859611152" lon="11.5459527725">
		<tag k="name" v="Østre Vestby" />
		<tag k="place" v="locality" />
		<tag k="ssr:stedsnr" v="537184" />
	</node>
	<node id="-235743" lat="59.5038555558" lon="11.6608777715">
		<tag k="name" v="Lesby" />
		<tag k="place" v="locality" />
		<tag k="ssr:stedsnr" v="537183" />
	</node>
	<node id="-235714" lat="59.3563277807" lon="11.5889777745">
		<tag k="name" v="Bukkeklev" />
		<tag k="place" v="locality" />
		<tag k="ssr:stedsnr" v="477077" />
	</node>
	<node id="-235706" lat="59.3671944436" lon="11.7557472264">
		<tag k="name" v="Korsora" />
		<tag k="place" v="locality" />
		<tag k="ssr:stedsnr" v="476815" />
	</node>
	<node id="-235703" lat="59.6126416666" lon="11.6611999944">
		<tag k="name" v="Svingbakken" />
		<tag k="place" v="locality" />
		<tag k="ssr:stedsnr" v="476663" />
	</node>
	<node id="-235686" lat="59.5244916655" lon="11.636933339">
		<tag k="amenity" v="place_of_worship" />
		<tag k="denomination" v="lutheran" />
		<tag k="name" v="Klund kirke" />
		<tag k="religion" v="christian" />
		<tag k="ssr:stedsnr" v="671384" />
	</node>
	<node id="-235411" lat="59.3182972238" lon="11.5861888831">
		<tag k="name" v="Torvet" />
		<tag k="place" v="locality" />
		<tag k="ssr:stedsnr" v="476124" />
	</node>
	<node id="-235662" lat="59.4811388905" lon="11.6595833279">
		<tag k="amenity" v="place_of_worship" />
		<tag k="denomination" v="lutheran" />
		<tag k="name" v="Ørje kirke" />
		<tag k="religion" v="christian" />
		<tag k="ssr:stedsnr" v="670529" />
	</node>
	<node id="-235644" lat="59.6393472191" lon="11.6393777783">
		<tag k="name" v="Brudeberget" />
		<tag k="place" v="locality" />
		<tag k="ssr:stedsnr" v="659498" />
	</node>
	<node id="-235638" lat="59.6255305559" lon="11.5563111154">
		<tag k="name" v="Roås" />
		<tag k="place" v="locality" />
		<tag k="ssr:stedsnr" v="659235" />
	</node>
	<node id="-235636" lat="59.5858333306" lon="11.5213555639">
		<tag k="name" v="Hytta" />
		<tag k="place" v="locality" />
		<tag k="ssr:stedsnr" v="659209" />
	</node>
	<node id="-235625" lat="59.5088055546" lon="11.683788897">
		<tag k="name" v="Julleet" />
		<tag k="place" v="locality" />
		<tag k="ssr:stedsnr" v="659345" />
	</node>
	<node id="-235624" lat="59.5556027775" lon="11.5997694405">
		<tag k="name" v="Hytta" />
		<tag k="place" v="locality" />
		<tag k="ssr:stedsnr" v="659045" />
	</node>
	<node id="-235621" lat="59.3626027765" lon="11.5954916752">
		<tag k="name" v="Oreslora" />
		<tag k="place" v="locality" />
		<tag k="ssr:stedsnr" v="659083" />
	</node>
	<node id="-235617" lat="59.4658722237" lon="11.6044527819">
		<tag k="name" v="Tyrigrava" />
		<tag k="place" v="locality" />
		<tag k="ssr:stedsnr" v="658827" />
	</node>
	<node id="-235616" lat="59.3770222219" lon="11.6283222208">
		<tag k="name" v="Jerperud" />
		<tag k="place" v="locality" />
		<tag k="ssr:stedsnr" v="658812" />
	</node>
	<node id="-235615" lat="59.4777722232" lon="11.6001944452">
		<tag k="name" v="Brenna" />
		<tag k="place" v="locality" />
		<tag k="ssr:stedsnr" v="658809" />
	</node>
	<node id="-235611" lat="59.3584027807" lon="11.7859888969">
		<tag k="name" v="Dansefurua" />
		<tag k="place" v="locality" />
		<tag k="ssr:stedsnr" v="658790" />
	</node>
	<node id="-235610" lat="59.4561527784" lon="11.6017277851">
		<tag k="name" v="Grønne bakke" />
		<tag k="place" v="locality" />
		<tag k="ssr:stedsnr" v="658786" />
	</node>
	<node id="-235591" lat="59.4069027781" lon="11.6533361153">
		<tag k="name" v="Sundås" />
		<tag k="place" v="locality" />
		<tag k="ssr:stedsnr" v="658562" />
	</node>
	<node id="-235579" lat="59.4546611149" lon="11.7103777788">
		<tag k="name" v="Iverbråten" />
		<tag k="place" v="locality" />
		<tag k="ssr:stedsnr" v="658320" />
	</node>
	<node id="-235571" lat="59.5539861153" lon="11.573963886">
		<tag k="name" v="Bråten" />
		<tag k="place" v="locality" />
		<tag k="ssr:stedsnr" v="658022" />
	</node>
	<node id="-235570" lat="59.5538833356" lon="11.5804694521">
		<tag k="name" v="Hytta" />
		<tag k="place" v="locality" />
		<tag k="ssr:stedsnr" v="658021" />
	</node>
	<node id="-235566" lat="59.3900277768" lon="11.7471361154">
		<tag k="name" v="Stenbakken" />
		<tag k="place" v="locality" />
		<tag k="ssr:stedsnr" v="433907" />
	</node>
	<node id="-235548" lat="59.5645583295" lon="11.5922277709">
		<tag k="name" v="Slorebakk" />
		<tag k="place" v="locality" />
		<tag k="ssr:stedsnr" v="416230" />
	</node>
	<node id="-235546" lat="59.6170472251" lon="11.5351666665">
		<tag k="loc_name" v="Basmoen skanse" />
		<tag k="name" v="Basmo skanse" />
		<tag k="ssr:stedsnr" v="416217" />
		<tag k="tourism" v="attraction" />
	</node>
	<node id="-235533" lat="59.4443527783" lon="11.6144222222">
		<tag k="name" v="Høyseter" />
		<tag k="place" v="locality" />
		<tag k="ssr:stedsnr" v="354823" />
	</node>
	<node id="-235532" lat="59.3598027821" lon="11.7475444417">
		<tag k="name" v="Grønne bakke" />
		<tag k="place" v="locality" />
		<tag k="ssr:stedsnr" v="354822" />
	</node>
	<node id="-235525" lat="59.5880666667" lon="11.59473055">
		<tag k="amenity" v="place_of_worship" />
		<tag k="denomination" v="lutheran" />
		<tag k="name" v="Rødenes kirke" />
		<tag k="religion" v="christian" />
		<tag k="ssr:stedsnr" v="489461" />
	</node>
	<node id="-237570" lat="59.5136027739" lon="11.5656527859">
		<tag k="name" v="Seterbua" />
		<tag k="place" v="locality" />
		<tag k="ssr:stedsnr" v="962950" />
>>>>>>> e1d4bc35ff8a6074a6f2e91616a996b547c36f15
	</node>
</osm>
