<?xml version="1.0" encoding="UTF-8"?>
<osm version="0.6" generator="osmapis">
	<node lat="59.43233889142233" lon="11.581644449246443" id="-13441">
		<tag k="name" v="Vasketjern" />
		<tag k="natural" v="water" />
		<tag k="ssr:stedsnr" v="233212" />
	</node>
	<node lat="59.43722778196621" lon="11.599655563615807" id="-13442">
		<tag k="name" v="Bergtjern" />
		<tag k="natural" v="water" />
		<tag k="ssr:stedsnr" v="233242" />
	</node>
	<node lat="59.53907500010389" lon="11.589191673140041" id="-13451">
		<tag k="name" v="Lundselva" />
		<tag k="ssr:stedsnr" v="233476" />
		<tag k="waterway" v="stream" />
	</node>
	<node lat="59.449074997401105" lon="11.592644435578494" id="-13459">
		<tag k="name" v="Folungtjern" />
		<tag k="natural" v="water" />
		<tag k="ssr:stedsnr" v="233812" />
	</node>
	<node lat="59.448769442011056" lon="11.597983326855635" id="-13463">
		<tag k="name" v="Kroktjernsdammen" />
		<tag k="ssr:stedsnr" v="233844" />
		<tag k="waterway" v="dam" />
	</node>
	<node lat="59.38758332989256" lon="11.652988889480435" id="-13464">
		<tag k="name" v="Duenestangen" />
		<tag k="natural" v="cape" />
		<tag k="ssr:stedsnr" v="233849" />
	</node>
	<node lat="59.473061113977344" lon="11.598119444517073" id="-13465">
		<tag k="name" v="Dyptjernbekken" />
		<tag k="ssr:stedsnr" v="233877" />
		<tag k="waterway" v="stream" />
	</node>
	<node lat="59.39609999778303" lon="11.592275008197527" id="-13475">
		<tag k="name" v="Killingtjern" />
		<tag k="natural" v="water" />
		<tag k="ssr:stedsnr" v="234169" />
	</node>
	<node lat="59.39676111019766" lon="11.601469443298667" id="-13476">
		<tag k="name" v="Nordre Skottjern" />
		<tag k="natural" v="water" />
		<tag k="ssr:stedsnr" v="234171" />
	</node>
	<node lat="59.49170555766721" lon="11.668861104699024" id="-13479">
		<tag k="name" v="Engerelva" />
		<tag k="ssr:stedsnr" v="234220" />
		<tag k="waterway" v="river" />
	</node>
	<node lat="59.51107778138334" lon="11.707763897654807" id="-13484">
		<tag k="name" v="Nordre Butjern" />
		<tag k="natural" v="water" />
		<tag k="ssr:stedsnr" v="234369" />
	</node>
	<node lat="59.56272777680144" lon="11.691411118003051" id="-13485">
		<tag k="name" v="Bergtjernkulpen" />
		<tag k="natural" v="water" />
		<tag k="ssr:stedsnr" v="234370" />
	</node>
	<node lat="59.55400833740228" lon="11.684536105826254" id="-13486">
		<tag k="name" v="Gravtjern" />
		<tag k="natural" v="water" />
		<tag k="ssr:stedsnr" v="234376" />
	</node>
	<node lat="59.57678611512823" lon="11.64207222968955" id="-13493">
		<tag k="name" v="Søndre Askedalstjern" />
		<tag k="natural" v="water" />
		<tag k="ssr:stedsnr" v="234457" />
	</node>
	<node lat="59.62393611340009" lon="11.709380549637897" id="-13501">
		<tag k="name" v="Søndre Stutøye" />
		<tag k="natural" v="water" />
		<tag k="ssr:stedsnr" v="234558" />
	</node>
	<node lat="59.6154444436331" lon="11.699494441122962" id="-13502">
		<tag k="name" v="Bukketjern" />
		<tag k="natural" v="water" />
		<tag k="ssr:stedsnr" v="234559" />
	</node>
	<node lat="59.51852777646759" lon="11.543430553010364" id="-13517">
		<tag k="name" v="Stutøye" />
		<tag k="natural" v="water" />
		<tag k="ssr:stedsnr" v="234958" />
		<tag k="water" v="pond" />
	</node>
	<node lat="59.48594444503919" lon="11.597255557214643" id="-13519">
		<tag k="name" v="Ringen" />
		<tag k="natural" v="water" />
		<tag k="ssr:stedsnr" v="234969" />
	</node>
	<node lat="59.63915555317823" lon="11.569341658607014" id="-13525">
		<tag k="loc_name" v="Fossetjern" />
		<tag k="name" v="Fossetjernet" />
		<tag k="natural" v="water" />
		<tag k="ssr:stedsnr" v="52073" />
	</node>
	<node lat="59.61444999952328" lon="11.64334443608299" id="-13539">
		<tag k="name" v="Bekketjern" />
		<tag k="natural" v="water" />
		<tag k="ssr:stedsnr" v="52576" />
	</node>
	<node lat="59.361847220521035" lon="11.618086112472174" id="-13549">
		<tag k="name" v="Svarttjern" />
		<tag k="natural" v="water" />
		<tag k="ssr:stedsnr" v="53068" />
	</node>
	<node lat="59.45827500034861" lon="11.65328611684785" id="-13555">
		<tag k="name" v="Lifjorden" />
		<tag k="natural" v="water" />
		<tag k="ssr:stedsnr" v="63617" />
	</node>
	<node lat="59.64462222587064" lon="11.59242499409843" id="-13558">
		<tag k="alt_name" v="Mørkholttjern" />
		<tag k="name" v="Mørkholtjern" />
		<tag k="natural" v="water" />
		<tag k="ssr:stedsnr" v="64301" />
	</node>
	<node lat="59.36644333892211" lon="11.738909319090318" id="-13562">
		<tag k="fixme" v="multiple name tags, choose one and add the other to alt_name" />
		<tag k="name" v="Østre Otteidvika;Selvikfjorden" />
		<tag k="natural" v="bay" />
		<tag k="ssr:stedsnr" v="64705" />
	</node>
	<node lat="59.34952221852027" lon="11.624541671578218" id="-13564">
		<tag k="alt_name" v="Damtjerna" />
		<tag k="name" v="Øvre Damtjern" />
		<tag k="natural" v="water" />
		<tag k="ssr:stedsnr" v="64723" />
	</node>
	<node lat="59.473133335984684" lon="11.591749992614554" id="-13568">
		<tag k="fixme" v="multiple name tags, choose one and add the other to alt_name" />
		<tag k="name" v="Skompen;Nilsetjern" />
		<tag k="natural" v="water" />
		<tag k="ssr:stedsnr" v="245557" />
	</node>
	<node lat="59.64062499742192" lon="11.569469440497866" id="-13571">
		<tag k="alt_name" v="Skirfoss" />
		<tag k="name" v="Skirfossen" />
		<tag k="ssr:stedsnr" v="246292" />
		<tag k="waterway" v="rapids" />
	</node>
	<node lat="59.38792778031898" lon="11.600950005256168" id="-13580">
		<tag k="alt_name" v="Langetjern" />
		<tag k="name" v="Langtjern" />
		<tag k="natural" v="water" />
		<tag k="ssr:stedsnr" v="246531" />
	</node>
	<node lat="59.41195278183556" lon="11.711297224061498" id="-13581">
		<tag k="alt_name" v="Ledengstjern" />
		<tag k="name" v="Ledengtjern" />
		<tag k="natural" v="water" />
		<tag k="ssr:stedsnr" v="246487" />
	</node>
	<node lat="59.565999996800016" lon="11.591152773699923" id="-13597">
		<tag k="name" v="Kinnevika" />
		<tag k="natural" v="bay" />
		<tag k="ssr:stedsnr" v="113013" />
	</node>
	<node lat="59.5795916680093" lon="11.54678334060967" id="-13604">
		<tag k="name" v="Taraldrudelva" />
		<tag k="ssr:stedsnr" v="113217" />
		<tag k="waterway" v="river" />
	</node>
	<node lat="59.579775000570066" lon="11.526161108901285" id="-13605">
		<tag k="name" v="Kutangen" />
		<tag k="natural" v="cape" />
		<tag k="ssr:stedsnr" v="113222" />
	</node>
	<node lat="59.630099996279014" lon="11.573491663787788" id="-13607">
		<tag k="name" v="Seterøya" />
		<tag k="place" v="island" />
		<tag k="ssr:stedsnr" v="113229" />
	</node>
	<node lat="59.57900555997518" lon="11.524686115032972" id="-13608">
		<tag k="name" v="Fallettjernet" />
		<tag k="natural" v="water" />
		<tag k="ssr:stedsnr" v="113235" />
	</node>
	<node lat="59.628791664879394" lon="11.57062499945482" id="-13609">
		<tag k="name" v="Mellom-Trosvik" />
		<tag k="natural" v="bay" />
		<tag k="ssr:stedsnr" v="113236" />
	</node>
	<node lat="59.67568888689925" lon="11.63266110539506" id="-13612">
		<tag k="name" v="Lakentjern" />
		<tag k="natural" v="water" />
		<tag k="ssr:stedsnr" v="113403" />
	</node>
	<node lat="59.65702777761572" lon="11.718549997626468" id="-13613">
		<tag k="name" v="Krullfuruholmen" />
		<tag k="place" v="islet" />
		<tag k="ssr:stedsnr" v="113407" />
	</node>
	<node lat="59.66765000145153" lon="11.645511116624988" id="-13614">
		<tag k="name" v="Svartevik" />
		<tag k="natural" v="bay" />
		<tag k="ssr:stedsnr" v="113412" />
	</node>
	<node lat="59.616994443388016" lon="11.645974999476717" id="-13620">
		<tag k="name" v="Veåstjern" />
		<tag k="natural" v="water" />
		<tag k="ssr:stedsnr" v="113587" />
	</node>
	<node lat="59.59706388594761" lon="11.684938888411954" id="-13623">
		<tag k="name" v="Dypilene" />
		<tag k="natural" v="water" />
		<tag k="ssr:stedsnr" v="113674" />
		<tag k="water" v="pond" />
	</node>
	<node lat="59.48235555453125" lon="11.723952782069516" id="-13628">
		<tag k="alt_name" v="Brutjern, søndre" />
		<tag k="name" v="Søndre Brutjern" />
		<tag k="natural" v="water" />
		<tag k="ssr:stedsnr" v="123616" />
	</node>
	<node lat="59.44944166657044" lon="11.688555562759259" id="-13631">
		<tag k="name" v="Gjølsjøen" />
		<tag k="natural" v="water" />
		<tag k="ssr:stedsnr" v="123644" />
		<tag k="water" v="lake" />
	</node>
	<node lat="59.322488892202564" lon="11.783363886512795" id="-13632">
		<tag k="name" v="Skromleholmene" />
		<tag k="place" v="islet" />
		<tag k="ssr:stedsnr" v="124566" />
	</node>
	<node lat="59.34879166360593" lon="11.77473054934049" id="-13635">
		<tag k="name" v="Søndre Torgrimsbutjern" />
		<tag k="natural" v="water" />
		<tag k="ssr:stedsnr" v="124676" />
	</node>
	<node lat="59.44019722478922" lon="11.607011109361498" id="-13644">
		<tag k="name" v="Motjern" />
		<tag k="natural" v="water" />
		<tag k="ssr:stedsnr" v="172206" />
	</node>
	<node lat="59.35113055253104" lon="11.659238881877435" id="-13646">
		<tag k="name" v="Kjerstivik" />
		<tag k="natural" v="bay" />
		<tag k="ssr:stedsnr" v="172402" />
	</node>
	<node lat="59.35041666227477" lon="11.64836389001863" id="-13647">
		<tag k="name" v="Sauebukta" />
		<tag k="natural" v="bay" />
		<tag k="ssr:stedsnr" v="172403" />
	</node>
	<node lat="59.49880277504774" lon="11.64641389437227" id="-13650">
		<tag k="name" v="Peiskroken" />
		<tag k="natural" v="bay" />
		<tag k="ssr:stedsnr" v="173206" />
	</node>
	<node lat="59.54055833150428" lon="11.692063886267551" id="-13656">
		<tag k="name" v="Jøranbekken" />
		<tag k="ssr:stedsnr" v="173362" />
		<tag k="waterway" v="stream" />
	</node>
	<node lat="59.462444442858256" lon="11.641805556555543" id="-13659">
		<tag k="name" v="Lielva" />
		<tag k="ssr:stedsnr" v="173460" />
		<tag k="waterway" v="river" />
	</node>
	<node lat="59.61520000221656" lon="11.675463894883782" id="-13660">
		<tag k="name" v="Lysingtjern" />
		<tag k="natural" v="water" />
		<tag k="ssr:stedsnr" v="173461" />
	</node>
	<node lat="59.452200002299215" lon="11.653938887811197" id="-13661">
		<tag k="alt_name" v="Homlegårdsnebba" />
		<tag k="name" v="Humlegårdsnebba" />
		<tag k="natural" v="cape" />
		<tag k="ssr:stedsnr" v="173466" />
	</node>
	<node lat="59.34493888812755" lon="11.759991662088735" id="-13671">
		<tag k="name" v="Holteviknebba" />
		<tag k="natural" v="cape" />
		<tag k="ssr:stedsnr" v="173765" />
	</node>
	<node lat="59.478197222943805" lon="11.598266664937535" id="-13672">
		<tag k="name" v="Jonsvannselva" />
		<tag k="ssr:stedsnr" v="173813" />
		<tag k="waterway" v="river" />
	</node>
	<node lat="59.453080551313974" lon="11.749022219661853" id="-13676">
		<tag k="name" v="Torsbekk" />
		<tag k="ssr:stedsnr" v="173914" />
		<tag k="waterway" v="stream" />
	</node>
	<node lat="59.49288332934822" lon="11.593088894977521" id="-13678">
		<tag k="name" v="Seterelva" />
		<tag k="ssr:stedsnr" v="173916" />
		<tag k="waterway" v="river" />
	</node>
	<node lat="59.3726333344654" lon="11.599869446171594" id="-13681">
		<tag k="name" v="Salteblekksbekken" />
		<tag k="ssr:stedsnr" v="174104" />
		<tag k="waterway" v="stream" />
	</node>
	<node lat="59.34724722637932" lon="11.676475007690339" id="-13687">
		<tag k="name" v="Djupvika" />
		<tag k="natural" v="bay" />
		<tag k="old_name" v="Dypvika" />
		<tag k="ssr:stedsnr" v="174418" />
	</node>
	<node lat="59.57044999760343" lon="11.697197230642704" id="-13688">
		<tag k="name" v="Nilsetjern" />
		<tag k="natural" v="water" />
		<tag k="ssr:stedsnr" v="174423" />
	</node>
	<node lat="59.65486666296866" lon="11.652083339668293" id="-13689">
		<tag k="name" v="Lauvvika" />
		<tag k="natural" v="bay" />
		<tag k="ssr:stedsnr" v="174503" />
	</node>
	<node lat="59.649580559158366" lon="11.675166667805541" id="-13690">
		<tag k="name" v="Lønjedaltjernet" />
		<tag k="natural" v="water" />
		<tag k="ssr:stedsnr" v="174512" />
	</node>
	<node lat="59.55788055697979" lon="11.633261116546647" id="-13692">
		<tag k="name" v="Slupstadbekken" />
		<tag k="ssr:stedsnr" v="174457" />
		<tag k="waterway" v="stream" />
	</node>
	<node lat="59.467708336966076" lon="11.747722223194318" id="-13696">
		<tag k="alt_name" v="Holbekken" />
		<tag k="name" v="Hølbekken" />
		<tag k="ssr:stedsnr" v="184603" />
		<tag k="waterway" v="stream" />
	</node>
	<node lat="59.56128888679225" lon="11.678544450461102" id="-13702">
		<tag k="alt_name" v="Damtjerna" />
		<tag k="name" v="Damtjern" />
		<tag k="natural" v="water" />
		<tag k="ssr:stedsnr" v="185434" />
	</node>
	<node lat="59.319725297857886" lon="11.57845868086617" id="-13705">
		<tag k="fixme" v="multiple name tags, choose one and add the other to alt_name" />
		<tag k="name" v="Kolbjørnviksjøen;Kolviksjøen" />
		<tag k="natural" v="water" />
		<tag k="old_name" v="Kolbjørnsvik Sjø" />
		<tag k="ssr:stedsnr" v="185588" />
		<tag k="water" v="lake" />
	</node>
	<node lat="59.336341667440976" lon="11.777233340582967" id="-13706">
		<tag k="alt_name" v="Klokkerneset" />
		<tag k="name" v="Klokkarnebba" />
		<tag k="natural" v="cape" />
		<tag k="ssr:stedsnr" v="185710" />
	</node>
	<node lat="59.5849361097668" lon="11.597230559995976" id="-13711">
		<tag k="name" v="Tjuvholmen" />
		<tag k="natural" v="cape" />
		<tag k="ssr:stedsnr" v="186485" />
	</node>
	<node lat="59.33672248119112" lon="11.693142927804807" id="-13712">
		<tag k="name" v="Kutjern" />
		<tag k="natural" v="water" />
		<tag k="ssr:stedsnr" v="228632" />
	</node>
	<node lat="59.35574444153578" lon="11.717811104686449" id="-13713">
		<tag k="name" v="Skinnarbubukta" />
		<tag k="natural" v="bay" />
		<tag k="ssr:stedsnr" v="233282" />
	</node>
	<node lat="59.406977774524236" lon="11.62512777352875" id="-13715">
		<tag k="name" v="Skautjern" />
		<tag k="natural" v="water" />
		<tag k="ssr:stedsnr" v="233538" />
	</node>
	<node lat="59.40393888834588" lon="11.649705556637151" id="-13716">
		<tag k="name" v="Bakeribukta" />
		<tag k="natural" v="bay" />
		<tag k="ssr:stedsnr" v="233606" />
	</node>
	<node lat="59.44151666731912" lon="11.649522218024073" id="-13718">
		<tag k="name" v="Gressvik" />
		<tag k="natural" v="bay" />
		<tag k="ssr:stedsnr" v="233649" />
	</node>
	<node lat="59.38364166694518" lon="11.776719450355555" id="-13719">
		<tag k="name" v="Bærtjern" />
		<tag k="natural" v="water" />
		<tag k="ssr:stedsnr" v="233907" />
	</node>
	<node lat="59.480136115311986" lon="11.730488894664083" id="-13725">
		<tag k="name" v="Sørtjern" />
		<tag k="natural" v="water" />
		<tag k="ssr:stedsnr" v="234031" />
	</node>
	<node lat="59.47476389258664" lon="11.731802771476621" id="-13726">
		<tag k="name" v="Håbyelva" />
		<tag k="ssr:stedsnr" v="234032" />
		<tag k="waterway" v="stream" />
	</node>
	<node lat="59.325463313518306" lon="11.576884033583559" id="-13732">
		<tag k="name" v="Sundet" />
		<tag k="natural" v="strait" />
		<tag k="ssr:stedsnr" v="234103" />
	</node>
	<node lat="59.61971666770812" lon="11.579755554592357" id="-13733">
		<tag k="name" v="Husevika" />
		<tag k="natural" v="bay" />
		<tag k="ssr:stedsnr" v="234178" />
	</node>
	<node lat="59.5018861097047" lon="11.650277774469613" id="-13735">
		<tag k="name" v="Mosebyvika" />
		<tag k="natural" v="bay" />
		<tag k="ssr:stedsnr" v="234190" />
	</node>
	<node lat="59.65891944733707" lon="11.671472227855878" id="-13746">
		<tag k="name" v="Bøtta" />
		<tag k="natural" v="water" />
		<tag k="ssr:stedsnr" v="234414" />
	</node>
	<node lat="59.66294444303834" lon="11.665772213497801" id="-13747">
		<tag k="name" v="Nilsetjern" />
		<tag k="natural" v="water" />
		<tag k="ssr:stedsnr" v="234439" />
	</node>
	<node lat="59.55688611265086" lon="11.657627775208748" id="-13751">
		<tag k="name" v="Gørrtjern" />
		<tag k="natural" v="water" />
		<tag k="ssr:stedsnr" v="234388" />
		<tag k="water" v="pond" />
	</node>
	<node lat="59.56191389275888" lon="11.672347220041843" id="-13752">
		<tag k="name" v="Blekktjern" />
		<tag k="natural" v="water" />
		<tag k="ssr:stedsnr" v="234391" />
	</node>
	<node lat="59.49963055206502" lon="11.564766666580438" id="-13760">
		<tag k="name" v="Lomtjern" />
		<tag k="natural" v="water" />
		<tag k="ssr:stedsnr" v="234906" />
	</node>
	<node lat="59.48260277714892" lon="11.58362778564168" id="-13768">
		<tag k="alt_name" v="Lysevannet" />
		<tag k="name" v="Lysevann" />
		<tag k="natural" v="water" />
		<tag k="ssr:stedsnr" v="245568" />
	</node>
	<node lat="59.46312500436705" lon="11.578538886375776" id="-13770">
		<tag k="name" v="Svarttjern" />
		<tag k="natural" v="water" />
		<tag k="ssr:stedsnr" v="245580" />
	</node>
	<node lat="59.62274166385493" lon="11.707063895931931" id="-13778">
		<tag k="name" v="Ankertjern" />
		<tag k="natural" v="water" />
		<tag k="ssr:stedsnr" v="247266" />
	</node>
	<node lat="59.60291110932116" lon="11.673158340122416" id="-13783">
		<tag k="alt_name" v="Ulvvannet" />
		<tag k="name" v="Ulvevannet" />
		<tag k="natural" v="water" />
		<tag k="ssr:stedsnr" v="247428" />
		<tag k="water" v="lake" />
	</node>
	<node lat="59.4392388875195" lon="11.586141661648615" id="-13789">
		<tag k="name" v="Tvillingtjern" />
		<tag k="natural" v="water" />
		<tag k="ssr:stedsnr" v="294210" />
	</node>
	<node lat="59.351313889915254" lon="11.654186107218996" id="-13791">
		<tag k="name" v="Brevik" />
		<tag k="natural" v="bay" />
		<tag k="ssr:stedsnr" v="294412" />
	</node>
	<node lat="59.34349444722312" lon="11.723111116696959" id="-13796">
		<tag k="name" v="Botneholmen" />
		<tag k="place" v="islet" />
		<tag k="ssr:stedsnr" v="294322" />
	</node>
	<node lat="59.422591666155" lon="11.645238893355769" id="-13798">
		<tag k="name" v="Bernhusfossen" />
		<tag k="natural" v="waterfall" />
		<tag k="ssr:stedsnr" v="294605" />
	</node>
	<node lat="59.44577083760346" lon="11.60729584317151" id="-13807">
		<tag k="name" v="Aspetjerna" />
		<tag k="natural" v="water" />
		<tag k="ssr:stedsnr" v="294815" />
		<tag k="water" v="lake" />
	</node>
	<node lat="59.453111114273895" lon="11.588399991730292" id="-13809">
		<tag k="name" v="Blåbærtjern" />
		<tag k="natural" v="water" />
		<tag k="ssr:stedsnr" v="294774" />
	</node>
	<node lat="59.42115833029056" lon="11.61737777717651" id="-13810">
		<tag k="name" v="Vesle Kutjern" />
		<tag k="natural" v="water" />
		<tag k="ssr:stedsnr" v="294790" />
	</node>
	<node lat="59.50051666653333" lon="11.552519444912281" id="-13811">
		<tag k="name" v="Myrtjern" />
		<tag k="natural" v="water" />
		<tag k="ssr:stedsnr" v="294909" />
	</node>
	<node lat="59.488416668919896" lon="11.588983342018372" id="-13812">
		<tag k="name" v="Svartevannsfossen" />
		<tag k="natural" v="waterfall" />
		<tag k="ssr:stedsnr" v="294916" />
	</node>
	<node lat="59.378963888521284" lon="11.73530556396345" id="-13813">
		<tag k="name" v="Ødegårdsvika" />
		<tag k="natural" v="bay" />
		<tag k="ssr:stedsnr" v="294878" />
	</node>
	<node lat="59.55739444901599" lon="11.621769436621195" id="-13814">
		<tag k="name" v="Slupstadvika" />
		<tag k="natural" v="bay" />
		<tag k="ssr:stedsnr" v="295009" />
	</node>
	<node lat="59.56329444299578" lon="11.617377774670148" id="-13815">
		<tag k="name" v="Mjøvik" />
		<tag k="natural" v="bay" />
		<tag k="ssr:stedsnr" v="295012" />
	</node>
	<node lat="59.31987222051633" lon="11.625594448707016" id="-13824">
		<tag k="name" v="Marknarsten" />
		<tag k="place" v="islet" />
		<tag k="ssr:stedsnr" v="295411" />
	</node>
	<node lat="59.46194444032798" lon="11.637722215614628" id="-13831">
		<tag k="alt_name" v="Svanemyrdammen" />
		<tag k="name" v="Svanebydammen" />
		<tag k="natural" v="water" />
		<tag k="ssr:stedsnr" v="295518" />
	</node>
	<node lat="59.62888888547343" lon="11.657058328499321" id="-13832">
		<tag k="name" v="Fluetjern" />
		<tag k="natural" v="water" />
		<tag k="ssr:stedsnr" v="295522" />
	</node>
	<node lat="59.611288889884925" lon="11.579836118007568" id="-13835">
		<tag k="name" v="Rakkestadvika" />
		<tag k="natural" v="bay" />
		<tag k="ssr:stedsnr" v="295902" />
	</node>
	<node lat="59.467877782276474" lon="11.756722217010212" id="-13837">
		<tag k="name" v="Ankeruddyvelen" />
		<tag k="natural" v="water" />
		<tag k="ssr:stedsnr" v="295919" />
	</node>
	<node lat="59.353336107197485" lon="11.751224992323047" id="-13841">
		<tag k="name" v="Ankerbukta" />
		<tag k="natural" v="bay" />
		<tag k="ssr:stedsnr" v="295809" />
	</node>
	<node lat="59.497584311365316" lon="11.649840568673573" id="-13842">
		<tag k="fixme" v="multiple name tags, choose one and add the other to alt_name" />
		<tag k="name" v="Mosebyneset;Søndre Neset" />
		<tag k="natural" v="cape" />
		<tag k="ssr:stedsnr" v="306534" />
	</node>
	<node lat="59.32666389052581" lon="11.6179611122782" id="-13847">
		<tag k="alt_name" v="Bergtjern" />
		<tag k="name" v="Bergtjernet" />
		<tag k="natural" v="water" />
		<tag k="ssr:stedsnr" v="307653" />
	</node>
	<node lat="59.57125481062577" lon="11.525833032951581" id="-13851">
		<tag k="name" v="Hungervann" />
		<tag k="natural" v="water" />
		<tag k="ssr:stedsnr" v="307511" />
		<tag k="water" v="lake" />
	</node>
	<node lat="59.5194249980306" lon="11.548991670136559" id="-13853">
		<tag k="name" v="Posttjern" />
		<tag k="natural" v="water" />
		<tag k="ssr:stedsnr" v="465894" />
		<tag k="water" v="lake" />
	</node>
	<node lat="59.3589555576898" lon="11.621522225117433" id="-13860">
		<tag k="name" v="Blokktjern" />
		<tag k="natural" v="water" />
		<tag k="ssr:stedsnr" v="354317" />
	</node>
	<node lat="59.42134166891139" lon="11.655877783344605" id="-13863">
		<tag k="name" v="Tyvholmen" />
		<tag k="place" v="islet" />
		<tag k="ssr:stedsnr" v="354653" />
	</node>
	<node lat="59.4536333308172" lon="11.608205563039322" id="-13866">
		<tag k="name" v="Piketjern" />
		<tag k="natural" v="water" />
		<tag k="ssr:stedsnr" v="354813" />
	</node>
	<node lat="59.56310000009158" lon="11.615469441302071" id="-13869">
		<tag k="name" v="Degnesneset" />
		<tag k="natural" v="cape" />
		<tag k="ssr:stedsnr" v="355002" />
	</node>
	<node lat="59.640375003822406" lon="11.56764443999467" id="-13875">
		<tag k="name" v="Fossøya" />
		<tag k="place" v="island" />
		<tag k="ssr:stedsnr" v="355100" />
	</node>
	<node lat="59.64823889182098" lon="11.6377333328062" id="-13881">
		<tag k="name" v="Nordre Auretjern" />
		<tag k="natural" v="water" />
		<tag k="ssr:stedsnr" v="355413" />
	</node>
	<node lat="59.63672222673053" lon="11.693713882211568" id="-13883">
		<tag k="name" v="Svartvik" />
		<tag k="natural" v="bay" />
		<tag k="ssr:stedsnr" v="355420" />
	</node>
	<node lat="59.62053055592066" lon="11.586363883723774" id="-13885">
		<tag k="name" v="Bjørneholmen" />
		<tag k="place" v="islet" />
		<tag k="ssr:stedsnr" v="355188" />
	</node>
	<node lat="59.43686666848146" lon="11.679725000813432" id="-13891">
		<tag k="name" v="Sandtorpfjorden" />
		<tag k="natural" v="water" />
		<tag k="ssr:stedsnr" v="355561" />
	</node>
	<node lat="59.480366670059745" lon="11.557991664505593" id="-13895">
		<tag k="name" v="Holoskjæra" />
		<tag k="natural" v="water" />
		<tag k="ssr:stedsnr" v="355767" />
	</node>
	<node lat="59.4977472182769" lon="11.616274994081875" id="-13899">
		<tag k="name" v="Broketjernbekken" />
		<tag k="ssr:stedsnr" v="355865" />
		<tag k="waterway" v="stream" />
	</node>
	<node lat="59.48861944142118" lon="11.558613889312525" id="-13904">
		<tag k="name" v="Det svarte tjernet" />
		<tag k="natural" v="water" />
		<tag k="ssr:stedsnr" v="355960" />
	</node>
	<node lat="59.62390278086746" lon="11.684050002896944" id="-13910">
		<tag k="name" v="Svartvannet" />
		<tag k="natural" v="water" />
		<tag k="ssr:stedsnr" v="476588" />
	</node>
	<node lat="59.642847219954085" lon="11.565241674373398" id="-13913">
		<tag k="name" v="Geitøya" />
		<tag k="place" v="island" />
		<tag k="ssr:stedsnr" v="476099" />
	</node>
	<node lat="59.48252221944231" lon="11.729391662607679" id="-13915">
		<tag k="name" v="Gørrtjern" />
		<tag k="natural" v="water" />
		<tag k="ssr:stedsnr" v="476040" />
	</node>
	<node lat="59.43447777403682" lon="11.58478888447495" id="-13917">
		<tag k="name" v="Hundetjern" />
		<tag k="natural" v="water" />
		<tag k="ssr:stedsnr" v="476197" />
	</node>
	<node lat="59.435305557416456" lon="11.61358333051171" id="-13920">
		<tag k="name" v="Oksestenstjern" />
		<tag k="natural" v="water" />
		<tag k="ssr:stedsnr" v="476205" />
	</node>
	<node lat="59.35215555443167" lon="11.712844441123222" id="-13923">
		<tag k="name" v="Vestrebukta" />
		<tag k="natural" v="bay" />
		<tag k="ssr:stedsnr" v="476327" />
	</node>
	<node lat="59.662247220162776" lon="11.68187777088938" id="-13932">
		<tag k="name" v="Smørbekktjern" />
		<tag k="natural" v="water" />
		<tag k="ssr:stedsnr" v="477438" />
	</node>
	<node lat="59.534241664687165" lon="11.600547221198566" id="-13933">
		<tag k="name" v="Østenbyelva" />
		<tag k="ssr:stedsnr" v="476431" />
		<tag k="waterway" v="river" />
	</node>
	<node lat="59.30799722236956" lon="11.811333340108979" id="-13934">
		<tag k="name" v="Brente holme" />
		<tag k="place" v="islet" />
		<tag k="ssr:stedsnr" v="476462" />
	</node>
	<node lat="59.464344441720186" lon="11.668202779656804" id="-13936">
		<tag k="name" v="Bøenselva" />
		<tag k="ssr:stedsnr" v="476490" />
		<tag k="waterway" v="river" />
	</node>
	<node lat="59.39279721966893" lon="11.714788883787977" id="-13941">
		<tag k="name" v="Dyvelen" />
		<tag k="natural" v="water" />
		<tag k="ssr:stedsnr" v="476503" />
		<tag k="water" v="pond" />
	</node>
	<node lat="59.44395833340249" lon="11.657527782762116" id="-13942">
		<tag k="name" v="Årnessundet" />
		<tag k="natural" v="strait" />
		<tag k="ssr:stedsnr" v="476506" />
	</node>
	<node lat="59.40062680151459" lon="11.673658221595499" id="-13944">
		<tag k="name" v="Fløviktjern" />
		<tag k="natural" v="water" />
		<tag k="ssr:stedsnr" v="476546" />
	</node>
	<node lat="59.61357222592614" lon="11.688686102656094" id="-13946">
		<tag k="name" v="Nordre Skålvannet" />
		<tag k="natural" v="water" />
		<tag k="ssr:stedsnr" v="476688" />
	</node>
	<node lat="59.46337777804157" lon="11.573916660946356" id="-13948">
		<tag k="name" v="Mellemtjern" />
		<tag k="natural" v="water" />
		<tag k="ssr:stedsnr" v="476770" />
	</node>
	<node lat="59.563080553416135" lon="11.541180548376781" id="-13961">
		<tag k="name" v="Vestre Gravtjern" />
		<tag k="natural" v="water" />
		<tag k="ssr:stedsnr" v="477066" />
	</node>
	<node lat="59.582586113353436" lon="11.520136117115936" id="-13966">
		<tag k="name" v="Fjellengtjernet" />
		<tag k="natural" v="water" />
		<tag k="ssr:stedsnr" v="477191" />
	</node>
	<node lat="59.33778611046827" lon="11.774011109030234" id="-13975">
		<tag k="name" v="Mørkvik" />
		<tag k="natural" v="bay" />
		<tag k="ssr:stedsnr" v="477831" />
	</node>
	<node lat="59.47116944651546" lon="11.75453610843135" id="-13976">
		<tag k="name" v="Sølvdyvelen" />
		<tag k="natural" v="water" />
		<tag k="ssr:stedsnr" v="477942" />
		<tag k="water" v="pond" />
	</node>
	<node lat="59.56692777476369" lon="11.686344442214105" id="-13978">
		<tag k="name" v="Bergtjern" />
		<tag k="natural" v="water" />
		<tag k="ssr:stedsnr" v="477380" />
	</node>
	<node lat="59.56963333400068" lon="11.648327771237375" id="-13981">
		<tag k="name" v="Kutjern" />
		<tag k="natural" v="water" />
		<tag k="ssr:stedsnr" v="477401" />
	</node>
	<node lat="59.64690277405623" lon="11.661483341394701" id="-13986">
		<tag k="name" v="Haratjern" />
		<tag k="natural" v="water" />
		<tag k="ssr:stedsnr" v="477492" />
	</node>
	<node lat="59.661394445841474" lon="11.64331389173195" id="-13987">
		<tag k="name" v="Nordre Gorotjern" />
		<tag k="natural" v="water" />
		<tag k="ssr:stedsnr" v="477450" />
	</node>
	<node lat="59.61703611080659" lon="11.656316667976366" id="-13989">
		<tag k="name" v="Søndre Stutøye" />
		<tag k="natural" v="water" />
		<tag k="ssr:stedsnr" v="477635" />
	</node>
	<node lat="59.57155555909818" lon="11.588622223069615" id="-13992">
		<tag k="name" v="Svartvik" />
		<tag k="natural" v="bay" />
		<tag k="ssr:stedsnr" v="477533" />
	</node>
	<node lat="59.57788889245515" lon="11.580483328623249" id="-13995">
		<tag k="name" v="Vikebyholmen" />
		<tag k="place" v="islet" />
		<tag k="ssr:stedsnr" v="477540" />
	</node>
	<node lat="59.57625555687122" lon="11.575808338753912" id="-13996">
		<tag k="name" v="Lindvik" />
		<tag k="natural" v="bay" />
		<tag k="ssr:stedsnr" v="477542" />
	</node>
	<node lat="59.49518611430841" lon="11.610827770829172" id="-14001">
		<tag k="alt_name" v="Broketjern" />
		<tag k="name" v="Brokstjern" />
		<tag k="natural" v="water" />
		<tag k="ssr:stedsnr" v="366585" />
	</node>
	<node lat="59.64538055640012" lon="11.616283327528203" id="-14003">
		<tag k="alt_name" v="Trytjerna" />
		<tag k="name" v="Trytjern" />
		<tag k="natural" v="water" />
		<tag k="ssr:stedsnr" v="367207" />
	</node>
	<node lat="59.540947521563794" lon="11.685583964301486" id="-14005">
		<tag k="alt_name" v="Huevann;Huvannet" />
		<tag k="name" v="Huevannet" />
		<tag k="natural" v="water" />
		<tag k="old_name" v="Hue V." />
		<tag k="ssr:stedsnr" v="367336" />
		<tag k="water" v="lake" />
	</node>
	<node lat="59.39616666972936" lon="11.704838895128157" id="-14006">
		<tag k="alt_name" v="Solerudtjernet" />
		<tag k="name" v="Solerudtjern" />
		<tag k="natural" v="water" />
		<tag k="ssr:stedsnr" v="367471" />
	</node>
	<node lat="59.40013055809298" lon="11.689983324910662" id="-14007">
		<tag k="name" v="Stikletjern" />
		<tag k="natural" v="water" />
		<tag k="ssr:stedsnr" v="367472" />
	</node>
	<node lat="59.35468611467994" lon="11.594747225467513" id="-14009">
		<tag k="name" v="Setertjern" />
		<tag k="natural" v="water" />
		<tag k="ssr:stedsnr" v="367703" />
	</node>
	<node lat="59.38647777750737" lon="11.661427773890802" id="-14028">
		<tag k="name" v="Tangen" />
		<tag k="natural" v="cape" />
		<tag k="ssr:stedsnr" v="415848" />
	</node>
	<node lat="59.4726777811683" lon="11.653816664241877" id="-14032">
		<tag k="name" v="Sløka" />
		<tag k="natural" v="water" />
		<tag k="ssr:stedsnr" v="416047" />
		<tag k="water" v="lake" />
	</node>
	<node lat="59.575713884744495" lon="11.536908335446054" id="-14035">
		<tag k="name" v="Ådalsfoss" />
		<tag k="natural" v="waterfall" />
		<tag k="ssr:stedsnr" v="416206" />
	</node>
	<node lat="59.630925000860174" lon="11.627858327541855" id="-14036">
		<tag k="name" v="Krokselva" />
		<tag k="ssr:stedsnr" v="416137" />
		<tag k="waterway" v="river" />
	</node>
	<node lat="59.48862499658799" lon="11.632933327964116" id="-14039">
		<tag k="name" v="Kolletjern" />
		<tag k="natural" v="water" />
		<tag k="ssr:stedsnr" v="416200" />
	</node>
	<node lat="59.65861944538929" lon="11.676083333408933" id="-14042">
		<tag k="name" v="Aurekyttjern" />
		<tag k="natural" v="water" />
		<tag k="ssr:stedsnr" v="416407" />
	</node>
	<node lat="59.63340833680417" lon="11.647286115855298" id="-14048">
		<tag k="name" v="Fluetjernsbekken" />
		<tag k="ssr:stedsnr" v="416507" />
		<tag k="waterway" v="stream" />
	</node>
	<node lat="59.45285555387917" lon="11.71769722277248" id="-14050">
		<tag k="name" v="Klevtjern" />
		<tag k="natural" v="water" />
		<tag k="ssr:stedsnr" v="416693" />
	</node>
	<node lat="59.61283888538881" lon="11.597669448605373" id="-14051">
		<tag k="name" v="Engevik" />
		<tag k="natural" v="bay" />
		<tag k="ssr:stedsnr" v="416862" />
	</node>
	<node lat="59.60805555575594" lon="11.585191665078483" id="-14052">
		<tag k="name" v="Nygårdsvika" />
		<tag k="natural" v="bay" />
		<tag k="ssr:stedsnr" v="416864" />
	</node>
	<node lat="59.393983337690365" lon="11.599761117526585" id="-14059">
		<tag k="name" v="Søndre Skottjern" />
		<tag k="natural" v="water" />
		<tag k="ssr:stedsnr" v="417089" />
	</node>
	<node lat="59.339494447102574" lon="11.658819445812691" id="-14072">
		<tag k="name" v="Bøensfjorden" />
		<tag k="natural" v="water" />
		<tag k="ssr:stedsnr" v="488739" />
	</node>
	<node lat="59.48884722509342" lon="11.724583337933394" id="-14077">
		<tag k="alt_name" v="Stenstjern" />
		<tag k="name" v="Steintjern" />
		<tag k="natural" v="water" />
		<tag k="ssr:stedsnr" v="427576" />
	</node>
	<node lat="59.46919444268588" lon="11.591394436778057" id="-14081">
		<tag k="alt_name" v="Djupetjern" />
		<tag k="name" v="Dyptjern" />
		<tag k="natural" v="water" />
		<tag k="ssr:stedsnr" v="427589" />
	</node>
	<node lat="59.35405555529002" lon="11.718202782002367" id="-14090">
		<tag k="name" v="Skinnarbutjern" />
		<tag k="natural" v="water" />
		<tag k="ssr:stedsnr" v="428705" />
	</node>
	<node lat="59.61170833579798" lon="11.658111108721943" id="-14094">
		<tag k="alt_name" v="Hølvannet" />
		<tag k="name" v="Hølevann" />
		<tag k="natural" v="water" />
		<tag k="ssr:stedsnr" v="429446" />
	</node>
	<node lat="59.619133337271414" lon="11.58632500471841" id="-14099">
		<tag k="name" v="Kroksund" />
		<tag k="natural" v="strait" />
		<tag k="ssr:stedsnr" v="671294" />
	</node>
	<node lat="59.35176944717292" lon="11.575575002373553" id="-14105">
		<tag k="name" v="Langetjern" />
		<tag k="natural" v="water" />
		<tag k="ssr:stedsnr" v="476128" />
	</node>
	<node lat="59.35179444786138" lon="11.582913882953658" id="-14106">
		<tag k="name" v="Flesertjern" />
		<tag k="natural" v="water" />
		<tag k="ssr:stedsnr" v="476129" />
	</node>
	<node lat="59.43902777812353" lon="11.590958328799179" id="-14108">
		<tag k="name" v="Vesletjern" />
		<tag k="natural" v="water" />
		<tag k="ssr:stedsnr" v="476213" />
	</node>
	<node lat="59.42963611502198" lon="11.597311105996823" id="-14109">
		<tag k="name" v="Øytjern" />
		<tag k="natural" v="water" />
		<tag k="ssr:stedsnr" v="476215" />
	</node>
	<node lat="59.49084167039055" lon="11.650455554108134" id="-14112">
		<tag k="name" v="Sauelauga" />
		<tag k="natural" v="bay" />
		<tag k="ssr:stedsnr" v="476229" />
	</node>
	<node lat="59.43063889117744" lon="11.623627775060422" id="-14113">
		<tag k="name" v="Søndre Setertjern" />
		<tag k="natural" v="water" />
		<tag k="ssr:stedsnr" v="476606" />
	</node>
	<node lat="59.621572220755596" lon="11.695941673018215" id="-14117">
		<tag k="name" v="Myrdammen" />
		<tag k="natural" v="water" />
		<tag k="ssr:stedsnr" v="476561" />
	</node>
	<node lat="59.4043416652302" lon="11.678424999455647" id="-14118">
		<tag k="name" v="Lintotjern" />
		<tag k="natural" v="water" />
		<tag k="ssr:stedsnr" v="476568" />
	</node>
	<node lat="59.49033889048373" lon="11.59761110495955" id="-14120">
		<tag k="name" v="Anderstjern" />
		<tag k="natural" v="water" />
		<tag k="ssr:stedsnr" v="476915" />
	</node>
	<node lat="59.48630277746103" lon="11.567288892695137" id="-14122">
		<tag k="alt_name" v="Nedre Burumtjern" />
		<tag k="name" v="Nordre Burumtjern" />
		<tag k="natural" v="water" />
		<tag k="ssr:stedsnr" v="476963" />
	</node>
	<node lat="59.45973889014721" lon="11.597572219579387" id="-14123">
		<tag k="name" v="Ormetjern" />
		<tag k="natural" v="water" />
		<tag k="ssr:stedsnr" v="476803" />
	</node>
	<node lat="59.38223888852192" lon="11.732488886057919" id="-14127">
		<tag k="name" v="Sauevika" />
		<tag k="natural" v="bay" />
		<tag k="ssr:stedsnr" v="476875" />
	</node>
	<node lat="59.408125000173655" lon="11.599258331211455" id="-14131">
		<tag k="name" v="Killingtjern" />
		<tag k="natural" v="water" />
		<tag k="ssr:stedsnr" v="477174" />
	</node>
	<node lat="59.64149166610258" lon="11.644852776709874" id="-14142">
		<tag k="name" v="Risenelva" />
		<tag k="ssr:stedsnr" v="477565" />
		<tag k="waterway" v="river" />
	</node>
	<node lat="59.643988888197676" lon="11.638569450842303" id="-14146">
		<tag k="name" v="Søndre Auretjern" />
		<tag k="natural" v="water" />
		<tag k="ssr:stedsnr" v="477462" />
	</node>
	<node lat="59.5938611090073" lon="11.593402783876051" id="-14149">
		<tag k="name" v="Putten" />
		<tag k="natural" v="bay" />
		<tag k="ssr:stedsnr" v="477924" />
	</node>
	<node lat="59.215630552515606" lon="11.843316662680468" id="-14153">
		<tag k="name" v="Store Le" />
		<tag k="natural" v="water" />
		<tag k="ssr:stedsnr" v="486236" />
		<tag k="water" v="lake" />
	</node>
	<node lat="59.46368055642658" lon="11.611572226978963" id="-14156">
		<tag k="alt_name" v="Gjøvannselvene;Elvene" />
		<tag k="name" v="Gjøvasselva" />
		<tag k="ssr:stedsnr" v="488592" />
		<tag k="waterway" v="stream" />
	</node>
	<node lat="59.521913890478345" lon="11.698536108394007" id="-14162">
		<tag k="name" v="Langvannet" />
		<tag k="natural" v="water" />
		<tag k="ssr:stedsnr" v="489401" />
	</node>
	<node lat="59.5733152732098" lon="11.639145257790885" id="-14163">
		<tag k="alt_name" v="Bergtjern" />
		<tag k="name" v="Nordre Bergtjern" />
		<tag k="natural" v="water" />
		<tag k="ssr:stedsnr" v="489512" />
	</node>
	<node lat="59.53768610713179" lon="11.593769451499641" id="-14166">
		<tag k="alt_name" v="Lundstjernet" />
		<tag k="name" v="Lundstjern" />
		<tag k="natural" v="water" />
		<tag k="ssr:stedsnr" v="489410" />
	</node>
	<node lat="59.32831111242688" lon="11.615644441462512" id="-14172">
		<tag k="name" v="Vesletjern" />
		<tag k="natural" v="water" />
		<tag k="ssr:stedsnr" v="537102" />
	</node>
	<node lat="59.59420555157414" lon="11.657669450983475" id="-14178">
		<tag k="name" v="Honkemosetjern" />
		<tag k="natural" v="water" />
		<tag k="ssr:stedsnr" v="537266" />
	</node>
	<node lat="59.48069721784977" lon="11.59494444819429" id="-14190">
		<tag k="name" v="Søndre Jonsvannet" />
		<tag k="natural" v="water" />
		<tag k="ssr:stedsnr" v="537810" />
	</node>
	<node lat="59.50492777645588" lon="11.581411117363633" id="-14197">
		<tag k="name" v="Hammeråsdyplene" />
		<tag k="natural" v="water" />
		<tag k="ssr:stedsnr" v="537871" />
	</node>
	<node lat="59.50140277900049" lon="11.578402780910645" id="-14198">
		<tag k="name" v="Lomtjern" />
		<tag k="natural" v="water" />
		<tag k="ssr:stedsnr" v="537872" />
	</node>
	<node lat="59.496822220956474" lon="11.542502781138026" id="-14202">
		<tag k="name" v="Søndre Damtjern" />
		<tag k="natural" v="water" />
		<tag k="ssr:stedsnr" v="537882" />
	</node>
	<node lat="59.497786109097845" lon="11.547983339568676" id="-14203">
		<tag k="name" v="Mattjern" />
		<tag k="natural" v="water" />
		<tag k="ssr:stedsnr" v="537885" />
	</node>
	<node lat="59.562741662498354" lon="11.547527771542887" id="-14205">
		<tag k="name" v="Mellem Gravtjern" />
		<tag k="natural" v="water" />
		<tag k="ssr:stedsnr" v="538071" />
	</node>
	<node lat="59.5696499962149" lon="11.531830561491969" id="-14206">
		<tag k="name" v="Karlstadtangen" />
		<tag k="natural" v="cape" />
		<tag k="ssr:stedsnr" v="538073" />
	</node>
	<node lat="59.568463887096485" lon="11.664333332241632" id="-14211">
		<tag k="name" v="Bergtjern" />
		<tag k="natural" v="water" />
		<tag k="ssr:stedsnr" v="538422" />
	</node>
	<node lat="59.573619445918375" lon="11.584655547050538" id="-14218">
		<tag k="name" v="Kattholmen" />
		<tag k="place" v="islet" />
		<tag k="ssr:stedsnr" v="538517" />
	</node>
	<node lat="59.57242777445017" lon="11.58367777142319" id="-14220">
		<tag k="name" v="Skytterhusvika" />
		<tag k="natural" v="bay" />
		<tag k="ssr:stedsnr" v="538524" />
	</node>
	<node lat="59.631141669045775" lon="11.672636118972115" id="-14224">
		<tag k="name" v="Kislebergmosetjern" />
		<tag k="natural" v="water" />
		<tag k="ssr:stedsnr" v="538568" />
	</node>
	<node lat="59.440733658260854" lon="11.568796432661983" id="-14228">
		<tag k="alt_name" v="Frønesjøen" />
		<tag k="name" v="Frønessjøen" />
		<tag k="natural" v="water" />
		<tag k="ssr:stedsnr" v="548602" />
		<tag k="water" v="lake" />
	</node>
	<node lat="59.49262777984794" lon="11.579111105789266" id="-14232">
		<tag k="alt_name" v="Langevann" />
		<tag k="name" v="Langevannet" />
		<tag k="natural" v="water" />
		<tag k="ssr:stedsnr" v="548568" />
	</node>
	<node lat="59.496255558252535" lon="11.554952781391165" id="-14233">
		<tag k="name" v="Søndre Lervannet" />
		<tag k="natural" v="water" />
		<tag k="ssr:stedsnr" v="548572" />
	</node>
	<node lat="59.427739911704776" lon="11.626163964993351" id="-14242">
		<tag k="name" v="Trytjerna" />
		<tag k="natural" v="water" />
		<tag k="ssr:stedsnr" v="549471" />
		<tag k="water" v="lake" />
	</node>
	<node lat="59.35326389152607" lon="11.766405559835215" id="-14243">
		<tag k="name" v="Nordre Torgrimsbutjern" />
		<tag k="natural" v="water" />
		<tag k="ssr:stedsnr" v="549704" />
	</node>
	<node lat="59.35788888894373" lon="11.668372218790324" id="-14250">
		<tag k="name" v="Nordre Knollsøya" />
		<tag k="place" v="islet" />
		<tag k="ssr:stedsnr" v="597306" />
	</node>
	<node lat="59.67496389184847" lon="11.646388887984639" id="-14276">
		<tag k="name" v="Ørnevikene" />
		<tag k="natural" v="bay" />
		<tag k="ssr:stedsnr" v="598418" />
	</node>
	<node lat="59.63715277687189" lon="11.70730556378875" id="-14277">
		<tag k="name" v="Rødvannstangen" />
		<tag k="natural" v="cape" />
		<tag k="ssr:stedsnr" v="598451" />
	</node>
	<node lat="59.45258333097631" lon="11.649258336242621" id="-14281">
		<tag k="name" v="Eketangen" />
		<tag k="natural" v="cape" />
		<tag k="ssr:stedsnr" v="598502" />
	</node>
	<node lat="59.62645555931312" lon="11.633947226711975" id="-14284">
		<tag k="name" v="Stuetjern" />
		<tag k="natural" v="water" />
		<tag k="ssr:stedsnr" v="598517" />
	</node>
	<node lat="59.486902778913624" lon="11.59148332876184" id="-14293">
		<tag k="name" v="Jonsvanna" />
		<tag k="natural" v="water" />
		<tag k="ssr:stedsnr" v="609535" />
		<tag k="water" v="lake" />
	</node>
	<node lat="59.485266666993255" lon="11.717547215927135" id="-14294">
		<tag k="alt_name" v="Brutjern, nordre" />
		<tag k="name" v="Nordre Brutjern" />
		<tag k="natural" v="water" />
		<tag k="ssr:stedsnr" v="609538" />
	</node>
	<node lat="59.491663890636" lon="11.716241672426536" id="-14295">
		<tag k="alt_name" v="Abbortjern" />
		<tag k="name" v="Abbortjernet" />
		<tag k="natural" v="water" />
		<tag k="ssr:stedsnr" v="609541" />
	</node>
	<node lat="59.529844444473454" lon="11.719580554811893" id="-14298">
		<tag k="name" v="Gøkstjern" />
		<tag k="natural" v="water" />
		<tag k="ssr:stedsnr" v="610425" />
	</node>
	<node lat="59.44011944532108" lon="11.604147218089883" id="-14310">
		<tag k="name" v="Telltjern" />
		<tag k="natural" v="water" />
		<tag k="ssr:stedsnr" v="658217" />
		<tag k="water" v="pond" />
	</node>
	<node lat="59.35371944519197" lon="11.703288894537701" id="-14316">
		<tag k="name" v="Kalviknebba" />
		<tag k="natural" v="cape" />
		<tag k="ssr:stedsnr" v="658330" />
	</node>
	<node lat="59.35607777840888" lon="11.677433327666584" id="-14318">
		<tag k="name" v="Langebauen" />
		<tag k="natural" v="bay" />
		<tag k="ssr:stedsnr" v="658335" />
	</node>
	<node lat="59.40522777431507" lon="11.69604721805992" id="-14325">
		<tag k="name" v="Husetjern" />
		<tag k="natural" v="water" />
		<tag k="ssr:stedsnr" v="658594" />
	</node>
	<node lat="59.46953888798421" lon="11.575922214109415" id="-14327">
		<tag k="name" v="Langetjern" />
		<tag k="natural" v="water" />
		<tag k="ssr:stedsnr" v="658783" />
	</node>
	<node lat="59.47459677620359" lon="11.60822521463509" id="-14330">
		<tag k="name" v="Karl Johans tange" />
		<tag k="natural" v="cape" />
		<tag k="ssr:stedsnr" v="658795" />
	</node>
	<node lat="59.47065277630944" lon="11.609022221551884" id="-14337">
		<tag k="name" v="Gjøvannsdammen" />
		<tag k="ssr:stedsnr" v="658841" />
		<tag k="waterway" v="dam" />
	</node>
	<node lat="59.48926111541851" lon="11.59127500531487" id="-14338">
		<tag k="name" v="Setertangen" />
		<tag k="natural" v="cape" />
		<tag k="ssr:stedsnr" v="658887" />
	</node>
	<node lat="59.364016666525956" lon="11.600827785575337" id="-14341">
		<tag k="name" v="Søndre Kroktjern" />
		<tag k="natural" v="water" />
		<tag k="ssr:stedsnr" v="659085" />
	</node>
	<node lat="59.63333055492183" lon="11.56683888329367" id="-14347">
		<tag k="name" v="Gjeddevik" />
		<tag k="natural" v="bay" />
		<tag k="ssr:stedsnr" v="659240" />
	</node>
	<node lat="59.64416111395637" lon="11.648291668905998" id="-14354">
		<tag k="name" v="Grindvika" />
		<tag k="natural" v="bay" />
		<tag k="ssr:stedsnr" v="659488" />
	</node>
	<node lat="59.5711833354907" lon="11.59066665826483" id="-14356">
		<tag k="name" v="Ringnes" />
		<tag k="natural" v="cape" />
		<tag k="ssr:stedsnr" v="659500" />
	</node>
	<node lat="59.61650278031677" lon="11.672358331846253" id="-14357">
		<tag k="name" v="Vesle Lysingtjern" />
		<tag k="natural" v="water" />
		<tag k="ssr:stedsnr" v="659511" />
	</node>
	<node lat="59.351711112371966" lon="11.74305277872835" id="-14363">
		<tag k="name" v="Otteidvika" />
		<tag k="natural" v="bay" />
		<tag k="ssr:stedsnr" v="659809" />
	</node>
	<node lat="59.59467499985252" lon="11.589905552541365" id="-14366">
		<tag k="name" v="Klokkerudvika" />
		<tag k="natural" v="bay" />
		<tag k="ssr:stedsnr" v="659910" />
	</node>
	<node lat="59.596066666747944" lon="11.588186108483457" id="-14367">
		<tag k="name" v="Faukerudvika" />
		<tag k="natural" v="bay" />
		<tag k="ssr:stedsnr" v="659911" />
	</node>
	<node lat="59.379219443657" lon="11.659905547872084" id="-14369">
		<tag k="alt_name" v="Langenes" />
		<tag k="name" v="Langnes" />
		<tag k="natural" v="cape" />
		<tag k="ssr:stedsnr" v="670512" />
	</node>
	<node lat="59.347650001020696" lon="11.651366666780545" id="-14373">
		<tag k="alt_name" v="Kullholmen" />
		<tag k="name" v="Kolaholmen" />
		<tag k="place" v="islet" />
		<tag k="ssr:stedsnr" v="670707" />
	</node>
	<node lat="59.34128055251578" lon="11.649180563836365" id="-14374">
		<tag k="name" v="Storøya" />
		<tag k="place" v="islet" />
		<tag k="ssr:stedsnr" v="670719" />
	</node>
	<node lat="59.586041668016435" lon="11.514030561788438" id="-14378">
		<tag k="alt_name" v="Skautjern" />
		<tag k="name" v="Skogtjern" />
		<tag k="natural" v="water" />
		<tag k="ssr:stedsnr" v="671443" />
	</node>
	<node lat="59.6412842199387" lon="11.694986007137622" id="-14379">
		<tag k="name" v="Åkevannet" />
		<tag k="natural" v="water" />
		<tag k="ssr:stedsnr" v="671309" />
		<tag k="water" v="lake" />
	</node>
	<node lat="59.48316944448198" lon="11.691324996384392" id="-14388">
		<tag k="name" v="Braneselva" />
		<tag k="ssr:stedsnr" v="719022" />
		<tag k="waterway" v="river" />
	</node>
	<node lat="59.58410833370176" lon="11.58135000301408" id="-14392">
		<tag k="name" v="Folkenborgvika" />
		<tag k="natural" v="bay" />
		<tag k="ssr:stedsnr" v="719133" />
	</node>
	<node lat="59.58093889211473" lon="11.654461118753101" id="-14398">
		<tag k="name" v="Søndre Morttjern" />
		<tag k="natural" v="water" />
		<tag k="ssr:stedsnr" v="719423" />
	</node>
	<node lat="59.38161388949662" lon="11.719933333512776" id="-14404">
		<tag k="name" v="Viksøya" />
		<tag k="place" v="island" />
		<tag k="ssr:stedsnr" v="719482" />
	</node>
	<node lat="59.438916662321944" lon="11.707019444471065" id="-14405">
		<tag k="name" v="Hagetjern" />
		<tag k="natural" v="water" />
		<tag k="ssr:stedsnr" v="719485" />
	</node>
	<node lat="59.4144805544215" lon="11.622888883737447" id="-14406">
		<tag k="name" v="Torvtjernfossen" />
		<tag k="natural" v="waterfall" />
		<tag k="ssr:stedsnr" v="719491" />
	</node>
	<node lat="59.53631110809907" lon="11.711450003792594" id="-14408">
		<tag k="name" v="Lysingstjern" />
		<tag k="natural" v="water" />
		<tag k="ssr:stedsnr" v="719375" />
	</node>
	<node lat="59.436544441334696" lon="11.652766662571693" id="-14416">
		<tag k="name" v="Roaldnebba" />
		<tag k="natural" v="cape" />
		<tag k="ssr:stedsnr" v="719593" />
	</node>
	<node lat="59.61088611132571" lon="11.686097214810601" id="-14417">
		<tag k="name" v="Søndre Skålvannet" />
		<tag k="natural" v="water" />
		<tag k="ssr:stedsnr" v="719667" />
	</node>
	<node lat="59.477708329616696" lon="11.589469439939762" id="-14421">
		<tag k="name" v="Skumpedypilbekken" />
		<tag k="ssr:stedsnr" v="719823" />
		<tag k="waterway" v="stream" />
	</node>
	<node lat="59.403438891000675" lon="11.612097215828577" id="-14432">
		<tag k="name" v="Trinsa" />
		<tag k="natural" v="water" />
		<tag k="ssr:stedsnr" v="720187" />
	</node>
	<node lat="59.64185595756171" lon="11.682766244175586" id="-14436">
		<tag k="loc_name" v="Søndre Setertjern" />
		<tag k="name" v="Setertjern" />
		<tag k="natural" v="water" />
		<tag k="ssr:stedsnr" v="720476" />
	</node>
	<node lat="59.35595278004359" lon="11.582561109122533" id="-14442">
		<tag k="name" v="Røftetjern" />
		<tag k="natural" v="water" />
		<tag k="ssr:stedsnr" v="901100" />
	</node>
	<node lat="59.35956944422527" lon="11.578191660275943" id="-14443">
		<tag k="name" v="Delingstjern" />
		<tag k="natural" v="water" />
		<tag k="ssr:stedsnr" v="901172" />
	</node>
	<node lat="59.364724998311765" lon="11.717191663358427" id="-14449">
		<tag k="name" v="Ruketjern" />
		<tag k="natural" v="water" />
		<tag k="ssr:stedsnr" v="901295" />
	</node>
	<node lat="59.36422499708932" lon="11.731108328227666" id="-14451">
		<tag k="alt_name" v="Abbortjern" />
		<tag k="name" v="Abbortjernet" />
		<tag k="natural" v="water" />
		<tag k="ssr:stedsnr" v="731676" />
	</node>
	<node lat="59.34638611378127" lon="11.627852774751043" id="-14455">
		<tag k="name" v="Nedre Damtjern" />
		<tag k="natural" v="water" />
		<tag k="ssr:stedsnr" v="901387" />
	</node>
	<node lat="59.537047222778305" lon="11.630927776419089" id="-14458">
		<tag k="name" v="Tjuvekos" />
		<tag k="natural" v="bay" />
		<tag k="ssr:stedsnr" v="901440" />
	</node>
	<node lat="59.6374699951359" lon="11.591924946000669" id="-14459">
		<tag k="name" v="Grunntjern" />
		<tag k="natural" v="water" />
		<tag k="ssr:stedsnr" v="732304" />
	</node>
	<node lat="59.38056667077638" lon="11.71712223093914" id="-14464">
		<tag k="name" v="Vikstjernet" />
		<tag k="natural" v="bay" />
		<tag k="ssr:stedsnr" v="901526" />
	</node>
	<node lat="59.40963611442152" lon="11.654925004466755" id="-14469">
		<tag k="name" v="Salesten" />
		<tag k="place" v="islet" />
		<tag k="ssr:stedsnr" v="901549" />
	</node>
	<node lat="59.43296111515456" lon="11.625572227502111" id="-14470">
		<tag k="name" v="Midtre Setertjern" />
		<tag k="natural" v="water" />
		<tag k="ssr:stedsnr" v="901624" />
	</node>
	<node lat="59.42618888919126" lon="11.62557500009293" id="-14471">
		<tag k="name" v="Søndre Trytjern" />
		<tag k="natural" v="water" />
		<tag k="ssr:stedsnr" v="901595" />
	</node>
	<node lat="59.607219441545325" lon="11.681283340712834" id="-14475">
		<tag k="name" v="Nøkletjern" />
		<tag k="natural" v="water" />
		<tag k="ssr:stedsnr" v="901677" />
	</node>
	<node lat="59.45781944675172" lon="11.571605561879203" id="-14476">
		<tag k="name" v="Åttetallet" />
		<tag k="natural" v="water" />
		<tag k="ssr:stedsnr" v="901777" />
	</node>
	<node lat="59.38018055984716" lon="11.624552785145617" id="-14478">
		<tag k="name" v="Igletjern" />
		<tag k="natural" v="water" />
		<tag k="ssr:stedsnr" v="901832" />
	</node>
	<node lat="59.48791388689465" lon="11.587586118459951" id="-14482">
		<tag k="name" v="Svartevannet" />
		<tag k="natural" v="water" />
		<tag k="ssr:stedsnr" v="901923" />
	</node>
	<node lat="59.52329722285452" lon="11.56237500768603" id="-14483">
		<tag k="name" v="Gørrtjern" />
		<tag k="natural" v="water" />
		<tag k="ssr:stedsnr" v="901955" />
	</node>
	<node lat="59.554755552894164" lon="11.618061111549594" id="-14486">
		<tag k="name" v="Slupstadneset" />
		<tag k="natural" v="cape" />
		<tag k="ssr:stedsnr" v="902021" />
	</node>
	<node lat="59.511033331967816" lon="11.579827778104498" id="-14497">
		<tag k="name" v="Vestre Slorbytjern" />
		<tag k="natural" v="water" />
		<tag k="ssr:stedsnr" v="902324" />
	</node>
	<node lat="59.59083332962524" lon="11.683008330695046" id="-14503">
		<tag k="name" v="Ulvedalsbekken" />
		<tag k="ssr:stedsnr" v="902331" />
		<tag k="waterway" v="stream" />
	</node>
	<node lat="59.58831389025071" lon="11.690655551907648" id="-14504">
		<tag k="name" v="Mørksund" />
		<tag k="natural" v="water" />
		<tag k="ssr:stedsnr" v="902333" />
	</node>
	<node lat="59.651302781492845" lon="11.622886111176086" id="-14508">
		<tag k="name" v="Setertjern" />
		<tag k="natural" v="water" />
		<tag k="ssr:stedsnr" v="902453" />
	</node>
	<node lat="59.6584277807506" lon="11.612575007901151" id="-14509">
		<tag k="loc_name" v="Lamungtjern" />
		<tag k="name" v="Lammungtjern" />
		<tag k="natural" v="water" />
		<tag k="ssr:stedsnr" v="902460" />
	</node>
	<node lat="59.465661109923666" lon="11.671413894298151" id="-14518">
		<tag k="name" v="Rudsfossen" />
		<tag k="natural" v="waterfall" />
		<tag k="ssr:stedsnr" v="902732" />
	</node>
	<node lat="59.59050555269872" lon="11.607994440751286" id="-14522">
		<tag k="name" v="Harasand" />
		<tag k="place" v="islet" />
		<tag k="ssr:stedsnr" v="902768" />
	</node>
	<node lat="59.35904166801654" lon="11.661247223285956" id="-14529">
		<tag k="name" v="Gjenstad" />
		<tag k="natural" v="bay" />
		<tag k="ssr:stedsnr" v="779299" />
	</node>
	<node lat="59.387852778249545" lon="11.769188891030916" id="-14534">
		<tag k="name" v="Hagatjern" />
		<tag k="natural" v="water" />
		<tag k="ssr:stedsnr" v="779903" />
	</node>
	<node lat="59.390766667552114" lon="11.663894443347045" id="-14539">
		<tag k="name" v="Kattissa" />
		<tag k="natural" v="bay" />
		<tag k="ssr:stedsnr" v="779820" />
	</node>
	<node lat="59.50106110938112" lon="11.636500006844551" id="-14541">
		<tag k="name" v="Bjørneholmen" />
		<tag k="place" v="islet" />
		<tag k="ssr:stedsnr" v="780218" />
	</node>
	<node lat="59.58526389206425" lon="11.593272220424522" id="-14549">
		<tag k="name" v="Danmark" />
		<tag k="natural" v="cape" />
		<tag k="ssr:stedsnr" v="780161" />
	</node>
	<node lat="59.66604166491535" lon="11.692319441665694" id="-14551">
		<tag k="name" v="Smørbekk" />
		<tag k="ssr:stedsnr" v="780299" />
		<tag k="waterway" v="stream" />
	</node>
	<node lat="59.31070277502931" lon="11.810113893612774" id="-14556">
		<tag k="name" v="Grønne holme" />
		<tag k="place" v="islet" />
		<tag k="ssr:stedsnr" v="780412" />
	</node>
	<node lat="59.547297222447" lon="11.697222218319418" id="-14564">
		<tag k="name" v="Bakstefjeldypilen" />
		<tag k="natural" v="water" />
		<tag k="ssr:stedsnr" v="780355" />
	</node>
	<node lat="59.35328332981587" lon="11.689583330118442" id="-14577">
		<tag k="name" v="Hyttebukta" />
		<tag k="natural" v="bay" />
		<tag k="ssr:stedsnr" v="781350" />
	</node>
	<node lat="59.55191110740071" lon="11.687430556580978" id="-14580">
		<tag k="name" v="Stutøye" />
		<tag k="natural" v="water" />
		<tag k="ssr:stedsnr" v="781398" />
	</node>
	<node lat="59.46474949146342" lon="11.621048090529381" id="-14588">
		<tag k="name" v="Store Kutjern" />
		<tag k="natural" v="water" />
		<tag k="ssr:stedsnr" v="791589" />
	</node>
	<node lat="59.4545109330107" lon="11.560679469231262" id="-14589">
		<tag k="name" v="Tvillingtjerna" />
		<tag k="natural" v="water" />
		<tag k="ssr:stedsnr" v="791592" />
		<tag k="water" v="lake" />
	</node>
	<node lat="59.63149999665134" lon="11.595344436722652" id="-14591">
		<tag k="alt_name" v="Lindtjern" />
		<tag k="name" v="Lintjern" />
		<tag k="natural" v="water" />
		<tag k="ssr:stedsnr" v="792286" />
	</node>
	<node lat="59.560699996037606" lon="11.550166666553" id="-14592">
		<tag k="alt_name" v="Gravtjerna" />
		<tag k="name" v="Søndre Gravtjern" />
		<tag k="natural" v="water" />
		<tag k="ssr:stedsnr" v="792480" />
	</node>
	<node lat="59.45567499688569" lon="11.629205546678056" id="-14604">
		<tag k="alt_name" v="Grastjern" />
		<tag k="name" v="Gresstjern" />
		<tag k="natural" v="water" />
		<tag k="ssr:stedsnr" v="913570" />
	</node>
	<node lat="59.46480832911383" lon="11.556813881339323" id="-14605">
		<tag k="name" v="Vardetjern" />
		<tag k="natural" v="water" />
		<tag k="ssr:stedsnr" v="913575" />
	</node>
	<node lat="59.350336109878576" lon="11.588905557666767" id="-14607">
		<tag k="name" v="Hageholttjern" />
		<tag k="natural" v="water" />
		<tag k="ssr:stedsnr" v="913698" />
	</node>
	<node lat="59.333925003244495" lon="11.589205561434195" id="-14609">
		<tag k="alt_name" v="Morttjern" />
		<tag k="name" v="Morttjernet" />
		<tag k="natural" v="water" />
		<tag k="ssr:stedsnr" v="913718" />
	</node>
	<node lat="59.361949996933156" lon="11.746202769108997" id="-14622">
		<tag k="name" v="Kvennebekken" />
		<tag k="ssr:stedsnr" v="840827" />
		<tag k="waterway" v="stream" />
	</node>
	<node lat="59.42481110768603" lon="11.619880561321864" id="-14625">
		<tag k="name" v="Gresstjern" />
		<tag k="natural" v="water" />
		<tag k="ssr:stedsnr" v="840787" />
	</node>
	<node lat="59.3183166653896" lon="11.582922230673992" id="-14626">
		<tag k="name" v="Bråtebukta" />
		<tag k="natural" v="bay" />
		<tag k="ssr:stedsnr" v="841118" />
	</node>
	<node lat="59.56499999884309" lon="11.593466666333642" id="-14630">
		<tag k="name" v="Husernabben" />
		<tag k="natural" v="cape" />
		<tag k="ssr:stedsnr" v="841009" />
	</node>
	<node lat="59.54335000407288" lon="11.68255554798001" id="-14643">
		<tag k="name" v="Vintervika" />
		<tag k="natural" v="bay" />
		<tag k="ssr:stedsnr" v="841397" />
	</node>
	<node lat="59.32313888760539" lon="11.819194439931945" id="-14653">
		<tag k="name" v="Koboholtdyvelen" />
		<tag k="natural" v="water" />
		<tag k="ssr:stedsnr" v="841407" />
		<tag k="water" v="pond" />
	</node>
	<node lat="59.445827775384686" lon="11.570463891915097" id="-14667">
		<tag k="name" v="Kjerringbekken" />
		<tag k="ssr:stedsnr" v="841775" />
		<tag k="waterway" v="stream" />
	</node>
	<node lat="59.46897499623328" lon="11.597152768825739" id="-14674">
		<tag k="name" v="Dyptjerndammen" />
		<tag k="ssr:stedsnr" v="841874" />
		<tag k="waterway" v="dam" />
	</node>
	<node lat="59.525430826085945" lon="11.664435576565541" id="-14679">
		<tag k="name" v="Finnertjern" />
		<tag k="natural" v="water" />
		<tag k="ssr:stedsnr" v="842327" />
	</node>
	<node lat="59.39191666802642" lon="11.607811108778312" id="-14682">
		<tag k="name" v="Vesle Klevtjern" />
		<tag k="natural" v="water" />
		<tag k="ssr:stedsnr" v="842089" />
	</node>
	<node lat="59.39058610815999" lon="11.610138890317906" id="-14683">
		<tag k="name" v="Store Klevtjern" />
		<tag k="natural" v="water" />
		<tag k="ssr:stedsnr" v="842091" />
	</node>
	<node lat="59.48365985679265" lon="11.747212186894116" id="-14687">
		<tag k="name" v="Kutjern" />
		<tag k="natural" v="water" />
		<tag k="ssr:stedsnr" v="852559" />
	</node>
	<node lat="59.46983055904305" lon="11.56190556366931" id="-14688">
		<tag k="name" v="Deleputten" />
		<tag k="natural" v="water" />
		<tag k="ssr:stedsnr" v="852565" />
	</node>
	<node lat="59.475237009419246" lon="11.60443348354567" id="-14689">
		<tag k="alt_name" v="Gjøvann" />
		<tag k="name" v="Gjøvannet" />
		<tag k="natural" v="water" />
		<tag k="ssr:stedsnr" v="852571" />
		<tag k="water" v="lake" />
	</node>
	<node lat="59.4762277753447" lon="11.669599995318105" id="-14690">
		<tag k="name" v="Helgetjern" />
		<tag k="natural" v="water" />
		<tag k="ssr:stedsnr" v="852577" />
	</node>
	<node lat="59.50303610708011" lon="11.714663881487159" id="-14701">
		<tag k="name" v="Søndre Butjern" />
		<tag k="natural" v="water" />
		<tag k="ssr:stedsnr" v="901103" />
	</node>
	<node lat="59.542588910031895" lon="11.625510670337247" id="-14702">
		<tag k="name" v="Stillesbyvika" />
		<tag k="natural" v="bay" />
		<tag k="ssr:stedsnr" v="901408" />
	</node>
	<node lat="59.53877500138373" lon="11.587097214903695" id="-14705">
		<tag k="name" v="Kirkengelva" />
		<tag k="ssr:stedsnr" v="901460" />
		<tag k="waterway" v="stream" />
	</node>
	<node lat="59.34998333525701" lon="11.703169450887897" id="-14707">
		<tag k="name" v="Husvika" />
		<tag k="natural" v="bay" />
		<tag k="ssr:stedsnr" v="901313" />
	</node>
	<node lat="59.368838889657766" lon="11.741708327332637" id="-14715">
		<tag k="name" v="Rørvika" />
		<tag k="natural" v="bay" />
		<tag k="ssr:stedsnr" v="901812" />
	</node>
	<node lat="59.47354721835329" lon="11.58533889505207" id="-14717">
		<tag k="name" v="Skumpedypilen" />
		<tag k="natural" v="water" />
		<tag k="ssr:stedsnr" v="901801" />
	</node>
	<node lat="59.56112221978102" lon="11.595647220017172" id="-14723">
		<tag k="name" v="Huservika" />
		<tag k="natural" v="bay" />
		<tag k="ssr:stedsnr" v="902009" />
	</node>
	<node lat="59.50423611413041" lon="11.646505562059554" id="-14727">
		<tag k="name" v="Nordre Neset" />
		<tag k="natural" v="cape" />
		<tag k="ssr:stedsnr" v="902207" />
	</node>
	<node lat="59.50026666527628" lon="11.62910555636103" id="-14730">
		<tag k="name" v="Paradisbekken" />
		<tag k="ssr:stedsnr" v="902216" />
		<tag k="waterway" v="stream" />
	</node>
	<node lat="59.582061109042684" lon="11.636711111720397" id="-14731">
		<tag k="name" v="Nordre Askedalstjern" />
		<tag k="natural" v="water" />
		<tag k="ssr:stedsnr" v="902506" />
	</node>
	<node lat="59.55580833134338" lon="11.690591665645073" id="-14734">
		<tag k="name" v="Burutjern" />
		<tag k="natural" v="water" />
		<tag k="ssr:stedsnr" v="902409" />
	</node>
	<node lat="59.65036667076858" lon="11.644041665141602" id="-14737">
		<tag k="name" v="Damvannsvika" />
		<tag k="natural" v="bay" />
		<tag k="ssr:stedsnr" v="902489" />
	</node>
	<node lat="59.638727726405136" lon="11.706157128488625" id="-14739">
		<tag k="name" v="Rødvannet" />
		<tag k="natural" v="water" />
		<tag k="ssr:stedsnr" v="902499" />
		<tag k="water" v="lake" />
	</node>
	<node lat="59.48380833513093" lon="11.65255277464842" id="-14741">
		<tag k="name" v="Brårudtangen" />
		<tag k="natural" v="cape" />
		<tag k="ssr:stedsnr" v="902775" />
	</node>
	<node lat="59.340655558489686" lon="11.768316670351346" id="-14742">
		<tag k="name" v="Sundsdalsnebba" />
		<tag k="natural" v="cape" />
		<tag k="ssr:stedsnr" v="902808" />
	</node>
	<node lat="59.343366667926" lon="11.771016664759893" id="-14743">
		<tag k="name" v="Sundsdalskanalen" />
		<tag k="ssr:stedsnr" v="902812" />
		<tag k="waterway" v="stream" />
	</node>
	<node lat="59.41816666914165" lon="11.59898888705283" id="-14745">
		<tag k="alt_name" v="Holtstjern" />
		<tag k="name" v="Holstjerna" />
		<tag k="natural" v="water" />
		<tag k="ssr:stedsnr" v="913491" />
		<tag k="water" v="lake" />
	</node>
	<node lat="59.44339999716799" lon="11.605105548055382" id="-14759">
		<tag k="name" v="Åsetjern" />
		<tag k="natural" v="water" />
		<tag k="ssr:stedsnr" v="961842" />
	</node>
	<node lat="59.42994999888486" lon="11.615849999757309" id="-14762">
		<tag k="name" v="Lommetjern" />
		<tag k="natural" v="water" />
		<tag k="ssr:stedsnr" v="961802" />
	</node>
	<node lat="59.47225832986872" lon="11.653641664697341" id="-14763">
		<tag k="name" v="Ørjeelva" />
		<tag k="ssr:stedsnr" v="962041" />
		<tag k="waterway" v="river" />
	</node>
	<node lat="59.48696388502129" lon="11.654266669310553" id="-14766">
		<tag k="name" v="Kaninholmene" />
		<tag k="place" v="islet" />
		<tag k="ssr:stedsnr" v="962214" />
	</node>
	<node lat="59.50164166900458" lon="11.715577772957651" id="-14768">
		<tag k="name" v="Butjernbekken" />
		<tag k="ssr:stedsnr" v="962109" />
		<tag k="waterway" v="stream" />
	</node>
	<node lat="59.5011527810568" lon="11.647536113127943" id="-14772">
		<tag k="name" v="Mosebyholmen" />
		<tag k="place" v="islet" />
		<tag k="ssr:stedsnr" v="962191" />
	</node>
	<node lat="59.57740278135139" lon="11.650727776911843" id="-14775">
		<tag k="name" v="Østre Korstjern" />
		<tag k="natural" v="water" />
		<tag k="ssr:stedsnr" v="962460" />
		<tag k="water" v="pond" />
	</node>
	<node lat="59.575469448444984" lon="11.61139999519618" id="-14777">
		<tag k="name" v="Tømmervika" />
		<tag k="natural" v="bay" />
		<tag k="ssr:stedsnr" v="962489" />
	</node>
	<node lat="59.38456388823392" lon="11.720116664421264" id="-14784">
		<tag k="name" v="Sørvika" />
		<tag k="natural" v="bay" />
		<tag k="ssr:stedsnr" v="962507" />
	</node>
	<node lat="59.4422638849108" lon="11.564902778709406" id="-14786">
		<tag k="name" v="Råtetjern" />
		<tag k="natural" v="water" />
		<tag k="ssr:stedsnr" v="962779" />
	</node>
	<node lat="59.49746944573426" lon="11.579252773143619" id="-14796">
		<tag k="name" v="Morttjern" />
		<tag k="natural" v="water" />
		<tag k="ssr:stedsnr" v="962895" />
	</node>
	<node lat="59.500724999467124" lon="11.541947213839018" id="-14797">
		<tag k="name" v="Nordre Damtjern" />
		<tag k="natural" v="water" />
		<tag k="ssr:stedsnr" v="962898" />
	</node>
	<node lat="59.457298648171495" lon="11.60991422265161" id="-14809">
		<tag k="fixme" v="multiple name tags, choose one and add the other to alt_name" />
		<tag k="name" v="Lisetertjern;Setertjern" />
		<tag k="natural" v="water" />
		<tag k="ssr:stedsnr" v="2617" />
	</node>
	<node lat="59.41651388661029" lon="11.614583336454082" id="-14813">
		<tag k="alt_name" v="Langetjern" />
		<tag k="name" v="Langtjern" />
		<tag k="natural" v="water" />
		<tag k="ssr:stedsnr" v="3476" />
	</node>
	<node lat="59.407358330365696" lon="11.755183330962879" id="-14815">
		<tag k="name" v="Åsetjern" />
		<tag k="natural" v="water" />
		<tag k="ssr:stedsnr" v="3499" />
	</node>
	<node lat="59.534622225738694" lon="11.569513895995971" id="-14817">
		<tag k="name" v="Holsteinbekken" />
		<tag k="ssr:stedsnr" v="3351" />
		<tag k="waterway" v="stream" />
	</node>
	<node lat="59.328866670578954" lon="11.771997218129176" id="-14818">
		<tag k="alt_name" v="Gjøsbuneset" />
		<tag k="name" v="Gysbuneset" />
		<tag k="natural" v="cape" />
		<tag k="ssr:stedsnr" v="3586" />
	</node>
	<node lat="59.60142499548803" lon="11.521083336085994" id="-14825">
		<tag k="name" v="Haratjern" />
		<tag k="natural" v="water" />
		<tag k="ssr:stedsnr" v="4452" />
	</node>
	<node lat="59.61181111214234" lon="11.618899994366048" id="-14826">
		<tag k="alt_name" v="Lindtjern" />
		<tag k="name" v="Lintjern" />
		<tag k="natural" v="water" />
		<tag k="ssr:stedsnr" v="4458" />
	</node>
	<node lat="59.11862499891141" lon="11.36958056164283" id="-14827">
		<tag k="name" v="Haldenvassdraget" />
		<tag k="natural" v="water" />
		<tag k="ssr:stedsnr" v="44920" />
		<tag k="water" v="lake" />
	</node>
	<node lat="59.37663889318125" lon="11.787397220051252" id="-14830">
		<tag k="name" v="Motjern" />
		<tag k="natural" v="water" />
		<tag k="ssr:stedsnr" v="51891" />
	</node>
	<node lat="59.53837777385013" lon="11.693625006004243" id="-14834">
		<tag k="name" v="Langtangen" />
		<tag k="natural" v="cape" />
		<tag k="ssr:stedsnr" v="51451" />
	</node>
	<node lat="59.442508333230464" lon="11.60644721583363" id="-14843">
		<tag k="name" v="Vesle Abbortjern" />
		<tag k="natural" v="water" />
		<tag k="ssr:stedsnr" v="51834" />
	</node>
	<node lat="59.38141667020232" lon="11.64298055406955" id="-14846">
		<tag k="name" v="Valbyelva" />
		<tag k="ssr:stedsnr" v="51854" />
		<tag k="waterway" v="stream" />
	</node>
	<node lat="59.477977775108954" lon="11.60432500336409" id="-14847">
		<tag k="name" v="Den svarte bukta" />
		<tag k="natural" v="bay" />
		<tag k="ssr:stedsnr" v="51857" />
	</node>
	<node lat="59.57969999748041" lon="11.509133333179374" id="-14852">
		<tag k="name" v="Svartekulpa" />
		<tag k="natural" v="water" />
		<tag k="ssr:stedsnr" v="52143" />
	</node>
	<node lat="59.63153940314252" lon="11.61724006226456" id="-14855">
		<tag k="name" v="Øvre Oppsaldammen" />
		<tag k="ssr:stedsnr" v="52113" />
		<tag k="waterway" v="dam" />
	</node>
	<node lat="59.48549444740314" lon="11.65583056097791" id="-14857">
		<tag k="name" v="Neset" />
		<tag k="natural" v="cape" />
		<tag k="ssr:stedsnr" v="52215" />
	</node>
	<node lat="59.65210277960407" lon="11.70680834128184" id="-14863">
		<tag k="name" v="Gulltjern" />
		<tag k="natural" v="water" />
		<tag k="ssr:stedsnr" v="52396" />
	</node>
	<node lat="59.50685555141866" lon="11.605083335183679" id="-14864">
		<tag k="name" v="Halvardtjern" />
		<tag k="natural" v="water" />
		<tag k="ssr:stedsnr" v="52475" />
	</node>
	<node lat="59.46369721883304" lon="11.65546111739681" id="-14878">
		<tag k="name" v="Liholmen" />
		<tag k="place" v="islet" />
		<tag k="ssr:stedsnr" v="52450" />
	</node>
	<node lat="59.53435555875666" lon="11.54081943642228" id="-14885">
		<tag k="loc_name" v="Lamungtjern" />
		<tag k="name" v="Lammungtjern" />
		<tag k="natural" v="water" />
		<tag k="ssr:stedsnr" v="52554" />
	</node>
	<node lat="59.504972224143614" lon="11.61619722329625" id="-14897">
		<tag k="name" v="Steinbekken" />
		<tag k="ssr:stedsnr" v="52885" />
		<tag k="waterway" v="stream" />
	</node>
	<node lat="59.61553333295007" lon="11.582838892882023" id="-14902">
		<tag k="name" v="Svartevik" />
		<tag k="natural" v="bay" />
		<tag k="ssr:stedsnr" v="52961" />
	</node>
	<node lat="59.34054444147582" lon="11.770541665109556" id="-14904">
		<tag k="name" v="Nilsvik" />
		<tag k="natural" v="bay" />
		<tag k="ssr:stedsnr" v="52754" />
	</node>
	<node lat="59.39550000104416" lon="11.618638897314607" id="-14910">
		<tag k="name" v="Flesefoss" />
		<tag k="ssr:stedsnr" v="53186" />
		<tag k="waterway" v="rapids" />
	</node>
	<node lat="59.3393777783551" lon="11.638005554981886" id="-14912">
		<tag k="name" v="Slevikbukta" />
		<tag k="natural" v="bay" />
		<tag k="ssr:stedsnr" v="53365" />
	</node>
	<node lat="59.31911389052659" lon="11.603758327260966" id="-14924">
		<tag k="alt_name" v="Langtjern" />
		<tag k="name" v="Langtjernet" />
		<tag k="natural" v="water" />
		<tag k="ssr:stedsnr" v="64639" />
	</node>
	<node lat="59.51322499845343" lon="11.698402771885736" id="-14929">
		<tag k="name" v="Igletjern" />
		<tag k="natural" v="water" />
		<tag k="ssr:stedsnr" v="65366" />
	</node>
	<node lat="59.51857907842989" lon="11.549287957532295" id="-14930">
		<tag k="name" v="Midtre Posttjern" />
		<tag k="natural" v="water" />
		<tag k="ssr:stedsnr" v="65371" />
	</node>
	<node lat="59.572872217958974" lon="11.6816638885883" id="-14933">
		<tag k="alt_name" v="Svartvannet" />
		<tag k="name" v="Svartevann" />
		<tag k="natural" v="water" />
		<tag k="ssr:stedsnr" v="65482" />
	</node>
	<node lat="59.644386110979966" lon="11.61071944424002" id="-14942">
		<tag k="name" v="Kjerringtjern" />
		<tag k="natural" v="water" />
		<tag k="ssr:stedsnr" v="113085" />
	</node>
	<node lat="59.43336110882865" lon="11.599324994889542" id="-14949">
		<tag k="name" v="Ørrettjern" />
		<tag k="natural" v="water" />
		<tag k="ssr:stedsnr" v="112253" />
	</node>
	<node lat="59.36431388998496" lon="11.692322222282975" id="-14950">
		<tag k="name" v="Gunnengbekken" />
		<tag k="ssr:stedsnr" v="112285" />
		<tag k="waterway" v="stream" />
	</node>
	<node lat="59.359922218077564" lon="11.687961102763985" id="-14951">
		<tag k="name" v="Neseholmen" />
		<tag k="place" v="islet" />
		<tag k="ssr:stedsnr" v="112290" />
	</node>
	<node lat="59.344416664818795" lon="11.722058330191498" id="-14956">
		<tag k="alt_name" v="Bottenvika" />
		<tag k="name" v="Botnvika" />
		<tag k="natural" v="bay" />
		<tag k="ssr:stedsnr" v="112351" />
	</node>
	<node lat="59.32973333245759" lon="11.785819451116039" id="-14957">
		<tag k="name" v="Trosvik" />
		<tag k="natural" v="bay" />
		<tag k="ssr:stedsnr" v="112429" />
	</node>
	<node lat="59.54562991974955" lon="11.621774227868299" id="-14962">
		<tag k="name" v="Kålhagavika" />
		<tag k="natural" v="bay" />
		<tag k="ssr:stedsnr" v="112465" />
	</node>
	<node lat="59.42659722360267" lon="11.623033327990653" id="-14963">
		<tag k="name" v="Prydsetjern" />
		<tag k="natural" v="water" />
		<tag k="ssr:stedsnr" v="112578" />
	</node>
	<node lat="59.4292972192902" lon="11.627705546799707" id="-14964">
		<tag k="name" v="Nordre Trytjern" />
		<tag k="natural" v="water" />
		<tag k="ssr:stedsnr" v="112586" />
	</node>
	<node lat="59.48638055912404" lon="11.592008333917365" id="-14968">
		<tag k="name" v="Nordre Jonsvannet" />
		<tag k="natural" v="water" />
		<tag k="ssr:stedsnr" v="112839" />
	</node>
	<node lat="59.55906944030392" lon="11.684477773442968" id="-14977">
		<tag k="name" v="Damtjern" />
		<tag k="natural" v="water" />
		<tag k="ssr:stedsnr" v="113385" />
	</node>
	<node lat="59.646747221348356" lon="11.693383334506274" id="-14983">
		<tag k="name" v="Åkevannstangen" />
		<tag k="natural" v="cape" />
		<tag k="ssr:stedsnr" v="113441" />
	</node>
	<node lat="59.41224166696454" lon="11.618538884804847" id="-14986">
		<tag k="name" v="Torvtjern" />
		<tag k="natural" v="water" />
		<tag k="ssr:stedsnr" v="113156" />
	</node>
	<node lat="59.41522222311879" lon="11.599361105885972" id="-14987">
		<tag k="name" v="Hattefurutjern" />
		<tag k="natural" v="water" />
		<tag k="ssr:stedsnr" v="113158" />
	</node>
	<node lat="59.354252780853216" lon="11.69048888813808" id="-14992">
		<tag k="name" v="Delingsnebba" />
		<tag k="natural" v="cape" />
		<tag k="ssr:stedsnr" v="113348" />
	</node>
	<node lat="59.63217222100634" lon="11.693952770821916" id="-14998">
		<tag k="name" v="Svartvannsbekken" />
		<tag k="ssr:stedsnr" v="113546" />
		<tag k="waterway" v="stream" />
	</node>
	<node lat="59.334611107128346" lon="11.782930549871967" id="-15002">
		<tag k="name" v="Svineviknebba" />
		<tag k="natural" v="cape" />
		<tag k="ssr:stedsnr" v="113788" />
	</node>
	<node lat="59.60166110907488" lon="11.610419443449794" id="-15010">
		<tag k="name" v="Veatangen" />
		<tag k="natural" v="cape" />
		<tag k="ssr:stedsnr" v="114558" />
	</node>
	<node lat="59.40604721861073" lon="11.615522226926982" id="-15015">
		<tag k="name" v="Grimsfjelltjern" />
		<tag k="natural" v="water" />
		<tag k="ssr:stedsnr" v="124457" />
	</node>
	<node lat="59.350094440611045" lon="11.720333337750432" id="-15033">
		<tag k="name" v="Kasedammen" />
		<tag k="natural" v="bay" />
		<tag k="ssr:stedsnr" v="172345" />
	</node>
	<node lat="59.479247218295875" lon="11.567955563836911" id="-15035">
		<tag k="name" v="Dypilen" />
		<tag k="natural" v="water" />
		<tag k="ssr:stedsnr" v="173775" />
	</node>
	<node lat="59.47601111113892" lon="11.575777782733935" id="-15036">
		<tag k="alt_name" v="Klaretjern" />
		<tag k="name" v="Det blanke vannet" />
		<tag k="natural" v="water" />
		<tag k="ssr:stedsnr" v="173779" />
	</node>
	<node lat="59.452933335943456" lon="11.590611109860466" id="-15038">
		<tag k="name" v="Bergtjern" />
		<tag k="natural" v="water" />
		<tag k="ssr:stedsnr" v="172803" />
	</node>
	<node lat="59.45011389334288" lon="11.602199999945872" id="-15039">
		<tag k="name" v="Larstjern" />
		<tag k="natural" v="water" />
		<tag k="ssr:stedsnr" v="172840" />
	</node>
	<node lat="59.5903111084896" lon="11.499577772362978" id="-15044">
		<tag k="name" v="Søndre Rokovann" />
		<tag k="natural" v="water" />
		<tag k="ssr:stedsnr" v="173143" />
	</node>
	<node lat="59.65097777453011" lon="11.592755555961642" id="-15050">
		<tag k="name" v="Kløftefjelltjern" />
		<tag k="natural" v="water" />
		<tag k="ssr:stedsnr" v="173386" />
	</node>
	<node lat="59.41539722022261" lon="11.659713881993108" id="-15058">
		<tag k="name" v="Kirkebyøya" />
		<tag k="place" v="island" />
		<tag k="ssr:stedsnr" v="173518" />
	</node>
	<node lat="59.66609166863876" lon="11.649277771364188" id="-15062">
		<tag k="name" v="Klinkhammersundet" />
		<tag k="natural" v="strait" />
		<tag k="ssr:stedsnr" v="173410" />
	</node>
	<node lat="59.59543888587548" lon="11.56382499300048" id="-15064">
		<tag k="name" v="Glundbergbekken" />
		<tag k="ssr:stedsnr" v="173480" />
		<tag k="waterway" v="stream" />
	</node>
	<node lat="59.619238885745915" lon="11.641202771918874" id="-15070">
		<tag k="name" v="Jerpetjern" />
		<tag k="natural" v="water" />
		<tag k="ssr:stedsnr" v="173581" />
	</node>
	<node lat="59.5635916680957" lon="11.634733340804248" id="-15074">
		<tag k="name" v="Pekstadfossen" />
		<tag k="natural" v="waterfall" />
		<tag k="ssr:stedsnr" v="174439" />
	</node>
	<node lat="59.43791110913425" lon="11.608686114617544" id="-15075">
		<tag k="name" v="Torvtjern" />
		<tag k="natural" v="water" />
		<tag k="ssr:stedsnr" v="173753" />
	</node>
	<node lat="59.484519440106276" lon="11.583422220603513" id="-15076">
		<tag k="name" v="Lysevannselva" />
		<tag k="ssr:stedsnr" v="173838" />
		<tag k="waterway" v="river" />
	</node>
	<node lat="59.50213610839155" lon="11.546419444740764" id="-15077">
		<tag k="name" v="Iskjelleren" />
		<tag k="natural" v="water" />
		<tag k="ssr:stedsnr" v="173851" />
	</node>
	<node lat="59.52224999584793" lon="11.547988885377933" id="-15079">
		<tag k="name" v="Nordre Posttjern" />
		<tag k="natural" v="water" />
		<tag k="ssr:stedsnr" v="173941" />
	</node>
	<node lat="59.5140444477838" lon="11.562344452958609" id="-15080">
		<tag k="name" v="Andetjern" />
		<tag k="natural" v="water" />
		<tag k="ssr:stedsnr" v="173945" />
	</node>
	<node lat="59.46648055124303" lon="11.727938883954652" id="-15086">
		<tag k="name" v="Dyvelen" />
		<tag k="natural" v="water" />
		<tag k="ssr:stedsnr" v="174038" />
		<tag k="water" v="pond" />
	</node>
	<node lat="59.52083888486982" lon="11.676558338740952" id="-15089">
		<tag k="name" v="Hølbekk" />
		<tag k="ssr:stedsnr" v="174395" />
		<tag k="waterway" v="river" />
	</node>
	<node lat="59.65408610726865" lon="11.712222220894805" id="-15101">
		<tag k="name" v="Hagavika" />
		<tag k="natural" v="bay" />
		<tag k="ssr:stedsnr" v="174483" />
	</node>
	<node lat="59.65249721822698" lon="11.647955562985455" id="-15102">
		<tag k="name" v="Damvannssundet" />
		<tag k="natural" v="strait" />
		<tag k="ssr:stedsnr" v="174501" />
	</node>
	<node lat="59.39523055798845" lon="11.66383888854576" id="-15109">
		<tag k="alt_name" v="Bukkaneset" />
		<tag k="name" v="Bukkeneset" />
		<tag k="natural" v="cape" />
		<tag k="ssr:stedsnr" v="185483" />
	</node>
	<node lat="59.641816670533224" lon="11.627127784211105" id="-15111">
		<tag k="name" v="Hellemotjern" />
		<tag k="natural" v="water" />
		<tag k="ssr:stedsnr" v="186301" />
	</node>
	<node lat="59.56899183591445" lon="11.638780781015027" id="-15117">
		<tag k="alt_name" v="Gonåstjern" />
		<tag k="name" v="Gorotjern" />
		<tag k="natural" v="water" />
		<tag k="ssr:stedsnr" v="185455" />
	</node>
	<node lat="59.41819721970304" lon="11.633755550449218" id="-15118">
		<tag k="name" v="Damsmyrbekken" />
		<tag k="ssr:stedsnr" v="185462" />
		<tag k="waterway" v="stream" />
	</node>
	<node lat="59.40905833608596" lon="11.606447231038047" id="-15119">
		<tag k="alt_name" v="Hagatjern" />
		<tag k="name" v="Hagetjern" />
		<tag k="natural" v="water" />
		<tag k="ssr:stedsnr" v="185470" />
	</node>
	<node lat="59.35572221817432" lon="11.693277773263729" id="-15123">
		<tag k="alt_name" v="Otteidvika" />
		<tag k="name" v="Vestre Otteidvika" />
		<tag k="natural" v="bay" />
		<tag k="ssr:stedsnr" v="185690" />
	</node>
	<node lat="59.32820886644615" lon="11.57131765855713" id="-15137">
		<tag k="name" v="Nordsjøen" />
		<tag k="natural" v="water" />
		<tag k="ssr:stedsnr" v="294061" />
	</node>
	<node lat="59.42543611001736" lon="11.651208325562694" id="-15141">
		<tag k="name" v="Bernhusskjæret" />
		<tag k="place" v="islet" />
		<tag k="ssr:stedsnr" v="294655" />
	</node>
	<node lat="59.43549444893673" lon="11.58830555592244" id="-15143">
		<tag k="name" v="Kloppetjern" />
		<tag k="natural" v="water" />
		<tag k="ssr:stedsnr" v="294182" />
	</node>
	<node lat="59.53121944271882" lon="11.57946110732612" id="-15146">
		<tag k="name" v="Lervannselva" />
		<tag k="ssr:stedsnr" v="294478" />
		<tag k="waterway" v="stream" />
	</node>
	<node lat="59.53264999856942" lon="11.58294999247741" id="-15147">
		<tag k="name" v="Perefoss" />
		<tag k="natural" v="waterfall" />
		<tag k="ssr:stedsnr" v="294480" />
	</node>
	<node lat="59.307125004338765" lon="11.820080553013728" id="-15148">
		<tag k="name" v="Trolløya" />
		<tag k="place" v="island" />
		<tag k="ssr:stedsnr" v="294485" />
	</node>
	<node lat="59.31372777371646" lon="11.805266664796855" id="-15149">
		<tag k="name" v="Bessenakken" />
		<tag k="place" v="islet" />
		<tag k="ssr:stedsnr" v="294488" />
	</node>
	<node lat="59.46711960213944" lon="11.601186265365596" id="-15158">
		<tag k="name" v="Fugletjern" />
		<tag k="natural" v="water" />
		<tag k="ssr:stedsnr" v="294849" />
	</node>
	<node lat="59.490824999237134" lon="11.540955548817443" id="-15161">
		<tag k="name" v="Svarttjern" />
		<tag k="natural" v="water" />
		<tag k="ssr:stedsnr" v="294965" />
	</node>
	<node lat="59.66411666298256" lon="11.637152769718792" id="-15172">
		<tag k="name" v="Lille Gorotjern" />
		<tag k="natural" v="water" />
		<tag k="ssr:stedsnr" v="295445" />
	</node>
	<node lat="59.555644447983695" lon="11.672294453083566" id="-15178">
		<tag k="name" v="Torkiltjern" />
		<tag k="natural" v="water" />
		<tag k="ssr:stedsnr" v="295400" />
	</node>
	<node lat="59.60282222227821" lon="11.550188895262398" id="-15181">
		<tag k="name" v="Pytterudbekken" />
		<tag k="ssr:stedsnr" v="295533" />
		<tag k="waterway" v="stream" />
	</node>
	<node lat="59.42898889239077" lon="11.691836112609582" id="-15183">
		<tag k="name" v="Bottenfjorden" />
		<tag k="natural" v="water" />
		<tag k="ssr:stedsnr" v="295539" />
	</node>
	<node lat="59.63550555522524" lon="11.673213894673662" id="-15187">
		<tag k="name" v="Svartekulpa" />
		<tag k="natural" v="water" />
		<tag k="ssr:stedsnr" v="295549" />
	</node>
	<node lat="59.62613888643752" lon="11.70980555340493" id="-15189">
		<tag k="name" v="Nordre Stutøye" />
		<tag k="natural" v="water" />
		<tag k="ssr:stedsnr" v="296534" />
	</node>
	<node lat="59.596841662461344" lon="11.59701944060557" id="-15193">
		<tag k="name" v="Faukerudøya" />
		<tag k="place" v="island" />
		<tag k="ssr:stedsnr" v="295889" />
	</node>
	<node lat="59.60985833410659" lon="11.58260000231185" id="-15194">
		<tag k="name" v="Ødegårdsvika" />
		<tag k="natural" v="bay" />
		<tag k="ssr:stedsnr" v="295899" />
	</node>
	<node lat="59.591294446460665" lon="11.611775000575891" id="-15196">
		<tag k="name" v="Kattåsvika" />
		<tag k="natural" v="bay" />
		<tag k="ssr:stedsnr" v="295756" />
	</node>
	<node lat="59.52709444133948" lon="11.70271666731032" id="-15198">
		<tag k="alt_name" v="Svartevannet" />
		<tag k="name" v="Svartevann" />
		<tag k="natural" v="water" />
		<tag k="ssr:stedsnr" v="307399" />
	</node>
	<node lat="59.353316667154566" lon="11.668736115285963" id="-15210">
		<tag k="name" v="Knollsøya" />
		<tag k="natural" v="cape" />
		<tag k="ssr:stedsnr" v="354411" />
	</node>
	<node lat="59.33668888995073" lon="11.720244447842457" id="-15212">
		<tag k="name" v="Rødtjern" />
		<tag k="natural" v="water" />
		<tag k="ssr:stedsnr" v="354356" />
	</node>
	<node lat="59.386711109803315" lon="11.68858611896247" id="-15215">
		<tag k="name" v="Volebekken" />
		<tag k="ssr:stedsnr" v="355459" />
		<tag k="waterway" v="stream" />
	</node>
	<node lat="59.48896666840056" lon="11.654247218004372" id="-15223">
		<tag k="name" v="Drottevik" />
		<tag k="natural" v="bay" />
		<tag k="ssr:stedsnr" v="355239" />
	</node>
	<node lat="59.424474999306504" lon="11.614211117779439" id="-15225">
		<tag k="name" v="Abbortjern" />
		<tag k="natural" v="water" />
		<tag k="ssr:stedsnr" v="354794" />
	</node>
	<node lat="59.46653333750865" lon="11.572444441461736" id="-15227">
		<tag k="name" v="Sigdetjern" />
		<tag k="natural" v="water" />
		<tag k="ssr:stedsnr" v="354865" />
	</node>
	<node lat="59.56319166652673" lon="11.589149991620157" id="-15236">
		<tag k="name" v="Kinnbekken" />
		<tag k="ssr:stedsnr" v="355259" />
		<tag k="waterway" v="stream" />
	</node>
	<node lat="59.57599444065459" lon="11.523291658716978" id="-15244">
		<tag k="name" v="Tunskautjernet" />
		<tag k="natural" v="water" />
		<tag k="ssr:stedsnr" v="355243" />
	</node>
	<node lat="59.31199722400971" lon="11.818411114939211" id="-15247">
		<tag k="name" v="Tyvekista" />
		<tag k="natural" v="bay" />
		<tag k="ssr:stedsnr" v="355428" />
	</node>
	<node lat="59.419738888233326" lon="11.596727781682393" id="-15249">
		<tag k="name" v="Blanketjern" />
		<tag k="natural" v="water" />
		<tag k="ssr:stedsnr" v="356171" />
	</node>
	<node lat="59.58904166902672" lon="11.673880561787294" id="-15251">
		<tag k="name" v="Kutjern" />
		<tag k="natural" v="water" />
		<tag k="ssr:stedsnr" v="355396" />
	</node>
	<node lat="59.53114166923312" lon="11.584319452746335" id="-15254">
		<tag k="name" v="Slorbytjernbekken" />
		<tag k="ssr:stedsnr" v="355469" />
		<tag k="waterway" v="stream" />
	</node>
	<node lat="59.385400003820116" lon="11.727933342332072" id="-15256">
		<tag k="name" v="Engsvika" />
		<tag k="natural" v="bay" />
		<tag k="ssr:stedsnr" v="355474" />
	</node>
	<node lat="59.443675001495606" lon="11.658705556130451" id="-15257">
		<tag k="name" v="Sundtangen" />
		<tag k="natural" v="cape" />
		<tag k="ssr:stedsnr" v="355475" />
	</node>
	<node lat="59.39623610737877" lon="11.692372222240113" id="-15263">
		<tag k="name" v="Brynhilddika" />
		<tag k="ssr:stedsnr" v="355489" />
		<tag k="waterway" v="stream" />
	</node>
	<node lat="59.632041667917115" lon="11.698874996568582" id="-15268">
		<tag k="name" v="Åkevannselva" />
		<tag k="ssr:stedsnr" v="355541" />
		<tag k="waterway" v="river" />
	</node>
	<node lat="59.60068055422626" lon="11.678580558229957" id="-15273">
		<tag k="name" v="Vintervika" />
		<tag k="natural" v="bay" />
		<tag k="ssr:stedsnr" v="355639" />
	</node>
	<node lat="59.59949999805573" lon="11.656738893353582" id="-15275">
		<tag k="name" v="Fatatjern" />
		<tag k="natural" v="water" />
		<tag k="ssr:stedsnr" v="355648" />
	</node>
	<node lat="59.499108331043836" lon="11.538558339025593" id="-15277">
		<tag k="name" v="Skåka" />
		<tag k="natural" v="water" />
		<tag k="ssr:stedsnr" v="355841" />
	</node>
	<node lat="59.5177805587807" lon="11.529125005242086" id="-15278">
		<tag k="name" v="Oksetjern" />
		<tag k="natural" v="water" />
		<tag k="ssr:stedsnr" v="355940" />
	</node>
	<node lat="59.50001111072677" lon="11.555041671908395" id="-15280">
		<tag k="name" v="Lervannsbekken" />
		<tag k="ssr:stedsnr" v="355880" />
		<tag k="waterway" v="stream" />
	</node>
	<node lat="59.364275004203996" lon="11.585147220026956" id="-15282">
		<tag k="name" v="Kleppetjern" />
		<tag k="natural" v="water" />
		<tag k="ssr:stedsnr" v="356064" />
	</node>
	<node lat="59.515872218790456" lon="11.551574998880884" id="-15284">
		<tag k="name" v="Søndre Posttjern" />
		<tag k="natural" v="water" />
		<tag k="ssr:stedsnr" v="355948" />
	</node>
	<node lat="59.50728055655165" lon="11.669580562055645" id="-15286">
		<tag k="name" v="Askerudbekken" />
		<tag k="ssr:stedsnr" v="356354" />
		<tag k="waterway" v="river" />
	</node>
	<node lat="59.514516664812234" lon="11.726444448688222" id="-15289">
		<tag k="name" v="Rødtjerna" />
		<tag k="natural" v="water" />
		<tag k="ssr:stedsnr" v="356367" />
		<tag k="water" v="lake" />
	</node>
	<node lat="59.609152777442524" lon="11.589211106893275" id="-15292">
		<tag k="name" v="Nabben" />
		<tag k="natural" v="cape" />
		<tag k="ssr:stedsnr" v="356547" />
	</node>
	<node lat="59.33653055848144" lon="11.762422215546916" id="-15293">
		<tag k="name" v="Kråkevik" />
		<tag k="natural" v="bay" />
		<tag k="ssr:stedsnr" v="356781" />
	</node>
	<node lat="59.43027499766897" lon="11.585508335820103" id="-15297">
		<tag k="name" v="Damtjern" />
		<tag k="natural" v="water" />
		<tag k="ssr:stedsnr" v="366521" />
	</node>
	<node lat="59.35808333098319" lon="11.617547216869271" id="-15303">
		<tag k="alt_name" v="Lystjern" />
		<tag k="name" v="Lysetjern" />
		<tag k="natural" v="water" />
		<tag k="ssr:stedsnr" v="367697" />
	</node>
	<node lat="59.59342758248388" lon="11.614585349827465" id="-15307">
		<tag k="name" v="Hevika" />
		<tag k="natural" v="bay" />
		<tag k="ssr:stedsnr" v="368479" />
	</node>
	<node lat="59.35733333658809" lon="11.673555558017549" id="-15317">
		<tag k="name" v="Knolleneset" />
		<tag k="natural" v="cape" />
		<tag k="ssr:stedsnr" v="415267" />
	</node>
	<node lat="59.4322305577627" lon="11.602447230178322" id="-15318">
		<tag k="name" v="Slåttetjern" />
		<tag k="natural" v="water" />
		<tag k="ssr:stedsnr" v="415225" />
	</node>
	<node lat="59.43447222160898" lon="11.625055559501979" id="-15325">
		<tag k="name" v="Nordre Setertjern" />
		<tag k="natural" v="water" />
		<tag k="ssr:stedsnr" v="415665" />
	</node>
	<node lat="59.629372222778" lon="11.617536109410956" id="-15332">
		<tag k="name" v="Nedre Oppsaldammen" />
		<tag k="ssr:stedsnr" v="416127" />
		<tag k="waterway" v="dam" />
	</node>
	<node lat="59.44945278002169" lon="11.663025001779326" id="-15339">
		<tag k="name" v="Vågelsbyvika" />
		<tag k="natural" v="bay" />
		<tag k="ssr:stedsnr" v="416456" />
	</node>
	<node lat="59.45024166959087" lon="11.658833329409232" id="-15341">
		<tag k="name" v="Skjæret" />
		<tag k="place" v="islet" />
		<tag k="ssr:stedsnr" v="416460" />
	</node>
	<node lat="59.53154444226482" lon="11.691716672034675" id="-15356">
		<tag k="name" v="Svartevannsbekken" />
		<tag k="ssr:stedsnr" v="416358" />
		<tag k="waterway" v="stream" />
	</node>
	<node lat="59.544219442081406" lon="11.680872225035976" id="-15357">
		<tag k="name" v="Huvannsbonn" />
		<tag k="natural" v="bay" />
		<tag k="ssr:stedsnr" v="416359" />
	</node>
	<node lat="59.403125002311405" lon="11.66234445176641" id="-15369">
		<tag k="name" v="Fløvika" />
		<tag k="natural" v="bay" />
		<tag k="ssr:stedsnr" v="416521" />
	</node>
	<node lat="59.598786107783965" lon="11.623522223812925" id="-15372">
		<tag k="name" v="Åsebyelva" />
		<tag k="ssr:stedsnr" v="416910" />
		<tag k="waterway" v="stream" />
	</node>
	<node lat="59.44599722603972" lon="11.56698334036844" id="-15377">
		<tag k="name" v="Kjerringtjern" />
		<tag k="natural" v="water" />
		<tag k="ssr:stedsnr" v="416763" />
	</node>
	<node lat="59.508963887834774" lon="11.562508334983683" id="-15388">
		<tag k="name" v="Lervannselva" />
		<tag k="ssr:stedsnr" v="416923" />
		<tag k="waterway" v="river" />
	</node>
	<node lat="59.515733334980595" lon="11.55780555652185" id="-15390">
		<tag k="name" v="Tjoretjern" />
		<tag k="natural" v="water" />
		<tag k="ssr:stedsnr" v="416930" />
	</node>
	<node lat="59.40708055565518" lon="11.60978611513934" id="-15393">
		<tag k="name" v="Svarttjern" />
		<tag k="natural" v="water" />
		<tag k="ssr:stedsnr" v="417168" />
	</node>
	<node lat="59.59949156528741" lon="11.612402292241656" id="-15397">
		<tag k="name" v="Ulfsbyvika" />
		<tag k="natural" v="bay" />
		<tag k="ssr:stedsnr" v="417578" />
	</node>
	<node lat="59.56470833371891" lon="11.695605562154391" id="-15403">
		<tag k="alt_name" v="Langevannet" />
		<tag k="name" v="Langvannet" />
		<tag k="natural" v="water" />
		<tag k="ssr:stedsnr" v="428454" />
	</node>
	<node lat="59.39726944860488" lon="11.766255563226382" id="-15404">
		<tag k="alt_name" v="Ekenestjern" />
		<tag k="name" v="Eketjernet" />
		<tag k="natural" v="water" />
		<tag k="ssr:stedsnr" v="428498" />
	</node>
	<node lat="59.38920833691059" lon="11.657377781471691" id="-15405">
		<tag k="name" v="Øymarksjøen" />
		<tag k="natural" v="water" />
		<tag k="ssr:stedsnr" v="428501" />
		<tag k="water" v="lake" />
	</node>
	<node lat="59.44336388701798" lon="11.660744446097283" id="-15413">
		<tag k="name" v="Svartevik" />
		<tag k="natural" v="bay" />
		<tag k="ssr:stedsnr" v="537494" />
	</node>
	<node lat="59.382472221493245" lon="11.729599995089137" id="-15415">
		<tag k="name" v="Nilsetangen" />
		<tag k="natural" v="cape" />
		<tag k="ssr:stedsnr" v="537497" />
	</node>
	<node lat="59.369211107132244" lon="11.659986109653707" id="-15418">
		<tag k="name" v="Broken" />
		<tag k="place" v="islet" />
		<tag k="ssr:stedsnr" v="536296" />
	</node>
	<node lat="59.35914999584512" lon="11.69360277433958" id="-15419">
		<tag k="name" v="Nesenebba" />
		<tag k="natural" v="cape" />
		<tag k="ssr:stedsnr" v="536242" />
	</node>
	<node lat="59.357094444300316" lon="11.709874998984478" id="-15421">
		<tag k="name" v="Stordalsbukta" />
		<tag k="natural" v="bay" />
		<tag k="ssr:stedsnr" v="536250" />
	</node>
	<node lat="59.35701389117078" lon="11.727133331999436" id="-15422">
		<tag k="name" v="Stordika" />
		<tag k="ssr:stedsnr" v="536255" />
		<tag k="waterway" v="stream" />
	</node>
	<node lat="59.3441499993213" lon="11.649019447983644" id="-15423">
		<tag k="name" v="Mellemøya" />
		<tag k="place" v="islet" />
		<tag k="ssr:stedsnr" v="536351" />
	</node>
	<node lat="59.58684999676185" lon="11.595733331938249" id="-15428">
		<tag k="name" v="Kirkevika" />
		<tag k="natural" v="bay" />
		<tag k="ssr:stedsnr" v="537130" />
	</node>
	<node lat="59.35083611142156" lon="11.596741659725971" id="-15431">
		<tag k="name" v="Grønnseterbekken" />
		<tag k="ssr:stedsnr" v="537111" />
		<tag k="waterway" v="stream" />
	</node>
	<node lat="59.353724998343665" lon="11.703819446835743" id="-15434">
		<tag k="name" v="Kalvik" />
		<tag k="natural" v="bay" />
		<tag k="ssr:stedsnr" v="537293" />
	</node>
	<node lat="59.54419722229245" lon="11.711961113494908" id="-15436">
		<tag k="name" v="Galtedalsdypilen" />
		<tag k="natural" v="water" />
		<tag k="ssr:stedsnr" v="537393" />
		<tag k="water" v="pond" />
	</node>
	<node lat="59.57632499695519" lon="11.648536113152732" id="-15446">
		<tag k="name" v="Korstjern" />
		<tag k="natural" v="water" />
		<tag k="ssr:stedsnr" v="537447" />
	</node>
	<node lat="59.48151666394429" lon="11.564877769130186" id="-15454">
		<tag k="name" v="Søndre Burumtjern" />
		<tag k="natural" v="water" />
		<tag k="ssr:stedsnr" v="537774" />
	</node>
	<node lat="59.48288055263553" lon="11.572716673633398" id="-15455">
		<tag k="name" v="Valborgtjern" />
		<tag k="natural" v="water" />
		<tag k="ssr:stedsnr" v="537776" />
	</node>
	<node lat="59.45252777464953" lon="11.615355563501357" id="-15458">
		<tag k="name" v="Nøklepølen" />
		<tag k="natural" v="water" />
		<tag k="ssr:stedsnr" v="537788" />
	</node>
	<node lat="59.44382777989561" lon="11.595822227634956" id="-15459">
		<tag k="name" v="Glitrevannet" />
		<tag k="natural" v="water" />
		<tag k="ssr:stedsnr" v="537794" />
	</node>
	<node lat="59.42826666883127" lon="11.599375003210124" id="-15464">
		<tag k="name" v="Kollenputten" />
		<tag k="natural" v="water" />
		<tag k="ssr:stedsnr" v="537754" />
	</node>
	<node lat="59.42146666576465" lon="11.608761118449188" id="-15465">
		<tag k="name" v="Hakatjern" />
		<tag k="natural" v="water" />
		<tag k="ssr:stedsnr" v="537762" />
	</node>
	<node lat="59.42094444888986" lon="11.615155550050755" id="-15466">
		<tag k="name" v="Store Kutjern" />
		<tag k="natural" v="water" />
		<tag k="ssr:stedsnr" v="537763" />
	</node>
	<node lat="59.4689138930748" lon="11.568016669713998" id="-15467">
		<tag k="name" v="Storelitjern" />
		<tag k="natural" v="water" />
		<tag k="ssr:stedsnr" v="537841" />
	</node>
	<node lat="59.51704721950989" lon="11.54243610556662" id="-15469">
		<tag k="name" v="Bikkjetjern" />
		<tag k="natural" v="water" />
		<tag k="ssr:stedsnr" v="537937" />
	</node>
	<node lat="59.51483055122459" lon="11.547447218186479" id="-15470">
		<tag k="name" v="Busktjern" />
		<tag k="natural" v="water" />
		<tag k="ssr:stedsnr" v="537938" />
	</node>
	<node lat="59.5229472255401" lon="11.533824993207354" id="-15472">
		<tag k="name" v="Tjuvgodstjern" />
		<tag k="natural" v="water" />
		<tag k="ssr:stedsnr" v="537944" />
	</node>
	<node lat="59.633063885365225" lon="11.569019449904337" id="-15477">
		<tag k="name" v="Gjeddeviktangen" />
		<tag k="natural" v="cape" />
		<tag k="ssr:stedsnr" v="538227" />
	</node>
	<node lat="59.635366663331006" lon="11.59841666755548" id="-15478">
		<tag k="name" v="Urstjern" />
		<tag k="natural" v="water" />
		<tag k="ssr:stedsnr" v="538229" />
	</node>
	<node lat="59.62972221981995" lon="11.569811104334466" id="-15479">
		<tag k="name" v="Nordre Trosvik" />
		<tag k="natural" v="bay" />
		<tag k="ssr:stedsnr" v="538232" />
	</node>
	<node lat="59.55105833217671" lon="11.676461105724758" id="-15482">
		<tag k="name" v="Hofoss" />
		<tag k="natural" v="waterfall" />
		<tag k="ssr:stedsnr" v="538429" />
	</node>
	<node lat="59.333559562067954" lon="11.717891469601508" id="-15483">
		<tag k="name" v="Dyvelen" />
		<tag k="natural" v="water" />
		<tag k="ssr:stedsnr" v="538438" />
	</node>
	<node lat="59.454705553707164" lon="11.569850003652771" id="-15493">
		<tag k="alt_name" v="Langevannet" />
		<tag k="name" v="Li-Langen" />
		<tag k="natural" v="water" />
		<tag k="ssr:stedsnr" v="548592" />
	</node>
	<node lat="59.66972004458801" lon="11.649927501690152" id="-15496">
		<tag k="name" v="Store Risen" />
		<tag k="natural" v="water" />
		<tag k="ssr:stedsnr" v="549281" />
		<tag k="water" v="lake" />
	</node>
	<node lat="59.50751388538534" lon="11.556794441864367" id="-15503">
		<tag k="alt_name" v="Nordre Lervann" />
		<tag k="name" v="Nordre Lervannet" />
		<tag k="natural" v="water" />
		<tag k="ssr:stedsnr" v="550368" />
	</node>
	<node lat="59.46798333685139" lon="11.563249992846222" id="-15511">
		<tag k="name" v="Åsetjern" />
		<tag k="natural" v="water" />
		<tag k="ssr:stedsnr" v="597864" />
	</node>
	<node lat="59.473061114566896" lon="11.563547228379726" id="-15512">
		<tag k="name" v="Gårtjern" />
		<tag k="natural" v="water" />
		<tag k="ssr:stedsnr" v="597866" />
	</node>
	<node lat="59.46605833156035" lon="11.571472217818643" id="-15513">
		<tag k="name" v="Sukketjern" />
		<tag k="natural" v="water" />
		<tag k="ssr:stedsnr" v="597868" />
		<tag k="water" v="pond" />
	</node>
	<node lat="59.43626944826436" lon="11.604963889837492" id="-15514">
		<tag k="name" v="Tranetjern" />
		<tag k="natural" v="water" />
		<tag k="ssr:stedsnr" v="597226" />
	</node>
	<node lat="59.36465000374752" lon="11.661952774929583" id="-15515">
		<tag k="name" v="Røsnes" />
		<tag k="natural" v="cape" />
		<tag k="ssr:stedsnr" v="597297" />
	</node>
	<node lat="59.314963892792555" lon="11.80616111901455" id="-15522">
		<tag k="name" v="Løvikneset" />
		<tag k="natural" v="cape" />
		<tag k="ssr:stedsnr" v="597473" />
	</node>
	<node lat="59.42311111174841" lon="11.58758888505122" id="-15527">
		<tag k="name" v="Jarstjern" />
		<tag k="natural" v="water" />
		<tag k="ssr:stedsnr" v="597787" />
	</node>
	<node lat="59.425211111207176" lon="11.600727780794841" id="-15528">
		<tag k="name" v="Oterbekken" />
		<tag k="ssr:stedsnr" v="597790" />
		<tag k="waterway" v="stream" />
	</node>
	<node lat="59.44606944870676" lon="11.613038889469056" id="-15532">
		<tag k="name" v="Abbortjern" />
		<tag k="natural" v="water" />
		<tag k="ssr:stedsnr" v="597818" />
	</node>
	<node lat="59.363958336769585" lon="11.742177774173463" id="-15533">
		<tag k="name" v="Nestingen" />
		<tag k="natural" v="bay" />
		<tag k="ssr:stedsnr" v="597821" />
	</node>
	<node lat="59.48917098961598" lon="11.603035165819355" id="-15541">
		<tag k="name" v="Tretjerna" />
		<tag k="natural" v="water" />
		<tag k="ssr:stedsnr" v="597945" />
		<tag k="water" v="lake" />
	</node>
	<node lat="59.49971944900312" lon="11.646805552450997" id="-15546">
		<tag k="name" v="Kirkenes" />
		<tag k="natural" v="cape" />
		<tag k="ssr:stedsnr" v="598218" />
	</node>
	<node lat="59.48899444080677" lon="11.639658327122987" id="-15548">
		<tag k="name" v="Ysterudvika" />
		<tag k="natural" v="bay" />
		<tag k="ssr:stedsnr" v="598237" />
	</node>
	<node lat="59.55098889043072" lon="11.698083327781553" id="-15559">
		<tag k="name" v="Krokvannsdypilen" />
		<tag k="natural" v="water" />
		<tag k="ssr:stedsnr" v="598370" />
		<tag k="water" v="pond" />
	</node>
	<node lat="59.468475003626764" lon="11.641338885772747" id="-15561">
		<tag k="name" v="Smedbekken" />
		<tag k="ssr:stedsnr" v="598681" />
		<tag k="waterway" v="stream" />
	</node>
	<node lat="59.34030278207754" lon="11.649986110637881" id="-15562">
		<tag k="name" v="Måkeskjær" />
		<tag k="place" v="islet" />
		<tag k="ssr:stedsnr" v="598324" />
	</node>
	<node lat="59.61667795642073" lon="11.68517677844741" id="-15569">
		<tag k="fixme" v="multiple name tags, choose one and add the other to alt_name" />
		<tag k="name" v="Syltingtjerna;Merra" />
		<tag k="natural" v="water" />
		<tag k="ssr:stedsnr" v="598678" />
		<tag k="water" v="lake" />
	</node>
	<node lat="59.65926666877299" lon="11.644636112665774" id="-15570">
		<tag k="name" v="Søndre Gorotjern" />
		<tag k="natural" v="water" />
		<tag k="ssr:stedsnr" v="598431" />
	</node>
	<node lat="59.594513888834456" lon="11.593047220804728" id="-15578">
		<tag k="name" v="Hella" />
		<tag k="natural" v="cape" />
		<tag k="ssr:stedsnr" v="598874" />
	</node>
	<node lat="59.44509721789335" lon="11.58924999941407" id="-15581">
		<tag k="name" v="Kroktjern" />
		<tag k="natural" v="water" />
		<tag k="ssr:stedsnr" v="609569" />
	</node>
	<node lat="59.36543055499075" lon="11.613538886513568" id="-15585">
		<tag k="alt_name" v="Tranetjern" />
		<tag k="name" v="Trantjern" />
		<tag k="natural" v="water" />
		<tag k="ssr:stedsnr" v="609678" />
	</node>
	<node lat="59.66106394568741" lon="11.632221844675776" id="-15588">
		<tag k="alt_name" v="Røytjern" />
		<tag k="name" v="Søndre Røytjern" />
		<tag k="natural" v="water" />
		<tag k="ssr:stedsnr" v="610295" />
	</node>
	<node lat="59.5128888853066" lon="11.585675003140766" id="-15589">
		<tag k="alt_name" v="Slorebytjerna" />
		<tag k="name" v="Østre Slorbytjern" />
		<tag k="natural" v="water" />
		<tag k="ssr:stedsnr" v="610419" />
	</node>
	<node lat="59.332361112305264" lon="11.635808325806371" id="-15597">
		<tag k="name" v="Fossebekksundet" />
		<tag k="natural" v="strait" />
		<tag k="ssr:stedsnr" v="613052" />
	</node>
	<node lat="59.35392222195816" lon="11.58069999664267" id="-15603">
		<tag k="name" v="Svartetjern" />
		<tag k="natural" v="water" />
		<tag k="ssr:stedsnr" v="658121" />
	</node>
	<node lat="59.499350000281545" lon="11.65359722154427" id="-15607">
		<tag k="name" v="Langvik" />
		<tag k="natural" v="bay" />
		<tag k="ssr:stedsnr" v="658226" />
	</node>
	<node lat="59.329322221132415" lon="11.627519440531962" id="-15610">
		<tag k="name" v="Fossebekktjern" />
		<tag k="natural" v="water" />
		<tag k="ssr:stedsnr" v="658419" />
	</node>
	<node lat="59.392263893058775" lon="11.722744436849027" id="-15612">
		<tag k="name" v="Engselva" />
		<tag k="ssr:stedsnr" v="658502" />
		<tag k="waterway" v="river" />
	</node>
	<node lat="59.38368888923839" lon="11.724238892573497" id="-15614">
		<tag k="name" v="Spjutnesnebba" />
		<tag k="natural" v="cape" />
		<tag k="ssr:stedsnr" v="658515" />
	</node>
	<node lat="59.48552500024444" lon="11.586730557455319" id="-15631">
		<tag k="name" v="Svartevannselva" />
		<tag k="ssr:stedsnr" v="658892" />
		<tag k="waterway" v="river" />
	</node>
	<node lat="59.51092500310131" lon="11.535222227694915" id="-15633">
		<tag k="name" v="Hestesprengen" />
		<tag k="natural" v="water" />
		<tag k="ssr:stedsnr" v="658928" />
	</node>
	<node lat="59.427638886340226" lon="11.597511117874156" id="-15635">
		<tag k="name" v="Otertjern" />
		<tag k="natural" v="water" />
		<tag k="ssr:stedsnr" v="658764" />
	</node>
	<node lat="59.493574997465956" lon="11.556569447627199" id="-15637">
		<tag k="name" v="Lervannsdypilen" />
		<tag k="natural" v="water" />
		<tag k="ssr:stedsnr" v="658945" />
	</node>
	<node lat="59.485805553416355" lon="11.571950004615507" id="-15638">
		<tag k="name" v="Burumbekken" />
		<tag k="ssr:stedsnr" v="658947" />
		<tag k="waterway" v="stream" />
	</node>
	<node lat="59.52565833765437" lon="11.569416664570918" id="-15640">
		<tag k="name" v="Lervannselva" />
		<tag k="ssr:stedsnr" v="658977" />
		<tag k="waterway" v="stream" />
	</node>
	<node lat="59.62540278003486" lon="11.617883331613651" id="-15642">
		<tag k="name" v="Oppsaltjernet" />
		<tag k="natural" v="water" />
		<tag k="ssr:stedsnr" v="659146" />
	</node>
	<node lat="59.511558335691" lon="11.63769166331933" id="-15645">
		<tag k="name" v="Roperberget" />
		<tag k="natural" v="cape" />
		<tag k="ssr:stedsnr" v="659270" />
	</node>
	<node lat="59.506461115037816" lon="11.713738895850105" id="-15649">
		<tag k="name" v="Butjern" />
		<tag k="natural" v="water" />
		<tag k="ssr:stedsnr" v="659369" />
	</node>
	<node lat="59.6576305582964" lon="11.665547215630376" id="-15650">
		<tag k="name" v="Holmetjern" />
		<tag k="natural" v="water" />
		<tag k="ssr:stedsnr" v="659458" />
	</node>
	<node lat="59.64547222394924" lon="11.691525004942685" id="-15652">
		<tag k="name" v="Vestre Åkevannsvika" />
		<tag k="natural" v="bay" />
		<tag k="ssr:stedsnr" v="659466" />
	</node>
	<node lat="59.55753611179581" lon="11.686427784447774" id="-15655">
		<tag k="name" v="Damtjerndypilen" />
		<tag k="natural" v="water" />
		<tag k="ssr:stedsnr" v="659388" />
	</node>
	<node lat="59.56671388672749" lon="11.655836108969186" id="-15656">
		<tag k="name" v="Bukketjern" />
		<tag k="natural" v="water" />
		<tag k="ssr:stedsnr" v="659394" />
	</node>
	<node lat="59.3482777758217" lon="11.75926111218897" id="-15663">
		<tag k="name" v="Skjærvik" />
		<tag k="natural" v="bay" />
		<tag k="ssr:stedsnr" v="659796" />
	</node>
	<node lat="59.38784722291244" lon="11.755061115280009" id="-15671">
		<tag k="name" v="Nestetjern" />
		<tag k="natural" v="water" />
		<tag k="ssr:stedsnr" v="670521" />
	</node>
	<node lat="59.56363196109544" lon="11.602782510321067" id="-15673">
		<tag k="fixme" v="multiple name tags, choose one and add the other to alt_name" />
		<tag k="name" v="Rødenessjøen;Aur" />
		<tag k="natural" v="water" />
		<tag k="ssr:stedsnr" v="670538" />
		<tag k="water" v="lake" />
	</node>
	<node lat="59.47139167088709" lon="11.572549999084949" id="-15674">
		<tag k="name" v="Holmetjern" />
		<tag k="natural" v="water" />
		<tag k="ssr:stedsnr" v="670550" />
	</node>
	<node lat="59.37109444460897" lon="11.711097224614655" id="-15679">
		<tag k="name" v="Dyvelen" />
		<tag k="natural" v="water" />
		<tag k="ssr:stedsnr" v="670683" />
	</node>
	<node lat="59.63956944651564" lon="11.547299998447647" id="-15689">
		<tag k="name" v="Svartekulpa" />
		<tag k="natural" v="water" />
		<tag k="ssr:stedsnr" v="719062" />
		<tag k="water" v="pond" />
	</node>
	<node lat="59.64489999894566" lon="11.618302775440387" id="-15692">
		<tag k="name" v="Dypil" />
		<tag k="natural" v="water" />
		<tag k="ssr:stedsnr" v="719077" />
		<tag k="water" v="pond" />
	</node>
	<node lat="59.58055833388167" lon="11.522783337053333" id="-15694">
		<tag k="name" v="Kattistangen" />
		<tag k="natural" v="cape" />
		<tag k="ssr:stedsnr" v="719228" />
	</node>
	<node lat="59.4592911243796" lon="11.621737476173514" id="-15699">
		<tag k="name" v="Vesle Kutjern" />
		<tag k="natural" v="water" />
		<tag k="ssr:stedsnr" v="719466" />
	</node>
	<node lat="59.430280553071775" lon="11.59210554655755" id="-15702">
		<tag k="name" v="Rotjern" />
		<tag k="natural" v="water" />
		<tag k="ssr:stedsnr" v="719217" />
	</node>
	<node lat="59.423449998929094" lon="11.622383332803144" id="-15707">
		<tag k="name" v="Bjørnetjern" />
		<tag k="natural" v="water" />
		<tag k="ssr:stedsnr" v="719540" />
	</node>
	<node lat="59.50142500049524" lon="11.534949994733532" id="-15712">
		<tag k="name" v="Hommelen" />
		<tag k="natural" v="water" />
		<tag k="ssr:stedsnr" v="719828" />
	</node>
	<node lat="59.41345833246734" lon="11.773150006624075" id="-15715">
		<tag k="name" v="Hølebekk" />
		<tag k="ssr:stedsnr" v="719866" />
		<tag k="waterway" v="stream" />
	</node>
	<node lat="59.4633277738619" lon="11.564258327004936" id="-15726">
		<tag k="name" v="Daleputten" />
		<tag k="natural" v="water" />
		<tag k="ssr:stedsnr" v="719737" />
	</node>
	<node lat="59.48681111108711" lon="11.580275008400182" id="-15732">
		<tag k="name" v="Langevannsbekken" />
		<tag k="ssr:stedsnr" v="719898" />
		<tag k="waterway" v="stream" />
	</node>
	<node lat="59.34030555498951" lon="11.642738889333758" id="-15747">
		<tag k="name" v="Brattestadnebba" />
		<tag k="natural" v="cape" />
		<tag k="ssr:stedsnr" v="720356" />
	</node>
	<node lat="59.65471389134597" lon="11.688730557122822" id="-15749">
		<tag k="name" v="Steinstjern" />
		<tag k="natural" v="water" />
		<tag k="ssr:stedsnr" v="720449" />
	</node>
	<node lat="59.56672500079969" lon="11.680911103202149" id="-15750">
		<tag k="name" v="Dropletjern" />
		<tag k="natural" v="water" />
		<tag k="ssr:stedsnr" v="720394" />
	</node>
	<node lat="59.566299999027294" lon="11.650208338857064" id="-15752">
		<tag k="name" v="Kutjern" />
		<tag k="natural" v="water" />
		<tag k="ssr:stedsnr" v="720397" />
	</node>
	<node lat="59.33546944645263" lon="11.781049997088385" id="-15754">
		<tag k="name" v="Voleseter" />
		<tag k="natural" v="bay" />
		<tag k="ssr:stedsnr" v="720818" />
	</node>
	<node lat="59.355700004225966" lon="11.638586107000139" id="-15768">
		<tag k="name" v="Svarttjern" />
		<tag k="natural" v="water" />
		<tag k="ssr:stedsnr" v="731698" />
	</node>
	<node lat="59.549791664696606" lon="11.70656944284936" id="-15779">
		<tag k="name" v="Krokvann" />
		<tag k="natural" v="water" />
		<tag k="ssr:stedsnr" v="732492" />
	</node>
	<node lat="59.4286166623475" lon="11.61604722600981" id="-15788">
		<tag k="name" v="Lommetjern" />
		<tag k="natural" v="water" />
		<tag k="ssr:stedsnr" v="779775" />
	</node>
	<node lat="59.554811110596894" lon="11.598594436009192" id="-15795">
		<tag k="name" v="Klemmetsbybekken" />
		<tag k="ssr:stedsnr" v="780043" />
		<tag k="waterway" v="stream" />
	</node>
	<node lat="59.569594442905135" lon="11.591552777366811" id="-15804">
		<tag k="name" v="Kusand" />
		<tag k="natural" v="cape" />
		<tag k="ssr:stedsnr" v="780239" />
	</node>
	<node lat="59.67086666564692" lon="11.632461102945708" id="-15807">
		<tag k="name" v="Steinstjern" />
		<tag k="natural" v="water" />
		<tag k="ssr:stedsnr" v="780377" />
	</node>
	<node lat="59.663544445164526" lon="11.621286116483395" id="-15809">
		<tag k="name" v="Hestetjern" />
		<tag k="natural" v="water" />
		<tag k="ssr:stedsnr" v="780385" />
	</node>
	<node lat="59.45075833484354" lon="11.647033341264116" id="-15819">
		<tag k="name" v="Årnesvika" />
		<tag k="natural" v="bay" />
		<tag k="ssr:stedsnr" v="780466" />
	</node>
	<node lat="59.445186107419026" lon="11.627630556927556" id="-15821">
		<tag k="name" v="Bukketjern" />
		<tag k="natural" v="water" />
		<tag k="ssr:stedsnr" v="780468" />
	</node>
	<node lat="59.620105556160176" lon="11.65079443946477" id="-15834">
		<tag k="name" v="Nordre Stutøye" />
		<tag k="natural" v="water" />
		<tag k="ssr:stedsnr" v="780547" />
	</node>
	<node lat="59.60550000027572" lon="11.689336115658458" id="-15835">
		<tag k="name" v="Gravtjern" />
		<tag k="natural" v="water" />
		<tag k="ssr:stedsnr" v="780623" />
	</node>
	<node lat="59.3536611068277" lon="11.775252783990602" id="-15849">
		<tag k="name" v="Østre Torgrimsbutjern" />
		<tag k="natural" v="water" />
		<tag k="ssr:stedsnr" v="780747" />
	</node>
	<node lat="59.36582777823637" lon="11.60226944221146" id="-15856">
		<tag k="name" v="Nordre Kroktjern" />
		<tag k="natural" v="water" />
		<tag k="ssr:stedsnr" v="781081" />
	</node>
	<node lat="59.55573611410845" lon="11.680902786827467" id="-15862">
		<tag k="name" v="Dypilene" />
		<tag k="natural" v="water" />
		<tag k="ssr:stedsnr" v="781390" />
		<tag k="water" v="pond" />
	</node>
	<node lat="59.56095277444495" lon="11.687283333103046" id="-15863">
		<tag k="name" v="Bartjern" />
		<tag k="natural" v="water" />
		<tag k="ssr:stedsnr" v="781393" />
	</node>
	<node lat="59.64364444303993" lon="11.719205546866705" id="-15867">
		<tag k="alt_name" v="Langvannet" />
		<tag k="name" v="Langvann" />
		<tag k="natural" v="water" />
		<tag k="ssr:stedsnr" v="792248" />
		<tag k="water" v="lake" />
	</node>
	<node lat="59.648500001622935" lon="11.647836117889215" id="-15868">
		<tag k="alt_name" v="Damvannet" />
		<tag k="name" v="Damvann" />
		<tag k="natural" v="water" />
		<tag k="ssr:stedsnr" v="792252" />
		<tag k="water" v="lake" />
	</node>
	<node lat="59.31362777692778" lon="11.587802784246962" id="-15873">
		<tag k="alt_name" v="Asketjern" />
		<tag k="name" v="Asketjernet" />
		<tag k="natural" v="water" />
		<tag k="ssr:stedsnr" v="792624" />
	</node>
	<node lat="59.64403889101188" lon="11.56173055553652" id="-15885">
		<tag k="name" v="Nordre Gørrvika" />
		<tag k="natural" v="bay" />
		<tag k="ssr:stedsnr" v="841077" />
	</node>
	<node lat="59.52886111037779" lon="11.611752772590744" id="-15886">
		<tag k="name" v="Granneset" />
		<tag k="natural" v="cape" />
		<tag k="ssr:stedsnr" v="840474" />
	</node>
	<node lat="59.4605138884855" lon="11.556083332300844" id="-15887">
		<tag k="name" v="Vardedypetjern" />
		<tag k="natural" v="water" />
		<tag k="ssr:stedsnr" v="840794" />
	</node>
	<node lat="59.590547226774845" lon="11.642283325061488" id="-15906">
		<tag k="name" v="Åsebyelva" />
		<tag k="ssr:stedsnr" v="841440" />
		<tag k="waterway" v="stream" />
	</node>
	<node lat="59.58506388883556" lon="11.64989722501574" id="-15908">
		<tag k="name" v="Nordre Morttjern" />
		<tag k="natural" v="water" />
		<tag k="ssr:stedsnr" v="841447" />
	</node>
	<node lat="59.572669447302054" lon="11.660361116695114" id="-15909">
		<tag k="name" v="Abbortjern" />
		<tag k="natural" v="water" />
		<tag k="ssr:stedsnr" v="841452" />
	</node>
	<node lat="59.51286388967563" lon="11.52743055701286" id="-15918">
		<tag k="name" v="Fonnerudbekken" />
		<tag k="ssr:stedsnr" v="841935" />
		<tag k="waterway" v="stream" />
	</node>
	<node lat="59.33748888889695" lon="11.60650277360332" id="-15921">
		<tag k="name" v="Dyvelen" />
		<tag k="natural" v="water" />
		<tag k="ssr:stedsnr" v="842120" />
	</node>
	<node lat="59.41548055702219" lon="11.602166666605122" id="-15924">
		<tag k="name" v="Kudyvelen" />
		<tag k="natural" v="water" />
		<tag k="ssr:stedsnr" v="842159" />
		<tag k="water" v="pond" />
	</node>
	<node lat="59.38763611554225" lon="11.613416668244028" id="-15926">
		<tag k="name" v="Fossene" />
		<tag k="ssr:stedsnr" v="842166" />
		<tag k="waterway" v="rapids" />
	</node>
	<node lat="59.35227499615903" lon="11.677030557743347" id="-15928">
		<tag k="name" v="Lommetjern" />
		<tag k="natural" v="water" />
		<tag k="ssr:stedsnr" v="842342" />
	</node>
	<node lat="59.595602774625924" lon="11.50767777150921" id="-15934">
		<tag k="name" v="Langfosstjernbekken" />
		<tag k="ssr:stedsnr" v="841175" />
		<tag k="waterway" v="stream" />
	</node>
	<node lat="59.63942778207093" lon="11.641811112436681" id="-15938">
		<tag k="name" v="Vegatjern" />
		<tag k="natural" v="water" />
		<tag k="ssr:stedsnr" v="853287" />
	</node>
	<node lat="59.651238889969456" lon="11.718650007523538" id="-15941">
		<tag k="alt_name" v="Persund" />
		<tag k="name" v="Persundet" />
		<tag k="natural" v="strait" />
		<tag k="ssr:stedsnr" v="853234" />
	</node>
	<node lat="59.42471388834106" lon="11.604866666459559" id="-15948">
		<tag k="name" v="Holmetjern" />
		<tag k="natural" v="water" />
		<tag k="ssr:stedsnr" v="853485" />
	</node>
	<node lat="59.31781944467324" lon="11.593813896009511" id="-15949">
		<tag k="alt_name" v="Vesletjern" />
		<tag k="name" v="Vesletjernet" />
		<tag k="natural" v="water" />
		<tag k="ssr:stedsnr" v="853631" />
	</node>
	<node lat="59.3331861145154" lon="11.600966668779543" id="-15950">
		<tag k="alt_name" v="Saksetjern" />
		<tag k="name" v="Saksetjernet" />
		<tag k="natural" v="water" />
		<tag k="ssr:stedsnr" v="853738" />
	</node>
	<node lat="59.43922500366908" lon="11.599933333385986" id="-15956">
		<tag k="name" v="Blekketjern" />
		<tag k="natural" v="water" />
		<tag k="ssr:stedsnr" v="961201" />
	</node>
	<node lat="59.40673333225128" lon="11.65586110223536" id="-15959">
		<tag k="name" v="Åsmundrudsundet" />
		<tag k="natural" v="strait" />
		<tag k="ssr:stedsnr" v="961556" />
	</node>
	<node lat="59.48571388717836" lon="11.660933334465186" id="-15963">
		<tag k="name" v="Krokstadtjernet" />
		<tag k="natural" v="water" />
		<tag k="ssr:stedsnr" v="962746" />
	</node>
	<node lat="59.32205319614618" lon="11.576865618124971" id="-15967">
		<tag k="name" v="Mellomsjøen" />
		<tag k="natural" v="water" />
		<tag k="ssr:stedsnr" v="962063" />
	</node>
	<node lat="59.644536109578205" lon="11.56249443588447" id="-15968">
		<tag k="name" v="Størkil" />
		<tag k="natural" v="cape" />
		<tag k="ssr:stedsnr" v="962070" />
	</node>
	<node lat="59.63968055670357" lon="11.565016673023232" id="-15969">
		<tag k="name" v="Søndre Gørrvika" />
		<tag k="natural" v="bay" />
		<tag k="ssr:stedsnr" v="962072" />
	</node>
	<node lat="59.46853333492835" lon="11.608541670926178" id="-15977">
		<tag k="name" v="Mellemvadet" />
		<tag k="ssr:stedsnr" v="961879" />
		<tag k="waterway" v="river" />
	</node>
	<node lat="59.62727222473063" lon="11.571608342015944" id="-15980">
		<tag k="name" v="Søndre Trosvik" />
		<tag k="natural" v="bay" />
		<tag k="ssr:stedsnr" v="962224" />
	</node>
	<node lat="59.5216305552352" lon="11.636355551496024" id="-15983">
		<tag k="name" v="Sørengsvik" />
		<tag k="natural" v="bay" />
		<tag k="ssr:stedsnr" v="962322" />
	</node>
	<node lat="59.59223888947105" lon="11.663397218668175" id="-15984">
		<tag k="name" v="Røssebrutjern" />
		<tag k="natural" v="water" />
		<tag k="ssr:stedsnr" v="962434" />
	</node>
	<node lat="59.53318055528464" lon="11.627599991283702" id="-15994">
		<tag k="name" v="Måstadholmen" />
		<tag k="place" v="islet" />
		<tag k="ssr:stedsnr" v="962416" />
	</node>
	<node lat="59.650736112955286" lon="11.694288882568511" id="-15997">
		<tag k="name" v="Lille Åkevannet" />
		<tag k="natural" v="water" />
		<tag k="ssr:stedsnr" v="962425" />
	</node>
	<node lat="59.650230557985026" lon="11.714786118119648" id="-15998">
		<tag k="name" v="Tvebonnatjern" />
		<tag k="natural" v="water" />
		<tag k="ssr:stedsnr" v="962426" />
	</node>
	<node lat="59.655047224971774" lon="11.69873611991769" id="-16002">
		<tag k="name" v="Fenafor" />
		<tag k="natural" v="water" />
		<tag k="ssr:stedsnr" v="962433" />
	</node>
	<node lat="59.63878055280659" lon="11.714499994790927" id="-16003">
		<tag k="name" v="Rødvannsbekken" />
		<tag k="natural" v="strait" />
		<tag k="ssr:stedsnr" v="962455" />
	</node>
	<node lat="59.59572499641619" lon="11.665674996065706" id="-16008">
		<tag k="name" v="Steinbekken" />
		<tag k="ssr:stedsnr" v="962659" />
		<tag k="waterway" v="stream" />
	</node>
	<node lat="59.59751110712386" lon="11.610469437037048" id="-16011">
		<tag k="name" v="Åsebyneset" />
		<tag k="natural" v="cape" />
		<tag k="ssr:stedsnr" v="962871" />
	</node>
	<node lat="59.49207221884958" lon="11.569052784423354" id="-16017">
		<tag k="name" v="Det svarte tjernet" />
		<tag k="natural" v="water" />
		<tag k="ssr:stedsnr" v="962966" />
	</node>
	<node lat="59.36057499835897" lon="11.58775278034461" id="-16018">
		<tag k="name" v="Nilsetjern" />
		<tag k="natural" v="water" />
		<tag k="ssr:stedsnr" v="963068" />
	</node>
	<node lat="59.4207083307958" lon="11.594105563736814" id="-16021">
		<tag k="name" v="Manndraptjern" />
		<tag k="natural" v="water" />
		<tag k="ssr:stedsnr" v="963163" />
	</node>
	<node lat="59.41315000246996" lon="11.593333339715029" id="-16022">
		<tag k="name" v="Klemmabekken" />
		<tag k="ssr:stedsnr" v="963165" />
		<tag k="waterway" v="stream" />
	</node>
	<node lat="59.428225010397306" lon="11.626218793158008" id="-16048">
		<tag k="name" v="Midtre Trytjern" />
		<tag k="natural" v="water" />
		<tag k="ssr:stedsnr" v="1082858" />
	</node>
</osm>
