<?xml version="1.0" encoding="UTF-8"?>
<<<<<<< HEAD
<osm version="0.6" generator="osmapis">
	<node lat="59.43433888827139" lon="11.602572221175325" id="-13426">
		<tag k="alt_name" v="Tyvslåtta" />
		<tag k="name" v="Tjuvslåtta" />
		<tag k="natural" v="wetland" />
		<tag k="ssr:stedsnr" v="2625" />
	</node>
	<node lat="59.553505559252045" lon="11.541094438750255" id="-13438">
		<tag k="name" v="Langmose" />
		<tag k="natural" v="wetland" />
		<tag k="ssr:stedsnr" v="7062" />
	</node>
	<node lat="59.36587777943643" lon="11.715680550025048" id="-13447">
		<tag k="name" v="Ruketjernmosen" />
		<tag k="natural" v="wetland" />
		<tag k="ssr:stedsnr" v="233352" />
	</node>
	<node lat="59.33965833668103" lon="11.711530551016185" id="-13448">
		<tag k="name" v="Runde mose" />
		<tag k="natural" v="wetland" />
		<tag k="ssr:stedsnr" v="233377" />
	</node>
	<node lat="59.54656111459947" lon="11.676175003976384" id="-13449">
		<tag k="name" v="Elgemosen" />
		<tag k="natural" v="wetland" />
		<tag k="ssr:stedsnr" v="233423" />
	</node>
	<node lat="59.41867499714591" lon="11.637247223729014" id="-13452">
		<tag k="name" v="Damsmyr" />
		<tag k="natural" v="wetland" />
		<tag k="ssr:stedsnr" v="233589" />
	</node>
	<node lat="59.42426388466419" lon="11.586461113973478" id="-13458">
		<tag k="name" v="Jarsmosen" />
		<tag k="natural" v="wetland" />
		<tag k="ssr:stedsnr" v="233808" />
	</node>
	<node lat="59.387922220335135" lon="11.609933332992975" id="-13472">
		<tag k="name" v="Gudbrandsmyra" />
		<tag k="natural" v="wetland" />
		<tag k="ssr:stedsnr" v="234093" />
	</node>
	<node lat="59.347755552608284" lon="11.576344441527645" id="-13473">
		<tag k="name" v="Småmyrene" />
		<tag k="natural" v="wetland" />
		<tag k="ssr:stedsnr" v="234118" />
	</node>
	<node lat="59.34750000380202" lon="11.593741670923167" id="-13474">
		<tag k="name" v="Hagaholtmosen" />
		<tag k="natural" v="wetland" />
		<tag k="ssr:stedsnr" v="234119" />
	</node>
	<node lat="59.52476111396324" lon="11.696427772989582" id="-13483">
		<tag k="name" v="Langevannsmyra" />
		<tag k="natural" v="wetland" />
		<tag k="ssr:stedsnr" v="234357" />
	</node>
	<node lat="59.58794444537273" lon="11.65143333963213" id="-13490">
		<tag k="loc_name" v="Øvre Sagmyra" />
		<tag k="name" v="Sagmyra" />
		<tag k="natural" v="wetland" />
		<tag k="ssr:stedsnr" v="234446" />
	</node>
	<node lat="59.58434166941184" lon="11.64572778175898" id="-13491">
		<tag k="name" v="Nedre Mikkelmose" />
		<tag k="natural" v="wetland" />
		<tag k="ssr:stedsnr" v="234449" />
	</node>
	<node lat="59.572602774104496" lon="11.654316672431062" id="-13492">
		<tag k="name" v="Søndre Fuglemose" />
		<tag k="natural" v="wetland" />
		<tag k="ssr:stedsnr" v="234454" />
	</node>
	<node lat="59.61893610996915" lon="11.706636117420777" id="-13503">
		<tag k="name" v="Linnemosen" />
		<tag k="natural" v="wetland" />
		<tag k="ssr:stedsnr" v="234562" />
	</node>
	<node lat="59.542263886235844" lon="11.544847214027927" id="-13504">
		<tag k="name" v="Flismosen" />
		<tag k="natural" v="wetland" />
		<tag k="ssr:stedsnr" v="234569" />
	</node>
	<node lat="59.61008611549104" lon="11.641441665301002" id="-13508">
		<tag k="name" v="Nedre Skinnstakkmyra" />
		<tag k="natural" v="wetland" />
		<tag k="ssr:stedsnr" v="234644" />
	</node>
	<node lat="59.39868889297208" lon="11.761174999635621" id="-13526">
		<tag k="name" v="Toremyr" />
		<tag k="natural" v="wetland" />
		<tag k="ssr:stedsnr" v="51902" />
	</node>
	<node lat="59.317477781213526" lon="11.618202783011712" id="-13530">
		<tag k="name" v="Skjelldalsmyra" />
		<tag k="natural" v="wetland" />
		<tag k="ssr:stedsnr" v="52374" />
	</node>
	<node lat="59.58523332960476" lon="11.662861108054294" id="-13538">
		<tag k="name" v="Rundmyr" />
		<tag k="natural" v="wetland" />
		<tag k="ssr:stedsnr" v="52419" />
	</node>
	<node lat="59.45050833549732" lon="11.707011117272694" id="-13543">
		<tag k="name" v="Saueløkka" />
		<tag k="place" v="locality" />
		<tag k="ssr:stedsnr" v="52680" />
	</node>
	<node lat="59.478133332079516" lon="11.586147226151732" id="-13544">
		<tag k="name" v="Lysevannsmyra" />
		<tag k="natural" v="wetland" />
		<tag k="ssr:stedsnr" v="52819" />
	</node>
	<node lat="59.47475277935667" lon="11.749441674516342" id="-13545">
		<tag k="name" v="Kavlemåkemyra" />
		<tag k="natural" v="wetland" />
		<tag k="ssr:stedsnr" v="52908" />
	</node>
	<node lat="59.36950833086556" lon="11.589013895940184" id="-13550">
		<tag k="name" v="Musemyr" />
		<tag k="natural" v="wetland" />
		<tag k="ssr:stedsnr" v="53071" />
	</node>
	<node lat="59.37645277370905" lon="11.593116662436543" id="-13551">
		<tag k="name" v="Kløvne sten" />
		<tag k="natural" v="stone" />
		<tag k="ssr:stedsnr" v="53076" />
	</node>
	<node lat="59.36112777820199" lon="11.601011117466815" id="-13563">
		<tag k="name" v="Kroktjernmosen" />
		<tag k="natural" v="wetland" />
		<tag k="ssr:stedsnr" v="64707" />
	</node>
	<node lat="59.613466665872174" lon="11.703502773439718" id="-13565">
		<tag k="name" v="Porsluggen" />
		<tag k="natural" v="wetland" />
		<tag k="ssr:stedsnr" v="295592" />
	</node>
	<node lat="59.55660833372837" lon="11.550866659626074" id="-13579">
		<tag k="alt_name" v="Breimose" />
		<tag k="name" v="Breidmosen" />
		<tag k="natural" v="wetland" />
		<tag k="ssr:stedsnr" v="246458" />
	</node>
	<node lat="59.36511666625954" lon="11.6425750082366" id="-13587">
		<tag k="name" v="Søgårdsmosen" />
		<tag k="natural" v="wetland" />
		<tag k="ssr:stedsnr" v="112332" />
	</node>
	<node lat="59.59093611301089" lon="11.537186113610414" id="-13599">
		<tag k="name" v="Trollemosen" />
		<tag k="natural" v="wetland" />
		<tag k="ssr:stedsnr" v="113169" />
	</node>
	<node lat="59.58903889221688" lon="11.519186105916887" id="-13600">
		<tag k="name" v="Fjellengmyra" />
		<tag k="natural" v="wetland" />
		<tag k="ssr:stedsnr" v="113177" />
	</node>
	<node lat="59.55388333556673" lon="11.580469452079338" id="-13606">
		<tag k="name" v="Langemyra" />
		<tag k="natural" v="wetland" />
		<tag k="ssr:stedsnr" v="113223" />
	</node>
	<node lat="59.60323888832077" lon="11.520708339737483" id="-13616">
		<tag k="name" v="Haratjernmosen" />
		<tag k="natural" v="wetland" />
		<tag k="ssr:stedsnr" v="113510" />
	</node>
	<node lat="59.46180833574114" lon="11.721911116799804" id="-13621">
		<tag k="name" v="Klevtjernmosen" />
		<tag k="natural" v="wetland" />
		<tag k="ssr:stedsnr" v="113703" />
	</node>
	<node lat="59.45673333007869" lon="11.755638881045188" id="-13624">
		<tag k="name" v="Skjærimose" />
		<tag k="natural" v="wetland" />
		<tag k="ssr:stedsnr" v="113908" />
	</node>
	<node lat="59.64248333281831" lon="11.576516670954057" id="-13649">
		<tag k="name" v="Fossemosen" />
		<tag k="natural" v="wetland" />
		<tag k="ssr:stedsnr" v="173069" />
	</node>
	<node lat="59.5308000044496" lon="11.717200001502713" id="-13655">
		<tag k="name" v="Snømosen" />
		<tag k="natural" v="wetland" />
		<tag k="ssr:stedsnr" v="173359" />
	</node>
	<node lat="59.51058333640011" lon="11.608325000745776" id="-13662">
		<tag k="name" v="Husåsmosen" />
		<tag k="natural" v="wetland" />
		<tag k="ssr:stedsnr" v="173471" />
	</node>
	<node lat="59.44677499876732" lon="11.643633332798903" id="-13663">
		<tag k="name" v="Femyra" />
		<tag k="natural" v="wetland" />
		<tag k="ssr:stedsnr" v="173477" />
	</node>
	<node lat="59.632486109463265" lon="11.642669450943888" id="-13666">
		<tag k="name" v="Elgehølet" />
		<tag k="natural" v="wetland" />
		<tag k="ssr:stedsnr" v="173507" />
	</node>
	<node lat="59.4130722197208" lon="11.744297226736336" id="-13674">
		<tag k="name" v="Fuglemose" />
		<tag k="natural" v="wetland" />
		<tag k="ssr:stedsnr" v="173907" />
	</node>
	<node lat="59.486355559819394" lon="11.610816664347155" id="-13679">
		<tag k="name" v="Bikkjepølen" />
		<tag k="natural" v="wetland" />
		<tag k="ssr:stedsnr" v="173918" />
	</node>
	<node lat="59.37775555768726" lon="11.597530552194488" id="-13682">
		<tag k="name" v="Ladalmyra" />
		<tag k="natural" v="wetland" />
		<tag k="ssr:stedsnr" v="174109" />
	</node>
	<node lat="59.341072220771935" lon="11.61098056381102" id="-13683">
		<tag k="name" v="Toremyr" />
		<tag k="natural" v="wetland" />
		<tag k="ssr:stedsnr" v="174139" />
	</node>
	<node lat="59.338849998055125" lon="11.786038895680361" id="-13694">
		<tag k="name" v="Kalvemyra" />
		<tag k="natural" v="wetland" />
		<tag k="ssr:stedsnr" v="174825" />
	</node>
	<node lat="59.420988884445165" lon="11.639225006102336" id="-13717">
		<tag k="name" v="Dansemyr" />
		<tag k="natural" v="wetland" />
		<tag k="ssr:stedsnr" v="233618" />
	</node>
	<node lat="59.37278333590704" lon="11.589616671888388" id="-13728">
		<tag k="name" v="Fugleleken" />
		<tag k="natural" v="wetland" />
		<tag k="ssr:stedsnr" v="234078" />
	</node>
	<node lat="59.368741662660064" lon="11.61069444313345" id="-13730">
		<tag k="name" v="Bjørnemosen" />
		<tag k="natural" v="wetland" />
		<tag k="ssr:stedsnr" v="234083" />
	</node>
	<node lat="59.37818055608406" lon="11.59196389523883" id="-13731">
		<tag k="name" v="Elggravmosen" />
		<tag k="natural" v="wetland" />
		<tag k="ssr:stedsnr" v="234084" />
	</node>
	<node lat="59.50818889134236" lon="11.701911113040808" id="-13737">
		<tag k="name" v="Fuglemosen" />
		<tag k="natural" v="wetland" />
		<tag k="ssr:stedsnr" v="234336" />
	</node>
	<node lat="59.589727779267356" lon="11.683397226852325" id="-13740">
		<tag k="name" v="Styggemyr" />
		<tag k="natural" v="wetland" />
		<tag k="ssr:stedsnr" v="234301" />
	</node>
	<node lat="59.55097777677856" lon="11.561469449226472" id="-13748">
		<tag k="name" v="Toketorpmosen" />
		<tag k="natural" v="wetland" />
		<tag k="ssr:stedsnr" v="450038" />
	</node>
	<node lat="59.56061666424859" lon="11.653513887912373" id="-13750">
		<tag k="name" v="Postlimosen" />
		<tag k="natural" v="wetland" />
		<tag k="ssr:stedsnr" v="234384" />
	</node>
	<node lat="59.46770000138537" lon="11.737394452632639" id="-13762">
		<tag k="name" v="Multemyra" />
		<tag k="natural" v="wetland" />
		<tag k="ssr:stedsnr" v="234914" />
	</node>
	<node lat="59.577850003832296" lon="11.52860277292025" id="-13764">
		<tag k="name" v="Langemyra" />
		<tag k="natural" v="wetland" />
		<tag k="ssr:stedsnr" v="235027" />
	</node>
	<node lat="59.341341667822846" lon="11.678699998516787" id="-13766">
		<tag k="name" v="Langemyr" />
		<tag k="natural" v="wetland" />
		<tag k="ssr:stedsnr" v="235384" />
	</node>
	<node lat="59.58058055679406" lon="11.668758336797469" id="-13781">
		<tag k="alt_name" v="Holmemosen" />
		<tag k="name" v="Store Holmemose" />
		<tag k="natural" v="wetland" />
		<tag k="ssr:stedsnr" v="247411" />
	</node>
	<node lat="59.51502499795315" lon="11.600569446144155" id="-13797">
		<tag k="name" v="Nordre Brattfjellmyrene" />
		<tag k="natural" v="wetland" />
		<tag k="ssr:stedsnr" v="294521" />
	</node>
	<node lat="59.471622224770634" lon="11.578180561667379" id="-13802">
		<tag k="name" v="Vassputtmyra" />
		<tag k="natural" v="wetland" />
		<tag k="ssr:stedsnr" v="294803" />
	</node>
	<node lat="59.3590500003402" lon="11.7745500009556" id="-13806">
		<tag k="name" v="Nilsmyr" />
		<tag k="natural" v="wetland" />
		<tag k="ssr:stedsnr" v="294813" />
	</node>
	<node lat="59.48177499654406" lon="11.601738885656946" id="-13808">
		<tag k="name" v="Gjøvannsmosen" />
		<tag k="natural" v="wetland" />
		<tag k="ssr:stedsnr" v="294822" />
	</node>
	<node lat="59.37489999947038" lon="11.59474165972258" id="-13816">
		<tag k="name" v="Langemyra" />
		<tag k="natural" v="wetland" />
		<tag k="ssr:stedsnr" v="295088" />
	</node>
	<node lat="59.65070833383893" lon="11.622927778295452" id="-13825">
		<tag k="name" v="Setertjernsmosen" />
		<tag k="natural" v="wetland" />
		<tag k="ssr:stedsnr" v="295417" />
	</node>
	<node lat="59.57539444541848" lon="11.65676945086937" id="-13827">
		<tag k="name" v="Nordre Fuglemose" />
		<tag k="natural" v="wetland" />
		<tag k="ssr:stedsnr" v="295474" />
	</node>
	<node lat="59.47371667074319" lon="11.629988889956307" id="-13834">
		<tag k="name" v="Kjerringmyr" />
		<tag k="natural" v="wetland" />
		<tag k="ssr:stedsnr" v="295703" />
	</node>
	<node lat="59.364733332353715" lon="11.701613886444365" id="-13861">
		<tag k="name" v="Styggemyr" />
		<tag k="natural" v="wetland" />
		<tag k="ssr:stedsnr" v="354333" />
	</node>
	<node lat="59.433616665858665" lon="11.628338881239452" id="-13864">
		<tag k="name" v="Paradis" />
		<tag k="natural" v="wetland" />
		<tag k="ssr:stedsnr" v="354639" />
	</node>
	<node lat="59.405561111056294" lon="11.74592776999006" id="-13868">
		<tag k="name" v="Brekkemosen" />
		<tag k="natural" v="wetland" />
		<tag k="ssr:stedsnr" v="354893" />
	</node>
	<node lat="59.64556111397724" lon="11.58168889052787" id="-13872">
		<tag k="name" v="Brentemosen" />
		<tag k="natural" v="wetland" />
		<tag k="ssr:stedsnr" v="355102" />
	</node>
	<node lat="59.49412777765015" lon="11.669511105289555" id="-13876">
		<tag k="name" v="Engermosen" />
		<tag k="natural" v="wetland" />
		<tag k="ssr:stedsnr" v="355208" />
	</node>
	<node lat="59.596591668247655" lon="11.645966665561014" id="-13877">
		<tag k="name" v="Øvre Stutemyr" />
		<tag k="natural" v="wetland" />
		<tag k="ssr:stedsnr" v="355283" />
	</node>
	<node lat="59.58572777678803" lon="11.638894440962755" id="-13879">
		<tag k="name" v="Øvre Mikkelmose" />
		<tag k="natural" v="wetland" />
		<tag k="old_name" v="Øvre Mikkemose" />
		<tag k="ssr:stedsnr" v="355406" />
	</node>
	<node lat="59.58298333066352" lon="11.630636103423036" id="-13880">
		<tag k="name" v="Kølmyra" />
		<tag k="natural" v="wetland" />
		<tag k="ssr:stedsnr" v="355408" />
	</node>
	<node lat="59.66345833576273" lon="11.712091658338773" id="-13887">
		<tag k="name" v="Prestebordet" />
		<tag k="natural" v="stone" />
		<tag k="ssr:stedsnr" v="355314" />
	</node>
	<node lat="59.62286944464082" lon="11.686236118678773" id="-13890">
		<tag k="name" v="Østre Svartvannsmosen" />
		<tag k="natural" v="wetland" />
		<tag k="ssr:stedsnr" v="355555" />
	</node>
	<node lat="59.475550004367555" lon="11.623316672356918" id="-13892">
		<tag k="name" v="Granmyr" />
		<tag k="natural" v="wetland" />
		<tag k="ssr:stedsnr" v="355714" />
	</node>
	<node lat="59.50190000171756" lon="11.618927786743217" id="-13901">
		<tag k="name" v="Mikkelmyr" />
		<tag k="natural" v="wetland" />
		<tag k="ssr:stedsnr" v="355873" />
	</node>
	<node lat="59.56611944873794" lon="11.65865832541333" id="-13908">
		<tag k="name" v="Bergtjernmosen" />
		<tag k="natural" v="wetland" />
		<tag k="ssr:stedsnr" v="356400" />
	</node>
	<node lat="59.63847222478191" lon="11.57896110650799" id="-13912">
		<tag k="name" v="Fossemyra" />
		<tag k="natural" v="wetland" />
		<tag k="ssr:stedsnr" v="476096" />
	</node>
	<node lat="59.66892777516061" lon="11.68212777730506" id="-13931">
		<tag k="name" v="Smørbekkmosen" />
		<tag k="natural" v="wetland" />
		<tag k="ssr:stedsnr" v="477433" />
	</node>
	<node lat="59.31669166687239" lon="11.819786117853484" id="-13935">
		<tag k="name" v="Kjønnemyra" />
		<tag k="natural" v="wetland" />
		<tag k="ssr:stedsnr" v="476464" />
	</node>
	<node lat="59.379052781281" lon="11.679544445490501" id="-13938">
		<tag k="name" v="Vakthaugmosen" />
		<tag k="natural" v="wetland" />
		<tag k="ssr:stedsnr" v="476498" />
	</node>
	<node lat="59.34757499986555" lon="11.81274166927726" id="-13950">
		<tag k="name" v="Vesle Bredmose" />
		<tag k="natural" v="wetland" />
		<tag k="ssr:stedsnr" v="476798" />
	</node>
	<node lat="59.59569166302763" lon="11.644283324385055" id="-13969">
		<tag k="name" v="Stutemyrstein" />
		<tag k="natural" v="stone" />
		<tag k="ssr:stedsnr" v="477289" />
	</node>
	<node lat="59.63514722493641" lon="11.58447222832783" id="-13971">
		<tag k="name" v="Langrasta" />
		<tag k="natural" v="wetland" />
		<tag k="ssr:stedsnr" v="477242" />
	</node>
	<node lat="59.54964722453051" lon="11.703036111567263" id="-13979">
		<tag k="name" v="Krokvannsmosen" />
		<tag k="natural" v="wetland" />
		<tag k="ssr:stedsnr" v="477395" />
	</node>
	<node lat="59.64315278160172" lon="11.698666669833829" id="-13983">
		<tag k="name" v="Åkevannsmosen" />
		<tag k="natural" v="wetland" />
		<tag k="ssr:stedsnr" v="477473" />
	</node>
	<node lat="59.62170555818584" lon="11.632013881378695" id="-13990">
		<tag k="name" v="Østre Høgåsmosen" />
		<tag k="natural" v="wetland" />
		<tag k="ssr:stedsnr" v="477637" />
	</node>
	<node lat="59.36130000148777" lon="11.710811118136522" id="-14022">
		<tag k="name" v="Saksåsmyra" />
		<tag k="natural" v="wetland" />
		<tag k="ssr:stedsnr" v="415341" />
	</node>
	<node lat="59.47833333012319" lon="11.620722222153692" id="-14026">
		<tag k="name" v="Stensmosen" />
		<tag k="natural" v="wetland" />
		<tag k="ssr:stedsnr" v="415842" />
	</node>
	<node lat="59.484197219008486" lon="11.618580549687897" id="-14027">
		<tag k="name" v="Merramyra" />
		<tag k="natural" v="wetland" />
		<tag k="ssr:stedsnr" v="415844" />
	</node>
	<node lat="59.66204444573275" lon="11.651675008835959" id="-14041">
		<tag k="name" v="Sadel" />
		<tag k="natural" v="stone" />
		<tag k="ssr:stedsnr" v="416406" />
	</node>
	<node lat="59.56919444665172" lon="11.693272222834553" id="-14064">
		<tag k="name" v="Langevannsmosen" />
		<tag k="natural" v="wetland" />
		<tag k="ssr:stedsnr" v="417409" />
	</node>
	<node lat="59.549425001271686" lon="11.652863897553324" id="-14065">
		<tag k="name" v="Rømskogmyra" />
		<tag k="natural" v="wetland" />
		<tag k="ssr:stedsnr" v="417436" />
	</node>
	<node lat="59.56026110747706" lon="11.6657194502073" id="-14066">
		<tag k="name" v="Kislebergmyra" />
		<tag k="natural" v="wetland" />
		<tag k="ssr:stedsnr" v="417441" />
	</node>
	<node lat="59.47235555418498" lon="11.727916671149632" id="-14083">
		<tag k="name" v="Stormosen" />
		<tag k="natural" v="wetland" />
		<tag k="ssr:stedsnr" v="427597" />
	</node>
	<node lat="59.36416389356462" lon="11.763877769700173" id="-14089">
		<tag k="name" v="Bumosen" />
		<tag k="natural" v="wetland" />
		<tag k="ssr:stedsnr" v="428679" />
	</node>
	<node lat="59.60094999941847" lon="11.65160832650128" id="-14093">
		<tag k="name" v="Langmosen" />
		<tag k="natural" v="wetland" />
		<tag k="ssr:stedsnr" v="429441" />
	</node>
	<node lat="59.35500277472781" lon="11.61073056251754" id="-14107">
		<tag k="name" v="Kuklevmosen" />
		<tag k="natural" v="wetland" />
		<tag k="ssr:stedsnr" v="476130" />
	</node>
	<node lat="59.485480551955185" lon="11.633041671142768" id="-14111">
		<tag k="name" v="Svenskemyra" />
		<tag k="natural" v="wetland" />
		<tag k="ssr:stedsnr" v="476225" />
	</node>
	<node lat="59.428680551558145" lon="11.622736106666173" id="-14116">
		<tag k="name" v="Setertjernmosen" />
		<tag k="natural" v="wetland" />
		<tag k="ssr:stedsnr" v="476559" />
	</node>
	<node lat="59.49269444298831" lon="11.618216662257126" id="-14121">
		<tag k="name" v="Skjærmyr" />
		<tag k="natural" v="wetland" />
		<tag k="ssr:stedsnr" v="476939" />
	</node>
	<node lat="59.39400000251529" lon="11.615105554304359" id="-14133">
		<tag k="name" v="Småmyrene" />
		<tag k="natural" v="wetland" />
		<tag k="ssr:stedsnr" v="477181" />
	</node>
	<node lat="59.60016388686255" lon="11.648780563640765" id="-14134">
		<tag k="name" v="Grønne hølet" />
		<tag k="natural" v="wetland" />
		<tag k="ssr:stedsnr" v="477302" />
	</node>
	<node lat="59.60286389278406" lon="11.648072221589375" id="-14135">
		<tag k="name" v="Rømsjingmosen" />
		<tag k="natural" v="wetland" />
		<tag k="ssr:stedsnr" v="477303" />
	</node>
	<node lat="59.57605833377745" lon="11.690613882045302" id="-14136">
		<tag k="name" v="Vittenbergmyra" />
		<tag k="natural" v="wetland" />
		<tag k="ssr:stedsnr" v="477315" />
	</node>
	<node lat="59.65014166824439" lon="11.614469453234433" id="-14140">
		<tag k="name" v="Øvre Trytjernsmosen" />
		<tag k="natural" v="wetland" />
		<tag k="ssr:stedsnr" v="477427" />
	</node>
	<node lat="59.633138892408645" lon="11.678241665745187" id="-14143">
		<tag k="name" v="Rundemosen" />
		<tag k="natural" v="wetland" />
		<tag k="ssr:stedsnr" v="477570" />
	</node>
	<node lat="59.478161107658856" lon="11.741136117635959" id="-14150">
		<tag k="name" v="Kjerringmyr" />
		<tag k="natural" v="wetland" />
		<tag k="ssr:stedsnr" v="477958" />
	</node>
	<node lat="59.58047499987097" lon="11.683402775381214" id="-14179">
		<tag k="name" v="Gravmosen" />
		<tag k="natural" v="wetland" />
		<tag k="ssr:stedsnr" v="537285" />
	</node>
	<node lat="59.42195555144082" lon="11.699950003452216" id="-14182">
		<tag k="name" v="Bredmosen" />
		<tag k="natural" v="wetland" />
		<tag k="ssr:stedsnr" v="537503" />
	</node>
	<node lat="59.44365833678072" lon="11.624072222108095" id="-14183">
		<tag k="name" v="Fatemyr" />
		<tag k="natural" v="wetland" />
		<tag k="ssr:stedsnr" v="537505" />
	</node>
	<node lat="59.4027749989843" lon="11.621102780762499" id="-14188">
		<tag k="name" v="Skjærimose" />
		<tag k="natural" v="wetland" />
		<tag k="ssr:stedsnr" v="537470" />
	</node>
	<node lat="59.47653610989995" lon="11.59324722491729" id="-14189">
		<tag k="name" v="Jonsvannsmosen" />
		<tag k="natural" v="wetland" />
		<tag k="ssr:stedsnr" v="537809" />
	</node>
	<node lat="59.485513892156895" lon="11.612058339804355" id="-14193">
		<tag k="name" v="Skonsbergmyr" />
		<tag k="natural" v="wetland" />
		<tag k="ssr:stedsnr" v="537909" />
	</node>
	<node lat="59.55399444888738" lon="11.69097777340743" id="-14210">
		<tag k="name" v="Sauemosen" />
		<tag k="natural" v="wetland" />
		<tag k="ssr:stedsnr" v="538417" />
	</node>
	<node lat="59.35151666510251" lon="11.677180549509782" id="-14216">
		<tag k="name" v="Lommetjernsmosen" />
		<tag k="natural" v="wetland" />
		<tag k="ssr:stedsnr" v="538389" />
	</node>
	<node lat="59.3420333309453" lon="11.777436115138297" id="-14223">
		<tag k="name" v="Slora" />
		<tag k="natural" v="wetland" />
		<tag k="ssr:stedsnr" v="538809" />
	</node>
	<node lat="59.495355554621455" lon="11.701980562264865" id="-14245">
		<tag k="name" v="Skillingmyra" />
		<tag k="natural" v="wetland" />
		<tag k="ssr:stedsnr" v="584002" />
	</node>
	<node lat="59.498991670684845" lon="11.712997215574113" id="-14248">
		<tag k="name" v="Vestre Bumosen" />
		<tag k="natural" v="wetland" />
		<tag k="ssr:stedsnr" v="597120" />
	</node>
	<node lat="59.52955832897643" lon="11.709494444531956" id="-14249">
		<tag k="name" v="Sauestein" />
		<tag k="natural" v="stone" />
		<tag k="ssr:stedsnr" v="597403" />
	</node>
	<node lat="59.51090555891912" lon="11.602480559882022" id="-14251">
		<tag k="name" v="Søndre Brattfjellmyrene" />
		<tag k="natural" v="wetland" />
		<tag k="ssr:stedsnr" v="597510" />
	</node>
	<node lat="59.5307361117847" lon="11.562338884700592" id="-14255">
		<tag k="name" v="Bjørnemosen" />
		<tag k="natural" v="wetland" />
		<tag k="ssr:stedsnr" v="597608" />
	</node>
	<node lat="59.440108333648084" lon="11.671427784030167" id="-14256">
		<tag k="name" v="Kolstadmosen" />
		<tag k="natural" v="wetland" />
		<tag k="ssr:stedsnr" v="597616" />
	</node>
	<node lat="59.407386108639884" lon="11.76583333807821" id="-14262">
		<tag k="name" v="Åsetjernmosen" />
		<tag k="natural" v="wetland" />
		<tag k="ssr:stedsnr" v="597900" />
	</node>
	<node lat="59.34907500123565" lon="11.607494444792072" id="-14269">
		<tag k="name" v="Tilkermyr" />
		<tag k="natural" v="wetland" />
		<tag k="ssr:stedsnr" v="598122" />
	</node>
	<node lat="59.668358333586525" lon="11.670749993553665" id="-14274">
		<tag k="name" v="Bleikemyra" />
		<tag k="natural" v="wetland" />
		<tag k="ssr:stedsnr" v="598410" />
	</node>
	<node lat="59.63135000330545" lon="11.683580563028114" id="-14287">
		<tag k="name" v="Nedre Korsmyr" />
		<tag k="natural" v="wetland" />
		<tag k="ssr:stedsnr" v="598562" />
	</node>
	<node lat="59.48048611000178" lon="11.68109721458674" id="-14307">
		<tag k="name" v="Branesmosen" />
=======
<osm generator="osmapis" version="0.6">
	<node id="-237557" lat="59.4598333295" lon="11.7282305626">
		<tag k="name" v="Store mose" />
		<tag k="natural" v="wetland" />
		<tag k="ssr:stedsnr" v="962697" />
	</node>
	<node id="-237556" lat="59.6246094513" lon="11.669361691">
		<tag k="loc_name" v="Søndre Kisselbergmosen" />
		<tag k="name" v="Søndre Kislebergmosen" />
		<tag k="natural" v="wetland" />
		<tag k="ssr:stedsnr" v="962530" />
	</node>
	<node id="-237545" lat="59.6505444429" lon="11.7087222204">
		<tag k="name" v="Gulltjernmosen" />
		<tag k="natural" v="wetland" />
		<tag k="ssr:stedsnr" v="962429" />
	</node>
	<node id="-237543" lat="59.349236112" lon="11.6313277777">
		<tag k="name" v="Jerpemyr" />
		<tag k="natural" v="wetland" />
		<tag k="ssr:stedsnr" v="962371" />
	</node>
	<node id="-237540" lat="59.5422555549" lon="11.6754444413">
		<tag k="name" v="Raggmyr" />
		<tag k="natural" v="wetland" />
		<tag k="ssr:stedsnr" v="962356" />
	</node>
	<node id="-235490" lat="59.6217055582" lon="11.6320138814">
		<tag k="name" v="Østre Høgåsmosen" />
		<tag k="natural" v="wetland" />
		<tag k="ssr:stedsnr" v="477637" />
	</node>
	<node id="-237534" lat="59.5261333375" lon="11.7151972146">
		<tag k="name" v="Kubbebakkmosen" />
		<tag k="natural" v="wetland" />
		<tag k="ssr:stedsnr" v="962334" />
	</node>
	<node id="-235485" lat="59.6501416682" lon="11.6144694532">
		<tag k="name" v="Øvre Trytjernsmosen" />
		<tag k="natural" v="wetland" />
		<tag k="ssr:stedsnr" v="477427" />
	</node>
	<node id="-235482" lat="59.5496472245" lon="11.7030361116">
		<tag k="name" v="Krokvannsmosen" />
		<tag k="natural" v="wetland" />
		<tag k="ssr:stedsnr" v="477395" />
	</node>
	<node id="-235478" lat="59.6351472249" lon="11.5844722283">
		<tag k="name" v="Langrasta" />
		<tag k="natural" v="wetland" />
		<tag k="ssr:stedsnr" v="477242" />
	</node>
	<node id="-237522" lat="59.4490583293" lon="11.7374027724">
		<tag k="name" v="Kvigemyr" />
		<tag k="natural" v="wetland" />
		<tag k="ssr:stedsnr" v="961934" />
	</node>
	<node id="-237519" lat="59.4471638919" lon="11.6180638909">
		<tag k="name" v="Gråbenmyr" />
		<tag k="natural" v="wetland" />
		<tag k="ssr:stedsnr" v="961840" />
	</node>
	<node id="-235469" lat="59.3940000025" lon="11.6151055543">
		<tag k="name" v="Småmyrene" />
		<tag k="natural" v="wetland" />
		<tag k="ssr:stedsnr" v="477181" />
	</node>
	<node id="-235456" lat="59.492694443" lon="11.6182166623">
		<tag k="name" v="Skjærmyr" />
		<tag k="natural" v="wetland" />
		<tag k="ssr:stedsnr" v="476939" />
	</node>
	<node id="-235450" lat="59.3475749999" lon="11.8127416693">
		<tag k="name" v="Vesle Bredmose" />
		<tag k="natural" v="wetland" />
		<tag k="ssr:stedsnr" v="476798" />
	</node>
	<node id="-237486" lat="59.6409825971" lon="11.6684170831">
		<tag k="alt_name" v="Nordre Kislebergmosen" />
		<tag k="loc_name" v="Nordre Kisselbergmosen" />
		<tag k="name" v="Perehalsen" />
		<tag k="natural" v="wetland" />
		<tag k="ssr:stedsnr" v="853288" />
	</node>
	<node id="-235435" lat="59.3790527813" lon="11.6795444455">
		<tag k="name" v="Vakthaugmosen" />
		<tag k="natural" v="wetland" />
		<tag k="ssr:stedsnr" v="476498" />
	</node>
	<node id="-235425" lat="59.485480552" lon="11.6330416711">
		<tag k="name" v="Svenskemyra" />
		<tag k="natural" v="wetland" />
		<tag k="ssr:stedsnr" v="476225" />
	</node>
	<node id="-237470" lat="59.5193166638" lon="11.5338888818">
		<tag k="name" v="Fuglemosen" />
		<tag k="natural" v="wetland" />
		<tag k="ssr:stedsnr" v="841946" />
	</node>
	<node id="-237468" lat="59.5132750028" lon="11.5335944409">
		<tag k="name" v="Østre Hestesprengmyr" />
		<tag k="natural" v="wetland" />
		<tag k="ssr:stedsnr" v="841933" />
	</node>
	<node id="-237467" lat="59.5155888865" lon="11.5403444363">
		<tag k="name" v="Langrøysmyr" />
		<tag k="natural" v="wetland" />
		<tag k="ssr:stedsnr" v="841932" />
	</node>
	<node id="-235415" lat="59.3550027747" lon="11.6107305625">
		<tag k="name" v="Kuklevmosen" />
		<tag k="natural" v="wetland" />
		<tag k="ssr:stedsnr" v="476130" />
	</node>
	<node id="-237462" lat="59.5003944436" lon="11.6079083342">
		<tag k="name" v="Buknattmyra" />
		<tag k="natural" v="wetland" />
		<tag k="ssr:stedsnr" v="841888" />
	</node>
	<node id="-235409" lat="59.6384722248" lon="11.5789611065">
		<tag k="name" v="Fossemyra" />
		<tag k="natural" v="wetland" />
		<tag k="ssr:stedsnr" v="476096" />
	</node>
	<node id="-235403" lat="59.515024998" lon="11.6005694461">
		<tag k="name" v="Nordre Brattfjellmyrene" />
		<tag k="natural" v="wetland" />
		<tag k="ssr:stedsnr" v="294521" />
	</node>
	<node id="-235397" lat="59.5509777768" lon="11.5614694492">
		<tag k="name" v="Toketorpmosen" />
		<tag k="natural" v="wetland" />
		<tag k="ssr:stedsnr" v="450038" />
	</node>
	<node id="-235391" lat="59.6100861155" lon="11.6414416653">
		<tag k="name" v="Nedre Skinnstakkmyra" />
		<tag k="natural" v="wetland" />
		<tag k="ssr:stedsnr" v="234644" />
	</node>
	<node id="-235379" lat="59.5465611146" lon="11.676175004">
		<tag k="name" v="Elgemosen" />
		<tag k="natural" v="wetland" />
		<tag k="ssr:stedsnr" v="233423" />
	</node>
	<node id="-235369" lat="59.3537833349" lon="11.7805777824">
		<tag k="name" v="Kastelimosen" />
		<tag k="natural" v="wetland" />
		<tag k="ssr:stedsnr" v="295818" />
	</node>
	<node id="-237412" lat="59.5028361135" lon="11.7057583298">
		<tag k="name" v="Fuglemosen" />
		<tag k="natural" v="wetland" />
		<tag k="ssr:stedsnr" v="841124" />
	</node>
	<node id="-237410" lat="59.6439638914" lon="11.5916111025">
		<tag k="name" v="Mørkholtmosen" />
		<tag k="natural" v="wetland" />
		<tag k="ssr:stedsnr" v="841089" />
	</node>
	<node id="-235358" lat="59.6134666659" lon="11.7035027734">
		<tag k="name" v="Porsluggen" />
		<tag k="natural" v="wetland" />
		<tag k="ssr:stedsnr" v="295592" />
	</node>
	<node id="-235357" lat="59.6166999996" lon="11.6991694426">
		<tag k="name" v="Bukkemosen" />
		<tag k="natural" v="wetland" />
		<tag k="ssr:stedsnr" v="295590" />
	</node>
	<node id="-237401" lat="59.3948666669" lon="11.6224472283">
		<tag k="name" v="Dyvelmosen" />
		<tag k="natural" v="wetland" />
		<tag k="ssr:stedsnr" v="840829" />
	</node>
	<node id="-237398" lat="59.4383277769" lon="11.6138527793">
		<tag k="name" v="Korssetmyra" />
		<tag k="natural" v="wetland" />
		<tag k="ssr:stedsnr" v="840782" />
	</node>
	<node id="-235344" lat="59.5753944454" lon="11.6567694509">
		<tag k="name" v="Nordre Fuglemose" />
		<tag k="natural" v="wetland" />
		<tag k="ssr:stedsnr" v="295474" />
	</node>
	<node id="-235343" lat="59.5877444488" lon="11.6581694455">
		<tag k="loc_name" v="Nedre Merramyra" />
		<tag k="name" v="Merramyr" />
		<tag k="natural" v="wetland" />
		<tag k="ssr:stedsnr" v="295469" />
	</node>
	<node id="-235342" lat="59.6547611152" lon="11.6735555612">
		<tag k="name" v="Krullfurumosen" />
		<tag k="natural" v="wetland" />
		<tag k="ssr:stedsnr" v="295465" />
	</node>
	<node id="-235338" lat="59.6727805523" lon="11.6391638903">
		<tag k="name" v="Risenmyra" />
		<tag k="natural" v="wetland" />
		<tag k="ssr:stedsnr" v="295437" />
	</node>
	<node id="-235336" lat="59.6507083338" lon="11.6229277783">
		<tag k="name" v="Setertjernsmosen" />
		<tag k="natural" v="wetland" />
		<tag k="ssr:stedsnr" v="295417" />
	</node>
	<node id="-235333" lat="59.344522226" lon="11.622644442">
		<tag k="name" v="Dyvelmosen" />
		<tag k="natural" v="wetland" />
		<tag k="ssr:stedsnr" v="295367" />
	</node>
	<node id="-237374" lat="59.5551749998" lon="11.6608000058">
		<tag k="alt_name" v="Nautmosen" />
		<tag k="name" v="Nautemosen" />
		<tag k="natural" v="wetland" />
		<tag k="ssr:stedsnr" v="792463" />
	</node>
	<node id="-235324" lat="59.4877666702" lon="11.6234694488">
		<tag k="name" v="Bjørnemosen" />
		<tag k="natural" v="wetland" />
		<tag k="ssr:stedsnr" v="295224" />
	</node>
	<node id="-237194" lat="59.6683583336" lon="11.6707499936">
		<tag k="name" v="Bleikemyra" />
		<tag k="natural" v="wetland" />
		<tag k="ssr:stedsnr" v="598410" />
	</node>
	<node id="-235486" lat="59.6689277752" lon="11.6821277773">
		<tag k="name" v="Smørbekkmosen" />
		<tag k="natural" v="wetland" />
		<tag k="ssr:stedsnr" v="477433" />
	</node>
	<node id="-235314" lat="59.3710583332" lon="11.586474995">
		<tag k="name" v="Delingsmyr" />
		<tag k="natural" v="wetland" />
		<tag k="ssr:stedsnr" v="295071" />
	</node>
	<node id="-237361" lat="59.5546694436" lon="11.677277782">
		<tag k="name" v="Driftemosen" />
		<tag k="natural" v="wetland" />
		<tag k="ssr:stedsnr" v="781405" />
	</node>
	<node id="-237357" lat="59.3493499995" lon="11.6882694435">
		<tag k="name" v="Stokkåsmyra" />
		<tag k="natural" v="wetland" />
		<tag k="ssr:stedsnr" v="781375" />
	</node>
	<node id="-237356" lat="59.5110583316" lon="11.7035361179">
		<tag k="name" v="Folungmosen" />
		<tag k="natural" v="wetland" />
		<tag k="ssr:stedsnr" v="781374" />
	</node>
	<node id="-237355" lat="59.3410777816" lon="11.7002444474">
		<tag k="name" v="Dammyra" />
		<tag k="natural" v="wetland" />
		<tag k="ssr:stedsnr" v="781368" />
	</node>
	<node id="-237352" lat="59.5233638892" lon="11.6501611083">
		<tag k="name" v="Linntjernmosen" />
		<tag k="natural" v="wetland" />
		<tag k="ssr:stedsnr" v="781345" />
	</node>
	<node id="-237351" lat="59.3922027787" lon="11.601666671">
		<tag k="name" v="Grønnemyra" />
		<tag k="natural" v="wetland" />
		<tag k="ssr:stedsnr" v="781093" />
	</node>
	<node id="-237350" lat="59.3744305555" lon="11.6173472195">
		<tag k="name" v="Stenbrumosen" />
		<tag k="natural" v="wetland" />
		<tag k="ssr:stedsnr" v="781087" />
	</node>
	<node id="-235300" lat="59.4817749965" lon="11.6017388857">
		<tag k="name" v="Gjøvannsmosen" />
		<tag k="natural" v="wetland" />
		<tag k="ssr:stedsnr" v="294822" />
	</node>
	<node id="-235298" lat="59.484441668" lon="11.614875005">
		<tag k="name" v="Skonsbergmyra" />
		<tag k="natural" v="wetland" />
		<tag k="ssr:stedsnr" v="294818" />
	</node>
	<node id="-235296" lat="59.3590500003" lon="11.774550001">
		<tag k="name" v="Nilsmyr" />
		<tag k="natural" v="wetland" />
		<tag k="ssr:stedsnr" v="294813" />
	</node>
	<node id="-235292" lat="59.4716222248" lon="11.5781805617">
		<tag k="name" v="Vassputtmyra" />
		<tag k="natural" v="wetland" />
		<tag k="ssr:stedsnr" v="294803" />
	</node>
	<node id="-237337" lat="59.4534722244" lon="11.7546861095">
		<tag k="name" v="Høye mose" />
		<tag k="natural" v="wetland" />
		<tag k="ssr:stedsnr" v="780892" />
	</node>
	<node id="-237336" lat="59.4497277765" lon="11.7495111144">
		<tag k="name" v="Elsemyr" />
		<tag k="natural" v="wetland" />
		<tag k="ssr:stedsnr" v="780889" />
	</node>
	<node id="-237335" lat="59.5055944488" lon="11.5948944394">
		<tag k="name" v="Bjøntemosen" />
		<tag k="natural" v="wetland" />
		<tag k="ssr:stedsnr" v="780874" />
	</node>
	<node id="-237330" lat="59.4504055546" lon="11.7270472258">
		<tag k="name" v="Bærmyra" />
		<tag k="natural" v="wetland" />
		<tag k="ssr:stedsnr" v="780664" />
	</node>
	<node id="-235281" lat="59.4083138896" lon="11.6378333348">
		<tag k="name" v="Kølla" />
		<tag k="natural" v="wetland" />
		<tag k="ssr:stedsnr" v="294551" />
	</node>
	<node id="-235280" lat="59.5138388903" lon="11.5778666717">
		<tag k="name" v="Slorbytjernmyra" />
		<tag k="natural" v="wetland" />
		<tag k="ssr:stedsnr" v="294533" />
	</node>
	<node id="-237319" lat="59.4074333374" lon="11.6310666591">
		<tag k="name" v="Skjortemyr" />
>>>>>>> e1d4bc35ff8a6074a6f2e91616a996b547c36f15
		<tag k="natural" v="wetland" />
		<tag k="ssr:stedsnr" v="658034" />
	</node>
<<<<<<< HEAD
	<node lat="59.42285277964575" lon="11.627063888504653" id="-14323">
		<tag k="name" v="Multehullet" />
=======
	<node id="-237317" lat="59.5306555599" lon="11.5443972182">
		<tag k="name" v="Høymyrene" />
>>>>>>> e1d4bc35ff8a6074a6f2e91616a996b547c36f15
		<tag k="natural" v="wetland" />
		<tag k="ssr:stedsnr" v="658581" />
	</node>
<<<<<<< HEAD
	<node lat="59.48439722408998" lon="11.610824991458312" id="-14331">
		<tag k="name" v="Bikkjepølen" />
=======
	<node id="-237108" lat="59.4275500033" lon="11.585636104">
		<tag k="name" v="Gressmyr" />
		<tag k="natural" v="wetland" />
		<tag k="ssr:stedsnr" v="597791" />
	</node>
	<node id="-237308" lat="59.6237083344" lon="11.6493583313">
		<tag k="name" v="Nordre Fugleleikmosen" />
>>>>>>> e1d4bc35ff8a6074a6f2e91616a996b547c36f15
		<tag k="natural" v="wetland" />
		<tag k="ssr:stedsnr" v="658800" />
	</node>
<<<<<<< HEAD
	<node lat="59.58682499807156" lon="11.537974992229463" id="-14344">
		<tag k="name" v="Bråtemyra" />
=======
	<node id="-235471" lat="59.595691663" lon="11.6442833244">
		<tag k="name" v="Stutemyrstein" />
		<tag k="natural" v="stone" />
		<tag k="ssr:stedsnr" v="477289" />
	</node>
	<node id="-235257" lat="59.6324861095" lon="11.6426694509">
		<tag k="name" v="Elgehølet" />
>>>>>>> e1d4bc35ff8a6074a6f2e91616a996b547c36f15
		<tag k="natural" v="wetland" />
		<tag k="ssr:stedsnr" v="659210" />
	</node>
<<<<<<< HEAD
	<node lat="59.626088888038964" lon="11.554419449012366" id="-14346">
		<tag k="name" v="Stråmyr" />
=======
	<node id="-237301" lat="59.5978666699" lon="11.5160527793">
		<tag k="name" v="Portmyrene" />
>>>>>>> e1d4bc35ff8a6074a6f2e91616a996b547c36f15
		<tag k="natural" v="wetland" />
		<tag k="ssr:stedsnr" v="659237" />
	</node>
<<<<<<< HEAD
	<node lat="59.39653888503211" lon="11.592749998668728" id="-14349">
		<tag k="name" v="Finnpåmyra" />
=======
	<node id="-235248" lat="59.4567333301" lon="11.755638881">
		<tag k="name" v="Skjærimose" />
>>>>>>> e1d4bc35ff8a6074a6f2e91616a996b547c36f15
		<tag k="natural" v="wetland" />
		<tag k="ssr:stedsnr" v="659196" />
	</node>
<<<<<<< HEAD
	<node lat="59.62928888541809" lon="11.678963894119764" id="-14362">
		<tag k="loc_name" v="Rundemosen" />
		<tag k="name" v="Runde mose" />
=======
	<node id="-235247" lat="59.4618083357" lon="11.7219111168">
		<tag k="name" v="Klevtjernmosen" />
>>>>>>> e1d4bc35ff8a6074a6f2e91616a996b547c36f15
		<tag k="natural" v="wetland" />
		<tag k="ssr:stedsnr" v="659538" />
	</node>
<<<<<<< HEAD
	<node lat="59.34258889194609" lon="11.79310000004109" id="-14364">
		<tag k="name" v="Bjørnemyr" />
=======
	<node id="-235242" lat="59.6032388883" lon="11.5207083397">
		<tag k="name" v="Haratjernmosen" />
>>>>>>> e1d4bc35ff8a6074a6f2e91616a996b547c36f15
		<tag k="natural" v="wetland" />
		<tag k="ssr:stedsnr" v="659812" />
	</node>
<<<<<<< HEAD
	<node lat="59.39685555522555" lon="11.714441663052126" id="-14381">
		<tag k="alt_name" v="Solerudsmosen" />
		<tag k="name" v="Solerudmosen" />
=======
	<node id="-235234" lat="59.5538833356" lon="11.5804694521">
		<tag k="name" v="Langemyra" />
>>>>>>> e1d4bc35ff8a6074a6f2e91616a996b547c36f15
		<tag k="natural" v="wetland" />
		<tag k="ssr:stedsnr" v="671531" />
	</node>
<<<<<<< HEAD
	<node lat="59.317363892643385" lon="11.590266659541516" id="-14389">
		<tag k="name" v="Vadmyra" />
=======
	<node id="-237275" lat="59.5756999965" lon="11.6849194479">
		<tag k="name" v="Bjørnhyttmosen" />
>>>>>>> e1d4bc35ff8a6074a6f2e91616a996b547c36f15
		<tag k="natural" v="wetland" />
		<tag k="ssr:stedsnr" v="719108" />
	</node>
<<<<<<< HEAD
	<node lat="59.50529166546715" lon="11.692541662214428" id="-14390">
		<tag k="name" v="Kislebergmosen" />
=======
	<node id="-237273" lat="59.6262361115" lon="11.5886277727">
		<tag k="name" v="Jegermyra" />
>>>>>>> e1d4bc35ff8a6074a6f2e91616a996b547c36f15
		<tag k="natural" v="wetland" />
		<tag k="ssr:stedsnr" v="719110" />
	</node>
<<<<<<< HEAD
	<node lat="59.35529444381786" lon="11.627644449240869" id="-14395">
		<tag k="name" v="Langemyr" />
=======
	<node id="-235224" lat="59.3957666701" lon="11.637122219">
		<tag k="name" v="Hagamosen" />
>>>>>>> e1d4bc35ff8a6074a6f2e91616a996b547c36f15
		<tag k="natural" v="wetland" />
		<tag k="ssr:stedsnr" v="719304" />
	</node>
<<<<<<< HEAD
	<node lat="59.36980833689807" lon="11.728936108249322" id="-14397">
		<tag k="name" v="Abbortjernsmosen" />
=======
	<node id="-235214" lat="59.3735555557" lon="11.7099055532">
		<tag k="name" v="Dyvelmosen" />
>>>>>>> e1d4bc35ff8a6074a6f2e91616a996b547c36f15
		<tag k="natural" v="wetland" />
		<tag k="ssr:stedsnr" v="719311" />
	</node>
<<<<<<< HEAD
	<node lat="59.58004999815839" lon="11.675611106944743" id="-14399">
		<tag k="name" v="Søndre Skoklebergmyra" />
=======
	<node id="-235213" lat="59.3651166663" lon="11.6425750082">
		<tag k="name" v="Søgårdsmosen" />
>>>>>>> e1d4bc35ff8a6074a6f2e91616a996b547c36f15
		<tag k="natural" v="wetland" />
		<tag k="ssr:stedsnr" v="719424" />
	</node>
<<<<<<< HEAD
	<node lat="59.37706389082937" lon="11.711383338743458" id="-14402">
		<tag k="name" v="Væremyr" />
=======
	<node id="-235208" lat="59.5805805568" lon="11.6687583368">
		<tag k="alt_name" v="Holmemosen" />
		<tag k="name" v="Store Holmemose" />
>>>>>>> e1d4bc35ff8a6074a6f2e91616a996b547c36f15
		<tag k="natural" v="wetland" />
		<tag k="ssr:stedsnr" v="719474" />
	</node>
<<<<<<< HEAD
	<node lat="59.51405833613669" lon="11.605799998464223" id="-14403">
		<tag k="name" v="Fjerdbymosen" />
=======
	<node id="-237250" lat="59.4784583345" lon="11.6055277745">
		<tag k="name" v="Gjøvannsmyra" />
>>>>>>> e1d4bc35ff8a6074a6f2e91616a996b547c36f15
		<tag k="natural" v="wetland" />
		<tag k="ssr:stedsnr" v="719476" />
	</node>
<<<<<<< HEAD
	<node lat="59.537377781919616" lon="11.704230547360682" id="-14409">
		<tag k="name" v="Langmyr" />
=======
	<node id="-237248" lat="59.3553805571" lon="11.7573055593">
		<tag k="name" v="Haremyr" />
>>>>>>> e1d4bc35ff8a6074a6f2e91616a996b547c36f15
		<tag k="natural" v="wetland" />
		<tag k="ssr:stedsnr" v="719381" />
	</node>
<<<<<<< HEAD
	<node lat="59.54429999888326" lon="11.69703611173899" id="-14410">
		<tag k="name" v="Bakstefjelmosen" />
=======
	<node id="-235125" lat="59.6435555549" lon="11.5451527718">
		<tag k="name" v="Moltemyra" />
		<tag k="natural" v="wetland" />
		<tag k="ssr:stedsnr" v="52066" />
	</node>
	<node id="-235192" lat="59.5566083337" lon="11.5508666596">
		<tag k="alt_name" v="Breimose" />
		<tag k="name" v="Breidmosen" />
>>>>>>> e1d4bc35ff8a6074a6f2e91616a996b547c36f15
		<tag k="natural" v="wetland" />
		<tag k="ssr:stedsnr" v="719384" />
	</node>
<<<<<<< HEAD
	<node lat="59.63310277987189" lon="11.711077781834888" id="-14414">
		<tag k="name" v="Rødvannsmyra" />
=======
	<node id="-237233" lat="59.3331651921" lon="11.7161044285">
		<tag k="name" v="Dyvelen" />
>>>>>>> e1d4bc35ff8a6074a6f2e91616a996b547c36f15
		<tag k="natural" v="wetland" />
		<tag k="ssr:stedsnr" v="719533" />
	</node>
<<<<<<< HEAD
	<node lat="59.35089166415519" lon="11.80939166649441" id="-14424">
		<tag k="name" v="Store Bredmose" />
=======
	<node id="-235177" lat="59.3611277782" lon="11.6010111175">
		<tag k="name" v="Kroktjernmosen" />
>>>>>>> e1d4bc35ff8a6074a6f2e91616a996b547c36f15
		<tag k="natural" v="wetland" />
		<tag k="ssr:stedsnr" v="719795" />
	</node>
<<<<<<< HEAD
	<node lat="59.618069446347334" lon="11.627386119225411" id="-14437">
		<tag k="name" v="Vestre Høgåsmosen" />
		<tag k="natural" v="wetland" />
		<tag k="ssr:stedsnr" v="720629" />
	</node>
	<node lat="59.32359166804465" lon="11.61088610580577" id="-14441">
		<tag k="name" v="Dyvelmosen" />
=======
	<node id="-237216" lat="59.374550004" lon="11.7566583329">
		<tag k="name" v="Dyvelmosen" />
		<tag k="natural" v="wetland" />
		<tag k="ssr:stedsnr" v="609657" />
	</node>
	<node id="-235162" lat="59.3764527737" lon="11.5931166624">
		<tag k="name" v="Kløvne sten" />
		<tag k="natural" v="stone" />
		<tag k="ssr:stedsnr" v="53076" />
	</node>
	<node id="-235161" lat="59.3695083309" lon="11.5890138959">
		<tag k="name" v="Musemyr" />
>>>>>>> e1d4bc35ff8a6074a6f2e91616a996b547c36f15
		<tag k="natural" v="wetland" />
		<tag k="ssr:stedsnr" v="901095" />
	</node>
<<<<<<< HEAD
	<node lat="59.419475002315615" lon="11.62075556229686" id="-14466">
		<tag k="name" v="Langemyr" />
=======
	<node id="-235152" lat="59.5192527751" lon="11.5426194404">
		<tag k="name" v="Fuglemosen" />
>>>>>>> e1d4bc35ff8a6074a6f2e91616a996b547c36f15
		<tag k="natural" v="wetland" />
		<tag k="ssr:stedsnr" v="901542" />
	</node>
<<<<<<< HEAD
	<node lat="59.4654722233666" lon="11.716294452621257" id="-14489">
		<tag k="name" v="Småmosen" />
=======
	<node id="-235150" lat="59.4747527794" lon="11.7494416745">
		<tag k="name" v="Kavlemåkemyra" />
>>>>>>> e1d4bc35ff8a6074a6f2e91616a996b547c36f15
		<tag k="natural" v="wetland" />
		<tag k="ssr:stedsnr" v="902033" />
	</node>
<<<<<<< HEAD
	<node lat="59.64420000082007" lon="11.609605557596101" id="-14492">
		<tag k="name" v="Kjerringtjernmosen" />
=======
	<node id="-235148" lat="59.3486777807" lon="11.7624611126">
		<tag k="name" v="Skjærvikmosen" />
>>>>>>> e1d4bc35ff8a6074a6f2e91616a996b547c36f15
		<tag k="natural" v="wetland" />
		<tag k="ssr:stedsnr" v="902091" />
	</node>
<<<<<<< HEAD
	<node lat="59.5016250028547" lon="11.734538882100649" id="-14500">
		<tag k="name" v="Erteviksmosen" />
=======
	<node id="-235146" lat="59.4781333321" lon="11.5861472262">
		<tag k="name" v="Lysevannsmyra" />
>>>>>>> e1d4bc35ff8a6074a6f2e91616a996b547c36f15
		<tag k="natural" v="wetland" />
		<tag k="ssr:stedsnr" v="902264" />
	</node>
<<<<<<< HEAD
	<node lat="59.556058332495375" lon="11.667813888960875" id="-14506">
		<tag k="name" v="Torkiltjernmosen" />
=======
	<node id="-237192" lat="59.5558111136" lon="11.7057277816">
		<tag k="name" v="Hansebakkmyra" />
>>>>>>> e1d4bc35ff8a6074a6f2e91616a996b547c36f15
		<tag k="natural" v="wetland" />
		<tag k="ssr:stedsnr" v="902430" />
	</node>
<<<<<<< HEAD
	<node lat="59.44485555582725" lon="11.657175004152565" id="-14513">
		<tag k="name" v="Brudesten" />
		<tag k="natural" v="stone" />
		<tag k="ssr:stedsnr" v="902552" />
	</node>
	<node lat="59.48201388813076" lon="11.632030561570138" id="-14520">
		<tag k="name" v="Lille Fuglemosen" />
=======
	<node id="-235142" lat="59.5312722209" lon="11.5648194528">
		<tag k="name" v="Skinnstakkmyra" />
		<tag k="natural" v="wetland" />
		<tag k="ssr:stedsnr" v="52559" />
	</node>
	<node id="-235136" lat="59.5852333296" lon="11.6628611081">
		<tag k="name" v="Rundmyr" />
>>>>>>> e1d4bc35ff8a6074a6f2e91616a996b547c36f15
		<tag k="natural" v="wetland" />
		<tag k="ssr:stedsnr" v="902763" />
	</node>
<<<<<<< HEAD
	<node lat="59.6219055512036" lon="11.65678888859498" id="-14523">
		<tag k="name" v="Søndre Fugleleikmosen" />
=======
	<node id="-237183" lat="59.4447944426" lon="11.5805305509">
		<tag k="name" v="Hansemyr" />
>>>>>>> e1d4bc35ff8a6074a6f2e91616a996b547c36f15
		<tag k="natural" v="wetland" />
		<tag k="ssr:stedsnr" v="902976" />
	</node>
<<<<<<< HEAD
	<node lat="59.35538055705026" lon="11.757305559257917" id="-14538">
		<tag k="name" v="Haremyr" />
=======
	<node id="-237173" lat="59.4841833361" lon="11.6214777708">
		<tag k="name" v="Store Fuglemosen" />
>>>>>>> e1d4bc35ff8a6074a6f2e91616a996b547c36f15
		<tag k="natural" v="wetland" />
		<tag k="ssr:stedsnr" v="779803" />
	</node>
<<<<<<< HEAD
	<node lat="59.32994166889537" lon="11.590291671926396" id="-14546">
		<tag k="name" v="Vintermyra" />
=======
	<node id="-237170" lat="59.4041444484" lon="11.60020278">
		<tag k="name" v="Gruvla" />
>>>>>>> e1d4bc35ff8a6074a6f2e91616a996b547c36f15
		<tag k="natural" v="wetland" />
		<tag k="ssr:stedsnr" v="780119" />
	</node>
<<<<<<< HEAD
	<node lat="59.55466944355355" lon="11.677277782003197" id="-14579">
		<tag k="name" v="Driftemosen" />
=======
	<node id="-235119" lat="59.398688893" lon="11.7611749996">
		<tag k="name" v="Toremyr" />
>>>>>>> e1d4bc35ff8a6074a6f2e91616a996b547c36f15
		<tag k="natural" v="wetland" />
		<tag k="ssr:stedsnr" v="781405" />
	</node>
<<<<<<< HEAD
	<node lat="59.578005554027726" lon="11.631133333675598" id="-14610">
		<tag k="name" v="Dammyrene" />
=======
	<node id="-237166" lat="59.3490750012" lon="11.6074944448">
		<tag k="name" v="Tilkermyr" />
>>>>>>> e1d4bc35ff8a6074a6f2e91616a996b547c36f15
		<tag k="natural" v="wetland" />
		<tag k="ssr:stedsnr" v="914441" />
	</node>
<<<<<<< HEAD
	<node lat="59.44078055483183" lon="11.598483327559858" id="-14614">
		<tag k="name" v="Ringmyr" />
=======
	<node id="-237164" lat="59.3895249971" lon="11.5952611161">
		<tag k="name" v="Høymyrene" />
>>>>>>> e1d4bc35ff8a6074a6f2e91616a996b547c36f15
		<tag k="natural" v="wetland" />
		<tag k="ssr:stedsnr" v="840203" />
	</node>
<<<<<<< HEAD
	<node lat="59.428420256846536" lon="11.670823035931486" id="-14620">
		<tag k="name" v="Sandtorpmoen" />
		<tag k="place" v="locality" />
		<tag k="ssr:stedsnr" v="840625" />
	</node>
	<node lat="59.3461499956179" lon="11.801733333527672" id="-14621">
		<tag k="name" v="Brynildsmyra" />
=======
	<node id="-235115" lat="59.3413416678" lon="11.6786999985">
		<tag k="name" v="Langemyr" />
		<tag k="natural" v="wetland" />
		<tag k="ssr:stedsnr" v="235384" />
	</node>
	<node id="-235113" lat="59.5778500038" lon="11.5286027729">
		<tag k="name" v="Langemyra" />
>>>>>>> e1d4bc35ff8a6074a6f2e91616a996b547c36f15
		<tag k="natural" v="wetland" />
		<tag k="ssr:stedsnr" v="840814" />
	</node>
<<<<<<< HEAD
	<node lat="59.394866666865234" lon="11.622447228261912" id="-14623">
		<tag k="name" v="Dyvelmosen" />
=======
	<node id="-235105" lat="59.4677000014" lon="11.7373944526">
		<tag k="name" v="Multemyra" />
>>>>>>> e1d4bc35ff8a6074a6f2e91616a996b547c36f15
		<tag k="natural" v="wetland" />
		<tag k="ssr:stedsnr" v="840829" />
	</node>
<<<<<<< HEAD
	<node lat="59.43832777686672" lon="11.613852779278353" id="-14624">
		<tag k="name" v="Korssetmyra" />
=======
	<node id="-237149" lat="59.4861861154" lon="11.6198138832">
		<tag k="name" v="Merramyr" />
>>>>>>> e1d4bc35ff8a6074a6f2e91616a996b547c36f15
		<tag k="natural" v="wetland" />
		<tag k="ssr:stedsnr" v="840782" />
	</node>
<<<<<<< HEAD
	<node lat="59.50283611349985" lon="11.705758329807638" id="-14627">
		<tag k="name" v="Fuglemosen" />
=======
	<node id="-237143" lat="59.4073861086" lon="11.7658333381">
		<tag k="name" v="Åsetjernmosen" />
>>>>>>> e1d4bc35ff8a6074a6f2e91616a996b547c36f15
		<tag k="natural" v="wetland" />
		<tag k="ssr:stedsnr" v="841124" />
	</node>
<<<<<<< HEAD
	<node lat="59.61985555173735" lon="11.62796944139968" id="-14663">
		<tag k="name" v="Langemyr" />
=======
	<node id="-237141" lat="59.4969305578" lon="11.6144277814">
		<tag k="name" v="Broketjernmosen" />
>>>>>>> e1d4bc35ff8a6074a6f2e91616a996b547c36f15
		<tag k="natural" v="wetland" />
		<tag k="ssr:stedsnr" v="841603" />
	</node>
<<<<<<< HEAD
	<node lat="59.515588886521996" lon="11.540344436318637" id="-14672">
		<tag k="name" v="Langrøysmyr" />
=======
	<node id="-235092" lat="59.5422638862" lon="11.544847214">
		<tag k="name" v="Flismosen" />
>>>>>>> e1d4bc35ff8a6074a6f2e91616a996b547c36f15
		<tag k="natural" v="wetland" />
		<tag k="ssr:stedsnr" v="841932" />
	</node>
<<<<<<< HEAD
	<node lat="59.51327500282964" lon="11.533594440886247" id="-14673">
		<tag k="name" v="Østre Hestesprengmyr" />
=======
	<node id="-235091" lat="59.61893611" lon="11.7066361174">
		<tag k="name" v="Linnemosen" />
>>>>>>> e1d4bc35ff8a6074a6f2e91616a996b547c36f15
		<tag k="natural" v="wetland" />
		<tag k="ssr:stedsnr" v="841933" />
	</node>
<<<<<<< HEAD
	<node lat="59.50039444363931" lon="11.607908334233112" id="-14675">
		<tag k="name" v="Buknattmyra" />
		<tag k="natural" v="wetland" />
		<tag k="ssr:stedsnr" v="841888" />
	</node>
	<node lat="59.583116668638525" lon="11.6609388850898" id="-14677">
		<tag k="name" v="Holmemosen" />
=======
	<node id="-237134" lat="59.3537194444" lon="11.7977805601">
		<tag k="name" v="Hvilesten" />
		<tag k="natural" v="stone" />
		<tag k="ssr:stedsnr" v="597807" />
	</node>
	<node id="-235082" lat="59.5726027741" lon="11.6543166724">
		<tag k="name" v="Søndre Fuglemose" />
>>>>>>> e1d4bc35ff8a6074a6f2e91616a996b547c36f15
		<tag k="natural" v="wetland" />
		<tag k="ssr:stedsnr" v="842024" />
	</node>
<<<<<<< HEAD
	<node lat="59.33261615930356" lon="11.710661000324121" id="-14698">
		<tag k="name" v="Buråsmyra" />
=======
	<node id="-235081" lat="59.5843416694" lon="11.6457277818">
		<tag k="name" v="Nedre Mikkelmose" />
>>>>>>> e1d4bc35ff8a6074a6f2e91616a996b547c36f15
		<tag k="natural" v="wetland" />
		<tag k="ssr:stedsnr" v="888215" />
	</node>
<<<<<<< HEAD
	<node lat="59.33746944154263" lon="11.696088881431905" id="-14708">
		<tag k="name" v="Kutjernmosen" />
=======
	<node id="-235080" lat="59.5879444454" lon="11.6514333396">
		<tag k="loc_name" v="Øvre Sagmyra" />
		<tag k="name" v="Sagmyra" />
>>>>>>> e1d4bc35ff8a6074a6f2e91616a996b547c36f15
		<tag k="natural" v="wetland" />
		<tag k="ssr:stedsnr" v="901323" />
	</node>
<<<<<<< HEAD
	<node lat="59.35825000109851" lon="11.75890832882099" id="-14714">
		<tag k="name" v="Elgmyr" />
=======
	<node id="-237125" lat="59.4068083302" lon="11.6662833302">
		<tag k="name" v="Gjøngerudmosen" />
>>>>>>> e1d4bc35ff8a6074a6f2e91616a996b547c36f15
		<tag k="natural" v="wetland" />
		<tag k="ssr:stedsnr" v="901807" />
	</node>
<<<<<<< HEAD
	<node lat="59.50348055943862" lon="11.601819452399043" id="-14718">
		<tag k="name" v="Buknattmosen" />
=======
	<node id="-237123" lat="59.4129583377" lon="11.6364305484">
		<tag k="name" v="Nygårdsmosen" />
>>>>>>> e1d4bc35ff8a6074a6f2e91616a996b547c36f15
		<tag k="natural" v="wetland" />
		<tag k="ssr:stedsnr" v="901906" />
	</node>
<<<<<<< HEAD
	<node lat="59.49570277689809" lon="11.661966667912747" id="-14729">
		<tag k="name" v="Mosebymosen" />
=======
	<node id="-237119" lat="59.5109055589" lon="11.6024805599">
		<tag k="name" v="Søndre Brattfjellmyrene" />
>>>>>>> e1d4bc35ff8a6074a6f2e91616a996b547c36f15
		<tag k="natural" v="wetland" />
		<tag k="ssr:stedsnr" v="902211" />
	</node>
<<<<<<< HEAD
	<node lat="59.56566111289854" lon="11.689377781168847" id="-14733">
		<tag k="name" v="Bergtjernmosen" />
		<tag k="natural" v="wetland" />
		<tag k="ssr:stedsnr" v="902403" />
	</node>
	<node lat="59.591772218010526" lon="11.655438881930904" id="-14735">
		<tag k="name" v="Grønnflekk" />
=======
	<node id="-237115" lat="59.529558329" lon="11.7094944445">
		<tag k="name" v="Sauestein" />
		<tag k="natural" v="stone" />
		<tag k="ssr:stedsnr" v="597403" />
	</node>
	<node id="-235066" lat="59.5606166642" lon="11.6535138879">
		<tag k="name" v="Postlimosen" />
>>>>>>> e1d4bc35ff8a6074a6f2e91616a996b547c36f15
		<tag k="natural" v="wetland" />
		<tag k="ssr:stedsnr" v="902482" />
	</node>
<<<<<<< HEAD
	<node lat="59.39332500406618" lon="11.742400006719471" id="-14749">
		<tag k="name" v="Gatemosen" />
=======
	<node id="-237111" lat="59.36035278" lon="11.7053305519">
		<tag k="name" v="Saksåsmyra" />
>>>>>>> e1d4bc35ff8a6074a6f2e91616a996b547c36f15
		<tag k="natural" v="wetland" />
		<tag k="ssr:stedsnr" v="919897" />
	</node>
<<<<<<< HEAD
	<node lat="59.44716389188801" lon="11.618063890919752" id="-14758">
		<tag k="name" v="Gråbenmyr" />
=======
	<node id="-235061" lat="59.524761114" lon="11.696427773">
		<tag k="name" v="Langevannsmyra" />
>>>>>>> e1d4bc35ff8a6074a6f2e91616a996b547c36f15
		<tag k="natural" v="wetland" />
		<tag k="ssr:stedsnr" v="961840" />
	</node>
<<<<<<< HEAD
	<node lat="59.49440277760298" lon="11.622711113555818" id="-14764">
		<tag k="name" v="Nestemyr" />
=======
	<node id="-235060" lat="59.5081888913" lon="11.701911113">
		<tag k="name" v="Fuglemosen" />
>>>>>>> e1d4bc35ff8a6074a6f2e91616a996b547c36f15
		<tag k="natural" v="wetland" />
		<tag k="ssr:stedsnr" v="962206" />
	</node>
<<<<<<< HEAD
	<node lat="59.33242777935652" lon="11.615944441083775" id="-14767">
		<tag k="name" v="Stenbrumyr" />
=======
	<node id="-237107" lat="59.5307361118" lon="11.5623388847">
		<tag k="name" v="Bjørnemosen" />
>>>>>>> e1d4bc35ff8a6074a6f2e91616a996b547c36f15
		<tag k="natural" v="wetland" />
		<tag k="ssr:stedsnr" v="962103" />
	</node>
<<<<<<< HEAD
	<node lat="59.62460945129409" lon="11.669361690958533" id="-14785">
		<tag k="loc_name" v="Søndre Kisselbergmosen" />
		<tag k="name" v="Søndre Kislebergmosen" />
=======
	<node id="-235058" lat="59.5897277793" lon="11.6833972269">
		<tag k="name" v="Styggemyr" />
>>>>>>> e1d4bc35ff8a6074a6f2e91616a996b547c36f15
		<tag k="natural" v="wetland" />
		<tag k="ssr:stedsnr" v="962530" />
	</node>
<<<<<<< HEAD
	<node lat="59.52593611334592" lon="11.565211105464755" id="-14793">
		<tag k="name" v="Sagåsmosen" />
=======
	<node id="-237103" lat="59.4953555546" lon="11.7019805623">
		<tag k="name" v="Skillingmyra" />
>>>>>>> e1d4bc35ff8a6074a6f2e91616a996b547c36f15
		<tag k="natural" v="wetland" />
		<tag k="ssr:stedsnr" v="962937" />
	</node>
<<<<<<< HEAD
	<node lat="59.55080555335578" lon="11.678652781652294" id="-14799">
		<tag k="name" v="Hofossmosen" />
=======
	<node id="-237095" lat="59.3395611123" lon="11.5988861081">
		<tag k="alt_name" v="Plukkemosen" />
		<tag k="name" v="Plokkemosen" />
>>>>>>> e1d4bc35ff8a6074a6f2e91616a996b547c36f15
		<tag k="natural" v="wetland" />
		<tag k="ssr:stedsnr" v="963437" />
	</node>
<<<<<<< HEAD
	<node lat="59.36755277600653" lon="11.626111109379233" id="-14828">
		<tag k="name" v="Hyttemosen" />
=======
	<node id="-235041" lat="59.3475000038" lon="11.5937416709">
		<tag k="name" v="Hagaholtmosen" />
>>>>>>> e1d4bc35ff8a6074a6f2e91616a996b547c36f15
		<tag k="natural" v="wetland" />
		<tag k="ssr:stedsnr" v="51347" />
	</node>
<<<<<<< HEAD
	<node lat="59.42145555862574" lon="11.612975002520685" id="-14836">
		<tag k="name" v="Fuglemosen" />
=======
	<node id="-235040" lat="59.3477555526" lon="11.5763444415">
		<tag k="name" v="Småmyrene" />
>>>>>>> e1d4bc35ff8a6074a6f2e91616a996b547c36f15
		<tag k="natural" v="wetland" />
		<tag k="ssr:stedsnr" v="51806" />
	</node>
<<<<<<< HEAD
	<node lat="59.36377777616868" lon="11.751138895073593" id="-14844">
		<tag k="name" v="Damslorene" />
=======
	<node id="-235038" lat="59.3879222203" lon="11.609933333">
		<tag k="name" v="Gudbrandsmyra" />
>>>>>>> e1d4bc35ff8a6074a6f2e91616a996b547c36f15
		<tag k="natural" v="wetland" />
		<tag k="ssr:stedsnr" v="51837" />
	</node>
<<<<<<< HEAD
	<node lat="59.64355555486075" lon="11.545152771821291" id="-14849">
		<tag k="name" v="Moltemyra" />
=======
	<node id="-235037" lat="59.3781805561" lon="11.5919638952">
		<tag k="name" v="Elggravmosen" />
>>>>>>> e1d4bc35ff8a6074a6f2e91616a996b547c36f15
		<tag k="natural" v="wetland" />
		<tag k="ssr:stedsnr" v="52066" />
	</node>
<<<<<<< HEAD
	<node lat="59.588633330286186" lon="11.501897217748217" id="-14853">
		<tag k="name" v="Rokovannsmosene" />
=======
	<node id="-235036" lat="59.3687416627" lon="11.6106944431">
		<tag k="name" v="Bjørnemosen" />
>>>>>>> e1d4bc35ff8a6074a6f2e91616a996b547c36f15
		<tag k="natural" v="wetland" />
		<tag k="ssr:stedsnr" v="52150" />
	</node>
<<<<<<< HEAD
	<node lat="59.53565555875978" lon="11.665986111581462" id="-14860">
		<tag k="name" v="Kvernesteinmosen" />
=======
	<node id="-235034" lat="59.3727833359" lon="11.5896166719">
		<tag k="name" v="Fugleleken" />
>>>>>>> e1d4bc35ff8a6074a6f2e91616a996b547c36f15
		<tag k="natural" v="wetland" />
		<tag k="ssr:stedsnr" v="52386" />
	</node>
<<<<<<< HEAD
	<node lat="59.65961666343742" lon="11.701038880168875" id="-14861">
		<tag k="name" v="Prestebordsmosen" />
		<tag k="natural" v="wetland" />
		<tag k="ssr:stedsnr" v="52390" />
	</node>
	<node lat="59.625855553765284" lon="11.644916666320386" id="-14869">
		<tag k="name" v="Slottsmyra" />
=======
	<node id="-237081" lat="59.647432606" lon="11.6766938506">
		<tag k="alt_name" v="Kroksætra, vestre;Søndre Kroksetra" />
		<tag k="historic" v="shieling" />
		<tag k="loc_name" v="Marisetra;Søndre Krokssetra" />
		<tag k="name" v="Vestre Kroksætra" />
		<tag k="place" v="locality" />
		<tag k="ssr:stedsnr" v="549261" />
	</node>
	<node id="-237066" lat="59.3420333309" lon="11.7774361151">
		<tag k="name" v="Slora" />
>>>>>>> e1d4bc35ff8a6074a6f2e91616a996b547c36f15
		<tag k="natural" v="wetland" />
		<tag k="ssr:stedsnr" v="52490" />
	</node>
<<<<<<< HEAD
	<node lat="59.53127222093936" lon="11.564819452761133" id="-14888">
		<tag k="name" v="Skinnstakkmyra" />
=======
	<node id="-237064" lat="59.6236194405" lon="11.6332999934">
		<tag k="name" v="Langemyra" />
>>>>>>> e1d4bc35ff8a6074a6f2e91616a996b547c36f15
		<tag k="natural" v="wetland" />
		<tag k="ssr:stedsnr" v="52559" />
	</node>
<<<<<<< HEAD
	<node lat="59.468027781477055" lon="11.630041662695094" id="-14894">
		<tag k="name" v="Blenderingsmosen" />
=======
	<node id="-235014" lat="59.4242638847" lon="11.586461114">
		<tag k="name" v="Jarsmosen" />
>>>>>>> e1d4bc35ff8a6074a6f2e91616a996b547c36f15
		<tag k="natural" v="wetland" />
		<tag k="ssr:stedsnr" v="52693" />
	</node>
<<<<<<< HEAD
	<node lat="59.33850555521596" lon="11.80411111297269" id="-14895">
		<tag k="name" v="Sauemyra" />
=======
	<node id="-235008" lat="59.4209888844" lon="11.6392250061">
		<tag k="name" v="Dansemyr" />
>>>>>>> e1d4bc35ff8a6074a6f2e91616a996b547c36f15
		<tag k="natural" v="wetland" />
		<tag k="ssr:stedsnr" v="52779" />
	</node>
<<<<<<< HEAD
	<node lat="59.519252775051925" lon="11.542619440413652" id="-14901">
		<tag k="name" v="Fuglemosen" />
=======
	<node id="-235005" lat="59.4186749971" lon="11.6372472237">
		<tag k="name" v="Damsmyr" />
>>>>>>> e1d4bc35ff8a6074a6f2e91616a996b547c36f15
		<tag k="natural" v="wetland" />
		<tag k="ssr:stedsnr" v="52952" />
	</node>
<<<<<<< HEAD
	<node lat="59.34867778069081" lon="11.762461112582479" id="-14905">
		<tag k="name" v="Skjærvikmosen" />
=======
	<node id="-237052" lat="59.5539944489" lon="11.6909777734">
		<tag k="name" v="Sauemosen" />
>>>>>>> e1d4bc35ff8a6074a6f2e91616a996b547c36f15
		<tag k="natural" v="wetland" />
		<tag k="ssr:stedsnr" v="52758" />
	</node>
<<<<<<< HEAD
	<node lat="59.4127805573815" lon="11.587963880926404" id="-14908">
		<tag k="name" v="Klemmemosen" />
=======
	<node id="-235001" lat="59.3396583367" lon="11.711530551">
		<tag k="name" v="Runde mose" />
>>>>>>> e1d4bc35ff8a6074a6f2e91616a996b547c36f15
		<tag k="natural" v="wetland" />
		<tag k="ssr:stedsnr" v="53178" />
	</node>
<<<<<<< HEAD
	<node lat="59.650688891233344" lon="11.606311119748796" id="-14913">
		<tag k="name" v="Grønnmyr" />
=======
	<node id="-235000" lat="59.3658777794" lon="11.71568055">
		<tag k="name" v="Ruketjernmosen" />
>>>>>>> e1d4bc35ff8a6074a6f2e91616a996b547c36f15
		<tag k="natural" v="wetland" />
		<tag k="ssr:stedsnr" v="53433" />
	</node>
<<<<<<< HEAD
	<node lat="59.52740277948342" lon="11.656736103547995" id="-14921">
		<tag k="name" v="Spernesmosen" />
=======
	<node id="-237039" lat="59.5250805566" lon="11.5493000039">
		<tag k="name" v="Haukemosen" />
>>>>>>> e1d4bc35ff8a6074a6f2e91616a996b547c36f15
		<tag k="natural" v="wetland" />
		<tag k="ssr:stedsnr" v="64389" />
	</node>
<<<<<<< HEAD
	<node lat="59.33555277471789" lon="11.815580550421936" id="-14937">
		<tag k="name" v="Rørmyr" />
=======
	<node id="-237036" lat="59.4855138922" lon="11.6120583398">
		<tag k="name" v="Skonsbergmyr" />
>>>>>>> e1d4bc35ff8a6074a6f2e91616a996b547c36f15
		<tag k="natural" v="wetland" />
		<tag k="ssr:stedsnr" v="112798" />
	</node>
<<<<<<< HEAD
	<node lat="59.64746666371119" lon="11.61699445131133" id="-14941">
		<tag k="name" v="Trytjernmosen" />
=======
	<node id="-237027" lat="59.4681499987" lon="11.6015388965">
		<tag k="name" v="Lisetermosen" />
>>>>>>> e1d4bc35ff8a6074a6f2e91616a996b547c36f15
		<tag k="natural" v="wetland" />
		<tag k="ssr:stedsnr" v="113084" />
	</node>
<<<<<<< HEAD
	<node lat="59.50035833547075" lon="11.719449998418467" id="-14947">
		<tag k="name" v="Østre Bumosen" />
		<tag k="natural" v="wetland" />
		<tag k="ssr:stedsnr" v="112150" />
	</node>
	<node lat="59.37355555574955" lon="11.709905553153753" id="-14953">
		<tag k="name" v="Dyvelmosen" />
=======
	<node id="-237020" lat="59.355686113" lon="11.7658638957">
		<tag k="name" v="Hvilesten" />
		<tag k="natural" v="stone" />
		<tag k="ssr:stedsnr" v="537786" />
	</node>
	<node id="-237014" lat="59.5592722213" lon="11.5563277747">
		<tag k="name" v="Vintermyra" />
>>>>>>> e1d4bc35ff8a6074a6f2e91616a996b547c36f15
		<tag k="natural" v="wetland" />
		<tag k="ssr:stedsnr" v="112340" />
	</node>
<<<<<<< HEAD
	<node lat="59.39576667008306" lon="11.637122218958284" id="-14966">
		<tag k="name" v="Hagamosen" />
=======
	<node id="-237007" lat="59.4436583368" lon="11.6240722221">
		<tag k="name" v="Fatemyr" />
>>>>>>> e1d4bc35ff8a6074a6f2e91616a996b547c36f15
		<tag k="natural" v="wetland" />
		<tag k="ssr:stedsnr" v="112825" />
	</node>
<<<<<<< HEAD
	<node lat="59.609277778674794" lon="11.610122226879266" id="-14972">
		<tag k="name" v="Røde hav" />
=======
	<node id="-237006" lat="59.4219555514" lon="11.6999500035">
		<tag k="name" v="Bredmosen" />
>>>>>>> e1d4bc35ff8a6074a6f2e91616a996b547c36f15
		<tag k="natural" v="wetland" />
		<tag k="ssr:stedsnr" v="112967" />
	</node>
<<<<<<< HEAD
	<node lat="59.585188884595944" lon="11.677330554452832" id="-14981">
		<tag k="name" v="Setermosen" />
=======
	<node id="-236999" lat="59.402774999" lon="11.6211027808">
		<tag k="name" v="Skjærimose" />
>>>>>>> e1d4bc35ff8a6074a6f2e91616a996b547c36f15
		<tag k="natural" v="wetland" />
		<tag k="ssr:stedsnr" v="113428" />
	</node>
<<<<<<< HEAD
	<node lat="59.50113889062388" lon="11.588508327987922" id="-15005">
		<tag k="name" v="Holofuglemosen" />
=======
	<node id="-236997" lat="59.5796694478" lon="11.6368250005">
		<tag k="name" v="Bumosen" />
>>>>>>> e1d4bc35ff8a6074a6f2e91616a996b547c36f15
		<tag k="natural" v="wetland" />
		<tag k="ssr:stedsnr" v="113890" />
	</node>
<<<<<<< HEAD
	<node lat="59.36639444522838" lon="11.706499992170876" id="-15031">
		<tag k="name" v="Volemyr" />
=======
	<node id="-236995" lat="59.5819555536" lon="11.6763833345">
		<tag k="name" v="Nordre Skoklebergmyra" />
>>>>>>> e1d4bc35ff8a6074a6f2e91616a996b547c36f15
		<tag k="natural" v="wetland" />
		<tag k="ssr:stedsnr" v="172325" />
	</node>
<<<<<<< HEAD
	<node lat="59.53239444803546" lon="11.662952769465441" id="-15052">
		<tag k="name" v="Kattemyra" />
=======
	<node id="-237129" lat="59.4401083336" lon="11.671427784">
		<tag k="name" v="Kolstadmosen" />
		<tag k="natural" v="wetland" />
		<tag k="ssr:stedsnr" v="597616" />
	</node>
	<node id="-236979" lat="59.5804749999" lon="11.6834027754">
		<tag k="name" v="Gravmosen" />
>>>>>>> e1d4bc35ff8a6074a6f2e91616a996b547c36f15
		<tag k="natural" v="wetland" />
		<tag k="ssr:stedsnr" v="173395" />
	</node>
<<<<<<< HEAD
	<node lat="59.61965555253558" lon="11.709622213764211" id="-15060">
		<tag k="name" v="Ankertjernmosen" />
=======
	<node id="-236968" lat="59.3595805572" lon="11.7027000067">
		<tag k="name" v="Granmosen" />
>>>>>>> e1d4bc35ff8a6074a6f2e91616a996b547c36f15
		<tag k="natural" v="wetland" />
		<tag k="ssr:stedsnr" v="173532" />
	</node>
<<<<<<< HEAD
	<node lat="59.40947777439102" lon="11.623294446399226" id="-15068">
		<tag k="name" v="Kakemyr" />
=======
	<node id="-236962" lat="59.6009499994" lon="11.6516083265">
		<tag k="name" v="Langmosen" />
>>>>>>> e1d4bc35ff8a6074a6f2e91616a996b547c36f15
		<tag k="natural" v="wetland" />
		<tag k="ssr:stedsnr" v="173498" />
	</node>
<<<<<<< HEAD
	<node lat="59.54593055961554" lon="11.559474994314826" id="-15072">
		<tag k="name" v="Kallakmosen" />
=======
	<node id="-236957" lat="59.3641638936" lon="11.7638777697">
		<tag k="name" v="Bumosen" />
>>>>>>> e1d4bc35ff8a6074a6f2e91616a996b547c36f15
		<tag k="natural" v="wetland" />
		<tag k="ssr:stedsnr" v="173546" />
	</node>
<<<<<<< HEAD
	<node lat="59.62769721827227" lon="11.597308337163376" id="-15095">
		<tag k="name" v="Evenbymosen" />
=======
	<node id="-236953" lat="59.6337453259" lon="11.670631129">
		<tag k="alt_name" v="Kisselbergmosen;Kislebergmosen" />
		<tag k="loc_name" v="Nordre Kisselbergmosen" />
		<tag k="name" v="Nordre Kislebergmosen" />
>>>>>>> e1d4bc35ff8a6074a6f2e91616a996b547c36f15
		<tag k="natural" v="wetland" />
		<tag k="ssr:stedsnr" v="174169" />
	</node>
<<<<<<< HEAD
	<node lat="59.44745000104978" lon="11.723600007840144" id="-15104">
		<tag k="name" v="Hyttemyra" />
=======
	<node id="-236949" lat="59.4723555542" lon="11.7279166711">
		<tag k="name" v="Stormosen" />
>>>>>>> e1d4bc35ff8a6074a6f2e91616a996b547c36f15
		<tag k="natural" v="wetland" />
		<tag k="ssr:stedsnr" v="174751" />
	</node>
<<<<<<< HEAD
	<node lat="59.41504999992261" lon="11.698483327349644" id="-15120">
		<tag k="alt_name" v="Breidmosen" />
		<tag k="name" v="Bredmosen" />
=======
	<node id="-236941" lat="59.5602611075" lon="11.6657194502">
		<tag k="name" v="Kislebergmyra" />
>>>>>>> e1d4bc35ff8a6074a6f2e91616a996b547c36f15
		<tag k="natural" v="wetland" />
		<tag k="ssr:stedsnr" v="185474" />
	</node>
<<<<<<< HEAD
	<node lat="59.35110555283245" lon="11.61238333100485" id="-15122">
		<tag k="name" v="Storemyr" />
=======
	<node id="-236940" lat="59.5494250013" lon="11.6528638976">
		<tag k="name" v="Rømskogmyra" />
>>>>>>> e1d4bc35ff8a6074a6f2e91616a996b547c36f15
		<tag k="natural" v="wetland" />
		<tag k="ssr:stedsnr" v="185685" />
	</node>
<<<<<<< HEAD
	<node lat="59.52148333556197" lon="11.659769436256033" id="-15126">
		<tag k="name" v="Sukkenmosen" />
=======
	<node id="-236936" lat="59.5094166684" lon="11.691136105">
		<tag k="name" v="Kumyr" />
>>>>>>> e1d4bc35ff8a6074a6f2e91616a996b547c36f15
		<tag k="natural" v="wetland" />
		<tag k="ssr:stedsnr" v="186421" />
	</node>
<<<<<<< HEAD
	<node lat="59.429516670895886" lon="11.636027784806759" id="-15139">
		<tag k="name" v="Tømmermyr" />
=======
	<node id="-236935" lat="59.5691944467" lon="11.6932722228">
		<tag k="name" v="Langevannsmosen" />
>>>>>>> e1d4bc35ff8a6074a6f2e91616a996b547c36f15
		<tag k="natural" v="wetland" />
		<tag k="ssr:stedsnr" v="294644" />
	</node>
<<<<<<< HEAD
	<node lat="59.51383889028584" lon="11.577866671693942" id="-15144">
		<tag k="name" v="Slorbytjernmyra" />
=======
	<node id="-236931" lat="59.3852166711" lon="11.6176333347">
		<tag k="name" v="Ekornmyra" />
>>>>>>> e1d4bc35ff8a6074a6f2e91616a996b547c36f15
		<tag k="natural" v="wetland" />
		<tag k="ssr:stedsnr" v="294533" />
	</node>
<<<<<<< HEAD
	<node lat="59.40831388963071" lon="11.637833334845514" id="-15145">
		<tag k="name" v="Kølla" />
=======
	<node id="-236927" lat="59.5226055533" lon="11.572508325">
		<tag k="name" v="Skinnstakkmyr" />
>>>>>>> e1d4bc35ff8a6074a6f2e91616a996b547c36f15
		<tag k="natural" v="wetland" />
		<tag k="ssr:stedsnr" v="294551" />
	</node>
<<<<<<< HEAD
	<node lat="59.48444166802552" lon="11.614875004958098" id="-15151">
		<tag k="name" v="Skonsbergmyra" />
		<tag k="natural" v="wetland" />
		<tag k="ssr:stedsnr" v="294818" />
	</node>
	<node lat="59.48776667023121" lon="11.623469448800874" id="-15155">
		<tag k="name" v="Bjørnemosen" />
		<tag k="natural" v="wetland" />
		<tag k="ssr:stedsnr" v="295224" />
	</node>
	<node lat="59.371058333158736" lon="11.586474995027615" id="-15163">
		<tag k="name" v="Delingsmyr" />
		<tag k="natural" v="wetland" />
		<tag k="ssr:stedsnr" v="295071" />
	</node>
	<node lat="59.34452222598625" lon="11.622644442027683" id="-15170">
		<tag k="name" v="Dyvelmosen" />
		<tag k="natural" v="wetland" />
		<tag k="ssr:stedsnr" v="295367" />
	</node>
	<node lat="59.67278055231496" lon="11.63916389031611" id="-15171">
		<tag k="name" v="Risenmyra" />
		<tag k="natural" v="wetland" />
		<tag k="ssr:stedsnr" v="295437" />
	</node>
	<node lat="59.61669999959491" lon="11.699169442617508" id="-15175">
		<tag k="name" v="Bukkemosen" />
		<tag k="natural" v="wetland" />
		<tag k="ssr:stedsnr" v="295590" />
	</node>
	<node lat="59.654761115247055" lon="11.673555561238546" id="-15179">
		<tag k="name" v="Krullfurumosen" />
		<tag k="natural" v="wetland" />
		<tag k="ssr:stedsnr" v="295465" />
	</node>
	<node lat="59.58774444883747" lon="11.658169445471014" id="-15180">
		<tag k="loc_name" v="Nedre Merramyra" />
		<tag k="name" v="Merramyr" />
		<tag k="natural" v="wetland" />
		<tag k="ssr:stedsnr" v="295469" />
	</node>
	<node lat="59.3537833349085" lon="11.780577782365325" id="-15192">
		<tag k="name" v="Kastelimosen" />
		<tag k="natural" v="wetland" />
		<tag k="ssr:stedsnr" v="295818" />
	</node>
	<node lat="59.368700002552124" lon="11.61768055101086" id="-15202">
		<tag k="name" v="Stråmyr" />
		<tag k="natural" v="wetland" />
		<tag k="ssr:stedsnr" v="306668" />
	</node>
	<node lat="59.6316944409345" lon="11.584666673536312" id="-15211">
		<tag k="name" v="Kostevedmyra" />
		<tag k="natural" v="wetland" />
		<tag k="ssr:stedsnr" v="355238" />
	</node>
	<node lat="59.33631110841384" lon="11.720705553652962" id="-15213">
		<tag k="name" v="Rødtjernmosen" />
		<tag k="natural" v="wetland" />
		<tag k="ssr:stedsnr" v="354358" />
	</node>
	<node lat="59.46023333310534" lon="11.588008332670778" id="-15224">
		<tag k="name" v="Mariputten" />
		<tag k="natural" v="wetland" />
		<tag k="ssr:stedsnr" v="354782" />
	</node>
	<node lat="59.64153055314437" lon="11.597527773841767" id="-15229">
		<tag k="name" v="Rundemosen" />
		<tag k="natural" v="wetland" />
		<tag k="ssr:stedsnr" v="355084" />
	</node>
	<node lat="59.623241670408575" lon="11.56950833508515" id="-15245">
		<tag k="name" v="Snørrmosen" />
		<tag k="natural" v="wetland" />
		<tag k="ssr:stedsnr" v="355244" />
	</node>
	<node lat="59.60311666355577" lon="11.564108341752592" id="-15261">
		<tag k="name" v="Skisletmosen" />
		<tag k="natural" v="wetland" />
		<tag k="ssr:stedsnr" v="355485" />
	</node>
	<node lat="59.39643946896925" lon="11.678709122738828" id="-15262">
		<tag k="name" v="Kasene" />
		<tag k="place" v="locality" />
		<tag k="ssr:stedsnr" v="355488" />
	</node>
	<node lat="59.41329722398898" lon="11.62450832897306" id="-15265">
		<tag k="name" v="Smalemyra" />
		<tag k="natural" v="wetland" />
		<tag k="ssr:stedsnr" v="355494" />
	</node>
	<node lat="59.41146944846406" lon="11.627908328414321" id="-15267">
		<tag k="name" v="Langemyr" />
		<tag k="natural" v="wetland" />
		<tag k="ssr:stedsnr" v="355499" />
	</node>
	<node lat="59.60039722190191" lon="11.656297214699622" id="-15272">
		<tag k="name" v="Fatatjernshalsen" />
		<tag k="natural" v="wetland" />
		<tag k="ssr:stedsnr" v="355636" />
	</node>
	<node lat="59.604133333545086" lon="11.678891670384894" id="-15274">
		<tag k="name" v="Nevermyra" />
		<tag k="natural" v="wetland" />
		<tag k="ssr:stedsnr" v="355640" />
	</node>
	<node lat="59.46852500304001" lon="11.616486103643032" id="-15276">
		<tag k="name" v="Dan" />
=======
	<node id="-236923" lat="59.5131944475" lon="11.5691027701">
		<tag k="name" v="Langmosen" />
		<tag k="natural" v="wetland" />
		<tag k="ssr:stedsnr" v="416937" />
	</node>
	<node id="-236920" lat="59.5123527757" lon="11.5297083292">
		<tag k="name" v="Vestre Hestesprengmyr" />
		<tag k="natural" v="wetland" />
		<tag k="ssr:stedsnr" v="416925" />
	</node>
	<node id="-236918" lat="59.5244666691" lon="11.5567527717">
		<tag k="name" v="Gørrtjernmyra" />
		<tag k="natural" v="wetland" />
		<tag k="ssr:stedsnr" v="416919" />
	</node>
	<node id="-236917" lat="59.4962777734" lon="11.604375003">
		<tag k="name" v="Dypilmyra" />
		<tag k="natural" v="wetland" />
		<tag k="ssr:stedsnr" v="416914" />
	</node>
	<node id="-236907" lat="59.3369499976" lon="11.7999555556">
		<tag k="name" v="Lille Lystjernmose" />
		<tag k="natural" v="wetland" />
		<tag k="ssr:stedsnr" v="416770" />
	</node>
	<node id="-236901" lat="59.604119442" lon="11.6892777839">
		<tag k="name" v="Gravmosen" />
		<tag k="natural" v="wetland" />
		<tag k="ssr:stedsnr" v="416648" />
	</node>
	<node id="-236893" lat="59.6586916632" lon="11.6185972176">
		<tag k="name" v="Liermyra" />
		<tag k="natural" v="wetland" />
		<tag k="ssr:stedsnr" v="416387" />
	</node>
	<node id="-236886" lat="59.6061361141" lon="11.5690000026">
		<tag k="name" v="Rakkestadmosen" />
		<tag k="natural" v="wetland" />
		<tag k="ssr:stedsnr" v="416490" />
	</node>
	<node id="-236879" lat="59.510152778" lon="11.587466674">
		<tag k="name" v="Holoslora" />
		<tag k="natural" v="wetland" />
		<tag k="ssr:stedsnr" v="416468" />
	</node>
	<node id="-236855" lat="59.4031166662" lon="11.7667361116">
		<tag k="name" v="Langemyr" />
		<tag k="natural" v="wetland" />
		<tag k="ssr:stedsnr" v="415917" />
	</node>
	<node id="-236852" lat="59.484197219" lon="11.6185805497">
		<tag k="name" v="Merramyra" />
		<tag k="natural" v="wetland" />
		<tag k="ssr:stedsnr" v="415844" />
	</node>
	<node id="-236851" lat="59.4783333301" lon="11.6207222222">
		<tag k="name" v="Stensmosen" />
		<tag k="natural" v="wetland" />
		<tag k="ssr:stedsnr" v="415842" />
	</node>
	<node id="-236840" lat="59.3417888871" lon="11.6924222141">
		<tag k="name" v="Kringlemosen" />
		<tag k="natural" v="wetland" />
		<tag k="ssr:stedsnr" v="415364" />
	</node>
	<node id="-236839" lat="59.3613000015" lon="11.7108111181">
		<tag k="name" v="Saksåsmyra" />
		<tag k="natural" v="wetland" />
		<tag k="ssr:stedsnr" v="415341" />
	</node>
	<node id="-236794" lat="59.5661194487" lon="11.6586583254">
		<tag k="name" v="Bergtjernmosen" />
		<tag k="natural" v="wetland" />
		<tag k="ssr:stedsnr" v="356400" />
	</node>
	<node id="-236792" lat="59.5507750044" lon="11.6928083339">
		<tag k="name" v="Bikkjesteinmosen" />
		<tag k="natural" v="wetland" />
		<tag k="ssr:stedsnr" v="356395" />
	</node>
	<node id="-236790" lat="59.5157472204" lon="11.6825722198">
		<tag k="name" v="Breimosen" />
		<tag k="natural" v="wetland" />
		<tag k="ssr:stedsnr" v="356363" />
	</node>
	<node id="-236771" lat="59.5019000017" lon="11.6189277867">
		<tag k="name" v="Mikkelmyr" />
		<tag k="natural" v="wetland" />
		<tag k="ssr:stedsnr" v="355873" />
	</node>
	<node id="-236767" lat="59.468525003" lon="11.6164861036">
		<tag k="name" v="Dan" />
		<tag k="natural" v="wetland" />
		<tag k="ssr:stedsnr" v="355829" />
	</node>
	<node id="-236762" lat="59.4755500044" lon="11.6233166724">
		<tag k="name" v="Granmyr" />
		<tag k="natural" v="wetland" />
		<tag k="ssr:stedsnr" v="355714" />
	</node>
	<node id="-236759" lat="59.6041333335" lon="11.6788916704">
		<tag k="name" v="Nevermyra" />
		<tag k="natural" v="wetland" />
		<tag k="ssr:stedsnr" v="355640" />
	</node>
	<node id="-236757" lat="59.6003972219" lon="11.6562972147">
		<tag k="name" v="Fatatjernshalsen" />
		<tag k="natural" v="wetland" />
		<tag k="ssr:stedsnr" v="355636" />
	</node>
	<node id="-236753" lat="59.6228694446" lon="11.6862361187">
		<tag k="name" v="Østre Svartvannsmosen" />
		<tag k="natural" v="wetland" />
		<tag k="ssr:stedsnr" v="355555" />
	</node>
	<node id="-236747" lat="59.4114694485" lon="11.6279083284">
		<tag k="name" v="Langemyr" />
		<tag k="natural" v="wetland" />
		<tag k="ssr:stedsnr" v="355499" />
	</node>
	<node id="-236745" lat="59.413297224" lon="11.624508329">
		<tag k="name" v="Smalemyra" />
		<tag k="natural" v="wetland" />
		<tag k="ssr:stedsnr" v="355494" />
	</node>
	<node id="-236741" lat="59.6031166636" lon="11.5641083418">
		<tag k="name" v="Skisletmosen" />
		<tag k="natural" v="wetland" />
		<tag k="ssr:stedsnr" v="355485" />
	</node>
	<node id="-236721" lat="59.5829833307" lon="11.6306361034">
		<tag k="name" v="Kølmyra" />
		<tag k="natural" v="wetland" />
		<tag k="ssr:stedsnr" v="355408" />
	</node>
	<node id="-236720" lat="59.5857277768" lon="11.638894441">
		<tag k="name" v="Øvre Mikkelmose" />
		<tag k="natural" v="wetland" />
		<tag k="old_name" v="Øvre Mikkemose" />
		<tag k="ssr:stedsnr" v="355406" />
	</node>
	<node id="-236711" lat="59.6634583358" lon="11.7120916583">
		<tag k="name" v="Prestebordet" />
		<tag k="natural" v="stone" />
		<tag k="ssr:stedsnr" v="355314" />
	</node>
	<node id="-236708" lat="59.5965916682" lon="11.6459666656">
		<tag k="name" v="Øvre Stutemyr" />
		<tag k="natural" v="wetland" />
		<tag k="ssr:stedsnr" v="355283" />
	</node>
	<node id="-236705" lat="59.6232416704" lon="11.5695083351">
		<tag k="name" v="Snørrmosen" />
		<tag k="natural" v="wetland" />
		<tag k="ssr:stedsnr" v="355244" />
	</node>
	<node id="-236702" lat="59.6316944409" lon="11.5846666735">
		<tag k="name" v="Kostevedmyra" />
		<tag k="natural" v="wetland" />
		<tag k="ssr:stedsnr" v="355238" />
	</node>
	<node id="-236699" lat="59.4941277777" lon="11.6695111053">
		<tag k="name" v="Engermosen" />
		<tag k="natural" v="wetland" />
		<tag k="ssr:stedsnr" v="355208" />
	</node>
	<node id="-236691" lat="59.645561114" lon="11.5816888905">
		<tag k="name" v="Brentemosen" />
		<tag k="natural" v="wetland" />
		<tag k="ssr:stedsnr" v="355102" />
	</node>
	<node id="-236689" lat="59.6415305531" lon="11.5975277738">
		<tag k="name" v="Rundemosen" />
		<tag k="natural" v="wetland" />
		<tag k="ssr:stedsnr" v="355084" />
	</node>
	<node id="-236685" lat="59.4055611111" lon="11.74592777">
		<tag k="name" v="Brekkemosen" />
		<tag k="natural" v="wetland" />
		<tag k="ssr:stedsnr" v="354893" />
	</node>
	<node id="-236680" lat="59.4602333331" lon="11.5880083327">
		<tag k="name" v="Mariputten" />
		<tag k="natural" v="wetland" />
		<tag k="ssr:stedsnr" v="354782" />
	</node>
	<node id="-236676" lat="59.4336166659" lon="11.6283388812">
		<tag k="name" v="Paradis" />
		<tag k="natural" v="wetland" />
		<tag k="ssr:stedsnr" v="354639" />
	</node>
	<node id="-236673" lat="59.3363111084" lon="11.7207055537">
		<tag k="name" v="Rødtjernmosen" />
		<tag k="natural" v="wetland" />
		<tag k="ssr:stedsnr" v="354358" />
	</node>
	<node id="-236671" lat="59.3647333324" lon="11.7016138864">
		<tag k="name" v="Styggemyr" />
		<tag k="natural" v="wetland" />
		<tag k="ssr:stedsnr" v="354333" />
	</node>
	<node id="-236651" lat="59.3687000026" lon="11.617680551">
		<tag k="name" v="Stråmyr" />
		<tag k="natural" v="wetland" />
		<tag k="ssr:stedsnr" v="306668" />
	</node>
	<node id="-236639" lat="59.5214833356" lon="11.6597694363">
		<tag k="name" v="Sukkenmosen" />
		<tag k="natural" v="wetland" />
		<tag k="ssr:stedsnr" v="186421" />
	</node>
	<node id="-236630" lat="59.3511055528" lon="11.612383331">
		<tag k="name" v="Storemyr" />
		<tag k="natural" v="wetland" />
		<tag k="ssr:stedsnr" v="185685" />
	</node>
	<node id="-236623" lat="59.4150499999" lon="11.6984833273">
		<tag k="alt_name" v="Breidmosen" />
		<tag k="name" v="Bredmosen" />
		<tag k="natural" v="wetland" />
		<tag k="ssr:stedsnr" v="185474" />
	</node>
	<node id="-235362" lat="59.4737166707" lon="11.62998889">
		<tag k="name" v="Kjerringmyr" />
		<tag k="natural" v="wetland" />
		<tag k="ssr:stedsnr" v="295703" />
	</node>
	<node id="-236604" lat="59.3388499981" lon="11.7860388957">
		<tag k="name" v="Kalvemyra" />
		<tag k="natural" v="wetland" />
		<tag k="ssr:stedsnr" v="174825" />
	</node>
	<node id="-236600" lat="59.447450001" lon="11.7236000078">
		<tag k="name" v="Hyttemyra" />
		<tag k="natural" v="wetland" />
		<tag k="ssr:stedsnr" v="174751" />
	</node>
	<node id="-236584" lat="59.6276972183" lon="11.5973083372">
		<tag k="name" v="Evenbymosen" />
		<tag k="natural" v="wetland" />
		<tag k="ssr:stedsnr" v="174169" />
	</node>
	<node id="-236580" lat="59.3410722208" lon="11.6109805638">
		<tag k="name" v="Toremyr" />
		<tag k="natural" v="wetland" />
		<tag k="ssr:stedsnr" v="174139" />
	</node>
	<node id="-236579" lat="59.3777555577" lon="11.5975305522">
		<tag k="name" v="Ladalmyra" />
		<tag k="natural" v="wetland" />
		<tag k="ssr:stedsnr" v="174109" />
	</node>
	<node id="-236567" lat="59.4863555598" lon="11.6108166643">
		<tag k="name" v="Bikkjepølen" />
		<tag k="natural" v="wetland" />
		<tag k="ssr:stedsnr" v="173918" />
	</node>
	<node id="-236562" lat="59.4130722197" lon="11.7442972267">
		<tag k="name" v="Fuglemose" />
		<tag k="natural" v="wetland" />
		<tag k="ssr:stedsnr" v="173907" />
	</node>
	<node id="-236538" lat="59.5459305596" lon="11.5594749943">
		<tag k="name" v="Kallakmosen" />
		<tag k="natural" v="wetland" />
		<tag k="ssr:stedsnr" v="173546" />
	</node>
	<node id="-236537" lat="59.6196555525" lon="11.7096222138">
		<tag k="name" v="Ankertjernmosen" />
		<tag k="natural" v="wetland" />
		<tag k="ssr:stedsnr" v="173532" />
	</node>
	<node id="-236532" lat="59.532394448" lon="11.6629527695">
		<tag k="name" v="Kattemyra" />
		<tag k="natural" v="wetland" />
		<tag k="ssr:stedsnr" v="173395" />
	</node>
	<node id="-236524" lat="59.5308000044" lon="11.7172000015">
		<tag k="name" v="Snømosen" />
		<tag k="natural" v="wetland" />
		<tag k="ssr:stedsnr" v="173359" />
	</node>
	<node id="-236507" lat="59.6424833328" lon="11.576516671">
		<tag k="name" v="Fossemosen" />
		<tag k="natural" v="wetland" />
		<tag k="ssr:stedsnr" v="173069" />
	</node>
	<node id="-236497" lat="59.3663944452" lon="11.7064999922">
		<tag k="name" v="Volemyr" />
		<tag k="natural" v="wetland" />
		<tag k="ssr:stedsnr" v="172325" />
	</node>
	<node id="-236492" lat="59.4094777744" lon="11.6232944464">
		<tag k="name" v="Kakemyr" />
		<tag k="natural" v="wetland" />
		<tag k="ssr:stedsnr" v="173498" />
	</node>
	<node id="-236487" lat="59.4467749988" lon="11.6436333328">
		<tag k="name" v="Femyra" />
		<tag k="natural" v="wetland" />
		<tag k="ssr:stedsnr" v="173477" />
	</node>
	<node id="-236486" lat="59.5105833364" lon="11.6083250007">
		<tag k="name" v="Husåsmosen" />
		<tag k="natural" v="wetland" />
		<tag k="ssr:stedsnr" v="173471" />
	</node>
	<node id="-236443" lat="59.5011388906" lon="11.588508328">
		<tag k="name" v="Holofuglemosen" />
		<tag k="natural" v="wetland" />
		<tag k="ssr:stedsnr" v="113890" />
	</node>
	<node id="-236426" lat="59.5851888846" lon="11.6773305545">
		<tag k="name" v="Setermosen" />
		<tag k="natural" v="wetland" />
		<tag k="ssr:stedsnr" v="113428" />
	</node>
	<node id="-236413" lat="59.5890388922" lon="11.5191861059">
		<tag k="name" v="Fjellengmyra" />
		<tag k="natural" v="wetland" />
		<tag k="ssr:stedsnr" v="113177" />
	</node>
	<node id="-236412" lat="59.590936113" lon="11.5371861136">
		<tag k="name" v="Trollemosen" />
		<tag k="natural" v="wetland" />
		<tag k="ssr:stedsnr" v="113169" />
	</node>
	<node id="-236403" lat="59.6474666637" lon="11.6169944513">
		<tag k="name" v="Trytjernmosen" />
		<tag k="natural" v="wetland" />
		<tag k="ssr:stedsnr" v="113084" />
	</node>
	<node id="-236395" lat="59.6092777787" lon="11.6101222269">
		<tag k="name" v="Røde hav" />
		<tag k="natural" v="wetland" />
		<tag k="ssr:stedsnr" v="112967" />
	</node>
	<node id="-236392" lat="59.3355527747" lon="11.8155805504">
		<tag k="name" v="Rørmyr" />
		<tag k="natural" v="wetland" />
		<tag k="ssr:stedsnr" v="112798" />
	</node>
	<node id="-236373" lat="59.5003583355" lon="11.7194499984">
		<tag k="name" v="Østre Bumosen" />
		<tag k="natural" v="wetland" />
		<tag k="ssr:stedsnr" v="112150" />
	</node>
	<node id="-236359" lat="59.5274027795" lon="11.6567361035">
		<tag k="name" v="Spernesmosen" />
		<tag k="natural" v="wetland" />
		<tag k="ssr:stedsnr" v="64389" />
	</node>
	<node id="-236352" lat="59.6506888912" lon="11.6063111197">
		<tag k="name" v="Grønnmyr" />
		<tag k="natural" v="wetland" />
		<tag k="ssr:stedsnr" v="53433" />
	</node>
	<node id="-236349" lat="59.4127805574" lon="11.5879638809">
		<tag k="name" v="Klemmemosen" />
		<tag k="natural" v="wetland" />
		<tag k="ssr:stedsnr" v="53178" />
	</node>
	<node id="-236341" lat="59.3385055552" lon="11.804111113">
		<tag k="name" v="Sauemyra" />
		<tag k="natural" v="wetland" />
		<tag k="ssr:stedsnr" v="52779" />
	</node>
	<node id="-236340" lat="59.4680277815" lon="11.6300416627">
		<tag k="name" v="Blenderingsmosen" />
		<tag k="natural" v="wetland" />
		<tag k="ssr:stedsnr" v="52693" />
	</node>
	<node id="-236339" lat="59.4505083355" lon="11.7070111173">
		<tag k="name" v="Saueløkka" />
		<tag k="place" v="locality" />
		<tag k="ssr:stedsnr" v="52680" />
	</node>
	<node id="-235315" lat="59.3748999995" lon="11.5947416597">
		<tag k="name" v="Langemyra" />
		<tag k="natural" v="wetland" />
		<tag k="ssr:stedsnr" v="295088" />
	</node>
	<node id="-236333" lat="59.6258555538" lon="11.6449166663">
		<tag k="name" v="Slottsmyra" />
		<tag k="natural" v="wetland" />
		<tag k="ssr:stedsnr" v="52490" />
	</node>
	<node id="-236312" lat="59.6596166634" lon="11.7010388802">
		<tag k="name" v="Prestebordsmosen" />
		<tag k="natural" v="wetland" />
		<tag k="ssr:stedsnr" v="52390" />
	</node>
	<node id="-236311" lat="59.5356555588" lon="11.6659861116">
		<tag k="name" v="Kvernesteinmosen" />
		<tag k="natural" v="wetland" />
		<tag k="ssr:stedsnr" v="52386" />
	</node>
	<node id="-236309" lat="59.3174777812" lon="11.618202783">
		<tag k="name" v="Skjelldalsmyra" />
>>>>>>> e1d4bc35ff8a6074a6f2e91616a996b547c36f15
		<tag k="natural" v="wetland" />
		<tag k="ssr:stedsnr" v="52374" />
	</node>
<<<<<<< HEAD
	<node lat="59.515747220358726" lon="11.682572219794668" id="-15288">
		<tag k="name" v="Breimosen" />
		<tag k="natural" v="wetland" />
		<tag k="ssr:stedsnr" v="356363" />
	</node>
	<node lat="59.550775004433866" lon="11.692808333936776" id="-15290">
		<tag k="name" v="Bikkjesteinmosen" />
		<tag k="natural" v="wetland" />
		<tag k="ssr:stedsnr" v="356395" />
	</node>
	<node lat="59.34178888711307" lon="11.692422214081288" id="-15321">
		<tag k="name" v="Kringlemosen" />
		<tag k="natural" v="wetland" />
		<tag k="ssr:stedsnr" v="415364" />
	</node>
	<node lat="59.40311666617999" lon="11.766736111576629" id="-15328">
		<tag k="name" v="Langemyr" />
		<tag k="natural" v="wetland" />
		<tag k="ssr:stedsnr" v="415917" />
	</node>
	<node lat="59.5101527779704" lon="11.587466674021995" id="-15344">
		<tag k="name" v="Holoslora" />
		<tag k="natural" v="wetland" />
		<tag k="ssr:stedsnr" v="416468" />
	</node>
	<node lat="59.658691663218036" lon="11.61859721764297" id="-15362">
		<tag k="name" v="Liermyra" />
		<tag k="natural" v="wetland" />
		<tag k="ssr:stedsnr" v="416387" />
	</node>
	<node lat="59.33867777370076" lon="11.612977773471483" id="-15366">
		<tag k="name" v="Karimyr" />
		<tag k="natural" v="wetland" />
		<tag k="ssr:stedsnr" v="417124" />
	</node>
	<node lat="59.606136114085324" lon="11.569000002640033" id="-15368">
		<tag k="name" v="Rakkestadmosen" />
		<tag k="natural" v="wetland" />
		<tag k="ssr:stedsnr" v="416490" />
	</node>
	<node lat="59.628244447784894" lon="11.703111118585616" id="-15371">
		<tag k="name" v="Stutøyemosen" />
		<tag k="natural" v="wetland" />
		<tag k="ssr:stedsnr" v="416528" />
	</node>
	<node lat="59.49627777341494" lon="11.604375002997214" id="-15373">
		<tag k="name" v="Dypilmyra" />
		<tag k="natural" v="wetland" />
		<tag k="ssr:stedsnr" v="416914" />
	</node>
	<node lat="59.52446666912388" lon="11.55675277169296" id="-15374">
		<tag k="name" v="Gørrtjernmyra" />
		<tag k="natural" v="wetland" />
		<tag k="ssr:stedsnr" v="416919" />
	</node>
	<node lat="59.604119441963284" lon="11.68927778387913" id="-15375">
		<tag k="name" v="Gravmosen" />
		<tag k="natural" v="wetland" />
		<tag k="ssr:stedsnr" v="416648" />
	</node>
	<node lat="59.33694999756572" lon="11.799955555550627" id="-15380">
		<tag k="name" v="Lille Lystjernmose" />
		<tag k="natural" v="wetland" />
		<tag k="ssr:stedsnr" v="416770" />
	</node>
	<node lat="59.51319444746975" lon="11.569102770065443" id="-15383">
		<tag k="name" v="Langmosen" />
		<tag k="natural" v="wetland" />
		<tag k="ssr:stedsnr" v="416937" />
	</node>
	<node lat="59.5226055533414" lon="11.572508325033569" id="-15387">
		<tag k="name" v="Skinnstakkmyr" />
		<tag k="natural" v="wetland" />
		<tag k="ssr:stedsnr" v="416971" />
	</node>
	<node lat="59.51235277566098" lon="11.52970832922262" id="-15389">
		<tag k="name" v="Vestre Hestesprengmyr" />
		<tag k="natural" v="wetland" />
		<tag k="ssr:stedsnr" v="416925" />
	</node>
	<node lat="59.38521667114705" lon="11.617633334723026" id="-15392">
		<tag k="name" v="Ekornmyra" />
		<tag k="natural" v="wetland" />
		<tag k="ssr:stedsnr" v="417084" />
	</node>
	<node lat="59.509416668397094" lon="11.691136105013204" id="-15395">
		<tag k="name" v="Kumyr" />
		<tag k="natural" v="wetland" />
		<tag k="ssr:stedsnr" v="417370" />
	</node>
	<node lat="59.63374532586357" lon="11.670631129030754" id="-15399">
		<tag k="alt_name" v="Kisselbergmosen;Kislebergmosen" />
		<tag k="loc_name" v="Nordre Kisselbergmosen" />
		<tag k="name" v="Nordre Kislebergmosen" />
		<tag k="natural" v="wetland" />
		<tag k="ssr:stedsnr" v="428287" />
	</node>
	<node lat="59.35958055716748" lon="11.702700006728817" id="-15420">
		<tag k="name" v="Granmosen" />
		<tag k="natural" v="wetland" />
		<tag k="ssr:stedsnr" v="536244" />
	</node>
	<node lat="59.33841944401672" lon="11.686702769882762" id="-15435">
		<tag k="name" v="Kutjernkasa" />
		<tag k="place" v="locality" />
		<tag k="ssr:stedsnr" v="537294" />
	</node>
	<node lat="59.58195555356834" lon="11.676383334458745" id="-15445">
		<tag k="name" v="Nordre Skoklebergmyra" />
		<tag k="natural" v="wetland" />
		<tag k="ssr:stedsnr" v="537441" />
	</node>
	<node lat="59.5796694478417" lon="11.636825000516067" id="-15447">
		<tag k="name" v="Bumosen" />
		<tag k="natural" v="wetland" />
		<tag k="ssr:stedsnr" v="537449" />
	</node>
	<node lat="59.60877500288411" lon="11.654352775303243" id="-15449">
		<tag k="name" v="Hølvannsmyra" />
		<tag k="natural" v="wetland" />
		<tag k="ssr:stedsnr" v="537629" />
	</node>
	<node lat="59.35568611302805" lon="11.765863895663252" id="-15456">
		<tag k="name" v="Hvilesten" />
		<tag k="natural" v="stone" />
		<tag k="ssr:stedsnr" v="537786" />
	</node>
	<node lat="59.468149998724535" lon="11.601538896459932" id="-15468">
		<tag k="name" v="Lisetermosen" />
		<tag k="natural" v="wetland" />
		<tag k="ssr:stedsnr" v="537850" />
	</node>
	<node lat="59.52508055663457" lon="11.549300003909059" id="-15471">
		<tag k="name" v="Haukemosen" />
		<tag k="natural" v="wetland" />
		<tag k="ssr:stedsnr" v="537941" />
	</node>
	<node lat="59.55927222125425" lon="11.556327774721659" id="-15473">
		<tag k="name" v="Vintermyra" />
		<tag k="natural" v="wetland" />
		<tag k="ssr:stedsnr" v="538061" />
	</node>
	<node lat="59.52450555653263" lon="11.720105550754791" id="-15480">
		<tag k="name" v="Linnemyra" />
		<tag k="natural" v="wetland" />
		<tag k="ssr:stedsnr" v="538390" />
	</node>
	<node lat="59.62361944047487" lon="11.633299993368716" id="-15484">
		<tag k="name" v="Langemyra" />
		<tag k="natural" v="wetland" />
		<tag k="ssr:stedsnr" v="538550" />
	</node>
	<node lat="59.64743260600998" lon="11.67669385057054" id="-15495">
		<tag k="alt_name" v="Kroksætra, vestre;Søndre Kroksetra" />
		<tag k="historic" v="shieling" />
		<tag k="loc_name" v="Marisetra;Søndre Krokssetra" />
		<tag k="name" v="Vestre Kroksætra" />
		<tag k="place" v="locality" />
		<tag k="ssr:stedsnr" v="549261" />
	</node>
	<node lat="59.33956111229657" lon="11.59888610811016" id="-15499">
		<tag k="alt_name" v="Plukkemosen" />
		<tag k="name" v="Plokkemosen" />
		<tag k="natural" v="wetland" />
		<tag k="ssr:stedsnr" v="549727" />
	</node>
	<node lat="59.360352780016456" lon="11.705330551946656" id="-15508">
		<tag k="name" v="Saksåsmyra" />
		<tag k="natural" v="wetland" />
		<tag k="ssr:stedsnr" v="597274" />
	</node>
	<node lat="59.406808330167685" lon="11.666283330207895" id="-15517">
		<tag k="name" v="Gjøngerudmosen" />
		<tag k="natural" v="wetland" />
		<tag k="ssr:stedsnr" v="597554" />
	</node>
	<node lat="59.41295833773652" lon="11.636430548428617" id="-15523">
		<tag k="name" v="Nygårdsmosen" />
		<tag k="natural" v="wetland" />
		<tag k="ssr:stedsnr" v="597541" />
	</node>
	<node lat="59.42755000331453" lon="11.585636103966932" id="-15529">
		<tag k="name" v="Gressmyr" />
		<tag k="natural" v="wetland" />
		<tag k="ssr:stedsnr" v="597791" />
	</node>
	<node lat="59.353719444426865" lon="11.797780560141792" id="-15531">
		<tag k="name" v="Hvilesten" />
		<tag k="natural" v="stone" />
		<tag k="ssr:stedsnr" v="597807" />
	</node>
	<node lat="59.49693055783433" lon="11.61442778135793" id="-15538">
		<tag k="name" v="Broketjernmosen" />
		<tag k="natural" v="wetland" />
		<tag k="ssr:stedsnr" v="597893" />
	</node>
	<node lat="59.48618611544608" lon="11.619813883190968" id="-15540">
		<tag k="name" v="Merramyr" />
		<tag k="natural" v="wetland" />
		<tag k="ssr:stedsnr" v="597938" />
	</node>
	<node lat="59.48418333608152" lon="11.621477770774405" id="-15544">
		<tag k="name" v="Store Fuglemosen" />
		<tag k="natural" v="wetland" />
		<tag k="ssr:stedsnr" v="598215" />
	</node>
	<node lat="59.389524997086774" lon="11.595261116140474" id="-15552">
		<tag k="name" v="Høymyrene" />
		<tag k="natural" v="wetland" />
		<tag k="ssr:stedsnr" v="598089" />
	</node>
	<node lat="59.40414444840313" lon="11.60020277996625" id="-15554">
		<tag k="name" v="Gruvla" />
		<tag k="natural" v="wetland" />
		<tag k="ssr:stedsnr" v="598173" />
	</node>
	<node lat="59.44479444264097" lon="11.58053055094999" id="-15558">
		<tag k="name" v="Hansemyr" />
		<tag k="natural" v="wetland" />
		<tag k="ssr:stedsnr" v="598295" />
	</node>
	<node lat="59.55581111356444" lon="11.705727781619547" id="-15560">
		<tag k="name" v="Hansebakkmyra" />
		<tag k="natural" v="wetland" />
		<tag k="ssr:stedsnr" v="598371" />
	</node>
	<node lat="59.60577499888233" lon="11.642291659539463" id="-15568">
		<tag k="name" v="Øvre Skinnstakkmyra" />
		<tag k="natural" v="wetland" />
		<tag k="ssr:stedsnr" v="598635" />
	</node>
	<node lat="59.37455000396752" lon="11.756658332904301" id="-15583">
		<tag k="name" v="Dyvelmosen" />
		<tag k="natural" v="wetland" />
		<tag k="ssr:stedsnr" v="609657" />
	</node>
	<node lat="59.33316519206481" lon="11.716104428468132" id="-15587">
		<tag k="name" v="Dyvelen" />
		<tag k="natural" v="wetland" />
		<tag k="ssr:stedsnr" v="610650" />
	</node>
	<node lat="59.594919441683786" lon="11.657086111855843" id="-15605">
		<tag k="name" v="Honkemosen" />
		<tag k="natural" v="wetland" />
		<tag k="ssr:stedsnr" v="659291" />
	</node>
	<node lat="59.43106111464182" lon="11.627119445679757" id="-15618">
		<tag k="name" v="Trytjernmosen" />
		<tag k="natural" v="wetland" />
		<tag k="ssr:stedsnr" v="658616" />
	</node>
	<node lat="59.33439722643703" lon="11.705219445155599" id="-15619">
		<tag k="name" v="Bjørnemyr" />
		<tag k="natural" v="wetland" />
		<tag k="ssr:stedsnr" v="658342" />
	</node>
	<node lat="59.315702779160816" lon="11.814041661103658" id="-15621">
=======
	<node id="-236301" lat="59.5886333303" lon="11.5018972177">
		<tag k="name" v="Rokovannsmosene" />
		<tag k="natural" v="wetland" />
		<tag k="ssr:stedsnr" v="52150" />
	</node>
	<node id="-236296" lat="59.3637777762" lon="11.7511388951">
		<tag k="name" v="Damslorene" />
		<tag k="natural" v="wetland" />
		<tag k="ssr:stedsnr" v="51837" />
	</node>
	<node id="-236290" lat="59.4214555586" lon="11.6129750025">
		<tag k="name" v="Fuglemosen" />
		<tag k="natural" v="wetland" />
		<tag k="ssr:stedsnr" v="51806" />
	</node>
	<node id="-236286" lat="59.367552776" lon="11.6261111094">
		<tag k="name" v="Hyttemosen" />
		<tag k="natural" v="wetland" />
		<tag k="ssr:stedsnr" v="51347" />
	</node>
	<node id="-236279" lat="59.5535055593" lon="11.5410944388">
		<tag k="name" v="Langmose" />
		<tag k="natural" v="wetland" />
		<tag k="ssr:stedsnr" v="7062" />
	</node>
	<node id="-236259" lat="59.4343388883" lon="11.6025722212">
		<tag k="alt_name" v="Tyvslåtta" />
		<tag k="name" v="Tjuvslåtta" />
		<tag k="natural" v="wetland" />
		<tag k="ssr:stedsnr" v="2625" />
	</node>
	<node id="-236245" lat="59.4175472237" lon="11.6084416755">
		<tag k="name" v="Høymyrene" />
		<tag k="natural" v="wetland" />
		<tag k="ssr:stedsnr" v="963160" />
	</node>
	<node id="-236242" lat="59.4960833345" lon="11.5643222193">
		<tag k="name" v="De lange myrene" />
		<tag k="natural" v="wetland" />
		<tag k="ssr:stedsnr" v="962958" />
	</node>
	<node id="-236218" lat="59.6655638882" lon="11.6840777786">
		<tag k="name" v="Smørbekkmosen" />
		<tag k="natural" v="wetland" />
		<tag k="ssr:stedsnr" v="962414" />
	</node>
	<node id="-236217" lat="59.5960444421" lon="11.6413861112">
		<tag k="name" v="Nedre Stutemyr" />
		<tag k="natural" v="wetland" />
		<tag k="ssr:stedsnr" v="962270" />
	</node>
	<node id="-236211" lat="59.3324277794" lon="11.6159444411">
		<tag k="name" v="Stenbrumyr" />
		<tag k="natural" v="wetland" />
		<tag k="ssr:stedsnr" v="962103" />
	</node>
	<node id="-236208" lat="59.4944027776" lon="11.6227111136">
		<tag k="name" v="Nestemyr" />
		<tag k="natural" v="wetland" />
		<tag k="ssr:stedsnr" v="962206" />
	</node>
	<node id="-236200" lat="59.6219055512" lon="11.6567888886">
		<tag k="name" v="Søndre Fugleleikmosen" />
		<tag k="natural" v="wetland" />
		<tag k="ssr:stedsnr" v="902976" />
	</node>
	<node id="-236187" lat="59.5656611129" lon="11.6893777812">
		<tag k="name" v="Bergtjernmosen" />
		<tag k="natural" v="wetland" />
		<tag k="ssr:stedsnr" v="902403" />
	</node>
	<node id="-236185" lat="59.5016250029" lon="11.7345388821">
		<tag k="name" v="Erteviksmosen" />
		<tag k="natural" v="wetland" />
		<tag k="ssr:stedsnr" v="902264" />
	</node>
	<node id="-236182" lat="59.4957027769" lon="11.6619666679">
		<tag k="name" v="Mosebymosen" />
		<tag k="natural" v="wetland" />
		<tag k="ssr:stedsnr" v="902211" />
	</node>
	<node id="-236176" lat="59.3582500011" lon="11.7589083288">
		<tag k="name" v="Elgmyr" />
		<tag k="natural" v="wetland" />
		<tag k="ssr:stedsnr" v="901807" />
	</node>
	<node id="-236172" lat="59.5034805594" lon="11.6018194524">
		<tag k="name" v="Buknattmosen" />
		<tag k="natural" v="wetland" />
		<tag k="ssr:stedsnr" v="901906" />
	</node>
	<node id="-235287" lat="59.4295166709" lon="11.6360277848">
		<tag k="name" v="Tømmermyr" />
		<tag k="natural" v="wetland" />
		<tag k="ssr:stedsnr" v="294644" />
	</node>
	<node id="-236160" lat="59.3326161593" lon="11.7106610003">
		<tag k="name" v="Buråsmyra" />
		<tag k="natural" v="wetland" />
		<tag k="ssr:stedsnr" v="888215" />
	</node>
	<node id="-236150" lat="59.6384333348" lon="11.6293166737">
		<tag k="name" v="Hellemomosen" />
		<tag k="natural" v="wetland" />
		<tag k="ssr:stedsnr" v="842415" />
	</node>
	<node id="-236148" lat="59.4035944466" lon="11.6034055629">
		<tag k="name" v="Finnpåmyra" />
		<tag k="natural" v="wetland" />
		<tag k="ssr:stedsnr" v="842160" />
	</node>
	<node id="-236144" lat="59.5831166686" lon="11.6609388851">
		<tag k="name" v="Holmemosen" />
		<tag k="natural" v="wetland" />
		<tag k="ssr:stedsnr" v="842024" />
	</node>
	<node id="-236141" lat="59.6423416642" lon="11.6582638892">
		<tag k="name" v="Eggesteinmosen" />
		<tag k="natural" v="wetland" />
		<tag k="ssr:stedsnr" v="841556" />
	</node>
	<node id="-236137" lat="59.6198555517" lon="11.6279694414">
		<tag k="name" v="Langemyr" />
		<tag k="natural" v="wetland" />
		<tag k="ssr:stedsnr" v="841603" />
	</node>
	<node id="-237328" lat="59.6057666659" lon="11.6833833352">
		<tag k="name" v="Nøklemyr" />
		<tag k="natural" v="wetland" />
		<tag k="ssr:stedsnr" v="780624" />
	</node>
	<node id="-236126" lat="59.3546888903" lon="11.7695833342">
		<tag k="name" v="Tresmyra" />
		<tag k="natural" v="wetland" />
		<tag k="ssr:stedsnr" v="840823" />
	</node>
	<node id="-236124" lat="59.3461499956" lon="11.8017333335">
		<tag k="name" v="Brynildsmyra" />
		<tag k="natural" v="wetland" />
		<tag k="ssr:stedsnr" v="840814" />
	</node>
	<node id="-236119" lat="59.4407805548" lon="11.5984833276">
		<tag k="name" v="Ringmyr" />
		<tag k="natural" v="wetland" />
		<tag k="ssr:stedsnr" v="840203" />
	</node>
	<node id="-236118" lat="59.5508055534" lon="11.6786527817">
		<tag k="name" v="Hofossmosen" />
		<tag k="natural" v="wetland" />
		<tag k="ssr:stedsnr" v="963437" />
	</node>
	<node id="-236109" lat="59.3933250041" lon="11.7424000067">
		<tag k="name" v="Gatemosen" />
		<tag k="natural" v="wetland" />
		<tag k="ssr:stedsnr" v="919897" />
	</node>
	<node id="-236104" lat="59.3299416689" lon="11.5902916719">
		<tag k="name" v="Vintermyra" />
		<tag k="natural" v="wetland" />
		<tag k="ssr:stedsnr" v="780119" />
	</node>
	<node id="-236096" lat="59.578005554" lon="11.6311333337">
		<tag k="name" v="Dammyrene" />
		<tag k="natural" v="wetland" />
		<tag k="ssr:stedsnr" v="914441" />
	</node>
	<node id="-236072" lat="59.4820138881" lon="11.6320305616">
		<tag k="name" v="Lille Fuglemosen" />
		<tag k="natural" v="wetland" />
		<tag k="ssr:stedsnr" v="902763" />
	</node>
	<node id="-236070" lat="59.4448555558" lon="11.6571750042">
		<tag k="name" v="Brudesten" />
		<tag k="natural" v="stone" />
		<tag k="ssr:stedsnr" v="902552" />
	</node>
	<node id="-236067" lat="59.5560583325" lon="11.667813889">
		<tag k="name" v="Torkiltjernmosen" />
		<tag k="natural" v="wetland" />
		<tag k="ssr:stedsnr" v="902430" />
	</node>
	<node id="-236061" lat="59.591772218" lon="11.6554388819">
		<tag k="name" v="Grønnflekk" />
		<tag k="natural" v="wetland" />
		<tag k="ssr:stedsnr" v="902482" />
	</node>
	<node id="-236047" lat="59.4654722234" lon="11.7162944526">
		<tag k="name" v="Småmosen" />
		<tag k="natural" v="wetland" />
		<tag k="ssr:stedsnr" v="902033" />
	</node>
	<node id="-236039" lat="59.6442000008" lon="11.6096055576">
		<tag k="name" v="Kjerringtjernmosen" />
		<tag k="natural" v="wetland" />
		<tag k="ssr:stedsnr" v="902091" />
	</node>
	<node id="-236018" lat="59.4194750023" lon="11.6207555623">
		<tag k="name" v="Langemyr" />
		<tag k="natural" v="wetland" />
		<tag k="ssr:stedsnr" v="901542" />
	</node>
	<node id="-236012" lat="59.3374694415" lon="11.6960888814">
		<tag k="name" v="Kutjernmosen" />
		<tag k="natural" v="wetland" />
		<tag k="ssr:stedsnr" v="901323" />
	</node>
	<node id="-236004" lat="59.323591668" lon="11.6108861058">
		<tag k="name" v="Dyvelmosen" />
		<tag k="natural" v="wetland" />
		<tag k="ssr:stedsnr" v="901095" />
	</node>
	<node id="-235982" lat="59.5206194406" lon="11.7025527697">
		<tag k="name" v="Langevannsmosen" />
		<tag k="natural" v="wetland" />
		<tag k="ssr:stedsnr" v="720368" />
	</node>
	<node id="-235980" lat="59.5199527738" lon="11.6433166749">
		<tag k="name" v="Klundsmosen" />
		<tag k="natural" v="wetland" />
		<tag k="ssr:stedsnr" v="720353" />
	</node>
	<node id="-235963" lat="59.4113333371" lon="11.714844448">
		<tag k="name" v="Bestemormyra" />
		<tag k="natural" v="wetland" />
		<tag k="ssr:stedsnr" v="719561" />
	</node>
	<node id="-235962" lat="59.5800499982" lon="11.6756111069">
		<tag k="name" v="Søndre Skoklebergmyra" />
		<tag k="natural" v="wetland" />
		<tag k="ssr:stedsnr" v="719424" />
	</node>
	<node id="-235936" lat="59.5949194417" lon="11.6570861119">
		<tag k="name" v="Honkemosen" />
		<tag k="natural" v="wetland" />
		<tag k="ssr:stedsnr" v="659291" />
	</node>
	<node id="-235932" lat="59.643969441" lon="11.7030805639">
		<tag k="name" v="Rødvannsmyra" />
		<tag k="natural" v="wetland" />
		<tag k="ssr:stedsnr" v="659464" />
	</node>
	<node id="-235916" lat="59.3157027792" lon="11.8140416611">
>>>>>>> e1d4bc35ff8a6074a6f2e91616a996b547c36f15
		<tag k="name" v="Løvikmosen" />
		<tag k="natural" v="wetland" />
		<tag k="ssr:stedsnr" v="658461" />
	</node>
<<<<<<< HEAD
	<node lat="59.45698610900052" lon="11.578708339465978" id="-15634">
		<tag k="name" v="Dagen" />
		<tag k="natural" v="wetland" />
		<tag k="ssr:stedsnr" v="658756" />
	</node>
	<node lat="59.52077778196292" lon="11.570866669512892" id="-15639">
		<tag k="name" v="Grønnmyr" />
		<tag k="natural" v="wetland" />
		<tag k="ssr:stedsnr" v="658972" />
	</node>
	<node lat="59.64396944095274" lon="11.703080563884024" id="-15651">
		<tag k="name" v="Rødvannsmyra" />
		<tag k="natural" v="wetland" />
		<tag k="ssr:stedsnr" v="659464" />
	</node>
	<node lat="59.63172777720589" lon="11.648641659372615" id="-15654">
		<tag k="name" v="Høymyrene" />
		<tag k="natural" v="wetland" />
		<tag k="ssr:stedsnr" v="659548" />
	</node>
	<node lat="59.612786110816614" lon="11.615766663798775" id="-15662">
		<tag k="name" v="Lindtjernmosen" />
		<tag k="natural" v="wetland" />
		<tag k="ssr:stedsnr" v="659969" />
	</node>
	<node lat="59.638977781562836" lon="11.534177778890582" id="-15690">
		<tag k="name" v="Kalemyr" />
		<tag k="natural" v="wetland" />
		<tag k="ssr:stedsnr" v="719064" />
	</node>
	<node lat="59.64086110773216" lon="11.584147227518438" id="-15691">
		<tag k="name" v="Grunntjernsmosen" />
		<tag k="natural" v="wetland" />
		<tag k="ssr:stedsnr" v="719074" />
	</node>
	<node lat="59.4629777814415" lon="11.63325000684823" id="-15700">
		<tag k="name" v="Dammyrbukta" />
		<tag k="natural" v="wetland" />
		<tag k="ssr:stedsnr" v="719468" />
	</node>
	<node lat="59.65368888454949" lon="11.62083611681309" id="-15704">
		<tag k="name" v="Syltemyr" />
		<tag k="natural" v="wetland" />
		<tag k="ssr:stedsnr" v="719400" />
	</node>
	<node lat="59.63316111216268" lon="11.68420277174768" id="-15705">
		<tag k="name" v="Øvre Korsmyr" />
		<tag k="natural" v="wetland" />
		<tag k="ssr:stedsnr" v="719536" />
	</node>
	<node lat="59.46965833671399" lon="11.566713891795166" id="-15713">
		<tag k="name" v="Storelimosen" />
		<tag k="natural" v="wetland" />
		<tag k="ssr:stedsnr" v="719837" />
	</node>
	<node lat="59.411333337098334" lon="11.71484444796042" id="-15716">
		<tag k="name" v="Bestemormyra" />
		<tag k="natural" v="wetland" />
		<tag k="ssr:stedsnr" v="719561" />
	</node>
	<node lat="59.453538890618944" lon="11.758855557796233" id="-15729">
		<tag k="name" v="Baggemosen" />
		<tag k="natural" v="wetland" />
		<tag k="ssr:stedsnr" v="719885" />
	</node>
	<node lat="59.49162222471651" lon="11.575872229548068" id="-15736">
		<tag k="name" v="Førmyra" />
		<tag k="natural" v="wetland" />
		<tag k="ssr:stedsnr" v="719950" />
	</node>
	<node lat="59.36004166715153" lon="11.614391664923357" id="-15740">
		<tag k="name" v="Lystjernmosen" />
		<tag k="natural" v="wetland" />
		<tag k="ssr:stedsnr" v="720089" />
	</node>
	<node lat="59.51995277377166" lon="11.643316674873839" id="-15746">
		<tag k="name" v="Klundsmosen" />
		<tag k="natural" v="wetland" />
		<tag k="ssr:stedsnr" v="720353" />
	</node>
	<node lat="59.520619440601635" lon="11.702552769748127" id="-15748">
		<tag k="name" v="Langevannsmosen" />
		<tag k="natural" v="wetland" />
		<tag k="ssr:stedsnr" v="720368" />
	</node>
	<node lat="59.47845833453191" lon="11.605527774514572" id="-15787">
		<tag k="name" v="Gjøvannsmyra" />
		<tag k="natural" v="wetland" />
		<tag k="ssr:stedsnr" v="779832" />
	</node>
	<node lat="59.626236111459974" lon="11.58862777268324" id="-15798">
		<tag k="name" v="Jegermyra" />
		<tag k="natural" v="wetland" />
		<tag k="ssr:stedsnr" v="780230" />
	</node>
	<node lat="59.57569999645314" lon="11.684919447879961" id="-15805">
		<tag k="name" v="Bjørnhyttmosen" />
		<tag k="natural" v="wetland" />
		<tag k="ssr:stedsnr" v="780283" />
	</node>
	<node lat="59.597866669918545" lon="11.516052779320908" id="-15817">
		<tag k="name" v="Portmyrene" />
		<tag k="natural" v="wetland" />
		<tag k="ssr:stedsnr" v="780463" />
	</node>
	<node lat="59.62370833435585" lon="11.649358331343594" id="-15824">
		<tag k="name" v="Nordre Fugleleikmosen" />
		<tag k="natural" v="wetland" />
		<tag k="ssr:stedsnr" v="780475" />
	</node>
	<node lat="59.530655559886746" lon="11.544397218217718" id="-15830">
		<tag k="name" v="Høymyrene" />
		<tag k="natural" v="wetland" />
		<tag k="ssr:stedsnr" v="780526" />
	</node>
	<node lat="59.40743333744452" lon="11.631066659099162" id="-15832">
		<tag k="name" v="Skjortemyr" />
		<tag k="natural" v="wetland" />
		<tag k="ssr:stedsnr" v="780529" />
	</node>
	<node lat="59.605766665948515" lon="11.683383335169012" id="-15836">
		<tag k="name" v="Nøklemyr" />
		<tag k="natural" v="wetland" />
		<tag k="ssr:stedsnr" v="780624" />
	</node>
	<node lat="59.450405554623096" lon="11.727047225828915" id="-15842">
		<tag k="name" v="Bærmyra" />
		<tag k="natural" v="wetland" />
		<tag k="ssr:stedsnr" v="780664" />
	</node>
	<node lat="59.5055944487608" lon="11.594894439425822" id="-15844">
		<tag k="name" v="Bjøntemosen" />
		<tag k="natural" v="wetland" />
		<tag k="ssr:stedsnr" v="780874" />
	</node>
	<node lat="59.449727776514315" lon="11.749511114377874" id="-15845">
		<tag k="name" v="Elsemyr" />
		<tag k="natural" v="wetland" />
		<tag k="ssr:stedsnr" v="780889" />
	</node>
	<node lat="59.453472224384235" lon="11.754686109466034" id="-15846">
		<tag k="name" v="Høye mose" />
		<tag k="natural" v="wetland" />
		<tag k="ssr:stedsnr" v="780892" />
	</node>
	<node lat="59.52336388916182" lon="11.6501611083336" id="-15854">
		<tag k="name" v="Linntjernmosen" />
		<tag k="natural" v="wetland" />
		<tag k="ssr:stedsnr" v="781345" />
	</node>
	<node lat="59.37443055547827" lon="11.617347219475542" id="-15857">
		<tag k="name" v="Stenbrumosen" />
		<tag k="natural" v="wetland" />
		<tag k="ssr:stedsnr" v="781087" />
	</node>
	<node lat="59.392202778689544" lon="11.601666671003976" id="-15858">
		<tag k="name" v="Grønnemyra" />
		<tag k="natural" v="wetland" />
		<tag k="ssr:stedsnr" v="781093" />
	</node>
	<node lat="59.34107778162089" lon="11.700244447392654" id="-15859">
		<tag k="name" v="Dammyra" />
		<tag k="natural" v="wetland" />
		<tag k="ssr:stedsnr" v="781368" />
	</node>
	<node lat="59.511058331560065" lon="11.703536117864532" id="-15860">
		<tag k="name" v="Folungmosen" />
		<tag k="natural" v="wetland" />
		<tag k="ssr:stedsnr" v="781374" />
	</node>
	<node lat="59.34934999951017" lon="11.68826944350121" id="-15861">
		<tag k="name" v="Stokkåsmyra" />
		<tag k="natural" v="wetland" />
		<tag k="ssr:stedsnr" v="781375" />
	</node>
	<node lat="59.555174999788825" lon="11.660800005771279" id="-15866">
		<tag k="alt_name" v="Nautmosen" />
		<tag k="name" v="Nautemosen" />
		<tag k="natural" v="wetland" />
		<tag k="ssr:stedsnr" v="792463" />
	</node>
	<node lat="59.354688890294476" lon="11.769583334241993" id="-15889">
		<tag k="name" v="Tresmyra" />
		<tag k="natural" v="wetland" />
		<tag k="ssr:stedsnr" v="840823" />
	</node>
	<node lat="59.64234166415233" lon="11.6582638891549" id="-15913">
		<tag k="name" v="Eggesteinmosen" />
=======
	<node id="-235876" lat="59.6180694463" lon="11.6273861192">
		<tag k="name" v="Vestre Høgåsmosen" />
		<tag k="natural" v="wetland" />
		<tag k="ssr:stedsnr" v="720629" />
	</node>
	<node id="-235867" lat="59.3600416672" lon="11.6143916649">
		<tag k="name" v="Lystjernmosen" />
		<tag k="natural" v="wetland" />
		<tag k="ssr:stedsnr" v="720089" />
	</node>
	<node id="-235863" lat="59.4916222247" lon="11.5758722295">
		<tag k="name" v="Førmyra" />
		<tag k="natural" v="wetland" />
		<tag k="ssr:stedsnr" v="719950" />
	</node>
	<node id="-235858" lat="59.4535388906" lon="11.7588555578">
		<tag k="name" v="Baggemosen" />
		<tag k="natural" v="wetland" />
		<tag k="ssr:stedsnr" v="719885" />
	</node>
	<node id="-235854" lat="59.4696583367" lon="11.5667138918">
		<tag k="name" v="Storelimosen" />
		<tag k="natural" v="wetland" />
		<tag k="ssr:stedsnr" v="719837" />
	</node>
	<node id="-235836" lat="59.3508916642" lon="11.8093916665">
		<tag k="name" v="Store Bredmose" />
		<tag k="natural" v="wetland" />
		<tag k="ssr:stedsnr" v="719795" />
	</node>
	<node id="-235824" lat="59.6331611122" lon="11.6842027717">
		<tag k="name" v="Øvre Korsmyr" />
		<tag k="natural" v="wetland" />
		<tag k="ssr:stedsnr" v="719536" />
	</node>
	<node id="-235823" lat="59.6331027799" lon="11.7110777818">
		<tag k="name" v="Rødvannsmyra" />
		<tag k="natural" v="wetland" />
		<tag k="ssr:stedsnr" v="719533" />
	</node>
	<node id="-235814" lat="59.5140583361" lon="11.6057999985">
		<tag k="name" v="Fjerdbymosen" />
		<tag k="natural" v="wetland" />
		<tag k="ssr:stedsnr" v="719476" />
	</node>
	<node id="-235813" lat="59.3770638908" lon="11.7113833387">
		<tag k="name" v="Væremyr" />
		<tag k="natural" v="wetland" />
		<tag k="ssr:stedsnr" v="719474" />
	</node>
	<node id="-235811" lat="59.4629777814" lon="11.6332500068">
		<tag k="name" v="Dammyrbukta" />
		<tag k="natural" v="wetland" />
		<tag k="ssr:stedsnr" v="719468" />
	</node>
	<node id="-235808" lat="59.6536888845" lon="11.6208361168">
		<tag k="name" v="Syltemyr" />
		<tag k="natural" v="wetland" />
		<tag k="ssr:stedsnr" v="719400" />
	</node>
	<node id="-235807" lat="59.5442999989" lon="11.6970361117">
		<tag k="name" v="Bakstefjelmosen" />
		<tag k="natural" v="wetland" />
		<tag k="ssr:stedsnr" v="719384" />
	</node>
	<node id="-235806" lat="59.5373777819" lon="11.7042305474">
		<tag k="name" v="Langmyr" />
		<tag k="natural" v="wetland" />
		<tag k="ssr:stedsnr" v="719381" />
	</node>
	<node id="-235801" lat="59.3698083369" lon="11.7289361082">
		<tag k="name" v="Abbortjernsmosen" />
		<tag k="natural" v="wetland" />
		<tag k="ssr:stedsnr" v="719311" />
	</node>
	<node id="-235799" lat="59.3552944438" lon="11.6276444492">
		<tag k="name" v="Langemyr" />
		<tag k="natural" v="wetland" />
		<tag k="ssr:stedsnr" v="719304" />
	</node>
	<node id="-235787" lat="59.5052916655" lon="11.6925416622">
		<tag k="name" v="Kislebergmosen" />
		<tag k="natural" v="wetland" />
		<tag k="ssr:stedsnr" v="719110" />
	</node>
	<node id="-235786" lat="59.3173638926" lon="11.5902666595">
		<tag k="name" v="Vadmyra" />
		<tag k="natural" v="wetland" />
		<tag k="ssr:stedsnr" v="719108" />
	</node>
	<node id="-235784" lat="59.6408611077" lon="11.5841472275">
		<tag k="name" v="Grunntjernsmosen" />
		<tag k="natural" v="wetland" />
		<tag k="ssr:stedsnr" v="719074" />
	</node>
	<node id="-235783" lat="59.6389777816" lon="11.5341777789">
		<tag k="name" v="Kalemyr" />
		<tag k="natural" v="wetland" />
		<tag k="ssr:stedsnr" v="719064" />
	</node>
	<node id="-235779" lat="59.6313500033" lon="11.683580563">
		<tag k="name" v="Nedre Korsmyr" />
		<tag k="natural" v="wetland" />
		<tag k="ssr:stedsnr" v="598562" />
	</node>
	<node id="-235778" lat="59.6057749989" lon="11.6422916595">
		<tag k="name" v="Øvre Skinnstakkmyra" />
		<tag k="natural" v="wetland" />
		<tag k="ssr:stedsnr" v="598635" />
	</node>
	<node id="-235776" lat="59.4989916707" lon="11.7129972156">
		<tag k="name" v="Vestre Bumosen" />
		<tag k="natural" v="wetland" />
		<tag k="ssr:stedsnr" v="597120" />
	</node>
	<node id="-235764" lat="59.5245055565" lon="11.7201055508">
		<tag k="name" v="Linnemyra" />
		<tag k="natural" v="wetland" />
		<tag k="ssr:stedsnr" v="538390" />
	</node>
	<node id="-235763" lat="59.3515166651" lon="11.6771805495">
		<tag k="name" v="Lommetjernsmosen" />
		<tag k="natural" v="wetland" />
		<tag k="ssr:stedsnr" v="538389" />
	</node>
	<node id="-235752" lat="59.4765361099" lon="11.5932472249">
		<tag k="name" v="Jonsvannsmosen" />
		<tag k="natural" v="wetland" />
		<tag k="ssr:stedsnr" v="537809" />
	</node>
	<node id="-235748" lat="59.6087750029" lon="11.6543527753">
		<tag k="name" v="Hølvannsmyra" />
		<tag k="natural" v="wetland" />
		<tag k="ssr:stedsnr" v="537629" />
	</node>
	<node id="-235736" lat="59.4781611077" lon="11.7411361176">
		<tag k="name" v="Kjerringmyr" />
		<tag k="natural" v="wetland" />
		<tag k="ssr:stedsnr" v="477958" />
	</node>
	<node id="-235729" lat="59.6331388924" lon="11.6782416657">
		<tag k="name" v="Rundemosen" />
		<tag k="natural" v="wetland" />
		<tag k="ssr:stedsnr" v="477570" />
	</node>
	<node id="-235724" lat="59.6431527816" lon="11.6986666698">
		<tag k="name" v="Åkevannsmosen" />
		<tag k="natural" v="wetland" />
		<tag k="ssr:stedsnr" v="477473" />
	</node>
	<node id="-235718" lat="59.5760583338" lon="11.690613882">
		<tag k="name" v="Vittenbergmyra" />
		<tag k="natural" v="wetland" />
		<tag k="ssr:stedsnr" v="477315" />
	</node>
	<node id="-235717" lat="59.6028638928" lon="11.6480722216">
		<tag k="name" v="Rømsjingmosen" />
		<tag k="natural" v="wetland" />
		<tag k="ssr:stedsnr" v="477303" />
	</node>
	<node id="-235716" lat="59.6001638869" lon="11.6487805636">
		<tag k="name" v="Grønne hølet" />
		<tag k="natural" v="wetland" />
		<tag k="ssr:stedsnr" v="477302" />
	</node>
	<node id="-235701" lat="59.3166916669" lon="11.8197861179">
		<tag k="name" v="Kjønnemyra" />
		<tag k="natural" v="wetland" />
		<tag k="ssr:stedsnr" v="476464" />
	</node>
	<node id="-235697" lat="59.4286805516" lon="11.6227361067">
		<tag k="name" v="Setertjernmosen" />
		<tag k="natural" v="wetland" />
		<tag k="ssr:stedsnr" v="476559" />
	</node>
	<node id="-235692" lat="59.3968555552" lon="11.7144416631">
		<tag k="alt_name" v="Solerudsmosen" />
		<tag k="name" v="Solerudmosen" />
		<tag k="natural" v="wetland" />
		<tag k="ssr:stedsnr" v="671531" />
	</node>
	<node id="-235654" lat="59.3425888919" lon="11.7931">
		<tag k="name" v="Bjørnemyr" />
		<tag k="natural" v="wetland" />
		<tag k="ssr:stedsnr" v="659812" />
	</node>
	<node id="-235650" lat="59.6127861108" lon="11.6157666638">
		<tag k="name" v="Lindtjernmosen" />
>>>>>>> e1d4bc35ff8a6074a6f2e91616a996b547c36f15
		<tag k="natural" v="wetland" />
		<tag k="ssr:stedsnr" v="659969" />
	</node>
<<<<<<< HEAD
	<node lat="59.51931666379193" lon="11.533888881843176" id="-15919">
		<tag k="name" v="Fuglemosen" />
		<tag k="natural" v="wetland" />
		<tag k="ssr:stedsnr" v="841946" />
	</node>
	<node lat="59.63843333480495" lon="11.629316673674417" id="-15922">
		<tag k="name" v="Hellemomosen" />
		<tag k="natural" v="wetland" />
		<tag k="ssr:stedsnr" v="842415" />
	</node>
	<node lat="59.40359444662573" lon="11.603405562867364" id="-15925">
		<tag k="name" v="Finnpåmyra" />
		<tag k="natural" v="wetland" />
		<tag k="ssr:stedsnr" v="842160" />
	</node>
	<node lat="59.643963891433046" lon="11.591611102473035" id="-15933">
		<tag k="name" v="Mørkholtmosen" />
		<tag k="natural" v="wetland" />
		<tag k="ssr:stedsnr" v="841089" />
	</node>
	<node lat="59.640982597061445" lon="11.668417083117868" id="-15939">
		<tag k="alt_name" v="Nordre Kislebergmosen" />
		<tag k="loc_name" v="Nordre Kisselbergmosen" />
		<tag k="name" v="Perehalsen" />
		<tag k="natural" v="wetland" />
		<tag k="ssr:stedsnr" v="853288" />
	</node>
	<node lat="59.44905832925528" lon="11.737402772375086" id="-15965">
		<tag k="name" v="Kvigemyr" />
		<tag k="natural" v="wetland" />
		<tag k="ssr:stedsnr" v="961934" />
	</node>
	<node lat="59.59604444205592" lon="11.641386111184213" id="-15986">
		<tag k="name" v="Nedre Stutemyr" />
		<tag k="natural" v="wetland" />
		<tag k="ssr:stedsnr" v="962270" />
	</node>
	<node lat="59.52613333746136" lon="11.715197214595968" id="-15987">
		<tag k="name" v="Kubbebakkmosen" />
		<tag k="natural" v="wetland" />
		<tag k="ssr:stedsnr" v="962334" />
	</node>
	<node lat="59.54225555486379" lon="11.675444441326324" id="-15989">
		<tag k="name" v="Raggmyr" />
		<tag k="natural" v="wetland" />
		<tag k="ssr:stedsnr" v="962356" />
	</node>
	<node lat="59.3492361120256" lon="11.631327777652368" id="-15992">
		<tag k="name" v="Jerpemyr" />
		<tag k="natural" v="wetland" />
		<tag k="ssr:stedsnr" v="962371" />
	</node>
	<node lat="59.66556388819893" lon="11.684077778607262" id="-15993">
		<tag k="name" v="Smørbekkmosen" />
		<tag k="natural" v="wetland" />
		<tag k="ssr:stedsnr" v="962414" />
	</node>
	<node lat="59.65054444286927" lon="11.708722220430387" id="-16000">
		<tag k="name" v="Gulltjernmosen" />
		<tag k="natural" v="wetland" />
		<tag k="ssr:stedsnr" v="962429" />
	</node>
	<node lat="59.45983332948595" lon="11.728230562646932" id="-16010">
		<tag k="name" v="Store mose" />
		<tag k="natural" v="wetland" />
		<tag k="ssr:stedsnr" v="962697" />
	</node>
	<node lat="59.496083334536465" lon="11.564322219257608" id="-16016">
		<tag k="name" v="De lange myrene" />
		<tag k="natural" v="wetland" />
		<tag k="ssr:stedsnr" v="962958" />
	</node>
	<node lat="59.41754722366691" lon="11.608441675451395" id="-16019">
		<tag k="name" v="Høymyrene" />
		<tag k="natural" v="wetland" />
		<tag k="ssr:stedsnr" v="963160" />
=======
	<node id="-235649" lat="59.6317277772" lon="11.6486416594">
		<tag k="name" v="Høymyrene" />
		<tag k="natural" v="wetland" />
		<tag k="ssr:stedsnr" v="659548" />
	</node>
	<node id="-235647" lat="59.6292888854" lon="11.6789638941">
		<tag k="loc_name" v="Rundemosen" />
		<tag k="name" v="Runde mose" />
		<tag k="natural" v="wetland" />
		<tag k="ssr:stedsnr" v="659538" />
	</node>
	<node id="-235639" lat="59.626088888" lon="11.554419449">
		<tag k="name" v="Stråmyr" />
		<tag k="natural" v="wetland" />
		<tag k="ssr:stedsnr" v="659237" />
	</node>
	<node id="-235637" lat="59.5868249981" lon="11.5379749922">
		<tag k="name" v="Bråtemyra" />
		<tag k="natural" v="wetland" />
		<tag k="ssr:stedsnr" v="659210" />
	</node>
	<node id="-235634" lat="59.396538885" lon="11.5927499987">
		<tag k="name" v="Finnpåmyra" />
		<tag k="natural" v="wetland" />
		<tag k="ssr:stedsnr" v="659196" />
	</node>
	<node id="-235613" lat="59.4843972241" lon="11.6108249915">
		<tag k="name" v="Bikkjepølen" />
		<tag k="natural" v="wetland" />
		<tag k="ssr:stedsnr" v="658800" />
	</node>
	<node id="-235607" lat="59.456986109" lon="11.5787083395">
		<tag k="name" v="Dagen" />
		<tag k="natural" v="wetland" />
		<tag k="ssr:stedsnr" v="658756" />
	</node>
	<node id="-235604" lat="59.520777782" lon="11.5708666695">
		<tag k="name" v="Grønnmyr" />
		<tag k="natural" v="wetland" />
		<tag k="ssr:stedsnr" v="658972" />
	</node>
	<node id="-235600" lat="59.4310611146" lon="11.6271194457">
		<tag k="name" v="Trytjernmosen" />
		<tag k="natural" v="wetland" />
		<tag k="ssr:stedsnr" v="658616" />
	</node>
	<node id="-235595" lat="59.4228527796" lon="11.6270638885">
		<tag k="name" v="Multehullet" />
		<tag k="natural" v="wetland" />
		<tag k="ssr:stedsnr" v="658581" />
	</node>
	<node id="-235585" lat="59.3343972264" lon="11.7052194452">
		<tag k="name" v="Bjørnemyr" />
		<tag k="natural" v="wetland" />
		<tag k="ssr:stedsnr" v="658342" />
	</node>
	<node id="-235573" lat="59.48048611" lon="11.6810972146">
		<tag k="name" v="Branesmosen" />
		<tag k="natural" v="wetland" />
		<tag k="ssr:stedsnr" v="658034" />
	</node>
	<node id="-235558" lat="59.3386777737" lon="11.6129777735">
		<tag k="name" v="Karimyr" />
		<tag k="natural" v="wetland" />
		<tag k="ssr:stedsnr" v="417124" />
	</node>
	<node id="-235553" lat="59.6620444457" lon="11.6516750088">
		<tag k="name" v="Sadel" />
		<tag k="natural" v="stone" />
		<tag k="ssr:stedsnr" v="416406" />
	</node>
	<node id="-235552" lat="59.6282444478" lon="11.7031111186">
		<tag k="name" v="Stutøyemosen" />
		<tag k="natural" v="wetland" />
		<tag k="ssr:stedsnr" v="416528" />
	</node>
	<node id="-237569" lat="59.5259361133" lon="11.5652111055">
		<tag k="name" v="Sagåsmosen" />
		<tag k="natural" v="wetland" />
		<tag k="ssr:stedsnr" v="962937" />
>>>>>>> e1d4bc35ff8a6074a6f2e91616a996b547c36f15
	</node>
</osm>
