<?xml version="1.0" encoding="UTF-8"?>
<osm generator="osmapis" version="0.6">
	<node id="-24440" lat="59.5082416699" lon="11.7312916687">
		<tag k="historic" v="boundary_stone" />
		<tag k="man_made" v="cairn" />
		<tag k="name" v="Linnedalen" />
		<tag k="place" v="locality" />
		<tag k="ssr:stedsnr" v="959716" />
	</node>
	<node id="-23508" lat="59.6355416667" lon="11.5837027718">
		<tag k="fixme" v="consider boundary=protected_area and relevant protect_class if not nature reserve" />
		<tag k="leisure" v="nature_reserve" />
		<tag k="name" v="Langrasta naturreservat" />
		<tag k="ssr:stedsnr" v="174036" />
	</node>
	<node id="-22514" lat="59.4678777794" lon="11.5671611039">
		<tag k="fixme" v="consider boundary=protected_area and relevant protect_class if not nature reserve" />
		<tag k="leisure" v="nature_reserve" />
		<tag k="name" v="Storelimosen naturreservat" />
		<tag k="ssr:stedsnr" v="658321" />
	</node>
	<node id="-22501" lat="59.5392944451" lon="11.7149638875">
		<tag k="historic" v="boundary_stone" />
		<tag k="man_made" v="cairn" />
		<tag k="name" v="Galtedalshøgda" />
		<tag k="place" v="locality" />
		<tag k="ssr:stedsnr" v="656729" />
	</node>
	<node id="-24545" lat="59.3447447458" lon="11.8162391337">
		<tag k="historic" v="boundary_stone" />
		<tag k="loc_name" v="Lystjernrøysa" />
		<tag k="man_made" v="cairn" />
		<tag k="name" v="Lystjernsrøysa" />
		<tag k="old_name" v="Lysekiærns Røset" />
		<tag k="place" v="locality" />
		<tag k="ssr:stedsnr" v="413704" />
	</node>
	<node id="-24543" lat="59.6219686455" lon="11.7159521236">
		<tag k="historic" v="boundary_stone" />
		<tag k="man_made" v="cairn" />
		<tag k="name" v="Søre Langvassrøysa" />
		<tag k="old_name" v="Sødre Langevands Røset" />
		<tag k="place" v="locality" />
		<tag k="ssr:stedsnr" v="777559" />
	</node>
	<node id="-24542" lat="59.4142916486" lon="11.774103218">
		<tag k="historic" v="boundary_stone" />
		<tag k="man_made" v="cairn" />
		<tag k="name" v="Hølebekkrøysa" />
		<tag k="old_name" v="Hulbekke Røset;Hulbæk Rös" />
		<tag k="place" v="locality" />
		<tag k="ssr:stedsnr" v="292617" />
	</node>
	<node id="-24539" lat="59.4581819735" lon="11.7599246927">
		<tag k="historic" v="boundary_stone" />
		<tag k="man_made" v="cairn" />
		<tag k="name" v="Skjærimyrrøysa" />
		<tag k="old_name" v="Moose Røset;Skjerimose Rös" />
		<tag k="place" v="locality" />
		<tag k="ssr:stedsnr" v="223698" />
	</node>
	<node id="-23898" lat="59.4626916692" lon="11.7584888965">
		<tag k="historic" v="boundary_stone" />
		<tag k="man_made" v="cairn" />
		<tag k="name" v="Grytehøgda" />
		<tag k="place" v="locality" />
		<tag k="ssr:stedsnr" v="535638" />
	</node>
	<node id="-24537" lat="59.6002785846" lon="11.6949328795">
		<tag k="historic" v="boundary_stone" />
		<tag k="man_made" v="cairn" />
		<tag k="name" v="Hukehedsrøysa" />
		<tag k="old_name" v="Hukeheds Røset" />
		<tag k="place" v="locality" />
		<tag k="ssr:stedsnr" v="231621" />
	</node>
	<node id="-24535" lat="59.5895514428" lon="11.6911199577">
		<tag k="historic" v="boundary_stone" />
		<tag k="man_made" v="cairn" />
		<tag k="name" v="Mørkesundrøysa" />
		<tag k="old_name" v="Mørkesund Røset;Mørkesunds Røs" />
		<tag k="place" v="locality" />
		<tag k="ssr:stedsnr" v="535702" />
	</node>
	<node id="-24534" lat="59.4925149697" lon="11.7457154692">
		<tag k="historic" v="boundary_stone" />
		<tag k="man_made" v="cairn" />
		<tag k="name" v="Håfjellet" />
		<tag k="place" v="locality" />
		<tag k="ssr:stedsnr" v="535724" />
	</node>
	<node id="-24533" lat="59.4831193067" lon="11.5683643643">
		<tag k="fixme" v="consider boundary=protected_area and relevant protect_class if not nature reserve" />
		<tag k="leisure" v="nature_reserve" />
		<tag k="name" v="Burumtjern naturreservat" />
		<tag k="ssr:stedsnr" v="1077485" />
	</node>
	<node id="-23764" lat="59.5632388902" lon="11.7036500063">
		<tag k="fixme" v="multiple name tags, choose one and add the other to alt_name" />
		<tag k="historic" v="boundary_stone" />
		<tag k="man_made" v="cairn" />
		<tag k="name" v="Hansebakkrøysa;Mellomrøysa" />
		<tag k="old_name" v="Mellem Røset;Mellem Rös" />
		<tag k="place" v="locality" />
		<tag k="ssr:stedsnr" v="413728" />
	</node>
	<node id="-23130" lat="59.6342972221" lon="11.6690888931">
		<tag k="fixme" v="consider boundary=protected_area and relevant protect_class if not nature reserve" />
		<tag k="leisure" v="nature_reserve" />
		<tag k="name" v="Kisselbermosen naturreservat" />
		<tag k="ssr:stedsnr" v="902573" />
	</node>
	<node id="-23241" lat="59.4148527813" lon="11.6981166631">
		<tag k="fixme" v="consider boundary=protected_area and relevant protect_class if not nature reserve" />
		<tag k="leisure" v="nature_reserve" />
		<tag k="name" v="Bredmosen naturreservat" />
		<tag k="ssr:stedsnr" v="52280" />
	</node>
	<node id="-24511" lat="59.3312048787" lon="11.6064973867">
		<tag k="fixme" v="consider boundary=protected_area and relevant protect_class if not nature reserve" />
		<tag k="leisure" v="nature_reserve" />
		<tag k="name" v="Sakseåsen naturreservat" />
		<tag k="ssr:stedsnr" v="991088" />
	</node>
	<node id="-24510" lat="59.4350164235" lon="11.5907171933">
		<tag k="fixme" v="consider boundary=protected_area and relevant protect_class if not nature reserve" />
		<tag k="leisure" v="nature_reserve" />
		<tag k="name" v="Fjella naturreservat" />
		<tag k="ssr:stedsnr" v="989149" />
	</node>
	<node id="-22715" lat="59.5111749968" lon="11.7286305559">
		<tag k="historic" v="boundary_stone" />
		<tag k="man_made" v="cairn" />
		<tag k="name" v="Joarrøysa" />
		<tag k="old_name" v="Joara Røset;Joare Rös" />
		<tag k="place" v="locality" />
		<tag k="ssr:stedsnr" v="717702" />
	</node>
	<node id="-22199" lat="59.4873836221" lon="11.748903622">
		<tag k="historic" v="boundary_stone" />
		<tag k="man_made" v="cairn" />
		<tag k="name" v="Oscarssteinen" />
		<tag k="place" v="locality" />
		<tag k="ssr:stedsnr" v="292721" />
	</node>
	<node id="-22198" lat="59.5728666698" lon="11.6990388821">
		<tag k="historic" v="boundary_stone" />
		<tag k="man_made" v="cairn" />
		<tag k="name" v="Vittenbergrøysa" />
		<tag k="place" v="locality" />
		<tag k="ssr:stedsnr" v="292709" />
	</node>
	<node id="-22197" lat="59.4793194484" lon="11.7531694433">
		<tag k="historic" v="boundary_stone" />
		<tag k="loc_name" v="Runnetjernrøysa" />
		<tag k="man_made" v="cairn" />
		<tag k="name" v="Runnetjernsrøysa" />
		<tag k="old_name" v="Rounekiærns Røset;Rogntjern Rös" />
		<tag k="place" v="locality" />
		<tag k="ssr:stedsnr" v="292636" />
	</node>
	<node id="-23216" lat="59.5394277767" lon="11.7151055637">
		<tag k="historic" v="boundary_stone" />
		<tag k="man_made" v="cairn" />
		<tag k="name" v="Galtedalsrøysa" />
		<tag k="old_name" v="Galtedals Røset" />
		<tag k="place" v="locality" />
		<tag k="ssr:stedsnr" v="49724" />
	</node>
	<node id="-23215" lat="59.4127222207" lon="11.7744277836">
		<tag k="historic" v="boundary_stone" />
		<tag k="man_made" v="cairn" />
		<tag k="name" v="Ulvehiåsen" />
		<tag k="place" v="locality" />
		<tag k="ssr:stedsnr" v="49692" />
	</node>
	<node id="-22696" lat="59.5262138898" lon="11.6571222293">
		<tag k="fixme" v="consider boundary=protected_area and relevant protect_class if not nature reserve" />
		<tag k="leisure" v="nature_reserve" />
		<tag k="name" v="Spernesmosen naturreservat" />
		<tag k="ssr:stedsnr" v="538375" />
	</node>
	<node id="-24538" lat="59.608787016" lon="11.697954676">
		<tag k="historic" v="boundary_stone" />
		<tag k="man_made" v="cairn" />
		<tag k="name" v="Grindfossteinen" />
		<tag k="old_name" v="Steenen i Grindefors" />
		<tag k="place" v="locality" />
		<tag k="ssr:stedsnr" v="534553" />
	</node>
</osm>
