<?xml version="1.0" encoding="UTF-8"?>
<osm version="0.6" generator="osmapis">
	<node lat="59.449405551384515" lon="11.579472228971554" id="-26368">
		<tag k="name" v="Villaen" />
		<tag k="place" v="isolated_dwelling" />
		<tag k="ssr:stedsnr" v="2612" />
	</node>
	<node lat="59.48539591996523" lon="11.694177307971112" id="-26370">
		<tag k="name" v="Nysterud" />
		<tag k="place" v="farm" />
		<tag k="ssr:stedsnr" v="2576" />
	</node>
	<node lat="59.38356927965879" lon="11.626776036808486" id="-26372">
		<tag k="name" v="Bråten" />
		<tag k="place" v="isolated_dwelling" />
		<tag k="ssr:stedsnr" v="3501" />
	</node>
	<node lat="59.41287500008367" lon="11.64233056334852" id="-26375">
		<tag k="name" v="Nygård" />
		<tag k="place" v="farm" />
		<tag k="ssr:stedsnr" v="3477" />
	</node>
	<node lat="59.36977634607684" lon="11.745083952529248" id="-26376">
		<tag k="name" v="Rørvik" />
		<tag k="place" v="farm" />
		<tag k="ssr:stedsnr" v="3670" />
	</node>
	<node lat="59.3513444486025" lon="11.709838882766839" id="-26380">
		<tag k="alt_name" v="Otteid;Otteid vestre" />
		<tag k="name" v="Vestre Otteid" />
		<tag k="place" v="locality" />
		<tag k="ssr:stedsnr" v="3701" />
	</node>
	<node lat="59.33973889244945" lon="11.78846944701788" id="-26381">
		<tag k="name" v="Kjøna" />
		<tag k="old_name" v="Kjona;Kjønen" />
		<tag k="place" v="farm" />
		<tag k="ssr:stedsnr" v="3722" />
	</node>
	<node lat="59.51118889249541" lon="11.671780559470948" id="-26383">
		<tag k="alt_name" v="Bergerøygården" />
		<tag k="name" v="Bergerødegården" />
		<tag k="place" v="farm" />
		<tag k="ssr:stedsnr" v="4372" />
	</node>
	<node lat="59.52495833770931" lon="11.703852778738538" id="-26384">
		<tag k="name" v="Svartvasshytta" />
		<tag k="place" v="locality" />
		<tag k="ssr:stedsnr" v="4381" />
	</node>
	<node lat="59.49318888879676" lon="11.697336109710895" id="-26392">
		<tag k="name" v="Herkerud" />
		<tag k="place" v="locality" />
		<tag k="ssr:stedsnr" v="52103" />
	</node>
	<node lat="59.617709155817494" lon="11.603059314380719" id="-26394">
		<tag k="alt_name" v="Krok nordre" />
		<tag k="name" v="Nordre Krok" />
		<tag k="place" v="farm" />
		<tag k="ssr:stedsnr" v="52116" />
	</node>
	<node lat="59.47763611470533" lon="11.73314722105964" id="-26396">
		<tag k="name" v="Nordre Håby" />
		<tag k="place" v="locality" />
		<tag k="ssr:stedsnr" v="52022" />
	</node>
	<node lat="59.58045771026984" lon="11.556844016891699" id="-26400">
		<tag k="name" v="Mølle" />
		<tag k="place" v="locality" />
		<tag k="ssr:stedsnr" v="52210" />
	</node>
	<node lat="59.618375000557734" lon="11.551972216364142" id="-26403">
		<tag k="name" v="Jerusalem" />
		<tag k="place" v="farm" />
		<tag k="ssr:stedsnr" v="52218" />
	</node>
	<node lat="59.461836108448885" lon="11.691058331897976" id="-26424">
		<tag k="alt_name" v="Nordjordet" />
		<tag k="name" v="Vestre Krossby" />
		<tag k="place" v="farm" />
		<tag k="ssr:stedsnr" v="52639" />
	</node>
	<node lat="59.523958331075754" lon="11.58726943987983" id="-26433">
		<tag k="name" v="England" />
		<tag k="place" v="locality" />
		<tag k="ssr:stedsnr" v="52968" />
	</node>
	<node lat="59.33485555131797" lon="11.637724994864934" id="-26440">
		<tag k="building" v="industrial" />
		<tag k="name" v="Sambølsaga" />
		<tag k="ssr:stedsnr" v="53374" />
	</node>
	<node lat="59.46901666276256" lon="11.652752779938796" id="-26441">
		<tag k="name" v="Liødegården" />
		<tag k="place" v="locality" />
		<tag k="ssr:stedsnr" v="295710" />
	</node>
	<node lat="59.44202611032601" lon="11.67428858757248" id="-26444">
		<tag k="name" v="Mårud" />
		<tag k="place" v="farm" />
		<tag k="ssr:stedsnr" v="63619" />
	</node>
	<node lat="59.63004135914605" lon="11.615580310988607" id="-26447">
		<tag k="name" v="Opsal nordre" />
		<tag k="place" v="farm" />
		<tag k="ssr:stedsnr" v="64306" />
	</node>
	<node lat="59.6376027815821" lon="11.688183336777659" id="-26448">
		<tag k="historic" v="shieling" />
		<tag k="name" v="Jåvallsetra" />
		<tag k="place" v="isolated_dwelling" />
		<tag k="ssr:stedsnr" v="64308" />
	</node>
	<node lat="59.55146111147654" lon="11.707319445817207" id="-26449">
		<tag k="name" v="Krokvasshytta" />
		<tag k="place" v="locality" />
		<tag k="ssr:stedsnr" v="64456" />
	</node>
	<node lat="59.4069888928574" lon="11.646436118625607" id="-26450">
		<tag k="alt_name" v="Yttersrud" />
		<tag k="name" v="Uttersrud" />
		<tag k="place" v="farm" />
		<tag k="ssr:stedsnr" v="64509" />
	</node>
	<node lat="59.4014713363278" lon="11.673155831655256" id="-26451">
		<tag k="name" v="Fløvik" />
		<tag k="place" v="farm" />
		<tag k="ssr:stedsnr" v="64510" />
	</node>
	<node lat="59.600560441949405" lon="11.544707093982801" id="-26456">
		<tag k="name" v="Pytterud" />
		<tag k="place" v="farm" />
		<tag k="ssr:stedsnr" v="65450" />
	</node>
	<node lat="59.367305552263765" lon="11.685872228190618" id="-26465">
		<tag k="name" v="Gråbølødegården" />
		<tag k="place" v="farm" />
		<tag k="ssr:stedsnr" v="233341" />
	</node>
	<node lat="59.51777928421032" lon="11.619458112844775" id="-26469">
		<tag k="name" v="Kåtorp" />
		<tag k="place" v="farm" />
		<tag k="ssr:stedsnr" v="233553" />
	</node>
	<node lat="59.48785555399585" lon="11.682319442532648" id="-26479">
		<tag k="name" v="Søndre Sletta" />
		<tag k="place" v="farm" />
		<tag k="ssr:stedsnr" v="234020" />
	</node>
	<node lat="59.61869722074661" lon="11.592269437588627" id="-26496">
		<tag k="name" v="Kroksund" />
		<tag k="place" v="hamlet" />
		<tag k="ssr:stedsnr" v="234177" />
	</node>
	<node lat="59.508233330389096" lon="11.665552778821176" id="-26500">
		<tag k="alt_name" v="Berger søndre" />
		<tag k="name" v="Søndre Berger" />
		<tag k="place" v="farm" />
		<tag k="ssr:stedsnr" v="234269" />
	</node>
	<node lat="59.67420555291746" lon="11.6447138854192" id="-26519">
		<tag k="name" v="Engasetra" />
		<tag k="place" v="isolated_dwelling" />
		<tag k="ssr:stedsnr" v="234419" />
	</node>
	<node lat="59.43483452226239" lon="11.710878748634398" id="-26525">
		<tag k="alt_name" v="Bakkebråten" />
		<tag k="name" v="Tassebakken" />
		<tag k="place" v="farm" />
		<tag k="ssr:stedsnr" v="234511" />
	</node>
	<node lat="59.61629444632708" lon="11.563641667207834" id="-26527">
		<tag k="name" v="Storløs" />
		<tag k="place" v="farm" />
		<tag k="ssr:stedsnr" v="234514" />
	</node>
	<node lat="59.614529016915476" lon="11.563672505046183" id="-26529">
		<tag k="name" v="Storløs" />
		<tag k="place" v="farm" />
		<tag k="ssr:stedsnr" v="234527" />
	</node>
	<node lat="59.45175277742545" lon="11.704233342097604" id="-26536">
		<tag k="name" v="Søndre Ankerud" />
		<tag k="place" v="locality" />
		<tag k="ssr:stedsnr" v="234721" />
	</node>
	<node lat="59.47336110837437" lon="11.649455550446726" id="-26537">
		<tag k="name" v="Ørnås" />
		<tag k="place" v="locality" />
		<tag k="ssr:stedsnr" v="234740" />
	</node>
	<node lat="59.6100972253548" lon="11.66041388628599" id="-26538">
		<tag k="name" v="Hølvannsstua" />
		<tag k="place" v="locality" />
		<tag k="ssr:stedsnr" v="234672" />
	</node>
	<node lat="59.498791667535265" lon="11.542458337343133" id="-26541">
		<tag k="name" v="Østenbyhytta" />
		<tag k="place" v="locality" />
		<tag k="ssr:stedsnr" v="234912" />
	</node>
	<node lat="59.48677499713112" lon="11.748141659502759" id="-26546">
		<tag k="building" v="civic" />
		<tag k="name" v="Ørje tollstasjon" />
		<tag k="ssr:stedsnr" v="234933" />
	</node>
	<node lat="59.34689328548016" lon="11.68449933531384" id="-26550">
		<tag k="name" v="Søndre Djupvik" />
		<tag k="old_name" v="Dypvik søndre" />
		<tag k="place" v="farm" />
		<tag k="ssr:stedsnr" v="235388" />
	</node>
	<node lat="59.54313888673848" lon="11.586388896331803" id="-26554">
		<tag k="alt_name" v="Kallak nordre" />
		<tag k="name" v="Nordre Kallak" />
		<tag k="place" v="farm" />
		<tag k="ssr:stedsnr" v="112479" />
	</node>
	<node lat="59.60874166776682" lon="11.579055551948356" id="-26560">
		<tag k="name" v="Ødegård" />
		<tag k="place" v="farm" />
		<tag k="ssr:stedsnr" v="112911" />
	</node>
	<node lat="59.61523611380853" lon="11.565955554060196" id="-26579">
		<tag k="name" v="Storløs" />
		<tag k="place" v="farm" />
		<tag k="ssr:stedsnr" v="113516" />
	</node>
	<node lat="59.486605555562065" lon="11.711011106626742" id="-26595">
		<tag k="name" v="Foss" />
		<tag k="place" v="farm" />
		<tag k="ssr:stedsnr" v="123615" />
	</node>
	<node lat="59.50029722646606" lon="11.633772214131685" id="-26597">
		<tag k="name" v="Stensrud" />
		<tag k="place" v="locality" />
		<tag k="ssr:stedsnr" v="123618" />
	</node>
	<node lat="59.452025870672855" lon="11.678055609312398" id="-26598">
		<tag k="name" v="Snesrud" />
		<tag k="place" v="farm" />
		<tag k="ssr:stedsnr" v="123665" />
	</node>
	<node lat="59.44557777657592" lon="11.75843611170822" id="-26599">
		<tag k="name" v="Grøndal" />
		<tag k="place" v="isolated_dwelling" />
		<tag k="ssr:stedsnr" v="123667" />
	</node>
	<node lat="59.54767555581159" lon="11.579181343290198" id="-26600">
		<tag k="name" v="Røen" />
		<tag k="place" v="farm" />
		<tag k="ssr:stedsnr" v="124417" />
	</node>
	<node lat="59.55110292302781" lon="11.620774493230526" id="-26601">
		<tag k="alt_name" v="Gåseby nordre" />
		<tag k="name" v="Nordre Gåseby" />
		<tag k="place" v="farm" />
		<tag k="ssr:stedsnr" v="124420" />
	</node>
	<node lat="59.619733330210195" lon="11.547016667792457" id="-26605">
		<tag k="name" v="Fokkenborg" />
		<tag k="place" v="farm" />
		<tag k="ssr:stedsnr" v="125303" />
	</node>
	<node lat="59.62339496261595" lon="11.621998391220545" id="-26606">
		<tag k="alt_name" v="Tukun" />
		<tag k="name" v="Tukken" />
		<tag k="place" v="locality" />
		<tag k="ssr:stedsnr" v="125308" />
	</node>
	<node lat="59.63550764816884" lon="11.610599792210982" id="-26607">
		<tag k="loc_name" v="Nord-Åser" />
		<tag k="name" v="Åser" />
		<tag k="place" v="farm" />
		<tag k="ssr:stedsnr" v="125322" />
	</node>
	<node lat="59.50706666911086" lon="11.626894445499458" id="-26608">
		<tag k="name" v="Østre Tynnelsrud" />
		<tag k="old_name" v="Tønnelsrud;Tynnelsrud østre" />
		<tag k="place" v="farm" />
		<tag k="ssr:stedsnr" v="125397" />
	</node>
	<node lat="59.605872220513234" lon="11.61602777551937" id="-26609">
		<tag k="alt_name" v="Svendsby" />
		<tag k="name" v="Svensby" />
		<tag k="place" v="farm" />
		<tag k="ssr:stedsnr" v="125493" />
	</node>
	<node lat="59.46742777523539" lon="11.733699995421704" id="-26612">
		<tag k="name" v="Slora" />
		<tag k="place" v="isolated_dwelling" />
		<tag k="ssr:stedsnr" v="245562" />
	</node>
	<node lat="59.55268333284955" lon="11.645049994135702" id="-26618">
		<tag k="alt_name" v="Gåsebysetra" />
		<tag k="name" v="Gåsebysætra" />
		<tag k="place" v="farm" />
		<tag k="ssr:stedsnr" v="246451" />
	</node>
	<node lat="59.42608889036683" lon="11.721174992647683" id="-26620">
		<tag k="alt_name" v="Ledengsøgården" />
		<tag k="name" v="Ledengøgården" />
		<tag k="place" v="farm" />
		<tag k="ssr:stedsnr" v="246469" />
	</node>
	<node lat="59.415626587037295" lon="11.670887464794886" id="-26622">
		<tag k="name" v="Kirkeby" />
		<tag k="place" v="farm" />
		<tag k="ssr:stedsnr" v="246492" />
	</node>
	<node lat="59.41823055682749" lon="11.64535277993242" id="-26623">
		<tag k="alt_name" v="Nybo" />
		<tag k="name" v="Nybu" />
		<tag k="place" v="farm" />
		<tag k="ssr:stedsnr" v="246497" />
	</node>
	<node lat="59.427336108846426" lon="11.664194450922256" id="-26624">
		<tag k="name" v="Bærekas" />
		<tag k="place" v="farm" />
		<tag k="ssr:stedsnr" v="246473" />
	</node>
	<node lat="59.604440642528935" lon="11.609925487187734" id="-26629">
		<tag k="name" v="Jåvall" />
		<tag k="place" v="farm" />
		<tag k="ssr:stedsnr" v="247440" />
	</node>
	<node lat="59.506023131186446" lon="11.677928342619904" id="-26631">
		<tag k="alt_name" v="Askerud;Askerud nordre" />
		<tag k="name" v="Nordre Askerud" />
		<tag k="place" v="farm" />
		<tag k="ssr:stedsnr" v="247362" />
	</node>
	<node lat="59.50781032268439" lon="11.654048114870175" id="-26632">
		<tag k="name" v="Berger" />
		<tag k="place" v="farm" />
		<tag k="ssr:stedsnr" v="247364" />
	</node>
	<node lat="59.543202776889345" lon="11.569477785540945" id="-26634">
		<tag k="name" v="Oretaphaugen" />
		<tag k="place" v="farm" />
		<tag k="ssr:stedsnr" v="172518" />
	</node>
	<node lat="59.58377499711325" lon="11.652858324285436" id="-26635">
		<tag k="alt_name" v="Morttjernstua" />
		<tag k="historic" v="shieling" />
		<tag k="name" v="Morttjernhytta" />
		<tag k="place" v="isolated_dwelling" />
		<tag k="ssr:stedsnr" v="247409" />
	</node>
	<node lat="59.55625000033839" lon="11.583888886057657" id="-26638">
		<tag k="alt_name" v="Toketorp vestre" />
		<tag k="name" v="Vestre Toketorp" />
		<tag k="place" v="locality" />
		<tag k="ssr:stedsnr" v="173053" />
	</node>
	<node lat="59.583136107189304" lon="11.564499997732263" id="-26639">
		<tag k="name" v="Børresrud" />
		<tag k="place" v="hamlet" />
		<tag k="ssr:stedsnr" v="247417" />
	</node>
	<node lat="59.44414167075223" lon="11.679436112529356" id="-26655">
		<tag k="alt_name" v="Mårud østre" />
		<tag k="name" v="Østre Mårud" />
		<tag k="place" v="farm" />
		<tag k="ssr:stedsnr" v="173567" />
	</node>
	<node lat="59.48312499873032" lon="11.655272226069899" id="-26682">
		<tag k="name" v="Trollsund" />
		<tag k="place" v="farm" />
		<tag k="ssr:stedsnr" v="174788" />
	</node>
	<node lat="59.34179444407713" lon="11.73057221386538" id="-26683">
		<tag k="alt_name" v="Søndre Botten" />
		<tag k="name" v="Søndre Botn" />
		<tag k="old_name" v="Nordre Botten" />
		<tag k="place" v="farm" />
		<tag k="ssr:stedsnr" v="174815" />
	</node>
	<node lat="59.3858694454301" lon="11.627563893190347" id="-26685">
		<tag k="name" v="Slora" />
		<tag k="place" v="farm" />
		<tag k="ssr:stedsnr" v="185502" />
	</node>
	<node lat="59.38570555988028" lon="11.637450005574484" id="-26686">
		<tag k="alt_name" v="Halvorsrud, nordre;Halvorsrød;Halvorsrud" />
		<tag k="name" v="Nordre Halvorsrud" />
		<tag k="place" v="farm" />
		<tag k="ssr:stedsnr" v="185503" />
	</node>
	<node lat="59.33611388835327" lon="11.57751944007777" id="-26689">
		<tag k="name" v="Kvernekasa" />
		<tag k="place" v="farm" />
		<tag k="ssr:stedsnr" v="185714" />
	</node>
	<node lat="59.375888888750964" lon="11.69908611878657" id="-26691">
		<tag k="name" v="Stusrud" />
		<tag k="place" v="farm" />
		<tag k="ssr:stedsnr" v="185494" />
	</node>
	<node lat="59.36149722401307" lon="11.690005561903574" id="-26692">
		<tag k="name" v="Neset" />
		<tag k="place" v="farm" />
		<tag k="ssr:stedsnr" v="185674" />
	</node>
	<node lat="59.35163611426843" lon="11.784730558366519" id="-26695">
		<tag k="name" v="Styggemyr" />
		<tag k="place" v="locality" />
		<tag k="ssr:stedsnr" v="185696" />
	</node>
	<node lat="59.58563332967692" lon="11.61987500450465" id="-26697">
		<tag k="alt_name" v="Nystuen" />
		<tag k="name" v="Nystua" />
		<tag k="place" v="farm" />
		<tag k="ssr:stedsnr" v="186484" />
	</node>
	<node lat="59.39696389133625" lon="11.733444452566035" id="-26711">
		<tag k="name" v="Mellom-Eng" />
		<tag k="place" v="farm" />
		<tag k="ssr:stedsnr" v="233919" />
	</node>
	<node lat="59.494872221259094" lon="11.638649991873926" id="-26718">
		<tag k="name" v="Søndre Ysterud" />
		<tag k="place" v="farm" />
		<tag k="ssr:stedsnr" v="234216" />
	</node>
	<node lat="59.500716667718315" lon="11.68606111157743" id="-26720">
		<tag k="name" v="Fjellvang" />
		<tag k="place" v="farm" />
		<tag k="ssr:stedsnr" v="234248" />
	</node>
	<node lat="59.587602781154665" lon="11.567622225484815" id="-26723">
		<tag k="name" v="Folkenborg" />
		<tag k="place" v="farm" />
		<tag k="ssr:stedsnr" v="234149" />
	</node>
	<node lat="59.61769999792085" lon="11.644805562846605" id="-26734">
		<tag k="name" v="Slottet" />
		<tag k="place" v="locality" />
		<tag k="ssr:stedsnr" v="234607" />
	</node>
	<node lat="59.44475000133555" lon="11.718986119422917" id="-26746">
		<tag k="historic" v="shieling" />
		<tag k="name" v="Lømbusetret" />
		<tag k="old_name" v="Lømbusæter;Lømbuseter" />
		<tag k="place" v="isolated_dwelling" />
		<tag k="ssr:stedsnr" v="245587" />
	</node>
	<node lat="59.54319961466095" lon="11.579939074950095" id="-26749">
		<tag k="name" v="Kallak" />
		<tag k="place" v="farm" />
		<tag k="ssr:stedsnr" v="246432" />
	</node>
	<node lat="59.547566670515764" lon="11.555866674157054" id="-26750">
		<tag k="name" v="Holta" />
		<tag k="place" v="farm" />
		<tag k="ssr:stedsnr" v="246436" />
	</node>
	<node lat="59.5347976950745" lon="11.603796098602725" id="-26752">
		<tag k="name" v="Østenby" />
		<tag k="place" v="farm" />
		<tag k="ssr:stedsnr" v="246382" />
	</node>
	<node lat="59.400600346469986" lon="11.639398886321986" id="-26753">
		<tag k="name" v="Åsmundrud" />
		<tag k="place" v="farm" />
		<tag k="ssr:stedsnr" v="246506" />
	</node>
	<node lat="59.33891944830717" lon="11.68992500177485" id="-26757">
		<tag k="name" v="Haugen" />
		<tag k="place" v="farm" />
		<tag k="ssr:stedsnr" v="246699" />
	</node>
	<node lat="59.61871389191699" lon="11.619474992212497" id="-26759">
		<tag k="name" v="Hagan" />
		<tag k="place" v="locality" />
		<tag k="ssr:stedsnr" v="247274" />
	</node>
	<node lat="59.60972541733666" lon="11.575147586751687" id="-26761">
		<tag k="name" v="Rakkestad" />
		<tag k="place" v="farm" />
		<tag k="ssr:stedsnr" v="247436" />
	</node>
	<node lat="59.4885306300055" lon="11.693845631989612" id="-26762">
		<tag k="name" v="Lømmerud" />
		<tag k="place" v="farm" />
		<tag k="ssr:stedsnr" v="294106" />
	</node>
	<node lat="59.616522225064095" lon="11.533036104480912" id="-26787">
		<tag k="alt_name" v="Basmo" />
		<tag k="name" v="Basmoen" />
		<tag k="place" v="farm" />
		<tag k="ssr:stedsnr" v="295237" />
	</node>
	<node lat="59.617958333973164" lon="11.55990277368567" id="-26797">
		<tag k="name" v="Storløs" />
		<tag k="place" v="farm" />
		<tag k="ssr:stedsnr" v="295540" />
	</node>
	<node lat="59.58711666651113" lon="11.614038889733523" id="-26803">
		<tag k="name" v="Orderud søndre" />
		<tag k="place" v="farm" />
		<tag k="ssr:stedsnr" v="295752" />
	</node>
	<node lat="59.619855558174976" lon="11.576552786291225" id="-26811">
		<tag k="alt_name" v="Levik" />
		<tag k="name" v="Lervik" />
		<tag k="place" v="farm" />
		<tag k="ssr:stedsnr" v="307321" />
	</node>
	<node lat="59.61707500041514" lon="11.576463881958206" id="-26813">
		<tag k="name" v="Huset" />
		<tag k="place" v="farm" />
		<tag k="ssr:stedsnr" v="307481" />
	</node>
	<node lat="59.55821389214585" lon="11.598002779162643" id="-26814">
		<tag k="name" v="Bjørknes" />
		<tag k="place" v="farm" />
		<tag k="ssr:stedsnr" v="307505" />
	</node>
	<node lat="59.450202778541154" lon="11.580961103363476" id="-26818">
		<tag k="historic" v="shieling" />
		<tag k="name" v="Frøneseter" />
		<tag k="place" v="isolated_dwelling" />
		<tag k="ssr:stedsnr" v="354222" />
	</node>
	<node lat="59.37296111228526" lon="11.637269447758197" id="-26819">
		<tag k="name" v="Nordre Vestgård" />
		<tag k="place" v="farm" />
		<tag k="ssr:stedsnr" v="354308" />
	</node>
	<node lat="59.63727222561036" lon="11.607400008440273" id="-26832">
		<tag k="loc_name" v="Ødegården S" />
		<tag k="name" v="Ødegård" />
		<tag k="place" v="farm" />
		<tag k="ssr:stedsnr" v="355109" />
	</node>
	<node lat="59.63984722001832" lon="11.607138891886246" id="-26833">
		<tag k="alt_name" v="Nordgarden" />
		<tag k="name" v="Nordre Oppsal" />
		<tag k="old_name" v="Opsal" />
		<tag k="place" v="farm" />
		<tag k="ssr:stedsnr" v="355111" />
	</node>
	<node lat="59.58779999957313" lon="11.568627780088082" id="-26834">
		<tag k="alt_name" v="Folkenborg øvre" />
		<tag k="name" v="Øvre Folkenborg" />
		<tag k="place" v="farm" />
		<tag k="ssr:stedsnr" v="355164" />
	</node>
	<node lat="59.54184722091387" lon="11.629566672682754" id="-26839">
		<tag k="alt_name" v="Stillesby vestre" />
		<tag k="name" v="Vestre Stillesby" />
		<tag k="place" v="farm" />
		<tag k="ssr:stedsnr" v="355362" />
	</node>
	<node lat="59.445027774084224" lon="11.653166663008609" id="-26850">
		<tag k="name" v="Sundbråten" />
		<tag k="place" v="locality" />
		<tag k="ssr:stedsnr" v="355470" />
	</node>
	<node lat="59.49493888635433" lon="11.715975007832995" id="-26871">
		<tag k="alt_name" v="Allerud" />
		<tag k="name" v="Alerud" />
		<tag k="place" v="locality" />
		<tag k="ssr:stedsnr" v="366588" />
	</node>
	<node lat="59.38752775713152" lon="11.689429114349027" id="-26876">
		<tag k="name" v="Volen" />
		<tag k="place" v="farm" />
		<tag k="ssr:stedsnr" v="367493" />
	</node>
	<node lat="59.58579693064738" lon="11.56993155101933" id="-26880">
		<tag k="name" v="Folkenborg" />
		<tag k="place" v="farm" />
		<tag k="ssr:stedsnr" v="368480" />
	</node>
	<node lat="59.53059444258275" lon="11.606349999329007" id="-26888">
		<tag k="name" v="Vestre Krossby" />
		<tag k="place" v="farm" />
		<tag k="ssr:stedsnr" v="415498" />
	</node>
	<node lat="59.49926111183662" lon="11.632188883140811" id="-26893">
		<tag k="name" v="Ysterudødegården" />
		<tag k="place" v="farm" />
		<tag k="ssr:stedsnr" v="416203" />
	</node>
	<node lat="59.489119447832316" lon="11.661377769928833" id="-26895">
		<tag k="name" v="Østre Mosebyødegården" />
		<tag k="place" v="farm" />
		<tag k="ssr:stedsnr" v="416215" />
	</node>
	<node lat="59.58329636337068" lon="11.55557649603569" id="-26900">
		<tag k="alt_name" v="Klerud søndre" />
		<tag k="name" v="Søndre Klerud" />
		<tag k="place" v="farm" />
		<tag k="ssr:stedsnr" v="416197" />
	</node>
	<node lat="59.495533336031336" lon="11.638772223441377" id="-26902">
		<tag k="name" v="Nordre Ysterud" />
		<tag k="place" v="farm" />
		<tag k="ssr:stedsnr" v="416201" />
	</node>
	<node lat="59.37722777507007" lon="11.693169449265744" id="-26909">
		<tag k="name" v="Brattås" />
		<tag k="place" v="farm" />
		<tag k="ssr:stedsnr" v="416455" />
	</node>
	<node lat="59.45842222307616" lon="11.663341663147284" id="-26911">
		<tag k="alt_name" v="Anonby vestre" />
		<tag k="name" v="Vestre Anonby" />
		<tag k="place" v="farm" />
		<tag k="ssr:stedsnr" v="416458" />
	</node>
	<node lat="59.44107499805887" lon="11.679530562105185" id="-26915">
		<tag k="alt_name" v="Mårud søndre" />
		<tag k="name" v="Søndre Mårud" />
		<tag k="place" v="farm" />
		<tag k="ssr:stedsnr" v="416561" />
	</node>
	<node lat="59.35288055670727" lon="11.738661104343338" id="-26917">
		<tag k="name" v="Huken" />
		<tag k="place" v="locality" />
		<tag k="ssr:stedsnr" v="416764" />
	</node>
	<node lat="59.371352779272385" lon="11.637672220082104" id="-26944">
		<tag k="name" v="Søndre Vestgård" />
		<tag k="place" v="farm" />
		<tag k="ssr:stedsnr" v="476283" />
	</node>
	<node lat="59.54033889311454" lon="11.629891665475673" id="-26945">
		<tag k="name" v="Søby" />
		<tag k="place" v="farm" />
		<tag k="ssr:stedsnr" v="476389" />
	</node>
	<node lat="59.385394443717125" lon="11.679166660050377" id="-26949">
		<tag k="name" v="Herrud" />
		<tag k="place" v="farm" />
		<tag k="ssr:stedsnr" v="476494" />
	</node>
	<node lat="59.63470555989806" lon="11.69302221755065" id="-26956">
		<tag k="name" v="Østre Jåvallsetra" />
		<tag k="place" v="locality" />
		<tag k="ssr:stedsnr" v="476549" />
	</node>
	<node lat="59.49772531641529" lon="11.681065919638812" id="-26963">
		<tag k="alt_name" v="Askerud søndre" />
		<tag k="name" v="Søndre Askerud" />
		<tag k="place" v="farm" />
		<tag k="ssr:stedsnr" v="427580" />
	</node>
	<node lat="59.49326944253048" lon="11.695169443998138" id="-26964">
		<tag k="name" v="Elverum" />
		<tag k="place" v="farm" />
		<tag k="ssr:stedsnr" v="427585" />
	</node>
	<node lat="59.48023055123661" lon="11.660166672459404" id="-26967">
		<tag k="name" v="Ørje" />
		<tag k="place" v="village" />
		<tag k="ssr:stedsnr" v="427593" />
	</node>
	<node lat="59.34550928443208" lon="11.639384334456986" id="-26975">
		<tag k="name" v="Slevika" />
		<tag k="place" v="farm" />
		<tag k="ssr:stedsnr" v="428714" />
	</node>
	<node lat="59.3427590480619" lon="11.766003338355752" id="-26976">
		<tag k="alt_name" v="Sundsdalen" />
		<tag k="name" v="Sundsdal" />
		<tag k="place" v="isolated_dwelling" />
		<tag k="ssr:stedsnr" v="428716" />
	</node>
	<node lat="59.372069447701804" lon="11.67968055278463" id="-26980">
		<tag k="name" v="Bjørnstad" />
		<tag k="place" v="farm" />
		<tag k="ssr:stedsnr" v="428674" />
	</node>
	<node lat="59.617399998964416" lon="11.60834167057809" id="-26991">
		<tag k="alt_name" v="Krok østre" />
		<tag k="name" v="Østre Krok" />
		<tag k="place" v="farm" />
		<tag k="ssr:stedsnr" v="477150" />
	</node>
	<node lat="59.58918720764932" lon="11.593610155328497" id="-26992">
		<tag k="name" v="Rødenes prestegård" />
		<tag k="place" v="farm" />
		<tag k="ssr:stedsnr" v="477152" />
	</node>
	<node lat="59.58918333236015" lon="11.579577785250882" id="-26993">
		<tag k="name" v="Krone" />
		<tag k="place" v="farm" />
		<tag k="ssr:stedsnr" v="477160" />
	</node>
	<node lat="59.590836113672125" lon="11.55248889147202" id="-26996">
		<tag k="name" v="Orekleiva" />
		<tag k="place" v="farm" />
		<tag k="ssr:stedsnr" v="477193" />
	</node>
	<node lat="59.568591670674515" lon="11.57856667062547" id="-26999">
		<tag k="alt_name" v="Vikeby mellem" />
		<tag k="name" v="Mellom-Vikeby" />
		<tag k="place" v="farm" />
		<tag k="ssr:stedsnr" v="477245" />
	</node>
	<node lat="59.572703928077715" lon="11.587108920730145" id="-27011">
		<tag k="name" v="Sjøli" />
		<tag k="place" v="farm" />
		<tag k="ssr:stedsnr" v="477534" />
	</node>
	<node lat="59.613044442280525" lon="11.557577773469092" id="-27015">
		<tag k="name" v="Storløsødegården" />
		<tag k="place" v="farm" />
		<tag k="ssr:stedsnr" v="477560" />
	</node>
	<node lat="59.4502666710458" lon="11.693049991822285" id="-27020">
		<tag k="name" v="Granlund" />
		<tag k="place" v="farm" />
		<tag k="ssr:stedsnr" v="477745" />
	</node>
	<node lat="59.483449999099186" lon="11.668033340334835" id="-27021">
		<tag k="name" v="Solheim" />
		<tag k="place" v="farm" />
		<tag k="ssr:stedsnr" v="477754" />
	</node>
	<node lat="59.47952221788569" lon="11.659174998531368" id="-27022">
		<tag k="amenity" v="townhall" />
		<tag k="name" v="Marker rådhus" />
		<tag k="ssr:stedsnr" v="477755" />
	</node>
	<node lat="59.4773527820549" lon="11.658050000919683" id="-27023">
		<tag k="amenity" v="school" />
		<tag k="name" v="Ørje skole" />
		<tag k="ssr:stedsnr" v="477756" />
	</node>
	<node lat="59.34166666324194" lon="11.737052773913055" id="-27024">
		<tag k="name" v="Trulsebakken" />
		<tag k="place" v="locality" />
		<tag k="ssr:stedsnr" v="477825" />
	</node>
	<node lat="59.37580832978147" lon="11.688269449202766" id="-27041">
		<tag k="name" v="Kleven" />
		<tag k="place" v="farm" />
		<tag k="ssr:stedsnr" v="476319" />
	</node>
	<node lat="59.38788889285015" lon="11.663933338103256" id="-27046">
		<tag k="name" v="Ytterbøl" />
		<tag k="place" v="farm" />
		<tag k="ssr:stedsnr" v="476520" />
	</node>
	<node lat="59.40334166699279" lon="11.694169450171954" id="-27048">
		<tag k="name" v="Vestre Stikle" />
		<tag k="place" v="farm" />
		<tag k="ssr:stedsnr" v="476577" />
	</node>
	<node lat="59.39005555128854" lon="11.627572223606077" id="-27054">
		<tag k="name" v="Langedal" />
		<tag k="place" v="locality" />
		<tag k="ssr:stedsnr" v="476819" />
	</node>
	<node lat="59.38483055377139" lon="11.66550833231342" id="-27055">
		<tag k="name" v="Ytterbøl" />
		<tag k="place" v="farm" />
		<tag k="ssr:stedsnr" v="476821" />
	</node>
	<node lat="59.59576388930199" lon="11.632627776879282" id="-27072">
		<tag k="name" v="Tørkås" />
		<tag k="place" v="locality" />
		<tag k="ssr:stedsnr" v="477323" />
	</node>
	<node lat="59.39540277682744" lon="11.721338891518782" id="-27075">
		<tag k="name" v="Fossen" />
		<tag k="place" v="farm" />
		<tag k="ssr:stedsnr" v="477508" />
	</node>
	<node lat="59.609897220526854" lon="11.666283328394314" id="-27082">
		<tag k="name" v="Ulfsbysetra" />
		<tag k="place" v="locality" />
		<tag k="ssr:stedsnr" v="477976" />
	</node>
	<node lat="59.53012535588365" lon="11.608586900681248" id="-27084">
		<tag k="name" v="Østre Krossby" />
		<tag k="place" v="farm" />
		<tag k="ssr:stedsnr" v="484925" />
	</node>
	<node lat="59.34240964213307" lon="11.626645813660922" id="-27086">
		<tag k="name" v="Damholtet" />
		<tag k="place" v="farm" />
		<tag k="ssr:stedsnr" v="488724" />
	</node>
	<node lat="59.34347500009436" lon="11.672358340716924" id="-27087">
		<tag k="alt_name" v="Husporn" />
		<tag k="name" v="Husborn" />
		<tag k="place" v="farm" />
		<tag k="ssr:stedsnr" v="488726" />
	</node>
	<node lat="59.390736111784285" lon="11.735638885530571" id="-27091">
		<tag k="alt_name" v="Taskerud nordre" />
		<tag k="name" v="Nordre Taskerud" />
		<tag k="place" v="farm" />
		<tag k="ssr:stedsnr" v="494902" />
	</node>
	<node lat="59.378553858951804" lon="11.623833700769843" id="-27092">
		<tag k="name" v="Igletjern" />
		<tag k="place" v="farm" />
		<tag k="ssr:stedsnr" v="670510" />
	</node>
	<node lat="59.42547778004822" lon="11.752072228408391" id="-27096">
		<tag k="alt_name" v="Slakleva" />
		<tag k="name" v="Slakleiva" />
		<tag k="place" v="farm" />
		<tag k="ssr:stedsnr" v="670463" />
	</node>
	<node lat="59.47708611274174" lon="11.688247228645611" id="-27098">
		<tag k="alt_name" v="Gjølsjøødegården søndre;Søndre Gjølsjø Ødegården" />
		<tag k="name" v="Søndre Gjølsjøødegården" />
		<tag k="place" v="farm" />
		<tag k="ssr:stedsnr" v="670567" />
	</node>
	<node lat="59.459273316295835" lon="11.708540021358578" id="-27099">
		<tag k="name" v="Søbyskogen" />
		<tag k="place" v="locality" />
		<tag k="ssr:stedsnr" v="670568" />
	</node>
	<node lat="59.34699668647408" lon="11.702219981151124" id="-27101">
		<tag k="name" v="Grislingås" />
		<tag k="place" v="farm" />
		<tag k="ssr:stedsnr" v="670720" />
	</node>
	<node lat="59.579124056543726" lon="11.562702650041407" id="-27102">
		<tag k="name" v="Taraldrud" />
		<tag k="place" v="farm" />
		<tag k="ssr:stedsnr" v="671432" />
	</node>
	<node lat="59.59070278180609" lon="11.55981388138823" id="-27103">
		<tag k="name" v="Tommelsrud" />
		<tag k="place" v="farm" />
		<tag k="ssr:stedsnr" v="671442" />
	</node>
	<node lat="59.632519446768256" lon="11.655802786711542" id="-27106">
		<tag k="fixme" v="multiple name tags, choose one and add the other to alt_name" />
		<tag k="name" v="Fluetjernshytta;Fluetjernsstua" />
		<tag k="place" v="isolated_dwelling" />
		<tag k="ssr:stedsnr" v="671287" />
	</node>
	<node lat="59.50146375666134" lon="11.658841011999016" id="-27109">
		<tag k="name" v="Moseby" />
		<tag k="place" v="farm" />
		<tag k="ssr:stedsnr" v="671369" />
	</node>
	<node lat="59.604388890640756" lon="11.575283341805306" id="-27110">
		<tag k="name" v="Moserud" />
		<tag k="place" v="farm" />
		<tag k="ssr:stedsnr" v="671464" />
	</node>
	<node lat="59.501969442471896" lon="11.677094439066169" id="-27123">
		<tag k="name" v="Søndre Engerbråten" />
		<tag k="place" v="farm" />
		<tag k="ssr:stedsnr" v="537185" />
	</node>
	<node lat="59.571521770590344" lon="11.573015702840213" id="-27127">
		<tag k="name" v="Vikeby" />
		<tag k="place" v="farm" />
		<tag k="ssr:stedsnr" v="537234" />
	</node>
	<node lat="59.53535714031952" lon="11.658172377406373" id="-27132">
		<tag k="alt_name" v="Bråten" />
		<tag k="name" v="Høgåsbråten" />
		<tag k="place" v="locality" />
		<tag k="ssr:stedsnr" v="537429" />
	</node>
	<node lat="59.43102499904615" lon="11.729261118456716" id="-27135">
		<tag k="name" v="Østengen" />
		<tag k="place" v="farm" />
		<tag k="ssr:stedsnr" v="537508" />
	</node>
	<node lat="59.44485555955701" lon="11.677447213825223" id="-27138">
		<tag k="alt_name" v="Mårud vestre" />
		<tag k="name" v="Vestre Mårud" />
		<tag k="place" v="farm" />
		<tag k="ssr:stedsnr" v="537578" />
	</node>
	<node lat="59.64234166301891" lon="11.70958888630519" id="-27169">
		<tag k="alt_name" v="Svendsbysetra" />
		<tag k="historic" v="shieling" />
		<tag k="name" v="Svensbysetra" />
		<tag k="place" v="isolated_dwelling" />
		<tag k="ssr:stedsnr" v="538483" />
	</node>
	<node lat="59.441966665455375" lon="11.716788890825848" id="-27172">
		<tag k="name" v="Myra" />
		<tag k="place" v="farm" />
		<tag k="ssr:stedsnr" v="538733" />
	</node>
	<node lat="59.354180552485104" lon="11.742266673711045" id="-27173">
		<tag k="name" v="Zimmergården" />
		<tag k="place" v="isolated_dwelling" />
		<tag k="ssr:stedsnr" v="538804" />
	</node>
	<node lat="59.35171111510534" lon="11.741347216488437" id="-27174">
		<tag k="name" v="Soot-gården" />
		<tag k="place" v="locality" />
		<tag k="ssr:stedsnr" v="538808" />
	</node>
	<node lat="59.40511666816248" lon="11.649266659522706" id="-27176">
		<tag k="name" v="Solås hyttefelt" />
		<tag k="place" v="neighbourhood" />
		<tag k="ssr:stedsnr" v="541685" />
	</node>
	<node lat="59.506655554391195" lon="11.626791665146566" id="-27177">
		<tag k="name" v="Tynnelsrud" />
		<tag k="place" v="locality" />
		<tag k="ssr:stedsnr" v="545075" />
	</node>
	<node lat="59.43450555190917" lon="11.736386111413351" id="-27178">
		<tag k="name" v="Furulund" />
		<tag k="place" v="farm" />
		<tag k="ssr:stedsnr" v="548522" />
	</node>
	<node lat="59.42881388617012" lon="11.648633326121862" id="-27179">
		<tag k="alt_name" v="Djupedal søndre;Dypedal søndre" />
		<tag k="name" v="Søndre Djupedal" />
		<tag k="place" v="farm" />
		<tag k="ssr:stedsnr" v="548528" />
	</node>
	<node lat="59.385397219377936" lon="11.738677780320883" id="-27180">
		<tag k="name" v="Engsbråten" />
		<tag k="place" v="farm" />
		<tag k="ssr:stedsnr" v="548564" />
	</node>
	<node lat="59.44178099137337" lon="11.69805028205129" id="-27185">
		<tag k="name" v="Kasbu" />
		<tag k="old_name" v="Kasebu" />
		<tag k="place" v="farm" />
		<tag k="ssr:stedsnr" v="548604" />
	</node>
	<node lat="59.63839166440279" lon="11.61933888100941" id="-27186">
		<tag k="name" v="Østby" />
		<tag k="place" v="farm" />
		<tag k="ssr:stedsnr" v="549305" />
	</node>
	<node lat="59.63191397883748" lon="11.564402065167508" id="-27187">
		<tag k="alt_name" v="Setra" />
		<tag k="name" v="Sætra" />
		<tag k="place" v="locality" />
		<tag k="ssr:stedsnr" v="549311" />
	</node>
	<node lat="59.394005556369095" lon="11.75963334030537" id="-27190">
		<tag k="name" v="Ekenes" />
		<tag k="place" v="locality" />
		<tag k="ssr:stedsnr" v="549505" />
	</node>
	<node lat="59.41100000204922" lon="11.708861114910494" id="-27191">
		<tag k="name" v="Solbrekke" />
		<tag k="place" v="farm" />
		<tag k="ssr:stedsnr" v="549518" />
	</node>
	<node lat="59.379782057771834" lon="11.682600895093849" id="-27192">
		<tag k="name" v="Vakthaugen" />
		<tag k="place" v="isolated_dwelling" />
		<tag k="ssr:stedsnr" v="549525" />
	</node>
	<node lat="59.50163610958183" lon="11.57750277551907" id="-27194">
		<tag k="name" v="Holohytta" />
		<tag k="place" v="isolated_dwelling" />
		<tag k="ssr:stedsnr" v="550361" />
	</node>
	<node lat="59.51242566918418" lon="11.624042223922713" id="-27196">
		<tag k="name" v="Vik" />
		<tag k="place" v="farm" />
		<tag k="ssr:stedsnr" v="550375" />
	</node>
	<node lat="59.38601944303998" lon="11.722261117695176" id="-27204">
		<tag k="name" v="Spjutnes" />
		<tag k="place" v="farm" />
		<tag k="ssr:stedsnr" v="597516" />
	</node>
	<node lat="59.38699133876506" lon="11.692576498939896" id="-27205">
		<tag k="name" v="Volen" />
		<tag k="place" v="farm" />
		<tag k="ssr:stedsnr" v="597519" />
	</node>
	<node lat="59.40218888664969" lon="11.668086113532597" id="-27212">
		<tag k="name" v="Fløvik" />
		<tag k="place" v="farm" />
		<tag k="ssr:stedsnr" v="597562" />
	</node>
	<node lat="59.466458331643" lon="11.57628611106377" id="-27213">
		<tag k="name" v="Nysterudsetra" />
		<tag k="place" v="locality" />
		<tag k="ssr:stedsnr" v="597862" />
	</node>
	<node lat="59.56936389267291" lon="11.613511118277042" id="-27218">
		<tag k="name" v="Degnes store nordre" />
		<tag k="place" v="farm" />
		<tag k="ssr:stedsnr" v="598018" />
	</node>
	<node lat="59.60778610664639" lon="11.532305556687868" id="-27232">
		<tag k="alt_name" v="Skrikerud nordre" />
		<tag k="name" v="Nordre Skrikerud" />
		<tag k="place" v="farm" />
		<tag k="ssr:stedsnr" v="598520" />
	</node>
	<node lat="59.512180559217676" lon="11.661447217344774" id="-27236">
		<tag k="alt_name" v="Sukken søndre" />
		<tag k="name" v="Søndre Sukken" />
		<tag k="place" v="farm" />
		<tag k="ssr:stedsnr" v="598266" />
	</node>
	<node lat="59.47692499546554" lon="11.650441672842733" id="-27241">
		<tag k="name" v="Diskerud" />
		<tag k="place" v="farm" />
		<tag k="ssr:stedsnr" v="598704" />
	</node>
	<node lat="59.47115833145105" lon="11.699480563115847" id="-27245">
		<tag k="name" v="Åseby" />
		<tag k="place" v="farm" />
		<tag k="ssr:stedsnr" v="609548" />
	</node>
	<node lat="59.500360642307726" lon="11.671286656964218" id="-27246">
		<tag k="name" v="Enger" />
		<tag k="place" v="farm" />
		<tag k="ssr:stedsnr" v="610408" />
	</node>
	<node lat="59.58780333829869" lon="11.61437435751165" id="-27247">
		<tag k="name" v="Olerud" />
		<tag k="place" v="farm" />
		<tag k="ssr:stedsnr" v="610483" />
	</node>
	<node lat="59.57710000272766" lon="11.5422694459348" id="-27248">
		<tag k="name" v="Ådal" />
		<tag k="place" v="locality" />
		<tag k="ssr:stedsnr" v="610485" />
	</node>
	<node lat="59.560821062417226" lon="11.591829408498972" id="-27249">
		<tag k="name" v="Huser" />
		<tag k="place" v="farm" />
		<tag k="ssr:stedsnr" v="610535" />
	</node>
	<node lat="59.572259865905096" lon="11.612369658184104" id="-27251">
		<tag k="alt_name" v="Degnes mellem" />
		<tag k="name" v="Mellom-Degnes" />
		<tag k="place" v="farm" />
		<tag k="ssr:stedsnr" v="610541" />
	</node>
	<node lat="59.555603946557056" lon="11.629377709275932" id="-27256">
		<tag k="name" v="Slupstad" />
		<tag k="place" v="farm" />
		<tag k="ssr:stedsnr" v="656140" />
	</node>
	<node lat="59.46019166234973" lon="11.667841671334433" id="-27263">
		<tag k="alt_name" v="Anonby nordre" />
		<tag k="name" v="Nordre Anonby" />
		<tag k="place" v="farm" />
		<tag k="ssr:stedsnr" v="658496" />
	</node>
	<node lat="59.34632777832171" lon="11.724691658960152" id="-27266">
		<tag k="name" v="Kasa" />
		<tag k="place" v="farm" />
		<tag k="ssr:stedsnr" v="658337" />
	</node>
	<node lat="59.40506608765356" lon="11.649894232473569" id="-27268">
		<tag k="alt_name" v="Solås" />
		<tag k="name" v="Svelta" />
		<tag k="place" v="farm" />
		<tag k="ssr:stedsnr" v="658503" />
	</node>
	<node lat="59.41637778156969" lon="11.649477777569885" id="-27272">
		<tag k="name" v="Busvenbua" />
		<tag k="place" v="farm" />
		<tag k="ssr:stedsnr" v="658546" />
	</node>
	<node lat="59.4029333364898" lon="11.693977786232576" id="-27273">
		<tag k="alt_name" v="Mellem Stikle" />
		<tag k="name" v="Mellom-Stikle" />
		<tag k="place" v="farm" />
		<tag k="ssr:stedsnr" v="658586" />
	</node>
	<node lat="59.60645555243957" lon="11.577552782001177" id="-27280">
		<tag k="name" v="Ødegård" />
		<tag k="place" v="farm" />
		<tag k="ssr:stedsnr" v="658894" />
	</node>
	<node lat="59.63316388627041" lon="11.627394443458495" id="-27310">
		<tag k="name" v="Sandbekk" />
		<tag k="place" v="farm" />
		<tag k="ssr:stedsnr" v="659545" />
	</node>
	<node lat="59.345163871491756" lon="11.761678831646542" id="-27315">
		<tag k="name" v="Holtevik" />
		<tag k="place" v="isolated_dwelling" />
		<tag k="ssr:stedsnr" v="659802" />
	</node>
	<node lat="59.41946111055865" lon="11.739488893316642" id="-27320">
		<tag k="name" v="Årbogen" />
		<tag k="place" v="farm" />
		<tag k="ssr:stedsnr" v="670466" />
	</node>
	<node lat="59.411052781449236" lon="11.667480561658403" id="-27322">
		<tag k="name" v="Skogheim" />
		<tag k="place" v="farm" />
		<tag k="ssr:stedsnr" v="670481" />
	</node>
	<node lat="59.46633055121448" lon="11.667211111239142" id="-27324">
		<tag k="alt_name" v="Bøn;Bøen østre" />
		<tag k="name" v="Østre Bøen" />
		<tag k="place" v="farm" />
		<tag k="ssr:stedsnr" v="670554" />
	</node>
	<node lat="59.47451666611317" lon="11.64599444633819" id="-27325">
		<tag k="alt_name" v="Ørjetun" />
		<tag k="amenity" v="hospital" />
		<tag k="name" v="Ørje kursted" />
		<tag k="ssr:stedsnr" v="670556" />
	</node>
	<node lat="59.45368453875614" lon="11.637400006946784" id="-27326">
		<tag k="name" v="Jaren" />
		<tag k="place" v="farm" />
		<tag k="ssr:stedsnr" v="670577" />
	</node>
	<node lat="59.453480142194365" lon="11.692405679018878" id="-27327">
		<tag k="name" v="Søby" />
		<tag k="place" v="farm" />
		<tag k="ssr:stedsnr" v="670593" />
	</node>
	<node lat="59.44753889024528" lon="11.691561110337364" id="-27328">
		<tag k="alt_name" v="Sevland" />
		<tag k="name" v="Seveland" />
		<tag k="place" v="farm" />
		<tag k="ssr:stedsnr" v="670594" />
	</node>
	<node lat="59.448094445153956" lon="11.698927769173054" id="-27329">
		<tag k="name" v="Spekkebu" />
		<tag k="place" v="farm" />
		<tag k="ssr:stedsnr" v="670596" />
	</node>
	<node lat="59.3509499989113" lon="11.645025003105584" id="-27330">
		<tag k="name" v="Lia" />
		<tag k="place" v="farm" />
		<tag k="ssr:stedsnr" v="670705" />
	</node>
	<node lat="59.363862348198055" lon="11.678013387137366" id="-27333">
		<tag k="name" v="Gråbøl" />
		<tag k="place" v="farm" />
		<tag k="ssr:stedsnr" v="670691" />
	</node>
	<node lat="59.35662222187604" lon="11.77579444959243" id="-27334">
		<tag k="name" v="Nordre Torgrimsbu" />
		<tag k="place" v="farm" />
		<tag k="ssr:stedsnr" v="670697" />
	</node>
	<node lat="59.51710277708278" lon="11.67516666689656" id="-27336">
		<tag k="alt_name" v="Slepa" />
		<tag k="name" v="Vestli" />
		<tag k="place" v="farm" />
		<tag k="ssr:stedsnr" v="671376" />
	</node>
	<node lat="59.399324997083085" lon="11.670188895978965" id="-27353">
		<tag k="name" v="Fløvik" />
		<tag k="place" v="farm" />
		<tag k="ssr:stedsnr" v="719526" />
	</node>
	<node lat="59.60595555451552" lon="11.586394444238422" id="-27374">
		<tag k="name" v="Nygård" />
		<tag k="place" v="farm" />
		<tag k="ssr:stedsnr" v="719894" />
	</node>
	<node lat="59.509938892927835" lon="11.654569447981919" id="-27384">
		<tag k="alt_name" v="Berger nordre" />
		<tag k="name" v="Nordre Berger" />
		<tag k="place" v="farm" />
		<tag k="ssr:stedsnr" v="720276" />
	</node>
	<node lat="59.35111111463798" lon="11.755338887203674" id="-27393">
		<tag k="name" v="Kleva" />
		<tag k="place" v="isolated_dwelling" />
		<tag k="ssr:stedsnr" v="720823" />
	</node>
	<node lat="59.35666389006648" lon="11.74248610803139" id="-27394">
		<tag k="name" v="Sootødegården" />
		<tag k="place" v="locality" />
		<tag k="ssr:stedsnr" v="720825" />
	</node>
	<node lat="59.512002780710255" lon="11.627054993393683" id="-27395">
		<tag k="name" v="Vik" />
		<tag k="place" v="farm" />
		<tag k="ssr:stedsnr" v="727496" />
	</node>
	<node lat="59.44059785060519" lon="11.736659895399214" id="-27396">
		<tag k="loc_name" v="Sætret" />
		<tag k="name" v="Sætre" />
		<tag k="place" v="farm" />
		<tag k="ssr:stedsnr" v="730671" />
	</node>
	<node lat="59.45399710871601" lon="11.700389539438921" id="-27397">
		<tag k="name" v="Nordre Ankerud" />
		<tag k="place" v="farm" />
		<tag k="ssr:stedsnr" v="730674" />
	</node>
	<node lat="59.38251979077552" lon="11.680825659091749" id="-27398">
		<tag k="name" v="Herrud" />
		<tag k="place" v="farm" />
		<tag k="ssr:stedsnr" v="731511" />
	</node>
	<node lat="59.3508750013188" lon="11.740099997445801" id="-27399">
		<tag k="name" v="Otteid" />
		<tag k="place" v="farm" />
		<tag k="ssr:stedsnr" v="731706" />
	</node>
	<node lat="59.31738820458254" lon="11.808732527862766" id="-27402">
		<tag k="name" v="Løvik" />
		<tag k="place" v="isolated_dwelling" />
		<tag k="ssr:stedsnr" v="731607" />
	</node>
	<node lat="59.358294443587475" lon="11.696649996933406" id="-27404">
		<tag k="alt_name" v="Gunneng søndre;Gundeng søndre;Gunneng" />
		<tag k="name" v="Søndre Gunneng" />
		<tag k="place" v="farm" />
		<tag k="ssr:stedsnr" v="731685" />
	</node>
	<node lat="59.63018888610473" lon="11.560030547053405" id="-27406">
		<tag k="name" v="Bjørnstad" />
		<tag k="place" v="farm" />
		<tag k="ssr:stedsnr" v="732309" />
	</node>
	<node lat="59.57605799340959" lon="11.512720077039734" id="-27407">
		<tag k="alt_name" v="Buviken" />
		<tag k="name" v="Buvika" />
		<tag k="place" v="farm" />
		<tag k="ssr:stedsnr" v="732466" />
	</node>
	<node lat="59.59036388900463" lon="11.5745805536037" id="-27408">
		<tag k="name" v="Klokkerud" />
		<tag k="place" v="farm" />
		<tag k="ssr:stedsnr" v="732473" />
	</node>
	<node lat="59.559111112892865" lon="11.638277784443758" id="-27409">
		<tag k="name" v="Brattli" />
		<tag k="place" v="farm" />
		<tag k="ssr:stedsnr" v="732508" />
	</node>
	<node lat="59.5533666640409" lon="11.625863888955957" id="-27410">
		<tag k="name" v="Slupstad" />
		<tag k="place" v="farm" />
		<tag k="ssr:stedsnr" v="899149" />
	</node>
	<node lat="59.35586389006171" lon="11.713808336754209" id="-27414">
		<tag k="name" v="Stordal" />
		<tag k="place" v="isolated_dwelling" />
		<tag k="ssr:stedsnr" v="779263" />
	</node>
	<node lat="59.540436110030974" lon="11.569408338684383" id="-27416">
		<tag k="name" v="Granli" />
		<tag k="place" v="farm" />
		<tag k="ssr:stedsnr" v="779456" />
	</node>
	<node lat="59.40654999600395" lon="11.707272216533804" id="-27418">
		<tag k="name" v="Stikle-Ødegården" />
		<tag k="place" v="locality" />
		<tag k="ssr:stedsnr" v="779603" />
	</node>
	<node lat="59.49034167015376" lon="11.681527783021899" id="-27421">
		<tag k="name" v="Søndre Sletta" />
		<tag k="place" v="farm" />
		<tag k="ssr:stedsnr" v="780021" />
	</node>
	<node lat="59.398389929973504" lon="11.736644077561985" id="-27424">
		<tag k="name" v="Nordre Eng" />
		<tag k="place" v="farm" />
		<tag k="ssr:stedsnr" v="779905" />
	</node>
	<node lat="59.45246666857108" lon="11.735491675367195" id="-27426">
		<tag k="name" v="Østre Sloreby" />
		<tag k="place" v="farm" />
		<tag k="ssr:stedsnr" v="779919" />
	</node>
	<node lat="59.58705832971643" lon="11.568855550316066" id="-27430">
		<tag k="alt_name" v="Folkenborg nedre" />
		<tag k="name" v="Nedre Folkenborg" />
		<tag k="place" v="farm" />
		<tag k="ssr:stedsnr" v="780169" />
	</node>
	<node lat="59.40278889016671" lon="11.67211666777861" id="-27445">
		<tag k="name" v="Fløvik" />
		<tag k="place" v="farm" />
		<tag k="ssr:stedsnr" v="780508" />
	</node>
	<node lat="59.6134472178911" lon="11.6498805531227" id="-27448">
		<tag k="loc_name" v="Nedre Jørnhaugen" />
		<tag k="name" v="Jørnhaugen" />
		<tag k="place" v="locality" />
		<tag k="ssr:stedsnr" v="780567" />
	</node>
	<node lat="59.53851944317202" lon="11.65147500169609" id="-27468">
		<tag k="name" v="Søndre Høgås" />
		<tag k="place" v="farm" />
		<tag k="ssr:stedsnr" v="901401" />
	</node>
	<node lat="59.48030278154829" lon="11.596275007604259" id="-27479">
		<tag k="name" v="Jonsvik" />
		<tag k="place" v="isolated_dwelling" />
		<tag k="ssr:stedsnr" v="901836" />
	</node>
	<node lat="59.395980073805" lon="11.732409438567792" id="-27488">
		<tag k="name" v="Eng" />
		<tag k="place" v="farm" />
		<tag k="ssr:stedsnr" v="792516" />
	</node>
	<node lat="59.388241666259276" lon="11.649800001095592" id="-27489">
		<tag k="name" v="Duenes" />
		<tag k="place" v="farm" />
		<tag k="ssr:stedsnr" v="792534" />
	</node>
	<node lat="59.42408055377687" lon="11.648494441125901" id="-27492">
		<tag k="name" v="Bernhus" />
		<tag k="place" v="farm" />
		<tag k="ssr:stedsnr" v="792496" />
	</node>
	<node lat="59.513591663372665" lon="11.647055555326256" id="-27500">
		<tag k="name" v="Gromholt" />
		<tag k="place" v="farm" />
		<tag k="ssr:stedsnr" v="793403" />
	</node>
	<node lat="59.51201573170675" lon="11.655056978067204" id="-27501">
		<tag k="name" v="Sukken" />
		<tag k="place" v="farm" />
		<tag k="ssr:stedsnr" v="793404" />
	</node>
	<node lat="59.60552407438211" lon="11.532404593374588" id="-27504">
		<tag k="name" v="Skrikerud" />
		<tag k="place" v="farm" />
		<tag k="ssr:stedsnr" v="793503" />
	</node>
	<node lat="59.60545463392177" lon="11.55841087322619" id="-27505">
		<tag k="alt_name" v="Skislet" />
		<tag k="name" v="Skislett" />
		<tag k="place" v="farm" />
		<tag k="ssr:stedsnr" v="793508" />
	</node>
	<node lat="59.64133055969925" lon="11.589419440728914" id="-27510">
		<tag k="name" v="Svelta" />
		<tag k="place" v="locality" />
		<tag k="ssr:stedsnr" v="902083" />
	</node>
	<node lat="59.63971388503401" lon="11.57710277132945" id="-27512">
		<tag k="loc_name" v="Skirfoss" />
		<tag k="name" v="Fossen" />
		<tag k="place" v="locality" />
		<tag k="ssr:stedsnr" v="902088" />
	</node>
	<node lat="59.51313333245433" lon="11.659258340341784" id="-27526">
		<tag k="alt_name" v="Sukken nordre" />
		<tag k="name" v="Nordre Sukken" />
		<tag k="place" v="farm" />
		<tag k="ssr:stedsnr" v="902279" />
	</node>
	<node lat="59.51180555942097" lon="11.667922220251686" id="-27527">
		<tag k="name" v="Bergerødegården" />
		<tag k="place" v="farm" />
		<tag k="ssr:stedsnr" v="902280" />
	</node>
	<node lat="59.59509261390767" lon="11.516721304033231" id="-27531">
		<tag k="name" v="Kongsbakk" />
		<tag k="place" v="farm" />
		<tag k="ssr:stedsnr" v="902549" />
	</node>
	<node lat="59.60337222117054" lon="11.593977786452555" id="-27542">
		<tag k="name" v="Holmen" />
		<tag k="place" v="farm" />
		<tag k="ssr:stedsnr" v="902940" />
	</node>
	<node lat="59.55964444105944" lon="11.631841663600138" id="-27546">
		<tag k="name" v="Brodal" />
		<tag k="place" v="farm" />
		<tag k="ssr:stedsnr" v="903938" />
	</node>
	<node lat="59.55841666497506" lon="11.586533340130087" id="-27547">
		<tag k="alt_name" v="Toketorp nordre" />
		<tag k="name" v="Nordre Toketorp" />
		<tag k="place" v="locality" />
		<tag k="ssr:stedsnr" v="962060" />
	</node>
	<node lat="59.46121407550519" lon="11.694140496483584" id="-27549">
		<tag k="name" v="Østre Krossby" />
		<tag k="place" v="farm" />
		<tag k="ssr:stedsnr" v="910835" />
	</node>
	<node lat="59.37158332909777" lon="11.644891660270973" id="-27554">
		<tag k="name" v="Søndre Søgård" />
		<tag k="place" v="farm" />
		<tag k="ssr:stedsnr" v="840297" />
	</node>
	<node lat="59.53798333382507" lon="11.598041672658784" id="-27555">
		<tag k="name" v="Kjenner" />
		<tag k="place" v="farm" />
		<tag k="ssr:stedsnr" v="840435" />
	</node>
	<node lat="59.38660833316892" lon="11.736255551051409" id="-27557">
		<tag k="name" v="Engsødegården" />
		<tag k="place" v="farm" />
		<tag k="ssr:stedsnr" v="840883" />
	</node>
	<node lat="59.56059444635372" lon="11.589605548657964" id="-27561">
		<tag k="alt_name" v="Huser nordre" />
		<tag k="name" v="Nordre Huser" />
		<tag k="place" v="farm" />
		<tag k="ssr:stedsnr" v="841038" />
	</node>
	<node lat="59.62218673598263" lon="11.619557752080961" id="-27568">
		<tag k="alt_name" v="Tukken søndre" />
		<tag k="name" v="Søndre Tukken" />
		<tag k="place" v="farm" />
		<tag k="ssr:stedsnr" v="841138" />
	</node>
	<node lat="59.50236111014417" lon="11.67733888084866" id="-27569">
		<tag k="name" v="Nordre Engerbråten" />
		<tag k="place" v="farm" />
		<tag k="ssr:stedsnr" v="841211" />
	</node>
	<node lat="59.53277222134489" lon="11.673027781665555" id="-27574">
		<tag k="name" v="Stillesbysetra" />
		<tag k="place" v="farm" />
		<tag k="ssr:stedsnr" v="841428" />
	</node>
	<node lat="59.545008337684735" lon="11.665983335436499" id="-27579">
		<tag k="name" v="Sandåker" />
		<tag k="place" v="farm" />
		<tag k="ssr:stedsnr" v="841386" />
	</node>
	<node lat="59.5454638886384" lon="11.642272230859495" id="-27580">
		<tag k="name" v="Skogstad" />
		<tag k="place" v="farm" />
		<tag k="ssr:stedsnr" v="841391" />
	</node>
	<node lat="59.42894444258954" lon="11.686630553257347" id="-27583">
		<tag k="name" v="Svingen" />
		<tag k="place" v="farm" />
		<tag k="ssr:stedsnr" v="841509" />
	</node>
	<node lat="59.43210500922275" lon="11.728900195527881" id="-27584">
		<tag k="name" v="Østebu" />
		<tag k="place" v="farm" />
		<tag k="ssr:stedsnr" v="841514" />
	</node>
	<node lat="59.52337198899022" lon="11.614809808987374" id="-27585">
		<tag k="name" v="Kåtorp" />
		<tag k="place" v="farm" />
		<tag k="ssr:stedsnr" v="841487" />
	</node>
	<node lat="59.384519448252064" lon="11.680258338686277" id="-27586">
		<tag k="name" v="Herrud" />
		<tag k="place" v="farm" />
		<tag k="ssr:stedsnr" v="841488" />
	</node>
	<node lat="59.61288047841113" lon="11.642932949517409" id="-27588">
		<tag k="name" v="Østre Tjernsmo" />
		<tag k="place" v="locality" />
		<tag k="ssr:stedsnr" v="841614" />
	</node>
	<node lat="59.40628611061263" lon="11.722547221860474" id="-27591">
		<tag k="alt_name" v="Mellem Buer" />
		<tag k="name" v="Mellom-Buer" />
		<tag k="place" v="farm" />
		<tag k="ssr:stedsnr" v="841582" />
	</node>
	<node lat="59.609822218874086" lon="11.568911110008832" id="-27600">
		<tag k="alt_name" v="Rakkestad vestre" />
		<tag k="name" v="Vestre Rakkestad" />
		<tag k="place" v="farm" />
		<tag k="ssr:stedsnr" v="841892" />
	</node>
	<node lat="59.548420982228144" lon="11.622212430552946" id="-27613">
		<tag k="alt_name" v="Gåseby søndre" />
		<tag k="name" v="Søndre Gåseby" />
		<tag k="place" v="farm" />
		<tag k="ssr:stedsnr" v="853468" />
	</node>
	<node lat="59.335259372000785" lon="11.747103005086082" id="-27614">
		<tag k="name" v="Omvik" />
		<tag k="place" v="farm" />
		<tag k="ssr:stedsnr" v="853611" />
	</node>
	<node lat="59.39175017365987" lon="11.710875481675327" id="-27615">
		<tag k="name" v="Solerud" />
		<tag k="place" v="farm" />
		<tag k="ssr:stedsnr" v="853516" />
	</node>
	<node lat="59.40579916058959" lon="11.722520127484337" id="-27616">
		<tag k="name" v="Buer" />
		<tag k="place" v="farm" />
		<tag k="ssr:stedsnr" v="853518" />
	</node>
	<node lat="59.38362574252366" lon="11.622706159827757" id="-27617">
		<tag k="name" v="Hagen" />
		<tag k="place" v="locality" />
		<tag k="ssr:stedsnr" v="853520" />
	</node>
	<node lat="59.430755554750796" lon="11.752783336593668" id="-27620">
		<tag k="alt_name" v="Fjellenga" />
		<tag k="name" v="Fjellingen" />
		<tag k="place" v="isolated_dwelling" />
		<tag k="ssr:stedsnr" v="913475" />
	</node>
	<node lat="59.43348055337453" lon="11.703602777403052" id="-27621">
		<tag k="name" v="Bergbråten" />
		<tag k="place" v="farm" />
		<tag k="ssr:stedsnr" v="913479" />
	</node>
	<node lat="59.3558091655193" lon="11.683982378226446" id="-27626">
		<tag k="name" v="Knoll" />
		<tag k="place" v="farm" />
		<tag k="ssr:stedsnr" v="913702" />
	</node>
	<node lat="59.36962778095629" lon="11.684311106122905" id="-27627">
		<tag k="name" v="Nesebråten" />
		<tag k="place" v="farm" />
		<tag k="ssr:stedsnr" v="913668" />
	</node>
	<node lat="59.54347786281508" lon="11.630610888498309" id="-27629">
		<tag k="name" v="Stillesby" />
		<tag k="place" v="farm" />
		<tag k="ssr:stedsnr" v="914500" />
	</node>
	<node lat="59.38966110852973" lon="11.740677772831495" id="-27630">
		<tag k="name" v="Engsåsen" />
		<tag k="place" v="farm" />
		<tag k="ssr:stedsnr" v="858907" />
	</node>
	<node lat="59.52569737793779" lon="11.581542533392987" id="-27631">
		<tag k="name" v="Kamperud" />
		<tag k="place" v="farm" />
		<tag k="ssr:stedsnr" v="914390" />
	</node>
	<node lat="59.52612709130785" lon="11.632418906535662" id="-27632">
		<tag k="name" v="Klund" />
		<tag k="place" v="farm" />
		<tag k="ssr:stedsnr" v="914392" />
	</node>
	<node lat="59.52896388900971" lon="11.670727778144702" id="-27633">
		<tag k="name" v="Karlstad" />
		<tag k="place" v="farm" />
		<tag k="ssr:stedsnr" v="914396" />
	</node>
	<node lat="59.58619908594782" lon="11.55041565305422" id="-27635">
		<tag k="name" v="Klerud" />
		<tag k="place" v="farm" />
		<tag k="ssr:stedsnr" v="914460" />
	</node>
	<node lat="59.59124166983759" lon="11.52905556134822" id="-27636">
		<tag k="alt_name" v="Sameiet" />
		<tag k="name" v="Sameie" />
		<tag k="place" v="farm" />
		<tag k="ssr:stedsnr" v="914462" />
	</node>
	<node lat="59.538772225411904" lon="11.699794438669555" id="-27645">
		<tag k="name" v="Høgåssetra" />
		<tag k="place" v="locality" />
		<tag k="ssr:stedsnr" v="901416" />
	</node>
	<node lat="59.601947222788375" lon="11.628927777231326" id="-27654">
		<tag k="name" v="Nordre Ulfsby" />
		<tag k="place" v="locality" />
		<tag k="ssr:stedsnr" v="901761" />
	</node>
	<node lat="59.48961666538898" lon="11.658186112491977" id="-27666">
		<tag k="name" v="Vestre Mosebyødegården" />
		<tag k="place" v="farm" />
		<tag k="ssr:stedsnr" v="902228" />
	</node>
	<node lat="59.66761666539226" lon="11.654211109324507" id="-27674">
		<tag k="name" v="Kjøkkenet" />
		<tag k="place" v="locality" />
		<tag k="ssr:stedsnr" v="902463" />
	</node>
	<node lat="59.45306321499132" lon="11.728930171473687" id="-27684">
		<tag k="name" v="Sloreby" />
		<tag k="place" v="farm" />
		<tag k="ssr:stedsnr" v="913588" />
	</node>
	<node lat="59.40272499763703" lon="11.6983861059747" id="-27692">
		<tag k="name" v="Østre Stikle" />
		<tag k="place" v="farm" />
		<tag k="ssr:stedsnr" v="961598" />
	</node>
	<node lat="59.484797223460326" lon="11.696824996514675" id="-27695">
		<tag k="name" v="Søndre Nysterud" />
		<tag k="place" v="farm" />
		<tag k="ssr:stedsnr" v="962115" />
	</node>
	<node lat="59.63167221795932" lon="11.56435278539691" id="-27706">
		<tag k="alt_name" v="Setra søndre" />
		<tag k="name" v="Søndre Setra" />
		<tag k="place" v="farm" />
		<tag k="ssr:stedsnr" v="962240" />
	</node>
	<node lat="59.501988889462815" lon="11.684925006052218" id="-27707">
		<tag k="name" v="Østenga" />
		<tag k="place" v="locality" />
		<tag k="ssr:stedsnr" v="962241" />
	</node>
	<node lat="59.4630666671925" lon="11.671349997366676" id="-27712">
		<tag k="alt_name" v="Rud vestre" />
		<tag k="name" v="Vestre Rud" />
		<tag k="place" v="farm" />
		<tag k="ssr:stedsnr" v="962490" />
	</node>
	<node lat="59.60233888809145" lon="11.632697221074219" id="-27713">
		<tag k="name" v="Tangen" />
		<tag k="place" v="farm" />
		<tag k="ssr:stedsnr" v="962657" />
	</node>
	<node lat="59.4849083293797" lon="11.582427785979657" id="-27721">
		<tag k="name" v="Lysholm" />
		<tag k="place" v="isolated_dwelling" />
		<tag k="ssr:stedsnr" v="962910" />
	</node>
	<node lat="59.59674166660016" lon="11.62412499229119" id="-27722">
		<tag k="alt_name" v="Åseby nordre" />
		<tag k="name" v="Nordre Åseby" />
		<tag k="place" v="farm" />
		<tag k="ssr:stedsnr" v="962926" />
	</node>
	<node lat="59.34391111001314" lon="11.690108335271079" id="-27726">
		<tag k="name" v="Holtet" />
		<tag k="place" v="locality" />
		<tag k="ssr:stedsnr" v="963403" />
	</node>
	<node lat="59.53419166834686" lon="11.635391666499574" id="-27728">
		<tag k="name" v="Nordre Måstad" />
		<tag k="place" v="farm" />
		<tag k="ssr:stedsnr" v="969514" />
	</node>
	<node lat="59.53947911392242" lon="11.645663334661167" id="-27729">
		<tag k="name" v="Høgås" />
		<tag k="place" v="farm" />
		<tag k="ssr:stedsnr" v="970705" />
	</node>
	<node lat="59.42831388477449" lon="11.723877775567043" id="-27766">
		<tag k="alt_name" v="Sørengen" />
		<tag k="name" v="Sørenga" />
		<tag k="place" v="farm" />
		<tag k="ssr:stedsnr" v="2538" />
	</node>
	<node lat="59.56057518558551" lon="11.575172750322809" id="-27772">
		<tag k="name" v="Grav" />
		<tag k="place" v="farm" />
		<tag k="ssr:stedsnr" v="3437" />
	</node>
	<node lat="59.56923055433326" lon="11.575358332392872" id="-27773">
		<tag k="alt_name" v="Vikeby vestre" />
		<tag k="name" v="Vestre Vikeby" />
		<tag k="place" v="farm" />
		<tag k="ssr:stedsnr" v="3444" />
	</node>
	<node lat="59.569662014664125" lon="11.614951287135161" id="-27774">
		<tag k="alt_name" v="Degnes store" />
		<tag k="name" v="Store Degnes" />
		<tag k="place" v="farm" />
		<tag k="ssr:stedsnr" v="3447" />
	</node>
	<node lat="59.354023294029474" lon="11.652583822747287" id="-27775">
		<tag k="alt_name" v="Sambøl" />
		<tag k="name" v="Nordre Sambøl" />
		<tag k="place" v="farm" />
		<tag k="ssr:stedsnr" v="3699" />
	</node>
	<node lat="59.37773349494866" lon="11.717369523246772" id="-27776">
		<tag k="name" v="Viken" />
		<tag k="place" v="farm" />
		<tag k="ssr:stedsnr" v="3655" />
	</node>
	<node lat="59.50802499664429" lon="11.713705560975926" id="-27777">
		<tag k="name" v="Butjernhytta" />
		<tag k="place" v="locality" />
		<tag k="ssr:stedsnr" v="4360" />
	</node>
	<node lat="59.579009340657386" lon="11.613440815130385" id="-27778">
		<tag k="alt_name" v="Degnes lille;Degnes" />
		<tag k="name" v="Lille Degnes" />
		<tag k="place" v="farm" />
		<tag k="ssr:stedsnr" v="4437" />
	</node>
	<node lat="59.37204166306096" lon="11.644855548394952" id="-27782">
		<tag k="name" v="Nordre Søgård" />
		<tag k="place" v="farm" />
		<tag k="ssr:stedsnr" v="51344" />
	</node>
	<node lat="59.43163471819656" lon="11.670860700899796" id="-27786">
		<tag k="alt_name" v="Sandtorp øvre" />
		<tag k="name" v="Øvre Sandtorp" />
		<tag k="place" v="farm" />
		<tag k="ssr:stedsnr" v="51658" />
	</node>
	<node lat="59.54142222092587" lon="11.574613896740496" id="-27788">
		<tag k="name" v="Oretap" />
		<tag k="place" v="farm" />
		<tag k="ssr:stedsnr" v="51542" />
	</node>
	<node lat="59.4260305565477" lon="11.608761109370763" id="-27802">
		<tag k="name" v="Holmetjernhytta" />
		<tag k="place" v="isolated_dwelling" />
		<tag k="ssr:stedsnr" v="51790" />
	</node>
	<node lat="59.5504333337313" lon="11.574524998654343" id="-27810">
		<tag k="name" v="Nordre Røen" />
		<tag k="place" v="farm" />
		<tag k="ssr:stedsnr" v="52052" />
	</node>
	<node lat="59.632968595950096" lon="11.606658501487068" id="-27812">
		<tag k="loc_name" v="Nord Enga" />
		<tag k="name" v="Nedre Enga" />
		<tag k="place" v="farm" />
		<tag k="ssr:stedsnr" v="52136" />
	</node>
	<node lat="59.507347222962956" lon="11.620552782680333" id="-27826">
		<tag k="name" v="Stenby" />
		<tag k="place" v="locality" />
		<tag k="ssr:stedsnr" v="52537" />
	</node>
	<node lat="59.344944440759654" lon="11.749947230557382" id="-27840">
		<tag k="name" v="Gunnengbråten" />
		<tag k="place" v="farm" />
		<tag k="ssr:stedsnr" v="52764" />
	</node>
	<node lat="59.42677500387917" lon="11.73688889406698" id="-27847">
		<tag k="name" v="Sandbekk" />
		<tag k="place" v="farm" />
		<tag k="ssr:stedsnr" v="63533" />
	</node>
	<node lat="59.43203789449046" lon="11.676258888796909" id="-27848">
		<tag k="name" v="Sandtorp" />
		<tag k="place" v="farm" />
		<tag k="ssr:stedsnr" v="63536" />
	</node>
	<node lat="59.62716389183701" lon="11.627969439896411" id="-27849">
		<tag k="name" v="Foss" />
		<tag k="place" v="farm" />
		<tag k="ssr:stedsnr" v="64296" />
	</node>
	<node lat="59.52935233800898" lon="11.606315684312486" id="-27851">
		<tag k="name" v="Krossby" />
		<tag k="place" v="farm" />
		<tag k="ssr:stedsnr" v="64392" />
	</node>
	<node lat="59.62014444282326" lon="11.559625003845786" id="-27854">
		<tag k="name" v="Bråten" />
		<tag k="place" v="farm" />
		<tag k="ssr:stedsnr" v="65274" />
	</node>
	<node lat="59.62484721901147" lon="11.59469443632611" id="-27856">
		<tag k="name" v="Evenby" />
		<tag k="place" v="farm" />
		<tag k="ssr:stedsnr" v="65277" />
	</node>
	<node lat="59.56550635725461" lon="11.58499989264728" id="-27857">
		<tag k="name" v="Kinn" />
		<tag k="place" v="farm" />
		<tag k="ssr:stedsnr" v="64483" />
	</node>
	<node lat="59.56746944355285" lon="11.538552782389583" id="-27858">
		<tag k="alt_name" v="Myrseter" />
		<tag k="name" v="Myrsæter" />
		<tag k="place" v="farm" />
		<tag k="ssr:stedsnr" v="64491" />
	</node>
	<node lat="59.58985833518859" lon="11.511852770688613" id="-27860">
		<tag k="alt_name" v="Skog" />
		<tag k="name" v="Skau" />
		<tag k="place" v="farm" />
		<tag k="ssr:stedsnr" v="65440" />
	</node>
	<node lat="59.342706711581464" lon="11.72989406351858" id="-27863">
		<tag k="alt_name" v="Botn;Botten;Nordre Botten" />
		<tag k="name" v="Nordre Botn" />
		<tag k="place" v="farm" />
		<tag k="ssr:stedsnr" v="101594" />
	</node>
	<node lat="59.48641666844876" lon="11.696299999857366" id="-27866">
		<tag k="name" v="Nordre Nysterud" />
		<tag k="place" v="farm" />
		<tag k="ssr:stedsnr" v="112155" />
	</node>
	<node lat="59.404569203671954" lon="11.724328354944621" id="-27877">
		<tag k="name" v="Søndre Buer" />
		<tag k="place" v="farm" />
		<tag k="ssr:stedsnr" v="112607" />
	</node>
	<node lat="59.503181770974315" lon="11.68172861794391" id="-27900">
		<tag k="name" v="Solberg" />
		<tag k="place" v="locality" />
		<tag k="ssr:stedsnr" v="113248" />
	</node>
	<node lat="59.508566668753" lon="11.656316667131229" id="-27901">
		<tag k="alt_name" v="Berger vestre" />
		<tag k="name" v="Vestre Berger" />
		<tag k="place" v="farm" />
		<tag k="ssr:stedsnr" v="113260" />
	</node>
	<node lat="59.5548916668848" lon="11.586725004557845" id="-27907">
		<tag k="alt_name" v="Toketorp østre" />
		<tag k="name" v="Østre Toketorp" />
		<tag k="place" v="farm" />
		<tag k="ssr:stedsnr" v="113052" />
	</node>
	<node lat="59.63150283977916" lon="11.610024769850797" id="-27911">
		<tag k="loc_name" v="Sør Enga" />
		<tag k="name" v="Enga" />
		<tag k="place" v="farm" />
		<tag k="ssr:stedsnr" v="113140" />
	</node>
	<node lat="59.631433333961205" lon="11.618691668975336" id="-27913">
		<tag k="name" v="Bråtan" />
		<tag k="place" v="isolated_dwelling" />
		<tag k="ssr:stedsnr" v="113148" />
	</node>
	<node lat="59.464438887689845" lon="11.664433331483405" id="-27925">
		<tag k="alt_name" v="Bøen vestre" />
		<tag k="name" v="Vestre Bøen" />
		<tag k="place" v="farm" />
		<tag k="ssr:stedsnr" v="113695" />
	</node>
	<node lat="59.58787499681875" lon="11.618686116914102" id="-27931">
		<tag k="name" v="Østre Olerud" />
		<tag k="old_name" v="Orderud østre" />
		<tag k="place" v="farm" />
		<tag k="ssr:stedsnr" v="113729" />
	</node>
	<node lat="59.5913638865977" lon="11.615449996120825" id="-27932">
		<tag k="name" v="Nordenga" />
		<tag k="place" v="locality" />
		<tag k="ssr:stedsnr" v="113732" />
	</node>
	<node lat="59.61302222263314" lon="11.64195555136669" id="-27937">
		<tag k="name" v="Tjernsmo" />
		<tag k="place" v="locality" />
		<tag k="ssr:stedsnr" v="120451" />
	</node>
	<node lat="59.66189721897181" lon="11.702819447858232" id="-27940">
		<tag k="alt_name" v="Kroksætra østre;Nedre Krokssetra" />
		<tag k="historic" v="shieling" />
		<tag k="name" v="Østre Kroksætra" />
		<tag k="place" v="isolated_dwelling" />
		<tag k="ssr:stedsnr" v="124225" />
	</node>
	<node lat="59.40306111442436" lon="11.740455547403231" id="-27942">
		<tag k="name" v="Brekka" />
		<tag k="place" v="farm" />
		<tag k="ssr:stedsnr" v="124491" />
	</node>
	<node lat="59.423277774312616" lon="11.743447226358683" id="-27943">
		<tag k="alt_name" v="Buerskogen" />
		<tag k="name" v="Søndre Buerskogen" />
		<tag k="place" v="farm" />
		<tag k="ssr:stedsnr" v="124439" />
	</node>
	<node lat="59.422366663754026" lon="11.67256666053066" id="-27944">
		<tag k="name" v="Sandåker" />
		<tag k="place" v="farm" />
		<tag k="ssr:stedsnr" v="124442" />
	</node>
	<node lat="59.37180610971898" lon="11.627933030338118" id="-27945">
		<tag k="name" v="Vestgård" />
		<tag k="place" v="farm" />
		<tag k="ssr:stedsnr" v="124640" />
	</node>
	<node lat="59.58367686073984" lon="11.52992105172654" id="-27948">
		<tag k="name" v="Fallet" />
		<tag k="place" v="locality" />
		<tag k="ssr:stedsnr" v="125465" />
	</node>
	<node lat="59.593536113353004" lon="11.62027499889574" id="-27949">
		<tag k="name" v="Hen" />
		<tag k="old_name" v="Hien" />
		<tag k="place" v="farm" />
		<tag k="ssr:stedsnr" v="125466" />
	</node>
	<node lat="59.586481425256956" lon="11.520824051538717" id="-27950">
		<tag k="alt_name" v="Fjellengen" />
		<tag k="name" v="Fjellingen" />
		<tag k="place" v="farm" />
		<tag k="ssr:stedsnr" v="125471" />
	</node>
	<node lat="59.53290585625394" lon="11.637469076689488" id="-27951">
		<tag k="name" v="Måstad" />
		<tag k="place" v="farm" />
		<tag k="ssr:stedsnr" v="125417" />
	</node>
	<node lat="59.598229293494754" lon="11.582151816440327" id="-27952">
		<tag k="alt_name" v="Fokerud" />
		<tag k="name" v="Faukerud" />
		<tag k="place" v="farm" />
		<tag k="ssr:stedsnr" v="125484" />
	</node>
	<node lat="59.36298055588482" lon="11.68859167183095" id="-27954">
		<tag k="name" v="Neset" />
		<tag k="place" v="farm" />
		<tag k="ssr:stedsnr" v="172268" />
	</node>
	<node lat="59.62495479125188" lon="11.623719216286135" id="-27960">
		<tag k="alt_name" v="Tukken nordre" />
		<tag k="name" v="Nordre Tukken" />
		<tag k="place" v="farm" />
		<tag k="ssr:stedsnr" v="173115" />
	</node>
	<node lat="59.61289909214289" lon="11.641230188849274" id="-27973">
		<tag k="name" v="Vestre Tjernsmo" />
		<tag k="place" v="locality" />
		<tag k="ssr:stedsnr" v="173593" />
	</node>
	<node lat="59.46399166348065" lon="11.67043610808064" id="-27975">
		<tag k="alt_name" v="Rud vestre" />
		<tag k="name" v="Vestre Rud" />
		<tag k="place" v="locality" />
		<tag k="ssr:stedsnr" v="173450" />
	</node>
	<node lat="59.5057138910183" lon="11.65381388520929" id="-27980">
		<tag k="name" v="Ertevik" />
		<tag k="place" v="locality" />
		<tag k="ssr:stedsnr" v="173189" />
	</node>
	<node lat="59.53959198518942" lon="11.662354884855619" id="-27982">
		<tag k="name" v="Lier" />
		<tag k="place" v="locality" />
		<tag k="ssr:stedsnr" v="173349" />
	</node>
	<node lat="59.487827779321655" lon="11.743352780655623" id="-28004">
		<tag k="name" v="Fjellstua" />
		<tag k="place" v="isolated_dwelling" />
		<tag k="ssr:stedsnr" v="173923" />
	</node>
	<node lat="59.61162408881576" lon="11.570405141854577" id="-28008">
		<tag k="alt_name" v="Rakkestad nordre" />
		<tag k="name" v="Nordre Rakkestad" />
		<tag k="place" v="farm" />
		<tag k="ssr:stedsnr" v="173885" />
	</node>
	<node lat="59.56186388599796" lon="11.569855559470081" id="-28009">
		<tag k="alt_name" v="Grav nedre" />
		<tag k="name" v="Nedre Grav" />
		<tag k="place" v="farm" />
		<tag k="ssr:stedsnr" v="174034" />
	</node>
	<node lat="59.51613888848599" lon="11.671816667746842" id="-28017">
		<tag k="name" v="Nordby" />
		<tag k="place" v="farm" />
		<tag k="ssr:stedsnr" v="174394" />
	</node>
	<node lat="59.62264999576743" lon="11.595855550773319" id="-28020">
		<tag k="name" v="Elvestad" />
		<tag k="place" v="locality" />
		<tag k="ssr:stedsnr" v="174153" />
	</node>
	<node lat="59.59320277520169" lon="11.622858339563237" id="-28033">
		<tag k="name" v="Heen" />
		<tag k="place" v="farm" />
		<tag k="ssr:stedsnr" v="181081" />
	</node>
	<node lat="59.544272462342576" lon="11.651396915585229" id="-28034">
		<tag k="name" v="Hien" />
		<tag k="place" v="farm" />
		<tag k="ssr:stedsnr" v="181477" />
	</node>
	<node lat="59.46603297935107" lon="11.693050805369396" id="-28036">
		<tag k="name" v="Gjølsjø" />
		<tag k="place" v="farm" />
		<tag k="ssr:stedsnr" v="184589" />
	</node>
	<node lat="59.46118055684799" lon="11.64220000289524" id="-28039">
		<tag k="name" v="Fossum" />
		<tag k="place" v="farm" />
		<tag k="ssr:stedsnr" v="184610" />
	</node>
	<node lat="59.43923889104037" lon="11.711913880845746" id="-28040">
		<tag k="name" v="Sandli" />
		<tag k="place" v="locality" />
		<tag k="ssr:stedsnr" v="184617" />
	</node>
	<node lat="59.44945389937823" lon="11.6487890328846" id="-28041">
		<tag k="name" v="Årnes" />
		<tag k="place" v="farm" />
		<tag k="ssr:stedsnr" v="184623" />
	</node>
	<node lat="59.42991797288989" lon="11.733568866750964" id="-28042">
		<tag k="name" v="Solberg" />
		<tag k="place" v="farm" />
		<tag k="ssr:stedsnr" v="184515" />
	</node>
	<node lat="59.43350555659559" lon="11.730413885081608" id="-28043">
		<tag k="name" v="Haugen" />
		<tag k="place" v="farm" />
		<tag k="ssr:stedsnr" v="184516" />
	</node>
	<node lat="59.66160277697829" lon="11.695783341673184" id="-28046">
		<tag k="name" v="Fjellstua" />
		<tag k="place" v="locality" />
		<tag k="ssr:stedsnr" v="185264" />
	</node>
	<node lat="59.53402370769537" lon="11.591880538937087" id="-28053">
		<tag k="name" v="Lund" />
		<tag k="place" v="farm" />
		<tag k="ssr:stedsnr" v="186438" />
	</node>
	<node lat="59.53676666880035" lon="11.670958328756752" id="-28054">
		<tag k="alt_name" v="Måstadsetra" />
		<tag k="name" v="Måstadsætra" />
		<tag k="place" v="locality" />
		<tag k="ssr:stedsnr" v="186443" />
	</node>
	<node lat="59.48659444344408" lon="11.678508336165034" id="-28064">
		<tag k="name" v="Krokstadbråten" />
		<tag k="place" v="farm" />
		<tag k="ssr:stedsnr" v="294022" />
	</node>
	<node lat="59.40613610911172" lon="11.728791667395528" id="-28069">
		<tag k="name" v="Solheim" />
		<tag k="place" v="farm" />
		<tag k="ssr:stedsnr" v="294622" />
	</node>
	<node lat="59.594630557650945" lon="11.631369439275547" id="-28100">
		<tag k="name" v="Nylenda" />
		<tag k="place" v="locality" />
		<tag k="ssr:stedsnr" v="295311" />
	</node>
	<node lat="59.633738887549356" lon="11.629161118785097" id="-28109">
		<tag k="name" v="Sandbakken" />
		<tag k="place" v="locality" />
		<tag k="ssr:stedsnr" v="295555" />
	</node>
	<node lat="59.508692933490195" lon="11.657446794981038" id="-28110">
		<tag k="alt_name" v="Berger østre" />
		<tag k="name" v="Østre Berger" />
		<tag k="place" v="farm" />
		<tag k="ssr:stedsnr" v="295280" />
	</node>
	<node lat="59.5993249989739" lon="11.568233325940529" id="-28113">
		<tag k="name" v="Glundberg" />
		<tag k="place" v="farm" />
		<tag k="ssr:stedsnr" v="295531" />
	</node>
	<node lat="59.42518889213176" lon="11.688783324831704" id="-28115">
		<tag k="name" v="Østli" />
		<tag k="place" v="locality" />
		<tag k="ssr:stedsnr" v="295535" />
	</node>
	<node lat="59.43635833779645" lon="11.68518888571018" id="-28118">
		<tag k="name" v="Søndre Lømbu" />
		<tag k="old_name" v="Vestre Lømbu" />
		<tag k="place" v="farm" />
		<tag k="ssr:stedsnr" v="295612" />
	</node>
	<node lat="59.43631944330513" lon="11.704958338897235" id="-28119">
		<tag k="alt_name" v="Hagen" />
		<tag k="name" v="Kasbuhagen" />
		<tag k="place" v="locality" />
		<tag k="ssr:stedsnr" v="295613" />
	</node>
	<node lat="59.64977221794145" lon="11.643638895436156" id="-28120">
		<tag k="historic" v="shieling" />
		<tag k="name" v="Damvannssetra" />
		<tag k="place" v="isolated_dwelling" />
		<tag k="ssr:stedsnr" v="295462" />
	</node>
	<node lat="59.49539388642433" lon="11.640116576148316" id="-28135">
		<tag k="name" v="Ysterud" />
		<tag k="place" v="farm" />
		<tag k="ssr:stedsnr" v="306536" />
	</node>
	<node lat="59.37344503714322" lon="11.73749484354649" id="-28136">
		<tag k="name" v="Selvik" />
		<tag k="place" v="farm" />
		<tag k="ssr:stedsnr" v="306660" />
	</node>
	<node lat="59.540105520644126" lon="11.643182050646368" id="-28139">
		<tag k="name" v="Vestre Høgås" />
		<tag k="place" v="farm" />
		<tag k="ssr:stedsnr" v="307494" />
	</node>
	<node lat="59.554680990129846" lon="11.57799049462712" id="-28140">
		<tag k="name" v="Toketorp" />
		<tag k="place" v="farm" />
		<tag k="ssr:stedsnr" v="307500" />
	</node>
	<node lat="59.33026110678328" lon="11.804255555763035" id="-28141">
		<tag k="name" v="Demma" />
		<tag k="place" v="farm" />
		<tag k="ssr:stedsnr" v="307641" />
	</node>
	<node lat="59.39002222561502" lon="11.73626667363156" id="-28144">
		<tag k="alt_name" v="Taskerud;Taskerud søndre" />
		<tag k="name" v="Søndre Taskerud" />
		<tag k="place" v="farm" />
		<tag k="ssr:stedsnr" v="307547" />
	</node>
	<node lat="59.43535204500953" lon="11.673272923917638" id="-28155">
		<tag k="alt_name" v="Sandtorp nedre" />
		<tag k="name" v="Nedre Sandtorp" />
		<tag k="place" v="farm" />
		<tag k="ssr:stedsnr" v="354648" />
	</node>
	<node lat="59.49763889015722" lon="11.715397214321735" id="-28158">
		<tag k="name" v="Nordre Alerud" />
		<tag k="place" v="locality" />
		<tag k="ssr:stedsnr" v="355134" />
	</node>
	<node lat="59.55976666617031" lon="11.574669441191416" id="-28161">
		<tag k="alt_name" v="Grav øvre" />
		<tag k="name" v="Øvre Grav" />
		<tag k="place" v="farm" />
		<tag k="ssr:stedsnr" v="355039" />
	</node>
	<node lat="59.5526361098125" lon="11.57180833363227" id="-28166">
		<tag k="name" v="Bråten" />
		<tag k="place" v="farm" />
		<tag k="ssr:stedsnr" v="355056" />
	</node>
	<node lat="59.60538055944065" lon="11.534038888142012" id="-28168">
		<tag k="alt_name" v="Skrikerud mellem" />
		<tag k="name" v="Mellom-Skrikerud" />
		<tag k="place" v="farm" />
		<tag k="ssr:stedsnr" v="355483" />
	</node>
	<node lat="59.42771666908265" lon="11.727161119730441" id="-28172">
		<tag k="name" v="Labråten" />
		<tag k="place" v="farm" />
		<tag k="ssr:stedsnr" v="355490" />
	</node>
	<node lat="59.56554166514402" lon="11.579822220789797" id="-28183">
		<tag k="alt_name" v="Kinn vestre" />
		<tag k="name" v="Vestre Kinn" />
		<tag k="place" v="farm" />
		<tag k="ssr:stedsnr" v="355248" />
	</node>
	<node lat="59.54235277460534" lon="11.650291665335278" id="-28193">
		<tag k="name" v="Sør-Hien" />
		<tag k="old_name" v="Hien" />
		<tag k="place" v="farm" />
		<tag k="ssr:stedsnr" v="355356" />
	</node>
	<node lat="59.576186110999416" lon="11.576616658811613" id="-28198">
		<tag k="name" v="Speiderhytta" />
		<tag k="place" v="isolated_dwelling" />
		<tag k="ssr:stedsnr" v="355458" />
	</node>
	<node lat="59.38782777816226" lon="11.691916662125951" id="-28200">
		<tag k="name" v="Volen" />
		<tag k="place" v="farm" />
		<tag k="ssr:stedsnr" v="355460" />
	</node>
	<node lat="59.400569441650006" lon="11.685297225301372" id="-28203">
		<tag k="name" v="Knappeneset" />
		<tag k="place" v="farm" />
		<tag k="ssr:stedsnr" v="355544" />
	</node>
	<node lat="59.408188887334866" lon="11.689655554200046" id="-28204">
		<tag k="name" v="Husebråten" />
		<tag k="place" v="locality" />
		<tag k="ssr:stedsnr" v="355549" />
	</node>
	<node lat="59.40423611319313" lon="11.722488887374674" id="-28205">
		<tag k="name" v="Pilhaug" />
		<tag k="place" v="farm" />
		<tag k="ssr:stedsnr" v="355550" />
	</node>
	<node lat="59.4580972245204" lon="11.684530562960624" id="-28208">
		<tag k="name" v="Vangli" />
		<tag k="place" v="farm" />
		<tag k="ssr:stedsnr" v="355631" />
	</node>
	<node lat="59.36091504742509" lon="11.699316233058308" id="-28230">
		<tag k="name" v="Gunneng" />
		<tag k="place" v="farm" />
		<tag k="ssr:stedsnr" v="358291" />
	</node>
	<node lat="59.50244438976328" lon="11.656436573827126" id="-28231">
		<tag k="name" v="Moseby" />
		<tag k="place" v="farm" />
		<tag k="ssr:stedsnr" v="363430" />
	</node>
	<node lat="59.34721230972536" lon="11.68298910590992" id="-28232">
		<tag k="name" v="Djupvik" />
		<tag k="place" v="farm" />
		<tag k="ssr:stedsnr" v="363435" />
	</node>
	<node lat="59.461534768628" lon="11.692833652363989" id="-28233">
		<tag k="name" v="Krossby" />
		<tag k="place" v="farm" />
		<tag k="ssr:stedsnr" v="366605" />
	</node>
	<node lat="59.430030555192815" lon="11.711847221962365" id="-28237">
		<tag k="alt_name" v="Kasebuholtet" />
		<tag k="name" v="Holtet" />
		<tag k="place" v="farm" />
		<tag k="ssr:stedsnr" v="366531" />
	</node>
	<node lat="59.41864444667514" lon="11.668656584088616" id="-28238">
		<tag k="name" v="Øystad" />
		<tag k="place" v="farm" />
		<tag k="ssr:stedsnr" v="367459" />
	</node>
	<node lat="59.39990277754531" lon="11.741047217173058" id="-28239">
		<tag k="name" v="Engsrud" />
		<tag k="place" v="farm" />
		<tag k="ssr:stedsnr" v="367466" />
	</node>
	<node lat="59.533629111063476" lon="11.574289203929249" id="-28240">
		<tag k="name" v="Fonnerud" />
		<tag k="place" v="farm" />
		<tag k="ssr:stedsnr" v="367327" />
	</node>
	<node lat="59.596367877128095" lon="11.6243425204183" id="-28248">
		<tag k="name" v="Åseby" />
		<tag k="place" v="farm" />
		<tag k="ssr:stedsnr" v="368476" />
	</node>
	<node lat="59.60546666399067" lon="11.621611103942874" id="-28249">
		<tag k="name" v="Haugerud" />
		<tag k="place" v="farm" />
		<tag k="ssr:stedsnr" v="368505" />
	</node>
	<node lat="59.55243333532191" lon="11.625897229102817" id="-28254">
		<tag k="name" v="Slupstad" />
		<tag k="place" v="farm" />
		<tag k="ssr:stedsnr" v="413183" />
	</node>
	<node lat="59.53190555630002" lon="11.602330560309118" id="-28257">
		<tag k="name" v="Solvang" />
		<tag k="place" v="farm" />
		<tag k="ssr:stedsnr" v="415475" />
	</node>
	<node lat="59.374775000126554" lon="11.69836388532832" id="-28259">
		<tag k="name" v="Volødegård" />
		<tag k="place" v="farm" />
		<tag k="ssr:stedsnr" v="415337" />
	</node>
	<node lat="59.34890277966216" lon="11.645536118917214" id="-28261">
		<tag k="name" v="Dagali" />
		<tag k="place" v="farm" />
		<tag k="ssr:stedsnr" v="415436" />
	</node>
	<node lat="59.3528310453315" lon="11.651844970082086" id="-28263">
		<tag k="name" v="Søndre Sambøl" />
		<tag k="place" v="farm" />
		<tag k="ssr:stedsnr" v="415376" />
	</node>
	<node lat="59.46582500060732" lon="11.690122226976055" id="-28267">
		<tag k="alt_name" v="Gjølsjø søndre" />
		<tag k="name" v="Søndre Gjølsjø" />
		<tag k="place" v="farm" />
		<tag k="ssr:stedsnr" v="416050" />
	</node>
	<node lat="59.588788885987334" lon="11.571786110115104" id="-28276">
		<tag k="name" v="Heggedal" />
		<tag k="place" v="farm" />
		<tag k="ssr:stedsnr" v="416146" />
	</node>
	<node lat="59.58489837819519" lon="11.53171581033589" id="-28277">
		<tag k="alt_name" v="Fallet nordre" />
		<tag k="name" v="Nordre Fallet" />
		<tag k="place" v="farm" />
		<tag k="ssr:stedsnr" v="416168" />
	</node>
	<node lat="59.550544442080586" lon="11.597558335678126" id="-28284">
		<tag k="name" v="Vestre Klemetsby" />
		<tag k="place" v="farm" />
		<tag k="ssr:stedsnr" v="416044" />
	</node>
	<node lat="59.63818333510713" lon="11.613963894262898" id="-28291">
		<tag k="name" v="Delingsrud" />
		<tag k="place" v="locality" />
		<tag k="ssr:stedsnr" v="416092" />
	</node>
	<node lat="59.60356110869145" lon="11.532466662694398" id="-28297">
		<tag k="alt_name" v="Skrikerud søndre" />
		<tag k="name" v="Søndre Skrikerud" />
		<tag k="place" v="farm" />
		<tag k="ssr:stedsnr" v="416480" />
	</node>
	<node lat="59.4262305565832" lon="11.6931138953057" id="-28298">
		<tag k="name" v="Botten" />
		<tag k="place" v="locality" />
		<tag k="ssr:stedsnr" v="416481" />
	</node>
	<node lat="59.456297219025444" lon="11.691658333549544" id="-28304">
		<tag k="name" v="Vestre Søby" />
		<tag k="place" v="farm" />
		<tag k="ssr:stedsnr" v="416624" />
	</node>
	<node lat="59.54349166878088" lon="11.552850004281968" id="-28311">
		<tag k="name" v="Søndre Holta" />
		<tag k="place" v="farm" />
		<tag k="ssr:stedsnr" v="416542" />
	</node>
	<node lat="59.60872690177119" lon="11.57059484097868" id="-28314">
		<tag k="alt_name" v="Rakkestad søndre" />
		<tag k="name" v="Søndre Rakkestad" />
		<tag k="place" v="farm" />
		<tag k="ssr:stedsnr" v="416873" />
	</node>
	<node lat="59.514472218445505" lon="11.649994437068251" id="-28335">
		<tag k="name" v="Lilleås" />
		<tag k="place" v="farm" />
		<tag k="ssr:stedsnr" v="417282" />
	</node>
	<node lat="59.50997222652745" lon="11.668819441267601" id="-28336">
		<tag k="name" v="Bergerødegården" />
		<tag k="place" v="farm" />
		<tag k="ssr:stedsnr" v="417286" />
	</node>
	<node lat="59.507030555238195" lon="11.66598889343093" id="-28339">
		<tag k="alt_name" v="Grimsby vestre" />
		<tag k="name" v="Vestre Grimsby" />
		<tag k="place" v="farm" />
		<tag k="ssr:stedsnr" v="417391" />
	</node>
	<node lat="59.44346944444853" lon="11.717983338110397" id="-28344">
		<tag k="name" v="Nytomt" />
		<tag k="place" v="farm" />
		<tag k="ssr:stedsnr" v="427611" />
	</node>
	<node lat="59.63901388738559" lon="11.556233341677084" id="-28346">
		<tag k="name" v="Roligheta" />
		<tag k="place" v="farm" />
		<tag k="ssr:stedsnr" v="428279" />
	</node>
	<node lat="59.624785412809" lon="11.615444093767348" id="-28350">
		<tag k="name" v="Søndre Oppsal" />
		<tag k="old_name" v="Oppsal søndre;Opsal søndre" />
		<tag k="place" v="farm" />
		<tag k="ssr:stedsnr" v="428265" />
	</node>
	<node lat="59.36371388439283" lon="11.695372224886656" id="-28351">
		<tag k="alt_name" v="Gunneng nordre;Gunneng" />
		<tag k="name" v="Nordre Gunneng" />
		<tag k="place" v="farm" />
		<tag k="ssr:stedsnr" v="428694" />
	</node>
	<node lat="59.52258690515828" lon="11.617209862120493" id="-28352">
		<tag k="name" v="Kåtorp" />
		<tag k="place" v="farm" />
		<tag k="ssr:stedsnr" v="428352" />
	</node>
	<node lat="59.54576388538653" lon="11.653124993909321" id="-28353">
		<tag k="name" v="Nord-Hien" />
		<tag k="old_name" v="Hien" />
		<tag k="place" v="farm" />
		<tag k="ssr:stedsnr" v="428434" />
	</node>
	<node lat="59.549696864836584" lon="11.600247578729622" id="-28354">
		<tag k="name" v="Klemetsby" />
		<tag k="place" v="farm" />
		<tag k="ssr:stedsnr" v="428439" />
	</node>
	<node lat="59.422544822830716" lon="11.688364883839359" id="-28356">
		<tag k="alt_name" v="Kleiva;Kleva" />
		<tag k="name" v="Kleven" />
		<tag k="place" v="farm" />
		<tag k="ssr:stedsnr" v="428459" />
	</node>
	<node lat="59.379969442051376" lon="11.784147220705915" id="-28357">
		<tag k="name" v="Moslora" />
		<tag k="place" v="farm" />
		<tag k="ssr:stedsnr" v="428665" />
	</node>
	<node lat="59.600327958049306" lon="11.629365977094906" id="-28360">
		<tag k="name" v="Ulfsby" />
		<tag k="place" v="farm" />
		<tag k="ssr:stedsnr" v="484435" />
	</node>
	<node lat="59.478698270560955" lon="11.662087138232337" id="-28362">
		<tag k="name" v="Brårud" />
		<tag k="place" v="farm" />
		<tag k="ssr:stedsnr" v="487632" />
	</node>
	<node lat="59.384966663234444" lon="11.730538885620906" id="-28364">
		<tag k="alt_name" v="Engsvik" />
		<tag k="name" v="Engsvika" />
		<tag k="place" v="farm" />
		<tag k="ssr:stedsnr" v="488546" />
	</node>
	<node lat="59.44827020377036" lon="11.672351061771716" id="-28366">
		<tag k="alt_name" v="Vågelsby" />
		<tag k="name" v="Våkelsby" />
		<tag k="place" v="farm" />
		<tag k="ssr:stedsnr" v="488596" />
	</node>
	<node lat="59.44603432883401" lon="11.681127777439812" id="-28367">
		<tag k="alt_name" v="Holtsrud" />
		<tag k="name" v="Holsrud" />
		<tag k="place" v="farm" />
		<tag k="ssr:stedsnr" v="488597" />
	</node>
	<node lat="59.372591662432505" lon="11.69869999208456" id="-28370">
		<tag k="name" v="Struten" />
		<tag k="place" v="farm" />
		<tag k="ssr:stedsnr" v="488679" />
	</node>
	<node lat="59.36978500869171" lon="11.645314079681526" id="-28371">
		<tag k="name" v="Søgård" />
		<tag k="place" v="farm" />
		<tag k="ssr:stedsnr" v="488682" />
	</node>
	<node lat="59.53104444308747" lon="11.640824991593858" id="-28373">
		<tag k="alt_name" v="Måstad" />
		<tag k="name" v="Søndre Måstad" />
		<tag k="place" v="farm" />
		<tag k="ssr:stedsnr" v="489052" />
	</node>
	<node lat="59.53885555427892" lon="11.581030554440689" id="-28374">
		<tag k="name" v="Kirkeng" />
		<tag k="place" v="farm" />
		<tag k="ssr:stedsnr" v="489499" />
	</node>
	<node lat="59.65255277697328" lon="11.69154166374638" id="-28376">
		<tag k="historic" v="shieling" />
		<tag k="name" v="Furuly" />
		<tag k="place" v="isolated_dwelling" />
		<tag k="ssr:stedsnr" v="489286" />
	</node>
	<node lat="59.50403055867732" lon="11.6850305570093" id="-28377">
		<tag k="name" v="Steinsrud" />
		<tag k="place" v="locality" />
		<tag k="ssr:stedsnr" v="489387" />
	</node>
	<node lat="59.38822959287257" lon="11.667860697570383" id="-28378">
		<tag k="name" v="Ytterbøl" />
		<tag k="place" v="farm" />
		<tag k="ssr:stedsnr" v="489582" />
	</node>
	<node lat="59.32377163193839" lon="11.58538772257933" id="-28380">
		<tag k="alt_name" v="Kolviken" />
		<tag k="name" v="Kolbjørnviken" />
		<tag k="place" v="farm" />
		<tag k="ssr:stedsnr" v="489672" />
	</node>
	<node lat="59.547458334599824" lon="11.577836111053518" id="-28382">
		<tag k="name" v="Søndre Røen" />
		<tag k="place" v="farm" />
		<tag k="ssr:stedsnr" v="525524" />
	</node>
	<node lat="59.47442222452108" lon="11.733080548828916" id="-28395">
		<tag k="name" v="Søndre Håby" />
		<tag k="place" v="locality" />
		<tag k="ssr:stedsnr" v="537037" />
	</node>
	<node lat="59.480266670406436" lon="11.699977772180672" id="-28396">
		<tag k="name" v="Røser" />
		<tag k="place" v="farm" />
		<tag k="ssr:stedsnr" v="537040" />
	</node>
	<node lat="59.46302777851974" lon="11.73184444488828" id="-28397">
		<tag k="name" v="Ankerudskogen" />
		<tag k="place" v="locality" />
		<tag k="ssr:stedsnr" v="537041" />
	</node>
	<node lat="59.5278194416749" lon="11.647044449463092" id="-28400">
		<tag k="name" v="Spernes" />
		<tag k="place" v="farm" />
		<tag k="ssr:stedsnr" v="537418" />
	</node>
	<node lat="59.41594166531334" lon="11.71613054856726" id="-28401">
		<tag k="name" v="Ekebakken" />
		<tag k="place" v="farm" />
		<tag k="ssr:stedsnr" v="537571" />
	</node>
	<node lat="59.54288333252342" lon="11.634761108448144" id="-28404">
		<tag k="alt_name" v="Stillesby østre" />
		<tag k="name" v="Østre Stillesby" />
		<tag k="place" v="farm" />
		<tag k="ssr:stedsnr" v="537374" />
	</node>
	<node lat="59.377977779890784" lon="11.697244450071082" id="-28405">
		<tag k="name" v="Stusrud" />
		<tag k="place" v="farm" />
		<tag k="ssr:stedsnr" v="537486" />
	</node>
	<node lat="59.39694999716331" lon="11.726783338378326" id="-28407">
		<tag k="name" v="Sagstuen" />
		<tag k="place" v="farm" />
		<tag k="ssr:stedsnr" v="537493" />
	</node>
	<node lat="59.612355555994604" lon="11.539936118808395" id="-28411">
		<tag k="alt_name" v="Ba nordre" />
		<tag k="name" v="Nordre Ba" />
		<tag k="place" v="farm" />
		<tag k="ssr:stedsnr" v="537517" />
	</node>
	<node lat="59.6262222218004" lon="11.620413888168958" id="-28438">
		<tag k="name" v="Stamperud" />
		<tag k="place" v="farm" />
		<tag k="ssr:stedsnr" v="538165" />
	</node>
	<node lat="59.632222223852985" lon="11.564216672866209" id="-28439">
		<tag k="alt_name" v="Setra nordre" />
		<tag k="name" v="Nordre Setra" />
		<tag k="place" v="farm" />
		<tag k="ssr:stedsnr" v="538245" />
	</node>
	<node lat="59.47816667019718" lon="11.657797224581742" id="-28456">
		<tag k="amenity" v="school" />
		<tag k="name" v="Marker ungdomsskole" />
		<tag k="ssr:stedsnr" v="538771" />
	</node>
	<node lat="59.46962222116329" lon="11.640141667605905" id="-28458">
		<tag k="name" v="Lihagen" />
		<tag k="place" v="locality" />
		<tag k="ssr:stedsnr" v="548583" />
	</node>
	<node lat="59.63494444248255" lon="11.62096945063312" id="-28459">
		<tag k="name" v="Myrvoll" />
		<tag k="place" v="farm" />
		<tag k="ssr:stedsnr" v="549291" />
	</node>
	<node lat="59.46603055760975" lon="11.748416662410692" id="-28461">
		<tag k="name" v="Fjellby" />
		<tag k="place" v="isolated_dwelling" />
		<tag k="ssr:stedsnr" v="548595" />
	</node>
	<node lat="59.54927707651181" lon="11.624370243415568" id="-28464">
		<tag k="name" v="Gåseby" />
		<tag k="place" v="farm" />
		<tag k="ssr:stedsnr" v="549452" />
	</node>
	<node lat="59.57432536905453" lon="11.575962114668208" id="-28465">
		<tag k="alt_name" v="Vikeby nordre" />
		<tag k="name" v="Nordre Vikeby" />
		<tag k="place" v="farm" />
		<tag k="ssr:stedsnr" v="549464" />
	</node>
	<node lat="59.422341686354336" lon="11.71616855139135" id="-28466">
		<tag k="alt_name" v="Ledeng" />
		<tag k="name" v="Ledengen" />
		<tag k="place" v="farm" />
		<tag k="ssr:stedsnr" v="549468" />
	</node>
	<node lat="59.61486020168496" lon="11.561942556241295" id="-28468">
		<tag k="alt_name" v="Størløs" />
		<tag k="name" v="Storløs" />
		<tag k="place" v="farm" />
		<tag k="ssr:stedsnr" v="550276" />
	</node>
	<node lat="59.611980410794374" lon="11.542352453191825" id="-28469">
		<tag k="name" v="Ba" />
		<tag k="place" v="farm" />
		<tag k="ssr:stedsnr" v="550277" />
	</node>
	<node lat="59.59073888447709" lon="11.6900500063597" id="-28470">
		<tag k="historic" v="shieling" />
		<tag k="name" v="Olerudsetra" />
		<tag k="place" v="isolated_dwelling" />
		<tag k="ssr:stedsnr" v="550435" />
	</node>
	<node lat="59.543283329993784" lon="11.661636106601424" id="-28479">
		<tag k="name" v="Hermansetra" />
		<tag k="place" v="farm" />
		<tag k="ssr:stedsnr" v="597394" />
	</node>
	<node lat="59.52904166415087" lon="11.66291666140791" id="-28481">
		<tag k="name" v="Rud" />
		<tag k="place" v="locality" />
		<tag k="ssr:stedsnr" v="597439" />
	</node>
	<node lat="59.542333330392346" lon="11.585777778886127" id="-28482">
		<tag k="alt_name" v="Kallak søndre" />
		<tag k="name" v="Søndre Kallak" />
		<tag k="place" v="farm" />
		<tag k="ssr:stedsnr" v="597453" />
	</node>
	<node lat="59.413869442605645" lon="11.66541110737488" id="-28488">
		<tag k="name" v="Rødkinn" />
		<tag k="place" v="isolated_dwelling" />
		<tag k="ssr:stedsnr" v="597547" />
	</node>
	<node lat="59.52290998434149" lon="11.600582897613142" id="-28508">
		<tag k="name" v="Ilebekk" />
		<tag k="place" v="locality" />
		<tag k="ssr:stedsnr" v="597982" />
	</node>
	<node lat="59.55167777888197" lon="11.601077776329518" id="-28516">
		<tag k="name" v="Østre Klemetsby" />
		<tag k="place" v="farm" />
		<tag k="ssr:stedsnr" v="598036" />
	</node>
	<node lat="59.55983055332488" lon="11.590094451224845" id="-28517">
		<tag k="alt_name" v="Huser søndre" />
		<tag k="name" v="Søndre Huser" />
		<tag k="place" v="farm" />
		<tag k="ssr:stedsnr" v="598038" />
	</node>
	<node lat="59.4664194428783" lon="11.69015277901081" id="-28518">
		<tag k="alt_name" v="Gjølsjø nordre" />
		<tag k="name" v="Nordre Gjølsjø" />
		<tag k="place" v="farm" />
		<tag k="ssr:stedsnr" v="598042" />
	</node>
	<node lat="59.51177222593842" lon="11.675380552270518" id="-28524">
		<tag k="name" v="Julsrud" />
		<tag k="place" v="farm" />
		<tag k="ssr:stedsnr" v="598339" />
	</node>
	<node lat="59.51265833584645" lon="11.71253888616074" id="-28528">
		<tag k="name" v="Mosebysetra" />
		<tag k="place" v="locality" />
		<tag k="ssr:stedsnr" v="598354" />
	</node>
	<node lat="59.59546666388658" lon="11.661152773755978" id="-28532">
		<tag k="historic" v="shieling" />
		<tag k="loc_name" v="Åsebysetra" />
		<tag k="name" v="Folkenborgstua" />
		<tag k="place" v="isolated_dwelling" />
		<tag k="ssr:stedsnr" v="598288" />
	</node>
	<node lat="59.462438888791006" lon="11.675730547068186" id="-28535">
		<tag k="alt_name" v="Rud østre" />
		<tag k="name" v="Østre Rud" />
		<tag k="place" v="farm" />
		<tag k="ssr:stedsnr" v="598494" />
	</node>
	<node lat="59.43444721869191" lon="11.678511119206126" id="-28537">
		<tag k="name" v="Søndre Sandtorp" />
		<tag k="place" v="farm" />
		<tag k="ssr:stedsnr" v="598596" />
	</node>
	<node lat="59.58319999841928" lon="11.619774996826983" id="-28538">
		<tag k="name" v="Olerudhytta" />
		<tag k="place" v="locality" />
		<tag k="ssr:stedsnr" v="598720" />
	</node>
	<node lat="59.35007778234467" lon="11.743872215957827" id="-28543">
		<tag k="name" v="Østre Otteid" />
		<tag k="place" v="farm" />
		<tag k="ssr:stedsnr" v="598782" />
	</node>
	<node lat="59.384797221269224" lon="11.707191673818356" id="-28545">
		<tag k="name" v="Berget" />
		<tag k="place" v="farm" />
		<tag k="ssr:stedsnr" v="609527" />
	</node>
	<node lat="59.488033334654695" lon="11.682791673393172" id="-28546">
		<tag k="name" v="Sletta" />
		<tag k="place" v="farm" />
		<tag k="ssr:stedsnr" v="609532" />
	</node>
	<node lat="59.48711609709792" lon="11.669370052682977" id="-28547">
		<tag k="name" v="Krokstad" />
		<tag k="place" v="farm" />
		<tag k="ssr:stedsnr" v="609533" />
	</node>
	<node lat="59.462991453733935" lon="11.642951727294914" id="-28550">
		<tag k="name" v="Li" />
		<tag k="place" v="farm" />
		<tag k="ssr:stedsnr" v="609566" />
	</node>
	<node lat="59.437986106876934" lon="11.666744451823924" id="-28552">
		<tag k="name" v="Kolstad" />
		<tag k="place" v="farm" />
		<tag k="ssr:stedsnr" v="609570" />
	</node>
	<node lat="59.36072778182161" lon="11.633469449790688" id="-28554">
		<tag k="name" v="Damsløkka" />
		<tag k="place" v="locality" />
		<tag k="ssr:stedsnr" v="609674" />
	</node>
	<node lat="59.52414790647722" lon="11.604635807794997" id="-28557">
		<tag k="name" v="Holo" />
		<tag k="place" v="farm" />
		<tag k="ssr:stedsnr" v="610423" />
	</node>
	<node lat="59.60012419749943" lon="11.570887772569213" id="-28560">
		<tag k="alt_name" v="Glundberg" />
		<tag k="name" v="Glunnberg" />
		<tag k="place" v="farm" />
		<tag k="ssr:stedsnr" v="610515" />
	</node>
	<node lat="59.53747793729163" lon="11.657215084507715" id="-28561">
		<tag k="name" v="Langnes" />
		<tag k="place" v="farm" />
		<tag k="ssr:stedsnr" v="610522" />
	</node>
	<node lat="59.41016961466693" lon="11.724415060021524" id="-28564">
		<tag k="alt_name" v="Buer" />
		<tag k="name" v="Nordre Buer" />
		<tag k="place" v="farm" />
		<tag k="ssr:stedsnr" v="610563" />
	</node>
	<node lat="59.342285820043905" lon="11.731528109176962" id="-28565">
		<tag k="alt_name" v="Botten" />
		<tag k="name" v="Botn" />
		<tag k="place" v="farm" />
		<tag k="ssr:stedsnr" v="610756" />
	</node>
	<node lat="59.3485833374837" lon="11.701369440146207" id="-28580">
		<tag k="name" v="Grislingås" />
		<tag k="place" v="farm" />
		<tag k="ssr:stedsnr" v="658332" />
	</node>
	<node lat="59.506961109786175" lon="11.6671500062255" id="-28611">
		<tag k="alt_name" v="Grimsby østre" />
		<tag k="name" v="Østre Grimsby" />
		<tag k="place" v="farm" />
		<tag k="ssr:stedsnr" v="659357" />
	</node>
	<node lat="59.3459416683947" lon="11.676952769973822" id="-28613">
		<tag k="name" v="Djupvik" />
		<tag k="old_name" v="Dypvik" />
		<tag k="place" v="farm" />
		<tag k="ssr:stedsnr" v="659367" />
	</node>
	<node lat="59.588636115337174" lon="11.562119445619775" id="-28636">
		<tag k="name" v="Tommelsrud" />
		<tag k="place" v="farm" />
		<tag k="ssr:stedsnr" v="719159" />
	</node>
	<node lat="59.5554222180836" lon="11.616977773421006" id="-28637">
		<tag k="name" v="Sandvika" />
		<tag k="place" v="farm" />
		<tag k="ssr:stedsnr" v="719007" />
	</node>
	<node lat="59.57125894030389" lon="11.616124664300957" id="-28638">
		<tag k="name" v="Degnes" />
		<tag k="place" v="farm" />
		<tag k="ssr:stedsnr" v="719010" />
	</node>
	<node lat="59.55228333235262" lon="11.57730278327498" id="-28639">
		<tag k="name" v="Bråten" />
		<tag k="place" v="farm" />
		<tag k="ssr:stedsnr" v="719020" />
	</node>
	<node lat="59.49497777845525" lon="11.694616669516886" id="-28645">
		<tag k="name" v="Brandsrud" />
		<tag k="place" v="farm" />
		<tag k="ssr:stedsnr" v="719116" />
	</node>
	<node lat="59.583241663809964" lon="11.529044436072946" id="-28646">
		<tag k="alt_name" v="Fallet søndre" />
		<tag k="name" v="Søndre Fallet" />
		<tag k="place" v="farm" />
		<tag k="ssr:stedsnr" v="719187" />
	</node>
	<node lat="59.586044446465685" lon="11.543905548648876" id="-28648">
		<tag k="name" v="Vestby" />
		<tag k="place" v="farm" />
		<tag k="ssr:stedsnr" v="719195" />
	</node>
	<node lat="59.36672222072536" lon="11.674383336151955" id="-28653">
		<tag k="name" v="Gråbøl" />
		<tag k="place" v="farm" />
		<tag k="ssr:stedsnr" v="719294" />
	</node>
	<node lat="59.41665555491747" lon="11.674161118281631" id="-28657">
		<tag k="name" v="Espelund" />
		<tag k="place" v="locality" />
		<tag k="ssr:stedsnr" v="719515" />
	</node>
	<node lat="59.457961109971464" lon="11.667469451685694" id="-28664">
		<tag k="alt_name" v="Anonby søndre" />
		<tag k="name" v="Søndre Anonby" />
		<tag k="place" v="farm" />
		<tag k="ssr:stedsnr" v="719470" />
	</node>
	<node lat="59.40157449253787" lon="11.698124144748359" id="-28670">
		<tag k="name" v="Jeriko" />
		<tag k="place" v="locality" />
		<tag k="ssr:stedsnr" v="719547" />
	</node>
	<node lat="59.40727222389865" lon="11.695822224754895" id="-28672">
		<tag k="name" v="Huset" />
		<tag k="place" v="farm" />
		<tag k="ssr:stedsnr" v="719552" />
	</node>
	<node lat="59.633818540260904" lon="11.614102539112364" id="-28694">
		<tag k="loc_name" v="Sør-Åser" />
		<tag k="name" v="Åser" />
		<tag k="place" v="farm" />
		<tag k="ssr:stedsnr" v="720170" />
	</node>
	<node lat="59.61170833314994" lon="11.554213896973243" id="-28703">
		<tag k="name" v="Pommern" />
		<tag k="place" v="farm" />
		<tag k="ssr:stedsnr" v="720550" />
	</node>
	<node lat="59.555713887827835" lon="11.640986102827094" id="-28710">
		<tag k="name" v="Gåsebyhagen" />
		<tag k="place" v="farm" />
		<tag k="ssr:stedsnr" v="720421" />
	</node>
	<node lat="59.46929722130625" lon="11.64371667226455" id="-28711">
		<tag k="name" v="Nordli" />
		<tag k="place" v="locality" />
		<tag k="ssr:stedsnr" v="720714" />
	</node>
	<node lat="59.61044689910935" lon="11.573652638828046" id="-28712">
		<tag k="alt_name" v="Rakkestad østre" />
		<tag k="name" v="Østre Rakkestad" />
		<tag k="place" v="farm" />
		<tag k="ssr:stedsnr" v="720919" />
	</node>
	<node lat="59.59612777547967" lon="11.623847219399249" id="-28714">
		<tag k="name" v="Søndre Åseby" />
		<tag k="place" v="farm" />
		<tag k="ssr:stedsnr" v="720946" />
	</node>
	<node lat="59.62740613184378" lon="11.616414663904616" id="-28716">
		<tag k="name" v="Oppsal" />
		<tag k="place" v="farm" />
		<tag k="ssr:stedsnr" v="723678" />
	</node>
	<node lat="59.468288815626735" lon="11.661570030182007" id="-28718">
		<tag k="name" v="Torp" />
		<tag k="place" v="farm" />
		<tag k="ssr:stedsnr" v="730641" />
	</node>
	<node lat="59.37322222611192" lon="11.790427780382426" id="-28719">
		<tag k="alt_name" v="Norske Moen" />
		<tag k="name" v="Moen" />
		<tag k="place" v="farm" />
		<tag k="ssr:stedsnr" v="731650" />
	</node>
	<node lat="59.34755000187457" lon="11.685261113512622" id="-28721">
		<tag k="name" v="Nordre Djupvik" />
		<tag k="old_name" v="Djupvik;Dypvik nordre" />
		<tag k="place" v="farm" />
		<tag k="ssr:stedsnr" v="731702" />
	</node>
	<node lat="59.6000972189496" lon="11.629280560235715" id="-28724">
		<tag k="name" v="Ulfsby" />
		<tag k="place" v="farm" />
		<tag k="ssr:stedsnr" v="732479" />
	</node>
	<node lat="59.59240277635627" lon="11.592175000962339" id="-28725">
		<tag k="name" v="Nyborg" />
		<tag k="place" v="farm" />
		<tag k="ssr:stedsnr" v="732482" />
	</node>
	<node lat="59.594838885610656" lon="11.524863889505019" id="-28726">
		<tag k="name" v="Kongsbakk" />
		<tag k="place" v="farm" />
		<tag k="ssr:stedsnr" v="732485" />
	</node>
	<node lat="59.562274999462865" lon="11.619313890260129" id="-28729">
		<tag k="alt_name" v="Vika" />
		<tag k="name" v="Sandvika" />
		<tag k="place" v="farm" />
		<tag k="ssr:stedsnr" v="732528" />
	</node>
	<node lat="59.56197499814773" lon="11.63522777590163" id="-28730">
		<tag k="alt_name" v="Slustadhagan" />
		<tag k="name" v="Slupstadhagen" />
		<tag k="old_name" v="Hagen" />
		<tag k="place" v="farm" />
		<tag k="ssr:stedsnr" v="732530" />
	</node>
	<node lat="59.40484166855529" lon="11.733500003944863" id="-28737">
		<tag k="name" v="Buerødegård" />
		<tag k="place" v="farm" />
		<tag k="ssr:stedsnr" v="779888" />
	</node>
	<node lat="59.58694857810631" lon="11.554646196237966" id="-28743">
		<tag k="alt_name" v="Klerud nordre" />
		<tag k="name" v="Nordre Klerud" />
		<tag k="place" v="farm" />
		<tag k="ssr:stedsnr" v="780184" />
	</node>
	<node lat="59.50550555151968" lon="11.626402774228934" id="-28744">
		<tag k="name" v="Vestre Tyndelsrud" />
		<tag k="place" v="farm" />
		<tag k="ssr:stedsnr" v="780197" />
	</node>
	<node lat="59.61553610852312" lon="11.616655555548576" id="-28751">
		<tag k="name" v="Vispa" />
		<tag k="place" v="farm" />
		<tag k="ssr:stedsnr" v="780133" />
	</node>
	<node lat="59.615691662907956" lon="11.60428889432187" id="-28752">
		<tag k="alt_name" v="Krok søndre" />
		<tag k="name" v="Søndre Krok" />
		<tag k="place" v="farm" />
		<tag k="ssr:stedsnr" v="780142" />
	</node>
	<node lat="59.58871247623471" lon="11.614279934217329" id="-28766">
		<tag k="name" v="Nordre Olerud" />
		<tag k="old_name" v="Orderud nordre" />
		<tag k="place" v="farm" />
		<tag k="ssr:stedsnr" v="780694" />
	</node>
	<node lat="59.66578888835888" lon="11.63126388524054" id="-28775">
		<tag k="name" v="Oppsalsetervangen" />
		<tag k="place" v="locality" />
		<tag k="ssr:stedsnr" v="780394" />
	</node>
	<node lat="59.60867499910627" lon="11.680405552072015" id="-28795">
		<tag k="historic" v="shieling" />
		<tag k="name" v="Follkenborgstua" />
		<tag k="place" v="isolated_dwelling" />
		<tag k="ssr:stedsnr" v="780598" />
	</node>
	<node lat="59.5936388504028" lon="11.619436625736009" id="-28816">
		<tag k="name" v="Hen" />
		<tag k="place" v="farm" />
		<tag k="ssr:stedsnr" v="788449" />
	</node>
	<node lat="59.43284999538509" lon="11.690219452841951" id="-28817">
		<tag k="name" v="Botner" />
		<tag k="place" v="farm" />
		<tag k="ssr:stedsnr" v="791498" />
	</node>
	<node lat="59.43354999769776" lon="11.652902779696962" id="-28818">
		<tag k="alt_name" v="Djupedal nordre;Dypedal nordre" />
		<tag k="name" v="Nordre Djupedal" />
		<tag k="place" v="farm" />
		<tag k="ssr:stedsnr" v="791501" />
	</node>
	<node lat="59.38267499588562" lon="11.638041665590324" id="-28819">
		<tag k="alt_name" v="Halvorsrud, søndre;Halvorsrud" />
		<tag k="name" v="Søndre Halvorsrud" />
		<tag k="place" v="farm" />
		<tag k="ssr:stedsnr" v="791535" />
	</node>
	<node lat="59.4385472264366" lon="11.688466671026845" id="-28820">
		<tag k="name" v="Nordre Lømbu" />
		<tag k="old_name" v="Østre Lømbu" />
		<tag k="place" v="farm" />
		<tag k="ssr:stedsnr" v="791595" />
	</node>
	<node lat="59.40135559493269" lon="11.698964499127625" id="-28824">
		<tag k="name" v="Stikle" />
		<tag k="place" v="farm" />
		<tag k="ssr:stedsnr" v="792525" />
	</node>
	<node lat="59.34468055977" lon="11.716572227686852" id="-28829">
		<tag k="name" v="Labråten" />
		<tag k="place" v="isolated_dwelling" />
		<tag k="ssr:stedsnr" v="792719" />
	</node>
	<node lat="59.34268653942725" lon="11.752264295387556" id="-28830">
		<tag k="alt_name" v="Gjøsbu" />
		<tag k="name" v="Gysbu" />
		<tag k="place" v="farm" />
		<tag k="ssr:stedsnr" v="792722" />
	</node>
	<node lat="59.59424897677307" lon="11.555814794110551" id="-28831">
		<tag k="alt_name" v="Sandem" />
		<tag k="name" v="Sandum" />
		<tag k="place" v="farm" />
		<tag k="ssr:stedsnr" v="793492" />
	</node>
	<node lat="59.61674406491974" lon="11.60589336826442" id="-28833">
		<tag k="name" v="Krok" />
		<tag k="place" v="farm" />
		<tag k="ssr:stedsnr" v="793499" />
	</node>
	<node lat="59.55137471851927" lon="11.551518162000177" id="-28834">
		<tag k="name" v="Hiåsen" />
		<tag k="place" v="isolated_dwelling" />
		<tag k="ssr:stedsnr" v="796050" />
	</node>
	<node lat="59.43754166793599" lon="11.688016670338719" id="-28837">
		<tag k="name" v="Lømbu" />
		<tag k="place" v="locality" />
		<tag k="ssr:stedsnr" v="829528" />
	</node>
	<node lat="59.571400002201656" lon="11.587405549047672" id="-28838">
		<tag k="alt_name" v="Søndre Vikeby" />
		<tag k="name" v="Launes" />
		<tag k="place" v="farm" />
		<tag k="ssr:stedsnr" v="829500" />
	</node>
	<node lat="59.530052304378984" lon="11.595360017792942" id="-28841">
		<tag k="name" v="Krossbyhagen" />
		<tag k="place" v="farm" />
		<tag k="ssr:stedsnr" v="840409" />
	</node>
	<node lat="59.35546110819505" lon="11.773886105821507" id="-28848">
		<tag k="name" v="Søndre Torgrimsby" />
		<tag k="place" v="farm" />
		<tag k="ssr:stedsnr" v="840821" />
	</node>
	<node lat="59.57000398140032" lon="11.577438274576485" id="-28857">
		<tag k="alt_name" v="Vikeby søndre" />
		<tag k="name" v="Søndre Vikeby" />
		<tag k="place" v="farm" />
		<tag k="ssr:stedsnr" v="841245" />
	</node>
	<node lat="59.583708335329746" lon="11.560963894757206" id="-28862">
		<tag k="alt_name" v="Klerud østre" />
		<tag k="name" v="Østre Klerud" />
		<tag k="place" v="farm" />
		<tag k="ssr:stedsnr" v="841224" />
	</node>
	<node lat="59.394398582525874" lon="11.728195570781109" id="-28868">
		<tag k="alt_name" v="Eng" />
		<tag k="name" v="Søndre Eng" />
		<tag k="place" v="farm" />
		<tag k="ssr:stedsnr" v="841502" />
	</node>
	<node lat="59.60960833126585" lon="11.544444438463806" id="-28873">
		<tag k="alt_name" v="Ba søndre" />
		<tag k="name" v="Søndre Ba" />
		<tag k="place" v="farm" />
		<tag k="ssr:stedsnr" v="841524" />
	</node>
	<node lat="59.3393861095435" lon="11.634577777332938" id="-28900">
		<tag k="name" v="Flagghytta" />
		<tag k="place" v="isolated_dwelling" />
		<tag k="ssr:stedsnr" v="842348" />
	</node>
	<node lat="59.45911251704176" lon="11.666054123125413" id="-28908">
		<tag k="alt_name" v="Ånonby" />
		<tag k="name" v="Anonby" />
		<tag k="place" v="farm" />
		<tag k="ssr:stedsnr" v="852588" />
	</node>
	<node lat="59.463211084550686" lon="11.673897122108697" id="-28909">
		<tag k="name" v="Rud" />
		<tag k="place" v="farm" />
		<tag k="ssr:stedsnr" v="852589" />
	</node>
	<node lat="59.36395278233793" lon="11.782272220042874" id="-28916">
		<tag k="alt_name" v="Modalen" />
		<tag k="name" v="Modal" />
		<tag k="place" v="farm" />
		<tag k="ssr:stedsnr" v="853686" />
	</node>
	<node lat="59.35661389019882" lon="11.720816665654521" id="-28917">
		<tag k="name" v="Skinnarbu" />
		<tag k="place" v="farm" />
		<tag k="ssr:stedsnr" v="853702" />
	</node>
	<node lat="59.39059721879939" lon="11.621552773414695" id="-28920">
		<tag k="alt_name" v="Halvorsrudsetra" />
		<tag k="loc_name" v="Sætret" />
		<tag k="name" v="Sætra" />
		<tag k="place" v="farm" />
		<tag k="ssr:stedsnr" v="853534" />
	</node>
	<node lat="59.5303472240846" lon="11.598036113544477" id="-28931">
		<tag k="name" v="Dal" />
		<tag k="place" v="farm" />
		<tag k="ssr:stedsnr" v="961429" />
	</node>
	<node lat="59.62964722229771" lon="11.624813890022589" id="-28941">
		<tag k="name" v="Fossneset" />
		<tag k="place" v="farm" />
		<tag k="ssr:stedsnr" v="962128" />
	</node>
	<node lat="59.33109444440734" lon="11.626074994885776" id="-28944">
		<tag k="name" v="Fossebekken" />
		<tag k="place" v="locality" />
		<tag k="ssr:stedsnr" v="962420" />
	</node>
	<node lat="59.59526666437237" lon="11.527908341835124" id="-28955">
		<tag k="alt_name" v="Kongsbakk østre" />
		<tag k="name" v="Østre Kongsbakk" />
		<tag k="place" v="locality" />
		<tag k="ssr:stedsnr" v="962494" />
	</node>
	<node lat="59.49208055752645" lon="11.692319437874994" id="-28965">
		<tag k="name" v="Nordenga" />
		<tag k="place" v="farm" />
		<tag k="ssr:stedsnr" v="962285" />
	</node>
	<node lat="59.53926944546158" lon="11.669033335276598" id="-28974">
		<tag k="name" v="Gråberg" />
		<tag k="place" v="farm" />
		<tag k="ssr:stedsnr" v="962358" />
	</node>
	<node lat="59.543674465803186" lon="11.667347254950409" id="-28975">
		<tag k="name" v="Sandbekk" />
		<tag k="place" v="farm" />
		<tag k="ssr:stedsnr" v="962363" />
	</node>
	<node lat="59.548627778147065" lon="11.554441661433808" id="-28984">
		<tag k="name" v="Holta" />
		<tag k="place" v="farm" />
		<tag k="ssr:stedsnr" v="962561" />
	</node>
	<node lat="59.352255554801225" lon="11.776791664651864" id="-28987">
		<tag k="name" v="Ødegården" />
		<tag k="place" v="locality" />
		<tag k="ssr:stedsnr" v="962781" />
	</node>
	<node lat="59.613988889117316" lon="11.569547230992002" id="-28989">
		<tag k="alt_name" v="Rakkestad nordre" />
		<tag k="name" v="Nordre Rakkestad" />
		<tag k="place" v="farm" />
		<tag k="ssr:stedsnr" v="962892" />
	</node>
	<node lat="59.344611107395295" lon="11.6423333407892" id="-29003">
		<tag k="name" v="Nordre Slevik" />
		<tag k="place" v="farm" />
		<tag k="ssr:stedsnr" v="963382" />
	</node>
	<node lat="59.465546507628424" lon="11.665860166583956" id="-29040">
		<tag k="alt_name" v="Bøn" />
		<tag k="name" v="Bøen" />
		<tag k="place" v="farm" />
		<tag k="ssr:stedsnr" v="981164" />
	</node>
	<node lat="59.353352472558264" lon="11.654396212716923" id="-29209">
		<tag k="name" v="Sambøl" />
		<tag k="place" v="farm" />
		<tag k="ssr:stedsnr" v="1077410" />
	</node>
	<node lat="59.50782694040644" lon="11.667174387098191" id="-29210">
		<tag k="name" v="Grimsby" />
		<tag k="place" v="farm" />
		<tag k="ssr:stedsnr" v="1077414" />
	</node>
	<node lat="59.45286285489988" lon="11.701943075476407" id="-29211">
		<tag k="name" v="Ankerud" />
		<tag k="place" v="farm" />
		<tag k="ssr:stedsnr" v="1077448" />
	</node>
	<node lat="59.34369271779865" lon="11.641434830469215" id="-29212">
		<tag k="name" v="Søndre Slevik" />
		<tag k="place" v="farm" />
		<tag k="ssr:stedsnr" v="1077452" />
	</node>
	<node lat="59.357553859281886" lon="11.772414180387846" id="-29213">
		<tag k="name" v="Torgrimsbu" />
		<tag k="place" v="farm" />
		<tag k="ssr:stedsnr" v="1077456" />
	</node>
	<node lat="59.54775511739804" lon="11.60101669306221" id="-29219">
		<tag k="name" v="Søndre Klemetsby" />
		<tag k="place" v="farm" />
		<tag k="ssr:stedsnr" v="1084004" />
	</node>
	<node lat="59.46205088783416" lon="11.698613102373562" id="-29220">
		<tag k="name" v="Vestre Krossby" />
		<tag k="place" v="farm" />
		<tag k="ssr:stedsnr" v="1084226" />
	</node>
	<node lat="59.47963104851844" lon="11.735990062530606" id="-29221">
		<tag k="name" v="Vestre Krossby" />
		<tag k="place" v="farm" />
		<tag k="ssr:stedsnr" v="1084227" />
	</node>
	<node lat="59.52974469980594" lon="11.595756422393778" id="-29222">
		<tag k="name" v="Krossbyhagen" />
		<tag k="place" v="farm" />
		<tag k="ssr:stedsnr" v="1084228" />
	</node>
	<node lat="59.529919014712135" lon="11.595040244788965" id="-29223">
		<tag k="name" v="Krossbyhagen II" />
		<tag k="place" v="farm" />
		<tag k="ssr:stedsnr" v="1084242" />
	</node>
	<node lat="59.55070348913425" lon="11.597448084154228" id="-29224">
		<tag k="name" v="Vestre Klemetsby" />
		<tag k="place" v="farm" />
		<tag k="ssr:stedsnr" v="1084243" />
	</node>
	<node lat="59.47831141619053" lon="11.675410761975325" id="-29225">
		<tag k="name" v="Brødrene Olsens vei" />
		<tag k="old_name" v="Veigrunn - Tjernstubben" />
		<tag k="place" v="farm" />
		<tag k="ssr:stedsnr" v="1084492" />
	</node>
</osm>
