<?xml version="1.0" encoding="UTF-8"?>
<osm version="0.6" generator="osmapis">
	<node lat="59.40191388660431" lon="11.649844436705058" id="-26955">
		<tag k="man_made" v="quay" />
		<tag k="name" v="Åsmundrudbrygga" />
		<tag k="place" v="locality" />
		<tag k="ssr:stedsnr" v="233541" />
	</node>
	<node lat="59.45831828300669" lon="11.615391857280104" id="-26967">
		<tag k="bridge" v="yes" />
		<tag k="layer" v="1" />
		<tag k="name" v="Liseterbrua" />
		<tag k="ssr:stedsnr" v="233829" />
	</node>
	<node lat="59.36168610873554" lon="11.614886112425571" id="-26977">
		<tag k="highway" v="path" />
		<tag k="name" v="Hesteveien" />
		<tag k="ssr:stedsnr" v="234068" />
	</node>
	<node lat="59.487586109653236" lon="11.638574998843936" id="-27042">
		<tag k="highway" v="path" />
		<tag k="name" v="Vikabakken" />
		<tag k="ssr:stedsnr" v="52223" />
	</node>
	<node lat="59.492113890973" lon="11.671550003012886" id="-27147">
		<tag k="bridge" v="yes" />
		<tag k="layer" v="1" />
		<tag k="name" v="Enger" />
		<tag k="ssr:stedsnr" v="167613" />
	</node>
	<node lat="59.481477773771964" lon="11.663605563697734" id="-27148">
		<tag k="bridge" v="yes" />
		<tag k="layer" v="1" />
		<tag k="name" v="Brårudtangen" />
		<tag k="ssr:stedsnr" v="167564" />
	</node>
	<node lat="59.504986111636306" lon="11.61844443859167" id="-27361">
		<tag k="bridge" v="yes" />
		<tag k="layer" v="1" />
		<tag k="name" v="Trollås" />
		<tag k="ssr:stedsnr" v="470554" />
	</node>
	<node lat="59.48280278096454" lon="11.654358326553771" id="-27362">
		<tag k="bridge" v="yes" />
		<tag k="layer" v="1" />
		<tag k="name" v="Ørje elv" />
		<tag k="ssr:stedsnr" v="470555" />
	</node>
	<node lat="59.40413611533139" lon="11.719394446795654" id="-27363">
		<tag k="bridge" v="yes" />
		<tag k="layer" v="1" />
		<tag k="name" v="Buer" />
		<tag k="ssr:stedsnr" v="470504" />
	</node>
	<node lat="59.34465833300907" lon="11.790033329892433" id="-27371">
		<tag k="highway" v="path" />
		<tag k="name" v="Perkebakkene" />
		<tag k="ssr:stedsnr" v="354807" />
	</node>
	<node lat="59.49868055911346" lon="11.622655547082797" id="-27424">
		<tag k="highway" v="path" />
		<tag k="name" v="Den store kleva" />
		<tag k="ssr:stedsnr" v="476202" />
	</node>
	<node lat="59.50955277799227" lon="11.61185000832056" id="-27445">
		<tag k="highway" v="path" />
		<tag k="name" v="Soppekleiv" />
		<tag k="ssr:stedsnr" v="476501" />
	</node>
	<node lat="59.33251271342263" lon="11.63597210944651" id="-27599">
		<tag k="alt_name" v="Fossbekk bru" />
		<tag k="bridge" v="yes" />
		<tag k="layer" v="1" />
		<tag k="name" v="Fossbekkbrua" />
		<tag k="ssr:stedsnr" v="428727" />
	</node>
	<node lat="59.44886388527681" lon="11.654561113415514" id="-27790">
		<tag k="man_made" v="quay" />
		<tag k="name" v="Årnesbrygga" />
		<tag k="place" v="locality" />
		<tag k="ssr:stedsnr" v="598515" />
	</node>
	<node lat="59.47790833370944" lon="11.685491673420312" id="-27813">
		<tag k="bridge" v="yes" />
		<tag k="layer" v="1" />
		<tag k="name" v="Gjølsjø" />
		<tag k="ssr:stedsnr" v="652556" />
	</node>
	<node lat="59.567213884980376" lon="11.60953611259866" id="-27846">
		<tag k="man_made" v="quay" />
		<tag k="name" v="Brygga" />
		<tag k="place" v="locality" />
		<tag k="ssr:stedsnr" v="659007" />
	</node>
	<node lat="59.43555833648106" lon="11.622405552574845" id="-27877">
		<tag k="alt_name" v="Halsveien" />
		<tag k="highway" v="path" />
		<tag k="name" v="Halsvegen" />
		<tag k="ssr:stedsnr" v="670472" />
	</node>
	<node lat="59.38158610974427" lon="11.642377770601504" id="-27890">
		<tag k="bridge" v="yes" />
		<tag k="layer" v="1" />
		<tag k="name" v="Halvorsrød" />
		<tag k="ssr:stedsnr" v="713594" />
	</node>
	<node lat="59.40384722094624" lon="11.716144451444716" id="-27891">
		<tag k="bridge" v="yes" />
		<tag k="layer" v="1" />
		<tag k="name" v="Høye" />
		<tag k="ssr:stedsnr" v="713597" />
	</node>
	<node lat="59.46177778007268" lon="11.644713895173625" id="-27892">
		<tag k="bridge" v="yes" />
		<tag k="layer" v="1" />
		<tag k="name" v="Lie" />
		<tag k="ssr:stedsnr" v="713598" />
	</node>
	<node lat="59.40596666815899" lon="11.66919444257074" id="-27970">
		<tag k="junction" v="yes" />
		<tag k="name" v="Granerud" />
		<tag k="place" v="locality" />
		<tag k="ssr:stedsnr" v="901574" />
	</node>
	<node lat="59.470694442714766" lon="11.670027782596355" id="-27997">
		<tag k="highway" v="path" />
		<tag k="name" v="Kongeveien" />
		<tag k="ssr:stedsnr" v="902041" />
	</node>
	<node lat="59.63140654792607" lon="11.602595018732128" id="-28057">
		<tag k="junction" v="yes" />
		<tag k="loc_name" v="Engakrysset" />
		<tag k="name" v="Nedre Engakrysset" />
		<tag k="place" v="locality" />
		<tag k="ssr:stedsnr" v="780167" />
	</node>
	<node lat="59.41739721875596" lon="11.662972218941196" id="-28072">
		<tag k="man_made" v="quay" />
		<tag k="name" v="Øyestadbrygga" />
		<tag k="place" v="locality" />
		<tag k="ssr:stedsnr" v="780507" />
	</node>
	<node lat="59.495722224626505" lon="11.579455559776846" id="-28080">
		<tag k="ford" v="yes" />
		<tag k="name" v="Morttjernvadet" />
		<tag k="place" v="locality" />
		<tag k="ssr:stedsnr" v="780951" />
	</node>
	<node lat="59.484425001214355" lon="11.646069447727346" id="-28206">
		<tag k="bridge" v="yes" />
		<tag k="layer" v="1" />
		<tag k="name" v="Ørjeberga" />
		<tag k="ssr:stedsnr" v="895528" />
	</node>
	<node lat="59.347844446401304" lon="11.714624999289084" id="-28207">
		<tag k="bridge" v="yes" />
		<tag k="layer" v="1" />
		<tag k="name" v="Grislingås" />
		<tag k="ssr:stedsnr" v="896606" />
	</node>
	<node lat="59.53741111031836" lon="11.585566668233769" id="-28258">
		<tag k="bridge" v="yes" />
		<tag k="layer" v="1" />
		<tag k="name" v="Kirkeng" />
		<tag k="ssr:stedsnr" v="956623" />
	</node>
	<node lat="59.618261107563036" lon="11.596836109343329" id="-28259">
		<tag k="bridge" v="yes" />
		<tag k="layer" v="1" />
		<tag k="name" v="Krok" />
		<tag k="ssr:stedsnr" v="956625" />
	</node>
	<node lat="59.51366666945691" lon="11.54030555903472" id="-28299">
		<tag k="man_made" v="cairn" />
		<tag k="name" v="Langerøys" />
		<tag k="place" v="locality" />
		<tag k="ssr:stedsnr" v="962935" />
	</node>
	<node lat="59.63145277542388" lon="11.613211117201088" id="-28403">
		<tag k="junction" v="yes" />
		<tag k="name" v="Østre Engakrysset" />
		<tag k="place" v="locality" />
		<tag k="ssr:stedsnr" v="52137" />
	</node>
	<node lat="59.516683332032315" lon="11.691202775089607" id="-28546">
		<tag k="highway" v="path" />
		<tag k="name" v="Bergerkvea" />
		<tag k="ssr:stedsnr" v="113352" />
	</node>
	<node lat="59.394480559391546" lon="11.773625000560306" id="-28644">
		<tag k="highway" v="path" />
		<tag k="name" v="Rønningveien" />
		<tag k="ssr:stedsnr" v="173883" />
	</node>
	<node lat="59.48099999737761" lon="11.666072227235853" id="-28684">
		<tag k="bridge" v="yes" />
		<tag k="layer" v="1" />
		<tag k="name" v="Ørje kanal" />
		<tag k="ssr:stedsnr" v="227561" />
	</node>
	<node lat="59.61846932867488" lon="11.586091543248244" id="-28685">
		<tag k="alt_name" v="Kroksund" />
		<tag k="bridge" v="yes" />
		<tag k="layer" v="1" />
		<tag k="name" v="Kroksund bru" />
		<tag k="ssr:stedsnr" v="289617" />
	</node>
	<node lat="59.48272500335699" lon="11.592008332036277" id="-28710">
		<tag k="ford" v="yes" />
		<tag k="name" v="Jonsvannsvadet" />
		<tag k="place" v="locality" />
		<tag k="ssr:stedsnr" v="294837" />
	</node>
	<node lat="59.52433889071044" lon="11.710436117896926" id="-28722">
		<tag k="highway" v="path" />
		<tag k="name" v="Kubbebakken" />
		<tag k="ssr:stedsnr" v="295364" />
	</node>
	<node lat="59.339952778021726" lon="11.58151666407129" id="-28760">
		<tag k="bridge" v="yes" />
		<tag k="layer" v="1" />
		<tag k="name" v="Kvernkasa" />
		<tag k="ssr:stedsnr" v="349621" />
	</node>
	<node lat="59.41973333091252" lon="11.594772220943556" id="-28803">
		<tag k="man_made" v="cairn" />
		<tag k="name" v="Kastestenrøset" />
		<tag k="place" v="locality" />
		<tag k="ssr:stedsnr" v="356176" />
	</node>
	<node lat="59.58185833493282" lon="11.56541389451228" id="-28863">
		<tag k="bridge" v="yes" />
		<tag k="layer" v="1" />
		<tag k="name" v="Taraldrud" />
		<tag k="ssr:stedsnr" v="410570" />
	</node>
	<node lat="59.48095833214413" lon="11.66621943792459" id="-28864">
		<tag k="bridge" v="yes" />
		<tag k="layer" v="1" />
		<tag k="name" v="Kilebu" />
		<tag k="ssr:stedsnr" v="410578" />
	</node>
	<node lat="59.62383611188707" lon="11.611797225254959" id="-28865">
		<tag k="bridge" v="yes" />
		<tag k="layer" v="1" />
		<tag k="name" v="Oppsalbrua" />
		<tag k="old_name" v="Oppsal" />
		<tag k="ssr:stedsnr" v="410583" />
	</node>
	<node lat="59.51511389345402" lon="11.594672217820966" id="-28964">
		<tag k="highway" v="path" />
		<tag k="name" v="Kleiva" />
		<tag k="ssr:stedsnr" v="537490" />
	</node>
	<node lat="59.46134999875761" lon="11.660594440128905" id="-29059">
		<tag k="bridge" v="yes" />
		<tag k="layer" v="1" />
		<tag k="name" v="Bøen" />
		<tag k="ssr:stedsnr" v="592595" />
	</node>
	<node lat="59.53020000162258" lon="11.571294440293384" id="-29060">
		<tag k="bridge" v="yes" />
		<tag k="layer" v="1" />
		<tag k="name" v="Kamperud" />
		<tag k="ssr:stedsnr" v="592600" />
	</node>
	<node lat="59.42096388684706" lon="11.694477776966977" id="-29169">
		<tag k="alt_name" v="Klevavadet" />
		<tag k="bridge" v="yes" />
		<tag k="layer" v="1" />
		<tag k="name" v="Kleivavadet" />
		<tag k="ssr:stedsnr" v="658527" />
	</node>
	<node lat="59.607463884460934" lon="11.615052779507481" id="-29406">
		<tag k="alt_name" v="Svendsbykrysset" />
		<tag k="junction" v="yes" />
		<tag k="name" v="Svensbykrysset" />
		<tag k="place" v="locality" />
		<tag k="ssr:stedsnr" v="780946" />
	</node>
	<node lat="59.482294448192114" lon="11.650969447116848" id="-29431">
		<tag k="name" v="Ørje" />
		<tag k="old_name" v="Ørje sluser" />
		<tag k="ssr:stedsnr" v="813362" />
		<tag k="waterway" v="lock_gate" />
	</node>
	<node lat="59.41229231764982" lon="11.752648899482018" id="-29445">
		<tag k="bridge" v="yes" />
		<tag k="layer" v="1" />
		<tag k="name" v="Åsetjernbrua" />
		<tag k="ssr:stedsnr" v="840911" />
	</node>
	<node lat="59.49119721957513" lon="11.638574993529524" id="-29507">
		<tag k="bridge" v="yes" />
		<tag k="layer" v="1" />
		<tag k="name" v="Ysterud" />
		<tag k="ssr:stedsnr" v="955562" />
	</node>
	<node lat="59.48290900443715" lon="11.650919043519986" id="-29508">
		<tag k="bridge" v="yes" />
		<tag k="layer" v="1" />
		<tag k="name" v="Ørje svingbru" />
		<tag k="ssr:stedsnr" v="955563" />
	</node>
	<node lat="59.42755000042925" lon="11.635555554635756" id="-29516">
		<tag k="amenity" v="parking" />
		<tag k="name" v="Bedehuset" />
		<tag k="ssr:stedsnr" v="961580" />
	</node>
	<node lat="59.12594492089694" lon="11.445646064781815" id="-29627">
		<tag k="name" v="Haldenkanalen" />
		<tag k="ssr:stedsnr" v="990327" />
		<tag k="waterway" v="canal" />
	</node>
</osm>
