<?xml version="1.0" encoding="UTF-8"?>
<osm version="0.6" generator="osmapis">
	<node lat="61.77754167106066" lon="9.724036115459015" id="-22424">
		<tag k="name" v="Furusjøen" />
		<tag k="natural" v="water" />
		<tag k="ssr:stedsnr" v="253579" />
		<tag k="water" v="lake" />
	</node>
	<node lat="61.624375003841685" lon="9.281263893981963" id="-22442">
		<tag k="name" v="Svarttjønn" />
		<tag k="natural" v="water" />
		<tag k="ssr:stedsnr" v="10492" />
	</node>
	<node lat="61.64191388566447" lon="9.366341673625648" id="-22445">
		<tag k="name" v="Berdøltjønnin" />
		<tag k="natural" v="water" />
		<tag k="ssr:stedsnr" v="10509" />
	</node>
	<node lat="61.70754166626454" lon="9.205111119549313" id="-22452">
		<tag k="alt_name" v="Rustbekken" />
		<tag k="name" v="Rustmyrbekken" />
		<tag k="ssr:stedsnr" v="11000" />
		<tag k="waterway" v="stream" />
	</node>
	<node lat="61.790627776114945" lon="9.592074992854608" id="-22462">
		<tag k="name" v="Veslebekken" />
		<tag k="ssr:stedsnr" v="232145" />
		<tag k="waterway" v="stream" />
	</node>
	<node lat="61.79349166914293" lon="9.602075002120086" id="-22465">
		<tag k="name" v="Nedre Lorttjønn" />
		<tag k="natural" v="water" />
		<tag k="ssr:stedsnr" v="232168" />
	</node>
	<node lat="61.81614722499304" lon="9.61473888737651" id="-22467">
		<tag k="name" v="Lauvdalsbekken" />
		<tag k="ssr:stedsnr" v="232234" />
		<tag k="waterway" v="stream" />
	</node>
	<node lat="61.75573889163464" lon="9.537077779346854" id="-22473">
		<tag k="name" v="Selsjordhølen" />
		<tag k="natural" v="bay" />
		<tag k="ssr:stedsnr" v="232395" />
	</node>
	<node lat="61.734741670664874" lon="9.616391675537008" id="-22488">
		<tag k="name" v="Vadtjønne" />
		<tag k="natural" v="water" />
		<tag k="ssr:stedsnr" v="22104" />
	</node>
	<node lat="61.81549166996568" lon="9.554033335347059" id="-22503">
		<tag k="name" v="Svartholbekken" />
		<tag k="ssr:stedsnr" v="50202" />
		<tag k="waterway" v="stream" />
	</node>
	<node lat="61.66869444163607" lon="9.529908339515188" id="-22510">
		<tag k="name" v="Brunnhaugbekken" />
		<tag k="ssr:stedsnr" v="50603" />
		<tag k="waterway" v="stream" />
	</node>
	<node lat="61.89437499943203" lon="9.477230559126347" id="-22513">
		<tag k="name" v="Brennbekken" />
		<tag k="ssr:stedsnr" v="50711" />
		<tag k="waterway" v="stream" />
	</node>
	<node lat="61.73987778186784" lon="9.625638888256185" id="-22518">
		<tag k="name" v="Gneddtjønne" />
		<tag k="natural" v="water" />
		<tag k="ssr:stedsnr" v="70623" />
	</node>
	<node lat="61.71697023953716" lon="9.330025070328984" id="-22527">
		<tag k="loc_name" v="Øvre Skitjønn" />
		<tag k="name" v="Øvre Skitjønnin" />
		<tag k="natural" v="water" />
		<tag k="ssr:stedsnr" v="71713" />
	</node>
	<node lat="61.71554444745077" lon="9.263272221910526" id="-22546">
		<tag k="name" v="Bertilgrøna" />
		<tag k="natural" v="water" />
		<tag k="ssr:stedsnr" v="110203" />
	</node>
	<node lat="61.8154138889809" lon="9.606247227262878" id="-22556">
		<tag k="name" v="Lynningdalsbekken" />
		<tag k="ssr:stedsnr" v="111194" />
		<tag k="waterway" v="stream" />
	</node>
	<node lat="61.785388888420144" lon="9.406394439034374" id="-22569">
		<tag k="name" v="Veggemsøya" />
		<tag k="place" v="islet" />
		<tag k="ssr:stedsnr" v="111680" />
	</node>
	<node lat="61.874783329524334" lon="9.427361113629914" id="-22573">
		<tag k="alt_name" v="Harrtjernbekken" />
		<tag k="name" v="Hårrtjønnbekken" />
		<tag k="ssr:stedsnr" v="111902" />
		<tag k="waterway" v="stream" />
	</node>
	<node lat="61.76146666348798" lon="9.199955549345736" id="-22579">
		<tag k="alt_name" v="Lustjønn" />
		<tag k="name" v="Lustjørni" />
		<tag k="natural" v="water" />
		<tag k="ssr:stedsnr" v="131373" />
	</node>
	<node lat="61.879663890766665" lon="10.012716668943527" id="-22580">
		<tag k="name" v="Bergetjønna" />
		<tag k="natural" v="water" />
		<tag k="ssr:stedsnr" v="131580" />
	</node>
	<node lat="61.67191521809089" lon="9.18897680831706" id="-22588">
		<tag k="alt_name" v="Mæringsdalsvatnet" />
		<tag k="name" v="Meringsdalsvatnet" />
		<tag k="natural" v="water" />
		<tag k="ssr:stedsnr" v="131777" />
		<tag k="water" v="lake" />
	</node>
	<node lat="61.73685833566347" lon="9.137152775503296" id="-22591">
		<tag k="alt_name" v="Slombbekken" />
		<tag k="name" v="Slombekken" />
		<tag k="ssr:stedsnr" v="131975" />
		<tag k="waterway" v="stream" />
	</node>
	<node lat="61.68780000046058" lon="9.438500003227832" id="-22594">
		<tag k="name" v="Nonsbekken" />
		<tag k="ssr:stedsnr" v="252717" />
		<tag k="waterway" v="stream" />
	</node>
	<node lat="61.59221567410143" lon="9.135347259268093" id="-22596">
		<tag k="name" v="Buvatnet" />
		<tag k="natural" v="water" />
		<tag k="ssr:stedsnr" v="252784" />
		<tag k="water" v="lake" />
	</node>
	<node lat="61.58775278094755" lon="9.136305561257489" id="-22597">
		<tag k="name" v="Snuldra" />
		<tag k="natural" v="water" />
		<tag k="ssr:stedsnr" v="252785" />
	</node>
	<node lat="61.73859722095811" lon="9.248516672457002" id="-22598">
		<tag k="name" v="Storbekken" />
		<tag k="ssr:stedsnr" v="252786" />
		<tag k="waterway" v="stream" />
	</node>
	<node lat="61.589725000887405" lon="9.150105552282948" id="-22599">
		<tag k="name" v="Butjørni" />
		<tag k="natural" v="water" />
		<tag k="ssr:stedsnr" v="252796" />
	</node>
	<node lat="61.795258336210225" lon="9.396730564401587" id="-22604">
		<tag k="name" v="Hovdastjønne" />
		<tag k="natural" v="water" />
		<tag k="ssr:stedsnr" v="252834" />
	</node>
	<node lat="61.727825001583206" lon="9.174261110862057" id="-22607">
		<tag k="name" v="Rindhølen" />
		<tag k="place" v="locality" />
		<tag k="ssr:stedsnr" v="252969" />
	</node>
	<node lat="61.78591670075777" lon="9.635192207157552" id="-22610">
		<tag k="name" v="Holtjønne" />
		<tag k="natural" v="water" />
		<tag k="ssr:stedsnr" v="253561" />
		<tag k="water" v="lake" />
	</node>
	<node lat="61.75571388624068" lon="9.576883330323842" id="-22612">
		<tag k="name" v="Solhjemsåe" />
		<tag k="ssr:stedsnr" v="253689" />
		<tag k="waterway" v="stream" />
	</node>
	<node lat="61.868458331882245" lon="9.606333336971757" id="-22615">
		<tag k="alt_name" v="Høvringvatnet, s" />
		<tag k="name" v="Søre Høvringvatnet" />
		<tag k="natural" v="water" />
		<tag k="ssr:stedsnr" v="253772" />
	</node>
	<node lat="61.70781667030645" lon="9.411152780139098" id="-22628">
		<tag k="name" v="Åkerlykkjebekken" />
		<tag k="ssr:stedsnr" v="170009" />
		<tag k="waterway" v="stream" />
	</node>
	<node lat="61.854238886701545" lon="9.461749999454028" id="-22656">
		<tag k="name" v="Vesleputten" />
		<tag k="natural" v="water" />
		<tag k="ssr:stedsnr" v="171905" />
		<tag k="water" v="pond" />
	</node>
	<node lat="61.83091096648812" lon="9.482385539228385" id="-22657">
		<tag k="alt_name" v="Skoftvatnet" />
		<tag k="name" v="Skottvatnet" />
		<tag k="natural" v="water" />
		<tag k="ssr:stedsnr" v="173758" />
		<tag k="water" v="lake" />
	</node>
	<node lat="61.74616110820487" lon="9.640041658973459" id="-22662">
		<tag k="name" v="Dalstjern" />
		<tag k="natural" v="water" />
		<tag k="ssr:stedsnr" v="231246" />
	</node>
	<node lat="61.776383335672925" lon="9.642941673801673" id="-22665">
		<tag k="name" v="Jomfrubekken" />
		<tag k="ssr:stedsnr" v="231195" />
		<tag k="waterway" v="stream" />
	</node>
	<node lat="61.726427774590924" lon="9.39379999051176" id="-22687">
		<tag k="alt_name" v="Ødegårdsbekken" />
		<tag k="name" v="Bredbekken" />
		<tag k="old_name" v="Ødeårdsbekken" />
		<tag k="ssr:stedsnr" v="253647" />
		<tag k="waterway" v="stream" />
	</node>
	<node lat="61.893153689270235" lon="9.79840280222682" id="-22702">
		<tag k="name" v="Rondvatnet" />
		<tag k="natural" v="water" />
		<tag k="ssr:stedsnr" v="253743" />
		<tag k="water" v="lake" />
	</node>
	<node lat="61.90605278018695" lon="9.527502779284792" id="-22711">
		<tag k="name" v="Brennstakkståe" />
		<tag k="ssr:stedsnr" v="253995" />
		<tag k="waterway" v="river" />
	</node>
	<node lat="61.90680555467097" lon="9.5342333341229" id="-22712">
		<tag k="name" v="Storsteinåe" />
		<tag k="ssr:stedsnr" v="253996" />
		<tag k="waterway" v="stream" />
	</node>
	<node lat="61.7173861116304" lon="9.447552780821981" id="-22714">
		<tag k="name" v="Hjellebekken" />
		<tag k="ssr:stedsnr" v="292075" />
		<tag k="waterway" v="stream" />
	</node>
	<node lat="61.80587499671194" lon="9.647994446583555" id="-22716">
		<tag k="name" v="Granmyrbekken" />
		<tag k="ssr:stedsnr" v="292125" />
		<tag k="waterway" v="stream" />
	</node>
	<node lat="61.739405558048844" lon="9.640127781228475" id="-22721">
		<tag k="name" v="Nedre Sleotjern" />
		<tag k="natural" v="water" />
		<tag k="ssr:stedsnr" v="292197" />
	</node>
	<node lat="61.75916666456559" lon="9.329855562265992" id="-22730">
		<tag k="name" v="Veslesæterbekken" />
		<tag k="ssr:stedsnr" v="292586" />
		<tag k="waterway" v="stream" />
	</node>
	<node lat="61.78895555753373" lon="9.615830556609938" id="-22736">
		<tag k="name" v="Bergetjønnbekken" />
		<tag k="ssr:stedsnr" v="293181" />
		<tag k="waterway" v="stream" />
	</node>
	<node lat="61.791080553134506" lon="9.622236117407402" id="-22737">
		<tag k="name" v="Åbbortjønnbekken" />
		<tag k="ssr:stedsnr" v="293184" />
		<tag k="waterway" v="stream" />
	</node>
	<node lat="61.7132416698229" lon="9.285002770168145" id="-22750">
		<tag k="name" v="Veslerotjønne" />
		<tag k="natural" v="water" />
		<tag k="ssr:stedsnr" v="313670" />
	</node>
	<node lat="61.63933117470786" lon="9.142279241959335" id="-22754">
		<tag k="name" v="Hestkneiktjørnin" />
		<tag k="natural" v="water" />
		<tag k="ssr:stedsnr" v="313804" />
		<tag k="water" v="lake" />
	</node>
	<node lat="61.79432777846653" lon="9.61111666836758" id="-22758">
		<tag k="name" v="Øvre Raphamntjønne" />
		<tag k="natural" v="water" />
		<tag k="ssr:stedsnr" v="314571" />
	</node>
	<node lat="61.7671527763248" lon="9.541961108018299" id="-22763">
		<tag k="name" v="Ottbragdøya" />
		<tag k="old_name" v="Ottbragdi;Ottbragden" />
		<tag k="place" v="island" />
		<tag k="ssr:stedsnr" v="345802" />
	</node>
	<node lat="61.741877779131215" lon="9.340908342015034" id="-22765">
		<tag k="name" v="Ellingsbøøyra" />
		<tag k="place" v="islet" />
		<tag k="ssr:stedsnr" v="473812" />
	</node>
	<node lat="61.75448352368612" lon="9.602890625250764" id="-22769">
		<tag k="name" v="Mørtjønna" />
		<tag k="natural" v="water" />
		<tag k="ssr:stedsnr" v="474025" />
	</node>
	<node lat="61.59024167061699" lon="9.231597219838095" id="-22778">
		<tag k="name" v="Tolstaddammen" />
		<tag k="ssr:stedsnr" v="474081" />
		<tag k="waterway" v="dam" />
	</node>
	<node lat="61.7481027775333" lon="9.570952779851716" id="-22779">
		<tag k="name" v="Steinbekken" />
		<tag k="ssr:stedsnr" v="474085" />
		<tag k="waterway" v="stream" />
	</node>
	<node lat="61.73060555184165" lon="9.601519449133194" id="-22797">
		<tag k="name" v="Vangstjønn" />
		<tag k="natural" v="water" />
		<tag k="ssr:stedsnr" v="353062" />
	</node>
	<node lat="61.78656944313819" lon="9.646544451725559" id="-22799">
		<tag k="name" v="Vesletjønn" />
		<tag k="natural" v="water" />
		<tag k="ssr:stedsnr" v="353212" />
	</node>
	<node lat="61.81222778011603" lon="9.631744451517212" id="-22804">
		<tag k="name" v="Isakhølen" />
		<tag k="place" v="locality" />
		<tag k="ssr:stedsnr" v="353360" />
	</node>
	<node lat="61.84473055428997" lon="9.350972216549456" id="-22826">
		<tag k="name" v="Banken" />
		<tag k="natural" v="beach" />
		<tag k="ssr:stedsnr" v="474952" />
	</node>
	<node lat="61.84610555374219" lon="9.437747229064719" id="-22835">
		<tag k="name" v="Steinbergøya" />
		<tag k="natural" v="cape" />
		<tag k="ssr:stedsnr" v="475578" />
	</node>
	<node lat="61.785900001563924" lon="9.525263896699393" id="-22836">
		<tag k="name" v="Kleivrudbekken" />
		<tag k="ssr:stedsnr" v="475509" />
		<tag k="waterway" v="stream" />
	</node>
	<node lat="61.57573610706688" lon="9.189174998765168" id="-22841">
		<tag k="name" v="Buvassbekken" />
		<tag k="ssr:stedsnr" v="373808" />
		<tag k="waterway" v="stream" />
	</node>
	<node lat="61.7766444421431" lon="9.604550006320592" id="-22845">
		<tag k="name" v="Øvre Svarttjønne" />
		<tag k="natural" v="water" />
		<tag k="ssr:stedsnr" v="374539" />
	</node>
	<node lat="61.60677777726969" lon="9.14123332571737" id="-22858">
		<tag k="name" v="Eirstjørni" />
		<tag k="natural" v="water" />
		<tag k="ssr:stedsnr" v="374821" />
		<tag k="water" v="lake" />
	</node>
	<node lat="61.88909999804768" lon="9.441755558736748" id="-22866">
		<tag k="name" v="Fagerliåe" />
		<tag k="ssr:stedsnr" v="374983" />
		<tag k="waterway" v="river" />
	</node>
	<node lat="61.85103333369839" lon="9.648991661492053" id="-22871">
		<tag k="name" v="Storhaugtjønne" />
		<tag k="natural" v="water" />
		<tag k="ssr:stedsnr" v="375678" />
	</node>
	<node lat="61.74171944586437" lon="9.634330563200717" id="-22876">
		<tag k="name" v="Øvre Sleotjern" />
		<tag k="natural" v="water" />
		<tag k="ssr:stedsnr" v="413249" />
	</node>
	<node lat="61.81913611511049" lon="9.70301111673095" id="-22892">
		<tag k="name" v="Søla" />
		<tag k="natural" v="water" />
		<tag k="ssr:stedsnr" v="414301" />
	</node>
	<node lat="61.72173610778382" lon="9.250533334393838" id="-22909">
		<tag k="name" v="Prestegardstjønne" />
		<tag k="natural" v="water" />
		<tag k="ssr:stedsnr" v="435705" />
	</node>
	<node lat="61.81422499748975" lon="9.478397223188233" id="-22911">
		<tag k="name" v="Guttormstjønne" />
		<tag k="natural" v="water" />
		<tag k="ssr:stedsnr" v="435768" />
	</node>
	<node lat="61.86428611535441" lon="9.306841662820313" id="-22916">
		<tag k="name" v="Sjugurdshøtjønne" />
		<tag k="natural" v="water" />
		<tag k="ssr:stedsnr" v="435983" />
	</node>
	<node lat="61.7945166689886" lon="9.426508340262457" id="-22930">
		<tag k="name" v="Skardbekken" />
		<tag k="ssr:stedsnr" v="473718" />
		<tag k="waterway" v="stream" />
	</node>
	<node lat="61.751488886869986" lon="9.499602773088426" id="-22938">
		<tag k="name" v="Rautjønn" />
		<tag k="natural" v="water" />
		<tag k="ssr:stedsnr" v="474387" />
	</node>
	<node lat="61.777472222539494" lon="9.395652773975666" id="-22944">
		<tag k="name" v="Storbekken" />
		<tag k="ssr:stedsnr" v="474681" />
		<tag k="waterway" v="stream" />
	</node>
	<node lat="61.60259166630631" lon="9.135430558402605" id="-22972">
		<tag k="name" v="Lomtjørni" />
		<tag k="natural" v="water" />
		<tag k="ssr:stedsnr" v="678797" />
	</node>
	<node lat="61.87722500415281" lon="9.796697223091394" id="-22973">
		<tag k="name" v="Lonin" />
		<tag k="natural" v="bay" />
		<tag k="ssr:stedsnr" v="678733" />
	</node>
	<node lat="61.71132500214209" lon="9.581383328432283" id="-22986">
		<tag k="name" v="Haugatjønne" />
		<tag k="natural" v="water" />
		<tag k="ssr:stedsnr" v="495717" />
	</node>
	<node lat="61.79179444278506" lon="9.723997218506403" id="-23002">
		<tag k="name" v="Koltjønna" />
		<tag k="natural" v="water" />
		<tag k="ssr:stedsnr" v="496558" />
	</node>
	<node lat="61.788761111195356" lon="9.657730548770818" id="-23003">
		<tag k="name" v="Klufttjønne" />
		<tag k="natural" v="water" />
		<tag k="ssr:stedsnr" v="496559" />
	</node>
	<node lat="61.76519166811387" lon="9.592572224852479" id="-23022">
		<tag k="name" v="Svarttjønnbekken" />
		<tag k="ssr:stedsnr" v="535086" />
		<tag k="waterway" v="stream" />
	</node>
	<node lat="61.76378422152365" lon="9.570133943497483" id="-23023">
		<tag k="name" v="Damtjønn" />
		<tag k="natural" v="water" />
		<tag k="ssr:stedsnr" v="535090" />
	</node>
	<node lat="61.777075001412435" lon="9.2454638916805" id="-23041">
		<tag k="name" v="Trykju" />
		<tag k="ssr:stedsnr" v="555814" />
		<tag k="waterway" v="river" />
	</node>
	<node lat="61.60746890607631" lon="9.222609008345042" id="-23042">
		<tag k="alt_name" v="Muru, nordre;Nørdre Muru" />
		<tag k="name" v="Muru" />
		<tag k="ssr:stedsnr" v="556583" />
		<tag k="waterway" v="river" />
	</node>
	<node lat="61.7763499970119" lon="9.659697227038333" id="-23043">
		<tag k="name" v="Vålåsjøbekken" />
		<tag k="ssr:stedsnr" v="556586" />
		<tag k="waterway" v="stream" />
	</node>
	<node lat="61.84479444170338" lon="9.857177772896883" id="-23046">
		<tag k="name" v="Leinåe" />
		<tag k="ssr:stedsnr" v="556718" />
		<tag k="waterway" v="stream" />
	</node>
	<node lat="61.895363886540665" lon="9.561008331420028" id="-23057">
		<tag k="name" v="Kjondalsbekken" />
		<tag k="ssr:stedsnr" v="556976" />
		<tag k="waterway" v="stream" />
	</node>
	<node lat="61.86353659203488" lon="9.449433679817542" id="-23058">
		<tag k="name" v="Hårrtjønnin" />
		<tag k="natural" v="water" />
		<tag k="ssr:stedsnr" v="568859" />
	</node>
	<node lat="61.83244444423333" lon="9.70498054883595" id="-23059">
		<tag k="loc_name" v="Lurvefossen;Brudesløret;Bruresløret" />
		<tag k="name" v="Storulfossen" />
		<tag k="natural" v="waterfall" />
		<tag k="ssr:stedsnr" v="694548" />
	</node>
	<node lat="61.74523888821124" lon="9.20641667605036" id="-23072">
		<tag k="name" v="Grotbekken" />
		<tag k="ssr:stedsnr" v="595158" />
		<tag k="waterway" v="stream" />
	</node>
	<node lat="61.80236666793793" lon="9.592061104655954" id="-23083">
		<tag k="name" v="Raphamnbekken" />
		<tag k="ssr:stedsnr" v="596154" />
		<tag k="waterway" v="stream" />
	</node>
	<node lat="61.75534721830377" lon="9.539458335723724" id="-23086">
		<tag k="name" v="Selsjordøyene" />
		<tag k="place" v="island" />
		<tag k="ssr:stedsnr" v="596409" />
	</node>
	<node lat="61.77668611426961" lon="9.471722216645956" id="-23092">
		<tag k="name" v="Fetten" />
		<tag k="natural" v="beach" />
		<tag k="ssr:stedsnr" v="596706" />
	</node>
	<node lat="61.864341666949414" lon="9.438769438770217" id="-23095">
		<tag k="name" v="Brenntjønn" />
		<tag k="natural" v="water" />
		<tag k="ssr:stedsnr" v="596970" />
	</node>
	<node lat="61.740612462938365" lon="9.637954731911815" id="-23097">
		<tag k="name" v="Sleotjønnin" />
		<tag k="natural" v="water" />
		<tag k="ssr:stedsnr" v="616640" />
		<tag k="water" v="lake" />
	</node>
	<node lat="61.75277777388185" lon="9.690099994376983" id="-23114">
		<tag k="name" v="Morkabekken" />
		<tag k="ssr:stedsnr" v="617531" />
		<tag k="waterway" v="stream" />
	</node>
	<node lat="61.783691665049176" lon="9.46520277933619" id="-23142">
		<tag k="name" v="Meiskår" />
		<tag k="ssr:stedsnr" v="656707" />
		<tag k="waterway" v="rapids" />
	</node>
	<node lat="61.607033334828756" lon="9.118955559295022" id="-23154">
		<tag k="name" v="Bessin" />
		<tag k="natural" v="water" />
		<tag k="ssr:stedsnr" v="677815" />
		<tag k="water" v="lake" />
	</node>
	<node lat="61.78268888473713" lon="9.280550009031376" id="-23157">
		<tag k="name" v="Liatjønne" />
		<tag k="natural" v="water" />
		<tag k="ssr:stedsnr" v="677842" />
	</node>
	<node lat="61.71379722021127" lon="9.582524993128192" id="-23166">
		<tag k="name" v="Svarttjønne" />
		<tag k="natural" v="water" />
		<tag k="ssr:stedsnr" v="678707" />
	</node>
	<node lat="61.91274166472641" lon="9.464866665832098" id="-23173">
		<tag k="name" v="Mjølrakkåe" />
		<tag k="ssr:stedsnr" v="678985" />
		<tag k="waterway" v="stream" />
	</node>
	<node lat="61.81316944756348" lon="9.646563879491975" id="-23216">
		<tag k="name" v="Åmot" />
		<tag k="natural" v="cape" />
		<tag k="ssr:stedsnr" v="899347" />
	</node>
	<node lat="61.82524721818919" lon="9.639422230763888" id="-23217">
		<tag k="name" v="Kampestulbekken" />
		<tag k="ssr:stedsnr" v="899382" />
		<tag k="waterway" v="stream" />
	</node>
	<node lat="61.78231944759097" lon="9.274411108900066" id="-23225">
		<tag k="name" v="Ruditjønne" />
		<tag k="natural" v="water" />
		<tag k="ssr:stedsnr" v="899672" />
	</node>
	<node lat="61.68033889202355" lon="9.528300003288868" id="-23226">
		<tag k="name" v="Kuhølen" />
		<tag k="place" v="locality" />
		<tag k="ssr:stedsnr" v="899745" />
	</node>
	<node lat="61.744699998477024" lon="9.549616658861211" id="-23238">
		<tag k="name" v="Bredetangen" />
		<tag k="natural" v="cape" />
		<tag k="ssr:stedsnr" v="900435" />
	</node>
	<node lat="61.75089721929536" lon="9.159797217493153" id="-23248">
		<tag k="alt_name" v="Lusætertjønn" />
		<tag k="name" v="Lusætertjørni" />
		<tag k="natural" v="water" />
		<tag k="ssr:stedsnr" v="738402" />
	</node>
	<node lat="61.77516111439819" lon="9.668944441847929" id="-23249">
		<tag k="name" v="Vangstjønne" />
		<tag k="natural" v="water" />
		<tag k="ssr:stedsnr" v="738550" />
	</node>
	<node lat="61.59306666893997" lon="9.117849992548855" id="-23254">
		<tag k="name" v="Leirtjørni" />
		<tag k="natural" v="water" />
		<tag k="ssr:stedsnr" v="738822" />
	</node>
	<node lat="61.59926160510555" lon="9.157051149699821" id="-23255">
		<tag k="name" v="Langvatnet" />
		<tag k="natural" v="water" />
		<tag k="ssr:stedsnr" v="738830" />
		<tag k="water" v="lake" />
	</node>
	<node lat="61.756111177530805" lon="9.61189327739122" id="-23259">
		<tag k="name" v="Heimtjønne" />
		<tag k="natural" v="water" />
		<tag k="ssr:stedsnr" v="739512" />
	</node>
	<node lat="61.83907500372546" lon="9.610161109061279" id="-23260">
		<tag k="name" v="Kampstulbekken" />
		<tag k="ssr:stedsnr" v="739693" />
		<tag k="waterway" v="stream" />
	</node>
	<node lat="61.864799998022626" lon="9.329219451068079" id="-23266">
		<tag k="name" v="Fisketjønne" />
		<tag k="natural" v="water" />
		<tag k="ssr:stedsnr" v="739945" />
	</node>
	<node lat="61.86659999903858" lon="9.346252775582439" id="-23267">
		<tag k="name" v="Fisketjønnbekken" />
		<tag k="ssr:stedsnr" v="739948" />
		<tag k="waterway" v="stream" />
	</node>
	<node lat="61.86412222021285" lon="9.389200003093743" id="-23268">
		<tag k="name" v="Roståe" />
		<tag k="ssr:stedsnr" v="739949" />
		<tag k="waterway" v="stream" />
	</node>
	<node lat="61.862152780279416" lon="9.452583340375071" id="-23269">
		<tag k="name" v="Søre Hårrtjønn" />
		<tag k="natural" v="water" />
		<tag k="ssr:stedsnr" v="739954" />
	</node>
	<node lat="61.86499444588852" lon="9.502483326491058" id="-23270">
		<tag k="name" v="Skjærungåe" />
		<tag k="ssr:stedsnr" v="739957" />
		<tag k="waterway" v="stream" />
	</node>
	<node lat="61.8413472198454" lon="9.444988894817703" id="-23291">
		<tag k="name" v="Kvilte" />
		<tag k="ssr:stedsnr" v="778586" />
		<tag k="waterway" v="stream" />
	</node>
	<node lat="61.591286111563306" lon="9.2223111054215" id="-23306">
		<tag k="name" v="Kinnbekken" />
		<tag k="ssr:stedsnr" v="798500" />
		<tag k="waterway" v="stream" />
	</node>
	<node lat="61.702257080641985" lon="9.248313600314814" id="-23318">
		<tag k="name" v="Tvillingtjønnin" />
		<tag k="natural" v="water" />
		<tag k="ssr:stedsnr" v="799742" />
		<tag k="water" v="lake" />
	</node>
	<node lat="61.844477778990445" lon="9.744344448681641" id="-23329">
		<tag k="alt_name" v="Ula, store;Store Ula" />
		<tag k="name" v="Storula" />
		<tag k="ssr:stedsnr" v="800675" />
		<tag k="waterway" v="river" />
	</node>
	<node lat="61.84349722614718" lon="9.801180550678467" id="-23330">
		<tag k="name" v="Leiråe" />
		<tag k="ssr:stedsnr" v="800677" />
		<tag k="waterway" v="stream" />
	</node>
	<node lat="61.76927499704276" lon="9.419638886703709" id="-23334">
		<tag k="name" v="Veggemsåe" />
		<tag k="ssr:stedsnr" v="920826" />
		<tag k="waterway" v="stream" />
	</node>
	<node lat="61.58881110991295" lon="9.182352782253808" id="-23335">
		<tag k="name" v="Langvassbekken" />
		<tag k="ssr:stedsnr" v="920827" />
		<tag k="waterway" v="stream" />
	</node>
	<node lat="61.65683611442183" lon="9.248516666029499" id="-23342">
		<tag k="name" v="Sundtjønnbekken" />
		<tag k="ssr:stedsnr" v="920719" />
		<tag k="waterway" v="stream" />
	</node>
	<node lat="61.67111666633103" lon="9.254200006407963" id="-23344">
		<tag k="name" v="Nedre Sundtjønn" />
		<tag k="natural" v="water" />
		<tag k="ssr:stedsnr" v="920725" />
	</node>
	<node lat="61.67342221777774" lon="9.362383337262866" id="-23345">
		<tag k="name" v="Nerdalsfiskeløysa" />
		<tag k="ssr:stedsnr" v="920728" />
		<tag k="waterway" v="stream" />
	</node>
	<node lat="61.770747416312915" lon="9.678073713964682" id="-23351">
		<tag k="name" v="Mørtjønne" />
		<tag k="natural" v="water" />
		<tag k="ssr:stedsnr" v="921574" />
	</node>
	<node lat="61.89015277684464" lon="9.746866676151281" id="-23353">
		<tag k="name" v="Klaratjønne" />
		<tag k="natural" v="water" />
		<tag k="ssr:stedsnr" v="921744" />
	</node>
	<node lat="61.89057777955199" lon="9.783586103341738" id="-23354">
		<tag k="name" v="Rondhalsbekken" />
		<tag k="ssr:stedsnr" v="921745" />
		<tag k="waterway" v="stream" />
	</node>
	<node lat="61.714097217997264" lon="9.425883328251189" id="-23378">
		<tag k="name" v="Rotbekken" />
		<tag k="ssr:stedsnr" v="839144" />
		<tag k="waterway" v="stream" />
	</node>
	<node lat="61.71771111227868" lon="9.574547215513753" id="-23390">
		<tag k="name" v="Moabekken" />
		<tag k="ssr:stedsnr" v="839931" />
		<tag k="waterway" v="stream" />
	</node>
	<node lat="61.58325552223242" lon="9.233382233169536" id="-23391">
		<tag k="alt_name" v="Muruvatnet" />
		<tag k="name" v="Murudalsvatnet" />
		<tag k="natural" v="water" />
		<tag k="ssr:stedsnr" v="859514" />
		<tag k="water" v="lake" />
	</node>
	<node lat="61.74398611461055" lon="9.258155564117546" id="-23395">
		<tag k="name" v="Dettarbekken" />
		<tag k="ssr:stedsnr" v="859624" />
		<tag k="waterway" v="stream" />
	</node>
	<node lat="61.63281666646382" lon="9.19478055051157" id="-23409">
		<tag k="name" v="Lurvåtlibekken" />
		<tag k="ssr:stedsnr" v="860807" />
		<tag k="waterway" v="stream" />
	</node>
	<node lat="61.821000001203416" lon="9.710047219310443" id="-23417">
		<tag k="name" v="Indretjønne" />
		<tag k="natural" v="water" />
		<tag k="ssr:stedsnr" v="861691" />
	</node>
	<node lat="61.817897223302154" lon="9.725174992277163" id="-23418">
		<tag k="name" v="Storhaugbekken" />
		<tag k="ssr:stedsnr" v="861692" />
		<tag k="waterway" v="stream" />
	</node>
	<node lat="61.7895666626008" lon="9.675461113222138" id="-23428">
		<tag k="name" v="Dipilen" />
		<tag k="natural" v="water" />
		<tag k="ssr:stedsnr" v="899373" />
	</node>
	<node lat="61.736672226338825" lon="9.37386389178735" id="-23429">
		<tag k="name" v="Harlaugbekken" />
		<tag k="ssr:stedsnr" v="899510" />
		<tag k="waterway" v="stream" />
	</node>
	<node lat="61.710591667874056" lon="9.539891670072372" id="-23430">
		<tag k="name" v="Veslestraumen" />
		<tag k="ssr:stedsnr" v="899521" />
		<tag k="waterway" v="rapids" />
	</node>
	<node lat="61.75532222267165" lon="9.526111119560193" id="-23431">
		<tag k="name" v="Selsjordbekken" />
		<tag k="ssr:stedsnr" v="899408" />
		<tag k="waterway" v="stream" />
	</node>
	<node lat="61.64082499653676" lon="9.246916664857846" id="-23448">
		<tag k="name" v="Høgkjørrbekken" />
		<tag k="ssr:stedsnr" v="920503" />
		<tag k="waterway" v="stream" />
	</node>
	<node lat="61.86505555116291" lon="8.732669439203315" id="-23449">
		<tag k="name" v="Otta" />
		<tag k="ssr:stedsnr" v="920504" />
		<tag k="waterway" v="river" />
	</node>
	<node lat="61.81002222532715" lon="9.479461117402003" id="-23459">
		<tag k="name" v="Daleåe" />
		<tag k="ssr:stedsnr" v="920750" />
		<tag k="waterway" v="stream" />
	</node>
	<node lat="61.83629999886066" lon="9.506183334940143" id="-23460">
		<tag k="name" v="Formobekken" />
		<tag k="ssr:stedsnr" v="920790" />
		<tag k="waterway" v="stream" />
	</node>
	<node lat="61.59770555918595" lon="9.146827770563807" id="-23465">
		<tag k="name" v="Refjellsvatni" />
		<tag k="natural" v="water" />
		<tag k="ssr:stedsnr" v="920816" />
		<tag k="water" v="lake" />
	</node>
	<node lat="61.83671291637825" lon="9.654401513066247" id="-23471">
		<tag k="name" v="Veslulfossen" />
		<tag k="natural" v="waterfall" />
		<tag k="ssr:stedsnr" v="921713" />
	</node>
	<node lat="61.738366664491224" lon="9.57896110460989" id="-23534">
		<tag k="alt_name" v="Vangsåa" />
		<tag k="name" v="Vangsåi" />
		<tag k="ssr:stedsnr" v="10647" />
		<tag k="waterway" v="stream" />
	</node>
	<node lat="61.790341025706205" lon="9.219841993681406" id="-23537">
		<tag k="name" v="Bjølstadvatnet" />
		<tag k="natural" v="water" />
		<tag k="ssr:stedsnr" v="10424" />
		<tag k="water" v="lake" />
	</node>
	<node lat="61.77983889004259" lon="9.63479166175655" id="-23539">
		<tag k="name" v="Lynningdalstjønnin" />
		<tag k="natural" v="water" />
		<tag k="ssr:stedsnr" v="10517" />
		<tag k="water" v="lake" />
	</node>
	<node lat="61.59584999873795" lon="9.152661103285466" id="-23544">
		<tag k="name" v="Fiskløysa" />
		<tag k="natural" v="water" />
		<tag k="ssr:stedsnr" v="10822" />
	</node>
	<node lat="61.79374722174805" lon="9.501452774295835" id="-23548">
		<tag k="name" v="Kleivrudtjønne" />
		<tag k="natural" v="water" />
		<tag k="ssr:stedsnr" v="10853" />
	</node>
	<node lat="61.86882777748991" lon="9.617922222041605" id="-23554">
		<tag k="name" v="Vassbekken" />
		<tag k="ssr:stedsnr" v="11745" />
		<tag k="waterway" v="stream" />
	</node>
	<node lat="61.71333333480003" lon="9.22551667140312" id="-23564">
		<tag k="name" v="Rustputtane" />
		<tag k="natural" v="water" />
		<tag k="ssr:stedsnr" v="49285" />
		<tag k="water" v="pond" />
	</node>
	<node lat="61.704286112308964" lon="9.464305559240621" id="-23582">
		<tag k="name" v="Kvernbekken" />
		<tag k="ssr:stedsnr" v="50135" />
		<tag k="waterway" v="stream" />
	</node>
	<node lat="61.90266666372877" lon="9.613330557567322" id="-23618">
		<tag k="name" v="Bråkdalsbekken" />
		<tag k="ssr:stedsnr" v="71748" />
		<tag k="waterway" v="river" />
	</node>
	<node lat="61.77405277483039" lon="9.336833333429347" id="-23630">
		<tag k="name" v="Harildstadtjønne" />
		<tag k="natural" v="water" />
		<tag k="ssr:stedsnr" v="71851" />
	</node>
	<node lat="61.84579166506636" lon="9.348321111178745" id="-23632">
		<tag k="name" v="Selsvatnet" />
		<tag k="natural" v="water" />
		<tag k="ssr:stedsnr" v="72936" />
		<tag k="water" v="lake" />
	</node>
	<node lat="61.8298027761093" lon="9.511158339103147" id="-23645">
		<tag k="name" v="Byrtnesset" />
		<tag k="natural" v="cape" />
		<tag k="ssr:stedsnr" v="110060" />
	</node>
	<node lat="61.77435555656282" lon="9.489505564896758" id="-23661">
		<tag k="name" v="Dalesand" />
		<tag k="natural" v="beach" />
		<tag k="ssr:stedsnr" v="110259" />
	</node>
	<node lat="61.74868055324148" lon="9.541588897987376" id="-23666">
		<tag k="name" v="Langøya" />
		<tag k="place" v="island" />
		<tag k="ssr:stedsnr" v="111418" />
	</node>
	<node lat="61.83295278014128" lon="9.45686666389378" id="-23673">
		<tag k="name" v="Selsbekken" />
		<tag k="ssr:stedsnr" v="111532" />
		<tag k="waterway" v="stream" />
	</node>
	<node lat="61.232741671063216" lon="10.4370611119802" id="-23688">
		<tag k="loc_name" v="Gudbrandsdalslågen" />
		<tag k="name" v="Lågen" />
		<tag k="ssr:stedsnr" v="129173" />
		<tag k="waterway" v="river" />
	</node>
	<node lat="61.60067222220513" lon="9.316191665192994" id="-23689">
		<tag k="alt_name" v="Veslemuvatnet, s;Veslemugvatnet søre;Søre Veslemugvatnet" />
		<tag k="loc_name" v="Søre Veslmugen" />
		<tag k="name" v="Søre Veslemuvatnet" />
		<tag k="natural" v="water" />
		<tag k="old_name" v="s Veslemuvandet" />
		<tag k="ssr:stedsnr" v="131538" />
	</node>
	<node lat="61.72734444870222" lon="9.297433341014223" id="-23691">
		<tag k="name" v="Krukstugutjønne" />
		<tag k="natural" v="water" />
		<tag k="ssr:stedsnr" v="131634" />
	</node>
	<node lat="61.71496661886342" lon="9.339361561958635" id="-23700">
		<tag k="loc_name" v="Nedre Skitjønn" />
		<tag k="name" v="Nordre Skitjønnin" />
		<tag k="natural" v="water" />
		<tag k="ssr:stedsnr" v="131684" />
	</node>
	<node lat="61.68075278162994" lon="9.2471750065293" id="-23706">
		<tag k="name" v="Øvre Sundtjønn" />
		<tag k="natural" v="water" />
		<tag k="ssr:stedsnr" v="131743" />
	</node>
	<node lat="61.72638888628432" lon="9.137263893745654" id="-23711">
		<tag k="name" v="Rinda" />
		<tag k="ssr:stedsnr" v="131834" />
		<tag k="waterway" v="river" />
	</node>
	<node lat="61.64168611105946" lon="9.213330552643509" id="-23712">
		<tag k="name" v="Muru" />
		<tag k="ssr:stedsnr" v="131839" />
		<tag k="waterway" v="river" />
	</node>
	<node lat="61.78712777385703" lon="9.597658329113873" id="-23717">
		<tag k="name" v="Kvernhusbekken" />
		<tag k="ssr:stedsnr" v="132521" />
		<tag k="waterway" v="stream" />
	</node>
	<node lat="61.76722720929093" lon="9.632657827345241" id="-23718">
		<tag k="name" v="Smukksjøen" />
		<tag k="natural" v="water" />
		<tag k="ssr:stedsnr" v="132542" />
		<tag k="water" v="lake" />
	</node>
	<node lat="61.77751388985949" lon="9.629169448950767" id="-23719">
		<tag k="name" v="Langtjønne" />
		<tag k="natural" v="water" />
		<tag k="ssr:stedsnr" v="132553" />
	</node>
	<node lat="61.770938888565524" lon="9.520105558519283" id="-23739">
		<tag k="name" v="Toøya" />
		<tag k="place" v="island" />
		<tag k="ssr:stedsnr" v="170280" />
	</node>
	<node lat="61.774099997340116" lon="9.493152769895655" id="-23740">
		<tag k="name" v="Hårrberget" />
		<tag k="natural" v="cape" />
		<tag k="ssr:stedsnr" v="170301" />
	</node>
	<node lat="61.761033331917716" lon="9.670200008759073" id="-23741">
		<tag k="name" v="Håkonbekken" />
		<tag k="ssr:stedsnr" v="170237" />
		<tag k="waterway" v="stream" />
	</node>
	<node lat="61.593258330217026" lon="9.231452775144614" id="-23754">
		<tag k="name" v="Nermuru" />
		<tag k="ssr:stedsnr" v="171047" />
		<tag k="waterway" v="stream" />
	</node>
	<node lat="61.75068333259261" lon="9.541777781404653" id="-23759">
		<tag k="alt_name" v="Solhjemsøyene" />
		<tag k="name" v="Solgjemsøyene" />
		<tag k="place" v="island" />
		<tag k="ssr:stedsnr" v="171441" />
	</node>
	<node lat="61.714400000204186" lon="9.515866674746071" id="-23760">
		<tag k="name" v="Bjørndalsbekken" />
		<tag k="ssr:stedsnr" v="171546" />
		<tag k="waterway" v="stream" />
	</node>
	<node lat="61.72160000116199" lon="9.543705560439733" id="-23764">
		<tag k="name" v="Sandbuvangbekken" />
		<tag k="ssr:stedsnr" v="171646" />
		<tag k="waterway" v="stream" />
	</node>
	<node lat="61.77742222461783" lon="9.62568054782219" id="-23777">
		<tag k="name" v="Stortjønne" />
		<tag k="natural" v="water" />
		<tag k="ssr:stedsnr" v="192581" />
	</node>
	<node lat="61.743750002513245" lon="9.509233335713677" id="-23784">
		<tag k="name" v="Bredetjønnin" />
		<tag k="natural" v="water" />
		<tag k="ssr:stedsnr" v="192689" />
		<tag k="water" v="lake" />
	</node>
	<node lat="61.699169445504275" lon="9.408122215050371" id="-23796">
		<tag k="name" v="Randbekken" />
		<tag k="ssr:stedsnr" v="192744" />
		<tag k="waterway" v="stream" />
	</node>
	<node lat="61.8283499998718" lon="9.562574999623072" id="-23800">
		<tag k="name" v="Bjørnvollbekken" />
		<tag k="ssr:stedsnr" v="192796" />
		<tag k="waterway" v="stream" />
	</node>
	<node lat="61.742902780314665" lon="9.166755549342584" id="-23807">
		<tag k="name" v="Storbekken" />
		<tag k="ssr:stedsnr" v="192964" />
		<tag k="waterway" v="stream" />
	</node>
	<node lat="61.73565555535968" lon="9.154013881336216" id="-23809">
		<tag k="alt_name" v="Nyborgtjørni" />
		<tag k="name" v="Nyborgtjønn" />
		<tag k="natural" v="water" />
		<tag k="ssr:stedsnr" v="192966" />
	</node>
	<node lat="61.682961110131004" lon="9.184574997094803" id="-23814">
		<tag k="name" v="Nermuru" />
		<tag k="ssr:stedsnr" v="192991" />
		<tag k="waterway" v="river" />
	</node>
	<node lat="61.79065555521754" lon="9.559124999801758" id="-23820">
		<tag k="name" v="Kvernhusbekken" />
		<tag k="ssr:stedsnr" v="193228" />
		<tag k="waterway" v="stream" />
	</node>
	<node lat="61.79192341972259" lon="9.627507687202673" id="-23821">
		<tag k="alt_name" v="Småhårrtjønne" />
		<tag k="name" v="Åbbortjønn" />
		<tag k="natural" v="water" />
		<tag k="ssr:stedsnr" v="193552" />
	</node>
	<node lat="61.80819722151663" lon="9.732580562377043" id="-23822">
		<tag k="name" v="Ranglartjønna" />
		<tag k="natural" v="water" />
		<tag k="ssr:stedsnr" v="193690" />
	</node>
	<node lat="61.87447499990172" lon="9.865422213473213" id="-23825">
		<tag k="name" v="Illmanntjønnin" />
		<tag k="natural" v="water" />
		<tag k="ssr:stedsnr" v="193717" />
		<tag k="water" v="lake" />
	</node>
	<node lat="61.87018888829208" lon="9.810883340266924" id="-23826">
		<tag k="name" v="Skridubekken" />
		<tag k="ssr:stedsnr" v="193718" />
		<tag k="waterway" v="stream" />
	</node>
	<node lat="61.845102780285686" lon="9.679736110967879" id="-23827">
		<tag k="name" v="Smiubelgtjønne" />
		<tag k="natural" v="water" />
		<tag k="ssr:stedsnr" v="193676" />
	</node>
	<node lat="61.8225416638509" lon="9.69281112053088" id="-23829">
		<tag k="name" v="Bergetjønne" />
		<tag k="natural" v="water" />
		<tag k="ssr:stedsnr" v="193685" />
	</node>
	<node lat="61.885678883913435" lon="9.572976506234445" id="-23832">
		<tag k="name" v="Høvringsvatne" />
		<tag k="natural" v="water" />
		<tag k="ssr:stedsnr" v="193951" />
		<tag k="water" v="lake" />
	</node>
	<node lat="61.8333999985549" lon="9.608705559661496" id="-23850">
		<tag k="name" v="Veslebekken" />
		<tag k="ssr:stedsnr" v="292222" />
		<tag k="waterway" v="stream" />
	</node>
	<node lat="61.64978611220098" lon="9.209177784657811" id="-23855">
		<tag k="name" v="Fribeitet" />
		<tag k="natural" v="cape" />
		<tag k="ssr:stedsnr" v="292072" />
	</node>
	<node lat="61.83553611333954" lon="9.398011103228617" id="-23859">
		<tag k="alt_name" v="Geitåa" />
		<tag k="name" v="Geitåe" />
		<tag k="ssr:stedsnr" v="292513" />
		<tag k="waterway" v="stream" />
	</node>
	<node lat="61.66712222059752" lon="9.507194444583266" id="-23872">
		<tag k="name" v="Kjekslibekken" />
		<tag k="ssr:stedsnr" v="293671" />
		<tag k="waterway" v="stream" />
	</node>
	<node lat="61.6733055570257" lon="9.462341662355174" id="-23877">
		<tag k="name" v="Sagåa" />
		<tag k="ssr:stedsnr" v="313741" />
		<tag k="waterway" v="stream" />
	</node>
	<node lat="61.736213885053395" lon="9.495516673741728" id="-23882">
		<tag k="alt_name" v="Melumsåa;Melumsåi" />
		<tag k="name" v="Melemsåi" />
		<tag k="ssr:stedsnr" v="313642" />
		<tag k="waterway" v="river" />
	</node>
	<node lat="61.6389888846801" lon="9.1792888934342" id="-23886">
		<tag k="name" v="Hestkneikbekken" />
		<tag k="ssr:stedsnr" v="313798" />
		<tag k="waterway" v="stream" />
	</node>
	<node lat="61.579458329091246" lon="9.193805562054187" id="-23888">
		<tag k="alt_name" v="Fiskeløysbekken" />
		<tag k="name" v="Fiskløysbekken" />
		<tag k="ssr:stedsnr" v="313838" />
		<tag k="waterway" v="stream" />
	</node>
	<node lat="61.758100002073704" lon="9.199288893328092" id="-23892">
		<tag k="name" v="Lusa" />
		<tag k="ssr:stedsnr" v="314430" />
		<tag k="waterway" v="stream" />
	</node>
	<node lat="61.76235052304403" lon="9.642570093555046" id="-23893">
		<tag k="name" v="Krosshaugtjønnin" />
		<tag k="natural" v="water" />
		<tag k="ssr:stedsnr" v="314577" />
		<tag k="water" v="lake" />
	</node>
	<node lat="61.75606110911134" lon="9.623441669878844" id="-23894">
		<tag k="name" v="Dalsbekken" />
		<tag k="ssr:stedsnr" v="314549" />
		<tag k="waterway" v="stream" />
	</node>
	<node lat="61.84735000264629" lon="9.612813897079395" id="-23899">
		<tag k="name" v="Grønlibekken" />
		<tag k="ssr:stedsnr" v="314695" />
		<tag k="waterway" v="stream" />
	</node>
	<node lat="61.700866665429146" lon="9.392283340711222" id="-23901">
		<tag k="name" v="Grøndalsbekken" />
		<tag k="ssr:stedsnr" v="314715" />
		<tag k="waterway" v="stream" />
	</node>
	<node lat="61.90749722601284" lon="9.81152778594972" id="-23902">
		<tag k="name" v="Styggebotnbekken" />
		<tag k="ssr:stedsnr" v="314718" />
		<tag k="waterway" v="stream" />
	</node>
	<node lat="61.889222218124345" lon="9.804041661439474" id="-23904">
		<tag k="name" v="Rondholbekken" />
		<tag k="ssr:stedsnr" v="314735" />
		<tag k="waterway" v="stream" />
	</node>
	<node lat="61.87557500355288" lon="9.81298888262839" id="-23905">
		<tag k="name" v="Fremre Illmanntjønne" />
		<tag k="natural" v="water" />
		<tag k="ssr:stedsnr" v="314740" />
	</node>
	<node lat="61.82429722127188" lon="9.688683335643494" id="-23939">
		<tag k="name" v="Bergetjønnbekken" />
		<tag k="ssr:stedsnr" v="353322" />
		<tag k="waterway" v="stream" />
	</node>
	<node lat="61.82758611289689" lon="9.640288894723241" id="-23945">
		<tag k="name" v="Steindalsbekken" />
		<tag k="ssr:stedsnr" v="353384" />
		<tag k="waterway" v="stream" />
	</node>
	<node lat="61.7704833297735" lon="9.439583333605636" id="-23960">
		<tag k="name" v="Kampetjønn" />
		<tag k="natural" v="water" />
		<tag k="ssr:stedsnr" v="353687" />
	</node>
	<node lat="61.71757221995577" lon="9.594466660554332" id="-23968">
		<tag k="name" v="Skarvåa" />
		<tag k="ssr:stedsnr" v="353939" />
		<tag k="waterway" v="stream" />
	</node>
	<node lat="61.669649995580464" lon="9.134533338616402" id="-23976">
		<tag k="alt_name" v="Storskriubekken" />
		<tag k="name" v="Storskridubekken" />
		<tag k="ssr:stedsnr" v="374778" />
		<tag k="waterway" v="stream" />
	</node>
	<node lat="61.642597220457894" lon="9.224741670187099" id="-23978">
		<tag k="name" v="Kaldvassbekken" />
		<tag k="ssr:stedsnr" v="374510" />
		<tag k="waterway" v="stream" />
	</node>
	<node lat="61.76533002055385" lon="9.579282517458138" id="-23981">
		<tag k="name" v="Butjønne" />
		<tag k="natural" v="water" />
		<tag k="ssr:stedsnr" v="374665" />
	</node>
	<node lat="61.719391670696545" lon="9.58681389107679" id="-23986">
		<tag k="name" v="Tomastjønne" />
		<tag k="natural" v="water" />
		<tag k="ssr:stedsnr" v="374676" />
	</node>
	<node lat="61.859041663890594" lon="9.9524722266719" id="-23997">
		<tag k="name" v="Musvolåe" />
		<tag k="ssr:stedsnr" v="375675" />
		<tag k="waterway" v="river" />
	</node>
	<node lat="61.744099996603616" lon="9.651850009330392" id="-24011">
		<tag k="name" v="Blomsæterbekken" />
		<tag k="ssr:stedsnr" v="413252" />
		<tag k="waterway" v="stream" />
	</node>
	<node lat="61.72746110866074" lon="9.573066674332457" id="-24021">
		<tag k="name" v="Haredalsbekken" />
		<tag k="ssr:stedsnr" v="414030" />
		<tag k="waterway" v="stream" />
	</node>
	<node lat="61.83412777980567" lon="9.482138879710883" id="-24023">
		<tag k="name" v="Steinsundet" />
		<tag k="natural" v="strait" />
		<tag k="ssr:stedsnr" v="414119" />
	</node>
	<node lat="61.819961110394146" lon="9.602608327092764" id="-24025">
		<tag k="name" v="Steinurdbekken" />
		<tag k="ssr:stedsnr" v="414204" />
		<tag k="waterway" v="stream" />
	</node>
	<node lat="61.791463885147856" lon="9.55141667114515" id="-24027">
		<tag k="name" v="Tårua" />
		<tag k="natural" v="cape" />
		<tag k="ssr:stedsnr" v="414212" />
	</node>
	<node lat="61.81316666684714" lon="9.587186110192725" id="-24036">
		<tag k="name" v="Ulåktjønn" />
		<tag k="natural" v="water" />
		<tag k="ssr:stedsnr" v="414219" />
		<tag k="water" v="pond" />
	</node>
	<node lat="61.752258335235005" lon="9.54247499538242" id="-24042">
		<tag k="name" v="Einangsstraumen" />
		<tag k="ssr:stedsnr" v="414429" />
		<tag k="waterway" v="rapids" />
	</node>
	<node lat="61.69738889101395" lon="9.4174388869173" id="-24051">
		<tag k="name" v="Haugabekken" />
		<tag k="ssr:stedsnr" v="434669" />
		<tag k="waterway" v="stream" />
	</node>
	<node lat="61.725466668520816" lon="9.614711111536588" id="-24052">
		<tag k="name" v="Sekstjønnin" />
		<tag k="natural" v="water" />
		<tag k="ssr:stedsnr" v="434628" />
		<tag k="water" v="lake" />
	</node>
	<node lat="61.74471552951125" lon="9.621739232194308" id="-24053">
		<tag k="name" v="Olastjønne" />
		<tag k="natural" v="water" />
		<tag k="ssr:stedsnr" v="434633" />
	</node>
	<node lat="61.62319444842614" lon="9.296811103127622" id="-24059">
		<tag k="alt_name" v="Veslemuvatnet, n;Nørdre Veslemugvatnet" />
		<tag k="loc_name" v="Nørdre Veslmugen" />
		<tag k="name" v="Nørdre Veslemuvatnet" />
		<tag k="natural" v="water" />
		<tag k="old_name" v="Nedre Veslemuvatnet;Veslemugvatnet nedre;n Veslemuvandet;Nedre Veslemugvatnet;Veslemuvatnet nedre" />
		<tag k="ssr:stedsnr" v="435534" />
	</node>
	<node lat="61.80089444684999" lon="9.572438889672403" id="-24068">
		<tag k="name" v="Ula" />
		<tag k="ssr:stedsnr" v="435887" />
		<tag k="waterway" v="river" />
	</node>
	<node lat="61.79742500319008" lon="9.458224999462884" id="-24069">
		<tag k="name" v="Kvernhusbekken" />
		<tag k="ssr:stedsnr" v="435895" />
		<tag k="waterway" v="stream" />
	</node>
	<node lat="61.7019111148321" lon="9.343852768465823" id="-24070">
		<tag k="alt_name" v="Bergdøla" />
		<tag k="name" v="Berdøla" />
		<tag k="ssr:stedsnr" v="435733" />
		<tag k="waterway" v="river" />
	</node>
	<node lat="61.84054167094675" lon="9.655111115569134" id="-24076">
		<tag k="alt_name" v="Ula, vesle;Vesle Ula" />
		<tag k="name" v="Vesleula" />
		<tag k="ssr:stedsnr" v="436684" />
		<tag k="waterway" v="river" />
	</node>
	<node lat="61.60506389181882" lon="9.30314167013628" id="-24085">
		<tag k="alt_name" v="Søbekken" />
		<tag k="name" v="Sørbekken" />
		<tag k="ssr:stedsnr" v="495540" />
		<tag k="waterway" v="stream" />
	</node>
	<node lat="61.58747661736893" lon="9.295253738424107" id="-24087">
		<tag k="alt_name" v="Mugvatnet" />
		<tag k="name" v="Muvatnet" />
		<tag k="natural" v="water" />
		<tag k="ssr:stedsnr" v="495552" />
		<tag k="water" v="lake" />
	</node>
	<node lat="61.75301666842659" lon="9.125755550796232" id="-24099">
		<tag k="alt_name" v="Slombbekken" />
		<tag k="name" v="Stombekken" />
		<tag k="ssr:stedsnr" v="496437" />
		<tag k="waterway" v="stream" />
	</node>
	<node lat="61.89693055153559" lon="9.511169435775598" id="-24101">
		<tag k="name" v="Høvringsåe" />
		<tag k="ssr:stedsnr" v="496972" />
		<tag k="waterway" v="stream" />
	</node>
	<node lat="61.909127774124045" lon="9.476747225414815" id="-24102">
		<tag k="name" v="Kvannslådalsåe" />
		<tag k="ssr:stedsnr" v="496988" />
		<tag k="waterway" v="river" />
	</node>
	<node lat="61.69889722578678" lon="9.223030561605853" id="-24106">
		<tag k="name" v="Rustputtene" />
		<tag k="natural" v="water" />
		<tag k="ssr:stedsnr" v="534116" />
		<tag k="water" v="pond" />
	</node>
	<node lat="61.747202780263436" lon="9.323469437905583" id="-24111">
		<tag k="name" v="Kvernbekken" />
		<tag k="ssr:stedsnr" v="534600" />
		<tag k="waterway" v="stream" />
	</node>
	<node lat="61.788236108726636" lon="9.43478610712982" id="-24113">
		<tag k="name" v="Gruvtjønn" />
		<tag k="natural" v="water" />
		<tag k="ssr:stedsnr" v="535695" />
	</node>
	<node lat="61.77325278106896" lon="9.675486105046328" id="-24120">
		<tag k="name" v="Huggu" />
		<tag k="natural" v="bay" />
		<tag k="ssr:stedsnr" v="535176" />
	</node>
	<node lat="61.826383335741816" lon="9.564302782883928" id="-24123">
		<tag k="name" v="Storrustbekken" />
		<tag k="ssr:stedsnr" v="535185" />
		<tag k="waterway" v="stream" />
	</node>
	<node lat="61.805894440277974" lon="9.660683331013717" id="-24129">
		<tag k="name" v="Gråhaugbekken" />
		<tag k="ssr:stedsnr" v="535132" />
		<tag k="waterway" v="stream" />
	</node>
	<node lat="61.684552780147584" lon="9.465563892730634" id="-24136">
		<tag k="name" v="Jelkedalsbekken" />
		<tag k="ssr:stedsnr" v="535158" />
		<tag k="waterway" v="stream" />
	</node>
	<node lat="61.71440488508657" lon="9.540846159318974" id="-24145">
		<tag k="name" v="Løken" />
		<tag k="natural" v="water" />
		<tag k="ssr:stedsnr" v="535615" />
	</node>
	<node lat="61.886805553197924" lon="9.473252775606667" id="-24154">
		<tag k="name" v="Grotbekken" />
		<tag k="ssr:stedsnr" v="535756" />
		<tag k="waterway" v="stream" />
	</node>
	<node lat="61.752808337386455" lon="9.538591670481116" id="-24157">
		<tag k="name" v="Bjørkeøya" />
		<tag k="place" v="island" />
		<tag k="ssr:stedsnr" v="536431" />
	</node>
	<node lat="61.8324916676286" lon="9.435175001298688" id="-24159">
		<tag k="name" v="Brennebekken" />
		<tag k="ssr:stedsnr" v="536590" />
		<tag k="waterway" v="stream" />
	</node>
	<node lat="61.727241668653285" lon="9.249538886707985" id="-24167">
		<tag k="name" v="Bjørstadtjønne" />
		<tag k="natural" v="water" />
		<tag k="ssr:stedsnr" v="555596" />
	</node>
	<node lat="61.71296111263197" lon="9.347683336986082" id="-24172">
		<tag k="name" v="Skitjønnbekken" />
		<tag k="ssr:stedsnr" v="556689" />
		<tag k="waterway" v="stream" />
	</node>
	<node lat="61.82724166424401" lon="9.540899995324548" id="-24180">
		<tag k="name" v="Storskriubekken" />
		<tag k="ssr:stedsnr" v="556778" />
		<tag k="waterway" v="stream" />
	</node>
	<node lat="61.69908055401897" lon="9.178938896780569" id="-24182">
		<tag k="alt_name" v="Tråsåfossen, nedre;Nedre Tråsåfoss" />
		<tag k="name" v="Nedre Tråsåfossen" />
		<tag k="natural" v="waterfall" />
		<tag k="ssr:stedsnr" v="555980" />
	</node>
	<node lat="61.61350000058746" lon="9.231749999723295" id="-24183">
		<tag k="name" v="Rova" />
		<tag k="ssr:stedsnr" v="556547" />
		<tag k="waterway" v="river" />
	</node>
	<node lat="61.78785000170846" lon="9.620394438533038" id="-24196">
		<tag k="name" v="Bergetjønne" />
		<tag k="natural" v="water" />
		<tag k="ssr:stedsnr" v="557514" />
	</node>
	<node lat="61.79647057834288" lon="9.6062784761138" id="-24197">
		<tag k="name" v="Nedre Raphamntjønne" />
		<tag k="natural" v="water" />
		<tag k="ssr:stedsnr" v="557518" />
		<tag k="water" v="lake" />
	</node>
	<node lat="61.773594440556096" lon="9.48881666899886" id="-24206">
		<tag k="name" v="Vesleberget" />
		<tag k="natural" v="cape" />
		<tag k="ssr:stedsnr" v="595245" />
	</node>
	<node lat="61.77954999871539" lon="9.495436117224639" id="-24207">
		<tag k="name" v="Daleåa" />
		<tag k="ssr:stedsnr" v="595246" />
		<tag k="waterway" v="stream" />
	</node>
	<node lat="61.741155551164" lon="9.326833332197898" id="-24221">
		<tag k="name" v="Amundstadbekken" />
		<tag k="ssr:stedsnr" v="595797" />
		<tag k="waterway" v="stream" />
	</node>
	<node lat="61.711338885947086" lon="9.302683328124814" id="-24222">
		<tag k="name" v="Svartbekken" />
		<tag k="ssr:stedsnr" v="595878" />
		<tag k="waterway" v="stream" />
	</node>
	<node lat="61.69309444620322" lon="9.45408888319457" id="-24227">
		<tag k="name" v="Lysgardsbekken" />
		<tag k="ssr:stedsnr" v="596179" />
		<tag k="waterway" v="stream" />
	</node>
	<node lat="61.8359527791572" lon="9.37501666554609" id="-24235">
		<tag k="name" v="Grotbekken" />
		<tag k="ssr:stedsnr" v="596578" />
		<tag k="waterway" v="stream" />
	</node>
	<node lat="61.68468888482061" lon="9.477905559388747" id="-24241">
		<tag k="name" v="Fettbekken" />
		<tag k="ssr:stedsnr" v="596688" />
		<tag k="waterway" v="stream" />
	</node>
	<node lat="61.865686109203835" lon="9.444763893801092" id="-24246">
		<tag k="name" v="Vesletjønn" />
		<tag k="natural" v="water" />
		<tag k="ssr:stedsnr" v="596971" />
	</node>
	<node lat="61.492083336709065" lon="8.814766670151277" id="-24247">
		<tag k="name" v="Sjoa" />
		<tag k="ssr:stedsnr" v="614796" />
		<tag k="waterway" v="river" />
	</node>
	<node lat="61.78353889158544" lon="9.610827772973778" id="-24248">
		<tag k="name" v="Skardtjønne" />
		<tag k="natural" v="water" />
		<tag k="ssr:stedsnr" v="617550" />
	</node>
	<node lat="61.772042789230646" lon="9.635397957192398" id="-24249">
		<tag k="name" v="Steindalstjønne" />
		<tag k="natural" v="water" />
		<tag k="ssr:stedsnr" v="617566" />
	</node>
	<node lat="61.720805556134025" lon="9.575169453695912" id="-24253">
		<tag k="name" v="Faligbekken" />
		<tag k="ssr:stedsnr" v="616663" />
		<tag k="waterway" v="stream" />
	</node>
	<node lat="61.698841670142336" lon="9.490891660430217" id="-24255">
		<tag k="name" v="Svabekken" />
		<tag k="ssr:stedsnr" v="616712" />
		<tag k="waterway" v="stream" />
	</node>
	<node lat="61.66652500020247" lon="9.423199994616654" id="-24257">
		<tag k="name" v="Jønnbekken" />
		<tag k="ssr:stedsnr" v="616734" />
		<tag k="waterway" v="stream" />
	</node>
	<node lat="61.89897778069659" lon="9.683533330163735" id="-24273">
		<tag k="name" v="Verkilsdalsvatnet" />
		<tag k="natural" v="water" />
		<tag k="ssr:stedsnr" v="617740" />
	</node>
	<node lat="61.878200000580314" lon="9.616072216970935" id="-24278">
		<tag k="alt_name" v="Kjondalsbekken, s" />
		<tag k="name" v="Søre Kjondalsbekken" />
		<tag k="ssr:stedsnr" v="617763" />
		<tag k="waterway" v="stream" />
	</node>
	<node lat="61.88362499769742" lon="9.768211113850663" id="-24279">
		<tag k="name" v="Kaldbekken" />
		<tag k="ssr:stedsnr" v="617765" />
		<tag k="waterway" v="stream" />
	</node>
	<node lat="61.87534444723621" lon="9.919472224591388" id="-24280">
		<tag k="name" v="Illmannåe" />
		<tag k="ssr:stedsnr" v="617766" />
		<tag k="waterway" v="stream" />
	</node>
	<node lat="61.86636944055906" lon="9.749138888086597" id="-24281">
		<tag k="name" v="Krokåtbekken" />
		<tag k="ssr:stedsnr" v="617772" />
		<tag k="waterway" v="stream" />
	</node>
	<node lat="61.803222223237846" lon="9.470136120110594" id="-24282">
		<tag k="alt_name" v="Høgsætertjønne" />
		<tag k="name" v="Åsårtjønn" />
		<tag k="natural" v="water" />
		<tag k="ssr:stedsnr" v="617863" />
	</node>
	<node lat="61.837316670394394" lon="9.482783341862286" id="-24294">
		<tag k="name" v="Mattistjønn" />
		<tag k="ssr:stedsnr" v="656113" />
		<tag k="waterway" v="stream" />
	</node>
	<node lat="61.790327776137296" lon="9.5043333268971" id="-24302">
		<tag k="name" v="Kleivrudbekken" />
		<tag k="ssr:stedsnr" v="655029" />
		<tag k="waterway" v="stream" />
	</node>
	<node lat="61.78739444578547" lon="9.36267500309381" id="-24314">
		<tag k="name" v="Rustbekken" />
		<tag k="ssr:stedsnr" v="656686" />
		<tag k="waterway" v="stream" />
	</node>
	<node lat="61.778694440684234" lon="9.400375003107222" id="-24315">
		<tag k="name" v="Skiftesbekken" />
		<tag k="ssr:stedsnr" v="656688" />
		<tag k="waterway" v="stream" />
	</node>
	<node lat="61.782949998835" lon="9.558108330263645" id="-24321">
		<tag k="name" v="Kollobekken" />
		<tag k="ssr:stedsnr" v="657065" />
		<tag k="waterway" v="stream" />
	</node>
	<node lat="61.75819721835809" lon="9.537947221666153" id="-24323">
		<tag k="name" v="Torsøya" />
		<tag k="place" v="island" />
		<tag k="ssr:stedsnr" v="657461" />
	</node>
	<node lat="61.848347218391666" lon="9.466825000419588" id="-24324">
		<tag k="name" v="Fugleskjellbekken" />
		<tag k="ssr:stedsnr" v="657585" />
		<tag k="waterway" v="stream" />
	</node>
	<node lat="61.8427805527681" lon="9.442969435689088" id="-24325">
		<tag k="name" v="Storøya" />
		<tag k="place" v="island" />
		<tag k="ssr:stedsnr" v="657589" />
	</node>
	<node lat="61.832174998933" lon="9.425008327838793" id="-24326">
		<tag k="name" v="Kaldsteinbekken" />
		<tag k="ssr:stedsnr" v="657595" />
		<tag k="waterway" v="stream" />
	</node>
	<node lat="61.6939861107738" lon="9.429252777361096" id="-24342">
		<tag k="name" v="Nystugubekken" />
		<tag k="ssr:stedsnr" v="717198" />
		<tag k="waterway" v="stream" />
	</node>
	<node lat="61.75532499685957" lon="9.500016660672532" id="-24352">
		<tag k="name" v="Høghaugtjønn" />
		<tag k="natural" v="water" />
		<tag k="ssr:stedsnr" v="717400" />
	</node>
	<node lat="61.85720277511605" lon="9.52503889247121" id="-24355">
		<tag k="name" v="Langmyrbekken" />
		<tag k="ssr:stedsnr" v="717089" />
		<tag k="waterway" v="stream" />
	</node>
	<node lat="61.87307500359624" lon="9.32015832929117" id="-24372">
		<tag k="name" v="Selsvassbekken" />
		<tag k="ssr:stedsnr" v="717942" />
		<tag k="waterway" v="stream" />
	</node>
	<node lat="61.75894166983998" lon="9.542124994883425" id="-24381">
		<tag k="name" v="Fettjønn" />
		<tag k="natural" v="bay" />
		<tag k="ssr:stedsnr" v="718466" />
	</node>
	<node lat="61.67702777479219" lon="9.533333328452814" id="-24383">
		<tag k="name" v="Bråkålibekken" />
		<tag k="old_name" v="Bråkållibekken" />
		<tag k="ssr:stedsnr" v="718657" />
		<tag k="waterway" v="stream" />
	</node>
	<node lat="61.7717166646403" lon="9.694258339221646" id="-24393">
		<tag k="alt_name" v="Vassmellom" />
		<tag k="name" v="Vassmillom" />
		<tag k="place" v="locality" />
		<tag k="ssr:stedsnr" v="738547" />
	</node>
	<node lat="61.708574999849084" lon="9.498913884079021" id="-24397">
		<tag k="name" v="Storrtjønne" />
		<tag k="natural" v="water" />
		<tag k="ssr:stedsnr" v="738665" />
	</node>
	<node lat="61.80630000210802" lon="9.417933335640692" id="-24401">
		<tag k="alt_name" v="Skogtjønn" />
		<tag k="name" v="Skogtjønne" />
		<tag k="natural" v="water" />
		<tag k="ssr:stedsnr" v="738901" />
	</node>
	<node lat="61.686625003972225" lon="9.306850002602198" id="-24404">
		<tag k="fixme" v="multiple name tags, choose one and add the other to alt_name" />
		<tag k="name" v="Øverdalsfiskeløysa;Kvernbrusfiskeløysa" />
		<tag k="ssr:stedsnr" v="738749" />
		<tag k="waterway" v="stream" />
	</node>
	<node lat="61.6697916650367" lon="9.18976110705498" id="-24407">
		<tag k="name" v="Langodden" />
		<tag k="natural" v="cape" />
		<tag k="ssr:stedsnr" v="738767" />
	</node>
	<node lat="61.767119443004674" lon="9.477125001411673" id="-24413">
		<tag k="name" v="Veslgravåe" />
		<tag k="ssr:stedsnr" v="738838" />
		<tag k="waterway" v="stream" />
	</node>
	<node lat="61.756027776943995" lon="9.647219449150258" id="-24419">
		<tag k="name" v="Hesstjønne" />
		<tag k="natural" v="water" />
		<tag k="ssr:stedsnr" v="739514" />
	</node>
	<node lat="61.8278194411075" lon="9.496622213423713" id="-24425">
		<tag k="name" v="Formoløken" />
		<tag k="ssr:stedsnr" v="777014" />
		<tag k="waterway" v="stream" />
	</node>
	<node lat="61.742672222572004" lon="9.339269446328483" id="-24443">
		<tag k="name" v="Vesle-Sjoa" />
		<tag k="ssr:stedsnr" v="777788" />
		<tag k="waterway" v="river" />
	</node>
	<node lat="61.753522225482556" lon="9.543316670618754" id="-24449">
		<tag k="name" v="Bukkeodden" />
		<tag k="natural" v="cape" />
		<tag k="ssr:stedsnr" v="778443" />
	</node>
	<node lat="61.88954721862743" lon="9.453136104911259" id="-24457">
		<tag k="name" v="Åmot" />
		<tag k="natural" v="waterfall" />
		<tag k="ssr:stedsnr" v="778757" />
	</node>
	<node lat="61.76835241825616" lon="9.593992294944046" id="-24467">
		<tag k="name" v="Nedre Svarttjønne" />
		<tag k="natural" v="water" />
		<tag k="ssr:stedsnr" v="799569" />
	</node>
	<node lat="61.698983334297445" lon="9.476561119169865" id="-24475">
		<tag k="alt_name" v="Grotbekken" />
		<tag k="name" v="Grotebekken" />
		<tag k="ssr:stedsnr" v="798671" />
		<tag k="waterway" v="stream" />
	</node>
	<node lat="61.87732500110785" lon="9.357755562091649" id="-24497">
		<tag k="name" v="Sæterbekken" />
		<tag k="ssr:stedsnr" v="800953" />
		<tag k="waterway" v="stream" />
	</node>
	<node lat="61.71513610898525" lon="9.398386117819555" id="-24508">
		<tag k="name" v="Attreina" />
		<tag k="natural" v="bay" />
		<tag k="ssr:stedsnr" v="838013" />
	</node>
	<node lat="61.76965294131632" lon="9.656601412047968" id="-24524">
		<tag k="alt_name" v="Krosshaugtjern" />
		<tag k="name" v="Krosshaugtjønn" />
		<tag k="natural" v="water" />
		<tag k="ssr:stedsnr" v="839116" />
	</node>
	<node lat="61.792502779637" lon="9.607247218489693" id="-24528">
		<tag k="name" v="Øvre Lorttjønn" />
		<tag k="natural" v="water" />
		<tag k="ssr:stedsnr" v="839167" />
	</node>
	<node lat="61.81102777516714" lon="9.562091675752406" id="-24531">
		<tag k="name" v="Skjennabekken" />
		<tag k="ssr:stedsnr" v="839212" />
		<tag k="waterway" v="stream" />
	</node>
	<node lat="61.72905000423118" lon="9.40763611119234" id="-24533">
		<tag k="name" v="Skjerdalsbekken" />
		<tag k="ssr:stedsnr" v="839452" />
		<tag k="waterway" v="stream" />
	</node>
	<node lat="61.80835555861189" lon="9.733205562755385" id="-24535">
		<tag k="name" v="Ranglartjønna" />
		<tag k="natural" v="water" />
		<tag k="ssr:stedsnr" v="839321" />
	</node>
	<node lat="61.69866667031056" lon="9.250005559806647" id="-24561">
		<tag k="name" v="Ståltjønne" />
		<tag k="natural" v="water" />
		<tag k="ssr:stedsnr" v="859681" />
	</node>
	<node lat="61.713444443605454" lon="9.602877768415208" id="-24562">
		<tag k="name" v="Holsætertjønne" />
		<tag k="natural" v="water" />
		<tag k="ssr:stedsnr" v="859645" />
	</node>
	<node lat="61.776777778754834" lon="9.69769445248762" id="-24567">
		<tag k="name" v="Elgsvikje" />
		<tag k="natural" v="bay" />
		<tag k="ssr:stedsnr" v="860592" />
	</node>
	<node lat="61.77035814589686" lon="9.689797882967751" id="-24568">
		<tag k="name" v="Vålåsjøen" />
		<tag k="natural" v="water" />
		<tag k="ssr:stedsnr" v="860594" />
		<tag k="water" v="lake" />
	</node>
	<node lat="61.61108055274336" lon="9.291347228880678" id="-24572">
		<tag k="name" v="Nordbekken" />
		<tag k="ssr:stedsnr" v="860550" />
		<tag k="waterway" v="stream" />
	</node>
	<node lat="61.71194444083374" lon="9.587788890352964" id="-24574">
		<tag k="name" v="Harrtjønne" />
		<tag k="natural" v="water" />
		<tag k="ssr:stedsnr" v="860740" />
	</node>
	<node lat="61.85741666595305" lon="9.671133338934975" id="-24585">
		<tag k="name" v="Ljosåe" />
		<tag k="ssr:stedsnr" v="861662" />
		<tag k="waterway" v="stream" />
	</node>
	<node lat="61.737566664382015" lon="9.199116667233964" id="-24598">
		<tag k="name" v="Hjelletangen" />
		<tag k="natural" v="cape" />
		<tag k="ssr:stedsnr" v="959162" />
	</node>
	<node lat="61.736975003059364" lon="9.20635000267895" id="-24599">
		<tag k="name" v="Skjeftøya" />
		<tag k="place" v="islet" />
		<tag k="ssr:stedsnr" v="959163" />
	</node>
	<node lat="61.77580555281338" lon="9.38561388463396" id="-24613">
		<tag k="name" v="Lykkjebekken" />
		<tag k="ssr:stedsnr" v="960657" />
		<tag k="waterway" v="stream" />
	</node>
	<node lat="61.75619166953048" lon="9.54152777773082" id="-24620">
		<tag k="name" v="Storøya" />
		<tag k="place" v="island" />
		<tag k="ssr:stedsnr" v="960451" />
	</node>
	<node lat="61.74869722005182" lon="9.403383325492271" id="-24636">
		<tag k="name" v="Tjønnet" />
		<tag k="natural" v="water" />
		<tag k="ssr:stedsnr" v="960666" />
		<tag k="water" v="pond" />
	</node>
	<node lat="61.78794722397412" lon="9.423005550994109" id="-24638">
		<tag k="name" v="Flåtøya" />
		<tag k="place" v="islet" />
		<tag k="ssr:stedsnr" v="960680" />
	</node>
</osm>
