<?xml version="1.0" encoding="UTF-8"?>
<<<<<<< HEAD
<osm version="0.6" generator="osmapis">
	<node lat="61.765547221504235" lon="9.447808340036387" id="-17479">
		<tag k="name" v="Myromsætre" />
		<tag k="place" v="locality" />
		<tag k="ssr:stedsnr" v="374833" />
	</node>
	<node lat="61.75136388798071" lon="9.31716110866431" id="-17560">
		<tag k="amenity" v="community_centre" />
		<tag k="name" v="Heidal samfunnshus" />
		<tag k="ssr:stedsnr" v="474607" />
	</node>
	<node lat="61.72430556002311" lon="9.165027777316302" id="-17621">
		<tag k="amenity" v="community_centre" />
		<tag k="name" v="Rindvang" />
		<tag k="ssr:stedsnr" v="495971" />
	</node>
	<node lat="61.679297218125555" lon="9.546852777581421" id="-17716">
		<tag k="amenity" v="place_of_worship" />
		<tag k="denomination" v="lutheran" />
		<tag k="name" v="Sjoa kapell" />
		<tag k="religion" v="christian" />
		<tag k="ssr:stedsnr" v="605403" />
	</node>
	<node lat="61.746973526962954" lon="9.331784538183824" id="-17925">
=======
<osm generator="osmapis" version="0.6">
	<node id="-373790" lat="61.6792972181" lon="9.54685277758">
		<tag k="amenity" v="place_of_worship" />
		<tag k="denomination" v="lutheran" />
		<tag k="name" v="Sjoa kapell" />
		<tag k="religion" v="christian" />
		<tag k="ssr:stedsnr" v="605403" />
	</node>
	<node id="-372565" lat="61.8017305544" lon="9.55304722233">
		<tag k="amenity" v="place_of_worship" />
		<tag k="denomination" v="lutheran" />
		<tag k="name" v="Sel kirke" />
		<tag k="religion" v="christian" />
		<tag k="ssr:stedsnr" v="495883" />
	</node>
	<node id="-373017" lat="61.7472936871" lon="9.33085331347">
>>>>>>> e1d4bc35ff8a6074a6f2e91616a996b547c36f15
		<tag k="amenity" v="place_of_worship" />
		<tag k="denomination" v="lutheran" />
		<tag k="name" v="Heidal kirke" />
		<tag k="religion" v="christian" />
		<tag k="ssr:stedsnr" v="10675" />
	</node>
<<<<<<< HEAD
	<node lat="61.74706666861469" lon="9.555374996731212" id="-17994">
=======
	<node id="-373847" lat="61.8185305548" lon="9.62357222815">
		<tag k="name" v="Reiret" />
		<tag k="ssr:stedsnr" v="626475" />
		<tag k="tourism" v="attraction" />
	</node>
	<node id="-374037" lat="61.7470666686" lon="9.55537499673">
>>>>>>> e1d4bc35ff8a6074a6f2e91616a996b547c36f15
		<tag k="amenity" v="community_centre" />
		<tag k="name" v="Åtun" />
		<tag k="ssr:stedsnr" v="839105" />
	</node>
<<<<<<< HEAD
	<node lat="61.844697222335434" lon="9.413752770561718" id="-18063">
=======
	<node id="-374100" lat="61.8495166701" lon="9.42082222387">
		<tag k="amenity" v="place_of_worship" />
		<tag k="denomination" v="lutheran" />
		<tag k="name" v="Nord-Sel kirke" />
		<tag k="old_name" v="Sel kapell" />
		<tag k="religion" v="christian" />
		<tag k="ssr:stedsnr" v="860829" />
	</node>
	<node id="-372798" lat="61.746973527" lon="9.33178453818">
		<tag k="amenity" v="place_of_worship" />
		<tag k="denomination" v="lutheran" />
		<tag k="name" v="Bjølstad kapell" />
		<tag k="religion" v="christian" />
		<tag k="ssr:stedsnr" v="909343" />
	</node>
	<node id="-373374" lat="61.873177776" lon="9.30576111174">
		<tag k="name" v="Trond" />
		<tag k="place" v="locality" />
		<tag k="ssr:stedsnr" v="314936" />
	</node>
	<node id="-372785" lat="61.8446972223" lon="9.41375277056">
>>>>>>> e1d4bc35ff8a6074a6f2e91616a996b547c36f15
		<tag k="amenity" v="community_centre" />
		<tag k="name" v="Sel samfunnshus" />
		<tag k="ssr:stedsnr" v="900620" />
	</node>
<<<<<<< HEAD
	<node lat="61.74729368705294" lon="9.33085331347374" id="-18156">
		<tag k="alt_name" v="Heidal kirke" />
		<tag k="amenity" v="place_of_worship" />
		<tag k="denomination" v="lutheran" />
		<tag k="name" v="Heidal kyrkje" />
		<tag k="religion" v="christian" />
		<tag k="ssr:stedsnr" v="10675" />
=======
	<node id="-372434" lat="61.72430556" lon="9.16502777732">
		<tag k="amenity" v="community_centre" />
		<tag k="name" v="Rindvang" />
		<tag k="ssr:stedsnr" v="495971" />
	</node>
	<node id="-372648" lat="61.7812722237" lon="9.24129444862">
		<tag k="name" v="Skogkverna" />
		<tag k="place" v="locality" />
		<tag k="ssr:stedsnr" v="717679" />
	</node>
	<node id="-374014" lat="61.8116388897" lon="9.60530278384">
		<tag k="name" v="Kvitskriuprestan" />
		<tag k="ssr:stedsnr" v="808417" />
		<tag k="tourism" v="attraction" />
	</node>
	<node id="-372659" lat="61.7567472264" lon="9.54679167278">
		<tag k="name" v="Kringenstøtta" />
		<tag k="ssr:stedsnr" v="718457" />
		<tag k="tourism" v="attraction" />
	</node>
	<node id="-374084" lat="61.8528583297" lon="9.4929944378">
		<tag k="amenity" v="place_of_worship" />
		<tag k="denomination" v="lutheran" />
		<tag k="name" v="Rossbu kapell" />
		<tag k="religion" v="christian" />
		<tag k="ssr:stedsnr" v="848370" />
	</node>
	<node id="-372355" lat="61.751363888" lon="9.31716110866">
		<tag k="amenity" v="community_centre" />
		<tag k="name" v="Heidal samfunnshus" />
		<tag k="ssr:stedsnr" v="474607" />
	</node>
	<node id="-373474" lat="61.7655472215" lon="9.44780834004">
		<tag k="name" v="Myromsætre" />
		<tag k="place" v="locality" />
		<tag k="ssr:stedsnr" v="374833" />
>>>>>>> e1d4bc35ff8a6074a6f2e91616a996b547c36f15
	</node>
</osm>
