<?xml version="1.0" encoding="UTF-8"?>
<osm version="0.6" generator="osmapis">
	<node lat="61.7152000019433" lon="9.273722223193525" id="-21038">
		<tag k="highway" v="path" />
		<tag k="name" v="Hømillomvegen" />
		<tag k="ssr:stedsnr" v="231253" />
	</node>
	<node lat="61.83933333459006" lon="9.4789777767072" id="-21096">
		<tag k="bridge" v="yes" />
		<tag k="layer" v="1" />
		<tag k="name" v="Skjerungså" />
		<tag k="ssr:stedsnr" v="46039" />
	</node>
	<node lat="61.772244446591635" lon="9.479358330478048" id="-21097">
		<tag k="bridge" v="yes" />
		<tag k="layer" v="1" />
		<tag k="name" v="Gravå lille" />
		<tag k="ssr:stedsnr" v="46474" />
	</node>
	<node lat="61.70489721920862" lon="9.515555555991545" id="-21422">
		<tag k="highway" v="path" />
		<tag k="name" v="Geitstigen" />
		<tag k="ssr:stedsnr" v="474548" />
	</node>
	<node lat="61.83775278093403" lon="9.428366660858833" id="-21526">
		<tag k="alt_name" v="Kaldsteinbrua" />
		<tag k="bridge" v="yes" />
		<tag k="layer" v="1" />
		<tag k="name" v="Kalrasten" />
		<tag k="ssr:stedsnr" v="471461" />
	</node>
	<node lat="61.772897225462074" lon="9.47416945215769" id="-21614">
		<tag k="bridge" v="yes" />
		<tag k="layer" v="1" />
		<tag k="name" v="Gravå store" />
		<tag k="ssr:stedsnr" v="532410" />
	</node>
	<node lat="61.713544445511154" lon="9.455663897047813" id="-21675">
		<tag k="highway" v="path" />
		<tag k="name" v="Vesle Espesætervegen" />
		<tag k="ssr:stedsnr" v="595066" />
	</node>
	<node lat="61.66808333006031" lon="9.473772228329084" id="-21699">
		<tag k="highway" v="path" />
		<tag k="name" v="Kuråket" />
		<tag k="ssr:stedsnr" v="596708" />
	</node>
	<node lat="61.83241944245653" lon="9.466880551069892" id="-21781">
		<tag k="bridge" v="yes" />
		<tag k="layer" v="1" />
		<tag k="name" v="Skotte kanalbru" />
		<tag k="ssr:stedsnr" v="896028" />
	</node>
	<node lat="61.84945278186818" lon="9.425266661952826" id="-21782">
		<tag k="bridge" v="yes" />
		<tag k="layer" v="1" />
		<tag k="name" v="Laurgård" />
		<tag k="ssr:stedsnr" v="896472" />
	</node>
	<node lat="61.72572499873839" lon="9.1534055462293" id="-21783">
		<tag k="bridge" v="yes" />
		<tag k="layer" v="1" />
		<tag k="name" v="Rinna" />
		<tag k="ssr:stedsnr" v="714378" />
	</node>
	<node lat="61.71654166367272" lon="9.46359722791694" id="-21806">
		<tag k="highway" v="path" />
		<tag k="name" v="Øvre Hjellesæterråket" />
		<tag k="ssr:stedsnr" v="899089" />
	</node>
	<node lat="61.6952388874601" lon="9.526883339137363" id="-21835">
		<tag k="highway" v="path" />
		<tag k="name" v="Morkevegen" />
		<tag k="ssr:stedsnr" v="900554" />
	</node>
	<node lat="61.711777776391244" lon="9.446094437091269" id="-21879">
		<tag k="highway" v="path" />
		<tag k="name" v="Gamlevegen" />
		<tag k="ssr:stedsnr" v="777104" />
	</node>
	<node lat="61.682322406809256" lon="9.541971522850673" id="-22152">
		<tag k="alt_name" v="Sjoa" />
		<tag k="name" v="Sjoa stasjon" />
		<tag k="railway" v="station" />
		<tag k="ssr:stedsnr" v="10756" />
		<tag k="train" v="yes" />
	</node>
	<node lat="61.860233333786084" lon="9.408572228598482" id="-22196">
		<tag k="highway" v="path" />
		<tag k="name" v="Gammellia" />
		<tag k="ssr:stedsnr" v="50895" />
	</node>
</osm>
