<?xml version="1.0" encoding="UTF-8"?>
<osm version="0.6" generator="osmapis">
	<node lat="61.67249166608215" lon="9.196769444833162" id="-18850">
		<tag k="name" v="Midtbuene" />
		<tag k="place" v="isolated_dwelling" />
		<tag k="ssr:stedsnr" v="231115" />
	</node>
	<node lat="61.66943888698912" lon="9.216761117838686" id="-18851">
		<tag k="name" v="Fjellheim" />
		<tag k="place" v="farm" />
		<tag k="ssr:stedsnr" v="231126" />
	</node>
	<node lat="61.82392499560533" lon="9.50342778398619" id="-18853">
		<tag k="name" v="Nordre Rudi" />
		<tag k="place" v="farm" />
		<tag k="ssr:stedsnr" v="231070" />
	</node>
	<node lat="61.788386115198534" lon="9.520033332555418" id="-18856">
		<tag k="historic" v="shieling" />
		<tag k="name" v="Hanskvea" />
		<tag k="place" v="isolated_dwelling" />
		<tag k="ssr:stedsnr" v="231256" />
	</node>
	<node lat="61.69813611300436" lon="9.395033333959818" id="-18857">
		<tag k="historic" v="shieling" />
		<tag k="name" v="Moasætre" />
		<tag k="place" v="isolated_dwelling" />
		<tag k="ssr:stedsnr" v="231264" />
	</node>
	<node lat="61.7920083307021" lon="9.432033324214375" id="-18861">
		<tag k="name" v="Kleivsletten" />
		<tag k="place" v="isolated_dwelling" />
		<tag k="ssr:stedsnr" v="231596" />
	</node>
	<node lat="61.74835833259874" lon="9.298197222280542" id="-18862">
		<tag k="name" v="Rustbakken" />
		<tag k="place" v="farm" />
		<tag k="ssr:stedsnr" v="231668" />
	</node>
	<node lat="61.75430555648761" lon="9.250052775703026" id="-18863">
		<tag k="name" v="Grindstugu" />
		<tag k="place" v="isolated_dwelling" />
		<tag k="ssr:stedsnr" v="231669" />
	</node>
	<node lat="61.74112221998723" lon="9.560463887218324" id="-18866">
		<tag k="fixme" v="consider place=hamlet" />
		<tag k="name" v="Vangen" />
		<tag k="place" v="farm" />
		<tag k="ssr:stedsnr" v="10644" />
	</node>
	<node lat="61.734949999228306" lon="9.62252500313528" id="-18867">
		<tag k="alt_name" v="Gneddsætrene" />
		<tag k="historic" v="shieling" />
		<tag k="name" v="Gneddsætrin" />
		<tag k="place" v="isolated_dwelling" />
		<tag k="ssr:stedsnr" v="10645" />
	</node>
	<node lat="61.76311388511156" lon="9.606174992748226" id="-18869">
		<tag k="historic" v="shieling" />
		<tag k="name" v="Kringsætrin" />
		<tag k="place" v="isolated_dwelling" />
		<tag k="ssr:stedsnr" v="10543" />
	</node>
	<node lat="61.68831666919156" lon="9.483502770831418" id="-18870">
		<tag k="alt_name" v="Kleivi, s;Søre Kleiven" />
		<tag k="loc_name" v="Kleive" />
		<tag k="name" v="Søre Kleivi" />
		<tag k="place" v="farm" />
		<tag k="ssr:stedsnr" v="10702" />
	</node>
	<node lat="61.677466666998036" lon="9.552052776105386" id="-18873">
		<tag k="name" v="Milsteinhaugen" />
		<tag k="place" v="isolated_dwelling" />
		<tag k="ssr:stedsnr" v="10743" />
	</node>
	<node lat="61.66337499816703" lon="9.214649997827788" id="-18874">
		<tag k="alt_name" v="Meringsdalen, s;Mæringsdalen søre" />
		<tag k="name" v="Søre Meringsdalen" />
		<tag k="place" v="farm" />
		<tag k="ssr:stedsnr" v="10783" />
	</node>
	<node lat="61.80091666249692" lon="9.422777771502902" id="-18877">
		<tag k="historic" v="shieling" />
		<tag k="name" v="Britnersætre" />
		<tag k="place" v="isolated_dwelling" />
		<tag k="ssr:stedsnr" v="231761" />
	</node>
	<node lat="61.72346666891096" lon="9.58677777648186" id="-18881">
		<tag k="historic" v="shieling" />
		<tag k="name" v="Holviksætrene" />
		<tag k="place" v="isolated_dwelling" />
		<tag k="ssr:stedsnr" v="232024" />
	</node>
	<node lat="61.78431388565778" lon="9.551633335158934" id="-18883">
		<tag k="name" v="Tamburstugu" />
		<tag k="place" v="isolated_dwelling" />
		<tag k="ssr:stedsnr" v="232057" />
	</node>
	<node lat="61.81707222499342" lon="9.545374997596305" id="-18884">
		<tag k="loc_name" v="Bjørnavollen" />
		<tag k="name" v="Bjørnavolden" />
		<tag k="place" v="farm" />
		<tag k="ssr:stedsnr" v="232058" />
	</node>
	<node lat="61.690855557557214" lon="9.471888883952229" id="-18887">
		<tag k="name" v="Pinstad" />
		<tag k="place" v="locality" />
		<tag k="ssr:stedsnr" v="232160" />
	</node>
	<node lat="61.77412222305488" lon="9.501622230780205" id="-18892">
		<tag k="name" v="Heggelund" />
		<tag k="place" v="isolated_dwelling" />
		<tag k="ssr:stedsnr" v="232253" />
	</node>
	<node lat="61.73743055746249" lon="9.40286110531461" id="-18897">
		<tag k="historic" v="shieling" />
		<tag k="name" v="Holtensætre" />
		<tag k="place" v="isolated_dwelling" />
		<tag k="ssr:stedsnr" v="232399" />
	</node>
	<node lat="61.78601622088042" lon="9.519837373380646" id="-18898">
		<tag k="historic" v="shieling" />
		<tag k="name" v="Nordre Liensætre" />
		<tag k="place" v="isolated_dwelling" />
		<tag k="ssr:stedsnr" v="232456" />
	</node>
	<node lat="61.83639722135073" lon="9.426763889286924" id="-18899">
		<tag k="name" v="Kaldstein" />
		<tag k="place" v="farm" />
		<tag k="ssr:stedsnr" v="232541" />
	</node>
	<node lat="61.83583610696519" lon="9.435572217781708" id="-18900">
		<tag k="name" v="Nordlien" />
		<tag k="place" v="farm" />
		<tag k="ssr:stedsnr" v="232542" />
	</node>
	<node lat="61.840508329839075" lon="9.381788891954866" id="-18901">
		<tag k="name" v="Øvre Grote" />
		<tag k="place" v="locality" />
		<tag k="ssr:stedsnr" v="232553" />
	</node>
	<node lat="61.842519447125554" lon="9.369019441454524" id="-18902">
		<tag k="name" v="Nørdre Dissen" />
		<tag k="place" v="farm" />
		<tag k="ssr:stedsnr" v="232555" />
	</node>
	<node lat="61.68025277426186" lon="9.542594437554085" id="-18903">
		<tag k="amenity" v="school" />
		<tag k="name" v="Sjoa skole" />
		<tag k="ssr:stedsnr" v="232584" />
	</node>
	<node lat="61.763513887935666" lon="9.4275472206412" id="-18904">
		<tag k="historic" v="shieling" />
		<tag k="name" v="Søre Veggemsætre" />
		<tag k="place" v="isolated_dwelling" />
		<tag k="ssr:stedsnr" v="232593" />
	</node>
	<node lat="61.8934186099731" lon="9.459641688598355" id="-18912">
		<tag k="name" v="Øigardseter Fjellstue" />
		<tag k="ssr:stedsnr" v="22807" />
		<tag k="tourism" v="hotel" />
	</node>
	<node lat="61.7190111136908" lon="9.404525002897863" id="-18919">
		<tag k="name" v="Åkerlykkja" />
		<tag k="place" v="locality" />
		<tag k="ssr:stedsnr" v="49025" />
	</node>
	<node lat="61.69966666403356" lon="9.38954445201027" id="-18920">
		<tag k="historic" v="shieling" />
		<tag k="name" v="Nedre Rusten sætre" />
		<tag k="place" v="isolated_dwelling" />
		<tag k="ssr:stedsnr" v="49722" />
	</node>
	<node lat="61.79580833502513" lon="9.592358333831887" id="-18924">
		<tag k="historic" v="shieling" />
		<tag k="name" v="Gardsætre" />
		<tag k="place" v="isolated_dwelling" />
		<tag k="ssr:stedsnr" v="50119" />
	</node>
	<node lat="61.747411111292536" lon="9.600075000547413" id="-18925">
		<tag k="historic" v="shieling" />
		<tag k="name" v="Vangensætre" />
		<tag k="place" v="isolated_dwelling" />
		<tag k="ssr:stedsnr" v="50085" />
	</node>
	<node lat="61.806808335284366" lon="9.554227782361176" id="-18927">
		<tag k="name" v="Olalykkja" />
		<tag k="place" v="isolated_dwelling" />
		<tag k="ssr:stedsnr" v="50204" />
	</node>
	<node lat="61.70173888612876" lon="9.546969450633606" id="-18932">
		<tag k="name" v="Roheim" />
		<tag k="place" v="isolated_dwelling" />
		<tag k="ssr:stedsnr" v="50476" />
	</node>
	<node lat="61.89833611200854" lon="9.474441674164737" id="-18935">
		<tag k="historic" v="shieling" />
		<tag k="name" v="Bleikstulen" />
		<tag k="place" v="isolated_dwelling" />
		<tag k="ssr:stedsnr" v="50710" />
	</node>
	<node lat="61.707336110244356" lon="9.559580563279841" id="-18937">
		<tag k="name" v="Stanvikranden" />
		<tag k="place" v="farm" />
		<tag k="ssr:stedsnr" v="50909" />
	</node>
	<node lat="61.68809721814332" lon="9.488227777837338" id="-18938">
		<tag k="name" v="Øvre Kleiven" />
		<tag k="place" v="locality" />
		<tag k="ssr:stedsnr" v="50668" />
	</node>
	<node lat="61.75904722286883" lon="9.283211116901002" id="-18939">
		<tag k="name" v="Kjørrmyra" />
		<tag k="place" v="farm" />
		<tag k="ssr:stedsnr" v="50679" />
	</node>
	<node lat="61.70370555712709" lon="9.31538611659796" id="-18940">
		<tag k="historic" v="shieling" />
		<tag k="name" v="Ellingbøsætre" />
		<tag k="place" v="isolated_dwelling" />
		<tag k="ssr:stedsnr" v="50874" />
	</node>
	<node lat="61.69910833483792" lon="9.445652774564072" id="-18942">
		<tag k="alt_name" v="Øyi;Øvre Øien" />
		<tag k="name" v="Øien" />
		<tag k="place" v="farm" />
		<tag k="ssr:stedsnr" v="70704" />
	</node>
	<node lat="61.691200923519794" lon="9.155163117436407" id="-18945">
		<tag k="alt_name" v="Brurusten" />
		<tag k="fixme" v="consider place=hamlet" />
		<tag k="name" v="Brurusti" />
		<tag k="place" v="farm" />
		<tag k="ssr:stedsnr" v="70991" />
	</node>
	<node lat="61.68898151760009" lon="9.13520551683075" id="-18946">
		<tag k="fixme" v="consider place=hamlet" />
		<tag k="name" v="Hovda" />
		<tag k="place" v="farm" />
		<tag k="ssr:stedsnr" v="70992" />
	</node>
	<node lat="61.74613055950113" lon="9.219633333407723" id="-18949">
		<tag k="name" v="Ruste" />
		<tag k="place" v="farm" />
		<tag k="ssr:stedsnr" v="71709" />
	</node>
	<node lat="61.73198055288468" lon="9.3694166638433" id="-18951">
		<tag k="alt_name" v="Ekre;Ekre nordre" />
		<tag k="name" v="Nordre Ekre" />
		<tag k="place" v="farm" />
		<tag k="ssr:stedsnr" v="71678" />
	</node>
	<node lat="61.73772777448483" lon="9.379236112228803" id="-18952">
		<tag k="name" v="Holten" />
		<tag k="place" v="farm" />
		<tag k="ssr:stedsnr" v="71688" />
	</node>
	<node lat="61.740577777720965" lon="9.323441664978587" id="-18953">
		<tag k="alt_name" v="Bekkimellom, nedre;Bekkemellem nedre" />
		<tag k="name" v="Nedre Bekkimellom" />
		<tag k="place" v="farm" />
		<tag k="ssr:stedsnr" v="71691" />
	</node>
	<node lat="61.84371944312369" lon="9.461713891502857" id="-18954">
		<tag k="name" v="Fugleskjelle" />
		<tag k="place" v="farm" />
		<tag k="ssr:stedsnr" v="71831" />
	</node>
	<node lat="61.774079542058445" lon="9.509632610594286" id="-18955">
		<tag k="loc_name" v="Dahle" />
		<tag k="name" v="Dale" />
		<tag k="place" v="hamlet" />
		<tag k="ssr:stedsnr" v="71838" />
	</node>
	<node lat="61.76291388525524" lon="9.266605564385506" id="-18956">
		<tag k="name" v="Sagflaten" />
		<tag k="place" v="farm" />
		<tag k="ssr:stedsnr" v="71842" />
	</node>
	<node lat="61.82127500088782" lon="9.703830548341204" id="-18957">
		<tag k="alt_name" v="Grosæter" />
		<tag k="name" v="Jonsbu" />
		<tag k="place" v="farm" />
		<tag k="ssr:stedsnr" v="242957" />
	</node>
	<node lat="61.802552774971055" lon="9.6229111018974" id="-18959">
		<tag k="historic" v="shieling" />
		<tag k="name" v="Kirstidalssætre" />
		<tag k="place" v="isolated_dwelling" />
		<tag k="ssr:stedsnr" v="72527" />
	</node>
	<node lat="61.8617888930429" lon="9.63986389817713" id="-18960">
		<tag k="name" v="Rjuphuset" />
		<tag k="place" v="isolated_dwelling" />
		<tag k="ssr:stedsnr" v="72728" />
	</node>
	<node lat="61.69623333082488" lon="9.529116667664177" id="-18961">
		<tag k="alt_name" v="Slåi" />
		<tag k="name" v="Øvre Slåen" />
		<tag k="place" v="farm" />
		<tag k="ssr:stedsnr" v="105985" />
	</node>
	<node lat="61.79001111305408" lon="9.516680549025283" id="-18965">
		<tag k="historic" v="shieling" />
		<tag k="name" v="Nordre Kleivrudsætre" />
		<tag k="place" v="isolated_dwelling" />
		<tag k="ssr:stedsnr" v="110026" />
	</node>
	<node lat="61.68788333672524" lon="9.249694445874795" id="-18967">
		<tag k="historic" v="shieling" />
		<tag k="name" v="Kruksætre" />
		<tag k="place" v="isolated_dwelling" />
		<tag k="ssr:stedsnr" v="110110" />
	</node>
	<node lat="61.69906666878279" lon="9.389561106539356" id="-18971">
		<tag k="historic" v="shieling" />
		<tag k="name" v="Pladsensætre" />
		<tag k="place" v="isolated_dwelling" />
		<tag k="ssr:stedsnr" v="110715" />
	</node>
	<node lat="61.73074444662371" lon="9.551375008712267" id="-18974">
		<tag k="name" v="Åstelykkja" />
		<tag k="place" v="farm" />
		<tag k="ssr:stedsnr" v="110924" />
	</node>
	<node lat="61.70526666998906" lon="9.322219446284063" id="-18975">
		<tag k="historic" v="shieling" />
		<tag k="name" v="Plassætre" />
		<tag k="place" v="isolated_dwelling" />
		<tag k="ssr:stedsnr" v="110974" />
	</node>
	<node lat="61.79524166851814" lon="9.599736104698023" id="-18978">
		<tag k="historic" v="shieling" />
		<tag k="name" v="Ulmosætre" />
		<tag k="place" v="isolated_dwelling" />
		<tag k="ssr:stedsnr" v="111183" />
	</node>
	<node lat="61.83558333749011" lon="9.429944451004435" id="-18985">
		<tag k="name" v="Juvshol" />
		<tag k="place" v="isolated_dwelling" />
		<tag k="ssr:stedsnr" v="111574" />
	</node>
	<node lat="61.739788889887954" lon="9.541797216914556" id="-18986">
		<tag k="name" v="Bondestad" />
		<tag k="place" v="farm" />
		<tag k="ssr:stedsnr" v="111577" />
	</node>
	<node lat="61.84340510183505" lon="9.366254698609298" id="-18987">
		<tag k="fixme" v="consider place=hamlet" />
		<tag k="name" v="Abelstad" />
		<tag k="place" v="farm" />
		<tag k="ssr:stedsnr" v="111580" />
	</node>
	<node lat="61.84589999678885" lon="9.413886109616824" id="-18988">
		<tag k="name" v="Solheim" />
		<tag k="place" v="isolated_dwelling" />
		<tag k="ssr:stedsnr" v="111587" />
	</node>
	<node lat="61.83691110674299" lon="9.397716666716814" id="-18989">
		<tag k="name" v="Åbakken" />
		<tag k="place" v="isolated_dwelling" />
		<tag k="ssr:stedsnr" v="111592" />
	</node>
	<node lat="61.8398293603704" lon="9.40518687599705" id="-18990">
		<tag k="fixme" v="consider place=hamlet" />
		<tag k="name" v="Haugen" />
		<tag k="place" v="farm" />
		<tag k="ssr:stedsnr" v="111593" />
	</node>
	<node lat="61.680216664309384" lon="9.538950003637035" id="-18994">
		<tag k="name" v="Søre Kolloen" />
		<tag k="place" v="farm" />
		<tag k="ssr:stedsnr" v="111691" />
	</node>
	<node lat="61.852580556636575" lon="9.413122221178934" id="-18995">
		<tag k="name" v="Nordre Moen" />
		<tag k="place" v="isolated_dwelling" />
		<tag k="ssr:stedsnr" v="111873" />
	</node>
	<node lat="61.84128611043599" lon="9.38247223031069" id="-18997">
		<tag k="fixme" v="multiple name tags, choose one and add the other to alt_name" />
		<tag k="name" v="Søre Grote;Grote" />
		<tag k="place" v="farm" />
		<tag k="ssr:stedsnr" v="251825" />
	</node>
	<node lat="61.74520833383348" lon="9.568261113136218" id="-18998">
		<tag k="name" v="Bakken" />
		<tag k="place" v="farm" />
		<tag k="ssr:stedsnr" v="252596" />
	</node>
	<node lat="61.70493333554443" lon="9.45882222767201" id="-18999">
		<tag k="name" v="Plassen" />
		<tag k="place" v="farm" />
		<tag k="ssr:stedsnr" v="252679" />
	</node>
	<node lat="61.654327779029906" lon="9.22506943999449" id="-19001">
		<tag k="name" v="Vålbu" />
		<tag k="place" v="farm" />
		<tag k="ssr:stedsnr" v="131494" />
	</node>
	<node lat="61.69393055868385" lon="9.530736103318297" id="-19004">
		<tag k="alt_name" v="Slåi" />
		<tag k="name" v="Nedre Slåen" />
		<tag k="place" v="farm" />
		<tag k="ssr:stedsnr" v="252658" />
	</node>
	<node lat="61.785344443220154" lon="9.536772222657904" id="-19008">
		<tag k="name" v="Nordlie" />
		<tag k="place" v="farm" />
		<tag k="ssr:stedsnr" v="131876" />
	</node>
	<node lat="61.79355832943583" lon="9.486913887235147" id="-19009">
		<tag k="historic" v="shieling" />
		<tag k="name" v="Slåsætrin" />
		<tag k="place" v="isolated_dwelling" />
		<tag k="ssr:stedsnr" v="131891" />
	</node>
	<node lat="61.802252780604" lon="9.564452784402743" id="-19012">
		<tag k="name" v="Leirholo" />
		<tag k="place" v="farm" />
		<tag k="ssr:stedsnr" v="131908" />
	</node>
	<node lat="61.74465555169405" lon="9.247533338620856" id="-19013">
		<tag k="alt_name" v="Lien" />
		<tag k="name" v="Lii" />
		<tag k="place" v="farm" />
		<tag k="ssr:stedsnr" v="131916" />
	</node>
	<node lat="61.673244448638684" lon="9.532477781616521" id="-19016">
		<tag k="alt_name" v="Brunnhaugen" />
		<tag k="name" v="Brunhaugen" />
		<tag k="place" v="isolated_dwelling" />
		<tag k="ssr:stedsnr" v="252716" />
	</node>
	<node lat="61.68848611308743" lon="9.474227769928934" id="-19018">
		<tag k="name" v="Putten" />
		<tag k="place" v="farm" />
		<tag k="ssr:stedsnr" v="252719" />
	</node>
	<node lat="61.78725833000052" lon="9.409174998864206" id="-19023">
		<tag k="name" v="Båtstad" />
		<tag k="place" v="farm" />
		<tag k="ssr:stedsnr" v="252809" />
	</node>
	<node lat="61.86934999629612" lon="9.402358326237254" id="-19028">
		<tag k="name" v="Ringen" />
		<tag k="place" v="locality" />
		<tag k="ssr:stedsnr" v="132963" />
	</node>
	<node lat="61.75328546211816" lon="9.568842469627736" id="-19034">
		<tag k="fixme" v="multiple name tags, choose one and add the other to alt_name" />
		<tag k="name" v="Nordre Brenna;Brenna" />
		<tag k="place" v="isolated_dwelling" />
		<tag k="ssr:stedsnr" v="253688" />
	</node>
	<node lat="61.72256388671096" lon="9.373149999029108" id="-19036">
		<tag k="name" v="Norderhaugen" />
		<tag k="place" v="farm" />
		<tag k="ssr:stedsnr" v="253690" />
	</node>
	<node lat="61.7282305591659" lon="9.535844435455388" id="-19037">
		<tag k="alt_name" v="Mælum" />
		<tag k="fixme" v="consider place=hamlet" />
		<tag k="name" v="Melem" />
		<tag k="place" v="farm" />
		<tag k="ssr:stedsnr" v="253694" />
	</node>
	<node lat="61.78683332919472" lon="9.472136109193764" id="-19040">
		<tag k="alt_name" v="Slåi, nordre" />
		<tag k="name" v="Nordre Slåen" />
		<tag k="place" v="farm" />
		<tag k="ssr:stedsnr" v="253855" />
	</node>
	<node lat="61.78765277790186" lon="9.463708331144215" id="-19041">
		<tag k="name" v="Brulykkja" />
		<tag k="place" v="farm" />
		<tag k="ssr:stedsnr" v="253859" />
	</node>
	<node lat="61.846483330601174" lon="9.328161112447367" id="-19042">
		<tag k="name" v="Bakken" />
		<tag k="place" v="farm" />
		<tag k="ssr:stedsnr" v="253950" />
	</node>
	<node lat="61.74664167069818" lon="9.147991675581183" id="-19043">
		<tag k="name" v="Nyborghaugen" />
		<tag k="place" v="isolated_dwelling" />
		<tag k="ssr:stedsnr" v="253953" />
	</node>
	<node lat="61.874919440047876" lon="9.400544436234627" id="-19044">
		<tag k="name" v="Haugen" />
		<tag k="place" v="farm" />
		<tag k="ssr:stedsnr" v="253965" />
	</node>
	<node lat="61.89092500110604" lon="9.470963891018702" id="-19046">
		<tag k="fixme" v="consider tourism=alpine_hut or tourism=chalet" />
		<tag k="name" v="Dissen" />
		<tag k="ssr:stedsnr" v="143787" />
		<tag k="tourism" v="wilderness_hut" />
	</node>
	<node lat="61.88982777587641" lon="9.472200005875257" id="-19047">
		<tag k="alt_name" v="Den Norske Fjellskole" />
		<tag k="fixme" v="consider tourism=alpine_hut or tourism=chalet" />
		<tag k="name" v="Den Norske Fjellskolen Rondeheim" />
		<tag k="ssr:stedsnr" v="143789" />
		<tag k="tourism" v="wilderness_hut" />
	</node>
	<node lat="61.891127782172234" lon="9.476830550622777" id="-19048">
		<tag k="name" v="Høvringen Høyfjellshotell" />
		<tag k="ssr:stedsnr" v="143791" />
		<tag k="tourism" v="hotel" />
	</node>
	<node lat="61.88736502064234" lon="9.575075359581" id="-19050">
		<tag k="historic" v="shieling" />
		<tag k="name" v="Smukksjøsæter" />
		<tag k="place" v="isolated_dwelling" />
		<tag k="ssr:stedsnr" v="147641" />
	</node>
	<node lat="61.77061944283644" lon="9.514302777249497" id="-19052">
		<tag k="name" v="Hølmo" />
		<tag k="place" v="isolated_dwelling" />
		<tag k="ssr:stedsnr" v="170275" />
	</node>
	<node lat="61.75805278124374" lon="9.634436104757677" id="-19053">
		<tag k="historic" v="shieling" />
		<tag k="name" v="Einangsætrene" />
		<tag k="place" v="isolated_dwelling" />
		<tag k="ssr:stedsnr" v="170159" />
	</node>
	<node lat="61.775533335407616" lon="9.504511112715026" id="-19054">
		<tag k="name" v="Nysæterjordet" />
		<tag k="place" v="quarter" />
		<tag k="ssr:stedsnr" v="170303" />
	</node>
	<node lat="61.77741388634249" lon="9.486213883034504" id="-19055">
		<tag k="name" v="Storrusten" />
		<tag k="place" v="quarter" />
		<tag k="ssr:stedsnr" v="170304" />
	</node>
	<node lat="61.83045278209345" lon="9.397066670196663" id="-19056">
		<tag k="name" v="Åsbrekka" />
		<tag k="place" v="farm" />
		<tag k="ssr:stedsnr" v="170507" />
	</node>
	<node lat="61.787150002821456" lon="9.553724999196593" id="-19059">
		<tag k="name" v="Sveistad" />
		<tag k="place" v="isolated_dwelling" />
		<tag k="ssr:stedsnr" v="171066" />
	</node>
	<node lat="61.82014999671861" lon="9.543080557670843" id="-19060">
		<tag k="name" v="Krististugu" />
		<tag k="place" v="isolated_dwelling" />
		<tag k="ssr:stedsnr" v="171067" />
	</node>
	<node lat="61.70698888812742" lon="9.322422229759832" id="-19061">
		<tag k="historic" v="shieling" />
		<tag k="name" v="Nordigardsætre" />
		<tag k="place" v="isolated_dwelling" />
		<tag k="ssr:stedsnr" v="170971" />
	</node>
	<node lat="61.69610555117152" lon="9.45114999236879" id="-19064">
		<tag k="name" v="Stubbrud" />
		<tag k="place" v="locality" />
		<tag k="ssr:stedsnr" v="171158" />
	</node>
	<node lat="61.76950749892237" lon="9.548346690656965" id="-19068">
		<tag k="fixme" v="consider place=hamlet" />
		<tag k="name" v="Blekastad" />
		<tag k="place" v="farm" />
		<tag k="ssr:stedsnr" v="171459" />
	</node>
	<node lat="61.835419441169805" lon="9.403816664131357" id="-19072">
		<tag k="name" v="Grindstuen" />
		<tag k="place" v="farm" />
		<tag k="ssr:stedsnr" v="171607" />
	</node>
	<node lat="61.759311114230194" lon="9.465163889974185" id="-19074">
		<tag k="historic" v="shieling" />
		<tag k="name" v="Nordre Sandensætre" />
		<tag k="place" v="isolated_dwelling" />
		<tag k="ssr:stedsnr" v="171660" />
	</node>
	<node lat="61.89979722296337" lon="9.454099993024826" id="-19078">
		<tag k="historic" v="shieling" />
		<tag k="name" v="Eilevstadsætre" />
		<tag k="place" v="isolated_dwelling" />
		<tag k="ssr:stedsnr" v="171775" />
	</node>
	<node lat="61.891986115140234" lon="9.47849722160208" id="-19081">
		<tag k="name" v="Høvringen Fjellstue" />
		<tag k="ssr:stedsnr" v="204791" />
		<tag k="tourism" v="hotel" />
	</node>
	<node lat="61.71693333321099" lon="9.452774995107063" id="-19082">
		<tag k="historic" v="shieling" />
		<tag k="name" v="Søre Espe" />
		<tag k="place" v="isolated_dwelling" />
		<tag k="ssr:stedsnr" v="231082" />
	</node>
	<node lat="61.69113055671232" lon="9.259894443501274" id="-19086">
		<tag k="historic" v="shieling" />
		<tag k="name" v="Brubakksætre" />
		<tag k="place" v="isolated_dwelling" />
		<tag k="ssr:stedsnr" v="231140" />
	</node>
	<node lat="61.76653055258683" lon="9.603944446145313" id="-19087">
		<tag k="historic" v="shieling" />
		<tag k="name" v="Mostugusætre" />
		<tag k="place" v="isolated_dwelling" />
		<tag k="ssr:stedsnr" v="231193" />
	</node>
	<node lat="61.82710000295801" lon="9.631974991648146" id="-19090">
		<tag k="historic" v="shieling" />
		<tag k="name" v="Gardsætre" />
		<tag k="place" v="isolated_dwelling" />
		<tag k="ssr:stedsnr" v="231402" />
	</node>
	<node lat="61.703997225704086" lon="9.315980555448883" id="-19095">
		<tag k="historic" v="shieling" />
		<tag k="name" v="Leirumsætre" />
		<tag k="place" v="isolated_dwelling" />
		<tag k="ssr:stedsnr" v="231904" />
	</node>
	<node lat="61.76225277693077" lon="9.611922222303988" id="-19098">
		<tag k="historic" v="shieling" />
		<tag k="name" v="Øvre Tullutsætre" />
		<tag k="old_name" v="Øvre Tukkut sætre" />
		<tag k="place" v="isolated_dwelling" />
		<tag k="ssr:stedsnr" v="232109" />
	</node>
	<node lat="61.778305559318916" lon="9.672130546233142" id="-19102">
		<tag k="historic" v="shieling" />
		<tag k="name" v="Mælumsætre" />
		<tag k="place" v="isolated_dwelling" />
		<tag k="ssr:stedsnr" v="232187" />
	</node>
	<node lat="61.8991361110197" lon="9.455847225920605" id="-19105">
		<tag k="historic" v="shieling" />
		<tag k="name" v="Eglumsætre" />
		<tag k="place" v="isolated_dwelling" />
		<tag k="ssr:stedsnr" v="232719" />
	</node>
	<node lat="61.88661388721202" lon="9.458527785026101" id="-19107">
		<tag k="historic" v="shieling" />
		<tag k="name" v="Reiten sætre" />
		<tag k="place" v="isolated_dwelling" />
		<tag k="ssr:stedsnr" v="232737" />
	</node>
	<node lat="61.6975666643794" lon="9.545811113213677" id="-19108">
		<tag k="alt_name" v="Storrusten" />
		<tag k="name" v="Storrusti" />
		<tag k="place" v="farm" />
		<tag k="ssr:stedsnr" v="495701" />
	</node>
	<node lat="61.73429999854199" lon="9.34764166552566" id="-19111">
		<tag k="alt_name" v="Granerud" />
		<tag k="name" v="Granrud" />
		<tag k="place" v="farm" />
		<tag k="ssr:stedsnr" v="253651" />
	</node>
	<node lat="61.70883888720339" lon="9.539183339213583" id="-19113">
		<tag k="name" v="Nyheim" />
		<tag k="place" v="farm" />
		<tag k="ssr:stedsnr" v="253678" />
	</node>
	<node lat="61.714449996666225" lon="9.410861104584543" id="-19114">
		<tag k="fixme" v="multiple name tags, choose one and add the other to alt_name" />
		<tag k="name" v="Turrmo;Faukstadmo" />
		<tag k="place" v="farm" />
		<tag k="ssr:stedsnr" v="253683" />
	</node>
	<node lat="61.75997489587719" lon="9.534477258411723" id="-19115">
		<tag k="fixme" v="consider place=hamlet" />
		<tag k="name" v="Bergum" />
		<tag k="place" v="farm" />
		<tag k="ssr:stedsnr" v="253684" />
	</node>
	<node lat="61.762430774151454" lon="9.328654391846468" id="-19116">
		<tag k="name" v="Veslsætre" />
		<tag k="place" v="locality" />
		<tag k="ssr:stedsnr" v="253686" />
	</node>
	<node lat="61.7046500028712" lon="9.418463884884492" id="-19118">
		<tag k="alt_name" v="Pladsen" />
		<tag k="name" v="Plassen" />
		<tag k="place" v="farm" />
		<tag k="ssr:stedsnr" v="253713" />
	</node>
	<node lat="61.70015277880513" lon="9.442838897214658" id="-19119">
		<tag k="name" v="Sanden" />
		<tag k="place" v="farm" />
		<tag k="ssr:stedsnr" v="253714" />
	</node>
	<node lat="61.77010378602611" lon="9.44905318474262" id="-19128">
		<tag k="fixme" v="multiple name tags, choose one and add the other to alt_name" />
		<tag k="historic" v="shieling" />
		<tag k="name" v="Myromsætre;Nedre Myromsætre;Søre Myromsætre" />
		<tag k="place" v="isolated_dwelling" />
		<tag k="ssr:stedsnr" v="253833" />
	</node>
	<node lat="61.75156110860387" lon="9.236766673729422" id="-19130">
		<tag k="fixme" v="consider place=hamlet" />
		<tag k="name" v="Skogbygda" />
		<tag k="place" v="village" />
		<tag k="ssr:stedsnr" v="253980" />
	</node>
	<node lat="61.80776666369464" lon="9.681652777769" id="-19140">
		<tag k="historic" v="shieling" />
		<tag k="name" v="Leirholosætre" />
		<tag k="place" v="isolated_dwelling" />
		<tag k="ssr:stedsnr" v="292126" />
	</node>
	<node lat="61.68840277726882" lon="9.416330546949515" id="-19142">
		<tag k="historic" v="shieling" />
		<tag k="name" v="Øiensætre" />
		<tag k="place" v="isolated_dwelling" />
		<tag k="ssr:stedsnr" v="292195" />
	</node>
	<node lat="61.79879444131594" lon="9.547038891448565" id="-19143">
		<tag k="building" v="industrial" />
		<tag k="name" v="Otta vannverk" />
		<tag k="ssr:stedsnr" v="292196" />
	</node>
	<node lat="61.75217777729722" lon="9.234394453523661" id="-19147">
		<tag k="name" v="Høystad" />
		<tag k="place" v="farm" />
		<tag k="ssr:stedsnr" v="292608" />
	</node>
	<node lat="61.75828333459296" lon="9.509805546711855" id="-19148">
		<tag k="historic" v="shieling" />
		<tag k="name" v="Hjellumsætre" />
		<tag k="place" v="isolated_dwelling" />
		<tag k="ssr:stedsnr" v="292377" />
	</node>
	<node lat="61.74922777922846" lon="9.288869445825782" id="-19154">
		<tag k="name" v="Søre Brobakken" />
		<tag k="place" v="farm" />
		<tag k="ssr:stedsnr" v="292600" />
	</node>
	<node lat="61.80885555890004" lon="9.461702770432902" id="-19155">
		<tag k="historic" v="shieling" />
		<tag k="name" v="Høgsætrene" />
		<tag k="place" v="isolated_dwelling" />
		<tag k="ssr:stedsnr" v="292729" />
	</node>
	<node lat="61.88384444589036" lon="9.403805554052914" id="-19157">
		<tag k="name" v="Sørjordet" />
		<tag k="place" v="locality" />
		<tag k="ssr:stedsnr" v="292984" />
	</node>
	<node lat="61.753250001185485" lon="9.571538895335896" id="-19158">
		<tag k="historic" v="shieling" />
		<tag k="name" v="Veslehaugen" />
		<tag k="place" v="isolated_dwelling" />
		<tag k="ssr:stedsnr" v="293124" />
	</node>
	<node lat="61.786888892923805" lon="9.515294453516978" id="-19163">
		<tag k="historic" v="shieling" />
		<tag k="name" v="Mostugukvea" />
		<tag k="place" v="isolated_dwelling" />
		<tag k="ssr:stedsnr" v="293310" />
	</node>
	<node lat="61.67903888528338" lon="9.530047219498005" id="-19167">
		<tag k="name" v="New York" />
		<tag k="place" v="locality" />
		<tag k="ssr:stedsnr" v="293673" />
	</node>
	<node lat="61.871216670860434" lon="9.371722230975424" id="-19169">
		<tag k="historic" v="shieling" />
		<tag k="name" v="Grotløkken sætre" />
		<tag k="place" v="isolated_dwelling" />
		<tag k="ssr:stedsnr" v="293911" />
	</node>
	<node lat="61.65022500239872" lon="9.23102500142601" id="-19170">
		<tag k="name" v="Vålen" />
		<tag k="place" v="isolated_dwelling" />
		<tag k="ssr:stedsnr" v="313511" />
	</node>
	<node lat="61.7133555598013" lon="9.447333338403595" id="-19171">
		<tag k="alt_name" v="Vesle-Espe søre" />
		<tag k="name" v="Vesleespe" />
		<tag k="place" v="farm" />
		<tag k="ssr:stedsnr" v="313664" />
	</node>
	<node lat="61.75633908786774" lon="9.315574122151167" id="-19174">
		<tag k="fixme" v="consider place=hamlet" />
		<tag k="name" v="Harildstad" />
		<tag k="place" v="farm" />
		<tag k="ssr:stedsnr" v="313673" />
	</node>
	<node lat="61.72562396676836" lon="9.543251397705461" id="-19175">
		<tag k="alt_name" v="Mælumshaugen" />
		<tag k="name" v="Melemshaugen" />
		<tag k="place" v="farm" />
		<tag k="ssr:stedsnr" v="313677" />
	</node>
	<node lat="61.751133347347505" lon="9.327743648718048" id="-19176">
		<tag k="fixme" v="consider place=hamlet" />
		<tag k="name" v="Kruke" />
		<tag k="place" v="farm" />
		<tag k="ssr:stedsnr" v="313678" />
	</node>
	<node lat="61.655363885484185" lon="9.214952775742502" id="-19178">
		<tag k="name" v="Dokknes" />
		<tag k="place" v="farm" />
		<tag k="ssr:stedsnr" v="313807" />
	</node>
	<node lat="61.698713889983054" lon="9.540469443233745" id="-19179">
		<tag k="name" v="Rustbakken" />
		<tag k="place" v="farm" />
		<tag k="ssr:stedsnr" v="313705" />
	</node>
	<node lat="61.679366667051426" lon="9.193052782496334" id="-19180">
		<tag k="name" v="Nordli" />
		<tag k="place" v="farm" />
		<tag k="ssr:stedsnr" v="313766" />
	</node>
	<node lat="61.7021194463897" lon="9.437394447211043" id="-19182">
		<tag k="alt_name" v="Lien" />
		<tag k="name" v="Lii" />
		<tag k="place" v="farm" />
		<tag k="ssr:stedsnr" v="314704" />
	</node>
	<node lat="61.84771074333078" lon="9.421641601508185" id="-19184">
		<tag k="fixme" v="consider place=hamlet" />
		<tag k="name" v="Romundgard" />
		<tag k="place" v="farm" />
		<tag k="ssr:stedsnr" v="314810" />
	</node>
	<node lat="61.745119446698396" lon="9.322499993148565" id="-19189">
		<tag k="name" v="Heringstadøygarden" />
		<tag k="place" v="locality" />
		<tag k="ssr:stedsnr" v="473814" />
	</node>
	<node lat="61.7142916673724" lon="9.391113883342776" id="-19193">
		<tag k="name" v="Knutstugu" />
		<tag k="place" v="locality" />
		<tag k="ssr:stedsnr" v="474027" />
	</node>
	<node lat="61.72266111319508" lon="9.412419440000034" id="-19196">
		<tag k="name" v="Roteigen" />
		<tag k="place" v="locality" />
		<tag k="ssr:stedsnr" v="474032" />
	</node>
	<node lat="61.71921666387166" lon="9.413194436946506" id="-19197">
		<tag k="name" v="Rohaugen" />
		<tag k="place" v="farm" />
		<tag k="ssr:stedsnr" v="474036" />
	</node>
	<node lat="61.56079999615553" lon="9.212133328684516" id="-19198">
		<tag k="historic" v="shieling" />
		<tag k="name" v="Harlaugseter" />
		<tag k="place" v="isolated_dwelling" />
		<tag k="ssr:stedsnr" v="474057" />
	</node>
	<node lat="61.717661108499534" lon="9.45153333254214" id="-19199">
		<tag k="historic" v="shieling" />
		<tag k="name" v="Nordre Espe" />
		<tag k="place" v="isolated_dwelling" />
		<tag k="ssr:stedsnr" v="474062" />
	</node>
	<node lat="61.762105555020675" lon="9.6069277843127" id="-19203">
		<tag k="historic" v="shieling" />
		<tag k="name" v="Haresteinsætre" />
		<tag k="place" v="isolated_dwelling" />
		<tag k="ssr:stedsnr" v="474092" />
	</node>
	<node lat="61.82616388751692" lon="9.520361101944994" id="-19209">
		<tag k="name" v="Lånrabb" />
		<tag k="place" v="farm" />
		<tag k="ssr:stedsnr" v="352053" />
	</node>
	<node lat="61.699730551268196" lon="9.393213890979014" id="-19210">
		<tag k="historic" v="shieling" />
		<tag k="name" v="Øvre Storødegard sætre" />
		<tag k="place" v="isolated_dwelling" />
		<tag k="ssr:stedsnr" v="474237" />
	</node>
	<node lat="61.78832222323745" lon="9.514724998086765" id="-19213">
		<tag k="historic" v="shieling" />
		<tag k="name" v="Jakoblisætre" />
		<tag k="place" v="isolated_dwelling" />
		<tag k="ssr:stedsnr" v="352205" />
	</node>
	<node lat="61.73308610908864" lon="9.173155549430717" id="-19215">
		<tag k="name" v="Øvre Leirflaten" />
		<tag k="place" v="farm" />
		<tag k="ssr:stedsnr" v="352160" />
	</node>
	<node lat="61.77021110945933" lon="9.496700009051295" id="-19217">
		<tag k="name" v="Nygarden" />
		<tag k="place" v="farm" />
		<tag k="ssr:stedsnr" v="474251" />
	</node>
	<node lat="61.808430559356246" lon="9.67318888494437" id="-19218">
		<tag k="alt_name" v="Rondane Spa Høyfjellshotell" />
		<tag k="name" v="Rondane Høyfjellshotell" />
		<tag k="ssr:stedsnr" v="474364" />
		<tag k="tourism" v="hotel" />
	</node>
	<node lat="61.73329167003211" lon="9.621666658172524" id="-19219">
		<tag k="historic" v="shieling" />
		<tag k="name" v="Nordre Eide sætre" />
		<tag k="place" v="isolated_dwelling" />
		<tag k="ssr:stedsnr" v="353018" />
	</node>
	<node lat="61.79133610936079" lon="9.615972227025482" id="-19221">
		<tag k="historic" v="shieling" />
		<tag k="name" v="Rustsætre" />
		<tag k="place" v="isolated_dwelling" />
		<tag k="ssr:stedsnr" v="353204" />
	</node>
	<node lat="61.853261113788925" lon="9.486541658537616" id="-19223">
		<tag k="historic" v="shieling" />
		<tag k="name" v="Nesset sætre" />
		<tag k="place" v="isolated_dwelling" />
		<tag k="ssr:stedsnr" v="353116" />
	</node>
	<node lat="61.75728333481548" lon="9.564474996568178" id="-19224">
		<tag k="name" v="Øvre Næprud" />
		<tag k="place" v="locality" />
		<tag k="ssr:stedsnr" v="353124" />
	</node>
	<node lat="61.80726944877952" lon="9.677572225027271" id="-19225">
		<tag k="historic" v="shieling" />
		<tag k="name" v="Ottekrasætre" />
		<tag k="place" v="isolated_dwelling" />
		<tag k="ssr:stedsnr" v="353162" />
	</node>
	<node lat="61.70930555864282" lon="9.430447224651077" id="-19226">
		<tag k="amenity" v="school" />
		<tag k="name" v="Nedre Heidal skole" />
		<tag k="ssr:stedsnr" v="353178" />
	</node>
	<node lat="61.78590000368005" lon="9.52245832430268" id="-19228">
		<tag k="historic" v="shieling" />
		<tag k="name" v="Lien Framsætre" />
		<tag k="place" v="isolated_dwelling" />
		<tag k="ssr:stedsnr" v="353507" />
	</node>
	<node lat="61.76464444726479" lon="9.525805559607768" id="-19230">
		<tag k="name" v="Hestlykkja" />
		<tag k="place" v="isolated_dwelling" />
		<tag k="ssr:stedsnr" v="353414" />
	</node>
	<node lat="61.871430558835314" lon="9.359527784381259" id="-19232">
		<tag k="historic" v="shieling" />
		<tag k="name" v="Grønnsætre" />
		<tag k="place" v="isolated_dwelling" />
		<tag k="ssr:stedsnr" v="353909" />
	</node>
	<node lat="61.87101944800525" lon="9.36557777906855" id="-19233">
		<tag k="historic" v="shieling" />
		<tag k="name" v="Grote sætre" />
		<tag k="place" v="isolated_dwelling" />
		<tag k="ssr:stedsnr" v="353911" />
	</node>
	<node lat="61.74070833450321" lon="9.560119451672426" id="-19234">
		<tag k="name" v="Søre Vangen" />
		<tag k="place" v="farm" />
		<tag k="ssr:stedsnr" v="353912" />
	</node>
	<node lat="61.75227499750253" lon="9.367983334262508" id="-19236">
		<tag k="historic" v="shieling" />
		<tag k="name" v="Lykkjesætre" />
		<tag k="place" v="isolated_dwelling" />
		<tag k="ssr:stedsnr" v="353666" />
	</node>
	<node lat="61.706136109465284" lon="9.47438889057316" id="-19238">
		<tag k="historic" v="shieling" />
		<tag k="name" v="Svingensætrene" />
		<tag k="place" v="isolated_dwelling" />
		<tag k="ssr:stedsnr" v="474540" />
	</node>
	<node lat="61.84256666732831" lon="9.409597229739218" id="-19240">
		<tag k="name" v="Hampelykkja" />
		<tag k="place" v="isolated_dwelling" />
		<tag k="ssr:stedsnr" v="474625" />
	</node>
	<node lat="61.84081666758436" lon="9.412047225256313" id="-19241">
		<tag k="name" v="Ødegarden" />
		<tag k="place" v="farm" />
		<tag k="ssr:stedsnr" v="474626" />
	</node>
	<node lat="61.76005555525981" lon="9.467330549477088" id="-19242">
		<tag k="historic" v="shieling" />
		<tag k="name" v="Nygardssætre" />
		<tag k="place" v="isolated_dwelling" />
		<tag k="ssr:stedsnr" v="474643" />
	</node>
	<node lat="61.72030277586222" lon="9.593666668790638" id="-19248">
		<tag k="historic" v="shieling" />
		<tag k="name" v="Nedre Haugen sætre" />
		<tag k="place" v="isolated_dwelling" />
		<tag k="ssr:stedsnr" v="474931" />
	</node>
	<node lat="61.709455552604645" lon="9.428241675428257" id="-19250">
		<tag k="name" v="Nedre Faukstad" />
		<tag k="place" v="farm" />
		<tag k="ssr:stedsnr" v="475146" />
	</node>
	<node lat="61.69981110954087" lon="9.460519450030963" id="-19253">
		<tag k="name" v="Øvre Bilben" />
		<tag k="place" v="farm" />
		<tag k="ssr:stedsnr" v="475189" />
	</node>
	<node lat="61.69492222549985" lon="9.463697222102827" id="-19254">
		<tag k="name" v="Søre Johnsgard" />
		<tag k="place" v="farm" />
		<tag k="ssr:stedsnr" v="475194" />
	</node>
	<node lat="61.76832499692489" lon="9.528194435822133" id="-19255">
		<tag k="name" v="Hjellum" />
		<tag k="place" v="quarter" />
		<tag k="ssr:stedsnr" v="475484" />
	</node>
	<node lat="61.76536605138106" lon="9.540506842926673" id="-19256">
		<tag k="fixme" v="consider place=hamlet" />
		<tag k="name" v="Kongsparten" />
		<tag k="place" v="farm" />
		<tag k="ssr:stedsnr" v="475446" />
	</node>
	<node lat="61.6747777765478" lon="9.55426943899179" id="-19260">
		<tag k="name" v="Nymoen" />
		<tag k="place" v="isolated_dwelling" />
		<tag k="ssr:stedsnr" v="475861" />
	</node>
	<node lat="61.85596110984005" lon="9.417091659760533" id="-19261">
		<tag k="name" v="Dammen" />
		<tag k="place" v="isolated_dwelling" />
		<tag k="ssr:stedsnr" v="475945" />
	</node>
	<node lat="61.859413885147006" lon="9.405502769200988" id="-19262">
		<tag k="name" v="Sandbakken" />
		<tag k="ssr:stedsnr" v="475946" />
		<tag k="tourism" v="camp_site" />
	</node>
	<node lat="61.694405557468876" lon="9.460199993631498" id="-19263">
		<tag k="alt_name" v="Johnsgard nordre" />
		<tag k="name" v="Jonsgard" />
		<tag k="place" v="farm" />
		<tag k="ssr:stedsnr" v="373705" />
	</node>
	<node lat="61.632913890583644" lon="9.248269435674441" id="-19266">
		<tag k="name" v="Stulen" />
		<tag k="place" v="farm" />
		<tag k="ssr:stedsnr" v="374493" />
	</node>
	<node lat="61.665686110276916" lon="9.488966664033399" id="-19271">
		<tag k="alt_name" v="Kulisætrene" />
		<tag k="historic" v="shieling" />
		<tag k="name" v="Kulii" />
		<tag k="place" v="isolated_dwelling" />
		<tag k="ssr:stedsnr" v="374720" />
	</node>
	<node lat="61.873148662311095" lon="9.677430096179018" id="-19274">
		<tag k="name" v="Ljosåbue" />
		<tag k="place" v="locality" />
		<tag k="ssr:stedsnr" v="374744" />
	</node>
	<node lat="61.74027499705149" lon="9.332600008542297" id="-19276">
		<tag k="alt_name" v="Amundstad nedre" />
		<tag k="name" v="Amundstad" />
		<tag k="place" v="farm" />
		<tag k="ssr:stedsnr" v="374636" />
	</node>
	<node lat="61.74051388847655" lon="9.224538892351914" id="-19278">
		<tag k="alt_name" v="Skridu, nordre;Nordre Skreden" />
		<tag k="name" v="Nordre Skridu" />
		<tag k="place" v="farm" />
		<tag k="ssr:stedsnr" v="374647" />
	</node>
	<node lat="61.83992777497242" lon="9.43554167523005" id="-19280">
		<tag k="name" v="Eilevstad" />
		<tag k="place" v="farm" />
		<tag k="ssr:stedsnr" v="374808" />
	</node>
	<node lat="61.772516667973946" lon="9.496616673706352" id="-19284">
		<tag k="name" v="Viken" />
		<tag k="place" v="farm" />
		<tag k="ssr:stedsnr" v="374844" />
	</node>
	<node lat="61.77740000332332" lon="9.527969450345902" id="-19285">
		<tag k="name" v="Flåten" />
		<tag k="place" v="farm" />
		<tag k="ssr:stedsnr" v="374845" />
	</node>
	<node lat="61.77704867070175" lon="9.558043005051355" id="-19286">
		<tag k="fixme" v="multiple name tags, choose one and add the other to alt_name" />
		<tag k="name" v="Nordre Rusten;Rusten" />
		<tag k="place" v="farm" />
		<tag k="ssr:stedsnr" v="374848" />
	</node>
	<node lat="61.65996666780843" lon="9.210813888574684" id="-19287">
		<tag k="name" v="Fagerli" />
		<tag k="place" v="farm" />
		<tag k="ssr:stedsnr" v="374786" />
	</node>
	<node lat="61.88826069068001" lon="9.39850407262046" id="-19288">
		<tag k="alt_name" v="Rosti, søre;Rosti;Søre Rosten" />
		<tag k="name" v="Søre Rosti" />
		<tag k="place" v="farm" />
		<tag k="ssr:stedsnr" v="374982" />
	</node>
	<node lat="61.79825447812126" lon="9.712122326532132" id="-19291">
		<tag k="historic" v="shieling" />
		<tag k="name" v="Veggemsætre" />
		<tag k="place" v="isolated_dwelling" />
		<tag k="ssr:stedsnr" v="375507" />
	</node>
	<node lat="61.81483526016055" lon="9.661769201099018" id="-19295">
		<tag k="alt_name" v="Ultungen;Ultungsætri" />
		<tag k="historic" v="shieling" />
		<tag k="name" v="Ultunga" />
		<tag k="old_name" v="Urdtungsætri" />
		<tag k="place" v="isolated_dwelling" />
		<tag k="ssr:stedsnr" v="482698" />
	</node>
	<node lat="61.8148333314062" lon="9.52745833661517" id="-19296">
		<tag k="name" v="Nordre Geitsida" />
		<tag k="place" v="locality" />
		<tag k="ssr:stedsnr" v="413087" />
	</node>
	<node lat="61.688588891682954" lon="9.410666657427" id="-19297">
		<tag k="historic" v="shieling" />
		<tag k="name" v="Slettesætre" />
		<tag k="place" v="isolated_dwelling" />
		<tag k="ssr:stedsnr" v="413241" />
	</node>
	<node lat="61.72841666618213" lon="9.16255555212207" id="-19300">
		<tag k="name" v="Steinekvea" />
		<tag k="place" v="farm" />
		<tag k="ssr:stedsnr" v="413193" />
	</node>
	<node lat="61.7387972235365" lon="9.227194436434681" id="-19301">
		<tag k="name" v="Gammelstugu" />
		<tag k="place" v="locality" />
		<tag k="ssr:stedsnr" v="413194" />
	</node>
	<node lat="61.78738610995742" lon="9.605936105900385" id="-19302">
		<tag k="historic" v="shieling" />
		<tag k="name" v="Drogensætre" />
		<tag k="place" v="isolated_dwelling" />
		<tag k="ssr:stedsnr" v="413196" />
	</node>
	<node lat="61.75338888648792" lon="9.31239166998368" id="-19305">
		<tag k="name" v="Resvold" />
		<tag k="place" v="isolated_dwelling" />
		<tag k="ssr:stedsnr" v="413605" />
	</node>
	<node lat="61.82934166386018" lon="9.404261103045537" id="-19306">
		<tag k="historic" v="shieling" />
		<tag k="name" v="Nordre Haugstulen" />
		<tag k="place" v="isolated_dwelling" />
		<tag k="ssr:stedsnr" v="413535" />
	</node>
	<node lat="61.759199999052896" lon="9.310408336354362" id="-19307">
		<tag k="name" v="Søre Hågån" />
		<tag k="place" v="locality" />
		<tag k="ssr:stedsnr" v="413600" />
	</node>
	<node lat="61.711027775641" lon="9.422111115506288" id="-19308">
		<tag k="name" v="Sletten" />
		<tag k="place" v="isolated_dwelling" />
		<tag k="ssr:stedsnr" v="414141" />
	</node>
	<node lat="61.786474999478905" lon="9.518361111884726" id="-19313">
		<tag k="historic" v="shieling" />
		<tag k="name" v="Steinerkvea" />
		<tag k="place" v="isolated_dwelling" />
		<tag k="ssr:stedsnr" v="414268" />
	</node>
	<node lat="61.6919944404884" lon="9.54976111796099" id="-19320">
		<tag k="building" v="industrial" />
		<tag k="name" v="Eide sag" />
		<tag k="ssr:stedsnr" v="414638" />
	</node>
	<node lat="61.6941833349616" lon="9.474441674722264" id="-19321">
		<tag k="name" v="Engum" />
		<tag k="place" v="isolated_dwelling" />
		<tag k="ssr:stedsnr" v="414699" />
	</node>
	<node lat="61.83633888999383" lon="9.411744444020313" id="-19322">
		<tag k="name" v="Fredheim" />
		<tag k="place" v="isolated_dwelling" />
		<tag k="ssr:stedsnr" v="414591" />
	</node>
	<node lat="61.83660555570317" lon="9.425327785119057" id="-19323">
		<tag k="name" v="Kolset" />
		<tag k="place" v="isolated_dwelling" />
		<tag k="ssr:stedsnr" v="414601" />
	</node>
	<node lat="61.89954722277677" lon="9.44916389607147" id="-19325">
		<tag k="historic" v="shieling" />
		<tag k="name" v="Ruphussætrin" />
		<tag k="place" v="isolated_dwelling" />
		<tag k="ssr:stedsnr" v="414742" />
	</node>
	<node lat="61.85330833008828" lon="9.420213887862696" id="-19326">
		<tag k="name" v="Nyheim" />
		<tag k="place" v="isolated_dwelling" />
		<tag k="ssr:stedsnr" v="414889" />
	</node>
	<node lat="61.87134999992976" lon="9.39789721852105" id="-19328">
		<tag k="name" v="Skogli" />
		<tag k="place" v="farm" />
		<tag k="ssr:stedsnr" v="414901" />
	</node>
	<node lat="61.60755277866593" lon="9.202763884590112" id="-19329">
		<tag k="alt_name" v="Steinesætra;Steineseter" />
		<tag k="historic" v="shieling" />
		<tag k="name" v="Steinesætri" />
		<tag k="place" v="isolated_dwelling" />
		<tag k="ssr:stedsnr" v="417835" />
	</node>
	<node lat="61.727074996263816" lon="9.151680554436881" id="-19330">
		<tag k="alt_name" v="Rindsæter" />
		<tag k="name" v="Rindsætri" />
		<tag k="place" v="farm" />
		<tag k="ssr:stedsnr" v="434964" />
	</node>
	<node lat="61.7231527756216" lon="9.153838896555007" id="-19331">
		<tag k="name" v="Stormyr" />
		<tag k="place" v="farm" />
		<tag k="ssr:stedsnr" v="434965" />
	</node>
	<node lat="61.703750004347945" lon="9.418925008985292" id="-19333">
		<tag k="name" v="Teigen" />
		<tag k="place" v="farm" />
		<tag k="ssr:stedsnr" v="435725" />
	</node>
	<node lat="61.67201111050461" lon="9.201941673262644" id="-19335">
		<tag k="name" v="Vikstad" />
		<tag k="place" v="farm" />
		<tag k="ssr:stedsnr" v="435779" />
	</node>
	<node lat="61.78523055242041" lon="9.474513897342606" id="-19336">
		<tag k="alt_name" v="Slåi, midtre" />
		<tag k="name" v="Midtre Slåen" />
		<tag k="place" v="farm" />
		<tag k="ssr:stedsnr" v="435862" />
	</node>
	<node lat="61.78952777789267" lon="9.361938880057293" id="-19337">
		<tag k="name" v="Rustmo" />
		<tag k="place" v="farm" />
		<tag k="ssr:stedsnr" v="435882" />
	</node>
	<node lat="61.80040555955477" lon="9.472008341395748" id="-19338">
		<tag k="historic" v="shieling" />
		<tag k="name" v="Rustsætre" />
		<tag k="place" v="isolated_dwelling" />
		<tag k="ssr:stedsnr" v="435883" />
	</node>
	<node lat="61.75282222007548" lon="9.249161118266743" id="-19341">
		<tag k="fixme" v="multiple name tags, choose one and add the other to alt_name" />
		<tag k="name" v="Øvre Hågån;Hågån" />
		<tag k="place" v="farm" />
		<tag k="ssr:stedsnr" v="494642" />
	</node>
	<node lat="61.712130552825904" lon="9.412922223099534" id="-19345">
		<tag k="name" v="Ødegård" />
		<tag k="place" v="farm" />
		<tag k="ssr:stedsnr" v="473013" />
	</node>
	<node lat="61.79563610849906" lon="9.48708333535729" id="-19347">
		<tag k="historic" v="shieling" />
		<tag k="name" v="Daleliensætre" />
		<tag k="place" v="isolated_dwelling" />
		<tag k="ssr:stedsnr" v="473021" />
	</node>
	<node lat="61.792277777032176" lon="9.48940833998049" id="-19348">
		<tag k="historic" v="shieling" />
		<tag k="name" v="Nordre Jostensætre" />
		<tag k="place" v="isolated_dwelling" />
		<tag k="ssr:stedsnr" v="473022" />
	</node>
	<node lat="61.797905559034604" lon="9.494805551453299" id="-19349">
		<tag k="name" v="Stålom" />
		<tag k="place" v="isolated_dwelling" />
		<tag k="ssr:stedsnr" v="473026" />
	</node>
	<node lat="61.82771110781595" lon="9.52315277490116" id="-19350">
		<tag k="name" v="Ulen" />
		<tag k="place" v="isolated_dwelling" />
		<tag k="ssr:stedsnr" v="473058" />
	</node>
	<node lat="61.800772222856466" lon="9.426622220474718" id="-19352">
		<tag k="historic" v="shieling" />
		<tag k="name" v="Nigardsnersætre" />
		<tag k="place" v="isolated_dwelling" />
		<tag k="ssr:stedsnr" v="473715" />
	</node>
	<node lat="61.80083101056034" lon="9.562177710787429" id="-19359">
		<tag k="fixme" v="consider place=hamlet" />
		<tag k="name" v="Nedre Kolbotten" />
		<tag k="place" v="farm" />
		<tag k="ssr:stedsnr" v="474202" />
	</node>
	<node lat="61.753949998579195" lon="9.5169444350278" id="-19360">
		<tag k="historic" v="shieling" />
		<tag k="name" v="Endrestadsætre" />
		<tag k="place" v="isolated_dwelling" />
		<tag k="ssr:stedsnr" v="474405" />
	</node>
	<node lat="61.74761666932589" lon="9.324713895663955" id="-19362">
		<tag k="name" v="Knutrud" />
		<tag k="place" v="farm" />
		<tag k="ssr:stedsnr" v="474605" />
	</node>
	<node lat="61.75113611340101" lon="9.321658329363938" id="-19364">
		<tag k="amenity" v="school" />
		<tag k="name" v="Heidal barne- og ungdomsskole" />
		<tag k="ssr:stedsnr" v="474608" />
	</node>
	<node lat="61.748972223440894" lon="9.29245833225955" id="-19365">
		<tag k="name" v="Langset" />
		<tag k="place" v="farm" />
		<tag k="ssr:stedsnr" v="474615" />
	</node>
	<node lat="61.700405555642995" lon="9.385258342026528" id="-19368">
		<tag k="historic" v="shieling" />
		<tag k="name" v="Ressetsætre" />
		<tag k="place" v="isolated_dwelling" />
		<tag k="ssr:stedsnr" v="474712" />
	</node>
	<node lat="61.77785555457606" lon="9.558377774340316" id="-19370">
		<tag k="name" v="Bekkerusten" />
		<tag k="place" v="isolated_dwelling" />
		<tag k="ssr:stedsnr" v="475073" />
	</node>
	<node lat="61.78633889226367" lon="9.521322216945244" id="-19373">
		<tag k="historic" v="shieling" />
		<tag k="name" v="Søre Liensætre" />
		<tag k="place" v="isolated_dwelling" />
		<tag k="ssr:stedsnr" v="475507" />
	</node>
	<node lat="61.67533055434094" lon="9.55610000602205" id="-19376">
		<tag k="alt_name" v="Vassrusten" />
		<tag k="name" v="Vassrusti" />
		<tag k="place" v="farm" />
		<tag k="ssr:stedsnr" v="677741" />
	</node>
	<node lat="61.75587998412179" lon="9.242069467677547" id="-19377">
		<tag k="fixme" v="consider place=hamlet" />
		<tag k="name" v="Kaggrud" />
		<tag k="place" v="farm" />
		<tag k="ssr:stedsnr" v="677650" />
	</node>
	<node lat="61.75753611503012" lon="9.237002785173042" id="-19378">
		<tag k="name" v="Øverjordet" />
		<tag k="place" v="farm" />
		<tag k="ssr:stedsnr" v="677656" />
	</node>
	<node lat="61.72718610904564" lon="9.52387499896009" id="-19380">
		<tag k="name" v="Buflåten" />
		<tag k="place" v="farm" />
		<tag k="ssr:stedsnr" v="677674" />
	</node>
	<node lat="61.76720555528694" lon="9.488733340353283" id="-19383">
		<tag k="name" v="Haugalykkja" />
		<tag k="place" v="isolated_dwelling" />
		<tag k="ssr:stedsnr" v="677830" />
	</node>
	<node lat="61.78620832967182" lon="9.47635000864918" id="-19384">
		<tag k="alt_name" v="Slåi, øvre" />
		<tag k="name" v="Øvre Slåen" />
		<tag k="place" v="farm" />
		<tag k="ssr:stedsnr" v="677845" />
	</node>
	<node lat="61.74483611341663" lon="9.178466672305841" id="-19385">
		<tag k="name" v="Fagerlii" />
		<tag k="place" v="isolated_dwelling" />
		<tag k="ssr:stedsnr" v="677963" />
	</node>
	<node lat="61.80284807322148" lon="9.571974217517278" id="-19387">
		<tag k="fixme" v="consider place=hamlet" />
		<tag k="name" v="Uldalslie" />
		<tag k="place" v="farm" />
		<tag k="ssr:stedsnr" v="677871" />
	</node>
	<node lat="61.79901789896989" lon="9.553365757366873" id="-19388">
		<tag k="alt_name" v="Gårder" />
		<tag k="fixme" v="consider place=hamlet" />
		<tag k="name" v="Garden" />
		<tag k="place" v="farm" />
		<tag k="ssr:stedsnr" v="677873" />
	</node>
	<node lat="61.706585685123194" lon="9.442891030708529" id="-19389">
		<tag k="fixme" v="consider place=hamlet" />
		<tag k="name" v="Slette" />
		<tag k="place" v="farm" />
		<tag k="ssr:stedsnr" v="678696" />
	</node>
	<node lat="61.79331402069633" lon="9.599768821732907" id="-19392">
		<tag k="name" v="Raphamn" />
		<tag k="place" v="hamlet" />
		<tag k="ssr:stedsnr" v="678538" />
	</node>
	<node lat="61.711022289347014" lon="9.45511253321064" id="-19394">
		<tag k="fixme" v="consider place=hamlet" />
		<tag k="name" v="Espe" />
		<tag k="place" v="farm" />
		<tag k="ssr:stedsnr" v="678663" />
	</node>
	<node lat="61.80673192292928" lon="9.537365676572904" id="-19399">
		<tag k="fixme" v="consider place=hamlet" />
		<tag k="name" v="Hole" />
		<tag k="old_name" v="Hullet" />
		<tag k="place" v="farm" />
		<tag k="ssr:stedsnr" v="678848" />
	</node>
	<node lat="61.901461107975805" lon="9.468988880425577" id="-19403">
		<tag k="historic" v="shieling" />
		<tag k="name" v="Olstadsætrin" />
		<tag k="place" v="isolated_dwelling" />
		<tag k="ssr:stedsnr" v="678956" />
	</node>
	<node lat="61.774011110905846" lon="9.20352499696033" id="-19404">
		<tag k="alt_name" v="Reiresætre" />
		<tag k="historic" v="shieling" />
		<tag k="name" v="Reirsætri" />
		<tag k="place" v="isolated_dwelling" />
		<tag k="ssr:stedsnr" v="495409" />
	</node>
	<node lat="61.79332500024871" lon="9.209661102987713" id="-19405">
		<tag k="historic" v="shieling" />
		<tag k="name" v="Nilsonlykkja" />
		<tag k="place" v="isolated_dwelling" />
		<tag k="ssr:stedsnr" v="495416" />
	</node>
	<node lat="61.70514166364673" lon="9.539063887476914" id="-19407">
		<tag k="name" v="Reslykkja" />
		<tag k="place" v="farm" />
		<tag k="ssr:stedsnr" v="495704" />
	</node>
	<node lat="61.747400001809" lon="9.260188893051088" id="-19410">
		<tag k="alt_name" v="Mosebakken, nedre;Nedre Mosebakken" />
		<tag k="name" v="Nedre Måsåbakken" />
		<tag k="place" v="farm" />
		<tag k="ssr:stedsnr" v="495655" />
	</node>
	<node lat="61.74654999972003" lon="9.3079388856602" id="-19411">
		<tag k="alt_name" v="Randen, s" />
		<tag k="name" v="Søre Randen" />
		<tag k="place" v="farm" />
		<tag k="ssr:stedsnr" v="495660" />
	</node>
	<node lat="61.76062777932783" lon="9.274883330697012" id="-19412">
		<tag k="name" v="Bruvoll" />
		<tag k="place" v="farm" />
		<tag k="ssr:stedsnr" v="495664" />
	</node>
	<node lat="61.761685677727954" lon="9.287154653756998" id="-19413">
		<tag k="fixme" v="consider place=hamlet" />
		<tag k="name" v="Bjølstad" />
		<tag k="place" v="farm" />
		<tag k="ssr:stedsnr" v="495665" />
	</node>
	<node lat="61.754956352790245" lon="9.533410018337388" id="-19414">
		<tag k="fixme" v="consider place=hamlet" />
		<tag k="name" v="Selsjord" />
		<tag k="place" v="farm" />
		<tag k="ssr:stedsnr" v="495672" />
	</node>
	<node lat="61.71580278082457" lon="9.311888880745602" id="-19415">
		<tag k="alt_name" v="Granerudsætri" />
		<tag k="historic" v="shieling" />
		<tag k="name" v="Granrudsætre" />
		<tag k="place" v="isolated_dwelling" />
		<tag k="ssr:stedsnr" v="495676" />
	</node>
	<node lat="61.83484999872124" lon="9.396361117033443" id="-19416">
		<tag k="name" v="Sagdalen" />
		<tag k="place" v="hamlet" />
		<tag k="ssr:stedsnr" v="495808" />
	</node>
	<node lat="61.83936666606288" lon="9.37683610473576" id="-19417">
		<tag k="name" v="Knarrom" />
		<tag k="place" v="farm" />
		<tag k="ssr:stedsnr" v="495815" />
	</node>
	<node lat="61.80621388632399" lon="9.566788894982649" id="-19419">
		<tag k="alt_name" v="Hamn, nedre;Nedre Havn" />
		<tag k="name" v="Nedre Hamn" />
		<tag k="place" v="farm" />
		<tag k="ssr:stedsnr" v="495760" />
	</node>
	<node lat="61.67526666481342" lon="9.198258334599346" id="-19420">
		<tag k="name" v="Buli" />
		<tag k="place" v="farm" />
		<tag k="ssr:stedsnr" v="495762" />
	</node>
	<node lat="61.67764999936395" lon="9.195274991957461" id="-19421">
		<tag k="alt_name" v="Olstad" />
		<tag k="name" v="Orstad" />
		<tag k="place" v="farm" />
		<tag k="ssr:stedsnr" v="495764" />
	</node>
	<node lat="61.73982180031985" lon="9.185124583363862" id="-19422">
		<tag k="alt_name" v="Steine" />
		<tag k="name" v="Steine søre" />
		<tag k="place" v="farm" />
		<tag k="ssr:stedsnr" v="495967" />
	</node>
	<node lat="61.726975002503316" lon="9.156411118919475" id="-19423">
		<tag k="alt_name" v="Leirflatsæter" />
		<tag k="name" v="Sætri" />
		<tag k="place" v="farm" />
		<tag k="ssr:stedsnr" v="495968" />
	</node>
	<node lat="61.810224998968756" lon="9.68750555728619" id="-19428">
		<tag k="alt_name" v="Mysusætre" />
		<tag k="name" v="Mysusæter" />
		<tag k="place" v="hamlet" />
		<tag k="ssr:stedsnr" v="496714" />
	</node>
	<node lat="61.84587500375656" lon="9.330347228720838" id="-19429">
		<tag k="name" v="Sanden" />
		<tag k="place" v="farm" />
		<tag k="ssr:stedsnr" v="496949" />
	</node>
	<node lat="61.892205559176396" lon="9.483544442719914" id="-19430">
		<tag k="name" v="Romundgardseter" />
		<tag k="ssr:stedsnr" v="507812" />
		<tag k="tourism" v="hotel" />
	</node>
	<node lat="61.71370000152047" lon="9.394708341973944" id="-19432">
		<tag k="name" v="Øvre Berdølmo" />
		<tag k="place" v="farm" />
		<tag k="ssr:stedsnr" v="534009" />
	</node>
	<node lat="61.78819444136567" lon="9.504844436691988" id="-19433">
		<tag k="historic" v="shieling" />
		<tag k="name" v="Nysætre" />
		<tag k="place" v="isolated_dwelling" />
		<tag k="ssr:stedsnr" v="534021" />
	</node>
	<node lat="61.81137777449743" lon="9.534044435354781" id="-19434">
		<tag k="name" v="Veslegeitsida" />
		<tag k="place" v="isolated_dwelling" />
		<tag k="ssr:stedsnr" v="534025" />
	</node>
	<node lat="61.74903611316536" lon="9.302852782443287" id="-19438">
		<tag k="name" v="Broløkken" />
		<tag k="place" v="farm" />
		<tag k="ssr:stedsnr" v="534607" />
	</node>
	<node lat="61.74324722157488" lon="9.339974997089774" id="-19439">
		<tag k="name" v="Haugtun" />
		<tag k="place" v="isolated_dwelling" />
		<tag k="ssr:stedsnr" v="534803" />
	</node>
	<node lat="61.79495277655217" lon="9.595175003629045" id="-19440">
		<tag k="historic" v="shieling" />
		<tag k="name" v="Bolongsætre" />
		<tag k="place" v="isolated_dwelling" />
		<tag k="ssr:stedsnr" v="535111" />
	</node>
	<node lat="61.79583888795703" lon="9.594727777981875" id="-19441">
		<tag k="historic" v="shieling" />
		<tag k="name" v="Bergumsætre" />
		<tag k="place" v="isolated_dwelling" />
		<tag k="ssr:stedsnr" v="535114" />
	</node>
	<node lat="61.79589444255451" lon="9.590705563758423" id="-19442">
		<tag k="historic" v="shieling" />
		<tag k="name" v="Bekkestugusætre" />
		<tag k="place" v="isolated_dwelling" />
		<tag k="ssr:stedsnr" v="535118" />
	</node>
	<node lat="61.73446666294628" lon="9.622705555799596" id="-19443">
		<tag k="historic" v="shieling" />
		<tag k="name" v="Storrustsætre" />
		<tag k="place" v="isolated_dwelling" />
		<tag k="ssr:stedsnr" v="535020" />
	</node>
	<node lat="61.798997220665996" lon="9.708911108786312" id="-19448">
		<tag k="historic" v="shieling" />
		<tag k="loc_name" v="Nedre Dale sætre" />
		<tag k="name" v="Nedre Dalen sætre" />
		<tag k="place" v="isolated_dwelling" />
		<tag k="ssr:stedsnr" v="535313" />
	</node>
	<node lat="61.81013610884269" lon="9.685213891475371" id="-19450">
		<tag k="historic" v="shieling" />
		<tag k="name" v="Geitsidesætre" />
		<tag k="old_name" v="Geisidesætre" />
		<tag k="place" v="isolated_dwelling" />
		<tag k="ssr:stedsnr" v="535371" />
	</node>
	<node lat="61.83043610872641" lon="9.626066661902959" id="-19451">
		<tag k="historic" v="shieling" />
		<tag k="name" v="Liasætre" />
		<tag k="place" v="isolated_dwelling" />
		<tag k="ssr:stedsnr" v="535372" />
	</node>
	<node lat="61.69109444735045" lon="9.549991662572195" id="-19452">
		<tag k="name" v="Slåttlykkja" />
		<tag k="place" v="isolated_dwelling" />
		<tag k="ssr:stedsnr" v="535621" />
	</node>
	<node lat="61.776483330387954" lon="9.466600006374126" id="-19454">
		<tag k="name" v="Myrvoll" />
		<tag k="place" v="farm" />
		<tag k="ssr:stedsnr" v="535685" />
	</node>
	<node lat="61.74762778059096" lon="9.538202781765754" id="-19456">
		<tag k="name" v="Søre Einangen" />
		<tag k="place" v="farm" />
		<tag k="ssr:stedsnr" v="536426" />
	</node>
	<node lat="61.77568055570736" lon="9.532016661780105" id="-19457">
		<tag k="name" v="Loftsgardsjordet" />
		<tag k="place" v="quarter" />
		<tag k="ssr:stedsnr" v="536492" />
	</node>
	<node lat="61.832816662465454" lon="9.389191668579372" id="-19458">
		<tag k="name" v="Skogstad" />
		<tag k="place" v="farm" />
		<tag k="ssr:stedsnr" v="536621" />
	</node>
	<node lat="61.74395833283182" lon="9.565694440784005" id="-19459">
		<tag k="name" v="Øvre Tullut" />
		<tag k="place" v="isolated_dwelling" />
		<tag k="ssr:stedsnr" v="536913" />
	</node>
	<node lat="61.742266666853574" lon="9.349208342467618" id="-19461">
		<tag k="alt_name" v="Bårdløkken" />
		<tag k="name" v="Bårdlykkja" />
		<tag k="place" v="farm" />
		<tag k="ssr:stedsnr" v="555609" />
	</node>
	<node lat="61.72607777676428" lon="9.404002782418726" id="-19467">
		<tag k="alt_name" v="Sjugurdsæter" />
		<tag k="name" v="Sætri" />
		<tag k="place" v="farm" />
		<tag k="ssr:stedsnr" v="556703" />
	</node>
	<node lat="61.84130240657801" lon="9.816526507904761" id="-19470">
		<tag k="name" v="Høgloftet" />
		<tag k="place" v="locality" />
		<tag k="ssr:stedsnr" v="556720" />
	</node>
	<node lat="61.83849999776892" lon="9.446452772874796" id="-19471">
		<tag k="name" v="Nuvstad" />
		<tag k="place" v="farm" />
		<tag k="ssr:stedsnr" v="556803" />
	</node>
	<node lat="61.84579999758567" lon="9.447088887614882" id="-19473">
		<tag k="name" v="Grenet" />
		<tag k="place" v="farm" />
		<tag k="ssr:stedsnr" v="556814" />
	</node>
	<node lat="61.844530558228456" lon="9.514172218016059" id="-19474">
		<tag k="historic" v="shieling" />
		<tag k="name" v="Skardsætrin" />
		<tag k="place" v="isolated_dwelling" />
		<tag k="ssr:stedsnr" v="556818" />
	</node>
	<node lat="61.74656581600414" lon="9.211310787249035" id="-19476">
		<tag k="fixme" v="consider place=hamlet" />
		<tag k="name" v="Brenna" />
		<tag k="place" v="farm" />
		<tag k="ssr:stedsnr" v="556939" />
	</node>
	<node lat="61.88726800806637" lon="9.57456980400291" id="-19478">
		<tag k="name" v="Smuksjøseter fjellstue" />
		<tag k="ssr:stedsnr" v="556961" />
		<tag k="tourism" v="hotel" />
	</node>
	<node lat="61.87441388982224" lon="9.397830561642177" id="-19479">
		<tag k="historic" v="shieling" />
		<tag k="name" v="Veslsætre" />
		<tag k="place" v="isolated_dwelling" />
		<tag k="ssr:stedsnr" v="556964" />
	</node>
	<node lat="61.842297220386556" lon="9.371527768740668" id="-19483">
		<tag k="name" v="Søre Dissen" />
		<tag k="place" v="farm" />
		<tag k="ssr:stedsnr" v="585019" />
	</node>
	<node lat="61.720044444240834" lon="9.395936108545369" id="-19489">
		<tag k="name" v="Skjerdalsstugu" />
		<tag k="place" v="isolated_dwelling" />
		<tag k="ssr:stedsnr" v="595020" />
	</node>
	<node lat="61.81899444694175" lon="9.515941666335584" id="-19490">
		<tag k="name" v="Nesset" />
		<tag k="place" v="isolated_dwelling" />
		<tag k="ssr:stedsnr" v="595054" />
	</node>
	<node lat="61.562699999986656" lon="9.212336110823292" id="-19491">
		<tag k="alt_name" v="Harildstadseter" />
		<tag k="historic" v="shieling" />
		<tag k="name" v="Fosshaugsætre" />
		<tag k="place" v="isolated_dwelling" />
		<tag k="ssr:stedsnr" v="595057" />
	</node>
	<node lat="61.728877776001134" lon="9.169830546950502" id="-19494">
		<tag k="name" v="Rindhølen" />
		<tag k="place" v="farm" />
		<tag k="ssr:stedsnr" v="595155" />
	</node>
	<node lat="61.73537500430166" lon="9.506958324420081" id="-19497">
		<tag k="historic" v="shieling" />
		<tag k="name" v="Skardsætre" />
		<tag k="place" v="isolated_dwelling" />
		<tag k="ssr:stedsnr" v="595554" />
	</node>
	<node lat="61.73554444043904" lon="9.533500004173197" id="-19498">
		<tag k="name" v="Nedre Bu" />
		<tag k="place" v="farm" />
		<tag k="ssr:stedsnr" v="595555" />
	</node>
	<node lat="61.73865833066957" lon="9.506999998632505" id="-19499">
		<tag k="historic" v="shieling" />
		<tag k="name" v="Bredensætre" />
		<tag k="place" v="isolated_dwelling" />
		<tag k="ssr:stedsnr" v="595564" />
	</node>
	<node lat="61.7898583325599" lon="9.423280558727974" id="-19500">
		<tag k="name" v="Torgard" />
		<tag k="place" v="farm" />
		<tag k="ssr:stedsnr" v="595705" />
	</node>
	<node lat="61.74388055983041" lon="9.56287777381458" id="-19502">
		<tag k="name" v="Nedre Tullut" />
		<tag k="place" v="isolated_dwelling" />
		<tag k="ssr:stedsnr" v="595903" />
	</node>
	<node lat="61.85381388838228" lon="9.489241660999816" id="-19503">
		<tag k="historic" v="shieling" />
		<tag k="name" v="Barnålsætre" />
		<tag k="place" v="isolated_dwelling" />
		<tag k="ssr:stedsnr" v="596109" />
	</node>
	<node lat="61.72857777813647" lon="9.416833328803047" id="-19507">
		<tag k="historic" v="shieling" />
		<tag k="name" v="Imbertsætre" />
		<tag k="place" v="isolated_dwelling" />
		<tag k="ssr:stedsnr" v="596320" />
	</node>
	<node lat="61.76429722316708" lon="9.548361109656247" id="-19510">
		<tag k="name" v="Plassjordet" />
		<tag k="place" v="quarter" />
		<tag k="ssr:stedsnr" v="596413" />
	</node>
	<node lat="61.772591608400575" lon="9.529844596866413" id="-19512">
		<tag k="name" v="Ottekra" />
		<tag k="place" v="locality" />
		<tag k="ssr:stedsnr" v="596463" />
	</node>
	<node lat="61.76151666549836" lon="9.467513887938606" id="-19513">
		<tag k="historic" v="shieling" />
		<tag k="name" v="Vikesætre" />
		<tag k="place" v="isolated_dwelling" />
		<tag k="ssr:stedsnr" v="596605" />
	</node>
	<node lat="61.73970555772214" lon="9.319513894884766" id="-19521">
		<tag k="alt_name" v="Bekkimellom, øvre;Bekkemellem øvre" />
		<tag k="name" v="Øvre Bekkimellom" />
		<tag k="place" v="farm" />
		<tag k="ssr:stedsnr" v="616645" />
	</node>
	<node lat="61.737086108442085" lon="9.349924993829648" id="-19522">
		<tag k="name" v="Vang" />
		<tag k="place" v="farm" />
		<tag k="ssr:stedsnr" v="616646" />
	</node>
	<node lat="61.74805833683512" lon="9.358247221160726" id="-19523">
		<tag k="alt_name" v="Slåi" />
		<tag k="name" v="Slåen" />
		<tag k="place" v="farm" />
		<tag k="ssr:stedsnr" v="616649" />
	</node>
	<node lat="61.754655552297606" lon="9.23639167361534" id="-19524">
		<tag k="name" v="Nordjordet" />
		<tag k="place" v="farm" />
		<tag k="ssr:stedsnr" v="616653" />
	</node>
	<node lat="61.706269447244885" lon="9.538386116570132" id="-19527">
		<tag k="alt_name" v="Brekken" />
		<tag k="name" v="Brekka" />
		<tag k="place" v="farm" />
		<tag k="ssr:stedsnr" v="616696" />
	</node>
	<node lat="61.70081559212381" lon="9.521006910759748" id="-19529">
		<tag k="alt_name" v="Slåsætri;Slåsætre" />
		<tag k="historic" v="shieling" />
		<tag k="name" v="Slåsætrin" />
		<tag k="old_name" v="Slaasætrene" />
		<tag k="place" v="isolated_dwelling" />
		<tag k="ssr:stedsnr" v="616698" />
	</node>
	<node lat="61.76558888898049" lon="9.262544448893504" id="-19530">
		<tag k="name" v="Ruste" />
		<tag k="place" v="farm" />
		<tag k="ssr:stedsnr" v="616842" />
	</node>
	<node lat="61.758583337626895" lon="9.286149994148007" id="-19531">
		<tag k="fixme" v="multiple name tags, choose one and add the other to alt_name; consider place=suburb, village or hamlet" />
		<tag k="name" v="Heidal;Bjølstadmo" />
		<tag k="place" v="quarter" />
		<tag k="ssr:stedsnr" v="616844" />
	</node>
	<node lat="61.783897046111086" lon="9.550332777194066" id="-19532">
		<tag k="fixme" v="consider place=hamlet" />
		<tag k="name" v="Bekken" />
		<tag k="place" v="farm" />
		<tag k="ssr:stedsnr" v="616848" />
	</node>
	<node lat="61.69960277527628" lon="9.424600004237277" id="-19533">
		<tag k="alt_name" v="Veslesæter" />
		<tag k="name" v="Veslesætri" />
		<tag k="place" v="farm" />
		<tag k="ssr:stedsnr" v="616704" />
	</node>
	<node lat="61.67813889128944" lon="9.550249996956078" id="-19534">
		<tag k="name" v="Slåstugu" />
		<tag k="place" v="farm" />
		<tag k="ssr:stedsnr" v="616739" />
	</node>
	<node lat="61.82962778030582" lon="9.406891659295386" id="-19535">
		<tag k="name" v="Høyberg" />
		<tag k="place" v="farm" />
		<tag k="ssr:stedsnr" v="616788" />
	</node>
	<node lat="61.68814024139002" lon="9.188927571482491" id="-19536">
		<tag k="alt_name" v="Vassrusten" />
		<tag k="name" v="Vassrusti" />
		<tag k="place" v="farm" />
		<tag k="ssr:stedsnr" v="616996" />
	</node>
	<node lat="61.75410555641926" lon="9.664452773057983" id="-19538">
		<tag k="historic" v="shieling" />
		<tag k="name" v="Hessætrin" />
		<tag k="place" v="isolated_dwelling" />
		<tag k="ssr:stedsnr" v="617535" />
	</node>
	<node lat="61.61574999580036" lon="9.309588894511245" id="-19539">
		<tag k="alt_name" v="Mugsetrene" />
		<tag k="historic" v="shieling" />
		<tag k="name" v="Musætrin" />
		<tag k="place" v="isolated_dwelling" />
		<tag k="ssr:stedsnr" v="617537" />
	</node>
	<node lat="61.85308611385931" lon="9.759966666377775" id="-19541">
		<tag k="name" v="Rondheim" />
		<tag k="place" v="isolated_dwelling" />
		<tag k="ssr:stedsnr" v="617703" />
	</node>
	<node lat="61.70811666562628" lon="9.425944440288534" id="-19542">
		<tag k="alt_name" v="Veslem" />
		<tag k="name" v="Veslum" />
		<tag k="place" v="farm" />
		<tag k="ssr:stedsnr" v="617711" />
	</node>
	<node lat="61.70076944153568" lon="9.45250277669075" id="-19543">
		<tag k="name" v="Pålsrud" />
		<tag k="place" v="farm" />
		<tag k="ssr:stedsnr" v="617714" />
	</node>
	<node lat="61.75293333314627" lon="9.553147218054928" id="-19544">
		<tag k="alt_name" v="Solhjemsbergum;Solhjem" />
		<tag k="name" v="Solgjemsbergom" />
		<tag k="place" v="farm" />
		<tag k="ssr:stedsnr" v="617681" />
	</node>
	<node lat="61.83972380748261" lon="9.408298101905514" id="-19545">
		<tag k="fixme" v="consider place=hamlet" />
		<tag k="name" v="Øygarden" />
		<tag k="place" v="farm" />
		<tag k="ssr:stedsnr" v="617805" />
	</node>
	<node lat="61.886850000381955" lon="9.419213882944389" id="-19548">
		<tag k="name" v="Fagerli" />
		<tag k="place" v="farm" />
		<tag k="ssr:stedsnr" v="617980" />
	</node>
	<node lat="61.7669027808782" lon="9.606544447700617" id="-19551">
		<tag k="historic" v="shieling" />
		<tag k="name" v="Bekkensætre" />
		<tag k="place" v="isolated_dwelling" />
		<tag k="ssr:stedsnr" v="655188" />
	</node>
	<node lat="61.75523611517835" lon="9.256252774653358" id="-19552">
		<tag k="alt_name" v="Åseng øvre" />
		<tag k="name" v="Øvre Åseng" />
		<tag k="old_name" v="Aaseng øvre" />
		<tag k="place" v="farm" />
		<tag k="ssr:stedsnr" v="655605" />
	</node>
	<node lat="61.75729722433573" lon="9.272138880734312" id="-19553">
		<tag k="name" v="Åsheim" />
		<tag k="place" v="farm" />
		<tag k="ssr:stedsnr" v="655610" />
	</node>
	<node lat="61.84953055891846" lon="9.49848888525353" id="-19554">
		<tag k="historic" v="shieling" />
		<tag k="name" v="Skottsætre" />
		<tag k="place" v="isolated_dwelling" />
		<tag k="ssr:stedsnr" v="656103" />
	</node>
	<node lat="61.69587221900613" lon="9.39412778107995" id="-19556">
		<tag k="historic" v="shieling" />
		<tag k="name" v="Gaustakvea" />
		<tag k="place" v="isolated_dwelling" />
		<tag k="ssr:stedsnr" v="656216" />
	</node>
	<node lat="61.69574444432684" lon="9.389700006527061" id="-19557">
		<tag k="historic" v="shieling" />
		<tag k="name" v="Gaustabrennasætre" />
		<tag k="place" v="isolated_dwelling" />
		<tag k="ssr:stedsnr" v="656218" />
	</node>
	<node lat="61.84624444401803" lon="9.414430547834812" id="-19563">
		<tag k="name" v="Midtre Skårå" />
		<tag k="place" v="isolated_dwelling" />
		<tag k="ssr:stedsnr" v="656635" />
	</node>
	<node lat="61.733272220048114" lon="9.515933330695246" id="-19564">
		<tag k="historic" v="shieling" />
		<tag k="name" v="Øvre Busætre" />
		<tag k="place" v="isolated_dwelling" />
		<tag k="ssr:stedsnr" v="656592" />
	</node>
	<node lat="61.78811389063622" lon="9.412700009273255" id="-19566">
		<tag k="name" v="Veggemslykkja" />
		<tag k="place" v="farm" />
		<tag k="ssr:stedsnr" v="656734" />
	</node>
	<node lat="61.85219722172996" lon="9.41423055133057" id="-19568">
		<tag k="name" v="Midtre Moen" />
		<tag k="place" v="isolated_dwelling" />
		<tag k="ssr:stedsnr" v="656900" />
	</node>
	<node lat="61.70529999859547" lon="9.317155561133685" id="-19569">
		<tag k="historic" v="shieling" />
		<tag k="name" v="Skavrustsætre" />
		<tag k="place" v="isolated_dwelling" />
		<tag k="ssr:stedsnr" v="656908" />
	</node>
	<node lat="61.706658332452484" lon="9.328652777735963" id="-19570">
		<tag k="historic" v="shieling" />
		<tag k="name" v="Larslykkjesætre" />
		<tag k="place" v="isolated_dwelling" />
		<tag k="ssr:stedsnr" v="656982" />
	</node>
	<node lat="61.782886115275765" lon="9.531730554917035" id="-19571">
		<tag k="name" v="Frami Lien" />
		<tag k="place" v="farm" />
		<tag k="ssr:stedsnr" v="657507" />
	</node>
	<node lat="61.83660000135722" lon="9.397002779264344" id="-19572">
		<tag k="name" v="Sagdalen" />
		<tag k="place" v="farm" />
		<tag k="ssr:stedsnr" v="657603" />
	</node>
	<node lat="61.729111112624715" lon="9.415369439372716" id="-19573">
		<tag k="alt_name" v="Sveasætre" />
		<tag k="historic" v="shieling" />
		<tag k="name" v="Sveasætri" />
		<tag k="place" v="isolated_dwelling" />
		<tag k="ssr:stedsnr" v="677679" />
	</node>
	<node lat="61.69613333663584" lon="9.480802782457236" id="-19574">
		<tag k="alt_name" v="Grote" />
		<tag k="historic" v="shieling" />
		<tag k="name" v="Grotet" />
		<tag k="place" v="isolated_dwelling" />
		<tag k="ssr:stedsnr" v="677683" />
	</node>
	<node lat="61.70357777634513" lon="9.554391659283809" id="-19575">
		<tag k="alt_name" v="Stanviken" />
		<tag k="name" v="Stanviki" />
		<tag k="place" v="farm" />
		<tag k="ssr:stedsnr" v="677692" />
	</node>
	<node lat="61.61650555794323" lon="9.206750004243416" id="-19576">
		<tag k="alt_name" v="Åsengsetrene" />
		<tag k="historic" v="shieling" />
		<tag k="name" v="Åsengsætrin" />
		<tag k="place" v="isolated_dwelling" />
		<tag k="ssr:stedsnr" v="677804" />
	</node>
	<node lat="61.77225000295265" lon="9.48176388667942" id="-19579">
		<tag k="alt_name" v="Nordre Sanden" />
		<tag k="name" v="Sanden" />
		<tag k="place" v="farm" />
		<tag k="ssr:stedsnr" v="677833" />
	</node>
	<node lat="61.79895000417974" lon="9.565013884578695" id="-19584">
		<tag k="name" v="Lornstad" />
		<tag k="place" v="farm" />
		<tag k="ssr:stedsnr" v="677876" />
	</node>
	<node lat="61.733147222238294" lon="9.171025000753346" id="-19585">
		<tag k="fixme" v="consider place=hamlet" />
		<tag k="name" v="Leirflaten" />
		<tag k="place" v="village" />
		<tag k="ssr:stedsnr" v="677988" />
	</node>
	<node lat="61.75027777457261" lon="9.175758333375613" id="-19586">
		<tag k="historic" v="shieling" />
		<tag k="name" v="Lusæter" />
		<tag k="place" v="isolated_dwelling" />
		<tag k="ssr:stedsnr" v="678428" />
	</node>
	<node lat="61.71391944535533" lon="9.559255554451097" id="-19588">
		<tag k="alt_name" v="Haugen, nordre" />
		<tag k="name" v="Nordre Haugen" />
		<tag k="place" v="farm" />
		<tag k="ssr:stedsnr" v="678705" />
	</node>
	<node lat="61.75330555752493" lon="9.295130562282647" id="-19590">
		<tag k="name" v="Nymo" />
		<tag k="place" v="farm" />
		<tag k="ssr:stedsnr" v="678675" />
	</node>
	<node lat="61.83986388792" lon="9.63038334024897" id="-19592">
		<tag k="name" v="Andalshytta" />
		<tag k="place" v="isolated_dwelling" />
		<tag k="ssr:stedsnr" v="678692" />
	</node>
	<node lat="61.83838333609266" lon="9.47869999895427" id="-19595">
		<tag k="name" v="Mattisstad" />
		<tag k="place" v="farm" />
		<tag k="ssr:stedsnr" v="678776" />
	</node>
	<node lat="61.888486112699454" lon="9.487499991717499" id="-19597">
		<tag k="name" v="Rondane Haukliseter Fjellhotell" />
		<tag k="ssr:stedsnr" v="690834" />
		<tag k="tourism" v="hotel" />
	</node>
	<node lat="61.61802222671499" lon="9.30600000900877" id="-19603">
		<tag k="historic" v="shieling" />
		<tag k="name" v="Faukstadseter" />
		<tag k="place" v="isolated_dwelling" />
		<tag k="ssr:stedsnr" v="716075" />
	</node>
	<node lat="61.76891388916245" lon="9.604597229518978" id="-19604">
		<tag k="historic" v="shieling" />
		<tag k="name" v="Bergumsætre" />
		<tag k="place" v="isolated_dwelling" />
		<tag k="ssr:stedsnr" v="716204" />
	</node>
	<node lat="61.76257222087673" lon="9.632761107933055" id="-19605">
		<tag k="fixme" v="multiple name tags, choose one and add the other to alt_name" />
		<tag k="historic" v="shieling" />
		<tag k="name" v="Blomseter;Solhjemsseter" />
		<tag k="place" v="isolated_dwelling" />
		<tag k="ssr:stedsnr" v="716178" />
	</node>
	<node lat="61.77428888907653" lon="9.303111116509536" id="-19607">
		<tag k="historic" v="shieling" />
		<tag k="name" v="Lykkjesætre" />
		<tag k="place" v="isolated_dwelling" />
		<tag k="ssr:stedsnr" v="716610" />
	</node>
	<node lat="61.794505554583345" lon="9.487041659188531" id="-19610">
		<tag k="historic" v="shieling" />
		<tag k="name" v="Leirensætre" />
		<tag k="place" v="isolated_dwelling" />
		<tag k="ssr:stedsnr" v="899026" />
	</node>
	<node lat="61.792780557748465" lon="9.489369437312636" id="-19611">
		<tag k="alt_name" v="Søre Slåensætre" />
		<tag k="historic" v="shieling" />
		<tag k="name" v="Søre Slåsætre" />
		<tag k="place" v="isolated_dwelling" />
		<tag k="ssr:stedsnr" v="899027" />
	</node>
	<node lat="61.69809722671303" lon="9.387999998786038" id="-19616">
		<tag k="historic" v="shieling" />
		<tag k="name" v="Ødegardsætre" />
		<tag k="place" v="isolated_dwelling" />
		<tag k="ssr:stedsnr" v="717228" />
	</node>
	<node lat="61.6954583347819" lon="9.385836113292012" id="-19617">
		<tag k="historic" v="shieling" />
		<tag k="name" v="Nordre Randen sætre" />
		<tag k="place" v="isolated_dwelling" />
		<tag k="ssr:stedsnr" v="717231" />
	</node>
	<node lat="61.69431944294941" lon="9.388161110088129" id="-19618">
		<tag k="historic" v="shieling" />
		<tag k="name" v="Øvre Bergdølmo sætre" />
		<tag k="place" v="isolated_dwelling" />
		<tag k="ssr:stedsnr" v="717233" />
	</node>
	<node lat="61.6195527758101" lon="9.29301945133961" id="-19619">
		<tag k="historic" v="shieling" />
		<tag k="name" v="Horgenseter" />
		<tag k="place" v="isolated_dwelling" />
		<tag k="ssr:stedsnr" v="899077" />
	</node>
	<node lat="61.733949999106976" lon="9.175919452508735" id="-19620">
		<tag k="name" v="Storbekkenget" />
		<tag k="place" v="farm" />
		<tag k="ssr:stedsnr" v="717179" />
	</node>
	<node lat="61.81080000097244" lon="9.684033326536573" id="-19621">
		<tag k="historic" v="shieling" />
		<tag k="name" v="Nordre Loftsgardsætre" />
		<tag k="place" v="isolated_dwelling" />
		<tag k="ssr:stedsnr" v="717374" />
	</node>
	<node lat="61.829558329658425" lon="9.632152781234351" id="-19622">
		<tag k="historic" v="shieling" />
		<tag k="name" v="Linlykkjesætre" />
		<tag k="place" v="isolated_dwelling" />
		<tag k="ssr:stedsnr" v="717377" />
	</node>
	<node lat="61.76784999642733" lon="9.604880555302692" id="-19626">
		<tag k="historic" v="shieling" />
		<tag k="name" v="Tollefstugusætre" />
		<tag k="place" v="isolated_dwelling" />
		<tag k="ssr:stedsnr" v="899178" />
	</node>
	<node lat="61.77898055389235" lon="9.668772228706864" id="-19627">
		<tag k="historic" v="shieling" />
		<tag k="name" v="Gammel Sandbusætre" />
		<tag k="place" v="isolated_dwelling" />
		<tag k="ssr:stedsnr" v="899184" />
	</node>
	<node lat="61.84055833138891" lon="9.394702777497999" id="-19628">
		<tag k="name" v="Nordre Brekken" />
		<tag k="place" v="farm" />
		<tag k="ssr:stedsnr" v="717609" />
	</node>
	<node lat="61.84048888785171" lon="9.395611112041667" id="-19629">
		<tag k="name" v="Søre Brekken" />
		<tag k="place" v="isolated_dwelling" />
		<tag k="ssr:stedsnr" v="717610" />
	</node>
	<node lat="61.805786943262724" lon="9.667318878324968" id="-19630">
		<tag k="historic" v="shieling" />
		<tag k="name" v="Skreddarstugusætre" />
		<tag k="place" v="isolated_dwelling" />
		<tag k="ssr:stedsnr" v="899144" />
	</node>
	<node lat="61.79173333353605" lon="9.442147221393405" id="-19631">
		<tag k="name" v="Åsårmo" />
		<tag k="place" v="farm" />
		<tag k="ssr:stedsnr" v="717730" />
	</node>
	<node lat="61.79347222569965" lon="9.544980552265516" id="-19632">
		<tag k="name" v="Nordre Kleivmellom" />
		<tag k="place" v="farm" />
		<tag k="ssr:stedsnr" v="899231" />
	</node>
	<node lat="61.69503333183849" lon="9.399711117803166" id="-19633">
		<tag k="historic" v="shieling" />
		<tag k="name" v="Veslebrendensætre" />
		<tag k="place" v="isolated_dwelling" />
		<tag k="ssr:stedsnr" v="899245" />
	</node>
	<node lat="61.89618610806722" lon="9.460155548044964" id="-19635">
		<tag k="historic" v="shieling" />
		<tag k="name" v="Nordre Brekken sætre" />
		<tag k="place" v="isolated_dwelling" />
		<tag k="ssr:stedsnr" v="718765" />
	</node>
	<node lat="61.887661115183256" lon="9.460047222628424" id="-19636">
		<tag k="historic" v="shieling" />
		<tag k="name" v="Sandensætre" />
		<tag k="place" v="isolated_dwelling" />
		<tag k="ssr:stedsnr" v="718769" />
	</node>
	<node lat="61.871166669394995" lon="9.361247217814341" id="-19637">
		<tag k="historic" v="shieling" />
		<tag k="name" v="Nordre Rosten sætre" />
		<tag k="place" v="isolated_dwelling" />
		<tag k="ssr:stedsnr" v="718906" />
	</node>
	<node lat="61.87171388812935" lon="9.398594453870508" id="-19638">
		<tag k="historic" v="shieling" />
		<tag k="name" v="Nedre Veslesæter" />
		<tag k="place" v="isolated_dwelling" />
		<tag k="ssr:stedsnr" v="718915" />
	</node>
	<node lat="61.69163333531715" lon="9.532061110121457" id="-19643">
		<tag k="name" v="Kleiven" />
		<tag k="place" v="locality" />
		<tag k="ssr:stedsnr" v="899562" />
	</node>
	<node lat="61.73667499681486" lon="9.51093888472444" id="-19646">
		<tag k="historic" v="shieling" />
		<tag k="name" v="Ekrensætre" />
		<tag k="place" v="isolated_dwelling" />
		<tag k="ssr:stedsnr" v="899585" />
	</node>
	<node lat="61.683469440059056" lon="9.54668332974272" id="-19650">
		<tag k="name" v="Fredly" />
		<tag k="place" v="isolated_dwelling" />
		<tag k="ssr:stedsnr" v="899750" />
	</node>
	<node lat="61.79414972411411" lon="9.446452207454968" id="-19651">
		<tag k="name" v="Nigard Åsåren" />
		<tag k="place" v="farm" />
		<tag k="ssr:stedsnr" v="899752" />
	</node>
	<node lat="61.703908333485444" lon="9.311972229738425" id="-19653">
		<tag k="historic" v="shieling" />
		<tag k="name" v="Klukkhaugsætre" />
		<tag k="place" v="isolated_dwelling" />
		<tag k="ssr:stedsnr" v="899899" />
	</node>
	<node lat="61.746966669379184" lon="9.207050006401854" id="-19654">
		<tag k="name" v="Bekkemellem" />
		<tag k="place" v="farm" />
		<tag k="ssr:stedsnr" v="899957" />
	</node>
	<node lat="61.74898889183257" lon="9.220355563733694" id="-19655">
		<tag k="name" v="Klashaugen" />
		<tag k="place" v="farm" />
		<tag k="ssr:stedsnr" v="899958" />
	</node>
	<node lat="61.705747226221106" lon="9.329172231678951" id="-19656">
		<tag k="historic" v="shieling" />
		<tag k="name" v="Norderhaugsætre" />
		<tag k="place" v="isolated_dwelling" />
		<tag k="ssr:stedsnr" v="899982" />
	</node>
	<node lat="61.836550002664396" lon="9.401330563754913" id="-19665">
		<tag k="name" v="Bjerke" />
		<tag k="place" v="isolated_dwelling" />
		<tag k="ssr:stedsnr" v="900627" />
	</node>
	<node lat="61.75576200015405" lon="9.267612256873022" id="-19666">
		<tag k="fixme" v="consider place=hamlet" />
		<tag k="name" v="Åseng" />
		<tag k="old_name" v="Aaseng" />
		<tag k="place" v="farm" />
		<tag k="ssr:stedsnr" v="726978" />
	</node>
	<node lat="61.89374721789412" lon="9.46115555977777" id="-19667">
		<tag k="historic" v="shieling" />
		<tag k="name" v="Nedre Øygardsætre" />
		<tag k="place" v="isolated_dwelling" />
		<tag k="ssr:stedsnr" v="900776" />
	</node>
	<node lat="61.87311388868085" lon="9.363874990705101" id="-19669">
		<tag k="historic" v="shieling" />
		<tag k="name" v="Søre Rosten sætre" />
		<tag k="place" v="isolated_dwelling" />
		<tag k="ssr:stedsnr" v="900900" />
	</node>
	<node lat="61.69384721996793" lon="9.549830560386791" id="-19674">
		<tag k="alt_name" v="Eide, s" />
		<tag k="name" v="Søre Eide" />
		<tag k="place" v="farm" />
		<tag k="ssr:stedsnr" v="738706" />
	</node>
	<node lat="61.707627779429714" lon="9.409369441722658" id="-19675">
		<tag k="alt_name" v="Brenden" />
		<tag k="name" v="Brenna" />
		<tag k="place" v="farm" />
		<tag k="ssr:stedsnr" v="738730" />
	</node>
	<node lat="61.78071666225042" lon="9.486349992104504" id="-19680">
		<tag k="alt_name" v="Josten, nordre" />
		<tag k="name" v="Nordre Josten" />
		<tag k="place" v="farm" />
		<tag k="ssr:stedsnr" v="738862" />
	</node>
	<node lat="61.82452500343032" lon="9.612491674233787" id="-19685">
		<tag k="historic" v="shieling" />
		<tag k="name" v="Kampesætrin" />
		<tag k="place" v="isolated_dwelling" />
		<tag k="ssr:stedsnr" v="739704" />
	</node>
	<node lat="61.83010000106329" lon="9.624297229628237" id="-19686">
		<tag k="historic" v="shieling" />
		<tag k="name" v="Skarven" />
		<tag k="place" v="isolated_dwelling" />
		<tag k="ssr:stedsnr" v="739705" />
	</node>
	<node lat="61.870925002072106" lon="9.627422229643267" id="-19694">
		<tag k="name" v="Uløyhytta" />
		<tag k="place" v="isolated_dwelling" />
		<tag k="ssr:stedsnr" v="936725" />
	</node>
	<node lat="61.66855833372264" lon="9.218266662956538" id="-19697">
		<tag k="name" v="Stubrud" />
		<tag k="place" v="locality" />
		<tag k="ssr:stedsnr" v="777105" />
	</node>
	<node lat="61.76235000041966" lon="9.274936109145946" id="-19702">
		<tag k="name" v="Rudi" />
		<tag k="place" v="farm" />
		<tag k="ssr:stedsnr" v="777611" />
	</node>
	<node lat="61.75307963340166" lon="9.238878697591698" id="-19703">
		<tag k="fixme" v="consider place=hamlet" />
		<tag k="name" v="Holen" />
		<tag k="place" v="farm" />
		<tag k="ssr:stedsnr" v="777615" />
	</node>
	<node lat="61.75194722543245" lon="9.244213888327357" id="-19704">
		<tag k="name" v="Ytre Hagen" />
		<tag k="place" v="farm" />
		<tag k="ssr:stedsnr" v="777616" />
	</node>
	<node lat="61.79503688431383" lon="9.552666508003748" id="-19712">
		<tag k="alt_name" v="Ulvolden" />
		<tag k="fixme" v="consider place=hamlet" />
		<tag k="loc_name" v="Ulvollan" />
		<tag k="name" v="Ulvollen" />
		<tag k="place" v="farm" />
		<tag k="ssr:stedsnr" v="778203" />
	</node>
	<node lat="61.810218583040104" lon="9.692688306995004" id="-19713">
		<tag k="historic" v="shieling" />
		<tag k="name" v="Havnsætre" />
		<tag k="place" v="isolated_dwelling" />
		<tag k="ssr:stedsnr" v="778294" />
	</node>
	<node lat="61.84404166887155" lon="9.456227785404776" id="-19715">
		<tag k="name" v="Bakken" />
		<tag k="place" v="locality" />
		<tag k="ssr:stedsnr" v="778587" />
	</node>
	<node lat="61.68351666771073" lon="9.523863892650201" id="-19716">
		<tag k="name" v="Søre Åmot" />
		<tag k="place" v="farm" />
		<tag k="ssr:stedsnr" v="778720" />
	</node>
	<node lat="61.83498889028513" lon="9.408891672953697" id="-19717">
		<tag k="name" v="Furuset" />
		<tag k="place" v="isolated_dwelling" />
		<tag k="ssr:stedsnr" v="778609" />
	</node>
	<node lat="61.835955554431884" lon="9.390661111256343" id="-19718">
		<tag k="name" v="Dokken" />
		<tag k="place" v="farm" />
		<tag k="ssr:stedsnr" v="778611" />
	</node>
	<node lat="61.83710833503334" lon="9.396375005162362" id="-19719">
		<tag k="name" v="Svarverbakken" />
		<tag k="place" v="farm" />
		<tag k="ssr:stedsnr" v="778613" />
	</node>
	<node lat="61.7683916703495" lon="9.26770277911703" id="-19721">
		<tag k="name" v="Søre Lykkja" />
		<tag k="place" v="farm" />
		<tag k="ssr:stedsnr" v="778656" />
	</node>
	<node lat="61.78783611098129" lon="9.380961117269383" id="-19722">
		<tag k="name" v="Slettmolykkja" />
		<tag k="place" v="isolated_dwelling" />
		<tag k="ssr:stedsnr" v="778657" />
	</node>
	<node lat="61.70456388801575" lon="9.321330551952247" id="-19726">
		<tag k="historic" v="shieling" />
		<tag k="name" v="Sørhaugsætre" />
		<tag k="place" v="isolated_dwelling" />
		<tag k="ssr:stedsnr" v="778975" />
	</node>
	<node lat="61.72817499974098" lon="9.149741662845418" id="-19730">
		<tag k="name" v="Randheim" />
		<tag k="place" v="farm" />
		<tag k="ssr:stedsnr" v="798948" />
	</node>
	<node lat="61.64974444104491" lon="9.232963887548241" id="-19731">
		<tag k="name" v="Solstad" />
		<tag k="place" v="isolated_dwelling" />
		<tag k="ssr:stedsnr" v="799546" />
	</node>
	<node lat="61.75763611099141" lon="9.509716666246309" id="-19733">
		<tag k="historic" v="shieling" />
		<tag k="name" v="Ottbragdsætre" />
		<tag k="place" v="isolated_dwelling" />
		<tag k="ssr:stedsnr" v="799706" />
	</node>
	<node lat="61.719844569335464" lon="9.530540281759476" id="-19735">
		<tag k="fixme" v="consider place=hamlet" />
		<tag k="name" v="Sandbu" />
		<tag k="place" v="farm" />
		<tag k="ssr:stedsnr" v="799710" />
	</node>
	<node lat="61.76097398985947" lon="9.538664298897126" id="-19738">
		<tag k="fixme" v="consider place=hamlet" />
		<tag k="name" v="Bolongen" />
		<tag k="place" v="farm" />
		<tag k="ssr:stedsnr" v="799714" />
	</node>
	<node lat="61.7298055532727" lon="9.550275002336608" id="-19739">
		<tag k="alt_name" v="Mælumslykkja" />
		<tag k="name" v="Lykkja" />
		<tag k="place" v="farm" />
		<tag k="ssr:stedsnr" v="799719" />
	</node>
	<node lat="61.73467500224414" lon="9.533161106136005" id="-19740">
		<tag k="alt_name" v="Bu" />
		<tag k="name" v="Øvre Bu" />
		<tag k="place" v="farm" />
		<tag k="ssr:stedsnr" v="799721" />
	</node>
	<node lat="61.730780559898214" lon="9.36440556011729" id="-19743">
		<tag k="alt_name" v="Audness" />
		<tag k="name" v="Øvdnes" />
		<tag k="place" v="farm" />
		<tag k="ssr:stedsnr" v="799643" />
	</node>
	<node lat="61.73297500030262" lon="9.349858324235147" id="-19744">
		<tag k="name" v="Frikstad" />
		<tag k="place" v="farm" />
		<tag k="ssr:stedsnr" v="799645" />
	</node>
	<node lat="61.82490155716152" lon="9.386261586633022" id="-19747">
		<tag k="fixme" v="multiple name tags, choose one and add the other to alt_name" />
		<tag k="name" v="Søre Ruste;Ruste" />
		<tag k="place" v="farm" />
		<tag k="ssr:stedsnr" v="799789" />
	</node>
	<node lat="61.77967500025259" lon="9.502349999046592" id="-19750">
		<tag k="name" v="Dalelie" />
		<tag k="place" v="farm" />
		<tag k="ssr:stedsnr" v="799841" />
	</node>
	<node lat="61.76563055817143" lon="9.268902783298543" id="-19751">
		<tag k="alt_name" v="Rudi nordre" />
		<tag k="name" v="Rudi" />
		<tag k="place" v="farm" />
		<tag k="ssr:stedsnr" v="799844" />
	</node>
	<node lat="61.84419832186054" lon="9.362393857615826" id="-19754">
		<tag k="fixme" v="consider place=hamlet" />
		<tag k="name" v="Vassplassen" />
		<tag k="place" v="farm" />
		<tag k="ssr:stedsnr" v="800784" />
	</node>
	<node lat="61.72195833425273" lon="9.540483331744959" id="-19763">
		<tag k="name" v="Sandbuvangen" />
		<tag k="place" v="farm" />
		<tag k="ssr:stedsnr" v="920670" />
	</node>
	<node lat="61.75367891297254" lon="9.559301250193071" id="-19764">
		<tag k="fixme" v="multiple name tags, choose one and add the other to alt_name" />
		<tag k="name" v="Næprud;Nedre Næprud" />
		<tag k="place" v="farm" />
		<tag k="ssr:stedsnr" v="920678" />
	</node>
	<node lat="61.65578055150195" lon="9.225683340599971" id="-19766">
		<tag k="name" v="Muruvang" />
		<tag k="place" v="farm" />
		<tag k="ssr:stedsnr" v="920720" />
	</node>
	<node lat="61.783013884766106" lon="9.477294435623731" id="-19769">
		<tag k="alt_name" v="Slåi, søre" />
		<tag k="name" v="Søre Slåen" />
		<tag k="place" v="farm" />
		<tag k="ssr:stedsnr" v="920857" />
	</node>
	<node lat="61.78446111444006" lon="9.236122222275913" id="-19770">
		<tag k="name" v="Skogen" />
		<tag k="place" v="farm" />
		<tag k="ssr:stedsnr" v="920868" />
	</node>
	<node lat="61.80196438525304" lon="9.547983343071127" id="-19771">
		<tag k="fixme" v="consider place=hamlet" />
		<tag k="name" v="Botten" />
		<tag k="place" v="farm" />
		<tag k="ssr:stedsnr" v="920880" />
	</node>
	<node lat="61.82826110857808" lon="9.673491669651364" id="-19779">
		<tag k="name" v="Lurven" />
		<tag k="place" v="isolated_dwelling" />
		<tag k="ssr:stedsnr" v="921717" />
	</node>
	<node lat="61.84243257141618" lon="9.408165858948173" id="-19780">
		<tag k="fixme" v="consider place=hamlet" />
		<tag k="name" v="Ulsvollen" />
		<tag k="place" v="farm" />
		<tag k="ssr:stedsnr" v="921822" />
	</node>
	<node lat="61.89270277562435" lon="9.38714999755474" id="-19784">
		<tag k="alt_name" v="Grønn" />
		<tag k="name" v="Grøn" />
		<tag k="place" v="farm" />
		<tag k="ssr:stedsnr" v="921969" />
	</node>
	<node lat="61.628177774458365" lon="9.294363889984158" id="-19786">
		<tag k="historic" v="shieling" />
		<tag k="name" v="Faukstadseter" />
		<tag k="place" v="isolated_dwelling" />
		<tag k="ssr:stedsnr" v="838076" />
	</node>
	<node lat="61.71924166471003" lon="9.43375278287396" id="-19788">
		<tag k="name" v="Søre Ro" />
		<tag k="place" v="farm" />
		<tag k="ssr:stedsnr" v="838086" />
	</node>
	<node lat="61.775108333672534" lon="9.494269444650845" id="-19790">
		<tag k="name" v="Daleflata" />
		<tag k="place" v="isolated_dwelling" />
		<tag k="ssr:stedsnr" v="838304" />
	</node>
	<node lat="61.75919722053801" lon="9.299802773748029" id="-19792">
		<tag k="name" v="Søre Prestgard" />
		<tag k="place" v="farm" />
		<tag k="ssr:stedsnr" v="838615" />
	</node>
	<node lat="61.75828055841693" lon="9.27688333042486" id="-19793">
		<tag k="name" v="Skogstad" />
		<tag k="place" v="farm" />
		<tag k="ssr:stedsnr" v="838631" />
	</node>
	<node lat="61.737763888807685" lon="9.34687222249274" id="-19795">
		<tag k="name" v="Kamhaugen" />
		<tag k="place" v="farm" />
		<tag k="ssr:stedsnr" v="838831" />
	</node>
	<node lat="61.80764167067841" lon="9.675700002686519" id="-19798">
		<tag k="alt_name" v="Ulvolden seter" />
		<tag k="historic" v="shieling" />
		<tag k="loc_name" v="Ulvollssætre" />
		<tag k="name" v="Ulvoldensætre" />
		<tag k="place" v="isolated_dwelling" />
		<tag k="ssr:stedsnr" v="839132" />
	</node>
	<node lat="61.70801110760258" lon="9.43310832494844" id="-19799">
		<tag k="leisure" v="pitch" />
		<tag k="name" v="Øitun" />
		<tag k="ssr:stedsnr" v="839134" />
	</node>
	<node lat="61.710625003548465" lon="9.425672222268824" id="-19800">
		<tag k="name" v="Søre Faukstad" />
		<tag k="place" v="farm" />
		<tag k="ssr:stedsnr" v="839142" />
	</node>
	<node lat="61.69940833125117" lon="9.453683334024381" id="-19802">
		<tag k="name" v="Nedre Bilben" />
		<tag k="place" v="farm" />
		<tag k="ssr:stedsnr" v="839182" />
	</node>
	<node lat="61.8104564879203" lon="9.692091467454983" id="-19804">
		<tag k="historic" v="shieling" />
		<tag k="name" v="Mosætre" />
		<tag k="place" v="isolated_dwelling" />
		<tag k="ssr:stedsnr" v="839307" />
	</node>
	<node lat="61.784941667583574" lon="9.535061109016608" id="-19807">
		<tag k="name" v="Midtre Lien" />
		<tag k="place" v="isolated_dwelling" />
		<tag k="ssr:stedsnr" v="839512" />
	</node>
	<node lat="61.849569442111616" lon="9.426849995690153" id="-19808">
		<tag k="name" v="Berget" />
		<tag k="place" v="isolated_dwelling" />
		<tag k="ssr:stedsnr" v="839598" />
	</node>
	<node lat="61.83629444765022" lon="9.404397221928217" id="-19809">
		<tag k="name" v="Grindstuen" />
		<tag k="place" v="farm" />
		<tag k="ssr:stedsnr" v="839609" />
	</node>
	<node lat="61.775452778502235" lon="9.46788888907921" id="-19811">
		<tag k="name" v="Søre Myrom" />
		<tag k="place" v="farm" />
		<tag k="ssr:stedsnr" v="839695" />
	</node>
	<node lat="61.71001388874665" lon="9.55684999100463" id="-19812">
		<tag k="name" v="Sigtrudsplassen" />
		<tag k="place" v="isolated_dwelling" />
		<tag k="ssr:stedsnr" v="839914" />
	</node>
	<node lat="61.74404971648366" lon="9.341426314189768" id="-19815">
		<tag k="fixme" v="consider place=hamlet" />
		<tag k="name" v="Ellingsbø" />
		<tag k="place" v="farm" />
		<tag k="ssr:stedsnr" v="859619" />
	</node>
	<node lat="61.74220555477472" lon="9.234175003618283" id="-19816">
		<tag k="name" v="Larsstugu" />
		<tag k="place" v="farm" />
		<tag k="ssr:stedsnr" v="859622" />
	</node>
	<node lat="61.74162222397169" lon="9.22740833480798" id="-19817">
		<tag k="alt_name" v="Skridu, s;Søre Skreden" />
		<tag k="name" v="Søre Skridu" />
		<tag k="place" v="farm" />
		<tag k="ssr:stedsnr" v="859623" />
	</node>
	<node lat="61.699038353376935" lon="9.454394281705353" id="-19820">
		<tag k="alt_name" v="Bilben;Bilben Nedre" />
		<tag k="fixme" v="multiple name tags, choose one and add the other to alt_name" />
		<tag k="name" v="Bilbøn;Nedre Bilben" />
		<tag k="place" v="farm" />
		<tag k="ssr:stedsnr" v="859662" />
	</node>
	<node lat="61.692313891724396" lon="9.476019442138899" id="-19821">
		<tag k="alt_name" v="Kleivi, nordre;Nordre Kleiven" />
		<tag k="name" v="Nordre Kleivi" />
		<tag k="place" v="farm" />
		<tag k="ssr:stedsnr" v="859664" />
	</node>
	<node lat="61.561771475057284" lon="9.21203882673926" id="-19822">
		<tag k="historic" v="shieling" />
		<tag k="loc_name" v="Nysetrin" />
		<tag k="name" v="Nysætrin" />
		<tag k="place" v="isolated_dwelling" />
		<tag k="ssr:stedsnr" v="859804" />
	</node>
	<node lat="61.78667778028552" lon="9.379783337597708" id="-19823">
		<tag k="name" v="Slettmo" />
		<tag k="place" v="farm" />
		<tag k="ssr:stedsnr" v="859814" />
	</node>
	<node lat="61.792766667216576" lon="9.5454861180063" id="-19824">
		<tag k="alt_name" v="Kleivmellom" />
		<tag k="name" v="Søre Kleivmellom" />
		<tag k="place" v="farm" />
		<tag k="ssr:stedsnr" v="859829" />
	</node>
	<node lat="61.65493888966303" lon="9.229944441505348" id="-19825">
		<tag k="name" v="Soleng" />
		<tag k="place" v="farm" />
		<tag k="ssr:stedsnr" v="860557" />
	</node>
	<node lat="61.76174999990793" lon="9.29202500289669" id="-19829">
		<tag k="name" v="Bleka" />
		<tag k="place" v="farm" />
		<tag k="ssr:stedsnr" v="860705" />
	</node>
	<node lat="61.711849998994566" lon="9.434941664591653" id="-19830">
		<tag k="alt_name" v="Horgen" />
		<tag k="name" v="Horgi" />
		<tag k="place" v="farm" />
		<tag k="ssr:stedsnr" v="860709" />
	</node>
	<node lat="61.756750004021605" lon="9.235563892671019" id="-19831">
		<tag k="name" v="Rudningen" />
		<tag k="place" v="farm" />
		<tag k="ssr:stedsnr" v="860710" />
	</node>
	<node lat="61.85743252073422" lon="9.412477981625324" id="-19837">
		<tag k="fixme" v="consider place=hamlet" />
		<tag k="name" v="Brenna" />
		<tag k="place" v="farm" />
		<tag k="ssr:stedsnr" v="860960" />
	</node>
	<node lat="61.853619446156564" lon="9.490038887547259" id="-19838">
		<tag k="name" v="Putten Seter" />
		<tag k="old_name" v="Putten-sæter turisthotell;Puttensæter" />
		<tag k="ssr:stedsnr" v="860967" />
		<tag k="tourism" v="hotel" />
	</node>
	<node lat="61.66310555334329" lon="9.211777778880476" id="-19842">
		<tag k="name" v="Bjørke" />
		<tag k="place" v="farm" />
		<tag k="ssr:stedsnr" v="899104" />
	</node>
	<node lat="61.81650277827485" lon="9.520916665318166" id="-19843">
		<tag k="name" v="Veslenårstad" />
		<tag k="place" v="locality" />
		<tag k="ssr:stedsnr" v="899056" />
	</node>
	<node lat="61.80052221952281" lon="9.558163894231717" id="-19844">
		<tag k="name" v="Britstugu" />
		<tag k="place" v="isolated_dwelling" />
		<tag k="ssr:stedsnr" v="899205" />
	</node>
	<node lat="61.70130833393284" lon="9.423411101940513" id="-19845">
		<tag k="name" v="Slettbrenna" />
		<tag k="place" v="farm" />
		<tag k="ssr:stedsnr" v="899208" />
	</node>
	<node lat="61.790877775932" lon="9.554227772755299" id="-19846">
		<tag k="name" v="Skreddarstugu" />
		<tag k="place" v="farm" />
		<tag k="ssr:stedsnr" v="899209" />
	</node>
	<node lat="61.778836115003706" lon="9.492622231308799" id="-19849">
		<tag k="name" v="Furuheim" />
		<tag k="place" v="isolated_dwelling" />
		<tag k="ssr:stedsnr" v="899269" />
	</node>
	<node lat="61.73077221990392" lon="9.35960000866806" id="-19856">
		<tag k="name" v="Svartholet" />
		<tag k="place" v="farm" />
		<tag k="ssr:stedsnr" v="899489" />
	</node>
	<node lat="61.713016663606254" lon="9.54916945073789" id="-19858">
		<tag k="name" v="Myrvang" />
		<tag k="place" v="isolated_dwelling" />
		<tag k="ssr:stedsnr" v="899624" />
	</node>
	<node lat="61.78190000296787" lon="9.531769449452156" id="-19864">
		<tag k="alt_name" v="Rasmuslien" />
		<tag k="name" v="Søre Lien" />
		<tag k="place" v="farm" />
		<tag k="ssr:stedsnr" v="900520" />
	</node>
	<node lat="61.838372218086626" lon="9.411261118131812" id="-19865">
		<tag k="name" v="Skattem" />
		<tag k="place" v="farm" />
		<tag k="ssr:stedsnr" v="900599" />
	</node>
	<node lat="61.8412722237424" lon="9.4071638832439" id="-19867">
		<tag k="name" v="Saglykkja" />
		<tag k="place" v="isolated_dwelling" />
		<tag k="ssr:stedsnr" v="900622" />
	</node>
	<node lat="61.66250555480936" lon="9.499983326457969" id="-19873">
		<tag k="alt_name" v="Brageliensætre" />
		<tag k="historic" v="shieling" />
		<tag k="name" v="Bråkålisætri" />
		<tag k="place" v="isolated_dwelling" />
		<tag k="ssr:stedsnr" v="920501" />
	</node>
	<node lat="61.706327780207424" lon="9.457177768472862" id="-19874">
		<tag k="name" v="Svingen" />
		<tag k="place" v="farm" />
		<tag k="ssr:stedsnr" v="920706" />
	</node>
	<node lat="61.71566110959824" lon="9.544202773777059" id="-19875">
		<tag k="name" v="Ny-Sandbu" />
		<tag k="place" v="farm" />
		<tag k="ssr:stedsnr" v="920710" />
	</node>
	<node lat="61.71108333255367" lon="9.561033336326735" id="-19876">
		<tag k="alt_name" v="Haugen, s" />
		<tag k="name" v="Søre Haugen" />
		<tag k="place" v="farm" />
		<tag k="ssr:stedsnr" v="920712" />
	</node>
	<node lat="61.70531389232563" lon="9.415466659337243" id="-19877">
		<tag k="alt_name" v="Randen nordre" />
		<tag k="name" v="Randen" />
		<tag k="place" v="farm" />
		<tag k="ssr:stedsnr" v="920717" />
	</node>
	<node lat="61.68728333634437" lon="9.579836109194513" id="-19878">
		<tag k="alt_name" v="Holosetrene" />
		<tag k="historic" v="shieling" />
		<tag k="loc_name" v="Holsætre" />
		<tag k="name" v="Holsætri" />
		<tag k="place" v="isolated_dwelling" />
		<tag k="ssr:stedsnr" v="920740" />
	</node>
	<node lat="61.67474166407113" lon="9.20673888701452" id="-19879">
		<tag k="name" v="Brenna" />
		<tag k="place" v="farm" />
		<tag k="ssr:stedsnr" v="920745" />
	</node>
	<node lat="61.67408611063692" lon="9.181005547291269" id="-19880">
		<tag k="name" v="Gomolbuhaugen" />
		<tag k="place" v="isolated_dwelling" />
		<tag k="ssr:stedsnr" v="920748" />
	</node>
	<node lat="61.811303108527405" lon="9.553044165455988" id="-19881">
		<tag k="fixme" v="consider place=hamlet" />
		<tag k="name" v="Skjena" />
		<tag k="place" v="farm" />
		<tag k="ssr:stedsnr" v="920749" />
	</node>
	<node lat="61.84031620113105" lon="9.389355237379009" id="-19885">
		<tag k="fixme" v="multiple name tags, choose one and add the other to alt_name" />
		<tag k="name" v="Plassen;Brekken" />
		<tag k="place" v="farm" />
		<tag k="ssr:stedsnr" v="920799" />
	</node>
	<node lat="61.83921111322639" lon="9.378500006095482" id="-19886">
		<tag k="name" v="Grotlykkja" />
		<tag k="place" v="isolated_dwelling" />
		<tag k="ssr:stedsnr" v="920801" />
	</node>
	<node lat="61.73634166807706" lon="9.557427780836472" id="-19887">
		<tag k="name" v="Bredevangen" />
		<tag k="place" v="farm" />
		<tag k="ssr:stedsnr" v="920634" />
	</node>
	<node lat="61.78114721942805" lon="9.537086114355596" id="-19889">
		<tag k="alt_name" v="Kleivrud;Kleivrud søre" />
		<tag k="name" v="Søre Kleivrud" />
		<tag k="place" v="farm" />
		<tag k="ssr:stedsnr" v="920846" />
	</node>
	<node lat="61.77242024508121" lon="9.317714292969056" id="-19890">
		<tag k="historic" v="shieling" />
		<tag k="name" v="Hågåsætre" />
		<tag k="place" v="isolated_dwelling" />
		<tag k="ssr:stedsnr" v="920848" />
	</node>
	<node lat="61.773108335043915" lon="9.628208342664669" id="-19892">
		<tag k="alt_name" v="Smukksjølisætre" />
		<tag k="historic" v="shieling" />
		<tag k="name" v="Smukksjølia" />
		<tag k="place" v="isolated_dwelling" />
		<tag k="ssr:stedsnr" v="921585" />
	</node>
	<node lat="61.85636944251462" lon="9.40747777195282" id="-19896">
		<tag k="name" v="Eglum" />
		<tag k="place" v="farm" />
		<tag k="ssr:stedsnr" v="921934" />
	</node>
	<node lat="61.88875555962167" lon="9.392325007382366" id="-19897">
		<tag k="name" v="Rostlykkja" />
		<tag k="place" v="farm" />
		<tag k="ssr:stedsnr" v="921979" />
	</node>
	<node lat="61.695891666974035" lon="9.453544440973705" id="-19900">
		<tag k="name" v="Lysgard" />
		<tag k="place" v="locality" />
		<tag k="ssr:stedsnr" v="959191" />
	</node>
	<node lat="61.608861115230084" lon="9.323161105694258" id="-19901">
		<tag k="historic" v="shieling" />
		<tag k="name" v="Faukstadseter" />
		<tag k="place" v="isolated_dwelling" />
		<tag k="ssr:stedsnr" v="959084" />
	</node>
	<node lat="61.70982222193679" lon="9.323869453834545" id="-19905">
		<tag k="historic" v="shieling" />
		<tag k="name" v="Harehaugsætre" />
		<tag k="place" v="isolated_dwelling" />
		<tag k="ssr:stedsnr" v="959965" />
	</node>
	<node lat="61.84467221789841" lon="9.513258335231587" id="-19906">
		<tag k="historic" v="shieling" />
		<tag k="name" v="Mattisstadsætre" />
		<tag k="place" v="isolated_dwelling" />
		<tag k="ssr:stedsnr" v="960105" />
	</node>
	<node lat="61.76037777477334" lon="9.503963884006128" id="-19913">
		<tag k="name" v="Marcello Haugen-hytta" />
		<tag k="place" v="isolated_dwelling" />
		<tag k="ssr:stedsnr" v="960389" />
	</node>
	<node lat="61.70498333233694" lon="9.475030560112074" id="-19914">
		<tag k="historic" v="shieling" />
		<tag k="name" v="Grotesætrene" />
		<tag k="place" v="isolated_dwelling" />
		<tag k="ssr:stedsnr" v="960539" />
	</node>
	<node lat="61.70134444657401" lon="9.521077771442583" id="-19916">
		<tag k="historic" v="shieling" />
		<tag k="name" v="Reslykkjesætre" />
		<tag k="place" v="isolated_dwelling" />
		<tag k="ssr:stedsnr" v="960549" />
	</node>
	<node lat="61.83628889061765" lon="9.406655559438303" id="-19917">
		<tag k="name" v="Midtli" />
		<tag k="place" v="farm" />
		<tag k="ssr:stedsnr" v="960589" />
	</node>
	<node lat="61.68479444576589" lon="9.48586388563674" id="-19919">
		<tag k="name" v="Nordre Øygarden" />
		<tag k="place" v="isolated_dwelling" />
		<tag k="ssr:stedsnr" v="960704" />
	</node>
	<node lat="61.68718611121561" lon="9.476388880326503" id="-19920">
		<tag k="name" v="Morkastugu" />
		<tag k="place" v="locality" />
		<tag k="ssr:stedsnr" v="960707" />
	</node>
	<node lat="61.90101944253607" lon="9.456044451299187" id="-19922">
		<tag k="historic" v="shieling" />
		<tag k="name" v="Juvsholsætre" />
		<tag k="place" v="isolated_dwelling" />
		<tag k="ssr:stedsnr" v="960736" />
	</node>
	<node lat="61.89684166278235" lon="9.46358332905847" id="-19923">
		<tag k="historic" v="shieling" />
		<tag k="name" v="Skåråsætre" />
		<tag k="place" v="isolated_dwelling" />
		<tag k="ssr:stedsnr" v="960737" />
	</node>
	<node lat="61.73360277680961" lon="9.555166671804027" id="-19925">
		<tag k="amenity" v="nursing_home" />
		<tag k="name" v="Sel sjukeheim" />
		<tag k="ssr:stedsnr" v="960909" />
	</node>
	<node lat="61.67031111496077" lon="9.551491669442527" id="-19926">
		<tag k="name" v="Gammelkolo" />
		<tag k="place" v="locality" />
		<tag k="ssr:stedsnr" v="960836" />
	</node>
	<node lat="61.74723021171724" lon="9.157689958895766" id="-19928">
		<tag k="name" v="Lusæter" />
		<tag k="place" v="neighbourhood" />
		<tag k="ssr:stedsnr" v="981750" />
	</node>
	<node lat="61.75284471058958" lon="9.312017031543057" id="-19929">
		<tag k="name" v="Harildstadmoen" />
		<tag k="place" v="quarter" />
		<tag k="ssr:stedsnr" v="981751" />
	</node>
	<node lat="61.78339785445667" lon="9.54942547843866" id="-19930">
		<tag k="name" v="Bekken" />
		<tag k="place" v="quarter" />
		<tag k="ssr:stedsnr" v="981752" />
	</node>
	<node lat="61.86883363779037" lon="9.495310329663795" id="-19932">
		<tag k="name" v="Lauvhaugane" />
		<tag k="place" v="neighbourhood" />
		<tag k="ssr:stedsnr" v="981756" />
	</node>
	<node lat="61.7553490705033" lon="9.315874765842793" id="-19934">
		<tag k="alt_name" v="Harildstad søre" />
		<tag k="name" v="Søre Harildstad" />
		<tag k="place" v="farm" />
		<tag k="ssr:stedsnr" v="982669" />
	</node>
	<node lat="61.75960619324149" lon="9.296368126392222" id="-19935">
		<tag k="alt_name" v="Prestgard nordre" />
		<tag k="name" v="Nørdre Prestgard" />
		<tag k="place" v="farm" />
		<tag k="ssr:stedsnr" v="982672" />
	</node>
	<node lat="61.66416802501745" lon="9.214980279318304" id="-19936">
		<tag k="fixme" v="consider place=hamlet" />
		<tag k="name" v="Mæringsdalen" />
		<tag k="place" v="farm" />
		<tag k="ssr:stedsnr" v="984713" />
	</node>
	<node lat="61.794696720234846" lon="9.44467545382388" id="-19937">
		<tag k="fixme" v="consider place=hamlet" />
		<tag k="name" v="Åsåren" />
		<tag k="place" v="farm" />
		<tag k="ssr:stedsnr" v="984864" />
	</node>
	<node lat="61.78331978046244" lon="9.541144916440956" id="-19938">
		<tag k="name" v="Kleivrud" />
		<tag k="place" v="hamlet" />
		<tag k="ssr:stedsnr" v="984866" />
	</node>
	<node lat="61.74895748880679" lon="9.535413249606492" id="-19939">
		<tag k="fixme" v="consider place=hamlet" />
		<tag k="name" v="Einangen" />
		<tag k="place" v="farm" />
		<tag k="ssr:stedsnr" v="984830" />
	</node>
	<node lat="61.75817827575298" lon="9.530844710217217" id="-19940">
		<tag k="fixme" v="consider place=hamlet" />
		<tag k="name" v="Endrestad" />
		<tag k="place" v="farm" />
		<tag k="ssr:stedsnr" v="984831" />
	</node>
	<node lat="61.765225745974384" lon="9.531762619997494" id="-19941">
		<tag k="fixme" v="consider place=hamlet" />
		<tag k="name" v="Hjellum" />
		<tag k="place" v="farm" />
		<tag k="ssr:stedsnr" v="984858" />
	</node>
	<node lat="61.822557030616636" lon="9.504665047875614" id="-19942">
		<tag k="fixme" v="consider place=hamlet" />
		<tag k="name" v="Rudi" />
		<tag k="place" v="farm" />
		<tag k="ssr:stedsnr" v="984980" />
	</node>
	<node lat="61.887853915895406" lon="9.393736834476949" id="-19943">
		<tag k="name" v="Rosti" />
		<tag k="place" v="hamlet" />
		<tag k="ssr:stedsnr" v="984981" />
	</node>
	<node lat="61.84407435824625" lon="9.42441579646397" id="-19944">
		<tag k="name" v="Olstad" />
		<tag k="place" v="hamlet" />
		<tag k="ssr:stedsnr" v="984982" />
	</node>
	<node lat="61.84028222774262" lon="9.39178716299508" id="-19945">
		<tag k="fixme" v="consider place=hamlet" />
		<tag k="name" v="Brekken" />
		<tag k="place" v="farm" />
		<tag k="ssr:stedsnr" v="984984" />
	</node>
	<node lat="61.84088859668343" lon="9.381045882541862" id="-19946">
		<tag k="fixme" v="consider place=hamlet" />
		<tag k="name" v="Grote" />
		<tag k="place" v="farm" />
		<tag k="ssr:stedsnr" v="984986" />
	</node>
	<node lat="61.77556492234854" lon="9.55893960953437" id="-19947">
		<tag k="fixme" v="consider place=hamlet" />
		<tag k="name" v="Rusten" />
		<tag k="place" v="farm" />
		<tag k="ssr:stedsnr" v="984931" />
	</node>
	<node lat="61.79338621804107" lon="9.59860544689502" id="-19948">
		<tag k="historic" v="shieling" />
		<tag k="name" v="Raphamn" />
		<tag k="place" v="isolated_dwelling" />
		<tag k="ssr:stedsnr" v="984935" />
	</node>
	<node lat="61.799641582655205" lon="9.55245323776165" id="-19949">
		<tag k="fixme" v="consider place=hamlet" />
		<tag k="name" v="Stampen" />
		<tag k="place" v="farm" />
		<tag k="ssr:stedsnr" v="984942" />
	</node>
	<node lat="61.79254712272533" lon="9.544010703727258" id="-19950">
		<tag k="fixme" v="consider place=hamlet" />
		<tag k="name" v="Kleivmellom" />
		<tag k="place" v="farm" />
		<tag k="ssr:stedsnr" v="984979" />
	</node>
	<node lat="61.77549780205501" lon="9.538776983731276" id="-19952">
		<tag k="name" v="Øya industriområde" />
		<tag k="place" v="quarter" />
		<tag k="ssr:stedsnr" v="987366" />
	</node>
	<node lat="61.745036107720324" lon="9.197874996065298" id="-19953">
		<tag k="name" v="Nyhus" />
		<tag k="place" v="farm" />
		<tag k="ssr:stedsnr" v="10959" />
	</node>
	<node lat="61.7315250026994" lon="9.11729999955001" id="-19954">
		<tag k="alt_name" v="Hammersætre" />
		<tag k="name" v="Hamarsætri" />
		<tag k="place" v="farm" />
		<tag k="ssr:stedsnr" v="10963" />
	</node>
	<node lat="61.73768611519105" lon="9.160480554324621" id="-19955">
		<tag k="name" v="Venåsen" />
		<tag k="place" v="farm" />
		<tag k="ssr:stedsnr" v="10968" />
	</node>
	<node lat="61.75647221841069" lon="9.151699991175542" id="-19956">
		<tag k="name" v="Grønstulen" />
		<tag k="place" v="isolated_dwelling" />
		<tag k="ssr:stedsnr" v="10400" />
	</node>
	<node lat="61.74954444485106" lon="9.536613887203378" id="-19958">
		<tag k="alt_name" v="Einangen nordre;Nordre Einangen" />
		<tag k="name" v="Einangen" />
		<tag k="place" v="farm" />
		<tag k="ssr:stedsnr" v="10673" />
	</node>
	<node lat="61.779577780930474" lon="9.673450007395896" id="-19961">
		<tag k="historic" v="shieling" />
		<tag k="name" v="Vålåsjøsætrin" />
		<tag k="place" v="isolated_dwelling" />
		<tag k="ssr:stedsnr" v="10515" />
	</node>
	<node lat="61.76293966864551" lon="9.4262438173157" id="-19964">
		<tag k="historic" v="shieling" />
		<tag k="name" v="Veggemsætre" />
		<tag k="place" v="isolated_dwelling" />
		<tag k="ssr:stedsnr" v="10684" />
	</node>
	<node lat="61.76032222643774" lon="9.547202781462524" id="-19965">
		<tag k="alt_name" v="Kringen søre" />
		<tag k="name" v="Kringen" />
		<tag k="place" v="farm" />
		<tag k="ssr:stedsnr" v="10697" />
	</node>
	<node lat="61.76305833616863" lon="9.442569444952424" id="-19968">
		<tag k="historic" v="shieling" />
		<tag k="name" v="Veggemslykkjesætre" />
		<tag k="place" v="isolated_dwelling" />
		<tag k="ssr:stedsnr" v="10824" />
	</node>
	<node lat="61.79261388930375" lon="9.453666663961288" id="-19970">
		<tag k="name" v="Søre Åsåren" />
		<tag k="place" v="farm" />
		<tag k="ssr:stedsnr" v="10852" />
	</node>
	<node lat="61.79942222463164" lon="9.471216667336746" id="-19972">
		<tag k="historic" v="shieling" />
		<tag k="name" v="Åsårmosætre" />
		<tag k="place" v="isolated_dwelling" />
		<tag k="ssr:stedsnr" v="10872" />
	</node>
	<node lat="61.80355965755939" lon="9.561868099525531" id="-19973">
		<tag k="fixme" v="consider place=hamlet" />
		<tag k="name" v="Rukin" />
		<tag k="place" v="farm" />
		<tag k="ssr:stedsnr" v="10873" />
	</node>
	<node lat="61.71998333464327" lon="9.455224997573568" id="-19980">
		<tag k="historic" v="shieling" />
		<tag k="name" v="Hjellesætre" />
		<tag k="place" v="isolated_dwelling" />
		<tag k="ssr:stedsnr" v="49084" />
	</node>
	<node lat="61.665747224928225" lon="9.196122228436062" id="-19981">
		<tag k="name" v="Vangene" />
		<tag k="place" v="farm" />
		<tag k="ssr:stedsnr" v="49170" />
	</node>
	<node lat="61.75459444666081" lon="9.64091943941364" id="-19982">
		<tag k="historic" v="shieling" />
		<tag k="name" v="Vangenseter" />
		<tag k="place" v="isolated_dwelling" />
		<tag k="ssr:stedsnr" v="49187" />
	</node>
	<node lat="61.675872220676865" lon="9.192741659374093" id="-19985">
		<tag k="name" v="Heringstadbua" />
		<tag k="place" v="isolated_dwelling" />
		<tag k="ssr:stedsnr" v="49123" />
	</node>
	<node lat="61.69632222439536" lon="9.397694447992395" id="-19988">
		<tag k="historic" v="shieling" />
		<tag k="name" v="Søre Randen sætre" />
		<tag k="place" v="isolated_dwelling" />
		<tag k="ssr:stedsnr" v="49290" />
	</node>
	<node lat="61.77416360315566" lon="9.511855029115631" id="-19989">
		<tag k="name" v="Nedre Dale" />
		<tag k="place" v="farm" />
		<tag k="ssr:stedsnr" v="49296" />
	</node>
	<node lat="61.82398889336565" lon="9.38288888139884" id="-19992">
		<tag k="historic" v="shieling" />
		<tag k="name" v="Nordre Ruste" />
		<tag k="place" v="isolated_dwelling" />
		<tag k="ssr:stedsnr" v="49551" />
	</node>
	<node lat="61.739713890009156" lon="9.352780560308108" id="-19995">
		<tag k="name" v="Klukkhaugen" />
		<tag k="place" v="farm" />
		<tag k="ssr:stedsnr" v="49803" />
	</node>
	<node lat="61.7494972207488" lon="9.290316661126349" id="-19997">
		<tag k="name" v="Lyen" />
		<tag k="place" v="farm" />
		<tag k="ssr:stedsnr" v="49647" />
	</node>
	<node lat="61.7582638869072" lon="9.23558332396766" id="-19998">
		<tag k="name" v="Nylykkja" />
		<tag k="place" v="farm" />
		<tag k="ssr:stedsnr" v="49649" />
	</node>
	<node lat="61.75590555458002" lon="9.264013880432044" id="-19999">
		<tag k="alt_name" v="Åseng midtre" />
		<tag k="name" v="Midtre Åseng" />
		<tag k="old_name" v="Nedre Åseng;Aaseng søndre;Aaseng nedre;Søre Åseng" />
		<tag k="place" v="farm" />
		<tag k="ssr:stedsnr" v="49653" />
	</node>
	<node lat="61.80480833503406" lon="9.437475001307106" id="-20001">
		<tag k="historic" v="shieling" />
		<tag k="name" v="Åsheim" />
		<tag k="place" v="isolated_dwelling" />
		<tag k="ssr:stedsnr" v="49749" />
	</node>
	<node lat="61.763263891397344" lon="9.608247225118232" id="-20003">
		<tag k="historic" v="shieling" />
		<tag k="name" v="Neprudsætre" />
		<tag k="place" v="isolated_dwelling" />
		<tag k="ssr:stedsnr" v="50097" />
	</node>
	<node lat="61.85100277708683" lon="9.495102778188622" id="-20004">
		<tag k="historic" v="shieling" />
		<tag k="name" v="Nårstadsætre" />
		<tag k="place" v="isolated_dwelling" />
		<tag k="ssr:stedsnr" v="50099" />
	</node>
	<node lat="61.785622218185466" lon="9.515247220144708" id="-20008">
		<tag k="historic" v="shieling" />
		<tag k="name" v="Steinbu" />
		<tag k="place" v="isolated_dwelling" />
		<tag k="ssr:stedsnr" v="50251" />
	</node>
	<node lat="61.77899167099402" lon="9.676258325370444" id="-20010">
		<tag k="historic" v="shieling" />
		<tag k="name" v="Blekastadsætre" />
		<tag k="place" v="isolated_dwelling" />
		<tag k="ssr:stedsnr" v="50179" />
	</node>
	<node lat="61.802874999337305" lon="9.560372231160969" id="-20012">
		<tag k="name" v="Barhaugen" />
		<tag k="place" v="farm" />
		<tag k="ssr:stedsnr" v="50196" />
	</node>
	<node lat="61.75761388563295" lon="9.532838885586994" id="-20015">
		<tag k="name" v="Søre Endrestad" />
		<tag k="place" v="farm" />
		<tag k="ssr:stedsnr" v="50397" />
	</node>
	<node lat="61.70582222629923" lon="9.475683336500971" id="-20016">
		<tag k="historic" v="shieling" />
		<tag k="name" v="Øyensætrene" />
		<tag k="place" v="isolated_dwelling" />
		<tag k="ssr:stedsnr" v="50496" />
	</node>
	<node lat="61.707261110239614" lon="9.475222215119297" id="-20017">
		<tag k="historic" v="shieling" />
		<tag k="name" v="Espesætrene" />
		<tag k="place" v="isolated_dwelling" />
		<tag k="ssr:stedsnr" v="50498" />
	</node>
	<node lat="61.834869442085385" lon="9.399527784324436" id="-20018">
		<tag k="name" v="Berg" />
		<tag k="place" v="isolated_dwelling" />
		<tag k="ssr:stedsnr" v="50578" />
	</node>
	<node lat="61.83875278095738" lon="9.386061109892934" id="-20019">
		<tag k="name" v="Søre Stubbhaugen" />
		<tag k="place" v="isolated_dwelling" />
		<tag k="ssr:stedsnr" v="50590" />
	</node>
	<node lat="61.759327774488916" lon="9.467647214642517" id="-20020">
		<tag k="historic" v="shieling" />
		<tag k="name" v="Nedre Tosætre" />
		<tag k="place" v="isolated_dwelling" />
		<tag k="ssr:stedsnr" v="50598" />
	</node>
	<node lat="61.78140277421518" lon="9.539672215935092" id="-20022">
		<tag k="name" v="Midtre Kleivrud" />
		<tag k="place" v="farm" />
		<tag k="ssr:stedsnr" v="50440" />
	</node>
</osm>
