<?xml version="1.0" encoding="UTF-8"?>
<osm version="0.6" generator="osmapis">
	<node lat="61.815466663400535" lon="9.531047220663275" id="-31896">
		<tag k="name" v="Flata" />
		<tag k="place" v="locality" />
		<tag k="ssr:stedsnr" v="231046" />
	</node>
	<node lat="61.82057777416438" lon="9.522944439546967" id="-31899">
		<tag k="name" v="Øygardskringla" />
		<tag k="place" v="locality" />
		<tag k="ssr:stedsnr" v="231059" />
	</node>
	<node lat="61.82600277885734" lon="9.514738886828948" id="-31901">
		<tag k="name" v="Brekkegjeldmyra" />
		<tag k="place" v="locality" />
		<tag k="ssr:stedsnr" v="231074" />
	</node>
	<node lat="61.74440278127322" lon="9.37233332966432" id="-31907">
		<tag k="name" v="Flåtskogen" />
		<tag k="place" v="locality" />
		<tag k="ssr:stedsnr" v="231569" />
	</node>
	<node lat="61.75891666700811" lon="9.255919445361295" id="-31911">
		<tag k="name" v="Kvernhusslettin" />
		<tag k="place" v="locality" />
		<tag k="ssr:stedsnr" v="231670" />
	</node>
	<node lat="61.81518333469002" lon="9.54585277620707" id="-31929">
		<tag k="name" v="Selsvollane" />
		<tag k="place" v="locality" />
		<tag k="ssr:stedsnr" v="232055" />
	</node>
	<node lat="61.67548611070649" lon="9.540905550636614" id="-31953">
		<tag k="name" v="Øia" />
		<tag k="place" v="locality" />
		<tag k="ssr:stedsnr" v="232599" />
	</node>
	<node lat="61.671938892925496" lon="9.555094439291556" id="-31954">
		<tag k="name" v="Imbertlykkja" />
		<tag k="old_name" v="Imberlykkja" />
		<tag k="place" v="locality" />
		<tag k="ssr:stedsnr" v="232848" />
	</node>
	<node lat="61.89419167106027" lon="9.400000004132258" id="-31957">
		<tag k="name" v="Svartskogen" />
		<tag k="place" v="locality" />
		<tag k="ssr:stedsnr" v="232975" />
	</node>
	<node lat="61.835702774236026" lon="9.487205559178234" id="-31970">
		<tag k="name" v="Mattislykkja" />
		<tag k="place" v="locality" />
		<tag k="ssr:stedsnr" v="50115" />
	</node>
	<node lat="61.73382777468" lon="9.412980564034108" id="-31978">
		<tag k="name" v="Risbråtåen" />
		<tag k="place" v="locality" />
		<tag k="ssr:stedsnr" v="50423" />
	</node>
	<node lat="61.59133333627143" lon="9.181172213037922" id="-31991">
		<tag k="name" v="Lokkesteikja" />
		<tag k="natural" v="stone" />
		<tag k="ssr:stedsnr" v="70802" />
	</node>
	<node lat="61.68753889079827" lon="9.552200003447098" id="-32020">
		<tag k="name" v="Øverlendet" />
		<tag k="place" v="locality" />
		<tag k="ssr:stedsnr" v="110814" />
	</node>
	<node lat="61.78041944659882" lon="9.568683336110965" id="-32024">
		<tag k="name" v="Nikolaussøla" />
		<tag k="natural" v="wetland" />
		<tag k="ssr:stedsnr" v="111085" />
	</node>
	<node lat="61.75335000344363" lon="9.514144436818025" id="-32027">
		<tag k="historic" v="shieling" />
		<tag k="name" v="Skolten" />
		<tag k="place" v="locality" />
		<tag k="ssr:stedsnr" v="111371" />
	</node>
	<node lat="61.7411777804096" lon="9.489658327597246" id="-32031">
		<tag k="name" v="Finnstulane" />
		<tag k="place" v="locality" />
		<tag k="ssr:stedsnr" v="111571" />
	</node>
	<node lat="61.66957221995507" lon="9.548277787045222" id="-32038">
		<tag k="name" v="Flata" />
		<tag k="place" v="locality" />
		<tag k="ssr:stedsnr" v="111619" />
	</node>
	<node lat="61.771000003428405" lon="9.56471111330949" id="-32096">
		<tag k="landuse" v="quarry" />
		<tag k="name" v="Rustgruvun" />
		<tag k="ssr:stedsnr" v="143793" />
	</node>
	<node lat="61.834372226091986" lon="9.478711103401723" id="-32109">
		<tag k="name" v="Vollen" />
		<tag k="place" v="locality" />
		<tag k="ssr:stedsnr" v="171104" />
	</node>
	<node lat="61.80219166826548" lon="9.60587222175711" id="-32112">
		<tag k="name" v="Breiskriu" />
		<tag k="place" v="locality" />
		<tag k="ssr:stedsnr" v="171166" />
	</node>
	<node lat="61.78697222506976" lon="9.523686102487417" id="-32118">
		<tag k="name" v="Brånåen" />
		<tag k="place" v="locality" />
		<tag k="ssr:stedsnr" v="171522" />
	</node>
	<node lat="61.81753055764168" lon="9.529150000287418" id="-32132">
		<tag k="name" v="Langkjørre" />
		<tag k="place" v="locality" />
		<tag k="ssr:stedsnr" v="231097" />
	</node>
	<node lat="61.731224996047295" lon="9.372630556306387" id="-32142">
		<tag k="name" v="Midtekre" />
		<tag k="place" v="locality" />
		<tag k="ssr:stedsnr" v="231551" />
	</node>
	<node lat="61.739799996661006" lon="9.59240278325297" id="-32144">
		<tag k="name" v="Slettemyrene" />
		<tag k="natural" v="wetland" />
		<tag k="ssr:stedsnr" v="232029" />
	</node>
	<node lat="61.7027722223238" lon="9.43510555687137" id="-32147">
		<tag k="name" v="Fenasletten" />
		<tag k="place" v="locality" />
		<tag k="ssr:stedsnr" v="232143" />
	</node>
	<node lat="61.79570000155166" lon="9.615436108986993" id="-32148">
		<tag k="landuse" v="meadow" />
		<tag k="name" v="Smigrasdekken" />
		<tag k="ssr:stedsnr" v="232184" />
	</node>
	<node lat="61.66135833708118" lon="9.50079445202791" id="-32151">
		<tag k="historic" v="shieling" />
		<tag k="name" v="Brunnhaugsætra" />
		<tag k="place" v="locality" />
		<tag k="ssr:stedsnr" v="232612" />
	</node>
	<node lat="61.902805554917165" lon="9.47204999621103" id="-32154">
		<tag k="historic" v="shieling" />
		<tag k="name" v="Lomsætrin" />
		<tag k="place" v="locality" />
		<tag k="ssr:stedsnr" v="232728" />
	</node>
	<node lat="61.78964166992077" lon="9.43528888364528" id="-32201">
		<tag k="landuse" v="quarry" />
		<tag k="name" v="Åsårgruva" />
		<tag k="ssr:stedsnr" v="292510" />
	</node>
	<node lat="61.774677775466664" lon="9.56804722455053" id="-32210">
		<tag k="name" v="Steinjenta" />
		<tag k="natural" v="stone" />
		<tag k="ssr:stedsnr" v="293185" />
	</node>
	<node lat="61.80280555497569" lon="9.573497214495037" id="-32211">
		<tag k="name" v="Gammellie" />
		<tag k="place" v="locality" />
		<tag k="ssr:stedsnr" v="293193" />
	</node>
	<node lat="61.73937222026177" lon="9.305091675802501" id="-32239">
		<tag k="name" v="Veslerusten" />
		<tag k="place" v="locality" />
		<tag k="ssr:stedsnr" v="473818" />
	</node>
	<node lat="61.708811113463575" lon="9.453705553480274" id="-32249">
		<tag k="name" v="Vesleslette" />
		<tag k="place" v="locality" />
		<tag k="ssr:stedsnr" v="474079" />
	</node>
	<node lat="61.68469999838746" lon="9.52494722164151" id="-32294">
		<tag k="name" v="Olderrusten" />
		<tag k="place" v="locality" />
		<tag k="ssr:stedsnr" v="474749" />
	</node>
	<node lat="61.68337500366272" lon="9.508197225540602" id="-32295">
		<tag k="name" v="Amerikalykkja" />
		<tag k="place" v="locality" />
		<tag k="ssr:stedsnr" v="474751" />
	</node>
	<node lat="61.72906111094766" lon="9.222522230242113" id="-32353">
		<tag k="name" v="Stordokken" />
		<tag k="place" v="locality" />
		<tag k="ssr:stedsnr" v="413200" />
	</node>
	<node lat="61.73324444724302" lon="9.416763883242341" id="-32366">
		<tag k="name" v="Hisbråtåen" />
		<tag k="place" v="locality" />
		<tag k="ssr:stedsnr" v="414337" />
	</node>
	<node lat="61.783416665941154" lon="9.524563886985922" id="-32368">
		<tag k="name" v="Dyrstigen" />
		<tag k="place" v="locality" />
		<tag k="ssr:stedsnr" v="414493" />
	</node>
	<node lat="61.68332222643321" lon="9.535286104776054" id="-32373">
		<tag k="name" v="Kolstugubakkane" />
		<tag k="place" v="locality" />
		<tag k="ssr:stedsnr" v="414710" />
	</node>
	<node lat="61.829566667629976" lon="9.49913333728031" id="-32393">
		<tag k="name" v="Formosundet" />
		<tag k="place" v="locality" />
		<tag k="ssr:stedsnr" v="473009" />
	</node>
	<node lat="61.801569448435046" lon="9.517730553514294" id="-32395">
		<tag k="historic" v="shieling" />
		<tag k="name" v="Grønstulen" />
		<tag k="place" v="locality" />
		<tag k="ssr:stedsnr" v="473017" />
	</node>
	<node lat="61.72287777581312" lon="9.19600555424584" id="-32400">
		<tag k="name" v="Vakkerruste" />
		<tag k="place" v="locality" />
		<tag k="ssr:stedsnr" v="473261" />
	</node>
	<node lat="61.83147499792427" lon="9.513077786132841" id="-32404">
		<tag k="name" v="Hågålykkja" />
		<tag k="place" v="locality" />
		<tag k="ssr:stedsnr" v="474104" />
	</node>
	<node lat="61.83345277516883" lon="9.50246388075819" id="-32405">
		<tag k="name" v="Eldhusbakken" />
		<tag k="place" v="locality" />
		<tag k="ssr:stedsnr" v="474107" />
	</node>
	<node lat="61.83448889023257" lon="9.494394437768243" id="-32406">
		<tag k="name" v="Gurienget" />
		<tag k="place" v="locality" />
		<tag k="ssr:stedsnr" v="474110" />
	</node>
	<node lat="61.78664722008102" lon="9.401450000126015" id="-32415">
		<tag k="name" v="Grandokkje" />
		<tag k="place" v="locality" />
		<tag k="ssr:stedsnr" v="474674" />
	</node>
	<node lat="61.81599166991212" lon="9.539111115913943" id="-32418">
		<tag k="name" v="Nyenget" />
		<tag k="place" v="locality" />
		<tag k="ssr:stedsnr" v="475069" />
	</node>
	<node lat="61.60772500169115" lon="9.244580555386149" id="-32442">
		<tag k="name" v="Hæringstadmyrin" />
		<tag k="natural" v="wetland" />
		<tag k="ssr:stedsnr" v="678549" />
	</node>
	<node lat="61.75113888803264" lon="9.657911114138098" id="-32484">
		<tag k="name" v="Hessmarka" />
		<tag k="place" v="locality" />
		<tag k="ssr:stedsnr" v="534215" />
	</node>
	<node lat="61.73676944184185" lon="9.386755550251035" id="-32486">
		<tag k="name" v="Kolbotn" />
		<tag k="place" v="locality" />
		<tag k="ssr:stedsnr" v="534503" />
	</node>
	<node lat="61.81790277802258" lon="9.57183333493811" id="-32496">
		<tag k="name" v="Tiurleikmyra" />
		<tag k="natural" v="wetland" />
		<tag k="ssr:stedsnr" v="535207" />
	</node>
	<node lat="61.664175003558256" lon="9.356388891973802" id="-32512">
		<tag k="name" v="Gammelbumyrin" />
		<tag k="natural" v="wetland" />
		<tag k="ssr:stedsnr" v="555698" />
	</node>
	<node lat="61.70962777522125" lon="9.393080563038037" id="-32535">
		<tag k="name" v="Skriuslette" />
		<tag k="place" v="locality" />
		<tag k="ssr:stedsnr" v="595011" />
	</node>
	<node lat="61.68515833152193" lon="9.211080549417513" id="-32542">
		<tag k="name" v="Granskogmyrene" />
		<tag k="natural" v="wetland" />
		<tag k="ssr:stedsnr" v="595105" />
	</node>
	<node lat="61.81452778019138" lon="9.580116670288072" id="-32553">
		<tag k="name" v="Kjerringrismyra" />
		<tag k="natural" v="wetland" />
		<tag k="ssr:stedsnr" v="596207" />
	</node>
	<node lat="61.726480555909255" lon="9.408100001763579" id="-32560">
		<tag k="name" v="Imbertlykkja" />
		<tag k="place" v="locality" />
		<tag k="ssr:stedsnr" v="596414" />
	</node>
	<node lat="61.76514999630401" lon="9.448361102258273" id="-32563">
		<tag k="historic" v="shieling" />
		<tag k="name" v="Øvre Myromsætre" />
		<tag k="place" v="locality" />
		<tag k="ssr:stedsnr" v="596607" />
	</node>
	<node lat="61.71321666259638" lon="9.45758334250967" id="-32599">
		<tag k="name" v="Tjukkgraset" />
		<tag k="place" v="locality" />
		<tag k="ssr:stedsnr" v="655085" />
	</node>
	<node lat="61.81090277994707" lon="9.616577770915951" id="-32604">
		<tag k="name" v="Brudalen" />
		<tag k="place" v="locality" />
		<tag k="ssr:stedsnr" v="656214" />
	</node>
	<node lat="61.764073644400874" lon="9.446649942991746" id="-32627">
		<tag k="historic" v="shieling" />
		<tag k="name" v="Rondasætre" />
		<tag k="place" v="locality" />
		<tag k="ssr:stedsnr" v="677826" />
	</node>
	<node lat="61.67490555210372" lon="9.259925003219031" id="-32632">
		<tag k="name" v="Stålmyrin" />
		<tag k="natural" v="wetland" />
		<tag k="ssr:stedsnr" v="677739" />
	</node>
	<node lat="61.707113893354126" lon="9.400561104410727" id="-32652">
		<tag k="name" v="Øvre Flåtåsletta" />
		<tag k="place" v="locality" />
		<tag k="ssr:stedsnr" v="716005" />
	</node>
	<node lat="61.65610555334196" lon="9.258436109161211" id="-32653">
		<tag k="name" v="Stakstomyrene" />
		<tag k="natural" v="wetland" />
		<tag k="ssr:stedsnr" v="716074" />
	</node>
	<node lat="61.71046944349726" lon="9.397286104343687" id="-32660">
		<tag k="name" v="Drågen" />
		<tag k="place" v="locality" />
		<tag k="ssr:stedsnr" v="899023" />
	</node>
	<node lat="61.71324722369386" lon="9.444158337903817" id="-32675">
		<tag k="name" v="Torlykkja" />
		<tag k="place" v="locality" />
		<tag k="ssr:stedsnr" v="899096" />
	</node>
	<node lat="61.748038889574545" lon="9.505077774991557" id="-32693">
		<tag k="name" v="Endrestadmyra" />
		<tag k="natural" v="wetland" />
		<tag k="ssr:stedsnr" v="899394" />
	</node>
	<node lat="61.90174166981275" lon="9.432097229192275" id="-32709">
		<tag k="alt_name" v="Vardamorkja" />
		<tag k="name" v="Valamorkje" />
		<tag k="place" v="locality" />
		<tag k="ssr:stedsnr" v="899996" />
	</node>
	<node lat="61.803680556268574" lon="9.578205561561168" id="-32712">
		<tag k="name" v="Larslykkja" />
		<tag k="place" v="locality" />
		<tag k="ssr:stedsnr" v="900177" />
	</node>
	<node lat="61.76881388575914" lon="9.528694437545456" id="-32715">
		<tag k="name" v="Klyphaugane" />
		<tag k="place" v="locality" />
		<tag k="ssr:stedsnr" v="900487" />
	</node>
	<node lat="61.70275000156922" lon="9.399661105727299" id="-32749">
		<tag k="name" v="Reistbakken" />
		<tag k="place" v="locality" />
		<tag k="ssr:stedsnr" v="777006" />
	</node>
	<node lat="61.82298611208996" lon="9.52709445358876" id="-32754">
		<tag k="name" v="Laurgardsvollen" />
		<tag k="place" v="locality" />
		<tag k="ssr:stedsnr" v="777061" />
	</node>
	<node lat="61.81987222272867" lon="9.530263894955198" id="-32755">
		<tag k="name" v="Lauvland" />
		<tag k="place" v="locality" />
		<tag k="ssr:stedsnr" v="777064" />
	</node>
	<node lat="61.71607222149204" lon="9.600894439318594" id="-32760">
		<tag k="name" v="Varpebakken" />
		<tag k="place" v="locality" />
		<tag k="ssr:stedsnr" v="777930" />
	</node>
	<node lat="61.72582777744978" lon="9.432538897605008" id="-32763">
		<tag k="historic" v="shieling" />
		<tag k="name" v="Gamle Rohaugsætre" />
		<tag k="place" v="locality" />
		<tag k="ssr:stedsnr" v="778310" />
	</node>
	<node lat="61.880527780315965" lon="9.476494447733797" id="-32810">
		<tag k="name" v="Stripåtmyrin" />
		<tag k="natural" v="wetland" />
		<tag k="ssr:stedsnr" v="800984" />
	</node>
	<node lat="61.749230556300446" lon="9.402900004050373" id="-32814">
		<tag k="name" v="Veggemsmyre" />
		<tag k="natural" v="wetland" />
		<tag k="ssr:stedsnr" v="920652" />
	</node>
	<node lat="61.7146777808947" lon="9.488758327032201" id="-32815">
		<tag k="name" v="Kråkmyri" />
		<tag k="natural" v="wetland" />
		<tag k="ssr:stedsnr" v="920657" />
	</node>
	<node lat="61.7132305528667" lon="9.472672213304328" id="-32841">
		<tag k="name" v="Kråkmyrane" />
		<tag k="natural" v="wetland" />
		<tag k="ssr:stedsnr" v="838078" />
	</node>
	<node lat="61.831122221253246" lon="9.503308334209903" id="-32850">
		<tag k="name" v="Sauvollen" />
		<tag k="place" v="locality" />
		<tag k="ssr:stedsnr" v="839103" />
	</node>
	<node lat="61.816219443351535" lon="9.584019438670511" id="-32901">
		<tag k="name" v="Torvmyra" />
		<tag k="natural" v="wetland" />
		<tag k="ssr:stedsnr" v="899214" />
	</node>
	<node lat="61.809794443593105" lon="9.57230555847516" id="-32902">
		<tag k="historic" v="shieling" />
		<tag k="name" v="Dakotalykkja" />
		<tag k="place" v="locality" />
		<tag k="ssr:stedsnr" v="899216" />
	</node>
	<node lat="61.744133332546454" lon="9.236944444149232" id="-32913">
		<tag k="name" v="Bekken" />
		<tag k="place" v="locality" />
		<tag k="ssr:stedsnr" v="899807" />
	</node>
	<node lat="61.729366663966964" lon="9.292183335144856" id="-32914">
		<tag k="name" v="Kattuglmyra" />
		<tag k="natural" v="wetland" />
		<tag k="ssr:stedsnr" v="899809" />
	</node>
	<node lat="61.733847226265254" lon="9.2830916701965" id="-32915">
		<tag k="name" v="Drikkarmyra" />
		<tag k="natural" v="wetland" />
		<tag k="ssr:stedsnr" v="899810" />
	</node>
	<node lat="61.801702777733475" lon="9.5962944537776" id="-32917">
		<tag k="name" v="Lægane" />
		<tag k="place" v="locality" />
		<tag k="ssr:stedsnr" v="900172" />
	</node>
	<node lat="61.7492965868143" lon="9.603856775535034" id="-32956">
		<tag k="name" v="Vassrennmyra" />
		<tag k="natural" v="wetland" />
		<tag k="ssr:stedsnr" v="960011" />
	</node>
	<node lat="61.75437499943271" lon="9.508386105434283" id="-32961">
		<tag k="historic" v="shieling" />
		<tag k="name" v="Øvre Skardet" />
		<tag k="place" v="locality" />
		<tag k="ssr:stedsnr" v="960362" />
	</node>
	<node lat="61.7554916622743" lon="9.574388882733151" id="-32962">
		<tag k="historic" v="shieling" />
		<tag k="name" v="Kvernhussletta" />
		<tag k="place" v="locality" />
		<tag k="ssr:stedsnr" v="960092" />
	</node>
	<node lat="61.72441388932527" lon="9.410869453800474" id="-32965">
		<tag k="name" v="Håkansætre" />
		<tag k="place" v="locality" />
		<tag k="ssr:stedsnr" v="960446" />
	</node>
	<node lat="61.68707778019038" lon="9.530549994135496" id="-32975">
		<tag k="name" v="Kolbottane" />
		<tag k="place" v="locality" />
		<tag k="ssr:stedsnr" v="960711" />
	</node>
	<node lat="61.58493055891357" lon="9.242780564579821" id="-33017">
		<tag k="name" v="Langmyri" />
		<tag k="natural" v="wetland" />
		<tag k="ssr:stedsnr" v="10529" />
	</node>
	<node lat="61.8183555525724" lon="9.52386944574294" id="-33038">
		<tag k="name" v="Haugakringla" />
		<tag k="place" v="locality" />
		<tag k="ssr:stedsnr" v="49043" />
	</node>
	<node lat="61.7294277775177" lon="9.364363885345552" id="-33044">
		<tag k="name" v="Amerika" />
		<tag k="place" v="locality" />
		<tag k="ssr:stedsnr" v="49509" />
	</node>
	<node lat="61.74360555142849" lon="9.369580555471073" id="-33045">
		<tag k="name" v="Flåten" />
		<tag k="place" v="locality" />
		<tag k="ssr:stedsnr" v="49531" />
	</node>
	<node lat="61.743008330698885" lon="9.336444437231055" id="-33050">
		<tag k="name" v="Skoenget" />
		<tag k="place" v="locality" />
		<tag k="ssr:stedsnr" v="49806" />
	</node>
	<node lat="61.78904722188315" lon="9.435288896330395" id="-33054">
		<tag k="landuse" v="quarry" />
		<tag k="name" v="Rustgruva" />
		<tag k="ssr:stedsnr" v="49747" />
	</node>
	<node lat="61.7760833315352" lon="9.523466671037019" id="-33077">
		<tag k="historic" v="shieling" />
		<tag k="name" v="Mikkellykkja" />
		<tag k="place" v="locality" />
		<tag k="ssr:stedsnr" v="50462" />
	</node>
	<node lat="61.782380554983035" lon="9.25081945353832" id="-33080">
		<tag k="name" v="Storurda" />
		<tag k="natural" v="scree" />
		<tag k="ssr:stedsnr" v="50630" />
	</node>
	<node lat="61.711502780781814" lon="9.333922219708754" id="-33083">
		<tag k="name" v="Kråkmyra" />
		<tag k="natural" v="wetland" />
		<tag k="ssr:stedsnr" v="50982" />
	</node>
	<node lat="61.72091196265238" lon="9.321279368576645" id="-33091">
		<tag k="name" v="Stormyri" />
		<tag k="natural" v="wetland" />
		<tag k="ssr:stedsnr" v="71723" />
	</node>
	<node lat="61.671727775257345" lon="9.526413881598716" id="-33094">
		<tag k="landuse" v="meadow" />
		<tag k="name" v="Øverjordet" />
		<tag k="ssr:stedsnr" v="71747" />
	</node>
	<node lat="61.74578055625611" lon="9.3162999948966" id="-33116">
		<tag k="name" v="Løftrusten" />
		<tag k="place" v="locality" />
		<tag k="ssr:stedsnr" v="110827" />
	</node>
	<node lat="61.8252666634237" lon="9.507083340192427" id="-33120">
		<tag k="name" v="Tjønnmillom" />
		<tag k="place" v="locality" />
		<tag k="ssr:stedsnr" v="110054" />
	</node>
	<node lat="61.823108329115655" lon="9.51641666392725" id="-33121">
		<tag k="name" v="Gjeldmyra" />
		<tag k="place" v="locality" />
		<tag k="ssr:stedsnr" v="110058" />
	</node>
	<node lat="61.72495833180273" lon="9.17840277580138" id="-33132">
		<tag k="name" v="Storholmen" />
		<tag k="place" v="locality" />
		<tag k="ssr:stedsnr" v="110231" />
	</node>
	<node lat="61.71322222598376" lon="9.296158331724031" id="-33141">
		<tag k="name" v="Veslerobrenna" />
		<tag k="place" v="locality" />
		<tag k="ssr:stedsnr" v="110894" />
	</node>
	<node lat="61.8163777769039" lon="9.544533333438737" id="-33144">
		<tag k="name" v="Kompanienget" />
		<tag k="place" v="locality" />
		<tag k="ssr:stedsnr" v="111064" />
	</node>
	<node lat="61.835416663008196" lon="9.469994447352185" id="-33150">
		<tag k="name" v="Skottlykkja" />
		<tag k="place" v="locality" />
		<tag k="ssr:stedsnr" v="111530" />
	</node>
	<node lat="61.713119440171624" lon="9.532855548764383" id="-33154">
		<tag k="name" v="Nedre Vinna" />
		<tag k="place" v="locality" />
		<tag k="ssr:stedsnr" v="111510" />
	</node>
	<node lat="61.75961111020743" lon="9.457563890667325" id="-33160">
		<tag k="name" v="Dokkje" />
		<tag k="place" v="locality" />
		<tag k="ssr:stedsnr" v="111655" />
	</node>
	<node lat="61.7268916691776" lon="9.186238892032113" id="-33217">
		<tag k="name" v="Myrlykkja" />
		<tag k="natural" v="wetland" />
		<tag k="ssr:stedsnr" v="170192" />
	</node>
	<node lat="61.807427774789495" lon="9.541844435770512" id="-33222">
		<tag k="name" v="Lomstadenget" />
		<tag k="place" v="locality" />
		<tag k="ssr:stedsnr" v="170246" />
	</node>
	<node lat="61.7632055564455" lon="9.58374166430138" id="-33225">
		<tag k="name" v="Andersmyra" />
		<tag k="natural" v="wetland" />
		<tag k="ssr:stedsnr" v="171088" />
	</node>
	<node lat="61.821933337683184" lon="9.654094453589394" id="-33237">
		<tag k="name" v="Ultungmorka" />
		<tag k="place" v="locality" />
		<tag k="ssr:stedsnr" v="171325" />
	</node>
	<node lat="61.71839444211591" lon="9.503736103880103" id="-33240">
		<tag k="name" v="Grønslåen" />
		<tag k="place" v="locality" />
		<tag k="ssr:stedsnr" v="171554" />
	</node>
	<node lat="61.73388333287356" lon="9.536630560193936" id="-33242">
		<tag k="name" v="Vangslykkja" />
		<tag k="place" v="locality" />
		<tag k="ssr:stedsnr" v="171632" />
	</node>
	<node lat="61.70825277431381" lon="9.2301138961421" id="-33267">
		<tag k="alt_name" v="Rustmyra" />
		<tag k="name" v="Rustmyrin" />
		<tag k="natural" v="wetland" />
		<tag k="ssr:stedsnr" v="192710" />
	</node>
	<node lat="61.86409999659324" lon="9.563750005770775" id="-33312">
		<tag k="name" v="Merraslettin" />
		<tag k="natural" v="wetland" />
		<tag k="ssr:stedsnr" v="193960" />
	</node>
	<node lat="61.831611111189744" lon="9.493874991864283" id="-33324">
		<tag k="name" v="Formolykkja" />
		<tag k="place" v="locality" />
		<tag k="ssr:stedsnr" v="292106" />
	</node>
	<node lat="61.8360611122322" lon="9.490597221133113" id="-33326">
		<tag k="name" v="Holen" />
		<tag k="place" v="locality" />
		<tag k="ssr:stedsnr" v="292111" />
	</node>
	<node lat="61.82983332983751" lon="9.505122225542813" id="-33331">
		<tag k="name" v="Saukollen" />
		<tag k="place" v="locality" />
		<tag k="ssr:stedsnr" v="292055" />
	</node>
	<node lat="61.75503611096757" lon="9.508816660295103" id="-33340">
		<tag k="historic" v="shieling" />
		<tag k="name" v="Midtre Skardet" />
		<tag k="place" v="locality" />
		<tag k="ssr:stedsnr" v="292358" />
	</node>
	<node lat="61.71733889250037" lon="9.190708340869607" id="-33407">
		<tag k="name" v="Agnrusten" />
		<tag k="place" v="locality" />
		<tag k="ssr:stedsnr" v="352221" />
	</node>
	<node lat="61.786138886287205" lon="9.566916668764515" id="-33421">
		<tag k="name" v="Pælhauglykkja" />
		<tag k="place" v="locality" />
		<tag k="ssr:stedsnr" v="353097" />
	</node>
	<node lat="61.81162778026033" lon="9.579105547861648" id="-33423">
		<tag k="name" v="Veslemyra" />
		<tag k="natural" v="wetland" />
		<tag k="ssr:stedsnr" v="353232" />
	</node>
	<node lat="61.69795833157227" lon="9.533108332876235" id="-33435">
		<tag k="name" v="Brånåen" />
		<tag k="place" v="locality" />
		<tag k="ssr:stedsnr" v="353570" />
	</node>
	<node lat="61.68645833611115" lon="9.478572217967958" id="-33444">
		<tag k="name" v="Felten" />
		<tag k="place" v="locality" />
		<tag k="ssr:stedsnr" v="353743" />
	</node>
	<node lat="61.85367500215495" lon="9.47168332658088" id="-33445">
		<tag k="name" v="Fugleskjellmorkje" />
		<tag k="place" v="locality" />
		<tag k="ssr:stedsnr" v="353894" />
	</node>
	<node lat="61.77748333147154" lon="9.232558338984832" id="-33473">
		<tag k="name" v="Heidalsskogen" />
		<tag k="place" v="locality" />
		<tag k="ssr:stedsnr" v="374859" />
	</node>
	<node lat="61.85957499999404" lon="9.622830553289187" id="-33477">
		<tag k="name" v="Skorutbergmyre" />
		<tag k="natural" v="wetland" />
		<tag k="ssr:stedsnr" v="375663" />
	</node>
	<node lat="61.72255832980665" lon="9.38487778121635" id="-33488">
		<tag k="name" v="Styggelykkja" />
		<tag k="place" v="locality" />
		<tag k="ssr:stedsnr" v="413014" />
	</node>
	<node lat="61.740630555541735" lon="9.361083340034131" id="-33497">
		<tag k="name" v="Ivalykkja" />
		<tag k="place" v="locality" />
		<tag k="ssr:stedsnr" v="413521" />
	</node>
	<node lat="61.74183888619098" lon="9.35667499839695" id="-33498">
		<tag k="name" v="Skiftesleflaten" />
		<tag k="place" v="locality" />
		<tag k="ssr:stedsnr" v="413525" />
	</node>
	<node lat="61.74141389130037" lon="9.611952778432173" id="-33502">
		<tag k="name" v="Blidrosmyra" />
		<tag k="natural" v="wetland" />
		<tag k="ssr:stedsnr" v="414020" />
	</node>
	<node lat="61.65949166542477" lon="9.510694444274705" id="-33513">
		<tag k="name" v="Veslestulmyra" />
		<tag k="natural" v="wetland" />
		<tag k="ssr:stedsnr" v="414655" />
	</node>
	<node lat="61.76824999838395" lon="9.366711118817388" id="-33514">
		<tag k="historic" v="shieling" />
		<tag k="name" v="Davesætra" />
		<tag k="place" v="locality" />
		<tag k="ssr:stedsnr" v="414667" />
	</node>
	<node lat="61.707419447326366" lon="9.345594435832863" id="-33531">
		<tag k="name" v="Hjellrustskogen" />
		<tag k="place" v="locality" />
		<tag k="ssr:stedsnr" v="414972" />
	</node>
	<node lat="61.69277499959645" lon="9.354544451379834" id="-33532">
		<tag k="name" v="Langmyri" />
		<tag k="natural" v="wetland" />
		<tag k="ssr:stedsnr" v="434667" />
	</node>
	<node lat="61.57497500124373" lon="9.259199998544359" id="-33567">
		<tag k="name" v="Stormyra" />
		<tag k="natural" v="wetland" />
		<tag k="ssr:stedsnr" v="495535" />
	</node>
	<node lat="61.85592778154828" lon="9.655861103303923" id="-33583">
		<tag k="name" v="Ljosåmyre" />
		<tag k="natural" v="wetland" />
		<tag k="ssr:stedsnr" v="496695" />
	</node>
	<node lat="61.72083333278107" lon="9.189530550616313" id="-33590">
		<tag k="name" v="Harerustmorka" />
		<tag k="place" v="locality" />
		<tag k="ssr:stedsnr" v="534244" />
	</node>
	<node lat="61.79273610921124" lon="9.419983337248093" id="-33595">
		<tag k="name" v="Gråbergflata" />
		<tag k="place" v="locality" />
		<tag k="ssr:stedsnr" v="534731" />
	</node>
	<node lat="61.81102222547908" lon="9.541144447596011" id="-33597">
		<tag k="name" v="Smedstuguenget" />
		<tag k="place" v="locality" />
		<tag k="ssr:stedsnr" v="535054" />
	</node>
	<node lat="61.8102444455617" lon="9.540736104666417" id="-33598">
		<tag k="name" v="Lølandenget" />
		<tag k="place" v="locality" />
		<tag k="ssr:stedsnr" v="535056" />
	</node>
	<node lat="61.80966944040064" lon="9.540733337832812" id="-33599">
		<tag k="name" v="Laurbruenget" />
		<tag k="place" v="locality" />
		<tag k="ssr:stedsnr" v="535057" />
	</node>
	<node lat="61.72891111247914" lon="9.43782777153886" id="-33622">
		<tag k="name" v="Nordre Ronåsåflata" />
		<tag k="place" v="locality" />
		<tag k="ssr:stedsnr" v="535343" />
	</node>
	<node lat="61.71253055527216" lon="9.525855547376208" id="-33624">
		<tag k="name" v="Øvre Vinna" />
		<tag k="place" v="locality" />
		<tag k="ssr:stedsnr" v="535537" />
	</node>
	<node lat="61.68554166254274" lon="9.4767277824198" id="-33633">
		<tag k="name" v="Enden" />
		<tag k="place" v="locality" />
		<tag k="ssr:stedsnr" v="535734" />
	</node>
	<node lat="61.670611114293145" lon="9.549580546691885" id="-33643">
		<tag k="name" v="Bottenlykkja" />
		<tag k="place" v="locality" />
		<tag k="ssr:stedsnr" v="536651" />
	</node>
	<node lat="61.82884722379013" lon="9.666247231443819" id="-33695">
		<tag k="name" v="Ljosmyrene" />
		<tag k="natural" v="wetland" />
		<tag k="ssr:stedsnr" v="595341" />
	</node>
	<node lat="61.743891662729766" lon="9.336691672537622" id="-33701">
		<tag k="name" v="Vollslette" />
		<tag k="place" v="locality" />
		<tag k="ssr:stedsnr" v="595792" />
	</node>
	<node lat="61.74500278146574" lon="9.342774995905447" id="-33703">
		<tag k="name" v="Ellingsbøtråa" />
		<tag k="place" v="locality" />
		<tag k="ssr:stedsnr" v="595795" />
	</node>
	<node lat="61.833302781379714" lon="9.50342500478675" id="-33707">
		<tag k="name" v="Nybrotet" />
		<tag k="place" v="locality" />
		<tag k="ssr:stedsnr" v="596120" />
	</node>
	<node lat="61.83419722158538" lon="9.502775008158745" id="-33708">
		<tag k="name" v="Anderslykkja" />
		<tag k="place" v="locality" />
		<tag k="ssr:stedsnr" v="596126" />
	</node>
	<node lat="61.66590833534543" lon="9.48186944030925" id="-33726">
		<tag k="name" v="Saltflata" />
		<tag k="place" v="locality" />
		<tag k="ssr:stedsnr" v="596643" />
	</node>
	<node lat="61.86919166620206" lon="9.401133325947375" id="-33728">
		<tag k="name" v="Rostlykkja" />
		<tag k="place" v="locality" />
		<tag k="ssr:stedsnr" v="596914" />
	</node>
	<node lat="61.73997222236261" lon="9.245511102285196" id="-33790">
		<tag k="name" v="Storbekkslette" />
		<tag k="place" v="locality" />
		<tag k="ssr:stedsnr" v="655778" />
	</node>
	<node lat="61.68423056000683" lon="9.545822214988508" id="-33801">
		<tag k="name" v="Krækje" />
		<tag k="place" v="locality" />
		<tag k="ssr:stedsnr" v="656663" />
	</node>
	<node lat="61.68538055907222" lon="9.53496388884915" id="-33802">
		<tag k="name" v="Høgste" />
		<tag k="place" v="locality" />
		<tag k="ssr:stedsnr" v="656757" />
	</node>
	<node lat="61.885402774060886" lon="9.353011115860971" id="-33805">
		<tag k="name" v="Skittsøta" />
		<tag k="natural" v="wetland" />
		<tag k="ssr:stedsnr" v="656958" />
	</node>
	<node lat="61.82775833303902" lon="9.50544444006651" id="-33816">
		<tag k="name" v="Skåråbrotet" />
		<tag k="place" v="locality" />
		<tag k="ssr:stedsnr" v="716059" />
	</node>
	<node lat="61.766244448378906" lon="9.515002773685861" id="-33822">
		<tag k="name" v="Grandalen" />
		<tag k="place" v="locality" />
		<tag k="ssr:stedsnr" v="716278" />
	</node>
	<node lat="61.73840000128343" lon="9.364419448243" id="-33825">
		<tag k="name" v="Kjørre" />
		<tag k="place" v="locality" />
		<tag k="ssr:stedsnr" v="716507" />
	</node>
	<node lat="61.69628889335894" lon="9.55950555712987" id="-33830">
		<tag k="name" v="Båsen" />
		<tag k="place" v="locality" />
		<tag k="ssr:stedsnr" v="716954" />
	</node>
	<node lat="61.698605555244285" lon="9.536344444318127" id="-33849">
		<tag k="name" v="Storsteinlykkja" />
		<tag k="place" v="locality" />
		<tag k="ssr:stedsnr" v="717642" />
	</node>
	<node lat="61.8099083367731" lon="9.546566670089494" id="-33859">
		<tag k="name" v="Bottenget" />
		<tag k="place" v="locality" />
		<tag k="ssr:stedsnr" v="718068" />
	</node>
	<node lat="61.72478611231193" lon="9.200419443094306" id="-33918">
		<tag k="name" v="Vassdokkje" />
		<tag k="place" v="locality" />
		<tag k="ssr:stedsnr" v="777233" />
	</node>
	<node lat="61.713949998487024" lon="9.528933338743292" id="-33923">
		<tag k="name" v="Emberslettura" />
		<tag k="natural" v="scree" />
		<tag k="ssr:stedsnr" v="778519" />
	</node>
	<node lat="61.6990527783605" lon="9.557377783121535" id="-33924">
		<tag k="name" v="Flekken" />
		<tag k="place" v="locality" />
		<tag k="ssr:stedsnr" v="777961" />
	</node>
	<node lat="61.72327499897561" lon="9.30384999169646" id="-33927">
		<tag k="name" v="Skarddokken" />
		<tag k="place" v="locality" />
		<tag k="ssr:stedsnr" v="777783" />
	</node>
	<node lat="61.832463890538506" lon="9.500472225179466" id="-33931">
		<tag k="name" v="Smedmyra" />
		<tag k="place" v="locality" />
		<tag k="ssr:stedsnr" v="778116" />
	</node>
	<node lat="61.77754166957597" lon="9.5207749963987" id="-33935">
		<tag k="name" v="Bustup" />
		<tag k="place" v="locality" />
		<tag k="ssr:stedsnr" v="778493" />
	</node>
	<node lat="61.69080833751402" lon="9.543575009231098" id="-33943">
		<tag k="name" v="Kulykkja" />
		<tag k="place" v="locality" />
		<tag k="ssr:stedsnr" v="778631" />
	</node>
	<node lat="61.86980555569747" lon="9.529136103052542" id="-33948">
		<tag k="name" v="Langmyra" />
		<tag k="natural" v="wetland" />
		<tag k="ssr:stedsnr" v="778865" />
	</node>
	<node lat="61.88735277332658" lon="9.484358332715372" id="-33949">
		<tag k="name" v="Biri" />
		<tag k="place" v="locality" />
		<tag k="ssr:stedsnr" v="778870" />
	</node>
	<node lat="61.769391669368176" lon="9.564702778740376" id="-34001">
		<tag k="landuse" v="quarry" />
		<tag k="name" v="Øvre Rustgruva" />
		<tag k="ssr:stedsnr" v="839062" />
	</node>
	<node lat="61.77302777562492" lon="9.561761107198866" id="-34002">
		<tag k="landuse" v="quarry" />
		<tag k="name" v="Nedre Rustgruva" />
		<tag k="ssr:stedsnr" v="839064" />
	</node>
	<node lat="61.83383610728884" lon="9.496194449327632" id="-34007">
		<tag k="name" v="Låvebakken" />
		<tag k="place" v="locality" />
		<tag k="ssr:stedsnr" v="839110" />
	</node>
	<node lat="61.83668611331377" lon="9.487602779692365" id="-34008">
		<tag k="name" v="Olalykkja" />
		<tag k="place" v="locality" />
		<tag k="ssr:stedsnr" v="839114" />
	</node>
	<node lat="61.81760833517912" lon="9.576150002075877" id="-34015">
		<tag k="name" v="Stormyra" />
		<tag k="natural" v="wetland" />
		<tag k="ssr:stedsnr" v="839209" />
	</node>
	<node lat="61.75608055560023" lon="9.49417500628068" id="-34021">
		<tag k="name" v="Klebermyra" />
		<tag k="natural" v="wetland" />
		<tag k="ssr:stedsnr" v="839393" />
	</node>
	<node lat="61.71539444395356" lon="9.532222215208767" id="-34024">
		<tag k="name" v="Sørjordet" />
		<tag k="place" v="locality" />
		<tag k="ssr:stedsnr" v="839536" />
	</node>
	<node lat="61.665419440400626" lon="9.50579165930972" id="-34031">
		<tag k="historic" v="shieling" />
		<tag k="name" v="Veslesætre" />
		<tag k="place" v="locality" />
		<tag k="ssr:stedsnr" v="839668" />
	</node>
	<node lat="61.897461107501364" lon="9.434500006532712" id="-34033">
		<tag k="name" v="Ljosmyra" />
		<tag k="natural" v="wetland" />
		<tag k="ssr:stedsnr" v="839760" />
	</node>
	<node lat="61.74362777771126" lon="9.381411101699893" id="-34085">
		<tag k="historic" v="shieling" />
		<tag k="name" v="Harlaugsætersætre" />
		<tag k="place" v="locality" />
		<tag k="ssr:stedsnr" v="959470" />
	</node>
	<node lat="61.813636114696344" lon="9.546249994582748" id="-34086">
		<tag k="name" v="Sygardsenget" />
		<tag k="place" v="locality" />
		<tag k="ssr:stedsnr" v="960063" />
	</node>
	<node lat="61.785191670878994" lon="9.35030555973122" id="-34091">
		<tag k="name" v="Rustmorkje" />
		<tag k="place" v="locality" />
		<tag k="ssr:stedsnr" v="959558" />
	</node>
	<node lat="61.771961108993274" lon="9.314161112327383" id="-34092">
		<tag k="historic" v="shieling" />
		<tag k="name" v="Lyesætre" />
		<tag k="place" v="locality" />
		<tag k="ssr:stedsnr" v="959560" />
	</node>
	<node lat="61.735558329295394" lon="9.258877783702191" id="-34097">
		<tag k="name" v="Klypmoen" />
		<tag k="place" v="locality" />
		<tag k="ssr:stedsnr" v="959789" />
	</node>
	<node lat="61.750086707295935" lon="9.509318771305102" id="-34151">
		<tag k="landuse" v="quarry" />
		<tag k="name" v="Minera Skifer" />
		<tag k="ssr:stedsnr" v="987173" />
	</node>
</osm>
