<?xml version="1.0" encoding="UTF-8"?>
<osm version="0.6" generator="osmapis">
	<node lat="61.71389166855283" lon="9.37342221734495" id="-17045">
		<tag k="name" v="Løyftet" />
		<tag k="natural" v="valley" />
		<tag k="place" v="locality" />
		<tag k="ssr:stedsnr" v="231020" />
	</node>
	<node lat="61.82665555540572" lon="9.639411113426185" id="-17055">
		<tag k="name" v="Fråskildhaugen" />
		<tag k="natural" v="hill" />
		<tag k="place" v="locality" />
		<tag k="ssr:stedsnr" v="231399" />
	</node>
	<node lat="61.73832499721446" lon="9.367652785236352" id="-17056">
		<tag k="name" v="Harlauglia" />
		<tag k="natural" v="slope" />
		<tag k="place" v="locality" />
		<tag k="ssr:stedsnr" v="231564" />
	</node>
	<node lat="61.696158331726885" lon="9.34310832669909" id="-17068">
		<tag k="alt_name" v="Puttane" />
		<tag k="name" v="Puttom" />
		<tag k="natural" v="slope" />
		<tag k="place" v="locality" />
		<tag k="ssr:stedsnr" v="10712" />
	</node>
	<node lat="61.676986106931416" lon="9.464074995040258" id="-17069">
		<tag k="alt_name" v="Lavhø" />
		<tag k="name" v="Lavhøa" />
		<tag k="natural" v="hill" />
		<tag k="place" v="locality" />
		<tag k="ssr:stedsnr" v="10741" />
	</node>
	<node lat="61.847961760121066" lon="9.322804217069448" id="-17073">
		<tag k="name" v="Rustdalen" />
		<tag k="natural" v="valley" />
		<tag k="place" v="locality" />
		<tag k="ssr:stedsnr" v="11824" />
	</node>
	<node lat="61.839180553143414" lon="9.723975001757818" id="-17075">
		<tag k="name" v="Spranget" />
		<tag k="natural" v="slope" />
		<tag k="place" v="locality" />
		<tag k="ssr:stedsnr" v="11702" />
	</node>
	<node lat="61.745158335061745" lon="9.262719438708865" id="-17076">
		<tag k="alt_name" v="Mosebakklia" />
		<tag k="name" v="Måsåbakklia" />
		<tag k="natural" v="slope" />
		<tag k="place" v="locality" />
		<tag k="ssr:stedsnr" v="231822" />
	</node>
	<node lat="61.738647218089625" lon="9.589475005933277" id="-17077">
		<tag k="name" v="Myrhalsen" />
		<tag k="natural" v="valley" />
		<tag k="place" v="locality" />
		<tag k="ssr:stedsnr" v="232038" />
	</node>
	<node lat="61.80856110696575" lon="9.576088891466672" id="-17083">
		<tag k="alt_name" v="Havnhaugen" />
		<tag k="name" v="Lykkjehaugen" />
		<tag k="natural" v="hill" />
		<tag k="place" v="locality" />
		<tag k="ssr:stedsnr" v="232157" />
	</node>
	<node lat="61.816152777866286" lon="9.598650005473287" id="-17086">
		<tag k="name" v="Heggebakken" />
		<tag k="natural" v="slope" />
		<tag k="place" v="locality" />
		<tag k="ssr:stedsnr" v="232231" />
	</node>
	<node lat="61.819302778930215" lon="9.61424445320065" id="-17088">
		<tag k="name" v="Heggeflata" />
		<tag k="natural" v="hill" />
		<tag k="place" v="locality" />
		<tag k="ssr:stedsnr" v="232235" />
	</node>
	<node lat="61.72756944884998" lon="9.52781111712804" id="-17090">
		<tag k="alt_name" v="Mælumsberget" />
		<tag k="name" v="Melemsberget" />
		<tag k="natural" v="hill" />
		<tag k="place" v="locality" />
		<tag k="ssr:stedsnr" v="232533" />
	</node>
	<node lat="61.74350278077457" lon="9.502663888683017" id="-17091">
		<tag k="fixme" v="consider natural=peak for the most distinct mountains in the district" />
		<tag k="name" v="Karihaugen" />
		<tag k="natural" v="hill" />
		<tag k="place" v="locality" />
		<tag k="ssr:stedsnr" v="232535" />
	</node>
	<node lat="61.73749167039812" lon="9.499947219539981" id="-17092">
		<tag k="name" v="Øyranden" />
		<tag k="natural" v="hill" />
		<tag k="place" v="locality" />
		<tag k="ssr:stedsnr" v="232536" />
	</node>
	<node lat="61.665133331618634" lon="9.524152773011977" id="-17102">
		<tag k="name" v="Jælkarslette" />
		<tag k="place" v="locality" />
		<tag k="ssr:stedsnr" v="232597" />
	</node>
	<node lat="61.87598333030349" lon="9.512183330967092" id="-17105">
		<tag k="name" v="Veslehaukberget" />
		<tag k="natural" v="hill" />
		<tag k="place" v="locality" />
		<tag k="ssr:stedsnr" v="232864" />
	</node>
	<node lat="61.8758305539807" lon="9.351474990882307" id="-17106">
		<tag k="name" v="Nedre lunningsplass" />
		<tag k="place" v="locality" />
		<tag k="ssr:stedsnr" v="232954" />
	</node>
	<node lat="61.60040833515421" lon="9.2242444399387" id="-17112">
		<tag k="name" v="Muruhaugen" />
		<tag k="natural" v="hill" />
		<tag k="place" v="locality" />
		<tag k="ssr:stedsnr" v="49112" />
	</node>
	<node lat="61.802408335143355" lon="9.477291673982595" id="-17113">
		<tag k="name" v="Skaret" />
		<tag k="natural" v="valley" />
		<tag k="place" v="locality" />
		<tag k="ssr:stedsnr" v="49017" />
	</node>
	<node lat="61.71268332960077" lon="9.388849994344493" id="-17114">
		<tag k="name" v="Kringlethaugen" />
		<tag k="natural" v="hill" />
		<tag k="place" v="locality" />
		<tag k="ssr:stedsnr" v="49018" />
	</node>
	<node lat="61.71888333158415" lon="9.39277777157562" id="-17115">
		<tag k="name" v="Skjerdalen" />
		<tag k="natural" v="valley" />
		<tag k="place" v="locality" />
		<tag k="ssr:stedsnr" v="49023" />
	</node>
	<node lat="61.77835555425758" lon="9.31467777182421" id="-17118">
		<tag k="name" v="Brennskardet" />
		<tag k="natural" v="valley" />
		<tag k="place" v="locality" />
		<tag k="ssr:stedsnr" v="49621" />
	</node>
	<node lat="61.75192500210944" lon="9.563238880803839" id="-17119">
		<tag k="name" v="Berghammaren" />
		<tag k="natural" v="hill" />
		<tag k="place" v="locality" />
		<tag k="ssr:stedsnr" v="50106" />
	</node>
	<node lat="61.75154999895576" lon="9.519686107212088" id="-17125">
		<tag k="name" v="Utsikten" />
		<tag k="natural" v="hill" />
		<tag k="place" v="locality" />
		<tag k="ssr:stedsnr" v="50369" />
	</node>
	<node lat="61.707161115025826" lon="9.517549993581172" id="-17126">
		<tag k="name" v="Pallane" />
		<tag k="natural" v="hill" />
		<tag k="place" v="locality" />
		<tag k="ssr:stedsnr" v="50508" />
	</node>
	<node lat="61.82356944266933" lon="9.45775554625357" id="-17127">
		<tag k="name" v="Skottskaret" />
		<tag k="natural" v="valley" />
		<tag k="place" v="locality" />
		<tag k="ssr:stedsnr" v="50519" />
	</node>
	<node lat="61.66685833229836" lon="9.528369442430996" id="-17131">
		<tag k="name" v="Hoggberget" />
		<tag k="natural" v="hill" />
		<tag k="place" v="locality" />
		<tag k="ssr:stedsnr" v="50606" />
	</node>
	<node lat="61.70662500229092" lon="9.49615832550696" id="-17140">
		<tag k="alt_name" v="Veslefjellet" />
		<tag k="fixme" v="consider natural=peak for the most distinct mountains in the district" />
		<tag k="name" v="Veslfjellet" />
		<tag k="natural" v="hill" />
		<tag k="place" v="locality" />
		<tag k="ssr:stedsnr" v="70716" />
	</node>
	<node lat="61.61721666307999" lon="9.261116666294841" id="-17144">
		<tag k="alt_name" v="Rovhovda" />
		<tag k="fixme" v="consider natural=peak for the most distinct mountains in the district" />
		<tag k="name" v="Hovda" />
		<tag k="natural" v="hill" />
		<tag k="place" v="locality" />
		<tag k="ssr:stedsnr" v="71544" />
	</node>
	<node lat="61.786061113911984" lon="9.658449998722737" id="-17145">
		<tag k="name" v="Vålåsjøberget" />
		<tag k="natural" v="hill" />
		<tag k="place" v="locality" />
		<tag k="ssr:stedsnr" v="71571" />
	</node>
	<node lat="61.79811666722699" lon="9.683852781348609" id="-17155">
		<tag k="fixme" v="consider natural=peak for the most distinct mountains in the district" />
		<tag k="name" v="Gråhøe" />
		<tag k="natural" v="hill" />
		<tag k="place" v="locality" />
		<tag k="ssr:stedsnr" v="72526" />
	</node>
	<node lat="61.814936114326706" lon="9.512872231300967" id="-17159">
		<tag k="name" v="Laurbrulia" />
		<tag k="natural" v="slope" />
		<tag k="place" v="locality" />
		<tag k="ssr:stedsnr" v="110005" />
	</node>
	<node lat="61.71656666242252" lon="9.374491673473734" id="-17160">
		<tag k="name" v="Øvre Haugen" />
		<tag k="natural" v="hill" />
		<tag k="place" v="locality" />
		<tag k="ssr:stedsnr" v="110019" />
	</node>
	<node lat="61.79000277555049" lon="9.500055556958445" id="-17161">
		<tag k="name" v="Nysæterlia" />
		<tag k="natural" v="slope" />
		<tag k="place" v="locality" />
		<tag k="ssr:stedsnr" v="110021" />
	</node>
	<node lat="61.68351110856936" lon="9.172197228848125" id="-17163">
		<tag k="name" v="Bumoen" />
		<tag k="place" v="locality" />
		<tag k="ssr:stedsnr" v="110108" />
	</node>
	<node lat="61.68052222213593" lon="9.294594449486144" id="-17165">
		<tag k="name" v="Risbråtane" />
		<tag k="natural" v="slope" />
		<tag k="place" v="locality" />
		<tag k="ssr:stedsnr" v="110111" />
	</node>
	<node lat="61.681102779704624" lon="9.42753332455946" id="-17167">
		<tag k="fixme" v="consider natural=peak for the most distinct mountains in the district" />
		<tag k="name" v="Gråhø" />
		<tag k="natural" v="hill" />
		<tag k="place" v="locality" />
		<tag k="ssr:stedsnr" v="110209" />
	</node>
	<node lat="61.686216669187615" lon="9.558219440129907" id="-17169">
		<tag k="name" v="Flatmoen" />
		<tag k="place" v="locality" />
		<tag k="ssr:stedsnr" v="110811" />
	</node>
	<node lat="61.852902782104664" lon="9.507558338074421" id="-17173">
		<tag k="name" v="Mariholet" />
		<tag k="natural" v="valley" />
		<tag k="place" v="locality" />
		<tag k="ssr:stedsnr" v="111103" />
	</node>
	<node lat="61.745219447524235" lon="9.52018056098663" id="-17178">
		<tag k="name" v="Neprudsberget" />
		<tag k="natural" v="hill" />
		<tag k="place" v="locality" />
		<tag k="ssr:stedsnr" v="111373" />
	</node>
	<node lat="61.75005555983425" lon="9.50497777393784" id="-17179">
		<tag k="name" v="Damdokkje" />
		<tag k="place" v="locality" />
		<tag k="ssr:stedsnr" v="111375" />
	</node>
	<node lat="61.76242500186949" lon="9.530836115649416" id="-17180">
		<tag k="name" v="Rauberget" />
		<tag k="natural" v="hill" />
		<tag k="place" v="locality" />
		<tag k="ssr:stedsnr" v="111389" />
	</node>
	<node lat="61.686108337179746" lon="9.483208340398491" id="-17190">
		<tag k="name" v="Tjuvspranget" />
		<tag k="natural" v="gorge" />
		<tag k="ssr:stedsnr" v="111682" />
	</node>
	<node lat="61.700308330643736" lon="9.497513890076696" id="-17197">
		<tag k="name" v="Storlii" />
		<tag k="natural" v="slope" />
		<tag k="place" v="locality" />
		<tag k="ssr:stedsnr" v="252683" />
	</node>
	<node lat="61.69513889043528" lon="9.245349992649661" id="-17202">
		<tag k="fixme" v="consider natural=peak for the most distinct mountains in the district" />
		<tag k="name" v="Stålhø" />
		<tag k="natural" v="hill" />
		<tag k="place" v="locality" />
		<tag k="ssr:stedsnr" v="252668" />
	</node>
	<node lat="61.83752499915305" lon="9.58931111057034" id="-17203">
		<tag k="fixme" v="multiple name tags, choose one and add the other to alt_name; consider natural=peak for the most distinct mountains in the district" />
		<tag k="name" v="Løypeskarven;Skardranden" />
		<tag k="natural" v="hill" />
		<tag k="place" v="locality" />
		<tag k="ssr:stedsnr" v="131816" />
	</node>
	<node lat="61.77182777398854" lon="9.227447222775497" id="-17204">
		<tag k="name" v="Skarvhøe" />
		<tag k="natural" v="hill" />
		<tag k="place" v="locality" />
		<tag k="ssr:stedsnr" v="131872" />
	</node>
	<node lat="61.66529999913982" lon="9.458402774036173" id="-17207">
		<tag k="name" v="Gauklia" />
		<tag k="natural" v="slope" />
		<tag k="place" v="locality" />
		<tag k="ssr:stedsnr" v="252702" />
	</node>
	<node lat="61.733772221897205" lon="9.227947215799729" id="-17212">
		<tag k="alt_name" v="Sjolia" />
		<tag k="loc_name" v="Sjolie" />
		<tag k="name" v="Sjolii" />
		<tag k="natural" v="slope" />
		<tag k="place" v="locality" />
		<tag k="ssr:stedsnr" v="131984" />
	</node>
	<node lat="61.84143332958629" lon="9.780016672825633" id="-17221">
		<tag k="fixme" v="consider natural=peak for the most distinct mountains in the district" />
		<tag k="name" v="Flatfjellet" />
		<tag k="natural" v="hill" />
		<tag k="place" v="locality" />
		<tag k="ssr:stedsnr" v="132703" />
	</node>
	<node lat="61.88940277974993" lon="9.708722221362265" id="-17222">
		<tag k="name" v="Krokåtbekkbotnen" />
		<tag k="natural" v="valley" />
		<tag k="place" v="locality" />
		<tag k="ssr:stedsnr" v="132724" />
	</node>
	<node lat="61.88714722063415" lon="9.896291668642466" id="-17223">
		<tag k="fixme" v="consider natural=peak for the most distinct mountains in the district" />
		<tag k="name" v="Rondvasshøgde" />
		<tag k="natural" v="hill" />
		<tag k="place" v="locality" />
		<tag k="ssr:stedsnr" v="132730" />
	</node>
	<node lat="61.880094447060834" lon="9.352547227006486" id="-17226">
		<tag k="name" v="Lokkeslette" />
		<tag k="place" v="locality" />
		<tag k="ssr:stedsnr" v="132978" />
	</node>
	<node lat="61.636516662421755" lon="9.308675003204884" id="-17228">
		<tag k="fixme" v="consider natural=peak for the most distinct mountains in the district" />
		<tag k="name" v="Veslehø" />
		<tag k="natural" v="hill" />
		<tag k="place" v="locality" />
		<tag k="ssr:stedsnr" v="253534" />
	</node>
	<node lat="61.65646110982559" lon="9.483477782808325" id="-17229">
		<tag k="name" v="Kulidalen" />
		<tag k="natural" v="valley" />
		<tag k="place" v="locality" />
		<tag k="ssr:stedsnr" v="253552" />
	</node>
	<node lat="61.77150833717901" lon="9.588302780975072" id="-17236">
		<tag k="fixme" v="consider natural=peak for the most distinct mountains in the district" />
		<tag k="name" v="Svartfjellet" />
		<tag k="natural" v="hill" />
		<tag k="place" v="locality" />
		<tag k="ssr:stedsnr" v="253838" />
	</node>
	<node lat="61.93367777570458" lon="9.577980558241052" id="-17242">
		<tag k="name" v="Rondhaugen" />
		<tag k="natural" v="hill" />
		<tag k="place" v="locality" />
		<tag k="ssr:stedsnr" v="254896" />
	</node>
	<node lat="61.75903055280022" lon="9.607550004682675" id="-17254">
		<tag k="name" v="Heimtjernhaugen" />
		<tag k="natural" v="hill" />
		<tag k="place" v="locality" />
		<tag k="ssr:stedsnr" v="171019" />
	</node>
	<node lat="61.74924576790861" lon="9.619550311143945" id="-17255">
		<tag k="fixme" v="consider natural=peak for the most distinct mountains in the district" />
		<tag k="loc_name" v="Dalshøe" />
		<tag k="name" v="Dalshø" />
		<tag k="natural" v="hill" />
		<tag k="place" v="locality" />
		<tag k="ssr:stedsnr" v="171020" />
	</node>
	<node lat="61.70747499828509" lon="9.459538887686794" id="-17260">
		<tag k="name" v="Kroken" />
		<tag k="natural" v="slope" />
		<tag k="place" v="locality" />
		<tag k="ssr:stedsnr" v="171127" />
	</node>
	<node lat="61.82497221999871" lon="9.601780555717895" id="-17263">
		<tag k="name" v="Gammelsæterhaugen" />
		<tag k="natural" v="hill" />
		<tag k="place" v="locality" />
		<tag k="ssr:stedsnr" v="171167" />
	</node>
	<node lat="61.76289444410949" lon="9.516649995009923" id="-17264">
		<tag k="name" v="Reistbakken" />
		<tag k="natural" v="slope" />
		<tag k="place" v="locality" />
		<tag k="ssr:stedsnr" v="171408" />
	</node>
	<node lat="61.731675002500154" lon="9.42028610213341" id="-17266">
		<tag k="name" v="Kjuklingberget" />
		<tag k="natural" v="hill" />
		<tag k="place" v="locality" />
		<tag k="ssr:stedsnr" v="171313" />
	</node>
	<node lat="61.81903055944407" lon="9.637441668292784" id="-17267">
		<tag k="name" v="Daleklovo" />
		<tag k="natural" v="valley" />
		<tag k="place" v="locality" />
		<tag k="ssr:stedsnr" v="171356" />
	</node>
	<node lat="61.73355555630565" lon="9.478344442866414" id="-17270">
		<tag k="name" v="Djupdalen" />
		<tag k="natural" v="valley" />
		<tag k="place" v="locality" />
		<tag k="ssr:stedsnr" v="171617" />
	</node>
	<node lat="61.75330000080189" lon="9.392591671478295" id="-17272">
		<tag k="name" v="Ranglarkampdokkje" />
		<tag k="natural" v="valley" />
		<tag k="place" v="locality" />
		<tag k="ssr:stedsnr" v="171704" />
	</node>
	<node lat="61.76718610805447" lon="9.4564416666319" id="-17273">
		<tag k="name" v="Kvernbergsmoen" />
		<tag k="place" v="locality" />
		<tag k="ssr:stedsnr" v="171717" />
	</node>
	<node lat="61.78527222446082" lon="9.456141675397182" id="-17274">
		<tag k="name" v="Myrmoen" />
		<tag k="place" v="locality" />
		<tag k="ssr:stedsnr" v="171720" />
	</node>
	<node lat="61.71526111512822" lon="9.442638897722178" id="-17280">
		<tag k="name" v="Brattranden" />
		<tag k="natural" v="hill" />
		<tag k="place" v="locality" />
		<tag k="ssr:stedsnr" v="231096" />
	</node>
	<node lat="61.777850001128456" lon="9.645883333956727" id="-17286">
		<tag k="name" v="Lynningsdalen" />
		<tag k="natural" v="valley" />
		<tag k="place" v="locality" />
		<tag k="ssr:stedsnr" v="231196" />
	</node>
	<node lat="61.791580556072596" lon="9.205108325278161" id="-17288">
		<tag k="name" v="Grasdalen" />
		<tag k="natural" v="valley" />
		<tag k="place" v="locality" />
		<tag k="ssr:stedsnr" v="231632" />
	</node>
	<node lat="61.80124722297332" lon="9.671652783034087" id="-17289">
		<tag k="name" v="Selsdokka" />
		<tag k="natural" v="valley" />
		<tag k="place" v="locality" />
		<tag k="ssr:stedsnr" v="231390" />
	</node>
	<node lat="61.79745000084853" lon="9.674872231664947" id="-17290">
		<tag k="name" v="Steindalen" />
		<tag k="natural" v="valley" />
		<tag k="place" v="locality" />
		<tag k="ssr:stedsnr" v="231391" />
	</node>
	<node lat="61.73301944276864" lon="9.575319452884825" id="-17294">
		<tag k="name" v="Fremre løype" />
		<tag k="natural" v="slope" />
		<tag k="place" v="locality" />
		<tag k="ssr:stedsnr" v="232031" />
	</node>
	<node lat="61.780483332772405" lon="9.66841943969443" id="-17298">
		<tag k="name" v="Jomfruhaugen" />
		<tag k="natural" v="hill" />
		<tag k="place" v="locality" />
		<tag k="ssr:stedsnr" v="232186" />
	</node>
	<node lat="61.76513055279321" lon="9.397163882214672" id="-17301">
		<tag k="name" v="Vardhaug" />
		<tag k="natural" v="hill" />
		<tag k="place" v="locality" />
		<tag k="ssr:stedsnr" v="232625" />
	</node>
	<node lat="61.701625000881045" lon="9.133441666394406" id="-17306">
		<tag k="fixme" v="consider natural=peak for the most distinct mountains in the district" />
		<tag k="name" v="Snauhovda" />
		<tag k="natural" v="hill" />
		<tag k="place" v="locality" />
		<tag k="ssr:stedsnr" v="495999" />
	</node>
	<node lat="61.708994445778" lon="9.51527777400901" id="-17309">
		<tag k="fixme" v="multiple name tags, choose one and add the other to alt_name" />
		<tag k="name" v="Snauhausen;Storfonnberget" />
		<tag k="place" v="locality" />
		<tag k="ssr:stedsnr" v="253677" />
	</node>
	<node lat="61.8518861099934" lon="9.902630549874123" id="-17314">
		<tag k="fixme" v="consider natural=peak for the most distinct mountains in the district" />
		<tag k="name" v="Veslelægerkletten" />
		<tag k="natural" v="hill" />
		<tag k="place" v="locality" />
		<tag k="ssr:stedsnr" v="253704" />
	</node>
	<node lat="61.90798610833946" lon="9.625713881268883" id="-17317">
		<tag k="name" v="Kvannholet" />
		<tag k="natural" v="valley" />
		<tag k="place" v="locality" />
		<tag k="ssr:stedsnr" v="253727" />
	</node>
	<node lat="61.65658754871671" lon="9.305472843715568" id="-17318">
		<tag k="fixme" v="consider natural=peak for the most distinct mountains in the district" />
		<tag k="name" v="Kvithø" />
		<tag k="natural" v="hill" />
		<tag k="place" v="locality" />
		<tag k="ssr:stedsnr" v="253731" />
	</node>
	<node lat="61.90378333778183" lon="9.82528611510709" id="-17319">
		<tag k="name" v="Styggebotn" />
		<tag k="natural" v="valley" />
		<tag k="place" v="locality" />
		<tag k="ssr:stedsnr" v="253735" />
	</node>
	<node lat="61.903811091308974" lon="9.848237639216425" id="-17320">
		<tag k="fixme" v="consider natural=peak for the most distinct mountains in the district" />
		<tag k="name" v="Vinjeronden" />
		<tag k="natural" v="hill" />
		<tag k="place" v="locality" />
		<tag k="ssr:stedsnr" v="253739" />
	</node>
	<node lat="61.89897777467604" lon="9.768272216142837" id="-17321">
		<tag k="fixme" v="consider natural=peak for the most distinct mountains in the district" />
		<tag k="name" v="Svarthammaren" />
		<tag k="natural" v="hill" />
		<tag k="place" v="locality" />
		<tag k="ssr:stedsnr" v="253742" />
	</node>
	<node lat="61.89093333585289" lon="9.6998499988628" id="-17323">
		<tag k="fixme" v="consider natural=peak for the most distinct mountains in the district" />
		<tag k="loc_name" v="Sukkertoppen;Smiuhåmåren" />
		<tag k="name" v="Ljosåbelgen" />
		<tag k="natural" v="hill" />
		<tag k="old_name" v="Smedhaamaaren;Hammaren;Smiuhammaren" />
		<tag k="place" v="locality" />
		<tag k="ssr:stedsnr" v="253746" />
	</node>
	<node lat="61.85321111153235" lon="9.562197224524168" id="-17324">
		<tag k="fixme" v="consider natural=peak for the most distinct mountains in the district" />
		<tag k="name" v="Formokampen" />
		<tag k="natural" v="hill" />
		<tag k="place" v="locality" />
		<tag k="ssr:stedsnr" v="253825" />
	</node>
	<node lat="61.76832499905055" lon="9.57333888062575" id="-17326">
		<tag k="name" v="Gruvhaugen" />
		<tag k="natural" v="hill" />
		<tag k="place" v="locality" />
		<tag k="ssr:stedsnr" v="253835" />
	</node>
	<node lat="61.881638885047586" lon="9.372563888553676" id="-17328">
		<tag k="name" v="Kinnet" />
		<tag k="natural" v="hill" />
		<tag k="place" v="locality" />
		<tag k="ssr:stedsnr" v="253986" />
	</node>
	<node lat="61.882491663533735" lon="9.566866669735049" id="-17329">
		<tag k="name" v="Baksidevassberget" />
		<tag k="natural" v="hill" />
		<tag k="place" v="locality" />
		<tag k="ssr:stedsnr" v="253987" />
	</node>
	<node lat="61.907116664834014" lon="9.470338883433074" id="-17330">
		<tag k="name" v="Kvannslådalen" />
		<tag k="natural" v="valley" />
		<tag k="place" v="locality" />
		<tag k="ssr:stedsnr" v="253994" />
	</node>
	<node lat="61.82263888802873" lon="9.74337778552531" id="-17333">
		<tag k="name" v="Storhaugen" />
		<tag k="natural" v="hill" />
		<tag k="place" v="locality" />
		<tag k="ssr:stedsnr" v="254689" />
	</node>
	<node lat="61.865816670369085" lon="9.483172229044257" id="-17335">
		<tag k="name" v="Fatet" />
		<tag k="natural" v="valley" />
		<tag k="place" v="locality" />
		<tag k="ssr:stedsnr" v="292084" />
	</node>
	<node lat="61.74836110980183" lon="9.65723055911985" id="-17338">
		<tag k="name" v="Brennhaugen" />
		<tag k="natural" v="hill" />
		<tag k="place" v="locality" />
		<tag k="ssr:stedsnr" v="292191" />
	</node>
	<node lat="61.74213333191091" lon="9.369536105285778" id="-17342">
		<tag k="name" v="Veslesæterberget" />
		<tag k="natural" v="hill" />
		<tag k="place" v="locality" />
		<tag k="ssr:stedsnr" v="292480" />
	</node>
	<node lat="61.74865277836949" lon="9.273786111364013" id="-17343">
		<tag k="name" v="Isberga" />
		<tag k="natural" v="slope" />
		<tag k="place" v="locality" />
		<tag k="ssr:stedsnr" v="292602" />
	</node>
	<node lat="61.75733888851297" lon="9.518722226761149" id="-17346">
		<tag k="name" v="Knollane" />
		<tag k="natural" v="hill" />
		<tag k="place" v="locality" />
		<tag k="ssr:stedsnr" v="292378" />
	</node>
	<node lat="61.79234167045366" lon="9.401749997968357" id="-17347">
		<tag k="name" v="Styggelægan" />
		<tag k="natural" v="hill" />
		<tag k="place" v="locality" />
		<tag k="ssr:stedsnr" v="292507" />
	</node>
	<node lat="61.791541664801" lon="9.398330546165166" id="-17348">
		<tag k="name" v="Nordre Klovo" />
		<tag k="natural" v="gorge" />
		<tag k="ssr:stedsnr" v="292508" />
	</node>
	<node lat="61.697599998299175" lon="9.583249992319802" id="-17353">
		<tag k="name" v="Grønnbakkene" />
		<tag k="natural" v="slope" />
		<tag k="place" v="locality" />
		<tag k="ssr:stedsnr" v="292940" />
	</node>
	<node lat="61.7839249956201" lon="9.527274995869432" id="-17361">
		<tag k="name" v="Nosen" />
		<tag k="place" v="locality" />
		<tag k="ssr:stedsnr" v="293523" />
	</node>
	<node lat="61.78248611055515" lon="9.524961101795204" id="-17362">
		<tag k="name" v="Svartholet" />
		<tag k="natural" v="valley" />
		<tag k="place" v="locality" />
		<tag k="ssr:stedsnr" v="293527" />
	</node>
	<node lat="61.777352776548" lon="9.540377772273724" id="-17363">
		<tag k="name" v="Loftsgardsøya" />
		<tag k="place" v="locality" />
		<tag k="ssr:stedsnr" v="293488" />
	</node>
	<node lat="61.763474999020836" lon="9.380630560048502" id="-17365">
		<tag k="fixme" v="consider natural=peak for the most distinct mountains in the district" />
		<tag k="name" v="Brennhø" />
		<tag k="natural" v="hill" />
		<tag k="place" v="locality" />
		<tag k="ssr:stedsnr" v="293683" />
	</node>
	<node lat="61.7082861145671" lon="9.284655549882457" id="-17369">
		<tag k="alt_name" v="Vesleroa" />
		<tag k="name" v="Vesleroi" />
		<tag k="natural" v="valley" />
		<tag k="place" v="locality" />
		<tag k="ssr:stedsnr" v="313669" />
	</node>
	<node lat="61.817922224296936" lon="9.645769449839982" id="-17380">
		<tag k="name" v="Grønlie" />
		<tag k="natural" v="slope" />
		<tag k="place" v="locality" />
		<tag k="ssr:stedsnr" v="314705" />
	</node>
	<node lat="61.722519440509494" lon="9.239541665261823" id="-17382">
		<tag k="name" v="Ragnhildlågån" />
		<tag k="natural" v="slope" />
		<tag k="place" v="locality" />
		<tag k="ssr:stedsnr" v="473237" />
	</node>
	<node lat="61.733466667564365" lon="9.28668611364018" id="-17384">
		<tag k="name" v="Kvernsteinberget" />
		<tag k="natural" v="hill" />
		<tag k="place" v="locality" />
		<tag k="ssr:stedsnr" v="473795" />
	</node>
	<node lat="61.686888892039846" lon="9.480797223044645" id="-17388">
		<tag k="name" v="Kleivene" />
		<tag k="natural" v="valley" />
		<tag k="place" v="locality" />
		<tag k="ssr:stedsnr" v="474733" />
	</node>
	<node lat="61.76097778205006" lon="9.613974995199099" id="-17391">
		<tag k="name" v="Tulluthaugen" />
		<tag k="natural" v="hill" />
		<tag k="place" v="locality" />
		<tag k="ssr:stedsnr" v="474029" />
	</node>
	<node lat="61.73871666978365" lon="9.613430552424584" id="-17392">
		<tag k="name" v="Godhaugen" />
		<tag k="natural" v="hill" />
		<tag k="place" v="locality" />
		<tag k="ssr:stedsnr" v="474031" />
	</node>
	<node lat="61.8484222220352" lon="9.485647217256016" id="-17401">
		<tag k="name" v="Putthaugen" />
		<tag k="natural" v="hill" />
		<tag k="place" v="locality" />
		<tag k="ssr:stedsnr" v="474099" />
	</node>
	<node lat="61.69226666802408" lon="9.161613887503018" id="-17402">
		<tag k="name" v="Brurusti" />
		<tag k="natural" v="slope" />
		<tag k="place" v="locality" />
		<tag k="ssr:stedsnr" v="474139" />
	</node>
	<node lat="61.80382500149993" lon="9.634716667920772" id="-17403">
		<tag k="fixme" v="consider natural=peak for the most distinct mountains in the district" />
		<tag k="name" v="Kirstidalshø" />
		<tag k="natural" v="hill" />
		<tag k="place" v="locality" />
		<tag k="ssr:stedsnr" v="474140" />
	</node>
	<node lat="61.821172221457" lon="9.591444451823438" id="-17404">
		<tag k="name" v="Heggeruste" />
		<tag k="natural" v="hill" />
		<tag k="place" v="locality" />
		<tag k="ssr:stedsnr" v="474185" />
	</node>
	<node lat="61.817908329389894" lon="9.602816666552526" id="-17405">
		<tag k="name" v="Lynningsflata" />
		<tag k="place" v="locality" />
		<tag k="ssr:stedsnr" v="474197" />
	</node>
	<node lat="61.809800003858975" lon="9.616577786120587" id="-17408">
		<tag k="name" v="Reistbakken" />
		<tag k="natural" v="slope" />
		<tag k="place" v="locality" />
		<tag k="ssr:stedsnr" v="474238" />
	</node>
	<node lat="61.722311111801275" lon="9.269616663682955" id="-17409">
		<tag k="name" v="Gråbeinslågån" />
		<tag k="natural" v="slope" />
		<tag k="place" v="locality" />
		<tag k="ssr:stedsnr" v="352204" />
	</node>
	<node lat="61.73473333351887" lon="9.22838888400989" id="-17411">
		<tag k="name" v="Brattfonnholet" />
		<tag k="natural" v="valley" />
		<tag k="place" v="locality" />
		<tag k="ssr:stedsnr" v="352155" />
	</node>
	<node lat="61.77346666497991" lon="9.51784722772328" id="-17413">
		<tag k="name" v="Dalekleiva" />
		<tag k="natural" v="slope" />
		<tag k="place" v="locality" />
		<tag k="ssr:stedsnr" v="474246" />
	</node>
	<node lat="61.722247220161094" lon="9.507736114885857" id="-17426">
		<tag k="name" v="Vardhaugane" />
		<tag k="natural" v="hill" />
		<tag k="place" v="locality" />
		<tag k="ssr:stedsnr" v="353531" />
	</node>
	<node lat="61.774608331045286" lon="9.537563888726165" id="-17428">
		<tag k="name" v="Vesleelva" />
		<tag k="place" v="locality" />
		<tag k="ssr:stedsnr" v="353474" />
	</node>
	<node lat="61.78706388749683" lon="9.397105560285695" id="-17432">
		<tag k="name" v="Veslekleiva" />
		<tag k="natural" v="slope" />
		<tag k="place" v="locality" />
		<tag k="ssr:stedsnr" v="353661" />
	</node>
	<node lat="61.6570555558644" lon="9.50339444117211" id="-17434">
		<tag k="name" v="Bråkålidalen" />
		<tag k="natural" v="valley" />
		<tag k="place" v="locality" />
		<tag k="ssr:stedsnr" v="353672" />
	</node>
	<node lat="61.75610555157343" lon="9.457119444238513" id="-17440">
		<tag k="name" v="Nordre Måsåhaugen" />
		<tag k="natural" v="hill" />
		<tag k="place" v="locality" />
		<tag k="ssr:stedsnr" v="474646" />
	</node>
	<node lat="61.76109722651824" lon="9.460569453958737" id="-17441">
		<tag k="name" v="Sershaugen" />
		<tag k="natural" v="hill" />
		<tag k="place" v="locality" />
		<tag k="ssr:stedsnr" v="474651" />
	</node>
	<node lat="61.89774444738421" lon="9.493652784245814" id="-17444">
		<tag k="name" v="Storhaugen" />
		<tag k="natural" v="hill" />
		<tag k="place" v="locality" />
		<tag k="ssr:stedsnr" v="474843" />
	</node>
	<node lat="61.80836944439215" lon="9.596238897896455" id="-17448">
		<tag k="name" v="Gurihammaren" />
		<tag k="natural" v="hill" />
		<tag k="place" v="locality" />
		<tag k="ssr:stedsnr" v="475151" />
	</node>
	<node lat="61.79668333317617" lon="9.612555558185234" id="-17449">
		<tag k="name" v="Brennhaugen" />
		<tag k="natural" v="hill" />
		<tag k="place" v="locality" />
		<tag k="ssr:stedsnr" v="475185" />
	</node>
	<node lat="61.76862778172059" lon="9.524780556672109" id="-17454">
		<tag k="name" v="Lykkjesvaet" />
		<tag k="natural" v="hill" />
		<tag k="place" v="locality" />
		<tag k="ssr:stedsnr" v="475489" />
	</node>
	<node lat="61.79394999617488" lon="9.459524999591675" id="-17462">
		<tag k="name" v="Åsårlie" />
		<tag k="natural" v="slope" />
		<tag k="place" v="locality" />
		<tag k="ssr:stedsnr" v="373844" />
	</node>
	<node lat="61.77381389152124" lon="9.595883336544231" id="-17464">
		<tag k="name" v="Svarttjørnberget" />
		<tag k="natural" v="hill" />
		<tag k="place" v="locality" />
		<tag k="ssr:stedsnr" v="374538" />
	</node>
	<node lat="61.90696389209553" lon="9.678763882915575" id="-17466">
		<tag k="name" v="Verkilsdalsbotn" />
		<tag k="natural" v="valley" />
		<tag k="place" v="locality" />
		<tag k="ssr:stedsnr" v="374718" />
	</node>
	<node lat="61.92020555685312" lon="9.5984527860747" id="-17467">
		<tag k="fixme" v="consider natural=peak for the most distinct mountains in the district" />
		<tag k="name" v="Fremre Bråkdalshøe" />
		<tag k="natural" v="hill" />
		<tag k="place" v="locality" />
		<tag k="ssr:stedsnr" v="374719" />
	</node>
	<node lat="61.65607644279401" lon="9.310498712985385" id="-17469">
		<tag k="alt_name" v="Mughalsen" />
		<tag k="name" v="Muhalsen" />
		<tag k="natural" v="valley" />
		<tag k="place" v="locality" />
		<tag k="ssr:stedsnr" v="374725" />
	</node>
	<node lat="61.901913885472474" lon="9.733327768432357" id="-17470">
		<tag k="alt_name" v="Kaldbekkbotn, fremre" />
		<tag k="name" v="Fremre Kaldbekkbotn" />
		<tag k="natural" v="valley" />
		<tag k="place" v="locality" />
		<tag k="ssr:stedsnr" v="374732" />
	</node>
	<node lat="61.87037499927228" lon="9.73768889304449" id="-17472">
		<tag k="name" v="Kluftin" />
		<tag k="natural" v="valley" />
		<tag k="place" v="locality" />
		<tag k="ssr:stedsnr" v="374751" />
	</node>
	<node lat="61.74500953523841" lon="9.593665905051369" id="-17474">
		<tag k="fixme" v="consider natural=peak for the most distinct mountains in the district" />
		<tag k="loc_name" v="Nosset" />
		<tag k="name" v="Slettetoppen" />
		<tag k="natural" v="hill" />
		<tag k="place" v="locality" />
		<tag k="ssr:stedsnr" v="374642" />
	</node>
	<node lat="61.91324381352389" lon="9.665941124903659" id="-17476">
		<tag k="fixme" v="consider natural=peak for the most distinct mountains in the district" />
		<tag k="loc_name" v="Sagtinden" />
		<tag k="name" v="Sagtindan" />
		<tag k="natural" v="hill" />
		<tag k="place" v="locality" />
		<tag k="ssr:stedsnr" v="374650" />
	</node>
	<node lat="61.76548889127471" lon="9.465724994734554" id="-17480">
		<tag k="name" v="Gravådalen" />
		<tag k="natural" v="valley" />
		<tag k="place" v="locality" />
		<tag k="ssr:stedsnr" v="374843" />
	</node>
	<node lat="61.70755278014036" lon="9.101358339491252" id="-17487">
		<tag k="fixme" v="consider natural=peak for the most distinct mountains in the district" />
		<tag k="name" v="Rindhovda" />
		<tag k="natural" v="hill" />
		<tag k="place" v="locality" />
		<tag k="ssr:stedsnr" v="374996" />
	</node>
	<node lat="61.80428610815842" lon="9.6892833368065" id="-17489">
		<tag k="name" v="Pungdalen" />
		<tag k="natural" v="valley" />
		<tag k="place" v="locality" />
		<tag k="ssr:stedsnr" v="375510" />
	</node>
	<node lat="61.79180555664119" lon="9.688705563157868" id="-17490">
		<tag k="name" v="Svinslåberge" />
		<tag k="natural" v="hill" />
		<tag k="place" v="locality" />
		<tag k="ssr:stedsnr" v="375499" />
	</node>
	<node lat="61.725369447200734" lon="9.236655550692811" id="-17495">
		<tag k="name" v="Bjølstadveslehøa" />
		<tag k="natural" v="hill" />
		<tag k="place" v="locality" />
		<tag k="ssr:stedsnr" v="413244" />
	</node>
	<node lat="61.78254722220737" lon="9.600386112771272" id="-17500">
		<tag k="name" v="Drevhaugen" />
		<tag k="natural" v="hill" />
		<tag k="place" v="locality" />
		<tag k="ssr:stedsnr" v="413198" />
	</node>
	<node lat="61.753219444381486" lon="9.58403611155295" id="-17506">
		<tag k="name" v="Stågåbakken" />
		<tag k="natural" v="slope" />
		<tag k="place" v="locality" />
		<tag k="ssr:stedsnr" v="414091" />
	</node>
	<node lat="61.75880833281965" lon="9.57274999298323" id="-17507">
		<tag k="name" v="Kvernhusslettberget" />
		<tag k="natural" v="hill" />
		<tag k="place" v="locality" />
		<tag k="ssr:stedsnr" v="414092" />
	</node>
	<node lat="61.76296388759662" lon="9.597805558036606" id="-17508">
		<tag k="name" v="Mjølkeberget" />
		<tag k="natural" v="hill" />
		<tag k="place" v="locality" />
		<tag k="ssr:stedsnr" v="414097" />
	</node>
	<node lat="61.755066666042396" lon="9.596747228583327" id="-17509">
		<tag k="fixme" v="consider natural=peak for the most distinct mountains in the district" />
		<tag k="name" v="Slettefjellet" />
		<tag k="natural" v="hill" />
		<tag k="place" v="locality" />
		<tag k="ssr:stedsnr" v="414098" />
	</node>
	<node lat="61.8014694471426" lon="9.690302771661596" id="-17511">
		<tag k="name" v="Nyhushøa" />
		<tag k="natural" v="hill" />
		<tag k="place" v="locality" />
		<tag k="ssr:stedsnr" v="414300" />
	</node>
	<node lat="61.82623888926091" lon="9.56950832538715" id="-17513">
		<tag k="name" v="Bjønndalsruste" />
		<tag k="natural" v="hill" />
		<tag k="place" v="locality" />
		<tag k="ssr:stedsnr" v="414200" />
	</node>
	<node lat="61.77428332906175" lon="9.530263895355896" id="-17515">
		<tag k="name" v="Sygardsbakkane" />
		<tag k="natural" v="slope" />
		<tag k="place" v="locality" />
		<tag k="ssr:stedsnr" v="414489" />
	</node>
	<node lat="61.871555554977526" lon="9.383347223563796" id="-17524">
		<tag k="name" v="Rostlia" />
		<tag k="natural" v="slope" />
		<tag k="place" v="locality" />
		<tag k="ssr:stedsnr" v="414896" />
	</node>
	<node lat="61.81475833430832" lon="9.706850001967705" id="-17537">
		<tag k="name" v="Tjønnbakken" />
		<tag k="natural" v="slope" />
		<tag k="place" v="locality" />
		<tag k="ssr:stedsnr" v="436701" />
	</node>
	<node lat="61.71100277611287" lon="9.391838892444094" id="-17551">
		<tag k="name" v="Grønholen" />
		<tag k="natural" v="slope" />
		<tag k="place" v="locality" />
		<tag k="ssr:stedsnr" v="474020" />
	</node>
	<node lat="61.73192222584384" lon="9.203680563749288" id="-17555">
		<tag k="name" v="Skifteshaugen" />
		<tag k="natural" v="hill" />
		<tag k="place" v="locality" />
		<tag k="ssr:stedsnr" v="474178" />
	</node>
	<node lat="61.78610277840709" lon="9.580866666518801" id="-17568">
		<tag k="name" v="Bjønn" />
		<tag k="place" v="locality" />
		<tag k="ssr:stedsnr" v="475319" />
	</node>
	<node lat="61.79562777354841" lon="9.602147216687737" id="-17569">
		<tag k="name" v="Rusthaugen" />
		<tag k="natural" v="hill" />
		<tag k="place" v="locality" />
		<tag k="ssr:stedsnr" v="475176" />
	</node>
	<node lat="61.67078055610141" lon="9.51199167348238" id="-17571">
		<tag k="name" v="Kjekslia" />
		<tag k="natural" v="slope" />
		<tag k="place" v="locality" />
		<tag k="ssr:stedsnr" v="475664" />
	</node>
	<node lat="61.87806388588841" lon="9.97949722441826" id="-17572">
		<tag k="name" v="Illmanndalen" />
		<tag k="natural" v="valley" />
		<tag k="place" v="locality" />
		<tag k="ssr:stedsnr" v="677596" />
	</node>
	<node lat="61.71815555854737" lon="9.28589722047351" id="-17576">
		<tag k="name" v="Vardhø" />
		<tag k="natural" v="hill" />
		<tag k="place" v="locality" />
		<tag k="ssr:stedsnr" v="677669" />
	</node>
	<node lat="61.6587750031502" lon="9.341561103944212" id="-17578">
		<tag k="alt_name" v="Bergdøldalen" />
		<tag k="name" v="Berdøldalen" />
		<tag k="natural" v="valley" />
		<tag k="place" v="locality" />
		<tag k="ssr:stedsnr" v="677714" />
	</node>
	<node lat="61.6822694416224" lon="9.374341658916945" id="-17579">
		<tag k="fixme" v="consider natural=peak for the most distinct mountains in the district" />
		<tag k="name" v="Geitfjellet" />
		<tag k="natural" v="hill" />
		<tag k="place" v="locality" />
		<tag k="ssr:stedsnr" v="677748" />
	</node>
	<node lat="61.79540555557407" lon="9.385486110836684" id="-17583">
		<tag k="fixme" v="consider natural=peak for the most distinct mountains in the district" />
		<tag k="name" v="Andershøe" />
		<tag k="natural" v="hill" />
		<tag k="place" v="locality" />
		<tag k="ssr:stedsnr" v="677861" />
	</node>
	<node lat="61.81105000260056" lon="9.717333326565543" id="-17587">
		<tag k="fixme" v="consider natural=peak for the most distinct mountains in the district" />
		<tag k="name" v="Ranglarhøe" />
		<tag k="natural" v="hill" />
		<tag k="place" v="locality" />
		<tag k="ssr:stedsnr" v="678711" />
	</node>
	<node lat="61.89758333758193" lon="9.631249994096157" id="-17588">
		<tag k="name" v="Tronget" />
		<tag k="natural" v="valley" />
		<tag k="place" v="locality" />
		<tag k="ssr:stedsnr" v="678716" />
	</node>
	<node lat="61.864250000654536" lon="9.845130558264351" id="-17594">
		<tag k="fixme" v="consider natural=peak for the most distinct mountains in the district" />
		<tag k="name" v="Simlepiggen" />
		<tag k="natural" v="hill" />
		<tag k="place" v="locality" />
		<tag k="ssr:stedsnr" v="678734" />
	</node>
	<node lat="61.86351667052752" lon="9.705152776373666" id="-17595">
		<tag k="fixme" v="consider natural=peak for the most distinct mountains in the district" />
		<tag k="name" v="Randen" />
		<tag k="natural" v="hill" />
		<tag k="place" v="locality" />
		<tag k="ssr:stedsnr" v="678738" />
	</node>
	<node lat="61.87414999889364" lon="9.57593332936831" id="-17597">
		<tag k="name" v="Skoråtberget" />
		<tag k="natural" v="hill" />
		<tag k="place" v="locality" />
		<tag k="ssr:stedsnr" v="678945" />
	</node>
	<node lat="61.86551388777188" lon="9.304127775897072" id="-17598">
		<tag k="fixme" v="consider natural=peak for the most distinct mountains in the district" />
		<tag k="name" v="Sjugurdshøpiggen" />
		<tag k="natural" v="hill" />
		<tag k="place" v="locality" />
		<tag k="ssr:stedsnr" v="678948" />
	</node>
	<node lat="61.898136112861614" lon="9.414575008699426" id="-17599">
		<tag k="alt_name" v="Lurven" />
		<tag k="name" v="Nørdre Lurven" />
		<tag k="natural" v="hill" />
		<tag k="place" v="locality" />
		<tag k="ssr:stedsnr" v="678952" />
	</node>
	<node lat="61.589336110214774" lon="9.254533323987259" id="-17603">
		<tag k="alt_name" v="Mugmoen" />
		<tag k="name" v="Mumoen" />
		<tag k="place" v="locality" />
		<tag k="ssr:stedsnr" v="495525" />
	</node>
	<node lat="61.70444166419489" lon="9.51104166750807" id="-17605">
		<tag k="name" v="Storliberget" />
		<tag k="natural" v="hill" />
		<tag k="place" v="locality" />
		<tag k="ssr:stedsnr" v="495715" />
	</node>
	<node lat="61.68008611446888" lon="9.46087500094345" id="-17615">
		<tag k="name" v="Jelkedalen" />
		<tag k="natural" v="valley" />
		<tag k="place" v="locality" />
		<tag k="ssr:stedsnr" v="495754" />
	</node>
	<node lat="61.80619722401125" lon="9.611449995999152" id="-17624">
		<tag k="name" v="Kirstidalen" />
		<tag k="natural" v="valley" />
		<tag k="place" v="locality" />
		<tag k="ssr:stedsnr" v="496567" />
	</node>
	<node lat="61.785122220098756" lon="9.61249999563985" id="-17633">
		<tag k="name" v="Ormhaugen" />
		<tag k="natural" v="hill" />
		<tag k="place" v="locality" />
		<tag k="ssr:stedsnr" v="534185" />
	</node>
	<node lat="61.74892221825526" lon="9.599472230339034" id="-17641">
		<tag k="name" v="Slettepiggen" />
		<tag k="natural" v="hill" />
		<tag k="place" v="locality" />
		<tag k="ssr:stedsnr" v="535084" />
	</node>
	<node lat="61.79219166828536" lon="9.658594448328833" id="-17646">
		<tag k="name" v="Fjellmillompiggen" />
		<tag k="natural" v="hill" />
		<tag k="place" v="locality" />
		<tag k="ssr:stedsnr" v="535369" />
	</node>
	<node lat="61.76582499616778" lon="9.410083332050988" id="-17650">
		<tag k="name" v="Lurven" />
		<tag k="natural" v="slope" />
		<tag k="place" v="locality" />
		<tag k="ssr:stedsnr" v="535670" />
	</node>
	<node lat="61.78296388688299" lon="9.440027772112398" id="-17652">
		<tag k="name" v="Kampeoksla" />
		<tag k="place" v="locality" />
		<tag k="ssr:stedsnr" v="535688" />
	</node>
	<node lat="61.743525001153316" lon="9.408766658669872" id="-17657">
		<tag k="alt_name" v="Gråurda" />
		<tag k="name" v="Gråurdi" />
		<tag k="natural" v="slope" />
		<tag k="place" v="locality" />
		<tag k="ssr:stedsnr" v="555603" />
	</node>
	<node lat="61.757966600113505" lon="9.638686079151954" id="-17659">
		<tag k="alt_name" v="Blomseterdalen" />
		<tag k="name" v="Blomsæterdalen" />
		<tag k="natural" v="valley" />
		<tag k="place" v="locality" />
		<tag k="ssr:stedsnr" v="555616" />
	</node>
	<node lat="61.733100001391186" lon="9.58853333573565" id="-17665">
		<tag k="name" v="Løypeberget" />
		<tag k="natural" v="hill" />
		<tag k="place" v="locality" />
		<tag k="ssr:stedsnr" v="556706" />
	</node>
	<node lat="61.846019442675086" lon="9.579452773002242" id="-17669">
		<tag k="name" v="Binghøe" />
		<tag k="natural" v="hill" />
		<tag k="place" v="locality" />
		<tag k="ssr:stedsnr" v="556810" />
	</node>
	<node lat="61.80468888585024" lon="9.526647228723123" id="-17672">
		<tag k="fixme" v="consider natural=peak for the most distinct mountains in the district" />
		<tag k="name" v="Holepiggen" />
		<tag k="natural" v="hill" />
		<tag k="place" v="locality" />
		<tag k="ssr:stedsnr" v="556867" />
	</node>
	<node lat="61.876108331026124" lon="9.315625005480163" id="-17674">
		<tag k="name" v="Tronddalen" />
		<tag k="natural" v="valley" />
		<tag k="place" v="locality" />
		<tag k="ssr:stedsnr" v="556958" />
	</node>
	<node lat="61.713955556007875" lon="9.399205547610128" id="-17681">
		<tag k="name" v="Haugane" />
		<tag k="natural" v="slope" />
		<tag k="place" v="locality" />
		<tag k="ssr:stedsnr" v="595006" />
	</node>
	<node lat="61.70980555269847" lon="9.376277783593908" id="-17682">
		<tag k="name" v="Puttresset" />
		<tag k="natural" v="slope" />
		<tag k="place" v="locality" />
		<tag k="ssr:stedsnr" v="595009" />
	</node>
	<node lat="61.802099996638276" lon="9.485302778574194" id="-17684">
		<tag k="name" v="Rabbane" />
		<tag k="natural" v="slope" />
		<tag k="place" v="locality" />
		<tag k="ssr:stedsnr" v="595012" />
	</node>
	<node lat="61.79580277515315" lon="9.517138881185979" id="-17685">
		<tag k="fixme" v="consider natural=peak for the most distinct mountains in the district" />
		<tag k="name" v="Søråsen" />
		<tag k="natural" v="hill" />
		<tag k="place" v="locality" />
		<tag k="ssr:stedsnr" v="595019" />
	</node>
	<node lat="61.80092500086365" lon="9.69187777846653" id="-17693">
		<tag k="name" v="Nyhusgutane" />
		<tag k="natural" v="hill" />
		<tag k="place" v="locality" />
		<tag k="ssr:stedsnr" v="595258" />
	</node>
	<node lat="61.793191663223276" lon="9.441419449264739" id="-17698">
		<tag k="name" v="Krekabakken" />
		<tag k="natural" v="slope" />
		<tag k="place" v="locality" />
		<tag k="ssr:stedsnr" v="595722" />
	</node>
	<node lat="61.83653333670511" lon="9.608933324457007" id="-17702">
		<tag k="name" v="Nedre Løype" />
		<tag k="natural" v="valley" />
		<tag k="place" v="locality" />
		<tag k="ssr:stedsnr" v="596250" />
	</node>
	<node lat="61.74496389330128" lon="9.512808328825338" id="-17705">
		<tag k="name" v="Bupiggen" />
		<tag k="natural" v="hill" />
		<tag k="place" v="locality" />
		<tag k="ssr:stedsnr" v="596358" />
	</node>
	<node lat="61.86215555925833" lon="9.434588896499037" id="-17714">
		<tag k="fixme" v="consider natural=peak for the most distinct mountains in the district" />
		<tag k="name" v="Heimfjellet" />
		<tag k="natural" v="hill" />
		<tag k="place" v="locality" />
		<tag k="ssr:stedsnr" v="596903" />
	</node>
	<node lat="61.697186112991936" lon="9.517808339235703" id="-17722">
		<tag k="name" v="Slåberget" />
		<tag k="natural" v="hill" />
		<tag k="old_name" v="Slaaberget" />
		<tag k="place" v="locality" />
		<tag k="ssr:stedsnr" v="616691" />
	</node>
	<node lat="61.69131388777288" lon="9.579608329173048" id="-17723">
		<tag k="fixme" v="consider natural=peak for the most distinct mountains in the district" />
		<tag k="name" v="Kolodokka" />
		<tag k="natural" v="hill" />
		<tag k="place" v="locality" />
		<tag k="ssr:stedsnr" v="616693" />
	</node>
	<node lat="61.6999500031275" lon="9.51196944237038" id="-17725">
		<tag k="name" v="Storfonnberget" />
		<tag k="natural" v="hill" />
		<tag k="place" v="locality" />
		<tag k="ssr:stedsnr" v="616697" />
	</node>
	<node lat="61.85172777827068" lon="9.724041673871184" id="-17737">
		<tag k="name" v="Satansrivillen" />
		<tag k="natural" v="ridge" />
		<tag k="place" v="locality" />
		<tag k="ssr:stedsnr" v="617702" />
	</node>
	<node lat="61.701708329488596" lon="9.383558337979748" id="-17743">
		<tag k="fixme" v="consider natural=peak for the most distinct mountains in the district" />
		<tag k="name" v="Snauskallen" />
		<tag k="natural" v="hill" />
		<tag k="place" v="locality" />
		<tag k="ssr:stedsnr" v="617729" />
	</node>
	<node lat="61.81771111109529" lon="9.50081111460106" id="-17744">
		<tag k="name" v="Rudiskardet" />
		<tag k="natural" v="valley" />
		<tag k="place" v="locality" />
		<tag k="ssr:stedsnr" v="617779" />
	</node>
	<node lat="61.749572401113184" lon="9.61884860826688" id="-17746">
		<tag k="fixme" v="consider natural=peak for the most distinct mountains in the district" />
		<tag k="name" v="Vardhø" />
		<tag k="natural" v="hill" />
		<tag k="place" v="locality" />
		<tag k="ssr:stedsnr" v="708053" />
	</node>
	<node lat="61.82055278057775" lon="9.61579444560212" id="-17755">
		<tag k="name" v="Skortane" />
		<tag k="natural" v="hill" />
		<tag k="place" v="locality" />
		<tag k="ssr:stedsnr" v="656222" />
	</node>
	<node lat="61.81841944189476" lon="9.599611102929225" id="-17756">
		<tag k="name" v="Lortbakkane" />
		<tag k="natural" v="slope" />
		<tag k="place" v="locality" />
		<tag k="ssr:stedsnr" v="656188" />
	</node>
	<node lat="61.74275833214027" lon="9.44478889265935" id="-17757">
		<tag k="name" v="Rundfjellet" />
		<tag k="natural" v="hill" />
		<tag k="place" v="locality" />
		<tag k="ssr:stedsnr" v="656339" />
	</node>
	<node lat="61.81342500037673" lon="9.627641659114786" id="-17758">
		<tag k="name" v="Klovo" />
		<tag k="natural" v="hill" />
		<tag k="place" v="locality" />
		<tag k="ssr:stedsnr" v="656341" />
	</node>
	<node lat="61.730511111579204" lon="9.52765834174843" id="-17759">
		<tag k="name" v="Hågåberget" />
		<tag k="natural" v="hill" />
		<tag k="place" v="locality" />
		<tag k="ssr:stedsnr" v="656610" />
	</node>
	<node lat="61.715313887964044" lon="9.591805547536467" id="-17764">
		<tag k="name" v="Storflye" />
		<tag k="place" v="locality" />
		<tag k="ssr:stedsnr" v="656893" />
	</node>
	<node lat="61.66556944204537" lon="9.449719446617134" id="-17778">
		<tag k="name" v="Tungdalen" />
		<tag k="natural" v="valley" />
		<tag k="place" v="locality" />
		<tag k="ssr:stedsnr" v="677728" />
	</node>
	<node lat="61.67278610860451" lon="9.419316661909907" id="-17779">
		<tag k="name" v="Veslhaugen" />
		<tag k="natural" v="hill" />
		<tag k="place" v="locality" />
		<tag k="ssr:stedsnr" v="677731" />
	</node>
	<node lat="61.63453363631352" lon="9.337370994800763" id="-17784">
		<tag k="alt_name" v="Mugkampen" />
		<tag k="fixme" v="multiple name tags, choose one and add the other to alt_name; consider natural=peak for the most distinct mountains in the district" />
		<tag k="name" v="Mukampen;Heidalsmuen" />
		<tag k="natural" v="hill" />
		<tag k="place" v="locality" />
		<tag k="ssr:stedsnr" v="678505" />
	</node>
	<node lat="61.86634999706306" lon="9.890247214231984" id="-17788">
		<tag k="name" v="Kjøtholet" />
		<tag k="natural" v="valley" />
		<tag k="place" v="locality" />
		<tag k="ssr:stedsnr" v="678686" />
	</node>
	<node lat="61.933225003866724" lon="9.507311104824142" id="-17790">
		<tag k="fixme" v="consider natural=peak for the most distinct mountains in the district" />
		<tag k="name" v="Gråknarten" />
		<tag k="natural" v="hill" />
		<tag k="place" v="locality" />
		<tag k="ssr:stedsnr" v="678893" />
	</node>
	<node lat="61.89429722397532" lon="9.674980551008113" id="-17791">
		<tag k="fixme" v="consider natural=peak for the most distinct mountains in the district" />
		<tag k="name" v="Bråkdalsbelgen" />
		<tag k="natural" v="hill" />
		<tag k="place" v="locality" />
		<tag k="ssr:stedsnr" v="678721" />
	</node>
	<node lat="61.765419445247645" lon="9.324855546957815" id="-17803">
		<tag k="name" v="Veslesæterhaugen" />
		<tag k="natural" v="hill" />
		<tag k="place" v="locality" />
		<tag k="ssr:stedsnr" v="716603" />
	</node>
	<node lat="61.70398611163888" lon="9.384372223926473" id="-17805">
		<tag k="name" v="Skriuholet" />
		<tag k="natural" v="slope" />
		<tag k="place" v="locality" />
		<tag k="ssr:stedsnr" v="899017" />
	</node>
	<node lat="61.74026666365525" lon="9.6009027738093" id="-17809">
		<tag k="name" v="Risdalen" />
		<tag k="natural" v="valley" />
		<tag k="place" v="locality" />
		<tag k="ssr:stedsnr" v="899038" />
	</node>
	<node lat="61.67356111189606" lon="9.241061116531222" id="-17810">
		<tag k="fixme" v="consider natural=peak for the most distinct mountains in the district" />
		<tag k="name" v="Sundtjønnåsen" />
		<tag k="natural" v="hill" />
		<tag k="place" v="locality" />
		<tag k="ssr:stedsnr" v="899130" />
	</node>
	<node lat="61.73335277395826" lon="9.568211102615546" id="-17811">
		<tag k="name" v="Løype" />
		<tag k="natural" v="slope" />
		<tag k="place" v="locality" />
		<tag k="ssr:stedsnr" v="717024" />
	</node>
	<node lat="61.810141667952124" lon="9.57838333212788" id="-17812">
		<tag k="name" v="Benkane" />
		<tag k="natural" v="hill" />
		<tag k="place" v="locality" />
		<tag k="ssr:stedsnr" v="717207" />
	</node>
	<node lat="61.71971944104706" lon="9.115341665554936" id="-17822">
		<tag k="name" v="Ørnberget" />
		<tag k="natural" v="hill" />
		<tag k="place" v="locality" />
		<tag k="ssr:stedsnr" v="899174" />
	</node>
	<node lat="61.822244442561264" lon="9.613930555729175" id="-17831">
		<tag k="name" v="Skreppsvaet" />
		<tag k="natural" v="slope" />
		<tag k="place" v="locality" />
		<tag k="ssr:stedsnr" v="899246" />
	</node>
	<node lat="61.8224972192101" lon="9.641247219679505" id="-17838">
		<tag k="name" v="Kampstulberga" />
		<tag k="natural" v="hill" />
		<tag k="place" v="locality" />
		<tag k="ssr:stedsnr" v="899385" />
	</node>
	<node lat="61.79363889089652" lon="9.404733337486991" id="-17841">
		<tag k="name" v="Søre Klovo" />
		<tag k="natural" v="gorge" />
		<tag k="ssr:stedsnr" v="899536" />
	</node>
	<node lat="61.701938887099125" lon="9.475338880603092" id="-17842">
		<tag k="name" v="Høgberget" />
		<tag k="natural" v="hill" />
		<tag k="place" v="locality" />
		<tag k="ssr:stedsnr" v="899538" />
	</node>
	<node lat="61.687397221598424" lon="9.540463894994275" id="-17844">
		<tag k="name" v="Bosslia" />
		<tag k="natural" v="slope" />
		<tag k="place" v="locality" />
		<tag k="ssr:stedsnr" v="899641" />
	</node>
	<node lat="61.77381388581911" lon="9.561088894005527" id="-17855">
		<tag k="name" v="Katromflata" />
		<tag k="place" v="locality" />
		<tag k="ssr:stedsnr" v="900082" />
	</node>
	<node lat="61.77563055148295" lon="9.652327781014524" id="-17856">
		<tag k="name" v="Nonshaugen" />
		<tag k="natural" v="hill" />
		<tag k="place" v="locality" />
		<tag k="ssr:stedsnr" v="900142" />
	</node>
	<node lat="61.77415555480296" lon="9.54010000858576" id="-17859">
		<tag k="name" v="Mostuguøya" />
		<tag k="place" v="locality" />
		<tag k="ssr:stedsnr" v="900473" />
	</node>
	<node lat="61.76817221876346" lon="9.533322224091199" id="-17861">
		<tag k="name" v="Svartskogen" />
		<tag k="natural" v="slope" />
		<tag k="place" v="locality" />
		<tag k="ssr:stedsnr" v="900492" />
	</node>
	<node lat="61.85336944279229" lon="9.454766664781877" id="-17865">
		<tag k="name" v="Jørundstadhammaren" />
		<tag k="natural" v="cliff" />
		<tag k="ssr:stedsnr" v="900895" />
	</node>
	<node lat="61.859627778885944" lon="9.516536108571623" id="-17867">
		<tag k="fixme" v="multiple name tags, choose one and add the other to alt_name" />
		<tag k="name" v="Indre Kampeslåe;Kampeslåe" />
		<tag k="natural" v="slope" />
		<tag k="place" v="locality" />
		<tag k="ssr:stedsnr" v="737955" />
	</node>
	<node lat="61.870805552941654" lon="10.004452771806763" id="-17870">
		<tag k="name" v="Skjerdalen" />
		<tag k="natural" v="valley" />
		<tag k="place" v="locality" />
		<tag k="ssr:stedsnr" v="738568" />
	</node>
	<node lat="61.84057777386148" lon="9.531674990543497" id="-17873">
		<tag k="fixme" v="consider natural=peak for the most distinct mountains in the district" />
		<tag k="name" v="Skallfjellet" />
		<tag k="natural" v="hill" />
		<tag k="place" v="locality" />
		<tag k="ssr:stedsnr" v="738809" />
	</node>
	<node lat="61.77773333085915" lon="9.438405560224213" id="-17876">
		<tag k="fixme" v="consider natural=peak for the most distinct mountains in the district" />
		<tag k="name" v="Veggemskampen" />
		<tag k="natural" v="hill" />
		<tag k="place" v="locality" />
		<tag k="ssr:stedsnr" v="738856" />
	</node>
	<node lat="61.621088889207684" lon="9.185541675276072" id="-17878">
		<tag k="alt_name" v="Bjørnhamaren" />
		<tag k="fixme" v="consider natural=peak for the most distinct mountains in the district" />
		<tag k="name" v="Bjørnhammeren" />
		<tag k="natural" v="hill" />
		<tag k="place" v="locality" />
		<tag k="ssr:stedsnr" v="738802" />
	</node>
	<node lat="61.822913892377706" lon="9.668444438035133" id="-17881">
		<tag k="name" v="Kåsen" />
		<tag k="natural" v="hill" />
		<tag k="place" v="locality" />
		<tag k="ssr:stedsnr" v="739703" />
	</node>
	<node lat="61.87589999685615" lon="9.78505833532674" id="-17884">
		<tag k="name" v="Jutulhogget" />
		<tag k="natural" v="valley" />
		<tag k="place" v="locality" />
		<tag k="ssr:stedsnr" v="739745" />
	</node>
	<node lat="61.95275555964163" lon="9.58410556366905" id="-17885">
		<tag k="name" v="Djupdalen" />
		<tag k="natural" v="valley" />
		<tag k="place" v="locality" />
		<tag k="ssr:stedsnr" v="739902" />
	</node>
	<node lat="61.73526944012608" lon="9.203486103115486" id="-17895">
		<tag k="name" v="Høgberget" />
		<tag k="natural" v="hill" />
		<tag k="place" v="locality" />
		<tag k="ssr:stedsnr" v="777164" />
	</node>
	<node lat="61.5726388914523" lon="9.178397213399068" id="-17896">
		<tag k="fixme" v="consider natural=peak for the most distinct mountains in the district" />
		<tag k="name" v="Refjellet" />
		<tag k="natural" v="hill" />
		<tag k="place" v="locality" />
		<tag k="ssr:stedsnr" v="777060" />
	</node>
	<node lat="61.74096111365025" lon="9.619274990749242" id="-17902">
		<tag k="name" v="Farleghaugen" />
		<tag k="natural" v="hill" />
		<tag k="place" v="locality" />
		<tag k="ssr:stedsnr" v="778030" />
	</node>
	<node lat="61.770555557303425" lon="9.572880558932074" id="-17904">
		<tag k="name" v="Glupen" />
		<tag k="natural" v="slope" />
		<tag k="place" v="locality" />
		<tag k="ssr:stedsnr" v="778152" />
	</node>
	<node lat="61.787877773580824" lon="9.566661110705198" id="-17905">
		<tag k="name" v="Pælhaugen" />
		<tag k="natural" v="hill" />
		<tag k="place" v="locality" />
		<tag k="ssr:stedsnr" v="778163" />
	</node>
	<node lat="61.82142499836483" lon="9.640772228532835" id="-17907">
		<tag k="name" v="Dalehaugen" />
		<tag k="natural" v="hill" />
		<tag k="place" v="locality" />
		<tag k="ssr:stedsnr" v="778359" />
	</node>
	<node lat="61.74755277937229" lon="9.514050005247402" id="-17908">
		<tag k="name" v="Helleberghaugen" />
		<tag k="natural" v="hill" />
		<tag k="place" v="locality" />
		<tag k="ssr:stedsnr" v="778367" />
	</node>
	<node lat="61.71194166359703" lon="9.543816665299039" id="-17917">
		<tag k="name" v="Øvjuhaugen" />
		<tag k="natural" v="hill" />
		<tag k="place" v="locality" />
		<tag k="ssr:stedsnr" v="778616" />
	</node>
	<node lat="61.75791666955258" lon="9.404180564302957" id="-17920">
		<tag k="name" v="Bergahaugdokkje" />
		<tag k="natural" v="valley" />
		<tag k="place" v="locality" />
		<tag k="ssr:stedsnr" v="778668" />
	</node>
	<node lat="61.767588887135354" lon="9.373622215965009" id="-17921">
		<tag k="fixme" v="consider natural=peak for the most distinct mountains in the district" />
		<tag k="name" v="Gråhø" />
		<tag k="natural" v="hill" />
		<tag k="place" v="locality" />
		<tag k="ssr:stedsnr" v="778671" />
	</node>
	<node lat="61.77407222278611" lon="9.20958888595273" id="-17922">
		<tag k="name" v="Reirethaugen" />
		<tag k="natural" v="hill" />
		<tag k="place" v="locality" />
		<tag k="ssr:stedsnr" v="778952" />
	</node>
	<node lat="61.72066666393658" lon="9.331158338406386" id="-17924">
		<tag k="name" v="Skitjønndalen" />
		<tag k="natural" v="valley" />
		<tag k="place" v="locality" />
		<tag k="ssr:stedsnr" v="778849" />
	</node>
	<node lat="61.65136111150538" lon="9.277224997892212" id="-17929">
		<tag k="name" v="Bjørnhaugen" />
		<tag k="natural" v="hill" />
		<tag k="place" v="locality" />
		<tag k="ssr:stedsnr" v="799547" />
	</node>
	<node lat="61.72528888838706" lon="9.47545554962668" id="-17931">
		<tag k="fixme" v="consider natural=peak for the most distinct mountains in the district" />
		<tag k="name" v="Roskarven" />
		<tag k="natural" v="hill" />
		<tag k="place" v="locality" />
		<tag k="ssr:stedsnr" v="799709" />
	</node>
	<node lat="61.72475278145992" lon="9.445269435922635" id="-17933">
		<tag k="alt_name" v="Ronosåflata" />
		<tag k="name" v="Ronåsåflata" />
		<tag k="place" v="locality" />
		<tag k="ssr:stedsnr" v="799711" />
	</node>
	<node lat="61.76108888515149" lon="9.568741664480829" id="-17934">
		<tag k="name" v="Vetahøe" />
		<tag k="natural" v="hill" />
		<tag k="place" v="locality" />
		<tag k="ssr:stedsnr" v="799712" />
	</node>
	<node lat="61.70224167085173" lon="9.263630551997483" id="-17939">
		<tag k="fixme" v="consider natural=peak for the most distinct mountains in the district" />
		<tag k="name" v="Steinhø" />
		<tag k="natural" v="hill" />
		<tag k="place" v="locality" />
		<tag k="ssr:stedsnr" v="799743" />
	</node>
	<node lat="61.821624999431876" lon="9.517558326937234" id="-17942">
		<tag k="loc_name" v="Selsvollan" />
		<tag k="name" v="Selsmyrin" />
		<tag k="place" v="locality" />
		<tag k="ssr:stedsnr" v="799782" />
	</node>
	<node lat="61.81649999774569" lon="9.454880563365048" id="-17943">
		<tag k="fixme" v="consider natural=peak for the most distinct mountains in the district" />
		<tag k="name" v="Råsdalsfjellet" />
		<tag k="natural" v="hill" />
		<tag k="place" v="locality" />
		<tag k="ssr:stedsnr" v="799787" />
	</node>
	<node lat="61.80316110941281" lon="9.428624993527112" id="-17945">
		<tag k="name" v="Nersæterhaugen" />
		<tag k="natural" v="hill" />
		<tag k="place" v="locality" />
		<tag k="ssr:stedsnr" v="799907" />
	</node>
	<node lat="61.7638250000323" lon="9.35609722144405" id="-17946">
		<tag k="name" v="Storflyhaugen" />
		<tag k="natural" v="hill" />
		<tag k="place" v="locality" />
		<tag k="ssr:stedsnr" v="799836" />
	</node>
	<node lat="61.84625397608202" lon="9.39721375402535" id="-17952">
		<tag k="name" v="Steinkyrkja" />
		<tag k="natural" v="hill" />
		<tag k="place" v="locality" />
		<tag k="ssr:stedsnr" v="800786" />
	</node>
	<node lat="61.577924997809944" lon="9.20645000159644" id="-17956">
		<tag k="alt_name" v="Fiskeløyshaugen" />
		<tag k="name" v="Fiskløyshaugen" />
		<tag k="natural" v="hill" />
		<tag k="place" v="locality" />
		<tag k="ssr:stedsnr" v="920828" />
	</node>
	<node lat="61.71811388935942" lon="9.412975004377442" id="-17959">
		<tag k="name" v="Båsdalsberget" />
		<tag k="natural" v="hill" />
		<tag k="place" v="locality" />
		<tag k="ssr:stedsnr" v="920663" />
	</node>
	<node lat="61.71940277352083" lon="9.209674997273934" id="-17969">
		<tag k="name" v="Langdalen" />
		<tag k="natural" v="valley" />
		<tag k="place" v="locality" />
		<tag k="ssr:stedsnr" v="920975" />
	</node>
	<node lat="61.7869277743216" lon="9.627769439644986" id="-17970">
		<tag k="name" v="Holtjønnpiggen" />
		<tag k="natural" v="hill" />
		<tag k="place" v="locality" />
		<tag k="ssr:stedsnr" v="921558" />
	</node>
	<node lat="61.948297220681894" lon="9.624219442126943" id="-17972">
		<tag k="fixme" v="consider natural=peak for the most distinct mountains in the district" />
		<tag k="name" v="Gråhøe" />
		<tag k="natural" v="hill" />
		<tag k="place" v="locality" />
		<tag k="ssr:stedsnr" v="921653" />
	</node>
	<node lat="61.882008332765935" lon="9.680436117529984" id="-17975">
		<tag k="fixme" v="consider natural=peak for the most distinct mountains in the district" />
		<tag k="name" v="Smiukampen" />
		<tag k="natural" v="hill" />
		<tag k="place" v="locality" />
		<tag k="ssr:stedsnr" v="921747" />
	</node>
	<node lat="61.92465000355182" lon="9.566152768517483" id="-17978">
		<tag k="name" v="Lårgardsglupen" />
		<tag k="natural" v="valley" />
		<tag k="place" v="locality" />
		<tag k="ssr:stedsnr" v="921870" />
	</node>
	<node lat="61.94750832923315" lon="9.578536110560147" id="-17979">
		<tag k="name" v="Vasskjelet" />
		<tag k="place" v="locality" />
		<tag k="ssr:stedsnr" v="921886" />
	</node>
	<node lat="61.87232221895804" lon="9.463627771945598" id="-17980">
		<tag k="fixme" v="consider natural=peak for the most distinct mountains in the district" />
		<tag k="name" v="Anaripiggen" />
		<tag k="natural" v="hill" />
		<tag k="place" v="locality" />
		<tag k="ssr:stedsnr" v="921954" />
	</node>
	<node lat="61.7183666664665" lon="9.408136104354686" id="-17982">
		<tag k="name" v="Båsdalsberget" />
		<tag k="natural" v="hill" />
		<tag k="place" v="locality" />
		<tag k="ssr:stedsnr" v="838026" />
	</node>
	<node lat="61.601802777320515" lon="9.30634999809872" id="-17986">
		<tag k="name" v="Søhaugen" />
		<tag k="natural" v="hill" />
		<tag k="place" v="locality" />
		<tag k="ssr:stedsnr" v="838109" />
	</node>
	<node lat="61.770008330603055" lon="9.354111110437026" id="-17988">
		<tag k="name" v="Gråhø" />
		<tag k="natural" v="hill" />
		<tag k="place" v="locality" />
		<tag k="ssr:stedsnr" v="838609" />
	</node>
	<node lat="61.73400555127941" lon="9.29358054891376" id="-17991">
		<tag k="name" v="Langhaugen" />
		<tag k="natural" v="hill" />
		<tag k="place" v="locality" />
		<tag k="ssr:stedsnr" v="838830" />
	</node>
	<node lat="61.82379722362049" lon="9.577988890360713" id="-18000">
		<tag k="name" v="Rognruste" />
		<tag k="natural" v="hill" />
		<tag k="place" v="locality" />
		<tag k="ssr:stedsnr" v="839186" />
	</node>
	<node lat="61.823075000401" lon="9.627033333027743" id="-18002">
		<tag k="name" v="Skorrin" />
		<tag k="natural" v="hill" />
		<tag k="place" v="locality" />
		<tag k="ssr:stedsnr" v="839378" />
	</node>
	<node lat="61.8179305561122" lon="9.627727775074558" id="-18003">
		<tag k="name" v="Legedalen" />
		<tag k="natural" v="valley" />
		<tag k="place" v="locality" />
		<tag k="ssr:stedsnr" v="839383" />
	</node>
	<node lat="61.782713885974246" lon="9.453891675139936" id="-18007">
		<tag k="name" v="Myrhaugen" />
		<tag k="natural" v="hill" />
		<tag k="place" v="locality" />
		<tag k="ssr:stedsnr" v="839693" />
	</node>
	<node lat="61.67231110999793" lon="9.323350001766844" id="-18016">
		<tag k="alt_name" v="Mugroa" />
		<tag k="name" v="Mugroi" />
		<tag k="natural" v="valley" />
		<tag k="place" v="locality" />
		<tag k="ssr:stedsnr" v="859717" />
	</node>
	<node lat="61.653927778570235" lon="9.38130554647885" id="-18023">
		<tag k="fixme" v="consider natural=peak for the most distinct mountains in the district" />
		<tag k="name" v="Kringlefjellet" />
		<tag k="natural" v="hill" />
		<tag k="place" v="locality" />
		<tag k="ssr:stedsnr" v="860559" />
	</node>
	<node lat="61.642933334303905" lon="9.447911107441664" id="-18024">
		<tag k="fixme" v="consider natural=peak for the most distinct mountains in the district" />
		<tag k="name" v="Svarthøa" />
		<tag k="natural" v="hill" />
		<tag k="place" v="locality" />
		<tag k="ssr:stedsnr" v="860563" />
	</node>
	<node lat="61.76506388605451" lon="9.640827777945768" id="-18025">
		<tag k="alt_name" v="Krosshaugene" />
		<tag k="name" v="Krosshaugan" />
		<tag k="natural" v="hill" />
		<tag k="place" v="locality" />
		<tag k="ssr:stedsnr" v="860582" />
	</node>
	<node lat="61.781619447843795" lon="9.285638893309685" id="-18030">
		<tag k="fixme" v="consider natural=peak for the most distinct mountains in the district" />
		<tag k="name" v="Skrivarhøe" />
		<tag k="natural" v="hill" />
		<tag k="place" v="locality" />
		<tag k="ssr:stedsnr" v="860859" />
	</node>
	<node lat="61.90452222661107" lon="9.754572215354978" id="-18031">
		<tag k="alt_name" v="Kaldbekkbotn, indre" />
		<tag k="name" v="Indre Kaldbekkbotn" />
		<tag k="natural" v="valley" />
		<tag k="place" v="locality" />
		<tag k="ssr:stedsnr" v="860755" />
	</node>
	<node lat="61.89272499615876" lon="9.732449992330615" id="-18032">
		<tag k="name" v="Klarabotn" />
		<tag k="natural" v="valley" />
		<tag k="place" v="locality" />
		<tag k="ssr:stedsnr" v="860757" />
	</node>
	<node lat="61.86062222240042" lon="9.442752786175006" id="-18033">
		<tag k="name" v="Hårrtjønnhøe" />
		<tag k="natural" v="ridge" />
		<tag k="place" v="locality" />
		<tag k="ssr:stedsnr" v="860959" />
	</node>
	<node lat="61.74910000281046" lon="9.117102781445235" id="-18036">
		<tag k="alt_name" v="Slomhaugen" />
		<tag k="name" v="Slombhaugen" />
		<tag k="natural" v="hill" />
		<tag k="place" v="locality" />
		<tag k="ssr:stedsnr" v="860970" />
	</node>
	<node lat="61.816569448072045" lon="9.646522227116908" id="-18047">
		<tag k="loc_name" v="Oksle" />
		<tag k="name" v="Oksla" />
		<tag k="natural" v="ridge" />
		<tag k="place" v="locality" />
		<tag k="ssr:stedsnr" v="899353" />
	</node>
	<node lat="61.7620527751726" lon="9.511738883021213" id="-18052">
		<tag k="name" v="Kroksvingen" />
		<tag k="natural" v="slope" />
		<tag k="place" v="locality" />
		<tag k="ssr:stedsnr" v="899418" />
	</node>
	<node lat="61.736099997070326" lon="9.361055562560876" id="-18054">
		<tag k="name" v="Flathaugen" />
		<tag k="natural" v="hill" />
		<tag k="place" v="locality" />
		<tag k="ssr:stedsnr" v="899500" />
	</node>
	<node lat="61.73306111037739" lon="9.314480547451943" id="-18059">
		<tag k="name" v="Gammelhyttbakken" />
		<tag k="natural" v="slope" />
		<tag k="place" v="locality" />
		<tag k="ssr:stedsnr" v="899816" />
	</node>
	<node lat="61.76250000053875" lon="9.440277785070357" id="-18065">
		<tag k="name" v="Taraldslette" />
		<tag k="place" v="locality" />
		<tag k="ssr:stedsnr" v="900652" />
	</node>
	<node lat="61.7751611080676" lon="9.208477777518924" id="-18067">
		<tag k="alt_name" v="Skarvhøi, vestre;Skarvhøi" />
		<tag k="fixme" v="consider natural=peak for the most distinct mountains in the district" />
		<tag k="name" v="Vestre Skarvhøi" />
		<tag k="natural" v="hill" />
		<tag k="place" v="locality" />
		<tag k="ssr:stedsnr" v="920388" />
	</node>
	<node lat="61.83211944247169" lon="9.37693054871745" id="-18081">
		<tag k="alt_name" v="Geithornet" />
		<tag k="name" v="Nedre Geithornet" />
		<tag k="natural" v="hill" />
		<tag k="place" v="locality" />
		<tag k="ssr:stedsnr" v="920796" />
	</node>
	<node lat="61.72231388614466" lon="9.129502773741828" id="-18088">
		<tag k="name" v="Ørnberget" />
		<tag k="natural" v="hill" />
		<tag k="place" v="locality" />
		<tag k="ssr:stedsnr" v="920986" />
	</node>
	<node lat="61.85078889026961" lon="9.805663885117168" id="-18090">
		<tag k="name" v="Leirflye" />
		<tag k="natural" v="slope" />
		<tag k="place" v="locality" />
		<tag k="ssr:stedsnr" v="921704" />
	</node>
	<node lat="61.90949088395393" lon="9.739408604743577" id="-18092">
		<tag k="fixme" v="consider natural=peak for the most distinct mountains in the district" />
		<tag k="name" v="Storsmeden" />
		<tag k="natural" v="hill" />
		<tag k="place" v="locality" />
		<tag k="ssr:stedsnr" v="921729" />
	</node>
	<node lat="61.87991111226855" lon="9.518161113560218" id="-18095">
		<tag k="name" v="Haukberget" />
		<tag k="natural" v="hill" />
		<tag k="place" v="locality" />
		<tag k="ssr:stedsnr" v="921983" />
	</node>
	<node lat="61.817061113350505" lon="9.485250002047065" id="-18096">
		<tag k="fixme" v="consider natural=peak for the most distinct mountains in the district" />
		<tag k="name" v="Gulskinnhaugen" />
		<tag k="natural" v="hill" />
		<tag k="place" v="locality" />
		<tag k="ssr:stedsnr" v="959002" />
	</node>
	<node lat="61.71606111270194" lon="9.609536103536323" id="-18100">
		<tag k="fixme" v="consider natural=peak for the most distinct mountains in the district" />
		<tag k="name" v="Brennfjell" />
		<tag k="natural" v="hill" />
		<tag k="place" v="locality" />
		<tag k="ssr:stedsnr" v="959926" />
	</node>
	<node lat="61.69242499681044" lon="9.559972228382811" id="-18101">
		<tag k="fixme" v="consider natural=peak for the most distinct mountains in the district" />
		<tag k="name" v="Kvitberget" />
		<tag k="natural" v="hill" />
		<tag k="place" v="locality" />
		<tag k="ssr:stedsnr" v="959955" />
	</node>
	<node lat="61.764205556133255" lon="9.529025007071931" id="-18106">
		<tag k="name" v="Lægan" />
		<tag k="natural" v="slope" />
		<tag k="place" v="locality" />
		<tag k="ssr:stedsnr" v="960407" />
	</node>
	<node lat="61.755866668551576" lon="9.547600000564008" id="-18107">
		<tag k="name" v="Høgkringom" />
		<tag k="natural" v="slope" />
		<tag k="place" v="locality" />
		<tag k="ssr:stedsnr" v="960445" />
	</node>
	<node lat="61.763186109032766" lon="9.493891661431032" id="-18109">
		<tag k="name" v="Rognedalen" />
		<tag k="natural" v="valley" />
		<tag k="place" v="locality" />
		<tag k="ssr:stedsnr" v="960385" />
	</node>
	<node lat="61.70624722458348" lon="9.514149998215924" id="-18112">
		<tag k="name" v="Glupen" />
		<tag k="natural" v="hill" />
		<tag k="place" v="locality" />
		<tag k="ssr:stedsnr" v="960543" />
	</node>
	<node lat="61.84892777778815" lon="9.453283336260453" id="-18115">
		<tag k="name" v="Jørondstadlia" />
		<tag k="natural" v="slope" />
		<tag k="place" v="locality" />
		<tag k="ssr:stedsnr" v="960592" />
	</node>
	<node lat="61.78228610830798" lon="9.42884166835631" id="-18121">
		<tag k="name" v="Flåtlia" />
		<tag k="natural" v="slope" />
		<tag k="place" v="locality" />
		<tag k="ssr:stedsnr" v="960687" />
	</node>
	<node lat="61.8351164793782" lon="9.658081875126673" id="-18148">
		<tag k="name" v="Djupdalen" />
		<tag k="natural" v="valley" />
		<tag k="place" v="locality" />
		<tag k="ssr:stedsnr" v="986637" />
	</node>
	<node lat="61.6722194459059" lon="9.551363880069326" id="-18163">
		<tag k="name" v="Kolomoen" />
		<tag k="place" v="locality" />
		<tag k="ssr:stedsnr" v="10728" />
	</node>
	<node lat="61.85937499921572" lon="9.812313893162267" id="-18171">
		<tag k="fixme" v="consider natural=peak for the most distinct mountains in the district" />
		<tag k="name" v="Fremre Illmannhøe" />
		<tag k="natural" v="hill" />
		<tag k="place" v="locality" />
		<tag k="ssr:stedsnr" v="11694" />
	</node>
	<node lat="61.900824999319106" lon="9.612149999824078" id="-18172">
		<tag k="name" v="Bråkdalen" />
		<tag k="natural" v="valley" />
		<tag k="place" v="locality" />
		<tag k="ssr:stedsnr" v="11730" />
	</node>
	<node lat="61.890424997740986" lon="9.511111103822085" id="-18173">
		<tag k="name" v="Klubben" />
		<tag k="natural" v="hill" />
		<tag k="place" v="locality" />
		<tag k="ssr:stedsnr" v="11978" />
	</node>
	<node lat="61.862124997613144" lon="9.60638611793957" id="-18175">
		<tag k="fixme" v="consider natural=peak for the most distinct mountains in the district" />
		<tag k="name" v="Søre Skorutberget" />
		<tag k="natural" v="hill" />
		<tag k="place" v="locality" />
		<tag k="ssr:stedsnr" v="11748" />
	</node>
	<node lat="61.74500000424706" lon="9.153186107377682" id="-18180">
		<tag k="name" v="Nyborghaugen" />
		<tag k="natural" v="hill" />
		<tag k="place" v="locality" />
		<tag k="ssr:stedsnr" v="49208" />
	</node>
	<node lat="61.84426111043064" lon="9.638144452064125" id="-18183">
		<tag k="name" v="Storflya" />
		<tag k="natural" v="slope" />
		<tag k="place" v="locality" />
		<tag k="ssr:stedsnr" v="49398" />
	</node>
	<node lat="61.73270555959119" lon="9.25479443968947" id="-18190">
		<tag k="name" v="Kvernberget" />
		<tag k="natural" v="slope" />
		<tag k="place" v="locality" />
		<tag k="ssr:stedsnr" v="49798" />
	</node>
	<node lat="61.73723611243411" lon="9.303483324413554" id="-18191">
		<tag k="name" v="Revshaugen" />
		<tag k="natural" v="hill" />
		<tag k="place" v="locality" />
		<tag k="ssr:stedsnr" v="49802" />
	</node>
	<node lat="61.85571667117227" lon="9.520122225868622" id="-18199">
		<tag k="name" v="Fremre Kampeslåe" />
		<tag k="natural" v="slope" />
		<tag k="place" v="locality" />
		<tag k="ssr:stedsnr" v="50092" />
	</node>
	<node lat="61.80011388551202" lon="9.660730559166415" id="-18203">
		<tag k="name" v="Gråhaugen" />
		<tag k="natural" v="hill" />
		<tag k="place" v="locality" />
		<tag k="ssr:stedsnr" v="50136" />
	</node>
	<node lat="61.82827500116354" lon="9.603938881122225" id="-18204">
		<tag k="name" v="Rundsvaet" />
		<tag k="natural" v="slope" />
		<tag k="place" v="locality" />
		<tag k="ssr:stedsnr" v="50236" />
	</node>
	<node lat="61.83143055520489" lon="9.636299994546693" id="-18206">
		<tag k="name" v="Nordigardshaugen" />
		<tag k="natural" v="hill" />
		<tag k="place" v="locality" />
		<tag k="ssr:stedsnr" v="50358" />
	</node>
	<node lat="61.81291110976764" lon="9.59315276896449" id="-18208">
		<tag k="name" v="Kloppa" />
		<tag k="natural" v="hill" />
		<tag k="place" v="locality" />
		<tag k="ssr:stedsnr" v="50185" />
	</node>
	<node lat="61.831130554045565" lon="9.691547216557058" id="-18211">
		<tag k="name" v="Lurven" />
		<tag k="natural" v="hill" />
		<tag k="place" v="locality" />
		<tag k="ssr:stedsnr" v="50295" />
	</node>
	<node lat="61.755683337428586" lon="9.464130551945065" id="-18218">
		<tag k="name" v="Søre Måsåhaugen" />
		<tag k="natural" v="hill" />
		<tag k="place" v="locality" />
		<tag k="ssr:stedsnr" v="50599" />
	</node>
	<node lat="61.73944444435416" lon="9.480358334504503" id="-18221">
		<tag k="name" v="Gruvhaugane" />
		<tag k="natural" v="hill" />
		<tag k="place" v="locality" />
		<tag k="ssr:stedsnr" v="50555" />
	</node>
	<node lat="61.76330277418447" lon="9.40786110225201" id="-18222">
		<tag k="name" v="Rolegholet" />
		<tag k="natural" v="valley" />
		<tag k="place" v="locality" />
		<tag k="ssr:stedsnr" v="50626" />
	</node>
</osm>
