<?xml version="1.0" encoding="UTF-8"?>
<<<<<<< HEAD
<osm version="0.6" generator="osmapis">
	<node lat="64.91033467759752" lon="12.355728533119928" id="-33829">
=======
<osm generator="osmapis" version="0.6">
	<node id="-786457" lat="64.7156466307" lon="12.2014051768">
		<tag k="bridge" v="yes" />
		<tag k="layer" v="1" />
		<tag k="name" v="Skrøyvdalsbekkbrua" />
		<tag k="ssr:stedsnr" v="715910" />
	</node>
	<node id="-786584" lat="64.6162574457" lon="12.332002966">
		<tag k="bridge" v="yes" />
		<tag k="layer" v="1" />
		<tag k="name" v="Brynndalsbrua" />
		<tag k="ssr:stedsnr" v="898901" />
	</node>
	<node id="-787567" lat="64.6930972189" lon="12.4758555495">
		<tag k="highway" v="path" />
		<tag k="name" v="Bjørnstigen" />
		<tag k="ssr:stedsnr" v="818656" />
	</node>
	<node id="-787148" lat="64.6122617199" lon="12.3599411638">
>>>>>>> e1d4bc35ff8a6074a6f2e91616a996b547c36f15
		<tag k="bridge" v="yes" />
		<tag k="layer" v="1" />
		<tag k="name" v="Ytteråbrua" />
		<tag k="ssr:stedsnr" v="48910" />
	</node>
<<<<<<< HEAD
	<node lat="64.6809166696195" lon="12.32279722608793" id="-34272">
		<tag k="bridge" v="yes" />
		<tag k="layer" v="1" />
		<tag k="name" v="Grøtåbrua" />
		<tag k="ssr:stedsnr" v="533911" />
	</node>
	<node lat="64.61625744574036" lon="12.332002965990183" id="-34452">
=======
	<node id="-787403" lat="64.8452222265" lon="12.4212055604">
		<tag k="highway" v="path" />
		<tag k="name" v="Kartestien" />
		<tag k="ssr:stedsnr" v="635834" />
	</node>
	<node id="-787496" lat="64.7192933439" lon="12.1731949648">
>>>>>>> e1d4bc35ff8a6074a6f2e91616a996b547c36f15
		<tag k="bridge" v="yes" />
		<tag k="layer" v="1" />
		<tag k="name" v="Brynndalsbrua" />
		<tag k="ssr:stedsnr" v="898901" />
	</node>
<<<<<<< HEAD
	<node lat="64.71564663073865" lon="12.20140517678784" id="-34453">
=======
	<node id="-787239" lat="64.6809166696" lon="12.3227972261">
>>>>>>> e1d4bc35ff8a6074a6f2e91616a996b547c36f15
		<tag k="bridge" v="yes" />
		<tag k="layer" v="1" />
		<tag k="name" v="Skrøyvdalsbekkbrua" />
		<tag k="ssr:stedsnr" v="715910" />
	</node>
<<<<<<< HEAD
	<node lat="64.71929334387602" lon="12.173194964842754" id="-34512">
=======
	<node id="-787333" lat="64.6463054352" lon="12.3080239265">
>>>>>>> e1d4bc35ff8a6074a6f2e91616a996b547c36f15
		<tag k="bridge" v="yes" />
		<tag k="layer" v="1" />
		<tag k="name" v="Stordollbekkbrua" />
		<tag k="ssr:stedsnr" v="776912" />
	</node>
<<<<<<< HEAD
	<node lat="64.62480277807899" lon="12.29162221814556" id="-35001">
=======
	<node id="-787332" lat="64.6011595187" lon="12.2233537685">
>>>>>>> e1d4bc35ff8a6074a6f2e91616a996b547c36f15
		<tag k="bridge" v="yes" />
		<tag k="layer" v="1" />
		<tag k="name" v="Høylandsundergangen" />
		<tag k="ssr:stedsnr" v="351877" />
	</node>
<<<<<<< HEAD
	<node lat="64.61226171988291" lon="12.35994116379975" id="-35002">
=======
	<node id="-786851" lat="64.9103346776" lon="12.3557285331">
>>>>>>> e1d4bc35ff8a6074a6f2e91616a996b547c36f15
		<tag k="bridge" v="yes" />
		<tag k="layer" v="1" />
		<tag k="name" v="Hessiengbrua" />
		<tag k="ssr:stedsnr" v="351896" />
	</node>
<<<<<<< HEAD
	<node lat="64.60115951866601" lon="12.223353768492839" id="-35225">
		<tag k="bridge" v="yes" />
		<tag k="layer" v="1" />
		<tag k="name" v="Kvernbekkbrua" />
		<tag k="ssr:stedsnr" v="594865" />
	</node>
	<node lat="64.64630543520802" lon="12.30802392645118" id="-35226">
		<tag k="bridge" v="yes" />
		<tag k="layer" v="1" />
		<tag k="name" v="Almåsbrua" />
		<tag k="ssr:stedsnr" v="594880" />
	</node>
	<node lat="64.84522222653769" lon="12.421205560430353" id="-35278">
		<tag k="highway" v="path" />
		<tag k="name" v="Kartestien" />
		<tag k="ssr:stedsnr" v="635834" />
=======
	<node id="-787147" lat="64.6248027781" lon="12.2916222181">
		<tag k="bridge" v="yes" />
		<tag k="layer" v="1" />
		<tag k="name" v="Høylandsundergangen" />
		<tag k="ssr:stedsnr" v="351877" />
>>>>>>> e1d4bc35ff8a6074a6f2e91616a996b547c36f15
	</node>
	<node lat="64.69309721887781" lon="12.475855549462217" id="-35407">
		<tag k="highway" v="path" />
		<tag k="name" v="Bjørnstigen" />
		<tag k="ssr:stedsnr" v="818656" />
	</node>
</osm>
