<?xml version="1.0" encoding="UTF-8"?>
<<<<<<< HEAD
<osm version="0.6" generator="osmapis">
	<node lat="64.60923055794217" lon="12.21260833181042" id="-33957">
		<tag k="name" v="Nyenget trigpunkt" />
		<tag k="place" v="locality" />
		<tag k="ssr:stedsnr" v="210284" />
	</node>
	<node lat="64.82285832915385" lon="12.422522230847244" id="-34080">
=======
<osm generator="osmapis" version="0.6">
	<node id="-786176" lat="64.8228583292" lon="12.4225222308">
>>>>>>> e1d4bc35ff8a6074a6f2e91616a996b547c36f15
		<tag k="name" v="Finnkruin" />
		<tag k="place" v="locality" />
		<tag k="ssr:stedsnr" v="272821" />
	</node>
<<<<<<< HEAD
	<node lat="64.79036666617812" lon="12.427016670129301" id="-34163">
=======
	<node id="-787162" lat="64.6423638886" lon="12.3134222162">
		<tag k="amenity" v="place_of_worship" />
		<tag k="denomination" v="lutheran" />
		<tag k="name" v="Høylandet kirke" />
		<tag k="religion" v="christian" />
		<tag k="ssr:stedsnr" v="378652" />
	</node>
	<node id="-787225" lat="64.7903666662" lon="12.4270166701">
>>>>>>> e1d4bc35ff8a6074a6f2e91616a996b547c36f15
		<tag k="name" v="Krua" />
		<tag k="place" v="locality" />
		<tag k="ssr:stedsnr" v="393635" />
	</node>
<<<<<<< HEAD
	<node lat="64.81776666743286" lon="12.42001944031367" id="-34313">
=======
	<node id="-787316" lat="64.8177666674" lon="12.4200194403">
>>>>>>> e1d4bc35ff8a6074a6f2e91616a996b547c36f15
		<tag k="name" v="Gammelfinnkruin" />
		<tag k="place" v="locality" />
		<tag k="ssr:stedsnr" v="575858" />
	</node>
<<<<<<< HEAD
	<node lat="64.70977500146591" lon="12.367097225642516" id="-34432">
		<tag k="name" v="Dyrgravin" />
=======
	<node id="-787058" lat="64.6092305579" lon="12.2126083318">
		<tag k="name" v="Nyenget trigpunkt" />
>>>>>>> e1d4bc35ff8a6074a6f2e91616a996b547c36f15
		<tag k="place" v="locality" />
		<tag k="ssr:stedsnr" v="696422" />
	</node>
	<node lat="64.79462499999626" lon="12.398849996214842" id="-34642">
		<tag k="name" v="Tjorrobrenna" />
		<tag k="place" v="locality" />
		<tag k="ssr:stedsnr" v="939604" />
	</node>
	<node lat="64.88786666692211" lon="12.478494435815428" id="-34940">
		<tag k="name" v="Litlkoven" />
		<tag k="place" v="locality" />
		<tag k="ssr:stedsnr" v="211821" />
	</node>
	<node lat="64.64236388858757" lon="12.313422216238317" id="-35026">
		<tag k="amenity" v="place_of_worship" />
		<tag k="denomination" v="lutheran" />
		<tag k="name" v="Høylandet kirke" />
		<tag k="religion" v="christian" />
		<tag k="ssr:stedsnr" v="378652" />
	</node>
	<node id="-786703" lat="64.794625" lon="12.3988499962">
		<tag k="name" v="Tjorrobrenna" />
		<tag k="place" v="locality" />
		<tag k="ssr:stedsnr" v="939604" />
	</node>
	<node id="-786570" lat="64.7097750015" lon="12.3670972256">
		<tag k="name" v="Dyrgravin" />
		<tag k="place" v="locality" />
		<tag k="ssr:stedsnr" v="696422" />
	</node>
	<node id="-786053" lat="64.8878666669" lon="12.4784944358">
		<tag k="name" v="Litlkoven" />
		<tag k="place" v="locality" />
		<tag k="ssr:stedsnr" v="211821" />
	</node>
</osm>
