<?xml version="1.0" encoding="UTF-8"?>
<<<<<<< HEAD
<osm version="0.6" generator="osmapis">
	<node lat="64.59647500431433" lon="12.211674992168858" id="-33791">
		<tag k="name" v="Lauvset" />
		<tag k="place" v="farm" />
		<tag k="ssr:stedsnr" v="14756" />
	</node>
	<node lat="64.58419444219554" lon="12.206249998706395" id="-33792">
		<tag k="name" v="Grånneset" />
		<tag k="place" v="farm" />
		<tag k="ssr:stedsnr" v="14759" />
	</node>
	<node lat="64.69217205499577" lon="12.350529289808343" id="-33794">
		<tag k="alt_name" v="Halbostad" />
		<tag k="fixme" v="consider place=hamlet" />
		<tag k="name" v="Helbostad" />
		<tag k="place" v="farm" />
		<tag k="ssr:stedsnr" v="14905" />
	</node>
	<node lat="64.78753055595784" lon="12.34261110739613" id="-33795">
		<tag k="name" v="Mastermoen" />
		<tag k="place" v="farm" />
		<tag k="ssr:stedsnr" v="15204" />
	</node>
	<node lat="64.62819721855323" lon="12.279608335011016" id="-33798">
		<tag k="name" v="Litlenget" />
		<tag k="place" v="farm" />
		<tag k="ssr:stedsnr" v="15556" />
	</node>
	<node lat="64.71676944846115" lon="12.287930562650525" id="-33800">
		<tag k="historic" v="shieling" />
		<tag k="name" v="Flottsetran" />
		<tag k="place" v="isolated_dwelling" />
		<tag k="ssr:stedsnr" v="15926" />
	</node>
	<node lat="64.60466667122192" lon="12.206155546194408" id="-33806">
		<tag k="historic" v="shieling" />
		<tag k="name" v="Grungstadsetran" />
		<tag k="place" v="isolated_dwelling" />
		<tag k="ssr:stedsnr" v="28271" />
	</node>
	<node lat="64.91120555387081" lon="12.34186389482315" id="-33821">
		<tag k="historic" v="shieling" />
		<tag k="name" v="Ytterengsetran" />
		<tag k="place" v="isolated_dwelling" />
		<tag k="ssr:stedsnr" v="28773" />
	</node>
	<node lat="64.614076536477" lon="12.263687106371167" id="-33831">
		<tag k="name" v="Vaddamoen boligfelt" />
		<tag k="place" v="quarter" />
		<tag k="ssr:stedsnr" v="239421" />
	</node>
	<node lat="64.55956944219726" lon="12.156338892777763" id="-33842">
		<tag k="name" v="Eidsmoen" />
		<tag k="place" v="farm" />
		<tag k="ssr:stedsnr" v="75960" />
	</node>
	<node lat="64.89257499715299" lon="12.423349990535119" id="-33873">
		<tag k="name" v="Kongsmoen industriområde" />
		<tag k="place" v="quarter" />
		<tag k="ssr:stedsnr" v="119394" />
	</node>
	<node lat="64.62506110795695" lon="12.185747214259074" id="-33876">
		<tag k="name" v="Vollasetran" />
		<tag k="place" v="locality" />
		<tag k="ssr:stedsnr" v="135733" />
	</node>
	<node lat="64.83323610849901" lon="12.402894436146338" id="-33896">
		<tag k="historic" v="shieling" />
		<tag k="name" v="Lonmosetervollen" />
		<tag k="place" v="isolated_dwelling" />
		<tag k="ssr:stedsnr" v="149554" />
	</node>
	<node lat="64.75561666705732" lon="12.316344446612787" id="-33910">
		<tag k="name" v="Heimen" />
		<tag k="place" v="farm" />
		<tag k="ssr:stedsnr" v="257243" />
	</node>
	<node lat="64.76147856470152" lon="12.330645797093906" id="-33911">
		<tag k="fixme" v="consider place=hamlet" />
		<tag k="name" v="Bjørlia" />
		<tag k="place" v="farm" />
		<tag k="ssr:stedsnr" v="257249" />
	</node>
	<node lat="64.62466944099975" lon="12.28787777455501" id="-33912">
		<tag k="name" v="Nygarden" />
		<tag k="place" v="farm" />
		<tag k="ssr:stedsnr" v="257565" />
	</node>
	<node lat="64.63169812239335" lon="12.293649304725971" id="-33916">
		<tag k="fixme" v="consider place=hamlet" />
		<tag k="name" v="Børstad" />
		<tag k="place" v="farm" />
		<tag k="ssr:stedsnr" v="257651" />
	</node>
	<node lat="64.66308888896421" lon="12.160675003691951" id="-33919">
		<tag k="name" v="Eidsånesa" />
		<tag k="place" v="isolated_dwelling" />
		<tag k="ssr:stedsnr" v="257866" />
	</node>
	<node lat="64.82982571522764" lon="12.388967932266373" id="-33923">
		<tag k="name" v="Vesterheimen" />
		<tag k="place" v="locality" />
		<tag k="ssr:stedsnr" v="257819" />
	</node>
	<node lat="64.83572499878734" lon="12.394505556070596" id="-33924">
		<tag k="name" v="Skogenget" />
		<tag k="place" v="isolated_dwelling" />
		<tag k="ssr:stedsnr" v="257820" />
	</node>
	<node lat="64.84918888999842" lon="12.411558337015643" id="-33925">
		<tag k="name" v="Nyrud" />
		<tag k="place" v="farm" />
		<tag k="ssr:stedsnr" v="257832" />
	</node>
	<node lat="64.59155833104465" lon="12.20822500991184" id="-33928">
		<tag k="name" v="Fallbukta" />
		<tag k="place" v="farm" />
		<tag k="ssr:stedsnr" v="257837" />
	</node>
	<node lat="64.61170833344106" lon="12.272425008287184" id="-33955">
		<tag k="name" v="Nylenda" />
		<tag k="place" v="farm" />
		<tag k="ssr:stedsnr" v="210277" />
	</node>
	<node lat="64.61536944474945" lon="12.217061100937835" id="-33958">
		<tag k="historic" v="shieling" />
		<tag k="name" v="Knutnessetran" />
		<tag k="place" v="isolated_dwelling" />
		<tag k="ssr:stedsnr" v="210289" />
	</node>
	<node lat="64.79114166938064" lon="12.313511120910631" id="-33963">
		<tag k="historic" v="shieling" />
		<tag k="name" v="Nordfjellsetran" />
		<tag k="place" v="isolated_dwelling" />
		<tag k="ssr:stedsnr" v="210634" />
	</node>
	<node lat="64.60714166631028" lon="12.244777769737237" id="-33975">
		<tag k="name" v="Myrmoen" />
		<tag k="place" v="farm" />
		<tag k="ssr:stedsnr" v="215586" />
	</node>
	<node lat="64.62496666721145" lon="12.290450005278487" id="-33977">
		<tag k="amenity" v="school" />
		<tag k="name" v="Høylandet barne- og ungdomsskole" />
		<tag k="ssr:stedsnr" v="224007" />
	</node>
	<node lat="64.82383055767399" lon="12.403749997261386" id="-33987">
		<tag k="name" v="Neppen" />
		<tag k="place" v="locality" />
		<tag k="ssr:stedsnr" v="271598" />
	</node>
	<node lat="64.66710278017028" lon="12.328658330234969" id="-33991">
		<tag k="name" v="Øvereng" />
		<tag k="place" v="farm" />
		<tag k="ssr:stedsnr" v="271539" />
	</node>
	<node lat="64.5629333319234" lon="12.32043055562539" id="-34023">
		<tag k="historic" v="shieling" />
		<tag k="name" v="Hjartåssetran" />
		<tag k="place" v="isolated_dwelling" />
		<tag k="ssr:stedsnr" v="453338" />
	</node>
	<node lat="64.78324722158021" lon="12.303199992810566" id="-34043">
		<tag k="historic" v="shieling" />
		<tag k="name" v="Gammelsetran" />
		<tag k="place" v="isolated_dwelling" />
		<tag k="ssr:stedsnr" v="453636" />
	</node>
	<node lat="64.74286115953866" lon="12.339500556406145" id="-34047">
		<tag k="fixme" v="consider place=hamlet" />
		<tag k="name" v="Øye" />
		<tag k="place" v="farm" />
		<tag k="ssr:stedsnr" v="453647" />
	</node>
	<node lat="64.66896667076588" lon="12.32558055395053" id="-34062">
		<tag k="name" v="Mjøsund" />
		<tag k="place" v="farm" />
		<tag k="ssr:stedsnr" v="257623" />
	</node>
	<node lat="64.62845555734548" lon="12.30278611414232" id="-34063">
		<tag k="fixme" v="consider place=hamlet" />
		<tag k="name" v="Høylandet" />
		<tag k="place" v="village" />
		<tag k="ssr:stedsnr" v="257659" />
	</node>
	<node lat="64.60855277533904" lon="12.25070278383828" id="-34064">
		<tag k="name" v="Vollen" />
		<tag k="place" v="farm" />
		<tag k="ssr:stedsnr" v="458648" />
	</node>
	<node lat="64.83908333102363" lon="12.399241668123976" id="-34072">
		<tag k="historic" v="shieling" />
		<tag k="name" v="Saurssetran" />
		<tag k="place" v="isolated_dwelling" />
		<tag k="ssr:stedsnr" v="271614" />
	</node>
	<node lat="64.75531111036858" lon="12.343694446029513" id="-34086">
		<tag k="name" v="Sundodden" />
		<tag k="place" v="farm" />
		<tag k="ssr:stedsnr" v="318213" />
	</node>
	<node lat="64.55093333249621" lon="12.112077778519513" id="-34102">
		<tag k="name" v="Litlenget" />
		<tag k="place" v="farm" />
		<tag k="ssr:stedsnr" v="318943" />
	</node>
	<node lat="64.55486944087883" lon="12.1864194382532" id="-34103">
		<tag k="fixme" v="consider place=hamlet" />
		<tag k="name" v="Vassbotna" />
		<tag k="place" v="village" />
		<tag k="ssr:stedsnr" v="318945" />
	</node>
	<node lat="64.88338889202528" lon="12.385199990536217" id="-34113">
		<tag k="historic" v="shieling" />
		<tag k="name" v="Jofinnsetran" />
		<tag k="place" v="isolated_dwelling" />
		<tag k="ssr:stedsnr" v="332505" />
	</node>
	<node lat="64.69288865150466" lon="12.33303650539808" id="-34118">
		<tag k="fixme" v="consider place=hamlet" />
		<tag k="name" v="Flott" />
		<tag k="place" v="farm" />
		<tag k="ssr:stedsnr" v="471538" />
	</node>
	<node lat="64.60813333671848" lon="12.255566672346285" id="-34119">
		<tag k="fixme" v="consider place=hamlet" />
		<tag k="name" v="Grungstad" />
		<tag k="place" v="farm" />
		<tag k="ssr:stedsnr" v="336518" />
	</node>
	<node lat="64.81693333384715" lon="12.373302770301656" id="-34122">
		<tag k="name" v="Kubakkan" />
		<tag k="place" v="farm" />
		<tag k="ssr:stedsnr" v="378206" />
	</node>
	<node lat="64.80986666298593" lon="12.367105552110955" id="-34123">
		<tag k="name" v="Norddal" />
		<tag k="place" v="farm" />
		<tag k="ssr:stedsnr" v="378207" />
	</node>
	<node lat="64.57117222173156" lon="12.23319166789933" id="-34126">
		<tag k="alt_name" v="Hesjedalen" />
		<tag k="name" v="Lauvlia" />
		<tag k="place" v="isolated_dwelling" />
		<tag k="ssr:stedsnr" v="378727" />
	</node>
	<node lat="64.55541944856071" lon="12.183213892013557" id="-34147">
		<tag k="name" v="Brumoen" />
		<tag k="place" v="farm" />
		<tag k="ssr:stedsnr" v="392237" />
	</node>
	<node lat="64.85050277822265" lon="12.39640554864892" id="-34158">
		<tag k="historic" v="shieling" />
		<tag k="name" v="Gammelsetran" />
		<tag k="place" v="isolated_dwelling" />
		<tag k="ssr:stedsnr" v="392803" />
	</node>
	<node lat="64.6411611154315" lon="12.115191665444026" id="-34166">
		<tag k="historic" v="shieling" />
		<tag k="name" v="Karlsetervollen" />
		<tag k="place" v="isolated_dwelling" />
		<tag k="ssr:stedsnr" v="410893" />
	</node>
	<node lat="64.57484722419149" lon="12.192183335206646" id="-34167">
		<tag k="name" v="Mevassvika" />
		<tag k="place" v="locality" />
		<tag k="ssr:stedsnr" v="415402" />
	</node>
	<node lat="64.63419143638335" lon="12.326015143842787" id="-34169">
		<tag k="fixme" v="consider place=hamlet" />
		<tag k="name" v="Kjolgom" />
		<tag k="place" v="farm" />
		<tag k="ssr:stedsnr" v="439604" />
	</node>
	<node lat="64.74884166882494" lon="12.392619452910163" id="-34173">
		<tag k="name" v="Kvernmosetran" />
		<tag k="place" v="isolated_dwelling" />
		<tag k="ssr:stedsnr" v="439902" />
	</node>
	<node lat="64.60363961766718" lon="12.266537937549964" id="-34179">
		<tag k="fixme" v="consider place=hamlet" />
		<tag k="name" v="Mørkved" />
		<tag k="place" v="farm" />
		<tag k="ssr:stedsnr" v="440510" />
	</node>
	<node lat="64.55827777587834" lon="12.181394443216394" id="-34186">
		<tag k="alt_name" v="Fagerli" />
		<tag k="name" v="Drageidet" />
		<tag k="place" v="farm" />
		<tag k="ssr:stedsnr" v="440947" />
	</node>
	<node lat="64.5562333332088" lon="12.179074996549808" id="-34187">
		<tag k="name" v="Eidem" />
		<tag k="place" v="farm" />
		<tag k="ssr:stedsnr" v="440948" />
	</node>
	<node lat="64.70986110667965" lon="12.32244722556212" id="-34245">
		<tag k="name" v="Sandbekkodden" />
		<tag k="place" v="farm" />
		<tag k="ssr:stedsnr" v="682938" />
	</node>
	<node lat="64.56302222235827" lon="12.196880564819471" id="-34249">
		<tag k="alt_name" v="Hegglia" />
		<tag k="name" v="Heggli" />
		<tag k="place" v="farm" />
		<tag k="ssr:stedsnr" v="682958" />
	</node>
	<node lat="64.55307222217907" lon="12.117016676993712" id="-34250">
		<tag k="name" v="Tømmermoen" />
		<tag k="place" v="isolated_dwelling" />
		<tag k="ssr:stedsnr" v="682959" />
	</node>
	<node lat="64.55844444346226" lon="12.12660000140715" id="-34258">
		<tag k="name" v="Solvang" />
		<tag k="place" v="farm" />
		<tag k="ssr:stedsnr" v="514077" />
	</node>
	<node lat="64.55899167036972" lon="12.13519166219194" id="-34259">
		<tag k="name" v="Viken vestre" />
		<tag k="place" v="farm" />
		<tag k="ssr:stedsnr" v="514079" />
	</node>
	<node lat="64.57135000449195" lon="12.287708331399426" id="-34260">
		<tag k="historic" v="shieling" />
		<tag k="name" v="Brynnmosetran" />
		<tag k="place" v="isolated_dwelling" />
		<tag k="ssr:stedsnr" v="514316" />
	</node>
	<node lat="64.75726944557303" lon="12.40131110984012" id="-34264">
		<tag k="historic" v="shieling" />
		<tag k="name" v="Lornssetran" />
		<tag k="place" v="isolated_dwelling" />
		<tag k="ssr:stedsnr" v="514464" />
	</node>
	<node lat="64.69065833329937" lon="12.426022224725774" id="-34268">
		<tag k="historic" v="shieling" />
		<tag k="name" v="Besdalsetran" />
		<tag k="place" v="isolated_dwelling" />
		<tag k="ssr:stedsnr" v="514664" />
	</node>
	<node lat="64.80445198209593" lon="12.366095898902167" id="-34277">
		<tag k="alt_name" v="Øvre Rosendal;Rosendal øvre" />
		<tag k="fixme" v="consider place=hamlet" />
		<tag k="name" v="Rosendal" />
		<tag k="place" v="farm" />
		<tag k="ssr:stedsnr" v="560206" />
	</node>
	<node lat="64.74421110822946" lon="12.346530563102426" id="-34285">
		<tag k="alt_name" v="Øye" />
		<tag k="name" v="Øy" />
		<tag k="place" v="hamlet" />
		<tag k="ssr:stedsnr" v="560885" />
	</node>
	<node lat="64.61721666379337" lon="12.288655547632777" id="-34288">
		<tag k="name" v="Tyldom" />
		<tag k="place" v="hamlet" />
		<tag k="ssr:stedsnr" v="693730" />
	</node>
	<node lat="64.62514166827394" lon="12.288452772517033" id="-34295">
		<tag k="name" v="Nordre Tyldom" />
		<tag k="place" v="farm" />
		<tag k="ssr:stedsnr" v="574497" />
	</node>
	<node lat="64.62743611583237" lon="12.302633323939855" id="-34326">
		<tag k="name" v="Haugland" />
		<tag k="place" v="farm" />
		<tag k="ssr:stedsnr" v="696489" />
	</node>
	<node lat="64.65164444578356" lon="12.299344449289068" id="-34329">
		<tag k="name" v="Skogstad" />
		<tag k="place" v="farm" />
		<tag k="ssr:stedsnr" v="696519" />
	</node>
	<node lat="64.73235555575621" lon="12.3099222215599" id="-34341">
		<tag k="name" v="Kvernmoen" />
		<tag k="place" v="farm" />
		<tag k="ssr:stedsnr" v="696629" />
	</node>
	<node lat="64.85376388818052" lon="12.426705556232424" id="-34351">
		<tag k="name" v="Lonmoen" />
		<tag k="place" v="farm" />
		<tag k="ssr:stedsnr" v="696793" />
	</node>
	<node lat="64.62228611431512" lon="12.310283344112456" id="-34362">
		<tag k="name" v="Kjæran" />
		<tag k="place" v="farm" />
		<tag k="ssr:stedsnr" v="621572" />
	</node>
	<node lat="64.56421388683088" lon="12.278669441098314" id="-34376">
		<tag k="historic" v="shieling" />
		<tag k="name" v="Åvassmarksetran" />
		<tag k="place" v="isolated_dwelling" />
		<tag k="ssr:stedsnr" v="634196" />
	</node>
	<node lat="64.65367777569638" lon="12.242769448282575" id="-34390">
		<tag k="historic" v="shieling" />
		<tag k="name" v="Okstadsetran" />
		<tag k="place" v="isolated_dwelling" />
		<tag k="ssr:stedsnr" v="635229" />
	</node>
	<node lat="64.7337555583188" lon="12.249716657512337" id="-34398">
		<tag k="historic" v="shieling" />
		<tag k="name" v="Olesetran" />
		<tag k="place" v="isolated_dwelling" />
		<tag k="ssr:stedsnr" v="651447" />
	</node>
	<node lat="64.78726944184729" lon="12.328869449331435" id="-34406">
		<tag k="name" v="Sørhevlan" />
		<tag k="place" v="locality" />
		<tag k="ssr:stedsnr" v="682222" />
	</node>
	<node lat="64.81557499983417" lon="12.351719453240225" id="-34408">
		<tag k="name" v="Hevollan" />
		<tag k="place" v="locality" />
		<tag k="ssr:stedsnr" v="682235" />
	</node>
	<node lat="64.61649999976385" lon="12.374941674439729" id="-34410">
		<tag k="name" v="Sandtrongsetran" />
		<tag k="place" v="locality" />
		<tag k="ssr:stedsnr" v="682559" />
	</node>
	<node lat="64.60875833040409" lon="12.242958334885184" id="-34411">
		<tag k="alt_name" v="Bakken" />
		<tag k="name" v="Bakkan" />
		<tag k="place" v="farm" />
		<tag k="ssr:stedsnr" v="682566" />
	</node>
	<node lat="64.55255278130662" lon="12.236180560458845" id="-34423">
		<tag k="historic" v="shieling" />
		<tag k="name" v="Viessetran" />
		<tag k="place" v="isolated_dwelling" />
		<tag k="ssr:stedsnr" v="696203" />
	</node>
	<node lat="64.8021361106129" lon="12.366277768301218" id="-34439">
		<tag k="name" v="Storneset" />
		<tag k="place" v="farm" />
		<tag k="ssr:stedsnr" v="696609" />
	</node>
	<node lat="64.63908333187871" lon="12.102747218883458" id="-34451">
		<tag k="historic" v="shieling" />
		<tag k="name" v="Nylendsetran" />
		<tag k="place" v="isolated_dwelling" />
		<tag k="ssr:stedsnr" v="713910" />
	</node>
	<node lat="64.75440000159978" lon="12.314361107107809" id="-34458">
		<tag k="alt_name" v="Jakopenget" />
		<tag k="name" v="Jakobenga" />
		<tag k="place" v="farm" />
		<tag k="ssr:stedsnr" v="742214" />
	</node>
	<node lat="64.81198888653134" lon="12.333038889969618" id="-34460">
		<tag k="name" v="Svangan" />
		<tag k="place" v="locality" />
		<tag k="ssr:stedsnr" v="742191" />
	</node>
	<node lat="64.70246666558408" lon="12.323258327426677" id="-34473">
		<tag k="name" v="Søyrmoodden" />
=======
<osm generator="osmapis" version="0.6">
	<node id="-785920" lat="64.8754861137" lon="12.4412583387">
		<tag k="alt_name" v="Årmo" />
		<tag k="name" v="Årmoen" />
		<tag k="place" v="farm" />
		<tag k="ssr:stedsnr" v="75794" />
	</node>
	<node id="-787454" lat="64.659444444" lon="12.3747527819">
		<tag k="historic" v="shieling" />
		<tag k="name" v="Råumsetran" />
		<tag k="place" v="locality" />
		<tag k="ssr:stedsnr" v="756495" />
	</node>
	<node id="-786941" lat="64.6055555599" lon="12.2544666618">
		<tag k="name" v="Botnnesvollen" />
		<tag k="place" v="farm" />
		<tag k="ssr:stedsnr" v="94621" />
	</node>
	<node id="-785915" lat="64.6140765365" lon="12.2636871064">
		<tag k="name" v="Vaddamoen boligfelt" />
		<tag k="place" v="quarter" />
		<tag k="ssr:stedsnr" v="239421" />
	</node>
	<node id="-786421" lat="64.8537638882" lon="12.4267055562">
		<tag k="name" v="Lonmoen" />
		<tag k="place" v="farm" />
		<tag k="ssr:stedsnr" v="696793" />
	</node>
	<node id="-786942" lat="64.6265055534" lon="12.3091861187">
		<tag k="name" v="Brøndbo industriområde" />
		<tag k="place" v="quarter" />
		<tag k="ssr:stedsnr" v="100434" />
	</node>
	<node id="-786415" lat="64.7323555558" lon="12.3099222216">
		<tag k="name" v="Kvernmoen" />
		<tag k="place" v="farm" />
		<tag k="ssr:stedsnr" v="696629" />
	</node>
	<node id="-785902" lat="64.6249666672" lon="12.2904500053">
		<tag k="amenity" v="school" />
		<tag k="name" v="Høylandet barne- og ungdomsskole" />
		<tag k="ssr:stedsnr" v="224007" />
	</node>
	<node id="-785900" lat="64.7167694485" lon="12.2879305627">
		<tag k="historic" v="shieling" />
		<tag k="name" v="Flottsetran" />
		<tag k="place" v="locality" />
		<tag k="ssr:stedsnr" v="15926" />
	</node>
	<node id="-785896" lat="64.787530556" lon="12.3426111074">
		<tag k="name" v="Mastermoen" />
		<tag k="place" v="farm" />
		<tag k="ssr:stedsnr" v="15204" />
	</node>
	<node id="-785895" lat="64.692172055" lon="12.3505292898">
		<tag k="alt_name" v="Halbostad" />
		<tag k="fixme" v="consider place=hamlet" />
		<tag k="name" v="Helbostad" />
		<tag k="place" v="farm" />
		<tag k="ssr:stedsnr" v="14905" />
	</node>
	<node id="-786918" lat="64.7341305515" lon="12.3501250058">
		<tag k="name" v="Rydningen" />
		<tag k="place" v="farm" />
		<tag k="ssr:stedsnr" v="89638" />
	</node>
	<node id="-786405" lat="64.6274361158" lon="12.3026333239">
		<tag k="name" v="Haugland" />
		<tag k="place" v="farm" />
		<tag k="ssr:stedsnr" v="696489" />
	</node>
	<node id="-786854" lat="64.6335194411" lon="12.2899583314">
		<tag k="name" v="Børstad boligfelt" />
		<tag k="place" v="quarter" />
		<tag k="ssr:stedsnr" v="55397" />
	</node>
	<node id="-787425" lat="64.6235527805" lon="12.2871055559">
		<tag k="name" v="Storenget" />
		<tag k="place" v="farm" />
		<tag k="ssr:stedsnr" v="743520" />
	</node>
	<node id="-787423" lat="64.6313583294" lon="12.2860055588">
		<tag k="name" v="Brattlia" />
		<tag k="place" v="farm" />
		<tag k="ssr:stedsnr" v="743619" />
	</node>
	<node id="-787420" lat="64.6432000033" lon="12.2005499989">
		<tag k="historic" v="shieling" />
		<tag k="name" v="Tyldsetran" />
		<tag k="place" v="locality" />
		<tag k="ssr:stedsnr" v="742849" />
	</node>
	<node id="-787409" lat="64.8119888865" lon="12.33303889">
		<tag k="name" v="Svangan" />
		<tag k="place" v="locality" />
		<tag k="ssr:stedsnr" v="742191" />
	</node>
	<node id="-786383" lat="64.6172166638" lon="12.2886555476">
		<tag k="name" v="Tyldom" />
		<tag k="place" v="hamlet" />
		<tag k="ssr:stedsnr" v="693730" />
	</node>
	<node id="-786382" lat="64.6288888929" lon="12.3050805537">
		<tag k="name" v="Høylandstunet" />
		<tag k="place" v="quarter" />
		<tag k="ssr:stedsnr" v="540407" />
	</node>
	<node id="-786378" lat="64.6906583333" lon="12.4260222247">
		<tag k="historic" v="shieling" />
		<tag k="name" v="Besdalsetran" />
		<tag k="place" v="locality" />
		<tag k="ssr:stedsnr" v="514664" />
	</node>
	<node id="-786652" lat="64.6124500009" lon="12.2769027861">
		<tag k="fixme" v="consider place=hamlet" />
		<tag k="name" v="Litl-Tyldom" />
		<tag k="place" v="farm" />
		<tag k="ssr:stedsnr" v="804555" />
	</node>
	<node id="-786376" lat="64.7572694456" lon="12.4013111098">
		<tag k="historic" v="shieling" />
		<tag k="name" v="Lornssetran" />
		<tag k="place" v="locality" />
		<tag k="ssr:stedsnr" v="514464" />
	</node>
	<node id="-787398" lat="64.6536777757" lon="12.2427694483">
		<tag k="historic" v="shieling" />
		<tag k="name" v="Okstadsetran" />
		<tag k="place" v="locality" />
		<tag k="ssr:stedsnr" v="635229" />
	</node>
	<node id="-786373" lat="64.5589916704" lon="12.1351916622">
		<tag k="name" v="Viken vestre" />
		<tag k="place" v="farm" />
		<tag k="ssr:stedsnr" v="514079" />
	</node>
	<node id="-786372" lat="64.5584444435" lon="12.1266000014">
		<tag k="name" v="Solvang" />
		<tag k="place" v="farm" />
		<tag k="ssr:stedsnr" v="514077" />
	</node>
	<node id="-786882" lat="64.5595694422" lon="12.1563388928">
		<tag k="name" v="Eidsmoen" />
		<tag k="place" v="farm" />
		<tag k="ssr:stedsnr" v="75960" />
	</node>
	<node id="-786592" lat="64.7102416683" lon="12.2901611217">
		<tag k="historic" v="shieling" />
		<tag k="name" v="Flottsetran" />
		<tag k="place" v="locality" />
		<tag k="ssr:stedsnr" v="743919" />
	</node>
	<node id="-786366" lat="64.7098611067" lon="12.3224472256">
		<tag k="name" v="Sandbekkodden" />
		<tag k="place" v="farm" />
		<tag k="ssr:stedsnr" v="682938" />
	</node>
	<node id="-786591" lat="64.7024666656" lon="12.3232583274">
		<tag k="name" v="Søyrmoodden" />
		<tag k="place" v="farm" />
		<tag k="ssr:stedsnr" v="743908" />
	</node>
	<node id="-786014" lat="64.8332361085" lon="12.4028944361">
		<tag k="historic" v="shieling" />
		<tag k="name" v="Lonmosetervollen" />
		<tag k="place" v="locality" />
		<tag k="ssr:stedsnr" v="149554" />
	</node>
	<node id="-787102" lat="64.5793750042" lon="12.2006472276">
		<tag k="name" v="Mevassvika" />
		<tag k="place" v="farm" />
		<tag k="ssr:stedsnr" v="318820" />
	</node>
	<node id="-786351" lat="64.6087583304" lon="12.2429583349">
		<tag k="alt_name" v="Bakken" />
		<tag k="name" v="Bakkan" />
		<tag k="place" v="farm" />
		<tag k="ssr:stedsnr" v="682566" />
	</node>
	<node id="-786350" lat="64.6164999998" lon="12.3749416744">
		<tag k="name" v="Sandtrongsetran" />
		<tag k="place" v="locality" />
		<tag k="ssr:stedsnr" v="682559" />
	</node>
	<node id="-786348" lat="64.8155749998" lon="12.3517194532">
		<tag k="name" v="Hevollan" />
		<tag k="place" v="locality" />
		<tag k="ssr:stedsnr" v="682235" />
	</node>
	<node id="-787368" lat="64.5642138868" lon="12.2786694411">
		<tag k="historic" v="shieling" />
		<tag k="name" v="Åvassmarksetran" />
		<tag k="place" v="locality" />
		<tag k="ssr:stedsnr" v="634196" />
	</node>
	<node id="-786343" lat="64.5529555558" lon="12.1824749905">
		<tag k="name" v="Setervollen" />
		<tag k="place" v="isolated_dwelling" />
		<tag k="ssr:stedsnr" v="500945" />
	</node>
	<node id="-787366" lat="64.551658338" lon="12.1793555463">
		<tag k="name" v="Rønningsodden" />
		<tag k="place" v="farm" />
		<tag k="ssr:stedsnr" v="621948" />
	</node>
	<node id="-786340" lat="64.722186548" lon="12.3590588426">
		<tag k="fixme" v="consider place=hamlet" />
		<tag k="name" v="Kjølstad" />
		<tag k="place" v="farm" />
		<tag k="ssr:stedsnr" v="500915" />
	</node>
	<node id="-786587" lat="64.7544000016" lon="12.3143611071">
		<tag k="alt_name" v="Jakopenget" />
		<tag k="name" v="Jakobenga" />
		<tag k="place" v="farm" />
		<tag k="ssr:stedsnr" v="742214" />
	</node>
	<node id="-786757" lat="64.7426982268" lon="12.338906145">
		<tag k="name" v="Øie" />
		<tag k="place" v="farm" />
		<tag k="ssr:stedsnr" v="985534" />
	</node>
	<node id="-786586" lat="64.631888886" lon="12.3102388807">
		<tag k="name" v="Skarstadbakken" />
		<tag k="place" v="quarter" />
		<tag k="ssr:stedsnr" v="905446" />
	</node>
	<node id="-786842" lat="64.8687277806" lon="12.4290166567">
		<tag k="name" v="Saur boligfelt" />
		<tag k="place" v="quarter" />
		<tag k="ssr:stedsnr" v="39396" />
	</node>
	<node id="-786329" lat="64.7832472216" lon="12.3031999928">
		<tag k="historic" v="shieling" />
		<tag k="name" v="Gammelsetran" />
		<tag k="place" v="locality" />
		<tag k="ssr:stedsnr" v="453636" />
	</node>
	<node id="-786841" lat="64.8858083302" lon="12.4393972288">
		<tag k="name" v="Øyrkollen industriområde" />
		<tag k="place" v="quarter" />
		<tag k="ssr:stedsnr" v="39393" />
	</node>
	<node id="-786835" lat="64.8380472228" lon="12.4246833412">
		<tag k="historic" v="shieling" />
		<tag k="name" v="Gammelsetran" />
		<tag k="place" v="locality" />
		<tag k="ssr:stedsnr" v="29843" />
	</node>
	<node id="-787345" lat="64.867061113" lon="12.4368499921">
		<tag k="name" v="Eliasmoen" />
		<tag k="place" v="farm" />
		<tag k="ssr:stedsnr" v="621779" />
	</node>
	<node id="-787340" lat="64.6222861143" lon="12.3102833441">
		<tag k="name" v="Kjæran" />
		<tag k="place" v="farm" />
		<tag k="ssr:stedsnr" v="621572" />
	</node>
	<node id="-786826" lat="64.5748611138" lon="12.3426166577">
		<tag k="historic" v="shieling" />
		<tag k="name" v="Brynnmosetran" />
		<tag k="place" v="locality" />
		<tag k="ssr:stedsnr" v="29298" />
	</node>
	<node id="-787337" lat="64.7593250008" lon="12.3228805656">
		<tag k="alt_name" v="Kvernenget" />
		<tag k="name" v="Østly" />
		<tag k="place" v="farm" />
		<tag k="ssr:stedsnr" v="621222" />
	</node>
	<node id="-786312" lat="64.7488416688" lon="12.3926194529">
		<tag k="name" v="Kvernmosetran" />
		<tag k="place" v="isolated_dwelling" />
		<tag k="ssr:stedsnr" v="439902" />
	</node>
	<node id="-786308" lat="64.6721388858" lon="12.1860805479">
		<tag k="name" v="Mørkvedsetran" />
		<tag k="place" v="isolated_dwelling" />
		<tag k="ssr:stedsnr" v="655917" />
	</node>
	<node id="-786818" lat="64.9112055539" lon="12.3418638948">
		<tag k="historic" v="shieling" />
		<tag k="name" v="Ytterengsetran" />
		<tag k="place" v="locality" />
		<tag k="ssr:stedsnr" v="28773" />
	</node>
	<node id="-787093" lat="64.6203666857" lon="12.3927609921">
		<tag k="name" v="Kjolgsetran" />
		<tag k="place" v="locality" />
		<tag k="ssr:stedsnr" v="318522" />
	</node>
	<node id="-786286" lat="64.6279805572" lon="12.2950861097">
		<tag k="name" v="Vargeia boligfelt" />
		<tag k="place" v="quarter" />
		<tag k="ssr:stedsnr" v="514487" />
	</node>
	<node id="-786285" lat="64.6287666652" lon="12.2973388843">
		<tag k="name" v="Børset" />
		<tag k="place" v="farm" />
		<tag k="ssr:stedsnr" v="514484" />
	</node>
	<node id="-786407" lat="64.6516444458" lon="12.2993444493">
		<tag k="name" v="Skogstad" />
		<tag k="place" v="farm" />
		<tag k="ssr:stedsnr" v="696519" />
	</node>
	<node id="-786792" lat="64.5501111097" lon="12.2523027734">
		<tag k="historic" v="shieling" />
		<tag k="name" v="Hollosetran" />
		<tag k="place" v="locality" />
		<tag k="ssr:stedsnr" v="28215" />
	</node>
	<node id="-786748" lat="64.6122175765" lon="12.2705819064">
		<tag k="fixme" v="consider place=hamlet" />
		<tag k="name" v="Mensheimen" />
		<tag k="place" v="farm" />
		<tag k="ssr:stedsnr" v="971484" />
	</node>
	<node id="-786278" lat="64.5713500045" lon="12.2877083314">
		<tag k="historic" v="shieling" />
		<tag k="name" v="Brynnmosetran" />
		<tag k="place" v="locality" />
		<tag k="ssr:stedsnr" v="514316" />
	</node>
	<node id="-786277" lat="64.6477250011" lon="12.2920916579">
		<tag k="name" v="Rønningen" />
		<tag k="place" v="farm" />
		<tag k="ssr:stedsnr" v="513525" />
	</node>
	<node id="-786786" lat="64.9130638907" lon="12.4451972182">
		<tag k="name" v="Nyheimen" />
		<tag k="place" v="locality" />
		<tag k="ssr:stedsnr" v="15827" />
	</node>
	<node id="-786272" lat="64.7175722246" lon="12.3640833275">
		<tag k="name" v="Sivertrommet" />
		<tag k="place" v="locality" />
		<tag k="ssr:stedsnr" v="513439" />
	</node>
	<node id="-786782" lat="64.6555321554" lon="12.3393804061">
		<tag k="fixme" v="consider place=hamlet" />
		<tag k="name" v="Flakken" />
		<tag k="place" v="farm" />
		<tag k="ssr:stedsnr" v="15648" />
	</node>
	<node id="-786781" lat="64.6281972186" lon="12.279608335">
		<tag k="name" v="Litlenget" />
		<tag k="place" v="farm" />
		<tag k="ssr:stedsnr" v="15556" />
	</node>
	<node id="-787287" lat="64.6461861084" lon="12.3260388786">
		<tag k="name" v="Brennbakken" />
		<tag k="place" v="farm" />
		<tag k="ssr:stedsnr" v="574539" />
	</node>
	<node id="-786774" lat="64.5841944422" lon="12.2062499987">
		<tag k="name" v="Grånneset" />
		<tag k="place" v="farm" />
		<tag k="ssr:stedsnr" v="14759" />
	</node>
	<node id="-786773" lat="64.5964750043" lon="12.2116749922">
		<tag k="name" v="Lauvset" />
		<tag k="place" v="farm" />
		<tag k="ssr:stedsnr" v="14756" />
	</node>
	<node id="-786259" lat="64.8505027782" lon="12.3964055486">
		<tag k="historic" v="shieling" />
		<tag k="name" v="Gammelsetran" />
		<tag k="place" v="locality" />
		<tag k="ssr:stedsnr" v="392803" />
	</node>
	<node id="-787281" lat="64.6251416683" lon="12.2884527725">
		<tag k="name" v="Nordre Tyldom" />
		<tag k="place" v="farm" />
		<tag k="ssr:stedsnr" v="574497" />
	</node>
	<node id="-787278" lat="64.6487583333" lon="12.2131694522">
		<tag k="historic" v="shieling" />
		<tag k="name" v="Børstadsetran" />
		<tag k="place" v="locality" />
		<tag k="ssr:stedsnr" v="574167" />
	</node>
	<node id="-786251" lat="64.6326222221" lon="12.3129138797">
		<tag k="name" v="Skarstad" />
		<tag k="place" v="farm" />
		<tag k="ssr:stedsnr" v="392554" />
	</node>
	<node id="-786487" lat="64.5601805587" lon="12.1440722229">
		<tag k="alt_name" v="Viken østre" />
		<tag k="fixme" v="multiple name tags, choose one and add the other to alt_name" />
		<tag k="name" v="Østre Viken;Østre Vika" />
		<tag k="place" v="farm" />
		<tag k="ssr:stedsnr" v="878069" />
	</node>
	<node id="-786760" lat="64.623835165" lon="12.2884551847">
		<tag k="name" v="Solhaug" />
		<tag k="place" v="farm" />
		<tag k="ssr:stedsnr" v="985539" />
	</node>
	<node id="-786759" lat="64.6404930863" lon="12.3299078071">
		<tag k="name" v="Øvre Skarland" />
		<tag k="place" v="farm" />
		<tag k="ssr:stedsnr" v="985538" />
	</node>
	<node id="-786758" lat="64.6155778712" lon="12.2663916596">
		<tag k="name" v="Grungstadhaugen" />
		<tag k="place" v="farm" />
		<tag k="ssr:stedsnr" v="985536" />
	</node>
	<node id="-787269" lat="64.6932416657" lon="12.3306833383">
		<tag k="alt_name" v="Flått" />
		<tag k="name" v="Flott" />
		<tag k="place" v="hamlet" />
		<tag k="ssr:stedsnr" v="560944" />
	</node>
	<node id="-787265" lat="64.7442111082" lon="12.3465305631">
		<tag k="alt_name" v="Øye" />
		<tag k="name" v="Øy" />
		<tag k="place" v="hamlet" />
		<tag k="ssr:stedsnr" v="560885" />
	</node>
	<node id="-786656" lat="64.5580348742" lon="12.1676357283">
		<tag k="fixme" v="consider place=hamlet" />
		<tag k="name" v="Eid" />
		<tag k="place" v="farm" />
		<tag k="ssr:stedsnr" v="804956" />
	</node>
	<node id="-787262" lat="64.6704138918" lon="12.1545861123">
		<tag k="historic" v="shieling" />
		<tag k="name" v="Litltyldsetran" />
		<tag k="place" v="locality" />
		<tag k="ssr:stedsnr" v="560844" />
	</node>
	<node id="-786236" lat="64.6027999985" lon="12.2501138837">
		<tag k="name" v="Finnhusmoen" />
>>>>>>> e1d4bc35ff8a6074a6f2e91616a996b547c36f15
		<tag k="place" v="farm" />
		<tag k="ssr:stedsnr" v="500591" />
	</node>
<<<<<<< HEAD
	<node lat="64.65944444398345" lon="12.374752781859204" id="-34493">
		<tag k="historic" v="shieling" />
		<tag k="name" v="Råumsetran" />
		<tag k="place" v="isolated_dwelling" />
		<tag k="ssr:stedsnr" v="756495" />
	</node>
	<node lat="64.8767305528679" lon="12.394375010097558" id="-34498">
		<tag k="historic" v="shieling" />
		<tag k="name" v="Gammelsetran" />
		<tag k="place" v="isolated_dwelling" />
		<tag k="ssr:stedsnr" v="756761" />
	</node>
	<node lat="64.63188888595691" lon="12.310238880726935" id="-34504">
		<tag k="name" v="Skarstadbakken" />
		<tag k="place" v="quarter" />
		<tag k="ssr:stedsnr" v="905446" />
	</node>
	<node lat="64.58247222080787" lon="12.275825005547592" id="-34516">
		<tag k="historic" v="shieling" />
		<tag k="name" v="Mørkvedsetran" />
		<tag k="place" v="isolated_dwelling" />
		<tag k="ssr:stedsnr" v="803724" />
	</node>
	<node lat="64.73260277624334" lon="12.311105554596283" id="-34521">
		<tag k="name" v="Hognes" />
		<tag k="place" v="hamlet" />
		<tag k="ssr:stedsnr" v="804905" />
	</node>
	<node lat="64.5580348742229" lon="12.167635728319429" id="-34523">
		<tag k="fixme" v="consider place=hamlet" />
		<tag k="name" v="Eid" />
		<tag k="place" v="farm" />
		<tag k="ssr:stedsnr" v="804956" />
	</node>
	<node lat="64.77616667071206" lon="12.35799721947111" id="-34533">
		<tag k="historic" v="shieling" />
		<tag k="name" v="Øyasetran" />
		<tag k="place" v="isolated_dwelling" />
		<tag k="ssr:stedsnr" v="817580" />
	</node>
	<node lat="64.72928610692921" lon="12.317058337965886" id="-34538">
		<tag k="name" v="Pettermoen" />
		<tag k="place" v="farm" />
		<tag k="ssr:stedsnr" v="817622" />
	</node>
	<node lat="64.7659242447988" lon="12.293271401125168" id="-34554">
		<tag k="alt_name" v="Jakobengsetran" />
		<tag k="historic" v="shieling" />
		<tag k="name" v="Jakobengsætra" />
		<tag k="place" v="isolated_dwelling" />
		<tag k="ssr:stedsnr" v="925279" />
	</node>
	<node lat="64.59219166283142" lon="12.343727773330173" id="-34557">
		<tag k="historic" v="shieling" />
		<tag k="name" v="Nysetran" />
		<tag k="place" v="isolated_dwelling" />
		<tag k="ssr:stedsnr" v="925579" />
	</node>
	<node lat="64.57310884168804" lon="12.257296037435957" id="-34559">
		<tag k="fixme" v="consider place=hamlet" />
		<tag k="name" v="Åvassmarka" />
=======
	<node id="-786747" lat="64.7308910207" lon="12.3183203102">
		<tag k="fixme" v="consider place=hamlet" />
		<tag k="name" v="Hognes" />
		<tag k="place" v="farm" />
		<tag k="ssr:stedsnr" v="971458" />
	</node>
	<node id="-786233" lat="64.6304000002" lon="12.2867083245">
		<tag k="name" v="Dal" />
		<tag k="place" v="farm" />
		<tag k="ssr:stedsnr" v="500671" />
	</node>
	<node id="-787256" lat="64.6139107183" lon="12.2623102914">
		<tag k="name" v="Vaddamoen" />
		<tag k="place" v="farm" />
		<tag k="ssr:stedsnr" v="560527" />
	</node>
	<node id="-787255" lat="64.6400146728" lon="12.3113192302">
		<tag k="fixme" v="consider place=hamlet" />
		<tag k="name" v="Okstad" />
		<tag k="place" v="farm" />
		<tag k="ssr:stedsnr" v="560627" />
	</node>
	<node id="-786735" lat="64.6245444399" lon="12.3171500089">
		<tag k="alt_name" v="Lonbakk" />
		<tag k="name" v="Sandtrongan" />
		<tag k="place" v="farm" />
		<tag k="ssr:stedsnr" v="925557" />
	</node>
	<node id="-787245" lat="64.8044519821" lon="12.3660958989">
		<tag k="alt_name" v="Øvre Rosendal;Rosendal øvre" />
		<tag k="fixme" v="consider place=hamlet" />
		<tag k="name" v="Rosendal" />
		<tag k="place" v="farm" />
		<tag k="ssr:stedsnr" v="560206" />
	</node>
	<node id="-786732" lat="64.6067888922" lon="12.2402138936">
		<tag k="name" v="Steinmoen" />
		<tag k="place" v="farm" />
		<tag k="ssr:stedsnr" v="883655" />
	</node>
	<node id="-787164" lat="64.5711722217" lon="12.2331916679">
		<tag k="alt_name" v="Hesjedalen" />
		<tag k="name" v="Lauvlia" />
		<tag k="place" v="isolated_dwelling" />
		<tag k="ssr:stedsnr" v="378727" />
	</node>
	<node id="-786213" lat="64.809866663" lon="12.3671055521">
		<tag k="name" v="Norddal" />
		<tag k="place" v="farm" />
		<tag k="ssr:stedsnr" v="378207" />
	</node>
	<node id="-786212" lat="64.8169333338" lon="12.3733027703">
		<tag k="name" v="Kubakkan" />
		<tag k="place" v="farm" />
		<tag k="ssr:stedsnr" v="378206" />
	</node>
	<node id="-787235" lat="64.5543583299" lon="12.1868805487">
		<tag k="name" v="Vassbotna boligfelt" />
		<tag k="place" v="quarter" />
		<tag k="ssr:stedsnr" v="525455" />
	</node>
	<node id="-786651" lat="64.6115361139" lon="12.2928638928">
		<tag k="name" v="Sveddet" />
		<tag k="place" v="farm" />
		<tag k="ssr:stedsnr" v="804554" />
	</node>
	<node id="-787230" lat="64.5748472242" lon="12.1921833352">
		<tag k="name" v="Mevassvika" />
		<tag k="place" v="locality" />
		<tag k="ssr:stedsnr" v="415402" />
	</node>
	<node id="-787077" lat="64.6071416663" lon="12.2447777697">
		<tag k="name" v="Myrmoen" />
>>>>>>> e1d4bc35ff8a6074a6f2e91616a996b547c36f15
		<tag k="place" v="farm" />
		<tag k="ssr:stedsnr" v="925585" />
	</node>
<<<<<<< HEAD
	<node lat="64.62454443987208" lon="12.317150008888163" id="-34560">
		<tag k="alt_name" v="Lonbakk" />
		<tag k="name" v="Sandtrongan" />
		<tag k="place" v="farm" />
		<tag k="ssr:stedsnr" v="925557" />
	</node>
	<node lat="64.64083889281835" lon="12.387308326907018" id="-34563">
		<tag k="name" v="Råsetran" />
		<tag k="place" v="isolated_dwelling" />
		<tag k="ssr:stedsnr" v="925667" />
	</node>
	<node lat="64.65400555617674" lon="12.303150010272846" id="-34567">
		<tag k="name" v="Solås" />
		<tag k="place" v="farm" />
		<tag k="ssr:stedsnr" v="925657" />
	</node>
	<node lat="64.64793252495281" lon="12.303174713470764" id="-34568">
		<tag k="fixme" v="consider place=hamlet" />
		<tag k="name" v="Almås" />
		<tag k="place" v="farm" />
		<tag k="ssr:stedsnr" v="925658" />
	</node>
	<node lat="64.56212222217259" lon="12.139900005621724" id="-34570">
		<tag k="name" v="Berg" />
		<tag k="place" v="farm" />
		<tag k="ssr:stedsnr" v="925854" />
	</node>
	<node lat="64.78818611215698" lon="12.343452785989943" id="-34581">
		<tag k="alt_name" v="Meidalen, søre" />
		<tag k="name" v="Søre Meidalen" />
		<tag k="place" v="farm" />
		<tag k="ssr:stedsnr" v="864199" />
	</node>
	<node lat="64.60678889217363" lon="12.240213893597243" id="-34619">
		<tag k="name" v="Steinmoen" />
		<tag k="place" v="farm" />
		<tag k="ssr:stedsnr" v="883655" />
	</node>
	<node lat="64.64985555571062" lon="12.194313898275034" id="-34629">
		<tag k="historic" v="shieling" />
		<tag k="name" v="Tyldsetran" />
		<tag k="place" v="isolated_dwelling" />
		<tag k="ssr:stedsnr" v="925882" />
	</node>
	<node lat="64.73538888957694" lon="12.237588881276912" id="-34633">
		<tag k="historic" v="shieling" />
		<tag k="name" v="Pettersetran" />
		<tag k="place" v="isolated_dwelling" />
		<tag k="ssr:stedsnr" v="938115" />
	</node>
	<node lat="64.59420555833125" lon="12.397352767749203" id="-34649">
		<tag k="historic" v="shieling" />
		<tag k="name" v="Brembusetran" />
		<tag k="place" v="isolated_dwelling" />
		<tag k="ssr:stedsnr" v="955440" />
	</node>
	<node lat="64.6584305575635" lon="12.06180000283487" id="-34650">
		<tag k="historic" v="shieling" />
		<tag k="name" v="Krabstusetran" />
		<tag k="place" v="isolated_dwelling" />
		<tag k="ssr:stedsnr" v="956912" />
	</node>
	<node lat="64.73089102068492" lon="12.318320310183537" id="-34654">
		<tag k="fixme" v="consider place=hamlet" />
		<tag k="name" v="Hognes" />
		<tag k="place" v="farm" />
		<tag k="ssr:stedsnr" v="971458" />
	</node>
	<node lat="64.74269822675944" lon="12.338906145047032" id="-34668">
		<tag k="name" v="Øie" />
		<tag k="place" v="farm" />
		<tag k="ssr:stedsnr" v="985534" />
	</node>
	<node lat="64.61557787121691" lon="12.266391659618485" id="-34669">
		<tag k="name" v="Grungstadhaugen" />
		<tag k="place" v="farm" />
		<tag k="ssr:stedsnr" v="985536" />
	</node>
	<node lat="64.64049308630958" lon="12.329907807111356" id="-34670">
		<tag k="name" v="Øvre Skarland" />
		<tag k="place" v="farm" />
		<tag k="ssr:stedsnr" v="985538" />
	</node>
	<node lat="64.62383516496932" lon="12.28845518473138" id="-34671">
		<tag k="name" v="Solhaug" />
		<tag k="place" v="farm" />
		<tag k="ssr:stedsnr" v="985539" />
	</node>
	<node lat="64.91306389071212" lon="12.44519721819804" id="-34695">
		<tag k="name" v="Nyheimen" />
		<tag k="place" v="locality" />
		<tag k="ssr:stedsnr" v="15827" />
	</node>
	<node lat="64.65553215541706" lon="12.33938040607529" id="-34700">
		<tag k="fixme" v="consider place=hamlet" />
		<tag k="name" v="Flakken" />
		<tag k="place" v="farm" />
		<tag k="ssr:stedsnr" v="15648" />
	</node>
	<node lat="64.55011110970784" lon="12.252302773440249" id="-34705">
		<tag k="historic" v="shieling" />
		<tag k="name" v="Hollosetran" />
		<tag k="place" v="isolated_dwelling" />
		<tag k="ssr:stedsnr" v="28215" />
	</node>
	<node lat="64.57486111375242" lon="12.342616657742465" id="-34728">
		<tag k="historic" v="shieling" />
		<tag k="name" v="Brynnmosetran" />
		<tag k="place" v="isolated_dwelling" />
		<tag k="ssr:stedsnr" v="29298" />
	</node>
	<node lat="64.8380472228346" lon="12.424683341203325" id="-34735">
		<tag k="historic" v="shieling" />
		<tag k="name" v="Gammelsetran" />
		<tag k="place" v="isolated_dwelling" />
		<tag k="ssr:stedsnr" v="29843" />
	</node>
	<node lat="64.88580833020323" lon="12.43939722876514" id="-34741">
		<tag k="name" v="Øyrkollen industriområde" />
		<tag k="place" v="quarter" />
		<tag k="ssr:stedsnr" v="39393" />
	</node>
	<node lat="64.86872778058486" lon="12.429016656661409" id="-34742">
		<tag k="name" v="Saur boligfelt" />
		<tag k="place" v="quarter" />
		<tag k="ssr:stedsnr" v="39396" />
	</node>
	<node lat="64.63351944112654" lon="12.289958331412587" id="-34749">
		<tag k="name" v="Børstad boligfelt" />
		<tag k="place" v="quarter" />
		<tag k="ssr:stedsnr" v="55397" />
	</node>
	<node lat="64.87548611365828" lon="12.441258338696063" id="-34762">
		<tag k="alt_name" v="Årmo" />
		<tag k="name" v="Årmoen" />
		<tag k="place" v="farm" />
		<tag k="ssr:stedsnr" v="75794" />
	</node>
	<node lat="64.60537222140168" lon="12.247225000560984" id="-34775">
		<tag k="fixme" v="consider place=hamlet" />
		<tag k="name" v="Grungstad" />
		<tag k="place" v="village" />
		<tag k="ssr:stedsnr" v="76516" />
	</node>
	<node lat="64.60955277803677" lon="12.287316675790768" id="-34776">
		<tag k="alt_name" v="Hopengmoen" />
		<tag k="name" v="Moan" />
		<tag k="place" v="farm" />
		<tag k="ssr:stedsnr" v="76523" />
	</node>
	<node lat="64.7341305514575" lon="12.350125005764587" id="-34796">
		<tag k="name" v="Rydningen" />
		<tag k="place" v="farm" />
		<tag k="ssr:stedsnr" v="89638" />
	</node>
	<node lat="64.60555555988299" lon="12.254466661806878" id="-34811">
		<tag k="name" v="Botnnesvollen" />
		<tag k="place" v="farm" />
		<tag k="ssr:stedsnr" v="94621" />
	</node>
	<node lat="64.6265055533886" lon="12.309186118742758" id="-34812">
		<tag k="name" v="Brøndbo industriområde" />
		<tag k="place" v="quarter" />
		<tag k="ssr:stedsnr" v="100434" />
	</node>
	<node lat="64.78832500238964" lon="12.344013894194545" id="-34819">
		<tag k="name" v="Meimoen" />
		<tag k="place" v="isolated_dwelling" />
		<tag k="ssr:stedsnr" v="136230" />
	</node>
	<node lat="64.57145555292782" lon="12.25417221325457" id="-34827">
		<tag k="name" v="Moen" />
		<tag k="place" v="farm" />
		<tag k="ssr:stedsnr" v="135695" />
	</node>
	<node lat="64.60260832963039" lon="12.231958322473046" id="-34840">
		<tag k="name" v="Grungstadneset" />
		<tag k="place" v="farm" />
		<tag k="ssr:stedsnr" v="136530" />
	</node>
	<node lat="64.61828776724359" lon="12.28872822318645" id="-34842">
		<tag k="fixme" v="consider place=hamlet" />
		<tag k="name" v="Stor-Tyldom" />
		<tag k="place" v="farm" />
		<tag k="ssr:stedsnr" v="136543" />
	</node>
	<node lat="64.64108056088912" lon="12.32773742142432" id="-34843">
		<tag k="fixme" v="consider place=hamlet" />
		<tag k="name" v="Skarland" />
		<tag k="place" v="farm" />
		<tag k="ssr:stedsnr" v="136636" />
	</node>
	<node lat="64.64271058616345" lon="12.314315863561017" id="-34844">
		<tag k="fixme" v="consider place=hamlet" />
		<tag k="name" v="Romstad" />
		<tag k="place" v="farm" />
		<tag k="ssr:stedsnr" v="136637" />
	</node>
	<node lat="64.57780277404979" lon="12.292744448317617" id="-34845">
		<tag k="name" v="Gammelsetran" />
		<tag k="place" v="isolated_dwelling" />
		<tag k="ssr:stedsnr" v="136736" />
	</node>
	<node lat="64.69472222050774" lon="12.284036114573095" id="-34850">
		<tag k="name" v="Romstadsetran" />
		<tag k="place" v="isolated_dwelling" />
		<tag k="ssr:stedsnr" v="136934" />
	</node>
	<node lat="64.54947778002752" lon="12.170305549037392" id="-34851">
		<tag k="name" v="Skilleberget" />
		<tag k="place" v="isolated_dwelling" />
		<tag k="ssr:stedsnr" v="136940" />
	</node>
	<node lat="64.54938672661778" lon="12.177699532638592" id="-34852">
		<tag k="name" v="Sagmoen" />
=======
	<node id="-787228" lat="64.6411611154" lon="12.1151916654">
		<tag k="historic" v="shieling" />
		<tag k="name" v="Karlsetervollen" />
		<tag k="place" v="locality" />
		<tag k="ssr:stedsnr" v="410893" />
	</node>
	<node id="-786203" lat="64.883388892" lon="12.3851999905">
		<tag k="historic" v="shieling" />
		<tag k="name" v="Jofinnsetran" />
		<tag k="place" v="locality" />
		<tag k="ssr:stedsnr" v="332505" />
	</node>
	<node id="-786714" lat="64.8593472253" lon="12.4291361037">
		<tag k="name" v="Midtiåneset" />
		<tag k="place" v="farm" />
		<tag k="ssr:stedsnr" v="939795" />
	</node>
	<node id="-787222" lat="64.5781027754" lon="12.2987888814">
		<tag k="historic" v="shieling" />
		<tag k="name" v="Josefsetran" />
		<tag k="place" v="locality" />
		<tag k="ssr:stedsnr" v="393270" />
	</node>
	<node id="-786649" lat="64.7897833342" lon="12.3460305521">
		<tag k="alt_name" v="Meidalen, nordre" />
		<tag k="name" v="Nordre Meidalen" />
		<tag k="place" v="farm" />
		<tag k="ssr:stedsnr" v="804236" />
	</node>
	<node id="-786188" lat="64.7553111104" lon="12.343694446">
		<tag k="name" v="Sundodden" />
		<tag k="place" v="farm" />
		<tag k="ssr:stedsnr" v="318213" />
	</node>
	<node id="-787159" lat="64.6771861145" lon="12.3246833383">
		<tag k="name" v="Jakopsetran" />
		<tag k="place" v="locality" />
		<tag k="ssr:stedsnr" v="378629" />
	</node>
	<node id="-786181" lat="64.6928886515" lon="12.3330365054">
		<tag k="fixme" v="consider place=hamlet" />
		<tag k="name" v="Flott" />
		<tag k="place" v="farm" />
		<tag k="ssr:stedsnr" v="471538" />
	</node>
	<node id="-786179" lat="64.6085527753" lon="12.2507027838">
		<tag k="name" v="Vollen" />
		<tag k="place" v="farm" />
		<tag k="ssr:stedsnr" v="458648" />
	</node>
	<node id="-787201" lat="64.5554194486" lon="12.183213892">
		<tag k="name" v="Brumoen" />
		<tag k="place" v="farm" />
		<tag k="ssr:stedsnr" v="392237" />
	</node>
	<node id="-786577" lat="64.8021361106" lon="12.3662777683">
		<tag k="name" v="Storneset" />
		<tag k="place" v="farm" />
		<tag k="ssr:stedsnr" v="696609" />
	</node>
	<node id="-786559" lat="64.5530722222" lon="12.117016677">
		<tag k="name" v="Tømmermoen" />
		<tag k="place" v="isolated_dwelling" />
		<tag k="ssr:stedsnr" v="682959" />
	</node>
	<node id="-787438" lat="64.7374333365" lon="12.2439805563">
		<tag k="historic" v="shieling" />
		<tag k="name" v="Johannesmosetran" />
		<tag k="place" v="locality" />
		<tag k="ssr:stedsnr" v="756127" />
	</node>
	<node id="-786165" lat="64.839083331" lon="12.3992416681">
		<tag k="historic" v="shieling" />
		<tag k="name" v="Saurssetran" />
		<tag k="place" v="locality" />
		<tag k="ssr:stedsnr" v="271614" />
	</node>
	<node id="-786673" lat="64.7353888896" lon="12.2375888813">
		<tag k="historic" v="shieling" />
		<tag k="name" v="Pettersetran" />
		<tag k="place" v="locality" />
		<tag k="ssr:stedsnr" v="938115" />
	</node>
	<node id="-787494" lat="64.6368944464" lon="12.3189777794">
		<tag k="name" v="Skarland industriområde" />
		<tag k="place" v="quarter" />
		<tag k="ssr:stedsnr" v="767434" />
	</node>
	<node id="-787169" lat="64.8816611116" lon="12.4346194505">
		<tag k="fixme" v="consider place=hamlet" />
		<tag k="name" v="Kongsmoen" />
		<tag k="place" v="village" />
		<tag k="ssr:stedsnr" v="378785" />
	</node>
	<node id="-787168" lat="64.8838348891" lon="12.4371956054">
		<tag k="fixme" v="consider place=hamlet" />
		<tag k="name" v="Kongsmoen" />
		<tag k="place" v="farm" />
		<tag k="ssr:stedsnr" v="378783" />
	</node>
	<node id="-786951" lat="64.625061108" lon="12.1857472143">
		<tag k="name" v="Vollasetran" />
		<tag k="place" v="locality" />
		<tag k="ssr:stedsnr" v="135733" />
	</node>
	<node id="-786140" lat="64.8357249988" lon="12.3945055561">
		<tag k="name" v="Skogenget" />
		<tag k="place" v="isolated_dwelling" />
		<tag k="ssr:stedsnr" v="257820" />
	</node>
	<node id="-786139" lat="64.8298257152" lon="12.3889679323">
		<tag k="name" v="Vesterheimen" />
		<tag k="place" v="locality" />
		<tag k="ssr:stedsnr" v="257819" />
	</node>
	<node id="-787161" lat="64.6427158809" lon="12.3443344595">
		<tag k="fixme" v="consider place=hamlet" />
		<tag k="name" v="Råm" />
		<tag k="place" v="farm" />
		<tag k="ssr:stedsnr" v="378649" />
	</node>
	<node id="-786135" lat="64.6284555573" lon="12.3027861141">
		<tag k="fixme" v="consider place=hamlet" />
		<tag k="name" v="Høylandet" />
		<tag k="place" v="village" />
		<tag k="ssr:stedsnr" v="257659" />
	</node>
	<node id="-786134" lat="64.6689666708" lon="12.325580554">
		<tag k="name" v="Mjøsund" />
		<tag k="place" v="farm" />
		<tag k="ssr:stedsnr" v="257623" />
	</node>
	<node id="-786131" lat="64.624669441" lon="12.2878777746">
		<tag k="name" v="Nygarden" />
		<tag k="place" v="farm" />
		<tag k="ssr:stedsnr" v="257565" />
	</node>
	<node id="-786642" lat="64.6742611123" lon="12.2920472308">
		<tag k="name" v="Brennbakksetran" />
		<tag k="place" v="locality" />
		<tag k="ssr:stedsnr" v="803588" />
	</node>
	<node id="-786723" lat="64.6041833296" lon="12.2327055547">
		<tag k="name" v="Nyenget" />
		<tag k="place" v="farm" />
		<tag k="ssr:stedsnr" v="943540" />
	</node>
	<node id="-787146" lat="64.6081333367" lon="12.2555666723">
		<tag k="fixme" v="consider place=hamlet" />
		<tag k="name" v="Grungstad" />
		<tag k="place" v="farm" />
		<tag k="ssr:stedsnr" v="336518" />
	</node>
	<node id="-786121" lat="64.7428611595" lon="12.3395005564">
		<tag k="fixme" v="consider place=hamlet" />
		<tag k="name" v="Øye" />
		<tag k="place" v="farm" />
		<tag k="ssr:stedsnr" v="453647" />
	</node>
	<node id="-786628" lat="64.6498555557" lon="12.1943138983">
		<tag k="historic" v="shieling" />
		<tag k="name" v="Tyldsetran" />
		<tag k="place" v="locality" />
		<tag k="ssr:stedsnr" v="925882" />
	</node>
	<node id="-786626" lat="64.5621222222" lon="12.1399000056">
		<tag k="name" v="Berg" />
		<tag k="place" v="farm" />
		<tag k="ssr:stedsnr" v="925854" />
	</node>
	<node id="-787136" lat="64.6473888864" lon="12.3910500053">
		<tag k="historic" v="shieling" />
		<tag k="name" v="Råsetran" />
		<tag k="place" v="locality" />
		<tag k="ssr:stedsnr" v="332487" />
	</node>
	<node id="-786107" lat="64.5629333319" lon="12.3204305556">
		<tag k="historic" v="shieling" />
		<tag k="name" v="Hjartåssetran" />
		<tag k="place" v="locality" />
		<tag k="ssr:stedsnr" v="453338" />
	</node>
	<node id="-786617" lat="64.6408388928" lon="12.3873083269">
		<tag k="name" v="Råsetran" />
		<tag k="place" v="isolated_dwelling" />
		<tag k="ssr:stedsnr" v="925667" />
	</node>
	<node id="-786616" lat="64.647932525" lon="12.3031747135">
		<tag k="fixme" v="consider place=hamlet" />
		<tag k="name" v="Almås" />
		<tag k="place" v="farm" />
		<tag k="ssr:stedsnr" v="925658" />
	</node>
	<node id="-786615" lat="64.6540055562" lon="12.3031500103">
		<tag k="name" v="Solås" />
		<tag k="place" v="farm" />
		<tag k="ssr:stedsnr" v="925657" />
	</node>
	<node id="-786745" lat="64.6220916704" lon="12.2944527883">
		<tag k="name" v="Stokkneset" />
		<tag k="place" v="farm" />
		<tag k="ssr:stedsnr" v="939476" />
	</node>
	<node id="-786097" lat="64.5562333332" lon="12.1790749965">
		<tag k="name" v="Eidem" />
		<tag k="place" v="farm" />
		<tag k="ssr:stedsnr" v="440948" />
	</node>
	<node id="-786608" lat="64.5921916628" lon="12.3437277733">
		<tag k="historic" v="shieling" />
		<tag k="name" v="Nysetran" />
		<tag k="place" v="locality" />
		<tag k="ssr:stedsnr" v="925579" />
	</node>
	<node id="-786606" lat="64.7659242448" lon="12.2932714011">
		<tag k="alt_name" v="Jakobengsetran" />
		<tag k="historic" v="shieling" />
		<tag k="name" v="Jakobengsætra" />
		<tag k="place" v="locality" />
		<tag k="ssr:stedsnr" v="925279" />
	</node>
	<node id="-787116" lat="64.560544441" lon="12.1522750093">
		<tag k="name" v="Moan" />
		<tag k="place" v="farm" />
		<tag k="ssr:stedsnr" v="318957" />
	</node>
	<node id="-787114" lat="64.5548694409" lon="12.1864194383">
		<tag k="fixme" v="consider place=hamlet" />
		<tag k="name" v="Vassbotna" />
		<tag k="place" v="village" />
		<tag k="ssr:stedsnr" v="318945" />
	</node>
	<node id="-787113" lat="64.5509333325" lon="12.1120777785">
		<tag k="name" v="Litlenget" />
		<tag k="place" v="farm" />
		<tag k="ssr:stedsnr" v="318943" />
	</node>
	<node id="-786088" lat="64.6036396177" lon="12.2665379375">
		<tag k="fixme" v="consider place=hamlet" />
		<tag k="name" v="Mørkved" />
		<tag k="place" v="farm" />
		<tag k="ssr:stedsnr" v="440510" />
	</node>
	<node id="-786716" lat="64.8601444463" lon="12.4222166601">
		<tag k="name" v="Kalmoen" />
		<tag k="place" v="farm" />
		<tag k="ssr:stedsnr" v="939798" />
	</node>
	<node id="-787622" lat="64.6053014199" lon="12.2446653789">
		<tag k="name" v="Lillerønningen" />
>>>>>>> e1d4bc35ff8a6074a6f2e91616a996b547c36f15
		<tag k="place" v="farm" />
		<tag k="ssr:stedsnr" v="971289" />
	</node>
<<<<<<< HEAD
	<node lat="64.58679722374023" lon="12.150555562528208" id="-34853">
		<tag k="name" v="Eidsdalen" />
		<tag k="place" v="farm" />
		<tag k="ssr:stedsnr" v="149034" />
	</node>
	<node lat="64.75729721911358" lon="12.293366658348686" id="-34859">
		<tag k="historic" v="shieling" />
		<tag k="name" v="Pe-setran" />
		<tag k="place" v="isolated_dwelling" />
		<tag k="ssr:stedsnr" v="149442" />
	</node>
	<node lat="64.65367499581926" lon="12.083391669472936" id="-34883">
		<tag k="historic" v="shieling" />
		<tag k="name" v="Flasnessetran" />
		<tag k="place" v="isolated_dwelling" />
		<tag k="ssr:stedsnr" v="167915" />
	</node>
	<node lat="64.62878333524962" lon="12.300461119104854" id="-34887">
		<tag k="name" v="Ålbruenget boligfelt" />
		<tag k="place" v="quarter" />
		<tag k="ssr:stedsnr" v="176384" />
	</node>
	<node lat="64.61379764829906" lon="12.300271360078852" id="-34902">
		<tag k="fixme" v="consider place=hamlet" />
		<tag k="name" v="Hammer" />
		<tag k="place" v="farm" />
		<tag k="ssr:stedsnr" v="197575" />
	</node>
	<node lat="64.61584999861921" lon="12.286119447152458" id="-34903">
		<tag k="name" v="Stormoen" />
		<tag k="place" v="farm" />
		<tag k="ssr:stedsnr" v="197577" />
	</node>
	<node lat="64.71339444046886" lon="12.321461109384527" id="-34907">
		<tag k="name" v="Solvang" />
		<tag k="place" v="farm" />
		<tag k="ssr:stedsnr" v="197933" />
	</node>
	<node lat="64.55967656211736" lon="12.138313853199568" id="-34909">
		<tag k="fixme" v="consider place=hamlet" />
		<tag k="name" v="Vika" />
		<tag k="place" v="farm" />
		<tag k="ssr:stedsnr" v="197960" />
	</node>
	<node lat="64.75173888987842" lon="12.302674989608823" id="-34931">
		<tag k="historic" v="shieling" />
		<tag k="name" v="Framgårdsetran" />
		<tag k="place" v="isolated_dwelling" />
		<tag k="ssr:stedsnr" v="210449" />
	</node>
	<node lat="64.62036668567596" lon="12.392760992141174" id="-34946">
		<tag k="name" v="Kjolgsetran" />
		<tag k="place" v="locality" />
		<tag k="ssr:stedsnr" v="318522" />
	</node>
	<node lat="64.62199717646425" lon="12.32688767285236" id="-34947">
		<tag k="fixme" v="consider place=hamlet" />
		<tag k="name" v="Brembu" />
		<tag k="place" v="farm" />
		<tag k="ssr:stedsnr" v="318533" />
	</node>
	<node lat="64.57937500423161" lon="12.20064722758222" id="-34950">
		<tag k="name" v="Mevassvika" />
		<tag k="place" v="farm" />
		<tag k="ssr:stedsnr" v="318820" />
	</node>
	<node lat="64.56054444100714" lon="12.152275009270413" id="-34963">
		<tag k="name" v="Moan" />
		<tag k="place" v="farm" />
		<tag k="ssr:stedsnr" v="318957" />
	</node>
	<node lat="64.91175148992888" lon="12.383583499592518" id="-34964">
		<tag k="fixme" v="consider place=hamlet" />
		<tag k="name" v="Bjøråa" />
		<tag k="place" v="farm" />
		<tag k="ssr:stedsnr" v="318826" />
	</node>
	<node lat="64.64738888636495" lon="12.391050005344852" id="-34994">
		<tag k="historic" v="shieling" />
		<tag k="name" v="Råsetran" />
		<tag k="place" v="isolated_dwelling" />
		<tag k="ssr:stedsnr" v="332487" />
	</node>
	<node lat="64.8838348891155" lon="12.437195605424597" id="-35017">
=======
	<node id="-787616" lat="64.6584305576" lon="12.0618000028">
		<tag k="historic" v="shieling" />
		<tag k="name" v="Krabstusetran" />
		<tag k="place" v="locality" />
		<tag k="ssr:stedsnr" v="956912" />
	</node>
	<node id="-787615" lat="64.5942055583" lon="12.3973527677">
		<tag k="historic" v="shieling" />
		<tag k="name" v="Brembusetran" />
		<tag k="place" v="locality" />
		<tag k="ssr:stedsnr" v="955440" />
	</node>
	<node id="-787614" lat="64.624558335" lon="12.1847361146">
		<tag k="historic" v="shieling" />
		<tag k="name" v="Vollasetran" />
		<tag k="place" v="locality" />
		<tag k="ssr:stedsnr" v="955433" />
	</node>
	<node id="-787611" lat="64.6151124193" lon="12.2674218646">
		<tag k="fixme" v="consider place=hamlet" />
		<tag k="name" v="Haugen" />
		<tag k="place" v="farm" />
		<tag k="ssr:stedsnr" v="865543" />
	</node>
	<node id="-786074" lat="64.8796809355" lon="12.4512419425">
		<tag k="fixme" v="consider place=hamlet" />
		<tag k="name" v="År" />
		<tag k="place" v="farm" />
		<tag k="ssr:stedsnr" v="439761" />
	</node>
	<node id="-787609" lat="64.6852499991" lon="12.3489805538">
		<tag k="name" v="Lauvåsen" />
		<tag k="place" v="farm" />
		<tag k="ssr:stedsnr" v="864931" />
	</node>
	<node id="-787608" lat="64.733988891" lon="12.2496249912">
		<tag k="name" v="Hognessetran" />
		<tag k="place" v="isolated_dwelling" />
		<tag k="ssr:stedsnr" v="864908" />
	</node>
	<node id="-787094" lat="64.6219971765" lon="12.3268876729">
>>>>>>> e1d4bc35ff8a6074a6f2e91616a996b547c36f15
		<tag k="fixme" v="consider place=hamlet" />
		<tag k="name" v="Brembu" />
		<tag k="place" v="farm" />
		<tag k="ssr:stedsnr" v="318533" />
	</node>
<<<<<<< HEAD
	<node lat="64.88166111158877" lon="12.434619450478095" id="-35018">
		<tag k="fixme" v="consider place=hamlet" />
		<tag k="name" v="Kongsmoen" />
		<tag k="place" v="village" />
		<tag k="ssr:stedsnr" v="378785" />
	</node>
	<node lat="64.6771861145367" lon="12.324683338328537" id="-35023">
		<tag k="name" v="Jakopsetran" />
		<tag k="place" v="locality" />
		<tag k="ssr:stedsnr" v="378629" />
	</node>
	<node lat="64.64271588088779" lon="12.344334459472327" id="-35025">
		<tag k="fixme" v="consider place=hamlet" />
		<tag k="name" v="Råm" />
		<tag k="place" v="farm" />
		<tag k="ssr:stedsnr" v="378649" />
	</node>
	<node lat="64.63262222206161" lon="12.312913879656385" id="-35056">
		<tag k="name" v="Skarstad" />
		<tag k="place" v="farm" />
		<tag k="ssr:stedsnr" v="392554" />
	</node>
	<node lat="64.57810277536922" lon="12.29878888137706" id="-35064">
		<tag k="historic" v="shieling" />
		<tag k="name" v="Josefsetran" />
		<tag k="place" v="isolated_dwelling" />
		<tag k="ssr:stedsnr" v="393270" />
	</node>
	<node lat="64.67942777595043" lon="12.353591664996346" id="-35084">
		<tag k="historic" v="shieling" />
		<tag k="name" v="Helbostadsetran" />
		<tag k="place" v="isolated_dwelling" />
		<tag k="ssr:stedsnr" v="439582" />
	</node>
	<node lat="64.87968093545646" lon="12.451241942517033" id="-35089">
		<tag k="fixme" v="consider place=hamlet" />
		<tag k="name" v="År" />
		<tag k="place" v="farm" />
		<tag k="ssr:stedsnr" v="439761" />
	</node>
	<node lat="64.8631033972468" lon="12.427126471789302" id="-35094">
		<tag k="fixme" v="consider place=hamlet" />
		<tag k="name" v="Saur" />
		<tag k="place" v="farm" />
		<tag k="ssr:stedsnr" v="439788" />
	</node>
	<node lat="64.60279999849048" lon="12.250113883731808" id="-35104">
		<tag k="name" v="Finnhusmoen" />
		<tag k="place" v="farm" />
		<tag k="ssr:stedsnr" v="500591" />
	</node>
	<node lat="64.63040000022033" lon="12.28670832445816" id="-35111">
		<tag k="name" v="Dal" />
		<tag k="place" v="farm" />
		<tag k="ssr:stedsnr" v="500671" />
	</node>
	<node lat="64.5529555558372" lon="12.182474990484724" id="-35117">
		<tag k="name" v="Setervollen" />
		<tag k="place" v="isolated_dwelling" />
		<tag k="ssr:stedsnr" v="500945" />
	</node>
	<node lat="64.72218654798483" lon="12.35905884257654" id="-35118">
		<tag k="fixme" v="consider place=hamlet" />
		<tag k="name" v="Kjølstad" />
		<tag k="place" v="farm" />
		<tag k="ssr:stedsnr" v="500915" />
	</node>
	<node lat="64.71757222464427" lon="12.364083327509963" id="-35121">
		<tag k="name" v="Sivertrommet" />
		<tag k="place" v="locality" />
		<tag k="ssr:stedsnr" v="513439" />
	</node>
	<node lat="64.64772500114657" lon="12.292091657854646" id="-35122">
		<tag k="name" v="Rønningen" />
		<tag k="place" v="farm" />
		<tag k="ssr:stedsnr" v="513525" />
	</node>
	<node lat="64.62876666522136" lon="12.297338884286477" id="-35131">
		<tag k="name" v="Børset" />
		<tag k="place" v="farm" />
		<tag k="ssr:stedsnr" v="514484" />
	</node>
	<node lat="64.62798055715997" lon="12.295086109729105" id="-35132">
		<tag k="name" v="Vargeia boligfelt" />
		<tag k="place" v="quarter" />
		<tag k="ssr:stedsnr" v="514487" />
	</node>
	<node lat="64.5543583298541" lon="12.186880548691578" id="-35151">
		<tag k="name" v="Vassbotna boligfelt" />
		<tag k="place" v="quarter" />
		<tag k="ssr:stedsnr" v="525455" />
	</node>
	<node lat="64.62888889287605" lon="12.305080553682812" id="-35154">
		<tag k="name" v="Høylandstunet" />
		<tag k="place" v="quarter" />
		<tag k="ssr:stedsnr" v="540407" />
	</node>
	<node lat="64.61391071831542" lon="12.262310291432275" id="-35167">
		<tag k="name" v="Vaddamoen" />
		<tag k="place" v="farm" />
		<tag k="ssr:stedsnr" v="560527" />
	</node>
	<node lat="64.64001467277075" lon="12.311319230159736" id="-35171">
		<tag k="fixme" v="consider place=hamlet" />
		<tag k="name" v="Okstad" />
		<tag k="place" v="farm" />
		<tag k="ssr:stedsnr" v="560627" />
	</node>
	<node lat="64.89060929215573" lon="12.464739850029167" id="-35175">
		<tag k="fixme" v="consider place=hamlet" />
		<tag k="name" v="Aunet" />
		<tag k="place" v="farm" />
		<tag k="ssr:stedsnr" v="560762" />
	</node>
	<node lat="64.67041389180062" lon="12.154586112349739" id="-35178">
		<tag k="historic" v="shieling" />
		<tag k="name" v="Litltyldsetran" />
		<tag k="place" v="isolated_dwelling" />
		<tag k="ssr:stedsnr" v="560844" />
	</node>
	<node lat="64.6932416656925" lon="12.330683338346004" id="-35181">
		<tag k="alt_name" v="Flått" />
		<tag k="name" v="Flott" />
		<tag k="place" v="hamlet" />
		<tag k="ssr:stedsnr" v="560944" />
	</node>
	<node lat="64.56139166291707" lon="12.17420555116004" id="-35183">
		<tag k="name" v="Brekka" />
		<tag k="place" v="farm" />
		<tag k="ssr:stedsnr" v="560956" />
	</node>
	<node lat="64.64875833332538" lon="12.213169452150174" id="-35187">
		<tag k="historic" v="shieling" />
		<tag k="name" v="Børstadsetran" />
		<tag k="place" v="isolated_dwelling" />
		<tag k="ssr:stedsnr" v="574167" />
	</node>
	<node lat="64.64618610839058" lon="12.326038878572705" id="-35193">
		<tag k="name" v="Brennbakken" />
		<tag k="place" v="farm" />
		<tag k="ssr:stedsnr" v="574539" />
	</node>
	<node lat="64.80549999743845" lon="12.367663886386639" id="-35204">
		<tag k="name" v="Bakkan" />
		<tag k="place" v="farm" />
		<tag k="ssr:stedsnr" v="574573" />
	</node>
	<node lat="64.7304361104342" lon="12.321783339955584" id="-35209">
		<tag k="name" v="Framgården" />
		<tag k="place" v="farm" />
		<tag k="ssr:stedsnr" v="574666" />
	</node>
	<node lat="64.5788972181964" lon="12.32581111622799" id="-35219">
		<tag k="historic" v="shieling" />
		<tag k="name" v="Jenssetran" />
		<tag k="place" v="isolated_dwelling" />
		<tag k="ssr:stedsnr" v="575261" />
	</node>
	<node lat="64.57940277559986" lon="12.319113891393256" id="-35220">
		<tag k="historic" v="shieling" />
		<tag k="name" v="Hammersetran" />
		<tag k="place" v="isolated_dwelling" />
		<tag k="ssr:stedsnr" v="575262" />
	</node>
	<node lat="64.75932500078204" lon="12.322880565573525" id="-35229">
		<tag k="alt_name" v="Kvernenget" />
		<tag k="name" v="Østly" />
		<tag k="place" v="farm" />
		<tag k="ssr:stedsnr" v="621222" />
	</node>
	<node lat="64.75315555337103" lon="12.31086388364309" id="-35230">
		<tag k="name" v="Fiskåhaugen" />
		<tag k="place" v="farm" />
		<tag k="ssr:stedsnr" v="621232" />
	</node>
	<node lat="64.55165833795553" lon="12.179355546252193" id="-35233">
		<tag k="name" v="Rønningsodden" />
		<tag k="place" v="farm" />
		<tag k="ssr:stedsnr" v="621948" />
	</node>
	<node lat="64.86706111300484" lon="12.436849992107334" id="-35238">
		<tag k="name" v="Eliasmoen" />
		<tag k="place" v="farm" />
		<tag k="ssr:stedsnr" v="621779" />
	</node>
	<node lat="64.73475277994886" lon="12.245819442640084" id="-35252">
		<tag k="historic" v="shieling" />
		<tag k="name" v="Gammelsetran" />
		<tag k="place" v="isolated_dwelling" />
		<tag k="ssr:stedsnr" v="634123" />
	</node>
	<node lat="64.63200555957397" lon="12.350388881727453" id="-35274">
		<tag k="name" v="Hakleppen" />
		<tag k="place" v="locality" />
		<tag k="ssr:stedsnr" v="635458" />
	</node>
	<node lat="64.88563611329174" lon="12.45960833319726" id="-35279">
		<tag k="name" v="Aunet" />
		<tag k="place" v="hamlet" />
		<tag k="ssr:stedsnr" v="635856" />
	</node>
	<node lat="64.67213888579782" lon="12.186080547932793" id="-35281">
		<tag k="name" v="Mørkvedsetran" />
		<tag k="place" v="isolated_dwelling" />
		<tag k="ssr:stedsnr" v="655917" />
	</node>
	<node lat="64.64320000326607" lon="12.200549998899536" id="-35293">
		<tag k="historic" v="shieling" />
		<tag k="name" v="Tyldsetran" />
		<tag k="place" v="isolated_dwelling" />
		<tag k="ssr:stedsnr" v="742849" />
	</node>
	<node lat="64.62355278051719" lon="12.287105555887102" id="-35296">
		<tag k="name" v="Storenget" />
=======
	<node id="-786069" lat="64.6341914364" lon="12.3260151438">
		<tag k="fixme" v="consider place=hamlet" />
		<tag k="name" v="Kjolgom" />
		<tag k="place" v="farm" />
		<tag k="ssr:stedsnr" v="439604" />
	</node>
	<node id="-786067" lat="64.679427776" lon="12.353591665">
		<tag k="historic" v="shieling" />
		<tag k="name" v="Helbostadsetran" />
		<tag k="place" v="locality" />
		<tag k="ssr:stedsnr" v="439582" />
	</node>
	<node id="-786079" lat="64.8631033972" lon="12.4271264718">
		<tag k="fixme" v="consider place=hamlet" />
		<tag k="name" v="Saur" />
		<tag k="place" v="farm" />
		<tag k="ssr:stedsnr" v="439788" />
	</node>
	<node id="-786096" lat="64.5582777759" lon="12.1813944432">
		<tag k="alt_name" v="Fagerli" />
		<tag k="name" v="Drageidet" />
		<tag k="place" v="farm" />
		<tag k="ssr:stedsnr" v="440947" />
	</node>
	<node id="-786797" lat="64.6046666712" lon="12.2061555462">
		<tag k="historic" v="shieling" />
		<tag k="name" v="Grungstadsetran" />
		<tag k="place" v="locality" />
		<tag k="ssr:stedsnr" v="28271" />
	</node>
	<node id="-787595" lat="64.6396194471" lon="12.3171972243">
		<tag k="name" v="Hjorten" />
		<tag k="place" v="farm" />
		<tag k="ssr:stedsnr" v="864670" />
	</node>
	<node id="-787594" lat="64.649788888" lon="12.3106166574">
		<tag k="alt_name" v="Berg" />
		<tag k="name" v="Almåsberget" />
		<tag k="place" v="farm" />
		<tag k="ssr:stedsnr" v="864666" />
	</node>
	<node id="-786455" lat="64.6390833319" lon="12.1027472189">
		<tag k="historic" v="shieling" />
		<tag k="name" v="Nylendsetran" />
		<tag k="place" v="locality" />
		<tag k="ssr:stedsnr" v="713910" />
	</node>
	<node id="-786567" lat="64.5525527813" lon="12.2361805605">
		<tag k="historic" v="shieling" />
		<tag k="name" v="Viessetran" />
		<tag k="place" v="locality" />
		<tag k="ssr:stedsnr" v="696203" />
	</node>
	<node id="-787589" lat="64.6568749987" lon="12.2442861032">
		<tag k="name" v="Åengan" />
		<tag k="place" v="locality" />
		<tag k="ssr:stedsnr" v="864607" />
	</node>
	<node id="-787478" lat="64.8767305529" lon="12.3943750101">
		<tag k="historic" v="shieling" />
		<tag k="name" v="Gammelsetran" />
		<tag k="place" v="locality" />
		<tag k="ssr:stedsnr" v="756761" />
	</node>
	<node id="-787583" lat="64.7881861122" lon="12.343452786">
		<tag k="alt_name" v="Meidalen, søre" />
		<tag k="name" v="Søre Meidalen" />
		<tag k="place" v="farm" />
		<tag k="ssr:stedsnr" v="864199" />
	</node>
	<node id="-786558" lat="64.5630222224" lon="12.1968805648">
		<tag k="alt_name" v="Hegglia" />
		<tag k="name" v="Heggli" />
		<tag k="place" v="farm" />
		<tag k="ssr:stedsnr" v="682958" />
	</node>
	<node id="-787067" lat="64.7911416694" lon="12.3135111209">
		<tag k="historic" v="shieling" />
		<tag k="name" v="Nordfjellsetran" />
		<tag k="place" v="locality" />
		<tag k="ssr:stedsnr" v="210634" />
	</node>
	<node id="-786038" lat="64.7133944405" lon="12.3214611094">
		<tag k="name" v="Solvang" />
		<tag k="place" v="farm" />
		<tag k="ssr:stedsnr" v="197933" />
	</node>
	<node id="-787103" lat="64.9117514899" lon="12.3835834996">
		<tag k="fixme" v="consider place=hamlet" />
		<tag k="name" v="Bjøråa" />
		<tag k="place" v="farm" />
		<tag k="ssr:stedsnr" v="318826" />
	</node>
	<node id="-787060" lat="64.7517388899" lon="12.3026749896">
		<tag k="historic" v="shieling" />
		<tag k="name" v="Framgårdsetran" />
		<tag k="place" v="locality" />
		<tag k="ssr:stedsnr" v="210449" />
	</node>
	<node id="-787059" lat="64.6153694447" lon="12.2170611009">
		<tag k="historic" v="shieling" />
		<tag k="name" v="Knutnessetran" />
		<tag k="place" v="locality" />
		<tag k="ssr:stedsnr" v="210289" />
	</node>
	<node id="-786545" lat="64.7872694418" lon="12.3288694493">
		<tag k="name" v="Sørhevlan" />
		<tag k="place" v="locality" />
		<tag k="ssr:stedsnr" v="682222" />
	</node>
	<node id="-787056" lat="64.6117083334" lon="12.2724250083">
		<tag k="name" v="Nylenda" />
		<tag k="place" v="farm" />
		<tag k="ssr:stedsnr" v="210277" />
	</node>
	<node id="-786025" lat="64.6536749958" lon="12.0833916695">
		<tag k="historic" v="shieling" />
		<tag k="name" v="Flasnessetran" />
		<tag k="place" v="locality" />
		<tag k="ssr:stedsnr" v="167915" />
	</node>
	<node id="-787559" lat="64.7406861146" lon="12.3874305648">
		<tag k="name" v="Henrikholet" />
		<tag k="place" v="locality" />
		<tag k="ssr:stedsnr" v="817638" />
	</node>
	<node id="-787558" lat="64.7436249977" lon="12.354016657">
		<tag k="name" v="Kvernmoen" />
		<tag k="place" v="farm" />
		<tag k="ssr:stedsnr" v="817636" />
	</node>
	<node id="-787554" lat="64.7292861069" lon="12.317058338">
		<tag k="name" v="Pettermoen" />
		<tag k="place" v="farm" />
		<tag k="ssr:stedsnr" v="817622" />
	</node>
	<node id="-787040" lat="64.5596765621" lon="12.1383138532">
		<tag k="fixme" v="consider place=hamlet" />
		<tag k="name" v="Vika" />
		<tag k="place" v="farm" />
		<tag k="ssr:stedsnr" v="197960" />
	</node>
	<node id="-787039" lat="64.6158499986" lon="12.2861194472">
		<tag k="name" v="Stormoen" />
		<tag k="place" v="farm" />
		<tag k="ssr:stedsnr" v="197577" />
	</node>
	<node id="-787038" lat="64.6137976483" lon="12.3002713601">
		<tag k="fixme" v="consider place=hamlet" />
		<tag k="name" v="Hammer" />
		<tag k="place" v="farm" />
		<tag k="ssr:stedsnr" v="197575" />
	</node>
	<node id="-786447" lat="64.7304361104" lon="12.32178334">
		<tag k="name" v="Framgården" />
>>>>>>> e1d4bc35ff8a6074a6f2e91616a996b547c36f15
		<tag k="place" v="farm" />
		<tag k="ssr:stedsnr" v="574666" />
	</node>
<<<<<<< HEAD
	<node lat="64.63135832935802" lon="12.28600555881931" id="-35297">
		<tag k="name" v="Brattlia" />
=======
	<node id="-787543" lat="64.7761666707" lon="12.3579972195">
		<tag k="historic" v="shieling" />
		<tag k="name" v="Øyasetran" />
		<tag k="place" v="locality" />
		<tag k="ssr:stedsnr" v="817580" />
	</node>
	<node id="-787475" lat="64.7343000023" lon="12.3096694437">
		<tag k="name" v="Pipmyrhaugen" />
>>>>>>> e1d4bc35ff8a6074a6f2e91616a996b547c36f15
		<tag k="place" v="farm" />
		<tag k="ssr:stedsnr" v="756672" />
	</node>
<<<<<<< HEAD
	<node lat="64.71024166831583" lon="12.29016112170762" id="-35301">
		<tag k="historic" v="shieling" />
		<tag k="name" v="Flottsetran" />
		<tag k="place" v="isolated_dwelling" />
		<tag k="ssr:stedsnr" v="743919" />
	</node>
	<node lat="64.73743333648403" lon="12.243980556309456" id="-35302">
		<tag k="historic" v="shieling" />
		<tag k="name" v="Johannesmosetran" />
		<tag k="place" v="isolated_dwelling" />
		<tag k="ssr:stedsnr" v="756127" />
	</node>
	<node lat="64.83251944888961" lon="12.389938880103195" id="-35311">
		<tag k="historic" v="shieling" />
		<tag k="name" v="Eilertsetran" />
		<tag k="place" v="isolated_dwelling" />
		<tag k="ssr:stedsnr" v="756563" />
	</node>
	<node lat="64.81163055717433" lon="12.373152771559525" id="-35314">
		<tag k="name" v="Jensenget" />
		<tag k="place" v="farm" />
		<tag k="ssr:stedsnr" v="756539" />
	</node>
	<node lat="64.73430000227275" lon="12.30966944368955" id="-35322">
		<tag k="name" v="Pipmyrhaugen" />
		<tag k="place" v="farm" />
		<tag k="ssr:stedsnr" v="756672" />
	</node>
	<node lat="64.63689444638256" lon="12.318977779424257" id="-35332">
		<tag k="name" v="Skarland industriområde" />
		<tag k="place" v="quarter" />
		<tag k="ssr:stedsnr" v="767434" />
	</node>
	<node lat="64.67426111229874" lon="12.292047230800083" id="-35338">
		<tag k="name" v="Brennbakksetran" />
		<tag k="place" v="locality" />
		<tag k="ssr:stedsnr" v="803588" />
	</node>
	<node lat="64.85419194019241" lon="12.419811744257425" id="-35345">
		<tag k="fixme" v="consider place=hamlet" />
		<tag k="name" v="Lona" />
		<tag k="place" v="farm" />
		<tag k="ssr:stedsnr" v="803786" />
	</node>
	<node lat="64.62967778012914" lon="12.080811116220206" id="-35351">
		<tag k="historic" v="shieling" />
		<tag k="name" v="Roessetran" />
		<tag k="place" v="isolated_dwelling" />
		<tag k="ssr:stedsnr" v="803868" />
	</node>
	<node lat="64.75758333733665" lon="12.32766943985053" id="-35355">
		<tag k="name" v="Moan" />
		<tag k="place" v="farm" />
		<tag k="ssr:stedsnr" v="804256" />
	</node>
	<node lat="64.78978333421846" lon="12.346030552114462" id="-35358">
		<tag k="alt_name" v="Meidalen, nordre" />
		<tag k="name" v="Nordre Meidalen" />
		<tag k="place" v="farm" />
		<tag k="ssr:stedsnr" v="804236" />
	</node>
	<node lat="64.62785833266113" lon="12.394399993640048" id="-35359">
		<tag k="name" v="Skarlandssetran" />
		<tag k="place" v="locality" />
		<tag k="ssr:stedsnr" v="804540" />
	</node>
	<node lat="64.61153611389524" lon="12.29286389275541" id="-35362">
		<tag k="name" v="Sveddet" />
		<tag k="place" v="farm" />
		<tag k="ssr:stedsnr" v="804554" />
	</node>
	<node lat="64.61245000093399" lon="12.276902786137507" id="-35363">
		<tag k="fixme" v="consider place=hamlet" />
		<tag k="name" v="Litl-Tyldom" />
		<tag k="place" v="farm" />
		<tag k="ssr:stedsnr" v="804555" />
	</node>
	<node lat="64.65379166573263" lon="12.329177768398074" id="-35377">
		<tag k="name" v="Stemnet" />
		<tag k="place" v="farm" />
		<tag k="ssr:stedsnr" v="817481" />
	</node>
	<node lat="64.73585833294871" lon="12.249936101369038" id="-35380">
		<tag k="historic" v="shieling" />
		<tag k="name" v="Iversetran" />
		<tag k="place" v="isolated_dwelling" />
		<tag k="ssr:stedsnr" v="817146" />
	</node>
	<node lat="64.68406111127375" lon="12.361244442218563" id="-35385">
		<tag k="name" v="Kjerringneset" />
		<tag k="place" v="locality" />
		<tag k="ssr:stedsnr" v="817439" />
	</node>
	<node lat="64.74362499769842" lon="12.354016656993368" id="-35394">
		<tag k="name" v="Kvernmoen" />
		<tag k="place" v="farm" />
		<tag k="ssr:stedsnr" v="817636" />
	</node>
	<node lat="64.7406861146077" lon="12.38743056483311" id="-35395">
		<tag k="name" v="Henrikholet" />
		<tag k="place" v="locality" />
		<tag k="ssr:stedsnr" v="817638" />
	</node>
	<node lat="64.73398889102597" lon="12.249624991188869" id="-35425">
		<tag k="name" v="Hognessetran" />
		<tag k="place" v="isolated_dwelling" />
		<tag k="ssr:stedsnr" v="864908" />
	</node>
	<node lat="64.64978888800785" lon="12.310616657442154" id="-35429">
		<tag k="alt_name" v="Berg" />
		<tag k="name" v="Almåsberget" />
		<tag k="place" v="farm" />
		<tag k="ssr:stedsnr" v="864666" />
	</node>
	<node lat="64.63961944713894" lon="12.317197224308169" id="-35430">
		<tag k="name" v="Hjorten" />
		<tag k="place" v="farm" />
		<tag k="ssr:stedsnr" v="864670" />
	</node>
	<node lat="64.65687499865727" lon="12.244286103184256" id="-35431">
		<tag k="name" v="Åengan" />
		<tag k="place" v="locality" />
		<tag k="ssr:stedsnr" v="864607" />
	</node>
	<node lat="64.68524999909478" lon="12.348980553787197" id="-35446">
		<tag k="name" v="Lauvåsen" />
		<tag k="place" v="farm" />
		<tag k="ssr:stedsnr" v="864931" />
	</node>
	<node lat="64.61511241928532" lon="12.267421864560168" id="-35447">
		<tag k="fixme" v="consider place=hamlet" />
		<tag k="name" v="Haugen" />
		<tag k="place" v="farm" />
		<tag k="ssr:stedsnr" v="865543" />
	</node>
	<node lat="64.56018055869825" lon="12.14407222286194" id="-35450">
		<tag k="alt_name" v="Viken østre" />
		<tag k="fixme" v="multiple name tags, choose one and add the other to alt_name" />
		<tag k="name" v="Østre Viken;Østre Vika" />
		<tag k="place" v="farm" />
		<tag k="ssr:stedsnr" v="878069" />
	</node>
	<node lat="64.63564999950592" lon="12.216624999535167" id="-35464">
		<tag k="historic" v="shieling" />
		<tag k="name" v="Grungstadsetran" />
		<tag k="place" v="isolated_dwelling" />
		<tag k="ssr:stedsnr" v="878179" />
	</node>
	<node lat="64.62209167036538" lon="12.294452788264032" id="-35499">
		<tag k="name" v="Stokkneset" />
		<tag k="place" v="farm" />
		<tag k="ssr:stedsnr" v="939476" />
	</node>
	<node lat="64.8593472252904" lon="12.429136103666623" id="-35512">
		<tag k="name" v="Midtiåneset" />
		<tag k="place" v="farm" />
		<tag k="ssr:stedsnr" v="939795" />
	</node>
	<node lat="64.8601444462525" lon="12.42221666014661" id="-35514">
		<tag k="name" v="Kalmoen" />
		<tag k="place" v="farm" />
		<tag k="ssr:stedsnr" v="939798" />
	</node>
	<node lat="64.60418332963404" lon="12.232705554704529" id="-35521">
		<tag k="name" v="Nyenget" />
		<tag k="place" v="farm" />
		<tag k="ssr:stedsnr" v="943540" />
	</node>
	<node lat="64.62455833500705" lon="12.18473611461672" id="-35524">
		<tag k="historic" v="shieling" />
		<tag k="name" v="Vollasetran" />
		<tag k="place" v="isolated_dwelling" />
		<tag k="ssr:stedsnr" v="955433" />
	</node>
	<node lat="64.61221757645599" lon="12.270581906386669" id="-35527">
		<tag k="fixme" v="consider place=hamlet" />
		<tag k="name" v="Mensheimen" />
		<tag k="place" v="farm" />
		<tag k="ssr:stedsnr" v="971484" />
	</node>
	<node lat="64.60530141986305" lon="12.244665378866804" id="-35528">
		<tag k="name" v="Lillerønningen" />
		<tag k="place" v="farm" />
		<tag k="ssr:stedsnr" v="971289" />
=======
	<node id="-787539" lat="64.6840611113" lon="12.3612444422">
		<tag k="name" v="Kjerringneset" />
		<tag k="place" v="locality" />
		<tag k="ssr:stedsnr" v="817439" />
	</node>
	<node id="-787536" lat="64.6537916657" lon="12.3291777684">
		<tag k="name" v="Stemnet" />
		<tag k="place" v="farm" />
		<tag k="ssr:stedsnr" v="817481" />
	</node>
	<node id="-787016" lat="64.6287833352" lon="12.3004611191">
		<tag k="name" v="Ålbruenget boligfelt" />
		<tag k="place" v="quarter" />
		<tag k="ssr:stedsnr" v="176384" />
	</node>
	<node id="-787526" lat="64.7358583329" lon="12.2499361014">
		<tag k="historic" v="shieling" />
		<tag k="name" v="Iversetran" />
		<tag k="place" v="locality" />
		<tag k="ssr:stedsnr" v="817146" />
	</node>
	<node id="-787338" lat="64.7531555534" lon="12.3108638836">
		<tag k="name" v="Fiskåhaugen" />
		<tag k="place" v="farm" />
		<tag k="ssr:stedsnr" v="621232" />
	</node>
	<node id="-785984" lat="64.8238305577" lon="12.4037499973">
		<tag k="name" v="Neppen" />
		<tag k="place" v="locality" />
		<tag k="ssr:stedsnr" v="271598" />
	</node>
	<node id="-787296" lat="64.8054999974" lon="12.3676638864">
		<tag k="name" v="Bakkan" />
		<tag k="place" v="farm" />
		<tag k="ssr:stedsnr" v="574573" />
	</node>
	<node id="-786494" lat="64.6356499995" lon="12.2166249995">
		<tag k="historic" v="shieling" />
		<tag k="name" v="Grungstadsetran" />
		<tag k="place" v="locality" />
		<tag k="ssr:stedsnr" v="878179" />
	</node>
	<node id="-787517" lat="64.7326027762" lon="12.3111055546">
		<tag k="name" v="Hognes" />
		<tag k="place" v="hamlet" />
		<tag k="ssr:stedsnr" v="804905" />
	</node>
	<node id="-787513" lat="64.6278583327" lon="12.3943999936">
		<tag k="name" v="Skarlandssetran" />
		<tag k="place" v="locality" />
		<tag k="ssr:stedsnr" v="804540" />
	</node>
	<node id="-787512" lat="64.7575833373" lon="12.3276694399">
		<tag k="name" v="Moan" />
		<tag k="place" v="farm" />
		<tag k="ssr:stedsnr" v="804256" />
	</node>
	<node id="-785975" lat="64.6671027802" lon="12.3286583302">
		<tag k="name" v="Øvereng" />
		<tag k="place" v="farm" />
		<tag k="ssr:stedsnr" v="271539" />
	</node>
	<node id="-787510" lat="64.5824722208" lon="12.2758250055">
		<tag k="historic" v="shieling" />
		<tag k="name" v="Mørkvedsetran" />
		<tag k="place" v="locality" />
		<tag k="ssr:stedsnr" v="803724" />
	</node>
	<node id="-787507" lat="64.6296777801" lon="12.0808111162">
		<tag k="historic" v="shieling" />
		<tag k="name" v="Roessetran" />
		<tag k="place" v="locality" />
		<tag k="ssr:stedsnr" v="803868" />
	</node>
	<node id="-786482" lat="64.8856361133" lon="12.4596083332">
		<tag k="name" v="Aunet" />
		<tag k="place" v="hamlet" />
		<tag k="ssr:stedsnr" v="635856" />
	</node>
	<node id="-787406" lat="64.7337555583" lon="12.2497166575">
		<tag k="historic" v="shieling" />
		<tag k="name" v="Olesetran" />
		<tag k="place" v="locality" />
		<tag k="ssr:stedsnr" v="651447" />
	</node>
	<node id="-786479" lat="64.6320055596" lon="12.3503888817">
		<tag k="name" v="Hakleppen" />
		<tag k="place" v="locality" />
		<tag k="ssr:stedsnr" v="635458" />
	</node>
	<node id="-787502" lat="64.8541919402" lon="12.4198117443">
		<tag k="fixme" v="consider place=hamlet" />
		<tag k="name" v="Lona" />
		<tag k="place" v="farm" />
		<tag k="ssr:stedsnr" v="803786" />
	</node>
	<node id="-786610" lat="64.5731088417" lon="12.2572960374">
		<tag k="fixme" v="consider place=hamlet" />
		<tag k="name" v="Åvassmarka" />
		<tag k="place" v="farm" />
		<tag k="ssr:stedsnr" v="925585" />
	</node>
	<node id="-786985" lat="64.7572972191" lon="12.2933666583">
		<tag k="historic" v="shieling" />
		<tag k="name" v="Pe-setran" />
		<tag k="place" v="locality" />
		<tag k="ssr:stedsnr" v="149442" />
	</node>
	<node id="-785959" lat="64.6427105862" lon="12.3143158636">
		<tag k="fixme" v="consider place=hamlet" />
		<tag k="name" v="Romstad" />
		<tag k="place" v="farm" />
		<tag k="ssr:stedsnr" v="136637" />
	</node>
	<node id="-785958" lat="64.6410805609" lon="12.3277374214">
		<tag k="fixme" v="consider place=hamlet" />
		<tag k="name" v="Skarland" />
		<tag k="place" v="farm" />
		<tag k="ssr:stedsnr" v="136636" />
	</node>
	<node id="-785939" lat="64.591558331" lon="12.2082250099">
		<tag k="name" v="Fallbukta" />
		<tag k="place" v="farm" />
		<tag k="ssr:stedsnr" v="257837" />
	</node>
	<node id="-785956" lat="64.577802774" lon="12.2927444483">
		<tag k="name" v="Gammelsetran" />
		<tag k="place" v="isolated_dwelling" />
		<tag k="ssr:stedsnr" v="136736" />
	</node>
	<node id="-785955" lat="64.7883250024" lon="12.3440138942">
		<tag k="name" v="Meimoen" />
		<tag k="place" v="isolated_dwelling" />
		<tag k="ssr:stedsnr" v="136230" />
	</node>
	<node id="-786977" lat="64.5867972237" lon="12.1505555625">
		<tag k="name" v="Eidsdalen" />
		<tag k="place" v="farm" />
		<tag k="ssr:stedsnr" v="149034" />
	</node>
	<node id="-786976" lat="64.5493867266" lon="12.1776995326">
		<tag k="name" v="Sagmoen" />
		<tag k="place" v="farm" />
		<tag k="ssr:stedsnr" v="136941" />
	</node>
	<node id="-786975" lat="64.54947778" lon="12.170305549">
		<tag k="name" v="Skilleberget" />
		<tag k="place" v="isolated_dwelling" />
		<tag k="ssr:stedsnr" v="136940" />
	</node>
	<node id="-786974" lat="64.6947222205" lon="12.2840361146">
		<tag k="name" v="Romstadsetran" />
		<tag k="place" v="isolated_dwelling" />
		<tag k="ssr:stedsnr" v="136934" />
	</node>
	<node id="-786967" lat="64.6182877672" lon="12.2887282232">
		<tag k="fixme" v="consider place=hamlet" />
		<tag k="name" v="Stor-Tyldom" />
		<tag k="place" v="farm" />
		<tag k="ssr:stedsnr" v="136543" />
	</node>
	<node id="-785942" lat="64.663088889" lon="12.1606750037">
		<tag k="name" v="Eidsånesa" />
		<tag k="place" v="isolated_dwelling" />
		<tag k="ssr:stedsnr" v="257866" />
	</node>
	<node id="-786965" lat="64.6026083296" lon="12.2319583225">
		<tag k="name" v="Grungstadneset" />
		<tag k="place" v="farm" />
		<tag k="ssr:stedsnr" v="136530" />
	</node>
	<node id="-786451" lat="64.5794027756" lon="12.3191138914">
		<tag k="historic" v="shieling" />
		<tag k="name" v="Hammersetran" />
		<tag k="place" v="locality" />
		<tag k="ssr:stedsnr" v="575262" />
	</node>
	<node id="-786450" lat="64.5788972182" lon="12.3258111162">
		<tag k="historic" v="shieling" />
		<tag k="name" v="Jenssetran" />
		<tag k="place" v="locality" />
		<tag k="ssr:stedsnr" v="575261" />
	</node>
	<node id="-785936" lat="64.84918889" lon="12.411558337">
		<tag k="name" v="Nyrud" />
		<tag k="place" v="farm" />
		<tag k="ssr:stedsnr" v="257832" />
	</node>
	<node id="-785935" lat="64.6316981224" lon="12.2936493047">
		<tag k="fixme" v="consider place=hamlet" />
		<tag k="name" v="Børstad" />
		<tag k="place" v="farm" />
		<tag k="ssr:stedsnr" v="257651" />
	</node>
	<node id="-785932" lat="64.7614785647" lon="12.3306457971">
		<tag k="fixme" v="consider place=hamlet" />
		<tag k="name" v="Bjørlia" />
		<tag k="place" v="farm" />
		<tag k="ssr:stedsnr" v="257249" />
	</node>
	<node id="-785931" lat="64.7556166671" lon="12.3163444466">
		<tag k="name" v="Heimen" />
		<tag k="place" v="farm" />
		<tag k="ssr:stedsnr" v="257243" />
	</node>
	<node id="-786442" lat="64.5613916629" lon="12.1742055512">
		<tag k="name" v="Brekka" />
		<tag k="place" v="farm" />
		<tag k="ssr:stedsnr" v="560956" />
	</node>
	<node id="-786441" lat="64.8906092922" lon="12.46473985">
		<tag k="fixme" v="consider place=hamlet" />
		<tag k="name" v="Aunet" />
		<tag k="place" v="farm" />
		<tag k="ssr:stedsnr" v="560762" />
	</node>
	<node id="-786952" lat="64.5714555529" lon="12.2541722133">
		<tag k="name" v="Moen" />
		<tag k="place" v="farm" />
		<tag k="ssr:stedsnr" v="135695" />
	</node>
	<node id="-787372" lat="64.7347527799" lon="12.2458194426">
		<tag k="historic" v="shieling" />
		<tag k="name" v="Gammelsetran" />
		<tag k="place" v="locality" />
		<tag k="ssr:stedsnr" v="634123" />
	</node>
	<node id="-787462" lat="64.8325194489" lon="12.3899388801">
		<tag k="historic" v="shieling" />
		<tag k="name" v="Eilertsetran" />
		<tag k="place" v="locality" />
		<tag k="ssr:stedsnr" v="756563" />
	</node>
	<node id="-785924" lat="64.609552778" lon="12.2873166758">
		<tag k="alt_name" v="Hopengmoen" />
		<tag k="name" v="Moan" />
		<tag k="place" v="farm" />
		<tag k="ssr:stedsnr" v="76523" />
	</node>
	<node id="-785923" lat="64.6053722214" lon="12.2472250006">
		<tag k="fixme" v="consider place=hamlet" />
		<tag k="name" v="Grungstad" />
		<tag k="place" v="village" />
		<tag k="ssr:stedsnr" v="76516" />
	</node>
	<node id="-787458" lat="64.8116305572" lon="12.3731527716">
		<tag k="name" v="Jensenget" />
		<tag k="place" v="farm" />
		<tag k="ssr:stedsnr" v="756539" />
	</node>
	<node id="-786945" lat="64.8925749972" lon="12.4233499905">
		<tag k="name" v="Kongsmoen industriområde" />
		<tag k="place" v="quarter" />
		<tag k="ssr:stedsnr" v="119394" />
>>>>>>> e1d4bc35ff8a6074a6f2e91616a996b547c36f15
	</node>
</osm>
