<?xml version="1.0" encoding="UTF-8"?>
<osm version="0.6" generator="osmapis">
	<node lat="64.92703333405774" lon="12.33816667652278" id="-87903">
		<tag k="name" v="Groftneset" />
		<tag k="natural" v="cape" />
		<tag k="ssr:stedsnr" v="136804" />
	</node>
	<node lat="64.90786388518684" lon="12.421636107658241" id="-88167">
		<tag k="name" v="Takvika" />
		<tag k="natural" v="bay" />
		<tag k="ssr:stedsnr" v="500847" />
	</node>
	<node lat="64.9075527736851" lon="12.394588889615104" id="-88529">
		<tag k="name" v="Staurvika" />
		<tag k="natural" v="bay" />
		<tag k="ssr:stedsnr" v="938743" />
	</node>
	<node lat="64.8888583298636" lon="12.449925001500361" id="-88655">
		<tag k="name" v="Skålhammaren" />
		<tag k="natural" v="cape" />
		<tag k="ssr:stedsnr" v="29862" />
	</node>
	<node lat="64.89045555680511" lon="12.4531722303922" id="-88926">
		<tag k="name" v="Nauststranda" />
		<tag k="natural" v="beach" />
		<tag k="ssr:stedsnr" v="272855" />
	</node>
	<node lat="64.92179721847317" lon="12.363066666574456" id="-88932">
		<tag k="name" v="Saltbuodden" />
		<tag k="natural" v="cape" />
		<tag k="ssr:stedsnr" v="278367" />
	</node>
	<node lat="64.88933055249815" lon="12.455972229909452" id="-89322">
		<tag k="name" v="Aunbukta" />
		<tag k="natural" v="cape" />
		<tag k="ssr:stedsnr" v="696884" />
	</node>
	<node lat="64.92475833708852" lon="12.344047224484079" id="-89566">
		<tag k="name" v="Høydalsbukt" />
		<tag k="natural" v="bay" />
		<tag k="ssr:stedsnr" v="946295" />
	</node>
</osm>
