<?xml version="1.0" encoding="UTF-8"?>
<osm version="0.6" generator="osmapis">
	<node lat="64.85148888999116" lon="12.43233888453879" id="-35309">
		<tag k="name" v="Haugan" />
		<tag k="natural" v="hill" />
		<tag k="place" v="locality" />
		<tag k="ssr:stedsnr" v="272760" />
	</node>
	<node lat="64.63835000301015" lon="12.070227786460073" id="-35310">
		<tag k="name" v="Jørnhaugan" />
		<tag k="natural" v="hill" />
		<tag k="place" v="locality" />
		<tag k="ssr:stedsnr" v="230501" />
	</node>
	<node lat="64.59930278081364" lon="12.394161118676898" id="-35311">
		<tag k="fixme" v="consider natural=peak for the most distinct mountains in the district" />
		<tag k="name" v="Fossengåsen" />
		<tag k="natural" v="hill" />
		<tag k="place" v="locality" />
		<tag k="ssr:stedsnr" v="14503" />
	</node>
	<node lat="64.87931666977146" lon="12.453808331851718" id="-35312">
		<tag k="name" v="Stupulen" />
		<tag k="natural" v="hill" />
		<tag k="place" v="locality" />
		<tag k="ssr:stedsnr" v="14710" />
	</node>
	<node lat="64.90915555326747" lon="12.601741666601942" id="-35316">
		<tag k="fixme" v="consider natural=peak for the most distinct mountains in the district" />
		<tag k="name" v="Luren" />
		<tag k="natural" v="hill" />
		<tag k="place" v="locality" />
		<tag k="ssr:stedsnr" v="14773" />
	</node>
	<node lat="64.90054166760159" lon="12.4533000027559" id="-35320">
		<tag k="fixme" v="consider natural=peak for the most distinct mountains in the district" />
		<tag k="name" v="Kubåsfjellet" />
		<tag k="natural" v="hill" />
		<tag k="place" v="locality" />
		<tag k="ssr:stedsnr" v="15819" />
	</node>
	<node lat="64.71590277951552" lon="12.410688892382204" id="-35322">
		<tag k="name" v="Grønliholet" />
		<tag k="natural" v="valley" />
		<tag k="place" v="locality" />
		<tag k="ssr:stedsnr" v="15915" />
	</node>
	<node lat="64.86862499724339" lon="12.409602777831687" id="-35324">
		<tag k="name" v="Småhevlan" />
		<tag k="natural" v="ridge" />
		<tag k="place" v="locality" />
		<tag k="ssr:stedsnr" v="272816" />
	</node>
	<node lat="64.83323611062887" lon="12.409277786713153" id="-35325">
		<tag k="name" v="Midterenget" />
		<tag k="place" v="locality" />
		<tag k="ssr:stedsnr" v="272818" />
	</node>
	<node lat="64.54860833562027" lon="12.239222228733473" id="-35328">
		<tag k="name" v="Viesdalen" />
		<tag k="natural" v="valley" />
		<tag k="place" v="locality" />
		<tag k="ssr:stedsnr" v="28218" />
	</node>
	<node lat="64.71183888746134" lon="12.375044444636535" id="-35331">
		<tag k="fixme" v="consider natural=peak for the most distinct mountains in the district" />
		<tag k="name" v="Seteråsen" />
		<tag k="natural" v="hill" />
		<tag k="place" v="locality" />
		<tag k="ssr:stedsnr" v="28414" />
	</node>
	<node lat="64.65508611300493" lon="12.34891389839667" id="-35333">
		<tag k="name" v="Kvernhusmoen" />
		<tag k="place" v="locality" />
		<tag k="ssr:stedsnr" v="28502" />
	</node>
	<node lat="64.63458610749605" lon="12.286686101741573" id="-35334">
		<tag k="name" v="Børstadhaugen" />
		<tag k="natural" v="hill" />
		<tag k="place" v="locality" />
		<tag k="ssr:stedsnr" v="28507" />
	</node>
	<node lat="64.83847222346957" lon="12.407077775588258" id="-35338">
		<tag k="fixme" v="consider natural=peak for the most distinct mountains in the district" />
		<tag k="name" v="Takåsen" />
		<tag k="natural" v="hill" />
		<tag k="place" v="locality" />
		<tag k="ssr:stedsnr" v="28579" />
	</node>
	<node lat="64.84177500095701" lon="12.39597499893479" id="-35339">
		<tag k="fixme" v="consider natural=peak for the most distinct mountains in the district" />
		<tag k="name" v="Seteråsen" />
		<tag k="natural" v="hill" />
		<tag k="place" v="locality" />
		<tag k="ssr:stedsnr" v="28580" />
	</node>
	<node lat="64.774241667698" lon="12.330119445845861" id="-35341">
		<tag k="fixme" v="consider natural=peak for the most distinct mountains in the district" />
		<tag k="name" v="Bjørliåsen" />
		<tag k="natural" v="hill" />
		<tag k="place" v="locality" />
		<tag k="ssr:stedsnr" v="28619" />
	</node>
	<node lat="64.87255555766167" lon="12.476724997430356" id="-35348">
		<tag k="name" v="Vekthaugen" />
		<tag k="natural" v="hill" />
		<tag k="place" v="locality" />
		<tag k="ssr:stedsnr" v="29813" />
	</node>
	<node lat="64.59996944648333" lon="12.152333324599578" id="-35349">
		<tag k="name" v="Grøssjødalen" />
		<tag k="natural" v="valley" />
		<tag k="place" v="locality" />
		<tag k="ssr:stedsnr" v="45433" />
	</node>
	<node lat="64.70865277941391" lon="12.189424996752162" id="-35351">
		<tag k="name" v="Litlfjellet" />
		<tag k="natural" v="hill" />
		<tag k="place" v="locality" />
		<tag k="ssr:stedsnr" v="48908" />
	</node>
	<node lat="64.79037221873473" lon="12.345452781167156" id="-35355">
		<tag k="name" v="Meidalen" />
		<tag k="natural" v="valley" />
		<tag k="place" v="locality" />
		<tag k="ssr:stedsnr" v="56273" />
	</node>
	<node lat="64.8018055513278" lon="12.3100111083377" id="-35356">
		<tag k="fixme" v="consider natural=peak for the most distinct mountains in the district" />
		<tag k="name" v="Skavlen" />
		<tag k="natural" v="hill" />
		<tag k="place" v="locality" />
		<tag k="ssr:stedsnr" v="75216" />
	</node>
	<node lat="64.67132499710549" lon="12.397825009839506" id="-35357">
		<tag k="name" v="Grova" />
		<tag k="natural" v="valley" />
		<tag k="place" v="locality" />
		<tag k="ssr:stedsnr" v="75601" />
	</node>
	<node lat="64.8973999986182" lon="12.452744452770931" id="-35360">
		<tag k="alt_name" v="Aunfjellet;Aunfjellet, fremre" />
		<tag k="fixme" v="consider natural=peak for the most distinct mountains in the district" />
		<tag k="name" v="Fremre Aunfjellet" />
		<tag k="natural" v="hill" />
		<tag k="place" v="locality" />
		<tag k="ssr:stedsnr" v="75813" />
	</node>
	<node lat="64.73696388734096" lon="12.393202782987489" id="-35361">
		<tag k="fixme" v="consider natural=peak for the most distinct mountains in the district" />
		<tag k="name" v="Litlfjellåsen" />
		<tag k="natural" v="hill" />
		<tag k="place" v="locality" />
		<tag k="ssr:stedsnr" v="75913" />
	</node>
	<node lat="64.73571388928396" lon="12.28180556072881" id="-35363">
		<tag k="name" v="Litlåhevlan" />
		<tag k="natural" v="hill" />
		<tag k="place" v="locality" />
		<tag k="ssr:stedsnr" v="75922" />
	</node>
	<node lat="64.67907500138014" lon="12.091924998939874" id="-35368">
		<tag k="fixme" v="consider natural=peak for the most distinct mountains in the district" />
		<tag k="name" v="Storfjellet" />
		<tag k="natural" v="hill" />
		<tag k="place" v="locality" />
		<tag k="ssr:stedsnr" v="76803" />
	</node>
	<node lat="64.73689444177192" lon="12.263250003927064" id="-35370">
		<tag k="name" v="Svortdalen" />
		<tag k="natural" v="valley" />
		<tag k="place" v="locality" />
		<tag k="ssr:stedsnr" v="89155" />
	</node>
	<node lat="64.58751666810602" lon="12.31523332376573" id="-35371">
		<tag k="name" v="Karibekkdalen" />
		<tag k="natural" v="valley" />
		<tag k="place" v="locality" />
		<tag k="ssr:stedsnr" v="89304" />
	</node>
	<node lat="64.64460555627252" lon="12.24123332603767" id="-35372">
		<tag k="fixme" v="consider natural=peak for the most distinct mountains in the district" />
		<tag k="name" v="Litlgrønningsåsen" />
		<tag k="natural" v="hill" />
		<tag k="place" v="locality" />
		<tag k="ssr:stedsnr" v="89171" />
	</node>
	<node lat="64.58881666809796" lon="12.309616671255823" id="-35374">
		<tag k="name" v="Hjarthaugen" />
		<tag k="natural" v="hill" />
		<tag k="place" v="locality" />
		<tag k="ssr:stedsnr" v="89503" />
	</node>
	<node lat="64.65649166516909" lon="12.308244437189849" id="-35375">
		<tag k="name" v="Lauvåsberget" />
		<tag k="natural" v="hill" />
		<tag k="place" v="locality" />
		<tag k="ssr:stedsnr" v="89506" />
	</node>
	<node lat="64.6749194460053" lon="12.337049994220152" id="-35376">
		<tag k="name" v="Mjøsundberget" />
		<tag k="natural" v="hill" />
		<tag k="place" v="locality" />
		<tag k="ssr:stedsnr" v="89507" />
	</node>
	<node lat="64.59807777577775" lon="12.371877777092617" id="-35378">
		<tag k="name" v="Småklumpan" />
		<tag k="natural" v="hill" />
		<tag k="place" v="locality" />
		<tag k="ssr:stedsnr" v="89512" />
	</node>
	<node lat="64.89465833401867" lon="12.393991660175725" id="-35379">
		<tag k="name" v="Tjeradalen" />
		<tag k="natural" v="valley" />
		<tag k="place" v="locality" />
		<tag k="ssr:stedsnr" v="89724" />
	</node>
	<node lat="64.76531944363344" lon="12.318813887623245" id="-35380">
		<tag k="fixme" v="consider natural=peak for the most distinct mountains in the district" />
		<tag k="name" v="Litllodoåsen" />
		<tag k="natural" v="hill" />
		<tag k="place" v="locality" />
		<tag k="ssr:stedsnr" v="89605" />
	</node>
	<node lat="64.7274361110884" lon="12.366791676482649" id="-35382">
		<tag k="name" v="Slåttådalen" />
		<tag k="natural" v="valley" />
		<tag k="place" v="locality" />
		<tag k="ssr:stedsnr" v="89629" />
	</node>
	<node lat="64.76006666443753" lon="12.259361105195817" id="-35385">
		<tag k="fixme" v="consider natural=peak for the most distinct mountains in the district" />
		<tag k="name" v="Grønnkleppen" />
		<tag k="natural" v="hill" />
		<tag k="place" v="locality" />
		<tag k="ssr:stedsnr" v="90130" />
	</node>
	<node lat="64.72058888859465" lon="12.182547218515598" id="-35386">
		<tag k="fixme" v="consider natural=peak for the most distinct mountains in the district" />
		<tag k="name" v="Skrøyvdalshevlan" />
		<tag k="natural" v="hill" />
		<tag k="place" v="locality" />
		<tag k="ssr:stedsnr" v="90112" />
	</node>
	<node lat="64.86512500339877" lon="12.421138886570963" id="-35390">
		<tag k="name" v="Stokkhaugdalen" />
		<tag k="natural" v="valley" />
		<tag k="place" v="locality" />
		<tag k="ssr:stedsnr" v="90817" />
	</node>
	<node lat="64.86395833655308" lon="12.40754999258587" id="-35391">
		<tag k="name" v="Øykjelenget" />
		<tag k="place" v="locality" />
		<tag k="ssr:stedsnr" v="90825" />
	</node>
	<node lat="64.8570833307132" lon="12.44206388359885" id="-35392">
		<tag k="name" v="Århaugen" />
		<tag k="natural" v="hill" />
		<tag k="place" v="locality" />
		<tag k="ssr:stedsnr" v="90772" />
	</node>
	<node lat="64.86289444204442" lon="12.448855545721887" id="-35393">
		<tag k="name" v="Tausvollan" />
		<tag k="place" v="locality" />
		<tag k="ssr:stedsnr" v="90778" />
	</node>
	<node lat="64.86003611524517" lon="12.44406667685602" id="-35394">
		<tag k="name" v="Durmordalen" />
		<tag k="natural" v="valley" />
		<tag k="place" v="locality" />
		<tag k="ssr:stedsnr" v="90781" />
	</node>
	<node lat="64.81005833313652" lon="12.334136102590886" id="-35395">
		<tag k="name" v="Lia" />
		<tag k="natural" v="slope" />
		<tag k="place" v="locality" />
		<tag k="ssr:stedsnr" v="109510" />
	</node>
	<node lat="64.652383334327" lon="12.46920555565322" id="-35400">
		<tag k="name" v="Urddalen" />
		<tag k="natural" v="valley" />
		<tag k="place" v="locality" />
		<tag k="ssr:stedsnr" v="135602" />
	</node>
	<node lat="64.60262500338501" lon="12.136019454699781" id="-35404">
		<tag k="fixme" v="consider natural=peak for the most distinct mountains in the district" />
		<tag k="name" v="Jersangåsen" />
		<tag k="natural" v="hill" />
		<tag k="place" v="locality" />
		<tag k="ssr:stedsnr" v="149113" />
	</node>
	<node lat="64.5771416701352" lon="12.1245333424021" id="-35407">
		<tag k="fixme" v="consider natural=peak for the most distinct mountains in the district" />
		<tag k="name" v="Tjønnengåsen" />
		<tag k="natural" v="hill" />
		<tag k="place" v="locality" />
		<tag k="ssr:stedsnr" v="149072" />
	</node>
	<node lat="64.64981666614437" lon="12.352705550085373" id="-35408">
		<tag k="fixme" v="consider natural=peak for the most distinct mountains in the district" />
		<tag k="name" v="Lauvåsen" />
		<tag k="natural" v="hill" />
		<tag k="place" v="locality" />
		<tag k="ssr:stedsnr" v="149502" />
	</node>
	<node lat="64.82266666374522" lon="12.385988893567003" id="-35410">
		<tag k="name" v="Hundholman" />
		<tag k="place" v="locality" />
		<tag k="ssr:stedsnr" v="149540" />
	</node>
	<node lat="64.70171388903415" lon="12.373705554070309" id="-35411">
		<tag k="name" v="Spikvedmyrberget" />
		<tag k="natural" v="hill" />
		<tag k="place" v="locality" />
		<tag k="ssr:stedsnr" v="149412" />
	</node>
	<node lat="64.6980499981851" lon="12.354197227866953" id="-35412">
		<tag k="name" v="Tømmermoen" />
		<tag k="place" v="locality" />
		<tag k="ssr:stedsnr" v="149413" />
	</node>
	<node lat="64.7013694401115" lon="12.349836110248496" id="-35413">
		<tag k="name" v="Litlkløyva" />
		<tag k="natural" v="valley" />
		<tag k="place" v="locality" />
		<tag k="ssr:stedsnr" v="149414" />
	</node>
	<node lat="64.67549722087374" lon="12.309572228526267" id="-35414">
		<tag k="fixme" v="consider natural=peak for the most distinct mountains in the district" />
		<tag k="name" v="Hevelengåsen" />
		<tag k="natural" v="hill" />
		<tag k="place" v="locality" />
		<tag k="ssr:stedsnr" v="149430" />
	</node>
	<node lat="64.75342221987275" lon="12.393319448647368" id="-35415">
		<tag k="name" v="Skardet" />
		<tag k="natural" v="valley" />
		<tag k="place" v="locality" />
		<tag k="ssr:stedsnr" v="149456" />
	</node>
	<node lat="64.75158055160213" lon="12.377244450594791" id="-35416">
		<tag k="fixme" v="consider natural=peak for the most distinct mountains in the district" />
		<tag k="name" v="Kløyvåsen" />
		<tag k="natural" v="hill" />
		<tag k="place" v="locality" />
		<tag k="ssr:stedsnr" v="149461" />
	</node>
	<node lat="64.60761944549544" lon="12.358900005153265" id="-35417">
		<tag k="name" v="Hessinghaugan" />
		<tag k="natural" v="hill" />
		<tag k="place" v="locality" />
		<tag k="ssr:stedsnr" v="149468" />
	</node>
	<node lat="64.77915555904242" lon="12.33565554616823" id="-35418">
		<tag k="fixme" v="consider natural=peak for the most distinct mountains in the district" />
		<tag k="name" v="Høgåsen" />
		<tag k="natural" v="hill" />
		<tag k="place" v="locality" />
		<tag k="ssr:stedsnr" v="149602" />
	</node>
	<node lat="64.87678610762164" lon="12.402749997754897" id="-35420">
		<tag k="name" v="Seteregga" />
		<tag k="natural" v="ridge" />
		<tag k="place" v="locality" />
		<tag k="ssr:stedsnr" v="149760" />
	</node>
	<node lat="64.8562055557376" lon="12.39249723019202" id="-35421">
		<tag k="name" v="Fagerbakkan" />
		<tag k="place" v="locality" />
		<tag k="ssr:stedsnr" v="149767" />
	</node>
	<node lat="64.85518055912914" lon="12.387216664787376" id="-35422">
		<tag k="name" v="Tortenlia" />
		<tag k="natural" v="slope" />
		<tag k="place" v="locality" />
		<tag k="ssr:stedsnr" v="149769" />
	</node>
	<node lat="64.58352777552315" lon="12.257669449123181" id="-35423">
		<tag k="name" v="Ilskarddalen" />
		<tag k="natural" v="valley" />
		<tag k="place" v="locality" />
		<tag k="ssr:stedsnr" v="150214" />
	</node>
	<node lat="64.63374999586964" lon="12.215463897298347" id="-35424">
		<tag k="fixme" v="consider natural=peak for the most distinct mountains in the district" />
		<tag k="name" v="Olsgrønningsåsen" />
		<tag k="natural" v="hill" />
		<tag k="place" v="locality" />
		<tag k="ssr:stedsnr" v="150154" />
	</node>
	<node lat="64.74551110747352" lon="12.239277778174662" id="-35425">
		<tag k="name" v="Langdalen" />
		<tag k="natural" v="valley" />
		<tag k="place" v="locality" />
		<tag k="ssr:stedsnr" v="150157" />
	</node>
	<node lat="64.84813888519238" lon="12.421372215808605" id="-35427">
		<tag k="name" v="Flauget" />
		<tag k="natural" v="cliff" />
		<tag k="ssr:stedsnr" v="150761" />
	</node>
	<node lat="64.86731666370494" lon="12.423077778006833" id="-35428">
		<tag k="name" v="Saursmoen" />
		<tag k="place" v="locality" />
		<tag k="ssr:stedsnr" v="150808" />
	</node>
	<node lat="64.86413611473314" lon="12.43403612005206" id="-35429">
		<tag k="name" v="Dvergstu" />
		<tag k="place" v="locality" />
		<tag k="ssr:stedsnr" v="150811" />
	</node>
	<node lat="64.6098555516146" lon="12.26202221222335" id="-35430">
		<tag k="name" v="Lauvhaugen" />
		<tag k="natural" v="hill" />
		<tag k="place" v="locality" />
		<tag k="ssr:stedsnr" v="154661" />
	</node>
	<node lat="64.59225555662194" lon="12.26051389698418" id="-35431">
		<tag k="name" v="Stormohalla" />
		<tag k="natural" v="cliff" />
		<tag k="ssr:stedsnr" v="154662" />
	</node>
	<node lat="64.5947000015754" lon="12.324930560348971" id="-35437">
		<tag k="name" v="Heiaberget" />
		<tag k="natural" v="hill" />
		<tag k="place" v="locality" />
		<tag k="ssr:stedsnr" v="257554" />
	</node>
	<node lat="64.63646944487387" lon="12.272633328142927" id="-35438">
		<tag k="fixme" v="consider natural=peak for the most distinct mountains in the district" />
		<tag k="name" v="Børstadåsen" />
		<tag k="natural" v="hill" />
		<tag k="place" v="locality" />
		<tag k="ssr:stedsnr" v="257650" />
	</node>
	<node lat="64.83712500074466" lon="12.285805559399403" id="-35449">
		<tag k="fixme" v="consider natural=peak for the most distinct mountains in the district" />
		<tag k="name" v="Kvitfjellet" />
		<tag k="natural" v="hill" />
		<tag k="place" v="locality" />
		<tag k="ssr:stedsnr" v="257834" />
	</node>
	<node lat="64.64268055931967" lon="12.096636106322993" id="-35456">
		<tag k="name" v="Farholet" />
		<tag k="natural" v="valley" />
		<tag k="place" v="locality" />
		<tag k="ssr:stedsnr" v="167908" />
	</node>
	<node lat="64.81858055303874" lon="12.29915278471654" id="-35457">
		<tag k="name" v="Tverråtjønnskardet" />
		<tag k="natural" v="valley" />
		<tag k="place" v="locality" />
		<tag k="ssr:stedsnr" v="170567" />
	</node>
	<node lat="64.60480278040863" lon="12.170488886149275" id="-35459">
		<tag k="fixme" v="consider natural=peak for the most distinct mountains in the district" />
		<tag k="name" v="Svartåsen" />
		<tag k="natural" v="hill" />
		<tag k="place" v="locality" />
		<tag k="ssr:stedsnr" v="196759" />
	</node>
	<node lat="64.6058027796605" lon="12.172202779891963" id="-35460">
		<tag k="name" v="Helvetet" />
		<tag k="natural" v="slope" />
		<tag k="place" v="locality" />
		<tag k="ssr:stedsnr" v="196761" />
	</node>
	<node lat="64.70620832967893" lon="12.14905556272991" id="-35462">
		<tag k="name" v="Salmonholet" />
		<tag k="natural" v="valley" />
		<tag k="place" v="locality" />
		<tag k="ssr:stedsnr" v="197216" />
	</node>
	<node lat="64.76071666797802" lon="12.413063881852942" id="-35464">
		<tag k="alt_name" v="Gøksenghaugen" />
		<tag k="name" v="Gauksenghaugen" />
		<tag k="natural" v="hill" />
		<tag k="place" v="locality" />
		<tag k="ssr:stedsnr" v="197257" />
	</node>
	<node lat="64.77707499842201" lon="12.2842611165207" id="-35465">
		<tag k="name" v="Tjørnmyrstigen" />
		<tag k="natural" v="hill" />
		<tag k="place" v="locality" />
		<tag k="ssr:stedsnr" v="197263" />
	</node>
	<node lat="64.76611110876053" lon="12.230191666945094" id="-35466">
		<tag k="alt_name" v="Stordolla, inner" />
		<tag k="name" v="Inner Stordolla" />
		<tag k="natural" v="valley" />
		<tag k="place" v="locality" />
		<tag k="ssr:stedsnr" v="197270" />
	</node>
	<node lat="64.7169527793204" lon="12.258711105647919" id="-35467">
		<tag k="fixme" v="consider natural=peak for the most distinct mountains in the district" />
		<tag k="name" v="Storengåsen" />
		<tag k="natural" v="hill" />
		<tag k="place" v="locality" />
		<tag k="ssr:stedsnr" v="197904" />
	</node>
	<node lat="64.72416666518693" lon="12.417675001479818" id="-35468">
		<tag k="name" v="Svahylla" />
		<tag k="place" v="locality" />
		<tag k="ssr:stedsnr" v="197909" />
	</node>
	<node lat="64.73151667057881" lon="12.36862499716052" id="-35471">
		<tag k="fixme" v="consider natural=peak for the most distinct mountains in the district" />
		<tag k="name" v="Høgåsen" />
		<tag k="natural" v="hill" />
		<tag k="place" v="locality" />
		<tag k="ssr:stedsnr" v="197918" />
	</node>
	<node lat="64.70556666370295" lon="12.233613897350038" id="-35472">
		<tag k="name" v="Teinbekkhaugen" />
		<tag k="natural" v="hill" />
		<tag k="place" v="locality" />
		<tag k="ssr:stedsnr" v="197922" />
	</node>
	<node lat="64.62410000003936" lon="12.26869166659686" id="-35475">
		<tag k="name" v="Stampan" />
		<tag k="place" v="locality" />
		<tag k="ssr:stedsnr" v="210269" />
	</node>
	<node lat="64.6269166627876" lon="12.27028610478983" id="-35476">
		<tag k="fixme" v="consider natural=peak for the most distinct mountains in the district" />
		<tag k="name" v="Kviståsen" />
		<tag k="natural" v="hill" />
		<tag k="place" v="locality" />
		<tag k="ssr:stedsnr" v="210274" />
	</node>
	<node lat="64.62561666962499" lon="12.23478888584203" id="-35477">
		<tag k="fixme" v="consider natural=peak for the most distinct mountains in the district" />
		<tag k="name" v="Harraåsen" />
		<tag k="natural" v="hill" />
		<tag k="place" v="locality" />
		<tag k="ssr:stedsnr" v="210276" />
	</node>
	<node lat="64.81442499679896" lon="12.352138878525352" id="-35482">
		<tag k="name" v="Hansdalen" />
		<tag k="natural" v="valley" />
		<tag k="place" v="locality" />
		<tag k="ssr:stedsnr" v="210530" />
	</node>
	<node lat="64.59040555735058" lon="12.311169438608205" id="-35484">
		<tag k="name" v="Litlåenget" />
		<tag k="place" v="locality" />
		<tag k="ssr:stedsnr" v="210481" />
	</node>
	<node lat="64.65922777984773" lon="12.25885555819151" id="-35487">
		<tag k="name" v="Nordberget" />
		<tag k="natural" v="hill" />
		<tag k="place" v="locality" />
		<tag k="ssr:stedsnr" v="211229" />
	</node>
	<node lat="64.84343055762996" lon="12.413608341531933" id="-35488">
		<tag k="name" v="Stranda" />
		<tag k="place" v="locality" />
		<tag k="ssr:stedsnr" v="211640" />
	</node>
	<node lat="64.89810555321979" lon="12.440769441446204" id="-35490">
		<tag k="name" v="Kubåsen" />
		<tag k="place" v="locality" />
		<tag k="ssr:stedsnr" v="211814" />
	</node>
	<node lat="64.87296388669643" lon="12.492388895313349" id="-35492">
		<tag k="name" v="Jofinnlia" />
		<tag k="natural" v="slope" />
		<tag k="place" v="locality" />
		<tag k="ssr:stedsnr" v="211826" />
	</node>
	<node lat="64.8643527733636" lon="12.45170277861441" id="-35494">
		<tag k="name" v="Latlimoan" />
		<tag k="place" v="locality" />
		<tag k="ssr:stedsnr" v="211831" />
	</node>
	<node lat="64.86984444700717" lon="12.416316666674305" id="-35495">
		<tag k="name" v="Lauvlia" />
		<tag k="natural" v="slope" />
		<tag k="place" v="locality" />
		<tag k="ssr:stedsnr" v="211875" />
	</node>
	<node lat="64.58953610716547" lon="12.252088882219015" id="-35499">
		<tag k="name" v="Hyllsteinberga" />
		<tag k="natural" v="hill" />
		<tag k="place" v="locality" />
		<tag k="ssr:stedsnr" v="215629" />
	</node>
	<node lat="64.56675278094319" lon="12.22141944659047" id="-35501">
		<tag k="name" v="Føttberga" />
		<tag k="natural" v="hill" />
		<tag k="place" v="locality" />
		<tag k="ssr:stedsnr" v="271257" />
	</node>
	<node lat="64.65232499636444" lon="12.206152768877333" id="-35502">
		<tag k="fixme" v="consider natural=peak for the most distinct mountains in the district" />
		<tag k="name" v="Haugåsen" />
		<tag k="natural" v="hill" />
		<tag k="place" v="locality" />
		<tag k="ssr:stedsnr" v="271269" />
	</node>
	<node lat="64.61102777448242" lon="12.19720277421658" id="-35503">
		<tag k="name" v="Vakkerlia" />
		<tag k="natural" v="slope" />
		<tag k="place" v="locality" />
		<tag k="ssr:stedsnr" v="271287" />
	</node>
	<node lat="64.61598055662536" lon="12.238316675970424" id="-35504">
		<tag k="fixme" v="consider natural=peak for the most distinct mountains in the district" />
		<tag k="name" v="Kjerringmyråsen" />
		<tag k="natural" v="hill" />
		<tag k="place" v="locality" />
		<tag k="ssr:stedsnr" v="271294" />
	</node>
	<node lat="64.75971944905228" lon="12.300533329640928" id="-35505">
		<tag k="name" v="Fiskådalen" />
		<tag k="natural" v="valley" />
		<tag k="place" v="locality" />
		<tag k="ssr:stedsnr" v="271495" />
	</node>
	<node lat="64.5998472198556" lon="12.356911109060258" id="-35507">
		<tag k="name" v="Blautdalhaugan" />
		<tag k="natural" v="hill" />
		<tag k="place" v="locality" />
		<tag k="ssr:stedsnr" v="271531" />
	</node>
	<node lat="64.84055555180176" lon="12.36008333995407" id="-35511">
		<tag k="name" v="Tverråholet" />
		<tag k="place" v="locality" />
		<tag k="ssr:stedsnr" v="271616" />
	</node>
	<node lat="64.59779166895551" lon="12.317461105370045" id="-35512">
		<tag k="name" v="Strupengbenken" />
		<tag k="natural" v="ridge" />
		<tag k="place" v="locality" />
		<tag k="ssr:stedsnr" v="271535" />
	</node>
	<node lat="64.66990833729484" lon="12.29060000947223" id="-35515">
		<tag k="fixme" v="consider natural=peak for the most distinct mountains in the district" />
		<tag k="name" v="Skeitjønnåsen" />
		<tag k="natural" v="hill" />
		<tag k="place" v="locality" />
		<tag k="ssr:stedsnr" v="271540" />
	</node>
	<node lat="64.59601944209446" lon="12.39288888489141" id="-35516">
		<tag k="name" v="Trappen" />
		<tag k="natural" v="hill" />
		<tag k="place" v="locality" />
		<tag k="ssr:stedsnr" v="271542" />
	</node>
	<node lat="64.63213888611234" lon="12.307408325019585" id="-35519">
		<tag k="name" v="Skarstadbakken" />
		<tag k="natural" v="slope" />
		<tag k="place" v="locality" />
		<tag k="ssr:stedsnr" v="271557" />
	</node>
	<node lat="64.77682499771177" lon="12.31826111715736" id="-35522">
		<tag k="name" v="Tjønndalen" />
		<tag k="natural" v="valley" />
		<tag k="place" v="locality" />
		<tag k="ssr:stedsnr" v="271648" />
	</node>
	<node lat="64.79850000202347" lon="12.362458323779157" id="-35524">
		<tag k="name" v="Nyenget" />
		<tag k="place" v="locality" />
		<tag k="ssr:stedsnr" v="271660" />
	</node>
	<node lat="64.73046110976328" lon="12.305452773492688" id="-35527">
		<tag k="name" v="Anemoen" />
		<tag k="place" v="locality" />
		<tag k="ssr:stedsnr" v="271684" />
	</node>
	<node lat="64.89891388948594" lon="12.380049990462389" id="-35529">
		<tag k="name" v="Moengdalen" />
		<tag k="natural" v="valley" />
		<tag k="place" v="locality" />
		<tag k="ssr:stedsnr" v="271773" />
	</node>
	<node lat="64.89328889252315" lon="12.34910277497238" id="-35530">
		<tag k="name" v="Kristofferlia" />
		<tag k="natural" v="slope" />
		<tag k="place" v="locality" />
		<tag k="ssr:stedsnr" v="271774" />
	</node>
	<node lat="64.66042500359299" lon="12.050766666421168" id="-35531">
		<tag k="name" v="Tverrlia" />
		<tag k="natural" v="slope" />
		<tag k="place" v="locality" />
		<tag k="ssr:stedsnr" v="228901" />
	</node>
	<node lat="64.54373888711447" lon="12.198791673002324" id="-35535">
		<tag k="name" v="Styggdalen" />
		<tag k="natural" v="valley" />
		<tag k="place" v="locality" />
		<tag k="ssr:stedsnr" v="453066" />
	</node>
	<node lat="64.53107499993662" lon="12.218477781208895" id="-35537">
		<tag k="name" v="Fjellbrodlia" />
		<tag k="natural" v="slope" />
		<tag k="place" v="locality" />
		<tag k="ssr:stedsnr" v="453039" />
	</node>
	<node lat="64.63323055757895" lon="12.140758328429134" id="-35539">
		<tag k="name" v="Sulsteinhalsen" />
		<tag k="natural" v="valley" />
		<tag k="place" v="locality" />
		<tag k="ssr:stedsnr" v="453129" />
	</node>
	<node lat="64.68591388894986" lon="12.393852781353377" id="-35541">
		<tag k="name" v="Svahylla" />
		<tag k="natural" v="cliff" />
		<tag k="ssr:stedsnr" v="453450" />
	</node>
	<node lat="64.73190277586068" lon="12.248691661946728" id="-35544">
		<tag k="name" v="Bjørklia" />
		<tag k="natural" v="slope" />
		<tag k="place" v="locality" />
		<tag k="ssr:stedsnr" v="453157" />
	</node>
	<node lat="64.55839722500978" lon="12.188252788143327" id="-35545">
		<tag k="name" v="Kastvarpet" />
		<tag k="place" v="locality" />
		<tag k="ssr:stedsnr" v="453245" />
	</node>
	<node lat="64.84736667070167" lon="12.441483332269259" id="-35547">
		<tag k="name" v="Tjønnmolia" />
		<tag k="natural" v="slope" />
		<tag k="place" v="locality" />
		<tag k="ssr:stedsnr" v="454881" />
	</node>
	<node lat="64.62198610953664" lon="12.381605561160875" id="-35550">
		<tag k="name" v="Nonshaugen" />
		<tag k="natural" v="hill" />
		<tag k="place" v="locality" />
		<tag k="ssr:stedsnr" v="453489" />
	</node>
	<node lat="64.59430555315897" lon="12.355519443541297" id="-35552">
		<tag k="name" v="Skreddarhaugen" />
		<tag k="natural" v="hill" />
		<tag k="place" v="locality" />
		<tag k="ssr:stedsnr" v="453493" />
	</node>
	<node lat="64.63758889073267" lon="12.382147226403593" id="-35555">
		<tag k="name" v="Kovahaugen" />
		<tag k="natural" v="hill" />
		<tag k="place" v="locality" />
		<tag k="ssr:stedsnr" v="453525" />
	</node>
	<node lat="64.64149721841015" lon="12.407233339692182" id="-35556">
		<tag k="fixme" v="consider natural=peak for the most distinct mountains in the district" />
		<tag k="name" v="Litlfjellet" />
		<tag k="natural" v="hill" />
		<tag k="place" v="locality" />
		<tag k="ssr:stedsnr" v="453534" />
	</node>
	<node lat="64.80897499895151" lon="12.38245555773697" id="-35558">
		<tag k="name" v="Fuglhaugen" />
		<tag k="natural" v="hill" />
		<tag k="place" v="locality" />
		<tag k="ssr:stedsnr" v="453546" />
	</node>
	<node lat="64.81718055464648" lon="12.377211101060835" id="-35560">
		<tag k="name" v="Erikenget" />
		<tag k="place" v="locality" />
		<tag k="ssr:stedsnr" v="453552" />
	</node>
	<node lat="64.80249722021487" lon="12.379122217481227" id="-35563">
		<tag k="name" v="Hjortholet" />
		<tag k="natural" v="valley" />
		<tag k="place" v="locality" />
		<tag k="ssr:stedsnr" v="453627" />
	</node>
	<node lat="64.72365277795397" lon="12.370080556344" id="-35565">
		<tag k="name" v="Forroreveljen" />
		<tag k="natural" v="hill" />
		<tag k="place" v="locality" />
		<tag k="ssr:stedsnr" v="453631" />
	</node>
	<node lat="64.84619444023608" lon="12.397422217368469" id="-35567">
		<tag k="fixme" v="consider natural=peak for the most distinct mountains in the district" />
		<tag k="name" v="Tverråkammen" />
		<tag k="natural" v="hill" />
		<tag k="place" v="locality" />
		<tag k="ssr:stedsnr" v="453578" />
	</node>
	<node lat="64.73917222010533" lon="12.356574996712638" id="-35569">
		<tag k="name" v="Hevelmyrmoen" />
		<tag k="place" v="locality" />
		<tag k="ssr:stedsnr" v="453640" />
	</node>
	<node lat="64.56876666380326" lon="12.162947226277428" id="-35571">
		<tag k="name" v="Fjellrema" />
		<tag k="natural" v="slope" />
		<tag k="place" v="locality" />
		<tag k="ssr:stedsnr" v="454212" />
	</node>
	<node lat="64.67164999740659" lon="12.215563896060717" id="-35573">
		<tag k="name" v="Haugåstuva" />
		<tag k="natural" v="hill" />
		<tag k="place" v="locality" />
		<tag k="ssr:stedsnr" v="454230" />
	</node>
	<node lat="64.6537555533734" lon="12.217252770618874" id="-35574">
		<tag k="fixme" v="consider natural=peak for the most distinct mountains in the district" />
		<tag k="name" v="Langengåsen" />
		<tag k="natural" v="hill" />
		<tag k="place" v="locality" />
		<tag k="ssr:stedsnr" v="454243" />
	</node>
	<node lat="64.84429999836247" lon="12.415100001811936" id="-35576">
		<tag k="name" v="Husmannssletta" />
		<tag k="place" v="locality" />
		<tag k="ssr:stedsnr" v="454653" />
	</node>
	<node lat="64.87265833737652" lon="12.456655549087353" id="-35577">
		<tag k="name" v="Svarthaugen" />
		<tag k="natural" v="hill" />
		<tag k="place" v="locality" />
		<tag k="ssr:stedsnr" v="454838" />
	</node>
	<node lat="64.8645888877383" lon="12.457413897056762" id="-35578">
		<tag k="name" v="Bustholet" />
		<tag k="place" v="locality" />
		<tag k="ssr:stedsnr" v="454850" />
	</node>
	<node lat="64.86740833409642" lon="12.452672230629059" id="-35579">
		<tag k="name" v="Årnengan" />
		<tag k="place" v="locality" />
		<tag k="ssr:stedsnr" v="454852" />
	</node>
	<node lat="64.78475277757742" lon="12.356186112637161" id="-35581">
		<tag k="alt_name" v="Meihatten" />
		<tag k="name" v="Mehatten" />
		<tag k="natural" v="hill" />
		<tag k="place" v="locality" />
		<tag k="ssr:stedsnr" v="257219" />
	</node>
	<node lat="64.77016944091632" lon="12.328883323383142" id="-35582">
		<tag k="fixme" v="consider natural=peak for the most distinct mountains in the district" />
		<tag k="name" v="Bjørliåsen" />
		<tag k="natural" v="hill" />
		<tag k="place" v="locality" />
		<tag k="ssr:stedsnr" v="257260" />
	</node>
	<node lat="64.76038333571026" lon="12.256650000243802" id="-35583">
		<tag k="name" v="Fiskløysvasshøgda" />
		<tag k="natural" v="hill" />
		<tag k="place" v="locality" />
		<tag k="ssr:stedsnr" v="257269" />
	</node>
	<node lat="64.61573333611818" lon="12.275944449763555" id="-35588">
		<tag k="name" v="Nylendmoan" />
		<tag k="place" v="locality" />
		<tag k="ssr:stedsnr" v="271281" />
	</node>
	<node lat="64.65201389095051" lon="12.268233335997413" id="-35589">
		<tag k="fixme" v="consider natural=peak for the most distinct mountains in the district" />
		<tag k="name" v="Trettengåsen" />
		<tag k="natural" v="hill" />
		<tag k="place" v="locality" />
		<tag k="ssr:stedsnr" v="271179" />
	</node>
	<node lat="64.68347221891975" lon="12.355650006902586" id="-35592">
		<tag k="fixme" v="consider natural=peak for the most distinct mountains in the district" />
		<tag k="name" v="Svartåsen" />
		<tag k="natural" v="hill" />
		<tag k="place" v="locality" />
		<tag k="ssr:stedsnr" v="271485" />
	</node>
	<node lat="64.83470555392728" lon="12.386247214687323" id="-35594">
		<tag k="fixme" v="consider natural=peak for the most distinct mountains in the district" />
		<tag k="name" v="Skogengåsen" />
		<tag k="natural" v="hill" />
		<tag k="place" v="locality" />
		<tag k="ssr:stedsnr" v="271611" />
	</node>
	<node lat="64.64257777455676" lon="12.360738891189989" id="-35596">
		<tag k="name" v="Langlia" />
		<tag k="natural" v="slope" />
		<tag k="place" v="locality" />
		<tag k="ssr:stedsnr" v="271574" />
	</node>
	<node lat="64.81081666699387" lon="12.3488249991063" id="-35597">
		<tag k="name" v="Hansdalfallet" />
		<tag k="place" v="locality" />
		<tag k="ssr:stedsnr" v="271584" />
	</node>
	<node lat="64.71994444642779" lon="12.207058331973514" id="-35600">
		<tag k="name" v="Alexlia" />
		<tag k="natural" v="slope" />
		<tag k="place" v="locality" />
		<tag k="ssr:stedsnr" v="272134" />
	</node>
	<node lat="64.64779444691185" lon="12.161052783881692" id="-35604">
		<tag k="name" v="Tobiashaugen" />
		<tag k="natural" v="hill" />
		<tag k="place" v="locality" />
		<tag k="ssr:stedsnr" v="289578" />
	</node>
	<node lat="64.77695832895321" lon="12.445330558197762" id="-35611">
		<tag k="fixme" v="consider natural=peak for the most distinct mountains in the district" />
		<tag k="name" v="Kjerfjellet" />
		<tag k="natural" v="hill" />
		<tag k="place" v="locality" />
		<tag k="ssr:stedsnr" v="318242" />
	</node>
	<node lat="64.80025000145557" lon="12.38824999182361" id="-35612">
		<tag k="fixme" v="consider natural=peak for the most distinct mountains in the district" />
		<tag k="name" v="Skogafjellet" />
		<tag k="natural" v="hill" />
		<tag k="place" v="locality" />
		<tag k="ssr:stedsnr" v="318196" />
	</node>
	<node lat="64.80546110856007" lon="12.447708338012504" id="-35613">
		<tag k="alt_name" v="Langfolldalen;Øyfolldalen" />
		<tag k="name" v="Folldalen" />
		<tag k="natural" v="valley" />
		<tag k="place" v="locality" />
		<tag k="ssr:stedsnr" v="318200" />
	</node>
	<node lat="64.59106110766928" lon="12.288061101127171" id="-35616">
		<tag k="alt_name" v="Storhaugen" />
		<tag k="fixme" v="consider natural=peak for the most distinct mountains in the district" />
		<tag k="name" v="Langåsen" />
		<tag k="natural" v="hill" />
		<tag k="place" v="locality" />
		<tag k="ssr:stedsnr" v="318546" />
	</node>
	<node lat="64.59714999589546" lon="12.170200003538493" id="-35621">
		<tag k="fixme" v="consider natural=peak for the most distinct mountains in the district" />
		<tag k="name" v="Eidsfjellet" />
		<tag k="natural" v="hill" />
		<tag k="place" v="locality" />
		<tag k="ssr:stedsnr" v="318797" />
	</node>
	<node lat="64.72874444086392" lon="12.310988890762195" id="-35623">
		<tag k="name" v="Ådalen" />
		<tag k="natural" v="valley" />
		<tag k="place" v="locality" />
		<tag k="ssr:stedsnr" v="318907" />
	</node>
	<node lat="64.71319166623405" lon="12.399341659124104" id="-35624">
		<tag k="name" v="Durmogrova" />
		<tag k="natural" v="valley" />
		<tag k="place" v="locality" />
		<tag k="ssr:stedsnr" v="318917" />
	</node>
	<node lat="64.63410277326287" lon="12.37957778664185" id="-35629">
		<tag k="fixme" v="consider natural=peak for the most distinct mountains in the district" />
		<tag k="name" v="Siribrennåsen" />
		<tag k="natural" v="hill" />
		<tag k="place" v="locality" />
		<tag k="ssr:stedsnr" v="331503" />
	</node>
	<node lat="64.57543055788862" lon="12.162772225010663" id="-35632">
		<tag k="name" v="Eidsfjellet" />
		<tag k="natural" v="hill" />
		<tag k="place" v="locality" />
		<tag k="ssr:stedsnr" v="332040" />
	</node>
	<node lat="64.6838111136138" lon="12.375647231358485" id="-35634">
		<tag k="name" v="Osphaugen" />
		<tag k="natural" v="hill" />
		<tag k="place" v="locality" />
		<tag k="ssr:stedsnr" v="332418" />
	</node>
	<node lat="64.64412499935915" lon="12.364580548507519" id="-35635">
		<tag k="name" v="Hoberget" />
		<tag k="natural" v="hill" />
		<tag k="place" v="locality" />
		<tag k="ssr:stedsnr" v="332499" />
	</node>
	<node lat="64.73571110961126" lon="12.353788884320062" id="-35638">
		<tag k="fixme" v="consider natural=peak for the most distinct mountains in the district" />
		<tag k="name" v="Hevelåsen" />
		<tag k="natural" v="hill" />
		<tag k="place" v="locality" />
		<tag k="ssr:stedsnr" v="332613" />
	</node>
	<node lat="64.73622222464164" lon="12.372225000594181" id="-35639">
		<tag k="name" v="Tortholet" />
		<tag k="place" v="locality" />
		<tag k="ssr:stedsnr" v="332614" />
	</node>
	<node lat="64.89738611494681" lon="12.486425006224007" id="-35640">
		<tag k="name" v="Ingebriktmoen" />
		<tag k="place" v="locality" />
		<tag k="ssr:stedsnr" v="332798" />
	</node>
	<node lat="64.66995277922602" lon="12.129327770682409" id="-35643">
		<tag k="name" v="Granlia" />
		<tag k="natural" v="slope" />
		<tag k="place" v="locality" />
		<tag k="ssr:stedsnr" v="471891" />
	</node>
	<node lat="64.90591111120096" lon="12.619188885271795" id="-35644">
		<tag k="name" v="Rognhaugen" />
		<tag k="natural" v="hill" />
		<tag k="place" v="locality" />
		<tag k="ssr:stedsnr" v="352573" />
	</node>
	<node lat="64.80125000325894" lon="12.402599996076455" id="-35647">
		<tag k="name" v="Samuelfolldalen" />
		<tag k="natural" v="valley" />
		<tag k="place" v="locality" />
		<tag k="ssr:stedsnr" v="378215" />
	</node>
	<node lat="64.85228333523837" lon="12.519733342755424" id="-35653">
		<tag k="fixme" v="consider natural=peak for the most distinct mountains in the district" />
		<tag k="name" v="Kvernfjellet - Pliehtjeguevtelennjuenie" />
		<tag k="name:no" v="Kvernfjellet" />
		<tag k="name:sma" v="Pliehtjeguevtelennjuenie" />
		<tag k="natural" v="hill" />
		<tag k="place" v="locality" />
		<tag k="ssr:stedsnr" v="378810" />
	</node>
	<node lat="64.84024721999276" lon="12.373452770659522" id="-35654">
		<tag k="fixme" v="consider natural=peak for the most distinct mountains in the district" />
		<tag k="name" v="Litlfjellet" />
		<tag k="natural" v="hill" />
		<tag k="place" v="locality" />
		<tag k="ssr:stedsnr" v="378814" />
	</node>
	<node lat="64.7321555537502" lon="12.28944444615131" id="-35656">
		<tag k="name" v="Finnhusdalen" />
		<tag k="natural" v="valley" />
		<tag k="place" v="locality" />
		<tag k="ssr:stedsnr" v="378914" />
	</node>
	<node lat="64.6223583358793" lon="12.472383339206077" id="-35658">
		<tag k="alt_name" v="Klasmofjellet" />
		<tag k="fixme" v="consider natural=peak for the most distinct mountains in the district" />
		<tag k="name" v="Klesmofjellet" />
		<tag k="natural" v="hill" />
		<tag k="place" v="locality" />
		<tag k="ssr:stedsnr" v="379502" />
	</node>
	<node lat="64.61812500377916" lon="12.358352780398699" id="-35660">
		<tag k="name" v="Sørhaugan" />
		<tag k="natural" v="hill" />
		<tag k="place" v="locality" />
		<tag k="ssr:stedsnr" v="379478" />
	</node>
	<node lat="64.70287778039362" lon="12.287983331134498" id="-35662">
		<tag k="name" v="Liakammen" />
		<tag k="natural" v="hill" />
		<tag k="place" v="locality" />
		<tag k="ssr:stedsnr" v="379902" />
	</node>
	<node lat="64.70627500392895" lon="12.374616675842153" id="-35666">
		<tag k="name" v="Skiftesdalen" />
		<tag k="natural" v="valley" />
		<tag k="place" v="locality" />
		<tag k="ssr:stedsnr" v="379925" />
	</node>
	<node lat="64.57156111244632" lon="12.145125006138727" id="-35667">
		<tag k="name" v="Stemningen" />
		<tag k="natural" v="slope" />
		<tag k="place" v="locality" />
		<tag k="ssr:stedsnr" v="392083" />
	</node>
	<node lat="64.58453333358804" lon="12.107641673047738" id="-35668">
		<tag k="name" v="Grovdalen" />
		<tag k="natural" v="valley" />
		<tag k="place" v="locality" />
		<tag k="ssr:stedsnr" v="392087" />
	</node>
	<node lat="64.74154166846617" lon="12.287041666169856" id="-35671">
		<tag k="alt_name" v="Reindalmyrhaugen" />
		<tag k="name" v="Renndalsmyrhaugen" />
		<tag k="natural" v="hill" />
		<tag k="place" v="locality" />
		<tag k="ssr:stedsnr" v="392485" />
	</node>
	<node lat="64.7521638846832" lon="12.364811102442522" id="-35672">
		<tag k="name" v="Flakahaugen" />
		<tag k="natural" v="hill" />
		<tag k="place" v="locality" />
		<tag k="ssr:stedsnr" v="392493" />
	</node>
	<node lat="64.8087416645335" lon="12.369836120286342" id="-35673">
		<tag k="name" v="Pettermoen" />
		<tag k="place" v="locality" />
		<tag k="ssr:stedsnr" v="392584" />
	</node>
	<node lat="64.89645833079956" lon="12.398097220679063" id="-35675">
		<tag k="alt_name" v="Bjørnskaret" />
		<tag k="name" v="Bjønnskardet" />
		<tag k="natural" v="valley" />
		<tag k="place" v="locality" />
		<tag k="ssr:stedsnr" v="392790" />
	</node>
	<node lat="64.86520277703943" lon="12.395975004933497" id="-35676">
		<tag k="name" v="Vardaliin" />
		<tag k="natural" v="slope" />
		<tag k="place" v="locality" />
		<tag k="ssr:stedsnr" v="392795" />
	</node>
	<node lat="64.8583416646322" lon="12.392747218375318" id="-35677">
		<tag k="name" v="Vesterlitlaunan" />
		<tag k="place" v="locality" />
		<tag k="ssr:stedsnr" v="392800" />
	</node>
	<node lat="64.740516669764" lon="12.357686117424016" id="-35679">
		<tag k="name" v="Sammarfjøshaugen" />
		<tag k="natural" v="hill" />
		<tag k="place" v="locality" />
		<tag k="ssr:stedsnr" v="392692" />
	</node>
	<node lat="64.85340833729536" lon="12.367599993690108" id="-35682">
		<tag k="name" v="Urddalen" />
		<tag k="natural" v="valley" />
		<tag k="place" v="locality" />
		<tag k="ssr:stedsnr" v="392804" />
	</node>
	<node lat="64.85401944351464" lon="12.375780556663955" id="-35683">
		<tag k="name" v="Jofinnhaugan" />
		<tag k="natural" v="hill" />
		<tag k="place" v="locality" />
		<tag k="ssr:stedsnr" v="392806" />
	</node>
	<node lat="64.7181138854677" lon="12.173663896557807" id="-35684">
		<tag k="name" v="Sørhevlan" />
		<tag k="natural" v="hill" />
		<tag k="place" v="locality" />
		<tag k="ssr:stedsnr" v="393142" />
	</node>
	<node lat="64.62818888973634" lon="12.16437777157819" id="-35685">
		<tag k="name" v="Litlåliin" />
		<tag k="natural" v="slope" />
		<tag k="place" v="locality" />
		<tag k="ssr:stedsnr" v="393208" />
	</node>
	<node lat="64.64774722286451" lon="12.317847220409805" id="-35694">
		<tag k="name" v="Kjerran" />
		<tag k="natural" v="slope" />
		<tag k="place" v="locality" />
		<tag k="ssr:stedsnr" v="439610" />
	</node>
	<node lat="64.56938333027148" lon="12.283463898818153" id="-35695">
		<tag k="name" v="Seterberget" />
		<tag k="natural" v="hill" />
		<tag k="place" v="locality" />
		<tag k="ssr:stedsnr" v="439708" />
	</node>
	<node lat="64.5849944457022" lon="12.107908330482946" id="-35697">
		<tag k="name" v="Vikagrova" />
		<tag k="natural" v="slope" />
		<tag k="place" v="locality" />
		<tag k="ssr:stedsnr" v="439807" />
	</node>
	<node lat="64.67228055771695" lon="12.116774990627531" id="-35698">
		<tag k="name" v="Vakkerbotnet" />
		<tag k="natural" v="valley" />
		<tag k="place" v="locality" />
		<tag k="ssr:stedsnr" v="439845" />
	</node>
	<node lat="64.6252583332304" lon="12.358088892886727" id="-35703">
		<tag k="alt_name" v="Sperhaugan" />
		<tag k="name" v="Sperrhaugan" />
		<tag k="natural" v="hill" />
		<tag k="place" v="locality" />
		<tag k="ssr:stedsnr" v="440522" />
	</node>
	<node lat="64.91279166761639" lon="12.359077786754536" id="-35704">
		<tag k="fixme" v="consider natural=peak for the most distinct mountains in the district" />
		<tag k="name" v="Ytteråsen" />
		<tag k="natural" v="hill" />
		<tag k="place" v="locality" />
		<tag k="ssr:stedsnr" v="440787" />
	</node>
	<node lat="64.90638611448395" lon="12.441416661801721" id="-35705">
		<tag k="alt_name" v="Bjørntrappen" />
		<tag k="name" v="Bjørntroppin" />
		<tag k="natural" v="valley" />
		<tag k="place" v="locality" />
		<tag k="ssr:stedsnr" v="440790" />
	</node>
	<node lat="64.70327500394778" lon="12.378527786297605" id="-35706">
		<tag k="name" v="Lomtjønnhaugan" />
		<tag k="natural" v="hill" />
		<tag k="place" v="locality" />
		<tag k="ssr:stedsnr" v="440907" />
	</node>
	<node lat="64.69905277739049" lon="12.290752773366147" id="-35707">
		<tag k="fixme" v="consider natural=peak for the most distinct mountains in the district" />
		<tag k="name" v="Rosåsen" />
		<tag k="natural" v="hill" />
		<tag k="place" v="locality" />
		<tag k="ssr:stedsnr" v="440911" />
	</node>
	<node lat="64.82755833246674" lon="12.385269452767094" id="-35717">
		<tag k="name" v="Røyrhola" />
		<tag k="place" v="locality" />
		<tag k="ssr:stedsnr" v="453564" />
	</node>
	<node lat="64.83504999635173" lon="12.40458889824534" id="-35718">
		<tag k="name" v="Kjerringrokkholet" />
		<tag k="place" v="locality" />
		<tag k="ssr:stedsnr" v="453568" />
	</node>
	<node lat="64.82893055705658" lon="12.40601667356473" id="-35719">
		<tag k="name" v="Neppklumpen" />
		<tag k="natural" v="hill" />
		<tag k="place" v="locality" />
		<tag k="ssr:stedsnr" v="453569" />
	</node>
	<node lat="64.90700555755359" lon="12.350852775322226" id="-35720">
		<tag k="name" v="Finntrappen" />
		<tag k="natural" v="cliff" />
		<tag k="old_name" v="Finnntrappen" />
		<tag k="ssr:stedsnr" v="453770" />
	</node>
	<node lat="64.90790555478286" lon="12.351058343584903" id="-35721">
		<tag k="name" v="Godholbrotta" />
		<tag k="place" v="locality" />
		<tag k="ssr:stedsnr" v="453771" />
	</node>
	<node lat="64.85487500306213" lon="12.40318611866116" id="-35722">
		<tag k="fixme" v="consider natural=peak for the most distinct mountains in the district" />
		<tag k="name" v="Hellbekkåsen" />
		<tag k="natural" v="hill" />
		<tag k="place" v="locality" />
		<tag k="ssr:stedsnr" v="453783" />
	</node>
	<node lat="64.58131388786701" lon="12.254241672987062" id="-35723">
		<tag k="name" v="Storberget" />
		<tag k="natural" v="hill" />
		<tag k="place" v="locality" />
		<tag k="ssr:stedsnr" v="454210" />
	</node>
	<node lat="64.84184722329212" lon="12.430852782275837" id="-35726">
		<tag k="name" v="Brattrøystet" />
		<tag k="place" v="locality" />
		<tag k="ssr:stedsnr" v="454877" />
	</node>
	<node lat="64.61133611481793" lon="12.154938892088424" id="-35727">
		<tag k="name" v="Grøssjøhaugan" />
		<tag k="natural" v="hill" />
		<tag k="place" v="locality" />
		<tag k="ssr:stedsnr" v="469463" />
	</node>
	<node lat="64.63910278121145" lon="12.06783333119891" id="-35728">
		<tag k="name" v="Jørnhaugan" />
		<tag k="natural" v="hill" />
		<tag k="place" v="locality" />
		<tag k="ssr:stedsnr" v="471907" />
	</node>
	<node lat="64.91414722105051" lon="12.648969438584846" id="-35729">
		<tag k="name" v="Treddivasslia" />
		<tag k="natural" v="slope" />
		<tag k="place" v="locality" />
		<tag k="ssr:stedsnr" v="473573" />
	</node>
	<node lat="64.6736138849255" lon="12.46901665579735" id="-35730">
		<tag k="name" v="Storfjellet" />
		<tag k="natural" v="hill" />
		<tag k="place" v="locality" />
		<tag k="ssr:stedsnr" v="473774" />
	</node>
	<node lat="64.74561388776903" lon="12.2466250061474" id="-35732">
		<tag k="name" v="Litlfjellet" />
		<tag k="natural" v="hill" />
		<tag k="place" v="locality" />
		<tag k="ssr:stedsnr" v="272156" />
	</node>
	<node lat="64.63754444669065" lon="12.170394444936194" id="-35733">
		<tag k="fixme" v="consider natural=peak for the most distinct mountains in the district" />
		<tag k="name" v="Kariåsen" />
		<tag k="natural" v="hill" />
		<tag k="place" v="locality" />
		<tag k="ssr:stedsnr" v="272236" />
	</node>
	<node lat="64.57464722535853" lon="12.339491656803398" id="-35734">
		<tag k="name" v="Svorttjønnåsen" />
		<tag k="natural" v="hill" />
		<tag k="place" v="locality" />
		<tag k="ssr:stedsnr" v="272267" />
	</node>
	<node lat="64.8436166646017" lon="12.419608338003133" id="-35735">
		<tag k="name" v="Finnhusdalen" />
		<tag k="natural" v="valley" />
		<tag k="place" v="locality" />
		<tag k="ssr:stedsnr" v="272828" />
	</node>
	<node lat="64.8183333323778" lon="12.418677773367909" id="-35738">
		<tag k="fixme" v="consider natural=peak for the most distinct mountains in the district" />
		<tag k="name" v="Storstakkengåsen" />
		<tag k="natural" v="hill" />
		<tag k="place" v="locality" />
		<tag k="ssr:stedsnr" v="272850" />
	</node>
	<node lat="64.65597778154476" lon="12.121474992106371" id="-35740">
		<tag k="fixme" v="consider natural=peak for the most distinct mountains in the district" />
		<tag k="name" v="Ytterengåsen" />
		<tag k="natural" v="hill" />
		<tag k="place" v="locality" />
		<tag k="ssr:stedsnr" v="499807" />
	</node>
	<node lat="64.78957499903603" lon="12.299388889916264" id="-35741">
		<tag k="alt_name" v="Tverrådalen, litle;Litle Tverrådalen" />
		<tag k="name" v="Litltverrådalen" />
		<tag k="natural" v="valley" />
		<tag k="place" v="locality" />
		<tag k="ssr:stedsnr" v="500206" />
	</node>
	<node lat="64.6917305513395" lon="12.162574990725975" id="-35744">
		<tag k="name" v="Ivaliin" />
		<tag k="natural" v="slope" />
		<tag k="place" v="locality" />
		<tag k="ssr:stedsnr" v="500221" />
	</node>
	<node lat="64.78395000437753" lon="12.33930277395233" id="-35745">
		<tag k="fixme" v="consider natural=peak for the most distinct mountains in the district" />
		<tag k="name" v="Haugåsen" />
		<tag k="natural" v="hill" />
		<tag k="place" v="locality" />
		<tag k="ssr:stedsnr" v="681532" />
	</node>
	<node lat="64.76205277516337" lon="12.376302780940296" id="-35747">
		<tag k="fixme" v="consider natural=peak for the most distinct mountains in the district" />
		<tag k="name" v="Jensokfjellet" />
		<tag k="natural" v="hill" />
		<tag k="place" v="locality" />
		<tag k="ssr:stedsnr" v="500291" />
	</node>
	<node lat="64.73669444628662" lon="12.251419446126594" id="-35749">
		<tag k="name" v="Valfallet" />
		<tag k="natural" v="valley" />
		<tag k="place" v="locality" />
		<tag k="ssr:stedsnr" v="500910" />
	</node>
	<node lat="64.7233083358332" lon="12.240544450683304" id="-35750">
		<tag k="name" v="Svartåsflauget" />
		<tag k="natural" v="valley" />
		<tag k="place" v="locality" />
		<tag k="ssr:stedsnr" v="500911" />
	</node>
	<node lat="64.64813889044738" lon="12.069705549488091" id="-35752">
		<tag k="fixme" v="consider natural=peak for the most distinct mountains in the district" />
		<tag k="name" v="Litlfjellet" />
		<tag k="natural" v="hill" />
		<tag k="place" v="locality" />
		<tag k="ssr:stedsnr" v="500882" />
	</node>
	<node lat="64.63152777540628" lon="12.14865554636135" id="-35754">
		<tag k="name" v="Varphalsen" />
		<tag k="natural" v="valley" />
		<tag k="place" v="locality" />
		<tag k="ssr:stedsnr" v="500891" />
	</node>
	<node lat="64.5870111154516" lon="12.294449993207133" id="-35757">
		<tag k="name" v="Stordalen" />
		<tag k="natural" v="valley" />
		<tag k="place" v="locality" />
		<tag k="ssr:stedsnr" v="682594" />
	</node>
	<node lat="64.57078055890821" lon="12.329352783516706" id="-35760">
		<tag k="fixme" v="consider natural=peak for the most distinct mountains in the district" />
		<tag k="name" v="Hundtjønnåsen" />
		<tag k="natural" v="hill" />
		<tag k="place" v="locality" />
		<tag k="ssr:stedsnr" v="682753" />
	</node>
	<node lat="64.90017499606145" lon="12.39347500771616" id="-35764">
		<tag k="fixme" v="consider natural=peak for the most distinct mountains in the district" />
		<tag k="name" v="Inneråsen" />
		<tag k="natural" v="hill" />
		<tag k="place" v="locality" />
		<tag k="ssr:stedsnr" v="682849" />
	</node>
	<node lat="64.7783194481467" lon="12.530133323554137" id="-35765">
		<tag k="fixme" v="consider natural=peak for the most distinct mountains in the district" />
		<tag k="name" v="Kjølstadfjellet - Råantjatjahke" />
		<tag k="name:no" v="Kjølstadfjellet" />
		<tag k="name:sma" v="Råantjatjahke" />
		<tag k="natural" v="hill" />
		<tag k="place" v="locality" />
		<tag k="ssr:stedsnr" v="682928" />
	</node>
	<node lat="64.71090556027241" lon="12.24491943451164" id="-35767">
		<tag k="fixme" v="consider natural=peak for the most distinct mountains in the district" />
		<tag k="name" v="Sjurdsvartåsen" />
		<tag k="natural" v="hill" />
		<tag k="place" v="locality" />
		<tag k="ssr:stedsnr" v="682937" />
	</node>
	<node lat="64.6924527785697" lon="12.265252786853347" id="-35769">
		<tag k="fixme" v="consider natural=peak for the most distinct mountains in the district" />
		<tag k="name" v="Butjønnåsen" />
		<tag k="natural" v="hill" />
		<tag k="place" v="locality" />
		<tag k="ssr:stedsnr" v="682947" />
	</node>
	<node lat="64.62183055164967" lon="12.120286116816148" id="-35777">
		<tag k="fixme" v="consider natural=peak for the most distinct mountains in the district" />
		<tag k="name" v="Drageidåsen" />
		<tag k="natural" v="hill" />
		<tag k="place" v="locality" />
		<tag k="ssr:stedsnr" v="513119" />
	</node>
	<node lat="64.73831667077403" lon="12.240652775472475" id="-35778">
		<tag k="name" v="Johannesmodolla" />
		<tag k="place" v="locality" />
		<tag k="ssr:stedsnr" v="513131" />
	</node>
	<node lat="64.59728611046025" lon="12.336211108034302" id="-35779">
		<tag k="fixme" v="consider natural=peak for the most distinct mountains in the district" />
		<tag k="name" v="Høgslettåsen" />
		<tag k="natural" v="hill" />
		<tag k="place" v="locality" />
		<tag k="ssr:stedsnr" v="513511" />
	</node>
	<node lat="64.65494444497455" lon="12.39921111102486" id="-35780">
		<tag k="name" v="Besdalbråtta" />
		<tag k="natural" v="hill" />
		<tag k="place" v="locality" />
		<tag k="ssr:stedsnr" v="513524" />
	</node>
	<node lat="64.62093055756482" lon="12.216919445735089" id="-35785">
		<tag k="fixme" v="consider natural=peak for the most distinct mountains in the district" />
		<tag k="name" v="Storåsen" />
		<tag k="natural" v="hill" />
		<tag k="place" v="locality" />
		<tag k="ssr:stedsnr" v="514267" />
	</node>
	<node lat="64.84308055566245" lon="12.406916669613043" id="-35790">
		<tag k="name" v="Trongmyrmoen" />
		<tag k="place" v="locality" />
		<tag k="ssr:stedsnr" v="514591" />
	</node>
	<node lat="64.86481944030778" lon="12.449666664167205" id="-35792">
		<tag k="name" v="Vårlia" />
		<tag k="natural" v="slope" />
		<tag k="place" v="locality" />
		<tag k="ssr:stedsnr" v="514809" />
	</node>
	<node lat="64.78450555694968" lon="12.4406694368126" id="-35798">
		<tag k="name" v="Stordolla" />
		<tag k="natural" v="slope" />
		<tag k="place" v="locality" />
		<tag k="ssr:stedsnr" v="560192" />
	</node>
	<node lat="64.8211277815852" lon="12.42018889653732" id="-35799">
		<tag k="name" v="Tjuvhola" />
		<tag k="natural" v="valley" />
		<tag k="place" v="locality" />
		<tag k="ssr:stedsnr" v="560194" />
	</node>
	<node lat="64.65825555738702" lon="12.234577773436019" id="-35801">
		<tag k="fixme" v="consider natural=peak for the most distinct mountains in the district" />
		<tag k="name" v="Åengåsen" />
		<tag k="natural" v="hill" />
		<tag k="place" v="locality" />
		<tag k="ssr:stedsnr" v="560578" />
	</node>
	<node lat="64.6700138906927" lon="12.496586107852726" id="-35803">
		<tag k="fixme" v="consider natural=peak for the most distinct mountains in the district" />
		<tag k="name" v="Aunlitlfjellet" />
		<tag k="natural" v="hill" />
		<tag k="place" v="locality" />
		<tag k="ssr:stedsnr" v="560581" />
	</node>
	<node lat="64.54885000306336" lon="12.240824994803086" id="-35805">
		<tag k="alt_name" v="Nonshaugen" />
		<tag k="name" v="Middagshaugen" />
		<tag k="natural" v="hill" />
		<tag k="place" v="locality" />
		<tag k="ssr:stedsnr" v="560735" />
	</node>
	<node lat="64.92258611362932" lon="12.513802785214233" id="-35810">
		<tag k="name" v="Grøtesådalen - Onneåare" />
		<tag k="name:no" v="Grøtesådalen" />
		<tag k="name:sma" v="Onneåare" />
		<tag k="natural" v="valley" />
		<tag k="place" v="locality" />
		<tag k="ssr:stedsnr" v="691753" />
	</node>
	<node lat="64.56506111162888" lon="12.15428888034951" id="-35814">
		<tag k="name" v="Eidsfjellet" />
		<tag k="natural" v="hill" />
		<tag k="place" v="locality" />
		<tag k="ssr:stedsnr" v="574251" />
	</node>
	<node lat="64.70684167056868" lon="12.354586112845347" id="-35815">
		<tag k="name" v="Storkløyva" />
		<tag k="natural" v="valley" />
		<tag k="place" v="locality" />
		<tag k="ssr:stedsnr" v="574445" />
	</node>
	<node lat="64.70554444517545" lon="12.365866657442808" id="-35816">
		<tag k="name" v="Tullupholet" />
		<tag k="place" v="locality" />
		<tag k="ssr:stedsnr" v="574450" />
	</node>
	<node lat="64.62660277475182" lon="12.348552781076215" id="-35819">
		<tag k="name" v="Kjolglia" />
		<tag k="natural" v="slope" />
		<tag k="place" v="locality" />
		<tag k="ssr:stedsnr" v="574501" />
	</node>
	<node lat="64.81844721785546" lon="12.354347228797176" id="-35821">
		<tag k="name" v="Serterfjellholet" />
		<tag k="place" v="locality" />
		<tag k="ssr:stedsnr" v="574595" />
	</node>
	<node lat="64.65785833107016" lon="12.273430547390074" id="-35823">
		<tag k="name" v="Litltuva" />
		<tag k="natural" v="hill" />
		<tag k="place" v="locality" />
		<tag k="ssr:stedsnr" v="575222" />
	</node>
	<node lat="64.69150277372545" lon="12.418616667517275" id="-35826">
		<tag k="name" v="Domma" />
		<tag k="natural" v="hill" />
		<tag k="place" v="locality" />
		<tag k="ssr:stedsnr" v="575615" />
	</node>
	<node lat="64.91016388477055" lon="12.443208332249721" id="-35827">
		<tag k="name" v="Nyheimen" />
		<tag k="place" v="locality" />
		<tag k="ssr:stedsnr" v="575755" />
	</node>
	<node lat="64.85077777427237" lon="12.436955558400598" id="-35828">
		<tag k="name" v="Velthaugen" />
		<tag k="natural" v="hill" />
		<tag k="place" v="locality" />
		<tag k="ssr:stedsnr" v="575758" />
	</node>
	<node lat="64.85586666606227" lon="12.435711104310007" id="-35829">
		<tag k="name" v="Kvernflauget" />
		<tag k="natural" v="hill" />
		<tag k="place" v="locality" />
		<tag k="ssr:stedsnr" v="575762" />
	</node>
	<node lat="64.81245277694836" lon="12.41274721668861" id="-35835">
		<tag k="name" v="Rundhaugen" />
		<tag k="natural" v="hill" />
		<tag k="place" v="locality" />
		<tag k="ssr:stedsnr" v="575857" />
	</node>
	<node lat="64.7186055569466" lon="12.176016673656747" id="-35837">
		<tag k="name" v="Hedemora" />
		<tag k="place" v="locality" />
		<tag k="ssr:stedsnr" v="696136" />
	</node>
	<node lat="64.5553305525366" lon="12.188369453932538" id="-35841">
		<tag k="name" v="Rinnmoen" />
		<tag k="place" v="locality" />
		<tag k="ssr:stedsnr" v="696231" />
	</node>
	<node lat="64.56582499585834" lon="12.17676943693929" id="-35842">
		<tag k="name" v="Søkkenberget" />
		<tag k="natural" v="hill" />
		<tag k="place" v="locality" />
		<tag k="ssr:stedsnr" v="696232" />
	</node>
	<node lat="64.65776388521705" lon="12.251727771159153" id="-35843">
		<tag k="fixme" v="consider natural=peak for the most distinct mountains in the district" />
		<tag k="name" v="Nordbergåsen" />
		<tag k="natural" v="hill" />
		<tag k="place" v="locality" />
		<tag k="ssr:stedsnr" v="696236" />
	</node>
	<node lat="64.66785277706124" lon="12.21501388231749" id="-35844">
		<tag k="name" v="Snauhaugåsen" />
		<tag k="natural" v="hill" />
		<tag k="place" v="locality" />
		<tag k="ssr:stedsnr" v="696237" />
	</node>
	<node lat="64.60190555427616" lon="12.209099993122557" id="-35846">
		<tag k="name" v="Kvitberget" />
		<tag k="natural" v="hill" />
		<tag k="place" v="locality" />
		<tag k="ssr:stedsnr" v="696249" />
	</node>
	<node lat="64.62430277481977" lon="12.409002770951737" id="-35850">
		<tag k="name" v="Durmållia" />
		<tag k="natural" v="slope" />
		<tag k="place" v="locality" />
		<tag k="ssr:stedsnr" v="696491" />
	</node>
	<node lat="64.75978055889426" lon="12.277691661468703" id="-35851">
		<tag k="name" v="Grønnkleppholet" />
		<tag k="natural" v="valley" />
		<tag k="place" v="locality" />
		<tag k="ssr:stedsnr" v="696458" />
	</node>
	<node lat="64.64606388645214" lon="12.380044436491467" id="-35853">
		<tag k="name" v="Hopmyrdalen" />
		<tag k="natural" v="valley" />
		<tag k="place" v="locality" />
		<tag k="ssr:stedsnr" v="696524" />
	</node>
	<node lat="64.88469722176795" lon="12.350500005661182" id="-35855">
		<tag k="name" v="Langfjellhaugen" />
		<tag k="natural" v="hill" />
		<tag k="place" v="locality" />
		<tag k="ssr:stedsnr" v="696535" />
	</node>
	<node lat="64.80779166695177" lon="12.377905561426301" id="-35857">
		<tag k="name" v="Hallan" />
		<tag k="natural" v="slope" />
		<tag k="place" v="locality" />
		<tag k="ssr:stedsnr" v="696540" />
	</node>
	<node lat="64.81147221870621" lon="12.37999999553438" id="-35858">
		<tag k="name" v="Litlstakkenget" />
		<tag k="place" v="locality" />
		<tag k="ssr:stedsnr" v="696541" />
	</node>
	<node lat="64.82425555999718" lon="12.373830547666747" id="-35859">
		<tag k="name" v="Setermoen" />
		<tag k="place" v="locality" />
		<tag k="ssr:stedsnr" v="696554" />
	</node>
	<node lat="64.8314500042104" lon="12.399558324367101" id="-35860">
		<tag k="name" v="Kviltmoan" />
		<tag k="place" v="locality" />
		<tag k="ssr:stedsnr" v="696555" />
	</node>
	<node lat="64.80246388800971" lon="12.353030549763758" id="-35862">
		<tag k="name" v="Småengan" />
		<tag k="place" v="locality" />
		<tag k="ssr:stedsnr" v="696620" />
	</node>
	<node lat="64.78668333425378" lon="12.411269441628871" id="-35867">
		<tag k="name" v="Litlmoen" />
		<tag k="place" v="locality" />
		<tag k="ssr:stedsnr" v="696646" />
	</node>
	<node lat="64.7939555593423" lon="12.43065555487022" id="-35868">
		<tag k="name" v="Magnusstranda" />
		<tag k="place" v="locality" />
		<tag k="ssr:stedsnr" v="696648" />
	</node>
	<node lat="64.90388333669956" lon="12.341216662371062" id="-35869">
		<tag k="fixme" v="consider natural=peak for the most distinct mountains in the district" />
		<tag k="name" v="Magnushyttåsen" />
		<tag k="natural" v="hill" />
		<tag k="place" v="locality" />
		<tag k="ssr:stedsnr" v="696733" />
	</node>
	<node lat="64.90052221977263" lon="12.391741664571844" id="-35871">
		<tag k="name" v="Keipskardet" />
		<tag k="natural" v="valley" />
		<tag k="place" v="locality" />
		<tag k="ssr:stedsnr" v="696737" />
	</node>
	<node lat="64.91034166442633" lon="12.432763881484505" id="-35873">
		<tag k="name" v="Bjørnbakken" />
		<tag k="place" v="locality" />
		<tag k="ssr:stedsnr" v="696785" />
	</node>
	<node lat="64.66192222099794" lon="12.137605546957808" id="-35877">
		<tag k="name" v="Taklia" />
		<tag k="natural" v="slope" />
		<tag k="place" v="locality" />
		<tag k="ssr:stedsnr" v="592919" />
	</node>
	<node lat="64.65589999561968" lon="12.120327785337516" id="-35878">
		<tag k="name" v="Skifteshaugen" />
		<tag k="natural" v="hill" />
		<tag k="place" v="locality" />
		<tag k="ssr:stedsnr" v="592923" />
	</node>
	<node lat="64.65846389260342" lon="12.304674997730482" id="-35883">
		<tag k="name" v="Langmyrhaugen" />
		<tag k="natural" v="hill" />
		<tag k="place" v="locality" />
		<tag k="ssr:stedsnr" v="621623" />
	</node>
	<node lat="64.92459721871468" lon="12.32271111504134" id="-35887">
		<tag k="name" v="Litlmodalen" />
		<tag k="natural" v="valley" />
		<tag k="place" v="locality" />
		<tag k="ssr:stedsnr" v="621803" />
	</node>
	<node lat="64.89398333058043" lon="12.357380564594726" id="-35890">
		<tag k="name" v="Langfjelldalen" />
		<tag k="natural" v="valley" />
		<tag k="place" v="locality" />
		<tag k="ssr:stedsnr" v="621817" />
	</node>
	<node lat="64.73368888740966" lon="12.415875008591502" id="-35893">
		<tag k="name" v="Prekstolen" />
		<tag k="place" v="locality" />
		<tag k="ssr:stedsnr" v="621910" />
	</node>
	<node lat="64.5536527746455" lon="12.253094434112699" id="-35898">
		<tag k="name" v="Middagsdalen" />
		<tag k="natural" v="valley" />
		<tag k="place" v="locality" />
		<tag k="ssr:stedsnr" v="634186" />
	</node>
	<node lat="64.59512778091658" lon="12.101736105156485" id="-35901">
		<tag k="fixme" v="consider natural=peak for the most distinct mountains in the district" />
		<tag k="name" v="Svardalsmarka" />
		<tag k="natural" v="hill" />
		<tag k="place" v="locality" />
		<tag k="ssr:stedsnr" v="634101" />
	</node>
	<node lat="64.54486666792893" lon="12.171566672037741" id="-35903">
		<tag k="name" v="Storhaugen" />
		<tag k="natural" v="hill" />
		<tag k="place" v="locality" />
		<tag k="ssr:stedsnr" v="634221" />
	</node>
	<node lat="64.79416944739788" lon="12.377069441178811" id="-35906">
		<tag k="name" v="Skardet" />
		<tag k="natural" v="valley" />
		<tag k="place" v="locality" />
		<tag k="ssr:stedsnr" v="634633" />
	</node>
	<node lat="64.66241111215572" lon="12.359083332208531" id="-35908">
		<tag k="name" v="Kvitberga" />
		<tag k="natural" v="hill" />
		<tag k="place" v="locality" />
		<tag k="ssr:stedsnr" v="634527" />
	</node>
	<node lat="64.66710555346903" lon="12.37811666937698" id="-35909">
		<tag k="name" v="Seterlia" />
		<tag k="natural" v="slope" />
		<tag k="place" v="locality" />
		<tag k="ssr:stedsnr" v="634529" />
	</node>
	<node lat="64.82817777534078" lon="12.39980555205629" id="-35911">
		<tag k="name" v="Neppmoan" />
		<tag k="place" v="locality" />
		<tag k="ssr:stedsnr" v="634582" />
	</node>
	<node lat="64.577333330534" lon="12.327072228817833" id="-35915">
		<tag k="name" v="Heiaberget" />
		<tag k="natural" v="hill" />
		<tag k="place" v="locality" />
		<tag k="ssr:stedsnr" v="635304" />
	</node>
	<node lat="64.88583055179953" lon="12.475258341847214" id="-35916">
		<tag k="name" v="Kovaberget" />
		<tag k="natural" v="hill" />
		<tag k="place" v="locality" />
		<tag k="ssr:stedsnr" v="635809" />
	</node>
	<node lat="64.90337221820069" lon="12.51483888572565" id="-35917">
		<tag k="name" v="Kverntjønnhøgda" />
		<tag k="natural" v="hill" />
		<tag k="place" v="locality" />
		<tag k="ssr:stedsnr" v="635793" />
	</node>
	<node lat="64.90942777354678" lon="12.516749998977724" id="-35918">
		<tag k="fixme" v="consider natural=peak for the most distinct mountains in the district" />
		<tag k="name" v="Kverntjønnfjellet" />
		<tag k="natural" v="hill" />
		<tag k="place" v="locality" />
		<tag k="ssr:stedsnr" v="635795" />
	</node>
	<node lat="64.67926110889523" lon="12.509688894736183" id="-35922">
		<tag k="name" v="Falla" />
		<tag k="natural" v="slope" />
		<tag k="place" v="locality" />
		<tag k="ssr:stedsnr" v="654801" />
	</node>
	<node lat="64.82789166995939" lon="12.528108332443693" id="-35923">
		<tag k="name" v="Austerdalskløyva" />
		<tag k="natural" v="slope" />
		<tag k="place" v="locality" />
		<tag k="ssr:stedsnr" v="654988" />
	</node>
	<node lat="64.82103888849478" lon="12.47837778689447" id="-35924">
		<tag k="name" v="Storforodomma" />
		<tag k="natural" v="slope" />
		<tag k="place" v="locality" />
		<tag k="ssr:stedsnr" v="654989" />
	</node>
	<node lat="64.74843333194052" lon="12.42400833936435" id="-35926">
		<tag k="name" v="Oleengåsen" />
		<tag k="natural" v="hill" />
		<tag k="place" v="locality" />
		<tag k="ssr:stedsnr" v="654993" />
	</node>
	<node lat="64.60635000152827" lon="12.329680546549676" id="-35928">
		<tag k="fixme" v="consider natural=peak for the most distinct mountains in the district" />
		<tag k="name" v="Storåsen" />
		<tag k="natural" v="hill" />
		<tag k="place" v="locality" />
		<tag k="ssr:stedsnr" v="682219" />
	</node>
	<node lat="64.81589166994434" lon="12.478586118058564" id="-35932">
		<tag k="name" v="Foeltenvuemie" />
		<tag k="name:sma" v="Foeltenvuemie" />
		<tag k="natural" v="slope" />
		<tag k="old_name:sma" v="Foeltenvuenmie" />
		<tag k="place" v="locality" />
		<tag k="ssr:stedsnr" v="682236" />
	</node>
	<node lat="64.59393888935207" lon="12.30875555078517" id="-35935">
		<tag k="fixme" v="consider natural=peak for the most distinct mountains in the district" />
		<tag k="name" v="Strupengåsen" />
		<tag k="natural" v="hill" />
		<tag k="place" v="locality" />
		<tag k="ssr:stedsnr" v="682615" />
	</node>
	<node lat="64.60170000056993" lon="12.37084443722519" id="-35936">
		<tag k="name" v="Brynntjønnklumpen" />
		<tag k="natural" v="hill" />
		<tag k="place" v="locality" />
		<tag k="ssr:stedsnr" v="682619" />
	</node>
	<node lat="64.67646111461973" lon="12.471444439084909" id="-35937">
		<tag k="fixme" v="consider natural=peak for the most distinct mountains in the district" />
		<tag k="name" v="Råfjellet" />
		<tag k="natural" v="hill" />
		<tag k="place" v="locality" />
		<tag k="ssr:stedsnr" v="682625" />
	</node>
	<node lat="64.66069999607508" lon="12.064155562491484" id="-35942">
		<tag k="name" v="Nordvindsholet" />
		<tag k="natural" v="valley" />
		<tag k="place" v="locality" />
		<tag k="ssr:stedsnr" v="682863" />
	</node>
	<node lat="64.93863055169417" lon="12.515038878123894" id="-35943">
		<tag k="fixme" v="consider natural=peak for the most distinct mountains in the district" />
		<tag k="name" v="Aunfjellet" />
		<tag k="natural" v="hill" />
		<tag k="place" v="locality" />
		<tag k="ssr:stedsnr" v="682873" />
	</node>
	<node lat="64.72045555895903" lon="12.38678334243509" id="-35945">
		<tag k="name" v="Grønlia" />
		<tag k="natural" v="slope" />
		<tag k="place" v="locality" />
		<tag k="ssr:stedsnr" v="682923" />
	</node>
	<node lat="64.61699167051361" lon="12.198275005238871" id="-35947">
		<tag k="fixme" v="consider natural=peak for the most distinct mountains in the district" />
		<tag k="name" v="Seteråsen" />
		<tag k="natural" v="hill" />
		<tag k="place" v="locality" />
		<tag k="ssr:stedsnr" v="696214" />
	</node>
	<node lat="64.58682499663394" lon="12.249013890335988" id="-35948">
		<tag k="name" v="Ilskardhammaren" />
		<tag k="natural" v="hill" />
		<tag k="place" v="locality" />
		<tag k="ssr:stedsnr" v="696221" />
	</node>
	<node lat="64.60691666780757" lon="12.141408340888338" id="-35949">
		<tag k="name" v="Grøssjøhaugan" />
		<tag k="natural" v="hill" />
		<tag k="place" v="locality" />
		<tag k="ssr:stedsnr" v="696122" />
	</node>
	<node lat="64.5677805574343" lon="12.325591661908602" id="-35951">
		<tag k="name" v="Hjartåslia" />
		<tag k="natural" v="slope" />
		<tag k="place" v="locality" />
		<tag k="ssr:stedsnr" v="696304" />
	</node>
	<node lat="64.55943888541326" lon="12.293683329584287" id="-35952">
		<tag k="fixme" v="consider natural=peak for the most distinct mountains in the district" />
		<tag k="name" v="Nyfjellåsen" />
		<tag k="natural" v="hill" />
		<tag k="place" v="locality" />
		<tag k="ssr:stedsnr" v="696305" />
	</node>
	<node lat="64.75216110738879" lon="12.28551943410025" id="-35956">
		<tag k="name" v="Seterdalen" />
		<tag k="natural" v="valley" />
		<tag k="place" v="locality" />
		<tag k="ssr:stedsnr" v="696464" />
	</node>
	<node lat="64.75457500016205" lon="12.394480559611182" id="-35959">
		<tag k="fixme" v="consider natural=peak for the most distinct mountains in the district" />
		<tag k="name" v="Trasaliåsen" />
		<tag k="natural" v="hill" />
		<tag k="place" v="locality" />
		<tag k="ssr:stedsnr" v="696477" />
	</node>
	<node lat="64.58918332985765" lon="12.367772215811883" id="-35963">
		<tag k="name" v="Loddoenghaugan" />
		<tag k="natural" v="hill" />
		<tag k="place" v="locality" />
		<tag k="ssr:stedsnr" v="696503" />
	</node>
	<node lat="64.65636944037995" lon="12.367458333469548" id="-35964">
		<tag k="name" v="Sørhevlan" />
		<tag k="natural" v="hill" />
		<tag k="place" v="locality" />
		<tag k="ssr:stedsnr" v="696508" />
	</node>
	<node lat="64.86106389237553" lon="12.416577771849424" id="-35967">
		<tag k="name" v="Rundhaugen" />
		<tag k="natural" v="hill" />
		<tag k="place" v="locality" />
		<tag k="ssr:stedsnr" v="696804" />
	</node>
	<node lat="64.87423055567932" lon="12.417705549877752" id="-35968">
		<tag k="fixme" v="consider natural=peak for the most distinct mountains in the district" />
		<tag k="name" v="Tyvedåsen" />
		<tag k="natural" v="hill" />
		<tag k="place" v="locality" />
		<tag k="ssr:stedsnr" v="696869" />
	</node>
	<node lat="64.80910277922207" lon="12.461216676984012" id="-35969">
		<tag k="name" v="Forodolla" />
		<tag k="place" v="locality" />
		<tag k="ssr:stedsnr" v="696872" />
	</node>
	<node lat="64.88195833010411" lon="12.461583333747754" id="-35970">
		<tag k="name" v="Koven" />
		<tag k="place" v="locality" />
		<tag k="ssr:stedsnr" v="696882" />
	</node>
	<node lat="64.70255555194768" lon="12.471188880425306" id="-35977">
		<tag k="name" v="Nyfjellet" />
		<tag k="natural" v="slope" />
		<tag k="place" v="locality" />
		<tag k="ssr:stedsnr" v="715940" />
	</node>
	<node lat="64.82059722130704" lon="12.314711102470687" id="-35978">
		<tag k="name" v="Rundhaugen" />
		<tag k="natural" v="hill" />
		<tag k="place" v="locality" />
		<tag k="ssr:stedsnr" v="716576" />
	</node>
	<node lat="64.74329167038962" lon="12.427349993693557" id="-35979">
		<tag k="name" v="Snøskaveln" />
		<tag k="natural" v="cliff" />
		<tag k="ssr:stedsnr" v="898952" />
	</node>
	<node lat="64.75233055405536" lon="12.438741674747991" id="-35980">
		<tag k="fixme" v="consider natural=peak for the most distinct mountains in the district" />
		<tag k="name" v="Rabbåsen" />
		<tag k="natural" v="hill" />
		<tag k="place" v="locality" />
		<tag k="ssr:stedsnr" v="898992" />
	</node>
	<node lat="64.86294999708647" lon="12.27451388417385" id="-35985">
		<tag k="fixme" v="consider natural=peak for the most distinct mountains in the district" />
		<tag k="name" v="Kjøringvassfjellet" />
		<tag k="natural" v="hill" />
		<tag k="place" v="locality" />
		<tag k="ssr:stedsnr" v="742737" />
	</node>
	<node lat="64.64621666343814" lon="12.15713888110505" id="-35987">
		<tag k="name" v="Hagstrømdalen" />
		<tag k="natural" v="valley" />
		<tag k="place" v="locality" />
		<tag k="ssr:stedsnr" v="742836" />
	</node>
	<node lat="64.69165277817679" lon="12.44411389847743" id="-35989">
		<tag k="name" v="Besdalen" />
		<tag k="natural" v="valley" />
		<tag k="place" v="locality" />
		<tag k="ssr:stedsnr" v="742931" />
	</node>
	<node lat="64.68707777476187" lon="12.445358327263545" id="-35990">
		<tag k="name" v="Taklia" />
		<tag k="natural" v="slope" />
		<tag k="place" v="locality" />
		<tag k="ssr:stedsnr" v="742933" />
	</node>
	<node lat="64.70349444684489" lon="12.188461107407823" id="-35992">
		<tag k="fixme" v="consider natural=peak for the most distinct mountains in the district" />
		<tag k="name" v="Berrfjellet" />
		<tag k="natural" v="hill" />
		<tag k="place" v="locality" />
		<tag k="ssr:stedsnr" v="743214" />
	</node>
	<node lat="64.64139999650789" lon="12.236475006930537" id="-35993">
		<tag k="name" v="Groftlia" />
		<tag k="natural" v="slope" />
		<tag k="place" v="locality" />
		<tag k="ssr:stedsnr" v="743635" />
	</node>
	<node lat="64.67842500136241" lon="12.161874997408132" id="-35994">
		<tag k="alt_name" v="Eidsålia" />
		<tag k="name" v="Eidsåliin" />
		<tag k="natural" v="slope" />
		<tag k="place" v="locality" />
		<tag k="ssr:stedsnr" v="743813" />
	</node>
	<node lat="64.60741111315515" lon="12.124694452935826" id="-35998">
		<tag k="fixme" v="consider natural=peak for the most distinct mountains in the district" />
		<tag k="name" v="Langvassåsen" />
		<tag k="natural" v="hill" />
		<tag k="place" v="locality" />
		<tag k="ssr:stedsnr" v="756104" />
	</node>
	<node lat="64.58390277952036" lon="12.11092221239735" id="-36001">
		<tag k="name" v="Pyntfjellet" />
		<tag k="natural" v="hill" />
		<tag k="place" v="locality" />
		<tag k="ssr:stedsnr" v="756059" />
	</node>
	<node lat="64.58821944350484" lon="12.113397216727122" id="-36002">
		<tag k="name" v="Grovdalen" />
		<tag k="natural" v="valley" />
		<tag k="place" v="locality" />
		<tag k="ssr:stedsnr" v="756096" />
	</node>
	<node lat="64.56803333660446" lon="12.242652783281285" id="-36005">
		<tag k="fixme" v="consider natural=peak for the most distinct mountains in the district" />
		<tag k="name" v="Langmyråsen" />
		<tag k="natural" v="hill" />
		<tag k="place" v="locality" />
		<tag k="ssr:stedsnr" v="756214" />
	</node>
	<node lat="64.65247499703341" lon="12.411988884894928" id="-36006">
		<tag k="name" v="Styggdalen" />
		<tag k="natural" v="valley" />
		<tag k="place" v="locality" />
		<tag k="ssr:stedsnr" v="756506" />
	</node>
	<node lat="64.82258333317311" lon="12.399975003552516" id="-36008">
		<tag k="name" v="Nepphaugan" />
		<tag k="natural" v="hill" />
		<tag k="place" v="locality" />
		<tag k="ssr:stedsnr" v="756548" />
	</node>
	<node lat="64.82869999957575" lon="12.38862499133929" id="-36010">
		<tag k="name" v="Kløyva" />
		<tag k="natural" v="valley" />
		<tag k="place" v="locality" />
		<tag k="ssr:stedsnr" v="756556" />
	</node>
	<node lat="64.7580861145383" lon="12.357419436180429" id="-36012">
		<tag k="name" v="Bonkaheia" />
		<tag k="natural" v="hill" />
		<tag k="place" v="locality" />
		<tag k="ssr:stedsnr" v="756448" />
	</node>
	<node lat="64.75638611321357" lon="12.370455549230256" id="-36013">
		<tag k="name" v="Jonsokvarden" />
		<tag k="place" v="locality" />
		<tag k="ssr:stedsnr" v="756450" />
	</node>
	<node lat="64.77765000245836" lon="12.364991665324052" id="-36017">
		<tag k="name" v="Bjørnamoen" />
		<tag k="place" v="locality" />
		<tag k="ssr:stedsnr" v="756607" />
	</node>
	<node lat="64.76903055173764" lon="12.319572227425908" id="-36018">
		<tag k="fixme" v="consider natural=peak for the most distinct mountains in the district" />
		<tag k="name" v="Skavåsen" />
		<tag k="natural" v="hill" />
		<tag k="place" v="locality" />
		<tag k="ssr:stedsnr" v="756615" />
	</node>
	<node lat="64.77364444257528" lon="12.299680564047508" id="-36019">
		<tag k="name" v="Pålslettstigen" />
		<tag k="place" v="locality" />
		<tag k="ssr:stedsnr" v="756618" />
	</node>
	<node lat="64.79075833650309" lon="12.390786119394686" id="-36020">
		<tag k="name" v="Tortholet" />
		<tag k="place" v="locality" />
		<tag k="ssr:stedsnr" v="756621" />
	</node>
	<node lat="64.62803055196137" lon="12.14730000699805" id="-36024">
		<tag k="fixme" v="consider natural=peak for the most distinct mountains in the district" />
		<tag k="name" v="Drageidåsen" />
		<tag k="natural" v="hill" />
		<tag k="place" v="locality" />
		<tag k="ssr:stedsnr" v="757201" />
	</node>
	<node lat="64.79475833086632" lon="12.409974994498414" id="-36028">
		<tag k="name" v="Stokkdalen" />
		<tag k="natural" v="valley" />
		<tag k="place" v="locality" />
		<tag k="ssr:stedsnr" v="757620" />
	</node>
	<node lat="64.83967499712145" lon="12.42075834234499" id="-36030">
		<tag k="name" v="Seternesa" />
		<tag k="place" v="locality" />
		<tag k="ssr:stedsnr" v="757847" />
	</node>
	<node lat="64.88358888587909" lon="12.418227777450308" id="-36032">
		<tag k="fixme" v="consider natural=peak for the most distinct mountains in the district" />
		<tag k="name" v="Kongsmoåsen" />
		<tag k="natural" v="hill" />
		<tag k="place" v="locality" />
		<tag k="ssr:stedsnr" v="757854" />
	</node>
	<node lat="64.87913888781078" lon="12.460755546954108" id="-36033">
		<tag k="name" v="Auritsfjellet" />
		<tag k="natural" v="hill" />
		<tag k="place" v="locality" />
		<tag k="ssr:stedsnr" v="757860" />
	</node>
	<node lat="64.81658333411332" lon="12.423527768577669" id="-36034">
		<tag k="name" v="Hauktrappen" />
		<tag k="natural" v="hill" />
		<tag k="place" v="locality" />
		<tag k="ssr:stedsnr" v="757862" />
	</node>
	<node lat="64.59697499757385" lon="12.241616673906215" id="-36036">
		<tag k="fixme" v="consider natural=peak for the most distinct mountains in the district" />
		<tag k="name" v="Hovåsen" />
		<tag k="natural" v="hill" />
		<tag k="place" v="locality" />
		<tag k="ssr:stedsnr" v="803566" />
	</node>
	<node lat="64.57004722066837" lon="12.131936114392962" id="-36048">
		<tag k="name" v="Tjønndalen" />
		<tag k="natural" v="valley" />
		<tag k="place" v="locality" />
		<tag k="ssr:stedsnr" v="817079" />
	</node>
	<node lat="64.55671944751711" lon="12.236677779424223" id="-36050">
		<tag k="name" v="Nonshaugaksla" />
		<tag k="place" v="locality" />
		<tag k="ssr:stedsnr" v="817205" />
	</node>
	<node lat="64.81372777834996" lon="12.402983330519717" id="-36053">
		<tag k="name" v="Tjuvhola" />
		<tag k="place" v="locality" />
		<tag k="ssr:stedsnr" v="817527" />
	</node>
	<node lat="64.77743055982067" lon="12.35942777331438" id="-36057">
		<tag k="name" v="Seterdalen" />
		<tag k="natural" v="valley" />
		<tag k="place" v="locality" />
		<tag k="ssr:stedsnr" v="817582" />
	</node>
	<node lat="64.72385000056215" lon="12.376158333380646" id="-36059">
		<tag k="name" v="Kvernmyrskogan" />
		<tag k="natural" v="wood" />
		<tag k="ssr:stedsnr" v="817619" />
	</node>
	<node lat="64.73129166583904" lon="12.375947232011942" id="-36060">
		<tag k="name" v="Stampmyrhaugen" />
		<tag k="natural" v="hill" />
		<tag k="place" v="locality" />
		<tag k="ssr:stedsnr" v="817620" />
	</node>
	<node lat="64.79470555747157" lon="12.36255832609174" id="-36062">
		<tag k="name" v="Olamoen" />
		<tag k="place" v="locality" />
		<tag k="ssr:stedsnr" v="817605" />
	</node>
	<node lat="64.86136388608944" lon="12.369033325944292" id="-36064">
		<tag k="name" v="Bjørtjønnlia" />
		<tag k="natural" v="slope" />
		<tag k="place" v="locality" />
		<tag k="ssr:stedsnr" v="817768" />
	</node>
	<node lat="64.5712722227444" lon="12.174744434703788" id="-36065">
		<tag k="name" v="Barnesdalen" />
		<tag k="natural" v="valley" />
		<tag k="place" v="locality" />
		<tag k="ssr:stedsnr" v="818217" />
	</node>
	<node lat="64.59669722166736" lon="12.271947223577952" id="-36067">
		<tag k="name" v="Ølløvhøgda" />
		<tag k="natural" v="hill" />
		<tag k="place" v="locality" />
		<tag k="ssr:stedsnr" v="822630" />
	</node>
	<node lat="64.75117777726713" lon="12.417666665850431" id="-36068">
		<tag k="name" v="Litltreboshaugen" />
		<tag k="natural" v="hill" />
		<tag k="place" v="locality" />
		<tag k="ssr:stedsnr" v="837989" />
	</node>
	<node lat="64.65993333288769" lon="12.193055545041366" id="-36069">
		<tag k="name" v="Bjørkengan" />
		<tag k="place" v="locality" />
		<tag k="ssr:stedsnr" v="838928" />
	</node>
	<node lat="64.79681388955638" lon="12.367800007960204" id="-36072">
		<tag k="name" v="Olamoen" />
		<tag k="place" v="locality" />
		<tag k="ssr:stedsnr" v="925200" />
	</node>
	<node lat="64.80592500080363" lon="12.340675002637283" id="-36074">
		<tag k="fixme" v="consider natural=peak for the most distinct mountains in the district" />
		<tag k="name" v="Skogaåsen" />
		<tag k="natural" v="hill" />
		<tag k="place" v="locality" />
		<tag k="ssr:stedsnr" v="925235" />
	</node>
	<node lat="64.77769722046598" lon="12.38104165765151" id="-36076">
		<tag k="name" v="Finntroppin - Jahtedh" />
		<tag k="name:no" v="Finntroppin" />
		<tag k="name:sma" v="Jahtedh" />
		<tag k="natural" v="slope" />
		<tag k="place" v="locality" />
		<tag k="ssr:stedsnr" v="925276" />
	</node>
	<node lat="64.67559999799236" lon="12.277019440326265" id="-36084">
		<tag k="name" v="Nonshaugen" />
		<tag k="natural" v="hill" />
		<tag k="place" v="locality" />
		<tag k="ssr:stedsnr" v="925619" />
	</node>
	<node lat="64.63680000062801" lon="12.229930555609739" id="-36087">
		<tag k="name" v="Selengan" />
		<tag k="natural" v="slope" />
		<tag k="place" v="locality" />
		<tag k="ssr:stedsnr" v="925668" />
	</node>
	<node lat="64.65026667003019" lon="12.409627770297268" id="-36089">
		<tag k="name" v="Råbesdalen" />
		<tag k="natural" v="valley" />
		<tag k="place" v="locality" />
		<tag k="ssr:stedsnr" v="925654" />
	</node>
	<node lat="64.60837777683159" lon="12.111174993168028" id="-36098">
		<tag k="alt_name" v="Bjørkhølåsen" />
		<tag k="fixme" v="consider natural=peak for the most distinct mountains in the district" />
		<tag k="name" v="Bjørkåsen" />
		<tag k="natural" v="hill" />
		<tag k="place" v="locality" />
		<tag k="ssr:stedsnr" v="925798" />
	</node>
	<node lat="64.62155833577735" lon="12.053916667947423" id="-36100">
		<tag k="name" v="Storjakophaugen" />
		<tag k="natural" v="hill" />
		<tag k="place" v="locality" />
		<tag k="ssr:stedsnr" v="925901" />
	</node>
	<node lat="64.68820277825088" lon="12.298775000749039" id="-36103">
		<tag k="fixme" v="consider natural=peak for the most distinct mountains in the district" />
		<tag k="name" v="Aksla" />
		<tag k="natural" v="hill" />
		<tag k="place" v="locality" />
		<tag k="ssr:stedsnr" v="925946" />
	</node>
	<node lat="64.91655277697024" lon="12.321505555654685" id="-36107">
		<tag k="name" v="Gløtten" />
		<tag k="natural" v="hill" />
		<tag k="place" v="locality" />
		<tag k="ssr:stedsnr" v="877303" />
	</node>
	<node lat="64.73616944281986" lon="12.210983337531168" id="-36108">
		<tag k="fixme" v="consider natural=peak for the most distinct mountains in the district" />
		<tag k="name" v="Svorttjønnfjellet" />
		<tag k="natural" v="hill" />
		<tag k="place" v="locality" />
		<tag k="ssr:stedsnr" v="878152" />
	</node>
	<node lat="64.56006389136796" lon="12.267822218391826" id="-36111">
		<tag k="name" v="Svartmarka" />
		<tag k="natural" v="wood" />
		<tag k="ssr:stedsnr" v="878221" />
	</node>
	<node lat="64.57927222242878" lon="12.265605546011072" id="-36112">
		<tag k="name" v="Smistabben" />
		<tag k="natural" v="hill" />
		<tag k="place" v="locality" />
		<tag k="ssr:stedsnr" v="878229" />
	</node>
	<node lat="64.60993055366703" lon="12.180152771345337" id="-36113">
		<tag k="fixme" v="consider natural=peak for the most distinct mountains in the district" />
		<tag k="name" v="Styggåsen" />
		<tag k="natural" v="hill" />
		<tag k="place" v="locality" />
		<tag k="ssr:stedsnr" v="878261" />
	</node>
	<node lat="64.67552777672448" lon="12.347230552273789" id="-36114">
		<tag k="name" v="Mjøsunddalen" />
		<tag k="natural" v="valley" />
		<tag k="place" v="locality" />
		<tag k="ssr:stedsnr" v="878505" />
	</node>
	<node lat="64.75868611179466" lon="12.352483330402608" id="-36115">
		<tag k="fixme" v="consider natural=peak for the most distinct mountains in the district" />
		<tag k="name" v="Ellingåsen" />
		<tag k="natural" v="hill" />
		<tag k="place" v="locality" />
		<tag k="ssr:stedsnr" v="878511" />
	</node>
	<node lat="64.61484722474303" lon="12.412127775794835" id="-36119">
		<tag k="name" v="Svahylla" />
		<tag k="natural" v="hill" />
		<tag k="place" v="locality" />
		<tag k="ssr:stedsnr" v="878526" />
	</node>
	<node lat="64.67069167126967" lon="12.376224991430536" id="-36120">
		<tag k="name" v="Leikhaugen" />
		<tag k="natural" v="hill" />
		<tag k="place" v="locality" />
		<tag k="ssr:stedsnr" v="878551" />
	</node>
	<node lat="64.65707499800651" lon="12.343952769161445" id="-36121">
		<tag k="name" v="Råmoen" />
		<tag k="place" v="locality" />
		<tag k="ssr:stedsnr" v="878553" />
	</node>
	<node lat="64.81975555354269" lon="12.390016672765846" id="-36123">
		<tag k="name" v="Småstakkenga" />
		<tag k="place" v="locality" />
		<tag k="ssr:stedsnr" v="878602" />
	</node>
	<node lat="64.71558889305875" lon="12.364061101208174" id="-36125">
		<tag k="name" v="Setran" />
		<tag k="place" v="locality" />
		<tag k="ssr:stedsnr" v="878460" />
	</node>
	<node lat="64.82904444527672" lon="12.370394442655353" id="-36127">
		<tag k="name" v="Mattiasholet" />
		<tag k="place" v="locality" />
		<tag k="ssr:stedsnr" v="878608" />
	</node>
	<node lat="64.84546389088509" lon="12.37425833596613" id="-36128">
		<tag k="name" v="Skarvlia" />
		<tag k="natural" v="slope" />
		<tag k="place" v="locality" />
		<tag k="ssr:stedsnr" v="878618" />
	</node>
	<node lat="64.78981388899139" lon="12.379097216797847" id="-36129">
		<tag k="name" v="Soleivollholet" />
		<tag k="natural" v="valley" />
		<tag k="place" v="locality" />
		<tag k="ssr:stedsnr" v="878651" />
	</node>
	<node lat="64.74291944210411" lon="12.401830548444837" id="-36130">
		<tag k="name" v="Storlia" />
		<tag k="natural" v="slope" />
		<tag k="place" v="locality" />
		<tag k="ssr:stedsnr" v="878666" />
	</node>
	<node lat="64.86628888594197" lon="12.367549991126497" id="-36132">
		<tag k="name" v="Nordtjønnlia" />
		<tag k="natural" v="slope" />
		<tag k="place" v="locality" />
		<tag k="ssr:stedsnr" v="878752" />
	</node>
	<node lat="64.69158055497405" lon="12.434441671375648" id="-36134">
		<tag k="name" v="Innerbesdalen" />
		<tag k="natural" v="valley" />
		<tag k="place" v="locality" />
		<tag k="ssr:stedsnr" v="879606" />
	</node>
	<node lat="64.86626667076442" lon="12.448633332408823" id="-36138">
		<tag k="name" v="Strontvollan" />
		<tag k="place" v="locality" />
		<tag k="ssr:stedsnr" v="879815" />
	</node>
	<node lat="64.60874444239863" lon="12.221652780954821" id="-36140">
		<tag k="fixme" v="consider natural=peak for the most distinct mountains in the district" />
		<tag k="name" v="Valåsen" />
		<tag k="natural" v="hill" />
		<tag k="place" v="locality" />
		<tag k="ssr:stedsnr" v="883651" />
	</node>
	<node lat="64.59506666823548" lon="12.266719436457683" id="-36141">
		<tag k="name" v="Middagshaugen" />
		<tag k="natural" v="hill" />
		<tag k="place" v="locality" />
		<tag k="ssr:stedsnr" v="883654" />
	</node>
	<node lat="64.83269722473555" lon="12.33853055737171" id="-36144">
		<tag k="name" v="Krålia" />
		<tag k="natural" v="slope" />
		<tag k="place" v="locality" />
		<tag k="ssr:stedsnr" v="898569" />
	</node>
	<node lat="64.70915000302233" lon="12.187455546701287" id="-36145">
		<tag k="name" v="Litl-Salomonholet" />
		<tag k="natural" v="valley" />
		<tag k="place" v="locality" />
		<tag k="ssr:stedsnr" v="898868" />
	</node>
	<node lat="64.60922777926875" lon="12.184130545321771" id="-36148">
		<tag k="name" v="Himmelriket" />
		<tag k="natural" v="slope" />
		<tag k="place" v="locality" />
		<tag k="ssr:stedsnr" v="925805" />
	</node>
	<node lat="64.88330277339453" lon="12.37661111675481" id="-36149">
		<tag k="alt_name" v="Jofinnhaugan" />
		<tag k="name" v="Jofinnhaugen" />
		<tag k="natural" v="hill" />
		<tag k="place" v="locality" />
		<tag k="ssr:stedsnr" v="925811" />
	</node>
	<node lat="64.63794999589815" lon="12.068525007085833" id="-36153">
		<tag k="name" v="Vikadalen" />
		<tag k="natural" v="valley" />
		<tag k="place" v="locality" />
		<tag k="ssr:stedsnr" v="925884" />
	</node>
	<node lat="64.73868333441378" lon="12.256219434269475" id="-36154">
		<tag k="alt_name" v="Tverråhaugen" />
		<tag k="name" v="Tverråhaugan" />
		<tag k="natural" v="hill" />
		<tag k="place" v="locality" />
		<tag k="ssr:stedsnr" v="925916" />
	</node>
	<node lat="64.88072499968689" lon="12.596533336980867" id="-36155">
		<tag k="fixme" v="consider natural=peak for the most distinct mountains in the district" />
		<tag k="name" v="Årfjellet - Stoerretjahke" />
		<tag k="name:no" v="Årfjellet" />
		<tag k="name:sma" v="Stoerretjahke" />
		<tag k="natural" v="hill" />
		<tag k="place" v="locality" />
		<tag k="ssr:stedsnr" v="934708" />
	</node>
	<node lat="64.69207500124936" lon="12.308008340664097" id="-36158">
		<tag k="name" v="Svartholdalen" />
		<tag k="natural" v="valley" />
		<tag k="place" v="locality" />
		<tag k="ssr:stedsnr" v="938423" />
	</node>
	<node lat="64.69387777947534" lon="12.376002770245698" id="-36159">
		<tag k="name" v="Knektmoen" />
		<tag k="place" v="locality" />
		<tag k="ssr:stedsnr" v="938428" />
	</node>
	<node lat="64.54608333619683" lon="12.260263899245796" id="-36162">
		<tag k="name" v="Middagshaugen" />
		<tag k="natural" v="hill" />
		<tag k="place" v="locality" />
		<tag k="ssr:stedsnr" v="939206" />
	</node>
	<node lat="64.55958888740298" lon="12.247524994645408" id="-36164">
		<tag k="name" v="Masterdalen" />
		<tag k="natural" v="valley" />
		<tag k="place" v="locality" />
		<tag k="ssr:stedsnr" v="939219" />
	</node>
	<node lat="64.80767222456613" lon="12.397947219637208" id="-36166">
		<tag k="name" v="Aksla" />
		<tag k="natural" v="ridge" />
		<tag k="place" v="locality" />
		<tag k="ssr:stedsnr" v="939539" />
	</node>
	<node lat="64.81362499849429" lon="12.353533337838964" id="-36167">
		<tag k="name" v="Heia" />
		<tag k="place" v="locality" />
		<tag k="ssr:stedsnr" v="939545" />
	</node>
	<node lat="64.86551111094592" lon="12.429419445512258" id="-36170">
		<tag k="name" v="Lassibakkan" />
		<tag k="natural" v="slope" />
		<tag k="place" v="locality" />
		<tag k="ssr:stedsnr" v="939836" />
	</node>
	<node lat="64.58967222368763" lon="12.237616658326854" id="-36171">
		<tag k="name" v="Sørføttmoen" />
		<tag k="place" v="locality" />
		<tag k="ssr:stedsnr" v="944612" />
	</node>
	<node lat="64.58568055303645" lon="12.268180557911572" id="-36200">
		<tag k="fixme" v="consider natural=peak for the most distinct mountains in the district" />
		<tag k="name" v="Litlfjellet" />
		<tag k="natural" v="hill" />
		<tag k="place" v="locality" />
		<tag k="ssr:stedsnr" v="14469" />
	</node>
	<node lat="64.60690833603554" lon="12.378977773812197" id="-36203">
		<tag k="name" v="Grønlihaugen" />
		<tag k="natural" v="hill" />
		<tag k="place" v="locality" />
		<tag k="ssr:stedsnr" v="14434" />
	</node>
	<node lat="64.60154167010022" lon="12.286463895224518" id="-36204">
		<tag k="name" v="Vattahaugen" />
		<tag k="natural" v="hill" />
		<tag k="place" v="locality" />
		<tag k="ssr:stedsnr" v="14489" />
	</node>
	<node lat="64.5964194432612" lon="12.328824997807416" id="-36205">
		<tag k="name" v="Gulldevilen" />
		<tag k="natural" v="valley" />
		<tag k="place" v="locality" />
		<tag k="ssr:stedsnr" v="14493" />
	</node>
	<node lat="64.59690277332427" lon="12.377402785404112" id="-36206">
		<tag k="alt_name" v="Brennberget" />
		<tag k="name" v="Brennberga" />
		<tag k="natural" v="slope" />
		<tag k="place" v="locality" />
		<tag k="ssr:stedsnr" v="14497" />
	</node>
	<node lat="64.67452221876162" lon="12.222280560995907" id="-36208">
		<tag k="fixme" v="consider natural=peak for the most distinct mountains in the district" />
		<tag k="name" v="Nova" />
		<tag k="natural" v="hill" />
		<tag k="place" v="locality" />
		<tag k="ssr:stedsnr" v="14520" />
	</node>
	<node lat="64.90133333561052" lon="12.367194437165082" id="-36211">
		<tag k="name" v="Dortiniusdalen" />
		<tag k="natural" v="valley" />
		<tag k="place" v="locality" />
		<tag k="ssr:stedsnr" v="14780" />
	</node>
	<node lat="64.65230000133084" lon="12.091025001799498" id="-36212">
		<tag k="name" v="Millastholet" />
		<tag k="natural" v="valley" />
		<tag k="place" v="locality" />
		<tag k="ssr:stedsnr" v="14812" />
	</node>
	<node lat="64.63675000108194" lon="12.155844436546353" id="-36216">
		<tag k="fixme" v="consider natural=peak for the most distinct mountains in the district" />
		<tag k="name" v="Høgenget" />
		<tag k="natural" v="hill" />
		<tag k="place" v="locality" />
		<tag k="ssr:stedsnr" v="14835" />
	</node>
	<node lat="64.6689749986077" lon="12.027925003120455" id="-36219">
		<tag k="alt_name:no" v="Grønningsfjellet" />
		<tag k="fixme" v="consider natural=peak for the most distinct mountains in the district" />
		<tag k="name" v="Grønningfjella - Guevtele" />
		<tag k="name:no" v="Grønningfjella" />
		<tag k="name:sma" v="Guevtele" />
		<tag k="natural" v="hill" />
		<tag k="place" v="locality" />
		<tag k="ssr:stedsnr" v="15839" />
	</node>
	<node lat="64.68192777632247" lon="12.097275004774135" id="-36220">
		<tag k="fixme" v="consider natural=peak for the most distinct mountains in the district" />
		<tag k="name" v="Indre Høgaksla" />
		<tag k="natural" v="hill" />
		<tag k="place" v="locality" />
		<tag k="ssr:stedsnr" v="15840" />
	</node>
	<node lat="64.63896944430667" lon="12.444741668825039" id="-36224">
		<tag k="fixme" v="consider natural=peak for the most distinct mountains in the district" />
		<tag k="name" v="Skarlandsfjellet" />
		<tag k="natural" v="hill" />
		<tag k="place" v="locality" />
		<tag k="ssr:stedsnr" v="15651" />
	</node>
	<node lat="64.54007499624177" lon="12.170824990513326" id="-36226">
		<tag k="name" v="Storhaugen" />
		<tag k="natural" v="hill" />
		<tag k="place" v="locality" />
		<tag k="ssr:stedsnr" v="15959" />
	</node>
	<node lat="64.59546666241029" lon="12.147458328045703" id="-36227">
		<tag k="fixme" v="consider natural=peak for the most distinct mountains in the district" />
		<tag k="name" v="Høgåsen" />
		<tag k="natural" v="hill" />
		<tag k="place" v="locality" />
		<tag k="ssr:stedsnr" v="28129" />
	</node>
	<node lat="64.60743611298417" lon="12.338616667042134" id="-36229">
		<tag k="name" v="Handsagdalen" />
		<tag k="natural" v="valley" />
		<tag k="place" v="locality" />
		<tag k="ssr:stedsnr" v="28476" />
	</node>
	<node lat="64.57230000128526" lon="12.244752770518563" id="-36231">
		<tag k="name" v="Brennmohaugen" />
		<tag k="natural" v="hill" />
		<tag k="place" v="locality" />
		<tag k="ssr:stedsnr" v="28230" />
	</node>
	<node lat="64.81105277544681" lon="12.38828611151531" id="-36237">
		<tag k="name" v="Brennhaugen" />
		<tag k="natural" v="hill" />
		<tag k="place" v="locality" />
		<tag k="ssr:stedsnr" v="28544" />
	</node>
	<node lat="64.81861944526122" lon="12.400286108624558" id="-36238">
		<tag k="name" v="Olatjønnhaugan" />
		<tag k="natural" v="hill" />
		<tag k="place" v="locality" />
		<tag k="ssr:stedsnr" v="28545" />
	</node>
	<node lat="64.81896666823613" lon="12.341905555573655" id="-36239">
		<tag k="name" v="Seterfjellet" />
		<tag k="natural" v="mountain_range" />
		<tag k="ssr:stedsnr" v="28550" />
	</node>
	<node lat="64.82127778003097" lon="12.404141662565936" id="-36240">
		<tag k="name" v="Litlstakkenget" />
		<tag k="place" v="locality" />
		<tag k="ssr:stedsnr" v="28558" />
	</node>
	<node lat="64.90316111412012" lon="12.392166665324016" id="-36241">
		<tag k="fixme" v="consider natural=peak for the most distinct mountains in the district" />
		<tag k="name" v="Inneråsen" />
		<tag k="natural" v="hill" />
		<tag k="place" v="locality" />
		<tag k="ssr:stedsnr" v="28782" />
	</node>
	<node lat="64.59778610708746" lon="12.300627785536252" id="-36244">
		<tag k="name" v="Hatjønnberget" />
		<tag k="natural" v="hill" />
		<tag k="place" v="locality" />
		<tag k="ssr:stedsnr" v="28492" />
	</node>
	<node lat="64.74936666777674" lon="12.36151943771995" id="-36246">
		<tag k="name" v="Storhalla" />
		<tag k="natural" v="slope" />
		<tag k="place" v="locality" />
		<tag k="ssr:stedsnr" v="28655" />
	</node>
	<node lat="64.86735555173168" lon="12.402533325682375" id="-36248">
		<tag k="fixme" v="consider natural=peak for the most distinct mountains in the district" />
		<tag k="name" v="Stormyråsen" />
		<tag k="natural" v="hill" />
		<tag k="place" v="locality" />
		<tag k="ssr:stedsnr" v="28791" />
	</node>
	<node lat="64.66213333737632" lon="12.218430565162725" id="-36250">
		<tag k="name" v="Stordalvalen" />
		<tag k="natural" v="hill" />
		<tag k="place" v="locality" />
		<tag k="ssr:stedsnr" v="29250" />
	</node>
	<node lat="64.8619916669626" lon="12.463391671645544" id="-36254">
		<tag k="name" v="Bjørnholet" />
		<tag k="natural" v="valley" />
		<tag k="place" v="locality" />
		<tag k="ssr:stedsnr" v="29828" />
	</node>
	<node lat="64.83353888570616" lon="12.413925002165977" id="-36255">
		<tag k="name" v="Hestholet" />
		<tag k="place" v="locality" />
		<tag k="ssr:stedsnr" v="29837" />
	</node>
	<node lat="64.82752499837278" lon="12.416611106032779" id="-36256">
		<tag k="name" v="Finnkruhaugan" />
		<tag k="natural" v="hill" />
		<tag k="place" v="locality" />
		<tag k="ssr:stedsnr" v="29840" />
	</node>
	<node lat="64.88531111356201" lon="12.421722218016464" id="-36259">
		<tag k="name" v="Brudalen" />
		<tag k="natural" v="valley" />
		<tag k="place" v="locality" />
		<tag k="ssr:stedsnr" v="29849" />
	</node>
	<node lat="64.88970277360971" lon="12.46930277273428" id="-36260">
		<tag k="name" v="Mana" />
		<tag k="place" v="locality" />
		<tag k="ssr:stedsnr" v="29859" />
	</node>
	<node lat="64.59000278154885" lon="12.268588890842146" id="-36262">
		<tag k="name" v="Litlfjellet" />
		<tag k="natural" v="hill" />
		<tag k="place" v="locality" />
		<tag k="ssr:stedsnr" v="33641" />
	</node>
	<node lat="64.58846944864742" lon="12.255133329998138" id="-36263">
		<tag k="name" v="Ilskardmoen" />
		<tag k="place" v="locality" />
		<tag k="ssr:stedsnr" v="33642" />
	</node>
	<node lat="64.68694721999685" lon="12.476483339417781" id="-36266">
		<tag k="name" v="Besvasshøgda" />
		<tag k="natural" v="hill" />
		<tag k="place" v="locality" />
		<tag k="ssr:stedsnr" v="45792" />
	</node>
	<node lat="64.83110277845019" lon="12.328469436901578" id="-36267">
		<tag k="name" v="Kråa" />
		<tag k="natural" v="valley" />
		<tag k="place" v="locality" />
		<tag k="ssr:stedsnr" v="48540" />
	</node>
	<node lat="64.63704166306283" lon="12.243402784424774" id="-36273">
		<tag k="name" v="Seldalen" />
		<tag k="natural" v="valley" />
		<tag k="place" v="locality" />
		<tag k="ssr:stedsnr" v="75665" />
	</node>
	<node lat="64.630352774381" lon="12.465155556808973" id="-36275">
		<tag k="name" v="Ådalen" />
		<tag k="natural" v="valley" />
		<tag k="place" v="locality" />
		<tag k="ssr:stedsnr" v="75192" />
	</node>
	<node lat="64.78654999719024" lon="12.390950003325973" id="-36276">
		<tag k="name" v="Grønlihaugen" />
		<tag k="natural" v="hill" />
		<tag k="place" v="locality" />
		<tag k="ssr:stedsnr" v="75199" />
	</node>
	<node lat="64.6092833298878" lon="12.436191666979575" id="-36277">
		<tag k="name" v="Dåretdalen" />
		<tag k="natural" v="valley" />
		<tag k="place" v="locality" />
		<tag k="ssr:stedsnr" v="75531" />
	</node>
	<node lat="64.61096666482823" lon="12.377138894120018" id="-36278">
		<tag k="name" v="Snølia" />
		<tag k="natural" v="slope" />
		<tag k="place" v="locality" />
		<tag k="ssr:stedsnr" v="75533" />
	</node>
	<node lat="64.6604527796579" lon="12.446063885296724" id="-36279">
		<tag k="name" v="Besdalklumpen" />
		<tag k="natural" v="hill" />
		<tag k="place" v="locality" />
		<tag k="ssr:stedsnr" v="75617" />
	</node>
	<node lat="64.63184999833771" lon="12.25647777538542" id="-36282">
		<tag k="name" v="Halsan" />
		<tag k="natural" v="slope" />
		<tag k="place" v="locality" />
		<tag k="ssr:stedsnr" v="75632" />
	</node>
	<node lat="64.53504722582625" lon="12.223788890985855" id="-36284">
		<tag k="name" v="Durmålklumpen" />
		<tag k="natural" v="hill" />
		<tag k="place" v="locality" />
		<tag k="ssr:stedsnr" v="75776" />
	</node>
	<node lat="64.58314999796053" lon="12.132538878926994" id="-36288">
		<tag k="name" v="Kjølen" />
		<tag k="natural" v="valley" />
		<tag k="place" v="locality" />
		<tag k="ssr:stedsnr" v="75841" />
	</node>
	<node lat="64.90038610879726" lon="12.518636114733425" id="-36289">
		<tag k="name" v="Bjørnholet" />
		<tag k="natural" v="valley" />
		<tag k="place" v="locality" />
		<tag k="ssr:stedsnr" v="75851" />
	</node>
	<node lat="64.6618500006954" lon="12.0783500031064" id="-36291">
		<tag k="name" v="Taklihaugen" />
		<tag k="natural" v="hill" />
		<tag k="place" v="locality" />
		<tag k="ssr:stedsnr" v="75867" />
	</node>
	<node lat="64.98293611543858" lon="12.58205832520174" id="-36292">
		<tag k="fixme" v="consider natural=peak for the most distinct mountains in the district" />
		<tag k="name" v="Fuglstadfjellet - Kjerringtjahke" />
		<tag k="name:no" v="Fuglstadfjellet" />
		<tag k="name:sma" v="Kjerringtjahke" />
		<tag k="natural" v="hill" />
		<tag k="place" v="locality" />
		<tag k="ssr:stedsnr" v="75872" />
	</node>
	<node lat="64.6660694404054" lon="12.112950007875869" id="-36293">
		<tag k="name" v="Fuglvasshøgda" />
		<tag k="natural" v="hill" />
		<tag k="place" v="locality" />
		<tag k="ssr:stedsnr" v="75877" />
	</node>
	<node lat="64.939416665048" lon="12.604119449382685" id="-36294">
		<tag k="fixme" v="consider natural=peak for the most distinct mountains in the district" />
		<tag k="name" v="Drottendalsfjellet - Åaregaske" />
		<tag k="name:no" v="Drottendalsfjellet" />
		<tag k="name:sma" v="Åaregaske" />
		<tag k="natural" v="hill" />
		<tag k="old_name:sma" v="Åarecaske" />
		<tag k="place" v="locality" />
		<tag k="ssr:stedsnr" v="75878" />
	</node>
	<node lat="64.72947777534063" lon="12.457861118990818" id="-36296">
		<tag k="fixme" v="consider natural=peak for the most distinct mountains in the district" />
		<tag k="name" v="Pålåfjellet" />
		<tag k="natural" v="hill" />
		<tag k="place" v="locality" />
		<tag k="ssr:stedsnr" v="75933" />
	</node>
	<node lat="64.62328055422759" lon="12.40927776992842" id="-36300">
		<tag k="name" v="Durmålsskoro" />
		<tag k="natural" v="valley" />
		<tag k="place" v="locality" />
		<tag k="ssr:stedsnr" v="76534" />
	</node>
	<node lat="64.70209444628897" lon="12.536905557554931" id="-36301">
		<tag k="name" v="Nyfjelldalen" />
		<tag k="natural" v="valley" />
		<tag k="place" v="locality" />
		<tag k="ssr:stedsnr" v="76917" />
	</node>
	<node lat="64.6203666667341" lon="12.097519447122886" id="-36304">
		<tag k="name" v="Langfjellhaugen" />
		<tag k="natural" v="hill" />
		<tag k="place" v="locality" />
		<tag k="ssr:stedsnr" v="89141" />
	</node>
	<node lat="64.61380000101359" lon="12.0997138820082" id="-36305">
		<tag k="name" v="Gevinghaugen" />
		<tag k="natural" v="hill" />
		<tag k="place" v="locality" />
		<tag k="ssr:stedsnr" v="89142" />
	</node>
	<node lat="64.59277221998548" lon="12.154224994580309" id="-36308">
		<tag k="name" v="Seksdalen" />
		<tag k="natural" v="valley" />
		<tag k="place" v="locality" />
		<tag k="ssr:stedsnr" v="89267" />
	</node>
	<node lat="64.6772305592683" lon="12.372961121342192" id="-36309">
		<tag k="name" v="Furuhaugan" />
		<tag k="natural" v="hill" />
		<tag k="place" v="locality" />
		<tag k="ssr:stedsnr" v="89468" />
	</node>
	<node lat="64.74798055674222" lon="12.276969448888368" id="-36310">
		<tag k="fixme" v="consider natural=peak for the most distinct mountains in the district" />
		<tag k="name" v="Seterhevlan" />
		<tag k="natural" v="hill" />
		<tag k="place" v="locality" />
		<tag k="ssr:stedsnr" v="89470" />
	</node>
	<node lat="64.74119444261943" lon="12.281952781572036" id="-36312">
		<tag k="name" v="Svortdalen" />
		<tag k="natural" v="valley" />
		<tag k="place" v="locality" />
		<tag k="ssr:stedsnr" v="89475" />
	</node>
	<node lat="64.82330555287265" lon="12.341511102794332" id="-36317">
		<tag k="name" v="Svahyllla" />
		<tag k="natural" v="hill" />
		<tag k="place" v="locality" />
		<tag k="ssr:stedsnr" v="89558" />
	</node>
	<node lat="64.90676666337755" lon="12.372788880141592" id="-36321">
		<tag k="name" v="Speten" />
		<tag k="place" v="locality" />
		<tag k="ssr:stedsnr" v="89741" />
	</node>
	<node lat="64.86803611338648" lon="12.39723889708282" id="-36323">
		<tag k="name" v="Kjellerengtrappen" />
		<tag k="natural" v="cliff" />
		<tag k="ssr:stedsnr" v="89763" />
	</node>
	<node lat="64.84636666657049" lon="12.378488895289445" id="-36325">
		<tag k="name" v="Tverrådalen" />
		<tag k="natural" v="valley" />
		<tag k="place" v="locality" />
		<tag k="ssr:stedsnr" v="89574" />
	</node>
	<node lat="64.85131389333256" lon="12.38396110242102" id="-36326">
		<tag k="name" v="Olaenghaugan" />
		<tag k="natural" v="hill" />
		<tag k="place" v="locality" />
		<tag k="ssr:stedsnr" v="89770" />
	</node>
	<node lat="64.85237222250836" lon="12.401597213809762" id="-36327">
		<tag k="name" v="Seterkløyva" />
		<tag k="natural" v="valley" />
		<tag k="place" v="locality" />
		<tag k="ssr:stedsnr" v="89772" />
	</node>
	<node lat="64.58330833480022" lon="12.313599990180103" id="-36328">
		<tag k="name" v="Taklia" />
		<tag k="natural" v="slope" />
		<tag k="place" v="locality" />
		<tag k="ssr:stedsnr" v="90250" />
	</node>
	<node lat="64.84235555301593" lon="12.4203194345517" id="-36329">
		<tag k="name" v="Geitaryggen" />
		<tag k="natural" v="ridge" />
		<tag k="place" v="locality" />
		<tag k="ssr:stedsnr" v="90840" />
	</node>
	<node lat="64.84034444079245" lon="12.418358329042535" id="-36330">
		<tag k="name" v="Kartrabban" />
		<tag k="natural" v="ridge" />
		<tag k="place" v="locality" />
		<tag k="ssr:stedsnr" v="90844" />
	</node>
	<node lat="64.87979167005248" lon="12.45723333569637" id="-36331">
		<tag k="name" v="Årfjellet" />
		<tag k="natural" v="mountain_range" />
		<tag k="ssr:stedsnr" v="90849" />
	</node>
	<node lat="64.8953138896597" lon="12.492013892230373" id="-36333">
		<tag k="name" v="Kalmoen" />
		<tag k="place" v="locality" />
		<tag k="ssr:stedsnr" v="90799" />
	</node>
	<node lat="64.74647222400337" lon="12.433158343918999" id="-36336">
		<tag k="name" v="Fjordingen" />
		<tag k="natural" v="slope" />
		<tag k="place" v="locality" />
		<tag k="ssr:stedsnr" v="109990" />
	</node>
	<node lat="64.70839722472071" lon="12.426969448941758" id="-36338">
		<tag k="name" v="Grønlia" />
		<tag k="natural" v="slope" />
		<tag k="place" v="locality" />
		<tag k="ssr:stedsnr" v="109943" />
	</node>
	<node lat="64.8185388867289" lon="12.535336105784502" id="-36340">
		<tag k="name" v="Urddalen - Aektuve" />
		<tag k="name:no" v="Urddalen" />
		<tag k="name:sma" v="Aektuve" />
		<tag k="natural" v="valley" />
		<tag k="place" v="locality" />
		<tag k="ssr:stedsnr" v="135189" />
	</node>
	<node lat="64.58561354607625" lon="12.329858734054268" id="-36345">
		<tag k="name" v="Sandtjønnhaugen" />
		<tag k="natural" v="hill" />
		<tag k="place" v="locality" />
		<tag k="ssr:stedsnr" v="135528" />
	</node>
	<node lat="64.5931722246891" lon="12.373722221012683" id="-36346">
		<tag k="fixme" v="consider natural=peak for the most distinct mountains in the district" />
		<tag k="name" v="Bjørnbakkan" />
		<tag k="natural" v="hill" />
		<tag k="place" v="locality" />
		<tag k="ssr:stedsnr" v="135530" />
	</node>
	<node lat="64.82082777474135" lon="12.358213878418049" id="-36349">
		<tag k="fixme" v="consider natural=peak for the most distinct mountains in the district" />
		<tag k="name" v="Arnfinnåsen" />
		<tag k="natural" v="hill" />
		<tag k="place" v="locality" />
		<tag k="ssr:stedsnr" v="135757" />
	</node>
	<node lat="64.61064999620825" lon="12.137925003820062" id="-36352">
		<tag k="fixme" v="consider natural=peak for the most distinct mountains in the district" />
		<tag k="name" v="Langvassåsen" />
		<tag k="natural" v="hill" />
		<tag k="place" v="locality" />
		<tag k="ssr:stedsnr" v="135743" />
	</node>
	<node lat="64.8316666635837" lon="12.4553888812167" id="-36353">
		<tag k="fixme" v="consider natural=peak for the most distinct mountains in the district" />
		<tag k="name" v="Lonfjellet" />
		<tag k="natural" v="hill" />
		<tag k="place" v="locality" />
		<tag k="ssr:stedsnr" v="135749" />
	</node>
	<node lat="64.67509722086322" lon="12.170736119098652" id="-36354">
		<tag k="fixme" v="consider natural=peak for the most distinct mountains in the district" />
		<tag k="name" v="Røyrtjønnåsen" />
		<tag k="natural" v="hill" />
		<tag k="place" v="locality" />
		<tag k="ssr:stedsnr" v="135810" />
	</node>
	<node lat="64.64589999648425" lon="12.188052772851744" id="-36355">
		<tag k="name" v="Arnfinnhaugen" />
		<tag k="natural" v="hill" />
		<tag k="place" v="locality" />
		<tag k="ssr:stedsnr" v="135826" />
	</node>
	<node lat="64.73698055386531" lon="12.104055564381847" id="-36356">
		<tag k="name" v="Skrøyvdalen" />
		<tag k="natural" v="valley" />
		<tag k="old_name" v="Skroyvdalen" />
		<tag k="place" v="locality" />
		<tag k="ssr:stedsnr" v="135849" />
	</node>
	<node lat="64.77538055924208" lon="12.207116675262968" id="-36359">
		<tag k="fixme" v="consider natural=peak for the most distinct mountains in the district" />
		<tag k="name" v="Grønkleppen" />
		<tag k="natural" v="hill" />
		<tag k="place" v="locality" />
		<tag k="ssr:stedsnr" v="135887" />
	</node>
	<node lat="64.73137500126782" lon="12.196124997770248" id="-36360">
		<tag k="fixme" v="consider natural=peak for the most distinct mountains in the district" />
		<tag k="name" v="Krokvassfjellet" />
		<tag k="natural" v="hill" />
		<tag k="place" v="locality" />
		<tag k="ssr:stedsnr" v="136270" />
	</node>
	<node lat="64.92110555960521" lon="12.33603332799883" id="-36362">
		<tag k="name" v="Høydalen" />
		<tag k="natural" v="valley" />
		<tag k="place" v="locality" />
		<tag k="ssr:stedsnr" v="136795" />
	</node>
	<node lat="64.5276555567978" lon="12.228252775869196" id="-36369">
		<tag k="fixme" v="consider natural=peak for the most distinct mountains in the district" />
		<tag k="name" v="Fjellbroddlifjellet" />
		<tag k="natural" v="hill" />
		<tag k="place" v="locality" />
		<tag k="ssr:stedsnr" v="136738" />
	</node>
	<node lat="64.71656110951737" lon="12.245286119668235" id="-36371">
		<tag k="name" v="Seterlia" />
		<tag k="natural" v="slope" />
		<tag k="place" v="locality" />
		<tag k="ssr:stedsnr" v="136918" />
	</node>
	<node lat="64.55272777727245" lon="12.283549994571343" id="-36378">
		<tag k="name" v="Andersberget" />
		<tag k="natural" v="hill" />
		<tag k="place" v="locality" />
		<tag k="ssr:stedsnr" v="149314" />
	</node>
	<node lat="64.54845555673451" lon="12.270852769525618" id="-36379">
		<tag k="fixme" v="consider natural=peak for the most distinct mountains in the district" />
		<tag k="name" v="Prestseteråsen" />
		<tag k="natural" v="hill" />
		<tag k="place" v="locality" />
		<tag k="ssr:stedsnr" v="149181" />
	</node>
	<node lat="64.56588889336952" lon="12.23955833309181" id="-36380">
		<tag k="name" v="Rønningsdalen" />
		<tag k="natural" v="valley" />
		<tag k="place" v="locality" />
		<tag k="ssr:stedsnr" v="149184" />
	</node>
	<node lat="64.75748888545449" lon="12.296786100417583" id="-36383">
		<tag k="name" v="Urbekkdalen" />
		<tag k="natural" v="valley" />
		<tag k="place" v="locality" />
		<tag k="ssr:stedsnr" v="149446" />
	</node>
	<node lat="64.75980555865095" lon="12.350472217251536" id="-36385">
		<tag k="name" v="Flåtåsundberga" />
		<tag k="natural" v="hill" />
		<tag k="place" v="locality" />
		<tag k="ssr:stedsnr" v="149451" />
	</node>
	<node lat="64.74191389183706" lon="12.372988890947939" id="-36390">
		<tag k="fixme" v="consider natural=peak for the most distinct mountains in the district" />
		<tag k="name" v="Nord-Finnmyråsen" />
		<tag k="natural" v="hill" />
		<tag k="place" v="locality" />
		<tag k="ssr:stedsnr" v="149639" />
	</node>
	<node lat="64.89725833350631" lon="12.383924990359283" id="-36391">
		<tag k="fixme" v="consider natural=peak for the most distinct mountains in the district" />
		<tag k="name" v="Moengdalåsen" />
		<tag k="natural" v="hill" />
		<tag k="place" v="locality" />
		<tag k="ssr:stedsnr" v="149726" />
	</node>
	<node lat="64.76281944735078" lon="12.348841671223628" id="-36392">
		<tag k="name" v="Pipersmoen" />
		<tag k="place" v="locality" />
		<tag k="ssr:stedsnr" v="149577" />
	</node>
	<node lat="64.77406666595566" lon="12.318941669127963" id="-36393">
		<tag k="fixme" v="consider natural=peak for the most distinct mountains in the district" />
		<tag k="name" v="Tjønndalsåsen" />
		<tag k="natural" v="hill" />
		<tag k="place" v="locality" />
		<tag k="ssr:stedsnr" v="149595" />
	</node>
	<node lat="64.77640277567971" lon="12.328241673083891" id="-36394">
		<tag k="name" v="Bjørnhalla" />
		<tag k="natural" v="slope" />
		<tag k="place" v="locality" />
		<tag k="ssr:stedsnr" v="149597" />
	</node>
	<node lat="64.91146111144255" lon="12.345658340357227" id="-36396">
		<tag k="name" v="Setertrappen" />
		<tag k="natural" v="hill" />
		<tag k="place" v="locality" />
		<tag k="ssr:stedsnr" v="149747" />
	</node>
	<node lat="64.64584444524714" lon="12.16952778672277" id="-36399">
		<tag k="name" v="Stokkdalen" />
		<tag k="natural" v="valley" />
		<tag k="place" v="locality" />
		<tag k="ssr:stedsnr" v="150241" />
	</node>
	<node lat="64.89440833466186" lon="12.506480545921969" id="-36400">
		<tag k="name" v="Øster-Mana" />
		<tag k="natural" v="ridge" />
		<tag k="place" v="locality" />
		<tag k="ssr:stedsnr" v="150780" />
	</node>
	<node lat="64.83675277435165" lon="12.429611109024028" id="-36402">
		<tag k="name" v="Skreia" />
		<tag k="place" v="locality" />
		<tag k="ssr:stedsnr" v="150826" />
	</node>
	<node lat="64.75760277981271" lon="12.431216656788774" id="-36408">
		<tag k="name" v="Gannvindhaugen" />
		<tag k="natural" v="hill" />
		<tag k="place" v="locality" />
		<tag k="ssr:stedsnr" v="169988" />
	</node>
	<node lat="64.7493416625319" lon="12.429630546245534" id="-36409">
		<tag k="name" v="Sveinlia" />
		<tag k="natural" v="slope" />
		<tag k="place" v="locality" />
		<tag k="ssr:stedsnr" v="169991" />
	</node>
	<node lat="64.59791944730728" lon="12.274125008995284" id="-36412">
		<tag k="name" v="Øysterenghaugan" />
		<tag k="natural" v="hill" />
		<tag k="place" v="locality" />
		<tag k="ssr:stedsnr" v="196521" />
	</node>
	<node lat="65.11002777597567" lon="13.085422216082504" id="-36414">
		<tag k="fixme" v="consider natural=peak for the most distinct mountains in the district" />
		<tag k="name" v="Kløftfjellet - Sloeptjenguevtele" />
		<tag k="name:no" v="Kløftfjellet" />
		<tag k="name:sma" v="Sloeptjenguevtele" />
		<tag k="natural" v="hill" />
		<tag k="place" v="locality" />
		<tag k="ssr:stedsnr" v="196523" />
	</node>
	<node lat="64.68258888781654" lon="12.408088895450689" id="-36415">
		<tag k="name" v="Storjordhaugan" />
		<tag k="natural" v="hill" />
		<tag k="place" v="locality" />
		<tag k="ssr:stedsnr" v="196549" />
	</node>
	<node lat="64.88903333717703" lon="12.361794435804041" id="-36417">
		<tag k="fixme" v="consider natural=peak for the most distinct mountains in the district" />
		<tag k="name" v="Langfjella" />
		<tag k="natural" v="hill" />
		<tag k="place" v="locality" />
		<tag k="ssr:stedsnr" v="196794" />
	</node>
	<node lat="64.69392500212108" lon="12.191238882424532" id="-36418">
		<tag k="name" v="Ravahaugan" />
		<tag k="natural" v="hill" />
		<tag k="place" v="locality" />
		<tag k="ssr:stedsnr" v="197229" />
	</node>
	<node lat="64.70452222160286" lon="12.201888890996532" id="-36419">
		<tag k="name" v="Bjørndalen" />
		<tag k="natural" v="valley" />
		<tag k="place" v="locality" />
		<tag k="ssr:stedsnr" v="197234" />
	</node>
	<node lat="64.8044194418083" lon="12.23218888819485" id="-36421">
		<tag k="name" v="Finnkruvassdalen" />
		<tag k="natural" v="valley" />
		<tag k="place" v="locality" />
		<tag k="ssr:stedsnr" v="197245" />
	</node>
	<node lat="64.62346111299325" lon="12.375594439159803" id="-36424">
		<tag k="name" v="Bergenget" />
		<tag k="natural" v="slope" />
		<tag k="place" v="locality" />
		<tag k="ssr:stedsnr" v="197571" />
	</node>
	<node lat="64.69491944804875" lon="12.42416666233635" id="-36431">
		<tag k="name" v="Lia" />
		<tag k="natural" v="slope" />
		<tag k="place" v="locality" />
		<tag k="ssr:stedsnr" v="197938" />
	</node>
	<node lat="64.5781083331988" lon="12.161980558776463" id="-36434">
		<tag k="name" v="Kvitklompen" />
		<tag k="natural" v="hill" />
		<tag k="place" v="locality" />
		<tag k="ssr:stedsnr" v="210041" />
	</node>
	<node lat="64.68911389103152" lon="12.391427768623773" id="-36435">
		<tag k="name" v="Urdalen" />
		<tag k="natural" v="valley" />
		<tag k="place" v="locality" />
		<tag k="ssr:stedsnr" v="210442" />
	</node>
	<node lat="64.6514444431737" lon="12.234916656223682" id="-36438">
		<tag k="name" v="Litldalen" />
		<tag k="natural" v="valley" />
		<tag k="place" v="locality" />
		<tag k="ssr:stedsnr" v="210164" />
	</node>
	<node lat="64.67368611221299" lon="12.255975008393943" id="-36442">
		<tag k="name" v="Geitdalen" />
		<tag k="natural" v="valley" />
		<tag k="place" v="locality" />
		<tag k="ssr:stedsnr" v="211236" />
	</node>
	<node lat="64.560327778661" lon="12.11909999269745" id="-36446">
		<tag k="name" v="Litlfjellet" />
		<tag k="natural" v="mountain_range" />
		<tag k="ssr:stedsnr" v="210067" />
	</node>
	<node lat="64.7174111113483" lon="12.402161107185993" id="-36448">
		<tag k="name" v="Grønlia" />
		<tag k="natural" v="slope" />
		<tag k="place" v="locality" />
		<tag k="ssr:stedsnr" v="210417" />
	</node>
	<node lat="64.63242500251148" lon="12.392280546867172" id="-36450">
		<tag k="name" v="Brennhaugen" />
		<tag k="natural" v="hill" />
		<tag k="place" v="locality" />
		<tag k="ssr:stedsnr" v="210513" />
	</node>
	<node lat="64.62861388567778" lon="12.394091673213488" id="-36455">
		<tag k="name" v="Lauvhaugen" />
		<tag k="natural" v="hill" />
		<tag k="place" v="locality" />
		<tag k="ssr:stedsnr" v="210465" />
	</node>
	<node lat="64.84495555400186" lon="12.39084167640209" id="-36456">
		<tag k="name" v="Ingborgholet" />
		<tag k="place" v="locality" />
		<tag k="ssr:stedsnr" v="210561" />
	</node>
	<node lat="64.8589249980107" lon="12.373855558764822" id="-36459">
		<tag k="name" v="Vassliin" />
		<tag k="natural" v="slope" />
		<tag k="place" v="locality" />
		<tag k="ssr:stedsnr" v="210775" />
	</node>
	<node lat="64.86089444083119" lon="12.391952775697915" id="-36462">
		<tag k="name" v="Lassidalen" />
		<tag k="natural" v="valley" />
		<tag k="place" v="locality" />
		<tag k="ssr:stedsnr" v="210772" />
	</node>
	<node lat="64.67414444655913" lon="12.244338885416997" id="-36468">
		<tag k="name" v="Bjørnmyrhevlan" />
		<tag k="natural" v="slope" />
		<tag k="place" v="locality" />
		<tag k="ssr:stedsnr" v="317537" />
	</node>
	<node lat="64.66380555632495" lon="12.270899990244342" id="-36472">
		<tag k="name" v="Kråengdalen" />
		<tag k="natural" v="valley" />
		<tag k="place" v="locality" />
		<tag k="ssr:stedsnr" v="318592" />
	</node>
	<node lat="64.61700000066722" lon="12.082638892520245" id="-36476">
		<tag k="name" v="Gjevingdalen" />
		<tag k="natural" v="valley" />
		<tag k="place" v="locality" />
		<tag k="ssr:stedsnr" v="317830" />
	</node>
	<node lat="64.65513332931307" lon="12.211974997436984" id="-36477">
		<tag k="name" v="Stordalen" />
		<tag k="natural" v="valley" />
		<tag k="place" v="locality" />
		<tag k="ssr:stedsnr" v="317785" />
	</node>
	<node lat="64.79566944593722" lon="12.462386121194086" id="-36478">
		<tag k="name" v="Noerhtevaajja" />
		<tag k="name:sma" v="Noerhtevaajja" />
		<tag k="natural" v="valley" />
		<tag k="place" v="locality" />
		<tag k="ssr:stedsnr" v="318163" />
	</node>
	<node lat="64.80795277438199" lon="12.278305550759029" id="-36479">
		<tag k="fixme" v="consider natural=peak for the most distinct mountains in the district" />
		<tag k="name" v="Vesterfjellet" />
		<tag k="natural" v="hill" />
		<tag k="place" v="locality" />
		<tag k="ssr:stedsnr" v="318182" />
	</node>
	<node lat="64.6468499988183" lon="12.268374995312207" id="-36481">
		<tag k="name" v="Grønningdalen" />
		<tag k="natural" v="valley" />
		<tag k="place" v="locality" />
		<tag k="ssr:stedsnr" v="318581" />
	</node>
	<node lat="64.75072499664219" lon="12.211886100812604" id="-36485">
		<tag k="name" v="Kvitberget" />
		<tag k="natural" v="hill" />
		<tag k="place" v="locality" />
		<tag k="ssr:stedsnr" v="318880" />
	</node>
	<node lat="64.68470833315467" lon="12.155377784629902" id="-36488">
		<tag k="alt_name" v="Urdalen" />
		<tag k="name" v="Urddalen" />
		<tag k="natural" v="valley" />
		<tag k="place" v="locality" />
		<tag k="ssr:stedsnr" v="318834" />
	</node>
	<node lat="64.703638889784" lon="12.387063895051522" id="-36489">
		<tag k="name" v="Brennhaugen" />
		<tag k="natural" v="hill" />
		<tag k="place" v="locality" />
		<tag k="ssr:stedsnr" v="318935" />
	</node>
	<node lat="64.7085361145152" lon="12.392155548943036" id="-36491">
		<tag k="name" v="Kjerlia" />
		<tag k="natural" v="slope" />
		<tag k="place" v="locality" />
		<tag k="ssr:stedsnr" v="331395" />
	</node>
	<node lat="64.59874722641271" lon="12.291069441050253" id="-36497">
		<tag k="fixme" v="consider natural=peak for the most distinct mountains in the district" />
		<tag k="name" v="Hatjønnåsen" />
		<tag k="natural" v="hill" />
		<tag k="place" v="locality" />
		<tag k="ssr:stedsnr" v="331456" />
	</node>
	<node lat="64.61515000351713" lon="12.400561110091049" id="-36498">
		<tag k="fixme" v="consider natural=peak for the most distinct mountains in the district" />
		<tag k="name" v="Kjolgtjønnåsen" />
		<tag k="natural" v="hill" />
		<tag k="place" v="locality" />
		<tag k="ssr:stedsnr" v="331457" />
	</node>
	<node lat="64.7764638877538" lon="12.380041672344582" id="-36502">
		<tag k="name" v="Brenthaugen" />
		<tag k="natural" v="hill" />
		<tag k="place" v="locality" />
		<tag k="ssr:stedsnr" v="331583" />
	</node>
	<node lat="64.847947219413" lon="12.378650006778829" id="-36503">
		<tag k="name" v="Skarvlia" />
		<tag k="natural" v="slope" />
		<tag k="place" v="locality" />
		<tag k="ssr:stedsnr" v="331729" />
	</node>
	<node lat="64.56844166497758" lon="12.260936118475291" id="-36505">
		<tag k="fixme" v="consider natural=peak for the most distinct mountains in the district" />
		<tag k="name" v="Eidsmyråsen" />
		<tag k="natural" v="hill" />
		<tag k="place" v="locality" />
		<tag k="ssr:stedsnr" v="332216" />
	</node>
	<node lat="64.61475833391805" lon="12.151502786704839" id="-36507">
		<tag k="fixme" v="consider natural=peak for the most distinct mountains in the district" />
		<tag k="name" v="Langvassåsen" />
		<tag k="natural" v="hill" />
		<tag k="place" v="locality" />
		<tag k="ssr:stedsnr" v="332195" />
	</node>
	<node lat="64.57878055144818" lon="12.339316662490827" id="-36509">
		<tag k="name" v="Reinahaugen" />
		<tag k="natural" v="hill" />
		<tag k="place" v="locality" />
		<tag k="ssr:stedsnr" v="332291" />
	</node>
	<node lat="64.7590055575885" lon="12.371844449489558" id="-36510">
		<tag k="fixme" v="consider natural=peak for the most distinct mountains in the district" />
		<tag k="name" v="Kamman" />
		<tag k="natural" v="hill" />
		<tag k="place" v="locality" />
		<tag k="ssr:stedsnr" v="332434" />
	</node>
	<node lat="64.75314722464695" lon="12.400280556768427" id="-36511">
		<tag k="name" v="Trasaliin" />
		<tag k="natural" v="slope" />
		<tag k="place" v="locality" />
		<tag k="ssr:stedsnr" v="332435" />
	</node>
	<node lat="64.88582222558648" lon="12.38727777255505" id="-36512">
		<tag k="name" v="Tjøradalslia" />
		<tag k="natural" v="slope" />
		<tag k="place" v="locality" />
		<tag k="ssr:stedsnr" v="332506" />
	</node>
	<node lat="64.82362777849413" lon="12.393013897398944" id="-36513">
		<tag k="name" v="Hundholdalen" />
		<tag k="natural" v="valley" />
		<tag k="place" v="locality" />
		<tag k="ssr:stedsnr" v="332509" />
	</node>
	<node lat="64.81186111485017" lon="12.360283323510835" id="-36514">
		<tag k="name" v="Benken" />
		<tag k="place" v="locality" />
		<tag k="ssr:stedsnr" v="332519" />
	</node>
	<node lat="64.7691527813598" lon="12.370663896567402" id="-36518">
		<tag k="name" v="Klokkatihaugen" />
		<tag k="natural" v="hill" />
		<tag k="place" v="locality" />
		<tag k="ssr:stedsnr" v="332573" />
	</node>
	<node lat="64.7497027790732" lon="12.381483337090025" id="-36520">
		<tag k="name" v="Bjørnaklaven" />
		<tag k="place" v="locality" />
		<tag k="ssr:stedsnr" v="332623" />
	</node>
	<node lat="64.84400833018356" lon="12.410872216631722" id="-36521">
		<tag k="name" v="Kjerringenget" />
		<tag k="place" v="locality" />
		<tag k="ssr:stedsnr" v="332638" />
	</node>
	<node lat="64.85394166915017" lon="12.408041667689163" id="-36522">
		<tag k="fixme" v="consider natural=peak for the most distinct mountains in the district" />
		<tag k="name" v="Hellengåsen" />
		<tag k="natural" v="hill" />
		<tag k="place" v="locality" />
		<tag k="ssr:stedsnr" v="332776" />
	</node>
	<node lat="64.86066388700547" lon="12.452652776545454" id="-36523">
		<tag k="name" v="Storklumpen" />
		<tag k="place" v="locality" />
		<tag k="ssr:stedsnr" v="332784" />
	</node>
	<node lat="64.6691833360894" lon="12.202483343115885" id="-36526">
		<tag k="name" v="Bjørkenglia" />
		<tag k="natural" v="slope" />
		<tag k="place" v="locality" />
		<tag k="ssr:stedsnr" v="352909" />
	</node>
	<node lat="64.7933444462307" lon="12.33574999389702" id="-36534">
		<tag k="name" v="Storlia" />
		<tag k="natural" v="slope" />
		<tag k="place" v="locality" />
		<tag k="ssr:stedsnr" v="378184" />
	</node>
	<node lat="64.71946667020208" lon="12.242458341484678" id="-36536">
		<tag k="alt_name" v="Svartåsan" />
		<tag k="fixme" v="consider natural=peak for the most distinct mountains in the district" />
		<tag k="name" v="Svartåsen" />
		<tag k="natural" v="hill" />
		<tag k="place" v="locality" />
		<tag k="ssr:stedsnr" v="378189" />
	</node>
	<node lat="64.78939166307946" lon="12.258950000457027" id="-36537">
		<tag k="alt_name" v="Midtifjellet" />
		<tag k="fixme" v="consider natural=peak for the most distinct mountains in the district" />
		<tag k="name" v="Midtfjellet" />
		<tag k="natural" v="hill" />
		<tag k="place" v="locality" />
		<tag k="ssr:stedsnr" v="378193" />
	</node>
	<node lat="64.60833888570399" lon="12.385472227378186" id="-36538">
		<tag k="fixme" v="consider natural=peak for the most distinct mountains in the district" />
		<tag k="name" v="Slettfjellet" />
		<tag k="natural" v="hill" />
		<tag k="place" v="locality" />
		<tag k="ssr:stedsnr" v="378536" />
	</node>
	<node lat="64.61176110684565" lon="12.348924995940598" id="-36539">
		<tag k="name" v="Hessienghaugan" />
		<tag k="natural" v="hill" />
		<tag k="place" v="locality" />
		<tag k="ssr:stedsnr" v="378539" />
	</node>
	<node lat="64.59024166573967" lon="12.352266662505535" id="-36543">
		<tag k="name" v="Otertjønnhaugen" />
		<tag k="natural" v="hill" />
		<tag k="place" v="locality" />
		<tag k="ssr:stedsnr" v="378575" />
	</node>
	<node lat="64.58821667016508" lon="12.373416664909753" id="-36544">
		<tag k="fixme" v="consider natural=peak for the most distinct mountains in the district" />
		<tag k="name" v="Høghatten" />
		<tag k="natural" v="hill" />
		<tag k="place" v="locality" />
		<tag k="ssr:stedsnr" v="378577" />
	</node>
	<node lat="64.58510000014908" lon="12.085325006400831" id="-36550">
		<tag k="fixme" v="consider natural=peak for the most distinct mountains in the district" />
		<tag k="name" v="Grønlifjellet" />
		<tag k="natural" v="hill" />
		<tag k="place" v="locality" />
		<tag k="ssr:stedsnr" v="378822" />
	</node>
	<node lat="64.56437499868248" lon="12.102899991895345" id="-36551">
		<tag k="name" v="Stordalen" />
		<tag k="natural" v="valley" />
		<tag k="place" v="locality" />
		<tag k="ssr:stedsnr" v="378834" />
	</node>
	<node lat="64.67854444640318" lon="12.126713898127786" id="-36553">
		<tag k="fixme" v="consider natural=peak for the most distinct mountains in the district" />
		<tag k="name" v="Høgaksla" />
		<tag k="natural" v="hill" />
		<tag k="place" v="locality" />
		<tag k="ssr:stedsnr" v="378856" />
	</node>
	<node lat="64.71690833098252" lon="12.28155834314625" id="-36560">
		<tag k="fixme" v="consider natural=peak for the most distinct mountains in the district" />
		<tag k="name" v="Hyllbekkåsen" />
		<tag k="natural" v="hill" />
		<tag k="place" v="locality" />
		<tag k="ssr:stedsnr" v="392427" />
	</node>
	<node lat="64.7642333329698" lon="12.359366656830602" id="-36563">
		<tag k="name" v="Henrikhaugan" />
		<tag k="natural" v="hill" />
		<tag k="place" v="locality" />
		<tag k="ssr:stedsnr" v="392647" />
	</node>
	<node lat="64.72427222612045" lon="12.209036106427027" id="-36566">
		<tag k="name" v="Loddohaugen" />
		<tag k="natural" v="hill" />
		<tag k="place" v="locality" />
		<tag k="ssr:stedsnr" v="392153" />
	</node>
	<node lat="64.63548055888667" lon="12.146777785544174" id="-36568">
		<tag k="fixme" v="consider natural=peak for the most distinct mountains in the district" />
		<tag k="name" v="Sulsteinhøgda" />
		<tag k="natural" v="hill" />
		<tag k="place" v="locality" />
		<tag k="ssr:stedsnr" v="392168" />
	</node>
	<node lat="64.69404166553194" lon="12.373274992024788" id="-36574">
		<tag k="name" v="Djupdalen" />
		<tag k="natural" v="valley" />
		<tag k="place" v="locality" />
		<tag k="ssr:stedsnr" v="392460" />
	</node>
	<node lat="64.68035833308532" lon="12.394608323956765" id="-36575">
		<tag k="name" v="Langengan" />
		<tag k="natural" v="slope" />
		<tag k="place" v="locality" />
		<tag k="ssr:stedsnr" v="392472" />
	</node>
	<node lat="64.67258610751608" lon="12.39706665695803" id="-36576">
		<tag k="name" v="Grovahaugan" />
		<tag k="natural" v="hill" />
		<tag k="place" v="locality" />
		<tag k="ssr:stedsnr" v="392539" />
	</node>
	<node lat="64.66965833524844" lon="12.360361102953204" id="-36577">
		<tag k="name" v="Elendalen" />
		<tag k="natural" v="valley" />
		<tag k="place" v="locality" />
		<tag k="ssr:stedsnr" v="392541" />
	</node>
	<node lat="64.6476166623327" lon="12.397761111397934" id="-36580">
		<tag k="name" v="Hopmyrhaugen" />
		<tag k="natural" v="hill" />
		<tag k="place" v="locality" />
		<tag k="ssr:stedsnr" v="392562" />
	</node>
	<node lat="64.64800555322093" lon="12.363600007505573" id="-36582">
		<tag k="name" v="Storhaugen" />
		<tag k="natural" v="hill" />
		<tag k="place" v="locality" />
		<tag k="ssr:stedsnr" v="392572" />
	</node>
	<node lat="64.82907221932865" lon="12.395861104528162" id="-36583">
		<tag k="name" v="Hundholdalen" />
		<tag k="natural" v="valley" />
		<tag k="place" v="locality" />
		<tag k="ssr:stedsnr" v="392608" />
	</node>
	<node lat="64.79882499718924" lon="12.344311113642483" id="-36584">
		<tag k="fixme" v="consider natural=peak for the most distinct mountains in the district" />
		<tag k="name" v="Vesteråsen" />
		<tag k="natural" v="hill" />
		<tag k="place" v="locality" />
		<tag k="ssr:stedsnr" v="392666" />
	</node>
	<node lat="64.57714444092215" lon="12.322611106216309" id="-36588">
		<tag k="name" v="Brennhaugen" />
		<tag k="natural" v="hill" />
		<tag k="place" v="locality" />
		<tag k="ssr:stedsnr" v="393274" />
	</node>
	<node lat="64.86736944629835" lon="12.41632776990563" id="-36590">
		<tag k="name" v="Nord-Storhaugen" />
		<tag k="natural" v="hill" />
		<tag k="place" v="locality" />
		<tag k="ssr:stedsnr" v="393852" />
	</node>
	<node lat="64.83408611476324" lon="12.430594437305823" id="-36591">
		<tag k="name" v="Svarthevelbotnet" />
		<tag k="place" v="locality" />
		<tag k="ssr:stedsnr" v="393854" />
	</node>
	<node lat="64.84748610723666" lon="12.428619435076927" id="-36593">
		<tag k="name" v="Steinkløyva" />
		<tag k="place" v="locality" />
		<tag k="ssr:stedsnr" v="393862" />
	</node>
	<node lat="64.85497777540208" lon="12.442399989821274" id="-36594">
		<tag k="name" v="Skarvmolin" />
		<tag k="natural" v="slope" />
		<tag k="place" v="locality" />
		<tag k="ssr:stedsnr" v="393782" />
	</node>
	<node lat="64.56132499603864" lon="12.316305564524713" id="-36596">
		<tag k="alt_name" v="Hjartåskammen" />
		<tag k="fixme" v="consider natural=peak for the most distinct mountains in the district" />
		<tag k="name" v="Hjartåsen" />
		<tag k="natural" v="hill" />
		<tag k="place" v="locality" />
		<tag k="ssr:stedsnr" v="439694" />
	</node>
	<node lat="64.79762500359611" lon="12.450708337030756" id="-36597">
		<tag k="name" v="Stormoen" />
		<tag k="place" v="locality" />
		<tag k="ssr:stedsnr" v="439165" />
	</node>
	<node lat="64.78486944627157" lon="12.390655563046062" id="-36598">
		<tag k="name" v="Grønliskardet" />
		<tag k="natural" v="valley" />
		<tag k="place" v="locality" />
		<tag k="ssr:stedsnr" v="439173" />
	</node>
	<node lat="64.6600249961857" lon="12.32089999854981" id="-36603">
		<tag k="fixme" v="consider natural=peak for the most distinct mountains in the district" />
		<tag k="name" v="Flakkåsen" />
		<tag k="natural" v="hill" />
		<tag k="place" v="locality" />
		<tag k="ssr:stedsnr" v="439563" />
	</node>
	<node lat="64.67071944508939" lon="12.278405548876728" id="-36604">
		<tag k="fixme" v="consider natural=peak for the most distinct mountains in the district" />
		<tag k="name" v="Skeitjønnfjellet" />
		<tag k="natural" v="hill" />
		<tag k="place" v="locality" />
		<tag k="ssr:stedsnr" v="439567" />
	</node>
	<node lat="64.6683805518705" lon="12.264719453007679" id="-36605">
		<tag k="name" v="Kråenghevlan" />
		<tag k="natural" v="slope" />
		<tag k="place" v="locality" />
		<tag k="ssr:stedsnr" v="439574" />
	</node>
	<node lat="64.61865000340084" lon="12.086558332741692" id="-36611">
		<tag k="fixme" v="consider natural=peak for the most distinct mountains in the district" />
		<tag k="name" v="Langfjellet" />
		<tag k="natural" v="hill" />
		<tag k="place" v="locality" />
		<tag k="ssr:stedsnr" v="439887" />
	</node>
	<node lat="64.81820833100512" lon="12.347280555285053" id="-36614">
		<tag k="name" v="Svahylla" />
		<tag k="natural" v="hill" />
		<tag k="place" v="locality" />
		<tag k="ssr:stedsnr" v="439782" />
	</node>
	<node lat="64.60129999820158" lon="12.154099994127263" id="-36615">
		<tag k="fixme" v="consider natural=peak for the most distinct mountains in the district" />
		<tag k="name" v="Eidsfjellaksla" />
		<tag k="natural" v="hill" />
		<tag k="place" v="locality" />
		<tag k="ssr:stedsnr" v="439783" />
	</node>
	<node lat="64.61646389290543" lon="12.329286105873505" id="-36618">
		<tag k="name" v="Brynndalen" />
		<tag k="natural" v="valley" />
		<tag k="place" v="locality" />
		<tag k="ssr:stedsnr" v="440531" />
	</node>
	<node lat="64.91632499983733" lon="12.34290832989646" id="-36619">
		<tag k="fixme" v="consider natural=peak for the most distinct mountains in the district" />
		<tag k="name" v="Sagmoåsen" />
		<tag k="natural" v="hill" />
		<tag k="place" v="locality" />
		<tag k="ssr:stedsnr" v="440761" />
	</node>
	<node lat="64.67341388799272" lon="12.261386109131582" id="-36621">
		<tag k="name" v="Seterdalen" />
		<tag k="natural" v="valley" />
		<tag k="place" v="locality" />
		<tag k="ssr:stedsnr" v="499520" />
	</node>
	<node lat="64.61282499683008" lon="12.084999995588168" id="-36623">
		<tag k="fixme" v="consider natural=peak for the most distinct mountains in the district" />
		<tag k="name" v="Gjevingåsen" />
		<tag k="natural" v="hill" />
		<tag k="place" v="locality" />
		<tag k="ssr:stedsnr" v="499714" />
	</node>
	<node lat="64.87956389266014" lon="12.313036119266961" id="-36625">
		<tag k="name" v="Langfjellkråa" />
		<tag k="natural" v="valley" />
		<tag k="place" v="locality" />
		<tag k="ssr:stedsnr" v="499717" />
	</node>
	<node lat="64.62244999765996" lon="12.096702775604689" id="-36628">
		<tag k="name" v="Langberga" />
		<tag k="natural" v="hill" />
		<tag k="place" v="locality" />
		<tag k="ssr:stedsnr" v="499839" />
	</node>
	<node lat="64.72094722432249" lon="12.168352774753943" id="-36629">
		<tag k="name" v="Stigen" />
		<tag k="natural" v="slope" />
		<tag k="place" v="locality" />
		<tag k="ssr:stedsnr" v="500241" />
	</node>
	<node lat="64.76302778072015" lon="12.276136102100534" id="-36631">
		<tag k="name" v="Grønkleppholet" />
		<tag k="natural" v="valley" />
		<tag k="place" v="locality" />
		<tag k="ssr:stedsnr" v="500276" />
	</node>
	<node lat="64.67109166286339" lon="12.412813889232408" id="-36632">
		<tag k="name" v="Tjønnengklumpen" />
		<tag k="natural" v="hill" />
		<tag k="place" v="locality" />
		<tag k="ssr:stedsnr" v="500642" />
	</node>
	<node lat="64.63391111213356" lon="12.2676138947844" id="-36633">
		<tag k="name" v="Kvernhusdalen" />
		<tag k="natural" v="valley" />
		<tag k="place" v="locality" />
		<tag k="ssr:stedsnr" v="500664" />
	</node>
	<node lat="64.6522638912855" lon="12.314733338160254" id="-36635">
		<tag k="name" v="Hohaugen" />
		<tag k="natural" v="hill" />
		<tag k="place" v="locality" />
		<tag k="ssr:stedsnr" v="500676" />
	</node>
	<node lat="64.5691555572874" lon="12.126824996577728" id="-36636">
		<tag k="fixme" v="consider natural=peak for the most distinct mountains in the district" />
		<tag k="name" v="Flasnesfjellet" />
		<tag k="natural" v="hill" />
		<tag k="place" v="locality" />
		<tag k="ssr:stedsnr" v="500842" />
	</node>
	<node lat="64.90113333496691" lon="12.348361116715791" id="-36647">
		<tag k="name" v="Raudberga" />
		<tag k="natural" v="hill" />
		<tag k="place" v="locality" />
		<tag k="ssr:stedsnr" v="513759" />
	</node>
	<node lat="64.72708333510448" lon="12.174638878774084" id="-36649">
		<tag k="name" v="Stordolla" />
		<tag k="place" v="locality" />
		<tag k="ssr:stedsnr" v="514148" />
	</node>
	<node lat="64.56905555118729" lon="12.151858334980533" id="-36651">
		<tag k="name" v="Oljensadalen" />
		<tag k="natural" v="valley" />
		<tag k="place" v="locality" />
		<tag k="ssr:stedsnr" v="514244" />
	</node>
	<node lat="64.58802777521669" lon="12.245044437039972" id="-36652">
		<tag k="name" v="Hyllstein" />
		<tag k="natural" v="hill" />
		<tag k="place" v="locality" />
		<tag k="ssr:stedsnr" v="514245" />
	</node>
	<node lat="64.82250000064091" lon="12.380330561309036" id="-36656">
		<tag k="name" v="Røyrhola" />
		<tag k="place" v="locality" />
		<tag k="ssr:stedsnr" v="514566" />
	</node>
	<node lat="64.82542500351012" lon="12.363430562024446" id="-36657">
		<tag k="name" v="Seterlia" />
		<tag k="natural" v="slope" />
		<tag k="place" v="locality" />
		<tag k="ssr:stedsnr" v="514572" />
	</node>
	<node lat="64.83607222502565" lon="12.404577783909469" id="-36658">
		<tag k="name" v="Olanesdalen" />
		<tag k="natural" v="valley" />
		<tag k="place" v="locality" />
		<tag k="ssr:stedsnr" v="514576" />
	</node>
	<node lat="64.80160277810039" lon="12.433441671839308" id="-36659">
		<tag k="name" v="Forodomma" />
		<tag k="place" v="locality" />
		<tag k="ssr:stedsnr" v="514667" />
	</node>
	<node lat="64.79003333270991" lon="12.370277787989284" id="-36660">
		<tag k="name" v="Soleivollen" />
		<tag k="natural" v="slope" />
		<tag k="place" v="locality" />
		<tag k="ssr:stedsnr" v="514620" />
	</node>
	<node lat="64.72994722299997" lon="12.372924998881299" id="-36661">
		<tag k="name" v="Følldalen" />
		<tag k="natural" v="valley" />
		<tag k="place" v="locality" />
		<tag k="ssr:stedsnr" v="514639" />
	</node>
	<node lat="64.84880555745265" lon="12.425608329449563" id="-36662">
		<tag k="name" v="Lonflaugdalen" />
		<tag k="natural" v="valley" />
		<tag k="place" v="locality" />
		<tag k="ssr:stedsnr" v="514775" />
	</node>
	<node lat="64.84871944067942" lon="12.43781666638124" id="-36663">
		<tag k="name" v="Tjønnmolihaugen" />
		<tag k="natural" v="hill" />
		<tag k="place" v="locality" />
		<tag k="ssr:stedsnr" v="514776" />
	</node>
	<node lat="64.90213055343001" lon="12.432183338233044" id="-36664">
		<tag k="name" v="Seterfjellet" />
		<tag k="natural" v="hill" />
		<tag k="place" v="locality" />
		<tag k="ssr:stedsnr" v="514790" />
	</node>
	<node lat="64.90709444584544" lon="12.430769447972025" id="-36665">
		<tag k="name" v="Varnaggahaugen" />
		<tag k="natural" v="hill" />
		<tag k="place" v="locality" />
		<tag k="ssr:stedsnr" v="514792" />
	</node>
	<node lat="64.87027777501115" lon="12.398538892976099" id="-36666">
		<tag k="name" v="Kjellengtrappen" />
		<tag k="natural" v="slope" />
		<tag k="place" v="locality" />
		<tag k="ssr:stedsnr" v="514730" />
	</node>
	<node lat="64.85180555257877" lon="12.371002774421564" id="-36668">
		<tag k="name" v="Urddalshøgda" />
		<tag k="natural" v="hill" />
		<tag k="place" v="locality" />
		<tag k="ssr:stedsnr" v="514739" />
	</node>
	<node lat="64.82047222308324" lon="12.409599997930174" id="-36669">
		<tag k="fixme" v="consider natural=peak for the most distinct mountains in the district" />
		<tag k="name" v="Jensnesåsen" />
		<tag k="natural" v="hill" />
		<tag k="place" v="locality" />
		<tag k="ssr:stedsnr" v="514831" />
	</node>
	<node lat="64.84605555519936" lon="12.409797216606734" id="-36670">
		<tag k="name" v="Setermoen" />
		<tag k="place" v="locality" />
		<tag k="ssr:stedsnr" v="514841" />
	</node>
	<node lat="64.882416669783" lon="12.447766657780505" id="-36671">
		<tag k="name" v="Fagerbakken" />
		<tag k="place" v="locality" />
		<tag k="ssr:stedsnr" v="514849" />
	</node>
	<node lat="64.87156666835645" lon="12.409894446886181" id="-36672">
		<tag k="name" v="Lauvlidalen" />
		<tag k="natural" v="valley" />
		<tag k="place" v="locality" />
		<tag k="ssr:stedsnr" v="514850" />
	</node>
	<node lat="64.69215833590731" lon="12.532319445726758" id="-36678">
		<tag k="name" v="Nyfjellet" />
		<tag k="natural" v="hill" />
		<tag k="place" v="locality" />
		<tag k="ssr:stedsnr" v="533816" />
	</node>
	<node lat="64.60362499734543" lon="12.427105560225082" id="-36680">
		<tag k="name" v="Bjønnlia" />
		<tag k="natural" v="slope" />
		<tag k="place" v="locality" />
		<tag k="ssr:stedsnr" v="534857" />
	</node>
	<node lat="64.59877777442985" lon="12.35270277957031" id="-36683">
		<tag k="name" v="Almlia" />
		<tag k="natural" v="slope" />
		<tag k="place" v="locality" />
		<tag k="ssr:stedsnr" v="560573" />
	</node>
	<node lat="64.75669444411798" lon="12.228416666922902" id="-36685">
		<tag k="alt_name" v="Stordolla, fremre;Fremmerstordollen" />
		<tag k="name" v="Fremre Stordolla" />
		<tag k="natural" v="valley" />
		<tag k="place" v="locality" />
		<tag k="ssr:stedsnr" v="560210" />
	</node>
	<node lat="64.68060000083412" lon="12.062325000694056" id="-36692">
		<tag k="name" v="Himmelriket" />
		<tag k="place" v="locality" />
		<tag k="ssr:stedsnr" v="560828" />
	</node>
	<node lat="64.88564167000042" lon="12.450261112078875" id="-36697">
		<tag k="name" v="Skålhammaren" />
		<tag k="natural" v="hill" />
		<tag k="place" v="locality" />
		<tag k="ssr:stedsnr" v="560759" />
	</node>
	<node lat="64.66461389118405" lon="12.211208326477013" id="-36699">
		<tag k="fixme" v="consider natural=peak for the most distinct mountains in the district" />
		<tag k="name" v="Haugåsen" />
		<tag k="natural" v="hill" />
		<tag k="place" v="locality" />
		<tag k="ssr:stedsnr" v="560838" />
	</node>
	<node lat="64.63960278137066" lon="12.16822499397325" id="-36703">
		<tag k="fixme" v="consider natural=peak for the most distinct mountains in the district" />
		<tag k="name" v="Gammelseteråsen" />
		<tag k="natural" v="hill" />
		<tag k="place" v="locality" />
		<tag k="ssr:stedsnr" v="560864" />
	</node>
	<node lat="64.73085555431737" lon="12.258936102106532" id="-36707">
		<tag k="name" v="Storsvihevlan" />
		<tag k="natural" v="hill" />
		<tag k="place" v="locality" />
		<tag k="ssr:stedsnr" v="560922" />
	</node>
	<node lat="64.73168333059235" lon="12.254891675708295" id="-36709">
		<tag k="name" v="Tortlia" />
		<tag k="natural" v="slope" />
		<tag k="place" v="locality" />
		<tag k="ssr:stedsnr" v="574158" />
	</node>
	<node lat="64.65183333458928" lon="12.176663885282878" id="-36712">
		<tag k="name" v="Kringlehaugen" />
		<tag k="natural" v="hill" />
		<tag k="place" v="locality" />
		<tag k="ssr:stedsnr" v="574266" />
	</node>
	<node lat="64.8509611156302" lon="12.426113887770283" id="-36713">
		<tag k="name" v="Glenna" />
		<tag k="place" v="locality" />
		<tag k="ssr:stedsnr" v="575768" />
	</node>
	<node lat="64.64632221813626" lon="12.387713892638896" id="-36719">
		<tag k="name" v="Taklihaugen" />
		<tag k="natural" v="hill" />
		<tag k="place" v="locality" />
		<tag k="ssr:stedsnr" v="574547" />
	</node>
	<node lat="64.65323333674803" lon="12.36048332503099" id="-36720">
		<tag k="name" v="Sørhevlan" />
		<tag k="natural" v="ridge" />
		<tag k="place" v="locality" />
		<tag k="ssr:stedsnr" v="574548" />
	</node>
	<node lat="64.64242221988374" lon="12.353902777436687" id="-36723">
		<tag k="name" v="Månhaugen" />
		<tag k="natural" v="hill" />
		<tag k="place" v="locality" />
		<tag k="ssr:stedsnr" v="574558" />
	</node>
	<node lat="64.64360832972135" lon="12.391983341188908" id="-36724">
		<tag k="fixme" v="consider natural=peak for the most distinct mountains in the district" />
		<tag k="name" v="Seteråsen" />
		<tag k="natural" v="hill" />
		<tag k="place" v="locality" />
		<tag k="ssr:stedsnr" v="574562" />
	</node>
	<node lat="64.88437500334396" lon="12.394983323731113" id="-36725">
		<tag k="fixme" v="consider natural=peak for the most distinct mountains in the district" />
		<tag k="name" v="Hevlan" />
		<tag k="natural" v="hill" />
		<tag k="place" v="locality" />
		<tag k="ssr:stedsnr" v="574567" />
	</node>
	<node lat="64.80916111479989" lon="12.343341662654842" id="-36728">
		<tag k="name" v="Hevlan" />
		<tag k="natural" v="hill" />
		<tag k="place" v="locality" />
		<tag k="ssr:stedsnr" v="574575" />
	</node>
	<node lat="64.8175027757457" lon="12.406236112709584" id="-36729">
		<tag k="name" v="Olatjønndalen" />
		<tag k="natural" v="valley" />
		<tag k="place" v="locality" />
		<tag k="ssr:stedsnr" v="574579" />
	</node>
	<node lat="64.82058889295442" lon="12.377441669737806" id="-36730">
		<tag k="name" v="Røyrholvollen" />
		<tag k="place" v="locality" />
		<tag k="ssr:stedsnr" v="574588" />
	</node>
	<node lat="64.8256527770092" lon="12.403588888210198" id="-36731">
		<tag k="name" v="Storhalsen" />
		<tag k="place" v="locality" />
		<tag k="ssr:stedsnr" v="574594" />
	</node>
	<node lat="64.86963055588886" lon="12.389088893318727" id="-36734">
		<tag k="fixme" v="consider natural=peak for the most distinct mountains in the district" />
		<tag k="name" v="Løkrååsen" />
		<tag k="natural" v="hill" />
		<tag k="place" v="locality" />
		<tag k="ssr:stedsnr" v="574794" />
	</node>
	<node lat="64.77909166226324" lon="12.375250005535365" id="-36736">
		<tag k="name" v="Taklia" />
		<tag k="natural" v="slope" />
		<tag k="place" v="locality" />
		<tag k="ssr:stedsnr" v="574625" />
	</node>
	<node lat="64.76197499921058" lon="12.292744440751045" id="-36737">
		<tag k="name" v="Karllia" />
		<tag k="natural" v="slope" />
		<tag k="place" v="locality" />
		<tag k="ssr:stedsnr" v="574627" />
	</node>
	<node lat="64.77092499999475" lon="12.359299992408145" id="-36738">
		<tag k="name" v="Himmelriket" />
		<tag k="place" v="locality" />
		<tag k="ssr:stedsnr" v="574630" />
	</node>
	<node lat="64.79595278162856" lon="12.378338890034449" id="-36739">
		<tag k="name" v="Klokkatihaugen" />
		<tag k="natural" v="hill" />
		<tag k="place" v="locality" />
		<tag k="ssr:stedsnr" v="574637" />
	</node>
	<node lat="64.58081111199675" lon="12.288822225423658" id="-36741">
		<tag k="name" v="Monsmyrmoen" />
		<tag k="place" v="locality" />
		<tag k="ssr:stedsnr" v="575259" />
	</node>
	<node lat="64.58557499702724" lon="12.367591666688083" id="-36745">
		<tag k="name" v="Lodoenghaugen" />
		<tag k="natural" v="hill" />
		<tag k="place" v="locality" />
		<tag k="ssr:stedsnr" v="575279" />
	</node>
	<node lat="64.84172222568911" lon="12.439475006955567" id="-36746">
		<tag k="name" v="Brattrøystlia" />
		<tag k="natural" v="slope" />
		<tag k="place" v="locality" />
		<tag k="ssr:stedsnr" v="575840" />
	</node>
	<node lat="64.75414999964886" lon="12.428230560209762" id="-36751">
		<tag k="name" v="Skavlia" />
		<tag k="natural" v="slope" />
		<tag k="place" v="locality" />
		<tag k="ssr:stedsnr" v="594990" />
	</node>
	<node lat="64.70870277574383" lon="12.398336115157269" id="-36755">
		<tag k="fixme" v="consider natural=peak for the most distinct mountains in the district" />
		<tag k="name" v="Vardan" />
		<tag k="natural" v="hill" />
		<tag k="place" v="locality" />
		<tag k="ssr:stedsnr" v="621944" />
	</node>
	<node lat="64.57097499702492" lon="12.322119435989924" id="-36759">
		<tag k="name" v="Bupeldalen" />
		<tag k="natural" v="valley" />
		<tag k="place" v="locality" />
		<tag k="ssr:stedsnr" v="621742" />
	</node>
	<node lat="64.87405000033846" lon="12.404500002203621" id="-36762">
		<tag k="name" v="Tordalen" />
		<tag k="natural" v="valley" />
		<tag k="place" v="locality" />
		<tag k="ssr:stedsnr" v="621785" />
	</node>
	<node lat="64.7403666646934" lon="12.418313878150924" id="-36768">
		<tag k="name" v="Pålåholet" />
		<tag k="natural" v="valley" />
		<tag k="place" v="locality" />
		<tag k="ssr:stedsnr" v="621888" />
	</node>
	<node lat="64.65519444347728" lon="12.066625003845514" id="-36769">
		<tag k="name" v="Kapteinholet" />
		<tag k="natural" v="valley" />
		<tag k="place" v="locality" />
		<tag k="ssr:stedsnr" v="621857" />
	</node>
	<node lat="64.64752500285712" lon="12.161375002357639" id="-36770">
		<tag k="name" v="Tyldhaugan" />
		<tag k="natural" v="hill" />
		<tag k="place" v="locality" />
		<tag k="ssr:stedsnr" v="621861" />
	</node>
	<node lat="64.64049722447295" lon="12.372958343874647" id="-36773">
		<tag k="name" v="Litlenghaugen" />
		<tag k="natural" v="hill" />
		<tag k="place" v="locality" />
		<tag k="ssr:stedsnr" v="634555" />
	</node>
	<node lat="64.72688333559422" lon="12.202683337185224" id="-36774">
		<tag k="name" v="Bygselslættlia" />
		<tag k="natural" v="slope" />
		<tag k="place" v="locality" />
		<tag k="ssr:stedsnr" v="634122" />
	</node>
	<node lat="64.64610277959552" lon="12.202680555191819" id="-36776">
		<tag k="name" v="Styggdalen" />
		<tag k="natural" v="valley" />
		<tag k="place" v="locality" />
		<tag k="ssr:stedsnr" v="634240" />
	</node>
	<node lat="64.64046666674118" lon="12.186744443018709" id="-36777">
		<tag k="fixme" v="consider natural=peak for the most distinct mountains in the district" />
		<tag k="name" v="Blakkmyråsen" />
		<tag k="natural" v="hill" />
		<tag k="place" v="locality" />
		<tag k="ssr:stedsnr" v="634242" />
	</node>
	<node lat="64.64692777868645" lon="12.171891673795091" id="-36779">
		<tag k="name" v="Andreashaugen" />
		<tag k="natural" v="hill" />
		<tag k="place" v="locality" />
		<tag k="ssr:stedsnr" v="634253" />
	</node>
	<node lat="64.60523610692937" lon="12.199280561321679" id="-36780">
		<tag k="fixme" v="consider natural=peak for the most distinct mountains in the district" />
		<tag k="name" v="Eliasåsen" />
		<tag k="natural" v="hill" />
		<tag k="place" v="locality" />
		<tag k="ssr:stedsnr" v="634272" />
	</node>
	<node lat="64.68629444807154" lon="12.33841943650085" id="-36781">
		<tag k="name" v="Nilshaugen" />
		<tag k="natural" v="hill" />
		<tag k="place" v="locality" />
		<tag k="ssr:stedsnr" v="634449" />
	</node>
	<node lat="64.68167777381566" lon="12.334694446705273" id="-36782">
		<tag k="name" v="Midterhaugen" />
		<tag k="natural" v="hill" />
		<tag k="place" v="locality" />
		<tag k="ssr:stedsnr" v="634457" />
	</node>
	<node lat="64.7193333339567" lon="12.355572217715459" id="-36784">
		<tag k="name" v="Årvollhaugen" />
		<tag k="natural" v="hill" />
		<tag k="place" v="locality" />
		<tag k="ssr:stedsnr" v="634644" />
	</node>
	<node lat="64.72951111267558" lon="12.360744435273467" id="-36786">
		<tag k="name" v="Lyhaugen" />
		<tag k="natural" v="hill" />
		<tag k="place" v="locality" />
		<tag k="ssr:stedsnr" v="634650" />
	</node>
	<node lat="64.73858611408181" lon="12.349644441652526" id="-36787">
		<tag k="name" v="Øyberga" />
		<tag k="natural" v="hill" />
		<tag k="place" v="locality" />
		<tag k="ssr:stedsnr" v="634661" />
	</node>
	<node lat="64.70455833626384" lon="12.370722218805284" id="-36790">
		<tag k="name" v="Tverrberget" />
		<tag k="natural" v="hill" />
		<tag k="place" v="locality" />
		<tag k="ssr:stedsnr" v="634424" />
	</node>
	<node lat="64.60613888455075" lon="12.302433332180529" id="-36791">
		<tag k="name" v="Nonsdalen" />
		<tag k="natural" v="valley" />
		<tag k="place" v="locality" />
		<tag k="ssr:stedsnr" v="634501" />
	</node>
	<node lat="64.78176388800202" lon="12.356744449627701" id="-36792">
		<tag k="name" v="Bjørnstigen" />
		<tag k="place" v="locality" />
		<tag k="ssr:stedsnr" v="634622" />
	</node>
	<node lat="64.90341110794863" lon="12.345036113496555" id="-36793">
		<tag k="fixme" v="consider natural=peak for the most distinct mountains in the district" />
		<tag k="name" v="Mjøsundhyttåsen" />
		<tag k="natural" v="hill" />
		<tag k="place" v="locality" />
		<tag k="ssr:stedsnr" v="634766" />
	</node>
	<node lat="64.85996944694169" lon="12.4017666700194" id="-36794">
		<tag k="name" v="Torskarmarka" />
		<tag k="place" v="locality" />
		<tag k="ssr:stedsnr" v="634775" />
	</node>
	<node lat="64.6253444477334" lon="12.372866671715286" id="-36798">
		<tag k="name" v="Brennhaugen" />
		<tag k="natural" v="hill" />
		<tag k="place" v="locality" />
		<tag k="ssr:stedsnr" v="635464" />
	</node>
	<node lat="64.64462778204671" lon="12.111286109201606" id="-36803">
		<tag k="name" v="Kvitberget" />
		<tag k="natural" v="hill" />
		<tag k="place" v="locality" />
		<tag k="ssr:stedsnr" v="652880" />
	</node>
	<node lat="64.67256944849663" lon="12.149872219992368" id="-36805">
		<tag k="name" v="Litlfjellet" />
		<tag k="natural" v="slope" />
		<tag k="place" v="locality" />
		<tag k="ssr:stedsnr" v="655922" />
	</node>
	<node lat="64.691108332939" lon="12.51675277598458" id="-36807">
		<tag k="name" v="Besvassmoan" />
		<tag k="place" v="locality" />
		<tag k="ssr:stedsnr" v="715797" />
	</node>
	<node lat="64.7528194444998" lon="12.415749996237064" id="-36808">
		<tag k="name" v="Litltrebosdalen" />
		<tag k="natural" v="valley" />
		<tag k="place" v="locality" />
		<tag k="ssr:stedsnr" v="715990" />
	</node>
	<node lat="64.68994166327636" lon="12.170519449068896" id="-36812">
		<tag k="name" v="Peseterdalen" />
		<tag k="natural" v="valley" />
		<tag k="place" v="locality" />
		<tag k="ssr:stedsnr" v="743220" />
	</node>
	<node lat="64.67621389076844" lon="12.407511115831925" id="-36813">
		<tag k="alt_name" v="Ågehola" />
		<tag k="name" v="Ågeholet" />
		<tag k="natural" v="valley" />
		<tag k="place" v="locality" />
		<tag k="ssr:stedsnr" v="742561" />
	</node>
	<node lat="64.83721944350154" lon="12.548300000007067" id="-36815">
		<tag k="name" v="Sövrevaajja" />
		<tag k="name:sma" v="Sövrevaajja" />
		<tag k="natural" v="valley" />
		<tag k="place" v="locality" />
		<tag k="ssr:stedsnr" v="742760" />
	</node>
	<node lat="64.78525277788397" lon="12.257433324386788" id="-36826">
		<tag k="name" v="Tjønnmyrstigen" />
		<tag k="place" v="locality" />
		<tag k="ssr:stedsnr" v="756132" />
	</node>
	<node lat="64.61472222099597" lon="12.210313891404773" id="-36827">
		<tag k="name" v="Nonshallan" />
		<tag k="natural" v="slope" />
		<tag k="place" v="locality" />
		<tag k="ssr:stedsnr" v="756248" />
	</node>
	<node lat="64.55623610804459" lon="12.258716658808304" id="-36829">
		<tag k="name" v="Ågefjellet" />
		<tag k="natural" v="mountain_range" />
		<tag k="ssr:stedsnr" v="756196" />
	</node>
	<node lat="64.71706944709413" lon="12.390591664261258" id="-36830">
		<tag k="name" v="Skifteshaugen" />
		<tag k="natural" v="hill" />
		<tag k="place" v="locality" />
		<tag k="ssr:stedsnr" v="756392" />
	</node>
	<node lat="64.61971389051226" lon="12.406547221797448" id="-36831">
		<tag k="name" v="Storlia" />
		<tag k="natural" v="slope" />
		<tag k="place" v="locality" />
		<tag k="ssr:stedsnr" v="756471" />
	</node>
	<node lat="64.65701944247631" lon="12.352808325203267" id="-36833">
		<tag k="name" v="Tonobekklia" />
		<tag k="natural" v="slope" />
		<tag k="place" v="locality" />
		<tag k="ssr:stedsnr" v="756494" />
	</node>
	<node lat="64.79708333387818" lon="12.400730553524058" id="-36840">
		<tag k="name" v="Mattishaugen" />
		<tag k="natural" v="hill" />
		<tag k="place" v="locality" />
		<tag k="ssr:stedsnr" v="756628" />
	</node>
	<node lat="64.79357777749287" lon="12.297083328028648" id="-36841">
		<tag k="name" v="Kalhaugen" />
		<tag k="natural" v="hill" />
		<tag k="place" v="locality" />
		<tag k="ssr:stedsnr" v="756642" />
	</node>
	<node lat="64.83363611038664" lon="12.398922219130636" id="-36842">
		<tag k="name" v="Kviltdalen" />
		<tag k="natural" v="valley" />
		<tag k="place" v="locality" />
		<tag k="ssr:stedsnr" v="756566" />
	</node>
	<node lat="64.72167222474341" lon="12.30726110207068" id="-36844">
		<tag k="name" v="Småengdalen" />
		<tag k="natural" v="valley" />
		<tag k="place" v="locality" />
		<tag k="ssr:stedsnr" v="756661" />
	</node>
	<node lat="64.86493333729247" lon="12.342638896741873" id="-36847">
		<tag k="name" v="Langfjellskardet" />
		<tag k="natural" v="valley" />
		<tag k="place" v="locality" />
		<tag k="ssr:stedsnr" v="756762" />
	</node>
	<node lat="64.8919666652742" lon="12.396861118529284" id="-36848">
		<tag k="name" v="Hevlan" />
		<tag k="natural" v="hill" />
		<tag k="place" v="locality" />
		<tag k="ssr:stedsnr" v="756741" />
	</node>
	<node lat="64.62320000309995" lon="12.194572226274932" id="-36850">
		<tag k="fixme" v="consider natural=peak for the most distinct mountains in the district" />
		<tag k="name" v="Storåsen" />
		<tag k="natural" v="hill" />
		<tag k="place" v="locality" />
		<tag k="ssr:stedsnr" v="757194" />
	</node>
	<node lat="64.56358055834035" lon="12.302033341848173" id="-36851">
		<tag k="name" v="Åsenghaugen" />
		<tag k="natural" v="hill" />
		<tag k="place" v="locality" />
		<tag k="ssr:stedsnr" v="757290" />
	</node>
	<node lat="64.7894944443784" lon="12.411794454072973" id="-36852">
		<tag k="name" v="Teigan" />
		<tag k="place" v="locality" />
		<tag k="ssr:stedsnr" v="757623" />
	</node>
	<node lat="64.8611194408658" lon="12.410336103519482" id="-36854">
		<tag k="name" v="Liin" />
		<tag k="natural" v="slope" />
		<tag k="place" v="locality" />
		<tag k="ssr:stedsnr" v="757767" />
	</node>
	<node lat="64.55053333240646" lon="12.194097231903166" id="-36856">
		<tag k="name" v="Tomaslia" />
		<tag k="natural" v="slope" />
		<tag k="place" v="locality" />
		<tag k="ssr:stedsnr" v="773429" />
	</node>
	<node lat="64.78589999851934" lon="12.37766388649974" id="-36858">
		<tag k="name" v="Grønlia" />
		<tag k="natural" v="slope" />
		<tag k="place" v="locality" />
		<tag k="ssr:stedsnr" v="803542" />
	</node>
	<node lat="64.57675833303131" lon="12.258144440058537" id="-36859">
		<tag k="name" v="Mattisberga" />
		<tag k="natural" v="hill" />
		<tag k="place" v="locality" />
		<tag k="ssr:stedsnr" v="803553" />
	</node>
	<node lat="64.87122500124012" lon="12.412450006722194" id="-36864">
		<tag k="fixme" v="consider natural=peak for the most distinct mountains in the district" />
		<tag k="name" v="Kongsmoåsen" />
		<tag k="natural" v="hill" />
		<tag k="place" v="locality" />
		<tag k="ssr:stedsnr" v="803754" />
	</node>
	<node lat="64.82718055596784" lon="12.543199995295561" id="-36866">
		<tag k="alt_name" v="Austerdalen" />
		<tag k="name" v="Øysterdalen" />
		<tag k="natural" v="valley" />
		<tag k="place" v="locality" />
		<tag k="ssr:stedsnr" v="803776" />
	</node>
	<node lat="64.85805833404204" lon="12.34004999954346" id="-36867">
		<tag k="name" v="Bjørtjønndalen" />
		<tag k="natural" v="valley" />
		<tag k="place" v="locality" />
		<tag k="ssr:stedsnr" v="803781" />
	</node>
	<node lat="64.67780277985594" lon="12.181800007486903" id="-36869">
		<tag k="fixme" v="consider natural=peak for the most distinct mountains in the district" />
		<tag k="name" v="Hevlan" />
		<tag k="natural" v="hill" />
		<tag k="place" v="locality" />
		<tag k="ssr:stedsnr" v="803827" />
	</node>
	<node lat="64.66112499979535" lon="12.165724999595156" id="-36870">
		<tag k="fixme" v="consider natural=peak for the most distinct mountains in the district" />
		<tag k="name" v="Eidsååsen" />
		<tag k="natural" v="hill" />
		<tag k="place" v="locality" />
		<tag k="ssr:stedsnr" v="803837" />
	</node>
	<node lat="64.65645000030446" lon="12.185500009159625" id="-36871">
		<tag k="fixme" v="consider natural=peak for the most distinct mountains in the district" />
		<tag k="name" v="Marenåsen" />
		<tag k="natural" v="hill" />
		<tag k="place" v="locality" />
		<tag k="ssr:stedsnr" v="803844" />
	</node>
	<node lat="64.64209999680564" lon="12.146780555521369" id="-36873">
		<tag k="alt_name" v="Iver-Ammundshaugen" />
		<tag k="name" v="Storbukthøgda" />
		<tag k="natural" v="hill" />
		<tag k="place" v="locality" />
		<tag k="ssr:stedsnr" v="803863" />
	</node>
	<node lat="64.77952499912493" lon="12.278452785312824" id="-36880">
		<tag k="alt_name" v="Tjønnmyrklompen" />
		<tag k="fixme" v="consider natural=peak for the most distinct mountains in the district" />
		<tag k="name" v="Tjørnmyrklumpen" />
		<tag k="natural" v="hill" />
		<tag k="place" v="locality" />
		<tag k="ssr:stedsnr" v="804232" />
	</node>
	<node lat="64.61905278025068" lon="12.316019438780971" id="-36883">
		<tag k="name" v="Mikkjelhaugen" />
		<tag k="natural" v="hill" />
		<tag k="place" v="locality" />
		<tag k="ssr:stedsnr" v="804551" />
	</node>
	<node lat="64.53712777765752" lon="12.180741670778499" id="-36890">
		<tag k="name" v="Middagshaugen" />
		<tag k="natural" v="hill" />
		<tag k="place" v="locality" />
		<tag k="ssr:stedsnr" v="817066" />
	</node>
	<node lat="64.60807778056447" lon="12.088247222494909" id="-36891">
		<tag k="name" v="Glømmesdalen" />
		<tag k="natural" v="valley" />
		<tag k="place" v="locality" />
		<tag k="ssr:stedsnr" v="817130" />
	</node>
	<node lat="64.5483750032695" lon="12.197116665370363" id="-36892">
		<tag k="name" v="Styggdalen" />
		<tag k="natural" v="valley" />
		<tag k="place" v="locality" />
		<tag k="ssr:stedsnr" v="817229" />
	</node>
	<node lat="64.5718805569759" lon="12.268575008649854" id="-36893">
		<tag k="name" v="Åsberget" />
		<tag k="natural" v="hill" />
		<tag k="place" v="locality" />
		<tag k="ssr:stedsnr" v="817232" />
	</node>
	<node lat="64.62477499557863" lon="12.250980558081356" id="-36894">
		<tag k="name" v="Kvernhusfjellhaugen" />
		<tag k="natural" v="hill" />
		<tag k="place" v="locality" />
		<tag k="ssr:stedsnr" v="817248" />
	</node>
	<node lat="64.60078888810396" lon="12.19817499158819" id="-36896">
		<tag k="name" v="Eidsfjelltuva" />
		<tag k="natural" v="hill" />
		<tag k="place" v="locality" />
		<tag k="ssr:stedsnr" v="817256" />
	</node>
	<node lat="64.6694888865892" lon="12.34221110210118" id="-36898">
		<tag k="name" v="Råtjønnberget" />
		<tag k="natural" v="hill" />
		<tag k="place" v="locality" />
		<tag k="ssr:stedsnr" v="817473" />
	</node>
	<node lat="64.59543333500028" lon="12.412016670611628" id="-36899">
		<tag k="alt_name" v="Tortliskaret" />
		<tag k="name" v="Tortliskardet" />
		<tag k="natural" v="valley" />
		<tag k="place" v="locality" />
		<tag k="ssr:stedsnr" v="817474" />
	</node>
	<node lat="64.65343055633896" lon="12.409555557218798" id="-36902">
		<tag k="name" v="Midterklompen" />
		<tag k="natural" v="hill" />
		<tag k="place" v="locality" />
		<tag k="ssr:stedsnr" v="817504" />
	</node>
	<node lat="64.68967221884037" lon="12.36859165996015" id="-36907">
		<tag k="name" v="Moan" />
		<tag k="natural" v="wood" />
		<tag k="ssr:stedsnr" v="817434" />
	</node>
	<node lat="64.6226444476218" lon="12.361955548224596" id="-36909">
		<tag k="name" v="Tettvettmoen" />
		<tag k="place" v="locality" />
		<tag k="ssr:stedsnr" v="817450" />
	</node>
	<node lat="64.61932777471606" lon="12.371694436393097" id="-36911">
		<tag k="alt_name" v="Tordbekkskaret" />
		<tag k="name" v="Tordbekkskardet" />
		<tag k="natural" v="valley" />
		<tag k="place" v="locality" />
		<tag k="ssr:stedsnr" v="817466" />
	</node>
	<node lat="64.83278055257628" lon="12.39344999362086" id="-36912">
		<tag k="name" v="Hundholvollen" />
		<tag k="place" v="locality" />
		<tag k="ssr:stedsnr" v="817545" />
	</node>
	<node lat="64.83871944720475" lon="12.403277788636387" id="-36914">
		<tag k="name" v="Øver Olanesvollen" />
		<tag k="place" v="locality" />
		<tag k="ssr:stedsnr" v="817551" />
	</node>
	<node lat="64.72793888787758" lon="12.308308339849203" id="-36915">
		<tag k="name" v="Seterdalen" />
		<tag k="natural" v="valley" />
		<tag k="place" v="locality" />
		<tag k="ssr:stedsnr" v="817629" />
	</node>
	<node lat="64.91040555730915" lon="12.352074990102428" id="-36919">
		<tag k="name" v="Vegengdalen" />
		<tag k="natural" v="valley" />
		<tag k="place" v="locality" />
		<tag k="ssr:stedsnr" v="817749" />
	</node>
	<node lat="64.89911666846935" lon="12.35780556459878" id="-36920">
		<tag k="fixme" v="consider natural=peak for the most distinct mountains in the district" />
		<tag k="name" v="Kjerringtjønnåsen" />
		<tag k="natural" v="hill" />
		<tag k="place" v="locality" />
		<tag k="ssr:stedsnr" v="817756" />
	</node>
	<node lat="64.8003888903626" lon="12.375652780271347" id="-36924">
		<tag k="fixme" v="consider natural=peak for the most distinct mountains in the district" />
		<tag k="name" v="Hjortholrabban" />
		<tag k="natural" v="hill" />
		<tag k="place" v="locality" />
		<tag k="ssr:stedsnr" v="817601" />
	</node>
	<node lat="64.7955083368414" lon="12.280524995119816" id="-36925">
		<tag k="name" v="Storbakkan" />
		<tag k="natural" v="slope" />
		<tag k="place" v="locality" />
		<tag k="ssr:stedsnr" v="817609" />
	</node>
	<node lat="64.80335556011109" lon="12.344688886504565" id="-36926">
		<tag k="name" v="Meraftadalen" />
		<tag k="natural" v="valley" />
		<tag k="place" v="locality" />
		<tag k="ssr:stedsnr" v="817612" />
	</node>
	<node lat="64.73896666665398" lon="12.375097217219839" id="-36927">
		<tag k="fixme" v="consider natural=peak for the most distinct mountains in the district" />
		<tag k="name" v="Sør-Finnmyråsen" />
		<tag k="natural" v="hill" />
		<tag k="place" v="locality" />
		<tag k="ssr:stedsnr" v="817614" />
	</node>
	<node lat="64.8570416708261" lon="12.447822213254119" id="-36932">
		<tag k="name" v="Godmatlia" />
		<tag k="natural" v="slope" />
		<tag k="place" v="locality" />
		<tag k="ssr:stedsnr" v="818797" />
	</node>
	<node lat="64.85844722293523" lon="12.435508326235645" id="-36933">
		<tag k="name" v="Mattisåneset" />
		<tag k="place" v="locality" />
		<tag k="ssr:stedsnr" v="818799" />
	</node>
	<node lat="64.86373611050173" lon="12.414811114444278" id="-36934">
		<tag k="name" v="Sør-Storhaugen" />
		<tag k="natural" v="hill" />
		<tag k="place" v="locality" />
		<tag k="ssr:stedsnr" v="818806" />
	</node>
	<node lat="64.86826944215801" lon="12.438936102050546" id="-36937">
		<tag k="name" v="Purkvolldalen" />
		<tag k="natural" v="valley" />
		<tag k="place" v="locality" />
		<tag k="ssr:stedsnr" v="818845" />
	</node>
	<node lat="64.83089444195913" lon="12.4276972265239" id="-36938">
		<tag k="name" v="Svarthevelen" />
		<tag k="natural" v="hill" />
		<tag k="place" v="locality" />
		<tag k="ssr:stedsnr" v="818856" />
	</node>
	<node lat="64.70207777414306" lon="12.434619433936197" id="-36939">
		<tag k="fixme" v="consider natural=peak for the most distinct mountains in the district" />
		<tag k="name" v="Skiftestoppen" />
		<tag k="natural" v="hill" />
		<tag k="place" v="locality" />
		<tag k="ssr:stedsnr" v="837954" />
	</node>
	<node lat="64.78207777491058" lon="12.251200002406444" id="-36941">
		<tag k="alt_name" v="Stortverrådalen" />
		<tag k="name" v="Tverrådalen" />
		<tag k="natural" v="valley" />
		<tag k="place" v="locality" />
		<tag k="ssr:stedsnr" v="864194" />
	</node>
	<node lat="64.56760000051655" lon="12.139575009559094" id="-36949">
		<tag k="name" v="Vikadalen" />
		<tag k="natural" v="valley" />
		<tag k="place" v="locality" />
		<tag k="ssr:stedsnr" v="864183" />
	</node>
	<node lat="64.65483888477057" lon="12.287549996845053" id="-36955">
		<tag k="alt_name" v="Storberga" />
		<tag k="name" v="Storberget" />
		<tag k="natural" v="hill" />
		<tag k="place" v="locality" />
		<tag k="ssr:stedsnr" v="864608" />
	</node>
	<node lat="64.67448055278788" lon="12.302225001749573" id="-36956">
		<tag k="name" v="Flakkahaugan" />
		<tag k="natural" v="hill" />
		<tag k="place" v="locality" />
		<tag k="ssr:stedsnr" v="864621" />
	</node>
	<node lat="64.67904167095276" lon="12.272402779632793" id="-36958">
		<tag k="fixme" v="consider natural=peak for the most distinct mountains in the district" />
		<tag k="name" v="Storåsen" />
		<tag k="natural" v="hill" />
		<tag k="place" v="locality" />
		<tag k="ssr:stedsnr" v="864625" />
	</node>
	<node lat="64.55804999898831" lon="12.315280551280228" id="-36959">
		<tag k="name" v="Hjartåsflauget" />
		<tag k="natural" v="valley" />
		<tag k="place" v="locality" />
		<tag k="ssr:stedsnr" v="864728" />
	</node>
	<node lat="64.58196388928855" lon="12.307200009868696" id="-36960">
		<tag k="alt_name" v="Bjørkhaugen" />
		<tag k="name" v="Hjarthaugen" />
		<tag k="natural" v="hill" />
		<tag k="place" v="locality" />
		<tag k="ssr:stedsnr" v="864741" />
	</node>
	<node lat="64.86211110927731" lon="12.437974991138178" id="-36961">
		<tag k="name" v="Fjøsberget" />
		<tag k="natural" v="hill" />
		<tag k="place" v="locality" />
		<tag k="ssr:stedsnr" v="864809" />
	</node>
	<node lat="64.57836389037529" lon="12.104958340777227" id="-36962">
		<tag k="fixme" v="consider natural=peak for the most distinct mountains in the district" />
		<tag k="name" v="Vikafjellet" />
		<tag k="natural" v="hill" />
		<tag k="place" v="locality" />
		<tag k="ssr:stedsnr" v="864820" />
	</node>
	<node lat="64.90874999626736" lon="12.578813895777667" id="-36963">
		<tag k="name" v="Benjamindalen" />
		<tag k="natural" v="valley" />
		<tag k="place" v="locality" />
		<tag k="ssr:stedsnr" v="864827" />
	</node>
	<node lat="64.65810000224994" lon="12.139450010616786" id="-36964">
		<tag k="name" v="Langdalen" />
		<tag k="natural" v="valley" />
		<tag k="place" v="locality" />
		<tag k="ssr:stedsnr" v="864852" />
	</node>
	<node lat="64.63032500114478" lon="12.049799995223758" id="-36966">
		<tag k="name" v="Kovahaugen" />
		<tag k="natural" v="hill" />
		<tag k="place" v="locality" />
		<tag k="ssr:stedsnr" v="864874" />
	</node>
	<node lat="64.57155277668936" lon="12.13412778701563" id="-36974">
		<tag k="name" v="Fagerliin" />
		<tag k="natural" v="slope" />
		<tag k="place" v="locality" />
		<tag k="ssr:stedsnr" v="878085" />
	</node>
	<node lat="64.63898055787334" lon="12.391830560022706" id="-36975">
		<tag k="name" v="Svarthaugen" />
		<tag k="natural" v="hill" />
		<tag k="place" v="locality" />
		<tag k="ssr:stedsnr" v="878577" />
	</node>
	<node lat="64.87928333598632" lon="12.38275276927322" id="-36976">
		<tag k="name" v="Finntrappen" />
		<tag k="natural" v="hill" />
		<tag k="place" v="locality" />
		<tag k="ssr:stedsnr" v="878585" />
	</node>
	<node lat="64.8054638857477" lon="12.37404166841512" id="-36977">
		<tag k="name" v="Sisselmyrholet" />
		<tag k="place" v="locality" />
		<tag k="ssr:stedsnr" v="878588" />
	</node>
	<node lat="64.87310277490701" lon="12.371424998189864" id="-36979">
		<tag k="name" v="Heilvasstuven" />
		<tag k="natural" v="hill" />
		<tag k="place" v="locality" />
		<tag k="ssr:stedsnr" v="878764" />
	</node>
	<node lat="64.8590611101498" lon="12.39652222311613" id="-36980">
		<tag k="name" v="Litlaunan" />
		<tag k="place" v="locality" />
		<tag k="ssr:stedsnr" v="878771" />
	</node>
	<node lat="64.71094444527702" lon="12.367397231412335" id="-36982">
		<tag k="name" v="Hesjigolvet" />
		<tag k="place" v="locality" />
		<tag k="ssr:stedsnr" v="878465" />
	</node>
	<node lat="64.70156388582794" lon="12.388511118274437" id="-36983">
		<tag k="name" v="Besdallia" />
		<tag k="natural" v="slope" />
		<tag k="place" v="locality" />
		<tag k="ssr:stedsnr" v="878468" />
	</node>
	<node lat="64.69877778143163" lon="12.349813890957636" id="-36984">
		<tag k="name" v="Halbostadberget" />
		<tag k="natural" v="hill" />
		<tag k="place" v="locality" />
		<tag k="ssr:stedsnr" v="878469" />
	</node>
	<node lat="64.76458611393329" lon="12.297194453069222" id="-36992">
		<tag k="name" v="Fiskådalen" />
		<tag k="natural" v="valley" />
		<tag k="place" v="locality" />
		<tag k="ssr:stedsnr" v="878639" />
	</node>
	<node lat="64.68286111128309" lon="12.383427782281398" id="-36993">
		<tag k="name" v="Furufjellet" />
		<tag k="natural" v="wood" />
		<tag k="ssr:stedsnr" v="878498" />
	</node>
	<node lat="64.7990611129296" lon="12.442919442846968" id="-36995">
		<tag k="name" v="Nermoen" />
		<tag k="place" v="locality" />
		<tag k="ssr:stedsnr" v="879625" />
	</node>
	<node lat="64.88741388462725" lon="12.460013891254375" id="-36998">
		<tag k="name" v="Hervollen" />
		<tag k="place" v="locality" />
		<tag k="ssr:stedsnr" v="879867" />
	</node>
	<node lat="64.8252249975264" lon="12.410636114717883" id="-36999">
		<tag k="fixme" v="consider natural=peak for the most distinct mountains in the district" />
		<tag k="name" v="Neppåsen" />
		<tag k="natural" v="hill" />
		<tag k="place" v="locality" />
		<tag k="ssr:stedsnr" v="879843" />
	</node>
	<node lat="64.84437499982158" lon="12.424158327072679" id="-37000">
		<tag k="name" v="Kinnmiliholet" />
		<tag k="place" v="locality" />
		<tag k="ssr:stedsnr" v="879845" />
	</node>
	<node lat="64.56781944019536" lon="12.274413892555101" id="-37001">
		<tag k="name" v="Setermoen" />
		<tag k="place" v="locality" />
		<tag k="ssr:stedsnr" v="939236" />
	</node>
	<node lat="64.71698888777459" lon="12.316105553321664" id="-37003">
		<tag k="fixme" v="consider natural=peak for the most distinct mountains in the district" />
		<tag k="name" v="Skogåsen" />
		<tag k="natural" v="hill" />
		<tag k="place" v="locality" />
		<tag k="ssr:stedsnr" v="938392" />
	</node>
	<node lat="64.70974444053265" lon="12.376955551703661" id="-37004">
		<tag k="name" v="Høa" />
		<tag k="place" v="locality" />
		<tag k="ssr:stedsnr" v="938399" />
	</node>
	<node lat="64.90984999775355" lon="12.34009166858587" id="-37008">
		<tag k="name" v="Hølbekknesa" />
		<tag k="place" v="locality" />
		<tag k="ssr:stedsnr" v="938742" />
	</node>
	<node lat="64.74463610861815" lon="12.35805832403058" id="-37010">
		<tag k="name" v="Kvernhusbakkan" />
		<tag k="natural" v="slope" />
		<tag k="place" v="locality" />
		<tag k="ssr:stedsnr" v="938629" />
	</node>
	<node lat="64.56137222035679" lon="12.200905564888092" id="-37013">
		<tag k="name" v="Seterhaugen" />
		<tag k="natural" v="hill" />
		<tag k="place" v="locality" />
		<tag k="ssr:stedsnr" v="939232" />
	</node>
	<node lat="64.56540277751687" lon="12.135999992336668" id="-37015">
		<tag k="name" v="Kvernhushaugen" />
		<tag k="natural" v="hill" />
		<tag k="place" v="locality" />
		<tag k="ssr:stedsnr" v="939075" />
	</node>
	<node lat="64.67405833047458" lon="12.221361103844293" id="-37016">
		<tag k="name" v="Bjørnmyrlia" />
		<tag k="natural" v="slope" />
		<tag k="place" v="locality" />
		<tag k="ssr:stedsnr" v="939248" />
	</node>
	<node lat="64.61333055378637" lon="12.229780558655586" id="-37018">
		<tag k="fixme" v="consider natural=peak for the most distinct mountains in the district" />
		<tag k="name" v="Heimerengåsen" />
		<tag k="natural" v="hill" />
		<tag k="place" v="locality" />
		<tag k="ssr:stedsnr" v="939266" />
	</node>
	<node lat="64.68780833229701" lon="12.382813885758422" id="-37019">
		<tag k="name" v="Svahyllmoen" />
		<tag k="place" v="locality" />
		<tag k="ssr:stedsnr" v="939446" />
	</node>
	<node lat="64.6294833340645" lon="12.385972218046245" id="-37020">
		<tag k="name" v="Limsteinlia" />
		<tag k="natural" v="slope" />
		<tag k="place" v="locality" />
		<tag k="ssr:stedsnr" v="939468" />
	</node>
	<node lat="64.6279166623055" lon="12.373705562853194" id="-37021">
		<tag k="name" v="Raummyrhaugen" />
		<tag k="natural" v="hill" />
		<tag k="place" v="locality" />
		<tag k="ssr:stedsnr" v="939470" />
	</node>
	<node lat="64.62341111011685" lon="12.333980546798816" id="-37023">
		<tag k="name" v="Haugan" />
		<tag k="natural" v="hill" />
		<tag k="place" v="locality" />
		<tag k="ssr:stedsnr" v="939477" />
	</node>
	<node lat="64.82172500031483" lon="12.348680553699104" id="-37024">
		<tag k="name" v="Nordfjellet" />
		<tag k="place" v="locality" />
		<tag k="ssr:stedsnr" v="939552" />
	</node>
	<node lat="64.83925000338635" lon="12.405052772396651" id="-37025">
		<tag k="name" v="Midter Olanesvollen" />
		<tag k="place" v="locality" />
		<tag k="ssr:stedsnr" v="939569" />
	</node>
	<node lat="64.79227778133003" lon="12.365936111499316" id="-37026">
		<tag k="name" v="Elvholet" />
		<tag k="place" v="locality" />
		<tag k="ssr:stedsnr" v="939614" />
	</node>
	<node lat="64.72808611346375" lon="12.362699993447293" id="-37027">
		<tag k="name" v="Svedalen" />
		<tag k="natural" v="valley" />
		<tag k="place" v="locality" />
		<tag k="ssr:stedsnr" v="939618" />
	</node>
	<node lat="64.72822499721286" lon="12.369683323116007" id="-37029">
		<tag k="fixme" v="consider natural=peak for the most distinct mountains in the district" />
		<tag k="name" v="Limsteinåsen" />
		<tag k="natural" v="hill" />
		<tag k="place" v="locality" />
		<tag k="ssr:stedsnr" v="939620" />
	</node>
	<node lat="64.7315361091119" lon="12.357405559341828" id="-37031">
		<tag k="name" v="Nordmarka" />
		<tag k="natural" v="wood" />
		<tag k="ssr:stedsnr" v="939628" />
	</node>
	<node lat="64.85781666403801" lon="12.446683328593622" id="-37033">
		<tag k="name" v="Kvernsteinbotnet" />
		<tag k="natural" v="valley" />
		<tag k="place" v="locality" />
		<tag k="ssr:stedsnr" v="939788" />
	</node>
	<node lat="64.85774722439463" lon="12.43344167692344" id="-37034">
		<tag k="name" v="Langdalen" />
		<tag k="natural" v="valley" />
		<tag k="place" v="locality" />
		<tag k="ssr:stedsnr" v="939794" />
	</node>
	<node lat="64.86287777317452" lon="12.433630564665" id="-37036">
		<tag k="name" v="Skarvdalen" />
		<tag k="natural" v="valley" />
		<tag k="place" v="locality" />
		<tag k="ssr:stedsnr" v="939797" />
	</node>
	<node lat="64.84128055530893" lon="12.409224998198953" id="-37038">
		<tag k="name" v="Ner Olanesvollen" />
		<tag k="place" v="locality" />
		<tag k="ssr:stedsnr" v="939652" />
	</node>
	<node lat="64.84546111412864" lon="12.415927774477394" id="-37040">
		<tag k="name" v="Kløyva" />
		<tag k="place" v="locality" />
		<tag k="ssr:stedsnr" v="939866" />
	</node>
	<node lat="64.87338055474558" lon="12.435072228356635" id="-37041">
		<tag k="name" v="Åsen" />
		<tag k="place" v="locality" />
		<tag k="ssr:stedsnr" v="939874" />
	</node>
	<node lat="64.58846389163445" lon="12.245719449601902" id="-37045">
		<tag k="name" v="Hyllsteinen" />
		<tag k="natural" v="hill" />
		<tag k="place" v="locality" />
		<tag k="ssr:stedsnr" v="944616" />
	</node>
</osm>
