<?xml version="1.0" encoding="UTF-8"?>
<osm version="0.6" generator="osmapis">
	<node lat="64.86699999682853" lon="12.406191662954935" id="-37861">
		<tag k="name" v="Stormyra" />
		<tag k="natural" v="wetland" />
		<tag k="ssr:stedsnr" v="14716" />
	</node>
	<node lat="64.64064722322891" lon="12.251458336584506" id="-37867">
		<tag k="alt_name" v="Hovden" />
		<tag k="name" v="Hovdin" />
		<tag k="natural" v="wetland" />
		<tag k="ssr:stedsnr" v="15654" />
	</node>
	<node lat="64.83449722181041" lon="12.421797213163364" id="-37874">
		<tag k="name" v="Seterstormyra" />
		<tag k="natural" v="wetland" />
		<tag k="ssr:stedsnr" v="272820" />
	</node>
	<node lat="64.58704721904303" lon="12.290322231873295" id="-37875">
		<tag k="name" v="Andersmyra" />
		<tag k="natural" v="wetland" />
		<tag k="ssr:stedsnr" v="28309" />
	</node>
	<node lat="64.65206388589651" lon="12.388102776171932" id="-37885">
		<tag k="name" v="Besdalbråtta" />
		<tag k="place" v="locality" />
		<tag k="ssr:stedsnr" v="28520" />
	</node>
	<node lat="64.77461388513278" lon="12.351991675124696" id="-37888">
		<tag k="name" v="Foromyra" />
		<tag k="natural" v="wetland" />
		<tag k="ssr:stedsnr" v="28611" />
	</node>
	<node lat="64.79127499542376" lon="12.36031111766605" id="-37890">
		<tag k="name" v="Snømyra" />
		<tag k="natural" v="wetland" />
		<tag k="ssr:stedsnr" v="28623" />
	</node>
	<node lat="64.85038888436932" lon="12.379100009744157" id="-37891">
		<tag k="name" v="Olaenget" />
		<tag k="natural" v="wetland" />
		<tag k="ssr:stedsnr" v="28801" />
	</node>
	<node lat="64.90611944098" lon="12.366577783826006" id="-37893">
		<tag k="name" v="Kartmyra" />
		<tag k="natural" v="wetland" />
		<tag k="ssr:stedsnr" v="28775" />
	</node>
	<node lat="64.5863805577231" lon="12.274352770642395" id="-37894">
		<tag k="name" v="Østerengan" />
		<tag k="natural" v="wetland" />
		<tag k="ssr:stedsnr" v="29226" />
	</node>
	<node lat="64.77394166207456" lon="12.402544454352325" id="-37914">
		<tag k="name" v="Folldalurda" />
		<tag k="natural" v="scree" />
		<tag k="ssr:stedsnr" v="76261" />
	</node>
	<node lat="64.64236944472326" lon="12.24204721538424" id="-37931">
		<tag k="name" v="Steinmyrslættet" />
		<tag k="natural" v="wetland" />
		<tag k="ssr:stedsnr" v="90123" />
	</node>
	<node lat="64.58146944699872" lon="12.264169436810128" id="-37935">
		<tag k="name" v="Mossamyra" />
		<tag k="natural" v="wetland" />
		<tag k="ssr:stedsnr" v="90170" />
	</node>
	<node lat="64.56691666668576" lon="12.167819453733738" id="-37936">
		<tag k="name" v="Småmyrin" />
		<tag k="natural" v="wetland" />
		<tag k="ssr:stedsnr" v="90180" />
	</node>
	<node lat="64.84526666983632" lon="12.409463896648639" id="-37937">
		<tag k="name" v="Trongmyra" />
		<tag k="natural" v="wetland" />
		<tag k="ssr:stedsnr" v="90622" />
	</node>
	<node lat="64.5791222247966" lon="12.143530550182499" id="-37953">
		<tag k="name" v="Tjønnengura" />
		<tag k="natural" v="scree" />
		<tag k="ssr:stedsnr" v="149068" />
	</node>
	<node lat="64.63697221992007" lon="12.388775008571995" id="-37957">
		<tag k="name" v="Tjønnmyra" />
		<tag k="natural" v="wetland" />
		<tag k="ssr:stedsnr" v="149513" />
	</node>
	<node lat="64.77095833305877" lon="12.350952787477144" id="-37980">
		<tag k="name" v="Stormyra" />
		<tag k="natural" v="wetland" />
		<tag k="ssr:stedsnr" v="257280" />
	</node>
	<node lat="64.60543888469316" lon="12.29582500445242" id="-37984">
		<tag k="name" v="Nonsmyra" />
		<tag k="natural" v="wetland" />
		<tag k="ssr:stedsnr" v="257553" />
	</node>
	<node lat="64.70456111279744" lon="12.26710832324199" id="-38001">
		<tag k="name" v="Haltmoenget" />
		<tag k="natural" v="wetland" />
		<tag k="ssr:stedsnr" v="257940" />
	</node>
	<node lat="64.79540555887273" lon="12.329091670174904" id="-38009">
		<tag k="name" v="Sørfjellmyra" />
		<tag k="natural" v="wetland" />
		<tag k="ssr:stedsnr" v="197213" />
	</node>
	<node lat="64.73282222088953" lon="12.27855277308025" id="-38017">
		<tag k="name" v="Storsveddet" />
		<tag k="natural" v="wetland" />
		<tag k="ssr:stedsnr" v="197910" />
	</node>
	<node lat="64.59345277974488" lon="12.193333335414529" id="-38027">
		<tag k="name" v="Bjørnkallteigan" />
		<tag k="place" v="locality" />
		<tag k="ssr:stedsnr" v="210281" />
	</node>
	<node lat="64.81761389103453" lon="12.349847225435369" id="-38031">
		<tag k="name" v="Stormyra" />
		<tag k="natural" v="wetland" />
		<tag k="ssr:stedsnr" v="210536" />
	</node>
	<node lat="64.6577861131016" lon="12.333966669301445" id="-38033">
		<tag k="name" v="Flakkmyra" />
		<tag k="natural" v="wetland" />
		<tag k="ssr:stedsnr" v="210486" />
	</node>
	<node lat="64.86511389177186" lon="12.461849990201038" id="-38041">
		<tag k="name" v="Salmonmyra" />
		<tag k="natural" v="wetland" />
		<tag k="ssr:stedsnr" v="211830" />
	</node>
	<node lat="64.86277500200512" lon="12.414544441262914" id="-38044">
		<tag k="name" v="Liamyra" />
		<tag k="natural" v="wetland" />
		<tag k="ssr:stedsnr" v="211793" />
	</node>
	<node lat="64.86248333179931" lon="12.436911116576299" id="-38045">
		<tag k="name" v="Fjøsbergmyra" />
		<tag k="natural" v="wetland" />
		<tag k="ssr:stedsnr" v="211797" />
	</node>
	<node lat="64.69817500221066" lon="12.363397221858081" id="-38054">
		<tag k="name" v="Langenget" />
		<tag k="natural" v="wetland" />
		<tag k="ssr:stedsnr" v="271451" />
	</node>
	<node lat="64.6429722231163" lon="12.305183335515308" id="-38066">
		<tag k="name" v="Okstadmyra" />
		<tag k="natural" v="wetland" />
		<tag k="ssr:stedsnr" v="271555" />
	</node>
	<node lat="64.76484444551525" lon="12.3130083253173" id="-38069">
		<tag k="name" v="Måssåmyra" />
		<tag k="natural" v="wetland" />
		<tag k="ssr:stedsnr" v="271645" />
	</node>
	<node lat="64.7938888866063" lon="12.364036114842953" id="-38071">
		<tag k="name" v="Okstjønnmyra" />
		<tag k="natural" v="wetland" />
		<tag k="ssr:stedsnr" v="271658" />
	</node>
	<node lat="64.72855000222214" lon="12.385663881062678" id="-38073">
		<tag k="name" v="Stormyra" />
		<tag k="natural" v="wetland" />
		<tag k="ssr:stedsnr" v="271680" />
	</node>
	<node lat="64.73248055697395" lon="12.298227775086092" id="-38074">
		<tag k="name" v="Ingridmyra" />
		<tag k="natural" v="wetland" />
		<tag k="ssr:stedsnr" v="271683" />
	</node>
	<node lat="64.72698611155747" lon="12.297619442739107" id="-38076">
		<tag k="name" v="Setermyra" />
		<tag k="natural" v="wetland" />
		<tag k="ssr:stedsnr" v="271687" />
	</node>
	<node lat="64.68093610854677" lon="12.501955549853703" id="-38080">
		<tag k="name" v="Stormyra" />
		<tag k="natural" v="wetland" />
		<tag k="ssr:stedsnr" v="230787" />
	</node>
	<node lat="64.65005277723732" lon="12.249638894562597" id="-38088">
		<tag k="name" v="Halsan" />
		<tag k="natural" v="wetland" />
		<tag k="ssr:stedsnr" v="453173" />
	</node>
	<node lat="64.7459611145732" lon="12.303711119690927" id="-38090">
		<tag k="name" v="Svortbakkmyra" />
		<tag k="natural" v="wetland" />
		<tag k="ssr:stedsnr" v="453459" />
	</node>
	<node lat="64.81462500010865" lon="12.38518611801462" id="-38109">
		<tag k="name" v="Olatjønnstormyra" />
		<tag k="natural" v="wetland" />
		<tag k="ssr:stedsnr" v="453553" />
	</node>
	<node lat="64.76380000365934" lon="12.30508055765879" id="-38110">
		<tag k="name" v="Kvernhusmyra" />
		<tag k="natural" v="wetland" />
		<tag k="ssr:stedsnr" v="453616" />
	</node>
	<node lat="64.79513333745525" lon="12.369655555903579" id="-38112">
		<tag k="name" v="Olamyra" />
		<tag k="natural" v="wetland" />
		<tag k="ssr:stedsnr" v="453629" />
	</node>
	<node lat="64.67410555131887" lon="12.273405552246308" id="-38120">
		<tag k="name" v="Storåsmyra" />
		<tag k="natural" v="wetland" />
		<tag k="ssr:stedsnr" v="454226" />
	</node>
	<node lat="64.67172499639611" lon="12.35645277633642" id="-38132">
		<tag k="name" v="Svartholmyra" />
		<tag k="natural" v="wetland" />
		<tag k="ssr:stedsnr" v="257619" />
	</node>
	<node lat="64.68364166914063" lon="12.300436113246757" id="-38138">
		<tag k="name" v="Granmyra" />
		<tag k="natural" v="wetland" />
		<tag k="ssr:stedsnr" v="271476" />
	</node>
	<node lat="64.682658336859" lon="12.295524992832998" id="-38139">
		<tag k="name" v="Grøtåmyra" />
		<tag k="natural" v="wetland" />
		<tag k="ssr:stedsnr" v="271477" />
	</node>
	<node lat="64.8203749988351" lon="12.400041656394414" id="-38141">
		<tag k="name" v="Hitjilenget" />
		<tag k="natural" v="wetland" />
		<tag k="ssr:stedsnr" v="271602" />
	</node>
	<node lat="64.89491110928522" lon="12.384547229846781" id="-38146">
		<tag k="name" v="Sionsenget" />
		<tag k="natural" v="wetland" />
		<tag k="ssr:stedsnr" v="271772" />
	</node>
	<node lat="64.86961666605207" lon="12.401027772468142" id="-38147">
		<tag k="name" v="Kjellenget" />
		<tag k="natural" v="wetland" />
		<tag k="ssr:stedsnr" v="271807" />
	</node>
	<node lat="64.69031666453104" lon="12.276786100638093" id="-38154">
		<tag k="name" v="Karienget" />
		<tag k="natural" v="wetland" />
		<tag k="ssr:stedsnr" v="317892" />
	</node>
	<node lat="64.63528332934551" lon="12.256763892885521" id="-38162">
		<tag k="name" v="Storenget" />
		<tag k="natural" v="wetland" />
		<tag k="ssr:stedsnr" v="318603" />
	</node>
	<node lat="64.72666666501613" lon="12.24905000557095" id="-38170">
		<tag k="name" v="Saraenget" />
		<tag k="natural" v="wetland" />
		<tag k="ssr:stedsnr" v="318903" />
	</node>
	<node lat="64.63831388504836" lon="12.347905559784277" id="-38176">
		<tag k="name" v="Stormyra" />
		<tag k="natural" v="wetland" />
		<tag k="ssr:stedsnr" v="331502" />
	</node>
	<node lat="64.71049722499733" lon="12.266861121849256" id="-38211">
		<tag k="name" v="Gåstjønnenget" />
		<tag k="natural" v="wetland" />
		<tag k="ssr:stedsnr" v="379905" />
	</node>
	<node lat="64.60030811515158" lon="12.306187136592833" id="-38217">
		<tag k="name" v="Salbergmyra" />
		<tag k="natural" v="wetland" />
		<tag k="ssr:stedsnr" v="392512" />
	</node>
	<node lat="64.81371667054087" lon="12.356605557341712" id="-38222">
		<tag k="name" v="Storenget" />
		<tag k="natural" v="wetland" />
		<tag k="ssr:stedsnr" v="392589" />
	</node>
	<node lat="64.73509722366815" lon="12.36377776984278" id="-38226">
		<tag k="name" v="Loddomyra" />
		<tag k="natural" v="wetland" />
		<tag k="ssr:stedsnr" v="392682" />
	</node>
	<node lat="64.85085833349638" lon="12.393886101890024" id="-38228">
		<tag k="name" v="Setermyran" />
		<tag k="natural" v="wetland" />
		<tag k="ssr:stedsnr" v="392802" />
	</node>
	<node lat="64.89732221836174" lon="12.519666663019741" id="-38236">
		<tag k="name" v="Stormyra" />
		<tag k="natural" v="wetland" />
		<tag k="ssr:stedsnr" v="393812" />
	</node>
	<node lat="64.62662499767967" lon="12.200944450137321" id="-38261">
		<tag k="name" v="Litllodoenget" />
		<tag k="natural" v="wetland" />
		<tag k="ssr:stedsnr" v="453275" />
	</node>
	<node lat="64.63541944432563" lon="12.191138885574214" id="-38263">
		<tag k="name" v="Åmundmyra" />
		<tag k="natural" v="wetland" />
		<tag k="ssr:stedsnr" v="453164" />
	</node>
	<node lat="64.65120278215831" lon="12.37059444480703" id="-38264">
		<tag k="name" v="Stordomma" />
		<tag k="place" v="locality" />
		<tag k="ssr:stedsnr" v="453521" />
	</node>
	<node lat="64.83073055789401" lon="12.420624995919837" id="-38272">
		<tag k="name" v="Vargmyra" />
		<tag k="natural" v="wetland" />
		<tag k="ssr:stedsnr" v="454861" />
	</node>
	<node lat="64.83040000078853" lon="12.410880562129064" id="-38273">
		<tag k="name" v="Øverenget" />
		<tag k="natural" v="wetland" />
		<tag k="ssr:stedsnr" v="454869" />
	</node>
	<node lat="64.63910000414486" lon="12.27050833916131" id="-38279">
		<tag k="name" v="Raudmyra" />
		<tag k="natural" v="wetland" />
		<tag k="ssr:stedsnr" v="272155" />
	</node>
	<node lat="64.87803888995437" lon="12.425694452116678" id="-38284">
		<tag k="name" v="Nilsmyra" />
		<tag k="natural" v="wetland" />
		<tag k="ssr:stedsnr" v="272836" />
	</node>
	<node lat="64.81864722153882" lon="12.413636111676878" id="-38285">
		<tag k="name" v="Storstakkenget" />
		<tag k="natural" v="wetland" />
		<tag k="ssr:stedsnr" v="272849" />
	</node>
	<node lat="64.65395277788282" lon="12.315986107589833" id="-38306">
		<tag k="name" v="Stormyra" />
		<tag k="natural" v="wetland" />
		<tag k="ssr:stedsnr" v="682669" />
	</node>
	<node lat="64.6558416685864" lon="12.229630562226363" id="-38307">
		<tag k="name" v="Haugåsengan" />
		<tag k="place" v="locality" />
		<tag k="ssr:stedsnr" v="682644" />
	</node>
	<node lat="64.59145833490285" lon="12.124599995174426" id="-38309">
		<tag k="name" v="Flyin" />
		<tag k="natural" v="wetland" />
		<tag k="ssr:stedsnr" v="682828" />
	</node>
	<node lat="64.69191944628153" lon="12.24069443445796" id="-38319">
		<tag k="name" v="Holmenget" />
		<tag k="natural" v="wetland" />
		<tag k="ssr:stedsnr" v="682949" />
	</node>
	<node lat="64.6479694426136" lon="12.18346945081984" id="-38323">
		<tag k="name" v="Stormyrslættet" />
		<tag k="natural" v="wetland" />
		<tag k="ssr:stedsnr" v="682882" />
	</node>
	<node lat="64.56801944066699" lon="12.341188880418583" id="-38332">
		<tag k="name" v="Åsengmyra" />
		<tag k="natural" v="wetland" />
		<tag k="ssr:stedsnr" v="514317" />
	</node>
	<node lat="64.61839999970441" lon="12.38493333347664" id="-38336">
		<tag k="name" v="Stormyra" />
		<tag k="natural" v="wetland" />
		<tag k="ssr:stedsnr" v="514478" />
	</node>
	<node lat="64.86635555246987" lon="12.462172226399577" id="-38341">
		<tag k="name" v="Latlimomyra" />
		<tag k="natural" v="wetland" />
		<tag k="ssr:stedsnr" v="514814" />
	</node>
	<node lat="64.67042777764159" lon="12.420711111989233" id="-38344">
		<tag k="name" v="Tjønnenget" />
		<tag k="natural" v="wetland" />
		<tag k="ssr:stedsnr" v="534769" />
	</node>
	<node lat="64.71055555162535" lon="12.210325005300847" id="-38345">
		<tag k="historic" v="shieling" />
		<tag k="name" v="Barbrosetran" />
		<tag k="place" v="locality" />
		<tag k="ssr:stedsnr" v="534875" />
	</node>
	<node lat="64.6049194401861" lon="12.094186102890845" id="-38360">
		<tag k="name" v="Karienget" />
		<tag k="natural" v="wetland" />
		<tag k="ssr:stedsnr" v="574125" />
	</node>
	<node lat="64.73738332914463" lon="12.367924996504469" id="-38368">
		<tag k="name" v="Gleinan" />
		<tag k="natural" v="wetland" />
		<tag k="ssr:stedsnr" v="574647" />
	</node>
	<node lat="64.861208334826" lon="12.38726110221914" id="-38370">
		<tag k="name" v="Myrstykket" />
		<tag k="natural" v="wetland" />
		<tag k="ssr:stedsnr" v="574800" />
	</node>
	<node lat="64.62513610932177" lon="12.178922229892358" id="-38373">
		<tag k="name" v="Nordmyra" />
		<tag k="natural" v="wetland" />
		<tag k="ssr:stedsnr" v="575196" />
	</node>
	<node lat="64.902950003661" lon="12.432708336026819" id="-38378">
		<tag k="name" v="Setermyra" />
		<tag k="natural" v="wetland" />
		<tag k="ssr:stedsnr" v="575797" />
	</node>
	<node lat="64.87013888691737" lon="12.407783330160674" id="-38382">
		<tag k="name" v="Kjelenget" />
		<tag k="natural" v="wetland" />
		<tag k="ssr:stedsnr" v="575850" />
	</node>
	<node lat="64.65013055753997" lon="12.264408333336386" id="-38388">
		<tag k="name" v="Trettengan" />
		<tag k="natural" v="wetland" />
		<tag k="ssr:stedsnr" v="696155" />
	</node>
	<node lat="64.58782777423366" lon="12.32518333287571" id="-38393">
		<tag k="name" v="Storslættet" />
		<tag k="natural" v="wetland" />
		<tag k="ssr:stedsnr" v="696286" />
	</node>
	<node lat="64.62765555982605" lon="12.29158611054765" id="-38396">
		<tag k="name" v="Vargmyra" />
		<tag k="natural" v="wetland" />
		<tag k="ssr:stedsnr" v="696488" />
	</node>
	<node lat="64.88423333548343" lon="12.363349999592732" id="-38402">
		<tag k="name" v="Storenget" />
		<tag k="natural" v="wetland" />
		<tag k="ssr:stedsnr" v="696534" />
	</node>
	<node lat="64.84198611213907" lon="12.389288887990052" id="-38409">
		<tag k="name" v="Grannubbmyra" />
		<tag k="natural" v="wetland" />
		<tag k="ssr:stedsnr" v="696562" />
	</node>
	<node lat="64.79079722450652" lon="12.353636112127758" id="-38411">
		<tag k="name" v="Kjerrenget" />
		<tag k="natural" v="wetland" />
		<tag k="ssr:stedsnr" v="696602" />
	</node>
	<node lat="64.73571388913994" lon="12.310902780643913" id="-38413">
		<tag k="name" v="Pipmyra" />
		<tag k="natural" v="wetland" />
		<tag k="ssr:stedsnr" v="696637" />
	</node>
	<node lat="64.90196389197402" lon="12.38523333345624" id="-38418">
		<tag k="name" v="Langengan" />
		<tag k="natural" v="wetland" />
		<tag k="ssr:stedsnr" v="696736" />
	</node>
	<node lat="64.8552583340682" lon="12.396300002608545" id="-38420">
		<tag k="name" v="Kvitfjellmyra" />
		<tag k="natural" v="wetland" />
		<tag k="ssr:stedsnr" v="696745" />
	</node>
	<node lat="64.87083055122879" lon="12.427783339503392" id="-38423">
		<tag k="name" v="Skjeftemyra" />
		<tag k="natural" v="wetland" />
		<tag k="ssr:stedsnr" v="696833" />
	</node>
	<node lat="64.8377027805371" lon="12.415719435657058" id="-38424">
		<tag k="name" v="Småmyrån" />
		<tag k="natural" v="wetland" />
		<tag k="ssr:stedsnr" v="696851" />
	</node>
	<node lat="64.79394166225582" lon="12.41444445328683" id="-38428">
		<tag k="name" v="Teigmyra" />
		<tag k="natural" v="wetland" />
		<tag k="ssr:stedsnr" v="621188" />
	</node>
	<node lat="64.59923526955018" lon="12.38633255971154" id="-38429">
		<tag k="historic" v="shieling" />
		<tag k="name" v="Gammelsetran" />
		<tag k="place" v="locality" />
		<tag k="ssr:stedsnr" v="621605" />
	</node>
	<node lat="64.66575278138625" lon="12.301747221106016" id="-38430">
		<tag k="name" v="Skeitjønnmyra" />
		<tag k="natural" v="wetland" />
		<tag k="ssr:stedsnr" v="621614" />
	</node>
	<node lat="64.58735287245968" lon="12.136749096177615" id="-38436">
		<tag k="historic" v="shieling" />
		<tag k="name" v="Vikasetran" />
		<tag k="place" v="locality" />
		<tag k="ssr:stedsnr" v="621807" />
	</node>
	<node lat="64.59751944520735" lon="12.137311114659177" id="-38444">
		<tag k="name" v="Jensenget" />
		<tag k="natural" v="wetland" />
		<tag k="ssr:stedsnr" v="634104" />
	</node>
	<node lat="64.59002221986258" lon="12.115913892047859" id="-38448">
		<tag k="historic" v="shieling" />
		<tag k="name" v="Vikasetran" />
		<tag k="place" v="locality" />
		<tag k="ssr:stedsnr" v="634100" />
	</node>
	<node lat="64.59705555561317" lon="12.095619453926187" id="-38450">
		<tag k="name" v="Svartdalsmyra" />
		<tag k="natural" v="wetland" />
		<tag k="ssr:stedsnr" v="634102" />
	</node>
	<node lat="64.60251666458883" lon="12.337941665002068" id="-38452">
		<tag k="name" v="Åsmyra" />
		<tag k="natural" v="wetland" />
		<tag k="ssr:stedsnr" v="634497" />
	</node>
	<node lat="64.7960444440939" lon="12.395838891755263" id="-38455">
		<tag k="name" v="Rundmyra" />
		<tag k="natural" v="wetland" />
		<tag k="ssr:stedsnr" v="634635" />
	</node>
	<node lat="64.66321110664785" lon="12.252286111700357" id="-38460">
		<tag k="name" v="Raudmyra" />
		<tag k="natural" v="wetland" />
		<tag k="ssr:stedsnr" v="635214" />
	</node>
	<node lat="64.5661361102697" lon="12.336827774280028" id="-38462">
		<tag k="name" v="Jensslættet" />
		<tag k="natural" v="wetland" />
		<tag k="ssr:stedsnr" v="635294" />
	</node>
	<node lat="64.56974166611676" lon="12.245972224056827" id="-38468">
		<tag k="name" v="Tjønnmyra" />
		<tag k="natural" v="wetland" />
		<tag k="ssr:stedsnr" v="651444" />
	</node>
	<node lat="64.74064999827543" lon="12.292936107006584" id="-38492">
		<tag k="name" v="Renndalsmyra" />
		<tag k="natural" v="wetland" />
		<tag k="ssr:stedsnr" v="682905" />
	</node>
	<node lat="64.63880278054071" lon="12.237300009909674" id="-38498">
		<tag k="name" v="Fellesenget" />
		<tag k="natural" v="wetland" />
		<tag k="ssr:stedsnr" v="696166" />
	</node>
	<node lat="64.551588891113" lon="12.293741665599555" id="-38501">
		<tag k="name" v="Brennmyra" />
		<tag k="natural" v="wetland" />
		<tag k="ssr:stedsnr" v="696310" />
	</node>
	<node lat="64.75532499703814" lon="12.40655832803968" id="-38506">
		<tag k="name" v="Ingebrigtmyra" />
		<tag k="natural" v="wetland" />
		<tag k="ssr:stedsnr" v="696476" />
	</node>
	<node lat="64.77436111226704" lon="12.370163880659902" id="-38514">
		<tag k="name" v="Durmorslættet" />
		<tag k="natural" v="wetland" />
		<tag k="ssr:stedsnr" v="696585" />
	</node>
	<node lat="64.59428333598142" lon="12.24436111330819" id="-38520">
		<tag k="name" v="Brennmyra" />
		<tag k="natural" v="wetland" />
		<tag k="ssr:stedsnr" v="701612" />
	</node>
	<node lat="64.66192222099794" lon="12.137605546957808" id="-38521">
		<tag k="name" v="Fuglvasstien" />
		<tag k="natural" v="stone" />
		<tag k="ssr:stedsnr" v="713903" />
	</node>
	<node lat="64.68664999683025" lon="12.33209443548813" id="-38539">
		<tag k="name" v="Flottmyra" />
		<tag k="natural" v="wetland" />
		<tag k="ssr:stedsnr" v="742936" />
	</node>
	<node lat="64.5781305574397" lon="12.134555551451879" id="-38548">
		<tag k="name" v="Tjønnenget" />
		<tag k="natural" v="wetland" />
		<tag k="ssr:stedsnr" v="756058" />
	</node>
	<node lat="64.64834721889616" lon="12.394013893751271" id="-38555">
		<tag k="name" v="Hopmyra" />
		<tag k="natural" v="wetland" />
		<tag k="ssr:stedsnr" v="756510" />
	</node>
	<node lat="64.73421388876537" lon="12.356691656969252" id="-38570">
		<tag k="name" v="Måssamyra" />
		<tag k="natural" v="wetland" />
		<tag k="ssr:stedsnr" v="756647" />
	</node>
	<node lat="64.66002222000934" lon="12.233872211807192" id="-38574">
		<tag k="name" v="Bjørnholet" />
		<tag k="place" v="locality" />
		<tag k="ssr:stedsnr" v="757219" />
	</node>
	<node lat="64.87238888549702" lon="12.446347218696076" id="-38577">
		<tag k="name" v="Raudmyra" />
		<tag k="natural" v="wetland" />
		<tag k="ssr:stedsnr" v="757804" />
	</node>
	<node lat="64.73050555681867" lon="12.377155563335242" id="-38593">
		<tag k="name" v="Kleivmyra" />
		<tag k="natural" v="wetland" />
		<tag k="ssr:stedsnr" v="804907" />
	</node>
	<node lat="64.64343055963623" lon="12.25617221295649" id="-38597">
		<tag k="name" v="Langmyråsen" />
		<tag k="natural" v="wetland" />
		<tag k="ssr:stedsnr" v="817172" />
	</node>
	<node lat="64.78061944065145" lon="12.366411112016653" id="-38602">
		<tag k="name" v="Storrholmyra" />
		<tag k="natural" v="wetland" />
		<tag k="ssr:stedsnr" v="817577" />
	</node>
	<node lat="64.772005552526" lon="12.326600006528363" id="-38606">
		<tag k="name" v="Hestmyrengan" />
		<tag k="natural" v="wetland" />
		<tag k="ssr:stedsnr" v="817586" />
	</node>
	<node lat="64.72943610941508" lon="12.298058323456496" id="-38611">
		<tag k="name" v="Brennmyra" />
		<tag k="natural" v="wetland" />
		<tag k="ssr:stedsnr" v="817626" />
	</node>
	<node lat="64.59838055522174" lon="12.246366664626322" id="-38614">
		<tag k="name" v="Hovåsmyra" />
		<tag k="natural" v="wetland" />
		<tag k="ssr:stedsnr" v="822629" />
	</node>
	<node lat="64.62295277334935" lon="12.34086389590346" id="-38627">
		<tag k="name" v="Hamptjønnmyra" />
		<tag k="natural" v="wetland" />
		<tag k="ssr:stedsnr" v="925562" />
	</node>
	<node lat="64.59458055780777" lon="12.398736115860638" id="-38629">
		<tag k="name" v="Selenget" />
		<tag k="natural" v="wetland" />
		<tag k="ssr:stedsnr" v="925583" />
	</node>
	<node lat="64.67326666364544" lon="12.32038333577397" id="-38633">
		<tag k="name" v="Mjøsundmarka" />
		<tag k="place" v="locality" />
		<tag k="ssr:stedsnr" v="925633" />
	</node>
	<node lat="64.71872222102292" lon="12.297894440398984" id="-38642">
		<tag k="name" v="Forromyra" />
		<tag k="natural" v="wetland" />
		<tag k="ssr:stedsnr" v="925920" />
	</node>
	<node lat="64.72656666439322" lon="12.260047217371282" id="-38657">
		<tag k="name" v="Metillslættet" />
		<tag k="natural" v="wetland" />
		<tag k="ssr:stedsnr" v="878156" />
	</node>
	<node lat="64.75066666464387" lon="12.371077787916006" id="-38664">
		<tag k="name" v="Makanenget" />
		<tag k="natural" v="wetland" />
		<tag k="ssr:stedsnr" v="878514" />
	</node>
	<node lat="64.74749722586559" lon="12.369119443277954" id="-38665">
		<tag k="name" v="Bekkmyra" />
		<tag k="natural" v="wetland" />
		<tag k="ssr:stedsnr" v="878516" />
	</node>
	<node lat="64.61480833058638" lon="12.324983327469495" id="-38666">
		<tag k="name" v="Haugmyra" />
		<tag k="natural" v="wetland" />
		<tag k="ssr:stedsnr" v="878521" />
	</node>
	<node lat="64.81675833369064" lon="12.38991944934254" id="-38670">
		<tag k="name" v="Frukostmyra" />
		<tag k="natural" v="wetland" />
		<tag k="ssr:stedsnr" v="878600" />
	</node>
	<node lat="64.7157472196251" lon="12.303580559074677" id="-38672">
		<tag k="name" v="Lodomyra" />
		<tag k="natural" v="wetland" />
		<tag k="ssr:stedsnr" v="878456" />
	</node>
	<node lat="64.62329999720683" lon="12.173138881628159" id="-38681">
		<tag k="name" v="Setermyra" />
		<tag k="natural" v="wetland" />
		<tag k="ssr:stedsnr" v="879200" />
	</node>
	<node lat="64.65014167105552" lon="12.201377782937206" id="-38705">
		<tag k="name" v="Taraldenget" />
		<tag k="natural" v="wetland" />
		<tag k="ssr:stedsnr" v="938233" />
	</node>
	<node lat="64.65128888635608" lon="12.360944435029825" id="-38708">
		<tag k="name" v="Besenget" />
		<tag k="natural" v="wetland" />
		<tag k="ssr:stedsnr" v="938503" />
	</node>
	<node lat="64.62283611181515" lon="12.207022216837757" id="-38711">
		<tag k="name" v="Arnengmyra" />
		<tag k="natural" v="wetland" />
		<tag k="ssr:stedsnr" v="939212" />
	</node>
	<node lat="64.78116666798397" lon="12.31941944084501" id="-38717">
		<tag k="name" v="Dammyra" />
		<tag k="natural" v="wetland" />
		<tag k="ssr:stedsnr" v="939601" />
	</node>
	<node lat="64.7474888901879" lon="12.421977767896594" id="-38722">
		<tag k="name" v="Oleenget" />
		<tag k="natural" v="wetland" />
		<tag k="ssr:stedsnr" v="958995" />
	</node>
	<node lat="64.66817499742253" lon="12.159824993613583" id="-38724">
		<tag k="name" v="Setermyra" />
		<tag k="natural" v="wetland" />
		<tag k="ssr:stedsnr" v="959917" />
	</node>
	<node lat="64.6045444428369" lon="12.305338889021497" id="-38750">
		<tag k="name" v="Raudmyra" />
		<tag k="natural" v="wetland" />
		<tag k="ssr:stedsnr" v="14428" />
	</node>
	<node lat="64.5949055530457" lon="12.364316660835447" id="-38755">
		<tag k="name" v="Loddoenget" />
		<tag k="natural" v="wetland" />
		<tag k="ssr:stedsnr" v="14499" />
	</node>
	<node lat="64.61894721809887" lon="12.341127775757771" id="-38765">
		<tag k="name" v="Limsteinmyrån" />
		<tag k="natural" v="wetland" />
		<tag k="ssr:stedsnr" v="15534" />
	</node>
	<node lat="64.6059750008993" lon="12.402572220909606" id="-38778">
		<tag k="name" v="Ingebriktmyra" />
		<tag k="natural" v="wetland" />
		<tag k="ssr:stedsnr" v="28485" />
	</node>
	<node lat="64.68879721824044" lon="12.361261108228923" id="-38782">
		<tag k="name" v="Sandbakkmyra" />
		<tag k="natural" v="wetland" />
		<tag k="ssr:stedsnr" v="28447" />
	</node>
	<node lat="64.68003610743853" lon="12.363299991282082" id="-38783">
		<tag k="name" v="Svartåsmyra" />
		<tag k="natural" v="wetland" />
		<tag k="ssr:stedsnr" v="28454" />
	</node>
	<node lat="64.74038611332219" lon="12.301716657983757" id="-38784">
		<tag k="name" v="Berristakkmyra" />
		<tag k="natural" v="wetland" />
		<tag k="ssr:stedsnr" v="28465" />
	</node>
	<node lat="64.59111666567681" lon="12.30287777088243" id="-38791">
		<tag k="name" v="Litlåmyra" />
		<tag k="natural" v="wetland" />
		<tag k="ssr:stedsnr" v="28487" />
	</node>
	<node lat="64.76742778123548" lon="12.306786118053372" id="-38793">
		<tag k="name" v="Storengnesa" />
		<tag k="natural" v="wetland" />
		<tag k="ssr:stedsnr" v="28613" />
	</node>
	<node lat="64.89781111218974" lon="12.389755551888104" id="-38795">
		<tag k="name" v="Instenget" />
		<tag k="natural" v="wetland" />
		<tag k="ssr:stedsnr" v="28753" />
	</node>
	<node lat="64.71834722108801" lon="12.206969442903919" id="-38797">
		<tag k="name" v="Skrøyvdalsnesa" />
		<tag k="natural" v="wetland" />
		<tag k="ssr:stedsnr" v="29127" />
	</node>
	<node lat="64.84722777527378" lon="12.415516658710033" id="-38800">
		<tag k="name" v="Langmyra" />
		<tag k="natural" v="wetland" />
		<tag k="ssr:stedsnr" v="29646" />
	</node>
	<node lat="64.69720833162908" lon="12.207741676639662" id="-38816">
		<tag k="historic" v="shieling" />
		<tag k="name" v="Gjertrudsetran" />
		<tag k="place" v="locality" />
		<tag k="ssr:stedsnr" v="48884" />
	</node>
	<node lat="64.6987305592142" lon="12.18047222294295" id="-38817">
		<tag k="historic" v="shieling" />
		<tag k="name" v="Pesetran" />
		<tag k="place" v="locality" />
		<tag k="ssr:stedsnr" v="48891" />
	</node>
	<node lat="64.68763333346322" lon="12.175136108339021" id="-38818">
		<tag k="historic" v="shieling" />
		<tag k="name" v="Olasetran" />
		<tag k="place" v="locality" />
		<tag k="ssr:stedsnr" v="48893" />
	</node>
	<node lat="64.75001110922956" lon="12.424172220652071" id="-38819">
		<tag k="name" v="Sveinlimyra" />
		<tag k="natural" v="wetland" />
		<tag k="ssr:stedsnr" v="48991" />
	</node>
	<node lat="64.57249166744118" lon="12.298061111314926" id="-38831">
		<tag k="name" v="Svartmarka" />
		<tag k="place" v="locality" />
		<tag k="ssr:stedsnr" v="75760" />
	</node>
	<node lat="64.75842500062213" lon="12.346063891773174" id="-38859">
		<tag k="name" v="Flåtåsundmyra" />
		<tag k="natural" v="wetland" />
		<tag k="ssr:stedsnr" v="89474" />
	</node>
	<node lat="64.62963611010521" lon="12.368613893258013" id="-38861">
		<tag k="name" v="Raummyra" />
		<tag k="natural" v="wetland" />
		<tag k="ssr:stedsnr" v="89486" />
	</node>
	<node lat="64.64628333136757" lon="12.371794448790231" id="-38863">
		<tag k="name" v="Bergengmyra" />
		<tag k="natural" v="wetland" />
		<tag k="ssr:stedsnr" v="89529" />
	</node>
	<node lat="64.73690555788967" lon="12.399491668480813" id="-38866">
		<tag k="name" v="Finntjønnslættet" />
		<tag k="natural" v="wetland" />
		<tag k="ssr:stedsnr" v="89633" />
	</node>
	<node lat="64.59897222617276" lon="12.296674992796559" id="-38896">
		<tag k="name" v="Hatjønnmyra" />
		<tag k="natural" v="wetland" />
		<tag k="ssr:stedsnr" v="135549" />
	</node>
	<node lat="64.7368194435355" lon="12.296358333492613" id="-38905">
		<tag k="name" v="Ingbrektmyra" />
		<tag k="natural" v="wetland" />
		<tag k="ssr:stedsnr" v="135855" />
	</node>
	<node lat="64.63582500431349" lon="12.182486116205665" id="-38925">
		<tag k="name" v="Åmundmyråsen" />
		<tag k="natural" v="wetland" />
		<tag k="ssr:stedsnr" v="149130" />
	</node>
	<node lat="64.75647222215886" lon="12.36188055672926" id="-38934">
		<tag k="name" v="Garkholmyra" />
		<tag k="natural" v="wetland" />
		<tag k="ssr:stedsnr" v="149453" />
	</node>
	<node lat="64.78525555827332" lon="12.349124991616916" id="-38935">
		<tag k="name" v="Nordenget" />
		<tag k="natural" v="wetland" />
		<tag k="ssr:stedsnr" v="149607" />
	</node>
	<node lat="64.78504444281388" lon="12.36215000465898" id="-38943">
		<tag k="name" v="Gråvåmyra" />
		<tag k="natural" v="wetland" />
		<tag k="ssr:stedsnr" v="149601" />
	</node>
	<node lat="64.64473333310828" lon="12.222566666428712" id="-38945">
		<tag k="name" v="Djupbekkmyra" />
		<tag k="natural" v="wetland" />
		<tag k="ssr:stedsnr" v="150148" />
	</node>
	<node lat="64.67139444156663" lon="12.238777768017833" id="-38946">
		<tag k="name" v="Stormyra" />
		<tag k="natural" v="wetland" />
		<tag k="ssr:stedsnr" v="150237" />
	</node>
	<node lat="64.87675555329231" lon="12.413555551497726" id="-38951">
		<tag k="name" v="Geitkløvmyra" />
		<tag k="natural" v="wetland" />
		<tag k="ssr:stedsnr" v="150842" />
	</node>
	<node lat="64.59460555840381" lon="12.250677785220896" id="-38953">
		<tag k="name" v="Kringlåtmyra" />
		<tag k="natural" v="wetland" />
		<tag k="ssr:stedsnr" v="154656" />
	</node>
	<node lat="64.72952777342495" lon="12.24785556461024" id="-38984">
		<tag k="name" v="Litlstakkenget" />
		<tag k="natural" v="wetland" />
		<tag k="ssr:stedsnr" v="210156" />
	</node>
	<node lat="64.65145277734588" lon="12.240108327461188" id="-38987">
		<tag k="name" v="Setermyra" />
		<tag k="natural" v="wetland" />
		<tag k="ssr:stedsnr" v="210171" />
	</node>
	<node lat="64.62129721936073" lon="12.27368054774509" id="-38988">
		<tag k="name" v="Nordnesa" />
		<tag k="place" v="locality" />
		<tag k="ssr:stedsnr" v="210270" />
	</node>
	<node lat="64.62280277509987" lon="12.230855545590346" id="-38989">
		<tag k="name" v="Arnenget" />
		<tag k="natural" v="wetland" />
		<tag k="ssr:stedsnr" v="210271" />
	</node>
	<node lat="64.54209722270717" lon="12.193349991277623" id="-38992">
		<tag k="name" v="Raudmyra" />
		<tag k="natural" v="wetland" />
		<tag k="ssr:stedsnr" v="210056" />
	</node>
	<node lat="64.688588886175" lon="12.348822225550366" id="-39000">
		<tag k="name" v="Åengmyra" />
		<tag k="natural" v="wetland" />
		<tag k="ssr:stedsnr" v="210444" />
	</node>
	<node lat="64.68314722456492" lon="12.370680561698673" id="-39001">
		<tag k="name" v="Furumyra" />
		<tag k="natural" v="wetland" />
		<tag k="ssr:stedsnr" v="210445" />
	</node>
	<node lat="64.77192222405306" lon="12.314263892650622" id="-39006">
		<tag k="name" v="Hevlmyra" />
		<tag k="natural" v="wetland" />
		<tag k="ssr:stedsnr" v="210606" />
	</node>
	<node lat="64.80148611382943" lon="12.373116671040405" id="-39009">
		<tag k="name" v="Stakkmyra" />
		<tag k="natural" v="wetland" />
		<tag k="ssr:stedsnr" v="210620" />
	</node>
	<node lat="64.65016270762942" lon="12.241215718536463" id="-39028">
		<tag k="historic" v="shieling" />
		<tag k="name" v="Okstadsetran" />
		<tag k="place" v="locality" />
		<tag k="ssr:stedsnr" v="318578" />
	</node>
	<node lat="64.58863610940922" lon="12.14309166711935" id="-39038">
		<tag k="name" v="Småmikkelhola" />
		<tag k="natural" v="wetland" />
		<tag k="ssr:stedsnr" v="331111" />
	</node>
	<node lat="64.69466666430013" lon="12.365036118410538" id="-39040">
		<tag k="name" v="Litlmyra" />
		<tag k="natural" v="wetland" />
		<tag k="ssr:stedsnr" v="331419" />
	</node>
	<node lat="64.6895166703788" lon="12.374191674063214" id="-39041">
		<tag k="name" v="Besenget" />
		<tag k="place" v="locality" />
		<tag k="ssr:stedsnr" v="331421" />
	</node>
	<node lat="64.69291666632124" lon="12.358824989730127" id="-39042">
		<tag k="name" v="Stormyra" />
		<tag k="natural" v="wetland" />
		<tag k="ssr:stedsnr" v="331424" />
	</node>
	<node lat="64.65093055458375" lon="12.256072215295031" id="-39043">
		<tag k="name" v="Raudmyra" />
		<tag k="natural" v="wetland" />
		<tag k="ssr:stedsnr" v="331153" />
	</node>
	<node lat="64.72552499689938" lon="12.214108329367095" id="-39044">
		<tag k="name" v="Bygselslættet" />
		<tag k="natural" v="wetland" />
		<tag k="ssr:stedsnr" v="331136" />
	</node>
	<node lat="64.66520833634367" lon="12.407611115234662" id="-39047">
		<tag k="name" v="Vakkerbotnet" />
		<tag k="natural" v="wetland" />
		<tag k="ssr:stedsnr" v="331481" />
	</node>
	<node lat="64.5792138872952" lon="12.311733343204258" id="-39056">
		<tag k="name" v="Stormyra" />
		<tag k="natural" v="wetland" />
		<tag k="ssr:stedsnr" v="332271" />
	</node>
	<node lat="64.66178055754193" lon="12.291861118798183" id="-39064">
		<tag k="name" v="Øytjønnmyra" />
		<tag k="natural" v="wetland" />
		<tag k="ssr:stedsnr" v="332467" />
	</node>
	<node lat="64.78797777853435" lon="12.363780557361046" id="-39067">
		<tag k="name" v="Joenget" />
		<tag k="natural" v="wetland" />
		<tag k="ssr:stedsnr" v="332587" />
	</node>
	<node lat="64.6732083374497" lon="12.15613056279159" id="-39075">
		<tag k="historic" v="shieling" />
		<tag k="name" v="Børstadsetran" />
		<tag k="place" v="locality" />
		<tag k="ssr:stedsnr" v="352920" />
	</node>
	<node lat="64.62624722368753" lon="12.1522444425874" id="-39078">
		<tag k="historic" v="shieling" />
		<tag k="name" v="Myrmosetran" />
		<tag k="place" v="locality" />
		<tag k="ssr:stedsnr" v="378894" />
	</node>
	<node lat="64.68953889125848" lon="12.283533338091443" id="-39080">
		<tag k="name" v="Sjurdenget" />
		<tag k="natural" v="wetland" />
		<tag k="ssr:stedsnr" v="378930" />
	</node>
	<node lat="64.62225833694757" lon="12.226549990416435" id="-39095">
		<tag k="name" v="Kjølen" />
		<tag k="natural" v="wetland" />
		<tag k="ssr:stedsnr" v="378640" />
	</node>
	<node lat="64.63312499634401" lon="12.133611119596772" id="-39104">
		<tag k="name" v="Sulsteinmyra" />
		<tag k="natural" v="wetland" />
		<tag k="ssr:stedsnr" v="392124" />
	</node>
	<node lat="64.53930555792638" lon="12.206127776816299" id="-39105">
		<tag k="historic" v="shieling" />
		<tag k="name" v="Holosetran" />
		<tag k="place" v="locality" />
		<tag k="ssr:stedsnr" v="392071" />
	</node>
	<node lat="64.56498055387259" lon="12.23283333286334" id="-39106">
		<tag k="name" v="Tjønnmyra" />
		<tag k="natural" v="wetland" />
		<tag k="ssr:stedsnr" v="392219" />
	</node>
	<node lat="64.71080555360822" lon="12.301022227355368" id="-39107">
		<tag k="name" v="Sandbekkenget" />
		<tag k="natural" v="wetland" />
		<tag k="ssr:stedsnr" v="392426" />
	</node>
	<node lat="64.62504444894874" lon="12.392486112181038" id="-39109">
		<tag k="name" v="Stemningsmyra" />
		<tag k="natural" v="wetland" />
		<tag k="ssr:stedsnr" v="392517" />
	</node>
	<node lat="64.77330000207162" lon="12.310811101871012" id="-39112">
		<tag k="name" v="Nyloddoenget" />
		<tag k="natural" v="wetland" />
		<tag k="ssr:stedsnr" v="392654" />
	</node>
	<node lat="64.59290000347369" lon="12.142066664441868" id="-39113">
		<tag k="name" v="Stormikkelhola" />
		<tag k="natural" v="wetland" />
		<tag k="ssr:stedsnr" v="392137" />
	</node>
	<node lat="64.58790555277228" lon="12.149908330468756" id="-39117">
		<tag k="name" v="Små-Mikkelhola" />
		<tag k="place" v="locality" />
		<tag k="ssr:stedsnr" v="392252" />
	</node>
	<node lat="64.64067222121221" lon="12.16636110470741" id="-39118">
		<tag k="name" v="Langmyra" />
		<tag k="natural" v="wetland" />
		<tag k="ssr:stedsnr" v="392255" />
	</node>
	<node lat="64.6148611110665" lon="12.237500005908524" id="-39119">
		<tag k="name" v="Kjerringmyra" />
		<tag k="natural" v="wetland" />
		<tag k="ssr:stedsnr" v="392278" />
	</node>
	<node lat="64.613936108182" lon="12.223761117370081" id="-39120">
		<tag k="name" v="Heimerenget" />
		<tag k="natural" v="wetland" />
		<tag k="ssr:stedsnr" v="392281" />
	</node>
	<node lat="64.6986555528322" lon="12.388202773569986" id="-39121">
		<tag k="name" v="Sørhesjimyra" />
		<tag k="natural" v="wetland" />
		<tag k="ssr:stedsnr" v="392435" />
	</node>
	<node lat="64.66628333508" lon="12.393027771719774" id="-39126">
		<tag k="name" v="Tjønnenget" />
		<tag k="natural" v="wetland" />
		<tag k="ssr:stedsnr" v="392544" />
	</node>
	<node lat="64.65349444577663" lon="12.393711119348106" id="-39129">
		<tag k="name" v="Ol-Persamyra" />
		<tag k="natural" v="wetland" />
		<tag k="ssr:stedsnr" v="392565" />
	</node>
	<node lat="64.55835833048987" lon="12.285838892679886" id="-39137">
		<tag k="name" v="Stormyra" />
		<tag k="natural" v="wetland" />
		<tag k="ssr:stedsnr" v="393299" />
	</node>
	<node lat="64.68042777375027" lon="12.258102780959431" id="-39143">
		<tag k="historic" v="shieling" />
		<tag k="name" v="Almåssetran" />
		<tag k="place" v="locality" />
		<tag k="ssr:stedsnr" v="413932" />
	</node>
	<node lat="64.67777499743961" lon="12.238205561840854" id="-39170">
		<tag k="name" v="Bjørnmyra" />
		<tag k="natural" v="wetland" />
		<tag k="ssr:stedsnr" v="499522" />
	</node>
	<node lat="64.9054871164264" lon="12.432863932527708" id="-39186">
		<tag k="alt_name" v="Aunsætra" />
		<tag k="historic" v="shieling" />
		<tag k="name" v="Aunsetran" />
		<tag k="place" v="locality" />
		<tag k="ssr:stedsnr" v="500848" />
	</node>
	<node lat="64.90808333602037" lon="12.36964166273261" id="-39187">
		<tag k="alt_name" v="Nilsmyra" />
		<tag k="name" v="Nilsmyran" />
		<tag k="natural" v="wetland" />
		<tag k="ssr:stedsnr" v="500850" />
	</node>
	<node lat="64.64730555440727" lon="12.242663879691053" id="-39191">
		<tag k="name" v="Blakkmyra" />
		<tag k="natural" v="wetland" />
		<tag k="ssr:stedsnr" v="513157" />
	</node>
	<node lat="64.90820000404914" lon="12.360027776711616" id="-39194">
		<tag k="name" v="Stormyra" />
		<tag k="natural" v="wetland" />
		<tag k="ssr:stedsnr" v="513756" />
	</node>
	<node lat="64.60768888698146" lon="12.103161100765051" id="-39196">
		<tag k="name" v="Stormyra" />
		<tag k="natural" v="wetland" />
		<tag k="ssr:stedsnr" v="514134" />
	</node>
	<node lat="64.68665833644582" lon="12.37325277237165" id="-39201">
		<tag k="name" v="Stakkenget" />
		<tag k="place" v="locality" />
		<tag k="ssr:stedsnr" v="514442" />
	</node>
	<node lat="64.86574722413356" lon="12.4019055656055" id="-39215">
		<tag k="name" v="Tjønnmyra" />
		<tag k="natural" v="wetland" />
		<tag k="ssr:stedsnr" v="514733" />
	</node>
	<node lat="64.83077777571835" lon="12.506844439644029" id="-39227">
		<tag k="historic" v="shieling" />
		<tag k="name" v="Årsetran" />
		<tag k="place" v="locality" />
		<tag k="ssr:stedsnr" v="533993" />
	</node>
	<node lat="64.64718055195152" lon="12.325111118516878" id="-39241">
		<tag k="name" v="Teinmyra" />
		<tag k="natural" v="wetland" />
		<tag k="ssr:stedsnr" v="560621" />
	</node>
	<node lat="64.65295000365505" lon="12.16432499285101" id="-39250">
		<tag k="name" v="Tyldurda" />
		<tag k="natural" v="scree" />
		<tag k="ssr:stedsnr" v="560852" />
	</node>
	<node lat="64.69655000360471" lon="12.273216661394027" id="-39253">
		<tag k="name" v="Nyloddomyra" />
		<tag k="natural" v="wetland" />
		<tag k="ssr:stedsnr" v="560949" />
	</node>
	<node lat="64.56592500150458" lon="12.26417499868368" id="-39256">
		<tag k="name" v="Eidsmyra" />
		<tag k="natural" v="wetland" />
		<tag k="ssr:stedsnr" v="574224" />
	</node>
	<node lat="64.64398055773715" lon="12.306091661998625" id="-39263">
		<tag k="name" v="Almåsmyra" />
		<tag k="natural" v="wetland" />
		<tag k="ssr:stedsnr" v="574538" />
	</node>
	<node lat="64.74866388493702" lon="12.294230553614518" id="-39266">
		<tag k="name" v="Seterenget" />
		<tag k="natural" v="wetland" />
		<tag k="ssr:stedsnr" v="574487" />
	</node>
	<node lat="64.65293333000352" lon="12.367316662932629" id="-39269">
		<tag k="name" v="Stormyra" />
		<tag k="natural" v="wetland" />
		<tag k="ssr:stedsnr" v="574549" />
	</node>
	<node lat="64.63852778009236" lon="12.363063898503787" id="-39270">
		<tag k="name" v="Bottenmyra" />
		<tag k="natural" v="wetland" />
		<tag k="ssr:stedsnr" v="574553" />
	</node>
	<node lat="64.72074999719379" lon="12.290341659630561" id="-39281">
		<tag k="name" v="Hyllbekkenget" />
		<tag k="natural" v="wetland" />
		<tag k="ssr:stedsnr" v="574670" />
	</node>
	<node lat="64.79532222480432" lon="12.374424998512293" id="-39288">
		<tag k="name" v="Skardmyra" />
		<tag k="natural" v="wetland" />
		<tag k="ssr:stedsnr" v="574643" />
	</node>
	<node lat="64.57081944398952" lon="12.313327785060673" id="-39292">
		<tag k="name" v="Olausenget" />
		<tag k="natural" v="wetland" />
		<tag k="ssr:stedsnr" v="575264" />
	</node>
	<node lat="64.82934999846354" lon="12.508249998544429" id="-39298">
		<tag k="historic" v="shieling" />
		<tag k="name" v="Kjølstadsetran" />
		<tag k="place" v="locality" />
		<tag k="ssr:stedsnr" v="594987" />
	</node>
	<node lat="64.63208888981863" lon="12.230100001758975" id="-39319">
		<tag k="name" v="Skåkenget" />
		<tag k="natural" v="wetland" />
		<tag k="ssr:stedsnr" v="635146" />
	</node>
	<node lat="64.64661388786564" lon="12.398502786341162" id="-39320">
		<tag k="name" v="Stormyra" />
		<tag k="natural" v="wetland" />
		<tag k="ssr:stedsnr" v="634541" />
	</node>
	<node lat="64.64759722030641" lon="12.195344453461523" id="-39326">
		<tag k="name" v="Arnfinnenget" />
		<tag k="natural" v="wetland" />
		<tag k="ssr:stedsnr" v="634249" />
	</node>
	<node lat="64.75686667114549" lon="12.30365555746527" id="-39331">
		<tag k="name" v="Joenget" />
		<tag k="natural" v="wetland" />
		<tag k="ssr:stedsnr" v="634470" />
	</node>
	<node lat="64.74503055431862" lon="12.389438894769238" id="-39337">
		<tag k="name" v="Seterenget" />
		<tag k="natural" v="wetland" />
		<tag k="ssr:stedsnr" v="634665" />
	</node>
	<node lat="64.78327222118212" lon="12.350872231460297" id="-39347">
		<tag k="name" v="Austmyra" />
		<tag k="natural" v="wetland" />
		<tag k="ssr:stedsnr" v="635578" />
	</node>
	<node lat="64.75032222417259" lon="12.411916675122326" id="-39357">
		<tag k="name" v="Hundsåmyran" />
		<tag k="natural" v="wetland" />
		<tag k="ssr:stedsnr" v="715991" />
	</node>
	<node lat="64.74273333179585" lon="12.251325001143034" id="-39369">
		<tag k="name" v="Stormyra" />
		<tag k="natural" v="wetland" />
		<tag k="ssr:stedsnr" v="743884" />
	</node>
	<node lat="64.66346666435565" lon="12.364827772565485" id="-39380">
		<tag k="name" v="Tjønnmyra" />
		<tag k="natural" v="wetland" />
		<tag k="ssr:stedsnr" v="756491" />
	</node>
	<node lat="64.69436388720925" lon="12.354399999034941" id="-39383">
		<tag k="name" v="Dølin" />
		<tag k="place" v="locality" />
		<tag k="ssr:stedsnr" v="756428" />
	</node>
	<node lat="64.80746667059715" lon="12.348091656974796" id="-39384">
		<tag k="name" v="Storenget" />
		<tag k="natural" v="wetland" />
		<tag k="ssr:stedsnr" v="756534" />
	</node>
	<node lat="64.78623611196466" lon="12.354288880415519" id="-39386">
		<tag k="name" v="Kartmyra" />
		<tag k="natural" v="wetland" />
		<tag k="ssr:stedsnr" v="756625" />
	</node>
	<node lat="64.78508611248502" lon="12.366480558799191" id="-39387">
		<tag k="name" v="Tjønnmyra" />
		<tag k="natural" v="wetland" />
		<tag k="ssr:stedsnr" v="756626" />
	</node>
	<node lat="64.73128055143835" lon="12.297430562240336" id="-39391">
		<tag k="name" v="Kålåmyra" />
		<tag k="natural" v="wetland" />
		<tag k="ssr:stedsnr" v="756659" />
	</node>
	<node lat="64.7354416646123" lon="12.31586389292267" id="-39394">
		<tag k="name" v="Krasamyra" />
		<tag k="natural" v="wetland" />
		<tag k="ssr:stedsnr" v="756674" />
	</node>
	<node lat="64.6204194403678" lon="12.194550003787558" id="-39397">
		<tag k="name" v="Sørenmyra" />
		<tag k="natural" v="wetland" />
		<tag k="ssr:stedsnr" v="757191" />
	</node>
	<node lat="64.65961110889626" lon="12.181741656095404" id="-39405">
		<tag k="historic" v="shieling" />
		<tag k="name" v="Helmersetran" />
		<tag k="place" v="locality" />
		<tag k="ssr:stedsnr" v="777886" />
	</node>
	<node lat="64.5821833331985" lon="12.26847499553776" id="-39408">
		<tag k="name" v="Setermyra" />
		<tag k="natural" v="wetland" />
		<tag k="ssr:stedsnr" v="803555" />
	</node>
	<node lat="64.72450555347216" lon="12.276033325675003" id="-39425">
		<tag k="name" v="Storenget" />
		<tag k="natural" v="wetland" />
		<tag k="ssr:stedsnr" v="804897" />
	</node>
	<node lat="64.71426389087944" lon="12.278863880856303" id="-39435">
		<tag k="name" v="Tomasenget" />
		<tag k="natural" v="wetland" />
		<tag k="ssr:stedsnr" v="804914" />
	</node>
	<node lat="64.6933361147856" lon="12.289830554286194" id="-39436">
		<tag k="name" v="Lægda" />
		<tag k="natural" v="wetland" />
		<tag k="ssr:stedsnr" v="804931" />
	</node>
	<node lat="64.6282138924975" lon="12.230116674440353" id="-39443">
		<tag k="name" v="Karislættet" />
		<tag k="natural" v="wetland" />
		<tag k="ssr:stedsnr" v="817249" />
	</node>
	<node lat="64.56546944311627" lon="12.274369441231087" id="-39445">
		<tag k="name" v="Setermoan" />
		<tag k="place" v="locality" />
		<tag k="ssr:stedsnr" v="817210" />
	</node>
	<node lat="64.65352778007379" lon="12.380252774572961" id="-39449">
		<tag k="name" v="Nilsmyra" />
		<tag k="natural" v="wetland" />
		<tag k="ssr:stedsnr" v="817502" />
	</node>
	<node lat="64.63414721839004" lon="12.15705556064303" id="-39452">
		<tag k="name" v="Høgengmyra" />
		<tag k="natural" v="wetland" />
		<tag k="ssr:stedsnr" v="817163" />
	</node>
	<node lat="64.57503888649904" lon="12.316797215619854" id="-39454">
		<tag k="name" v="Skavholet" />
		<tag k="place" v="locality" />
		<tag k="ssr:stedsnr" v="818290" />
	</node>
	<node lat="64.60216666597401" lon="12.327572222201207" id="-39458">
		<tag k="name" v="Stemningsmyra" />
		<tag k="natural" v="wetland" />
		<tag k="ssr:stedsnr" v="817462" />
	</node>
	<node lat="64.72352778175961" lon="12.31578054652963" id="-39464">
		<tag k="name" v="Jordmyra" />
		<tag k="natural" v="wetland" />
		<tag k="ssr:stedsnr" v="817632" />
	</node>
	<node lat="64.90238610763782" lon="12.390080555805872" id="-39469">
		<tag k="name" v="Keipskardmyra" />
		<tag k="natural" v="wetland" />
		<tag k="ssr:stedsnr" v="817758" />
	</node>
	<node lat="64.86546944722676" lon="12.369811113310961" id="-39470">
		<tag k="name" v="Litlenget" />
		<tag k="natural" v="wetland" />
		<tag k="ssr:stedsnr" v="817763" />
	</node>
	<node lat="64.80155555843628" lon="12.398238886338394" id="-39471">
		<tag k="name" v="Stormyra" />
		<tag k="natural" v="wetland" />
		<tag k="ssr:stedsnr" v="817599" />
	</node>
	<node lat="64.91027777874915" lon="12.4258166734268" id="-39479">
		<tag k="name" v="Bjørnbakkmyra" />
		<tag k="natural" v="wetland" />
		<tag k="ssr:stedsnr" v="818794" />
	</node>
	<node lat="64.88874722571524" lon="12.515647226180413" id="-39483">
		<tag k="name" v="Finnhusmyra" />
		<tag k="natural" v="wetland" />
		<tag k="ssr:stedsnr" v="818837" />
	</node>
	<node lat="64.74343889022434" lon="12.296302786483281" id="-39495">
		<tag k="name" v="Svortmyra" />
		<tag k="natural" v="wetland" />
		<tag k="ssr:stedsnr" v="864898" />
	</node>
	<node lat="64.79473333350735" lon="12.444674992024057" id="-39498">
		<tag k="name" v="Stormyra" />
		<tag k="natural" v="wetland" />
		<tag k="ssr:stedsnr" v="864184" />
	</node>
	<node lat="64.64477499976503" lon="12.20405276862582" id="-39513">
		<tag k="name" v="Steinmyra" />
		<tag k="natural" v="wetland" />
		<tag k="ssr:stedsnr" v="864868" />
	</node>
	<node lat="64.80660278051862" lon="12.344541657330545" id="-39526">
		<tag k="name" v="Brattenget" />
		<tag k="natural" v="wetland" />
		<tag k="ssr:stedsnr" v="878591" />
	</node>
	<node lat="64.63470555278275" lon="12.268883342343061" id="-39533">
		<tag k="name" v="Stakkmyra" />
		<tag k="natural" v="wetland" />
		<tag k="ssr:stedsnr" v="878173" />
	</node>
	<node lat="64.64047500329582" lon="12.255294448522358" id="-39534">
		<tag k="name" v="Langmyra" />
		<tag k="natural" v="wetland" />
		<tag k="ssr:stedsnr" v="878174" />
	</node>
	<node lat="64.74000555424675" lon="12.256002785086565" id="-39536">
		<tag k="name" v="Tverråslættet" />
		<tag k="natural" v="wetland" />
		<tag k="ssr:stedsnr" v="878182" />
	</node>
	<node lat="64.5925055586888" lon="12.296816664651049" id="-39538">
		<tag k="name" v="Langåsmyra" />
		<tag k="natural" v="wetland" />
		<tag k="ssr:stedsnr" v="878533" />
	</node>
	<node lat="64.66855555702153" lon="12.269727773652317" id="-39544">
		<tag k="name" v="Sløyna" />
		<tag k="place" v="locality" />
		<tag k="ssr:stedsnr" v="879224" />
	</node>
	<node lat="64.81604722118082" lon="12.413797232410422" id="-39545">
		<tag k="name" v="Tjønnenget" />
		<tag k="natural" v="wetland" />
		<tag k="ssr:stedsnr" v="879865" />
	</node>
	<node lat="64.63207222083709" lon="12.194591661405674" id="-39550">
		<tag k="name" v="Djupbekkenget" />
		<tag k="natural" v="wetland" />
		<tag k="ssr:stedsnr" v="938128" />
	</node>
	<node lat="64.66047777460984" lon="12.364441674950939" id="-39554">
		<tag k="name" v="Stormyra" />
		<tag k="natural" v="wetland" />
		<tag k="ssr:stedsnr" v="938488" />
	</node>
	<node lat="64.74686110948555" lon="12.383397226660385" id="-39555">
		<tag k="name" v="Kløyvmyran" />
		<tag k="natural" v="wetland" />
		<tag k="ssr:stedsnr" v="938628" />
	</node>
	<node lat="64.60526389229548" lon="12.1062277837144" id="-39559">
		<tag k="name" v="Heststakkenget" />
		<tag k="natural" v="wetland" />
		<tag k="ssr:stedsnr" v="939115" />
	</node>
	<node lat="64.71988333731757" lon="12.36224722658101" id="-39576">
		<tag k="name" v="Kjølstadmyra" />
		<tag k="natural" v="wetland" />
		<tag k="ssr:stedsnr" v="939619" />
	</node>
	<node lat="64.73853333566974" lon="12.381199992645417" id="-39578">
		<tag k="name" v="Kløyvmyran" />
		<tag k="natural" v="wetland" />
		<tag k="ssr:stedsnr" v="939624" />
	</node>
	<node lat="64.82303610863968" lon="12.414219451284243" id="-39587">
		<tag k="name" v="Kartholet" />
		<tag k="natural" v="wetland" />
		<tag k="ssr:stedsnr" v="939857" />
	</node>
	<node lat="64.81802499799413" lon="12.40969443730582" id="-39590">
		<tag k="name" v="Mellomstakkenget" />
		<tag k="natural" v="wetland" />
		<tag k="ssr:stedsnr" v="939875" />
	</node>
	<node lat="64.82455911298415" lon="12.410558221647554" id="-39627">
		<tag k="name" v="Lonskogen" />
		<tag k="place" v="locality" />
		<tag k="ssr:stedsnr" v="1081073" />
	</node>
</osm>
