<?xml version="1.0" encoding="UTF-8"?>
<osm version="0.6" generator="osmapis">
	<node lat="64.66197222421306" lon="12.154486111457196" id="-87807">
		<tag k="name" v="Dyggerengbukta" />
		<tag k="natural" v="bay" />
		<tag k="ssr:stedsnr" v="14816" />
	</node>
	<node lat="64.64096667103829" lon="12.36754722320592" id="-87823">
		<tag k="name" v="Bergengbekken" />
		<tag k="ssr:stedsnr" v="28511" />
		<tag k="waterway" v="stream" />
	</node>
	<node lat="64.6396749972433" lon="12.3001694398138" id="-87824">
		<tag k="name" v="Okstadbekken" />
		<tag k="ssr:stedsnr" v="28515" />
		<tag k="waterway" v="stream" />
	</node>
	<node lat="64.70464166750624" lon="12.299072231099746" id="-87826">
		<tag k="name" v="Liabekken" />
		<tag k="ssr:stedsnr" v="28410" />
		<tag k="waterway" v="stream" />
	</node>
	<node lat="64.74923610772522" lon="12.374733330470955" id="-87828">
		<tag k="name" v="Vester Kløyvbekken" />
		<tag k="ssr:stedsnr" v="28471" />
		<tag k="waterway" v="stream" />
	</node>
	<node lat="64.86812221983722" lon="12.393544444895785" id="-87835">
		<tag k="name" v="Løkråa" />
		<tag k="ssr:stedsnr" v="28789" />
		<tag k="waterway" v="stream" />
	</node>
	<node lat="64.56284999687352" lon="12.292797226002293" id="-87837">
		<tag k="name" v="Nyfjellbekken" />
		<tag k="ssr:stedsnr" v="29309" />
		<tag k="waterway" v="stream" />
	</node>
	<node lat="64.8098027770524" lon="12.339552787520828" id="-87839">
		<tag k="name" v="Liabekken" />
		<tag k="ssr:stedsnr" v="48506" />
		<tag k="waterway" v="stream" />
	</node>
	<node lat="64.66013332966273" lon="12.163069451771818" id="-87840">
		<tag k="name" v="Tverrlandet" />
		<tag k="natural" v="beach" />
		<tag k="ssr:stedsnr" v="48924" />
	</node>
	<node lat="64.85406388512061" lon="12.283399989251459" id="-87849">
		<tag k="name" v="Badevatnet" />
		<tag k="natural" v="water" />
		<tag k="ssr:stedsnr" v="75809" />
	</node>
	<node lat="64.90922500060613" lon="12.61758055170565" id="-87852">
		<tag k="name" v="Øysterelva - Åarenhaevtie" />
		<tag k="name:no" v="Øysterelva" />
		<tag k="name:sma" v="Åarenhaevtie" />
		<tag k="ssr:stedsnr" v="75852" />
		<tag k="waterway" v="river" />
	</node>
	<node lat="64.62349999970608" lon="12.188950009569858" id="-87854">
		<tag k="name" v="Langvassvika" />
		<tag k="natural" v="bay" />
		<tag k="ssr:stedsnr" v="75799" />
	</node>
	<node lat="64.68615465294377" lon="12.22165890422761" id="-87859">
		<tag k="name" v="Almåsgrønningen" />
		<tag k="natural" v="water" />
		<tag k="ssr:stedsnr" v="76801" />
		<tag k="water" v="lake" />
	</node>
	<node lat="64.56612222614032" lon="12.253361108445576" id="-87863">
		<tag k="name" v="Middagsåa" />
		<tag k="ssr:stedsnr" v="89212" />
		<tag k="waterway" v="river" />
	</node>
	<node lat="64.61467221990168" lon="12.196336110737914" id="-87864">
		<tag k="name" v="Grøssjøbekken" />
		<tag k="ssr:stedsnr" v="89264" />
		<tag k="waterway" v="stream" />
	</node>
	<node lat="64.66978611249733" lon="12.337824991680554" id="-87869">
		<tag k="name" v="Råtjønna" />
		<tag k="natural" v="water" />
		<tag k="ssr:stedsnr" v="89508" />
	</node>
	<node lat="64.76303333123077" lon="12.323177767513394" id="-87876">
		<tag k="name" v="Kvernengbekken" />
		<tag k="ssr:stedsnr" v="89609" />
		<tag k="waterway" v="stream" />
	</node>
	<node lat="64.7339249970166" lon="12.314236117943882" id="-87890">
		<tag k="name" v="Litlåa" />
		<tag k="ssr:stedsnr" v="257933" />
		<tag k="waterway" v="stream" />
	</node>
	<node lat="64.59551666541125" lon="12.406511102761781" id="-87893">
		<tag k="name" v="Ånestjønna" />
		<tag k="natural" v="water" />
		<tag k="ssr:stedsnr" v="135553" />
	</node>
	<node lat="64.70817777845787" lon="12.255619453672297" id="-87901">
		<tag k="name" v="Gåstjønna" />
		<tag k="natural" v="water" />
		<tag k="ssr:stedsnr" v="136915" />
	</node>
	<node lat="64.55518333661504" lon="12.10913054585433" id="-87904">
		<tag k="name" v="Øyenga" />
		<tag k="ssr:stedsnr" v="136812" />
		<tag k="waterway" v="stream" />
	</node>
	<node lat="64.91434444848052" lon="12.70513610926843" id="-87905">
		<tag k="name" v="Barsjenjaevrie" />
		<tag k="name:sma" v="Barsjenjaevrie" />
		<tag k="natural" v="water" />
		<tag k="ssr:stedsnr" v="136813" />
	</node>
	<node lat="64.78602222532936" lon="12.315555553964536" id="-87919">
		<tag k="name" v="Bjørlielvdalen" />
		<tag k="ssr:stedsnr" v="149619" />
		<tag k="waterway" v="river" />
	</node>
	<node lat="64.58370833777415" lon="12.35518888780574" id="-87925">
		<tag k="name" v="Seterbekken" />
		<tag k="ssr:stedsnr" v="150314" />
		<tag k="waterway" v="stream" />
	</node>
	<node lat="64.59191944306086" lon="12.210180553615391" id="-87934">
		<tag k="name" v="Grungstadvatnet" />
		<tag k="natural" v="water" />
		<tag k="ssr:stedsnr" v="197816" />
		<tag k="water" v="lake" />
	</node>
	<node lat="64.71622222217592" lon="12.289258333051675" id="-87942">
		<tag k="name" v="Hogneselva" />
		<tag k="ssr:stedsnr" v="210414" />
		<tag k="waterway" v="stream" />
	</node>
	<node lat="64.6571416650922" lon="12.386483326134847" id="-87948">
		<tag k="name" v="Tverråa" />
		<tag k="ssr:stedsnr" v="210503" />
		<tag k="waterway" v="stream" />
	</node>
	<node lat="64.8845361149991" lon="12.369249991064313" id="-87950">
		<tag k="name" v="Storengtjønna" />
		<tag k="natural" v="water" />
		<tag k="ssr:stedsnr" v="210518" />
	</node>
	<node lat="64.59703610896568" lon="12.225088892488055" id="-87955">
		<tag k="name" v="Nesodden" />
		<tag k="natural" v="cape" />
		<tag k="ssr:stedsnr" v="215619" />
	</node>
	<node lat="64.7142500009049" lon="12.196425006838217" id="-87957">
		<tag k="name" v="Skrøyvdalsbekken" />
		<tag k="ssr:stedsnr" v="257209" />
		<tag k="waterway" v="stream" />
	</node>
	<node lat="64.66740277693046" lon="12.106749991099543" id="-87962">
		<tag k="name" v="Tverrtjønna" />
		<tag k="natural" v="water" />
		<tag k="ssr:stedsnr" v="257864" />
	</node>
	<node lat="64.7535499966152" lon="12.344036115106839" id="-87967">
		<tag k="name" v="Øysundet" />
		<tag k="natural" v="strait" />
		<tag k="ssr:stedsnr" v="271511" />
	</node>
	<node lat="64.66394999741269" lon="12.342997232064354" id="-87968">
		<tag k="name" v="Barbekken" />
		<tag k="ssr:stedsnr" v="271537" />
		<tag k="waterway" v="stream" />
	</node>
	<node lat="64.59658333234039" lon="12.356700008181788" id="-87972">
		<tag k="name" v="Eggelitjønna" />
		<tag k="natural" v="water" />
		<tag k="ssr:stedsnr" v="271544" />
	</node>
	<node lat="64.76686388972192" lon="12.398938899029943" id="-87974">
		<tag k="name" v="Lornsodden" />
		<tag k="natural" v="cape" />
		<tag k="ssr:stedsnr" v="271638" />
	</node>
	<node lat="64.6045166666734" lon="12.215916661487286" id="-87982">
		<tag k="name" v="Kvernbekken" />
		<tag k="ssr:stedsnr" v="276645" />
		<tag k="waterway" v="stream" />
	</node>
	<node lat="64.57522778169347" lon="12.154411113390864" id="-87985">
		<tag k="name" v="Tjønnengbekken" />
		<tag k="ssr:stedsnr" v="453038" />
		<tag k="waterway" v="stream" />
	</node>
	<node lat="64.54280277771555" lon="12.185194442943176" id="-87988">
		<tag k="name" v="Storfossen" />
		<tag k="natural" v="waterfall" />
		<tag k="ssr:stedsnr" v="453061" />
	</node>
	<node lat="64.62914722482464" lon="12.137994439921693" id="-87990">
		<tag k="name" v="Varpet" />
		<tag k="natural" v="water" />
		<tag k="ssr:stedsnr" v="453146" />
		<tag k="water" v="lake" />
	</node>
	<node lat="64.61035000355075" lon="12.37170556512467" id="-87996">
		<tag k="name" v="Litltjønna" />
		<tag k="natural" v="water" />
		<tag k="ssr:stedsnr" v="453494" />
	</node>
	<node lat="64.88228889116624" lon="12.400683339195094" id="-87998">
		<tag k="name" v="Seterelva" />
		<tag k="ssr:stedsnr" v="453542" />
		<tag k="waterway" v="river" />
	</node>
	<node lat="64.60881110746534" lon="12.409424989924448" id="-88001">
		<tag k="name" v="Berettjønna" />
		<tag k="natural" v="water" />
		<tag k="ssr:stedsnr" v="453497" />
	</node>
	<node lat="64.81247222455133" lon="12.382305558291305" id="-88003">
		<tag k="name" v="Lonbekken" />
		<tag k="ssr:stedsnr" v="453547" />
		<tag k="waterway" v="stream" />
	</node>
	<node lat="64.84988055231874" lon="12.356138890366246" id="-88016">
		<tag k="name" v="Nytjønnin" />
		<tag k="natural" v="water" />
		<tag k="ssr:stedsnr" v="453756" />
	</node>
	<node lat="64.65621944764587" lon="12.216722214446326" id="-88020">
		<tag k="name" v="Stordalbekken" />
		<tag k="ssr:stedsnr" v="454244" />
		<tag k="waterway" v="stream" />
	</node>
	<node lat="64.60243610716698" lon="12.365686110871918" id="-88027">
		<tag k="name" v="Brynntjønna" />
		<tag k="natural" v="water" />
		<tag k="ssr:stedsnr" v="317461" />
	</node>
	<node lat="64.88636111025252" lon="12.706813878762022" id="-88028">
		<tag k="name" v="Baaltedimsjaevrie" />
		<tag k="name:sma" v="Baaltedimsjaevrie" />
		<tag k="natural" v="water" />
		<tag k="ssr:stedsnr" v="317707" />
		<tag k="water" v="lake" />
	</node>
	<node lat="64.75816666635092" lon="12.292333323376262" id="-88029">
		<tag k="alt_name" v="Urbekken" />
		<tag k="name" v="Urdbekken" />
		<tag k="ssr:stedsnr" v="318204" />
		<tag k="waterway" v="stream" />
	</node>
	<node lat="64.74133333381916" lon="12.187108343099913" id="-88031">
		<tag k="name" v="Krokvatnet" />
		<tag k="natural" v="water" />
		<tag k="ssr:stedsnr" v="318223" />
		<tag k="water" v="lake" />
	</node>
	<node lat="64.74055277921445" lon="12.28011944354758" id="-88038">
		<tag k="name" v="Svorta" />
		<tag k="ssr:stedsnr" v="318901" />
		<tag k="waterway" v="river" />
	</node>
	<node lat="64.55653333485915" lon="12.187727774650881" id="-88039">
		<tag k="name" v="Eida" />
		<tag k="ssr:stedsnr" v="318951" />
		<tag k="waterway" v="river" />
	</node>
	<node lat="64.64194444204479" lon="12.380066663946277" id="-88045">
		<tag k="name" v="Groftholdbekken" />
		<tag k="ssr:stedsnr" v="331507" />
		<tag k="waterway" v="stream" />
	</node>
	<node lat="64.72439722581335" lon="12.17791111805629" id="-88051">
		<tag k="name" v="Fossen" />
		<tag k="natural" v="waterfall" />
		<tag k="ssr:stedsnr" v="332112" />
	</node>
	<node lat="64.79428055592705" lon="12.360258339667057" id="-88066">
		<tag k="name" v="Skogafossen" />
		<tag k="natural" v="waterfall" />
		<tag k="ssr:stedsnr" v="378188" />
	</node>
	<node lat="64.87131944894782" lon="12.576213885431883" id="-88074">
		<tag k="name" v="Årkverntjønnin - Snuvrejaevrieh" />
		<tag k="name:no" v="Årkverntjønnin" />
		<tag k="name:sma" v="Snuvrejaevrieh" />
		<tag k="natural" v="water" />
		<tag k="ssr:stedsnr" v="378778" />
	</node>
	<node lat="64.68537777347076" lon="12.334666668541542" id="-88078">
		<tag k="name" v="Flottjønna" />
		<tag k="natural" v="water" />
		<tag k="ssr:stedsnr" v="378934" />
	</node>
	<node lat="64.96750277926755" lon="12.580794446505822" id="-88079">
		<tag k="name" v="Ientjemehkiejaevrie" />
		<tag k="name:sma" v="Ientjemehkiejaevrie" />
		<tag k="natural" v="water" />
		<tag k="ssr:stedsnr" v="378842" />
		<tag k="water" v="lake" />
	</node>
	<node lat="64.62641944435902" lon="12.065974996831574" id="-88080">
		<tag k="name" v="Skeisseteråa" />
		<tag k="ssr:stedsnr" v="378881" />
		<tag k="waterway" v="stream" />
	</node>
	<node lat="64.62750277683666" lon="12.09125000607768" id="-88081">
		<tag k="name" v="Vikaholman" />
		<tag k="place" v="islet" />
		<tag k="ssr:stedsnr" v="378883" />
	</node>
	<node lat="64.6181138900092" lon="12.325011102102586" id="-88082">
		<tag k="name" v="Brynna" />
		<tag k="ssr:stedsnr" v="379476" />
		<tag k="waterway" v="river" />
	</node>
	<node lat="64.91156944444158" lon="12.645877781850851" id="-88085">
		<tag k="alt_name:no" v="Aunvatnet, tredje" />
		<tag k="name" v="Tredje Aunvatnet - Bijjemesjaevrie" />
		<tag k="name:no" v="Tredje Aunvatnet" />
		<tag k="name:sma" v="Bijjemesjaevrie" />
		<tag k="natural" v="water" />
		<tag k="old_name:sma" v="Bijjemsjaevrie" />
		<tag k="ssr:stedsnr" v="379777" />
	</node>
	<node lat="64.70753698503606" lon="12.559590931386955" id="-88087">
		<tag k="name" v="Nyfjelltjønna" />
		<tag k="natural" v="water" />
		<tag k="ssr:stedsnr" v="379923" />
	</node>
	<node lat="64.7274944432191" lon="12.265975009093502" id="-88091">
		<tag k="name" v="Storsvehallbekken" />
		<tag k="ssr:stedsnr" v="392162" />
		<tag k="waterway" v="stream" />
	</node>
	<node lat="64.89420555744393" lon="12.511027779066964" id="-88108">
		<tag k="name" v="Storhøla" />
		<tag k="place" v="locality" />
		<tag k="ssr:stedsnr" v="393810" />
	</node>
	<node lat="64.63766944641745" lon="12.43511110181763" id="-88115">
		<tag k="name" v="Litlåtjønna" />
		<tag k="natural" v="water" />
		<tag k="ssr:stedsnr" v="439606" />
	</node>
	<node lat="64.62465833513687" lon="12.132716675405462" id="-88120">
		<tag k="name" v="Drageidet" />
		<tag k="place" v="locality" />
		<tag k="ssr:stedsnr" v="439764" />
	</node>
	<node lat="64.77913333292149" lon="12.313694438841512" id="-88122">
		<tag k="name" v="Kverntjønna" />
		<tag k="natural" v="water" />
		<tag k="ssr:stedsnr" v="440265" />
	</node>
	<node lat="64.61950277888344" lon="12.440430554029925" id="-88123">
		<tag k="name" v="Durmålstjønna" />
		<tag k="natural" v="water" />
		<tag k="ssr:stedsnr" v="440505" />
	</node>
	<node lat="64.61158888895704" lon="12.371630555295972" id="-88124">
		<tag k="name" v="Litltjønna" />
		<tag k="natural" v="water" />
		<tag k="ssr:stedsnr" v="440506" />
	</node>
	<node lat="64.68335833349299" lon="12.239924993089867" id="-88130">
		<tag k="name" v="Haugåsodden" />
		<tag k="natural" v="cape" />
		<tag k="ssr:stedsnr" v="440924" />
	</node>
	<node lat="64.7162611108855" lon="12.381699995823523" id="-88131">
		<tag k="alt_name" v="Høllbekken" />
		<tag k="name" v="Hølbekken" />
		<tag k="ssr:stedsnr" v="440900" />
		<tag k="waterway" v="stream" />
	</node>
	<node lat="64.70359444036649" lon="12.368488890496472" id="-88137">
		<tag k="name" v="Lomtjønna" />
		<tag k="natural" v="water" />
		<tag k="ssr:stedsnr" v="453412" />
	</node>
	<node lat="64.76003332935423" lon="12.40330554558419" id="-88138">
		<tag k="name" v="Lonet" />
		<tag k="natural" v="water" />
		<tag k="ssr:stedsnr" v="453472" />
	</node>
	<node lat="64.7482666680251" lon="12.379447225382181" id="-88139">
		<tag k="name" v="Auster Kløyvbekken" />
		<tag k="ssr:stedsnr" v="453475" />
		<tag k="waterway" v="stream" />
	</node>
	<node lat="64.615722219221" lon="12.409802771340813" id="-88140">
		<tag k="name" v="Storlibekken" />
		<tag k="ssr:stedsnr" v="453487" />
		<tag k="waterway" v="stream" />
	</node>
	<node lat="64.60728889005858" lon="12.403305566004072" id="-88142">
		<tag k="name" v="Kjolgtjønnbekken" />
		<tag k="ssr:stedsnr" v="453490" />
		<tag k="waterway" v="stream" />
	</node>
	<node lat="64.84280833293529" lon="12.45503889174333" id="-88153">
		<tag k="name" v="Ner Storskardtjønna" />
		<tag k="natural" v="water" />
		<tag k="ssr:stedsnr" v="454883" />
	</node>
	<node lat="64.79849444728335" lon="12.372541668207125" id="-88159">
		<tag k="name" v="Kardalbekken" />
		<tag k="ssr:stedsnr" v="500209" />
		<tag k="waterway" v="stream" />
	</node>
	<node lat="64.7236222178845" lon="12.396561119423454" id="-88160">
		<tag k="name" v="Storåa" />
		<tag k="ssr:stedsnr" v="500215" />
		<tag k="waterway" v="stream" />
	</node>
	<node lat="64.76509166448956" lon="12.39743333524309" id="-88163">
		<tag k="name" v="Hundsåvatnet" />
		<tag k="natural" v="water" />
		<tag k="ssr:stedsnr" v="500253" />
		<tag k="water" v="lake" />
	</node>
	<node lat="64.6483805530836" lon="12.206525009074419" id="-88170">
		<tag k="name" v="Djupbekken" />
		<tag k="ssr:stedsnr" v="500890" />
		<tag k="waterway" v="stream" />
	</node>
	<node lat="64.62167499793571" lon="12.154136119643589" id="-88181">
		<tag k="name" v="Ytterspeten" />
		<tag k="natural" v="cape" />
		<tag k="ssr:stedsnr" v="514278" />
	</node>
	<node lat="64.6582777789136" lon="12.315969438792052" id="-88185">
		<tag k="name" v="Øytjønnbekken" />
		<tag k="ssr:stedsnr" v="514502" />
		<tag k="waterway" v="stream" />
	</node>
	<node lat="64.69083055744862" lon="12.413361119118727" id="-88194">
		<tag k="alt_name" v="Halbostadbesa" />
		<tag k="name" v="Besa" />
		<tag k="ssr:stedsnr" v="514973" />
		<tag k="waterway" v="river" />
	</node>
	<node lat="64.69011110868101" lon="12.523355554500576" id="-88202">
		<tag k="name" v="Besvatnet" />
		<tag k="natural" v="water" />
		<tag k="ssr:stedsnr" v="560602" />
		<tag k="water" v="lake" />
	</node>
	<node lat="64.93890555347907" lon="12.676966661602084" id="-88203">
		<tag k="name" v="Nonsvatnet - Stoerrejaevrie" />
		<tag k="name:no" v="Nonsvatnet" />
		<tag k="name:sma" v="Stoerrejaevrie" />
		<tag k="natural" v="water" />
		<tag k="ssr:stedsnr" v="560806" />
		<tag k="water" v="lake" />
	</node>
	<node lat="64.66009444187331" lon="12.105388895035459" id="-88205">
		<tag k="name" v="Fuglvatnet" />
		<tag k="natural" v="water" />
		<tag k="ssr:stedsnr" v="560843" />
	</node>
	<node lat="64.58296666570442" lon="12.395972219180317" id="-88208">
		<tag k="name" v="Mefjelltjønna" />
		<tag k="natural" v="water" />
		<tag k="ssr:stedsnr" v="560705" />
	</node>
	<node lat="64.61663055628155" lon="12.16131944365355" id="-88209">
		<tag k="name" v="Grøssjøeidet" />
		<tag k="place" v="locality" />
		<tag k="ssr:stedsnr" v="560748" />
	</node>
	<node lat="64.85170832982229" lon="12.444977778217595" id="-88210">
		<tag k="alt_name" v="Kvernadalsbekken" />
		<tag k="name" v="Kverndalsbekken" />
		<tag k="ssr:stedsnr" v="560789" />
		<tag k="waterway" v="stream" />
	</node>
	<node lat="64.74071388785437" lon="12.449836103691798" id="-88211">
		<tag k="name" v="Pålåa" />
		<tag k="ssr:stedsnr" v="560889" />
		<tag k="waterway" v="stream" />
	</node>
	<node lat="64.65206389029328" lon="12.368974996954558" id="-88212">
		<tag k="fixme" v="multiple name tags, choose one and add the other to alt_name" />
		<tag k="name" v="Råbesa;Besa" />
		<tag k="ssr:stedsnr" v="560941" />
		<tag k="waterway" v="river" />
	</node>
	<node lat="64.79634444662679" lon="12.262949998327807" id="-88214">
		<tag k="alt_name" v="Fiskåvatnet, s;Fiskåvatnet" />
		<tag k="name" v="Store Fiskåvatnet" />
		<tag k="natural" v="water" />
		<tag k="ssr:stedsnr" v="682211" />
		<tag k="water" v="lake" />
	</node>
	<node lat="64.78374999818618" lon="12.491183326693081" id="-88217">
		<tag k="name" v="Tverråtjønnin" />
		<tag k="natural" v="water" />
		<tag k="ssr:stedsnr" v="682227" />
	</node>
	<node lat="64.58871944348775" lon="12.237625005504329" id="-88220">
		<tag k="name" v="Sørføttodden" />
		<tag k="natural" v="cape" />
		<tag k="ssr:stedsnr" v="682590" />
	</node>
	<node lat="64.84225833781329" lon="12.411538888334057" id="-88224">
		<tag k="name" v="Lonelva" />
		<tag k="ssr:stedsnr" v="682829" />
		<tag k="waterway" v="river" />
	</node>
	<node lat="64.6648083346607" lon="12.332641669921086" id="-88226">
		<tag k="name" v="Nerflakkan" />
		<tag k="natural" v="water" />
		<tag k="ssr:stedsnr" v="682627" />
		<tag k="water" v="lake" />
	</node>
	<node lat="64.66441944742856" lon="12.318044447965878" id="-88227">
		<tag k="name" v="Skeitjønnbekken" />
		<tag k="ssr:stedsnr" v="682630" />
		<tag k="waterway" v="stream" />
	</node>
	<node lat="64.7362416626862" lon="12.396583335465508" id="-88233">
		<tag k="name" v="Finntjønna" />
		<tag k="natural" v="water" />
		<tag k="ssr:stedsnr" v="682930" />
	</node>
	<node lat="64.57099941737764" lon="12.189860609380318" id="-88236">
		<tag k="name" v="Barneset" />
		<tag k="natural" v="cape" />
		<tag k="ssr:stedsnr" v="682843" />
	</node>
	<node lat="64.63815280280512" lon="12.210224276680522" id="-88241">
		<tag k="name" v="Olsgrønningen" />
		<tag k="natural" v="water" />
		<tag k="ssr:stedsnr" v="682891" />
		<tag k="water" v="lake" />
	</node>
	<node lat="64.69202222572069" lon="12.25048888532285" id="-88243">
		<tag k="name" v="Butjønna" />
		<tag k="natural" v="water" />
		<tag k="ssr:stedsnr" v="682948" />
	</node>
	<node lat="64.7637527756344" lon="12.393044451696758" id="-88245">
		<tag k="name" v="Fiskarodden" />
		<tag k="natural" v="cape" />
		<tag k="ssr:stedsnr" v="574620" />
	</node>
	<node lat="64.87024444267922" lon="12.480922226026085" id="-88253">
		<tag k="name" v="Årnengfossen" />
		<tag k="natural" v="waterfall" />
		<tag k="ssr:stedsnr" v="575810" />
	</node>
	<node lat="64.71842500331495" lon="12.223897212390693" id="-88260">
		<tag k="name" v="Svartbakkbekken" />
		<tag k="ssr:stedsnr" v="696149" />
		<tag k="waterway" v="stream" />
	</node>
	<node lat="64.67062500174687" lon="12.4444527716843" id="-88263">
		<tag k="name" v="Tjønna" />
		<tag k="natural" v="water" />
		<tag k="ssr:stedsnr" v="594767" />
	</node>
	<node lat="64.5854472257881" lon="12.362247229049498" id="-88272">
		<tag k="name" v="Otertjønna" />
		<tag k="natural" v="water" />
		<tag k="ssr:stedsnr" v="621589" />
	</node>
	<node lat="64.63148055431769" lon="12.17821944004678" id="-88275">
		<tag k="name" v="Litlåa" />
		<tag k="ssr:stedsnr" v="621886" />
		<tag k="waterway" v="stream" />
	</node>
	<node lat="64.74197499688485" lon="12.348436106070704" id="-88276">
		<tag k="name" v="Langvika" />
		<tag k="natural" v="bay" />
		<tag k="ssr:stedsnr" v="621887" />
	</node>
	<node lat="64.7217861072127" lon="12.397791660634613" id="-88278">
		<tag k="name" v="Grønlibekken" />
		<tag k="ssr:stedsnr" v="621904" />
		<tag k="waterway" v="stream" />
	</node>
	<node lat="64.7271249969264" lon="12.405461102634275" id="-88279">
		<tag k="name" v="Kvernbekken" />
		<tag k="ssr:stedsnr" v="621905" />
		<tag k="waterway" v="stream" />
	</node>
	<node lat="64.73778333369424" lon="12.472716674011478" id="-88281">
		<tag k="name" v="Pålåtjønnin" />
		<tag k="natural" v="water" />
		<tag k="ssr:stedsnr" v="621914" />
	</node>
	<node lat="64.70788333472329" lon="12.37521665955448" id="-88282">
		<tag k="name" v="Skiftesbekken" />
		<tag k="ssr:stedsnr" v="621923" />
		<tag k="waterway" v="stream" />
	</node>
	<node lat="64.8211499969035" lon="12.411958343104493" id="-88297">
		<tag k="name" v="Jensneset" />
		<tag k="natural" v="cape" />
		<tag k="ssr:stedsnr" v="635831" />
	</node>
	<node lat="64.7342861136801" lon="12.232316664505575" id="-88301">
		<tag k="name" v="Johanbekken" />
		<tag k="ssr:stedsnr" v="651442" />
		<tag k="waterway" v="stream" />
	</node>
	<node lat="64.75565555994238" lon="12.41785000563319" id="-88309">
		<tag k="name" v="Storfossen" />
		<tag k="natural" v="waterfall" />
		<tag k="ssr:stedsnr" v="654992" />
	</node>
	<node lat="64.8602138913769" lon="12.464497232408076" id="-88312">
		<tag k="name" v="Holtjønna" />
		<tag k="natural" v="water" />
		<tag k="ssr:stedsnr" v="879823" />
	</node>
	<node lat="64.84211944024499" lon="12.460811107044936" id="-88315">
		<tag k="name" v="Øver Storskardtjønna" />
		<tag k="natural" v="water" />
		<tag k="ssr:stedsnr" v="879850" />
	</node>
	<node lat="64.62219722665873" lon="12.166930556064193" id="-88320">
		<tag k="name" v="Speten" />
		<tag k="natural" v="cape" />
		<tag k="ssr:stedsnr" v="682804" />
	</node>
	<node lat="64.62586111401137" lon="12.171541658832638" id="-88321">
		<tag k="name" v="Spettjønna" />
		<tag k="natural" v="water" />
		<tag k="ssr:stedsnr" v="682807" />
	</node>
	<node lat="64.55047499788984" lon="12.20750000642045" id="-88325">
		<tag k="name" v="Kastvarpbekken" />
		<tag k="ssr:stedsnr" v="682967" />
		<tag k="waterway" v="stream" />
	</node>
	<node lat="64.6812111113809" lon="12.124925004964373" id="-88326">
		<tag k="name" v="Høgakseltjønna" />
		<tag k="natural" v="water" />
		<tag k="ssr:stedsnr" v="682859" />
	</node>
	<node lat="64.704924996906" lon="12.316130563095161" id="-88336">
		<tag k="name" v="Litlsandbekken" />
		<tag k="ssr:stedsnr" v="696408" />
		<tag k="waterway" v="stream" />
	</node>
	<node lat="64.76410555373978" lon="12.352625004825008" id="-88342">
		<tag k="name" v="Pipersbekken" />
		<tag k="ssr:stedsnr" v="696580" />
		<tag k="waterway" v="stream" />
	</node>
	<node lat="64.80070000136836" lon="12.356558323989029" id="-88345">
		<tag k="name" v="Imbårbekken" />
		<tag k="ssr:stedsnr" v="696606" />
		<tag k="waterway" v="stream" />
	</node>
	<node lat="64.81297777904233" lon="12.26061943470237" id="-88356">
		<tag k="name" v="Blårøyvasselva" />
		<tag k="ssr:stedsnr" v="742189" />
		<tag k="waterway" v="stream" />
	</node>
	<node lat="64.85968055251222" lon="12.365238885569784" id="-88358">
		<tag k="name" v="Sør-Bjørtjønna" />
		<tag k="natural" v="water" />
		<tag k="ssr:stedsnr" v="742735" />
	</node>
	<node lat="64.6324083357294" lon="12.118200004141466" id="-88361">
		<tag k="name" v="Storgrønningen" />
		<tag k="natural" v="water" />
		<tag k="ssr:stedsnr" v="742838" />
		<tag k="water" v="lake" />
	</node>
	<node lat="64.58474444340068" lon="12.319494442591806" id="-88364">
		<tag k="name" v="Inner-Hatjønna" />
		<tag k="natural" v="water" />
		<tag k="ssr:stedsnr" v="743541" />
	</node>
	<node lat="64.54454721780421" lon="12.248955563333089" id="-88367">
		<tag k="name" v="Middagstjønnin" />
		<tag k="natural" v="water" />
		<tag k="ssr:stedsnr" v="743732" />
	</node>
	<node lat="64.73574166586741" lon="12.23520277577855" id="-88370">
		<tag k="alt_name" v="Kjerrelva" />
		<tag k="name" v="Kjerrbekken" />
		<tag k="ssr:stedsnr" v="743886" />
		<tag k="waterway" v="stream" />
	</node>
	<node lat="64.70278888562802" lon="12.22179999985044" id="-88371">
		<tag k="name" v="Djupbekken" />
		<tag k="ssr:stedsnr" v="743900" />
		<tag k="waterway" v="stream" />
	</node>
	<node lat="64.62864166838625" lon="12.13284999893593" id="-88373">
		<tag k="name" v="Storgrønningsdammen" />
		<tag k="ssr:stedsnr" v="756113" />
		<tag k="waterway" v="dam" />
	</node>
	<node lat="64.57156944255732" lon="12.192761101902745" id="-88374">
		<tag k="name" v="Barnesodden" />
		<tag k="natural" v="cape" />
		<tag k="ssr:stedsnr" v="756204" />
	</node>
	<node lat="64.6863444403029" lon="12.325738887191262" id="-88377">
		<tag k="name" v="Flottelva" />
		<tag k="ssr:stedsnr" v="756415" />
		<tag k="waterway" v="river" />
	</node>
	<node lat="64.82548611064708" lon="12.407869440876915" id="-88381">
		<tag k="name" v="Neppnesa" />
		<tag k="natural" v="cape" />
		<tag k="ssr:stedsnr" v="756550" />
	</node>
	<node lat="64.75121944320917" lon="12.351694445223139" id="-88386">
		<tag k="name" v="Nekkoltjønna" />
		<tag k="natural" v="water" />
		<tag k="ssr:stedsnr" v="756454" />
	</node>
	<node lat="64.6260138911214" lon="12.163855546255139" id="-88393">
		<tag k="name" v="Spetvadet" />
		<tag k="natural" v="strait" />
		<tag k="ssr:stedsnr" v="757203" />
	</node>
	<node lat="64.6220249973904" lon="12.174150002692977" id="-88394">
		<tag k="name" v="Smalsundet" />
		<tag k="natural" v="strait" />
		<tag k="ssr:stedsnr" v="757199" />
	</node>
	<node lat="64.87812499582394" lon="12.444977775534166" id="-88397">
		<tag k="name" v="Steinøyra" />
		<tag k="place" v="islet" />
		<tag k="ssr:stedsnr" v="757851" />
	</node>
	<node lat="64.85045833796325" lon="12.46879721390936" id="-88401">
		<tag k="name" v="Blåbærtjønna" />
		<tag k="natural" v="water" />
		<tag k="ssr:stedsnr" v="757758" />
	</node>
	<node lat="64.57608611076775" lon="12.338208336132492" id="-88412">
		<tag k="name" v="Svorttjønna" />
		<tag k="natural" v="water" />
		<tag k="ssr:stedsnr" v="803721" />
	</node>
	<node lat="64.874458337386" lon="12.370408328079504" id="-88413">
		<tag k="fixme" v="multiple name tags, choose one and add the other to alt_name" />
		<tag k="name" v="Heilvatnet;Jofinntjønna" />
		<tag k="natural" v="water" />
		<tag k="ssr:stedsnr" v="803769" />
	</node>
	<node lat="64.90446666805146" lon="12.499327775227057" id="-88415">
		<tag k="name" v="Grøtesåa" />
		<tag k="ssr:stedsnr" v="803806" />
		<tag k="waterway" v="river" />
	</node>
	<node lat="64.70327222128225" lon="12.180500002876691" id="-88418">
		<tag k="name" v="Berrfjelltjønna" />
		<tag k="natural" v="water" />
		<tag k="ssr:stedsnr" v="804227" />
	</node>
	<node lat="64.54025000394658" lon="12.194425007105773" id="-88423">
		<tag k="name" v="Sagbekken" />
		<tag k="ssr:stedsnr" v="804964" />
		<tag k="waterway" v="stream" />
	</node>
	<node lat="64.6850833376593" lon="12.181974994446323" id="-88424">
		<tag k="name" v="Eidsåbukta" />
		<tag k="natural" v="bay" />
		<tag k="ssr:stedsnr" v="804814" />
	</node>
	<node lat="64.7469916645281" lon="12.444938890611692" id="-88425">
		<tag k="name" v="Urdbekken" />
		<tag k="ssr:stedsnr" v="804874" />
		<tag k="waterway" v="stream" />
	</node>
	<node lat="64.70981944492249" lon="12.348577772063154" id="-88432">
		<tag k="name" v="Flottholmen" />
		<tag k="place" v="islet" />
		<tag k="ssr:stedsnr" v="817411" />
	</node>
	<node lat="64.68338611264024" lon="12.311463879471873" id="-88433">
		<tag k="name" v="Kvernmyrbekken" />
		<tag k="ssr:stedsnr" v="817425" />
		<tag k="waterway" v="stream" />
	</node>
	<node lat="64.76851666369484" lon="12.385269439376705" id="-88446">
		<tag k="name" v="Jonsokfjelltjønna" />
		<tag k="natural" v="water" />
		<tag k="ssr:stedsnr" v="817579" />
	</node>
	<node lat="64.81613055138354" lon="12.490508343033733" id="-88454">
		<tag k="alt_name" v="Folldalelva" />
		<tag k="name" v="Folldalselva" />
		<tag k="ssr:stedsnr" v="864213" />
		<tag k="waterway" v="river" />
	</node>
	<node lat="64.80333055803818" lon="12.26368887916811" id="-88455">
		<tag k="alt_name" v="Fiskåvatnet, l;Litle Fiskåvatnet" />
		<tag k="name" v="Litl-Fiskåvatnet" />
		<tag k="natural" v="water" />
		<tag k="ssr:stedsnr" v="864218" />
	</node>
	<node lat="64.68886666331996" lon="12.111183332241282" id="-88456">
		<tag k="name" v="Finntjønna - Såålejaevrie" />
		<tag k="name:no" v="Finntjønna" />
		<tag k="name:sma" v="Såålejaevrie" />
		<tag k="natural" v="water" />
		<tag k="ssr:stedsnr" v="864193" />
	</node>
	<node lat="64.74767777357889" lon="12.307608324625145" id="-88463">
		<tag k="name" v="Svortodden" />
		<tag k="natural" v="cape" />
		<tag k="ssr:stedsnr" v="864894" />
	</node>
	<node lat="64.74327500418971" lon="12.262225003566463" id="-88464">
		<tag k="name" v="Tverråa" />
		<tag k="ssr:stedsnr" v="864897" />
		<tag k="waterway" v="stream" />
	</node>
	<node lat="64.64537777611696" lon="12.231958336562982" id="-88473">
		<tag k="name" v="Bjørnsundbekken" />
		<tag k="ssr:stedsnr" v="878172" />
		<tag k="waterway" v="stream" />
	</node>
	<node lat="64.82148888929707" lon="12.346752780448673" id="-88488">
		<tag k="name" v="Nordfjellbekken" />
		<tag k="ssr:stedsnr" v="878603" />
		<tag k="waterway" v="stream" />
	</node>
	<node lat="64.84258610737152" lon="12.416605559048875" id="-88496">
		<tag k="name" v="Pe-Andersbekken" />
		<tag k="ssr:stedsnr" v="879616" />
		<tag k="waterway" v="stream" />
	</node>
	<node lat="64.8639361142165" lon="12.418538879111003" id="-88498">
		<tag k="name" v="Kvernlegdbekken" />
		<tag k="ssr:stedsnr" v="879814" />
		<tag k="waterway" v="stream" />
	</node>
	<node lat="64.88505277388761" lon="12.445580552275805" id="-88500">
		<tag k="name" v="Melkøyra" />
		<tag k="natural" v="cape" />
		<tag k="ssr:stedsnr" v="879856" />
	</node>
	<node lat="64.90558055593839" lon="12.578533325761313" id="-88506">
		<tag k="name" v="Tverrelva" />
		<tag k="ssr:stedsnr" v="898564" />
		<tag k="waterway" v="stream" />
	</node>
	<node lat="64.6680999966351" lon="12.166233326921915" id="-88508">
		<tag k="name" v="Eidsåa" />
		<tag k="ssr:stedsnr" v="924819" />
		<tag k="waterway" v="stream" />
	</node>
	<node lat="64.57733056002151" lon="12.29029999128267" id="-88509">
		<tag k="name" v="Litlåa" />
		<tag k="ssr:stedsnr" v="925208" />
		<tag k="waterway" v="stream" />
	</node>
	<node lat="64.76461389095763" lon="12.369213886355329" id="-88512">
		<tag k="name" v="Garkholtjønna" />
		<tag k="natural" v="water" />
		<tag k="ssr:stedsnr" v="925287" />
	</node>
	<node lat="64.64309166939348" lon="12.181325001479404" id="-88520">
		<tag k="name" v="Litjønna" />
		<tag k="natural" v="water" />
		<tag k="ssr:stedsnr" v="925894" />
	</node>
	<node lat="64.58610555522583" lon="12.166386102134123" id="-88531">
		<tag k="name" v="Laugartjønnin" />
		<tag k="natural" v="water" />
		<tag k="ssr:stedsnr" v="939040" />
	</node>
	<node lat="64.83497777631155" lon="12.501761111709877" id="-88549">
		<tag k="name" v="Seterbekken" />
		<tag k="ssr:stedsnr" v="959000" />
		<tag k="waterway" v="stream" />
	</node>
	<node lat="64.90006666544247" lon="12.545163893738131" id="-88588">
		<tag k="alt_name:no" v="Aunvatnet, andre" />
		<tag k="name" v="Andre Aunvatnet - Gaskejaevrie" />
		<tag k="name:no" v="Andre Aunvatnet" />
		<tag k="name:sma" v="Gaskejaevrie" />
		<tag k="natural" v="water" />
		<tag k="ssr:stedsnr" v="257806" />
		<tag k="water" v="lake" />
	</node>
	<node lat="64.61479722488842" lon="12.200488895430997" id="-88589">
		<tag k="name" v="Grøssjødalen" />
		<tag k="ssr:stedsnr" v="257808" />
		<tag k="waterway" v="stream" />
	</node>
	<node lat="64.89279444881556" lon="12.48530832831463" id="-88590">
		<tag k="alt_name:no" v="Aunvatnet, første" />
		<tag k="name" v="Første Aunvatnet - Vueledsjaevrie" />
		<tag k="name:no" v="Første Aunvatnet" />
		<tag k="name:sma" v="Vueledsjaevrie" />
		<tag k="natural" v="water" />
		<tag k="ssr:stedsnr" v="257810" />
		<tag k="water" v="lake" />
	</node>
	<node lat="64.75202500164012" lon="12.285863881559075" id="-88595">
		<tag k="alt_name" v="Seterbekken" />
		<tag k="name" v="Sæterengbekken" />
		<tag k="ssr:stedsnr" v="14190" />
		<tag k="waterway" v="stream" />
	</node>
	<node lat="64.67876666632611" lon="12.51416111397062" id="-88598">
		<tag k="name" v="Fallbekken" />
		<tag k="ssr:stedsnr" v="14527" />
		<tag k="waterway" v="stream" />
	</node>
	<node lat="64.67873611006846" lon="12.386924991836638" id="-88599">
		<tag k="alt_name" v="Djursbekken" />
		<tag k="name" v="Dursbekken" />
		<tag k="ssr:stedsnr" v="14531" />
		<tag k="waterway" v="stream" />
	</node>
	<node lat="64.6384500008259" lon="12.135780555056728" id="-88606">
		<tag k="name" v="Storbukta" />
		<tag k="natural" v="bay" />
		<tag k="ssr:stedsnr" v="14832" />
	</node>
	<node lat="64.6257999969548" lon="12.116541660145028" id="-88607">
		<tag k="name" v="Grønningsbuvika" />
		<tag k="natural" v="bay" />
		<tag k="ssr:stedsnr" v="14834" />
	</node>
	<node lat="64.6333916631737" lon="12.318799990104672" id="-88610">
		<tag k="name" v="Søråa" />
		<tag k="ssr:stedsnr" v="15641" />
		<tag k="waterway" v="river" />
	</node>
	<node lat="64.69840000356072" lon="12.32566666708615" id="-88617">
		<tag k="alt_name" v="Leirmyrodden" />
		<tag k="name" v="Larsmyrodden" />
		<tag k="natural" v="cape" />
		<tag k="ssr:stedsnr" v="15936" />
	</node>
	<node lat="64.72347222255554" lon="12.30258610598538" id="-88618">
		<tag k="name" v="Storåa" />
		<tag k="ssr:stedsnr" v="15898" />
		<tag k="waterway" v="stream" />
	</node>
	<node lat="64.57396666802052" lon="12.251163897076719" id="-88621">
		<tag k="name" v="Åvasselva" />
		<tag k="ssr:stedsnr" v="28232" />
		<tag k="waterway" v="river" />
	</node>
	<node lat="64.57913889145338" lon="12.179536103187765" id="-88622">
		<tag k="name" v="Kvernbekken" />
		<tag k="ssr:stedsnr" v="28234" />
		<tag k="waterway" v="stream" />
	</node>
	<node lat="64.86067222197589" lon="12.427177768357026" id="-88646">
		<tag k="name" v="Saursholmen" />
		<tag k="place" v="islet" />
		<tag k="ssr:stedsnr" v="29796" />
	</node>
	<node lat="64.84277500418384" lon="12.469833324093857" id="-88651">
		<tag k="name" v="Kaltjønna" />
		<tag k="natural" v="water" />
		<tag k="ssr:stedsnr" v="29842" />
	</node>
	<node lat="64.75164999697712" lon="12.341683326581704" id="-88676">
		<tag k="name" v="Nordøya" />
		<tag k="natural" v="cape" />
		<tag k="ssr:stedsnr" v="75228" />
	</node>
	<node lat="64.66925555931695" lon="12.301419449819656" id="-88677">
		<tag k="name" v="Skeitjønna" />
		<tag k="natural" v="water" />
		<tag k="ssr:stedsnr" v="75605" />
	</node>
	<node lat="64.56637221901497" lon="12.261124995120237" id="-88679">
		<tag k="name" v="Storåa" />
		<tag k="ssr:stedsnr" v="75745" />
		<tag k="waterway" v="stream" />
	</node>
	<node lat="64.84350555567863" lon="12.370844447038783" id="-88680">
		<tag k="alt_name" v="Tverråelva;Tverråa" />
		<tag k="name" v="Hellingåa" />
		<tag k="ssr:stedsnr" v="75832" />
		<tag k="waterway" v="stream" />
	</node>
	<node lat="64.67640000228566" lon="12.435361121392905" id="-88683">
		<tag k="name" v="Dursbekktjønna" />
		<tag k="natural" v="water" />
		<tag k="ssr:stedsnr" v="75629" />
	</node>
	<node lat="64.63354166356385" lon="12.245374999417658" id="-88684">
		<tag k="name" v="Selfossen" />
		<tag k="natural" v="waterfall" />
		<tag k="ssr:stedsnr" v="75631" />
	</node>
	<node lat="64.74708610969505" lon="12.479402768351731" id="-88687">
		<tag k="name" v="Urdbekktjønna" />
		<tag k="natural" v="water" />
		<tag k="ssr:stedsnr" v="75915" />
	</node>
	<node lat="64.72867222637355" lon="12.33283611802696" id="-88689">
		<tag k="name" v="Øyvatnet" />
		<tag k="natural" v="water" />
		<tag k="ssr:stedsnr" v="75924" />
		<tag k="water" v="lake" />
	</node>
	<node lat="64.65294166475779" lon="12.1972749944445" id="-88696">
		<tag k="name" v="Haugåstjønna" />
		<tag k="natural" v="water" />
		<tag k="ssr:stedsnr" v="75883" />
	</node>
	<node lat="64.58368611409011" lon="12.210630547098138" id="-88704">
		<tag k="name" v="Grånnesodden" />
		<tag k="natural" v="cape" />
		<tag k="ssr:stedsnr" v="89042" />
	</node>
	<node lat="64.58009166381223" lon="12.273088898699424" id="-88706">
		<tag k="name" v="Seterbekken" />
		<tag k="ssr:stedsnr" v="89229" />
		<tag k="waterway" v="stream" />
	</node>
	<node lat="64.64986388969228" lon="12.332027772169894" id="-88707">
		<tag k="name" v="Råfossen" />
		<tag k="natural" v="waterfall" />
		<tag k="ssr:stedsnr" v="89524" />
	</node>
	<node lat="64.63905000127947" lon="12.36791944808682" id="-88709">
		<tag k="name" v="Grøtbekken" />
		<tag k="ssr:stedsnr" v="89535" />
		<tag k="waterway" v="stream" />
	</node>
	<node lat="64.71386111058888" lon="12.366172230300482" id="-88711">
		<tag k="name" v="Seterbekken" />
		<tag k="ssr:stedsnr" v="89430" />
		<tag k="waterway" v="stream" />
	</node>
	<node lat="64.84477500110317" lon="12.379508323107592" id="-88712">
		<tag k="name" v="Nekkoltjønna" />
		<tag k="natural" v="water" />
		<tag k="ssr:stedsnr" v="89572" />
	</node>
	<node lat="64.9004361153768" lon="12.362280550520437" id="-88720">
		<tag k="name" v="Kjerringtjønna" />
		<tag k="natural" v="water" />
		<tag k="ssr:stedsnr" v="89751" />
	</node>
	<node lat="64.72595277997037" lon="12.175880557758514" id="-88723">
		<tag k="name" v="Stordollbekken" />
		<tag k="ssr:stedsnr" v="90109" />
		<tag k="waterway" v="stream" />
	</node>
	<node lat="64.79510833642038" lon="12.474799995487581" id="-88726">
		<tag k="name" v="Tverrelvtjønna" />
		<tag k="natural" v="water" />
		<tag k="ssr:stedsnr" v="90626" />
	</node>
	<node lat="64.6098833294201" lon="12.42638055985803" id="-88733">
		<tag k="name" v="Durmålbekken" />
		<tag k="ssr:stedsnr" v="109828" />
		<tag k="waterway" v="stream" />
	</node>
	<node lat="64.7537250039559" lon="12.347833327683134" id="-88737">
		<tag k="name" v="Øytjønna" />
		<tag k="natural" v="bay" />
		<tag k="ssr:stedsnr" v="135217" />
	</node>
	<node lat="64.82351388784235" lon="12.379091673631203" id="-88738">
		<tag k="name" v="Skogaelva" />
		<tag k="ssr:stedsnr" v="135188" />
		<tag k="waterway" v="river" />
	</node>
	<node lat="64.81547499828146" lon="12.33460832530077" id="-88740">
		<tag k="name" v="Jensengåa" />
		<tag k="ssr:stedsnr" v="135197" />
		<tag k="waterway" v="stream" />
	</node>
	<node lat="64.9028777762409" lon="12.54324999244668" id="-88741">
		<tag k="alt_name" v="Bjørnstokkvika" />
		<tag k="name" v="Bjønnstokkvika" />
		<tag k="natural" v="bay" />
		<tag k="ssr:stedsnr" v="135776" />
	</node>
	<node lat="64.77116388680653" lon="12.294783340911094" id="-88744">
		<tag k="name" v="Fiskåa" />
		<tag k="ssr:stedsnr" v="135517" />
		<tag k="waterway" v="river" />
	</node>
	<node lat="64.6064277786649" lon="12.43614443553549" id="-88747">
		<tag k="name" v="Bjørnlitjønna" />
		<tag k="natural" v="water" />
		<tag k="ssr:stedsnr" v="135538" />
	</node>
	<node lat="64.8944611134422" lon="12.397341670206815" id="-88749">
		<tag k="name" v="Bjøråa" />
		<tag k="ssr:stedsnr" v="135742" />
		<tag k="waterway" v="river" />
	</node>
	<node lat="64.74774444277956" lon="12.32019166921624" id="-88751">
		<tag k="name" v="Bjørkholmen" />
		<tag k="place" v="islet" />
		<tag k="ssr:stedsnr" v="135862" />
	</node>
	<node lat="64.78976944439947" lon="12.428261110932361" id="-88754">
		<tag k="alt_name" v="Storbekken" />
		<tag k="name" v="Djupbekken" />
		<tag k="ssr:stedsnr" v="136238" />
		<tag k="waterway" v="stream" />
	</node>
	<node lat="64.6272305578006" lon="12.372694448325985" id="-88756">
		<tag k="name" v="Kjolgbekken" />
		<tag k="ssr:stedsnr" v="136536" />
		<tag k="waterway" v="stream" />
	</node>
	<node lat="64.69923611271976" lon="12.229877768802053" id="-88763">
		<tag k="name" v="Teinbukta" />
		<tag k="natural" v="bay" />
		<tag k="ssr:stedsnr" v="136931" />
	</node>
	<node lat="64.58633332971823" lon="12.142347227881379" id="-88770">
		<tag k="name" v="Seterbekken" />
		<tag k="ssr:stedsnr" v="149069" />
		<tag k="waterway" v="stream" />
	</node>
	<node lat="64.74707499820347" lon="12.329147231929497" id="-88780">
		<tag k="name" v="Snekkarholmen" />
		<tag k="place" v="islet" />
		<tag k="ssr:stedsnr" v="149449" />
	</node>
	<node lat="64.5531111138088" lon="12.29617221609096" id="-88784">
		<tag k="name" v="Hjartåsbekken" />
		<tag k="ssr:stedsnr" v="149290" />
		<tag k="waterway" v="stream" />
	</node>
	<node lat="64.7187861111993" lon="12.288938888525529" id="-88787">
		<tag k="name" v="Hyllbekken" />
		<tag k="ssr:stedsnr" v="149635" />
		<tag k="waterway" v="stream" />
	</node>
	<node lat="64.8928305560669" lon="12.4773222226108" id="-88796">
		<tag k="name" v="Tåvikodden" />
		<tag k="natural" v="cape" />
		<tag k="ssr:stedsnr" v="150781" />
	</node>
	<node lat="64.87695833151562" lon="12.436530553506294" id="-88799">
		<tag k="name" v="Saghøla" />
		<tag k="place" v="locality" />
		<tag k="ssr:stedsnr" v="150846" />
	</node>
	<node lat="64.63388333639307" lon="12.073869434617176" id="-88802">
		<tag k="name" v="Vikaelva" />
		<tag k="ssr:stedsnr" v="168898" />
		<tag k="waterway" v="stream" />
	</node>
	<node lat="64.5836749995901" lon="12.345599994908385" id="-88810">
		<tag k="name" v="Heiabekken" />
		<tag k="ssr:stedsnr" v="257759" />
		<tag k="waterway" v="stream" />
	</node>
	<node lat="64.64967500023663" lon="12.12100000207152" id="-88812">
		<tag k="name" v="Skiftesåa" />
		<tag k="ssr:stedsnr" v="257880" />
		<tag k="waterway" v="stream" />
	</node>
	<node lat="64.59806388696626" lon="12.29717221981763" id="-88815">
		<tag k="name" v="Hatjønna" />
		<tag k="natural" v="water" />
		<tag k="ssr:stedsnr" v="196522" />
	</node>
	<node lat="64.62100277567437" lon="12.14980277643671" id="-88816">
		<tag k="name" v="Langvatnet" />
		<tag k="natural" v="water" />
		<tag k="ssr:stedsnr" v="196736" />
		<tag k="water" v="lake" />
	</node>
	<node lat="64.66876111178553" lon="12.178883323450929" id="-88820">
		<tag k="name" v="Røyrtjønna" />
		<tag k="natural" v="water" />
		<tag k="ssr:stedsnr" v="196818" />
	</node>
	<node lat="64.63360000297348" lon="12.099399992707514" id="-88821">
		<tag k="name" v="Lauvvarpodden" />
		<tag k="natural" v="cape" />
		<tag k="ssr:stedsnr" v="196852" />
	</node>
	<node lat="64.80257778098077" lon="12.467502774215964" id="-88824">
		<tag k="name" v="Tverråa" />
		<tag k="ssr:stedsnr" v="197217" />
		<tag k="waterway" v="stream" />
	</node>
	<node lat="64.7882111099329" lon="12.363336121171399" id="-88826">
		<tag k="name" v="Grønlibekken" />
		<tag k="ssr:stedsnr" v="197235" />
		<tag k="waterway" v="stream" />
	</node>
	<node lat="64.79091389144695" lon="12.264038895596954" id="-88828">
		<tag k="name" v="Kattatjønna" />
		<tag k="natural" v="water" />
		<tag k="ssr:stedsnr" v="197250" />
	</node>
	<node lat="64.7161861105916" lon="12.3275361179611" id="-88832">
		<tag k="name" v="Hognesodden" />
		<tag k="natural" v="cape" />
		<tag k="ssr:stedsnr" v="197931" />
	</node>
	<node lat="64.62971389284668" lon="12.453036114022332" id="-88836">
		<tag k="name" v="Ådalstjønna" />
		<tag k="natural" v="water" />
		<tag k="ssr:stedsnr" v="197566" />
	</node>
	<node lat="64.62890833445053" lon="12.478097225148957" id="-88838">
		<tag k="name" v="Skarlandsvatnet" />
		<tag k="natural" v="water" />
		<tag k="ssr:stedsnr" v="197642" />
		<tag k="water" v="lake" />
	</node>
	<node lat="64.64309444347195" lon="12.442041672760844" id="-88839">
		<tag k="name" v="Urdtjønnin" />
		<tag k="natural" v="water" />
		<tag k="ssr:stedsnr" v="197652" />
	</node>
	<node lat="64.73405278143288" lon="12.319688881014484" id="-88843">
		<tag k="name" v="Kalvnesodden" />
		<tag k="natural" v="cape" />
		<tag k="ssr:stedsnr" v="197913" />
	</node>
	<node lat="64.56447499809576" lon="12.143902769536362" id="-88848">
		<tag k="name" v="Vikaelva" />
		<tag k="ssr:stedsnr" v="210065" />
		<tag k="waterway" v="river" />
	</node>
	<node lat="64.76234444459196" lon="12.392708336692337" id="-88863">
		<tag k="name" v="Damodden" />
		<tag k="natural" v="cape" />
		<tag k="ssr:stedsnr" v="210599" />
	</node>
	<node lat="64.80406388644658" lon="12.35819722056504" id="-88864">
		<tag k="name" v="Hjulbekken" />
		<tag k="ssr:stedsnr" v="210618" />
		<tag k="waterway" v="stream" />
	</node>
	<node lat="64.66953889249014" lon="12.25145278781971" id="-88871">
		<tag k="name" v="Tormyrbekken" />
		<tag k="ssr:stedsnr" v="211241" />
		<tag k="waterway" v="stream" />
	</node>
	<node lat="64.89613888598385" lon="12.523519439514693" id="-88875">
		<tag k="name" v="Stillelva" />
		<tag k="ssr:stedsnr" v="211811" />
		<tag k="waterway" v="river" />
	</node>
	<node lat="64.88820000416891" lon="12.519374992837212" id="-88878">
		<tag k="name" v="Finnhstjønna" />
		<tag k="natural" v="water" />
		<tag k="ssr:stedsnr" v="211822" />
	</node>
	<node lat="64.88484722029037" lon="12.493797221493272" id="-88879">
		<tag k="name" v="Kovabekken" />
		<tag k="ssr:stedsnr" v="211824" />
		<tag k="waterway" v="stream" />
	</node>
	<node lat="64.59614444582071" lon="12.186777767711424" id="-88887">
		<tag k="name" v="Svartbekken" />
		<tag k="ssr:stedsnr" v="257835" />
		<tag k="waterway" v="stream" />
	</node>
	<node lat="64.62955833129426" lon="12.124049994583412" id="-88889">
		<tag k="name" v="Sulsteinen" />
		<tag k="natural" v="cape" />
		<tag k="ssr:stedsnr" v="257894" />
	</node>
	<node lat="64.74684166254166" lon="12.306977787136669" id="-88899">
		<tag k="name" v="Svortstranda" />
		<tag k="natural" v="beach" />
		<tag k="ssr:stedsnr" v="271499" />
	</node>
	<node lat="64.66125277891283" lon="12.27230555658554" id="-88921">
		<tag k="name" v="Kråengbekken" />
		<tag k="ssr:stedsnr" v="272224" />
		<tag k="waterway" v="stream" />
	</node>
	<node lat="64.55557500097244" lon="12.304055565287694" id="-88924">
		<tag k="name" v="Hjartåsnesa" />
		<tag k="natural" v="cape" />
		<tag k="ssr:stedsnr" v="272282" />
	</node>
	<node lat="64.89464999775034" lon="12.514861117106964" id="-88935">
		<tag k="name" v="Mellomelva" />
		<tag k="ssr:stedsnr" v="317699" />
		<tag k="waterway" v="river" />
	</node>
	<node lat="64.68212500113698" lon="12.252911101175004" id="-88937">
		<tag k="name" v="Seterbukta" />
		<tag k="natural" v="bay" />
		<tag k="ssr:stedsnr" v="317894" />
	</node>
	<node lat="64.6394694464026" lon="12.219541669941439" id="-88940">
		<tag k="name" v="Steinodden" />
		<tag k="natural" v="cape" />
		<tag k="ssr:stedsnr" v="318640" />
	</node>
	<node lat="64.73801389154046" lon="12.381836114990808" id="-88942">
		<tag k="name" v="Bjørbekken" />
		<tag k="ssr:stedsnr" v="318892" />
		<tag k="waterway" v="stream" />
	</node>
	<node lat="64.73319722555206" lon="12.24353889573124" id="-88943">
		<tag k="name" v="Svorttjønna" />
		<tag k="natural" v="water" />
		<tag k="ssr:stedsnr" v="318895" />
	</node>
	<node lat="64.62273888801265" lon="12.354130550224376" id="-88949">
		<tag k="name" v="Torebekken" />
		<tag k="ssr:stedsnr" v="318536" />
		<tag k="waterway" v="stream" />
	</node>
	<node lat="64.65465833251838" lon="12.266549997691682" id="-88955">
		<tag k="name" v="Almåselva" />
		<tag k="ssr:stedsnr" v="318582" />
		<tag k="waterway" v="river" />
	</node>
	<node lat="64.60180278211163" lon="12.110308327368186" id="-88957">
		<tag k="name" v="Fuglårengodden" />
		<tag k="natural" v="cape" />
		<tag k="ssr:stedsnr" v="318783" />
	</node>
	<node lat="64.81976944321313" lon="12.289486101877198" id="-88958">
		<tag k="name" v="Tverråtjønnin" />
		<tag k="natural" v="water" />
		<tag k="ssr:stedsnr" v="318786" />
	</node>
	<node lat="64.82316388681937" lon="12.369547225298337" id="-88959">
		<tag k="name" v="Miskåa" />
		<tag k="ssr:stedsnr" v="318789" />
		<tag k="waterway" v="stream" />
	</node>
	<node lat="64.7436722254766" lon="12.382425009523736" id="-88971">
		<tag k="name" v="Storfossen" />
		<tag k="natural" v="waterfall" />
		<tag k="ssr:stedsnr" v="331643" />
	</node>
	<node lat="64.73756666466944" lon="12.304183333265321" id="-88972">
		<tag k="name" v="Litlloddobekken" />
		<tag k="ssr:stedsnr" v="331647" />
		<tag k="waterway" v="stream" />
	</node>
	<node lat="64.55076666458835" lon="12.28148887980234" id="-88974">
		<tag k="name" v="Hyttmyrbekken" />
		<tag k="ssr:stedsnr" v="332185" />
		<tag k="waterway" v="stream" />
	</node>
	<node lat="64.73998333320029" lon="12.233622224121287" id="-88978">
		<tag k="name" v="Langdaltjønna" />
		<tag k="natural" v="water" />
		<tag k="ssr:stedsnr" v="332144" />
	</node>
	<node lat="64.61871944698923" lon="12.273269453153691" id="-88979">
		<tag k="name" v="Litl-Kastholmen" />
		<tag k="place" v="islet" />
		<tag k="ssr:stedsnr" v="332251" />
	</node>
	<node lat="64.8204666626191" lon="12.350111102056157" id="-88986">
		<tag k="name" v="Seterfjellbekken" />
		<tag k="ssr:stedsnr" v="332525" />
		<tag k="waterway" v="stream" />
	</node>
	<node lat="64.79385000263994" lon="12.35720000264665" id="-88990">
		<tag k="name" v="Kverntjønna" />
		<tag k="natural" v="water" />
		<tag k="ssr:stedsnr" v="332601" />
	</node>
	<node lat="64.6945749966919" lon="12.512477786857099" id="-88997">
		<tag k="name" v="Bestjønnin" />
		<tag k="natural" v="water" />
		<tag k="ssr:stedsnr" v="378624" />
	</node>
	<node lat="64.56144444308241" lon="12.250780564269073" id="-89003">
		<tag k="name" v="Middagsåa" />
		<tag k="ssr:stedsnr" v="378714" />
		<tag k="waterway" v="stream" />
	</node>
	<node lat="64.85739444019772" lon="12.342380547755733" id="-89004">
		<tag k="name" v="Bjørtjønnelva" />
		<tag k="ssr:stedsnr" v="378797" />
		<tag k="waterway" v="river" />
	</node>
	<node lat="64.731202773411" lon="12.23495834083856" id="-89008">
		<tag k="name" v="Johantjønna" />
		<tag k="natural" v="water" />
		<tag k="ssr:stedsnr" v="378900" />
	</node>
	<node lat="64.76754444424368" lon="12.410411107868962" id="-89010">
		<tag k="name" v="Kjerfjellbekken" />
		<tag k="ssr:stedsnr" v="379247" />
		<tag k="waterway" v="stream" />
	</node>
	<node lat="64.62359722582225" lon="12.11413334174044" id="-89011">
		<tag k="name" v="Vikatjønna" />
		<tag k="natural" v="water" />
		<tag k="ssr:stedsnr" v="378770" />
	</node>
	<node lat="64.86514999630691" lon="12.364911106098926" id="-89012">
		<tag k="name" v="Nord-Bjørtjønna" />
		<tag k="natural" v="water" />
		<tag k="ssr:stedsnr" v="378773" />
	</node>
	<node lat="64.66613333195555" lon="12.135627787390595" id="-89015">
		<tag k="name" v="Tverråa" />
		<tag k="ssr:stedsnr" v="378860" />
		<tag k="waterway" v="stream" />
	</node>
	<node lat="64.66148610889559" lon="12.176000004404166" id="-89016">
		<tag k="name" v="Gresstjønna" />
		<tag k="natural" v="water" />
		<tag k="ssr:stedsnr" v="378864" />
	</node>
	<node lat="64.70192778025276" lon="12.253819437977707" id="-89017">
		<tag k="name" v="Teintjønna" />
		<tag k="natural" v="water" />
		<tag k="ssr:stedsnr" v="379895" />
	</node>
	<node lat="64.71890000047752" lon="12.354530561388529" id="-89019">
		<tag k="name" v="Årvollodden" />
		<tag k="natural" v="cape" />
		<tag k="ssr:stedsnr" v="379909" />
	</node>
	<node lat="64.60289166955977" lon="12.391594436131788" id="-89042">
		<tag k="name" v="Slettfjellbekken" />
		<tag k="ssr:stedsnr" v="392524" />
		<tag k="waterway" v="stream" />
	</node>
	<node lat="64.72225555631253" lon="12.353361116320398" id="-89046">
		<tag k="name" v="Krokåtoddden" />
		<tag k="natural" v="cape" />
		<tag k="ssr:stedsnr" v="392671" />
	</node>
	<node lat="64.64080277839233" lon="12.225138890823551" id="-89051">
		<tag k="name" v="Sundet" />
		<tag k="natural" v="strait" />
		<tag k="ssr:stedsnr" v="393162" />
	</node>
	<node lat="64.7427527753956" lon="12.086855555668784" id="-89064">
		<tag k="name" v="Skrøyvdalselva" />
		<tag k="ssr:stedsnr" v="439187" />
		<tag k="waterway" v="river" />
	</node>
	<node lat="64.81696944601624" lon="12.402138897900969" id="-89065">
		<tag k="name" v="Olatjønna" />
		<tag k="natural" v="water" />
		<tag k="ssr:stedsnr" v="439188" />
	</node>
	<node lat="64.60509722452815" lon="12.300847212958912" id="-89066">
		<tag k="name" v="Hatjønnbekken" />
		<tag k="ssr:stedsnr" v="439488" />
		<tag k="waterway" v="stream" />
	</node>
	<node lat="64.62773055930923" lon="12.26278889726051" id="-89067">
		<tag k="name" v="Grungstadfossen" />
		<tag k="natural" v="waterfall" />
		<tag k="ssr:stedsnr" v="439497" />
	</node>
	<node lat="64.68332777822697" lon="12.450525006983902" id="-89071">
		<tag k="name" v="Tverråa" />
		<tag k="ssr:stedsnr" v="439579" />
		<tag k="waterway" v="stream" />
	</node>
	<node lat="64.67910555629683" lon="12.32840000055953" id="-89073">
		<tag k="name" v="Øver-Flakkan" />
		<tag k="natural" v="water" />
		<tag k="ssr:stedsnr" v="439583" />
		<tag k="water" v="lake" />
	</node>
	<node lat="64.57872777408312" lon="12.13723610501607" id="-89074">
		<tag k="name" v="Tjønnengtjønnin" />
		<tag k="natural" v="water" />
		<tag k="ssr:stedsnr" v="439814" />
	</node>
	<node lat="64.90519721921902" lon="12.519375001839663" id="-89075">
		<tag k="name" v="Kverntjønna - Raavrejaevrie" />
		<tag k="name:no" v="Kverntjønna" />
		<tag k="name:sma" v="Raavrejaevrie" />
		<tag k="natural" v="water" />
		<tag k="ssr:stedsnr" v="439820" />
	</node>
	<node lat="64.60764999982439" lon="12.210724997546576" id="-89079">
		<tag k="name" v="Kvernbekken" />
		<tag k="ssr:stedsnr" v="439785" />
		<tag k="waterway" v="stream" />
	</node>
	<node lat="64.68803055649359" lon="12.06840001024656" id="-89083">
		<tag k="name" v="Hakavatnet" />
		<tag k="natural" v="water" />
		<tag k="ssr:stedsnr" v="440241" />
		<tag k="water" v="lake" />
	</node>
	<node lat="64.54417500115267" lon="12.13002499993129" id="-89087">
		<tag k="name" v="Eidsvatnet" />
		<tag k="natural" v="water" />
		<tag k="ssr:stedsnr" v="440937" />
		<tag k="water" v="lake" />
	</node>
	<node lat="64.55043055953105" lon="12.289175003424646" id="-89089">
		<tag k="name" v="Sellbekken" />
		<tag k="ssr:stedsnr" v="696328" />
		<tag k="waterway" v="stream" />
	</node>
	<node lat="64.61436944013745" lon="12.178780555586213" id="-89093">
		<tag k="name" v="Grøssjøen" />
		<tag k="natural" v="water" />
		<tag k="ssr:stedsnr" v="499715" />
		<tag k="water" v="lake" />
	</node>
	<node lat="64.61317500101495" lon="12.118430549161195" id="-89095">
		<tag k="name" v="Bjørkøla" />
		<tag k="ssr:stedsnr" v="499718" />
		<tag k="waterway" v="stream" />
	</node>
	<node lat="64.61288332886376" lon="12.397113892848148" id="-89097">
		<tag k="name" v="Kjolgtjønna" />
		<tag k="natural" v="water" />
		<tag k="ssr:stedsnr" v="500584" />
	</node>
	<node lat="64.76999444688822" lon="12.343786104650029" id="-89103">
		<tag k="name" v="Bjørlielva" />
		<tag k="ssr:stedsnr" v="500284" />
		<tag k="waterway" v="river" />
	</node>
	<node lat="64.71695278214938" lon="12.464897223814821" id="-89105">
		<tag k="name" v="Storåtjønnin" />
		<tag k="natural" v="water" />
		<tag k="ssr:stedsnr" v="500924" />
	</node>
	<node lat="64.72091111371171" lon="12.373794452058162" id="-89106">
		<tag k="name" v="Kjølstadelva" />
		<tag k="ssr:stedsnr" v="500932" />
		<tag k="waterway" v="stream" />
	</node>
	<node lat="64.62998055267784" lon="12.200922224579184" id="-89115">
		<tag k="name" v="Djupbekken" />
		<tag k="ssr:stedsnr" v="514235" />
		<tag k="waterway" v="stream" />
	</node>
	<node lat="64.5963361066506" lon="12.229022224041671" id="-89136">
		<tag k="name" v="Storneset" />
		<tag k="natural" v="cape" />
		<tag k="ssr:stedsnr" v="518566" />
	</node>
	<node lat="64.57369166845041" lon="12.310977769128156" id="-89138">
		<tag k="name" v="Hjartåsbekken" />
		<tag k="ssr:stedsnr" v="530456" />
		<tag k="waterway" v="stream" />
	</node>
	<node lat="64.568019447842" lon="12.145222216745829" id="-89139">
		<tag k="name" v="Vikaelva" />
		<tag k="ssr:stedsnr" v="530466" />
		<tag k="waterway" v="river" />
	</node>
	<node lat="64.75638055515576" lon="12.39974444151729" id="-89149">
		<tag k="name" v="Hundsåa" />
		<tag k="ssr:stedsnr" v="560219" />
		<tag k="waterway" v="stream" />
	</node>
	<node lat="64.75268333548327" lon="12.515799993533594" id="-89150">
		<tag k="name" v="Snøådalstjønnin" />
		<tag k="natural" v="water" />
		<tag k="ssr:stedsnr" v="560230" />
	</node>
	<node lat="64.60018055550916" lon="12.239513898610436" id="-89151">
		<tag k="name" v="Knutneset" />
		<tag k="natural" v="cape" />
		<tag k="ssr:stedsnr" v="560563" />
	</node>
	<node lat="64.60075555765626" lon="12.328744451469701" id="-89152">
		<tag k="name" v="Gullringen" />
		<tag k="natural" v="water" />
		<tag k="ssr:stedsnr" v="560566" />
	</node>
	<node lat="64.66055555156804" lon="12.290719454145998" id="-89155">
		<tag k="name" v="Øytjønna" />
		<tag k="natural" v="water" />
		<tag k="ssr:stedsnr" v="560580" />
	</node>
	<node lat="64.60199722100968" lon="12.330008341237434" id="-89157">
		<tag k="name" v="Kularstjønna" />
		<tag k="natural" v="water" />
		<tag k="ssr:stedsnr" v="560520" />
	</node>
	<node lat="64.62243333699305" lon="12.271238888584572" id="-89158">
		<tag k="name" v="Nordåa" />
		<tag k="ssr:stedsnr" v="560523" />
		<tag k="waterway" v="river" />
	</node>
	<node lat="64.87216666568553" lon="12.508202786380231" id="-89163">
		<tag k="name" v="Kverntjønna" />
		<tag k="natural" v="water" />
		<tag k="ssr:stedsnr" v="560755" />
	</node>
	<node lat="64.72161666317315" lon="12.202652773595261" id="-89174">
		<tag k="name" v="Skiftesbekken" />
		<tag k="ssr:stedsnr" v="574145" />
		<tag k="waterway" v="stream" />
	</node>
	<node lat="64.64834721864716" lon="12.209419440724071" id="-89175">
		<tag k="name" v="Taraldbekken" />
		<tag k="ssr:stedsnr" v="574264" />
		<tag k="waterway" v="stream" />
	</node>
	<node lat="64.71166944403272" lon="12.356591658244797" id="-89177">
		<tag k="name" v="Skiftesbukta" />
		<tag k="natural" v="bay" />
		<tag k="ssr:stedsnr" v="574439" />
	</node>
	<node lat="64.8872972186765" lon="12.391222215633004" id="-89184">
		<tag k="name" v="Tjøradalsbekken" />
		<tag k="ssr:stedsnr" v="574570" />
		<tag k="waterway" v="stream" />
	</node>
	<node lat="64.67054722318363" lon="12.331580550998364" id="-89190">
		<tag k="name" v="Mjøsundet" />
		<tag k="natural" v="strait" />
		<tag k="ssr:stedsnr" v="574512" />
	</node>
	<node lat="64.61762499921981" lon="12.163450002081923" id="-89205">
		<tag k="name" v="Grøssjølitlåa" />
		<tag k="ssr:stedsnr" v="575194" />
		<tag k="waterway" v="stream" />
	</node>
	<node lat="64.85274722418893" lon="12.424733330404829" id="-89212">
		<tag k="name" v="Strandalsbekken" />
		<tag k="ssr:stedsnr" v="575773" />
		<tag k="waterway" v="stream" />
	</node>
	<node lat="64.86709166400901" lon="12.462530563581087" id="-89213">
		<tag k="name" v="Årnengfossen" />
		<tag k="natural" v="waterfall" />
		<tag k="ssr:stedsnr" v="575821" />
	</node>
	<node lat="64.88253889299925" lon="12.413319438063846" id="-89215">
		<tag k="name" v="Storsvarttjønna" />
		<tag k="natural" v="water" />
		<tag k="ssr:stedsnr" v="575843" />
	</node>
	<node lat="64.90572500403603" lon="12.467586102748484" id="-89218">
		<tag k="name" v="Kubåstjønna" />
		<tag k="natural" v="water" />
		<tag k="ssr:stedsnr" v="575799" />
	</node>
	<node lat="64.83006389043378" lon="12.2519527789976" id="-89232">
		<tag k="name" v="Blårøyvatnet" />
		<tag k="natural" v="water" />
		<tag k="ssr:stedsnr" v="621788" />
		<tag k="water" v="lake" />
	</node>
	<node lat="64.82605833362395" lon="12.409700003101555" id="-89233">
		<tag k="name" v="Olanesbekken" />
		<tag k="ssr:stedsnr" v="621790" />
		<tag k="waterway" v="stream" />
	</node>
	<node lat="64.59985277512222" lon="12.103980559453442" id="-89234">
		<tag k="name" v="Elgsjøen" />
		<tag k="natural" v="water" />
		<tag k="ssr:stedsnr" v="621793" />
		<tag k="water" v="lake" />
	</node>
	<node lat="64.5817444411985" lon="12.330647214099095" id="-89236">
		<tag k="name" v="Sandtjønna" />
		<tag k="natural" v="water" />
		<tag k="ssr:stedsnr" v="621748" />
	</node>
	<node lat="64.60966110698142" lon="12.422261107917286" id="-89237">
		<tag k="name" v="Berettjønna" />
		<tag k="natural" v="water" />
		<tag k="ssr:stedsnr" v="621567" />
	</node>
	<node lat="64.63536944665687" lon="12.236166676455353" id="-89238">
		<tag k="name" v="Sela" />
		<tag k="natural" v="bay" />
		<tag k="ssr:stedsnr" v="621646" />
	</node>
	<node lat="64.64232777580453" lon="12.234736119235802" id="-89239">
		<tag k="name" v="Litlgrønningen" />
		<tag k="natural" v="water" />
		<tag k="ssr:stedsnr" v="621665" />
	</node>
	<node lat="64.90338889071292" lon="12.443827778871187" id="-89240">
		<tag k="name" v="Kubåselva" />
		<tag k="ssr:stedsnr" v="621814" />
		<tag k="waterway" v="stream" />
	</node>
	<node lat="64.6809861149953" lon="12.237919449514674" id="-89244">
		<tag k="name" v="Litlhaugåsbukta" />
		<tag k="natural" v="bay" />
		<tag k="ssr:stedsnr" v="621937" />
	</node>
	<node lat="64.73038055124923" lon="12.241044438059749" id="-89254">
		<tag k="name" v="Litltjønna" />
		<tag k="natural" v="water" />
		<tag k="ssr:stedsnr" v="634132" />
	</node>
	<node lat="64.77788055968722" lon="12.310277774304092" id="-89258">
		<tag k="name" v="Litltjønna" />
		<tag k="natural" v="water" />
		<tag k="ssr:stedsnr" v="634629" />
	</node>
	<node lat="64.64158333648996" lon="12.320355560354347" id="-89268">
		<tag k="name" v="Pressfossen" />
		<tag k="natural" v="waterfall" />
		<tag k="ssr:stedsnr" v="634531" />
	</node>
	<node lat="64.79401666439807" lon="12.302916659715875" id="-89269">
		<tag k="alt_name" v="Litl-Tverråa" />
		<tag k="name" v="Litltverråa" />
		<tag k="ssr:stedsnr" v="634648" />
		<tag k="waterway" v="river" />
	</node>
	<node lat="64.71953611324244" lon="12.321830564047804" id="-89272">
		<tag k="name" v="Storvikbekken" />
		<tag k="ssr:stedsnr" v="634662" />
		<tag k="waterway" v="stream" />
	</node>
	<node lat="64.83441388938876" lon="12.396666673227184" id="-89281">
		<tag k="name" v="Hundholmen" />
		<tag k="place" v="islet" />
		<tag k="ssr:stedsnr" v="635546" />
	</node>
	<node lat="64.83675833686182" lon="12.400827786006797" id="-89282">
		<tag k="name" v="Kroknesholmen" />
		<tag k="place" v="islet" />
		<tag k="ssr:stedsnr" v="635550" />
	</node>
	<node lat="64.66601944746814" lon="12.17316388038591" id="-89289">
		<tag k="name" v="Tangan" />
		<tag k="natural" v="cape" />
		<tag k="ssr:stedsnr" v="655930" />
	</node>
	<node lat="64.80462222011968" lon="12.375625005281114" id="-89292">
		<tag k="name" v="Sisselmyrbekken" />
		<tag k="ssr:stedsnr" v="696539" />
		<tag k="waterway" v="stream" />
	</node>
	<node lat="64.75321110765442" lon="12.407211104436815" id="-89300">
		<tag k="name" v="Holmodden" />
		<tag k="natural" v="cape" />
		<tag k="ssr:stedsnr" v="696475" />
	</node>
	<node lat="64.74804444652298" lon="12.35026388753387" id="-89303">
		<tag k="name" v="Storholmen" />
		<tag k="place" v="islet" />
		<tag k="ssr:stedsnr" v="696479" />
	</node>
	<node lat="64.69536111322482" lon="12.455669439870842" id="-89312">
		<tag k="name" v="Urdalbekken" />
		<tag k="ssr:stedsnr" v="696640" />
		<tag k="waterway" v="stream" />
	</node>
	<node lat="64.70625833018433" lon="12.263013888086522" id="-89327">
		<tag k="name" v="Hattmoengbekken" />
		<tag k="ssr:stedsnr" v="716860" />
		<tag k="waterway" v="stream" />
	</node>
	<node lat="64.69776388906476" lon="12.192291660460441" id="-89328">
		<tag k="name" v="Østre Berrfjelltjønna" />
		<tag k="natural" v="water" />
		<tag k="ssr:stedsnr" v="716873" />
	</node>
	<node lat="64.55635555876019" lon="12.232300003934084" id="-89332">
		<tag k="name" v="Føttbekken" />
		<tag k="ssr:stedsnr" v="742680" />
		<tag k="waterway" v="stream" />
	</node>
	<node lat="64.88314444571692" lon="12.463786115489492" id="-89333">
		<tag k="alt_name" v="Nord-Folla" />
		<tag k="name" v="Nordfolda" />
		<tag k="ssr:stedsnr" v="742749" />
		<tag k="waterway" v="river" />
	</node>
	<node lat="64.6373750022297" lon="12.117150004225138" id="-89336">
		<tag k="name" v="Nylendholmen" />
		<tag k="place" v="islet" />
		<tag k="ssr:stedsnr" v="742851" />
	</node>
	<node lat="64.67851388713258" lon="12.116599990606689" id="-89340">
		<tag k="name" v="Storfjelltjønna" />
		<tag k="natural" v="water" />
		<tag k="ssr:stedsnr" v="743827" />
	</node>
	<node lat="64.59259721868975" lon="12.128005558342416" id="-89348">
		<tag k="name" v="Seksdalbekken" />
		<tag k="ssr:stedsnr" v="756098" />
		<tag k="waterway" v="stream" />
	</node>
	<node lat="64.56336110772513" lon="12.265869444311239" id="-89349">
		<tag k="name" v="Middagsbekken" />
		<tag k="ssr:stedsnr" v="756192" />
		<tag k="waterway" v="stream" />
	</node>
	<node lat="64.61796944434062" lon="12.312127784240467" id="-89352">
		<tag k="name" v="Libekken" />
		<tag k="ssr:stedsnr" v="756458" />
		<tag k="waterway" v="stream" />
	</node>
	<node lat="64.56172222198214" lon="12.285930547059555" id="-89380">
		<tag k="name" v="Åvatnet" />
		<tag k="natural" v="water" />
		<tag k="ssr:stedsnr" v="803697" />
	</node>
	<node lat="64.74913055211582" lon="12.32086666750868" id="-89381">
		<tag k="name" v="Granholmen" />
		<tag k="place" v="islet" />
		<tag k="ssr:stedsnr" v="803887" />
	</node>
	<node lat="64.59592500245734" lon="12.268427781392324" id="-89383">
		<tag k="name" v="Grova" />
		<tag k="ssr:stedsnr" v="803570" />
		<tag k="waterway" v="stream" />
	</node>
	<node lat="64.68147222621849" lon="12.29531388345674" id="-89385">
		<tag k="name" v="Grøtåa" />
		<tag k="ssr:stedsnr" v="803601" />
		<tag k="waterway" v="stream" />
	</node>
	<node lat="64.64334999599653" lon="12.09425000423128" id="-89396">
		<tag k="fixme" v="multiple name tags, choose one and add the other to alt_name" />
		<tag k="name" v="Nylendelva;Takliåa" />
		<tag k="ssr:stedsnr" v="803849" />
		<tag k="waterway" v="stream" />
	</node>
	<node lat="64.61085555131463" lon="12.311633331708503" id="-89402">
		<tag k="name" v="Sveddbekken" />
		<tag k="ssr:stedsnr" v="804553" />
		<tag k="waterway" v="stream" />
	</node>
	<node lat="64.91687500366903" lon="12.354636120173286" id="-89405">
		<tag k="name" v="Ytteråa" />
		<tag k="ssr:stedsnr" v="804786" />
		<tag k="waterway" v="river" />
	</node>
	<node lat="64.91479721898362" lon="12.32735277946762" id="-89406">
		<tag k="name" v="Holmtjønna" />
		<tag k="natural" v="water" />
		<tag k="ssr:stedsnr" v="804804" />
	</node>
	<node lat="64.58259166291771" lon="12.189736103675719" id="-89413">
		<tag k="name" v="Skiftesbekken" />
		<tag k="ssr:stedsnr" v="817043" />
		<tag k="waterway" v="stream" />
	</node>
	<node lat="64.83603055166125" lon="12.397333337850657" id="-89429">
		<tag k="name" v="Krokneset" />
		<tag k="natural" v="cape" />
		<tag k="ssr:stedsnr" v="817548" />
	</node>
	<node lat="64.65626944248226" lon="12.251047227229312" id="-89440">
		<tag k="name" v="Åengbekken" />
		<tag k="ssr:stedsnr" v="818247" />
		<tag k="waterway" v="stream" />
	</node>
	<node lat="64.61951388846396" lon="12.169124996947005" id="-89441">
		<tag k="name" v="Langvasseidet" />
		<tag k="place" v="locality" />
		<tag k="ssr:stedsnr" v="818202" />
	</node>
	<node lat="64.90545555475062" lon="12.507772215051958" id="-89446">
		<tag k="name" v="Kverntjønnbekken" />
		<tag k="ssr:stedsnr" v="818824" />
		<tag k="waterway" v="stream" />
	</node>
	<node lat="64.87851111056378" lon="12.478944452709607" id="-89448">
		<tag k="name" v="Kovabekken" />
		<tag k="ssr:stedsnr" v="818840" />
		<tag k="waterway" v="stream" />
	</node>
	<node lat="64.78905832899368" lon="12.233991670686665" id="-89458">
		<tag k="name" v="Lementjønna" />
		<tag k="natural" v="water" />
		<tag k="ssr:stedsnr" v="864185" />
	</node>
	<node lat="64.7767361109564" lon="12.351927776125798" id="-89459">
		<tag k="alt_name" v="Seterbekkken" />
		<tag k="name" v="Sæterbekken" />
		<tag k="ssr:stedsnr" v="864247" />
		<tag k="waterway" v="stream" />
	</node>
	<node lat="64.67449721833728" lon="12.296224998817413" id="-89465">
		<tag k="name" v="Hølbekkdolla" />
		<tag k="ssr:stedsnr" v="864624" />
		<tag k="waterway" v="stream" />
	</node>
	<node lat="64.78329166765178" lon="12.255441658978716" id="-89468">
		<tag k="alt_name" v="Stortverråa" />
		<tag k="name" v="Tverråa" />
		<tag k="ssr:stedsnr" v="864575" />
		<tag k="waterway" v="stream" />
	</node>
	<node lat="64.76923055207172" lon="12.312266659835835" id="-89469">
		<tag k="name" v="Kvernbekken" />
		<tag k="ssr:stedsnr" v="864576" />
		<tag k="waterway" v="stream" />
	</node>
	<node lat="64.63013332928632" lon="12.155475004082001" id="-89474">
		<tag k="name" v="Flyåa" />
		<tag k="ssr:stedsnr" v="864884" />
		<tag k="waterway" v="river" />
	</node>
	<node lat="64.7565749996636" lon="12.420555562710717" id="-89475">
		<tag k="name" v="Løysingmunnåa" />
		<tag k="ssr:stedsnr" v="865260" />
		<tag k="waterway" v="stream" />
	</node>
	<node lat="64.68297777905988" lon="12.18840000238799" id="-89476">
		<tag k="name" v="Svartodden" />
		<tag k="natural" v="cape" />
		<tag k="ssr:stedsnr" v="865820" />
	</node>
	<node lat="64.79683055865262" lon="12.221924993599204" id="-89477">
		<tag k="name" v="Grautvatnet" />
		<tag k="natural" v="water" />
		<tag k="ssr:stedsnr" v="865871" />
	</node>
	<node lat="64.62350555644417" lon="12.269736110404613" id="-89481">
		<tag k="name" v="Sørendammen" />
		<tag k="place" v="locality" />
		<tag k="ssr:stedsnr" v="878278" />
	</node>
	<node lat="64.57423889190127" lon="12.322602773421371" id="-89482">
		<tag k="name" v="Hundtjønna" />
		<tag k="natural" v="water" />
		<tag k="ssr:stedsnr" v="878303" />
	</node>
	<node lat="64.66173611017827" lon="12.37434443736786" id="-89485">
		<tag k="name" v="Bekkløyva" />
		<tag k="ssr:stedsnr" v="878547" />
		<tag k="waterway" v="stream" />
	</node>
	<node lat="64.74072777695193" lon="12.363033338644216" id="-89496">
		<tag k="name" v="Dalbekken" />
		<tag k="ssr:stedsnr" v="878668" />
		<tag k="waterway" v="stream" />
	</node>
	<node lat="64.87844166652731" lon="12.347533330875" id="-89500">
		<tag k="name" v="Langfjellelva" />
		<tag k="ssr:stedsnr" v="924751" />
		<tag k="waterway" v="river" />
	</node>
	<node lat="64.7448111131175" lon="12.384724998853578" id="-89501">
		<tag k="alt_name" v="Hundsåa" />
		<tag k="name" v="Øyelva" />
		<tag k="ssr:stedsnr" v="925199" />
		<tag k="waterway" v="river" />
	</node>
	<node lat="64.86795277490808" lon="12.453624994197563" id="-89503">
		<tag k="name" v="Kvernelva" />
		<tag k="ssr:stedsnr" v="925795" />
		<tag k="waterway" v="stream" />
	</node>
	<node lat="64.86831666258922" lon="12.43383889515878" id="-89504">
		<tag k="name" v="Kongsmoelva" />
		<tag k="ssr:stedsnr" v="925796" />
		<tag k="waterway" v="river" />
	</node>
	<node lat="64.79948610760756" lon="12.24300000821399" id="-89507">
		<tag k="name" v="Finnkruvatnet - Giedtienjaevrie" />
		<tag k="name:no" v="Finnkruvatnet" />
		<tag k="name:sma" v="Giedtienjaevrie" />
		<tag k="natural" v="water" />
		<tag k="ssr:stedsnr" v="925231" />
	</node>
	<node lat="64.75548055360389" lon="12.24724166299313" id="-89509">
		<tag k="name" v="Fiskløysvatnet" />
		<tag k="natural" v="water" />
		<tag k="ssr:stedsnr" v="925250" />
		<tag k="water" v="lake" />
	</node>
	<node lat="64.72778888991215" lon="12.421583331224586" id="-89512">
		<tag k="name" v="Kverntjønna" />
		<tag k="natural" v="water" />
		<tag k="ssr:stedsnr" v="925924" />
	</node>
	<node lat="64.63231388821413" lon="12.369091658693765" id="-89516">
		<tag k="alt_name" v="Litlåa" />
		<tag k="name" v="Skarlandslitlåa" />
		<tag k="ssr:stedsnr" v="925646" />
		<tag k="waterway" v="stream" />
	</node>
	<node lat="64.84422222003802" lon="12.443155560846776" id="-89520">
		<tag k="name" v="Stranddalsbekken" />
		<tag k="ssr:stedsnr" v="925834" />
		<tag k="waterway" v="stream" />
	</node>
	<node lat="64.56750277473809" lon="12.212427771221483" id="-89521">
		<tag k="alt_name" v="Nesodden" />
		<tag k="name" v="Føttodden" />
		<tag k="natural" v="cape" />
		<tag k="ssr:stedsnr" v="925845" />
	</node>
	<node lat="64.65737499723691" lon="12.175874991404779" id="-89523">
		<tag k="name" v="Latmyrbukta" />
		<tag k="natural" v="bay" />
		<tag k="ssr:stedsnr" v="925877" />
	</node>
	<node lat="64.70595000210493" lon="12.302111106638979" id="-89526">
		<tag k="name" v="Sandbekken" />
		<tag k="ssr:stedsnr" v="925936" />
		<tag k="waterway" v="stream" />
	</node>
	<node lat="64.7149249971987" lon="12.35443889795128" id="-89527">
		<tag k="name" v="Ongelhyllodden" />
		<tag k="natural" v="cape" />
		<tag k="ssr:stedsnr" v="925941" />
	</node>
	<node lat="64.59858055352703" lon="12.405197224713966" id="-89531">
		<tag k="name" v="Ånesa" />
		<tag k="natural" v="cape" />
		<tag k="ssr:stedsnr" v="938473" />
	</node>
	<node lat="64.76621388801848" lon="12.346441659874312" id="-89537">
		<tag k="name" v="Storneset" />
		<tag k="natural" v="cape" />
		<tag k="ssr:stedsnr" v="939590" />
	</node>
	<node lat="64.58177222097359" lon="12.104433323373035" id="-89539">
		<tag k="name" v="Grovtjønna" />
		<tag k="natural" v="water" />
		<tag k="ssr:stedsnr" v="939071" />
	</node>
	<node lat="64.61609722107222" lon="12.279816674914164" id="-89542">
		<tag k="name" v="Nylendholmen" />
		<tag k="natural" v="cape" />
		<tag k="ssr:stedsnr" v="939263" />
	</node>
	<node lat="64.55915277905522" lon="12.171016665638957" id="-89544">
		<tag k="name" v="Drageidet" />
		<tag k="place" v="locality" />
		<tag k="ssr:stedsnr" v="939231" />
	</node>
	<node lat="64.7254277765488" lon="12.39677777757235" id="-89559">
		<tag k="name" v="Stemmningsbekken" />
		<tag k="ssr:stedsnr" v="939629" />
		<tag k="waterway" v="stream" />
	</node>
	<node lat="64.8839194466545" lon="12.465938897852812" id="-89564">
		<tag k="name" v="Leirhøla" />
		<tag k="place" v="locality" />
		<tag k="ssr:stedsnr" v="939876" />
	</node>
	<node lat="64.7439527765908" lon="12.413661103202376" id="-89569">
		<tag k="name" v="Pålåholbekken" />
		<tag k="ssr:stedsnr" v="958959" />
		<tag k="waterway" v="stream" />
	</node>
	<node lat="64.91324999754954" lon="12.665722213722404" id="-89570">
		<tag k="name" v="Nonselva" />
		<tag k="ssr:stedsnr" v="959564" />
		<tag k="waterway" v="stream" />
	</node>
</osm>
