<?xml version="1.0" encoding="UTF-8"?>
<osm version="0.6" generator="osmapis">
	<node id="31264106" lat="59.000697" lon="9.7484437" version="8" timestamp="2021-07-16T21:29:47Z" changeset="108141226" uid="3497659" user="NKA">
		<tag k="name" v="Langesund" />
		<tag k="place" v="town" />
		<tag k="population" v="5500" />
		<tag k="ssr:stedsnr" v="122583" />
		<tag k="ssr:type" v="by" />
	</node>
	<node id="31264136" lat="59.043879" lon="9.6952755" version="12" timestamp="2021-10-29T14:41:32Z" changeset="113127928" uid="3497659" user="NKA">
		<tag k="name" v="Stathelle" />
		<tag k="place" v="town" />
		<tag k="population" v="10134" />
		<tag k="population:date" v="2021-01-01" />
		<tag k="ref:ssb_tettsted" v="3005-3813" />
		<tag k="source:population" v="SSB - befolkning i tettstedet" />
		<tag k="ssr:stedsnr" v="123549" />
		<tag k="ssr:type" v="by" />
	</node>
	<node id="417678846" lat="58.9324388" lon="9.5581529" version="2" timestamp="2018-06-09T19:01:42Z" changeset="59697439" uid="3842253" user="NKA_import">
		<tag k="name" v="Valle" />
		<tag k="place" v="village" />
		<tag k="ssr:stedsnr" v="607258" />
		<tag k="ssr:type" v="tettsted" />
	</node>
	<node id="564299470" lat="58.9634249" lon="9.4761348" version="2" timestamp="2018-06-09T19:01:42Z" changeset="59697439" uid="3842253" user="NKA_import">
		<tag k="name" v="Dørdal" />
		<tag k="place" v="hamlet" />
		<tag k="ssr:stedsnr" v="1301" />
		<tag k="ssr:type" v="bruk" />
	</node>
	<node id="710699760" lat="58.9387647" lon="9.5920575" version="3" timestamp="2018-06-09T19:01:42Z" changeset="59697439" uid="3842253" user="NKA_import">
		<tag k="name" v="Sekkekilen" />
		<tag k="place" v="hamlet" />
		<tag k="ssr:stedsnr" v="243238" />
		<tag k="ssr:type" v="bruk" />
	</node>
	<node id="712565621" lat="58.9754569" lon="9.6572728" version="3" timestamp="2018-06-09T19:01:42Z" changeset="59697439" uid="3842253" user="NKA_import">
		<tag k="name" v="Brevikstranda" />
		<tag k="place" v="hamlet" />
		<tag k="ssr:stedsnr" v="911874" />
		<tag k="ssr:type" v="grend" />
	</node>
	<node id="1510130245" lat="58.9744228" lon="9.4789476" version="3" timestamp="2022-01-27T06:55:59Z" changeset="116650794" uid="3497659" user="NKA">
		<tag k="junction" v="yes" />
		<tag k="name" v="Samkom" />
		<tag k="ssr:stedsnr" v="891455" />
	</node>
	<node id="5171809067" lat="58.9536833" lon="9.452872" version="2" timestamp="2022-01-27T06:55:59Z" changeset="116650794" uid="3497659" user="NKA">
		<tag k="junction" v="yes" />
		<tag k="name" v="Grummestadsvingen" />
		<tag k="ssr:stedsnr" v="463667" />
	</node>
	<node id="5678172434" lat="58.9296389" lon="9.5359639" version="2" timestamp="2018-06-09T19:01:43Z" changeset="59697439" uid="3842253" user="NKA_import">
		<tag k="name" v="Hasalvika" />
		<tag k="natural" v="bay" />
		<tag k="ssr:stedsnr" v="206997" />
		<tag k="ssr:type" v="gammelBosettingsplass" />
	</node>
	<node id="5678328817" lat="59.1107306" lon="9.5502444" version="1" timestamp="2018-06-09T19:01:04Z" changeset="59697439" uid="3842253" user="NKA_import">
		<tag k="name" v="Rønningen" />
		<tag k="place" v="farm" />
		<tag k="ssr:stedsnr" v="291739" />
		<tag k="ssr:type" v="bruk" />
	</node>
	<node id="5678328818" lat="58.9653222" lon="9.57655" version="1" timestamp="2018-06-09T19:01:04Z" changeset="59697439" uid="3842253" user="NKA_import">
		<tag k="name" v="Tjennkåsa" />
		<tag k="place" v="farm" />
		<tag k="ssr:stedsnr" v="39908" />
		<tag k="ssr:type" v="bruk" />
	</node>
	<node id="5678328819" lat="59.0428722" lon="9.5193944" version="1" timestamp="2018-06-09T19:01:04Z" changeset="59697439" uid="3842253" user="NKA_import">
		<tag k="alt_name" v="Nennset" />
		<tag k="name" v="Nenset" />
		<tag k="place" v="farm" />
		<tag k="ssr:stedsnr" v="426853" />
		<tag k="ssr:type" v="gard" />
	</node>
	<node id="5678328820" lat="59.1127222" lon="9.5508889" version="1" timestamp="2018-06-09T19:01:04Z" changeset="59697439" uid="3842253" user="NKA_import">
		<tag k="name" v="Stranddalen" />
		<tag k="place" v="farm" />
		<tag k="ssr:stedsnr" v="725203" />
		<tag k="ssr:type" v="bruk" />
	</node>
	<node id="5678329021" lat="59.0286167" lon="9.6793583" version="1" timestamp="2018-06-09T19:01:04Z" changeset="59697439" uid="3842253" user="NKA_import">
		<tag k="name" v="Stokke" />
		<tag k="place" v="hamlet" />
		<tag k="ssr:stedsnr" v="427298" />
		<tag k="ssr:type" v="bruk" />
	</node>
	<node id="5678329022" lat="59.0279444" lon="9.656525" version="1" timestamp="2018-06-09T19:01:05Z" changeset="59697439" uid="3842253" user="NKA_import">
		<tag k="alt_name" v="Gjersetdalane" />
		<tag k="name" v="Dalane" />
		<tag k="old_name" v="Dalen" />
		<tag k="place" v="farm" />
		<tag k="ssr:stedsnr" v="427482" />
		<tag k="ssr:type" v="bruk" />
	</node>
	<node id="5678329023" lat="59.00085" lon="9.677275" version="1" timestamp="2018-06-09T19:01:05Z" changeset="59697439" uid="3842253" user="NKA_import">
		<tag k="name" v="Hasseldalen" />
		<tag k="place" v="locality" />
		<tag k="ssr:stedsnr" v="725379" />
		<tag k="ssr:type" v="gammelBosettingsplass" />
	</node>
	<node id="5678329024" lat="59.0518917" lon="9.6248889" version="1" timestamp="2018-06-09T19:01:05Z" changeset="59697439" uid="3842253" user="NKA_import">
		<tag k="name" v="Søtholt, n" />
		<tag k="place" v="farm" />
		<tag k="ssr:stedsnr" v="299158" />
		<tag k="ssr:type" v="bruk" />
	</node>
	<node id="5678329025" lat="59.069975" lon="9.5184722" version="2" timestamp="2021-04-21T19:09:32Z" changeset="103360680" uid="3497659" user="NKA">
		<tag k="name" v="Mellomsæter" />
		<tag k="place" v="isolated_dwelling" />
		<tag k="ssr:stedsnr" v="427843" />
		<tag k="ssr:type" v="fritidsbolig" />
	</node>
	<node id="5678329026" lat="59.0430139" lon="9.653225" version="1" timestamp="2018-06-09T19:01:05Z" changeset="59697439" uid="3842253" user="NKA_import">
		<tag k="name" v="Findalplassen" />
		<tag k="place" v="farm" />
		<tag k="ssr:stedsnr" v="726211" />
		<tag k="ssr:type" v="bruk" />
	</node>
	<node id="5678329027" lat="58.9393083" lon="9.5452944" version="1" timestamp="2018-06-09T19:01:05Z" changeset="59697439" uid="3842253" user="NKA_import">
		<tag k="alt_name" v="Teigdal" />
		<tag k="name" v="Tegdal" />
		<tag k="place" v="farm" />
		<tag k="ssr:stedsnr" v="729278" />
		<tag k="ssr:type" v="bruk" />
	</node>
	<node id="5678329028" lat="58.959075" lon="9.5638417" version="1" timestamp="2018-06-09T19:01:05Z" changeset="59697439" uid="3842253" user="NKA_import">
		<tag k="alt_name" v="Nedre Havredal" />
		<tag k="name" v="Havredal, nedre" />
		<tag k="place" v="farm" />
		<tag k="ssr:stedsnr" v="729316" />
		<tag k="ssr:type" v="bruk" />
	</node>
	<node id="5678329029" lat="58.9642244" lon="9.5634997" version="1" timestamp="2018-06-09T19:01:05Z" changeset="59697439" uid="3842253" user="NKA_import">
		<tag k="name" v="Øygarden" />
		<tag k="place" v="farm" />
		<tag k="ssr:stedsnr" v="729318" />
		<tag k="ssr:type" v="bruk" />
	</node>
	<node id="5678329030" lat="58.9782083" lon="9.4218583" version="1" timestamp="2018-06-09T19:01:05Z" changeset="59697439" uid="3842253" user="NKA_import">
		<tag k="alt_name" v="Kåsa" />
		<tag k="name" v="Bjorvannskåsa" />
		<tag k="place" v="locality" />
		<tag k="ssr:stedsnr" v="729359" />
		<tag k="ssr:type" v="gammelBosettingsplass" />
	</node>
	<node id="5678329031" lat="59.0639528" lon="9.6203139" version="1" timestamp="2018-06-09T19:01:06Z" changeset="59697439" uid="3842253" user="NKA_import">
		<tag k="name" v="Sagstua" />
		<tag k="place" v="isolated_dwelling" />
		<tag k="ssr:stedsnr" v="301482" />
		<tag k="ssr:type" v="eneboligMindreBoligbygg" />
	</node>
	<node id="5678329032" lat="58.9406111" lon="9.5512389" version="1" timestamp="2018-06-09T19:01:06Z" changeset="59697439" uid="3842253" user="NKA_import">
		<tag k="alt_name" v="Bjørkkholt" />
		<tag k="name" v="Bjørkeholtet" />
		<tag k="place" v="farm" />
		<tag k="ssr:stedsnr" v="304241" />
		<tag k="ssr:type" v="bruk" />
	</node>
	<node id="5678329033" lat="59.0581056" lon="9.4540444" version="1" timestamp="2018-06-09T19:01:06Z" changeset="59697439" uid="3842253" user="NKA_import">
		<tag k="name" v="Lund" />
		<tag k="place" v="locality" />
		<tag k="ssr:stedsnr" v="40489" />
		<tag k="ssr:type" v="gammelBosettingsplass" />
	</node>
	<node id="5678329034" lat="59.0160778" lon="9.7181194" version="1" timestamp="2018-06-09T19:01:06Z" changeset="59697439" uid="3842253" user="NKA_import">
		<tag k="name" v="Gjømle" />
		<tag k="place" v="farm" />
		<tag k="ssr:stedsnr" v="304240" />
		<tag k="ssr:type" v="gard" />
	</node>
	<node id="5678329035" lat="58.9705556" lon="9.6618139" version="1" timestamp="2018-06-09T19:01:06Z" changeset="59697439" uid="3842253" user="NKA_import">
		<tag k="alt_name" v="Svensvika" />
		<tag k="name" v="Svensvik" />
		<tag k="place" v="farm" />
		<tag k="ssr:stedsnr" v="729885" />
		<tag k="ssr:type" v="bruk" />
	</node>
	<node id="5678329036" lat="59.0207" lon="9.7187556" version="1" timestamp="2018-06-09T19:01:06Z" changeset="59697439" uid="3842253" user="NKA_import">
		<tag k="name" v="Sundby" />
		<tag k="place" v="suburb" />
		<tag k="ssr:stedsnr" v="304242" />
		<tag k="ssr:type" v="gard" />
	</node>
	<node id="5678329037" lat="58.9670417" lon="9.4999417" version="1" timestamp="2018-06-09T19:01:06Z" changeset="59697439" uid="3842253" user="NKA_import">
		<tag k="name" v="Bråten" />
		<tag k="place" v="farm" />
		<tag k="ssr:stedsnr" v="304278" />
		<tag k="ssr:type" v="bruk" />
	</node>
	<node id="5678329038" lat="59.0702389" lon="9.5419" version="1" timestamp="2018-06-09T19:01:06Z" changeset="59697439" uid="3842253" user="NKA_import">
		<tag k="name" v="Asdalsetre" />
		<tag k="place" v="locality" />
		<tag k="ssr:stedsnr" v="41262" />
		<tag k="ssr:type" v="gammelBosettingsplass" />
	</node>
	<node id="5678329039" lat="59.0067481" lon="9.7015475" version="1" timestamp="2018-06-09T19:01:06Z" changeset="59697439" uid="3842253" user="NKA_import">
		<tag k="name" v="Rognstranda" />
		<tag k="place" v="quarter" />
		<tag k="ssr:stedsnr" v="730295" />
		<tag k="ssr:type" v="hyttefelt" />
	</node>
	<node id="5678329040" lat="58.9667667" lon="9.5787667" version="1" timestamp="2018-06-09T19:01:06Z" changeset="59697439" uid="3842253" user="NKA_import">
		<tag k="name" v="Kåsa" />
		<tag k="place" v="farm" />
		<tag k="ssr:stedsnr" v="304284" />
		<tag k="ssr:type" v="bruk" />
	</node>
	<node id="5678329041" lat="59.0319028" lon="9.6966889" version="1" timestamp="2018-06-09T19:01:06Z" changeset="59697439" uid="3842253" user="NKA_import">
		<tag k="name" v="Grasmyr" />
		<tag k="place" v="farm" />
		<tag k="ssr:stedsnr" v="730510" />
		<tag k="ssr:type" v="gard" />
	</node>
	<node id="5678329042" lat="58.9931639" lon="9.6278222" version="1" timestamp="2018-06-09T19:01:06Z" changeset="59697439" uid="3842253" user="NKA_import">
		<tag k="name" v="Nyhus" />
		<tag k="place" v="farm" />
		<tag k="ssr:stedsnr" v="304573" />
		<tag k="ssr:type" v="bruk" />
	</node>
	<node id="5678329043" lat="59.0127861" lon="9.5633333" version="1" timestamp="2018-06-09T19:01:07Z" changeset="59697439" uid="3842253" user="NKA_import">
		<tag k="name" v="Valle" />
		<tag k="place" v="farm" />
		<tag k="ssr:stedsnr" v="730713" />
		<tag k="ssr:type" v="bruk" />
	</node>
	<node id="5678329044" lat="58.97995" lon="9.6723445" version="1" timestamp="2018-06-09T19:01:07Z" changeset="59697439" uid="3842253" user="NKA_import">
		<tag k="name" v="Høvikrønningen" />
		<tag k="place" v="farm" />
		<tag k="ssr:stedsnr" v="304634" />
		<tag k="ssr:type" v="bruk" />
	</node>
	<node id="5678329045" lat="59.096725" lon="9.57885" version="1" timestamp="2018-06-09T19:01:07Z" changeset="59697439" uid="3842253" user="NKA_import">
		<tag k="name" v="Slåttekåsa" />
		<tag k="place" v="locality" />
		<tag k="ssr:stedsnr" v="730791" />
		<tag k="ssr:type" v="eiendom" />
	</node>
	<node id="5678329046" lat="58.9855611" lon="9.618375" version="1" timestamp="2018-06-09T19:01:07Z" changeset="59697439" uid="3842253" user="NKA_import">
		<tag k="alt_name" v="Stokke, vestre" />
		<tag k="name" v="Stokke" />
		<tag k="place" v="farm" />
		<tag k="ssr:stedsnr" v="304638" />
		<tag k="ssr:type" v="bruk" />
	</node>
	<node id="5678329047" lat="59.0008972" lon="9.6539556" version="1" timestamp="2018-06-09T19:01:07Z" changeset="59697439" uid="3842253" user="NKA_import">
		<tag k="alt_name" v="Esse" />
		<tag k="name" v="Esa" />
		<tag k="place" v="farm" />
		<tag k="ssr:stedsnr" v="305293" />
		<tag k="ssr:type" v="gard" />
	</node>
	<node id="5678329048" lat="59.0505833" lon="9.6406917" version="1" timestamp="2018-06-09T19:01:07Z" changeset="59697439" uid="3842253" user="NKA_import">
		<tag k="name" v="Burvall" />
		<tag k="place" v="farm" />
		<tag k="ssr:stedsnr" v="305476" />
		<tag k="ssr:type" v="bruk" />
	</node>
	<node id="5678329049" lat="58.9622583" lon="9.5652528" version="1" timestamp="2018-06-09T19:01:07Z" changeset="59697439" uid="3842253" user="NKA_import">
		<tag k="name" v="Havredal" />
		<tag k="place" v="hamlet" />
		<tag k="ssr:stedsnr" v="464995" />
		<tag k="ssr:type" v="gard" />
	</node>
	<node id="5678329050" lat="59.0390861" lon="9.6630472" version="1" timestamp="2018-06-09T19:01:07Z" changeset="59697439" uid="3842253" user="NKA_import">
		<tag k="alt_name" v="Kosa" />
		<tag k="name" v="Kåsa" />
		<tag k="place" v="farm" />
		<tag k="ssr:stedsnr" v="305512" />
		<tag k="ssr:type" v="bruk" />
	</node>
	<node id="5678329051" lat="58.9704806" lon="9.5053222" version="1" timestamp="2018-06-09T19:01:07Z" changeset="59697439" uid="3842253" user="NKA_import">
		<tag k="name" v="Bråtedalen" />
		<tag k="place" v="locality" />
		<tag k="ssr:stedsnr" v="41683" />
		<tag k="ssr:type" v="gammelBosettingsplass" />
	</node>
	<node id="5678329052" lat="59.0186556" lon="9.3573694" version="1" timestamp="2018-06-09T19:01:07Z" changeset="59697439" uid="3842253" user="NKA_import">
		<tag k="name" v="Skare" />
		<tag k="place" v="farm" />
		<tag k="ssr:stedsnr" v="305683" />
		<tag k="ssr:type" v="bruk" />
	</node>
	<node id="5678329053" lat="59.0130361" lon="9.3743833" version="1" timestamp="2018-06-09T19:01:07Z" changeset="59697439" uid="3842253" user="NKA_import">
		<tag k="name" v="Myrane" />
		<tag k="place" v="locality" />
		<tag k="ssr:stedsnr" v="767101" />
		<tag k="ssr:type" v="gammelBosettingsplass" />
	</node>
	<node id="5678329054" lat="59.0278306" lon="9.66895" version="1" timestamp="2018-06-09T19:01:08Z" changeset="59697439" uid="3842253" user="NKA_import">
		<tag k="name" v="Midtgården" />
		<tag k="place" v="farm" />
		<tag k="ssr:stedsnr" v="767109" />
		<tag k="ssr:type" v="gard" />
	</node>
	<node id="5678329055" lat="59.006925" lon="9.5835861" version="1" timestamp="2018-06-09T19:01:08Z" changeset="59697439" uid="3842253" user="NKA_import">
		<tag k="name" v="Kalvvika" />
		<tag k="place" v="locality" />
		<tag k="ssr:stedsnr" v="465358" />
		<tag k="ssr:type" v="gammelBosettingsplass" />
	</node>
	<node id="5678329056" lat="59.10805" lon="9.5154333" version="1" timestamp="2018-06-09T19:01:08Z" changeset="59697439" uid="3842253" user="NKA_import">
		<tag k="name" v="Gunnars" />
		<tag k="place" v="locality" />
		<tag k="ssr:stedsnr" v="305768" />
		<tag k="ssr:type" v="byggForJordbrukFiskeOgFangst" />
	</node>
	<node id="5678329057" lat="58.9503083" lon="9.5352361" version="1" timestamp="2018-06-09T19:01:08Z" changeset="59697439" uid="3842253" user="NKA_import">
		<tag k="name" v="Ringsjødalane" />
		<tag k="place" v="farm" />
		<tag k="ssr:stedsnr" v="41998" />
		<tag k="ssr:type" v="bruk" />
	</node>
	<node id="5678329058" lat="58.973909" lon="9.572262" version="8" timestamp="2022-01-02T21:39:31Z" changeset="115686654" uid="3497659" user="NKA">
		<tag k="amenity" v="school" />
		<tag k="capacity" v="149" />
		<tag k="email" v="ronholt.skole@bamble.kommune.no" />
		<tag k="fee" v="no" />
		<tag k="grades" v="1-10" />
		<tag k="isced:level" v="1;2" />
		<tag k="name" v="Rønholt skole" />
		<tag k="operator" v="Bamble kommune" />
		<tag k="operator:type" v="public" />
		<tag k="phone" v="+47 35 96 57 80" />
		<tag k="ref:gsi" v="8044" />
		<tag k="ref:udir_nsr" v="1006968" />
		<tag k="ssr:stedsnr" v="767425" />
		<tag k="ssr:type" v="skole" />
	</node>
	<node id="5678329059" lat="59.0102054" lon="9.7280867" version="1" timestamp="2018-06-09T19:01:08Z" changeset="59697439" uid="3842253" user="NKA_import">
		<tag k="name" v="Nustad" />
		<tag k="place" v="suburb" />
		<tag k="ssr:stedsnr" v="42874" />
		<tag k="ssr:type" v="tettbebyggelse" />
	</node>
	<node id="5678329060" lat="59.1098306" lon="9.5533028" version="1" timestamp="2018-06-09T19:01:08Z" changeset="59697439" uid="3842253" user="NKA_import">
		<tag k="name" v="Siljan" />
		<tag k="place" v="farm" />
		<tag k="ssr:stedsnr" v="48710" />
		<tag k="ssr:type" v="bruk" />
	</node>
	<node id="5678329061" lat="58.9890944" lon="9.3894778" version="1" timestamp="2018-06-09T19:01:08Z" changeset="59697439" uid="3842253" user="NKA_import">
		<tag k="name" v="Morka" />
		<tag k="place" v="locality" />
		<tag k="ssr:stedsnr" v="767629" />
		<tag k="ssr:type" v="gammelBosettingsplass" />
	</node>
	<node id="5678329062" lat="59.035808" lon="9.705462" version="8" timestamp="2022-01-02T21:39:31Z" changeset="115686654" uid="3497659" user="NKA">
		<tag k="amenity" v="school" />
		<tag k="capacity" v="367" />
		<tag k="email" v="stathelle.barneskole@bamble.kommune.no" />
		<tag k="fee" v="no" />
		<tag k="grades" v="1-7" />
		<tag k="isced:level" v="1" />
		<tag k="name" v="Stathelle barneskole" />
		<tag k="operator" v="Bamble kommune" />
		<tag k="operator:type" v="public" />
		<tag k="phone" v="+47 35967450" />
		<tag k="ref:gsi" v="8045" />
		<tag k="ref:udir_nsr" v="1003681" />
		<tag k="ssr:stedsnr" v="53998" />
		<tag k="ssr:type" v="skole" />
	</node>
	<node id="5678329063" lat="58.9621889" lon="9.4891139" version="1" timestamp="2018-06-09T19:01:08Z" changeset="59697439" uid="3842253" user="NKA_import">
		<tag k="name" v="Mellomplassen" />
		<tag k="place" v="locality" />
		<tag k="ssr:stedsnr" v="767661" />
		<tag k="ssr:type" v="gammelBosettingsplass" />
	</node>
	<node id="5678329064" lat="59.0400917" lon="9.700575" version="1" timestamp="2018-06-09T19:01:08Z" changeset="59697439" uid="3842253" user="NKA_import">
		<tag k="name" v="Kjellestadjordene" />
		<tag k="place" v="suburb" />
		<tag k="ssr:stedsnr" v="341811" />
		<tag k="ssr:type" v="tettbebyggelse" />
	</node>
	<node id="5678329065" lat="59.0121361" lon="9.6726833" version="1" timestamp="2018-06-09T19:01:09Z" changeset="59697439" uid="3842253" user="NKA_import">
		<tag k="name" v="Bergstad" />
		<tag k="place" v="isolated_dwelling" />
		<tag k="ssr:stedsnr" v="342062" />
		<tag k="ssr:type" v="eneboligMindreBoligbygg" />
	</node>
	<node id="5678329066" lat="59.0597" lon="9.6093528" version="1" timestamp="2018-06-09T19:01:09Z" changeset="59697439" uid="3842253" user="NKA_import">
		<tag k="name" v="Bjønnplassen" />
		<tag k="place" v="locality" />
		<tag k="ssr:stedsnr" v="58296" />
		<tag k="ssr:type" v="gammelBosettingsplass" />
	</node>
	<node id="5678329067" lat="59.0644222" lon="9.617" version="1" timestamp="2018-06-09T19:01:09Z" changeset="59697439" uid="3842253" user="NKA_import">
		<tag k="name" v="Larønningen" />
		<tag k="place" v="farm" />
		<tag k="ssr:stedsnr" v="58514" />
		<tag k="ssr:type" v="bruk" />
	</node>
	<node id="5678329068" lat="59.1008111" lon="9.5450583" version="1" timestamp="2018-06-09T19:01:09Z" changeset="59697439" uid="3842253" user="NKA_import">
		<tag k="name" v="Lukashagen" />
		<tag k="place" v="neighbourhood" />
		<tag k="ssr:stedsnr" v="58576" />
		<tag k="ssr:type" v="boligfelt" />
	</node>
	<node id="5678329070" lat="59.1030568" lon="9.4866309" version="2" timestamp="2021-04-21T19:09:32Z" changeset="103360680" uid="3497659" user="NKA">
		<tag k="name" v="Mebuktstua" />
		<tag k="place" v="locality" />
		<tag k="ssr:stedsnr" v="482538" />
		<tag k="ssr:type" v="byggForJordbrukFiskeOgFangst" />
	</node>
	<node id="5678329071" lat="58.9721333" lon="9.5993722" version="1" timestamp="2018-06-09T19:01:09Z" changeset="59697439" uid="3842253" user="NKA_import">
		<tag k="name" v="Vestre Glittum" />
		<tag k="place" v="farm" />
		<tag k="ssr:stedsnr" v="342389" />
		<tag k="ssr:type" v="gard" />
	</node>
	<node id="5678329072" lat="58.97655" lon="9.4144611" version="1" timestamp="2018-06-09T19:01:09Z" changeset="59697439" uid="3842253" user="NKA_import">
		<tag k="name" v="Dalen" />
		<tag k="place" v="locality" />
		<tag k="ssr:stedsnr" v="61333" />
		<tag k="ssr:type" v="gammelBosettingsplass" />
	</node>
	<node id="5678329073" lat="59.1018639" lon="9.5488806" version="1" timestamp="2018-06-09T19:01:09Z" changeset="59697439" uid="3842253" user="NKA_import">
		<tag k="name" v="Hauane" />
		<tag k="place" v="neighbourhood" />
		<tag k="ssr:stedsnr" v="482553" />
		<tag k="ssr:type" v="boligfelt" />
	</node>
	<node id="5678329074" lat="58.996425" lon="9.3745306" version="1" timestamp="2018-06-09T19:01:09Z" changeset="59697439" uid="3842253" user="NKA_import">
		<tag k="name" v="Kåsene" />
		<tag k="place" v="farm" />
		<tag k="ssr:stedsnr" v="61352" />
		<tag k="ssr:type" v="bruk" />
	</node>
	<node id="5678329075" lat="58.9906333" lon="9.3886528" version="1" timestamp="2018-06-09T19:01:09Z" changeset="59697439" uid="3842253" user="NKA_import">
		<tag k="alt_name" v="Svarvekjerret" />
		<tag k="name" v="Svarvekjær" />
		<tag k="place" v="farm" />
		<tag k="ssr:stedsnr" v="61354" />
		<tag k="ssr:type" v="bruk" />
	</node>
	<node id="5678329076" lat="59.0613056" lon="9.6106833" version="1" timestamp="2018-06-09T19:01:09Z" changeset="59697439" uid="3842253" user="NKA_import">
		<tag k="name" v="Martes plass" />
		<tag k="place" v="farm" />
		<tag k="ssr:stedsnr" v="483534" />
		<tag k="ssr:type" v="bruk" />
	</node>
	<node id="5678329077" lat="58.9914666" lon="9.640422" version="1" timestamp="2018-06-09T19:01:10Z" changeset="59697439" uid="3842253" user="NKA_import">
		<tag k="name" v="Åby" />
		<tag k="place" v="hamlet" />
		<tag k="ssr:stedsnr" v="485507" />
		<tag k="ssr:type" v="tettbebyggelse" />
	</node>
	<node id="5678329078" lat="58.9768278" lon="9.615525" version="1" timestamp="2018-06-09T19:01:10Z" changeset="59697439" uid="3842253" user="NKA_import">
		<tag k="name" v="Busterød" />
		<tag k="place" v="farm" />
		<tag k="ssr:stedsnr" v="61593" />
		<tag k="ssr:type" v="gard" />
	</node>
	<node id="5678329079" lat="58.9435055" lon="9.5833627" version="1" timestamp="2018-06-09T19:01:10Z" changeset="59697439" uid="3842253" user="NKA_import">
		<tag k="alt_name" v="Finmark" />
		<tag k="name" v="Finnmark" />
		<tag k="place" v="hamlet" />
		<tag k="ssr:stedsnr" v="486256" />
		<tag k="ssr:type" v="bruk" />
	</node>
	<node id="5678329080" lat="58.9336917" lon="9.5414861" version="1" timestamp="2018-06-09T19:01:10Z" changeset="59697439" uid="3842253" user="NKA_import">
		<tag k="alt_name" v="Vallekjerr" />
		<tag k="name" v="Vallekjær" />
		<tag k="place" v="farm" />
		<tag k="ssr:stedsnr" v="62248" />
		<tag k="ssr:type" v="bruk" />
	</node>
	<node id="5678329081" lat="59.0201083" lon="9.6560278" version="1" timestamp="2018-06-09T19:01:10Z" changeset="59697439" uid="3842253" user="NKA_import">
		<tag k="name" v="Hydal" />
		<tag k="place" v="farm" />
		<tag k="ssr:stedsnr" v="62251" />
		<tag k="ssr:type" v="gard" />
	</node>
	<node id="5678329082" lat="59.0156778" lon="9.6302722" version="1" timestamp="2018-06-09T19:01:10Z" changeset="59697439" uid="3842253" user="NKA_import">
		<tag k="name" v="Langmyr" />
		<tag k="place" v="farm" />
		<tag k="ssr:stedsnr" v="62260" />
		<tag k="ssr:type" v="bruk" />
	</node>
	<node id="5678329083" lat="58.9390056" lon="9.4688167" version="1" timestamp="2018-06-09T19:01:10Z" changeset="59697439" uid="3842253" user="NKA_import">
		<tag k="alt_name" v="Fossing, østre;Østre Fossum" />
		<tag k="name" v="Østre Fossing" />
		<tag k="place" v="farm" />
		<tag k="ssr:stedsnr" v="486276" />
		<tag k="ssr:type" v="gard" />
	</node>
	<node id="5678329084" lat="58.9324806" lon="9.5381833" version="1" timestamp="2018-06-09T19:01:10Z" changeset="59697439" uid="3842253" user="NKA_import">
		<tag k="name" v="Vallum" />
		<tag k="place" v="farm" />
		<tag k="ssr:stedsnr" v="486289" />
		<tag k="ssr:type" v="bruk" />
	</node>
	<node id="5678329085" lat="59.0379972" lon="9.6504083" version="1" timestamp="2018-06-09T19:01:10Z" changeset="59697439" uid="3842253" user="NKA_import">
		<tag k="name" v="Rønningen" />
		<tag k="place" v="farm" />
		<tag k="ssr:stedsnr" v="62480" />
		<tag k="ssr:type" v="bruk" />
	</node>
	<node id="5678329086" lat="58.9497889" lon="9.4508139" version="1" timestamp="2018-06-09T19:01:10Z" changeset="59697439" uid="3842253" user="NKA_import">
		<tag k="alt_name" v="Hansesmyr" />
		<tag k="name" v="Hansemyra" />
		<tag k="place" v="farm" />
		<tag k="ssr:stedsnr" v="486319" />
		<tag k="ssr:type" v="bruk" />
	</node>
	<node id="5678329087" lat="58.9469556" lon="9.4916889" version="1" timestamp="2018-06-09T19:01:10Z" changeset="59697439" uid="3842253" user="NKA_import">
		<tag k="name" v="Bleiklia" />
		<tag k="place" v="farm" />
		<tag k="ssr:stedsnr" v="486323" />
		<tag k="ssr:type" v="gard" />
	</node>
	<node id="5678329088" lat="59.0394722" lon="9.6539056" version="1" timestamp="2018-06-09T19:01:10Z" changeset="59697439" uid="3842253" user="NKA_import">
		<tag k="name" v="Roverød" />
		<tag k="place" v="farm" />
		<tag k="ssr:stedsnr" v="62481" />
		<tag k="ssr:type" v="gard" />
	</node>
	<node id="5678329089" lat="59.0324222" lon="9.5292139" version="1" timestamp="2018-06-09T19:01:11Z" changeset="59697439" uid="3842253" user="NKA_import">
		<tag k="alt_name" v="Skogen, midtre" />
		<tag k="name" v="Midtre Skogen" />
		<tag k="place" v="farm" />
		<tag k="ssr:stedsnr" v="62668" />
		<tag k="ssr:type" v="bruk" />
	</node>
	<node id="5678329091" lat="59.039725" lon="9.5274306" version="1" timestamp="2018-06-09T19:01:11Z" changeset="59697439" uid="3842253" user="NKA_import">
		<tag k="name" v="Langås" />
		<tag k="place" v="locality" />
		<tag k="ssr:stedsnr" v="62820" />
		<tag k="ssr:type" v="gammelBosettingsplass" />
	</node>
	<node id="5678329092" lat="59.040475" lon="9.4130667" version="1" timestamp="2018-06-09T19:01:11Z" changeset="59697439" uid="3842253" user="NKA_import">
		<tag k="name" v="Moen" />
		<tag k="place" v="locality" />
		<tag k="ssr:stedsnr" v="62826" />
		<tag k="ssr:type" v="gammelBosettingsplass" />
	</node>
	<node id="5678329093" lat="59.0762611" lon="9.6010139" version="1" timestamp="2018-06-09T19:01:11Z" changeset="59697439" uid="3842253" user="NKA_import">
		<tag k="name" v="Asdal" />
		<tag k="place" v="farm" />
		<tag k="ssr:stedsnr" v="486444" />
		<tag k="ssr:type" v="bruk" />
	</node>
	<node id="5678329094" lat="59.0114444" lon="9.5976861" version="1" timestamp="2018-06-09T19:01:11Z" changeset="59697439" uid="3842253" user="NKA_import">
		<tag k="name" v="Høls-kåsa" />
		<tag k="place" v="locality" />
		<tag k="ssr:stedsnr" v="769435" />
		<tag k="ssr:type" v="gammelBosettingsplass" />
	</node>
	<node id="5678329095" lat="59.1223417" lon="9.5236833" version="1" timestamp="2018-06-09T19:01:11Z" changeset="59697439" uid="3842253" user="NKA_import">
		<tag k="name" v="Hytterød" />
		<tag k="place" v="farm" />
		<tag k="ssr:stedsnr" v="486812" />
		<tag k="ssr:type" v="bruk" />
	</node>
	<node id="5678329096" lat="58.9964056" lon="9.5968111" version="1" timestamp="2018-06-09T19:01:11Z" changeset="59697439" uid="3842253" user="NKA_import">
		<tag k="name" v="Grønnli" />
		<tag k="place" v="locality" />
		<tag k="ssr:stedsnr" v="344331" />
		<tag k="ssr:type" v="gammelBosettingsplass" />
	</node>
	<node id="5678329097" lat="59.0580028" lon="9.4466833" version="1" timestamp="2018-06-09T19:01:11Z" changeset="59697439" uid="3842253" user="NKA_import">
		<tag k="alt_name" v="Langseidet, øvre" />
		<tag k="name" v="Øvre Langseidet" />
		<tag k="place" v="locality" />
		<tag k="ssr:stedsnr" v="62855" />
		<tag k="ssr:type" v="gammelBosettingsplass" />
	</node>
	<node id="5678329098" lat="59.0560694" lon="9.5086389" version="1" timestamp="2018-06-09T19:01:11Z" changeset="59697439" uid="3842253" user="NKA_import">
		<tag k="alt_name" v="Hovstein, l;Lille Hofstein" />
		<tag k="name" v="Lille Hovstein" />
		<tag k="place" v="farm" />
		<tag k="ssr:stedsnr" v="62859" />
		<tag k="ssr:type" v="bruk" />
	</node>
	<node id="5678329099" lat="59.0338222" lon="9.5270583" version="1" timestamp="2018-06-09T19:01:11Z" changeset="59697439" uid="3842253" user="NKA_import">
		<tag k="alt_name" v="Skogen, nordre;Skaugen øvre" />
		<tag k="name" v="Nordre Skogen" />
		<tag k="place" v="farm" />
		<tag k="ssr:stedsnr" v="486685" />
		<tag k="ssr:type" v="bruk" />
	</node>
	<node id="5678329100" lat="59.0687" lon="9.5727472" version="1" timestamp="2018-06-09T19:01:11Z" changeset="59697439" uid="3842253" user="NKA_import">
		<tag k="alt_name" v="Kleppsæter" />
		<tag k="historic" v="shieling" />
		<tag k="name" v="Kleppseter" />
		<tag k="place" v="farm" />
		<tag k="ssr:stedsnr" v="62874" />
		<tag k="ssr:type" v="bruk" />
	</node>
	<node id="5678329101" lat="58.9647889" lon="9.5966" version="1" timestamp="2018-06-09T19:01:12Z" changeset="59697439" uid="3842253" user="NKA_import">
		<tag k="name" v="Rønningen" />
		<tag k="place" v="farm" />
		<tag k="ssr:stedsnr" v="62882" />
		<tag k="ssr:type" v="bruk" />
	</node>
	<node id="5678329102" lat="58.9671613" lon="9.6294215" version="1" timestamp="2018-06-09T19:01:12Z" changeset="59697439" uid="3842253" user="NKA_import">
		<tag k="name" v="Rakkestad" />
		<tag k="place" v="hamlet" />
		<tag k="ssr:stedsnr" v="62883" />
		<tag k="ssr:type" v="gard" />
	</node>
	<node id="5678329103" lat="59.0369333" lon="9.6551444" version="1" timestamp="2018-06-09T19:01:12Z" changeset="59697439" uid="3842253" user="NKA_import">
		<tag k="alt_name" v="Skaugen" />
		<tag k="name" v="Skogen" />
		<tag k="place" v="farm" />
		<tag k="ssr:stedsnr" v="487519" />
		<tag k="ssr:type" v="bruk" />
	</node>
	<node id="5678329104" lat="59.0482472" lon="9.6094139" version="1" timestamp="2018-06-09T19:01:12Z" changeset="59697439" uid="3842253" user="NKA_import">
		<tag k="name" v="Steinerød" />
		<tag k="place" v="farm" />
		<tag k="ssr:stedsnr" v="487537" />
		<tag k="ssr:type" v="bruk" />
	</node>
	<node id="5678329105" lat="58.9577556" lon="9.4255528" version="1" timestamp="2018-06-09T19:01:12Z" changeset="59697439" uid="3842253" user="NKA_import">
		<tag k="name" v="Eie" />
		<tag k="place" v="locality" />
		<tag k="ssr:stedsnr" v="344458" />
		<tag k="ssr:type" v="gammelBosettingsplass" />
	</node>
	<node id="5678329106" lat="59.1027833" lon="9.5788944" version="1" timestamp="2018-06-09T19:01:12Z" changeset="59697439" uid="3842253" user="NKA_import">
		<tag k="name" v="Rafnes" />
		<tag k="place" v="farm" />
		<tag k="ssr:stedsnr" v="487774" />
		<tag k="ssr:type" v="gard" />
	</node>
	<node id="5678329107" lat="58.9611056" lon="9.4566278" version="1" timestamp="2018-06-09T19:01:12Z" changeset="59697439" uid="3842253" user="NKA_import">
		<tag k="name" v="Kåsene" />
		<tag k="place" v="isolated_dwelling" />
		<tag k="ssr:stedsnr" v="769664" />
		<tag k="ssr:type" v="eneboligMindreBoligbygg" />
	</node>
	<node id="5678329108" lat="58.9425306" lon="9.4707528" version="1" timestamp="2018-06-09T19:01:12Z" changeset="59697439" uid="3842253" user="NKA_import">
		<tag k="name" v="Solberg" />
		<tag k="place" v="isolated_dwelling" />
		<tag k="ssr:stedsnr" v="344613" />
		<tag k="ssr:type" v="eneboligMindreBoligbygg" />
	</node>
	<node id="5678329109" lat="59.0295588" lon="9.7244639" version="2" timestamp="2020-10-21T13:19:46Z" changeset="92836141" uid="5198133" user="Wulfmorn">
		<tag k="alt_name" v="Asvald" />
		<tag k="name" v="Asvall" />
		<tag k="place" v="farm" />
		<tag k="ssr:stedsnr" v="85714" />
		<tag k="ssr:type" v="gard" />
	</node>
	<node id="5678329111" lat="58.9262861" lon="9.5862667" version="2" timestamp="2021-04-21T19:09:32Z" changeset="103360680" uid="3497659" user="NKA">
		<tag k="name" v="Buktene" />
		<tag k="place" v="isolated_dwelling" />
		<tag k="ssr:stedsnr" v="86000" />
		<tag k="ssr:type" v="fritidsbolig" />
	</node>
	<node id="5678329112" lat="58.9986497" lon="9.7428579" version="2" timestamp="2021-04-21T19:09:32Z" changeset="103360680" uid="3497659" user="NKA">
		<tag k="name" v="Langesund Bad" />
		<tag k="ssr:stedsnr" v="521875" />
		<tag k="ssr:type" v="hotell" />
		<tag k="tourism" v="hotel" />
	</node>
	<node id="5678329113" lat="59.039499" lon="9.673246" version="4" timestamp="2022-01-02T21:39:31Z" changeset="115686654" uid="3497659" user="NKA">
		<tag k="amenity" v="school" />
		<tag k="capacity" v="305" />
		<tag k="email" v="signe.nordaunet-olsen@bamble.kommune.no" />
		<tag k="fee" v="no" />
		<tag k="grades" v="1-10" />
		<tag k="isced:level" v="1;2" />
		<tag k="name" v="Rugtvedt skole" />
		<tag k="operator" v="Bamble kommune" />
		<tag k="operator:type" v="public" />
		<tag k="phone" v="+47 35 96 57 50" />
		<tag k="ref:gsi" v="8042" />
		<tag k="ref:udir_nsr" v="1006969" />
		<tag k="ssr:stedsnr" v="99815" />
		<tag k="ssr:type" v="skole" />
	</node>
	<node id="5678329114" lat="59.0374472" lon="9.5218972" version="1" timestamp="2018-06-09T19:01:13Z" changeset="59697439" uid="3842253" user="NKA_import">
		<tag k="name" v="Hogsten" />
		<tag k="place" v="locality" />
		<tag k="ssr:stedsnr" v="344801" />
		<tag k="ssr:type" v="gammelBosettingsplass" />
	</node>
	<node id="5678329115" lat="58.9787083" lon="9.5853222" version="1" timestamp="2018-06-09T19:01:13Z" changeset="59697439" uid="3842253" user="NKA_import">
		<tag k="name" v="Vissestad" />
		<tag k="place" v="farm" />
		<tag k="ssr:stedsnr" v="524382" />
		<tag k="ssr:type" v="gard" />
	</node>
	<node id="5678329116" lat="58.9582722" lon="9.5700694" version="1" timestamp="2018-06-09T19:01:13Z" changeset="59697439" uid="3842253" user="NKA_import">
		<tag k="name" v="Havredal" />
		<tag k="place" v="farm" />
		<tag k="ssr:stedsnr" v="524517" />
		<tag k="ssr:type" v="bruk" />
	</node>
	<node id="5678329117" lat="59.0405111" lon="9.6500833" version="1" timestamp="2018-06-09T19:01:13Z" changeset="59697439" uid="3842253" user="NKA_import">
		<tag k="name" v="Linnakåsa" />
		<tag k="place" v="isolated_dwelling" />
		<tag k="ssr:stedsnr" v="786167" />
		<tag k="ssr:type" v="eneboligMindreBoligbygg" />
	</node>
	<node id="5678329118" lat="59.0401932" lon="9.6102171" version="1" timestamp="2018-06-09T19:01:13Z" changeset="59697439" uid="3842253" user="NKA_import">
		<tag k="name" v="Herum" />
		<tag k="place" v="hamlet" />
		<tag k="ssr:stedsnr" v="786183" />
		<tag k="ssr:type" v="gard" />
	</node>
	<node id="5678329119" lat="58.9905833" lon="9.4000611" version="1" timestamp="2018-06-09T19:01:13Z" changeset="59697439" uid="3842253" user="NKA_import">
		<tag k="name" v="Mo nedre" />
		<tag k="place" v="farm" />
		<tag k="ssr:stedsnr" v="100620" />
		<tag k="ssr:type" v="bruk" />
	</node>
	<node id="5678329120" lat="59.0296917" lon="9.7151139" version="1" timestamp="2018-06-09T19:01:13Z" changeset="59697439" uid="3842253" user="NKA_import">
		<tag k="name" v="Grasmyr" />
		<tag k="place" v="suburb" />
		<tag k="ssr:stedsnr" v="359162" />
		<tag k="ssr:type" v="bruk" />
	</node>
	<node id="5678329121" lat="59.0667667" lon="9.5901472" version="1" timestamp="2018-06-09T19:01:13Z" changeset="59697439" uid="3842253" user="NKA_import">
		<tag k="name" v="Midtre Klepp" />
		<tag k="place" v="farm" />
		<tag k="ssr:stedsnr" v="524735" />
		<tag k="ssr:type" v="bruk" />
	</node>
	<node id="5678329122" lat="59.03215" lon="9.660575" version="1" timestamp="2018-06-09T19:01:13Z" changeset="59697439" uid="3842253" user="NKA_import">
		<tag k="name" v="Gjerset" />
		<tag k="place" v="farm" />
		<tag k="ssr:stedsnr" v="524748" />
		<tag k="ssr:type" v="bruk" />
	</node>
	<node id="5678329123" lat="58.9482821" lon="9.4768262" version="1" timestamp="2018-06-09T19:01:13Z" changeset="59697439" uid="3842253" user="NKA_import">
		<tag k="name" v="Vasstranda" />
		<tag k="place" v="locality" />
		<tag k="ssr:stedsnr" v="100645" />
		<tag k="ssr:type" v="gammelBosettingsplass" />
	</node>
	<node id="5678329124" lat="58.9691056" lon="9.4906139" version="1" timestamp="2018-06-09T19:01:13Z" changeset="59697439" uid="3842253" user="NKA_import">
		<tag k="alt_name" v="Fostvedt" />
		<tag k="name" v="Fosstveit" />
		<tag k="place" v="farm" />
		<tag k="ssr:stedsnr" v="789304" />
		<tag k="ssr:type" v="gard" />
	</node>
	<node id="5678329125" lat="59.0410194" lon="9.6514611" version="1" timestamp="2018-06-09T19:01:13Z" changeset="59697439" uid="3842253" user="NKA_import">
		<tag k="name" v="Linnastranda" />
		<tag k="place" v="isolated_dwelling" />
		<tag k="ssr:stedsnr" v="361196" />
		<tag k="ssr:type" v="eneboligMindreBoligbygg" />
	</node>
	<node id="5678329126" lat="59.0402861" lon="9.6165389" version="1" timestamp="2018-06-09T19:01:14Z" changeset="59697439" uid="3842253" user="NKA_import">
		<tag k="name" v="Østre Herum" />
		<tag k="place" v="farm" />
		<tag k="ssr:stedsnr" v="361208" />
		<tag k="ssr:type" v="bruk" />
	</node>
	<node id="5678329127" lat="59.0025889" lon="9.3823694" version="1" timestamp="2018-06-09T19:01:14Z" changeset="59697439" uid="3842253" user="NKA_import">
		<tag k="name" v="Rørholt, nordre" />
		<tag k="place" v="farm" />
		<tag k="ssr:stedsnr" v="524847" />
		<tag k="ssr:type" v="gard" />
	</node>
	<node id="5678329128" lat="58.9542583" lon="9.5974611" version="1" timestamp="2018-06-09T19:01:14Z" changeset="59697439" uid="3842253" user="NKA_import">
		<tag k="name" v="Østre Kjørstad" />
		<tag k="place" v="farm" />
		<tag k="ssr:stedsnr" v="524848" />
		<tag k="ssr:type" v="gard" />
	</node>
	<node id="5678329129" lat="58.9928056" lon="9.6210806" version="1" timestamp="2018-06-09T19:01:14Z" changeset="59697439" uid="3842253" user="NKA_import">
		<tag k="alt_name" v="Bjørkeset, nedre;Bjerkeseth" />
		<tag k="name" v="Nedre Bjørkeset" />
		<tag k="place" v="farm" />
		<tag k="ssr:stedsnr" v="789563" />
		<tag k="ssr:type" v="bruk" />
	</node>
	<node id="5678329130" lat="58.9948142" lon="9.6659271" version="1" timestamp="2018-06-09T19:01:14Z" changeset="59697439" uid="3842253" user="NKA_import">
		<tag k="alt_name" v="Vinjestranda" />
		<tag k="name" v="Vinjastranda" />
		<tag k="place" v="hamlet" />
		<tag k="ssr:stedsnr" v="789575" />
		<tag k="ssr:type" v="hyttefelt" />
	</node>
	<node id="5678329131" lat="59.1060917" lon="9.5465972" version="1" timestamp="2018-06-09T19:01:14Z" changeset="59697439" uid="3842253" user="NKA_import">
		<tag k="name" v="Kåsa" />
		<tag k="place" v="locality" />
		<tag k="ssr:stedsnr" v="361232" />
		<tag k="ssr:type" v="gammelBosettingsplass" />
	</node>
	<node id="5678329132" lat="58.9930472" lon="9.3854333" version="1" timestamp="2018-06-09T19:01:14Z" changeset="59697439" uid="3842253" user="NKA_import">
		<tag k="name" v="Vassend" />
		<tag k="place" v="locality" />
		<tag k="ssr:stedsnr" v="100840" />
		<tag k="ssr:type" v="gammelBosettingsplass" />
	</node>
	<node id="5678329133" lat="58.9534417" lon="9.5876667" version="1" timestamp="2018-06-09T19:01:14Z" changeset="59697439" uid="3842253" user="NKA_import">
		<tag k="name" v="Vestre Kjørstad" />
		<tag k="place" v="farm" />
		<tag k="ssr:stedsnr" v="100850" />
		<tag k="ssr:type" v="gard" />
	</node>
	<node id="5678329134" lat="58.97075" lon="9.5992528" version="1" timestamp="2018-06-09T19:01:14Z" changeset="59697439" uid="3842253" user="NKA_import">
		<tag k="name" v="Glittum" />
		<tag k="place" v="farm" />
		<tag k="ssr:stedsnr" v="789596" />
		<tag k="ssr:type" v="bruk" />
	</node>
	<node id="5678329135" lat="59.0082056" lon="9.6660639" version="1" timestamp="2018-06-09T19:01:14Z" changeset="59697439" uid="3842253" user="NKA_import">
		<tag k="name" v="Bamble prestegård" />
		<tag k="place" v="farm" />
		<tag k="ssr:stedsnr" v="361451" />
		<tag k="ssr:type" v="gard" />
	</node>
	<node id="5678329136" lat="59.065575" lon="9.6044361" version="1" timestamp="2018-06-09T19:01:14Z" changeset="59697439" uid="3842253" user="NKA_import">
		<tag k="alt_name" v="Nedre Sortedal" />
		<tag k="name" v="Nedre Surtedal" />
		<tag k="place" v="farm" />
		<tag k="ssr:stedsnr" v="361489" />
		<tag k="ssr:type" v="gard" />
	</node>
	<node id="5678329137" lat="58.9764278" lon="9.6585861" version="1" timestamp="2018-06-09T19:01:14Z" changeset="59697439" uid="3842253" user="NKA_import">
		<tag k="alt_name" v="Brevik, østre" />
		<tag k="name" v="Østre Brevik" />
		<tag k="place" v="farm" />
		<tag k="ssr:stedsnr" v="789886" />
		<tag k="ssr:type" v="bruk" />
	</node>
	<node id="5678329138" lat="59.0179016" lon="9.7377616" version="1" timestamp="2018-06-09T19:01:15Z" changeset="59697439" uid="3842253" user="NKA_import">
		<tag k="name" v="Hydal" />
		<tag k="place" v="suburb" />
		<tag k="ssr:stedsnr" v="790220" />
		<tag k="ssr:type" v="tettbebyggelse" />
	</node>
	<node id="5678329139" lat="59.0249167" lon="9.6707861" version="1" timestamp="2018-06-09T19:01:15Z" changeset="59697439" uid="3842253" user="NKA_import">
		<tag k="name" v="Hegna" />
		<tag k="place" v="farm" />
		<tag k="ssr:stedsnr" v="790247" />
		<tag k="ssr:type" v="bruk" />
	</node>
	<node id="5678329140" lat="59.0152917" lon="9.4742" version="1" timestamp="2018-06-09T19:01:15Z" changeset="59697439" uid="3842253" user="NKA_import">
		<tag k="historic" v="shieling" />
		<tag k="name" v="Hermannseide" />
		<tag k="place" v="locality" />
		<tag k="ssr:stedsnr" v="101038" />
		<tag k="ssr:type" v="seterStøl" />
	</node>
	<node id="5678329141" lat="59.0151139" lon="9.4055" version="1" timestamp="2018-06-09T19:01:15Z" changeset="59697439" uid="3842253" user="NKA_import">
		<tag k="name" v="Bukktjennmyra" />
		<tag k="place" v="locality" />
		<tag k="ssr:stedsnr" v="525027" />
		<tag k="ssr:type" v="gammelBosettingsplass" />
	</node>
	<node id="5678329142" lat="58.9598278" lon="9.5875361" version="1" timestamp="2018-06-09T19:01:15Z" changeset="59697439" uid="3842253" user="NKA_import">
		<tag k="name" v="Tangen" />
		<tag k="place" v="farm" />
		<tag k="ssr:stedsnr" v="790269" />
		<tag k="ssr:type" v="bruk" />
	</node>
	<node id="5678329143" lat="58.9487861" lon="9.4776889" version="1" timestamp="2018-06-09T19:01:15Z" changeset="59697439" uid="3842253" user="NKA_import">
		<tag k="name" v="Tangane" />
		<tag k="place" v="farm" />
		<tag k="ssr:stedsnr" v="790278" />
		<tag k="ssr:type" v="bruk" />
	</node>
	<node id="5678329144" lat="58.9489528" lon="9.5489389" version="1" timestamp="2018-06-09T19:01:15Z" changeset="59697439" uid="3842253" user="NKA_import">
		<tag k="name" v="Plassen" />
		<tag k="place" v="farm" />
		<tag k="ssr:stedsnr" v="790281" />
		<tag k="ssr:type" v="bruk" />
	</node>
	<node id="5678329145" lat="59.010225" lon="9.677325" version="1" timestamp="2018-06-09T19:01:15Z" changeset="59697439" uid="3842253" user="NKA_import">
		<tag k="alt_name" v="Rognkås;Rognkosa" />
		<tag k="name" v="Rognskåsa" />
		<tag k="place" v="farm" />
		<tag k="ssr:stedsnr" v="790282" />
		<tag k="ssr:type" v="bruk" />
	</node>
	<node id="5678329146" lat="59.0307583" lon="9.6702555" version="1" timestamp="2018-06-09T19:01:15Z" changeset="59697439" uid="3842253" user="NKA_import">
		<tag k="name" v="Flåtten" />
		<tag k="place" v="farm" />
		<tag k="ssr:stedsnr" v="790490" />
		<tag k="ssr:type" v="gard" />
	</node>
	<node id="5678329147" lat="58.9905611" lon="9.5975306" version="1" timestamp="2018-06-09T19:01:15Z" changeset="59697439" uid="3842253" user="NKA_import">
		<tag k="alt_name" v="Nystein, østre" />
		<tag k="name" v="Østre Nystein" />
		<tag k="place" v="farm" />
		<tag k="ssr:stedsnr" v="364582" />
		<tag k="ssr:type" v="bruk" />
	</node>
	<node id="5678329148" lat="59.0277333" lon="9.5397472" version="1" timestamp="2018-06-09T19:01:15Z" changeset="59697439" uid="3842253" user="NKA_import">
		<tag k="name" v="Stormyr" />
		<tag k="place" v="farm" />
		<tag k="ssr:stedsnr" v="790702" />
		<tag k="ssr:type" v="bruk" />
	</node>
	<node id="5678329149" lat="58.9826806" lon="9.6432" version="1" timestamp="2018-06-09T19:01:15Z" changeset="59697439" uid="3842253" user="NKA_import">
		<tag k="name" v="Svinland" />
		<tag k="place" v="farm" />
		<tag k="ssr:stedsnr" v="364626" />
		<tag k="ssr:type" v="gard" />
	</node>
	<node id="5678329150" lat="58.9781361" lon="9.4084444" version="1" timestamp="2018-06-09T19:01:15Z" changeset="59697439" uid="3842253" user="NKA_import">
		<tag k="name" v="Kroktvett" />
		<tag k="place" v="locality" />
		<tag k="ssr:stedsnr" v="526121" />
		<tag k="ssr:type" v="gammelBosettingsplass" />
	</node>
	<node id="5678329151" lat="59.0150028" lon="9.6914361" version="1" timestamp="2018-06-09T19:01:16Z" changeset="59697439" uid="3842253" user="NKA_import">
		<tag k="alt_name" v="Rogn, nordre" />
		<tag k="name" v="Nordre Rogn" />
		<tag k="place" v="farm" />
		<tag k="ssr:stedsnr" v="365264" />
		<tag k="ssr:type" v="gard" />
	</node>
	<node id="5678329152" lat="59.099975" lon="9.5408667" version="1" timestamp="2018-06-09T19:01:16Z" changeset="59697439" uid="3842253" user="NKA_import">
		<tag k="alt_name" v="Hellestvedt" />
		<tag k="name" v="Hellestveit" />
		<tag k="place" v="farm" />
		<tag k="ssr:stedsnr" v="790801" />
		<tag k="ssr:type" v="gard" />
	</node>
	<node id="5678329153" lat="59.0027639" lon="9.6358" version="1" timestamp="2018-06-09T19:01:16Z" changeset="59697439" uid="3842253" user="NKA_import">
		<tag k="name" v="Smedplassen" />
		<tag k="place" v="farm" />
		<tag k="ssr:stedsnr" v="365298" />
		<tag k="ssr:type" v="bruk" />
	</node>
	<node id="5678329154" lat="58.993275" lon="9.5849222" version="1" timestamp="2018-06-09T19:01:16Z" changeset="59697439" uid="3842253" user="NKA_import">
		<tag k="name" v="Strømme" />
		<tag k="place" v="locality" />
		<tag k="ssr:stedsnr" v="526290" />
		<tag k="ssr:type" v="gammelBosettingsplass" />
	</node>
	<node id="5678329155" lat="58.9542639" lon="9.5106389" version="1" timestamp="2018-06-09T19:01:16Z" changeset="59697439" uid="3842253" user="NKA_import">
		<tag k="alt_name" v="Åsfjellrønningen" />
		<tag k="name" v="Rønningen" />
		<tag k="place" v="farm" />
		<tag k="ssr:stedsnr" v="365299" />
		<tag k="ssr:type" v="bruk" />
	</node>
	<node id="5678329156" lat="59.0080927" lon="9.7331299" version="1" timestamp="2018-06-09T19:01:16Z" changeset="59697439" uid="3842253" user="NKA_import">
		<tag k="name" v="Nustad" />
		<tag k="place" v="farm" />
		<tag k="ssr:stedsnr" v="365310" />
		<tag k="ssr:type" v="gard" />
	</node>
	<node id="5678329157" lat="59.009125" lon="9.7342361" version="1" timestamp="2018-06-09T19:01:16Z" changeset="59697439" uid="3842253" user="NKA_import">
		<tag k="alt_name" v="Slåttenes gård" />
		<tag k="name" v="Slåttnes" />
		<tag k="old_name" v="Slåttenes" />
		<tag k="place" v="locality" />
		<tag k="ssr:stedsnr" v="365309" />
		<tag k="ssr:type" v="eiendom" />
	</node>
	<node id="5678329158" lat="59.0794258" lon="9.5982824" version="1" timestamp="2018-06-09T19:01:16Z" changeset="59697439" uid="3842253" user="NKA_import">
		<tag k="alt_name" v="Tveitan" />
		<tag k="name" v="Tveten" />
		<tag k="place" v="farm" />
		<tag k="ssr:stedsnr" v="791401" />
		<tag k="ssr:type" v="gard" />
	</node>
	<node id="5678329159" lat="59.0120639" lon="9.744975" version="1" timestamp="2018-06-09T19:01:16Z" changeset="59697439" uid="3842253" user="NKA_import">
		<tag k="alt_name" v="Barfod" />
		<tag k="name" v="Barfot" />
		<tag k="place" v="farm" />
		<tag k="ssr:stedsnr" v="365313" />
		<tag k="ssr:type" v="bruk" />
	</node>
	<node id="5678329160" lat="58.94845" lon="9.5209111" version="1" timestamp="2018-06-09T19:01:16Z" changeset="59697439" uid="3842253" user="NKA_import">
		<tag k="alt_name" v="Thomasbu" />
		<tag k="name" v="Tomasbu" />
		<tag k="place" v="farm" />
		<tag k="ssr:stedsnr" v="365315" />
		<tag k="ssr:type" v="gard" />
	</node>
	<node id="5678329161" lat="58.9745167" lon="9.371375" version="1" timestamp="2018-06-09T19:01:16Z" changeset="59697439" uid="3842253" user="NKA_import">
		<tag k="name" v="Lauvåsen" />
		<tag k="place" v="locality" />
		<tag k="ssr:stedsnr" v="365346" />
		<tag k="ssr:type" v="gammelBosettingsplass" />
	</node>
	<node id="5678329162" lat="59.0426672" lon="9.6713921" version="1" timestamp="2018-06-09T19:01:17Z" changeset="59697439" uid="3842253" user="NKA_import">
		<tag k="name" v="Rugtvedtmyra" />
		<tag k="place" v="suburb" />
		<tag k="ssr:stedsnr" v="810937" />
		<tag k="ssr:type" v="tettbebyggelse" />
	</node>
	<node id="5678329163" lat="58.9781167" lon="9.59695" version="1" timestamp="2018-06-09T19:01:17Z" changeset="59697439" uid="3842253" user="NKA_import">
		<tag k="name" v="Grindbakken" />
		<tag k="place" v="farm" />
		<tag k="ssr:stedsnr" v="365622" />
		<tag k="ssr:type" v="bruk" />
	</node>
	<node id="5678329164" lat="59.0026972" lon="9.3822222" version="1" timestamp="2018-06-09T19:01:17Z" changeset="59697439" uid="3842253" user="NKA_import">
		<tag k="name" v="Storrønningen" />
		<tag k="place" v="farm" />
		<tag k="ssr:stedsnr" v="365686" />
		<tag k="ssr:type" v="bruk" />
	</node>
	<node id="5678329165" lat="59.0129999" lon="9.6218781" version="1" timestamp="2018-06-09T19:01:17Z" changeset="59697439" uid="3842253" user="NKA_import">
		<tag k="alt_name" v="Østre Tveitan" />
		<tag k="name" v="Østre Tveten" />
		<tag k="place" v="farm" />
		<tag k="ssr:stedsnr" v="828030" />
		<tag k="ssr:type" v="gard" />
	</node>
	<node id="5678329166" lat="59.009725" lon="9.5500333" version="1" timestamp="2018-06-09T19:01:17Z" changeset="59697439" uid="3842253" user="NKA_import">
		<tag k="name" v="Heistad" />
		<tag k="place" v="farm" />
		<tag k="ssr:stedsnr" v="365693" />
		<tag k="ssr:type" v="bruk" />
	</node>
	<node id="5678329167" lat="59.1033623" lon="9.5625212" version="4" timestamp="2021-10-29T06:11:26Z" changeset="113107708" uid="3497659" user="NKA">
		<tag k="name" v="Herre" />
		<tag k="place" v="village" />
		<tag k="population" v="1308" />
		<tag k="population:date" v="2021-01-01" />
		<tag k="ref:ssb_tettsted" v="3041" />
		<tag k="source:population" v="SSB - befolkning i tettstedet" />
		<tag k="ssr:stedsnr" v="365790" />
		<tag k="ssr:type" v="tettsted" />
	</node>
	<node id="5678329168" lat="58.9775861" lon="9.4392583" version="1" timestamp="2018-06-09T19:01:17Z" changeset="59697439" uid="3842253" user="NKA_import">
		<tag k="name" v="Moen" />
		<tag k="place" v="locality" />
		<tag k="ssr:stedsnr" v="102073" />
		<tag k="ssr:type" v="gammelBosettingsplass" />
	</node>
	<node id="5678329169" lat="58.9818056" lon="9.4020833" version="1" timestamp="2018-06-09T19:01:17Z" changeset="59697439" uid="3842253" user="NKA_import">
		<tag k="name" v="Øygården" />
		<tag k="place" v="locality" />
		<tag k="ssr:stedsnr" v="102119" />
		<tag k="ssr:type" v="gammelBosettingsplass" />
	</node>
	<node id="5678329170" lat="58.9570083" lon="9.5297056" version="1" timestamp="2018-06-09T19:01:17Z" changeset="59697439" uid="3842253" user="NKA_import">
		<tag k="name" v="Hartveit" />
		<tag k="place" v="farm" />
		<tag k="ssr:stedsnr" v="526988" />
		<tag k="ssr:type" v="bruk" />
	</node>
	<node id="5678329171" lat="59.0089181" lon="9.7412872" version="1" timestamp="2018-06-09T19:01:17Z" changeset="59697439" uid="3842253" user="NKA_import">
		<tag k="name" v="Bratten" />
		<tag k="place" v="neighbourhood" />
		<tag k="ssr:stedsnr" v="527897" />
		<tag k="ssr:type" v="tettbebyggelse" />
	</node>
	<node id="5678329172" lat="58.9511417" lon="9.4507945" version="1" timestamp="2018-06-09T19:01:17Z" changeset="59697439" uid="3842253" user="NKA_import">
		<tag k="name" v="Myra" />
		<tag k="place" v="isolated_dwelling" />
		<tag k="ssr:stedsnr" v="828653" />
		<tag k="ssr:type" v="eneboligMindreBoligbygg" />
	</node>
	<node id="5678329173" lat="58.9696667" lon="9.63875" version="1" timestamp="2018-06-09T19:01:17Z" changeset="59697439" uid="3842253" user="NKA_import">
		<tag k="alt_name" v="Myrland" />
		<tag k="name" v="Myra" />
		<tag k="place" v="farm" />
		<tag k="ssr:stedsnr" v="365908" />
		<tag k="ssr:type" v="bruk" />
	</node>
	<node id="5678329174" lat="59.1075917" lon="9.5566333" version="1" timestamp="2018-06-09T19:01:17Z" changeset="59697439" uid="3842253" user="NKA_import">
		<tag k="name" v="Flittig" />
		<tag k="place" v="isolated_dwelling" />
		<tag k="ssr:stedsnr" v="828742" />
		<tag k="ssr:type" v="eneboligMindreBoligbygg" />
	</node>
	<node id="5678329175" lat="58.975675" lon="9.6859528" version="2" timestamp="2021-04-21T19:09:32Z" changeset="103360680" uid="3497659" user="NKA">
		<tag k="name" v="Prisgrunn" />
		<tag k="place" v="isolated_dwelling" />
		<tag k="ssr:stedsnr" v="365909" />
		<tag k="ssr:type" v="fritidsbolig" />
	</node>
	<node id="5678329176" lat="58.9510083" lon="9.5993083" version="1" timestamp="2018-06-09T19:01:18Z" changeset="59697439" uid="3842253" user="NKA_import">
		<tag k="name" v="Kjerra" />
		<tag k="place" v="farm" />
		<tag k="ssr:stedsnr" v="365919" />
		<tag k="ssr:type" v="bruk" />
	</node>
	<node id="5678329177" lat="59.0078972" lon="9.6188833" version="1" timestamp="2018-06-09T19:01:18Z" changeset="59697439" uid="3842253" user="NKA_import">
		<tag k="name" v="Sørum" />
		<tag k="place" v="farm" />
		<tag k="ssr:stedsnr" v="828758" />
		<tag k="ssr:type" v="bruk" />
	</node>
	<node id="5678329178" lat="58.9489361" lon="9.619925" version="1" timestamp="2018-06-09T19:01:18Z" changeset="59697439" uid="3842253" user="NKA_import">
		<tag k="name" v="Rødnes" />
		<tag k="place" v="farm" />
		<tag k="ssr:stedsnr" v="365921" />
		<tag k="ssr:type" v="bruk" />
	</node>
	<node id="5678329179" lat="59.0746" lon="9.6111722" version="1" timestamp="2018-06-09T19:01:18Z" changeset="59697439" uid="3842253" user="NKA_import">
		<tag k="name" v="Øvre Asdal" />
		<tag k="place" v="farm" />
		<tag k="ssr:stedsnr" v="534556" />
		<tag k="ssr:type" v="gard" />
	</node>
	<node id="5678329180" lat="58.9377139" lon="9.5720611" version="1" timestamp="2018-06-09T19:01:18Z" changeset="59697439" uid="3842253" user="NKA_import">
		<tag k="name" v="Josefsborg" />
		<tag k="place" v="locality" />
		<tag k="ssr:stedsnr" v="828829" />
		<tag k="ssr:type" v="gammelBosettingsplass" />
	</node>
	<node id="5678329182" lat="59.0276194" lon="9.7175833" version="1" timestamp="2018-06-09T19:01:18Z" changeset="59697439" uid="3842253" user="NKA_import">
		<tag k="name" v="Ramstad" />
		<tag k="place" v="farm" />
		<tag k="ssr:stedsnr" v="540744" />
		<tag k="ssr:type" v="bruk" />
	</node>
	<node id="5678329183" lat="58.9607306" lon="9.5155583" version="1" timestamp="2018-06-09T19:01:18Z" changeset="59697439" uid="3842253" user="NKA_import">
		<tag k="name" v="Langekjerr" />
		<tag k="place" v="locality" />
		<tag k="ssr:stedsnr" v="102926" />
		<tag k="ssr:type" v="gammelBosettingsplass" />
	</node>
	<node id="5678329184" lat="59.0457417" lon="9.6422944" version="1" timestamp="2018-06-09T19:01:18Z" changeset="59697439" uid="3842253" user="NKA_import">
		<tag k="name" v="Havreåker" />
		<tag k="place" v="farm" />
		<tag k="ssr:stedsnr" v="543221" />
		<tag k="ssr:type" v="bruk" />
	</node>
	<node id="5678329185" lat="59.0988833" lon="9.5377889" version="1" timestamp="2018-06-09T19:01:18Z" changeset="59697439" uid="3842253" user="NKA_import">
		<tag k="name" v="Hellestveit" />
		<tag k="place" v="hamlet" />
		<tag k="ssr:stedsnr" v="388880" />
		<tag k="ssr:type" v="grend" />
	</node>
	<node id="5678329186" lat="59.06345" lon="9.6175389" version="1" timestamp="2018-06-09T19:01:18Z" changeset="59697439" uid="3842253" user="NKA_import">
		<tag k="name" v="Hestekåsa" />
		<tag k="place" v="isolated_dwelling" />
		<tag k="ssr:stedsnr" v="543468" />
		<tag k="ssr:type" v="eneboligMindreBoligbygg" />
	</node>
	<node id="5678329187" lat="58.987296" lon="9.6476409" version="1" timestamp="2018-06-09T19:01:19Z" changeset="59697439" uid="3842253" user="NKA_import">
		<tag k="name" v="Åstad" />
		<tag k="place" v="hamlet" />
		<tag k="ssr:stedsnr" v="546518" />
		<tag k="ssr:type" v="gard" />
	</node>
	<node id="5678329188" lat="59.0159444" lon="9.6599694" version="1" timestamp="2018-06-09T19:01:19Z" changeset="59697439" uid="3842253" user="NKA_import">
		<tag k="name" v="Bergsland" />
		<tag k="place" v="farm" />
		<tag k="ssr:stedsnr" v="547284" />
		<tag k="ssr:type" v="bruk" />
	</node>
	<node id="5678329189" lat="58.9701334" lon="9.5615952" version="4" timestamp="2021-10-29T06:11:26Z" changeset="113107708" uid="3497659" user="NKA">
		<tag k="name" v="Botten" />
		<tag k="place" v="quarter" />
		<tag k="population" v="257" />
		<tag k="population:date" v="2021-01-01" />
		<tag k="ref:ssb_tettsted" v="3044" />
		<tag k="source:population" v="SSB - befolkning i tettstedet" />
		<tag k="ssr:stedsnr" v="403410" />
		<tag k="ssr:type" v="tettbebyggelse" />
	</node>
	<node id="5678329190" lat="59.0362917" lon="9.7071833" version="1" timestamp="2018-06-09T19:01:19Z" changeset="59697439" uid="3842253" user="NKA_import">
		<tag k="name" v="Bunes" />
		<tag k="place" v="farm" />
		<tag k="ssr:stedsnr" v="117162" />
		<tag k="ssr:type" v="bruk" />
	</node>
	<node id="5678329191" lat="58.9398083" lon="9.4991139" version="1" timestamp="2018-06-09T19:01:19Z" changeset="59697439" uid="3842253" user="NKA_import">
		<tag k="alt_name" v="Grimsrød, vestre" />
		<tag k="name" v="Vestre Grimsrød" />
		<tag k="place" v="farm" />
		<tag k="ssr:stedsnr" v="547294" />
		<tag k="ssr:type" v="bruk" />
	</node>
	<node id="5678329192" lat="59.058525" lon="9.6204083" version="1" timestamp="2018-06-09T19:01:19Z" changeset="59697439" uid="3842253" user="NKA_import">
		<tag k="name" v="Garstad-rønningen" />
		<tag k="place" v="farm" />
		<tag k="ssr:stedsnr" v="117170" />
		<tag k="ssr:type" v="bruk" />
	</node>
	<node id="5678329193" lat="58.9606722" lon="9.409575" version="1" timestamp="2018-06-09T19:01:19Z" changeset="59697439" uid="3842253" user="NKA_import">
		<tag k="name" v="Masterød" />
		<tag k="place" v="farm" />
		<tag k="ssr:stedsnr" v="547313" />
		<tag k="ssr:type" v="bruk" />
	</node>
	<node id="5678329194" lat="59.0502278" lon="9.6065417" version="1" timestamp="2018-06-09T19:01:19Z" changeset="59697439" uid="3842253" user="NKA_import">
		<tag k="name" v="Tasseplass" />
		<tag k="place" v="locality" />
		<tag k="ssr:stedsnr" v="403609" />
		<tag k="ssr:type" v="gammelBosettingsplass" />
	</node>
	<node id="5678329195" lat="58.9469667" lon="9.4607611" version="1" timestamp="2018-06-09T19:01:19Z" changeset="59697439" uid="3842253" user="NKA_import">
		<tag k="name" v="Mollefjelltangen" />
		<tag k="place" v="locality" />
		<tag k="ssr:stedsnr" v="403658" />
		<tag k="ssr:type" v="gammelBosettingsplass" />
	</node>
	<node id="5678329196" lat="58.9639843" lon="9.5826128" version="1" timestamp="2018-06-09T19:01:19Z" changeset="59697439" uid="3842253" user="NKA_import">
		<tag k="alt_name" v="Haukedal" />
		<tag k="name" v="Haukedalen" />
		<tag k="place" v="hamlet" />
		<tag k="ssr:stedsnr" v="547325" />
		<tag k="ssr:type" v="gard" />
	</node>
	<node id="5678329197" lat="59.0126167" lon="9.67025" version="1" timestamp="2018-06-09T19:01:19Z" changeset="59697439" uid="3842253" user="NKA_import">
		<tag k="name" v="Ris" />
		<tag k="place" v="farm" />
		<tag k="ssr:stedsnr" v="547338" />
		<tag k="ssr:type" v="gard" />
	</node>
	<node id="5678329198" lat="59.0419833" lon="9.618375" version="1" timestamp="2018-06-09T19:01:19Z" changeset="59697439" uid="3842253" user="NKA_import">
		<tag k="name" v="Skomakerrønningen" />
		<tag k="place" v="locality" />
		<tag k="ssr:stedsnr" v="403723" />
		<tag k="ssr:type" v="gammelBosettingsplass" />
	</node>
	<node id="5678329199" lat="58.9774417" lon="9.5439305" version="1" timestamp="2018-06-09T19:01:20Z" changeset="59697439" uid="3842253" user="NKA_import">
		<tag k="name" v="Dalkåsa" />
		<tag k="place" v="isolated_dwelling" />
		<tag k="ssr:stedsnr" v="547365" />
		<tag k="ssr:type" v="eneboligMindreBoligbygg" />
	</node>
	<node id="5678329200" lat="59.0613646" lon="9.5991617" version="1" timestamp="2018-06-09T19:01:20Z" changeset="59697439" uid="3842253" user="NKA_import">
		<tag k="name" v="Berg" />
		<tag k="place" v="farm" />
		<tag k="ssr:stedsnr" v="547490" />
		<tag k="ssr:type" v="gard" />
	</node>
	<node id="5678329201" lat="59.0473694" lon="9.6296167" version="1" timestamp="2018-06-09T19:01:20Z" changeset="59697439" uid="3842253" user="NKA_import">
		<tag k="name" v="Søtholt" />
		<tag k="place" v="farm" />
		<tag k="ssr:stedsnr" v="547539" />
		<tag k="ssr:type" v="gard" />
	</node>
	<node id="5678329202" lat="58.936775" lon="9.5686555" version="1" timestamp="2018-06-09T19:01:20Z" changeset="59697439" uid="3842253" user="NKA_import">
		<tag k="name" v="Solli" />
		<tag k="place" v="farm" />
		<tag k="ssr:stedsnr" v="122267" />
		<tag k="ssr:type" v="bruk" />
	</node>
	<node id="5678329203" lat="58.9990735" lon="9.7023631" version="1" timestamp="2018-06-09T19:01:20Z" changeset="59697439" uid="3842253" user="NKA_import">
		<tag k="name" v="Ormvika" />
		<tag k="place" v="quarter" />
		<tag k="ssr:stedsnr" v="547627" />
		<tag k="ssr:type" v="hyttefelt" />
	</node>
	<node id="5678329204" lat="59.0188722" lon="9.7079556" version="1" timestamp="2018-06-09T19:01:20Z" changeset="59697439" uid="3842253" user="NKA_import">
		<tag k="alt_name" v="Gjømlemyrane" />
		<tag k="name" v="Myrane" />
		<tag k="place" v="farm" />
		<tag k="ssr:stedsnr" v="122272" />
		<tag k="ssr:type" v="bruk" />
	</node>
	<node id="5678329205" lat="58.9745139" lon="9.4571278" version="1" timestamp="2018-06-09T19:01:20Z" changeset="59697439" uid="3842253" user="NKA_import">
		<tag k="name" v="Tverråen" />
		<tag k="place" v="locality" />
		<tag k="ssr:stedsnr" v="830421" />
		<tag k="ssr:type" v="gammelBosettingsplass" />
	</node>
	<node id="5678329206" lat="58.9450194" lon="9.4234167" version="1" timestamp="2018-06-09T19:01:20Z" changeset="59697439" uid="3842253" user="NKA_import">
		<tag k="alt_name" v="Bjordam" />
		<tag k="name" v="Bjordammen" />
		<tag k="place" v="farm" />
		<tag k="ssr:stedsnr" v="122311" />
		<tag k="ssr:type" v="bruk" />
	</node>
	<node id="5678329207" lat="58.9710556" lon="9.6442917" version="1" timestamp="2018-06-09T19:01:20Z" changeset="59697439" uid="3842253" user="NKA_import">
		<tag k="alt_name" v="Øygården" />
		<tag k="name" v="Ødegården" />
		<tag k="place" v="farm" />
		<tag k="ssr:stedsnr" v="547901" />
		<tag k="ssr:type" v="bruk" />
	</node>
	<node id="5678329209" lat="58.9946028" lon="9.6895278" version="1" timestamp="2018-06-09T19:01:20Z" changeset="59697439" uid="3842253" user="NKA_import">
		<tag k="name" v="Kåsene" />
		<tag k="place" v="farm" />
		<tag k="ssr:stedsnr" v="122562" />
		<tag k="ssr:type" v="bruk" />
	</node>
	<node id="5678329210" lat="58.9821056" lon="9.6837611" version="1" timestamp="2018-06-09T19:01:20Z" changeset="59697439" uid="3842253" user="NKA_import">
		<tag k="name" v="Elvik" />
		<tag k="place" v="farm" />
		<tag k="ssr:stedsnr" v="122594" />
		<tag k="ssr:type" v="bruk" />
	</node>
	<node id="5678329211" lat="59.1143528" lon="9.5571083" version="1" timestamp="2018-06-09T19:01:20Z" changeset="59697439" uid="3842253" user="NKA_import">
		<tag k="name" v="Stranda" />
		<tag k="place" v="farm" />
		<tag k="ssr:stedsnr" v="122788" />
		<tag k="ssr:type" v="bruk" />
	</node>
	<node id="5678329212" lat="58.9554167" lon="9.5187917" version="1" timestamp="2018-06-09T19:01:21Z" changeset="59697439" uid="3842253" user="NKA_import">
		<tag k="name" v="Vestre Hartveit" />
		<tag k="place" v="farm" />
		<tag k="ssr:stedsnr" v="830957" />
		<tag k="ssr:type" v="bruk" />
	</node>
	<node id="5678329213" lat="59.0239194" lon="9.6605778" version="1" timestamp="2018-06-09T19:01:21Z" changeset="59697439" uid="3842253" user="NKA_import">
		<tag k="name" v="Gjerstad" />
		<tag k="place" v="farm" />
		<tag k="ssr:stedsnr" v="123527" />
		<tag k="ssr:type" v="gard" />
	</node>
	<node id="5678329214" lat="59.0412917" lon="9.6893167" version="1" timestamp="2018-06-09T19:01:21Z" changeset="59697439" uid="3842253" user="NKA_import">
		<tag k="name" v="Krabberød" />
		<tag k="place" v="farm" />
		<tag k="ssr:stedsnr" v="123550" />
		<tag k="ssr:type" v="bruk" />
	</node>
	<node id="5678329215" lat="59.0139611" lon="9.5558139" version="1" timestamp="2018-06-09T19:01:21Z" changeset="59697439" uid="3842253" user="NKA_import">
		<tag k="alt_name" v="Solvang" />
		<tag k="name" v="Solvang" />
		<tag k="place" v="farm" />
		<tag k="ssr:stedsnr" v="123699" />
		<tag k="ssr:type" v="bruk" />
	</node>
	<node id="5678329216" lat="59.0043167" lon="9.3843611" version="1" timestamp="2018-06-09T19:01:21Z" changeset="59697439" uid="3842253" user="NKA_import">
		<tag k="name" v="Hesthagen" />
		<tag k="place" v="farm" />
		<tag k="ssr:stedsnr" v="123711" />
		<tag k="ssr:type" v="bruk" />
	</node>
	<node id="5678329217" lat="59.0052389" lon="9.6516111" version="1" timestamp="2018-06-09T19:01:21Z" changeset="59697439" uid="3842253" user="NKA_import">
		<tag k="name" v="Steinsrønningen" />
		<tag k="place" v="locality" />
		<tag k="ssr:stedsnr" v="847822" />
		<tag k="ssr:type" v="gammelBosettingsplass" />
	</node>
	<node id="5678329218" lat="58.9947667" lon="9.5983028" version="1" timestamp="2018-06-09T19:01:21Z" changeset="59697439" uid="3842253" user="NKA_import">
		<tag k="name" v="Myrane" />
		<tag k="place" v="locality" />
		<tag k="ssr:stedsnr" v="405362" />
		<tag k="ssr:type" v="gammelBosettingsplass" />
	</node>
	<node id="5678329219" lat="58.9572694" lon="9.5862694" version="1" timestamp="2018-06-09T19:01:21Z" changeset="59697439" uid="3842253" user="NKA_import">
		<tag k="name" v="Kilen" />
		<tag k="place" v="farm" />
		<tag k="ssr:stedsnr" v="585829" />
		<tag k="ssr:type" v="bruk" />
	</node>
	<node id="5678329220" lat="58.9902" lon="9.3740778" version="1" timestamp="2018-06-09T19:01:21Z" changeset="59697439" uid="3842253" user="NKA_import">
		<tag k="name" v="Plassen" />
		<tag k="place" v="locality" />
		<tag k="ssr:stedsnr" v="585857" />
		<tag k="ssr:type" v="gammelBosettingsplass" />
	</node>
	<node id="5678329221" lat="59.0411306" lon="9.6127" version="1" timestamp="2018-06-09T19:01:21Z" changeset="59697439" uid="3842253" user="NKA_import">
		<tag k="name" v="Midtre Herum" />
		<tag k="place" v="farm" />
		<tag k="ssr:stedsnr" v="847217" />
		<tag k="ssr:type" v="bruk" />
	</node>
	<node id="5678329222" lat="59.0277167" lon="9.5521583" version="1" timestamp="2018-06-09T19:01:21Z" changeset="59697439" uid="3842253" user="NKA_import">
		<tag k="name" v="Heivannsplassen" />
		<tag k="place" v="locality" />
		<tag k="ssr:stedsnr" v="405428" />
		<tag k="ssr:type" v="gammelBosettingsplass" />
	</node>
	<node id="5678329223" lat="58.9943667" lon="9.6329972" version="1" timestamp="2018-06-09T19:01:21Z" changeset="59697439" uid="3842253" user="NKA_import">
		<tag k="name" v="Grønnvoll" />
		<tag k="place" v="locality" />
		<tag k="ssr:stedsnr" v="847279" />
		<tag k="ssr:type" v="gammelBosettingsplass" />
	</node>
	<node id="5678329224" lat="59.0401389" lon="9.5704167" version="1" timestamp="2018-06-09T19:01:22Z" changeset="59697439" uid="3842253" user="NKA_import">
		<tag k="historic" v="shieling" />
		<tag k="name" v="Søtholtseteren" />
		<tag k="place" v="locality" />
		<tag k="ssr:stedsnr" v="146894" />
		<tag k="ssr:type" v="gammelBosettingsplass" />
	</node>
	<node id="5678329225" lat="59.0875167" lon="9.6119639" version="1" timestamp="2018-06-09T19:01:22Z" changeset="59697439" uid="3842253" user="NKA_import">
		<tag k="name" v="Kolaberget" />
		<tag k="place" v="locality" />
		<tag k="ssr:stedsnr" v="847928" />
		<tag k="ssr:type" v="gammelBosettingsplass" />
	</node>
	<node id="5678329226" lat="59.0113556" lon="9.6651" version="1" timestamp="2018-06-09T19:01:22Z" changeset="59697439" uid="3842253" user="NKA_import">
		<tag k="name" v="Bjørklund" />
		<tag k="place" v="isolated_dwelling" />
		<tag k="ssr:stedsnr" v="160059" />
		<tag k="ssr:type" v="eneboligMindreBoligbygg" />
	</node>
	<node id="5678329227" lat="58.9628222" lon="9.5577444" version="1" timestamp="2018-06-09T19:01:22Z" changeset="59697439" uid="3842253" user="NKA_import">
		<tag k="name" v="Knatten" />
		<tag k="place" v="neighbourhood" />
		<tag k="ssr:stedsnr" v="585989" />
		<tag k="ssr:type" v="boligfelt" />
	</node>
	<node id="5678329228" lat="58.991225" lon="9.3705083" version="1" timestamp="2018-06-09T19:01:22Z" changeset="59697439" uid="3842253" user="NKA_import">
		<tag k="alt_name" v="Dalane" />
		<tag k="name" v="Dalene" />
		<tag k="place" v="farm" />
		<tag k="ssr:stedsnr" v="850369" />
		<tag k="ssr:type" v="bruk" />
	</node>
	<node id="5678329229" lat="58.9923556" lon="9.644325" version="1" timestamp="2018-06-09T19:01:22Z" changeset="59697439" uid="3842253" user="NKA_import">
		<tag k="name" v="Utgården" />
		<tag k="place" v="farm" />
		<tag k="ssr:stedsnr" v="850558" />
		<tag k="ssr:type" v="gard" />
	</node>
	<node id="5678329230" lat="59.0262255" lon="9.7126951" version="1" timestamp="2018-06-09T19:01:22Z" changeset="59697439" uid="3842253" user="NKA_import">
		<tag k="name" v="Eik næringsområde" />
		<tag k="place" v="neighbourhood" />
		<tag k="ssr:stedsnr" v="405788" />
		<tag k="ssr:type" v="industriområde" />
	</node>
	<node id="5678329231" lat="59.0123278" lon="9.6909472" version="1" timestamp="2018-06-09T19:01:22Z" changeset="59697439" uid="3842253" user="NKA_import">
		<tag k="alt_name" v="Rogn, midtre;Midt-Rogn" />
		<tag k="name" v="Midtre Rogn" />
		<tag k="place" v="farm" />
		<tag k="ssr:stedsnr" v="851243" />
		<tag k="ssr:type" v="gard" />
	</node>
	<node id="5678329232" lat="58.9562806" lon="9.5267444" version="1" timestamp="2018-06-09T19:01:22Z" changeset="59697439" uid="3842253" user="NKA_import">
		<tag k="alt_name" v="Hartveit" />
		<tag k="name" v="Midtre Hartveit" />
		<tag k="place" v="farm" />
		<tag k="ssr:stedsnr" v="405967" />
		<tag k="ssr:type" v="bruk" />
	</node>
	<node id="5678329233" lat="59.0269639" lon="9.6675944" version="1" timestamp="2018-06-09T19:01:23Z" changeset="59697439" uid="3842253" user="NKA_import">
		<tag k="alt_name" v="Rugtveit" />
		<tag k="name" v="Rugtvedt" />
		<tag k="place" v="farm" />
		<tag k="ssr:stedsnr" v="851265" />
		<tag k="ssr:type" v="bruk" />
	</node>
	<node id="5678329234" lat="58.9513611" lon="9.4165556" version="2" timestamp="2021-04-21T19:09:32Z" changeset="103360680" uid="3497659" user="NKA">
		<tag k="name" v="Plassen" />
		<tag k="place" v="isolated_dwelling" />
		<tag k="ssr:stedsnr" v="851275" />
		<tag k="ssr:type" v="fritidsbolig" />
	</node>
	<node id="5678329235" lat="58.9459472" lon="9.496925" version="1" timestamp="2018-06-09T19:01:23Z" changeset="59697439" uid="3842253" user="NKA_import">
		<tag k="name" v="Froste" />
		<tag k="place" v="hamlet" />
		<tag k="ssr:stedsnr" v="851286" />
		<tag k="ssr:type" v="bruk" />
	</node>
	<node id="5678329236" lat="59.0699694" lon="9.6101833" version="1" timestamp="2018-06-09T19:01:23Z" changeset="59697439" uid="3842253" user="NKA_import">
		<tag k="alt_name" v="Kosa" />
		<tag k="name" v="Kåsa" />
		<tag k="place" v="farm" />
		<tag k="ssr:stedsnr" v="851388" />
		<tag k="ssr:type" v="bruk" />
	</node>
	<node id="5678329237" lat="59.0718917" lon="9.6268222" version="1" timestamp="2018-06-09T19:01:23Z" changeset="59697439" uid="3842253" user="NKA_import">
		<tag k="name" v="Kastet" />
		<tag k="place" v="isolated_dwelling" />
		<tag k="ssr:stedsnr" v="413571" />
		<tag k="ssr:type" v="eneboligMindreBoligbygg" />
	</node>
	<node id="5678329238" lat="59.0544333" lon="9.6079722" version="1" timestamp="2018-06-09T19:01:23Z" changeset="59697439" uid="3842253" user="NKA_import">
		<tag k="name" v="Garstad" />
		<tag k="place" v="farm" />
		<tag k="ssr:stedsnr" v="851419" />
		<tag k="ssr:type" v="gard" />
	</node>
	<node id="5678329239" lat="59.0763806" lon="9.6044528" version="1" timestamp="2018-06-09T19:01:23Z" changeset="59697439" uid="3842253" user="NKA_import">
		<tag k="name" v="Nedre Asdal" />
		<tag k="place" v="farm" />
		<tag k="ssr:stedsnr" v="473550" />
		<tag k="ssr:type" v="gard" />
	</node>
	<node id="5678329240" lat="58.9345111" lon="9.5225222" version="1" timestamp="2018-06-09T19:01:24Z" changeset="59697439" uid="3842253" user="NKA_import">
		<tag k="name" v="Hovet" />
		<tag k="place" v="farm" />
		<tag k="ssr:stedsnr" v="586658" />
		<tag k="ssr:type" v="bruk" />
	</node>
	<node id="5678329241" lat="59.0316972" lon="9.6479722" version="1" timestamp="2018-06-09T19:01:24Z" changeset="59697439" uid="3842253" user="NKA_import">
		<tag k="alt_name" v="Lina" />
		<tag k="name" v="Linna" />
		<tag k="place" v="farm" />
		<tag k="ssr:stedsnr" v="851449" />
		<tag k="ssr:type" v="gard" />
	</node>
	<node id="5678329242" lat="58.9995889" lon="9.3465778" version="1" timestamp="2018-06-09T19:01:24Z" changeset="59697439" uid="3842253" user="NKA_import">
		<tag k="name" v="Åsland" />
		<tag k="place" v="farm" />
		<tag k="ssr:stedsnr" v="160821" />
		<tag k="ssr:type" v="bruk" />
	</node>
	<node id="5678329243" lat="59.0023028" lon="9.3949944" version="1" timestamp="2018-06-09T19:01:24Z" changeset="59697439" uid="3842253" user="NKA_import">
		<tag k="name" v="Rørholt" />
		<tag k="place" v="farm" />
		<tag k="ssr:stedsnr" v="851669" />
		<tag k="ssr:type" v="bruk" />
	</node>
	<node id="5678329244" lat="59.1002194" lon="9.568875" version="1" timestamp="2018-06-09T19:01:24Z" changeset="59697439" uid="3842253" user="NKA_import">
		<tag k="name" v="Kåsa" />
		<tag k="place" v="isolated_dwelling" />
		<tag k="ssr:stedsnr" v="851740" />
		<tag k="ssr:type" v="eneboligMindreBoligbygg" />
	</node>
	<node id="5678329245" lat="59.1137917" lon="9.5371917" version="1" timestamp="2018-06-09T19:01:24Z" changeset="59697439" uid="3842253" user="NKA_import">
		<tag k="name" v="Siljan" />
		<tag k="place" v="farm" />
		<tag k="ssr:stedsnr" v="851788" />
		<tag k="ssr:type" v="gard" />
	</node>
	<node id="5678329246" lat="59.1233944" lon="9.5320833" version="1" timestamp="2018-06-09T19:01:24Z" changeset="59697439" uid="3842253" user="NKA_import">
		<tag k="name" v="Gårdem" />
		<tag k="place" v="farm" />
		<tag k="ssr:stedsnr" v="851810" />
		<tag k="ssr:type" v="bruk" />
	</node>
	<node id="5678329247" lat="58.9605222" lon="9.46085" version="1" timestamp="2018-06-09T19:01:24Z" changeset="59697439" uid="3842253" user="NKA_import">
		<tag k="name" v="Grådalen" />
		<tag k="place" v="isolated_dwelling" />
		<tag k="ssr:stedsnr" v="587679" />
		<tag k="ssr:type" v="eneboligMindreBoligbygg" />
	</node>
	<node id="5678329248" lat="58.9733444" lon="9.6031528" version="1" timestamp="2018-06-09T19:01:24Z" changeset="59697439" uid="3842253" user="NKA_import">
		<tag k="name" v="Østre Glittum" />
		<tag k="place" v="farm" />
		<tag k="ssr:stedsnr" v="889442" />
		<tag k="ssr:type" v="gard" />
	</node>
	<node id="5678329249" lat="59.0138778" lon="9.5752972" version="1" timestamp="2018-06-09T19:01:24Z" changeset="59697439" uid="3842253" user="NKA_import">
		<tag k="name" v="Tangen" />
		<tag k="place" v="farm" />
		<tag k="ssr:stedsnr" v="162427" />
		<tag k="ssr:type" v="bruk" />
	</node>
	<node id="5678329250" lat="59.04175" lon="9.6960889" version="1" timestamp="2018-06-09T19:01:24Z" changeset="59697439" uid="3842253" user="NKA_import">
		<tag k="name" v="Kjellestad" />
		<tag k="place" v="farm" />
		<tag k="ssr:stedsnr" v="905146" />
		<tag k="ssr:type" v="gard" />
	</node>
	<node id="5678329251" lat="58.9903694" lon="9.3880861" version="1" timestamp="2018-06-09T19:01:25Z" changeset="59697439" uid="3842253" user="NKA_import">
		<tag k="name" v="Velta" />
		<tag k="place" v="locality" />
		<tag k="ssr:stedsnr" v="889633" />
		<tag k="ssr:type" v="gammelBosettingsplass" />
	</node>
	<node id="5678329252" lat="59.0833256" lon="9.6186166" version="1" timestamp="2018-06-09T19:01:25Z" changeset="59697439" uid="3842253" user="NKA_import">
		<tag k="name" v="Asdaltangen petrokjemianlegg" />
		<tag k="place" v="neighbourhood" />
		<tag k="ssr:stedsnr" v="601695" />
		<tag k="ssr:type" v="industriområde" />
	</node>
	<node id="5678329253" lat="58.9994417" lon="9.733475" version="1" timestamp="2018-06-09T19:01:25Z" changeset="59697439" uid="3842253" user="NKA_import">
		<tag k="name" v="Kjerrvika" />
		<tag k="place" v="neighbourhood" />
		<tag k="ssr:stedsnr" v="905548" />
		<tag k="ssr:type" v="hyttefelt" />
	</node>
	<node id="5678329254" lat="59.0172667" lon="9.5719139" version="1" timestamp="2018-06-09T19:01:25Z" changeset="59697439" uid="3842253" user="NKA_import">
		<tag k="name" v="Kjelly" />
		<tag k="place" v="farm" />
		<tag k="ssr:stedsnr" v="162445" />
		<tag k="ssr:type" v="bruk" />
	</node>
	<node id="5678329255" lat="59.0178778" lon="9.4569917" version="2" timestamp="2021-04-21T19:09:32Z" changeset="103360680" uid="3497659" user="NKA">
		<tag k="name" v="Fjølbu" />
		<tag k="place" v="isolated_dwelling" />
		<tag k="ssr:stedsnr" v="162467" />
		<tag k="ssr:type" v="fritidsbolig" />
	</node>
	<node id="5678329256" lat="59.0225917" lon="9.7174944" version="1" timestamp="2018-06-09T19:01:25Z" changeset="59697439" uid="3842253" user="NKA_import">
		<tag k="name" v="Eik skole" />
		<tag k="place" v="locality" />
		<tag k="ssr:stedsnr" v="905764" />
		<tag k="ssr:type" v="byggForJordbrukFiskeOgFangst" />
	</node>
	<node id="5678329257" lat="59.0196611" lon="9.6188" version="1" timestamp="2018-06-09T19:01:25Z" changeset="59697439" uid="3842253" user="NKA_import">
		<tag k="alt_name" v="Lillehøn" />
		<tag k="name" v="Lille Høen" />
		<tag k="old_name" v="Høn, l" />
		<tag k="place" v="farm" />
		<tag k="ssr:stedsnr" v="607280" />
		<tag k="ssr:type" v="bruk" />
	</node>
	<node id="5678329258" lat="58.9457861" lon="9.4555917" version="1" timestamp="2018-06-09T19:01:25Z" changeset="59697439" uid="3842253" user="NKA_import">
		<tag k="alt_name" v="Mollefjell" />
		<tag k="name" v="Moldfjell" />
		<tag k="place" v="farm" />
		<tag k="ssr:stedsnr" v="607315" />
		<tag k="ssr:type" v="bruk" />
	</node>
	<node id="5678329259" lat="59.0078472" lon="9.6346583" version="1" timestamp="2018-06-09T19:01:25Z" changeset="59697439" uid="3842253" user="NKA_import">
		<tag k="alt_name" v="Skaugen" />
		<tag k="name" v="Skogen" />
		<tag k="place" v="farm" />
		<tag k="ssr:stedsnr" v="607318" />
		<tag k="ssr:type" v="bruk" />
	</node>
	<node id="5678329260" lat="59.014025" lon="9.6581056" version="1" timestamp="2018-06-09T19:01:25Z" changeset="59697439" uid="3842253" user="NKA_import">
		<tag k="alt_name" v="Lønnrygg" />
		<tag k="name" v="Lønnrik" />
		<tag k="place" v="farm" />
		<tag k="ssr:stedsnr" v="607319" />
		<tag k="ssr:type" v="bruk" />
	</node>
	<node id="5678329261" lat="58.9798778" lon="9.5492667" version="1" timestamp="2018-06-09T19:01:26Z" changeset="59697439" uid="3842253" user="NKA_import">
		<tag k="alt_name" v="Roslandsdalen" />
		<tag k="name" v="Roslanddalen" />
		<tag k="place" v="farm" />
		<tag k="ssr:stedsnr" v="607328" />
		<tag k="ssr:type" v="bruk" />
	</node>
	<node id="5678329262" lat="58.9889167" lon="9.5875611" version="1" timestamp="2018-06-09T19:01:26Z" changeset="59697439" uid="3842253" user="NKA_import">
		<tag k="name" v="Hettemyr" />
		<tag k="place" v="isolated_dwelling" />
		<tag k="ssr:stedsnr" v="607337" />
		<tag k="ssr:type" v="eneboligMindreBoligbygg" />
	</node>
	<node id="5678329263" lat="59.019275" lon="9.6881278" version="1" timestamp="2018-06-09T19:01:26Z" changeset="59697439" uid="3842253" user="NKA_import">
		<tag k="name" v="Tangvall" />
		<tag k="old_name" v="Tangval" />
		<tag k="place" v="farm" />
		<tag k="ssr:stedsnr" v="911274" />
		<tag k="ssr:type" v="bruk" />
	</node>
	<node id="5678329264" lat="58.9327222" lon="9.5703611" version="1" timestamp="2018-06-09T19:01:26Z" changeset="59697439" uid="3842253" user="NKA_import">
		<tag k="alt_name" v="Våg" />
		<tag k="name" v="Vestre Våg" />
		<tag k="place" v="farm" />
		<tag k="ssr:stedsnr" v="911284" />
		<tag k="ssr:type" v="gard" />
	</node>
	<node id="5678329265" lat="58.9596167" lon="9.5353889" version="1" timestamp="2018-06-09T19:01:26Z" changeset="59697439" uid="3842253" user="NKA_import">
		<tag k="name" v="Lund" />
		<tag k="place" v="isolated_dwelling" />
		<tag k="ssr:stedsnr" v="162976" />
		<tag k="ssr:type" v="eneboligMindreBoligbygg" />
	</node>
	<node id="5678329266" lat="58.9813861" lon="9.6042056" version="1" timestamp="2018-06-09T19:01:26Z" changeset="59697439" uid="3842253" user="NKA_import">
		<tag k="name" v="Kjær" />
		<tag k="place" v="farm" />
		<tag k="ssr:stedsnr" v="607625" />
		<tag k="ssr:type" v="gard" />
	</node>
	<node id="5678329267" lat="58.990575" lon="9.4024" version="1" timestamp="2018-06-09T19:01:26Z" changeset="59697439" uid="3842253" user="NKA_import">
		<tag k="name" v="Mo" />
		<tag k="place" v="farm" />
		<tag k="ssr:stedsnr" v="911341" />
		<tag k="ssr:type" v="gard" />
	</node>
	<node id="5678329268" lat="58.9724" lon="9.5080555" version="1" timestamp="2018-06-09T19:01:26Z" changeset="59697439" uid="3842253" user="NKA_import">
		<tag k="name" v="Langrønningen" />
		<tag k="place" v="farm" />
		<tag k="ssr:stedsnr" v="911344" />
		<tag k="ssr:type" v="bruk" />
	</node>
	<node id="5678329269" lat="58.9957861" lon="9.4357583" version="1" timestamp="2018-06-09T19:01:26Z" changeset="59697439" uid="3842253" user="NKA_import">
		<tag k="name" v="Grasdalen" />
		<tag k="place" v="locality" />
		<tag k="ssr:stedsnr" v="889955" />
		<tag k="ssr:type" v="gammelBosettingsplass" />
	</node>
	<node id="5678329270" lat="59.0357278" lon="9.4186556" version="1" timestamp="2018-06-09T19:01:27Z" changeset="59697439" uid="3842253" user="NKA_import">
		<tag k="alt_name" v="Hundkilen" />
		<tag k="name" v="Lille Hundkilen" />
		<tag k="place" v="locality" />
		<tag k="ssr:stedsnr" v="607802" />
		<tag k="ssr:type" v="gammelBosettingsplass" />
	</node>
	<node id="5678329271" lat="58.9890528" lon="9.59475" version="1" timestamp="2018-06-09T19:01:27Z" changeset="59697439" uid="3842253" user="NKA_import">
		<tag k="alt_name" v="Nystein, vestre" />
		<tag k="name" v="Vestre Nystein" />
		<tag k="place" v="farm" />
		<tag k="ssr:stedsnr" v="911580" />
		<tag k="ssr:type" v="bruk" />
	</node>
	<node id="5678329272" lat="59.052525" lon="9.589775" version="1" timestamp="2018-06-09T19:01:27Z" changeset="59697439" uid="3842253" user="NKA_import">
		<tag k="alt_name" v="Bergsvatn" />
		<tag k="name" v="Bergsvann" />
		<tag k="place" v="farm" />
		<tag k="ssr:stedsnr" v="607824" />
		<tag k="ssr:type" v="bruk" />
	</node>
	<node id="5678329273" lat="58.9634472" lon="9.6268116" version="1" timestamp="2018-06-09T19:01:27Z" changeset="59697439" uid="3842253" user="NKA_import">
		<tag k="name" v="Melby" />
		<tag k="place" v="hamlet" />
		<tag k="ssr:stedsnr" v="607866" />
		<tag k="ssr:type" v="gard" />
	</node>
	<node id="5678329274" lat="58.9787" lon="9.6328611" version="1" timestamp="2018-06-09T19:01:27Z" changeset="59697439" uid="3842253" user="NKA_import">
		<tag k="alt_name" v="Grobstok" />
		<tag k="name" v="Grostokk" />
		<tag k="place" v="farm" />
		<tag k="ssr:stedsnr" v="911629" />
		<tag k="ssr:type" v="gard" />
	</node>
	<node id="5678329275" lat="59.059925" lon="9.5094083" version="1" timestamp="2018-06-09T19:01:27Z" changeset="59697439" uid="3842253" user="NKA_import">
		<tag k="alt_name" v="Hovstein, store;Hofstein" />
		<tag k="loc_name" v="Hovstein" />
		<tag k="name" v="Store Hovstein" />
		<tag k="place" v="farm" />
		<tag k="ssr:stedsnr" v="911842" />
		<tag k="ssr:type" v="bruk" />
	</node>
	<node id="5678329276" lat="58.9449427" lon="9.6236085" version="1" timestamp="2018-06-09T19:01:27Z" changeset="59697439" uid="3842253" user="NKA_import">
		<tag k="name" v="Kjønnøya" />
		<tag k="old_name" v="Tjørnøya" />
		<tag k="place" v="farm" />
		<tag k="ssr:stedsnr" v="607898" />
		<tag k="ssr:type" v="gard" />
	</node>
	<node id="5678329277" lat="58.9722" lon="9.6295778" version="2" timestamp="2021-04-21T19:09:32Z" changeset="103360680" uid="3497659" user="NKA">
		<tag k="name" v="Moland" />
		<tag k="place" v="isolated_dwelling" />
		<tag k="ssr:stedsnr" v="911869" />
		<tag k="ssr:type" v="fritidsbolig" />
	</node>
	<node id="5678329278" lat="58.9731" lon="9.6457028" version="1" timestamp="2018-06-09T19:01:27Z" changeset="59697439" uid="3842253" user="NKA_import">
		<tag k="alt_name" v="Brevik, vestre" />
		<tag k="name" v="Vestre Brevik" />
		<tag k="place" v="farm" />
		<tag k="ssr:stedsnr" v="911870" />
		<tag k="ssr:type" v="gard" />
	</node>
	<node id="5678329279" lat="59.0625957" lon="9.6245358" version="1" timestamp="2018-06-09T19:01:28Z" changeset="59697439" uid="3842253" user="NKA_import">
		<tag k="name" v="Surtebogen" />
		<tag k="place" v="hamlet" />
		<tag k="ssr:stedsnr" v="608473" />
		<tag k="ssr:type" v="bygdelagBygd" />
	</node>
	<node id="5678329280" lat="59.0465666" lon="9.6615543" version="1" timestamp="2018-06-09T19:01:28Z" changeset="59697439" uid="3842253" user="NKA_import">
		<tag k="alt_name" v="Kokkeplassen" />
		<tag k="name" v="Cocheplassen" />
		<tag k="place" v="quarter" />
		<tag k="ssr:stedsnr" v="177130" />
		<tag k="ssr:type" v="boligfelt" />
	</node>
	<node id="5678329281" lat="59.0227" lon="9.5388361" version="1" timestamp="2018-06-09T19:01:28Z" changeset="59697439" uid="3842253" user="NKA_import">
		<tag k="alt_name" v="Røyrmyr" />
		<tag k="name" v="Røymyr" />
		<tag k="place" v="farm" />
		<tag k="ssr:stedsnr" v="608694" />
		<tag k="ssr:type" v="bruk" />
	</node>
	<node id="5678329282" lat="59.0277722" lon="9.5597528" version="1" timestamp="2018-06-09T19:01:28Z" changeset="59697439" uid="3842253" user="NKA_import">
		<tag k="alt_name" v="Heivatn;Heivannet" />
		<tag k="name" v="Heivann" />
		<tag k="place" v="farm" />
		<tag k="ssr:stedsnr" v="608697" />
		<tag k="ssr:type" v="bruk" />
	</node>
	<node id="5678329283" lat="59.0156778" lon="9.5648944" version="1" timestamp="2018-06-09T19:01:28Z" changeset="59697439" uid="3842253" user="NKA_import">
		<tag k="name" v="Vallekåsa" />
		<tag k="place" v="farm" />
		<tag k="ssr:stedsnr" v="890435" />
		<tag k="ssr:type" v="bruk" />
	</node>
	<node id="5678329284" lat="59.0252694" lon="9.3534528" version="1" timestamp="2018-06-09T19:01:28Z" changeset="59697439" uid="3842253" user="NKA_import">
		<tag k="alt_name" v="Skardelva" />
		<tag k="name" v="Skareelva" />
		<tag k="place" v="locality" />
		<tag k="ssr:stedsnr" v="912271" />
		<tag k="ssr:type" v="gammelBosettingsplass" />
	</node>
	<node id="5678329285" lat="58.9412714" lon="9.6220375" version="1" timestamp="2018-06-09T19:01:28Z" changeset="59697439" uid="3842253" user="NKA_import">
		<tag k="name" v="Kjønnøya" />
		<tag k="place" v="hamlet" />
		<tag k="ssr:stedsnr" v="628909" />
		<tag k="ssr:type" v="grend" />
	</node>
	<node id="5678329286" lat="59.0269465" lon="9.7174443" version="1" timestamp="2018-06-09T19:01:28Z" changeset="59697439" uid="3842253" user="NKA_import">
		<tag k="name" v="Eik" />
		<tag k="place" v="suburb" />
		<tag k="ssr:stedsnr" v="912285" />
		<tag k="ssr:type" v="gard" />
	</node>
	<node id="5678329287" lat="59.0353128" lon="9.7144756" version="1" timestamp="2018-06-09T19:01:28Z" changeset="59697439" uid="3842253" user="NKA_import">
		<tag k="alt_name" v="Eikstranda;Eikstranden" />
		<tag k="loc_name" v="Eiksstrand" />
		<tag k="name" v="Eikstrand" />
		<tag k="place" v="neighbourhood" />
		<tag k="ssr:stedsnr" v="912503" />
		<tag k="ssr:type" v="tettsted" />
	</node>
	<node id="5678329288" lat="59.0164833" lon="9.578425" version="1" timestamp="2018-06-09T19:01:28Z" changeset="59697439" uid="3842253" user="NKA_import">
		<tag k="name" v="Kjellemyr" />
		<tag k="place" v="farm" />
		<tag k="ssr:stedsnr" v="912679" />
		<tag k="ssr:type" v="bruk" />
	</node>
	<node id="5678329289" lat="59.0686083" lon="9.6290583" version="1" timestamp="2018-06-09T19:01:28Z" changeset="59697439" uid="3842253" user="NKA_import">
		<tag k="name" v="Frønseplassen" />
		<tag k="place" v="isolated_dwelling" />
		<tag k="ssr:stedsnr" v="179477" />
		<tag k="ssr:type" v="eneboligMindreBoligbygg" />
	</node>
	<node id="5678329290" lat="59.0052889" lon="9.3741889" version="1" timestamp="2018-06-09T19:01:28Z" changeset="59697439" uid="3842253" user="NKA_import">
		<tag k="name" v="Modalen" />
		<tag k="place" v="farm" />
		<tag k="ssr:stedsnr" v="912692" />
		<tag k="ssr:type" v="bruk" />
	</node>
	<node id="5678329291" lat="59.0047972" lon="9.5691583" version="1" timestamp="2018-06-09T19:01:29Z" changeset="59697439" uid="3842253" user="NKA_import">
		<tag k="name" v="Kil" />
		<tag k="place" v="farm" />
		<tag k="ssr:stedsnr" v="912694" />
		<tag k="ssr:type" v="bruk" />
	</node>
	<node id="5678329292" lat="59.0996556" lon="9.5412833" version="1" timestamp="2018-06-09T19:01:29Z" changeset="59697439" uid="3842253" user="NKA_import">
		<tag k="name" v="Galane" />
		<tag k="place" v="neighbourhood" />
		<tag k="ssr:stedsnr" v="179968" />
		<tag k="ssr:type" v="boligfelt" />
	</node>
	<node id="5678329293" lat="59.0370667" lon="9.7129667" version="2" timestamp="2021-04-21T19:09:32Z" changeset="103360680" uid="3497659" user="NKA">
		<tag k="name" v="Ekstrand båtbyggeri" />
		<tag k="place" v="locality" />
		<tag k="ssr:stedsnr" v="180755" />
		<tag k="ssr:type" v="annenIndustri-OgLagerbygning" />
	</node>
	<node id="5678329294" lat="59.0239111" lon="9.3975944" version="1" timestamp="2018-06-09T19:01:29Z" changeset="59697439" uid="3842253" user="NKA_import">
		<tag k="name" v="Sneltvedt" />
		<tag k="place" v="locality" />
		<tag k="ssr:stedsnr" v="891079" />
		<tag k="ssr:type" v="gammelBosettingsplass" />
	</node>
	<node id="5678329295" lat="58.9300972" lon="9.539275" version="2" timestamp="2021-04-21T19:09:32Z" changeset="103360680" uid="3497659" user="NKA">
		<tag k="name" v="Isnes" />
		<tag k="place" v="isolated_dwelling" />
		<tag k="ssr:stedsnr" v="182265" />
		<tag k="ssr:type" v="fritidsbolig" />
	</node>
	<node id="5678329296" lat="59.0186056" lon="9.6737806" version="1" timestamp="2018-06-09T19:01:29Z" changeset="59697439" uid="3842253" user="NKA_import">
		<tag k="alt_name" v="Norheim" />
		<tag k="name" v="Nordheim" />
		<tag k="place" v="farm" />
		<tag k="ssr:stedsnr" v="183238" />
		<tag k="ssr:type" v="bruk" />
	</node>
	<node id="5678329297" lat="59.022275" lon="9.3931056" version="1" timestamp="2018-06-09T19:01:29Z" changeset="59697439" uid="3842253" user="NKA_import">
		<tag k="historic" v="shieling" />
		<tag k="name" v="Lilløyseter" />
		<tag k="place" v="locality" />
		<tag k="ssr:stedsnr" v="645007" />
		<tag k="ssr:type" v="gammelBosettingsplass" />
	</node>
	<node id="5678329298" lat="58.9432139" lon="9.5073" version="1" timestamp="2018-06-09T19:01:29Z" changeset="59697439" uid="3842253" user="NKA_import">
		<tag k="alt_name" v="Østre Grimsrød" />
		<tag k="name" v="Grimsrød, østre" />
		<tag k="place" v="farm" />
		<tag k="ssr:stedsnr" v="183243" />
		<tag k="ssr:type" v="bruk" />
	</node>
	<node id="5678329299" lat="59.0766583" lon="9.6274861" version="1" timestamp="2018-06-09T19:01:29Z" changeset="59697439" uid="3842253" user="NKA_import">
		<tag k="alt_name" v="Stoe;Sloet" />
		<tag k="name" v="Stoet" />
		<tag k="place" v="isolated_dwelling" />
		<tag k="ssr:stedsnr" v="935230" />
		<tag k="ssr:type" v="eneboligMindreBoligbygg" />
	</node>
	<node id="5678329300" lat="58.9388611" lon="9.4815139" version="1" timestamp="2018-06-09T19:01:29Z" changeset="59697439" uid="3842253" user="NKA_import">
		<tag k="name" v="Smørvika" />
		<tag k="place" v="farm" />
		<tag k="ssr:stedsnr" v="183244" />
		<tag k="ssr:type" v="bruk" />
	</node>
	<node id="5678329301" lat="58.9537" lon="9.4302667" version="1" timestamp="2018-06-09T19:01:29Z" changeset="59697439" uid="3842253" user="NKA_import">
		<tag k="alt_name" v="Skaugen" />
		<tag k="name" v="Skogen" />
		<tag k="place" v="farm" />
		<tag k="ssr:stedsnr" v="183256" />
		<tag k="ssr:type" v="bruk" />
	</node>
	<node id="5678329302" lat="58.9354083" lon="9.5608667" version="1" timestamp="2018-06-09T19:01:29Z" changeset="59697439" uid="3842253" user="NKA_import">
		<tag k="name" v="Kjerra" />
		<tag k="place" v="isolated_dwelling" />
		<tag k="ssr:stedsnr" v="949005" />
		<tag k="ssr:type" v="eneboligMindreBoligbygg" />
	</node>
	<node id="5678329303" lat="58.9532833" lon="9.5378111" version="1" timestamp="2018-06-09T19:01:30Z" changeset="59697439" uid="3842253" user="NKA_import">
		<tag k="name" v="Ringsjø" />
		<tag k="place" v="farm" />
		<tag k="ssr:stedsnr" v="183258" />
		<tag k="ssr:type" v="gard" />
	</node>
	<node id="5678329304" lat="58.9846806" lon="9.5909389" version="1" timestamp="2018-06-09T19:01:30Z" changeset="59697439" uid="3842253" user="NKA_import">
		<tag k="name" v="Plassen" />
		<tag k="place" v="locality" />
		<tag k="ssr:stedsnr" v="645575" />
		<tag k="ssr:type" v="gammelBosettingsplass" />
	</node>
	<node id="5678329305" lat="58.9365444" lon="9.4937361" version="1" timestamp="2018-06-09T19:01:30Z" changeset="59697439" uid="3842253" user="NKA_import">
		<tag k="historic" v="shieling" />
		<tag k="name" v="Seteren" />
		<tag k="place" v="locality" />
		<tag k="ssr:stedsnr" v="891661" />
		<tag k="ssr:type" v="gammelBosettingsplass" />
	</node>
	<node id="5678329306" lat="58.9544361" lon="9.5806" version="1" timestamp="2018-06-09T19:01:30Z" changeset="59697439" uid="3842253" user="NKA_import">
		<tag k="name" v="Valsrød" />
		<tag k="place" v="farm" />
		<tag k="ssr:stedsnr" v="183262" />
		<tag k="ssr:type" v="bruk" />
	</node>
	<node id="5678329307" lat="59.0099889" lon="9.7145806" version="1" timestamp="2018-06-09T19:01:30Z" changeset="59697439" uid="3842253" user="NKA_import">
		<tag k="name" v="Sandvika" />
		<tag k="place" v="farm" />
		<tag k="ssr:stedsnr" v="183272" />
		<tag k="ssr:type" v="bruk" />
	</node>
	<node id="5678329308" lat="58.9386389" lon="9.5688972" version="1" timestamp="2018-06-09T19:01:30Z" changeset="59697439" uid="3842253" user="NKA_import">
		<tag k="name" v="Hagen" />
		<tag k="place" v="isolated_dwelling" />
		<tag k="ssr:stedsnr" v="645802" />
		<tag k="ssr:type" v="eneboligMindreBoligbygg" />
	</node>
	<node id="5678329309" lat="59.0232417" lon="9.7039028" version="1" timestamp="2018-06-09T19:01:30Z" changeset="59697439" uid="3842253" user="NKA_import">
		<tag k="name" v="Klot" />
		<tag k="place" v="locality" />
		<tag k="ssr:stedsnr" v="949066" />
		<tag k="ssr:type" v="gammelBosettingsplass" />
	</node>
	<node id="5678329310" lat="58.9608534" lon="9.4295699" version="2" timestamp="2021-04-21T19:09:32Z" changeset="103360680" uid="3497659" user="NKA">
		<tag k="name" v="Bakke" />
		<tag k="place" v="farm" />
		<tag k="ssr:stedsnr" v="183306" />
		<tag k="ssr:type" v="bruk" />
	</node>
	<node id="5678329311" lat="59.0541056" lon="9.6352694" version="1" timestamp="2018-06-09T19:01:30Z" changeset="59697439" uid="3842253" user="NKA_import">
		<tag k="name" v="Skjerke" />
		<tag k="place" v="farm" />
		<tag k="ssr:stedsnr" v="183403" />
		<tag k="ssr:type" v="bruk" />
	</node>
	<node id="5678329312" lat="59.0304583" lon="9.5786194" version="1" timestamp="2018-06-09T19:01:30Z" changeset="59697439" uid="3842253" user="NKA_import">
		<tag k="name" v="Barlinddalen" />
		<tag k="place" v="locality" />
		<tag k="ssr:stedsnr" v="645858" />
		<tag k="ssr:type" v="gammelBosettingsplass" />
	</node>
	<node id="5678329313" lat="59.1226806" lon="9.5365139" version="2" timestamp="2021-04-21T19:09:32Z" changeset="103360680" uid="3497659" user="NKA">
		<tag k="name" v="Svarthol" />
		<tag k="place" v="isolated_dwelling" />
		<tag k="ssr:stedsnr" v="898721" />
		<tag k="ssr:type" v="fritidsbolig" />
	</node>
	<node id="5678329314" lat="59.1081083" lon="9.5564694" version="1" timestamp="2018-06-09T19:01:31Z" changeset="59697439" uid="3842253" user="NKA_import">
		<tag k="name" v="Sondre" />
		<tag k="place" v="isolated_dwelling" />
		<tag k="ssr:stedsnr" v="898736" />
		<tag k="ssr:type" v="eneboligMindreBoligbygg" />
	</node>
	<node id="5678329315" lat="59.0019444" lon="9.3932028" version="1" timestamp="2018-06-09T19:01:31Z" changeset="59697439" uid="3842253" user="NKA_import">
		<tag k="name" v="Rørholt" />
		<tag k="place" v="hamlet" />
		<tag k="ssr:stedsnr" v="645961" />
		<tag k="ssr:type" v="grend" />
	</node>
	<node id="5678329316" lat="59.0962306" lon="9.5325139" version="1" timestamp="2018-06-09T19:01:31Z" changeset="59697439" uid="3842253" user="NKA_import">
		<tag k="name" v="Hamaren" />
		<tag k="place" v="isolated_dwelling" />
		<tag k="ssr:stedsnr" v="183798" />
		<tag k="ssr:type" v="eneboligMindreBoligbygg" />
	</node>
	<node id="5678329317" lat="59.0525556" lon="9.4873861" version="1" timestamp="2018-06-09T19:01:31Z" changeset="59697439" uid="3842253" user="NKA_import">
		<tag k="name" v="Vik" />
		<tag k="place" v="farm" />
		<tag k="ssr:stedsnr" v="183859" />
		<tag k="ssr:type" v="bruk" />
	</node>
	<node id="5678329318" lat="59.104975" lon="9.5757945" version="2" timestamp="2021-04-21T19:09:32Z" changeset="103360680" uid="3497659" user="NKA">
		<tag k="name" v="Berget" />
		<tag k="place" v="isolated_dwelling" />
		<tag k="ssr:stedsnr" v="645971" />
		<tag k="ssr:type" v="fritidsbolig" />
	</node>
	<node id="5678329319" lat="59.0239639" lon="9.6286667" version="1" timestamp="2018-06-09T19:01:31Z" changeset="59697439" uid="3842253" user="NKA_import">
		<tag k="name" v="Vingereidmyra" />
		<tag k="place" v="farm" />
		<tag k="ssr:stedsnr" v="949464" />
		<tag k="ssr:type" v="bruk" />
	</node>
	<node id="5678329320" lat="58.95635" lon="9.6032111" version="1" timestamp="2018-06-09T19:01:31Z" changeset="59697439" uid="3842253" user="NKA_import">
		<tag k="name" v="Myrbakken" />
		<tag k="place" v="farm" />
		<tag k="ssr:stedsnr" v="183890" />
		<tag k="ssr:type" v="bruk" />
	</node>
	<node id="5678329521" lat="58.9303333" lon="9.5950722" version="1" timestamp="2018-06-09T19:01:31Z" changeset="59697439" uid="3842253" user="NKA_import">
		<tag k="name" v="Trolldalen" />
		<tag k="place" v="locality" />
		<tag k="ssr:stedsnr" v="927" />
		<tag k="ssr:type" v="gammelBosettingsplass" />
	</node>
	<node id="5678329522" lat="58.9583367" lon="9.6195963" version="1" timestamp="2018-06-09T19:01:31Z" changeset="59697439" uid="3842253" user="NKA_import">
		<tag k="name" v="Trosby" />
		<tag k="place" v="hamlet" />
		<tag k="ssr:stedsnr" v="183897" />
		<tag k="ssr:type" v="gard" />
	</node>
	<node id="5678329523" lat="58.942225" lon="9.478625" version="1" timestamp="2018-06-09T19:01:31Z" changeset="59697439" uid="3842253" user="NKA_import">
		<tag k="name" v="Myra" />
		<tag k="place" v="farm" />
		<tag k="ssr:stedsnr" v="1277" />
		<tag k="ssr:type" v="bruk" />
	</node>
	<node id="5678329524" lat="58.9608278" lon="9.4426639" version="1" timestamp="2018-06-09T19:01:31Z" changeset="59697439" uid="3842253" user="NKA_import">
		<tag k="alt_name" v="Seteren" />
		<tag k="historic" v="shieling" />
		<tag k="name" v="Sæteren" />
		<tag k="place" v="farm" />
		<tag k="ssr:stedsnr" v="1299" />
		<tag k="ssr:type" v="bruk" />
	</node>
	<node id="5678329525" lat="59.0677389" lon="9.5897333" version="1" timestamp="2018-06-09T19:01:31Z" changeset="59697439" uid="3842253" user="NKA_import">
		<tag k="name" v="Svarstad" />
		<tag k="place" v="farm" />
		<tag k="ssr:stedsnr" v="184841" />
		<tag k="ssr:type" v="gard" />
	</node>
	<node id="5678329526" lat="59.0081771" lon="9.7456709" version="1" timestamp="2018-06-09T19:01:31Z" changeset="59697439" uid="3842253" user="NKA_import">
		<tag k="name" v="Halen gård" />
		<tag k="place" v="farm" />
		<tag k="ssr:stedsnr" v="207755" />
		<tag k="ssr:type" v="bruk" />
	</node>
	<node id="5678329527" lat="58.9761667" lon="9.4215667" version="1" timestamp="2018-06-09T19:01:32Z" changeset="59697439" uid="3842253" user="NKA_import">
		<tag k="name" v="Langvannskåsa" />
		<tag k="place" v="locality" />
		<tag k="ssr:stedsnr" v="951073" />
		<tag k="ssr:type" v="gammelBosettingsplass" />
	</node>
	<node id="5678329528" lat="59.0315825" lon="9.5317067" version="1" timestamp="2018-06-09T19:01:32Z" changeset="59697439" uid="3842253" user="NKA_import">
		<tag k="name" v="Skogen" />
		<tag k="place" v="hamlet" />
		<tag k="ssr:stedsnr" v="220052" />
		<tag k="ssr:type" v="gard" />
	</node>
	<node id="5678329529" lat="58.9569194" lon="9.6247528" version="1" timestamp="2018-06-09T19:01:32Z" changeset="59697439" uid="3842253" user="NKA_import">
		<tag k="name" v="Sandvik" />
		<tag k="place" v="isolated_dwelling" />
		<tag k="ssr:stedsnr" v="221398" />
		<tag k="ssr:type" v="eneboligMindreBoligbygg" />
	</node>
	<node id="5678329531" lat="58.9930389" lon="9.459825" version="1" timestamp="2018-06-09T19:01:32Z" changeset="59697439" uid="3842253" user="NKA_import">
		<tag k="name" v="Svippeslåtta" />
		<tag k="place" v="locality" />
		<tag k="ssr:stedsnr" v="951514" />
		<tag k="ssr:type" v="gammelBosettingsplass" />
	</node>
	<node id="5678329532" lat="58.9744889" lon="9.5356194" version="1" timestamp="2018-06-09T19:01:32Z" changeset="59697439" uid="3842253" user="NKA_import">
		<tag k="name" v="Østre Rosland" />
		<tag k="place" v="farm" />
		<tag k="ssr:stedsnr" v="951698" />
		<tag k="ssr:type" v="bruk" />
	</node>
	<node id="5678329533" lat="58.9930056" lon="9.3934861" version="1" timestamp="2018-06-09T19:01:32Z" changeset="59697439" uid="3842253" user="NKA_import">
		<tag k="name" v="Kolhogsten" />
		<tag k="place" v="locality" />
		<tag k="ssr:stedsnr" v="221947" />
		<tag k="ssr:type" v="gammelBosettingsplass" />
	</node>
	<node id="5678329534" lat="58.9745667" lon="9.5288222" version="1" timestamp="2018-06-09T19:01:32Z" changeset="59697439" uid="3842253" user="NKA_import">
		<tag k="name" v="Vestre Rosland" />
		<tag k="place" v="farm" />
		<tag k="ssr:stedsnr" v="951700" />
		<tag k="ssr:type" v="bruk" />
	</node>
	<node id="5678329535" lat="58.9321583" lon="9.5367194" version="1" timestamp="2018-06-09T19:01:32Z" changeset="59697439" uid="3842253" user="NKA_import">
		<tag k="name" v="Bakerovnen" />
		<tag k="place" v="farm" />
		<tag k="ssr:stedsnr" v="951752" />
		<tag k="ssr:type" v="gard" />
	</node>
	<node id="5678329536" lat="59.0326389" lon="9.5296806" version="1" timestamp="2018-06-09T19:01:32Z" changeset="59697439" uid="3842253" user="NKA_import">
		<tag k="name" v="Mellom Skaugen" />
		<tag k="place" v="farm" />
		<tag k="ssr:stedsnr" v="655737" />
		<tag k="ssr:type" v="bruk" />
	</node>
	<node id="5678329537" lat="58.9977972" lon="9.5989472" version="1" timestamp="2018-06-09T19:01:32Z" changeset="59697439" uid="3842253" user="NKA_import">
		<tag k="name" v="Høgeplass" />
		<tag k="place" v="locality" />
		<tag k="ssr:stedsnr" v="223338" />
		<tag k="ssr:type" v="gammelBosettingsplass" />
	</node>
	<node id="5678329538" lat="58.9981417" lon="9.5945917" version="1" timestamp="2018-06-09T19:01:32Z" changeset="59697439" uid="3842253" user="NKA_import">
		<tag k="name" v="Plassen" />
		<tag k="place" v="locality" />
		<tag k="ssr:stedsnr" v="223339" />
		<tag k="ssr:type" v="gammelBosettingsplass" />
	</node>
	<node id="5678329539" lat="59.1020556" lon="9.564875" version="1" timestamp="2018-06-09T19:01:32Z" changeset="59697439" uid="3842253" user="NKA_import">
		<tag k="name" v="Heia" />
		<tag k="place" v="farm" />
		<tag k="ssr:stedsnr" v="958713" />
		<tag k="ssr:type" v="bruk" />
	</node>
	<node id="5678329540" lat="59.0639056" lon="9.6242333" version="1" timestamp="2018-06-09T19:01:32Z" changeset="59697439" uid="3842253" user="NKA_import">
		<tag k="name" v="Stranda" />
		<tag k="place" v="farm" />
		<tag k="ssr:stedsnr" v="665526" />
		<tag k="ssr:type" v="bruk" />
	</node>
	<node id="5678329541" lat="59.0234861" lon="9.7356917" version="1" timestamp="2018-06-09T19:01:33Z" changeset="59697439" uid="3842253" user="NKA_import">
		<tag k="name" v="Salen" />
		<tag k="place" v="isolated_dwelling" />
		<tag k="ssr:stedsnr" v="669246" />
		<tag k="ssr:type" v="eneboligMindreBoligbygg" />
	</node>
	<node id="5678329542" lat="59.0021389" lon="9.7368" version="1" timestamp="2018-06-09T19:01:33Z" changeset="59697439" uid="3842253" user="NKA_import">
		<tag k="name" v="Kjerrvik" />
		<tag k="place" v="farm" />
		<tag k="ssr:stedsnr" v="669263" />
		<tag k="ssr:type" v="bruk" />
	</node>
	<node id="5678329543" lat="59.069078" lon="9.6006663" version="1" timestamp="2018-06-09T19:01:33Z" changeset="59697439" uid="3842253" user="NKA_import">
		<tag k="name" v="Øvre Surtedal" />
		<tag k="place" v="farm" />
		<tag k="ssr:stedsnr" v="959534" />
		<tag k="ssr:type" v="gard" />
	</node>
	<node id="5678329544" lat="59.0156433" lon="9.6074972" version="1" timestamp="2018-06-09T19:01:33Z" changeset="59697439" uid="3842253" user="NKA_import">
		<tag k="alt_name" v="Høn" />
		<tag k="name" v="Høen" />
		<tag k="place" v="hamlet" />
		<tag k="ssr:stedsnr" v="668300" />
		<tag k="ssr:type" v="bruk" />
	</node>
	<node id="5678329545" lat="59.0606423" lon="9.6233738" version="2" timestamp="2021-04-21T19:09:32Z" changeset="103360680" uid="3497659" user="NKA">
		<tag k="name" v="Skjerke" />
		<tag k="place" v="isolated_dwelling" />
		<tag k="ssr:stedsnr" v="966152" />
		<tag k="ssr:type" v="fritidsbolig" />
	</node>
	<node id="5678329546" lat="59.0057032" lon="9.6180643" version="1" timestamp="2018-06-09T19:01:33Z" changeset="59697439" uid="3842253" user="NKA_import">
		<tag k="alt_name" v="Tinderholt" />
		<tag k="name" v="Tinderholt" />
		<tag k="place" v="farm" />
		<tag k="ssr:stedsnr" v="668323" />
		<tag k="ssr:type" v="bruk" />
	</node>
	<node id="5678329547" lat="58.9447444" lon="9.5734472" version="1" timestamp="2018-06-09T19:01:33Z" changeset="59697439" uid="3842253" user="NKA_import">
		<tag k="alt_name" v="Tveitan" />
		<tag k="name" v="Tveten" />
		<tag k="place" v="farm" />
		<tag k="ssr:stedsnr" v="668325" />
		<tag k="ssr:type" v="bruk" />
	</node>
	<node id="5678329548" lat="58.9774111" lon="9.5892222" version="1" timestamp="2018-06-09T19:01:33Z" changeset="59697439" uid="3842253" user="NKA_import">
		<tag k="name" v="Vissestad" />
		<tag k="place" v="neighbourhood" />
		<tag k="ssr:stedsnr" v="668341" />
		<tag k="ssr:type" v="boligfelt" />
	</node>
	<node id="5678329549" lat="58.9884056" lon="9.3630083" version="1" timestamp="2018-06-09T19:01:33Z" changeset="59697439" uid="3842253" user="NKA_import">
		<tag k="name" v="Kil" />
		<tag k="place" v="farm" />
		<tag k="ssr:stedsnr" v="668352" />
		<tag k="ssr:type" v="bruk" />
	</node>
	<node id="5678329550" lat="59.0694722" lon="9.6006861" version="1" timestamp="2018-06-09T19:01:33Z" changeset="59697439" uid="3842253" user="NKA_import">
		<tag k="name" v="Klostret" />
		<tag k="place" v="farm" />
		<tag k="ssr:stedsnr" v="668438" />
		<tag k="ssr:type" v="bruk" />
	</node>
	<node id="5678329551" lat="58.992075" lon="9.6128694" version="1" timestamp="2018-06-09T19:01:33Z" changeset="59697439" uid="3842253" user="NKA_import">
		<tag k="alt_name" v="Bjørkeset, øvre;Bjerkeseth" />
		<tag k="name" v="Øvre Bjørkeset" />
		<tag k="place" v="farm" />
		<tag k="ssr:stedsnr" v="668581" />
		<tag k="ssr:type" v="bruk" />
	</node>
	<node id="5678329552" lat="58.9928556" lon="9.6179972" version="1" timestamp="2018-06-09T19:01:33Z" changeset="59697439" uid="3842253" user="NKA_import">
		<tag k="alt_name" v="Bjørkeset, midtre;Bjerkeseth" />
		<tag k="name" v="Midtre Bjørkeset" />
		<tag k="place" v="farm" />
		<tag k="ssr:stedsnr" v="668582" />
		<tag k="ssr:type" v="bruk" />
	</node>
	<node id="5678329553" lat="58.997225" lon="9.6602861" version="1" timestamp="2018-06-09T19:01:34Z" changeset="59697439" uid="3842253" user="NKA_import">
		<tag k="name" v="Vinje" />
		<tag k="place" v="farm" />
		<tag k="ssr:stedsnr" v="668594" />
		<tag k="ssr:type" v="gard" />
	</node>
	<node id="5678329554" lat="58.9767028" lon="9.6056028" version="1" timestamp="2018-06-09T19:01:34Z" changeset="59697439" uid="3842253" user="NKA_import">
		<tag k="name" v="Kjærsdalen" />
		<tag k="place" v="farm" />
		<tag k="ssr:stedsnr" v="668622" />
		<tag k="ssr:type" v="bruk" />
	</node>
	<node id="5678329555" lat="58.9841833" lon="9.6352417" version="1" timestamp="2018-06-09T19:01:34Z" changeset="59697439" uid="3842253" user="NKA_import">
		<tag k="alt_name" v="Holtet" />
		<tag k="name" v="Holte" />
		<tag k="place" v="farm" />
		<tag k="ssr:stedsnr" v="668642" />
		<tag k="ssr:type" v="gard" />
	</node>
	<node id="5678329556" lat="59.1056792" lon="9.55892" version="1" timestamp="2018-06-09T19:01:34Z" changeset="59697439" uid="3842253" user="NKA_import">
		<tag k="name" v="Lille Herre" />
		<tag k="place" v="farm" />
		<tag k="ssr:stedsnr" v="980407" />
		<tag k="ssr:type" v="gard" />
	</node>
	<node id="5678329557" lat="59.07499" lon="9.6053367" version="1" timestamp="2018-06-09T19:01:34Z" changeset="59697439" uid="3842253" user="NKA_import">
		<tag k="name" v="Asdal" />
		<tag k="place" v="hamlet" />
		<tag k="ssr:stedsnr" v="980408" />
		<tag k="ssr:type" v="navnegard" />
	</node>
	<node id="5678329558" lat="59.0426806" lon="9.5536278" version="1" timestamp="2018-06-09T19:01:34Z" changeset="59697439" uid="3842253" user="NKA_import">
		<tag k="name" v="Eiklund" />
		<tag k="place" v="locality" />
		<tag k="ssr:stedsnr" v="668844" />
		<tag k="ssr:type" v="gammelBosettingsplass" />
	</node>
	<node id="5678329559" lat="59.066845" lon="9.6004516" version="1" timestamp="2018-06-09T19:01:34Z" changeset="59697439" uid="3842253" user="NKA_import">
		<tag k="name" v="Surtedal" />
		<tag k="place" v="hamlet" />
		<tag k="ssr:stedsnr" v="980409" />
		<tag k="ssr:type" v="navnegard" />
	</node>
	<node id="5678329560" lat="59.0302521" lon="9.6771612" version="1" timestamp="2018-06-09T19:01:34Z" changeset="59697439" uid="3842253" user="NKA_import">
		<tag k="name" v="Østre Stokke" />
		<tag k="place" v="farm" />
		<tag k="ssr:stedsnr" v="980410" />
		<tag k="ssr:type" v="gard" />
	</node>
	<node id="5678329561" lat="59.0027764" lon="9.6965941" version="1" timestamp="2018-06-09T19:01:34Z" changeset="59697439" uid="3842253" user="NKA_import">
		<tag k="name" v="Søndre Rogn" />
		<tag k="place" v="farm" />
		<tag k="ssr:stedsnr" v="980411" />
		<tag k="ssr:type" v="gard" />
	</node>
	<node id="5678329562" lat="59.0091043" lon="9.696788" version="1" timestamp="2018-06-09T19:01:34Z" changeset="59697439" uid="3842253" user="NKA_import">
		<tag k="name" v="Rogn" />
		<tag k="place" v="farm" />
		<tag k="ssr:stedsnr" v="980412" />
		<tag k="ssr:type" v="navnegard" />
	</node>
	<node id="5678329563" lat="59.0077183" lon="9.7438202" version="1" timestamp="2018-06-09T19:01:34Z" changeset="59697439" uid="3842253" user="NKA_import">
		<tag k="name" v="Halen" />
		<tag k="place" v="neighbourhood" />
		<tag k="ssr:stedsnr" v="238572" />
		<tag k="ssr:type" v="bruk" />
	</node>
	<node id="5678329564" lat="59.018097" lon="9.6897896" version="1" timestamp="2018-06-09T19:01:34Z" changeset="59697439" uid="3842253" user="NKA_import">
		<tag k="name" v="Nedre Tangvall" />
		<tag k="place" v="farm" />
		<tag k="ssr:stedsnr" v="980413" />
		<tag k="ssr:type" v="gard" />
	</node>
	<node id="5678329565" lat="58.9924954" lon="9.6196652" version="1" timestamp="2018-06-09T19:01:35Z" changeset="59697439" uid="3842253" user="NKA_import">
		<tag k="name" v="Bjørkeset" />
		<tag k="place" v="hamlet" />
		<tag k="ssr:stedsnr" v="980414" />
		<tag k="ssr:type" v="gard" />
	</node>
	<node id="5678329566" lat="58.9351583" lon="9.6051167" version="1" timestamp="2018-06-09T19:01:35Z" changeset="59697439" uid="3842253" user="NKA_import">
		<tag k="name" v="Grunnsund" />
		<tag k="place" v="farm" />
		<tag k="ssr:stedsnr" v="668924" />
		<tag k="ssr:type" v="bruk" />
	</node>
	<node id="5678329567" lat="58.9916333" lon="9.6208966" version="1" timestamp="2018-06-09T19:01:35Z" changeset="59697439" uid="3842253" user="NKA_import">
		<tag k="name" v="Bjørkeset Vannfall" />
		<tag k="place" v="farm" />
		<tag k="ssr:stedsnr" v="980415" />
		<tag k="ssr:type" v="gard" />
	</node>
	<node id="5678329568" lat="58.9379111" lon="9.6192722" version="1" timestamp="2018-06-09T19:01:35Z" changeset="59697439" uid="3842253" user="NKA_import">
		<tag k="name" v="Hafsund" />
		<tag k="place" v="farm" />
		<tag k="ssr:stedsnr" v="668923" />
		<tag k="ssr:type" v="bruk" />
	</node>
	<node id="5678329569" lat="59.0349056" lon="9.5617083" version="1" timestamp="2018-06-09T19:01:35Z" changeset="59697439" uid="3842253" user="NKA_import">
		<tag k="name" v="Stulen" />
		<tag k="place" v="locality" />
		<tag k="ssr:stedsnr" v="669809" />
		<tag k="ssr:type" v="gammelBosettingsplass" />
	</node>
	<node id="5678329570" lat="59.0212565" lon="9.6186983" version="1" timestamp="2018-06-09T19:01:35Z" changeset="59697439" uid="3842253" user="NKA_import">
		<tag k="name" v="Høen" />
		<tag k="place" v="farm" />
		<tag k="ssr:stedsnr" v="980416" />
		<tag k="ssr:type" v="gard" />
	</node>
	<node id="5678329571" lat="59.0582186" lon="9.5096393" version="1" timestamp="2018-06-09T19:01:35Z" changeset="59697439" uid="3842253" user="NKA_import">
		<tag k="name" v="Hofstein" />
		<tag k="place" v="hamlet" />
		<tag k="ssr:stedsnr" v="980419" />
		<tag k="ssr:type" v="gard" />
	</node>
	<node id="5678329572" lat="59.0030098" lon="9.3915097" version="1" timestamp="2018-06-09T19:01:35Z" changeset="59697439" uid="3842253" user="NKA_import">
		<tag k="name" v="Rørholt" />
		<tag k="place" v="hamlet" />
		<tag k="ssr:stedsnr" v="980426" />
		<tag k="ssr:type" v="navnegard" />
	</node>
	<node id="5678329573" lat="58.9420977" lon="9.4983213" version="1" timestamp="2018-06-09T19:01:35Z" changeset="59697439" uid="3842253" user="NKA_import">
		<tag k="name" v="Grimsrød" />
		<tag k="place" v="farm" />
		<tag k="ssr:stedsnr" v="980433" />
		<tag k="ssr:type" v="gard" />
	</node>
	<node id="5678329574" lat="59.0366944" lon="9.6059583" version="1" timestamp="2018-06-09T19:01:35Z" changeset="59697439" uid="3842253" user="NKA_import">
		<tag k="name" v="Eriks plass" />
		<tag k="place" v="locality" />
		<tag k="ssr:stedsnr" v="240199" />
		<tag k="ssr:type" v="gammelBosettingsplass" />
	</node>
	<node id="5678329575" lat="58.9635803" lon="9.5645806" version="1" timestamp="2018-06-09T19:01:35Z" changeset="59697439" uid="3842253" user="NKA_import">
		<tag k="name" v="Utjord" />
		<tag k="place" v="farm" />
		<tag k="ssr:stedsnr" v="980436" />
		<tag k="ssr:type" v="gard" />
	</node>
	<node id="5678329576" lat="59.0826528" lon="9.4988389" version="1" timestamp="2018-06-09T19:01:35Z" changeset="59697439" uid="3842253" user="NKA_import">
		<tag k="alt_name" v="Pestelenseidet" />
		<tag k="name" v="Pestilenseidet" />
		<tag k="place" v="locality" />
		<tag k="ssr:stedsnr" v="669855" />
		<tag k="ssr:type" v="gammelBosettingsplass" />
	</node>
	<node id="5678329577" lat="58.9461307" lon="9.5709567" version="1" timestamp="2018-06-09T19:01:35Z" changeset="59697439" uid="3842253" user="NKA_import">
		<tag k="name" v="Vestre Tveitan" />
		<tag k="place" v="farm" />
		<tag k="ssr:stedsnr" v="980437" />
		<tag k="ssr:type" v="gard" />
	</node>
	<node id="5678329578" lat="58.9248643" lon="9.5565165" version="1" timestamp="2018-06-09T19:01:36Z" changeset="59697439" uid="3842253" user="NKA_import">
		<tag k="name" v="Vågøya" />
		<tag k="place" v="farm" />
		<tag k="ssr:stedsnr" v="980440" />
		<tag k="ssr:type" v="gard" />
	</node>
	<node id="5678329579" lat="58.9355782" lon="9.5728943" version="1" timestamp="2018-06-09T19:01:36Z" changeset="59697439" uid="3842253" user="NKA_import">
		<tag k="name" v="Østre Våg" />
		<tag k="place" v="farm" />
		<tag k="ssr:stedsnr" v="980441" />
		<tag k="ssr:type" v="gard" />
	</node>
	<node id="5678329580" lat="58.9340376" lon="9.5712291" version="1" timestamp="2018-06-09T19:01:36Z" changeset="59697439" uid="3842253" user="NKA_import">
		<tag k="name" v="Våg" />
		<tag k="place" v="hamlet" />
		<tag k="ssr:stedsnr" v="980442" />
		<tag k="ssr:type" v="navnegard" />
	</node>
	<node id="5678329581" lat="58.9661526" lon="9.5574508" version="1" timestamp="2018-06-09T19:01:36Z" changeset="59697439" uid="3842253" user="NKA_import">
		<tag k="name" v="Feset" />
		<tag k="place" v="hamlet" />
		<tag k="ssr:stedsnr" v="689929" />
		<tag k="ssr:type" v="tettbebyggelse" />
	</node>
	<node id="5678329582" lat="58.9465633" lon="9.6412065" version="1" timestamp="2018-06-09T19:01:36Z" changeset="59697439" uid="3842253" user="NKA_import">
		<tag k="name" v="Toner" />
		<tag k="place" v="farm" />
		<tag k="ssr:stedsnr" v="980443" />
		<tag k="ssr:type" v="gard" />
	</node>
	<node id="5678329583" lat="58.9737302" lon="9.6535356" version="1" timestamp="2018-06-09T19:01:36Z" changeset="59697439" uid="3842253" user="NKA_import">
		<tag k="name" v="Østre Brevik" />
		<tag k="place" v="farm" />
		<tag k="ssr:stedsnr" v="980444" />
		<tag k="ssr:type" v="gard" />
	</node>
	<node id="5678329584" lat="58.9742667" lon="9.6497715" version="1" timestamp="2018-06-09T19:01:36Z" changeset="59697439" uid="3842253" user="NKA_import">
		<tag k="name" v="Brevik" />
		<tag k="place" v="neighbourhood" />
		<tag k="ssr:stedsnr" v="980445" />
		<tag k="ssr:type" v="navnegard" />
	</node>
	<node id="5678329585" lat="59.0416583" lon="9.4260778" version="1" timestamp="2018-06-09T19:01:36Z" changeset="59697439" uid="3842253" user="NKA_import">
		<tag k="name" v="Tangane" />
		<tag k="place" v="locality" />
		<tag k="ssr:stedsnr" v="706021" />
		<tag k="ssr:type" v="gammelBosettingsplass" />
	</node>
	<node id="5678329586" lat="59.041075" lon="9.3931861" version="1" timestamp="2018-06-09T19:01:36Z" changeset="59697439" uid="3842253" user="NKA_import">
		<tag k="name" v="Slåtta" />
		<tag k="place" v="locality" />
		<tag k="ssr:stedsnr" v="706023" />
		<tag k="ssr:type" v="gammelBosettingsplass" />
	</node>
	<node id="5678329587" lat="58.9266528" lon="9.5788472" version="1" timestamp="2018-06-09T19:01:36Z" changeset="59697439" uid="3842253" user="NKA_import">
		<tag k="alt_name" v="Breidsanden" />
		<tag k="name" v="Breisand" />
		<tag k="place" v="farm" />
		<tag k="ssr:stedsnr" v="243251" />
		<tag k="ssr:type" v="bruk" />
	</node>
	<node id="5678329588" lat="58.9541567" lon="9.5931543" version="1" timestamp="2018-06-09T19:01:36Z" changeset="59697439" uid="3842253" user="NKA_import">
		<tag k="name" v="Kjørstad" />
		<tag k="place" v="hamlet" />
		<tag k="ssr:stedsnr" v="980450" />
		<tag k="ssr:type" v="navnegard" />
	</node>
	<node id="5678329589" lat="58.9823806" lon="9.4804861" version="1" timestamp="2018-06-09T19:01:36Z" changeset="59697439" uid="3842253" user="NKA_import">
		<tag k="alt_name" v="Gånge" />
		<tag k="name" v="Gonge" />
		<tag k="place" v="farm" />
		<tag k="ssr:stedsnr" v="243306" />
		<tag k="ssr:type" v="gard" />
	</node>
	<node id="5678329590" lat="58.9775" lon="9.4462889" version="1" timestamp="2018-06-09T19:01:37Z" changeset="59697439" uid="3842253" user="NKA_import">
		<tag k="name" v="Kåsa" />
		<tag k="place" v="locality" />
		<tag k="ssr:stedsnr" v="243328" />
		<tag k="ssr:type" v="gammelBosettingsplass" />
	</node>
	<node id="5678329591" lat="58.9908806" lon="9.655625" version="1" timestamp="2018-06-09T19:01:37Z" changeset="59697439" uid="3842253" user="NKA_import">
		<tag k="name" v="Arnesplass" />
		<tag k="place" v="farm" />
		<tag k="ssr:stedsnr" v="243584" />
		<tag k="ssr:type" v="bruk" />
	</node>
	<node id="5678329592" lat="58.9702028" lon="9.5671028" version="1" timestamp="2018-06-09T19:01:37Z" changeset="59697439" uid="3842253" user="NKA_import">
		<tag k="name" v="Bilett" />
		<tag k="place" v="locality" />
		<tag k="ssr:stedsnr" v="706414" />
		<tag k="ssr:type" v="gammelBosettingsplass" />
	</node>
	<node id="5678329593" lat="59.0222444" lon="9.6246" version="1" timestamp="2018-06-09T19:01:37Z" changeset="59697439" uid="3842253" user="NKA_import">
		<tag k="name" v="Elgstad" />
		<tag k="place" v="isolated_dwelling" />
		<tag k="ssr:stedsnr" v="282043" />
		<tag k="ssr:type" v="eneboligMindreBoligbygg" />
	</node>
	<node id="5678329594" lat="58.973925" lon="9.6197972" version="1" timestamp="2018-06-09T19:01:37Z" changeset="59697439" uid="3842253" user="NKA_import">
		<tag k="name" v="Dal" />
		<tag k="place" v="farm" />
		<tag k="ssr:stedsnr" v="1617" />
		<tag k="ssr:type" v="gard" />
	</node>
	<node id="5678329595" lat="59.0777056" lon="9.5843722" version="1" timestamp="2018-06-09T19:01:37Z" changeset="59697439" uid="3842253" user="NKA_import">
		<tag k="name" v="Nyland" />
		<tag k="place" v="farm" />
		<tag k="ssr:stedsnr" v="244876" />
		<tag k="ssr:type" v="bruk" />
	</node>
	<node id="5678329596" lat="59.015675" lon="9.7451556" version="1" timestamp="2018-06-09T19:01:37Z" changeset="59697439" uid="3842253" user="NKA_import">
		<tag k="name" v="Fagerheim" />
		<tag k="place" v="farm" />
		<tag k="ssr:stedsnr" v="244252" />
		<tag k="ssr:type" v="bruk" />
	</node>
	<node id="5678329597" lat="59.0157611" lon="9.34965" version="1" timestamp="2018-06-09T19:01:37Z" changeset="59697439" uid="3842253" user="NKA_import">
		<tag k="alt_name" v="Olashol, øvre" />
		<tag k="name" v="Olavs hull" />
		<tag k="place" v="locality" />
		<tag k="ssr:stedsnr" v="1664" />
		<tag k="ssr:type" v="gammelBosettingsplass" />
	</node>
	<node id="5678329598" lat="59.0137889" lon="9.7047861" version="1" timestamp="2018-06-09T19:01:37Z" changeset="59697439" uid="3842253" user="NKA_import">
		<tag k="name" v="Fjellstad" />
		<tag k="place" v="farm" />
		<tag k="ssr:stedsnr" v="244254" />
		<tag k="ssr:type" v="gard" />
	</node>
	<node id="5678329599" lat="59.0301333" lon="9.5353444" version="1" timestamp="2018-06-09T19:01:37Z" changeset="59697439" uid="3842253" user="NKA_import">
		<tag k="alt_name" v="Skogen, s;Skaugen" />
		<tag k="name" v="Søndre Skogen" />
		<tag k="place" v="farm" />
		<tag k="ssr:stedsnr" v="1668" />
		<tag k="ssr:type" v="bruk" />
	</node>
	<node id="5678329600" lat="58.9565306" lon="9.4749472" version="1" timestamp="2018-06-09T19:01:37Z" changeset="59697439" uid="3842253" user="NKA_import">
		<tag k="alt_name" v="Myrland" />
		<tag k="name" v="Myrland" />
		<tag k="place" v="farm" />
		<tag k="ssr:stedsnr" v="244284" />
		<tag k="ssr:type" v="bruk" />
	</node>
	<node id="5678329601" lat="59.0039306" lon="9.6579306" version="1" timestamp="2018-06-09T19:01:37Z" changeset="59697439" uid="3842253" user="NKA_import">
		<tag k="name" v="Steinsmyra" />
		<tag k="old_name" v="Steinsmyr" />
		<tag k="place" v="farm" />
		<tag k="ssr:stedsnr" v="244285" />
		<tag k="ssr:type" v="bruk" />
	</node>
	<node id="5678329602" lat="58.9668806" lon="9.55025" version="1" timestamp="2018-06-09T19:01:38Z" changeset="59697439" uid="3842253" user="NKA_import">
		<tag k="alt_name" v="Skjelbrei" />
		<tag k="name" v="Skjilbreia" />
		<tag k="place" v="farm" />
		<tag k="ssr:stedsnr" v="244290" />
		<tag k="ssr:type" v="bruk" />
	</node>
	<node id="5678329603" lat="59.0924535" lon="9.5908815" version="2" timestamp="2022-01-04T20:10:53Z" changeset="115769898" uid="11220113" user="ivanbranco">
		<tag k="name" v="Tråk" />
		<tag k="place" v="locality" />
		<tag k="ssr:stedsnr" v="1759" />
		<tag k="ssr:type" v="gard" />
	</node>
	<node id="5678329604" lat="58.9756028" lon="9.5905361" version="1" timestamp="2018-06-09T19:01:38Z" changeset="59697439" uid="3842253" user="NKA_import">
		<tag k="name" v="Hagane" />
		<tag k="place" v="farm" />
		<tag k="ssr:stedsnr" v="244332" />
		<tag k="ssr:type" v="bruk" />
	</node>
	<node id="5678329605" lat="59.0324083" lon="9.4332417" version="1" timestamp="2018-06-09T19:01:38Z" changeset="59697439" uid="3842253" user="NKA_import">
		<tag k="alt_name" v="Hundkilen, store" />
		<tag k="name" v="Store Hundkilen" />
		<tag k="place" v="locality" />
		<tag k="ssr:stedsnr" v="1826" />
		<tag k="ssr:type" v="gammelBosettingsplass" />
	</node>
	<node id="5678329606" lat="59.1023947" lon="9.558566" version="1" timestamp="2018-06-09T19:01:38Z" changeset="59697439" uid="3842253" user="NKA_import">
		<tag k="name" v="Heia" />
		<tag k="place" v="neighbourhood" />
		<tag k="ssr:stedsnr" v="706975" />
		<tag k="ssr:type" v="boligfelt" />
	</node>
	<node id="5678329607" lat="59.0291944" lon="9.3688917" version="1" timestamp="2018-06-09T19:01:38Z" changeset="59697439" uid="3842253" user="NKA_import">
		<tag k="name" v="Liane" />
		<tag k="place" v="locality" />
		<tag k="ssr:stedsnr" v="707117" />
		<tag k="ssr:type" v="gammelBosettingsplass" />
	</node>
	<node id="5678329608" lat="59.0441899" lon="9.6507675" version="1" timestamp="2018-06-09T19:01:38Z" changeset="59697439" uid="3842253" user="NKA_import">
		<tag k="alt_name" v="Finndal" />
		<tag k="name" v="Findal" />
		<tag k="place" v="quarter" />
		<tag k="ssr:stedsnr" v="244524" />
		<tag k="ssr:type" v="bruk" />
	</node>
	<node id="5678329609" lat="59.0662639" lon="9.5935667" version="1" timestamp="2018-06-09T19:01:38Z" changeset="59697439" uid="3842253" user="NKA_import">
		<tag k="alt_name" v="Klepp" />
		<tag k="name" v="Klepp" />
		<tag k="place" v="farm" />
		<tag k="ssr:stedsnr" v="2276" />
		<tag k="ssr:type" v="bruk" />
	</node>
	<node id="5678329610" lat="58.998475" lon="9.681825" version="1" timestamp="2018-06-09T19:01:38Z" changeset="59697439" uid="3842253" user="NKA_import">
		<tag k="name" v="Kløvsgård" />
		<tag k="place" v="farm" />
		<tag k="ssr:stedsnr" v="244619" />
		<tag k="ssr:type" v="bruk" />
	</node>
	<node id="5678329611" lat="59.0238889" lon="9.7056361" version="1" timestamp="2018-06-09T19:01:38Z" changeset="59697439" uid="3842253" user="NKA_import">
		<tag k="alt_name" v="Sundbykosa" />
		<tag k="name" v="Sundbykåsa" />
		<tag k="place" v="farm" />
		<tag k="ssr:stedsnr" v="2288" />
		<tag k="ssr:type" v="bruk" />
	</node>
	<node id="5678329612" lat="59.0285668" lon="9.6335394" version="1" timestamp="2018-06-09T19:01:38Z" changeset="59697439" uid="3842253" user="NKA_import">
		<tag k="alt_name" v="Vingereid" />
		<tag k="name" v="Vingerei" />
		<tag k="place" v="hamlet" />
		<tag k="ssr:stedsnr" v="2499" />
		<tag k="ssr:type" v="gard" />
	</node>
	<node id="5678329613" lat="59.0333889" lon="9.6737222" version="1" timestamp="2018-06-09T19:01:38Z" changeset="59697439" uid="3842253" user="NKA_import">
		<tag k="name" v="Polland" />
		<tag k="place" v="farm" />
		<tag k="ssr:stedsnr" v="2506" />
		<tag k="ssr:type" v="bruk" />
	</node>
	<node id="5678329614" lat="59.0133414" lon="9.5602668" version="1" timestamp="2018-06-09T19:01:39Z" changeset="59697439" uid="3842253" user="NKA_import">
		<tag k="name" v="Bamle" />
		<tag k="place" v="hamlet" />
		<tag k="ssr:stedsnr" v="21927" />
		<tag k="ssr:type" v="bygdelagBygd" />
	</node>
	<node id="5678329615" lat="58.971375" lon="9.4223805" version="1" timestamp="2018-06-09T19:01:39Z" changeset="59697439" uid="3842253" user="NKA_import">
		<tag k="name" v="Røsla" />
		<tag k="place" v="locality" />
		<tag k="ssr:stedsnr" v="708040" />
		<tag k="ssr:type" v="gammelBosettingsplass" />
	</node>
	<node id="5678329616" lat="59.0998861" lon="9.5697889" version="1" timestamp="2018-06-09T19:01:39Z" changeset="59697439" uid="3842253" user="NKA_import">
		<tag k="name" v="Rafneskåsa" />
		<tag k="place" v="locality" />
		<tag k="ssr:stedsnr" v="282950" />
		<tag k="ssr:type" v="gammelBosettingsplass" />
	</node>
	<node id="5678329617" lat="58.9511028" lon="9.6074222" version="1" timestamp="2018-06-09T19:01:39Z" changeset="59697439" uid="3842253" user="NKA_import">
		<tag k="name" v="Kjørstad" />
		<tag k="place" v="farm" />
		<tag k="ssr:stedsnr" v="24485" />
		<tag k="ssr:type" v="bruk" />
	</node>
	<node id="5678329618" lat="59.0428167" lon="9.4560444" version="1" timestamp="2018-06-09T19:01:39Z" changeset="59697439" uid="3842253" user="NKA_import">
		<tag k="name" v="Fisketjenneide" />
		<tag k="place" v="locality" />
		<tag k="ssr:stedsnr" v="708076" />
		<tag k="ssr:type" v="gammelBosettingsplass" />
	</node>
	<node id="5678329619" lat="59.1035209" lon="9.5580977" version="1" timestamp="2018-06-09T19:01:39Z" changeset="59697439" uid="3842253" user="NKA_import">
		<tag k="name" v="Herrejordet" />
		<tag k="place" v="neighbourhood" />
		<tag k="ssr:stedsnr" v="282977" />
		<tag k="ssr:type" v="boligfelt" />
	</node>
	<node id="5678329620" lat="58.9995361" lon="9.3950167" version="1" timestamp="2018-06-09T19:01:39Z" changeset="59697439" uid="3842253" user="NKA_import">
		<tag k="name" v="Rørholt, søndre" />
		<tag k="place" v="farm" />
		<tag k="ssr:stedsnr" v="258986" />
		<tag k="ssr:type" v="gard" />
	</node>
	<node id="5678329621" lat="59.0351543" lon="9.7129998" version="1" timestamp="2018-06-09T19:01:39Z" changeset="59697439" uid="3842253" user="NKA_import">
		<tag k="name" v="Eiksrønningen" />
		<tag k="place" v="suburb" />
		<tag k="ssr:stedsnr" v="267945" />
		<tag k="ssr:type" v="tettsted" />
	</node>
	<node id="5678329622" lat="59.0383861" lon="9.5715944" version="1" timestamp="2018-06-09T19:01:39Z" changeset="59697439" uid="3842253" user="NKA_import">
		<tag k="name" v="Fjellkjerringplassen" />
		<tag k="place" v="locality" />
		<tag k="ssr:stedsnr" v="268886" />
		<tag k="ssr:type" v="gammelBosettingsplass" />
	</node>
	<node id="5678329623" lat="58.9967667" lon="9.6023222" version="1" timestamp="2018-06-09T19:01:39Z" changeset="59697439" uid="3842253" user="NKA_import">
		<tag k="name" v="Kristens plass" />
		<tag k="place" v="locality" />
		<tag k="ssr:stedsnr" v="708327" />
		<tag k="ssr:type" v="gammelBosettingsplass" />
	</node>
	<node id="5678329624" lat="59.0175417" lon="9.7163778" version="1" timestamp="2018-06-09T19:01:39Z" changeset="59697439" uid="3842253" user="NKA_import">
		<tag k="name" v="Veholt" />
		<tag k="place" v="farm" />
		<tag k="ssr:stedsnr" v="479871" />
		<tag k="ssr:type" v="bruk" />
	</node>
	<node id="5678329625" lat="59.0465583" lon="9.68545" version="1" timestamp="2018-06-09T19:01:39Z" changeset="59697439" uid="3842253" user="NKA_import">
		<tag k="name" v="Tande" />
		<tag k="place" v="suburb" />
		<tag k="ssr:stedsnr" v="480115" />
		<tag k="ssr:type" v="boligfelt" />
	</node>
	<node id="5678329626" lat="59.0648444" lon="9.628525" version="1" timestamp="2018-06-09T19:01:40Z" changeset="59697439" uid="3842253" user="NKA_import">
		<tag k="alt_name" v="Silleberget" />
		<tag k="name" v="Sildeberget" />
		<tag k="place" v="isolated_dwelling" />
		<tag k="ssr:stedsnr" v="26898" />
		<tag k="ssr:type" v="eneboligMindreBoligbygg" />
	</node>
	<node id="5678329627" lat="59.0007167" lon="9.748925" version="1" timestamp="2018-06-09T19:01:40Z" changeset="59697439" uid="3842253" user="NKA_import">
		<tag k="name" v="Torget" />
		<tag k="place" v="square" />
		<tag k="ssr:stedsnr" v="416574" />
		<tag k="ssr:type" v="torg" />
	</node>
	<node id="5678329628" lat="59.0484139" lon="9.6650917" version="1" timestamp="2018-06-09T19:01:40Z" changeset="59697439" uid="3842253" user="NKA_import">
		<tag k="name" v="Løkka" />
		<tag k="place" v="farm" />
		<tag k="ssr:stedsnr" v="420135" />
		<tag k="ssr:type" v="bruk" />
	</node>
	<node id="5678329629" lat="59.0048722" lon="9.5545556" version="1" timestamp="2018-06-09T19:01:40Z" changeset="59697439" uid="3842253" user="NKA_import">
		<tag k="name" v="Rønningsland" />
		<tag k="place" v="locality" />
		<tag k="ssr:stedsnr" v="283292" />
		<tag k="ssr:type" v="gammelBosettingsplass" />
	</node>
	<node id="5678329630" lat="59.0502111" lon="9.6771889" version="1" timestamp="2018-06-09T19:01:40Z" changeset="59697439" uid="3842253" user="NKA_import">
		<tag k="name" v="Nordre Rugtvedt" />
		<tag k="place" v="farm" />
		<tag k="ssr:stedsnr" v="38827" />
		<tag k="ssr:type" v="gard" />
	</node>
	<node id="5678329631" lat="58.9364639" lon="9.5965972" version="1" timestamp="2018-06-09T19:01:40Z" changeset="59697439" uid="3842253" user="NKA_import">
		<tag k="name" v="Tørragården" />
		<tag k="place" v="isolated_dwelling" />
		<tag k="ssr:stedsnr" v="39002" />
		<tag k="ssr:type" v="eneboligMindreBoligbygg" />
	</node>
	<node id="5678329632" lat="58.9728917" lon="9.6744028" version="1" timestamp="2018-06-09T19:01:40Z" changeset="59697439" uid="3842253" user="NKA_import">
		<tag k="name" v="Ivarshavn" />
		<tag k="place" v="farm" />
		<tag k="ssr:stedsnr" v="420700" />
		<tag k="ssr:type" v="bruk" />
	</node>
	<node id="5678329633" lat="59.0204611" lon="9.6223083" version="1" timestamp="2018-06-09T19:01:40Z" changeset="59697439" uid="3842253" user="NKA_import">
		<tag k="name" v="Fagerli" />
		<tag k="place" v="isolated_dwelling" />
		<tag k="ssr:stedsnr" v="39025" />
		<tag k="ssr:type" v="eneboligMindreBoligbygg" />
	</node>
	<node id="5678329634" lat="59.0734988" lon="9.6287596" version="1" timestamp="2018-06-09T19:01:40Z" changeset="59697439" uid="3842253" user="NKA_import">
		<tag k="name" v="Grenland industri" />
		<tag k="place" v="neighbourhood" />
		<tag k="ssr:stedsnr" v="420729" />
		<tag k="ssr:type" v="industriområde" />
	</node>
	<node id="5678329635" lat="58.9688" lon="9.5643972" version="1" timestamp="2018-06-09T19:01:40Z" changeset="59697439" uid="3842253" user="NKA_import">
		<tag k="name" v="Østmarka" />
		<tag k="place" v="isolated_dwelling" />
		<tag k="ssr:stedsnr" v="39387" />
		<tag k="ssr:type" v="eneboligMindreBoligbygg" />
	</node>
	<node id="5678329636" lat="58.9380583" lon="9.4369139" version="1" timestamp="2018-06-09T19:01:40Z" changeset="59697439" uid="3842253" user="NKA_import">
		<tag k="name" v="Orrestoe" />
		<tag k="place" v="locality" />
		<tag k="ssr:stedsnr" v="284626" />
		<tag k="ssr:type" v="gammelBosettingsplass" />
	</node>
	<node id="5678329637" lat="58.9926083" lon="9.6423417" version="1" timestamp="2018-06-09T19:01:40Z" changeset="59697439" uid="3842253" user="NKA_import">
		<tag k="name" v="Brekke" />
		<tag k="place" v="farm" />
		<tag k="ssr:stedsnr" v="425537" />
		<tag k="ssr:type" v="bruk" />
	</node>
	<node id="5678329638" lat="58.9906611" lon="9.7001917" version="1" timestamp="2018-06-09T19:01:40Z" changeset="59697439" uid="3842253" user="NKA_import">
		<tag k="name" v="Hydrostranda" />
		<tag k="place" v="quarter" />
		<tag k="ssr:stedsnr" v="425549" />
		<tag k="ssr:type" v="hyttefelt" />
	</node>
	<node id="5678329639" lat="58.9934833" lon="9.6878389" version="1" timestamp="2018-06-09T19:01:41Z" changeset="59697439" uid="3842253" user="NKA_import">
		<tag k="alt_name" v="Hvalvika" />
		<tag k="name" v="Hvalvik" />
		<tag k="place" v="farm" />
		<tag k="ssr:stedsnr" v="425554" />
		<tag k="ssr:type" v="bruk" />
	</node>
	<node id="5678329640" lat="59.0063806" lon="9.3582361" version="1" timestamp="2018-06-09T19:01:41Z" changeset="59697439" uid="3842253" user="NKA_import">
		<tag k="name" v="Kåsa" />
		<tag k="place" v="farm" />
		<tag k="ssr:stedsnr" v="708824" />
		<tag k="ssr:type" v="bruk" />
	</node>
	<node id="5678329641" lat="58.9810167" lon="9.6755278" version="1" timestamp="2018-06-09T19:01:41Z" changeset="59697439" uid="3842253" user="NKA_import">
		<tag k="name" v="Høvik" />
		<tag k="place" v="farm" />
		<tag k="ssr:stedsnr" v="425606" />
		<tag k="ssr:type" v="gard" />
	</node>
	<node id="5678329642" lat="58.9830861" lon="9.6095417" version="1" timestamp="2018-06-09T19:01:41Z" changeset="59697439" uid="3842253" user="NKA_import">
		<tag k="alt_name" v="Lillebrekke;Lille Brekke" />
		<tag k="name" v="Lillebrekka" />
		<tag k="place" v="farm" />
		<tag k="ssr:stedsnr" v="425610" />
		<tag k="ssr:type" v="gard" />
	</node>
	<node id="5678329643" lat="58.9541139" lon="9.4652472" version="1" timestamp="2018-06-09T19:01:41Z" changeset="59697439" uid="3842253" user="NKA_import">
		<tag k="name" v="Grummestad" />
		<tag k="place" v="farm" />
		<tag k="ssr:stedsnr" v="426284" />
		<tag k="ssr:type" v="gard" />
	</node>
	<node id="5678329644" lat="58.993125" lon="9.3368806" version="1" timestamp="2018-06-09T19:01:41Z" changeset="59697439" uid="3842253" user="NKA_import">
		<tag k="historic" v="shieling" />
		<tag k="name" v="Kilseter" />
		<tag k="place" v="locality" />
		<tag k="ssr:stedsnr" v="39791" />
		<tag k="ssr:type" v="gammelBosettingsplass" />
	</node>
	<node id="5678329645" lat="59.1224528" lon="9.5415917" version="2" timestamp="2021-04-21T19:09:32Z" changeset="103360680" uid="3497659" user="NKA">
		<tag k="name" v="Støa" />
		<tag k="place" v="isolated_dwelling" />
		<tag k="ssr:stedsnr" v="715726" />
		<tag k="ssr:type" v="fritidsbolig" />
	</node>
	<node id="5678329646" lat="59.1118556" lon="9.5544528" version="1" timestamp="2018-06-09T19:01:41Z" changeset="59697439" uid="3842253" user="NKA_import">
		<tag k="name" v="Bleiklia" />
		<tag k="place" v="farm" />
		<tag k="ssr:stedsnr" v="715741" />
		<tag k="ssr:type" v="bruk" />
	</node>
	<node id="5678329647" lat="58.9953556" lon="9.5551611" version="1" timestamp="2018-06-09T19:01:41Z" changeset="59697439" uid="3842253" user="NKA_import">
		<tag k="name" v="Skogstad" />
		<tag k="place" v="farm" />
		<tag k="ssr:stedsnr" v="426317" />
		<tag k="ssr:type" v="gard" />
	</node>
	<node id="5678329648" lat="58.9732172" lon="9.5709066" version="1" timestamp="2018-06-09T19:01:41Z" changeset="59697439" uid="3842253" user="NKA_import">
		<tag k="name" v="Rønholt" />
		<tag k="place" v="hamlet" />
		<tag k="ssr:stedsnr" v="426325" />
		<tag k="ssr:type" v="gard" />
	</node>
	<node id="5678329649" lat="58.9566722" lon="9.4507889" version="1" timestamp="2018-06-09T19:01:41Z" changeset="59697439" uid="3842253" user="NKA_import">
		<tag k="name" v="Tronskjær" />
		<tag k="place" v="isolated_dwelling" />
		<tag k="ssr:stedsnr" v="284676" />
		<tag k="ssr:type" v="eneboligMindreBoligbygg" />
	</node>
	<node id="5678329650" lat="59.0139722" lon="9.59155" version="1" timestamp="2018-06-09T19:01:41Z" changeset="59697439" uid="3842253" user="NKA_import">
		<tag k="alt_name" v="Thorsdal" />
		<tag k="name" v="Torsdal" />
		<tag k="place" v="hamlet" />
		<tag k="ssr:stedsnr" v="426662" />
		<tag k="ssr:type" v="gard" />
	</node>
	<node id="5678329651" lat="59.001375" lon="9.3546167" version="1" timestamp="2018-06-09T19:01:42Z" changeset="59697439" uid="3842253" user="NKA_import">
		<tag k="name" v="Storøy" />
		<tag k="place" v="farm" />
		<tag k="ssr:stedsnr" v="426676" />
		<tag k="ssr:type" v="bruk" />
	</node>
	<node id="5678329652" lat="59.0115639" lon="9.7385556" version="1" timestamp="2018-06-09T19:01:42Z" changeset="59697439" uid="3842253" user="NKA_import">
		<tag k="alt_name" v="Ødegården" />
		<tag k="name" v="Ødegård" />
		<tag k="place" v="farm" />
		<tag k="ssr:stedsnr" v="723526" />
		<tag k="ssr:type" v="gard" />
	</node>
	<node id="5683158488" lat="59.10735" lon="9.5576805" version="1" timestamp="2018-06-11T20:26:44Z" changeset="59753738" uid="3842253" user="NKA_import">
		<tag k="name" v="Bakken" />
		<tag k="place" v="farm" />
		<tag k="ssr:stedsnr" v="48659" />
		<tag k="ssr:type" v="bruk" />
	</node>
	<node id="5678329530" lat="58.9731779" lon="9.5414822" version="2" timestamp="2021-04-21T19:09:32Z" changeset="103360680" uid="3497659" user="NKA" />
	<node id="8653183440" lat="58.973298" lon="9.5408192" version="1" timestamp="2021-04-21T19:09:21Z" changeset="103360673" uid="3497659" user="NKA" />
	<node id="8653183441" lat="58.97328" lon="9.5411058" version="1" timestamp="2021-04-21T19:09:21Z" changeset="103360673" uid="3497659" user="NKA" />
	<node id="8653183442" lat="58.9732218" lon="9.5410921" version="1" timestamp="2021-04-21T19:09:21Z" changeset="103360673" uid="3497659" user="NKA" />
	<node id="8653183443" lat="58.9732172" lon="9.5411643" version="1" timestamp="2021-04-21T19:09:21Z" changeset="103360673" uid="3497659" user="NKA" />
	<node id="8653183444" lat="58.9731981" lon="9.5411598" version="1" timestamp="2021-04-21T19:09:21Z" changeset="103360673" uid="3497659" user="NKA" />
	<node id="8653183445" lat="58.9733962" lon="9.5415338" version="1" timestamp="2021-04-21T19:09:21Z" changeset="103360673" uid="3497659" user="NKA" />
	<node id="8653183446" lat="58.9733689" lon="9.541969" version="1" timestamp="2021-04-21T19:09:21Z" changeset="103360673" uid="3497659" user="NKA" />
	<node id="8653183447" lat="58.97303" lon="9.541889" version="1" timestamp="2021-04-21T19:09:21Z" changeset="103360673" uid="3497659" user="NKA" />
	<node id="8653183448" lat="58.973047" lon="9.5416187" version="1" timestamp="2021-04-21T19:09:21Z" changeset="103360673" uid="3497659" user="NKA" />
	<node id="8653183449" lat="58.973054" lon="9.5416203" version="1" timestamp="2021-04-21T19:09:21Z" changeset="103360673" uid="3497659" user="NKA" />
	<node id="8653183450" lat="58.973063" lon="9.541477" version="1" timestamp="2021-04-21T19:09:21Z" changeset="103360673" uid="3497659" user="NKA" />
	<node id="8653183451" lat="58.9730598" lon="9.5414762" version="1" timestamp="2021-04-21T19:09:21Z" changeset="103360673" uid="3497659" user="NKA" />
	<node id="8653183452" lat="58.9730782" lon="9.5411832" version="1" timestamp="2021-04-21T19:09:21Z" changeset="103360673" uid="3497659" user="NKA" />
	<node id="8653183453" lat="58.973084" lon="9.5411846" version="1" timestamp="2021-04-21T19:09:21Z" changeset="103360673" uid="3497659" user="NKA" />
	<node id="8653183454" lat="58.9730901" lon="9.5410877" version="1" timestamp="2021-04-21T19:09:21Z" changeset="103360673" uid="3497659" user="NKA" />
	<node id="8653183455" lat="58.9730799" lon="9.5410853" version="1" timestamp="2021-04-21T19:09:21Z" changeset="103360673" uid="3497659" user="NKA" />
	<node id="8653183456" lat="58.9730821" lon="9.5410508" version="1" timestamp="2021-04-21T19:09:21Z" changeset="103360673" uid="3497659" user="NKA" />
	<node id="8653183457" lat="58.9730922" lon="9.5410532" version="1" timestamp="2021-04-21T19:09:21Z" changeset="103360673" uid="3497659" user="NKA" />
	<node id="8653183458" lat="58.9730938" lon="9.5410289" version="1" timestamp="2021-04-21T19:09:21Z" changeset="103360673" uid="3497659" user="NKA" />
	<node id="8653183459" lat="58.9730904" lon="9.5410281" version="1" timestamp="2021-04-21T19:09:21Z" changeset="103360673" uid="3497659" user="NKA" />
	<node id="8653183460" lat="58.9731067" lon="9.5407685" version="1" timestamp="2021-04-21T19:09:21Z" changeset="103360673" uid="3497659" user="NKA" />
	<node id="8653183461" lat="58.9732672" lon="9.5408064" version="1" timestamp="2021-04-21T19:09:21Z" changeset="103360673" uid="3497659" user="NKA" />
	<node id="8653183462" lat="58.9732668" lon="9.5408118" version="1" timestamp="2021-04-21T19:09:21Z" changeset="103360673" uid="3497659" user="NKA" />
	<node id="5678329090" lat="59.1026247" lon="9.5517486" version="2" timestamp="2021-04-21T19:09:32Z" changeset="103360680" uid="3497659" user="NKA" />
	<node id="8653165436" lat="59.1025545" lon="9.551935" version="1" timestamp="2021-04-21T19:09:19Z" changeset="103360671" uid="3497659" user="NKA" />
	<node id="8653165437" lat="59.1023708" lon="9.5516724" version="1" timestamp="2021-04-21T19:09:19Z" changeset="103360671" uid="3497659" user="NKA" />
	<node id="8653165438" lat="59.102441" lon="9.551486" version="1" timestamp="2021-04-21T19:09:19Z" changeset="103360671" uid="3497659" user="NKA" />
	<node id="5678329069" lat="59.1035019" lon="9.5656706" version="8" timestamp="2020-11-09T09:40:32Z" changeset="93787018" uid="5198133" user="Wulfmorn" />
	<node id="8096376839" lat="59.102891" lon="9.5665142" version="1" timestamp="2020-11-09T09:40:32Z" changeset="93787018" uid="5198133" user="Wulfmorn" />
	<node id="8096376840" lat="59.1030914" lon="9.5663593" version="1" timestamp="2020-11-09T09:40:32Z" changeset="93787018" uid="5198133" user="Wulfmorn" />
	<node id="8096376841" lat="59.1032495" lon="9.5662098" version="1" timestamp="2020-11-09T09:40:32Z" changeset="93787018" uid="5198133" user="Wulfmorn" />
	<node id="8096376842" lat="59.1034144" lon="9.5659972" version="1" timestamp="2020-11-09T09:40:32Z" changeset="93787018" uid="5198133" user="Wulfmorn" />
	<node id="8096376843" lat="59.103413" lon="9.5659073" version="1" timestamp="2020-11-09T09:40:32Z" changeset="93787018" uid="5198133" user="Wulfmorn" />
	<node id="8096376844" lat="59.1034134" lon="9.5658155" version="1" timestamp="2020-11-09T09:40:32Z" changeset="93787018" uid="5198133" user="Wulfmorn" />
	<node id="8096376845" lat="59.1034261" lon="9.5657625" version="1" timestamp="2020-11-09T09:40:32Z" changeset="93787018" uid="5198133" user="Wulfmorn" />
	<node id="8096376846" lat="59.1034506" lon="9.5657471" version="1" timestamp="2020-11-09T09:40:32Z" changeset="93787018" uid="5198133" user="Wulfmorn" />
	<node id="8096376847" lat="59.1034757" lon="9.5657216" version="1" timestamp="2020-11-09T09:40:32Z" changeset="93787018" uid="5198133" user="Wulfmorn" />
	<node id="8096376848" lat="59.1035112" lon="9.5655761" version="1" timestamp="2020-11-09T09:40:32Z" changeset="93787018" uid="5198133" user="Wulfmorn" />
	<node id="8096376849" lat="59.1035081" lon="9.565499" version="1" timestamp="2020-11-09T09:40:32Z" changeset="93787018" uid="5198133" user="Wulfmorn" />
	<node id="8096376850" lat="59.1035081" lon="9.5654058" version="1" timestamp="2020-11-09T09:40:32Z" changeset="93787018" uid="5198133" user="Wulfmorn" />
	<node id="8096376851" lat="59.1035122" lon="9.5653575" version="1" timestamp="2020-11-09T09:40:32Z" changeset="93787018" uid="5198133" user="Wulfmorn" />
	<node id="8096376852" lat="59.1035243" lon="9.5653213" version="1" timestamp="2020-11-09T09:40:32Z" changeset="93787018" uid="5198133" user="Wulfmorn" />
	<node id="8096376853" lat="59.1035487" lon="9.5652878" version="1" timestamp="2020-11-09T09:40:32Z" changeset="93787018" uid="5198133" user="Wulfmorn" />
	<node id="8096376854" lat="59.1035725" lon="9.5652515" version="1" timestamp="2020-11-09T09:40:32Z" changeset="93787018" uid="5198133" user="Wulfmorn" />
	<node id="8096376855" lat="59.1035876" lon="9.5652033" version="1" timestamp="2020-11-09T09:40:32Z" changeset="93787018" uid="5198133" user="Wulfmorn" />
	<node id="8096376856" lat="59.1035917" lon="9.5651402" version="1" timestamp="2020-11-09T09:40:32Z" changeset="93787018" uid="5198133" user="Wulfmorn" />
	<node id="8096376857" lat="59.1035883" lon="9.5650812" version="1" timestamp="2020-11-09T09:40:32Z" changeset="93787018" uid="5198133" user="Wulfmorn" />
	<node id="8096376858" lat="59.1035718" lon="9.5650055" version="1" timestamp="2020-11-09T09:40:32Z" changeset="93787018" uid="5198133" user="Wulfmorn" />
	<node id="8096376859" lat="59.1035463" lon="9.5649458" version="1" timestamp="2020-11-09T09:40:32Z" changeset="93787018" uid="5198133" user="Wulfmorn" />
	<node id="8096376860" lat="59.1035305" lon="9.5649082" version="1" timestamp="2020-11-09T09:40:32Z" changeset="93787018" uid="5198133" user="Wulfmorn" />
	<node id="8096376861" lat="59.1035108" lon="9.5648056" version="1" timestamp="2020-11-09T09:40:32Z" changeset="93787018" uid="5198133" user="Wulfmorn" />
	<node id="8096380469" lat="59.103349" lon="9.5645991" version="1" timestamp="2020-11-09T09:40:32Z" changeset="93787018" uid="5198133" user="Wulfmorn" />
	<node id="8096380470" lat="59.1030088" lon="9.5647922" version="1" timestamp="2020-11-09T09:40:32Z" changeset="93787018" uid="5198133" user="Wulfmorn" />
	<node id="8096380471" lat="59.1027898" lon="9.5648324" version="1" timestamp="2020-11-09T09:40:32Z" changeset="93787018" uid="5198133" user="Wulfmorn" />
	<node id="8096380472" lat="59.1025254" lon="9.5648915" version="1" timestamp="2020-11-09T09:40:32Z" changeset="93787018" uid="5198133" user="Wulfmorn" />
	<node id="8096380473" lat="59.1019648" lon="9.5665732" version="1" timestamp="2020-11-09T09:40:32Z" changeset="93787018" uid="5198133" user="Wulfmorn" />
	<node id="8096380474" lat="59.1021328" lon="9.5668039" version="1" timestamp="2020-11-09T09:40:32Z" changeset="93787018" uid="5198133" user="Wulfmorn" />
	<node id="8096380475" lat="59.1023601" lon="9.5667449" version="1" timestamp="2020-11-09T09:40:32Z" changeset="93787018" uid="5198133" user="Wulfmorn" />
	<node id="8096380476" lat="59.1027085" lon="9.5665437" version="1" timestamp="2020-11-09T09:40:32Z" changeset="93787018" uid="5198133" user="Wulfmorn" />
	<node id="8096380477" lat="59.1027537" lon="9.5665853" version="1" timestamp="2020-11-09T09:40:32Z" changeset="93787018" uid="5198133" user="Wulfmorn" />
	<node id="8096380478" lat="59.1033903" lon="9.5660368" version="1" timestamp="2020-11-09T09:40:32Z" changeset="93787018" uid="5198133" user="Wulfmorn" />
	<node id="8096380479" lat="59.103495" lon="9.564591" version="1" timestamp="2020-11-09T09:40:32Z" changeset="93787018" uid="5198133" user="Wulfmorn" />
	<node id="5678329208" lat="59.105008" lon="9.571508" version="2" timestamp="2021-04-21T19:09:32Z" changeset="103360680" uid="3497659" user="NKA" />
	<node id="8653100873" lat="59.105433" lon="9.570158" version="1" timestamp="2021-04-21T19:09:00Z" changeset="103360658" uid="3497659" user="NKA" />
	<node id="8653100874" lat="59.105142" lon="9.572144" version="1" timestamp="2021-04-21T19:09:00Z" changeset="103360658" uid="3497659" user="NKA" />
	<node id="8653100875" lat="59.105063" lon="9.572214" version="1" timestamp="2021-04-21T19:09:00Z" changeset="103360658" uid="3497659" user="NKA" />
	<node id="8653100876" lat="59.105031" lon="9.572433" version="1" timestamp="2021-04-21T19:09:00Z" changeset="103360658" uid="3497659" user="NKA" />
	<node id="8653100877" lat="59.104983" lon="9.572406" version="1" timestamp="2021-04-21T19:09:00Z" changeset="103360658" uid="3497659" user="NKA" />
	<node id="8653100878" lat="59.105079" lon="9.571747" version="1" timestamp="2021-04-21T19:09:00Z" changeset="103360658" uid="3497659" user="NKA" />
	<node id="8653100879" lat="59.104985" lon="9.571695" version="1" timestamp="2021-04-21T19:09:00Z" changeset="103360658" uid="3497659" user="NKA" />
	<node id="8653100880" lat="59.104958" lon="9.571879" version="1" timestamp="2021-04-21T19:09:00Z" changeset="103360658" uid="3497659" user="NKA" />
	<node id="8653100881" lat="59.104811" lon="9.571797" version="1" timestamp="2021-04-21T19:09:00Z" changeset="103360658" uid="3497659" user="NKA" />
	<node id="8653100882" lat="59.104865" lon="9.571429" version="1" timestamp="2021-04-21T19:09:00Z" changeset="103360658" uid="3497659" user="NKA" />
	<node id="8653100883" lat="59.105194" lon="9.570231" version="1" timestamp="2021-04-21T19:09:00Z" changeset="103360658" uid="3497659" user="NKA" />
	<node id="8653100884" lat="59.105181" lon="9.570224" version="1" timestamp="2021-04-21T19:09:00Z" changeset="103360658" uid="3497659" user="NKA" />
	<node id="8653100885" lat="59.105189" lon="9.570167" version="1" timestamp="2021-04-21T19:09:00Z" changeset="103360658" uid="3497659" user="NKA" />
	<node id="8653100886" lat="59.105202" lon="9.570174" version="1" timestamp="2021-04-21T19:09:00Z" changeset="103360658" uid="3497659" user="NKA" />
	<node id="8653100887" lat="59.105223" lon="9.570039" version="1" timestamp="2021-04-21T19:09:00Z" changeset="103360658" uid="3497659" user="NKA" />
	<node id="8653100888" lat="59.105296" lon="9.57008" version="1" timestamp="2021-04-21T19:09:00Z" changeset="103360658" uid="3497659" user="NKA" />
	<node id="5678329110" lat="59.005582" lon="9.657956" version="2" timestamp="2021-04-21T19:09:32Z" changeset="103360680" uid="3497659" user="NKA" />
	<node id="8653182956" lat="59.0056619" lon="9.6578552" version="1" timestamp="2021-04-21T19:09:21Z" changeset="103360673" uid="3497659" user="NKA" />
	<node id="8653182957" lat="59.005744" lon="9.6581005" version="1" timestamp="2021-04-21T19:09:21Z" changeset="103360673" uid="3497659" user="NKA" />
	<node id="8653182958" lat="59.0056641" lon="9.6582013" version="1" timestamp="2021-04-21T19:09:21Z" changeset="103360673" uid="3497659" user="NKA" />
	<node id="5678328813" lat="59.0159978" lon="9.6784068" version="1" timestamp="2018-06-09T19:01:04Z" changeset="59697439" uid="3842253" user="NKA_import" />
	<node id="5678328814" lat="59.0162911" lon="9.6793476" version="1" timestamp="2018-06-09T19:01:04Z" changeset="59697439" uid="3842253" user="NKA_import" />
	<node id="5678328816" lat="59.0152008" lon="9.6793444" version="1" timestamp="2018-06-09T19:01:04Z" changeset="59697439" uid="3842253" user="NKA_import" />
	<node id="5678328815" lat="59.0154941" lon="9.6802852" version="1" timestamp="2018-06-09T19:01:04Z" changeset="59697439" uid="3842253" user="NKA_import" />
	<node id="5678329181" lat="59.0231649" lon="9.7367671" version="2" timestamp="2021-04-21T19:09:32Z" changeset="103360680" uid="3497659" user="NKA" />
	<node id="8653149576" lat="59.0231682" lon="9.7367832" version="1" timestamp="2021-04-21T19:09:13Z" changeset="103360665" uid="3497659" user="NKA" />
	<node id="8653149577" lat="59.0230826" lon="9.7368489" version="1" timestamp="2021-04-21T19:09:13Z" changeset="103360665" uid="3497659" user="NKA" />
	<node id="8653149578" lat="59.0230793" lon="9.7368328" version="1" timestamp="2021-04-21T19:09:13Z" changeset="103360665" uid="3497659" user="NKA" />
	<node id="8653149579" lat="59.0228676" lon="9.7369953" version="1" timestamp="2021-04-21T19:09:13Z" changeset="103360665" uid="3497659" user="NKA" />
	<node id="8653149580" lat="59.0228135" lon="9.7367291" version="1" timestamp="2021-04-21T19:09:13Z" changeset="103360665" uid="3497659" user="NKA" />
	<node id="8653149581" lat="59.0231539" lon="9.7364677" version="1" timestamp="2021-04-21T19:09:13Z" changeset="103360665" uid="3497659" user="NKA" />
	<node id="8653149582" lat="59.023208" lon="9.736734" version="1" timestamp="2021-04-21T19:09:13Z" changeset="103360665" uid="3497659" user="NKA" />
	<way id="518444478" version="2" timestamp="2021-04-21T19:09:32Z" changeset="103360680" uid="3497659" user="NKA">
		<tag k="building" v="industrial" />
		<tag k="name" v="Nylende" />
		<tag k="ref:bygningsnr" v="8560013" />
		<tag k="ssr:stedsnr" v="647706" />
		<tag k="ssr:type" v="annenIndustri-OgLagerbygning" />
		<nd ref="8653183462" />
		<nd ref="8653183461" />
		<nd ref="8653183460" />
		<nd ref="8653183459" />
		<nd ref="8653183458" />
		<nd ref="8653183457" />
		<nd ref="8653183456" />
		<nd ref="8653183455" />
		<nd ref="8653183454" />
		<nd ref="8653183453" />
		<nd ref="8653183452" />
		<nd ref="8653183451" />
		<nd ref="8653183450" />
		<nd ref="8653183449" />
		<nd ref="8653183448" />
		<nd ref="8653183447" />
		<nd ref="8653183446" />
		<nd ref="8653183445" />
		<nd ref="5678329530" />
		<nd ref="8653183444" />
		<nd ref="8653183443" />
		<nd ref="8653183442" />
		<nd ref="8653183441" />
		<nd ref="8653183440" />
		<nd ref="8653183462" />
	</way>
	<way id="595917586" version="1" timestamp="2018-06-09T19:01:42Z" changeset="59697439" uid="3842253" user="NKA_import">
		<tag k="leisure" v="pitch" />
		<tag k="name" v="Rissletta" />
		<tag k="sport" v="soccer" />
		<tag k="ssr:stedsnr" v="221070" />
		<tag k="ssr:type" v="idrettsanlegg" />
		<nd ref="5678328816" />
		<nd ref="5678328815" />
		<nd ref="5678328814" />
		<nd ref="5678328813" />
		<nd ref="5678328816" />
	</way>
	<way id="796654643" version="2" timestamp="2021-04-21T19:09:32Z" changeset="103360680" uid="3497659" user="NKA">
		<tag k="building" v="house" />
		<tag k="name" v="Stein gamle skole" />
		<tag k="ref:bygningsnr" v="165223950" />
		<tag k="ssr:stedsnr" v="510789" />
		<tag k="ssr:type" v="skole" />
		<nd ref="5678329110" />
		<nd ref="8653182958" />
		<nd ref="8653182957" />
		<nd ref="8653182956" />
		<nd ref="5678329110" />
	</way>
	<way id="868594913" version="2" timestamp="2022-01-02T21:39:31Z" changeset="115686654" uid="3497659" user="NKA">
		<tag k="alt_name" v="Herre skole i Bamble" />
		<tag k="amenity" v="school" />
		<tag k="capacity" v="164" />
		<tag k="email" v="herre.skole@bamble.kommune.no" />
		<tag k="fee" v="no" />
		<tag k="grades" v="1-10" />
		<tag k="isced:level" v="1;2" />
		<tag k="name" v="Herre skole" />
		<tag k="operator" v="Bamble kommune" />
		<tag k="operator:type" v="public" />
		<tag k="phone" v="+47 35 96 56 80" />
		<tag k="ref:gsi" v="8040" />
		<tag k="ref:udir_nsr" v="1003680" />
		<tag k="ssr:stedsnr" v="767982" />
		<tag k="ssr:type" v="skole" />
		<nd ref="8096380479" />
		<nd ref="8096376861" />
		<nd ref="8096376860" />
		<nd ref="8096376859" />
		<nd ref="8096376858" />
		<nd ref="8096376857" />
		<nd ref="8096376856" />
		<nd ref="8096376855" />
		<nd ref="8096376854" />
		<nd ref="8096376853" />
		<nd ref="8096376852" />
		<nd ref="8096376851" />
		<nd ref="8096376850" />
		<nd ref="8096376849" />
		<nd ref="8096376848" />
		<nd ref="5678329069" />
		<nd ref="8096376847" />
		<nd ref="8096376846" />
		<nd ref="8096376845" />
		<nd ref="8096376844" />
		<nd ref="8096376843" />
		<nd ref="8096376842" />
		<nd ref="8096380478" />
		<nd ref="8096376841" />
		<nd ref="8096376840" />
		<nd ref="8096376839" />
		<nd ref="8096380477" />
		<nd ref="8096380476" />
		<nd ref="8096380475" />
		<nd ref="8096380474" />
		<nd ref="8096380473" />
		<nd ref="8096380472" />
		<nd ref="8096380471" />
		<nd ref="8096380470" />
		<nd ref="8096380469" />
		<nd ref="8096380479" />
	</way>
	<way id="933580675" version="1" timestamp="2021-04-21T19:09:25Z" changeset="103360675" uid="3497659" user="NKA">
		<tag k="building" v="industrial" />
		<tag k="name" v="Livtangen" />
		<tag k="ref:bygningsnr" v="165283686" />
		<tag k="ssr:stedsnr" v="403979" />
		<tag k="ssr:type" v="annenIndustri-OgLagerbygning" />
		<nd ref="8653100888" />
		<nd ref="8653100887" />
		<nd ref="8653100886" />
		<nd ref="8653100885" />
		<nd ref="8653100884" />
		<nd ref="8653100883" />
		<nd ref="5678329208" />
		<nd ref="8653100882" />
		<nd ref="8653100881" />
		<nd ref="8653100880" />
		<nd ref="8653100879" />
		<nd ref="8653100878" />
		<nd ref="8653100877" />
		<nd ref="8653100876" />
		<nd ref="8653100875" />
		<nd ref="8653100874" />
		<nd ref="8653100873" />
		<nd ref="8653100888" />
	</way>
	<way id="933587310" version="1" timestamp="2021-04-21T19:09:25Z" changeset="103360675" uid="3497659" user="NKA">
		<tag k="building" v="industrial" />
		<tag k="name" v="Salen sagbruk" />
		<tag k="ref:bygningsnr" v="17711024" />
		<tag k="ssr:stedsnr" v="540743" />
		<tag k="ssr:type" v="annenIndustri-OgLagerbygning" />
		<nd ref="5678329181" />
		<nd ref="8653149582" />
		<nd ref="8653149581" />
		<nd ref="8653149580" />
		<nd ref="8653149579" />
		<nd ref="8653149578" />
		<nd ref="8653149577" />
		<nd ref="8653149576" />
		<nd ref="5678329181" />
	</way>
	<way id="933589325" version="1" timestamp="2021-04-21T19:09:32Z" changeset="103360680" uid="3497659" user="NKA">
		<tag k="building" v="industrial" />
		<tag k="industrial" v="factory" />
		<tag k="name" v="Bamble cellulose" />
		<tag k="ref:bygningsnr" v="8563357" />
		<tag k="ssr:stedsnr" v="62785" />
		<tag k="ssr:type" v="fabrikk" />
		<nd ref="8653165438" />
		<nd ref="8653165437" />
		<nd ref="8653165436" />
		<nd ref="5678329090" />
		<nd ref="8653165438" />
	</way>
</osm>
