<?xml version="1.0" encoding="UTF-8"?>
<osm generator="osmapis" version="0.6">
	<node id="-377916" lat="58.6505722252" lon="7.18114166803">
		<tag k="historic" v="boundary_stone" />
		<tag k="man_made" v="cairn" />
		<tag k="name" v="KrÃ¸ystingsteinen" />
		<tag k="place" v="locality" />
		<tag k="ssr:stedsnr" v="947649" />
	</node>
	<node id="-375479" lat="58.4371555577" lon="7.30653332899">
		<tag k="historic" v="boundary_stone" />
		<tag k="man_made" v="cairn" />
		<tag k="name" v="Stongsteinen" />
		<tag k="place" v="locality" />
		<tag k="ssr:stedsnr" v="400233" />
	</node>
	<node id="-377360" lat="58.3614777798" lon="7.16336111589">
		<tag k="historic" v="boundary_stone" />
		<tag k="man_made" v="cairn" />
		<tag k="name" v="Stakksteinen" />
		<tag k="place" v="locality" />
		<tag k="ssr:stedsnr" v="704936" />
	</node>
	<node id="-375563" lat="58.6000249994" lon="7.08580277081">
		<tag k="historic" v="boundary_stone" />
		<tag k="man_made" v="cairn" />
		<tag k="name" v="Sollisteinen" />
		<tag k="place" v="locality" />
		<tag k="ssr:stedsnr" v="401510" />
	</node>
	<node id="-377482" lat="58.3267305514" lon="7.11653055667">
		<tag k="historic" v="boundary_stone" />
		<tag k="man_made" v="cairn" />
		<tag k="name" v="Lutesteinen" />
		<tag k="place" v="locality" />
		<tag k="ssr:stedsnr" v="765182" />
	</node>
	<node id="-377239" lat="58.4891611072" lon="7.19995833061">
		<tag k="fixme" v="consider boundary=protected_area and relevant protect_class if not nature reserve" />
		<tag k="leisure" v="nature_reserve" />
		<tag k="name" v="Daurenosa naturreservat" />
		<tag k="ssr:stedsnr" v="703141" />
	</node>
</osm>
