<?xml version="1.0" encoding="UTF-8"?>
<osm generator="osmapis" version="0.6">
	<node id="-376831" lat="58.6274333345" lon="7.1478777705">
		<tag k="name" v="Skomakermyra" />
		<tag k="natural" v="wetland" />
		<tag k="ssr:stedsnr" v="522705" />
	</node>
	<node id="-376828" lat="58.560063886" lon="7.17866389216">
		<tag k="name" v="Rastesteinmyra" />
		<tag k="natural" v="wetland" />
		<tag k="ssr:stedsnr" v="522569" />
	</node>
	<node id="-376313" lat="58.4623583379" lon="7.31187500206">
		<tag k="name" v="Holtan" />
		<tag k="place" v="locality" />
		<tag k="ssr:stedsnr" v="218132" />
	</node>
	<node id="-376824" lat="58.3676444417" lon="7.23865278493">
		<tag k="name" v="Holamyra" />
		<tag k="natural" v="wetland" />
		<tag k="ssr:stedsnr" v="522534" />
	</node>
	<node id="-376823" lat="58.370250003" lon="7.24099444427">
		<tag k="name" v="Revemyr" />
		<tag k="natural" v="wetland" />
		<tag k="ssr:stedsnr" v="522532" />
	</node>
	<node id="-376821" lat="58.5832527748" lon="7.16238610999">
		<tag k="name" v="Vassgrasslåtta" />
		<tag k="natural" v="wetland" />
		<tag k="ssr:stedsnr" v="522524" />
	</node>
	<node id="-376062" lat="58.4098888855" lon="7.31298056091">
		<tag k="name" v="Dyblemyr" />
		<tag k="natural" v="wetland" />
		<tag k="ssr:stedsnr" v="98347" />
	</node>
	<node id="-375281" lat="58.4161638905" lon="7.16755833635">
		<tag k="name" v="Kleivmyr" />
		<tag k="natural" v="wetland" />
		<tag k="ssr:stedsnr" v="339386" />
	</node>
	<node id="-375278" lat="58.5115999958" lon="7.20278332578">
		<tag k="name" v="Finnstean" />
		<tag k="natural" v="wetland" />
		<tag k="ssr:stedsnr" v="339342" />
	</node>
	<node id="-377835" lat="58.5272083302" lon="7.22162500112">
		<tag k="name" v="Heimre Holeslåtta" />
		<tag k="natural" v="wetland" />
		<tag k="ssr:stedsnr" v="946790" />
	</node>
	<node id="-377834" lat="58.5315166708" lon="7.22422777817">
		<tag k="name" v="Indre Holeslåtta" />
		<tag k="natural" v="wetland" />
		<tag k="ssr:stedsnr" v="946787" />
	</node>
	<node id="-376806" lat="58.3985750005" lon="7.22666388322">
		<tag k="name" v="Nedre Dukan" />
		<tag k="place" v="locality" />
		<tag k="ssr:stedsnr" v="522460" />
	</node>
	<node id="-376804" lat="58.3914833293" lon="7.23274721684">
		<tag k="name" v="Monen" />
		<tag k="place" v="locality" />
		<tag k="ssr:stedsnr" v="522447" />
	</node>
	<node id="-377826" lat="58.3835972216" lon="7.26061388802">
		<tag k="name" v="Øvrajordet" />
		<tag k="place" v="locality" />
		<tag k="ssr:stedsnr" v="946614" />
	</node>
	<node id="-377825" lat="58.3834444483" lon="7.27714999329">
		<tag k="name" v="Dukan" />
		<tag k="place" v="locality" />
		<tag k="ssr:stedsnr" v="946607" />
	</node>
	<node id="-377491" lat="58.4305166653" lon="7.24808888617">
		<tag k="name" v="Dyblemyr" />
		<tag k="natural" v="wetland" />
		<tag k="ssr:stedsnr" v="765303" />
	</node>
	<node id="-375469" lat="58.4602750033" lon="7.28339722543">
		<tag k="name" v="Lindåsmyra" />
		<tag k="natural" v="wetland" />
		<tag k="ssr:stedsnr" v="400194" />
	</node>
	<node id="-377594" lat="58.4593750033" lon="7.23927499883">
		<tag k="name" v="Kvålslåtten" />
		<tag k="natural" v="wetland" />
		<tag k="ssr:stedsnr" v="825148" />
	</node>
	<node id="-376793" lat="58.4576222267" lon="7.13974443954">
		<tag k="name" v="Småtjødnmyran" />
		<tag k="natural" v="wetland" />
		<tag k="ssr:stedsnr" v="522245" />
	</node>
	<node id="-377304" lat="58.4836777742" lon="7.21173055579">
		<tag k="name" v="Blautkjerran" />
		<tag k="natural" v="wetland" />
		<tag k="ssr:stedsnr" v="704212" />
	</node>
	<node id="-377814" lat="58.506975001" lon="7.2170944526">
		<tag k="name" v="Myrtjødntuftan" />
		<tag k="natural" v="wetland" />
		<tag k="ssr:stedsnr" v="946273" />
	</node>
	<node id="-376277" lat="58.3758027785" lon="7.20368610467">
		<tag k="name" v="Kjennskarmyran" />
		<tag k="natural" v="wetland" />
		<tag k="ssr:stedsnr" v="158985" />
	</node>
	<node id="-377812" lat="58.5249166688" lon="7.20961945109">
		<tag k="name" v="Torsmyr" />
		<tag k="natural" v="wetland" />
		<tag k="ssr:stedsnr" v="946233" />
	</node>
	<node id="-375762" lat="58.5690944466" lon="7.11998332638">
		<tag k="alt_name" v="Storamyra" />
		<tag k="name" v="Storemyr" />
		<tag k="natural" v="wetland" />
		<tag k="ssr:stedsnr" v="388" />
	</node>
	<node id="-377375" lat="58.3328194421" lon="7.28279999268">
		<tag k="name" v="Austre-slåtan" />
		<tag k="natural" v="wetland" />
		<tag k="ssr:stedsnr" v="705908" />
	</node>
	<node id="-377848" lat="58.4765583368" lon="7.32889166188">
		<tag k="name" v="Krintemyr" />
		<tag k="natural" v="wetland" />
		<tag k="ssr:stedsnr" v="947046" />
	</node>
	<node id="-376782" lat="58.4629138884" lon="7.34437777021">
		<tag k="name" v="Hesjåmyran" />
		<tag k="natural" v="wetland" />
		<tag k="ssr:stedsnr" v="522151" />
	</node>
	<node id="-377762" lat="58.5355166671" lon="7.25598054788">
		<tag k="alt_name" v="Berkjestølmyran" />
		<tag k="name" v="Berkjestømyran" />
		<tag k="natural" v="wetland" />
		<tag k="ssr:stedsnr" v="910106" />
	</node>
	<node id="-377150" lat="58.3978277811" lon="7.26067221769">
		<tag k="name" v="Hommeklandsmyra" />
		<tag k="natural" v="wetland" />
		<tag k="ssr:stedsnr" v="643427" />
	</node>
	<node id="-376262" lat="58.5673305565" lon="7.22833333908">
		<tag k="name" v="Svartestein" />
		<tag k="natural" v="stone" />
		<tag k="ssr:stedsnr" v="158851" />
	</node>
	<node id="-377284" lat="58.3372083334" lon="7.21105278129">
		<tag k="name" v="Snartemomyra" />
		<tag k="natural" v="wetland" />
		<tag k="ssr:stedsnr" v="704005" />
	</node>
	<node id="-377279" lat="58.5094111129" lon="7.3710861154">
		<tag k="name" v="Nedre Sæsåsmyra" />
		<tag k="natural" v="wetland" />
		<tag k="ssr:stedsnr" v="703825" />
	</node>
	<node id="-375797" lat="58.4095527784" lon="7.17400556345">
		<tag k="name" v="Eriksmyr" />
		<tag k="natural" v="wetland" />
		<tag k="ssr:stedsnr" v="36078" />
	</node>
	<node id="-377921" lat="58.6182222246" lon="7.12642222237">
		<tag k="name" v="Bjødnehommyra" />
		<tag k="natural" v="wetland" />
		<tag k="ssr:stedsnr" v="947719" />
	</node>
	<node id="-376762" lat="58.4963861153" lon="7.36460277865">
		<tag k="name" v="Ørnemyran" />
		<tag k="natural" v="wetland" />
		<tag k="ssr:stedsnr" v="521813" />
	</node>
	<node id="-377503" lat="58.5480611143" lon="7.10430555682">
		<tag k="name" v="Kaustadmyra" />
		<tag k="natural" v="wetland" />
		<tag k="ssr:stedsnr" v="765405" />
	</node>
	<node id="-376248" lat="58.5773361116" lon="7.25684721898">
		<tag k="name" v="Bjønnvassmyra" />
		<tag k="natural" v="wetland" />
		<tag k="ssr:stedsnr" v="158635" />
	</node>
	<node id="-376759" lat="58.5189694426" lon="7.22783611918">
		<tag k="name" v="Øytjødnmyran" />
		<tag k="natural" v="wetland" />
		<tag k="ssr:stedsnr" v="521792" />
	</node>
	<node id="-375534" lat="58.4546583341" lon="7.36161667158">
		<tag k="name" v="Hesselimyr" />
		<tag k="natural" v="wetland" />
		<tag k="ssr:stedsnr" v="401153" />
	</node>
	<node id="-376905" lat="58.3962416684" lon="7.12626389262">
		<tag k="name" v="Djupa myr" />
		<tag k="natural" v="wetland" />
		<tag k="ssr:stedsnr" v="581048" />
	</node>
	<node id="-375732" lat="58.3472027796" lon="7.27148888636">
		<tag k="name" v="Taunågren" />
		<tag k="place" v="locality" />
		<tag k="ssr:stedsnr" v="887761" />
	</node>
	<node id="-375731" lat="58.3467111129" lon="7.27666388258">
		<tag k="name" v="Stedjan" />
		<tag k="natural" v="wetland" />
		<tag k="ssr:stedsnr" v="887759" />
	</node>
	<node id="-376240" lat="58.3588222179" lon="7.1661805473">
		<tag k="name" v="Kringla" />
		<tag k="natural" v="wetland" />
		<tag k="ssr:stedsnr" v="158961" />
	</node>
	<node id="-376136" lat="58.4793138883" lon="7.29646111453">
		<tag k="name" v="Gjengelimyr" />
		<tag k="natural" v="wetland" />
		<tag k="ssr:stedsnr" v="157032" />
	</node>
	<node id="-376989" lat="58.3305888907" lon="7.15399443905">
		<tag k="name" v="Stedjan" />
		<tag k="natural" v="wetland" />
		<tag k="ssr:stedsnr" v="583036" />
	</node>
	<node id="-376235" lat="58.5183250021" lon="7.08416111704">
		<tag k="name" v="Gunleivsmyr" />
		<tag k="natural" v="wetland" />
		<tag k="ssr:stedsnr" v="158495" />
	</node>
	<node id="-376233" lat="58.52162778" lon="7.14017499966">
		<tag k="name" v="Flottmyr" />
		<tag k="natural" v="wetland" />
		<tag k="ssr:stedsnr" v="158478" />
	</node>
	<node id="-376079" lat="58.3951055586" lon="7.28495555034">
		<tag k="name" v="Slåttemyr" />
		<tag k="place" v="locality" />
		<tag k="ssr:stedsnr" v="98465" />
	</node>
	<node id="-375204" lat="58.3465861144" lon="7.28611110643">
		<tag k="name" v="Kristnarsteinen" />
		<tag k="natural" v="stone" />
		<tag k="ssr:stedsnr" v="280812" />
	</node>
	<node id="-375203" lat="58.3453527738" lon="7.27137777702">
		<tag k="name" v="Skiljarmyrå" />
		<tag k="natural" v="wetland" />
		<tag k="ssr:stedsnr" v="280772" />
	</node>
	<node id="-376738" lat="58.4635777774" lon="7.25140555122">
		<tag k="name" v="Langemyr" />
		<tag k="natural" v="wetland" />
		<tag k="ssr:stedsnr" v="521188" />
	</node>
	<node id="-375200" lat="58.6133972265" lon="7.13351945049">
		<tag k="name" v="Kyrkjesteinmyra" />
		<tag k="natural" v="wetland" />
		<tag k="ssr:stedsnr" v="280754" />
	</node>
	<node id="-376223" lat="58.3865583329" lon="7.25137222601">
		<tag k="name" v="Snoremyr" />
		<tag k="place" v="locality" />
		<tag k="ssr:stedsnr" v="158432" />
	</node>
	<node id="-376222" lat="58.2901444486" lon="7.14198333556">
		<tag k="name" v="Endelausslåtta" />
		<tag k="natural" v="wetland" />
		<tag k="ssr:stedsnr" v="158420" />
	</node>
	<node id="-377413" lat="58.3952833372" lon="7.13039167286">
		<tag k="name" v="Store Myran" />
		<tag k="natural" v="wetland" />
		<tag k="ssr:stedsnr" v="763051" />
	</node>
	<node id="-377244" lat="58.454055555" lon="7.26935555582">
		<tag k="name" v="Kringlemyr" />
		<tag k="natural" v="wetland" />
		<tag k="ssr:stedsnr" v="703166" />
	</node>
	<node id="-377243" lat="58.4523583324" lon="7.26829723071">
		<tag k="name" v="Dyblemyr" />
		<tag k="natural" v="wetland" />
		<tag k="ssr:stedsnr" v="703163" />
	</node>
	<node id="-376218" lat="58.5390555541" lon="7.21001666234">
		<tag k="name" v="Sjåltaslåtta" />
		<tag k="natural" v="wetland" />
		<tag k="ssr:stedsnr" v="158399" />
	</node>
	<node id="-377241" lat="58.4730055528" lon="7.17723888996">
		<tag k="name" v="Kartemyr" />
		<tag k="natural" v="wetland" />
		<tag k="ssr:stedsnr" v="703155" />
	</node>
	<node id="-377630" lat="58.5015944481" lon="7.36698889014">
		<tag k="name" v="Djupmyr" />
		<tag k="natural" v="wetland" />
		<tag k="ssr:stedsnr" v="825801" />
	</node>
	<node id="-375209" lat="58.3261444473" lon="7.24470834163">
		<tag k="name" v="Launsmyrå" />
		<tag k="natural" v="wetland" />
		<tag k="ssr:stedsnr" v="280887" />
	</node>
	<node id="-375189" lat="58.3676333376" lon="7.28314722776">
		<tag k="name" v="Holevodden" />
		<tag k="place" v="locality" />
		<tag k="ssr:stedsnr" v="280568" />
	</node>
	<node id="-375700" lat="58.4646638857" lon="7.27606110471">
		<tag k="name" v="Storemyr" />
		<tag k="natural" v="wetland" />
		<tag k="ssr:stedsnr" v="279225" />
	</node>
	<node id="-376723" lat="58.4827611135" lon="7.2956166676">
		<tag k="name" v="Kyrkjesteinan" />
		<tag k="natural" v="stone" />
		<tag k="ssr:stedsnr" v="521037" />
	</node>
	<node id="-375185" lat="58.3737138898" lon="7.28982778602">
		<tag k="name" v="Myre" />
		<tag k="natural" v="wetland" />
		<tag k="ssr:stedsnr" v="280547" />
	</node>
	<node id="-376206" lat="58.3681361086" lon="7.2444638829">
		<tag k="name" v="Ytre Skjærstøl" />
		<tag k="natural" v="wetland" />
		<tag k="ssr:stedsnr" v="158527" />
	</node>
	<node id="-375618" lat="58.3836416656" lon="7.27503888539">
		<tag k="name" v="Hakegrå" />
		<tag k="place" v="locality" />
		<tag k="ssr:stedsnr" v="885619" />
	</node>
	<node id="-376201" lat="58.4511083301" lon="7.30651666182">
		<tag k="name" v="Laurdagsmyr" />
		<tag k="natural" v="wetland" />
		<tag k="ssr:stedsnr" v="158178" />
	</node>
	<node id="-377459" lat="58.4490861136" lon="7.21146667061">
		<tag k="name" v="Osuskjerret" />
		<tag k="natural" v="wetland" />
		<tag k="ssr:stedsnr" v="765008" />
	</node>
	<node id="-377118" lat="58.3994083335" lon="7.19427778413">
		<tag k="name" v="Storeflot" />
		<tag k="natural" v="wetland" />
		<tag k="ssr:stedsnr" v="643007" />
	</node>
	<node id="-375174" lat="58.394783333" lon="7.25758889395">
		<tag k="name" v="Bjærumsmyra" />
		<tag k="place" v="locality" />
		<tag k="ssr:stedsnr" v="280452" />
	</node>
	<node id="-375617" lat="58.4391277823" lon="7.30188333514">
		<tag k="name" v="Djupamyr" />
		<tag k="natural" v="wetland" />
		<tag k="ssr:stedsnr" v="885255" />
	</node>
	<node id="-376196" lat="58.4720138844" lon="7.25613888504">
		<tag k="name" v="Langemyr" />
		<tag k="natural" v="wetland" />
		<tag k="ssr:stedsnr" v="158113" />
	</node>
	<node id="-376194" lat="58.4890861115" lon="7.25670277244">
		<tag k="name" v="Dyblemyr" />
		<tag k="natural" v="wetland" />
		<tag k="ssr:stedsnr" v="158096" />
	</node>
	<node id="-377323" lat="58.3924749978" lon="7.28084999387">
		<tag k="name" v="Bjennsteinen" />
		<tag k="natural" v="stone" />
		<tag k="ssr:stedsnr" v="704408" />
	</node>
	<node id="-375168" lat="58.393966663" lon="7.3191583301">
		<tag k="name" v="Holeslåtta" />
		<tag k="natural" v="wetland" />
		<tag k="ssr:stedsnr" v="280406" />
	</node>
	<node id="-375166" lat="58.2940166671" lon="7.14926388949">
		<tag k="name" v="Via Myra" />
		<tag k="natural" v="wetland" />
		<tag k="ssr:stedsnr" v="280403" />
	</node>
	<node id="-375165" lat="58.5378277777" lon="7.09302778085">
		<tag k="name" v="Torvløemyra" />
		<tag k="natural" v="wetland" />
		<tag k="ssr:stedsnr" v="280382" />
	</node>
	<node id="-376187" lat="58.4679250017" lon="7.20528333792">
		<tag k="name" v="Bastevodden" />
		<tag k="place" v="locality" />
		<tag k="ssr:stedsnr" v="158020" />
	</node>
	<node id="-375674" lat="58.3415472211" lon="7.29837221461">
		<tag k="name" v="Torvemyr" />
		<tag k="natural" v="wetland" />
		<tag k="ssr:stedsnr" v="886793" />
	</node>
	<node id="-375158" lat="58.407800003" lon="7.30387499998">
		<tag k="name" v="Holeslåtten" />
		<tag k="natural" v="wetland" />
		<tag k="ssr:stedsnr" v="280323" />
	</node>
	<node id="-375668" lat="58.526738886" lon="7.13006666998">
		<tag k="name" v="Skabergmyra" />
		<tag k="natural" v="wetland" />
		<tag k="ssr:stedsnr" v="886429" />
	</node>
	<node id="-377715" lat="58.3393388862" lon="7.29838888962">
		<tag k="name" v="Røynesdalskogen" />
		<tag k="place" v="locality" />
		<tag k="ssr:stedsnr" v="826883" />
	</node>
	<node id="-376177" lat="58.5021805529" lon="7.35721111714">
		<tag k="name" v="Jomfrumyran" />
		<tag k="natural" v="wetland" />
		<tag k="ssr:stedsnr" v="157821" />
	</node>
	<node id="-376176" lat="58.4942444479" lon="7.34946943751">
		<tag k="name" v="Bergesmyr" />
		<tag k="natural" v="wetland" />
		<tag k="ssr:stedsnr" v="157804" />
	</node>
	<node id="-376687" lat="58.6117777749" lon="7.10791666175">
		<tag k="name" v="Finstedalsmyran" />
		<tag k="natural" v="wetland" />
		<tag k="ssr:stedsnr" v="462737" />
	</node>
	<node id="-376174" lat="58.5213111084" lon="7.22257500221">
		<tag k="name" v="Stompeslåtta" />
		<tag k="natural" v="wetland" />
		<tag k="ssr:stedsnr" v="157789" />
	</node>
	<node id="-377197" lat="58.3678805554" lon="7.20698056072">
		<tag k="name" v="Limyr" />
		<tag k="natural" v="wetland" />
		<tag k="ssr:stedsnr" v="643985" />
	</node>
	<node id="-376978" lat="58.4975666642" lon="7.34609444885">
		<tag k="name" v="Mostamyre" />
		<tag k="natural" v="wetland" />
		<tag k="ssr:stedsnr" v="582808" />
	</node>
	<node id="-377705" lat="58.3435833322" lon="7.2590361039">
		<tag k="name" v="Torvemyr" />
		<tag k="place" v="locality" />
		<tag k="ssr:stedsnr" v="826754" />
	</node>
	<node id="-377704" lat="58.344263885" lon="7.25674444103">
		<tag k="name" v="Rundamyr" />
		<tag k="natural" v="wetland" />
		<tag k="ssr:stedsnr" v="826752" />
	</node>
	<node id="-376167" lat="58.481891669" lon="7.20663056169">
		<tag k="name" v="Porsmyr" />
		<tag k="natural" v="wetland" />
		<tag k="ssr:stedsnr" v="158247" />
	</node>
	<node id="-375782" lat="58.392758333" lon="7.19794444051">
		<tag k="name" v="Skarstøl" />
		<tag k="place" v="locality" />
		<tag k="ssr:stedsnr" v="36010" />
	</node>
	<node id="-375138" lat="58.532744448" lon="7.13030277323">
		<tag k="name" v="Stemsmyr" />
		<tag k="natural" v="wetland" />
		<tag k="ssr:stedsnr" v="279479" />
	</node>
	<node id="-377697" lat="58.3798166707" lon="7.29353610421">
		<tag k="name" v="Spannslåtå" />
		<tag k="natural" v="wetland" />
		<tag k="ssr:stedsnr" v="826557" />
	</node>
	<node id="-375648" lat="58.383555556" lon="7.18089166132">
		<tag k="name" v="Gamla Støe" />
		<tag k="natural" v="wetland" />
		<tag k="ssr:stedsnr" v="886210" />
	</node>
	<node id="-376159" lat="58.3761555584" lon="7.19410833591">
		<tag k="name" v="Bleimyr" />
		<tag k="natural" v="wetland" />
		<tag k="ssr:stedsnr" v="158207" />
	</node>
	<node id="-376158" lat="58.3814555546" lon="7.17043334074">
		<tag k="name" v="Tornemyr" />
		<tag k="natural" v="wetland" />
		<tag k="ssr:stedsnr" v="158205" />
	</node>
	<node id="-377692" lat="58.3645138891" lon="7.24106111159">
		<tag k="name" v="Årlimyr" />
		<tag k="natural" v="wetland" />
		<tag k="ssr:stedsnr" v="826538" />
	</node>
	<node id="-375128" lat="58.4965000021" lon="7.1258333322">
		<tag k="name" v="Jenglakommonan" />
		<tag k="place" v="locality" />
		<tag k="ssr:stedsnr" v="279365" />
	</node>
	<node id="-377828" lat="58.3787944471" lon="7.22458055385">
		<tag k="name" v="Heslevodden" />
		<tag k="place" v="locality" />
		<tag k="ssr:stedsnr" v="946709" />
	</node>
	<node id="-375122" lat="58.5055472258" lon="7.08884999736">
		<tag k="name" v="Skoreslåtta" />
		<tag k="natural" v="wetland" />
		<tag k="ssr:stedsnr" v="279274" />
	</node>
	<node id="-377168" lat="58.3717805556" lon="7.24041388067">
		<tag k="name" v="Trippemyr" />
		<tag k="natural" v="wetland" />
		<tag k="ssr:stedsnr" v="643521" />
	</node>
	<node id="-377167" lat="58.3701166646" lon="7.24795277784">
		<tag k="name" v="Skjærstøl" />
		<tag k="natural" v="wetland" />
		<tag k="ssr:stedsnr" v="643520" />
	</node>
	<node id="-375630" lat="58.4843194473" lon="7.32944722211">
		<tag k="name" v="Småstedjan" />
		<tag k="natural" v="wetland" />
		<tag k="ssr:stedsnr" v="886034" />
	</node>
	<node id="-376653" lat="58.3118055589" lon="7.16859722978">
		<tag k="name" v="Viemyr" />
		<tag k="natural" v="wetland" />
		<tag k="ssr:stedsnr" v="462090" />
	</node>
	<node id="-377655" lat="58.4849583327" lon="7.25471110884">
		<tag k="name" v="Tjandyblan" />
		<tag k="natural" v="wetland" />
		<tag k="ssr:stedsnr" v="826086" />
	</node>
	<node id="-376648" lat="58.3126805511" lon="7.25522777725">
		<tag k="name" v="Heiemyr" />
		<tag k="natural" v="wetland" />
		<tag k="ssr:stedsnr" v="461992" />
	</node>
	<node id="-375436" lat="58.5088388869" lon="7.21964443686">
		<tag k="name" v="Torjeslåtta" />
		<tag k="natural" v="wetland" />
		<tag k="ssr:stedsnr" v="400008" />
	</node>
	<node id="-376646" lat="58.3498166651" lon="7.16702500302">
		<tag k="name" v="Dyblemyran" />
		<tag k="natural" v="wetland" />
		<tag k="ssr:stedsnr" v="461964" />
	</node>
	<node id="-377669" lat="58.3883833354" lon="7.16258055978">
		<tag k="name" v="Indre Torvemyr" />
		<tag k="natural" v="wetland" />
		<tag k="ssr:stedsnr" v="826243" />
	</node>
	<node id="-376643" lat="58.5151777756" lon="7.26990000193">
		<tag k="name" v="Fosseslåtten" />
		<tag k="natural" v="wetland" />
		<tag k="ssr:stedsnr" v="461822" />
	</node>
	<node id="-376642" lat="58.3415861149" lon="7.29055278574">
		<tag k="name" v="Skiljemyr" />
		<tag k="natural" v="wetland" />
		<tag k="ssr:stedsnr" v="461808" />
	</node>
	<node id="-376641" lat="58.5045166688" lon="7.31909445061">
		<tag k="name" v="Småstean" />
		<tag k="natural" v="wetland" />
		<tag k="ssr:stedsnr" v="461774" />
	</node>
	<node id="-375104" lat="58.453022223" lon="7.24176110985">
		<tag k="name" v="Strendan" />
		<tag k="natural" v="wetland" />
		<tag k="ssr:stedsnr" v="279157" />
	</node>
	<node id="-376639" lat="58.5075500009" lon="7.35074166567">
		<tag k="name" v="Takkmyran" />
		<tag k="natural" v="wetland" />
		<tag k="ssr:stedsnr" v="461765" />
	</node>
	<node id="-376638" lat="58.3822722184" lon="7.27344167456">
		<tag k="name" v="Langamyr" />
		<tag k="natural" v="wetland" />
		<tag k="ssr:stedsnr" v="461683" />
	</node>
	<node id="-376636" lat="58.3750611068" lon="7.28471110944">
		<tag k="name" v="Possmyre" />
		<tag k="natural" v="wetland" />
		<tag k="ssr:stedsnr" v="461674" />
	</node>
	<node id="-377147" lat="58.5499694415" lon="7.19122222799">
		<tag k="name" v="Springarstean" />
		<tag k="natural" v="wetland" />
		<tag k="ssr:stedsnr" v="643386" />
	</node>
	<node id="-376633" lat="58.521547225" lon="7.13366666808">
		<tag k="name" v="Mikarfossmyra" />
		<tag k="natural" v="wetland" />
		<tag k="ssr:stedsnr" v="461465" />
	</node>
	<node id="-377656" lat="58.4713611155" lon="7.27083055877">
		<tag k="name" v="Slåtten" />
		<tag k="natural" v="wetland" />
		<tag k="ssr:stedsnr" v="826097" />
	</node>
	<node id="-377143" lat="58.5436861109" lon="7.2131749972">
		<tag k="name" v="Joslistean" />
		<tag k="natural" v="wetland" />
		<tag k="ssr:stedsnr" v="643361" />
	</node>
	<node id="-375093" lat="58.4546500023" lon="7.36192500798">
		<tag k="name" v="Hosselimyr" />
		<tag k="natural" v="wetland" />
		<tag k="ssr:stedsnr" v="279087" />
	</node>
	<node id="-375091" lat="58.4708888917" lon="7.2486166628">
		<tag k="name" v="Hestesteinen" />
		<tag k="natural" v="stone" />
		<tag k="ssr:stedsnr" v="279072" />
	</node>
	<node id="-377139" lat="58.3589527774" lon="7.21603611943">
		<tag k="name" v="Gybergsnesan" />
		<tag k="place" v="locality" />
		<tag k="ssr:stedsnr" v="643219" />
	</node>
	<node id="-375087" lat="58.4522277791" lon="7.17726111449">
		<tag k="name" v="Torkelsmyr" />
		<tag k="natural" v="wetland" />
		<tag k="ssr:stedsnr" v="279045" />
	</node>
	<node id="-376622" lat="58.365649997" lon="7.25653889222">
		<tag k="name" v="Grøna støe" />
		<tag k="natural" v="wetland" />
		<tag k="ssr:stedsnr" v="462553" />
	</node>
	<node id="-375596" lat="58.5664194444" lon="7.21725833169">
		<tag k="name" v="Kissvass-steen" />
		<tag k="natural" v="wetland" />
		<tag k="ssr:stedsnr" v="401817" />
	</node>
	<node id="-376107" lat="58.3041138857" lon="7.24891667254">
		<tag k="name" v="Moltemyr" />
		<tag k="natural" v="wetland" />
		<tag k="ssr:stedsnr" v="98974" />
	</node>
	<node id="-375077" lat="58.3788305561" lon="7.27835278275">
		<tag k="name" v="Torvemyr" />
		<tag k="place" v="locality" />
		<tag k="ssr:stedsnr" v="278660" />
	</node>
	<node id="-376100" lat="58.331200002" lon="7.25072500227">
		<tag k="name" v="Hestemyr" />
		<tag k="natural" v="wetland" />
		<tag k="ssr:stedsnr" v="98885" />
	</node>
	<node id="-377123" lat="58.479108334" lon="7.32452776999">
		<tag k="name" v="Porsmyr" />
		<tag k="natural" v="wetland" />
		<tag k="ssr:stedsnr" v="643054" />
	</node>
	<node id="-376606" lat="58.4548861136" lon="7.23839444824">
		<tag k="name" v="Gjenglemyr" />
		<tag k="natural" v="wetland" />
		<tag k="ssr:stedsnr" v="461207" />
	</node>
	<node id="-377629" lat="58.3436805557" lon="7.3075277824">
		<tag k="name" v="Djubemyr" />
		<tag k="natural" v="wetland" />
		<tag k="ssr:stedsnr" v="825777" />
	</node>
	<node id="-377116" lat="58.349824996" lon="7.19372221864">
		<tag k="name" v="Lapp" />
		<tag k="natural" v="wetland" />
		<tag k="ssr:stedsnr" v="642944" />
	</node>
	<node id="-376603" lat="58.464452779" lon="7.2591555479">
		<tag k="name" v="Stømyr" />
		<tag k="natural" v="wetland" />
		<tag k="ssr:stedsnr" v="461196" />
	</node>
	<node id="-377135" lat="58.3423083327" lon="7.1464694506">
		<tag k="name" v="Grotjødnmyran" />
		<tag k="natural" v="wetland" />
		<tag k="ssr:stedsnr" v="643209" />
	</node>
	<node id="-377111" lat="58.5180805526" lon="7.28489166046">
		<tag k="name" v="Fuglemyran" />
		<tag k="natural" v="wetland" />
		<tag k="ssr:stedsnr" v="642799" />
	</node>
	<node id="-377109" lat="58.5110833369" lon="7.35902777194">
		<tag k="name" v="Sæsåsmyra" />
		<tag k="natural" v="wetland" />
		<tag k="ssr:stedsnr" v="642794" />
	</node>
	<node id="-377193" lat="58.3264194422" lon="7.2502999993">
		<tag k="name" v="Sandmyrå" />
		<tag k="natural" v="wetland" />
		<tag k="ssr:stedsnr" v="643883" />
	</node>
	<node id="-377107" lat="58.3458444406" lon="7.30112777281">
		<tag k="name" v="Kvednhusmyrå" />
		<tag k="natural" v="wetland" />
		<tag k="ssr:stedsnr" v="642766" />
	</node>
	<node id="-376080" lat="58.3919499955" lon="7.2628944436">
		<tag k="name" v="Lunden" />
		<tag k="place" v="locality" />
		<tag k="ssr:stedsnr" v="98469" />
	</node>
	<node id="-377103" lat="58.3800472178" lon="7.26344444093">
		<tag k="name" v="Rabnemyr" />
		<tag k="natural" v="wetland" />
		<tag k="ssr:stedsnr" v="642639" />
	</node>
	<node id="-375566" lat="58.5820861115" lon="7.15726110522">
		<tag k="name" v="Midtslåtta" />
		<tag k="natural" v="wetland" />
		<tag k="ssr:stedsnr" v="401519" />
	</node>
	<node id="-377099" lat="58.4321305527" lon="7.20998610785">
		<tag k="name" v="Torvmyr" />
		<tag k="natural" v="wetland" />
		<tag k="ssr:stedsnr" v="642358" />
	</node>
	<node id="-377098" lat="58.4208472243" lon="7.12038888646">
		<tag k="name" v="Stortjødndalen" />
		<tag k="natural" v="wetland" />
		<tag k="ssr:stedsnr" v="642355" />
	</node>
	<node id="-376585" lat="58.4877472197" lon="7.32565554871">
		<tag k="name" v="Myrbotnen" />
		<tag k="natural" v="wetland" />
		<tag k="ssr:stedsnr" v="461090" />
	</node>
	<node id="-376071" lat="58.5893638889" lon="7.21659166724">
		<tag k="name" v="Rauesteinen" />
		<tag k="natural" v="stone" />
		<tag k="ssr:stedsnr" v="98566" />
	</node>
	<node id="-376582" lat="58.447083337" lon="7.21155556053">
		<tag k="name" v="Moltemyr" />
		<tag k="natural" v="wetland" />
		<tag k="ssr:stedsnr" v="461069" />
	</node>
	<node id="-377302" lat="58.396027782" lon="7.2079333307">
		<tag k="name" v="Klunglands torvmyr" />
		<tag k="natural" v="wetland" />
		<tag k="ssr:stedsnr" v="704204" />
	</node>
	<node id="-377090" lat="58.4599750012" lon="7.26654723008">
		<tag k="name" v="Hestemyr" />
		<tag k="natural" v="wetland" />
		<tag k="ssr:stedsnr" v="642190" />
	</node>
	<node id="-375553" lat="58.3953583372" lon="7.31573056076">
		<tag k="name" v="Finnvollen" />
		<tag k="natural" v="wetland" />
		<tag k="ssr:stedsnr" v="401421" />
	</node>
	<node id="-377600" lat="58.5168499973" lon="7.21429722501">
		<tag k="name" v="Storaslåtta" />
		<tag k="natural" v="wetland" />
		<tag k="ssr:stedsnr" v="825199" />
	</node>
	<node id="-376960" lat="58.4967611105" lon="7.14184166406">
		<tag k="name" v="Stora myra" />
		<tag k="natural" v="wetland" />
		<tag k="ssr:stedsnr" v="582269" />
	</node>
	<node id="-376574" lat="58.4798222259" lon="7.34038055281">
		<tag k="name" v="Juvasmyr" />
		<tag k="natural" v="wetland" />
		<tag k="ssr:stedsnr" v="461035" />
	</node>
	<node id="-377597" lat="58.4561055568" lon="7.27384722821">
		<tag k="name" v="Staksmyr" />
		<tag k="natural" v="wetland" />
		<tag k="ssr:stedsnr" v="825153" />
	</node>
	<node id="-377595" lat="58.461519448" lon="7.28208889391">
		<tag k="name" v="Tornemyr" />
		<tag k="natural" v="wetland" />
		<tag k="ssr:stedsnr" v="825150" />
	</node>
	<node id="-375546" lat="58.4103499982" lon="7.24709721935">
		<tag k="name" v="Dyblemyr" />
		<tag k="natural" v="wetland" />
		<tag k="ssr:stedsnr" v="401347" />
	</node>
	<node id="-376057" lat="58.3011027811" lon="7.1560833328">
		<tag k="name" v="Sletten" />
		<tag k="place" v="locality" />
		<tag k="ssr:stedsnr" v="98096" />
	</node>
	<node id="-375289" lat="58.3889055518" lon="7.22270832811">
		<tag k="name" v="Kollemomonen" />
		<tag k="place" v="locality" />
		<tag k="ssr:stedsnr" v="339716" />
	</node>
	<node id="-377591" lat="58.4635694425" lon="7.31302222121">
		<tag k="name" v="Kvernhusmyr" />
		<tag k="natural" v="wetland" />
		<tag k="ssr:stedsnr" v="825122" />
	</node>
	<node id="-375580" lat="58.5357305544" lon="7.09245000239">
		<tag k="name" v="Lafskarsmyra" />
		<tag k="natural" v="wetland" />
		<tag k="ssr:stedsnr" v="401590" />
	</node>
	<node id="-377582" lat="58.4864861099" lon="7.17561111889">
		<tag k="name" v="Flotmyr" />
		<tag k="natural" v="wetland" />
		<tag k="ssr:stedsnr" v="825084" />
	</node>
	<node id="-375084" lat="58.468711115" lon="7.19975556165">
		<tag k="name" v="Bjørnsote" />
		<tag k="place" v="locality" />
		<tag k="ssr:stedsnr" v="279033" />
	</node>
	<node id="-377042" lat="58.3436055542" lon="7.24530555211">
		<tag k="name" v="Stora Myrå" />
		<tag k="natural" v="wetland" />
		<tag k="ssr:stedsnr" v="583786" />
	</node>
	<node id="-376042" lat="58.5546722261" lon="7.09950277384">
		<tag k="name" v="Samloghomman" />
		<tag k="natural" v="wetland" />
		<tag k="ssr:stedsnr" v="97598" />
	</node>
	<node id="-375528" lat="58.4774305578" lon="7.22922221531">
		<tag k="name" v="Porsmyr" />
		<tag k="natural" v="wetland" />
		<tag k="ssr:stedsnr" v="401125" />
	</node>
	<node id="-377575" lat="58.5118527772" lon="7.23328888224">
		<tag k="name" v="Blautamyr" />
		<tag k="natural" v="wetland" />
		<tag k="ssr:stedsnr" v="825003" />
	</node>
	<node id="-377059" lat="58.3047611074" lon="7.24106666731">
		<tag k="name" v="Storemyr" />
		<tag k="natural" v="wetland" />
		<tag k="ssr:stedsnr" v="583980" />
	</node>
	<node id="-375522" lat="58.4719638853" lon="7.24936944566">
		<tag k="name" v="Åremyran" />
		<tag k="natural" v="wetland" />
		<tag k="ssr:stedsnr" v="401091" />
	</node>
	<node id="-376976" lat="58.4955833326" lon="7.32660277766">
		<tag k="name" v="Stean" />
		<tag k="place" v="locality" />
		<tag k="ssr:stedsnr" v="582775" />
	</node>
	<node id="-375595" lat="58.3586999979" lon="7.22355000175">
		<tag k="name" v="Oldesmonen" />
		<tag k="place" v="locality" />
		<tag k="ssr:stedsnr" v="401810" />
	</node>
	<node id="-376954" lat="58.3835694437" lon="7.1844138845">
		<tag k="name" v="Kringlemyr" />
		<tag k="natural" v="wetland" />
		<tag k="ssr:stedsnr" v="582236" />
	</node>
	<node id="-377050" lat="58.3263472196" lon="7.25441388602">
		<tag k="name" v="Geiskesteinen" />
		<tag k="natural" v="stone" />
		<tag k="ssr:stedsnr" v="583892" />
	</node>
	<node id="-376868" lat="58.3338555571" lon="7.15653888933">
		<tag k="name" v="Stedjeslåtta" />
		<tag k="natural" v="wetland" />
		<tag k="ssr:stedsnr" v="523066" />
	</node>
	<node id="-377045" lat="58.3293999967" lon="7.23618889214">
		<tag k="name" v="Sæda" />
		<tag k="natural" v="wetland" />
		<tag k="ssr:stedsnr" v="583844" />
	</node>
	<node id="-376018" lat="58.5005138931" lon="7.1459888901">
		<tag k="name" v="Dukan" />
		<tag k="place" v="locality" />
		<tag k="ssr:stedsnr" v="97251" />
	</node>
	<node id="-375331" lat="58.3781527799" lon="7.14822777445">
		<tag k="name" v="Storemyran" />
		<tag k="natural" v="wetland" />
		<tag k="ssr:stedsnr" v="340212" />
	</node>
	<node id="-376013" lat="58.4568444421" lon="7.26981667519">
		<tag k="name" v="Breimyr" />
		<tag k="natural" v="wetland" />
		<tag k="ssr:stedsnr" v="97217" />
	</node>
	<node id="-375499" lat="58.3708805519" lon="7.23311111492">
		<tag k="name" v="Sparåmyr" />
		<tag k="natural" v="wetland" />
		<tag k="ssr:stedsnr" v="400761" />
	</node>
	<node id="-376009" lat="58.4534305545" lon="7.13665277707">
		<tag k="name" v="Vareslåtta" />
		<tag k="natural" v="wetland" />
		<tag k="ssr:stedsnr" v="97203" />
	</node>
	<node id="-375494" lat="58.4377166697" lon="7.21083889564">
		<tag k="name" v="Sundagsbeite" />
		<tag k="natural" v="wetland" />
		<tag k="ssr:stedsnr" v="400420" />
	</node>
	<node id="-376004" lat="58.467588889" lon="7.31279444753">
		<tag k="name" v="Hestålmyr" />
		<tag k="natural" v="wetland" />
		<tag k="ssr:stedsnr" v="97170" />
	</node>
	<node id="-377027" lat="58.3674416701" lon="7.2675361051">
		<tag k="name" v="Vidamyr" />
		<tag k="natural" v="wetland" />
		<tag k="ssr:stedsnr" v="583555" />
	</node>
	<node id="-377316" lat="58.4121305591" lon="7.22040277321">
		<tag k="name" v="Einfasura" />
		<tag k="natural" v="scree" />
		<tag k="ssr:stedsnr" v="704365" />
	</node>
	<node id="-377035" lat="58.632772222" lon="7.13552778101">
		<tag k="alt_name" v="Malepart myra" />
		<tag k="name" v="Malepartmyra" />
		<tag k="natural" v="wetland" />
		<tag k="ssr:stedsnr" v="583700" />
	</node>
	<node id="-375488" lat="58.5036444406" lon="7.19204165968">
		<tag k="name" v="Hekkfjellmyran" />
		<tag k="natural" v="wetland" />
		<tag k="ssr:stedsnr" v="400334" />
	</node>
	<node id="-375487" lat="58.5066583331" lon="7.20337500316">
		<tag k="name" v="Vassgraset" />
		<tag k="natural" v="wetland" />
		<tag k="ssr:stedsnr" v="400332" />
	</node>
	<node id="-377534" lat="58.3537277803" lon="7.21884723045">
		<tag k="name" v="Hestehagen" />
		<tag k="place" v="locality" />
		<tag k="ssr:stedsnr" v="765816" />
	</node>
	<node id="-375485" lat="58.5097861123" lon="7.21200556118">
		<tag k="name" v="Fisketjødnmyran" />
		<tag k="natural" v="wetland" />
		<tag k="ssr:stedsnr" v="400304" />
	</node>
	<node id="-377019" lat="58.4035611077" lon="7.25703333625">
		<tag k="name" v="Storemyra" />
		<tag k="natural" v="wetland" />
		<tag k="ssr:stedsnr" v="583497" />
	</node>
	<node id="-376074" lat="58.5575833318" lon="7.10486389016">
		<tag k="name" v="Kringlemyr" />
		<tag k="natural" v="wetland" />
		<tag k="ssr:stedsnr" v="98585" />
	</node>
	<node id="-377017" lat="58.3987472229" lon="7.22881389326">
		<tag k="name" v="Øvre Dukan" />
		<tag k="place" v="locality" />
		<tag k="ssr:stedsnr" v="583473" />
	</node>
	<node id="-377528" lat="58.6054333317" lon="7.09420277751">
		<tag k="name" v="Haukhommyra" />
		<tag k="natural" v="wetland" />
		<tag k="ssr:stedsnr" v="765730" />
	</node>
	<node id="-375990" lat="58.4793750039" lon="7.15891110857">
		<tag k="name" v="Knipeslåtta" />
		<tag k="natural" v="wetland" />
		<tag k="ssr:stedsnr" v="97135" />
	</node>
	<node id="-375476" lat="58.3947500013" lon="7.1625249958">
		<tag k="name" v="Kortingsteinen" />
		<tag k="natural" v="stone" />
		<tag k="ssr:stedsnr" v="400216" />
	</node>
	<node id="-375070" lat="58.3838555597" lon="7.11405833311">
		<tag k="name" v="Fossdalsmyran" />
		<tag k="natural" v="wetland" />
		<tag k="ssr:stedsnr" v="278048" />
	</node>
	<node id="-377010" lat="58.2833916624" lon="7.13993611503">
		<tag k="name" v="Pileslåtta" />
		<tag k="natural" v="wetland" />
		<tag k="ssr:stedsnr" v="583426" />
	</node>
	<node id="-377009" lat="58.2913472189" lon="7.15366666621">
		<tag k="name" v="Ospeholtet" />
		<tag k="place" v="locality" />
		<tag k="ssr:stedsnr" v="583415" />
	</node>
	<node id="-375581" lat="58.5543499958" lon="7.10499167476">
		<tag k="name" v="Geitesteinsmyran" />
		<tag k="natural" v="wetland" />
		<tag k="ssr:stedsnr" v="401600" />
	</node>
	<node id="-375467" lat="58.455236108" lon="7.26152500562">
		<tag k="name" v="St. Olavs myr" />
		<tag k="natural" v="wetland" />
		<tag k="ssr:stedsnr" v="400188" />
	</node>
	<node id="-375978" lat="58.3781999975" lon="7.22928333762">
		<tag k="name" v="Skiljarstaden" />
		<tag k="place" v="locality" />
		<tag k="ssr:stedsnr" v="96721" />
	</node>
	<node id="-375976" lat="58.4748305601" lon="7.31523056334">
		<tag k="name" v="Stedjan" />
		<tag k="natural" v="wetland" />
		<tag k="ssr:stedsnr" v="96074" />
	</node>
	<node id="-375975" lat="58.4743527795" lon="7.33039722617">
		<tag k="name" v="Flisemyran" />
		<tag k="natural" v="wetland" />
		<tag k="ssr:stedsnr" v="96068" />
	</node>
	<node id="-375974" lat="58.4711388927" lon="7.31952500394">
		<tag k="name" v="Vedremyr" />
		<tag k="natural" v="wetland" />
		<tag k="ssr:stedsnr" v="96066" />
	</node>
	<node id="-375461" lat="58.366894441" lon="7.16195833799">
		<tag k="name" v="Indre Knipeli" />
		<tag k="natural" v="wetland" />
		<tag k="ssr:stedsnr" v="400179" />
	</node>
	<node id="-377286" lat="58.4530805553" lon="7.20558610352">
		<tag k="name" v="Raptebrokkmyra" />
		<tag k="natural" v="wetland" />
		<tag k="ssr:stedsnr" v="704015" />
	</node>
	<node id="-376482" lat="58.3537027737" lon="7.17968611576">
		<tag k="name" v="Lyngmonen" />
		<tag k="natural" v="wetland" />
		<tag k="ssr:stedsnr" v="219962" />
	</node>
	<node id="-376481" lat="58.357575004" lon="7.16696388131">
		<tag k="name" v="Vidringskjerran" />
		<tag k="natural" v="wetland" />
		<tag k="ssr:stedsnr" v="219958" />
	</node>
	<node id="-377712" lat="58.5770055562" lon="7.25080833014">
		<tag k="name" v="Bjønnvasslega" />
		<tag k="natural" v="wetland" />
		<tag k="ssr:stedsnr" v="826842" />
	</node>
	<node id="-377881" lat="58.4159722204" lon="7.26852777432">
		<tag k="name" v="Eknesmyra" />
		<tag k="natural" v="wetland" />
		<tag k="ssr:stedsnr" v="947376" />
	</node>
	<node id="-377501" lat="58.545166665" lon="7.20120000358">
		<tag k="name" v="Trollselmyran" />
		<tag k="natural" v="wetland" />
		<tag k="ssr:stedsnr" v="765394" />
	</node>
	<node id="-376425" lat="58.3983777803" lon="7.30869444454">
		<tag k="name" v="Storemyr" />
		<tag k="natural" v="wetland" />
		<tag k="ssr:stedsnr" v="219399" />
	</node>
	<node id="-377496" lat="58.5515861149" lon="7.21226667348">
		<tag k="name" v="Stislåtten" />
		<tag k="natural" v="wetland" />
		<tag k="ssr:stedsnr" v="765366" />
	</node>
	<node id="-377540" lat="58.3320888896" lon="7.27916943656">
		<tag k="name" v="Pilefita" />
		<tag k="place" v="locality" />
		<tag k="ssr:stedsnr" v="765887" />
	</node>
	<node id="-377494" lat="58.4063361086" lon="7.27552221536">
		<tag k="name" v="Slåttestedjan" />
		<tag k="natural" v="wetland" />
		<tag k="ssr:stedsnr" v="765352" />
	</node>
	<node id="-375445" lat="58.4458500009" lon="7.20993888391">
		<tag k="name" v="Donså" />
		<tag k="natural" v="wetland" />
		<tag k="ssr:stedsnr" v="400071" />
	</node>
	<node id="-376980" lat="58.5165611094" lon="7.23354444563">
		<tag k="name" v="Vegeslåtta" />
		<tag k="natural" v="wetland" />
		<tag k="ssr:stedsnr" v="582824" />
	</node>
	<node id="-375150" lat="58.4529361115" lon="7.30611666644">
		<tag k="name" v="Dyblemyr" />
		<tag k="natural" v="wetland" />
		<tag k="ssr:stedsnr" v="280113" />
	</node>
	<node id="-376466" lat="58.6144416712" lon="7.13422222545">
		<tag k="name" v="Kyrkjesteinen" />
		<tag k="natural" v="stone" />
		<tag k="ssr:stedsnr" v="219764" />
	</node>
	<node id="-377877" lat="58.4060777767" lon="7.28827500446">
		<tag k="name" v="Livdalsmyra" />
		<tag k="natural" v="wetland" />
		<tag k="ssr:stedsnr" v="947365" />
	</node>
	<node id="-375440" lat="58.4580416664" lon="7.17465555521">
		<tag k="name" v="Hunskansmyran" />
		<tag k="natural" v="wetland" />
		<tag k="ssr:stedsnr" v="400031" />
	</node>
	<node id="-377484" lat="58.4691027767" lon="7.17762778405">
		<tag k="name" v="Rolimyr" />
		<tag k="natural" v="wetland" />
		<tag k="ssr:stedsnr" v="765200" />
	</node>
	<node id="-375490" lat="58.4338388863" lon="7.21177221379">
		<tag k="name" v="Fotmyr" />
		<tag k="natural" v="wetland" />
		<tag k="ssr:stedsnr" v="400372" />
	</node>
	<node id="-375552" lat="58.296088891" lon="7.15657499355">
		<tag k="name" v="Stakkelimyra" />
		<tag k="natural" v="wetland" />
		<tag k="ssr:stedsnr" v="401420" />
	</node>
	<node id="-376964" lat="58.5228472191" lon="7.15282778116">
		<tag k="name" v="Rullensmyr" />
		<tag k="natural" v="wetland" />
		<tag k="ssr:stedsnr" v="582329" />
	</node>
	<node id="-376854" lat="58.3597250014" lon="7.28042221857">
		<tag k="name" v="Audndalsmyrå" />
		<tag k="natural" v="wetland" />
		<tag k="ssr:stedsnr" v="522861" />
	</node>
	<node id="-376962" lat="58.5195583313" lon="7.20642222572">
		<tag k="name" v="Brulegmyran" />
		<tag k="natural" v="wetland" />
		<tag k="ssr:stedsnr" v="582301" />
	</node>
	<node id="-377365" lat="58.3132722217" lon="7.26416388153">
		<tag k="name" v="Sjueslåtta" />
		<tag k="natural" v="wetland" />
		<tag k="ssr:stedsnr" v="704989" />
	</node>
	<node id="-377472" lat="58.3068527765" lon="7.1515361195">
		<tag k="name" v="Agremyra" />
		<tag k="natural" v="wetland" />
		<tag k="ssr:stedsnr" v="765100" />
	</node>
	<node id="-375933" lat="58.5403694405" lon="7.26260833246">
		<tag k="name" v="Berkjestø" />
		<tag k="natural" v="wetland" />
		<tag k="ssr:stedsnr" v="37869" />
	</node>
	<node id="-375914" lat="58.5566694472" lon="7.07898055244">
		<tag k="name" v="Heddestølen" />
		<tag k="natural" v="wetland" />
		<tag k="ssr:stedsnr" v="37623" />
	</node>
	<node id="-375930" lat="58.3244055584" lon="7.22498332863">
		<tag k="name" v="Saurmyr" />
		<tag k="natural" v="wetland" />
		<tag k="ssr:stedsnr" v="37850" />
	</node>
	<node id="-376953" lat="58.4667166709" lon="7.1806888859">
		<tag k="name" v="Fyllsmyr" />
		<tag k="natural" v="wetland" />
		<tag k="ssr:stedsnr" v="582230" />
	</node>
	<node id="-377464" lat="58.4622944428" lon="7.17302500834">
		<tag k="name" v="Myran" />
		<tag k="natural" v="wetland" />
		<tag k="ssr:stedsnr" v="765045" />
	</node>
	<node id="-375112" lat="58.4880833361" lon="7.16554444643">
		<tag k="name" v="Venamyr" />
		<tag k="natural" v="wetland" />
		<tag k="ssr:stedsnr" v="279185" />
	</node>
	<node id="-376949" lat="58.3767638922" lon="7.18132499129">
		<tag k="name" v="Flæsesteinen" />
		<tag k="natural" v="stone" />
		<tag k="ssr:stedsnr" v="582200" />
	</node>
	<node id="-377972" lat="58.4344426419" lon="7.16735832586">
		<tag k="name" v="Valefjell" />
		<tag k="place" v="locality" />
		<tag k="ssr:stedsnr" v="979622" />
	</node>
	<node id="-376435" lat="58.3969861121" lon="7.2246833359">
		<tag k="name" v="Skeiægra" />
		<tag k="place" v="locality" />
		<tag k="ssr:stedsnr" v="219448" />
	</node>
	<node id="-377192" lat="58.3206666673" lon="7.2730777741">
		<tag k="name" v="Vestre Sunde" />
		<tag k="place" v="locality" />
		<tag k="ssr:stedsnr" v="643881" />
	</node>
	<node id="-377533" lat="58.3433444418" lon="7.252300006">
		<tag k="name" v="Djubamyr" />
		<tag k="natural" v="wetland" />
		<tag k="ssr:stedsnr" v="765775" />
	</node>
	<node id="-376426" lat="58.3964972216" lon="7.3115916736">
		<tag k="name" v="Sterkålslåtta" />
		<tag k="natural" v="wetland" />
		<tag k="ssr:stedsnr" v="219402" />
	</node>
	<node id="-376092" lat="58.6056333297" lon="7.10812778617">
		<tag k="name" v="Slaheimyra" />
		<tag k="natural" v="wetland" />
		<tag k="ssr:stedsnr" v="98747" />
	</node>
	<node id="-377448" lat="58.3825166683" lon="7.26447776935">
		<tag k="name" v="Høgevodden" />
		<tag k="place" v="locality" />
		<tag k="ssr:stedsnr" v="764646" />
	</node>
	<node id="-376619" lat="58.5260027794" lon="7.07858611253">
		<tag k="name" v="Bjørneskjeggmyra" />
		<tag k="natural" v="wetland" />
		<tag k="ssr:stedsnr" v="462506" />
	</node>
	<node id="-377444" lat="58.4210666673" lon="7.14455833001">
		<tag k="name" v="Sveinsoksmyran" />
		<tag k="natural" v="wetland" />
		<tag k="ssr:stedsnr" v="764378" />
	</node>
	<node id="-376931" lat="58.4855694465" lon="7.22382778219">
		<tag k="name" v="Loglimyra" />
		<tag k="natural" v="wetland" />
		<tag k="ssr:stedsnr" v="582102" />
	</node>
	<node id="-377610" lat="58.5012694456" lon="7.16774444493">
		<tag k="name" v="Stimyr" />
		<tag k="natural" v="wetland" />
		<tag k="ssr:stedsnr" v="825271" />
	</node>
	<node id="-377439" lat="58.5092944471" lon="7.19575832953">
		<tag k="name" v="Femro" />
		<tag k="natural" v="wetland" />
		<tag k="ssr:stedsnr" v="764334" />
	</node>
	<node id="-375397" lat="58.3786999982" lon="7.21584721486">
		<tag k="name" v="Blaksmonen" />
		<tag k="place" v="locality" />
		<tag k="ssr:stedsnr" v="340981" />
	</node>
	<node id="-376411" lat="58.3861750024" lon="7.16772500079">
		<tag k="name" v="Heimre Torvemyr" />
		<tag k="natural" v="wetland" />
		<tag k="ssr:stedsnr" v="219228" />
	</node>
	<node id="-376922" lat="58.4777861073" lon="7.32216943696">
		<tag k="name" v="Stedjan" />
		<tag k="natural" v="wetland" />
		<tag k="ssr:stedsnr" v="582027" />
	</node>
	<node id="-376409" lat="58.4803027757" lon="7.21472221833">
		<tag k="name" v="Myran" />
		<tag k="natural" v="wetland" />
		<tag k="ssr:stedsnr" v="219221" />
	</node>
	<node id="-377943" lat="58.3207527762" lon="7.21080556141">
		<tag k="name" v="Monen" />
		<tag k="place" v="locality" />
		<tag k="ssr:stedsnr" v="948139" />
	</node>
	<node id="-375893" lat="58.2890222186" lon="7.15043888684">
		<tag k="name" v="Trebuslåtta" />
		<tag k="natural" v="wetland" />
		<tag k="ssr:stedsnr" v="37444" />
	</node>
	<node id="-375892" lat="58.2892777803" lon="7.13603889673">
		<tag k="name" v="Dyblemyr" />
		<tag k="natural" v="wetland" />
		<tag k="ssr:stedsnr" v="37442" />
	</node>
	<node id="-377939" lat="58.3332555525" lon="7.1487361154">
		<tag k="name" v="Lislåtta" />
		<tag k="natural" v="wetland" />
		<tag k="ssr:stedsnr" v="948045" />
	</node>
	<node id="-375890" lat="58.2932805541" lon="7.15132221503">
		<tag k="name" v="Ytre Lisleslåtta" />
		<tag k="natural" v="wetland" />
		<tag k="ssr:stedsnr" v="37426" />
	</node>
	<node id="-377937" lat="58.3122305578" lon="7.25994999436">
		<tag k="name" v="Rademyr" />
		<tag k="natural" v="wetland" />
		<tag k="ssr:stedsnr" v="947987" />
	</node>
	<node id="-375888" lat="58.2923222203" lon="7.14549445307">
		<tag k="name" v="Karten" />
		<tag k="natural" v="wetland" />
		<tag k="ssr:stedsnr" v="37423" />
	</node>
	<node id="-375887" lat="58.5469833357" lon="7.1280611164">
		<tag k="name" v="Store Steinan" />
		<tag k="natural" v="stone" />
		<tag k="ssr:stedsnr" v="37420" />
	</node>
	<node id="-376910" lat="58.3798999974" lon="7.25290277976">
		<tag k="name" v="Krikjen" />
		<tag k="natural" v="wetland" />
		<tag k="ssr:stedsnr" v="581642" />
	</node>
	<node id="-376046" lat="58.4986166636" lon="7.35052500124">
		<tag k="name" v="Bjønnsmyr" />
		<tag k="natural" v="wetland" />
		<tag k="ssr:stedsnr" v="97809" />
	</node>
	<node id="-376937" lat="58.4583555549" lon="7.33174999454">
		<tag k="name" v="Myrdingsteinan" />
		<tag k="natural" v="stone" />
		<tag k="ssr:stedsnr" v="582128" />
	</node>
	<node id="-375897" lat="58.3925999981" lon="7.28703610523">
		<tag k="name" v="Dikemyr" />
		<tag k="natural" v="wetland" />
		<tag k="ssr:stedsnr" v="37468" />
	</node>
	<node id="-376906" lat="58.4722111154" lon="7.34377777068">
		<tag k="name" v="Bjønnsmyr" />
		<tag k="natural" v="wetland" />
		<tag k="ssr:stedsnr" v="581072" />
	</node>
	<node id="-376247" lat="58.5551277777" lon="7.07615278308">
		<tag k="name" v="Kringlemyr" />
		<tag k="natural" v="wetland" />
		<tag k="ssr:stedsnr" v="158608" />
	</node>
	<node id="-376391" lat="58.4807750015" lon="7.23675832543">
		<tag k="name" v="Røysen" />
		<tag k="natural" v="scree" />
		<tag k="ssr:stedsnr" v="219074" />
	</node>
	<node id="-377414" lat="58.5040972192" lon="7.25050833383">
		<tag k="name" v="Skorsmyr" />
		<tag k="natural" v="wetland" />
		<tag k="ssr:stedsnr" v="764010" />
	</node>
	<node id="-376161" lat="58.4621388908" lon="7.10866667116">
		<tag k="name" v="Blåbergmyran" />
		<tag k="natural" v="wetland" />
		<tag k="ssr:stedsnr" v="158213" />
	</node>
	<node id="-375364" lat="58.580474996" lon="7.16589166917">
		<tag k="name" v="Dritersteinen" />
		<tag k="natural" v="stone" />
		<tag k="ssr:stedsnr" v="340525" />
	</node>
	<node id="-377923" lat="58.3469638893" lon="7.26970556355">
		<tag k="name" v="Dugan" />
		<tag k="place" v="locality" />
		<tag k="ssr:stedsnr" v="947747" />
	</node>
	<node id="-376386" lat="58.4552500006" lon="7.19990278018">
		<tag k="name" v="Hestarsmyr" />
		<tag k="natural" v="wetland" />
		<tag k="ssr:stedsnr" v="219042" />
	</node>
	<node id="-376450" lat="58.3815083296" lon="7.30149999639">
		<tag k="name" v="Dalemyr" />
		<tag k="natural" v="wetland" />
		<tag k="ssr:stedsnr" v="219566" />
	</node>
	<node id="-377184" lat="58.324927777" lon="7.23203332933">
		<tag k="name" v="Stemstean" />
		<tag k="natural" v="wetland" />
		<tag k="ssr:stedsnr" v="643823" />
	</node>
	<node id="-375356" lat="58.515094445" lon="7.08418888235">
		<tag k="name" v="Storeslåtta" />
		<tag k="natural" v="wetland" />
		<tag k="ssr:stedsnr" v="340473" />
	</node>
	<node id="-375355" lat="58.405055558" lon="7.28425277811">
		<tag k="name" v="Astridsmyr" />
		<tag k="natural" v="wetland" />
		<tag k="ssr:stedsnr" v="340437" />
	</node>
	<node id="-376378" lat="58.4955722222" lon="7.25095555931">
		<tag k="name" v="Gåvemyra" />
		<tag k="natural" v="wetland" />
		<tag k="ssr:stedsnr" v="218916" />
	</node>
	<node id="-376377" lat="58.5075555554" lon="7.28132777434">
		<tag k="name" v="Dyblemyr" />
		<tag k="natural" v="wetland" />
		<tag k="ssr:stedsnr" v="218909" />
	</node>
	<node id="-375864" lat="58.3047916692" lon="7.15005555413">
		<tag k="name" v="Nylendmyra" />
		<tag k="natural" v="wetland" />
		<tag k="ssr:stedsnr" v="37121" />
	</node>
	<node id="-375863" lat="58.4911361144" lon="7.31758056328">
		<tag k="name" v="Stedjan" />
		<tag k="place" v="locality" />
		<tag k="ssr:stedsnr" v="37117" />
	</node>
	<node id="-377910" lat="58.5577305517" lon="7.14111945224">
		<tag k="name" v="Springsmyr" />
		<tag k="natural" v="wetland" />
		<tag k="ssr:stedsnr" v="947533" />
	</node>
	<node id="-375349" lat="58.4216194461" lon="7.22328889584">
		<tag k="name" v="Gasesteinen" />
		<tag k="natural" v="stone" />
		<tag k="ssr:stedsnr" v="340393" />
	</node>
	<node id="-377908" lat="58.5751583302" lon="7.1473138886">
		<tag k="name" v="Myran" />
		<tag k="natural" v="wetland" />
		<tag k="ssr:stedsnr" v="947526" />
	</node>
	<node id="-376369" lat="58.5226666622" lon="7.29926943941">
		<tag k="name" v="Soppekjerrmyra" />
		<tag k="natural" v="wetland" />
		<tag k="ssr:stedsnr" v="218895" />
	</node>
	<node id="-375856" lat="58.2984555564" lon="7.20608889195">
		<tag k="name" v="Gysura" />
		<tag k="natural" v="scree" />
		<tag k="ssr:stedsnr" v="37092" />
	</node>
	<node id="-375838" lat="58.5287527748" lon="7.22258610966">
		<tag k="name" v="Søvrinslåtta" />
		<tag k="natural" v="wetland" />
		<tag k="ssr:stedsnr" v="36795" />
	</node>
	<node id="-376362" lat="58.5342083303" lon="7.22304167472">
		<tag k="name" v="Gunleivsmyr" />
		<tag k="natural" v="wetland" />
		<tag k="ssr:stedsnr" v="218807" />
	</node>
	<node id="-375303" lat="58.4671083368" lon="7.20215556098">
		<tag k="name" v="Dukan" />
		<tag k="place" v="locality" />
		<tag k="ssr:stedsnr" v="340047" />
	</node>
	<node id="-377703" lat="58.6289972237" lon="7.1467222244">
		<tag k="name" v="Bjødnhommyra" />
		<tag k="natural" v="wetland" />
		<tag k="ssr:stedsnr" v="826718" />
	</node>
	<node id="-376359" lat="58.5094666633" lon="7.35229722783">
		<tag k="name" v="Gjestebodmyran" />
		<tag k="natural" v="wetland" />
		<tag k="old_name" v="Gjstebodmyran" />
		<tag k="ssr:stedsnr" v="218758" />
	</node>
	<node id="-377893" lat="58.3978222184" lon="7.25289166005">
		<tag k="name" v="Gysteinen" />
		<tag k="natural" v="stone" />
		<tag k="ssr:stedsnr" v="947429" />
	</node>
	<node id="-377892" lat="58.403911109" lon="7.27031388784">
		<tag k="name" v="Snoremyr" />
		<tag k="natural" v="wetland" />
		<tag k="ssr:stedsnr" v="947430" />
	</node>
	<node id="-375843" lat="58.5049555549" lon="7.36426667066">
		<tag k="name" v="Revemyran" />
		<tag k="natural" v="wetland" />
		<tag k="ssr:stedsnr" v="36820" />
	</node>
	<node id="-375842" lat="58.3479250033" lon="7.29359999594">
		<tag k="name" v="Logevodden" />
		<tag k="place" v="locality" />
		<tag k="ssr:stedsnr" v="36821" />
	</node>
	<node id="-375387" lat="58.5490638855" lon="7.24783054854">
		<tag k="name" v="Mjåvass-stølen" />
		<tag k="natural" v="wetland" />
		<tag k="ssr:stedsnr" v="340871" />
	</node>
	<node id="-377888" lat="58.384977777" lon="7.28096388149">
		<tag k="name" v="Austejordet" />
		<tag k="place" v="locality" />
		<tag k="ssr:stedsnr" v="947415" />
	</node>
	<node id="-375216" lat="58.3084805522" lon="7.25826110492">
		<tag k="name" v="Viemyra" />
		<tag k="natural" v="wetland" />
		<tag k="ssr:stedsnr" v="280986" />
	</node>
	<node id="-377374" lat="58.3112527759" lon="7.1421361076">
		<tag k="name" v="Myran" />
		<tag k="natural" v="wetland" />
		<tag k="ssr:stedsnr" v="705126" />
	</node>
	<node id="-377349" lat="58.5696416691" lon="7.23059443749">
		<tag k="name" v="Laurdagslåtta" />
		<tag k="natural" v="wetland" />
		<tag k="ssr:stedsnr" v="704831" />
	</node>
	<node id="-376348" lat="58.5238194437" lon="7.15695833406">
		<tag k="name" v="Heimra Gryttjødn" />
		<tag k="natural" v="wetland" />
		<tag k="ssr:stedsnr" v="218295" />
	</node>
	<node id="-376345" lat="58.5309416708" lon="7.20961111093">
		<tag k="name" v="Sandvassmyran" />
		<tag k="natural" v="wetland" />
		<tag k="ssr:stedsnr" v="218282" />
	</node>
	<node id="-377191" lat="58.3561944422" lon="7.28625556058">
		<tag k="name" v="Aslaksmyr" />
		<tag k="natural" v="wetland" />
		<tag k="ssr:stedsnr" v="643873" />
	</node>
	<node id="-377367" lat="58.3320000022" lon="7.14760277211">
		<tag k="name" v="Kroken" />
		<tag k="natural" v="wetland" />
		<tag k="ssr:stedsnr" v="705040" />
	</node>
	<node id="-375830" lat="58.4259444426" lon="7.15468889258">
		<tag k="name" v="Heddanslåttan" />
		<tag k="natural" v="wetland" />
		<tag k="ssr:stedsnr" v="36354" />
	</node>
	<node id="-375829" lat="58.4924083361" lon="7.12658332603">
		<tag k="name" v="Krobekkmyr" />
		<tag k="natural" v="wetland" />
		<tag k="ssr:stedsnr" v="36328" />
	</node>
	<node id="-376851" lat="58.5138638895" lon="7.29262499591">
		<tag k="name" v="Kjæsemyran" />
		<tag k="natural" v="wetland" />
		<tag k="ssr:stedsnr" v="522857" />
	</node>
	<node id="-375826" lat="58.5193194449" lon="7.15793333981">
		<tag k="name" v="Eldhusmyra" />
		<tag k="place" v="locality" />
		<tag k="ssr:stedsnr" v="36277" />
	</node>
	<node id="-375824" lat="58.5177000029" lon="7.18106667381">
		<tag k="name" v="Grashomsteinen" />
		<tag k="natural" v="stone" />
		<tag k="ssr:stedsnr" v="36267" />
	</node>
	<node id="-375311" lat="58.3174555593" lon="7.21607499779">
		<tag k="name" v="Jåddansmyra" />
		<tag k="natural" v="wetland" />
		<tag k="ssr:stedsnr" v="340104" />
	</node>
	<node id="-375822" lat="58.5183666645" lon="7.17280000782">
		<tag k="name" v="Stol" />
		<tag k="natural" v="stone" />
		<tag k="ssr:stedsnr" v="36263" />
	</node>
	<node id="-376845" lat="58.3612972231" lon="7.22585555726">
		<tag k="name" v="Gybergsmyra" />
		<tag k="place" v="locality" />
		<tag k="ssr:stedsnr" v="522820" />
	</node>
	<node id="-375820" lat="58.5320527797" lon="7.21397499811">
		<tag k="name" v="Steinstjødnmyran" />
		<tag k="natural" v="wetland" />
		<tag k="ssr:stedsnr" v="36246" />
	</node>
	<node id="-375819" lat="58.5096861132" lon="7.10101388888">
		<tag k="name" v="Langaslåtta" />
		<tag k="natural" v="wetland" />
		<tag k="ssr:stedsnr" v="36225" />
	</node>
	<node id="-375383" lat="58.3558194415" lon="7.22075833946">
		<tag k="name" v="Voddan" />
		<tag k="place" v="locality" />
		<tag k="ssr:stedsnr" v="340837" />
	</node>
	<node id="-377864" lat="58.3796611067" lon="7.18984443761">
		<tag k="name" v="Hestmyr" />
		<tag k="natural" v="wetland" />
		<tag k="ssr:stedsnr" v="947221" />
	</node>
	<node id="-376327" lat="58.4813194416" lon="7.34323333362">
		<tag k="name" v="Gråstadkjerran" />
		<tag k="natural" v="wetland" />
		<tag k="ssr:stedsnr" v="218045" />
	</node>
	<node id="-376355" lat="58.3798000043" lon="7.22081944829">
		<tag k="name" v="Øyan" />
		<tag k="place" v="locality" />
		<tag k="ssr:stedsnr" v="218722" />
	</node>
	<node id="-375301" lat="58.5035916651" lon="7.25326944929">
		<tag k="name" v="Kringlemyr" />
		<tag k="natural" v="wetland" />
		<tag k="ssr:stedsnr" v="340040" />
	</node>
	<node id="-377601" lat="58.5121472249" lon="7.09110278538">
		<tag k="name" v="Heihomman" />
		<tag k="natural" v="wetland" />
		<tag k="ssr:stedsnr" v="825200" />
	</node>
	<node id="-376730" lat="58.4197694412" lon="7.21577777888">
		<tag k="name" v="Røyrkjær" />
		<tag k="natural" v="wetland" />
		<tag k="ssr:stedsnr" v="521070" />
	</node>
	<node id="-377857" lat="58.4526277789" lon="7.31009999332">
		<tag k="name" v="Langemyr" />
		<tag k="natural" v="wetland" />
		<tag k="ssr:stedsnr" v="947149" />
	</node>
</osm>
