<?xml version="1.0" encoding="UTF-8"?>
<osm generator="osmapis" version="0.6">
	<node id="-377344" lat="58.3409583292" lon="7.27911388332">
		<tag k="name" v="Veddingstemmen" />
		<tag k="place" v="locality" />
		<tag k="ssr:stedsnr" v="704744" />
	</node>
	<node id="-377887" lat="58.5427833325" lon="7.19969722235">
		<tag k="name" v="Oddsløa" />
		<tag k="place" v="locality" />
		<tag k="ssr:stedsnr" v="947394" />
	</node>
	<node id="-377052" lat="58.3385250031" lon="7.23367222361">
		<tag k="name" v="Stompeløa" />
		<tag k="place" v="locality" />
		<tag k="ssr:stedsnr" v="583915" />
	</node>
	<node id="-377819" lat="58.4401222227" lon="7.2169611088">
		<tag k="name" v="Holebekkløa" />
		<tag k="place" v="locality" />
		<tag k="ssr:stedsnr" v="946384" />
	</node>
	<node id="-376249" lat="58.5845166699" lon="7.23447222982">
		<tag k="name" v="Flyet" />
		<tag k="ssr:stedsnr" v="158637" />
		<tag k="tourism" v="attraction" />
	</node>
	<node id="-376791" lat="58.4775111074" lon="7.21668611651">
		<tag k="amenity" v="community_centre" />
		<tag k="name" v="Eiketunet" />
		<tag k="ssr:stedsnr" v="522237" />
	</node>
	<node id="-377718" lat="58.3375027804" lon="7.22566389661">
		<tag k="name" v="Heddebrua" />
		<tag k="place" v="locality" />
		<tag k="ssr:stedsnr" v="826920" />
	</node>
	<node id="-377077" lat="58.4779444476" lon="7.20840555281">
		<tag k="amenity" v="place_of_worship" />
		<tag k="denomination" v="lutheran" />
		<tag k="name" v="Eiken" />
		<tag k="religion" v="christian" />
		<tag k="ssr:stedsnr" v="632927" />
	</node>
	<node id="-375186" lat="58.3722111138" lon="7.28419999544">
		<tag k="name" v="Kvedne" />
		<tag k="place" v="locality" />
		<tag k="ssr:stedsnr" v="280548" />
	</node>
	<node id="-376398" lat="58.4523472217" lon="7.29075277249">
		<tag k="name" v="Ved Saga" />
		<tag k="place" v="locality" />
		<tag k="ssr:stedsnr" v="219147" />
	</node>
	<node id="-377322" lat="58.3980194418" lon="7.2783666632">
		<tag k="name" v="Lauvhytta" />
		<tag k="place" v="locality" />
		<tag k="ssr:stedsnr" v="704405" />
	</node>
	<node id="-377783" lat="58.3406999964" lon="7.20557221582">
		<tag k="amenity" v="place_of_worship" />
		<tag k="denomination" v="lutheran" />
		<tag k="name" v="Hægebostad" />
		<tag k="religion" v="christian" />
		<tag k="ssr:stedsnr" v="910681" />
	</node>
	<node id="-377189" lat="58.3492055542" lon="7.28898332641">
		<tag k="amenity" v="place_of_worship" />
		<tag k="fixme" v="specify religion=*, denomination=*, building=* etc" />
		<tag k="name" v="Naglestadtoppen" />
		<tag k="ssr:stedsnr" v="643860" />
	</node>
	<node id="-375908" lat="58.5797694433" lon="7.14878055668">
		<tag k="name" v="Med løa å jo" />
		<tag k="place" v="locality" />
		<tag k="ssr:stedsnr" v="37553" />
	</node>
</osm>
