<?xml version="1.0" encoding="UTF-8"?>
<osm generator="osmapis" version="0.6">
	<node id="-374784" lat="58.356475003" lon="7.20324444744">
		<tag k="alt_name" v="Skardet" />
		<tag k="name" v="Skaret" />
		<tag k="place" v="locality" />
		<tag k="ssr:stedsnr" v="303725" />
	</node>
	<node id="-376319" lat="58.4706333355" lon="7.22739165902">
		<tag k="name" v="Skeie øvre" />
		<tag k="place" v="farm" />
		<tag k="ssr:stedsnr" v="522129" />
	</node>
	<node id="-374782" lat="58.4183083362" lon="7.26479167134">
		<tag k="alt_name" v="Steinsland, øvre" />
		<tag k="fixme" v="consider place=hamlet" />
		<tag k="name" v="Øvre Steinsland" />
		<tag k="place" v="farm" />
		<tag k="ssr:stedsnr" v="303665" />
	</node>
	<node id="-374781" lat="58.4196111122" lon="7.18407778223">
		<tag k="fixme" v="consider place=hamlet" />
		<tag k="name" v="Ro" />
		<tag k="place" v="farm" />
		<tag k="ssr:stedsnr" v="303661" />
	</node>
	<node id="-374780" lat="58.4275555532" lon="7.18038055134">
		<tag k="fixme" v="consider place=hamlet" />
		<tag k="name" v="Røydland" />
		<tag k="place" v="farm" />
		<tag k="ssr:stedsnr" v="303659" />
	</node>
	<node id="-376746" lat="58.5133750044" lon="7.27424721839">
		<tag k="alt_name" v="Karlstøl" />
		<tag k="historic" v="shieling" />
		<tag k="name" v="Kaldstøl" />
		<tag k="place" v="locality" />
		<tag k="ssr:stedsnr" v="667097" />
	</node>
	<node id="-376313" lat="58.5054250004" lon="7.25754999622">
		<tag k="name" v="Heimra-løa" />
		<tag k="place" v="locality" />
		<tag k="ssr:stedsnr" v="522032" />
	</node>
	<node id="-376312" lat="58.5099277798" lon="7.26423333429">
		<tag k="name" v="Høkaløa" />
		<tag k="place" v="locality" />
		<tag k="ssr:stedsnr" v="522030" />
	</node>
	<node id="-374775" lat="58.3217388858" lon="7.21699999418">
		<tag k="alt_name" v="Jådland" />
		<tag k="fixme" v="consider place=hamlet" />
		<tag k="name" v="Jåddan" />
		<tag k="place" v="farm" />
		<tag k="ssr:stedsnr" v="303559" />
	</node>
	<node id="-377513" lat="58.3915771624" lon="7.24290156319">
		<tag k="name" v="Bjærum" />
		<tag k="place" v="hamlet" />
		<tag k="ssr:stedsnr" v="979623" />
	</node>
	<node id="-377332" lat="58.5039527739" lon="7.36995555941">
		<tag k="name" v="Godstad" />
		<tag k="place" v="farm" />
		<tag k="ssr:stedsnr" v="911872" />
	</node>
	<node id="-374767" lat="58.4647694457" lon="7.32129444676">
		<tag k="alt_name" v="Kvåle store;Kvåle" />
		<tag k="fixme" v="consider place=hamlet" />
		<tag k="name" v="Store Kvåle" />
		<tag k="place" v="farm" />
		<tag k="ssr:stedsnr" v="303346" />
	</node>
	<node id="-377326" lat="58.3514416661" lon="7.2097249988">
		<tag k="alt_name" v="Eilevstad" />
		<tag k="fixme" v="consider place=hamlet" />
		<tag k="name" v="Eilefstad" />
		<tag k="place" v="farm" />
		<tag k="ssr:stedsnr" v="910703" />
	</node>
	<node id="-374765" lat="58.4917416696" lon="7.18767777198">
		<tag k="fixme" v="consider place=hamlet" />
		<tag k="name" v="Gardøl" />
		<tag k="place" v="farm" />
		<tag k="ssr:stedsnr" v="303307" />
	</node>
	<node id="-377324" lat="58.3331277774" lon="7.21251666073">
		<tag k="fixme" v="consider place=hamlet" />
		<tag k="name" v="Snartemo" />
		<tag k="place" v="village" />
		<tag k="ssr:stedsnr" v="910689" />
	</node>
	<node id="-374763" lat="58.5288444459" lon="7.26714721968">
		<tag k="name" v="Eikehommen" />
		<tag k="place" v="isolated_dwelling" />
		<tag k="ssr:stedsnr" v="303098" />
	</node>
	<node id="-374762" lat="58.5209805549" lon="7.16009721508">
		<tag k="alt_name" v="Øygarden" />
		<tag k="name" v="Melands Øygard" />
		<tag k="place" v="locality" />
		<tag k="ssr:stedsnr" v="303090" />
	</node>
	<node id="-377321" lat="58.4347361077" lon="7.23723610305">
		<tag k="alt_name" v="Eikneset;Eiknes" />
		<tag k="fixme" v="consider place=hamlet" />
		<tag k="name" v="Eikeneset" />
		<tag k="place" v="farm" />
		<tag k="ssr:stedsnr" v="910673" />
	</node>
	<node id="-374760" lat="58.5007166657" lon="7.17526666523">
		<tag k="fixme" v="consider place=hamlet" />
		<tag k="name" v="Handeland" />
		<tag k="place" v="farm" />
		<tag k="ssr:stedsnr" v="303061" />
	</node>
	<node id="-374609" lat="58.389022226" lon="7.13180834014">
		<tag k="name" v="Skrubbåsen" />
		<tag k="place" v="locality" />
		<tag k="ssr:stedsnr" v="278045" />
	</node>
	<node id="-377316" lat="58.3247111078" lon="7.20655278019">
		<tag k="fixme" v="consider place=hamlet" />
		<tag k="name" v="Skjeggestad" />
		<tag k="place" v="farm" />
		<tag k="ssr:stedsnr" v="910565" />
	</node>
	<node id="-377312" lat="58.5528972217" lon="7.23274723077">
		<tag k="name" v="Bryggesåhommen" />
		<tag k="place" v="locality" />
		<tag k="ssr:stedsnr" v="910392" />
	</node>
	<node id="-377424" lat="58.5397888929" lon="7.11137222431">
		<tag k="name" v="Under Fjellet" />
		<tag k="place" v="farm" />
		<tag k="ssr:stedsnr" v="947383" />
	</node>
	<node id="-375261" lat="58.3987583291" lon="7.2242472185">
		<tag k="name" v="Leitet" />
		<tag k="place" v="isolated_dwelling" />
		<tag k="ssr:stedsnr" v="887498" />
	</node>
	<node id="-376280" lat="58.5268749994" lon="7.20559999929">
		<tag k="name" v="Torskvæven" />
		<tag k="place" v="locality" />
		<tag k="ssr:stedsnr" v="521268" />
	</node>
	<node id="-376996" lat="58.528855553" lon="7.24388610582">
		<tag k="name" v="Hedde" />
		<tag k="place" v="locality" />
		<tag k="ssr:stedsnr" v="764867" />
	</node>
	<node id="-375765" lat="58.5176444409" lon="7.1224277734">
		<tag k="name" v="Haugen" />
		<tag k="place" v="farm" />
		<tag k="ssr:stedsnr" v="158442" />
	</node>
	<node id="-377274" lat="58.5096250031" lon="7.12324999788">
		<tag k="fixme" v="consider place=hamlet" />
		<tag k="name" v="Haddeland" />
		<tag k="place" v="farm" />
		<tag k="ssr:stedsnr" v="850083" />
	</node>
	<node id="-377298" lat="58.3829611115" lon="7.21721665948">
		<tag k="leisure" v="pitch" />
		<tag k="name" v="Kollemo idrettsplass" />
		<tag k="ssr:stedsnr" v="877395" />
	</node>
	<node id="-377297" lat="58.3824388878" lon="7.1930333355">
		<tag k="name" v="Bakken" />
		<tag k="place" v="farm" />
		<tag k="ssr:stedsnr" v="850733" />
	</node>
	<node id="-374776" lat="58.3965388852" lon="7.26553054849">
		<tag k="fixme" v="consider place=hamlet" />
		<tag k="name" v="Krossen" />
		<tag k="place" v="farm" />
		<tag k="ssr:stedsnr" v="303628" />
	</node>
	<node id="-376994" lat="58.5212944466" lon="7.23970556377">
		<tag k="historic" v="shieling" />
		<tag k="name" v="Øytjødn" />
		<tag k="place" v="locality" />
		<tag k="ssr:stedsnr" v="764844" />
	</node>
	<node id="-375313" lat="58.382252777" lon="7.20994166228">
		<tag k="name" v="Eikeland" />
		<tag k="place" v="farm" />
		<tag k="ssr:stedsnr" v="748" />
	</node>
	<node id="-377287" lat="58.5531861105" lon="7.08913888708">
		<tag k="name" v="Farhommen" />
		<tag k="place" v="locality" />
		<tag k="ssr:stedsnr" v="850403" />
	</node>
	<node id="-377505" lat="58.407346191" lon="7.18797331194">
		<tag k="fixme" v="consider place=hamlet" />
		<tag k="name" v="Øvre Lauen" />
		<tag k="place" v="farm" />
		<tag k="ssr:stedsnr" v="979610" />
	</node>
	<node id="-377284" lat="58.4744111156" lon="7.22523611917">
		<tag k="name" v="Eiken" />
		<tag k="place" v="farm" />
		<tag k="ssr:stedsnr" v="850328" />
	</node>
	<node id="-376768" lat="58.5397138894" lon="7.16066944819">
		<tag k="alt_name" v="Finnestøl" />
		<tag k="name" v="Finnes" />
		<tag k="place" v="locality" />
		<tag k="ssr:stedsnr" v="668099" />
	</node>
	<node id="-376254" lat="58.4171305528" lon="7.17729167045">
		<tag k="name" v="Fåland" />
		<tag k="place" v="farm" />
		<tag k="ssr:stedsnr" v="485622" />
	</node>
	<node id="-376765" lat="58.4418416678" lon="7.24159167479">
		<tag k="name" v="Vik" />
		<tag k="place" v="farm" />
		<tag k="ssr:stedsnr" v="667635" />
	</node>
	<node id="-376764" lat="58.4419305546" lon="7.26472499905">
		<tag k="alt_name" v="Bloka" />
		<tag k="name" v="Blåka" />
		<tag k="place" v="farm" />
		<tag k="ssr:stedsnr" v="667634" />
	</node>
	<node id="-376762" lat="58.3172694468" lon="7.15562499279">
		<tag k="alt_name" v="Berstøl" />
		<tag k="historic" v="shieling" />
		<tag k="name" v="Bergstøl" />
		<tag k="place" v="locality" />
		<tag k="ssr:stedsnr" v="667517" />
	</node>
	<node id="-376761" lat="58.3182888875" lon="7.28307500242">
		<tag k="alt_name" v="Austre Sunde;Østre Sunde" />
		<tag k="fixme" v="consider place=hamlet" />
		<tag k="name" v="Sunde" />
		<tag k="place" v="farm" />
		<tag k="ssr:stedsnr" v="667507" />
	</node>
	<node id="-376248" lat="58.4485194403" lon="7.19614166641">
		<tag k="fixme" v="consider place=hamlet" />
		<tag k="name" v="Skytel" />
		<tag k="place" v="farm" />
		<tag k="ssr:stedsnr" v="485303" />
	</node>
	<node id="-375222" lat="58.5876361141" lon="7.11866111182">
		<tag k="name" v="Gammel Øygard" />
		<tag k="place" v="locality" />
		<tag k="ssr:stedsnr" v="887545" />
	</node>
	<node id="-375220" lat="58.6181555551" lon="7.1652111041">
		<tag k="barrier" v="fence" />
		<tag k="name" v="Haien" />
		<tag k="ssr:stedsnr" v="887536" />
	</node>
	<node id="-376748" lat="58.4974777807" lon="7.32548332708">
		<tag k="alt_name" v="Tilhaugen" />
		<tag k="fixme" v="consider place=hamlet" />
		<tag k="name" v="Telhaug" />
		<tag k="place" v="farm" />
		<tag k="ssr:stedsnr" v="667315" />
	</node>
	<node id="-375722" lat="58.3532499981" lon="7.19021110937">
		<tag k="name" v="Nedre Skothei" />
		<tag k="place" v="locality" />
		<tag k="ssr:stedsnr" v="157951" />
	</node>
	<node id="-376745" lat="58.4122166698" lon="7.26014166177">
		<tag k="name" v="Steinsland" />
		<tag k="place" v="hamlet" />
		<tag k="ssr:stedsnr" v="660777" />
	</node>
	<node id="-374694" lat="58.4287750014" lon="7.27376943703">
		<tag k="name" v="Strondeløa" />
		<tag k="place" v="locality" />
		<tag k="ssr:stedsnr" v="280280" />
	</node>
	<node id="-377528" lat="58.4785292478" lon="7.21118780708">
		<tag k="fixme" v="consider place=hamlet" />
		<tag k="name" v="Øvre Eiken" />
		<tag k="place" v="farm" />
		<tag k="ssr:stedsnr" v="979638" />
	</node>
	<node id="-377327" lat="58.3538527775" lon="7.21424444352">
		<tag k="fixme" v="consider place=hamlet" />
		<tag k="name" v="Gyberg" />
		<tag k="place" v="farm" />
		<tag k="ssr:stedsnr" v="910725" />
	</node>
	<node id="-374680" lat="58.4949250038" lon="7.328613881">
		<tag k="name" v="Gamle Telhaug gard" />
		<tag k="place" v="locality" />
		<tag k="ssr:stedsnr" v="279759" />
	</node>
	<node id="-376700" lat="58.5943638918" lon="7.14308055956">
		<tag k="name" v="Linjehytta" />
		<tag k="place" v="isolated_dwelling" />
		<tag k="ssr:stedsnr" v="643489" />
	</node>
	<node id="-375162" lat="58.3730361151" lon="7.22323055674">
		<tag k="fixme" v="consider place=hamlet" />
		<tag k="name" v="Nedre Birkeland" />
		<tag k="place" v="farm" />
		<tag k="ssr:stedsnr" v="885701" />
	</node>
	<node id="-375673" lat="58.3878305518" lon="7.12631666532">
		<tag k="name" v="Ruskåsen" />
		<tag k="place" v="locality" />
		<tag k="ssr:stedsnr" v="156038" />
	</node>
	<node id="-376947" lat="58.4378666686" lon="7.21795000487">
		<tag k="fixme" v="consider place=hamlet" />
		<tag k="name" v="Kleppe" />
		<tag k="place" v="farm" />
		<tag k="ssr:stedsnr" v="728646" />
	</node>
	<node id="-375667" lat="58.380147224" lon="7.28617500628">
		<tag k="alt_name" v="Åmdal" />
		<tag k="fixme" v="consider place=hamlet" />
		<tag k="name" v="Åmdalen" />
		<tag k="place" v="farm" />
		<tag k="ssr:stedsnr" v="121734" />
	</node>
	<node id="-375666" lat="58.3825666636" lon="7.26735000457">
		<tag k="name" v="Røyseland" />
		<tag k="place" v="farm" />
		<tag k="ssr:stedsnr" v="121728" />
	</node>
	<node id="-376689" lat="58.3954666641" lon="7.24954721788">
		<tag k="name" v="Krona" />
		<tag k="place" v="farm" />
		<tag k="ssr:stedsnr" v="643421" />
	</node>
	<node id="-375663" lat="58.4291361149" lon="7.2574194453">
		<tag k="alt_name" v="Stranden" />
		<tag k="fixme" v="consider place=hamlet" />
		<tag k="name" v="Stronda" />
		<tag k="place" v="farm" />
		<tag k="ssr:stedsnr" v="121685" />
	</node>
	<node id="-375661" lat="58.4240083317" lon="7.27587222255">
		<tag k="fixme" v="consider place=hamlet" />
		<tag k="name" v="Gletne" />
		<tag k="place" v="farm" />
		<tag k="ssr:stedsnr" v="121659" />
	</node>
	<node id="-376681" lat="58.4492194427" lon="7.31381944765">
		<tag k="name" v="Homestøl" />
		<tag k="place" v="locality" />
		<tag k="ssr:stedsnr" v="643245" />
	</node>
	<node id="-377272" lat="58.3030416678" lon="7.15406111532">
		<tag k="fixme" v="consider place=hamlet" />
		<tag k="name" v="Espeland" />
		<tag k="place" v="farm" />
		<tag k="ssr:stedsnr" v="849562" />
	</node>
	<node id="-376678" lat="58.3511277742" lon="7.215830551">
		<tag k="name" v="Dugan" />
		<tag k="place" v="farm" />
		<tag k="ssr:stedsnr" v="643216" />
	</node>
	<node id="-375645" lat="58.3586583297" lon="7.17758888554">
		<tag k="name" v="Øygarden" />
		<tag k="place" v="locality" />
		<tag k="ssr:stedsnr" v="98943" />
	</node>
	<node id="-377514" lat="58.4162532415" lon="7.26238201422">
		<tag k="name" v="Steinsland" />
		<tag k="place" v="hamlet" />
		<tag k="ssr:stedsnr" v="979624" />
	</node>
	<node id="-375098" lat="58.5151000022" lon="7.11852500314">
		<tag k="name" v="Lunden" />
		<tag k="place" v="farm" />
		<tag k="ssr:stedsnr" v="401480" />
	</node>
	<node id="-374618" lat="58.3743666654" lon="7.22265832597">
		<tag k="name" v="Gumpen" />
		<tag k="place" v="farm" />
		<tag k="ssr:stedsnr" v="278740" />
	</node>
	<node id="-377177" lat="58.5135527743" lon="7.27820555646">
		<tag k="name" v="Austarvodden" />
		<tag k="place" v="locality" />
		<tag k="ssr:stedsnr" v="825867" />
	</node>
	<node id="-377174" lat="58.5336055557" lon="7.27674722534">
		<tag k="name" v="Sjekholtstølen" />
		<tag k="place" v="locality" />
		<tag k="ssr:stedsnr" v="825831" />
	</node>
	<node id="-376657" lat="58.3372444452" lon="7.20103333785">
		<tag k="name" v="Skaret" />
		<tag k="place" v="farm" />
		<tag k="ssr:stedsnr" v="643006" />
	</node>
	<node id="-374960" lat="58.3110277771" lon="7.17329721589">
		<tag k="alt_name" v="Eiriksstøl" />
		<tag k="fixme" v="consider place=hamlet" />
		<tag k="name" v="Eirikstøl" />
		<tag k="place" v="farm" />
		<tag k="ssr:stedsnr" v="364542" />
	</node>
	<node id="-375115" lat="58.5585083368" lon="7.08123332726">
		<tag k="name" v="Liestølen" />
		<tag k="place" v="locality" />
		<tag k="ssr:stedsnr" v="401540" />
	</node>
	<node id="-376126" lat="58.4064750035" lon="7.18507777745">
		<tag k="name" v="Lauen øvre" />
		<tag k="place" v="hamlet" />
		<tag k="ssr:stedsnr" v="461100" />
	</node>
	<node id="-376634" lat="58.4960083326" lon="7.16771665884">
		<tag k="building" v="industrial" />
		<tag k="industrial" v="factory" />
		<tag k="name" v="Eikås sagbruk" />
		<tag k="ssr:stedsnr" v="642297" />
	</node>
	<node id="-376118" lat="58.3472777745" lon="7.21240832873">
		<tag k="alt_name" v="Moen" />
		<tag k="fixme" v="consider place=hamlet" />
		<tag k="name" v="Monen" />
		<tag k="place" v="farm" />
		<tag k="ssr:stedsnr" v="461058" />
	</node>
	<node id="-376628" lat="58.4810444428" lon="7.12188334025">
		<tag k="name" v="Krokspor" />
		<tag k="place" v="locality" />
		<tag k="ssr:stedsnr" v="642165" />
	</node>
	<node id="-376107" lat="58.5002722226" lon="7.22826388098">
		<tag k="name" v="Fiskelandsstølen" />
		<tag k="place" v="locality" />
		<tag k="ssr:stedsnr" v="461001" />
	</node>
	<node id="-376613" lat="58.4272777768" lon="7.16470554859">
		<tag k="alt_name" v="Heddan" />
		<tag k="fixme" v="consider place=hamlet" />
		<tag k="name" v="Helland" />
		<tag k="place" v="farm" />
		<tag k="ssr:stedsnr" v="606675" />
	</node>
	<node id="-376611" lat="58.4024944423" lon="7.31187499221">
		<tag k="alt_name" v="Heddås" />
		<tag k="fixme" v="consider place=hamlet" />
		<tag k="name" v="Hellåsen" />
		<tag k="place" v="farm" />
		<tag k="ssr:stedsnr" v="606651" />
	</node>
	<node id="-376610" lat="58.3958388853" lon="7.19129166153">
		<tag k="fixme" v="consider place=hamlet" />
		<tag k="name" v="Hommen" />
		<tag k="place" v="farm" />
		<tag k="ssr:stedsnr" v="606623" />
	</node>
	<node id="-376609" lat="58.4018444425" lon="7.29191389292">
		<tag k="alt_name" v="Yksnedal" />
		<tag k="fixme" v="consider place=hamlet" />
		<tag k="name" v="Yksendal" />
		<tag k="place" v="farm" />
		<tag k="ssr:stedsnr" v="606619" />
	</node>
	<node id="-376096" lat="58.5037888872" lon="7.16513333087">
		<tag k="name" v="Stiland" />
		<tag k="place" v="farm" />
		<tag k="ssr:stedsnr" v="461329" />
	</node>
	<node id="-376095" lat="58.3852666657" lon="7.21474999837">
		<tag k="alt_name" v="Kålemo" />
		<tag k="fixme" v="consider place=hamlet" />
		<tag k="name" v="Kollemo" />
		<tag k="place" v="farm" />
		<tag k="ssr:stedsnr" v="425743" />
	</node>
	<node id="-376605" lat="58.4800166622" lon="7.1931888855">
		<tag k="alt_name" v="Vatne, øvre;Vatne" />
		<tag k="fixme" v="consider place=hamlet" />
		<tag k="name" v="Øvre Vatne" />
		<tag k="place" v="farm" />
		<tag k="ssr:stedsnr" v="606311" />
	</node>
	<node id="-376092" lat="58.3303000007" lon="7.20471389649">
		<tag k="fixme" v="consider place=hamlet" />
		<tag k="name" v="Høyland" />
		<tag k="place" v="farm" />
		<tag k="ssr:stedsnr" v="425713" />
	</node>
	<node id="-376091" lat="58.346172218" lon="7.26809165885">
		<tag k="fixme" v="consider place=hamlet" />
		<tag k="name" v="Mydland" />
		<tag k="place" v="farm" />
		<tag k="ssr:stedsnr" v="425699" />
	</node>
	<node id="-376088" lat="58.4245666641" lon="7.23514444766">
		<tag k="fixme" v="consider place=hamlet" />
		<tag k="name" v="Neset" />
		<tag k="place" v="farm" />
		<tag k="ssr:stedsnr" v="425653" />
	</node>
	<node id="-375570" lat="58.549458331" lon="7.20828054783">
		<tag k="name" v="Trollsel" />
		<tag k="place" v="locality" />
		<tag k="ssr:stedsnr" v="97384" />
	</node>
	<node id="-377268" lat="58.3576944484" lon="7.11593888418">
		<tag k="name" v="Øygarden" />
		<tag k="place" v="locality" />
		<tag k="ssr:stedsnr" v="826996" />
	</node>
	<node id="-376076" lat="58.4680638886" lon="7.3232333384">
		<tag k="alt_name" v="Kvåle lille" />
		<tag k="fixme" v="consider place=hamlet" />
		<tag k="name" v="Lille Kvåle" />
		<tag k="place" v="farm" />
		<tag k="ssr:stedsnr" v="425357" />
	</node>
	<node id="-375051" lat="58.3296999988" lon="7.21526389633">
		<tag k="fixme" v="consider place=hamlet" />
		<tag k="name" v="Nedre Snartemo" />
		<tag k="place" v="farm" />
		<tag k="ssr:stedsnr" v="401007" />
	</node>
	<node id="-376074" lat="58.488280557" lon="7.30922777936">
		<tag k="alt_name" v="Verdal, vestre;Verdal" />
		<tag k="fixme" v="consider place=hamlet" />
		<tag k="name" v="Vestre Verdal" />
		<tag k="place" v="farm" />
		<tag k="ssr:stedsnr" v="425347" />
	</node>
	<node id="-376073" lat="58.4730722192" lon="7.19822500342">
		<tag k="alt_name" v="Vatne, yt" />
		<tag k="fixme" v="consider place=hamlet" />
		<tag k="name" v="Ytre Vatne" />
		<tag k="place" v="farm" />
		<tag k="ssr:stedsnr" v="425340" />
	</node>
	<node id="-376072" lat="58.4787361134" lon="7.20845555207">
		<tag k="name" v="Eiken" />
		<tag k="place" v="hamlet" />
		<tag k="ssr:stedsnr" v="425339" />
	</node>
	<node id="-377094" lat="58.520847222" lon="7.10980833988">
		<tag k="alt_name" v="Åvetsland" />
		<tag k="fixme" v="consider place=hamlet" />
		<tag k="name" v="Åvesland" />
		<tag k="place" v="farm" />
		<tag k="ssr:stedsnr" v="788088" />
	</node>
	<node id="-376067" lat="58.5051833363" lon="7.16217777557">
		<tag k="name" v="Meland" />
		<tag k="place" v="farm" />
		<tag k="ssr:stedsnr" v="425058" />
	</node>
	<node id="-376066" lat="58.5017222248" lon="7.14378333707">
		<tag k="alt_name" v="Orta" />
		<tag k="fixme" v="consider place=hamlet" />
		<tag k="name" v="Orte" />
		<tag k="place" v="farm" />
		<tag k="ssr:stedsnr" v="425056" />
	</node>
	<node id="-376059" lat="58.3889805528" lon="7.24680000511">
		<tag k="fixme" v="multiple name tags, choose one and add the other to alt_name; consider place=hamlet" />
		<tag k="name" v="Nedre Bjærum;Ytre Bjerom" />
		<tag k="place" v="farm" />
		<tag k="ssr:stedsnr" v="243741" />
	</node>
	<node id="-376058" lat="58.3880527806" lon="7.20195000619">
		<tag k="fixme" v="consider place=hamlet" />
		<tag k="name" v="Kjellingland" />
		<tag k="place" v="farm" />
		<tag k="ssr:stedsnr" v="243738" />
	</node>
	<node id="-376057" lat="58.4114694488" lon="7.25927221717">
		<tag k="alt_name" v="Steinsland, nedre" />
		<tag k="fixme" v="consider place=hamlet" />
		<tag k="name" v="Nedre Steinsland" />
		<tag k="place" v="farm" />
		<tag k="ssr:stedsnr" v="243678" />
	</node>
	<node id="-377079" lat="58.3382916645" lon="7.29261667236">
		<tag k="name" v="Solheim" />
		<tag k="place" v="farm" />
		<tag k="ssr:stedsnr" v="765882" />
	</node>
	<node id="-376054" lat="58.3304777758" lon="7.27015555651">
		<tag k="fixme" v="consider place=hamlet" />
		<tag k="name" v="Kvestad" />
		<tag k="place" v="farm" />
		<tag k="ssr:stedsnr" v="243572" />
	</node>
	<node id="-376053" lat="58.3271777805" lon="7.14501667154">
		<tag k="name" v="Bjørnstøl" />
		<tag k="place" v="isolated_dwelling" />
		<tag k="ssr:stedsnr" v="243569" />
	</node>
	<node id="-376046" lat="58.5634805584" lon="7.18581111267">
		<tag k="name" v="Krobustøl" />
		<tag k="place" v="isolated_dwelling" />
		<tag k="ssr:stedsnr" v="243379" />
	</node>
	<node id="-376038" lat="58.461558336" lon="7.23147777544">
		<tag k="alt_name" v="Skeide" />
		<tag k="fixme" v="consider place=hamlet" />
		<tag k="name" v="Skeie" />
		<tag k="place" v="village" />
		<tag k="ssr:stedsnr" v="243341" />
	</node>
	<node id="-376035" lat="58.513302775" lon="7.26719722568">
		<tag k="alt_name" v="Vadløa" />
		<tag k="name" v="Valøa" />
		<tag k="place" v="isolated_dwelling" />
		<tag k="ssr:stedsnr" v="243060" />
	</node>
	<node id="-377317" lat="58.3901750022" lon="7.19477778494">
		<tag k="name" v="Dukå" />
		<tag k="place" v="farm" />
		<tag k="ssr:stedsnr" v="910629" />
	</node>
	<node id="-376027" lat="58.342188892" lon="7.20805834037">
		<tag k="fixme" v="multiple name tags, choose one and add the other to alt_name; consider place=hamlet" />
		<tag k="name" v="Prestegarden;Hægebostad prestegård" />
		<tag k="place" v="farm" />
		<tag k="ssr:stedsnr" v="243705" />
	</node>
	<node id="-376026" lat="58.3466555549" lon="7.29321111377">
		<tag k="fixme" v="consider place=hamlet" />
		<tag k="name" v="Naglestad" />
		<tag k="place" v="farm" />
		<tag k="ssr:stedsnr" v="243704" />
	</node>
	<node id="-375505" lat="58.3453249979" lon="7.20489721603">
		<tag k="name" v="Neset" />
		<tag k="place" v="farm" />
		<tag k="ssr:stedsnr" v="61684" />
	</node>
	<node id="-376522" lat="58.51873056" lon="7.29041388628">
		<tag k="name" v="Toroshommen" />
		<tag k="place" v="locality" />
		<tag k="ssr:stedsnr" v="582868" />
	</node>
	<node id="-376951" lat="58.3710583322" lon="7.28321389211">
		<tag k="name" v="Loka" />
		<tag k="place" v="farm" />
		<tag k="ssr:stedsnr" v="728686" />
	</node>
	<node id="-377541" lat="58.417790997" lon="7.17718642365">
		<tag k="fixme" v="consider place=hamlet" />
		<tag k="name" v="Øvre Fåland" />
		<tag k="place" v="farm" />
		<tag k="ssr:stedsnr" v="979613" />
	</node>
	<node id="-377540" lat="58.5528462742" lon="7.08937818844">
		<tag k="name" v="Farhommen" />
		<tag k="place" v="locality" />
		<tag k="ssr:stedsnr" v="979650" />
	</node>
	<node id="-377539" lat="58.5405240232" lon="7.10932887773">
		<tag k="fixme" v="consider place=hamlet" />
		<tag k="name" v="Rossevatn" />
		<tag k="place" v="farm" />
		<tag k="ssr:stedsnr" v="979649" />
	</node>
	<node id="-374978" lat="58.5070499999" lon="7.25941944954">
		<tag k="name" v="Ospeløa" />
		<tag k="place" v="locality" />
		<tag k="ssr:stedsnr" v="400023" />
	</node>
	<node id="-375489" lat="58.501827775" lon="7.33156111065">
		<tag k="alt_name" v="Verdal austre;Verdal" />
		<tag k="fixme" v="consider place=hamlet" />
		<tag k="name" v="Austre Verdal" />
		<tag k="place" v="farm" />
		<tag k="ssr:stedsnr" v="61051" />
	</node>
	<node id="-375488" lat="58.3091833356" lon="7.23249721665">
		<tag k="alt_name" v="Gysland, øvre" />
		<tag k="fixme" v="consider place=hamlet" />
		<tag k="name" v="Øvre Gysland" />
		<tag k="place" v="farm" />
		<tag k="ssr:stedsnr" v="60499" />
	</node>
	<node id="-377535" lat="58.5090650901" lon="7.1602021357">
		<tag k="fixme" v="consider place=hamlet" />
		<tag k="name" v="Øvre Meland" />
		<tag k="place" v="farm" />
		<tag k="ssr:stedsnr" v="979645" />
	</node>
	<node id="-375486" lat="58.5272666678" lon="7.14204721646">
		<tag k="alt_name" v="Rudlene" />
		<tag k="fixme" v="consider place=hamlet" />
		<tag k="name" v="Rudlend" />
		<tag k="place" v="farm" />
		<tag k="ssr:stedsnr" v="60123" />
	</node>
	<node id="-377533" lat="58.4969159684" lon="7.18021028665">
		<tag k="name" v="Bryggeså" />
		<tag k="place" v="hamlet" />
		<tag k="ssr:stedsnr" v="979643" />
	</node>
	<node id="-377532" lat="58.4972504961" lon="7.17796058199">
		<tag k="fixme" v="consider place=hamlet" />
		<tag k="name" v="Øvre Bryggeså" />
		<tag k="place" v="farm" />
		<tag k="ssr:stedsnr" v="979642" />
	</node>
	<node id="-375498" lat="58.5447138894" lon="7.11375278036">
		<tag k="alt_name" v="Espeskard" />
		<tag k="fixme" v="consider place=hamlet" />
		<tag k="name" v="Espeskaret" />
		<tag k="place" v="farm" />
		<tag k="ssr:stedsnr" v="61389" />
	</node>
	<node id="-377530" lat="58.4771404357" lon="7.21386764018">
		<tag k="name" v="Eiken" />
		<tag k="place" v="hamlet" />
		<tag k="ssr:stedsnr" v="979640" />
	</node>
	<node id="-374969" lat="58.3855388849" lon="7.27650556117">
		<tag k="fixme" v="consider place=hamlet" />
		<tag k="name" v="Håland" />
		<tag k="place" v="farm" />
		<tag k="ssr:stedsnr" v="364744" />
	</node>
	<node id="-374968" lat="58.377055559" lon="7.21681945063">
		<tag k="fixme" v="consider place=hamlet" />
		<tag k="name" v="Helle" />
		<tag k="place" v="farm" />
		<tag k="ssr:stedsnr" v="364737" />
	</node>
	<node id="-377527" lat="58.4476241133" lon="7.22722810903">
		<tag k="name" v="Jokumsøya" />
		<tag k="place" v="locality" />
		<tag k="ssr:stedsnr" v="979637" />
	</node>
	<node id="-377526" lat="58.4917296447" lon="7.31723650498">
		<tag k="name" v="Verdal" />
		<tag k="place" v="hamlet" />
		<tag k="ssr:stedsnr" v="979636" />
	</node>
	<node id="-377525" lat="58.4620133339" lon="7.23432818704">
		<tag k="name" v="Skeie" />
		<tag k="place" v="hamlet" />
		<tag k="ssr:stedsnr" v="979635" />
	</node>
	<node id="-377524" lat="58.456061812" lon="7.23581699078">
		<tag k="fixme" v="consider place=hamlet" />
		<tag k="name" v="Søndre Skeie" />
		<tag k="place" v="farm" />
		<tag k="ssr:stedsnr" v="979634" />
	</node>
	<node id="-374963" lat="58.3977888874" lon="7.22604166017">
		<tag k="alt_name" v="Tingvatne" />
		<tag k="fixme" v="consider place=hamlet" />
		<tag k="name" v="Tingvatn" />
		<tag k="place" v="farm" />
		<tag k="ssr:stedsnr" v="364635" />
	</node>
	<node id="-377522" lat="58.4660998963" lon="7.3214387762">
		<tag k="name" v="Kvåle" />
		<tag k="place" v="hamlet" />
		<tag k="ssr:stedsnr" v="979632" />
	</node>
	<node id="-377521" lat="58.4551236319" lon="7.33526983355">
		<tag k="name" v="Nerstøl" />
		<tag k="place" v="hamlet" />
		<tag k="ssr:stedsnr" v="979631" />
	</node>
	<node id="-377520" lat="58.42680861" lon="7.31341074299">
		<tag k="name" v="Vasland" />
		<tag k="place" v="locality" />
		<tag k="ssr:stedsnr" v="979630" />
	</node>
	<node id="-377519" lat="58.4407445928" lon="7.26142599057">
		<tag k="name" v="Blåke" />
		<tag k="place" v="hamlet" />
		<tag k="ssr:stedsnr" v="979629" />
	</node>
	<node id="-377518" lat="58.4398238769" lon="7.26672929336">
		<tag k="fixme" v="consider place=hamlet" />
		<tag k="name" v="Ytre Blåke" />
		<tag k="place" v="farm" />
		<tag k="ssr:stedsnr" v="979628" />
	</node>
	<node id="-377517" lat="58.4429789949" lon="7.26762579578">
		<tag k="fixme" v="consider place=hamlet" />
		<tag k="name" v="Øvre Blåke" />
		<tag k="place" v="farm" />
		<tag k="ssr:stedsnr" v="979627" />
	</node>
	<node id="-377516" lat="58.4425732539" lon="7.2432121743">
		<tag k="fixme" v="consider place=hamlet" />
		<tag k="name" v="Østre Vik" />
		<tag k="place" v="farm" />
		<tag k="ssr:stedsnr" v="979626" />
	</node>
	<node id="-374955" lat="58.4534111112" lon="7.21124999387">
		<tag k="fixme" v="consider place=hamlet" />
		<tag k="name" v="Håberg" />
		<tag k="place" v="farm" />
		<tag k="ssr:stedsnr" v="364381" />
	</node>
	<node id="-374954" lat="58.469369445" lon="7.19633334118">
		<tag k="alt_name" v="Hobbåsland" />
		<tag k="fixme" v="consider place=hamlet" />
		<tag k="name" v="Hobbesland" />
		<tag k="place" v="farm" />
		<tag k="ssr:stedsnr" v="364372" />
	</node>
	<node id="-374953" lat="58.49691944" lon="7.17652499452">
		<tag k="alt_name" v="Bryggesåk" />
		<tag k="name" v="Bryggeså" />
		<tag k="place" v="farm" />
		<tag k="ssr:stedsnr" v="364322" />
	</node>
	<node id="-375976" lat="58.5155916688" lon="7.12102777625">
		<tag k="name" v="Vollan" />
		<tag k="place" v="farm" />
		<tag k="ssr:stedsnr" v="219460" />
	</node>
	<node id="-377511" lat="58.4151437772" lon="7.18048378963">
		<tag k="name" v="Fåland" />
		<tag k="place" v="hamlet" />
		<tag k="ssr:stedsnr" v="979619" />
	</node>
	<node id="-377510" lat="58.4016605263" lon="7.18206602655">
		<tag k="name" v="Lauen" />
		<tag k="place" v="hamlet" />
		<tag k="ssr:stedsnr" v="979617" />
	</node>
	<node id="-377509" lat="58.3749800572" lon="7.22394158977">
		<tag k="name" v="Birkeland" />
		<tag k="place" v="hamlet" />
		<tag k="ssr:stedsnr" v="979616" />
	</node>
	<node id="-377508" lat="58.3197181366" lon="7.27964523218">
		<tag k="name" v="Sunde" />
		<tag k="place" v="hamlet" />
		<tag k="ssr:stedsnr" v="979615" />
	</node>
	<node id="-377507" lat="58.3055743041" lon="7.2178380267">
		<tag k="name" v="Gysland" />
		<tag k="place" v="hamlet" />
		<tag k="ssr:stedsnr" v="979614" />
	</node>
	<node id="-377506" lat="58.4138510491" lon="7.180642525">
		<tag k="fixme" v="consider place=hamlet" />
		<tag k="name" v="Nedre Fåland" />
		<tag k="place" v="farm" />
		<tag k="ssr:stedsnr" v="979612" />
	</node>
	<node id="-376481" lat="58.486922224" lon="7.19578888545">
		<tag k="name" v="Tveitosen" />
		<tag k="place" v="hamlet" />
		<tag k="ssr:stedsnr" v="582132" />
	</node>
	<node id="-377504" lat="58.3987404429" lon="7.18289565241">
		<tag k="fixme" v="consider place=hamlet" />
		<tag k="name" v="Nedre Lauen" />
		<tag k="place" v="farm" />
		<tag k="ssr:stedsnr" v="979609" />
	</node>
	<node id="-377503" lat="58.3835331658" lon="7.19342968248">
		<tag k="fixme" v="consider place=hamlet" />
		<tag k="name" v="Lille Eikeland" />
		<tag k="place" v="farm" />
		<tag k="ssr:stedsnr" v="979608" />
	</node>
	<node id="-377502" lat="58.3834111744" lon="7.20510316803">
		<tag k="fixme" v="consider place=hamlet" />
		<tag k="name" v="Ros-Eikeland" />
		<tag k="place" v="farm" />
		<tag k="ssr:stedsnr" v="979607" />
	</node>
	<node id="-377501" lat="58.3577098216" lon="7.20244751872">
		<tag k="name" v="Skaret" />
		<tag k="place" v="locality" />
		<tag k="ssr:stedsnr" v="979606" />
	</node>
	<node id="-377500" lat="58.3539367815" lon="7.18884804219">
		<tag k="name" v="Skådheien" />
		<tag k="place" v="locality" />
		<tag k="ssr:stedsnr" v="979605" />
	</node>
	<node id="-377499" lat="58.3266057536" lon="7.14661288015">
		<tag k="name" v="Bjørnestøl" />
		<tag k="place" v="locality" />
		<tag k="ssr:stedsnr" v="979602" />
	</node>
	<node id="-377495" lat="58.463922224" lon="7.32144722607">
		<tag k="name" v="Kvåle" />
		<tag k="place" v="hamlet" />
		<tag k="ssr:stedsnr" v="964913" />
	</node>
	<node id="-377112" lat="58.3764388914" lon="7.22337499357">
		<tag k="alt_name" v="Birkeland øvre" />
		<tag k="fixme" v="consider place=hamlet" />
		<tag k="name" v="Øvre Birkeland" />
		<tag k="place" v="farm" />
		<tag k="ssr:stedsnr" v="789750" />
	</node>
	<node id="-377538" lat="58.477164271" lon="7.19489389573">
		<tag k="name" v="Vatne" />
		<tag k="place" v="hamlet" />
		<tag k="ssr:stedsnr" v="979648" />
	</node>
	<node id="-376968" lat="58.4488305567" lon="7.26005000611">
		<tag k="name" v="Øygarden" />
		<tag k="place" v="locality" />
		<tag k="ssr:stedsnr" v="764141" />
	</node>
	<node id="-377537" lat="58.444490505" lon="7.21569030763">
		<tag k="fixme" v="consider place=hamlet" />
		<tag k="name" v="Vestre Vik" />
		<tag k="place" v="farm" />
		<tag k="ssr:stedsnr" v="979647" />
	</node>
	<node id="-377476" lat="58.3669194447" lon="7.216725">
		<tag k="name" v="Hellesmonen" />
		<tag k="place" v="farm" />
		<tag k="ssr:stedsnr" v="947981" />
	</node>
	<node id="-377536" lat="58.5075984965" lon="7.16152789808">
		<tag k="name" v="Meland" />
		<tag k="place" v="hamlet" />
		<tag k="ssr:stedsnr" v="979646" />
	</node>
	<node id="-376442" lat="58.3545722183" lon="7.18709165901">
		<tag k="alt_name" v="Skotheii" />
		<tag k="name" v="Øvre Skothei" />
		<tag k="place" v="locality" />
		<tag k="ssr:stedsnr" v="546681" />
	</node>
	<node id="-376440" lat="58.3352055512" lon="7.20001111671">
		<tag k="alt_name" v="Urdestad" />
		<tag k="fixme" v="consider place=hamlet" />
		<tag k="name" v="Urestad" />
		<tag k="place" v="farm" />
		<tag k="ssr:stedsnr" v="546669" />
	</node>
	<node id="-375415" lat="58.478861115" lon="7.21117778218">
		<tag k="name" v="Krone" />
		<tag k="place" v="farm" />
		<tag k="ssr:stedsnr" v="37224" />
	</node>
	<node id="-376950" lat="58.3658749996" lon="7.22532500428">
		<tag k="name" v="Hamran" />
		<tag k="place" v="farm" />
		<tag k="ssr:stedsnr" v="728687" />
	</node>
	<node id="-376437" lat="58.4128861105" lon="7.2344416617">
		<tag k="alt_name" v="Eptefjell" />
		<tag k="fixme" v="consider place=hamlet" />
		<tag k="name" v="Eftefjell" />
		<tag k="place" v="farm" />
		<tag k="ssr:stedsnr" v="546628" />
	</node>
	<node id="-376436" lat="58.3914944408" lon="7.1967805635">
		<tag k="fixme" v="consider place=hamlet" />
		<tag k="name" v="Klungland" />
		<tag k="place" v="farm" />
		<tag k="ssr:stedsnr" v="546594" />
	</node>
	<node id="-376435" lat="58.3932000016" lon="7.19111389667">
		<tag k="fixme" v="consider place=hamlet" />
		<tag k="name" v="Hundeland" />
		<tag k="place" v="farm" />
		<tag k="ssr:stedsnr" v="546590" />
	</node>
	<node id="-374803" lat="58.4508777762" lon="7.24284166843">
		<tag k="name" v="Skogtun" />
		<tag k="place" v="isolated_dwelling" />
		<tag k="ssr:stedsnr" v="339180" />
	</node>
	<node id="-376431" lat="58.5752055537" lon="7.15307499703">
		<tag k="name" v="Lykje" />
		<tag k="place" v="isolated_dwelling" />
		<tag k="ssr:stedsnr" v="546396" />
	</node>
	<node id="-376941" lat="58.3856277761" lon="7.19017222403">
		<tag k="alt_name" v="Li" />
		<tag k="fixme" v="consider place=hamlet" />
		<tag k="name" v="Lien" />
		<tag k="place" v="farm" />
		<tag k="ssr:stedsnr" v="728615" />
	</node>
	<node id="-376940" lat="58.3936027778" lon="7.24198055417">
		<tag k="alt_name" v="Bjærum øvre;Bjerom, in" />
		<tag k="fixme" v="consider place=hamlet" />
		<tag k="name" v="Øvre Bjærum" />
		<tag k="place" v="farm" />
		<tag k="ssr:stedsnr" v="728607" />
	</node>
	<node id="-377106" lat="58.4036666712" lon="7.18502222953">
		<tag k="alt_name" v="Lauen" />
		<tag k="name" v="Øvre Lauen" />
		<tag k="place" v="hamlet" />
		<tag k="ssr:stedsnr" v="789631" />
	</node>
	<node id="-376423" lat="58.4739666667" lon="7.14803889572">
		<tag k="name" v="Villomsdalen" />
		<tag k="place" v="isolated_dwelling" />
		<tag k="ssr:stedsnr" v="546313" />
	</node>
	<node id="-376421" lat="58.5402805586" lon="7.2253111181">
		<tag k="alt_name" v="Skjekelii" />
		<tag k="name" v="Skjekkelia" />
		<tag k="place" v="isolated_dwelling" />
		<tag k="ssr:stedsnr" v="546123" />
	</node>
	<node id="-376418" lat="58.5184666656" lon="7.11783055196">
		<tag k="fixme" v="consider place=hamlet" />
		<tag k="name" v="Nøkland" />
		<tag k="place" v="farm" />
		<tag k="ssr:stedsnr" v="546091" />
	</node>
	<node id="-377531" lat="58.4956644315" lon="7.17995344279">
		<tag k="fixme" v="consider place=hamlet" />
		<tag k="name" v="Ytre Bryggeså" />
		<tag k="place" v="farm" />
		<tag k="ssr:stedsnr" v="979641" />
	</node>
	<node id="-376928" lat="58.4436305561" lon="7.21655833383">
		<tag k="name" v="Vik" />
		<tag k="place" v="farm" />
		<tag k="ssr:stedsnr" v="728326" />
	</node>
	<node id="-376415" lat="58.3329999974" lon="7.2177944425">
		<tag k="fixme" v="consider place=hamlet" />
		<tag k="name" v="Øvre Snartemo" />
		<tag k="place" v="farm" />
		<tag k="ssr:stedsnr" v="543017" />
	</node>
	<node id="-376924" lat="58.4927694485" lon="7.17785277614">
		<tag k="alt_name" v="Haugå" />
		<tag k="fixme" v="consider place=hamlet" />
		<tag k="name" v="Hauge" />
		<tag k="place" v="farm" />
		<tag k="ssr:stedsnr" v="728282" />
	</node>
	<node id="-376923" lat="58.5385833336" lon="7.27691943895">
		<tag k="name" v="Kvevan" />
		<tag k="place" v="isolated_dwelling" />
		<tag k="ssr:stedsnr" v="728095" />
	</node>
	<node id="-376922" lat="58.5423361072" lon="7.16585278172">
		<tag k="alt_name" v="Midli" />
		<tag k="name" v="Middlistøl" />
		<tag k="place" v="locality" />
		<tag k="ssr:stedsnr" v="728091" />
	</node>
	<node id="-375384" lat="58.5146416637" lon="7.26209167417">
		<tag k="name" v="Flote" />
		<tag k="place" v="locality" />
		<tag k="ssr:stedsnr" v="36828" />
	</node>
	<node id="-376919" lat="58.5089166645" lon="7.25850000009">
		<tag k="alt_name" v="Nerløa" />
		<tag k="name" v="Indra Nerløa" />
		<tag k="place" v="locality" />
		<tag k="ssr:stedsnr" v="728057" />
	</node>
	<node id="-377529" lat="58.4787838497" lon="7.21809538278">
		<tag k="fixme" v="consider place=hamlet" />
		<tag k="name" v="Nedre Eiken" />
		<tag k="place" v="farm" />
		<tag k="ssr:stedsnr" v="979639" />
	</node>
	<node id="-377534" lat="58.5057401137" lon="7.16177645751">
		<tag k="fixme" v="consider place=hamlet" />
		<tag k="name" v="Ytre Meland" />
		<tag k="place" v="farm" />
		<tag k="ssr:stedsnr" v="979644" />
	</node>
	<node id="-374864" lat="58.3703333354" lon="7.16069999162">
		<tag k="name" v="Tengstøl" />
		<tag k="place" v="locality" />
		<tag k="ssr:stedsnr" v="340193" />
	</node>
	<node id="-376760" lat="58.3049250043" lon="7.2131694524">
		<tag k="alt_name" v="Gysland" />
		<tag k="fixme" v="consider place=hamlet" />
		<tag k="name" v="Nedre Gysland" />
		<tag k="place" v="farm" />
		<tag k="ssr:stedsnr" v="667506" />
	</node>
	<node id="-376920" lat="58.5106472213" lon="7.25830556266">
		<tag k="name" v="Listøl" />
		<tag k="place" v="locality" />
		<tag k="ssr:stedsnr" v="728059" />
	</node>
	<node id="-377278" lat="58.5397861155" lon="7.10809721387">
		<tag k="name" v="Rossevatn" />
		<tag k="place" v="hamlet" />
		<tag k="ssr:stedsnr" v="850120" />
	</node>
	<node id="-377100" lat="58.4830499956" lon="7.20421666527">
		<tag k="fixme" v="consider place=hamlet" />
		<tag k="name" v="Tveiten" />
		<tag k="place" v="farm" />
		<tag k="ssr:stedsnr" v="789363" />
	</node>
	<node id="-376902" lat="58.375511114" lon="7.20606944972">
		<tag k="name" v="Kjennskaret" />
		<tag k="place" v="locality" />
		<tag k="ssr:stedsnr" v="704975" />
	</node>
	<node id="-376388" lat="58.5411527785" lon="7.27525555618">
		<tag k="name" v="Voddeløa" />
		<tag k="place" v="locality" />
		<tag k="ssr:stedsnr" v="522834" />
	</node>
	<node id="-376381" lat="58.3409833376" lon="7.24545832688">
		<tag k="name" v="Stumpeløå" />
		<tag k="place" v="locality" />
		<tag k="ssr:stedsnr" v="522770" />
	</node>
	<node id="-376766" lat="58.3659694422" lon="7.1168916746">
		<tag k="name" v="Røynekleiv" />
		<tag k="place" v="isolated_dwelling" />
		<tag k="ssr:stedsnr" v="667671" />
	</node>
	<node id="-377098" lat="58.4943861153" lon="7.16855000224">
		<tag k="fixme" v="consider place=hamlet" />
		<tag k="name" v="Eikåsen" />
		<tag k="place" v="farm" />
		<tag k="ssr:stedsnr" v="789335" />
	</node>
	<node id="-377420" lat="58.5353361086" lon="7.20637499261">
		<tag k="name" v="Sandvatnstøl" />
		<tag k="place" v="locality" />
		<tag k="ssr:stedsnr" v="947375" />
	</node>
	<node id="-375352" lat="58.4584555544" lon="7.23488333824">
		<tag k="name" v="Slurpestøl" />
		<tag k="place" v="farm" />
		<tag k="ssr:stedsnr" v="36170" />
	</node>
	<node id="-374964" lat="58.4282194419" lon="7.31307500504">
		<tag k="name" v="Vassland" />
		<tag k="place" v="locality" />
		<tag k="ssr:stedsnr" v="364670" />
	</node>
	<node id="-377523" lat="58.4635500061" lon="7.23120820234">
		<tag k="fixme" v="consider place=hamlet" />
		<tag k="name" v="Nordre Skeie" />
		<tag k="place" v="farm" />
		<tag k="ssr:stedsnr" v="979633" />
	</node>
	<node id="-377387" lat="58.5054833353" lon="7.25403055608">
		<tag k="name" v="Nerløa" />
		<tag k="place" v="locality" />
		<tag k="ssr:stedsnr" v="947034" />
	</node>
	<node id="-374825" lat="58.525602777" lon="7.20138611923">
		<tag k="name" v="Bulega" />
		<tag k="place" v="locality" />
		<tag k="ssr:stedsnr" v="339421" />
	</node>
	<node id="-377382" lat="58.3991666659" lon="7.18311666059">
		<tag k="name" v="Nedre Lauen" />
		<tag k="place" v="hamlet" />
		<tag k="ssr:stedsnr" v="947012" />
	</node>
	<node id="-375842" lat="58.4326111093" lon="7.19548611689">
		<tag k="alt_name" v="Solheim" />
		<tag k="fixme" v="consider place=hamlet" />
		<tag k="name" v="Urevatn" />
		<tag k="place" v="farm" />
		<tag k="ssr:stedsnr" v="182679" />
	</node>
	<node id="-375387" lat="58.5009611135" lon="7.2522388909">
		<tag k="name" v="Heimra Nerløa" />
		<tag k="place" v="locality" />
		<tag k="ssr:stedsnr" v="36907" />
	</node>
	<node id="-375839" lat="58.4172916684" lon="7.2789444367">
		<tag k="name" v="Gletne" />
		<tag k="place" v="farm" />
		<tag k="ssr:stedsnr" v="182643" />
	</node>
	<node id="-375836" lat="58.4021055537" lon="7.2548222293">
		<tag k="alt_name" v="Håmokland" />
		<tag k="fixme" v="consider place=hamlet" />
		<tag k="name" v="Hommekland" />
		<tag k="place" v="farm" />
		<tag k="ssr:stedsnr" v="182628" />
	</node>
	<node id="-376857" lat="58.3852361145" lon="7.26951943769">
		<tag k="fixme" v="consider place=hamlet" />
		<tag k="name" v="Røyseland" />
		<tag k="place" v="farm" />
		<tag k="ssr:stedsnr" v="704386" />
	</node>
	<node id="-377280" lat="58.4848833334" lon="7.16539445289">
		<tag k="alt_name" v="Ødegård;Ødegården" />
		<tag k="fixme" v="consider place=hamlet" />
		<tag k="name" v="Øygarden" />
		<tag k="place" v="farm" />
		<tag k="ssr:stedsnr" v="850304" />
	</node>
	<node id="-375830" lat="58.5535416634" lon="7.15337222015">
		<tag k="name" v="Homstøl" />
		<tag k="place" v="locality" />
		<tag k="ssr:stedsnr" v="182396" />
	</node>
	<node id="-375829" lat="58.4567277819" lon="7.33573888192">
		<tag k="alt_name" v="Nerstøl øvre;Nedrestøl" />
		<tag k="fixme" v="consider place=hamlet" />
		<tag k="name" v="Øvre Nerstøl" />
		<tag k="place" v="farm" />
		<tag k="ssr:stedsnr" v="182353" />
	</node>
	<node id="-377364" lat="58.5317666632" lon="7.18248054828">
		<tag k="name" v="Jordestøl" />
		<tag k="place" v="locality" />
		<tag k="ssr:stedsnr" v="946406" />
	</node>
	<node id="-375827" lat="58.4561555551" lon="7.23378888633">
		<tag k="name" v="Skjekkeland" />
		<tag k="place" v="farm" />
		<tag k="ssr:stedsnr" v="182337" />
	</node>
	<node id="-375826" lat="58.4789999959" lon="7.21202500761">
		<tag k="name" v="Eiken" />
		<tag k="place" v="farm" />
		<tag k="ssr:stedsnr" v="182327" />
	</node>
	<node id="-375825" lat="58.5421972224" lon="7.09775834152">
		<tag k="alt_name" v="Lii" />
		<tag k="fixme" v="consider place=hamlet" />
		<tag k="name" v="Lien" />
		<tag k="place" v="farm" />
		<tag k="ssr:stedsnr" v="182110" />
	</node>
	<node id="-375823" lat="58.3754722217" lon="7.22157500796">
		<tag k="fixme" v="consider place=hamlet" />
		<tag k="name" v="Birkeland" />
		<tag k="place" v="village" />
		<tag k="ssr:stedsnr" v="179025" />
	</node>
	<node id="-375310" lat="58.3980972179" lon="7.11929167152">
		<tag k="alt_name" v="Homman" />
		<tag k="name" v="Marten" />
		<tag k="place" v="isolated_dwelling" />
		<tag k="ssr:stedsnr" v="619" />
	</node>
	<node id="-377020" lat="58.4529138869" lon="7.33712222316">
		<tag k="fixme" v="consider place=hamlet" />
		<tag k="name" v="Nerstøl ytre" />
		<tag k="place" v="farm" />
		<tag k="ssr:stedsnr" v="765151" />
	</node>
	<node id="-375301" lat="58.4471250037" lon="7.25110000761">
		<tag k="alt_name" v="Grostøl" />
		<tag k="fixme" v="consider place=hamlet" />
		<tag k="name" v="Grøstøl" />
		<tag k="place" v="farm" />
		<tag k="ssr:stedsnr" v="371" />
	</node>
	<node id="-375299" lat="58.4579333374" lon="7.31530555752">
		<tag k="alt_name" v="Stuelien;Stulien" />
		<tag k="fixme" v="consider place=hamlet" />
		<tag k="name" v="Stueli" />
		<tag k="place" v="farm" />
		<tag k="ssr:stedsnr" v="355" />
	</node>
	<node id="-375298" lat="58.4606249991" lon="7.1967777715">
		<tag k="fixme" v="consider place=hamlet" />
		<tag k="name" v="Skoland" />
		<tag k="place" v="farm" />
		<tag k="ssr:stedsnr" v="353" />
	</node>
	<node id="-377515" lat="58.3577727972" lon="7.17817755329">
		<tag k="fixme" v="consider place=hamlet" />
		<tag k="name" v="Lille Støldal" />
		<tag k="place" v="farm" />
		<tag k="ssr:stedsnr" v="979625" />
	</node>
</osm>
