<?xml version="1.0" encoding="UTF-8"?>
<osm version="0.6" generator="osmapis">
	<node lat="65.66814722379092" lon="12.051238894033846" id="-14579">
		<tag k="name" v="Hestholmen" />
		<tag k="place" v="islet" />
		<tag k="ssr:stedsnr" v="12671" />
	</node>
	<node lat="65.59177500351505" lon="11.857086117806356" id="-14580">
		<tag k="name" v="Korsholmen" />
		<tag k="place" v="islet" />
		<tag k="ssr:stedsnr" v="15156" />
	</node>
	<node lat="65.71455277360788" lon="12.049736111516328" id="-14581">
		<tag k="alt_name" v="Engelsøya, l" />
		<tag k="name" v="Litle Engelsøya" />
		<tag k="place" v="islet" />
		<tag k="ssr:stedsnr" v="15458" />
	</node>
	<node lat="65.63090833293084" lon="11.618105558288503" id="-14584">
		<tag k="fixme" v="consider seamark:type=rock or natural=shoal" />
		<tag k="name" v="Skarvskjæran" />
		<tag k="place" v="islet" />
		<tag k="ssr:stedsnr" v="15601" />
	</node>
	<node lat="65.63407777728553" lon="11.585425003123918" id="-14585">
		<tag k="name" v="Burøya" />
		<tag k="place" v="islet" />
		<tag k="ssr:stedsnr" v="15603" />
	</node>
	<node lat="65.62287499998845" lon="11.65666389815729" id="-14588">
		<tag k="fixme" v="consider seamark:type=rock or natural=shoal" />
		<tag k="name" v="Kveitslua" />
		<tag k="place" v="islet" />
		<tag k="ssr:stedsnr" v="15620" />
	</node>
	<node lat="65.745333333161" lon="11.693463896346097" id="-14589">
		<tag k="name" v="Ørnholmen" />
		<tag k="place" v="islet" />
		<tag k="ssr:stedsnr" v="15663" />
	</node>
	<node lat="65.68180278148279" lon="11.46549999947125" id="-14590">
		<tag k="name" v="Uerfallet" />
		<tag k="natural" v="shoal" />
		<tag k="place" v="locality" />
		<tag k="ssr:stedsnr" v="15673" />
	</node>
	<node lat="65.60328611459634" lon="11.833100009706346" id="-14593">
		<tag k="name" v="Skjåneset" />
		<tag k="natural" v="cape" />
		<tag k="ssr:stedsnr" v="15807" />
	</node>
	<node lat="65.70934444017541" lon="11.859425007099881" id="-14594">
		<tag k="name" v="Eggløysa" />
		<tag k="place" v="islet" />
		<tag k="ssr:stedsnr" v="15810" />
	</node>
	<node lat="65.76922222204469" lon="12.149775002901473" id="-14595">
		<tag k="name" v="Kvigholmen" />
		<tag k="place" v="islet" />
		<tag k="ssr:stedsnr" v="15704" />
	</node>
	<node lat="65.91068611365118" lon="11.799627771148273" id="-14600">
		<tag k="fixme" v="consider seamark:type=rock or natural=shoal" />
		<tag k="name" v="Balen" />
		<tag k="place" v="islet" />
		<tag k="ssr:stedsnr" v="15903" />
	</node>
	<node lat="65.96337778022827" lon="11.839725008195064" id="-14602">
		<tag k="fixme" v="consider seamark:type=rock or natural=shoal" />
		<tag k="name" v="Runden" />
		<tag k="place" v="islet" />
		<tag k="ssr:stedsnr" v="15914" />
	</node>
	<node lat="65.84923611281509" lon="11.910805553516136" id="-14605">
		<tag k="fixme" v="consider seamark:type=rock or natural=shoal" />
		<tag k="name" v="Skarvskjæret" />
		<tag k="place" v="islet" />
		<tag k="ssr:stedsnr" v="16500" />
	</node>
	<node lat="65.85426666398868" lon="11.973386107836058" id="-14607">
		<tag k="fixme" v="consider seamark:type=rock or natural=shoal" />
		<tag k="name" v="Valskjæret" />
		<tag k="place" v="islet" />
		<tag k="ssr:stedsnr" v="16508" />
	</node>
	<node lat="65.60114444072208" lon="11.860697229973795" id="-14614">
		<tag k="name" v="Silvika" />
		<tag k="natural" v="bay" />
		<tag k="ssr:stedsnr" v="236241" />
	</node>
	<node lat="65.65778055641466" lon="12.058488894881538" id="-14622">
		<tag k="name" v="Nordøya" />
		<tag k="place" v="island" />
		<tag k="ssr:stedsnr" v="237679" />
	</node>
	<node lat="65.70344721899836" lon="11.957186116486438" id="-14624">
		<tag k="name" v="Valen" />
		<tag k="natural" v="bay" />
		<tag k="ssr:stedsnr" v="237814" />
	</node>
	<node lat="65.65822222100736" lon="11.790033341895594" id="-14631">
		<tag k="name" v="Molnesstranda" />
		<tag k="natural" v="beach" />
		<tag k="ssr:stedsnr" v="54219" />
	</node>
	<node lat="65.58882500260997" lon="11.895683337377196" id="-14637">
		<tag k="name" v="Innervågen" />
		<tag k="natural" v="bay" />
		<tag k="ssr:stedsnr" v="55222" />
	</node>
	<node lat="65.70171110873551" lon="11.893516662791596" id="-14641">
		<tag k="name" v="Strauman" />
		<tag k="natural" v="strait" />
		<tag k="ssr:stedsnr" v="55810" />
	</node>
	<node lat="65.72062221786793" lon="11.906186111685841" id="-14642">
		<tag k="name" v="Småskjeran" />
		<tag k="place" v="islet" />
		<tag k="ssr:stedsnr" v="55902" />
	</node>
	<node lat="65.71311666270833" lon="11.960700006490011" id="-14643">
		<tag k="fixme" v="consider seamark:type=rock or natural=shoal" />
		<tag k="name" v="Klokkaran" />
		<tag k="place" v="islet" />
		<tag k="ssr:stedsnr" v="55904" />
	</node>
	<node lat="65.5987527758346" lon="11.859874994568969" id="-14645">
		<tag k="name" v="Naustneset" />
		<tag k="natural" v="cape" />
		<tag k="old_name" v="Naustnesset" />
		<tag k="ssr:stedsnr" v="76152" />
	</node>
	<node lat="65.52766111026284" lon="11.76945555786449" id="-14647">
		<tag k="name" v="Stokktaren" />
		<tag k="natural" v="shoal" />
		<tag k="place" v="locality" />
		<tag k="ssr:stedsnr" v="76199" />
	</node>
	<node lat="65.65493889236599" lon="11.723211110757243" id="-14649">
		<tag k="name" v="Beisholmen" />
		<tag k="place" v="islet" />
		<tag k="ssr:stedsnr" v="76308" />
	</node>
	<node lat="65.6598805564547" lon="12.055299998073155" id="-14650">
		<tag k="name" v="Vågøysundet" />
		<tag k="natural" v="strait" />
		<tag k="ssr:stedsnr" v="76312" />
	</node>
	<node lat="65.68652222002291" lon="12.073641659432122" id="-14657">
		<tag k="name" v="Baksundet" />
		<tag k="natural" v="strait" />
		<tag k="ssr:stedsnr" v="76502" />
	</node>
	<node lat="65.72196111083535" lon="11.87606943780662" id="-14658">
		<tag k="name" v="Joholmen" />
		<tag k="place" v="islet" />
		<tag k="ssr:stedsnr" v="76401" />
	</node>
	<node lat="65.71018055302658" lon="11.936400009028839" id="-14660">
		<tag k="name" v="Godraget" />
		<tag k="place" v="islet" />
		<tag k="ssr:stedsnr" v="76448" />
	</node>
	<node lat="65.7787944451905" lon="11.745141673251325" id="-14663">
		<tag k="name" v="Andholmen" />
		<tag k="place" v="islet" />
		<tag k="ssr:stedsnr" v="76456" />
	</node>
	<node lat="65.6937666679475" lon="12.124133334770654" id="-14664">
		<tag k="name" v="Likholmen" />
		<tag k="natural" v="cape" />
		<tag k="ssr:stedsnr" v="76459" />
	</node>
	<node lat="65.6215277811409" lon="11.379050010796243" id="-14668">
		<tag k="name" v="Nordsnoppa" />
		<tag k="place" v="islet" />
		<tag k="ssr:stedsnr" v="76601" />
	</node>
	<node lat="65.89316110911774" lon="11.795519435302287" id="-14669">
		<tag k="fixme" v="consider seamark:type=rock or natural=shoal" />
		<tag k="name" v="Nordteinskjæran" />
		<tag k="place" v="islet" />
		<tag k="ssr:stedsnr" v="76611" />
	</node>
	<node lat="65.65651666950835" lon="11.634091657072847" id="-14670">
		<tag k="fixme" v="consider seamark:type=rock or natural=shoal" />
		<tag k="name" v="Johan Olsen-skjæret" />
		<tag k="place" v="islet" />
		<tag k="ssr:stedsnr" v="76624" />
	</node>
	<node lat="65.71505277597716" lon="11.508875004263041" id="-14674">
		<tag k="name" v="Hongsettaren" />
		<tag k="natural" v="shoal" />
		<tag k="place" v="locality" />
		<tag k="ssr:stedsnr" v="76661" />
	</node>
	<node lat="65.84899166945135" lon="11.723025008996283" id="-14675">
		<tag k="fixme" v="consider seamark:type=rock or natural=shoal" />
		<tag k="name" v="Rakflesa" />
		<tag k="place" v="islet" />
		<tag k="ssr:stedsnr" v="76547" />
	</node>
	<node lat="65.8604527747261" lon="11.988119437743562" id="-14677">
		<tag k="name" v="Lyngholmen" />
		<tag k="place" v="islet" />
		<tag k="ssr:stedsnr" v="76551" />
	</node>
	<node lat="65.60157777638128" lon="11.50651387909889" id="-14680">
		<tag k="name" v="Trollkona" />
		<tag k="place" v="islet" />
		<tag k="ssr:stedsnr" v="76565" />
	</node>
	<node lat="65.87238610816364" lon="11.860155558804385" id="-14683">
		<tag k="fixme" v="consider seamark:type=rock or natural=shoal" />
		<tag k="name" v="Bøkslskjæret" />
		<tag k="place" v="islet" />
		<tag k="ssr:stedsnr" v="76572" />
	</node>
	<node lat="65.63052500377351" lon="11.708738878880226" id="-14684">
		<tag k="name" v="Nordstabben" />
		<tag k="natural" v="shoal" />
		<tag k="place" v="locality" />
		<tag k="ssr:stedsnr" v="76598" />
	</node>
	<node lat="65.93356111029182" lon="11.970497221200112" id="-14686">
		<tag k="name" v="Stabben" />
		<tag k="natural" v="shoal" />
		<tag k="place" v="locality" />
		<tag k="ssr:stedsnr" v="76857" />
	</node>
	<node lat="65.93363889235044" lon="11.846919441786236" id="-14687">
		<tag k="fixme" v="consider seamark:type=rock or natural=shoal" />
		<tag k="name" v="Flesnakkskjæret" />
		<tag k="place" v="islet" />
		<tag k="ssr:stedsnr" v="76867" />
	</node>
	<node lat="65.84649721801439" lon="11.701083329689617" id="-14689">
		<tag k="fixme" v="consider seamark:type=rock or natural=shoal" />
		<tag k="name" v="Leiskjæret" />
		<tag k="place" v="islet" />
		<tag k="ssr:stedsnr" v="76967" />
	</node>
	<node lat="65.81296388626619" lon="11.687580560995176" id="-14690">
		<tag k="fixme" v="consider seamark:type=rock or natural=shoal" />
		<tag k="name" v="Skorholmflesa" />
		<tag k="place" v="islet" />
		<tag k="ssr:stedsnr" v="76972" />
	</node>
	<node lat="65.7839305573546" lon="11.767600011088582" id="-14693">
		<tag k="name" v="Garrygrunna" />
		<tag k="natural" v="shoal" />
		<tag k="place" v="locality" />
		<tag k="ssr:stedsnr" v="90679" />
	</node>
	<node lat="65.56603611321037" lon="11.729699998638761" id="-14694">
		<tag k="fixme" v="consider seamark:type=rock or natural=shoal" />
		<tag k="name" v="Kommen" />
		<tag k="place" v="islet" />
		<tag k="ssr:stedsnr" v="91170" />
	</node>
	<node lat="65.62794722589005" lon="11.658033324892473" id="-14695">
		<tag k="fixme" v="consider seamark:type=rock or natural=shoal" />
		<tag k="name" v="Stokkskjæret" />
		<tag k="place" v="islet" />
		<tag k="ssr:stedsnr" v="91221" />
	</node>
	<node lat="65.6794027823381" lon="12.041636109366332" id="-14697">
		<tag k="fixme" v="consider seamark:type=rock or natural=shoal" />
		<tag k="name" v="Sybuskjæran" />
		<tag k="place" v="islet" />
		<tag k="ssr:stedsnr" v="248663" />
	</node>
	<node lat="65.67856110676708" lon="12.009894450069542" id="-14701">
		<tag k="name" v="Middagsneset" />
		<tag k="natural" v="cape" />
		<tag k="ssr:stedsnr" v="115519" />
	</node>
	<node lat="65.71054722191825" lon="11.890252780573553" id="-14702">
		<tag k="name" v="Sandskjæret" />
		<tag k="place" v="islet" />
		<tag k="ssr:stedsnr" v="115718" />
	</node>
	<node lat="65.62439444813809" lon="12.132358333935839" id="-14707">
		<tag k="name" v="Rotvikodden" />
		<tag k="natural" v="cape" />
		<tag k="ssr:stedsnr" v="117707" />
	</node>
	<node lat="65.63996944372941" lon="12.177494448414457" id="-14709">
		<tag k="name" v="Ervikja" />
		<tag k="natural" v="bay" />
		<tag k="ssr:stedsnr" v="126309" />
	</node>
	<node lat="65.5422499996209" lon="11.87228332995913" id="-14715">
		<tag k="name" v="Kåstaren" />
		<tag k="natural" v="shoal" />
		<tag k="place" v="locality" />
		<tag k="ssr:stedsnr" v="136206" />
	</node>
	<node lat="65.68386111096505" lon="12.076577767252582" id="-14718">
		<tag k="alt_name" v="Ytre-Einesvika" />
		<tag k="name" v="Einesvika" />
		<tag k="natural" v="bay" />
		<tag k="ssr:stedsnr" v="136505" />
	</node>
	<node lat="65.60963055714596" lon="11.52186111324346" id="-14720">
		<tag k="name" v="Svartoksen" />
		<tag k="natural" v="shoal" />
		<tag k="place" v="locality" />
		<tag k="ssr:stedsnr" v="136554" />
	</node>
	<node lat="65.86252222057298" lon="11.868555560362084" id="-14721">
		<tag k="fixme" v="consider seamark:type=rock or natural=shoal" />
		<tag k="name" v="Finnlandskjæran" />
		<tag k="place" v="islet" />
		<tag k="ssr:stedsnr" v="136555" />
	</node>
	<node lat="65.60829444172406" lon="11.406952775952666" id="-14722">
		<tag k="name" v="Grunnslua" />
		<tag k="natural" v="shoal" />
		<tag k="place" v="locality" />
		<tag k="ssr:stedsnr" v="136561" />
	</node>
	<node lat="65.80466388493205" lon="12.032658323328194" id="-14730">
		<tag k="name" v="Grønholmen" />
		<tag k="place" v="islet" />
		<tag k="ssr:stedsnr" v="136751" />
	</node>
	<node lat="65.77587500175409" lon="11.682927774872752" id="-14740">
		<tag k="fixme" v="consider seamark:type=rock or natural=shoal" />
		<tag k="name" v="Brørskjæran" />
		<tag k="place" v="islet" />
		<tag k="ssr:stedsnr" v="136997" />
	</node>
	<node lat="65.77528889278122" lon="11.63625000806738" id="-14741">
		<tag k="fixme" v="consider seamark:type=rock or natural=shoal" />
		<tag k="name" v="Flatmarkskjæret" />
		<tag k="place" v="islet" />
		<tag k="ssr:stedsnr" v="136999" />
	</node>
	<node lat="65.55163333766744" lon="11.29973888300054" id="-14743">
		<tag k="name" v="Litlremskallen" />
		<tag k="natural" v="shoal" />
		<tag k="place" v="locality" />
		<tag k="ssr:stedsnr" v="137505" />
	</node>
	<node lat="65.86151111277606" lon="11.964202783610173" id="-14745">
		<tag k="name" v="Slåttholmen" />
		<tag k="place" v="islet" />
		<tag k="ssr:stedsnr" v="137514" />
	</node>
	<node lat="65.96248888573905" lon="11.885950006804443" id="-14755">
		<tag k="name" v="Jotaren" />
		<tag k="natural" v="shoal" />
		<tag k="place" v="locality" />
		<tag k="ssr:stedsnr" v="152320" />
	</node>
	<node lat="65.67636388733551" lon="12.129808333583858" id="-14758">
		<tag k="name" v="Purkholmen" />
		<tag k="place" v="islet" />
		<tag k="ssr:stedsnr" v="258295" />
	</node>
	<node lat="65.68511111478497" lon="11.727516658481884" id="-14763">
		<tag k="name" v="Skarvøya" />
		<tag k="place" v="islet" />
		<tag k="ssr:stedsnr" v="258490" />
	</node>
	<node lat="65.6199055559577" lon="11.502461101350818" id="-14769">
		<tag k="name" v="Revslua" />
		<tag k="natural" v="shoal" />
		<tag k="place" v="locality" />
		<tag k="ssr:stedsnr" v="258591" />
	</node>
	<node lat="65.64477221935866" lon="12.177127769965125" id="-14775">
		<tag k="fixme" v="consider seamark:type=rock or natural=shoal" />
		<tag k="name" v="Karikvalen" />
		<tag k="place" v="islet" />
		<tag k="ssr:stedsnr" v="258349" />
	</node>
	<node lat="65.60953889176544" lon="11.953302787624585" id="-14777">
		<tag k="fixme" v="multiple name tags, choose one and add the other to alt_name" />
		<tag k="name" v="Bukkholmen;Nordre Aunholmen" />
		<tag k="place" v="islet" />
		<tag k="ssr:stedsnr" v="258357" />
	</node>
	<node lat="65.60353333135193" lon="11.944369454338426" id="-14778">
		<tag k="alt_name" v="Søndre Aunholmen" />
		<tag k="name" v="Aunholmen" />
		<tag k="place" v="islet" />
		<tag k="ssr:stedsnr" v="258358" />
	</node>
	<node lat="65.62311666616357" lon="12.174424992333801" id="-14782">
		<tag k="name" v="Juvika" />
		<tag k="natural" v="bay" />
		<tag k="ssr:stedsnr" v="258378" />
	</node>
	<node lat="65.74096666597084" lon="11.981700003711559" id="-14785">
		<tag k="fixme" v="consider seamark:type=rock or natural=shoal" />
		<tag k="name" v="Skarvskjæret" />
		<tag k="place" v="islet" />
		<tag k="ssr:stedsnr" v="258396" />
	</node>
	<node lat="65.68669166847444" lon="11.812441663003664" id="-14788">
		<tag k="name" v="Tangvika" />
		<tag k="natural" v="bay" />
		<tag k="ssr:stedsnr" v="258441" />
	</node>
	<node lat="65.73679999909744" lon="11.50454443350868" id="-14792">
		<tag k="alt_name" v="Midtre Langtaren" />
		<tag k="name" v="Langtaren" />
		<tag k="natural" v="shoal" />
		<tag k="place" v="locality" />
		<tag k="ssr:stedsnr" v="258637" />
	</node>
	<node lat="65.74741388610666" lon="11.714247224886636" id="-14793">
		<tag k="alt_name" v="Langøya, l" />
		<tag k="name" v="Litle Langøya" />
		<tag k="place" v="islet" />
		<tag k="ssr:stedsnr" v="258640" />
	</node>
	<node lat="65.7932611079562" lon="11.757555546503134" id="-14796">
		<tag k="name" v="Stortaren" />
		<tag k="natural" v="shoal" />
		<tag k="place" v="locality" />
		<tag k="ssr:stedsnr" v="258694" />
	</node>
	<node lat="65.82851666451629" lon="11.645250001727325" id="-14801">
		<tag k="name" v="Stumpen" />
		<tag k="natural" v="shoal" />
		<tag k="place" v="locality" />
		<tag k="ssr:stedsnr" v="258980" />
	</node>
	<node lat="65.80390555904007" lon="11.656702771156354" id="-14802">
		<tag k="fixme" v="consider seamark:type=rock or natural=shoal" />
		<tag k="name" v="Spannet" />
		<tag k="place" v="islet" />
		<tag k="ssr:stedsnr" v="258987" />
	</node>
	<node lat="65.79714166774498" lon="11.600005549477228" id="-14804">
		<tag k="name" v="Skarvøya" />
		<tag k="place" v="islet" />
		<tag k="ssr:stedsnr" v="258992" />
	</node>
	<node lat="65.78007500376717" lon="11.613652779755007" id="-14805">
		<tag k="fixme" v="consider seamark:type=rock or natural=shoal" />
		<tag k="name" v="Kobbskjæret" />
		<tag k="place" v="islet" />
		<tag k="ssr:stedsnr" v="258995" />
	</node>
	<node lat="65.76378610828226" lon="11.68388054523554" id="-14807">
		<tag k="fixme" v="consider seamark:type=rock or natural=shoal" />
		<tag k="name" v="Æmårskjæret" />
		<tag k="place" v="islet" />
		<tag k="ssr:stedsnr" v="258937" />
	</node>
	<node lat="65.6312222192069" lon="11.771216675027729" id="-14812">
		<tag k="name" v="Sørstranda" />
		<tag k="natural" v="beach" />
		<tag k="ssr:stedsnr" v="176257" />
	</node>
	<node lat="65.65023611394719" lon="12.010108327506856" id="-14813">
		<tag k="name" v="Rørøy-øya" />
		<tag k="natural" v="cape" />
		<tag k="ssr:stedsnr" v="176467" />
	</node>
	<node lat="65.59590278187383" lon="12.13166665959753" id="-14817">
		<tag k="name" v="Breivikja" />
		<tag k="natural" v="bay" />
		<tag k="ssr:stedsnr" v="178672" />
	</node>
	<node lat="65.59388333360073" lon="11.852888883571184" id="-14822">
		<tag k="name" v="Langholmen" />
		<tag k="place" v="islet" />
		<tag k="ssr:stedsnr" v="197166" />
	</node>
	<node lat="65.57372222328102" lon="11.923994449878144" id="-14824">
		<tag k="fixme" v="consider seamark:type=rock or natural=shoal" />
		<tag k="name" v="Skarvskjæret" />
		<tag k="place" v="islet" />
		<tag k="ssr:stedsnr" v="197177" />
	</node>
	<node lat="65.6074499966787" lon="11.778261116687611" id="-14828">
		<tag k="name" v="Ervikodden" />
		<tag k="natural" v="cape" />
		<tag k="ssr:stedsnr" v="197405" />
	</node>
	<node lat="65.68993333757436" lon="11.734172232969078" id="-14830">
		<tag k="fixme" v="consider seamark:type=rock or natural=shoal" />
		<tag k="name" v="Skarvøyskjæran" />
		<tag k="place" v="islet" />
		<tag k="ssr:stedsnr" v="197481" />
	</node>
	<node lat="65.63389722235495" lon="11.590974992347446" id="-14831">
		<tag k="name" v="Tjønnholmen" />
		<tag k="place" v="islet" />
		<tag k="ssr:stedsnr" v="197608" />
	</node>
	<node lat="65.63516388452322" lon="11.576858338545334" id="-14832">
		<tag k="alt_name" v="Torrisøya, in" />
		<tag k="name" v="Indre Torrisøya" />
		<tag k="place" v="islet" />
		<tag k="ssr:stedsnr" v="197605" />
	</node>
	<node lat="65.63319167019999" lon="11.45318889158301" id="-14833">
		<tag k="name" v="Tåja" />
		<tag k="natural" v="shoal" />
		<tag k="place" v="locality" />
		<tag k="ssr:stedsnr" v="197606" />
	</node>
	<node lat="65.74937222632519" lon="11.707994438344345" id="-14836">
		<tag k="name" v="Bjørnshammaren" />
		<tag k="place" v="islet" />
		<tag k="ssr:stedsnr" v="197665" />
	</node>
	<node lat="65.64846110972671" lon="11.614938880121615" id="-14839">
		<tag k="fixme" v="consider seamark:type=rock or natural=shoal" />
		<tag k="name" v="Vesterskjæret" />
		<tag k="place" v="islet" />
		<tag k="ssr:stedsnr" v="198609" />
	</node>
	<node lat="65.87285277855227" lon="11.91036944403959" id="-14844">
		<tag k="bay" v="fjord" />
		<tag k="name" v="Lånabogen" />
		<tag k="natural" v="bay" />
		<tag k="ssr:stedsnr" v="198564" />
	</node>
	<node lat="65.66503611353889" lon="12.101274995000328" id="-14847">
		<tag k="name" v="Strykjetaren" />
		<tag k="natural" v="shoal" />
		<tag k="place" v="locality" />
		<tag k="ssr:stedsnr" v="268762" />
	</node>
	<node lat="65.79523333242987" lon="11.99855555548406" id="-14848">
		<tag k="name" v="Alteret" />
		<tag k="natural" v="shoal" />
		<tag k="place" v="locality" />
		<tag k="ssr:stedsnr" v="268946" />
	</node>
	<node lat="65.7749166648681" lon="11.976041669302393" id="-14849">
		<tag k="name" v="Grøholmtaren" />
		<tag k="natural" v="shoal" />
		<tag k="place" v="locality" />
		<tag k="ssr:stedsnr" v="268954" />
	</node>
	<node lat="65.92541110808386" lon="11.956294444939381" id="-14853">
		<tag k="name" v="Djupbåen" />
		<tag k="natural" v="shoal" />
		<tag k="ssr:stedsnr" v="213275" />
	</node>
	<node lat="65.60563611397271" lon="11.863238879102507" id="-14856">
		<tag k="name" v="Skarvbergvika" />
		<tag k="natural" v="bay" />
		<tag k="ssr:stedsnr" v="236238" />
	</node>
	<node lat="65.66907222187633" lon="12.08466389388285" id="-14860">
		<tag k="name" v="Nord-Grønneset" />
		<tag k="natural" v="cape" />
		<tag k="ssr:stedsnr" v="236631" />
	</node>
	<node lat="65.70762777630424" lon="11.838525008393802" id="-14861">
		<tag k="name" v="Seingsøya" />
		<tag k="place" v="islet" />
		<tag k="ssr:stedsnr" v="236729" />
	</node>
	<node lat="65.71047500350048" lon="11.900624997818163" id="-14864">
		<tag k="name" v="Heiskjeret" />
		<tag k="place" v="islet" />
		<tag k="ssr:stedsnr" v="237810" />
	</node>
	<node lat="65.69246388961334" lon="12.03799722337428" id="-14865">
		<tag k="name" v="Kvitholmen" />
		<tag k="place" v="islet" />
		<tag k="ssr:stedsnr" v="450533" />
	</node>
	<node lat="65.59702222618438" lon="12.155472229556239" id="-14868">
		<tag k="bay" v="fjord" />
		<tag k="name" v="Innerfjorden" />
		<tag k="natural" v="bay" />
		<tag k="ssr:stedsnr" v="238698" />
	</node>
	<node lat="65.7070861087008" lon="11.974258335266725" id="-14870">
		<tag k="name" v="Ørnøya" />
		<tag k="place" v="islet" />
		<tag k="ssr:stedsnr" v="238705" />
	</node>
	<node lat="65.761400000253" lon="11.998230546823473" id="-14874">
		<tag k="name" v="Rogngrunnen" />
		<tag k="natural" v="shoal" />
		<tag k="place" v="locality" />
		<tag k="ssr:stedsnr" v="450954" />
	</node>
	<node lat="65.5847777820949" lon="11.706233323180271" id="-14875">
		<tag k="name" v="Lyngholmen" />
		<tag k="place" v="islet" />
		<tag k="ssr:stedsnr" v="501484" />
	</node>
	<node lat="65.55641944625104" lon="11.653483333231453" id="-14879">
		<tag k="name" v="Flakslua" />
		<tag k="natural" v="shoal" />
		<tag k="place" v="locality" />
		<tag k="ssr:stedsnr" v="501486" />
	</node>
	<node lat="65.62559999597896" lon="11.394458332443309" id="-14880">
		<tag k="name" v="Nordholmen" />
		<tag k="place" v="islet" />
		<tag k="ssr:stedsnr" v="455821" />
	</node>
	<node lat="65.61829444257629" lon="11.644683324772938" id="-14881">
		<tag k="fixme" v="consider seamark:type=rock or natural=shoal" />
		<tag k="name" v="Skreiskjæret" />
		<tag k="place" v="islet" />
		<tag k="ssr:stedsnr" v="455895" />
	</node>
	<node lat="65.61533888560993" lon="11.377180546459515" id="-14882">
		<tag k="name" v="Kongen" />
		<tag k="place" v="locality" />
		<tag k="seamark:type" v="rock" />
		<tag k="ssr:stedsnr" v="455848" />
	</node>
	<node lat="65.60419166304914" lon="12.156083340675883" id="-14886">
		<tag k="fixme" v="consider seamark:type=rock or natural=shoal" />
		<tag k="name" v="Heståsskjæret" />
		<tag k="place" v="islet" />
		<tag k="ssr:stedsnr" v="258160" />
	</node>
	<node lat="65.54661666462381" lon="11.307269453769644" id="-14889">
		<tag k="name" v="Storremskolten" />
		<tag k="natural" v="shoal" />
		<tag k="place" v="locality" />
		<tag k="ssr:stedsnr" v="258508" />
	</node>
	<node lat="65.84376944524813" lon="11.759441675440936" id="-14890">
		<tag k="fixme" v="consider seamark:type=rock or natural=shoal" />
		<tag k="name" v="Kvalskjæran" />
		<tag k="place" v="islet" />
		<tag k="ssr:stedsnr" v="258509" />
	</node>
	<node lat="65.84889166433172" lon="11.78785277503287" id="-14893">
		<tag k="name" v="Gåsholmen" />
		<tag k="place" v="islet" />
		<tag k="ssr:stedsnr" v="258520" />
	</node>
	<node lat="65.6074861086463" lon="11.61578610389932" id="-14897">
		<tag k="name" v="Rundholmen" />
		<tag k="place" v="islet" />
		<tag k="ssr:stedsnr" v="258541" />
	</node>
	<node lat="65.59983611443651" lon="11.65469999897374" id="-14898">
		<tag k="name" v="Æskjæret" />
		<tag k="place" v="islet" />
		<tag k="ssr:stedsnr" v="258544" />
	</node>
	<node lat="65.61022500144874" lon="11.386633337931109" id="-14900">
		<tag k="fixme" v="consider seamark:type=rock or natural=shoal" />
		<tag k="name" v="Sørbroka" />
		<tag k="place" v="islet" />
		<tag k="ssr:stedsnr" v="258548" />
	</node>
	<node lat="65.86397222522197" lon="11.916402768215127" id="-14901">
		<tag k="fixme" v="consider seamark:type=rock or natural=shoal" />
		<tag k="name" v="Klovningen" />
		<tag k="place" v="islet" />
		<tag k="ssr:stedsnr" v="258551" />
	</node>
	<node lat="65.87391111433665" lon="11.769769435627234" id="-14903">
		<tag k="name" v="Svartsendingen" />
		<tag k="place" v="islet" />
		<tag k="ssr:stedsnr" v="258554" />
	</node>
	<node lat="65.8704083339782" lon="11.893327778291248" id="-14905">
		<tag k="fixme" v="consider seamark:type=rock or natural=shoal" />
		<tag k="name" v="Andersmortenskjæran" />
		<tag k="place" v="islet" />
		<tag k="ssr:stedsnr" v="258558" />
	</node>
	<node lat="65.87549444592142" lon="11.783502787459792" id="-14906">
		<tag k="name" v="Grassendingan" />
		<tag k="place" v="islet" />
		<tag k="ssr:stedsnr" v="258561" />
	</node>
	<node lat="65.69173333721919" lon="12.117413878699788" id="-14912">
		<tag k="name" v="Båtstøa" />
		<tag k="natural" v="bay" />
		<tag k="ssr:stedsnr" v="258426" />
	</node>
	<node lat="65.77489166245661" lon="11.732463883934624" id="-14926">
		<tag k="name" v="Kråkholmen" />
		<tag k="place" v="islet" />
		<tag k="ssr:stedsnr" v="258680" />
	</node>
	<node lat="65.85738055986052" lon="11.973333344651614" id="-14929">
		<tag k="name" v="Kalvholmen" />
		<tag k="place" v="islet" />
		<tag k="ssr:stedsnr" v="457487" />
	</node>
	<node lat="65.73632222030562" lon="11.801302772723936" id="-14934">
		<tag k="fixme" v="consider seamark:type=rock or natural=shoal" />
		<tag k="name" v="Runden" />
		<tag k="place" v="islet" />
		<tag k="ssr:stedsnr" v="274975" />
	</node>
	<node lat="65.64362222211858" lon="12.175500008019073" id="-14938">
		<tag k="name" v="Skutneset" />
		<tag k="natural" v="cape" />
		<tag k="ssr:stedsnr" v="297325" />
	</node>
	<node lat="65.65744166683213" lon="12.04922499551311" id="-14949">
		<tag k="name" v="Rognholmen" />
		<tag k="place" v="islet" />
		<tag k="ssr:stedsnr" v="318250" />
	</node>
	<node lat="65.71177499895485" lon="12.011183340239327" id="-14950">
		<tag k="name" v="Risøya" />
		<tag k="place" v="island" />
		<tag k="ssr:stedsnr" v="318444" />
	</node>
	<node lat="65.73975277447516" lon="11.76823332710634" id="-14951">
		<tag k="fixme" v="consider seamark:type=rock or natural=shoal" />
		<tag k="name" v="Leiskjæret" />
		<tag k="place" v="islet" />
		<tag k="ssr:stedsnr" v="318392" />
	</node>
	<node lat="65.61311388854718" lon="11.639330549229246" id="-14953">
		<tag k="fixme" v="consider seamark:type=rock or natural=shoal" />
		<tag k="loc_name" v="Stor-Leiskjæret" />
		<tag k="name" v="Leiskjæret" />
		<tag k="place" v="islet" />
		<tag k="ssr:stedsnr" v="318542" />
	</node>
	<node lat="65.85974999750212" lon="11.949875004053531" id="-14954">
		<tag k="name" v="Danieløya" />
		<tag k="place" v="islet" />
		<tag k="ssr:stedsnr" v="318548" />
	</node>
	<node lat="65.61348333034765" lon="11.587911100285682" id="-14955">
		<tag k="alt_name" v="Reiaren, s" />
		<tag k="fixme" v="multiple name tags, choose one and add the other to alt_name; consider seamark:type=rock or natural=shoal" />
		<tag k="name" v="Reiaren;Søre Reiaren" />
		<tag k="place" v="islet" />
		<tag k="ssr:stedsnr" v="318549" />
	</node>
	<node lat="65.86359444681734" lon="11.90942777954252" id="-14956">
		<tag k="fixme" v="consider seamark:type=rock or natural=shoal" />
		<tag k="name" v="Sirijorda" />
		<tag k="place" v="islet" />
		<tag k="ssr:stedsnr" v="318552" />
	</node>
	<node lat="65.86159999878294" lon="11.901461103204186" id="-14957">
		<tag k="fixme" v="consider seamark:type=rock or natural=shoal" />
		<tag k="name" v="Halgaskjæret" />
		<tag k="place" v="islet" />
		<tag k="ssr:stedsnr" v="318554" />
	</node>
	<node lat="65.60388611427705" lon="11.298063878587447" id="-14958">
		<tag k="fixme" v="consider seamark:type=rock or natural=shoal" />
		<tag k="name" v="Jutulen" />
		<tag k="place" v="islet" />
		<tag k="ssr:stedsnr" v="318555" />
	</node>
	<node lat="65.81530833654463" lon="11.973613894268526" id="-14959">
		<tag k="fixme" v="consider seamark:type=rock or natural=shoal" />
		<tag k="name" v="Dragauken" />
		<tag k="place" v="islet" />
		<tag k="ssr:stedsnr" v="318724" />
	</node>
	<node lat="65.58451388983931" lon="11.926811120895515" id="-14962">
		<tag k="name" v="Bukkholmen" />
		<tag k="place" v="islet" />
		<tag k="ssr:stedsnr" v="318803" />
	</node>
	<node lat="65.581372223874" lon="11.70954721319992" id="-14963">
		<tag k="alt_name" v="Lyngholmen, in" />
		<tag k="name" v="Indre Lyngholmen" />
		<tag k="place" v="islet" />
		<tag k="ssr:stedsnr" v="318807" />
	</node>
	<node lat="65.71410833528657" lon="11.870638885909068" id="-14967">
		<tag k="name" v="Viksåskråka" />
		<tag k="place" v="islet" />
		<tag k="ssr:stedsnr" v="319405" />
	</node>
	<node lat="65.5962250010444" lon="11.30533055163125" id="-14972">
		<tag k="name" v="Seingan" />
		<tag k="place" v="islet" />
		<tag k="ssr:stedsnr" v="319542" />
	</node>
	<node lat="65.67396389202095" lon="11.301494452021487" id="-14974">
		<tag k="name" v="Langtarskolten" />
		<tag k="natural" v="shoal" />
		<tag k="place" v="locality" />
		<tag k="ssr:stedsnr" v="319588" />
	</node>
	<node lat="65.65486944503112" lon="11.625005549311549" id="-14978">
		<tag k="fixme" v="consider seamark:type=rock or natural=shoal" />
		<tag k="name" v="Røyrskjæret" />
		<tag k="place" v="islet" />
		<tag k="ssr:stedsnr" v="319596" />
	</node>
	<node lat="65.79068055723506" lon="11.55894445504871" id="-14988">
		<tag k="name" v="Knausen" />
		<tag k="natural" v="shoal" />
		<tag k="place" v="locality" />
		<tag k="ssr:stedsnr" v="334860" />
	</node>
	<node lat="65.67301944247879" lon="11.804202785701174" id="-14989">
		<tag k="name" v="Sundsvollstranda" />
		<tag k="natural" v="beach" />
		<tag k="ssr:stedsnr" v="357204" />
	</node>
	<node lat="65.61196944026163" lon="11.833527773930218" id="-14996">
		<tag k="name" v="Langneset" />
		<tag k="natural" v="cape" />
		<tag k="ssr:stedsnr" v="358224" />
	</node>
	<node lat="65.62169166780893" lon="11.75948333041216" id="-14998">
		<tag k="name" v="Kuvikja" />
		<tag k="natural" v="bay" />
		<tag k="ssr:stedsnr" v="358269" />
	</node>
	<node lat="65.65044166572352" lon="12.003297218713385" id="-15000">
		<tag k="fixme" v="consider seamark:type=rock or natural=shoal" />
		<tag k="name" v="Kristenskjæret" />
		<tag k="place" v="islet" />
		<tag k="ssr:stedsnr" v="358517" />
	</node>
	<node lat="65.67727222007447" lon="11.986872222092114" id="-15002">
		<tag k="name" v="Valan" />
		<tag k="natural" v="bay" />
		<tag k="ssr:stedsnr" v="358551" />
	</node>
	<node lat="65.67867221994673" lon="11.989155555745564" id="-15003">
		<tag k="name" v="Peholmen" />
		<tag k="place" v="islet" />
		<tag k="ssr:stedsnr" v="358552" />
	</node>
	<node lat="65.60251110854075" lon="11.936219446386204" id="-15011">
		<tag k="name" v="Laukhammarstranda" />
		<tag k="natural" v="beach" />
		<tag k="ssr:stedsnr" v="479187" />
	</node>
	<node lat="65.60871944220334" lon="11.787922231003432" id="-15013">
		<tag k="name" v="Juvikja" />
		<tag k="natural" v="bay" />
		<tag k="ssr:stedsnr" v="479276" />
	</node>
	<node lat="65.67606389153597" lon="12.04500833921417" id="-15014">
		<tag k="name" v="Grimsøy" />
		<tag k="place" v="island" />
		<tag k="ssr:stedsnr" v="370663" />
	</node>
	<node lat="65.59925832899125" lon="11.886713883771398" id="-15016">
		<tag k="name" v="Kvalvika" />
		<tag k="natural" v="bay" />
		<tag k="ssr:stedsnr" v="479233" />
	</node>
	<node lat="65.6937611122599" lon="12.108350002450292" id="-15017">
		<tag k="name" v="Ytter-Breivikja" />
		<tag k="natural" v="bay" />
		<tag k="ssr:stedsnr" v="479381" />
	</node>
	<node lat="65.66314999846716" lon="12.174277781196103" id="-15018">
		<tag k="fixme" v="consider seamark:type=rock or natural=shoal" />
		<tag k="name" v="Larspersåskjeret" />
		<tag k="place" v="islet" />
		<tag k="ssr:stedsnr" v="479325" />
	</node>
	<node lat="65.68623332910948" lon="12.065850005931711" id="-15024">
		<tag k="name" v="Nilstorsaholmen" />
		<tag k="place" v="islet" />
		<tag k="ssr:stedsnr" v="479628" />
	</node>
	<node lat="65.68444444730473" lon="12.009661113591772" id="-15025">
		<tag k="name" v="Hongsetskardet" />
		<tag k="natural" v="cape" />
		<tag k="ssr:stedsnr" v="479519" />
	</node>
	<node lat="65.66647777772573" lon="12.04511666201137" id="-15026">
		<tag k="name" v="Tåsomholman" />
		<tag k="place" v="islet" />
		<tag k="ssr:stedsnr" v="479665" />
	</node>
	<node lat="65.70089166474598" lon="12.100794433720806" id="-15027">
		<tag k="fixme" v="consider seamark:type=rock or natural=shoal" />
		<tag k="name" v="Skarvskjæret" />
		<tag k="place" v="islet" />
		<tag k="ssr:stedsnr" v="479741" />
	</node>
	<node lat="65.58625833071306" lon="11.94434445197679" id="-15032">
		<tag k="name" v="Norddypingan" />
		<tag k="place" v="island" />
		<tag k="ssr:stedsnr" v="379148" />
	</node>
	<node lat="65.54421666675827" lon="11.921330553980527" id="-15037">
		<tag k="name" v="Storslua" />
		<tag k="natural" v="shoal" />
		<tag k="place" v="locality" />
		<tag k="ssr:stedsnr" v="379170" />
	</node>
	<node lat="65.67328333033895" lon="12.117480553387768" id="-15040">
		<tag k="alt_name" v="Rokkensjyen" />
		<tag k="name" v="Rokknessjøen" />
		<tag k="natural" v="bay" />
		<tag k="ssr:stedsnr" v="379263" />
	</node>
	<node lat="65.66731944438372" lon="12.07822778108348" id="-15041">
		<tag k="alt_name" v="Risøya, l;Litle Risøya" />
		<tag k="name" v="Liss-Risøya" />
		<tag k="natural" v="cape" />
		<tag k="ssr:stedsnr" v="379270" />
	</node>
	<node lat="65.72983055677751" lon="12.104530560333822" id="-15046">
		<tag k="name" v="Joholmen" />
		<tag k="place" v="islet" />
		<tag k="ssr:stedsnr" v="379372" />
	</node>
	<node lat="65.72593333014329" lon="11.862680550406214" id="-15047">
		<tag k="fixme" v="consider seamark:type=rock or natural=shoal" />
		<tag k="name" v="Smålangskjæran" />
		<tag k="place" v="islet" />
		<tag k="ssr:stedsnr" v="379377" />
	</node>
	<node lat="65.73613055269138" lon="12.14901111826069" id="-15048">
		<tag k="name" v="Taren" />
		<tag k="natural" v="shoal" />
		<tag k="place" v="locality" />
		<tag k="ssr:stedsnr" v="379381" />
	</node>
	<node lat="65.52699167105618" lon="11.573552773855164" id="-15049">
		<tag k="name" v="Aspintaren" />
		<tag k="natural" v="shoal" />
		<tag k="place" v="locality" />
		<tag k="ssr:stedsnr" v="379507" />
	</node>
	<node lat="65.61611666588897" lon="11.559483335569286" id="-15051">
		<tag k="alt_name" v="Klakken, in" />
		<tag k="fixme" v="multiple name tags, choose one and add the other to alt_name; consider seamark:type=rock or natural=shoal" />
		<tag k="name" v="Klakken;Indre Klakken" />
		<tag k="place" v="islet" />
		<tag k="ssr:stedsnr" v="379519" />
	</node>
	<node lat="65.68511666563693" lon="12.028169440451368" id="-15053">
		<tag k="name" v="Jansvika" />
		<tag k="natural" v="bay" />
		<tag k="ssr:stedsnr" v="379462" />
	</node>
	<node lat="65.57747777632652" lon="11.678991658190482" id="-15055">
		<tag k="alt_name" v="Leikua, s" />
		<tag k="name" v="Sørleikua" />
		<tag k="place" v="islet" />
		<tag k="ssr:stedsnr" v="379477" />
	</node>
	<node lat="65.64612499869149" lon="11.54987499220026" id="-15057">
		<tag k="name" v="Seislua" />
		<tag k="natural" v="shoal" />
		<tag k="place" v="locality" />
		<tag k="ssr:stedsnr" v="379606" />
	</node>
	<node lat="65.6368083295239" lon="11.56365278134164" id="-15058">
		<tag k="fixme" v="consider seamark:type=rock or natural=shoal" />
		<tag k="name" v="Fuglværrunden" />
		<tag k="place" v="islet" />
		<tag k="ssr:stedsnr" v="379612" />
	</node>
	<node lat="65.7394361154416" lon="11.62955276786215" id="-15060">
		<tag k="name" v="Gåsholmflesa" />
		<tag k="place" v="islet" />
		<tag k="ssr:stedsnr" v="379622" />
	</node>
	<node lat="65.9206416650823" lon="11.856794433372901" id="-15068">
		<tag k="name" v="Vinterryggen" />
		<tag k="natural" v="shoal" />
		<tag k="place" v="locality" />
		<tag k="ssr:stedsnr" v="379884" />
	</node>
	<node lat="65.66866110715748" lon="12.115302786510394" id="-15069">
		<tag k="name" v="Marteintaren" />
		<tag k="natural" v="shoal" />
		<tag k="place" v="locality" />
		<tag k="ssr:stedsnr" v="389788" />
	</node>
	<node lat="65.59885555922416" lon="11.891661117034129" id="-15070">
		<tag k="name" v="Revslua" />
		<tag k="natural" v="shoal" />
		<tag k="place" v="locality" />
		<tag k="ssr:stedsnr" v="389950" />
	</node>
	<node lat="65.67418889288278" lon="11.791883326198521" id="-15071">
		<tag k="fixme" v="consider seamark:type=rock or natural=shoal" />
		<tag k="name" v="Kvalbakkskjæran" />
		<tag k="place" v="islet" />
		<tag k="ssr:stedsnr" v="394300" />
	</node>
	<node lat="65.69157499888676" lon="12.081716667065834" id="-15075">
		<tag k="name" v="Hestvika" />
		<tag k="natural" v="bay" />
		<tag k="ssr:stedsnr" v="418612" />
	</node>
	<node lat="65.6402888914557" lon="12.159125007734373" id="-15081">
		<tag k="name" v="Nilsvikja" />
		<tag k="natural" v="bay" />
		<tag k="ssr:stedsnr" v="421238" />
	</node>
	<node lat="65.6317472248066" lon="12.146055565898907" id="-15082">
		<tag k="name" v="Liss-Strandvikja" />
		<tag k="natural" v="bay" />
		<tag k="ssr:stedsnr" v="421244" />
	</node>
	<node lat="65.59750833490848" lon="12.12652499325736" id="-15083">
		<tag k="name" v="Skjåvikja" />
		<tag k="natural" v="bay" />
		<tag k="ssr:stedsnr" v="421688" />
	</node>
	<node lat="65.70602778243706" lon="11.990966658300927" id="-15084">
		<tag k="name" v="Guristraumen" />
		<tag k="natural" v="strait" />
		<tag k="ssr:stedsnr" v="421696" />
	</node>
	<node lat="65.67103611481177" lon="11.999066662998239" id="-15090">
		<tag k="alt_name" v="Varnosen" />
		<tag k="name" v="Vardnosen" />
		<tag k="natural" v="bay" />
		<tag k="ssr:stedsnr" v="440303" />
	</node>
	<node lat="65.67241110852078" lon="12.172402786405396" id="-15091">
		<tag k="name" v="Steinsholmen" />
		<tag k="place" v="islet" />
		<tag k="ssr:stedsnr" v="440288" />
	</node>
	<node lat="65.66896111072937" lon="12.025516666452846" id="-15092">
		<tag k="name" v="Sørpurka" />
		<tag k="natural" v="strait" />
		<tag k="ssr:stedsnr" v="440300" />
	</node>
	<node lat="65.66440000274619" lon="12.080080548725702" id="-15096">
		<tag k="name" v="Andholmen" />
		<tag k="place" v="islet" />
		<tag k="ssr:stedsnr" v="440344" />
	</node>
	<node lat="65.56746944734425" lon="11.673172225507123" id="-15101">
		<tag k="fixme" v="consider seamark:type=rock or natural=shoal" />
		<tag k="name" v="Stokkskjæran" />
		<tag k="place" v="islet" />
		<tag k="ssr:stedsnr" v="440514" />
	</node>
	<node lat="65.85283611233764" lon="11.96331110086203" id="-15102">
		<tag k="fixme" v="consider seamark:type=rock or natural=shoal" />
		<tag k="name" v="Ternskjæret" />
		<tag k="place" v="islet" />
		<tag k="ssr:stedsnr" v="440521" />
	</node>
	<node lat="65.60426388677418" lon="11.35198055337085" id="-15103">
		<tag k="name" v="Langtarskolten" />
		<tag k="natural" v="shoal" />
		<tag k="place" v="locality" />
		<tag k="ssr:stedsnr" v="440546" />
	</node>
	<node lat="65.86611666838472" lon="11.965633336929292" id="-15105">
		<tag k="fixme" v="consider seamark:type=rock or natural=shoal" />
		<tag k="name" v="Sandskjæran" />
		<tag k="place" v="islet" />
		<tag k="ssr:stedsnr" v="440553" />
	</node>
	<node lat="65.7012027765703" lon="11.67279166446018" id="-15107">
		<tag k="fixme" v="consider seamark:type=rock or natural=shoal" />
		<tag k="name" v="Sølikåsskjæran" />
		<tag k="place" v="islet" />
		<tag k="ssr:stedsnr" v="440640" />
	</node>
	<node lat="65.76038055641538" lon="11.768544447584599" id="-15108">
		<tag k="fixme" v="consider seamark:type=rock or natural=shoal" />
		<tag k="name" v="Julskjæret" />
		<tag k="place" v="islet" />
		<tag k="ssr:stedsnr" v="440648" />
	</node>
	<node lat="65.66449166360736" lon="12.088211118963747" id="-15119">
		<tag k="name" v="Slistabben" />
		<tag k="natural" v="shoal" />
		<tag k="place" v="locality" />
		<tag k="ssr:stedsnr" v="450966" />
	</node>
	<node lat="65.68895277963611" lon="12.024250008754812" id="-15126">
		<tag k="name" v="Sjøbuneset" />
		<tag k="natural" v="cape" />
		<tag k="ssr:stedsnr" v="676717" />
	</node>
	<node lat="65.68700555893903" lon="12.130488882971255" id="-15127">
		<tag k="fixme" v="consider seamark:type=rock or natural=shoal" />
		<tag k="name" v="Martinaskjeret" />
		<tag k="place" v="islet" />
		<tag k="ssr:stedsnr" v="479403" />
	</node>
	<node lat="65.68186666681112" lon="12.077772222091271" id="-15128">
		<tag k="name" v="Bjørnvika" />
		<tag k="natural" v="bay" />
		<tag k="ssr:stedsnr" v="479623" />
	</node>
	<node lat="65.63962222149193" lon="12.154569435063777" id="-15131">
		<tag k="name" v="Landneset" />
		<tag k="natural" v="cape" />
		<tag k="ssr:stedsnr" v="481273" />
	</node>
	<node lat="65.63843888897942" lon="12.175555552150746" id="-15133">
		<tag k="name" v="Strandfjæro" />
		<tag k="natural" v="shoal" />
		<tag k="place" v="locality" />
		<tag k="ssr:stedsnr" v="490306" />
	</node>
	<node lat="65.68187222548245" lon="12.07391943505445" id="-15134">
		<tag k="name" v="Rognholmen" />
		<tag k="place" v="islet" />
		<tag k="ssr:stedsnr" v="491632" />
	</node>
	<node lat="65.6668944452728" lon="12.087022219029162" id="-15135">
		<tag k="fixme" v="consider seamark:type=rock or natural=shoal" />
		<tag k="name" v="Jens-Olaskjæret" />
		<tag k="place" v="islet" />
		<tag k="ssr:stedsnr" v="491671" />
	</node>
	<node lat="65.67894999596619" lon="12.031955558364407" id="-15136">
		<tag k="name" v="Skjåvika" />
		<tag k="natural" v="bay" />
		<tag k="ssr:stedsnr" v="495524" />
	</node>
	<node lat="65.70821388669536" lon="11.810269434173348" id="-15141">
		<tag k="fixme" v="consider seamark:type=rock or natural=shoal" />
		<tag k="name" v="Veitskjæran" />
		<tag k="place" v="islet" />
		<tag k="ssr:stedsnr" v="500484" />
	</node>
	<node lat="65.61174444406203" lon="11.544416657796315" id="-15143">
		<tag k="fixme" v="consider seamark:type=rock or natural=shoal" />
		<tag k="name" v="Svartoksskjæret" />
		<tag k="place" v="islet" />
		<tag k="ssr:stedsnr" v="500615" />
	</node>
	<node lat="65.70208888673305" lon="11.882274993280971" id="-15146">
		<tag k="name" v="Grønvika" />
		<tag k="natural" v="bay" />
		<tag k="ssr:stedsnr" v="500540" />
	</node>
	<node lat="65.77177500071949" lon="12.133449995372409" id="-15148">
		<tag k="name" v="Ingebrigtholmen" />
		<tag k="place" v="islet" />
		<tag k="ssr:stedsnr" v="500730" />
	</node>
	<node lat="65.76224444598955" lon="12.135308325680477" id="-15149">
		<tag k="name" v="Vollholmen" />
		<tag k="place" v="islet" />
		<tag k="ssr:stedsnr" v="500735" />
	</node>
	<node lat="65.8206999958586" lon="11.986283340182917" id="-15152">
		<tag k="fixme" v="consider seamark:type=rock or natural=shoal" />
		<tag k="name" v="Langdraget" />
		<tag k="place" v="islet" />
		<tag k="ssr:stedsnr" v="500795" />
	</node>
	<node lat="65.74302500428645" lon="11.718550008036775" id="-15155">
		<tag k="name" v="Slettøya" />
		<tag k="place" v="islet" />
		<tag k="ssr:stedsnr" v="500694" />
	</node>
	<node lat="65.74393055594756" lon="11.553722224755797" id="-15156">
		<tag k="fixme" v="consider seamark:type=rock or natural=shoal" />
		<tag k="name" v="Flesskjæret" />
		<tag k="place" v="islet" />
		<tag k="ssr:stedsnr" v="500700" />
	</node>
	<node lat="65.66610555180588" lon="12.06408611242099" id="-15159">
		<tag k="alt_name" v="Risøya, store;Store Risøya" />
		<tag k="name" v="Stor-Risøya" />
		<tag k="natural" v="cape" />
		<tag k="ssr:stedsnr" v="501255" />
	</node>
	<node lat="65.72358055438893" lon="12.10098610548222" id="-15161">
		<tag k="name" v="Kvalholmbroka" />
		<tag k="place" v="islet" />
		<tag k="ssr:stedsnr" v="501405" />
	</node>
	<node lat="65.72125555243136" lon="12.098655559109265" id="-15162">
		<tag k="name" v="Broktaren" />
		<tag k="natural" v="shoal" />
		<tag k="place" v="locality" />
		<tag k="ssr:stedsnr" v="501406" />
	</node>
	<node lat="65.8478611143648" lon="11.8351777867345" id="-15164">
		<tag k="name" v="Gåsholmen" />
		<tag k="place" v="islet" />
		<tag k="ssr:stedsnr" v="501426" />
	</node>
	<node lat="65.54848333146111" lon="11.288869443867759" id="-15165">
		<tag k="name" v="Honggrunntaren" />
		<tag k="natural" v="shoal" />
		<tag k="place" v="locality" />
		<tag k="ssr:stedsnr" v="501501" />
	</node>
	<node lat="65.68509166657162" lon="11.533061114487513" id="-15166">
		<tag k="name" v="Bekklutaren" />
		<tag k="natural" v="shoal" />
		<tag k="place" v="locality" />
		<tag k="ssr:stedsnr" v="501618" />
	</node>
	<node lat="65.77950555454814" lon="12.071658341529162" id="-15167">
		<tag k="name" v="Lyngholmen" />
		<tag k="place" v="islet" />
		<tag k="ssr:stedsnr" v="501646" />
	</node>
	<node lat="65.58623888731721" lon="11.480000005673494" id="-15171">
		<tag k="name" v="Tørrbåen" />
		<tag k="natural" v="shoal" />
		<tag k="place" v="locality" />
		<tag k="ssr:stedsnr" v="501537" />
	</node>
	<node lat="65.80399444669568" lon="11.948016666571162" id="-15172">
		<tag k="fixme" v="consider seamark:type=rock or natural=shoal" />
		<tag k="name" v="Hysflesa" />
		<tag k="place" v="islet" />
		<tag k="ssr:stedsnr" v="501704" />
	</node>
	<node lat="65.94589444851634" lon="11.961894448761281" id="-15174">
		<tag k="name" v="Skarvskjærtuven" />
		<tag k="natural" v="shoal" />
		<tag k="place" v="locality" />
		<tag k="ssr:stedsnr" v="501913" />
	</node>
	<node lat="65.61607500376815" lon="11.959544443101231" id="-15175">
		<tag k="name" v="Langstranda" />
		<tag k="natural" v="beach" />
		<tag k="ssr:stedsnr" v="744315" />
	</node>
	<node lat="65.61190833121505" lon="11.803888892597607" id="-15182">
		<tag k="name" v="Juvika" />
		<tag k="natural" v="bay" />
		<tag k="ssr:stedsnr" v="682386" />
	</node>
	<node lat="65.73878888832967" lon="12.131191661299123" id="-15184">
		<tag k="name" v="Langtaren" />
		<tag k="natural" v="shoal" />
		<tag k="place" v="locality" />
		<tag k="ssr:stedsnr" v="682439" />
	</node>
	<node lat="65.6166555577788" lon="11.551561113968818" id="-15187">
		<tag k="alt_name" v="Klakken, yt" />
		<tag k="fixme" v="consider seamark:type=rock or natural=shoal" />
		<tag k="name" v="Ytre Klakken" />
		<tag k="place" v="islet" />
		<tag k="ssr:stedsnr" v="682592" />
	</node>
	<node lat="65.85808055147754" lon="11.767952774020161" id="-15188">
		<tag k="name" v="Skarvholmen" />
		<tag k="place" v="islet" />
		<tag k="ssr:stedsnr" v="682596" />
	</node>
	<node lat="65.82389999635207" lon="12.150444450425152" id="-15193">
		<tag k="name" v="Stornavaren" />
		<tag k="place" v="islet" />
		<tag k="ssr:stedsnr" v="682797" />
	</node>
	<node lat="65.57935311316693" lon="12.03886666364237" id="-15194">
		<tag k="fixme" v="consider seamark:type=rock or natural=shoal" />
		<tag k="name" v="Ruglo" />
		<tag k="place" v="islet" />
		<tag k="ssr:stedsnr" v="509964" />
	</node>
	<node lat="65.8126666646612" lon="11.61993889081203" id="-15196">
		<tag k="name" v="Sengsbåen" />
		<tag k="natural" v="shoal" />
		<tag k="place" v="locality" />
		<tag k="ssr:stedsnr" v="682975" />
	</node>
	<node lat="65.77900555291703" lon="11.575638892332092" id="-15197">
		<tag k="name" v="Kråksundholman" />
		<tag k="place" v="islet" />
		<tag k="ssr:stedsnr" v="682994" />
	</node>
	<node lat="65.58642777731272" lon="11.88915832833935" id="-15198">
		<tag k="name" v="Hestvikodden" />
		<tag k="natural" v="cape" />
		<tag k="ssr:stedsnr" v="683124" />
	</node>
	<node lat="65.59128611333884" lon="11.889611115631444" id="-15200">
		<tag k="name" v="Holmen" />
		<tag k="place" v="islet" />
		<tag k="ssr:stedsnr" v="683131" />
	</node>
	<node lat="65.56914166760862" lon="11.701355558187984" id="-15213">
		<tag k="name" v="Horsøya" />
		<tag k="place" v="islet" />
		<tag k="ssr:stedsnr" v="683488" />
	</node>
	<node lat="65.85558888850787" lon="11.816227771843131" id="-15215">
		<tag k="alt_name" v="Brillingen, austre" />
		<tag k="name" v="Austre Brillingen" />
		<tag k="place" v="islet" />
		<tag k="ssr:stedsnr" v="683501" />
	</node>
	<node lat="65.67352499585084" lon="12.010569454826108" id="-15219">
		<tag k="name" v="Vardneset" />
		<tag k="natural" v="cape" />
		<tag k="ssr:stedsnr" v="683448" />
	</node>
	<node lat="65.67123055539567" lon="11.714019437818525" id="-15220">
		<tag k="name" v="Søla" />
		<tag k="place" v="island" />
		<tag k="ssr:stedsnr" v="683562" />
	</node>
	<node lat="65.78149167108896" lon="11.742980554234496" id="-15226">
		<tag k="fixme" v="consider seamark:type=rock or natural=shoal" />
		<tag k="name" v="Bergskjæret" />
		<tag k="place" v="islet" />
		<tag k="ssr:stedsnr" v="683684" />
	</node>
	<node lat="65.94235555214269" lon="11.871122224224157" id="-15229">
		<tag k="name" v="Petaren" />
		<tag k="natural" v="shoal" />
		<tag k="place" v="locality" />
		<tag k="ssr:stedsnr" v="683929" />
	</node>
	<node lat="65.60134166788701" lon="11.869558329368305" id="-15235">
		<tag k="name" v="Innervågen" />
		<tag k="natural" v="bay" />
		<tag k="ssr:stedsnr" v="540219" />
	</node>
	<node lat="65.65798889249301" lon="12.020680547845398" id="-15238">
		<tag k="name" v="Jektvika" />
		<tag k="natural" v="bay" />
		<tag k="ssr:stedsnr" v="540503" />
	</node>
	<node lat="65.71999444134418" lon="11.940927786830406" id="-15246">
		<tag k="name" v="Silsandskjeret" />
		<tag k="place" v="islet" />
		<tag k="ssr:stedsnr" v="540904" />
	</node>
	<node lat="65.60928610859159" lon="12.12470556166696" id="-15254">
		<tag k="fixme" v="consider seamark:type=rock or natural=shoal" />
		<tag k="name" v="Søtbrødskjæret" />
		<tag k="place" v="islet" />
		<tag k="ssr:stedsnr" v="561135" />
	</node>
	<node lat="65.62509166582387" lon="11.367752768256405" id="-15259">
		<tag k="name" v="Storslua" />
		<tag k="natural" v="shoal" />
		<tag k="place" v="locality" />
		<tag k="ssr:stedsnr" v="576843" />
	</node>
	<node lat="65.589455559226" lon="11.697805556689115" id="-15260">
		<tag k="name" v="Merra" />
		<tag k="natural" v="shoal" />
		<tag k="place" v="locality" />
		<tag k="ssr:stedsnr" v="698166" />
	</node>
	<node lat="65.97377777396703" lon="11.840552777777015" id="-15261">
		<tag k="name" v="Revlan" />
		<tag k="natural" v="shoal" />
		<tag k="place" v="locality" />
		<tag k="ssr:stedsnr" v="698262" />
	</node>
	<node lat="65.73024999707323" lon="11.493441659008175" id="-15262">
		<tag k="name" v="Søre Langtaren" />
		<tag k="natural" v="shoal" />
		<tag k="place" v="locality" />
		<tag k="ssr:stedsnr" v="698528" />
	</node>
	<node lat="65.70035278203602" lon="11.49191388252764" id="-15263">
		<tag k="name" v="Nordre Lovundtaren" />
		<tag k="natural" v="shoal" />
		<tag k="place" v="locality" />
		<tag k="ssr:stedsnr" v="698700" />
	</node>
	<node lat="65.67069444715248" lon="12.107211102182173" id="-15265">
		<tag k="name" v="Hauansjyen" />
		<tag k="natural" v="bay" />
		<tag k="ssr:stedsnr" v="600321" />
	</node>
	<node lat="65.68597221973093" lon="12.036463885708676" id="-15267">
		<tag k="name" v="Aletteholmane" />
		<tag k="place" v="islet" />
		<tag k="ssr:stedsnr" v="600598" />
	</node>
	<node lat="65.71134721870645" lon="11.837216663728793" id="-15271">
		<tag k="name" v="Langskjæret" />
		<tag k="place" v="islet" />
		<tag k="ssr:stedsnr" v="600749" />
	</node>
	<node lat="65.60805277578471" lon="11.546772211863251" id="-15272">
		<tag k="loc_name" v="Liss-Grytholmen" />
		<tag k="name" v="Litle Grytholmen" />
		<tag k="place" v="islet" />
		<tag k="ssr:stedsnr" v="698900" />
	</node>
	<node lat="65.60315555223774" lon="12.15125276963238" id="-15273">
		<tag k="name" v="Heståsneset" />
		<tag k="natural" v="cape" />
		<tag k="ssr:stedsnr" v="602707" />
	</node>
	<node lat="65.74362499649382" lon="11.975594440195344" id="-15276">
		<tag k="name" v="Laukholmen" />
		<tag k="place" v="islet" />
		<tag k="ssr:stedsnr" v="621410" />
	</node>
	<node lat="65.74748610980951" lon="12.09276389645124" id="-15278">
		<tag k="name" v="Valholman" />
		<tag k="place" v="islet" />
		<tag k="ssr:stedsnr" v="621416" />
	</node>
	<node lat="65.69638888971508" lon="11.806130562512825" id="-15279">
		<tag k="name" v="Grasøyan" />
		<tag k="place" v="islet" />
		<tag k="ssr:stedsnr" v="621491" />
	</node>
	<node lat="65.70251388953106" lon="11.845352780352515" id="-15283">
		<tag k="name" v="Valløya" />
		<tag k="place" v="islet" />
		<tag k="ssr:stedsnr" v="621502" />
	</node>
	<node lat="65.74599166726378" lon="11.964230555359878" id="-15286">
		<tag k="name" v="Andholmen" />
		<tag k="place" v="islet" />
		<tag k="ssr:stedsnr" v="621577" />
	</node>
	<node lat="65.85516111274185" lon="11.958294448767486" id="-15287">
		<tag k="name" v="Hestholmen" />
		<tag k="place" v="islet" />
		<tag k="ssr:stedsnr" v="621587" />
	</node>
	<node lat="65.8238277734213" lon="12.129933332228413" id="-15289">
		<tag k="name" v="Oterholmen" />
		<tag k="place" v="islet" />
		<tag k="ssr:stedsnr" v="621773" />
	</node>
	<node lat="65.81539166478419" lon="11.624263893233366" id="-15290">
		<tag k="name" v="Skrapbåen" />
		<tag k="natural" v="shoal" />
		<tag k="place" v="locality" />
		<tag k="ssr:stedsnr" v="621976" />
	</node>
	<node lat="65.56459444728532" lon="11.734641672783482" id="-15291">
		<tag k="name" v="Kommenslua" />
		<tag k="natural" v="shoal" />
		<tag k="place" v="locality" />
		<tag k="ssr:stedsnr" v="622164" />
	</node>
	<node lat="65.54150555373705" lon="11.857230562321732" id="-15292">
		<tag k="name" v="Einbærslua" />
		<tag k="natural" v="shoal" />
		<tag k="place" v="locality" />
		<tag k="ssr:stedsnr" v="622187" />
	</node>
	<node lat="65.62928333351734" lon="12.02153610120964" id="-15296">
		<tag k="name" v="Hestholmtaren" />
		<tag k="natural" v="shoal" />
		<tag k="place" v="locality" />
		<tag k="ssr:stedsnr" v="622326" />
	</node>
	<node lat="65.6438138869503" lon="12.170666655603055" id="-15297">
		<tag k="alt_name" v="Jektvika, nordre;Nordre Jektvika" />
		<tag k="name" v="Nordjektvika" />
		<tag k="natural" v="bay" />
		<tag k="ssr:stedsnr" v="622327" />
	</node>
	<node lat="65.64256081010535" lon="12.183810025380303" id="-15298">
		<tag k="name" v="Rokneset" />
		<tag k="natural" v="cape" />
		<tag k="ssr:stedsnr" v="622329" />
	</node>
	<node lat="65.71982222131807" lon="11.985408327681792" id="-15299">
		<tag k="fixme" v="consider seamark:type=rock or natural=shoal" />
		<tag k="name" v="Kjerkeskjæret" />
		<tag k="place" v="islet" />
		<tag k="ssr:stedsnr" v="622370" />
	</node>
	<node lat="65.70983888910736" lon="11.923344434877633" id="-15302">
		<tag k="alt_name" v="Hildholmen" />
		<tag k="name" v="Hilholmen" />
		<tag k="place" v="islet" />
		<tag k="ssr:stedsnr" v="622414" />
	</node>
	<node lat="65.78130833421842" lon="12.077975004163413" id="-15305">
		<tag k="name" v="Oterholmen" />
		<tag k="place" v="islet" />
		<tag k="ssr:stedsnr" v="622677" />
	</node>
	<node lat="65.67564166464143" lon="11.641627787068572" id="-15309">
		<tag k="name" v="Valleggtaren" />
		<tag k="natural" v="shoal" />
		<tag k="place" v="locality" />
		<tag k="ssr:stedsnr" v="622581" />
	</node>
	<node lat="65.6673388889059" lon="11.606374994997596" id="-15310">
		<tag k="name" v="Brattslua" />
		<tag k="natural" v="shoal" />
		<tag k="place" v="locality" />
		<tag k="ssr:stedsnr" v="622583" />
	</node>
	<node lat="65.93868055872453" lon="11.783377771369027" id="-15312">
		<tag k="name" v="Skarvflessveet" />
		<tag k="natural" v="shoal" />
		<tag k="place" v="locality" />
		<tag k="ssr:stedsnr" v="622870" />
	</node>
	<node lat="65.96261111394998" lon="11.900833339552744" id="-15313">
		<tag k="name" v="Durmålsflesa" />
		<tag k="place" v="islet" />
		<tag k="ssr:stedsnr" v="622915" />
	</node>
	<node lat="65.96324444574735" lon="11.892030566599097" id="-15315">
		<tag k="name" v="Skaftet" />
		<tag k="place" v="islet" />
		<tag k="ssr:stedsnr" v="622921" />
	</node>
	<node lat="65.94675833516524" lon="12.017080553332496" id="-15316">
		<tag k="fixme" v="consider seamark:type=rock or natural=shoal" />
		<tag k="name" v="Moklakkan" />
		<tag k="place" v="islet" />
		<tag k="ssr:stedsnr" v="622929" />
	</node>
	<node lat="65.55536111060009" lon="11.61020833732018" id="-15318">
		<tag k="name" v="Mosfjellslua" />
		<tag k="natural" v="shoal" />
		<tag k="place" v="locality" />
		<tag k="ssr:stedsnr" v="631540" />
	</node>
	<node lat="65.95237499838377" lon="12.054741661916577" id="-15320">
		<tag k="name" v="Stampslua" />
		<tag k="natural" v="shoal" />
		<tag k="place" v="locality" />
		<tag k="ssr:stedsnr" v="637715" />
	</node>
	<node lat="65.68321666636086" lon="11.57497777091715" id="-15321">
		<tag k="name" v="Kåstaren" />
		<tag k="natural" v="shoal" />
		<tag k="place" v="locality" />
		<tag k="ssr:stedsnr" v="637730" />
	</node>
	<node lat="65.63465278029706" lon="11.554249998598111" id="-15322">
		<tag k="name" v="Sulingtaren" />
		<tag k="natural" v="shoal" />
		<tag k="place" v="locality" />
		<tag k="ssr:stedsnr" v="637885" />
	</node>
	<node lat="65.65533888860686" lon="11.394925010018326" id="-15323">
		<tag k="name" v="Austre Galtaren" />
		<tag k="natural" v="shoal" />
		<tag k="place" v="locality" />
		<tag k="ssr:stedsnr" v="639606" />
	</node>
	<node lat="65.67466666957505" lon="12.120633332729769" id="-15327">
		<tag k="name" v="Hauet" />
		<tag k="natural" v="cape" />
		<tag k="ssr:stedsnr" v="661299" />
	</node>
	<node lat="65.70673333685718" lon="11.864883338827166" id="-15331">
		<tag k="name" v="Naustskjæran" />
		<tag k="place" v="islet" />
		<tag k="ssr:stedsnr" v="661743" />
	</node>
	<node lat="65.76708333284114" lon="11.743350008168232" id="-15342">
		<tag k="name" v="Steinsholmen" />
		<tag k="place" v="islet" />
		<tag k="ssr:stedsnr" v="682712" />
	</node>
	<node lat="65.69572777653272" lon="11.839900003601635" id="-15344">
		<tag k="name" v="Brandsviksjøen" />
		<tag k="natural" v="beach" />
		<tag k="ssr:stedsnr" v="682509" />
	</node>
	<node lat="65.83549722325299" lon="11.885150005349171" id="-15347">
		<tag k="fixme" v="consider seamark:type=rock or natural=shoal" />
		<tag k="name" v="Rakflesa" />
		<tag k="place" v="islet" />
		<tag k="ssr:stedsnr" v="682565" />
	</node>
	<node lat="65.84078055456823" lon="12.130486119434643" id="-15348">
		<tag k="name" v="Hestholmen" />
		<tag k="place" v="islet" />
		<tag k="ssr:stedsnr" v="682572" />
	</node>
	<node lat="65.86714166283011" lon="11.905641665713947" id="-15349">
		<tag k="name" v="Stordraget" />
		<tag k="place" v="islet" />
		<tag k="ssr:stedsnr" v="682607" />
	</node>
	<node lat="65.50333333293942" lon="12.084999990240457" id="-15352">
		<tag k="bay" v="fjord" />
		<tag k="name" v="Vegafjorden" />
		<tag k="natural" v="bay" />
		<tag k="ssr:stedsnr" v="682915" />
	</node>
	<node lat="65.64992500279861" lon="12.111777778454162" id="-15356">
		<tag k="name" v="Snertholmen" />
		<tag k="place" v="islet" />
		<tag k="ssr:stedsnr" v="683276" />
	</node>
	<node lat="65.55768333361328" lon="11.886316667483108" id="-15358">
		<tag k="name" v="Kvitingstaren" />
		<tag k="natural" v="shoal" />
		<tag k="place" v="locality" />
		<tag k="ssr:stedsnr" v="683159" />
	</node>
	<node lat="65.7188361106727" lon="11.882419453637722" id="-15360">
		<tag k="alt_name" v="Lisstokkvær;Stokkvær, l" />
		<tag k="name" v="Litle Stokkvær" />
		<tag k="place" v="island" />
		<tag k="ssr:stedsnr" v="683402" />
	</node>
	<node lat="65.52702221795548" lon="11.621575003617624" id="-15361">
		<tag k="fixme" v="consider seamark:type=rock or natural=shoal" />
		<tag k="name" v="Gåsflesbarnet" />
		<tag k="place" v="islet" />
		<tag k="ssr:stedsnr" v="683502" />
	</node>
	<node lat="65.67909444457871" lon="11.308086109042813" id="-15363">
		<tag k="name" v="Langtaren" />
		<tag k="natural" v="shoal" />
		<tag k="place" v="locality" />
		<tag k="ssr:stedsnr" v="683616" />
	</node>
	<node lat="65.68762777764806" lon="11.625663889613316" id="-15365">
		<tag k="fixme" v="consider seamark:type=rock or natural=shoal" />
		<tag k="name" v="Ytterskjæret" />
		<tag k="place" v="islet" />
		<tag k="ssr:stedsnr" v="683623" />
	</node>
	<node lat="65.69441110998758" lon="11.452541669141155" id="-15366">
		<tag k="alt_name" v="Rasverket" />
		<tag k="name" v="Nordre Rasverket" />
		<tag k="natural" v="shoal" />
		<tag k="place" v="locality" />
		<tag k="ssr:stedsnr" v="683625" />
	</node>
	<node lat="65.78373055432863" lon="11.965072218477294" id="-15367">
		<tag k="fixme" v="consider seamark:type=rock or natural=shoal" />
		<tag k="name" v="Hysskjæret" />
		<tag k="place" v="islet" />
		<tag k="ssr:stedsnr" v="683671" />
	</node>
	<node lat="65.97608333297717" lon="11.850194442818328" id="-15372">
		<tag k="name" v="Norddjuptaren" />
		<tag k="natural" v="shoal" />
		<tag k="place" v="locality" />
		<tag k="ssr:stedsnr" v="683956" />
	</node>
	<node lat="65.97526388907784" lon="11.869686109417946" id="-15373">
		<tag k="fixme" v="consider seamark:type=rock or natural=shoal" />
		<tag k="name" v="Nova" />
		<tag k="place" v="islet" />
		<tag k="ssr:stedsnr" v="683958" />
	</node>
	<node lat="65.6791388900797" lon="11.598916656226452" id="-15377">
		<tag k="name" v="Bubraken" />
		<tag k="place" v="islet" />
		<tag k="ssr:stedsnr" v="698726" />
	</node>
	<node lat="65.71278611458223" lon="11.880727769890246" id="-15379">
		<tag k="name" v="Kråkungen" />
		<tag k="place" v="islet" />
		<tag k="ssr:stedsnr" v="721722" />
	</node>
	<node lat="65.70964999924037" lon="11.882111110301825" id="-15380">
		<tag k="name" v="Røyrskjæret" />
		<tag k="place" v="islet" />
		<tag k="ssr:stedsnr" v="721727" />
	</node>
	<node lat="65.66608889291922" lon="12.037808342172147" id="-15399">
		<tag k="name" v="Kallernesholmane" />
		<tag k="place" v="islet" />
		<tag k="ssr:stedsnr" v="734690" />
	</node>
	<node lat="65.73523889344777" lon="11.774952771709197" id="-15408">
		<tag k="fixme" v="consider seamark:type=rock or natural=shoal" />
		<tag k="name" v="Stokkskjæret" />
		<tag k="place" v="islet" />
		<tag k="ssr:stedsnr" v="743403" />
	</node>
	<node lat="65.74610000078171" lon="12.140749995249484" id="-15411">
		<tag k="name" v="Hestholmen" />
		<tag k="place" v="islet" />
		<tag k="ssr:stedsnr" v="743414" />
	</node>
	<node lat="65.56247500246187" lon="11.880558326097256" id="-15412">
		<tag k="name" v="Sjurstaren" />
		<tag k="natural" v="shoal" />
		<tag k="place" v="locality" />
		<tag k="ssr:stedsnr" v="743178" />
	</node>
	<node lat="65.68388333331811" lon="11.789530545813744" id="-15417">
		<tag k="fixme" v="consider seamark:type=rock or natural=shoal" />
		<tag k="name" v="Rørskjæran" />
		<tag k="place" v="islet" />
		<tag k="ssr:stedsnr" v="743504" />
	</node>
	<node lat="65.67130277680896" lon="11.64238333041273" id="-15420">
		<tag k="fixme" v="consider seamark:type=rock or natural=shoal" />
		<tag k="name" v="Seisteinen" />
		<tag k="place" v="islet" />
		<tag k="ssr:stedsnr" v="743612" />
	</node>
	<node lat="65.77140555346875" lon="12.087588889997061" id="-15423">
		<tag k="name" v="Laukholmflesa" />
		<tag k="place" v="islet" />
		<tag k="ssr:stedsnr" v="743687" />
	</node>
	<node lat="65.63335832974042" lon="11.582288888775018" id="-15424">
		<tag k="loc_name" v="Burøynklumpen" />
		<tag k="name" v="Burøynakken" />
		<tag k="place" v="islet" />
		<tag k="ssr:stedsnr" v="743579" />
	</node>
	<node lat="65.61818333705348" lon="11.389886108193254" id="-15425">
		<tag k="name" v="Heimøysundet" />
		<tag k="natural" v="strait" />
		<tag k="ssr:stedsnr" v="743586" />
	</node>
	<node lat="65.62398333297273" lon="11.386658323289542" id="-15426">
		<tag k="name" v="Sørholmen" />
		<tag k="place" v="islet" />
		<tag k="ssr:stedsnr" v="743591" />
	</node>
	<node lat="65.80718610696367" lon="11.969569437212739" id="-15429">
		<tag k="name" v="Hestholmen" />
		<tag k="place" v="islet" />
		<tag k="ssr:stedsnr" v="743734" />
	</node>
	<node lat="65.80393888769358" lon="11.962474989233021" id="-15430">
		<tag k="name" v="Laukholmen" />
		<tag k="place" v="islet" />
		<tag k="ssr:stedsnr" v="743740" />
	</node>
	<node lat="65.8095666676784" lon="11.667683325185596" id="-15432">
		<tag k="fixme" v="consider seamark:type=rock or natural=shoal" />
		<tag k="name" v="Spannflesa" />
		<tag k="place" v="islet" />
		<tag k="ssr:stedsnr" v="743977" />
	</node>
	<node lat="65.81093333037916" lon="12.12543332320996" id="-15435">
		<tag k="fixme" v="consider seamark:type=rock or natural=shoal" />
		<tag k="name" v="Valskjæret" />
		<tag k="place" v="islet" />
		<tag k="ssr:stedsnr" v="744407" />
	</node>
	<node lat="65.88473055121791" lon="11.778708340685066" id="-15438">
		<tag k="name" v="Nordteinbåen" />
		<tag k="natural" v="shoal" />
		<tag k="place" v="locality" />
		<tag k="ssr:stedsnr" v="744528" />
	</node>
	<node lat="65.6590555538257" lon="11.286633331403335" id="-15439">
		<tag k="name" v="Revlan" />
		<tag k="natural" v="shoal" />
		<tag k="place" v="locality" />
		<tag k="ssr:stedsnr" v="744576" />
	</node>
	<node lat="65.96028611192182" lon="12.033736116106162" id="-15440">
		<tag k="name" v="Hansflesa" />
		<tag k="place" v="islet" />
		<tag k="ssr:stedsnr" v="744911" />
	</node>
	<node lat="65.95138610832791" lon="11.850500002400805" id="-15441">
		<tag k="name" v="Steinan" />
		<tag k="place" v="islet" />
		<tag k="ssr:stedsnr" v="744923" />
	</node>
	<node lat="65.69255000396375" lon="11.822047218661366" id="-15445">
		<tag k="name" v="Mjølkøya" />
		<tag k="natural" v="cape" />
		<tag k="ssr:stedsnr" v="904211" />
	</node>
	<node lat="65.68949722356022" lon="11.817641658898122" id="-15446">
		<tag k="name" v="Håkåhamar" />
		<tag k="natural" v="cape" />
		<tag k="ssr:stedsnr" v="904212" />
	</node>
	<node lat="65.68403332898752" lon="11.808886120403068" id="-15447">
		<tag k="name" v="Småholman" />
		<tag k="natural" v="cape" />
		<tag k="ssr:stedsnr" v="904214" />
	</node>
	<node lat="65.68584721999551" lon="11.805175008768652" id="-15448">
		<tag k="fixme" v="consider seamark:type=rock or natural=shoal" />
		<tag k="name" v="Flatskjær" />
		<tag k="place" v="islet" />
		<tag k="ssr:stedsnr" v="904217" />
	</node>
	<node lat="65.61339444749308" lon="11.805044454311114" id="-15453">
		<tag k="name" v="Juvikja" />
		<tag k="natural" v="beach" />
		<tag k="ssr:stedsnr" v="904295" />
	</node>
	<node lat="65.6443434231278" lon="12.184503944117775" id="-15454">
		<tag k="name" v="Roknesodden" />
		<tag k="natural" v="cape" />
		<tag k="ssr:stedsnr" v="904329" />
	</node>
	<node lat="65.70442499689341" lon="11.852349999157132" id="-15456">
		<tag k="name" v="Vallsjøen" />
		<tag k="natural" v="bay" />
		<tag k="ssr:stedsnr" v="904742" />
	</node>
	<node lat="65.71170000259941" lon="11.867541658423399" id="-15457">
		<tag k="name" v="Tvillingholmen" />
		<tag k="place" v="islet" />
		<tag k="ssr:stedsnr" v="904747" />
	</node>
	<node lat="65.79837222471676" lon="12.0295861093619" id="-15461">
		<tag k="name" v="Olataren" />
		<tag k="natural" v="shoal" />
		<tag k="place" v="locality" />
		<tag k="ssr:stedsnr" v="753918" />
	</node>
	<node lat="65.63639444862808" lon="11.356263893587592" id="-15463">
		<tag k="name" v="Sjurgrunna" />
		<tag k="natural" v="shoal" />
		<tag k="place" v="locality" />
		<tag k="ssr:stedsnr" v="759806" />
	</node>
	<node lat="65.64414444065125" lon="12.178324999385078" id="-15471">
		<tag k="name" v="Finnvikja" />
		<tag k="natural" v="bay" />
		<tag k="ssr:stedsnr" v="782300" />
	</node>
	<node lat="65.6940111126937" lon="12.094561107881958" id="-15473">
		<tag k="name" v="Møllehusholmene" />
		<tag k="natural" v="cape" />
		<tag k="ssr:stedsnr" v="782702" />
	</node>
	<node lat="65.70890555814246" lon="11.905758337863277" id="-15484">
		<tag k="name" v="Lissbuholmen" />
		<tag k="natural" v="cape" />
		<tag k="ssr:stedsnr" v="783900" />
	</node>
	<node lat="65.6816888935006" lon="12.046102770050014" id="-15486">
		<tag k="name" v="Rognholman" />
		<tag k="place" v="islet" />
		<tag k="ssr:stedsnr" v="795679" />
	</node>
	<node lat="65.74710000376865" lon="11.881533325757202" id="-15491">
		<tag k="name" v="Jotaren" />
		<tag k="natural" v="shoal" />
		<tag k="place" v="locality" />
		<tag k="ssr:stedsnr" v="804425" />
	</node>
	<node lat="65.70401111276024" lon="12.107186118165224" id="-15493">
		<tag k="alt_name" v="Inner-Hildholmen;Hilholmen, in" />
		<tag k="name" v="Indre Hilholmen" />
		<tag k="place" v="islet" />
		<tag k="ssr:stedsnr" v="804442" />
	</node>
	<node lat="65.72658333540714" lon="12.124608327919818" id="-15494">
		<tag k="name" v="Østenbraken" />
		<tag k="place" v="islet" />
		<tag k="ssr:stedsnr" v="804449" />
	</node>
	<node lat="65.78243610965852" lon="11.976622226090997" id="-15495">
		<tag k="name" v="Grønholmen" />
		<tag k="place" v="islet" />
		<tag k="ssr:stedsnr" v="804459" />
	</node>
	<node lat="65.86349722550807" lon="11.948702774268433" id="-15498">
		<tag k="name" v="Kinnarøya" />
		<tag k="place" v="islet" />
		<tag k="ssr:stedsnr" v="804468" />
	</node>
	<node lat="65.65202500189262" lon="11.973413885364003" id="-15505">
		<tag k="name" v="Teinåsvika" />
		<tag k="natural" v="bay" />
		<tag k="ssr:stedsnr" v="804327" />
	</node>
	<node lat="65.63511666368433" lon="12.181830551601" id="-15507">
		<tag k="name" v="Petrinavika" />
		<tag k="natural" v="bay" />
		<tag k="ssr:stedsnr" v="804360" />
	</node>
	<node lat="65.65793888685783" lon="12.172311113721168" id="-15508">
		<tag k="alt_name" v="Yttergrytholmen;Grytholmen, yt" />
		<tag k="name" v="Ytre Grytholmen" />
		<tag k="place" v="islet" />
		<tag k="ssr:stedsnr" v="804370" />
	</node>
	<node lat="65.6883500001582" lon="12.052055551612636" id="-15510">
		<tag k="alt_name" v="Litl-Torsøya" />
		<tag k="name" v="Liss-Torsøya" />
		<tag k="place" v="islet" />
		<tag k="ssr:stedsnr" v="804513" />
	</node>
	<node lat="65.68627222364832" lon="12.07063610578558" id="-15511">
		<tag k="fixme" v="consider seamark:type=rock or natural=shoal" />
		<tag k="name" v="Langskjæret" />
		<tag k="place" v="islet" />
		<tag k="ssr:stedsnr" v="804517" />
	</node>
	<node lat="65.73949444373598" lon="11.554330553749063" id="-15513">
		<tag k="fixme" v="multiple name tags, choose one and add the other to alt_name" />
		<tag k="name" v="Store Flesa;Flesa" />
		<tag k="place" v="islet" />
		<tag k="ssr:stedsnr" v="804660" />
	</node>
	<node lat="65.74744444644854" lon="11.717224989385743" id="-15514">
		<tag k="name" v="Teistholmen" />
		<tag k="place" v="islet" />
		<tag k="ssr:stedsnr" v="804662" />
	</node>
	<node lat="65.6690499988662" lon="12.101800008237952" id="-15518">
		<tag k="name" v="Skjåneset" />
		<tag k="natural" v="cape" />
		<tag k="ssr:stedsnr" v="805228" />
	</node>
	<node lat="65.60707222316404" lon="11.87236388899882" id="-15530">
		<tag k="name" v="Tosholmen" />
		<tag k="natural" v="cape" />
		<tag k="ssr:stedsnr" v="844213" />
	</node>
	<node lat="65.61420000091722" lon="11.731474995852682" id="-15536">
		<tag k="name" v="Dyrholmen" />
		<tag k="place" v="islet" />
		<tag k="ssr:stedsnr" v="925397" />
	</node>
	<node lat="65.63483333628638" lon="12.152444434116257" id="-15539">
		<tag k="name" v="Sørsjyen" />
		<tag k="natural" v="bay" />
		<tag k="ssr:stedsnr" v="846229" />
	</node>
	<node lat="65.84205833323637" lon="12.12112778072234" id="-15541">
		<tag k="fixme" v="consider seamark:type=rock or natural=shoal" />
		<tag k="name" v="Hestdraget" />
		<tag k="place" v="islet" />
		<tag k="ssr:stedsnr" v="925554" />
	</node>
	<node lat="65.61420555631449" lon="11.700805550656773" id="-15543">
		<tag k="name" v="Storgrunna" />
		<tag k="natural" v="shoal" />
		<tag k="place" v="locality" />
		<tag k="ssr:stedsnr" v="925576" />
	</node>
	<node lat="65.85978055886848" lon="11.94123610115613" id="-15544">
		<tag k="fixme" v="consider seamark:type=rock or natural=shoal" />
		<tag k="name" v="Kjerholmen" />
		<tag k="place" v="islet" />
		<tag k="ssr:stedsnr" v="925578" />
	</node>
	<node lat="65.86295555260823" lon="11.833202766778632" id="-15545">
		<tag k="fixme" v="consider seamark:type=rock or natural=shoal" />
		<tag k="name" v="Breiskjæret" />
		<tag k="place" v="islet" />
		<tag k="ssr:stedsnr" v="925582" />
	</node>
	<node lat="65.62385832991468" lon="11.604683342660405" id="-15547">
		<tag k="fixme" v="consider seamark:type=rock or natural=shoal" />
		<tag k="name" v="Rørvikskjæret" />
		<tag k="place" v="islet" />
		<tag k="ssr:stedsnr" v="925621" />
	</node>
	<node lat="65.61931389308813" lon="11.627711118498485" id="-15549">
		<tag k="fixme" v="consider seamark:type=rock or natural=shoal" />
		<tag k="name" v="Flatskjæret" />
		<tag k="place" v="islet" />
		<tag k="ssr:stedsnr" v="925628" />
	</node>
	<node lat="65.61290833301788" lon="11.384838879310102" id="-15550">
		<tag k="name" v="Nordbroka" />
		<tag k="place" v="islet" />
		<tag k="ssr:stedsnr" v="925630" />
	</node>
	<node lat="65.59648333323769" lon="11.74541666261451" id="-15556">
		<tag k="name" v="Eidemsholmen" />
		<tag k="place" v="islet" />
		<tag k="ssr:stedsnr" v="926147" />
	</node>
	<node lat="65.57332222453657" lon="11.995641670165323" id="-15557">
		<tag k="name" v="Slua" />
		<tag k="natural" v="shoal" />
		<tag k="place" v="locality" />
		<tag k="ssr:stedsnr" v="926166" />
	</node>
	<node lat="65.68114999629843" lon="11.78862499819107" id="-15565">
		<tag k="alt_name" v="Lyngholman" />
		<tag k="name" v="Lyngholmen" />
		<tag k="place" v="islet" />
		<tag k="ssr:stedsnr" v="926482" />
	</node>
	<node lat="65.5843694425625" lon="11.689744435584041" id="-15572">
		<tag k="name" v="Balen" />
		<tag k="place" v="islet" />
		<tag k="ssr:stedsnr" v="926546" />
	</node>
	<node lat="65.66185555897633" lon="11.318952769740624" id="-15573">
		<tag k="name" v="Brattslua" />
		<tag k="natural" v="shoal" />
		<tag k="place" v="locality" />
		<tag k="ssr:stedsnr" v="926582" />
	</node>
	<node lat="65.68719999757298" lon="12.06770000928489" id="-15589">
		<tag k="name" v="Andreasvika" />
		<tag k="natural" v="bay" />
		<tag k="ssr:stedsnr" v="904599" />
	</node>
	<node lat="65.69179999769608" lon="12.078463898015213" id="-15590">
		<tag k="name" v="Klipparodden" />
		<tag k="natural" v="cape" />
		<tag k="ssr:stedsnr" v="904601" />
	</node>
	<node lat="65.67187777918001" lon="12.038391671086975" id="-15596">
		<tag k="name" v="Rypskjæret" />
		<tag k="place" v="islet" />
		<tag k="ssr:stedsnr" v="917623" />
	</node>
	<node lat="65.67023888946984" lon="12.044272224979865" id="-15597">
		<tag k="name" v="Nautøya" />
		<tag k="natural" v="cape" />
		<tag k="ssr:stedsnr" v="917625" />
	</node>
	<node lat="65.60961944121283" lon="12.03076110629053" id="-15600">
		<tag k="name" v="Kolstadtaren" />
		<tag k="natural" v="shoal" />
		<tag k="place" v="locality" />
		<tag k="ssr:stedsnr" v="925393" />
	</node>
	<node lat="65.61894999798521" lon="12.17167500087042" id="-15601">
		<tag k="alt_name" v="Fagervika, nordre" />
		<tag k="name" v="Nordre Fagervika" />
		<tag k="natural" v="bay" />
		<tag k="ssr:stedsnr" v="925394" />
	</node>
	<node lat="65.73663888706918" lon="12.05728056399367" id="-15603">
		<tag k="name" v="Slua" />
		<tag k="natural" v="shoal" />
		<tag k="place" v="locality" />
		<tag k="ssr:stedsnr" v="925413" />
	</node>
	<node lat="65.75165555618173" lon="11.954288891919889" id="-15606">
		<tag k="fixme" v="consider seamark:type=rock or natural=shoal" />
		<tag k="name" v="Andholmflesa" />
		<tag k="place" v="islet" />
		<tag k="ssr:stedsnr" v="925717" />
	</node>
	<node lat="65.75944721766511" lon="11.989066675549205" id="-15608">
		<tag k="name" v="Rognan" />
		<tag k="place" v="islet" />
		<tag k="ssr:stedsnr" v="925720" />
	</node>
	<node lat="65.5743277823365" lon="11.724149989841742" id="-15610">
		<tag k="name" v="Brennholmen" />
		<tag k="place" v="islet" />
		<tag k="ssr:stedsnr" v="926156" />
	</node>
	<node lat="65.62686944620182" lon="11.979977780406934" id="-15613">
		<tag k="name" v="Møllehusvika" />
		<tag k="natural" v="bay" />
		<tag k="ssr:stedsnr" v="926303" />
	</node>
	<node lat="65.60193611048626" lon="11.539766671535187" id="-15619">
		<tag k="fixme" v="consider seamark:type=rock or natural=shoal" />
		<tag k="name" v="Grytholmskjæran" />
		<tag k="place" v="islet" />
		<tag k="ssr:stedsnr" v="926519" />
	</node>
	<node lat="65.60528333385298" lon="11.314166666739418" id="-15620">
		<tag k="name" v="Jutultaren" />
		<tag k="natural" v="shoal" />
		<tag k="place" v="locality" />
		<tag k="ssr:stedsnr" v="926523" />
	</node>
	<node lat="65.60450555834396" lon="11.385500005444726" id="-15621">
		<tag k="name" v="Broktaren" />
		<tag k="natural" v="shoal" />
		<tag k="place" v="locality" />
		<tag k="ssr:stedsnr" v="926526" />
	</node>
	<node lat="65.71835555974447" lon="11.782886115209347" id="-15623">
		<tag k="fixme" v="consider seamark:type=rock or natural=shoal" />
		<tag k="name" v="Grautballen" />
		<tag k="place" v="islet" />
		<tag k="ssr:stedsnr" v="926404" />
	</node>
	<node lat="65.74782499888829" lon="11.708199994463175" id="-15628">
		<tag k="alt_name" v="Langøya, store" />
		<tag k="name" v="Store Langøya" />
		<tag k="place" v="islet" />
		<tag k="ssr:stedsnr" v="926620" />
	</node>
	<node lat="65.6187972225755" lon="11.7542638815554" id="-15644">
		<tag k="name" v="Vestvågjen" />
		<tag k="natural" v="bay" />
		<tag k="ssr:stedsnr" v="965303" />
	</node>
	<node lat="65.67395555585684" lon="12.119313899760837" id="-15646">
		<tag k="fixme" v="consider seamark:type=rock or natural=shoal" />
		<tag k="name" v="Stonghågskjeret" />
		<tag k="place" v="islet" />
		<tag k="ssr:stedsnr" v="965347" />
	</node>
	<node lat="65.56621944051824" lon="11.89498056387327" id="-15673">
		<tag k="name" v="Seingen" />
		<tag k="place" v="islet" />
		<tag k="ssr:stedsnr" v="15161" />
	</node>
	<node lat="65.61210000337005" lon="12.1284750007502" id="-15677">
		<tag k="name" v="Korkovikneset" />
		<tag k="natural" v="cape" />
		<tag k="ssr:stedsnr" v="15392" />
	</node>
	<node lat="65.70042500430739" lon="11.990527769131381" id="-15679">
		<tag k="name" v="Sveastraumen" />
		<tag k="natural" v="strait" />
		<tag k="ssr:stedsnr" v="15469" />
	</node>
	<node lat="65.69100555637094" lon="12.087324994520722" id="-15682">
		<tag k="name" v="Saltkarneset" />
		<tag k="natural" v="cape" />
		<tag k="ssr:stedsnr" v="15526" />
	</node>
	<node lat="65.62004722097811" lon="12.128383326186588" id="-15686">
		<tag k="alt_name" v="Rotvikodden, s" />
		<tag k="name" v="Søre Rotvikodden" />
		<tag k="natural" v="cape" />
		<tag k="ssr:stedsnr" v="16323" />
	</node>
	<node lat="65.6153888923114" lon="12.129911107358376" id="-15687">
		<tag k="alt_name" v="Slottvikja" />
		<tag k="name" v="Slåttvika" />
		<tag k="natural" v="bay" />
		<tag k="ssr:stedsnr" v="16326" />
	</node>
	<node lat="65.61498889301578" lon="12.12712778007945" id="-15688">
		<tag k="alt_name" v="Slottvikholmen" />
		<tag k="name" v="Slåttvikholmen" />
		<tag k="place" v="islet" />
		<tag k="ssr:stedsnr" v="16327" />
	</node>
	<node lat="65.73824444565771" lon="11.943716676428728" id="-15692">
		<tag k="name" v="Værholmen" />
		<tag k="place" v="islet" />
		<tag k="ssr:stedsnr" v="15429" />
	</node>
	<node lat="65.74296666636064" lon="11.729105557166777" id="-15693">
		<tag k="name" v="Værholmen" />
		<tag k="place" v="islet" />
		<tag k="ssr:stedsnr" v="15437" />
	</node>
	<node lat="65.81210277420821" lon="11.984583341927548" id="-15694">
		<tag k="fixme" v="consider seamark:type=rock or natural=shoal" />
		<tag k="name" v="Kobbskjæret" />
		<tag k="place" v="islet" />
		<tag k="ssr:stedsnr" v="15740" />
	</node>
	<node lat="65.81243333650005" lon="11.970327769962578" id="-15695">
		<tag k="name" v="Draget" />
		<tag k="place" v="islet" />
		<tag k="ssr:stedsnr" v="15745" />
	</node>
	<node lat="65.83552222320884" lon="11.768152783854601" id="-15698">
		<tag k="fixme" v="consider seamark:type=rock or natural=shoal" />
		<tag k="name" v="Flesa" />
		<tag k="place" v="islet" />
		<tag k="ssr:stedsnr" v="15542" />
	</node>
	<node lat="65.60489444617923" lon="11.545483341512336" id="-15699">
		<tag k="alt_name" v="Grytholmen" />
		<tag k="name" v="Store Grytholmen" />
		<tag k="place" v="islet" />
		<tag k="ssr:stedsnr" v="15572" />
	</node>
	<node lat="65.5918277766984" lon="11.713563890766991" id="-15700">
		<tag k="name" v="Oterholmen" />
		<tag k="place" v="islet" />
		<tag k="ssr:stedsnr" v="15578" />
	</node>
	<node lat="65.66792778126766" lon="11.317449989867766" id="-15705">
		<tag k="name" v="Skovisan" />
		<tag k="natural" v="shoal" />
		<tag k="place" v="locality" />
		<tag k="ssr:stedsnr" v="15631" />
	</node>
	<node lat="65.6950500038624" lon="11.711113892397902" id="-15708">
		<tag k="fixme" v="consider seamark:type=rock or natural=shoal" />
		<tag k="name" v="Rundskjæran" />
		<tag k="place" v="islet" />
		<tag k="ssr:stedsnr" v="15689" />
	</node>
	<node lat="65.93098332941926" lon="11.963908339198461" id="-15709">
		<tag k="name" v="Falkflesa" />
		<tag k="place" v="islet" />
		<tag k="ssr:stedsnr" v="15881" />
	</node>
	<node lat="65.66856389213082" lon="11.990550007231313" id="-15714">
		<tag k="name" v="Holmen" />
		<tag k="place" v="islet" />
		<tag k="ssr:stedsnr" v="16235" />
	</node>
	<node lat="65.63071110787385" lon="12.141761118188825" id="-15716">
		<tag k="name" v="Rorsundet" />
		<tag k="natural" v="strait" />
		<tag k="ssr:stedsnr" v="16280" />
	</node>
	<node lat="65.54331667025961" lon="11.345052786696339" id="-15718">
		<tag k="name" v="Skråptaren" />
		<tag k="natural" v="shoal" />
		<tag k="place" v="locality" />
		<tag k="ssr:stedsnr" v="16491" />
	</node>
	<node lat="65.79269166569303" lon="12.039955561215427" id="-15730">
		<tag k="name" v="Torslua" />
		<tag k="natural" v="shoal" />
		<tag k="place" v="locality" />
		<tag k="ssr:stedsnr" v="25939" />
	</node>
	<node lat="65.59457221855885" lon="11.84169444027406" id="-15731">
		<tag k="name" v="Galten" />
		<tag k="natural" v="shoal" />
		<tag k="place" v="locality" />
		<tag k="ssr:stedsnr" v="25965" />
	</node>
	<node lat="65.60956666408839" lon="11.434544450581537" id="-15733">
		<tag k="name" v="Nordre Rodalsfallan" />
		<tag k="natural" v="shoal" />
		<tag k="place" v="locality" />
		<tag k="ssr:stedsnr" v="30894" />
	</node>
	<node lat="65.79433610993132" lon="11.6017166687389" id="-15734">
		<tag k="name" v="Skarvøybåen" />
		<tag k="place" v="locality" />
		<tag k="seamark:type" v="rock" />
		<tag k="ssr:stedsnr" v="32563" />
	</node>
	<node lat="65.61151666410257" lon="11.82511110567875" id="-15737">
		<tag k="name" v="Eidemsleiro" />
		<tag k="natural" v="shoal" />
		<tag k="place" v="locality" />
		<tag k="ssr:stedsnr" v="54291" />
	</node>
	<node lat="65.60913055677544" lon="11.77236388969508" id="-15738">
		<tag k="name" v="Ervikholmen" />
		<tag k="place" v="islet" />
		<tag k="ssr:stedsnr" v="54304" />
	</node>
	<node lat="65.6437694472572" lon="11.77851112206055" id="-15755">
		<tag k="name" v="Tjeldneset" />
		<tag k="natural" v="cape" />
		<tag k="ssr:stedsnr" v="55198" />
	</node>
	<node lat="65.6988000038533" lon="11.991247214343908" id="-15758">
		<tag k="name" v="Osen" />
		<tag k="natural" v="bay" />
		<tag k="ssr:stedsnr" v="55695" />
	</node>
	<node lat="65.64872777407076" lon="12.017630555032056" id="-15760">
		<tag k="name" v="Indre-Fersetøya" />
		<tag k="place" v="islet" />
		<tag k="ssr:stedsnr" v="55491" />
	</node>
	<node lat="65.59753611249974" lon="12.140661117349518" id="-15766">
		<tag k="name" v="Nesan" />
		<tag k="natural" v="cape" />
		<tag k="ssr:stedsnr" v="57661" />
	</node>
	<node lat="65.67538888764041" lon="12.037491658802848" id="-15769">
		<tag k="name" v="Langneset" />
		<tag k="natural" v="cape" />
		<tag k="ssr:stedsnr" v="67670" />
	</node>
	<node lat="65.59479444636868" lon="11.893994453488554" id="-15770">
		<tag k="alt_name" v="Bersneset" />
		<tag k="name" v="Bærsneset" />
		<tag k="natural" v="cape" />
		<tag k="ssr:stedsnr" v="76164" />
	</node>
	<node lat="65.57185833083544" lon="11.909125003095085" id="-15774">
		<tag k="name" v="Hysklumpan" />
		<tag k="place" v="islet" />
		<tag k="ssr:stedsnr" v="76177" />
	</node>
	<node lat="65.63985277795535" lon="12.162486103663598" id="-15777">
		<tag k="alt_name" v="Jektvika, s;Søre Jektvika" />
		<tag k="name" v="Sørjektvikja" />
		<tag k="natural" v="bay" />
		<tag k="ssr:stedsnr" v="76330" />
	</node>
	<node lat="65.62404444545696" lon="11.720580563253577" id="-15778">
		<tag k="name" v="Sørstabben" />
		<tag k="natural" v="shoal" />
		<tag k="place" v="locality" />
		<tag k="ssr:stedsnr" v="76333" />
	</node>
	<node lat="65.63699999724287" lon="12.158091676633969" id="-15780">
		<tag k="fixme" v="multiple name tags, choose one and add the other to alt_name" />
		<tag k="name" v="Toftholmen;Buholmen" />
		<tag k="place" v="islet" />
		<tag k="ssr:stedsnr" v="76338" />
	</node>
	<node lat="65.70795833242019" lon="11.840741660190975" id="-15781">
		<tag k="name" v="Purkøya" />
		<tag k="place" v="islet" />
		<tag k="ssr:stedsnr" v="76419" />
	</node>
	<node lat="65.70804444036573" lon="11.875502781156053" id="-15782">
		<tag k="name" v="Storøya" />
		<tag k="place" v="islet" />
		<tag k="ssr:stedsnr" v="76421" />
	</node>
	<node lat="65.6701777785029" lon="12.02757500965975" id="-15784">
		<tag k="name" v="Nordøya" />
		<tag k="place" v="islet" />
		<tag k="ssr:stedsnr" v="76278" />
	</node>
	<node lat="65.64016666438391" lon="12.147427786772084" id="-15786">
		<tag k="fixme" v="consider seamark:type=rock or natural=shoal" />
		<tag k="name" v="Galten" />
		<tag k="place" v="islet" />
		<tag k="ssr:stedsnr" v="76293" />
	</node>
	<node lat="65.59448610976148" lon="11.404594447821076" id="-15793">
		<tag k="alt_name" v="Kjelkfallan, austre" />
		<tag k="name" v="Austre Kjelkfallan" />
		<tag k="natural" v="shoal" />
		<tag k="place" v="locality" />
		<tag k="ssr:stedsnr" v="76575" />
	</node>
	<node lat="65.63280000017784" lon="11.595099992800987" id="-15796">
		<tag k="loc_name" v="Skarvøyn" />
		<tag k="name" v="Skarven" />
		<tag k="place" v="islet" />
		<tag k="ssr:stedsnr" v="76596" />
	</node>
	<node lat="65.72119999804264" lon="12.018738896894321" id="-15803">
		<tag k="name" v="Nilsholmen" />
		<tag k="place" v="islet" />
		<tag k="ssr:stedsnr" v="76440" />
	</node>
	<node lat="65.53546944824366" lon="11.595677781608924" id="-15810">
		<tag k="name" v="Muddværkåsa" />
		<tag k="natural" v="bay" />
		<tag k="ssr:stedsnr" v="76536" />
	</node>
	<node lat="65.78679444021857" lon="11.995322216347525" id="-15815">
		<tag k="name" v="Oksøya" />
		<tag k="place" v="island" />
		<tag k="ssr:stedsnr" v="76691" />
	</node>
	<node lat="65.70978835918352" lon="11.970535504182466" id="-15816">
		<tag k="alt_name" v="Lammøya" />
		<tag k="name" v="Lamøya" />
		<tag k="place" v="islet" />
		<tag k="ssr:stedsnr" v="76773" />
	</node>
	<node lat="65.94875833351276" lon="11.814688884848225" id="-15819">
		<tag k="alt_name" v="Søre Leikua" />
		<tag k="fixme" v="consider seamark:type=rock or natural=shoal" />
		<tag k="name" v="Leikua" />
		<tag k="place" v="islet" />
		<tag k="ssr:stedsnr" v="76921" />
	</node>
	<node lat="65.6701517090627" lon="12.109646510574866" id="-15821">
		<tag k="alt_name" v="Gjesterbergneset" />
		<tag k="name" v="Gjestabergneset" />
		<tag k="natural" v="cape" />
		<tag k="ssr:stedsnr" v="86595" />
	</node>
	<node lat="65.7722111114" lon="11.968161103881673" id="-15823">
		<tag k="fixme" v="consider seamark:type=rock or natural=shoal" />
		<tag k="name" v="Sarvnakken" />
		<tag k="place" v="islet" />
		<tag k="ssr:stedsnr" v="86762" />
	</node>
	<node lat="65.68906944290484" lon="11.44016388978815" id="-15826">
		<tag k="name" v="Søre Rasverket" />
		<tag k="natural" v="shoal" />
		<tag k="place" v="locality" />
		<tag k="ssr:stedsnr" v="92561" />
	</node>
	<node lat="65.77829444874932" lon="11.553452783186511" id="-15827">
		<tag k="name" v="Midtre Revlan" />
		<tag k="natural" v="shoal" />
		<tag k="place" v="locality" />
		<tag k="ssr:stedsnr" v="92827" />
	</node>
	<node lat="65.67704166552429" lon="12.118161120190003" id="-15836">
		<tag k="name" v="Vågen" />
		<tag k="natural" v="bay" />
		<tag k="ssr:stedsnr" v="115331" />
	</node>
	<node lat="65.68132777517138" lon="12.130161100959187" id="-15838">
		<tag k="fixme" v="consider seamark:type=rock or natural=shoal" />
		<tag k="name" v="Skjeret" />
		<tag k="place" v="islet" />
		<tag k="ssr:stedsnr" v="115355" />
	</node>
	<node lat="65.5865944448632" lon="11.882702771135373" id="-15842">
		<tag k="fixme" v="consider seamark:type=rock or natural=shoal" />
		<tag k="name" v="Båen" />
		<tag k="place" v="islet" />
		<tag k="ssr:stedsnr" v="115236" />
	</node>
	<node lat="65.92876111341025" lon="11.951050000526479" id="-15859">
		<tag k="name" v="Falkflessveet" />
		<tag k="natural" v="shoal" />
		<tag k="place" v="locality" />
		<tag k="ssr:stedsnr" v="136878" />
	</node>
	<node lat="65.83666666440857" lon="11.755438898125776" id="-15861">
		<tag k="fixme" v="consider seamark:type=rock or natural=shoal" />
		<tag k="name" v="Trollflesa" />
		<tag k="place" v="islet" />
		<tag k="ssr:stedsnr" v="136524" />
	</node>
	<node lat="65.90371110831366" lon="11.787911119354582" id="-15862">
		<tag k="name" v="Storskjærgrunnen" />
		<tag k="natural" v="shoal" />
		<tag k="place" v="locality" />
		<tag k="ssr:stedsnr" v="136631" />
	</node>
	<node lat="65.63012500237676" lon="11.316944447084515" id="-15867">
		<tag k="fixme" v="consider seamark:type=rock or natural=shoal" />
		<tag k="name" v="Leibraken" />
		<tag k="place" v="islet" />
		<tag k="ssr:stedsnr" v="136577" />
	</node>
	<node lat="65.71075277687457" lon="11.701802776952775" id="-15869">
		<tag k="fixme" v="consider seamark:type=rock or natural=shoal" />
		<tag k="name" v="Hyskåsskjæran" />
		<tag k="place" v="islet" />
		<tag k="ssr:stedsnr" v="136670" />
	</node>
	<node lat="65.70988611330075" lon="11.52875277556832" id="-15870">
		<tag k="name" v="Rumptaren" />
		<tag k="natural" v="shoal" />
		<tag k="place" v="locality" />
		<tag k="ssr:stedsnr" v="136674" />
	</node>
	<node lat="65.773933332396" lon="12.147288894773196" id="-15871">
		<tag k="name" v="Skindriven" />
		<tag k="place" v="islet" />
		<tag k="ssr:stedsnr" v="136685" />
	</node>
	<node lat="65.79518055705765" lon="12.10656389066934" id="-15873">
		<tag k="name" v="Hestholman" />
		<tag k="place" v="islet" />
		<tag k="ssr:stedsnr" v="136735" />
	</node>
	<node lat="65.81007777850499" lon="12.014097231937505" id="-15874">
		<tag k="fixme" v="consider seamark:type=rock or natural=shoal" />
		<tag k="name" v="Vesterskjæret" />
		<tag k="place" v="islet" />
		<tag k="ssr:stedsnr" v="136739" />
	</node>
	<node lat="65.69973333162365" lon="12.026188880884222" id="-15875">
		<tag k="name" v="Sørholmen" />
		<tag k="natural" v="cape" />
		<tag k="ssr:stedsnr" v="136743" />
	</node>
	<node lat="65.81787500408531" lon="11.558775002685994" id="-15880">
		<tag k="name" v="Fallryggen" />
		<tag k="natural" v="shoal" />
		<tag k="place" v="locality" />
		<tag k="ssr:stedsnr" v="136978" />
	</node>
	<node lat="65.77521667077207" lon="11.581602778360343" id="-15882">
		<tag k="name" v="Skjærvær" />
		<tag k="old_name" v="Skjervær" />
		<tag k="place" v="island" />
		<tag k="ssr:stedsnr" v="136991" />
	</node>
	<node lat="65.77772778193734" lon="11.70994443776608" id="-15883">
		<tag k="fixme" v="consider seamark:type=rock or natural=shoal" />
		<tag k="name" v="Raudbraken" />
		<tag k="place" v="islet" />
		<tag k="ssr:stedsnr" v="136992" />
	</node>
	<node lat="65.71313611124263" lon="11.965958324476686" id="-15885">
		<tag k="name" v="Lammøyporten" />
		<tag k="natural" v="strait" />
		<tag k="ssr:stedsnr" v="137416" />
	</node>
	<node lat="65.86875278018556" lon="11.823686107948872" id="-15886">
		<tag k="name" v="Lånan" />
		<tag k="place" v="island" />
		<tag k="ssr:stedsnr" v="137434" />
	</node>
	<node lat="65.66898333757267" lon="11.856866677126868" id="-15888">
		<tag k="name" v="Vega" />
		<tag k="place" v="island" />
		<tag k="ssr:stedsnr" v="137246" />
	</node>
	<node lat="65.668930551104" lon="11.797386115226466" id="-15890">
		<tag k="name" v="Sørneset" />
		<tag k="natural" v="cape" />
		<tag k="old_name" v="Sørnesset" />
		<tag k="ssr:stedsnr" v="137248" />
	</node>
	<node lat="65.87864722665137" lon="11.785425003234435" id="-15892">
		<tag k="name" v="Maritholet" />
		<tag k="natural" v="strait" />
		<tag k="ssr:stedsnr" v="137541" />
	</node>
	<node lat="65.65426388540605" lon="11.629511110119438" id="-15896">
		<tag k="fixme" v="consider seamark:type=rock or natural=shoal" />
		<tag k="name" v="Rundskjæret" />
		<tag k="place" v="islet" />
		<tag k="ssr:stedsnr" v="137581" />
	</node>
	<node lat="65.64017777921744" lon="11.563922217205572" id="-15897">
		<tag k="fixme" v="consider seamark:type=rock or natural=shoal" />
		<tag k="name" v="Kvalskjæran" />
		<tag k="place" v="islet" />
		<tag k="ssr:stedsnr" v="137599" />
	</node>
	<node lat="65.77456944160153" lon="11.963233322374816" id="-15898">
		<tag k="name" v="Steinholmen" />
		<tag k="place" v="islet" />
		<tag k="ssr:stedsnr" v="137664" />
	</node>
	<node lat="65.66041111091968" lon="11.686797217150689" id="-15905">
		<tag k="fixme" v="consider seamark:type=rock or natural=shoal" />
		<tag k="name" v="Runden" />
		<tag k="place" v="islet" />
		<tag k="ssr:stedsnr" v="152327" />
	</node>
	<node lat="65.67357222281866" lon="12.123180560300284" id="-15911">
		<tag k="name" v="Nausthågskjeran" />
		<tag k="place" v="islet" />
		<tag k="ssr:stedsnr" v="175346" />
	</node>
	<node lat="65.59333333636141" lon="11.860716677155606" id="-15916">
		<tag k="name" v="Tjønnholmen" />
		<tag k="place" v="islet" />
		<tag k="ssr:stedsnr" v="176220" />
	</node>
	<node lat="65.60330833617846" lon="11.864683341644687" id="-15917">
		<tag k="name" v="Forskoneset" />
		<tag k="natural" v="cape" />
		<tag k="ssr:stedsnr" v="176226" />
	</node>
	<node lat="65.68627499946508" lon="12.13114999140087" id="-15920">
		<tag k="name" v="Skarpvikja" />
		<tag k="natural" v="bay" />
		<tag k="ssr:stedsnr" v="176378" />
	</node>
	<node lat="65.69276388741491" lon="12.125283336947016" id="-15921">
		<tag k="name" v="Likholmvalen" />
		<tag k="natural" v="bay" />
		<tag k="ssr:stedsnr" v="176379" />
	</node>
	<node lat="65.68993888796966" lon="12.130386105310322" id="-15922">
		<tag k="fixme" v="consider seamark:type=rock or natural=shoal" />
		<tag k="name" v="Leirvikskjeret" />
		<tag k="place" v="islet" />
		<tag k="ssr:stedsnr" v="176380" />
	</node>
	<node lat="65.70352222334867" lon="12.01201388033621" id="-15923">
		<tag k="name" v="Hongsetneset" />
		<tag k="natural" v="cape" />
		<tag k="ssr:stedsnr" v="176728" />
	</node>
	<node lat="65.66982222335297" lon="12.100811109477537" id="-15928">
		<tag k="name" v="Bøvågen" />
		<tag k="natural" v="bay" />
		<tag k="ssr:stedsnr" v="188686" />
	</node>
	<node lat="65.67620000413423" lon="12.038258327751732" id="-15929">
		<tag k="name" v="Nordsjøen" />
		<tag k="natural" v="bay" />
		<tag k="ssr:stedsnr" v="188690" />
	</node>
	<node lat="65.52591110964771" lon="11.790075000939169" id="-15935">
		<tag k="name" v="Storslua" />
		<tag k="natural" v="shoal" />
		<tag k="place" v="locality" />
		<tag k="ssr:stedsnr" v="197185" />
	</node>
	<node lat="65.60584999865746" lon="11.998941672436796" id="-15941">
		<tag k="name" v="Langtaren" />
		<tag k="natural" v="shoal" />
		<tag k="place" v="locality" />
		<tag k="ssr:stedsnr" v="197393" />
	</node>
	<node lat="65.70166389015091" lon="12.07995833745021" id="-15942">
		<tag k="name" v="Steintaren" />
		<tag k="natural" v="shoal" />
		<tag k="place" v="locality" />
		<tag k="ssr:stedsnr" v="197482" />
	</node>
	<node lat="65.74219722637986" lon="12.004580550437044" id="-15948">
		<tag k="fixme" v="consider seamark:type=rock or natural=shoal" />
		<tag k="name" v="Kråkskjæret" />
		<tag k="place" v="islet" />
		<tag k="ssr:stedsnr" v="197445" />
	</node>
	<node lat="65.71079999860868" lon="12.030913894323952" id="-15949">
		<tag k="name" v="Jonsøya" />
		<tag k="place" v="islet" />
		<tag k="ssr:stedsnr" v="197454" />
	</node>
	<node lat="65.85779444015849" lon="11.941777773751431" id="-15955">
		<tag k="fixme" v="consider seamark:type=rock or natural=shoal" />
		<tag k="name" v="Bukkholmen" />
		<tag k="place" v="islet" />
		<tag k="ssr:stedsnr" v="197582" />
	</node>
	<node lat="65.6221750010629" lon="11.471894437329272" id="-15959">
		<tag k="name" v="Fallan" />
		<tag k="natural" v="shoal" />
		<tag k="place" v="locality" />
		<tag k="ssr:stedsnr" v="197614" />
	</node>
	<node lat="65.62026666457243" lon="11.376977771036785" id="-15960">
		<tag k="name" v="Sørsnoppa" />
		<tag k="place" v="islet" />
		<tag k="ssr:stedsnr" v="197626" />
	</node>
	<node lat="65.66716944757806" lon="11.392636120736277" id="-15961">
		<tag k="name" v="Granskoltan" />
		<tag k="natural" v="shoal" />
		<tag k="place" v="locality" />
		<tag k="ssr:stedsnr" v="197631" />
	</node>
	<node lat="65.63796389124592" lon="11.574355552995927" id="-15962">
		<tag k="name" v="Nakken" />
		<tag k="place" v="islet" />
		<tag k="ssr:stedsnr" v="197655" />
	</node>
	<node lat="65.79510832899301" lon="12.028711115044121" id="-15965">
		<tag k="bay" v="fjord" />
		<tag k="name" v="Edøykåsa" />
		<tag k="natural" v="bay" />
		<tag k="ssr:stedsnr" v="197734" />
	</node>
	<node lat="65.58553333649621" lon="11.401358329363337" id="-15969">
		<tag k="alt_name" v="Kjelkfallan, vestre" />
		<tag k="name" v="Vestre Kjelkfallan" />
		<tag k="natural" v="shoal" />
		<tag k="place" v="locality" />
		<tag k="ssr:stedsnr" v="197596" />
	</node>
	<node lat="65.69704444820208" lon="11.354025006954682" id="-15971">
		<tag k="name" v="Johannesskolten" />
		<tag k="natural" v="shoal" />
		<tag k="place" v="locality" />
		<tag k="ssr:stedsnr" v="197687" />
	</node>
	<node lat="65.76647500280589" lon="12.135300000539155" id="-15973">
		<tag k="name" v="Sengsdraget" />
		<tag k="place" v="islet" />
		<tag k="ssr:stedsnr" v="197701" />
	</node>
	<node lat="65.96087777560072" lon="11.892202782946313" id="-15975">
		<tag k="name" v="Nonsflesa" />
		<tag k="place" v="islet" />
		<tag k="ssr:stedsnr" v="197932" />
	</node>
	<node lat="65.80436666871735" lon="11.570341676999107" id="-15977">
		<tag k="name" v="Langtaren" />
		<tag k="natural" v="shoal" />
		<tag k="place" v="locality" />
		<tag k="ssr:stedsnr" v="197990" />
	</node>
	<node lat="65.77475278061861" lon="11.427375006802743" id="-15978">
		<tag k="name" v="Stortaren" />
		<tag k="natural" v="shoal" />
		<tag k="place" v="locality" />
		<tag k="ssr:stedsnr" v="197996" />
	</node>
	<node lat="65.71686389066882" lon="11.861544451880475" id="-15982">
		<tag k="alt_name" v="Mettøya" />
		<tag k="name" v="Metøya" />
		<tag k="place" v="islet" />
		<tag k="ssr:stedsnr" v="198393" />
	</node>
	<node lat="65.77521666744309" lon="11.742902786093577" id="-15984">
		<tag k="name" v="Bryholmen" />
		<tag k="place" v="islet" />
		<tag k="ssr:stedsnr" v="198663" />
	</node>
	<node lat="65.77201111085861" lon="12.157316669029454" id="-15988">
		<tag k="name" v="Kvigholmtaren" />
		<tag k="natural" v="shoal" />
		<tag k="place" v="locality" />
		<tag k="ssr:stedsnr" v="207782" />
	</node>
	<node lat="65.69541110838153" lon="12.126266657872943" id="-15989">
		<tag k="name" v="Silstabben" />
		<tag k="natural" v="shoal" />
		<tag k="place" v="locality" />
		<tag k="ssr:stedsnr" v="207788" />
	</node>
	<node lat="65.60113889123296" lon="11.94315833901468" id="-15991">
		<tag k="name" v="Aunholmtaren" />
		<tag k="natural" v="shoal" />
		<tag k="place" v="locality" />
		<tag k="ssr:stedsnr" v="207911" />
	</node>
	<node lat="65.591447221731" lon="11.892213880044826" id="-15992">
		<tag k="name" v="Holmsundet" />
		<tag k="natural" v="strait" />
		<tag k="ssr:stedsnr" v="213068" />
	</node>
	<node lat="65.6097888905034" lon="11.75403610261078" id="-15993">
		<tag k="name" v="Indre Hamnøya" />
		<tag k="place" v="islet" />
		<tag k="ssr:stedsnr" v="213207" />
	</node>
	<node lat="65.6027138884131" lon="11.809066673194186" id="-15996">
		<tag k="name" v="Langholmflua" />
		<tag k="natural" v="shoal" />
		<tag k="place" v="locality" />
		<tag k="ssr:stedsnr" v="213155" />
	</node>
	<node lat="65.58834166582716" lon="11.716002773415568" id="-15997">
		<tag k="fixme" v="consider seamark:type=rock or natural=shoal" />
		<tag k="name" v="Leiskjæret" />
		<tag k="place" v="islet" />
		<tag k="ssr:stedsnr" v="213159" />
	</node>
	<node lat="65.61295833746811" lon="11.393402772620819" id="-16000">
		<tag k="name" v="Broksteinen" />
		<tag k="place" v="locality" />
		<tag k="seamark:type" v="rock" />
		<tag k="ssr:stedsnr" v="273866" />
	</node>
	<node lat="65.95150278204345" lon="11.818630559624841" id="-16001">
		<tag k="fixme" v="consider seamark:type=rock or natural=shoal" />
		<tag k="name" v="Nordre Leikua" />
		<tag k="place" v="islet" />
		<tag k="ssr:stedsnr" v="275468" />
	</node>
	<node lat="65.60432221923108" lon="11.815561102813868" id="-16003">
		<tag k="name" v="Langholmen" />
		<tag k="place" v="islet" />
		<tag k="ssr:stedsnr" v="297291" />
	</node>
	<node lat="65.69323055894745" lon="12.110658340767616" id="-16004">
		<tag k="name" v="Inner-Breivikja" />
		<tag k="natural" v="bay" />
		<tag k="ssr:stedsnr" v="297396" />
	</node>
	<node lat="65.611252776686" lon="11.957030561216627" id="-16005">
		<tag k="name" v="Langstrandholmen" />
		<tag k="natural" v="bay" />
		<tag k="ssr:stedsnr" v="297201" />
	</node>
	<node lat="65.71477222550378" lon="11.86707499313817" id="-16010">
		<tag k="name" v="Langskjæret" />
		<tag k="place" v="islet" />
		<tag k="ssr:stedsnr" v="297746" />
	</node>
	<node lat="65.6959055552442" lon="11.832902772207468" id="-16011">
		<tag k="name" v="Oksholmen" />
		<tag k="place" v="islet" />
		<tag k="ssr:stedsnr" v="297756" />
	</node>
	<node lat="65.70316666222475" lon="11.968980562807648" id="-16013">
		<tag k="name" v="Gangarøya" />
		<tag k="place" v="islet" />
		<tag k="ssr:stedsnr" v="297720" />
	</node>
	<node lat="65.68365000160978" lon="12.05876387877505" id="-16016">
		<tag k="name" v="Ærholmen" />
		<tag k="place" v="islet" />
		<tag k="ssr:stedsnr" v="309647" />
	</node>
	<node lat="65.62554444048115" lon="11.499136118398761" id="-16021">
		<tag k="name" v="Langtaren" />
		<tag k="natural" v="shoal" />
		<tag k="place" v="locality" />
		<tag k="ssr:stedsnr" v="318591" />
	</node>
	<node lat="65.61615833347297" lon="11.387136106277094" id="-16023">
		<tag k="name" v="Andholmen" />
		<tag k="place" v="islet" />
		<tag k="ssr:stedsnr" v="318596" />
	</node>
	<node lat="65.61835555380168" lon="11.3837527809293" id="-16024">
		<tag k="name" v="Tilberholmen" />
		<tag k="place" v="islet" />
		<tag k="ssr:stedsnr" v="318599" />
	</node>
	<node lat="65.60239444604487" lon="12.129608342690645" id="-16030">
		<tag k="fixme" v="consider seamark:type=rock or natural=shoal" />
		<tag k="name" v="Brentaskjæret" />
		<tag k="place" v="islet" />
		<tag k="ssr:stedsnr" v="318125" />
	</node>
	<node lat="65.70984444055648" lon="11.841608330168498" id="-16033">
		<tag k="name" v="Lyngøya" />
		<tag k="place" v="islet" />
		<tag k="ssr:stedsnr" v="318412" />
	</node>
	<node lat="65.66691110754307" lon="11.754900001186499" id="-16035">
		<tag k="name" v="Oksneset" />
		<tag k="natural" v="cape" />
		<tag k="ssr:stedsnr" v="318262" />
	</node>
	<node lat="65.60406111362013" lon="11.787255554828752" id="-16039">
		<tag k="name" v="Erviktaren" />
		<tag k="natural" v="shoal" />
		<tag k="place" v="locality" />
		<tag k="ssr:stedsnr" v="318358" />
	</node>
	<node lat="65.69975555922261" lon="12.110577780298703" id="-16041">
		<tag k="name" v="Hilholmtaren" />
		<tag k="natural" v="shoal" />
		<tag k="place" v="locality" />
		<tag k="ssr:stedsnr" v="318458" />
	</node>
	<node lat="65.60710000296649" lon="11.355994454016711" id="-16045">
		<tag k="name" v="Langtaren" />
		<tag k="natural" v="shoal" />
		<tag k="place" v="locality" />
		<tag k="ssr:stedsnr" v="318556" />
	</node>
	<node lat="65.56132500327644" lon="11.893136108080455" id="-16049">
		<tag k="name" v="Kvitingen" />
		<tag k="place" v="islet" />
		<tag k="ssr:stedsnr" v="319153" />
	</node>
	<node lat="65.57185000332699" lon="12.022424999891662" id="-16051">
		<tag k="name" v="Hanstaren" />
		<tag k="natural" v="shoal" />
		<tag k="place" v="locality" />
		<tag k="ssr:stedsnr" v="319163" />
	</node>
	<node lat="65.54169444633845" lon="11.894641673772579" id="-16052">
		<tag k="name" v="Vettaren" />
		<tag k="natural" v="shoal" />
		<tag k="place" v="locality" />
		<tag k="ssr:stedsnr" v="319167" />
	</node>
	<node lat="65.54849166543552" lon="11.905883327228748" id="-16053">
		<tag k="name" v="Hanstaren" />
		<tag k="natural" v="shoal" />
		<tag k="place" v="locality" />
		<tag k="ssr:stedsnr" v="319169" />
	</node>
	<node lat="65.77089999888402" lon="11.73486110104404" id="-16055">
		<tag k="name" v="Buøya" />
		<tag k="place" v="islet" />
		<tag k="ssr:stedsnr" v="319673" />
	</node>
	<node lat="65.82524166795405" lon="11.82066111930798" id="-16056">
		<tag k="fixme" v="consider seamark:type=rock or natural=shoal" />
		<tag k="name" v="Leikuflesa" />
		<tag k="place" v="islet" />
		<tag k="ssr:stedsnr" v="318745" />
	</node>
	<node lat="65.82553333307554" lon="11.709830561948886" id="-16058">
		<tag k="name" v="Veddesøya" />
		<tag k="place" v="islet" />
		<tag k="ssr:stedsnr" v="318977" />
	</node>
	<node lat="65.79918055369812" lon="11.620402775880251" id="-16060">
		<tag k="name" v="Småholman" />
		<tag k="place" v="islet" />
		<tag k="ssr:stedsnr" v="318985" />
	</node>
	<node lat="65.66563610948654" lon="12.024174995103087" id="-16061">
		<tag k="name" v="Kallarneset" />
		<tag k="natural" v="cape" />
		<tag k="ssr:stedsnr" v="319263" />
	</node>
	<node lat="65.86003611146042" lon="11.777461104164566" id="-16066">
		<tag k="loc_name" v="Floværet" />
		<tag k="name" v="Flovær" />
		<tag k="place" v="islet" />
		<tag k="ssr:stedsnr" v="319422" />
	</node>
	<node lat="65.88440833383399" lon="11.747766666641475" id="-16073">
		<tag k="name" v="Håbølan" />
		<tag k="natural" v="shoal" />
		<tag k="place" v="locality" />
		<tag k="ssr:stedsnr" v="319572" />
	</node>
	<node lat="65.69425833222522" lon="11.483461118321218" id="-16079">
		<tag k="alt_name" v="Lovundtaren" />
		<tag k="name" v="Ytre Lovundtaren" />
		<tag k="natural" v="shoal" />
		<tag k="place" v="locality" />
		<tag k="ssr:stedsnr" v="319631" />
	</node>
	<node lat="65.69547778025135" lon="11.379805564489605" id="-16080">
		<tag k="name" v="Kristoffertaren" />
		<tag k="natural" v="shoal" />
		<tag k="place" v="locality" />
		<tag k="ssr:stedsnr" v="319634" />
	</node>
	<node lat="65.79732499910037" lon="12.090194437994038" id="-16082">
		<tag k="name" v="Ørnholmen" />
		<tag k="place" v="islet" />
		<tag k="ssr:stedsnr" v="319712" />
	</node>
	<node lat="65.9442194421039" lon="11.884752771526442" id="-16085">
		<tag k="name" v="Petarskolten" />
		<tag k="natural" v="shoal" />
		<tag k="place" v="locality" />
		<tag k="ssr:stedsnr" v="319945" />
	</node>
	<node lat="65.95982777419647" lon="11.902630544896713" id="-16088">
		<tag k="fixme" v="consider seamark:type=rock or natural=shoal" />
		<tag k="name" v="Skarvnakken" />
		<tag k="place" v="islet" />
		<tag k="ssr:stedsnr" v="319930" />
	</node>
	<node lat="65.95810277700097" lon="11.895544447632984" id="-16089">
		<tag k="name" v="Middagsflesa" />
		<tag k="place" v="islet" />
		<tag k="ssr:stedsnr" v="319932" />
	</node>
	<node lat="65.52492917274996" lon="11.612156746174822" id="-16092">
		<tag k="fixme" v="consider seamark:type=rock or natural=shoal" />
		<tag k="name" v="Gåsflesan" />
		<tag k="place" v="islet" />
		<tag k="ssr:stedsnr" v="328581" />
	</node>
	<node lat="65.69430000305643" lon="12.183066667803145" id="-16094">
		<tag k="name" v="Stortaren" />
		<tag k="natural" v="shoal" />
		<tag k="place" v="locality" />
		<tag k="ssr:stedsnr" v="328785" />
	</node>
	<node lat="65.64191388963619" lon="12.032830545451485" id="-16095">
		<tag k="name" v="Leikuflaket" />
		<tag k="natural" v="shoal" />
		<tag k="place" v="locality" />
		<tag k="ssr:stedsnr" v="329971" />
	</node>
	<node lat="65.68373055914964" lon="11.732036110196342" id="-16097">
		<tag k="fixme" v="consider seamark:type=rock or natural=shoal" />
		<tag k="name" v="Kråka" />
		<tag k="place" v="islet" />
		<tag k="ssr:stedsnr" v="334340" />
	</node>
	<node lat="65.7422583366449" lon="11.517761121212091" id="-16098">
		<tag k="name" v="Nordre Langtaren" />
		<tag k="natural" v="shoal" />
		<tag k="place" v="locality" />
		<tag k="ssr:stedsnr" v="334523" />
	</node>
	<node lat="65.63900278080384" lon="11.519022211979193" id="-16099">
		<tag k="name" v="Søre Slagsbåslua" />
		<tag k="natural" v="shoal" />
		<tag k="place" v="locality" />
		<tag k="ssr:stedsnr" v="334875" />
	</node>
	<node lat="65.67572221917983" lon="12.123024994092875" id="-16106">
		<tag k="name" v="Naustvikja" />
		<tag k="natural" v="bay" />
		<tag k="ssr:stedsnr" v="357331" />
	</node>
	<node lat="65.71055555346351" lon="11.877991658707462" id="-16112">
		<tag k="name" v="Hjartøyskjæran" />
		<tag k="place" v="islet" />
		<tag k="ssr:stedsnr" v="357741" />
	</node>
	<node lat="65.71023333300676" lon="11.87317222314904" id="-16113">
		<tag k="name" v="Bergskjæret" />
		<tag k="place" v="islet" />
		<tag k="ssr:stedsnr" v="357743" />
	</node>
	<node lat="65.61163333641223" lon="11.838058343412914" id="-16122">
		<tag k="name" v="Breivika" />
		<tag k="natural" v="beach" />
		<tag k="ssr:stedsnr" v="358139" />
	</node>
	<node lat="65.65154722446621" lon="12.007916666618252" id="-16125">
		<tag k="name" v="Storvalen" />
		<tag k="natural" v="bay" />
		<tag k="ssr:stedsnr" v="358534" />
	</node>
	<node lat="65.67870555196339" lon="11.983302785895926" id="-16126">
		<tag k="name" v="Mølnhusneset" />
		<tag k="natural" v="cape" />
		<tag k="ssr:stedsnr" v="358537" />
	</node>
	<node lat="65.71033611200004" lon="11.912677775537404" id="-16129">
		<tag k="name" v="Rorsundet" />
		<tag k="natural" v="strait" />
		<tag k="ssr:stedsnr" v="358889" />
	</node>
	<node lat="65.71839166503516" lon="11.901288896339189" id="-16130">
		<tag k="name" v="Sæingsdraget" />
		<tag k="natural" v="cape" />
		<tag k="ssr:stedsnr" v="358894" />
	</node>
	<node lat="65.68470555826018" lon="11.641963882858033" id="-16136">
		<tag k="fixme" v="consider seamark:type=rock or natural=shoal" />
		<tag k="name" v="Innerskjæret" />
		<tag k="place" v="islet" />
		<tag k="ssr:stedsnr" v="379636" />
	</node>
	<node lat="65.64866388759135" lon="12.085913888742482" id="-16142">
		<tag k="name" v="Medtaren" />
		<tag k="natural" v="shoal" />
		<tag k="place" v="locality" />
		<tag k="ssr:stedsnr" v="379291" />
	</node>
	<node lat="65.85781944780594" lon="11.96094721388793" id="-16153">
		<tag k="name" v="Sørvær" />
		<tag k="place" v="island" />
		<tag k="ssr:stedsnr" v="379427" />
	</node>
	<node lat="65.7360444443151" lon="11.752119444006242" id="-16156">
		<tag k="name" v="Pålhammet" />
		<tag k="place" v="islet" />
		<tag k="ssr:stedsnr" v="379390" />
	</node>
	<node lat="65.71011666745684" lon="12.002555559351054" id="-16157">
		<tag k="name" v="Reiarsholmen" />
		<tag k="place" v="islet" />
		<tag k="ssr:stedsnr" v="379396" />
	</node>
	<node lat="65.84709444380128" lon="11.782530553191028" id="-16160">
		<tag k="name" v="Kråkøya" />
		<tag k="place" v="islet" />
		<tag k="ssr:stedsnr" v="379492" />
	</node>
	<node lat="65.88367777383655" lon="11.83773054826015" id="-16162">
		<tag k="fixme" v="consider seamark:type=rock or natural=shoal" />
		<tag k="name" v="Hegla" />
		<tag k="place" v="islet" />
		<tag k="ssr:stedsnr" v="379571" />
	</node>
	<node lat="65.90919721861655" lon="11.826427774234608" id="-16165">
		<tag k="name" v="Øvskallen" />
		<tag k="natural" v="shoal" />
		<tag k="place" v="locality" />
		<tag k="ssr:stedsnr" v="379598" />
	</node>
	<node lat="65.67670555366982" lon="11.999419454809285" id="-16167">
		<tag k="alt_name" v="Kolstadsjyen" />
		<tag k="name" v="Kolstadsjøen" />
		<tag k="natural" v="bay" />
		<tag k="ssr:stedsnr" v="379448" />
	</node>
	<node lat="65.68130832950577" lon="12.05871943368631" id="-16168">
		<tag k="name" v="Værholmen" />
		<tag k="place" v="islet" />
		<tag k="ssr:stedsnr" v="379455" />
	</node>
	<node lat="65.60886111033167" lon="11.3583444512183" id="-16170">
		<tag k="name" v="Steinbitslua" />
		<tag k="natural" v="shoal" />
		<tag k="place" v="locality" />
		<tag k="ssr:stedsnr" v="379532" />
	</node>
	<node lat="65.86521666803992" lon="11.926502780688612" id="-16173">
		<tag k="fixme" v="consider seamark:type=rock or natural=shoal" />
		<tag k="name" v="Tåa" />
		<tag k="place" v="islet" />
		<tag k="ssr:stedsnr" v="379542" />
	</node>
	<node lat="65.62824444333053" lon="11.610249989326134" id="-16174">
		<tag k="fixme" v="consider seamark:type=rock or natural=shoal" />
		<tag k="loc_name" v="Singskjæret" />
		<tag k="name" v="Sengskjæret" />
		<tag k="place" v="islet" />
		<tag k="ssr:stedsnr" v="379560" />
	</node>
	<node lat="65.77676389062073" lon="11.454969450340501" id="-16177">
		<tag k="alt_name" v="Skjerværgrunnan" />
		<tag k="name" v="Skjærværgrunnan" />
		<tag k="natural" v="shoal" />
		<tag k="place" v="locality" />
		<tag k="ssr:stedsnr" v="379993" />
	</node>
	<node lat="65.7830000010292" lon="11.673900003890264" id="-16178">
		<tag k="name" v="Rasmusslua" />
		<tag k="natural" v="shoal" />
		<tag k="place" v="locality" />
		<tag k="ssr:stedsnr" v="379994" />
	</node>
	<node lat="65.76560278040505" lon="11.571833327076098" id="-16179">
		<tag k="fixme" v="consider seamark:type=rock or natural=shoal" />
		<tag k="name" v="Slynga" />
		<tag k="place" v="islet" />
		<tag k="ssr:stedsnr" v="379996" />
	</node>
	<node lat="65.76940277415514" lon="11.701638895057858" id="-16180">
		<tag k="name" v="Andholmen" />
		<tag k="place" v="islet" />
		<tag k="ssr:stedsnr" v="379997" />
	</node>
	<node lat="65.75584166581343" lon="11.710002781245386" id="-16182">
		<tag k="name" v="Gangarøya" />
		<tag k="place" v="islet" />
		<tag k="ssr:stedsnr" v="379935" />
	</node>
	<node lat="65.64523888785168" lon="12.185155545811911" id="-16186">
		<tag k="name" v="Roknesflua" />
		<tag k="natural" v="shoal" />
		<tag k="place" v="locality" />
		<tag k="ssr:stedsnr" v="389786" />
	</node>
	<node lat="65.79227499776817" lon="12.022216674030586" id="-16188">
		<tag k="name" v="Stortaren" />
		<tag k="natural" v="shoal" />
		<tag k="place" v="locality" />
		<tag k="ssr:stedsnr" v="389941" />
	</node>
	<node lat="65.5910361097039" lon="11.732541675853177" id="-16190">
		<tag k="name" v="Søre Hyskåstaren" />
		<tag k="natural" v="shoal" />
		<tag k="place" v="locality" />
		<tag k="ssr:stedsnr" v="394129" />
	</node>
	<node lat="65.9625500017711" lon="12.027344443278466" id="-16191">
		<tag k="name" v="Petaren" />
		<tag k="natural" v="shoal" />
		<tag k="place" v="locality" />
		<tag k="ssr:stedsnr" v="394278" />
	</node>
	<node lat="65.57783332970985" lon="11.631049989976514" id="-16192">
		<tag k="name" v="Grunnoddtaran" />
		<tag k="natural" v="shoal" />
		<tag k="place" v="locality" />
		<tag k="ssr:stedsnr" v="395895" />
	</node>
	<node lat="65.77145833313755" lon="11.575130553336178" id="-16193">
		<tag k="name" v="Skjærværet" />
		<tag k="place" v="island" />
		<tag k="ssr:stedsnr" v="395861" />
	</node>
	<node lat="65.60052222072954" lon="11.890444441216397" id="-16207">
		<tag k="name" v="Mevika" />
		<tag k="natural" v="bay" />
		<tag k="ssr:stedsnr" v="419228" />
	</node>
	<node lat="65.63767500006448" lon="12.152108328009271" id="-16213">
		<tag k="name" v="Rorsundet" />
		<tag k="natural" v="strait" />
		<tag k="ssr:stedsnr" v="421237" />
	</node>
	<node lat="65.51995833723116" lon="11.858505548122896" id="-16227">
		<tag k="name" v="Langtaren" />
		<tag k="natural" v="shoal" />
		<tag k="place" v="locality" />
		<tag k="ssr:stedsnr" v="440231" />
	</node>
	<node lat="65.71105000430039" lon="12.062191656614358" id="-16230">
		<tag k="name" v="Klungholmen" />
		<tag k="place" v="islet" />
		<tag k="ssr:stedsnr" v="440428" />
	</node>
	<node lat="65.70391944782853" lon="12.06293888403178" id="-16231">
		<tag k="name" v="Steingrunnen" />
		<tag k="natural" v="shoal" />
		<tag k="place" v="locality" />
		<tag k="ssr:stedsnr" v="440433" />
	</node>
	<node lat="65.55360000319988" lon="11.707350000487686" id="-16233">
		<tag k="fixme" v="consider seamark:type=rock or natural=shoal" />
		<tag k="name" v="Kjerven" />
		<tag k="place" v="islet" />
		<tag k="ssr:stedsnr" v="440523" />
	</node>
	<node lat="65.60651110748259" lon="11.710994441079885" id="-16236">
		<tag k="fixme" v="consider seamark:type=rock or natural=shoal" />
		<tag k="name" v="Skreiskjæret" />
		<tag k="place" v="islet" />
		<tag k="ssr:stedsnr" v="440535" />
	</node>
	<node lat="65.65463611125145" lon="11.613991667744665" id="-16237">
		<tag k="fixme" v="consider seamark:type=rock or natural=shoal" />
		<tag k="name" v="Runden" />
		<tag k="place" v="islet" />
		<tag k="ssr:stedsnr" v="440594" />
	</node>
	<node lat="65.74886944706505" lon="11.669533329225402" id="-16238">
		<tag k="name" v="Kilholmen" />
		<tag k="place" v="islet" />
		<tag k="ssr:stedsnr" v="440618" />
	</node>
	<node lat="65.81841666795266" lon="12.034302774541649" id="-16240">
		<tag k="name" v="Skogsholmen" />
		<tag k="place" v="island" />
		<tag k="ssr:stedsnr" v="440717" />
	</node>
	<node lat="65.65580278080796" lon="12.178708342634488" id="-16245">
		<tag k="alt_name" v="Innergrytholmen;Grytholmen, in" />
		<tag k="name" v="Indre Grytholmen" />
		<tag k="place" v="islet" />
		<tag k="ssr:stedsnr" v="440371" />
	</node>
	<node lat="65.61216389101142" lon="11.73491388658747" id="-16246">
		<tag k="alt_name" v="Lamøya" />
		<tag k="name" v="Lansholmen" />
		<tag k="place" v="islet" />
		<tag k="ssr:stedsnr" v="440382" />
	</node>
	<node lat="65.62593888999517" lon="11.683163897953987" id="-16254">
		<tag k="name" v="Grytsteinen" />
		<tag k="natural" v="shoal" />
		<tag k="place" v="locality" />
		<tag k="ssr:stedsnr" v="440568" />
	</node>
	<node lat="65.6235083367984" lon="11.380944442684154" id="-16256">
		<tag k="name" v="Storkleppen" />
		<tag k="place" v="islet" />
		<tag k="ssr:stedsnr" v="440573" />
	</node>
	<node lat="65.9342499973071" lon="11.8346472147797" id="-16262">
		<tag k="fixme" v="consider seamark:type=rock or natural=shoal" />
		<tag k="name" v="Rundpallen" />
		<tag k="place" v="islet" />
		<tag k="ssr:stedsnr" v="440868" />
	</node>
	<node lat="65.78888333340807" lon="11.612466658867193" id="-16266">
		<tag k="fixme" v="consider seamark:type=rock or natural=shoal" />
		<tag k="name" v="Seiskjæret" />
		<tag k="place" v="islet" />
		<tag k="ssr:stedsnr" v="440985" />
	</node>
	<node lat="65.69032222236417" lon="12.177224992481223" id="-16267">
		<tag k="name" v="Sotgrunntaren" />
		<tag k="natural" v="shoal" />
		<tag k="place" v="locality" />
		<tag k="ssr:stedsnr" v="510828" />
	</node>
	<node lat="65.60718333156166" lon="11.836519450421893" id="-16268">
		<tag k="name" v="Brennholmen" />
		<tag k="place" v="islet" />
		<tag k="ssr:stedsnr" v="500419" />
	</node>
	<node lat="65.85907778201516" lon="11.90328056361788" id="-16269">
		<tag k="fixme" v="consider seamark:type=rock or natural=shoal" />
		<tag k="name" v="Vesterskjæret" />
		<tag k="place" v="islet" />
		<tag k="ssr:stedsnr" v="500619" />
	</node>
	<node lat="65.60474722604873" lon="12.127416676297972" id="-16270">
		<tag k="fixme" v="multiple name tags, choose one and add the other to alt_name" />
		<tag k="name" v="Strandvikholmen;Strandvikskjæret" />
		<tag k="place" v="islet" />
		<tag k="ssr:stedsnr" v="500149" />
	</node>
	<node lat="65.74073332929143" lon="11.782483329464958" id="-16275">
		<tag k="fixme" v="consider seamark:type=rock or natural=shoal" />
		<tag k="name" v="Æskjæret" />
		<tag k="place" v="islet" />
		<tag k="ssr:stedsnr" v="500450" />
	</node>
	<node lat="65.73581666770878" lon="12.098483329480642" id="-16278">
		<tag k="name" v="Kvalholmen" />
		<tag k="place" v="island" />
		<tag k="ssr:stedsnr" v="500469" />
	</node>
	<node lat="65.61397777385098" lon="11.814886112339952" id="-16279">
		<tag k="alt_name" v="Levikja" />
		<tag k="name" v="Levika" />
		<tag k="natural" v="bay" />
		<tag k="ssr:stedsnr" v="501355" />
	</node>
	<node lat="65.63795833496683" lon="11.256825003426233" id="-16282">
		<tag k="name" v="Oksknausen" />
		<tag k="natural" v="shoal" />
		<tag k="place" v="locality" />
		<tag k="ssr:stedsnr" v="500638" />
	</node>
	<node lat="65.63231388825609" lon="11.59676943615166" id="-16283">
		<tag k="loc_name" v="Kaggøyn" />
		<tag k="name" v="Kakøya" />
		<tag k="place" v="islet" />
		<tag k="ssr:stedsnr" v="500646" />
	</node>
	<node lat="65.77893055672106" lon="11.649999992643473" id="-16284">
		<tag k="fixme" v="consider seamark:type=rock or natural=shoal" />
		<tag k="name" v="Vallumarskjæran" />
		<tag k="place" v="islet" />
		<tag k="ssr:stedsnr" v="500991" />
	</node>
	<node lat="65.77540000201944" lon="11.572658323896635" id="-16285">
		<tag k="name" v="Kleppan" />
		<tag k="place" v="islet" />
		<tag k="ssr:stedsnr" v="500994" />
	</node>
	<node lat="65.56612777676143" lon="11.880424996274018" id="-16287">
		<tag k="name" v="Vintertaren" />
		<tag k="natural" v="shoal" />
		<tag k="place" v="locality" />
		<tag k="ssr:stedsnr" v="501151" />
	</node>
	<node lat="65.67636666994322" lon="11.798452771158907" id="-16289">
		<tag k="fixme" v="consider seamark:type=rock or natural=shoal" />
		<tag k="name" v="Einarskjæret" />
		<tag k="place" v="islet" />
		<tag k="ssr:stedsnr" v="501268" />
	</node>
	<node lat="65.68103333532558" lon="11.809933328351852" id="-16292">
		<tag k="name" v="Storneset" />
		<tag k="natural" v="cape" />
		<tag k="old_name" v="Stornesset" />
		<tag k="ssr:stedsnr" v="501472" />
	</node>
	<node lat="65.77553610739825" lon="11.758172215843985" id="-16299">
		<tag k="name" v="Lomsøya" />
		<tag k="place" v="islet" />
		<tag k="ssr:stedsnr" v="501656" />
	</node>
	<node lat="65.76564999597811" lon="11.906877785757217" id="-16300">
		<tag k="name" v="Skjæritaren" />
		<tag k="natural" v="shoal" />
		<tag k="place" v="locality" />
		<tag k="ssr:stedsnr" v="501659" />
	</node>
	<node lat="65.78607222440782" lon="12.001930548969032" id="-16301">
		<tag k="name" v="Kolbeinøya" />
		<tag k="place" v="islet" />
		<tag k="ssr:stedsnr" v="501662" />
	</node>
	<node lat="65.69220555227801" lon="11.570077769245827" id="-16306">
		<tag k="name" v="Litle Olbåen" />
		<tag k="natural" v="shoal" />
		<tag k="place" v="locality" />
		<tag k="ssr:stedsnr" v="516721" />
	</node>
	<node lat="65.67296388975103" lon="11.562227788615498" id="-16307">
		<tag k="name" v="Indre Tørrbåen" />
		<tag k="natural" v="shoal" />
		<tag k="place" v="locality" />
		<tag k="ssr:stedsnr" v="516726" />
	</node>
	<node lat="65.67647777716859" lon="11.547550004950928" id="-16308">
		<tag k="name" v="Ivarsbraken" />
		<tag k="place" v="islet" />
		<tag k="ssr:stedsnr" v="516729" />
	</node>
	<node lat="65.85783333061673" lon="11.98115277281622" id="-16309">
		<tag k="name" v="Basken" />
		<tag k="natural" v="shoal" />
		<tag k="place" v="locality" />
		<tag k="ssr:stedsnr" v="516368" />
	</node>
	<node lat="65.69260555796613" lon="12.113513879316898" id="-16315">
		<tag k="name" v="Ytter-Båtstøa" />
		<tag k="natural" v="bay" />
		<tag k="ssr:stedsnr" v="540383" />
	</node>
	<node lat="65.66330277519285" lon="12.17703334246409" id="-16319">
		<tag k="name" v="Lyngøya" />
		<tag k="place" v="islet" />
		<tag k="ssr:stedsnr" v="539276" />
	</node>
	<node lat="65.7080222244465" lon="11.878688886253018" id="-16322">
		<tag k="name" v="Oterholmen" />
		<tag k="place" v="islet" />
		<tag k="ssr:stedsnr" v="539737" />
	</node>
	<node lat="65.68298611464469" lon="12.080116669392098" id="-16325">
		<tag k="name" v="Indre-Einesvika" />
		<tag k="natural" v="bay" />
		<tag k="ssr:stedsnr" v="540628" />
	</node>
	<node lat="65.62653611017905" lon="12.136980553873084" id="-16329">
		<tag k="name" v="Storstrandvikja" />
		<tag k="natural" v="bay" />
		<tag k="ssr:stedsnr" v="542692" />
	</node>
	<node lat="65.63520278038993" lon="12.145111116915652" id="-16333">
		<tag k="fixme" v="consider seamark:type=rock or natural=shoal" />
		<tag k="name" v="Joskjeran" />
		<tag k="place" v="islet" />
		<tag k="ssr:stedsnr" v="542257" />
	</node>
	<node lat="65.64381666677988" lon="12.037244447384548" id="-16345">
		<tag k="fixme" v="consider seamark:type=rock or natural=shoal" />
		<tag k="name" v="Leikua" />
		<tag k="place" v="islet" />
		<tag k="ssr:stedsnr" v="561299" />
	</node>
	<node lat="65.65806944759137" lon="12.161550004539698" id="-16351">
		<tag k="name" v="Sundtaren" />
		<tag k="natural" v="shoal" />
		<tag k="place" v="locality" />
		<tag k="ssr:stedsnr" v="561329" />
	</node>
	<node lat="65.62313332957984" lon="12.132825004718207" id="-16353">
		<tag k="alt_name" v="Rotvikan" />
		<tag k="name" v="Rotvikran" />
		<tag k="natural" v="bay" />
		<tag k="ssr:stedsnr" v="561333" />
	</node>
	<node lat="65.71470000333542" lon="11.916958342165698" id="-16361">
		<tag k="fixme" v="consider seamark:type=rock or natural=shoal" />
		<tag k="name" v="Hatten" />
		<tag k="place" v="islet" />
		<tag k="ssr:stedsnr" v="561432" />
	</node>
	<node lat="65.69372500092047" lon="12.080061108957024" id="-16362">
		<tag k="fixme" v="consider seamark:type=rock or natural=shoal" />
		<tag k="name" v="Hatten" />
		<tag k="place" v="islet" />
		<tag k="ssr:stedsnr" v="561439" />
	</node>
	<node lat="65.65740555772204" lon="12.06810832434974" id="-16365">
		<tag k="name" v="Breivika" />
		<tag k="natural" v="bay" />
		<tag k="ssr:stedsnr" v="561326" />
	</node>
	<node lat="65.71062777498344" lon="11.849863887234532" id="-16372">
		<tag k="name" v="Stakkholmen" />
		<tag k="place" v="islet" />
		<tag k="ssr:stedsnr" v="561404" />
	</node>
	<node lat="65.57941944664412" lon="11.682880560211235" id="-16377">
		<tag k="alt_name" v="Leikua, nordre" />
		<tag k="name" v="Nordleikua" />
		<tag k="place" v="islet" />
		<tag k="ssr:stedsnr" v="561506" />
	</node>
	<node lat="65.83901389004879" lon="11.722516671161713" id="-16378">
		<tag k="fixme" v="consider seamark:type=rock or natural=shoal" />
		<tag k="name" v="Seglan" />
		<tag k="place" v="islet" />
		<tag k="ssr:stedsnr" v="561510" />
	</node>
	<node lat="65.60910555295986" lon="11.272886117051373" id="-16383">
		<tag k="alt_name" v="Tynnbottaren" />
		<tag k="name" v="Tynnbotntaren" />
		<tag k="natural" v="shoal" />
		<tag k="place" v="locality" />
		<tag k="ssr:stedsnr" v="561534" />
	</node>
	<node lat="65.60821666921622" lon="11.48906943744454" id="-16384">
		<tag k="name" v="Trollkonsluan" />
		<tag k="natural" v="shoal" />
		<tag k="place" v="locality" />
		<tag k="ssr:stedsnr" v="561537" />
	</node>
	<node lat="65.60046666424033" lon="11.702524992079274" id="-16386">
		<tag k="fixme" v="consider seamark:type=rock or natural=shoal" />
		<tag k="name" v="Flatskjæret" />
		<tag k="place" v="islet" />
		<tag k="ssr:stedsnr" v="561551" />
	</node>
	<node lat="65.86974722530988" lon="11.91784999632172" id="-16387">
		<tag k="fixme" v="consider seamark:type=rock or natural=shoal" />
		<tag k="name" v="Leiskjæran" />
		<tag k="place" v="islet" />
		<tag k="ssr:stedsnr" v="561552" />
	</node>
	<node lat="65.5930416665745" lon="11.30094999114851" id="-16389">
		<tag k="name" v="Steinan" />
		<tag k="place" v="island" />
		<tag k="ssr:stedsnr" v="561561" />
	</node>
	<node lat="65.63293611521577" lon="11.60339445457063" id="-16392">
		<tag k="name" v="Kråkkeipen" />
		<tag k="place" v="islet" />
		<tag k="ssr:stedsnr" v="561572" />
	</node>
	<node lat="65.74273333612472" lon="11.714586101361949" id="-16395">
		<tag k="name" v="Skarvøya" />
		<tag k="place" v="islet" />
		<tag k="ssr:stedsnr" v="561641" />
	</node>
	<node lat="65.65191944066954" lon="11.620725002669946" id="-16400">
		<tag k="fixme" v="consider seamark:type=rock or natural=shoal" />
		<tag k="name" v="Slåttskjæran" />
		<tag k="place" v="islet" />
		<tag k="ssr:stedsnr" v="561624" />
	</node>
	<node lat="65.95765000440355" lon="12.045380561047072" id="-16404">
		<tag k="name" v="Linflesa" />
		<tag k="place" v="islet" />
		<tag k="ssr:stedsnr" v="561901" />
	</node>
	<node lat="65.79221666328347" lon="11.448566664638872" id="-16407">
		<tag k="name" v="Bodilgrunna" />
		<tag k="natural" v="shoal" />
		<tag k="place" v="locality" />
		<tag k="ssr:stedsnr" v="561987" />
	</node>
	<node lat="65.76067499986992" lon="11.551530553968034" id="-16409">
		<tag k="name" v="Grunntaren" />
		<tag k="natural" v="shoal" />
		<tag k="place" v="locality" />
		<tag k="ssr:stedsnr" v="561931" />
	</node>
	<node lat="65.7523361112868" lon="11.717980564452892" id="-16410">
		<tag k="name" v="Tvillingøya" />
		<tag k="place" v="islet" />
		<tag k="ssr:stedsnr" v="561934" />
	</node>
	<node lat="65.5851694413262" lon="11.907208343030165" id="-16414">
		<tag k="name" v="Rotnestaren" />
		<tag k="natural" v="shoal" />
		<tag k="place" v="locality" />
		<tag k="ssr:stedsnr" v="570967" />
	</node>
	<node lat="65.55376388716434" lon="11.659241658008916" id="-16417">
		<tag k="name" v="Vestre Seiskjærslua" />
		<tag k="natural" v="shoal" />
		<tag k="place" v="locality" />
		<tag k="ssr:stedsnr" v="576177" />
	</node>
	<node lat="65.59637221967418" lon="11.773541672576162" id="-16418">
		<tag k="name" v="Sølagrunna" />
		<tag k="natural" v="shoal" />
		<tag k="place" v="locality" />
		<tag k="ssr:stedsnr" v="576127" />
	</node>
	<node lat="65.59516666915306" lon="11.733452769246822" id="-16419">
		<tag k="name" v="Nordre Hyskåstaren" />
		<tag k="natural" v="shoal" />
		<tag k="place" v="locality" />
		<tag k="ssr:stedsnr" v="576140" />
	</node>
	<node lat="65.6786444406944" lon="11.80604723094941" id="-16423">
		<tag k="fixme" v="consider seamark:type=rock or natural=shoal" />
		<tag k="name" v="Subiskjær" />
		<tag k="place" v="islet" />
		<tag k="ssr:stedsnr" v="600213" />
	</node>
	<node lat="65.61909999888177" lon="11.755180565839323" id="-16429">
		<tag k="name" v="Kuvikja" />
		<tag k="natural" v="beach" />
		<tag k="ssr:stedsnr" v="600289" />
	</node>
	<node lat="65.71513055465275" lon="11.85594444820726" id="-16438">
		<tag k="name" v="Langøya" />
		<tag k="place" v="islet" />
		<tag k="ssr:stedsnr" v="600732" />
	</node>
	<node lat="65.72584166628766" lon="11.880355546340041" id="-16439">
		<tag k="name" v="Hattmannskjæret" />
		<tag k="place" v="islet" />
		<tag k="ssr:stedsnr" v="600735" />
	</node>
	<node lat="65.56743332924587" lon="11.632425008846532" id="-16449">
		<tag k="name" v="Svarttaren" />
		<tag k="natural" v="shoal" />
		<tag k="place" v="locality" />
		<tag k="ssr:stedsnr" v="622507" />
	</node>
	<node lat="65.70459166688896" lon="11.866749997311771" id="-16452">
		<tag k="name" v="Viksåssjøen" />
		<tag k="natural" v="bay" />
		<tag k="ssr:stedsnr" v="621432" />
	</node>
	<node lat="65.70158055135362" lon="12.016688894374335" id="-16453">
		<tag k="name" v="Hongsetsundet" />
		<tag k="natural" v="strait" />
		<tag k="ssr:stedsnr" v="621440" />
	</node>
	<node lat="65.70617221963674" lon="12.092513880383008" id="-16454">
		<tag k="alt_name" v="Ytre-Hindholmen;Hilholmen, yt" />
		<tag k="name" v="Ytre Hilholmen" />
		<tag k="place" v="islet" />
		<tag k="ssr:stedsnr" v="621444" />
	</node>
	<node lat="65.71006944230398" lon="11.906722217670401" id="-16455">
		<tag k="name" v="Storbuholmen" />
		<tag k="place" v="islet" />
		<tag k="ssr:stedsnr" v="621448" />
	</node>
	<node lat="65.65525049049172" lon="11.629663785787589" id="-16460">
		<tag k="name" v="Slibraken" />
		<tag k="place" v="island" />
		<tag k="ssr:stedsnr" v="622592" />
	</node>
	<node lat="65.6564305527828" lon="11.372741666883744" id="-16461">
		<tag k="alt_name" v="Vestre Galttaren" />
		<tag k="name" v="Galttaren" />
		<tag k="natural" v="shoal" />
		<tag k="place" v="locality" />
		<tag k="ssr:stedsnr" v="622595" />
	</node>
	<node lat="65.65271111172162" lon="11.577800001876037" id="-16462">
		<tag k="name" v="Storslua" />
		<tag k="natural" v="shoal" />
		<tag k="place" v="locality" />
		<tag k="ssr:stedsnr" v="622597" />
	</node>
	<node lat="65.64617499814936" lon="11.28252499548791" id="-16463">
		<tag k="fixme" v="consider seamark:type=rock or natural=shoal" />
		<tag k="name" v="Svingla" />
		<tag k="place" v="islet" />
		<tag k="ssr:stedsnr" v="622601" />
	</node>
	<node lat="65.75722500013028" lon="11.906455549940421" id="-16472">
		<tag k="name" v="Stortaren" />
		<tag k="natural" v="shoal" />
		<tag k="place" v="locality" />
		<tag k="ssr:stedsnr" v="621699" />
	</node>
	<node lat="65.83508055190019" lon="12.131763882604384" id="-16473">
		<tag k="name" v="Omnøydragan" />
		<tag k="place" v="islet" />
		<tag k="ssr:stedsnr" v="621552" />
	</node>
	<node lat="65.83193610923543" lon="11.817036120813528" id="-16474">
		<tag k="name" v="Leikua" />
		<tag k="place" v="islet" />
		<tag k="ssr:stedsnr" v="621556" />
	</node>
	<node lat="65.83700832979366" lon="11.94454722062813" id="-16475">
		<tag k="alt_name" v="Sandværgrunnen" />
		<tag k="name" v="Sandværgrunna" />
		<tag k="natural" v="shoal" />
		<tag k="place" v="locality" />
		<tag k="ssr:stedsnr" v="621565" />
	</node>
	<node lat="65.59441389136634" lon="12.12632499553151" id="-16477">
		<tag k="name" v="Sørodden" />
		<tag k="natural" v="cape" />
		<tag k="ssr:stedsnr" v="622130" />
	</node>
	<node lat="65.5894611112193" lon="11.608463879597632" id="-16495">
		<tag k="alt_name" v="Vågøya, l" />
		<tag k="loc_name" v="Liss-Vågøyn" />
		<tag k="name" v="Litle Vågøya" />
		<tag k="place" v="islet" />
		<tag k="ssr:stedsnr" v="622544" />
	</node>
	<node lat="65.58668333361047" lon="11.57852500028645" id="-16497">
		<tag k="fixme" v="consider seamark:type=rock or natural=shoal" />
		<tag k="loc_name" v="Spanna" />
		<tag k="name" v="Spannan" />
		<tag k="place" v="islet" />
		<tag k="ssr:stedsnr" v="622547" />
	</node>
	<node lat="65.87659722092926" lon="11.830230561443813" id="-16499">
		<tag k="name" v="Kåløya" />
		<tag k="place" v="islet" />
		<tag k="ssr:stedsnr" v="622555" />
	</node>
	<node lat="65.87952777778767" lon="11.814358330965462" id="-16500">
		<tag k="name" v="Lånan" />
		<tag k="place" v="island" />
		<tag k="ssr:stedsnr" v="622556" />
	</node>
	<node lat="65.68193333226742" lon="11.705208332553521" id="-16502">
		<tag k="name" v="Sulingen" />
		<tag k="place" v="islet" />
		<tag k="ssr:stedsnr" v="622639" />
	</node>
	<node lat="65.77626944775615" lon="11.657724991246011" id="-16508">
		<tag k="fixme" v="consider seamark:type=rock or natural=shoal" />
		<tag k="name" v="Kvalskjæret" />
		<tag k="place" v="islet" />
		<tag k="ssr:stedsnr" v="622998" />
	</node>
	<node lat="65.8074194477109" lon="11.993649990933303" id="-16509">
		<tag k="name" v="Bolholmen" />
		<tag k="place" v="islet" />
		<tag k="ssr:stedsnr" v="622728" />
	</node>
	<node lat="65.85278889304672" lon="11.90263056173117" id="-16515">
		<tag k="name" v="Gåsholmen" />
		<tag k="place" v="islet" />
		<tag k="ssr:stedsnr" v="637417" />
	</node>
	<node lat="65.79564166544513" lon="11.594563894565136" id="-16517">
		<tag k="name" v="Skarvøysteinen" />
		<tag k="place" v="locality" />
		<tag k="seamark:type" v="rock" />
		<tag k="ssr:stedsnr" v="639632" />
	</node>
	<node lat="65.64696110935658" lon="12.168044439093524" id="-16524">
		<tag k="name" v="Soløysøkka" />
		<tag k="natural" v="bay" />
		<tag k="ssr:stedsnr" v="661311" />
	</node>
	<node lat="65.67515832977584" lon="12.124113898746634" id="-16525">
		<tag k="name" v="Draget" />
		<tag k="natural" v="cape" />
		<tag k="ssr:stedsnr" v="661321" />
	</node>
	<node lat="65.63386389241724" lon="11.98976389196037" id="-16530">
		<tag k="name" v="Tosodden" />
		<tag k="natural" v="cape" />
		<tag k="ssr:stedsnr" v="661479" />
	</node>
	<node lat="65.6826361127793" lon="12.077455556821631" id="-16533">
		<tag k="name" v="Einneset" />
		<tag k="natural" v="cape" />
		<tag k="ssr:stedsnr" v="661599" />
	</node>
	<node lat="65.65088333148151" lon="11.787308338565479" id="-16547">
		<tag k="name" v="Vegdalsstranda" />
		<tag k="natural" v="beach" />
		<tag k="ssr:stedsnr" v="722226" />
	</node>
	<node lat="65.60260833115856" lon="11.841922220404625" id="-16550">
		<tag k="name" v="Innerholmen" />
		<tag k="natural" v="cape" />
		<tag k="ssr:stedsnr" v="722242" />
	</node>
	<node lat="65.62267500207943" lon="11.744449991524634" id="-16553">
		<tag k="fixme" v="consider seamark:type=rock or natural=shoal" />
		<tag k="name" v="Maritskjeret" />
		<tag k="place" v="islet" />
		<tag k="ssr:stedsnr" v="722287" />
	</node>
	<node lat="65.60553888702648" lon="11.823891660037587" id="-16554">
		<tag k="name" v="Lisslaugholmen" />
		<tag k="place" v="islet" />
		<tag k="ssr:stedsnr" v="722289" />
	</node>
	<node lat="65.61476388592322" lon="11.752016668090661" id="-16556">
		<tag k="name" v="Neppsundhamn" />
		<tag k="natural" v="bay" />
		<tag k="ssr:stedsnr" v="722303" />
	</node>
	<node lat="65.63508888598778" lon="11.991224991862994" id="-16563">
		<tag k="fixme" v="consider seamark:type=rock or natural=shoal" />
		<tag k="name" v="Skjæran" />
		<tag k="place" v="islet" />
		<tag k="ssr:stedsnr" v="722532" />
	</node>
	<node lat="65.64590278176077" lon="12.02251944835615" id="-16565">
		<tag k="name" v="Flolamøyene" />
		<tag k="place" v="islet" />
		<tag k="ssr:stedsnr" v="722542" />
	</node>
	<node lat="65.64221944582215" lon="12.155486107155227" id="-16570">
		<tag k="name" v="Geiterøyvalen" />
		<tag k="natural" v="strait" />
		<tag k="ssr:stedsnr" v="724231" />
	</node>
	<node lat="65.60622222013812" lon="12.132297227133444" id="-16571">
		<tag k="name" v="Håvardsvikja" />
		<tag k="natural" v="bay" />
		<tag k="ssr:stedsnr" v="724685" />
	</node>
	<node lat="65.73794444011969" lon="12.00521667500289" id="-16575">
		<tag k="name" v="Halvorsteinen" />
		<tag k="natural" v="shoal" />
		<tag k="place" v="locality" />
		<tag k="ssr:stedsnr" v="743421" />
	</node>
	<node lat="65.59048333575498" lon="11.908577779489663" id="-16577">
		<tag k="name" v="Rotvika" />
		<tag k="natural" v="bay" />
		<tag k="ssr:stedsnr" v="743157" />
	</node>
	<node lat="65.70715277706564" lon="12.113561121002547" id="-16583">
		<tag k="fixme" v="consider seamark:type=rock or natural=shoal" />
		<tag k="name" v="Skarvskjæret" />
		<tag k="place" v="islet" />
		<tag k="ssr:stedsnr" v="743468" />
	</node>
	<node lat="65.61603055479146" lon="11.599530553668602" id="-16584">
		<tag k="alt_name" v="Reiaren, nordre" />
		<tag k="fixme" v="consider seamark:type=rock or natural=shoal" />
		<tag k="name" v="Nordre Reiaren" />
		<tag k="place" v="islet" />
		<tag k="ssr:stedsnr" v="743542" />
	</node>
	<node lat="65.59074166483933" lon="11.406872214840213" id="-16586">
		<tag k="alt_name" v="Kjelkfallan, midtre" />
		<tag k="name" v="Midtre Kjelkfallan" />
		<tag k="natural" v="shoal" />
		<tag k="place" v="locality" />
		<tag k="ssr:stedsnr" v="743563" />
	</node>
	<node lat="65.6295999972144" lon="11.550880553641765" id="-16588">
		<tag k="alt_name" v="Leiskitt" />
		<tag k="fixme" v="consider seamark:type=rock or natural=shoal" />
		<tag k="name" v="Leiskittaren" />
		<tag k="place" v="islet" />
		<tag k="ssr:stedsnr" v="743572" />
	</node>
	<node lat="65.73556666747486" lon="11.548180555090289" id="-16591">
		<tag k="alt_name" v="Flesa, l" />
		<tag k="name" v="Litle Flesa" />
		<tag k="place" v="islet" />
		<tag k="ssr:stedsnr" v="743643" />
	</node>
	<node lat="65.80934166430102" lon="11.99074443379292" id="-16593">
		<tag k="name" v="Skarpholmen" />
		<tag k="place" v="islet" />
		<tag k="ssr:stedsnr" v="743720" />
	</node>
	<node lat="65.80931666631061" lon="11.705541659626666" id="-16596">
		<tag k="fixme" v="consider seamark:type=rock or natural=shoal" />
		<tag k="name" v="Reiarsholman" />
		<tag k="place" v="islet" />
		<tag k="ssr:stedsnr" v="743983" />
	</node>
	<node lat="65.79748888673267" lon="11.646397217015531" id="-16597">
		<tag k="fixme" v="consider seamark:type=rock or natural=shoal" />
		<tag k="name" v="Gjeldkuskjæret" />
		<tag k="place" v="islet" />
		<tag k="ssr:stedsnr" v="743987" />
	</node>
	<node lat="65.75343889202055" lon="11.71494999090336" id="-16600">
		<tag k="name" v="Brattøya" />
		<tag k="place" v="islet" />
		<tag k="ssr:stedsnr" v="743943" />
	</node>
	<node lat="65.66586111293104" lon="12.072613889059987" id="-16601">
		<tag k="name" v="Risøyvika" />
		<tag k="natural" v="bay" />
		<tag k="ssr:stedsnr" v="744205" />
	</node>
	<node lat="65.72658055164355" lon="11.993424998308427" id="-16603">
		<tag k="alt_name" v="Voldholmene" />
		<tag k="name" v="Vollholman" />
		<tag k="place" v="islet" />
		<tag k="ssr:stedsnr" v="744342" />
	</node>
	<node lat="65.68069166597859" lon="12.131638890157307" id="-16605">
		<tag k="name" v="Gjetarvika" />
		<tag k="natural" v="bay" />
		<tag k="ssr:stedsnr" v="744443" />
	</node>
	<node lat="65.64782551354489" lon="11.620240229784047" id="-16606">
		<tag k="fixme" v="consider seamark:type=rock or natural=shoal" />
		<tag k="loc_name" v="Innerskjæret" />
		<tag k="name" v="Sørskjæret" />
		<tag k="place" v="islet" />
		<tag k="ssr:stedsnr" v="744581" />
	</node>
	<node lat="65.65508333356591" lon="11.633466669223198" id="-16607">
		<tag k="fixme" v="consider seamark:type=rock or natural=shoal" />
		<tag k="name" v="Tjønnskjæret" />
		<tag k="place" v="islet" />
		<tag k="ssr:stedsnr" v="744583" />
	</node>
	<node lat="65.53999999912986" lon="11.42721944864264" id="-16609">
		<tag k="alt_name" v="Hasjeslua" />
		<tag k="name" v="Hesjeslua" />
		<tag k="natural" v="shoal" />
		<tag k="place" v="locality" />
		<tag k="ssr:stedsnr" v="744468" />
	</node>
	<node lat="65.65739166423938" lon="11.38755833434147" id="-16611">
		<tag k="fixme" v="consider seamark:type=rock or natural=shoal" />
		<tag k="name" v="Galtan" />
		<tag k="place" v="islet" />
		<tag k="ssr:stedsnr" v="744566" />
	</node>
	<node lat="65.54480277725722" lon="11.462936116147892" id="-16623">
		<tag k="name" v="Dinesenslua" />
		<tag k="natural" v="shoal" />
		<tag k="place" v="locality" />
		<tag k="ssr:stedsnr" v="935573" />
	</node>
	<node lat="65.68493888711878" lon="11.805922218005794" id="-16628">
		<tag k="name" v="Rundholmen" />
		<tag k="place" v="islet" />
		<tag k="ssr:stedsnr" v="782188" />
	</node>
	<node lat="65.62265277347258" lon="11.757086104720242" id="-16632">
		<tag k="name" v="Ramnvikhalsen" />
		<tag k="natural" v="cape" />
		<tag k="ssr:stedsnr" v="783254" />
	</node>
	<node lat="65.7063888872833" lon="11.985594453247721" id="-16639">
		<tag k="fixme" v="consider seamark:type=rock or natural=shoal" />
		<tag k="name" v="Juldagen" />
		<tag k="place" v="islet" />
		<tag k="ssr:stedsnr" v="785681" />
	</node>
	<node lat="65.61349166959971" lon="12.125480549023148" id="-16641">
		<tag k="fixme" v="consider seamark:type=rock or natural=shoal" />
		<tag k="name" v="Korkovikskjeran" />
		<tag k="place" v="islet" />
		<tag k="ssr:stedsnr" v="785691" />
	</node>
	<node lat="65.60664167022212" lon="12.12265000664077" id="-16648">
		<tag k="fixme" v="consider seamark:type=rock or natural=shoal" />
		<tag k="name" v="Hamnskjæran" />
		<tag k="place" v="islet" />
		<tag k="ssr:stedsnr" v="804158" />
	</node>
	<node lat="65.83695833592716" lon="11.781477784513912" id="-16656">
		<tag k="name" v="Andholmen" />
		<tag k="place" v="islet" />
		<tag k="ssr:stedsnr" v="804530" />
	</node>
	<node lat="65.54350833083615" lon="11.313880549146225" id="-16658">
		<tag k="name" v="Ingeborgtaren" />
		<tag k="natural" v="shoal" />
		<tag k="place" v="locality" />
		<tag k="ssr:stedsnr" v="804539" />
	</node>
	<node lat="65.79285000370423" lon="11.734500005894336" id="-16659">
		<tag k="alt_name" v="Grunngrunnen" />
		<tag k="name" v="Grunngrunna" />
		<tag k="natural" v="shoal" />
		<tag k="place" v="locality" />
		<tag k="ssr:stedsnr" v="804714" />
	</node>
	<node lat="65.78568610858957" lon="12.130791660940393" id="-16660">
		<tag k="name" v="Bolleholmen" />
		<tag k="place" v="islet" />
		<tag k="ssr:stedsnr" v="804718" />
	</node>
	<node lat="65.65994444760804" lon="11.725869440958594" id="-16662">
		<tag k="name" v="Selneset" />
		<tag k="natural" v="cape" />
		<tag k="ssr:stedsnr" v="804332" />
	</node>
	<node lat="65.68090833715914" lon="12.012125003726638" id="-16668">
		<tag k="name" v="Søndagsvika" />
		<tag k="natural" v="bay" />
		<tag k="ssr:stedsnr" v="804496" />
	</node>
	<node lat="65.63562777924268" lon="11.573733342408746" id="-16672">
		<tag k="alt_name" v="Torrisøya, yt" />
		<tag k="name" v="Ytre Torrisøya" />
		<tag k="place" v="islet" />
		<tag k="ssr:stedsnr" v="804593" />
	</node>
	<node lat="65.6206194425149" lon="11.390063884442982" id="-16674">
		<tag k="name" v="Heimøya" />
		<tag k="place" v="islet" />
		<tag k="ssr:stedsnr" v="804615" />
	</node>
	<node lat="65.65145555110392" lon="11.381508336600614" id="-16675">
		<tag k="name" v="Bleika" />
		<tag k="natural" v="shoal" />
		<tag k="place" v="locality" />
		<tag k="ssr:stedsnr" v="804635" />
	</node>
	<node lat="65.80211944879642" lon="11.62275834001241" id="-16682">
		<tag k="name" v="Oterholman" />
		<tag k="place" v="islet" />
		<tag k="ssr:stedsnr" v="804980" />
	</node>
	<node lat="65.77238610945926" lon="11.545080560538784" id="-16684">
		<tag k="alt_name" v="Søre Revlan" />
		<tag k="name" v="Revlan" />
		<tag k="natural" v="shoal" />
		<tag k="place" v="locality" />
		<tag k="ssr:stedsnr" v="804991" />
	</node>
	<node lat="65.76369999839712" lon="11.523499989017953" id="-16685">
		<tag k="name" v="Vintertaren" />
		<tag k="natural" v="shoal" />
		<tag k="place" v="locality" />
		<tag k="ssr:stedsnr" v="804995" />
	</node>
	<node lat="65.71110000179571" lon="11.883933336011049" id="-16686">
		<tag k="name" v="Klubben" />
		<tag k="natural" v="cape" />
		<tag k="ssr:stedsnr" v="805451" />
	</node>
	<node lat="65.76891389288977" lon="11.655830561685814" id="-16691">
		<tag k="fixme" v="consider seamark:type=rock or natural=shoal" />
		<tag k="name" v="Ænakken" />
		<tag k="place" v="islet" />
		<tag k="ssr:stedsnr" v="804934" />
	</node>
	<node lat="65.7575722203804" lon="11.712763887495731" id="-16692">
		<tag k="name" v="Nordøya" />
		<tag k="place" v="islet" />
		<tag k="ssr:stedsnr" v="804946" />
	</node>
	<node lat="65.61102500111957" lon="11.952819451320929" id="-16694">
		<tag k="name" v="Langhalsan" />
		<tag k="natural" v="cape" />
		<tag k="ssr:stedsnr" v="805364" />
	</node>
	<node lat="65.77007777657518" lon="11.954061100571229" id="-16698">
		<tag k="name" v="Likholmen" />
		<tag k="place" v="islet" />
		<tag k="ssr:stedsnr" v="805675" />
	</node>
	<node lat="65.58529999948703" lon="11.895950005261202" id="-16700">
		<tag k="name" v="Vettaren" />
		<tag k="natural" v="shoal" />
		<tag k="place" v="locality" />
		<tag k="ssr:stedsnr" v="813972" />
	</node>
	<node lat="65.72398316176734" lon="11.88059401729566" id="-16701">
		<tag k="fixme" v="consider seamark:type=rock or natural=shoal" />
		<tag k="name" v="Navaren" />
		<tag k="place" v="islet" />
		<tag k="ssr:stedsnr" v="814786" />
	</node>
	<node lat="65.88164721870146" lon="11.727663896959765" id="-16703">
		<tag k="name" v="Seigrunnen" />
		<tag k="natural" v="shoal" />
		<tag k="place" v="locality" />
		<tag k="ssr:stedsnr" v="819050" />
	</node>
	<node lat="65.87244166710279" lon="11.911691663205401" id="-16705">
		<tag k="name" v="Pålgrunnen" />
		<tag k="natural" v="shoal" />
		<tag k="place" v="locality" />
		<tag k="ssr:stedsnr" v="819431" />
	</node>
	<node lat="65.95108055974237" lon="12.054274998021567" id="-16706">
		<tag k="name" v="Stampen" />
		<tag k="natural" v="shoal" />
		<tag k="place" v="locality" />
		<tag k="ssr:stedsnr" v="819738" />
	</node>
	<node lat="65.78187222499089" lon="11.559011120613972" id="-16708">
		<tag k="name" v="Nordre Revlan" />
		<tag k="natural" v="shoal" />
		<tag k="place" v="locality" />
		<tag k="ssr:stedsnr" v="820840" />
	</node>
	<node lat="65.76557777410581" lon="11.548872231602736" id="-16709">
		<tag k="name" v="Indre Såfoken" />
		<tag k="natural" v="shoal" />
		<tag k="place" v="locality" />
		<tag k="ssr:stedsnr" v="820843" />
	</node>
	<node lat="65.61918333429429" lon="11.39766944640822" id="-16710">
		<tag k="name" v="Sugtaren" />
		<tag k="natural" v="shoal" />
		<tag k="place" v="locality" />
		<tag k="ssr:stedsnr" v="820844" />
	</node>
	<node lat="65.71927500120192" lon="11.86993333396945" id="-16717">
		<tag k="name" v="Håkåskjæret" />
		<tag k="place" v="islet" />
		<tag k="ssr:stedsnr" v="843765" />
	</node>
	<node lat="65.70762222116556" lon="11.863941655876811" id="-16718">
		<tag k="name" v="Langdragskjæret" />
		<tag k="place" v="islet" />
		<tag k="ssr:stedsnr" v="843780" />
	</node>
	<node lat="65.69676666434412" lon="11.843547224475135" id="-16720">
		<tag k="name" v="Viksjøen" />
		<tag k="natural" v="bay" />
		<tag k="ssr:stedsnr" v="843817" />
	</node>
	<node lat="65.69415277805939" lon="11.849105546847342" id="-16721">
		<tag k="name" v="Risneset" />
		<tag k="natural" v="cape" />
		<tag k="ssr:stedsnr" v="843819" />
	</node>
	<node lat="65.54994166987379" lon="11.880733327702265" id="-16731">
		<tag k="name" v="Veta" />
		<tag k="place" v="islet" />
		<tag k="ssr:stedsnr" v="865186" />
	</node>
	<node lat="65.6016249965356" lon="11.832850004055318" id="-16732">
		<tag k="name" v="Eidemsvågen" />
		<tag k="natural" v="bay" />
		<tag k="ssr:stedsnr" v="865162" />
	</node>
	<node lat="65.67272777478881" lon="12.034755549946688" id="-16734">
		<tag k="name" v="Grimsøysundet" />
		<tag k="natural" v="strait" />
		<tag k="ssr:stedsnr" v="865291" />
	</node>
	<node lat="65.67094444067754" lon="12.172900007950986" id="-16737">
		<tag k="name" v="Flatholmen" />
		<tag k="place" v="islet" />
		<tag k="ssr:stedsnr" v="865305" />
	</node>
	<node lat="65.64956110937995" lon="12.025669444355158" id="-16738">
		<tag k="name" v="Steinsholmen" />
		<tag k="place" v="islet" />
		<tag k="ssr:stedsnr" v="865334" />
	</node>
	<node lat="65.70613333123868" lon="11.840911107975925" id="-16750">
		<tag k="name" v="Laukholmen" />
		<tag k="place" v="islet" />
		<tag k="ssr:stedsnr" v="865450" />
	</node>
	<node lat="65.854930555942" lon="11.948708339137406" id="-16757">
		<tag k="fixme" v="consider seamark:type=rock or natural=shoal" />
		<tag k="name" v="Bukkholmdragan" />
		<tag k="place" v="islet" />
		<tag k="ssr:stedsnr" v="865560" />
	</node>
	<node lat="65.61203611348564" lon="11.618549989923013" id="-16758">
		<tag k="loc_name" v="Langøyn" />
		<tag k="name" v="Langøya" />
		<tag k="place" v="islet" />
		<tag k="ssr:stedsnr" v="865562" />
	</node>
	<node lat="65.8575055582763" lon="11.808744439534665" id="-16759">
		<tag k="alt_name" v="Brillingen, vestre" />
		<tag k="name" v="Vestre Brillingen" />
		<tag k="place" v="islet" />
		<tag k="ssr:stedsnr" v="865563" />
	</node>
	<node lat="65.60349166605172" lon="11.434994435839384" id="-16760">
		<tag k="alt_name" v="Rodalsfallan" />
		<tag k="name" v="Søre Rodalsfallan" />
		<tag k="natural" v="shoal" />
		<tag k="place" v="locality" />
		<tag k="ssr:stedsnr" v="865564" />
	</node>
	<node lat="65.59796667108313" lon="11.505411103141421" id="-16761">
		<tag k="fixme" v="consider seamark:type=rock or natural=shoal" />
		<tag k="name" v="Trollkonskjæret" />
		<tag k="place" v="islet" />
		<tag k="ssr:stedsnr" v="865575" />
	</node>
	<node lat="65.583844445581" lon="11.629033323161561" id="-16763">
		<tag k="alt_name" v="Vågøya, store" />
		<tag k="loc_name" v="Stor-Vågøyn" />
		<tag k="name" v="Store Vågøya" />
		<tag k="place" v="islet" />
		<tag k="ssr:stedsnr" v="865577" />
	</node>
	<node lat="65.62200000060126" lon="11.603561116292887" id="-16764">
		<tag k="fixme" v="consider seamark:type=rock or natural=shoal" />
		<tag k="name" v="Mellomskjæret" />
		<tag k="place" v="islet" />
		<tag k="ssr:stedsnr" v="865602" />
	</node>
	<node lat="65.8858555585043" lon="11.829255544960183" id="-16765">
		<tag k="fixme" v="consider seamark:type=rock or natural=shoal" />
		<tag k="name" v="Måsskjæret" />
		<tag k="place" v="islet" />
		<tag k="ssr:stedsnr" v="865603" />
	</node>
	<node lat="65.67507500414293" lon="11.60416667559315" id="-16766">
		<tag k="name" v="Kroktaren" />
		<tag k="natural" v="shoal" />
		<tag k="place" v="locality" />
		<tag k="ssr:stedsnr" v="865612" />
	</node>
	<node lat="65.67711666803059" lon="11.696452769377373" id="-16767">
		<tag k="fixme" v="consider seamark:type=rock or natural=shoal" />
		<tag k="name" v="Masterskjæran" />
		<tag k="place" v="islet" />
		<tag k="ssr:stedsnr" v="865613" />
	</node>
	<node lat="65.64312499708878" lon="11.5751277882403" id="-16771">
		<tag k="fixme" v="consider seamark:type=rock or natural=shoal" />
		<tag k="name" v="Svartskjæret" />
		<tag k="place" v="islet" />
		<tag k="ssr:stedsnr" v="865639" />
	</node>
	<node lat="65.74467500285857" lon="11.535236116881597" id="-16772">
		<tag k="name" v="Flestaren" />
		<tag k="natural" v="shoal" />
		<tag k="place" v="locality" />
		<tag k="ssr:stedsnr" v="865656" />
	</node>
	<node lat="65.7663222199523" lon="11.777049989106798" id="-16775">
		<tag k="fixme" v="consider seamark:type=rock or natural=shoal" />
		<tag k="name" v="Olskjæran" />
		<tag k="place" v="islet" />
		<tag k="ssr:stedsnr" v="865687" />
	</node>
	<node lat="65.77602500103093" lon="11.994530554026749" id="-16777">
		<tag k="name" v="Oterholmen" />
		<tag k="place" v="islet" />
		<tag k="ssr:stedsnr" v="865719" />
	</node>
	<node lat="65.81452500238112" lon="12.024580555775959" id="-16779">
		<tag k="name" v="Geiterøya" />
		<tag k="place" v="islet" />
		<tag k="ssr:stedsnr" v="865731" />
	</node>
	<node lat="65.82510277594176" lon="11.941172230850126" id="-16784">
		<tag k="bay" v="fjord" />
		<tag k="name" v="Kilværfjorden" />
		<tag k="natural" v="bay" />
		<tag k="ssr:stedsnr" v="865524" />
	</node>
	<node lat="65.8455138913303" lon="11.777055563115322" id="-16787">
		<tag k="name" v="Hansholman" />
		<tag k="place" v="islet" />
		<tag k="ssr:stedsnr" v="865534" />
	</node>
	<node lat="65.80416389178733" lon="11.990644447854628" id="-16788">
		<tag k="name" v="Slåttholmen" />
		<tag k="place" v="islet" />
		<tag k="ssr:stedsnr" v="865742" />
	</node>
	<node lat="65.85294999877276" lon="11.672449997300394" id="-16795">
		<tag k="name" v="Silstadskolten" />
		<tag k="natural" v="shoal" />
		<tag k="place" v="locality" />
		<tag k="ssr:stedsnr" v="865978" />
	</node>
	<node lat="65.8061833312016" lon="11.997322223336614" id="-16798">
		<tag k="name" v="Pegrunnan" />
		<tag k="natural" v="shoal" />
		<tag k="place" v="locality" />
		<tag k="ssr:stedsnr" v="874912" />
	</node>
	<node lat="65.67646388485527" lon="11.993072232141671" id="-16799">
		<tag k="name" v="Gladstadosen" />
		<tag k="natural" v="bay" />
		<tag k="ssr:stedsnr" v="875337" />
	</node>
	<node lat="65.75963333041229" lon="12.06633611545177" id="-16801">
		<tag k="name" v="Galten" />
		<tag k="natural" v="shoal" />
		<tag k="place" v="locality" />
		<tag k="ssr:stedsnr" v="875939" />
	</node>
	<node lat="65.60441666530622" lon="11.816347219647948" id="-16807">
		<tag k="name" v="Langholman" />
		<tag k="place" v="islet" />
		<tag k="ssr:stedsnr" v="936313" />
	</node>
	<node lat="65.69182777525633" lon="11.494469447538172" id="-16808">
		<tag k="name" v="Søre Lovundtaren" />
		<tag k="natural" v="shoal" />
		<tag k="place" v="locality" />
		<tag k="ssr:stedsnr" v="941710" />
	</node>
	<node lat="65.9485361107976" lon="11.89847778376214" id="-16810">
		<tag k="name" v="Breitaren" />
		<tag k="natural" v="shoal" />
		<tag k="place" v="locality" />
		<tag k="ssr:stedsnr" v="941292" />
	</node>
	<node lat="65.76569444048101" lon="11.430366662901237" id="-16811">
		<tag k="name" v="Austre Skolten" />
		<tag k="natural" v="shoal" />
		<tag k="place" v="locality" />
		<tag k="ssr:stedsnr" v="941537" />
	</node>
	<node lat="65.78685277964436" lon="11.6623388845087" id="-16813">
		<tag k="name" v="Seislua" />
		<tag k="natural" v="shoal" />
		<tag k="place" v="locality" />
		<tag k="ssr:stedsnr" v="941900" />
	</node>
	<node lat="65.67896111199252" lon="12.130697219274813" id="-16824">
		<tag k="fixme" v="consider seamark:type=rock or natural=shoal" />
		<tag k="name" v="Elnskjeran" />
		<tag k="place" v="islet" />
		<tag k="ssr:stedsnr" v="964361" />
	</node>
	<node lat="65.64738333444201" lon="11.972324989466701" id="-16839">
		<tag k="name" v="Vassbotnet" />
		<tag k="natural" v="bay" />
		<tag k="ssr:stedsnr" v="965527" />
	</node>
	<node lat="65.689222226479" lon="12.020777776157333" id="-16840">
		<tag k="name" v="Karivika" />
		<tag k="natural" v="bay" />
		<tag k="ssr:stedsnr" v="965720" />
	</node>
	<node lat="65.63950555866141" lon="12.160050007119947" id="-16843">
		<tag k="name" v="Kobbnesodden" />
		<tag k="natural" v="cape" />
		<tag k="ssr:stedsnr" v="966250" />
	</node>
</osm>
