<?xml version="1.0" encoding="UTF-8"?>
<<<<<<< HEAD
<osm version="0.6" generator="osmapis">
	<node lat="65.64533889190741" lon="11.880819436165003" id="-8321">
		<tag k="name" v="Markaelva" />
		<tag k="ssr:stedsnr" v="76304" />
		<tag k="waterway" v="river" />
	</node>
	<node lat="65.64382499621506" lon="11.957619437625633" id="-8433">
		<tag k="name" v="Setneset" />
		<tag k="natural" v="cape" />
		<tag k="ssr:stedsnr" v="258301" />
	</node>
	<node lat="65.69230833068498" lon="12.098874990661118" id="-8435">
		<tag k="alt_name" v="Nøkktjørna" />
		<tag k="name" v="Nøkktjønna" />
		<tag k="natural" v="water" />
		<tag k="ssr:stedsnr" v="258484" />
	</node>
	<node lat="65.68228888462762" lon="11.937811105354397" id="-8499">
		<tag k="name" v="Grønbekken" />
		<tag k="ssr:stedsnr" v="197513" />
		<tag k="waterway" v="stream" />
	</node>
	<node lat="65.64175277684089" lon="11.879158328758544" id="-8560">
		<tag k="name" v="Kalvlibekken" />
		<tag k="ssr:stedsnr" v="258304" />
		<tag k="waterway" v="stream" />
	</node>
	<node lat="65.69788610980648" lon="11.855044453473838" id="-8587">
		<tag k="name" v="Langklubbvalen" />
		<tag k="natural" v="water" />
		<tag k="ssr:stedsnr" v="258453" />
	</node>
	<node lat="65.69608889165175" lon="11.955025004879191" id="-8588">
		<tag k="alt_name" v="Kjellarhågvatnet" />
		<tag k="name" v="Kjellarhaugvatnet" />
		<tag k="natural" v="water" />
		<tag k="ssr:stedsnr" v="258454" />
	</node>
	<node lat="65.67451666348713" lon="12.113897217357026" id="-8612">
		<tag k="name" v="Møljebekken" />
		<tag k="ssr:stedsnr" v="297333" />
		<tag k="waterway" v="stream" />
	</node>
	<node lat="65.65533333615987" lon="11.97707222418764" id="-8696">
		<tag k="name" v="Krekåa" />
		<tag k="ssr:stedsnr" v="479501" />
		<tag k="waterway" v="stream" />
	</node>
	<node lat="65.6620833300294" lon="12.00362500036842" id="-8711">
		<tag k="name" v="Svinvatnet" />
		<tag k="natural" v="water" />
		<tag k="ssr:stedsnr" v="379253" />
	</node>
	<node lat="65.69025833375969" lon="11.881286106747496" id="-8750">
		<tag k="name" v="Damman" />
		<tag k="ssr:stedsnr" v="418785" />
		<tag k="waterway" v="dam" />
	</node>
	<node lat="65.69134166475436" lon="11.881969450212887" id="-8802">
		<tag k="name" v="Damtjønna" />
		<tag k="natural" v="water" />
		<tag k="ssr:stedsnr" v="479809" />
	</node>
	<node lat="65.6355527777436" lon="11.822813886539748" id="-8830">
		<tag k="name" v="Okvatnet" />
		<tag k="natural" v="water" />
		<tag k="ssr:stedsnr" v="501313" />
	</node>
	<node lat="65.66507500432402" lon="11.885338881176436" id="-8853">
		<tag k="name" v="Karbuvatnet" />
=======
<osm generator="osmapis" version="0.6">
	<node id="-129407" lat="65.6472333378" lon="11.8758388928">
		<tag k="name" v="Skiftingsbekken" />
		<tag k="ssr:stedsnr" v="964028" />
		<tag k="waterway" v="stream" />
	</node>
	<node id="-129405" lat="65.6275527802" lon="11.9315500084">
		<tag k="name" v="Lomstjønnene" />
>>>>>>> e1d4bc35ff8a6074a6f2e91616a996b547c36f15
		<tag k="natural" v="water" />
		<tag k="ssr:stedsnr" v="682285" />
	</node>
<<<<<<< HEAD
	<node lat="65.67643333257048" lon="11.839766664395507" id="-8891">
		<tag k="name" v="Forsen" />
		<tag k="ssr:stedsnr" v="683441" />
		<tag k="waterway" v="stream" />
	</node>
	<node lat="65.61045833489624" lon="11.948802780209828" id="-8905">
		<tag k="name" v="Leirtjønna" />
=======
	<node id="-129019" lat="65.6866333302" lon="12.0557083384">
		<tag k="name" v="Lomstjørna" />
>>>>>>> e1d4bc35ff8a6074a6f2e91616a996b547c36f15
		<tag k="natural" v="water" />
		<tag k="ssr:stedsnr" v="622488" />
	</node>
<<<<<<< HEAD
	<node lat="65.70392222321337" lon="12.018222222576151" id="-8913">
		<tag k="name" v="Sandtjønna" />
=======
	<node id="-127738" lat="65.6355527777" lon="11.8228138865">
		<tag k="name" v="Okvatnet" />
>>>>>>> e1d4bc35ff8a6074a6f2e91616a996b547c36f15
		<tag k="natural" v="water" />
		<tag k="ssr:stedsnr" v="540716" />
	</node>
<<<<<<< HEAD
	<node lat="65.70086944866114" lon="11.960141677275848" id="-8914">
		<tag k="name" v="Groven" />
		<tag k="ssr:stedsnr" v="540802" />
		<tag k="waterway" v="stream" />
	</node>
	<node lat="65.69119999671146" lon="12.069111110397136" id="-8941">
		<tag k="name" v="Singstjønna" />
=======
	<node id="-129017" lat="65.6954472205" lon="11.8888138867">
		<tag k="name" v="Olhåksådammen" />
>>>>>>> e1d4bc35ff8a6074a6f2e91616a996b547c36f15
		<tag k="natural" v="water" />
		<tag k="ssr:stedsnr" v="600600" />
	</node>
<<<<<<< HEAD
	<node lat="65.70539999573923" lon="12.003452776071956" id="-8942">
		<tag k="name" v="Kattjønna" />
=======
	<node id="-128632" lat="65.6507222229" lon="11.9893027682">
		<tag k="name" v="Hestvatnet" />
>>>>>>> e1d4bc35ff8a6074a6f2e91616a996b547c36f15
		<tag k="natural" v="water" />
		<tag k="ssr:stedsnr" v="600709" />
	</node>
<<<<<<< HEAD
	<node lat="65.6276194419811" lon="11.799283340894455" id="-8968">
		<tag k="alt_name" v="Trolltindvatnet" />
		<tag k="name" v="Trollvatnet" />
		<tag k="natural" v="water" />
		<tag k="ssr:stedsnr" v="622316" />
	</node>
	<node lat="65.6866333302163" lon="12.05570833839423" id="-8977">
		<tag k="name" v="Lomstjørna" />
		<tag k="natural" v="water" />
		<tag k="ssr:stedsnr" v="622488" />
	</node>
	<node lat="65.64605278060489" lon="11.960399994679438" id="-9086">
		<tag k="name" v="Floavatnet" />
		<tag k="natural" v="water" />
		<tag k="ssr:stedsnr" v="743330" />
		<tag k="water" v="lake" />
	</node>
	<node lat="65.61726666971492" lon="11.370991677392038" id="-9100">
=======
	<node id="-128886" lat="65.6751277814" lon="12.0834638903">
		<tag k="name" v="Damman" />
		<tag k="ssr:stedsnr" v="431666" />
		<tag k="waterway" v="dam" />
	</node>
	<node id="-127861" lat="65.6170111145" lon="11.8887111113">
		<tag k="name" v="Møllenesbekken" />
		<tag k="ssr:stedsnr" v="600178" />
		<tag k="waterway" v="stream" />
	</node>
	<node id="-127422" lat="65.6872416627" lon="12.0006388882">
		<tag k="name" v="Fuglestadvatnet" />
		<tag k="natural" v="water" />
		<tag k="ssr:stedsnr" v="440486" />
	</node>
	<node id="-129138" lat="65.6172666697" lon="11.3709916774">
>>>>>>> e1d4bc35ff8a6074a6f2e91616a996b547c36f15
		<tag k="name" v="Djupleia" />
		<tag k="place" v="locality" />
		<tag k="ssr:stedsnr" v="743599" />
	</node>
<<<<<<< HEAD
	<node lat="65.65162500347513" lon="11.943869446685913" id="-9115">
		<tag k="name" v="Einneset" />
		<tag k="natural" v="cape" />
		<tag k="ssr:stedsnr" v="904037" />
	</node>
	<node lat="65.67523610822654" lon="11.894830560874546" id="-9139">
		<tag k="name" v="Okåstjønna" />
		<tag k="natural" v="water" />
		<tag k="ssr:stedsnr" v="906791" />
	</node>
	<node lat="65.64131944248474" lon="11.875449995469594" id="-9142">
		<tag k="name" v="Langneset" />
		<tag k="natural" v="cape" />
		<tag k="ssr:stedsnr" v="782006" />
	</node>
	<node lat="65.67998055403177" lon="12.087166656381758" id="-9145">
		<tag k="name" v="Tjønnan" />
=======
	<node id="-129256" lat="65.697338889" lon="11.9665444536">
		<tag k="name" v="Einåsvatnet" />
		<tag k="natural" v="water" />
		<tag k="ssr:stedsnr" v="804483" />
	</node>
	<node id="-128269" lat="65.6543250022" lon="11.8999638959">
		<tag k="name" v="Elvkrokan" />
		<tag k="natural" v="cape" />
		<tag k="ssr:stedsnr" v="54023" />
	</node>
	<node id="-128620" lat="65.6097027798" lon="12.1565333336">
		<tag k="name" v="Namdalsvatnet" />
>>>>>>> e1d4bc35ff8a6074a6f2e91616a996b547c36f15
		<tag k="natural" v="water" />
		<tag k="ssr:stedsnr" v="782603" />
	</node>
<<<<<<< HEAD
	<node lat="65.6590027807867" lon="11.984830562897235" id="-9206">
		<tag k="name" v="Rotvatnet" />
=======
	<node id="-129131" lat="65.6460527806" lon="11.9603999947">
		<tag k="name" v="Floavatnet" />
>>>>>>> e1d4bc35ff8a6074a6f2e91616a996b547c36f15
		<tag k="natural" v="water" />
		<tag k="ssr:stedsnr" v="844498" />
	</node>
<<<<<<< HEAD
	<node lat="65.70170555636979" lon="11.957205564996578" id="-9207">
		<tag k="name" v="Leirtjønna" />
=======
	<node id="-127722" lat="65.6913416648" lon="11.8819694502">
		<tag k="name" v="Damtjønna" />
>>>>>>> e1d4bc35ff8a6074a6f2e91616a996b547c36f15
		<tag k="natural" v="water" />
		<tag k="ssr:stedsnr" v="844816" />
	</node>
<<<<<<< HEAD
	<node lat="65.6828916647344" lon="11.919330547487283" id="-9215">
		<tag k="name" v="Oterblåså" />
=======
	<node id="-127375" lat="65.6745166635" lon="12.1138972174">
		<tag k="name" v="Møljebekken" />
		<tag k="ssr:stedsnr" v="297333" />
		<tag k="waterway" v="stream" />
	</node>
	<node id="-129000" lat="65.7053999957" lon="12.0034527761">
		<tag k="name" v="Kattjønna" />
>>>>>>> e1d4bc35ff8a6074a6f2e91616a996b547c36f15
		<tag k="natural" v="water" />
		<tag k="ssr:stedsnr" v="846777" />
	</node>
<<<<<<< HEAD
	<node lat="65.64472221962622" lon="11.906719449757865" id="-9234">
		<tag k="name" v="Bokstadbekken" />
		<tag k="ssr:stedsnr" v="926290" />
		<tag k="waterway" v="stream" />
	</node>
	<node lat="65.65440555104054" lon="11.96054444941313" id="-9235">
		<tag k="name" v="Fersetelva" />
		<tag k="ssr:stedsnr" v="926292" />
		<tag k="waterway" v="river" />
	</node>
	<node lat="65.68139444092519" lon="11.897677777699993" id="-9243">
=======
	<node id="-128870" lat="65.6902583338" lon="11.8812861067">
		<tag k="name" v="Damman" />
		<tag k="ssr:stedsnr" v="418785" />
		<tag k="waterway" v="dam" />
	</node>
	<node id="-128101" lat="65.6813944409" lon="11.8976777777">
>>>>>>> e1d4bc35ff8a6074a6f2e91616a996b547c36f15
		<tag k="alt_name" v="Viåstjørna" />
		<tag k="name" v="Viåstjønna" />
		<tag k="natural" v="water" />
		<tag k="ssr:stedsnr" v="926451" />
	</node>
<<<<<<< HEAD
	<node lat="65.66794722161029" lon="11.947044449896753" id="-9272">
		<tag k="name" v="Torsløken" />
=======
	<node id="-128550" lat="65.6602194479" lon="11.8231916701">
		<tag k="name" v="Mårnestjørna" />
		<tag k="natural" v="water" />
		<tag k="ssr:stedsnr" v="197288" />
	</node>
	<node id="-128354" lat="65.6992555546" lon="11.9622305647">
		<tag k="name" v="Skiftevatnet" />
		<tag k="natural" v="water" />
		<tag k="ssr:stedsnr" v="76482" />
	</node>
	<node id="-128993" lat="65.6911999967" lon="12.0691111104">
		<tag k="name" v="Singstjønna" />
>>>>>>> e1d4bc35ff8a6074a6f2e91616a996b547c36f15
		<tag k="natural" v="water" />
		<tag k="ssr:stedsnr" v="919750" />
		<tag k="water" v="lake" />
	</node>
<<<<<<< HEAD
	<node lat="65.66059999709643" lon="11.797708326654737" id="-9275">
		<tag k="alt_name" v="Mollnesbekken" />
		<tag k="name" v="Mårnesbekken" />
		<tag k="ssr:stedsnr" v="925298" />
		<tag k="waterway" v="stream" />
	</node>
	<node lat="65.62755278022803" lon="11.931550008442091" id="-9310">
		<tag k="name" v="Lomstjønnene" />
=======
	<node id="-128778" lat="65.66208333" lon="12.0036250004">
		<tag k="name" v="Svinvatnet" />
		<tag k="natural" v="water" />
		<tag k="ssr:stedsnr" v="379253" />
	</node>
	<node id="-128478" lat="65.6741166668" lon="11.8170194428">
		<tag k="name" v="Åshildbekken" />
		<tag k="ssr:stedsnr" v="137241" />
		<tag k="waterway" v="stream" />
	</node>
	<node id="-127965" lat="65.6752361082" lon="11.8948305609">
		<tag k="name" v="Okåstjønna" />
>>>>>>> e1d4bc35ff8a6074a6f2e91616a996b547c36f15
		<tag k="natural" v="water" />
		<tag k="ssr:stedsnr" v="964087" />
	</node>
<<<<<<< HEAD
	<node lat="65.69590278037457" lon="11.92405278681411" id="-9315">
		<tag k="name" v="Hopen" />
		<tag k="ssr:stedsnr" v="964809" />
		<tag k="waterway" v="stream" />
	</node>
	<node lat="65.67376918308429" lon="11.912567378751852" id="-9324">
		<tag k="name" v="Innertjønna" />
=======
	<node id="-127836" lat="65.6926388872" lon="11.9850305502">
		<tag k="name" v="Sveavatnet" />
>>>>>>> e1d4bc35ff8a6074a6f2e91616a996b547c36f15
		<tag k="natural" v="water" />
		<tag k="ssr:stedsnr" v="967744" />
	</node>
<<<<<<< HEAD
	<node lat="65.65620000247071" lon="11.820252772084409" id="-9328">
=======
	<node id="-127354" lat="65.6822888846" lon="11.9378111054">
		<tag k="name" v="Grønbekken" />
		<tag k="ssr:stedsnr" v="197513" />
		<tag k="waterway" v="stream" />
	</node>
	<node id="-129423" lat="65.6727777784" lon="11.9147277685">
		<tag k="name" v="Innertjønna" />
		<tag k="natural" v="water" />
		<tag k="ssr:stedsnr" v="967744" />
	</node>
	<node id="-128215" lat="65.6562000025" lon="11.8202527721">
>>>>>>> e1d4bc35ff8a6074a6f2e91616a996b547c36f15
		<tag k="fixme" v="multiple name tags, choose one and add the other to alt_name" />
		<tag k="name" v="Røssvatnet;Molnestjønna" />
		<tag k="natural" v="water" />
		<tag k="ssr:stedsnr" v="15339" />
	</node>
<<<<<<< HEAD
	<node lat="65.67685556004186" lon="11.877358326849102" id="-9339">
		<tag k="name" v="Holmvatnet" />
		<tag k="natural" v="water" />
		<tag k="ssr:stedsnr" v="15499" />
	</node>
	<node lat="65.65432500216379" lon="11.899963895882074" id="-9397">
		<tag k="name" v="Elvkrokan" />
		<tag k="natural" v="cape" />
		<tag k="ssr:stedsnr" v="54023" />
	</node>
	<node lat="65.65456944365069" lon="11.974674991447936" id="-9414">
		<tag k="name" v="Sevatnet" />
		<tag k="natural" v="water" />
		<tag k="ssr:stedsnr" v="55482" />
	</node>
	<node lat="65.69925555463085" lon="11.962230564660725" id="-9449">
		<tag k="name" v="Skiftevatnet" />
		<tag k="natural" v="water" />
		<tag k="ssr:stedsnr" v="76482" />
	</node>
	<node lat="65.67411666683705" lon="11.81701944282333" id="-9542">
		<tag k="name" v="Åshildbekken" />
		<tag k="ssr:stedsnr" v="137241" />
		<tag k="waterway" v="stream" />
	</node>
	<node lat="65.6578893046341" lon="11.89056188066548" id="-9572">
		<tag k="name" v="Grønbekken" />
		<tag k="ssr:stedsnr" v="176037" />
		<tag k="waterway" v="stream" />
	</node>
	<node lat="65.66021944794265" lon="11.823191670069598" id="-9596">
		<tag k="name" v="Mårnestjørna" />
		<tag k="natural" v="water" />
		<tag k="ssr:stedsnr" v="197288" />
	</node>
	<node lat="65.65317222186728" lon="11.94344721807804" id="-9603">
		<tag k="alt_name" v="Einesfossen" />
		<tag k="name" v="Einesforsen" />
		<tag k="natural" v="waterfall" />
		<tag k="ssr:stedsnr" v="197334" />
	</node>
	<node lat="65.60970277977201" lon="12.15653333355267" id="-9687">
		<tag k="name" v="Namdalsvatnet" />
		<tag k="natural" v="water" />
		<tag k="ssr:stedsnr" v="318122" />
	</node>
	<node lat="65.65072222286454" lon="11.989302768214511" id="-9690">
		<tag k="name" v="Hestvatnet" />
		<tag k="natural" v="water" />
		<tag k="ssr:stedsnr" v="318299" />
	</node>
	<node lat="65.67849166372922" lon="11.867316659450985" id="-9728">
		<tag k="name" v="Husvatnet" />
		<tag k="natural" v="water" />
		<tag k="ssr:stedsnr" v="319462" />
	</node>
	<node lat="65.69554166771157" lon="11.900263895360284" id="-9812">
		<tag k="alt_name" v="Overosen" />
		<tag k="name" v="Øver-Osen" />
		<tag k="natural" v="water" />
		<tag k="ssr:stedsnr" v="379438" />
	</node>
	<node lat="65.64288889279737" lon="11.986575005969284" id="-9867">
=======
	<node id="-128086" lat="65.654405551" lon="11.9605444494">
		<tag k="name" v="Fersetelva" />
		<tag k="ssr:stedsnr" v="926292" />
		<tag k="waterway" v="river" />
	</node>
	<node id="-129237" lat="65.623594443" lon="11.9121777803">
		<tag k="name" v="Leitbekken" />
		<tag k="ssr:stedsnr" v="804341" />
		<tag k="waterway" v="stream" />
	</node>
	<node id="-127969" lat="65.6421249992" lon="11.8741694458">
		<tag k="name" v="Rundneset" />
		<tag k="natural" v="cape" />
		<tag k="ssr:stedsnr" v="722008" />
	</node>
	<node id="-127565" lat="65.6553333362" lon="11.9770722242">
		<tag k="name" v="Krekåa" />
		<tag k="ssr:stedsnr" v="479501" />
		<tag k="waterway" v="stream" />
	</node>
	<node id="-129357" lat="65.6873000037" lon="11.8869888952">
		<tag k="name" v="Altervatnet" />
		<tag k="natural" v="water" />
		<tag k="ssr:stedsnr" v="865481" />
	</node>
	<node id="-127797" lat="65.6764333326" lon="11.8397666644">
		<tag k="name" v="Forsen" />
		<tag k="ssr:stedsnr" v="683441" />
		<tag k="waterway" v="stream" />
	</node>
	<node id="-128201" lat="65.706533335" lon="11.8960777872">
		<tag k="name" v="Roarstjønna" />
		<tag k="natural" v="water" />
		<tag k="ssr:stedsnr" v="965823" />
	</node>
	<node id="-127814" lat="65.7008694487" lon="11.9601416773">
		<tag k="name" v="Groven" />
		<tag k="ssr:stedsnr" v="540802" />
		<tag k="waterway" v="stream" />
	</node>
	<node id="-128225" lat="65.67685556" lon="11.8773583268">
		<tag k="name" v="Holmvatnet" />
		<tag k="natural" v="water" />
		<tag k="ssr:stedsnr" v="15499" />
	</node>
	<node id="-129334" lat="65.6828916647" lon="11.9193305475">
		<tag k="name" v="Oterblåså" />
		<tag k="natural" v="water" />
		<tag k="ssr:stedsnr" v="846777" />
	</node>
	<node id="-128321" lat="65.6453388919" lon="11.8808194362">
		<tag k="name" v="Markaelva" />
		<tag k="ssr:stedsnr" v="76304" />
		<tag k="waterway" v="river" />
	</node>
	<node id="-129342" lat="65.6625694443" lon="11.957211112">
		<tag k="alt_name" v="Vannløkbekken" />
		<tag k="name" v="Vassløkbekken" />
		<tag k="ssr:stedsnr" v="865297" />
		<tag k="waterway" v="stream" />
	</node>
	<node id="-127477" lat="65.6417527768" lon="11.8791583288">
		<tag k="name" v="Kalvlibekken" />
		<tag k="ssr:stedsnr" v="258304" />
		<tag k="waterway" v="stream" />
	</node>
	<node id="-127675" lat="65.6428888928" lon="11.986575006">
>>>>>>> e1d4bc35ff8a6074a6f2e91616a996b547c36f15
		<tag k="name" v="Damman" />
		<tag k="natural" v="water" />
		<tag k="ssr:stedsnr" v="419518" />
		<tag k="water" v="pond" />
	</node>
<<<<<<< HEAD
	<node lat="65.67512778137699" lon="12.083463890324476" id="-9872">
		<tag k="name" v="Damman" />
		<tag k="ssr:stedsnr" v="431666" />
		<tag k="waterway" v="dam" />
	</node>
	<node lat="65.67194722432967" lon="11.92664443395222" id="-9877">
		<tag k="name" v="Limåstjønna" />
		<tag k="natural" v="water" />
		<tag k="ssr:stedsnr" v="434730" />
	</node>
	<node lat="65.63605000305172" lon="11.942230564453704" id="-9879">
		<tag k="name" v="Møllebekken" />
		<tag k="ssr:stedsnr" v="440357" />
		<tag k="waterway" v="stream" />
	</node>
	<node lat="65.68491111008503" lon="11.861366674649162" id="-9905">
		<tag k="alt_name" v="Banvatnet" />
		<tag k="name" v="Barnvatnet" />
		<tag k="natural" v="water" />
		<tag k="ssr:stedsnr" v="440451" />
	</node>
	<node lat="65.69871666387967" lon="11.89815833833696" id="-9906">
=======
	<node id="-127418" lat="65.6987166639" lon="11.8981583383">
>>>>>>> e1d4bc35ff8a6074a6f2e91616a996b547c36f15
		<tag k="alt_name" v="Nerosen" />
		<tag k="name" v="Ner-Osen" />
		<tag k="natural" v="water" />
		<tag k="ssr:stedsnr" v="440460" />
	</node>
<<<<<<< HEAD
	<node lat="65.68724166271203" lon="12.000638888213375" id="-9910">
		<tag k="name" v="Fuglestadvatnet" />
=======
	<node id="-128185" lat="65.6959027804" lon="11.9240527868">
		<tag k="name" v="Hopen" />
		<tag k="ssr:stedsnr" v="964809" />
		<tag k="waterway" v="stream" />
	</node>
	<node id="-129337" lat="65.6556555534" lon="11.9849305562">
		<tag k="name" v="Fersetvatnet" />
>>>>>>> e1d4bc35ff8a6074a6f2e91616a996b547c36f15
		<tag k="natural" v="water" />
		<tag k="ssr:stedsnr" v="440486" />
	</node>
	<node lat="65.69263888721628" lon="11.985030550191247" id="-10038">
		<tag k="name" v="Sveavatnet" />
		<tag k="natural" v="water" />
		<tag k="ssr:stedsnr" v="561469" />
	</node>
	<node lat="65.61701111448852" lon="11.888711111281491" id="-10085">
		<tag k="name" v="Møllenesbekken" />
		<tag k="ssr:stedsnr" v="600178" />
		<tag k="waterway" v="stream" />
	</node>
	<node lat="65.61981944110003" lon="11.765225007620026" id="-10144">
		<tag k="name" v="Nepsundbekken" />
		<tag k="ssr:stedsnr" v="622360" />
		<tag k="waterway" v="stream" />
	</node>
	<node lat="65.69544722050449" lon="11.888813886745934" id="-10150">
		<tag k="name" v="Olhåksådammen" />
		<tag k="natural" v="water" />
		<tag k="ssr:stedsnr" v="622454" />
	</node>
<<<<<<< HEAD
	<node lat="65.64212499916216" lon="11.874169445845647" id="-10204">
		<tag k="name" v="Rundneset" />
		<tag k="natural" v="cape" />
		<tag k="ssr:stedsnr" v="722008" />
	</node>
	<node lat="65.61494444435708" lon="11.840227772256496" id="-10209">
		<tag k="name" v="Mjølkmarkbekken" />
		<tag k="ssr:stedsnr" v="722253" />
		<tag k="waterway" v="stream" />
	</node>
	<node lat="65.68829722076364" lon="11.899319440651913" id="-10230">
		<tag k="name" v="Skutåa" />
		<tag k="ssr:stedsnr" v="724924" />
		<tag k="waterway" v="stream" />
	</node>
	<node lat="65.70588610689674" lon="11.917911100136399" id="-10294">
=======
	<node id="-127417" lat="65.6849111101" lon="11.8613666746">
		<tag k="alt_name" v="Banvatnet" />
		<tag k="name" v="Barnvatnet" />
		<tag k="natural" v="water" />
		<tag k="ssr:stedsnr" v="440451" />
	</node>
	<node id="-129205" lat="65.7058861069" lon="11.9179111001">
>>>>>>> e1d4bc35ff8a6074a6f2e91616a996b547c36f15
		<tag k="name" v="Leirtjønna" />
		<tag k="natural" v="water" />
		<tag k="ssr:stedsnr" v="783895" />
	</node>
<<<<<<< HEAD
	<node lat="65.62359444297942" lon="11.912177780306614" id="-10322">
		<tag k="name" v="Leitbekken" />
		<tag k="ssr:stedsnr" v="804341" />
		<tag k="waterway" v="stream" />
	</node>
	<node lat="65.69733888896344" lon="11.96654445362674" id="-10325">
		<tag k="name" v="Einåsvatnet" />
		<tag k="natural" v="water" />
		<tag k="ssr:stedsnr" v="804483" />
	</node>
	<node lat="65.65565555340828" lon="11.984930556189223" id="-10393">
		<tag k="name" v="Fersetvatnet" />
		<tag k="natural" v="water" />
		<tag k="ssr:stedsnr" v="865294" />
	</node>
	<node lat="65.66256944430003" lon="11.957211112002476" id="-10394">
		<tag k="alt_name" v="Vannløkbekken" />
		<tag k="name" v="Vassløkbekken" />
		<tag k="ssr:stedsnr" v="865297" />
		<tag k="waterway" v="stream" />
	</node>
	<node lat="65.68730000370293" lon="11.886988895191367" id="-10412">
		<tag k="name" v="Altervatnet" />
=======
	<node id="-128051" lat="65.6605999971" lon="11.7977083267">
		<tag k="alt_name" v="Mollnesbekken" />
		<tag k="name" v="Mårnesbekken" />
		<tag k="ssr:stedsnr" v="925298" />
		<tag k="waterway" v="stream" />
	</node>
	<node id="-128050" lat="65.6679472216" lon="11.9470444499">
		<tag k="name" v="Torsløken" />
		<tag k="natural" v="water" />
		<tag k="ssr:stedsnr" v="919750" />
		<tag k="water" v="lake" />
	</node>
	<node id="-127405" lat="65.6360500031" lon="11.9422305645">
		<tag k="name" v="Møllebekken" />
		<tag k="ssr:stedsnr" v="440357" />
		<tag k="waterway" v="stream" />
	</node>
	<node id="-128683" lat="65.6784916637" lon="11.8673166595">
		<tag k="name" v="Husvatnet" />
>>>>>>> e1d4bc35ff8a6074a6f2e91616a996b547c36f15
		<tag k="natural" v="water" />
		<tag k="ssr:stedsnr" v="865481" />
	</node>
<<<<<<< HEAD
	<node lat="65.64723333778537" lon="11.875838892818201" id="-10475">
		<tag k="name" v="Skiftingsbekken" />
		<tag k="ssr:stedsnr" v="964028" />
		<tag k="waterway" v="stream" />
	</node>
	<node lat="65.70653333504106" lon="11.896077787189919" id="-10500">
		<tag k="name" v="Roarstjønna" />
=======
	<node id="-127273" lat="65.6923083307" lon="12.0988749907">
		<tag k="alt_name" v="Nøkktjørna" />
		<tag k="name" v="Nøkktjønna" />
		<tag k="natural" v="water" />
		<tag k="ssr:stedsnr" v="258484" />
	</node>
	<node id="-129062" lat="65.627619442" lon="11.7992833409">
		<tag k="alt_name" v="Trolltindvatnet" />
		<tag k="name" v="Trollvatnet" />
		<tag k="natural" v="water" />
		<tag k="ssr:stedsnr" v="622316" />
	</node>
	<node id="-129189" lat="65.679980554" lon="12.0871666564">
		<tag k="name" v="Tjønnan" />
		<tag k="natural" v="water" />
		<tag k="ssr:stedsnr" v="782603" />
	</node>
	<node id="-127268" lat="65.6438249962" lon="11.9576194376">
		<tag k="name" v="Setneset" />
		<tag k="natural" v="cape" />
		<tag k="ssr:stedsnr" v="258301" />
	</node>
	<node id="-127686" lat="65.6719472243" lon="11.926644434">
		<tag k="name" v="Limåstjønna" />
		<tag k="natural" v="water" />
		<tag k="ssr:stedsnr" v="434730" />
	</node>
	<node id="-127915" lat="65.6882972208" lon="11.8993194407">
		<tag k="name" v="Skutåa" />
		<tag k="ssr:stedsnr" v="724924" />
		<tag k="waterway" v="stream" />
	</node>
	<node id="-127265" lat="65.6712527761" lon="11.9181638992">
		<tag k="name" v="Inntjørna" />
		<tag k="natural" v="water" />
		<tag k="ssr:stedsnr" v="258290" />
	</node>
	<node id="-128891" lat="65.6104583349" lon="11.9488027802">
		<tag k="name" v="Leirtjønna" />
		<tag k="natural" v="water" />
		<tag k="ssr:stedsnr" v="539145" />
	</node>
	<node id="-128287" lat="65.6545694437" lon="11.9746749914">
		<tag k="name" v="Sevatnet" />
		<tag k="natural" v="water" />
		<tag k="ssr:stedsnr" v="55482" />
	</node>
	<node id="-129181" lat="65.6413194425" lon="11.8754499955">
		<tag k="name" v="Langneset" />
		<tag k="natural" v="cape" />
		<tag k="ssr:stedsnr" v="782006" />
	</node>
	<node id="-128804" lat="65.6955416677" lon="11.9002638954">
		<tag k="alt_name" v="Overosen" />
		<tag k="name" v="Øver-Osen" />
>>>>>>> e1d4bc35ff8a6074a6f2e91616a996b547c36f15
		<tag k="natural" v="water" />
		<tag k="ssr:stedsnr" v="965823" />
	</node>
	<node id="-128085" lat="65.6447222196" lon="11.9067194498">
		<tag k="name" v="Bokstadbekken" />
		<tag k="ssr:stedsnr" v="926290" />
		<tag k="waterway" v="stream" />
	</node>
	<node id="-128141" lat="65.7017055564" lon="11.957205565">
		<tag k="name" v="Leirtjønna" />
		<tag k="natural" v="water" />
		<tag k="ssr:stedsnr" v="844816" />
	</node>
	<node id="-128911" lat="65.7039222232" lon="12.0182222226">
		<tag k="name" v="Sandtjønna" />
		<tag k="natural" v="water" />
		<tag k="ssr:stedsnr" v="540716" />
	</node>
	<node id="-128557" lat="65.6531722219" lon="11.9434472181">
		<tag k="alt_name" v="Einesfossen" />
		<tag k="name" v="Einesforsen" />
		<tag k="natural" v="waterfall" />
		<tag k="ssr:stedsnr" v="197334" />
	</node>
	<node id="-127884" lat="65.6149444444" lon="11.8402277723">
		<tag k="name" v="Mjølkmarkbekken" />
		<tag k="ssr:stedsnr" v="722253" />
		<tag k="waterway" v="stream" />
	</node>
	<node id="-129325" lat="65.6590027808" lon="11.9848305629">
		<tag k="name" v="Rotvatnet" />
		<tag k="natural" v="water" />
		<tag k="ssr:stedsnr" v="844498" />
	</node>
	<node id="-127753" lat="65.6650750043" lon="11.8853388812">
		<tag k="name" v="Karbuvatnet" />
		<tag k="natural" v="water" />
		<tag k="ssr:stedsnr" v="682285" />
	</node>
	<node id="-127496" lat="65.6960888917" lon="11.9550250049">
		<tag k="alt_name" v="Kjellarhågvatnet" />
		<tag k="name" v="Kjellarhaugvatnet" />
		<tag k="natural" v="water" />
		<tag k="ssr:stedsnr" v="258454" />
	</node>
	<node id="-127495" lat="65.6978861098" lon="11.8550444535">
		<tag k="name" v="Langklubbvalen" />
		<tag k="natural" v="water" />
		<tag k="ssr:stedsnr" v="258453" />
	</node>
	<node id="-128518" lat="65.658555556" lon="11.8861416605">
		<tag k="name" v="Grønbekken" />
		<tag k="ssr:stedsnr" v="176037" />
		<tag k="waterway" v="stream" />
	</node>
	<node id="-129069" lat="65.6198194411" lon="11.7652250076">
		<tag k="name" v="Nepsundbekken" />
		<tag k="ssr:stedsnr" v="622360" />
		<tag k="waterway" v="stream" />
	</node>
	<node id="-127979" lat="65.6516250035" lon="11.9438694467">
		<tag k="name" v="Einneset" />
		<tag k="natural" v="cape" />
		<tag k="ssr:stedsnr" v="904037" />
	</node>
</osm>
