<?xml version="1.0" encoding="UTF-8"?>
<<<<<<< HEAD
<osm version="0.6" generator="osmapis">
	<node lat="65.67247777605986" lon="11.891361106751932" id="-8251">
		<tag k="name" v="Øvre-Oksåsen" />
		<tag k="natural" v="hill" />
		<tag k="place" v="locality" />
		<tag k="ssr:stedsnr" v="8057" />
	</node>
	<node lat="65.6337583369361" lon="11.91512499387803" id="-8256">
		<tag k="name" v="Tåreslia" />
		<tag k="natural" v="slope" />
		<tag k="place" v="locality" />
		<tag k="ssr:stedsnr" v="15368" />
	</node>
	<node lat="65.65137222119567" lon="11.925713899458984" id="-8285">
		<tag k="name" v="Kjelhaugen" />
		<tag k="natural" v="hill" />
		<tag k="place" v="locality" />
		<tag k="ssr:stedsnr" v="236022" />
	</node>
	<node lat="65.6501611082977" lon="11.887291669711441" id="-8286">
		<tag k="name" v="Heståsen" />
		<tag k="natural" v="hill" />
		<tag k="place" v="locality" />
		<tag k="ssr:stedsnr" v="236025" />
	</node>
	<node lat="65.61139722388661" lon="11.855408328729695" id="-8288">
		<tag k="name" v="Sturushaugen" />
		<tag k="natural" v="hill" />
		<tag k="place" v="locality" />
		<tag k="ssr:stedsnr" v="236249" />
	</node>
	<node lat="65.64391389194833" lon="12.166755560907209" id="-8289">
		<tag k="name" v="Storhågjen" />
		<tag k="natural" v="hill" />
		<tag k="place" v="locality" />
		<tag k="ssr:stedsnr" v="236319" />
	</node>
	<node lat="65.66737777690017" lon="11.971361115184765" id="-8291">
		<tag k="name" v="Langåsen" />
		<tag k="natural" v="hill" />
		<tag k="place" v="locality" />
		<tag k="ssr:stedsnr" v="236956" />
	</node>
	<node lat="65.68335000296815" lon="12.103794451206559" id="-8292">
		<tag k="fixme" v="consider natural=peak for the most distinct mountains in the district" />
		<tag k="name" v="Ytterfjellet" />
		<tag k="natural" v="hill" />
		<tag k="place" v="locality" />
		<tag k="ssr:stedsnr" v="237322" />
	</node>
	<node lat="65.68275555496051" lon="12.011677770047477" id="-8293">
		<tag k="name" v="Monshågjen" />
=======
<osm generator="osmapis" version="0.6">
	<node id="-129023" lat="65.6588250023" lon="12.0265138801">
		<tag k="name" v="Rørøyhaugen" />
		<tag k="natural" v="hill" />
		<tag k="place" v="locality" />
		<tag k="ssr:stedsnr" v="621257" />
	</node>
	<node id="-129016" lat="65.6848555539" lon="11.923377769">
		<tag k="fixme" v="consider natural=peak for the most distinct mountains in the district" />
		<tag k="name" v="Kubbåsen" />
		<tag k="natural" v="hill" />
		<tag k="place" v="locality" />
		<tag k="ssr:stedsnr" v="622447" />
	</node>
	<node id="-129010" lat="65.6740027802" lon="11.9588638984">
		<tag k="name" v="Skolehågjen" />
		<tag k="natural" v="hill" />
		<tag k="place" v="locality" />
		<tag k="ssr:stedsnr" v="616790" />
	</node>
	<node id="-129009" lat="65.6757277781" lon="12.0750416737">
		<tag k="name" v="Huldergrova" />
		<tag k="natural" v="valley" />
		<tag k="place" v="locality" />
		<tag k="ssr:stedsnr" v="613639" />
	</node>
	<node id="-129008" lat="65.675752781" lon="12.0853277789">
		<tag k="name" v="Brattåsen" />
		<tag k="natural" v="hill" />
		<tag k="place" v="locality" />
		<tag k="ssr:stedsnr" v="612645" />
	</node>
	<node id="-129007" lat="65.6412000039" lon="12.176444442">
		<tag k="name" v="Skutneshågjen" />
		<tag k="natural" v="hill" />
		<tag k="place" v="locality" />
		<tag k="ssr:stedsnr" v="612362" />
	</node>
	<node id="-129006" lat="65.6426555544" lon="11.79258611">
		<tag k="name" v="Vegdalen" />
		<tag k="natural" v="valley" />
		<tag k="place" v="locality" />
		<tag k="ssr:stedsnr" v="602195" />
	</node>
	<node id="-129005" lat="65.6435416658" lon="11.7904944365">
		<tag k="name" v="Grindtrøa" />
		<tag k="place" v="locality" />
		<tag k="ssr:stedsnr" v="602192" />
	</node>
	<node id="-129003" lat="65.7018222246" lon="11.8693861175">
		<tag k="name" v="Aråsen" />
		<tag k="natural" v="hill" />
		<tag k="place" v="locality" />
		<tag k="ssr:stedsnr" v="600742" />
	</node>
	<node id="-128997" lat="65.6819861135" lon="12.0325111074">
		<tag k="name" v="Grønnhågjen" />
		<tag k="natural" v="hill" />
		<tag k="place" v="locality" />
		<tag k="ssr:stedsnr" v="600502" />
	</node>
	<node id="-128995" lat="65.6497388896" lon="11.9804916681">
		<tag k="name" v="Heståsheia" />
>>>>>>> e1d4bc35ff8a6074a6f2e91616a996b547c36f15
		<tag k="natural" v="hill" />
		<tag k="place" v="locality" />
		<tag k="ssr:stedsnr" v="600491" />
	</node>
<<<<<<< HEAD
	<node lat="65.65730555779207" lon="11.971216661942824" id="-8294">
		<tag k="name" v="Sjøheia" />
=======
	<node id="-128994" lat="65.6516027765" lon="11.9837916728">
		<tag k="name" v="Torvheia" />
>>>>>>> e1d4bc35ff8a6074a6f2e91616a996b547c36f15
		<tag k="natural" v="hill" />
		<tag k="place" v="locality" />
		<tag k="ssr:stedsnr" v="600486" />
	</node>
<<<<<<< HEAD
	<node lat="65.62101666469621" lon="11.96747222058022" id="-8296">
		<tag k="name" v="Flata" />
		<tag k="place" v="locality" />
		<tag k="ssr:stedsnr" v="237539" />
	</node>
	<node lat="65.70381667041373" lon="11.928577783405316" id="-8298">
		<tag k="name" v="Nesheian" />
		<tag k="natural" v="hill" />
		<tag k="place" v="locality" />
		<tag k="ssr:stedsnr" v="237816" />
	</node>
	<node lat="65.70297222256929" lon="11.899244439141972" id="-8299">
		<tag k="name" v="Brattåsen" />
		<tag k="natural" v="hill" />
		<tag k="place" v="locality" />
		<tag k="ssr:stedsnr" v="237823" />
	</node>
	<node lat="65.60966666609" lon="12.13250000635789" id="-8300">
		<tag k="name" v="Hamnhågjen" />
		<tag k="natural" v="hill" />
		<tag k="place" v="locality" />
		<tag k="ssr:stedsnr" v="238717" />
	</node>
	<node lat="65.60734999774482" lon="11.935741668022885" id="-8301">
		<tag k="name" v="Areva" />
		<tag k="natural" v="hill" />
		<tag k="place" v="locality" />
		<tag k="ssr:stedsnr" v="54183" />
	</node>
	<node lat="65.65555277746317" lon="11.792505559616778" id="-8305">
		<tag k="name" v="Stormolen" />
		<tag k="natural" v="ridge" />
		<tag k="place" v="locality" />
		<tag k="ssr:stedsnr" v="54221" />
	</node>
	<node lat="65.67842222631374" lon="12.120452770356515" id="-8309">
		<tag k="name" v="Sirihågjen" />
		<tag k="natural" v="hill" />
		<tag k="place" v="locality" />
		<tag k="ssr:stedsnr" v="55304" />
	</node>
	<node lat="65.63316666754453" lon="11.78238055364242" id="-8311">
		<tag k="name" v="Halstindlian" />
		<tag k="natural" v="slope" />
		<tag k="place" v="locality" />
		<tag k="ssr:stedsnr" v="55273" />
	</node>
	<node lat="65.6272138908172" lon="11.921475010729045" id="-8324">
		<tag k="fixme" v="consider natural=peak for the most distinct mountains in the district" />
		<tag k="name" v="Tømmeråsen" />
		<tag k="natural" v="hill" />
		<tag k="place" v="locality" />
		<tag k="ssr:stedsnr" v="76317" />
	</node>
	<node lat="65.61098333468317" lon="11.926880553071273" id="-8327">
		<tag k="fixme" v="consider natural=peak for the most distinct mountains in the district" />
		<tag k="name" v="Tårnet" />
		<tag k="natural" v="hill" />
		<tag k="place" v="locality" />
		<tag k="ssr:stedsnr" v="76356" />
	</node>
	<node lat="65.60500277357266" lon="11.888919443819916" id="-8328">
		<tag k="alt_name" v="Heian" />
		<tag k="name" v="Trollrevheian" />
		<tag k="natural" v="hill" />
		<tag k="place" v="locality" />
		<tag k="ssr:stedsnr" v="76359" />
	</node>
	<node lat="65.68524722455017" lon="11.839350001093326" id="-8340">
		<tag k="fixme" v="consider natural=peak for the most distinct mountains in the district" />
		<tag k="name" v="Kjelkdalspynten" />
		<tag k="natural" v="hill" />
		<tag k="place" v="locality" />
		<tag k="ssr:stedsnr" v="76466" />
	</node>
	<node lat="65.62598055719762" lon="11.842222229884818" id="-8372">
		<tag k="fixme" v="consider natural=peak for the most distinct mountains in the district" />
		<tag k="name" v="Vasstindan" />
		<tag k="natural" v="hill" />
		<tag k="place" v="locality" />
		<tag k="ssr:stedsnr" v="115212" />
	</node>
	<node lat="65.68483611302875" lon="11.877713879042794" id="-8377">
		<tag k="name" v="Brattåsen" />
		<tag k="natural" v="hill" />
		<tag k="place" v="locality" />
		<tag k="ssr:stedsnr" v="115781" />
	</node>
	<node lat="65.70821944162066" lon="11.896080559307043" id="-8379">
		<tag k="name" v="Nautøyåsen" />
		<tag k="natural" v="hill" />
		<tag k="place" v="locality" />
		<tag k="ssr:stedsnr" v="116820" />
	</node>
	<node lat="65.63494444489308" lon="12.180019453585128" id="-8381">
		<tag k="name" v="Molvikhågjen" />
		<tag k="natural" v="hill" />
		<tag k="place" v="locality" />
		<tag k="ssr:stedsnr" v="126307" />
	</node>
	<node lat="65.66727222124138" lon="11.903500004744902" id="-8383">
		<tag k="name" v="Almåsroa" />
		<tag k="place" v="locality" />
		<tag k="ssr:stedsnr" v="130703" />
	</node>
	<node lat="65.67256667044694" lon="11.928766676719368" id="-8384">
		<tag k="name" v="Bjørskåsbergan" />
		<tag k="natural" v="hill" />
		<tag k="place" v="locality" />
		<tag k="ssr:stedsnr" v="130718" />
	</node>
	<node lat="65.66477500257677" lon="11.95694167051598" id="-8385">
		<tag k="name" v="Sør-Snauåsen" />
		<tag k="natural" v="hill" />
		<tag k="place" v="locality" />
		<tag k="ssr:stedsnr" v="252753" />
	</node>
	<node lat="65.68051666913684" lon="11.958913900007893" id="-8387">
		<tag k="name" v="Aspåsen" />
		<tag k="natural" v="hill" />
		<tag k="place" v="locality" />
		<tag k="ssr:stedsnr" v="252762" />
	</node>
	<node lat="65.68641388682173" lon="12.007558337904097" id="-8409">
		<tag k="fixme" v="consider natural=peak for the most distinct mountains in the district" />
		<tag k="name" v="Vegsteinfjellet" />
		<tag k="natural" v="hill" />
		<tag k="place" v="locality" />
		<tag k="ssr:stedsnr" v="136501" />
	</node>
	<node lat="65.65396666401999" lon="11.825338895802597" id="-8443">
		<tag k="fixme" v="consider natural=peak for the most distinct mountains in the district" />
		<tag k="name" v="Røsstinden" />
		<tag k="natural" v="hill" />
		<tag k="place" v="locality" />
		<tag k="ssr:stedsnr" v="258322" />
	</node>
	<node lat="65.62561666424746" lon="11.862938881426013" id="-8445">
		<tag k="fixme" v="consider natural=peak for the most distinct mountains in the district" />
		<tag k="name" v="Vegtindan" />
		<tag k="natural" v="hill" />
		<tag k="place" v="locality" />
		<tag k="ssr:stedsnr" v="258328" />
	</node>
	<node lat="65.60454444564421" lon="11.927288888267837" id="-8481">
		<tag k="name" v="Trolldalen" />
		<tag k="natural" v="valley" />
		<tag k="place" v="locality" />
		<tag k="ssr:stedsnr" v="175164" />
	</node>
	<node lat="65.60940833588062" lon="11.943516675374934" id="-8482">
		<tag k="name" v="Meisskogheia" />
		<tag k="natural" v="hill" />
		<tag k="place" v="locality" />
		<tag k="ssr:stedsnr" v="175168" />
	</node>
	<node lat="65.65173888794524" lon="11.977352782551346" id="-8487">
		<tag k="name" v="Teppheia" />
		<tag k="natural" v="hill" />
		<tag k="place" v="locality" />
		<tag k="ssr:stedsnr" v="176472" />
	</node>
	<node lat="65.68998611118695" lon="11.946852781852837" id="-8488">
		<tag k="name" v="Brattåsen" />
		<tag k="natural" v="hill" />
		<tag k="place" v="locality" />
		<tag k="ssr:stedsnr" v="176802" />
	</node>
	<node lat="65.70269444333094" lon="11.932638896949914" id="-8489">
		<tag k="name" v="Lauberget" />
		<tag k="natural" v="hill" />
		<tag k="place" v="locality" />
		<tag k="ssr:stedsnr" v="176810" />
	</node>
	<node lat="65.66358610938711" lon="11.914800002652909" id="-8492">
		<tag k="name" v="Bergåsen" />
		<tag k="natural" v="hill" />
		<tag k="place" v="locality" />
		<tag k="ssr:stedsnr" v="191702" />
	</node>
	<node lat="65.67105555369324" lon="11.939824998552462" id="-8493">
		<tag k="name" v="Sisselåsen" />
		<tag k="natural" v="hill" />
		<tag k="place" v="locality" />
		<tag k="ssr:stedsnr" v="191707" />
	</node>
	<node lat="65.59388888648283" lon="11.902858327863358" id="-8494">
		<tag k="fixme" v="consider natural=peak for the most distinct mountains in the district" />
		<tag k="name" v="Storhaugen" />
		<tag k="natural" v="hill" />
		<tag k="place" v="locality" />
		<tag k="ssr:stedsnr" v="197158" />
	</node>
	<node lat="65.60503888540481" lon="11.905508339049256" id="-8531">
		<tag k="name" v="Vebergan" />
		<tag k="natural" v="hill" />
		<tag k="place" v="locality" />
		<tag k="ssr:stedsnr" v="236187" />
	</node>
	<node lat="65.60030278001034" lon="11.933102776149775" id="-8558">
		<tag k="fixme" v="consider natural=peak for the most distinct mountains in the district" />
		<tag k="name" v="Laukhammaren" />
		<tag k="natural" v="hill" />
		<tag k="place" v="locality" />
		<tag k="ssr:stedsnr" v="258156" />
	</node>
	<node lat="65.66200555935822" lon="11.863127783260028" id="-8581">
		<tag k="fixme" v="consider natural=peak for the most distinct mountains in the district" />
		<tag k="name" v="Aksla" />
		<tag k="natural" v="hill" />
		<tag k="place" v="locality" />
		<tag k="ssr:stedsnr" v="258270" />
	</node>
	<node lat="65.6945388847881" lon="12.067211118782632" id="-8586">
		<tag k="name" v="Klubben" />
		<tag k="natural" v="hill" />
		<tag k="place" v="locality" />
		<tag k="ssr:stedsnr" v="258429" />
	</node>
	<node lat="65.68039999861472" lon="11.987463887743482" id="-8613">
		<tag k="name" v="Kråkheia" />
		<tag k="natural" v="hill" />
		<tag k="place" v="locality" />
		<tag k="ssr:stedsnr" v="297519" />
	</node>
	<node lat="65.68757778112692" lon="12.09307776925046" id="-8614">
		<tag k="name" v="Olderskogheian" />
		<tag k="natural" v="hill" />
		<tag k="place" v="locality" />
		<tag k="ssr:stedsnr" v="297624" />
	</node>
	<node lat="65.68911666654749" lon="11.985002778113186" id="-8615">
		<tag k="name" v="Blakkheia" />
		<tag k="natural" v="hill" />
		<tag k="place" v="locality" />
		<tag k="ssr:stedsnr" v="297732" />
	</node>
	<node lat="65.68095833566858" lon="11.884769452784141" id="-8616">
		<tag k="name" v="Labruåsen" />
		<tag k="natural" v="hill" />
		<tag k="place" v="locality" />
		<tag k="ssr:stedsnr" v="297783" />
	</node>
	<node lat="65.62968055731969" lon="12.154372214174614" id="-8617">
		<tag k="name" v="Bussvalheian" />
		<tag k="natural" v="hill" />
		<tag k="place" v="locality" />
		<tag k="ssr:stedsnr" v="299286" />
	</node>
	<node lat="65.60045278035376" lon="12.142016667211854" id="-8618">
		<tag k="name" v="Salvikheia" />
		<tag k="natural" v="hill" />
		<tag k="place" v="locality" />
		<tag k="ssr:stedsnr" v="299712" />
	</node>
	<node lat="65.63212778124483" lon="12.176025006963613" id="-8643">
		<tag k="name" v="Middagshaugen" />
		<tag k="natural" v="hill" />
		<tag k="place" v="locality" />
		<tag k="ssr:stedsnr" v="319312" />
	</node>
	<node lat="65.61436388614379" lon="11.90293056424843" id="-8664">
		<tag k="name" v="Heia" />
		<tag k="natural" v="slope" />
		<tag k="place" v="locality" />
		<tag k="ssr:stedsnr" v="357167" />
	</node>
	<node lat="65.6769472209683" lon="12.114902774277382" id="-8666">
		<tag k="name" v="Jektvikhågjen" />
		<tag k="natural" v="hill" />
		<tag k="place" v="locality" />
		<tag k="ssr:stedsnr" v="357316" />
	</node>
	<node lat="65.60315278132524" lon="11.85130833663987" id="-8668">
		<tag k="name" v="Skarvberghaugen" />
		<tag k="natural" v="hill" />
		<tag k="place" v="locality" />
		<tag k="ssr:stedsnr" v="358203" />
	</node>
	<node lat="65.68129444097416" lon="12.104686108050945" id="-8672">
		<tag k="name" v="Igerøydalen" />
		<tag k="natural" v="valley" />
		<tag k="place" v="locality" />
		<tag k="ssr:stedsnr" v="358306" />
	</node>
	<node lat="65.67971944628411" lon="12.02365278021762" id="-8677">
		<tag k="name" v="Falkmannheia" />
		<tag k="natural" v="hill" />
		<tag k="place" v="locality" />
		<tag k="ssr:stedsnr" v="358555" />
	</node>
	<node lat="65.6906666653495" lon="11.90444445054799" id="-8678">
		<tag k="name" v="Toskillingsholten" />
		<tag k="natural" v="hill" />
		<tag k="place" v="locality" />
		<tag k="ssr:stedsnr" v="358802" />
	</node>
	<node lat="65.70251388572733" lon="11.923024988933765" id="-8680">
		<tag k="name" v="Trollberget" />
		<tag k="natural" v="hill" />
		<tag k="place" v="locality" />
		<tag k="ssr:stedsnr" v="358817" />
	</node>
	<node lat="65.69136110821363" lon="11.966808335451002" id="-8681">
		<tag k="name" v="Steinåsen" />
		<tag k="natural" v="hill" />
		<tag k="place" v="locality" />
		<tag k="ssr:stedsnr" v="358751" />
	</node>
	<node lat="65.63896944286961" lon="12.180836104760488" id="-8682">
		<tag k="name" v="Rokneshågjen" />
		<tag k="natural" v="hill" />
		<tag k="place" v="locality" />
		<tag k="ssr:stedsnr" v="369313" />
	</node>
	<node lat="65.67014722615932" lon="11.88950277515116" id="-8683">
		<tag k="name" v="Boltåsen" />
		<tag k="natural" v="hill" />
		<tag k="place" v="locality" />
		<tag k="ssr:stedsnr" v="479047" />
	</node>
	<node lat="65.66905277736689" lon="12.095058339993868" id="-8688">
		<tag k="name" v="Jektvikhaugen" />
		<tag k="natural" v="hill" />
		<tag k="place" v="locality" />
		<tag k="ssr:stedsnr" v="370676" />
	</node>
	<node lat="65.68654722381311" lon="12.127722213029354" id="-8693">
		<tag k="name" v="Sjåvikhågjen" />
		<tag k="natural" v="hill" />
		<tag k="place" v="locality" />
		<tag k="ssr:stedsnr" v="479401" />
	</node>
	<node lat="65.65926944809442" lon="11.965819447944943" id="-8694">
		<tag k="name" v="Rotåsen" />
		<tag k="natural" v="hill" />
		<tag k="place" v="locality" />
		<tag k="ssr:stedsnr" v="479486" />
	</node>
	<node lat="65.66158888565444" lon="11.97516389879452" id="-8695">
		<tag k="name" v="Lissforråsen" />
		<tag k="natural" v="hill" />
		<tag k="place" v="locality" />
		<tag k="ssr:stedsnr" v="479487" />
	</node>
	<node lat="65.7048166680278" lon="11.903941665451542" id="-8701">
		<tag k="name" v="Maglihågjen" />
		<tag k="natural" v="hill" />
		<tag k="place" v="locality" />
		<tag k="ssr:stedsnr" v="479831" />
	</node>
	<node lat="65.68838611068321" lon="11.87652778464043" id="-8702">
		<tag k="name" v="Valldalen" />
		<tag k="natural" v="valley" />
		<tag k="place" v="locality" />
		<tag k="ssr:stedsnr" v="479803" />
	</node>
	<node lat="65.61461944436782" lon="11.796230562182817" id="-8717">
		<tag k="alt_name" v="Askålia" />
		<tag k="name" v="Askolia" />
		<tag k="natural" v="slope" />
		<tag k="place" v="locality" />
		<tag k="ssr:stedsnr" v="379366" />
	</node>
	<node lat="65.62092500207584" lon="11.86465832466859" id="-8718">
		<tag k="alt_name" v="Kamman" />
		<tag k="name" v="Kammen" />
		<tag k="place" v="locality" />
		<tag k="ssr:stedsnr" v="379369" />
	</node>
	<node lat="65.67782499595992" lon="11.820472231780368" id="-8747">
		<tag k="name" v="Eldhusheia" />
		<tag k="natural" v="hill" />
		<tag k="place" v="locality" />
		<tag k="ssr:stedsnr" v="418207" />
	</node>
	<node lat="65.68992222025581" lon="12.094783328798691" id="-8749">
		<tag k="name" v="Gåsvikheian" />
		<tag k="natural" v="hill" />
		<tag k="place" v="locality" />
		<tag k="ssr:stedsnr" v="418616" />
	</node>
	<node lat="65.69251944675007" lon="11.891508334507787" id="-8751">
		<tag k="name" v="Aterbrattåsen" />
		<tag k="natural" v="hill" />
		<tag k="place" v="locality" />
		<tag k="ssr:stedsnr" v="418786" />
	</node>
	<node lat="65.69135555502291" lon="11.938099995281371" id="-8752">
		<tag k="name" v="Fjøshågjen" />
		<tag k="natural" v="hill" />
		<tag k="place" v="locality" />
		<tag k="ssr:stedsnr" v="418792" />
	</node>
	<node lat="65.68718055265907" lon="11.919352774665917" id="-8753">
		<tag k="name" v="Krokåsen" />
		<tag k="natural" v="hill" />
		<tag k="place" v="locality" />
		<tag k="ssr:stedsnr" v="418800" />
	</node>
	<node lat="65.62416666258844" lon="12.171355563130204" id="-8758">
		<tag k="name" v="Juvikheia" />
		<tag k="natural" v="hill" />
		<tag k="place" v="locality" />
		<tag k="ssr:stedsnr" v="421701" />
	</node>
	<node lat="65.6809944462402" lon="12.084902787620292" id="-8759">
		<tag k="name" v="Sisselåsen" />
		<tag k="natural" v="hill" />
		<tag k="place" v="locality" />
		<tag k="ssr:stedsnr" v="431648" />
	</node>
	<node lat="65.67864721870323" lon="12.080241665339853" id="-8760">
		<tag k="name" v="Stakkåsen" />
		<tag k="natural" v="hill" />
		<tag k="place" v="locality" />
		<tag k="ssr:stedsnr" v="491634" />
	</node>
	<node lat="65.67774722069034" lon="12.072797212448704" id="-8761">
		<tag k="name" v="Valåsen" />
		<tag k="natural" v="hill" />
		<tag k="place" v="locality" />
		<tag k="ssr:stedsnr" v="491653" />
	</node>
	<node lat="65.62461944582535" lon="12.15569444573034" id="-8771">
		<tag k="name" v="Stornonshaugen" />
		<tag k="natural" v="hill" />
		<tag k="place" v="locality" />
		<tag k="ssr:stedsnr" v="440394" />
	</node>
	<node lat="65.67859722347735" lon="11.934555553068648" id="-8790">
		<tag k="name" v="Lauvåsen" />
		<tag k="natural" v="hill" />
		<tag k="place" v="locality" />
		<tag k="ssr:stedsnr" v="494754" />
	</node>
	<node lat="65.6510416685628" lon="11.91121389780121" id="-8797">
		<tag k="name" v="Øverforsheia" />
		<tag k="natural" v="hill" />
		<tag k="place" v="locality" />
		<tag k="ssr:stedsnr" v="468015" />
	</node>
	<node lat="65.66349166941578" lon="11.963222217638926" id="-8798">
		<tag k="name" v="Sør-Taushågjen" />
		<tag k="natural" v="hill" />
		<tag k="place" v="locality" />
		<tag k="ssr:stedsnr" v="676769" />
	</node>
	<node lat="65.70090277937618" lon="11.921275007697655" id="-8803">
		<tag k="name" v="Middagshaugen" />
		<tag k="natural" v="hill" />
		<tag k="place" v="locality" />
		<tag k="ssr:stedsnr" v="479828" />
	</node>
	<node lat="65.68271389208716" lon="11.904869435218735" id="-8805">
		<tag k="name" v="Kløftåsen" />
		<tag k="natural" v="hill" />
		<tag k="place" v="locality" />
		<tag k="ssr:stedsnr" v="481775" />
	</node>
	<node lat="65.60559444791053" lon="12.153755547839603" id="-8811">
		<tag k="fixme" v="consider natural=peak for the most distinct mountains in the district" />
		<tag k="name" v="Heståsen" />
		<tag k="natural" v="hill" />
		<tag k="place" v="locality" />
		<tag k="ssr:stedsnr" v="500143" />
	</node>
	<node lat="65.64093055828442" lon="11.903880560306021" id="-8817">
		<tag k="name" v="Stordalen" />
		<tag k="natural" v="valley" />
		<tag k="place" v="locality" />
		<tag k="ssr:stedsnr" v="500339" />
	</node>
	<node lat="65.61785833043747" lon="11.869144451930634" id="-8831">
		<tag k="fixme" v="consider natural=peak for the most distinct mountains in the district" />
		<tag k="name" v="Ørnheia" />
		<tag k="natural" v="hill" />
		<tag k="place" v="locality" />
		<tag k="ssr:stedsnr" v="744311" />
	</node>
	<node lat="65.61686666524581" lon="11.939883337492445" id="-8846">
		<tag k="fixme" v="consider natural=peak for the most distinct mountains in the district" />
		<tag k="name" v="Kjulsveten" />
		<tag k="natural" v="hill" />
		<tag k="place" v="locality" />
		<tag k="ssr:stedsnr" v="744314" />
	</node>
	<node lat="65.62627500396547" lon="11.812894443569714" id="-8878">
		<tag k="alt_name" v="Trollvasstindan" />
		<tag k="fixme" v="consider natural=peak for the most distinct mountains in the district" />
		<tag k="name" v="Trollvasstinden" />
		<tag k="natural" v="hill" />
		<tag k="place" v="locality" />
		<tag k="ssr:stedsnr" v="683295" />
	</node>
	<node lat="65.64617500401879" lon="11.855555559975459" id="-8906">
		<tag k="name" v="Moheia" />
		<tag k="natural" v="hill" />
		<tag k="place" v="locality" />
		<tag k="ssr:stedsnr" v="540004" />
	</node>
	<node lat="65.65608055750867" lon="11.963213893636448" id="-8907">
		<tag k="name" v="Falkmannsheia" />
		<tag k="natural" v="hill" />
		<tag k="place" v="locality" />
		<tag k="ssr:stedsnr" v="540067" />
	</node>
	<node lat="65.62898610792942" lon="11.768108324905029" id="-8909">
		<tag k="name" v="Våtskogan" />
		<tag k="natural" v="slope" />
		<tag k="place" v="locality" />
		<tag k="ssr:stedsnr" v="540270" />
	</node>
	<node lat="65.63406111091432" lon="11.776444454655772" id="-8910">
		<tag k="name" v="Trondsheia" />
		<tag k="natural" v="slope" />
		<tag k="place" v="locality" />
		<tag k="ssr:stedsnr" v="540271" />
	</node>
	<node lat="65.70380833270059" lon="11.90355833322228" id="-8915">
		<tag k="name" v="Vetåsen" />
		<tag k="natural" v="hill" />
		<tag k="place" v="locality" />
		<tag k="ssr:stedsnr" v="540813" />
	</node>
	<node lat="65.68636110824454" lon="11.872652774361603" id="-8916">
		<tag k="name" v="Geitviåsen" />
		<tag k="natural" v="hill" />
		<tag k="place" v="locality" />
		<tag k="ssr:stedsnr" v="540775" />
	</node>
	<node lat="65.69705277987993" lon="11.84847500744519" id="-8918">
		<tag k="name" v="Rundklubben" />
		<tag k="natural" v="hill" />
		<tag k="place" v="locality" />
		<tag k="ssr:stedsnr" v="540788" />
	</node>
	<node lat="65.61624722633881" lon="12.13673610715884" id="-8922">
		<tag k="name" v="Slåttvikheia" />
		<tag k="natural" v="hill" />
		<tag k="place" v="locality" />
		<tag k="ssr:stedsnr" v="542706" />
	</node>
	<node lat="65.6824444480507" lon="11.958799998739446" id="-8923">
		<tag k="name" v="Tverråsen" />
		<tag k="natural" v="hill" />
		<tag k="place" v="locality" />
		<tag k="ssr:stedsnr" v="542785" />
	</node>
	<node lat="65.60237499725059" lon="12.141111119581739" id="-8924">
		<tag k="name" v="Risihaugen" />
		<tag k="natural" v="hill" />
		<tag k="place" v="locality" />
		<tag k="ssr:stedsnr" v="542685" />
	</node>
	<node lat="65.67553333472185" lon="12.098236108364942" id="-8925">
		<tag k="name" v="Liklaven" />
		<tag k="natural" v="hill" />
		<tag k="place" v="locality" />
		<tag k="ssr:stedsnr" v="551639" />
	</node>
	<node lat="65.66687221843695" lon="12.018766660760306" id="-8926">
		<tag k="name" v="Aspen" />
		<tag k="natural" v="hill" />
		<tag k="place" v="locality" />
		<tag k="ssr:stedsnr" v="556572" />
	</node>
	<node lat="65.61517499999147" lon="11.8367000046246" id="-8937">
		<tag k="name" v="Hestmarkheia" />
		<tag k="natural" v="hill" />
		<tag k="place" v="locality" />
		<tag k="ssr:stedsnr" v="600250" />
	</node>
	<node lat="65.68198611348856" lon="12.0325111073971" id="-8939">
		<tag k="name" v="Grønnhågjen" />
		<tag k="natural" v="hill" />
		<tag k="place" v="locality" />
		<tag k="ssr:stedsnr" v="600502" />
	</node>
	<node lat="65.67400278021704" lon="11.958863898416375" id="-8948">
		<tag k="name" v="Skolehågjen" />
		<tag k="natural" v="hill" />
		<tag k="place" v="locality" />
		<tag k="ssr:stedsnr" v="616790" />
	</node>
	<node lat="65.63923611229669" lon="12.168824995202566" id="-8967">
		<tag k="alt_name" v="Vardberget" />
		<tag k="name" v="Valhaugen" />
		<tag k="natural" v="hill" />
		<tag k="place" v="locality" />
		<tag k="ssr:stedsnr" v="622315" />
	</node>
	<node lat="65.64360555216803" lon="11.87411388418895" id="-8997">
		<tag k="name" v="Kirstendalen" />
		<tag k="natural" v="valley" />
		<tag k="place" v="locality" />
		<tag k="ssr:stedsnr" v="661005" />
	</node>
	<node lat="65.67752777375264" lon="12.120727770040816" id="-8999">
		<tag k="name" v="Stanghågjen" />
		<tag k="natural" v="hill" />
		<tag k="place" v="locality" />
		<tag k="ssr:stedsnr" v="661298" />
	</node>
	<node lat="65.67968333326023" lon="12.093030562824222" id="-9001">
		<tag k="name" v="Andåsheia" />
		<tag k="natural" v="hill" />
		<tag k="place" v="locality" />
		<tag k="ssr:stedsnr" v="661603" />
	</node>
	<node lat="65.69970000154552" lon="11.926669448969072" id="-9002">
		<tag k="name" v="Tussberget" />
		<tag k="natural" v="hill" />
=======
	<node id="-128991" lat="65.683963887" lon="12.121522227">
		<tag k="name" v="Langhågjen" />
		<tag k="natural" v="hill" />
		<tag k="place" v="locality" />
		<tag k="ssr:stedsnr" v="600331" />
	</node>
	<node id="-128988" lat="65.615175" lon="11.8367000046">
		<tag k="name" v="Hestmarkheia" />
		<tag k="natural" v="hill" />
		<tag k="place" v="locality" />
		<tag k="ssr:stedsnr" v="600250" />
	</node>
	<node id="-128987" lat="65.6130527795" lon="11.8875888826">
		<tag k="name" v="Tofte" />
		<tag k="place" v="locality" />
		<tag k="ssr:stedsnr" v="600234" />
	</node>
	<node id="-128985" lat="65.625008334" lon="11.9641972298">
		<tag k="name" v="Kleiva" />
		<tag k="natural" v="slope" />
		<tag k="place" v="locality" />
		<tag k="ssr:stedsnr" v="600078" />
	</node>
	<node id="-128984" lat="65.6221305557" lon="11.9710000079">
		<tag k="name" v="Storhaugen" />
		<tag k="natural" v="hill" />
		<tag k="place" v="locality" />
		<tag k="ssr:stedsnr" v="600390" />
	</node>
	<node id="-128950" lat="65.6779861068" lon="12.1015611071">
		<tag k="fixme" v="multiple name tags, choose one and add the other to alt_name; consider natural=peak for the most distinct mountains in the district" />
		<tag k="name" v="Ørntuva;Bøfjellet" />
		<tag k="natural" v="hill" />
		<tag k="place" v="locality" />
		<tag k="ssr:stedsnr" v="561487" />
	</node>
	<node id="-128949" lat="65.6335055539" lon="11.7906999936">
		<tag k="fixme" v="consider natural=peak for the most distinct mountains in the district" />
		<tag k="name" v="Krokskavlen" />
		<tag k="natural" v="hill" />
		<tag k="place" v="locality" />
		<tag k="ssr:stedsnr" v="561350" />
	</node>
	<node id="-128944" lat="65.6248305516" lon="11.8339277804">
		<tag k="fixme" v="consider natural=peak for the most distinct mountains in the district" />
		<tag k="name" v="Hestbaken" />
		<tag k="natural" v="hill" />
		<tag k="place" v="locality" />
		<tag k="ssr:stedsnr" v="561332" />
	</node>
	<node id="-128936" lat="65.665175004" lon="12.0086638873">
		<tag k="alt_name" v="Rundhågjen" />
		<tag k="name" v="Rundhaugen" />
		<tag k="natural" v="hill" />
		<tag k="place" v="locality" />
		<tag k="ssr:stedsnr" v="561287" />
	</node>
	<node id="-128929" lat="65.6657333308" lon="11.9057972246">
		<tag k="name" v="Almåsen" />
		<tag k="natural" v="hill" />
		<tag k="place" v="locality" />
		<tag k="ssr:stedsnr" v="555727" />
	</node>
	<node id="-128928" lat="65.6747083357" lon="11.8900944441">
		<tag k="name" v="Nedre-Oksåsen" />
		<tag k="natural" v="hill" />
		<tag k="place" v="locality" />
		<tag k="ssr:stedsnr" v="554039" />
	</node>
	<node id="-128926" lat="65.6755333347" lon="12.0982361084">
		<tag k="name" v="Liklaven" />
		<tag k="natural" v="hill" />
		<tag k="place" v="locality" />
		<tag k="ssr:stedsnr" v="551639" />
	</node>
	<node id="-128925" lat="65.6162472263" lon="12.1367361072">
		<tag k="name" v="Slåttvikheia" />
		<tag k="natural" v="hill" />
		<tag k="place" v="locality" />
		<tag k="ssr:stedsnr" v="542706" />
	</node>
	<node id="-128924" lat="65.6084388908" lon="12.1376055663">
		<tag k="name" v="Ytterhågjen" />
		<tag k="natural" v="hill" />
		<tag k="place" v="locality" />
		<tag k="ssr:stedsnr" v="542700" />
	</node>
	<node id="-128923" lat="65.6304638859" lon="12.1740972113">
		<tag k="name" v="Vardan" />
		<tag k="natural" v="hill" />
		<tag k="place" v="locality" />
		<tag k="ssr:stedsnr" v="542699" />
	</node>
	<node id="-128922" lat="65.6282777793" lon="12.1629388812">
		<tag k="name" v="Liss-Nonshågjen" />
		<tag k="natural" v="hill" />
		<tag k="place" v="locality" />
		<tag k="ssr:stedsnr" v="542696" />
	</node>
	<node id="-128920" lat="65.6824444481" lon="11.9587999987">
		<tag k="name" v="Tverråsen" />
		<tag k="natural" v="hill" />
		<tag k="place" v="locality" />
		<tag k="ssr:stedsnr" v="542785" />
	</node>
	<node id="-128919" lat="65.6023749973" lon="12.1411111196">
		<tag k="name" v="Risihaugen" />
		<tag k="natural" v="hill" />
		<tag k="place" v="locality" />
		<tag k="ssr:stedsnr" v="542685" />
	</node>
	<node id="-128914" lat="65.6970527799" lon="11.8484750074">
		<tag k="name" v="Rundklubben" />
		<tag k="natural" v="hill" />
		<tag k="place" v="locality" />
		<tag k="ssr:stedsnr" v="540788" />
	</node>
	<node id="-128912" lat="65.6933944471" lon="12.0998555665">
		<tag k="name" v="Nøkktjønnheian" />
		<tag k="natural" v="hill" />
		<tag k="place" v="locality" />
		<tag k="ssr:stedsnr" v="540729" />
	</node>
	<node id="-128910" lat="65.6863611082" lon="11.8726527744">
		<tag k="name" v="Geitviåsen" />
		<tag k="natural" v="hill" />
		<tag k="place" v="locality" />
		<tag k="ssr:stedsnr" v="540775" />
	</node>
	<node id="-128909" lat="65.6909916699" lon="11.8408944437">
		<tag k="name" v="Restua" />
		<tag k="natural" v="hill" />
		<tag k="place" v="locality" />
		<tag k="ssr:stedsnr" v="540768" />
	</node>
	<node id="-128906" lat="65.6603944423" lon="11.9782638905">
		<tag k="name" v="Forråsen" />
		<tag k="natural" v="hill" />
		<tag k="place" v="locality" />
		<tag k="ssr:stedsnr" v="540498" />
	</node>
	<node id="-128903" lat="65.6924694415" lon="12.1057083391">
		<tag k="name" v="Nerheian" />
		<tag k="natural" v="hill" />
		<tag k="place" v="locality" />
		<tag k="ssr:stedsnr" v="540380" />
	</node>
	<node id="-128902" lat="65.6560805575" lon="11.9632138936">
		<tag k="name" v="Falkmannsheia" />
		<tag k="natural" v="hill" />
		<tag k="place" v="locality" />
		<tag k="ssr:stedsnr" v="540067" />
	</node>
	<node id="-128901" lat="65.6605861089" lon="11.8935805655">
		<tag k="name" v="Steinåsen" />
		<tag k="natural" v="hill" />
		<tag k="place" v="locality" />
		<tag k="ssr:stedsnr" v="540042" />
	</node>
	<node id="-128900" lat="65.6340611109" lon="11.7764444547">
		<tag k="name" v="Trondsheia" />
		<tag k="natural" v="slope" />
		<tag k="place" v="locality" />
		<tag k="ssr:stedsnr" v="540271" />
	</node>
	<node id="-128899" lat="65.6289861079" lon="11.7681083249">
		<tag k="name" v="Våtskogan" />
		<tag k="natural" v="slope" />
		<tag k="place" v="locality" />
		<tag k="ssr:stedsnr" v="540270" />
	</node>
	<node id="-128897" lat="65.6473277745" lon="11.8691611022">
		<tag k="name" v="Tussheia" />
		<tag k="natural" v="hill" />
		<tag k="place" v="locality" />
		<tag k="ssr:stedsnr" v="540001" />
	</node>
	<node id="-128895" lat="65.6893333352" lon="11.9246638989">
		<tag k="name" v="Faueltrappen" />
		<tag k="natural" v="hill" />
		<tag k="place" v="locality" />
		<tag k="ssr:stedsnr" v="539795" />
	</node>
	<node id="-128892" lat="65.6107166663" lon="11.7931694534">
		<tag k="name" v="Juvikhågjen" />
		<tag k="natural" v="hill" />
		<tag k="place" v="locality" />
		<tag k="ssr:stedsnr" v="539245" />
	</node>
	<node id="-128890" lat="65.6728138863" lon="11.8804694485">
		<tag k="name" v="Tussåsen" />
		<tag k="natural" v="hill" />
		<tag k="place" v="locality" />
		<tag k="ssr:stedsnr" v="433054" />
	</node>
	<node id="-128889" lat="65.6818944411" lon="12.0378027811">
		<tag k="name" v="Merraflåget" />
		<tag k="natural" v="hill" />
		<tag k="place" v="locality" />
		<tag k="ssr:stedsnr" v="431683" />
	</node>
	<node id="-128888" lat="65.6760638915" lon="12.0450083392">
		<tag k="name" v="Storhaugen" />
		<tag k="natural" v="hill" />
		<tag k="place" v="locality" />
		<tag k="ssr:stedsnr" v="431678" />
	</node>
	<node id="-128885" lat="65.6809944462" lon="12.0849027876">
		<tag k="name" v="Sisselåsen" />
		<tag k="natural" v="hill" />
		<tag k="place" v="locality" />
		<tag k="ssr:stedsnr" v="431648" />
	</node>
	<node id="-128884" lat="65.6241666626" lon="12.1713555631">
		<tag k="name" v="Juvikheia" />
		<tag k="natural" v="hill" />
		<tag k="place" v="locality" />
		<tag k="ssr:stedsnr" v="421701" />
	</node>
	<node id="-128877" lat="65.6566722266" lon="12.0544083271">
		<tag k="name" v="Rundhaugen" />
		<tag k="natural" v="hill" />
		<tag k="place" v="locality" />
		<tag k="ssr:stedsnr" v="419661" />
	</node>
	<node id="-128875" lat="65.6437749999" lon="11.9405638865">
		<tag k="name" v="Sisselberget" />
		<tag k="natural" v="hill" />
		<tag k="place" v="locality" />
		<tag k="ssr:stedsnr" v="419056" />
	</node>
	<node id="-128873" lat="65.6871805527" lon="11.9193527747">
		<tag k="name" v="Krokåsen" />
		<tag k="natural" v="hill" />
		<tag k="place" v="locality" />
		<tag k="ssr:stedsnr" v="418800" />
	</node>
	<node id="-128872" lat="65.691355555" lon="11.9380999953">
		<tag k="name" v="Fjøshågjen" />
		<tag k="natural" v="hill" />
		<tag k="place" v="locality" />
		<tag k="ssr:stedsnr" v="418792" />
	</node>
	<node id="-128871" lat="65.6925194468" lon="11.8915083345">
		<tag k="name" v="Aterbrattåsen" />
		<tag k="natural" v="hill" />
		<tag k="place" v="locality" />
		<tag k="ssr:stedsnr" v="418786" />
	</node>
	<node id="-128868" lat="65.6936611079" lon="11.8385305494">
		<tag k="name" v="Brandsåsen" />
		<tag k="natural" v="hill" />
		<tag k="place" v="locality" />
		<tag k="ssr:stedsnr" v="418776" />
	</node>
	<node id="-128866" lat="65.6898805594" lon="11.8449805522">
		<tag k="name" v="Sjøkleiva" />
		<tag k="natural" v="slope" />
>>>>>>> e1d4bc35ff8a6074a6f2e91616a996b547c36f15
		<tag k="place" v="locality" />
		<tag k="ssr:stedsnr" v="661832" />
	</node>
<<<<<<< HEAD
	<node lat="65.69803889205642" lon="11.927408344533307" id="-9005">
		<tag k="name" v="Stor-Ravnberget" />
=======
	<node id="-128865" lat="65.6844194426" lon="11.8176999896">
		<tag k="name" v="Langmyrheia" />
>>>>>>> e1d4bc35ff8a6074a6f2e91616a996b547c36f15
		<tag k="natural" v="hill" />
		<tag k="place" v="locality" />
		<tag k="ssr:stedsnr" v="661791" />
	</node>
<<<<<<< HEAD
	<node lat="65.64541944666782" lon="11.979661105340469" id="-9028">
		<tag k="name" v="Storheia" />
		<tag k="natural" v="hill" />
		<tag k="place" v="locality" />
		<tag k="ssr:stedsnr" v="683275" />
	</node>
	<node lat="65.64912221891471" lon="11.897947224097457" id="-9054">
		<tag k="name" v="Merrabeinholten" />
		<tag k="natural" v="hill" />
=======
	<node id="-128864" lat="65.6132611068" lon="11.9039833352">
		<tag k="fixme" v="consider natural=peak for the most distinct mountains in the district" />
		<tag k="name" v="Middagsskarheia" />
		<tag k="natural" v="hill" />
		<tag k="place" v="locality" />
		<tag k="ssr:stedsnr" v="418168" />
	</node>
	<node id="-128794" lat="65.6209250021" lon="11.8646583247">
		<tag k="alt_name" v="Kamman" />
		<tag k="name" v="Kammen" />
		<tag k="place" v="locality" />
		<tag k="ssr:stedsnr" v="379369" />
	</node>
	<node id="-128793" lat="65.6146194444" lon="11.7962305622">
		<tag k="alt_name" v="Askålia" />
		<tag k="name" v="Askolia" />
		<tag k="natural" v="slope" />
		<tag k="place" v="locality" />
		<tag k="ssr:stedsnr" v="379366" />
	</node>
	<node id="-128791" lat="65.6131361079" lon="11.8635194452">
		<tag k="name" v="Skardet" />
		<tag k="natural" v="valley" />
>>>>>>> e1d4bc35ff8a6074a6f2e91616a996b547c36f15
		<tag k="place" v="locality" />
		<tag k="ssr:stedsnr" v="722021" />
	</node>
<<<<<<< HEAD
	<node lat="65.65775555622986" lon="11.910636118807751" id="-9056">
		<tag k="name" v="Heggåsen" />
		<tag k="natural" v="hill" />
=======
	<node id="-128789" lat="65.6273027774" lon="11.9531500032">
		<tag k="name" v="Skavdalen" />
		<tag k="natural" v="valley" />
>>>>>>> e1d4bc35ff8a6074a6f2e91616a996b547c36f15
		<tag k="place" v="locality" />
		<tag k="ssr:stedsnr" v="722035" />
	</node>
<<<<<<< HEAD
	<node lat="65.67542222288844" lon="11.852230545757992" id="-9057">
		<tag k="name" v="Nonslia" />
		<tag k="natural" v="slope" />
=======
	<node id="-128788" lat="65.6307333346" lon="11.9689527671">
		<tag k="alt_name" v="Floaskaret" />
		<tag k="name" v="Floaskardet" />
		<tag k="natural" v="valley" />
>>>>>>> e1d4bc35ff8a6074a6f2e91616a996b547c36f15
		<tag k="place" v="locality" />
		<tag k="ssr:stedsnr" v="722073" />
	</node>
<<<<<<< HEAD
	<node lat="65.65863888551056" lon="11.974261119705826" id="-9058">
		<tag k="name" v="Vannløken" />
		<tag k="place" v="locality" />
		<tag k="ssr:stedsnr" v="722506" />
	</node>
	<node lat="65.69644999992254" lon="11.860219437784925" id="-9061">
		<tag k="name" v="Kråkåsen" />
=======
	<node id="-127278" lat="65.6945388848" lon="12.0672111188">
		<tag k="name" v="Klubben" />
		<tag k="natural" v="hill" />
		<tag k="place" v="locality" />
		<tag k="ssr:stedsnr" v="258429" />
	</node>
	<node id="-128768" lat="65.6690527774" lon="12.09505834">
		<tag k="name" v="Jektvikhaugen" />
>>>>>>> e1d4bc35ff8a6074a6f2e91616a996b547c36f15
		<tag k="natural" v="hill" />
		<tag k="place" v="locality" />
		<tag k="ssr:stedsnr" v="722817" />
	</node>
<<<<<<< HEAD
	<node lat="65.69166111424421" lon="11.84834721399381" id="-9062">
		<tag k="name" v="Trondåsen" />
=======
	<node id="-128764" lat="65.6389694429" lon="12.1808361048">
		<tag k="name" v="Rokneshågjen" />
>>>>>>> e1d4bc35ff8a6074a6f2e91616a996b547c36f15
		<tag k="natural" v="hill" />
		<tag k="place" v="locality" />
		<tag k="ssr:stedsnr" v="722818" />
	</node>
<<<<<<< HEAD
	<node lat="65.68530555789637" lon="11.869963893326702" id="-9063">
		<tag k="name" v="Ørheia" />
=======
	<node id="-128761" lat="65.6913611082" lon="11.9668083355">
		<tag k="name" v="Steinåsen" />
>>>>>>> e1d4bc35ff8a6074a6f2e91616a996b547c36f15
		<tag k="natural" v="hill" />
		<tag k="place" v="locality" />
		<tag k="ssr:stedsnr" v="722822" />
	</node>
<<<<<<< HEAD
	<node lat="65.70491666431407" lon="11.908138883157397" id="-9065">
		<tag k="name" v="Storhågjen" />
		<tag k="natural" v="hill" />
		<tag k="place" v="locality" />
		<tag k="ssr:stedsnr" v="722848" />
	</node>
	<node lat="65.6997833321872" lon="11.91105555151279" id="-9066">
		<tag k="name" v="Storstaulen" />
=======
	<node id="-128760" lat="65.6967055534" lon="12.0007722138">
		<tag k="name" v="Leirvikåsen" />
		<tag k="natural" v="hill" />
		<tag k="place" v="locality" />
		<tag k="ssr:stedsnr" v="358734" />
	</node>
	<node id="-128752" lat="65.6399166695" lon="11.7848527692">
		<tag k="name" v="Aunesmolen" />
		<tag k="natural" v="slope" />
		<tag k="place" v="locality" />
		<tag k="ssr:stedsnr" v="358185" />
	</node>
	<node id="-128749" lat="65.6542111072" lon="11.9357666654">
		<tag k="name" v="Floakollikberget" />
>>>>>>> e1d4bc35ff8a6074a6f2e91616a996b547c36f15
		<tag k="natural" v="hill" />
		<tag k="place" v="locality" />
		<tag k="ssr:stedsnr" v="722851" />
	</node>
<<<<<<< HEAD
	<node lat="65.70443888607855" lon="11.860952775978692" id="-9068">
		<tag k="name" v="Nordøyhaugen" />
=======
	<node id="-128748" lat="65.6983499993" lon="11.9301555607">
		<tag k="name" v="Grønnåsen" />
>>>>>>> e1d4bc35ff8a6074a6f2e91616a996b547c36f15
		<tag k="natural" v="hill" />
		<tag k="place" v="locality" />
		<tag k="ssr:stedsnr" v="722783" />
	</node>
<<<<<<< HEAD
	<node lat="65.70822222195011" lon="11.952269434458128" id="-9069">
		<tag k="name" v="Buskhågjen" />
=======
	<node id="-128745" lat="65.6993388869" lon="11.8753944368">
		<tag k="name" v="Storhaugen" />
>>>>>>> e1d4bc35ff8a6074a6f2e91616a996b547c36f15
		<tag k="natural" v="hill" />
		<tag k="place" v="locality" />
		<tag k="ssr:stedsnr" v="722913" />
	</node>
<<<<<<< HEAD
	<node lat="65.67511944625063" lon="11.930377788713733" id="-9073">
		<tag k="name" v="Bjørkåsen" />
=======
	<node id="-128743" lat="65.6875583326" lon="11.8590305526">
		<tag k="name" v="Banvassåsen" />
>>>>>>> e1d4bc35ff8a6074a6f2e91616a996b547c36f15
		<tag k="natural" v="hill" />
		<tag k="place" v="locality" />
		<tag k="ssr:stedsnr" v="737763" />
	</node>
<<<<<<< HEAD
	<node lat="65.67909166500486" lon="11.944083327082458" id="-9074">
		<tag k="name" v="Bremsteinholten" />
=======
	<node id="-128742" lat="65.6867722229" lon="12.1069305653">
		<tag k="name" v="Skjellestadheia" />
>>>>>>> e1d4bc35ff8a6074a6f2e91616a996b547c36f15
		<tag k="natural" v="hill" />
		<tag k="place" v="locality" />
		<tag k="ssr:stedsnr" v="737771" />
	</node>
<<<<<<< HEAD
	<node lat="65.67797777960443" lon="11.950227780668595" id="-9075">
		<tag k="name" v="Høgåsen" />
=======
	<node id="-128741" lat="65.6892583299" lon="12.1107861177">
		<tag k="name" v="Steinsheia" />
>>>>>>> e1d4bc35ff8a6074a6f2e91616a996b547c36f15
		<tag k="natural" v="hill" />
		<tag k="place" v="locality" />
		<tag k="ssr:stedsnr" v="737775" />
	</node>
<<<<<<< HEAD
	<node lat="65.67956388542187" lon="11.95250000055272" id="-9076">
		<tag k="name" v="Langåsen" />
=======
	<node id="-128739" lat="65.676947221" lon="12.1149027743">
		<tag k="name" v="Jektvikhågjen" />
>>>>>>> e1d4bc35ff8a6074a6f2e91616a996b547c36f15
		<tag k="natural" v="hill" />
		<tag k="place" v="locality" />
		<tag k="ssr:stedsnr" v="737776" />
	</node>
<<<<<<< HEAD
	<node lat="65.65763889239781" lon="11.829200002544162" id="-9079">
		<tag k="fixme" v="consider natural=peak for the most distinct mountains in the district" />
		<tag k="name" v="Gullsvågfjellet" />
=======
	<node id="-128737" lat="65.6166444412" lon="11.9614111147">
		<tag k="name" v="Bjørnhaugan" />
>>>>>>> e1d4bc35ff8a6074a6f2e91616a996b547c36f15
		<tag k="natural" v="hill" />
		<tag k="place" v="locality" />
		<tag k="ssr:stedsnr" v="743292" />
	</node>
<<<<<<< HEAD
	<node lat="65.62028333317276" lon="12.165949994612765" id="-9087">
		<tag k="alt_name" v="Ørnetheia" />
		<tag k="name" v="Ørneteigen" />
=======
	<node id="-128736" lat="65.6047916694" lon="11.9417472181">
		<tag k="name" v="Aunhaugen" />
>>>>>>> e1d4bc35ff8a6074a6f2e91616a996b547c36f15
		<tag k="natural" v="hill" />
		<tag k="place" v="locality" />
		<tag k="ssr:stedsnr" v="743385" />
	</node>
<<<<<<< HEAD
	<node lat="65.62042500019075" lon="11.827927788510728" id="-9109">
		<tag k="name" v="Leviklia" />
=======
	<node id="-128734" lat="65.6143638861" lon="11.9029305642">
		<tag k="name" v="Heia" />
>>>>>>> e1d4bc35ff8a6074a6f2e91616a996b547c36f15
		<tag k="natural" v="slope" />
		<tag k="place" v="locality" />
		<tag k="ssr:stedsnr" v="744328" />
	</node>
<<<<<<< HEAD
	<node lat="65.65475277472042" lon="11.95540832833479" id="-9116">
		<tag k="name" v="Fersethaugen" />
=======
	<node id="-129312" lat="65.6909055513" lon="12.124033338">
		<tag k="name" v="Laukhammaren" />
		<tag k="natural" v="hill" />
		<tag k="place" v="locality" />
		<tag k="ssr:stedsnr" v="843398" />
	</node>
	<node id="-128684" lat="65.6769444437" lon="12.0596833395">
		<tag k="fixme" v="consider natural=peak for the most distinct mountains in the district" />
		<tag k="name" v="Storbrattåsen" />
>>>>>>> e1d4bc35ff8a6074a6f2e91616a996b547c36f15
		<tag k="natural" v="hill" />
		<tag k="place" v="locality" />
		<tag k="ssr:stedsnr" v="904040" />
	</node>
<<<<<<< HEAD
	<node lat="65.65487777377989" lon="11.950077781347423" id="-9117">
		<tag k="name" v="Husbondhaugen" />
=======
	<node id="-127260" lat="65.6805166691" lon="11.9589139">
		<tag k="name" v="Aspåsen" />
		<tag k="natural" v="hill" />
		<tag k="place" v="locality" />
		<tag k="ssr:stedsnr" v="252762" />
	</node>
	<node id="-128674" lat="65.6321277812" lon="12.176025007">
		<tag k="name" v="Middagshaugen" />
>>>>>>> e1d4bc35ff8a6074a6f2e91616a996b547c36f15
		<tag k="natural" v="hill" />
		<tag k="place" v="locality" />
		<tag k="ssr:stedsnr" v="904041" />
	</node>
<<<<<<< HEAD
	<node lat="65.61641389045315" lon="11.857813891085849" id="-9122">
		<tag k="name" v="Lauplia" />
		<tag k="natural" v="slope" />
=======
	<node id="-128672" lat="65.6732333349" lon="11.9319083269">
		<tag k="fixme" v="consider natural=peak for the most distinct mountains in the district" />
		<tag k="name" v="Bjørkåsen" />
		<tag k="natural" v="hill" />
>>>>>>> e1d4bc35ff8a6074a6f2e91616a996b547c36f15
		<tag k="place" v="locality" />
		<tag k="ssr:stedsnr" v="904175" />
	</node>
<<<<<<< HEAD
	<node lat="65.6125249987041" lon="11.93444445144238" id="-9124">
		<tag k="name" v="Vetlia" />
		<tag k="natural" v="slope" />
=======
	<node id="-128617" lat="65.6852972253" lon="11.9071527746">
		<tag k="name" v="Tellegåsen" />
		<tag k="natural" v="hill" />
>>>>>>> e1d4bc35ff8a6074a6f2e91616a996b547c36f15
		<tag k="place" v="locality" />
		<tag k="ssr:stedsnr" v="904182" />
	</node>
<<<<<<< HEAD
	<node lat="65.6004250001999" lon="11.870475010109894" id="-9125">
		<tag k="name" v="Staulnesjan" />
=======
	<node id="-128616" lat="65.6750972197" lon="12.0499249953">
		<tag k="name" v="Heiet" />
		<tag k="natural" v="slope" />
>>>>>>> e1d4bc35ff8a6074a6f2e91616a996b547c36f15
		<tag k="place" v="locality" />
		<tag k="ssr:stedsnr" v="904244" />
	</node>
<<<<<<< HEAD
	<node lat="65.68941388881744" lon="12.124641660103164" id="-9128">
		<tag k="name" v="Holtan" />
=======
	<node id="-128590" lat="65.6688222259" lon="11.961355547">
		<tag k="alt_name" v="Nord-Taushågjen" />
		<tag k="name" v="Taushaugen" />
>>>>>>> e1d4bc35ff8a6074a6f2e91616a996b547c36f15
		<tag k="natural" v="hill" />
		<tag k="place" v="locality" />
		<tag k="ssr:stedsnr" v="904394" />
	</node>
<<<<<<< HEAD
	<node lat="65.69053333510246" lon="11.834716668061501" id="-9131">
		<tag k="name" v="Rundheia" />
=======
	<node id="-128560" lat="65.6315666625" lon="11.8797500054">
		<tag k="fixme" v="consider natural=peak for the most distinct mountains in the district" />
		<tag k="name" v="Rundkulen" />
>>>>>>> e1d4bc35ff8a6074a6f2e91616a996b547c36f15
		<tag k="natural" v="hill" />
		<tag k="place" v="locality" />
		<tag k="ssr:stedsnr" v="904772" />
	</node>
<<<<<<< HEAD
	<node lat="65.60562778241209" lon="12.144619438872208" id="-9138">
		<tag k="name" v="Aspvikheia" />
=======
	<node id="-128549" lat="65.6574805577" lon="11.9538027747">
		<tag k="name" v="Høgåsen" />
>>>>>>> e1d4bc35ff8a6074a6f2e91616a996b547c36f15
		<tag k="natural" v="hill" />
		<tag k="place" v="locality" />
		<tag k="ssr:stedsnr" v="906719" />
	</node>
<<<<<<< HEAD
	<node lat="65.64851944478663" lon="11.878291662777544" id="-9141">
		<tag k="name" v="Brennheia" />
=======
	<node id="-128543" lat="65.5938888865" lon="11.9028583279">
		<tag k="fixme" v="consider natural=peak for the most distinct mountains in the district" />
		<tag k="name" v="Storhaugen" />
>>>>>>> e1d4bc35ff8a6074a6f2e91616a996b547c36f15
		<tag k="natural" v="hill" />
		<tag k="place" v="locality" />
		<tag k="ssr:stedsnr" v="782002" />
	</node>
<<<<<<< HEAD
	<node lat="65.65823611332858" lon="11.921849995540686" id="-9143">
		<tag k="name" v="Åskollikberget" />
=======
	<node id="-128536" lat="65.6460944466" lon="11.785486101">
		<tag k="name" v="Lissfjellet" />
>>>>>>> e1d4bc35ff8a6074a6f2e91616a996b547c36f15
		<tag k="natural" v="hill" />
		<tag k="place" v="locality" />
		<tag k="ssr:stedsnr" v="782021" />
	</node>
<<<<<<< HEAD
	<node lat="65.68617777872446" lon="11.866047214050251" id="-9148">
		<tag k="name" v="Asphaugen" />
=======
	<node id="-128535" lat="65.7026944433" lon="11.9326388969">
		<tag k="name" v="Lauberget" />
>>>>>>> e1d4bc35ff8a6074a6f2e91616a996b547c36f15
		<tag k="natural" v="hill" />
		<tag k="place" v="locality" />
		<tag k="ssr:stedsnr" v="782747" />
	</node>
<<<<<<< HEAD
	<node lat="65.61544722417976" lon="11.955697219598134" id="-9149">
		<tag k="name" v="Sandhola" />
		<tag k="natural" v="valley" />
=======
	<node id="-128534" lat="65.6899861112" lon="11.9468527819">
		<tag k="name" v="Brattåsen" />
		<tag k="natural" v="hill" />
>>>>>>> e1d4bc35ff8a6074a6f2e91616a996b547c36f15
		<tag k="place" v="locality" />
		<tag k="ssr:stedsnr" v="783155" />
	</node>
<<<<<<< HEAD
	<node lat="65.68294166953267" lon="12.112841669370026" id="-9150">
		<tag k="name" v="Stålheia" />
=======
	<node id="-128530" lat="65.6842583312" lon="11.9999444431">
		<tag k="name" v="Brattåsen" />
>>>>>>> e1d4bc35ff8a6074a6f2e91616a996b547c36f15
		<tag k="natural" v="hill" />
		<tag k="place" v="locality" />
		<tag k="ssr:stedsnr" v="783303" />
	</node>
<<<<<<< HEAD
	<node lat="65.68312777752483" lon="11.965816669336801" id="-9152">
		<tag k="name" v="Jensåsen" />
=======
	<node id="-128529" lat="65.6517388879" lon="11.9773527826">
		<tag k="name" v="Teppheia" />
>>>>>>> e1d4bc35ff8a6074a6f2e91616a996b547c36f15
		<tag k="natural" v="hill" />
		<tag k="place" v="locality" />
		<tag k="ssr:stedsnr" v="783517" />
	</node>
<<<<<<< HEAD
	<node lat="65.70580278227585" lon="11.935577776466431" id="-9153">
		<tag k="name" v="Nausthågjen" />
=======
	<node id="-128524" lat="65.68996667" lon="12.11425834">
		<tag k="name" v="Høghågjen" />
>>>>>>> e1d4bc35ff8a6074a6f2e91616a996b547c36f15
		<tag k="natural" v="hill" />
		<tag k="place" v="locality" />
		<tag k="ssr:stedsnr" v="783903" />
	</node>
<<<<<<< HEAD
	<node lat="65.69122777769927" lon="11.942111103457464" id="-9155">
		<tag k="name" v="Grishågjen" />
=======
	<node id="-128519" lat="65.658199998" lon="11.8906805576">
		<tag k="name" v="Aspåsen" />
>>>>>>> e1d4bc35ff8a6074a6f2e91616a996b547c36f15
		<tag k="natural" v="hill" />
		<tag k="place" v="locality" />
		<tag k="ssr:stedsnr" v="783814" />
	</node>
<<<<<<< HEAD
	<node lat="65.70713889342727" lon="11.900774995165657" id="-9156">
		<tag k="name" v="Ørntuva" />
=======
	<node id="-128517" lat="65.6505138868" lon="11.9197833431">
		<tag k="name" v="Storhaugene" />
>>>>>>> e1d4bc35ff8a6074a6f2e91616a996b547c36f15
		<tag k="natural" v="hill" />
		<tag k="place" v="locality" />
		<tag k="ssr:stedsnr" v="783824" />
	</node>
<<<<<<< HEAD
	<node lat="65.6364999959532" lon="12.180672231267197" id="-9158">
		<tag k="name" v="Ramnberget" />
=======
	<node id="-128515" lat="65.6826777745" lon="12.0964472284">
		<tag k="name" v="Fagerlinhaugen" />
>>>>>>> e1d4bc35ff8a6074a6f2e91616a996b547c36f15
		<tag k="natural" v="hill" />
		<tag k="place" v="locality" />
		<tag k="ssr:stedsnr" v="794312" />
	</node>
<<<<<<< HEAD
	<node lat="65.64525277683441" lon="11.812386119334631" id="-9177">
		<tag k="name" v="Røsstindlian" />
		<tag k="natural" v="slope" />
=======
	<node id="-128513" lat="65.6094083359" lon="11.9435166754">
		<tag k="name" v="Meisskogheia" />
		<tag k="natural" v="hill" />
>>>>>>> e1d4bc35ff8a6074a6f2e91616a996b547c36f15
		<tag k="place" v="locality" />
		<tag k="ssr:stedsnr" v="804318" />
	</node>
<<<<<<< HEAD
	<node lat="65.6301277774985" lon="11.944427777733841" id="-9199">
		<tag k="name" v="Skavdalen" />
=======
	<node id="-128512" lat="65.6045444456" lon="11.9272888883">
		<tag k="name" v="Trolldalen" />
>>>>>>> e1d4bc35ff8a6074a6f2e91616a996b547c36f15
		<tag k="natural" v="valley" />
		<tag k="place" v="locality" />
		<tag k="ssr:stedsnr" v="843075" />
	</node>
<<<<<<< HEAD
	<node lat="65.68758889111571" lon="11.87467778045299" id="-9201">
		<tag k="name" v="Kaukarhaugen" />
=======
	<node id="-128488" lat="65.6674583358" lon="11.7093361087">
		<tag k="fixme" v="consider natural=peak for the most distinct mountains in the district" />
		<tag k="name" v="Harphaugen" />
>>>>>>> e1d4bc35ff8a6074a6f2e91616a996b547c36f15
		<tag k="natural" v="hill" />
		<tag k="place" v="locality" />
		<tag k="ssr:stedsnr" v="843823" />
	</node>
<<<<<<< HEAD
	<node lat="65.61928333201169" lon="11.963822212926386" id="-9204">
		<tag k="name" v="Skjelvikheia" />
=======
	<node id="-128444" lat="65.6864138868" lon="12.0075583379">
		<tag k="fixme" v="consider natural=peak for the most distinct mountains in the district" />
		<tag k="name" v="Vegsteinfjellet" />
>>>>>>> e1d4bc35ff8a6074a6f2e91616a996b547c36f15
		<tag k="natural" v="hill" />
		<tag k="place" v="locality" />
		<tag k="ssr:stedsnr" v="844176" />
	</node>
<<<<<<< HEAD
	<node lat="65.64951666445208" lon="11.974374989697422" id="-9205">
		<tag k="name" v="Ørnheia" />
=======
	<node id="-128436" lat="65.6061944473" lon="11.9316416574">
		<tag k="fixme" v="consider natural=peak for the most distinct mountains in the district" />
		<tag k="name" v="Hestklubben" />
>>>>>>> e1d4bc35ff8a6074a6f2e91616a996b547c36f15
		<tag k="natural" v="hill" />
		<tag k="place" v="locality" />
		<tag k="ssr:stedsnr" v="844505" />
	</node>
<<<<<<< HEAD
	<node lat="65.70134722599285" lon="11.941219443209853" id="-9208">
		<tag k="name" v="Neshågjen" />
=======
	<node id="-128431" lat="65.5998944432" lon="11.9203333323">
		<tag k="fixme" v="consider natural=peak for the most distinct mountains in the district" />
		<tag k="name" v="Hestvikfjellet" />
>>>>>>> e1d4bc35ff8a6074a6f2e91616a996b547c36f15
		<tag k="natural" v="hill" />
		<tag k="place" v="locality" />
		<tag k="ssr:stedsnr" v="844818" />
	</node>
<<<<<<< HEAD
	<node lat="65.63056389137444" lon="12.149600003514596" id="-9211">
		<tag k="name" v="Liss-Strandvikheia" />
		<tag k="natural" v="hill" />
=======
	<node id="-128429" lat="65.6763888901" lon="12.0925222249">
		<tag k="name" v="Bødalen" />
		<tag k="natural" v="valley" />
>>>>>>> e1d4bc35ff8a6074a6f2e91616a996b547c36f15
		<tag k="place" v="locality" />
		<tag k="ssr:stedsnr" v="846227" />
	</node>
<<<<<<< HEAD
	<node lat="65.68098611155801" lon="12.077788878226517" id="-9250">
		<tag k="name" v="Bjørnvikåsen" />
=======
	<node id="-128428" lat="65.674280554" lon="12.0962250091">
		<tag k="name" v="Lissfjellet" />
>>>>>>> e1d4bc35ff8a6074a6f2e91616a996b547c36f15
		<tag k="natural" v="hill" />
		<tag k="place" v="locality" />
		<tag k="ssr:stedsnr" v="856645" />
	</node>
<<<<<<< HEAD
	<node lat="65.64252499570806" lon="11.8849888912849" id="-9254">
		<tag k="name" v="Kvitheia" />
=======
	<node id="-128426" lat="65.6349444449" lon="12.1800194536">
		<tag k="name" v="Molvikhågjen" />
>>>>>>> e1d4bc35ff8a6074a6f2e91616a996b547c36f15
		<tag k="natural" v="hill" />
		<tag k="place" v="locality" />
		<tag k="ssr:stedsnr" v="904005" />
	</node>
<<<<<<< HEAD
	<node lat="65.64519722179023" lon="11.868752769202091" id="-9255">
		<tag k="name" v="Okshaugene" />
=======
	<node id="-128424" lat="65.6075555551" lon="12.1574055454">
		<tag k="name" v="Namdalsheia" />
>>>>>>> e1d4bc35ff8a6074a6f2e91616a996b547c36f15
		<tag k="natural" v="hill" />
		<tag k="place" v="locality" />
		<tag k="ssr:stedsnr" v="904006" />
	</node>
<<<<<<< HEAD
	<node lat="65.5981638922451" lon="11.879419448442821" id="-9258">
		<tag k="name" v="Sjøvikklubben" />
=======
	<node id="-128423" lat="65.684836113" lon="11.877713879">
		<tag k="name" v="Brattåsen" />
>>>>>>> e1d4bc35ff8a6074a6f2e91616a996b547c36f15
		<tag k="natural" v="hill" />
		<tag k="place" v="locality" />
		<tag k="ssr:stedsnr" v="904250" />
	</node>
<<<<<<< HEAD
	<node lat="65.61475555329733" lon="11.862024998116818" id="-9259">
		<tag k="name" v="Larslia" />
		<tag k="natural" v="slope" />
=======
	<node id="-128421" lat="65.684344447" lon="11.8568722124">
		<tag k="name" v="Grøtthaugen" />
		<tag k="natural" v="hill" />
>>>>>>> e1d4bc35ff8a6074a6f2e91616a996b547c36f15
		<tag k="place" v="locality" />
		<tag k="ssr:stedsnr" v="904260" />
	</node>
<<<<<<< HEAD
	<node lat="65.68412500451036" lon="11.99659999507738" id="-9261">
		<tag k="name" v="Kaukarheia" />
=======
	<node id="-128419" lat="65.6844388911" lon="12.0943472308">
		<tag k="name" v="Husåsen" />
>>>>>>> e1d4bc35ff8a6074a6f2e91616a996b547c36f15
		<tag k="natural" v="hill" />
		<tag k="place" v="locality" />
		<tag k="ssr:stedsnr" v="904508" />
	</node>
<<<<<<< HEAD
	<node lat="65.69596388669915" lon="11.99223054944" id="-9264">
		<tag k="name" v="Høgåsen" />
=======
	<node id="-128418" lat="65.6842194417" lon="12.1294305567">
		<tag k="name" v="Sjyvikhågjen" />
>>>>>>> e1d4bc35ff8a6074a6f2e91616a996b547c36f15
		<tag k="natural" v="hill" />
		<tag k="place" v="locality" />
		<tag k="ssr:stedsnr" v="904704" />
	</node>
<<<<<<< HEAD
	<node lat="65.6907888899156" lon="11.8887666768999" id="-9267">
		<tag k="name" v="Kråkhaugen" />
=======
	<node id="-128416" lat="65.6713111081" lon="12.1096194379">
		<tag k="name" v="Gjestaberget" />
>>>>>>> e1d4bc35ff8a6074a6f2e91616a996b547c36f15
		<tag k="natural" v="hill" />
		<tag k="place" v="locality" />
		<tag k="ssr:stedsnr" v="904813" />
	</node>
<<<<<<< HEAD
	<node lat="65.67532499931288" lon="12.101661116354165" id="-9268">
		<tag k="name" v="Grønnhaugen" />
=======
	<node id="-128412" lat="65.6519388883" lon="11.8914805591">
		<tag k="name" v="Lissheståsen" />
>>>>>>> e1d4bc35ff8a6074a6f2e91616a996b547c36f15
		<tag k="natural" v="hill" />
		<tag k="place" v="locality" />
		<tag k="ssr:stedsnr" v="916677" />
	</node>
<<<<<<< HEAD
	<node lat="65.62080833522654" lon="11.801961110494679" id="-9289">
		<tag k="name" v="Svartfloglia" />
		<tag k="natural" v="slope" />
		<tag k="place" v="locality" />
		<tag k="ssr:stedsnr" v="926365" />
	</node>
	<node lat="65.6170555517317" lon="11.850422219830527" id="-9311">
		<tag k="name" v="Spranget" />
		<tag k="natural" v="slope" />
		<tag k="place" v="locality" />
		<tag k="ssr:stedsnr" v="964207" />
	</node>
	<node lat="65.65191388928469" lon="11.794641672141433" id="-9312">
		<tag k="name" v="Sørdalen" />
=======
	<node id="-128410" lat="65.6149166698" lon="11.8569805584">
		<tag k="name" v="Dalan" />
>>>>>>> e1d4bc35ff8a6074a6f2e91616a996b547c36f15
		<tag k="natural" v="valley" />
		<tag k="place" v="locality" />
		<tag k="ssr:stedsnr" v="964238" />
	</node>
<<<<<<< HEAD
	<node lat="65.6998638904263" lon="11.929058336896349" id="-9314">
		<tag k="name" v="Liss-Ravnberget" />
=======
	<node id="-128409" lat="65.6525194446" lon="11.8973833337">
		<tag k="name" v="Troåsen" />
>>>>>>> e1d4bc35ff8a6074a6f2e91616a996b547c36f15
		<tag k="natural" v="hill" />
		<tag k="place" v="locality" />
		<tag k="ssr:stedsnr" v="964808" />
	</node>
<<<<<<< HEAD
	<node lat="65.62655277515091" lon="11.812666669116739" id="-9318">
=======
	<node id="-128353" lat="65.6852472246" lon="11.8393500011">
>>>>>>> e1d4bc35ff8a6074a6f2e91616a996b547c36f15
		<tag k="fixme" v="consider natural=peak for the most distinct mountains in the district" />
		<tag k="name" v="Trolltinden" />
		<tag k="natural" v="hill" />
		<tag k="place" v="locality" />
		<tag k="ssr:stedsnr" v="965306" />
	</node>
<<<<<<< HEAD
	<node lat="65.67853889141823" lon="12.104588887486626" id="-9320">
		<tag k="fixme" v="consider natural=peak for the most distinct mountains in the district" />
		<tag k="name" v="Innerfjellet" />
=======
	<node id="-128335" lat="65.6187833313" lon="11.8456750063">
		<tag k="name" v="Hestmarkåsen" />
>>>>>>> e1d4bc35ff8a6074a6f2e91616a996b547c36f15
		<tag k="natural" v="hill" />
		<tag k="place" v="locality" />
		<tag k="ssr:stedsnr" v="965348" />
	</node>
<<<<<<< HEAD
	<node lat="65.64071944315735" lon="12.161672215176301" id="-9323">
		<tag k="name" v="Kobbneshågjen" />
=======
	<node id="-128334" lat="65.6190888923" lon="12.1378777773">
		<tag k="name" v="Ytterheia" />
>>>>>>> e1d4bc35ff8a6074a6f2e91616a996b547c36f15
		<tag k="natural" v="hill" />
		<tag k="place" v="locality" />
		<tag k="ssr:stedsnr" v="967201" />
	</node>
<<<<<<< HEAD
	<node lat="65.66821388543893" lon="11.925394445998588" id="-9326">
		<tag k="name" v="Kalvåsen" />
=======
	<node id="-128333" lat="65.6050027736" lon="11.8889194438">
		<tag k="alt_name" v="Heian" />
		<tag k="name" v="Trollrevheian" />
>>>>>>> e1d4bc35ff8a6074a6f2e91616a996b547c36f15
		<tag k="natural" v="hill" />
		<tag k="place" v="locality" />
		<tag k="ssr:stedsnr" v="9755" />
	</node>
<<<<<<< HEAD
	<node lat="65.65365833266772" lon="11.851980549675643" id="-9327">
		<tag k="name" v="Bjørnlia" />
		<tag k="natural" v="slope" />
=======
	<node id="-128332" lat="65.6109833347" lon="11.9268805531">
		<tag k="fixme" v="consider natural=peak for the most distinct mountains in the district" />
		<tag k="name" v="Tårnet" />
		<tag k="natural" v="hill" />
>>>>>>> e1d4bc35ff8a6074a6f2e91616a996b547c36f15
		<tag k="place" v="locality" />
		<tag k="ssr:stedsnr" v="15333" />
	</node>
<<<<<<< HEAD
	<node lat="65.640758333091" lon="11.811266675383344" id="-9334">
=======
	<node id="-128329" lat="65.6348999978" lon="11.980499998">
>>>>>>> e1d4bc35ff8a6074a6f2e91616a996b547c36f15
		<tag k="fixme" v="consider natural=peak for the most distinct mountains in the district" />
		<tag k="name" v="Litlfjellet" />
		<tag k="natural" v="hill" />
		<tag k="place" v="locality" />
		<tag k="ssr:stedsnr" v="15384" />
	</node>
<<<<<<< HEAD
	<node lat="65.61491389179639" lon="12.161641665132732" id="-9336">
		<tag k="name" v="Høgåsen" />
=======
	<node id="-128324" lat="65.6272138908" lon="11.9214750107">
		<tag k="fixme" v="consider natural=peak for the most distinct mountains in the district" />
		<tag k="name" v="Tømmeråsen" />
>>>>>>> e1d4bc35ff8a6074a6f2e91616a996b547c36f15
		<tag k="natural" v="hill" />
		<tag k="place" v="locality" />
		<tag k="ssr:stedsnr" v="15395" />
	</node>
<<<<<<< HEAD
	<node lat="65.62569444188853" lon="12.151525010008324" id="-9347">
		<tag k="alt_name" v="Trollhågjen" />
		<tag k="name" v="Trollhaugen" />
		<tag k="natural" v="hill" />
		<tag k="place" v="locality" />
		<tag k="ssr:stedsnr" v="16329" />
	</node>
	<node lat="65.62600277569062" lon="12.170361118855674" id="-9348">
		<tag k="alt_name" v="Lisshågjen" />
		<tag k="name" v="Leshaugen" />
=======
	<node id="-128320" lat="65.6473888907" lon="11.9482166572">
		<tag k="fixme" v="consider natural=peak for the most distinct mountains in the district" />
		<tag k="name" v="Rundheia" />
		<tag k="natural" v="hill" />
		<tag k="place" v="locality" />
		<tag k="ssr:stedsnr" v="76294" />
	</node>
	<node id="-128304" lat="65.6673222177" lon="11.8632472279">
		<tag k="name" v="Gullbranddalen" />
		<tag k="natural" v="valley" />
		<tag k="place" v="locality" />
		<tag k="ssr:stedsnr" v="61035" />
	</node>
	<node id="-128301" lat="65.6355166655" lon="12.1563250073">
		<tag k="name" v="Sjyhågjen" />
>>>>>>> e1d4bc35ff8a6074a6f2e91616a996b547c36f15
		<tag k="natural" v="hill" />
		<tag k="place" v="locality" />
		<tag k="ssr:stedsnr" v="16331" />
	</node>
<<<<<<< HEAD
	<node lat="65.67415555371356" lon="12.077711119446539" id="-9369">
		<tag k="fixme" v="consider natural=peak for the most distinct mountains in the district" />
		<tag k="name" v="Sturlaråsen" />
=======
	<node id="-128292" lat="65.67556111" lon="12.0026805534">
		<tag k="name" v="Vardneshågjen" />
>>>>>>> e1d4bc35ff8a6074a6f2e91616a996b547c36f15
		<tag k="natural" v="hill" />
		<tag k="place" v="locality" />
		<tag k="ssr:stedsnr" v="16229" />
	</node>
<<<<<<< HEAD
	<node lat="65.66911110916595" lon="12.062961121542653" id="-9371">
		<tag k="name" v="Risøyhaugen" />
		<tag k="natural" v="hill" />
=======
	<node id="-128291" lat="65.6841166671" lon="12.0067833285">
		<tag k="name" v="Fjelldalen" />
		<tag k="natural" v="valley" />
>>>>>>> e1d4bc35ff8a6074a6f2e91616a996b547c36f15
		<tag k="place" v="locality" />
		<tag k="ssr:stedsnr" v="16232" />
	</node>
<<<<<<< HEAD
	<node lat="65.68714721947292" lon="11.984488885206277" id="-9382">
		<tag k="name" v="Klubben" />
=======
	<node id="-128290" lat="65.6834861082" lon="11.9788083371">
		<tag k="name" v="Vassholten" />
>>>>>>> e1d4bc35ff8a6074a6f2e91616a996b547c36f15
		<tag k="natural" v="hill" />
		<tag k="place" v="locality" />
		<tag k="ssr:stedsnr" v="24731" />
	</node>
<<<<<<< HEAD
	<node lat="65.65248055323988" lon="11.907686106037854" id="-9398">
		<tag k="name" v="Haltåsen" />
=======
	<node id="-128285" lat="65.7007611111" lon="11.9008166682">
		<tag k="name" v="Einåsen" />
>>>>>>> e1d4bc35ff8a6074a6f2e91616a996b547c36f15
		<tag k="natural" v="hill" />
		<tag k="place" v="locality" />
		<tag k="ssr:stedsnr" v="54024" />
	</node>
<<<<<<< HEAD
	<node lat="65.6510972204146" lon="11.90106389195314" id="-9399">
		<tag k="name" v="Einnesheia" />
=======
	<node id="-128283" lat="65.686275" lon="12.0990111199">
		<tag k="name" v="Lisshusåsen" />
>>>>>>> e1d4bc35ff8a6074a6f2e91616a996b547c36f15
		<tag k="natural" v="hill" />
		<tag k="place" v="locality" />
		<tag k="ssr:stedsnr" v="54025" />
	</node>
<<<<<<< HEAD
	<node lat="65.65698055929515" lon="11.927022226338634" id="-9400">
		<tag k="name" v="Fersetkollikberget" />
=======
	<node id="-128278" lat="65.6740888851" lon="12.1105860998">
		<tag k="name" v="Storhågjen" />
>>>>>>> e1d4bc35ff8a6074a6f2e91616a996b547c36f15
		<tag k="natural" v="hill" />
		<tag k="place" v="locality" />
		<tag k="ssr:stedsnr" v="54026" />
	</node>
<<<<<<< HEAD
	<node lat="65.67172778053025" lon="11.86030000889124" id="-9402">
		<tag k="name" v="Oltomsaheia" />
=======
	<node id="-128277" lat="65.6555527775" lon="11.7925055596">
		<tag k="name" v="Stormolen" />
		<tag k="natural" v="ridge" />
>>>>>>> e1d4bc35ff8a6074a6f2e91616a996b547c36f15
		<tag k="place" v="locality" />
		<tag k="ssr:stedsnr" v="54059" />
	</node>
<<<<<<< HEAD
	<node lat="65.61369444061611" lon="11.83972777403424" id="-9403">
=======
	<node id="-128276" lat="65.6136944406" lon="11.839727774">
>>>>>>> e1d4bc35ff8a6074a6f2e91616a996b547c36f15
		<tag k="name" v="Mjølkmarkheia" />
		<tag k="natural" v="hill" />
		<tag k="place" v="locality" />
		<tag k="ssr:stedsnr" v="54258" />
	</node>
<<<<<<< HEAD
	<node lat="65.67408888510393" lon="12.110586099849451" id="-9404">
		<tag k="name" v="Storhågjen" />
=======
	<node id="-128275" lat="65.6073499977" lon="11.935741668">
		<tag k="name" v="Areva" />
		<tag k="natural" v="hill" />
		<tag k="place" v="locality" />
		<tag k="ssr:stedsnr" v="54183" />
	</node>
	<node id="-128272" lat="65.6569805593" lon="11.9270222263">
		<tag k="name" v="Fersetkollikberget" />
>>>>>>> e1d4bc35ff8a6074a6f2e91616a996b547c36f15
		<tag k="natural" v="hill" />
		<tag k="place" v="locality" />
		<tag k="ssr:stedsnr" v="54339" />
	</node>
<<<<<<< HEAD
	<node lat="65.68821666518232" lon="12.111852772901061" id="-9406">
		<tag k="name" v="Oterheia" />
=======
	<node id="-128271" lat="65.6510972204" lon="11.901063892">
		<tag k="name" v="Einnesheia" />
>>>>>>> e1d4bc35ff8a6074a6f2e91616a996b547c36f15
		<tag k="natural" v="hill" />
		<tag k="place" v="locality" />
		<tag k="ssr:stedsnr" v="54409" />
	</node>
<<<<<<< HEAD
	<node lat="65.68627500000932" lon="12.099011119867098" id="-9407">
		<tag k="name" v="Lisshusåsen" />
=======
	<node id="-128270" lat="65.6524805532" lon="11.907686106">
		<tag k="name" v="Haltåsen" />
>>>>>>> e1d4bc35ff8a6074a6f2e91616a996b547c36f15
		<tag k="natural" v="hill" />
		<tag k="place" v="locality" />
		<tag k="ssr:stedsnr" v="54632" />
	</node>
<<<<<<< HEAD
	<node lat="65.68926944533115" lon="11.878158327717301" id="-9409">
		<tag k="name" v="Forraåsen" />
=======
	<node id="-128256" lat="65.6871472195" lon="11.9844888852">
		<tag k="name" v="Klubben" />
>>>>>>> e1d4bc35ff8a6074a6f2e91616a996b547c36f15
		<tag k="natural" v="hill" />
		<tag k="place" v="locality" />
		<tag k="ssr:stedsnr" v="54808" />
	</node>
<<<<<<< HEAD
	<node lat="65.68590277632501" lon="11.890083338969335" id="-9410">
		<tag k="name" v="Altervassåsen" />
=======
	<node id="-128245" lat="65.6691111092" lon="12.0629611215">
		<tag k="name" v="Risøyhaugen" />
>>>>>>> e1d4bc35ff8a6074a6f2e91616a996b547c36f15
		<tag k="natural" v="hill" />
		<tag k="place" v="locality" />
		<tag k="ssr:stedsnr" v="54810" />
	</node>
<<<<<<< HEAD
	<node lat="65.69368055605746" lon="11.885983330285447" id="-9411">
		<tag k="name" v="Lauvåsen" />
=======
	<node id="-128243" lat="65.6741555537" lon="12.0777111194">
		<tag k="fixme" v="consider natural=peak for the most distinct mountains in the district" />
		<tag k="name" v="Sturlaråsen" />
>>>>>>> e1d4bc35ff8a6074a6f2e91616a996b547c36f15
		<tag k="natural" v="hill" />
		<tag k="place" v="locality" />
		<tag k="ssr:stedsnr" v="54812" />
	</node>
<<<<<<< HEAD
	<node lat="65.70076111106607" lon="11.9008166682476" id="-9412">
		<tag k="name" v="Einåsen" />
=======
	<node id="-128219" lat="65.6149138918" lon="12.1616416651">
		<tag k="name" v="Høgåsen" />
>>>>>>> e1d4bc35ff8a6074a6f2e91616a996b547c36f15
		<tag k="natural" v="hill" />
		<tag k="place" v="locality" />
		<tag k="ssr:stedsnr" v="54849" />
	</node>
<<<<<<< HEAD
	<node lat="65.68348610817267" lon="11.97880833707199" id="-9419">
		<tag k="name" v="Vassholten" />
		<tag k="natural" v="hill" />
		<tag k="place" v="locality" />
		<tag k="ssr:stedsnr" v="55495" />
	</node>
	<node lat="65.68411666705215" lon="12.00678332845266" id="-9420">
		<tag k="name" v="Fjelldalen" />
		<tag k="natural" v="valley" />
=======
	<node id="-128218" lat="65.6407583331" lon="11.8112666754">
		<tag k="fixme" v="consider natural=peak for the most distinct mountains in the district" />
		<tag k="name" v="Litlfjellet" />
		<tag k="natural" v="hill" />
		<tag k="place" v="locality" />
		<tag k="ssr:stedsnr" v="15384" />
	</node>
	<node id="-128217" lat="65.6337583369" lon="11.9151249939">
		<tag k="name" v="Tåreslia" />
		<tag k="natural" v="slope" />
		<tag k="place" v="locality" />
		<tag k="ssr:stedsnr" v="15368" />
	</node>
	<node id="-128214" lat="65.6536583327" lon="11.8519805497">
		<tag k="name" v="Bjørnlia" />
		<tag k="natural" v="slope" />
>>>>>>> e1d4bc35ff8a6074a6f2e91616a996b547c36f15
		<tag k="place" v="locality" />
		<tag k="ssr:stedsnr" v="55498" />
	</node>
<<<<<<< HEAD
	<node lat="65.67556111001663" lon="12.00268055340809" id="-9421">
		<tag k="name" v="Vardneshågjen" />
=======
	<node id="-128208" lat="65.6682138854" lon="11.925394446">
		<tag k="name" v="Kalvåsen" />
>>>>>>> e1d4bc35ff8a6074a6f2e91616a996b547c36f15
		<tag k="natural" v="hill" />
		<tag k="place" v="locality" />
		<tag k="ssr:stedsnr" v="55510" />
	</node>
<<<<<<< HEAD
	<node lat="65.63551666552968" lon="12.156325007299682" id="-9423">
		<tag k="name" v="Sjyhågjen" />
=======
	<node id="-128207" lat="65.6724777761" lon="11.8913611068">
		<tag k="name" v="Øvre-Oksåsen" />
>>>>>>> e1d4bc35ff8a6074a6f2e91616a996b547c36f15
		<tag k="natural" v="hill" />
		<tag k="place" v="locality" />
		<tag k="ssr:stedsnr" v="56249" />
	</node>
<<<<<<< HEAD
	<node lat="65.66732221773356" lon="11.863247227885243" id="-9425">
		<tag k="name" v="Gullbranddalen" />
		<tag k="natural" v="valley" />
=======
	<node id="-128198" lat="65.6556666631" lon="11.9661666586">
		<tag k="name" v="Steinskårheia" />
		<tag k="natural" v="hill" />
>>>>>>> e1d4bc35ff8a6074a6f2e91616a996b547c36f15
		<tag k="place" v="locality" />
		<tag k="ssr:stedsnr" v="61035" />
	</node>
<<<<<<< HEAD
	<node lat="65.63489999783938" lon="11.980499998004792" id="-9437">
		<tag k="fixme" v="consider natural=peak for the most distinct mountains in the district" />
		<tag k="name" v="Aspen" />
=======
	<node id="-128196" lat="65.6137750022" lon="11.8889194395">
		<tag k="name" v="Laksberget" />
>>>>>>> e1d4bc35ff8a6074a6f2e91616a996b547c36f15
		<tag k="natural" v="hill" />
		<tag k="place" v="locality" />
		<tag k="ssr:stedsnr" v="76335" />
	</node>
<<<<<<< HEAD
	<node lat="65.64738889074454" lon="11.948216657230924" id="-9445">
		<tag k="fixme" v="consider natural=peak for the most distinct mountains in the district" />
		<tag k="name" v="Rundheia" />
=======
	<node id="-128193" lat="65.6888944485" lon="11.8351722252">
		<tag k="name" v="Storheia" />
>>>>>>> e1d4bc35ff8a6074a6f2e91616a996b547c36f15
		<tag k="natural" v="hill" />
		<tag k="place" v="locality" />
		<tag k="ssr:stedsnr" v="76294" />
	</node>
<<<<<<< HEAD
	<node lat="65.61908889230796" lon="12.137877777251939" id="-9446">
		<tag k="name" v="Ytterheia" />
=======
	<node id="-128191" lat="65.6796944407" lon="11.879722214">
		<tag k="name" v="Vassåsen" />
>>>>>>> e1d4bc35ff8a6074a6f2e91616a996b547c36f15
		<tag k="natural" v="hill" />
		<tag k="place" v="locality" />
		<tag k="ssr:stedsnr" v="76387" />
	</node>
<<<<<<< HEAD
	<node lat="65.61878333126744" lon="11.845675006305406" id="-9447">
		<tag k="name" v="Hestmarkåsen" />
=======
	<node id="-128190" lat="65.6798916691" lon="11.8592833285">
		<tag k="name" v="Storsvanheia" />
>>>>>>> e1d4bc35ff8a6074a6f2e91616a996b547c36f15
		<tag k="natural" v="hill" />
		<tag k="place" v="locality" />
		<tag k="ssr:stedsnr" v="76394" />
	</node>
<<<<<<< HEAD
	<node lat="65.65251944463245" lon="11.897383333721866" id="-9491">
		<tag k="name" v="Troåsen" />
=======
	<node id="-128188" lat="65.6840888922" lon="11.860150003">
		<tag k="name" v="Varhaugen" />
>>>>>>> e1d4bc35ff8a6074a6f2e91616a996b547c36f15
		<tag k="natural" v="hill" />
		<tag k="place" v="locality" />
		<tag k="ssr:stedsnr" v="115017" />
	</node>
<<<<<<< HEAD
	<node lat="65.65193888827591" lon="11.891480559072383" id="-9492">
		<tag k="name" v="Lissheståsen" />
=======
	<node id="-128187" lat="65.6891749957" lon="11.852263884">
		<tag k="name" v="Steinsåsen" />
>>>>>>> e1d4bc35ff8a6074a6f2e91616a996b547c36f15
		<tag k="natural" v="hill" />
		<tag k="place" v="locality" />
		<tag k="ssr:stedsnr" v="115027" />
	</node>
<<<<<<< HEAD
	<node lat="65.67131110812187" lon="12.10961943786106" id="-9495">
		<tag k="name" v="Gjestaberget" />
=======
	<node id="-128184" lat="65.6998638904" lon="11.9290583369">
		<tag k="name" v="Liss-Ravnberget" />
>>>>>>> e1d4bc35ff8a6074a6f2e91616a996b547c36f15
		<tag k="natural" v="hill" />
		<tag k="place" v="locality" />
		<tag k="ssr:stedsnr" v="115339" />
	</node>
<<<<<<< HEAD
	<node lat="65.68421944167464" lon="12.12943055672764" id="-9497">
		<tag k="name" v="Sjyvikhågjen" />
=======
	<node id="-128181" lat="65.6833777769" lon="12.1333611041">
		<tag k="name" v="Gjetarvikheia" />
>>>>>>> e1d4bc35ff8a6074a6f2e91616a996b547c36f15
		<tag k="natural" v="hill" />
		<tag k="place" v="locality" />
		<tag k="ssr:stedsnr" v="115358" />
	</node>
<<<<<<< HEAD
	<node lat="65.61491666981756" lon="11.856980558352877" id="-9498">
		<tag k="name" v="Dalan" />
		<tag k="natural" v="valley" />
=======
	<node id="-128180" lat="65.6170555517" lon="11.8504222198">
		<tag k="name" v="Spranget" />
		<tag k="natural" v="slope" />
>>>>>>> e1d4bc35ff8a6074a6f2e91616a996b547c36f15
		<tag k="place" v="locality" />
		<tag k="ssr:stedsnr" v="115153" />
	</node>
<<<<<<< HEAD
	<node lat="65.68443889112952" lon="12.094347230793575" id="-9501">
		<tag k="name" v="Husåsen" />
=======
	<node id="-128167" lat="65.6056277824" lon="12.1446194389">
		<tag k="name" v="Aspvikheia" />
>>>>>>> e1d4bc35ff8a6074a6f2e91616a996b547c36f15
		<tag k="natural" v="hill" />
		<tag k="place" v="locality" />
		<tag k="ssr:stedsnr" v="115586" />
	</node>
<<<<<<< HEAD
	<node lat="65.68434444704805" lon="11.856872212446019" id="-9503">
		<tag k="name" v="Grøtthaugen" />
=======
	<node id="-128165" lat="65.6905333351" lon="11.8347166681">
		<tag k="name" v="Rundheia" />
>>>>>>> e1d4bc35ff8a6074a6f2e91616a996b547c36f15
		<tag k="natural" v="hill" />
		<tag k="place" v="locality" />
		<tag k="ssr:stedsnr" v="115758" />
	</node>
<<<<<<< HEAD
	<node lat="65.60755555511464" lon="12.157405545448439" id="-9504">
		<tag k="name" v="Namdalsheia" />
=======
	<node id="-128163" lat="65.6959638867" lon="11.9922305494">
		<tag k="name" v="Høgåsen" />
>>>>>>> e1d4bc35ff8a6074a6f2e91616a996b547c36f15
		<tag k="natural" v="hill" />
		<tag k="place" v="locality" />
		<tag k="ssr:stedsnr" v="117700" />
	</node>
<<<<<<< HEAD
	<node lat="65.67428055397488" lon="12.096225009132407" id="-9506">
		<tag k="name" v="Lissfjellet" />
=======
	<node id="-128162" lat="65.6907888899" lon="11.8887666769">
		<tag k="name" v="Kråkhaugen" />
>>>>>>> e1d4bc35ff8a6074a6f2e91616a996b547c36f15
		<tag k="natural" v="hill" />
		<tag k="place" v="locality" />
		<tag k="ssr:stedsnr" v="127683" />
	</node>
<<<<<<< HEAD
	<node lat="65.67638889005433" lon="12.092522224949397" id="-9507">
		<tag k="name" v="Bødalen" />
		<tag k="natural" v="valley" />
=======
	<node id="-128161" lat="65.6147555533" lon="11.8620249981">
		<tag k="name" v="Larslia" />
		<tag k="natural" v="slope" />
>>>>>>> e1d4bc35ff8a6074a6f2e91616a996b547c36f15
		<tag k="place" v="locality" />
		<tag k="ssr:stedsnr" v="127685" />
	</node>
<<<<<<< HEAD
	<node lat="65.67514999972941" lon="11.920458341638072" id="-9508">
		<tag k="name" v="Flatåsen" />
=======
	<node id="-128160" lat="65.6841250045" lon="11.9965999951">
		<tag k="name" v="Kaukarheia" />
>>>>>>> e1d4bc35ff8a6074a6f2e91616a996b547c36f15
		<tag k="natural" v="hill" />
		<tag k="place" v="locality" />
		<tag k="ssr:stedsnr" v="130720" />
	</node>
<<<<<<< HEAD
	<node lat="65.5998944432264" lon="11.920333332346566" id="-9511">
		<tag k="fixme" v="consider natural=peak for the most distinct mountains in the district" />
		<tag k="name" v="Hestvikfjellet" />
=======
	<node id="-128155" lat="65.6451972218" lon="11.8687527692">
		<tag k="name" v="Okshaugene" />
>>>>>>> e1d4bc35ff8a6074a6f2e91616a996b547c36f15
		<tag k="natural" v="hill" />
		<tag k="place" v="locality" />
		<tag k="ssr:stedsnr" v="136165" />
	</node>
<<<<<<< HEAD
	<node lat="65.60619444726169" lon="11.931641657421675" id="-9522">
		<tag k="fixme" v="consider natural=peak for the most distinct mountains in the district" />
		<tag k="name" v="Hestklubben" />
=======
	<node id="-128154" lat="65.6425249957" lon="11.8849888913">
		<tag k="name" v="Kvitheia" />
>>>>>>> e1d4bc35ff8a6074a6f2e91616a996b547c36f15
		<tag k="natural" v="hill" />
		<tag k="place" v="locality" />
		<tag k="ssr:stedsnr" v="136393" />
	</node>
<<<<<<< HEAD
	<node lat="65.66745833582603" lon="11.709336108731565" id="-9553">
		<tag k="fixme" v="consider natural=peak for the most distinct mountains in the district" />
		<tag k="name" v="Harphaugen" />
=======
	<node id="-128152" lat="65.6689416664" lon="11.9552805465">
		<tag k="name" v="Nord-Snauåsen" />
>>>>>>> e1d4bc35ff8a6074a6f2e91616a996b547c36f15
		<tag k="natural" v="hill" />
		<tag k="place" v="locality" />
		<tag k="ssr:stedsnr" v="137576" />
	</node>
<<<<<<< HEAD
	<node lat="65.6889638901995" lon="12.012822223128051" id="-9559">
		<tag k="name" v="Arosheia" />
=======
	<node id="-128151" lat="65.6737638881" lon="12.0606638794">
		<tag k="name" v="Lissbrattåsen" />
>>>>>>> e1d4bc35ff8a6074a6f2e91616a996b547c36f15
		<tag k="natural" v="hill" />
		<tag k="place" v="locality" />
		<tag k="ssr:stedsnr" v="145703" />
	</node>
<<<<<<< HEAD
	<node lat="65.68267777450477" lon="12.096447228403079" id="-9570">
		<tag k="name" v="Fagerlinhaugen" />
=======
	<node id="-128142" lat="65.701347226" lon="11.9412194432">
		<tag k="name" v="Neshågjen" />
>>>>>>> e1d4bc35ff8a6074a6f2e91616a996b547c36f15
		<tag k="natural" v="hill" />
		<tag k="place" v="locality" />
		<tag k="ssr:stedsnr" v="175635" />
	</node>
<<<<<<< HEAD
	<node lat="65.65051388680062" lon="11.919783343146776" id="-9571">
		<tag k="name" v="Storhaugene" />
=======
	<node id="-128140" lat="65.6990222189" lon="11.8520277876">
		<tag k="name" v="Langklubben" />
>>>>>>> e1d4bc35ff8a6074a6f2e91616a996b547c36f15
		<tag k="natural" v="hill" />
		<tag k="place" v="locality" />
		<tag k="ssr:stedsnr" v="176021" />
	</node>
<<<<<<< HEAD
	<node lat="65.65819999798296" lon="11.890680557568322" id="-9573">
		<tag k="name" v="Aspåsen" />
		<tag k="natural" v="hill" />
=======
	<node id="-128092" lat="65.6208083352" lon="11.8019611105">
		<tag k="name" v="Svartfloglia" />
		<tag k="natural" v="slope" />
>>>>>>> e1d4bc35ff8a6074a6f2e91616a996b547c36f15
		<tag k="place" v="locality" />
		<tag k="ssr:stedsnr" v="176039" />
	</node>
<<<<<<< HEAD
	<node lat="65.68425833119937" lon="11.99994444306" id="-9576">
		<tag k="name" v="Brattåsen" />
=======
	<node id="-128047" lat="65.6753249993" lon="12.1016611164">
		<tag k="name" v="Grønnhaugen" />
>>>>>>> e1d4bc35ff8a6074a6f2e91616a996b547c36f15
		<tag k="natural" v="hill" />
		<tag k="place" v="locality" />
		<tag k="ssr:stedsnr" v="176484" />
	</node>
<<<<<<< HEAD
	<node lat="65.6899666699804" lon="12.114258339999045" id="-9577">
		<tag k="name" v="Høghågjen" />
		<tag k="natural" v="hill" />
=======
	<node id="-128034" lat="65.6204250002" lon="11.8279277885">
		<tag k="name" v="Leviklia" />
		<tag k="natural" v="slope" />
>>>>>>> e1d4bc35ff8a6074a6f2e91616a996b547c36f15
		<tag k="place" v="locality" />
		<tag k="ssr:stedsnr" v="176372" />
	</node>
<<<<<<< HEAD
	<node lat="65.64609444661072" lon="11.785486100993172" id="-9584">
		<tag k="name" v="Lissfjellet" />
		<tag k="natural" v="hill" />
		<tag k="place" v="locality" />
		<tag k="ssr:stedsnr" v="178186" />
	</node>
	<node lat="65.6714250003056" lon="11.948788886547511" id="-9589">
		<tag k="name" v="Einåsen" />
=======
	<node id="-128032" lat="65.6168666652" lon="11.9398833375">
		<tag k="fixme" v="consider natural=peak for the most distinct mountains in the district" />
		<tag k="name" v="Kjulsveten" />
		<tag k="natural" v="hill" />
		<tag k="place" v="locality" />
		<tag k="ssr:stedsnr" v="744314" />
	</node>
	<node id="-128787" lat="65.6266277763" lon="11.7774000049">
		<tag k="alt_name" v="Resen" />
		<tag k="fixme" v="consider natural=peak for the most distinct mountains in the district" />
		<tag k="name" v="Risen" />
		<tag k="natural" v="hill" />
		<tag k="place" v="locality" />
		<tag k="ssr:stedsnr" v="379319" />
	</node>
	<node id="-128029" lat="65.6178583304" lon="11.8691444519">
		<tag k="fixme" v="consider natural=peak for the most distinct mountains in the district" />
		<tag k="name" v="Ørnheia" />
>>>>>>> e1d4bc35ff8a6074a6f2e91616a996b547c36f15
		<tag k="natural" v="hill" />
		<tag k="place" v="locality" />
		<tag k="ssr:stedsnr" v="191735" />
	</node>
<<<<<<< HEAD
	<node lat="65.6574805576763" lon="11.953802774738271" id="-9595">
		<tag k="name" v="Høgåsen" />
		<tag k="natural" v="hill" />
=======
	<node id="-128008" lat="65.6382027762" lon="11.8052305465">
		<tag k="name" v="Vegdalsskardet" />
		<tag k="natural" v="valley" />
>>>>>>> e1d4bc35ff8a6074a6f2e91616a996b547c36f15
		<tag k="place" v="locality" />
		<tag k="ssr:stedsnr" v="197285" />
	</node>
<<<<<<< HEAD
	<node lat="65.63156666253033" lon="11.879750005448257" id="-9598">
		<tag k="fixme" v="consider natural=peak for the most distinct mountains in the district" />
		<tag k="name" v="Rundkulen" />
=======
	<node id="-127996" lat="65.6894138888" lon="12.1246416601">
		<tag k="name" v="Holtan" />
>>>>>>> e1d4bc35ff8a6074a6f2e91616a996b547c36f15
		<tag k="natural" v="hill" />
		<tag k="place" v="locality" />
		<tag k="ssr:stedsnr" v="197387" />
	</node>
<<<<<<< HEAD
	<node lat="65.6886805582816" lon="12.102819448498096" id="-9609">
		<tag k="fixme" v="consider natural=peak for the most distinct mountains in the district" />
		<tag k="name" v="Grønheia" />
=======
	<node id="-127995" lat="65.5981638922" lon="11.8794194484">
		<tag k="name" v="Sjøvikklubben" />
>>>>>>> e1d4bc35ff8a6074a6f2e91616a996b547c36f15
		<tag k="natural" v="hill" />
		<tag k="place" v="locality" />
		<tag k="ssr:stedsnr" v="197538" />
	</node>
<<<<<<< HEAD
	<node lat="65.66882222588487" lon="11.961355546980384" id="-9637">
		<tag k="alt_name" v="Nord-Taushågjen" />
		<tag k="name" v="Taushaugen" />
		<tag k="natural" v="hill" />
=======
	<node id="-127994" lat="65.6004250002" lon="11.8704750101">
		<tag k="name" v="Staulnesjan" />
>>>>>>> e1d4bc35ff8a6074a6f2e91616a996b547c36f15
		<tag k="place" v="locality" />
		<tag k="ssr:stedsnr" v="198238" />
	</node>
<<<<<<< HEAD
	<node lat="65.64223611052623" lon="11.779574991609632" id="-9665">
		<tag k="name" v="Storhågjen" />
		<tag k="natural" v="hill" />
=======
	<node id="-127989" lat="65.6125249987" lon="11.9344444514">
		<tag k="name" v="Vetlia" />
		<tag k="natural" v="slope" />
>>>>>>> e1d4bc35ff8a6074a6f2e91616a996b547c36f15
		<tag k="place" v="locality" />
		<tag k="ssr:stedsnr" v="297217" />
	</node>
<<<<<<< HEAD
	<node lat="65.68075000285094" lon="12.126097229778395" id="-9666">
		<tag k="name" v="Nausthågjen" />
		<tag k="natural" v="hill" />
=======
	<node id="-127987" lat="65.6164138905" lon="11.8578138911">
		<tag k="name" v="Lauplia" />
		<tag k="natural" v="slope" />
>>>>>>> e1d4bc35ff8a6074a6f2e91616a996b547c36f15
		<tag k="place" v="locality" />
		<tag k="ssr:stedsnr" v="297344" />
	</node>
<<<<<<< HEAD
	<node lat="65.64093611088424" lon="11.985669434742483" id="-9667">
		<tag k="name" v="Sjåan" />
=======
	<node id="-127986" lat="65.6795638854" lon="11.9525000006">
		<tag k="name" v="Langåsen" />
		<tag k="natural" v="hill" />
>>>>>>> e1d4bc35ff8a6074a6f2e91616a996b547c36f15
		<tag k="place" v="locality" />
		<tag k="ssr:stedsnr" v="297494" />
	</node>
<<<<<<< HEAD
	<node lat="65.69232222044745" lon="11.886533336248455" id="-9672">
		<tag k="name" v="Smååsan" />
=======
	<node id="-127985" lat="65.6779777796" lon="11.9502277807">
		<tag k="name" v="Høgåsen" />
>>>>>>> e1d4bc35ff8a6074a6f2e91616a996b547c36f15
		<tag k="natural" v="hill" />
		<tag k="place" v="locality" />
		<tag k="ssr:stedsnr" v="297802" />
	</node>
<<<<<<< HEAD
	<node lat="65.69108333320798" lon="11.898827778425991" id="-9673">
		<tag k="name" v="Lars Eriksaåsen" />
=======
	<node id="-127984" lat="65.679091665" lon="11.9440833271">
		<tag k="name" v="Bremsteinholten" />
>>>>>>> e1d4bc35ff8a6074a6f2e91616a996b547c36f15
		<tag k="natural" v="hill" />
		<tag k="place" v="locality" />
		<tag k="ssr:stedsnr" v="297811" />
	</node>
<<<<<<< HEAD
	<node lat="65.67509721974669" lon="12.049924995260977" id="-9675">
		<tag k="name" v="Heiet" />
		<tag k="natural" v="slope" />
=======
	<node id="-127983" lat="65.6751194463" lon="11.9303777887">
		<tag k="name" v="Bjørkåsen" />
		<tag k="natural" v="hill" />
>>>>>>> e1d4bc35ff8a6074a6f2e91616a996b547c36f15
		<tag k="place" v="locality" />
		<tag k="ssr:stedsnr" v="309672" />
	</node>
<<<<<<< HEAD
	<node lat="65.68529722529904" lon="11.907152774554444" id="-9676">
		<tag k="name" v="Tellegåsen" />
=======
	<node id="-127981" lat="65.6548777738" lon="11.9500777813">
		<tag k="name" v="Husbondhaugen" />
>>>>>>> e1d4bc35ff8a6074a6f2e91616a996b547c36f15
		<tag k="natural" v="hill" />
		<tag k="place" v="locality" />
		<tag k="ssr:stedsnr" v="311847" />
	</node>
<<<<<<< HEAD
	<node lat="65.67323333490262" lon="11.931908326891548" id="-9721">
		<tag k="fixme" v="consider natural=peak for the most distinct mountains in the district" />
		<tag k="name" v="Bjørkåsen" />
=======
	<node id="-127980" lat="65.6547527747" lon="11.9554083283">
		<tag k="name" v="Fersethaugen" />
>>>>>>> e1d4bc35ff8a6074a6f2e91616a996b547c36f15
		<tag k="natural" v="hill" />
		<tag k="place" v="locality" />
		<tag k="ssr:stedsnr" v="319271" />
	</node>
<<<<<<< HEAD
	<node lat="65.67694444367183" lon="12.059683339531361" id="-9729">
		<tag k="fixme" v="consider natural=peak for the most distinct mountains in the district" />
		<tag k="name" v="Storbrattåsen" />
=======
	<node id="-127976" lat="65.6870749991" lon="11.9745888889">
		<tag k="name" v="Liss-Olderåsen" />
>>>>>>> e1d4bc35ff8a6074a6f2e91616a996b547c36f15
		<tag k="natural" v="hill" />
		<tag k="place" v="locality" />
		<tag k="ssr:stedsnr" v="319467" />
	</node>
<<<<<<< HEAD
	<node lat="65.60479166936678" lon="11.94174721812273" id="-9762">
		<tag k="name" v="Aunhaugen" />
=======
	<node id="-127972" lat="65.6777388913" lon="12.1265500094">
		<tag k="name" v="Nord-Nausthågjen" />
>>>>>>> e1d4bc35ff8a6074a6f2e91616a996b547c36f15
		<tag k="natural" v="hill" />
		<tag k="place" v="locality" />
		<tag k="ssr:stedsnr" v="357171" />
	</node>
<<<<<<< HEAD
	<node lat="65.61664444118529" lon="11.961411114712002" id="-9763">
		<tag k="name" v="Bjørnhaugan" />
=======
	<node id="-127970" lat="65.6491222189" lon="11.8979472241">
		<tag k="name" v="Merrabeinholten" />
>>>>>>> e1d4bc35ff8a6074a6f2e91616a996b547c36f15
		<tag k="natural" v="hill" />
		<tag k="place" v="locality" />
		<tag k="ssr:stedsnr" v="357176" />
	</node>
<<<<<<< HEAD
	<node lat="65.68925832989797" lon="12.110786117741434" id="-9765">
		<tag k="name" v="Steinsheia" />
=======
	<node id="-127937" lat="65.6634916694" lon="11.9632222176">
		<tag k="name" v="Sør-Taushågjen" />
>>>>>>> e1d4bc35ff8a6074a6f2e91616a996b547c36f15
		<tag k="natural" v="hill" />
		<tag k="place" v="locality" />
		<tag k="ssr:stedsnr" v="357381" />
	</node>
<<<<<<< HEAD
	<node lat="65.68677222291547" lon="12.106930565261832" id="-9766">
		<tag k="name" v="Skjellestadheia" />
=======
	<node id="-127930" lat="65.6343527749" lon="11.9191805499">
		<tag k="name" v="Ljøsåsen" />
>>>>>>> e1d4bc35ff8a6074a6f2e91616a996b547c36f15
		<tag k="natural" v="hill" />
		<tag k="place" v="locality" />
		<tag k="ssr:stedsnr" v="357382" />
	</node>
<<<<<<< HEAD
	<node lat="65.68548055229773" lon="12.095627784997097" id="-9767">
		<tag k="name" v="Musåsen" />
=======
	<node id="-127927" lat="65.6796833333" lon="12.0930305628">
		<tag k="name" v="Andåsheia" />
>>>>>>> e1d4bc35ff8a6074a6f2e91616a996b547c36f15
		<tag k="natural" v="hill" />
		<tag k="place" v="locality" />
		<tag k="ssr:stedsnr" v="357612" />
	</node>
<<<<<<< HEAD
	<node lat="65.68858889201448" lon="12.089247217441386" id="-9769">
		<tag k="name" v="Finnvikhaugen" />
=======
	<node id="-127923" lat="65.6775277738" lon="12.12072777">
		<tag k="name" v="Stanghågjen" />
>>>>>>> e1d4bc35ff8a6074a6f2e91616a996b547c36f15
		<tag k="natural" v="hill" />
		<tag k="place" v="locality" />
		<tag k="ssr:stedsnr" v="357621" />
	</node>
<<<<<<< HEAD
	<node lat="65.68755833260286" lon="11.859030552638329" id="-9772">
		<tag k="name" v="Banvassåsen" />
=======
	<node id="-127909" lat="65.708222222" lon="11.9522694345">
		<tag k="name" v="Buskhågjen" />
>>>>>>> e1d4bc35ff8a6074a6f2e91616a996b547c36f15
		<tag k="natural" v="hill" />
		<tag k="place" v="locality" />
		<tag k="ssr:stedsnr" v="357761" />
	</node>
<<<<<<< HEAD
	<node lat="65.69933888688205" lon="11.875394436829197" id="-9774">
		<tag k="name" v="Storhaugen" />
=======
	<node id="-127907" lat="65.6997833322" lon="11.9110555515">
		<tag k="name" v="Storstaulen" />
>>>>>>> e1d4bc35ff8a6074a6f2e91616a996b547c36f15
		<tag k="natural" v="hill" />
		<tag k="place" v="locality" />
		<tag k="ssr:stedsnr" v="357776" />
	</node>
<<<<<<< HEAD
	<node lat="65.69834999931868" lon="11.93015556074983" id="-9777">
		<tag k="name" v="Grønnåsen" />
=======
	<node id="-127906" lat="65.7049166643" lon="11.9081388832">
		<tag k="name" v="Storhågjen" />
>>>>>>> e1d4bc35ff8a6074a6f2e91616a996b547c36f15
		<tag k="natural" v="hill" />
		<tag k="place" v="locality" />
		<tag k="ssr:stedsnr" v="357795" />
	</node>
<<<<<<< HEAD
	<node lat="65.63026111204144" lon="11.795700007466673" id="-9778">
		<tag k="fixme" v="consider natural=peak for the most distinct mountains in the district" />
		<tag k="name" v="Middagsfjellet" />
=======
	<node id="-127904" lat="65.6853055579" lon="11.8699638933">
		<tag k="name" v="Ørheia" />
>>>>>>> e1d4bc35ff8a6074a6f2e91616a996b547c36f15
		<tag k="natural" v="hill" />
		<tag k="place" v="locality" />
		<tag k="ssr:stedsnr" v="358271" />
	</node>
<<<<<<< HEAD
	<node lat="65.65421110724242" lon="11.935766665398342" id="-9779">
		<tag k="name" v="Floakollikberget" />
=======
	<node id="-127903" lat="65.6916611142" lon="11.848347214">
		<tag k="name" v="Trondåsen" />
>>>>>>> e1d4bc35ff8a6074a6f2e91616a996b547c36f15
		<tag k="natural" v="hill" />
		<tag k="place" v="locality" />
		<tag k="ssr:stedsnr" v="358033" />
	</node>
<<<<<<< HEAD
	<node lat="65.63991666951355" lon="11.784852769249177" id="-9781">
		<tag k="name" v="Aunesmolen" />
		<tag k="natural" v="slope" />
=======
	<node id="-127902" lat="65.6964499999" lon="11.8602194378">
		<tag k="name" v="Kråkåsen" />
		<tag k="natural" v="hill" />
>>>>>>> e1d4bc35ff8a6074a6f2e91616a996b547c36f15
		<tag k="place" v="locality" />
		<tag k="ssr:stedsnr" v="358185" />
	</node>
<<<<<<< HEAD
	<node lat="65.69670555338769" lon="12.000772213784433" id="-9786">
		<tag k="name" v="Leirvikåsen" />
=======
	<node id="-127899" lat="65.6883166687" lon="12.0779861062">
		<tag k="name" v="Bakflåget" />
>>>>>>> e1d4bc35ff8a6074a6f2e91616a996b547c36f15
		<tag k="natural" v="hill" />
		<tag k="place" v="locality" />
		<tag k="ssr:stedsnr" v="358734" />
	</node>
<<<<<<< HEAD
	<node lat="65.66262222649134" lon="11.902019435752353" id="-9791">
		<tag k="name" v="Hertruåsen" />
=======
	<node id="-127898" lat="65.7044388861" lon="11.860952776">
		<tag k="name" v="Nordøyhaugen" />
>>>>>>> e1d4bc35ff8a6074a6f2e91616a996b547c36f15
		<tag k="natural" v="hill" />
		<tag k="place" v="locality" />
		<tag k="ssr:stedsnr" v="373755" />
	</node>
<<<<<<< HEAD
	<node lat="65.67043333013285" lon="11.908080554667944" id="-9792">
		<tag k="name" v="Polpåsen" />
=======
	<node id="-127897" lat="65.6759722212" lon="11.967205551">
		<tag k="name" v="Burshågjen" />
>>>>>>> e1d4bc35ff8a6074a6f2e91616a996b547c36f15
		<tag k="natural" v="hill" />
		<tag k="place" v="locality" />
		<tag k="ssr:stedsnr" v="373757" />
	</node>
<<<<<<< HEAD
	<node lat="65.62662777628746" lon="11.777400004898047" id="-9804">
		<tag k="alt_name" v="Resen" />
		<tag k="fixme" v="consider natural=peak for the most distinct mountains in the district" />
		<tag k="name" v="Risen" />
=======
	<node id="-127893" lat="65.6549777769" lon="11.9938027704">
		<tag k="name" v="Teinhaugen" />
>>>>>>> e1d4bc35ff8a6074a6f2e91616a996b547c36f15
		<tag k="natural" v="hill" />
		<tag k="place" v="locality" />
		<tag k="ssr:stedsnr" v="379319" />
	</node>
<<<<<<< HEAD
	<node lat="65.63073333460265" lon="11.968952767084957" id="-9805">
		<tag k="alt_name" v="Floaskaret" />
		<tag k="name" v="Floaskardet" />
		<tag k="natural" v="valley" />
=======
	<node id="-127891" lat="65.6586388855" lon="11.9742611197">
		<tag k="name" v="Vannløken" />
>>>>>>> e1d4bc35ff8a6074a6f2e91616a996b547c36f15
		<tag k="place" v="locality" />
		<tag k="ssr:stedsnr" v="379323" />
	</node>
<<<<<<< HEAD
	<node lat="65.62730277738443" lon="11.953150003200077" id="-9806">
		<tag k="name" v="Skavdalen" />
		<tag k="natural" v="valley" />
=======
	<node id="-127888" lat="65.6136555591" lon="11.7832444496">
		<tag k="name" v="Erviklia" />
		<tag k="natural" v="slope" />
>>>>>>> e1d4bc35ff8a6074a6f2e91616a996b547c36f15
		<tag k="place" v="locality" />
		<tag k="ssr:stedsnr" v="379327" />
	</node>
<<<<<<< HEAD
	<node lat="65.61313610790724" lon="11.863519445191976" id="-9808">
		<tag k="name" v="Skardet" />
		<tag k="natural" v="valley" />
=======
	<node id="-127882" lat="65.589675004" lon="11.8922138866">
		<tag k="name" v="Mosehaugen" />
		<tag k="natural" v="hill" />
>>>>>>> e1d4bc35ff8a6074a6f2e91616a996b547c36f15
		<tag k="place" v="locality" />
		<tag k="ssr:stedsnr" v="379336" />
	</node>
<<<<<<< HEAD
	<node lat="65.61326110676835" lon="11.903983335215578" id="-9853">
		<tag k="fixme" v="consider natural=peak for the most distinct mountains in the district" />
		<tag k="name" v="Middagsskarheia" />
=======
	<node id="-127881" lat="65.5912611121" lon="11.9119277815">
		<tag k="name" v="Rotvikhaugen" />
>>>>>>> e1d4bc35ff8a6074a6f2e91616a996b547c36f15
		<tag k="natural" v="hill" />
		<tag k="place" v="locality" />
		<tag k="ssr:stedsnr" v="418168" />
	</node>
<<<<<<< HEAD
	<node lat="65.6844194426195" lon="11.817699989594686" id="-9854">
		<tag k="name" v="Langmyrheia" />
		<tag k="natural" v="hill" />
=======
	<node id="-127878" lat="65.6754222229" lon="11.8522305458">
		<tag k="name" v="Nonslia" />
		<tag k="natural" v="slope" />
>>>>>>> e1d4bc35ff8a6074a6f2e91616a996b547c36f15
		<tag k="place" v="locality" />
		<tag k="ssr:stedsnr" v="418197" />
	</node>
<<<<<<< HEAD
	<node lat="65.68440555564926" lon="12.109230563554856" id="-9855">
		<tag k="name" v="Liknappen" />
=======
	<node id="-127877" lat="65.6490888913" lon="11.9572277821">
		<tag k="name" v="Storheia" />
>>>>>>> e1d4bc35ff8a6074a6f2e91616a996b547c36f15
		<tag k="natural" v="hill" />
		<tag k="place" v="locality" />
		<tag k="ssr:stedsnr" v="418328" />
	</node>
<<<<<<< HEAD
	<node lat="65.64377499990574" lon="11.940563886490105" id="-9856">
		<tag k="name" v="Sisselberget" />
=======
	<node id="-127874" lat="65.6625166676" lon="11.9187666624">
		<tag k="name" v="Sjølvåsen" />
>>>>>>> e1d4bc35ff8a6074a6f2e91616a996b547c36f15
		<tag k="natural" v="hill" />
		<tag k="place" v="locality" />
		<tag k="ssr:stedsnr" v="419056" />
	</node>
<<<<<<< HEAD
	<node lat="65.68988055936782" lon="11.844980552154864" id="-9858">
		<tag k="name" v="Sjøkleiva" />
		<tag k="natural" v="slope" />
=======
	<node id="-127872" lat="65.6577555562" lon="11.9106361188">
		<tag k="name" v="Heggåsen" />
		<tag k="natural" v="hill" />
>>>>>>> e1d4bc35ff8a6074a6f2e91616a996b547c36f15
		<tag k="place" v="locality" />
		<tag k="ssr:stedsnr" v="418753" />
	</node>
<<<<<<< HEAD
	<node lat="65.69366110790425" lon="11.838530549430752" id="-9860">
		<tag k="name" v="Brandsåsen" />
=======
	<node id="-127866" lat="65.6989027823" lon="11.8840166617">
		<tag k="name" v="Vassåsen" />
>>>>>>> e1d4bc35ff8a6074a6f2e91616a996b547c36f15
		<tag k="natural" v="hill" />
		<tag k="place" v="locality" />
		<tag k="ssr:stedsnr" v="418776" />
	</node>
<<<<<<< HEAD
	<node lat="65.6952500036328" lon="11.917052772026347" id="-9863">
		<tag k="name" v="Gjeltåsen" />
=======
	<node id="-127864" lat="65.6952027777" lon="11.9125055506">
		<tag k="name" v="Viåsen" />
>>>>>>> e1d4bc35ff8a6074a6f2e91616a996b547c36f15
		<tag k="natural" v="hill" />
		<tag k="place" v="locality" />
		<tag k="ssr:stedsnr" v="418831" />
	</node>
<<<<<<< HEAD
	<node lat="65.64533611170249" lon="11.922650007894319" id="-9864">
		<tag k="name" v="Kleiva" />
		<tag k="natural" v="slope" />
=======
	<node id="-127862" lat="65.6373083331" lon="11.8711166749">
		<tag k="name" v="Sjådalene" />
		<tag k="natural" v="valley" />
>>>>>>> e1d4bc35ff8a6074a6f2e91616a996b547c36f15
		<tag k="place" v="locality" />
		<tag k="ssr:stedsnr" v="419026" />
	</node>
<<<<<<< HEAD
	<node lat="65.60554444792089" lon="11.849163886318498" id="-9866">
		<tag k="name" v="Heian" />
=======
	<node id="-127860" lat="65.6572861117" lon="11.9188111179">
		<tag k="name" v="Bjørkåsen" />
>>>>>>> e1d4bc35ff8a6074a6f2e91616a996b547c36f15
		<tag k="natural" v="hill" />
		<tag k="place" v="locality" />
		<tag k="ssr:stedsnr" v="419232" />
	</node>
<<<<<<< HEAD
	<node lat="65.62568333609151" lon="11.97519445055271" id="-9868">
		<tag k="name" v="Sjøhaugen" />
=======
	<node id="-127858" lat="65.6886194481" lon="11.9955805552">
		<tag k="name" v="Brattåsen" />
>>>>>>> e1d4bc35ff8a6074a6f2e91616a996b547c36f15
		<tag k="natural" v="hill" />
		<tag k="place" v="locality" />
		<tag k="ssr:stedsnr" v="419523" />
	</node>
<<<<<<< HEAD
	<node lat="65.65667222657858" lon="12.05440832709778" id="-9869">
		<tag k="name" v="Rundhaugen" />
=======
	<node id="-127857" lat="65.6887027803" lon="11.9892222305">
		<tag k="name" v="Langåsen" />
>>>>>>> e1d4bc35ff8a6074a6f2e91616a996b547c36f15
		<tag k="natural" v="hill" />
		<tag k="place" v="locality" />
		<tag k="ssr:stedsnr" v="419661" />
	</node>
<<<<<<< HEAD
	<node lat="65.67606389153597" lon="12.04500833921417" id="-9874">
		<tag k="name" v="Storhaugen" />
=======
	<node id="-127840" lat="65.6145916676" lon="12.1464166693">
		<tag k="alt_name" v="Langåsheia" />
		<tag k="name" v="Langåsheian" />
>>>>>>> e1d4bc35ff8a6074a6f2e91616a996b547c36f15
		<tag k="natural" v="hill" />
		<tag k="place" v="locality" />
		<tag k="ssr:stedsnr" v="431678" />
	</node>
<<<<<<< HEAD
	<node lat="65.68189444108272" lon="12.03780278105648" id="-9875">
		<tag k="alt_name" v="Merraflåget" />
		<tag k="name" v="Merrafloget" />
=======
	<node id="-127835" lat="65.6929972177" lon="12.0023833398">
		<tag k="alt_name" v="Hjøriheia" />
		<tag k="name" v="Gjøriheia" />
>>>>>>> e1d4bc35ff8a6074a6f2e91616a996b547c36f15
		<tag k="natural" v="hill" />
		<tag k="place" v="locality" />
		<tag k="ssr:stedsnr" v="431683" />
	</node>
<<<<<<< HEAD
	<node lat="65.67281388630728" lon="11.880469448450189" id="-9876">
		<tag k="name" v="Tussåsen" />
=======
	<node id="-127834" lat="65.6953611154" lon="11.9475722259">
		<tag k="alt_name" v="Kjellarhågan" />
		<tag k="fixme" v="consider natural=peak for the most distinct mountains in the district" />
		<tag k="name" v="Kjellarhaugen" />
>>>>>>> e1d4bc35ff8a6074a6f2e91616a996b547c36f15
		<tag k="natural" v="hill" />
		<tag k="place" v="locality" />
		<tag k="ssr:stedsnr" v="433054" />
	</node>
<<<<<<< HEAD
	<node lat="65.63150555675463" lon="11.974019450181519" id="-9878">
=======
	<node id="-127828" lat="65.6635000006" lon="11.8095999907">
>>>>>>> e1d4bc35ff8a6074a6f2e91616a996b547c36f15
		<tag k="fixme" v="consider natural=peak for the most distinct mountains in the district" />
		<tag k="name" v="Kringla" />
		<tag k="natural" v="hill" />
		<tag k="place" v="locality" />
<<<<<<< HEAD
		<tag k="ssr:stedsnr" v="440356" />
	</node>
	<node lat="65.59661111170657" lon="11.875419435813246" id="-9881">
		<tag k="fixme" v="consider natural=peak for the most distinct mountains in the district" />
		<tag k="name" v="Sjøvikklubben" />
		<tag k="natural" v="hill" />
		<tag k="place" v="locality" />
		<tag k="ssr:stedsnr" v="440167" />
	</node>
	<node lat="65.64848889134349" lon="11.934549997266226" id="-9887">
		<tag k="name" v="Korsberget" />
		<tag k="natural" v="hill" />
		<tag k="place" v="locality" />
		<tag k="ssr:stedsnr" v="440332" />
	</node>
	<node lat="65.70383888881427" lon="11.980849992027563" id="-9890">
		<tag k="name" v="Gråheia" />
		<tag k="natural" v="hill" />
		<tag k="place" v="locality" />
		<tag k="ssr:stedsnr" v="440435" />
	</node>
	<node lat="65.6336250018048" lon="11.86110555181963" id="-9902">
		<tag k="name" v="Kjerringdalen" />
		<tag k="natural" v="valley" />
		<tag k="place" v="locality" />
		<tag k="ssr:stedsnr" v="440369" />
	</node>
	<node lat="65.64168333266595" lon="11.860949999956473" id="-9929">
		<tag k="name" v="Skjeggemoen" />
		<tag k="place" v="locality" />
		<tag k="ssr:stedsnr" v="500345" />
	</node>
	<node lat="65.69822499863957" lon="12.007033322447452" id="-9939">
		<tag k="name" v="Storheia" />
		<tag k="natural" v="hill" />
		<tag k="place" v="locality" />
		<tag k="ssr:stedsnr" v="500546" />
	</node>
	<node lat="65.69246944152341" lon="12.105708339066087" id="-9972">
		<tag k="name" v="Nerheian" />
		<tag k="natural" v="hill" />
		<tag k="place" v="locality" />
		<tag k="ssr:stedsnr" v="540380" />
	</node>
	<node lat="65.6603944423437" lon="11.978263890478718" id="-9974">
		<tag k="name" v="Forråsen" />
		<tag k="natural" v="hill" />
		<tag k="place" v="locality" />
		<tag k="ssr:stedsnr" v="540498" />
	</node>
	<node lat="65.61071666632965" lon="11.79316945340354" id="-9975">
		<tag k="name" v="Juvikhågjen" />
		<tag k="natural" v="hill" />
		<tag k="place" v="locality" />
		<tag k="ssr:stedsnr" v="539245" />
	</node>
	<node lat="65.68933333524376" lon="11.92466389894055" id="-9979">
		<tag k="name" v="Faueltrappen" />
		<tag k="natural" v="hill" />
		<tag k="place" v="locality" />
		<tag k="ssr:stedsnr" v="539795" />
	</node>
	<node lat="65.64732777447546" lon="11.869161102181277" id="-9981">
		<tag k="name" v="Tussheia" />
		<tag k="natural" v="hill" />
		<tag k="place" v="locality" />
		<tag k="ssr:stedsnr" v="540001" />
	</node>
	<node lat="65.66058610890654" lon="11.893580565489032" id="-9982">
		<tag k="name" v="Steinåsen" />
		<tag k="natural" v="hill" />
		<tag k="place" v="locality" />
		<tag k="ssr:stedsnr" v="540042" />
	</node>
	<node lat="65.6933944470633" lon="12.09985556647309" id="-9984">
		<tag k="name" v="Nøkktjønnheian" />
		<tag k="natural" v="hill" />
		<tag k="place" v="locality" />
		<tag k="ssr:stedsnr" v="540729" />
	</node>
	<node lat="65.69099166991029" lon="11.840894443677097" id="-9985">
		<tag k="name" v="Restua" />
		<tag k="natural" v="hill" />
		<tag k="place" v="locality" />
		<tag k="ssr:stedsnr" v="540768" />
	</node>
	<node lat="65.62827777932212" lon="12.162938881160388" id="-9988">
		<tag k="name" v="Liss-Nonshågjen" />
		<tag k="natural" v="hill" />
		<tag k="place" v="locality" />
		<tag k="ssr:stedsnr" v="542696" />
	</node>
	<node lat="65.63046388585428" lon="12.174097211315253" id="-9989">
		<tag k="name" v="Vardan" />
		<tag k="natural" v="hill" />
		<tag k="place" v="locality" />
		<tag k="ssr:stedsnr" v="542699" />
	</node>
	<node lat="65.60843889078922" lon="12.137605566305995" id="-9990">
		<tag k="name" v="Ytterhågjen" />
		<tag k="natural" v="hill" />
		<tag k="place" v="locality" />
		<tag k="ssr:stedsnr" v="542700" />
	</node>
	<node lat="65.67470833566998" lon="11.890094444064145" id="-9993">
		<tag k="name" v="Nedre-Oksåsen" />
		<tag k="natural" v="hill" />
		<tag k="place" v="locality" />
		<tag k="ssr:stedsnr" v="554039" />
	</node>
	<node lat="65.67083055805954" lon="11.977697216994228" id="-9994">
		<tag k="name" v="Eldarhågjen" />
		<tag k="natural" v="hill" />
		<tag k="place" v="locality" />
		<tag k="ssr:stedsnr" v="554567" />
	</node>
	<node lat="65.66573333075944" lon="11.905797224641248" id="-9995">
		<tag k="name" v="Almåsen" />
		<tag k="natural" v="hill" />
		<tag k="place" v="locality" />
		<tag k="ssr:stedsnr" v="555727" />
	</node>
	<node lat="65.66441389349903" lon="11.976352771712037" id="-9996">
		<tag k="name" v="Blakkheia" />
		<tag k="natural" v="hill" />
		<tag k="place" v="locality" />
		<tag k="ssr:stedsnr" v="559966" />
	</node>
	<node lat="65.69299721766319" lon="12.002383339844783" id="-9999">
		<tag k="alt_name" v="Hjøriheia" />
		<tag k="name" v="Gjøriheia" />
		<tag k="natural" v="hill" />
		<tag k="place" v="locality" />
		<tag k="ssr:stedsnr" v="561468" />
	</node>
	<node lat="65.66517500403621" lon="12.008663887285051" id="-10001">
		<tag k="alt_name" v="Rundhågjen" />
		<tag k="name" v="Rundhaugen" />
		<tag k="natural" v="hill" />
		<tag k="place" v="locality" />
		<tag k="ssr:stedsnr" v="561287" />
	</node>
	<node lat="65.66350000064675" lon="11.809599990668985" id="-10008">
		<tag k="fixme" v="consider natural=peak for the most distinct mountains in the district" />
		<tag k="name" v="Sundsvollhamran" />
		<tag k="natural" v="hill" />
		<tag k="place" v="locality" />
		<tag k="ssr:stedsnr" v="561272" />
	</node>
	<node lat="65.62483055158938" lon="11.833927780382652" id="-10010">
		<tag k="fixme" v="consider natural=peak for the most distinct mountains in the district" />
		<tag k="name" v="Hestbaken" />
		<tag k="natural" v="hill" />
		<tag k="place" v="locality" />
		<tag k="ssr:stedsnr" v="561332" />
	</node>
	<node lat="65.63350555391348" lon="11.790699993645113" id="-10015">
		<tag k="fixme" v="consider natural=peak for the most distinct mountains in the district" />
		<tag k="name" v="Krokskavlen" />
		<tag k="natural" v="hill" />
		<tag k="place" v="locality" />
		<tag k="ssr:stedsnr" v="561350" />
	</node>
	<node lat="65.61459166757061" lon="12.146416669261319" id="-10017">
		<tag k="alt_name" v="Langåsheia" />
		<tag k="name" v="Langåsheian" />
		<tag k="natural" v="hill" />
		<tag k="place" v="locality" />
		<tag k="ssr:stedsnr" v="561360" />
	</node>
	<node lat="65.69536111540194" lon="11.947572225858126" id="-10022">
		<tag k="alt_name" v="Kjellarhågan" />
		<tag k="fixme" v="consider natural=peak for the most distinct mountains in the district" />
		<tag k="name" v="Kjellarhaugen" />
=======
		<tag k="ssr:stedsnr" v="561272" />
	</node>
	<node id="-127825" lat="65.6644138935" lon="11.9763527717">
		<tag k="name" v="Blakkheia" />
		<tag k="natural" v="hill" />
		<tag k="place" v="locality" />
		<tag k="ssr:stedsnr" v="559966" />
	</node>
	<node id="-127824" lat="65.6668722184" lon="12.0187666608">
		<tag k="name" v="Aspen" />
		<tag k="natural" v="hill" />
		<tag k="place" v="locality" />
		<tag k="ssr:stedsnr" v="556572" />
	</node>
	<node id="-127823" lat="65.6708305581" lon="11.977697217">
		<tag k="name" v="Eldarhågjen" />
		<tag k="natural" v="hill" />
		<tag k="place" v="locality" />
		<tag k="ssr:stedsnr" v="554567" />
	</node>
	<node id="-127816" lat="65.7038083327" lon="11.9035583332">
		<tag k="name" v="Vetåsen" />
		<tag k="natural" v="hill" />
		<tag k="place" v="locality" />
		<tag k="ssr:stedsnr" v="540813" />
	</node>
	<node id="-127812" lat="65.646175004" lon="11.85555556">
		<tag k="name" v="Moheia" />
		<tag k="natural" v="hill" />
		<tag k="place" v="locality" />
		<tag k="ssr:stedsnr" v="540004" />
	</node>
	<node id="-127787" lat="65.626275004" lon="11.8128944436">
		<tag k="alt_name" v="Trollvasstindan" />
		<tag k="fixme" v="consider natural=peak for the most distinct mountains in the district" />
		<tag k="name" v="Trollvasstinden" />
		<tag k="natural" v="hill" />
		<tag k="place" v="locality" />
		<tag k="ssr:stedsnr" v="683295" />
	</node>
	<node id="-127782" lat="65.6454194467" lon="11.9796611053">
		<tag k="name" v="Storheia" />
		<tag k="natural" v="hill" />
		<tag k="place" v="locality" />
		<tag k="ssr:stedsnr" v="683275" />
	</node>
	<node id="-127731" lat="65.6982249986" lon="12.0070333224">
		<tag k="name" v="Storheia" />
		<tag k="natural" v="hill" />
		<tag k="place" v="locality" />
		<tag k="ssr:stedsnr" v="500546" />
	</node>
	<node id="-127727" lat="65.6055944479" lon="12.1537555478">
		<tag k="fixme" v="consider natural=peak for the most distinct mountains in the district" />
		<tag k="name" v="Heståsen" />
		<tag k="natural" v="hill" />
		<tag k="place" v="locality" />
		<tag k="ssr:stedsnr" v="500143" />
	</node>
	<node id="-127723" lat="65.7009027794" lon="11.9212750077">
		<tag k="name" v="Middagshaugen" />
		<tag k="natural" v="hill" />
		<tag k="place" v="locality" />
		<tag k="ssr:stedsnr" v="479828" />
	</node>
	<node id="-127721" lat="65.6883861107" lon="11.8765277846">
		<tag k="name" v="Valldalen" />
		<tag k="natural" v="valley" />
		<tag k="place" v="locality" />
		<tag k="ssr:stedsnr" v="479803" />
	</node>
	<node id="-127713" lat="65.6997000015" lon="11.926669449">
		<tag k="name" v="Tussberget" />
		<tag k="natural" v="hill" />
		<tag k="place" v="locality" />
		<tag k="ssr:stedsnr" v="661832" />
	</node>
	<node id="-127712" lat="65.6953861137" lon="11.9056611146">
		<tag k="name" v="Olåsen" />
		<tag k="natural" v="hill" />
		<tag k="place" v="locality" />
		<tag k="ssr:stedsnr" v="661828" />
	</node>
	<node id="-127711" lat="65.6980388921" lon="11.9274083445">
		<tag k="name" v="Stor-Ravnberget" />
		<tag k="natural" v="hill" />
		<tag k="place" v="locality" />
		<tag k="ssr:stedsnr" v="661791" />
	</node>
	<node id="-127709" lat="65.6942249979" lon="11.8775972183">
		<tag k="name" v="Staulåsen" />
		<tag k="natural" v="hill" />
		<tag k="place" v="locality" />
		<tag k="ssr:stedsnr" v="661775" />
	</node>
	<node id="-127708" lat="65.6822027773" lon="11.8729999921">
		<tag k="name" v="Storkleiva" />
		<tag k="natural" v="hill" />
		<tag k="place" v="locality" />
		<tag k="ssr:stedsnr" v="661771" />
	</node>
	<node id="-127702" lat="65.6833361092" lon="12.0272277728">
		<tag k="name" v="Ørnheia" />
		<tag k="natural" v="hill" />
		<tag k="place" v="locality" />
		<tag k="ssr:stedsnr" v="661498" />
	</node>
	<node id="-127699" lat="65.6853888919" lon="12.1063388861">
		<tag k="name" v="Landvindsheia" />
		<tag k="natural" v="hill" />
		<tag k="place" v="locality" />
		<tag k="ssr:stedsnr" v="661372" />
	</node>
	<node id="-127697" lat="65.6557194479" lon="11.795844441">
		<tag k="name" v="Romsdalen" />
		<tag k="natural" v="valley" />
		<tag k="place" v="locality" />
		<tag k="ssr:stedsnr" v="661200" />
	</node>
	<node id="-127695" lat="65.6261527816" lon="11.8696777717">
		<tag k="name" v="Levingsskardet" />
		<tag k="natural" v="valley" />
		<tag k="place" v="locality" />
		<tag k="ssr:stedsnr" v="661172" />
	</node>
	<node id="-127691" lat="65.6436055522" lon="11.8741138842">
		<tag k="name" v="Kirstendalen" />
		<tag k="natural" v="valley" />
		<tag k="place" v="locality" />
		<tag k="ssr:stedsnr" v="661005" />
	</node>
	<node id="-127688" lat="65.6296805573" lon="12.1543722142">
		<tag k="name" v="Bussvalheian" />
		<tag k="natural" v="hill" />
		<tag k="place" v="locality" />
		<tag k="ssr:stedsnr" v="299286" />
	</node>
	<node id="-127676" lat="65.6256833361" lon="11.9751944506">
		<tag k="name" v="Sjøhaugen" />
		<tag k="natural" v="hill" />
		<tag k="place" v="locality" />
		<tag k="ssr:stedsnr" v="419523" />
	</node>
	<node id="-127674" lat="65.6055444479" lon="11.8491638863">
		<tag k="name" v="Heian" />
		<tag k="natural" v="hill" />
		<tag k="place" v="locality" />
		<tag k="ssr:stedsnr" v="419232" />
	</node>
	<node id="-127672" lat="65.6453361117" lon="11.9226500079">
		<tag k="name" v="Kleiva" />
		<tag k="natural" v="slope" />
		<tag k="place" v="locality" />
		<tag k="ssr:stedsnr" v="419026" />
	</node>
	<node id="-127671" lat="65.6952500036" lon="11.917052772">
		<tag k="name" v="Gjeltåsen" />
		<tag k="natural" v="hill" />
		<tag k="place" v="locality" />
		<tag k="ssr:stedsnr" v="418831" />
	</node>
	<node id="-127670" lat="65.6899222203" lon="12.0947833288">
		<tag k="name" v="Gåsvikheian" />
		<tag k="natural" v="hill" />
		<tag k="place" v="locality" />
		<tag k="ssr:stedsnr" v="418616" />
	</node>
	<node id="-127668" lat="65.677824996" lon="11.8204722318">
		<tag k="name" v="Eldhusheia" />
		<tag k="natural" v="hill" />
		<tag k="place" v="locality" />
		<tag k="ssr:stedsnr" v="418207" />
	</node>
	<node id="-127667" lat="65.6844055556" lon="12.1092305636">
		<tag k="name" v="Liknappen" />
		<tag k="natural" v="hill" />
		<tag k="place" v="locality" />
		<tag k="ssr:stedsnr" v="418328" />
	</node>
	<node id="-127610" lat="65.6416833327" lon="11.86095">
		<tag k="name" v="Skjeggemoen" />
		<tag k="place" v="locality" />
		<tag k="ssr:stedsnr" v="500345" />
	</node>
	<node id="-127609" lat="65.6409305583" lon="11.9038805603">
		<tag k="name" v="Stordalen" />
		<tag k="natural" v="valley" />
		<tag k="place" v="locality" />
		<tag k="ssr:stedsnr" v="500339" />
	</node>
	<node id="-127601" lat="65.6704333301" lon="11.9080805547">
		<tag k="name" v="Polpåsen" />
		<tag k="natural" v="hill" />
		<tag k="place" v="locality" />
		<tag k="ssr:stedsnr" v="373757" />
	</node>
	<node id="-127600" lat="65.6626222265" lon="11.9020194358">
		<tag k="name" v="Hertruåsen" />
		<tag k="natural" v="hill" />
		<tag k="place" v="locality" />
		<tag k="ssr:stedsnr" v="373755" />
	</node>
	<node id="-127598" lat="65.6785972235" lon="11.9345555531">
		<tag k="name" v="Lauvåsen" />
		<tag k="natural" v="hill" />
		<tag k="place" v="locality" />
		<tag k="ssr:stedsnr" v="494754" />
	</node>
	<node id="-127597" lat="65.7025138857" lon="11.9230249889">
		<tag k="name" v="Trollberget" />
		<tag k="natural" v="hill" />
		<tag k="place" v="locality" />
		<tag k="ssr:stedsnr" v="358817" />
	</node>
	<node id="-127595" lat="65.6906666653" lon="11.9044444505">
		<tag k="name" v="Toskillingsholten" />
		<tag k="natural" v="hill" />
		<tag k="place" v="locality" />
		<tag k="ssr:stedsnr" v="358802" />
	</node>
	<node id="-127594" lat="65.6797194463" lon="12.0236527802">
		<tag k="name" v="Falkmannheia" />
		<tag k="natural" v="hill" />
		<tag k="place" v="locality" />
		<tag k="ssr:stedsnr" v="358555" />
	</node>
	<node id="-127590" lat="65.630261112" lon="11.7957000075">
		<tag k="fixme" v="consider natural=peak for the most distinct mountains in the district" />
		<tag k="name" v="Middagsfjellet" />
		<tag k="natural" v="hill" />
		<tag k="ssr:stedsnr" v="358271" />
	</node>
	<node id="-127588" lat="65.681294441" lon="12.1046861081">
		<tag k="name" v="Igerøydalen" />
		<tag k="natural" v="valley" />
		<tag k="place" v="locality" />
		<tag k="ssr:stedsnr" v="358306" />
	</node>
	<node id="-127587" lat="65.6031527813" lon="11.8513083366">
		<tag k="name" v="Skarvberghaugen" />
		<tag k="natural" v="hill" />
		<tag k="place" v="locality" />
		<tag k="ssr:stedsnr" v="358203" />
	</node>
	<node id="-127586" lat="65.688588892" lon="12.0892472174">
		<tag k="name" v="Finnvikhaugen" />
		<tag k="natural" v="hill" />
		<tag k="place" v="locality" />
		<tag k="ssr:stedsnr" v="357621" />
	</node>
	<node id="-127584" lat="65.6854805523" lon="12.095627785">
		<tag k="name" v="Musåsen" />
		<tag k="natural" v="hill" />
		<tag k="place" v="locality" />
		<tag k="ssr:stedsnr" v="357612" />
	</node>
	<node id="-127581" lat="65.6777472207" lon="12.0727972124">
		<tag k="name" v="Valåsen" />
		<tag k="natural" v="hill" />
		<tag k="place" v="locality" />
		<tag k="ssr:stedsnr" v="491653" />
	</node>
	<node id="-127580" lat="65.6786472187" lon="12.0802416653">
		<tag k="name" v="Stakkåsen" />
		<tag k="natural" v="hill" />
		<tag k="place" v="locality" />
		<tag k="ssr:stedsnr" v="491634" />
	</node>
	<node id="-127577" lat="65.6827138921" lon="11.9048694352">
		<tag k="name" v="Kløftåsen" />
		<tag k="natural" v="hill" />
		<tag k="place" v="locality" />
		<tag k="ssr:stedsnr" v="481775" />
	</node>
	<node id="-127572" lat="65.704816668" lon="11.9039416655">
		<tag k="name" v="Maglihågjen" />
		<tag k="natural" v="hill" />
		<tag k="place" v="locality" />
		<tag k="ssr:stedsnr" v="479831" />
	</node>
	<node id="-127567" lat="65.6865472238" lon="12.127722213">
		<tag k="name" v="Sjåvikhågjen" />
		<tag k="natural" v="hill" />
		<tag k="place" v="locality" />
		<tag k="ssr:stedsnr" v="479401" />
	</node>
	<node id="-127564" lat="65.6615888857" lon="11.9751638988">
		<tag k="name" v="Lissforråsen" />
		<tag k="natural" v="hill" />
		<tag k="place" v="locality" />
		<tag k="ssr:stedsnr" v="479487" />
	</node>
	<node id="-127563" lat="65.6592694481" lon="11.9658194479">
		<tag k="name" v="Rotåsen" />
		<tag k="natural" v="hill" />
		<tag k="place" v="locality" />
		<tag k="ssr:stedsnr" v="479486" />
	</node>
	<node id="-127556" lat="65.6701472262" lon="11.8895027752">
		<tag k="name" v="Boltåsen" />
		<tag k="natural" v="hill" />
		<tag k="place" v="locality" />
		<tag k="ssr:stedsnr" v="479047" />
	</node>
	<node id="-127544" lat="65.6004527804" lon="12.1420166672">
		<tag k="name" v="Salvikheia" />
		<tag k="natural" v="hill" />
		<tag k="place" v="locality" />
		<tag k="ssr:stedsnr" v="299712" />
	</node>
	<node id="-127543" lat="65.6875777811" lon="12.0930777693">
		<tag k="name" v="Olderskogheian" />
		<tag k="natural" v="hill" />
		<tag k="place" v="locality" />
		<tag k="ssr:stedsnr" v="297624" />
	</node>
	<node id="-127542" lat="65.6510416686" lon="11.9112138978">
		<tag k="name" v="Øverforsheia" />
		<tag k="natural" v="hill" />
		<tag k="place" v="locality" />
		<tag k="ssr:stedsnr" v="468015" />
	</node>
	<node id="-127481" lat="65.6256166642" lon="11.8629388814">
		<tag k="fixme" v="consider natural=peak for the most distinct mountains in the district" />
		<tag k="name" v="Vegtindan" />
		<tag k="natural" v="hill" />
		<tag k="place" v="locality" />
		<tag k="ssr:stedsnr" v="258328" />
	</node>
	<node id="-127479" lat="65.653966664" lon="11.8253388958">
		<tag k="fixme" v="consider natural=peak for the most distinct mountains in the district" />
		<tag k="name" v="Røsstinden" />
		<tag k="natural" v="hill" />
		<tag k="place" v="locality" />
		<tag k="ssr:stedsnr" v="258322" />
	</node>
	<node id="-127475" lat="65.60030278" lon="11.9331027761">
		<tag k="fixme" v="consider natural=peak for the most distinct mountains in the district" />
		<tag k="name" v="Laukhammaren" />
		<tag k="natural" v="hill" />
		<tag k="place" v="locality" />
		<tag k="ssr:stedsnr" v="258156" />
	</node>
	<node id="-127465" lat="65.6501611083" lon="11.8872916697">
		<tag k="name" v="Heståsen" />
		<tag k="natural" v="hill" />
		<tag k="place" v="locality" />
		<tag k="ssr:stedsnr" v="236025" />
	</node>
	<node id="-127464" lat="65.6513722212" lon="11.9257138995">
		<tag k="name" v="Kjelhaugen" />
		<tag k="natural" v="hill" />
		<tag k="place" v="locality" />
		<tag k="ssr:stedsnr" v="236022" />
	</node>
	<node id="-127416" lat="65.7038388888" lon="11.980849992">
		<tag k="name" v="Gråheia" />
		<tag k="natural" v="hill" />
		<tag k="place" v="locality" />
		<tag k="ssr:stedsnr" v="440435" />
	</node>
	<node id="-127411" lat="65.6246194458" lon="12.1556944457">
		<tag k="name" v="Stornonshaugen" />
		<tag k="natural" v="hill" />
		<tag k="place" v="locality" />
		<tag k="ssr:stedsnr" v="440394" />
	</node>
	<node id="-127408" lat="65.6336250018" lon="11.8611055518">
		<tag k="name" v="Kjerringdalen" />
		<tag k="natural" v="valley" />
		<tag k="place" v="locality" />
		<tag k="ssr:stedsnr" v="440369" />
	</node>
	<node id="-127404" lat="65.6315055568" lon="11.9740194502">
		<tag k="fixme" v="consider natural=peak for the most distinct mountains in the district" />
		<tag k="name" v="Kringla" />
		<tag k="natural" v="hill" />
		<tag k="place" v="locality" />
		<tag k="ssr:stedsnr" v="440356" />
	</node>
	<node id="-127400" lat="65.6484888913" lon="11.9345499973">
		<tag k="name" v="Korsberget" />
		<tag k="natural" v="hill" />
		<tag k="place" v="locality" />
		<tag k="ssr:stedsnr" v="440332" />
	</node>
	<node id="-127391" lat="65.5966111117" lon="11.8754194358">
		<tag k="fixme" v="consider natural=peak for the most distinct mountains in the district" />
		<tag k="name" v="Sjøvikklubben" />
		<tag k="natural" v="hill" />
		<tag k="place" v="locality" />
		<tag k="ssr:stedsnr" v="440167" />
	</node>
	<node id="-127388" lat="65.6910833332" lon="11.8988277784">
		<tag k="name" v="Lars Eriksaåsen" />
		<tag k="natural" v="hill" />
		<tag k="place" v="locality" />
		<tag k="ssr:stedsnr" v="297811" />
	</node>
	<node id="-127387" lat="65.6923222204" lon="11.8865333362">
		<tag k="name" v="Smååsan" />
		<tag k="natural" v="hill" />
		<tag k="place" v="locality" />
		<tag k="ssr:stedsnr" v="297802" />
	</node>
	<node id="-127386" lat="65.6809583357" lon="11.8847694528">
		<tag k="name" v="Labruåsen" />
		<tag k="natural" v="hill" />
		<tag k="place" v="locality" />
		<tag k="ssr:stedsnr" v="297783" />
	</node>
	<node id="-127383" lat="65.6891166665" lon="11.9850027781">
		<tag k="name" v="Blakkheia" />
		<tag k="natural" v="hill" />
		<tag k="place" v="locality" />
		<tag k="ssr:stedsnr" v="297732" />
	</node>
	<node id="-127380" lat="65.6803999986" lon="11.9874638877">
		<tag k="name" v="Kråkheia" />
		<tag k="natural" v="hill" />
		<tag k="place" v="locality" />
		<tag k="ssr:stedsnr" v="297519" />
	</node>
	<node id="-127379" lat="65.6409361109" lon="11.9856694347">
		<tag k="name" v="Sjåan" />
		<tag k="place" v="locality" />
		<tag k="ssr:stedsnr" v="297494" />
	</node>
	<node id="-127376" lat="65.6807500029" lon="12.1260972298">
		<tag k="name" v="Nausthågjen" />
		<tag k="natural" v="hill" />
		<tag k="place" v="locality" />
		<tag k="ssr:stedsnr" v="297344" />
	</node>
	<node id="-129422" lat="65.6407194432" lon="12.1616722152">
		<tag k="name" v="Kobbneshågjen" />
		<tag k="natural" v="hill" />
		<tag k="place" v="locality" />
		<tag k="ssr:stedsnr" v="967201" />
	</node>
	<node id="-129420" lat="65.699136109" lon="11.9729416573">
		<tag k="name" v="Einåsen" />
		<tag k="natural" v="hill" />
		<tag k="place" v="locality" />
		<tag k="ssr:stedsnr" v="965729" />
	</node>
	<node id="-127371" lat="65.6422361105" lon="11.7795749916">
		<tag k="name" v="Storhågjen" />
		<tag k="natural" v="hill" />
		<tag k="place" v="locality" />
		<tag k="ssr:stedsnr" v="297217" />
	</node>
	<node id="-129417" lat="65.6785388914" lon="12.1045888875">
		<tag k="fixme" v="consider natural=peak for the most distinct mountains in the district" />
		<tag k="name" v="Innerfjellet" />
		<tag k="natural" v="hill" />
		<tag k="place" v="locality" />
		<tag k="ssr:stedsnr" v="965348" />
	</node>
	<node id="-129414" lat="65.6265527752" lon="11.8126666691">
		<tag k="fixme" v="consider natural=peak for the most distinct mountains in the district" />
		<tag k="name" v="Trolltinden" />
>>>>>>> e1d4bc35ff8a6074a6f2e91616a996b547c36f15
		<tag k="natural" v="hill" />
		<tag k="ssr:stedsnr" v="965306" />
	</node>
	<node id="-129411" lat="65.6519138893" lon="11.7946416721">
		<tag k="name" v="Sørdalen" />
		<tag k="natural" v="valley" />
		<tag k="place" v="locality" />
<<<<<<< HEAD
		<tag k="ssr:stedsnr" v="561463" />
	</node>
	<node lat="65.6779861067853" lon="12.101561107111877" id="-10033">
		<tag k="fixme" v="multiple name tags, choose one and add the other to alt_name; consider natural=peak for the most distinct mountains in the district" />
		<tag k="name" v="Ørntuva;Bøfjellet" />
		<tag k="natural" v="hill" />
		<tag k="place" v="locality" />
		<tag k="ssr:stedsnr" v="561487" />
	</node>
	<node lat="65.68870278030415" lon="11.989222230491384" id="-10070">
		<tag k="name" v="Langåsen" />
		<tag k="natural" v="hill" />
		<tag k="place" v="locality" />
		<tag k="ssr:stedsnr" v="570673" />
	</node>
	<node lat="65.688619448139" lon="11.995580555166432" id="-10071">
		<tag k="name" v="Brattåsen" />
		<tag k="natural" v="hill" />
		<tag k="place" v="locality" />
		<tag k="ssr:stedsnr" v="570674" />
	</node>
	<node lat="65.62500833396784" lon="11.964197229763888" id="-10079">
		<tag k="name" v="Kleiva" />
		<tag k="natural" v="slope" />
		<tag k="place" v="locality" />
		<tag k="ssr:stedsnr" v="600078" />
	</node>
	<node lat="65.65728611172383" lon="11.918811117859033" id="-10080">
		<tag k="name" v="Bjørkåsen" />
		<tag k="natural" v="hill" />
		<tag k="place" v="locality" />
		<tag k="ssr:stedsnr" v="600022" />
	</node>
	<node lat="65.61305277954135" lon="11.887588882634406" id="-10082">
		<tag k="name" v="Tofte" />
		<tag k="place" v="locality" />
		<tag k="ssr:stedsnr" v="600234" />
	</node>
	<node lat="65.69520277769134" lon="11.91250555060129" id="-10084">
		<tag k="name" v="Viåsen" />
		<tag k="natural" v="hill" />
		<tag k="place" v="locality" />
		<tag k="ssr:stedsnr" v="600830" />
	</node>
	<node lat="65.63730833305634" lon="11.8711166749173" id="-10086">
		<tag k="name" v="Sjådalene" />
		<tag k="natural" v="valley" />
		<tag k="place" v="locality" />
		<tag k="ssr:stedsnr" v="600189" />
	</node>
	<node lat="65.68396388699954" lon="12.121522227027583" id="-10088">
		<tag k="name" v="Langhågjen" />
		<tag k="natural" v="hill" />
		<tag k="place" v="locality" />
		<tag k="ssr:stedsnr" v="600331" />
	</node>
	<node lat="65.62213055574337" lon="11.971000007878882" id="-10089">
		<tag k="name" v="Storhaugen" />
		<tag k="natural" v="hill" />
		<tag k="place" v="locality" />
		<tag k="ssr:stedsnr" v="600390" />
	</node>
	<node lat="65.65160277648155" lon="11.983791672759043" id="-10090">
		<tag k="name" v="Torvheia" />
		<tag k="natural" v="hill" />
		<tag k="place" v="locality" />
		<tag k="ssr:stedsnr" v="600486" />
	</node>
	<node lat="65.64973888964049" lon="11.980491668140589" id="-10091">
		<tag k="name" v="Heståsheia" />
		<tag k="natural" v="hill" />
		<tag k="place" v="locality" />
		<tag k="ssr:stedsnr" v="600491" />
	</node>
	<node lat="65.69890278229116" lon="11.884016661686342" id="-10095">
		<tag k="name" v="Vassåsen" />
		<tag k="natural" v="hill" />
		<tag k="place" v="locality" />
		<tag k="ssr:stedsnr" v="600782" />
	</node>
	<node lat="65.70182222458254" lon="11.869386117457974" id="-10098">
		<tag k="name" v="Aråsen" />
		<tag k="natural" v="hill" />
		<tag k="place" v="locality" />
		<tag k="ssr:stedsnr" v="600742" />
	</node>
	<node lat="65.64354166582136" lon="11.790494436503378" id="-10099">
		<tag k="name" v="Grindtrøa" />
		<tag k="place" v="locality" />
		<tag k="ssr:stedsnr" v="602192" />
	</node>
	<node lat="65.64265555441715" lon="11.792586110014502" id="-10100">
		<tag k="name" v="Vegdalen" />
		<tag k="natural" v="valley" />
		<tag k="place" v="locality" />
		<tag k="ssr:stedsnr" v="602195" />
	</node>
	<node lat="65.6412000039364" lon="12.176444442048476" id="-10101">
		<tag k="name" v="Skutneshågjen" />
		<tag k="natural" v="hill" />
		<tag k="place" v="locality" />
		<tag k="ssr:stedsnr" v="612362" />
	</node>
	<node lat="65.67575278101494" lon="12.08532777891504" id="-10102">
		<tag k="name" v="Brattåsen" />
		<tag k="natural" v="hill" />
		<tag k="place" v="locality" />
		<tag k="ssr:stedsnr" v="612645" />
	</node>
	<node lat="65.67572777812423" lon="12.075041673678188" id="-10103">
		<tag k="name" v="Huldergrova" />
		<tag k="natural" v="valley" />
		<tag k="place" v="locality" />
		<tag k="ssr:stedsnr" v="613639" />
	</node>
	<node lat="65.66251666761215" lon="11.918766662411226" id="-10108">
		<tag k="name" v="Sjølvåsen" />
		<tag k="natural" v="hill" />
		<tag k="place" v="locality" />
		<tag k="ssr:stedsnr" v="616760" />
	</node>
	<node lat="65.65882500228001" lon="12.026513880132207" id="-10117">
		<tag k="name" v="Rørøyhaugen" />
		<tag k="natural" v="hill" />
		<tag k="place" v="locality" />
		<tag k="ssr:stedsnr" v="621257" />
	</node>
	<node lat="65.63840000175291" lon="11.913816659282743" id="-10140">
		<tag k="fixme" v="consider natural=peak for the most distinct mountains in the district" />
		<tag k="name" v="Floaksla" />
		<tag k="natural" v="hill" />
		<tag k="place" v="locality" />
		<tag k="ssr:stedsnr" v="622296" />
	</node>
	<node lat="65.63587777729646" lon="11.887791674226138" id="-10141">
		<tag k="name" v="Kalvlia" />
		<tag k="natural" v="slope" />
		<tag k="place" v="locality" />
		<tag k="ssr:stedsnr" v="622332" />
	</node>
	<node lat="65.62010277660049" lon="12.15001667370864" id="-10143">
		<tag k="fixme" v="multiple name tags, choose one and add the other to alt_name" />
		<tag k="name" v="Tyskhaugen;Jo-Knutsåheia" />
		<tag k="natural" v="hill" />
		<tag k="place" v="locality" />
		<tag k="ssr:stedsnr" v="622356" />
	</node>
	<node lat="65.68485555387763" lon="11.92337776904795" id="-10149">
		<tag k="fixme" v="consider natural=peak for the most distinct mountains in the district" />
		<tag k="name" v="Kubbåsen" />
		<tag k="natural" v="hill" />
		<tag k="place" v="locality" />
		<tag k="ssr:stedsnr" v="622447" />
	</node>
	<node lat="65.65571944791382" lon="11.79584444096088" id="-10178">
		<tag k="name" v="Romsdalen" />
		<tag k="natural" v="valley" />
		<tag k="place" v="locality" />
		<tag k="ssr:stedsnr" v="661200" />
	</node>
	<node lat="65.62615278156116" lon="11.869677771745353" id="-10181">
		<tag k="name" v="Levingsskardet" />
		<tag k="natural" v="valley" />
		<tag k="place" v="locality" />
		<tag k="ssr:stedsnr" v="661172" />
	</node>
	<node lat="65.68333610918788" lon="12.02722777279471" id="-10184">
		<tag k="name" v="Ørnheia" />
		<tag k="natural" v="hill" />
		<tag k="place" v="locality" />
		<tag k="ssr:stedsnr" v="661498" />
	</node>
	<node lat="65.68538889189534" lon="12.106338886050231" id="-10186">
		<tag k="name" v="Landvindsheia" />
		<tag k="natural" v="hill" />
		<tag k="place" v="locality" />
		<tag k="ssr:stedsnr" v="661372" />
	</node>
	<node lat="65.69538611374875" lon="11.90566111464111" id="-10192">
		<tag k="name" v="Olåsen" />
		<tag k="natural" v="hill" />
		<tag k="place" v="locality" />
		<tag k="ssr:stedsnr" v="661828" />
	</node>
	<node lat="65.68220277732406" lon="11.87299999206568" id="-10194">
		<tag k="name" v="Storkleiva" />
		<tag k="natural" v="hill" />
		<tag k="place" v="locality" />
		<tag k="ssr:stedsnr" v="661771" />
	</node>
	<node lat="65.69422499794136" lon="11.877597218342485" id="-10195">
		<tag k="name" v="Staulåsen" />
		<tag k="natural" v="hill" />
		<tag k="place" v="locality" />
		<tag k="ssr:stedsnr" v="661775" />
	</node>
	<node lat="65.63435277490997" lon="11.919180549878249" id="-10197">
		<tag k="name" v="Ljøsåsen" />
		<tag k="natural" v="hill" />
		<tag k="place" v="locality" />
		<tag k="ssr:stedsnr" v="663073" />
	</node>
	<node lat="65.64908889131775" lon="11.957227782067736" id="-10202">
		<tag k="name" v="Storheia" />
		<tag k="natural" v="hill" />
		<tag k="place" v="locality" />
		<tag k="ssr:stedsnr" v="722054" />
	</node>
	<node lat="65.59126111207465" lon="11.911927781461946" id="-10206">
		<tag k="name" v="Rotvikhaugen" />
		<tag k="natural" v="hill" />
		<tag k="place" v="locality" />
		<tag k="ssr:stedsnr" v="722235" />
	</node>
	<node lat="65.58967500398369" lon="11.892213886630211" id="-10207">
		<tag k="name" v="Mosehaugen" />
		<tag k="natural" v="hill" />
		<tag k="place" v="locality" />
		<tag k="ssr:stedsnr" v="722237" />
	</node>
	<node lat="65.61365555908324" lon="11.783244449617003" id="-10213">
		<tag k="name" v="Erviklia" />
		<tag k="natural" v="slope" />
		<tag k="place" v="locality" />
		<tag k="ssr:stedsnr" v="722300" />
	</node>
	<node lat="65.67773889130375" lon="12.126550009437604" id="-10216">
		<tag k="name" v="Nord-Nausthågjen" />
		<tag k="natural" v="hill" />
		<tag k="place" v="locality" />
		<tag k="ssr:stedsnr" v="722355" />
	</node>
	<node lat="65.65497777694875" lon="11.993802770449319" id="-10220">
		<tag k="name" v="Teinhaugen" />
		<tag k="natural" v="hill" />
		<tag k="place" v="locality" />
		<tag k="ssr:stedsnr" v="722521" />
	</node>
	<node lat="65.67597222124478" lon="11.967205551030972" id="-10224">
		<tag k="name" v="Burshågjen" />
		<tag k="natural" v="hill" />
		<tag k="place" v="locality" />
		<tag k="ssr:stedsnr" v="722543" />
	</node>
	<node lat="65.68831666871542" lon="12.077986106159317" id="-10225">
		<tag k="alt_name" v="Bakflåget" />
		<tag k="name" v="Bakfloget" />
		<tag k="natural" v="hill" />
		<tag k="place" v="locality" />
		<tag k="ssr:stedsnr" v="722650" />
	</node>
	<node lat="65.687074999124" lon="11.974588888917372" id="-10227">
		<tag k="name" v="Liss-Olderåsen" />
		<tag k="natural" v="hill" />
		<tag k="place" v="locality" />
		<tag k="ssr:stedsnr" v="722764" />
	</node>
	<node lat="65.68653610938381" lon="12.086788890969746" id="-10234">
		<tag k="fixme" v="consider natural=peak for the most distinct mountains in the district" />
		<tag k="name" v="Aråsen" />
		<tag k="natural" v="hill" />
		<tag k="place" v="locality" />
		<tag k="ssr:stedsnr" v="743502" />
	</node>
	<node lat="65.63820277620401" lon="11.805230546489415" id="-10239">
		<tag k="name" v="Vegdalsskardet" />
		<tag k="natural" v="valley" />
		<tag k="place" v="locality" />
		<tag k="ssr:stedsnr" v="743374" />
	</node>
	<node lat="65.67602500013079" lon="11.862336119031841" id="-10283">
		<tag k="name" v="Storvassåsen" />
		<tag k="natural" v="hill" />
		<tag k="place" v="locality" />
		<tag k="ssr:stedsnr" v="782047" />
	</node>
	<node lat="65.62615000432857" lon="11.862188895753595" id="-10285">
		<tag k="fixme" v="consider natural=peak for the most distinct mountains in the district" />
		<tag k="name" v="Hestbaken" />
		<tag k="natural" v="hill" />
		<tag k="place" v="locality" />
		<tag k="ssr:stedsnr" v="782165" />
	</node>
	<node lat="65.61312222138652" lon="11.767649990093547" id="-10287">
		<tag k="name" v="Holet" />
		<tag k="natural" v="valley" />
		<tag k="place" v="locality" />
		<tag k="ssr:stedsnr" v="782278" />
	</node>
	<node lat="65.68145277551778" lon="12.114144450526089" id="-10288">
		<tag k="name" v="Bekkjedalen" />
		<tag k="natural" v="valley" />
		<tag k="place" v="locality" />
		<tag k="ssr:stedsnr" v="783301" />
	</node>
	<node lat="65.59398055944254" lon="11.910988879768542" id="-10291">
		<tag k="name" v="Krunheia" />
		<tag k="natural" v="hill" />
		<tag k="place" v="locality" />
		<tag k="ssr:stedsnr" v="783190" />
	</node>
	<node lat="65.680224996442" lon="11.96839165545167" id="-10293">
		<tag k="name" v="Torvåsen" />
		<tag k="natural" v="hill" />
		<tag k="place" v="locality" />
		<tag k="ssr:stedsnr" v="783528" />
	</node>
	<node lat="65.64263055981782" lon="11.818938897491462" id="-10296">
		<tag k="name" v="Vegdalsskardet" />
		<tag k="natural" v="valley" />
		<tag k="place" v="locality" />
		<tag k="ssr:stedsnr" v="785184" />
	</node>
	<node lat="65.62585555244642" lon="12.144888892623952" id="-10298">
		<tag k="name" v="Neptunheia" />
		<tag k="natural" v="hill" />
		<tag k="place" v="locality" />
		<tag k="ssr:stedsnr" v="785684" />
	</node>
	<node lat="65.67689721917168" lon="12.10181111546901" id="-10300">
		<tag k="name" v="Liknappen" />
		<tag k="natural" v="hill" />
		<tag k="place" v="locality" />
		<tag k="ssr:stedsnr" v="794650" />
	</node>
	<node lat="65.67236388537751" lon="12.102527766505405" id="-10301">
		<tag k="name" v="Middagshaugen" />
		<tag k="natural" v="hill" />
		<tag k="place" v="locality" />
		<tag k="ssr:stedsnr" v="794652" />
	</node>
	<node lat="65.67130277907785" lon="12.09250556179899" id="-10302">
		<tag k="name" v="Storhaugen" />
		<tag k="natural" v="hill" />
		<tag k="place" v="locality" />
		<tag k="ssr:stedsnr" v="794657" />
	</node>
	<node lat="65.66462222233797" lon="12.017980560496651" id="-10303">
		<tag k="name" v="Mellahågjen" />
		<tag k="natural" v="hill" />
		<tag k="place" v="locality" />
		<tag k="ssr:stedsnr" v="799551" />
	</node>
	<node lat="65.62691944596749" lon="11.872949991070646" id="-10323">
		<tag k="fixme" v="consider natural=peak for the most distinct mountains in the district" />
		<tag k="name" v="Vikatinden" />
		<tag k="natural" v="hill" />
		<tag k="place" v="locality" />
		<tag k="ssr:stedsnr" v="804342" />
	</node>
	<node lat="65.60788611243223" lon="11.901141656360233" id="-10324">
		<tag k="name" v="Hammaren" />
		<tag k="natural" v="hill" />
		<tag k="place" v="locality" />
		<tag k="ssr:stedsnr" v="804382" />
	</node>
	<node lat="65.63263611333497" lon="11.922827776609907" id="-10371">
		<tag k="name" v="Lynghalsen" />
		<tag k="place" v="locality" />
		<tag k="ssr:stedsnr" v="843073" />
	</node>
	<node lat="65.6909055513472" lon="12.124033338034229" id="-10372">
		<tag k="name" v="Laukhammaren" />
		<tag k="natural" v="hill" />
		<tag k="place" v="locality" />
		<tag k="ssr:stedsnr" v="843398" />
	</node>
	<node lat="65.6855805582166" lon="12.098344452743778" id="-10374">
		<tag k="name" v="Husåsskaret" />
		<tag k="natural" v="valley" />
		<tag k="place" v="locality" />
		<tag k="ssr:stedsnr" v="843654" />
	</node>
	<node lat="65.69902221890192" lon="11.852027787626238" id="-10377">
		<tag k="name" v="Langklubben" />
		<tag k="natural" v="hill" />
		<tag k="place" v="locality" />
		<tag k="ssr:stedsnr" v="843815" />
	</node>
	<node lat="65.68208889027353" lon="12.107763893346753" id="-10380">
		<tag k="name" v="Fløyhågjen" />
		<tag k="natural" v="hill" />
		<tag k="place" v="locality" />
		<tag k="ssr:stedsnr" v="844297" />
	</node>
	<node lat="65.68029444638117" lon="12.111627775373682" id="-10381">
		<tag k="name" v="Vardheia" />
		<tag k="natural" v="hill" />
		<tag k="place" v="locality" />
		<tag k="ssr:stedsnr" v="844300" />
	</node>
	<node lat="65.69175555299181" lon="11.97220833398355" id="-10382">
		<tag k="name" v="Steinåsheia" />
		<tag k="natural" v="hill" />
		<tag k="place" v="locality" />
		<tag k="ssr:stedsnr" v="844759" />
	</node>
	<node lat="65.61856111398785" lon="12.135772220283183" id="-10383">
		<tag k="name" v="Korkovikheia" />
		<tag k="natural" v="hill" />
		<tag k="place" v="locality" />
		<tag k="ssr:stedsnr" v="846690" />
	</node>
	<node lat="65.6783111123555" lon="11.89565278394236" id="-10384">
		<tag k="name" v="Storviåsen" />
		<tag k="natural" v="hill" />
		<tag k="place" v="locality" />
		<tag k="ssr:stedsnr" v="846769" />
	</node>
	<node lat="65.67376388812075" lon="12.060663879434205" id="-10386">
		<tag k="name" v="Lissbrattåsen" />
		<tag k="natural" v="hill" />
		<tag k="place" v="locality" />
		<tag k="ssr:stedsnr" v="856659" />
	</node>
	<node lat="65.675275002186" lon="11.916211109571247" id="-10387">
		<tag k="name" v="Ertsåsen" />
		<tag k="natural" v="hill" />
		<tag k="place" v="locality" />
		<tag k="ssr:stedsnr" v="859748" />
	</node>
	<node lat="65.66894166635653" lon="11.955280546482866" id="-10388">
		<tag k="name" v="Nord-Snauåsen" />
		<tag k="natural" v="hill" />
		<tag k="place" v="locality" />
		<tag k="ssr:stedsnr" v="859756" />
	</node>
	<node lat="65.67637500412111" lon="12.027605554982562" id="-10403">
		<tag k="name" v="Purkheia" />
=======
		<tag k="ssr:stedsnr" v="964238" />
	</node>
	<node id="-129409" lat="65.6098555558" lon="11.9381999978">
		<tag k="fixme" v="consider natural=peak for the most distinct mountains in the district" />
		<tag k="name" v="Hestklubben" />
		<tag k="natural" v="hill" />
		<tag k="place" v="locality" />
		<tag k="ssr:stedsnr" v="964219" />
	</node>
	<node id="-129408" lat="65.6161555596" lon="11.9132777713">
		<tag k="name" v="Kleiva" />
		<tag k="natural" v="slope" />
		<tag k="place" v="locality" />
		<tag k="ssr:stedsnr" v="964214" />
	</node>
	<node id="-129406" lat="65.6090222187" lon="11.8428638875">
		<tag k="name" v="Harphaugen" />
		<tag k="natural" v="hill" />
		<tag k="place" v="locality" />
		<tag k="ssr:stedsnr" v="964275" />
	</node>
	<node id="-127356" lat="65.6886805583" lon="12.1028194485">
		<tag k="fixme" v="consider natural=peak for the most distinct mountains in the district" />
		<tag k="name" v="Grønheia" />
		<tag k="natural" v="hill" />
		<tag k="place" v="locality" />
		<tag k="ssr:stedsnr" v="197538" />
	</node>
	<node id="-127349" lat="65.6714250003" lon="11.9487888865">
		<tag k="name" v="Einåsen" />
		<tag k="natural" v="hill" />
		<tag k="place" v="locality" />
		<tag k="ssr:stedsnr" v="191735" />
	</node>
	<node id="-127347" lat="65.6710555537" lon="11.9398249986">
		<tag k="name" v="Sisselåsen" />
		<tag k="natural" v="hill" />
		<tag k="place" v="locality" />
		<tag k="ssr:stedsnr" v="191707" />
	</node>
	<node id="-127346" lat="65.6635861094" lon="11.9148000027">
		<tag k="name" v="Bergåsen" />
		<tag k="natural" v="hill" />
		<tag k="place" v="locality" />
		<tag k="ssr:stedsnr" v="191702" />
	</node>
	<node id="-127341" lat="65.6889638902" lon="12.0128222231">
		<tag k="name" v="Arosheia" />
		<tag k="natural" v="hill" />
		<tag k="place" v="locality" />
		<tag k="ssr:stedsnr" v="145703" />
	</node>
	<node id="-127317" lat="65.6751499997" lon="11.9204583416">
		<tag k="name" v="Flatåsen" />
		<tag k="natural" v="hill" />
		<tag k="place" v="locality" />
		<tag k="ssr:stedsnr" v="130720" />
	</node>
	<node id="-127316" lat="65.6725666704" lon="11.9287666767">
		<tag k="name" v="Bjørskåsbergan" />
		<tag k="natural" v="hill" />
		<tag k="place" v="locality" />
		<tag k="ssr:stedsnr" v="130718" />
	</node>
	<node id="-127315" lat="65.6672722212" lon="11.9035000047">
		<tag k="name" v="Almåsroa" />
		<tag k="place" v="locality" />
		<tag k="ssr:stedsnr" v="130703" />
	</node>
	<node id="-127313" lat="65.7082194416" lon="11.8960805593">
		<tag k="name" v="Nautøyåsen" />
		<tag k="natural" v="hill" />
		<tag k="place" v="locality" />
		<tag k="ssr:stedsnr" v="116820" />
	</node>
	<node id="-129360" lat="65.6890527813" lon="11.9760333368">
		<tag k="fixme" v="consider natural=peak for the most distinct mountains in the district" />
		<tag k="name" v="Olderåsen" />
		<tag k="natural" v="hill" />
		<tag k="place" v="locality" />
		<tag k="ssr:stedsnr" v="865506" />
	</node>
	<node id="-129358" lat="65.6763750041" lon="12.027605555">
		<tag k="name" v="Purkheia" />
		<tag k="natural" v="hill" />
		<tag k="place" v="locality" />
		<tag k="ssr:stedsnr" v="865498" />
	</node>
	<node id="-127308" lat="65.6259805572" lon="11.8422222299">
		<tag k="fixme" v="consider natural=peak for the most distinct mountains in the district" />
		<tag k="name" v="Vasstindan" />
		<tag k="natural" v="hill" />
		<tag k="place" v="locality" />
		<tag k="ssr:stedsnr" v="115212" />
	</node>
	<node id="-129336" lat="65.6752750022" lon="11.9162111096">
		<tag k="name" v="Ertsåsen" />
		<tag k="natural" v="hill" />
		<tag k="place" v="locality" />
		<tag k="ssr:stedsnr" v="859748" />
	</node>
	<node id="-129335" lat="65.6809861116" lon="12.0777888782">
		<tag k="name" v="Bjørnvikåsen" />
		<tag k="natural" v="hill" />
		<tag k="place" v="locality" />
		<tag k="ssr:stedsnr" v="856645" />
	</node>
	<node id="-129333" lat="65.6783111124" lon="11.8956527839">
		<tag k="name" v="Storviåsen" />
		<tag k="natural" v="hill" />
		<tag k="place" v="locality" />
		<tag k="ssr:stedsnr" v="846769" />
	</node>
	<node id="-129332" lat="65.618561114" lon="12.1357722203">
		<tag k="name" v="Korkovikheia" />
		<tag k="natural" v="hill" />
		<tag k="place" v="locality" />
		<tag k="ssr:stedsnr" v="846690" />
	</node>
	<node id="-129330" lat="65.6305638914" lon="12.1496000035">
		<tag k="name" v="Liss-Strandvikheia" />
		<tag k="natural" v="hill" />
		<tag k="place" v="locality" />
		<tag k="ssr:stedsnr" v="846227" />
	</node>
	<node id="-129328" lat="65.691755553" lon="11.972208334">
		<tag k="name" v="Steinåsheia" />
		<tag k="natural" v="hill" />
		<tag k="place" v="locality" />
		<tag k="ssr:stedsnr" v="844759" />
	</node>
	<node id="-129327" lat="65.6495166645" lon="11.9743749897">
		<tag k="name" v="Ørnheia" />
		<tag k="natural" v="hill" />
		<tag k="place" v="locality" />
		<tag k="ssr:stedsnr" v="844505" />
	</node>
	<node id="-129326" lat="65.6497388896" lon="11.9804916681">
		<tag k="name" v="Gråheia" />
		<tag k="natural" v="hill" />
		<tag k="place" v="locality" />
		<tag k="ssr:stedsnr" v="844504" />
	</node>
	<node id="-129324" lat="65.6802944464" lon="12.1116277754">
		<tag k="name" v="Vardheia" />
		<tag k="natural" v="hill" />
		<tag k="place" v="locality" />
		<tag k="ssr:stedsnr" v="844300" />
	</node>
	<node id="-129323" lat="65.6820888903" lon="12.1077638933">
		<tag k="name" v="Fløyhågjen" />
		<tag k="natural" v="hill" />
		<tag k="place" v="locality" />
		<tag k="ssr:stedsnr" v="844297" />
	</node>
	<node id="-129321" lat="65.619283332" lon="11.9638222129">
		<tag k="name" v="Skjelvikheia" />
		<tag k="natural" v="hill" />
		<tag k="place" v="locality" />
		<tag k="ssr:stedsnr" v="844176" />
	</node>
	<node id="-129318" lat="65.6855805582" lon="12.0983444527">
		<tag k="name" v="Husåsskaret" />
		<tag k="natural" v="valley" />
		<tag k="place" v="locality" />
		<tag k="ssr:stedsnr" v="843654" />
	</node>
	<node id="-129315" lat="65.6875888911" lon="11.8746777805">
		<tag k="name" v="Kaukarhaugen" />
		<tag k="natural" v="hill" />
		<tag k="place" v="locality" />
		<tag k="ssr:stedsnr" v="843823" />
	</node>
	<node id="-127264" lat="65.6620055594" lon="11.8631277833">
		<tag k="fixme" v="consider natural=peak for the most distinct mountains in the district" />
		<tag k="name" v="Aksla" />
		<tag k="natural" v="hill" />
		<tag k="place" v="locality" />
		<tag k="ssr:stedsnr" v="258270" />
	</node>
	<node id="-129309" lat="65.6301277775" lon="11.9444277777">
		<tag k="name" v="Skavdalen" />
		<tag k="natural" v="valley" />
		<tag k="place" v="locality" />
		<tag k="ssr:stedsnr" v="843075" />
	</node>
	<node id="-129308" lat="65.6326361133" lon="11.9228277766">
		<tag k="name" v="Lynghalsen" />
		<tag k="place" v="locality" />
		<tag k="ssr:stedsnr" v="843073" />
	</node>
	<node id="-127258" lat="65.6647750026" lon="11.9569416705">
		<tag k="name" v="Sør-Snauåsen" />
		<tag k="natural" v="hill" />
		<tag k="place" v="locality" />
		<tag k="ssr:stedsnr" v="252753" />
	</node>
	<node id="-127242" lat="65.6096666661" lon="12.1325000064">
		<tag k="name" v="Hamnhågjen" />
		<tag k="natural" v="hill" />
		<tag k="place" v="locality" />
		<tag k="ssr:stedsnr" v="238717" />
	</node>
	<node id="-127239" lat="65.7029722226" lon="11.8992444391">
		<tag k="name" v="Brattåsen" />
		<tag k="natural" v="hill" />
		<tag k="place" v="locality" />
		<tag k="ssr:stedsnr" v="237823" />
	</node>
	<node id="-127238" lat="65.7038166704" lon="11.9285777834">
		<tag k="name" v="Nesheian" />
		<tag k="natural" v="hill" />
		<tag k="place" v="locality" />
		<tag k="ssr:stedsnr" v="237816" />
	</node>
	<node id="-127234" lat="65.6210166647" lon="11.9674722206">
		<tag k="name" v="Flata" />
		<tag k="place" v="locality" />
		<tag k="ssr:stedsnr" v="237539" />
	</node>
	<node id="-127233" lat="65.682755555" lon="12.01167777">
		<tag k="name" v="Monshågjen" />
		<tag k="natural" v="hill" />
		<tag k="place" v="locality" />
		<tag k="ssr:stedsnr" v="237535" />
	</node>
	<node id="-127230" lat="65.6573055578" lon="11.9712166619">
		<tag k="name" v="Sjøheia" />
		<tag k="natural" v="hill" />
		<tag k="place" v="locality" />
		<tag k="ssr:stedsnr" v="237519" />
	</node>
	<node id="-127229" lat="65.6331666675" lon="11.7823805536">
		<tag k="name" v="Halstindlian" />
		<tag k="natural" v="slope" />
		<tag k="place" v="locality" />
		<tag k="ssr:stedsnr" v="55273" />
	</node>
	<node id="-127227" lat="65.6784222263" lon="12.1204527704">
		<tag k="name" v="Sirihågjen" />
		<tag k="natural" v="hill" />
		<tag k="place" v="locality" />
		<tag k="ssr:stedsnr" v="55304" />
	</node>
	<node id="-127226" lat="65.6936805561" lon="11.8859833303">
		<tag k="name" v="Lauvåsen" />
		<tag k="natural" v="hill" />
		<tag k="place" v="locality" />
		<tag k="ssr:stedsnr" v="54812" />
	</node>
	<node id="-127225" lat="65.6859027763" lon="11.890083339">
		<tag k="name" v="Altervassåsen" />
		<tag k="natural" v="hill" />
		<tag k="place" v="locality" />
		<tag k="ssr:stedsnr" v="54810" />
	</node>
	<node id="-127224" lat="65.6892694453" lon="11.8781583277">
		<tag k="name" v="Forraåsen" />
		<tag k="natural" v="hill" />
		<tag k="place" v="locality" />
		<tag k="ssr:stedsnr" v="54808" />
	</node>
	<node id="-127221" lat="65.6882166652" lon="12.1118527729">
		<tag k="name" v="Oterheia" />
		<tag k="natural" v="hill" />
		<tag k="place" v="locality" />
		<tag k="ssr:stedsnr" v="54409" />
	</node>
	<node id="-127217" lat="65.6717277805" lon="11.8603000089">
		<tag k="name" v="Oltomsaheia" />
		<tag k="place" v="locality" />
		<tag k="ssr:stedsnr" v="54059" />
	</node>
	<node id="-127215" lat="65.683350003" lon="12.1037944512">
		<tag k="fixme" v="consider natural=peak for the most distinct mountains in the district" />
		<tag k="name" v="Ytterfjellet" />
		<tag k="natural" v="hill" />
		<tag k="place" v="locality" />
		<tag k="ssr:stedsnr" v="237322" />
	</node>
	<node id="-127213" lat="65.6673777769" lon="11.9713611152">
		<tag k="name" v="Langåsen" />
		<tag k="natural" v="hill" />
		<tag k="place" v="locality" />
		<tag k="ssr:stedsnr" v="236956" />
	</node>
	<node id="-127208" lat="65.6439138919" lon="12.1667555609">
		<tag k="name" v="Storhågjen" />
		<tag k="natural" v="hill" />
		<tag k="place" v="locality" />
		<tag k="ssr:stedsnr" v="236319" />
	</node>
	<node id="-127207" lat="65.6113972239" lon="11.8554083287">
		<tag k="name" v="Sturushaugen" />
		<tag k="natural" v="hill" />
		<tag k="place" v="locality" />
		<tag k="ssr:stedsnr" v="236249" />
	</node>
	<node id="-127203" lat="65.6050388854" lon="11.905508339">
		<tag k="name" v="Vebergan" />
		<tag k="natural" v="hill" />
		<tag k="place" v="locality" />
		<tag k="ssr:stedsnr" v="236187" />
	</node>
	<node id="-127193" lat="65.6260027757" lon="12.1703611189">
		<tag k="alt_name" v="Lisshågjen" />
		<tag k="name" v="Leshaugen" />
		<tag k="natural" v="hill" />
		<tag k="place" v="locality" />
		<tag k="ssr:stedsnr" v="16331" />
	</node>
	<node id="-127192" lat="65.6256944419" lon="12.15152501">
		<tag k="alt_name" v="Trollhågjen" />
		<tag k="name" v="Trollhaugen" />
		<tag k="natural" v="hill" />
		<tag k="place" v="locality" />
		<tag k="ssr:stedsnr" v="16329" />
	</node>
	<node id="-129238" lat="65.626919446" lon="11.8729499911">
		<tag k="fixme" v="consider natural=peak for the most distinct mountains in the district" />
		<tag k="name" v="Vikatinden" />
		<tag k="natural" v="hill" />
		<tag k="place" v="locality" />
		<tag k="ssr:stedsnr" v="804342" />
	</node>
	<node id="-129233" lat="65.6452527768" lon="11.8123861193">
		<tag k="name" v="Røsstindlian" />
		<tag k="natural" v="slope" />
		<tag k="place" v="locality" />
		<tag k="ssr:stedsnr" v="804318" />
	</node>
	<node id="-129223" lat="65.6078861124" lon="11.9011416564">
		<tag k="name" v="Hammaren" />
		<tag k="natural" v="hill" />
		<tag k="place" v="locality" />
		<tag k="ssr:stedsnr" v="804382" />
	</node>
	<node id="-129220" lat="65.6646222223" lon="12.0179805605">
		<tag k="name" v="Mellahågjen" />
		<tag k="natural" v="hill" />
		<tag k="place" v="locality" />
		<tag k="ssr:stedsnr" v="799551" />
	</node>
	<node id="-129217" lat="65.6713027791" lon="12.0925055618">
		<tag k="name" v="Storhaugen" />
		<tag k="natural" v="hill" />
		<tag k="place" v="locality" />
		<tag k="ssr:stedsnr" v="794657" />
	</node>
	<node id="-129216" lat="65.6723638854" lon="12.1025277665">
		<tag k="name" v="Middagshaugen" />
		<tag k="natural" v="hill" />
		<tag k="place" v="locality" />
		<tag k="ssr:stedsnr" v="794652" />
	</node>
	<node id="-129215" lat="65.6768972192" lon="12.1018111155">
		<tag k="name" v="Liknappen" />
		<tag k="natural" v="hill" />
		<tag k="place" v="locality" />
		<tag k="ssr:stedsnr" v="794650" />
	</node>
	<node id="-129214" lat="65.636499996" lon="12.1806722313">
		<tag k="name" v="Ramnberget" />
		<tag k="natural" v="hill" />
		<tag k="place" v="locality" />
		<tag k="ssr:stedsnr" v="794312" />
	</node>
	<node id="-129212" lat="65.6258555524" lon="12.1448888926">
		<tag k="name" v="Neptunheia" />
		<tag k="natural" v="hill" />
		<tag k="place" v="locality" />
		<tag k="ssr:stedsnr" v="785684" />
	</node>
	<node id="-129210" lat="65.6426305598" lon="11.8189388975">
		<tag k="name" v="Vegdalsskardet" />
		<tag k="natural" v="valley" />
		<tag k="place" v="locality" />
		<tag k="ssr:stedsnr" v="785184" />
	</node>
	<node id="-129208" lat="65.7058027823" lon="11.9355777765">
		<tag k="name" v="Nausthågjen" />
		<tag k="natural" v="hill" />
		<tag k="place" v="locality" />
		<tag k="ssr:stedsnr" v="783903" />
	</node>
	<node id="-129204" lat="65.7071388934" lon="11.9007749952">
		<tag k="name" v="Ørntuva" />
		<tag k="natural" v="hill" />
		<tag k="place" v="locality" />
		<tag k="ssr:stedsnr" v="783824" />
	</node>
	<node id="-129203" lat="65.6912277777" lon="11.9421111035">
		<tag k="name" v="Grishågjen" />
		<tag k="natural" v="hill" />
		<tag k="place" v="locality" />
		<tag k="ssr:stedsnr" v="783814" />
	</node>
	<node id="-129202" lat="65.6802249964" lon="11.9683916555">
		<tag k="name" v="Torvåsen" />
		<tag k="natural" v="hill" />
		<tag k="place" v="locality" />
		<tag k="ssr:stedsnr" v="783528" />
	</node>
	<node id="-129201" lat="65.6831277775" lon="11.9658166693">
		<tag k="name" v="Jensåsen" />
>>>>>>> e1d4bc35ff8a6074a6f2e91616a996b547c36f15
		<tag k="natural" v="hill" />
		<tag k="place" v="locality" />
		<tag k="ssr:stedsnr" v="783517" />
	</node>
<<<<<<< HEAD
	<node lat="65.68905278134913" lon="11.976033336787697" id="-10405">
		<tag k="fixme" v="consider natural=peak for the most distinct mountains in the district" />
		<tag k="name" v="Olderåsen" />
		<tag k="natural" v="hill" />
		<tag k="place" v="locality" />
		<tag k="ssr:stedsnr" v="865506" />
	</node>
	<node lat="65.60985555579862" lon="11.938199997784261" id="-10474">
		<tag k="fixme" v="consider natural=peak for the most distinct mountains in the district" />
		<tag k="name" v="Hestklubben" />
		<tag k="natural" v="hill" />
		<tag k="place" v="locality" />
		<tag k="ssr:stedsnr" v="964219" />
	</node>
	<node lat="65.61615555964747" lon="11.91327777128145" id="-10477">
		<tag k="name" v="Kleiva" />
		<tag k="natural" v="slope" />
		<tag k="place" v="locality" />
		<tag k="ssr:stedsnr" v="964214" />
	</node>
	<node lat="65.6090222186653" lon="11.84286388749466" id="-10479">
		<tag k="name" v="Harphaugen" />
		<tag k="natural" v="hill" />
		<tag k="place" v="locality" />
		<tag k="ssr:stedsnr" v="964275" />
	</node>
	<node lat="65.6833777768737" lon="12.133361104132945" id="-10480">
		<tag k="name" v="Gjetarvikheia" />
		<tag k="natural" v="hill" />
		<tag k="place" v="locality" />
		<tag k="ssr:stedsnr" v="964354" />
	</node>
	<node lat="65.6891749957106" lon="11.852263883989663" id="-10484">
		<tag k="name" v="Steinsåsen" />
		<tag k="natural" v="hill" />
		<tag k="place" v="locality" />
		<tag k="ssr:stedsnr" v="964757" />
	</node>
	<node lat="65.68408889220748" lon="11.86015000300898" id="-10485">
		<tag k="name" v="Varhaugen" />
		<tag k="natural" v="hill" />
		<tag k="place" v="locality" />
		<tag k="ssr:stedsnr" v="964758" />
	</node>
	<node lat="65.6798916691494" lon="11.859283328450479" id="-10487">
		<tag k="name" v="Storsvanheia" />
		<tag k="natural" v="hill" />
		<tag k="place" v="locality" />
		<tag k="ssr:stedsnr" v="964764" />
	</node>
	<node lat="65.67969444066051" lon="11.879722214016331" id="-10488">
		<tag k="name" v="Vassåsen" />
		<tag k="natural" v="hill" />
		<tag k="place" v="locality" />
		<tag k="ssr:stedsnr" v="964768" />
	</node>
	<node lat="65.68889444850416" lon="11.835172225150975" id="-10490">
		<tag k="name" v="Storheia" />
		<tag k="natural" v="hill" />
		<tag k="place" v="locality" />
		<tag k="ssr:stedsnr" v="964771" />
	</node>
	<node lat="65.61377500220641" lon="11.888919439531634" id="-10494">
		<tag k="name" v="Laksberget" />
		<tag k="natural" v="hill" />
		<tag k="place" v="locality" />
		<tag k="ssr:stedsnr" v="965227" />
	</node>
	<node lat="65.65566666313998" lon="11.966166658580427" id="-10495">
		<tag k="name" v="Steinskårheia" />
		<tag k="natural" v="hill" />
		<tag k="place" v="locality" />
		<tag k="ssr:stedsnr" v="965521" />
	</node>
	<node lat="65.69913610902108" lon="11.972941657262394" id="-10499">
		<tag k="name" v="Einåsen" />
		<tag k="natural" v="hill" />
		<tag k="place" v="locality" />
		<tag k="ssr:stedsnr" v="965729" />
=======
	<node id="-129199" lat="65.6829416695" lon="12.1128416694">
		<tag k="name" v="Stålheia" />
		<tag k="natural" v="hill" />
		<tag k="place" v="locality" />
		<tag k="ssr:stedsnr" v="783303" />
	</node>
	<node id="-129198" lat="65.6814527755" lon="12.1141444505">
		<tag k="name" v="Bekkjedalen" />
		<tag k="natural" v="valley" />
		<tag k="place" v="locality" />
		<tag k="ssr:stedsnr" v="783301" />
	</node>
	<node id="-129195" lat="65.5939805594" lon="11.9109888798">
		<tag k="name" v="Krunheia" />
		<tag k="natural" v="hill" />
		<tag k="place" v="locality" />
		<tag k="ssr:stedsnr" v="783190" />
	</node>
	<node id="-129194" lat="65.6154472242" lon="11.9556972196">
		<tag k="name" v="Sandhola" />
		<tag k="natural" v="valley" />
		<tag k="place" v="locality" />
		<tag k="ssr:stedsnr" v="783155" />
	</node>
	<node id="-129193" lat="65.6861777787" lon="11.8660472141">
		<tag k="name" v="Asphaugen" />
		<tag k="natural" v="hill" />
		<tag k="place" v="locality" />
		<tag k="ssr:stedsnr" v="782747" />
	</node>
	<node id="-129187" lat="65.6131222214" lon="11.7676499901">
		<tag k="name" v="Holet" />
		<tag k="natural" v="valley" />
		<tag k="place" v="locality" />
		<tag k="ssr:stedsnr" v="782278" />
	</node>
	<node id="-129185" lat="65.6261500043" lon="11.8621888958">
		<tag k="fixme" v="consider natural=peak for the most distinct mountains in the district" />
		<tag k="name" v="Hestbaken" />
		<tag k="natural" v="hill" />
		<tag k="ssr:stedsnr" v="782165" />
	</node>
	<node id="-129183" lat="65.6760250001" lon="11.862336119">
		<tag k="name" v="Storvassåsen" />
		<tag k="natural" v="hill" />
		<tag k="place" v="locality" />
		<tag k="ssr:stedsnr" v="782047" />
	</node>
	<node id="-129182" lat="65.6582361133" lon="11.9218499955">
		<tag k="name" v="Åskollikberget" />
		<tag k="natural" v="hill" />
		<tag k="place" v="locality" />
		<tag k="ssr:stedsnr" v="782021" />
	</node>
	<node id="-129180" lat="65.6485194448" lon="11.8782916628">
		<tag k="name" v="Brennheia" />
		<tag k="natural" v="hill" />
		<tag k="place" v="locality" />
		<tag k="ssr:stedsnr" v="782002" />
	</node>
	<node id="-129133" lat="65.6865361094" lon="12.086788891">
		<tag k="fixme" v="consider natural=peak for the most distinct mountains in the district" />
		<tag k="name" v="Aråsen" />
		<tag k="natural" v="hill" />
		<tag k="place" v="locality" />
		<tag k="ssr:stedsnr" v="743502" />
	</node>
	<node id="-129129" lat="65.6576388924" lon="11.8292000025">
		<tag k="fixme" v="consider natural=peak for the most distinct mountains in the district" />
		<tag k="name" v="Gullsvågfjellet" />
		<tag k="natural" v="hill" />
		<tag k="place" v="locality" />
		<tag k="ssr:stedsnr" v="743292" />
	</node>
	<node id="-129125" lat="65.6202833332" lon="12.1659499946">
		<tag k="alt_name" v="Ørnetheia" />
		<tag k="name" v="Ørneteigen" />
		<tag k="natural" v="hill" />
		<tag k="place" v="locality" />
		<tag k="ssr:stedsnr" v="743385" />
	</node>
	<node id="-129068" lat="65.6201027766" lon="12.1500166737">
		<tag k="fixme" v="multiple name tags, choose one and add the other to alt_name" />
		<tag k="name" v="Jo-Knutsåheia;Tyskhaugen" />
		<tag k="natural" v="hill" />
		<tag k="place" v="locality" />
		<tag k="ssr:stedsnr" v="622356" />
	</node>
	<node id="-129066" lat="65.6358777773" lon="11.8877916742">
		<tag k="name" v="Kalvlia" />
		<tag k="natural" v="slope" />
		<tag k="place" v="locality" />
		<tag k="ssr:stedsnr" v="622332" />
	</node>
	<node id="-129061" lat="65.6392361123" lon="12.1688249952">
		<tag k="alt_name" v="Vardberget" />
		<tag k="name" v="Valhaugen" />
		<tag k="natural" v="hill" />
		<tag k="place" v="locality" />
		<tag k="ssr:stedsnr" v="622315" />
	</node>
	<node id="-129059" lat="65.6384000018" lon="11.9138166593">
		<tag k="fixme" v="consider natural=peak for the most distinct mountains in the district" />
		<tag k="name" v="Floaksla" />
		<tag k="natural" v="hill" />
		<tag k="place" v="locality" />
		<tag k="ssr:stedsnr" v="622296" />
>>>>>>> e1d4bc35ff8a6074a6f2e91616a996b547c36f15
	</node>
</osm>
