<?xml version="1.0" encoding="UTF-8"?>
<osm version="0.6" generator="osmapis">
	<node lat="65.70382221851631" lon="11.8652305632699" id="-15643">
		<tag k="fixme" v="verify maritime location" />
		<tag k="mooring" v="yes" />
		<tag k="name" v="Arstøen" />
		<tag k="place" v="locality" />
		<tag k="ssr:stedsnr" v="964737" />
	</node>
	<node lat="65.70690277336992" lon="11.933061119493205" id="-15764">
		<tag k="man_made" v="quay" />
		<tag k="name" v="Nessjyen" />
		<tag k="place" v="locality" />
		<tag k="ssr:stedsnr" v="55900" />
	</node>
	<node lat="65.6442888913133" lon="11.780308337568393" id="-16124">
		<tag k="fixme" v="verify maritime location" />
		<tag k="mooring" v="yes" />
		<tag k="name" v="Ytterstøa" />
		<tag k="place" v="locality" />
		<tag k="ssr:stedsnr" v="358187" />
	</node>
	<node lat="65.67631666586571" lon="11.887119443650999" id="-16712">
		<tag k="bridge" v="yes" />
		<tag k="layer" v="1" />
		<tag k="name" v="Liabrua" />
		<tag k="ssr:stedsnr" v="843051" />
	</node>
	<node lat="65.67737778177485" lon="12.131263888929475" id="-16823">
		<tag k="alt_name" v="Igerøy fergeleie" />
		<tag k="amenity" v="ferry_terminal" />
		<tag k="name" v="Igerøya fergeleie" />
		<tag k="ssr:stedsnr" v="964357" />
	</node>
</osm>
