<?xml version="1.0" encoding="UTF-8"?>
<<<<<<< HEAD
<osm version="0.6" generator="osmapis">
	<node lat="65.64024444809722" lon="11.997161101502138" id="-8255">
		<tag k="name" v="Kjulsvika" />
		<tag k="place" v="farm" />
		<tag k="ssr:stedsnr" v="15316" />
	</node>
	<node lat="65.61756389202424" lon="11.903219440025286" id="-8283">
		<tag k="name" v="Vikasjøen" />
		<tag k="place" v="farm" />
		<tag k="ssr:stedsnr" v="25587" />
	</node>
	<node lat="65.62837777783518" lon="11.973566670721675" id="-8306">
		<tag k="name" v="Burshaugen" />
		<tag k="place" v="isolated_dwelling" />
		<tag k="ssr:stedsnr" v="54418" />
	</node>
	<node lat="65.70150555480933" lon="11.923619433625678" id="-8312">
		<tag k="amenity" v="school" />
		<tag k="name" v="Holand skole" />
		<tag k="ssr:stedsnr" v="55806" />
	</node>
	<node lat="65.70238332927745" lon="11.909836111106822" id="-8313">
		<tag k="name" v="Lillestaulen" />
		<tag k="place" v="isolated_dwelling" />
		<tag k="ssr:stedsnr" v="55808" />
	</node>
	<node lat="65.57880555900655" lon="11.695755559010541" id="-8317">
		<tag k="fixme" v="consider place=hamlet" />
		<tag k="name" v="Muddværet" />
		<tag k="place" v="farm" />
		<tag k="ssr:stedsnr" v="60672" />
	</node>
	<node lat="65.60063333505325" lon="12.144783343528191" id="-8319">
		<tag k="name" v="Salvika" />
		<tag k="place" v="farm" />
		<tag k="ssr:stedsnr" v="76158" />
	</node>
	<node lat="65.61048355738829" lon="11.848309299039354" id="-8326">
		<tag k="fixme" v="consider place=hamlet" />
		<tag k="name" v="Eidem" />
		<tag k="place" v="farm" />
		<tag k="ssr:stedsnr" v="76355" />
	</node>
	<node lat="65.6904388886157" lon="11.839116658851687" id="-8339">
		<tag k="name" v="Kjelkdalen" />
		<tag k="place" v="isolated_dwelling" />
		<tag k="ssr:stedsnr" v="76464" />
	</node>
	<node lat="65.68648055249757" lon="11.961038881068646" id="-8378">
		<tag k="name" v="Olderåsen" />
		<tag k="place" v="farm" />
		<tag k="ssr:stedsnr" v="116810" />
	</node>
	<node lat="65.67597222243124" lon="11.94794443541469" id="-8386">
		<tag k="name" v="Høgåsen" />
		<tag k="place" v="quarter" />
		<tag k="ssr:stedsnr" v="252760" />
	</node>
	<node lat="65.68568889079252" lon="11.967191666346332" id="-8407">
		<tag k="name" v="Linbakken" />
		<tag k="place" v="farm" />
		<tag k="ssr:stedsnr" v="136498" />
	</node>
	<node lat="65.69148055939758" lon="12.014794437097594" id="-8408">
		<tag k="name" v="Sellebuhaugen" />
		<tag k="place" v="farm" />
		<tag k="ssr:stedsnr" v="136499" />
	</node>
	<node lat="65.63438889176864" lon="12.170474995686352" id="-8447">
		<tag k="name" v="Kleiva" />
		<tag k="place" v="farm" />
		<tag k="ssr:stedsnr" v="258334" />
	</node>
	<node lat="65.6074666647466" lon="11.869261101850041" id="-8449">
		<tag k="name" v="Tosan" />
		<tag k="place" v="farm" />
		<tag k="ssr:stedsnr" v="258352" />
	</node>
	<node lat="65.61295000070443" lon="11.84362499382425" id="-8453">
		<tag k="name" v="Momyra" />
		<tag k="place" v="farm" />
		<tag k="ssr:stedsnr" v="258368" />
	</node>
	<node lat="65.61294554571269" lon="11.850587465089285" id="-8456">
		<tag k="name" v="Solrud" />
		<tag k="place" v="farm" />
		<tag k="ssr:stedsnr" v="258381" />
	</node>
	<node lat="65.69224444854046" lon="11.841441657145182" id="-8460">
		<tag k="fixme" v="consider place=hamlet" />
		<tag k="name" v="Brandsvika" />
		<tag k="place" v="farm" />
		<tag k="ssr:stedsnr" v="258436" />
	</node>
	<node lat="65.68765277508622" lon="11.916130554923171" id="-8462">
		<tag k="alt_name" v="Bakkejord" />
		<tag k="name" v="Bakkejordet" />
		<tag k="place" v="farm" />
		<tag k="ssr:stedsnr" v="258443" />
	</node>
	<node lat="65.68998333442276" lon="11.868944454208808" id="-8463">
		<tag k="name" v="Valla" />
		<tag k="place" v="farm" />
		<tag k="ssr:stedsnr" v="258445" />
	</node>
	<node lat="65.61904166853208" lon="12.128741674354993" id="-8491">
		<tag k="name" v="Rotviken" />
		<tag k="place" v="locality" />
		<tag k="ssr:stedsnr" v="178675" />
	</node>
	<node lat="65.68294166364474" lon="12.12570276761592" id="-8511">
		<tag k="name" v="Igerøy" />
		<tag k="place" v="farm" />
		<tag k="ssr:stedsnr" v="198471" />
	</node>
	<node lat="65.64800555455618" lon="11.993458328492679" id="-8539">
		<tag k="name" v="Myrstad" />
		<tag k="place" v="isolated_dwelling" />
		<tag k="ssr:stedsnr" v="237531" />
	</node>
	<node lat="65.64801667115874" lon="11.995980551771929" id="-8561">
		<tag k="name" v="Båtnes" />
		<tag k="place" v="isolated_dwelling" />
		<tag k="ssr:stedsnr" v="258308" />
	</node>
	<node lat="65.70102087599341" lon="11.936735662874929" id="-8589">
		<tag k="fixme" v="consider place=hamlet" />
		<tag k="name" v="Åkerbakken" />
		<tag k="place" v="farm" />
		<tag k="ssr:stedsnr" v="258455" />
	</node>
	<node lat="65.69330000197165" lon="11.926208333315795" id="-8590">
		<tag k="name" v="Risbakken" />
		<tag k="place" v="farm" />
		<tag k="ssr:stedsnr" v="258457" />
	</node>
	<node lat="65.70162500336721" lon="11.916688891756289" id="-8591">
		<tag k="name" v="Kjerrhaugen" />
		<tag k="place" v="farm" />
		<tag k="ssr:stedsnr" v="258459" />
	</node>
	<node lat="65.67682778136057" lon="11.96217498979157" id="-8592">
		<tag k="name" v="Gladstad" />
		<tag k="place" v="village" />
		<tag k="ssr:stedsnr" v="258467" />
	</node>
	<node lat="65.68383764033702" lon="12.011102901153702" id="-8594">
		<tag k="name" v="Vegsteinen" />
		<tag k="place" v="hamlet" />
		<tag k="ssr:stedsnr" v="258470" />
	</node>
	<node lat="65.67860555887796" lon="12.114699991899647" id="-8610">
		<tag k="amenity" v="school" />
		<tag k="name" v="Igerøy skole" />
		<tag k="ssr:stedsnr" v="297324" />
	</node>
	<node lat="65.70872499583592" lon="11.912041669026285" id="-8620">
		<tag k="name" v="Grønbakk" />
		<tag k="place" v="isolated_dwelling" />
		<tag k="ssr:stedsnr" v="299902" />
	</node>
	<node lat="65.57486388637753" lon="11.690897222951307" id="-8621">
		<tag k="name" v="Muddvær" />
		<tag k="place" v="farm" />
		<tag k="ssr:stedsnr" v="465044" />
	</node>
	<node lat="65.63618916511852" lon="12.171976016837661" id="-8642">
		<tag k="fixme" v="consider place=hamlet" />
		<tag k="name" v="Ylvingen" />
		<tag k="place" v="farm" />
		<tag k="ssr:stedsnr" v="319305" />
	</node>
	<node lat="65.6039666640469" lon="11.90616943805414" id="-8665">
		<tag k="name" v="Stråkvika" />
		<tag k="place" v="locality" />
		<tag k="ssr:stedsnr" v="357169" />
	</node>
	<node lat="65.65350007706633" lon="11.99313585012369" id="-8674">
		<tag k="name" v="Smihaugen" />
		<tag k="place" v="farm" />
		<tag k="ssr:stedsnr" v="358520" />
	</node>
	<node lat="65.7041638866561" lon="11.935877778845091" id="-8679">
		<tag k="name" v="Nergarden" />
		<tag k="place" v="farm" />
		<tag k="ssr:stedsnr" v="358815" />
	</node>
	<node lat="65.68572777366354" lon="12.115963894278845" id="-8692">
		<tag k="name" v="Grindhågbakkan" />
		<tag k="place" v="isolated_dwelling" />
		<tag k="ssr:stedsnr" v="479385" />
	</node>
	<node lat="65.64217777476156" lon="12.169933339234733" id="-8703">
		<tag k="name" v="Skutnes" />
		<tag k="place" v="locality" />
		<tag k="ssr:stedsnr" v="481279" />
	</node>
	<node lat="65.66323332882534" lon="11.984016671241621" id="-8712">
		<tag k="name" v="Lyngen" />
		<tag k="place" v="farm" />
		<tag k="ssr:stedsnr" v="379254" />
	</node>
	<node lat="65.63679999691713" lon="12.166330556886189" id="-8715">
		<tag k="name" v="Bakken" />
		<tag k="place" v="farm" />
		<tag k="ssr:stedsnr" v="379316" />
	</node>
	<node lat="65.6331999986065" lon="12.159825001279174" id="-8716">
		<tag k="name" v="Harmmyra" />
		<tag k="place" v="farm" />
		<tag k="ssr:stedsnr" v="379317" />
	</node>
	<node lat="65.57941944533151" lon="11.695069434832947" id="-8746">
		<tag k="name" v="Haugen" />
		<tag k="place" v="farm" />
		<tag k="ssr:stedsnr" v="406053" />
	</node>
	<node lat="65.65347652107022" lon="11.995467569888525" id="-8791">
		<tag k="alt_name" v="Finnes" />
		<tag k="fixme" v="consider place=hamlet" />
		<tag k="name" v="Finneset" />
=======
<osm generator="osmapis" version="0.6">
	<node id="-129024" lat="65.609061111" lon="11.8551416563">
		<tag k="alt_name" v="Lisshaugen" />
		<tag k="name" v="Litlhaugen" />
		<tag k="place" v="farm" />
		<tag k="ssr:stedsnr" v="621361" />
	</node>
	<node id="-128511" lat="65.5786500035" lon="11.694386101">
		<tag k="name" v="Skaftet" />
		<tag k="place" v="farm" />
		<tag k="ssr:stedsnr" v="163049" />
	</node>
	<node id="-127997" lat="65.6952805598" lon="11.9854055456">
		<tag k="name" v="Ner-Svea" />
		<tag k="place" v="farm" />
		<tag k="ssr:stedsnr" v="904699" />
	</node>
	<node id="-127483" lat="65.6074666647" lon="11.8692611019">
		<tag k="name" v="Tosan" />
		<tag k="place" v="farm" />
		<tag k="ssr:stedsnr" v="258352" />
	</node>
	<node id="-127487" lat="65.6129500007" lon="11.8436249938">
		<tag k="name" v="Momyra" />
		<tag k="place" v="farm" />
		<tag k="ssr:stedsnr" v="258368" />
	</node>
	<node id="-127478" lat="65.6480166712" lon="11.9959805518">
		<tag k="name" v="Båtnes" />
		<tag k="place" v="isolated_dwelling" />
		<tag k="ssr:stedsnr" v="258308" />
	</node>
	<node id="-127988" lat="65.6175499968" lon="11.8961055455">
		<tag k="name" v="Vollan" />
		<tag k="place" v="farm" />
		<tag k="ssr:stedsnr" v="904177" />
	</node>
	<node id="-128999" lat="65.6982166708" lon="11.9854833258">
		<tag k="name" v="Haugen" />
		<tag k="place" v="isolated_dwelling" />
		<tag k="ssr:stedsnr" v="600698" />
	</node>
	<node id="-128998" lat="65.6909944453" lon="11.9388166738">
		<tag k="name" v="Heimgarden" />
		<tag k="place" v="farm" />
		<tag k="ssr:stedsnr" v="600797" />
	</node>
	<node id="-128996" lat="65.6306500013" lon="11.9837694466">
		<tag k="name" v="Tosen" />
		<tag k="place" v="locality" />
		<tag k="ssr:stedsnr" v="600494" />
	</node>
	<node id="-128481" lat="65.6753533344" lon="11.7247826311">
		<tag k="fixme" v="consider place=hamlet" />
		<tag k="name" v="Søla" />
		<tag k="place" v="farm" />
		<tag k="ssr:stedsnr" v="137247" />
	</node>
	<node id="-128479" lat="65.6705083292" lon="11.9092194411">
		<tag k="name" v="Neråsen" />
		<tag k="place" v="farm" />
		<tag k="ssr:stedsnr" v="137244" />
	</node>
	<node id="-128983" lat="65.5806722197" lon="11.701527776">
		<tag k="name" v="Lamøya" />
		<tag k="place" v="farm" />
		<tag k="ssr:stedsnr" v="584048" />
	</node>
	<node id="-128470" lat="65.6223166703" lon="11.907694445">
		<tag k="name" v="Trøvollen" />
		<tag k="place" v="farm" />
		<tag k="ssr:stedsnr" v="137286" />
	</node>
	<node id="-128247" lat="65.6709805572" lon="11.98197501">
		<tag k="name" v="Stormyra" />
		<tag k="place" v="farm" />
		<tag k="ssr:stedsnr" v="16240" />
	</node>
	<node id="-127420" lat="65.681066664" lon="12.0004666567">
		<tag k="name" v="Heimdal" />
		<tag k="place" v="farm" />
		<tag k="ssr:stedsnr" v="440472" />
	</node>
	<node id="-128443" lat="65.6914805594" lon="12.0147944371">
		<tag k="name" v="Sellebuhaugen" />
		<tag k="place" v="farm" />
		<tag k="ssr:stedsnr" v="136499" />
	</node>
	<node id="-128442" lat="65.6856888908" lon="11.9671916663">
		<tag k="name" v="Linbakken" />
		<tag k="place" v="farm" />
		<tag k="ssr:stedsnr" v="136498" />
	</node>
	<node id="-128441" lat="65.6823499992" lon="11.9690333297">
		<tag k="fixme" v="consider place=hamlet" />
		<tag k="name" v="Kolstad" />
		<tag k="place" v="farm" />
		<tag k="ssr:stedsnr" v="136495" />
	</node>
	<node id="-128440" lat="65.6866875333" lon="11.8687416248">
		<tag k="name" v="Nesjan" />
		<tag k="place" v="farm" />
		<tag k="ssr:stedsnr" v="136490" />
	</node>
	<node id="-128437" lat="65.6641416704" lon="11.9162527758">
		<tag k="name" v="Bergåsen" />
		<tag k="place" v="farm" />
		<tag k="ssr:stedsnr" v="136295" />
	</node>
	<node id="-128948" lat="65.642680554" lon="12.1746222241">
		<tag k="alt_name" v="Skutnes" />
		<tag k="name" v="Skudenes" />
		<tag k="place" v="farm" />
		<tag k="ssr:stedsnr" v="561343" />
	</node>
	<node id="-128435" lat="65.6453805539" lon="12.167074992">
		<tag k="name" v="Nordgård" />
		<tag k="place" v="farm" />
		<tag k="ssr:stedsnr" v="136387" />
	</node>
	<node id="-127920" lat="65.6729027742" lon="12.1003722199">
		<tag k="name" v="Bø" />
		<tag k="place" v="isolated_dwelling" />
		<tag k="ssr:stedsnr" v="734675" />
	</node>
	<node id="-127919" lat="65.5808305575" lon="11.6976027697">
		<tag k="name" v="Muddvær" />
		<tag k="place" v="farm" />
		<tag k="ssr:stedsnr" v="647066" />
	</node>
	<node id="-128430" lat="65.5996737514" lon="11.9084357376">
		<tag k="fixme" v="consider place=hamlet" />
		<tag k="name" v="Hestvika" />
		<tag k="place" v="farm" />
		<tag k="ssr:stedsnr" v="136164" />
	</node>
	<node id="-128940" lat="65.656080556" lon="11.9240055602">
		<tag k="name" v="Bjørkåsen" />
		<tag k="place" v="farm" />
		<tag k="ssr:stedsnr" v="561317" />
	</node>
	<node id="-128937" lat="65.6702333355" lon="11.9695722121">
		<tag k="name" v="Slettmyra" />
		<tag k="place" v="farm" />
		<tag k="ssr:stedsnr" v="561289" />
	</node>
	<node id="-127912" lat="65.6437111099" lon="11.7839027725">
		<tag k="name" v="Vegdalsgjerdet" />
		<tag k="place" v="isolated_dwelling" />
		<tag k="ssr:stedsnr" v="724170" />
	</node>
	<node id="-128205" lat="65.6435833294" lon="11.786516674">
		<tag k="name" v="Vollan" />
		<tag k="place" v="isolated_dwelling" />
		<tag k="ssr:stedsnr" v="967158" />
	</node>
	<node id="-128934" lat="65.6084750033" lon="12.1339249917">
		<tag k="name" v="Håvardsvika" />
		<tag k="place" v="farm" />
		<tag k="ssr:stedsnr" v="561137" />
	</node>
	<node id="-127905" lat="65.7043833362" lon="11.9182277697">
		<tag k="name" v="Gryttingen" />
		<tag k="place" v="isolated_dwelling" />
		<tag k="ssr:stedsnr" v="722845" />
	</node>
	<node id="-127392" lat="65.5971166711" lon="12.1293194438">
		<tag k="name" v="Odden" />
>>>>>>> e1d4bc35ff8a6074a6f2e91616a996b547c36f15
		<tag k="place" v="farm" />
		<tag k="ssr:stedsnr" v="440176" />
	</node>
<<<<<<< HEAD
	<node lat="65.67233056014268" lon="12.084694441361712" id="-8796">
		<tag k="name" v="Langvika" />
		<tag k="place" v="locality" />
		<tag k="ssr:stedsnr" v="674645" />
	</node>
	<node lat="65.65695277827518" lon="11.995230560294283" id="-8812">
		<tag k="name" v="Stortrøet" />
		<tag k="place" v="farm" />
		<tag k="ssr:stedsnr" v="500293" />
	</node>
	<node lat="65.62269722596005" lon="11.903599998812956" id="-8833">
		<tag k="alt_name" v="Vika, nordre" />
		<tag k="name" v="Nordre Vika" />
		<tag k="place" v="farm" />
		<tag k="ssr:stedsnr" v="744312" />
	</node>
	<node lat="65.61876666289785" lon="11.896694434417403" id="-8841">
		<tag k="alt_name" v="Myren" />
		<tag k="name" v="Myra" />
		<tag k="place" v="farm" />
		<tag k="ssr:stedsnr" v="744313" />
	</node>
	<node lat="65.65735822564558" lon="12.011142297064156" id="-8852">
		<tag k="fixme" v="consider place=hamlet" />
		<tag k="name" v="Rørøy" />
		<tag k="place" v="farm" />
		<tag k="ssr:stedsnr" v="682282" />
	</node>
	<node lat="65.62509722179415" lon="11.96981388946498" id="-8877">
		<tag k="name" v="Sørkjul" />
		<tag k="place" v="farm" />
		<tag k="ssr:stedsnr" v="683290" />
	</node>
	<node lat="65.63585277540874" lon="12.159627768380599" id="-8881">
		<tag k="name" v="Tofta" />
		<tag k="place" v="farm" />
		<tag k="ssr:stedsnr" v="683301" />
	</node>
	<node lat="65.75538611531249" lon="11.715480561752232" id="-8903">
		<tag k="name" v="Sørgarden" />
		<tag k="place" v="farm" />
		<tag k="ssr:stedsnr" v="683940" />
	</node>
	<node lat="65.65158233400376" lon="11.997805169114107" id="-8912">
		<tag k="fixme" v="consider place=hamlet" />
		<tag k="name" v="Båtnes" />
		<tag k="place" v="farm" />
		<tag k="ssr:stedsnr" v="540510" />
	</node>
	<node lat="65.60847500331965" lon="12.133924991682008" id="-8928">
		<tag k="name" v="Håvardsvika" />
		<tag k="place" v="farm" />
		<tag k="ssr:stedsnr" v="561137" />
	</node>
	<node lat="65.69099444533506" lon="11.938816673771761" id="-8943">
		<tag k="name" v="Heimgarden" />
		<tag k="place" v="farm" />
		<tag k="ssr:stedsnr" v="600797" />
	</node>
	<node lat="65.66515277495243" lon="11.925047225731873" id="-8947">
		<tag k="name" v="Kalvås" />
		<tag k="place" v="farm" />
		<tag k="ssr:stedsnr" v="615755" />
	</node>
	<node lat="65.65851388504223" lon="11.871274995843322" id="-8966">
		<tag k="name" v="Breidablikk" />
		<tag k="place" v="farm" />
		<tag k="ssr:stedsnr" v="622306" />
	</node>
	<node lat="65.70637777938151" lon="11.93568054648885" id="-9006">
		<tag k="name" v="Haugsjø" />
=======
	<node id="-127901" lat="65.6815222177" lon="11.8600888932">
		<tag k="name" v="Tussberget" />
		<tag k="place" v="isolated_dwelling" />
		<tag k="ssr:stedsnr" v="722810" />
	</node>
	<node id="-128411" lat="65.6150122687" lon="11.9000472511">
		<tag k="name" v="Grønnvollen" />
		<tag k="place" v="locality" />
		<tag k="ssr:stedsnr" v="115196" />
	</node>
	<node id="-128407" lat="65.5800333323" lon="11.6969222133">
		<tag k="name" v="Muddvær Sørgården" />
		<tag k="place" v="farm" />
		<tag k="ssr:stedsnr" v="101050" />
	</node>
	<node id="-128406" lat="65.5805916709" lon="11.6973722245">
		<tag k="name" v="Muddværet" />
		<tag k="place" v="farm" />
		<tag k="ssr:stedsnr" v="101045" />
	</node>
	<node id="-129429" lat="65.6906083467" lon="11.8374717663">
		<tag k="fixme" v="consider place=hamlet" />
		<tag k="name" v="Kjelkdalen" />
		<tag k="place" v="farm" />
		<tag k="ssr:stedsnr" v="989758" />
	</node>
	<node id="-129428" lat="65.6193382449" lon="11.7586134072">
		<tag k="name" v="Nepsundet" />
		<tag k="place" v="locality" />
		<tag k="ssr:stedsnr" v="989742" />
	</node>
	<node id="-129427" lat="65.6199783842" lon="11.3893515978">
		<tag k="name" v="Bremsteinen" />
		<tag k="place" v="locality" />
		<tag k="ssr:stedsnr" v="989740" />
	</node>
	<node id="-129425" lat="65.6196404693" lon="11.9006063074">
		<tag k="fixme" v="consider place=hamlet" />
		<tag k="name" v="Vika" />
		<tag k="place" v="farm" />
		<tag k="ssr:stedsnr" v="989737" />
	</node>
	<node id="-129424" lat="65.629101816" lon="11.9777201107">
		<tag k="fixme" v="consider place=hamlet" />
		<tag k="name" v="Kjul" />
		<tag k="place" v="farm" />
		<tag k="ssr:stedsnr" v="989734" />
	</node>
	<node id="-127373" lat="65.6786055589" lon="12.1146999919">
		<tag k="amenity" v="school" />
		<tag k="name" v="Igerøy skole" />
		<tag k="ssr:stedsnr" v="297324" />
	</node>
	<node id="-128908" lat="65.651582334" lon="11.9978051691">
		<tag k="fixme" v="consider place=hamlet" />
		<tag k="name" v="Båtnes" />
		<tag k="place" v="farm" />
		<tag k="ssr:stedsnr" v="540510" />
	</node>
	<node id="-129418" lat="65.6262972203" lon="11.9713638883">
		<tag k="name" v="Pengehaugen" />
		<tag k="place" v="locality" />
		<tag k="ssr:stedsnr" v="965534" />
	</node>
	<node id="-127895" lat="65.6396583338" lon="11.9907277703">
		<tag k="name" v="Kjulsvika" />
		<tag k="place" v="locality" />
		<tag k="ssr:stedsnr" v="722536" />
	</node>
	<node id="-127365" lat="65.6217416626" lon="12.1632333393">
		<tag k="alt_name" v="Engen" />
		<tag k="name" v="Enget" />
		<tag k="place" v="farm" />
		<tag k="ssr:stedsnr" v="198336" />
	</node>
	<node id="-129412" lat="65.6810083335" lon="12.1184500003">
		<tag k="name" v="Garden" />
		<tag k="place" v="farm" />
		<tag k="ssr:stedsnr" v="964337" />
	</node>
	<node id="-129430" lat="65.710309579" lon="11.9615321104">
		<tag k="name" v="Lamøya" />
		<tag k="place" v="locality" />
		<tag k="ssr:stedsnr" v="989768" />
	</node>
	<node id="-128894" lat="65.6845750008" lon="12.1167083404">
		<tag k="name" v="Bukken" />
		<tag k="place" v="farm" />
		<tag k="ssr:stedsnr" v="539287" />
	</node>
	<node id="-128405" lat="65.5797305576" lon="11.6950277884">
		<tag k="name" v="Sjåberget" />
		<tag k="place" v="farm" />
		<tag k="ssr:stedsnr" v="99050" />
	</node>
	<node id="-127868" lat="65.6849027741" lon="12.1248972178">
		<tag k="name" v="Skjåvika" />
		<tag k="place" v="isolated_dwelling" />
		<tag k="ssr:stedsnr" v="721337" />
	</node>
	<node id="-127865" lat="65.6863083371" lon="11.853699995">
		<tag k="name" v="Holten" />
>>>>>>> e1d4bc35ff8a6074a6f2e91616a996b547c36f15
		<tag k="place" v="isolated_dwelling" />
		<tag k="ssr:stedsnr" v="600771" />
	</node>
<<<<<<< HEAD
	<node lat="65.67229425459678" lon="12.097364796791242" id="-9027">
		<tag k="fixme" v="consider place=hamlet" />
		<tag k="name" v="Bø" />
		<tag k="place" v="farm" />
		<tag k="ssr:stedsnr" v="683247" />
	</node>
	<node lat="65.64930333450215" lon="11.901411221831589" id="-9030">
		<tag k="name" v="Eines" />
		<tag k="place" v="locality" />
		<tag k="ssr:stedsnr" v="683277" />
	</node>
	<node lat="65.65330833140335" lon="12.002772231898222" id="-9059">
		<tag k="name" v="Sjøstrand" />
		<tag k="place" v="farm" />
		<tag k="ssr:stedsnr" v="722519" />
	</node>
	<node lat="65.68152221774247" lon="11.860088893222356" id="-9060">
		<tag k="name" v="Tussberget" />
		<tag k="place" v="isolated_dwelling" />
		<tag k="ssr:stedsnr" v="722810" />
	</node>
	<node lat="65.70438333616275" lon="11.918227769740993" id="-9064">
		<tag k="name" v="Gryttingen" />
		<tag k="place" v="isolated_dwelling" />
		<tag k="ssr:stedsnr" v="722845" />
	</node>
	<node lat="65.64371110987487" lon="11.783902772534919" id="-9070">
		<tag k="name" v="Vegdalsgjerdet" />
		<tag k="place" v="isolated_dwelling" />
		<tag k="ssr:stedsnr" v="724170" />
	</node>
	<node lat="65.66007775298026" lon="11.908695533972555" id="-9077">
		<tag k="fixme" v="consider place=hamlet" />
		<tag k="name" v="Åsen" />
		<tag k="place" v="farm" />
		<tag k="ssr:stedsnr" v="743290" />
	</node>
	<node lat="65.6600250012393" lon="11.895288883886204" id="-9078">
		<tag k="name" v="Steinåsen" />
		<tag k="place" v="farm" />
		<tag k="ssr:stedsnr" v="743291" />
	</node>
	<node lat="65.61754999682012" lon="11.896105545536223" id="-9123">
		<tag k="name" v="Vollan" />
		<tag k="place" v="farm" />
		<tag k="ssr:stedsnr" v="904177" />
	</node>
	<node lat="65.63657500066795" lon="12.164230565298958" id="-9137">
		<tag k="name" v="Gården" />
		<tag k="place" v="isolated_dwelling" />
		<tag k="ssr:stedsnr" v="906273" />
	</node>
	<node lat="65.70638611211342" lon="11.884436100605194" id="-9147">
		<tag k="name" v="Sør-Nautøy" />
		<tag k="place" v="locality" />
		<tag k="ssr:stedsnr" v="782714" />
	</node>
	<node lat="65.71212778021061" lon="11.910938882858849" id="-9154">
		<tag k="name" v="Gardsøya Industriområde" />
		<tag k="place" v="quarter" />
		<tag k="ssr:stedsnr" v="783907" />
	</node>
	<node lat="65.69575555137111" lon="11.86591387877478" id="-9173">
		<tag k="name" v="Kråkåsmyra" />
		<tag k="place" v="farm" />
		<tag k="ssr:stedsnr" v="804479" />
	</node>
	<node lat="65.69752222481267" lon="11.986255546502484" id="-9192">
		<tag k="name" v="Sveahaugen" />
		<tag k="place" v="farm" />
		<tag k="ssr:stedsnr" v="810723" />
	</node>
	<node lat="65.68378333101447" lon="11.957013895373768" id="-9195">
		<tag k="name" v="Dammyra" />
		<tag k="place" v="isolated_dwelling" />
		<tag k="ssr:stedsnr" v="919738" />
	</node>
	<node lat="65.6000361088215" lon="12.131536111476901" id="-9228">
		<tag k="name" v="Brenta" />
		<tag k="place" v="farm" />
		<tag k="ssr:stedsnr" v="926132" />
	</node>
	<node lat="65.64665278166011" lon="11.990961112298606" id="-9233">
		<tag k="name" v="Finnsken" />
		<tag k="place" v="farm" />
		<tag k="ssr:stedsnr" v="926289" />
	</node>
	<node lat="65.61765833061793" lon="11.89926943737387" id="-9237">
		<tag k="alt_name" v="Vika, s" />
		<tag k="name" v="Søre Vika" />
=======
	<node id="-127892" lat="65.6533083314" lon="12.0027722319">
		<tag k="name" v="Sjøstrand" />
		<tag k="place" v="farm" />
		<tag k="ssr:stedsnr" v="722519" />
	</node>
	<node id="-127348" lat="65.6637555573" lon="11.9283805652">
		<tag k="name" v="Tortenåsen" />
		<tag k="place" v="farm" />
		<tag k="ssr:stedsnr" v="191732" />
	</node>
	<node id="-128878" lat="65.7008499989" lon="12.0291194495">
		<tag k="name" v="Nordhaugen" />
		<tag k="place" v="isolated_dwelling" />
		<tag k="ssr:stedsnr" v="419738" />
	</node>
	<node id="-128874" lat="65.6931138879" lon="11.8540861103">
		<tag k="name" v="Viken" />
		<tag k="place" v="farm" />
		<tag k="ssr:stedsnr" v="418866" />
	</node>
	<node id="-128869" lat="65.6865722212" lon="11.8641111063">
		<tag k="name" v="Staulan" />
		<tag k="place" v="isolated_dwelling" />
		<tag k="ssr:stedsnr" v="418779" />
	</node>
	<node id="-128352" lat="65.6904388886" lon="11.8391166589">
		<tag k="name" v="Kjelkdalen" />
		<tag k="place" v="isolated_dwelling" />
		<tag k="ssr:stedsnr" v="76464" />
	</node>
	<node id="-127838" lat="65.6816805568" lon="11.9783750059">
		<tag k="alt_name" v="Grindbakkan" />
		<tag k="name" v="Grindbakken" />
		<tag k="place" v="farm" />
		<tag k="ssr:stedsnr" v="561475" />
	</node>
	<node id="-127837" lat="65.6965433478" lon="11.9865470946">
		<tag k="fixme" v="consider place=hamlet" />
		<tag k="name" v="Svea" />
		<tag k="place" v="farm" />
		<tag k="ssr:stedsnr" v="561471" />
	</node>
	<node id="-127832" lat="65.7021416676" lon="11.8517416756">
		<tag k="name" v="Vallasjøen" />
		<tag k="place" v="farm" />
		<tag k="ssr:stedsnr" v="561405" />
	</node>
	<node id="-128343" lat="65.7080209631" lon="11.9195481289">
		<tag k="name" v="Kjerkøya" />
		<tag k="place" v="farm" />
		<tag k="ssr:stedsnr" v="76431" />
	</node>
	<node id="-128342" lat="65.7052361145" lon="11.9125166777">
		<tag k="name" v="Holand" />
		<tag k="place" v="village" />
		<tag k="ssr:stedsnr" v="76428" />
	</node>
	<node id="-127829" lat="65.6750944439" lon="12.1101416721">
		<tag k="name" v="Bøhaugen" />
		<tag k="place" v="farm" />
		<tag k="ssr:stedsnr" v="561281" />
	</node>
	<node id="-127827" lat="65.655514887" lon="11.9629087666">
		<tag k="fixme" v="consider place=hamlet" />
		<tag k="name" v="Ferset" />
		<tag k="place" v="farm" />
		<tag k="ssr:stedsnr" v="561269" />
	</node>
	<node id="-129361" lat="65.6884444454" lon="12.1283694349">
		<tag k="name" v="Leirvikmarka" />
		<tag k="place" v="farm" />
		<tag k="ssr:stedsnr" v="865513" />
	</node>
	<node id="-127312" lat="65.6864805525" lon="11.9610388811">
		<tag k="name" v="Olderåsen" />
		<tag k="place" v="farm" />
		<tag k="ssr:stedsnr" v="116810" />
	</node>
	<node id="-129359" lat="65.679338891" lon="12.1261388789">
		<tag k="name" v="Nausthaugen" />
		<tag k="place" v="farm" />
		<tag k="ssr:stedsnr" v="865504" />
	</node>
	<node id="-128331" lat="65.6104835574" lon="11.848309299">
		<tag k="fixme" v="consider place=hamlet" />
		<tag k="name" v="Eidem" />
		<tag k="place" v="farm" />
		<tag k="ssr:stedsnr" v="76355" />
	</node>
	<node id="-127815" lat="65.7052394807" lon="11.9144154431">
		<tag k="name" v="Gården" />
		<tag k="place" v="farm" />
		<tag k="ssr:stedsnr" v="540809" />
	</node>
	<node id="-128326" lat="65.63663333" lon="12.1782944489">
		<tag k="name" v="Trappa" />
>>>>>>> e1d4bc35ff8a6074a6f2e91616a996b547c36f15
		<tag k="place" v="farm" />
		<tag k="ssr:stedsnr" v="76328" />
	</node>
<<<<<<< HEAD
	<node lat="65.68758055876937" lon="11.962966664941375" id="-9239">
		<tag k="name" v="Aspåsen" />
		<tag k="place" v="farm" />
		<tag k="ssr:stedsnr" v="926427" />
	</node>
	<node lat="65.69308055354985" lon="11.921188888031073" id="-9240">
		<tag k="name" v="Stråmyra" />
		<tag k="place" v="farm" />
		<tag k="ssr:stedsnr" v="926440" />
	</node>
	<node lat="65.70113055344241" lon="12.006658342137166" id="-9241">
		<tag k="name" v="Geithaugen" />
		<tag k="place" v="farm" />
		<tag k="ssr:stedsnr" v="926441" />
	</node>
	<node lat="65.68121944294823" lon="11.852511112970678" id="-9242">
		<tag k="name" v="Trøan" />
		<tag k="place" v="farm" />
		<tag k="ssr:stedsnr" v="926450" />
	</node>
	<node lat="65.65432777715738" lon="11.916983338287865" id="-9257">
		<tag k="name" v="Nymo" />
		<tag k="place" v="farm" />
		<tag k="ssr:stedsnr" v="904016" />
	</node>
	<node lat="65.63516666554538" lon="11.987747226280062" id="-9260">
		<tag k="name" v="Trangkleiva" />
		<tag k="place" v="locality" />
		<tag k="ssr:stedsnr" v="904504" />
	</node>
	<node lat="65.70334166996632" lon="12.025433331537002" id="-9265">
		<tag k="name" v="Gåshaugen" />
		<tag k="place" v="isolated_dwelling" />
		<tag k="ssr:stedsnr" v="904711" />
	</node>
	<node lat="65.69528055979362" lon="11.985405545583891" id="-9266">
		<tag k="name" v="Ner-Svea" />
		<tag k="place" v="farm" />
		<tag k="ssr:stedsnr" v="904699" />
	</node>
	<node lat="65.66996667061875" lon="11.92463333063109" id="-9271">
		<tag k="name" v="Limåsen" />
		<tag k="place" v="isolated_dwelling" />
		<tag k="ssr:stedsnr" v="919749" />
	</node>
	<node lat="65.67187222496474" lon="12.088324997578408" id="-9285">
		<tag k="name" v="Vikran" />
		<tag k="place" v="farm" />
		<tag k="ssr:stedsnr" v="926268" />
	</node>
	<node lat="65.69023889134438" lon="12.120927775830369" id="-9299">
		<tag k="name" v="Solvang" />
		<tag k="place" v="farm" />
		<tag k="ssr:stedsnr" v="926480" />
	</node>
	<node lat="65.68100833352558" lon="12.118450000264799" id="-9313">
		<tag k="name" v="Garden" />
		<tag k="place" v="farm" />
		<tag k="ssr:stedsnr" v="964337" />
	</node>
	<node lat="65.62629722028309" lon="11.971363888304232" id="-9321">
		<tag k="name" v="Pengehaugen" />
		<tag k="place" v="locality" />
		<tag k="ssr:stedsnr" v="965534" />
	</node>
	<node lat="65.6696138887914" lon="12.093405545137445" id="-9370">
		<tag k="name" v="Jektvika" />
		<tag k="place" v="farm" />
		<tag k="ssr:stedsnr" v="16230" />
	</node>
	<node lat="65.67098055716079" lon="11.981975009964724" id="-9373">
		<tag k="name" v="Stormyra" />
		<tag k="place" v="farm" />
		<tag k="ssr:stedsnr" v="16240" />
	</node>
	<node lat="65.62151388934673" lon="11.962413896648117" id="-9375">
		<tag k="name" v="Skjelvika" />
		<tag k="place" v="farm" />
		<tag k="ssr:stedsnr" v="16281" />
	</node>
	<node lat="65.68587867757674" lon="12.121227731906478" id="-9390">
		<tag k="fixme" v="consider place=hamlet" />
		<tag k="name" v="Igerøya" />
		<tag k="place" v="farm" />
		<tag k="ssr:stedsnr" v="27654" />
	</node>
	<node lat="65.67873333067195" lon="12.12491945262" id="-9405">
		<tag k="name" v="Naustvik" />
		<tag k="place" v="isolated_dwelling" />
		<tag k="ssr:stedsnr" v="54356" />
	</node>
	<node lat="65.64014722425291" lon="11.995741675388468" id="-9415">
		<tag k="name" v="Breivika" />
		<tag k="place" v="isolated_dwelling" />
		<tag k="ssr:stedsnr" v="55486" />
	</node>
	<node lat="65.68491944342503" lon="11.951366670844997" id="-9417">
		<tag k="name" v="Tronåsen" />
		<tag k="place" v="farm" />
		<tag k="ssr:stedsnr" v="55790" />
	</node>
	<node lat="65.67140555788465" lon="12.095588890606894" id="-9426">
		<tag k="name" v="Staulberget" />
		<tag k="place" v="farm" />
		<tag k="ssr:stedsnr" v="67662" />
	</node>
	<node lat="65.6366333300431" lon="12.17829444892886" id="-9434">
		<tag k="name" v="Trappa" />
		<tag k="place" v="farm" />
		<tag k="ssr:stedsnr" v="76328" />
	</node>
	<node lat="65.70156944452486" lon="11.943080554240353" id="-9448">
		<tag k="alt_name" v="Grindhågjen" />
		<tag k="name" v="Grindhaugen" />
		<tag k="place" v="farm" />
		<tag k="ssr:stedsnr" v="76478" />
	</node>
	<node lat="65.70523611450655" lon="11.912516677722422" id="-9458">
		<tag k="name" v="Holand" />
		<tag k="place" v="village" />
		<tag k="ssr:stedsnr" v="76428" />
	</node>
	<node lat="65.70802096311961" lon="11.91954812892678" id="-9459">
		<tag k="name" v="Kjerkøya" />
		<tag k="place" v="farm" />
		<tag k="ssr:stedsnr" v="76431" />
	</node>
	<node lat="65.57973055763745" lon="11.69502778839152" id="-9488">
		<tag k="name" v="Sjåberget" />
		<tag k="place" v="farm" />
		<tag k="ssr:stedsnr" v="99050" />
	</node>
	<node lat="65.58059167093495" lon="11.697372224470348" id="-9489">
		<tag k="name" v="Muddværet" />
		<tag k="place" v="farm" />
		<tag k="ssr:stedsnr" v="101045" />
	</node>
	<node lat="65.5800333322954" lon="11.6969222133199" id="-9490">
		<tag k="name" v="Muddvær Sørgården" />
		<tag k="place" v="farm" />
		<tag k="ssr:stedsnr" v="101050" />
	</node>
	<node lat="65.61501226865884" lon="11.900047251109196" id="-9499">
		<tag k="name" v="Grønnvollen" />
		<tag k="place" v="locality" />
		<tag k="ssr:stedsnr" v="115196" />
	</node>
	<node lat="65.5996737513816" lon="11.908435737620414" id="-9510">
		<tag k="fixme" v="consider place=hamlet" />
		<tag k="name" v="Hestvika" />
		<tag k="place" v="farm" />
		<tag k="ssr:stedsnr" v="136164" />
	</node>
	<node lat="65.66414167040837" lon="11.916252775808864" id="-9514">
		<tag k="name" v="Bergåsen" />
		<tag k="place" v="farm" />
		<tag k="ssr:stedsnr" v="136295" />
	</node>
	<node lat="65.6453805539338" lon="12.167074991964665" id="-9521">
		<tag k="name" v="Nordgård" />
		<tag k="place" v="farm" />
		<tag k="ssr:stedsnr" v="136387" />
	</node>
	<node lat="65.68668753334555" lon="11.868741624842004" id="-9523">
		<tag k="name" v="Nesjan" />
		<tag k="place" v="farm" />
		<tag k="ssr:stedsnr" v="136490" />
	</node>
	<node lat="65.68234999924528" lon="11.969033329677927" id="-9524">
		<tag k="fixme" v="consider place=hamlet" />
		<tag k="name" v="Kolstad" />
		<tag k="place" v="farm" />
		<tag k="ssr:stedsnr" v="136495" />
	</node>
	<node lat="65.67050832922448" lon="11.909219441097495" id="-9545">
		<tag k="name" v="Neråsen" />
		<tag k="place" v="farm" />
		<tag k="ssr:stedsnr" v="137244" />
	</node>
	<node lat="65.67535333440927" lon="11.724782631065843" id="-9547">
		<tag k="fixme" v="consider place=hamlet" />
		<tag k="name" v="Søla" />
		<tag k="place" v="farm" />
		<tag k="ssr:stedsnr" v="137247" />
	</node>
	<node lat="65.62231667026471" lon="11.907694444965557" id="-9549">
		<tag k="name" v="Trøvollen" />
		<tag k="place" v="farm" />
		<tag k="ssr:stedsnr" v="137286" />
	</node>
	<node lat="65.57865000346864" lon="11.69438610101545" id="-9568">
		<tag k="name" v="Skaftet" />
		<tag k="place" v="farm" />
		<tag k="ssr:stedsnr" v="163049" />
	</node>
	<node lat="65.68667222106794" lon="11.970083340988937" id="-9583">
		<tag k="name" v="Nordgården" />
		<tag k="place" v="locality" />
		<tag k="ssr:stedsnr" v="176742" />
	</node>
	<node lat="65.66375555726201" lon="11.92838056515505" id="-9588">
		<tag k="name" v="Tortenåsen" />
		<tag k="place" v="farm" />
		<tag k="ssr:stedsnr" v="191732" />
	</node>
	<node lat="65.6429620358403" lon="11.846216972089127" id="-9590">
		<tag k="alt_name" v="Skjeggemoen" />
		<tag k="name" v="Moen" />
		<tag k="place" v="locality" />
		<tag k="ssr:stedsnr" v="197329" />
	</node>
	<node lat="65.64012543121008" lon="11.944974690843413" id="-9602">
		<tag k="fixme" v="consider place=hamlet" />
		<tag k="name" v="Floa" />
		<tag k="place" v="farm" />
		<tag k="ssr:stedsnr" v="197323" />
	</node>
	<node lat="65.65760000428888" lon="11.892886100714291" id="-9604">
		<tag k="name" v="Asphaugen" />
		<tag k="place" v="farm" />
		<tag k="ssr:stedsnr" v="197343" />
	</node>
	<node lat="65.68721944771511" lon="12.117633333690517" id="-9610">
		<tag k="name" v="Grindhaugen" />
		<tag k="place" v="farm" />
		<tag k="ssr:stedsnr" v="197543" />
	</node>
	<node lat="65.6677250043563" lon="11.920138897769828" id="-9638">
		<tag k="name" v="Kalvåsen" />
		<tag k="place" v="farm" />
		<tag k="ssr:stedsnr" v="198239" />
	</node>
	<node lat="65.62174166258671" lon="12.16323333928217" id="-9639">
		<tag k="alt_name" v="Engen" />
		<tag k="name" v="Enget" />
		<tag k="place" v="farm" />
		<tag k="ssr:stedsnr" v="198336" />
	</node>
	<node lat="65.6635999980691" lon="11.945400009808747" id="-9692">
		<tag k="name" v="Prestenget" />
		<tag k="place" v="farm" />
		<tag k="ssr:stedsnr" v="318256" />
	</node>
	<node lat="65.61120000015362" lon="11.879591667550788" id="-9695">
		<tag k="name" v="Innerbrekka" />
		<tag k="place" v="farm" />
		<tag k="ssr:stedsnr" v="318348" />
	</node>
	<node lat="65.69069791166805" lon="11.947091643833106" id="-9700">
		<tag k="fixme" v="consider place=hamlet" />
		<tag k="name" v="Olderåsen" />
		<tag k="place" v="farm" />
		<tag k="ssr:stedsnr" v="318462" />
	</node>
	<node lat="65.6986825064602" lon="11.8778416051338" id="-9701">
		<tag k="fixme" v="consider place=hamlet" />
		<tag k="name" v="Viksåsen" />
		<tag k="place" v="farm" />
		<tag k="ssr:stedsnr" v="318470" />
	</node>
	<node lat="65.66635833653461" lon="11.972716659951592" id="-9720">
		<tag k="name" v="Strupen" />
		<tag k="place" v="farm" />
		<tag k="ssr:stedsnr" v="319266" />
	</node>
	<node lat="65.68108889220234" lon="11.862577788326055" id="-9726">
		<tag k="alt_name" v="Gulsvåghaugen" />
		<tag k="name" v="Gullsvåghaugen" />
		<tag k="place" v="farm" />
		<tag k="ssr:stedsnr" v="319459" />
	</node>
	<node lat="65.6828966001345" lon="11.861192871006043" id="-9727">
		<tag k="fixme" v="consider place=hamlet" />
		<tag k="name" v="Gullsvåg" />
		<tag k="place" v="farm" />
		<tag k="ssr:stedsnr" v="319461" />
	</node>
	<node lat="65.6824222179939" lon="11.857538890655468" id="-9773">
		<tag k="name" v="Hundtua" />
		<tag k="place" v="farm" />
		<tag k="ssr:stedsnr" v="357770" />
	</node>
	<node lat="65.69473055699642" lon="11.98612777134622" id="-9785">
		<tag k="name" v="Risnes" />
		<tag k="place" v="farm" />
		<tag k="ssr:stedsnr" v="358730" />
	</node>
	<node lat="65.6776491509886" lon="11.81101256555006" id="-9793">
		<tag k="fixme" v="consider place=hamlet" />
		<tag k="name" v="Sundsvoll" />
		<tag k="place" v="farm" />
		<tag k="ssr:stedsnr" v="379444" />
	</node>
	<node lat="65.64424019992973" lon="11.785244563423865" id="-9799">
		<tag k="fixme" v="consider place=hamlet" />
		<tag k="name" v="Vegdalen" />
		<tag k="place" v="farm" />
		<tag k="ssr:stedsnr" v="379289" />
	</node>
	<node lat="65.69463611129827" lon="11.93991944560766" id="-9813">
		<tag k="alt_name" v="Kolskog" />
		<tag k="name" v="Kolskogen" />
		<tag k="place" v="farm" />
		<tag k="ssr:stedsnr" v="379441" />
	</node>
	<node lat="65.70106944294174" lon="12.033350007995102" id="-9816">
		<tag k="name" v="Gåshaugen" />
		<tag k="place" v="farm" />
		<tag k="ssr:stedsnr" v="379401" />
	</node>
	<node lat="65.68439166866271" lon="11.96415832975415" id="-9827">
		<tag k="name" v="Forsbakken" />
		<tag k="place" v="farm" />
		<tag k="ssr:stedsnr" v="379459" />
	</node>
	<node lat="65.68657222117692" lon="11.864111106345787" id="-9861">
		<tag k="name" v="Staulan" />
		<tag k="place" v="isolated_dwelling" />
		<tag k="ssr:stedsnr" v="418779" />
	</node>
	<node lat="65.69311388788019" lon="11.854086110275299" id="-9862">
		<tag k="name" v="Viken" />
		<tag k="place" v="farm" />
		<tag k="ssr:stedsnr" v="418866" />
	</node>
	<node lat="65.70084999893403" lon="12.029119449531064" id="-9870">
		<tag k="name" v="Nordhaugen" />
		<tag k="place" v="isolated_dwelling" />
		<tag k="ssr:stedsnr" v="419738" />
	</node>
	<node lat="65.59711667108336" lon="12.129319443840808" id="-9882">
		<tag k="name" v="Odden" />
		<tag k="place" v="farm" />
		<tag k="ssr:stedsnr" v="440176" />
	</node>
	<node lat="65.68106666398042" lon="12.000466656697117" id="-9908">
		<tag k="name" v="Heimdal" />
		<tag k="place" v="farm" />
		<tag k="ssr:stedsnr" v="440472" />
	</node>
	<node lat="65.67589444619311" lon="12.09037499846984" id="-9948">
		<tag k="name" v="Bødalen" />
		<tag k="place" v="farm" />
		<tag k="ssr:stedsnr" v="501456" />
	</node>
	<node lat="65.68457500081813" lon="12.116708340443981" id="-9978">
		<tag k="name" v="Bukken" />
		<tag k="place" v="farm" />
		<tag k="ssr:stedsnr" v="539287" />
	</node>
	<node lat="65.7052394806672" lon="11.91441544307977" id="-9986">
		<tag k="name" v="Gården" />
		<tag k="place" v="farm" />
		<tag k="ssr:stedsnr" v="540809" />
	</node>
	<node lat="65.67509444394449" lon="12.110141672072778" id="-10000">
		<tag k="name" v="Bøhaugen" />
		<tag k="place" v="farm" />
		<tag k="ssr:stedsnr" v="561281" />
	</node>
	<node lat="65.67023333553539" lon="11.969572212146959" id="-10002">
		<tag k="name" v="Slettmyra" />
		<tag k="place" v="farm" />
		<tag k="ssr:stedsnr" v="561289" />
	</node>
	<node lat="65.6560805559857" lon="11.924005560235042" id="-10005">
		<tag k="name" v="Bjørkåsen" />
		<tag k="place" v="farm" />
		<tag k="ssr:stedsnr" v="561317" />
	</node>
	<node lat="65.65551488703954" lon="11.96290876655486" id="-10007">
		<tag k="fixme" v="consider place=hamlet" />
		<tag k="name" v="Ferset" />
		<tag k="place" v="farm" />
		<tag k="ssr:stedsnr" v="561269" />
	</node>
	<node lat="65.64268055404322" lon="12.174622224086912" id="-10014">
		<tag k="alt_name" v="Skutnes" />
		<tag k="name" v="Skudenes" />
		<tag k="place" v="farm" />
		<tag k="ssr:stedsnr" v="561343" />
	</node>
	<node lat="65.70214166759185" lon="11.851741675578134" id="-10031">
		<tag k="name" v="Vallasjøen" />
		<tag k="place" v="farm" />
		<tag k="ssr:stedsnr" v="561405" />
	</node>
	<node lat="65.69654334775736" lon="11.986547094635068" id="-10039">
		<tag k="fixme" v="consider place=hamlet" />
		<tag k="name" v="Svea" />
		<tag k="place" v="farm" />
		<tag k="ssr:stedsnr" v="561471" />
	</node>
	<node lat="65.68168055683628" lon="11.978375005870468" id="-10040">
		<tag k="alt_name" v="Grindbakkan" />
		<tag k="name" v="Grindbakken" />
		<tag k="place" v="farm" />
		<tag k="ssr:stedsnr" v="561475" />
	</node>
	<node lat="65.58067221968535" lon="11.701527775973188" id="-10078">
		<tag k="name" v="Lamøya" />
		<tag k="place" v="farm" />
		<tag k="ssr:stedsnr" v="584048" />
	</node>
	<node lat="65.705101546791" lon="11.917549692202863" id="-10083">
		<tag k="fixme" v="consider place=hamlet" />
		<tag k="name" v="Holand" />
		<tag k="place" v="farm" />
		<tag k="ssr:stedsnr" v="600824" />
	</node>
	<node lat="65.63065000131417" lon="11.983769446612943" id="-10092">
		<tag k="name" v="Tosen" />
		<tag k="place" v="locality" />
		<tag k="ssr:stedsnr" v="600494" />
	</node>
	<node lat="65.69821667080693" lon="11.985483325807035" id="-10093">
		<tag k="name" v="Haugen" />
		<tag k="place" v="isolated_dwelling" />
		<tag k="ssr:stedsnr" v="600698" />
	</node>
	<node lat="65.68630833710905" lon="11.85369999503075" id="-10094">
		<tag k="name" v="Holten" />
		<tag k="place" v="isolated_dwelling" />
		<tag k="ssr:stedsnr" v="600771" />
	</node>
	<node lat="65.60906111102842" lon="11.855141656318713" id="-10109">
		<tag k="alt_name" v="Lisshaugen" />
		<tag k="name" v="Litlhaugen" />
		<tag k="place" v="farm" />
		<tag k="ssr:stedsnr" v="621361" />
	</node>
	<node lat="65.70580555325165" lon="11.932700001538585" id="-10114">
		<tag k="fixme" v="consider place=hamlet" />
		<tag k="name" v="Nes" />
		<tag k="place" v="farm" />
		<tag k="ssr:stedsnr" v="621450" />
	</node>
	<node lat="65.70190562315452" lon="12.002370151605728" id="-10115">
		<tag k="fixme" v="consider place=hamlet" />
		<tag k="name" v="Hongset" />
		<tag k="place" v="farm" />
		<tag k="ssr:stedsnr" v="621453" />
	</node>
	<node lat="65.58083055754477" lon="11.697602769722184" id="-10176">
		<tag k="name" v="Muddvær" />
		<tag k="place" v="farm" />
		<tag k="ssr:stedsnr" v="647066" />
	</node>
	<node lat="65.68100833386097" lon="11.81723334190811" id="-10177">
		<tag k="name" v="Åsgarden" />
		<tag k="place" v="locality" />
		<tag k="ssr:stedsnr" v="661195" />
	</node>
	<node lat="65.68822222315629" lon="12.120036109118674" id="-10185">
		<tag k="name" v="Grindhaug" />
		<tag k="place" v="farm" />
		<tag k="ssr:stedsnr" v="661367" />
	</node>
	<node lat="65.68511388842354" lon="11.85363332470077" id="-10189">
		<tag k="name" v="Grøte" />
		<tag k="place" v="locality" />
		<tag k="ssr:stedsnr" v="661762" />
	</node>
	<node lat="65.69090277802671" lon="11.86301388791759" id="-10190">
		<tag k="amenity" v="school" />
		<tag k="name" v="Valla skole" />
		<tag k="ssr:stedsnr" v="661763" />
	</node>
	<node lat="65.69228333542435" lon="11.875913885942813" id="-10196">
		<tag k="name" v="Staulan" />
		<tag k="place" v="isolated_dwelling" />
		<tag k="ssr:stedsnr" v="661776" />
	</node>
	<node lat="65.68490277406622" lon="12.124897217759008" id="-10198">
		<tag k="name" v="Skjåvika" />
		<tag k="place" v="isolated_dwelling" />
		<tag k="ssr:stedsnr" v="721337" />
	</node>
	<node lat="65.63965833381658" lon="11.990727770273052" id="-10222">
		<tag k="name" v="Kjulsvika" />
		<tag k="place" v="locality" />
		<tag k="ssr:stedsnr" v="722536" />
	</node>
	<node lat="65.67290277419414" lon="12.100372219921297" id="-10231">
		<tag k="name" v="Bø" />
		<tag k="place" v="isolated_dwelling" />
		<tag k="ssr:stedsnr" v="734675" />
	</node>
	<node lat="65.64477608921403" lon="12.16333965753272" id="-10232">
		<tag k="alt_name" v="Mjøgråven" />
		<tag k="fixme" v="consider place=hamlet" />
		<tag k="name" v="Mjøgrova" />
		<tag k="place" v="farm" />
		<tag k="ssr:stedsnr" v="743318" />
	</node>
	<node lat="65.63851111238468" lon="12.178219443517705" id="-10238">
		<tag k="name" v="Strand" />
		<tag k="place" v="farm" />
		<tag k="ssr:stedsnr" v="743357" />
	</node>
	<node lat="65.68905555858916" lon="11.86913887914721" id="-10240">
		<tag k="name" v="Dalsbakken" />
		<tag k="place" v="farm" />
		<tag k="ssr:stedsnr" v="743461" />
	</node>
	<node lat="65.68320277612635" lon="12.10802499534863" id="-10262">
		<tag k="name" v="Igerøydalen" />
		<tag k="place" v="farm" />
		<tag k="ssr:stedsnr" v="744441" />
	</node>
	<node lat="65.61321944010683" lon="11.845761118254755" id="-10276">
		<tag k="name" v="Moen" />
		<tag k="place" v="farm" />
		<tag k="ssr:stedsnr" v="759040" />
	</node>
	<node lat="65.60611110834616" lon="11.942830551029445" id="-10284">
		<tag k="name" v="Aune" />
		<tag k="place" v="locality" />
		<tag k="ssr:stedsnr" v="782160" />
	</node>
	<node lat="65.67533056014705" lon="12.114602769911063" id="-10292">
		<tag k="name" v="Innerhauan" />
		<tag k="place" v="farm" />
		<tag k="ssr:stedsnr" v="783296" />
	</node>
	<node lat="65.60556666450866" lon="12.139677787537495" id="-10307">
		<tag k="name" v="Strandvika" />
		<tag k="place" v="farm" />
		<tag k="ssr:stedsnr" v="804161" />
	</node>
	<node lat="65.66328333122554" lon="11.980452768135102" id="-10311">
		<tag k="name" v="Andvågen" />
		<tag k="place" v="farm" />
		<tag k="ssr:stedsnr" v="804290" />
	</node>
	<node lat="65.66035833040178" lon="11.976027779769993" id="-10312">
		<tag k="alt_name" v="Foråsskaret" />
		<tag k="name" v="Foråsskardet" />
		<tag k="place" v="farm" />
		<tag k="ssr:stedsnr" v="804292" />
	</node>
	<node lat="65.63115833475086" lon="11.982158329381386" id="-10321">
		<tag k="name" v="Nordkjul" />
		<tag k="place" v="farm" />
		<tag k="ssr:stedsnr" v="804338" />
	</node>
	<node lat="65.67481570001682" lon="12.04673665444041" id="-10327">
		<tag k="fixme" v="consider place=hamlet" />
		<tag k="name" v="Grimsøya" />
		<tag k="place" v="farm" />
		<tag k="ssr:stedsnr" v="804499" />
	</node>
	<node lat="65.61360000220978" lon="11.885261101246652" id="-10351">
		<tag k="name" v="Brekka" />
		<tag k="place" v="farm" />
		<tag k="ssr:stedsnr" v="805357" />
	</node>
	<node lat="65.65098055634358" lon="11.950747226514746" id="-10398">
		<tag k="alt_name" v="Sjåmyra" />
		<tag k="name" v="Skjåmyra" />
=======
	<node id="-129348" lat="65.6505081971" lon="11.9078564845">
		<tag k="fixme" v="consider place=hamlet" />
		<tag k="name" v="Marka" />
		<tag k="place" v="farm" />
		<tag k="ssr:stedsnr" v="865349" />
	</node>
	<node id="-127811" lat="65.7553861153" lon="11.7154805618">
		<tag k="name" v="Sørgarden" />
		<tag k="place" v="farm" />
		<tag k="ssr:stedsnr" v="683940" />
	</node>
	<node id="-129346" lat="65.6509805563" lon="11.9507472265">
		<tag k="alt_name" v="Sjåmyra" />
		<tag k="name" v="Skjåmyra" />
		<tag k="place" v="farm" />
		<tag k="ssr:stedsnr" v="865343" />
	</node>
	<node id="-128316" lat="65.7015694445" lon="11.9430805542">
		<tag k="alt_name" v="Grindhågjen" />
		<tag k="name" v="Grindhaugen" />
		<tag k="place" v="farm" />
		<tag k="ssr:stedsnr" v="76478" />
	</node>
	<node id="-128308" lat="65.6006333351" lon="12.1447833435">
		<tag k="name" v="Salvika" />
		<tag k="place" v="farm" />
		<tag k="ssr:stedsnr" v="76158" />
	</node>
	<node id="-127282" lat="65.6899833344" lon="11.8689444542">
		<tag k="name" v="Valla" />
		<tag k="place" v="farm" />
		<tag k="ssr:stedsnr" v="258445" />
	</node>
	<node id="-128305" lat="65.6714055579" lon="12.0955888906">
		<tag k="name" v="Staulberget" />
		<tag k="place" v="farm" />
		<tag k="ssr:stedsnr" v="67662" />
	</node>
	<node id="-128303" lat="65.578805559" lon="11.695755559">
		<tag k="fixme" v="consider place=hamlet" />
		<tag k="name" v="Muddværet" />
		<tag k="place" v="farm" />
		<tag k="ssr:stedsnr" v="60672" />
	</node>
	<node id="-127788" lat="65.6358527754" lon="12.1596277684">
		<tag k="name" v="Tofta" />
		<tag k="place" v="farm" />
		<tag k="ssr:stedsnr" v="683301" />
	</node>
	<node id="-127786" lat="65.6250972218" lon="11.9698138895">
		<tag k="name" v="Sørkjul" />
		<tag k="place" v="farm" />
		<tag k="ssr:stedsnr" v="683290" />
	</node>
	<node id="-128809" lat="65.6843916687" lon="11.9641583298">
		<tag k="name" v="Forsbakken" />
		<tag k="place" v="farm" />
		<tag k="ssr:stedsnr" v="379459" />
	</node>
	<node id="-128296" lat="65.7023833293" lon="11.9098361111">
		<tag k="name" v="Lillestaulen" />
		<tag k="place" v="isolated_dwelling" />
		<tag k="ssr:stedsnr" v="55808" />
	</node>
	<node id="-128295" lat="65.7015055548" lon="11.9236194336">
		<tag k="amenity" v="school" />
		<tag k="name" v="Holand skole" />
		<tag k="ssr:stedsnr" v="55806" />
	</node>
	<node id="-128806" lat="65.677649151" lon="11.8110125656">
		<tag k="fixme" v="consider place=hamlet" />
		<tag k="name" v="Sundsvoll" />
		<tag k="place" v="farm" />
		<tag k="ssr:stedsnr" v="379444" />
	</node>
	<node id="-127781" lat="65.6722942546" lon="12.0973647968">
		<tag k="fixme" v="consider place=hamlet" />
		<tag k="name" v="Bø" />
		<tag k="place" v="farm" />
		<tag k="ssr:stedsnr" v="683247" />
	</node>
	<node id="-128800" lat="65.7010694429" lon="12.033350008">
		<tag k="name" v="Gåshaugen" />
		<tag k="place" v="farm" />
		<tag k="ssr:stedsnr" v="379401" />
	</node>
	<node id="-127262" lat="65.6343888918" lon="12.1704749957">
		<tag k="name" v="Kleiva" />
		<tag k="place" v="farm" />
		<tag k="ssr:stedsnr" v="258334" />
	</node>
	<node id="-127259" lat="65.6759722224" lon="11.9479444354">
		<tag k="name" v="Høgåsen" />
		<tag k="place" v="quarter" />
		<tag k="ssr:stedsnr" v="252760" />
	</node>
	<node id="-127279" lat="65.6922444485" lon="11.8414416571">
		<tag k="fixme" v="consider place=hamlet" />
		<tag k="name" v="Brandsvika" />
		<tag k="place" v="farm" />
		<tag k="ssr:stedsnr" v="258436" />
	</node>
	<node id="-128786" lat="65.6331999986" lon="12.1598250013">
		<tag k="name" v="Harmmyra" />
		<tag k="place" v="farm" />
		<tag k="ssr:stedsnr" v="379317" />
	</node>
	<node id="-128785" lat="65.6367999969" lon="12.1663305569">
		<tag k="name" v="Bakken" />
		<tag k="place" v="farm" />
		<tag k="ssr:stedsnr" v="379316" />
	</node>
	<node id="-128783" lat="65.6442401999" lon="11.7852445634">
		<tag k="fixme" v="consider place=hamlet" />
		<tag k="name" v="Vegdalen" />
		<tag k="place" v="farm" />
		<tag k="ssr:stedsnr" v="379289" />
	</node>
	<node id="-129294" lat="65.6975222248" lon="11.9862555465">
		<tag k="name" v="Sveahaugen" />
		<tag k="place" v="farm" />
		<tag k="ssr:stedsnr" v="810723" />
	</node>
	<node id="-128779" lat="65.6632333288" lon="11.9840166712">
		<tag k="name" v="Lyngen" />
		<tag k="place" v="farm" />
		<tag k="ssr:stedsnr" v="379254" />
	</node>
	<node id="-128264" lat="65.6858786776" lon="12.1212277319">
		<tag k="fixme" v="consider place=hamlet" />
		<tag k="name" v="Igerøya" />
		<tag k="place" v="farm" />
		<tag k="ssr:stedsnr" v="27654" />
	</node>
	<node id="-129285" lat="65.6136000022" lon="11.8852611012">
		<tag k="name" v="Brekka" />
		<tag k="place" v="farm" />
		<tag k="ssr:stedsnr" v="805357" />
	</node>
	<node id="-128258" lat="65.617563892" lon="11.90321944">
		<tag k="name" v="Vikasjøen" />
		<tag k="place" v="farm" />
		<tag k="ssr:stedsnr" v="25587" />
	</node>
	<node id="-127231" lat="65.6480055546" lon="11.9934583285">
		<tag k="name" v="Myrstad" />
		<tag k="place" v="isolated_dwelling" />
		<tag k="ssr:stedsnr" v="237531" />
	</node>
	<node id="-127741" lat="65.6758944462" lon="12.0903749985">
		<tag k="name" v="Bødalen" />
		<tag k="place" v="farm" />
		<tag k="ssr:stedsnr" v="501456" />
	</node>
	<node id="-128249" lat="65.6215138893" lon="11.9624138966">
		<tag k="name" v="Skjelvika" />
		<tag k="place" v="farm" />
		<tag k="ssr:stedsnr" v="16281" />
	</node>
	<node id="-128759" lat="65.694730557" lon="11.9861277713">
		<tag k="name" v="Risnes" />
		<tag k="place" v="farm" />
		<tag k="ssr:stedsnr" v="358730" />
	</node>
	<node id="-127222" lat="65.6283777778" lon="11.9735666707">
		<tag k="name" v="Burshaugen" />
		<tag k="place" v="isolated_dwelling" />
		<tag k="ssr:stedsnr" v="54418" />
	</node>
	<node id="-128244" lat="65.6696138888" lon="12.0934055451">
		<tag k="name" v="Jektvika" />
		<tag k="place" v="farm" />
		<tag k="ssr:stedsnr" v="16230" />
	</node>
	<node id="-127784" lat="65.6493033345" lon="11.9014112218">
		<tag k="name" v="Eines" />
		<tag k="place" v="locality" />
		<tag k="ssr:stedsnr" v="683277" />
	</node>
	<node id="-127869" lat="65.665152775" lon="11.9250472257">
		<tag k="name" v="Kalvås" />
		<tag k="place" v="farm" />
		<tag k="ssr:stedsnr" v="615755" />
	</node>
	<node id="-127724" lat="65.6723305601" lon="12.0846944414">
		<tag k="name" v="Langvika" />
		<tag k="place" v="locality" />
		<tag k="ssr:stedsnr" v="674645" />
	</node>
	<node id="-129258" lat="65.6748157" lon="12.0467366544">
		<tag k="fixme" v="consider place=hamlet" />
		<tag k="name" v="Grimsøya" />
		<tag k="place" v="farm" />
		<tag k="ssr:stedsnr" v="804499" />
	</node>
	<node id="-128744" lat="65.682422218" lon="11.8575388907">
		<tag k="name" v="Hundtua" />
		<tag k="place" v="farm" />
		<tag k="ssr:stedsnr" v="357770" />
	</node>
	<node id="-129255" lat="65.6957555514" lon="11.8659138788">
		<tag k="name" v="Kråkåsmyra" />
		<tag k="place" v="farm" />
		<tag k="ssr:stedsnr" v="804479" />
	</node>
	<node id="-128294" lat="65.6849194434" lon="11.9513666708">
		<tag k="name" v="Tronåsen" />
		<tag k="place" v="farm" />
		<tag k="ssr:stedsnr" v="55790" />
	</node>
	<node id="-128735" lat="65.603966664" lon="11.9061694381">
		<tag k="name" v="Stråkvika" />
		<tag k="place" v="locality" />
		<tag k="ssr:stedsnr" v="357169" />
	</node>
	<node id="-127710" lat="65.6922833354" lon="11.8759138859">
		<tag k="name" v="Staulan" />
		<tag k="place" v="isolated_dwelling" />
		<tag k="ssr:stedsnr" v="661776" />
	</node>
	<node id="-127269" lat="65.6149638906" lon="11.8506638849">
		<tag k="name" v="Solrud" />
		<tag k="place" v="farm" />
		<tag k="ssr:stedsnr" v="258381" />
	</node>
	<node id="-127706" lat="65.690902778" lon="11.8630138879">
		<tag k="amenity" v="school" />
		<tag k="name" v="Valla skole" />
		<tag k="ssr:stedsnr" v="661763" />
	</node>
	<node id="-127705" lat="65.6851138884" lon="11.8536333247">
		<tag k="name" v="Grøte" />
		<tag k="place" v="locality" />
		<tag k="ssr:stedsnr" v="661762" />
	</node>
	<node id="-128213" lat="65.6402444481" lon="11.9971611015">
		<tag k="name" v="Kjulsvika" />
		<tag k="place" v="farm" />
		<tag k="ssr:stedsnr" v="15316" />
	</node>
	<node id="-129236" lat="65.6311583348" lon="11.9821583294">
		<tag k="name" v="Nordkjul" />
		<tag k="place" v="farm" />
		<tag k="ssr:stedsnr" v="804338" />
	</node>
	<node id="-127698" lat="65.6882222232" lon="12.1200361091">
		<tag k="name" v="Grindhaug" />
		<tag k="place" v="farm" />
		<tag k="ssr:stedsnr" v="661367" />
	</node>
	<node id="-127696" lat="65.6810083339" lon="11.8172333419">
		<tag k="name" v="Åsgarden" />
		<tag k="place" v="locality" />
		<tag k="ssr:stedsnr" v="661195" />
	</node>
	<node id="-129229" lat="65.6603583304" lon="11.9760277798">
		<tag k="alt_name" v="Foråsskaret" />
		<tag k="name" v="Foråsskardet" />
		<tag k="place" v="farm" />
		<tag k="ssr:stedsnr" v="804292" />
	</node>
	<node id="-129228" lat="65.6632833312" lon="11.9804527681">
		<tag k="name" v="Andvågen" />
		<tag k="place" v="farm" />
		<tag k="ssr:stedsnr" v="804290" />
	</node>
	<node id="-127690" lat="65.6534765211" lon="11.9954675699">
		<tag k="alt_name" v="Finnes" />
		<tag k="fixme" v="consider place=hamlet" />
		<tag k="name" v="Finneset" />
		<tag k="place" v="farm" />
		<tag k="ssr:stedsnr" v="450615" />
	</node>
	<node id="-127863" lat="65.7051015468" lon="11.9175496922">
		<tag k="fixme" v="consider place=hamlet" />
		<tag k="name" v="Holand" />
		<tag k="place" v="farm" />
		<tag k="ssr:stedsnr" v="600824" />
	</node>
	<node id="-128199" lat="65.6308166634" lon="11.9790722292">
		<tag k="name" v="Pebakken" />
		<tag k="place" v="locality" />
		<tag k="ssr:stedsnr" v="965524" />
	</node>
	<node id="-127281" lat="65.6876527751" lon="11.9161305549">
		<tag k="alt_name" v="Bakkejord" />
		<tag k="name" v="Bakkejordet" />
		<tag k="place" v="farm" />
		<tag k="ssr:stedsnr" v="258443" />
	</node>
	<node id="-128195" lat="65.6911750012" lon="11.867330548">
		<tag k="name" v="Vallhaugen" />
		<tag k="place" v="farm" />
		<tag k="ssr:stedsnr" v="964778" />
	</node>
	<node id="-128194" lat="65.6929345225" lon="11.8718385552">
		<tag k="fixme" v="consider place=hamlet" />
		<tag k="name" v="Valla" />
		<tag k="place" v="farm" />
		<tag k="ssr:stedsnr" v="964772" />
	</node>
	<node id="-128288" lat="65.6401472243" lon="11.9957416754">
		<tag k="name" v="Breivika" />
		<tag k="place" v="isolated_dwelling" />
		<tag k="ssr:stedsnr" v="55486" />
	</node>
	<node id="-128189" lat="65.6867111088" lon="11.8514805559">
		<tag k="fixme" v="consider place=hamlet" />
		<tag k="name" v="Vegmoen" />
		<tag k="place" v="farm" />
		<tag k="ssr:stedsnr" v="964760" />
	</node>
	<node id="-127357" lat="65.6872194477" lon="12.1176333337">
		<tag k="name" v="Grindhaugen" />
		<tag k="place" v="farm" />
		<tag k="ssr:stedsnr" v="197543" />
	</node>
	<node id="-129209" lat="65.7121277802" lon="11.9109388829">
		<tag k="name" v="Gardsøya Industriområde" />
		<tag k="place" v="quarter" />
		<tag k="ssr:stedsnr" v="783907" />
	</node>
	<node id="-127498" lat="65.693300002" lon="11.9262083333">
		<tag k="name" v="Risbakken" />
		<tag k="place" v="farm" />
		<tag k="ssr:stedsnr" v="258457" />
	</node>
	<node id="-129197" lat="65.6753305601" lon="12.1146027699">
		<tag k="name" v="Innerhauan" />
		<tag k="place" v="farm" />
		<tag k="ssr:stedsnr" v="783296" />
	</node>
	<node id="-127659" lat="65.5794194453" lon="11.6950694348">
		<tag k="name" v="Haugen" />
		<tag k="place" v="farm" />
		<tag k="ssr:stedsnr" v="406053" />
	</node>
	<node id="-128682" lat="65.6828966001" lon="11.861192871">
		<tag k="fixme" v="consider place=hamlet" />
		<tag k="name" v="Gullsvåg" />
		<tag k="place" v="farm" />
		<tag k="ssr:stedsnr" v="319461" />
	</node>
	<node id="-128681" lat="65.6810888922" lon="11.8625777883">
		<tag k="alt_name" v="Gulsvåghaugen" />
		<tag k="name" v="Gullsvåghaugen" />
		<tag k="place" v="farm" />
		<tag k="ssr:stedsnr" v="319459" />
	</node>
	<node id="-129191" lat="65.7063861121" lon="11.8844361006">
		<tag k="name" v="Sør-Nautøy" />
		<tag k="place" v="locality" />
		<tag k="ssr:stedsnr" v="782714" />
	</node>
	<node id="-128166" lat="65.6365750007" lon="12.1642305653">
		<tag k="name" v="Gården" />
		<tag k="place" v="isolated_dwelling" />
		<tag k="ssr:stedsnr" v="906273" />
	</node>
	<node id="-127499" lat="65.7016250034" lon="11.9166888918">
		<tag k="name" v="Kjerrhaugen" />
		<tag k="place" v="farm" />
		<tag k="ssr:stedsnr" v="258459" />
	</node>
	<node id="-128164" lat="65.70334167" lon="12.0254333315">
		<tag k="name" v="Gåshaugen" />
		<tag k="place" v="isolated_dwelling" />
		<tag k="ssr:stedsnr" v="904711" />
	</node>
	<node id="-128673" lat="65.6361891651" lon="12.1719760168">
		<tag k="fixme" v="consider place=hamlet" />
		<tag k="name" v="Ylvingen" />
		<tag k="place" v="farm" />
		<tag k="ssr:stedsnr" v="319305" />
	</node>
	<node id="-129184" lat="65.6061111083" lon="11.942830551">
		<tag k="name" v="Aune" />
		<tag k="place" v="locality" />
		<tag k="ssr:stedsnr" v="782160" />
	</node>
	<node id="-128671" lat="65.6663583365" lon="11.97271666">
		<tag k="name" v="Strupen" />
		<tag k="place" v="farm" />
		<tag k="ssr:stedsnr" v="319266" />
	</node>
	<node id="-128157" lat="65.6543277772" lon="11.9169833383">
		<tag k="name" v="Nymo" />
		<tag k="place" v="farm" />
		<tag k="ssr:stedsnr" v="904016" />
	</node>
	<node id="-129174" lat="65.6132194401" lon="11.8457611183">
		<tag k="name" v="Moen" />
		<tag k="place" v="farm" />
		<tag k="ssr:stedsnr" v="759040" />
	</node>
	<node id="-128643" lat="65.6986825065" lon="11.8778416051">
		<tag k="fixme" v="consider place=hamlet" />
		<tag k="name" v="Viksåsen" />
		<tag k="place" v="farm" />
		<tag k="ssr:stedsnr" v="318470" />
	</node>
	<node id="-128642" lat="65.6906979117" lon="11.9470916438">
		<tag k="fixme" v="consider place=hamlet" />
		<tag k="name" v="Olderåsen" />
		<tag k="place" v="farm" />
		<tag k="ssr:stedsnr" v="318462" />
	</node>
	<node id="-128122" lat="65.6055666645" lon="12.1396777875">
		<tag k="name" v="Strandvika" />
		<tag k="place" v="farm" />
		<tag k="ssr:stedsnr" v="804161" />
	</node>
	<node id="-128633" lat="65.6112000002" lon="11.8795916676">
		<tag k="name" v="Innerbrekka" />
		<tag k="place" v="farm" />
		<tag k="ssr:stedsnr" v="318348" />
	</node>
	<node id="-127607" lat="65.6569527783" lon="11.9952305603">
		<tag k="name" v="Stortrøet" />
		<tag k="place" v="farm" />
		<tag k="ssr:stedsnr" v="500293" />
	</node>
	<node id="-128629" lat="65.6635999981" lon="11.9454000098">
		<tag k="name" v="Prestenget" />
		<tag k="place" v="farm" />
		<tag k="ssr:stedsnr" v="318256" />
	</node>
	<node id="-127223" lat="65.6787333307" lon="12.1249194526">
		<tag k="name" v="Naustvik" />
		<tag k="place" v="isolated_dwelling" />
		<tag k="ssr:stedsnr" v="54356" />
	</node>
	<node id="-127592" lat="65.6535000771" lon="11.9931358501">
		<tag k="name" v="Smihaugen" />
		<tag k="place" v="farm" />
		<tag k="ssr:stedsnr" v="358520" />
	</node>
	<node id="-127596" lat="65.7041638867" lon="11.9358777788">
		<tag k="name" v="Nergarden" />
		<tag k="place" v="farm" />
		<tag k="ssr:stedsnr" v="358815" />
	</node>
	<node id="-129128" lat="65.6600250012" lon="11.8952888839">
		<tag k="name" v="Steinåsen" />
		<tag k="place" v="farm" />
		<tag k="ssr:stedsnr" v="743291" />
	</node>
	<node id="-129127" lat="65.660077753" lon="11.908695534">
		<tag k="fixme" v="consider place=hamlet" />
		<tag k="name" v="Åsen" />
		<tag k="place" v="farm" />
		<tag k="ssr:stedsnr" v="743290" />
	</node>
	<node id="-128102" lat="65.6902388913" lon="12.1209277758">
		<tag k="name" v="Solvang" />
		<tag k="place" v="farm" />
		<tag k="ssr:stedsnr" v="926480" />
	</node>
	<node id="-128100" lat="65.6812194429" lon="11.852511113">
		<tag k="name" v="Trøan" />
		<tag k="place" v="farm" />
		<tag k="ssr:stedsnr" v="926450" />
	</node>
	<node id="-128099" lat="65.7011305534" lon="12.0066583421">
		<tag k="name" v="Geithaugen" />
		<tag k="place" v="farm" />
		<tag k="ssr:stedsnr" v="926441" />
	</node>
	<node id="-128098" lat="65.6930805535" lon="11.921188888">
		<tag k="name" v="Stråmyra" />
		<tag k="place" v="farm" />
		<tag k="ssr:stedsnr" v="926440" />
	</node>
	<node id="-128097" lat="65.6875805588" lon="11.9629666649">
		<tag k="name" v="Aspåsen" />
		<tag k="place" v="farm" />
		<tag k="ssr:stedsnr" v="926427" />
	</node>
	<node id="-128090" lat="65.6176583306" lon="11.8992694374">
		<tag k="alt_name" v="Vika, s" />
		<tag k="name" v="Søre Vika" />
		<tag k="place" v="farm" />
		<tag k="ssr:stedsnr" v="926354" />
	</node>
	<node id="-127574" lat="65.6421777748" lon="12.1699333392">
		<tag k="name" v="Skutnes" />
		<tag k="place" v="locality" />
		<tag k="ssr:stedsnr" v="481279" />
	</node>
	<node id="-127929" lat="65.7063777794" lon="11.9356805465">
		<tag k="name" v="Haugsjø" />
		<tag k="place" v="isolated_dwelling" />
		<tag k="ssr:stedsnr" v="661910" />
	</node>
	<node id="-128084" lat="65.6466527817" lon="11.9909611123">
		<tag k="name" v="Finnsken" />
		<tag k="place" v="farm" />
		<tag k="ssr:stedsnr" v="926289" />
	</node>
	<node id="-128083" lat="65.671872225" lon="12.0883249976">
		<tag k="name" v="Vikran" />
		<tag k="place" v="farm" />
		<tag k="ssr:stedsnr" v="926268" />
	</node>
	<node id="-128592" lat="65.6829416636" lon="12.1257027676">
		<tag k="name" v="Igerøy" />
		<tag k="place" v="farm" />
		<tag k="ssr:stedsnr" v="198471" />
	</node>
	<node id="-128591" lat="65.6677250044" lon="11.9201388978">
		<tag k="name" v="Kalvåsen" />
		<tag k="place" v="farm" />
		<tag k="ssr:stedsnr" v="198239" />
	</node>
	<node id="-128076" lat="65.6000361088" lon="12.1315361115">
		<tag k="name" v="Brenta" />
		<tag k="place" v="farm" />
		<tag k="ssr:stedsnr" v="926132" />
	</node>
	<node id="-127562" lat="65.6857277737" lon="12.1159638943">
		<tag k="name" v="Grindhågbakkan" />
		<tag k="place" v="isolated_dwelling" />
		<tag k="ssr:stedsnr" v="479385" />
	</node>
	<node id="-127715" lat="65.6832027761" lon="12.1080249953">
		<tag k="name" v="Igerøydalen" />
>>>>>>> e1d4bc35ff8a6074a6f2e91616a996b547c36f15
		<tag k="place" v="farm" />
		<tag k="ssr:stedsnr" v="744441" />
	</node>
<<<<<<< HEAD
	<node lat="65.65050819710358" lon="11.907856484461169" id="-10400">
		<tag k="fixme" v="consider place=hamlet" />
		<tag k="name" v="Marka" />
		<tag k="place" v="farm" />
		<tag k="ssr:stedsnr" v="865349" />
	</node>
	<node lat="65.67933889097857" lon="12.126138878921871" id="-10404">
		<tag k="name" v="Nausthaugen" />
		<tag k="place" v="farm" />
		<tag k="ssr:stedsnr" v="865504" />
	</node>
	<node lat="65.68844444536222" lon="12.128369434856026" id="-10440">
		<tag k="name" v="Leirvikmarka" />
		<tag k="place" v="farm" />
		<tag k="ssr:stedsnr" v="865513" />
	</node>
	<node lat="65.6867111088206" lon="11.851480555921196" id="-10486">
		<tag k="fixme" v="consider place=hamlet" />
		<tag k="name" v="Vegmoen" />
		<tag k="place" v="farm" />
		<tag k="ssr:stedsnr" v="964760" />
	</node>
	<node lat="65.69293452254799" lon="11.871838555247194" id="-10491">
		<tag k="fixme" v="consider place=hamlet" />
		<tag k="name" v="Valla" />
		<tag k="place" v="farm" />
		<tag k="ssr:stedsnr" v="964772" />
	</node>
	<node lat="65.69117500122226" lon="11.86733054800274" id="-10492">
		<tag k="name" v="Vallhaugen" />
		<tag k="place" v="farm" />
		<tag k="ssr:stedsnr" v="964778" />
	</node>
	<node lat="65.63081666336754" lon="11.979072229202364" id="-10496">
		<tag k="name" v="Pebakken" />
		<tag k="place" v="locality" />
		<tag k="ssr:stedsnr" v="965524" />
	</node>
	<node lat="65.64358332940613" lon="11.786516673954099" id="-10504">
		<tag k="name" v="Vollan" />
		<tag k="place" v="isolated_dwelling" />
		<tag k="ssr:stedsnr" v="967158" />
	</node>
	<node lat="65.69060834672915" lon="11.837471766292554" id="-10505">
		<tag k="fixme" v="consider place=hamlet" />
		<tag k="name" v="Kjelkdalen" />
		<tag k="place" v="farm" />
		<tag k="ssr:stedsnr" v="989758" />
	</node>
	<node lat="65.7103095789922" lon="11.961532110416243" id="-10506">
		<tag k="name" v="Lamøya" />
		<tag k="place" v="locality" />
		<tag k="ssr:stedsnr" v="989768" />
	</node>
	<node lat="65.62910181600986" lon="11.977720110722476" id="-10509">
		<tag k="fixme" v="consider place=hamlet" />
		<tag k="name" v="Kjul" />
		<tag k="place" v="farm" />
		<tag k="ssr:stedsnr" v="989734" />
	</node>
	<node lat="65.61964046932877" lon="11.90060630736556" id="-10510">
		<tag k="fixme" v="consider place=hamlet" />
		<tag k="name" v="Vika" />
		<tag k="place" v="farm" />
		<tag k="ssr:stedsnr" v="989737" />
	</node>
	<node lat="65.61600533662931" lon="11.62183021166934" id="-10511">
		<tag k="fixme" v="consider place=hamlet" />
		<tag k="name" v="Halmøya" />
		<tag k="place" v="farm" />
		<tag k="ssr:stedsnr" v="989738" />
	</node>
	<node lat="65.61997838415736" lon="11.389351597758786" id="-10512">
		<tag k="name" v="Bremsteinen" />
		<tag k="place" v="locality" />
		<tag k="ssr:stedsnr" v="989740" />
	</node>
	<node lat="65.61933824492027" lon="11.758613407168632" id="-10513">
		<tag k="name" v="Nepsundet" />
		<tag k="place" v="locality" />
		<tag k="ssr:stedsnr" v="989742" />
=======
	<node id="-128159" lat="65.6351666655" lon="11.9877472263">
		<tag k="name" v="Trangkleiva" />
		<tag k="place" v="locality" />
		<tag k="ssr:stedsnr" v="904504" />
	</node>
	<node id="-129034" lat="65.7058055533" lon="11.9327000015">
		<tag k="fixme" v="consider place=hamlet" />
		<tag k="name" v="Nes" />
		<tag k="place" v="farm" />
		<tag k="ssr:stedsnr" v="621450" />
	</node>
	<node id="-127546" lat="65.7087249958" lon="11.912041669">
		<tag k="name" v="Grønbakk" />
		<tag k="place" v="isolated_dwelling" />
		<tag k="ssr:stedsnr" v="299902" />
	</node>
	<node id="-127541" lat="65.5748638864" lon="11.690897223">
		<tag k="name" v="Muddvær" />
		<tag k="place" v="farm" />
		<tag k="ssr:stedsnr" v="465044" />
	</node>
	<node id="-128049" lat="65.6699666706" lon="11.9246333306">
		<tag k="name" v="Limåsen" />
		<tag k="place" v="isolated_dwelling" />
		<tag k="ssr:stedsnr" v="919749" />
	</node>
	<node id="-128048" lat="65.683783331" lon="11.9570138954">
		<tag k="name" v="Dammyra" />
		<tag k="place" v="isolated_dwelling" />
		<tag k="ssr:stedsnr" v="919738" />
	</node>
	<node id="-127752" lat="65.6573582256" lon="12.0111422971">
		<tag k="fixme" v="consider place=hamlet" />
		<tag k="name" v="Rørøy" />
		<tag k="place" v="farm" />
		<tag k="ssr:stedsnr" v="682282" />
	</node>
	<node id="-128558" lat="65.6576000043" lon="11.8928861007">
		<tag k="name" v="Asphaugen" />
		<tag k="place" v="farm" />
		<tag k="ssr:stedsnr" v="197343" />
	</node>
	<node id="-128556" lat="65.6429620358" lon="11.8462169721">
		<tag k="alt_name" v="Skjeggemoen" />
		<tag k="name" v="Moen" />
		<tag k="place" v="locality" />
		<tag k="ssr:stedsnr" v="197329" />
	</node>
	<node id="-128555" lat="65.6401254312" lon="11.9449746908">
		<tag k="fixme" v="consider place=hamlet" />
		<tag k="name" v="Floa" />
		<tag k="place" v="farm" />
		<tag k="ssr:stedsnr" v="197323" />
	</node>
	<node id="-129060" lat="65.658513885" lon="11.8712749958">
		<tag k="name" v="Breidablikk" />
		<tag k="place" v="farm" />
		<tag k="ssr:stedsnr" v="622306" />
	</node>
	<node id="-128006" lat="65.6447760892" lon="12.1633396575">
		<tag k="alt_name" v="Mjøgråven" />
		<tag k="fixme" v="consider place=hamlet" />
		<tag k="name" v="Mjøgrova" />
		<tag k="place" v="farm" />
		<tag k="ssr:stedsnr" v="743318" />
	</node>
	<node id="-128031" lat="65.6187666629" lon="11.8966944344">
		<tag k="alt_name" v="Myren" />
		<tag k="name" v="Myra" />
		<tag k="place" v="farm" />
		<tag k="ssr:stedsnr" v="744313" />
	</node>
	<node id="-128030" lat="65.622697226" lon="11.9035999988">
		<tag k="alt_name" v="Vika, nordre" />
		<tag k="name" v="Nordre Vika" />
		<tag k="place" v="farm" />
		<tag k="ssr:stedsnr" v="744312" />
	</node>
	<node id="-128538" lat="65.6190416685" lon="12.1287416744">
		<tag k="name" v="Rotviken" />
		<tag k="place" v="locality" />
		<tag k="ssr:stedsnr" v="178675" />
	</node>
	<node id="-128533" lat="65.6866722211" lon="11.970083341">
		<tag k="name" v="Nordgården" />
		<tag k="place" v="locality" />
		<tag k="ssr:stedsnr" v="176742" />
	</node>
	<node id="-128014" lat="65.6890555586" lon="11.8691388791">
		<tag k="name" v="Dalsbakken" />
		<tag k="place" v="farm" />
		<tag k="ssr:stedsnr" v="743461" />
	</node>
	<node id="-127500" lat="65.6768277814" lon="11.9621749898">
		<tag k="name" v="Gladstad" />
		<tag k="place" v="village" />
		<tag k="ssr:stedsnr" v="258467" />
	</node>
	<node id="-129035" lat="65.7019056232" lon="12.0023701516">
		<tag k="fixme" v="consider place=hamlet" />
		<tag k="name" v="Hongset" />
		<tag k="place" v="farm" />
		<tag k="ssr:stedsnr" v="621453" />
	</node>
	<node id="-128805" lat="65.6946361113" lon="11.9399194456">
		<tag k="alt_name" v="Kolskog" />
		<tag k="name" v="Kolskogen" />
		<tag k="place" v="farm" />
		<tag k="ssr:stedsnr" v="379441" />
>>>>>>> e1d4bc35ff8a6074a6f2e91616a996b547c36f15
	</node>
	<node id="-127497" lat="65.701020876" lon="11.9367356629">
		<tag k="fixme" v="consider place=hamlet" />
		<tag k="name" v="Åkerbakken" />
		<tag k="place" v="farm" />
		<tag k="ssr:stedsnr" v="258455" />
	</node>
	<node id="-128007" lat="65.6385111124" lon="12.1782194435">
		<tag k="name" v="Strand" />
		<tag k="place" v="farm" />
		<tag k="ssr:stedsnr" v="743357" />
	</node>
	<node id="-127502" lat="65.6838376403" lon="12.0111029012">
		<tag k="name" v="Vegsteinen" />
		<tag k="place" v="hamlet" />
		<tag k="ssr:stedsnr" v="258470" />
	</node>
</osm>
