<?xml version="1.0" encoding="UTF-8"?>
<<<<<<< HEAD
<osm version="0.6" generator="osmapis">
	<node lat="65.6864750006316" lon="12.089536112823337" id="-8290">
		<tag k="name" v="Aråsklubben" />
=======
<osm generator="osmapis" version="0.6">
	<node id="-127742" lat="65.6847638899" lon="12.1001694479">
		<tag k="name" v="Staulmyra" />
		<tag k="natural" v="wetland" />
		<tag k="ssr:stedsnr" v="501471" />
	</node>
	<node id="-129192" lat="65.6877861105" lon="11.8374305531">
		<tag k="name" v="Våtmyra" />
		<tag k="place" v="locality" />
		<tag k="ssr:stedsnr" v="782745" />
	</node>
	<node id="-127466" lat="65.6513555555" lon="11.8701916603">
		<tag k="name" v="Heststokkheia" />
		<tag k="place" v="locality" />
		<tag k="ssr:stedsnr" v="236031" />
	</node>
	<node id="-127975" lat="65.6708972196" lon="11.9869611212">
		<tag k="name" v="Grønsvikja" />
		<tag k="place" v="locality" />
		<tag k="ssr:stedsnr" v="722399" />
	</node>
	<node id="-127974" lat="65.687949999" lon="12.1057722279">
		<tag k="name" v="Staulmyra" />
		<tag k="natural" v="wetland" />
		<tag k="ssr:stedsnr" v="722396" />
	</node>
	<node id="-127973" lat="65.6883222212" lon="12.1138722172">
		<tag k="name" v="Porsmyra" />
		<tag k="natural" v="wetland" />
		<tag k="ssr:stedsnr" v="722395" />
	</node>
	<node id="-127971" lat="65.6434861151" lon="11.8901972273">
		<tag k="name" v="Tømmerhalsen" />
		<tag k="place" v="locality" />
		<tag k="ssr:stedsnr" v="722031" />
	</node>
	<node id="-127931" lat="65.6114555516" lon="12.1532527834">
		<tag k="name" v="Sørsøvollan" />
		<tag k="place" v="locality" />
		<tag k="ssr:stedsnr" v="663704" />
	</node>
	<node id="-127928" lat="65.7011527813" lon="11.8858388845">
		<tag k="name" v="Grønnvika" />
		<tag k="place" v="locality" />
		<tag k="ssr:stedsnr" v="661734" />
	</node>
	<node id="-127921" lat="65.6714611123" lon="12.0471305653">
		<tag k="name" v="Nautøyvalen" />
		<tag k="place" v="locality" />
		<tag k="ssr:stedsnr" v="734678" />
	</node>
	<node id="-127406" lat="65.6305166682" lon="11.9425611059">
		<tag k="alt_name" v="Baråsmyra" />
		<tag k="name" v="Buråsmyra" />
		<tag k="natural" v="wetland" />
		<tag k="ssr:stedsnr" v="440360" />
	</node>
	<node id="-128425" lat="65.6095083318" lon="11.8872944395">
		<tag k="name" v="Sjømyra" />
		<tag k="place" v="locality" />
		<tag k="ssr:stedsnr" v="117898" />
	</node>
	<node id="-128422" lat="65.680566665" lon="11.8820249964">
		<tag k="name" v="Vassåsmyra" />
		<tag k="natural" v="wetland" />
		<tag k="ssr:stedsnr" v="115768" />
	</node>
	<node id="-127908" lat="65.697552774" lon="11.9189194408">
		<tag k="name" v="Dalingane" />
		<tag k="place" v="locality" />
		<tag k="ssr:stedsnr" v="722852" />
	</node>
	<node id="-128927" lat="65.6727472199" lon="12.0580777697">
		<tag k="name" v="Sørgjerdet" />
		<tag k="place" v="locality" />
		<tag k="ssr:stedsnr" v="552692" />
	</node>
	<node id="-128413" lat="65.6205583336" lon="11.9553833241">
		<tag k="name" v="Budalen" />
		<tag k="place" v="locality" />
		<tag k="ssr:stedsnr" v="115086" />
	</node>
	<node id="-127900" lat="65.6858388866" lon="12.1019666723">
		<tag k="name" v="Heimerstaulan" />
		<tag k="place" v="locality" />
		<tag k="ssr:stedsnr" v="722653" />
	</node>
	<node id="-129415" lat="65.641386112" lon="11.785638879">
		<tag k="name" v="Aune" />
		<tag k="place" v="locality" />
		<tag k="ssr:stedsnr" v="965200" />
	</node>
	<node id="-128408" lat="65.6763166676" lon="12.1073388875">
		<tag k="name" v="Hestmyra" />
		<tag k="natural" v="wetland" />
		<tag k="ssr:stedsnr" v="115329" />
	</node>
	<node id="-128918" lat="65.6288444408" lon="11.9094472246">
		<tag k="name" v="Krambubakken" />
		<tag k="place" v="locality" />
		<tag k="ssr:stedsnr" v="542071" />
	</node>
	<node id="-127381" lat="65.6990777804" lon="11.9779527886">
		<tag k="name" v="Gråmyra" />
		<tag k="natural" v="wetland" />
		<tag k="ssr:stedsnr" v="297718" />
	</node>
	<node id="-127214" lat="65.641261108" lon="11.7893166558">
		<tag k="name" v="Auneheian" />
		<tag k="place" v="locality" />
		<tag k="ssr:stedsnr" v="237192" />
	</node>
	<node id="-127890" lat="65.6743444428" lon="12.1061388995">
		<tag k="name" v="Kjerringskogan" />
		<tag k="place" v="locality" />
		<tag k="ssr:stedsnr" v="722337" />
	</node>
	<node id="-128913" lat="65.687266667" lon="11.82975556">
		<tag k="name" v="Porsmyr" />
		<tag k="natural" v="wetland" />
		<tag k="ssr:stedsnr" v="540786" />
	</node>
	<node id="-127885" lat="65.615119447" lon="11.8179083437">
		<tag k="name" v="Levikmarka" />
		<tag k="place" v="locality" />
		<tag k="ssr:stedsnr" v="722286" />
	</node>
	<node id="-127370" lat="65.6247027814" lon="11.9027750108">
		<tag k="name" v="Storheia" />
		<tag k="place" v="locality" />
		<tag k="ssr:stedsnr" v="297207" />
	</node>
	<node id="-127879" lat="65.6260555537" lon="11.9233527859">
		<tag k="name" v="Sommarsete" />
		<tag k="place" v="locality" />
		<tag k="ssr:stedsnr" v="722095" />
	</node>
	<node id="-127876" lat="65.6457944419" lon="11.9407472213">
		<tag k="name" v="Floamyra" />
		<tag k="natural" v="wetland" />
		<tag k="ssr:stedsnr" v="722052" />
	</node>
	<node id="-127875" lat="65.691230555" lon="11.9064833296">
		<tag k="name" v="Hestlangen" />
		<tag k="place" v="locality" />
		<tag k="ssr:stedsnr" v="721778" />
	</node>
	<node id="-128898" lat="65.6553666641" lon="11.9176694507">
		<tag k="name" v="Jensparten" />
		<tag k="place" v="locality" />
		<tag k="ssr:stedsnr" v="540026" />
	</node>
	<node id="-127873" lat="65.6548083325" lon="11.877313892">
		<tag k="name" v="Oleartnsaheia" />
		<tag k="place" v="locality" />
		<tag k="ssr:stedsnr" v="722036" />
	</node>
	<node id="-128917" lat="65.6355333343" lon="11.9633611189">
		<tag k="name" v="Floaskaret" />
		<tag k="place" v="locality" />
		<tag k="ssr:stedsnr" v="542069" />
	</node>
	<node id="-128887" lat="65.6725500019" lon="12.0533666723">
		<tag k="name" v="Innerlia" />
		<tag k="place" v="locality" />
		<tag k="ssr:stedsnr" v="431675" />
	</node>
	<node id="-128876" lat="65.6067444455" lon="11.8429416711">
		<tag k="landuse" v="meadow" />
		<tag k="name" v="Sjøvollan" />
		<tag k="ssr:stedsnr" v="419150" />
	</node>
	<node id="-128863" lat="65.6230583343" lon="11.9117361024">
		<tag k="name" v="Fossneset" />
		<tag k="place" v="locality" />
		<tag k="ssr:stedsnr" v="418069" />
	</node>
	<node id="-127310" lat="65.6807500029" lon="11.9853583272">
		<tag k="name" v="Kråkheimyra" />
		<tag k="natural" v="wetland" />
		<tag k="ssr:stedsnr" v="115507" />
	</node>
	<node id="-127309" lat="65.620855554" lon="11.9111750078">
		<tag k="name" v="Slåttmyra" />
		<tag k="place" v="locality" />
		<tag k="ssr:stedsnr" v="115214" />
	</node>
	<node id="-129347" lat="65.652233333" lon="11.8828666719">
		<tag k="name" v="Martinmyra" />
		<tag k="natural" v="wetland" />
		<tag k="ssr:stedsnr" v="865348" />
	</node>
	<node id="-129329" lat="65.6385416651" lon="11.9360444446">
		<tag k="name" v="Sommerfjøsbakken" />
		<tag k="place" v="locality" />
		<tag k="ssr:stedsnr" v="846061" />
	</node>
	<node id="-127785" lat="65.6511833332" lon="11.8665666683">
		<tag k="name" v="Bjørnlimyra" />
		<tag k="natural" v="wetland" />
		<tag k="ssr:stedsnr" v="683288" />
	</node>
	<node id="-129317" lat="65.688691668" lon="12.0814083388">
		<tag k="name" v="Nordbaken" />
		<tag k="place" v="locality" />
		<tag k="ssr:stedsnr" v="843651" />
	</node>
	<node id="-129316" lat="65.6905416629" lon="11.9130027817">
		<tag k="name" v="Steinmarka" />
		<tag k="place" v="locality" />
		<tag k="ssr:stedsnr" v="843830" />
	</node>
	<node id="-127707" lat="65.6787638861" lon="11.8626055503">
		<tag k="name" v="Tømmervika" />
		<tag k="place" v="locality" />
		<tag k="ssr:stedsnr" v="661766" />
	</node>
	<node id="-129311" lat="65.6102388859" lon="11.8564888785">
		<tag k="name" v="Jakobsbakken" />
		<tag k="place" v="locality" />
		<tag k="ssr:stedsnr" v="843245" />
	</node>
	<node id="-129307" lat="65.6603222241" lon="11.9309638812">
		<tag k="name" v="Koneholten" />
>>>>>>> e1d4bc35ff8a6074a6f2e91616a996b547c36f15
		<tag k="place" v="locality" />
		<tag k="ssr:stedsnr" v="236602" />
	</node>
<<<<<<< HEAD
	<node lat="65.62188333114442" lon="11.935694438398762" id="-8302">
		<tag k="name" v="Stordalen" />
=======
	<node id="-128282" lat="65.6867833297" lon="12.078055565">
		<tag k="name" v="Sørbaken" />
>>>>>>> e1d4bc35ff8a6074a6f2e91616a996b547c36f15
		<tag k="place" v="locality" />
		<tag k="ssr:stedsnr" v="54071" />
	</node>
<<<<<<< HEAD
	<node lat="65.62486944195854" lon="11.910561111408992" id="-8303">
		<tag k="name" v="Langhaugen" />
=======
	<node id="-128281" lat="65.6786027742" lon="11.86961945">
		<tag k="name" v="Åsen" />
>>>>>>> e1d4bc35ff8a6074a6f2e91616a996b547c36f15
		<tag k="place" v="locality" />
		<tag k="ssr:stedsnr" v="54075" />
	</node>
<<<<<<< HEAD
	<node lat="65.68661666627472" lon="12.125022225312067" id="-8307">
=======
	<node id="-128279" lat="65.6866166663" lon="12.1250222253">
>>>>>>> e1d4bc35ff8a6074a6f2e91616a996b547c36f15
		<tag k="name" v="Vassbotnet" />
		<tag k="place" v="locality" />
		<tag k="ssr:stedsnr" v="54420" />
	</node>
<<<<<<< HEAD
	<node lat="65.68678332971955" lon="12.078055564992834" id="-8308">
		<tag k="name" v="Sørbaken" />
		<tag k="place" v="locality" />
		<tag k="ssr:stedsnr" v="54629" />
	</node>
	<node lat="65.6205583336324" lon="11.955383324111894" id="-8371">
		<tag k="name" v="Budalen" />
=======
	<node id="-128274" lat="65.624869442" lon="11.9105611114">
		<tag k="name" v="Langhaugen" />
		<tag k="place" v="locality" />
		<tag k="ssr:stedsnr" v="54075" />
	</node>
	<node id="-128273" lat="65.6592000036" lon="11.909586107">
		<tag k="name" v="Kakholten" />
		<tag k="place" v="locality" />
		<tag k="ssr:stedsnr" v="54037" />
	</node>
	<node id="-129410" lat="65.6262527774" lon="11.9085138956">
		<tag k="name" v="Einheimyra" />
		<tag k="place" v="locality" />
		<tag k="ssr:stedsnr" v="964226" />
	</node>
	<node id="-127232" lat="65.679169442" lon="11.9663333349">
		<tag k="name" v="Torvåsmyra" />
		<tag k="natural" v="wetland" />
		<tag k="ssr:stedsnr" v="237533" />
	</node>
	<node id="-128766" lat="65.6834361142" lon="12.072002772">
		<tag k="name" v="Nordvalen" />
>>>>>>> e1d4bc35ff8a6074a6f2e91616a996b547c36f15
		<tag k="place" v="locality" />
		<tag k="ssr:stedsnr" v="115086" />
	</node>
<<<<<<< HEAD
	<node lat="65.62085555398724" lon="11.911175007849625" id="-8373">
		<tag k="name" v="Slåttmyra" />
=======
	<node id="-128765" lat="65.6817611089" lon="12.0662444359">
		<tag k="name" v="Sørvalen" />
>>>>>>> e1d4bc35ff8a6074a6f2e91616a996b547c36f15
		<tag k="place" v="locality" />
		<tag k="ssr:stedsnr" v="115214" />
	</node>
<<<<<<< HEAD
	<node lat="65.68056666501568" lon="11.882024996395366" id="-8376">
		<tag k="name" v="Vassåsmyra" />
=======
	<node id="-128755" lat="65.6113361113" lon="11.8739638853">
		<tag k="name" v="Nordmyra" />
>>>>>>> e1d4bc35ff8a6074a6f2e91616a996b547c36f15
		<tag k="natural" v="wetland" />
		<tag k="ssr:stedsnr" v="115768" />
	</node>
<<<<<<< HEAD
	<node lat="65.64671389251247" lon="11.884077785404699" id="-8483">
		<tag k="name" v="Aspen" />
=======
	<node id="-127218" lat="65.6218833311" lon="11.9356944384">
		<tag k="name" v="Stordalen" />
>>>>>>> e1d4bc35ff8a6074a6f2e91616a996b547c36f15
		<tag k="place" v="locality" />
		<tag k="ssr:stedsnr" v="176004" />
	</node>
<<<<<<< HEAD
	<node lat="65.67097221834504" lon="11.864927768226849" id="-8484">
		<tag k="name" v="Brennamyra" />
		<tag k="natural" v="wetland" />
		<tag k="ssr:stedsnr" v="176068" />
	</node>
	<node lat="65.65135555550707" lon="11.87019166030051" id="-8528">
		<tag k="name" v="Heststokkheia" />
=======
	<node id="-127216" lat="65.644433334" lon="11.8836750075">
		<tag k="name" v="Bratta" />
>>>>>>> e1d4bc35ff8a6074a6f2e91616a996b547c36f15
		<tag k="place" v="locality" />
		<tag k="ssr:stedsnr" v="236031" />
	</node>
<<<<<<< HEAD
	<node lat="65.60069444788937" lon="11.902038882130181" id="-8530">
		<tag k="name" v="Langmyra" />
=======
	<node id="-128750" lat="65.6425027811" lon="11.9557027739">
		<tag k="name" v="Setnesmyra" />
>>>>>>> e1d4bc35ff8a6074a6f2e91616a996b547c36f15
		<tag k="natural" v="wetland" />
		<tag k="ssr:stedsnr" v="236186" />
	</node>
<<<<<<< HEAD
	<node lat="65.61344166505638" lon="11.944336103139369" id="-8532">
		<tag k="name" v="Uran" />
		<tag k="natural" v="scree" />
		<tag k="ssr:stedsnr" v="236195" />
	</node>
	<node lat="65.69296388460805" lon="11.881013893807323" id="-8535">
=======
	<node id="-127725" lat="65.6735888906" lon="12.048361101">
		<tag k="name" v="Storlia" />
		<tag k="place" v="locality" />
		<tag k="ssr:stedsnr" v="674651" />
	</node>
	<node id="-127212" lat="65.6929638846" lon="11.8810138938">
>>>>>>> e1d4bc35ff8a6074a6f2e91616a996b547c36f15
		<tag k="name" v="Kleivan" />
		<tag k="place" v="locality" />
		<tag k="ssr:stedsnr" v="236780" />
	</node>
<<<<<<< HEAD
	<node lat="65.64126110802728" lon="11.789316655772472" id="-8536">
		<tag k="name" v="Auneheian" />
=======
	<node id="-128747" lat="65.6844749969" lon="11.884716673">
		<tag k="name" v="Altervassmyra" />
		<tag k="natural" v="wetland" />
		<tag k="ssr:stedsnr" v="357788" />
	</node>
	<node id="-128746" lat="65.6979666684" lon="11.8805805475">
		<tag k="name" v="Vassbotnet" />
>>>>>>> e1d4bc35ff8a6074a6f2e91616a996b547c36f15
		<tag k="place" v="locality" />
		<tag k="ssr:stedsnr" v="237192" />
	</node>
<<<<<<< HEAD
	<node lat="65.67916944198811" lon="11.96633333486903" id="-8540">
		<tag k="name" v="Torvåsmyra" />
		<tag k="natural" v="wetland" />
		<tag k="ssr:stedsnr" v="237533" />
	</node>
	<node lat="65.70500000162305" lon="11.944999999565582" id="-8603">
		<tag k="name" v="Haugsjøen" />
		<tag k="place" v="locality" />
		<tag k="ssr:stedsnr" v="263608" />
	</node>
	<node lat="65.62906388661976" lon="12.173958330970175" id="-8619">
		<tag k="name" v="Middagsgardsmyra" />
=======
	<node id="-127209" lat="65.6864750006" lon="12.0895361128">
		<tag k="name" v="Aråsklubben" />
		<tag k="place" v="locality" />
		<tag k="ssr:stedsnr" v="236602" />
	</node>
	<node id="-127204" lat="65.6134416651" lon="11.9443361031">
		<tag k="name" v="Uran" />
		<tag k="natural" v="scree" />
		<tag k="ssr:stedsnr" v="236195" />
	</node>
	<node id="-127202" lat="65.6006944479" lon="11.9020388821">
		<tag k="name" v="Langmyra" />
>>>>>>> e1d4bc35ff8a6074a6f2e91616a996b547c36f15
		<tag k="natural" v="wetland" />
		<tag k="ssr:stedsnr" v="299722" />
	</node>
<<<<<<< HEAD
	<node lat="65.61467222662361" lon="11.890088882048602" id="-8663">
=======
	<node id="-128733" lat="65.6146722266" lon="11.890088882">
>>>>>>> e1d4bc35ff8a6074a6f2e91616a996b547c36f15
		<tag k="name" v="Moan" />
		<tag k="place" v="locality" />
		<tag k="ssr:stedsnr" v="357166" />
	</node>
<<<<<<< HEAD
	<node lat="65.64250278105558" lon="11.955702773945434" id="-8667">
		<tag k="name" v="Setnesmyra" />
		<tag k="natural" v="wetland" />
		<tag k="ssr:stedsnr" v="358051" />
	</node>
	<node lat="65.61133611131329" lon="11.873963885321785" id="-8670">
		<tag k="name" v="Nordmyra" />
		<tag k="natural" v="wetland" />
		<tag k="ssr:stedsnr" v="358226" />
	</node>
	<node lat="65.62049722027575" lon="11.904855565196742" id="-8685">
		<tag k="name" v="Flåtan" />
		<tag k="place" v="locality" />
		<tag k="ssr:stedsnr" v="479195" />
	</node>
	<node lat="65.67814444437127" lon="12.052855548977192" id="-8762">
		<tag k="name" v="Leirvika" />
=======
	<node id="-128732" lat="65.6242083365" lon="11.9629555573">
		<tag k="name" v="Lissbudalen" />
		<tag k="place" v="locality" />
		<tag k="ssr:stedsnr" v="357077" />
	</node>
	<node id="-128731" lat="65.6288444453" lon="11.9159388827">
		<tag k="name" v="Manndya" />
		<tag k="place" v="locality" />
		<tag k="ssr:stedsnr" v="357076" />
	</node>
	<node id="-127194" lat="65.6157805555" lon="11.833830548">
		<tag k="name" v="Hestmarka" />
>>>>>>> e1d4bc35ff8a6074a6f2e91616a996b547c36f15
		<tag k="place" v="locality" />
		<tag k="ssr:stedsnr" v="491661" />
	</node>
<<<<<<< HEAD
	<node lat="65.65118333322629" lon="11.866566668306533" id="-8876">
		<tag k="name" v="Bjørnlimyra" />
=======
	<node id="-127700" lat="65.6280944487" lon="11.9687166664">
		<tag k="name" v="Kringelmyra" />
>>>>>>> e1d4bc35ff8a6074a6f2e91616a996b547c36f15
		<tag k="natural" v="wetland" />
		<tag k="ssr:stedsnr" v="683288" />
	</node>
<<<<<<< HEAD
	<node lat="65.68726666703228" lon="11.8297555600426" id="-8917">
		<tag k="name" v="Porsmyr" />
		<tag k="natural" v="wetland" />
		<tag k="ssr:stedsnr" v="540786" />
	</node>
	<node lat="65.63553333430572" lon="11.963361118865796" id="-8920">
		<tag k="name" v="Floaskaret" />
=======
	<node id="-128206" lat="65.6756972204" lon="12.0557055543">
		<tag k="name" v="Nordgjerdet" />
>>>>>>> e1d4bc35ff8a6074a6f2e91616a996b547c36f15
		<tag k="place" v="locality" />
		<tag k="ssr:stedsnr" v="542069" />
	</node>
	<node lat="65.62884444080937" lon="11.909447224577887" id="-8921">
		<tag k="name" v="Krambubakken" />
		<tag k="place" v="locality" />
		<tag k="ssr:stedsnr" v="542071" />
	</node>
<<<<<<< HEAD
	<node lat="65.6564805554353" lon="11.871533327066128" id="-8998">
=======
	<node id="-127694" lat="65.6192249983" lon="11.9580527755">
		<tag k="landuse" v="meadow" />
		<tag k="name" v="Sørveltlan" />
		<tag k="ssr:stedsnr" v="661165" />
	</node>
	<node id="-127693" lat="65.6564805554" lon="11.8715333271">
>>>>>>> e1d4bc35ff8a6074a6f2e91616a996b547c36f15
		<tag k="name" v="Gåsheia" />
		<tag k="place" v="locality" />
		<tag k="ssr:stedsnr" v="661032" />
	</node>
<<<<<<< HEAD
	<node lat="65.70115278134429" lon="11.88583888453449" id="-9003">
		<tag k="name" v="Grønnvika" />
=======
	<node id="-128204" lat="65.6297027756" lon="12.1704805546">
		<tag k="name" v="Langmyra" />
>>>>>>> e1d4bc35ff8a6074a6f2e91616a996b547c36f15
		<tag k="place" v="locality" />
		<tag k="ssr:stedsnr" v="661734" />
	</node>
<<<<<<< HEAD
	<node lat="65.6114555516284" lon="12.153252783396038" id="-9007">
		<tag k="name" v="Sørsøvollan" />
=======
	<node id="-128203" lat="65.6371138903" lon="11.9337027836">
		<tag k="name" v="Dalsbakken" />
>>>>>>> e1d4bc35ff8a6074a6f2e91616a996b547c36f15
		<tag k="place" v="locality" />
		<tag k="ssr:stedsnr" v="663704" />
	</node>
<<<<<<< HEAD
	<node lat="65.6735888905737" lon="12.04836110098019" id="-9008">
		<tag k="name" v="Storlia" />
=======
	<node id="-128202" lat="65.6401694487" lon="11.933355551">
		<tag k="name" v="Moshaugbakken" />
>>>>>>> e1d4bc35ff8a6074a6f2e91616a996b547c36f15
		<tag k="place" v="locality" />
		<tag k="ssr:stedsnr" v="674651" />
	</node>
<<<<<<< HEAD
	<node lat="65.64348611511734" lon="11.89019722725084" id="-9055">
		<tag k="name" v="Tømmerhalsen" />
=======
	<node id="-127689" lat="65.6211750029" lon="11.9013250111">
		<tag k="name" v="Sømstøbakken" />
>>>>>>> e1d4bc35ff8a6074a6f2e91616a996b547c36f15
		<tag k="place" v="locality" />
		<tag k="ssr:stedsnr" v="722031" />
	</node>
<<<<<<< HEAD
	<node lat="65.69755277400013" lon="11.91891944081143" id="-9067">
		<tag k="name" v="Dalingane" />
=======
	<node id="-129219" lat="65.6671111124" lon="11.8778055453">
		<tag k="name" v="Kattheian" />
>>>>>>> e1d4bc35ff8a6074a6f2e91616a996b547c36f15
		<tag k="place" v="locality" />
		<tag k="ssr:stedsnr" v="722852" />
	</node>
<<<<<<< HEAD
	<node lat="65.67146111225864" lon="12.047130565267684" id="-9071">
		<tag k="name" v="Nautøyvalen" />
		<tag k="place" v="locality" />
		<tag k="ssr:stedsnr" v="734678" />
	</node>
	<node lat="65.67497842769032" lon="11.86075936835066" id="-9140">
		<tag k="name" v="Storheia" />
=======
	<node id="-128192" lat="65.6824527749" lon="11.8478777816">
		<tag k="name" v="Kuddimyra" />
		<tag k="natural" v="wetland" />
		<tag k="ssr:stedsnr" v="964769" />
	</node>
	<node id="-128186" lat="65.6899277794" lon="11.8274583424">
		<tag k="name" v="Dammen" />
>>>>>>> e1d4bc35ff8a6074a6f2e91616a996b547c36f15
		<tag k="place" v="locality" />
		<tag k="ssr:stedsnr" v="908929" />
	</node>
<<<<<<< HEAD
	<node lat="65.64021388936051" lon="11.976449995563918" id="-9151">
		<tag k="name" v="Langmyra" />
		<tag k="natural" v="wetland" />
		<tag k="ssr:stedsnr" v="783508" />
	</node>
	<node lat="65.66711111235483" lon="11.877805545328139" id="-9160">
		<tag k="name" v="Kattheian" />
=======
	<node id="-129206" lat="65.7057111102" lon="11.9109083389">
		<tag k="name" v="Bergåker" />
>>>>>>> e1d4bc35ff8a6074a6f2e91616a996b547c36f15
		<tag k="place" v="locality" />
		<tag k="ssr:stedsnr" v="797051" />
	</node>
<<<<<<< HEAD
	<node lat="65.67125833384212" lon="11.87402500718477" id="-9161">
		<tag k="name" v="Langåsheia" />
=======
	<node id="-128179" lat="65.6716305578" lon="11.8704166615">
		<tag k="name" v="Gullbranddalsheia" />
>>>>>>> e1d4bc35ff8a6074a6f2e91616a996b547c36f15
		<tag k="place" v="locality" />
		<tag k="ssr:stedsnr" v="798053" />
	</node>
<<<<<<< HEAD
	<node lat="65.66032222405639" lon="11.930963881220936" id="-9198">
		<tag k="name" v="Koneholten" />
		<tag k="place" v="locality" />
		<tag k="ssr:stedsnr" v="843037" />
	</node>
	<node lat="65.61023888585733" lon="11.856488878468122" id="-9200">
		<tag k="name" v="Jakobsbakken" />
		<tag k="place" v="locality" />
		<tag k="ssr:stedsnr" v="843245" />
	</node>
	<node lat="65.69054166285963" lon="11.913002781719708" id="-9202">
		<tag k="name" v="Steinmarka" />
=======
	<node id="-129200" lat="65.6402138894" lon="11.9764499956">
		<tag k="name" v="Langmyra" />
		<tag k="natural" v="wetland" />
		<tag k="ssr:stedsnr" v="783508" />
	</node>
	<node id="-128168" lat="65.6749784277" lon="11.8607593684">
		<tag k="name" v="Storheia" />
>>>>>>> e1d4bc35ff8a6074a6f2e91616a996b547c36f15
		<tag k="place" v="locality" />
		<tag k="ssr:stedsnr" v="843830" />
	</node>
<<<<<<< HEAD
	<node lat="65.65366111348214" lon="11.9113638953385" id="-9256">
=======
	<node id="-128156" lat="65.6536611135" lon="11.9113638953">
>>>>>>> e1d4bc35ff8a6074a6f2e91616a996b547c36f15
		<tag k="name" v="Stavsmarken" />
		<tag k="place" v="locality" />
		<tag k="ssr:stedsnr" v="904015" />
	</node>
<<<<<<< HEAD
	<node lat="65.62970277563731" lon="12.1704805546481" id="-9322">
		<tag k="name" v="Langmyra" />
=======
	<node id="-129169" lat="65.6873194459" lon="11.9934888862">
		<tag k="name" v="Brattåsmyra" />
>>>>>>> e1d4bc35ff8a6074a6f2e91616a996b547c36f15
		<tag k="place" v="locality" />
		<tag k="ssr:stedsnr" v="967206" />
	</node>
<<<<<<< HEAD
	<node lat="65.6756972203936" lon="12.05570555430284" id="-9325">
		<tag k="name" v="Nordgjerdet" />
		<tag k="place" v="locality" />
		<tag k="ssr:stedsnr" v="6666" />
	</node>
	<node lat="65.61578055554033" lon="11.833830547970834" id="-9349">
		<tag k="name" v="Hestmarka" />
=======
	<node id="-127419" lat="65.6770027801" lon="11.9085750109">
		<tag k="name" v="Tjuvrotmyra" />
		<tag k="natural" v="wetland" />
		<tag k="ssr:stedsnr" v="440469" />
	</node>
	<node id="-127582" lat="65.6781444444" lon="12.052855549">
		<tag k="name" v="Leirvika" />
>>>>>>> e1d4bc35ff8a6074a6f2e91616a996b547c36f15
		<tag k="place" v="locality" />
		<tag k="ssr:stedsnr" v="16335" />
	</node>
<<<<<<< HEAD
	<node lat="65.64443333403159" lon="11.883675007528609" id="-9394">
		<tag k="name" v="Bratta" />
=======
	<node id="-127558" lat="65.6204972203" lon="11.9048555652">
		<tag k="name" v="Flåtan" />
>>>>>>> e1d4bc35ff8a6074a6f2e91616a996b547c36f15
		<tag k="place" v="locality" />
		<tag k="ssr:stedsnr" v="54004" />
	</node>
<<<<<<< HEAD
	<node lat="65.65920000355455" lon="11.909586106995842" id="-9401">
		<tag k="name" v="Kakholten" />
		<tag k="place" v="locality" />
		<tag k="ssr:stedsnr" v="54037" />
	</node>
	<node lat="65.67860277424055" lon="11.869619450008868" id="-9408">
		<tag k="name" v="Åsen" />
=======
	<node id="-127585" lat="65.6837861093" lon="12.0969638971">
		<tag k="name" v="Kjempevollan" />
		<tag k="place" v="locality" />
		<tag k="ssr:stedsnr" v="357616" />
	</node>
	<node id="-128064" lat="65.6712583338" lon="11.8740250072">
		<tag k="name" v="Langåsheia" />
>>>>>>> e1d4bc35ff8a6074a6f2e91616a996b547c36f15
		<tag k="place" v="locality" />
		<tag k="ssr:stedsnr" v="54789" />
	</node>
<<<<<<< HEAD
	<node lat="65.6763166676055" lon="12.107338887517534" id="-9493">
		<tag k="name" v="Hestmyra" />
=======
	<node id="-127545" lat="65.6290638866" lon="12.173958331">
		<tag k="name" v="Middagsgardsmyra" />
>>>>>>> e1d4bc35ff8a6074a6f2e91616a996b547c36f15
		<tag k="natural" v="wetland" />
		<tag k="ssr:stedsnr" v="115329" />
	</node>
<<<<<<< HEAD
	<node lat="65.68075000289112" lon="11.985358327188825" id="-9502">
		<tag k="name" v="Kråkheimyra" />
		<tag k="natural" v="wetland" />
		<tag k="ssr:stedsnr" v="115507" />
	</node>
	<node lat="65.60950833179488" lon="11.887294439538756" id="-9505">
		<tag k="name" v="Sjømyra" />
=======
	<node id="-127528" lat="65.7050000016" lon="11.9449999996">
		<tag k="name" v="Haugsjøen" />
>>>>>>> e1d4bc35ff8a6074a6f2e91616a996b547c36f15
		<tag k="place" v="locality" />
		<tag k="ssr:stedsnr" v="117898" />
	</node>
<<<<<<< HEAD
	<node lat="65.70007222245461" lon="11.968041659770005" id="-9582">
		<tag k="name" v="Miskundmyra" />
		<tag k="place" v="locality" />
		<tag k="ssr:stedsnr" v="176735" />
	</node>
	<node lat="65.61833055672813" lon="12.14628610399592" id="-9585">
=======
	<node id="-128028" lat="65.6665000032" lon="11.8715500021">
		<tag k="name" v="Akselmyra" />
		<tag k="natural" v="wetland" />
		<tag k="ssr:stedsnr" v="744216" />
	</node>
	<node id="-128539" lat="65.6183305567" lon="12.146286104">
>>>>>>> e1d4bc35ff8a6074a6f2e91616a996b547c36f15
		<tag k="name" v="Ytterlangåsmyra" />
		<tag k="natural" v="wetland" />
		<tag k="ssr:stedsnr" v="178685" />
	</node>
<<<<<<< HEAD
	<node lat="65.62470278139322" lon="11.902775010774725" id="-9664">
		<tag k="name" v="Storheia" />
=======
	<node id="-128532" lat="65.7000722225" lon="11.9680416598">
		<tag k="name" v="Miskundmyra" />
>>>>>>> e1d4bc35ff8a6074a6f2e91616a996b547c36f15
		<tag k="place" v="locality" />
		<tag k="ssr:stedsnr" v="297207" />
	</node>
<<<<<<< HEAD
	<node lat="65.69907778036402" lon="11.97795278855959" id="-9670">
		<tag k="name" v="Gråmyra" />
=======
	<node id="-128520" lat="65.6709722183" lon="11.8649277682">
		<tag k="name" v="Brennamyra" />
>>>>>>> e1d4bc35ff8a6074a6f2e91616a996b547c36f15
		<tag k="natural" v="wetland" />
		<tag k="ssr:stedsnr" v="297718" />
	</node>
<<<<<<< HEAD
	<node lat="65.62884444530694" lon="11.915938882652437" id="-9760">
		<tag k="name" v="Manndya" />
=======
	<node id="-128516" lat="65.6467138925" lon="11.8840777854">
		<tag k="name" v="Aspen" />
>>>>>>> e1d4bc35ff8a6074a6f2e91616a996b547c36f15
		<tag k="place" v="locality" />
		<tag k="ssr:stedsnr" v="357076" />
	</node>
<<<<<<< HEAD
	<node lat="65.62420833653852" lon="11.962955557295874" id="-9761">
		<tag k="name" v="Lissbudalen" />
		<tag k="place" v="locality" />
		<tag k="ssr:stedsnr" v="357077" />
	</node>
	<node lat="65.68378610933988" lon="12.096963897071552" id="-9768">
		<tag k="name" v="Kjempevollan" />
		<tag k="place" v="locality" />
		<tag k="ssr:stedsnr" v="357616" />
	</node>
	<node lat="65.69796666841503" lon="11.880580547519214" id="-9775">
		<tag k="name" v="Vassbotnet" />
		<tag k="place" v="locality" />
		<tag k="ssr:stedsnr" v="357777" />
	</node>
	<node lat="65.68447499691285" lon="11.884716672972276" id="-9776">
		<tag k="name" v="Altervassmyra" />
		<tag k="natural" v="wetland" />
		<tag k="ssr:stedsnr" v="357788" />
	</node>
	<node lat="65.68176110890701" lon="12.066244435870276" id="-9789">
		<tag k="name" v="Sørvalen" />
		<tag k="place" v="locality" />
		<tag k="ssr:stedsnr" v="370634" />
	</node>
	<node lat="65.68343611424676" lon="12.072002772023806" id="-9790">
		<tag k="name" v="Nordvalen" />
		<tag k="place" v="locality" />
		<tag k="ssr:stedsnr" v="370635" />
	</node>
	<node lat="65.62305833432116" lon="11.911736102352913" id="-9852">
		<tag k="name" v="Fossneset" />
		<tag k="place" v="locality" />
		<tag k="ssr:stedsnr" v="418069" />
	</node>
	<node lat="65.60674444549576" lon="11.842941671056153" id="-9857">
		<tag k="landuse" v="meadow" />
		<tag k="name" v="Sjøvollan" />
		<tag k="ssr:stedsnr" v="419150" />
	</node>
	<node lat="65.67255000186806" lon="12.053366672252812" id="-9873">
		<tag k="name" v="Innerlia" />
		<tag k="place" v="locality" />
		<tag k="ssr:stedsnr" v="431675" />
	</node>
	<node lat="65.63051666823452" lon="11.942561105872635" id="-9880">
		<tag k="alt_name" v="Baråsmyra" />
		<tag k="name" v="Buråsmyra" />
		<tag k="natural" v="wetland" />
		<tag k="ssr:stedsnr" v="440360" />
	</node>
	<node lat="65.6770027800933" lon="11.908575010853745" id="-9907">
		<tag k="name" v="Tjuvrotmyra" />
		<tag k="natural" v="wetland" />
		<tag k="ssr:stedsnr" v="440469" />
	</node>
	<node lat="65.68476388992339" lon="12.100169447900864" id="-9949">
		<tag k="name" v="Staulmyra" />
		<tag k="natural" v="wetland" />
		<tag k="ssr:stedsnr" v="501471" />
	</node>
	<node lat="65.65536666408936" lon="11.91766945071784" id="-9976">
		<tag k="name" v="Jensparten" />
		<tag k="place" v="locality" />
		<tag k="ssr:stedsnr" v="540026" />
	</node>
	<node lat="65.67274721992084" lon="12.058077769684262" id="-9992">
		<tag k="name" v="Sørgjerdet" />
		<tag k="place" v="locality" />
		<tag k="ssr:stedsnr" v="552692" />
	</node>
	<node lat="65.62117500292928" lon="11.901325011118168" id="-10179">
		<tag k="name" v="Sømstøbakken" />
		<tag k="place" v="locality" />
		<tag k="ssr:stedsnr" v="661075" />
	</node>
	<node lat="65.61922499833538" lon="11.958052775526038" id="-10180">
		<tag k="landuse" v="meadow" />
		<tag k="name" v="Sørveltlan" />
		<tag k="ssr:stedsnr" v="661165" />
	</node>
	<node lat="65.6280944486975" lon="11.968716666375352" id="-10187">
		<tag k="name" v="Kringelmyra" />
		<tag k="natural" v="wetland" />
		<tag k="ssr:stedsnr" v="661474" />
	</node>
	<node lat="65.67876388613773" lon="11.862605550341467" id="-10193">
		<tag k="name" v="Tømmervika" />
		<tag k="place" v="locality" />
		<tag k="ssr:stedsnr" v="661766" />
	</node>
	<node lat="65.69123055501336" lon="11.906483329613456" id="-10199">
		<tag k="name" v="Hestlangen" />
		<tag k="place" v="locality" />
		<tag k="ssr:stedsnr" v="721778" />
	</node>
	<node lat="65.65480833254573" lon="11.877313892014298" id="-10200">
		<tag k="name" v="Oleartnsaheia" />
		<tag k="place" v="locality" />
		<tag k="ssr:stedsnr" v="722036" />
	</node>
	<node lat="65.64579444191102" lon="11.940747221277771" id="-10201">
		<tag k="name" v="Floamyra" />
		<tag k="natural" v="wetland" />
		<tag k="ssr:stedsnr" v="722052" />
	</node>
	<node lat="65.62605555371861" lon="11.923352785923502" id="-10203">
		<tag k="name" v="Sommarsete" />
		<tag k="place" v="locality" />
		<tag k="ssr:stedsnr" v="722095" />
	</node>
	<node lat="65.6151194470338" lon="11.81790834368268" id="-10210">
		<tag k="name" v="Levikmarka" />
		<tag k="place" v="locality" />
		<tag k="ssr:stedsnr" v="722286" />
	</node>
	<node lat="65.67434444276738" lon="12.106138899457378" id="-10215">
		<tag k="name" v="Kjerringskogan" />
		<tag k="place" v="locality" />
		<tag k="ssr:stedsnr" v="722337" />
	</node>
	<node lat="65.68832222120106" lon="12.11387221715506" id="-10217">
		<tag k="name" v="Porsmyra" />
		<tag k="natural" v="wetland" />
		<tag k="ssr:stedsnr" v="722395" />
	</node>
	<node lat="65.68794999899399" lon="12.10577222793196" id="-10218">
		<tag k="name" v="Staulmyra" />
		<tag k="natural" v="wetland" />
		<tag k="ssr:stedsnr" v="722396" />
	</node>
	<node lat="65.67089721960721" lon="11.986961121232603" id="-10219">
		<tag k="name" v="Grønsvikja" />
		<tag k="place" v="locality" />
		<tag k="ssr:stedsnr" v="722399" />
	</node>
	<node lat="65.6858388865665" lon="12.101966672332683" id="-10226">
		<tag k="name" v="Heimerstaulan" />
		<tag k="place" v="locality" />
		<tag k="ssr:stedsnr" v="722653" />
	</node>
	<node lat="65.66650000320207" lon="11.871550002100504" id="-10260">
		<tag k="name" v="Akselmyra" />
		<tag k="natural" v="wetland" />
		<tag k="ssr:stedsnr" v="744216" />
	</node>
	<node lat="65.68731944589382" lon="11.993488886218051" id="-10273">
		<tag k="name" v="Brattåsmyra" />
		<tag k="place" v="locality" />
		<tag k="ssr:stedsnr" v="752684" />
	</node>
	<node lat="65.68778611046308" lon="11.837430553081306" id="-10289">
		<tag k="name" v="Våtmyra" />
		<tag k="place" v="locality" />
		<tag k="ssr:stedsnr" v="782745" />
	</node>
	<node lat="65.70571111023426" lon="11.91090833892432" id="-10295">
		<tag k="name" v="Bergåker" />
		<tag k="place" v="locality" />
		<tag k="ssr:stedsnr" v="783896" />
	</node>
	<node lat="65.68869166797626" lon="12.081408338811938" id="-10373">
		<tag k="name" v="Nordbaken" />
		<tag k="place" v="locality" />
		<tag k="ssr:stedsnr" v="843651" />
	</node>
	<node lat="65.63854166505298" lon="11.93604444461543" id="-10385">
		<tag k="name" v="Sommerfjøsbakken" />
		<tag k="place" v="locality" />
		<tag k="ssr:stedsnr" v="846061" />
	</node>
	<node lat="65.65223333301358" lon="11.882866671866775" id="-10399">
		<tag k="name" v="Martinmyra" />
		<tag k="natural" v="wetland" />
		<tag k="ssr:stedsnr" v="865348" />
	</node>
	<node lat="65.67163055777681" lon="11.870416661478243" id="-10476">
		<tag k="name" v="Gullbranddalsheia" />
		<tag k="place" v="locality" />
		<tag k="ssr:stedsnr" v="964066" />
	</node>
	<node lat="65.6262527774335" lon="11.908513895607031" id="-10478">
		<tag k="name" v="Einheimyra" />
		<tag k="place" v="locality" />
		<tag k="ssr:stedsnr" v="964226" />
	</node>
	<node lat="65.6899277794442" lon="11.827458342430173" id="-10483">
		<tag k="name" v="Dammen" />
		<tag k="place" v="locality" />
		<tag k="ssr:stedsnr" v="964755" />
	</node>
	<node lat="65.68245277490843" lon="11.847877781568526" id="-10489">
		<tag k="name" v="Kuddimyra" />
		<tag k="natural" v="wetland" />
		<tag k="ssr:stedsnr" v="964769" />
	</node>
	<node lat="65.64138611202807" lon="11.785638879048172" id="-10493">
		<tag k="name" v="Aune" />
		<tag k="place" v="locality" />
		<tag k="ssr:stedsnr" v="965200" />
	</node>
	<node lat="65.64016944867372" lon="11.933355551006272" id="-10502">
		<tag k="name" v="Moshaugbakken" />
		<tag k="place" v="locality" />
		<tag k="ssr:stedsnr" v="967060" />
	</node>
	<node lat="65.6371138902609" lon="11.933702783603332" id="-10503">
		<tag k="name" v="Dalsbakken" />
		<tag k="place" v="locality" />
		<tag k="ssr:stedsnr" v="967061" />
	</node>
=======
>>>>>>> e1d4bc35ff8a6074a6f2e91616a996b547c36f15
</osm>
