<?xml version="1.0" encoding="UTF-8"?>
<osm version="0.6" generator="osmapis">
	<node id="130160774" lat="68.8726409" lon="17.8521825" version="9" timestamp="2022-07-06T06:29:11Z" changeset="123261559" uid="3497659" user="NKA">
		<tag k="name" v="Sjøvegan" />
		<tag k="name:se" v="Vuotnasiida" />
		<tag k="place" v="village" />
		<tag k="population" v="736" />
		<tag k="population:date" v="2021-01-01" />
		<tag k="ref:ssb_tettsted" v="8071" />
		<tag k="source:population" v="SSB - befolkning i tettstedet" />
		<tag k="ssr:stedsnr" v="78763" />
	</node>
	<node id="1783638284" lat="68.8765274" lon="17.9659" version="2" timestamp="2022-07-06T06:29:11Z" changeset="123261559" uid="3497659" user="NKA">
		<tag k="alt_name" v="Flåget" />
		<tag k="name" v="Floget" />
		<tag k="place" v="hamlet" />
		<tag k="population" v="5" />
		<tag k="ssr:stedsnr" v="381812" />
	</node>
	<node id="1783638285" lat="68.9054867" lon="18.0355929" version="2" timestamp="2022-07-06T06:29:11Z" changeset="123261559" uid="3497659" user="NKA">
		<tag k="name" v="Snagli" />
		<tag k="place" v="hamlet" />
		<tag k="population" v="10" />
		<tag k="ssr:stedsnr" v="1080064" />
	</node>
	<node id="5649155485" lat="68.8614162" lon="17.8200871" version="2" timestamp="2022-07-06T06:29:11Z" changeset="123261559" uid="3497659" user="NKA">
		<tag k="alt_name:no" v="Laberg" />
		<tag k="loc_name:se" v="Sáhka" />
		<tag k="name" v="Laberget" />
		<tag k="name:no" v="Laberget" />
		<tag k="place" v="village" />
		<tag k="ssr:stedsnr" v="18260" />
	</node>
	<node id="6635007709" lat="68.9359121" lon="17.7143266" version="2" timestamp="2022-07-06T06:29:11Z" changeset="123261559" uid="3497659" user="NKA">
		<tag k="name" v="Løksebotn" />
		<tag k="place" v="hamlet" />
		<tag k="ssr:stedsnr" v="381921" />
	</node>
	<node id="9869648972" lat="68.8511472" lon="18.0158416" version="1" timestamp="2022-07-06T06:29:11Z" changeset="123261559" uid="3497659" user="NKA">
		<tag k="name" v="Elvevollen" />
		<tag k="place" v="farm" />
		<tag k="ssr:stedsnr" v="442533" />
	</node>
	<node id="9869648973" lat="68.8703861" lon="18.0219946" version="1" timestamp="2022-07-06T06:29:11Z" changeset="123261559" uid="3497659" user="NKA">
		<tag k="name" v="Nordeng" />
		<tag k="place" v="farm" />
		<tag k="ssr:stedsnr" v="602536" />
	</node>
	<node id="9869648974" lat="68.861325" lon="18.0210084" version="1" timestamp="2022-07-06T06:29:11Z" changeset="123261559" uid="3497659" user="NKA">
		<tag k="name" v="Holmen" />
		<tag k="place" v="farm" />
		<tag k="ssr:stedsnr" v="785503" />
	</node>
	<node id="9869648975" lat="68.8357389" lon="18.0942694" version="1" timestamp="2022-07-06T06:29:11Z" changeset="123261559" uid="3497659" user="NKA">
		<tag k="name" v="Pergamman" />
		<tag k="place" v="locality" />
		<tag k="ssr:stedsnr" v="355261" />
	</node>
	<node id="9869648976" lat="68.8442972" lon="18.0605165" version="1" timestamp="2022-07-06T06:29:11Z" changeset="123261559" uid="3497659" user="NKA">
		<tag k="alt_name" v="Tverseth" />
		<tag k="name" v="Tverrset" />
		<tag k="place" v="farm" />
		<tag k="ssr:stedsnr" v="746530" />
	</node>
	<node id="9869648977" lat="68.9009277" lon="17.7861135" version="1" timestamp="2022-07-06T06:29:11Z" changeset="123261559" uid="3497659" user="NKA">
		<tag k="alt_name:no" v="Yttergård;Ytregården" />
		<tag k="name" v="Yttergården - Lintageahči" />
		<tag k="name:no" v="Yttergården" />
		<tag k="name:se" v="Lintageahči" />
		<tag k="place" v="hamlet" />
		<tag k="ssr:stedsnr" v="567618" />
	</node>
	<node id="9869648978" lat="68.8520056" lon="18.1010388" version="1" timestamp="2022-07-06T06:29:11Z" changeset="123261559" uid="3497659" user="NKA">
		<tag k="name" v="Nerflaten" />
		<tag k="place" v="farm" />
		<tag k="ssr:stedsnr" v="537136" />
	</node>
	<node id="9869648979" lat="68.8788139" lon="17.9014278" version="1" timestamp="2022-07-06T06:29:11Z" changeset="123261559" uid="3497659" user="NKA">
		<tag k="name" v="Bergli" />
		<tag k="place" v="farm" />
		<tag k="ssr:stedsnr" v="663181" />
	</node>
	<node id="9869648980" lat="68.9657994" lon="17.7548933" version="1" timestamp="2022-07-06T06:29:11Z" changeset="123261559" uid="3497659" user="NKA">
		<tag k="alt_name" v="Rørbakken" />
		<tag k="name" v="Røyrbakken" />
		<tag k="place" v="hamlet" />
		<tag k="ssr:stedsnr" v="928873" />
	</node>
	<node id="9869648981" lat="68.8495666" lon="18.0630895" version="1" timestamp="2022-07-06T06:29:11Z" changeset="123261559" uid="3497659" user="NKA">
		<tag k="alt_name" v="Kistefosshaug" />
		<tag k="name" v="Kistefosshaugen" />
		<tag k="place" v="farm" />
		<tag k="ssr:stedsnr" v="928489" />
	</node>
	<node id="9869648982" lat="68.7996963" lon="18.0546819" version="1" timestamp="2022-07-06T06:29:11Z" changeset="123261559" uid="3497659" user="NKA">
		<tag k="name" v="Masterbakkvatna" />
		<tag k="place" v="locality" />
		<tag k="ssr:stedsnr" v="1077404" />
	</node>
	<node id="9869648983" lat="68.8478833" lon="18.0562973" version="1" timestamp="2022-07-06T06:29:11Z" changeset="123261559" uid="3497659" user="NKA">
		<tag k="name" v="Litleng" />
		<tag k="place" v="farm" />
		<tag k="ssr:stedsnr" v="321488" />
	</node>
	<node id="9869648984" lat="68.8528265" lon="17.809492" version="1" timestamp="2022-07-06T06:29:11Z" changeset="123261559" uid="3497659" user="NKA">
		<tag k="alt_name:no" v="Labergshaug" />
		<tag k="loc_name:se" v="Dihttiriida" />
		<tag k="name" v="Labergshaugen" />
		<tag k="name:no" v="Labergshaugen" />
		<tag k="place" v="hamlet" />
		<tag k="ssr:stedsnr" v="624797" />
	</node>
	<node id="9869648985" lat="68.9847041" lon="17.6935323" version="1" timestamp="2022-07-06T06:29:11Z" changeset="123261559" uid="3497659" user="NKA">
		<tag k="alt_name" v="Nattmålskardet" />
		<tag k="name" v="Nattmålskaret" />
		<tag k="place" v="farm" />
		<tag k="ssr:stedsnr" v="685889" />
	</node>
	<node id="9869648986" lat="68.9795702" lon="17.8009018" version="1" timestamp="2022-07-06T06:29:11Z" changeset="123261559" uid="3497659" user="NKA">
		<tag k="alt_name" v="Grønli" />
		<tag k="name" v="Grønlia" />
		<tag k="place" v="farm" />
		<tag k="ssr:stedsnr" v="18877" />
	</node>
	<node id="9869648987" lat="68.9878584" lon="17.7284555" version="1" timestamp="2022-07-06T06:29:11Z" changeset="123261559" uid="3497659" user="NKA">
		<tag k="name" v="Haugen" />
		<tag k="place" v="farm" />
		<tag k="ssr:stedsnr" v="966069" />
	</node>
	<node id="9869648988" lat="68.9279945" lon="17.7230666" version="1" timestamp="2022-07-06T06:29:11Z" changeset="123261559" uid="3497659" user="NKA">
		<tag k="name" v="Haugan" />
		<tag k="place" v="hamlet" />
		<tag k="ssr:stedsnr" v="685831" />
	</node>
	<node id="9869648989" lat="68.9795774" lon="18.1490725" version="1" timestamp="2022-07-06T06:29:11Z" changeset="123261559" uid="3497659" user="NKA">
		<tag k="name" v="Sekkhaugen" />
		<tag k="place" v="locality" />
		<tag k="ssr:stedsnr" v="1077405" />
	</node>
	<node id="9869648990" lat="68.8554084" lon="17.9920777" version="1" timestamp="2022-07-06T06:29:11Z" changeset="123261559" uid="3497659" user="NKA">
		<tag k="name" v="Sandmoen" />
		<tag k="place" v="farm" />
		<tag k="ssr:stedsnr" v="481862" />
	</node>
	<node id="9869648991" lat="68.932275" lon="18.0580583" version="1" timestamp="2022-07-06T06:29:11Z" changeset="123261559" uid="3497659" user="NKA">
		<tag k="name" v="Fagerli" />
		<tag k="place" v="farm" />
		<tag k="ssr:stedsnr" v="806683" />
	</node>
	<node id="9869648992" lat="68.8759861" lon="18.0819556" version="1" timestamp="2022-07-06T06:29:11Z" changeset="123261559" uid="3497659" user="NKA">
		<tag k="name" v="Nylund" />
		<tag k="place" v="farm" />
		<tag k="ssr:stedsnr" v="503582" />
	</node>
	<node id="9869648993" lat="68.8510833" lon="18.093825" version="1" timestamp="2022-07-06T06:29:11Z" changeset="123261559" uid="3497659" user="NKA">
		<tag k="name" v="Hellefossmo" />
		<tag k="place" v="farm" />
		<tag k="ssr:stedsnr" v="173140" />
	</node>
	<node id="9869648994" lat="68.8447" lon="18.0609723" version="1" timestamp="2022-07-06T06:29:11Z" changeset="123261559" uid="3497659" user="NKA">
		<tag k="name" v="Kollia" />
		<tag k="place" v="farm" />
		<tag k="ssr:stedsnr" v="503492" />
	</node>
	<node id="9869648995" lat="68.8691723" lon="17.775025" version="1" timestamp="2022-07-06T06:29:11Z" changeset="123261559" uid="3497659" user="NKA">
		<tag k="name" v="Holte" />
		<tag k="place" v="farm" />
		<tag k="ssr:stedsnr" v="442799" />
	</node>
	<node id="9869648996" lat="68.964225" lon="17.7531361" version="1" timestamp="2022-07-06T06:29:11Z" changeset="123261559" uid="3497659" user="NKA">
		<tag k="name" v="Nermoen" />
		<tag k="place" v="farm" />
		<tag k="ssr:stedsnr" v="419006" />
	</node>
	<node id="9869648997" lat="68.9077334" lon="17.5086467" version="1" timestamp="2022-07-06T06:29:11Z" changeset="123261559" uid="3497659" user="NKA">
		<tag k="name" v="Grøtland" />
		<tag k="place" v="farm" />
		<tag k="ssr:stedsnr" v="321809" />
	</node>
	<node id="9869648998" lat="68.9054439" lon="17.7752362" version="1" timestamp="2022-07-06T06:29:11Z" changeset="123261559" uid="3497659" user="NKA">
		<tag k="name" v="Demma" />
		<tag k="place" v="farm" />
		<tag k="ssr:stedsnr" v="698623" />
	</node>
	<node id="9869648999" lat="68.8195555" lon="18.0500555" version="1" timestamp="2022-07-06T06:29:11Z" changeset="123261559" uid="3497659" user="NKA">
		<tag k="name" v="Lappgamman" />
		<tag k="place" v="locality" />
		<tag k="ssr:stedsnr" v="299762" />
	</node>
	<node id="9869649000" lat="68.8665291" lon="17.7848999" version="1" timestamp="2022-07-06T06:29:11Z" changeset="123261559" uid="3497659" user="NKA">
		<tag k="alt_name" v="Otterå" />
		<tag k="name" v="Otteråa" />
		<tag k="place" v="farm" />
		<tag k="ssr:stedsnr" v="685743" />
	</node>
	<node id="9869649001" lat="68.9223939" lon="17.7266212" version="1" timestamp="2022-07-06T06:29:11Z" changeset="123261559" uid="3497659" user="NKA">
		<tag k="name" v="Vikholt" />
		<tag k="place" v="farm" />
		<tag k="ssr:stedsnr" v="503796" />
	</node>
	<node id="9869649002" lat="68.8894231" lon="17.803785" version="1" timestamp="2022-07-06T06:29:11Z" changeset="123261559" uid="3497659" user="NKA">
		<tag k="name" v="Enigheten" />
		<tag k="place" v="farm" />
		<tag k="ssr:stedsnr" v="117320" />
	</node>
	<node id="9869649003" lat="68.9897583" lon="17.7288762" version="1" timestamp="2022-07-06T06:29:11Z" changeset="123261559" uid="3497659" user="NKA">
		<tag k="name" v="Katrinehaugen" />
		<tag k="place" v="farm" />
		<tag k="ssr:stedsnr" v="139987" />
	</node>
	<node id="9869649004" lat="68.942025" lon="17.7398582" version="1" timestamp="2022-07-06T06:29:11Z" changeset="123261559" uid="3497659" user="NKA">
		<tag k="name" v="Kasteng" />
		<tag k="place" v="farm" />
		<tag k="ssr:stedsnr" v="481100" />
	</node>
	<node id="9869649005" lat="68.9853157" lon="17.6895662" version="1" timestamp="2022-07-06T06:29:11Z" changeset="123261559" uid="3497659" user="NKA">
		<tag k="name" v="Nattmålshaugen" />
		<tag k="place" v="farm" />
		<tag k="ssr:stedsnr" v="139986" />
	</node>
	<node id="9869649006" lat="68.9142519" lon="17.7347164" version="1" timestamp="2022-07-06T06:29:11Z" changeset="123261559" uid="3497659" user="NKA">
		<tag k="name" v="Medby - Gaskasiida" />
		<tag k="name:no" v="Medby" />
		<tag k="name:se" v="Gaskasiida" />
		<tag k="place" v="hamlet" />
		<tag k="ssr:stedsnr" v="442862" />
	</node>
	<node id="9869649007" lat="68.9192973" lon="17.8104694" version="1" timestamp="2022-07-06T06:29:11Z" changeset="123261559" uid="3497659" user="NKA">
		<tag k="name" v="Vinkelen" />
		<tag k="place" v="isolated_dwelling" />
		<tag k="ssr:stedsnr" v="18801" />
	</node>
	<node id="9869649008" lat="68.8591745" lon="17.7979014" version="1" timestamp="2022-07-06T06:29:11Z" changeset="123261559" uid="3497659" user="NKA">
		<tag k="name" v="Lilund" />
		<tag k="place" v="farm" />
		<tag k="ssr:stedsnr" v="442791" />
	</node>
	<node id="9869649009" lat="68.9367861" lon="17.7327527" version="1" timestamp="2022-07-06T06:29:11Z" changeset="123261559" uid="3497659" user="NKA">
		<tag k="name" v="Skogly" />
		<tag k="place" v="farm" />
		<tag k="ssr:stedsnr" v="442925" />
	</node>
	<node id="9869649010" lat="68.8509389" lon="18.035389" version="1" timestamp="2022-07-06T06:29:11Z" changeset="123261559" uid="3497659" user="NKA">
		<tag k="name" v="Birkeland" />
		<tag k="place" v="farm" />
		<tag k="ssr:stedsnr" v="745515" />
	</node>
	<node id="9869649011" lat="68.9014173" lon="17.8704477" version="1" timestamp="2022-07-06T06:29:11Z" changeset="123261559" uid="3497659" user="NKA">
		<tag k="alt_name:no" v="Åmoen" />
		<tag k="name" v="Åmo - Opmu" />
		<tag k="name:no" v="Åmo" />
		<tag k="name:se" v="Opmu" />
		<tag k="place" v="hamlet" />
		<tag k="ssr:stedsnr" v="746772" />
	</node>
	<node id="9869649012" lat="68.8556056" lon="17.8311835" version="1" timestamp="2022-07-06T06:29:11Z" changeset="123261559" uid="3497659" user="NKA">
		<tag k="alt_name" v="Eineli" />
		<tag k="name" v="Einelia" />
		<tag k="place" v="farm" />
		<tag k="ssr:stedsnr" v="503772" />
	</node>
	<node id="9869649013" lat="68.884728" lon="17.6937758" version="1" timestamp="2022-07-06T06:29:11Z" changeset="123261559" uid="3497659" user="NKA">
		<tag k="loc_name:se" v="Gálkkoš" />
		<tag k="name" v="Salangsdalen" />
		<tag k="name:no" v="Salangsdalen" />
		<tag k="place" v="farm" />
		<tag k="ssr:stedsnr" v="1077401" />
	</node>
	<node id="9869649014" lat="68.8704315" lon="17.7388965" version="1" timestamp="2022-07-06T06:29:11Z" changeset="123261559" uid="3497659" user="NKA">
		<tag k="alt_name" v="Sommerset" />
		<tag k="name" v="Sommarsetet" />
		<tag k="place" v="hamlet" />
		<tag k="ssr:stedsnr" v="932604" />
	</node>
	<node id="9869649015" lat="68.8741561" lon="18.0651454" version="1" timestamp="2022-07-06T06:29:11Z" changeset="123261559" uid="3497659" user="NKA">
		<tag k="name" v="Prestbakklia" />
		<tag k="place" v="hamlet" />
		<tag k="ssr:stedsnr" v="928581" />
	</node>
	<node id="9869649016" lat="68.8935961" lon="17.6813252" version="1" timestamp="2022-07-06T06:29:11Z" changeset="123261559" uid="3497659" user="NKA">
		<tag k="alt_name" v="Rotvik" />
		<tag k="name" v="Rotvika" />
		<tag k="place" v="hamlet" />
		<tag k="ssr:stedsnr" v="200858" />
	</node>
	<node id="9869661517" lat="68.8405556" lon="17.877539" version="1" timestamp="2022-07-06T06:29:11Z" changeset="123261559" uid="3497659" user="NKA">
		<tag k="name" v="Reindal" />
		<tag k="place" v="farm" />
		<tag k="ssr:stedsnr" v="421149" />
	</node>
	<node id="9869661518" lat="68.9115584" lon="17.7227939" version="1" timestamp="2022-07-06T06:29:11Z" changeset="123261559" uid="3497659" user="NKA">
		<tag k="name" v="Salangsverket" />
		<tag k="place" v="quarter" />
		<tag k="ssr:stedsnr" v="260863" />
	</node>
	<node id="9869661519" lat="68.9786555" lon="17.6695168" version="1" timestamp="2022-07-06T06:29:11Z" changeset="123261559" uid="3497659" user="NKA">
		<tag k="name" v="Gunnelheimen" />
		<tag k="place" v="locality" />
		<tag k="ssr:stedsnr" v="117631" />
	</node>
	<node id="9869661520" lat="68.8815968" lon="17.6866156" version="1" timestamp="2022-07-06T06:29:11Z" changeset="123261559" uid="3497659" user="NKA">
		<tag k="name" v="Dalen" />
		<tag k="place" v="hamlet" />
		<tag k="ssr:stedsnr" v="260818" />
	</node>
	<node id="9869661521" lat="68.9842522" lon="17.6946575" version="1" timestamp="2022-07-06T06:29:11Z" changeset="123261559" uid="3497659" user="NKA">
		<tag k="name" v="Solli" />
		<tag k="place" v="farm" />
		<tag k="ssr:stedsnr" v="238082" />
	</node>
	<node id="9869661522" lat="68.9270029" lon="18.0457314" version="1" timestamp="2022-07-06T06:29:11Z" changeset="123261559" uid="3497659" user="NKA">
		<tag k="alt_name" v="Bekkebotnen" />
		<tag k="name" v="Bekkebotn" />
		<tag k="place" v="hamlet" />
		<tag k="ssr:stedsnr" v="321637" />
	</node>
	<node id="9869661523" lat="68.9049562" lon="17.8637352" version="1" timestamp="2022-07-06T06:29:11Z" changeset="123261559" uid="3497659" user="NKA">
		<tag k="name" v="Seljeskogen - Sálljavađđa" />
		<tag k="name:no" v="Seljeskogen" />
		<tag k="name:se" v="Sálljavađđa" />
		<tag k="place" v="hamlet" />
		<tag k="ssr:stedsnr" v="138829" />
	</node>
	<node id="9869661524" lat="68.9077667" lon="17.9389999" version="1" timestamp="2022-07-06T06:29:11Z" changeset="123261559" uid="3497659" user="NKA">
		<tag k="name" v="Åeng" />
		<tag k="old_name" v="Åenga" />
		<tag k="place" v="farm" />
		<tag k="ssr:stedsnr" v="78832" />
	</node>
	<node id="9869661525" lat="68.8720181" lon="18.0684509" version="1" timestamp="2022-07-06T06:29:11Z" changeset="123261559" uid="3497659" user="NKA">
		<tag k="name" v="Vestermo" />
		<tag k="place" v="farm" />
		<tag k="ssr:stedsnr" v="806610" />
	</node>
	<node id="9869661526" lat="68.9369667" lon="18.0406731" version="1" timestamp="2022-07-06T06:29:11Z" changeset="123261559" uid="3497659" user="NKA">
		<tag k="name" v="Solhaug" />
		<tag k="place" v="farm" />
		<tag k="ssr:stedsnr" v="685657" />
	</node>
	<node id="9869661527" lat="68.8691639" lon="18.0391972" version="1" timestamp="2022-07-06T06:29:11Z" changeset="123261559" uid="3497659" user="NKA">
		<tag k="name" v="Sole" />
		<tag k="place" v="farm" />
		<tag k="ssr:stedsnr" v="724538" />
	</node>
	<node id="9869661528" lat="68.9371917" lon="18.05695" version="1" timestamp="2022-07-06T06:29:11Z" changeset="123261559" uid="3497659" user="NKA">
		<tag k="name" v="Engmo" />
		<tag k="place" v="farm" />
		<tag k="ssr:stedsnr" v="665477" />
	</node>
	<node id="9869661529" lat="68.905125" lon="18.0328249" version="1" timestamp="2022-07-06T06:29:11Z" changeset="123261559" uid="3497659" user="NKA">
		<tag k="name" v="Nergård" />
		<tag k="place" v="farm" />
		<tag k="ssr:stedsnr" v="685580" />
	</node>
	<node id="9869661530" lat="68.86995" lon="18.0247721" version="1" timestamp="2022-07-06T06:29:11Z" changeset="123261559" uid="3497659" user="NKA">
		<tag k="name" v="Rindstad" />
		<tag k="place" v="farm" />
		<tag k="ssr:stedsnr" v="663545" />
	</node>
	<node id="9869661531" lat="68.9335432" lon="17.7240668" version="1" timestamp="2022-07-06T06:29:11Z" changeset="123261559" uid="3497659" user="NKA">
		<tag k="name" v="Sletta" />
		<tag k="place" v="farm" />
		<tag k="ssr:stedsnr" v="78920" />
	</node>
	<node id="9869661532" lat="68.8502" lon="17.8113027" version="1" timestamp="2022-07-06T06:29:11Z" changeset="123261559" uid="3497659" user="NKA">
		<tag k="name" v="Labergsli" />
		<tag k="place" v="farm" />
		<tag k="ssr:stedsnr" v="359658" />
	</node>
	<node id="9869661533" lat="68.9415524" lon="17.7403118" version="1" timestamp="2022-07-06T06:29:11Z" changeset="123261559" uid="3497659" user="NKA">
		<tag k="name" v="Myre" />
		<tag k="place" v="hamlet" />
		<tag k="ssr:stedsnr" v="78948" />
	</node>
	<node id="9869661534" lat="68.8220972" lon="17.8595305" version="1" timestamp="2022-07-06T06:29:11Z" changeset="123261559" uid="3497659" user="NKA">
		<tag k="name" v="Várdo" />
		<tag k="name:se" v="Várdo" />
		<tag k="place" v="farm" />
		<tag k="ssr:stedsnr" v="117273" />
	</node>
	<node id="9869661535" lat="68.8505111" lon="17.9755306" version="1" timestamp="2022-07-06T06:29:11Z" changeset="123261559" uid="3497659" user="NKA">
		<tag k="alt_name" v="Sætran" />
		<tag k="name" v="Sætra" />
		<tag k="place" v="farm" />
		<tag k="ssr:stedsnr" v="321783" />
	</node>
	<node id="9869661536" lat="68.8695407" lon="17.7737486" version="1" timestamp="2022-07-06T06:29:11Z" changeset="123261559" uid="3497659" user="NKA">
		<tag k="name" v="Garsnes" />
		<tag k="old_name" v="Garsnes østre" />
		<tag k="place" v="farm" />
		<tag k="ssr:stedsnr" v="1077685" />
	</node>
	<node id="9869661537" lat="68.858125" lon="18.0358917" version="1" timestamp="2022-07-06T06:29:11Z" changeset="123261559" uid="3497659" user="NKA">
		<tag k="alt_name" v="Hillekroken" />
		<tag k="name" v="Hellekroken" />
		<tag k="place" v="farm" />
		<tag k="ssr:stedsnr" v="503472" />
	</node>
	<node id="9869661538" lat="68.9053863" lon="18.0308924" version="1" timestamp="2022-07-06T06:29:11Z" changeset="123261559" uid="3497659" user="NKA">
		<tag k="alt_name" v="Snagli;Snogli;Snagli Nordre" />
		<tag k="name" v="Nordre Snagli" />
		<tag k="place" v="farm" />
		<tag k="ssr:stedsnr" v="443578" />
	</node>
	<node id="9869661539" lat="68.8236785" lon="17.8522975" version="1" timestamp="2022-07-06T06:29:11Z" changeset="123261559" uid="3497659" user="NKA">
		<tag k="loc_name:se" v="Loabákáidi;Áidi" />
		<tag k="name" v="Lavangseidet" />
		<tag k="name:no" v="Lavangseidet" />
		<tag k="place" v="farm" />
		<tag k="ssr:stedsnr" v="745706" />
	</node>
	<node id="9869661540" lat="68.8253916" lon="17.9177084" version="1" timestamp="2022-07-06T06:29:11Z" changeset="123261559" uid="3497659" user="NKA">
		<tag k="name" v="Sikkogammen" />
		<tag k="place" v="locality" />
		<tag k="ssr:stedsnr" v="844206" />
	</node>
	<node id="9869661541" lat="68.9237611" lon="18.0586389" version="1" timestamp="2022-07-06T06:29:11Z" changeset="123261559" uid="3497659" user="NKA">
		<tag k="name" v="Molund" />
		<tag k="place" v="farm" />
		<tag k="ssr:stedsnr" v="260590" />
	</node>
	<node id="9869661542" lat="68.9640611" lon="17.768039" version="1" timestamp="2022-07-06T06:29:11Z" changeset="123261559" uid="3497659" user="NKA">
		<tag k="alt_name" v="Samueljord" />
		<tag k="name" v="Samueljorda" />
		<tag k="place" v="farm" />
		<tag k="ssr:stedsnr" v="199891" />
	</node>
	<node id="9869661543" lat="68.9373436" lon="18.0467985" version="1" timestamp="2022-07-06T06:29:11Z" changeset="123261559" uid="3497659" user="NKA">
		<tag k="name" v="Haugli" />
		<tag k="place" v="hamlet" />
		<tag k="ssr:stedsnr" v="260693" />
	</node>
	<node id="9869661544" lat="68.8415713" lon="17.8750183" version="1" timestamp="2022-07-06T06:29:11Z" changeset="123261559" uid="3497659" user="NKA">
		<tag k="name" v="Reingjerdskogen" />
		<tag k="place" v="farm" />
		<tag k="ssr:stedsnr" v="624792" />
	</node>
	<node id="9869661545" lat="68.8722643" lon="17.8666974" version="1" timestamp="2022-07-06T06:29:11Z" changeset="123261559" uid="3497659" user="NKA">
		<tag k="name" v="Vasshaug" />
		<tag k="place" v="farm" />
		<tag k="ssr:stedsnr" v="906181" />
	</node>
	<node id="9869661546" lat="68.8516717" lon="18.1038029" version="1" timestamp="2022-07-06T06:29:11Z" changeset="123261559" uid="3497659" user="NKA">
		<tag k="name" v="Skyssmoen" />
		<tag k="place" v="farm" />
		<tag k="ssr:stedsnr" v="260540" />
	</node>
	<node id="9869661547" lat="68.8755696" lon="18.0738201" version="1" timestamp="2022-07-06T06:29:11Z" changeset="123261559" uid="3497659" user="NKA">
		<tag k="name" v="Øvre Salangen" />
		<tag k="place" v="hamlet" />
		<tag k="ssr:stedsnr" v="120599" />
	</node>
	<node id="9869661548" lat="68.8516917" lon="18.0983805" version="1" timestamp="2022-07-06T06:29:11Z" changeset="123261559" uid="3497659" user="NKA">
		<tag k="alt_name" v="Fredheim" />
		<tag k="name" v="Skjelmoen" />
		<tag k="place" v="farm" />
		<tag k="ssr:stedsnr" v="138532" />
	</node>
	<node id="9869661549" lat="68.874925" lon="18.0643528" version="1" timestamp="2022-07-06T06:29:11Z" changeset="123261559" uid="3497659" user="NKA">
		<tag k="name" v="Haugset" />
		<tag k="place" v="farm" />
		<tag k="ssr:stedsnr" v="867627" />
	</node>
	<node id="9869661550" lat="68.8751722" lon="18.0829556" version="1" timestamp="2022-07-06T06:29:11Z" changeset="123261559" uid="3497659" user="NKA">
		<tag k="name" v="Prestbakkan" />
		<tag k="place" v="hamlet" />
		<tag k="ssr:stedsnr" v="57658" />
	</node>
	<node id="9869661551" lat="68.8660473" lon="18.0325499" version="1" timestamp="2022-07-06T06:29:11Z" changeset="123261559" uid="3497659" user="NKA">
		<tag k="name" v="Tunheim" />
		<tag k="place" v="farm" />
		<tag k="ssr:stedsnr" v="867624" />
	</node>
	<node id="9869661552" lat="68.9264472" lon="18.050039" version="1" timestamp="2022-07-06T06:29:11Z" changeset="123261559" uid="3497659" user="NKA">
		<tag k="name" v="Lynum" />
		<tag k="place" v="farm" />
		<tag k="ssr:stedsnr" v="867684" />
	</node>
	<node id="9869661553" lat="68.9087747" lon="17.7587316" version="1" timestamp="2022-07-06T06:29:11Z" changeset="123261559" uid="3497659" user="NKA">
		<tag k="alt_name:no" v="Rongså;Rognsa" />
		<tag k="alt_name:se" v="Rávndjesadji" />
		<tag k="name" v="Rognså - Rávdnjesoahka" />
		<tag k="name:no" v="Rognså" />
		<tag k="name:se" v="Rávdnjesoahka" />
		<tag k="place" v="hamlet" />
		<tag k="ssr:stedsnr" v="807799" />
	</node>
	<node id="9869661554" lat="68.9646083" lon="17.7694667" version="1" timestamp="2022-07-06T06:29:11Z" changeset="123261559" uid="3497659" user="NKA">
		<tag k="name" v="Bakkemoen" />
		<tag k="place" v="farm" />
		<tag k="ssr:stedsnr" v="200867" />
	</node>
	<node id="9869661555" lat="68.874975" lon="18.0621583" version="1" timestamp="2022-07-06T06:29:11Z" changeset="123261559" uid="3497659" user="NKA">
		<tag k="name" v="Vallenberg" />
		<tag k="place" v="farm" />
		<tag k="ssr:stedsnr" v="199636" />
	</node>
	<node id="9869661556" lat="68.8999056" lon="17.8682944" version="1" timestamp="2022-07-06T06:29:11Z" changeset="123261559" uid="3497659" user="NKA">
		<tag k="name" v="Lunderheimen" />
		<tag k="place" v="locality" />
		<tag k="ssr:stedsnr" v="663806" />
	</node>
	<node id="9869661557" lat="68.95045" lon="18.1769499" version="1" timestamp="2022-07-06T06:29:11Z" changeset="123261559" uid="3497659" user="NKA">
		<tag k="name" v="Lappehytta" />
		<tag k="place" v="locality" />
		<tag k="ssr:stedsnr" v="260681" />
	</node>
	<node id="9869661558" lat="68.8525389" lon="18.0824721" version="1" timestamp="2022-07-06T06:29:11Z" changeset="123261559" uid="3497659" user="NKA">
		<tag k="name" v="Kistefossmo" />
		<tag k="place" v="farm" />
		<tag k="ssr:stedsnr" v="841170" />
	</node>
	<node id="9869661559" lat="68.9230861" lon="18.0307972" version="1" timestamp="2022-07-06T06:29:11Z" changeset="123261559" uid="3497659" user="NKA">
		<tag k="name" v="Fjellsæter" />
		<tag k="place" v="farm" />
		<tag k="ssr:stedsnr" v="260711" />
	</node>
	<node id="9869661560" lat="68.8762083" lon="18.0821777" version="1" timestamp="2022-07-06T06:29:11Z" changeset="123261559" uid="3497659" user="NKA">
		<tag k="name" v="Bakkehaug" />
		<tag k="place" v="farm" />
		<tag k="ssr:stedsnr" v="563612" />
	</node>
	<node id="9869661561" lat="68.9071573" lon="17.8065604" version="1" timestamp="2022-07-06T06:29:11Z" changeset="123261559" uid="3497659" user="NKA">
		<tag k="alt_name" v="Heime" />
		<tag k="name" v="Heimet" />
		<tag k="place" v="locality" />
		<tag k="ssr:stedsnr" v="442840" />
	</node>
	<node id="9869661562" lat="68.8911195" lon="17.8198462" version="1" timestamp="2022-07-06T06:29:11Z" changeset="123261559" uid="3497659" user="NKA">
		<tag k="alt_name" v="Skjeghaug" />
		<tag k="name" v="Skjegghaugen" />
		<tag k="place" v="farm" />
		<tag k="ssr:stedsnr" v="381867" />
	</node>
	<node id="9869661563" lat="68.8571278" lon="17.9394056" version="1" timestamp="2022-07-06T06:29:11Z" changeset="123261559" uid="3497659" user="NKA">
		<tag k="name" v="Sandvika" />
		<tag k="place" v="farm" />
		<tag k="ssr:stedsnr" v="806826" />
	</node>
	<node id="9869661564" lat="68.8751973" lon="17.8958001" version="1" timestamp="2022-07-06T06:29:11Z" changeset="123261559" uid="3497659" user="NKA">
		<tag k="name" v="Høglund" />
		<tag k="place" v="farm" />
		<tag k="ssr:stedsnr" v="442805" />
	</node>
	<node id="9869661565" lat="68.8703355" lon="18.0459484" version="1" timestamp="2022-07-06T06:29:11Z" changeset="123261559" uid="3497659" user="NKA">
		<tag k="name" v="Prestbakkmoen" />
		<tag k="place" v="farm" />
		<tag k="ssr:stedsnr" v="563606" />
	</node>
	<node id="9869661566" lat="68.870686" lon="18.0253016" version="1" timestamp="2022-07-06T06:29:11Z" changeset="123261559" uid="3497659" user="NKA">
		<tag k="alt_name" v="Elvebakken" />
		<tag k="name" v="Elvebakkan" />
		<tag k="place" v="hamlet" />
		<tag k="ssr:stedsnr" v="421651" />
	</node>
	<node id="9869661567" lat="68.8590722" lon="18.0470862" version="1" timestamp="2022-07-06T06:29:11Z" changeset="123261559" uid="3497659" user="NKA">
		<tag k="alt_name" v="Prestbakmo;Prestebakkmoen, s" />
		<tag k="name" v="Søre Prestebakkmoen" />
		<tag k="place" v="farm" />
		<tag k="ssr:stedsnr" v="563488" />
	</node>
	<node id="9869661568" lat="68.8631639" lon="17.8295862" version="1" timestamp="2022-07-06T06:29:11Z" changeset="123261559" uid="3497659" user="NKA">
		<tag k="name" v="Lamoen" />
		<tag k="place" v="farm" />
		<tag k="ssr:stedsnr" v="299275" />
	</node>
	<node id="9869661569" lat="68.8432646" lon="17.4996275" version="1" timestamp="2022-07-06T06:29:11Z" changeset="123261559" uid="3497659" user="NKA">
		<tag k="name" v="Klemmingan" />
		<tag k="place" v="isolated_dwelling" />
		<tag k="ssr:stedsnr" v="260833" />
	</node>
	<node id="9869661570" lat="68.8793373" lon="17.9051093" version="1" timestamp="2022-07-06T06:29:11Z" changeset="123261559" uid="3497659" user="NKA">
		<tag k="name" v="Nervatnet" />
		<tag k="place" v="farm" />
		<tag k="ssr:stedsnr" v="260812" />
	</node>
	<node id="9869661571" lat="68.9061639" lon="18.0323945" version="1" timestamp="2022-07-06T06:29:11Z" changeset="123261559" uid="3497659" user="NKA">
		<tag k="name" v="Fuglemo" />
		<tag k="place" v="farm" />
		<tag k="ssr:stedsnr" v="542443" />
	</node>
	<node id="9869661572" lat="68.9062146" lon="18.0350164" version="1" timestamp="2022-07-06T06:29:11Z" changeset="123261559" uid="3497659" user="NKA">
		<tag k="name" v="Breidablikk" />
		<tag k="place" v="farm" />
		<tag k="ssr:stedsnr" v="624570" />
	</node>
	<node id="9869661573" lat="68.8526992" lon="17.5369874" version="1" timestamp="2022-07-06T06:29:11Z" changeset="123261559" uid="3497659" user="NKA">
		<tag k="alt_name" v="Salangslien" />
		<tag k="name" v="Salangslian" />
		<tag k="place" v="farm" />
		<tag k="ssr:stedsnr" v="1077403" />
	</node>
	<node id="9869661574" lat="68.8719276" lon="18.0535725" version="1" timestamp="2022-07-06T06:29:11Z" changeset="123261559" uid="3497659" user="NKA">
		<tag k="name" v="Uthaug" />
		<tag k="place" v="farm" />
		<tag k="ssr:stedsnr" v="624277" />
	</node>
	<node id="9869661575" lat="68.9029611" lon="18.0368417" version="1" timestamp="2022-07-06T06:29:11Z" changeset="123261559" uid="3497659" user="NKA">
		<tag k="name" v="Storhaugen" />
		<tag k="place" v="farm" />
		<tag k="ssr:stedsnr" v="624585" />
	</node>
	<node id="9869661576" lat="68.8402167" lon="17.839089" version="1" timestamp="2022-07-06T06:29:11Z" changeset="123261559" uid="3497659" user="NKA">
		<tag k="name" v="Sagsætran" />
		<tag k="place" v="locality" />
		<tag k="ssr:stedsnr" v="321775" />
	</node>
	<node id="9869661577" lat="68.8585362" lon="17.8139886" version="1" timestamp="2022-07-06T06:29:11Z" changeset="123261559" uid="3497659" user="NKA">
		<tag k="loc_name:se" v="Heasttastuohkki" />
		<tag k="name" v="Nysted" />
		<tag k="name:no" v="Nysted" />
		<tag k="place" v="farm" />
		<tag k="ssr:stedsnr" v="78754" />
	</node>
	<node id="9869661578" lat="68.9226949" lon="18.0590828" version="1" timestamp="2022-07-06T06:29:11Z" changeset="123261559" uid="3497659" user="NKA">
		<tag k="alt_name" v="Bekkeli Østre" />
		<tag k="name" v="Østre Bekkeli" />
		<tag k="place" v="farm" />
		<tag k="ssr:stedsnr" v="360462" />
	</node>
	<node id="9869661579" lat="68.8921058" lon="17.8038079" version="1" timestamp="2022-07-06T06:29:11Z" changeset="123261559" uid="3497659" user="NKA">
		<tag k="alt_name" v="Skårvik" />
		<tag k="name" v="Skårvika" />
		<tag k="place" v="village" />
		<tag k="ssr:stedsnr" v="78873" />
	</node>
	<node id="9869661580" lat="68.9054222" lon="17.8706056" version="1" timestamp="2022-07-06T06:29:11Z" changeset="123261559" uid="3497659" user="NKA">
		<tag k="name" v="Ragnhildheimen" />
		<tag k="place" v="farm" />
		<tag k="ssr:stedsnr" v="867835" />
	</node>
	<node id="9869661581" lat="68.9357694" lon="17.659525" version="1" timestamp="2022-07-06T06:29:11Z" changeset="123261559" uid="3497659" user="NKA">
		<tag k="name" v="Skardtindholtet" />
		<tag k="place" v="locality" />
		<tag k="ssr:stedsnr" v="867927" />
	</node>
	<node id="9869661582" lat="68.8324945" lon="17.4778167" version="1" timestamp="2022-07-06T06:29:11Z" changeset="123261559" uid="3497659" user="NKA">
		<tag k="loc_name:se" v="Loabáknjárga" />
		<tag k="name" v="Lavangsnes" />
		<tag k="name:no" v="Lavangsnes" />
		<tag k="place" v="farm" />
		<tag k="ssr:stedsnr" v="966990" />
	</node>
	<node id="9869661583" lat="68.9330937" lon="18.0536551" version="1" timestamp="2022-07-06T06:29:11Z" changeset="123261559" uid="3497659" user="NKA">
		<tag k="name" v="Steinelvlund" />
		<tag k="place" v="farm" />
		<tag k="ssr:stedsnr" v="260708" />
	</node>
	<node id="9869661584" lat="68.9271977" lon="17.6491805" version="1" timestamp="2022-07-06T06:29:11Z" changeset="123261559" uid="3497659" user="NKA">
		<tag k="name" v="Løksa" />
		<tag k="place" v="hamlet" />
		<tag k="ssr:stedsnr" v="17935" />
	</node>
	<node id="9869661585" lat="68.8998155" lon="18.0369991" version="1" timestamp="2022-07-06T06:29:11Z" changeset="123261559" uid="3497659" user="NKA">
		<tag k="name" v="Myrlund" />
		<tag k="place" v="farm" />
		<tag k="ssr:stedsnr" v="260602" />
	</node>
	<node id="9869661586" lat="68.9068864" lon="17.9421856" version="1" timestamp="2022-07-06T06:29:11Z" changeset="123261559" uid="3497659" user="NKA">
		<tag k="name" v="Myrvang" />
		<tag k="place" v="farm" />
		<tag k="ssr:stedsnr" v="846802" />
	</node>
	<node id="9869661587" lat="68.8649195" lon="18.0324693" version="1" timestamp="2022-07-06T06:29:11Z" changeset="123261559" uid="3497659" user="NKA">
		<tag k="name" v="Kroken" />
		<tag k="place" v="farm" />
		<tag k="ssr:stedsnr" v="421517" />
	</node>
	<node id="9869661588" lat="68.9250654" lon="18.0504902" version="1" timestamp="2022-07-06T06:29:11Z" changeset="123261559" uid="3497659" user="NKA">
		<tag k="alt_name" v="Bekkeli;Bekkeli Vestre" />
		<tag k="name" v="Vestre Bekkeli" />
		<tag k="place" v="farm" />
		<tag k="ssr:stedsnr" v="200663" />
	</node>
	<node id="9869661589" lat="68.8289849" lon="17.4938123" version="1" timestamp="2022-07-06T06:29:11Z" changeset="123261559" uid="3497659" user="NKA">
		<tag k="name" v="Stortøa" />
		<tag k="place" v="farm" />
		<tag k="ssr:stedsnr" v="56559" />
	</node>
	<node id="9869661590" lat="68.8731645" lon="17.9247234" version="1" timestamp="2022-07-06T06:29:11Z" changeset="123261559" uid="3497659" user="NKA">
		<tag k="name" v="Strokkenes" />
		<tag k="place" v="hamlet" />
		<tag k="ssr:stedsnr" v="563802" />
	</node>
	<node id="9869661591" lat="68.8286817" lon="17.493835" version="1" timestamp="2022-07-06T06:29:11Z" changeset="123261559" uid="3497659" user="NKA">
		<tag k="name" v="Lavangnes" />
		<tag k="place" v="hamlet" />
		<tag k="ssr:stedsnr" v="867706" />
	</node>
	<node id="9869661592" lat="68.8361376" lon="17.8946332" version="1" timestamp="2022-07-06T06:29:11Z" changeset="123261559" uid="3497659" user="NKA">
		<tag k="name" v="Baklia" />
		<tag k="place" v="farm" />
		<tag k="ssr:stedsnr" v="563811" />
	</node>
	<node id="9869661593" lat="68.8251722" lon="17.5316979" version="1" timestamp="2022-07-06T06:29:11Z" changeset="123261559" uid="3497659" user="NKA">
		<tag k="loc_name:se" v="Reaittuk" />
		<tag k="name" v="Reite" />
		<tag k="name:no" v="Reite" />
		<tag k="place" v="farm" />
		<tag k="ssr:stedsnr" v="381714" />
	</node>
	<node id="9869661594" lat="68.8567083" lon="18.0598251" version="1" timestamp="2022-07-06T06:29:11Z" changeset="123261559" uid="3497659" user="NKA">
		<tag k="name" v="Molund" />
		<tag k="place" v="farm" />
		<tag k="ssr:stedsnr" v="745494" />
	</node>
	<node id="9869661595" lat="68.8566639" lon="18.0779499" version="1" timestamp="2022-07-06T06:29:11Z" changeset="123261559" uid="3497659" user="NKA">
		<tag k="name" v="Frivoll" />
		<tag k="place" v="farm" />
		<tag k="ssr:stedsnr" v="685492" />
	</node>
	<node id="9869661596" lat="68.8594056" lon="18.0310194" version="1" timestamp="2022-07-06T06:29:11Z" changeset="123261559" uid="3497659" user="NKA">
		<tag k="name" v="Nestun" />
		<tag k="place" v="farm" />
		<tag k="ssr:stedsnr" v="685499" />
	</node>
	<node id="9869661597" lat="68.8568842" lon="18.0016445" version="1" timestamp="2022-07-06T06:29:11Z" changeset="123261559" uid="3497659" user="NKA">
		<tag k="name" v="Fagertun" />
		<tag k="place" v="farm" />
		<tag k="ssr:stedsnr" v="663563" />
	</node>
	<node id="9869661598" lat="68.8717935" lon="18.0449218" version="1" timestamp="2022-07-06T06:29:11Z" changeset="123261559" uid="3497659" user="NKA">
		<tag k="name" v="Perstua" />
		<tag k="place" v="locality" />
		<tag k="ssr:stedsnr" v="663664" />
	</node>
	<node id="9869661599" lat="68.8755218" lon="17.5879629" version="1" timestamp="2022-07-06T06:29:11Z" changeset="123261559" uid="3497659" user="NKA">
		<tag k="alt_name:no" v="Håkavik" />
		<tag k="loc_name:se" v="Hoahkkaviika" />
		<tag k="name" v="Håkavika" />
		<tag k="name:no" v="Håkavika" />
		<tag k="place" v="hamlet" />
		<tag k="ssr:stedsnr" v="450142" />
	</node>
	<node id="9869661600" lat="68.8728306" lon="18.0328305" version="1" timestamp="2022-07-06T06:29:11Z" changeset="123261559" uid="3497659" user="NKA">
		<tag k="name" v="Nordgård" />
		<tag k="place" v="farm" />
		<tag k="ssr:stedsnr" v="503566" />
	</node>
	<node id="9869661601" lat="68.8576528" lon="18.0795611" version="1" timestamp="2022-07-06T06:29:11Z" changeset="123261559" uid="3497659" user="NKA">
		<tag k="name" v="Bruvoll" />
		<tag k="place" v="farm" />
		<tag k="ssr:stedsnr" v="52139" />
	</node>
	<node id="9869661602" lat="68.8746185" lon="18.0899566" version="1" timestamp="2022-07-06T06:29:11Z" changeset="123261559" uid="3497659" user="NKA">
		<tag k="name" v="Prestbakken" />
		<tag k="place" v="farm" />
		<tag k="ssr:stedsnr" v="260638" />
	</node>
	<node id="9869661603" lat="68.8725639" lon="18.0911277" version="1" timestamp="2022-07-06T06:29:11Z" changeset="123261559" uid="3497659" user="NKA">
		<tag k="alt_name" v="Limo" />
		<tag k="name" v="Limoen" />
		<tag k="place" v="farm" />
		<tag k="ssr:stedsnr" v="321586" />
	</node>
	<node id="9869661604" lat="68.8389056" lon="17.895386" version="1" timestamp="2022-07-06T06:29:11Z" changeset="123261559" uid="3497659" user="NKA">
		<tag k="name" v="Finnstad" />
		<tag k="place" v="farm" />
		<tag k="ssr:stedsnr" v="685777" />
	</node>
	<node id="9869661605" lat="68.8229806" lon="17.860439" version="1" timestamp="2022-07-06T06:29:11Z" changeset="123261559" uid="3497659" user="NKA">
		<tag k="name" v="Vollstad" />
		<tag k="place" v="farm" />
		<tag k="ssr:stedsnr" v="928647" />
	</node>
	<node id="9869661606" lat="68.8539889" lon="17.8293833" version="1" timestamp="2022-07-06T06:29:11Z" changeset="123261559" uid="3497659" user="NKA">
		<tag k="name" v="Stormoen" />
		<tag k="place" v="farm" />
		<tag k="ssr:stedsnr" v="685792" />
	</node>
	<node id="9869661607" lat="68.9273389" lon="17.9786749" version="1" timestamp="2022-07-06T06:29:11Z" changeset="123261559" uid="3497659" user="NKA">
		<tag k="name" v="Lappheimen" />
		<tag k="place" v="locality" />
		<tag k="ssr:stedsnr" v="724769" />
	</node>
	<node id="9869661608" lat="68.8721" lon="18.0918388" version="1" timestamp="2022-07-06T06:29:11Z" changeset="123261559" uid="3497659" user="NKA">
		<tag k="name" v="Solvang" />
		<tag k="place" v="farm" />
		<tag k="ssr:stedsnr" v="17645" />
	</node>
	<node id="9869661609" lat="68.8504887" lon="18.0292098" version="1" timestamp="2022-07-06T06:29:11Z" changeset="123261559" uid="3497659" user="NKA">
		<tag k="name" v="Masterbakken" />
		<tag k="place" v="farm" />
		<tag k="ssr:stedsnr" v="17517" />
	</node>
	<node id="9869661610" lat="68.9365195" lon="18.0473501" version="1" timestamp="2022-07-06T06:29:11Z" changeset="123261559" uid="3497659" user="NKA">
		<tag k="name" v="Haugland" />
		<tag k="place" v="farm" />
		<tag k="ssr:stedsnr" v="78667" />
	</node>
	<node id="9869661611" lat="68.9227944" lon="17.9761918" version="1" timestamp="2022-07-06T06:29:11Z" changeset="123261559" uid="3497659" user="NKA">
		<tag k="name" v="Gunnarheimen" />
		<tag k="place" v="locality" />
		<tag k="ssr:stedsnr" v="724774" />
	</node>
	<node id="9869661612" lat="68.8552111" lon="17.9886194" version="1" timestamp="2022-07-06T06:29:11Z" changeset="123261559" uid="3497659" user="NKA">
		<tag k="name" v="Løvhaug" />
		<tag k="place" v="farm" />
		<tag k="ssr:stedsnr" v="117858" />
	</node>
	<node id="9869661613" lat="68.8536431" lon="17.8049548" version="1" timestamp="2022-07-06T06:29:11Z" changeset="123261559" uid="3497659" user="NKA">
		<tag k="name" v="Bjørklund" />
		<tag k="place" v="farm" />
		<tag k="ssr:stedsnr" v="299366" />
	</node>
	<node id="9869661614" lat="68.9018944" lon="18.0328432" version="1" timestamp="2022-07-06T06:29:11Z" changeset="123261559" uid="3497659" user="NKA">
		<tag k="name" v="Søndre Snagli" />
		<tag k="place" v="farm" />
		<tag k="ssr:stedsnr" v="1077400" />
	</node>
	<node id="9869661615" lat="68.9196565" lon="17.7266757" version="1" timestamp="2022-07-06T06:29:11Z" changeset="123261559" uid="3497659" user="NKA">
		<tag k="name" v="Magesås" />
		<tag k="place" v="hamlet" />
		<tag k="ssr:stedsnr" v="928823" />
	</node>
	<node id="9869661616" lat="68.8709166" lon="18.0172916" version="1" timestamp="2022-07-06T06:29:11Z" changeset="123261559" uid="3497659" user="NKA">
		<tag k="name" v="Nordmo" />
		<tag k="place" v="farm" />
		<tag k="ssr:stedsnr" v="117658" />
	</node>
	<node id="9869661617" lat="68.8188794" lon="17.8551697" version="1" timestamp="2022-07-06T06:29:11Z" changeset="123261559" uid="3497659" user="NKA">
		<tag k="name" v="Sørli" />
		<tag k="place" v="farm" />
		<tag k="ssr:stedsnr" v="867699" />
	</node>
	<node id="9869661618" lat="68.8956194" lon="17.6948057" version="1" timestamp="2022-07-06T06:29:11Z" changeset="123261559" uid="3497659" user="NKA">
		<tag k="name" v="Finngamman" />
		<tag k="place" v="locality" />
		<tag k="ssr:stedsnr" v="783477" />
	</node>
	<node id="9869661619" lat="68.8632334" lon="17.5589139" version="1" timestamp="2022-07-06T06:29:11Z" changeset="123261559" uid="3497659" user="NKA">
		<tag k="name" v="Gamman" />
		<tag k="place" v="locality" />
		<tag k="ssr:stedsnr" v="359624" />
	</node>
	<node id="9869661620" lat="68.8534508" lon="17.9707363" version="1" timestamp="2022-07-06T06:29:11Z" changeset="123261559" uid="3497659" user="NKA">
		<tag k="alt_name" v="Gaddskog" />
		<tag k="name" v="Gaddeskogen" />
		<tag k="place" v="farm" />
		<tag k="ssr:stedsnr" v="78817" />
	</node>
	<node id="9869661621" lat="69.0034754" lon="17.7022519" version="1" timestamp="2022-07-06T06:29:11Z" changeset="123261559" uid="3497659" user="NKA">
		<tag k="name" v="Tjuvhola" />
		<tag k="place" v="locality" />
		<tag k="ssr:stedsnr" v="927649" />
	</node>
	<node id="9869661622" lat="68.8976505" lon="17.7948571" version="1" timestamp="2022-07-06T06:29:11Z" changeset="123261559" uid="3497659" user="NKA">
		<tag k="alt_name" v="Indregård" />
		<tag k="alt_name:no" v="Indregården" />
		<tag k="name" v="Innergården - Sissiida" />
		<tag k="name:no" v="Innergården" />
		<tag k="name:se" v="Sissiida" />
		<tag k="place" v="hamlet" />
		<tag k="ssr:stedsnr" v="746825" />
	</node>
	<node id="9869661623" lat="68.8533806" lon="17.8279639" version="1" timestamp="2022-07-06T06:29:11Z" changeset="123261559" uid="3497659" user="NKA">
		<tag k="name" v="Nymoen" />
		<tag k="place" v="farm" />
		<tag k="ssr:stedsnr" v="906345" />
	</node>
	<node id="9869661624" lat="69.0040529" lon="17.7141146" version="1" timestamp="2022-07-06T06:29:11Z" changeset="123261559" uid="3497659" user="NKA">
		<tag k="name" v="Tuvnes" />
		<tag k="place" v="farm" />
		<tag k="ssr:stedsnr" v="1077397" />
	</node>
	<node id="9869661625" lat="68.8633206" lon="18.0000047" version="1" timestamp="2022-07-06T06:29:11Z" changeset="123261559" uid="3497659" user="NKA">
		<tag k="name" v="Elvevollen" />
		<tag k="place" v="farm" />
		<tag k="ssr:stedsnr" v="867623" />
	</node>
	<node id="9869661626" lat="68.9196083" lon="18.0125722" version="1" timestamp="2022-07-06T06:29:11Z" changeset="123261559" uid="3497659" user="NKA">
		<tag k="alt_name" v="Solbakken" />
		<tag k="name" v="Nordre Solbakken" />
		<tag k="place" v="farm" />
		<tag k="ssr:stedsnr" v="1077399" />
	</node>
	<node id="9869661627" lat="68.8864222" lon="17.8543723" version="1" timestamp="2022-07-06T06:29:11Z" changeset="123261559" uid="3497659" user="NKA">
		<tag k="name" v="Sommargamman" />
		<tag k="place" v="locality" />
		<tag k="ssr:stedsnr" v="602224" />
	</node>
	<node id="9869661628" lat="68.9276086" lon="17.9840404" version="1" timestamp="2022-07-06T06:29:11Z" changeset="123261559" uid="3497659" user="NKA">
		<tag k="alt_name:se" v="Spiikadállu" />
		<tag k="name" v="Fjellstad - Várivuolli" />
		<tag k="name:no" v="Fjellstad" />
		<tag k="name:se" v="Várivuolli" />
		<tag k="place" v="farm" />
		<tag k="ssr:stedsnr" v="867933" />
	</node>
	<node id="9869661629" lat="68.9138254" lon="18.0043902" version="1" timestamp="2022-07-06T06:29:11Z" changeset="123261559" uid="3497659" user="NKA">
		<tag k="alt_name" v="Solbakken;Solbakken Søndre" />
		<tag k="name" v="Søndre Solbakken" />
		<tag k="place" v="farm" />
		<tag k="ssr:stedsnr" v="563705" />
	</node>
	<node id="9869661630" lat="68.8641111" lon="17.8620167" version="1" timestamp="2022-07-06T06:29:11Z" changeset="123261559" uid="3497659" user="NKA">
		<tag k="name" v="Elvelund" />
		<tag k="old_name" v="Elveland" />
		<tag k="place" v="hamlet" />
		<tag k="ssr:stedsnr" v="260800" />
	</node>
	<node id="9869661631" lat="68.8546022" lon="17.9654118" version="1" timestamp="2022-07-06T06:29:11Z" changeset="123261559" uid="3497659" user="NKA">
		<tag k="alt_name" v="Øvrevatnet;Øvervatn" />
		<tag k="name" v="Øvervatnet" />
		<tag k="place" v="farm" />
		<tag k="ssr:stedsnr" v="503767" />
	</node>
	<node id="9869661632" lat="68.8733084" lon="17.8553028" version="1" timestamp="2022-07-06T06:29:11Z" changeset="123261559" uid="3497659" user="NKA">
		<tag k="name" v="Gimle" />
		<tag k="place" v="farm" />
		<tag k="ssr:stedsnr" v="502788" />
	</node>
	<node id="9869661633" lat="68.9337389" lon="18.013475" version="1" timestamp="2022-07-06T06:29:11Z" changeset="123261559" uid="3497659" user="NKA">
		<tag k="historic" v="shieling" />
		<tag k="name" v="Sætra" />
		<tag k="place" v="isolated_dwelling" />
		<tag k="ssr:stedsnr" v="420546" />
	</node>
	<node id="9869661634" lat="68.8921826" lon="18.0102546" version="1" timestamp="2022-07-06T06:29:11Z" changeset="123261559" uid="3497659" user="NKA">
		<tag k="name" v="Bjørkås" />
		<tag k="place" v="isolated_dwelling" />
		<tag k="ssr:stedsnr" v="542622" />
	</node>
	<node id="9869661635" lat="68.8624973" lon="17.8174138" version="1" timestamp="2022-07-06T06:29:11Z" changeset="123261559" uid="3497659" user="NKA">
		<tag k="name" v="Saga" />
		<tag k="place" v="farm" />
		<tag k="ssr:stedsnr" v="845258" />
	</node>
	<node id="9869661636" lat="68.8525806" lon="17.9681029" version="1" timestamp="2022-07-06T06:29:11Z" changeset="123261559" uid="3497659" user="NKA">
		<tag k="name" v="Øverås" />
		<tag k="place" v="farm" />
		<tag k="ssr:stedsnr" v="421870" />
	</node>
	<node id="9869661637" lat="68.808028" lon="18.0007578" version="1" timestamp="2022-07-06T06:29:11Z" changeset="123261559" uid="3497659" user="NKA">
		<tag k="name" v="Sagvasshytta" />
		<tag k="place" v="isolated_dwelling" />
		<tag k="ssr:stedsnr" v="360606" />
	</node>
	<node id="9869661638" lat="68.9186589" lon="18.0119364" version="1" timestamp="2022-07-06T06:29:11Z" changeset="123261559" uid="3497659" user="NKA">
		<tag k="name" v="Sollund" />
		<tag k="place" v="farm" />
		<tag k="ssr:stedsnr" v="624673" />
	</node>
	<node id="9869661639" lat="68.8763167" lon="18.0226305" version="1" timestamp="2022-07-06T06:29:11Z" changeset="123261559" uid="3497659" user="NKA">
		<tag k="name" v="Skjulstad" />
		<tag k="place" v="farm" />
		<tag k="ssr:stedsnr" v="421645" />
	</node>
	<node id="9869661640" lat="68.8972971" lon="17.7998059" version="1" timestamp="2022-07-06T06:29:11Z" changeset="123261559" uid="3497659" user="NKA">
		<tag k="name" v="Storvollen" />
		<tag k="place" v="farm" />
		<tag k="ssr:stedsnr" v="260896" />
	</node>
	<node id="9869661641" lat="68.8994505" lon="17.9929583" version="1" timestamp="2022-07-06T06:29:11Z" changeset="123261559" uid="3497659" user="NKA">
		<tag k="name" v="Bekkemoen" />
		<tag k="place" v="farm" />
		<tag k="ssr:stedsnr" v="139851" />
	</node>
	<node id="9869661642" lat="68.9216661" lon="17.62313" version="1" timestamp="2022-07-06T06:29:11Z" changeset="123261559" uid="3497659" user="NKA">
		<tag k="name" v="Navarsvika" />
		<tag k="place" v="locality" />
		<tag k="ssr:stedsnr" v="17930" />
	</node>
	<node id="9869661643" lat="69.0036139" lon="17.7022029" version="1" timestamp="2022-07-06T06:29:11Z" changeset="123261559" uid="3497659" user="NKA">
		<tag k="name" v="Vestertuvnes" />
		<tag k="place" v="farm" />
		<tag k="ssr:stedsnr" v="767491" />
	</node>
	<node id="9869661644" lat="69.0034139" lon="17.7284834" version="1" timestamp="2022-07-06T06:29:11Z" changeset="123261559" uid="3497659" user="NKA">
		<tag k="name" v="Østertuvnes" />
		<tag k="place" v="farm" />
		<tag k="ssr:stedsnr" v="99511" />
	</node>
	<node id="9869661645" lat="68.9376167" lon="17.7231667" version="1" timestamp="2022-07-06T06:29:11Z" changeset="123261559" uid="3497659" user="NKA">
		<tag k="name" v="Lamoen" />
		<tag k="place" v="farm" />
		<tag k="ssr:stedsnr" v="117095" />
	</node>
	<node id="9869661646" lat="68.8931028" lon="17.8035305" version="1" timestamp="2022-07-06T06:29:11Z" changeset="123261559" uid="3497659" user="NKA">
		<tag k="alt_name" v="Mælen" />
		<tag k="name" v="Melen" />
		<tag k="place" v="farm" />
		<tag k="ssr:stedsnr" v="746821" />
	</node>
	<node id="9869661647" lat="68.8654363" lon="17.7846894" version="1" timestamp="2022-07-06T06:29:11Z" changeset="123261559" uid="3497659" user="NKA">
		<tag k="name" v="Otterå" />
		<tag k="place" v="hamlet" />
		<tag k="ssr:stedsnr" v="817874" />
	</node>
	<node id="9869661648" lat="68.8410414" lon="17.6384354" version="1" timestamp="2022-07-06T06:29:11Z" changeset="123261559" uid="3497659" user="NKA">
		<tag k="name" v="Lifjell" />
		<tag k="place" v="locality" />
		<tag k="ssr:stedsnr" v="1077406" />
	</node>
	<node id="9869661649" lat="68.8627917" lon="18.0025661" version="1" timestamp="2022-07-06T06:29:11Z" changeset="123261559" uid="3497659" user="NKA">
		<tag k="name" v="Stormelen" />
		<tag k="place" v="locality" />
		<tag k="ssr:stedsnr" v="745609" />
	</node>
	<node id="9869661650" lat="68.8679076" lon="17.9982919" version="1" timestamp="2022-07-06T06:29:11Z" changeset="123261559" uid="3497659" user="NKA">
		<tag k="name" v="Elvenes" />
		<tag k="place" v="hamlet" />
		<tag k="ssr:stedsnr" v="685750" />
	</node>
	<node id="197794045" lat="68.8877982" lon="17.4592385" version="2" timestamp="2018-03-11T16:06:49Z" changeset="57086158" uid="7543313" user="ENTUR Fredrik Edler" />
	<node id="197794051" lat="68.8871486" lon="17.4590124" version="3" timestamp="2019-01-13T22:45:00Z" changeset="66286254" uid="32112" user="SverigeFan">
		<tag k="bridge:support" v="pier" />
	</node>
	<node id="197794058" lat="68.8865481" lon="17.459112" version="2" timestamp="2018-03-11T16:06:49Z" changeset="57086158" uid="7543313" user="ENTUR Fredrik Edler" />
	<node id="197794063" lat="68.8862321" lon="17.4594328" version="2" timestamp="2018-03-11T16:06:49Z" changeset="57086158" uid="7543313" user="ENTUR Fredrik Edler" />
	<node id="197794069" lat="68.88635" lon="17.4592817" version="2" timestamp="2018-03-11T16:06:49Z" changeset="57086158" uid="7543313" user="ENTUR Fredrik Edler" />
	<node id="5471148009" lat="68.8874146" lon="17.4590813" version="1" timestamp="2018-03-11T16:03:32Z" changeset="57086012" uid="7543313" user="ENTUR Fredrik Edler" />
	<node id="5471148471" lat="68.8864976" lon="17.4591477" version="1" timestamp="2018-03-11T16:03:42Z" changeset="57086012" uid="7543313" user="ENTUR Fredrik Edler" />
	<node id="5471149182" lat="68.8867397" lon="17.4590213" version="1" timestamp="2018-03-11T16:03:55Z" changeset="57086012" uid="7543313" user="ENTUR Fredrik Edler" />
	<node id="5471149306" lat="68.8880483" lon="17.4593858" version="1" timestamp="2018-03-11T16:03:58Z" changeset="57086012" uid="7543313" user="ENTUR Fredrik Edler" />
	<node id="5471150642" lat="68.8861129" lon="17.4596063" version="1" timestamp="2018-03-11T16:04:18Z" changeset="57086012" uid="7543313" user="ENTUR Fredrik Edler" />
	<node id="5471151619" lat="68.886887" lon="17.4590007" version="2" timestamp="2019-01-13T22:45:01Z" changeset="66286254" uid="32112" user="SverigeFan" />
	<node id="5471152395" lat="68.8875959" lon="17.4591438" version="1" timestamp="2018-03-11T16:06:09Z" changeset="57086158" uid="7543313" user="ENTUR Fredrik Edler" />
	<node id="6206601068" lat="68.8866387" lon="17.4590559" version="1" timestamp="2019-01-13T22:45:00Z" changeset="66286254" uid="32112" user="SverigeFan" />
	<node id="197794038" lat="68.893321" lon="17.4644252" version="3" timestamp="2019-01-13T22:45:00Z" changeset="66286254" uid="32112" user="SverigeFan" />
	<node id="197794043" lat="68.8887017" lon="17.459918" version="3" timestamp="2019-01-13T22:45:00Z" changeset="66286254" uid="32112" user="SverigeFan">
		<tag k="bridge:support" v="pier" />
	</node>
	<node id="5471150199" lat="68.8908812" lon="17.4620523" version="2" timestamp="2019-01-13T22:45:00Z" changeset="66286254" uid="32112" user="SverigeFan">
		<tag k="bridge:support" v="pier" />
	</node>
	<node id="5471150430" lat="68.8900073" lon="17.4612012" version="2" timestamp="2019-01-13T22:45:01Z" changeset="66286254" uid="32112" user="SverigeFan">
		<tag k="bridge:support" v="pier" />
	</node>
	<node id="5471150667" lat="68.8893409" lon="17.4605501" version="1" timestamp="2018-03-11T16:04:19Z" changeset="57086012" uid="7543313" user="ENTUR Fredrik Edler" />
	<node id="5471152151" lat="68.8881824" lon="17.4594828" version="1" timestamp="2018-03-11T16:06:05Z" changeset="57086158" uid="7543313" user="ENTUR Fredrik Edler" />
	<node id="5471152534" lat="68.8891044" lon="17.4603297" version="1" timestamp="2018-03-11T16:06:11Z" changeset="57086158" uid="7543313" user="ENTUR Fredrik Edler" />
	<node id="6206601065" lat="68.8924566" lon="17.4635831" version="1" timestamp="2019-01-13T22:44:59Z" changeset="66286254" uid="32112" user="SverigeFan">
		<tag k="bridge:support" v="pier" />
	</node>
	<node id="6206601066" lat="68.8897715" lon="17.4609658" version="1" timestamp="2019-01-13T22:44:59Z" changeset="66286254" uid="32112" user="SverigeFan">
		<tag k="bridge:support" v="pier" />
	</node>
	<node id="6206601067" lat="68.8895482" lon="17.4607477" version="1" timestamp="2019-01-13T22:45:00Z" changeset="66286254" uid="32112" user="SverigeFan">
		<tag k="bridge:support" v="pier" />
	</node>
	<way id="19081679" version="7" timestamp="2022-01-25T18:21:17Z" changeset="116596754" uid="3497659" user="NKA">
		<tag k="bridge" v="cantilever" />
		<tag k="bridge:structure" v="beam" />
		<tag k="highway" v="primary" />
		<tag k="layer" v="1" />
		<tag k="maxspeed" v="80" />
		<tag k="name" v="Mjøsundbrua - Mesuttiirovvi" />
		<tag k="name:no" v="Mjøsundbrua" />
		<tag k="name:se" v="Mesuttiirovvi" />
		<tag k="ref" v="848" />
		<tag k="ssr:stedsnr" v="325636" />
		<nd ref="5471150199" />
		<nd ref="5471150430" />
		<nd ref="6206601066" />
		<nd ref="6206601067" />
		<nd ref="5471150667" />
		<nd ref="5471152534" />
		<nd ref="197794043" />
		<nd ref="5471152151" />
		<nd ref="5471149306" />
		<nd ref="197794045" />
		<nd ref="5471152395" />
		<nd ref="5471148009" />
		<nd ref="197794051" />
		<nd ref="5471151619" />
		<nd ref="5471149182" />
		<nd ref="6206601068" />
		<nd ref="197794058" />
		<nd ref="5471148471" />
		<nd ref="197794069" />
		<nd ref="197794063" />
		<nd ref="5471150642" />
	</way>
	<way id="568726116" version="5" timestamp="2022-01-25T18:21:17Z" changeset="116596754" uid="3497659" user="NKA">
		<tag k="bridge" v="cantilever" />
		<tag k="bridge:structure" v="beam" />
		<tag k="highway" v="primary" />
		<tag k="layer" v="1" />
		<tag k="maxspeed" v="80" />
		<tag k="name" v="Mjøsundbrua - Mesuttiirovvi" />
		<tag k="name:no" v="Mjøsundbrua" />
		<tag k="name:se" v="Mesuttiirovvi" />
		<tag k="ref" v="848" />
		<tag k="ssr:stedsnr" v="325636" />
		<nd ref="197794038" />
		<nd ref="6206601065" />
		<nd ref="5471150199" />
	</way>
</osm>
