<?xml version="1.0" encoding="UTF-8"?>
<osm version="0.6" generator="osmapis">
	<node lat="62.21984721923915" lon="9.679725009096204" id="-20535">
		<tag k="name" v="Heimskardet" />
		<tag k="natural" v="valley" />
		<tag k="place" v="locality" />
		<tag k="ssr:stedsnr" v="10488" />
	</node>
	<node lat="61.970677780044106" lon="9.210558336633063" id="-20554">
		<tag k="name" v="Mjogdal" />
		<tag k="natural" v="valley" />
		<tag k="place" v="locality" />
		<tag k="ssr:stedsnr" v="232675" />
	</node>
	<node lat="61.93837777814092" lon="9.363022219653248" id="-20555">
		<tag k="name" v="Grønranden" />
		<tag k="natural" v="slope" />
		<tag k="place" v="locality" />
		<tag k="ssr:stedsnr" v="232826" />
	</node>
	<node lat="62.119750001800966" lon="9.23222221554956" id="-20557">
		<tag k="name" v="Vahusranden" />
		<tag k="natural" v="hill" />
		<tag k="place" v="locality" />
		<tag k="ssr:stedsnr" v="233067" />
	</node>
	<node lat="62.012399998850555" lon="9.24851666494173" id="-20563">
		<tag k="fixme" v="consider natural=peak for the most distinct mountains in the district" />
		<tag k="name" v="Hønkollen" />
		<tag k="natural" v="hill" />
		<tag k="place" v="locality" />
		<tag k="ssr:stedsnr" v="233547" />
	</node>
	<node lat="61.9413694402263" lon="9.223011116505141" id="-20565">
		<tag k="name" v="Vindberget" />
		<tag k="natural" v="hill" />
		<tag k="place" v="locality" />
		<tag k="ssr:stedsnr" v="233755" />
	</node>
	<node lat="61.97222222520026" lon="9.183105546089722" id="-20566">
		<tag k="name" v="Halvvolahaug" />
		<tag k="natural" v="hill" />
		<tag k="place" v="locality" />
		<tag k="ssr:stedsnr" v="233764" />
	</node>
	<node lat="61.93030555544717" lon="9.263097228487142" id="-20568">
		<tag k="name" v="Måsåbakken" />
		<tag k="natural" v="slope" />
		<tag k="place" v="locality" />
		<tag k="ssr:stedsnr" v="37667" />
	</node>
	<node lat="62.10694999632887" lon="9.81156388101361" id="-20571">
		<tag k="name" v="Åkerhaugen" />
		<tag k="natural" v="hill" />
		<tag k="place" v="locality" />
		<tag k="ssr:stedsnr" v="50272" />
	</node>
	<node lat="62.09374722298776" lon="9.177358324741967" id="-20575">
		<tag k="name" v="Hindådalen" />
		<tag k="natural" v="valley" />
		<tag k="place" v="locality" />
		<tag k="ssr:stedsnr" v="51113" />
	</node>
	<node lat="62.132580559456564" lon="9.152147216935223" id="-20576">
		<tag k="name" v="Lurven" />
		<tag k="natural" v="hill" />
		<tag k="place" v="locality" />
		<tag k="ssr:stedsnr" v="51123" />
	</node>
	<node lat="62.08613333399456" lon="9.659697216358452" id="-20577">
		<tag k="name" v="Langhaug" />
		<tag k="natural" v="hill" />
		<tag k="place" v="locality" />
		<tag k="ssr:stedsnr" v="51313" />
	</node>
	<node lat="62.086558334428155" lon="9.841630556713993" id="-20578">
		<tag k="name" v="Øvre Paradis" />
		<tag k="natural" v="hill" />
		<tag k="place" v="locality" />
		<tag k="ssr:stedsnr" v="51323" />
	</node>
	<node lat="62.148863884780944" lon="9.332922229177406" id="-20581">
		<tag k="name" v="Killihaugen" />
		<tag k="natural" v="hill" />
		<tag k="place" v="locality" />
		<tag k="ssr:stedsnr" v="51507" />
	</node>
	<node lat="62.03375000272094" lon="9.673580561854484" id="-20583">
		<tag k="name" v="Saltslette" />
		<tag k="place" v="locality" />
		<tag k="ssr:stedsnr" v="51583" />
	</node>
	<node lat="62.03813888543612" lon="9.693822229684567" id="-20584">
		<tag k="name" v="Nedre Benkjin" />
		<tag k="natural" v="slope" />
		<tag k="place" v="locality" />
		<tag k="ssr:stedsnr" v="51586" />
	</node>
	<node lat="62.00880000107119" lon="9.333638894659416" id="-20585">
		<tag k="name" v="Eftansåtunga" />
		<tag k="natural" v="ridge" />
		<tag k="place" v="locality" />
		<tag k="ssr:stedsnr" v="51972" />
	</node>
	<node lat="62.04347499678283" lon="9.259886120151604" id="-20586">
		<tag k="name" v="Nyseterhøe" />
		<tag k="natural" v="hill" />
		<tag k="place" v="locality" />
		<tag k="ssr:stedsnr" v="51985" />
	</node>
	<node lat="62.04707777399638" lon="9.337063883995729" id="-20587">
		<tag k="name" v="Grytholet" />
		<tag k="natural" v="valley" />
		<tag k="place" v="locality" />
		<tag k="ssr:stedsnr" v="51987" />
	</node>
	<node lat="62.21841666600673" lon="9.624802779465462" id="-20590">
		<tag k="fixme" v="consider natural=peak for the most distinct mountains in the district" />
		<tag k="name" v="Hovdun" />
		<tag k="natural" v="hill" />
		<tag k="place" v="locality" />
		<tag k="ssr:stedsnr" v="71541" />
	</node>
	<node lat="62.07797500368777" lon="9.488772228929886" id="-20593">
		<tag k="name" v="Innare Veslberget" />
		<tag k="natural" v="hill" />
		<tag k="place" v="locality" />
		<tag k="ssr:stedsnr" v="71712" />
	</node>
	<node lat="62.07128888468085" lon="9.530308325509328" id="-20594">
		<tag k="fixme" v="consider natural=peak for the most distinct mountains in the district" />
		<tag k="name" v="Gygerhøe" />
		<tag k="natural" v="hill" />
		<tag k="place" v="locality" />
		<tag k="ssr:stedsnr" v="71715" />
	</node>
	<node lat="62.07090555240805" lon="9.68324167181617" id="-20596">
		<tag k="name" v="Stortunga" />
		<tag k="natural" v="ridge" />
		<tag k="place" v="locality" />
		<tag k="ssr:stedsnr" v="71690" />
	</node>
	<node lat="62.06435277584156" lon="9.715049993940081" id="-20597">
		<tag k="fixme" v="consider natural=peak for the most distinct mountains in the district" />
		<tag k="name" v="Storkollen" />
		<tag k="natural" v="hill" />
		<tag k="place" v="locality" />
		<tag k="ssr:stedsnr" v="71693" />
	</node>
	<node lat="62.11503610953213" lon="9.090433323870228" id="-20598">
		<tag k="name" v="Grønbogen" />
		<tag k="natural" v="slope" />
		<tag k="place" v="locality" />
		<tag k="ssr:stedsnr" v="71911" />
	</node>
	<node lat="62.10084722542611" lon="9.257177776833649" id="-20603">
		<tag k="alt_name" v="Hovda;Nordseterhøvda" />
		<tag k="fixme" v="multiple name tags, choose one and add the other to alt_name" />
		<tag k="name" v="Hovdaet;Nordseterhovda" />
		<tag k="natural" v="hill" />
		<tag k="place" v="locality" />
		<tag k="ssr:stedsnr" v="72635" />
	</node>
	<node lat="62.08495132194712" lon="9.347603151575592" id="-20605">
		<tag k="fixme" v="consider natural=peak for the most distinct mountains in the district" />
		<tag k="name" v="Fokstuguhøe" />
		<tag k="natural" v="hill" />
		<tag k="place" v="locality" />
		<tag k="ssr:stedsnr" v="72642" />
	</node>
	<node lat="62.02219722157647" lon="9.103052782088895" id="-20607">
		<tag k="alt_name" v="Møkjalasset, fremre" />
		<tag k="fixme" v="consider natural=peak for the most distinct mountains in the district" />
		<tag k="name" v="Fremre Møkjalasset" />
		<tag k="natural" v="hill" />
		<tag k="place" v="locality" />
		<tag k="ssr:stedsnr" v="72519" />
	</node>
	<node lat="61.943077780503174" lon="9.337619438308773" id="-20613">
		<tag k="name" v="Turrtjønnbotten" />
		<tag k="natural" v="valley" />
		<tag k="place" v="locality" />
		<tag k="ssr:stedsnr" v="72906" />
	</node>
	<node lat="61.94327777437047" lon="9.637202777560331" id="-20614">
		<tag k="fixme" v="consider natural=peak for the most distinct mountains in the district" />
		<tag k="name" v="Snjofonnkroken" />
		<tag k="natural" v="hill" />
		<tag k="place" v="locality" />
		<tag k="ssr:stedsnr" v="80442" />
	</node>
	<node lat="62.0099305579153" lon="9.345491661845251" id="-20621">
		<tag k="name" v="Hondøyra" />
		<tag k="place" v="locality" />
		<tag k="ssr:stedsnr" v="111980" />
	</node>
	<node lat="62.230688888719705" lon="9.60705833439097" id="-20627">
		<tag k="name" v="Brennhøin" />
		<tag k="natural" v="hill" />
		<tag k="place" v="locality" />
		<tag k="ssr:stedsnr" v="112515" />
	</node>
	<node lat="62.24146111142948" lon="9.653122222042176" id="-20628">
		<tag k="name" v="Elgslinosen" />
		<tag k="natural" v="hill" />
		<tag k="place" v="locality" />
		<tag k="ssr:stedsnr" v="112528" />
	</node>
	<node lat="62.193536100600944" lon="9.184031590368944" id="-20633">
		<tag k="name" v="Grøndalen" />
		<tag k="natural" v="valley" />
		<tag k="place" v="locality" />
		<tag k="ssr:stedsnr" v="131704" />
	</node>
	<node lat="62.08600277882451" lon="9.38236943832011" id="-20634">
		<tag k="fixme" v="consider natural=peak for the most distinct mountains in the district" />
		<tag k="name" v="Storhøe" />
		<tag k="natural" v="hill" />
		<tag k="place" v="locality" />
		<tag k="ssr:stedsnr" v="131708" />
	</node>
	<node lat="62.15650833108709" lon="9.614224996296857" id="-20639">
		<tag k="name" v="Veslskardet" />
		<tag k="natural" v="valley" />
		<tag k="place" v="locality" />
		<tag k="ssr:stedsnr" v="132702" />
	</node>
	<node lat="62.182700004148835" lon="9.249880563154795" id="-20640">
		<tag k="fixme" v="consider natural=peak for the most distinct mountains in the district" />
		<tag k="name" v="Knausan" />
		<tag k="natural" v="hill" />
		<tag k="place" v="locality" />
		<tag k="ssr:stedsnr" v="132706" />
	</node>
	<node lat="61.92862500384394" lon="9.684766664749128" id="-20641">
		<tag k="name" v="Verkilsdalen" />
		<tag k="natural" v="valley" />
		<tag k="place" v="locality" />
		<tag k="ssr:stedsnr" v="132667" />
	</node>
	<node lat="61.956836112486776" lon="9.445119437774354" id="-20644">
		<tag k="name" v="Brennhøe" />
		<tag k="natural" v="hill" />
		<tag k="place" v="locality" />
		<tag k="ssr:stedsnr" v="132904" />
	</node>
	<node lat="61.89414910815836" lon="9.353915481693342" id="-20648">
		<tag k="alt_name" v="Måsåhaugen" />
		<tag k="name" v="Sæterhaugen" />
		<tag k="natural" v="hill" />
		<tag k="place" v="locality" />
		<tag k="ssr:stedsnr" v="132970" />
	</node>
	<node lat="61.919083332493" lon="9.257691657760763" id="-20649">
		<tag k="name" v="Skarvet" />
		<tag k="natural" v="hill" />
		<tag k="place" v="locality" />
		<tag k="ssr:stedsnr" v="132867" />
	</node>
	<node lat="61.98190277827239" lon="9.170144435197935" id="-20650">
		<tag k="name" v="Kilikollen" />
		<tag k="natural" v="hill" />
		<tag k="place" v="locality" />
		<tag k="ssr:stedsnr" v="253194" />
	</node>
	<node lat="61.9893250012703" lon="9.157186119440075" id="-20652">
		<tag k="fixme" v="consider natural=peak for the most distinct mountains in the district" />
		<tag k="name" v="Nonshøi" />
		<tag k="natural" v="hill" />
		<tag k="place" v="locality" />
		<tag k="ssr:stedsnr" v="253198" />
	</node>
	<node lat="61.94060833425998" lon="9.831424990730982" id="-20658">
		<tag k="name" v="Galenbotn" />
		<tag k="natural" v="valley" />
		<tag k="place" v="locality" />
		<tag k="ssr:stedsnr" v="253670" />
	</node>
	<node lat="61.95425000107417" lon="9.383438879536978" id="-20661">
		<tag k="name" v="Svartdalen" />
		<tag k="natural" v="valley" />
		<tag k="place" v="locality" />
		<tag k="ssr:stedsnr" v="253911" />
	</node>
	<node lat="62.126797219113094" lon="9.51952222388583" id="-20666">
		<tag k="name" v="Gautdalen" />
		<tag k="natural" v="valley" />
		<tag k="place" v="locality" />
		<tag k="ssr:stedsnr" v="254649" />
	</node>
	<node lat="62.11333610710995" lon="9.302838893912236" id="-20667">
		<tag k="alt_name" v="Smørbollen, indre;Hemare Smørbollin" />
		<tag k="name" v="Indre Smørbollen" />
		<tag k="natural" v="hill" />
		<tag k="place" v="locality" />
		<tag k="ssr:stedsnr" v="254657" />
	</node>
	<node lat="62.15341389248149" lon="9.584386107815298" id="-20672">
		<tag k="fixme" v="consider natural=peak for the most distinct mountains in the district" />
		<tag k="name" v="Tjørnhøi" />
		<tag k="natural" v="hill" />
		<tag k="place" v="locality" />
		<tag k="ssr:stedsnr" v="143812" />
	</node>
	<node lat="62.0646749990307" lon="9.070608326625884" id="-20676">
		<tag k="name" v="Tiurhaugen" />
		<tag k="natural" v="hill" />
		<tag k="place" v="locality" />
		<tag k="ssr:stedsnr" v="171808" />
	</node>
	<node lat="62.047102775094636" lon="9.078452786476996" id="-20677">
		<tag k="name" v="Småkampene" />
		<tag k="natural" v="hill" />
		<tag k="place" v="locality" />
		<tag k="ssr:stedsnr" v="171758" />
	</node>
	<node lat="62.12953889126255" lon="9.202363885219965" id="-20679">
		<tag k="name" v="Nedre Gardsendlia" />
		<tag k="natural" v="slope" />
		<tag k="place" v="locality" />
		<tag k="ssr:stedsnr" v="172060" />
	</node>
	<node lat="62.119963888652585" lon="9.241272216547475" id="-20680">
		<tag k="name" v="Nordre Visarranden" />
		<tag k="natural" v="hill" />
		<tag k="place" v="locality" />
		<tag k="ssr:stedsnr" v="172065" />
	</node>
	<node lat="62.09533055761085" lon="9.149238886833707" id="-20682">
		<tag k="name" v="Krosshovda" />
		<tag k="natural" v="hill" />
		<tag k="place" v="locality" />
		<tag k="ssr:stedsnr" v="172115" />
	</node>
	<node lat="61.94201111506784" lon="9.737175008837045" id="-20692">
		<tag k="fixme" v="consider natural=peak for the most distinct mountains in the district" />
		<tag k="loc_name" v="Nørdre Smedhåmåren" />
		<tag k="name" v="Nørdre Smedhamran" />
		<tag k="natural" v="hill" />
		<tag k="place" v="locality" />
		<tag k="ssr:stedsnr" v="202448" />
	</node>
	<node lat="62.117113889799406" lon="9.655477772039804" id="-20693">
		<tag k="fixme" v="consider natural=peak for the most distinct mountains in the district" />
		<tag k="name" v="Fallfosshøe" />
		<tag k="natural" v="hill" />
		<tag k="place" v="locality" />
		<tag k="ssr:stedsnr" v="204814" />
	</node>
	<node lat="61.92591389209167" lon="9.397697213473064" id="-20697">
		<tag k="name" v="Berget" />
		<tag k="natural" v="hill" />
		<tag k="place" v="locality" />
		<tag k="ssr:stedsnr" v="232829" />
	</node>
	<node lat="62.0782138893794" lon="9.570649997999688" id="-20702">
		<tag k="name" v="Kattugla" />
		<tag k="natural" v="hill" />
		<tag k="place" v="locality" />
		<tag k="ssr:stedsnr" v="233289" />
	</node>
	<node lat="62.05733888538747" lon="9.615497220858185" id="-20703">
		<tag k="name" v="Fålådalsfonne" />
		<tag k="natural" v="valley" />
		<tag k="place" v="locality" />
		<tag k="ssr:stedsnr" v="233299" />
	</node>
	<node lat="62.17868888652299" lon="9.357997225039352" id="-20706">
		<tag k="name" v="Dovrefjell" />
		<tag k="natural" v="mountain_range" />
		<tag k="ssr:stedsnr" v="450696" />
	</node>
	<node lat="62.03721111370605" lon="9.732652776775577" id="-20712">
		<tag k="name" v="Haverdalen" />
		<tag k="natural" v="valley" />
		<tag k="place" v="locality" />
		<tag k="ssr:stedsnr" v="253711" />
	</node>
	<node lat="61.903811091308974" lon="9.848237639216425" id="-20714">
		<tag k="fixme" v="consider natural=peak for the most distinct mountains in the district" />
		<tag k="name" v="Vinjeronden" />
		<tag k="natural" v="hill" />
		<tag k="place" v="locality" />
		<tag k="ssr:stedsnr" v="253739" />
	</node>
	<node lat="62.31982500431795" lon="9.267708342373918" id="-20718">
		<tag k="fixme" v="consider natural=peak for the most distinct mountains in the district" />
		<tag k="name" v="Stortoppen" />
		<tag k="natural" v="hill" />
		<tag k="place" v="locality" />
		<tag k="ssr:stedsnr" v="254513" />
	</node>
	<node lat="61.889305553685034" lon="9.367130558142687" id="-20721">
		<tag k="name" v="Gjeldbakkane" />
		<tag k="natural" v="slope" />
		<tag k="place" v="locality" />
		<tag k="ssr:stedsnr" v="292981" />
	</node>
	<node lat="62.065672222189775" lon="9.221177777595239" id="-20725">
		<tag k="name" v="Hestkneiken" />
		<tag k="natural" v="slope" />
		<tag k="place" v="locality" />
		<tag k="ssr:stedsnr" v="293528" />
	</node>
	<node lat="62.044883333241906" lon="9.379944437584806" id="-20727">
		<tag k="name" v="Steinbekkdalen" />
		<tag k="natural" v="valley" />
		<tag k="place" v="locality" />
		<tag k="ssr:stedsnr" v="293889" />
	</node>
	<node lat="62.07363055110753" lon="9.88965833567862" id="-20733">
		<tag k="fixme" v="consider natural=peak for the most distinct mountains in the district" />
		<tag k="name" v="Ørnhovda" />
		<tag k="natural" v="hill" />
		<tag k="place" v="locality" />
		<tag k="ssr:stedsnr" v="314421" />
	</node>
	<node lat="61.975094446972285" lon="9.356372225884165" id="-20741">
		<tag k="name" v="Stigaflye" />
		<tag k="natural" v="hill" />
		<tag k="place" v="locality" />
		<tag k="ssr:stedsnr" v="314910" />
	</node>
	<node lat="62.05446389128409" lon="9.102291674605103" id="-20753">
		<tag k="name" v="Monshaugen" />
		<tag k="natural" v="hill" />
		<tag k="place" v="locality" />
		<tag k="ssr:stedsnr" v="474795" />
	</node>
	<node lat="62.072277782245045" lon="9.202744444936338" id="-20759">
		<tag k="name" v="Skrebekkehaugene" />
		<tag k="natural" v="hill" />
		<tag k="place" v="locality" />
		<tag k="ssr:stedsnr" v="475105" />
	</node>
	<node lat="62.08930833322688" lon="9.651488886772134" id="-20762">
		<tag k="name" v="Tverrådalen" />
		<tag k="natural" v="valley" />
		<tag k="place" v="locality" />
		<tag k="ssr:stedsnr" v="475276" />
	</node>
	<node lat="62.25922500224601" lon="9.511877783332249" id="-20764">
		<tag k="name" v="Storflye" />
		<tag k="natural" v="hill" />
		<tag k="place" v="locality" />
		<tag k="ssr:stedsnr" v="475392" />
	</node>
	<node lat="62.00496111515478" lon="9.652177778525035" id="-20769">
		<tag k="name" v="Skriudalen" />
		<tag k="natural" v="valley" />
		<tag k="place" v="locality" />
		<tag k="ssr:stedsnr" v="476538" />
	</node>
	<node lat="62.04030555216931" lon="9.876105564960977" id="-20774">
		<tag k="fixme" v="consider natural=peak for the most distinct mountains in the district" />
		<tag k="name" v="Storkringla" />
		<tag k="natural" v="hill" />
		<tag k="place" v="locality" />
		<tag k="ssr:stedsnr" v="374406" />
	</node>
	<node lat="62.187127778020404" lon="9.42521389520163" id="-20778">
		<tag k="name" v="Lispynten" />
		<tag k="natural" v="hill" />
		<tag k="place" v="locality" />
		<tag k="ssr:stedsnr" v="374735" />
	</node>
	<node lat="62.21186666702998" lon="9.3818249923985" id="-20779">
		<tag k="name" v="Grisungdalen" />
		<tag k="natural" v="valley" />
		<tag k="place" v="locality" />
		<tag k="ssr:stedsnr" v="374745" />
	</node>
	<node lat="62.07136111037029" lon="9.655999991602517" id="-20780">
		<tag k="fixme" v="consider natural=peak for the most distinct mountains in the district" />
		<tag k="name" v="Sjøberget" />
		<tag k="natural" v="hill" />
		<tag k="place" v="locality" />
		<tag k="ssr:stedsnr" v="374635" />
	</node>
	<node lat="61.92943889208135" lon="9.764472223128399" id="-20781">
		<tag k="alt_name" v="Hammaren, austre" />
		<tag k="fixme" v="consider natural=peak for the most distinct mountains in the district" />
		<tag k="name" v="Austre Hammaren" />
		<tag k="natural" v="hill" />
		<tag k="place" v="locality" />
		<tag k="ssr:stedsnr" v="374643" />
	</node>
	<node lat="61.922213884997404" lon="9.657938889908824" id="-20783">
		<tag k="name" v="Løyftet" />
		<tag k="natural" v="valley" />
		<tag k="place" v="locality" />
		<tag k="ssr:stedsnr" v="374648" />
	</node>
	<node lat="61.91324381352389" lon="9.665941124903659" id="-20785">
		<tag k="fixme" v="consider natural=peak for the most distinct mountains in the district" />
		<tag k="loc_name" v="Sagtinden" />
		<tag k="name" v="Sagtindan" />
		<tag k="natural" v="hill" />
		<tag k="place" v="locality" />
		<tag k="ssr:stedsnr" v="374650" />
	</node>
	<node lat="62.09405833647095" lon="9.30243056268669" id="-20787">
		<tag k="alt_name" v="Gråhø" />
		<tag k="fixme" v="consider natural=peak for the most distinct mountains in the district" />
		<tag k="name" v="Gråhøi" />
		<tag k="natural" v="hill" />
		<tag k="place" v="locality" />
		<tag k="ssr:stedsnr" v="374692" />
	</node>
	<node lat="61.97411111159636" lon="9.3060750044121" id="-20789">
		<tag k="name" v="Gammelsæterhovda" />
		<tag k="natural" v="hill" />
		<tag k="place" v="locality" />
		<tag k="ssr:stedsnr" v="374933" />
	</node>
	<node lat="61.90585555211937" lon="9.265669441710864" id="-20791">
		<tag k="fixme" v="consider natural=peak for the most distinct mountains in the district" />
		<tag k="name" v="Veslrundhøe" />
		<tag k="natural" v="hill" />
		<tag k="place" v="locality" />
		<tag k="ssr:stedsnr" v="374993" />
	</node>
	<node lat="62.095086114117564" lon="9.239891664086427" id="-20794">
		<tag k="alt_name" v="Nordseterranden;Nordseterrandene" />
		<tag k="name" v="Nordsæterranden" />
		<tag k="natural" v="hill" />
		<tag k="place" v="locality" />
		<tag k="ssr:stedsnr" v="375630" />
	</node>
	<node lat="62.16684166774549" lon="9.592300001365983" id="-20796">
		<tag k="fixme" v="consider natural=peak for the most distinct mountains in the district" />
		<tag k="name" v="Storhøe" />
		<tag k="natural" v="hill" />
		<tag k="place" v="locality" />
		<tag k="ssr:stedsnr" v="375691" />
	</node>
	<node lat="61.92928956143149" lon="9.764620389534489" id="-20800">
		<tag k="fixme" v="consider natural=peak for the most distinct mountains in the district" />
		<tag k="loc_name" v="Austre Smedhåmåren" />
		<tag k="name" v="Austre Smedhamran" />
		<tag k="natural" v="hill" />
		<tag k="place" v="locality" />
		<tag k="ssr:stedsnr" v="383461" />
	</node>
	<node lat="61.95260278038825" lon="9.722808325853313" id="-20804">
		<tag k="name" v="Smedkinnin" />
		<tag k="place" v="locality" />
		<tag k="ssr:stedsnr" v="406057" />
	</node>
	<node lat="61.98793611417154" lon="9.201427785993936" id="-20807">
		<tag k="name" v="Ragnhildsgjelet" />
		<tag k="natural" v="valley" />
		<tag k="place" v="locality" />
		<tag k="ssr:stedsnr" v="414703" />
	</node>
	<node lat="62.1267388853713" lon="9.162022227631871" id="-20810">
		<tag k="name" v="Vetlliranden" />
		<tag k="natural" v="hill" />
		<tag k="place" v="locality" />
		<tag k="ssr:stedsnr" v="415116" />
	</node>
	<node lat="62.036980557557904" lon="9.725561110982941" id="-20816">
		<tag k="name" v="Storøye" />
		<tag k="place" v="locality" />
		<tag k="ssr:stedsnr" v="415579" />
	</node>
	<node lat="62.02862500362958" lon="9.41254166996514" id="-20817">
		<tag k="name" v="Knarten" />
		<tag k="natural" v="hill" />
		<tag k="place" v="locality" />
		<tag k="ssr:stedsnr" v="415891" />
	</node>
	<node lat="62.006780552154574" lon="9.415250005387843" id="-20819">
		<tag k="alt_name" v="Einsetkollen" />
		<tag k="fixme" v="consider natural=peak for the most distinct mountains in the district" />
		<tag k="name" v="Einsetkollan" />
		<tag k="natural" v="hill" />
		<tag k="place" v="locality" />
		<tag k="ssr:stedsnr" v="435364" />
	</node>
	<node lat="62.08810555848079" lon="9.27669721724332" id="-20822">
		<tag k="fixme" v="consider natural=peak for the most distinct mountains in the district" />
		<tag k="name" v="Gråhøranden" />
		<tag k="natural" v="hill" />
		<tag k="place" v="locality" />
		<tag k="ssr:stedsnr" v="436631" />
	</node>
	<node lat="62.12141111239293" lon="9.33554445233617" id="-20824">
		<tag k="fixme" v="consider natural=peak for the most distinct mountains in the district" />
		<tag k="name" v="Veslhøe" />
		<tag k="natural" v="hill" />
		<tag k="place" v="locality" />
		<tag k="ssr:stedsnr" v="436661" />
	</node>
	<node lat="62.15173055653217" lon="9.361649998366257" id="-20826">
		<tag k="name" v="Furuhauglie" />
		<tag k="natural" v="slope" />
		<tag k="place" v="locality" />
		<tag k="ssr:stedsnr" v="436671" />
	</node>
	<node lat="62.10278889231951" lon="9.425572219576415" id="-20831">
		<tag k="name" v="Vasskillet" />
		<tag k="place" v="locality" />
		<tag k="ssr:stedsnr" v="447808" />
	</node>
	<node lat="61.910863889215044" lon="9.342413897475913" id="-20832">
		<tag k="name" v="Restflaten" />
		<tag k="place" v="locality" />
		<tag k="ssr:stedsnr" v="461709" />
	</node>
	<node lat="62.13207777619375" lon="9.129016666491623" id="-20837">
		<tag k="name" v="Sjafsranden" />
		<tag k="natural" v="hill" />
		<tag k="place" v="locality" />
		<tag k="ssr:stedsnr" v="475118" />
	</node>
	<node lat="62.14009166811994" lon="9.292075009109961" id="-20840">
		<tag k="name" v="Ulveranden" />
		<tag k="natural" v="hill" />
		<tag k="place" v="locality" />
		<tag k="ssr:stedsnr" v="475464" />
	</node>
	<node lat="62.007074998548354" lon="9.195352770092027" id="-20843">
		<tag k="name" v="Nonshaugen" />
		<tag k="natural" v="hill" />
		<tag k="place" v="locality" />
		<tag k="ssr:stedsnr" v="475735" />
	</node>
	<node lat="62.03690833786037" lon="9.352933325329165" id="-20844">
		<tag k="name" v="Svartbekkrandin" />
		<tag k="natural" v="slope" />
		<tag k="place" v="locality" />
		<tag k="ssr:stedsnr" v="475992" />
	</node>
	<node lat="62.054900003992046" lon="9.175100007348735" id="-20847">
		<tag k="name" v="Ormehaugen" />
		<tag k="natural" v="hill" />
		<tag k="place" v="locality" />
		<tag k="ssr:stedsnr" v="678561" />
	</node>
	<node lat="62.05103610893855" lon="9.215408325167768" id="-20848">
		<tag k="alt_name" v="Arnekleivshøin" />
		<tag k="name" v="Arnkleivshøi" />
		<tag k="natural" v="hill" />
		<tag k="place" v="locality" />
		<tag k="ssr:stedsnr" v="678563" />
	</node>
	<node lat="62.025508334089544" lon="9.300355553661133" id="-20850">
		<tag k="name" v="Einbuggdalen" />
		<tag k="natural" v="valley" />
		<tag k="place" v="locality" />
		<tag k="ssr:stedsnr" v="678625" />
	</node>
	<node lat="62.015824999719605" lon="9.317580564967717" id="-20853">
		<tag k="alt_name" v="Vardhøe" />
		<tag k="fixme" v="consider natural=peak for the most distinct mountains in the district" />
		<tag k="name" v="Vardhøi" />
		<tag k="natural" v="hill" />
		<tag k="place" v="locality" />
		<tag k="ssr:stedsnr" v="678638" />
	</node>
	<node lat="62.02183611265316" lon="9.345913896195007" id="-20854">
		<tag k="alt_name" v="Hemmare Skardet" />
		<tag k="name" v="Heimare Skardet" />
		<tag k="natural" v="valley" />
		<tag k="old_name" v="Skardet, heimre" />
		<tag k="place" v="locality" />
		<tag k="ssr:stedsnr" v="678639" />
	</node>
	<node lat="62.068213888058516" lon="9.699047224549297" id="-20859">
		<tag k="alt_name" v="Veslekollen" />
		<tag k="fixme" v="consider natural=peak for the most distinct mountains in the district" />
		<tag k="name" v="Veslkollen" />
		<tag k="natural" v="hill" />
		<tag k="place" v="locality" />
		<tag k="ssr:stedsnr" v="678650" />
	</node>
	<node lat="62.10155277891607" lon="9.473141659034143" id="-20861">
		<tag k="fixme" v="consider natural=peak for the most distinct mountains in the district" />
		<tag k="name" v="Halvfarhøe" />
		<tag k="natural" v="hill" />
		<tag k="place" v="locality" />
		<tag k="ssr:stedsnr" v="678666" />
	</node>
	<node lat="61.910449997626316" lon="9.243486106227508" id="-20867">
		<tag k="fixme" v="consider natural=peak for the most distinct mountains in the district" />
		<tag k="name" v="Jetta" />
		<tag k="natural" v="hill" />
		<tag k="place" v="locality" />
		<tag k="ssr:stedsnr" v="678867" />
	</node>
	<node lat="62.27326111005434" lon="9.686433328601424" id="-20868">
		<tag k="alt_name" v="Armodshøin" />
		<tag k="fixme" v="consider natural=peak for the most distinct mountains in the district" />
		<tag k="loc_name" v="Armodshøe" />
		<tag k="name" v="Armodshøi" />
		<tag k="natural" v="hill" />
		<tag k="place" v="locality" />
		<tag k="ssr:stedsnr" v="679457" />
	</node>
	<node lat="62.28644999758886" lon="9.771022222057876" id="-20869">
		<tag k="name" v="Råtåhaugen" />
		<tag k="natural" v="hill" />
		<tag k="place" v="locality" />
		<tag k="ssr:stedsnr" v="679658" />
	</node>
	<node lat="62.03560555117197" lon="9.521538887352845" id="-20870">
		<tag k="fixme" v="consider natural=peak for the most distinct mountains in the district" />
		<tag k="name" v="Bottkollen" />
		<tag k="natural" v="hill" />
		<tag k="place" v="locality" />
		<tag k="ssr:stedsnr" v="495658" />
	</node>
	<node lat="61.99765278008526" lon="9.538744439330427" id="-20873">
		<tag k="fixme" v="consider natural=peak for the most distinct mountains in the district" />
		<tag k="name" v="Hornsjøhøe" />
		<tag k="natural" v="hill" />
		<tag k="place" v="locality" />
		<tag k="ssr:stedsnr" v="496417" />
	</node>
	<node lat="62.31984166572279" lon="9.267688886904793" id="-20876">
		<tag k="fixme" v="consider natural=peak for the most distinct mountains in the district" />
		<tag k="name" v="Snøhetta" />
		<tag k="natural" v="hill" />
		<tag k="place" v="locality" />
		<tag k="ssr:stedsnr" v="496561" />
	</node>
	<node lat="62.162669447844486" lon="9.259472216866989" id="-20880">
		<tag k="loc_name" v="Storliranden" />
		<tag k="name" v="Falkeranden" />
		<tag k="natural" v="hill" />
		<tag k="old_name" v="Falkranden" />
		<tag k="place" v="locality" />
		<tag k="ssr:stedsnr" v="496713" />
	</node>
	<node lat="62.12311110970963" lon="9.557586115173118" id="-20882">
		<tag k="fixme" v="consider natural=peak for the most distinct mountains in the district" />
		<tag k="name" v="Gråhøe" />
		<tag k="natural" v="hill" />
		<tag k="place" v="locality" />
		<tag k="ssr:stedsnr" v="496700" />
	</node>
	<node lat="61.95716388844941" lon="9.364811115009113" id="-20883">
		<tag k="name" v="Skardet" />
		<tag k="natural" v="valley" />
		<tag k="place" v="locality" />
		<tag k="ssr:stedsnr" v="496897" />
	</node>
	<node lat="61.954263888698094" lon="9.218416660608764" id="-20884">
		<tag k="name" v="Nonshaugen" />
		<tag k="natural" v="hill" />
		<tag k="place" v="locality" />
		<tag k="ssr:stedsnr" v="496899" />
	</node>
	<node lat="62.15203889237733" lon="9.186616661460583" id="-20888">
		<tag k="alt_name" v="Kringluthø" />
		<tag k="fixme" v="consider natural=peak for the most distinct mountains in the district" />
		<tag k="name" v="Kringluthøi" />
		<tag k="natural" v="hill" />
		<tag k="place" v="locality" />
		<tag k="ssr:stedsnr" v="496908" />
	</node>
	<node lat="61.95746111116036" lon="9.577380557509688" id="-20890">
		<tag k="fixme" v="consider natural=peak for the most distinct mountains in the district" />
		<tag k="name" v="Falketinden" />
		<tag k="natural" v="hill" />
		<tag k="place" v="locality" />
		<tag k="ssr:stedsnr" v="496911" />
	</node>
	<node lat="61.92923055975276" lon="9.255849999102525" id="-20892">
		<tag k="name" v="Djupdalen" />
		<tag k="natural" v="valley" />
		<tag k="place" v="locality" />
		<tag k="ssr:stedsnr" v="522646" />
	</node>
	<node lat="62.11538888686141" lon="9.090866674567744" id="-20898">
		<tag k="name" v="Tunneltaket" />
		<tag k="natural" v="slope" />
		<tag k="place" v="locality" />
		<tag k="ssr:stedsnr" v="535967" />
	</node>
	<node lat="62.13446111492953" lon="9.128155559974582" id="-20902">
		<tag k="name" v="Skardet" />
		<tag k="natural" v="valley" />
		<tag k="place" v="locality" />
		<tag k="ssr:stedsnr" v="536124" />
	</node>
	<node lat="61.99141110924552" lon="9.13664167590108" id="-20910">
		<tag k="fixme" v="consider natural=peak for the most distinct mountains in the district" />
		<tag k="name" v="Mereftashøi" />
		<tag k="natural" v="hill" />
		<tag k="place" v="locality" />
		<tag k="ssr:stedsnr" v="556205" />
	</node>
	<node lat="62.050100001973185" lon="9.054669449133108" id="-20912">
		<tag k="fixme" v="consider natural=peak for the most distinct mountains in the district" />
		<tag k="name" v="Hardeggkampen" />
		<tag k="natural" v="hill" />
		<tag k="place" v="locality" />
		<tag k="ssr:stedsnr" v="556606" />
	</node>
	<node lat="62.07040277779321" lon="9.18219444934112" id="-20913">
		<tag k="alt_name" v="Hjellhø" />
		<tag k="fixme" v="consider natural=peak for the most distinct mountains in the district" />
		<tag k="name" v="Hjellhøi" />
		<tag k="natural" v="hill" />
		<tag k="place" v="locality" />
		<tag k="ssr:stedsnr" v="556617" />
	</node>
	<node lat="61.96591110920049" lon="9.619886110822545" id="-20914">
		<tag k="name" v="Dørålflye" />
		<tag k="place" v="locality" />
		<tag k="ssr:stedsnr" v="556658" />
	</node>
	<node lat="62.114405556919785" lon="9.376952777035354" id="-20920">
		<tag k="name" v="Øykjesvedalen" />
		<tag k="natural" v="valley" />
		<tag k="place" v="locality" />
		<tag k="ssr:stedsnr" v="557650" />
	</node>
	<node lat="61.9017194467148" lon="9.33974999889608" id="-20926">
		<tag k="name" v="Lokkarsletta" />
		<tag k="place" v="locality" />
		<tag k="ssr:stedsnr" v="582708" />
	</node>
	<node lat="62.06418610968068" lon="9.125583333620824" id="-20927">
		<tag k="fixme" v="consider natural=peak for the most distinct mountains in the district" />
		<tag k="name" v="Holaberget" />
		<tag k="natural" v="hill" />
		<tag k="place" v="locality" />
		<tag k="ssr:stedsnr" v="596407" />
	</node>
	<node lat="62.00443333544683" lon="9.27778333340061" id="-20930">
		<tag k="name" v="Storhovda" />
		<tag k="natural" v="hill" />
		<tag k="place" v="locality" />
		<tag k="ssr:stedsnr" v="597500" />
	</node>
	<node lat="61.952038886505036" lon="9.243349998225103" id="-20932">
		<tag k="name" v="Bråtan" />
		<tag k="natural" v="slope" />
		<tag k="place" v="locality" />
		<tag k="ssr:stedsnr" v="597671" />
	</node>
	<node lat="62.050194444782846" lon="9.18752777603444" id="-20933">
		<tag k="name" v="Veslehaug" />
		<tag k="natural" v="hill" />
		<tag k="place" v="locality" />
		<tag k="ssr:stedsnr" v="597912" />
	</node>
	<node lat="61.99059999838605" lon="9.185919436134757" id="-20934">
		<tag k="alt_name" v="Skarkollen" />
		<tag k="name" v="Skardkollan" />
		<tag k="natural" v="hill" />
		<tag k="place" v="locality" />
		<tag k="ssr:stedsnr" v="617205" />
	</node>
	<node lat="61.97004722013014" lon="9.09248610462198" id="-20935">
		<tag k="fixme" v="consider natural=peak for the most distinct mountains in the district" />
		<tag k="loc_name" v="Skardshøe" />
		<tag k="name" v="Skardshøi" />
		<tag k="natural" v="hill" />
		<tag k="place" v="locality" />
		<tag k="ssr:stedsnr" v="617215" />
	</node>
	<node lat="62.13570833739193" lon="9.352575001670942" id="-20943">
		<tag k="fixme" v="consider natural=peak for the most distinct mountains in the district" />
		<tag k="name" v="Langranden" />
		<tag k="natural" v="hill" />
		<tag k="place" v="locality" />
		<tag k="ssr:stedsnr" v="617683" />
	</node>
	<node lat="61.98883055675756" lon="9.81092500447083" id="-20945">
		<tag k="name" v="Vidjedalen" />
		<tag k="natural" v="valley" />
		<tag k="place" v="locality" />
		<tag k="ssr:stedsnr" v="617689" />
	</node>
	<node lat="62.12563610694166" lon="9.36110278722579" id="-20946">
		<tag k="name" v="Klevaholet" />
		<tag k="natural" v="valley" />
		<tag k="place" v="locality" />
		<tag k="ssr:stedsnr" v="617690" />
	</node>
	<node lat="61.99556632532831" lon="9.74541689777592" id="-20950">
		<tag k="name" v="Småhaugan" />
		<tag k="natural" v="hill" />
		<tag k="place" v="locality" />
		<tag k="ssr:stedsnr" v="617698" />
	</node>
	<node lat="61.994724995690596" lon="9.598155553432761" id="-20951">
		<tag k="name" v="Haverdalen" />
		<tag k="natural" v="valley" />
		<tag k="place" v="locality" />
		<tag k="ssr:stedsnr" v="617699" />
	</node>
	<node lat="61.9026027795037" lon="9.305388892395454" id="-20954">
		<tag k="name" v="Veslhøe" />
		<tag k="natural" v="hill" />
		<tag k="place" v="locality" />
		<tag k="ssr:stedsnr" v="617996" />
	</node>
	<node lat="62.118936108928104" lon="9.395194441902897" id="-20955">
		<tag k="fixme" v="consider natural=peak for the most distinct mountains in the district" />
		<tag k="name" v="Piggen" />
		<tag k="natural" v="hill" />
		<tag k="place" v="locality" />
		<tag k="ssr:stedsnr" v="628804" />
	</node>
	<node lat="61.90840277454786" lon="9.34918612048037" id="-20958">
		<tag k="name" v="Småheggene" />
		<tag k="natural" v="hill" />
		<tag k="place" v="locality" />
		<tag k="ssr:stedsnr" v="643678" />
	</node>
	<node lat="62.03608888472416" lon="9.144030550968107" id="-20962">
		<tag k="name" v="Bjørnlia" />
		<tag k="natural" v="slope" />
		<tag k="place" v="locality" />
		<tag k="ssr:stedsnr" v="657309" />
	</node>
	<node lat="62.03354167027911" lon="9.140511104755287" id="-20963">
		<tag k="name" v="Møllerhaugen" />
		<tag k="natural" v="hill" />
		<tag k="place" v="locality" />
		<tag k="ssr:stedsnr" v="657310" />
	</node>
	<node lat="62.01661944381422" lon="9.244986102377174" id="-20969">
		<tag k="name" v="Silisberget" />
		<tag k="natural" v="hill" />
		<tag k="place" v="locality" />
		<tag k="ssr:stedsnr" v="658484" />
	</node>
	<node lat="61.95934444548489" lon="9.107325007058245" id="-20971">
		<tag k="fixme" v="consider natural=peak for the most distinct mountains in the district" />
		<tag k="name" v="Raudnebb" />
		<tag k="natural" v="hill" />
		<tag k="place" v="locality" />
		<tag k="ssr:stedsnr" v="678183" />
	</node>
	<node lat="61.9914611134742" lon="9.567811110359676" id="-20974">
		<tag k="name" v="Raudhamran" />
		<tag k="natural" v="hill" />
		<tag k="place" v="locality" />
		<tag k="ssr:stedsnr" v="678418" />
	</node>
	<node lat="62.22606110706703" lon="9.492124991121637" id="-20975">
		<tag k="fixme" v="consider natural=peak for the most distinct mountains in the district" />
		<tag k="name" v="Tverrfjellet" />
		<tag k="natural" v="hill" />
		<tag k="place" v="locality" />
		<tag k="ssr:stedsnr" v="678510" />
	</node>
	<node lat="62.06731667005311" lon="9.601624997855208" id="-20980">
		<tag k="fixme" v="consider natural=peak for the most distinct mountains in the district" />
		<tag k="name" v="Storberget" />
		<tag k="natural" v="hill" />
		<tag k="place" v="locality" />
		<tag k="ssr:stedsnr" v="678672" />
	</node>
	<node lat="62.07038055638673" lon="9.628616668770706" id="-20981">
		<tag k="name" v="Grimsdalen" />
		<tag k="natural" v="valley" />
		<tag k="place" v="locality" />
		<tag k="ssr:stedsnr" v="678673" />
	</node>
	<node lat="62.129352777285945" lon="9.4488111118987" id="-20982">
		<tag k="fixme" v="consider natural=peak for the most distinct mountains in the district" />
		<tag k="name" v="Falketind" />
		<tag k="natural" v="hill" />
		<tag k="place" v="locality" />
		<tag k="ssr:stedsnr" v="678674" />
	</node>
	<node lat="62.117561107252165" lon="9.311005553818411" id="-20983">
		<tag k="alt_name" v="Smørbollen, ytre;Ytre Smørbollin" />
		<tag k="name" v="Ytre Smørbollen" />
		<tag k="natural" v="hill" />
		<tag k="place" v="locality" />
		<tag k="ssr:stedsnr" v="678680" />
	</node>
	<node lat="62.11537500423848" lon="9.401822228928765" id="-20984">
		<tag k="name" v="Hyttdalen" />
		<tag k="natural" v="valley" />
		<tag k="place" v="locality" />
		<tag k="ssr:stedsnr" v="678685" />
	</node>
	<node lat="62.11462777621876" lon="9.136580564220576" id="-20986">
		<tag k="name" v="Turrhaugen" />
		<tag k="natural" v="hill" />
		<tag k="place" v="locality" />
		<tag k="ssr:stedsnr" v="678872" />
	</node>
	<node lat="61.93275833122456" lon="9.414363880293747" id="-20989">
		<tag k="name" v="Grasflye" />
		<tag k="natural" v="slope" />
		<tag k="place" v="locality" />
		<tag k="ssr:stedsnr" v="678894" />
	</node>
	<node lat="61.91105833726785" lon="9.403574998624979" id="-20994">
		<tag k="name" v="Snauhaugen" />
		<tag k="natural" v="hill" />
		<tag k="place" v="locality" />
		<tag k="ssr:stedsnr" v="678981" />
	</node>
	<node lat="62.07281944890715" lon="9.209874992316129" id="-21005">
		<tag k="name" v="Veslehø" />
		<tag k="natural" v="hill" />
		<tag k="place" v="locality" />
		<tag k="ssr:stedsnr" v="718118" />
	</node>
	<node lat="62.06373610947693" lon="9.155486113340313" id="-21010">
		<tag k="name" v="Kroksbakkene" />
		<tag k="natural" v="slope" />
		<tag k="place" v="locality" />
		<tag k="ssr:stedsnr" v="718525" />
	</node>
	<node lat="62.14387222157621" lon="9.342488885429452" id="-21011">
		<tag k="name" v="Storhuset" />
		<tag k="natural" v="hill" />
		<tag k="place" v="locality" />
		<tag k="ssr:stedsnr" v="718481" />
	</node>
	<node lat="61.92825833774769" lon="9.380047228875165" id="-21013">
		<tag k="alt_name" v="Nordre Slådalen" />
		<tag k="name" v="Nørdre Slådalen" />
		<tag k="natural" v="valley" />
		<tag k="place" v="locality" />
		<tag k="ssr:stedsnr" v="718824" />
	</node>
	<node lat="61.92085278041961" lon="9.378894450553984" id="-21015">
		<tag k="name" v="Bjørkerusta" />
		<tag k="natural" v="slope" />
		<tag k="place" v="locality" />
		<tag k="ssr:stedsnr" v="718779" />
	</node>
	<node lat="62.061450000262475" lon="9.233836118306382" id="-21021">
		<tag k="name" v="Sauhansstugu" />
		<tag k="place" v="locality" />
		<tag k="ssr:stedsnr" v="900288" />
	</node>
	<node lat="62.19409166878214" lon="9.543994451340177" id="-21027">
		<tag k="name" v="Hytthaug" />
		<tag k="natural" v="hill" />
		<tag k="place" v="locality" />
		<tag k="ssr:stedsnr" v="901239" />
	</node>
	<node lat="62.180216670160696" lon="9.557344442339176" id="-21029">
		<tag k="name" v="Gautådalen" />
		<tag k="natural" v="valley" />
		<tag k="place" v="locality" />
		<tag k="ssr:stedsnr" v="901509" />
	</node>
	<node lat="61.9733138858401" lon="9.21112500937657" id="-21032">
		<tag k="name" v="Seterbakken" />
		<tag k="natural" v="slope" />
		<tag k="place" v="locality" />
		<tag k="ssr:stedsnr" v="901743" />
	</node>
	<node lat="61.9515083341719" lon="9.22618333902276" id="-21033">
		<tag k="name" v="Jøndalsberget" />
		<tag k="natural" v="hill" />
		<tag k="place" v="locality" />
		<tag k="ssr:stedsnr" v="901748" />
	</node>
	<node lat="61.99178611490711" lon="9.689397215774443" id="-21037">
		<tag k="name" v="Storåtdalen" />
		<tag k="natural" v="valley" />
		<tag k="place" v="locality" />
		<tag k="ssr:stedsnr" v="738697" />
	</node>
	<node lat="61.986877774236234" lon="9.117461116766796" id="-21038">
		<tag k="name" v="Muslidalen" />
		<tag k="natural" v="valley" />
		<tag k="place" v="locality" />
		<tag k="ssr:stedsnr" v="739151" />
	</node>
	<node lat="61.95275555964163" lon="9.58410556366905" id="-21042">
		<tag k="name" v="Djupdalen" />
		<tag k="natural" v="valley" />
		<tag k="place" v="locality" />
		<tag k="ssr:stedsnr" v="739902" />
	</node>
	<node lat="62.18452500231736" lon="9.58394444096083" id="-21058">
		<tag k="fixme" v="consider natural=peak for the most distinct mountains in the district" />
		<tag k="name" v="Veslhjerkinnshøe" />
		<tag k="natural" v="hill" />
		<tag k="place" v="locality" />
		<tag k="ssr:stedsnr" v="799754" />
	</node>
	<node lat="61.96903611152009" lon="9.816194446380786" id="-21059">
		<tag k="name" v="Vidjedalsflye" />
		<tag k="place" v="locality" />
		<tag k="ssr:stedsnr" v="799648" />
	</node>
	<node lat="62.14690277791138" lon="9.172599991507868" id="-21060">
		<tag k="name" v="Bekkeslågån" />
		<tag k="natural" v="hill" />
		<tag k="place" v="locality" />
		<tag k="ssr:stedsnr" v="799932" />
	</node>
	<node lat="62.1410249999621" lon="9.437247227369241" id="-21063">
		<tag k="fixme" v="consider natural=peak for the most distinct mountains in the district" />
		<tag k="name" v="Blåberget" />
		<tag k="natural" v="hill" />
		<tag k="place" v="locality" />
		<tag k="ssr:stedsnr" v="800676" />
	</node>
	<node lat="61.97950000402552" lon="9.399422227518015" id="-21066">
		<tag k="name" v="Rundhaugen" />
		<tag k="natural" v="hill" />
		<tag k="place" v="locality" />
		<tag k="ssr:stedsnr" v="800925" />
	</node>
	<node lat="61.96650277571596" lon="9.355966672074192" id="-21068">
		<tag k="name" v="Vardfjellet" />
		<tag k="natural" v="hill" />
		<tag k="place" v="locality" />
		<tag k="ssr:stedsnr" v="800930" />
	</node>
	<node lat="62.09250833721774" lon="9.813950000074604" id="-21070">
		<tag k="alt_name" v="Kyrkja" />
		<tag k="name" v="Tollevshaugkyrkja" />
		<tag k="natural" v="hill" />
		<tag k="place" v="locality" />
		<tag k="ssr:stedsnr" v="920479" />
	</node>
	<node lat="61.98104722480809" lon="9.602050004489184" id="-21071">
		<tag k="name" v="Kluftin" />
		<tag k="natural" v="valley" />
		<tag k="place" v="locality" />
		<tag k="ssr:stedsnr" v="920631" />
	</node>
	<node lat="62.02425555829796" lon="9.446791673820252" id="-21078">
		<tag k="fixme" v="consider natural=peak for the most distinct mountains in the district" />
		<tag k="name" v="Einsethøe" />
		<tag k="natural" v="hill" />
		<tag k="place" v="locality" />
		<tag k="ssr:stedsnr" v="921645" />
	</node>
	<node lat="62.02208333082488" lon="9.08750000087053" id="-21083">
		<tag k="alt_name" v="Møkjalasset, indre" />
		<tag k="fixme" v="consider natural=peak for the most distinct mountains in the district" />
		<tag k="name" v="Indre Møkjalasset" />
		<tag k="natural" v="hill" />
		<tag k="place" v="locality" />
		<tag k="ssr:stedsnr" v="921564" />
	</node>
	<node lat="62.30918610699034" lon="9.391908326160388" id="-21084">
		<tag k="fixme" v="consider natural=peak for the most distinct mountains in the district" />
		<tag k="name" v="Tvillingkollan" />
		<tag k="natural" v="hill" />
		<tag k="place" v="locality" />
		<tag k="ssr:stedsnr" v="921573" />
	</node>
	<node lat="62.045724997723" lon="9.435855555710003" id="-21090">
		<tag k="fixme" v="consider natural=peak for the most distinct mountains in the district" />
		<tag k="name" v="Gråsida" />
		<tag k="natural" v="hill" />
		<tag k="place" v="locality" />
		<tag k="ssr:stedsnr" v="921667" />
	</node>
	<node lat="61.91658332932694" lon="9.756966672698288" id="-21091">
		<tag k="fixme" v="consider natural=peak for the most distinct mountains in the district" />
		<tag k="name" v="Veslesmeden" />
		<tag k="natural" v="hill" />
		<tag k="place" v="locality" />
		<tag k="ssr:stedsnr" v="921668" />
	</node>
	<node lat="61.930913893323996" lon="9.660186120580986" id="-21092">
		<tag k="name" v="Slettløyftet" />
		<tag k="natural" v="valley" />
		<tag k="place" v="locality" />
		<tag k="ssr:stedsnr" v="921670" />
	</node>
	<node lat="62.20856389137586" lon="9.46387777887666" id="-21095">
		<tag k="alt_name" v="Breiskardet" />
		<tag k="name" v="Breidskardet" />
		<tag k="natural" v="valley" />
		<tag k="place" v="locality" />
		<tag k="ssr:stedsnr" v="921758" />
	</node>
	<node lat="62.16677500317298" lon="9.201291675674556" id="-21103">
		<tag k="fixme" v="consider natural=peak for the most distinct mountains in the district" />
		<tag k="loc_name" v="Storhøe" />
		<tag k="name" v="Storhøi" />
		<tag k="natural" v="hill" />
		<tag k="place" v="locality" />
		<tag k="ssr:stedsnr" v="921895" />
	</node>
	<node lat="61.982577775459276" lon="9.346713895733856" id="-21105">
		<tag k="name" v="Steinhovda" />
		<tag k="natural" v="hill" />
		<tag k="place" v="locality" />
		<tag k="ssr:stedsnr" v="826604" />
	</node>
	<node lat="61.88972499561577" lon="9.364750005207377" id="-21107">
		<tag k="alt_name" v="Kjempedalen" />
		<tag k="name" v="Kampedalen" />
		<tag k="natural" v="hill" />
		<tag k="place" v="locality" />
		<tag k="ssr:stedsnr" v="921968" />
	</node>
	<node lat="61.9488472238217" lon="9.243049992507537" id="-21114">
		<tag k="name" v="Brysjubakkan" />
		<tag k="natural" v="slope" />
		<tag k="place" v="locality" />
		<tag k="ssr:stedsnr" v="840678" />
	</node>
	<node lat="61.95182777825869" lon="9.24545833752161" id="-21115">
		<tag k="fixme" v="consider natural=peak for the most distinct mountains in the district" />
		<tag k="name" v="Kollen" />
		<tag k="natural" v="hill" />
		<tag k="place" v="locality" />
		<tag k="ssr:stedsnr" v="840680" />
	</node>
	<node lat="62.01665832942575" lon="9.064388882826918" id="-21119">
		<tag k="alt_name" v="Langhøi, fremre" />
		<tag k="fixme" v="consider natural=peak for the most distinct mountains in the district" />
		<tag k="name" v="Fremre Langhøi" />
		<tag k="natural" v="hill" />
		<tag k="place" v="locality" />
		<tag k="ssr:stedsnr" v="860573" />
	</node>
	<node lat="62.04437777530786" lon="9.905499990916713" id="-21120">
		<tag k="fixme" v="consider natural=peak for the most distinct mountains in the district" />
		<tag k="name" v="Kalven" />
		<tag k="natural" v="hill" />
		<tag k="place" v="locality" />
		<tag k="ssr:stedsnr" v="860462" />
	</node>
	<node lat="62.204694445863844" lon="9.315941671973162" id="-21123">
		<tag k="fixme" v="consider natural=peak for the most distinct mountains in the district" />
		<tag k="name" v="Knarthøe" />
		<tag k="natural" v="hill" />
		<tag k="place" v="locality" />
		<tag k="ssr:stedsnr" v="860760" />
	</node>
	<node lat="62.212647218190774" lon="9.539433338956325" id="-21125">
		<tag k="name" v="Geitberget" />
		<tag k="natural" v="hill" />
		<tag k="place" v="locality" />
		<tag k="ssr:stedsnr" v="860766" />
	</node>
	<node lat="61.945125001654574" lon="9.403163881835553" id="-21127">
		<tag k="name" v="Kuvmillom" />
		<tag k="natural" v="valley" />
		<tag k="place" v="locality" />
		<tag k="ssr:stedsnr" v="860927" />
	</node>
	<node lat="61.94266666845673" lon="9.355169437476217" id="-21128">
		<tag k="name" v="Ryddølsdalen" />
		<tag k="natural" v="valley" />
		<tag k="place" v="locality" />
		<tag k="ssr:stedsnr" v="860929" />
	</node>
	<node lat="61.949183336548515" lon="9.162488879694711" id="-21129">
		<tag k="fixme" v="consider natural=peak for the most distinct mountains in the district" />
		<tag k="name" v="Vakkerdalshøin" />
		<tag k="natural" v="hill" />
		<tag k="place" v="locality" />
		<tag k="ssr:stedsnr" v="861122" />
	</node>
	<node lat="62.01143611161536" lon="9.090163880504942" id="-21130">
		<tag k="name" v="Hellflyi" />
		<tag k="natural" v="hill" />
		<tag k="place" v="locality" />
		<tag k="ssr:stedsnr" v="861503" />
	</node>
	<node lat="62.16751110895363" lon="9.402130556859765" id="-21131">
		<tag k="name" v="Vålåsjøberget" />
		<tag k="natural" v="hill" />
		<tag k="place" v="locality" />
		<tag k="ssr:stedsnr" v="861696" />
	</node>
	<node lat="61.93096111453106" lon="9.236419449241888" id="-21132">
		<tag k="name" v="Veslhøe" />
		<tag k="natural" v="hill" />
		<tag k="place" v="locality" />
		<tag k="ssr:stedsnr" v="861909" />
	</node>
	<node lat="61.92970277846833" lon="9.276599996011548" id="-21134">
		<tag k="name" v="Svartberget" />
		<tag k="natural" v="hill" />
		<tag k="place" v="locality" />
		<tag k="ssr:stedsnr" v="861902" />
	</node>
	<node lat="61.904813889034116" lon="9.321505550246458" id="-21136">
		<tag k="name" v="Falkeranden" />
		<tag k="natural" v="slope" />
		<tag k="place" v="locality" />
		<tag k="ssr:stedsnr" v="886699" />
	</node>
	<node lat="62.01234722300912" lon="9.323933342503839" id="-21143">
		<tag k="name" v="Ljosrandin" />
		<tag k="natural" v="slope" />
		<tag k="place" v="locality" />
		<tag k="ssr:stedsnr" v="900967" />
	</node>
	<node lat="62.01497222532226" lon="9.803886102845293" id="-21148">
		<tag k="name" v="Stygghøe" />
		<tag k="natural" v="hill" />
		<tag k="place" v="locality" />
		<tag k="ssr:stedsnr" v="901307" />
	</node>
	<node lat="61.98103333000308" lon="9.85032777051254" id="-21152">
		<tag k="fixme" v="consider natural=peak for the most distinct mountains in the district" />
		<tag k="name" v="Neverbukollen" />
		<tag k="natural" v="hill" />
		<tag k="place" v="locality" />
		<tag k="ssr:stedsnr" v="920635" />
	</node>
	<node lat="62.24319166426397" lon="9.30514165708982" id="-21153">
		<tag k="fixme" v="consider natural=peak for the most distinct mountains in the district" />
		<tag k="name" v="Einøvlingen" />
		<tag k="natural" v="hill" />
		<tag k="place" v="locality" />
		<tag k="ssr:stedsnr" v="921529" />
	</node>
	<node lat="62.24279721818648" lon="9.578116670630292" id="-21154">
		<tag k="fixme" v="consider natural=peak for the most distinct mountains in the district" />
		<tag k="name" v="Hjerkinnshøe" />
		<tag k="natural" v="hill" />
		<tag k="place" v="locality" />
		<tag k="ssr:stedsnr" v="921531" />
	</node>
	<node lat="61.90949088395393" lon="9.739408604743577" id="-21157">
		<tag k="fixme" v="consider natural=peak for the most distinct mountains in the district" />
		<tag k="name" v="Storsmeden" />
		<tag k="natural" v="hill" />
		<tag k="place" v="locality" />
		<tag k="ssr:stedsnr" v="921729" />
	</node>
	<node lat="62.335977777564935" lon="9.215849995493324" id="-21158">
		<tag k="name" v="Larseggen" />
		<tag k="natural" v="ridge" />
		<tag k="place" v="locality" />
		<tag k="ssr:stedsnr" v="921436" />
	</node>
	<node lat="62.10806111364082" lon="9.671572213115965" id="-21166">
		<tag k="fixme" v="consider natural=peak for the most distinct mountains in the district" />
		<tag k="name" v="Nysæterhøe" />
		<tag k="natural" v="hill" />
		<tag k="place" v="locality" />
		<tag k="ssr:stedsnr" v="932812" />
	</node>
	<node lat="62.064347223291946" lon="9.187116667101614" id="-21170">
		<tag k="name" v="Storbrennlia" />
		<tag k="natural" v="slope" />
		<tag k="place" v="locality" />
		<tag k="ssr:stedsnr" v="961511" />
	</node>
	<node lat="62.15724444690898" lon="9.338930556077951" id="-21171">
		<tag k="name" v="Brennranden" />
		<tag k="natural" v="hill" />
		<tag k="place" v="locality" />
		<tag k="ssr:stedsnr" v="961490" />
	</node>
	<node lat="61.924133335615814" lon="9.365863893495622" id="-21173">
		<tag k="name" v="Krosshaugen" />
		<tag k="natural" v="hill" />
		<tag k="place" v="locality" />
		<tag k="ssr:stedsnr" v="961820" />
	</node>
	<node lat="61.97339721893621" lon="9.203252783355904" id="-21176">
		<tag k="name" v="Veslehaug" />
		<tag k="natural" v="hill" />
		<tag k="place" v="locality" />
		<tag k="ssr:stedsnr" v="961757" />
	</node>
	<node lat="62.011052776927585" lon="9.502075009531097" id="-21185">
		<tag k="fixme" v="consider natural=peak for the most distinct mountains in the district" />
		<tag k="name" v="Svartknattan" />
		<tag k="natural" v="hill" />
		<tag k="place" v="locality" />
		<tag k="ssr:stedsnr" v="10659" />
	</node>
	<node lat="62.053086114348545" lon="9.673283333957478" id="-21186">
		<tag k="fixme" v="consider natural=peak for the most distinct mountains in the district" />
		<tag k="name" v="Gravhøe" />
		<tag k="natural" v="hill" />
		<tag k="place" v="locality" />
		<tag k="ssr:stedsnr" v="10669" />
	</node>
	<node lat="62.03660278016751" lon="9.551394441017568" id="-21187">
		<tag k="fixme" v="consider natural=peak for the most distinct mountains in the district" />
		<tag k="name" v="Hornsjøkollen" />
		<tag k="natural" v="hill" />
		<tag k="place" v="locality" />
		<tag k="ssr:stedsnr" v="10674" />
	</node>
	<node lat="62.31774999788648" lon="9.360588889258082" id="-21194">
		<tag k="fixme" v="consider natural=peak for the most distinct mountains in the district" />
		<tag k="name" v="Brunkollen" />
		<tag k="natural" v="hill" />
		<tag k="place" v="locality" />
		<tag k="ssr:stedsnr" v="11551" />
	</node>
	<node lat="62.14179721777506" lon="9.389186117562545" id="-21199">
		<tag k="name" v="Hauklii" />
		<tag k="natural" v="slope" />
		<tag k="place" v="locality" />
		<tag k="ssr:stedsnr" v="11698" />
	</node>
	<node lat="61.93915555713861" lon="9.39153888855548" id="-21203">
		<tag k="fixme" v="consider natural=peak for the most distinct mountains in the district" />
		<tag k="name" v="Storkuva" />
		<tag k="natural" v="hill" />
		<tag k="place" v="locality" />
		<tag k="ssr:stedsnr" v="11898" />
	</node>
	<node lat="62.11241388444562" lon="9.160044441553348" id="-21204">
		<tag k="alt_name" v="Stakkstoi" />
		<tag k="name" v="Stakstoe" />
		<tag k="natural" v="slope" />
		<tag k="place" v="locality" />
		<tag k="ssr:stedsnr" v="11900" />
	</node>
	<node lat="61.94577222037674" lon="9.336966661196728" id="-21207">
		<tag k="fixme" v="consider natural=peak for the most distinct mountains in the district" />
		<tag k="name" v="Søre Veslfjellet" />
		<tag k="natural" v="hill" />
		<tag k="place" v="locality" />
		<tag k="ssr:stedsnr" v="22857" />
	</node>
	<node lat="61.90389999833434" lon="9.356541661799056" id="-21209">
		<tag k="name" v="Toftedrogje" />
		<tag k="natural" v="slope" />
		<tag k="place" v="locality" />
		<tag k="ssr:stedsnr" v="36647" />
	</node>
	<node lat="62.05010000060371" lon="9.071294451802355" id="-21218">
		<tag k="name" v="Nygardskollen" />
		<tag k="natural" v="hill" />
		<tag k="place" v="locality" />
		<tag k="ssr:stedsnr" v="50739" />
	</node>
	<node lat="62.07433888706405" lon="9.583672225793988" id="-21222">
		<tag k="name" v="Gunhildholet" />
		<tag k="natural" v="valley" />
		<tag k="place" v="locality" />
		<tag k="ssr:stedsnr" v="51299" />
	</node>
	<node lat="62.128666665745904" lon="9.112563887688303" id="-21224">
		<tag k="name" v="Finntoppslette" />
		<tag k="place" v="locality" />
		<tag k="ssr:stedsnr" v="50945" />
	</node>
	<node lat="62.11359721869517" lon="9.322141663310891" id="-21226">
		<tag k="name" v="Øykjesvea" />
		<tag k="natural" v="slope" />
		<tag k="place" v="locality" />
		<tag k="ssr:stedsnr" v="51514" />
	</node>
	<node lat="62.116658332447216" lon="9.361500001645942" id="-21227">
		<tag k="name" v="Vesleblåhø" />
		<tag k="natural" v="hill" />
		<tag k="place" v="locality" />
		<tag k="ssr:stedsnr" v="51515" />
	</node>
	<node lat="62.031811107376065" lon="9.310680563964606" id="-21229">
		<tag k="name" v="Grønbakkrandin" />
		<tag k="natural" v="slope" />
		<tag k="place" v="locality" />
		<tag k="ssr:stedsnr" v="51999" />
	</node>
	<node lat="61.96195833184855" lon="9.41981943533363" id="-21234">
		<tag k="name" v="Toredalen" />
		<tag k="natural" v="valley" />
		<tag k="place" v="locality" />
		<tag k="ssr:stedsnr" v="51860" />
	</node>
	<node lat="61.926505558723306" lon="9.380277772947837" id="-21235">
		<tag k="alt_name" v="Søndre Slådalen" />
		<tag k="name" v="Søre Slådalen" />
		<tag k="natural" v="valley" />
		<tag k="place" v="locality" />
		<tag k="ssr:stedsnr" v="51863" />
	</node>
	<node lat="62.05033333338766" lon="9.174213895682978" id="-21236">
		<tag k="alt_name" v="Engjekollen" />
		<tag k="name" v="Engjekollan" />
		<tag k="natural" v="hill" />
		<tag k="place" v="locality" />
		<tag k="ssr:stedsnr" v="71615" />
	</node>
	<node lat="62.070705559548884" lon="9.219233325473406" id="-21240">
		<tag k="name" v="Varpet" />
		<tag k="place" v="locality" />
		<tag k="ssr:stedsnr" v="71637" />
	</node>
	<node lat="62.178855551470676" lon="9.356649996447132" id="-21241">
		<tag k="fixme" v="consider natural=peak for the most distinct mountains in the district" />
		<tag k="name" v="Buaranden" />
		<tag k="natural" v="hill" />
		<tag k="place" v="locality" />
		<tag k="ssr:stedsnr" v="71738" />
	</node>
	<node lat="62.29180000227591" lon="9.486524991314415" id="-21243">
		<tag k="fixme" v="consider natural=peak for the most distinct mountains in the district" />
		<tag k="name" v="Kolla" />
		<tag k="natural" v="hill" />
		<tag k="place" v="locality" />
		<tag k="ssr:stedsnr" v="72475" />
	</node>
	<node lat="62.25479166549764" lon="9.602433336831604" id="-21244">
		<tag k="name" v="Porten" />
		<tag k="place" v="locality" />
		<tag k="ssr:stedsnr" v="72495" />
	</node>
	<node lat="62.24909722047161" lon="9.57338610269487" id="-21245">
		<tag k="fixme" v="consider natural=peak for the most distinct mountains in the district" />
		<tag k="name" v="Hjerskavlen" />
		<tag k="natural" v="hill" />
		<tag k="place" v="locality" />
		<tag k="ssr:stedsnr" v="72498" />
	</node>
	<node lat="61.93955833300127" lon="9.240141674030506" id="-21247">
		<tag k="name" v="Snauranden" />
		<tag k="natural" v="hill" />
		<tag k="place" v="locality" />
		<tag k="ssr:stedsnr" v="72886" />
	</node>
	<node lat="62.143561113970975" lon="9.492861118620032" id="-21249">
		<tag k="fixme" v="consider natural=peak for the most distinct mountains in the district" />
		<tag k="name" v="Avsjøhøe" />
		<tag k="natural" v="hill" />
		<tag k="place" v="locality" />
		<tag k="ssr:stedsnr" v="72673" />
	</node>
	<node lat="62.12885555169799" lon="9.312919450197223" id="-21261">
		<tag k="name" v="Hesthove" />
		<tag k="natural" v="hill" />
		<tag k="place" v="locality" />
		<tag k="ssr:stedsnr" v="111446" />
	</node>
	<node lat="62.05385833361845" lon="9.25524999895243" id="-21270">
		<tag k="name" v="Heimare Breijordet" />
		<tag k="natural" v="slope" />
		<tag k="place" v="locality" />
		<tag k="ssr:stedsnr" v="111996" />
	</node>
	<node lat="62.00882777963315" lon="9.1209250003097" id="-21277">
		<tag k="name" v="Manningtunga" />
		<tag k="natural" v="slope" />
		<tag k="place" v="locality" />
		<tag k="ssr:stedsnr" v="112346" />
	</node>
	<node lat="62.011083336720034" lon="9.620497214415435" id="-21281">
		<tag k="name" v="Vakkernose" />
		<tag k="natural" v="hill" />
		<tag k="place" v="locality" />
		<tag k="ssr:stedsnr" v="112561" />
	</node>
	<node lat="62.00626110686601" lon="9.568516668377878" id="-21282">
		<tag k="name" v="Løype" />
		<tag k="natural" v="valley" />
		<tag k="place" v="locality" />
		<tag k="ssr:stedsnr" v="112563" />
	</node>
	<node lat="62.02072221782011" lon="9.587261101905197" id="-21283">
		<tag k="name" v="Sissknarten" />
		<tag k="natural" v="hill" />
		<tag k="place" v="locality" />
		<tag k="ssr:stedsnr" v="112564" />
	</node>
	<node lat="61.941863889801205" lon="9.230091673178395" id="-21284">
		<tag k="name" v="Varpelie" />
		<tag k="natural" v="slope" />
		<tag k="place" v="locality" />
		<tag k="ssr:stedsnr" v="112729" />
	</node>
	<node lat="62.027291662686494" lon="9.347880563392653" id="-21288">
		<tag k="alt_name" v="Steinutrandin" />
		<tag k="name" v="Steinutranden" />
		<tag k="natural" v="hill" />
		<tag k="place" v="locality" />
		<tag k="ssr:stedsnr" v="131628" />
	</node>
	<node lat="61.955463892784614" lon="9.791847220302161" id="-21290">
		<tag k="name" v="Bergedalen" />
		<tag k="natural" v="valley" />
		<tag k="place" v="locality" />
		<tag k="ssr:stedsnr" v="131640" />
	</node>
	<node lat="62.051638887983216" lon="9.390691662894945" id="-21294">
		<tag k="fixme" v="consider natural=peak for the most distinct mountains in the district" />
		<tag k="name" v="Fleskutranden" />
		<tag k="natural" v="hill" />
		<tag k="place" v="locality" />
		<tag k="ssr:stedsnr" v="131660" />
	</node>
	<node lat="61.991911115583974" lon="9.842886107833886" id="-21297">
		<tag k="fixme" v="consider natural=peak for the most distinct mountains in the district" />
		<tag k="name" v="Neverbuhøe" />
		<tag k="natural" v="hill" />
		<tag k="place" v="locality" />
		<tag k="ssr:stedsnr" v="131695" />
	</node>
	<node lat="61.90481388517221" lon="9.245638892614478" id="-21298">
		<tag k="fixme" v="consider natural=peak for the most distinct mountains in the district" />
		<tag k="name" v="Rundhøe" />
		<tag k="natural" v="hill" />
		<tag k="place" v="locality" />
		<tag k="ssr:stedsnr" v="132226" />
	</node>
	<node lat="62.24973333245303" lon="9.396775006419993" id="-21299">
		<tag k="fixme" v="consider natural=peak for the most distinct mountains in the district" />
		<tag k="name" v="Tjørnhøi" />
		<tag k="natural" v="hill" />
		<tag k="place" v="locality" />
		<tag k="ssr:stedsnr" v="132494" />
	</node>
	<node lat="62.25543610697555" lon="9.417105550338825" id="-21300">
		<tag k="fixme" v="consider natural=peak for the most distinct mountains in the district" />
		<tag k="name" v="Tjørnhøkollen" />
		<tag k="natural" v="hill" />
		<tag k="place" v="locality" />
		<tag k="ssr:stedsnr" v="132498" />
	</node>
	<node lat="61.942427774801494" lon="9.65734723135627" id="-21302">
		<tag k="fixme" v="consider natural=peak for the most distinct mountains in the district" />
		<tag k="name" v="Vasshuskollen" />
		<tag k="natural" v="hill" />
		<tag k="place" v="locality" />
		<tag k="ssr:stedsnr" v="132656" />
	</node>
	<node lat="62.0332999973615" lon="9.21460000223286" id="-21308">
		<tag k="alt_name" v="Arnekleivhovda" />
		<tag k="name" v="Hovda" />
		<tag k="natural" v="hill" />
		<tag k="place" v="locality" />
		<tag k="ssr:stedsnr" v="132547" />
	</node>
	<node lat="62.29234444751956" lon="9.269777786214696" id="-21309">
		<tag k="fixme" v="consider natural=peak for the most distinct mountains in the district" />
		<tag k="name" v="Hettpyntan" />
		<tag k="natural" v="hill" />
		<tag k="old_name" v="Hettpynutan" />
		<tag k="place" v="locality" />
		<tag k="ssr:stedsnr" v="132552" />
	</node>
	<node lat="61.59730555823961" lon="9.846008324353608" id="-21313">
		<tag k="name" v="Gudbrandsdalen" />
		<tag k="natural" v="valley" />
		<tag k="place" v="locality" />
		<tag k="ssr:stedsnr" v="146259" />
	</node>
	<node lat="62.06389999808626" lon="9.14730277525928" id="-21318">
		<tag k="name" v="Båten" />
		<tag k="natural" v="valley" />
		<tag k="place" v="locality" />
		<tag k="ssr:stedsnr" v="172278" />
	</node>
	<node lat="62.066563892512654" lon="9.852902780726922" id="-21319">
		<tag k="name" v="Stakstobakken" />
		<tag k="natural" v="slope" />
		<tag k="place" v="locality" />
		<tag k="ssr:stedsnr" v="172294" />
	</node>
	<node lat="62.00834722222677" lon="9.159513896211129" id="-21321">
		<tag k="name" v="Høgrandin" />
		<tag k="natural" v="hill" />
		<tag k="place" v="locality" />
		<tag k="ssr:stedsnr" v="172332" />
	</node>
	<node lat="62.06050833251098" lon="9.145136120077419" id="-21324">
		<tag k="name" v="Flathaugen" />
		<tag k="natural" v="hill" />
		<tag k="place" v="locality" />
		<tag k="ssr:stedsnr" v="172538" />
	</node>
	<node lat="62.0676027736137" lon="9.187355553009667" id="-21326">
		<tag k="name" v="Storbrennkollane" />
		<tag k="natural" v="hill" />
		<tag k="place" v="locality" />
		<tag k="ssr:stedsnr" v="172544" />
	</node>
	<node lat="62.02306389300123" lon="9.287380549418327" id="-21327">
		<tag k="name" v="Jønnmyrdalen" />
		<tag k="natural" v="valley" />
		<tag k="place" v="locality" />
		<tag k="ssr:stedsnr" v="172546" />
	</node>
	<node lat="62.21668055448505" lon="9.672319442434489" id="-21334">
		<tag k="name" v="Heimskaret" />
		<tag k="natural" v="valley" />
		<tag k="place" v="locality" />
		<tag k="ssr:stedsnr" v="177981" />
	</node>
	<node lat="62.23612222542075" lon="9.630636117683302" id="-21336">
		<tag k="fixme" v="consider natural=peak for the most distinct mountains in the district" />
		<tag k="name" v="Brendhøin" />
		<tag k="natural" v="hill" />
		<tag k="place" v="locality" />
		<tag k="ssr:stedsnr" v="192546" />
	</node>
	<node lat="62.23517777966145" lon="9.402747212782119" id="-21339">
		<tag k="fixme" v="consider natural=peak for the most distinct mountains in the district" />
		<tag k="name" v="Bratthøe" />
		<tag k="natural" v="hill" />
		<tag k="place" v="locality" />
		<tag k="ssr:stedsnr" v="192542" />
	</node>
	<node lat="62.06449774019753" lon="9.231394146225417" id="-21347">
		<tag k="fixme" v="consider natural=peak for the most distinct mountains in the district" />
		<tag k="name" v="Hardbakken" />
		<tag k="natural" v="hill" />
		<tag k="place" v="locality" />
		<tag k="ssr:stedsnr" v="192682" />
	</node>
	<node lat="62.0347277734132" lon="9.493558327909016" id="-21348">
		<tag k="name" v="Tverrgjelet" />
		<tag k="natural" v="valley" />
		<tag k="place" v="locality" />
		<tag k="ssr:stedsnr" v="192688" />
	</node>
	<node lat="61.92145555700499" lon="9.76503610264632" id="-21349">
		<tag k="name" v="Tjønnbotn" />
		<tag k="natural" v="valley" />
		<tag k="place" v="locality" />
		<tag k="ssr:stedsnr" v="192694" />
	</node>
	<node lat="61.92724167063622" lon="9.743347218335611" id="-21350">
		<tag k="name" v="Smedbotn" />
		<tag k="natural" v="valley" />
		<tag k="place" v="locality" />
		<tag k="ssr:stedsnr" v="192695" />
	</node>
	<node lat="62.05285555981308" lon="9.309391667452743" id="-21351">
		<tag k="fixme" v="consider natural=peak for the most distinct mountains in the district" />
		<tag k="name" v="Nysæterhøe" />
		<tag k="natural" v="hill" />
		<tag k="place" v="locality" />
		<tag k="ssr:stedsnr" v="192734" />
	</node>
	<node lat="62.198872223068996" lon="9.447172215673506" id="-21353">
		<tag k="fixme" v="consider natural=peak for the most distinct mountains in the district" />
		<tag k="name" v="Langranden" />
		<tag k="natural" v="hill" />
		<tag k="place" v="locality" />
		<tag k="ssr:stedsnr" v="192751" />
	</node>
	<node lat="62.21666944122457" lon="9.299374995532538" id="-21354">
		<tag k="name" v="Bekkjeslågån" />
		<tag k="natural" v="valley" />
		<tag k="old_name" v="Bekkeslågån" />
		<tag k="place" v="locality" />
		<tag k="ssr:stedsnr" v="192764" />
	</node>
	<node lat="62.20562221927434" lon="9.440316672995491" id="-21355">
		<tag k="fixme" v="consider natural=peak for the most distinct mountains in the district" />
		<tag k="name" v="Vålåsjøhøe" />
		<tag k="natural" v="hill" />
		<tag k="place" v="locality" />
		<tag k="ssr:stedsnr" v="192773" />
	</node>
	<node lat="62.229175001656046" lon="9.343911115209051" id="-21361">
		<tag k="name" v="Revgrenranden" />
		<tag k="natural" v="hill" />
		<tag k="place" v="locality" />
		<tag k="ssr:stedsnr" v="193522" />
	</node>
	<node lat="62.01771389281825" lon="9.015299996986576" id="-21363">
		<tag k="fixme" v="consider natural=peak for the most distinct mountains in the district" />
		<tag k="name" v="Verkjeshøi" />
		<tag k="natural" v="hill" />
		<tag k="place" v="locality" />
		<tag k="ssr:stedsnr" v="193542" />
	</node>
	<node lat="62.31983425972975" lon="9.254654343486528" id="-21366">
		<tag k="fixme" v="consider natural=peak for the most distinct mountains in the district" />
		<tag k="name" v="Midttoppen" />
		<tag k="natural" v="hill" />
		<tag k="place" v="locality" />
		<tag k="ssr:stedsnr" v="193561" />
	</node>
	<node lat="62.305913892380886" lon="9.415472227119404" id="-21368">
		<tag k="fixme" v="consider natural=peak for the most distinct mountains in the district" />
		<tag k="name" v="Sletthøi" />
		<tag k="natural" v="hill" />
		<tag k="place" v="locality" />
		<tag k="ssr:stedsnr" v="193571" />
	</node>
	<node lat="62.054155554630086" lon="9.159699993404807" id="-21369">
		<tag k="name" v="Hjellådalen" />
		<tag k="natural" v="valley" />
		<tag k="place" v="locality" />
		<tag k="ssr:stedsnr" v="193580" />
	</node>
	<node lat="62.07101782430491" lon="9.314420409364097" id="-21372">
		<tag k="alt_name" v="Høgstgråhøin" />
		<tag k="fixme" v="consider natural=peak for the most distinct mountains in the district" />
		<tag k="name" v="Haustgravhøin" />
		<tag k="natural" v="hill" />
		<tag k="place" v="locality" />
		<tag k="ssr:stedsnr" v="193648" />
	</node>
	<node lat="62.08966388587438" lon="9.677733340422872" id="-21373">
		<tag k="name" v="Nose" />
		<tag k="natural" v="hill" />
		<tag k="place" v="locality" />
		<tag k="ssr:stedsnr" v="193651" />
	</node>
	<node lat="62.135202776584826" lon="9.582877773162028" id="-21374">
		<tag k="fixme" v="consider natural=peak for the most distinct mountains in the district" />
		<tag k="name" v="Steinbuhøe" />
		<tag k="natural" v="hill" />
		<tag k="place" v="locality" />
		<tag k="ssr:stedsnr" v="193657" />
	</node>
	<node lat="61.92607500093579" lon="9.463480552107278" id="-21375">
		<tag k="name" v="Mjølrakkhaugen" />
		<tag k="natural" v="hill" />
		<tag k="place" v="locality" />
		<tag k="ssr:stedsnr" v="193878" />
	</node>
	<node lat="62.11663333379936" lon="9.654894440191052" id="-21376">
		<tag k="fixme" v="consider natural=peak for the most distinct mountains in the district" />
		<tag k="name" v="Nysæterhøe" />
		<tag k="natural" v="hill" />
		<tag k="place" v="locality" />
		<tag k="ssr:stedsnr" v="193662" />
	</node>
	<node lat="61.96658055679816" lon="9.433205546655424" id="-21381">
		<tag k="fixme" v="consider natural=peak for the most distinct mountains in the district" />
		<tag k="name" v="Svartdalsknarten" />
		<tag k="natural" v="hill" />
		<tag k="place" v="locality" />
		<tag k="ssr:stedsnr" v="193904" />
	</node>
	<node lat="61.979705558291734" lon="9.34000833245075" id="-21383">
		<tag k="fixme" v="consider natural=peak for the most distinct mountains in the district" />
		<tag k="name" v="Storhovda" />
		<tag k="natural" v="hill" />
		<tag k="place" v="locality" />
		<tag k="ssr:stedsnr" v="193918" />
	</node>
	<node lat="61.96812222223722" lon="9.329691661624496" id="-21387">
		<tag k="fixme" v="consider natural=peak for the most distinct mountains in the district" />
		<tag k="name" v="Sjugurdshovda" />
		<tag k="natural" v="hill" />
		<tag k="place" v="locality" />
		<tag k="ssr:stedsnr" v="193926" />
	</node>
	<node lat="61.91321389094621" lon="9.332266661468104" id="-21390">
		<tag k="name" v="Heggeruste" />
		<tag k="natural" v="slope" />
		<tag k="place" v="locality" />
		<tag k="ssr:stedsnr" v="219710" />
	</node>
	<node lat="61.94742221913972" lon="9.245677778068242" id="-21395">
		<tag k="name" v="Jettskjellen" />
		<tag k="place" v="locality" />
		<tag k="ssr:stedsnr" v="280665" />
	</node>
	<node lat="62.02962790016487" lon="9.375337625360547" id="-21396">
		<tag k="alt_name" v="Innare Skaret;Skardet, ytre" />
		<tag k="fixme" v="multiple name tags, choose one and add the other to alt_name" />
		<tag k="name" v="Ytre Skardet;Innare Skardet" />
		<tag k="natural" v="valley" />
		<tag k="place" v="locality" />
		<tag k="ssr:stedsnr" v="283614" />
	</node>
	<node lat="62.00597778064504" lon="9.200516666963132" id="-21408">
		<tag k="loc_name" v="Vårkinnslie" />
		<tag k="name" v="Vorkinslien" />
		<tag k="natural" v="slope" />
		<tag k="place" v="locality" />
		<tag k="ssr:stedsnr" v="293750" />
	</node>
	<node lat="62.21105833682122" lon="9.533227786183003" id="-21414">
		<tag k="name" v="Geitbergdalen" />
		<tag k="natural" v="valley" />
		<tag k="place" v="locality" />
		<tag k="ssr:stedsnr" v="294246" />
	</node>
	<node lat="62.07715833398282" lon="9.592600006542966" id="-21416">
		<tag k="name" v="Kattugeldalen" />
		<tag k="natural" v="valley" />
		<tag k="place" v="locality" />
		<tag k="ssr:stedsnr" v="294265" />
	</node>
	<node lat="61.9375694439123" lon="9.175783331610651" id="-21421">
		<tag k="name" v="Øyadalen" />
		<tag k="natural" v="valley" />
		<tag k="place" v="locality" />
		<tag k="ssr:stedsnr" v="314147" />
	</node>
	<node lat="62.053213890883" lon="9.194713893934146" id="-21424">
		<tag k="alt_name" v="Storhaug" />
		<tag k="name" v="Storhaugen" />
		<tag k="natural" v="hill" />
		<tag k="place" v="locality" />
		<tag k="ssr:stedsnr" v="314592" />
	</node>
	<node lat="62.01324721816029" lon="9.787511111482672" id="-21427">
		<tag k="name" v="Dørålsglupen" />
		<tag k="natural" v="valley" />
		<tag k="place" v="locality" />
		<tag k="ssr:stedsnr" v="314450" />
	</node>
	<node lat="62.24071111129385" lon="9.38553887992503" id="-21428">
		<tag k="name" v="Storkvølve" />
		<tag k="natural" v="valley" />
		<tag k="place" v="locality" />
		<tag k="ssr:stedsnr" v="314545" />
	</node>
	<node lat="61.96948610813231" lon="9.684136116395246" id="-21430">
		<tag k="name" v="Vesleholet" />
		<tag k="natural" v="valley" />
		<tag k="place" v="locality" />
		<tag k="ssr:stedsnr" v="314646" />
	</node>
	<node lat="61.97921111301055" lon="9.741425005455373" id="-21431">
		<tag k="fixme" v="consider natural=peak for the most distinct mountains in the district" />
		<tag k="name" v="Skagsnebb" />
		<tag k="natural" v="hill" />
		<tag k="place" v="locality" />
		<tag k="ssr:stedsnr" v="314652" />
	</node>
	<node lat="61.95613888440251" lon="9.84357500881958" id="-21432">
		<tag k="alt_name" v="Vidalsbotn" />
		<tag k="name" v="Vidjedalsbotn" />
		<tag k="natural" v="valley" />
		<tag k="place" v="locality" />
		<tag k="ssr:stedsnr" v="314657" />
	</node>
	<node lat="62.01101666798131" lon="9.278674995740698" id="-21433">
		<tag k="alt_name" v="Storhovda" />
		<tag k="fixme" v="consider natural=peak for the most distinct mountains in the district" />
		<tag k="name" v="Storhovdaet" />
		<tag k="natural" v="hill" />
		<tag k="place" v="locality" />
		<tag k="ssr:stedsnr" v="314660" />
	</node>
	<node lat="62.06341110848238" lon="9.259980557416357" id="-21434">
		<tag k="alt_name" v="Fortenakollen" />
		<tag k="fixme" v="consider natural=peak for the most distinct mountains in the district" />
		<tag k="name" v="Fortinnakollen" />
		<tag k="natural" v="hill" />
		<tag k="place" v="locality" />
		<tag k="ssr:stedsnr" v="314663" />
	</node>
	<node lat="62.06607777730266" lon="9.43402500401789" id="-21435">
		<tag k="name" v="Falkhyttkollen" />
		<tag k="natural" v="hill" />
		<tag k="place" v="locality" />
		<tag k="ssr:stedsnr" v="314664" />
	</node>
	<node lat="62.191161107205936" lon="9.580030564792454" id="-21441">
		<tag k="name" v="Okseldalen" />
		<tag k="natural" v="valley" />
		<tag k="place" v="locality" />
		<tag k="ssr:stedsnr" v="314726" />
	</node>
	<node lat="61.92768889061211" lon="9.401400004693787" id="-21442">
		<tag k="name" v="Storflye" />
		<tag k="natural" v="hill" />
		<tag k="place" v="locality" />
		<tag k="ssr:stedsnr" v="314861" />
	</node>
	<node lat="62.136113891510774" lon="9.157733336916387" id="-21446">
		<tag k="fixme" v="consider natural=peak for the most distinct mountains in the district" />
		<tag k="name" v="Ryggen" />
		<tag k="natural" v="hill" />
		<tag k="place" v="locality" />
		<tag k="ssr:stedsnr" v="314901" />
	</node>
	<node lat="61.90026389186546" lon="9.321499993278254" id="-21449">
		<tag k="name" v="Tunga" />
		<tag k="natural" v="ridge" />
		<tag k="place" v="locality" />
		<tag k="ssr:stedsnr" v="314993" />
	</node>
	<node lat="61.90953333141867" lon="9.338908330429229" id="-21455">
		<tag k="name" v="Legan" />
		<tag k="natural" v="slope" />
		<tag k="place" v="locality" />
		<tag k="ssr:stedsnr" v="340679" />
	</node>
	<node lat="62.0343888914957" lon="9.659399999189132" id="-21462">
		<tag k="name" v="Høghaug" />
		<tag k="natural" v="hill" />
		<tag k="place" v="locality" />
		<tag k="ssr:stedsnr" v="354561" />
	</node>
	<node lat="62.084433334079115" lon="9.631697213191236" id="-21468">
		<tag k="name" v="Storbergsalen" />
		<tag k="natural" v="slope" />
		<tag k="place" v="locality" />
		<tag k="ssr:stedsnr" v="354292" />
	</node>
	<node lat="62.06171944706517" lon="9.831602773366846" id="-21469">
		<tag k="name" v="Gravhøsletten" />
		<tag k="place" v="locality" />
		<tag k="ssr:stedsnr" v="354298" />
	</node>
	<node lat="61.960172222683696" lon="9.415183332543549" id="-21474">
		<tag k="name" v="Brennhøe" />
		<tag k="natural" v="slope" />
		<tag k="place" v="locality" />
		<tag k="ssr:stedsnr" v="354841" />
	</node>
	<node lat="62.067791669556655" lon="9.166888880768404" id="-21483">
		<tag k="alt_name" v="Skoghø" />
		<tag k="name" v="Skoghøi" />
		<tag k="natural" v="hill" />
		<tag k="place" v="locality" />
		<tag k="ssr:stedsnr" v="374557" />
	</node>
	<node lat="61.97946110664479" lon="9.793327780994872" id="-21485">
		<tag k="name" v="Skranglehaugan" />
		<tag k="natural" v="hill" />
		<tag k="place" v="locality" />
		<tag k="ssr:stedsnr" v="374618" />
	</node>
	<node lat="61.949311110661725" lon="9.679724995806925" id="-21486">
		<tag k="fixme" v="consider natural=peak for the most distinct mountains in the district" />
		<tag k="name" v="Vassberget" />
		<tag k="natural" v="hill" />
		<tag k="place" v="locality" />
		<tag k="ssr:stedsnr" v="374621" />
	</node>
	<node lat="61.951580552817056" lon="9.83115000895091" id="-21487">
		<tag k="fixme" v="consider natural=peak for the most distinct mountains in the district" />
		<tag k="name" v="Digerronden" />
		<tag k="natural" v="hill" />
		<tag k="place" v="locality" />
		<tag k="ssr:stedsnr" v="374622" />
	</node>
	<node lat="61.96964167092165" lon="9.38303055598039" id="-21489">
		<tag k="fixme" v="consider natural=peak for the most distinct mountains in the district" />
		<tag k="name" v="Innare Veslfjellet" />
		<tag k="natural" v="hill" />
		<tag k="place" v="locality" />
		<tag k="ssr:stedsnr" v="374954" />
	</node>
	<node lat="61.95510833781939" lon="9.063825007078234" id="-21493">
		<tag k="name" v="Jønndalen" />
		<tag k="natural" v="valley" />
		<tag k="place" v="locality" />
		<tag k="ssr:stedsnr" v="375149" />
	</node>
	<node lat="62.295877774073205" lon="9.31889999432541" id="-21494">
		<tag k="fixme" v="consider natural=peak for the most distinct mountains in the district" />
		<tag k="name" v="Veslhetta" />
		<tag k="natural" v="hill" />
		<tag k="old_name" v="Veslehetta" />
		<tag k="place" v="locality" />
		<tag k="ssr:stedsnr" v="375519" />
	</node>
	<node lat="62.099683331981105" lon="9.160455558479386" id="-21495">
		<tag k="name" v="Steinhovda" />
		<tag k="natural" v="hill" />
		<tag k="place" v="locality" />
		<tag k="ssr:stedsnr" v="375579" />
	</node>
	<node lat="62.26692777374217" lon="9.515438882138534" id="-21496">
		<tag k="name" v="Storranden" />
		<tag k="natural" v="hill" />
		<tag k="place" v="locality" />
		<tag k="ssr:stedsnr" v="375454" />
	</node>
	<node lat="61.89607500255385" lon="9.313419440594132" id="-21511">
		<tag k="name" v="Søre Djupdalen" />
		<tag k="natural" v="valley" />
		<tag k="place" v="locality" />
		<tag k="ssr:stedsnr" v="414975" />
	</node>
	<node lat="62.23894999847549" lon="9.438924992154465" id="-21516">
		<tag k="name" v="Rundhaug" />
		<tag k="natural" v="hill" />
		<tag k="place" v="locality" />
		<tag k="ssr:stedsnr" v="415351" />
	</node>
	<node lat="62.166400002614026" lon="9.476113897433267" id="-21520">
		<tag k="name" v="Avsjølia" />
		<tag k="natural" v="slope" />
		<tag k="place" v="locality" />
		<tag k="ssr:stedsnr" v="415517" />
	</node>
	<node lat="62.15598611560349" lon="9.28366665793537" id="-21521">
		<tag k="name" v="Rophusrandin" />
		<tag k="natural" v="hill" />
		<tag k="place" v="locality" />
		<tag k="ssr:stedsnr" v="415520" />
	</node>
	<node lat="61.963552777039" lon="9.199997213318493" id="-21523">
		<tag k="name" v="Nedre Veslefjellet" />
		<tag k="natural" v="hill" />
		<tag k="place" v="locality" />
		<tag k="ssr:stedsnr" v="415766" />
	</node>
	<node lat="61.97996110979034" lon="9.199613884360142" id="-21524">
		<tag k="name" v="Breidal" />
		<tag k="natural" v="valley" />
		<tag k="place" v="locality" />
		<tag k="ssr:stedsnr" v="415767" />
	</node>
	<node lat="61.957708337715005" lon="9.367699998340122" id="-21525">
		<tag k="name" v="Sjugurdslie" />
		<tag k="natural" v="slope" />
		<tag k="place" v="locality" />
		<tag k="ssr:stedsnr" v="415862" />
	</node>
	<node lat="61.951480558329635" lon="9.366527779536193" id="-21526">
		<tag k="name" v="Elggrave" />
		<tag k="natural" v="slope" />
		<tag k="place" v="locality" />
		<tag k="ssr:stedsnr" v="415864" />
	</node>
	<node lat="62.06114444393148" lon="9.15021944610901" id="-21527">
		<tag k="name" v="Skaret" />
		<tag k="natural" v="valley" />
		<tag k="place" v="locality" />
		<tag k="ssr:stedsnr" v="415538" />
	</node>
	<node lat="62.06928888641897" lon="9.193827783030908" id="-21529">
		<tag k="name" v="Skredbekkhaugen" />
		<tag k="natural" v="hill" />
		<tag k="old_name" v="Skedbekkhaugen" />
		<tag k="place" v="locality" />
		<tag k="ssr:stedsnr" v="415540" />
	</node>
	<node lat="61.993300003784334" lon="9.300113896395425" id="-21534">
		<tag k="name" v="Tunga" />
		<tag k="natural" v="ridge" />
		<tag k="place" v="locality" />
		<tag k="ssr:stedsnr" v="435439" />
	</node>
	<node lat="61.99743888612351" lon="9.73974444294264" id="-21535">
		<tag k="fixme" v="consider natural=peak for the most distinct mountains in the district" />
		<tag k="name" v="Stygghøin" />
		<tag k="natural" v="hill" />
		<tag k="place" v="locality" />
		<tag k="ssr:stedsnr" v="435460" />
	</node>
	<node lat="62.05408889008432" lon="9.065311106205977" id="-21537">
		<tag k="name" v="Hardeggen" />
		<tag k="natural" v="ridge" />
		<tag k="place" v="locality" />
		<tag k="ssr:stedsnr" v="435596" />
	</node>
	<node lat="62.00738055467635" lon="9.310202784039754" id="-21539">
		<tag k="alt_name" v="Rauberget" />
		<tag k="fixme" v="consider natural=peak for the most distinct mountains in the district" />
		<tag k="name" v="Raudberget" />
		<tag k="natural" v="hill" />
		<tag k="place" v="locality" />
		<tag k="ssr:stedsnr" v="435670" />
	</node>
	<node lat="61.93045555807793" lon="9.726527781467848" id="-21541">
		<tag k="name" v="Rondane" />
		<tag k="natural" v="mountain_range" />
		<tag k="ssr:stedsnr" v="435681" />
	</node>
	<node lat="62.20551944651862" lon="9.627733338160809" id="-21546">
		<tag k="name" v="Hjerkinnsholen" />
		<tag k="natural" v="hill" />
		<tag k="old_name" v="Hjerkinnholen" />
		<tag k="place" v="locality" />
		<tag k="ssr:stedsnr" v="435756" />
	</node>
	<node lat="62.265399999627164" lon="9.677433327961335" id="-21548">
		<tag k="alt_name" v="Armodskollen" />
		<tag k="fixme" v="consider natural=peak for the most distinct mountains in the district" />
		<tag k="name" v="Armodshøkollen" />
		<tag k="natural" v="hill" />
		<tag k="place" v="locality" />
		<tag k="ssr:stedsnr" v="436487" />
	</node>
	<node lat="62.232088884461234" lon="9.343566662789584" id="-21549">
		<tag k="fixme" v="consider natural=peak for the most distinct mountains in the district" />
		<tag k="name" v="Einøvlingshøe" />
		<tag k="natural" v="hill" />
		<tag k="place" v="locality" />
		<tag k="ssr:stedsnr" v="436492" />
	</node>
	<node lat="62.12894721781743" lon="9.403211109661509" id="-21552">
		<tag k="fixme" v="consider natural=peak for the most distinct mountains in the district" />
		<tag k="name" v="Blåhøin" />
		<tag k="natural" v="hill" />
		<tag k="place" v="locality" />
		<tag k="ssr:stedsnr" v="436644" />
	</node>
	<node lat="62.159158329036984" lon="9.505161101539743" id="-21555">
		<tag k="fixme" v="consider natural=peak for the most distinct mountains in the district" />
		<tag k="name" v="Veslkringla" />
		<tag k="natural" v="hill" />
		<tag k="place" v="locality" />
		<tag k="ssr:stedsnr" v="436683" />
	</node>
	<node lat="61.92948889197464" lon="9.44139999382029" id="-21557">
		<tag k="fixme" v="consider natural=peak for the most distinct mountains in the district" />
		<tag k="name" v="Storskrabbet" />
		<tag k="natural" v="hill" />
		<tag k="place" v="locality" />
		<tag k="ssr:stedsnr" v="436870" />
	</node>
	<node lat="62.22080000010135" lon="9.664111101568858" id="-21561">
		<tag k="fixme" v="consider natural=peak for the most distinct mountains in the district" />
		<tag k="name" v="Nonshøe" />
		<tag k="natural" v="hill" />
		<tag k="place" v="locality" />
		<tag k="ssr:stedsnr" v="495497" />
	</node>
	<node lat="62.31492500256232" lon="9.248874998737818" id="-21564">
		<tag k="fixme" v="consider natural=peak for the most distinct mountains in the district" />
		<tag k="name" v="Vesttoppen" />
		<tag k="natural" v="hill" />
		<tag k="place" v="locality" />
		<tag k="ssr:stedsnr" v="496575" />
	</node>
	<node lat="62.00346666599006" lon="9.1520055637959" id="-21568">
		<tag k="name" v="Brennranden" />
		<tag k="natural" v="hill" />
		<tag k="place" v="locality" />
		<tag k="ssr:stedsnr" v="496534" />
	</node>
	<node lat="62.189758335868355" lon="9.269655563692012" id="-21571">
		<tag k="fixme" v="consider natural=peak for the most distinct mountains in the district" />
		<tag k="name" v="Langhøe" />
		<tag k="natural" v="hill" />
		<tag k="place" v="locality" />
		<tag k="ssr:stedsnr" v="496734" />
	</node>
	<node lat="62.10607777561308" lon="9.347844447947926" id="-21575">
		<tag k="name" v="Foksådalen" />
		<tag k="natural" v="valley" />
		<tag k="place" v="locality" />
		<tag k="ssr:stedsnr" v="496670" />
	</node>
	<node lat="62.085847225033206" lon="9.227547227060763" id="-21577">
		<tag k="alt_name" v="Gammalsæterranden;Gamelseterranden" />
		<tag k="name" v="Gamlsæterranden" />
		<tag k="natural" v="hill" />
		<tag k="place" v="locality" />
		<tag k="ssr:stedsnr" v="496675" />
	</node>
	<node lat="62.12069999835096" lon="9.397408332861904" id="-21578">
		<tag k="name" v="Knatten" />
		<tag k="natural" v="hill" />
		<tag k="place" v="locality" />
		<tag k="ssr:stedsnr" v="496687" />
	</node>
	<node lat="62.10338611148458" lon="9.289766670272034" id="-21579">
		<tag k="name" v="Veslberget" />
		<tag k="natural" v="hill" />
		<tag k="place" v="locality" />
		<tag k="ssr:stedsnr" v="496691" />
	</node>
	<node lat="62.11256111394803" lon="9.70671944161218" id="-21580">
		<tag k="fixme" v="consider natural=peak for the most distinct mountains in the district" />
		<tag k="name" v="Tverrbekkhøe" />
		<tag k="natural" v="hill" />
		<tag k="place" v="locality" />
		<tag k="ssr:stedsnr" v="496692" />
	</node>
	<node lat="62.19558611145132" lon="9.533391669958856" id="-21592">
		<tag k="name" v="Saltsletta" />
		<tag k="place" v="locality" />
		<tag k="ssr:stedsnr" v="536248" />
	</node>
	<node lat="62.03882777795057" lon="9.693377786299997" id="-21602">
		<tag k="name" v="Øvre Benkjin" />
		<tag k="natural" v="slope" />
		<tag k="place" v="locality" />
		<tag k="ssr:stedsnr" v="536548" />
	</node>
	<node lat="62.01612222252399" lon="9.192230549004636" id="-21604">
		<tag k="name" v="Sagslette" />
		<tag k="place" v="locality" />
		<tag k="ssr:stedsnr" v="536758" />
	</node>
	<node lat="62.00309444163519" lon="9.421038896685813" id="-21605">
		<tag k="name" v="Einsethø" />
		<tag k="natural" v="hill" />
		<tag k="place" v="locality" />
		<tag k="ssr:stedsnr" v="536836" />
	</node>
	<node lat="61.95140832946128" lon="9.391547231317281" id="-21606">
		<tag k="name" v="Tverrgjelet" />
		<tag k="natural" v="valley" />
		<tag k="place" v="locality" />
		<tag k="ssr:stedsnr" v="536842" />
	</node>
	<node lat="62.05742611478466" lon="9.276376507729749" id="-21608">
		<tag k="alt_name" v="Breidjordet" />
		<tag k="name" v="Breijordet" />
		<tag k="natural" v="hill" />
		<tag k="place" v="locality" />
		<tag k="ssr:stedsnr" v="556671" />
	</node>
	<node lat="62.20695000227281" lon="9.329952782792057" id="-21610">
		<tag k="fixme" v="consider natural=peak for the most distinct mountains in the district" />
		<tag k="name" v="Grisungknatten" />
		<tag k="natural" v="hill" />
		<tag k="place" v="locality" />
		<tag k="ssr:stedsnr" v="556762" />
	</node>
	<node lat="62.04717222058377" lon="9.010663893063885" id="-21618">
		<tag k="name" v="Kjøremsnonshøe" />
		<tag k="natural" v="hill" />
		<tag k="place" v="locality" />
		<tag k="ssr:stedsnr" v="556595" />
	</node>
	<node lat="61.971791666606144" lon="9.739725005172103" id="-21619">
		<tag k="name" v="Dørålen" />
		<tag k="natural" v="valley" />
		<tag k="place" v="locality" />
		<tag k="ssr:stedsnr" v="556650" />
	</node>
	<node lat="62.25156666841884" lon="9.467608328924278" id="-21622">
		<tag k="name" v="Haukberget" />
		<tag k="natural" v="hill" />
		<tag k="place" v="locality" />
		<tag k="ssr:stedsnr" v="557487" />
	</node>
	<node lat="62.234869446095615" lon="9.683874991570338" id="-21624">
		<tag k="name" v="Elgslie" />
		<tag k="natural" v="slope" />
		<tag k="place" v="locality" />
		<tag k="ssr:stedsnr" v="556536" />
	</node>
	<node lat="62.22326666625806" lon="9.336613880087222" id="-21625">
		<tag k="name" v="Svartberget" />
		<tag k="natural" v="hill" />
		<tag k="place" v="locality" />
		<tag k="ssr:stedsnr" v="556538" />
	</node>
	<node lat="61.91473055265691" lon="9.312174995261847" id="-21626">
		<tag k="fixme" v="consider natural=peak for the most distinct mountains in the district" />
		<tag k="name" v="Vardfjellet" />
		<tag k="natural" v="hill" />
		<tag k="place" v="locality" />
		<tag k="ssr:stedsnr" v="556883" />
	</node>
	<node lat="62.28785555262205" lon="9.339202774625887" id="-21629">
		<tag k="fixme" v="consider natural=peak for the most distinct mountains in the district" />
		<tag k="name" v="Kjølen" />
		<tag k="natural" v="hill" />
		<tag k="place" v="locality" />
		<tag k="ssr:stedsnr" v="557531" />
	</node>
	<node lat="62.09263889220275" lon="9.695125002771855" id="-21631">
		<tag k="name" v="Benkin" />
		<tag k="place" v="locality" />
		<tag k="ssr:stedsnr" v="557628" />
	</node>
	<node lat="62.13109999849552" lon="9.3890555499405" id="-21632">
		<tag k="fixme" v="consider natural=peak for the most distinct mountains in the district" />
		<tag k="name" v="Blåhøe" />
		<tag k="natural" v="hill" />
		<tag k="place" v="locality" />
		<tag k="ssr:stedsnr" v="557636" />
	</node>
	<node lat="62.16758611193069" lon="9.505091662233365" id="-21634">
		<tag k="fixme" v="consider natural=peak for the most distinct mountains in the district" />
		<tag k="name" v="Kringla" />
		<tag k="natural" v="hill" />
		<tag k="place" v="locality" />
		<tag k="ssr:stedsnr" v="557676" />
	</node>
	<node lat="62.13356388558359" lon="9.277694443740348" id="-21648">
		<tag k="name" v="Ellanholet" />
		<tag k="natural" v="valley" />
		<tag k="place" v="locality" />
		<tag k="ssr:stedsnr" v="596438" />
	</node>
	<node lat="61.96635277436287" lon="9.19234999350527" id="-21651">
		<tag k="name" v="Øvre Veslefjellet" />
		<tag k="natural" v="hill" />
		<tag k="place" v="locality" />
		<tag k="ssr:stedsnr" v="596689" />
	</node>
	<node lat="62.123866670916605" lon="9.177836103682441" id="-21661">
		<tag k="name" v="Tatterlie" />
		<tag k="natural" v="slope" />
		<tag k="place" v="locality" />
		<tag k="ssr:stedsnr" v="597073" />
	</node>
	<node lat="62.0120333289734" lon="9.132247221943603" id="-21666">
		<tag k="name" v="Blåberget" />
		<tag k="natural" v="hill" />
		<tag k="place" v="locality" />
		<tag k="ssr:stedsnr" v="597338" />
	</node>
	<node lat="61.94552500191547" lon="9.227200001240588" id="-21670">
		<tag k="name" v="Geitryggen" />
		<tag k="place" v="locality" />
		<tag k="ssr:stedsnr" v="597726" />
	</node>
	<node lat="61.97147222536261" lon="9.190158336904632" id="-21671">
		<tag k="name" v="Flye" />
		<tag k="natural" v="slope" />
		<tag k="place" v="locality" />
		<tag k="ssr:stedsnr" v="597745" />
	</node>
	<node lat="62.017119447873135" lon="9.05450277019431" id="-21673">
		<tag k="alt_name" v="Langhøi, indre" />
		<tag k="fixme" v="consider natural=peak for the most distinct mountains in the district" />
		<tag k="loc_name" v="Langhøe" />
		<tag k="name" v="Indre Langhøi" />
		<tag k="natural" v="hill" />
		<tag k="place" v="locality" />
		<tag k="ssr:stedsnr" v="617548" />
	</node>
	<node lat="61.92911388504497" lon="9.201983330897422" id="-21675">
		<tag k="fixme" v="consider natural=peak for the most distinct mountains in the district" />
		<tag k="name" v="Briskarhøi" />
		<tag k="natural" v="hill" />
		<tag k="place" v="locality" />
		<tag k="ssr:stedsnr" v="617179" />
	</node>
	<node lat="62.25161111260918" lon="9.642749994399136" id="-21676">
		<tag k="name" v="Kvitdalen" />
		<tag k="natural" v="valley" />
		<tag k="place" v="locality" />
		<tag k="ssr:stedsnr" v="617523" />
	</node>
	<node lat="61.96945277684802" lon="9.765722231153527" id="-21679">
		<tag k="name" v="Storflye" />
		<tag k="place" v="locality" />
		<tag k="ssr:stedsnr" v="617636" />
	</node>
	<node lat="61.95042222022097" lon="9.341719439649461" id="-21685">
		<tag k="fixme" v="consider natural=peak for the most distinct mountains in the district" />
		<tag k="name" v="Heimare Veslfjellet" />
		<tag k="natural" v="hill" />
		<tag k="place" v="locality" />
		<tag k="ssr:stedsnr" v="617909" />
	</node>
	<node lat="62.141349199477666" lon="9.15480543074959" id="-21686">
		<tag k="alt_name" v="Grønseterhøe" />
		<tag k="fixme" v="multiple name tags, choose one and add the other to alt_name; consider natural=peak for the most distinct mountains in the district" />
		<tag k="loc_name" v="Grønhøe" />
		<tag k="name" v="Grønhøi;Grønsæterhøe" />
		<tag k="natural" v="hill" />
		<tag k="place" v="locality" />
		<tag k="ssr:stedsnr" v="617918" />
	</node>
	<node lat="61.98362222362318" lon="9.428963891547427" id="-21687">
		<tag k="name" v="Grønbakkekollen" />
		<tag k="natural" v="hill" />
		<tag k="place" v="locality" />
		<tag k="ssr:stedsnr" v="617923" />
	</node>
	<node lat="61.91491635555111" lon="9.850998788261155" id="-21689">
		<tag k="fixme" v="consider natural=peak for the most distinct mountains in the district" />
		<tag k="loc_name" v="Rondeslottet" />
		<tag k="name" v="Rondslottet" />
		<tag k="natural" v="hill" />
		<tag k="place" v="locality" />
		<tag k="ssr:stedsnr" v="617663" />
	</node>
	<node lat="62.0770332961557" lon="9.435809175336402" id="-21690">
		<tag k="alt_name" v="Veslberget, Fremste" />
		<tag k="name" v="Fremste Veslberget" />
		<tag k="natural" v="hill" />
		<tag k="place" v="locality" />
		<tag k="ssr:stedsnr" v="617675" />
	</node>
	<node lat="62.10535833731938" lon="9.166075004073539" id="-21702">
		<tag k="name" v="Snauhaugen" />
		<tag k="natural" v="hill" />
		<tag k="place" v="locality" />
		<tag k="ssr:stedsnr" v="657119" />
	</node>
	<node lat="62.11202778205992" lon="9.148161101878072" id="-21703">
		<tag k="name" v="Gardsendturrhaugen" />
		<tag k="natural" v="hill" />
		<tag k="place" v="locality" />
		<tag k="ssr:stedsnr" v="657120" />
	</node>
	<node lat="62.08516666249785" lon="9.838799991050044" id="-21707">
		<tag k="name" v="Nedre Paradis" />
		<tag k="natural" v="hill" />
		<tag k="place" v="locality" />
		<tag k="ssr:stedsnr" v="657279" />
	</node>
	<node lat="62.12721944028704" lon="9.28316389281847" id="-21708">
		<tag k="name" v="Lyuhaug" />
		<tag k="natural" v="hill" />
		<tag k="place" v="locality" />
		<tag k="ssr:stedsnr" v="657478" />
	</node>
	<node lat="61.90451944039095" lon="9.372886105645838" id="-21713">
		<tag k="name" v="Vesleøyin" />
		<tag k="place" v="locality" />
		<tag k="ssr:stedsnr" v="657738" />
	</node>
	<node lat="61.92222222336289" lon="9.413911114086865" id="-21714">
		<tag k="name" v="Rotbakken" />
		<tag k="natural" v="slope" />
		<tag k="place" v="locality" />
		<tag k="ssr:stedsnr" v="657752" />
	</node>
	<node lat="62.03527499616625" lon="9.691413887678674" id="-21717">
		<tag k="name" v="Langleite" />
		<tag k="place" v="locality" />
		<tag k="ssr:stedsnr" v="658552" />
	</node>
	<node lat="62.020194446590104" lon="9.574558329652815" id="-21719">
		<tag k="name" v="Slettflye" />
		<tag k="place" v="locality" />
		<tag k="ssr:stedsnr" v="658558" />
	</node>
	<node lat="62.09557777805445" lon="9.104691666643806" id="-21727">
		<tag k="name" v="Trollkyrkja" />
		<tag k="natural" v="hill" />
		<tag k="place" v="locality" />
		<tag k="ssr:stedsnr" v="717855" />
	</node>
	<node lat="62.118522225128196" lon="9.25673332911032" id="-21729">
		<tag k="name" v="Bonhalhaugen" />
		<tag k="natural" v="hill" />
		<tag k="place" v="locality" />
		<tag k="ssr:stedsnr" v="718483" />
	</node>
	<node lat="62.01786388781795" lon="9.119230563758961" id="-21733">
		<tag k="name" v="Manningrandin" />
		<tag k="natural" v="hill" />
		<tag k="place" v="locality" />
		<tag k="ssr:stedsnr" v="718337" />
	</node>
	<node lat="62.01508888820791" lon="9.13976943848797" id="-21734">
		<tag k="name" v="Storrauberget" />
		<tag k="natural" v="hill" />
		<tag k="place" v="locality" />
		<tag k="ssr:stedsnr" v="718340" />
	</node>
	<node lat="62.20021388589355" lon="9.484180548654933" id="-21735">
		<tag k="name" v="Storslågån" />
		<tag k="natural" v="slope" />
		<tag k="place" v="locality" />
		<tag k="ssr:stedsnr" v="718448" />
	</node>
	<node lat="62.012163892118195" lon="9.356063884894736" id="-21746">
		<tag k="name" v="Flye" />
		<tag k="natural" v="slope" />
		<tag k="place" v="locality" />
		<tag k="ssr:stedsnr" v="718975" />
	</node>
	<node lat="62.0229944435217" lon="9.372355551346851" id="-21748">
		<tag k="name" v="Gråsida" />
		<tag k="natural" v="slope" />
		<tag k="place" v="locality" />
		<tag k="ssr:stedsnr" v="718994" />
	</node>
	<node lat="61.954105551755994" lon="9.803461116020728" id="-21757">
		<tag k="fixme" v="consider natural=peak for the most distinct mountains in the district" />
		<tag k="name" v="Salen" />
		<tag k="natural" v="hill" />
		<tag k="place" v="locality" />
		<tag k="ssr:stedsnr" v="738634" />
	</node>
	<node lat="62.02346667094231" lon="9.596869438767003" id="-21758">
		<tag k="alt_name" v="Storvassberget" />
		<tag k="fixme" v="consider natural=peak for the most distinct mountains in the district" />
		<tag k="name" v="Storrvassberget" />
		<tag k="natural" v="hill" />
		<tag k="place" v="locality" />
		<tag k="ssr:stedsnr" v="738636" />
	</node>
	<node lat="61.94434167011436" lon="9.857941659437666" id="-21762">
		<tag k="fixme" v="consider natural=peak for the most distinct mountains in the district" />
		<tag k="name" v="Midtronden" />
		<tag k="natural" v="hill" />
		<tag k="place" v="locality" />
		<tag k="ssr:stedsnr" v="738651" />
	</node>
	<node lat="61.990377780285236" lon="9.804225000016618" id="-21765">
		<tag k="name" v="Eggen" />
		<tag k="natural" v="ridge" />
		<tag k="place" v="locality" />
		<tag k="ssr:stedsnr" v="738694" />
	</node>
	<node lat="61.99438888811671" lon="9.190322213169491" id="-21771">
		<tag k="name" v="Sjøberget" />
		<tag k="natural" v="hill" />
		<tag k="place" v="locality" />
		<tag k="ssr:stedsnr" v="739165" />
	</node>
	<node lat="62.31540139983356" lon="9.25656405341459" id="-21773">
		<tag k="name" v="Gryta" />
		<tag k="natural" v="valley" />
		<tag k="place" v="locality" />
		<tag k="ssr:stedsnr" v="739555" />
	</node>
	<node lat="61.98925555900828" lon="9.364622230668576" id="-21778">
		<tag k="fixme" v="consider natural=peak for the most distinct mountains in the district" />
		<tag k="name" v="Åsaranden" />
		<tag k="natural" v="hill" />
		<tag k="place" v="locality" />
		<tag k="ssr:stedsnr" v="739373" />
	</node>
	<node lat="62.01336666251768" lon="9.838783324560458" id="-21779">
		<tag k="alt_name" v="Ellankollen" />
		<tag k="fixme" v="consider natural=peak for the most distinct mountains in the district" />
		<tag k="name" v="Ellandkollen" />
		<tag k="natural" v="hill" />
		<tag k="place" v="locality" />
		<tag k="ssr:stedsnr" v="739402" />
	</node>
	<node lat="62.161244448809356" lon="9.422302786185908" id="-21787">
		<tag k="fixme" v="consider natural=peak for the most distinct mountains in the district" />
		<tag k="name" v="Mehøe" />
		<tag k="natural" v="hill" />
		<tag k="place" v="locality" />
		<tag k="ssr:stedsnr" v="739688" />
	</node>
	<node lat="61.889124998912806" lon="9.31566944721105" id="-21791">
		<tag k="fixme" v="consider natural=peak for the most distinct mountains in the district" />
		<tag k="name" v="Horgenose" />
		<tag k="natural" v="hill" />
		<tag k="place" v="locality" />
		<tag k="ssr:stedsnr" v="739968" />
	</node>
	<node lat="61.91920125131233" lon="9.707722231913069" id="-21792">
		<tag k="fixme" v="consider natural=peak for the most distinct mountains in the district" />
		<tag k="name" v="Trolltinden" />
		<tag k="natural" v="hill" />
		<tag k="old_name" v="Sagtinden;Sagtindann" />
		<tag k="place" v="locality" />
		<tag k="ssr:stedsnr" v="753678" />
	</node>
	<node lat="62.07849722261823" lon="9.64921111591933" id="-21803">
		<tag k="name" v="Åkseldalen" />
		<tag k="natural" v="valley" />
		<tag k="place" v="locality" />
		<tag k="ssr:stedsnr" v="779280" />
	</node>
	<node lat="62.03471944595982" lon="9.138647222741973" id="-21804">
		<tag k="name" v="Ulekleivshaugen" />
		<tag k="natural" v="hill" />
		<tag k="place" v="locality" />
		<tag k="ssr:stedsnr" v="779307" />
	</node>
	<node lat="62.03740555310903" lon="9.686966668641377" id="-21806">
		<tag k="name" v="Hullaren" />
		<tag k="natural" v="hill" />
		<tag k="place" v="locality" />
		<tag k="ssr:stedsnr" v="779554" />
	</node>
	<node lat="62.050730553467986" lon="9.303550002509663" id="-21811">
		<tag k="name" v="Breiskardet" />
		<tag k="natural" v="valley" />
		<tag k="place" v="locality" />
		<tag k="ssr:stedsnr" v="779989" />
	</node>
	<node lat="62.028999997808775" lon="9.636702778579785" id="-21812">
		<tag k="alt_name" v="Seterberget" />
		<tag k="fixme" v="consider natural=peak for the most distinct mountains in the district" />
		<tag k="name" v="Sæterberget" />
		<tag k="natural" v="hill" />
		<tag k="place" v="locality" />
		<tag k="ssr:stedsnr" v="799649" />
	</node>
	<node lat="61.980224996921244" lon="9.656691668153506" id="-21813">
		<tag k="fixme" v="consider natural=peak for the most distinct mountains in the district" />
		<tag k="name" v="Vesleåta" />
		<tag k="natural" v="hill" />
		<tag k="place" v="locality" />
		<tag k="ssr:stedsnr" v="799650" />
	</node>
	<node lat="62.06611388532409" lon="9.67052777361017" id="-21818">
		<tag k="alt_name" v="Vesltunga" />
		<tag k="name" v="Vesletunga" />
		<tag k="natural" v="ridge" />
		<tag k="place" v="locality" />
		<tag k="ssr:stedsnr" v="799669" />
	</node>
	<node lat="61.92040555792326" lon="9.71688054995401" id="-21820">
		<tag k="name" v="Langholet" />
		<tag k="natural" v="valley" />
		<tag k="place" v="locality" />
		<tag k="ssr:stedsnr" v="799682" />
	</node>
	<node lat="62.017683333021715" lon="9.753047217325026" id="-21822">
		<tag k="alt_name" v="Breiglupen" />
		<tag k="name" v="Breidglupen" />
		<tag k="natural" v="valley" />
		<tag k="place" v="locality" />
		<tag k="ssr:stedsnr" v="800404" />
	</node>
	<node lat="62.064491665246436" lon="9.140430559481448" id="-21824">
		<tag k="name" v="Hovda" />
		<tag k="natural" v="hill" />
		<tag k="place" v="locality" />
		<tag k="ssr:stedsnr" v="799588" />
	</node>
	<node lat="62.08217499799376" lon="9.143502786446641" id="-21826">
		<tag k="name" v="Kjørrhovda" />
		<tag k="natural" v="hill" />
		<tag k="place" v="locality" />
		<tag k="ssr:stedsnr" v="799608" />
	</node>
	<node lat="61.919452782244704" lon="9.812836115037483" id="-21828">
		<tag k="name" v="Rondvassdalen" />
		<tag k="natural" v="valley" />
		<tag k="place" v="locality" />
		<tag k="ssr:stedsnr" v="799687" />
	</node>
	<node lat="62.14903611509549" lon="9.632225000673364" id="-21829">
		<tag k="fixme" v="consider natural=peak for the most distinct mountains in the district" />
		<tag k="name" v="Mehøe" />
		<tag k="natural" v="hill" />
		<tag k="place" v="locality" />
		<tag k="ssr:stedsnr" v="799729" />
	</node>
	<node lat="62.21987500032981" lon="9.436308337666539" id="-21830">
		<tag k="alt_name" v="Vesleknatten" />
		<tag k="name" v="Veslknatten" />
		<tag k="natural" v="hill" />
		<tag k="place" v="locality" />
		<tag k="ssr:stedsnr" v="799766" />
	</node>
	<node lat="62.272388889139336" lon="9.377674990733228" id="-21832">
		<tag k="name" v="Svånådalen" />
		<tag k="natural" v="valley" />
		<tag k="place" v="locality" />
		<tag k="ssr:stedsnr" v="800487" />
	</node>
	<node lat="62.006300002926146" lon="9.10976111141222" id="-21833">
		<tag k="name" v="Mjølrakkhaugan" />
		<tag k="natural" v="hill" />
		<tag k="place" v="locality" />
		<tag k="ssr:stedsnr" v="800518" />
	</node>
	<node lat="61.955191669467084" lon="9.14402776898527" id="-21834">
		<tag k="fixme" v="consider natural=peak for the most distinct mountains in the district" />
		<tag k="name" v="Veslhøin" />
		<tag k="natural" v="hill" />
		<tag k="place" v="locality" />
		<tag k="ssr:stedsnr" v="800183" />
	</node>
	<node lat="62.110377780657615" lon="9.733133337723908" id="-21838">
		<tag k="fixme" v="consider natural=peak for the most distinct mountains in the district" />
		<tag k="name" v="Mesæterhøe" />
		<tag k="natural" v="hill" />
		<tag k="place" v="locality" />
		<tag k="ssr:stedsnr" v="800471" />
	</node>
	<node lat="62.09524721969613" lon="9.574777774297141" id="-21844">
		<tag k="fixme" v="consider natural=peak for the most distinct mountains in the district" />
		<tag k="name" v="Kattuglehøe" />
		<tag k="natural" v="hill" />
		<tag k="place" v="locality" />
		<tag k="ssr:stedsnr" v="800654" />
	</node>
	<node lat="61.94942777342037" lon="9.423977786340636" id="-21847">
		<tag k="fixme" v="consider natural=peak for the most distinct mountains in the district" />
		<tag k="name" v="Veslkuva" />
		<tag k="natural" v="hill" />
		<tag k="place" v="locality" />
		<tag k="ssr:stedsnr" v="800889" />
	</node>
	<node lat="61.923791662251766" lon="9.73652500545753" id="-21852">
		<tag k="fixme" v="consider natural=peak for the most distinct mountains in the district" />
		<tag k="loc_name" v="Søre Smedhåmåren" />
		<tag k="name" v="Søre Smedhamran" />
		<tag k="natural" v="hill" />
		<tag k="place" v="locality" />
		<tag k="ssr:stedsnr" v="808415" />
	</node>
	<node lat="61.936033329904745" lon="9.257033326727111" id="-21853">
		<tag k="name" v="Ymjørberget" />
		<tag k="natural" v="hill" />
		<tag k="place" v="locality" />
		<tag k="ssr:stedsnr" v="826656" />
	</node>
	<node lat="62.0182250035132" lon="9.189955564595826" id="-21864">
		<tag k="name" v="Killisandom" />
		<tag k="place" v="locality" />
		<tag k="ssr:stedsnr" v="840360" />
	</node>
	<node lat="62.14621667037036" lon="9.330402774937157" id="-21865">
		<tag k="name" v="Hytthaugen" />
		<tag k="natural" v="hill" />
		<tag k="place" v="locality" />
		<tag k="ssr:stedsnr" v="840458" />
	</node>
	<node lat="62.012461112418066" lon="9.20716111871242" id="-21870">
		<tag k="name" v="Furumo" />
		<tag k="place" v="locality" />
		<tag k="ssr:stedsnr" v="840753" />
	</node>
	<node lat="62.03995555286788" lon="9.256019439155978" id="-21872">
		<tag k="name" v="Nyseterholet" />
		<tag k="natural" v="valley" />
		<tag k="place" v="locality" />
		<tag k="ssr:stedsnr" v="840988" />
	</node>
	<node lat="62.05904722588558" lon="9.767397219388263" id="-21876">
		<tag k="fixme" v="consider natural=peak for the most distinct mountains in the district" />
		<tag k="name" v="Gravhøtangen" />
		<tag k="natural" v="hill" />
		<tag k="place" v="locality" />
		<tag k="ssr:stedsnr" v="860443" />
	</node>
	<node lat="61.985641667225856" lon="9.563838895318513" id="-21879">
		<tag k="name" v="Haverdalen" />
		<tag k="natural" v="valley" />
		<tag k="place" v="locality" />
		<tag k="ssr:stedsnr" v="860449" />
	</node>
	<node lat="62.04494722434506" lon="9.803308332487568" id="-21880">
		<tag k="alt_name" v="Haverdalsmunnin" />
		<tag k="name" v="Haverdalsmunnen" />
		<tag k="natural" v="valley" />
		<tag k="place" v="locality" />
		<tag k="ssr:stedsnr" v="860452" />
	</node>
	<node lat="62.03862222166154" lon="9.256727779497185" id="-21883">
		<tag k="alt_name" v="Nyseterkollen" />
		<tag k="fixme" v="consider natural=peak for the most distinct mountains in the district" />
		<tag k="name" v="Nysæterkollen" />
		<tag k="natural" v="hill" />
		<tag k="place" v="locality" />
		<tag k="ssr:stedsnr" v="860695" />
	</node>
	<node lat="62.19661111162902" lon="9.576855550746776" id="-21887">
		<tag k="name" v="Veslhjerkinnshovda" />
		<tag k="natural" v="hill" />
		<tag k="place" v="locality" />
		<tag k="ssr:stedsnr" v="860749" />
	</node>
	<node lat="61.95919999560392" lon="9.53095555681407" id="-21889">
		<tag k="fixme" v="consider natural=peak for the most distinct mountains in the district" />
		<tag k="name" v="Sletthøe" />
		<tag k="natural" v="hill" />
		<tag k="place" v="locality" />
		<tag k="ssr:stedsnr" v="860933" />
	</node>
	<node lat="62.238425002990056" lon="9.566088892765462" id="-21893">
		<tag k="alt_name" v="Hjerkinkollan" />
		<tag k="fixme" v="consider natural=peak for the most distinct mountains in the district" />
		<tag k="name" v="Hjerkinnskollan" />
		<tag k="natural" v="hill" />
		<tag k="place" v="locality" />
		<tag k="ssr:stedsnr" v="861486" />
	</node>
	<node lat="62.01181944511524" lon="9.040908328368019" id="-21895">
		<tag k="name" v="Ukleivsbreidjordet" />
		<tag k="place" v="locality" />
		<tag k="ssr:stedsnr" v="861500" />
	</node>
	<node lat="62.00786944329302" lon="9.06515554630969" id="-21896">
		<tag k="name" v="Vardhøi" />
		<tag k="natural" v="hill" />
		<tag k="place" v="locality" />
		<tag k="ssr:stedsnr" v="861501" />
	</node>
	<node lat="62.15301944503727" lon="9.238416660941766" id="-21899">
		<tag k="name" v="Storlie" />
		<tag k="natural" v="slope" />
		<tag k="place" v="locality" />
		<tag k="ssr:stedsnr" v="861655" />
	</node>
	<node lat="61.905766666550555" lon="9.344822214670984" id="-21908">
		<tag k="name" v="Kjyruskjellhaugen" />
		<tag k="natural" v="hill" />
		<tag k="place" v="locality" />
		<tag k="ssr:stedsnr" v="947665" />
	</node>
	<node lat="61.917116670027596" lon="9.35031667033869" id="-21909">
		<tag k="name" v="Leiramoen" />
		<tag k="place" v="locality" />
		<tag k="ssr:stedsnr" v="947670" />
	</node>
	<node lat="61.91609722326552" lon="9.44058055307564" id="-21913">
		<tag k="name" v="Dørålsranden" />
		<tag k="natural" v="hill" />
		<tag k="place" v="locality" />
		<tag k="ssr:stedsnr" v="960734" />
	</node>
	<node lat="62.10523055525543" lon="9.113538880245516" id="-21914">
		<tag k="name" v="Kubåsranden" />
		<tag k="natural" v="hill" />
		<tag k="place" v="locality" />
		<tag k="ssr:stedsnr" v="960832" />
	</node>
	<node lat="62.11828333736736" lon="9.100266669531585" id="-21915">
		<tag k="name" v="Sandmælan" />
		<tag k="place" v="locality" />
		<tag k="ssr:stedsnr" v="960930" />
	</node>
	<node lat="62.097158329218466" lon="9.113191671377928" id="-21918">
		<tag k="name" v="Slettmoen" />
		<tag k="place" v="locality" />
		<tag k="ssr:stedsnr" v="960846" />
	</node>
	<node lat="62.12202500449459" lon="9.190952770266701" id="-21919">
		<tag k="name" v="Villmannshaugene" />
		<tag k="natural" v="hill" />
		<tag k="place" v="locality" />
		<tag k="ssr:stedsnr" v="961066" />
	</node>
	<node lat="62.01912221861481" lon="9.249602771692846" id="-21924">
		<tag k="name" v="Myrahovda" />
		<tag k="natural" v="hill" />
		<tag k="place" v="locality" />
		<tag k="ssr:stedsnr" v="961513" />
	</node>
	<node lat="62.25064722371357" lon="9.553666660576308" id="-21925">
		<tag k="name" v="Hjerskavllie" />
		<tag k="natural" v="slope" />
		<tag k="place" v="locality" />
		<tag k="ssr:stedsnr" v="961516" />
	</node>
	<node lat="62.14404166441548" lon="9.303027768354365" id="-21929">
		<tag k="name" v="Sjugurdsmyrrandin" />
		<tag k="natural" v="hill" />
		<tag k="place" v="locality" />
		<tag k="ssr:stedsnr" v="961470" />
	</node>
	<node lat="62.01241111087536" lon="9.731750008709403" id="-21930">
		<tag k="name" v="Stygghøe" />
		<tag k="natural" v="hill" />
		<tag k="place" v="locality" />
		<tag k="ssr:stedsnr" v="961540" />
	</node>
	<node lat="62.05940065591035" lon="9.28686886761733" id="-21941">
		<tag k="name" v="Innare Breijordet" />
		<tag k="natural" v="hill" />
		<tag k="place" v="locality" />
		<tag k="ssr:stedsnr" v="1075170" />
	</node>
</osm>
