<?xml version="1.0" encoding="UTF-8"?>
<<<<<<< HEAD
<osm version="0.6" generator="osmapis">
	<node lat="62.23019444710188" lon="9.471900008433627" id="-19678">
		<tag k="name" v="Stormyre" />
		<tag k="natural" v="wetland" />
		<tag k="ssr:stedsnr" v="10497" />
	</node>
	<node lat="62.05433611533923" lon="9.12530833948193" id="-19691">
		<tag k="name" v="Lissholan" />
		<tag k="place" v="locality" />
		<tag k="ssr:stedsnr" v="232449" />
	</node>
	<node lat="61.98930277935611" lon="9.23096111033215" id="-19692">
		<tag k="name" v="Tofteengene" />
=======
<osm generator="osmapis" version="0.6">
	<node id="-361086" lat="62.0873861109" lon="9.80210000503">
		<tag k="name" v="Langhaug" />
>>>>>>> e1d4bc35ff8a6074a6f2e91616a996b547c36f15
		<tag k="place" v="locality" />
		<tag k="ssr:stedsnr" v="961283" />
	</node>
<<<<<<< HEAD
	<node lat="62.100302777715555" lon="9.13402499710534" id="-19698">
		<tag k="name" v="Øvre Stålen" />
=======
	<node id="-360489" lat="62.0821472216" lon="9.15618055274">
		<tag k="name" v="Kjyruskjelldroje" />
		<tag k="place" v="locality" />
		<tag k="ssr:stedsnr" v="112131" />
	</node>
	<node id="-360691" lat="62.129241663" lon="9.27749722244">
		<tag k="alt_name" v="Fokstugumyre" />
		<tag k="name" v="Fokstugumyrin" />
		<tag k="natural" v="wetland" />
		<tag k="old_name" v="Fokstumyrin" />
		<tag k="ssr:stedsnr" v="375641" />
	</node>
	<node id="-360710" lat="62.0961722245" lon="9.12662777031">
		<tag k="name" v="Nedre Stålen" />
		<tag k="place" v="locality" />
		<tag k="ssr:stedsnr" v="415109" />
	</node>
	<node id="-360167" lat="62.0899888907" lon="9.78883334094">
		<tag k="name" v="Heimkrok" />
>>>>>>> e1d4bc35ff8a6074a6f2e91616a996b547c36f15
		<tag k="place" v="locality" />
		<tag k="ssr:stedsnr" v="233127" />
	</node>
<<<<<<< HEAD
	<node lat="61.91339722024497" lon="9.364930551415148" id="-19714">
		<tag k="name" v="Purkelykkja" />
=======
	<node id="-360547" lat="62.0185555556" lon="9.61919722555">
		<tag k="name" v="Slæne" />
>>>>>>> e1d4bc35ff8a6074a6f2e91616a996b547c36f15
		<tag k="place" v="locality" />
		<tag k="ssr:stedsnr" v="50701" />
	</node>
<<<<<<< HEAD
	<node lat="61.91071388908541" lon="9.425344450225275" id="-19715">
		<tag k="name" v="Langmyre" />
=======
	<node id="-360159" lat="62.1181944489" lon="9.13618888007">
		<tag k="name" v="Grønseterlangmyre" />
>>>>>>> e1d4bc35ff8a6074a6f2e91616a996b547c36f15
		<tag k="natural" v="wetland" />
		<tag k="ssr:stedsnr" v="50703" />
	</node>
<<<<<<< HEAD
	<node lat="62.13820833525301" lon="9.236838888568293" id="-19766">
		<tag k="name" v="Gardsendmyre" />
		<tag k="natural" v="wetland" />
		<tag k="ssr:stedsnr" v="112075" />
	</node>
	<node lat="62.1157972190268" lon="9.228416665150462" id="-19767">
		<tag k="name" v="Søre Langmyre" />
		<tag k="natural" v="wetland" />
		<tag k="ssr:stedsnr" v="112081" />
	</node>
	<node lat="62.04079999762417" lon="9.676588890390857" id="-19771">
		<tag k="name" v="Grønslåe" />
=======
	<node id="-360412" lat="62.1258888915" lon="9.13509444122">
		<tag k="name" v="Seterstein" />
		<tag k="natural" v="stone" />
		<tag k="ssr:stedsnr" v="51128" />
	</node>
	<node id="-360706" lat="61.9065305557" lon="9.38524443975">
		<tag k="name" v="Bjønnholet" />
		<tag k="place" v="locality" />
		<tag k="ssr:stedsnr" v="414735" />
	</node>
	<node id="-360847" lat="62.1537249982" lon="9.34011388059">
		<tag k="name" v="Samuelsmyrin" />
		<tag k="natural" v="wetland" />
		<tag k="ssr:stedsnr" v="596433" />
	</node>
	<node id="-359768" lat="62.2267305547" lon="9.51819999042">
		<tag k="alt_name" v="Tverrfjellet gruver" />
		<tag k="landuse" v="quarry" />
		<tag k="name" v="Tverrfjell gruver" />
		<tag k="ssr:stedsnr" v="253541" />
	</node>
	<node id="-360791" lat="62.085008337" lon="9.79798054667">
		<tag k="name" v="Sautunga" />
>>>>>>> e1d4bc35ff8a6074a6f2e91616a996b547c36f15
		<tag k="place" v="locality" />
		<tag k="ssr:stedsnr" v="112537" />
	</node>
<<<<<<< HEAD
	<node lat="62.22673055468611" lon="9.518199990420886" id="-19797">
		<tag k="alt_name" v="Tverrfjellet gruver" />
		<tag k="landuse" v="quarry" />
		<tag k="name" v="Tverrfjell gruver" />
		<tag k="ssr:stedsnr" v="253541" />
	</node>
	<node lat="62.160430556832004" lon="9.35154722335955" id="-19827">
		<tag k="name" v="Trettarmyre" />
		<tag k="natural" v="wetland" />
		<tag k="ssr:stedsnr" v="172515" />
	</node>
	<node lat="62.01648333227183" lon="9.586922226192078" id="-19846">
		<tag k="landuse" v="quarry" />
		<tag k="name" v="Hellberget" />
		<tag k="ssr:stedsnr" v="233603" />
	</node>
	<node lat="61.93236944443232" lon="9.283000000073384" id="-19861">
		<tag k="name" v="Nybrenna" />
=======
	<node id="-360391" lat="62.1002972227" lon="9.23203889663">
		<tag k="alt_name" v="Nordsetermyra" />
		<tag k="name" v="Nordsætermyrin" />
		<tag k="natural" v="wetland" />
		<tag k="ssr:stedsnr" v="11655" />
	</node>
	<node id="-360019" lat="61.9658694425" lon="9.22526110717">
		<tag k="historic" v="shieling" />
		<tag k="name" v="Skomakerstugusetre" />
>>>>>>> e1d4bc35ff8a6074a6f2e91616a996b547c36f15
		<tag k="place" v="locality" />
		<tag k="ssr:stedsnr" v="280670" />
	</node>
<<<<<<< HEAD
	<node lat="61.897649995789074" lon="9.393552786355311" id="-19865">
		<tag k="name" v="Søre Bakken" />
=======
	<node id="-359889" lat="62.1003027777" lon="9.13402499711">
		<tag k="name" v="Øvre Stålen" />
>>>>>>> e1d4bc35ff8a6074a6f2e91616a996b547c36f15
		<tag k="place" v="locality" />
		<tag k="ssr:stedsnr" v="292992" />
	</node>
<<<<<<< HEAD
	<node lat="62.157266670844976" lon="9.349683325436391" id="-19866">
		<tag k="name" v="Kyrkjeslåtten" />
		<tag k="natural" v="wetland" />
		<tag k="ssr:stedsnr" v="293507" />
	</node>
	<node lat="62.06506944497619" lon="9.289824992485732" id="-19870">
		<tag k="name" v="Gråura" />
		<tag k="natural" v="scree" />
		<tag k="ssr:stedsnr" v="293994" />
	</node>
	<node lat="62.034686107119505" lon="9.299455558764542" id="-19892">
=======
	<node id="-360656" lat="62.0346861071" lon="9.29945555876">
>>>>>>> e1d4bc35ff8a6074a6f2e91616a996b547c36f15
		<tag k="name" v="Klovnesteinen" />
		<tag k="natural" v="stone" />
		<tag k="ssr:stedsnr" v="354985" />
	</node>
<<<<<<< HEAD
	<node lat="62.039199996356025" lon="9.65969165888132" id="-19910">
		<tag k="name" v="Svartslåe" />
=======
	<node id="-359886" lat="62.0782666645" lon="9.77266110409">
		<tag k="name" v="Lunnin" />
>>>>>>> e1d4bc35ff8a6074a6f2e91616a996b547c36f15
		<tag k="place" v="locality" />
		<tag k="ssr:stedsnr" v="476536" />
	</node>
<<<<<<< HEAD
	<node lat="61.906530555665036" lon="9.38524443974989" id="-19950">
		<tag k="name" v="Bjønnholet" />
=======
	<node id="-360780" lat="62.0870972201" lon="9.66150277228">
		<tag k="historic" v="shieling" />
		<tag k="name" v="Tallerås" />
>>>>>>> e1d4bc35ff8a6074a6f2e91616a996b547c36f15
		<tag k="place" v="locality" />
		<tag k="ssr:stedsnr" v="414735" />
	</node>
<<<<<<< HEAD
	<node lat="62.096172224538186" lon="9.126627770312618" id="-19951">
		<tag k="name" v="Nedre Stålen" />
=======
	<node id="-360651" lat="61.9483500034" lon="9.29421388045">
		<tag k="name" v="Ismolykkja" />
>>>>>>> e1d4bc35ff8a6074a6f2e91616a996b547c36f15
		<tag k="place" v="locality" />
		<tag k="ssr:stedsnr" v="415109" />
	</node>
<<<<<<< HEAD
	<node lat="62.143944440578004" lon="9.316083338677801" id="-19981">
		<tag k="name" v="Sjugurdsmyre" />
		<tag k="natural" v="wetland" />
		<tag k="ssr:stedsnr" v="475462" />
	</node>
	<node lat="62.106330557233825" lon="9.293811101752338" id="-20090">
		<tag k="name" v="Storsteinen" />
		<tag k="natural" v="stone" />
		<tag k="ssr:stedsnr" v="617693" />
	</node>
	<node lat="62.11823055339802" lon="9.219330550313131" id="-20094">
=======
	<node id="-359882" lat="62.0702805576" lon="9.83318888486">
		<tag k="name" v="Grønbog" />
		<tag k="place" v="locality" />
		<tag k="ssr:stedsnr" v="294271" />
	</node>
	<node id="-360905" lat="62.1182305534" lon="9.21933055031">
>>>>>>> e1d4bc35ff8a6074a6f2e91616a996b547c36f15
		<tag k="alt_name" v="Langmyre" />
		<tag k="name" v="Langmyri" />
		<tag k="natural" v="wetland" />
		<tag k="ssr:stedsnr" v="617896" />
	</node>
<<<<<<< HEAD
	<node lat="62.08998889070454" lon="9.788833340940023" id="-20103">
		<tag k="name" v="Heimkrok" />
		<tag k="place" v="locality" />
		<tag k="ssr:stedsnr" v="657286" />
	</node>
	<node lat="61.96586944249937" lon="9.22526110717494" id="-20108">
		<tag k="historic" v="shieling" />
		<tag k="name" v="Skomakerstugusetre" />
=======
	<node id="-360652" lat="61.9465861084" lon="9.26724166765">
		<tag k="name" v="Drogaflaten" />
		<tag k="place" v="locality" />
		<tag k="ssr:stedsnr" v="354679" />
	</node>
	<node id="-359876" lat="62.1212972215" lon="9.21216388091">
		<tag k="alt_name" v="Nordre Langmyre" />
		<tag k="name" v="Nørdre Langmyre" />
		<tag k="natural" v="wetland" />
		<tag k="ssr:stedsnr" v="294063" />
	</node>
	<node id="-360898" lat="62.1063305572" lon="9.29381110175">
		<tag k="name" v="Storsteinen" />
		<tag k="natural" v="stone" />
		<tag k="ssr:stedsnr" v="617693" />
	</node>
	<node id="-360152" lat="61.9351888856" lon="9.2502666592">
		<tag k="historic" v="shieling" />
		<tag k="name" v="Magnhildsætre" />
		<tag k="place" v="locality" />
		<tag k="ssr:stedsnr" v="617903" />
	</node>
	<node id="-359743" lat="62.0685527781" lon="9.08861943936">
		<tag k="name" v="Øyan" />
>>>>>>> e1d4bc35ff8a6074a6f2e91616a996b547c36f15
		<tag k="place" v="locality" />
		<tag k="ssr:stedsnr" v="657685" />
	</node>
<<<<<<< HEAD
	<node lat="62.09051110955617" lon="9.219658336324022" id="-20143">
		<tag k="historic" v="shieling" />
		<tag k="name" v="Gamelstulen" />
		<tag k="place" v="locality" />
		<tag k="ssr:stedsnr" v="718108" />
	</node>
	<node lat="61.90174166981275" lon="9.432097229192275" id="-20161">
		<tag k="alt_name" v="Vardamorkja" />
		<tag k="name" v="Valamorkje" />
=======
	<node id="-359742" lat="61.9107138891" lon="9.42534445023">
		<tag k="name" v="Langmyre" />
		<tag k="natural" v="wetland" />
		<tag k="ssr:stedsnr" v="50703" />
	</node>
	<node id="-359741" lat="61.9133972202" lon="9.36493055142">
		<tag k="name" v="Purkelykkja" />
>>>>>>> e1d4bc35ff8a6074a6f2e91616a996b547c36f15
		<tag k="place" v="locality" />
		<tag k="ssr:stedsnr" v="899996" />
	</node>
<<<<<<< HEAD
	<node lat="61.905047224959574" lon="9.403022213255504" id="-20162">
		<tag k="name" v="Restflaten" />
=======
	<node id="-359868" lat="61.9768333347" lon="9.22415277466">
		<tag k="name" v="Skjellen" />
>>>>>>> e1d4bc35ff8a6074a6f2e91616a996b547c36f15
		<tag k="place" v="locality" />
		<tag k="ssr:stedsnr" v="900000" />
	</node>
<<<<<<< HEAD
	<node lat="62.03576389213009" lon="9.271761102179878" id="-20167">
		<tag k="name" v="Torvmyre" />
		<tag k="natural" v="wetland" />
		<tag k="ssr:stedsnr" v="900984" />
	</node>
	<node lat="62.020436106706306" lon="9.61288332777663" id="-20176">
		<tag k="name" v="Sissknartslåe" />
=======
	<node id="-360578" lat="62.1040527767" lon="9.80021666403">
		<tag k="landuse" v="quarry" />
		<tag k="name" v="Grimsdalsgruva" />
		<tag k="ssr:stedsnr" v="193493" />
	</node>
	<node id="-359994" lat="61.9236027754" lon="9.27872777332">
		<tag k="historic" v="shieling" />
		<tag k="name" v="Veslbrennsætre" />
>>>>>>> e1d4bc35ff8a6074a6f2e91616a996b547c36f15
		<tag k="place" v="locality" />
		<tag k="ssr:stedsnr" v="961564" />
	</node>
<<<<<<< HEAD
	<node lat="62.12404166877335" lon="9.133325008797295" id="-20286">
		<tag k="name" v="Kvitsteinmyre" />
=======
	<node id="-359865" lat="62.1572666708" lon="9.34968332544">
		<tag k="name" v="Kyrkjeslåtten" />
>>>>>>> e1d4bc35ff8a6074a6f2e91616a996b547c36f15
		<tag k="natural" v="wetland" />
		<tag k="ssr:stedsnr" v="901102" />
	</node>
<<<<<<< HEAD
	<node lat="62.10029722273162" lon="9.232038896628252" id="-20343">
		<tag k="alt_name" v="Nordsetermyra" />
		<tag k="name" v="Nordsætermyrin" />
		<tag k="natural" v="wetland" />
		<tag k="ssr:stedsnr" v="11655" />
	</node>
	<node lat="62.12588889151872" lon="9.135094441219362" id="-20355">
		<tag k="name" v="Seterstein" />
		<tag k="natural" v="stone" />
		<tag k="ssr:stedsnr" v="51128" />
	</node>
	<node lat="62.06855277809039" lon="9.088619439364892" id="-20362">
		<tag k="name" v="Øyan" />
=======
	<node id="-359736" lat="62.0164833323" lon="9.58692222619">
		<tag k="landuse" v="quarry" />
		<tag k="name" v="Hellberget" />
		<tag k="ssr:stedsnr" v="233603" />
	</node>
	<node id="-359863" lat="61.9033694488" lon="9.39433054998">
		<tag k="name" v="Erikstad" />
		<tag k="place" v="locality" />
		<tag k="ssr:stedsnr" v="293000" />
	</node>
	<node id="-359862" lat="61.8976499958" lon="9.39355278636">
		<tag k="name" v="Søre Bakken" />
>>>>>>> e1d4bc35ff8a6074a6f2e91616a996b547c36f15
		<tag k="place" v="locality" />
		<tag k="ssr:stedsnr" v="50755" />
	</node>
<<<<<<< HEAD
	<node lat="61.90093333439262" lon="9.393697214294285" id="-20400">
		<tag k="name" v="Solfoss" />
=======
	<node id="-359861" lat="62.1007750017" lon="9.11291388584">
		<tag k="name" v="Myrkgongen" />
>>>>>>> e1d4bc35ff8a6074a6f2e91616a996b547c36f15
		<tag k="place" v="locality" />
		<tag k="ssr:stedsnr" v="110996" />
	</node>
<<<<<<< HEAD
	<node lat="62.082147221622485" lon="9.156180552744546" id="-20413">
		<tag k="name" v="Kjyruskjelldroje" />
		<tag k="place" v="locality" />
		<tag k="ssr:stedsnr" v="112131" />
	</node>
	<node lat="62.11028055776058" lon="9.145916670340084" id="-20414">
		<tag k="name" v="Vetl-Britbrenna" />
=======
	<node id="-359858" lat="61.9175805577" lon="9.41065278613">
		<tag k="name" v="Lykkjerandin" />
		<tag k="place" v="locality" />
		<tag k="ssr:stedsnr" v="292751" />
	</node>
	<node id="-360497" lat="62.0407999976" lon="9.67658889039">
		<tag k="name" v="Grønslåe" />
>>>>>>> e1d4bc35ff8a6074a6f2e91616a996b547c36f15
		<tag k="place" v="locality" />
		<tag k="ssr:stedsnr" v="112139" />
	</node>
<<<<<<< HEAD
	<node lat="62.0350666655034" lon="9.674127785520074" id="-20422">
		<tag k="name" v="Haugmillom" />
		<tag k="place" v="locality" />
		<tag k="ssr:stedsnr" v="112553" />
	</node>
	<node lat="62.018555555566664" lon="9.619197225547087" id="-20464">
		<tag k="name" v="Slæne" />
=======
	<node id="-360368" lat="62.2301944471" lon="9.47190000843">
		<tag k="name" v="Stormyre" />
		<tag k="natural" v="wetland" />
		<tag k="ssr:stedsnr" v="10497" />
	</node>
	<node id="-361007" lat="61.9365166686" lon="9.2474472219">
		<tag k="historic" v="shieling" />
		<tag k="name" v="Stugusætre" />
>>>>>>> e1d4bc35ff8a6074a6f2e91616a996b547c36f15
		<tag k="place" v="locality" />
		<tag k="ssr:stedsnr" v="172578" />
	</node>
<<<<<<< HEAD
	<node lat="62.104052776676205" lon="9.800216664033918" id="-20501">
		<tag k="landuse" v="quarry" />
		<tag k="name" v="Grimsdalsgruva" />
		<tag k="ssr:stedsnr" v="193493" />
	</node>
	<node lat="62.109283332940116" lon="9.824374992489487" id="-20502">
		<tag k="landuse" v="quarry" />
		<tag k="name" v="Grimsdalsgruva" />
		<tag k="ssr:stedsnr" v="193495" />
	</node>
	<node lat="62.11174166641199" lon="9.425577785245729" id="-20513">
		<tag k="name" v="Kvannsteinen" />
		<tag k="natural" v="stone" />
		<tag k="ssr:stedsnr" v="193643" />
	</node>
	<node lat="62.10512499654524" lon="9.180583334762842" id="-20521">
		<tag k="alt_name" v="Stakstomyra" />
		<tag k="name" v="Stakkstomyri" />
=======
	<node id="-359831" lat="61.9323694444" lon="9.28300000007">
		<tag k="name" v="Nybrenna" />
		<tag k="place" v="locality" />
		<tag k="ssr:stedsnr" v="280670" />
	</node>
	<node id="-360109" lat="62.0905111096" lon="9.21965833632">
		<tag k="historic" v="shieling" />
		<tag k="name" v="Gamelstulen" />
		<tag k="place" v="locality" />
		<tag k="ssr:stedsnr" v="718108" />
	</node>
	<node id="-360492" lat="62.115797219" lon="9.22841666515">
		<tag k="name" v="Søre Langmyre" />
>>>>>>> e1d4bc35ff8a6074a6f2e91616a996b547c36f15
		<tag k="natural" v="wetland" />
		<tag k="ssr:stedsnr" v="193897" />
	</node>
<<<<<<< HEAD
	<node lat="61.90336944878798" lon="9.394330549983144" id="-20542">
		<tag k="name" v="Erikstad" />
		<tag k="place" v="locality" />
		<tag k="ssr:stedsnr" v="293000" />
	</node>
	<node lat="62.1212972215186" lon="9.212163880908054" id="-20543">
		<tag k="alt_name" v="Nordre Langmyre" />
		<tag k="name" v="Nørdre Langmyre" />
		<tag k="natural" v="wetland" />
		<tag k="ssr:stedsnr" v="294063" />
	</node>
	<node lat="61.917580557683344" lon="9.410652786133955" id="-20544">
		<tag k="name" v="Lykkjerandin" />
=======
	<node id="-360498" lat="62.0350666655" lon="9.67412778552">
		<tag k="name" v="Haugmillom" />
		<tag k="place" v="locality" />
		<tag k="ssr:stedsnr" v="112553" />
	</node>
	<node id="-360490" lat="62.1102805578" lon="9.14591667034">
		<tag k="name" v="Vetl-Britbrenna" />
>>>>>>> e1d4bc35ff8a6074a6f2e91616a996b547c36f15
		<tag k="place" v="locality" />
		<tag k="ssr:stedsnr" v="292751" />
	</node>
<<<<<<< HEAD
	<node lat="62.100775001670485" lon="9.112913885837845" id="-20545">
		<tag k="name" v="Myrkgongen" />
		<tag k="place" v="locality" />
		<tag k="ssr:stedsnr" v="292856" />
	</node>
	<node lat="61.97683333472049" lon="9.224152774663969" id="-20549">
		<tag k="name" v="Skjellen" />
=======
	<node id="-360105" lat="62.1212000017" lon="9.17173055658">
		<tag k="name" v="Kvitstein" />
		<tag k="natural" v="stone" />
		<tag k="ssr:stedsnr" v="597074" />
	</node>
	<node id="-360360" lat="62.0204361067" lon="9.61288332778">
		<tag k="name" v="Sissknartslåe" />
>>>>>>> e1d4bc35ff8a6074a6f2e91616a996b547c36f15
		<tag k="place" v="locality" />
		<tag k="ssr:stedsnr" v="293719" />
	</node>
<<<<<<< HEAD
	<node lat="62.0702805576307" lon="9.83318888486303" id="-20559">
		<tag k="name" v="Grønbog" />
		<tag k="place" v="locality" />
		<tag k="ssr:stedsnr" v="294271" />
	</node>
	<node lat="62.078266664450894" lon="9.772661104088675" id="-20561">
		<tag k="name" v="Lunnin" />
		<tag k="place" v="locality" />
		<tag k="ssr:stedsnr" v="294597" />
	</node>
	<node lat="62.12173611199611" lon="9.233436116116737" id="-20578">
=======
	<node id="-360614" lat="62.1494999979" lon="9.3817500073">
		<tag k="name" v="Haukskardmyrin" />
		<tag k="natural" v="wetland" />
		<tag k="ssr:stedsnr" v="314698" />
	</node>
	<node id="-360612" lat="62.121736112" lon="9.23343611612">
>>>>>>> e1d4bc35ff8a6074a6f2e91616a996b547c36f15
		<tag k="name" v="Langmyre" />
		<tag k="natural" v="wetland" />
		<tag k="ssr:stedsnr" v="314687" />
	</node>
<<<<<<< HEAD
	<node lat="62.14949999791093" lon="9.381750007298988" id="-20580">
		<tag k="name" v="Haukskardmyrin" />
=======
	<node id="-360227" lat="62.2539861127" lon="9.45287776996">
		<tag k="name" v="Haukbergsmyrin" />
>>>>>>> e1d4bc35ff8a6074a6f2e91616a996b547c36f15
		<tag k="natural" v="wetland" />
		<tag k="ssr:stedsnr" v="314698" />
	</node>
<<<<<<< HEAD
	<node lat="61.948350003368326" lon="9.294213880451505" id="-20618">
		<tag k="name" v="Ismolykkja" />
=======
	<node id="-359714" lat="62.0543361153" lon="9.12530833948">
		<tag k="name" v="Lissholan" />
>>>>>>> e1d4bc35ff8a6074a6f2e91616a996b547c36f15
		<tag k="place" v="locality" />
		<tag k="ssr:stedsnr" v="354678" />
	</node>
<<<<<<< HEAD
	<node lat="61.94658610843322" lon="9.267241667647193" id="-20619">
		<tag k="name" v="Drogaflaten" />
		<tag k="place" v="locality" />
		<tag k="ssr:stedsnr" v="354679" />
	</node>
	<node lat="62.12924166299759" lon="9.277497222440262" id="-20643">
		<tag k="alt_name" v="Fokstugumyre" />
		<tag k="name" v="Fokstugumyrin" />
		<tag k="natural" v="wetland" />
		<tag k="old_name" v="Fokstumyrin" />
		<tag k="ssr:stedsnr" v="375641" />
	</node>
	<node lat="61.923602775358006" lon="9.27872777331744" id="-20647">
		<tag k="historic" v="shieling" />
		<tag k="name" v="Veslbrennsætre" />
=======
	<node id="-359834" lat="62.1604305568" lon="9.35154722336">
		<tag k="name" v="Trettarmyre" />
		<tag k="natural" v="wetland" />
		<tag k="ssr:stedsnr" v="172515" />
	</node>
	<node id="-360475" lat="61.9009333344" lon="9.39369721429">
		<tag k="name" v="Solfoss" />
>>>>>>> e1d4bc35ff8a6074a6f2e91616a996b547c36f15
		<tag k="place" v="locality" />
		<tag k="ssr:stedsnr" v="375862" />
	</node>
<<<<<<< HEAD
	<node lat="62.05842222094238" lon="9.526830554851884" id="-20655">
		<tag k="name" v="Akerjordet" />
		<tag k="place" v="locality" />
		<tag k="ssr:stedsnr" v="415266" />
	</node>
	<node lat="62.05514444261325" lon="9.236080553698923" id="-20705">
=======
	<node id="-360218" lat="62.1240416688" lon="9.1333250088">
		<tag k="name" v="Kvitsteinmyre" />
		<tag k="natural" v="wetland" />
		<tag k="ssr:stedsnr" v="901102" />
	</node>
	<node id="-359961" lat="62.0551444426" lon="9.2360805537">
>>>>>>> e1d4bc35ff8a6074a6f2e91616a996b547c36f15
		<tag k="name" v="Sauhansstugumyre" />
		<tag k="natural" v="wetland" />
		<tag k="ssr:stedsnr" v="495651" />
	</node>
<<<<<<< HEAD
	<node lat="62.10160833633101" lon="9.118258334339691" id="-20731">
		<tag k="name" v="Skjeftmyre" />
=======
	<node id="-360216" lat="62.0357638921" lon="9.27176110218">
		<tag k="name" v="Torvmyre" />
>>>>>>> e1d4bc35ff8a6074a6f2e91616a996b547c36f15
		<tag k="natural" v="wetland" />
		<tag k="ssr:stedsnr" v="535848" />
	</node>
<<<<<<< HEAD
	<node lat="62.0850083369909" lon="9.797980546668915" id="-20733">
		<tag k="name" v="Sautunga" />
		<tag k="place" v="locality" />
		<tag k="ssr:stedsnr" v="536278" />
	</node>
	<node lat="62.08709722013642" lon="9.661502772278235" id="-20736">
		<tag k="historic" v="shieling" />
		<tag k="name" v="Tallerås" />
		<tag k="place" v="locality" />
		<tag k="ssr:stedsnr" v="536265" />
	</node>
	<node lat="62.021811107243856" lon="9.643775005534565" id="-20745">
=======
	<node id="-359718" lat="61.9893027794" lon="9.23096111033">
		<tag k="name" v="Tofteengene" />
		<tag k="place" v="locality" />
		<tag k="ssr:stedsnr" v="232680" />
	</node>
	<node id="-360086" lat="62.0218111072" lon="9.64377500553">
>>>>>>> e1d4bc35ff8a6074a6f2e91616a996b547c36f15
		<tag k="name" v="Kalvmyre" />
		<tag k="natural" v="wetland" />
		<tag k="ssr:stedsnr" v="536554" />
	</node>
<<<<<<< HEAD
	<node lat="62.12292221792459" lon="9.168291675972206" id="-20783">
		<tag k="name" v="Gardsendlangmyre" />
		<tag k="natural" v="wetland" />
		<tag k="ssr:stedsnr" v="594237" />
	</node>
	<node lat="62.15372499823314" lon="9.340113880588213" id="-20789">
		<tag k="name" v="Samuelsmyrin" />
		<tag k="natural" v="wetland" />
		<tag k="ssr:stedsnr" v="596433" />
	</node>
	<node lat="62.12120000170511" lon="9.171730556577387" id="-20804">
		<tag k="name" v="Kvitstein" />
		<tag k="natural" v="stone" />
		<tag k="ssr:stedsnr" v="597074" />
	</node>
	<node lat="62.01764444310038" lon="9.15294999605574" id="-20809">
		<tag k="name" v="Vehlmanningen" />
		<tag k="place" v="locality" />
		<tag k="ssr:stedsnr" v="597340" />
	</node>
	<node lat="61.93518888558948" lon="9.250266659204147" id="-20826">
		<tag k="historic" v="shieling" />
		<tag k="name" v="Magnhildsætre" />
		<tag k="place" v="locality" />
		<tag k="ssr:stedsnr" v="617903" />
	</node>
	<node lat="62.11819444887928" lon="9.136188880068225" id="-20846">
		<tag k="name" v="Grønseterlangmyre" />
		<tag k="natural" v="wetland" />
		<tag k="ssr:stedsnr" v="657126" />
	</node>
	<node lat="61.90376111292493" lon="9.386066662561065" id="-20865">
=======
	<node id="-360841" lat="62.1229222179" lon="9.16829167597">
		<tag k="name" v="Gardsendlangmyre" />
		<tag k="natural" v="wetland" />
		<tag k="ssr:stedsnr" v="594237" />
	</node>
	<node id="-360777" lat="62.1016083363" lon="9.11825833434">
		<tag k="name" v="Skjeftmyre" />
		<tag k="natural" v="wetland" />
		<tag k="ssr:stedsnr" v="535848" />
	</node>
	<node id="-360210" lat="61.905047225" lon="9.40302221326">
		<tag k="name" v="Restflaten" />
		<tag k="place" v="locality" />
		<tag k="ssr:stedsnr" v="900000" />
	</node>
	<node id="-360209" lat="61.9017416698" lon="9.43209722919">
		<tag k="alt_name" v="Vardamorkja" />
		<tag k="name" v="Valamorkje" />
		<tag k="place" v="locality" />
		<tag k="ssr:stedsnr" v="899996" />
	</node>
	<node id="-359951" lat="62.0391999964" lon="9.65969165888">
		<tag k="name" v="Svartslåe" />
		<tag k="place" v="locality" />
		<tag k="ssr:stedsnr" v="476536" />
	</node>
	<node id="-360590" lat="62.1051249965" lon="9.18058333476">
		<tag k="alt_name" v="Stakstomyra" />
		<tag k="name" v="Stakkstomyri" />
		<tag k="natural" v="wetland" />
		<tag k="ssr:stedsnr" v="193897" />
	</node>
	<node id="-359874" lat="62.065069445" lon="9.28982499249">
		<tag k="name" v="Gråura" />
		<tag k="natural" v="scree" />
		<tag k="ssr:stedsnr" v="293994" />
	</node>
	<node id="-360714" lat="62.0584222209" lon="9.52683055485">
		<tag k="name" v="Akerjordet" />
		<tag k="place" v="locality" />
		<tag k="ssr:stedsnr" v="415266" />
	</node>
	<node id="-360969" lat="62.0902972224" lon="9.7759222162">
		<tag k="name" v="Mesetermyre" />
		<tag k="natural" v="wetland" />
		<tag k="ssr:stedsnr" v="779575" />
	</node>
	<node id="-360199" lat="61.9037611129" lon="9.38606666256">
>>>>>>> e1d4bc35ff8a6074a6f2e91616a996b547c36f15
		<tag k="name" v="Lillerusten" />
		<tag k="place" v="locality" />
		<tag k="ssr:stedsnr" v="716963" />
	</node>
<<<<<<< HEAD
	<node lat="62.253986112719694" lon="9.45287776996324" id="-20922">
		<tag k="name" v="Haukbergsmyrin" />
		<tag k="natural" v="wetland" />
		<tag k="ssr:stedsnr" v="739515" />
	</node>
	<node lat="62.058205559798445" lon="9.594888893796433" id="-20944">
=======
	<node id="-359942" lat="62.1439444406" lon="9.31608333868">
		<tag k="name" v="Sjugurdsmyre" />
		<tag k="natural" v="wetland" />
		<tag k="ssr:stedsnr" v="475462" />
	</node>
	<node id="-360581" lat="62.1117416664" lon="9.42557778525">
		<tag k="name" v="Kvannsteinen" />
		<tag k="natural" v="stone" />
		<tag k="ssr:stedsnr" v="193643" />
	</node>
	<node id="-360866" lat="62.0176444431" lon="9.15294999606">
		<tag k="name" v="Vehlmanningen" />
		<tag k="place" v="locality" />
		<tag k="ssr:stedsnr" v="597340" />
	</node>
	<node id="-360579" lat="62.1092833329" lon="9.82437499249">
		<tag k="landuse" v="quarry" />
		<tag k="name" v="Grimsdalsgruva" />
		<tag k="ssr:stedsnr" v="193495" />
	</node>
	<node id="-360962" lat="62.0582055598" lon="9.5948888938">
>>>>>>> e1d4bc35ff8a6074a6f2e91616a996b547c36f15
		<tag k="historic" v="shieling" />
		<tag k="name" v="Pondarvangen" />
		<tag k="place" v="locality" />
		<tag k="ssr:stedsnr" v="779274" />
	</node>
<<<<<<< HEAD
	<node lat="62.09029722244934" lon="9.775922216204687" id="-20949">
		<tag k="name" v="Mesetermyre" />
		<tag k="natural" v="wetland" />
		<tag k="ssr:stedsnr" v="779575" />
	</node>
	<node lat="61.936516668551214" lon="9.2474472219008" id="-20988">
		<tag k="historic" v="shieling" />
		<tag k="name" v="Stugusætre" />
		<tag k="place" v="locality" />
		<tag k="ssr:stedsnr" v="800887" />
	</node>
	<node lat="62.08738611089996" lon="9.802100005032216" id="-21070">
		<tag k="name" v="Langhaug" />
		<tag k="place" v="locality" />
		<tag k="ssr:stedsnr" v="961283" />
=======
	<node id="-360491" lat="62.1382083353" lon="9.23683888857">
		<tag k="name" v="Gardsendmyre" />
		<tag k="natural" v="wetland" />
		<tag k="ssr:stedsnr" v="112075" />
>>>>>>> e1d4bc35ff8a6074a6f2e91616a996b547c36f15
	</node>
</osm>
