<?xml version="1.0" encoding="UTF-8"?>
<osm version="0.6" generator="osmapis">
	<node lat="62.03488611073623" lon="9.130988890231272" id="-41497">
		<tag k="alt_name" v="Engelien" />
		<tag k="name" v="Engelii" />
		<tag k="place" v="farm" />
		<tag k="ssr:stedsnr" v="253576" />
	</node>
	<node lat="62.08141666262262" lon="9.103286117422975" id="-41500">
		<tag k="alt_name" v="Storløkken" />
		<tag k="name" v="Storlykkja" />
		<tag k="place" v="farm" />
		<tag k="ssr:stedsnr" v="10610" />
	</node>
	<node lat="62.02378333544048" lon="9.409858342201845" id="-41501">
		<tag k="name" v="Vegaskilet" />
		<tag k="place" v="isolated_dwelling" />
		<tag k="ssr:stedsnr" v="10642" />
	</node>
	<node lat="62.062963884650195" lon="9.086405555181782" id="-41502">
		<tag k="name" v="Holen" />
		<tag k="place" v="farm" />
		<tag k="ssr:stedsnr" v="10595" />
	</node>
	<node lat="61.903286114948635" lon="9.37090554625707" id="-41506">
		<tag k="name" v="Bakkestugu" />
		<tag k="place" v="farm" />
		<tag k="ssr:stedsnr" v="10998" />
	</node>
	<node lat="61.90056944611694" lon="9.383033327457975" id="-41511">
		<tag k="name" v="Elvestad" />
		<tag k="place" v="farm" />
		<tag k="ssr:stedsnr" v="231992" />
	</node>
	<node lat="62.01931666264952" lon="9.193652783248265" id="-41514">
		<tag k="name" v="Bruvoll" />
		<tag k="place" v="farm" />
		<tag k="ssr:stedsnr" v="232683" />
	</node>
	<node lat="62.021683331556346" lon="9.203263885340919" id="-41515">
		<tag k="name" v="Nyløkken" />
		<tag k="place" v="farm" />
		<tag k="ssr:stedsnr" v="232685" />
	</node>
	<node lat="62.037869443658174" lon="9.146922218844006" id="-41521">
		<tag k="name" v="Furuhaugen" />
		<tag k="place" v="isolated_dwelling" />
		<tag k="ssr:stedsnr" v="233344" />
	</node>
	<node lat="62.04598333263333" lon="9.143236116134442" id="-41522">
		<tag k="name" v="Mossjordet" />
		<tag k="place" v="hamlet" />
		<tag k="ssr:stedsnr" v="233350" />
	</node>
	<node lat="62.046008335021895" lon="9.15649166515158" id="-41523">
		<tag k="name" v="Ulekleiv" />
		<tag k="place" v="farm" />
		<tag k="ssr:stedsnr" v="233353" />
	</node>
	<node lat="61.99014444011436" lon="9.242869443924643" id="-41525">
		<tag k="name" v="Marøy" />
		<tag k="place" v="farm" />
		<tag k="ssr:stedsnr" v="233543" />
	</node>
	<node lat="61.940022220071455" lon="9.282977777156798" id="-41532">
		<tag k="name" v="Søre Brenden" />
		<tag k="place" v="farm" />
		<tag k="ssr:stedsnr" v="37668" />
	</node>
	<node lat="62.0749349550049" lon="9.108813062578973" id="-41533">
		<tag k="alt_name" v="Brekken" />
		<tag k="fixme" v="consider place=hamlet" />
		<tag k="name" v="Brekka" />
		<tag k="place" v="farm" />
		<tag k="ssr:stedsnr" v="236562" />
	</node>
	<node lat="62.14382222039591" lon="9.223802772698233" id="-41542">
		<tag k="historic" v="shieling" />
		<tag k="name" v="Rolstad seter" />
		<tag k="place" v="isolated_dwelling" />
		<tag k="ssr:stedsnr" v="51073" />
	</node>
	<node lat="62.03876111213229" lon="9.151016663371864" id="-41543">
		<tag k="name" v="Fram" />
		<tag k="place" v="isolated_dwelling" />
		<tag k="ssr:stedsnr" v="51375" />
	</node>
	<node lat="61.9852083361138" lon="9.25137499197214" id="-41545">
		<tag k="building" v="industrial" />
		<tag k="name" v="Almli verksted" />
		<tag k="ssr:stedsnr" v="51580" />
	</node>
	<node lat="61.98586216096026" lon="9.269143290645184" id="-41552">
		<tag k="fixme" v="consider place=hamlet" />
		<tag k="name" v="Åsen" />
		<tag k="place" v="farm" />
		<tag k="ssr:stedsnr" v="71418" />
	</node>
	<node lat="62.02483611182256" lon="9.171583330221155" id="-41555">
		<tag k="alt_name" v="Tellede" />
		<tag k="name" v="Telle" />
		<tag k="place" v="farm" />
		<tag k="ssr:stedsnr" v="71585" />
	</node>
	<node lat="61.9777972180849" lon="9.238499994819792" id="-41562">
		<tag k="name" v="Tårudmoen" />
		<tag k="place" v="farm" />
		<tag k="ssr:stedsnr" v="71944" />
	</node>
	<node lat="61.97299721797755" lon="9.168958332058079" id="-41564">
		<tag k="historic" v="shieling" />
		<tag k="loc_name" v="Nysætre" />
		<tag k="name" v="Nysætri" />
		<tag k="place" v="isolated_dwelling" />
		<tag k="ssr:stedsnr" v="72173" />
	</node>
	<node lat="62.01997777813634" lon="9.170544441881573" id="-41569">
		<tag k="fixme" v="multiple name tags, choose one and add the other to alt_name" />
		<tag k="name" v="Lii;Arnekleivslien" />
		<tag k="place" v="isolated_dwelling" />
		<tag k="ssr:stedsnr" v="72516" />
	</node>
	<node lat="61.97317837615533" lon="9.319654664524943" id="-41578">
		<tag k="historic" v="shieling" />
		<tag k="name" v="Gammelsetra" />
		<tag k="place" v="isolated_dwelling" />
		<tag k="ssr:stedsnr" v="97605" />
	</node>
	<node lat="61.91849167085612" lon="9.344916671114463" id="-41579">
		<tag k="name" v="Breidalslykkja" />
		<tag k="place" v="locality" />
		<tag k="ssr:stedsnr" v="98666" />
	</node>
	<node lat="61.93406944740833" lon="9.325613896867834" id="-41580">
		<tag k="name" v="Rindal" />
		<tag k="place" v="farm" />
		<tag k="ssr:stedsnr" v="98678" />
	</node>
	<node lat="62.05518055439331" lon="9.13324443843741" id="-41581">
		<tag k="name" v="Hjellejordet" />
		<tag k="place" v="farm" />
		<tag k="ssr:stedsnr" v="111477" />
	</node>
	<node lat="61.91354999837147" lon="9.42500276835265" id="-41582">
		<tag k="historic" v="shieling" />
		<tag k="name" v="Øygardssætre" />
		<tag k="place" v="isolated_dwelling" />
		<tag k="ssr:stedsnr" v="111716" />
	</node>
	<node lat="61.94699444695747" lon="9.273349993646711" id="-41593">
		<tag k="name" v="Mikkelranden" />
		<tag k="place" v="farm" />
		<tag k="ssr:stedsnr" v="112668" />
	</node>
	<node lat="62.020550000576605" lon="9.180658325958088" id="-41599">
		<tag k="alt_name" v="Flateng" />
		<tag k="name" v="Flatengi" />
		<tag k="place" v="farm" />
		<tag k="ssr:stedsnr" v="132508" />
	</node>
	<node lat="61.94551944634511" lon="9.25545555387422" id="-41609">
		<tag k="name" v="Kroken" />
		<tag k="place" v="farm" />
		<tag k="ssr:stedsnr" v="132916" />
	</node>
	<node lat="61.98627222169651" lon="9.201994452436526" id="-41614">
		<tag k="alt_name" v="Gamle Toftesetre;Toftesætri, gamle" />
		<tag k="historic" v="shieling" />
		<tag k="name" v="Gamle Toftesætri" />
		<tag k="place" v="isolated_dwelling" />
		<tag k="ssr:stedsnr" v="253196" />
	</node>
	<node lat="62.052898323574524" lon="9.147325274046185" id="-41617">
		<tag k="name" v="Hjelle" />
		<tag k="place" v="hamlet" />
		<tag k="ssr:stedsnr" v="253595" />
	</node>
	<node lat="62.02860833318237" lon="9.189905548798949" id="-41619">
		<tag k="name" v="Arnheim" />
		<tag k="place" v="farm" />
		<tag k="ssr:stedsnr" v="253568" />
	</node>
	<node lat="62.035999998299744" lon="9.15312778131929" id="-41620">
		<tag k="alt_name" v="Ødegården;Ulekleivsødegård;Ulekleivsødegården" />
		<tag k="fixme" v="multiple name tags, choose one and add the other to alt_name" />
		<tag k="name" v="Ulekleivsøygarden;Øygarden" />
		<tag k="place" v="farm" />
		<tag k="ssr:stedsnr" v="253573" />
	</node>
	<node lat="61.95322221905999" lon="9.263602783032079" id="-41625">
		<tag k="alt_name" v="Søndre Rudilykkja" />
		<tag k="name" v="Søre Rudilykkja" />
		<tag k="place" v="farm" />
		<tag k="ssr:stedsnr" v="253918" />
	</node>
	<node lat="62.15975555610351" lon="9.368219442328943" id="-41631">
		<tag k="alt_name" v="Gråberg seter" />
		<tag k="historic" v="shieling" />
		<tag k="name" v="Gråbergsætri" />
		<tag k="place" v="isolated_dwelling" />
		<tag k="ssr:stedsnr" v="254661" />
	</node>
	<node lat="61.93701022760401" lon="9.315236840055395" id="-41634">
		<tag k="fixme" v="multiple name tags, choose one and add the other to alt_name; consider place=hamlet" />
		<tag k="name" v="Plassen;Bjørke" />
		<tag k="place" v="farm" />
		<tag k="ssr:stedsnr" v="254884" />
	</node>
	<node lat="61.91926666653424" lon="9.341800009170608" id="-41636">
		<tag k="name" v="Urå" />
		<tag k="place" v="isolated_dwelling" />
		<tag k="ssr:stedsnr" v="158669" />
	</node>
	<node lat="62.01821944291396" lon="9.229624990788427" id="-41637">
		<tag k="name" v="Haugje" />
		<tag k="place" v="farm" />
		<tag k="ssr:stedsnr" v="168375" />
	</node>
	<node lat="61.91479721981301" lon="9.363852781106177" id="-41641">
		<tag k="name" v="Bjørke" />
		<tag k="place" v="isolated_dwelling" />
		<tag k="ssr:stedsnr" v="171774" />
	</node>
	<node lat="62.12873610947434" lon="9.131388891905297" id="-41646">
		<tag k="historic" v="shieling" />
		<tag k="name" v="Mariplass seter" />
		<tag k="place" v="isolated_dwelling" />
		<tag k="ssr:stedsnr" v="172121" />
	</node>
	<node lat="61.98022778126258" lon="9.254208332178372" id="-41647">
		<tag k="building" v="commercial" />
		<tag k="name" v="Høyveg" />
		<tag k="ssr:stedsnr" v="172613" />
	</node>
	<node lat="62.24320555285344" lon="9.690175003827799" id="-41650">
		<tag k="name" v="Gammel Ellanlykkja" />
		<tag k="place" v="locality" />
		<tag k="ssr:stedsnr" v="172556" />
	</node>
	<node lat="61.9861083326576" lon="9.248252778269677" id="-41652">
		<tag k="alt_name" v="Dovre skole" />
		<tag k="amenity" v="school" />
		<tag k="name" v="Dovre skule" />
		<tag k="ssr:stedsnr" v="172568" />
	</node>
	<node lat="61.97200833348138" lon="9.237005564353014" id="-41653">
		<tag k="name" v="Snekkerlien" />
		<tag k="place" v="farm" />
		<tag k="ssr:stedsnr" v="172773" />
	</node>
	<node lat="61.96743888887435" lon="9.254874998046253" id="-41659">
		<tag k="name" v="Andgardsvollen" />
		<tag k="place" v="farm" />
		<tag k="ssr:stedsnr" v="219592" />
	</node>
	<node lat="62.020616670210444" lon="9.223397220624962" id="-41660">
		<tag k="name" v="Vesle Ruste" />
		<tag k="old_name" v="Lille Ruste" />
		<tag k="place" v="farm" />
		<tag k="ssr:stedsnr" v="222315" />
	</node>
	<node lat="62.03721111164901" lon="9.349099993511384" id="-41663">
		<tag k="name" v="Rustemåsåhuset" />
		<tag k="place" v="isolated_dwelling" />
		<tag k="ssr:stedsnr" v="232992" />
	</node>
	<node lat="61.94991389300705" lon="9.29214444568713" id="-41669">
		<tag k="building" v="industrial" />
		<tag k="name" v="Ålmenningssagje" />
		<tag k="ssr:stedsnr" v="233682" />
	</node>
	<node lat="61.99915807476415" lon="9.258644633003833" id="-41671">
		<tag k="fixme" v="consider place=hamlet" />
		<tag k="name" v="Hovde" />
		<tag k="place" v="farm" />
		<tag k="ssr:stedsnr" v="253434" />
	</node>
	<node lat="62.06146613104875" lon="9.090906971866191" id="-41672">
		<tag k="alt_name" v="Blestrud nordre" />
		<tag k="name" v="Blestra" />
		<tag k="place" v="farm" />
		<tag k="ssr:stedsnr" v="253606" />
	</node>
	<node lat="62.06008333503283" lon="9.103972227856877" id="-41673">
		<tag k="name" v="Fossen" />
		<tag k="place" v="farm" />
		<tag k="ssr:stedsnr" v="253608" />
	</node>
	<node lat="62.08542777386305" lon="9.127036120170581" id="-41674">
		<tag k="alt_name" v="Morken" />
		<tag k="name" v="Morki" />
		<tag k="place" v="farm" />
		<tag k="ssr:stedsnr" v="253622" />
	</node>
	<node lat="62.00019444004235" lon="9.255786110909487" id="-41675">
		<tag k="name" v="Hovde" />
		<tag k="place" v="farm" />
		<tag k="ssr:stedsnr" v="253710" />
	</node>
	<node lat="62.197402295309" lon="9.510676910914398" id="-41677">
		<tag k="alt_name" v="Hegglingen vokterbolig" />
		<tag k="name" v="Hegglingen" />
		<tag k="place" v="isolated_dwelling" />
		<tag k="ssr:stedsnr" v="253730" />
	</node>
	<node lat="61.897205556359" lon="9.386727771020064" id="-41680">
		<tag k="name" v="Svastugu" />
		<tag k="place" v="isolated_dwelling" />
		<tag k="ssr:stedsnr" v="253983" />
	</node>
	<node lat="62.01961944655624" lon="9.138063883719958" id="-41681">
		<tag k="alt_name" v="Hagevollseter" />
		<tag k="historic" v="shieling" />
		<tag k="name" v="Hågåvollsætri" />
		<tag k="place" v="isolated_dwelling" />
		<tag k="ssr:stedsnr" v="254511" />
	</node>
	<node lat="61.97108610738855" lon="9.248172229106933" id="-41684">
		<tag k="name" v="Snekkerhaugen" />
		<tag k="place" v="isolated_dwelling" />
		<tag k="ssr:stedsnr" v="461596" />
	</node>
	<node lat="61.91188055804261" lon="9.414305557659873" id="-41686">
		<tag k="historic" v="shieling" />
		<tag k="name" v="Storrustløkken seter" />
		<tag k="place" v="isolated_dwelling" />
		<tag k="ssr:stedsnr" v="292985" />
	</node>
	<node lat="62.009644442331826" lon="9.217566670507187" id="-41690">
		<tag k="name" v="Myrhaug" />
		<tag k="place" v="isolated_dwelling" />
		<tag k="ssr:stedsnr" v="293736" />
	</node>
	<node lat="62.01523888882852" lon="9.151650007374572" id="-41693">
		<tag k="historic" v="shieling" />
		<tag k="name" v="Ødegårdseter" />
		<tag k="place" v="isolated_dwelling" />
		<tag k="ssr:stedsnr" v="294319" />
	</node>
	<node lat="61.94681389228876" lon="9.26086389641448" id="-41694">
		<tag k="name" v="Jettheim" />
		<tag k="place" v="farm" />
		<tag k="ssr:stedsnr" v="294683" />
	</node>
	<node lat="62.073225002524204" lon="9.121122214439607" id="-41698">
		<tag k="name" v="Dombåstun" />
		<tag k="ssr:stedsnr" v="314610" />
		<tag k="tourism" v="hotel" />
	</node>
	<node lat="62.019816666224806" lon="9.179972228492364" id="-41699">
		<tag k="name" v="Nylund" />
		<tag k="place" v="farm" />
		<tag k="ssr:stedsnr" v="314556" />
	</node>
	<node lat="62.02967777570734" lon="9.15289167615092" id="-41700">
		<tag k="name" v="Rusthaugen" />
		<tag k="old_name" v="Bjørkheim" />
		<tag k="place" v="farm" />
		<tag k="ssr:stedsnr" v="314568" />
	</node>
	<node lat="62.025561106803934" lon="9.120836114769455" id="-41701">
		<tag k="historic" v="shieling" />
		<tag k="name" v="Ukleivsætrin" />
		<tag k="place" v="isolated_dwelling" />
		<tag k="ssr:stedsnr" v="314570" />
	</node>
	<node lat="62.16501111211687" lon="9.34731112002243" id="-41703">
		<tag k="name" v="Lesjabekk" />
		<tag k="place" v="isolated_dwelling" />
		<tag k="ssr:stedsnr" v="314712" />
	</node>
	<node lat="61.91430000147669" lon="9.350074997147498" id="-41708">
		<tag k="alt_name" v="Søndre Leren" />
		<tag k="name" v="Søre Leren" />
		<tag k="place" v="farm" />
		<tag k="ssr:stedsnr" v="340694" />
	</node>
	<node lat="62.10439166688817" lon="9.22555278556677" id="-41710">
		<tag k="name" v="Nordseter vokterbolig" />
		<tag k="place" v="isolated_dwelling" />
		<tag k="ssr:stedsnr" v="354113" />
	</node>
	<node lat="62.04625277948973" lon="9.141530561443837" id="-41711">
		<tag k="name" v="Aafaret" />
		<tag k="place" v="farm" />
		<tag k="ssr:stedsnr" v="354322" />
	</node>
	<node lat="62.05234166443622" lon="9.145313890118178" id="-41712">
		<tag k="name" v="Hjelle" />
		<tag k="place" v="farm" />
		<tag k="ssr:stedsnr" v="354511" />
	</node>
	<node lat="62.04650277575032" lon="9.143333325380155" id="-41713">
		<tag k="name" v="Steindal" />
		<tag k="place" v="isolated_dwelling" />
		<tag k="ssr:stedsnr" v="475327" />
	</node>
	<node lat="61.90339166297596" lon="9.367447221788685" id="-41718">
		<tag k="name" v="Bakkestugulykkja" />
		<tag k="place" v="locality" />
		<tag k="ssr:stedsnr" v="474967" />
	</node>
	<node lat="62.08568611483451" lon="9.1241722210213" id="-41719">
		<tag k="name" v="Norlandia Dovrefjell Hotell" />
		<tag k="ssr:stedsnr" v="475099" />
		<tag k="tourism" v="hotel" />
	</node>
	<node lat="62.07987221996622" lon="9.150208340379143" id="-41722">
		<tag k="building" v="industrial" />
		<tag k="name" v="Dombås vannverk" />
		<tag k="ssr:stedsnr" v="475104" />
	</node>
	<node lat="62.031194448924985" lon="9.17551110760955" id="-41725">
		<tag k="name" v="Hage" />
		<tag k="place" v="farm" />
		<tag k="ssr:stedsnr" v="475271" />
	</node>
	<node lat="61.9613722193704" lon="9.251805557625893" id="-41729">
		<tag k="name" v="Vestli" />
		<tag k="place" v="farm" />
		<tag k="ssr:stedsnr" v="475646" />
	</node>
	<node lat="61.94097499974023" lon="9.279936108476551" id="-41730">
		<tag k="name" v="Svartbrenna" />
		<tag k="place" v="farm" />
		<tag k="ssr:stedsnr" v="475654" />
	</node>
	<node lat="61.91141944690127" lon="9.421922226882335" id="-41731">
		<tag k="historic" v="shieling" />
		<tag k="name" v="Elvestadsætre" />
		<tag k="place" v="isolated_dwelling" />
		<tag k="ssr:stedsnr" v="475751" />
	</node>
	<node lat="61.947885160182615" lon="9.218585136089901" id="-41734">
		<tag k="name" v="Åbakken" />
		<tag k="place" v="farm" />
		<tag k="ssr:stedsnr" v="476741" />
	</node>
	<node lat="61.946616670121415" lon="9.215933330856693" id="-41735">
		<tag k="name" v="Søristugu Jøndal" />
		<tag k="place" v="farm" />
		<tag k="ssr:stedsnr" v="476746" />
	</node>
	<node lat="62.00255374913687" lon="9.239361291218" id="-41736">
		<tag k="fixme" v="consider place=hamlet" />
		<tag k="name" v="Tofte" />
		<tag k="place" v="farm" />
		<tag k="ssr:stedsnr" v="374344" />
	</node>
	<node lat="61.97916111334919" lon="9.232302775480726" id="-41737">
		<tag k="name" v="Hanslykkja" />
		<tag k="place" v="farm" />
		<tag k="ssr:stedsnr" v="374389" />
	</node>
	<node lat="62.05093333693853" lon="9.155219440344217" id="-41739">
		<tag k="name" v="Enge" />
		<tag k="place" v="farm" />
		<tag k="ssr:stedsnr" v="374550" />
	</node>
	<node lat="62.05220278188338" lon="9.149419443753263" id="-41740">
		<tag k="alt_name" v="Hjelle" />
		<tag k="name" v="Skånke" />
		<tag k="place" v="farm" />
		<tag k="ssr:stedsnr" v="374551" />
	</node>
	<node lat="61.919995299082174" lon="9.340129394221877" id="-41752">
		<tag k="name" v="Brennhaugen" />
		<tag k="place" v="farm" />
		<tag k="ssr:stedsnr" v="374902" />
	</node>
	<node lat="62.03161666579126" lon="9.150349998397799" id="-41757">
		<tag k="name" v="Hestdalen" />
		<tag k="place" v="farm" />
		<tag k="ssr:stedsnr" v="375500" />
	</node>
	<node lat="61.93388611540019" lon="9.303497216019805" id="-41762">
		<tag k="name" v="Strand" />
		<tag k="place" v="farm" />
		<tag k="ssr:stedsnr" v="375884" />
	</node>
	<node lat="62.020616670210444" lon="9.223397220624962" id="-41767">
		<tag k="name" v="Nordistugu Ruste" />
		<tag k="old_name" v="Nordistuen Ruste" />
		<tag k="place" v="farm" />
		<tag k="ssr:stedsnr" v="404326" />
	</node>
	<node lat="61.917036108725505" lon="9.40534166110997" id="-41769">
		<tag k="historic" v="shieling" />
		<tag k="name" v="Ulheim seter" />
		<tag k="place" v="isolated_dwelling" />
		<tag k="ssr:stedsnr" v="413991" />
	</node>
	<node lat="61.89883610986723" lon="9.384402785075707" id="-41770">
		<tag k="name" v="Broløkken" />
		<tag k="place" v="isolated_dwelling" />
		<tag k="ssr:stedsnr" v="413997" />
	</node>
	<node lat="62.037986106957774" lon="9.141824999850027" id="-41776">
		<tag k="name" v="Babylon" />
		<tag k="place" v="locality" />
		<tag k="ssr:stedsnr" v="415335" />
	</node>
	<node lat="62.047672221914645" lon="9.138069450644133" id="-41777">
		<tag k="name" v="Rotvold" />
		<tag k="place" v="locality" />
		<tag k="ssr:stedsnr" v="415340" />
	</node>
	<node lat="62.02155000355583" lon="9.165711105614541" id="-41778">
		<tag k="name" v="Brennhaugen" />
		<tag k="place" v="farm" />
		<tag k="ssr:stedsnr" v="415347" />
	</node>
	<node lat="62.105119445659355" lon="9.266097219012286" id="-41779">
		<tag k="historic" v="shieling" />
		<tag k="name" v="Gammel-Fokstugu" />
		<tag k="place" v="isolated_dwelling" />
		<tag k="ssr:stedsnr" v="415507" />
	</node>
	<node lat="62.00108888908378" lon="9.25312778362948" id="-41782">
		<tag k="name" v="Øverjordet" />
		<tag k="place" v="farm" />
		<tag k="ssr:stedsnr" v="435363" />
	</node>
	<node lat="62.088136111138034" lon="9.127486110671308" id="-41784">
		<tag k="name" v="Svenskebakken" />
		<tag k="place" v="farm" />
		<tag k="ssr:stedsnr" v="435616" />
	</node>
	<node lat="62.021436107383984" lon="9.162005563680522" id="-41785">
		<tag k="alt_name" v="Nordlien" />
		<tag k="loc_name" v="Nordlie" />
		<tag k="name" v="Nordlii" />
		<tag k="place" v="farm" />
		<tag k="ssr:stedsnr" v="436514" />
	</node>
	<node lat="62.04484721871901" lon="9.12259444585906" id="-41798">
		<tag k="name" v="Kårstad" />
		<tag k="place" v="isolated_dwelling" />
		<tag k="ssr:stedsnr" v="475322" />
	</node>
	<node lat="62.09760833565625" lon="9.243383329029692" id="-41806">
		<tag k="historic" v="shieling" />
		<tag k="name" v="Domås Nygarden seter" />
		<tag k="place" v="isolated_dwelling" />
		<tag k="ssr:stedsnr" v="475472" />
	</node>
	<node lat="62.01471666873088" lon="9.151991657234944" id="-41810">
		<tag k="alt_name" v="Manningsetrene" />
		<tag k="name" v="Maningsætrin" />
		<tag k="place" v="hamlet" />
		<tag k="ssr:stedsnr" v="678535" />
	</node>
	<node lat="62.057891669844444" lon="9.095391661093036" id="-41813">
		<tag k="alt_name" v="Snipen" />
		<tag k="name" v="Snippen" />
		<tag k="place" v="farm" />
		<tag k="ssr:stedsnr" v="678569" />
	</node>
	<node lat="62.02055175313302" lon="9.221238507245255" id="-41815">
		<tag k="fixme" v="consider place=hamlet" />
		<tag k="name" v="Ruste" />
		<tag k="place" v="farm" />
		<tag k="ssr:stedsnr" v="678634" />
	</node>
	<node lat="62.018316955785146" lon="9.225210321334496" id="-41816">
		<tag k="alt_name" v="Hauge" />
		<tag k="fixme" v="consider place=hamlet" />
		<tag k="name" v="Haugje" />
		<tag k="place" v="farm" />
		<tag k="ssr:stedsnr" v="678635" />
	</node>
	<node lat="61.964091662470004" lon="9.712722220428569" id="-41820">
		<tag k="name" v="Ragnhildstad" />
		<tag k="place" v="locality" />
		<tag k="ssr:stedsnr" v="678643" />
	</node>
	<node lat="61.92848888616071" lon="9.318836115326198" id="-41830">
		<tag k="name" v="Vadet" />
		<tag k="place" v="farm" />
		<tag k="ssr:stedsnr" v="678864" />
	</node>
	<node lat="62.023513885524686" lon="9.21971944446958" id="-41835">
		<tag k="name" v="Åteigen" />
		<tag k="place" v="farm" />
		<tag k="ssr:stedsnr" v="495659" />
	</node>
	<node lat="62.002580554456664" lon="9.251427775791726" id="-41836">
		<tag k="alt_name" v="Schjellom" />
		<tag k="name" v="Skjellom" />
		<tag k="place" v="farm" />
		<tag k="ssr:stedsnr" v="496342" />
	</node>
	<node lat="62.085743678324256" lon="9.111468159121154" id="-41838">
		<tag k="alt_name" v="Hinden" />
		<tag k="fixme" v="consider place=hamlet" />
		<tag k="name" v="Hindi" />
		<tag k="place" v="farm" />
		<tag k="ssr:stedsnr" v="496611" />
	</node>
	<node lat="61.952213891053944" lon="9.26391388126578" id="-41849">
		<tag k="name" v="Talleråsmoen" />
		<tag k="place" v="farm" />
		<tag k="ssr:stedsnr" v="496902" />
	</node>
	<node lat="61.94363610680016" lon="9.294322226115598" id="-41850">
		<tag k="name" v="Haugom" />
		<tag k="place" v="farm" />
		<tag k="ssr:stedsnr" v="496904" />
	</node>
	<node lat="61.95036388659165" lon="9.296350007690496" id="-41853">
		<tag k="alt_name" v="Sætrom" />
		<tag k="name" v="Søre Sætrom" />
		<tag k="place" v="farm" />
		<tag k="ssr:stedsnr" v="496910" />
	</node>
	<node lat="61.974672218465166" lon="9.251666673281049" id="-41855">
		<tag k="name" v="Nedre Vigerust" />
		<tag k="place" v="farm" />
		<tag k="ssr:stedsnr" v="521581" />
	</node>
	<node lat="61.939622218713474" lon="9.296450006337809" id="-41857">
		<tag k="name" v="Solheim" />
		<tag k="place" v="farm" />
		<tag k="ssr:stedsnr" v="522648" />
	</node>
	<node lat="61.92159166764522" lon="9.357216657933824" id="-41858">
		<tag k="name" v="Søre Haugen" />
		<tag k="place" v="farm" />
		<tag k="ssr:stedsnr" v="522659" />
	</node>
	<node lat="62.07328313569004" lon="9.105901297032936" id="-41861">
		<tag k="fixme" v="consider place=hamlet" />
		<tag k="name" v="Soleglad" />
		<tag k="place" v="farm" />
		<tag k="ssr:stedsnr" v="535779" />
	</node>
	<node lat="62.07065710351713" lon="9.13160256106379" id="-41863">
		<tag k="fixme" v="consider place=hamlet" />
		<tag k="name" v="Lyshaugen" />
		<tag k="place" v="farm" />
		<tag k="ssr:stedsnr" v="536108" />
	</node>
	<node lat="62.07158889211392" lon="9.132269447374155" id="-41864">
		<tag k="name" v="Lyshaugen" />
		<tag k="ssr:stedsnr" v="536110" />
		<tag k="tourism" v="camp_site" />
	</node>
	<node lat="62.042519443633466" lon="9.138324996702485" id="-41867">
		<tag k="name" v="Garvarødegård" />
		<tag k="place" v="locality" />
		<tag k="ssr:stedsnr" v="536309" />
	</node>
	<node lat="62.163049997648" lon="9.347794450866003" id="-41869">
		<tag k="name" v="Lesjabekk vokterbolig" />
		<tag k="place" v="isolated_dwelling" />
		<tag k="ssr:stedsnr" v="536484" />
	</node>
	<node lat="62.05852500112172" lon="9.130647228908066" id="-41870">
		<tag k="name" v="Hekne" />
		<tag k="place" v="locality" />
		<tag k="ssr:stedsnr" v="536485" />
	</node>
	<node lat="62.0116207967372" lon="9.211751344983474" id="-41871">
		<tag k="alt_name" v="Lannem" />
		<tag k="fixme" v="consider place=hamlet" />
		<tag k="name" v="Landheim" />
		<tag k="place" v="farm" />
		<tag k="ssr:stedsnr" v="536517" />
	</node>
	<node lat="62.03713055918326" lon="9.349041665876523" id="-41872">
		<tag k="name" v="Åteigen-måsåhuset" />
		<tag k="place" v="isolated_dwelling" />
		<tag k="ssr:stedsnr" v="536985" />
	</node>
	<node lat="62.051691667875396" lon="9.105686111586673" id="-41875">
		<tag k="alt_name" v="Lislien" />
		<tag k="name" v="Lislii" />
		<tag k="place" v="isolated_dwelling" />
		<tag k="ssr:stedsnr" v="556603" />
	</node>
	<node lat="62.00765277945872" lon="9.234091675603283" id="-41879">
		<tag k="name" v="Vesltofte" />
		<tag k="old_name" v="Tofte, vesle" />
		<tag k="place" v="farm" />
		<tag k="ssr:stedsnr" v="556659" />
	</node>
	<node lat="62.02853888581812" lon="9.199124996789516" id="-41881">
		<tag k="alt_name" v="Korsvol, øvre" />
		<tag k="name" v="Øvre Korsvoll" />
		<tag k="place" v="farm" />
		<tag k="ssr:stedsnr" v="556578" />
	</node>
	<node lat="62.12069991074969" lon="9.714004681998553" id="-41887">
		<tag k="name" v="Japi" />
		<tag k="place" v="locality" />
		<tag k="ssr:stedsnr" v="568825" />
	</node>
	<node lat="61.942822224889746" lon="9.30610832983793" id="-41888">
		<tag k="name" v="Nygarden" />
		<tag k="place" v="farm" />
		<tag k="ssr:stedsnr" v="582602" />
	</node>
	<node lat="61.964408334150185" lon="9.269755549531142" id="-41889">
		<tag k="name" v="Nedre Tallerås" />
		<tag k="place" v="farm" />
		<tag k="ssr:stedsnr" v="582606" />
	</node>
	<node lat="62.06623333467128" lon="9.121905557625553" id="-41892">
		<tag k="name" v="Berg" />
		<tag k="place" v="isolated_dwelling" />
		<tag k="ssr:stedsnr" v="596408" />
	</node>
	<node lat="62.06210555162268" lon="9.1252277832486" id="-41893">
		<tag k="name" v="Gråberg" />
		<tag k="place" v="farm" />
		<tag k="ssr:stedsnr" v="596419" />
	</node>
	<node lat="61.9531166709544" lon="9.274688881664497" id="-41895">
		<tag k="name" v="Brun" />
		<tag k="place" v="farm" />
		<tag k="ssr:stedsnr" v="597665" />
	</node>
	<node lat="61.98544999868298" lon="9.272058327739195" id="-41901">
		<tag k="name" v="Åsheim" />
		<tag k="place" v="farm" />
		<tag k="ssr:stedsnr" v="617416" />
	</node>
	<node lat="62.06784017409256" lon="9.07617261421956" id="-41903">
		<tag k="alt_name" v="Bentdal" />
		<tag k="fixme" v="consider place=hamlet" />
		<tag k="name" v="Bentdalen" />
		<tag k="place" v="farm" />
		<tag k="ssr:stedsnr" v="617588" />
	</node>
	<node lat="62.11392629838521" lon="9.287063966352639" id="-41908">
		<tag k="fixme" v="consider tourism=alpine_hut or tourism=chalet" />
		<tag k="name" v="Fokstugu Fjellstue" />
		<tag k="old_name" v="Fokstugu;Fokstua" />
		<tag k="ssr:stedsnr" v="617687" />
		<tag k="tourism" v="wilderness_hut" />
	</node>
	<node lat="61.966383336190226" lon="9.272691666992765" id="-41921">
		<tag k="name" v="Tallerås" />
		<tag k="place" v="farm" />
		<tag k="ssr:stedsnr" v="704570" />
	</node>
	<node lat="61.91491944239426" lon="9.353922225801165" id="-41923">
		<tag k="name" v="Moen" />
		<tag k="place" v="isolated_dwelling" />
		<tag k="ssr:stedsnr" v="643684" />
	</node>
	<node lat="62.0408277751238" lon="9.144244444892983" id="-41928">
		<tag k="name" v="Engødegård" />
		<tag k="place" v="farm" />
		<tag k="ssr:stedsnr" v="657315" />
	</node>
	<node lat="62.023886114925155" lon="9.174766658184037" id="-41929">
		<tag k="name" v="Arnekleivsødegård" />
		<tag k="place" v="farm" />
		<tag k="ssr:stedsnr" v="657339" />
	</node>
	<node lat="62.00543787194471" lon="9.203444195489071" id="-41931">
		<tag k="alt_name" v="Vorkinslien" />
		<tag k="fixme" v="consider place=hamlet" />
		<tag k="name" v="Vårkinnslie" />
		<tag k="place" v="farm" />
		<tag k="ssr:stedsnr" v="657694" />
	</node>
	<node lat="61.914238887931766" lon="9.424091659142304" id="-41932">
		<tag k="historic" v="shieling" />
		<tag k="name" v="Bjørkesætre" />
		<tag k="place" v="isolated_dwelling" />
		<tag k="ssr:stedsnr" v="657723" />
	</node>
	<node lat="61.99743055443662" lon="9.24851388156536" id="-41934">
		<tag k="name" v="Hovdelykkja" />
		<tag k="place" v="locality" />
		<tag k="ssr:stedsnr" v="658489" />
	</node>
	<node lat="61.98067222462141" lon="9.272036116275054" id="-41937">
		<tag k="name" v="Bakken" />
		<tag k="place" v="farm" />
		<tag k="ssr:stedsnr" v="678414" />
	</node>
	<node lat="62.004483337073225" lon="9.211833324103168" id="-41940">
		<tag k="name" v="Engehaugen" />
		<tag k="place" v="farm" />
		<tag k="ssr:stedsnr" v="678522" />
	</node>
	<node lat="62.06500303665713" lon="9.079673323096117" id="-41942">
		<tag k="name" v="Randen" />
		<tag k="place" v="farm" />
		<tag k="ssr:stedsnr" v="678577" />
	</node>
	<node lat="61.91506388566588" lon="9.348597224909685" id="-41963">
		<tag k="name" v="Leren" />
		<tag k="place" v="farm" />
		<tag k="ssr:stedsnr" v="704660" />
	</node>
	<node lat="62.08226944405316" lon="9.206705562809615" id="-41967">
		<tag k="historic" v="shieling" />
		<tag k="name" v="Vetllie" />
		<tag k="place" v="isolated_dwelling" />
		<tag k="ssr:stedsnr" v="718110" />
	</node>
	<node lat="62.045047226133036" lon="9.13402778597241" id="-41971">
		<tag k="name" v="Hjellødegård" />
		<tag k="place" v="isolated_dwelling" />
		<tag k="ssr:stedsnr" v="718309" />
	</node>
	<node lat="62.02122499753533" lon="9.169161106389868" id="-41972">
		<tag k="name" v="Arnekleivslien" />
		<tag k="place" v="isolated_dwelling" />
		<tag k="ssr:stedsnr" v="718320" />
	</node>
	<node lat="62.01860000289688" lon="9.185630550767216" id="-41973">
		<tag k="name" v="Sandvoll" />
		<tag k="place" v="isolated_dwelling" />
		<tag k="ssr:stedsnr" v="718381" />
	</node>
	<node lat="62.15390000208197" lon="9.292313881913014" id="-41976">
		<tag k="historic" v="shieling" />
		<tag k="name" v="Blestrudsetra" />
		<tag k="place" v="isolated_dwelling" />
		<tag k="ssr:stedsnr" v="718482" />
	</node>
	<node lat="61.948516670265576" lon="9.220652780522084" id="-41978">
		<tag k="name" v="Kolhusmoen" />
		<tag k="place" v="farm" />
		<tag k="ssr:stedsnr" v="718714" />
	</node>
	<node lat="61.92851944820963" lon="9.40953334275347" id="-41980">
		<tag k="name" v="Rindalsmåsåhuset" />
		<tag k="place" v="isolated_dwelling" />
		<tag k="ssr:stedsnr" v="718783" />
	</node>
	<node lat="61.93005278030583" lon="9.415602773797707" id="-41981">
		<tag k="name" v="Stordalsmåsåhusa" />
		<tag k="place" v="isolated_dwelling" />
		<tag k="ssr:stedsnr" v="718784" />
	</node>
	<node lat="61.89814444591263" lon="9.385808342240523" id="-41982">
		<tag k="name" v="Myre" />
		<tag k="place" v="isolated_dwelling" />
		<tag k="ssr:stedsnr" v="899991" />
	</node>
	<node lat="61.98224722491948" lon="9.230974998882136" id="-41987">
		<tag k="name" v="Øvre Rykhus" />
		<tag k="place" v="farm" />
		<tag k="ssr:stedsnr" v="900726" />
	</node>
	<node lat="62.02351944267283" lon="9.187116658037558" id="-41988">
		<tag k="amenity" v="school" />
		<tag k="name" v="Skeievoll skole" />
		<tag k="ssr:stedsnr" v="900732" />
	</node>
	<node lat="62.02654721849789" lon="9.288677782059068" id="-41999">
		<tag k="alt_name" v="Haugesætre;Haugjesetre;Haugeseter" />
		<tag k="historic" v="shieling" />
		<tag k="name" v="Haugesætri" />
		<tag k="place" v="isolated_dwelling" />
		<tag k="ssr:stedsnr" v="738630" />
	</node>
	<node lat="61.96000364323199" lon="9.276710144474205" id="-42005">
		<tag k="fixme" v="consider place=hamlet" />
		<tag k="name" v="Rudi" />
		<tag k="place" v="farm" />
		<tag k="ssr:stedsnr" v="739894" />
	</node>
	<node lat="61.93641389203764" lon="9.321077782201504" id="-42008">
		<tag k="name" v="Rindal" />
		<tag k="place" v="farm" />
		<tag k="ssr:stedsnr" v="765651" />
	</node>
	<node lat="61.921378181308974" lon="9.35533557372494" id="-42009">
		<tag k="alt_name" v="Haugen" />
		<tag k="name" v="Nørdre Haugen" />
		<tag k="place" v="farm" />
		<tag k="ssr:stedsnr" v="765658" />
	</node>
	<node lat="61.98544166759719" lon="9.231330547495885" id="-42011">
		<tag k="name" v="Honnes" />
		<tag k="place" v="locality" />
		<tag k="ssr:stedsnr" v="778708" />
	</node>
	<node lat="61.97016111234419" lon="9.238175002876465" id="-42012">
		<tag k="name" v="Moldal" />
		<tag k="place" v="farm" />
		<tag k="ssr:stedsnr" v="778700" />
	</node>
	<node lat="62.05096666784487" lon="9.124116666999743" id="-42013">
		<tag k="name" v="Lissand" />
		<tag k="place" v="locality" />
		<tag k="ssr:stedsnr" v="779510" />
	</node>
	<node lat="61.98543580296565" lon="9.25919147180322" id="-42014">
		<tag k="fixme" v="consider place=hamlet" />
		<tag k="name" v="Haugen" />
		<tag k="place" v="farm" />
		<tag k="ssr:stedsnr" v="779535" />
	</node>
	<node lat="62.06098333472705" lon="9.125525006559725" id="-42015">
		<tag k="name" v="Nylykkja" />
		<tag k="place" v="isolated_dwelling" />
		<tag k="ssr:stedsnr" v="779500" />
	</node>
	<node lat="61.94638058894657" lon="9.21474023885145" id="-42016">
		<tag k="name" v="Øvre Søristugu Jøndal" />
		<tag k="place" v="locality" />
		<tag k="ssr:stedsnr" v="779721" />
	</node>
	<node lat="61.95799721906069" lon="9.28445555478786" id="-42017">
		<tag k="name" v="Langdalen" />
		<tag k="place" v="farm" />
		<tag k="ssr:stedsnr" v="779662" />
	</node>
	<node lat="61.95055555470042" lon="9.268211119649816" id="-42018">
		<tag k="name" v="Svelstad" />
		<tag k="place" v="locality" />
		<tag k="ssr:stedsnr" v="779670" />
	</node>
	<node lat="62.04146944343444" lon="9.365061103355405" id="-42019">
		<tag k="alt_name" v="Vorkinns-måsåhuset" />
		<tag k="name" v="Varkinns-måsåhuset" />
		<tag k="place" v="isolated_dwelling" />
		<tag k="ssr:stedsnr" v="779862" />
	</node>
	<node lat="61.98423610788522" lon="9.271627771671703" id="-42020">
		<tag k="name" v="Åsen" />
		<tag k="place" v="farm" />
		<tag k="ssr:stedsnr" v="799249" />
	</node>
	<node lat="62.016680556737995" lon="9.199538885533654" id="-42026">
		<tag k="alt_name" v="Holum" />
		<tag k="name" v="Holom" />
		<tag k="place" v="farm" />
		<tag k="ssr:stedsnr" v="800513" />
	</node>
	<node lat="61.999527781570436" lon="9.22126111607684" id="-42036">
		<tag k="alt_name" v="Toftemo" />
		<tag k="name" v="Toftemo turiststasjon" />
		<tag k="ssr:stedsnr" v="921337" />
		<tag k="tourism" v="hotel" />
	</node>
	<node lat="62.01746944266959" lon="9.18256388200529" id="-42040">
		<tag k="alt_name" v="Lilleengen" />
		<tag k="name" v="Veslengi" />
		<tag k="place" v="farm" />
		<tag k="ssr:stedsnr" v="921545" />
	</node>
	<node lat="62.06819166805913" lon="9.114816674001228" id="-42045">
		<tag k="alt_name" v="Berg-Domås" />
		<tag k="name" v="Bergdombås" />
		<tag k="place" v="farm" />
		<tag k="ssr:stedsnr" v="921615" />
	</node>
	<node lat="62.01663611216869" lon="9.202536118347155" id="-42046">
		<tag k="alt_name" v="Killi" />
		<tag k="name" v="Kili" />
		<tag k="place" v="farm" />
		<tag k="ssr:stedsnr" v="921549" />
	</node>
	<node lat="62.039172218224145" lon="9.141794449121315" id="-42049">
		<tag k="alt_name" v="Tunga, nedre;Tungen nedre" />
		<tag k="name" v="Nedre Tunga" />
		<tag k="place" v="farm" />
		<tag k="ssr:stedsnr" v="921576" />
	</node>
	<node lat="62.0072972242378" lon="9.220180561994606" id="-42051">
		<tag k="name" v="Sletta" />
		<tag k="place" v="isolated_dwelling" />
		<tag k="ssr:stedsnr" v="921655" />
	</node>
	<node lat="62.17853611310932" lon="9.429880552255124" id="-42060">
		<tag k="historic" v="shieling" />
		<tag k="name" v="Gammalstulen" />
		<tag k="old_name" v="Gamlstudulen" />
		<tag k="place" v="isolated_dwelling" />
		<tag k="ssr:stedsnr" v="921720" />
	</node>
	<node lat="61.968877775820566" lon="9.242658340761126" id="-42063">
		<tag k="name" v="Bjørke" />
		<tag k="place" v="farm" />
		<tag k="ssr:stedsnr" v="825523" />
	</node>
	<node lat="61.89878055913622" lon="9.390661119873794" id="-42068">
		<tag k="name" v="Bakken" />
		<tag k="place" v="farm" />
		<tag k="ssr:stedsnr" v="922000" />
	</node>
	<node lat="62.09860555932284" lon="9.179552778760026" id="-42075">
		<tag k="name" v="Stakstobrakka" />
		<tag k="place" v="isolated_dwelling" />
		<tag k="ssr:stedsnr" v="840117" />
	</node>
	<node lat="62.04584166317422" lon="9.144522217570785" id="-42076">
		<tag k="name" v="Aaset" />
		<tag k="place" v="isolated_dwelling" />
		<tag k="ssr:stedsnr" v="840311" />
	</node>
	<node lat="62.0254888911929" lon="9.128125009093692" id="-42077">
		<tag k="historic" v="shieling" />
		<tag k="name" v="Nyhusseter" />
		<tag k="place" v="isolated_dwelling" />
		<tag k="ssr:stedsnr" v="840321" />
	</node>
	<node lat="62.02342500270969" lon="9.40854722241298" id="-42081">
		<tag k="name" v="Måsåhuset" />
		<tag k="place" v="isolated_dwelling" />
		<tag k="ssr:stedsnr" v="840832" />
	</node>
	<node lat="61.979819448404086" lon="9.26936111338275" id="-42082">
		<tag k="name" v="Nørdre Slette" />
		<tag k="old_name" v="Flittie" />
		<tag k="place" v="farm" />
		<tag k="ssr:stedsnr" v="840585" />
	</node>
	<node lat="62.056038886165425" lon="9.199175004426671" id="-42083">
		<tag k="name" v="Engum hytte" />
		<tag k="place" v="isolated_dwelling" />
		<tag k="ssr:stedsnr" v="840904" />
	</node>
	<node lat="62.18017778133036" lon="9.466472224208205" id="-42100">
		<tag k="historic" v="shieling" />
		<tag k="name" v="Holum seter" />
		<tag k="place" v="isolated_dwelling" />
		<tag k="ssr:stedsnr" v="885417" />
	</node>
	<node lat="62.064405553064105" lon="9.083533341014103" id="-42103">
		<tag k="name" v="Justløkken" />
		<tag k="place" v="farm" />
		<tag k="ssr:stedsnr" v="899820" />
	</node>
	<node lat="62.04337499996674" lon="9.1494500070613" id="-42104">
		<tag k="name" v="Holen" />
		<tag k="place" v="isolated_dwelling" />
		<tag k="ssr:stedsnr" v="900318" />
	</node>
	<node lat="62.02068889119078" lon="9.171936111042813" id="-42105">
		<tag k="name" v="Sershaugen" />
		<tag k="place" v="isolated_dwelling" />
		<tag k="ssr:stedsnr" v="900326" />
	</node>
	<node lat="62.086608330269044" lon="9.765280561015349" id="-42110">
		<tag k="name" v="Rognrust" />
		<tag k="place" v="isolated_dwelling" />
		<tag k="ssr:stedsnr" v="901251" />
	</node>
	<node lat="62.065427777157915" lon="9.86353056486672" id="-42111">
		<tag k="historic" v="shieling" />
		<tag k="name" v="Ekre" />
		<tag k="place" v="isolated_dwelling" />
		<tag k="ssr:stedsnr" v="901259" />
	</node>
	<node lat="62.02573610708099" lon="9.120319448970811" id="-42114">
		<tag k="historic" v="shieling" />
		<tag k="name" v="Engumseter" />
		<tag k="place" v="isolated_dwelling" />
		<tag k="ssr:stedsnr" v="901317" />
	</node>
	<node lat="61.954855558986225" lon="9.27054722352063" id="-42115">
		<tag k="name" v="Randen" />
		<tag k="place" v="farm" />
		<tag k="ssr:stedsnr" v="901664" />
	</node>
	<node lat="62.01369155069401" lon="9.223152226785835" id="-42116">
		<tag k="alt_name" v="Vorkinn" />
		<tag k="name" v="Nørdre Vårkinn" />
		<tag k="place" v="farm" />
		<tag k="ssr:stedsnr" v="907519" />
	</node>
	<node lat="62.03246649434746" lon="9.191759899496791" id="-42120">
		<tag k="alt_name" v="Arnekleiv" />
		<tag k="name" v="Arnkleiv" />
		<tag k="place" v="hamlet" />
		<tag k="ssr:stedsnr" v="921583" />
	</node>
	<node lat="61.91191111280046" lon="9.412805562298958" id="-42127">
		<tag k="amenity" v="cafe" />
		<tag k="name" v="Dovrehytta" />
		<tag k="ssr:stedsnr" v="921991" />
	</node>
	<node lat="62.25504999981076" lon="9.685700001186108" id="-42130">
		<tag k="alt_name" v="Hjerkinnsætre;Statens hesteavlsseter" />
		<tag k="historic" v="shieling" />
		<tag k="name" v="Hjerkinnsætri" />
		<tag k="place" v="isolated_dwelling" />
		<tag k="ssr:stedsnr" v="922473" />
	</node>
	<node lat="61.96646111146553" lon="9.251758338544809" id="-42132">
		<tag k="name" v="Skomakerstuen" />
		<tag k="place" v="farm" />
		<tag k="ssr:stedsnr" v="947587" />
	</node>
	<node lat="62.103894446831326" lon="9.135491663797334" id="-42133">
		<tag k="name" v="Gardsenden vokterbolig" />
		<tag k="place" v="isolated_dwelling" />
		<tag k="ssr:stedsnr" v="961111" />
	</node>
	<node lat="62.15859166392313" lon="9.361388886653714" id="-42137">
		<tag k="historic" v="shieling" />
		<tag k="name" v="Holumsetre" />
		<tag k="place" v="isolated_dwelling" />
		<tag k="ssr:stedsnr" v="961492" />
	</node>
	<node lat="61.98258610761138" lon="9.24161111815163" id="-42140">
		<tag k="amenity" v="school" />
		<tag k="name" v="Hjerleid skole" />
		<tag k="ssr:stedsnr" v="961594" />
	</node>
	<node lat="61.99021936456552" lon="9.267786926740914" id="-42142">
		<tag k="name" v="Angard" />
		<tag k="place" v="farm" />
		<tag k="ssr:stedsnr" v="982329" />
	</node>
	<node lat="62.06019940942511" lon="9.091711411948275" id="-42143">
		<tag k="name" v="Blestra" />
		<tag k="place" v="hamlet" />
		<tag k="ssr:stedsnr" v="983909" />
	</node>
	<node lat="62.026951446091736" lon="9.195210884104988" id="-42144">
		<tag k="fixme" v="consider place=hamlet" />
		<tag k="name" v="Korsvoll" />
		<tag k="place" v="farm" />
		<tag k="ssr:stedsnr" v="983996" />
	</node>
	<node lat="61.97102222288622" lon="9.201016667635978" id="-42154">
		<tag k="alt_name" v="Gammelsetre" />
		<tag k="historic" v="shieling" />
		<tag k="name" v="Gammelsætrin" />
		<tag k="place" v="isolated_dwelling" />
		<tag k="ssr:stedsnr" v="11163" />
	</node>
	<node lat="61.995107066294594" lon="9.265155997628296" id="-42155">
		<tag k="alt_name" v="Svendsgård" />
		<tag k="loc_name" v="Svensgard" />
		<tag k="name" v="Langlykkja" />
		<tag k="place" v="farm" />
		<tag k="ssr:stedsnr" v="11374" />
	</node>
	<node lat="62.02436719671438" lon="9.206895485321144" id="-42156">
		<tag k="fixme" v="consider place=hamlet" />
		<tag k="name" v="Skeie" />
		<tag k="place" v="farm" />
		<tag k="ssr:stedsnr" v="11537" />
	</node>
	<node lat="62.03894167089762" lon="9.158988892837762" id="-42158">
		<tag k="name" v="Nyhus" />
		<tag k="place" v="farm" />
		<tag k="ssr:stedsnr" v="11550" />
	</node>
	<node lat="62.04211944713556" lon="9.123200004355253" id="-42161">
		<tag k="name" v="Dalhaugen" />
		<tag k="place" v="locality" />
		<tag k="ssr:stedsnr" v="11555" />
	</node>
	<node lat="61.964895244110565" lon="9.270865456127277" id="-42171">
		<tag k="fixme" v="consider place=hamlet" />
		<tag k="name" v="Tallerås" />
		<tag k="place" v="farm" />
		<tag k="ssr:stedsnr" v="11928" />
	</node>
	<node lat="61.96369722362699" lon="9.25459721712716" id="-42173">
		<tag k="name" v="Nordre Engelshus" />
		<tag k="place" v="farm" />
		<tag k="ssr:stedsnr" v="36546" />
	</node>
	<node lat="62.119719448475486" lon="9.188694435913959" id="-42177">
		<tag k="alt_name" v="Villmannsbu" />
		<tag k="name" v="Villmannsbue" />
		<tag k="place" v="isolated_dwelling" />
		<tag k="ssr:stedsnr" v="48432" />
	</node>
	<node lat="61.91386944597105" lon="9.42328055336274" id="-42179">
		<tag k="historic" v="shieling" />
		<tag k="name" v="Siljehaugsætre" />
		<tag k="place" v="isolated_dwelling" />
		<tag k="ssr:stedsnr" v="50698" />
	</node>
	<node lat="61.91446666320072" lon="9.422652786291184" id="-42180">
		<tag k="historic" v="shieling" />
		<tag k="name" v="Nordre Siljehaugsætre" />
		<tag k="place" v="isolated_dwelling" />
		<tag k="ssr:stedsnr" v="50700" />
	</node>
	<node lat="62.07504444607576" lon="9.096344451086164" id="-42181">
		<tag k="name" v="Haugsjeldalen" />
		<tag k="place" v="farm" />
		<tag k="ssr:stedsnr" v="50733" />
	</node>
	<node lat="62.07342500349964" lon="9.110866658828945" id="-42182">
		<tag k="name" v="Domåshaugen" />
		<tag k="place" v="farm" />
		<tag k="ssr:stedsnr" v="50737" />
	</node>
	<node lat="62.08497499558617" lon="9.122969441565854" id="-42186">
		<tag k="name" v="Skåtådalen" />
		<tag k="place" v="farm" />
		<tag k="ssr:stedsnr" v="51089" />
	</node>
	<node lat="62.05020277551039" lon="9.509277776988739" id="-42188">
		<tag k="historic" v="shieling" />
		<tag k="name" v="Elven" />
		<tag k="place" v="isolated_dwelling" />
		<tag k="ssr:stedsnr" v="51300" />
	</node>
	<node lat="62.03287500194949" lon="9.142958339096776" id="-42190">
		<tag k="loc_name" v="Nysætre" />
		<tag k="name" v="Nyseteren" />
		<tag k="place" v="farm" />
		<tag k="ssr:stedsnr" v="51353" />
	</node>
	<node lat="62.05285278116596" lon="9.144180547783566" id="-42195">
		<tag k="name" v="Hjelle" />
		<tag k="place" v="farm" />
		<tag k="ssr:stedsnr" v="51548" />
	</node>
	<node lat="61.995177777706154" lon="9.243030547512374" id="-42196">
		<tag k="amenity" v="nursing_home" />
		<tag k="name" v="Fredheim" />
		<tag k="ssr:stedsnr" v="51558" />
	</node>
	<node lat="61.94431666995423" lon="9.210097220831663" id="-42197">
		<tag k="name" v="Løkken" />
		<tag k="place" v="farm" />
		<tag k="ssr:stedsnr" v="51747" />
	</node>
	<node lat="62.00984444065426" lon="9.212413894110268" id="-42198">
		<tag k="alt_name" v="Kråkvollen" />
		<tag k="name" v="Kråkvoll" />
		<tag k="place" v="farm" />
		<tag k="ssr:stedsnr" v="51758" />
	</node>
	<node lat="62.06241944162643" lon="9.087561115143235" id="-42204">
		<tag k="name" v="Bekken" />
		<tag k="place" v="farm" />
		<tag k="ssr:stedsnr" v="71632" />
	</node>
	<node lat="61.90093055789921" lon="9.36625277814463" id="-42207">
		<tag k="name" v="Skreddarstugu" />
		<tag k="place" v="farm" />
		<tag k="ssr:stedsnr" v="71999" />
	</node>
	<node lat="62.0060916656534" lon="9.203802770229515" id="-42211">
		<tag k="alt_name" v="Vorkinslien" />
		<tag k="loc_name" v="Vårkinnslie" />
		<tag k="name" v="Vorkinslii" />
		<tag k="place" v="farm" />
		<tag k="ssr:stedsnr" v="72510" />
	</node>
	<node lat="62.12795202344405" lon="9.669114657372338" id="-42218">
		<tag k="name" v="Magnehuset" />
		<tag k="place" v="locality" />
		<tag k="ssr:stedsnr" v="83848" />
	</node>
	<node lat="61.97558888625147" lon="9.263041674019801" id="-42220">
		<tag k="name" v="Vigerust" />
		<tag k="place" v="farm" />
		<tag k="ssr:stedsnr" v="97582" />
	</node>
	<node lat="61.911500002100155" lon="9.348788890892783" id="-42221">
		<tag k="name" v="Banken" />
		<tag k="place" v="isolated_dwelling" />
		<tag k="ssr:stedsnr" v="98708" />
	</node>
	<node lat="62.066691665247106" lon="9.083719439989173" id="-42223">
		<tag k="name" v="Enersgård" />
		<tag k="place" v="farm" />
		<tag k="ssr:stedsnr" v="110824" />
	</node>
	<node lat="62.04306382538319" lon="9.155719086047268" id="-42225">
		<tag k="fixme" v="consider place=hamlet" />
		<tag k="name" v="Ulekleiv" />
		<tag k="place" v="farm" />
		<tag k="ssr:stedsnr" v="111252" />
	</node>
	<node lat="62.10271389328738" lon="9.243375000227285" id="-42228">
		<tag k="historic" v="shieling" />
		<tag k="name" v="Storlykkjesetra" />
		<tag k="place" v="isolated_dwelling" />
		<tag k="ssr:stedsnr" v="111448" />
	</node>
	<node lat="62.16030000154602" lon="9.362269449193581" id="-42230">
		<tag k="historic" v="shieling" />
		<tag k="name" v="Øiaseter" />
		<tag k="place" v="isolated_dwelling" />
		<tag k="ssr:stedsnr" v="111465" />
	</node>
	<node lat="61.89870277382217" lon="9.390658339350852" id="-42232">
		<tag k="name" v="Nordre Bakken" />
		<tag k="place" v="farm" />
		<tag k="ssr:stedsnr" v="111751" />
	</node>
	<node lat="62.088466664677476" lon="9.103702774942661" id="-42233">
		<tag k="building" v="industrial" />
		<tag k="industrial" v="factory" />
		<tag k="name" v="Jora mølle" />
		<tag k="ssr:stedsnr" v="111752" />
	</node>
	<node lat="62.08282222061312" lon="9.101866674871689" id="-42234">
		<tag k="building" v="industrial" />
		<tag k="name" v="Domås renseanlegg" />
		<tag k="ssr:stedsnr" v="111753" />
	</node>
	<node lat="62.072613890672045" lon="9.088922223627943" id="-42235">
		<tag k="name" v="Brennøygarden" />
		<tag k="place" v="farm" />
		<tag k="ssr:stedsnr" v="111756" />
	</node>
	<node lat="62.14495555550894" lon="9.22072776828882" id="-42239">
		<tag k="historic" v="shieling" />
		<tag k="name" v="Nørstebø seter" />
		<tag k="place" v="isolated_dwelling" />
		<tag k="ssr:stedsnr" v="112101" />
	</node>
	<node lat="62.05858055181665" lon="9.524905565038807" id="-42240">
		<tag k="historic" v="shieling" />
		<tag k="name" v="Gudbrandstad" />
		<tag k="place" v="isolated_dwelling" />
		<tag k="ssr:stedsnr" v="112301" />
	</node>
	<node lat="62.05971944765595" lon="9.55373611381103" id="-42241">
		<tag k="historic" v="shieling" />
		<tag k="name" v="Bakken" />
		<tag k="place" v="isolated_dwelling" />
		<tag k="ssr:stedsnr" v="112308" />
	</node>
	<node lat="62.05851388534898" lon="9.587763897182631" id="-42242">
		<tag k="name" v="Åsahytta" />
		<tag k="place" v="isolated_dwelling" />
		<tag k="ssr:stedsnr" v="112309" />
	</node>
	<node lat="62.022672219455146" lon="9.178022227744973" id="-42244">
		<tag k="name" v="Arnekleivsødegården" />
		<tag k="place" v="farm" />
		<tag k="ssr:stedsnr" v="112347" />
	</node>
	<node lat="62.02836666378987" lon="9.166399997796308" id="-42245">
		<tag k="name" v="Hageødegården" />
		<tag k="place" v="farm" />
		<tag k="ssr:stedsnr" v="112356" />
	</node>
	<node lat="61.94580833151859" lon="9.213052785013586" id="-42251">
		<tag k="name" v="Sørigard Jøndal" />
		<tag k="place" v="farm" />
		<tag k="ssr:stedsnr" v="112732" />
	</node>
	<node lat="62.053699995714375" lon="9.133130546426525" id="-42267">
		<tag k="alt_name" v="Hjellehagen" />
		<tag k="name" v="Hjellhågån" />
		<tag k="place" v="farm" />
		<tag k="ssr:stedsnr" v="132574" />
	</node>
	<node lat="61.966745999195965" lon="9.266415548090572" id="-42271">
		<tag k="fixme" v="consider place=hamlet" />
		<tag k="name" v="Engelshus" />
		<tag k="place" v="farm" />
		<tag k="ssr:stedsnr" v="132934" />
	</node>
	<node lat="62.0327638914913" lon="9.13701388819568" id="-42272">
		<tag k="name" v="Slettom" />
		<tag k="place" v="farm" />
		<tag k="ssr:stedsnr" v="132532" />
	</node>
	<node lat="62.03783332974247" lon="9.13348889707542" id="-42273">
		<tag k="alt_name" v="Samuelhaugen" />
		<tag k="name" v="Samuelshaugen" />
		<tag k="place" v="farm" />
		<tag k="ssr:stedsnr" v="132541" />
	</node>
	<node lat="62.12943333441646" lon="9.13405833497503" id="-42276">
		<tag k="alt_name" v="Grønsetrin" />
		<tag k="historic" v="shieling" />
		<tag k="name" v="Grønsætrin" />
		<tag k="place" v="isolated_dwelling" />
		<tag k="ssr:stedsnr" v="132874" />
	</node>
	<node lat="62.01940277492851" lon="9.189394450370491" id="-42283">
		<tag k="name" v="Solheim" />
		<tag k="place" v="isolated_dwelling" />
		<tag k="ssr:stedsnr" v="172389" />
	</node>
	<node lat="62.046213892867215" lon="9.14223888029854" id="-42287">
		<tag k="name" v="Moalund" />
		<tag k="place" v="isolated_dwelling" />
		<tag k="ssr:stedsnr" v="172323" />
	</node>
	<node lat="62.05544444315686" lon="9.135811103860116" id="-42290">
		<tag k="name" v="Hjellehagen" />
		<tag k="place" v="farm" />
		<tag k="ssr:stedsnr" v="172530" />
	</node>
	<node lat="62.05046388839941" lon="9.149033326755417" id="-42292">
		<tag k="name" v="Hjelle" />
		<tag k="place" v="farm" />
		<tag k="ssr:stedsnr" v="172540" />
	</node>
	<node lat="61.996705553519114" lon="9.251336107321608" id="-42296">
		<tag k="loc_name" v="Nørdstegard" />
		<tag k="name" v="Nørstegård" />
		<tag k="place" v="farm" />
		<tag k="ssr:stedsnr" v="172550" />
	</node>
	<node lat="61.96059999913136" lon="9.266061117055642" id="-42297">
		<tag k="name" v="Nordre Korshus" />
		<tag k="place" v="farm" />
		<tag k="ssr:stedsnr" v="172690" />
	</node>
	<node lat="61.94838888574806" lon="9.272816672911627" id="-42298">
		<tag k="name" v="Skogstad" />
		<tag k="place" v="locality" />
		<tag k="ssr:stedsnr" v="172693" />
	</node>
	<node lat="61.94771389159975" lon="9.261747215365641" id="-42299">
		<tag k="name" v="Botten" />
		<tag k="place" v="isolated_dwelling" />
		<tag k="ssr:stedsnr" v="172696" />
	</node>
	<node lat="61.97591944787572" lon="9.238716661884245" id="-42300">
		<tag k="name" v="Krokstadengen" />
		<tag k="place" v="farm" />
		<tag k="ssr:stedsnr" v="172780" />
	</node>
	<node lat="62.0903750003678" lon="9.825977779464708" id="-42305">
		<tag k="historic" v="shieling" />
		<tag k="name" v="Tollevshaugen" />
		<tag k="place" v="isolated_dwelling" />
		<tag k="ssr:stedsnr" v="192526" />
	</node>
	<node lat="62.07553889061735" lon="9.127852785937616" id="-42307">
		<tag k="name" v="Dombås" />
		<tag k="place" v="village" />
		<tag k="ssr:stedsnr" v="192610" />
	</node>
	<node lat="62.072225504259656" lon="9.108315189094101" id="-42308">
		<tag k="alt_name" v="Kongsløkken" />
		<tag k="name" v="Kongslykkja" />
		<tag k="place" v="farm" />
		<tag k="ssr:stedsnr" v="192616" />
	</node>
	<node lat="62.022149999987924" lon="9.206036114160606" id="-42329">
		<tag k="name" v="Gravum" />
		<tag k="place" v="farm" />
		<tag k="ssr:stedsnr" v="193534" />
	</node>
	<node lat="62.03425977575028" lon="9.175212758658313" id="-42334">
		<tag k="alt_name" v="Hage nedre" />
		<tag k="name" v="Hågå" />
		<tag k="place" v="farm" />
		<tag k="ssr:stedsnr" v="193564" />
	</node>
	<node lat="61.93331389072178" lon="9.300149997186885" id="-42345">
		<tag k="alt_name" v="Veslbrenna" />
		<tag k="name" v="Brenden" />
		<tag k="place" v="farm" />
		<tag k="ssr:stedsnr" v="193896" />
	</node>
	<node lat="61.93486983423516" lon="9.3217453638187" id="-42347">
		<tag k="fixme" v="consider place=hamlet" />
		<tag k="name" v="Rindal" />
		<tag k="place" v="farm" />
		<tag k="ssr:stedsnr" v="193898" />
	</node>
	<node lat="61.9627027753948" lon="9.276950008855367" id="-42351">
		<tag k="alt_name" v="Korshus søndre" />
		<tag k="name" v="Korshus" />
		<tag k="place" v="farm" />
		<tag k="ssr:stedsnr" v="193919" />
	</node>
	<node lat="62.195544445183614" lon="9.547283332842138" id="-42355">
		<tag k="fixme" v="consider tourism=alpine_hut or tourism=chalet" />
		<tag k="name" v="Hageseter turisthytte" />
		<tag k="old_name" v="Hågåsætri" />
		<tag k="ssr:stedsnr" v="207792" />
		<tag k="tourism" v="wilderness_hut" />
	</node>
	<node lat="61.9301000026476" lon="9.316525007917248" id="-42356">
		<tag k="name" v="Vadet" />
		<tag k="place" v="locality" />
		<tag k="ssr:stedsnr" v="219698" />
	</node>
	<node lat="61.96459166573059" lon="9.247683324389063" id="-42358">
		<tag k="name" v="Moen" />
		<tag k="place" v="farm" />
		<tag k="ssr:stedsnr" v="219628" />
	</node>
	<node lat="61.9715666646142" lon="9.243055546100539" id="-42361">
		<tag k="name" v="Snekkerlien" />
		<tag k="place" v="isolated_dwelling" />
		<tag k="ssr:stedsnr" v="279583" />
	</node>
	<node lat="62.07228055919267" lon="9.113766659541133" id="-42365">
		<tag k="name" v="Nygarden" />
		<tag k="place" v="farm" />
		<tag k="ssr:stedsnr" v="292801" />
	</node>
	<node lat="62.14214444836743" lon="9.213288881650033" id="-42371">
		<tag k="historic" v="shieling" />
		<tag k="name" v="Joramo seter" />
		<tag k="place" v="isolated_dwelling" />
		<tag k="ssr:stedsnr" v="294058" />
	</node>
	<node lat="62.043080559282906" lon="9.147033337772202" id="-42372">
		<tag k="name" v="Øiang" />
		<tag k="place" v="isolated_dwelling" />
		<tag k="ssr:stedsnr" v="293366" />
	</node>
	<node lat="62.06025278078648" lon="9.122716665504983" id="-42373">
		<tag k="name" v="Lia Camping" />
		<tag k="ssr:stedsnr" v="293511" />
		<tag k="tourism" v="camp_site" />
	</node>
	<node lat="61.96780277713047" lon="9.396716661734107" id="-42376">
		<tag k="historic" v="shieling" />
		<tag k="name" v="Statshaugsetre" />
		<tag k="place" v="isolated_dwelling" />
		<tag k="ssr:stedsnr" v="293840" />
	</node>
	<node lat="61.96824166372015" lon="9.396502777525944" id="-42377">
		<tag k="historic" v="shieling" />
		<tag k="name" v="Rindalssetre" />
		<tag k="place" v="isolated_dwelling" />
		<tag k="ssr:stedsnr" v="293842" />
	</node>
	<node lat="62.032461114119656" lon="9.147858324898515" id="-42378">
		<tag k="name" v="Hestdalen" />
		<tag k="place" v="farm" />
		<tag k="ssr:stedsnr" v="294291" />
	</node>
	<node lat="62.092711111476966" lon="9.120819444978423" id="-42380">
		<tag k="historic" v="shieling" />
		<tag k="name" v="Sørumgardssetre" />
		<tag k="place" v="isolated_dwelling" />
		<tag k="ssr:stedsnr" v="294100" />
	</node>
	<node lat="62.03188055402446" lon="9.663613896778072" id="-42385">
		<tag k="historic" v="shieling" />
		<tag k="name" v="Haverdalsseter" />
		<tag k="place" v="isolated_dwelling" />
		<tag k="ssr:stedsnr" v="294572" />
	</node>
	<node lat="61.94619996116212" lon="9.193338492955615" id="-42387">
		<tag k="alt_name" v="Jøndalssætrin" />
		<tag k="historic" v="shieling" />
		<tag k="name" v="Jønndalssætrin" />
		<tag k="place" v="isolated_dwelling" />
		<tag k="ssr:stedsnr" v="314135" />
	</node>
	<node lat="62.035541667714924" lon="9.154069449795877" id="-42390">
		<tag k="alt_name" v="Storødegård" />
		<tag k="name" v="Storøygarden" />
		<tag k="place" v="farm" />
		<tag k="ssr:stedsnr" v="314578" />
	</node>
	<node lat="62.057763888351914" lon="9.1251999913334" id="-42392">
		<tag k="alt_name" v="Lie" />
		<tag k="name" v="Li" />
		<tag k="place" v="farm" />
		<tag k="ssr:stedsnr" v="314594" />
	</node>
	<node lat="61.93817500248711" lon="9.411799999970459" id="-42412">
		<tag k="name" v="Tennrekkja" />
		<tag k="place" v="locality" />
		<tag k="ssr:stedsnr" v="314881" />
	</node>
	<node lat="62.12825160945281" lon="9.621660494272366" id="-42417">
		<tag k="name" v="Barthuset" />
		<tag k="place" v="locality" />
		<tag k="ssr:stedsnr" v="325816" />
	</node>
	<node lat="62.174630554974996" lon="9.429513897901964" id="-42418">
		<tag k="amenity" v="cafe" />
		<tag k="name" v="Dovregubbens hall" />
		<tag k="ssr:stedsnr" v="328238" />
	</node>
	<node lat="62.05379444046362" lon="9.070766658689452" id="-42420">
		<tag k="historic" v="shieling" />
		<tag k="name" v="Hardeggsetrene" />
		<tag k="place" v="isolated_dwelling" />
		<tag k="ssr:stedsnr" v="331449" />
	</node>
	<node lat="61.92902221901176" lon="9.318052775584627" id="-42421">
		<tag k="name" v="Haugen" />
		<tag k="place" v="farm" />
		<tag k="ssr:stedsnr" v="340665" />
	</node>
	<node lat="61.99429675317489" lon="9.263464447541955" id="-42422">
		<tag k="alt_name" v="Svendsgård" />
		<tag k="fixme" v="consider place=hamlet" />
		<tag k="name" v="Svensgard" />
		<tag k="place" v="farm" />
		<tag k="ssr:stedsnr" v="340600" />
	</node>
	<node lat="61.91546110853777" lon="9.357288882365307" id="-42424">
		<tag k="name" v="Akerjordet" />
		<tag k="place" v="farm" />
		<tag k="ssr:stedsnr" v="340684" />
	</node>
	<node lat="62.0051666666131" lon="9.20415833599" id="-42428">
		<tag k="name" v="Vorkinslien" />
		<tag k="place" v="farm" />
		<tag k="ssr:stedsnr" v="353725" />
	</node>
	<node lat="62.067816666634855" lon="9.107480560167165" id="-42429">
		<tag k="name" v="Nedre nordre Domås" />
		<tag k="place" v="farm" />
		<tag k="ssr:stedsnr" v="353788" />
	</node>
	<node lat="62.241519441958744" lon="9.5096416750172" id="-42438">
		<tag k="name" v="Veslefallet" />
		<tag k="place" v="locality" />
		<tag k="ssr:stedsnr" v="354389" />
	</node>
	<node lat="61.98437499686968" lon="9.249997219141195" id="-42439">
		<tag k="name" v="Haugen" />
		<tag k="place" v="isolated_dwelling" />
		<tag k="ssr:stedsnr" v="354541" />
	</node>
	<node lat="62.01185833026291" lon="9.226924993564815" id="-42440">
		<tag k="alt_name" v="Vorkinn;Søndre Vaarkinn" />
		<tag k="name" v="Søre Vårkinn" />
		<tag k="place" v="farm" />
		<tag k="ssr:stedsnr" v="354743" />
	</node>
	<node lat="62.01561944639645" lon="9.207513884304475" id="-42441">
		<tag k="alt_name" v="Killi" />
		<tag k="name" v="Kili" />
		<tag k="place" v="farm" />
		<tag k="ssr:stedsnr" v="354746" />
	</node>
	<node lat="62.00593333541098" lon="9.21834444803848" id="-42446">
		<tag k="name" v="Sletten" />
		<tag k="place" v="isolated_dwelling" />
		<tag k="ssr:stedsnr" v="354760" />
	</node>
	<node lat="62.03633055794189" lon="9.136691669925773" id="-42447">
		<tag k="alt_name" v="Tunga, øvre;Øvre Tungen" />
		<tag k="name" v="Øvre Tunga" />
		<tag k="place" v="farm" />
		<tag k="ssr:stedsnr" v="374525" />
	</node>
	<node lat="62.04493333122511" lon="9.129174995241739" id="-42448">
		<tag k="name" v="Kårstad" />
		<tag k="place" v="farm" />
		<tag k="ssr:stedsnr" v="374536" />
	</node>
	<node lat="61.99209762367789" lon="9.263955421731724" id="-42449">
		<tag k="fixme" v="consider place=hamlet" />
		<tag k="name" v="Ekre" />
		<tag k="place" v="farm" />
		<tag k="ssr:stedsnr" v="374382" />
	</node>
	<node lat="62.01327500075704" lon="9.228724998945664" id="-42456">
		<tag k="fixme" v="multiple name tags, choose one and add the other to alt_name" />
		<tag k="name" v="Skrugstad;Høgbrenna" />
		<tag k="place" v="farm" />
		<tag k="ssr:stedsnr" v="374626" />
	</node>
	<node lat="61.975698670109956" lon="9.261289828830732" id="-42460">
		<tag k="fixme" v="consider place=hamlet" />
		<tag k="name" v="Vigerust" />
		<tag k="place" v="farm" />
		<tag k="ssr:stedsnr" v="374931" />
	</node>
	<node lat="62.0012277747854" lon="9.208072216319517" id="-42466">
		<tag k="alt_name" v="Lindsøhaug" />
		<tag k="name" v="Lindsehaugen" />
		<tag k="place" v="farm" />
		<tag k="ssr:stedsnr" v="375470" />
	</node>
	<node lat="62.2517444458093" lon="9.686150009442278" id="-42467">
		<tag k="name" v="Kvitdalen" />
		<tag k="place" v="farm" />
		<tag k="ssr:stedsnr" v="375473" />
	</node>
	<node lat="61.925941668786194" lon="9.323805548560873" id="-42475">
		<tag k="name" v="Kroken" />
		<tag k="place" v="isolated_dwelling" />
		<tag k="ssr:stedsnr" v="401662" />
	</node>
	<node lat="62.07566666372766" lon="9.112966671311668" id="-42477">
		<tag k="name" v="Brekkestuen" />
		<tag k="place" v="farm" />
		<tag k="ssr:stedsnr" v="414777" />
	</node>
	<node lat="62.02760000337933" lon="9.190297222487292" id="-42483">
		<tag k="name" v="Nedre Korsvoll" />
		<tag k="place" v="farm" />
		<tag k="ssr:stedsnr" v="415281" />
	</node>
	<node lat="62.014388889299205" lon="9.15126388772374" id="-42485">
		<tag k="historic" v="shieling" />
		<tag k="name" v="Liaseter" />
		<tag k="place" v="isolated_dwelling" />
		<tag k="ssr:stedsnr" v="415359" />
	</node>
	<node lat="62.033994444302024" lon="9.131902775624063" id="-42486">
		<tag k="name" v="Gutormslykkja" />
		<tag k="place" v="locality" />
		<tag k="ssr:stedsnr" v="415330" />
	</node>
	<node lat="61.94808333664242" lon="9.211894451906312" id="-42490">
		<tag k="name" v="Barmoen" />
		<tag k="place" v="locality" />
		<tag k="ssr:stedsnr" v="415763" />
	</node>
	<node lat="61.986194440939215" lon="9.25582778549975" id="-42498">
		<tag k="building" v="industrial" />
		<tag k="industrial" v="factory" />
		<tag k="name" v="Dovre ysteri" />
		<tag k="ssr:stedsnr" v="415574" />
	</node>
	<node lat="61.978770338584674" lon="9.269332627638214" id="-42500">
		<tag k="fixme" v="consider place=hamlet" />
		<tag k="name" v="Slette" />
		<tag k="place" v="farm" />
		<tag k="ssr:stedsnr" v="435955" />
	</node>
	<node lat="62.222051958317756" lon="9.577121173515392" id="-42504">
		<tag k="name" v="Hjerkinn Fjellstue" />
		<tag k="ssr:stedsnr" v="435525" />
		<tag k="tourism" v="hotel" />
	</node>
	<node lat="62.0676472209618" lon="9.112375001645823" id="-42506">
		<tag k="alt_name" v="Dombås, nedre;Nedre Domås" />
		<tag k="name" v="Nedre Dombås" />
		<tag k="place" v="farm" />
		<tag k="ssr:stedsnr" v="435600" />
	</node>
	<node lat="61.92193828278208" lon="9.357094042933676" id="-42510">
		<tag k="fixme" v="consider place=hamlet" />
		<tag k="name" v="Haugen" />
		<tag k="place" v="farm" />
		<tag k="ssr:stedsnr" v="435899" />
	</node>
	<node lat="62.038419440035646" lon="9.16256945301742" id="-42533">
		<tag k="name" v="Berget" />
		<tag k="place" v="farm" />
		<tag k="ssr:stedsnr" v="496577" />
	</node>
	<node lat="61.99865833329822" lon="9.210836112139646" id="-42534">
		<tag k="alt_name" v="Ulen" />
		<tag k="name" v="Urdi" />
		<tag k="place" v="farm" />
		<tag k="ssr:stedsnr" v="496159" />
	</node>
	<node lat="62.26145555758924" lon="9.560969445155925" id="-42535">
		<tag k="name" v="Svånå" />
		<tag k="place" v="isolated_dwelling" />
		<tag k="ssr:stedsnr" v="496532" />
	</node>
	<node lat="62.02097500352661" lon="9.192569436263135" id="-42538">
		<tag k="alt_name" v="Skeievoll" />
		<tag k="name" v="Skeivollen" />
		<tag k="place" v="farm" />
		<tag k="ssr:stedsnr" v="496543" />
	</node>
	<node lat="62.03767217348052" lon="9.096425874176596" id="-42541">
		<tag k="alt_name" v="Kroksetra" />
		<tag k="historic" v="shieling" />
		<tag k="name" v="Kroksætri" />
		<tag k="place" v="isolated_dwelling" />
		<tag k="ssr:stedsnr" v="496581" />
	</node>
	<node lat="62.052741667513565" lon="9.157819438658127" id="-42542">
		<tag k="historic" v="shieling" />
		<tag k="name" v="Øyasætri" />
		<tag k="place" v="isolated_dwelling" />
		<tag k="ssr:stedsnr" v="496588" />
	</node>
	<node lat="62.090758334444025" lon="9.641738880418556" id="-42544">
		<tag k="fixme" v="consider tourism=alpine_hut or tourism=chalet" />
		<tag k="name" v="Grimsdalshytta" />
		<tag k="ssr:stedsnr" v="496673" />
		<tag k="tourism" v="wilderness_hut" />
	</node>
	<node lat="62.27435555389136" lon="9.415908324671475" id="-42554">
		<tag k="name" v="Svånålegeret" />
		<tag k="place" v="isolated_dwelling" />
		<tag k="ssr:stedsnr" v="511267" />
	</node>
	<node lat="62.04937222546177" lon="9.05136110945954" id="-42556">
		<tag k="name" v="Dombås sameie" />
		<tag k="place" v="locality" />
		<tag k="ssr:stedsnr" v="535747" />
	</node>
	<node lat="62.03167777823407" lon="9.169352768313283" id="-42561">
		<tag k="name" v="Hagevoll" />
		<tag k="place" v="isolated_dwelling" />
		<tag k="ssr:stedsnr" v="536262" />
	</node>
	<node lat="62.023736113156794" lon="9.177513885744432" id="-42563">
		<tag k="name" v="Wiklund" />
		<tag k="place" v="isolated_dwelling" />
		<tag k="ssr:stedsnr" v="536329" />
	</node>
	<node lat="62.01898888667955" lon="9.174449994892868" id="-42564">
		<tag k="name" v="Korsvolllien" />
		<tag k="place" v="isolated_dwelling" />
		<tag k="ssr:stedsnr" v="536332" />
	</node>
	<node lat="62.01381666221036" lon="9.152338895614962" id="-42565">
		<tag k="historic" v="shieling" />
		<tag k="name" v="Brennhaugseter" />
		<tag k="place" v="isolated_dwelling" />
		<tag k="ssr:stedsnr" v="536334" />
	</node>
	<node lat="62.02518055398807" lon="9.121888892161074" id="-42566">
		<tag k="historic" v="shieling" />
		<tag k="name" v="Ulekleivseter" />
		<tag k="place" v="isolated_dwelling" />
		<tag k="ssr:stedsnr" v="536335" />
	</node>
	<node lat="62.10018333578513" lon="9.244816658526203" id="-42568">
		<tag k="historic" v="shieling" />
		<tag k="name" v="Bjørkhol seter" />
		<tag k="place" v="isolated_dwelling" />
		<tag k="ssr:stedsnr" v="536461" />
	</node>
	<node lat="62.11426285993813" lon="9.280100295504978" id="-42575">
		<tag k="fixme" v="consider place=hamlet" />
		<tag k="name" v="Fokstugu" />
		<tag k="place" v="farm" />
		<tag k="ssr:stedsnr" v="543344" />
	</node>
	<node lat="61.99394999659681" lon="9.275358334014731" id="-42581">
		<tag k="name" v="Ekrehagen" />
		<tag k="place" v="farm" />
		<tag k="ssr:stedsnr" v="556431" />
	</node>
	<node lat="62.00215294876765" lon="9.243428156931783" id="-42585">
		<tag k="alt_name" v="Schjellstad" />
		<tag k="fixme" v="consider place=hamlet" />
		<tag k="name" v="Skjellstad" />
		<tag k="place" v="farm" />
		<tag k="ssr:stedsnr" v="556386" />
	</node>
	<node lat="61.898997220864466" lon="9.37483888021154" id="-42595">
		<tag k="name" v="Øverjordet" />
		<tag k="place" v="farm" />
		<tag k="ssr:stedsnr" v="556996" />
	</node>
	<node lat="61.96091111517798" lon="9.193441662314514" id="-42596">
		<tag k="alt_name" v="Muslisetrin" />
		<tag k="historic" v="shieling" />
		<tag k="name" v="Muslisætrin" />
		<tag k="place" v="isolated_dwelling" />
		<tag k="ssr:stedsnr" v="557180" />
	</node>
	<node lat="62.29416755447314" lon="9.35066816137966" id="-42598">
		<tag k="fixme" v="consider tourism=alpine_hut or tourism=chalet" />
		<tag k="name" v="Snøheim" />
		<tag k="ssr:stedsnr" v="557532" />
		<tag k="tourism" v="wilderness_hut" />
	</node>
	<node lat="61.97195555844886" lon="9.261258324648468" id="-42604">
		<tag k="name" v="Andgard" />
		<tag k="place" v="farm" />
		<tag k="ssr:stedsnr" v="582569" />
	</node>
	<node lat="61.91043889259955" lon="9.417683337748041" id="-42611">
		<tag k="historic" v="shieling" />
		<tag k="name" v="Bakkesetre" />
		<tag k="place" v="isolated_dwelling" />
		<tag k="ssr:stedsnr" v="595996" />
	</node>
	<node lat="62.22003055121512" lon="9.546602777473021" id="-42612">
		<tag k="amenity" v="school" />
		<tag k="name" v="Hjerkinn skole" />
		<tag k="ssr:stedsnr" v="597273" />
	</node>
	<node lat="62.1013944435979" lon="9.243183328639162" id="-42617">
		<tag k="historic" v="shieling" />
		<tag k="name" v="Arnekleiv seter" />
		<tag k="place" v="isolated_dwelling" />
		<tag k="ssr:stedsnr" v="596443" />
	</node>
	<node lat="62.09981110842328" lon="9.246816663079034" id="-42618">
		<tag k="historic" v="shieling" />
		<tag k="name" v="Domås seter" />
		<tag k="place" v="isolated_dwelling" />
		<tag k="ssr:stedsnr" v="596444" />
	</node>
	<node lat="61.90787777498045" lon="9.365058334439855" id="-42621">
		<tag k="name" v="Søre Storlie" />
		<tag k="place" v="farm" />
		<tag k="ssr:stedsnr" v="596736" />
	</node>
	<node lat="61.962755554489206" lon="9.407913880915974" id="-42622">
		<tag k="historic" v="shieling" />
		<tag k="name" v="Rindalssetre" />
		<tag k="place" v="isolated_dwelling" />
		<tag k="ssr:stedsnr" v="596829" />
	</node>
	<node lat="61.996947218161246" lon="9.229436106481469" id="-42623">
		<tag k="name" v="Toftemo" />
		<tag k="place" v="farm" />
		<tag k="ssr:stedsnr" v="596695" />
	</node>
	<node lat="61.994599998403665" lon="9.234769436580304" id="-42624">
		<tag k="name" v="Jonsrud" />
		<tag k="place" v="isolated_dwelling" />
		<tag k="ssr:stedsnr" v="596697" />
	</node>
	<node lat="61.982397225932466" lon="9.230141669175287" id="-42625">
		<tag k="name" v="Nedre Rykhus" />
		<tag k="place" v="farm" />
		<tag k="ssr:stedsnr" v="596698" />
	</node>
	<node lat="62.073888885021795" lon="9.10272777171253" id="-42626">
		<tag k="name" v="Hammeren" />
		<tag k="place" v="isolated_dwelling" />
		<tag k="ssr:stedsnr" v="596778" />
	</node>
	<node lat="61.9025166694887" lon="9.379480551354753" id="-42627">
		<tag k="name" v="Mellomrusten" />
		<tag k="place" v="farm" />
		<tag k="ssr:stedsnr" v="596982" />
	</node>
	<node lat="62.12626666292597" lon="9.136541666476104" id="-42628">
		<tag k="historic" v="shieling" />
		<tag k="name" v="Standheim seter" />
		<tag k="place" v="isolated_dwelling" />
		<tag k="ssr:stedsnr" v="597126" />
	</node>
	<node lat="62.01563055293349" lon="9.152002784045582" id="-42636">
		<tag k="historic" v="shieling" />
		<tag k="name" v="Arnekleivseter" />
		<tag k="place" v="isolated_dwelling" />
		<tag k="ssr:stedsnr" v="597342" />
	</node>
	<node lat="61.99259721978462" lon="9.242499993307142" id="-42637">
		<tag k="amenity" v="school" />
		<tag k="name" v="Hjerleid" />
		<tag k="ssr:stedsnr" v="597498" />
	</node>
	<node lat="62.02576666289475" lon="9.181386113934769" id="-42642">
		<tag k="name" v="Ronn" />
		<tag k="place" v="farm" />
		<tag k="ssr:stedsnr" v="617557" />
	</node>
	<node lat="62.0129241902036" lon="9.224202310364761" id="-42649">
		<tag k="fixme" v="consider place=hamlet" />
		<tag k="name" v="Vårkinn" />
		<tag k="place" v="farm" />
		<tag k="ssr:stedsnr" v="617647" />
	</node>
	<node lat="61.99960445679818" lon="9.248331541360022" id="-42651">
		<tag k="fixme" v="consider place=hamlet" />
		<tag k="name" v="Bergseng" />
		<tag k="place" v="farm" />
		<tag k="ssr:stedsnr" v="617347" />
	</node>
	<node lat="62.05635277423831" lon="9.13626111712861" id="-42656">
		<tag k="alt_name" v="Hjelløkken" />
		<tag k="name" v="Hjellykkja" />
		<tag k="place" v="farm" />
		<tag k="ssr:stedsnr" v="617576" />
	</node>
	<node lat="61.92826111032605" lon="9.323247213768656" id="-42664">
		<tag k="name" v="Engan" />
		<tag k="place" v="farm" />
		<tag k="ssr:stedsnr" v="617878" />
	</node>
	<node lat="62.032311109114374" lon="9.660841672920665" id="-42665">
		<tag k="historic" v="shieling" />
		<tag k="name" v="Haverdalssætri" />
		<tag k="place" v="isolated_dwelling" />
		<tag k="ssr:stedsnr" v="632093" />
	</node>
	<node lat="61.91892221951704" lon="9.359186105377729" id="-42666">
		<tag k="name" v="Vollheim" />
		<tag k="place" v="farm" />
		<tag k="ssr:stedsnr" v="643662" />
	</node>
	<node lat="61.93405277906753" lon="9.319883332753166" id="-42667">
		<tag k="name" v="Nedre Rindal" />
		<tag k="place" v="farm" />
		<tag k="ssr:stedsnr" v="643667" />
	</node>
	<node lat="62.07113441627358" lon="9.097031309544915" id="-42669">
		<tag k="name" v="Lilleløkken" />
		<tag k="place" v="locality" />
		<tag k="ssr:stedsnr" v="656818" />
	</node>
	<node lat="62.03575637573846" lon="9.18161269209586" id="-42673">
		<tag k="fixme" v="consider place=hamlet" />
		<tag k="name" v="Hågå" />
		<tag k="place" v="farm" />
		<tag k="ssr:stedsnr" v="657270" />
	</node>
	<node lat="62.02241388616746" lon="9.172933332893713" id="-42677">
		<tag k="name" v="Nordre Brendhaugen" />
		<tag k="place" v="farm" />
		<tag k="ssr:stedsnr" v="657330" />
	</node>
	<node lat="61.956499997933086" lon="9.264627778239438" id="-42678">
		<tag k="amenity" v="school" />
		<tag k="name" v="Rudi skole" />
		<tag k="ssr:stedsnr" v="657633" />
	</node>
	<node lat="61.995988886496086" lon="9.22935277073043" id="-42679">
		<tag k="building" v="industrial" />
		<tag k="name" v="Mølla" />
		<tag k="ssr:stedsnr" v="657696" />
	</node>
	<node lat="61.98021666980694" lon="9.227219451887375" id="-42680">
		<tag k="name" v="Myrastad" />
		<tag k="place" v="locality" />
		<tag k="ssr:stedsnr" v="657700" />
	</node>
	<node lat="62.198222222099396" lon="9.537083336735739" id="-42684">
		<tag k="name" v="Vorkinnkveea" />
		<tag k="place" v="locality" />
		<tag k="ssr:stedsnr" v="658262" />
	</node>
	<node lat="61.950869144946864" lon="9.296310510551677" id="-42688">
		<tag k="fixme" v="consider place=hamlet" />
		<tag k="name" v="Sætrom" />
		<tag k="place" v="farm" />
		<tag k="ssr:stedsnr" v="659654" />
	</node>
	<node lat="61.897836112058954" lon="9.38267778136713" id="-42692">
		<tag k="name" v="Søre Stuguflotten" />
		<tag k="place" v="farm" />
		<tag k="ssr:stedsnr" v="716966" />
	</node>
	<node lat="62.074355558124026" lon="9.097936119884201" id="-42693">
		<tag k="name" v="Trodal" />
		<tag k="place" v="isolated_dwelling" />
		<tag k="ssr:stedsnr" v="717790" />
	</node>
	<node lat="62.06037499922948" lon="9.094377781593527" id="-42694">
		<tag k="name" v="Søre Blestrud" />
		<tag k="place" v="farm" />
		<tag k="ssr:stedsnr" v="717793" />
	</node>
	<node lat="62.04324722583679" lon="9.147841668900442" id="-42696">
		<tag k="name" v="Øien" />
		<tag k="place" v="farm" />
		<tag k="ssr:stedsnr" v="718317" />
	</node>
	<node lat="62.03676667085474" lon="9.164666663924907" id="-42699">
		<tag k="building" v="industrial" />
		<tag k="name" v="Faksfall sagbruk" />
		<tag k="ssr:stedsnr" v="718263" />
	</node>
	<node lat="62.02566111546907" lon="9.127669444941242" id="-42700">
		<tag k="historic" v="shieling" />
		<tag k="name" v="Ulekleivseter" />
		<tag k="place" v="isolated_dwelling" />
		<tag k="ssr:stedsnr" v="718331" />
	</node>
	<node lat="62.06676667012383" lon="9.121266662170786" id="-42704">
		<tag k="name" v="Bergejordet" />
		<tag k="place" v="farm" />
		<tag k="ssr:stedsnr" v="718456" />
	</node>
	<node lat="62.220941665489406" lon="9.580366660891697" id="-42705">
		<tag k="name" v="Hjerkinn gard" />
		<tag k="place" v="farm" />
		<tag k="ssr:stedsnr" v="718542" />
	</node>
	<node lat="62.02532500283349" lon="9.41464722821881" id="-42706">
		<tag k="name" v="Fjellheim" />
		<tag k="place" v="isolated_dwelling" />
		<tag k="ssr:stedsnr" v="718799" />
	</node>
	<node lat="62.0092583314252" lon="9.325597218384155" id="-42707">
		<tag k="historic" v="shieling" />
		<tag k="loc_name" v="Eftanssætre" />
		<tag k="name" v="Krokstadsetre" />
		<tag k="place" v="isolated_dwelling" />
		<tag k="ssr:stedsnr" v="718967" />
	</node>
	<node lat="61.957900003279384" lon="9.264402775100516" id="-42708">
		<tag k="name" v="Nymo" />
		<tag k="place" v="isolated_dwelling" />
		<tag k="ssr:stedsnr" v="718649" />
	</node>
	<node lat="61.95151944647965" lon="9.281255563946509" id="-42709">
		<tag k="name" v="Brualøkken" />
		<tag k="place" v="farm" />
		<tag k="ssr:stedsnr" v="718653" />
	</node>
	<node lat="61.946608335764175" lon="9.269316664691651" id="-42710">
		<tag k="name" v="Morken" />
		<tag k="place" v="farm" />
		<tag k="ssr:stedsnr" v="718659" />
	</node>
	<node lat="62.03727500023699" lon="9.345033342208321" id="-42717">
		<tag k="name" v="Lindsømåsåhuset" />
		<tag k="place" v="isolated_dwelling" />
		<tag k="ssr:stedsnr" v="718999" />
	</node>
	<node lat="62.06564052169167" lon="9.081321060836839" id="-42718">
		<tag k="alt_name" v="Breiddal" />
		<tag k="fixme" v="consider place=hamlet" />
		<tag k="name" v="Breidal" />
		<tag k="place" v="farm" />
		<tag k="ssr:stedsnr" v="738573" />
	</node>
	<node lat="62.22308809457841" lon="9.550420652588533" id="-42724">
		<tag k="name" v="Hjerkinn" />
		<tag k="place" v="hamlet" />
		<tag k="ssr:stedsnr" v="738487" />
	</node>
	<node lat="61.998476692366225" lon="9.804998739710221" id="-42727">
		<tag k="alt_name" v="Dørålseter" />
		<tag k="historic" v="shieling" />
		<tag k="loc_name" v="Dørålsætre" />
		<tag k="name" v="Dørålsæter" />
		<tag k="place" v="isolated_dwelling" />
		<tag k="ssr:stedsnr" v="738699" />
	</node>
	<node lat="61.92267500309094" lon="9.330558333380358" id="-42734">
		<tag k="name" v="Skoglund" />
		<tag k="place" v="farm" />
		<tag k="ssr:stedsnr" v="738907" />
	</node>
	<node lat="62.02877222492669" lon="9.16411944714204" id="-42740">
		<tag k="name" v="Furuheim" />
		<tag k="place" v="farm" />
		<tag k="ssr:stedsnr" v="739550" />
	</node>
	<node lat="62.04879132384769" lon="9.15381174737952" id="-42742">
		<tag k="alt_name" v="Engum" />
		<tag k="fixme" v="consider place=hamlet" />
		<tag k="name" v="Engjom" />
		<tag k="place" v="farm" />
		<tag k="ssr:stedsnr" v="739560" />
	</node>
	<node lat="62.03982221828178" lon="9.13086111801327" id="-42743">
		<tag k="name" v="Kås" />
		<tag k="place" v="isolated_dwelling" />
		<tag k="ssr:stedsnr" v="739564" />
	</node>
	<node lat="62.05793073621317" lon="9.155898631477973" id="-42744">
		<tag k="alt_name" v="Einbu" />
		<tag k="name" v="Einbo" />
		<tag k="place" v="locality" />
		<tag k="ssr:stedsnr" v="739576" />
	</node>
	<node lat="61.9874999960933" lon="9.255561104184848" id="-42745">
		<tag k="name" v="Dovre" />
		<tag k="place" v="village" />
		<tag k="ssr:stedsnr" v="739368" />
	</node>
	<node lat="62.003325325717086" lon="9.206197075347555" id="-42750">
		<tag k="fixme" v="multiple name tags, choose one and add the other to alt_name" />
		<tag k="name" v="Vangen;Budsjordplassen" />
		<tag k="place" v="farm" />
		<tag k="ssr:stedsnr" v="739524" />
	</node>
	<node lat="62.00078333413599" lon="9.210969439865446" id="-42751">
		<tag k="name" v="Lindvik" />
		<tag k="place" v="farm" />
		<tag k="ssr:stedsnr" v="739525" />
	</node>
	<node lat="61.91994999750316" lon="9.333897218378075" id="-42754">
		<tag k="alt_name" v="Skulegarden" />
		<tag k="name" v="Lærargarden" />
		<tag k="place" v="farm" />
		<tag k="ssr:stedsnr" v="739873" />
	</node>
	<node lat="61.97834444287662" lon="9.246963885173919" id="-42761">
		<tag k="name" v="Elvarheim" />
		<tag k="place" v="farm" />
		<tag k="ssr:stedsnr" v="764561" />
	</node>
	<node lat="61.91793055347739" lon="9.355786118041124" id="-42762">
		<tag k="name" v="Brusletten camping" />
		<tag k="ssr:stedsnr" v="765671" />
		<tag k="tourism" v="camp_site" />
	</node>
	<node lat="61.91719444898737" lon="9.408069436875774" id="-42764">
		<tag k="historic" v="shieling" />
		<tag k="name" v="Leirasetra" />
		<tag k="place" v="isolated_dwelling" />
		<tag k="ssr:stedsnr" v="777744" />
	</node>
	<node lat="62.06606944859752" lon="9.117386110426514" id="-42765">
		<tag k="name" v="Berghol" />
		<tag k="place" v="farm" />
		<tag k="ssr:stedsnr" v="778785" />
	</node>
	<node lat="62.07992499960713" lon="9.122388891568896" id="-42766">
		<tag k="name" v="Midtskog" />
		<tag k="place" v="farm" />
		<tag k="ssr:stedsnr" v="779076" />
	</node>
	<node lat="62.07164735417112" lon="9.117452187209537" id="-42767">
		<tag k="alt_name" v="Domås;Domås-gardene;Domåsgardan" />
		<tag k="name" v="Dombås" />
		<tag k="place" v="hamlet" />
		<tag k="ssr:stedsnr" v="779079" />
	</node>
	<node lat="62.10188333059524" lon="9.24114722590635" id="-42768">
		<tag k="historic" v="shieling" />
		<tag k="name" v="Storlykkjesetra" />
		<tag k="place" v="isolated_dwelling" />
		<tag k="ssr:stedsnr" v="779096" />
	</node>
	<node lat="62.0299111095997" lon="9.175705547328668" id="-42769">
		<tag k="name" v="Bjørkhol camping" />
		<tag k="ssr:stedsnr" v="779271" />
		<tag k="tourism" v="camp_site" />
	</node>
	<node lat="62.030980553914" lon="9.155997231617757" id="-42773">
		<tag k="name" v="Hagehestdalen" />
		<tag k="place" v="farm" />
		<tag k="ssr:stedsnr" v="779312" />
	</node>
	<node lat="62.01126111288141" lon="9.227902773260647" id="-42776">
		<tag k="name" v="Stavåbakken" />
		<tag k="place" v="farm" />
		<tag k="ssr:stedsnr" v="779739" />
	</node>
	<node lat="62.018983330851256" lon="9.19671665989386" id="-42777">
		<tag k="name" v="Lilleløkken" />
		<tag k="place" v="farm" />
		<tag k="ssr:stedsnr" v="779740" />
	</node>
	<node lat="61.961955554078386" lon="9.404608333496315" id="-42778">
		<tag k="historic" v="shieling" />
		<tag k="name" v="Breidalsetre" />
		<tag k="place" v="isolated_dwelling" />
		<tag k="ssr:stedsnr" v="779839" />
	</node>
	<node lat="62.015437820848746" lon="9.223513924427907" id="-42782">
		<tag k="alt_name" v="Budsjord" />
		<tag k="fixme" v="consider place=hamlet" />
		<tag k="name" v="Busjord" />
		<tag k="place" v="farm" />
		<tag k="ssr:stedsnr" v="799653" />
	</node>
	<node lat="62.00802675518485" lon="9.230603109735753" id="-42784">
		<tag k="alt_name" v="Lindsøe" />
		<tag k="fixme" v="consider place=hamlet" />
		<tag k="name" v="Lindse" />
		<tag k="place" v="farm" />
		<tag k="ssr:stedsnr" v="799658" />
	</node>
	<node lat="62.05613741196764" lon="9.105442332402884" id="-42791">
		<tag k="alt_name" v="Lisødegård" />
		<tag k="fixme" v="consider place=hamlet" />
		<tag k="name" v="Lisøygarden" />
		<tag k="place" v="farm" />
		<tag k="ssr:stedsnr" v="799586" />
	</node>
	<node lat="62.06771111140451" lon="9.072016666961558" id="-42793">
		<tag k="name" v="Brenna" />
		<tag k="place" v="farm" />
		<tag k="ssr:stedsnr" v="799602" />
	</node>
	<node lat="62.03247222497073" lon="9.662219452367488" id="-42795">
		<tag k="fixme" v="consider tourism=alpine_hut or tourism=chalet" />
		<tag k="name" v="Haverdalsseter" />
		<tag k="old_name" v="Haverdalsætri" />
		<tag k="ssr:stedsnr" v="799686" />
		<tag k="tourism" v="wilderness_hut" />
	</node>
	<node lat="61.982200001924255" lon="9.271583325576739" id="-42804">
		<tag k="name" v="Stigen" />
		<tag k="place" v="farm" />
		<tag k="ssr:stedsnr" v="800370" />
	</node>
	<node lat="62.02540997730719" lon="9.193586404050976" id="-42807">
		<tag k="name" v="Korsvoll" />
		<tag k="place" v="farm" />
		<tag k="ssr:stedsnr" v="800539" />
	</node>
	<node lat="62.03014444717559" lon="9.181958332608017" id="-42808">
		<tag k="alt_name" v="Bjørkhol" />
		<tag k="name" v="Bjørkholen" />
		<tag k="place" v="farm" />
		<tag k="ssr:stedsnr" v="800543" />
	</node>
	<node lat="62.02768888482994" lon="9.168733328933962" id="-42809">
		<tag k="alt_name" v="Hageødegården" />
		<tag k="name" v="Hågåøygarden" />
		<tag k="place" v="farm" />
		<tag k="ssr:stedsnr" v="800544" />
	</node>
	<node lat="62.04502499721478" lon="9.117819436268519" id="-42810">
		<tag k="alt_name" v="Bjørkli" />
		<tag k="name" v="Bjørklii" />
		<tag k="place" v="farm" />
		<tag k="ssr:stedsnr" v="800557" />
	</node>
	<node lat="62.04117500305464" lon="9.127780565075314" id="-42811">
		<tag k="alt_name" v="Aspeholen" />
		<tag k="name" v="Ospeholen" />
		<tag k="place" v="farm" />
		<tag k="ssr:stedsnr" v="800559" />
	</node>
	<node lat="61.92498611066553" lon="9.314941672660101" id="-42816">
		<tag k="name" v="Pålstad" />
		<tag k="place" v="farm" />
		<tag k="ssr:stedsnr" v="800891" />
	</node>
	<node lat="61.95703737445627" lon="9.28450883273356" id="-42818">
		<tag k="fixme" v="consider place=hamlet" />
		<tag k="name" v="Langdalen" />
		<tag k="place" v="farm" />
		<tag k="ssr:stedsnr" v="800905" />
	</node>
	<node lat="61.9013277788419" lon="9.375008337438684" id="-42826">
		<tag k="name" v="Nordre Stuguflotten" />
		<tag k="place" v="isolated_dwelling" />
		<tag k="ssr:stedsnr" v="838970" />
	</node>
	<node lat="62.03965555409864" lon="9.104905546304959" id="-42828">
		<tag k="name" v="Hjellelien statsskog" />
		<tag k="place" v="locality" />
		<tag k="ssr:stedsnr" v="839736" />
	</node>
	<node lat="61.90288888663247" lon="9.37884723090169" id="-42829">
		<tag k="name" v="Svee" />
		<tag k="place" v="isolated_dwelling" />
		<tag k="ssr:stedsnr" v="839759" />
	</node>
	<node lat="62.06947222573742" lon="9.106697227825322" id="-42830">
		<tag k="name" v="Langløkken" />
		<tag k="place" v="farm" />
		<tag k="ssr:stedsnr" v="839787" />
	</node>
	<node lat="62.03957500028157" lon="9.15010000075657" id="-42831">
		<tag k="name" v="Elverheim" />
		<tag k="place" v="isolated_dwelling" />
		<tag k="ssr:stedsnr" v="840302" />
	</node>
	<node lat="62.169808333198425" lon="9.381922231807186" id="-42834">
		<tag k="name" v="Lensmannsbua" />
		<tag k="place" v="isolated_dwelling" />
		<tag k="ssr:stedsnr" v="840489" />
	</node>
	<node lat="61.9509666670969" lon="9.294883329641683" id="-42841">
		<tag k="name" v="Nørdre Sætrom" />
		<tag k="place" v="farm" />
		<tag k="ssr:stedsnr" v="842735" />
	</node>
	<node lat="62.06187221782258" lon="9.090950005512324" id="-42842">
		<tag k="fixme" v="consider place=hamlet" />
		<tag k="loc_name" v="Blæstergrende" />
		<tag k="name" v="Blestergrendi" />
		<tag k="place" v="village" />
		<tag k="ssr:stedsnr" v="860630" />
	</node>
	<node lat="62.088363886146844" lon="9.204805553901549" id="-42843">
		<tag k="alt_name" v="Hjellsætre" />
		<tag k="historic" v="shieling" />
		<tag k="name" v="Hjellsætrin" />
		<tag k="place" v="isolated_dwelling" />
		<tag k="ssr:stedsnr" v="860643" />
	</node>
	<node lat="61.97881944112645" lon="9.251594447192558" id="-42845">
		<tag k="name" v="Tårud" />
		<tag k="place" v="farm" />
		<tag k="ssr:stedsnr" v="860445" />
	</node>
	<node lat="61.982220255616966" lon="9.230939532781191" id="-42846">
		<tag k="name" v="Rykhus" />
		<tag k="place" v="farm" />
		<tag k="ssr:stedsnr" v="860448" />
	</node>
	<node lat="62.00198610986379" lon="9.301977781007027" id="-42849">
		<tag k="name" v="Bjørkheim" />
		<tag k="place" v="farm" />
		<tag k="ssr:stedsnr" v="860394" />
	</node>
	<node lat="62.03923888543739" lon="9.132491670013149" id="-42850">
		<tag k="name" v="Bjørkheim" />
		<tag k="place" v="farm" />
		<tag k="ssr:stedsnr" v="860586" />
	</node>
	<node lat="61.9146249985079" lon="9.342111118949042" id="-42860">
		<tag k="name" v="Skogli" />
		<tag k="place" v="farm" />
		<tag k="ssr:stedsnr" v="860988" />
	</node>
	<node lat="62.020674181796046" lon="9.213374577782975" id="-42862">
		<tag k="alt_name" v="Killi" />
		<tag k="name" v="Kili" />
		<tag k="place" v="hamlet" />
		<tag k="ssr:stedsnr" v="861498" />
	</node>
	<node lat="62.145091662758404" lon="9.224869447003499" id="-42870">
		<tag k="name" v="Gardsenden" />
		<tag k="place" v="hamlet" />
		<tag k="ssr:stedsnr" v="861679" />
	</node>
	<node lat="61.91583888932123" lon="9.341902771860852" id="-42871">
		<tag k="name" v="Leirhaugen" />
		<tag k="place" v="farm" />
		<tag k="ssr:stedsnr" v="861892" />
	</node>
	<node lat="61.97713610713332" lon="9.250916662861028" id="-42872">
		<tag k="alt_name" v="Sigriløkken" />
		<tag k="name" v="Sigridlykkja" />
		<tag k="place" v="isolated_dwelling" />
		<tag k="ssr:stedsnr" v="886565" />
	</node>
	<node lat="61.94231727210205" lon="9.303352811746347" id="-42875">
		<tag k="fixme" v="consider place=hamlet" />
		<tag k="name" v="Bekken" />
		<tag k="place" v="farm" />
		<tag k="ssr:stedsnr" v="947575" />
	</node>
	<node lat="61.917486123295845" lon="9.403811140958743" id="-42880">
		<tag k="historic" v="shieling" />
		<tag k="name" v="Haugasetre" />
		<tag k="place" v="isolated_dwelling" />
		<tag k="ssr:stedsnr" v="959736" />
	</node>
	<node lat="62.1299416709411" lon="9.129425001390334" id="-42884">
		<tag k="historic" v="shieling" />
		<tag k="name" v="Myren seter" />
		<tag k="place" v="isolated_dwelling" />
		<tag k="ssr:stedsnr" v="961120" />
	</node>
	<node lat="62.06311910137209" lon="9.08316486939481" id="-42885">
		<tag k="fixme" v="consider place=hamlet" />
		<tag k="name" v="Bjørnegren" />
		<tag k="place" v="farm" />
		<tag k="ssr:stedsnr" v="960758" />
	</node>
	<node lat="62.143013888495275" lon="9.216802786652837" id="-42888">
		<tag k="historic" v="shieling" />
		<tag k="name" v="Mariplass seter" />
		<tag k="place" v="isolated_dwelling" />
		<tag k="ssr:stedsnr" v="961081" />
	</node>
	<node lat="62.03819166987466" lon="9.145536107965402" id="-42890">
		<tag k="name" v="Lilleødegård" />
		<tag k="place" v="farm" />
		<tag k="ssr:stedsnr" v="961312" />
	</node>
	<node lat="62.05592500393068" lon="9.14175278653453" id="-42891">
		<tag k="name" v="Kalvlykkja" />
		<tag k="place" v="locality" />
		<tag k="ssr:stedsnr" v="961502" />
	</node>
	<node lat="62.06401944851613" lon="9.569788882464584" id="-42894">
		<tag k="name" v="Gjeterbu" />
		<tag k="place" v="isolated_dwelling" />
		<tag k="ssr:stedsnr" v="961274" />
	</node>
	<node lat="62.08494166889081" lon="9.802633339387645" id="-42895">
		<tag k="historic" v="shieling" />
		<tag k="name" v="Løken fellesseter" />
		<tag k="place" v="isolated_dwelling" />
		<tag k="ssr:stedsnr" v="961279" />
	</node>
	<node lat="61.9779714253528" lon="9.270863411324763" id="-42901">
		<tag k="name" v="Søre Slette" />
		<tag k="place" v="farm" />
		<tag k="ssr:stedsnr" v="981152" />
	</node>
	<node lat="62.22245563633824" lon="9.58104779561933" id="-42902">
		<tag k="fixme" v="consider place=hamlet" />
		<tag k="name" v="Hjerkinn" />
		<tag k="place" v="farm" />
		<tag k="ssr:stedsnr" v="983862" />
	</node>
	<node lat="61.995541071247175" lon="9.25257861944796" id="-42903">
		<tag k="fixme" v="consider place=hamlet" />
		<tag k="name" v="Bjørnsgard" />
		<tag k="place" v="farm" />
		<tag k="ssr:stedsnr" v="984007" />
	</node>
	<node lat="61.989352068575755" lon="9.253921442405868" id="-42904">
		<tag k="name" v="Bergs-Angard" />
		<tag k="place" v="farm" />
		<tag k="ssr:stedsnr" v="984009" />
	</node>
	<node lat="61.96145230116252" lon="9.271211708930101" id="-42905">
		<tag k="fixme" v="consider place=hamlet" />
		<tag k="name" v="Korshus" />
		<tag k="place" v="farm" />
		<tag k="ssr:stedsnr" v="984013" />
	</node>
	<node lat="61.93071778465323" lon="9.304656324216165" id="-42906">
		<tag k="fixme" v="consider place=hamlet" />
		<tag k="name" v="Stashaugen" />
		<tag k="place" v="farm" />
		<tag k="ssr:stedsnr" v="984017" />
	</node>
	<node lat="61.99910481653148" lon="9.80411520503793" id="-43038">
		<tag k="fixme" v="consider tourism=alpine_hut or tourism=chalet" />
		<tag k="name" v="Øvre Dørålseter" />
		<tag k="ssr:stedsnr" v="1077955" />
		<tag k="tourism" v="wilderness_hut" />
	</node>
	<node lat="61.99783741742116" lon="9.806499224560438" id="-43039">
		<tag k="fixme" v="consider tourism=alpine_hut or tourism=chalet" />
		<tag k="name" v="Nedre Dørålseter" />
		<tag k="ssr:stedsnr" v="1077956" />
		<tag k="tourism" v="wilderness_hut" />
	</node>
	<node lat="62.03833484727139" lon="9.138281887926846" id="-43044">
		<tag k="name" v="Tunga" />
		<tag k="place" v="locality" />
		<tag k="ssr:stedsnr" v="1080327" />
	</node>
	<node lat="61.9977651665019" lon="9.249891384197996" id="-43045">
		<tag k="name" v="Nordistuen Nørstegård" />
		<tag k="old_name" v="Bjørnsgård" />
		<tag k="place" v="farm" />
		<tag k="ssr:stedsnr" v="1083002" />
	</node>
</osm>
