<?xml version="1.0" encoding="UTF-8"?>
<osm version="0.6" generator="osmapis">
	<node lat="62.06862499868147" lon="9.126383335457573" id="-20477">
		<tag k="name" v="Dombås stasjon" />
		<tag k="railway" v="station" />
		<tag k="ssr:stedsnr" v="10600" />
		<tag k="train" v="yes" />
	</node>
	<node lat="61.911919442328106" lon="9.382022219851018" id="-20490">
		<tag k="highway" v="path" />
		<tag k="name" v="Bjønnråket" />
		<tag k="ssr:stedsnr" v="232701" />
	</node>
	<node lat="62.021219442895706" lon="9.634666659028952" id="-20501">
		<tag k="highway" v="path" />
		<tag k="name" v="Tålormslåråket" />
		<tag k="ssr:stedsnr" v="233596" />
	</node>
	<node lat="62.23948889116128" lon="9.590780556411087" id="-20504">
		<tag k="alt_name" v="Gamle Kongsvegen;Gamle Kongeveg" />
		<tag k="highway" v="path" />
		<tag k="name" v="Den gamle kongevegen" />
		<tag k="old_name" v="Kongeveien" />
		<tag k="ssr:stedsnr" v="22823" />
	</node>
	<node lat="62.094063893199426" lon="9.210736102948252" id="-20511">
		<tag k="fixme" v="consider highway=path" />
		<tag k="highway" v="track" />
		<tag k="name" v="Hjellsetervegen" />
		<tag k="ssr:stedsnr" v="51103" />
	</node>
	<node lat="62.15311388880731" lon="9.208369442500747" id="-20559">
		<tag k="highway" v="path" />
		<tag k="name" v="Grisungråket" />
		<tag k="ssr:stedsnr" v="112116" />
	</node>
	<node lat="62.14689722460979" lon="9.23754443798844" id="-20560">
		<tag k="highway" v="path" />
		<tag k="name" v="Nyseterråket" />
		<tag k="ssr:stedsnr" v="112117" />
	</node>
	<node lat="62.07431944484595" lon="9.163002769086956" id="-20618">
		<tag k="highway" v="path" />
		<tag k="name" v="Liavegen" />
		<tag k="ssr:stedsnr" v="172110" />
	</node>
	<node lat="62.12765555750254" lon="9.147211110586511" id="-20637">
		<tag k="highway" v="path" />
		<tag k="name" v="Storråket" />
		<tag k="ssr:stedsnr" v="233131" />
	</node>
	<node lat="62.02387222331976" lon="9.17186667175394" id="-20680">
		<tag k="bridge" v="yes" />
		<tag k="layer" v="1" />
		<tag k="name" v="Manningå" />
		<tag k="ssr:stedsnr" v="470336" />
	</node>
	<node lat="62.075008332107934" lon="9.127330558757404" id="-20682">
		<tag k="bridge" v="yes" />
		<tag k="layer" v="1" />
		<tag k="name" v="Dombvang" />
		<tag k="ssr:stedsnr" v="349454" />
	</node>
	<node lat="62.07102222354774" lon="9.223600004682162" id="-20697">
		<tag k="highway" v="path" />
		<tag k="loc_name" v="Allmannsrøyse" />
		<tag k="name" v="Allemannsløyse" />
		<tag k="ssr:stedsnr" v="475106" />
	</node>
	<node lat="62.13307499577905" lon="9.140505547371422" id="-20748">
		<tag k="highway" v="path" />
		<tag k="name" v="Ryggeråket" />
		<tag k="ssr:stedsnr" v="415117" />
	</node>
	<node lat="62.08546389078513" lon="9.116680547948132" id="-20770">
		<tag k="bridge" v="yes" />
		<tag k="layer" v="1" />
		<tag k="name" v="Hindåa" />
		<tag k="ssr:stedsnr" v="470369" />
	</node>
	<node lat="62.09235832932553" lon="9.15146112028187" id="-20772">
		<tag k="highway" v="path" />
		<tag k="name" v="Hovdedrogje" />
		<tag k="ssr:stedsnr" v="475112" />
	</node>
	<node lat="62.11589999800095" lon="9.155500003107553" id="-20773">
		<tag k="highway" v="path" />
		<tag k="name" v="Gammelvegen" />
		<tag k="ssr:stedsnr" v="475116" />
	</node>
	<node lat="62.1763472114728" lon="9.42613745501077" id="-20782">
		<tag k="alt_name" v="Vålåsjø" />
		<tag k="name" v="Vålåsjø holdeplass" />
		<tag k="railway" v="halt" />
		<tag k="ssr:stedsnr" v="678702" />
		<tag k="train" v="yes" />
	</node>
	<node lat="62.04919166919748" lon="9.115199993989021" id="-20832">
		<tag k="bridge" v="yes" />
		<tag k="layer" v="1" />
		<tag k="name" v="Djupå" />
		<tag k="ssr:stedsnr" v="531411" />
	</node>
	<node lat="61.93098889066348" lon="9.306575004371007" id="-20833">
		<tag k="bridge" v="yes" />
		<tag k="layer" v="1" />
		<tag k="name" v="Langbekk" />
		<tag k="ssr:stedsnr" v="531415" />
	</node>
	<node lat="62.00735278148032" lon="9.216422229811807" id="-20933">
		<tag k="bridge" v="yes" />
		<tag k="layer" v="1" />
		<tag k="name" v="Lindsøbekk" />
		<tag k="ssr:stedsnr" v="895353" />
	</node>
	<node lat="62.09616110863802" lon="9.215794437803897" id="-20934">
		<tag k="bridge" v="yes" />
		<tag k="layer" v="1" />
		<tag k="name" v="Hondyrju" />
		<tag k="ssr:stedsnr" v="895388" />
	</node>
	<node lat="62.044088892306476" lon="9.143975004542321" id="-20935">
		<tag k="bridge" v="yes" />
		<tag k="layer" v="1" />
		<tag k="name" v="Hjellå" />
		<tag k="ssr:stedsnr" v="895389" />
	</node>
	<node lat="62.12644166639517" lon="9.130930549362914" id="-20943">
		<tag k="highway" v="path" />
		<tag k="name" v="Liråket" />
		<tag k="ssr:stedsnr" v="718127" />
	</node>
	<node lat="61.983486109556246" lon="9.2570277720917" id="-20967">
		<tag k="name" v="Dovre stasjon" />
		<tag k="railway" v="station" />
		<tag k="ssr:stedsnr" v="901532" />
		<tag k="train" v="yes" />
	</node>
	<node lat="62.06132777627339" lon="9.386166673333454" id="-21026">
		<tag k="highway" v="path" />
		<tag k="name" v="Gautstigen" />
		<tag k="ssr:stedsnr" v="921660" />
	</node>
	<node lat="61.99067222578504" lon="9.233813891552463" id="-21045">
		<tag k="bridge" v="yes" />
		<tag k="layer" v="1" />
		<tag k="name" v="Einbugå" />
		<tag k="ssr:stedsnr" v="835427" />
	</node>
	<node lat="61.98642222639005" lon="9.258580556584715" id="-21074">
		<tag k="bridge" v="yes" />
		<tag k="layer" v="1" />
		<tag k="name" v="Dragåa" />
		<tag k="ssr:stedsnr" v="895382" />
	</node>
	<node lat="62.05628333117226" lon="9.904802784772677" id="-21084">
		<tag k="highway" v="path" />
		<tag k="name" v="Stakstobruråket" />
		<tag k="ssr:stedsnr" v="901267" />
	</node>
	<node lat="62.13039721920596" lon="9.124547226646127" id="-21106">
		<tag k="highway" v="path" />
		<tag k="name" v="Lokkarråket" />
		<tag k="ssr:stedsnr" v="961116" />
	</node>
	<node lat="61.97618611100335" lon="9.23636945386327" id="-21147">
		<tag k="bridge" v="yes" />
		<tag k="layer" v="1" />
		<tag k="name" v="Engelbekken" />
		<tag k="ssr:stedsnr" v="46420" />
	</node>
	<node lat="61.918230552386014" lon="9.356402776795298" id="-21148">
		<tag k="bridge" v="yes" />
		<tag k="layer" v="1" />
		<tag k="name" v="Haugen" />
		<tag k="ssr:stedsnr" v="46431" />
	</node>
	<node lat="62.11083610873585" lon="9.331430560297152" id="-21165">
		<tag k="highway" v="path" />
		<tag k="name" v="Gautstigråket" />
		<tag k="ssr:stedsnr" v="51517" />
	</node>
	<node lat="62.15618611288474" lon="9.25637499116019" id="-21197">
		<tag k="highway" v="path" />
		<tag k="name" v="Gardsendråket" />
		<tag k="ssr:stedsnr" v="111444" />
	</node>
	<node lat="62.1754083368093" lon="9.424530564528574" id="-21200">
		<tag k="ford" v="yes" />
		<tag k="name" v="Lisvadet" />
		<tag k="place" v="locality" />
		<tag k="ssr:stedsnr" v="111458" />
	</node>
	<node lat="62.111427773660445" lon="9.116119449533521" id="-21252">
		<tag k="highway" v="path" />
		<tag k="name" v="Måsådrogje" />
		<tag k="ssr:stedsnr" v="171855" />
	</node>
	<node lat="62.16829722114464" lon="9.291822227245675" id="-21254">
		<tag k="highway" v="path" />
		<tag k="name" v="Grisongråket" />
		<tag k="ssr:stedsnr" v="172479" />
	</node>
	<node lat="62.01586666430146" lon="9.250925008053013" id="-21265">
		<tag k="highway" v="path" />
		<tag k="name" v="Monvegen" />
		<tag k="ssr:stedsnr" v="172547" />
	</node>
	<node lat="61.99851388511968" lon="9.220361107246266" id="-21329">
		<tag k="bridge" v="yes" />
		<tag k="layer" v="1" />
		<tag k="name" v="Toftemo" />
		<tag k="ssr:stedsnr" v="228413" />
	</node>
	<node lat="61.959324995658456" lon="9.262619435545234" id="-21330">
		<tag k="bridge" v="yes" />
		<tag k="layer" v="1" />
		<tag k="name" v="Tallerås" />
		<tag k="ssr:stedsnr" v="228416" />
	</node>
	<node lat="61.929552775486876" lon="9.346744446307072" id="-21334">
		<tag k="bridge" v="yes" />
		<tag k="layer" v="1" />
		<tag k="name" v="Rødøla" />
		<tag k="ssr:stedsnr" v="288351" />
	</node>
	<node lat="61.958575001076724" lon="9.279833342133317" id="-21395">
		<tag k="bridge" v="yes" />
		<tag k="layer" v="1" />
		<tag k="name" v="Rudiåa" />
		<tag k="ssr:stedsnr" v="349432" />
	</node>
	<node lat="62.076702773694144" lon="9.13710000927725" id="-21396">
		<tag k="bridge" v="yes" />
		<tag k="layer" v="1" />
		<tag k="name" v="Tverrbekken" />
		<tag k="ssr:stedsnr" v="349438" />
	</node>
	<node lat="62.078911110181146" lon="9.164958331858315" id="-21400">
		<tag k="highway" v="path" />
		<tag k="name" v="Gammelseterråket" />
		<tag k="ssr:stedsnr" v="354117" />
	</node>
	<node lat="62.055063885135866" lon="9.55601665794027" id="-21403">
		<tag k="highway" v="path" />
		<tag k="name" v="Haverdalsråket" />
		<tag k="ssr:stedsnr" v="354285" />
	</node>
	<node lat="62.06490833764476" lon="9.638652783212502" id="-21404">
		<tag k="highway" v="path" />
		<tag k="name" v="Høvringråket" />
		<tag k="ssr:stedsnr" v="354291" />
	</node>
	<node lat="61.958806665223584" lon="9.404728980142593" id="-21412">
		<tag k="highway" v="path" />
		<tag k="name" v="Kuvråket" />
		<tag k="ssr:stedsnr" v="354844" />
	</node>
	<node lat="62.07310833142622" lon="9.127563898423269" id="-21445">
		<tag k="bridge" v="yes" />
		<tag k="layer" v="1" />
		<tag k="name" v="Garvarlykkja" />
		<tag k="ssr:stedsnr" v="410417" />
	</node>
	<node lat="62.13311110979821" lon="9.130344453212222" id="-21447">
		<tag k="highway" v="path" />
		<tag k="name" v="Skardråket" />
		<tag k="ssr:stedsnr" v="415120" />
	</node>
	<node lat="62.06389999808626" lon="9.14730277525928" id="-21465">
		<tag k="highway" v="path" />
		<tag k="name" v="Hjelledroga" />
		<tag k="ssr:stedsnr" v="415539" />
	</node>
	<node lat="62.14233333049676" lon="9.258911115892133" id="-21536">
		<tag k="highway" v="path" />
		<tag k="name" v="Gamle Nysetervegen" />
		<tag k="ssr:stedsnr" v="536454" />
	</node>
	<node lat="62.06532499759785" lon="9.153994453039319" id="-21538">
		<tag k="highway" v="path" />
		<tag k="name" v="Bakkedroga" />
		<tag k="ssr:stedsnr" v="536501" />
	</node>
	<node lat="62.01371388927273" lon="9.206955547014685" id="-21574">
		<tag k="bridge" v="yes" />
		<tag k="layer" v="1" />
		<tag k="name" v="Rådå" />
		<tag k="ssr:stedsnr" v="591347" />
	</node>
	<node lat="62.080180558572174" lon="9.125366670535632" id="-21575">
		<tag k="bridge" v="yes" />
		<tag k="layer" v="1" />
		<tag k="name" v="Vadlykkja" />
		<tag k="ssr:stedsnr" v="591352" />
	</node>
	<node lat="61.91816111176775" lon="9.352750000663953" id="-21576">
		<tag k="bridge" v="yes" />
		<tag k="layer" v="1" />
		<tag k="name" v="Brusletten" />
		<tag k="ssr:stedsnr" v="591376" />
	</node>
	<node lat="62.11352777425818" lon="9.288886118582697" id="-21577">
		<tag k="bridge" v="yes" />
		<tag k="layer" v="1" />
		<tag k="name" v="Fokså" />
		<tag k="ssr:stedsnr" v="591387" />
	</node>
	<node lat="61.91566666600565" lon="9.453377779229216" id="-21589">
		<tag k="highway" v="path" />
		<tag k="name" v="Langtjønnvegen" />
		<tag k="ssr:stedsnr" v="596728" />
	</node>
	<node lat="62.220041807049434" lon="9.54128660415869" id="-21630">
		<tag k="alt_name" v="Hjerkinn" />
		<tag k="name" v="Hjerkinn stasjon" />
		<tag k="railway" v="station" />
		<tag k="ssr:stedsnr" v="617754" />
		<tag k="train" v="yes" />
	</node>
	<node lat="61.98468055707332" lon="9.247905559554427" id="-21637">
		<tag k="bridge" v="yes" />
		<tag k="layer" v="1" />
		<tag k="name" v="Dragå" />
		<tag k="ssr:stedsnr" v="652365" />
	</node>
	<node lat="62.05029721985634" lon="9.804675000050713" id="-21643">
		<tag k="highway" v="path" />
		<tag k="name" v="Haverdalsråket" />
		<tag k="ssr:stedsnr" v="657276" />
	</node>
	<node lat="62.011252777096416" lon="9.228530564713592" id="-21658">
		<tag k="bridge" v="yes" />
		<tag k="layer" v="1" />
		<tag k="name" v="Stavå" />
		<tag k="ssr:stedsnr" v="713362" />
	</node>
	<node lat="62.06020555440961" lon="9.106652780870233" id="-21659">
		<tag k="bridge" v="yes" />
		<tag k="layer" v="1" />
		<tag k="name" v="Dombfoss" />
		<tag k="ssr:stedsnr" v="713389" />
	</node>
	<node lat="62.10506110696777" lon="9.29450000033607" id="-21667">
		<tag k="highway" v="path" />
		<tag k="name" v="Gråhøråket" />
		<tag k="ssr:stedsnr" v="718489" />
	</node>
	<node lat="61.91693610723282" lon="9.455286106412018" id="-21680">
		<tag k="highway" v="path" />
		<tag k="name" v="Dørålsråket" />
		<tag k="ssr:stedsnr" v="718749" />
	</node>
	<node lat="62.02760555288356" lon="9.418163889787436" id="-21682">
		<tag k="junction" v="yes" />
		<tag k="name" v="Vegaskillet" />
		<tag k="place" v="locality" />
		<tag k="ssr:stedsnr" v="718861" />
	</node>
	<node lat="62.04231944370662" lon="9.35023611197444" id="-21684">
		<tag k="highway" v="path" />
		<tag k="name" v="Gautstigen" />
		<tag k="ssr:stedsnr" v="718992" />
	</node>
	<node lat="62.00106944520414" lon="9.241972223173862" id="-21732">
		<tag k="bridge" v="yes" />
		<tag k="layer" v="1" />
		<tag k="name" v="Toftegjelet" />
		<tag k="ssr:stedsnr" v="774419" />
	</node>
	<node lat="62.01943333458099" lon="9.217513897812381" id="-21791">
		<tag k="bridge" v="yes" />
		<tag k="layer" v="1" />
		<tag k="name" v="Rådå" />
		<tag k="ssr:stedsnr" v="835384" />
	</node>
	<node lat="62.016366666461806" lon="9.22016666570842" id="-21792">
		<tag k="bridge" v="yes" />
		<tag k="layer" v="1" />
		<tag k="name" v="Leina" />
		<tag k="ssr:stedsnr" v="835393" />
	</node>
	<node lat="61.94304444170715" lon="9.302277787209391" id="-21793">
		<tag k="bridge" v="yes" />
		<tag k="layer" v="1" />
		<tag k="name" v="Djupdalsbekken" />
		<tag k="ssr:stedsnr" v="835422" />
	</node>
	<node lat="61.985116669675456" lon="9.250158342265491" id="-21794">
		<tag k="bridge" v="yes" />
		<tag k="layer" v="1" />
		<tag k="name" v="Dragå" />
		<tag k="ssr:stedsnr" v="835426" />
	</node>
	<node lat="62.02479722063627" lon="9.247680562039568" id="-21806">
		<tag k="highway" v="path" />
		<tag k="name" v="Haugjesetervegen" />
		<tag k="ssr:stedsnr" v="840513" />
	</node>
	<node lat="62.17339722446988" lon="9.433080551659254" id="-21847">
		<tag k="bridge" v="yes" />
		<tag k="layer" v="1" />
		<tag k="name" v="Anfinns" />
		<tag k="ssr:stedsnr" v="956420" />
	</node>
	<node lat="62.087908331010446" lon="9.10262777012658" id="-21848">
		<tag k="bridge" v="yes" />
		<tag k="layer" v="1" />
		<tag k="name" v="Jori" />
		<tag k="ssr:stedsnr" v="956432" />
	</node>
	<node lat="61.92511110672437" lon="9.403077783031451" id="-21868">
		<tag k="highway" v="path" />
		<tag k="name" v="Bergeråket" />
		<tag k="ssr:stedsnr" v="961874" />
	</node>
</osm>
