<?xml version="1.0" encoding="UTF-8"?>
<<<<<<< HEAD
<osm version="0.6" generator="osmapis">
	<node lat="62.075030551771164" lon="9.124558335236149" id="-20043">
=======
<osm generator="osmapis" version="0.6">
	<node id="-360156" lat="62.1985694408" lon="9.56699444084">
		<tag k="alt_name" v="Gamle Hjerkinn" />
		<tag k="name" v="Veslhjerkinn" />
		<tag k="place" v="locality" />
		<tag k="ssr:stedsnr" v="628807" />
	</node>
	<node id="-359958" lat="62.2224277817" lon="9.56842500452">
>>>>>>> e1d4bc35ff8a6074a6f2e91616a996b547c36f15
		<tag k="amenity" v="place_of_worship" />
		<tag k="denomination" v="lutheran" />
		<tag k="name" v="Dombås kyrkje" />
		<tag k="religion" v="christian" />
<<<<<<< HEAD
		<tag k="ssr:stedsnr" v="536111" />
	</node>
	<node lat="61.98851110765082" lon="9.248049996523793" id="-20078">
=======
		<tag k="ssr:stedsnr" v="495494" />
	</node>
	<node id="-360757" lat="62.3107277791" lon="9.30794165773">
		<tag k="name" v="Gamle Reinheim" />
		<tag k="place" v="locality" />
		<tag k="ssr:stedsnr" v="436528" />
	</node>
	<node id="-360145" lat="61.9885111077" lon="9.24804999652">
>>>>>>> e1d4bc35ff8a6074a6f2e91616a996b547c36f15
		<tag k="amenity" v="place_of_worship" />
		<tag k="denomination" v="lutheran" />
		<tag k="name" v="Dovre kyrkje" />
		<tag k="religion" v="christian" />
		<tag k="ssr:stedsnr" v="617412" />
	</node>
<<<<<<< HEAD
	<node lat="62.19856944083961" lon="9.56699444084315" id="-20098">
		<tag k="alt_name" v="Gamle Hjerkinn" />
		<tag k="name" v="Veslhjerkinn" />
		<tag k="place" v="locality" />
		<tag k="ssr:stedsnr" v="628807" />
	</node>
	<node lat="62.081280554959214" lon="9.139011108234628" id="-20146">
=======
	<node id="-360112" lat="62.081280555" lon="9.13901110823">
>>>>>>> e1d4bc35ff8a6074a6f2e91616a996b547c36f15
		<tag k="name" v="Utsikten" />
		<tag k="ssr:stedsnr" v="718117" />
		<tag k="tourism" v="viewpoint" />
	</node>
<<<<<<< HEAD
	<node lat="62.31072777905942" lon="9.307941657733915" id="-20695">
		<tag k="name" v="Gamle Reinheim" />
		<tag k="place" v="locality" />
		<tag k="ssr:stedsnr" v="436528" />
	</node>
	<node lat="62.22242778172312" lon="9.56842500452496" id="-20702">
=======
	<node id="-360783" lat="62.0750305518" lon="9.12455833524">
>>>>>>> e1d4bc35ff8a6074a6f2e91616a996b547c36f15
		<tag k="amenity" v="place_of_worship" />
		<tag k="denomination" v="lutheran" />
		<tag k="name" v="Eysteinkyrkja" />
		<tag k="old_name" v="Øysteinkyrkja;Eysteinskyrkja" />
		<tag k="religion" v="christian" />
		<tag k="ssr:stedsnr" v="495494" />
	</node>
</osm>
