<?xml version="1.0" encoding="UTF-8"?>
<<<<<<< HEAD
<osm version="0.6" generator="osmapis">
	<node lat="61.913952780122706" lon="9.335638883940733" id="-19683">
		<tag k="alt_name" v="Ørjabekken" />
		<tag k="name" v="Uråsbekken" />
		<tag k="ssr:stedsnr" v="10982" />
		<tag k="waterway" v="stream" />
	</node>
	<node lat="61.96506666329933" lon="9.174377782891378" id="-19686">
		<tag k="name" v="Musa" />
		<tag k="ssr:stedsnr" v="11230" />
		<tag k="waterway" v="river" />
	</node>
	<node lat="62.099513887717976" lon="9.21012777403003" id="-19687">
		<tag k="alt_name" v="Hondyrju" />
		<tag k="name" v="Hundyrju" />
		<tag k="ssr:stedsnr" v="11612" />
		<tag k="waterway" v="stream" />
	</node>
	<node lat="62.04960277826971" lon="9.078077774821612" id="-19688">
		<tag k="name" v="Lisbekken" />
		<tag k="ssr:stedsnr" v="11576" />
		<tag k="waterway" v="stream" />
	</node>
	<node lat="62.017383337478115" lon="9.132147212975037" id="-19703">
		<tag k="name" v="Rusthaugbekken" />
		<tag k="ssr:stedsnr" v="233370" />
		<tag k="waterway" v="stream" />
	</node>
	<node lat="61.99796666548734" lon="9.445622231236264" id="-19730">
		<tag k="name" v="Grønbakktjønne" />
		<tag k="natural" v="water" />
		<tag k="ssr:stedsnr" v="71416" />
	</node>
	<node lat="62.023052781610836" lon="9.134677771347656" id="-19733">
		<tag k="name" v="Hestdalsbekken" />
		<tag k="ssr:stedsnr" v="71579" />
		<tag k="waterway" v="stream" />
	</node>
	<node lat="62.10424166909766" lon="9.246888890176646" id="-19744">
		<tag k="name" v="Gorbekken" />
		<tag k="ssr:stedsnr" v="72633" />
		<tag k="waterway" v="stream" />
	</node>
	<node lat="62.10875277960942" lon="9.693313884010399" id="-19746">
		<tag k="alt_name" v="Tverrlibekken" />
		<tag k="name" v="Tverrbekken" />
		<tag k="ssr:stedsnr" v="72636" />
		<tag k="waterway" v="river" />
	</node>
	<node lat="61.920949998205344" lon="9.291275006091846" id="-19752">
		<tag k="name" v="Langbekken" />
		<tag k="ssr:stedsnr" v="72876" />
		<tag k="waterway" v="stream" />
	</node>
	<node lat="61.955500003270956" lon="9.363969436325213" id="-19762">
		<tag k="name" v="Måsåhusbekken" />
		<tag k="ssr:stedsnr" v="111812" />
		<tag k="waterway" v="stream" />
	</node>
	<node lat="62.052280559306915" lon="9.84461112042611" id="-19768">
		<tag k="name" v="Svartbekken" />
		<tag k="ssr:stedsnr" v="112322" />
		<tag k="waterway" v="stream" />
	</node>
	<node lat="62.002499997387886" lon="9.364897225607626" id="-19773">
		<tag k="name" v="Stokkbekken" />
		<tag k="ssr:stedsnr" v="131310" />
		<tag k="waterway" v="stream" />
	</node>
	<node lat="62.058208333008345" lon="9.17902221525307" id="-19779">
		<tag k="alt_name" v="Tverråi" />
		<tag k="name" v="Tverråe" />
		<tag k="ssr:stedsnr" v="132566" />
		<tag k="waterway" v="stream" />
	</node>
	<node lat="62.056999997649854" lon="9.198430555953117" id="-19780">
		<tag k="alt_name" v="Storhaugtjern" />
		<tag k="name" v="Storhaugtjørni" />
		<tag k="natural" v="water" />
		<tag k="ssr:stedsnr" v="132568" />
	</node>
	<node lat="62.12352855089404" lon="9.252323306347407" id="-19784">
		<tag k="name" v="Horrtjønnin" />
		<tag k="natural" v="water" />
		<tag k="ssr:stedsnr" v="132685" />
		<tag k="water" v="lake" />
	</node>
	<node lat="62.131016321582194" lon="9.298818811610825" id="-19785">
		<tag k="name" v="Urdbekktjønnin" />
		<tag k="natural" v="water" />
		<tag k="ssr:stedsnr" v="132687" />
		<tag k="water" v="lake" />
	</node>
	<node lat="61.98557777531154" lon="9.789122228154989" id="-19801">
		<tag k="name" v="Piktjønne" />
		<tag k="natural" v="water" />
		<tag k="ssr:stedsnr" v="253691" />
	</node>
	<node lat="62.24670277856364" lon="9.682327772942738" id="-19805">
		<tag k="name" v="Dålåbekken" />
		<tag k="ssr:stedsnr" v="254493" />
		<tag k="waterway" v="stream" />
	</node>
	<node lat="62.107113890975555" lon="9.596288893108774" id="-19806">
		<tag k="name" v="Nørdre Tverråe" />
		<tag k="ssr:stedsnr" v="254628" />
		<tag k="waterway" v="stream" />
	</node>
	<node lat="62.13690555461433" lon="9.311533339076952" id="-19807">
		<tag k="name" v="Kringluttjønne" />
		<tag k="natural" v="water" />
		<tag k="ssr:stedsnr" v="254644" />
	</node>
	<node lat="62.14642221973077" lon="9.349725006798668" id="-19811">
		<tag k="name" v="Springarbekken" />
		<tag k="ssr:stedsnr" v="254665" />
		<tag k="waterway" v="stream" />
	</node>
	<node lat="61.986947221385165" lon="9.263366662447453" id="-19829">
		<tag k="name" v="Dragåa" />
		<tag k="ssr:stedsnr" v="172565" />
		<tag k="waterway" v="river" />
	</node>
	<node lat="62.11811388938691" lon="9.633455549205744" id="-19832">
		<tag k="name" v="Fallfossen" />
		<tag k="natural" v="waterfall" />
		<tag k="ssr:stedsnr" v="265850" />
	</node>
	<node lat="62.10077222041005" lon="9.221699998057973" id="-19840">
		<tag k="name" v="Gorbekken" />
		<tag k="ssr:stedsnr" v="232981" />
		<tag k="waterway" v="stream" />
	</node>
	<node lat="62.192969444311295" lon="9.515677774641816" id="-19843">
		<tag k="name" v="Langosen" />
		<tag k="natural" v="bay" />
		<tag k="ssr:stedsnr" v="233281" />
	</node>
	<node lat="62.21712222125388" lon="9.567855552725005" id="-19857">
		<tag k="name" v="Kvernbekken" />
		<tag k="ssr:stedsnr" v="253754" />
		<tag k="waterway" v="stream" />
	</node>
	<node lat="61.91946666988817" lon="9.347991659764125" id="-19873">
		<tag k="name" v="Langøygarden" />
		<tag k="natural" v="cape" />
		<tag k="ssr:stedsnr" v="462671" />
	</node>
	<node lat="62.07301388579656" lon="9.7422222182981" id="-19874">
		<tag k="alt_name" v="Skriubekken" />
		<tag k="name" v="Skridubekken" />
		<tag k="ssr:stedsnr" v="314412" />
		<tag k="waterway" v="stream" />
	</node>
	<node lat="62.18076111156833" lon="9.37467221400369" id="-19880">
		<tag k="name" v="Sandåe" />
		<tag k="ssr:stedsnr" v="314706" />
		<tag k="waterway" v="stream" />
	</node>
	<node lat="62.28174722298555" lon="9.73704166035278" id="-19884">
		<tag k="name" v="Skridulaupbekken" />
		<tag k="ssr:stedsnr" v="315677" />
		<tag k="waterway" v="stream" />
	</node>
	<node lat="62.104541670399286" lon="9.186716665076954" id="-19893">
		<tag k="name" v="Stormyrbekken" />
		<tag k="ssr:stedsnr" v="354988" />
		<tag k="waterway" v="stream" />
	</node>
	<node lat="62.079630557844794" lon="9.117138882732908" id="-19894">
		<tag k="name" v="Tverrbekken" />
		<tag k="ssr:stedsnr" v="474789" />
		<tag k="waterway" v="stream" />
	</node>
	<node lat="62.08448333557517" lon="9.231108337783336" id="-19898">
		<tag k="name" v="Gamleseterbekken" />
		<tag k="ssr:stedsnr" v="475102" />
		<tag k="waterway" v="stream" />
	</node>
	<node lat="62.09404167044244" lon="9.21734166103613" id="-19899">
=======
<osm generator="osmapis" version="0.6">
	<node id="-360443" lat="62.0326777775" lon="9.56949999191">
		<tag k="alt_name" v="Hornsjøvatnet" />
		<tag k="name" v="Hornsjøen" />
		<tag k="natural" v="water" />
		<tag k="ssr:stedsnr" v="71699" />
	</node>
	<node id="-359928" lat="62.0940416704" lon="9.21734166104">
>>>>>>> e1d4bc35ff8a6074a6f2e91616a996b547c36f15
		<tag k="name" v="Dombås vannverk" />
		<tag k="ssr:stedsnr" v="475103" />
		<tag k="waterway" v="dam" />
	</node>
<<<<<<< HEAD
	<node lat="62.018861107438234" lon="9.150633328894983" id="-19905">
		<tag k="name" v="Storfallet" />
		<tag k="natural" v="waterfall" />
		<tag k="ssr:stedsnr" v="475344" />
	</node>
	<node lat="62.18706666428242" lon="9.497038887034448" id="-19919">
		<tag k="name" v="Lonin" />
		<tag k="place" v="locality" />
		<tag k="ssr:stedsnr" v="374734" />
	</node>
	<node lat="62.04651715332961" lon="9.360823231610112" id="-19926">
		<tag k="alt_name" v="Karrhustjørni" />
		<tag k="loc_name" v="Karusstjønne" />
		<tag k="name" v="Karrustjern" />
		<tag k="natural" v="water" />
		<tag k="ssr:stedsnr" v="374649" />
	</node>
	<node lat="61.92806667056311" lon="9.709630562950332" id="-19928">
		<tag k="name" v="Langholvatnet" />
		<tag k="natural" v="water" />
		<tag k="ssr:stedsnr" v="374652" />
	</node>
	<node lat="61.9789361112275" lon="9.32004721811732" id="-19932">
		<tag k="name" v="Gammelsæterbekken" />
		<tag k="ssr:stedsnr" v="374935" />
		<tag k="waterway" v="stream" />
	</node>
	<node lat="61.988752774698554" lon="9.202969444401951" id="-19934">
		<tag k="name" v="Ragnhildbekken" />
		<tag k="ssr:stedsnr" v="375138" />
		<tag k="waterway" v="stream" />
	</node>
	<node lat="61.93201110926006" lon="9.348099995177932" id="-19937">
		<tag k="name" v="Ryddølsåe" />
		<tag k="ssr:stedsnr" v="375907" />
		<tag k="waterway" v="stream" />
	</node>
	<node lat="62.18033055747201" lon="9.483430549494743" id="-19944">
		<tag k="name" v="Sygardsosen" />
		<tag k="natural" v="bay" />
		<tag k="ssr:stedsnr" v="399441" />
	</node>
	<node lat="62.129625000692826" lon="9.351200004465575" id="-19965">
		<tag k="name" v="Storhusbekken" />
		<tag k="ssr:stedsnr" v="436658" />
		<tag k="waterway" v="stream" />
	</node>
	<node lat="62.15219166854902" lon="9.33918611918881" id="-19969">
		<tag k="name" v="Stortjønn" />
		<tag k="natural" v="water" />
		<tag k="ssr:stedsnr" v="436674" />
	</node>
	<node lat="62.17391111185841" lon="9.33806110275539" id="-19970">
		<tag k="name" v="Storløkebekken" />
		<tag k="ssr:stedsnr" v="436710" />
		<tag k="waterway" v="stream" />
	</node>
	<node lat="62.12949444172477" lon="9.298888898302595" id="-19983">
		<tag k="name" v="Urdbekktjønn" />
		<tag k="ssr:stedsnr" v="475468" />
		<tag k="waterway" v="stream" />
	</node>
	<node lat="61.96014999995548" lon="9.698702778191677" id="-19997">
		<tag k="name" v="Vassbekken" />
		<tag k="ssr:stedsnr" v="678641" />
		<tag k="waterway" v="stream" />
	</node>
	<node lat="61.96119166267446" lon="9.78387499091399" id="-19999">
		<tag k="name" v="Bergedalsbekken" />
		<tag k="ssr:stedsnr" v="678646" />
		<tag k="waterway" v="stream" />
	</node>
	<node lat="61.93807777351837" lon="9.705538885869943" id="-20000">
		<tag k="name" v="Langholskridu" />
		<tag k="ssr:stedsnr" v="678649" />
		<tag k="waterway" v="stream" />
	</node>
	<node lat="62.04539999768323" lon="9.38716944197696" id="-20002">
		<tag k="name" v="Steinbekken" />
		<tag k="ssr:stedsnr" v="678655" />
		<tag k="waterway" v="stream" />
	</node>
	<node lat="62.207247220583376" lon="9.650677784152862" id="-20004">
		<tag k="name" v="Børsungbekken" />
		<tag k="ssr:stedsnr" v="678735" />
		<tag k="waterway" v="stream" />
	</node>
	<node lat="62.2071888898448" lon="9.594216662579075" id="-20005">
		<tag k="name" v="Strypbekken" />
		<tag k="ssr:stedsnr" v="678739" />
		<tag k="waterway" v="stream" />
	</node>
	<node lat="62.013141669704986" lon="9.135913881592469" id="-20017">
		<tag k="alt_name" v="Manningåa" />
		<tag k="name" v="Maningi" />
		<tag k="ssr:stedsnr" v="496554" />
		<tag k="waterway" v="river" />
	</node>
	<node lat="62.02486389317099" lon="9.116994451268452" id="-20019">
		<tag k="name" v="Tungbekken" />
		<tag k="ssr:stedsnr" v="496563" />
		<tag k="waterway" v="stream" />
	</node>
	<node lat="62.16722777503613" lon="9.514780552614475" id="-20021">
		<tag k="alt_name" v="Hytt" />
		<tag k="name" v="Hytthaugbekken" />
		<tag k="ssr:stedsnr" v="496712" />
		<tag k="waterway" v="stream" />
	</node>
	<node lat="62.168074998847" lon="9.374341672087896" id="-20046">
		<tag k="name" v="Naustodden" />
		<tag k="natural" v="cape" />
		<tag k="ssr:stedsnr" v="536474" />
	</node>
	<node lat="62.05217499580945" lon="9.33554721946763" id="-20058">
		<tag k="name" v="Heimare Tverråe" />
		<tag k="ssr:stedsnr" v="556668" />
		<tag k="waterway" v="stream" />
	</node>
	<node lat="61.94951388605108" lon="9.238802768940719" id="-20060">
		<tag k="name" v="Musbekken" />
		<tag k="ssr:stedsnr" v="556919" />
		<tag k="waterway" v="stream" />
	</node>
	<node lat="62.14988333122685" lon="9.327994448232014" id="-20064">
		<tag k="name" v="Veslåe" />
		<tag k="ssr:stedsnr" v="557655" />
		<tag k="waterway" v="river" />
	</node>
	<node lat="62.240799996555474" lon="9.419850007904287" id="-20080">
		<tag k="name" v="Storkvølvbekken" />
		<tag k="ssr:stedsnr" v="617533" />
		<tag k="waterway" v="stream" />
	</node>
	<node lat="62.07944166407895" lon="9.153055559906699" id="-20082">
		<tag k="name" v="Tverrbekken" />
		<tag k="ssr:stedsnr" v="617591" />
		<tag k="waterway" v="stream" />
	</node>
	<node lat="62.02980832974804" lon="9.314927781468993" id="-20084">
		<tag k="name" v="Einbugga" />
		<tag k="ssr:stedsnr" v="617634" />
		<tag k="waterway" v="river" />
	</node>
	<node lat="61.986450001063595" lon="9.748458325786551" id="-20089">
		<tag k="name" v="Skagsnebbtjønne" />
		<tag k="natural" v="water" />
		<tag k="ssr:stedsnr" v="617692" />
	</node>
	<node lat="62.107058337789766" lon="9.270813890205497" id="-20091">
		<tag k="alt_name" v="Gorrbekken" />
		<tag k="name" v="Gardsbekken" />
		<tag k="ssr:stedsnr" v="617695" />
		<tag k="waterway" v="stream" />
	</node>
	<node lat="61.934049999066175" lon="9.231450007448053" id="-20095">
		<tag k="name" v="Varpebekken" />
		<tag k="ssr:stedsnr" v="617900" />
		<tag k="waterway" v="stream" />
	</node>
	<node lat="62.24715469781819" lon="9.330133047384924" id="-20119">
		<tag k="name" v="Veslvatnet" />
		<tag k="natural" v="water" />
		<tag k="ssr:stedsnr" v="678524" />
	</node>
	<node lat="62.071636111381665" lon="9.193725007483014" id="-20121">
		<tag k="name" v="Skrebekktjørni" />
		<tag k="natural" v="water" />
		<tag k="ssr:stedsnr" v="678581" />
	</node>
	<node lat="62.0996361084616" lon="9.637033339642624" id="-20127">
		<tag k="name" v="Tverråe" />
		<tag k="ssr:stedsnr" v="678689" />
		<tag k="waterway" v="river" />
	</node>
	<node lat="62.20958611155959" lon="9.593619441674754" id="-20133">
		<tag k="alt_name" v="Hjerkinndammen" />
		<tag k="name" v="Hjerkinnsdammen" />
		<tag k="ssr:stedsnr" v="678725" />
		<tag k="waterway" v="dam" />
	</node>
	<node lat="61.96226111560978" lon="9.297488896999944" id="-20134">
		<tag k="name" v="Rudiåe" />
		<tag k="ssr:stedsnr" v="678913" />
		<tag k="waterway" v="river" />
	</node>
	<node lat="62.08361388608725" lon="9.188694452731683" id="-20144">
		<tag k="name" v="Skrebekken" />
		<tag k="ssr:stedsnr" v="718109" />
		<tag k="waterway" v="stream" />
	</node>
	<node lat="61.99785277488467" lon="9.17936388369155" id="-20164">
		<tag k="name" v="Søre Grotåe" />
		<tag k="ssr:stedsnr" v="900725" />
		<tag k="waterway" v="stream" />
	</node>
	<node lat="62.0360194434793" lon="9.354280556532572" id="-20168">
		<tag k="name" v="Svartbekken" />
		<tag k="ssr:stedsnr" v="900986" />
		<tag k="waterway" v="stream" />
	</node>
	<node lat="62.18709999904097" lon="9.551933325789769" id="-20170">
		<tag k="name" v="Gautåe" />
		<tag k="ssr:stedsnr" v="901508" />
		<tag k="waterway" v="stream" />
	</node>
	<node lat="62.23820833179695" lon="9.658449990873498" id="-20173">
		<tag k="name" v="Fisketjønne" />
		<tag k="natural" v="water" />
		<tag k="ssr:stedsnr" v="961523" />
	</node>
	<node lat="62.160383335013705" lon="9.129822224580863" id="-20178">
		<tag k="name" v="Grøna" />
		<tag k="ssr:stedsnr" v="738704" />
		<tag k="waterway" v="river" />
	</node>
	<node lat="62.164921346775934" lon="9.244566345300495" id="-20181">
		<tag k="fixme" v="multiple name tags, choose one and add the other to alt_name" />
		<tag k="name" v="Falketjønne;Lesjatjønne" />
=======
	<node id="-359927" lat="62.0844833356" lon="9.23110833778">
		<tag k="name" v="Gamleseterbekken" />
		<tag k="ssr:stedsnr" v="475102" />
		<tag k="waterway" v="stream" />
	</node>
	<node id="-360950" lat="61.9706305532" lon="9.24486111808">
		<tag k="name" v="Andgardstjern" />
		<tag k="natural" v="water" />
		<tag k="ssr:stedsnr" v="764557" />
	</node>
	<node id="-359923" lat="62.0796305578" lon="9.11713888273">
		<tag k="name" v="Tverrbekken" />
		<tag k="ssr:stedsnr" v="474789" />
		<tag k="waterway" v="stream" />
	</node>
	<node id="-360433" lat="62.0230527816" lon="9.13467777135">
		<tag k="name" v="Hestdalsbekken" />
		<tag k="ssr:stedsnr" v="71579" />
		<tag k="waterway" v="stream" />
	</node>
	<node id="-360431" lat="61.9947444426" lon="9.80573888381">
		<tag k="name" v="Atna" />
		<tag k="ssr:stedsnr" v="71159" />
		<tag k="waterway" v="river" />
	</node>
	<node id="-359918" lat="62.1807611116" lon="9.374672214">
		<tag k="name" v="Sandåe" />
		<tag k="ssr:stedsnr" v="314706" />
		<tag k="waterway" v="stream" />
	</node>
	<node id="-360938" lat="61.9824916691" lon="9.20048611296">
		<tag k="name" v="Breiddalsbekken" />
		<tag k="ssr:stedsnr" v="739160" />
		<tag k="waterway" v="stream" />
	</node>
	<node id="-360615" lat="62.1520861099" lon="9.45764722748">
		<tag k="name" v="Kluftbekken" />
		<tag k="ssr:stedsnr" v="314699" />
		<tag k="waterway" v="stream" />
	</node>
	<node id="-360933" lat="62.2138166697" lon="9.53240276938">
		<tag k="name" v="Geitbergtjønne" />
		<tag k="natural" v="water" />
		<tag k="ssr:stedsnr" v="738745" />
	</node>
	<node id="-359908" lat="62.0730138858" lon="9.7422222183">
		<tag k="alt_name" v="Skriubekken" />
		<tag k="name" v="Skridubekken" />
		<tag k="ssr:stedsnr" v="314412" />
		<tag k="waterway" v="stream" />
	</node>
	<node id="-360931" lat="62.160383335" lon="9.12982222458">
		<tag k="name" v="Grøna" />
		<tag k="ssr:stedsnr" v="738704" />
		<tag k="waterway" v="river" />
	</node>
	<node id="-360699" lat="62.1803305575" lon="9.48343054949">
		<tag k="name" v="Sygardsosen" />
		<tag k="natural" v="bay" />
		<tag k="ssr:stedsnr" v="399441" />
	</node>
	<node id="-359904" lat="61.9194666699" lon="9.34799165976">
		<tag k="name" v="Langøygarden" />
		<tag k="natural" v="cape" />
		<tag k="ssr:stedsnr" v="462671" />
	</node>
	<node id="-360927" lat="62.0821638899" lon="9.45256111262">
		<tag k="name" v="Verkjesåe" />
		<tag k="ssr:stedsnr" v="738675" />
		<tag k="waterway" v="river" />
	</node>
	<node id="-360926" lat="62.0398722234" lon="9.53128889742">
		<tag k="name" v="Ytre Bottjønne" />
		<tag k="natural" v="water" />
		<tag k="ssr:stedsnr" v="738658" />
	</node>
	<node id="-360924" lat="62.0548916663" lon="9.3524027777">
		<tag k="name" v="Tverråkvislin" />
		<tag k="ssr:stedsnr" v="738649" />
		<tag k="waterway" v="stream" />
	</node>
	<node id="-360411" lat="62.0603305522" lon="9.10635000681">
		<tag k="name" v="Dombfossen" />
		<tag k="natural" v="waterfall" />
		<tag k="ssr:stedsnr" v="50745" />
	</node>
	<node id="-359898" lat="62.1464222197" lon="9.3497250068">
		<tag k="name" v="Springarbekken" />
		<tag k="ssr:stedsnr" v="254665" />
		<tag k="waterway" v="stream" />
	</node>
	<node id="-360524" lat="61.9264277743" lon="9.24300277577">
		<tag k="name" v="Djupdalsbekken" />
		<tag k="ssr:stedsnr" v="132896" />
		<tag k="waterway" v="stream" />
	</node>
	<node id="-360918" lat="62.2345499997" lon="9.69925834203">
		<tag k="name" v="Kvita" />
		<tag k="ssr:stedsnr" v="738485" />
		<tag k="waterway" v="river" />
	</node>
	<node id="-360917" lat="62.0589472256" lon="9.91949443655">
		<tag k="name" v="Svartdalsbekken" />
		<tag k="ssr:stedsnr" v="738384" />
		<tag k="waterway" v="stream" />
	</node>
	<node id="-360915" lat="62.0788333317" lon="10.0552972224">
		<tag k="name" v="Grimse" />
		<tag k="ssr:stedsnr" v="738380" />
		<tag k="waterway" v="river" />
	</node>
	<node id="-361032" lat="62.1729333373" lon="9.43870832433">
		<tag k="name" v="Anfinnsosen" />
		<tag k="natural" v="bay" />
		<tag k="ssr:stedsnr" v="840490" />
	</node>
	<node id="-360906" lat="61.9340499991" lon="9.23145000745">
		<tag k="name" v="Varpebekken" />
		<tag k="ssr:stedsnr" v="617900" />
		<tag k="waterway" v="stream" />
	</node>
	<node id="-360393" lat="62.1059666691" lon="9.30604723117">
		<tag k="name" v="Foksåe" />
		<tag k="ssr:stedsnr" v="11691" />
		<tag k="waterway" v="river" />
	</node>
	<node id="-360012" lat="61.947363892" lon="9.47517222563">
		<tag k="name" v="Langtjønne" />
		<tag k="natural" v="water" />
		<tag k="ssr:stedsnr" v="436888" />
	</node>
	<node id="-360390" lat="62.0496027783" lon="9.07807777482">
		<tag k="name" v="Lisbekken" />
		<tag k="ssr:stedsnr" v="11576" />
		<tag k="waterway" v="stream" />
	</node>
	<node id="-360389" lat="62.1881222248" lon="9.32408055121">
		<tag k="name" v="Lesjabekken" />
		<tag k="ssr:stedsnr" v="11733" />
		<tag k="waterway" v="stream" />
	</node>
	<node id="-360899" lat="62.1070583378" lon="9.27081389021">
		<tag k="alt_name" v="Gorrbekken" />
		<tag k="name" v="Gardsbekken" />
		<tag k="ssr:stedsnr" v="617695" />
		<tag k="waterway" v="stream" />
	</node>
	<node id="-360897" lat="61.9864500011" lon="9.74845832579">
		<tag k="name" v="Skagsnebbtjønne" />
>>>>>>> e1d4bc35ff8a6074a6f2e91616a996b547c36f15
		<tag k="natural" v="water" />
		<tag k="ssr:stedsnr" v="739710" />
	</node>
<<<<<<< HEAD
	<node lat="61.97063055316791" lon="9.244861118080928" id="-20185">
		<tag k="name" v="Andgardstjern" />
=======
	<node id="-360384" lat="62.3068916657" lon="9.29730000581">
		<tag k="loc_name" v="Istjønne" />
		<tag k="name" v="Istjørni" />
>>>>>>> e1d4bc35ff8a6074a6f2e91616a996b547c36f15
		<tag k="natural" v="water" />
		<tag k="ssr:stedsnr" v="764557" />
	</node>
<<<<<<< HEAD
	<node lat="62.15134999592788" lon="9.423866671146396" id="-20206">
		<tag k="name" v="Haukskardtjørni" />
		<tag k="natural" v="water" />
		<tag k="ssr:stedsnr" v="800681" />
	</node>
	<node lat="61.98123888602301" lon="9.409755559587254" id="-20209">
		<tag k="name" v="Ryddølstjønne" />
		<tag k="natural" v="water" />
		<tag k="ssr:stedsnr" v="800927" />
	</node>
	<node lat="62.04442499782731" lon="9.845877777026418" id="-20215">
		<tag k="name" v="Myrbekken" />
		<tag k="ssr:stedsnr" v="921440" />
		<tag k="waterway" v="stream" />
	</node>
	<node lat="62.07067221904183" lon="9.906799998272673" id="-20216">
		<tag k="name" v="Ørnhovdbekken" />
		<tag k="ssr:stedsnr" v="921415" />
		<tag k="waterway" v="stream" />
	</node>
	<node lat="61.98861111453038" lon="9.288013886437527" id="-20217">
		<tag k="name" v="Stavåe" />
		<tag k="ssr:stedsnr" v="921417" />
		<tag k="waterway" v="river" />
	</node>
	<node lat="62.02914166285529" lon="9.441775000460884" id="-20219">
		<tag k="name" v="Veslgrimsi" />
		<tag k="ssr:stedsnr" v="921644" />
		<tag k="waterway" v="stream" />
	</node>
	<node lat="62.02362500141347" lon="9.475455551301174" id="-20221">
		<tag k="name" v="Tverrgjelbekken" />
		<tag k="ssr:stedsnr" v="921647" />
		<tag k="waterway" v="river" />
	</node>
	<node lat="62.22805134909123" lon="9.645025693515215" id="-20222">
		<tag k="name" v="Sautjønnin" />
		<tag k="natural" v="water" />
		<tag k="ssr:stedsnr" v="921525" />
		<tag k="water" v="lake" />
	</node>
	<node lat="62.01592222534746" lon="9.253600000056311" id="-20228">
		<tag k="name" v="Stavåe" />
		<tag k="ssr:stedsnr" v="921649" />
		<tag k="waterway" v="stream" />
	</node>
	<node lat="62.01008055821837" lon="9.333916657670496" id="-20230">
		<tag k="alt_name" v="Eftensåe" />
		<tag k="name" v="Eftansåi" />
		<tag k="ssr:stedsnr" v="921657" />
		<tag k="waterway" v="stream" />
	</node>
	<node lat="62.09983889309023" lon="9.317338891164551" id="-20235">
		<tag k="name" v="Veslfoksåe" />
		<tag k="ssr:stedsnr" v="921677" />
		<tag k="waterway" v="stream" />
	</node>
	<node lat="62.186913892185736" lon="9.444922225683829" id="-20236">
		<tag k="alt_name" v="Turraren" />
		<tag k="name" v="Turaren" />
		<tag k="ssr:stedsnr" v="921746" />
		<tag k="waterway" v="stream" />
	</node>
	<node lat="62.17437669852641" lon="9.471060796501279" id="-20240">
		<tag k="name" v="Avsjøen" />
=======
	<node id="-360892" lat="62.0813027811" lon="9.60418333548">
		<tag k="alt_name" v="Veslbekken" />
		<tag k="name" v="Veslebekken" />
		<tag k="ssr:stedsnr" v="617678" />
		<tag k="waterway" v="stream" />
	</node>
	<node id="-360891" lat="62.0734638881" lon="9.24196388385">
		<tag k="alt_name" v="Vesle Hundyrju" />
		<tag k="name" v="Veslhundyrju" />
		<tag k="old_name" v="Hundyrju, vesle" />
		<tag k="ssr:stedsnr" v="617677" />
		<tag k="waterway" v="stream" />
	</node>
	<node id="-360378" lat="61.9139527801" lon="9.33563888394">
		<tag k="alt_name" v="Ørjabekken" />
		<tag k="name" v="Uråsbekken" />
		<tag k="ssr:stedsnr" v="10982" />
		<tag k="waterway" v="stream" />
	</node>
	<node id="-360377" lat="61.9892638886" lon="9.60098889735">
		<tag k="name" v="Haverdalsåe" />
		<tag k="ssr:stedsnr" v="10699" />
		<tag k="waterway" v="river" />
	</node>
	<node id="-360886" lat="62.0076333308" lon="9.18044444778">
		<tag k="alt_name" v="Grotåi;Nordre Grotåe" />
		<tag k="name" v="Nørdre Grotåe" />
		<tag k="old_name" v="Grotai" />
		<tag k="ssr:stedsnr" v="617546" />
		<tag k="waterway" v="stream" />
	</node>
	<node id="-360373" lat="61.9579138896" lon="9.59792778453">
		<tag k="name" v="Djupdalsbekken" />
		<tag k="ssr:stedsnr" v="10655" />
		<tag k="waterway" v="stream" />
	</node>
	<node id="-360372" lat="62.0181694454" lon="9.54239444754">
		<tag k="name" v="Svartknarttjønnin" />
		<tag k="natural" v="water" />
		<tag k="ssr:stedsnr" v="10652" />
		<tag k="water" v="lake" />
	</node>
	<node id="-360883" lat="62.2322833344" lon="9.65229999183">
		<tag k="name" v="Sautjønnbekken" />
		<tag k="ssr:stedsnr" v="617527" />
		<tag k="waterway" v="stream" />
	</node>
	<node id="-360881" lat="62.0195388854" lon="9.49071943959">
		<tag k="name" v="Fremste Bottjønne" />
		<tag k="natural" v="water" />
		<tag k="ssr:stedsnr" v="617645" />
	</node>
	<node id="-360008" lat="62.1851499985" lon="9.52223610577">
		<tag k="name" v="Lomtjønne" />
		<tag k="natural" v="water" />
		<tag k="ssr:stedsnr" v="435747" />
	</node>
	<node id="-360878" lat="62.0794416641" lon="9.15305555991">
		<tag k="name" v="Tverrbekken" />
		<tag k="ssr:stedsnr" v="617591" />
		<tag k="waterway" v="stream" />
	</node>
	<node id="-360876" lat="61.9012000028" lon="9.33087777537">
		<tag k="fixme" v="multiple name tags, choose one and add the other to alt_name" />
		<tag k="name" v="Djupdalsbekken;Haugomsbekken" />
		<tag k="ssr:stedsnr" v="617277" />
		<tag k="waterway" v="stream" />
	</node>
	<node id="-360362" lat="61.9245833291" lon="9.40658332752">
		<tag k="name" v="Bergebekken" />
		<tag k="ssr:stedsnr" v="961823" />
		<tag k="waterway" v="stream" />
	</node>
	<node id="-360519" lat="62.1235285509" lon="9.25232330635">
		<tag k="name" v="Horrtjønnin" />
		<tag k="natural" v="water" />
		<tag k="ssr:stedsnr" v="132685" />
		<tag k="water" v="lake" />
	</node>
	<node id="-360359" lat="62.2382083318" lon="9.65844999087">
		<tag k="name" v="Fisketjønne" />
>>>>>>> e1d4bc35ff8a6074a6f2e91616a996b547c36f15
		<tag k="natural" v="water" />
		<tag k="ssr:stedsnr" v="921727" />
		<tag k="water" v="lake" />
	</node>
<<<<<<< HEAD
	<node lat="62.10609444234728" lon="9.135105558253514" id="-20243">
		<tag k="name" v="Gardsendbekken" />
		<tag k="ssr:stedsnr" v="921889" />
		<tag k="waterway" v="stream" />
	</node>
	<node lat="61.95043055236591" lon="9.471005548118594" id="-20244">
		<tag k="name" v="Rundtjønne" />
		<tag k="natural" v="water" />
		<tag k="ssr:stedsnr" v="921893" />
	</node>
	<node lat="62.101819447547" lon="9.764225000184771" id="-20255">
		<tag k="name" v="Meseterbekken" />
		<tag k="ssr:stedsnr" v="840286" />
		<tag k="waterway" v="stream" />
	</node>
	<node lat="62.05425555415989" lon="9.074491673767438" id="-20263">
		<tag k="name" v="Blesterbekken" />
		<tag k="ssr:stedsnr" v="860623" />
		<tag k="waterway" v="stream" />
	</node>
	<node lat="61.98026388524748" lon="9.807127770517669" id="-20264">
		<tag k="name" v="Vidjedalsbekken" />
		<tag k="ssr:stedsnr" v="860680" />
		<tag k="waterway" v="stream" />
	</node>
	<node lat="62.21116172287987" lon="9.640455756936072" id="-20266">
		<tag k="name" v="Børsungtjønne" />
		<tag k="natural" v="water" />
		<tag k="ssr:stedsnr" v="860762" />
	</node>
	<node lat="62.0495444436233" lon="9.128594449219861" id="-20283">
		<tag k="name" v="Hjelleidet" />
		<tag k="natural" v="cape" />
		<tag k="ssr:stedsnr" v="900513" />
	</node>
	<node lat="62.04561944706976" lon="9.146408336047552" id="-20298">
=======
	<node id="-360358" lat="62.2293694436" lon="9.58570277592">
		<tag k="name" v="Sagbekken" />
		<tag k="ssr:stedsnr" v="961522" />
		<tag k="waterway" v="stream" />
	</node>
	<node id="-360864" lat="62.0075111154" lon="9.13553333825">
		<tag k="name" v="Tverrgjellbekken" />
		<tag k="ssr:stedsnr" v="597331" />
		<tag k="waterway" v="stream" />
	</node>
	<node id="-360863" lat="62.0079166634" lon="9.1254638922">
		<tag k="name" v="Veslemanningen" />
		<tag k="ssr:stedsnr" v="597329" />
		<tag k="waterway" v="stream" />
	</node>
	<node id="-360862" lat="62.0947277742" lon="9.78998888597">
		<tag k="name" v="Gruvbekken" />
		<tag k="ssr:stedsnr" v="597296" />
		<tag k="waterway" v="stream" />
	</node>
	<node id="-360861" lat="62.1851277791" lon="9.4952833423">
		<tag k="name" v="Svartosen" />
		<tag k="natural" v="bay" />
		<tag k="ssr:stedsnr" v="597276" />
	</node>
	<node id="-360348" lat="62.0456194471" lon="9.14640833605">
>>>>>>> e1d4bc35ff8a6074a6f2e91616a996b547c36f15
		<tag k="alt_name" v="Hjellåi;Hjellåa" />
		<tag k="name" v="Hjellåe" />
		<tag k="old_name" v="Hjellai" />
		<tag k="ssr:stedsnr" v="921584" />
		<tag k="waterway" v="stream" />
	</node>
<<<<<<< HEAD
	<node lat="62.09708889058402" lon="9.196374991577015" id="-20301">
=======
	<node id="-360943" lat="62.1838972253" lon="9.49439999758">
		<tag k="name" v="Burtjønne" />
		<tag k="natural" v="water" />
		<tag k="ssr:stedsnr" v="739700" />
	</node>
	<node id="-360343" lat="62.0970888906" lon="9.19637499158">
>>>>>>> e1d4bc35ff8a6074a6f2e91616a996b547c36f15
		<tag k="alt_name" v="Hindåi;Hindåa" />
		<tag k="name" v="Hindåe" />
		<tag k="ssr:stedsnr" v="921632" />
		<tag k="waterway" v="river" />
	</node>
<<<<<<< HEAD
	<node lat="62.07552499766" lon="9.70415000770594" id="-20302">
		<tag k="name" v="Kvannkjerrbekken" />
		<tag k="ssr:stedsnr" v="921689" />
		<tag k="waterway" v="stream" />
	</node>
	<node lat="61.96313888843198" lon="9.311352782463308" id="-20303">
		<tag k="name" v="Kvannbekken" />
		<tag k="ssr:stedsnr" v="921917" />
		<tag k="waterway" v="stream" />
	</node>
	<node lat="62.28886666834849" lon="9.351300004596231" id="-20306">
		<tag k="name" v="Langtjørni" />
		<tag k="natural" v="water" />
		<tag k="ssr:stedsnr" v="922522" />
	</node>
	<node lat="61.92458332907462" lon="9.406583327524249" id="-20316">
		<tag k="name" v="Bergebekken" />
		<tag k="ssr:stedsnr" v="961823" />
		<tag k="waterway" v="stream" />
	</node>
	<node lat="62.018169445404276" lon="9.542394447540023" id="-20325">
		<tag k="name" v="Svartknarttjønnin" />
		<tag k="natural" v="water" />
		<tag k="ssr:stedsnr" v="10652" />
		<tag k="water" v="lake" />
	</node>
	<node lat="61.95791388959843" lon="9.597927784527716" id="-20326">
		<tag k="name" v="Djupdalsbekken" />
		<tag k="ssr:stedsnr" v="10655" />
		<tag k="waterway" v="stream" />
	</node>
	<node lat="61.98926388856679" lon="9.60098889734548" id="-20330">
		<tag k="name" v="Haverdalsåe" />
		<tag k="ssr:stedsnr" v="10699" />
		<tag k="waterway" v="river" />
	</node>
	<node lat="62.306891665703" lon="9.297300005807449" id="-20334">
		<tag k="loc_name" v="Istjønne" />
		<tag k="name" v="Istjørni" />
=======
	<node id="-360338" lat="62.187099999" lon="9.55193332579">
		<tag k="name" v="Gautåe" />
		<tag k="ssr:stedsnr" v="901508" />
		<tag k="waterway" v="stream" />
	</node>
	<node id="-360846" lat="62.1575027795" lon="9.28213889124">
		<tag k="name" v="Langtjern" />
		<tag k="natural" v="water" />
		<tag k="ssr:stedsnr" v="596431" />
	</node>
	<node id="-360332" lat="61.9978527749" lon="9.17936388369">
		<tag k="name" v="Søre Grotåe" />
		<tag k="ssr:stedsnr" v="900725" />
		<tag k="waterway" v="stream" />
	</node>
	<node id="-359815" lat="62.0361888857" lon="9.63666111128">
		<tag k="name" v="Gravbekken" />
		<tag k="ssr:stedsnr" v="131669" />
		<tag k="waterway" v="stream" />
	</node>
	<node id="-359813" lat="62.0490750039" lon="9.24240278484">
		<tag k="name" v="Rådååe" />
		<tag k="ssr:stedsnr" v="131655" />
		<tag k="waterway" v="river" />
	</node>
	<node id="-359811" lat="61.9604833368" lon="9.75483332485">
		<tag k="name" v="Smedbekken" />
		<tag k="ssr:stedsnr" v="131650" />
		<tag k="waterway" v="stream" />
	</node>
	<node id="-359810" lat="61.9578972266" lon="9.71078611525">
		<tag k="name" v="Døråe" />
		<tag k="ssr:stedsnr" v="131646" />
		<tag k="waterway" v="river" />
	</node>
	<node id="-360833" lat="61.9754277753" lon="9.24585277862">
		<tag k="name" v="Vigerusttjernet" />
>>>>>>> e1d4bc35ff8a6074a6f2e91616a996b547c36f15
		<tag k="natural" v="water" />
		<tag k="ssr:stedsnr" v="11549" />
	</node>
<<<<<<< HEAD
	<node lat="62.289375003558774" lon="9.44030278166667" id="-20337">
		<tag k="name" v="Kollbekken" />
		<tag k="ssr:stedsnr" v="11552" />
		<tag k="waterway" v="stream" />
	</node>
	<node lat="62.10596666905523" lon="9.306047231169202" id="-20339">
		<tag k="name" v="Foksåe" />
		<tag k="ssr:stedsnr" v="11691" />
		<tag k="waterway" v="river" />
	</node>
	<node lat="62.188122224825946" lon="9.324080551212072" id="-20342">
		<tag k="name" v="Lesjabekken" />
		<tag k="ssr:stedsnr" v="11733" />
		<tag k="waterway" v="stream" />
	</node>
	<node lat="62.060330552227626" lon="9.106350006808718" id="-20361">
		<tag k="name" v="Dombfossen" />
		<tag k="natural" v="waterfall" />
		<tag k="ssr:stedsnr" v="50745" />
	</node>
	<node lat="62.03267777746067" lon="9.569499991913613" id="-20379">
		<tag k="alt_name" v="Hornsjøvatnet" />
		<tag k="name" v="Hornsjøen" />
=======
	<node id="-359808" lat="62.0213388893" lon="9.23827776922">
		<tag k="alt_name" v="Lenna" />
		<tag k="name" v="Leina" />
		<tag k="ssr:stedsnr" v="131636" />
		<tag k="waterway" v="stream" />
	</node>
	<node id="-360512" lat="62.058208333" lon="9.17902221525">
		<tag k="alt_name" v="Tverråi" />
		<tag k="name" v="Tverråe" />
		<tag k="ssr:stedsnr" v="132566" />
		<tag k="waterway" v="stream" />
	</node>
	<node id="-360318" lat="62.2111617229" lon="9.64045575694">
		<tag k="name" v="Børsungtjønne" />
		<tag k="natural" v="water" />
		<tag k="ssr:stedsnr" v="860762" />
	</node>
	<node id="-359805" lat="62.1181138894" lon="9.63345554921">
		<tag k="name" v="Fallfossen" />
		<tag k="natural" v="waterfall" />
		<tag k="ssr:stedsnr" v="265850" />
	</node>
	<node id="-360316" lat="62.0542555542" lon="9.07449167377">
		<tag k="name" v="Blesterbekken" />
		<tag k="ssr:stedsnr" v="860623" />
		<tag k="waterway" v="stream" />
	</node>
	<node id="-359999" lat="62.0420555568" lon="9.5773833242">
		<tag k="alt_name" v="Steintjern" />
		<tag k="name" v="Steintjørni" />
		<tag k="natural" v="water" />
		<tag k="ssr:stedsnr" v="507834" />
	</node>
	<node id="-359800" lat="62.0522805593" lon="9.84461112043">
		<tag k="name" v="Svartbekken" />
		<tag k="ssr:stedsnr" v="112322" />
		<tag k="waterway" v="stream" />
	</node>
	<node id="-360822" lat="62.2550611136" lon="9.50543611032">
		<tag k="name" v="Grautbekken" />
		<tag k="ssr:stedsnr" v="557484" />
		<tag k="waterway" v="stream" />
	</node>
	<node id="-360821" lat="62.2557223301" lon="9.6475273895">
		<tag k="alt_name" v="Kvitdalsvatnet, nordre;Nordre Kvitdalsvatnet;Kvitdalsvatnet" />
		<tag k="name" v="Nørdre Kvitdalsvatnet" />
>>>>>>> e1d4bc35ff8a6074a6f2e91616a996b547c36f15
		<tag k="natural" v="water" />
		<tag k="ssr:stedsnr" v="71699" />
	</node>
<<<<<<< HEAD
	<node lat="61.99474444263576" lon="9.805738883813579" id="-20380">
		<tag k="name" v="Atna" />
		<tag k="ssr:stedsnr" v="71159" />
		<tag k="waterway" v="river" />
	</node>
	<node lat="61.94187433587226" lon="9.43291225110337" id="-20390">
		<tag k="name" v="Turrtjønnin" />
=======
	<node id="-360815" lat="62.0330204389" lon="9.59575844756">
		<tag k="name" v="Storrvatnet" />
>>>>>>> e1d4bc35ff8a6074a6f2e91616a996b547c36f15
		<tag k="natural" v="water" />
		<tag k="ssr:stedsnr" v="72888" />
		<tag k="water" v="lake" />
	</node>
<<<<<<< HEAD
	<node lat="62.138963891494015" lon="9.239625008644376" id="-20392">
		<tag k="name" v="Studulbekken" />
		<tag k="ssr:stedsnr" v="72674" />
		<tag k="waterway" v="stream" />
	</node>
	<node lat="62.165083337245676" lon="9.283577775916037" id="-20393">
		<tag k="alt_name" v="Nyseterbekken" />
		<tag k="name" v="Sæterbekken" />
		<tag k="ssr:stedsnr" v="72687" />
		<tag k="waterway" v="stream" />
	</node>
	<node lat="62.17338797216319" lon="9.389455785262223" id="-20394">
		<tag k="name" v="Vålåsjøen" />
=======
	<node id="-359790" lat="62.2467027786" lon="9.68232777294">
		<tag k="name" v="Dålåbekken" />
		<tag k="ssr:stedsnr" v="254493" />
		<tag k="waterway" v="stream" />
	</node>
	<node id="-360813" lat="62.0521749958" lon="9.33554721947">
		<tag k="name" v="Heimare Tverråe" />
		<tag k="ssr:stedsnr" v="556668" />
		<tag k="waterway" v="stream" />
	</node>
	<node id="-359788" lat="62.1369055546" lon="9.31153333908">
		<tag k="name" v="Kringluttjønne" />
>>>>>>> e1d4bc35ff8a6074a6f2e91616a996b547c36f15
		<tag k="natural" v="water" />
		<tag k="old_name" v="Vålasjøen" />
		<tag k="ssr:stedsnr" v="72691" />
		<tag k="water" v="lake" />
	</node>
<<<<<<< HEAD
	<node lat="62.21882222281239" lon="9.324994438998493" id="-20396">
		<tag k="name" v="Svartbergbekken" />
		<tag k="ssr:stedsnr" v="83926" />
		<tag k="waterway" v="stream" />
	</node>
	<node lat="62.085455551727726" lon="9.09953611748913" id="-20407">
		<tag k="name" v="Simensrudfallet" />
		<tag k="ssr:stedsnr" v="111749" />
		<tag k="waterway" v="rapids" />
	</node>
	<node lat="62.21229444420704" lon="9.585847217108238" id="-20428">
		<tag k="name" v="Hjerkinnsdammen" />
=======
	<node id="-359787" lat="62.107113891" lon="9.59628889311">
		<tag k="name" v="Nørdre Tverråe" />
		<tag k="ssr:stedsnr" v="254628" />
		<tag k="waterway" v="stream" />
	</node>
	<node id="-360296" lat="61.9951055563" lon="9.36233055962">
		<tag k="name" v="Stavåstjønne" />
>>>>>>> e1d4bc35ff8a6074a6f2e91616a996b547c36f15
		<tag k="natural" v="water" />
		<tag k="ssr:stedsnr" v="120140" />
		<tag k="water" v="lake" />
	</node>
<<<<<<< HEAD
	<node lat="61.232741671063216" lon="10.4370611119802" id="-20429">
		<tag k="loc_name" v="Gudbrandsdalslågen" />
		<tag k="name" v="Lågen" />
		<tag k="ssr:stedsnr" v="129173" />
		<tag k="waterway" v="river" />
	</node>
	<node lat="62.02133888930723" lon="9.238277769215653" id="-20431">
		<tag k="alt_name" v="Lenna" />
		<tag k="name" v="Leina" />
		<tag k="ssr:stedsnr" v="131636" />
		<tag k="waterway" v="stream" />
	</node>
	<node lat="61.957897226610584" lon="9.710786115249427" id="-20433">
		<tag k="name" v="Døråe" />
		<tag k="ssr:stedsnr" v="131646" />
		<tag k="waterway" v="river" />
	</node>
	<node lat="61.9604833368187" lon="9.754833324846441" id="-20434">
		<tag k="name" v="Smedbekken" />
		<tag k="ssr:stedsnr" v="131650" />
		<tag k="waterway" v="stream" />
	</node>
	<node lat="62.04907500390778" lon="9.242402784844968" id="-20435">
		<tag k="name" v="Rådååe" />
		<tag k="ssr:stedsnr" v="131655" />
		<tag k="waterway" v="river" />
	</node>
	<node lat="62.036188885672104" lon="9.636661111279093" id="-20438">
		<tag k="name" v="Gravbekken" />
		<tag k="ssr:stedsnr" v="131669" />
		<tag k="waterway" v="stream" />
	</node>
	<node lat="62.12754444803738" lon="9.51545278414262" id="-20446">
		<tag k="name" v="Gautåe" />
		<tag k="ssr:stedsnr" v="132688" />
		<tag k="waterway" v="river" />
	</node>
	<node lat="61.92642777425891" lon="9.243002775770144" id="-20453">
		<tag k="name" v="Djupdalsbekken" />
		<tag k="ssr:stedsnr" v="132896" />
		<tag k="waterway" v="stream" />
	</node>
	<node lat="62.0941305549499" lon="9.846372226951111" id="-20479">
		<tag k="name" v="Streittjønne" />
=======
	<node id="-360806" lat="62.0066750013" lon="9.50072500385">
		<tag k="name" v="Persbekken" />
		<tag k="ssr:stedsnr" v="556384" />
		<tag k="waterway" v="stream" />
	</node>
	<node id="-359781" lat="62.2171222213" lon="9.56785555273">
		<tag k="name" v="Kvernbekken" />
		<tag k="ssr:stedsnr" v="253754" />
		<tag k="waterway" v="stream" />
	</node>
	<node id="-360292" lat="62.215397226" lon="9.4062472168">
		<tag k="name" v="Grisungtjørni" />
		<tag k="natural" v="water" />
		<tag k="ssr:stedsnr" v="799767" />
	</node>
	<node id="-360803" lat="61.9233944481" lon="9.18362500218">
		<tag k="name" v="Jettdalsbekken" />
		<tag k="ssr:stedsnr" v="556188" />
		<tag k="waterway" v="stream" />
	</node>
	<node id="-359777" lat="61.9855777753" lon="9.78912222815">
		<tag k="name" v="Piktjønne" />
		<tag k="natural" v="water" />
		<tag k="ssr:stedsnr" v="253691" />
	</node>
	<node id="-360287" lat="62.2888666683" lon="9.3513000046">
		<tag k="name" v="Langtjørni" />
		<tag k="natural" v="water" />
		<tag k="ssr:stedsnr" v="922522" />
	</node>
	<node id="-360280" lat="61.9631388884" lon="9.31135278246">
		<tag k="name" v="Kvannbekken" />
		<tag k="ssr:stedsnr" v="921917" />
		<tag k="waterway" v="stream" />
	</node>
	<node id="-360932" lat="62.2016611114" lon="9.63151667341">
		<tag k="name" v="Holtjønne" />
		<tag k="natural" v="water" />
		<tag k="ssr:stedsnr" v="738734" />
	</node>
	<node id="-360790" lat="62.0766527815" lon="9.81534167197">
		<tag k="name" v="Langtjern" />
>>>>>>> e1d4bc35ff8a6074a6f2e91616a996b547c36f15
		<tag k="natural" v="water" />
		<tag k="ssr:stedsnr" v="192521" />
	</node>
<<<<<<< HEAD
	<node lat="61.97734444169301" lon="9.848266658597444" id="-20484">
		<tag k="name" v="Neverbutjønne" />
		<tag k="natural" v="water" />
		<tag k="ssr:stedsnr" v="192667" />
	</node>
	<node lat="61.96975833553484" lon="9.702055559797916" id="-20485">
		<tag k="name" v="Ragnhildstadbekken" />
		<tag k="ssr:stedsnr" v="192669" />
		<tag k="waterway" v="stream" />
	</node>
	<node lat="61.98450277450568" lon="9.75901387951288" id="-20486">
		<tag k="name" v="Gammalbubekken" />
		<tag k="ssr:stedsnr" v="192670" />
		<tag k="waterway" v="stream" />
	</node>
	<node lat="62.07075000112945" lon="9.675430562400232" id="-20488">
		<tag k="alt_name" v="Skriubekken" />
		<tag k="name" v="Skridubekken" />
		<tag k="ssr:stedsnr" v="192681" />
		<tag k="waterway" v="stream" />
	</node>
	<node lat="62.32786952559903" lon="9.233261443183808" id="-20506">
		<tag k="loc_name" v="Larstjønnin" />
		<tag k="name" v="Larstjørnin" />
=======
	<node id="-360277" lat="62.1060944423" lon="9.13510555825">
		<tag k="name" v="Gardsendbekken" />
		<tag k="ssr:stedsnr" v="921889" />
		<tag k="waterway" v="stream" />
	</node>
	<node id="-360787" lat="62.1680749988" lon="9.37434167209">
		<tag k="name" v="Naustodden" />
		<tag k="natural" v="cape" />
		<tag k="ssr:stedsnr" v="536474" />
	</node>
	<node id="-360274" lat="62.1869138922" lon="9.44492222568">
		<tag k="alt_name" v="Turraren" />
		<tag k="name" v="Turaren" />
		<tag k="ssr:stedsnr" v="921746" />
		<tag k="waterway" v="stream" />
	</node>
	<node id="-360273" lat="62.1743766985" lon="9.4710607965">
		<tag k="name" v="Avsjøen" />
>>>>>>> e1d4bc35ff8a6074a6f2e91616a996b547c36f15
		<tag k="natural" v="water" />
		<tag k="ssr:stedsnr" v="193555" />
		<tag k="water" v="lake" />
	</node>
<<<<<<< HEAD
	<node lat="62.307697219245505" lon="9.341150003342229" id="-20507">
		<tag k="name" v="Stridåtjørnin" />
		<tag k="natural" v="water" />
		<tag k="ssr:stedsnr" v="193558" />
		<tag k="water" v="lake" />
	</node>
	<node lat="62.14143333178574" lon="9.321783329600494" id="-20519">
		<tag k="name" v="Steintjønne" />
=======
	<node id="-360504" lat="62.2122944442" lon="9.58584721711">
		<tag k="name" v="Hjerkinnsdammen" />
		<tag k="natural" v="water" />
		<tag k="ssr:stedsnr" v="120140" />
		<tag k="water" v="lake" />
	</node>
	<node id="-360270" lat="62.0755249977" lon="9.70415000771">
		<tag k="name" v="Kvannkjerrbekken" />
		<tag k="ssr:stedsnr" v="921689" />
		<tag k="waterway" v="stream" />
	</node>
	<node id="-359756" lat="61.9979666655" lon="9.44562223124">
		<tag k="name" v="Grønbakktjønne" />
>>>>>>> e1d4bc35ff8a6074a6f2e91616a996b547c36f15
		<tag k="natural" v="water" />
		<tag k="ssr:stedsnr" v="193675" />
	</node>
<<<<<<< HEAD
	<node lat="61.96411111039406" lon="9.357502780285198" id="-20527">
		<tag k="name" v="Måsåhustjønne" />
		<tag k="natural" v="water" />
		<tag k="ssr:stedsnr" v="193924" />
	</node>
	<node lat="61.97354722495289" lon="9.324725001285348" id="-20528">
		<tag k="name" v="Sjugurdsåe" />
		<tag k="ssr:stedsnr" v="193925" />
		<tag k="waterway" v="stream" />
	</node>
	<node lat="62.10129999603237" lon="9.174683328619292" id="-20554">
		<tag k="name" v="Stakstobekken" />
		<tag k="ssr:stedsnr" v="294098" />
		<tag k="waterway" v="stream" />
	</node>
	<node lat="62.25187499843082" lon="9.666908323732853" id="-20564">
		<tag k="alt_name" v="Kvitdalsvatnet, s" />
		<tag k="name" v="Søre Kvitdalsvatnet" />
		<tag k="natural" v="water" />
		<tag k="ssr:stedsnr" v="315492" />
		<tag k="water" v="lake" />
	</node>
	<node lat="61.970883336834284" lon="9.63199999732081" id="-20568">
		<tag k="name" v="Langfonnskridu" />
		<tag k="ssr:stedsnr" v="314644" />
		<tag k="waterway" v="stream" />
	</node>
	<node lat="62.243170959325184" lon="9.342802902586953" id="-20571">
		<tag k="name" v="Einøvlingsvatnet" />
		<tag k="natural" v="water" />
		<tag k="ssr:stedsnr" v="314547" />
		<tag k="water" v="lake" />
	</node>
	<node lat="62.14159166717566" lon="9.403588885159182" id="-20579">
		<tag k="name" v="Haukbekken" />
		<tag k="ssr:stedsnr" v="314697" />
		<tag k="waterway" v="stream" />
	</node>
	<node lat="62.15208610990578" lon="9.45764722747688" id="-20581">
		<tag k="name" v="Kluftbekken" />
		<tag k="ssr:stedsnr" v="314699" />
		<tag k="waterway" v="stream" />
	</node>
	<node lat="62.15104297415178" lon="9.602105962699797" id="-20582">
		<tag k="name" v="Veslhjerkinnstjønnin" />
=======
	<node id="-360265" lat="62.2280513491" lon="9.64502569352">
		<tag k="name" v="Sautjønnin" />
		<tag k="natural" v="water" />
		<tag k="ssr:stedsnr" v="921525" />
		<tag k="water" v="lake" />
	</node>
	<node id="-360264" lat="62.0444249978" lon="9.84587777703">
		<tag k="name" v="Myrbekken" />
		<tag k="ssr:stedsnr" v="921440" />
		<tag k="waterway" v="stream" />
	</node>
	<node id="-360262" lat="61.9886111145" lon="9.28801388644">
		<tag k="name" v="Stavåe" />
		<tag k="ssr:stedsnr" v="921417" />
		<tag k="waterway" v="river" />
	</node>
	<node id="-360261" lat="62.070672219" lon="9.90679999827">
		<tag k="name" v="Ørnhovdbekken" />
		<tag k="ssr:stedsnr" v="921415" />
		<tag k="waterway" v="stream" />
	</node>
	<node id="-360259" lat="62.0998388931" lon="9.31733889116">
		<tag k="name" v="Veslfoksåe" />
		<tag k="ssr:stedsnr" v="921677" />
		<tag k="waterway" v="stream" />
	</node>
	<node id="-360768" lat="62.1739111119" lon="9.33806110276">
		<tag k="name" v="Storløkebekken" />
		<tag k="ssr:stedsnr" v="436710" />
		<tag k="waterway" v="stream" />
	</node>
	<node id="-360767" lat="62.1530000001" lon="9.46537499764">
		<tag k="alt_name" v="Toftebekken" />
		<tag k="name" v="Toftsæterbekken" />
		<tag k="ssr:stedsnr" v="436690" />
		<tag k="waterway" v="stream" />
	</node>
	<node id="-360254" lat="62.0100805582" lon="9.33391665767">
		<tag k="alt_name" v="Eftensåe" />
		<tag k="name" v="Eftansåi" />
		<tag k="ssr:stedsnr" v="921657" />
		<tag k="waterway" v="stream" />
	</node>
	<node id="-360765" lat="62.1521916685" lon="9.33918611919">
		<tag k="name" v="Stortjønn" />
>>>>>>> e1d4bc35ff8a6074a6f2e91616a996b547c36f15
		<tag k="natural" v="water" />
		<tag k="ssr:stedsnr" v="314700" />
		<tag k="water" v="lake" />
	</node>
<<<<<<< HEAD
	<node lat="61.91613055682677" lon="9.390522217833297" id="-20589">
		<tag k="name" v="Kvennbekken" />
		<tag k="ssr:stedsnr" v="314979" />
		<tag k="waterway" v="stream" />
	</node>
	<node lat="62.1040611083112" lon="9.126341661308183" id="-20606">
		<tag k="name" v="Vassholet" />
		<tag k="natural" v="spring" />
		<tag k="ssr:stedsnr" v="354125" />
	</node>
	<node lat="62.05174722346504" lon="9.574613890624686" id="-20607">
		<tag k="name" v="Freksbekken" />
		<tag k="ssr:stedsnr" v="354284" />
		<tag k="waterway" v="stream" />
	</node>
	<node lat="61.993716667963234" lon="9.625261109882771" id="-20626">
		<tag k="name" v="Ytre Djupdalsbekken" />
		<tag k="ssr:stedsnr" v="374683" />
		<tag k="waterway" v="stream" />
	</node>
	<node lat="62.24270555761317" lon="9.515686119117426" id="-20639">
		<tag k="name" v="Svone" />
		<tag k="ssr:stedsnr" v="375461" />
		<tag k="waterway" v="river" />
	</node>
	<node lat="62.16720000196268" lon="9.48502222739704" id="-20642">
		<tag k="name" v="Skridubekken" />
		<tag k="ssr:stedsnr" v="375695" />
		<tag k="waterway" v="stream" />
	</node>
	<node lat="62.13343611336636" lon="9.28046944540689" id="-20644">
		<tag k="name" v="Løken" />
		<tag k="old_name" v="Løkjen" />
		<tag k="ssr:stedsnr" v="375644" />
		<tag k="waterway" v="river" />
	</node>
	<node lat="62.15739999782657" lon="9.36775834140412" id="-20645">
		<tag k="name" v="Furuhaugbekken" />
		<tag k="ssr:stedsnr" v="375673" />
		<tag k="waterway" v="stream" />
	</node>
	<node lat="62.15936389022979" lon="9.444955558271067" id="-20646">
		<tag k="alt_name" v="Haukskardåe" />
		<tag k="name" v="Haukåi" />
		<tag k="ssr:stedsnr" v="375676" />
		<tag k="waterway" v="river" />
	</node>
	<node lat="62.122897218003445" lon="9.232769452094947" id="-20654">
		<tag k="name" v="Langmyrbekken" />
		<tag k="ssr:stedsnr" v="415057" />
		<tag k="waterway" v="stream" />
	</node>
	<node lat="62.06830833527149" lon="9.518477785569605" id="-20656">
		<tag k="name" v="Verkensåe" />
		<tag k="ssr:stedsnr" v="415278" />
		<tag k="waterway" v="stream" />
	</node>
	<node lat="62.04721111507491" lon="9.132111107309655" id="-20661">
		<tag k="name" v="Krekaeidet" />
		<tag k="natural" v="cape" />
		<tag k="ssr:stedsnr" v="415331" />
	</node>
	<node lat="61.98534166345923" lon="9.577744444821848" id="-20673">
		<tag k="name" v="Haverdalsåe" />
		<tag k="ssr:stedsnr" v="435937" />
		<tag k="waterway" v="stream" />
	</node>
	<node lat="61.93531388676991" lon="9.803297231476094" id="-20682">
		<tag k="name" v="Bergedalstjønnin" />
		<tag k="natural" v="water" />
		<tag k="ssr:stedsnr" v="435675" />
		<tag k="water" v="lake" />
	</node>
	<node lat="62.19448611437277" lon="9.527330564286451" id="-20685">
		<tag k="alt_name" v="Heglingen" />
		<tag k="name" v="Hegglingen" />
		<tag k="natural" v="water" />
		<tag k="ssr:stedsnr" v="435740" />
	</node>
	<node lat="62.190852778453106" lon="9.509019438877035" id="-20686">
		<tag k="name" v="Folla" />
		<tag k="ssr:stedsnr" v="435746" />
		<tag k="waterway" v="river" />
	</node>
	<node lat="62.1851499985101" lon="9.52223610576819" id="-20687">
		<tag k="name" v="Lomtjønne" />
=======
	<node id="-360252" lat="62.0159222253" lon="9.25360000006">
		<tag k="name" v="Stavåe" />
		<tag k="ssr:stedsnr" v="921649" />
		<tag k="waterway" v="stream" />
	</node>
	<node id="-360251" lat="62.0236250014" lon="9.4754555513">
		<tag k="name" v="Tverrgjelbekken" />
		<tag k="ssr:stedsnr" v="921647" />
		<tag k="waterway" v="river" />
	</node>
	<node id="-360249" lat="62.0291416629" lon="9.44177500046">
		<tag k="name" v="Veslgrimsi" />
		<tag k="ssr:stedsnr" v="921644" />
		<tag k="waterway" v="stream" />
	</node>
	<node id="-360758" lat="62.2898777764" lon="9.37209723137">
		<tag k="alt_name" v="Stridåi" />
		<tag k="name" v="Stridåe" />
		<tag k="old_name" v="Stridai" />
		<tag k="ssr:stedsnr" v="436529" />
		<tag k="waterway" v="river" />
	</node>
	<node id="-359733" lat="62.0173833375" lon="9.13214721298">
		<tag k="name" v="Rusthaugbekken" />
		<tag k="ssr:stedsnr" v="233370" />
		<tag k="waterway" v="stream" />
	</node>
	<node id="-360755" lat="62.0034611149" lon="9.09842778561">
		<tag k="name" v="Maningtjørni" />
		<tag k="natural" v="water" />
		<tag k="ssr:stedsnr" v="436498" />
	</node>
	<node id="-360754" lat="62.261600001" lon="9.63844721277">
		<tag k="name" v="Fisktjørnin" />
		<tag k="natural" v="water" />
		<tag k="ssr:stedsnr" v="436493" />
		<tag k="water" v="lake" />
	</node>
	<node id="-360751" lat="62.2666500027" lon="9.45871111795">
		<tag k="name" v="Storfallet" />
		<tag k="natural" v="waterfall" />
		<tag k="ssr:stedsnr" v="436481" />
	</node>
	<node id="-360238" lat="61.9799000011" lon="9.35840277187">
		<tag k="name" v="Kringlotbekken" />
		<tag k="ssr:stedsnr" v="739917" />
		<tag k="waterway" v="stream" />
	</node>
	<node id="-360237" lat="61.9820833317" lon="9.35404723146">
		<tag k="name" v="Nysæterbekken" />
		<tag k="ssr:stedsnr" v="739914" />
		<tag k="waterway" v="stream" />
	</node>
	<node id="-360236" lat="61.950275" lon="9.25440000649">
		<tag k="name" v="Ilka" />
		<tag k="ssr:stedsnr" v="739907" />
		<tag k="waterway" v="river" />
	</node>
	<node id="-360235" lat="62.1649213468" lon="9.2445663453">
		<tag k="fixme" v="multiple name tags, choose one and add the other to alt_name" />
		<tag k="name" v="Falketjønne;Lesjatjønne" />
>>>>>>> e1d4bc35ff8a6074a6f2e91616a996b547c36f15
		<tag k="natural" v="water" />
		<tag k="ssr:stedsnr" v="435747" />
	</node>
<<<<<<< HEAD
	<node lat="62.26665000271901" lon="9.458711117951434" id="-20689">
		<tag k="name" v="Storfallet" />
		<tag k="natural" v="waterfall" />
		<tag k="ssr:stedsnr" v="436481" />
	</node>
	<node lat="62.261600001032875" lon="9.638447212769853" id="-20692">
		<tag k="name" v="Fisktjørnin" />
=======
	<node id="-360745" lat="61.9353138868" lon="9.80329723148">
		<tag k="name" v="Bergedalstjønnin" />
>>>>>>> e1d4bc35ff8a6074a6f2e91616a996b547c36f15
		<tag k="natural" v="water" />
		<tag k="ssr:stedsnr" v="436493" />
		<tag k="water" v="lake" />
	</node>
<<<<<<< HEAD
	<node lat="62.00346111492803" lon="9.098427785606132" id="-20693">
		<tag k="name" v="Maningtjørni" />
		<tag k="natural" v="water" />
		<tag k="ssr:stedsnr" v="436498" />
	</node>
	<node lat="62.28987777643686" lon="9.372097231369697" id="-20696">
		<tag k="alt_name" v="Stridåi" />
		<tag k="name" v="Stridåe" />
		<tag k="old_name" v="Stridai" />
		<tag k="ssr:stedsnr" v="436529" />
		<tag k="waterway" v="river" />
	</node>
	<node lat="62.15300000009156" lon="9.465374997636857" id="-20698">
		<tag k="alt_name" v="Toftebekken" />
		<tag k="name" v="Toftsæterbekken" />
		<tag k="ssr:stedsnr" v="436690" />
		<tag k="waterway" v="stream" />
	</node>
	<node lat="61.947363891971236" lon="9.475172225631676" id="-20700">
		<tag k="name" v="Langtjønne" />
		<tag k="natural" v="water" />
		<tag k="ssr:stedsnr" v="436888" />
	</node>
	<node lat="61.96127499918834" lon="9.678802770009034" id="-20704">
		<tag k="name" v="Dørålsvatnet" />
		<tag k="natural" v="water" />
		<tag k="ssr:stedsnr" v="495643" />
	</node>
	<node lat="62.24839444241851" lon="9.464869441868817" id="-20711">
		<tag k="name" v="Tjønnhøbekken" />
		<tag k="ssr:stedsnr" v="496537" />
		<tag k="waterway" v="stream" />
	</node>
	<node lat="62.04276944700514" lon="9.08362499264268" id="-20714">
		<tag k="alt_name" v="Djupdalsåa" />
		<tag k="name" v="Djupdalsåi" />
		<tag k="ssr:stedsnr" v="496580" />
		<tag k="waterway" v="stream" />
	</node>
	<node lat="61.904252775582584" lon="9.403674997212656" id="-20724">
		<tag k="name" v="Storrustbekken" />
		<tag k="ssr:stedsnr" v="496982" />
		<tag k="waterway" v="stream" />
	</node>
	<node lat="62.04205555676578" lon="9.577383324203684" id="-20725">
		<tag k="alt_name" v="Steintjern" />
		<tag k="name" v="Steintjørni" />
		<tag k="natural" v="water" />
		<tag k="ssr:stedsnr" v="507834" />
	</node>
	<node lat="62.20266944661059" lon="9.593902785514928" id="-20726">
		<tag k="name" v="Myrbærtjønne" />
		<tag k="natural" v="water" />
		<tag k="ssr:stedsnr" v="507844" />
	</node>
	<node lat="62.07665278148587" lon="9.815341671970812" id="-20732">
		<tag k="name" v="Langtjern" />
		<tag k="natural" v="water" />
		<tag k="ssr:stedsnr" v="536276" />
	</node>
	<node lat="62.03302043886117" lon="9.59575844755653" id="-20751">
		<tag k="name" v="Storrvatnet" />
		<tag k="natural" v="water" />
		<tag k="old_name" v="Storvatnet" />
		<tag k="ssr:stedsnr" v="556679" />
		<tag k="water" v="lake" />
	</node>
	<node lat="61.92339444806685" lon="9.183625002184824" id="-20753">
		<tag k="name" v="Jettdalsbekken" />
		<tag k="ssr:stedsnr" v="556188" />
		<tag k="waterway" v="stream" />
	</node>
	<node lat="62.07629999596358" lon="9.83200555269259" id="-20757">
		<tag k="name" v="Streitbekken" />
		<tag k="ssr:stedsnr" v="556434" />
		<tag k="waterway" v="stream" />
	</node>
	<node lat="62.00667500128127" lon="9.500725003854246" id="-20758">
		<tag k="name" v="Persbekken" />
		<tag k="ssr:stedsnr" v="556384" />
		<tag k="waterway" v="stream" />
	</node>
	<node lat="62.25572233009493" lon="9.647527389501303" id="-20762">
		<tag k="alt_name" v="Kvitdalsvatnet, nordre;Nordre Kvitdalsvatnet;Kvitdalsvatnet" />
		<tag k="name" v="Nørdre Kvitdalsvatnet" />
		<tag k="natural" v="water" />
		<tag k="ssr:stedsnr" v="557483" />
		<tag k="water" v="lake" />
	</node>
	<node lat="62.255061113583366" lon="9.50543611032003" id="-20763">
		<tag k="name" v="Grautbekken" />
		<tag k="ssr:stedsnr" v="557484" />
		<tag k="waterway" v="stream" />
	</node>
	<node lat="62.25748333514575" lon="9.395336113948778" id="-20765">
		<tag k="name" v="Einøvlingsbekken" />
		<tag k="ssr:stedsnr" v="557493" />
		<tag k="waterway" v="stream" />
	</node>
	<node lat="62.133408332365015" lon="9.262599992974923" id="-20775">
		<tag k="name" v="Vesltjønn" />
		<tag k="natural" v="water" />
		<tag k="ssr:stedsnr" v="557638" />
	</node>
	<node lat="61.97542777534338" lon="9.245852778617534" id="-20777">
		<tag k="name" v="Vigerusttjernet" />
		<tag k="natural" v="water" />
		<tag k="ssr:stedsnr" v="582566" />
	</node>
	<node lat="62.10555555173572" lon="9.113391673544985" id="-20784">
		<tag k="name" v="Kubåsbekken" />
		<tag k="ssr:stedsnr" v="595846" />
		<tag k="waterway" v="stream" />
	</node>
	<node lat="62.18512777908144" lon="9.495283342301404" id="-20787">
		<tag k="name" v="Svartosen" />
		<tag k="natural" v="bay" />
		<tag k="ssr:stedsnr" v="597276" />
	</node>
	<node lat="62.1575027795017" lon="9.282138891242548" id="-20788">
		<tag k="name" v="Langtjern" />
		<tag k="natural" v="water" />
		<tag k="ssr:stedsnr" v="596431" />
	</node>
	<node lat="62.094727774158464" lon="9.789988885968686" id="-20805">
		<tag k="name" v="Gruvbekken" />
		<tag k="ssr:stedsnr" v="597296" />
		<tag k="waterway" v="stream" />
	</node>
	<node lat="62.00791666344543" lon="9.125463892200274" id="-20806">
		<tag k="name" v="Veslemanningen" />
		<tag k="ssr:stedsnr" v="597329" />
		<tag k="waterway" v="stream" />
	</node>
	<node lat="62.007511115367336" lon="9.135533338248111" id="-20807">
		<tag k="name" v="Tverrgjellbekken" />
		<tag k="ssr:stedsnr" v="597331" />
		<tag k="waterway" v="stream" />
	</node>
	<node lat="62.00763333079102" lon="9.180444447779958" id="-20814">
		<tag k="alt_name" v="Grotåi;Nordre Grotåe" />
		<tag k="name" v="Nørdre Grotåe" />
		<tag k="old_name" v="Grotai" />
		<tag k="ssr:stedsnr" v="617546" />
		<tag k="waterway" v="stream" />
	</node>
	<node lat="62.232283334391944" lon="9.6522999918341" id="-20819">
		<tag k="name" v="Sautjønnbekken" />
		<tag k="ssr:stedsnr" v="617527" />
		<tag k="waterway" v="stream" />
	</node>
	<node lat="62.22876221758312" lon="9.62032982710058" id="-20820">
		<tag k="name" v="Skardstjønne" />
		<tag k="natural" v="water" />
		<tag k="ssr:stedsnr" v="617529" />
	</node>
	<node lat="62.01953888537783" lon="9.490719439593356" id="-20822">
		<tag k="name" v="Fremste Bottjønne" />
		<tag k="natural" v="water" />
		<tag k="ssr:stedsnr" v="617645" />
	</node>
	<node lat="61.90120000275594" lon="9.330877775371217" id="-20824">
		<tag k="fixme" v="multiple name tags, choose one and add the other to alt_name" />
		<tag k="name" v="Djupdalsbekken;Haugomsbekken" />
		<tag k="ssr:stedsnr" v="617277" />
		<tag k="waterway" v="stream" />
	</node>
	<node lat="62.07346388809529" lon="9.241963883846424" id="-20833">
		<tag k="alt_name" v="Vesle Hundyrju" />
		<tag k="name" v="Veslhundyrju" />
		<tag k="old_name" v="Hundyrju, vesle" />
		<tag k="ssr:stedsnr" v="617677" />
		<tag k="waterway" v="stream" />
	</node>
	<node lat="62.08130278106241" lon="9.604183335475348" id="-20834">
		<tag k="alt_name" v="Veslbekken" />
		<tag k="name" v="Veslebekken" />
		<tag k="ssr:stedsnr" v="617678" />
		<tag k="waterway" v="stream" />
	</node>
	<node lat="62.21522500332515" lon="9.375305550614597" id="-20836">
		<tag k="name" v="Grisungbekken" />
		<tag k="ssr:stedsnr" v="617762" />
		<tag k="waterway" v="river" />
	</node>
	<node lat="62.01014166927996" lon="9.651577787107588" id="-20860">
		<tag k="name" v="Skriubekken" />
		<tag k="ssr:stedsnr" v="658554" />
		<tag k="waterway" v="stream" />
	</node>
	<node lat="61.910538891290585" lon="9.361947216501816" id="-20886">
=======
	<node id="-360228" lat="62.2732749959" lon="9.70864722542">
		<tag k="name" v="Knutshøbekken" />
		<tag k="ssr:stedsnr" v="739518" />
		<tag k="waterway" v="stream" />
	</node>
	<node id="-359706" lat="62.0995138877" lon="9.21012777403">
		<tag k="alt_name" v="Hondyrju" />
		<tag k="name" v="Hundyrju" />
		<tag k="ssr:stedsnr" v="11612" />
		<tag k="waterway" v="stream" />
	</node>
	<node id="-359705" lat="61.9650666633" lon="9.17437778289">
		<tag k="name" v="Musa" />
		<tag k="ssr:stedsnr" v="11230" />
		<tag k="waterway" v="river" />
	</node>
	<node id="-360214" lat="62.0495444436" lon="9.12859444922">
		<tag k="name" v="Hjelleidet" />
		<tag k="natural" v="cape" />
		<tag k="ssr:stedsnr" v="900513" />
	</node>
	<node id="-360718" lat="62.0472111151" lon="9.13211110731">
		<tag k="name" v="Krekaeidet" />
		<tag k="natural" v="cape" />
		<tag k="ssr:stedsnr" v="415331" />
	</node>
	<node id="-360749" lat="61.9853416635" lon="9.57774444482">
		<tag k="name" v="Haverdalsåe" />
		<tag k="ssr:stedsnr" v="435937" />
		<tag k="waterway" v="stream" />
	</node>
	<node id="-360715" lat="62.0683083353" lon="9.51847778557">
		<tag k="name" v="Verkensåe" />
		<tag k="ssr:stedsnr" v="415278" />
		<tag k="waterway" v="stream" />
	</node>
	<node id="-359724" lat="62.1007722204" lon="9.22169999806">
		<tag k="name" v="Gorbekken" />
		<tag k="ssr:stedsnr" v="232981" />
		<tag k="waterway" v="stream" />
	</node>
	<node id="-360709" lat="62.122897218" lon="9.23276945209">
		<tag k="name" v="Langmyrbekken" />
		<tag k="ssr:stedsnr" v="415057" />
		<tag k="waterway" v="stream" />
	</node>
	<node id="-360192" lat="61.9221611127" lon="9.34236666187">
		<tag k="name" v="Rødølsodden" />
		<tag k="natural" v="cape" />
		<tag k="ssr:stedsnr" v="887694" />
	</node>
	<node id="-360191" lat="61.9304611079" lon="9.29050555313">
		<tag k="name" v="Statshaugbekken" />
		<tag k="ssr:stedsnr" v="887686" />
		<tag k="waterway" v="stream" />
	</node>
	<node id="-360593" lat="61.973547225" lon="9.32472500129">
		<tag k="name" v="Sjugurdsåe" />
		<tag k="ssr:stedsnr" v="193925" />
		<tag k="waterway" v="stream" />
	</node>
	<node id="-360187" lat="61.9622611156" lon="9.297488897">
		<tag k="name" v="Rudiåe" />
		<tag k="ssr:stedsnr" v="678913" />
		<tag k="waterway" v="river" />
	</node>
	<node id="-360694" lat="62.167200002" lon="9.4850222274">
		<tag k="name" v="Skridubekken" />
		<tag k="ssr:stedsnr" v="375695" />
		<tag k="waterway" v="stream" />
	</node>
	<node id="-360181" lat="62.0453999977" lon="9.38716944198">
		<tag k="name" v="Steinbekken" />
		<tag k="ssr:stedsnr" v="678655" />
		<tag k="waterway" v="stream" />
	</node>
	<node id="-360692" lat="62.1334361134" lon="9.28046944541">
		<tag k="name" v="Løken" />
		<tag k="old_name" v="Løkjen" />
		<tag k="ssr:stedsnr" v="375644" />
		<tag k="waterway" v="river" />
	</node>
	<node id="-359806" lat="62.0024999974" lon="9.36489722561">
		<tag k="name" v="Stokkbekken" />
		<tag k="ssr:stedsnr" v="131310" />
		<tag k="waterway" v="stream" />
	</node>
	<node id="-360177" lat="62.2471546978" lon="9.33013304738">
		<tag k="name" v="Veslvatnet" />
		<tag k="natural" v="water" />
		<tag k="ssr:stedsnr" v="678524" />
	</node>
	<node id="-360685" lat="62.2427055576" lon="9.51568611912">
		<tag k="name" v="Svone" />
		<tag k="ssr:stedsnr" v="375461" />
		<tag k="waterway" v="river" />
	</node>
	<node id="-360683" lat="61.9887527747" lon="9.2029694444">
		<tag k="name" v="Ragnhildbekken" />
		<tag k="ssr:stedsnr" v="375138" />
		<tag k="waterway" v="stream" />
	</node>
	<node id="-360682" lat="61.9789361112" lon="9.32004721812">
		<tag k="name" v="Gammelsæterbekken" />
		<tag k="ssr:stedsnr" v="374935" />
		<tag k="waterway" v="stream" />
	</node>
	<node id="-360677" lat="62.1870666643" lon="9.49703888703">
		<tag k="name" v="Lonin" />
		<tag k="place" v="locality" />
		<tag k="ssr:stedsnr" v="374734" />
	</node>
	<node id="-360675" lat="61.993716668" lon="9.62526110988">
		<tag k="name" v="Ytre Djupdalsbekken" />
		<tag k="ssr:stedsnr" v="374683" />
		<tag k="waterway" v="stream" />
	</node>
	<node id="-360670" lat="62.046263887" lon="9.36064444691">
		<tag k="alt_name" v="Karrhustjørni" />
		<tag k="name" v="Karrustjern" />
		<tag k="natural" v="water" />
		<tag k="ssr:stedsnr" v="374649" />
	</node>
	<node id="-360151" lat="62.2152250033" lon="9.37530555061">
		<tag k="name" v="Grisungbekken" />
		<tag k="ssr:stedsnr" v="617762" />
		<tag k="waterway" v="river" />
	</node>
	<node id="-360657" lat="62.1045416704" lon="9.18671666508">
		<tag k="name" v="Stormyrbekken" />
		<tag k="ssr:stedsnr" v="354988" />
		<tag k="waterway" v="stream" />
	</node>
	<node id="-360824" lat="62.2574833351" lon="9.39533611395">
		<tag k="name" v="Einøvlingsbekken" />
		<tag k="ssr:stedsnr" v="557493" />
		<tag k="waterway" v="stream" />
	</node>
	<node id="-360049" lat="62.2071888898" lon="9.59421666258">
		<tag k="name" v="Strypbekken" />
		<tag k="ssr:stedsnr" v="678739" />
		<tag k="waterway" v="stream" />
	</node>
	<node id="-360135" lat="61.9105388913" lon="9.3619472165">
		<tag k="name" v="Kvennbekken" />
		<tag k="ssr:stedsnr" v="718751" />
		<tag k="waterway" v="stream" />
	</node>
	<node id="-360642" lat="62.0517472235" lon="9.57461389062">
		<tag k="name" v="Freksbekken" />
		<tag k="ssr:stedsnr" v="354284" />
		<tag k="waterway" v="stream" />
	</node>
	<node id="-360641" lat="62.1040611083" lon="9.12634166131">
		<tag k="name" v="Vassholet" />
		<tag k="natural" v="spring" />
		<tag k="ssr:stedsnr" v="354125" />
	</node>
	<node id="-360294" lat="61.9954972196" lon="9.29534999776">
		<tag k="alt_name" v="Tungåe" />
		<tag k="name" v="Vesleåa" />
		<tag k="ssr:stedsnr" v="800365" />
		<tag k="waterway" v="stream" />
	</node>
	<node id="-361017" lat="61.981238886" lon="9.40975555959">
		<tag k="name" v="Ryddølstjønne" />
		<tag k="natural" v="water" />
		<tag k="ssr:stedsnr" v="800927" />
	</node>
	<node id="-360761" lat="62.1296250007" lon="9.35120000447">
		<tag k="name" v="Storhusbekken" />
		<tag k="ssr:stedsnr" v="436658" />
		<tag k="waterway" v="stream" />
	</node>
	<node id="-360623" lat="62.281747223" lon="9.73704166035">
		<tag k="name" v="Skridulaupbekken" />
		<tag k="ssr:stedsnr" v="315677" />
		<tag k="waterway" v="stream" />
	</node>
	<node id="-360110" lat="62.0836138861" lon="9.18869445273">
		<tag k="name" v="Skrebekken" />
		<tag k="ssr:stedsnr" v="718109" />
		<tag k="waterway" v="stream" />
	</node>
	<node id="-360239" lat="62.1227590408" lon="9.17983696435">
		<tag k="alt_name" v="Lomtjørni" />
		<tag k="name" v="Lomtjønn" />
		<tag k="natural" v="water" />
		<tag k="ssr:stedsnr" v="739860" />
	</node>
	<node id="-360829" lat="62.1334083324" lon="9.26259999297">
		<tag k="name" v="Vesltjønn" />
		<tag k="natural" v="water" />
		<tag k="ssr:stedsnr" v="557638" />
	</node>
	<node id="-360619" lat="61.9161305568" lon="9.39052221783">
>>>>>>> e1d4bc35ff8a6074a6f2e91616a996b547c36f15
		<tag k="name" v="Kvennbekken" />
		<tag k="ssr:stedsnr" v="718751" />
		<tag k="waterway" v="stream" />
	</node>
<<<<<<< HEAD
	<node lat="61.93939909463405" lon="9.168865778934899" id="-20893">
		<tag k="name" v="Øyadalsbekken" />
		<tag k="ssr:stedsnr" v="738145" />
		<tag k="waterway" v="river" />
	</node>
	<node lat="62.078833331690504" lon="10.055297222417652" id="-20894">
		<tag k="name" v="Grimse" />
		<tag k="ssr:stedsnr" v="738380" />
		<tag k="waterway" v="river" />
	</node>
	<node lat="62.058947225561546" lon="9.91949443655044" id="-20896">
		<tag k="name" v="Svartdalsbekken" />
		<tag k="ssr:stedsnr" v="738384" />
		<tag k="waterway" v="stream" />
	</node>
	<node lat="62.23454999970459" lon="9.699258342032147" id="-20897">
		<tag k="name" v="Kvita" />
		<tag k="ssr:stedsnr" v="738485" />
		<tag k="waterway" v="river" />
	</node>
	<node lat="62.201661111389626" lon="9.631516673410996" id="-20902">
		<tag k="name" v="Holtjønne" />
		<tag k="natural" v="water" />
		<tag k="ssr:stedsnr" v="738734" />
	</node>
	<node lat="62.054891666323975" lon="9.35240277769561" id="-20903">
		<tag k="name" v="Tverråkvislin" />
		<tag k="ssr:stedsnr" v="738649" />
		<tag k="waterway" v="stream" />
	</node>
	<node lat="62.039872223394845" lon="9.531288897423723" id="-20905">
		<tag k="name" v="Ytre Bottjønne" />
=======
	<node id="-360616" lat="62.1510429742" lon="9.6021059627">
		<tag k="name" v="Veslhjerkinnstjønnin" />
		<tag k="natural" v="water" />
		<tag k="ssr:stedsnr" v="314700" />
		<tag k="water" v="lake" />
	</node>
	<node id="-360103" lat="62.1055555517" lon="9.11339167354">
		<tag k="name" v="Kubåsbekken" />
		<tag k="ssr:stedsnr" v="595846" />
		<tag k="waterway" v="stream" />
	</node>
	<node id="-360613" lat="62.1415916672" lon="9.40358888516">
		<tag k="name" v="Haukbekken" />
		<tag k="ssr:stedsnr" v="314697" />
		<tag k="waterway" v="stream" />
	</node>
	<node id="-360099" lat="62.1498833312" lon="9.32799444823">
		<tag k="name" v="Veslåe" />
		<tag k="ssr:stedsnr" v="557655" />
		<tag k="waterway" v="river" />
	</node>
	<node id="-360097" lat="61.9495138861" lon="9.23880276894">
		<tag k="name" v="Musbekken" />
		<tag k="ssr:stedsnr" v="556919" />
		<tag k="waterway" v="stream" />
	</node>
	<node id="-360560" lat="61.9697583355" lon="9.7020555598">
		<tag k="name" v="Ragnhildstadbekken" />
		<tag k="ssr:stedsnr" v="192669" />
		<tag k="waterway" v="stream" />
	</node>
	<node id="-360605" lat="61.9708833368" lon="9.63199999732">
		<tag k="name" v="Langfonnskridu" />
		<tag k="ssr:stedsnr" v="314644" />
		<tag k="waterway" v="stream" />
	</node>
	<node id="-360603" lat="62.2431709593" lon="9.34280290259">
		<tag k="name" v="Einøvlingsvatnet" />
>>>>>>> e1d4bc35ff8a6074a6f2e91616a996b547c36f15
		<tag k="natural" v="water" />
		<tag k="ssr:stedsnr" v="738658" />
	</node>
<<<<<<< HEAD
	<node lat="62.08216388991649" lon="9.452561112617687" id="-20906">
		<tag k="name" v="Verkjesåe" />
		<tag k="ssr:stedsnr" v="738675" />
		<tag k="waterway" v="river" />
	</node>
	<node lat="62.21381666967608" lon="9.532402769380285" id="-20909">
		<tag k="name" v="Geitbergtjønne" />
=======
	<node id="-359993" lat="61.9320111093" lon="9.34809999518">
		<tag k="name" v="Ryddølsåe" />
		<tag k="ssr:stedsnr" v="375907" />
		<tag k="waterway" v="stream" />
	</node>
	<node id="-361113" lat="61.9393990946" lon="9.16886577893">
		<tag k="name" v="Øyadalsbekken" />
		<tag k="ssr:stedsnr" v="738145" />
		<tag k="waterway" v="river" />
	</node>
	<node id="-360217" lat="62.0360194435" lon="9.35428055653">
		<tag k="name" v="Svartbekken" />
		<tag k="ssr:stedsnr" v="900986" />
		<tag k="waterway" v="stream" />
	</node>
	<node id="-360387" lat="62.2893750036" lon="9.44030278167">
		<tag k="name" v="Kollbekken" />
		<tag k="ssr:stedsnr" v="11552" />
		<tag k="waterway" v="stream" />
	</node>
	<node id="-360592" lat="61.9641111104" lon="9.35750278029">
		<tag k="name" v="Måsåhustjønne" />
>>>>>>> e1d4bc35ff8a6074a6f2e91616a996b547c36f15
		<tag k="natural" v="water" />
		<tag k="ssr:stedsnr" v="738745" />
	</node>
<<<<<<< HEAD
	<node lat="61.98249166913643" lon="9.200486112964983" id="-20912">
		<tag k="name" v="Breiddalsbekken" />
		<tag k="ssr:stedsnr" v="739160" />
		<tag k="waterway" v="stream" />
	</node>
	<node lat="62.27327499587124" lon="9.708647225415621" id="-20923">
		<tag k="name" v="Knutshøbekken" />
		<tag k="ssr:stedsnr" v="739518" />
		<tag k="waterway" v="stream" />
	</node>
	<node lat="62.183897225313906" lon="9.494399997576929" id="-20926">
		<tag k="name" v="Burtjønne" />
=======
	<node id="-360472" lat="62.0854555517" lon="9.09953611749">
		<tag k="name" v="Simensrudfallet" />
		<tag k="ssr:stedsnr" v="111749" />
		<tag k="waterway" v="rapids" />
	</node>
	<node id="-360076" lat="62.167227775" lon="9.51478055261">
		<tag k="alt_name" v="Hytt" />
		<tag k="name" v="Hytthaugbekken" />
		<tag k="ssr:stedsnr" v="496712" />
		<tag k="waterway" v="stream" />
	</node>
	<node id="-360521" lat="62.127544448" lon="9.51545278414">
		<tag k="name" v="Gautåe" />
		<tag k="ssr:stedsnr" v="132688" />
		<tag k="waterway" v="river" />
	</node>
	<node id="-360586" lat="62.1414333318" lon="9.3217833296">
		<tag k="name" v="Steintjønne" />
>>>>>>> e1d4bc35ff8a6074a6f2e91616a996b547c36f15
		<tag k="natural" v="water" />
		<tag k="ssr:stedsnr" v="739700" />
	</node>
<<<<<<< HEAD
	<node lat="62.12275904077875" lon="9.179836964346581" id="-20927">
		<tag k="alt_name" v="Lomtjørni" />
		<tag k="name" v="Lomtjønn" />
		<tag k="natural" v="water" />
		<tag k="ssr:stedsnr" v="739860" />
	</node>
	<node lat="61.95027500004629" lon="9.254400006493034" id="-20930">
		<tag k="name" v="Ilka" />
		<tag k="ssr:stedsnr" v="739907" />
		<tag k="waterway" v="river" />
	</node>
	<node lat="61.98208333171568" lon="9.354047231458603" id="-20931">
		<tag k="name" v="Nysæterbekken" />
		<tag k="ssr:stedsnr" v="739914" />
		<tag k="waterway" v="stream" />
	</node>
	<node lat="61.979900001138944" lon="9.35840277187097" id="-20932">
		<tag k="name" v="Kringlotbekken" />
		<tag k="ssr:stedsnr" v="739917" />
		<tag k="waterway" v="stream" />
	</node>
	<node lat="62.01313888938021" lon="9.585694444371788" id="-20957">
		<tag k="name" v="Skortbekken" />
		<tag k="ssr:stedsnr" v="799656" />
		<tag k="waterway" v="stream" />
	</node>
	<node lat="62.066422224877336" lon="9.353002780586047" id="-20959">
		<tag k="name" v="Innare Tverråe" />
		<tag k="ssr:stedsnr" v="799668" />
		<tag k="waterway" v="stream" />
	</node>
	<node lat="61.92063055292222" lon="9.677319441168269" id="-20961">
		<tag k="name" v="Verkilsåe" />
		<tag k="ssr:stedsnr" v="799678" />
		<tag k="waterway" v="stream" />
	</node>
	<node lat="62.21539722604804" lon="9.406247216796327" id="-20973">
		<tag k="name" v="Grisungtjørni" />
		<tag k="natural" v="water" />
		<tag k="ssr:stedsnr" v="799767" />
	</node>
	<node lat="61.995497219646964" lon="9.29534999776448" id="-20977">
		<tag k="alt_name" v="Tungåe" />
		<tag k="name" v="Vesleåa" />
		<tag k="ssr:stedsnr" v="800365" />
		<tag k="waterway" v="stream" />
	</node>
	<node lat="61.995105556334096" lon="9.36233055962065" id="-20979">
		<tag k="name" v="Stavåstjønne" />
=======
	<node id="-360066" lat="62.2483944424" lon="9.46486944187">
		<tag k="name" v="Tjønnhøbekken" />
		<tag k="ssr:stedsnr" v="496537" />
		<tag k="waterway" v="stream" />
	</node>
	<node id="-360811" lat="62.076299996" lon="9.83200555269">
		<tag k="name" v="Streitbekken" />
		<tag k="ssr:stedsnr" v="556434" />
		<tag k="waterway" v="stream" />
	</node>
	<node id="-360573" lat="62.3076972192" lon="9.34115000334">
		<tag k="name" v="Stridåtjørnin" />
		<tag k="natural" v="water" />
		<tag k="ssr:stedsnr" v="193558" />
		<tag k="water" v="lake" />
	</node>
	<node id="-360572" lat="62.3278695256" lon="9.23326144318">
		<tag k="loc_name" v="Larstjønnin" />
		<tag k="name" v="Larstjørnin" />
>>>>>>> e1d4bc35ff8a6074a6f2e91616a996b547c36f15
		<tag k="natural" v="water" />
		<tag k="ssr:stedsnr" v="800373" />
	</node>
<<<<<<< HEAD
	<node lat="61.896916667406614" lon="9.3707027837543" id="-21001">
		<tag k="name" v="Øverjordsbekken" />
		<tag k="ssr:stedsnr" v="838972" />
		<tag k="waterway" v="stream" />
	</node>
	<node lat="62.17293333733474" lon="9.438708324332987" id="-21009">
		<tag k="name" v="Anfinnsosen" />
		<tag k="natural" v="bay" />
		<tag k="ssr:stedsnr" v="840490" />
	</node>
	<node lat="62.16541388468358" lon="9.3610527731464" id="-21010">
		<tag k="name" v="Nottjern" />
		<tag k="natural" v="water" />
		<tag k="ssr:stedsnr" v="840494" />
	</node>
	<node lat="62.0244833349638" lon="9.56045277047586" id="-21013">
		<tag k="name" v="Kroktjern" />
		<tag k="ssr:stedsnr" v="840548" />
		<tag k="waterway" v="stream" />
	</node>
	<node lat="62.073736113868854" lon="9.54173888299996" id="-21027">
		<tag k="name" v="Buåe" />
		<tag k="ssr:stedsnr" v="860716" />
		<tag k="waterway" v="river" />
	</node>
	<node lat="62.187780559022826" lon="9.388899998235278" id="-21028">
		<tag k="name" v="Kurraren" />
		<tag k="ssr:stedsnr" v="860736" />
		<tag k="waterway" v="stream" />
	</node>
	<node lat="62.277583331504474" lon="9.769349994273481" id="-21039">
		<tag k="name" v="Kvittjørnin" />
		<tag k="natural" v="water" />
		<tag k="ssr:stedsnr" v="861635" />
		<tag k="water" v="lake" />
	</node>
	<node lat="62.13730833229117" lon="9.609327778464703" id="-21040">
		<tag k="name" v="Tjønnbekken" />
		<tag k="ssr:stedsnr" v="861639" />
		<tag k="waterway" v="stream" />
	</node>
	<node lat="61.93046110786148" lon="9.290505553133555" id="-21047">
		<tag k="name" v="Statshaugbekken" />
		<tag k="ssr:stedsnr" v="887686" />
		<tag k="waterway" v="stream" />
	</node>
	<node lat="61.922161112696095" lon="9.342366661870729" id="-21048">
		<tag k="name" v="Rødølsodden" />
		<tag k="natural" v="cape" />
		<tag k="ssr:stedsnr" v="887694" />
	</node>
	<node lat="62.22936944363142" lon="9.58570277591674" id="-21063">
		<tag k="name" v="Sagbekken" />
		<tag k="ssr:stedsnr" v="961522" />
		<tag k="waterway" v="stream" />
=======
	<node id="-360554" lat="62.0941305549" lon="9.84637222695">
		<tag k="name" v="Streittjønne" />
		<tag k="natural" v="water" />
		<tag k="ssr:stedsnr" v="192521" />
	</node>
	<node id="-361065" lat="62.2775833315" lon="9.76934999427">
		<tag k="name" v="Kvittjørnin" />
		<tag k="natural" v="water" />
		<tag k="ssr:stedsnr" v="861635" />
		<tag k="water" v="lake" />
	</node>
	<node id="-360563" lat="62.0707500011" lon="9.6754305624">
		<tag k="alt_name" v="Skriubekken" />
		<tag k="name" v="Skridubekken" />
		<tag k="ssr:stedsnr" v="192681" />
		<tag k="waterway" v="stream" />
	</node>
	<node id="-360561" lat="61.9845027745" lon="9.75901387951">
		<tag k="name" v="Gammalbubekken" />
		<tag k="ssr:stedsnr" v="192670" />
		<tag k="waterway" v="stream" />
	</node>
	<node id="-360048" lat="62.2072472206" lon="9.65067778415">
		<tag k="name" v="Børsungbekken" />
		<tag k="ssr:stedsnr" v="678735" />
		<tag k="waterway" v="stream" />
	</node>
	<node id="-360047" lat="62.2095861116" lon="9.59361944167">
		<tag k="alt_name" v="Hjerkinndammen" />
		<tag k="name" v="Hjerkinnsdammen" />
		<tag k="ssr:stedsnr" v="678725" />
		<tag k="waterway" v="dam" />
	</node>
	<node id="-360045" lat="62.0996361085" lon="9.63703333964">
		<tag k="name" v="Tverråe" />
		<tag k="ssr:stedsnr" v="678689" />
		<tag k="waterway" v="river" />
	</node>
	<node id="-361066" lat="62.1373083323" lon="9.60932777846">
		<tag k="name" v="Tjønnbekken" />
		<tag k="ssr:stedsnr" v="861639" />
		<tag k="waterway" v="stream" />
	</node>
	<node id="-360041" lat="61.9380777735" lon="9.70553888587">
		<tag k="name" v="Langholskridu" />
		<tag k="ssr:stedsnr" v="678649" />
		<tag k="waterway" v="stream" />
	</node>
	<node id="-360040" lat="61.9611916627" lon="9.78387499091">
		<tag k="name" v="Bergedalsbekken" />
		<tag k="ssr:stedsnr" v="678646" />
		<tag k="waterway" v="stream" />
	</node>
	<node id="-360038" lat="61.96015" lon="9.69870277819">
		<tag k="name" v="Vassbekken" />
		<tag k="ssr:stedsnr" v="678641" />
		<tag k="waterway" v="stream" />
	</node>
	<node id="-359782" lat="62.1983667354" lon="9.61179363543">
		<tag k="name" v="Tåtefttjønne" />
		<tag k="natural" v="water" />
		<tag k="ssr:stedsnr" v="253770" />
	</node>
	<node id="-360545" lat="61.9869472214" lon="9.26336666245">
		<tag k="name" v="Dragåa" />
		<tag k="ssr:stedsnr" v="172565" />
		<tag k="waterway" v="river" />
	</node>
	<node id="-360559" lat="61.9773444417" lon="9.8482666586">
		<tag k="name" v="Neverbutjønne" />
		<tag k="natural" v="water" />
		<tag k="ssr:stedsnr" v="192667" />
	</node>
	<node id="-359991" lat="62.1573999978" lon="9.3677583414">
		<tag k="name" v="Furuhaugbekken" />
		<tag k="ssr:stedsnr" v="375673" />
		<tag k="waterway" v="stream" />
	</node>
	<node id="-361054" lat="62.187780559" lon="9.38889999824">
		<tag k="name" v="Kurraren" />
		<tag k="ssr:stedsnr" v="860736" />
		<tag k="waterway" v="stream" />
	</node>
	<node id="-359727" lat="62.1929694443" lon="9.51567777464">
		<tag k="name" v="Langosen" />
		<tag k="natural" v="bay" />
		<tag k="ssr:stedsnr" v="233281" />
	</node>
	<node id="-360028" lat="62.0101416693" lon="9.65157778711">
		<tag k="name" v="Skriubekken" />
		<tag k="ssr:stedsnr" v="658554" />
		<tag k="waterway" v="stream" />
	</node>
	<node id="-361051" lat="61.9802638852" lon="9.80712777052">
		<tag k="name" v="Vidjedalsbekken" />
		<tag k="ssr:stedsnr" v="860680" />
		<tag k="waterway" v="stream" />
	</node>
	<node id="-359877" lat="62.101299996" lon="9.17468332862">
		<tag k="name" v="Stakstobekken" />
		<tag k="ssr:stedsnr" v="294098" />
		<tag k="waterway" v="stream" />
	</node>
	<node id="-360278" lat="61.9504305524" lon="9.47100554812">
		<tag k="name" v="Rundtjønne" />
		<tag k="natural" v="water" />
		<tag k="ssr:stedsnr" v="921893" />
	</node>
	<node id="-361036" lat="62.024483335" lon="9.56045277048">
		<tag k="name" v="Kroktjern" />
		<tag k="ssr:stedsnr" v="840548" />
		<tag k="waterway" v="stream" />
	</node>
	<node id="-361033" lat="62.1654138847" lon="9.36105277315">
		<tag k="name" v="Nottjern" />
		<tag k="natural" v="water" />
		<tag k="ssr:stedsnr" v="840494" />
	</node>
	<node id="-360520" lat="62.1310163216" lon="9.29881881161">
		<tag k="name" v="Urdbekktjønnin" />
		<tag k="natural" v="water" />
		<tag k="ssr:stedsnr" v="132687" />
		<tag k="water" v="lake" />
	</node>
	<node id="-360007" lat="62.1908527785" lon="9.50901943888">
		<tag k="name" v="Folla" />
		<tag k="ssr:stedsnr" v="435746" />
		<tag k="waterway" v="river" />
	</node>
	<node id="-360006" lat="62.1944861144" lon="9.52733056429">
		<tag k="alt_name" v="Heglingen" />
		<tag k="name" v="Hegglingen" />
		<tag k="natural" v="water" />
		<tag k="ssr:stedsnr" v="435740" />
	</node>
	<node id="-361029" lat="62.1018194475" lon="9.76422500018">
		<tag k="name" v="Meseterbekken" />
		<tag k="ssr:stedsnr" v="840286" />
		<tag k="waterway" v="stream" />
	</node>
	<node id="-361027" lat="61.8969166674" lon="9.37070278375">
		<tag k="name" v="Øverjordsbekken" />
		<tag k="ssr:stedsnr" v="838972" />
		<tag k="waterway" v="stream" />
	</node>
	<node id="-360513" lat="62.0569999976" lon="9.19843055595">
		<tag k="alt_name" v="Storhaugtjern" />
		<tag k="name" v="Storhaugtjørni" />
		<tag k="natural" v="water" />
		<tag k="ssr:stedsnr" v="132568" />
	</node>
	<node id="-360000" lat="62.2026694466" lon="9.59390278551">
		<tag k="name" v="Myrbærtjønne" />
		<tag k="natural" v="water" />
		<tag k="ssr:stedsnr" v="507844" />
	</node>
	<node id="-360032" lat="62.0716361114" lon="9.19372500748">
		<tag k="name" v="Skrebekktjørni" />
		<tag k="natural" v="water" />
		<tag k="ssr:stedsnr" v="678581" />
	</node>
	<node id="-360885" lat="62.2407999966" lon="9.4198500079">
		<tag k="name" v="Storkvølvbekken" />
		<tag k="ssr:stedsnr" v="617533" />
		<tag k="waterway" v="stream" />
	</node>
	<node id="-360505" lat="61.2327416711" lon="10.437061112">
		<tag k="loc_name" v="Gudbrandsdalslågen" />
		<tag k="name" v="Lågen" />
		<tag k="ssr:stedsnr" v="129173" />
		<tag k="waterway" v="river" />
	</node>
	<node id="-359992" lat="62.1593638902" lon="9.44495555827">
		<tag k="alt_name" v="Haukskardåe" />
		<tag k="name" v="Haukåi" />
		<tag k="ssr:stedsnr" v="375676" />
		<tag k="waterway" v="river" />
	</node>
	<node id="-360884" lat="62.2287622176" lon="9.6203298271">
		<tag k="name" v="Skardstjønne" />
		<tag k="natural" v="water" />
		<tag k="ssr:stedsnr" v="617529" />
	</node>
	<node id="-361011" lat="62.1513499959" lon="9.42386667115">
		<tag k="name" v="Haukskardtjørni" />
		<tag k="natural" v="water" />
		<tag k="ssr:stedsnr" v="800681" />
	</node>
	<node id="-359985" lat="61.9280666706" lon="9.70963056295">
		<tag k="name" v="Langholvatnet" />
		<tag k="natural" v="water" />
		<tag k="ssr:stedsnr" v="374652" />
	</node>
	<node id="-361053" lat="62.0737361139" lon="9.541738883">
		<tag k="name" v="Buåe" />
		<tag k="ssr:stedsnr" v="860716" />
		<tag k="waterway" v="river" />
	</node>
	<node id="-359979" lat="61.9042527756" lon="9.40367499721">
		<tag k="name" v="Storrustbekken" />
		<tag k="ssr:stedsnr" v="496982" />
		<tag k="waterway" v="stream" />
	</node>
	<node id="-360484" lat="61.9555000033" lon="9.36396943633">
		<tag k="name" v="Måsåhusbekken" />
		<tag k="ssr:stedsnr" v="111812" />
		<tag k="waterway" v="stream" />
	</node>
	<node id="-359969" lat="62.0248638932" lon="9.11699445127">
		<tag k="name" v="Tungbekken" />
		<tag k="ssr:stedsnr" v="496563" />
		<tag k="waterway" v="stream" />
	</node>
	<node id="-359967" lat="62.0131416697" lon="9.13591388159">
		<tag k="alt_name" v="Manningåa" />
		<tag k="name" v="Maningi" />
		<tag k="ssr:stedsnr" v="496554" />
		<tag k="waterway" v="river" />
	</node>
	<node id="-360990" lat="61.9206305529" lon="9.67731944117">
		<tag k="name" v="Verkilsåe" />
		<tag k="ssr:stedsnr" v="799678" />
		<tag k="waterway" v="stream" />
	</node>
	<node id="-360988" lat="62.0664222249" lon="9.35300278059">
		<tag k="name" v="Innare Tverråe" />
		<tag k="ssr:stedsnr" v="799668" />
		<tag k="waterway" v="stream" />
	</node>
	<node id="-360986" lat="62.0131388894" lon="9.58569444437">
		<tag k="name" v="Skortbekken" />
		<tag k="ssr:stedsnr" v="799656" />
		<tag k="waterway" v="stream" />
	</node>
	<node id="-360879" lat="62.0298083297" lon="9.31492778147">
		<tag k="name" v="Einbugga" />
		<tag k="ssr:stedsnr" v="617634" />
		<tag k="waterway" v="river" />
	</node>
	<node id="-359960" lat="61.9612749992" lon="9.67880277001">
		<tag k="name" v="Dørålsvatnet" />
		<tag k="natural" v="water" />
		<tag k="ssr:stedsnr" v="495643" />
>>>>>>> e1d4bc35ff8a6074a6f2e91616a996b547c36f15
	</node>
	<node id="-360469" lat="62.2188222228" lon="9.324994439">
		<tag k="name" v="Svartbergbekken" />
		<tag k="ssr:stedsnr" v="83926" />
		<tag k="waterway" v="stream" />
	</node>
	<node id="-360622" lat="62.2518749984" lon="9.66690832373">
		<tag k="alt_name" v="Kvitdalsvatnet, s" />
		<tag k="name" v="Søre Kvitdalsvatnet" />
		<tag k="natural" v="water" />
		<tag k="ssr:stedsnr" v="315492" />
		<tag k="water" v="lake" />
	</node>
	<node id="-360466" lat="61.9418743359" lon="9.4329122511">
		<tag k="name" v="Turrtjønnin" />
		<tag k="natural" v="water" />
		<tag k="ssr:stedsnr" v="72888" />
		<tag k="water" v="lake" />
	</node>
	<node id="-360462" lat="61.9209499982" lon="9.29127500609">
		<tag k="name" v="Langbekken" />
		<tag k="ssr:stedsnr" v="72876" />
		<tag k="waterway" v="stream" />
	</node>
	<node id="-359972" lat="62.042769447" lon="9.08362499264">
		<tag k="alt_name" v="Djupdalsåa" />
		<tag k="name" v="Djupdalsåi" />
		<tag k="ssr:stedsnr" v="496580" />
		<tag k="waterway" v="stream" />
	</node>
	<node id="-360459" lat="62.1733879722" lon="9.38945578526">
		<tag k="name" v="Vålåsjøen" />
		<tag k="natural" v="water" />
		<tag k="old_name" v="Vålasjøen" />
		<tag k="ssr:stedsnr" v="72691" />
		<tag k="water" v="lake" />
	</node>
	<node id="-360458" lat="62.1650833372" lon="9.28357777592">
		<tag k="alt_name" v="Nyseterbekken" />
		<tag k="name" v="Sæterbekken" />
		<tag k="ssr:stedsnr" v="72687" />
		<tag k="waterway" v="stream" />
	</node>
	<node id="-360457" lat="62.1389638915" lon="9.23962500864">
		<tag k="name" v="Studulbekken" />
		<tag k="ssr:stedsnr" v="72674" />
		<tag k="waterway" v="stream" />
	</node>
	<node id="-359944" lat="62.1294944417" lon="9.2988888983">
		<tag k="name" v="Urdbekktjønn" />
		<tag k="ssr:stedsnr" v="475468" />
		<tag k="waterway" v="stream" />
	</node>
	<node id="-360454" lat="62.1087527796" lon="9.69331388401">
		<tag k="alt_name" v="Tverrlibekken" />
		<tag k="name" v="Tverrbekken" />
		<tag k="ssr:stedsnr" v="72636" />
		<tag k="waterway" v="river" />
	</node>
	<node id="-360452" lat="62.1042416691" lon="9.24688889018">
		<tag k="name" v="Gorbekken" />
		<tag k="ssr:stedsnr" v="72633" />
		<tag k="waterway" v="stream" />
	</node>
	<node id="-359939" lat="62.0188611074" lon="9.15063332889">
		<tag k="name" v="Storfallet" />
		<tag k="natural" v="waterfall" />
		<tag k="ssr:stedsnr" v="475344" />
	</node>
</osm>
