<?xml version="1.0" encoding="UTF-8"?>
<osm generator="osmapis" version="0.6">
	<node id="-738302" lat="68.6020166691" lon="17.7813916632">
		<tag k="name" v="Britavatnet" />
		<tag k="natural" v="water" />
		<tag k="ssr:stedsnr" v="563535" />
	</node>
	<node id="-738291" lat="68.6875388861" lon="17.6781444519">
		<tag k="name" v="Blåelva" />
		<tag k="ssr:stedsnr" v="536342" />
		<tag k="waterway" v="stream" />
	</node>
	<node id="-738289" lat="68.6762277739" lon="17.6220944406">
		<tag k="name" v="Gardselva" />
		<tag k="ssr:stedsnr" v="536321" />
		<tag k="waterway" v="stream" />
	</node>
	<node id="-738287" lat="68.8029666644" lon="17.404147222">
		<tag k="name" v="Bukkebakkelva" />
		<tag k="ssr:stedsnr" v="536277" />
		<tag k="waterway" v="stream" />
	</node>
	<node id="-738285" lat="68.7380916631" lon="17.4690805644">
		<tag k="name" v="Slåttelielva" />
		<tag k="ssr:stedsnr" v="536253" />
		<tag k="waterway" v="stream" />
	</node>
	<node id="-738012" lat="68.5932555578" lon="17.64476389">
		<tag k="name" v="Kvanndalkroelva" />
		<tag k="ssr:stedsnr" v="78541" />
		<tag k="waterway" v="stream" />
	</node>
	<node id="-738258" lat="68.6725611159" lon="17.5420499937">
		<tag k="alt_name" v="Molvikelva" />
		<tag k="name" v="Mollvikelva" />
		<tag k="ssr:stedsnr" v="503580" />
		<tag k="waterway" v="stream" />
	</node>
	<node id="-738257" lat="68.6699861064" lon="17.6270555595">
		<tag k="name" v="Grimjordelva" />
		<tag k="ssr:stedsnr" v="503579" />
		<tag k="waterway" v="stream" />
	</node>
	<node id="-738255" lat="68.6517499984" lon="17.6546722271">
		<tag k="name" v="Tverrelva" />
		<tag k="ssr:stedsnr" v="503567" />
		<tag k="waterway" v="stream" />
	</node>
	<node id="-738254" lat="68.6585166696" lon="17.5306722264">
		<tag k="name" v="Storelva" />
		<tag k="ssr:stedsnr" v="503562" />
		<tag k="waterway" v="stream" />
	</node>
	<node id="-738252" lat="68.6807694464" lon="17.5838027735">
		<tag k="name" v="Høgdelva" />
		<tag k="ssr:stedsnr" v="503543" />
		<tag k="waterway" v="stream" />
	</node>
	<node id="-738248" lat="68.6130444426" lon="17.6155805476">
		<tag k="name" v="Guksejávrrit" />
		<tag k="name:se" v="Guksejávrrit" />
		<tag k="natural" v="water" />
		<tag k="old_name:se" v="Guksejavrit" />
		<tag k="ssr:stedsnr" v="503522" />
		<tag k="water" v="lake" />
	</node>
	<node id="-738244" lat="68.6159777818" lon="17.6496055487">
		<tag k="name" v="Storvatnet" />
		<tag k="natural" v="water" />
		<tag k="ssr:stedsnr" v="503477" />
		<tag k="water" v="lake" />
	</node>
	<node id="-738243" lat="68.6282250036" lon="17.6959916741">
		<tag k="name" v="Litjevasselva" />
		<tag k="ssr:stedsnr" v="503469" />
		<tag k="waterway" v="stream" />
	</node>
	<node id="-738234" lat="68.7066472261" lon="17.3926638956">
		<tag k="alt_name" v="Langevatnet" />
		<tag k="name" v="Langvatnet" />
		<tag k="natural" v="water" />
		<tag k="ssr:stedsnr" v="445955" />
	</node>
	<node id="-738230" lat="68.6334500026" lon="17.729136099">
		<tag k="alt_name:no" v="Skoltelva" />
		<tag k="name" v="Skolteelva - Skultetjohka" />
		<tag k="name:no" v="Skolteelva" />
		<tag k="name:se" v="Skultetjohka" />
		<tag k="ssr:stedsnr" v="443526" />
		<tag k="waterway" v="stream" />
	</node>
	<node id="-738229" lat="68.6235999966" lon="17.6229777788">
		<tag k="name" v="Øsevatnet" />
		<tag k="natural" v="water" />
		<tag k="ssr:stedsnr" v="443516" />
		<tag k="water" v="lake" />
	</node>
	<node id="-738227" lat="68.7671166714" lon="17.362594434">
		<tag k="name" v="Løvdalselva" />
		<tag k="ssr:stedsnr" v="442956" />
		<tag k="waterway" v="river" />
	</node>
	<node id="-738222" lat="68.6564472199" lon="17.7028361145">
		<tag k="alt_name" v="Storforsen" />
		<tag k="name" v="Storfossen" />
		<tag k="natural" v="waterfall" />
		<tag k="ssr:stedsnr" v="442604" />
	</node>
	<node id="-738220" lat="68.6666333344" lon="17.7068277759">
		<tag k="loc_name:se" v="Skuhpijohka" />
		<tag k="name" v="Meelva" />
		<tag k="name:no" v="Meelva" />
		<tag k="ssr:stedsnr" v="442590" />
		<tag k="waterway" v="river" />
	</node>
	<node id="-738219" lat="68.7079611078" lon="17.4218444321">
		<tag k="name" v="Olinaelva" />
		<tag k="ssr:stedsnr" v="442578" />
		<tag k="waterway" v="stream" />
	</node>
	<node id="-738218" lat="68.6511499986" lon="17.5370583252">
		<tag k="name" v="Nilslabekken" />
		<tag k="ssr:stedsnr" v="442528" />
		<tag k="waterway" v="stream" />
	</node>
	<node id="-738217" lat="68.6539444419" lon="17.4898305446">
		<tag k="name" v="Tverrelva" />
		<tag k="ssr:stedsnr" v="442218" />
		<tag k="waterway" v="river" />
	</node>
	<node id="-738215" lat="68.747883332" lon="17.4417416716">
		<tag k="name" v="Steinbergselva" />
		<tag k="ssr:stedsnr" v="415519" />
		<tag k="waterway" v="stream" />
	</node>
	<node id="-738214" lat="68.6863944433" lon="17.382405556">
		<tag k="name" v="Nonsfjellelva" />
		<tag k="ssr:stedsnr" v="415511" />
		<tag k="waterway" v="stream" />
	</node>
	<node id="-738202" lat="68.7987305586" lon="17.3851416592">
		<tag k="name" v="Skjellelva" />
		<tag k="ssr:stedsnr" v="415295" />
		<tag k="waterway" v="stream" />
	</node>
	<node id="-738198" lat="68.7535388908" lon="17.2998916759">
		<tag k="name" v="Lielva" />
		<tag k="ssr:stedsnr" v="414388" />
		<tag k="waterway" v="stream" />
	</node>
	<node id="-737856" lat="68.7151444414" lon="17.1908694438">
		<tag k="name" v="Storelva" />
		<tag k="ssr:stedsnr" v="323965" />
		<tag k="waterway" v="stream" />
	</node>
	<node id="-738185" lat="68.6573888849" lon="17.5806444373">
		<tag k="alt_name" v="Klemmeselvvatnet, nedre" />
		<tag k="name" v="Nedre Klemmeselvvatnet" />
		<tag k="natural" v="water" />
		<tag k="ssr:stedsnr" v="260616" />
	</node>
	<node id="-738181" lat="68.6072666675" lon="17.6234527853">
		<tag k="name" v="Langvatnet" />
		<tag k="natural" v="water" />
		<tag k="ssr:stedsnr" v="260569" />
		<tag k="water" v="lake" />
	</node>
	<node id="-738176" lat="68.6735000044" lon="17.7357944319">
		<tag k="name" v="Storslettelva" />
		<tag k="ssr:stedsnr" v="233385" />
		<tag k="waterway" v="stream" />
	</node>
	<node id="-738175" lat="68.6984138872" lon="17.5165555424">
		<tag k="name" v="Stielva" />
		<tag k="ssr:stedsnr" v="233383" />
		<tag k="waterway" v="stream" />
	</node>
	<node id="-738174" lat="68.8100166649" lon="17.4423166755">
		<tag k="name" v="Holmen" />
		<tag k="natural" v="cape" />
		<tag k="ssr:stedsnr" v="233332" />
	</node>
	<node id="-738024" lat="68.6343972185" lon="17.4705861158">
		<tag k="name" v="Blåvatnet" />
		<tag k="natural" v="water" />
		<tag k="ssr:stedsnr" v="79486" />
	</node>
	<node id="-738158" lat="68.810780552" lon="17.4232749962">
		<tag k="name" v="Loftelva" />
		<tag k="ssr:stedsnr" v="231821" />
		<tag k="waterway" v="stream" />
	</node>
	<node id="-738146" lat="68.7187888894" lon="17.3192611035">
		<tag k="alt_name" v="Åmundvikelva" />
		<tag k="name" v="Åmundsvikelva" />
		<tag k="ssr:stedsnr" v="202975" />
		<tag k="waterway" v="stream" />
	</node>
	<node id="-738145" lat="68.7187250022" lon="17.2629194527">
		<tag k="name" v="Hilleshamnvatnet - Hilssájávri" />
		<tag k="name:no" v="Hilleshamnvatnet" />
		<tag k="name:se" v="Hilssájávri" />
		<tag k="natural" v="water" />
		<tag k="ssr:stedsnr" v="202970" />
	</node>
	<node id="-738144" lat="68.7171194424" lon="17.4015444458">
		<tag k="loc_name:se" v="Čuvvájohka" />
		<tag k="name" v="Tjuvskjærelva" />
		<tag k="name:no" v="Tjuvskjærelva" />
		<tag k="ssr:stedsnr" v="202969" />
		<tag k="waterway" v="stream" />
	</node>
	<node id="-738140" lat="68.6396777792" lon="17.6794416555">
		<tag k="alt_name" v="Coardaelva" />
		<tag k="name" v="Kjårdaelva" />
		<tag k="ssr:stedsnr" v="200549" />
		<tag k="waterway" v="river" />
	</node>
	<node id="-738139" lat="68.6321583318" lon="17.7229944463">
		<tag k="alt_name" v="Skjelelva" />
		<tag k="name" v="Skjellelva" />
		<tag k="ssr:stedsnr" v="200546" />
		<tag k="waterway" v="stream" />
	</node>
	<node id="-738127" lat="68.6095583326" lon="17.6341222074">
		<tag k="alt_name" v="Dauvatnet" />
		<tag k="name" v="Daudvatnet" />
		<tag k="natural" v="water" />
		<tag k="ssr:stedsnr" v="199550" />
	</node>
	<node id="-738125" lat="68.6134861103" lon="17.6270083367">
		<tag k="name" v="Henrikkjølen" />
		<tag k="natural" v="cape" />
		<tag k="ssr:stedsnr" v="199504" />
	</node>
	<node id="-738113" lat="68.6477777794" lon="17.7630972324">
		<tag k="name" v="Hulelva" />
		<tag k="ssr:stedsnr" v="172386" />
		<tag k="waterway" v="stream" />
	</node>
	<node id="-738105" lat="68.66543889" lon="17.5872333289">
		<tag k="name" v="Klubbevatnan" />
		<tag k="natural" v="water" />
		<tag k="ssr:stedsnr" v="172302" />
		<tag k="water" v="lake" />
	</node>
	<node id="-738103" lat="68.6325166648" lon="17.7720694309">
		<tag k="name" v="Lassaelva" />
		<tag k="ssr:stedsnr" v="172367" />
		<tag k="waterway" v="stream" />
	</node>
	<node id="-738099" lat="68.6668999961" lon="17.5996277733">
		<tag k="name" v="Lomvatnet" />
		<tag k="natural" v="water" />
		<tag k="ssr:stedsnr" v="172298" />
	</node>
	<node id="-738609" lat="68.6809777766" lon="17.4517972269">
		<tag k="name" v="Oselva" />
		<tag k="ssr:stedsnr" v="961483" />
		<tag k="waterway" v="stream" />
	</node>
	<node id="-738602" lat="68.6930027783" lon="17.5422999952">
		<tag k="name" v="Gårdselva" />
		<tag k="ssr:stedsnr" v="961351" />
		<tag k="waterway" v="stream" />
	</node>
	<node id="-738089" lat="68.7241999961" lon="17.2981527842">
		<tag k="name" v="Skarvberglemelva" />
		<tag k="ssr:stedsnr" v="171420" />
		<tag k="waterway" v="stream" />
	</node>
	<node id="-738087" lat="68.8118111152" lon="17.4277777694">
		<tag k="name" v="Gårdselva" />
		<tag k="ssr:stedsnr" v="170806" />
		<tag k="waterway" v="stream" />
	</node>
	<node id="-738097" lat="68.7899083349" lon="17.3724500011">
		<tag k="name" v="Gårdselva" />
		<tag k="ssr:stedsnr" v="172286" />
		<tag k="waterway" v="stream" />
	</node>
	<node id="-738011" lat="68.6418111087" lon="17.7552944363">
		<tag k="alt_name" v="Tverrelva" />
		<tag k="name" v="Ytre Tverrelva" />
		<tag k="ssr:stedsnr" v="78195" />
		<tag k="waterway" v="stream" />
	</node>
	<node id="-738588" lat="68.7321111099" lon="17.4643138922">
		<tag k="name" v="Strandhagen" />
		<tag k="natural" v="beach" />
		<tag k="ssr:stedsnr" v="940793" />
	</node>
	<node id="-738010" lat="68.7065472186" lon="17.4873222138">
		<tag k="name" v="Mølnelva" />
		<tag k="ssr:stedsnr" v="51630" />
		<tag k="waterway" v="stream" />
	</node>
	<node id="-738074" lat="68.7463305528" lon="17.4758055525">
		<tag k="alt_name" v="Ytsteelva" />
		<tag k="name" v="Ystelielva" />
		<tag k="ssr:stedsnr" v="139700" />
		<tag k="waterway" v="stream" />
	</node>
	<node id="-737924" lat="68.6251055528" lon="17.7382805436">
		<tag k="name" v="Storfossen" />
		<tag k="natural" v="waterfall" />
		<tag k="ssr:stedsnr" v="475376" />
	</node>
	<node id="-738070" lat="68.6328388853" lon="17.6775916722">
		<tag k="alt_name" v="Reisevatnet" />
		<tag k="name" v="Reisvatnet" />
		<tag k="natural" v="water" />
		<tag k="ssr:stedsnr" v="139547" />
		<tag k="water" v="lake" />
	</node>
	<node id="-738068" lat="68.6472583296" lon="17.7904111085">
		<tag k="name" v="Lopmevatnan" />
		<tag k="natural" v="water" />
		<tag k="ssr:stedsnr" v="139536" />
	</node>
	<node id="-738064" lat="68.6712277779" lon="17.4113861065">
		<tag k="name" v="Dudalselva" />
		<tag k="ssr:stedsnr" v="138614" />
		<tag k="waterway" v="river" />
	</node>
	<node id="-738063" lat="68.676794446" lon="17.7904444524">
		<tag k="alt_name" v="Sølvelva, vestre" />
		<tag k="name" v="Vestre Sølvelva" />
		<tag k="ssr:stedsnr" v="138611" />
		<tag k="waterway" v="stream" />
	</node>
	<node id="-738573" lat="68.6898527805" lon="17.8090222197">
		<tag k="name" v="Sølvfjellvatnet" />
		<tag k="natural" v="water" />
		<tag k="ssr:stedsnr" v="928533" />
	</node>
	<node id="-738571" lat="68.6442499992" lon="17.6871305433">
		<tag k="name" v="Hestvatnet" />
		<tag k="natural" v="water" />
		<tag k="ssr:stedsnr" v="928476" />
		<tag k="water" v="lake" />
	</node>
	<node id="-738570" lat="68.6511333378" lon="17.7039444366">
		<tag k="name" v="Storelva" />
		<tag k="ssr:stedsnr" v="928168" />
		<tag k="waterway" v="river" />
	</node>
	<node id="-738569" lat="68.8153888867" lon="17.4400277851">
		<tag k="name" v="Storelva" />
		<tag k="ssr:stedsnr" v="901281" />
		<tag k="waterway" v="stream" />
	</node>
	<node id="-738553" lat="68.6876805544" lon="17.4201166616">
		<tag k="name" v="Hågelva" />
		<tag k="ssr:stedsnr" v="900477" />
		<tag k="waterway" v="stream" />
	</node>
	<node id="-738552" lat="68.6873250041" lon="17.4104555471">
		<tag k="name" v="Kattemoelva" />
		<tag k="ssr:stedsnr" v="900476" />
		<tag k="waterway" v="stream" />
	</node>
	<node id="-738037" lat="68.7960444485" lon="17.4158916655">
		<tag k="name" v="Tverrelva" />
		<tag k="ssr:stedsnr" v="112313" />
		<tag k="waterway" v="stream" />
	</node>
	<node id="-738036" lat="68.8135805562" lon="17.429583335">
		<tag k="name" v="Kaldbekken" />
		<tag k="ssr:stedsnr" v="110801" />
		<tag k="waterway" v="stream" />
	</node>
	<node id="-738029" lat="68.6905111075" lon="17.3554277843">
		<tag k="loc_name:se" v="Huvlajohka" />
		<tag k="name" v="Foldvikelva - Huvlláviikjohka" />
		<tag k="name:no" v="Foldvikelva" />
		<tag k="name:se" v="Huvlláviikjohka" />
		<tag k="ssr:stedsnr" v="81985" />
		<tag k="waterway" v="river" />
	</node>
	<node id="-738027" lat="68.7562500003" lon="17.5689722305">
		<tag k="name" v="Rennelva" />
		<tag k="ssr:stedsnr" v="79708" />
		<tag k="waterway" v="stream" />
	</node>
	<node id="-738536" lat="68.7105361098" lon="17.3766583275">
		<tag k="name" v="Tjuvskjærvatnet" />
		<tag k="natural" v="water" />
		<tag k="ssr:stedsnr" v="869960" />
	</node>
	<node id="-738532" lat="68.7541777742" lon="17.5145138971">
		<tag k="alt_name" v="Ressekoppelva" />
		<tag k="name" v="Rasekoppelva" />
		<tag k="ssr:stedsnr" v="868704" />
		<tag k="waterway" v="stream" />
	</node>
	<node id="-738018" lat="68.6757666679" lon="17.5869222119">
		<tag k="name" v="Gårdselva" />
		<tag k="ssr:stedsnr" v="78605" />
		<tag k="waterway" v="stream" />
	</node>
	<node id="-738529" lat="68.7737638872" lon="17.308816674">
		<tag k="name" v="Kvannelva" />
		<tag k="ssr:stedsnr" v="867948" />
		<tag k="waterway" v="stream" />
	</node>
	<node id="-738016" lat="68.6484999966" lon="17.4956527677">
		<tag k="name" v="Botnvatnet" />
		<tag k="natural" v="water" />
		<tag k="ssr:stedsnr" v="78597" />
	</node>
	<node id="-738525" lat="68.6765111141" lon="17.5414138985">
		<tag k="name" v="Tortenelva" />
		<tag k="ssr:stedsnr" v="867625" />
		<tag k="waterway" v="stream" />
	</node>
	<node id="-738524" lat="68.6749333348" lon="17.751455565">
		<tag k="name" v="Finneslettelva" />
		<tag k="ssr:stedsnr" v="867618" />
		<tag k="waterway" v="stream" />
	</node>
	<node id="-738523" lat="68.7061444471" lon="17.4969055469">
		<tag k="name" v="Oksevadelva" />
		<tag k="ssr:stedsnr" v="867606" />
		<tag k="waterway" v="stream" />
	</node>
	<node id="-738522" lat="68.6903666632" lon="17.7318361097">
		<tag k="name" v="Sletteidet" />
		<tag k="natural" v="strait" />
		<tag k="ssr:stedsnr" v="867580" />
	</node>
	<node id="-738521" lat="68.6393805523" lon="17.6361722202">
		<tag k="name" v="Gregusvatnet" />
		<tag k="natural" v="water" />
		<tag k="ssr:stedsnr" v="867542" />
	</node>
	<node id="-738518" lat="68.6187138894" lon="17.6859666672">
		<tag k="alt_name" v="Bergeelva" />
		<tag k="name" v="Bergelva" />
		<tag k="ssr:stedsnr" v="867523" />
		<tag k="waterway" v="stream" />
	</node>
	<node id="-738005" lat="68.6856138865" lon="17.3708027821">
		<tag k="name" v="Mella Elven" />
		<tag k="natural" v="cape" />
		<tag k="ssr:stedsnr" v="51523" />
	</node>
	<node id="-738003" lat="68.6978583297" lon="17.4218833331">
		<tag k="name" v="Linbergelva" />
		<tag k="ssr:stedsnr" v="51493" />
		<tag k="waterway" v="stream" />
	</node>
	<node id="-738000" lat="68.6377972223" lon="17.6899027707">
		<tag k="name" v="Lomvatnet" />
		<tag k="natural" v="water" />
		<tag k="ssr:stedsnr" v="51422" />
	</node>
	<node id="-738506" lat="68.6438361085" lon="17.4881388759">
		<tag k="name" v="Botnelva" />
		<tag k="ssr:stedsnr" v="840422" />
		<tag k="waterway" v="stream" />
	</node>
	<node id="-737992" lat="68.8001749984" lon="17.3934305579">
		<tag k="name" v="Elvekrokan" />
		<tag k="natural" v="bay" />
		<tag k="ssr:stedsnr" v="51325" />
	</node>
	<node id="-737991" lat="68.8039750008" lon="17.4066361092">
		<tag k="name" v="Bekken" />
		<tag k="ssr:stedsnr" v="51322" />
		<tag k="waterway" v="stream" />
	</node>
	<node id="-737825" lat="68.6823888865" lon="17.417891672">
		<tag k="name" v="Kvantofjellelva" />
		<tag k="ssr:stedsnr" v="293459" />
		<tag k="waterway" v="stream" />
	</node>
	<node id="-737978" lat="68.6550944406" lon="17.3523500014">
		<tag k="fixme" v="multiple name tags, choose one and add the other to alt_name" />
		<tag k="name" v="Eidevatnet - Stuorajávri;Áidejávri" />
		<tag k="name:no" v="Eidevatnet" />
		<tag k="name:se" v="Stuorajávri;Áidejávri" />
		<tag k="natural" v="water" />
		<tag k="ssr:stedsnr" v="20894" />
		<tag k="water" v="lake" />
	</node>
	<node id="-737975" lat="68.7597111095" lon="17.5505610962">
		<tag k="name" v="Rennelvvatnet" />
		<tag k="natural" v="water" />
		<tag k="ssr:stedsnr" v="18676" />
	</node>
	<node id="-737974" lat="68.7559138872" lon="17.4490388943">
		<tag k="name" v="Ystelivatnet" />
		<tag k="natural" v="water" />
		<tag k="ssr:stedsnr" v="18671" />
	</node>
	<node id="-738485" lat="68.6976694448" lon="17.3448361189">
		<tag k="name" v="Storsulvatnet" />
		<tag k="natural" v="water" />
		<tag k="ssr:stedsnr" v="809988" />
	</node>
	<node id="-738484" lat="68.7257777808" lon="17.2718666626">
		<tag k="loc_name:se" v="Hilssájohka" />
		<tag k="name" v="Hilleshamnelva" />
		<tag k="name:no" v="Hilleshamnelva" />
		<tag k="ssr:stedsnr" v="809967" />
		<tag k="waterway" v="stream" />
	</node>
	<node id="-737969" lat="68.6554472183" lon="17.5183083277">
		<tag k="loc_name:se" v="Gálajohka" />
		<tag k="name" v="Labergselva" />
		<tag k="name:no" v="Labergselva" />
		<tag k="ssr:stedsnr" v="18558" />
		<tag k="waterway" v="river" />
	</node>
	<node id="-738480" lat="68.6369111126" lon="17.7518833254">
		<tag k="loc_name:se" v="Skáiddijohka" />
		<tag k="name" v="Kvernmoelva" />
		<tag k="name:no" v="Kvernmoelva" />
		<tag k="ssr:stedsnr" v="807517" />
		<tag k="waterway" v="stream" />
	</node>
	<node id="-738474" lat="68.5996555563" lon="17.7089249921">
		<tag k="name" v="Litjevatnet" />
		<tag k="natural" v="water" />
		<tag k="ssr:stedsnr" v="806541" />
	</node>
	<node id="-738457" lat="68.7417749989" lon="17.332805543">
		<tag k="name" v="Mølnelva" />
		<tag k="ssr:stedsnr" v="778414" />
		<tag k="waterway" v="stream" />
	</node>
	<node id="-738453" lat="68.7065388893" lon="17.3460861084">
		<tag k="name" v="Rundvatnet" />
		<tag k="natural" v="water" />
		<tag k="ssr:stedsnr" v="778375" />
	</node>
	<node id="-737935" lat="68.6984250045" lon="17.508013877">
		<tag k="name" v="Olavikelva" />
		<tag k="ssr:stedsnr" v="475478" />
		<tag k="waterway" v="stream" />
	</node>
	<node id="-737934" lat="68.6954194403" lon="17.3716722243">
		<tag k="name" v="Nuttegamsvatnan" />
		<tag k="natural" v="water" />
		<tag k="ssr:stedsnr" v="475467" />
		<tag k="water" v="lake" />
	</node>
	<node id="-738442" lat="68.6875333354" lon="17.2776305485">
		<tag k="name" v="Foldvikvatnet - Girkojávri" />
		<tag k="name:no" v="Foldvikvatnet" />
		<tag k="name:se" v="Girkojávri" />
		<tag k="natural" v="water" />
		<tag k="ssr:stedsnr" v="748979" />
		<tag k="water" v="lake" />
	</node>
	<node id="-738436" lat="68.6194694441" lon="17.6626860985">
		<tag k="alt_name" v="Mellavasselva" />
		<tag k="name" v="Mellomvasselva" />
		<tag k="ssr:stedsnr" v="746505" />
		<tag k="waterway" v="river" />
	</node>
	<node id="-737923" lat="68.6484083371" lon="17.5493333448">
		<tag k="name" v="Klemmeselvholmen" />
		<tag k="natural" v="cape" />
		<tag k="ssr:stedsnr" v="475336" />
	</node>
	<node id="-737921" lat="68.6051944428" lon="17.6297250066">
		<tag k="name" v="Storrenna" />
		<tag k="ssr:stedsnr" v="475308" />
		<tag k="waterway" v="stream" />
	</node>
	<node id="-738432" lat="68.7479611118" lon="17.420080553">
		<tag k="name" v="Gårdselva" />
		<tag k="ssr:stedsnr" v="718505" />
		<tag k="waterway" v="stream" />
	</node>
	<node id="-738431" lat="68.6935305555" lon="17.3670027782">
		<tag k="name" v="Trollhågelva" />
		<tag k="ssr:stedsnr" v="718486" />
		<tag k="waterway" v="stream" />
	</node>
	<node id="-737917" lat="68.7255527812" lon="17.4789111151">
		<tag k="name" v="Skredelva" />
		<tag k="ssr:stedsnr" v="475287" />
		<tag k="waterway" v="stream" />
	</node>
	<node id="-738416" lat="68.8044694428" lon="17.4089722253">
		<tag k="name" v="Mølleelva" />
		<tag k="ssr:stedsnr" v="718280" />
		<tag k="waterway" v="stream" />
	</node>
	<node id="-738412" lat="68.7864611109" lon="17.3531499861">
		<tag k="name" v="Løelva" />
		<tag k="ssr:stedsnr" v="717438" />
		<tag k="waterway" v="stream" />
	</node>
	<node id="-737898" lat="68.7192749986" lon="17.3861860974">
		<tag k="name" v="Ytterelva" />
		<tag k="ssr:stedsnr" v="383972" />
		<tag k="waterway" v="stream" />
	</node>
	<node id="-738409" lat="68.7496361097" lon="17.3117111192">
		<tag k="name" v="Furåselva" />
		<tag k="ssr:stedsnr" v="717408" />
		<tag k="waterway" v="stream" />
	</node>
	<node id="-738408" lat="68.7182555544" lon="17.3234305435">
		<tag k="name" v="Åmundsvikvatnan" />
		<tag k="natural" v="water" />
		<tag k="ssr:stedsnr" v="717402" />
		<tag k="water" v="lake" />
	</node>
	<node id="-737894" lat="68.6306361157" lon="17.7587416547">
		<tag k="name" v="Lassaelva" />
		<tag k="ssr:stedsnr" v="382511" />
		<tag k="waterway" v="stream" />
	</node>
	<node id="-737890" lat="68.6580638875" lon="17.6006444354">
		<tag k="name" v="Lauvskarvatnet" />
		<tag k="natural" v="water" />
		<tag k="ssr:stedsnr" v="381600" />
	</node>
	<node id="-737889" lat="68.6572194482" lon="17.5885500103">
		<tag k="alt_name" v="Klemmeselvvatnet, øvre" />
		<tag k="name" v="Øvre Klemmeselvvatnet" />
		<tag k="natural" v="water" />
		<tag k="ssr:stedsnr" v="381599" />
	</node>
	<node id="-737887" lat="68.6784027759" lon="17.5493222219">
		<tag k="name" v="Rapelva" />
		<tag k="ssr:stedsnr" v="381571" />
		<tag k="waterway" v="stream" />
	</node>
	<node id="-738398" lat="68.7211750001" lon="17.5532972297">
		<tag k="name" v="Resselvvatnet" />
		<tag k="natural" v="water" />
		<tag k="ssr:stedsnr" v="685918" />
	</node>
	<node id="-737885" lat="68.6495916629" lon="17.5540972276">
		<tag k="name" v="Klemmeselva" />
		<tag k="ssr:stedsnr" v="381520" />
		<tag k="waterway" v="stream" />
	</node>
	<node id="-737884" lat="68.7989944484" lon="17.4007916681">
		<tag k="name" v="Belneselva" />
		<tag k="ssr:stedsnr" v="381232" />
		<tag k="waterway" v="river" />
	</node>
	<node id="-737883" lat="68.7357277736" lon="17.4902055608">
		<tag k="name" v="Storelva" />
		<tag k="ssr:stedsnr" v="381196" />
		<tag k="waterway" v="river" />
	</node>
	<node id="-738392" lat="68.6119361087" lon="17.7176416744">
		<tag k="name" v="Rundvatnet" />
		<tag k="natural" v="water" />
		<tag k="ssr:stedsnr" v="685555" />
	</node>
	<node id="-738390" lat="68.6370444462" lon="17.7689861091">
		<tag k="alt_name" v="Indretverrelva" />
		<tag k="name" v="Indre Tverrelva" />
		<tag k="ssr:stedsnr" v="685514" />
		<tag k="waterway" v="stream" />
	</node>
	<node id="-738389" lat="68.6449138885" lon="17.6977500045">
		<tag k="name" v="Bjørnarvatnet" />
		<tag k="natural" v="water" />
		<tag k="ssr:stedsnr" v="685511" />
		<tag k="water" v="lake" />
	</node>
	<node id="-738388" lat="68.6200305535" lon="17.6200249966">
		<tag k="name" v="Holmen" />
		<tag k="place" v="islet" />
		<tag k="ssr:stedsnr" v="685502" />
	</node>
	<node id="-738387" lat="68.623675002" lon="17.5960944449">
		<tag k="loc_name:se" v="Gálajávri" />
		<tag k="name" v="Litjevatnet" />
		<tag k="name:no" v="Litjevatnet" />
		<tag k="natural" v="water" />
		<tag k="ssr:stedsnr" v="685501" />
	</node>
	<node id="-738061" lat="68.6758888842" lon="17.6967500032">
		<tag k="name" v="Mølnelva" />
		<tag k="ssr:stedsnr" v="138583" />
		<tag k="waterway" v="stream" />
	</node>
	<node id="-738379" lat="68.7039749979" lon="17.3586805537">
		<tag k="name" v="Vinkelvatnan" />
		<tag k="natural" v="water" />
		<tag k="ssr:stedsnr" v="657462" />
		<tag k="water" v="lake" />
	</node>
	<node id="-738375" lat="68.6741111126" lon="17.7290638809">
		<tag k="name" v="Skoddeløelva" />
		<tag k="ssr:stedsnr" v="657367" />
		<tag k="waterway" v="stream" />
	</node>
	<node id="-738374" lat="68.6944666661" lon="17.5332138976">
		<tag k="name" v="Vikelva" />
		<tag k="ssr:stedsnr" v="657362" />
		<tag k="waterway" v="stream" />
	</node>
	<node id="-737858" lat="68.7234833324" lon="17.2310222118">
		<tag k="name" v="Tvillingvatnan" />
		<tag k="natural" v="water" />
		<tag k="ssr:stedsnr" v="323967" />
		<tag k="water" v="lake" />
	</node>
	<node id="-738368" lat="68.8031833347" lon="17.4124027817">
		<tag k="name" v="Mølleforsen" />
		<tag k="natural" v="waterfall" />
		<tag k="ssr:stedsnr" v="657278" />
	</node>
	<node id="-737854" lat="68.7860944419" lon="17.4219722287">
		<tag k="name" v="Belnesvatnet" />
		<tag k="natural" v="water" />
		<tag k="ssr:stedsnr" v="321958" />
		<tag k="water" v="lake" />
	</node>
	<node id="-737973" lat="68.674063891" lon="17.80039723">
		<tag k="alt_name" v="Sølvelva, austre" />
		<tag k="name" v="Austre Sølvelva" />
		<tag k="ssr:stedsnr" v="18584" />
		<tag k="waterway" v="stream" />
	</node>
	<node id="-737852" lat="68.6641972199" lon="17.6355722164">
		<tag k="name" v="Lauvskarelva" />
		<tag k="ssr:stedsnr" v="321587" />
		<tag k="waterway" v="stream" />
	</node>
	<node id="-738358" lat="68.7110527767" lon="17.2044944467">
		<tag k="name" v="Rundvatnet" />
		<tag k="natural" v="water" />
		<tag k="ssr:stedsnr" v="656375" />
	</node>
	<node id="-737845" lat="68.5986333309" lon="17.6193749873">
		<tag k="loc_name:se" v="Rivttákáidi" />
		<tag k="name" v="Gratangseidet" />
		<tag k="name:no" v="Gratangseidet" />
		<tag k="natural" v="strait" />
		<tag k="ssr:stedsnr" v="321527" />
	</node>
	<node id="-737843" lat="68.645583335" lon="17.712041655">
		<tag k="alt_name" v="Bjerkemoelva" />
		<tag k="name" v="Bjørkmoelva" />
		<tag k="ssr:stedsnr" v="321491" />
		<tag k="waterway" v="stream" />
	</node>
	<node id="-737841" lat="68.6623611141" lon="17.6480472126">
		<tag k="name" v="Mølnelva" />
		<tag k="ssr:stedsnr" v="321176" />
		<tag k="waterway" v="stream" />
	</node>
	<node id="-738347" lat="68.7514611072" lon="17.309005564">
		<tag k="alt_name" v="Mørkelva" />
		<tag k="name" v="Mørkeelva" />
		<tag k="ssr:stedsnr" v="625000" />
		<tag k="waterway" v="stream" />
	</node>
	<node id="-738345" lat="68.7365611077" lon="17.5361388755">
		<tag k="name" v="Resselva" />
		<tag k="ssr:stedsnr" v="624929" />
		<tag k="waterway" v="river" />
	</node>
	<node id="-737832" lat="68.6916861123" lon="17.3877583225">
		<tag k="name" v="Storelva" />
		<tag k="ssr:stedsnr" v="293483" />
		<tag k="waterway" v="river" />
	</node>
	<node id="-737830" lat="68.7072999962" lon="17.4966166707">
		<tag k="name" v="Trolldalselva" />
		<tag k="ssr:stedsnr" v="293474" />
		<tag k="waterway" v="stream" />
	</node>
	<node id="-737829" lat="68.6760722243" lon="17.463786122">
		<tag k="name" v="Silsandelva" />
		<tag k="ssr:stedsnr" v="293472" />
		<tag k="waterway" v="stream" />
	</node>
	<node id="-737827" lat="68.667761114" lon="17.4705638875">
		<tag k="name" v="Pesselva" />
		<tag k="ssr:stedsnr" v="293464" />
		<tag k="waterway" v="stream" />
	</node>
	<node id="-738337" lat="68.6123027828" lon="17.7319610983">
		<tag k="name" v="Roašmejávrrit" />
		<tag k="name:se" v="Roašmejávrrit" />
		<tag k="natural" v="water" />
		<tag k="old_name:se" v="Roašmejavrit" />
		<tag k="ssr:stedsnr" v="624555" />
	</node>
	<node id="-738336" lat="68.619952781" lon="17.6710222302">
		<tag k="name" v="Bergevatnet" />
		<tag k="natural" v="water" />
		<tag k="ssr:stedsnr" v="624511" />
	</node>
	<node id="-737822" lat="68.7471027756" lon="17.3238638953">
		<tag k="name" v="Vedmoelva" />
		<tag k="ssr:stedsnr" v="293428" />
		<tag k="waterway" v="stream" />
	</node>
	<node id="-738329" lat="68.8077888908" lon="17.410322229">
		<tag k="name" v="Hestevollelva" />
		<tag k="ssr:stedsnr" v="597287" />
		<tag k="waterway" v="stream" />
	</node>
	<node id="-738322" lat="68.7670222195" lon="17.2722694304">
		<tag k="name" v="Storelva" />
		<tag k="ssr:stedsnr" v="596380" />
		<tag k="waterway" v="stream" />
	</node>
	<node id="-737806" lat="68.7382583347" lon="17.5307194406">
		<tag k="name" v="Resselvholmen" />
		<tag k="place" v="islet" />
		<tag k="ssr:stedsnr" v="270639" />
	</node>
	<node id="-738313" lat="68.7675194451" lon="17.3237416541">
		<tag k="alt_name" v="Klubbvatnet" />
		<tag k="name" v="Klubbevatnet" />
		<tag k="natural" v="water" />
		<tag k="ssr:stedsnr" v="563963" />
	</node>
	<node id="-738310" lat="68.6640694412" lon="17.5941250027">
		<tag k="name" v="Bergevatnet" />
		<tag k="natural" v="water" />
		<tag k="ssr:stedsnr" v="563620" />
	</node>
</osm>
