<?xml version="1.0" encoding="UTF-8"?>
<osm generator="osmapis" version="0.6">
	<node id="-738614" lat="68.6804137392" lon="17.4636816709">
		<tag k="name" v="Hellarbogen industriområde" />
		<tag k="place" v="quarter" />
		<tag k="ssr:stedsnr" v="975755" />
	</node>
	<node id="-738613" lat="68.6227774661" lon="17.650737415">
		<tag k="name" v="Øse hyttegrend" />
		<tag k="place" v="neighbourhood" />
		<tag k="ssr:stedsnr" v="975754" />
	</node>
	<node id="-738612" lat="68.7407055512" lon="17.3632333417">
		<tag k="name" v="Aspeneset" />
		<tag k="natural" v="cape" />
		<tag k="ssr:stedsnr" v="961499" />
	</node>
	<node id="-738611" lat="68.7462555595" lon="17.4477222303">
		<tag k="name" v="Mellaskaret" />
		<tag k="natural" v="valley" />
		<tag k="place" v="locality" />
		<tag k="ssr:stedsnr" v="961494" />
	</node>
	<node id="-738610" lat="68.7465499994" lon="17.4001138827">
		<tag k="name" v="Kvigeberget" />
		<tag k="natural" v="hill" />
		<tag k="place" v="locality" />
		<tag k="ssr:stedsnr" v="961489" />
	</node>
	<node id="-738609" lat="68.6809777766" lon="17.4517972269">
		<tag k="name" v="Oselva" />
		<tag k="ssr:stedsnr" v="961483" />
		<tag k="waterway" v="stream" />
	</node>
	<node id="-738608" lat="68.69892222" lon="17.4266166759">
		<tag k="name" v="Sletten" />
		<tag k="place" v="isolated_dwelling" />
		<tag k="ssr:stedsnr" v="961477" />
	</node>
	<node id="-738607" lat="68.7042333349" lon="17.4799527708">
		<tag k="name" v="Sandmelen" />
		<tag k="natural" v="slope" />
		<tag k="place" v="locality" />
		<tag k="ssr:stedsnr" v="961464" />
	</node>
	<node id="-738606" lat="68.6714694436" lon="17.7376166738">
		<tag k="barrier" v="fence" />
		<tag k="name" v="Torvegjerdet" />
		<tag k="ssr:stedsnr" v="961371" />
	</node>
	<node id="-738605" lat="68.6465722245" lon="17.7335888874">
		<tag k="name" v="Steinhaugen" />
		<tag k="natural" v="hill" />
		<tag k="place" v="locality" />
		<tag k="ssr:stedsnr" v="961362" />
	</node>
	<node id="-738604" lat="68.6299222265" lon="17.701852775">
		<tag k="name" v="Váráš" />
		<tag k="name:se" v="Váráš" />
		<tag k="natural" v="hill" />
		<tag k="place" v="locality" />
		<tag k="ssr:stedsnr" v="961363" />
	</node>
	<node id="-738603" lat="68.6653833343" lon="17.7479916526">
		<tag k="alt_name:no" v="Fjordbotnmark" />
		<tag k="fixme" v="consider place=hamlet" />
		<tag k="loc_name:se" v="Skuhppi" />
		<tag k="name" v="Fjordbotnmarka" />
		<tag k="name:no" v="Fjordbotnmarka" />
		<tag k="place" v="village" />
		<tag k="ssr:stedsnr" v="961358" />
	</node>
	<node id="-738602" lat="68.6930027783" lon="17.5422999952">
		<tag k="name" v="Gårdselva" />
		<tag k="ssr:stedsnr" v="961351" />
		<tag k="waterway" v="stream" />
	</node>
	<node id="-738601" lat="68.7021694445" lon="17.5427527844">
		<tag k="name" v="Storhågen" />
		<tag k="natural" v="hill" />
		<tag k="place" v="locality" />
		<tag k="ssr:stedsnr" v="961344" />
	</node>
	<node id="-738600" lat="68.6824527786" lon="17.6026694319">
		<tag k="name" v="Gammelheimhammarn" />
		<tag k="natural" v="hill" />
		<tag k="place" v="locality" />
		<tag k="ssr:stedsnr" v="961339" />
	</node>
	<node id="-738599" lat="68.6643694467" lon="17.5143527691">
		<tag k="name" v="Moan" />
		<tag k="place" v="locality" />
		<tag k="ssr:stedsnr" v="961296" />
	</node>
	<node id="-738598" lat="68.6739527813" lon="17.5892777765">
		<tag k="name" v="Sennamyra" />
		<tag k="natural" v="wetland" />
		<tag k="ssr:stedsnr" v="961293" />
	</node>
	<node id="-738597" lat="68.6717472243" lon="17.6229500102">
		<tag k="name" v="Grimjordskogen" />
		<tag k="place" v="locality" />
		<tag k="ssr:stedsnr" v="961289" />
	</node>
	<node id="-738596" lat="68.7906583307" lon="17.3938194302">
		<tag k="name" v="Durmålsskaret" />
		<tag k="natural" v="valley" />
		<tag k="place" v="locality" />
		<tag k="ssr:stedsnr" v="961280" />
	</node>
	<node id="-738595" lat="68.7322083358" lon="17.4644722149">
		<tag k="name" v="Strandhågen" />
		<tag k="natural" v="hill" />
		<tag k="place" v="locality" />
		<tag k="ssr:stedsnr" v="961265" />
	</node>
	<node id="-738594" lat="68.7769250028" lon="17.2939138992">
		<tag k="name" v="Holtebergan" />
		<tag k="natural" v="hill" />
		<tag k="place" v="locality" />
		<tag k="ssr:stedsnr" v="960420" />
	</node>
	<node id="-738593" lat="68.7323805584" lon="17.282558328">
		<tag k="fixme" v="consider natural=peak for the most distinct mountains in the district" />
		<tag k="name" v="Ramntuva" />
		<tag k="natural" v="hill" />
		<tag k="place" v="locality" />
		<tag k="ssr:stedsnr" v="960415" />
	</node>
	<node id="-738592" lat="68.7286472261" lon="17.2368777698">
		<tag k="name" v="Lofteteigan" />
		<tag k="natural" v="slope" />
		<tag k="place" v="locality" />
		<tag k="ssr:stedsnr" v="960400" />
	</node>
	<node id="-738591" lat="68.7623305543" lon="17.2922111079">
		<tag k="name" v="Ørnholla" />
		<tag k="natural" v="valley" />
		<tag k="place" v="locality" />
		<tag k="ssr:stedsnr" v="960396" />
	</node>
	<node id="-738590" lat="68.7613749985" lon="17.2745666535">
		<tag k="name" v="Bonhågen" />
		<tag k="natural" v="hill" />
		<tag k="place" v="locality" />
		<tag k="ssr:stedsnr" v="960380" />
	</node>
	<node id="-738589" lat="68.7891499973" lon="17.3482805413">
		<tag k="name" v="Lønes" />
		<tag k="natural" v="cape" />
		<tag k="ssr:stedsnr" v="959629" />
	</node>
	<node id="-738588" lat="68.7321111099" lon="17.4643138922">
		<tag k="name" v="Strandhagen" />
		<tag k="natural" v="beach" />
		<tag k="ssr:stedsnr" v="940793" />
	</node>
	<node id="-738587" lat="68.6704138848" lon="17.6609583295">
		<tag k="alt_name" v="Elvenes" />
		<tag k="name" v="Elveneset" />
		<tag k="place" v="hamlet" />
		<tag k="ssr:stedsnr" v="940414" />
	</node>
	<node id="-738586" lat="68.8140777788" lon="17.4198027732">
		<tag k="name" v="Selnes" />
		<tag k="place" v="farm" />
		<tag k="ssr:stedsnr" v="939999" />
	</node>
	<node id="-738585" lat="68.6982166706" lon="17.4265916537">
		<tag k="name" v="Foldvik" />
		<tag k="place" v="farm" />
		<tag k="ssr:stedsnr" v="939703" />
	</node>
	<node id="-738584" lat="68.7455611102" lon="17.4132555617">
		<tag k="name" v="Lavik" />
		<tag k="place" v="farm" />
		<tag k="ssr:stedsnr" v="938526" />
	</node>
	<node id="-738583" lat="68.7299805533" lon="17.2337388805">
		<tag k="name" v="Skjærvika" />
		<tag k="natural" v="bay" />
		<tag k="ssr:stedsnr" v="928913" />
	</node>
	<node id="-738582" lat="68.7316944477" lon="17.3697416716">
		<tag k="bay" v="fjord" />
		<tag k="name" v="Gratangen - Rivtták" />
		<tag k="name:no" v="Gratangen" />
		<tag k="name:se" v="Rivtták" />
		<tag k="natural" v="bay" />
		<tag k="ssr:stedsnr" v="928911" />
	</node>
	<node id="-738581" lat="68.7449611089" lon="17.4291361145">
		<tag k="name" v="Lavika" />
		<tag k="place" v="farm" />
		<tag k="ssr:stedsnr" v="928907" />
	</node>
	<node id="-738580" lat="68.6741750028" lon="17.5121250055">
		<tag k="name" v="Frydenlund" />
		<tag k="place" v="farm" />
		<tag k="ssr:stedsnr" v="928580" />
	</node>
	<node id="-738579" lat="68.6524694484" lon="17.7079249948">
		<tag k="alt_name" v="Forshaugen" />
		<tag k="name" v="Fosshaugen" />
		<tag k="natural" v="hill" />
		<tag k="place" v="locality" />
		<tag k="ssr:stedsnr" v="928570" />
	</node>
	<node id="-738578" lat="68.659025003" lon="17.7127583412">
		<tag k="name" v="Grindsletta" />
		<tag k="place" v="locality" />
		<tag k="ssr:stedsnr" v="928562" />
	</node>
	<node id="-738577" lat="68.7066055598" lon="17.4317027675">
		<tag k="name" v="Stegan" />
		<tag k="place" v="isolated_dwelling" />
		<tag k="ssr:stedsnr" v="928560" />
	</node>
	<node id="-738576" lat="68.7031861113" lon="17.4832944355">
		<tag k="alt_name" v="Åkenes" />
		<tag k="name" v="Åkeneset" />
		<tag k="place" v="hamlet" />
		<tag k="ssr:stedsnr" v="928557" />
	</node>
	<node id="-738575" lat="68.6852166693" lon="17.4533722313">
		<tag k="loc_name:se" v="Huvlanjárga" />
		<tag k="name" v="Storøya" />
		<tag k="name:no" v="Storøya" />
		<tag k="natural" v="cape" />
		<tag k="ssr:stedsnr" v="928546" />
	</node>
	<node id="-738574" lat="68.6804388851" lon="17.418619435">
		<tag k="name" v="Middagshågen" />
		<tag k="natural" v="hill" />
		<tag k="place" v="locality" />
		<tag k="ssr:stedsnr" v="928535" />
	</node>
	<node id="-738573" lat="68.6898527805" lon="17.8090222197">
		<tag k="name" v="Sølvfjellvatnet" />
		<tag k="natural" v="water" />
		<tag k="ssr:stedsnr" v="928533" />
	</node>
	<node id="-738572" lat="68.6370916669" lon="17.7558222132">
		<tag k="alt_name" v="Kvitmyren" />
		<tag k="name" v="Kvitmyra" />
		<tag k="natural" v="wetland" />
		<tag k="ssr:stedsnr" v="928484" />
	</node>
	<node id="-738571" lat="68.6442499992" lon="17.6871305433">
		<tag k="name" v="Hestvatnet" />
		<tag k="natural" v="water" />
		<tag k="ssr:stedsnr" v="928476" />
		<tag k="water" v="lake" />
	</node>
	<node id="-738570" lat="68.6511333378" lon="17.7039444366">
		<tag k="name" v="Storelva" />
		<tag k="ssr:stedsnr" v="928168" />
		<tag k="waterway" v="river" />
	</node>
	<node id="-738569" lat="68.8153888867" lon="17.4400277851">
		<tag k="name" v="Storelva" />
		<tag k="ssr:stedsnr" v="901281" />
		<tag k="waterway" v="stream" />
	</node>
	<node id="-738568" lat="68.6286527794" lon="17.5475055619">
		<tag k="name" v="Belvasskaret" />
		<tag k="natural" v="valley" />
		<tag k="place" v="locality" />
		<tag k="ssr:stedsnr" v="901280" />
	</node>
	<node id="-738567" lat="68.7338194401" lon="17.4783222254">
		<tag k="name" v="Finnesletta" />
		<tag k="place" v="locality" />
		<tag k="ssr:stedsnr" v="901261" />
	</node>
	<node id="-738566" lat="68.7365694424" lon="17.4780110958">
		<tag k="name" v="Lyshøgdbakkan" />
		<tag k="natural" v="slope" />
		<tag k="place" v="locality" />
		<tag k="ssr:stedsnr" v="901232" />
	</node>
	<node id="-738565" lat="68.7274638849" lon="17.2402416576">
		<tag k="name" v="Petterlia" />
		<tag k="natural" v="slope" />
		<tag k="place" v="locality" />
		<tag k="ssr:stedsnr" v="900401" />
	</node>
	<node id="-738564" lat="68.7533916656" lon="17.2655860973">
		<tag k="name" v="Grøsnesvika" />
		<tag k="natural" v="bay" />
		<tag k="ssr:stedsnr" v="900389" />
	</node>
	<node id="-738563" lat="68.6654388866" lon="17.8354333193">
		<tag k="junction" v="yes" />
		<tag k="name" v="Bukkemyrskjæringen" />
		<tag k="place" v="locality" />
		<tag k="ssr:stedsnr" v="900383" />
	</node>
	<node id="-738562" lat="68.6693583357" lon="17.6806277788">
		<tag k="amenity" v="sports_centre" />
		<tag k="name" v="Tennevoll" />
		<tag k="ssr:stedsnr" v="900371" />
	</node>
	<node id="-738561" lat="68.6330111098" lon="17.7488694412">
		<tag k="name" v="Saunesen" />
		<tag k="natural" v="hill" />
		<tag k="place" v="locality" />
		<tag k="ssr:stedsnr" v="900367" />
	</node>
	<node id="-738560" lat="68.6566500003" lon="17.6680944516">
		<tag k="highway" v="path" />
		<tag k="name" v="Kollveien" />
		<tag k="ssr:stedsnr" v="900353" />
	</node>
	<node id="-738559" lat="68.8177750004" lon="17.4544361084">
		<tag k="name" v="Bukkisen" />
		<tag k="natural" v="hill" />
		<tag k="place" v="locality" />
		<tag k="ssr:stedsnr" v="900292" />
	</node>
	<node id="-738558" lat="68.8159333292" lon="17.4238111055">
		<tag k="name" v="Båtholla" />
		<tag k="natural" v="bay" />
		<tag k="ssr:stedsnr" v="899811" />
	</node>
	<node id="-738557" lat="68.7895083353" lon="17.3560750048">
		<tag k="name" v="Bjerkmo" />
		<tag k="place" v="farm" />
		<tag k="ssr:stedsnr" v="899662" />
	</node>
	<node id="-738556" lat="68.7515305578" lon="17.4020361065">
		<tag k="name" v="Nattmålssletta" />
		<tag k="place" v="locality" />
		<tag k="ssr:stedsnr" v="900490" />
	</node>
	<node id="-738555" lat="68.7499472257" lon="17.4086444537">
		<tag k="name" v="Litjesletta" />
		<tag k="place" v="locality" />
		<tag k="ssr:stedsnr" v="900489" />
	</node>
	<node id="-738554" lat="68.6815444447" lon="17.461480561">
		<tag k="name" v="Hellarbogen" />
		<tag k="natural" v="bay" />
		<tag k="ssr:stedsnr" v="900480" />
	</node>
	<node id="-738553" lat="68.6876805544" lon="17.4201166616">
		<tag k="name" v="Hågelva" />
		<tag k="ssr:stedsnr" v="900477" />
		<tag k="waterway" v="stream" />
	</node>
	<node id="-738552" lat="68.6873250041" lon="17.4104555471">
		<tag k="name" v="Kattemoelva" />
		<tag k="ssr:stedsnr" v="900476" />
		<tag k="waterway" v="stream" />
	</node>
	<node id="-738551" lat="68.707619444" lon="17.5082083255">
		<tag k="highway" v="path" />
		<tag k="name" v="Fjellveien" />
		<tag k="ssr:stedsnr" v="900461" />
	</node>
	<node id="-738550" lat="68.7129083338" lon="17.4923777843">
		<tag k="name" v="Rundmyra" />
		<tag k="natural" v="wetland" />
		<tag k="ssr:stedsnr" v="900455" />
	</node>
	<node id="-738549" lat="68.7142250038" lon="17.4930916645">
		<tag k="name" v="Skjellberget" />
		<tag k="natural" v="hill" />
		<tag k="place" v="locality" />
		<tag k="ssr:stedsnr" v="900451" />
	</node>
	<node id="-738548" lat="68.769613893" lon="17.2990277697">
		<tag k="name" v="Rishågen" />
		<tag k="natural" v="hill" />
		<tag k="place" v="locality" />
		<tag k="ssr:stedsnr" v="900431" />
	</node>
	<node id="-738547" lat="68.7779472208" lon="17.3006305432">
		<tag k="name" v="Holtebukta" />
		<tag k="natural" v="bay" />
		<tag k="ssr:stedsnr" v="900424" />
	</node>
	<node id="-738546" lat="68.7304750037" lon="17.2847861102">
		<tag k="name" v="Ryggen" />
		<tag k="natural" v="hill" />
		<tag k="place" v="locality" />
		<tag k="ssr:stedsnr" v="900411" />
	</node>
	<node id="-738545" lat="68.7322722219" lon="17.2544444406">
		<tag k="name" v="Klipa" />
		<tag k="natural" v="hill" />
		<tag k="place" v="locality" />
		<tag k="ssr:stedsnr" v="899412" />
	</node>
	<node id="-738544" lat="68.8091027733" lon="17.3821638917">
		<tag k="name" v="Tåga" />
		<tag k="place" v="locality" />
		<tag k="ssr:stedsnr" v="879963" />
	</node>
	<node id="-738543" lat="68.7482944486" lon="17.3016027721">
		<tag k="name" v="Grøsneslia" />
		<tag k="natural" v="slope" />
		<tag k="place" v="locality" />
		<tag k="ssr:stedsnr" v="879887" />
	</node>
	<node id="-738542" lat="68.6930999997" lon="17.4226722301">
		<tag k="name" v="Foldvik" />
		<tag k="place" v="farm" />
		<tag k="ssr:stedsnr" v="878718" />
	</node>
	<node id="-738541" lat="68.6854666669" lon="17.5646583202">
		<tag k="name" v="Strømsnesvika" />
		<tag k="natural" v="bay" />
		<tag k="ssr:stedsnr" v="877665" />
	</node>
	<node id="-738540" lat="68.7011111158" lon="17.4830861065">
		<tag k="name" v="Åkenes" />
		<tag k="place" v="farm" />
		<tag k="ssr:stedsnr" v="877570" />
	</node>
	<node id="-738539" lat="68.7461527776" lon="17.415666656">
		<tag k="name" v="Lavik" />
		<tag k="place" v="farm" />
		<tag k="ssr:stedsnr" v="877563" />
	</node>
	<node id="-738538" lat="68.6796527802" lon="17.4842138819">
		<tag k="name" v="Sortebekk" />
		<tag k="place" v="farm" />
		<tag k="ssr:stedsnr" v="877555" />
	</node>
	<node id="-738537" lat="68.7797750038" lon="17.3161527896">
		<tag k="name" v="Løvdalsstranda" />
		<tag k="natural" v="beach" />
		<tag k="place" v="locality" />
		<tag k="ssr:stedsnr" v="870278" />
	</node>
	<node id="-738536" lat="68.7105361098" lon="17.3766583275">
		<tag k="name" v="Tjuvskjærvatnet" />
		<tag k="natural" v="water" />
		<tag k="ssr:stedsnr" v="869960" />
	</node>
	<node id="-738535" lat="68.7025111148" lon="17.3035277814">
		<tag k="fixme" v="consider natural=peak for the most distinct mountains in the district" />
		<tag k="name" v="Rundfjellet" />
		<tag k="natural" v="hill" />
		<tag k="place" v="locality" />
		<tag k="ssr:stedsnr" v="869957" />
	</node>
	<node id="-738534" lat="68.7103416647" lon="17.2501055652">
		<tag k="name" v="Hilsaláhku" />
		<tag k="name:se" v="Hilsaláhku" />
		<tag k="place" v="locality" />
		<tag k="ssr:stedsnr" v="869956" />
	</node>
	<node id="-738533" lat="68.7266611131" lon="17.3256388916">
		<tag k="name" v="Perbuneset" />
		<tag k="natural" v="cape" />
		<tag k="ssr:stedsnr" v="868890" />
	</node>
	<node id="-738532" lat="68.7541777742" lon="17.5145138971">
		<tag k="alt_name" v="Ressekoppelva" />
		<tag k="name" v="Rasekoppelva" />
		<tag k="ssr:stedsnr" v="868704" />
		<tag k="waterway" v="stream" />
	</node>
	<node id="-738531" lat="68.6323638857" lon="17.5534944458">
		<tag k="name" v="Beritsletta" />
		<tag k="place" v="locality" />
		<tag k="ssr:stedsnr" v="868500" />
	</node>
	<node id="-738530" lat="68.7836416673" lon="17.3188361155">
		<tag k="name" v="Løvdalsholmen" />
		<tag k="place" v="islet" />
		<tag k="ssr:stedsnr" v="867959" />
	</node>
	<node id="-738529" lat="68.7737638872" lon="17.308816674">
		<tag k="name" v="Kvannelva" />
		<tag k="ssr:stedsnr" v="867948" />
		<tag k="waterway" v="stream" />
	</node>
	<node id="-738528" lat="68.720375002" lon="17.4777444508">
		<tag k="name" v="Ytter-Skifte" />
		<tag k="place" v="farm" />
		<tag k="ssr:stedsnr" v="867935" />
	</node>
	<node id="-738527" lat="68.7200194482" lon="17.5417222319">
		<tag k="fixme" v="consider natural=peak for the most distinct mountains in the district" />
		<tag k="name" v="Svartfjellet" />
		<tag k="natural" v="hill" />
		<tag k="place" v="locality" />
		<tag k="ssr:stedsnr" v="867934" />
	</node>
	<node id="-738526" lat="68.6636999976" lon="17.6877027806">
		<tag k="name" v="Osvoll" />
		<tag k="place" v="farm" />
		<tag k="ssr:stedsnr" v="867629" />
	</node>
	<node id="-738525" lat="68.6765111141" lon="17.5414138985">
		<tag k="name" v="Tortenelva" />
		<tag k="ssr:stedsnr" v="867625" />
		<tag k="waterway" v="stream" />
	</node>
	<node id="-738524" lat="68.6749333348" lon="17.751455565">
		<tag k="name" v="Finneslettelva" />
		<tag k="ssr:stedsnr" v="867618" />
		<tag k="waterway" v="stream" />
	</node>
	<node id="-738523" lat="68.7061444471" lon="17.4969055469">
		<tag k="name" v="Oksevadelva" />
		<tag k="ssr:stedsnr" v="867606" />
		<tag k="waterway" v="stream" />
	</node>
	<node id="-738522" lat="68.6903666632" lon="17.7318361097">
		<tag k="name" v="Sletteidet" />
		<tag k="natural" v="strait" />
		<tag k="ssr:stedsnr" v="867580" />
	</node>
	<node id="-738521" lat="68.6393805523" lon="17.6361722202">
		<tag k="name" v="Gregusvatnet" />
		<tag k="natural" v="water" />
		<tag k="ssr:stedsnr" v="867542" />
	</node>
	<node id="-738520" lat="68.6499777742" lon="17.6863388811">
		<tag k="name" v="Langmyra" />
		<tag k="natural" v="wetland" />
		<tag k="ssr:stedsnr" v="867538" />
	</node>
	<node id="-738519" lat="68.6411638858" lon="17.7285944282">
		<tag k="name" v="Nyheim" />
		<tag k="place" v="isolated_dwelling" />
		<tag k="ssr:stedsnr" v="867535" />
	</node>
	<node id="-738518" lat="68.6187138894" lon="17.6859666672">
		<tag k="alt_name" v="Bergeelva" />
		<tag k="name" v="Bergelva" />
		<tag k="ssr:stedsnr" v="867523" />
		<tag k="waterway" v="stream" />
	</node>
	<node id="-738517" lat="68.6255222228" lon="17.7673722295">
		<tag k="name" v="Storhaugen" />
		<tag k="natural" v="hill" />
		<tag k="place" v="locality" />
		<tag k="ssr:stedsnr" v="867202" />
	</node>
	<node id="-738516" lat="68.7257694464" lon="17.3967416777">
		<tag k="name" v="Vikhøghågen" />
		<tag k="natural" v="hill" />
		<tag k="place" v="locality" />
		<tag k="ssr:stedsnr" v="840501" />
	</node>
	<node id="-738515" lat="68.6857722202" lon="17.3977583291">
		<tag k="name" v="Skårmyra" />
		<tag k="natural" v="wetland" />
		<tag k="ssr:stedsnr" v="840472" />
	</node>
	<node id="-738514" lat="68.7006444477" lon="17.4197666745">
		<tag k="name" v="Brekkebakken" />
		<tag k="natural" v="slope" />
		<tag k="place" v="locality" />
		<tag k="ssr:stedsnr" v="840463" />
	</node>
	<node id="-738513" lat="68.7009777795" lon="17.406450007">
		<tag k="name" v="Slettebakken" />
		<tag k="natural" v="slope" />
		<tag k="place" v="locality" />
		<tag k="ssr:stedsnr" v="840462" />
	</node>
	<node id="-738512" lat="68.6991805541" lon="17.4090694485">
		<tag k="fixme" v="consider natural=peak for the most distinct mountains in the district" />
		<tag k="name" v="Brekka" />
		<tag k="natural" v="hill" />
		<tag k="place" v="locality" />
		<tag k="ssr:stedsnr" v="840461" />
	</node>
	<node id="-738511" lat="68.6998333369" lon="17.4261722129">
		<tag k="name" v="Hellarn" />
		<tag k="natural" v="hill" />
		<tag k="place" v="locality" />
		<tag k="ssr:stedsnr" v="840459" />
	</node>
	<node id="-738510" lat="68.6974111114" lon="17.3570750097">
		<tag k="name" v="Trollhågen" />
		<tag k="natural" v="hill" />
		<tag k="place" v="locality" />
		<tag k="ssr:stedsnr" v="840456" />
	</node>
	<node id="-738509" lat="68.7169027751" lon="17.4806944335">
		<tag k="name" v="Stinabergan" />
		<tag k="natural" v="hill" />
		<tag k="place" v="locality" />
		<tag k="ssr:stedsnr" v="840446" />
	</node>
	<node id="-738508" lat="68.7207583303" lon="17.388691668">
		<tag k="name" v="Langmyra" />
		<tag k="natural" v="wetland" />
		<tag k="ssr:stedsnr" v="840436" />
	</node>
	<node id="-738507" lat="68.7214972223" lon="17.376888886">
		<tag k="name" v="Nersteskaret" />
		<tag k="natural" v="valley" />
		<tag k="place" v="locality" />
		<tag k="ssr:stedsnr" v="840424" />
	</node>
	<node id="-738506" lat="68.6438361085" lon="17.4881388759">
		<tag k="name" v="Botnelva" />
		<tag k="ssr:stedsnr" v="840422" />
		<tag k="waterway" v="stream" />
	</node>
	<node id="-738505" lat="68.7698222264" lon="17.2935777675">
		<tag k="fixme" v="consider natural=peak for the most distinct mountains in the district" />
		<tag k="name" v="Litjefløya" />
		<tag k="natural" v="hill" />
		<tag k="place" v="locality" />
		<tag k="ssr:stedsnr" v="840416" />
	</node>
	<node id="-738504" lat="68.638683333" lon="17.7262750068">
		<tag k="fixme" v="consider place=hamlet" />
		<tag k="loc_name:no" v="Kvernmoen" />
		<tag k="loc_name:se" v="Skáidi" />
		<tag k="name" v="Kvernmo" />
		<tag k="name:no" v="Kvernmo" />
		<tag k="place" v="village" />
		<tag k="ssr:stedsnr" v="840371" />
	</node>
	<node id="-738503" lat="68.6729361086" lon="17.6958249929">
		<tag k="fixme" v="consider place=hamlet" />
		<tag k="loc_name:se" v="Vuotnavahta" />
		<tag k="name" v="Fjordbotn" />
		<tag k="name:no" v="Fjordbotn" />
		<tag k="place" v="village" />
		<tag k="ssr:stedsnr" v="840358" />
	</node>
	<node id="-738502" lat="68.6828388879" lon="17.5980027659">
		<tag k="name" v="Ingerholla" />
		<tag k="natural" v="valley" />
		<tag k="place" v="locality" />
		<tag k="ssr:stedsnr" v="840343" />
	</node>
	<node id="-738501" lat="68.688861108" lon="17.6579972263">
		<tag k="name" v="Fjordbotnlian" />
		<tag k="natural" v="slope" />
		<tag k="place" v="locality" />
		<tag k="ssr:stedsnr" v="840341" />
	</node>
	<node id="-738500" lat="68.6842972267" lon="17.5503277684">
		<tag k="fixme" v="consider place=hamlet" />
		<tag k="loc_name:se" v="Strávvenjárga" />
		<tag k="name" v="Straumsnes" />
		<tag k="name:no" v="Straumsnes" />
		<tag k="place" v="village" />
		<tag k="ssr:stedsnr" v="840337" />
	</node>
	<node id="-738499" lat="68.6503916662" lon="17.545050004">
		<tag k="highway" v="path" />
		<tag k="name" v="Skogveien" />
		<tag k="ssr:stedsnr" v="840315" />
	</node>
	<node id="-738498" lat="68.7990833319" lon="17.4047166679">
		<tag k="name" v="Bonasklubben" />
		<tag k="natural" v="hill" />
		<tag k="place" v="locality" />
		<tag k="ssr:stedsnr" v="840278" />
	</node>
	<node id="-738497" lat="68.8049388921" lon="17.4220416612">
		<tag k="fixme" v="consider natural=peak for the most distinct mountains in the district" />
		<tag k="name" v="Vardefjell" />
		<tag k="natural" v="hill" />
		<tag k="place" v="locality" />
		<tag k="ssr:stedsnr" v="840277" />
	</node>
	<node id="-738496" lat="68.7418583308" lon="17.4592833252">
		<tag k="name" v="Ramnfløybergan" />
		<tag k="natural" v="hill" />
		<tag k="place" v="locality" />
		<tag k="ssr:stedsnr" v="840262" />
	</node>
	<node id="-738495" lat="68.7870361103" lon="17.3375249937">
		<tag k="name" v="Rotnes" />
		<tag k="natural" v="cape" />
		<tag k="ssr:stedsnr" v="839425" />
	</node>
	<node id="-738494" lat="68.7252666653" lon="17.2863527871">
		<tag k="fixme" v="consider natural=peak for the most distinct mountains in the district" />
		<tag k="name" v="Tinden" />
		<tag k="natural" v="hill" />
		<tag k="ssr:stedsnr" v="839415" />
	</node>
	<node id="-738493" lat="68.7251472242" lon="17.2048972293">
		<tag k="name" v="Svaberget" />
		<tag k="natural" v="hill" />
		<tag k="place" v="locality" />
		<tag k="ssr:stedsnr" v="839413" />
	</node>
	<node id="-738492" lat="68.6746277821" lon="17.689052765">
		<tag k="name" v="Smålian" />
		<tag k="natural" v="slope" />
		<tag k="place" v="locality" />
		<tag k="ssr:stedsnr" v="819655" />
	</node>
	<node id="-738491" lat="68.7281027747" lon="17.376874988">
		<tag k="name" v="Silsand" />
		<tag k="natural" v="bay" />
		<tag k="ssr:stedsnr" v="818243" />
	</node>
	<node id="-738490" lat="68.7187750007" lon="17.4753416738">
		<tag k="loc_name:se" v="Skikta" />
		<tag k="name" v="Skifte" />
		<tag k="name:no" v="Skifte" />
		<tag k="place" v="hamlet" />
		<tag k="ssr:stedsnr" v="817751" />
	</node>
	<node id="-738489" lat="68.6394527782" lon="17.5126166728">
		<tag k="name" v="Botnhågen" />
		<tag k="natural" v="hill" />
		<tag k="place" v="locality" />
		<tag k="ssr:stedsnr" v="817729" />
	</node>
	<node id="-738488" lat="68.678822219" lon="17.4960166699">
		<tag k="name" v="Sorteberget" />
		<tag k="natural" v="hill" />
		<tag k="place" v="locality" />
		<tag k="ssr:stedsnr" v="817714" />
	</node>
	<node id="-738487" lat="68.7205722187" lon="17.4758138863">
		<tag k="name" v="Ytter-Skifte" />
		<tag k="place" v="farm" />
		<tag k="ssr:stedsnr" v="817540" />
	</node>
	<node id="-738486" lat="68.6772305529" lon="17.4925500062">
		<tag k="name" v="Sortebekk" />
		<tag k="place" v="farm" />
		<tag k="ssr:stedsnr" v="817532" />
	</node>
	<node id="-738485" lat="68.6976694448" lon="17.3448361189">
		<tag k="name" v="Storsulvatnet" />
		<tag k="natural" v="water" />
		<tag k="ssr:stedsnr" v="809988" />
	</node>
	<node id="-738484" lat="68.7257777808" lon="17.2718666626">
		<tag k="loc_name:se" v="Hilssájohka" />
		<tag k="name" v="Hilleshamnelva" />
		<tag k="name:no" v="Hilleshamnelva" />
		<tag k="ssr:stedsnr" v="809967" />
		<tag k="waterway" v="stream" />
	</node>
	<node id="-738483" lat="68.7102972227" lon="17.3941472298">
		<tag k="fixme" v="consider natural=peak for the most distinct mountains in the district" />
		<tag k="name" v="Tjuvskjærholtan" />
		<tag k="natural" v="hill" />
		<tag k="place" v="locality" />
		<tag k="ssr:stedsnr" v="809960" />
	</node>
	<node id="-738482" lat="68.7383611114" lon="17.3395444463">
		<tag k="name" v="Småvika" />
		<tag k="natural" v="bay" />
		<tag k="ssr:stedsnr" v="807917" />
	</node>
	<node id="-738481" lat="68.7400888855" lon="17.3585194288">
		<tag k="alt_name" v="Finnvika" />
		<tag k="name" v="Finnevika" />
		<tag k="natural" v="bay" />
		<tag k="ssr:stedsnr" v="807916" />
	</node>
	<node id="-738480" lat="68.6369111126" lon="17.7518833254">
		<tag k="loc_name:se" v="Skáiddijohka" />
		<tag k="name" v="Kvernmoelva" />
		<tag k="name:no" v="Kvernmoelva" />
		<tag k="ssr:stedsnr" v="807517" />
		<tag k="waterway" v="stream" />
	</node>
	<node id="-738479" lat="68.7582944465" lon="17.2874666648">
		<tag k="fixme" v="consider natural=peak for the most distinct mountains in the district" />
		<tag k="name" v="Veten" />
		<tag k="natural" v="hill" />
		<tag k="place" v="locality" />
		<tag k="ssr:stedsnr" v="806985" />
	</node>
	<node id="-738478" lat="68.7569638923" lon="17.4048972337">
		<tag k="fixme" v="consider natural=peak for the most distinct mountains in the district" />
		<tag k="name" v="Rødfjellet" />
		<tag k="natural" v="hill" />
		<tag k="place" v="locality" />
		<tag k="ssr:stedsnr" v="806983" />
	</node>
	<node id="-738477" lat="68.7918305569" lon="17.3607583317">
		<tag k="alt_name" v="Lauvdal, store" />
		<tag k="name" v="Store Lauvdal" />
		<tag k="old_name" v="Lauvdal" />
		<tag k="place" v="farm" />
		<tag k="ssr:stedsnr" v="806959" />
	</node>
	<node id="-738476" lat="68.6761333379" lon="17.73453888">
		<tag k="name" v="Storslettskogen" />
		<tag k="place" v="locality" />
		<tag k="ssr:stedsnr" v="806614" />
	</node>
	<node id="-738475" lat="68.6719000011" lon="17.5155194518">
		<tag k="name" v="Tjønnemyra" />
		<tag k="natural" v="wetland" />
		<tag k="ssr:stedsnr" v="806603" />
	</node>
	<node id="-738474" lat="68.5996555563" lon="17.7089249921">
		<tag k="name" v="Litjevatnet" />
		<tag k="natural" v="water" />
		<tag k="ssr:stedsnr" v="806541" />
	</node>
	<node id="-738473" lat="68.6194833318" lon="17.7581527761">
		<tag k="name" v="Leigassletta" />
		<tag k="place" v="locality" />
		<tag k="ssr:stedsnr" v="806535" />
	</node>
	<node id="-738472" lat="68.7440222206" lon="17.375108341">
		<tag k="name" v="Moldforholla" />
		<tag k="natural" v="valley" />
		<tag k="place" v="locality" />
		<tag k="ssr:stedsnr" v="779501" />
	</node>
	<node id="-738471" lat="68.750536113" lon="17.3796138923">
		<tag k="name" v="Keipsletta" />
		<tag k="place" v="locality" />
		<tag k="ssr:stedsnr" v="779493" />
	</node>
	<node id="-738470" lat="68.6879083303" lon="17.408594451">
		<tag k="name" v="Forsemyra" />
		<tag k="natural" v="wetland" />
		<tag k="ssr:stedsnr" v="779489" />
	</node>
	<node id="-738469" lat="68.6898027754" lon="17.4211111203">
		<tag k="name" v="Holteberget" />
		<tag k="natural" v="hill" />
		<tag k="place" v="locality" />
		<tag k="ssr:stedsnr" v="779483" />
	</node>
	<node id="-738468" lat="68.6893805563" lon="17.4248888848">
		<tag k="name" v="Moa" />
		<tag k="place" v="isolated_dwelling" />
		<tag k="ssr:stedsnr" v="779482" />
	</node>
	<node id="-738467" lat="68.7043333297" lon="17.4902361106">
		<tag k="name" v="Gluggeporten" />
		<tag k="natural" v="slope" />
		<tag k="place" v="locality" />
		<tag k="ssr:stedsnr" v="779467" />
	</node>
	<node id="-738466" lat="68.6734055546" lon="17.5084638784">
		<tag k="name" v="Gråberget" />
		<tag k="natural" v="hill" />
		<tag k="place" v="locality" />
		<tag k="ssr:stedsnr" v="779446" />
	</node>
	<node id="-738465" lat="68.6520000036" lon="17.7177222126">
		<tag k="highway" v="path" />
		<tag k="name" v="Hulderveien" />
		<tag k="ssr:stedsnr" v="779386" />
	</node>
	<node id="-738464" lat="68.6742361145" lon="17.7961527719">
		<tag k="fixme" v="consider natural=peak for the most distinct mountains in the district" />
		<tag k="name" v="Sølvfjellet" />
		<tag k="natural" v="hill" />
		<tag k="place" v="locality" />
		<tag k="ssr:stedsnr" v="779366" />
	</node>
	<node id="-738463" lat="68.6928055578" lon="17.5195249887">
		<tag k="name" v="Kirkenes" />
		<tag k="natural" v="cape" />
		<tag k="ssr:stedsnr" v="779364" />
	</node>
	<node id="-738462" lat="68.691033332" lon="17.5299361021">
		<tag k="name" v="Vika" />
		<tag k="natural" v="bay" />
		<tag k="ssr:stedsnr" v="779362" />
	</node>
	<node id="-738461" lat="68.6797583363" lon="17.536158338">
		<tag k="name" v="Molvika" />
		<tag k="natural" v="bay" />
		<tag k="ssr:stedsnr" v="779351" />
	</node>
	<node id="-738460" lat="68.657216669" lon="17.5377194494">
		<tag k="name" v="Alkegammen" />
		<tag k="place" v="locality" />
		<tag k="ssr:stedsnr" v="779333" />
	</node>
	<node id="-738459" lat="68.6740777792" lon="17.5828083343">
		<tag k="name" v="Lømyra" />
		<tag k="natural" v="wetland" />
		<tag k="ssr:stedsnr" v="779293" />
	</node>
	<node id="-738458" lat="68.7372611143" lon="17.4527916536">
		<tag k="name" v="Olpålsaberget" />
		<tag k="natural" v="hill" />
		<tag k="place" v="locality" />
		<tag k="ssr:stedsnr" v="779268" />
	</node>
	<node id="-738457" lat="68.7417749989" lon="17.332805543">
		<tag k="name" v="Mølnelva" />
		<tag k="ssr:stedsnr" v="778414" />
		<tag k="waterway" v="stream" />
	</node>
	<node id="-738456" lat="68.7242083371" lon="17.2051527654">
		<tag k="name" v="Skavlia" />
		<tag k="natural" v="slope" />
		<tag k="place" v="locality" />
		<tag k="ssr:stedsnr" v="778400" />
	</node>
	<node id="-738455" lat="68.7259972237" lon="17.2801527765">
		<tag k="fixme" v="consider natural=peak for the most distinct mountains in the district" />
		<tag k="name" v="Storlemman" />
		<tag k="natural" v="hill" />
		<tag k="place" v="locality" />
		<tag k="ssr:stedsnr" v="778395" />
	</node>
	<node id="-738454" lat="68.7357388917" lon="17.2804305478">
		<tag k="name" v="Kalvegjerdspira" />
		<tag k="natural" v="hill" />
		<tag k="place" v="locality" />
		<tag k="ssr:stedsnr" v="778389" />
	</node>
	<node id="-738453" lat="68.7065388893" lon="17.3460861084">
		<tag k="name" v="Rundvatnet" />
		<tag k="natural" v="water" />
		<tag k="ssr:stedsnr" v="778375" />
	</node>
	<node id="-738452" lat="68.7549527749" lon="17.2549555505">
		<tag k="name" v="Nesseberget" />
		<tag k="natural" v="hill" />
		<tag k="place" v="locality" />
		<tag k="ssr:stedsnr" v="778373" />
	</node>
	<node id="-738451" lat="68.6776222253" lon="17.6825555645">
		<tag k="name" v="Grønnlia" />
		<tag k="natural" v="slope" />
		<tag k="place" v="locality" />
		<tag k="ssr:stedsnr" v="758670" />
	</node>
	<node id="-738450" lat="68.6923888887" lon="17.5502527638">
		<tag k="name" v="Bjørnvika" />
		<tag k="natural" v="bay" />
		<tag k="ssr:stedsnr" v="758651" />
	</node>
	<node id="-738449" lat="68.7594416683" lon="17.2588500089">
		<tag k="alt_name" v="Høynesmoen" />
		<tag k="name" v="Høgnesmoen" />
		<tag k="place" v="locality" />
		<tag k="ssr:stedsnr" v="757913" />
	</node>
	<node id="-738448" lat="68.6765472234" lon="17.5057611099">
		<tag k="name" v="Laberget" />
		<tag k="place" v="farm" />
		<tag k="ssr:stedsnr" v="756651" />
	</node>
	<node id="-738447" lat="68.6999416647" lon="17.4919055419">
		<tag k="name" v="Åkenes" />
		<tag k="place" v="farm" />
		<tag k="ssr:stedsnr" v="756557" />
	</node>
	<node id="-738446" lat="68.6993666641" lon="17.4920138879">
		<tag k="name" v="Åkenes" />
		<tag k="place" v="farm" />
		<tag k="ssr:stedsnr" v="756544" />
	</node>
	<node id="-738445" lat="68.7753611072" lon="17.2869416569">
		<tag k="fixme" v="consider place=hamlet" />
		<tag k="name" v="Myrlandshaugen" />
		<tag k="place" v="farm" />
		<tag k="ssr:stedsnr" v="756537" />
	</node>
	<node id="-738444" lat="68.8137750008" lon="17.4184888894">
		<tag k="name" v="Selnes" />
		<tag k="place" v="hamlet" />
		<tag k="ssr:stedsnr" v="754181" />
	</node>
	<node id="-738443" lat="68.7561638905" lon="17.3929194356">
		<tag k="fixme" v="consider natural=peak for the most distinct mountains in the district" />
		<tag k="name" v="Risen" />
		<tag k="natural" v="hill" />
		<tag k="place" v="locality" />
		<tag k="ssr:stedsnr" v="752231" />
	</node>
	<node id="-738442" lat="68.6875333354" lon="17.2776305485">
		<tag k="name" v="Foldvikvatnet - Girkojávri" />
		<tag k="name:no" v="Foldvikvatnet" />
		<tag k="name:se" v="Girkojávri" />
		<tag k="natural" v="water" />
		<tag k="ssr:stedsnr" v="748979" />
		<tag k="water" v="lake" />
	</node>
	<node id="-738441" lat="68.7270805556" lon="17.2179750091">
		<tag k="name" v="Djuphola" />
		<tag k="natural" v="bay" />
		<tag k="ssr:stedsnr" v="748969" />
	</node>
	<node id="-738440" lat="68.6494944407" lon="17.4003611027">
		<tag k="name" v="Melladalen - Gaskariehppi" />
		<tag k="name:no" v="Melladalen" />
		<tag k="name:se" v="Gaskariehppi" />
		<tag k="natural" v="valley" />
		<tag k="place" v="locality" />
		<tag k="ssr:stedsnr" v="748899" />
	</node>
	<node id="-738439" lat="68.6430722183" lon="17.3686972156">
		<tag k="fixme" v="consider natural=peak for the most distinct mountains in the district" />
		<tag k="name" v="Urfjellet - Juovvavárri" />
		<tag k="name:no" v="Urfjellet" />
		<tag k="name:se" v="Juovvavárri" />
		<tag k="natural" v="hill" />
		<tag k="place" v="locality" />
		<tag k="ssr:stedsnr" v="748886" />
	</node>
	<node id="-738438" lat="68.6375416648" lon="17.7292277632">
		<tag k="loc_name:se" v="Skáidi" />
		<tag k="name" v="Kvernmo" />
		<tag k="name:no" v="Kvernmo" />
		<tag k="place" v="farm" />
		<tag k="ssr:stedsnr" v="746533" />
	</node>
	<node id="-738437" lat="68.6375472205" lon="17.8093805569">
		<tag k="name" v="Lortskaret" />
		<tag k="natural" v="valley" />
		<tag k="place" v="locality" />
		<tag k="ssr:stedsnr" v="746512" />
	</node>
	<node id="-738436" lat="68.6194694441" lon="17.6626860985">
		<tag k="alt_name" v="Mellavasselva" />
		<tag k="name" v="Mellomvasselva" />
		<tag k="ssr:stedsnr" v="746505" />
		<tag k="waterway" v="river" />
	</node>
	<node id="-738435" lat="68.6230749991" lon="17.6744222284">
		<tag k="name" v="Mellomvasshaugen - Váráš" />
		<tag k="name:no" v="Mellomvasshaugen" />
		<tag k="name:se" v="Váráš" />
		<tag k="natural" v="hill" />
		<tag k="old_name:se" v="Varaš" />
		<tag k="place" v="locality" />
		<tag k="ssr:stedsnr" v="746506" />
	</node>
	<node id="-738434" lat="68.7735166708" lon="17.2785250042">
		<tag k="fixme" v="consider place=hamlet" />
		<tag k="name" v="Myrlandshaugen" />
		<tag k="place" v="village" />
		<tag k="ssr:stedsnr" v="745951" />
	</node>
	<node id="-738433" lat="68.6725611072" lon="17.6460555469">
		<tag k="name" v="Elveneshågen" />
		<tag k="place" v="farm" />
		<tag k="ssr:stedsnr" v="745614" />
	</node>
	<node id="-738432" lat="68.7479611118" lon="17.420080553">
		<tag k="name" v="Gårdselva" />
		<tag k="ssr:stedsnr" v="718505" />
		<tag k="waterway" v="stream" />
	</node>
	<node id="-738431" lat="68.6935305555" lon="17.3670027782">
		<tag k="name" v="Trollhågelva" />
		<tag k="ssr:stedsnr" v="718486" />
		<tag k="waterway" v="stream" />
	</node>
	<node id="-738430" lat="68.6930388913" lon="17.4094444541">
		<tag k="name" v="Svartdalen" />
		<tag k="natural" v="valley" />
		<tag k="place" v="locality" />
		<tag k="ssr:stedsnr" v="718487" />
	</node>
	<node id="-738429" lat="68.7154500012" lon="17.5012805435">
		<tag k="name" v="Småhamran" />
		<tag k="natural" v="hill" />
		<tag k="place" v="locality" />
		<tag k="ssr:stedsnr" v="718474" />
	</node>
	<node id="-738428" lat="68.7179027816" lon="17.4968861106">
		<tag k="name" v="Engelstad" />
		<tag k="place" v="locality" />
		<tag k="ssr:stedsnr" v="718467" />
	</node>
	<node id="-738427" lat="68.6764694445" lon="17.4151555525">
		<tag k="name" v="Dalemyra" />
		<tag k="natural" v="wetland" />
		<tag k="ssr:stedsnr" v="718442" />
	</node>
	<node id="-738426" lat="68.636461111" lon="17.7712277813">
		<tag k="fixme" v="consider natural=peak for the most distinct mountains in the district" />
		<tag k="name" v="Jierrebákti" />
		<tag k="name:se" v="Jierrebákti" />
		<tag k="natural" v="hill" />
		<tag k="place" v="locality" />
		<tag k="ssr:stedsnr" v="718396" />
	</node>
	<node id="-738425" lat="68.6742111095" lon="17.7378527661">
		<tag k="name" v="Storsletthaugen" />
		<tag k="natural" v="hill" />
		<tag k="place" v="locality" />
		<tag k="ssr:stedsnr" v="718379" />
	</node>
	<node id="-738424" lat="68.6347305546" lon="17.7387666719">
		<tag k="highway" v="path" />
		<tag k="name" v="Saunesveien" />
		<tag k="ssr:stedsnr" v="718376" />
	</node>
	<node id="-738423" lat="68.6950888912" lon="17.5150694388">
		<tag k="name" v="Stien" />
		<tag k="natural" v="slope" />
		<tag k="place" v="locality" />
		<tag k="ssr:stedsnr" v="718364" />
	</node>
	<node id="-738422" lat="68.7026027747" lon="17.5544055469">
		<tag k="name" v="Hillestien" />
		<tag k="natural" v="slope" />
		<tag k="place" v="locality" />
		<tag k="ssr:stedsnr" v="718362" />
	</node>
	<node id="-738421" lat="68.7064333318" lon="17.5157055568">
		<tag k="name" v="Tverrbakkan" />
		<tag k="natural" v="slope" />
		<tag k="place" v="locality" />
		<tag k="ssr:stedsnr" v="718353" />
	</node>
	<node id="-738420" lat="68.7882138921" lon="17.3504111213">
		<tag k="name" v="Store Løvdal" />
		<tag k="place" v="farm" />
		<tag k="ssr:stedsnr" v="717657" />
	</node>
	<node id="-738419" lat="68.6734333362" lon="17.5209444347">
		<tag k="name" v="Bjørnbåsen" />
		<tag k="natural" v="valley" />
		<tag k="place" v="locality" />
		<tag k="ssr:stedsnr" v="718301" />
	</node>
	<node id="-738418" lat="68.6744194487" lon="17.5211055452">
		<tag k="name" v="Milstrupen" />
		<tag k="natural" v="wetland" />
		<tag k="ssr:stedsnr" v="718299" />
	</node>
	<node id="-738417" lat="68.8031916661" lon="17.3920944343">
		<tag k="name" v="Elvevoll" />
		<tag k="place" v="farm" />
		<tag k="ssr:stedsnr" v="718283" />
	</node>
	<node id="-738416" lat="68.8044694428" lon="17.4089722253">
		<tag k="name" v="Mølleelva" />
		<tag k="ssr:stedsnr" v="718280" />
		<tag k="waterway" v="stream" />
	</node>
	<node id="-738415" lat="68.8193638908" lon="17.4574166531">
		<tag k="name" v="Ungsmalberget" />
		<tag k="natural" v="hill" />
		<tag k="place" v="locality" />
		<tag k="ssr:stedsnr" v="718271" />
	</node>
	<node id="-738414" lat="68.7941888897" lon="17.398686107">
		<tag k="name" v="Belnesgrinda" />
		<tag k="natural" v="hill" />
		<tag k="place" v="locality" />
		<tag k="ssr:stedsnr" v="718269" />
	</node>
	<node id="-738413" lat="68.732249997" lon="17.2982416515">
		<tag k="name" v="Kvernvika" />
		<tag k="natural" v="bay" />
		<tag k="ssr:stedsnr" v="717440" />
	</node>
	<node id="-738412" lat="68.7864611109" lon="17.3531499861">
		<tag k="name" v="Løelva" />
		<tag k="ssr:stedsnr" v="717438" />
		<tag k="waterway" v="stream" />
	</node>
	<node id="-738411" lat="68.7288944448" lon="17.2803249903">
		<tag k="name" v="Slettbakkan" />
		<tag k="natural" v="slope" />
		<tag k="place" v="locality" />
		<tag k="ssr:stedsnr" v="717421" />
	</node>
	<node id="-738410" lat="68.7235861157" lon="17.2846749899">
		<tag k="fixme" v="consider natural=peak for the most distinct mountains in the district" />
		<tag k="name" v="Tuva" />
		<tag k="natural" v="hill" />
		<tag k="ssr:stedsnr" v="717417" />
	</node>
	<node id="-738409" lat="68.7496361097" lon="17.3117111192">
		<tag k="name" v="Furåselva" />
		<tag k="ssr:stedsnr" v="717408" />
		<tag k="waterway" v="stream" />
	</node>
	<node id="-738408" lat="68.7182555544" lon="17.3234305435">
		<tag k="name" v="Åmundsvikvatnan" />
		<tag k="natural" v="water" />
		<tag k="ssr:stedsnr" v="717402" />
		<tag k="water" v="lake" />
	</node>
	<node id="-738407" lat="68.6884166667" lon="17.3300750049">
		<tag k="fixme" v="consider natural=peak for the most distinct mountains in the district" />
		<tag k="name" v="Innersulaksla" />
		<tag k="natural" v="hill" />
		<tag k="place" v="locality" />
		<tag k="ssr:stedsnr" v="717401" />
	</node>
	<node id="-738406" lat="68.7461083374" lon="17.390813886">
		<tag k="name" v="Åmundsberget" />
		<tag k="natural" v="cape" />
		<tag k="ssr:stedsnr" v="697862" />
	</node>
	<node id="-738405" lat="68.7783305588" lon="17.2405555573">
		<tag k="name" v="Salangsgrunnen" />
		<tag k="natural" v="shoal" />
		<tag k="place" v="locality" />
		<tag k="ssr:stedsnr" v="697402" />
	</node>
	<node id="-738404" lat="68.7393083315" lon="17.3533666606">
		<tag k="name" v="Finnvikneset" />
		<tag k="natural" v="cape" />
		<tag k="ssr:stedsnr" v="696898" />
	</node>
	<node id="-738403" lat="68.6861527759" lon="17.5472222159">
		<tag k="name" v="Straumen" />
		<tag k="natural" v="strait" />
		<tag k="ssr:stedsnr" v="695652" />
	</node>
	<node id="-738402" lat="68.6802944411" lon="17.6034805527">
		<tag k="name" v="Hågen" />
		<tag k="natural" v="hill" />
		<tag k="place" v="locality" />
		<tag k="ssr:stedsnr" v="695645" />
	</node>
	<node id="-738401" lat="68.7428555545" lon="17.4379722218">
		<tag k="name" v="Lavik" />
		<tag k="place" v="farm" />
		<tag k="ssr:stedsnr" v="695549" />
	</node>
	<node id="-738400" lat="68.6584916656" lon="17.4012000021">
		<tag k="name" v="Dudalen - Guhtovággi" />
		<tag k="name:no" v="Dudalen" />
		<tag k="name:se" v="Guhtovággi" />
		<tag k="natural" v="valley" />
		<tag k="place" v="locality" />
		<tag k="ssr:stedsnr" v="688990" />
	</node>
	<node id="-738399" lat="68.7697583357" lon="17.3259305496">
		<tag k="fixme" v="consider natural=peak for the most distinct mountains in the district" />
		<tag k="name" v="Klubben" />
		<tag k="natural" v="hill" />
		<tag k="place" v="locality" />
		<tag k="ssr:stedsnr" v="685949" />
	</node>
	<node id="-738398" lat="68.7211750001" lon="17.5532972297">
		<tag k="name" v="Resselvvatnet" />
		<tag k="natural" v="water" />
		<tag k="ssr:stedsnr" v="685918" />
	</node>
	<node id="-738397" lat="68.7453916704" lon="17.4238194447">
		<tag k="alt_name" v="Lavika" />
		<tag k="name" v="Lavik" />
		<tag k="place" v="hamlet" />
		<tag k="ssr:stedsnr" v="685917" />
	</node>
	<node id="-738396" lat="68.7332083318" lon="17.2702388846">
		<tag k="fixme" v="consider place=hamlet" />
		<tag k="loc_name:se" v="Hilsá" />
		<tag k="name" v="Hilleshamn" />
		<tag k="name:no" v="Hilleshamn" />
		<tag k="place" v="village" />
		<tag k="ssr:stedsnr" v="685910" />
	</node>
	<node id="-738395" lat="68.6690222239" lon="17.7965388772">
		<tag k="name" v="Perniamyra" />
		<tag k="natural" v="wetland" />
		<tag k="ssr:stedsnr" v="685606" />
	</node>
	<node id="-738394" lat="68.6895527795" lon="17.4483722104">
		<tag k="name" v="Litjeøya" />
		<tag k="place" v="islet" />
		<tag k="ssr:stedsnr" v="685567" />
	</node>
	<node id="-738393" lat="68.6769203448" lon="17.4942628513">
		<tag k="alt_name" v="Sortebekken" />
		<tag k="name" v="Svartebekken" />
		<tag k="place" v="hamlet" />
		<tag k="ssr:stedsnr" v="685564" />
	</node>
	<node id="-738392" lat="68.6119361087" lon="17.7176416744">
		<tag k="name" v="Rundvatnet" />
		<tag k="natural" v="water" />
		<tag k="ssr:stedsnr" v="685555" />
	</node>
	<node id="-738391" lat="68.6191583357" lon="17.7222777808">
		<tag k="fixme" v="consider natural=peak for the most distinct mountains in the district" />
		<tag k="name" v="Roašmi" />
		<tag k="name:se" v="Roašmi" />
		<tag k="natural" v="hill" />
		<tag k="place" v="locality" />
		<tag k="ssr:stedsnr" v="685545" />
	</node>
	<node id="-738390" lat="68.6370444462" lon="17.7689861091">
		<tag k="alt_name" v="Indretverrelva" />
		<tag k="name" v="Indre Tverrelva" />
		<tag k="ssr:stedsnr" v="685514" />
		<tag k="waterway" v="stream" />
	</node>
	<node id="-738389" lat="68.6449138885" lon="17.6977500045">
		<tag k="name" v="Bjørnarvatnet" />
		<tag k="natural" v="water" />
		<tag k="ssr:stedsnr" v="685511" />
		<tag k="water" v="lake" />
	</node>
	<node id="-738388" lat="68.6200305535" lon="17.6200249966">
		<tag k="name" v="Holmen" />
		<tag k="place" v="islet" />
		<tag k="ssr:stedsnr" v="685502" />
	</node>
	<node id="-738387" lat="68.623675002" lon="17.5960944449">
		<tag k="loc_name:se" v="Gálajávri" />
		<tag k="name" v="Litjevatnet" />
		<tag k="name:no" v="Litjevatnet" />
		<tag k="natural" v="water" />
		<tag k="ssr:stedsnr" v="685501" />
	</node>
	<node id="-738386" lat="68.625972223" lon="17.6228361146">
		<tag k="name" v="Høgebakken" />
		<tag k="natural" v="slope" />
		<tag k="place" v="locality" />
		<tag k="ssr:stedsnr" v="685491" />
	</node>
	<node id="-738385" lat="68.8158583346" lon="17.4188916632">
		<tag k="fixme" v="multiple name tags, choose one and add the other to alt_name" />
		<tag k="name" v="Selnes;Neset" />
		<tag k="natural" v="cape" />
		<tag k="ssr:stedsnr" v="685187" />
	</node>
	<node id="-738384" lat="68.7497249994" lon="17.4247749989">
		<tag k="name" v="Lokkhåglia" />
		<tag k="natural" v="slope" />
		<tag k="place" v="locality" />
		<tag k="ssr:stedsnr" v="657505" />
	</node>
	<node id="-738383" lat="68.7467972225" lon="17.4286861157">
		<tag k="name" v="Lokkhågen" />
		<tag k="natural" v="hill" />
		<tag k="place" v="locality" />
		<tag k="ssr:stedsnr" v="657501" />
	</node>
	<node id="-738382" lat="68.697925001" lon="17.4122916664">
		<tag k="name" v="Foldvikskaret" />
		<tag k="natural" v="valley" />
		<tag k="place" v="locality" />
		<tag k="ssr:stedsnr" v="657482" />
	</node>
	<node id="-738381" lat="68.7108388887" lon="17.5036805494">
		<tag k="name" v="Høgebakken" />
		<tag k="natural" v="slope" />
		<tag k="place" v="locality" />
		<tag k="ssr:stedsnr" v="657468" />
	</node>
	<node id="-738380" lat="68.7079083313" lon="17.3974916566">
		<tag k="name" v="Heia" />
		<tag k="natural" v="hill" />
		<tag k="place" v="locality" />
		<tag k="ssr:stedsnr" v="657464" />
	</node>
	<node id="-738379" lat="68.7039749979" lon="17.3586805537">
		<tag k="name" v="Vinkelvatnan" />
		<tag k="natural" v="water" />
		<tag k="ssr:stedsnr" v="657462" />
		<tag k="water" v="lake" />
	</node>
	<node id="-738378" lat="68.6729722194" lon="17.5037333291">
		<tag k="name" v="Dalen" />
		<tag k="natural" v="valley" />
		<tag k="place" v="locality" />
		<tag k="ssr:stedsnr" v="657455" />
	</node>
	<node id="-738377" lat="68.678783329" lon="17.5107194515">
		<tag k="name" v="Pålfinnholla" />
		<tag k="natural" v="bay" />
		<tag k="ssr:stedsnr" v="657446" />
	</node>
	<node id="-738376" lat="68.6375833324" lon="17.7399027823">
		<tag k="name" v="Gjerdehaugen" />
		<tag k="natural" v="hill" />
		<tag k="place" v="locality" />
		<tag k="ssr:stedsnr" v="657392" />
	</node>
	<node id="-738375" lat="68.6741111126" lon="17.7290638809">
		<tag k="name" v="Skoddeløelva" />
		<tag k="ssr:stedsnr" v="657367" />
		<tag k="waterway" v="stream" />
	</node>
	<node id="-738374" lat="68.6944666661" lon="17.5332138976">
		<tag k="name" v="Vikelva" />
		<tag k="ssr:stedsnr" v="657362" />
		<tag k="waterway" v="stream" />
	</node>
	<node id="-738373" lat="68.6602944469" lon="17.6555888948">
		<tag k="fixme" v="consider natural=peak for the most distinct mountains in the district" />
		<tag k="name" v="Kollen" />
		<tag k="natural" v="hill" />
		<tag k="place" v="locality" />
		<tag k="ssr:stedsnr" v="657321" />
	</node>
	<node id="-738372" lat="68.6618250041" lon="17.6632388923">
		<tag k="highway" v="path" />
		<tag k="name" v="Kollveien" />
		<tag k="ssr:stedsnr" v="657322" />
	</node>
	<node id="-738371" lat="68.677355557" lon="17.6339888906">
		<tag k="fixme" v="consider place=hamlet" />
		<tag k="name" v="Grimjord" />
		<tag k="place" v="village" />
		<tag k="ssr:stedsnr" v="657295" />
	</node>
	<node id="-738370" lat="68.76674167" lon="17.3662916702">
		<tag k="name" v="Skarbotn" />
		<tag k="natural" v="valley" />
		<tag k="place" v="locality" />
		<tag k="ssr:stedsnr" v="657293" />
	</node>
	<node id="-738369" lat="68.7997500001" lon="17.3835666568">
		<tag k="name" v="Bergholla" />
		<tag k="natural" v="valley" />
		<tag k="place" v="locality" />
		<tag k="ssr:stedsnr" v="657290" />
	</node>
	<node id="-738368" lat="68.8031833347" lon="17.4124027817">
		<tag k="name" v="Mølleforsen" />
		<tag k="natural" v="waterfall" />
		<tag k="ssr:stedsnr" v="657278" />
	</node>
	<node id="-738367" lat="68.7915222259" lon="17.3713333381">
		<tag k="name" v="Masterlia" />
		<tag k="natural" v="slope" />
		<tag k="place" v="locality" />
		<tag k="ssr:stedsnr" v="657275" />
	</node>
	<node id="-738366" lat="68.7273749994" lon="17.4959444314">
		<tag k="name" v="Kjerringnesen" />
		<tag k="natural" v="hill" />
		<tag k="place" v="locality" />
		<tag k="ssr:stedsnr" v="657255" />
	</node>
	<node id="-738365" lat="68.771761111" lon="17.2716638801">
		<tag k="name" v="Storhågen" />
		<tag k="natural" v="hill" />
		<tag k="place" v="locality" />
		<tag k="ssr:stedsnr" v="656422" />
	</node>
	<node id="-738364" lat="68.7373027802" lon="17.3204944474">
		<tag k="name" v="Keila" />
		<tag k="natural" v="bay" />
		<tag k="ssr:stedsnr" v="656418" />
	</node>
	<node id="-738363" lat="68.7261638886" lon="17.2943277746">
		<tag k="name" v="Flaen" />
		<tag k="natural" v="hill" />
		<tag k="place" v="locality" />
		<tag k="ssr:stedsnr" v="656412" />
	</node>
	<node id="-738362" lat="68.7255277815" lon="17.2664138918">
		<tag k="name" v="Tverrlia" />
		<tag k="natural" v="slope" />
		<tag k="place" v="locality" />
		<tag k="ssr:stedsnr" v="656398" />
	</node>
	<node id="-738361" lat="68.7637500027" lon="17.3664944334">
		<tag k="name" v="Løvdalsskaret" />
		<tag k="natural" v="valley" />
		<tag k="place" v="locality" />
		<tag k="ssr:stedsnr" v="656396" />
	</node>
	<node id="-738360" lat="68.7257638927" lon="17.234438896">
		<tag k="fixme" v="consider natural=peak for the most distinct mountains in the district" />
		<tag k="name" v="Skjærvikflogan" />
		<tag k="natural" v="hill" />
		<tag k="place" v="locality" />
		<tag k="ssr:stedsnr" v="656388" />
	</node>
	<node id="-738359" lat="68.7563277786" lon="17.2540555544">
		<tag k="name" v="Jøvika" />
		<tag k="natural" v="bay" />
		<tag k="ssr:stedsnr" v="656383" />
	</node>
	<node id="-738358" lat="68.7110527767" lon="17.2044944467">
		<tag k="name" v="Rundvatnet" />
		<tag k="natural" v="water" />
		<tag k="ssr:stedsnr" v="656375" />
	</node>
	<node id="-738357" lat="68.811794448" lon="17.415149991">
		<tag k="fixme" v="multiple name tags, choose one and add the other to alt_name" />
		<tag k="name" v="Selnesvika;Vika" />
		<tag k="natural" v="bay" />
		<tag k="ssr:stedsnr" v="636970" />
	</node>
	<node id="-738356" lat="68.7428749982" lon="17.4331305422">
		<tag k="name" v="Brattberget" />
		<tag k="natural" v="hill" />
		<tag k="place" v="locality" />
		<tag k="ssr:stedsnr" v="635826" />
	</node>
	<node id="-738355" lat="68.722105557" lon="17.4227111156">
		<tag k="fixme" v="consider seamark:type=rock or natural=shoal" />
		<tag k="loc_name:se" v="Čuvváskearru" />
		<tag k="name" v="Tjuvskjæret" />
		<tag k="name:no" v="Tjuvskjæret" />
		<tag k="place" v="islet" />
		<tag k="ssr:stedsnr" v="635684" />
	</node>
	<node id="-738354" lat="68.6892750041" lon="17.4252194461">
		<tag k="name" v="Foldvik" />
		<tag k="place" v="farm" />
		<tag k="ssr:stedsnr" v="635680" />
	</node>
	<node id="-738353" lat="68.6934888925" lon="17.4277111152">
		<tag k="name" v="Foldvik" />
		<tag k="place" v="farm" />
		<tag k="ssr:stedsnr" v="635676" />
	</node>
	<node id="-738352" lat="68.6773916688" lon="17.5052666694">
		<tag k="name" v="Laberget" />
		<tag k="place" v="farm" />
		<tag k="ssr:stedsnr" v="634652" />
	</node>
	<node id="-738351" lat="68.6767583323" lon="17.4938194476">
		<tag k="name" v="Sortebekk" />
		<tag k="place" v="farm" />
		<tag k="ssr:stedsnr" v="634573" />
	</node>
	<node id="-738350" lat="68.7199055544" lon="17.4139500014">
		<tag k="name" v="Tjuvskjær" />
		<tag k="place" v="farm" />
		<tag k="ssr:stedsnr" v="628464" />
	</node>
	<node id="-738349" lat="68.6637388877" lon="17.4072999894">
		<tag k="name" v="Ruksesvárik" />
		<tag k="name:se" v="Ruksesvárik" />
		<tag k="natural" v="hill" />
		<tag k="place" v="locality" />
		<tag k="ssr:stedsnr" v="627267" />
	</node>
	<node id="-738348" lat="68.7211388918" lon="17.4156638945">
		<tag k="alt_name:no" v="Tjuvskjeret" />
		<tag k="loc_name:se" v="Čuvvá" />
		<tag k="name" v="Tjuvskjær" />
		<tag k="name:no" v="Tjuvskjær" />
		<tag k="place" v="hamlet" />
		<tag k="ssr:stedsnr" v="626970" />
	</node>
	<node id="-738347" lat="68.7514611072" lon="17.309005564">
		<tag k="alt_name" v="Mørkelva" />
		<tag k="name" v="Mørkeelva" />
		<tag k="ssr:stedsnr" v="625000" />
		<tag k="waterway" v="stream" />
	</node>
	<node id="-738346" lat="68.7622194468" lon="17.2536388934">
		<tag k="alt_name" v="Høyneset" />
		<tag k="name" v="Høgneset" />
		<tag k="natural" v="cape" />
		<tag k="ssr:stedsnr" v="624992" />
	</node>
	<node id="-738345" lat="68.7365611077" lon="17.5361388755">
		<tag k="name" v="Resselva" />
		<tag k="ssr:stedsnr" v="624929" />
		<tag k="waterway" v="river" />
	</node>
	<node id="-738344" lat="68.728027778" lon="17.3032027739">
		<tag k="name" v="Skarvbergvika" />
		<tag k="natural" v="bay" />
		<tag k="ssr:stedsnr" v="624909" />
	</node>
	<node id="-738343" lat="68.7505305569" lon="17.436166656">
		<tag k="name" v="Steinbergskarlian" />
		<tag k="natural" v="slope" />
		<tag k="place" v="locality" />
		<tag k="ssr:stedsnr" v="624624" />
	</node>
	<node id="-738342" lat="68.6697416635" lon="17.7653638888">
		<tag k="name" v="Finnesletta" />
		<tag k="place" v="locality" />
		<tag k="ssr:stedsnr" v="624610" />
	</node>
	<node id="-738341" lat="68.6685750005" lon="17.6682555569">
		<tag k="fixme" v="consider place=hamlet" />
		<tag k="loc_name:se" v="Rivttákbahta" />
		<tag k="name" v="Gratangsbotn" />
		<tag k="name:no" v="Gratangsbotn" />
		<tag k="place" v="village" />
		<tag k="ssr:stedsnr" v="624607" />
	</node>
	<node id="-738340" lat="68.675955555" lon="17.5071722281">
		<tag k="alt_name:no" v="Laberg" />
		<tag k="fixme" v="consider place=hamlet" />
		<tag k="loc_name:se" v="Gálla" />
		<tag k="name" v="Laberget" />
		<tag k="name:no" v="Laberget" />
		<tag k="place" v="village" />
		<tag k="ssr:stedsnr" v="624604" />
	</node>
	<node id="-738339" lat="68.6633833367" lon="17.7620111148">
		<tag k="name" v="Fjordbotnmarka - Skuhppi" />
		<tag k="name:no" v="Fjordbotnmarka" />
		<tag k="name:se" v="Skuhppi" />
		<tag k="old_name:se" v="Skuppi" />
		<tag k="place" v="locality" />
		<tag k="ssr:stedsnr" v="624588" />
	</node>
	<node id="-738338" lat="68.7076194478" lon="17.4789972245">
		<tag k="name" v="Svavika" />
		<tag k="natural" v="bay" />
		<tag k="ssr:stedsnr" v="624587" />
	</node>
	<node id="-738337" lat="68.6123027828" lon="17.7319610983">
		<tag k="name" v="Roašmejávrrit" />
		<tag k="name:se" v="Roašmejávrrit" />
		<tag k="natural" v="water" />
		<tag k="old_name:se" v="Roašmejavrit" />
		<tag k="ssr:stedsnr" v="624555" />
	</node>
	<node id="-738336" lat="68.619952781" lon="17.6710222302">
		<tag k="name" v="Bergevatnet" />
		<tag k="natural" v="water" />
		<tag k="ssr:stedsnr" v="624511" />
	</node>
	<node id="-738335" lat="68.6307444407" lon="17.8217222113">
		<tag k="fixme" v="consider natural=peak for the most distinct mountains in the district" />
		<tag k="name" v="Litletinden" />
		<tag k="natural" v="hill" />
		<tag k="place" v="locality" />
		<tag k="ssr:stedsnr" v="624508" />
	</node>
	<node id="-738334" lat="68.6458500009" lon="17.7194611075">
		<tag k="loc_name:se" v="Reaidu" />
		<tag k="name" v="Storhaugen" />
		<tag k="name:no" v="Storhaugen" />
		<tag k="natural" v="hill" />
		<tag k="place" v="locality" />
		<tag k="ssr:stedsnr" v="597380" />
	</node>
	<node id="-738333" lat="68.675708337" lon="17.6882694525">
		<tag k="name" v="Fjelloran" />
		<tag k="natural" v="scree" />
		<tag k="ssr:stedsnr" v="597372" />
	</node>
	<node id="-738332" lat="68.6873416652" lon="17.6491305503">
		<tag k="name" v="Smålian" />
		<tag k="natural" v="slope" />
		<tag k="place" v="locality" />
		<tag k="ssr:stedsnr" v="597352" />
	</node>
	<node id="-738331" lat="68.6850111133" lon="17.5839972295">
		<tag k="fixme" v="consider place=hamlet" />
		<tag k="name" v="Sandnes" />
		<tag k="place" v="village" />
		<tag k="ssr:stedsnr" v="597345" />
	</node>
	<node id="-738330" lat="68.8058527762" lon="17.4058222112">
		<tag k="name" v="Møllelvfeltet" />
		<tag k="place" v="locality" />
		<tag k="ssr:stedsnr" v="597290" />
	</node>
	<node id="-738329" lat="68.8077888908" lon="17.410322229">
		<tag k="name" v="Hestevollelva" />
		<tag k="ssr:stedsnr" v="597287" />
		<tag k="waterway" v="stream" />
	</node>
	<node id="-738328" lat="68.7505361139" lon="17.4031416661">
		<tag k="name" v="Nattmålshågen" />
		<tag k="natural" v="hill" />
		<tag k="place" v="locality" />
		<tag k="ssr:stedsnr" v="596451" />
	</node>
	<node id="-738327" lat="68.6949277788" lon="17.4065861155">
		<tag k="fixme" v="consider natural=peak for the most distinct mountains in the district" />
		<tag k="name" v="Høgda" />
		<tag k="natural" v="hill" />
		<tag k="place" v="locality" />
		<tag k="ssr:stedsnr" v="596442" />
	</node>
	<node id="-738326" lat="68.6931138901" lon="17.3768055623">
		<tag k="name" v="Vargedalen" />
		<tag k="natural" v="valley" />
		<tag k="place" v="locality" />
		<tag k="ssr:stedsnr" v="596432" />
	</node>
	<node id="-738325" lat="68.7133027775" lon="17.4838500034">
		<tag k="name" v="Kumyra" />
		<tag k="natural" v="wetland" />
		<tag k="ssr:stedsnr" v="596425" />
	</node>
	<node id="-738324" lat="68.7213166707" lon="17.4044166622">
		<tag k="name" v="Grindtøhågen" />
		<tag k="natural" v="hill" />
		<tag k="place" v="locality" />
		<tag k="ssr:stedsnr" v="596417" />
	</node>
	<node id="-738323" lat="68.7113833309" lon="17.4200416692">
		<tag k="name" v="Henrikskaret" />
		<tag k="natural" v="valley" />
		<tag k="place" v="locality" />
		<tag k="ssr:stedsnr" v="596416" />
	</node>
	<node id="-738322" lat="68.7670222195" lon="17.2722694304">
		<tag k="name" v="Storelva" />
		<tag k="ssr:stedsnr" v="596380" />
		<tag k="waterway" v="stream" />
	</node>
	<node id="-738321" lat="68.6824055561" lon="17.3338638912">
		<tag k="fixme" v="consider natural=peak for the most distinct mountains in the district" />
		<tag k="name" v="Ranen" />
		<tag k="natural" v="hill" />
		<tag k="place" v="locality" />
		<tag k="ssr:stedsnr" v="596365" />
	</node>
	<node id="-738320" lat="68.7677694468" lon="17.2948750054">
		<tag k="fixme" v="consider natural=peak for the most distinct mountains in the district" />
		<tag k="name" v="Storfløya" />
		<tag k="natural" v="hill" />
		<tag k="place" v="locality" />
		<tag k="ssr:stedsnr" v="596362" />
	</node>
	<node id="-738319" lat="68.7161388916" lon="17.4690472247">
		<tag k="name" v="Skifteneset" />
		<tag k="natural" v="cape" />
		<tag k="ssr:stedsnr" v="575754" />
	</node>
	<node id="-738318" lat="68.6364359179" lon="17.7283947412">
		<tag k="name" v="Kvernmo" />
		<tag k="place" v="farm" />
		<tag k="ssr:stedsnr" v="574762" />
	</node>
	<node id="-738317" lat="68.6987888908" lon="17.4268527812">
		<tag k="name" v="Foldvik" />
		<tag k="place" v="farm" />
		<tag k="ssr:stedsnr" v="574745" />
	</node>
	<node id="-738316" lat="68.7247111094" lon="17.5061999958">
		<tag k="name" v="Skifteaksla" />
		<tag k="place" v="locality" />
		<tag k="ssr:stedsnr" v="573598" />
	</node>
	<node id="-738315" lat="68.6948666669" lon="17.2446749862">
		<tag k="name" v="Skávhlenjárga" />
		<tag k="name:se" v="Skávhlenjárga" />
		<tag k="natural" v="cape" />
		<tag k="ssr:stedsnr" v="567239" />
	</node>
	<node id="-738314" lat="68.7539222194" lon="17.2574249975">
		<tag k="name" v="Grøsnes" />
		<tag k="natural" v="cape" />
		<tag k="ssr:stedsnr" v="566275" />
	</node>
	<node id="-738313" lat="68.7675194451" lon="17.3237416541">
		<tag k="alt_name" v="Klubbvatnet" />
		<tag k="name" v="Klubbevatnet" />
		<tag k="natural" v="water" />
		<tag k="ssr:stedsnr" v="563963" />
	</node>
	<node id="-738312" lat="68.7697138889" lon="17.3036111111">
		<tag k="fixme" v="consider natural=peak for the most distinct mountains in the district" />
		<tag k="name" v="Storfløyta" />
		<tag k="natural" v="hill" />
		<tag k="place" v="locality" />
		<tag k="ssr:stedsnr" v="563962" />
	</node>
	<node id="-738311" lat="68.7598833358" lon="17.4596555561">
		<tag k="name" v="Ystelimyran" />
		<tag k="natural" v="wetland" />
		<tag k="ssr:stedsnr" v="563774" />
	</node>
	<node id="-738310" lat="68.6640694412" lon="17.5941250027">
		<tag k="name" v="Bergevatnet" />
		<tag k="natural" v="water" />
		<tag k="ssr:stedsnr" v="563620" />
	</node>
	<node id="-738309" lat="68.6713194475" lon="17.6587194537">
		<tag k="name" v="Elvenes" />
		<tag k="natural" v="cape" />
		<tag k="ssr:stedsnr" v="563607" />
	</node>
	<node id="-738308" lat="68.7030527755" lon="17.4326444459">
		<tag k="name" v="Teistevoll" />
		<tag k="place" v="farm" />
		<tag k="ssr:stedsnr" v="563579" />
	</node>
	<node id="-738307" lat="68.714658331" lon="17.4809750014">
		<tag k="name" v="Ingerdalen" />
		<tag k="natural" v="valley" />
		<tag k="place" v="locality" />
		<tag k="ssr:stedsnr" v="563565" />
	</node>
	<node id="-738306" lat="68.6858111131" lon="17.5849388991">
		<tag k="alt_name" v="Sandnes" />
		<tag k="name" v="Sandneset" />
		<tag k="natural" v="cape" />
		<tag k="ssr:stedsnr" v="563562" />
	</node>
	<node id="-738305" lat="68.6838055542" lon="17.5753222173">
		<tag k="name" v="Donseflaten" />
		<tag k="natural" v="slope" />
		<tag k="place" v="locality" />
		<tag k="ssr:stedsnr" v="563559" />
	</node>
	<node id="-738304" lat="68.6844590249" lon="17.5486392587">
		<tag k="name" v="Strømsnes" />
		<tag k="natural" v="cape" />
		<tag k="ssr:stedsnr" v="563551" />
	</node>
	<node id="-738303" lat="68.6965388915" lon="17.5920194398">
		<tag k="name" v="Årsteinlian" />
		<tag k="natural" v="slope" />
		<tag k="place" v="locality" />
		<tag k="ssr:stedsnr" v="563549" />
	</node>
	<node id="-738302" lat="68.6020166691" lon="17.7813916632">
		<tag k="name" v="Britavatnet" />
		<tag k="natural" v="water" />
		<tag k="ssr:stedsnr" v="563535" />
	</node>
	<node id="-738301" lat="68.61997778" lon="17.7131527874">
		<tag k="name" v="Roasmeberget" />
		<tag k="natural" v="hill" />
		<tag k="place" v="locality" />
		<tag k="ssr:stedsnr" v="563530" />
	</node>
	<node id="-738300" lat="68.6115777754" lon="17.5691222289">
		<tag k="fixme" v="consider natural=peak for the most distinct mountains in the district" />
		<tag k="name" v="Rundfjellet - Geahčovárri" />
		<tag k="name:no" v="Rundfjellet" />
		<tag k="name:se" v="Geahčovárri" />
		<tag k="natural" v="hill" />
		<tag k="old_name:se" v="Gæččuvarri" />
		<tag k="place" v="locality" />
		<tag k="ssr:stedsnr" v="563521" />
	</node>
	<node id="-738299" lat="68.6967166708" lon="17.4276833308">
		<tag k="name" v="Linberget" />
		<tag k="natural" v="hill" />
		<tag k="place" v="locality" />
		<tag k="ssr:stedsnr" v="536457" />
	</node>
	<node id="-738298" lat="68.7034444476" lon="17.5096888761">
		<tag k="name" v="Godbærmoen" />
		<tag k="place" v="locality" />
		<tag k="ssr:stedsnr" v="536446" />
	</node>
	<node id="-738297" lat="68.7156861117" lon="17.3670055553">
		<tag k="name" v="Småvasslia" />
		<tag k="natural" v="slope" />
		<tag k="place" v="locality" />
		<tag k="ssr:stedsnr" v="536439" />
	</node>
	<node id="-738296" lat="68.6620583313" lon="17.4150305641">
		<tag k="name" v="Talggrøtbergan" />
		<tag k="natural" v="hill" />
		<tag k="place" v="locality" />
		<tag k="ssr:stedsnr" v="536422" />
	</node>
	<node id="-738295" lat="68.6249638909" lon="17.7237444467">
		<tag k="name" v="Roašmebákti" />
		<tag k="name:se" v="Roašmebákti" />
		<tag k="natural" v="hill" />
		<tag k="place" v="locality" />
		<tag k="ssr:stedsnr" v="536362" />
	</node>
	<node id="-738294" lat="68.7432222212" lon="17.5622722165">
		<tag k="name" v="Finnlægran" />
		<tag k="natural" v="slope" />
		<tag k="place" v="locality" />
		<tag k="ssr:stedsnr" v="536360" />
	</node>
	<node id="-738293" lat="68.6641666645" lon="17.7028083292">
		<tag k="name" v="Høgebakkan" />
		<tag k="natural" v="slope" />
		<tag k="place" v="locality" />
		<tag k="ssr:stedsnr" v="536355" />
	</node>
	<node id="-738292" lat="68.6834222223" lon="17.595086107">
		<tag k="name" v="Garnhollberget" />
		<tag k="natural" v="hill" />
		<tag k="place" v="locality" />
		<tag k="ssr:stedsnr" v="536345" />
	</node>
	<node id="-738291" lat="68.6875388861" lon="17.6781444519">
		<tag k="name" v="Blåelva" />
		<tag k="ssr:stedsnr" v="536342" />
		<tag k="waterway" v="stream" />
	</node>
	<node id="-738290" lat="68.6834333373" lon="17.582086104">
		<tag k="name" v="Hesthågen" />
		<tag k="natural" v="hill" />
		<tag k="place" v="locality" />
		<tag k="ssr:stedsnr" v="536339" />
	</node>
	<node id="-738289" lat="68.6762277739" lon="17.6220944406">
		<tag k="name" v="Gardselva" />
		<tag k="ssr:stedsnr" v="536321" />
		<tag k="waterway" v="stream" />
	</node>
	<node id="-738288" lat="68.6596583298" lon="17.5191222131">
		<tag k="name" v="Spadebakken" />
		<tag k="natural" v="slope" />
		<tag k="place" v="locality" />
		<tag k="ssr:stedsnr" v="536292" />
	</node>
	<node id="-738287" lat="68.8029666644" lon="17.404147222">
		<tag k="name" v="Bukkebakkelva" />
		<tag k="ssr:stedsnr" v="536277" />
		<tag k="waterway" v="stream" />
	</node>
	<node id="-738286" lat="68.7950166648" lon="17.3945861057">
		<tag k="name" v="Grindbakken" />
		<tag k="natural" v="slope" />
		<tag k="place" v="locality" />
		<tag k="ssr:stedsnr" v="536270" />
	</node>
	<node id="-738285" lat="68.7380916631" lon="17.4690805644">
		<tag k="name" v="Slåttelielva" />
		<tag k="ssr:stedsnr" v="536253" />
		<tag k="waterway" v="stream" />
	</node>
	<node id="-738284" lat="68.7351777732" lon="17.4909833376">
		<tag k="name" v="Trangskogsletta" />
		<tag k="place" v="locality" />
		<tag k="ssr:stedsnr" v="536251" />
	</node>
	<node id="-738283" lat="68.8139472198" lon="17.4170694462">
		<tag k="fixme" v="verify maritime location" />
		<tag k="mooring" v="yes" />
		<tag k="name" v="Støen" />
		<tag k="place" v="locality" />
		<tag k="ssr:stedsnr" v="535771" />
	</node>
	<node id="-738282" lat="68.7350361129" lon="17.290641677">
		<tag k="name" v="Teisteberget" />
		<tag k="natural" v="hill" />
		<tag k="place" v="locality" />
		<tag k="ssr:stedsnr" v="535417" />
	</node>
	<node id="-738281" lat="68.730969447" lon="17.2587361218">
		<tag k="name" v="Revsteinen" />
		<tag k="natural" v="stone" />
		<tag k="ssr:stedsnr" v="535405" />
	</node>
	<node id="-738280" lat="68.7333694475" lon="17.2631083314">
		<tag k="name" v="Hamnegården" />
		<tag k="place" v="farm" />
		<tag k="ssr:stedsnr" v="535399" />
	</node>
	<node id="-738279" lat="68.6935916685" lon="17.3483305459">
		<tag k="name" v="Reingjerdhågen" />
		<tag k="natural" v="hill" />
		<tag k="place" v="locality" />
		<tag k="ssr:stedsnr" v="535394" />
	</node>
	<node id="-738278" lat="68.7528833355" lon="17.2700611044">
		<tag k="name" v="Klemnes" />
		<tag k="natural" v="cape" />
		<tag k="ssr:stedsnr" v="535386" />
	</node>
	<node id="-738277" lat="68.723183336" lon="17.3487499981">
		<tag k="name" v="Svartberget" />
		<tag k="natural" v="hill" />
		<tag k="place" v="locality" />
		<tag k="ssr:stedsnr" v="535430" />
	</node>
	<node id="-738276" lat="68.7836388867" lon="17.3085277714">
		<tag k="name" v="Holmegrunnen" />
		<tag k="natural" v="shoal" />
		<tag k="place" v="locality" />
		<tag k="ssr:stedsnr" v="515969" />
	</node>
	<node id="-738275" lat="68.6959249983" lon="17.5052666712">
		<tag k="name" v="Stigbergan" />
		<tag k="natural" v="cape" />
		<tag k="ssr:stedsnr" v="515796" />
	</node>
	<node id="-738274" lat="68.6783388843" lon="17.5314111125">
		<tag k="name" v="Tverrlandet" />
		<tag k="natural" v="beach" />
		<tag k="place" v="locality" />
		<tag k="ssr:stedsnr" v="514705" />
	</node>
	<node id="-738273" lat="68.676355551" lon="17.4962972242">
		<tag k="name" v="Sortebekk" />
		<tag k="place" v="farm" />
		<tag k="ssr:stedsnr" v="513575" />
	</node>
	<node id="-738272" lat="68.7734470983" lon="17.2795929088">
		<tag k="name" v="Myrlandshaugen" />
		<tag k="place" v="farm" />
		<tag k="ssr:stedsnr" v="513562" />
	</node>
	<node id="-738270" lat="68.7221833373" lon="17.4146555496">
		<tag k="name" v="Tjuvskjær" />
		<tag k="place" v="farm" />
		<tag k="ssr:stedsnr" v="507449" />
	</node>
	<node id="-738269" lat="68.6737944423" lon="17.3591027696">
		<tag k="name" v="Nonsfjellbotn" />
		<tag k="natural" v="valley" />
		<tag k="place" v="locality" />
		<tag k="ssr:stedsnr" v="505998" />
	</node>
	<node id="-738268" lat="68.6751500002" lon="17.257449995">
		<tag k="fixme" v="consider natural=peak for the most distinct mountains in the district" />
		<tag k="name" v="Tinden" />
		<tag k="natural" v="hill" />
		<tag k="place" v="locality" />
		<tag k="ssr:stedsnr" v="505996" />
	</node>
	<node id="-738267" lat="68.7573249996" lon="17.3369999984">
		<tag k="fixme" v="consider natural=peak for the most distinct mountains in the district" />
		<tag k="name" v="Keipen" />
		<tag k="natural" v="hill" />
		<tag k="place" v="locality" />
		<tag k="ssr:stedsnr" v="503985" />
	</node>
	<node id="-738266" lat="68.7594972245" lon="17.4233416779">
		<tag k="alt_name" v="Rissen" />
		<tag k="fixme" v="consider natural=peak for the most distinct mountains in the district" />
		<tag k="name" v="Risen" />
		<tag k="natural" v="hill" />
		<tag k="place" v="locality" />
		<tag k="ssr:stedsnr" v="503982" />
	</node>
	<node id="-738265" lat="68.7707833328" lon="17.2689166654">
		<tag k="fixme" v="consider place=hamlet" />
		<tag k="name" v="Myrland" />
		<tag k="place" v="farm" />
		<tag k="ssr:stedsnr" v="503928" />
	</node>
	<node id="-738264" lat="68.7232805522" lon="17.5767166567">
		<tag k="name" v="Resselvskaret" />
		<tag k="natural" v="valley" />
		<tag k="place" v="locality" />
		<tag k="ssr:stedsnr" v="503890" />
	</node>
	<node id="-738263" lat="68.7349333329" lon="17.2826333213">
		<tag k="name" v="Teistebergodden" />
		<tag k="natural" v="cape" />
		<tag k="ssr:stedsnr" v="503875" />
	</node>
	<node id="-738261" lat="68.7285638846" lon="17.3970666737">
		<tag k="name" v="Håkjerringneset" />
		<tag k="natural" v="cape" />
		<tag k="ssr:stedsnr" v="503872" />
	</node>
	<node id="-738260" lat="68.7410166635" lon="17.3295916545">
		<tag k="alt_name:no" v="Grøsnes lille;Grøsnes, l" />
		<tag k="loc_name:se" v="Unna Rivttáknášši" />
		<tag k="name" v="Lille Grøsnes" />
		<tag k="name:no" v="Lille Grøsnes" />
		<tag k="place" v="hamlet" />
		<tag k="ssr:stedsnr" v="503849" />
	</node>
	<node id="-738259" lat="68.777569448" lon="17.4686444501">
		<tag k="name" v="Nebbergan" />
		<tag k="natural" v="hill" />
		<tag k="place" v="locality" />
		<tag k="ssr:stedsnr" v="503669" />
	</node>
	<node id="-738258" lat="68.6725611159" lon="17.5420499937">
		<tag k="alt_name" v="Molvikelva" />
		<tag k="name" v="Mollvikelva" />
		<tag k="ssr:stedsnr" v="503580" />
		<tag k="waterway" v="stream" />
	</node>
	<node id="-738257" lat="68.6699861064" lon="17.6270555595">
		<tag k="name" v="Grimjordelva" />
		<tag k="ssr:stedsnr" v="503579" />
		<tag k="waterway" v="stream" />
	</node>
	<node id="-738256" lat="68.6741777785" lon="17.4983638941">
		<tag k="name" v="Fossheim" />
		<tag k="place" v="farm" />
		<tag k="ssr:stedsnr" v="503574" />
	</node>
	<node id="-738255" lat="68.6517499984" lon="17.6546722271">
		<tag k="name" v="Tverrelva" />
		<tag k="ssr:stedsnr" v="503567" />
		<tag k="waterway" v="stream" />
	</node>
	<node id="-738254" lat="68.6585166696" lon="17.5306722264">
		<tag k="name" v="Storelva" />
		<tag k="ssr:stedsnr" v="503562" />
		<tag k="waterway" v="stream" />
	</node>
	<node id="-738253" lat="68.710452776" lon="17.4316472205">
		<tag k="alt_name" v="Øyra" />
		<tag k="name" v="Nautnesøyra" />
		<tag k="natural" v="cape" />
		<tag k="ssr:stedsnr" v="503549" />
	</node>
	<node id="-738252" lat="68.6807694464" lon="17.5838027735">
		<tag k="name" v="Høgdelva" />
		<tag k="ssr:stedsnr" v="503543" />
		<tag k="waterway" v="stream" />
	</node>
	<node id="-738251" lat="68.6839805514" lon="17.5573333301">
		<tag k="loc_name:se" v="Strávvečorru" />
		<tag k="name" v="Høghågen" />
		<tag k="name:no" v="Høghågen" />
		<tag k="natural" v="hill" />
		<tag k="place" v="locality" />
		<tag k="ssr:stedsnr" v="503537" />
	</node>
	<node id="-738250" lat="68.6920416649" lon="17.4509555499">
		<tag k="fixme" v="consider seamark:type=rock or natural=shoal" />
		<tag k="name" v="Skjæret" />
		<tag k="place" v="islet" />
		<tag k="ssr:stedsnr" v="503532" />
	</node>
	<node id="-738249" lat="68.6073222257" lon="17.7702500079">
		<tag k="name" v="Leigasskaret" />
		<tag k="natural" v="valley" />
		<tag k="place" v="locality" />
		<tag k="ssr:stedsnr" v="503529" />
	</node>
	<node id="-738248" lat="68.6130444426" lon="17.6155805476">
		<tag k="name" v="Guksejávrrit" />
		<tag k="name:se" v="Guksejávrrit" />
		<tag k="natural" v="water" />
		<tag k="old_name:se" v="Guksejavrit" />
		<tag k="ssr:stedsnr" v="503522" />
		<tag k="water" v="lake" />
	</node>
	<node id="-738247" lat="68.6460027789" lon="17.6602250064">
		<tag k="name" v="Kjølen" />
		<tag k="natural" v="hill" />
		<tag k="place" v="locality" />
		<tag k="ssr:stedsnr" v="503484" />
	</node>
	<node id="-738246" lat="68.6445249968" lon="17.7836972108">
		<tag k="name" v="Loapmi" />
		<tag k="name:se" v="Loapmi" />
		<tag k="old_name:se" v="Loabmi" />
		<tag k="place" v="locality" />
		<tag k="ssr:stedsnr" v="503482" />
	</node>
	<node id="-738245" lat="68.6440694402" lon="17.7360111129">
		<tag k="fixme" v="consider place=hamlet" />
		<tag k="loc_name:no" v="Holtåsen" />
		<tag k="loc_name:se" v="Reaidduorda" />
		<tag k="name" v="Holtås" />
		<tag k="name:no" v="Holtås" />
		<tag k="place" v="farm" />
		<tag k="ssr:stedsnr" v="503483" />
	</node>
	<node id="-738244" lat="68.6159777818" lon="17.6496055487">
		<tag k="name" v="Storvatnet" />
		<tag k="natural" v="water" />
		<tag k="ssr:stedsnr" v="503477" />
		<tag k="water" v="lake" />
	</node>
	<node id="-738243" lat="68.6282250036" lon="17.6959916741">
		<tag k="name" v="Litjevasselva" />
		<tag k="ssr:stedsnr" v="503469" />
		<tag k="waterway" v="stream" />
	</node>
	<node id="-738242" lat="68.6814277783" lon="17.4720888762">
		<tag k="fixme" v="consider seamark:type=rock or natural=shoal" />
		<tag k="name" v="Foldvikøya" />
		<tag k="place" v="islet" />
		<tag k="ssr:stedsnr" v="503539" />
	</node>
	<node id="-738241" lat="68.8086027748" lon="17.3986055495">
		<tag k="name" v="Kobbgrunnen" />
		<tag k="natural" v="shoal" />
		<tag k="place" v="locality" />
		<tag k="ssr:stedsnr" v="454973" />
	</node>
	<node id="-738240" lat="68.6824944461" lon="17.4454777881">
		<tag k="name" v="Øyhalsen" />
		<tag k="natural" v="valley" />
		<tag k="place" v="locality" />
		<tag k="ssr:stedsnr" v="454150" />
	</node>
	<node id="-738239" lat="68.6898833322" lon="17.4252083363">
		<tag k="name" v="Foldvik" />
		<tag k="place" v="farm" />
		<tag k="ssr:stedsnr" v="453735" />
	</node>
	<node id="-738238" lat="68.6980861141" lon="17.3465527848">
		<tag k="name" v="Foldvik" />
		<tag k="place" v="farm" />
		<tag k="ssr:stedsnr" v="453734" />
	</node>
	<node id="-738237" lat="68.684327725" lon="17.5512159368">
		<tag k="name" v="Strømsnes" />
		<tag k="place" v="farm" />
		<tag k="ssr:stedsnr" v="452548" />
	</node>
	<node id="-738236" lat="68.7004472201" lon="17.4860749951">
		<tag k="name" v="Åkenes" />
		<tag k="place" v="farm" />
		<tag k="ssr:stedsnr" v="452542" />
	</node>
	<node id="-738235" lat="68.7875083358" lon="17.3444888825">
		<tag k="name" v="Løvdal" />
		<tag k="place" v="hamlet" />
		<tag k="ssr:stedsnr" v="446179" />
	</node>
	<node id="-738234" lat="68.7066472261" lon="17.3926638956">
		<tag k="alt_name" v="Langevatnet" />
		<tag k="name" v="Langvatnet" />
		<tag k="natural" v="water" />
		<tag k="ssr:stedsnr" v="445955" />
	</node>
	<node id="-738233" lat="68.7748388924" lon="17.2806111045">
		<tag k="name" v="Myrlandshaugen" />
		<tag k="place" v="farm" />
		<tag k="ssr:stedsnr" v="445258" />
	</node>
	<node id="-738232" lat="68.7249305549" lon="17.339297227">
		<tag k="alt_name:no" v="Åmundvika" />
		<tag k="name" v="Åmundsvika - Ommaluokta" />
		<tag k="name:no" v="Åmundsvika" />
		<tag k="name:se" v="Ommaluokta" />
		<tag k="natural" v="bay" />
		<tag k="ssr:stedsnr" v="444967" />
	</node>
	<node id="-738231" lat="68.7353611105" lon="17.4949611197">
		<tag k="fixme" v="multiple name tags, choose one and add the other to alt_name" />
		<tag k="name" v="Hesjebergdalen;Stordalen" />
		<tag k="natural" v="valley" />
		<tag k="place" v="locality" />
		<tag k="ssr:stedsnr" v="443936" />
	</node>
	<node id="-738230" lat="68.6334500026" lon="17.729136099">
		<tag k="alt_name:no" v="Skoltelva" />
		<tag k="name" v="Skolteelva - Skultetjohka" />
		<tag k="name:no" v="Skolteelva" />
		<tag k="name:se" v="Skultetjohka" />
		<tag k="ssr:stedsnr" v="443526" />
		<tag k="waterway" v="stream" />
	</node>
	<node id="-738229" lat="68.6235999966" lon="17.6229777788">
		<tag k="name" v="Øsevatnet" />
		<tag k="natural" v="water" />
		<tag k="ssr:stedsnr" v="443516" />
		<tag k="water" v="lake" />
	</node>
	<node id="-738228" lat="68.6246861109" lon="17.7037333223">
		<tag k="name" v="Stuoraváráš" />
		<tag k="name:se" v="Stuoraváráš" />
		<tag k="natural" v="hill" />
		<tag k="old_name:se" v="Stuorvaraš" />
		<tag k="place" v="locality" />
		<tag k="ssr:stedsnr" v="443504" />
	</node>
	<node id="-738227" lat="68.7671166714" lon="17.362594434">
		<tag k="name" v="Løvdalselva" />
		<tag k="ssr:stedsnr" v="442956" />
		<tag k="waterway" v="river" />
	</node>
	<node id="-738226" lat="68.7790083313" lon="17.377686099">
		<tag k="fixme" v="consider natural=peak for the most distinct mountains in the district" />
		<tag k="name" v="Borturskartinden" />
		<tag k="natural" v="hill" />
		<tag k="place" v="locality" />
		<tag k="ssr:stedsnr" v="442951" />
	</node>
	<node id="-738225" lat="68.794313886" lon="17.4265694385">
		<tag k="fixme" v="consider natural=peak for the most distinct mountains in the district" />
		<tag k="name" v="Vasslikollen" />
		<tag k="natural" v="hill" />
		<tag k="place" v="locality" />
		<tag k="ssr:stedsnr" v="442737" />
	</node>
	<node id="-738224" lat="68.8184777736" lon="17.4511138959">
		<tag k="name" v="Kvitsteinsvika" />
		<tag k="natural" v="bay" />
		<tag k="ssr:stedsnr" v="442707" />
	</node>
	<node id="-738223" lat="68.6686361104" lon="17.716424999">
		<tag k="name" v="Moan" />
		<tag k="place" v="farm" />
		<tag k="ssr:stedsnr" v="442628" />
	</node>
	<node id="-738222" lat="68.6564472199" lon="17.7028361145">
		<tag k="alt_name" v="Storforsen" />
		<tag k="name" v="Storfossen" />
		<tag k="natural" v="waterfall" />
		<tag k="ssr:stedsnr" v="442604" />
	</node>
	<node id="-738221" lat="68.6532916644" lon="17.6315527864">
		<tag k="name" v="Tuva" />
		<tag k="natural" v="hill" />
		<tag k="place" v="locality" />
		<tag k="ssr:stedsnr" v="442600" />
	</node>
	<node id="-738220" lat="68.6666333344" lon="17.7068277759">
		<tag k="loc_name:se" v="Skuhpijohka" />
		<tag k="name" v="Meelva" />
		<tag k="name:no" v="Meelva" />
		<tag k="ssr:stedsnr" v="442590" />
		<tag k="waterway" v="river" />
	</node>
	<node id="-738219" lat="68.7079611078" lon="17.4218444321">
		<tag k="name" v="Olinaelva" />
		<tag k="ssr:stedsnr" v="442578" />
		<tag k="waterway" v="stream" />
	</node>
	<node id="-738218" lat="68.6511499986" lon="17.5370583252">
		<tag k="name" v="Nilslabekken" />
		<tag k="ssr:stedsnr" v="442528" />
		<tag k="waterway" v="stream" />
	</node>
	<node id="-738217" lat="68.6539444419" lon="17.4898305446">
		<tag k="name" v="Tverrelva" />
		<tag k="ssr:stedsnr" v="442218" />
		<tag k="waterway" v="river" />
	</node>
	<node id="-738216" lat="68.7284027743" lon="17.3926249857">
		<tag k="name" v="Skjettneset" />
		<tag k="natural" v="cape" />
		<tag k="ssr:stedsnr" v="415532" />
	</node>
	<node id="-738215" lat="68.747883332" lon="17.4417416716">
		<tag k="name" v="Steinbergselva" />
		<tag k="ssr:stedsnr" v="415519" />
		<tag k="waterway" v="stream" />
	</node>
	<node id="-738214" lat="68.6863944433" lon="17.382405556">
		<tag k="name" v="Nonsfjellelva" />
		<tag k="ssr:stedsnr" v="415511" />
		<tag k="waterway" v="stream" />
	</node>
	<node id="-738213" lat="68.6952638883" lon="17.4157305631">
		<tag k="name" v="Grønlia" />
		<tag k="natural" v="slope" />
		<tag k="place" v="locality" />
		<tag k="ssr:stedsnr" v="415505" />
	</node>
	<node id="-738212" lat="68.7077083335" lon="17.4901916744">
		<tag k="name" v="Orrhågen" />
		<tag k="natural" v="hill" />
		<tag k="place" v="locality" />
		<tag k="ssr:stedsnr" v="415492" />
	</node>
	<node id="-738211" lat="68.6785805599" lon="17.4031527789">
		<tag k="name" v="Storskogen" />
		<tag k="place" v="locality" />
		<tag k="ssr:stedsnr" v="415464" />
	</node>
	<node id="-738210" lat="68.6425750042" lon="17.7087722092">
		<tag k="name" v="Bjørnarmyra" />
		<tag k="natural" v="wetland" />
		<tag k="ssr:stedsnr" v="415401" />
	</node>
	<node id="-738209" lat="68.6659611145" lon="17.7743138994">
		<tag k="name" v="Fjelldalen" />
		<tag k="natural" v="valley" />
		<tag k="place" v="locality" />
		<tag k="ssr:stedsnr" v="415383" />
	</node>
	<node id="-738208" lat="68.7039861141" lon="17.5197500082">
		<tag k="name" v="Bleikmyra" />
		<tag k="natural" v="wetland" />
		<tag k="ssr:stedsnr" v="415369" />
	</node>
	<node id="-738207" lat="68.7463361105" lon="17.5216666674">
		<tag k="name" v="Grønnfjellia" />
		<tag k="natural" v="slope" />
		<tag k="place" v="locality" />
		<tag k="ssr:stedsnr" v="415366" />
	</node>
	<node id="-738206" lat="68.6648138855" lon="17.6586638838">
		<tag k="name" v="Klokkarbakkan" />
		<tag k="natural" v="slope" />
		<tag k="place" v="locality" />
		<tag k="ssr:stedsnr" v="415342" />
	</node>
	<node id="-738205" lat="68.6701722255" lon="17.5218583423">
		<tag k="name" v="Stendemyra" />
		<tag k="natural" v="wetland" />
		<tag k="ssr:stedsnr" v="415314" />
	</node>
	<node id="-738204" lat="68.6662722183" lon="17.5287638854">
		<tag k="name" v="Lyshøgda" />
		<tag k="natural" v="hill" />
		<tag k="place" v="locality" />
		<tag k="ssr:stedsnr" v="415307" />
	</node>
	<node id="-738203" lat="68.6735638934" lon="17.6520111025">
		<tag k="name" v="Hågvika" />
		<tag k="natural" v="bay" />
		<tag k="ssr:stedsnr" v="415301" />
	</node>
	<node id="-738202" lat="68.7987305586" lon="17.3851416592">
		<tag k="name" v="Skjellelva" />
		<tag k="ssr:stedsnr" v="415295" />
		<tag k="waterway" v="stream" />
	</node>
	<node id="-738201" lat="68.7345000033" lon="17.4844555652">
		<tag k="name" v="Lakseløa" />
		<tag k="place" v="locality" />
		<tag k="ssr:stedsnr" v="415271" />
	</node>
	<node id="-738200" lat="68.7686777759" lon="17.2799916535">
		<tag k="name" v="Brekka" />
		<tag k="natural" v="hill" />
		<tag k="place" v="locality" />
		<tag k="ssr:stedsnr" v="414426" />
	</node>
	<node id="-738199" lat="68.7244583315" lon="17.2012472297">
		<tag k="name" v="Flateberget" />
		<tag k="natural" v="hill" />
		<tag k="place" v="locality" />
		<tag k="ssr:stedsnr" v="414403" />
	</node>
	<node id="-738198" lat="68.7535388908" lon="17.2998916759">
		<tag k="name" v="Lielva" />
		<tag k="ssr:stedsnr" v="414388" />
		<tag k="waterway" v="stream" />
	</node>
	<node id="-738197" lat="68.7349027775" lon="17.2759944398">
		<tag k="name" v="Hesteberget" />
		<tag k="natural" v="hill" />
		<tag k="place" v="locality" />
		<tag k="ssr:stedsnr" v="414384" />
	</node>
	<node id="-738196" lat="68.7449638851" lon="17.3214388791">
		<tag k="name" v="Skredholla" />
		<tag k="natural" v="valley" />
		<tag k="place" v="locality" />
		<tag k="ssr:stedsnr" v="414385" />
	</node>
	<node id="-738195" lat="68.7119333313" lon="17.3369222283">
		<tag k="name" v="Kvitebergan" />
		<tag k="natural" v="hill" />
		<tag k="place" v="locality" />
		<tag k="ssr:stedsnr" v="414381" />
	</node>
	<node id="-738194" lat="68.6437305544" lon="17.5299749956">
		<tag k="name" v="Labergsdalen - Gálavuopmi" />
		<tag k="name:no" v="Labergsdalen" />
		<tag k="name:se" v="Gálavuopmi" />
		<tag k="natural" v="valley" />
		<tag k="old_name:se" v="Galavuobmi" />
		<tag k="place" v="locality" />
		<tag k="ssr:stedsnr" v="264520" />
	</node>
	<node id="-738193" lat="68.7274250032" lon="17.3676833382">
		<tag k="name" v="Gotåsneset" />
		<tag k="natural" v="cape" />
		<tag k="ssr:stedsnr" v="261886" />
	</node>
	<node id="-738192" lat="68.6301111139" lon="17.7329861085">
		<tag k="alt_name" v="Forslia" />
		<tag k="name" v="Fosslia" />
		<tag k="natural" v="slope" />
		<tag k="place" v="locality" />
		<tag k="ssr:stedsnr" v="261529" />
	</node>
	<node id="-738191" lat="68.628191671" lon="17.6313388807">
		<tag k="fixme" v="consider place=hamlet" />
		<tag k="name" v="Vassøse" />
		<tag k="place" v="village" />
		<tag k="ssr:stedsnr" v="261517" />
	</node>
	<node id="-738190" lat="68.7845444482" lon="17.3332888972">
		<tag k="alt_name" v="Litle Lauvdal;Lauvdal, l" />
		<tag k="name" v="Lille Løvdal" />
		<tag k="place" v="farm" />
		<tag k="ssr:stedsnr" v="260977" />
	</node>
	<node id="-738189" lat="68.735111113" lon="17.2635777662">
		<tag k="name" v="Hamnneset" />
		<tag k="natural" v="cape" />
		<tag k="ssr:stedsnr" v="260950" />
	</node>
	<node id="-738188" lat="68.7733333291" lon="17.4820166724">
		<tag k="fixme" v="consider natural=peak for the most distinct mountains in the district" />
		<tag k="name" v="Ystelifjellet" />
		<tag k="natural" v="hill" />
		<tag k="place" v="locality" />
		<tag k="ssr:stedsnr" v="260765" />
	</node>
	<node id="-738187" lat="68.8196833357" lon="17.4620916648">
		<tag k="name" v="Svarthammaren" />
		<tag k="natural" v="cape" />
		<tag k="ssr:stedsnr" v="260724" />
	</node>
	<node id="-738186" lat="68.6523111103" lon="17.6813972122">
		<tag k="alt_name" v="Middagshågen" />
		<tag k="name" v="Middagshaugen" />
		<tag k="natural" v="hill" />
		<tag k="place" v="locality" />
		<tag k="ssr:stedsnr" v="260624" />
	</node>
	<node id="-738185" lat="68.6573888849" lon="17.5806444373">
		<tag k="alt_name" v="Klemmeselvvatnet, nedre" />
		<tag k="name" v="Nedre Klemmeselvvatnet" />
		<tag k="natural" v="water" />
		<tag k="ssr:stedsnr" v="260616" />
	</node>
	<node id="-738184" lat="68.7049388911" lon="17.6292138871">
		<tag k="fixme" v="consider natural=peak for the most distinct mountains in the district" />
		<tag k="name" v="Årsteinhornet" />
		<tag k="natural" v="hill" />
		<tag k="place" v="locality" />
		<tag k="ssr:stedsnr" v="260598" />
	</node>
	<node id="-738183" lat="68.7124138877" lon="17.4251166712">
		<tag k="name" v="Brattberg" />
		<tag k="place" v="isolated_dwelling" />
		<tag k="ssr:stedsnr" v="260599" />
	</node>
	<node id="-738182" lat="68.6078611155" lon="17.5866249928">
		<tag k="fixme" v="consider natural=peak for the most distinct mountains in the district" />
		<tag k="name" v="Storfjellaksla" />
		<tag k="natural" v="hill" />
		<tag k="place" v="locality" />
		<tag k="ssr:stedsnr" v="260570" />
	</node>
	<node id="-738181" lat="68.6072666675" lon="17.6234527853">
		<tag k="name" v="Langvatnet" />
		<tag k="natural" v="water" />
		<tag k="ssr:stedsnr" v="260569" />
		<tag k="water" v="lake" />
	</node>
	<node id="-738180" lat="68.6406500011" lon="17.5525361194">
		<tag k="name" v="Labergsdalen" />
		<tag k="place" v="isolated_dwelling" />
		<tag k="ssr:stedsnr" v="260544" />
	</node>
	<node id="-738179" lat="68.6431138856" lon="17.7531138845">
		<tag k="name" v="Jordnesen" />
		<tag k="natural" v="hill" />
		<tag k="place" v="locality" />
		<tag k="ssr:stedsnr" v="233400" />
	</node>
	<node id="-738178" lat="68.6492166665" lon="17.73487221">
		<tag k="name" v="Marnberget" />
		<tag k="natural" v="hill" />
		<tag k="place" v="locality" />
		<tag k="ssr:stedsnr" v="233391" />
	</node>
	<node id="-738177" lat="68.6615499987" lon="17.6812222145">
		<tag k="name" v="Revstrengmyra" />
		<tag k="natural" v="wetland" />
		<tag k="ssr:stedsnr" v="233387" />
	</node>
	<node id="-738176" lat="68.6735000044" lon="17.7357944319">
		<tag k="name" v="Storslettelva" />
		<tag k="ssr:stedsnr" v="233385" />
		<tag k="waterway" v="stream" />
	</node>
	<node id="-738175" lat="68.6984138872" lon="17.5165555424">
		<tag k="name" v="Stielva" />
		<tag k="ssr:stedsnr" v="233383" />
		<tag k="waterway" v="stream" />
	</node>
	<node id="-738174" lat="68.8100166649" lon="17.4423166755">
		<tag k="name" v="Holmen" />
		<tag k="natural" v="cape" />
		<tag k="ssr:stedsnr" v="233332" />
	</node>
	<node id="-738173" lat="68.6680666636" lon="17.5239888788">
		<tag k="name" v="Lyshøgdmyra" />
		<tag k="natural" v="wetland" />
		<tag k="ssr:stedsnr" v="233321" />
	</node>
	<node id="-738172" lat="68.7962111109" lon="17.3995972272">
		<tag k="name" v="Langeberget" />
		<tag k="natural" v="hill" />
		<tag k="place" v="locality" />
		<tag k="ssr:stedsnr" v="233306" />
	</node>
	<node id="-738171" lat="68.8122277759" lon="17.4538222289">
		<tag k="name" v="Heia" />
		<tag k="natural" v="hill" />
		<tag k="place" v="locality" />
		<tag k="ssr:stedsnr" v="233302" />
	</node>
	<node id="-738170" lat="68.7403916678" lon="17.4528138763">
		<tag k="name" v="Smålian" />
		<tag k="natural" v="slope" />
		<tag k="place" v="locality" />
		<tag k="ssr:stedsnr" v="233286" />
	</node>
	<node id="-738169" lat="68.7457916651" lon="17.3864277686">
		<tag k="name" v="Garnsteinen" />
		<tag k="natural" v="stone" />
		<tag k="ssr:stedsnr" v="232432" />
	</node>
	<node id="-738168" lat="68.7513166662" lon="17.3854861037">
		<tag k="name" v="Glassteinhågen" />
		<tag k="natural" v="hill" />
		<tag k="place" v="locality" />
		<tag k="ssr:stedsnr" v="232430" />
	</node>
	<node id="-738167" lat="68.6822944438" lon="17.438969453">
		<tag k="name" v="Dudalsholtan" />
		<tag k="place" v="locality" />
		<tag k="ssr:stedsnr" v="232428" />
	</node>
	<node id="-738166" lat="68.6953833355" lon="17.4224055593">
		<tag k="name" v="Lia" />
		<tag k="place" v="isolated_dwelling" />
		<tag k="ssr:stedsnr" v="232426" />
	</node>
	<node id="-738165" lat="68.6884805591" lon="17.402933336">
		<tag k="name" v="Stormyra" />
		<tag k="natural" v="wetland" />
		<tag k="ssr:stedsnr" v="232421" />
	</node>
	<node id="-738164" lat="68.6966111114" lon="17.4142972131">
		<tag k="name" v="Nattmålshågen" />
		<tag k="natural" v="hill" />
		<tag k="place" v="locality" />
		<tag k="ssr:stedsnr" v="232419" />
	</node>
	<node id="-738163" lat="68.6984111077" lon="17.4006944479">
		<tag k="name" v="Lia" />
		<tag k="natural" v="slope" />
		<tag k="place" v="locality" />
		<tag k="ssr:stedsnr" v="232417" />
	</node>
	<node id="-738162" lat="68.73011389" lon="17.2650249869">
		<tag k="name" v="Neven" />
		<tag k="natural" v="hill" />
		<tag k="place" v="locality" />
		<tag k="ssr:stedsnr" v="232371" />
	</node>
	<node id="-738161" lat="68.7322166677" lon="17.2472694441">
		<tag k="name" v="Stigebergan" />
		<tag k="natural" v="hill" />
		<tag k="place" v="locality" />
		<tag k="ssr:stedsnr" v="232367" />
	</node>
	<node id="-738160" lat="68.761277774" lon="17.2998249941">
		<tag k="name" v="Finnheimen" />
		<tag k="place" v="locality" />
		<tag k="ssr:stedsnr" v="232362" />
	</node>
	<node id="-738159" lat="68.749872223" lon="17.2924388813">
		<tag k="name" v="Brenna" />
		<tag k="natural" v="slope" />
		<tag k="place" v="locality" />
		<tag k="ssr:stedsnr" v="232360" />
	</node>
	<node id="-738158" lat="68.810780552" lon="17.4232749962">
		<tag k="name" v="Loftelva" />
		<tag k="ssr:stedsnr" v="231821" />
		<tag k="waterway" v="stream" />
	</node>
	<node id="-738157" lat="68.8127472264" lon="17.4283277694">
		<tag k="name" v="Loftbergan" />
		<tag k="natural" v="hill" />
		<tag k="place" v="locality" />
		<tag k="ssr:stedsnr" v="231819" />
	</node>
	<node id="-738156" lat="68.7200305588" lon="17.3572888772">
		<tag k="name" v="Mellaskaret" />
		<tag k="natural" v="valley" />
		<tag k="place" v="locality" />
		<tag k="ssr:stedsnr" v="212229" />
	</node>
	<node id="-738155" lat="68.7368305593" lon="17.2786388877">
		<tag k="name" v="Marsteinen" />
		<tag k="place" v="locality" />
		<tag k="seamark:type" v="rock" />
		<tag k="ssr:stedsnr" v="212162" />
	</node>
	<node id="-738154" lat="68.6788055569" lon="17.440661103">
		<tag k="name" v="Hellarberget" />
		<tag k="natural" v="hill" />
		<tag k="place" v="locality" />
		<tag k="ssr:stedsnr" v="212151" />
	</node>
	<node id="-738153" lat="68.6844500021" lon="17.5690527866">
		<tag k="name" v="Gjøvik" />
		<tag k="place" v="farm" />
		<tag k="ssr:stedsnr" v="211574" />
	</node>
	<node id="-738152" lat="68.691888892" lon="17.5406194328">
		<tag k="name" v="Orhaugen" />
		<tag k="natural" v="hill" />
		<tag k="place" v="locality" />
		<tag k="ssr:stedsnr" v="211573" />
	</node>
	<node id="-738151" lat="68.6965749971" lon="17.498375008">
		<tag k="name" v="Olderneset" />
		<tag k="natural" v="cape" />
		<tag k="ssr:stedsnr" v="210760" />
	</node>
	<node id="-738150" lat="68.6766361088" lon="17.5079055589">
		<tag k="name" v="Laberget" />
		<tag k="place" v="farm" />
		<tag k="ssr:stedsnr" v="210640" />
	</node>
	<node id="-738149" lat="68.6994888926" lon="17.4880222167">
		<tag k="name" v="Åkenes" />
		<tag k="place" v="farm" />
		<tag k="ssr:stedsnr" v="210550" />
	</node>
	<node id="-738148" lat="68.6516944408" lon="17.6046083243">
		<tag k="fixme" v="consider natural=peak for the most distinct mountains in the district" />
		<tag k="name" v="Snaufjellet - Ruoppis" />
		<tag k="name:no" v="Snaufjellet" />
		<tag k="name:se" v="Ruoppis" />
		<tag k="natural" v="hill" />
		<tag k="old_name:se" v="Ruobbis" />
		<tag k="place" v="locality" />
		<tag k="ssr:stedsnr" v="203601" />
	</node>
	<node id="-738147" lat="68.6667138883" lon="17.3876500051">
		<tag k="fixme" v="consider natural=peak for the most distinct mountains in the district" />
		<tag k="name" v="Kvannto - Duolba" />
		<tag k="name:no" v="Kvannto" />
		<tag k="name:se" v="Duolba" />
		<tag k="natural" v="hill" />
		<tag k="place" v="locality" />
		<tag k="ssr:stedsnr" v="202988" />
	</node>
	<node id="-738146" lat="68.7187888894" lon="17.3192611035">
		<tag k="alt_name" v="Åmundvikelva" />
		<tag k="name" v="Åmundsvikelva" />
		<tag k="ssr:stedsnr" v="202975" />
		<tag k="waterway" v="stream" />
	</node>
	<node id="-738145" lat="68.7187250022" lon="17.2629194527">
		<tag k="name" v="Hilleshamnvatnet - Hilssájávri" />
		<tag k="name:no" v="Hilleshamnvatnet" />
		<tag k="name:se" v="Hilssájávri" />
		<tag k="natural" v="water" />
		<tag k="ssr:stedsnr" v="202970" />
	</node>
	<node id="-738144" lat="68.7171194424" lon="17.4015444458">
		<tag k="loc_name:se" v="Čuvvájohka" />
		<tag k="name" v="Tjuvskjærelva" />
		<tag k="name:no" v="Tjuvskjærelva" />
		<tag k="ssr:stedsnr" v="202969" />
		<tag k="waterway" v="stream" />
	</node>
	<node id="-738143" lat="68.6942944438" lon="17.2949861178">
		<tag k="fixme" v="consider natural=peak for the most distinct mountains in the district" />
		<tag k="name" v="Sula - Girkoaivi" />
		<tag k="name:no" v="Sula" />
		<tag k="name:se" v="Girkoaivi" />
		<tag k="natural" v="hill" />
		<tag k="place" v="locality" />
		<tag k="ssr:stedsnr" v="202537" />
	</node>
	<node id="-738142" lat="68.73803611" lon="17.3252944314">
		<tag k="alt_name" v="Ramtua;Ramtuva" />
		<tag k="name" v="Ramntuva" />
		<tag k="natural" v="hill" />
		<tag k="place" v="locality" />
		<tag k="ssr:stedsnr" v="200882" />
	</node>
	<node id="-738141" lat="68.7316499982" lon="17.4755861176">
		<tag k="name" v="Mølndalen" />
		<tag k="natural" v="valley" />
		<tag k="place" v="locality" />
		<tag k="ssr:stedsnr" v="200921" />
	</node>
	<node id="-738140" lat="68.6396777792" lon="17.6794416555">
		<tag k="alt_name" v="Coardaelva" />
		<tag k="name" v="Kjårdaelva" />
		<tag k="ssr:stedsnr" v="200549" />
		<tag k="waterway" v="river" />
	</node>
	<node id="-738139" lat="68.6321583318" lon="17.7229944463">
		<tag k="alt_name" v="Skjelelva" />
		<tag k="name" v="Skjellelva" />
		<tag k="ssr:stedsnr" v="200546" />
		<tag k="waterway" v="stream" />
	</node>
	<node id="-738138" lat="68.6716555579" lon="17.7267416557">
		<tag k="name" v="Småbergan" />
		<tag k="natural" v="hill" />
		<tag k="place" v="locality" />
		<tag k="ssr:stedsnr" v="200626" />
	</node>
	<node id="-738137" lat="68.6625611112" lon="17.7648472095">
		<tag k="name" v="Gratangen turiststasjon" />
		<tag k="ssr:stedsnr" v="200607" />
		<tag k="tourism" v="hotel" />
	</node>
	<node id="-738136" lat="68.6625277775" lon="17.703772213">
		<tag k="name" v="Høgbakken" />
		<tag k="natural" v="hill" />
		<tag k="place" v="locality" />
		<tag k="ssr:stedsnr" v="200605" />
	</node>
	<node id="-738135" lat="68.6271555577" lon="17.7424916654">
		<tag k="alt_name" v="Forsejorda" />
		<tag k="name" v="Fossejorda" />
		<tag k="place" v="locality" />
		<tag k="ssr:stedsnr" v="200536" />
	</node>
	<node id="-738133" lat="68.7117611156" lon="17.4279166604">
		<tag k="name" v="Nautnes" />
		<tag k="place" v="farm" />
		<tag k="ssr:stedsnr" v="199593" />
	</node>
	<node id="-738132" lat="68.7120111144" lon="17.4740749942">
		<tag k="name" v="Svabergan" />
		<tag k="natural" v="hill" />
		<tag k="place" v="locality" />
		<tag k="ssr:stedsnr" v="199592" />
	</node>
	<node id="-738131" lat="68.6841972225" lon="17.6794972106">
		<tag k="name" v="Kristenhågen" />
		<tag k="natural" v="hill" />
		<tag k="place" v="locality" />
		<tag k="ssr:stedsnr" v="199576" />
	</node>
	<node id="-738130" lat="68.6802277772" lon="17.6155361208">
		<tag k="name" v="Haugen" />
		<tag k="place" v="farm" />
		<tag k="ssr:stedsnr" v="199573" />
	</node>
	<node id="-738129" lat="68.6839250006" lon="17.4464027835">
		<tag k="name" v="Foldvika" />
		<tag k="natural" v="bay" />
		<tag k="ssr:stedsnr" v="199572" />
	</node>
	<node id="-738128" lat="68.615661114" lon="17.7923972311">
		<tag k="fixme" v="consider natural=peak for the most distinct mountains in the district" />
		<tag k="name" v="Britatinden" />
		<tag k="natural" v="hill" />
		<tag k="place" v="locality" />
		<tag k="ssr:stedsnr" v="199553" />
	</node>
	<node id="-738127" lat="68.6095583326" lon="17.6341222074">
		<tag k="alt_name" v="Dauvatnet" />
		<tag k="name" v="Daudvatnet" />
		<tag k="natural" v="water" />
		<tag k="ssr:stedsnr" v="199550" />
	</node>
	<node id="-738126" lat="68.6163444483" lon="17.5117166556">
		<tag k="name" v="Beađvaláhku" />
		<tag k="name:se" v="Beađvaláhku" />
		<tag k="old_name:se" v="Bæđvalakko" />
		<tag k="place" v="locality" />
		<tag k="ssr:stedsnr" v="199547" />
	</node>
	<node id="-738125" lat="68.6134861103" lon="17.6270083367">
		<tag k="name" v="Henrikkjølen" />
		<tag k="natural" v="cape" />
		<tag k="ssr:stedsnr" v="199504" />
	</node>
	<node id="-738124" lat="68.6738888907" lon="17.6902694322">
		<tag k="fixme" v="consider place=hamlet" />
		<tag k="loc_name:se" v="Vuotnabahta" />
		<tag k="name" v="Fjordbotn" />
		<tag k="name:no" v="Fjordbotn" />
		<tag k="place" v="farm" />
		<tag k="ssr:stedsnr" v="199638" />
	</node>
	<node id="-738123" lat="68.7264361157" lon="17.407241665">
		<tag k="name" v="Mellavika" />
		<tag k="natural" v="bay" />
		<tag k="ssr:stedsnr" v="172531" />
	</node>
	<node id="-738122" lat="68.7249999957" lon="17.4117333354">
		<tag k="name" v="Vednesvika" />
		<tag k="natural" v="bay" />
		<tag k="ssr:stedsnr" v="172526" />
	</node>
	<node id="-738121" lat="68.7421472245" lon="17.4300583394">
		<tag k="name" v="Brattåsberget" />
		<tag k="natural" v="hill" />
		<tag k="place" v="locality" />
		<tag k="ssr:stedsnr" v="172524" />
	</node>
	<node id="-738120" lat="68.7244250035" lon="17.3601749876">
		<tag k="name" v="Skjelloran" />
		<tag k="natural" v="scree" />
		<tag k="ssr:stedsnr" v="172520" />
	</node>
	<node id="-738119" lat="68.7464305552" lon="17.4671083289">
		<tag k="name" v="Kvantohøgda" />
		<tag k="natural" v="hill" />
		<tag k="place" v="locality" />
		<tag k="ssr:stedsnr" v="172513" />
	</node>
	<node id="-738118" lat="68.7446249979" lon="17.4148944409">
		<tag k="name" v="Skjærberget" />
		<tag k="natural" v="hill" />
		<tag k="place" v="locality" />
		<tag k="ssr:stedsnr" v="172510" />
	</node>
	<node id="-738117" lat="68.7600444474" lon="17.3741194433">
		<tag k="name" v="Rundhågen" />
		<tag k="natural" v="hill" />
		<tag k="place" v="locality" />
		<tag k="ssr:stedsnr" v="172503" />
	</node>
	<node id="-738116" lat="68.7006027754" lon="17.4893999888">
		<tag k="name" v="Sjåflaten" />
		<tag k="place" v="locality" />
		<tag k="ssr:stedsnr" v="172498" />
	</node>
	<node id="-738115" lat="68.708024997" lon="17.5027222135">
		<tag k="name" v="Høgebakkdalen" />
		<tag k="natural" v="valley" />
		<tag k="place" v="locality" />
		<tag k="ssr:stedsnr" v="172475" />
	</node>
	<node id="-738114" lat="68.6724777811" lon="17.4431000093">
		<tag k="name" v="Falkeberget" />
		<tag k="natural" v="hill" />
		<tag k="place" v="locality" />
		<tag k="ssr:stedsnr" v="172457" />
	</node>
	<node id="-738113" lat="68.6477777794" lon="17.7630972324">
		<tag k="name" v="Hulelva" />
		<tag k="ssr:stedsnr" v="172386" />
		<tag k="waterway" v="stream" />
	</node>
	<node id="-738112" lat="68.6423694404" lon="17.7282222285">
		<tag k="fixme" v="consider place=hamlet" />
		<tag k="loc_name:no" v="Holtåsen" />
		<tag k="loc_name:se" v="Reaidduorda" />
		<tag k="name" v="Holtås" />
		<tag k="name:no" v="Holtås" />
		<tag k="place" v="village" />
		<tag k="ssr:stedsnr" v="172383" />
	</node>
	<node id="-738111" lat="68.7714249971" lon="17.2984722097">
		<tag k="highway" v="path" />
		<tag k="name" v="Skarveien" />
		<tag k="ssr:stedsnr" v="172445" />
	</node>
	<node id="-738110" lat="68.6854333305" lon="17.5585111071">
		<tag k="name" v="Straumsneshammarn" />
		<tag k="natural" v="hill" />
		<tag k="place" v="locality" />
		<tag k="ssr:stedsnr" v="172349" />
	</node>
	<node id="-738109" lat="68.6740055537" lon="17.5336833238">
		<tag k="name" v="Milmarka" />
		<tag k="place" v="locality" />
		<tag k="ssr:stedsnr" v="172314" />
	</node>
	<node id="-738108" lat="68.6767916654" lon="17.5726888958">
		<tag k="fixme" v="consider natural=peak for the most distinct mountains in the district" />
		<tag k="name" v="Middagsfjellet" />
		<tag k="natural" v="hill" />
		<tag k="place" v="locality" />
		<tag k="ssr:stedsnr" v="172310" />
	</node>
	<node id="-738107" lat="68.6787638883" lon="17.574002769">
		<tag k="name" v="Ørnhammarn" />
		<tag k="natural" v="hill" />
		<tag k="place" v="locality" />
		<tag k="ssr:stedsnr" v="172309" />
	</node>
	<node id="-738106" lat="68.6775611083" lon="17.5371666565">
		<tag k="name" v="Tortenholla" />
		<tag k="natural" v="valley" />
		<tag k="place" v="locality" />
		<tag k="ssr:stedsnr" v="172307" />
	</node>
	<node id="-738105" lat="68.66543889" lon="17.5872333289">
		<tag k="name" v="Klubbevatnan" />
		<tag k="natural" v="water" />
		<tag k="ssr:stedsnr" v="172302" />
		<tag k="water" v="lake" />
	</node>
	<node id="-738104" lat="68.6653388889" lon="17.5389111022">
		<tag k="name" v="Høgdeteigan" />
		<tag k="natural" v="slope" />
		<tag k="place" v="locality" />
		<tag k="ssr:stedsnr" v="172303" />
	</node>
	<node id="-738103" lat="68.6325166648" lon="17.7720694309">
		<tag k="name" v="Lassaelva" />
		<tag k="ssr:stedsnr" v="172367" />
		<tag k="waterway" v="stream" />
	</node>
	<node id="-738102" lat="68.6750250042" lon="17.7650555431">
		<tag k="fixme" v="consider natural=peak for the most distinct mountains in the district" />
		<tag k="name" v="Slettfjellet" />
		<tag k="natural" v="hill" />
		<tag k="place" v="locality" />
		<tag k="ssr:stedsnr" v="172365" />
	</node>
	<node id="-738101" lat="68.6500472207" lon="17.6526027723">
		<tag k="name" v="Reingjerdan" />
		<tag k="natural" v="slope" />
		<tag k="place" v="locality" />
		<tag k="ssr:stedsnr" v="172355" />
	</node>
	<node id="-738100" lat="68.6499750023" lon="17.662838884">
		<tag k="name" v="Middagshågen" />
		<tag k="natural" v="hill" />
		<tag k="place" v="locality" />
		<tag k="ssr:stedsnr" v="172353" />
	</node>
	<node id="-738099" lat="68.6668999961" lon="17.5996277733">
		<tag k="name" v="Lomvatnet" />
		<tag k="natural" v="water" />
		<tag k="ssr:stedsnr" v="172298" />
	</node>
	<node id="-738098" lat="68.8017388907" lon="17.3958055633">
		<tag k="name" v="Pikhelleren" />
		<tag k="natural" v="stone" />
		<tag k="ssr:stedsnr" v="172293" />
	</node>
	<node id="-738097" lat="68.7899083349" lon="17.3724500011">
		<tag k="name" v="Gårdselva" />
		<tag k="ssr:stedsnr" v="172286" />
		<tag k="waterway" v="stream" />
	</node>
	<node id="-738096" lat="68.733752778" lon="17.4638527698">
		<tag k="name" v="Kalveberget" />
		<tag k="natural" v="hill" />
		<tag k="place" v="locality" />
		<tag k="ssr:stedsnr" v="172272" />
	</node>
	<node id="-738095" lat="68.7416861082" lon="17.4755360992">
		<tag k="name" v="Reingjerdsletta" />
		<tag k="place" v="locality" />
		<tag k="ssr:stedsnr" v="172271" />
	</node>
	<node id="-738094" lat="68.723436108" lon="17.4714861174">
		<tag k="name" v="Bukkeberget" />
		<tag k="natural" v="hill" />
		<tag k="place" v="locality" />
		<tag k="ssr:stedsnr" v="172267" />
	</node>
	<node id="-738093" lat="68.7524999959" lon="17.2832583338">
		<tag k="name" v="Øra" />
		<tag k="natural" v="scree" />
		<tag k="ssr:stedsnr" v="171388" />
	</node>
	<node id="-738092" lat="68.7000416687" lon="17.3232138769">
		<tag k="fixme" v="consider natural=peak for the most distinct mountains in the district" />
		<tag k="name" v="Yttersulaksla" />
		<tag k="natural" v="hill" />
		<tag k="place" v="locality" />
		<tag k="ssr:stedsnr" v="171375" />
	</node>
	<node id="-738091" lat="68.7224472201" lon="17.2183944472">
		<tag k="fixme" v="consider natural=peak for the most distinct mountains in the district" />
		<tag k="name" v="Ørnreiret" />
		<tag k="natural" v="hill" />
		<tag k="place" v="locality" />
		<tag k="ssr:stedsnr" v="171363" />
	</node>
	<node id="-738090" lat="68.7189305556" lon="17.2074722212">
		<tag k="name" v="Storelvdalen" />
		<tag k="natural" v="valley" />
		<tag k="place" v="locality" />
		<tag k="ssr:stedsnr" v="171360" />
	</node>
	<node id="-738089" lat="68.7241999961" lon="17.2981527842">
		<tag k="name" v="Skarvberglemelva" />
		<tag k="ssr:stedsnr" v="171420" />
		<tag k="waterway" v="stream" />
	</node>
	<node id="-738088" lat="68.7723944407" lon="17.2746749914">
		<tag k="name" v="Selnakken" />
		<tag k="natural" v="hill" />
		<tag k="place" v="locality" />
		<tag k="ssr:stedsnr" v="171413" />
	</node>
	<node id="-738087" lat="68.8118111152" lon="17.4277777694">
		<tag k="name" v="Gårdselva" />
		<tag k="ssr:stedsnr" v="170806" />
		<tag k="waterway" v="stream" />
	</node>
	<node id="-738086" lat="68.7436500018" lon="17.4229250014">
		<tag k="alt_name" v="Lillevika" />
		<tag k="name" v="Litlevika" />
		<tag k="natural" v="bay" />
		<tag k="ssr:stedsnr" v="150831" />
	</node>
	<node id="-738085" lat="68.6942750047" lon="17.4518999877">
		<tag k="name" v="Foldvikgrunnen" />
		<tag k="natural" v="shoal" />
		<tag k="place" v="locality" />
		<tag k="ssr:stedsnr" v="150138" />
	</node>
	<node id="-738084" lat="68.6706250023" lon="17.4979972176">
		<tag k="name" v="Revmoa" />
		<tag k="place" v="locality" />
		<tag k="ssr:stedsnr" v="149728" />
	</node>
	<node id="-738083" lat="68.6872611081" lon="17.7638555501">
		<tag k="name" v="Oreberget" />
		<tag k="natural" v="hill" />
		<tag k="place" v="locality" />
		<tag k="ssr:stedsnr" v="149723" />
	</node>
	<node id="-738082" lat="68.6937416656" lon="17.5987527636">
		<tag k="landuse" v="meadow" />
		<tag k="name" v="Reite" />
		<tag k="ssr:stedsnr" v="149712" />
	</node>
	<node id="-738081" lat="68.7011138861" lon="17.4854527779">
		<tag k="name" v="Åkenes" />
		<tag k="place" v="farm" />
		<tag k="ssr:stedsnr" v="149551" />
	</node>
	<node id="-738080" lat="68.7041499985" lon="17.4831166539">
		<tag k="name" v="Åkenes" />
		<tag k="place" v="farm" />
		<tag k="ssr:stedsnr" v="149546" />
	</node>
	<node id="-738079" lat="68.7213500015" lon="17.4765833431">
		<tag k="name" v="Ytter-Skifte" />
		<tag k="place" v="farm" />
		<tag k="ssr:stedsnr" v="149544" />
	</node>
	<node id="-738078" lat="68.7395361087" lon="17.3222333209">
		<tag k="name" v="Lille Grøsnes" />
		<tag k="place" v="farm" />
		<tag k="ssr:stedsnr" v="147637" />
	</node>
	<node id="-738077" lat="68.6913166702" lon="17.1970194513">
		<tag k="fixme" v="consider natural=peak for the most distinct mountains in the district" />
		<tag k="name" v="Mellagråfjellet" />
		<tag k="natural" v="hill" />
		<tag k="place" v="locality" />
		<tag k="ssr:stedsnr" v="141974" />
	</node>
	<node id="-738076" lat="68.6545638915" lon="17.3104944357">
		<tag k="fixme" v="consider natural=peak for the most distinct mountains in the district" />
		<tag k="name" v="Oldertinden - Leaibečohkka" />
		<tag k="name:no" v="Oldertinden" />
		<tag k="name:se" v="Leaibečohkka" />
		<tag k="natural" v="hill" />
		<tag k="place" v="locality" />
		<tag k="ssr:stedsnr" v="141880" />
	</node>
	<node id="-738075" lat="68.7601472206" lon="17.3279722165">
		<tag k="loc_name:no" v="Hornhalvøya" />
		<tag k="name" v="Čoarvenjárga" />
		<tag k="name:se" v="Čoarvenjárga" />
		<tag k="natural" v="cape" />
		<tag k="ssr:stedsnr" v="141616" />
	</node>
	<node id="-738074" lat="68.7463305528" lon="17.4758055525">
		<tag k="alt_name" v="Ytsteelva" />
		<tag k="name" v="Ystelielva" />
		<tag k="ssr:stedsnr" v="139700" />
		<tag k="waterway" v="stream" />
	</node>
	<node id="-738073" lat="68.756797223" lon="17.5136777755">
		<tag k="fixme" v="consider natural=peak for the most distinct mountains in the district" />
		<tag k="name" v="Rasekoppfjellet" />
		<tag k="natural" v="hill" />
		<tag k="place" v="locality" />
		<tag k="ssr:stedsnr" v="139701" />
	</node>
	<node id="-738072" lat="68.7521638878" lon="17.5478361185">
		<tag k="fixme" v="consider natural=peak for the most distinct mountains in the district" />
		<tag k="name" v="Blåuran" />
		<tag k="natural" v="hill" />
		<tag k="place" v="locality" />
		<tag k="ssr:stedsnr" v="139703" />
	</node>
	<node id="-738071" lat="68.6457916678" lon="17.4907472145">
		<tag k="name" v="Botnsletta" />
		<tag k="place" v="locality" />
		<tag k="ssr:stedsnr" v="139549" />
	</node>
	<node id="-738070" lat="68.6328388853" lon="17.6775916722">
		<tag k="alt_name" v="Reisevatnet" />
		<tag k="name" v="Reisvatnet" />
		<tag k="natural" v="water" />
		<tag k="ssr:stedsnr" v="139547" />
		<tag k="water" v="lake" />
	</node>
	<node id="-738069" lat="68.6337833347" lon="17.7415527851">
		<tag k="fixme" v="consider natural=peak for the most distinct mountains in the district" />
		<tag k="name" v="Saunåsen" />
		<tag k="natural" v="hill" />
		<tag k="place" v="locality" />
		<tag k="ssr:stedsnr" v="139541" />
	</node>
	<node id="-738068" lat="68.6472583296" lon="17.7904111085">
		<tag k="name" v="Lopmevatnan" />
		<tag k="natural" v="water" />
		<tag k="ssr:stedsnr" v="139536" />
	</node>
	<node id="-738067" lat="68.623455551" lon="17.8149916678">
		<tag k="fixme" v="consider natural=peak for the most distinct mountains in the district" />
		<tag k="name" v="Durmålsfjellet" />
		<tag k="natural" v="hill" />
		<tag k="place" v="locality" />
		<tag k="ssr:stedsnr" v="139530" />
	</node>
	<node id="-738066" lat="68.7164555564" lon="17.476272226">
		<tag k="name" v="Inner-Skifte" />
		<tag k="place" v="farm" />
		<tag k="ssr:stedsnr" v="138925" />
	</node>
	<node id="-738065" lat="68.716255557" lon="17.6025249965">
		<tag k="fixme" v="consider natural=peak for the most distinct mountains in the district" />
		<tag k="name" v="Tverrfjellet" />
		<tag k="natural" v="hill" />
		<tag k="place" v="locality" />
		<tag k="ssr:stedsnr" v="138924" />
	</node>
	<node id="-738064" lat="68.6712277779" lon="17.4113861065">
		<tag k="name" v="Dudalselva" />
		<tag k="ssr:stedsnr" v="138614" />
		<tag k="waterway" v="river" />
	</node>
	<node id="-738063" lat="68.676794446" lon="17.7904444524">
		<tag k="alt_name" v="Sølvelva, vestre" />
		<tag k="name" v="Vestre Sølvelva" />
		<tag k="ssr:stedsnr" v="138611" />
		<tag k="waterway" v="stream" />
	</node>
	<node id="-738062" lat="68.6924027757" lon="17.842952779">
		<tag k="fixme" v="consider natural=peak for the most distinct mountains in the district" />
		<tag k="name" v="Sølvfjellet" />
		<tag k="natural" v="hill" />
		<tag k="place" v="locality" />
		<tag k="ssr:stedsnr" v="138594" />
	</node>
	<node id="-738061" lat="68.6758888842" lon="17.6967500032">
		<tag k="name" v="Mølnelva" />
		<tag k="ssr:stedsnr" v="138583" />
		<tag k="waterway" v="stream" />
	</node>
	<node id="-738060" lat="68.6903305566" lon="17.5422333422">
		<tag k="fixme" v="consider place=hamlet" />
		<tag k="loc_name:se" v="Árjogeargi" />
		<tag k="name" v="Årstein" />
		<tag k="name:no" v="Årstein" />
		<tag k="place" v="village" />
		<tag k="ssr:stedsnr" v="138567" />
	</node>
	<node id="-738059" lat="68.6214499971" lon="17.6506444425">
		<tag k="name" v="Øse" />
		<tag k="place" v="farm" />
		<tag k="ssr:stedsnr" v="138507" />
	</node>
	<node id="-738058" lat="68.743872222" lon="17.4573527672">
		<tag k="name" v="Småliskaret" />
		<tag k="natural" v="valley" />
		<tag k="place" v="locality" />
		<tag k="ssr:stedsnr" v="112296" />
	</node>
	<node id="-738057" lat="68.7376805528" lon="17.5105000032">
		<tag k="name" v="Stordalbakken" />
		<tag k="natural" v="slope" />
		<tag k="place" v="locality" />
		<tag k="ssr:stedsnr" v="112292" />
	</node>
	<node id="-738056" lat="68.7368416643" lon="17.4894888768">
		<tag k="highway" v="path" />
		<tag k="name" v="Breiveien" />
		<tag k="ssr:stedsnr" v="112291" />
	</node>
	<node id="-738055" lat="68.7417305517" lon="17.3682860986">
		<tag k="name" v="Måsholtet" />
		<tag k="place" v="locality" />
		<tag k="ssr:stedsnr" v="111470" />
	</node>
	<node id="-738054" lat="68.7535861147" lon="17.5115750089">
		<tag k="name" v="Ressekoppskaret" />
		<tag k="natural" v="valley" />
		<tag k="place" v="locality" />
		<tag k="ssr:stedsnr" v="111464" />
	</node>
	<node id="-738053" lat="68.7539749971" lon="17.3980416638">
		<tag k="name" v="Kvannlia" />
		<tag k="natural" v="slope" />
		<tag k="place" v="locality" />
		<tag k="ssr:stedsnr" v="111460" />
	</node>
	<node id="-738052" lat="68.7015611146" lon="17.4985666566">
		<tag k="name" v="Dalebakkporten" />
		<tag k="natural" v="slope" />
		<tag k="place" v="locality" />
		<tag k="ssr:stedsnr" v="111442" />
	</node>
	<node id="-738051" lat="68.7220416702" lon="17.4698250033">
		<tag k="name" v="Ingerholla" />
		<tag k="natural" v="bay" />
		<tag k="ssr:stedsnr" v="111434" />
	</node>
	<node id="-738050" lat="68.7048749983" lon="17.4960722194">
		<tag k="name" v="Høgholtet" />
		<tag k="place" v="locality" />
		<tag k="ssr:stedsnr" v="111435" />
	</node>
	<node id="-738049" lat="68.7185111141" lon="17.4872944355">
		<tag k="name" v="Gammelgården" />
		<tag k="place" v="locality" />
		<tag k="ssr:stedsnr" v="111430" />
	</node>
	<node id="-738048" lat="68.7189555593" lon="17.4037166684">
		<tag k="name" v="Bjørnskarva" />
		<tag k="natural" v="hill" />
		<tag k="place" v="locality" />
		<tag k="ssr:stedsnr" v="111422" />
	</node>
	<node id="-738047" lat="68.6793444474" lon="17.4200527828">
		<tag k="name" v="Middagsmyra" />
		<tag k="natural" v="wetland" />
		<tag k="ssr:stedsnr" v="111407" />
	</node>
	<node id="-738046" lat="68.7307833314" lon="17.2966083315">
		<tag k="name" v="Laksevika" />
		<tag k="natural" v="bay" />
		<tag k="ssr:stedsnr" v="111404" />
	</node>
	<node id="-738045" lat="68.7265138926" lon="17.2971305536">
		<tag k="name" v="Blomholla" />
		<tag k="natural" v="valley" />
		<tag k="place" v="locality" />
		<tag k="ssr:stedsnr" v="111402" />
	</node>
	<node id="-738044" lat="68.7328249972" lon="17.288958339">
		<tag k="name" v="Holtan" />
		<tag k="place" v="locality" />
		<tag k="ssr:stedsnr" v="111390" />
	</node>
	<node id="-738043" lat="68.7285444449" lon="17.2642750039">
		<tag k="name" v="Langebergsteigan" />
		<tag k="natural" v="slope" />
		<tag k="place" v="locality" />
		<tag k="ssr:stedsnr" v="111381" />
	</node>
	<node id="-738042" lat="68.6283472249" lon="17.7032388927">
		<tag k="name" v="Varasmyra" />
		<tag k="natural" v="wetland" />
		<tag k="ssr:stedsnr" v="112387" />
	</node>
	<node id="-738041" lat="68.6674361146" lon="17.6960527786">
		<tag k="name" v="Svartedalen" />
		<tag k="natural" v="valley" />
		<tag k="place" v="locality" />
		<tag k="ssr:stedsnr" v="112381" />
	</node>
	<node id="-738040" lat="68.707830556" lon="17.5535944321">
		<tag k="name" v="Reinveian" />
		<tag k="natural" v="hill" />
		<tag k="place" v="locality" />
		<tag k="ssr:stedsnr" v="112371" />
	</node>
	<node id="-738039" lat="68.6694805583" lon="17.533811108">
		<tag k="name" v="Stormyra" />
		<tag k="natural" v="wetland" />
		<tag k="ssr:stedsnr" v="112330" />
	</node>
	<node id="-738038" lat="68.6721888908" lon="17.6372027873">
		<tag k="name" v="Skjellhågen" />
		<tag k="natural" v="hill" />
		<tag k="place" v="locality" />
		<tag k="ssr:stedsnr" v="112326" />
	</node>
	<node id="-738037" lat="68.7960444485" lon="17.4158916655">
		<tag k="name" v="Tverrelva" />
		<tag k="ssr:stedsnr" v="112313" />
		<tag k="waterway" v="stream" />
	</node>
	<node id="-738036" lat="68.8135805562" lon="17.429583335">
		<tag k="name" v="Kaldbekken" />
		<tag k="ssr:stedsnr" v="110801" />
		<tag k="waterway" v="stream" />
	</node>
	<node id="-738035" lat="68.7005472197" lon="17.4779388826">
		<tag k="name" v="Bonden" />
		<tag k="place" v="locality" />
		<tag k="seamark:type" v="rock" />
		<tag k="ssr:stedsnr" v="90766" />
	</node>
	<node id="-738034" lat="68.6826555569" lon="17.46660834">
		<tag k="name" v="Hellarbugrunnen" />
		<tag k="natural" v="shoal" />
		<tag k="place" v="locality" />
		<tag k="ssr:stedsnr" v="90129" />
	</node>
	<node id="-738033" lat="68.6956666667" lon="17.4247555554">
		<tag k="name" v="Foldvik" />
		<tag k="place" v="farm" />
		<tag k="ssr:stedsnr" v="89716" />
	</node>
	<node id="-738032" lat="68.6969916663" lon="17.4257249953">
		<tag k="name" v="Foldvik" />
		<tag k="place" v="farm" />
		<tag k="ssr:stedsnr" v="89715" />
	</node>
	<node id="-738031" lat="68.6950222227" lon="17.5062944341">
		<tag k="name" v="Olavika" />
		<tag k="natural" v="bay" />
		<tag k="ssr:stedsnr" v="88725" />
	</node>
	<node id="-738030" lat="68.6974555522" lon="17.4977083335">
		<tag k="name" v="Oldernes" />
		<tag k="place" v="farm" />
		<tag k="ssr:stedsnr" v="88466" />
	</node>
	<node id="-738029" lat="68.6905111075" lon="17.3554277843">
		<tag k="loc_name:se" v="Huvlajohka" />
		<tag k="name" v="Foldvikelva - Huvlláviikjohka" />
		<tag k="name:no" v="Foldvikelva" />
		<tag k="name:se" v="Huvlláviikjohka" />
		<tag k="ssr:stedsnr" v="81985" />
		<tag k="waterway" v="river" />
	</node>
	<node id="-738028" lat="68.7369611071" lon="17.5962222293">
		<tag k="alt_name" v="Lavangstinden" />
		<tag k="fixme" v="consider natural=peak for the most distinct mountains in the district" />
		<tag k="name" v="Storfjellet" />
		<tag k="natural" v="hill" />
		<tag k="place" v="locality" />
		<tag k="ssr:stedsnr" v="79923" />
	</node>
	<node id="-738027" lat="68.7562500003" lon="17.5689722305">
		<tag k="name" v="Rennelva" />
		<tag k="ssr:stedsnr" v="79708" />
		<tag k="waterway" v="stream" />
	</node>
	<node id="-738026" lat="68.7682916636" lon="17.5045305406">
		<tag k="alt_name" v="Holtinden" />
		<tag k="fixme" v="consider natural=peak for the most distinct mountains in the district" />
		<tag k="name" v="Båtkjølen" />
		<tag k="natural" v="hill" />
		<tag k="place" v="locality" />
		<tag k="ssr:stedsnr" v="79694" />
	</node>
	<node id="-738025" lat="68.6269499985" lon="17.8150805582">
		<tag k="fixme" v="consider natural=peak for the most distinct mountains in the district" />
		<tag k="name" v="Stortinden - Stuoračohkka" />
		<tag k="name:no" v="Stortinden" />
		<tag k="name:se" v="Stuoračohkka" />
		<tag k="natural" v="hill" />
		<tag k="old_name:se" v="Stuoračåkka" />
		<tag k="place" v="locality" />
		<tag k="ssr:stedsnr" v="79497" />
	</node>
	<node id="-738024" lat="68.6343972185" lon="17.4705861158">
		<tag k="name" v="Blåvatnet" />
		<tag k="natural" v="water" />
		<tag k="ssr:stedsnr" v="79486" />
	</node>
	<node id="-738023" lat="68.6279833318" lon="17.486602773">
		<tag k="fixme" v="consider natural=peak for the most distinct mountains in the district" />
		<tag k="name" v="Nonstinden - Beađvačohkka" />
		<tag k="name:no" v="Nonstinden" />
		<tag k="name:se" v="Beađvačohkka" />
		<tag k="natural" v="hill" />
		<tag k="old_name:se" v="Bæđvačåkka" />
		<tag k="place" v="locality" />
		<tag k="ssr:stedsnr" v="79485" />
	</node>
	<node id="-738022" lat="68.628824998" lon="17.5918805408">
		<tag k="name" v="Litjevasshøgda" />
		<tag k="natural" v="hill" />
		<tag k="place" v="locality" />
		<tag k="ssr:stedsnr" v="79481" />
	</node>
	<node id="-738021" lat="68.7541472231" lon="17.5806249877">
		<tag k="name" v="Stordalen" />
		<tag k="natural" v="valley" />
		<tag k="place" v="locality" />
		<tag k="ssr:stedsnr" v="79250" />
	</node>
	<node id="-738020" lat="68.7559083334" lon="17.2638388879">
		<tag k="alt_name" v="Grøsnes, store" />
		<tag k="name" v="Store Grøsnes" />
		<tag k="place" v="farm" />
		<tag k="ssr:stedsnr" v="78990" />
	</node>
	<node id="-738019" lat="68.7458499958" lon="17.3021861159">
		<tag k="name" v="Forråsen" />
		<tag k="place" v="farm" />
		<tag k="ssr:stedsnr" v="78908" />
	</node>
	<node id="-738018" lat="68.6757666679" lon="17.5869222119">
		<tag k="name" v="Gårdselva" />
		<tag k="ssr:stedsnr" v="78605" />
		<tag k="waterway" v="stream" />
	</node>
	<node id="-738017" lat="68.6751666684" lon="17.4834388993">
		<tag k="name" v="Sortebekkmyra" />
		<tag k="natural" v="wetland" />
		<tag k="ssr:stedsnr" v="78600" />
	</node>
	<node id="-738016" lat="68.6484999966" lon="17.4956527677">
		<tag k="name" v="Botnvatnet" />
		<tag k="natural" v="water" />
		<tag k="ssr:stedsnr" v="78597" />
	</node>
	<node id="-738015" lat="68.6623000031" lon="17.71010001">
		<tag k="name" v="Nylund" />
		<tag k="place" v="isolated_dwelling" />
		<tag k="ssr:stedsnr" v="78582" />
	</node>
	<node id="-738014" lat="68.6783638918" lon="17.6495194539">
		<tag k="name" v="Gratangsbotn" />
		<tag k="natural" v="bay" />
		<tag k="ssr:stedsnr" v="78564" />
	</node>
	<node id="-738013" lat="68.6927138901" lon="17.4251277643">
		<tag k="alt_name:no" v="Foldvik" />
		<tag k="fixme" v="consider place=hamlet" />
		<tag k="loc_name:se" v="Huvlaviika" />
		<tag k="name" v="Foldvika" />
		<tag k="name:no" v="Foldvika" />
		<tag k="place" v="village" />
		<tag k="ssr:stedsnr" v="78551" />
	</node>
	<node id="-738012" lat="68.5932555578" lon="17.64476389">
		<tag k="name" v="Kvanndalkroelva" />
		<tag k="ssr:stedsnr" v="78541" />
		<tag k="waterway" v="stream" />
	</node>
	<node id="-738011" lat="68.6418111087" lon="17.7552944363">
		<tag k="alt_name" v="Tverrelva" />
		<tag k="name" v="Ytre Tverrelva" />
		<tag k="ssr:stedsnr" v="78195" />
		<tag k="waterway" v="stream" />
	</node>
	<node id="-738010" lat="68.7065472186" lon="17.4873222138">
		<tag k="name" v="Mølnelva" />
		<tag k="ssr:stedsnr" v="51630" />
		<tag k="waterway" v="stream" />
	</node>
	<node id="-738009" lat="68.7455027748" lon="17.4567916552">
		<tag k="fixme" v="consider natural=peak for the most distinct mountains in the district" />
		<tag k="name" v="Innerkollen" />
		<tag k="natural" v="hill" />
		<tag k="place" v="locality" />
		<tag k="ssr:stedsnr" v="51541" />
	</node>
	<node id="-738008" lat="68.7471361117" lon="17.445147213">
		<tag k="fixme" v="consider natural=peak for the most distinct mountains in the district" />
		<tag k="name" v="Ytterkollen" />
		<tag k="natural" v="hill" />
		<tag k="place" v="locality" />
		<tag k="ssr:stedsnr" v="51540" />
	</node>
	<node id="-738007" lat="68.751297223" lon="17.3746472192">
		<tag k="name" v="Keiplia" />
		<tag k="natural" v="slope" />
		<tag k="place" v="locality" />
		<tag k="ssr:stedsnr" v="51535" />
	</node>
	<node id="-738006" lat="68.6905138852" lon="17.41516667">
		<tag k="name" v="Ressekastet" />
		<tag k="place" v="locality" />
		<tag k="ssr:stedsnr" v="51525" />
	</node>
	<node id="-738005" lat="68.6856138865" lon="17.3708027821">
		<tag k="name" v="Mella Elven" />
		<tag k="natural" v="cape" />
		<tag k="ssr:stedsnr" v="51523" />
	</node>
	<node id="-738004" lat="68.7128555534" lon="17.4787861144">
		<tag k="name" v="Erikmyra" />
		<tag k="natural" v="wetland" />
		<tag k="ssr:stedsnr" v="51496" />
	</node>
	<node id="-738003" lat="68.6978583297" lon="17.4218833331">
		<tag k="name" v="Linbergelva" />
		<tag k="ssr:stedsnr" v="51493" />
		<tag k="waterway" v="stream" />
	</node>
	<node id="-738002" lat="68.7154805517" lon="17.4058888873">
		<tag k="fixme" v="consider natural=peak for the most distinct mountains in the district" />
		<tag k="name" v="Middagsfjellet" />
		<tag k="natural" v="hill" />
		<tag k="place" v="locality" />
		<tag k="ssr:stedsnr" v="51484" />
	</node>
	<node id="-738001" lat="68.7747888901" lon="17.3489944337">
		<tag k="name" v="Moan" />
		<tag k="place" v="locality" />
		<tag k="ssr:stedsnr" v="51480" />
	</node>
	<node id="-738000" lat="68.6377972223" lon="17.6899027707">
		<tag k="name" v="Lomvatnet" />
		<tag k="natural" v="water" />
		<tag k="ssr:stedsnr" v="51422" />
	</node>
	<node id="-737999" lat="68.6459305591" lon="17.7244583419">
		<tag k="fixme" v="consider place=hamlet" />
		<tag k="name" v="Fjelldal" />
		<tag k="place" v="village" />
		<tag k="ssr:stedsnr" v="51420" />
	</node>
	<node id="-737998" lat="68.6351999963" lon="17.6910666597">
		<tag k="name" v="Čohkadievvá" />
		<tag k="name:se" v="Čohkadievvá" />
		<tag k="natural" v="hill" />
		<tag k="place" v="locality" />
		<tag k="ssr:stedsnr" v="51401" />
	</node>
	<node id="-737997" lat="68.6593722189" lon="17.6933805428">
		<tag k="name" v="Storberget" />
		<tag k="natural" v="hill" />
		<tag k="place" v="locality" />
		<tag k="ssr:stedsnr" v="51396" />
	</node>
	<node id="-737996" lat="68.6574388919" lon="17.6908583218">
		<tag k="name" v="Harehaugen" />
		<tag k="natural" v="hill" />
		<tag k="place" v="locality" />
		<tag k="ssr:stedsnr" v="51395" />
	</node>
	<node id="-737995" lat="68.692638886" lon="17.5456888831">
		<tag k="name" v="Skillevollen" />
		<tag k="place" v="locality" />
		<tag k="ssr:stedsnr" v="51389" />
	</node>
	<node id="-737994" lat="68.7343472212" lon="17.5191249896">
		<tag k="name" v="Langhågen" />
		<tag k="natural" v="hill" />
		<tag k="place" v="locality" />
		<tag k="ssr:stedsnr" v="51384" />
	</node>
	<node id="-737993" lat="68.6495250045" lon="17.5400499935">
		<tag k="name" v="Klemmeselvskogen" />
		<tag k="place" v="locality" />
		<tag k="ssr:stedsnr" v="51372" />
	</node>
	<node id="-737992" lat="68.8001749984" lon="17.3934305579">
		<tag k="name" v="Elvekrokan" />
		<tag k="natural" v="bay" />
		<tag k="ssr:stedsnr" v="51325" />
	</node>
	<node id="-737991" lat="68.8039750008" lon="17.4066361092">
		<tag k="name" v="Bekken" />
		<tag k="ssr:stedsnr" v="51322" />
		<tag k="waterway" v="stream" />
	</node>
	<node id="-737990" lat="68.8118972231" lon="17.4444083252">
		<tag k="name" v="Storelvklubben" />
		<tag k="natural" v="hill" />
		<tag k="place" v="locality" />
		<tag k="ssr:stedsnr" v="51312" />
	</node>
	<node id="-737989" lat="68.7251277795" lon="17.4699444448">
		<tag k="name" v="Vika" />
		<tag k="natural" v="bay" />
		<tag k="ssr:stedsnr" v="51289" />
	</node>
	<node id="-737988" lat="68.7356416626" lon="17.260272229">
		<tag k="name" v="Dallevika" />
		<tag k="natural" v="bay" />
		<tag k="ssr:stedsnr" v="50381" />
	</node>
	<node id="-737987" lat="68.7178138916" lon="17.3379333275">
		<tag k="name" v="Øvste skaret" />
		<tag k="natural" v="valley" />
		<tag k="place" v="locality" />
		<tag k="ssr:stedsnr" v="50379" />
	</node>
	<node id="-737986" lat="68.8166805566" lon="17.4305444425">
		<tag k="name" v="Resshågen" />
		<tag k="natural" v="hill" />
		<tag k="place" v="locality" />
		<tag k="ssr:stedsnr" v="49790" />
	</node>
	<node id="-737985" lat="68.6950500024" lon="17.5624027704">
		<tag k="alt_name" v="Esekel" />
		<tag k="name" v="Esekiel" />
		<tag k="place" v="locality" />
		<tag k="ssr:stedsnr" v="30633" />
	</node>
	<node id="-737984" lat="68.729897219" lon="17.3062055477">
		<tag k="name" v="Skarvbergbakken" />
		<tag k="natural" v="shoal" />
		<tag k="place" v="locality" />
		<tag k="ssr:stedsnr" v="29160" />
	</node>
	<node id="-737983" lat="68.6937472182" lon="17.4256222164">
		<tag k="name" v="Foldvik" />
		<tag k="place" v="farm" />
		<tag k="ssr:stedsnr" v="28727" />
	</node>
	<node id="-737982" lat="68.7449055552" lon="17.4164027752">
		<tag k="name" v="Lavik" />
		<tag k="place" v="farm" />
		<tag k="ssr:stedsnr" v="28560" />
	</node>
	<node id="-737981" lat="68.7401500036" lon="17.2807583299">
		<tag k="bay" v="fjord" />
		<tag k="name" v="Rivttáganjálbmi" />
		<tag k="name:se" v="Rivttáganjálbmi" />
		<tag k="natural" v="bay" />
		<tag k="ssr:stedsnr" v="26349" />
	</node>
	<node id="-737980" lat="68.8002749982" lon="17.3876638745">
		<tag k="name" v="Belnes" />
		<tag k="place" v="farm" />
		<tag k="ssr:stedsnr" v="25181" />
	</node>
	<node id="-737979" lat="68.6636027747" lon="17.4073555535">
		<tag k="fixme" v="consider natural=peak for the most distinct mountains in the district" />
		<tag k="name" v="Ruksesvárik" />
		<tag k="name:se" v="Ruksesvárik" />
		<tag k="natural" v="hill" />
		<tag k="place" v="locality" />
		<tag k="ssr:stedsnr" v="21508" />
	</node>
	<node id="-737978" lat="68.6550944406" lon="17.3523500014">
		<tag k="fixme" v="multiple name tags, choose one and add the other to alt_name" />
		<tag k="name" v="Eidevatnet - Stuorajávri;Áidejávri" />
		<tag k="name:no" v="Eidevatnet" />
		<tag k="name:se" v="Stuorajávri;Áidejávri" />
		<tag k="natural" v="water" />
		<tag k="ssr:stedsnr" v="20894" />
		<tag k="water" v="lake" />
	</node>
	<node id="-737977" lat="68.7297833368" lon="17.4701055639">
		<tag k="loc_name:se" v="Hássobákti" />
		<tag k="name" v="Hesjeberg" />
		<tag k="name:no" v="Hesjeberg" />
		<tag k="place" v="hamlet" />
		<tag k="ssr:stedsnr" v="18916" />
	</node>
	<node id="-737976" lat="68.7327027801" lon="17.296013883">
		<tag k="name" v="Holtan" />
		<tag k="natural" v="cape" />
		<tag k="ssr:stedsnr" v="18894" />
	</node>
	<node id="-737975" lat="68.7597111095" lon="17.5505610962">
		<tag k="name" v="Rennelvvatnet" />
		<tag k="natural" v="water" />
		<tag k="ssr:stedsnr" v="18676" />
	</node>
	<node id="-737974" lat="68.7559138872" lon="17.4490388943">
		<tag k="name" v="Ystelivatnet" />
		<tag k="natural" v="water" />
		<tag k="ssr:stedsnr" v="18671" />
	</node>
	<node id="-737973" lat="68.674063891" lon="17.80039723">
		<tag k="alt_name" v="Sølvelva, austre" />
		<tag k="name" v="Austre Sølvelva" />
		<tag k="ssr:stedsnr" v="18584" />
		<tag k="waterway" v="stream" />
	</node>
	<node id="-737972" lat="68.6684500016" lon="17.596997227">
		<tag k="fixme" v="consider natural=peak for the most distinct mountains in the district" />
		<tag k="name" v="Middagsfjellet" />
		<tag k="natural" v="hill" />
		<tag k="place" v="locality" />
		<tag k="ssr:stedsnr" v="18582" />
	</node>
	<node id="-737971" lat="68.6743083336" lon="17.5328666524">
		<tag k="name" v="Milmarka" />
		<tag k="place" v="locality" />
		<tag k="ssr:stedsnr" v="18578" />
	</node>
	<node id="-737970" lat="68.654519442" lon="17.7398194484">
		<tag k="fixme" v="consider natural=peak for the most distinct mountains in the district" />
		<tag k="name" v="Snolke" />
		<tag k="natural" v="hill" />
		<tag k="place" v="locality" />
		<tag k="ssr:stedsnr" v="18564" />
	</node>
	<node id="-737969" lat="68.6554472183" lon="17.5183083277">
		<tag k="loc_name:se" v="Gálajohka" />
		<tag k="name" v="Labergselva" />
		<tag k="name:no" v="Labergselva" />
		<tag k="ssr:stedsnr" v="18558" />
		<tag k="waterway" v="river" />
	</node>
	<node id="-737968" lat="68.6779027759" lon="17.6285750063">
		<tag k="name" v="Grimjorda" />
		<tag k="place" v="isolated_dwelling" />
		<tag k="ssr:stedsnr" v="18535" />
	</node>
	<node id="-737967" lat="68.6464083369" lon="17.6018444441">
		<tag k="fixme" v="consider natural=peak for the most distinct mountains in the district" />
		<tag k="name" v="Varden" />
		<tag k="natural" v="hill" />
		<tag k="place" v="locality" />
		<tag k="ssr:stedsnr" v="18487" />
	</node>
	<node id="-737966" lat="68.6447305555" lon="17.6464805449">
		<tag k="alt_name" v="Fjellbakkan" />
		<tag k="name" v="Fjellbakken" />
		<tag k="natural" v="slope" />
		<tag k="place" v="locality" />
		<tag k="ssr:stedsnr" v="18486" />
	</node>
	<node id="-737965" lat="68.7048666656" lon="17.6945777633">
		<tag k="fixme" v="consider natural=peak for the most distinct mountains in the district" />
		<tag k="name" v="Hornaksla" />
		<tag k="natural" v="hill" />
		<tag k="place" v="locality" />
		<tag k="ssr:stedsnr" v="17604" />
	</node>
	<node id="-737964" lat="68.6892416639" lon="17.6936000028">
		<tag k="fixme" v="consider natural=peak for the most distinct mountains in the district" />
		<tag k="name" v="Fjordbotnheia" />
		<tag k="natural" v="hill" />
		<tag k="place" v="locality" />
		<tag k="ssr:stedsnr" v="17581" />
	</node>
	<node id="-737963" lat="68.6900194489" lon="17.5520527726">
		<tag k="alt_name" v="Linds Minne" />
		<tag k="amenity" v="place_of_worship" />
		<tag k="denomination" v="lutheran" />
		<tag k="name" v="Gratangen" />
		<tag k="religion" v="christian" />
		<tag k="ssr:stedsnr" v="17578" />
	</node>
	<node id="-737962" lat="68.8048249998" lon="17.3928388851">
		<tag k="alt_name" v="Belnes" />
		<tag k="name" v="Belnesodden" />
		<tag k="natural" v="cape" />
		<tag k="ssr:stedsnr" v="17231" />
	</node>
	<node id="-737960" lat="68.6369432157" lon="17.729270835">
		<tag k="fixme" v="consider place=hamlet" />
		<tag k="name" v="Kvernmoen" />
		<tag k="place" v="farm" />
		<tag k="ssr:stedsnr" v="989691" />
	</node>
	<node id="-737959" lat="68.7559712011" lon="17.2635522581">
		<tag k="fixme" v="consider place=hamlet" />
		<tag k="loc_name:se" v="Stuora Rivttáknášši" />
		<tag k="name" v="Store Grøsnes" />
		<tag k="name:no" v="Store Grøsnes" />
		<tag k="place" v="farm" />
		<tag k="ssr:stedsnr" v="989689" />
	</node>
	<node id="-737958" lat="68.7395886652" lon="17.3209838945">
		<tag k="fixme" v="consider place=hamlet" />
		<tag k="loc_name:se" v="Unna Rivttáknáššáš" />
		<tag k="name" v="Lille Grøsnes" />
		<tag k="name:no" v="Lille Grøsnes" />
		<tag k="place" v="farm" />
		<tag k="ssr:stedsnr" v="989688" />
	</node>
	<node id="-737957" lat="68.7563734166" lon="17.2618126983">
		<tag k="loc_name:se" v="Rivttáknášši" />
		<tag k="name" v="Grøsnes" />
		<tag k="name:no" v="Grøsnes" />
		<tag k="place" v="hamlet" />
		<tag k="ssr:stedsnr" v="989687" />
	</node>
	<node id="-737956" lat="68.7298640186" lon="17.4704722519">
		<tag k="fixme" v="consider place=hamlet" />
		<tag k="loc_name:se" v="Hássobákti" />
		<tag k="name" v="Hesjeberg" />
		<tag k="name:no" v="Hesjeberg" />
		<tag k="place" v="farm" />
		<tag k="ssr:stedsnr" v="989686" />
	</node>
	<node id="-737955" lat="68.7187257676" lon="17.4748069695">
		<tag k="loc_name:se" v="Skikta" />
		<tag k="name" v="Skifte" />
		<tag k="name:no" v="Skifte" />
		<tag k="place" v="hamlet" />
		<tag k="ssr:stedsnr" v="989685" />
	</node>
	<node id="-737954" lat="68.6904767198" lon="17.541385573">
		<tag k="fixme" v="consider place=hamlet" />
		<tag k="loc_name:se" v="Árjogeargi" />
		<tag k="name" v="Årstein" />
		<tag k="name:no" v="Årstein" />
		<tag k="place" v="farm" />
		<tag k="ssr:stedsnr" v="989684" />
	</node>
	<node id="-737953" lat="68.7332435419" lon="17.2708836625">
		<tag k="fixme" v="consider place=hamlet" />
		<tag k="loc_name:se" v="Hilsá" />
		<tag k="name" v="Hilleshamn" />
		<tag k="name:no" v="Hilleshamn" />
		<tag k="place" v="farm" />
		<tag k="ssr:stedsnr" v="989683" />
	</node>
	<node id="-737951" lat="68.7216255703" lon="17.4133526761">
		<tag k="fixme" v="consider place=hamlet" />
		<tag k="loc_name:se" v="Čuvvá" />
		<tag k="name" v="Tjuvskjær" />
		<tag k="name:no" v="Tjuvskjær" />
		<tag k="place" v="farm" />
		<tag k="ssr:stedsnr" v="989680" />
	</node>
	<node id="-737950" lat="68.6892064077" lon="17.4231142536">
		<tag k="fixme" v="consider place=hamlet" />
		<tag k="loc_name:se" v="Huvlaviika" />
		<tag k="name" v="Foldvika" />
		<tag k="name:no" v="Foldvika" />
		<tag k="place" v="farm" />
		<tag k="ssr:stedsnr" v="989679" />
	</node>
	<node id="-737949" lat="68.684476196" lon="17.5502047626">
		<tag k="fixme" v="consider place=hamlet" />
		<tag k="loc_name:se" v="Strávvenjárga" />
		<tag k="name" v="Straumsnes" />
		<tag k="name:no" v="Straumsnes" />
		<tag k="place" v="farm" />
		<tag k="ssr:stedsnr" v="989678" />
	</node>
	<node id="-737946" lat="68.675505298" lon="17.5087655605">
		<tag k="fixme" v="consider place=hamlet" />
		<tag k="loc_name:se" v="Gálla" />
		<tag k="name" v="Laberget" />
		<tag k="name:no" v="Laberget" />
		<tag k="place" v="farm" />
		<tag k="ssr:stedsnr" v="988987" />
	</node>
	<node id="-737945" lat="68.8135777748" lon="17.425488894">
		<tag k="name" v="Ryet" />
		<tag k="place" v="locality" />
		<tag k="ssr:stedsnr" v="413798" />
	</node>
	<node id="-737944" lat="68.8146444457" lon="17.4305194421">
		<tag k="name" v="Ressholla" />
		<tag k="natural" v="valley" />
		<tag k="place" v="locality" />
		<tag k="ssr:stedsnr" v="413795" />
	</node>
	<node id="-737943" lat="68.8154111117" lon="17.4214472165">
		<tag k="name" v="Steinbakken" />
		<tag k="natural" v="slope" />
		<tag k="place" v="locality" />
		<tag k="ssr:stedsnr" v="413794" />
	</node>
	<node id="-737938" lat="68.6536138928" lon="17.8333749993">
		<tag k="fixme" v="consider natural=peak for the most distinct mountains in the district" />
		<tag k="loc_name:se" v="Unna Suobddegas" />
		<tag k="name" v="Baikačohkka - Høgtinden" />
		<tag k="name:no" v="Høgtinden" />
		<tag k="name:se" v="Baikačohkka" />
		<tag k="natural" v="hill" />
		<tag k="old_name:se" v="Baikačåkka" />
		<tag k="place" v="locality" />
		<tag k="ssr:stedsnr" v="749609" />
	</node>
	<node id="-737937" lat="68.7487305544" lon="17.2991999862">
		<tag k="name" v="Liaberget" />
		<tag k="natural" v="hill" />
		<tag k="place" v="locality" />
		<tag k="ssr:stedsnr" v="900395" />
	</node>
	<node id="-737936" lat="68.7150527817" lon="17.3423861076">
		<tag k="name" v="Kviteberget" />
		<tag k="natural" v="hill" />
		<tag k="place" v="locality" />
		<tag k="ssr:stedsnr" v="900391" />
	</node>
	<node id="-737935" lat="68.6984250045" lon="17.508013877">
		<tag k="name" v="Olavikelva" />
		<tag k="ssr:stedsnr" v="475478" />
		<tag k="waterway" v="stream" />
	</node>
	<node id="-737934" lat="68.6954194403" lon="17.3716722243">
		<tag k="name" v="Nuttegamsvatnan" />
		<tag k="natural" v="water" />
		<tag k="ssr:stedsnr" v="475467" />
		<tag k="water" v="lake" />
	</node>
	<node id="-737933" lat="68.7008861148" lon="17.397108333">
		<tag k="fixme" v="consider natural=peak for the most distinct mountains in the district" />
		<tag k="name" v="Heibrunen" />
		<tag k="natural" v="hill" />
		<tag k="place" v="locality" />
		<tag k="ssr:stedsnr" v="475466" />
	</node>
	<node id="-737932" lat="68.6980805584" lon="17.373927774">
		<tag k="name" v="Vasslian" />
		<tag k="natural" v="slope" />
		<tag k="place" v="locality" />
		<tag k="ssr:stedsnr" v="475460" />
	</node>
	<node id="-737931" lat="68.7108861132" lon="17.4900027703">
		<tag k="name" v="Hestemyra" />
		<tag k="natural" v="wetland" />
		<tag k="ssr:stedsnr" v="475457" />
	</node>
	<node id="-737930" lat="68.7201666685" lon="17.4705555581">
		<tag k="fixme" v="consider natural=peak for the most distinct mountains in the district" />
		<tag k="name" v="Geitryggen" />
		<tag k="natural" v="hill" />
		<tag k="place" v="locality" />
		<tag k="ssr:stedsnr" v="475449" />
	</node>
	<node id="-737929" lat="68.7174083328" lon="17.3977694387">
		<tag k="name" v="Vedhågen" />
		<tag k="natural" v="hill" />
		<tag k="place" v="locality" />
		<tag k="ssr:stedsnr" v="475445" />
	</node>
	<node id="-737928" lat="68.6741305597" lon="17.4793027699">
		<tag k="name" v="Krokan" />
		<tag k="natural" v="slope" />
		<tag k="place" v="locality" />
		<tag k="ssr:stedsnr" v="475444" />
	</node>
	<node id="-737927" lat="68.6765444449" lon="17.4287999979">
		<tag k="name" v="Dudalsholtet" />
		<tag k="place" v="locality" />
		<tag k="ssr:stedsnr" v="475434" />
	</node>
	<node id="-737926" lat="68.6776472181" lon="17.4300277754">
		<tag k="name" v="Rikmannsheimen" />
		<tag k="place" v="locality" />
		<tag k="ssr:stedsnr" v="475433" />
	</node>
	<node id="-737925" lat="68.6453166631" lon="17.7157527806">
		<tag k="name" v="Beinberget" />
		<tag k="natural" v="hill" />
		<tag k="place" v="locality" />
		<tag k="ssr:stedsnr" v="475394" />
	</node>
	<node id="-737924" lat="68.6251055528" lon="17.7382805436">
		<tag k="name" v="Storfossen" />
		<tag k="natural" v="waterfall" />
		<tag k="ssr:stedsnr" v="475376" />
	</node>
	<node id="-737923" lat="68.6484083371" lon="17.5493333448">
		<tag k="name" v="Klemmeselvholmen" />
		<tag k="natural" v="cape" />
		<tag k="ssr:stedsnr" v="475336" />
	</node>
	<node id="-737922" lat="68.6637027783" lon="17.6637833205">
		<tag k="name" v="Høgda" />
		<tag k="natural" v="hill" />
		<tag k="place" v="locality" />
		<tag k="ssr:stedsnr" v="475329" />
	</node>
	<node id="-737921" lat="68.6051944428" lon="17.6297250066">
		<tag k="name" v="Storrenna" />
		<tag k="ssr:stedsnr" v="475308" />
		<tag k="waterway" v="stream" />
	</node>
	<node id="-737920" lat="68.815494446" lon="17.4463916774">
		<tag k="name" v="Geitholla" />
		<tag k="natural" v="valley" />
		<tag k="place" v="locality" />
		<tag k="ssr:stedsnr" v="475305" />
	</node>
	<node id="-737919" lat="68.6628361113" lon="17.6366194542">
		<tag k="name" v="Hågskogen" />
		<tag k="place" v="locality" />
		<tag k="ssr:stedsnr" v="475294" />
	</node>
	<node id="-737918" lat="68.6713750016" lon="17.651211104">
		<tag k="name" v="Elveneshaugen" />
		<tag k="natural" v="hill" />
		<tag k="place" v="locality" />
		<tag k="ssr:stedsnr" v="475293" />
	</node>
	<node id="-737917" lat="68.7255527812" lon="17.4789111151">
		<tag k="name" v="Skredelva" />
		<tag k="ssr:stedsnr" v="475287" />
		<tag k="waterway" v="stream" />
	</node>
	<node id="-737916" lat="68.806486109" lon="17.4280638901">
		<tag k="fixme" v="consider natural=peak for the most distinct mountains in the district" />
		<tag k="name" v="Slettkollen" />
		<tag k="natural" v="hill" />
		<tag k="place" v="locality" />
		<tag k="ssr:stedsnr" v="475283" />
	</node>
	<node id="-737915" lat="68.7943361086" lon="17.3637500095">
		<tag k="name" v="Hans-Olaihågen" />
		<tag k="natural" v="hill" />
		<tag k="place" v="locality" />
		<tag k="ssr:stedsnr" v="475280" />
	</node>
	<node id="-737914" lat="68.7370555559" lon="17.4840472242">
		<tag k="highway" v="path" />
		<tag k="name" v="Grønnfjellveien" />
		<tag k="ssr:stedsnr" v="475260" />
	</node>
	<node id="-737913" lat="68.7302583328" lon="17.4854666664">
		<tag k="fixme" v="consider natural=peak for the most distinct mountains in the district" />
		<tag k="name" v="Svartfjellet" />
		<tag k="natural" v="hill" />
		<tag k="place" v="locality" />
		<tag k="ssr:stedsnr" v="475257" />
	</node>
	<node id="-737912" lat="68.7308361138" lon="17.478511102">
		<tag k="name" v="Vedsteinen" />
		<tag k="natural" v="stone" />
		<tag k="ssr:stedsnr" v="475255" />
	</node>
	<node id="-737911" lat="68.724591665" lon="17.3247583408">
		<tag k="name" v="Åmundhøgda" />
		<tag k="natural" v="hill" />
		<tag k="place" v="locality" />
		<tag k="ssr:stedsnr" v="474431" />
	</node>
	<node id="-737910" lat="68.7270444434" lon="17.3173777752">
		<tag k="name" v="Skarvberget" />
		<tag k="natural" v="hill" />
		<tag k="place" v="locality" />
		<tag k="ssr:stedsnr" v="474430" />
	</node>
	<node id="-737909" lat="68.7304805552" lon="17.2796694383">
		<tag k="name" v="Stormyra" />
		<tag k="natural" v="wetland" />
		<tag k="ssr:stedsnr" v="474428" />
	</node>
	<node id="-737908" lat="68.7278361143" lon="17.2809083203">
		<tag k="name" v="Lemman" />
		<tag k="natural" v="hill" />
		<tag k="place" v="locality" />
		<tag k="ssr:stedsnr" v="474422" />
	</node>
	<node id="-737907" lat="68.7352194428" lon="17.2855944466">
		<tag k="name" v="Innersjøen" />
		<tag k="natural" v="bay" />
		<tag k="ssr:stedsnr" v="474421" />
	</node>
	<node id="-737906" lat="68.7351055568" lon="17.2820972265">
		<tag k="name" v="Høyberget" />
		<tag k="natural" v="hill" />
		<tag k="place" v="locality" />
		<tag k="ssr:stedsnr" v="474419" />
	</node>
	<node id="-737905" lat="68.7268972246" lon="17.2246916622">
		<tag k="name" v="Smålian" />
		<tag k="natural" v="slope" />
		<tag k="place" v="locality" />
		<tag k="ssr:stedsnr" v="474410" />
	</node>
	<node id="-737904" lat="68.7561083371" lon="17.3136194346">
		<tag k="name" v="Fjellvad" />
		<tag k="natural" v="hill" />
		<tag k="place" v="locality" />
		<tag k="ssr:stedsnr" v="474383" />
	</node>
	<node id="-737903" lat="68.7755361129" lon="17.2825749959">
		<tag k="alt_name" v="Masivika" />
		<tag k="name" v="Madsvika" />
		<tag k="natural" v="bay" />
		<tag k="ssr:stedsnr" v="393901" />
	</node>
	<node id="-737902" lat="68.7248555522" lon="17.4730250085">
		<tag k="name" v="Vika" />
		<tag k="place" v="isolated_dwelling" />
		<tag k="ssr:stedsnr" v="393793" />
	</node>
	<node id="-737901" lat="68.7422805517" lon="17.2461583288">
		<tag k="name" v="Hamnnesgrunnan" />
		<tag k="natural" v="cape" />
		<tag k="ssr:stedsnr" v="393480" />
	</node>
	<node id="-737900" lat="68.7254388895" lon="17.4111388851">
		<tag k="fixme" v="consider seamark:type=rock or natural=shoal" />
		<tag k="name" v="Vedmerra" />
		<tag k="place" v="islet" />
		<tag k="ssr:stedsnr" v="393232" />
	</node>
	<node id="-737899" lat="68.6611361136" lon="17.5545999925">
		<tag k="name" v="Botnan" />
		<tag k="natural" v="valley" />
		<tag k="place" v="locality" />
		<tag k="ssr:stedsnr" v="392761" />
	</node>
	<node id="-737898" lat="68.7192749986" lon="17.3861860974">
		<tag k="name" v="Ytterelva" />
		<tag k="ssr:stedsnr" v="383972" />
		<tag k="waterway" v="stream" />
	</node>
	<node id="-737897" lat="68.7175499989" lon="17.2884555637">
		<tag k="fixme" v="consider natural=peak for the most distinct mountains in the district" />
		<tag k="name" v="Tverrfjellet" />
		<tag k="natural" v="hill" />
		<tag k="place" v="locality" />
		<tag k="ssr:stedsnr" v="383968" />
	</node>
	<node id="-737896" lat="68.7267638925" lon="17.5117694338">
		<tag k="name" v="Hoaŋka" />
		<tag k="name:se" v="Hoaŋka" />
		<tag k="natural" v="hill" />
		<tag k="place" v="locality" />
		<tag k="ssr:stedsnr" v="382940" />
	</node>
	<node id="-737895" lat="68.6322527781" lon="17.7699499909">
		<tag k="loc_name:se" v="Skáidegohpi" />
		<tag k="name" v="Holtåsbotn" />
		<tag k="name:no" v="Holtåsbotn" />
		<tag k="natural" v="valley" />
		<tag k="place" v="locality" />
		<tag k="ssr:stedsnr" v="382517" />
	</node>
	<node id="-737894" lat="68.6306361157" lon="17.7587416547">
		<tag k="name" v="Lassaelva" />
		<tag k="ssr:stedsnr" v="382511" />
		<tag k="waterway" v="stream" />
	</node>
	<node id="-737893" lat="68.645072221" lon="17.498102784">
		<tag k="name" v="Botn" />
		<tag k="natural" v="valley" />
		<tag k="place" v="locality" />
		<tag k="ssr:stedsnr" v="381618" />
	</node>
	<node id="-737892" lat="68.650241668" lon="17.4211860972">
		<tag k="name" v="Sisriehppi" />
		<tag k="name:se" v="Sisriehppi" />
		<tag k="natural" v="valley" />
		<tag k="old_name:se" v="Sisrieppi" />
		<tag k="place" v="locality" />
		<tag k="ssr:stedsnr" v="381614" />
	</node>
	<node id="-737891" lat="68.6598222222" lon="17.6836777763">
		<tag k="name" v="Storbakken" />
		<tag k="natural" v="slope" />
		<tag k="place" v="locality" />
		<tag k="ssr:stedsnr" v="381602" />
	</node>
	<node id="-737890" lat="68.6580638875" lon="17.6006444354">
		<tag k="name" v="Lauvskarvatnet" />
		<tag k="natural" v="water" />
		<tag k="ssr:stedsnr" v="381600" />
	</node>
	<node id="-737889" lat="68.6572194482" lon="17.5885500103">
		<tag k="alt_name" v="Klemmeselvvatnet, øvre" />
		<tag k="name" v="Øvre Klemmeselvvatnet" />
		<tag k="natural" v="water" />
		<tag k="ssr:stedsnr" v="381599" />
	</node>
	<node id="-737888" lat="68.716152778" lon="17.4252305422">
		<tag k="name" v="Daumannshola" />
		<tag k="natural" v="valley" />
		<tag k="place" v="locality" />
		<tag k="ssr:stedsnr" v="381578" />
	</node>
	<node id="-737887" lat="68.6784027759" lon="17.5493222219">
		<tag k="name" v="Rapelva" />
		<tag k="ssr:stedsnr" v="381571" />
		<tag k="waterway" v="stream" />
	</node>
	<node id="-737886" lat="68.68803889" lon="17.7944472136">
		<tag k="fixme" v="consider natural=peak for the most distinct mountains in the district" />
		<tag k="name" v="Slettfjellet" />
		<tag k="natural" v="hill" />
		<tag k="place" v="locality" />
		<tag k="ssr:stedsnr" v="381561" />
	</node>
	<node id="-737885" lat="68.6495916629" lon="17.5540972276">
		<tag k="name" v="Klemmeselva" />
		<tag k="ssr:stedsnr" v="381520" />
		<tag k="waterway" v="stream" />
	</node>
	<node id="-737884" lat="68.7989944484" lon="17.4007916681">
		<tag k="name" v="Belneselva" />
		<tag k="ssr:stedsnr" v="381232" />
		<tag k="waterway" v="river" />
	</node>
	<node id="-737883" lat="68.7357277736" lon="17.4902055608">
		<tag k="name" v="Storelva" />
		<tag k="ssr:stedsnr" v="381196" />
		<tag k="waterway" v="river" />
	</node>
	<node id="-737882" lat="68.6954833301" lon="17.3894472182">
		<tag k="name" v="Kirstiheimbakken" />
		<tag k="natural" v="slope" />
		<tag k="place" v="locality" />
		<tag k="ssr:stedsnr" v="354469" />
	</node>
	<node id="-737881" lat="68.7184222224" lon="17.3958055438">
		<tag k="name" v="Bjørnhågen" />
		<tag k="natural" v="hill" />
		<tag k="place" v="locality" />
		<tag k="ssr:stedsnr" v="354455" />
	</node>
	<node id="-737880" lat="68.7694638898" lon="17.2830666627">
		<tag k="cemetery" v="grave" />
		<tag k="name" v="Fredly" />
		<tag k="place" v="locality" />
		<tag k="ssr:stedsnr" v="354441" />
	</node>
	<node id="-737879" lat="68.6709972262" lon="17.7791555608">
		<tag k="name" v="Finneslettskogen" />
		<tag k="place" v="locality" />
		<tag k="ssr:stedsnr" v="354372" />
	</node>
	<node id="-737878" lat="68.6533805531" lon="17.6443749896">
		<tag k="name" v="Bardejorda" />
		<tag k="natural" v="slope" />
		<tag k="place" v="locality" />
		<tag k="ssr:stedsnr" v="354363" />
	</node>
	<node id="-737877" lat="68.6948083318" lon="17.5864861168">
		<tag k="name" v="Sveberget" />
		<tag k="natural" v="hill" />
		<tag k="place" v="locality" />
		<tag k="ssr:stedsnr" v="354352" />
	</node>
	<node id="-737876" lat="68.6952861126" lon="17.5763722145">
		<tag k="name" v="Småsvean" />
		<tag k="natural" v="slope" />
		<tag k="place" v="locality" />
		<tag k="ssr:stedsnr" v="354351" />
	</node>
	<node id="-737875" lat="68.793483331" lon="17.3697083269">
		<tag k="name" v="Metøa" />
		<tag k="place" v="locality" />
		<tag k="ssr:stedsnr" v="354293" />
	</node>
	<node id="-737874" lat="68.8177277785" lon="17.4433138806">
		<tag k="name" v="Svaberget" />
		<tag k="natural" v="hill" />
		<tag k="place" v="locality" />
		<tag k="ssr:stedsnr" v="354289" />
	</node>
	<node id="-737873" lat="68.7398305525" lon="17.4691250014">
		<tag k="name" v="Blomhågen" />
		<tag k="natural" v="hill" />
		<tag k="place" v="locality" />
		<tag k="ssr:stedsnr" v="354283" />
	</node>
	<node id="-737872" lat="68.7868333335" lon="17.3404527636">
		<tag k="name" v="Myrlund" />
		<tag k="place" v="farm" />
		<tag k="ssr:stedsnr" v="353429" />
	</node>
	<node id="-737871" lat="68.727011113" lon="17.3198194405">
		<tag k="name" v="Perbulian" />
		<tag k="natural" v="slope" />
		<tag k="place" v="locality" />
		<tag k="ssr:stedsnr" v="353422" />
	</node>
	<node id="-737870" lat="68.7423722242" lon="17.3146166669">
		<tag k="name" v="Lavika" />
		<tag k="natural" v="bay" />
		<tag k="ssr:stedsnr" v="353418" />
	</node>
	<node id="-737869" lat="68.7296444425" lon="17.2905583204">
		<tag k="name" v="Stilleholtan" />
		<tag k="place" v="locality" />
		<tag k="ssr:stedsnr" v="353416" />
	</node>
	<node id="-737868" lat="68.7309138908" lon="17.2501055578">
		<tag k="name" v="Øvrehalsan" />
		<tag k="natural" v="hill" />
		<tag k="place" v="locality" />
		<tag k="ssr:stedsnr" v="353407" />
	</node>
	<node id="-737867" lat="68.6873305574" lon="17.6388166675">
		<tag k="name" v="Svennlia" />
		<tag k="natural" v="slope" />
		<tag k="place" v="locality" />
		<tag k="ssr:stedsnr" v="334613" />
	</node>
	<node id="-737866" lat="68.7290777763" lon="17.295294439">
		<tag k="name" v="Stillevika" />
		<tag k="natural" v="bay" />
		<tag k="ssr:stedsnr" v="333181" />
	</node>
	<node id="-737865" lat="68.6921583375" lon="17.4283250002">
		<tag k="alt_name" v="Nesset" />
		<tag k="name" v="Neset" />
		<tag k="natural" v="cape" />
		<tag k="ssr:stedsnr" v="333176" />
	</node>
	<node id="-737864" lat="68.7732888907" lon="17.2688499979">
		<tag k="name" v="Kalvegjerdet" />
		<tag k="place" v="locality" />
		<tag k="ssr:stedsnr" v="332893" />
	</node>
	<node id="-737863" lat="68.7562888927" lon="17.2627111063">
		<tag k="fixme" v="consider place=hamlet" />
		<tag k="loc_name:se" v="Rivttáknášši" />
		<tag k="name" v="Grøsnes" />
		<tag k="name:no" v="Grøsnes" />
		<tag k="place" v="village" />
		<tag k="ssr:stedsnr" v="332775" />
	</node>
	<node id="-737862" lat="68.68903333" lon="17.6245583373">
		<tag k="fixme" v="multiple name tags, choose one and add the other to alt_name" />
		<tag k="name" v="Pollen;Årsteinleira" />
		<tag k="natural" v="bay" />
		<tag k="ssr:stedsnr" v="331765" />
	</node>
	<node id="-737861" lat="68.7211500043" lon="17.4779916598">
		<tag k="name" v="Skifte" />
		<tag k="place" v="farm" />
		<tag k="ssr:stedsnr" v="331743" />
	</node>
	<node id="-737860" lat="68.6764861082" lon="17.5075805581">
		<tag k="name" v="Laberget" />
		<tag k="place" v="farm" />
		<tag k="ssr:stedsnr" v="331626" />
	</node>
	<node id="-737859" lat="68.6806166651" lon="17.3313138953">
		<tag k="name" v="Girkoláhku" />
		<tag k="name:se" v="Girkoláhku" />
		<tag k="natural" v="slope" />
		<tag k="place" v="locality" />
		<tag k="ssr:stedsnr" v="323999" />
	</node>
	<node id="-737858" lat="68.7234833324" lon="17.2310222118">
		<tag k="name" v="Tvillingvatnan" />
		<tag k="natural" v="water" />
		<tag k="ssr:stedsnr" v="323967" />
		<tag k="water" v="lake" />
	</node>
	<node id="-737857" lat="68.7226416653" lon="17.2388499892">
		<tag k="fixme" v="consider natural=peak for the most distinct mountains in the district" />
		<tag k="name" v="Bukkespelen" />
		<tag k="natural" v="hill" />
		<tag k="place" v="locality" />
		<tag k="ssr:stedsnr" v="323966" />
	</node>
	<node id="-737856" lat="68.7151444414" lon="17.1908694438">
		<tag k="name" v="Storelva" />
		<tag k="ssr:stedsnr" v="323965" />
		<tag k="waterway" v="stream" />
	</node>
	<node id="-737855" lat="68.763324997" lon="17.3299388826">
		<tag k="fixme" v="consider natural=peak for the most distinct mountains in the district" />
		<tag k="name" v="Blåfjellet" />
		<tag k="natural" v="hill" />
		<tag k="place" v="locality" />
		<tag k="ssr:stedsnr" v="321985" />
	</node>
	<node id="-737854" lat="68.7860944419" lon="17.4219722287">
		<tag k="name" v="Belnesvatnet" />
		<tag k="natural" v="water" />
		<tag k="ssr:stedsnr" v="321958" />
		<tag k="water" v="lake" />
	</node>
	<node id="-737853" lat="68.8009500046" lon="17.4354527698">
		<tag k="fixme" v="consider natural=peak for the most distinct mountains in the district" />
		<tag k="name" v="Selneskollen" />
		<tag k="natural" v="hill" />
		<tag k="place" v="locality" />
		<tag k="ssr:stedsnr" v="321674" />
	</node>
	<node id="-737852" lat="68.6641972199" lon="17.6355722164">
		<tag k="name" v="Lauvskarelva" />
		<tag k="ssr:stedsnr" v="321587" />
		<tag k="waterway" v="stream" />
	</node>
	<node id="-737851" lat="68.6514500011" lon="17.7559861075">
		<tag k="name" v="Storhaugen" />
		<tag k="natural" v="hill" />
		<tag k="place" v="locality" />
		<tag k="ssr:stedsnr" v="321575" />
	</node>
	<node id="-737850" lat="68.6585749977" lon="17.7081611127">
		<tag k="name" v="Fjellhøgda" />
		<tag k="place" v="isolated_dwelling" />
		<tag k="ssr:stedsnr" v="321571" />
	</node>
	<node id="-737849" lat="68.6510388857" lon="17.6661583327">
		<tag k="name" v="Tverrelvsletta" />
		<tag k="place" v="locality" />
		<tag k="ssr:stedsnr" v="321568" />
	</node>
	<node id="-737848" lat="68.6622055536" lon="17.4543388835">
		<tag k="fixme" v="consider natural=peak for the most distinct mountains in the district" />
		<tag k="name" v="Middagsfjellet" />
		<tag k="natural" v="hill" />
		<tag k="place" v="locality" />
		<tag k="ssr:stedsnr" v="321564" />
	</node>
	<node id="-737847" lat="68.6619166687" lon="17.72728055">
		<tag k="name" v="Dalsletta" />
		<tag k="place" v="locality" />
		<tag k="ssr:stedsnr" v="321562" />
	</node>
	<node id="-737846" lat="68.7041305589" lon="17.5236361186">
		<tag k="name" v="Storhågen" />
		<tag k="natural" v="hill" />
		<tag k="place" v="locality" />
		<tag k="ssr:stedsnr" v="321556" />
	</node>
	<node id="-737845" lat="68.5986333309" lon="17.6193749873">
		<tag k="loc_name:se" v="Rivttákáidi" />
		<tag k="name" v="Gratangseidet" />
		<tag k="name:no" v="Gratangseidet" />
		<tag k="natural" v="strait" />
		<tag k="ssr:stedsnr" v="321527" />
	</node>
	<node id="-737844" lat="68.6400527803" lon="17.490519446">
		<tag k="name" v="Luossariehppi" />
		<tag k="name:se" v="Luossariehppi" />
		<tag k="natural" v="valley" />
		<tag k="old_name:se" v="Luossarieppi" />
		<tag k="place" v="locality" />
		<tag k="ssr:stedsnr" v="321495" />
	</node>
	<node id="-737843" lat="68.645583335" lon="17.712041655">
		<tag k="alt_name" v="Bjerkemoelva" />
		<tag k="name" v="Bjørkmoelva" />
		<tag k="ssr:stedsnr" v="321491" />
		<tag k="waterway" v="stream" />
	</node>
	<node id="-737842" lat="68.6471916653" lon="17.7189944374">
		<tag k="name" v="Fjelldal" />
		<tag k="place" v="isolated_dwelling" />
		<tag k="ssr:stedsnr" v="321485" />
	</node>
	<node id="-737841" lat="68.6623611141" lon="17.6480472126">
		<tag k="name" v="Mølnelva" />
		<tag k="ssr:stedsnr" v="321176" />
		<tag k="waterway" v="stream" />
	</node>
	<node id="-737840" lat="68.6839944415" lon="17.5852361003">
		<tag k="name" v="Orhågen" />
		<tag k="natural" v="hill" />
		<tag k="place" v="locality" />
		<tag k="ssr:stedsnr" v="294342" />
	</node>
	<node id="-737839" lat="68.6067916678" lon="17.6090166725">
		<tag k="fixme" v="consider natural=peak for the most distinct mountains in the district" />
		<tag k="name" v="Storfjellet" />
		<tag k="natural" v="hill" />
		<tag k="place" v="locality" />
		<tag k="ssr:stedsnr" v="294285" />
	</node>
	<node id="-737838" lat="68.6768055557" lon="17.5877083343">
		<tag k="name" v="Durmålshaugen" />
		<tag k="natural" v="hill" />
		<tag k="place" v="locality" />
		<tag k="ssr:stedsnr" v="294280" />
	</node>
	<node id="-737837" lat="68.7402388901" lon="17.4626888846">
		<tag k="name" v="Breilihågen" />
		<tag k="natural" v="hill" />
		<tag k="place" v="locality" />
		<tag k="ssr:stedsnr" v="294258" />
	</node>
	<node id="-737836" lat="68.7397999971" lon="17.4409805585">
		<tag k="name" v="Sjåberget" />
		<tag k="natural" v="hill" />
		<tag k="place" v="locality" />
		<tag k="ssr:stedsnr" v="294254" />
	</node>
	<node id="-737835" lat="68.7355194459" lon="17.4601916629">
		<tag k="name" v="Løslettberget" />
		<tag k="natural" v="hill" />
		<tag k="place" v="locality" />
		<tag k="ssr:stedsnr" v="294252" />
	</node>
	<node id="-737834" lat="68.7233527802" lon="17.3656444336">
		<tag k="fixme" v="consider natural=peak for the most distinct mountains in the district" />
		<tag k="name" v="Skjellorfjellet" />
		<tag k="natural" v="hill" />
		<tag k="place" v="locality" />
		<tag k="ssr:stedsnr" v="293521" />
	</node>
	<node id="-737833" lat="68.7497333298" lon="17.4136166633">
		<tag k="name" v="Bratthøgda" />
		<tag k="natural" v="hill" />
		<tag k="place" v="locality" />
		<tag k="ssr:stedsnr" v="293502" />
	</node>
	<node id="-737832" lat="68.6916861123" lon="17.3877583225">
		<tag k="name" v="Storelva" />
		<tag k="ssr:stedsnr" v="293483" />
		<tag k="waterway" v="river" />
	</node>
	<node id="-737831" lat="68.6931444437" lon="17.3572416545">
		<tag k="name" v="Lillereingjerdet" />
		<tag k="place" v="locality" />
		<tag k="ssr:stedsnr" v="293480" />
	</node>
	<node id="-737830" lat="68.7072999962" lon="17.4966166707">
		<tag k="name" v="Trolldalselva" />
		<tag k="ssr:stedsnr" v="293474" />
		<tag k="waterway" v="stream" />
	</node>
	<node id="-737829" lat="68.6760722243" lon="17.463786122">
		<tag k="name" v="Silsandelva" />
		<tag k="ssr:stedsnr" v="293472" />
		<tag k="waterway" v="stream" />
	</node>
	<node id="-737828" lat="68.6663916702" lon="17.5099222298">
		<tag k="name" v="Nevermoen" />
		<tag k="place" v="locality" />
		<tag k="ssr:stedsnr" v="293463" />
	</node>
	<node id="-737827" lat="68.667761114" lon="17.4705638875">
		<tag k="name" v="Pesselva" />
		<tag k="ssr:stedsnr" v="293464" />
		<tag k="waterway" v="stream" />
	</node>
	<node id="-737826" lat="68.677330559" lon="17.4165805634">
		<tag k="name" v="Storforrhågen" />
		<tag k="natural" v="hill" />
		<tag k="place" v="locality" />
		<tag k="ssr:stedsnr" v="293462" />
	</node>
	<node id="-737825" lat="68.6823888865" lon="17.417891672">
		<tag k="name" v="Kvantofjellelva" />
		<tag k="ssr:stedsnr" v="293459" />
		<tag k="waterway" v="stream" />
	</node>
	<node id="-737824" lat="68.7242388847" lon="17.3039888942">
		<tag k="name" v="Skarvberglemman" />
		<tag k="natural" v="hill" />
		<tag k="place" v="locality" />
		<tag k="ssr:stedsnr" v="293443" />
	</node>
	<node id="-737823" lat="68.7539055578" lon="17.2794944476">
		<tag k="name" v="Småveian" />
		<tag k="natural" v="slope" />
		<tag k="place" v="locality" />
		<tag k="ssr:stedsnr" v="293432" />
	</node>
	<node id="-737822" lat="68.7471027756" lon="17.3238638953">
		<tag k="name" v="Vedmoelva" />
		<tag k="ssr:stedsnr" v="293428" />
		<tag k="waterway" v="stream" />
	</node>
	<node id="-737821" lat="68.6647222257" lon="17.8299944475">
		<tag k="name" v="Jensvoll" />
		<tag k="place" v="locality" />
		<tag k="ssr:stedsnr" v="293416" />
	</node>
	<node id="-737820" lat="68.6717833372" lon="17.7087083341">
		<tag k="fixme" v="consider natural=peak for the most distinct mountains in the district" />
		<tag k="name" v="Kalmeryggen" />
		<tag k="natural" v="hill" />
		<tag k="place" v="locality" />
		<tag k="ssr:stedsnr" v="293404" />
	</node>
	<node id="-737819" lat="68.654897222" lon="17.7071583261">
		<tag k="name" v="Storberget" />
		<tag k="natural" v="hill" />
		<tag k="place" v="locality" />
		<tag k="ssr:stedsnr" v="293400" />
	</node>
	<node id="-737818" lat="68.6583416705" lon="17.7117888882">
		<tag k="name" v="Fjellhøgda" />
		<tag k="natural" v="hill" />
		<tag k="place" v="locality" />
		<tag k="ssr:stedsnr" v="293399" />
	</node>
	<node id="-737817" lat="68.8191444442" lon="17.4633472117">
		<tag k="name" v="Munnsletta" />
		<tag k="place" v="locality" />
		<tag k="ssr:stedsnr" v="293324" />
	</node>
	<node id="-737816" lat="68.8157500036" lon="17.4335416736">
		<tag k="name" v="Skogly" />
		<tag k="place" v="farm" />
		<tag k="ssr:stedsnr" v="292790" />
	</node>
	<node id="-737815" lat="68.7256888935" lon="17.2100166585">
		<tag k="name" v="Olderteigen" />
		<tag k="natural" v="slope" />
		<tag k="place" v="locality" />
		<tag k="ssr:stedsnr" v="292385" />
	</node>
	<node id="-737814" lat="68.6929000007" lon="17.5520138776">
		<tag k="name" v="Ørneset" />
		<tag k="natural" v="cape" />
		<tag k="ssr:stedsnr" v="289822" />
	</node>
	<node id="-737813" lat="68.685077779" lon="17.5464805654">
		<tag k="name" v="Strømsflua" />
		<tag k="natural" v="shoal" />
		<tag k="place" v="locality" />
		<tag k="ssr:stedsnr" v="273676" />
	</node>
	<node id="-737812" lat="68.6930888911" lon="17.596774994">
		<tag k="name" v="Reiteneset" />
		<tag k="natural" v="cape" />
		<tag k="ssr:stedsnr" v="273629" />
	</node>
	<node id="-737811" lat="68.7934055534" lon="17.3584944343">
		<tag k="name" v="Leirvika" />
		<tag k="natural" v="bay" />
		<tag k="ssr:stedsnr" v="272963" />
	</node>
	<node id="-737810" lat="68.7396805592" lon="17.3160194492">
		<tag k="name" v="Langneset" />
		<tag k="natural" v="cape" />
		<tag k="ssr:stedsnr" v="272874" />
	</node>
	<node id="-737809" lat="68.6827250006" lon="17.6007527854">
		<tag k="name" v="Storhammaren" />
		<tag k="natural" v="cape" />
		<tag k="ssr:stedsnr" v="272537" />
	</node>
	<node id="-737807" lat="68.6980083311" lon="17.3479083372">
		<tag k="name" v="Foldvik" />
		<tag k="place" v="farm" />
		<tag k="ssr:stedsnr" v="271763" />
	</node>
	<node id="-737806" lat="68.7382583347" lon="17.5307194406">
		<tag k="name" v="Resselvholmen" />
		<tag k="place" v="islet" />
		<tag k="ssr:stedsnr" v="270639" />
	</node>
	<node id="-737805" lat="68.6777361151" lon="17.496308342">
		<tag k="name" v="Sortebekk" />
		<tag k="place" v="farm" />
		<tag k="ssr:stedsnr" v="270538" />
	</node>
	<node id="-737804" lat="68.7013277813" lon="17.4854083411">
		<tag k="name" v="Åkenes" />
		<tag k="place" v="farm" />
		<tag k="ssr:stedsnr" v="270533" />
	</node>
</osm>
