<?xml version="1.0" encoding="UTF-8"?>
<osm generator="osmapis" version="0.6">
	<node id="-737280" lat="68.6982166706" lon="17.4265916537">
		<tag k="name" v="Foldvik" />
		<tag k="place" v="farm" />
		<tag k="ssr:stedsnr" v="939703" />
	</node>
	<node id="-737279" lat="68.7455611102" lon="17.4132555617">
		<tag k="name" v="Lavik" />
		<tag k="place" v="farm" />
		<tag k="ssr:stedsnr" v="938526" />
	</node>
	<node id="-737276" lat="68.7449611089" lon="17.4291361145">
		<tag k="name" v="Lavika" />
		<tag k="place" v="farm" />
		<tag k="ssr:stedsnr" v="928907" />
	</node>
	<node id="-737275" lat="68.6741750028" lon="17.5121250055">
		<tag k="name" v="Frydenlund" />
		<tag k="place" v="farm" />
		<tag k="ssr:stedsnr" v="928580" />
	</node>
	<node id="-736761" lat="68.7164555564" lon="17.476272226">
		<tag k="name" v="Inner-Skifte" />
		<tag k="place" v="farm" />
		<tag k="ssr:stedsnr" v="138925" />
	</node>
	<node id="-737272" lat="68.7066055598" lon="17.4317027675">
		<tag k="name" v="Stegan" />
		<tag k="place" v="isolated_dwelling" />
		<tag k="ssr:stedsnr" v="928560" />
	</node>
	<node id="-737271" lat="68.7031861113" lon="17.4832944355">
		<tag k="alt_name" v="Åkenes" />
		<tag k="name" v="Åkeneset" />
		<tag k="place" v="hamlet" />
		<tag k="ssr:stedsnr" v="928557" />
	</node>
	<node id="-736755" lat="68.6903305566" lon="17.5422333422">
		<tag k="fixme" v="consider place=hamlet" />
		<tag k="loc_name:se" v="Árjogeargi" />
		<tag k="name" v="Årstein" />
		<tag k="name:no" v="Årstein" />
		<tag k="place" v="village" />
		<tag k="ssr:stedsnr" v="138567" />
	</node>
	<node id="-736754" lat="68.6214499971" lon="17.6506444425">
		<tag k="name" v="Øse" />
		<tag k="place" v="farm" />
		<tag k="ssr:stedsnr" v="138507" />
	</node>
	<node id="-737257" lat="68.6693583357" lon="17.6806277788">
		<tag k="amenity" v="sports_centre" />
		<tag k="name" v="Tennevoll" />
		<tag k="ssr:stedsnr" v="900371" />
	</node>
	<node id="-736744" lat="68.7185111141" lon="17.4872944355">
		<tag k="name" v="Gammelgården" />
		<tag k="place" v="locality" />
		<tag k="ssr:stedsnr" v="111430" />
	</node>
	<node id="-737252" lat="68.7895083353" lon="17.3560750048">
		<tag k="name" v="Bjerkmo" />
		<tag k="place" v="farm" />
		<tag k="ssr:stedsnr" v="899662" />
	</node>
	<node id="-736728" lat="68.6956666667" lon="17.4247555554">
		<tag k="name" v="Foldvik" />
		<tag k="place" v="farm" />
		<tag k="ssr:stedsnr" v="89716" />
	</node>
	<node id="-736727" lat="68.6969916663" lon="17.4257249953">
		<tag k="name" v="Foldvik" />
		<tag k="place" v="farm" />
		<tag k="ssr:stedsnr" v="89715" />
	</node>
	<node id="-737237" lat="68.6930999997" lon="17.4226722301">
		<tag k="name" v="Foldvik" />
		<tag k="place" v="farm" />
		<tag k="ssr:stedsnr" v="878718" />
	</node>
	<node id="-737235" lat="68.7011111158" lon="17.4830861065">
		<tag k="name" v="Åkenes" />
		<tag k="place" v="farm" />
		<tag k="ssr:stedsnr" v="877570" />
	</node>
	<node id="-737234" lat="68.7461527776" lon="17.415666656">
		<tag k="name" v="Lavik" />
		<tag k="place" v="farm" />
		<tag k="ssr:stedsnr" v="877563" />
	</node>
	<node id="-737233" lat="68.6796527802" lon="17.4842138819">
		<tag k="name" v="Sortebekk" />
		<tag k="place" v="farm" />
		<tag k="ssr:stedsnr" v="877555" />
	</node>
	<node id="-736715" lat="68.7559083334" lon="17.2638388879">
		<tag k="alt_name" v="Grøsnes, store" />
		<tag k="name" v="Store Grøsnes" />
		<tag k="place" v="farm" />
		<tag k="ssr:stedsnr" v="78990" />
	</node>
	<node id="-736714" lat="68.7458499958" lon="17.3021861159">
		<tag k="name" v="Forråsen" />
		<tag k="place" v="farm" />
		<tag k="ssr:stedsnr" v="78908" />
	</node>
	<node id="-737223" lat="68.720375002" lon="17.4777444508">
		<tag k="name" v="Ytter-Skifte" />
		<tag k="place" v="farm" />
		<tag k="ssr:stedsnr" v="867935" />
	</node>
	<node id="-736710" lat="68.6623000031" lon="17.71010001">
		<tag k="name" v="Nylund" />
		<tag k="place" v="isolated_dwelling" />
		<tag k="ssr:stedsnr" v="78582" />
	</node>
	<node id="-737221" lat="68.6636999976" lon="17.6877027806">
		<tag k="name" v="Osvoll" />
		<tag k="place" v="farm" />
		<tag k="ssr:stedsnr" v="867629" />
	</node>
	<node id="-736708" lat="68.6927138901" lon="17.4251277643">
		<tag k="alt_name:no" v="Foldvik" />
		<tag k="fixme" v="consider place=hamlet" />
		<tag k="loc_name:se" v="Huvlaviika" />
		<tag k="name" v="Foldvika" />
		<tag k="name:no" v="Foldvika" />
		<tag k="place" v="village" />
		<tag k="ssr:stedsnr" v="78551" />
	</node>
	<node id="-737214" lat="68.6411638858" lon="17.7285944282">
		<tag k="name" v="Nyheim" />
		<tag k="place" v="isolated_dwelling" />
		<tag k="ssr:stedsnr" v="867535" />
	</node>
	<node id="-736701" lat="68.6905138852" lon="17.41516667">
		<tag k="name" v="Ressekastet" />
		<tag k="place" v="locality" />
		<tag k="ssr:stedsnr" v="51525" />
	</node>
	<node id="-736694" lat="68.6459305591" lon="17.7244583419">
		<tag k="fixme" v="consider place=hamlet" />
		<tag k="name" v="Fjelldal" />
		<tag k="place" v="village" />
		<tag k="ssr:stedsnr" v="51420" />
	</node>
	<node id="-737199" lat="68.638683333" lon="17.7262750068">
		<tag k="fixme" v="consider place=hamlet" />
		<tag k="loc_name:no" v="Kvernmoen" />
		<tag k="loc_name:se" v="Skáidi" />
		<tag k="name" v="Kvernmo" />
		<tag k="name:no" v="Kvernmo" />
		<tag k="place" v="village" />
		<tag k="ssr:stedsnr" v="840371" />
	</node>
	<node id="-737198" lat="68.6729361086" lon="17.6958249929">
		<tag k="fixme" v="consider place=hamlet" />
		<tag k="loc_name:se" v="Vuotnavahta" />
		<tag k="name" v="Fjordbotn" />
		<tag k="name:no" v="Fjordbotn" />
		<tag k="place" v="village" />
		<tag k="ssr:stedsnr" v="840358" />
	</node>
	<node id="-737195" lat="68.6842972267" lon="17.5503277684">
		<tag k="fixme" v="consider place=hamlet" />
		<tag k="loc_name:se" v="Strávvenjárga" />
		<tag k="name" v="Straumsnes" />
		<tag k="name:no" v="Straumsnes" />
		<tag k="place" v="village" />
		<tag k="ssr:stedsnr" v="840337" />
	</node>
	<node id="-736678" lat="68.6937472182" lon="17.4256222164">
		<tag k="name" v="Foldvik" />
		<tag k="place" v="farm" />
		<tag k="ssr:stedsnr" v="28727" />
	</node>
	<node id="-736677" lat="68.7449055552" lon="17.4164027752">
		<tag k="name" v="Lavik" />
		<tag k="place" v="farm" />
		<tag k="ssr:stedsnr" v="28560" />
	</node>
	<node id="-736675" lat="68.8002749982" lon="17.3876638745">
		<tag k="name" v="Belnes" />
		<tag k="place" v="farm" />
		<tag k="ssr:stedsnr" v="25181" />
	</node>
	<node id="-737185" lat="68.7187750007" lon="17.4753416738">
		<tag k="loc_name:se" v="Skikta" />
		<tag k="name" v="Skifte" />
		<tag k="name:no" v="Skifte" />
		<tag k="place" v="hamlet" />
		<tag k="ssr:stedsnr" v="817751" />
	</node>
	<node id="-736672" lat="68.7297833368" lon="17.4701055639">
		<tag k="loc_name:se" v="Hássobákti" />
		<tag k="name" v="Hesjeberg" />
		<tag k="name:no" v="Hesjeberg" />
		<tag k="place" v="hamlet" />
		<tag k="ssr:stedsnr" v="18916" />
	</node>
	<node id="-737182" lat="68.7205722187" lon="17.4758138863">
		<tag k="name" v="Ytter-Skifte" />
		<tag k="place" v="farm" />
		<tag k="ssr:stedsnr" v="817540" />
	</node>
	<node id="-737181" lat="68.6772305529" lon="17.4925500062">
		<tag k="name" v="Sortebekk" />
		<tag k="place" v="farm" />
		<tag k="ssr:stedsnr" v="817532" />
	</node>
	<node id="-736666" lat="68.6743083336" lon="17.5328666524">
		<tag k="name" v="Milmarka" />
		<tag k="place" v="locality" />
		<tag k="ssr:stedsnr" v="18578" />
	</node>
	<node id="-736663" lat="68.6779027759" lon="17.6285750063">
		<tag k="name" v="Grimjorda" />
		<tag k="place" v="isolated_dwelling" />
		<tag k="ssr:stedsnr" v="18535" />
	</node>
	<node id="-737172" lat="68.7918305569" lon="17.3607583317">
		<tag k="alt_name" v="Lauvdal, store" />
		<tag k="name" v="Store Lauvdal" />
		<tag k="old_name" v="Lauvdal" />
		<tag k="place" v="farm" />
		<tag k="ssr:stedsnr" v="806959" />
	</node>
	<node id="-736655" lat="68.6369432157" lon="17.729270835">
		<tag k="fixme" v="consider place=hamlet" />
		<tag k="name" v="Kvernmoen" />
		<tag k="place" v="farm" />
		<tag k="ssr:stedsnr" v="989691" />
	</node>
	<node id="-736654" lat="68.7559712011" lon="17.2635522581">
		<tag k="fixme" v="consider place=hamlet" />
		<tag k="loc_name:se" v="Stuora Rivttáknášši" />
		<tag k="name" v="Store Grøsnes" />
		<tag k="name:no" v="Store Grøsnes" />
		<tag k="place" v="farm" />
		<tag k="ssr:stedsnr" v="989689" />
	</node>
	<node id="-736653" lat="68.7395886652" lon="17.3209838945">
		<tag k="fixme" v="consider place=hamlet" />
		<tag k="loc_name:se" v="Unna Rivttáknáššáš" />
		<tag k="name" v="Lille Grøsnes" />
		<tag k="name:no" v="Lille Grøsnes" />
		<tag k="place" v="farm" />
		<tag k="ssr:stedsnr" v="989688" />
	</node>
	<node id="-736652" lat="68.7563734166" lon="17.2618126983">
		<tag k="loc_name:se" v="Rivttáknášši" />
		<tag k="name" v="Grøsnes" />
		<tag k="name:no" v="Grøsnes" />
		<tag k="place" v="hamlet" />
		<tag k="ssr:stedsnr" v="989687" />
	</node>
	<node id="-737163" lat="68.6893805563" lon="17.4248888848">
		<tag k="name" v="Moa" />
		<tag k="place" v="isolated_dwelling" />
		<tag k="ssr:stedsnr" v="779482" />
	</node>
	<node id="-736650" lat="68.7187257676" lon="17.4748069695">
		<tag k="loc_name:se" v="Skikta" />
		<tag k="name" v="Skifte" />
		<tag k="name:no" v="Skifte" />
		<tag k="place" v="hamlet" />
		<tag k="ssr:stedsnr" v="989685" />
	</node>
	<node id="-736649" lat="68.6904767198" lon="17.541385573">
		<tag k="fixme" v="consider place=hamlet" />
		<tag k="loc_name:se" v="Árjogeargi" />
		<tag k="name" v="Årstein" />
		<tag k="name:no" v="Årstein" />
		<tag k="place" v="farm" />
		<tag k="ssr:stedsnr" v="989684" />
	</node>
	<node id="-736648" lat="68.7332435419" lon="17.2708836625">
		<tag k="fixme" v="consider place=hamlet" />
		<tag k="loc_name:se" v="Hilsá" />
		<tag k="name" v="Hilleshamn" />
		<tag k="name:no" v="Hilleshamn" />
		<tag k="place" v="farm" />
		<tag k="ssr:stedsnr" v="989683" />
	</node>
	<node id="-736646" lat="68.7216255703" lon="17.4133526761">
		<tag k="fixme" v="consider place=hamlet" />
		<tag k="loc_name:se" v="Čuvvá" />
		<tag k="name" v="Tjuvskjær" />
		<tag k="name:no" v="Tjuvskjær" />
		<tag k="place" v="farm" />
		<tag k="ssr:stedsnr" v="989680" />
	</node>
	<node id="-736645" lat="68.6892064077" lon="17.4231142536">
		<tag k="fixme" v="consider place=hamlet" />
		<tag k="loc_name:se" v="Huvlaviika" />
		<tag k="name" v="Foldvika" />
		<tag k="name:no" v="Foldvika" />
		<tag k="place" v="farm" />
		<tag k="ssr:stedsnr" v="989679" />
	</node>
	<node id="-736644" lat="68.684476196" lon="17.5502047626">
		<tag k="fixme" v="consider place=hamlet" />
		<tag k="loc_name:se" v="Strávvenjárga" />
		<tag k="name" v="Straumsnes" />
		<tag k="name:no" v="Straumsnes" />
		<tag k="place" v="farm" />
		<tag k="ssr:stedsnr" v="989678" />
	</node>
	<node id="-736641" lat="68.675505298" lon="17.5087655605">
		<tag k="fixme" v="consider place=hamlet" />
		<tag k="loc_name:se" v="Gálla" />
		<tag k="name" v="Laberget" />
		<tag k="name:no" v="Laberget" />
		<tag k="place" v="farm" />
		<tag k="ssr:stedsnr" v="988987" />
	</node>
	<node id="-737143" lat="68.6765472234" lon="17.5057611099">
		<tag k="name" v="Laberget" />
		<tag k="place" v="farm" />
		<tag k="ssr:stedsnr" v="756651" />
	</node>
	<node id="-737142" lat="68.6999416647" lon="17.4919055419">
		<tag k="name" v="Åkenes" />
		<tag k="place" v="farm" />
		<tag k="ssr:stedsnr" v="756557" />
	</node>
	<node id="-737141" lat="68.6993666641" lon="17.4920138879">
		<tag k="name" v="Åkenes" />
		<tag k="place" v="farm" />
		<tag k="ssr:stedsnr" v="756544" />
	</node>
	<node id="-737140" lat="68.7753611072" lon="17.2869416569">
		<tag k="fixme" v="consider place=hamlet" />
		<tag k="name" v="Myrlandshaugen" />
		<tag k="place" v="farm" />
		<tag k="ssr:stedsnr" v="756537" />
	</node>
	<node id="-737139" lat="68.8137750008" lon="17.4184888894">
		<tag k="name" v="Selnes" />
		<tag k="place" v="hamlet" />
		<tag k="ssr:stedsnr" v="754181" />
	</node>
	<node id="-736626" lat="68.6776472181" lon="17.4300277754">
		<tag k="name" v="Rikmannsheimen" />
		<tag k="place" v="locality" />
		<tag k="ssr:stedsnr" v="475433" />
	</node>
	<node id="-737133" lat="68.6375416648" lon="17.7292277632">
		<tag k="loc_name:se" v="Skáidi" />
		<tag k="name" v="Kvernmo" />
		<tag k="name:no" v="Kvernmo" />
		<tag k="place" v="farm" />
		<tag k="ssr:stedsnr" v="746533" />
	</node>
	<node id="-737129" lat="68.7735166708" lon="17.2785250042">
		<tag k="fixme" v="consider place=hamlet" />
		<tag k="name" v="Myrlandshaugen" />
		<tag k="place" v="village" />
		<tag k="ssr:stedsnr" v="745951" />
	</node>
	<node id="-737128" lat="68.6725611072" lon="17.6460555469">
		<tag k="name" v="Elveneshågen" />
		<tag k="place" v="farm" />
		<tag k="ssr:stedsnr" v="745614" />
	</node>
	<node id="-737123" lat="68.7179027816" lon="17.4968861106">
		<tag k="name" v="Engelstad" />
		<tag k="place" v="locality" />
		<tag k="ssr:stedsnr" v="718467" />
	</node>
	<node id="-737115" lat="68.7882138921" lon="17.3504111213">
		<tag k="name" v="Store Løvdal" />
		<tag k="place" v="farm" />
		<tag k="ssr:stedsnr" v="717657" />
	</node>
	<node id="-736602" lat="68.7248555522" lon="17.4730250085">
		<tag k="name" v="Vika" />
		<tag k="place" v="isolated_dwelling" />
		<tag k="ssr:stedsnr" v="393793" />
	</node>
	<node id="-737112" lat="68.8031916661" lon="17.3920944343">
		<tag k="name" v="Elvevoll" />
		<tag k="place" v="farm" />
		<tag k="ssr:stedsnr" v="718283" />
	</node>
	<node id="-737096" lat="68.7428555545" lon="17.4379722218">
		<tag k="name" v="Lavik" />
		<tag k="place" v="farm" />
		<tag k="ssr:stedsnr" v="695549" />
	</node>
	<node id="-737092" lat="68.7453916704" lon="17.4238194447">
		<tag k="alt_name" v="Lavika" />
		<tag k="name" v="Lavik" />
		<tag k="place" v="hamlet" />
		<tag k="ssr:stedsnr" v="685917" />
	</node>
	<node id="-737091" lat="68.7332083318" lon="17.2702388846">
		<tag k="fixme" v="consider place=hamlet" />
		<tag k="loc_name:se" v="Hilsá" />
		<tag k="name" v="Hilleshamn" />
		<tag k="name:no" v="Hilleshamn" />
		<tag k="place" v="village" />
		<tag k="ssr:stedsnr" v="685910" />
	</node>
	<node id="-736651" lat="68.7298640186" lon="17.4704722519">
		<tag k="fixme" v="consider place=hamlet" />
		<tag k="loc_name:se" v="Hássobákti" />
		<tag k="name" v="Hesjeberg" />
		<tag k="name:no" v="Hesjeberg" />
		<tag k="place" v="farm" />
		<tag k="ssr:stedsnr" v="989686" />
	</node>
	<node id="-737088" lat="68.6768611069" lon="17.4944722219">
		<tag k="alt_name" v="Sortebekken" />
		<tag k="name" v="Svartebekken" />
		<tag k="place" v="hamlet" />
		<tag k="ssr:stedsnr" v="685564" />
	</node>
	<node id="-736572" lat="68.7868333335" lon="17.3404527636">
		<tag k="name" v="Myrlund" />
		<tag k="place" v="farm" />
		<tag k="ssr:stedsnr" v="353429" />
	</node>
	<node id="-736563" lat="68.7562888927" lon="17.2627111063">
		<tag k="fixme" v="consider place=hamlet" />
		<tag k="loc_name:se" v="Rivttáknášši" />
		<tag k="name" v="Grøsnes" />
		<tag k="name:no" v="Grøsnes" />
		<tag k="place" v="village" />
		<tag k="ssr:stedsnr" v="332775" />
	</node>
	<node id="-736561" lat="68.7211500043" lon="17.4779916598">
		<tag k="name" v="Skifte" />
		<tag k="place" v="farm" />
		<tag k="ssr:stedsnr" v="331743" />
	</node>
	<node id="-736560" lat="68.6764861082" lon="17.5075805581">
		<tag k="name" v="Laberget" />
		<tag k="place" v="farm" />
		<tag k="ssr:stedsnr" v="331626" />
	</node>
	<node id="-737066" lat="68.677355557" lon="17.6339888906">
		<tag k="fixme" v="consider place=hamlet" />
		<tag k="name" v="Grimjord" />
		<tag k="place" v="village" />
		<tag k="ssr:stedsnr" v="657295" />
	</node>
	<node id="-736550" lat="68.6585749977" lon="17.7081611127">
		<tag k="name" v="Fjellhøgda" />
		<tag k="place" v="isolated_dwelling" />
		<tag k="ssr:stedsnr" v="321571" />
	</node>
	<node id="-736542" lat="68.6471916653" lon="17.7189944374">
		<tag k="name" v="Fjelldal" />
		<tag k="place" v="isolated_dwelling" />
		<tag k="ssr:stedsnr" v="321485" />
	</node>
	<node id="-737049" lat="68.6892750041" lon="17.4252194461">
		<tag k="name" v="Foldvik" />
		<tag k="place" v="farm" />
		<tag k="ssr:stedsnr" v="635680" />
	</node>
	<node id="-737048" lat="68.6934888925" lon="17.4277111152">
		<tag k="name" v="Foldvik" />
		<tag k="place" v="farm" />
		<tag k="ssr:stedsnr" v="635676" />
	</node>
	<node id="-737047" lat="68.6773916688" lon="17.5052666694">
		<tag k="name" v="Laberget" />
		<tag k="place" v="farm" />
		<tag k="ssr:stedsnr" v="634652" />
	</node>
	<node id="-737046" lat="68.6767583323" lon="17.4938194476">
		<tag k="name" v="Sortebekk" />
		<tag k="place" v="farm" />
		<tag k="ssr:stedsnr" v="634573" />
	</node>
	<node id="-737045" lat="68.7199055544" lon="17.4139500014">
		<tag k="name" v="Tjuvskjær" />
		<tag k="place" v="farm" />
		<tag k="ssr:stedsnr" v="628464" />
	</node>
	<node id="-737043" lat="68.7211388918" lon="17.4156638945">
		<tag k="alt_name:no" v="Tjuvskjeret" />
		<tag k="loc_name:se" v="Čuvvá" />
		<tag k="name" v="Tjuvskjær" />
		<tag k="name:no" v="Tjuvskjær" />
		<tag k="place" v="hamlet" />
		<tag k="ssr:stedsnr" v="626970" />
	</node>
	<node id="-737036" lat="68.6685750005" lon="17.6682555569">
		<tag k="fixme" v="consider place=hamlet" />
		<tag k="loc_name:se" v="Rivttákbahta" />
		<tag k="name" v="Gratangsbotn" />
		<tag k="name:no" v="Gratangsbotn" />
		<tag k="place" v="village" />
		<tag k="ssr:stedsnr" v="624607" />
	</node>
	<node id="-737035" lat="68.675955555" lon="17.5071722281">
		<tag k="alt_name:no" v="Laberg" />
		<tag k="fixme" v="consider place=hamlet" />
		<tag k="loc_name:se" v="Gálla" />
		<tag k="name" v="Laberget" />
		<tag k="name:no" v="Laberget" />
		<tag k="place" v="village" />
		<tag k="ssr:stedsnr" v="624604" />
	</node>
	<node id="-736516" lat="68.8157500036" lon="17.4335416736">
		<tag k="name" v="Skogly" />
		<tag k="place" v="farm" />
		<tag k="ssr:stedsnr" v="292790" />
	</node>
	<node id="-737026" lat="68.6850111133" lon="17.5839972295">
		<tag k="fixme" v="consider place=hamlet" />
		<tag k="name" v="Sandnes" />
		<tag k="place" v="village" />
		<tag k="ssr:stedsnr" v="597345" />
	</node>
	<node id="-736725" lat="68.6974555522" lon="17.4977083335">
		<tag k="name" v="Oldernes" />
		<tag k="place" v="farm" />
		<tag k="ssr:stedsnr" v="88466" />
	</node>
	<node id="-736507" lat="68.6980083311" lon="17.3479083372">
		<tag k="name" v="Foldvik" />
		<tag k="place" v="farm" />
		<tag k="ssr:stedsnr" v="271763" />
	</node>
	<node id="-736505" lat="68.6777361151" lon="17.496308342">
		<tag k="name" v="Sortebekk" />
		<tag k="place" v="farm" />
		<tag k="ssr:stedsnr" v="270538" />
	</node>
	<node id="-736504" lat="68.7013277813" lon="17.4854083411">
		<tag k="name" v="Åkenes" />
		<tag k="place" v="farm" />
		<tag k="ssr:stedsnr" v="270533" />
	</node>
	<node id="-737013" lat="68.6375416654" lon="17.7291888842">
		<tag k="name" v="Kvernmo" />
		<tag k="place" v="farm" />
		<tag k="ssr:stedsnr" v="574762" />
	</node>
	<node id="-737012" lat="68.6987888908" lon="17.4268527812">
		<tag k="name" v="Foldvik" />
		<tag k="place" v="farm" />
		<tag k="ssr:stedsnr" v="574745" />
	</node>
	<node id="-737003" lat="68.7030527755" lon="17.4326444459">
		<tag k="name" v="Teistevoll" />
		<tag k="place" v="farm" />
		<tag k="ssr:stedsnr" v="563579" />
	</node>
	<node id="-736975" lat="68.7333694475" lon="17.2631083314">
		<tag k="name" v="Hamnegården" />
		<tag k="place" v="farm" />
		<tag k="ssr:stedsnr" v="535399" />
	</node>
	<node id="-736968" lat="68.676355551" lon="17.4962972242">
		<tag k="name" v="Sortebekk" />
		<tag k="place" v="farm" />
		<tag k="ssr:stedsnr" v="513575" />
	</node>
	<node id="-736967" lat="68.7734611121" lon="17.2795972317">
		<tag k="name" v="Myrlandshaugen" />
		<tag k="place" v="farm" />
		<tag k="ssr:stedsnr" v="513562" />
	</node>
	<node id="-736965" lat="68.7221833373" lon="17.4146555496">
		<tag k="name" v="Tjuvskjær" />
		<tag k="place" v="farm" />
		<tag k="ssr:stedsnr" v="507449" />
	</node>
	<node id="-736960" lat="68.7707833328" lon="17.2689166654">
		<tag k="fixme" v="consider place=hamlet" />
		<tag k="name" v="Myrland" />
		<tag k="place" v="farm" />
		<tag k="ssr:stedsnr" v="503928" />
	</node>
	<node id="-736955" lat="68.7410166635" lon="17.3295916545">
		<tag k="alt_name:no" v="Grøsnes lille;Grøsnes, l" />
		<tag k="loc_name:se" v="Unna Rivttáknášši" />
		<tag k="name" v="Lille Grøsnes" />
		<tag k="name:no" v="Lille Grøsnes" />
		<tag k="place" v="hamlet" />
		<tag k="ssr:stedsnr" v="503849" />
	</node>
	<node id="-736951" lat="68.6741777785" lon="17.4983638941">
		<tag k="name" v="Fossheim" />
		<tag k="place" v="farm" />
		<tag k="ssr:stedsnr" v="503574" />
	</node>
	<node id="-736940" lat="68.6440694402" lon="17.7360111129">
		<tag k="fixme" v="consider place=hamlet" />
		<tag k="loc_name:no" v="Holtåsen" />
		<tag k="loc_name:se" v="Reaidduorda" />
		<tag k="name" v="Holtås" />
		<tag k="name:no" v="Holtås" />
		<tag k="place" v="farm" />
		<tag k="ssr:stedsnr" v="503483" />
	</node>
	<node id="-736934" lat="68.6898833322" lon="17.4252083363">
		<tag k="name" v="Foldvik" />
		<tag k="place" v="farm" />
		<tag k="ssr:stedsnr" v="453735" />
	</node>
	<node id="-736933" lat="68.6980861141" lon="17.3465527848">
		<tag k="name" v="Foldvik" />
		<tag k="place" v="farm" />
		<tag k="ssr:stedsnr" v="453734" />
	</node>
	<node id="-736932" lat="68.684316664" lon="17.5511194422">
		<tag k="name" v="Strømsnes" />
		<tag k="place" v="farm" />
		<tag k="ssr:stedsnr" v="452548" />
	</node>
	<node id="-736931" lat="68.7004472201" lon="17.4860749951">
		<tag k="name" v="Åkenes" />
		<tag k="place" v="farm" />
		<tag k="ssr:stedsnr" v="452542" />
	</node>
	<node id="-736930" lat="68.7875083358" lon="17.3444888825">
		<tag k="name" v="Løvdal" />
		<tag k="place" v="hamlet" />
		<tag k="ssr:stedsnr" v="446179" />
	</node>
	<node id="-736928" lat="68.7748388924" lon="17.2806111045">
		<tag k="name" v="Myrlandshaugen" />
		<tag k="place" v="farm" />
		<tag k="ssr:stedsnr" v="445258" />
	</node>
	<node id="-736918" lat="68.6686361104" lon="17.716424999">
		<tag k="name" v="Moan" />
		<tag k="place" v="farm" />
		<tag k="ssr:stedsnr" v="442628" />
	</node>
	<node id="-736886" lat="68.628191671" lon="17.6313388807">
		<tag k="fixme" v="consider place=hamlet" />
		<tag k="name" v="Vassøse" />
		<tag k="place" v="village" />
		<tag k="ssr:stedsnr" v="261517" />
	</node>
	<node id="-736885" lat="68.7845444482" lon="17.3332888972">
		<tag k="alt_name" v="Litle Lauvdal;Lauvdal, l" />
		<tag k="name" v="Lille Løvdal" />
		<tag k="place" v="farm" />
		<tag k="ssr:stedsnr" v="260977" />
	</node>
	<node id="-736878" lat="68.7124138877" lon="17.4251166712">
		<tag k="name" v="Brattberg" />
		<tag k="place" v="isolated_dwelling" />
		<tag k="ssr:stedsnr" v="260599" />
	</node>
	<node id="-736875" lat="68.6406500011" lon="17.5525361194">
		<tag k="name" v="Labergsdalen" />
		<tag k="place" v="isolated_dwelling" />
		<tag k="ssr:stedsnr" v="260544" />
	</node>
	<node id="-736861" lat="68.6953833355" lon="17.4224055593">
		<tag k="name" v="Lia" />
		<tag k="place" v="isolated_dwelling" />
		<tag k="ssr:stedsnr" v="232426" />
	</node>
	<node id="-736855" lat="68.761277774" lon="17.2998249941">
		<tag k="name" v="Finnheimen" />
		<tag k="place" v="locality" />
		<tag k="ssr:stedsnr" v="232362" />
	</node>
	<node id="-736848" lat="68.6844500021" lon="17.5690527866">
		<tag k="name" v="Gjøvik" />
		<tag k="place" v="farm" />
		<tag k="ssr:stedsnr" v="211574" />
	</node>
	<node id="-736845" lat="68.6766361088" lon="17.5079055589">
		<tag k="name" v="Laberget" />
		<tag k="place" v="farm" />
		<tag k="ssr:stedsnr" v="210640" />
	</node>
	<node id="-736844" lat="68.6994888926" lon="17.4880222167">
		<tag k="name" v="Åkenes" />
		<tag k="place" v="farm" />
		<tag k="ssr:stedsnr" v="210550" />
	</node>
	<node id="-736832" lat="68.6625611112" lon="17.7648472095">
		<tag k="name" v="Gratangen turiststasjon" />
		<tag k="ssr:stedsnr" v="200607" />
		<tag k="tourism" v="hotel" />
	</node>
	<node id="-736828" lat="68.7117611156" lon="17.4279166604">
		<tag k="name" v="Nautnes" />
		<tag k="place" v="farm" />
		<tag k="ssr:stedsnr" v="199593" />
	</node>
	<node id="-736825" lat="68.6802277772" lon="17.6155361208">
		<tag k="name" v="Haugen" />
		<tag k="place" v="farm" />
		<tag k="ssr:stedsnr" v="199573" />
	</node>
	<node id="-736819" lat="68.6738888907" lon="17.6902694322">
		<tag k="fixme" v="consider place=hamlet" />
		<tag k="loc_name:se" v="Vuotnabahta" />
		<tag k="name" v="Fjordbotn" />
		<tag k="name:no" v="Fjordbotn" />
		<tag k="place" v="farm" />
		<tag k="ssr:stedsnr" v="199638" />
	</node>
	<node id="-736807" lat="68.6423694404" lon="17.7282222285">
		<tag k="fixme" v="consider place=hamlet" />
		<tag k="loc_name:no" v="Holtåsen" />
		<tag k="loc_name:se" v="Reaidduorda" />
		<tag k="name" v="Holtås" />
		<tag k="name:no" v="Holtås" />
		<tag k="place" v="village" />
		<tag k="ssr:stedsnr" v="172383" />
	</node>
	<node id="-737309" lat="68.6804137392" lon="17.4636816709">
		<tag k="name" v="Hellarbogen industriområde" />
		<tag k="place" v="quarter" />
		<tag k="ssr:stedsnr" v="975755" />
	</node>
	<node id="-737308" lat="68.6227774661" lon="17.650737415">
		<tag k="name" v="Øse hyttegrend" />
		<tag k="place" v="neighbourhood" />
		<tag k="ssr:stedsnr" v="975754" />
	</node>
	<node id="-737303" lat="68.69892222" lon="17.4266166759">
		<tag k="name" v="Sletten" />
		<tag k="place" v="isolated_dwelling" />
		<tag k="ssr:stedsnr" v="961477" />
	</node>
	<node id="-737301" lat="68.6714694436" lon="17.7376166738">
		<tag k="barrier" v="fence" />
		<tag k="name" v="Torvegjerdet" />
		<tag k="ssr:stedsnr" v="961371" />
	</node>
	<node id="-737298" lat="68.6653833343" lon="17.7479916526">
		<tag k="alt_name:no" v="Fjordbotnmark" />
		<tag k="fixme" v="consider place=hamlet" />
		<tag k="loc_name:se" v="Skuhppi" />
		<tag k="name" v="Fjordbotnmarka" />
		<tag k="name:no" v="Fjordbotnmarka" />
		<tag k="place" v="village" />
		<tag k="ssr:stedsnr" v="961358" />
	</node>
	<node id="-736776" lat="68.7011138861" lon="17.4854527779">
		<tag k="name" v="Åkenes" />
		<tag k="place" v="farm" />
		<tag k="ssr:stedsnr" v="149551" />
	</node>
	<node id="-736775" lat="68.7041499985" lon="17.4831166539">
		<tag k="name" v="Åkenes" />
		<tag k="place" v="farm" />
		<tag k="ssr:stedsnr" v="149546" />
	</node>
	<node id="-736774" lat="68.7213500015" lon="17.4765833431">
		<tag k="name" v="Ytter-Skifte" />
		<tag k="place" v="farm" />
		<tag k="ssr:stedsnr" v="149544" />
	</node>
	<node id="-736773" lat="68.7395361087" lon="17.3222333209">
		<tag k="name" v="Lille Grøsnes" />
		<tag k="place" v="farm" />
		<tag k="ssr:stedsnr" v="147637" />
	</node>
	<node id="-737282" lat="68.6704138848" lon="17.6609583295">
		<tag k="alt_name" v="Elvenes" />
		<tag k="name" v="Elveneset" />
		<tag k="place" v="hamlet" />
		<tag k="ssr:stedsnr" v="940414" />
	</node>
	<node id="-737281" lat="68.8140777788" lon="17.4198027732">
		<tag k="name" v="Selnes" />
		<tag k="place" v="farm" />
		<tag k="ssr:stedsnr" v="939999" />
	</node>
</osm>
