<?xml version="1.0" encoding="UTF-8"?>
<<<<<<< HEAD
<osm version="0.6" generator="osmapis">
	<node lat="66.08441944874733" lon="12.04759444491257" id="-6648">
		<tag k="name" v="Djupbåen" />
		<tag k="ssr:date" v="2016-05-10" />
		<tag k="ssr:gruppe" v="navigasjon" />
		<tag k="ssr:hovedgruppe" v="infrastruktur" />
		<tag k="ssr:stedsnr" v="76302" />
		<tag k="ssr:type" v="fyrlykt" />
	</node>
	<node lat="65.96216460019167" lon="12.30088521318111" id="-6718">
		<tag k="name" v="Herøysund" />
		<tag k="ssr:date" v="2020-09-15" />
		<tag k="ssr:gruppe" v="navigasjon" />
		<tag k="ssr:hovedgruppe" v="infrastruktur" />
		<tag k="ssr:stedsnr" v="258293" />
		<tag k="ssr:type" v="fyrlykt" />
	</node>
	<node lat="66.12162277325993" lon="11.949794506256113" id="-6737">
		<tag k="name" v="Skarholmen" />
		<tag k="old_name" v="Skarvholmen" />
		<tag k="ssr:date" v="2020-09-15" />
		<tag k="ssr:gruppe" v="navigasjon" />
		<tag k="ssr:hovedgruppe" v="infrastruktur" />
		<tag k="ssr:stedsnr" v="258351" />
		<tag k="ssr:type" v="fyrlykt" />
	</node>
	<node lat="65.93233706729714" lon="12.188195921461588" id="-6748">
		<tag k="name" v="Trettholmen" />
		<tag k="ssr:date" v="2021-06-08" />
		<tag k="ssr:gruppe" v="navigasjon" />
		<tag k="ssr:hovedgruppe" v="infrastruktur" />
		<tag k="ssr:stedsnr" v="258880" />
		<tag k="ssr:type" v="fyrlykt" />
	</node>
	<node lat="65.927983329152" lon="12.171080555042007" id="-6749">
		<tag k="name" v="Dragan" />
		<tag k="ssr:date" v="2016-05-10" />
		<tag k="ssr:gruppe" v="navigasjon" />
		<tag k="ssr:hovedgruppe" v="infrastruktur" />
		<tag k="ssr:stedsnr" v="258901" />
		<tag k="ssr:type" v="fyrlykt" />
	</node>
	<node lat="66.00947047371385" lon="12.28615439077787" id="-6801">
		<tag k="name" v="Hoholmen" />
		<tag k="ssr:date" v="2020-09-15" />
		<tag k="ssr:gruppe" v="navigasjon" />
		<tag k="ssr:hovedgruppe" v="infrastruktur" />
		<tag k="ssr:stedsnr" v="258907" />
		<tag k="ssr:type" v="fyrlykt" />
	</node>
	<node lat="66.01492771413301" lon="12.396967495818313" id="-6910">
		<tag k="name" v="Skjelfiskholmen" />
		<tag k="ssr:date" v="2020-09-15" />
		<tag k="ssr:gruppe" v="navigasjon" />
		<tag k="ssr:hovedgruppe" v="infrastruktur" />
		<tag k="ssr:stedsnr" v="440914" />
		<tag k="ssr:type" v="fyrlykt" />
	</node>
	<node lat="65.91166111476934" lon="12.204269443615363" id="-6953">
		<tag k="name" v="Springen" />
		<tag k="ssr:date" v="2016-05-11" />
		<tag k="ssr:gruppe" v="navigasjon" />
		<tag k="ssr:hovedgruppe" v="infrastruktur" />
		<tag k="ssr:stedsnr" v="683580" />
		<tag k="ssr:type" v="fyrlykt" />
	</node>
	<node lat="66.06461063475851" lon="12.045942642504205" id="-7004">
		<tag k="name" v="Gåsvær" />
		<tag k="old_name" v="Gåsværet" />
		<tag k="ssr:date" v="2020-09-15" />
		<tag k="ssr:gruppe" v="navigasjon" />
		<tag k="ssr:hovedgruppe" v="infrastruktur" />
		<tag k="ssr:stedsnr" v="622272" />
		<tag k="ssr:type" v="fyrlykt" />
	</node>
	<node lat="66.12458580978388" lon="12.01451126314996" id="-7134">
		<tag k="name" v="Stokskjær" />
		<tag k="old_name" v="Stokkskjeret" />
		<tag k="ssr:date" v="2020-09-17" />
		<tag k="ssr:gruppe" v="navigasjon" />
		<tag k="ssr:hovedgruppe" v="infrastruktur" />
		<tag k="ssr:stedsnr" v="804367" />
		<tag k="ssr:type" v="fyrlykt" />
	</node>
	<node lat="66.0133006346235" lon="11.687255689331801" id="-7200">
		<tag k="name" v="Ytterholmen" />
		<tag k="ssr:date" v="2021-06-08" />
		<tag k="ssr:gruppe" v="navigasjon" />
		<tag k="ssr:hovedgruppe" v="infrastruktur" />
		<tag k="ssr:stedsnr" v="925442" />
		<tag k="ssr:type" v="fyrstasjon" />
	</node>
	<node lat="66.12168598175242" lon="12.065198118626808" id="-7204">
		<tag k="name" v="Djupsøy" />
		<tag k="old_name" v="Djupsøya" />
		<tag k="ssr:date" v="2020-09-17" />
		<tag k="ssr:gruppe" v="navigasjon" />
		<tag k="ssr:hovedgruppe" v="infrastruktur" />
		<tag k="ssr:stedsnr" v="926326" />
		<tag k="ssr:type" v="fyrlykt" />
	</node>
	<node lat="65.8890201547654" lon="12.011405042259268" id="-7222">
		<tag k="name" v="Straumøya" />
		<tag k="ssr:date" v="2019-05-30" />
		<tag k="ssr:gruppe" v="veg" />
		<tag k="ssr:hovedgruppe" v="infrastruktur" />
		<tag k="ssr:stedsnr" v="999029" />
		<tag k="ssr:type" v="adressenavn" />
	</node>
	<node lat="65.8943294111092" lon="12.01802057924576" id="-7223">
		<tag k="name" v="Halsan" />
		<tag k="ssr:date" v="2019-05-30" />
		<tag k="ssr:gruppe" v="veg" />
		<tag k="ssr:hovedgruppe" v="infrastruktur" />
		<tag k="ssr:stedsnr" v="999031" />
		<tag k="ssr:type" v="adressenavn" />
	</node>
	<node lat="66.02408438542248" lon="12.247401737688564" id="-7224">
		<tag k="name" v="Draget" />
		<tag k="ssr:date" v="2019-05-30" />
		<tag k="ssr:gruppe" v="veg" />
		<tag k="ssr:hovedgruppe" v="infrastruktur" />
		<tag k="ssr:stedsnr" v="999114" />
		<tag k="ssr:type" v="adressenavn" />
	</node>
	<node lat="66.00327726521284" lon="12.189551791240444" id="-7225">
		<tag k="name" v="Lissæsøya" />
		<tag k="ssr:date" v="2019-05-30" />
		<tag k="ssr:gruppe" v="veg" />
		<tag k="ssr:hovedgruppe" v="infrastruktur" />
		<tag k="ssr:stedsnr" v="999115" />
		<tag k="ssr:type" v="adressenavn" />
	</node>
	<node lat="65.87820521771557" lon="11.997456601565634" id="-7226">
		<tag k="name" v="Verniksøya" />
		<tag k="ssr:date" v="2019-05-30" />
		<tag k="ssr:gruppe" v="veg" />
		<tag k="ssr:hovedgruppe" v="infrastruktur" />
		<tag k="ssr:stedsnr" v="999116" />
		<tag k="ssr:type" v="adressenavn" />
	</node>
	<node lat="66.12928193182205" lon="12.037236393276956" id="-7227">
		<tag k="name" v="Sørskipbåtsvær" />
		<tag k="ssr:date" v="2019-05-30" />
		<tag k="ssr:gruppe" v="veg" />
		<tag k="ssr:hovedgruppe" v="infrastruktur" />
		<tag k="ssr:stedsnr" v="999119" />
		<tag k="ssr:type" v="adressenavn" />
	</node>
	<node lat="66.12999993686452" lon="12.034222182236157" id="-7228">
		<tag k="name" v="Nordskipbåtsvær" />
		<tag k="ssr:date" v="2019-05-30" />
		<tag k="ssr:gruppe" v="veg" />
		<tag k="ssr:hovedgruppe" v="infrastruktur" />
		<tag k="ssr:stedsnr" v="999121" />
		<tag k="ssr:type" v="adressenavn" />
	</node>
	<node lat="65.90506254879622" lon="12.168975059766305" id="-7229">
		<tag k="name" v="Jensholmen" />
		<tag k="ssr:date" v="2019-05-30" />
		<tag k="ssr:gruppe" v="veg" />
		<tag k="ssr:hovedgruppe" v="infrastruktur" />
		<tag k="ssr:stedsnr" v="999122" />
		<tag k="ssr:type" v="adressenavn" />
	</node>
	<node lat="66.04981965047" lon="12.036423181685002" id="-7230">
		<tag k="name" v="Flatøya" />
=======
<osm generator="osmapis" version="0.6">
	<node id="-131712" lat="65.9197151072" lon="12.1252818593">
		<tag k="name" v="Hestøya" />
		<tag k="ssr:date" v="2019-05-30" />
		<tag k="ssr:gruppe" v="veg" />
		<tag k="ssr:hovedgruppe" v="infrastruktur" />
		<tag k="ssr:stedsnr" v="999098" />
		<tag k="ssr:type" v="adressenavn" />
	</node>
	<node id="-130431" lat="66.1216722244" lon="11.9494972202">
		<tag k="name" v="Skarholmen" />
		<tag k="old_name" v="Skarvholmen" />
		<tag k="ssr:date" v="2016-05-10" />
		<tag k="ssr:gruppe" v="navigasjon" />
		<tag k="ssr:hovedgruppe" v="infrastruktur" />
		<tag k="ssr:stedsnr" v="258351" />
		<tag k="ssr:type" v="fyrlykt" />
	</node>
	<node id="-131710" lat="66.1233979714" lon="12.0495464381">
		<tag k="name" v="Sakrisøya" />
>>>>>>> e1d4bc35ff8a6074a6f2e91616a996b547c36f15
		<tag k="ssr:date" v="2019-05-30" />
		<tag k="ssr:gruppe" v="veg" />
		<tag k="ssr:hovedgruppe" v="infrastruktur" />
		<tag k="ssr:stedsnr" v="999124" />
		<tag k="ssr:type" v="adressenavn" />
	</node>
<<<<<<< HEAD
	<node lat="66.0809343910047" lon="12.184109936230849" id="-7231">
		<tag k="name" v="Måsvær" />
=======
	<node id="-131709" lat="66.0619206179" lon="12.2177305928">
		<tag k="name" v="Sildøya" />
>>>>>>> e1d4bc35ff8a6074a6f2e91616a996b547c36f15
		<tag k="ssr:date" v="2019-05-30" />
		<tag k="ssr:gruppe" v="veg" />
		<tag k="ssr:hovedgruppe" v="infrastruktur" />
		<tag k="ssr:stedsnr" v="999125" />
		<tag k="ssr:type" v="adressenavn" />
	</node>
<<<<<<< HEAD
	<node lat="66.06899183275783" lon="12.219703188677865" id="-7232">
		<tag k="name" v="Sundøya" />
=======
	<node id="-130812" lat="65.9116611148" lon="12.2042694436">
		<tag k="name" v="Springen" />
		<tag k="ssr:date" v="2016-05-11" />
		<tag k="ssr:gruppe" v="navigasjon" />
		<tag k="ssr:hovedgruppe" v="infrastruktur" />
		<tag k="ssr:stedsnr" v="683580" />
		<tag k="ssr:type" v="fyrlykt" />
	</node>
	<node id="-131707" lat="66.0281590709" lon="11.7855092091">
		<tag k="name" v="Innerholmen" />
>>>>>>> e1d4bc35ff8a6074a6f2e91616a996b547c36f15
		<tag k="ssr:date" v="2019-05-30" />
		<tag k="ssr:gruppe" v="veg" />
		<tag k="ssr:hovedgruppe" v="infrastruktur" />
		<tag k="ssr:stedsnr" v="999126" />
		<tag k="ssr:type" v="adressenavn" />
	</node>
<<<<<<< HEAD
	<node lat="65.92427516316106" lon="12.110188580741585" id="-7233">
		<tag k="name" v="Brønnøya" />
		<tag k="ssr:date" v="2019-05-30" />
		<tag k="ssr:gruppe" v="veg" />
		<tag k="ssr:hovedgruppe" v="infrastruktur" />
		<tag k="ssr:stedsnr" v="999128" />
		<tag k="ssr:type" v="adressenavn" />
	</node>
	<node lat="65.90248476875621" lon="12.168348105250136" id="-7234">
		<tag k="name" v="Storholmen" />
=======
	<node id="-130938" lat="66.0047749955" lon="12.2652527873">
		<tag k="name" v="Hestøysund" />
		<tag k="ssr:date" v="2016-05-11" />
		<tag k="ssr:gruppe" v="navigasjon" />
		<tag k="ssr:hovedgruppe" v="infrastruktur" />
		<tag k="ssr:stedsnr" v="941887" />
		<tag k="ssr:type" v="fyrlykt" />
	</node>
	<node id="-131711" lat="65.9305212043" lon="12.1551534268">
		<tag k="name" v="Allmenningen" />
		<tag k="ssr:date" v="2019-05-30" />
		<tag k="ssr:gruppe" v="veg" />
		<tag k="ssr:hovedgruppe" v="infrastruktur" />
		<tag k="ssr:stedsnr" v="999096" />
		<tag k="ssr:type" v="adressenavn" />
	</node>
	<node id="-131704" lat="65.8907523778" lon="11.9879505901">
		<tag k="name" v="Gråøya" />
>>>>>>> e1d4bc35ff8a6074a6f2e91616a996b547c36f15
		<tag k="ssr:date" v="2019-05-30" />
		<tag k="ssr:gruppe" v="veg" />
		<tag k="ssr:hovedgruppe" v="infrastruktur" />
		<tag k="ssr:stedsnr" v="999129" />
		<tag k="ssr:type" v="adressenavn" />
	</node>
<<<<<<< HEAD
	<node lat="65.90446960769661" lon="12.166865628588328" id="-7235">
		<tag k="name" v="Steinsholmen" />
		<tag k="ssr:date" v="2019-05-30" />
		<tag k="ssr:gruppe" v="veg" />
		<tag k="ssr:hovedgruppe" v="infrastruktur" />
		<tag k="ssr:stedsnr" v="999130" />
		<tag k="ssr:type" v="adressenavn" />
	</node>
	<node lat="66.03099993769767" lon="11.795394590447094" id="-7268">
		<tag k="name" v="Innerholmen" />
		<tag k="old_name" v="Indreholmen" />
		<tag k="ssr:date" v="2020-09-15" />
=======
	<node id="-131703" lat="65.8918087301" lon="11.9902070116">
		<tag k="name" v="Langøya" />
		<tag k="ssr:date" v="2019-05-30" />
		<tag k="ssr:gruppe" v="veg" />
		<tag k="ssr:hovedgruppe" v="infrastruktur" />
		<tag k="ssr:stedsnr" v="999069" />
		<tag k="ssr:type" v="adressenavn" />
	</node>
	<node id="-130422" lat="65.9622777745" lon="12.3004805658">
		<tag k="name" v="Herøysund" />
		<tag k="ssr:date" v="2016-05-10" />
>>>>>>> e1d4bc35ff8a6074a6f2e91616a996b547c36f15
		<tag k="ssr:gruppe" v="navigasjon" />
		<tag k="ssr:hovedgruppe" v="infrastruktur" />
		<tag k="ssr:stedsnr" v="16691" />
		<tag k="ssr:type" v="fyrlykt" />
	</node>
<<<<<<< HEAD
	<node lat="65.95006104063121" lon="12.218840597329715" id="-7303">
		<tag k="name" v="Geithammeren" />
		<tag k="ssr:date" v="2020-09-15" />
=======
	<node id="-130579" lat="66.0094777786" lon="12.2860999921">
		<tag k="name" v="Hoholmen" />
		<tag k="ssr:date" v="2016-05-10" />
		<tag k="ssr:gruppe" v="navigasjon" />
		<tag k="ssr:hovedgruppe" v="infrastruktur" />
		<tag k="ssr:stedsnr" v="258907" />
		<tag k="ssr:type" v="fyrlykt" />
	</node>
	<node id="-131054" lat="66.0844194487" lon="12.0475944449">
		<tag k="name" v="Djupbåen" />
		<tag k="ssr:date" v="2016-05-10" />
>>>>>>> e1d4bc35ff8a6074a6f2e91616a996b547c36f15
		<tag k="ssr:gruppe" v="navigasjon" />
		<tag k="ssr:hovedgruppe" v="infrastruktur" />
		<tag k="ssr:stedsnr" v="76287" />
		<tag k="ssr:type" v="fyrlykt" />
	</node>
<<<<<<< HEAD
	<node lat="65.91363365612473" lon="12.02362180630701" id="-7404">
		<tag k="name" v="Sandværoddtaren" />
		<tag k="ssr:date" v="2020-09-15" />
=======
	<node id="-130539" lat="66.0149249988" lon="12.3969611083">
		<tag k="name" v="Skjelfiskholmen" />
		<tag k="ssr:date" v="2016-05-10" />
>>>>>>> e1d4bc35ff8a6074a6f2e91616a996b547c36f15
		<tag k="ssr:gruppe" v="navigasjon" />
		<tag k="ssr:hovedgruppe" v="infrastruktur" />
		<tag k="ssr:stedsnr" v="197649" />
		<tag k="ssr:type" v="fyrlykt" />
	</node>
<<<<<<< HEAD
	<node lat="66.0289249984165" lon="11.959358329247468" id="-7406">
		<tag k="name" v="Storflesan" />
=======
	<node id="-131050" lat="65.9498249996" lon="12.2189999988">
		<tag k="name" v="Geithammeren" />
>>>>>>> e1d4bc35ff8a6074a6f2e91616a996b547c36f15
		<tag k="ssr:date" v="2016-05-10" />
		<tag k="ssr:gruppe" v="navigasjon" />
		<tag k="ssr:hovedgruppe" v="infrastruktur" />
		<tag k="ssr:stedsnr" v="197737" />
		<tag k="ssr:type" v="fyrlykt" />
	</node>
<<<<<<< HEAD
	<node lat="66.00266308939021" lon="12.005447376034642" id="-7556">
		<tag k="name" v="Steinan" />
		<tag k="ssr:date" v="2021-06-08" />
=======
	<node id="-131205" lat="66.0289249984" lon="11.9593583292">
		<tag k="name" v="Storflesan" />
		<tag k="ssr:date" v="2016-05-10" />
>>>>>>> e1d4bc35ff8a6074a6f2e91616a996b547c36f15
		<tag k="ssr:gruppe" v="navigasjon" />
		<tag k="ssr:hovedgruppe" v="infrastruktur" />
		<tag k="ssr:stedsnr" v="197737" />
		<tag k="ssr:type" v="fyrlykt" />
	</node>
<<<<<<< HEAD
	<node lat="67.2804027758844" lon="14.376388898255625" id="-7604">
		<tag k="alt_name:no" v="Nordland" />
		<tag k="loc_name:se" v="Nordlándda fylka" />
		<tag k="loc_name:sma" v="Nordlaanten fylhke" />
		<tag k="name" v="Nordland fylke - Nordlánda fylkka" />
		<tag k="name:no" v="Nordland fylke" />
		<tag k="name:smj" v="Nordlánda fylkka" />
		<tag k="ssr:date" v="2021-02-03" />
		<tag k="ssr:gruppe" v="administrativeIndelinger" />
		<tag k="ssr:hovedgruppe" v="offentligAdministrasjon" />
		<tag k="ssr:stedsnr" v="511766" />
		<tag k="ssr:type" v="fylke" />
	</node>
	<node lat="66.04596388597663" lon="12.163805559161059" id="-7625">
		<tag k="name" v="Svartoksen" />
		<tag k="ssr:date" v="2016-05-10" />
		<tag k="ssr:gruppe" v="navigasjon" />
		<tag k="ssr:hovedgruppe" v="infrastruktur" />
		<tag k="ssr:stedsnr" v="561297" />
		<tag k="ssr:type" v="fyrlykt" />
	</node>
	<node lat="65.86462080808391" lon="12.014436337902794" id="-7644">
		<tag k="name" v="Feøynakken" />
		<tag k="ssr:date" v="2020-09-15" />
		<tag k="ssr:gruppe" v="navigasjon" />
		<tag k="ssr:hovedgruppe" v="infrastruktur" />
		<tag k="ssr:stedsnr" v="561548" />
		<tag k="ssr:type" v="fyrlykt" />
	</node>
	<node lat="66.01467778095149" lon="12.395086112469462" id="-7690">
		<tag k="name" v="Gautholet" />
		<tag k="ssr:date" v="2016-05-10" />
		<tag k="ssr:gruppe" v="sjøbunn" />
		<tag k="ssr:hovedgruppe" v="sjø" />
		<tag k="ssr:stedsnr" v="592726" />
		<tag k="ssr:type" v="søkkISjø" />
	</node>
	<node lat="65.98426666608029" lon="12.289152783245937" id="-7713">
=======
	<node id="-130535" lat="66.0024111144" lon="12.0052638999">
		<tag k="name" v="Steinan" />
		<tag k="ssr:date" v="2016-05-10" />
		<tag k="ssr:gruppe" v="navigasjon" />
		<tag k="ssr:hovedgruppe" v="infrastruktur" />
		<tag k="ssr:stedsnr" v="440725" />
		<tag k="ssr:type" v="fyrlykt" />
	</node>
	<node id="-130786" lat="65.9842666661" lon="12.2891527832">
>>>>>>> e1d4bc35ff8a6074a6f2e91616a996b547c36f15
		<tag k="name" v="Herøy kommune" />
		<tag k="ssr:date" v="2016-05-10" />
		<tag k="ssr:gruppe" v="administrativeIndelinger" />
		<tag k="ssr:hovedgruppe" v="offentligAdministrasjon" />
		<tag k="ssr:stedsnr" v="632573" />
		<tag k="ssr:type" v="kommune" />
	</node>
<<<<<<< HEAD
	<node lat="66.00682743574428" lon="12.360368854489616" id="-7755">
		<tag k="name" v="Herøyskjæret" />
		<tag k="old_name" v="Herøyskjeret" />
		<tag k="ssr:date" v="2020-09-15" />
=======
	<node id="-131459" lat="66.0646722256" lon="12.0458027882">
		<tag k="name" v="Gåsvær" />
		<tag k="old_name" v="Gåsværet" />
		<tag k="ssr:date" v="2016-05-10" />
		<tag k="ssr:gruppe" v="navigasjon" />
		<tag k="ssr:hovedgruppe" v="infrastruktur" />
		<tag k="ssr:stedsnr" v="622272" />
		<tag k="ssr:type" v="fyrlykt" />
	</node>
	<node id="-130910" lat="66.1245944428" lon="12.0141944467">
		<tag k="name" v="Stokskjær" />
		<tag k="old_name" v="Stokkskjeret" />
		<tag k="ssr:date" v="2016-05-11" />
>>>>>>> e1d4bc35ff8a6074a6f2e91616a996b547c36f15
		<tag k="ssr:gruppe" v="navigasjon" />
		<tag k="ssr:hovedgruppe" v="infrastruktur" />
		<tag k="ssr:stedsnr" v="743934" />
		<tag k="ssr:type" v="fyrlykt" />
	</node>
<<<<<<< HEAD
	<node lat="66.13728995135783" lon="11.971445032217632" id="-7761">
		<tag k="name" v="Purkskjæret" />
		<tag k="ssr:date" v="2021-06-08" />
=======
	<node id="-131706" lat="65.9286525544" lon="12.1222838763">
		<tag k="name" v="Æmårsøya" />
		<tag k="ssr:date" v="2019-05-30" />
		<tag k="ssr:gruppe" v="veg" />
		<tag k="ssr:hovedgruppe" v="infrastruktur" />
		<tag k="ssr:stedsnr" v="999090" />
		<tag k="ssr:type" v="adressenavn" />
	</node>
	<node id="-131705" lat="65.9254492596" lon="12.125282354">
		<tag k="name" v="Lyngøya" />
		<tag k="ssr:date" v="2019-05-30" />
		<tag k="ssr:gruppe" v="veg" />
		<tag k="ssr:hovedgruppe" v="infrastruktur" />
		<tag k="ssr:stedsnr" v="999089" />
		<tag k="ssr:type" v="adressenavn" />
	</node>
	<node id="-131200" lat="65.91364722" lon="12.0236111209">
		<tag k="name" v="Sandværoddtaren" />
		<tag k="ssr:date" v="2016-05-10" />
		<tag k="ssr:gruppe" v="navigasjon" />
		<tag k="ssr:hovedgruppe" v="infrastruktur" />
		<tag k="ssr:stedsnr" v="197649" />
		<tag k="ssr:type" v="fyrlykt" />
	</node>
	<node id="-130893" lat="66.1215666701" lon="12.0650194545">
		<tag k="name" v="Djupsøy" />
		<tag k="old_name" v="Djupsøya" />
		<tag k="ssr:date" v="2016-05-11" />
>>>>>>> e1d4bc35ff8a6074a6f2e91616a996b547c36f15
		<tag k="ssr:gruppe" v="navigasjon" />
		<tag k="ssr:hovedgruppe" v="infrastruktur" />
		<tag k="ssr:stedsnr" v="744265" />
		<tag k="ssr:type" v="fyrlykt" />
	</node>
<<<<<<< HEAD
	<node lat="65.98432006457713" lon="12.230898728068553" id="-7800">
		<tag k="name" v="Geitholmen" />
		<tag k="ssr:date" v="2020-09-15" />
=======
	<node id="-131575" lat="65.984172223" lon="12.2311749944">
		<tag k="name" v="Geitholmen" />
		<tag k="ssr:date" v="2016-05-11" />
		<tag k="ssr:gruppe" v="navigasjon" />
		<tag k="ssr:hovedgruppe" v="infrastruktur" />
		<tag k="ssr:stedsnr" v="804681" />
		<tag k="ssr:type" v="fyrlykt" />
	</node>
	<node id="-130886" lat="66.0131527802" lon="11.6870916648">
		<tag k="name" v="Ytterholmen" />
		<tag k="ssr:date" v="2016-05-11" />
>>>>>>> e1d4bc35ff8a6074a6f2e91616a996b547c36f15
		<tag k="ssr:gruppe" v="navigasjon" />
		<tag k="ssr:hovedgruppe" v="infrastruktur" />
		<tag k="ssr:stedsnr" v="804681" />
		<tag k="ssr:type" v="fyrlykt" />
	</node>
<<<<<<< HEAD
	<node lat="66.01321202253024" lon="12.221878400129627" id="-7865">
=======
	<node id="-131653" lat="66.0132194408" lon="12.2218805513">
>>>>>>> e1d4bc35ff8a6074a6f2e91616a996b547c36f15
		<tag k="name" v="Ytre Øksningan" />
		<tag k="ssr:date" v="2021-06-08" />
		<tag k="ssr:gruppe" v="navigasjon" />
		<tag k="ssr:hovedgruppe" v="infrastruktur" />
		<tag k="ssr:stedsnr" v="865915" />
		<tag k="ssr:type" v="fyrlykt" />
	</node>
<<<<<<< HEAD
	<node lat="66.0047749955032" lon="12.265252787283048" id="-7892">
		<tag k="name" v="Hestøysund" />
		<tag k="ssr:date" v="2016-05-11" />
=======
	<node id="-131012" lat="66.0309555549" lon="11.7956361041">
		<tag k="name" v="Innerholmen" />
		<tag k="old_name" v="Indreholmen" />
		<tag k="ssr:date" v="2016-05-10" />
>>>>>>> e1d4bc35ff8a6074a6f2e91616a996b547c36f15
		<tag k="ssr:gruppe" v="navigasjon" />
		<tag k="ssr:hovedgruppe" v="infrastruktur" />
		<tag k="ssr:stedsnr" v="941887" />
		<tag k="ssr:type" v="fyrlykt" />
	</node>
<<<<<<< HEAD
	<node lat="65.89180873009833" lon="11.990207011572629" id="-7935">
		<tag k="name" v="Langøya" />
		<tag k="ssr:date" v="2019-05-30" />
		<tag k="ssr:gruppe" v="veg" />
		<tag k="ssr:hovedgruppe" v="infrastruktur" />
		<tag k="ssr:stedsnr" v="999069" />
		<tag k="ssr:type" v="adressenavn" />
	</node>
	<node lat="65.89075237775565" lon="11.987950590092906" id="-7936">
		<tag k="name" v="Gråøya" />
		<tag k="ssr:date" v="2019-05-30" />
		<tag k="ssr:gruppe" v="veg" />
=======
	<node id="-131517" lat="66.0068499965" lon="12.3603944433">
		<tag k="name" v="Herøyskjæret" />
		<tag k="old_name" v="Herøyskjeret" />
		<tag k="ssr:date" v="2016-05-11" />
		<tag k="ssr:gruppe" v="navigasjon" />
		<tag k="ssr:hovedgruppe" v="infrastruktur" />
		<tag k="ssr:stedsnr" v="743934" />
		<tag k="ssr:type" v="fyrlykt" />
	</node>
	<node id="-131388" lat="65.8647888855" lon="12.0142638781">
		<tag k="name" v="Feøynakken" />
		<tag k="ssr:date" v="2016-05-10" />
		<tag k="ssr:gruppe" v="navigasjon" />
>>>>>>> e1d4bc35ff8a6074a6f2e91616a996b547c36f15
		<tag k="ssr:hovedgruppe" v="infrastruktur" />
		<tag k="ssr:stedsnr" v="999070" />
		<tag k="ssr:type" v="adressenavn" />
	</node>
<<<<<<< HEAD
	<node lat="65.92544925956562" lon="12.125282353985952" id="-7937">
		<tag k="name" v="Lyngøya" />
		<tag k="ssr:date" v="2019-05-30" />
		<tag k="ssr:gruppe" v="veg" />
		<tag k="ssr:hovedgruppe" v="infrastruktur" />
		<tag k="ssr:stedsnr" v="999089" />
		<tag k="ssr:type" v="adressenavn" />
	</node>
	<node lat="65.9286525544285" lon="12.122283876326458" id="-7938">
		<tag k="name" v="Æmårsøya" />
		<tag k="ssr:date" v="2019-05-30" />
		<tag k="ssr:gruppe" v="veg" />
		<tag k="ssr:hovedgruppe" v="infrastruktur" />
		<tag k="ssr:stedsnr" v="999090" />
		<tag k="ssr:type" v="adressenavn" />
	</node>
	<node lat="66.02815907093692" lon="11.785509209106923" id="-7939">
		<tag k="name" v="Innerholmen" />
		<tag k="ssr:date" v="2019-05-30" />
		<tag k="ssr:gruppe" v="veg" />
=======
	<node id="-131381" lat="66.045963886" lon="12.1638055592">
		<tag k="name" v="Svartoksen" />
		<tag k="ssr:date" v="2016-05-10" />
		<tag k="ssr:gruppe" v="navigasjon" />
>>>>>>> e1d4bc35ff8a6074a6f2e91616a996b547c36f15
		<tag k="ssr:hovedgruppe" v="infrastruktur" />
		<tag k="ssr:stedsnr" v="999091" />
		<tag k="ssr:type" v="adressenavn" />
	</node>
<<<<<<< HEAD
	<node lat="66.06794607443463" lon="12.231446900012605" id="-7940">
		<tag k="name" v="Stokkøya" />
		<tag k="ssr:date" v="2019-05-30" />
		<tag k="ssr:gruppe" v="veg" />
=======
	<node id="-130867" lat="66.1373083295" lon="11.971361114">
		<tag k="name" v="Purkskjæret" />
		<tag k="ssr:date" v="2016-05-11" />
		<tag k="ssr:gruppe" v="navigasjon" />
>>>>>>> e1d4bc35ff8a6074a6f2e91616a996b547c36f15
		<tag k="ssr:hovedgruppe" v="infrastruktur" />
		<tag k="ssr:stedsnr" v="999092" />
		<tag k="ssr:type" v="adressenavn" />
	</node>
<<<<<<< HEAD
	<node lat="66.06192061792358" lon="12.21773059282109" id="-7941">
		<tag k="name" v="Sildøya" />
		<tag k="ssr:date" v="2019-05-30" />
		<tag k="ssr:gruppe" v="veg" />
		<tag k="ssr:hovedgruppe" v="infrastruktur" />
		<tag k="ssr:stedsnr" v="999094" />
		<tag k="ssr:type" v="adressenavn" />
	</node>
	<node lat="66.1233979713586" lon="12.049546438102674" id="-7942">
		<tag k="name" v="Sakrisøya" />
		<tag k="ssr:date" v="2019-05-30" />
		<tag k="ssr:gruppe" v="veg" />
		<tag k="ssr:hovedgruppe" v="infrastruktur" />
		<tag k="ssr:stedsnr" v="999095" />
		<tag k="ssr:type" v="adressenavn" />
	</node>
	<node lat="65.93052120429496" lon="12.155153426794508" id="-7943">
		<tag k="name" v="Allmenningen" />
=======
	<node id="-131708" lat="66.0679460744" lon="12.2314469">
		<tag k="name" v="Stokkøya" />
		<tag k="ssr:date" v="2019-05-30" />
		<tag k="ssr:gruppe" v="veg" />
		<tag k="ssr:hovedgruppe" v="infrastruktur" />
		<tag k="ssr:stedsnr" v="999092" />
		<tag k="ssr:type" v="adressenavn" />
	</node>
	<node id="-131717" lat="66.0461721952" lon="12.0026700362">
		<tag k="name" v="Sørgåsvær" />
		<tag k="ssr:date" v="2019-05-30" />
		<tag k="ssr:gruppe" v="veg" />
		<tag k="ssr:hovedgruppe" v="infrastruktur" />
		<tag k="ssr:stedsnr" v="999105" />
		<tag k="ssr:type" v="adressenavn" />
	</node>
	<node id="-131716" lat="66.1281109957" lon="11.9569335203">
		<tag k="name" v="Sandsundvær" />
>>>>>>> e1d4bc35ff8a6074a6f2e91616a996b547c36f15
		<tag k="ssr:date" v="2019-05-30" />
		<tag k="ssr:gruppe" v="veg" />
		<tag k="ssr:hovedgruppe" v="infrastruktur" />
		<tag k="ssr:stedsnr" v="999104" />
		<tag k="ssr:type" v="adressenavn" />
	</node>
<<<<<<< HEAD
	<node lat="65.91971510718476" lon="12.125281859255473" id="-7944">
		<tag k="name" v="Hestøya" />
=======
	<node id="-130974" lat="65.8943294111" lon="12.0180205792">
		<tag k="name" v="Halsan" />
>>>>>>> e1d4bc35ff8a6074a6f2e91616a996b547c36f15
		<tag k="ssr:date" v="2019-05-30" />
		<tag k="ssr:gruppe" v="veg" />
		<tag k="ssr:hovedgruppe" v="infrastruktur" />
		<tag k="ssr:stedsnr" v="999098" />
		<tag k="ssr:type" v="adressenavn" />
	</node>
<<<<<<< HEAD
	<node lat="65.99184278427641" lon="12.19965021360093" id="-7945">
		<tag k="name" v="Hjelmsøya" />
=======
	<node id="-130973" lat="65.8890201548" lon="12.0114050423">
		<tag k="name" v="Straumøya" />
>>>>>>> e1d4bc35ff8a6074a6f2e91616a996b547c36f15
		<tag k="ssr:date" v="2019-05-30" />
		<tag k="ssr:gruppe" v="veg" />
		<tag k="ssr:hovedgruppe" v="infrastruktur" />
		<tag k="ssr:stedsnr" v="999099" />
		<tag k="ssr:type" v="adressenavn" />
	</node>
<<<<<<< HEAD
	<node lat="65.95105470313041" lon="12.282411824679164" id="-7946">
		<tag k="name" v="Andøya" />
=======
	<node id="-130972" lat="65.9044696077" lon="12.1668656286">
		<tag k="name" v="Steinsholmen" />
>>>>>>> e1d4bc35ff8a6074a6f2e91616a996b547c36f15
		<tag k="ssr:date" v="2019-05-30" />
		<tag k="ssr:gruppe" v="veg" />
		<tag k="ssr:hovedgruppe" v="infrastruktur" />
		<tag k="ssr:stedsnr" v="999100" />
		<tag k="ssr:type" v="adressenavn" />
	</node>
<<<<<<< HEAD
	<node lat="65.90801331190518" lon="12.047578021266244" id="-7947">
		<tag k="name" v="Måsøya" />
=======
	<node id="-130971" lat="65.9024847688" lon="12.1683481053">
		<tag k="name" v="Storholmen" />
>>>>>>> e1d4bc35ff8a6074a6f2e91616a996b547c36f15
		<tag k="ssr:date" v="2019-05-30" />
		<tag k="ssr:gruppe" v="veg" />
		<tag k="ssr:hovedgruppe" v="infrastruktur" />
		<tag k="ssr:stedsnr" v="999102" />
		<tag k="ssr:type" v="adressenavn" />
	</node>
<<<<<<< HEAD
	<node lat="66.12811099565286" lon="11.956933520274957" id="-7948">
		<tag k="name" v="Sandsundvær" />
=======
	<node id="-130970" lat="65.9242751632" lon="12.1101885807">
		<tag k="name" v="Brønnøya" />
>>>>>>> e1d4bc35ff8a6074a6f2e91616a996b547c36f15
		<tag k="ssr:date" v="2019-05-30" />
		<tag k="ssr:gruppe" v="veg" />
		<tag k="ssr:hovedgruppe" v="infrastruktur" />
		<tag k="ssr:stedsnr" v="999104" />
		<tag k="ssr:type" v="adressenavn" />
	</node>
<<<<<<< HEAD
	<node lat="66.04617219515623" lon="12.002670036155564" id="-7949">
		<tag k="name" v="Sørgåsvær" />
=======
	<node id="-130969" lat="66.0689918328" lon="12.2197031887">
		<tag k="name" v="Sundøya" />
>>>>>>> e1d4bc35ff8a6074a6f2e91616a996b547c36f15
		<tag k="ssr:date" v="2019-05-30" />
		<tag k="ssr:gruppe" v="veg" />
		<tag k="ssr:hovedgruppe" v="infrastruktur" />
		<tag k="ssr:stedsnr" v="999105" />
		<tag k="ssr:type" v="adressenavn" />
	</node>
<<<<<<< HEAD
	<node lat="66.05344590662088" lon="12.012620027742086" id="-7950">
		<tag k="name" v="Nordgåsvær" />
=======
	<node id="-130968" lat="66.080934391" lon="12.1841099362">
		<tag k="name" v="Måsvær" />
>>>>>>> e1d4bc35ff8a6074a6f2e91616a996b547c36f15
		<tag k="ssr:date" v="2019-05-30" />
		<tag k="ssr:gruppe" v="veg" />
		<tag k="ssr:hovedgruppe" v="infrastruktur" />
		<tag k="ssr:stedsnr" v="999107" />
		<tag k="ssr:type" v="adressenavn" />
	</node>
<<<<<<< HEAD
	<node lat="66.0775369479322" lon="12.057391511014679" id="-7951">
		<tag k="name" v="Innerodden" />
=======
	<node id="-130967" lat="66.0498196505" lon="12.0364231817">
		<tag k="name" v="Flatøya" />
>>>>>>> e1d4bc35ff8a6074a6f2e91616a996b547c36f15
		<tag k="ssr:date" v="2019-05-30" />
		<tag k="ssr:gruppe" v="veg" />
		<tag k="ssr:hovedgruppe" v="infrastruktur" />
		<tag k="ssr:stedsnr" v="999108" />
		<tag k="ssr:type" v="adressenavn" />
	</node>
<<<<<<< HEAD
	<node lat="66.01694831639622" lon="12.154637668067805" id="-7952">
		<tag k="name" v="Vardøya" />
=======
	<node id="-130966" lat="65.9050625488" lon="12.1689750598">
		<tag k="name" v="Jensholmen" />
>>>>>>> e1d4bc35ff8a6074a6f2e91616a996b547c36f15
		<tag k="ssr:date" v="2019-05-30" />
		<tag k="ssr:gruppe" v="veg" />
		<tag k="ssr:hovedgruppe" v="infrastruktur" />
		<tag k="ssr:stedsnr" v="999109" />
		<tag k="ssr:type" v="adressenavn" />
	</node>
<<<<<<< HEAD
	<node lat="66.05362899646846" lon="12.174836152981388" id="-7953">
		<tag k="name" v="Skipøya" />
=======
	<node id="-130965" lat="66.1299999369" lon="12.0342221822">
		<tag k="name" v="Nordskipbåtsvær" />
>>>>>>> e1d4bc35ff8a6074a6f2e91616a996b547c36f15
		<tag k="ssr:date" v="2019-05-30" />
		<tag k="ssr:gruppe" v="veg" />
		<tag k="ssr:hovedgruppe" v="infrastruktur" />
		<tag k="ssr:stedsnr" v="999110" />
		<tag k="ssr:type" v="adressenavn" />
	</node>
	<node lat="66.01371435486806" lon="11.68771219959576" id="-7954">
		<tag k="name" v="Ytterholmen" />
		<tag k="ssr:date" v="2019-05-30" />
		<tag k="ssr:gruppe" v="veg" />
		<tag k="ssr:hovedgruppe" v="infrastruktur" />
		<tag k="ssr:stedsnr" v="999111" />
		<tag k="ssr:type" v="adressenavn" />
	</node>
	<node lat="66.01308572935807" lon="12.246047435170363" id="-7955">
		<tag k="name" v="Jønnesholmen" />
		<tag k="ssr:date" v="2019-05-30" />
		<tag k="ssr:gruppe" v="veg" />
		<tag k="ssr:hovedgruppe" v="infrastruktur" />
		<tag k="ssr:stedsnr" v="999112" />
		<tag k="ssr:type" v="adressenavn" />
	</node>
	<node id="-130964" lat="66.1292819318" lon="12.0372363933">
		<tag k="name" v="Sørskipbåtsvær" />
		<tag k="ssr:date" v="2019-05-30" />
		<tag k="ssr:gruppe" v="veg" />
		<tag k="ssr:hovedgruppe" v="infrastruktur" />
		<tag k="ssr:stedsnr" v="999119" />
		<tag k="ssr:type" v="adressenavn" />
	</node>
	<node id="-130963" lat="65.8782052177" lon="11.9974566016">
		<tag k="name" v="Verniksøya" />
		<tag k="ssr:date" v="2019-05-30" />
		<tag k="ssr:gruppe" v="veg" />
		<tag k="ssr:hovedgruppe" v="infrastruktur" />
		<tag k="ssr:stedsnr" v="999116" />
		<tag k="ssr:type" v="adressenavn" />
	</node>
	<node id="-130962" lat="66.0032772652" lon="12.1895517912">
		<tag k="name" v="Lissæsøya" />
		<tag k="ssr:date" v="2019-05-30" />
		<tag k="ssr:gruppe" v="veg" />
		<tag k="ssr:hovedgruppe" v="infrastruktur" />
		<tag k="ssr:stedsnr" v="999115" />
		<tag k="ssr:type" v="adressenavn" />
	</node>
	<node id="-130961" lat="66.0240843854" lon="12.2474017377">
		<tag k="name" v="Draget" />
		<tag k="ssr:date" v="2019-05-30" />
		<tag k="ssr:gruppe" v="veg" />
		<tag k="ssr:hovedgruppe" v="infrastruktur" />
		<tag k="ssr:stedsnr" v="999114" />
		<tag k="ssr:type" v="adressenavn" />
	</node>
	<node id="-131724" lat="69.6388889725" lon="30.5666644427">
		<tag k="fixme" v="multiple name tags, choose one and add the other to alt_name" />
		<tag k="loc_name:se" v="Norgga gonagasriika" />
		<tag k="loc_name:sma" v="Nöörjen gånkarïjhke" />
		<tag k="loc_name:smj" v="Vuona gånågisrijkka" />
		<tag k="name" v="Noreg;Norge" />
		<tag k="name:en" v="Norway" />
		<tag k="name:no" v="Noreg;Norge" />
		<tag k="ssr:date" v="2020-06-04" />
		<tag k="ssr:gruppe" v="administrativeIndelinger" />
		<tag k="ssr:hovedgruppe" v="offentligAdministrasjon" />
		<tag k="ssr:stedsnr" v="26330" />
		<tag k="ssr:type" v="nasjon" />
	</node>
	<node id="-131723" lat="66.0130857294" lon="12.2460474352">
		<tag k="name" v="Jønnesholmen" />
		<tag k="ssr:date" v="2019-05-30" />
		<tag k="ssr:gruppe" v="veg" />
		<tag k="ssr:hovedgruppe" v="infrastruktur" />
		<tag k="ssr:stedsnr" v="999112" />
		<tag k="ssr:type" v="adressenavn" />
	</node>
	<node id="-131722" lat="66.0137143549" lon="11.6877121996">
		<tag k="name" v="Ytterholmen" />
		<tag k="ssr:date" v="2019-05-30" />
		<tag k="ssr:gruppe" v="veg" />
		<tag k="ssr:hovedgruppe" v="infrastruktur" />
		<tag k="ssr:stedsnr" v="999111" />
		<tag k="ssr:type" v="adressenavn" />
	</node>
	<node id="-131721" lat="66.0536289965" lon="12.174836153">
		<tag k="name" v="Skipøya" />
		<tag k="ssr:date" v="2019-05-30" />
		<tag k="ssr:gruppe" v="veg" />
		<tag k="ssr:hovedgruppe" v="infrastruktur" />
		<tag k="ssr:stedsnr" v="999110" />
		<tag k="ssr:type" v="adressenavn" />
	</node>
	<node id="-131720" lat="66.0169483164" lon="12.1546376681">
		<tag k="name" v="Vardøya" />
		<tag k="ssr:date" v="2019-05-30" />
		<tag k="ssr:gruppe" v="veg" />
		<tag k="ssr:hovedgruppe" v="infrastruktur" />
		<tag k="ssr:stedsnr" v="999109" />
		<tag k="ssr:type" v="adressenavn" />
	</node>
	<node id="-131719" lat="66.0775369479" lon="12.057391511">
		<tag k="name" v="Innerodden" />
		<tag k="ssr:date" v="2019-05-30" />
		<tag k="ssr:gruppe" v="veg" />
		<tag k="ssr:hovedgruppe" v="infrastruktur" />
		<tag k="ssr:stedsnr" v="999108" />
		<tag k="ssr:type" v="adressenavn" />
	</node>
	<node id="-131718" lat="66.0534459066" lon="12.0126200277">
		<tag k="name" v="Nordgåsvær" />
		<tag k="ssr:date" v="2019-05-30" />
		<tag k="ssr:gruppe" v="veg" />
		<tag k="ssr:hovedgruppe" v="infrastruktur" />
		<tag k="ssr:stedsnr" v="999107" />
		<tag k="ssr:type" v="adressenavn" />
	</node>
	<node id="-130437" lat="65.9279833292" lon="12.171080555">
		<tag k="name" v="Dragan" />
		<tag k="ssr:date" v="2016-05-10" />
		<tag k="ssr:gruppe" v="navigasjon" />
		<tag k="ssr:hovedgruppe" v="infrastruktur" />
		<tag k="ssr:stedsnr" v="258901" />
		<tag k="ssr:type" v="fyrlykt" />
	</node>
	<node id="-130436" lat="65.9323638918" lon="12.1881916739">
		<tag k="name" v="Trettholmen" />
		<tag k="ssr:date" v="2016-05-10" />
		<tag k="ssr:gruppe" v="navigasjon" />
		<tag k="ssr:hovedgruppe" v="infrastruktur" />
		<tag k="ssr:stedsnr" v="258880" />
		<tag k="ssr:type" v="fyrlykt" />
	</node>
	<node id="-131715" lat="65.9080133119" lon="12.0475780213">
		<tag k="name" v="Måsøya" />
		<tag k="ssr:date" v="2019-05-30" />
		<tag k="ssr:gruppe" v="veg" />
		<tag k="ssr:hovedgruppe" v="infrastruktur" />
		<tag k="ssr:stedsnr" v="999102" />
		<tag k="ssr:type" v="adressenavn" />
	</node>
	<node id="-131714" lat="65.9510547031" lon="12.2824118247">
		<tag k="name" v="Andøya" />
		<tag k="ssr:date" v="2019-05-30" />
		<tag k="ssr:gruppe" v="veg" />
		<tag k="ssr:hovedgruppe" v="infrastruktur" />
		<tag k="ssr:stedsnr" v="999100" />
		<tag k="ssr:type" v="adressenavn" />
	</node>
	<node id="-131713" lat="65.9918427843" lon="12.1996502136">
		<tag k="name" v="Hjelmsøya" />
		<tag k="ssr:date" v="2019-05-30" />
		<tag k="ssr:gruppe" v="veg" />
		<tag k="ssr:hovedgruppe" v="infrastruktur" />
		<tag k="ssr:stedsnr" v="999099" />
		<tag k="ssr:type" v="adressenavn" />
	</node>
</osm>
