<?xml version="1.0" encoding="UTF-8"?>
<osm generator="osmapis" version="0.6">
	<node id="-227198" lat="58.9211944478" lon="9.15872500486">
		<tag k="name" v="Naut-brønn bru" />
		<tag k="place" v="locality" />
		<tag k="ssr:stedsnr" v="100855" />
	</node>
	<node id="-225533" lat="58.9630499995" lon="9.07222499431">
		<tag k="name" v="Buslåttrulla" />
		<tag k="place" v="locality" />
		<tag k="ssr:stedsnr" v="282852" />
	</node>
	<node id="-227578" lat="58.9575944434" lon="9.09424166511">
		<tag k="name" v="Sagfjella" />
		<tag k="place" v="locality" />
		<tag k="ssr:stedsnr" v="160730" />
	</node>
	<node id="-231288" lat="59.1951972262" lon="8.68521665967">
		<tag k="name" v="Gruva" />
		<tag k="place" v="locality" />
		<tag k="ssr:stedsnr" v="847493" />
	</node>
	<node id="-230676" lat="59.1544722237" lon="9.00767778232">
		<tag k="amenity" v="community_centre" />
		<tag k="name" v="Åsheim" />
		<tag k="ssr:stedsnr" v="768628" />
	</node>
	<node id="-230132" lat="58.9444694414" lon="9.13292500569">
		<tag k="amenity" v="place_of_worship" />
		<tag k="denomination" v="lutheran" />
		<tag k="name" v="Kroken" />
		<tag k="religion" v="christian" />
		<tag k="ssr:stedsnr" v="668914" />
	</node>
	<node id="-229416" lat="58.9438972191" lon="9.11795832707">
		<tag k="name" v="Sekshundremeteren" />
		<tag k="place" v="locality" />
		<tag k="ssr:stedsnr" v="585401" />
	</node>
	<node id="-231549" lat="59.0688611152" lon="9.12057778499">
		<tag k="name" v="Saga" />
		<tag k="place" v="locality" />
		<tag k="ssr:stedsnr" v="907302" />
	</node>
	<node id="-226529" lat="58.9467222238" lon="9.05801110733">
		<tag k="name" v="Solbergposten" />
		<tag k="place" v="locality" />
		<tag k="ssr:stedsnr" v="889973" />
	</node>
	<node id="-226270" lat="59.0972833318" lon="9.06862777152">
		<tag k="amenity" v="place_of_worship" />
		<tag k="denomination" v="lutheran" />
		<tag k="name" v="Drangedal" />
		<tag k="religion" v="christian" />
		<tag k="ssr:stedsnr" v="365245" />
	</node>
	<node id="-227962" lat="58.9623611071" lon="9.09865277856">
		<tag k="name" v="Kvenna" />
		<tag k="place" v="locality" />
		<tag k="ssr:stedsnr" v="221725" />
	</node>
	<node id="-229335" lat="59.1229222197" lon="8.86386943912">
		<tag k="name" v="Gråtopplassen" />
		<tag k="ssr:stedsnr" v="547316" />
		<tag k="tourism" v="attraction" />
	</node>
	<node id="-226774" lat="59.0878277786" lon="9.16434722457">
		<tag k="name" v="Mannheim" />
		<tag k="place" v="locality" />
		<tag k="ssr:stedsnr" v="40267" />
	</node>
	<node id="-229461" lat="58.9733972184" lon="9.13030277459">
		<tag k="name" v="Brannbukt hefte" />
		<tag k="place" v="locality" />
		<tag k="ssr:stedsnr" v="586328" />
	</node>
	<node id="-226768" lat="58.9196944429" lon="9.14489721362">
		<tag k="name" v="Kvennhusfossen" />
		<tag k="place" v="locality" />
		<tag k="ssr:stedsnr" v="39876" />
	</node>
	<node id="-227661" lat="58.9115000026" lon="9.15505277164">
		<tag k="name" v="Sagfossen" />
		<tag k="place" v="locality" />
		<tag k="ssr:stedsnr" v="162492" />
	</node>
	<node id="-230859" lat="59.1183527746" lon="8.95744167442">
		<tag k="name" v="Dalankvenna" />
		<tag k="place" v="locality" />
		<tag k="ssr:stedsnr" v="786675" />
	</node>
	<node id="-231882" lat="59.2412555528" lon="8.77802777567">
		<tag k="amenity" v="community_centre" />
		<tag k="name" v="Elvarheim" />
		<tag k="ssr:stedsnr" v="952132" />
	</node>
	<node id="-231113" lat="58.904066667" lon="9.13776666871">
		<tag k="name" v="Øygardsstranda" />
		<tag k="place" v="locality" />
		<tag k="ssr:stedsnr" v="830482" />
	</node>
	<node id="-227272" lat="58.9570972226" lon="9.1370749959">
		<tag k="amenity" v="community_centre" />
		<tag k="name" v="Folkvang" />
		<tag k="ssr:stedsnr" v="102975" />
	</node>
	<node id="-231879" lat="59.010641664" lon="9.19599443597">
		<tag k="amenity" v="community_centre" />
		<tag k="name" v="Fjellstad" />
		<tag k="ssr:stedsnr" v="952011" />
	</node>
	<node id="-230241" lat="59.1523527817" lon="9.01748055238">
		<tag k="amenity" v="community_centre" />
		<tag k="name" v="Åkre-Nås bedehus" />
		<tag k="ssr:stedsnr" v="707630" />
	</node>
	<node id="-229438" lat="58.9578138866" lon="9.05861944831">
		<tag k="name" v="Trygves post" />
		<tag k="place" v="locality" />
		<tag k="ssr:stedsnr" v="585830" />
	</node>
	<node id="-225976" lat="58.9589000003" lon="9.14007222172">
		<tag k="amenity" v="place_of_worship" />
		<tag k="fixme" v="specify religion=*, denomination=*, building=* etc" />
		<tag k="name" v="Heldal bedehus" />
		<tag k="ssr:stedsnr" v="344974" />
	</node>
	<node id="-226356" lat="58.9378138894" lon="9.07399722607">
		<tag k="name" v="Jordhytta" />
		<tag k="place" v="locality" />
		<tag k="ssr:stedsnr" v="403985" />
	</node>
	<node id="-229470" lat="58.9068388864" lon="9.14907777201">
		<tag k="name" v="Pråmste" />
		<tag k="place" v="locality" />
		<tag k="ssr:stedsnr" v="586494" />
	</node>
	<node id="-227890" lat="59.1550694455" lon="8.81067500001">
		<tag k="amenity" v="place_of_worship" />
		<tag k="denomination" v="lutheran" />
		<tag k="name" v="Tørdal" />
		<tag k="religion" v="christian" />
		<tag k="ssr:stedsnr" v="183740" />
	</node>
	<node id="-225968" lat="58.9307722262" lon="9.05732500296">
		<tag k="name" v="Olas post" />
		<tag k="place" v="locality" />
		<tag k="ssr:stedsnr" v="342849" />
	</node>
	<node id="-225966" lat="58.9336416629" lon="9.07034167109">
		<tag k="name" v="Skarkemyra" />
		<tag k="place" v="locality" />
		<tag k="ssr:stedsnr" v="342844" />
	</node>
	<node id="-228653" lat="58.9519111148" lon="9.06526665902">
		<tag k="name" v="Åsmunds post" />
		<tag k="place" v="locality" />
		<tag k="ssr:stedsnr" v="465283" />
	</node>
	<node id="-230824" lat="59.2014444443" lon="8.70459167498">
		<tag k="name" v="Russerhytta" />
		<tag k="place" v="locality" />
		<tag k="ssr:stedsnr" v="785475" />
	</node>
	<node id="-226724" lat="58.9947805579" lon="9.03835277712">
		<tag k="name" v="Vreen" />
		<tag k="place" v="locality" />
		<tag k="ssr:stedsnr" v="1954" />
	</node>
	<node id="-231203" lat="58.9661222222" lon="9.20734443727">
		<tag k="name" v="Sjåen" />
		<tag k="ssr:stedsnr" v="845471" />
		<tag k="tourism" v="viewpoint" />
	</node>
	<node id="-226465" lat="59.0038999991" lon="9.19874167074">
		<tag k="amenity" v="community_centre" />
		<tag k="name" v="Solvang" />
		<tag k="ssr:stedsnr" v="406007" />
	</node>
	<node id="-230960" lat="59.1298861117" lon="8.86955277251">
		<tag k="name" v="Dårlaupet" />
		<tag k="place" v="locality" />
		<tag k="ssr:stedsnr" v="790266" />
	</node>
	<node id="-230938" lat="59.0968805534" lon="9.04715000234">
		<tag k="name" v="Bygdetunet" />
		<tag k="ssr:stedsnr" v="790101" />
		<tag k="tourism" v="attraction" />
	</node>
	<node id="-226200" lat="59.0161861132" lon="8.92939999592">
		<tag k="name" v="Tiggeren" />
		<tag k="place" v="locality" />
		<tag k="ssr:stedsnr" v="362279" />
	</node>
	<node id="-228628" lat="59.0525972256" lon="9.02804444174">
		<tag k="name" v="Morgesdalstua" />
		<tag k="place" v="locality" />
		<tag k="ssr:stedsnr" v="464862" />
	</node>
	<node id="-227591" lat="58.9591138889" lon="9.07807778268">
		<tag k="name" v="Teinelaget" />
		<tag k="place" v="locality" />
		<tag k="ssr:stedsnr" v="160871" />
	</node>
	<node id="-229462" lat="59.1244999984" lon="8.85669722381">
		<tag k="name" v="Herren Halvards grav" />
		<tag k="place" v="locality" />
		<tag k="ssr:stedsnr" v="586340" />
	</node>
	<node id="-227201" lat="58.9359250005" lon="9.06214445301">
		<tag k="name" v="Svarttjennskåtet" />
		<tag k="place" v="locality" />
		<tag k="ssr:stedsnr" v="100990" />
	</node>
</osm>
