<?xml version="1.0" encoding="UTF-8"?>
<osm generator="osmapis" version="0.6">
	<node id="-16893" lat="59.5754194411" lon="11.5024249925">
		<tag k="name" v="Masttjern" />
		<tag k="natural" v="water" />
		<tag k="ssr:stedsnr" v="873006" />
	</node>
	<node id="-16379" lat="59.5900249977" lon="11.4704944503">
		<tag k="alt_name" v="Sloretjern" />
		<tag k="name" v="Stortjern" />
		<tag k="natural" v="water" />
		<tag k="ssr:stedsnr" v="65434" />
	</node>
	<node id="-16373" lat="59.5765055536" lon="11.3467888808">
		<tag k="name" v="Trarabekken" />
		<tag k="ssr:stedsnr" v="64567" />
		<tag k="waterway" v="stream" />
	</node>
	<node id="-16213" lat="59.50161267" lon="11.4232610348">
		<tag k="fixme" v="multiple name tags, choose one and add the other to alt_name" />
		<tag k="name" v="Kroktjern;Krokvannet" />
		<tag k="natural" v="water" />
		<tag k="ssr:stedsnr" v="307670" />
	</node>
	<node id="-16873" lat="59.563294446" lon="11.480077782">
		<tag k="name" v="Skinnerudtjern" />
		<tag k="natural" v="water" />
		<tag k="ssr:stedsnr" v="853471" />
	</node>
	<node id="-16358" lat="59.5056833341" lon="11.5032972178">
		<tag k="name" v="Øksetjern" />
		<tag k="natural" v="water" />
		<tag k="ssr:stedsnr" v="51491" />
	</node>
	<node id="-16357" lat="59.5133027807" lon="11.5140638934">
		<tag k="name" v="Vesleputten" />
		<tag k="natural" v="water" />
		<tag k="ssr:stedsnr" v="51488" />
	</node>
	<node id="-16356" lat="59.4873111089" lon="11.5009138887">
		<tag k="name" v="Nordre Kjelen" />
		<tag k="natural" v="water" />
		<tag k="ssr:stedsnr" v="51429" />
	</node>
	<node id="-16865" lat="59.4831305555" lon="11.5378888839">
		<tag k="name" v="Svarttjern" />
		<tag k="natural" v="water" />
		<tag k="ssr:stedsnr" v="840418" />
	</node>
	<node id="-16863" lat="59.5044083328" lon="11.4129833276">
		<tag k="name" v="Lintjern" />
		<tag k="natural" v="water" />
		<tag k="ssr:stedsnr" v="840043" />
	</node>
	<node id="-16859" lat="59.4940749971" lon="11.465494445">
		<tag k="name" v="Bjørdalstjern" />
		<tag k="natural" v="water" />
		<tag k="ssr:stedsnr" v="839445" />
	</node>
	<node id="-16345" lat="59.5196277761" lon="11.4962416678">
		<tag k="name" v="Vesle Murttjern" />
		<tag k="natural" v="water" />
		<tag k="ssr:stedsnr" v="24275" />
	</node>
	<node id="-16853" lat="59.5417583358" lon="11.3310555481">
		<tag k="name" v="Bergbekken" />
		<tag k="ssr:stedsnr" v="812385" />
		<tag k="waterway" v="stream" />
	</node>
	<node id="-16849" lat="59.5139944435" lon="11.4972277718">
		<tag k="name" v="Ulvåstjern" />
		<tag k="natural" v="water" />
		<tag k="ssr:stedsnr" v="812328" />
	</node>
	<node id="-16846" lat="59.5017027788" lon="11.239188886">
		<tag k="name" v="Sørevja" />
		<tag k="natural" v="bay" />
		<tag k="ssr:stedsnr" v="811539" />
	</node>
	<node id="-16318" lat="59.5132777768" lon="11.4808055532">
		<tag k="name" v="Lomtjern" />
		<tag k="natural" v="water" />
		<tag k="ssr:stedsnr" v="4378" />
	</node>
	<node id="-16315" lat="59.4925453803" lon="11.4821093729">
		<tag k="name" v="Stålsvannet" />
		<tag k="natural" v="water" />
		<tag k="ssr:stedsnr" v="2592" />
	</node>
	<node id="-16314" lat="59.4850472267" lon="11.5056027762">
		<tag k="name" v="Midtre Kjelen" />
		<tag k="natural" v="water" />
		<tag k="ssr:stedsnr" v="2588" />
	</node>
	<node id="-16313" lat="59.4794111099" lon="11.5095111126">
		<tag k="name" v="Søndre Kjelen" />
		<tag k="natural" v="water" />
		<tag k="ssr:stedsnr" v="2582" />
	</node>
	<node id="-16813" lat="59.5116722219" lon="11.5188388885">
		<tag k="name" v="Gyrihellervika" />
		<tag k="natural" v="bay" />
		<tag k="ssr:stedsnr" v="779451" />
	</node>
	<node id="-16812" lat="59.4716916634" lon="11.5398555538">
		<tag k="name" v="Bergtjern" />
		<tag k="natural" v="water" />
		<tag k="ssr:stedsnr" v="779387" />
	</node>
	<node id="-16807" lat="59.5568083342" lon="11.2978833342">
		<tag k="name" v="Mysenelva" />
		<tag k="ssr:stedsnr" v="752349" />
		<tag k="waterway" v="river" />
	</node>
	<node id="-16803" lat="59.5113527744" lon="11.4885277748">
		<tag k="name" v="Store Hønntjern" />
		<tag k="natural" v="water" />
		<tag k="ssr:stedsnr" v="752259" />
	</node>
	<node id="-16800" lat="59.5277250004" lon="11.4993250065">
		<tag k="name" v="Vestre Hakatjern" />
		<tag k="natural" v="water" />
		<tag k="ssr:stedsnr" v="752012" />
	</node>
	<node id="-16287" lat="59.4905083335" lon="11.5228972251">
		<tag k="name" v="Søndre Asketjern" />
		<tag k="natural" v="water" />
		<tag k="ssr:stedsnr" v="475431" />
	</node>
	<node id="-16197" lat="59.4763583293" lon="11.4900555619">
		<tag k="name" v="Hommeln" />
		<tag k="natural" v="water" />
		<tag k="ssr:stedsnr" v="306550" />
	</node>
	<node id="-16278" lat="59.5291527762" lon="11.502538886">
		<tag k="name" v="Østre Hakatjern" />
		<tag k="natural" v="water" />
		<tag k="ssr:stedsnr" v="387336" />
	</node>
	<node id="-16276" lat="59.4932138906" lon="11.2642888975">
		<tag k="name" v="Tveitebekken" />
		<tag k="ssr:stedsnr" v="386531" />
		<tag k="waterway" v="stream" />
	</node>
	<node id="-16782" lat="59.5518166628" lon="11.285100006">
		<tag k="alt_name" v="Lekumåa" />
		<tag k="name" v="Lekumelva" />
		<tag k="ssr:stedsnr" v="732585" />
		<tag k="waterway" v="river" />
	</node>
	<node id="-16773" lat="59.503236114" lon="11.5068111135">
		<tag k="name" v="Lauvvann" />
		<tag k="natural" v="water" />
		<tag k="ssr:stedsnr" v="732383" />
	</node>
	<node id="-16770" lat="59.4749611137" lon="11.5343611163">
		<tag k="fixme" v="multiple name tags, choose one and add the other to alt_name" />
		<tag k="name" v="Askevannet;Myrtjern" />
		<tag k="natural" v="water" />
		<tag k="ssr:stedsnr" v="730632" />
	</node>
	<node id="-16767" lat="59.5032805574" lon="11.5286916756">
		<tag k="name" v="Steinsvannduplene" />
		<tag k="natural" v="water" />
		<tag k="ssr:stedsnr" v="718465" />
	</node>
	<node id="-16765" lat="59.4743222188" lon="11.5477694454">
		<tag k="name" v="Smaletjern" />
		<tag k="natural" v="water" />
		<tag k="ssr:stedsnr" v="718398" />
	</node>
	<node id="-16762" lat="59.4751805582" lon="11.5382638885">
		<tag k="name" v="Blankevann" />
		<tag k="natural" v="water" />
		<tag k="ssr:stedsnr" v="718393" />
	</node>
	<node id="-16761" lat="59.4721944412" lon="11.5486861044">
		<tag k="name" v="Vardetjern" />
		<tag k="natural" v="water" />
		<tag k="ssr:stedsnr" v="718391" />
	</node>
	<node id="-16760" lat="59.4822694473" lon="11.4407222156">
		<tag k="name" v="Furutjern" />
		<tag k="natural" v="water" />
		<tag k="ssr:stedsnr" v="718382" />
	</node>
	<node id="-16246" lat="59.5320722236" lon="11.4841722277">
		<tag k="alt_name" v="Damtjern, store" />
		<tag k="name" v="Store Damtjern" />
		<tag k="natural" v="water" />
		<tag k="ssr:stedsnr" v="367339" />
	</node>
	<node id="-16756" lat="59.5233277751" lon="11.2479666684">
		<tag k="name" v="Lekumfoss" />
		<tag k="natural" v="waterfall" />
		<tag k="ssr:stedsnr" v="691465" />
	</node>
	<node id="-16755" lat="59.5124027772" lon="11.2481499958">
		<tag k="name" v="Husebybekken" />
		<tag k="ssr:stedsnr" v="691466" />
		<tag k="waterway" v="stream" />
	</node>
	<node id="-16754" lat="59.5350333342" lon="11.2591944488">
		<tag k="name" v="Moensbekken" />
		<tag k="ssr:stedsnr" v="691458" />
		<tag k="waterway" v="stream" />
	</node>
	<node id="-16240" lat="59.4880555585" lon="11.4454138891">
		<tag k="name" v="Lomtjern" />
		<tag k="natural" v="water" />
		<tag k="ssr:stedsnr" v="354384" />
	</node>
	<node id="-16747" lat="59.5973194428" lon="11.4718361156">
		<tag k="name" v="Tangetjern" />
		<tag k="natural" v="water" />
		<tag k="ssr:stedsnr" v="691324" />
	</node>
	<node id="-16746" lat="59.5398388923" lon="11.5090972147">
		<tag k="name" v="Lintotjern" />
		<tag k="natural" v="water" />
		<tag k="ssr:stedsnr" v="691013" />
	</node>
	<node id="-16225" lat="59.5697888916" lon="11.4781777817">
		<tag k="name" v="Ørkentjern" />
		<tag k="natural" v="water" />
		<tag k="ssr:stedsnr" v="327279" />
	</node>
	<node id="-16221" lat="59.5233333353" lon="11.4100555564">
		<tag k="name" v="Lintjern" />
		<tag k="natural" v="water" />
		<tag k="ssr:stedsnr" v="307752" />
	</node>
	<node id="-16215" lat="59.5159351499" lon="11.2153371564">
		<tag k="name" v="Grønsund" />
		<tag k="natural" v="strait" />
		<tag k="ssr:stedsnr" v="307700" />
	</node>
	<node id="-16726" lat="59.524738889" lon="11.4872222283">
		<tag k="alt_name" v="Dalevann" />
		<tag k="name" v="Dalavannet" />
		<tag k="natural" v="water" />
		<tag k="ssr:stedsnr" v="671387" />
	</node>
	<node id="-16725" lat="59.49348889" lon="11.5057861184">
		<tag k="name" v="Kulevannet" />
		<tag k="natural" v="water" />
		<tag k="ssr:stedsnr" v="670542" />
		<tag k="water" v="lake" />
	</node>
	<node id="-16184" lat="59.5488305592" lon="11.5347083394">
		<tag k="name" v="Rundtjern" />
		<tag k="natural" v="water" />
		<tag k="ssr:stedsnr" v="293422" />
	</node>
	<node id="-16717" lat="59.4995499967" lon="11.5077916581">
		<tag k="name" v="Søndre Lauvvannet" />
		<tag k="natural" v="water" />
		<tag k="ssr:stedsnr" v="657465" />
	</node>
	<node id="-16716" lat="59.5194694464" lon="11.512877782">
		<tag k="name" v="Trosvik" />
		<tag k="natural" v="bay" />
		<tag k="ssr:stedsnr" v="657458" />
	</node>
	<node id="-16715" lat="59.489922223" lon="11.4685666695">
		<tag k="name" v="Bjørdalstjern" />
		<tag k="natural" v="water" />
		<tag k="ssr:stedsnr" v="657453" />
	</node>
	<node id="-16714" lat="59.4938055514" lon="11.4247361053">
		<tag k="name" v="Bikkjetjern" />
		<tag k="natural" v="water" />
		<tag k="ssr:stedsnr" v="657449" />
	</node>
	<node id="-16712" lat="59.479869442" lon="11.5461916726">
		<tag k="name" v="Blestjern" />
		<tag k="natural" v="water" />
		<tag k="ssr:stedsnr" v="657442" />
	</node>
	<node id="-16199" lat="59.5316555596" lon="11.5218833424">
		<tag k="name" v="Nøadammen" />
		<tag k="natural" v="water" />
		<tag k="ssr:stedsnr" v="307406" />
	</node>
	<node id="-16353" lat="59.4886583306" lon="11.4801694421">
		<tag k="name" v="Brutjern" />
		<tag k="natural" v="water" />
		<tag k="ssr:stedsnr" v="50419" />
	</node>
	<node id="-16195" lat="59.4835307626" lon="11.4892885516">
		<tag k="fixme" v="multiple name tags, choose one and add the other to alt_name" />
		<tag k="name" v="Store Basdal;Store Basdalsvannet" />
		<tag k="natural" v="water" />
		<tag k="ssr:stedsnr" v="306532" />
		<tag k="water" v="lake" />
	</node>
	<node id="-16704" lat="59.5265222182" lon="11.2705277783">
		<tag k="name" v="Skaltorpbekken" />
		<tag k="ssr:stedsnr" v="630392" />
		<tag k="waterway" v="stream" />
	</node>
	<node id="-16191" lat="59.4980499958" lon="11.4142750085">
		<tag k="name" v="Lintjern" />
		<tag k="natural" v="water" />
		<tag k="ssr:stedsnr" v="305035" />
	</node>
	<node id="-16188" lat="59.5008805561" lon="11.5222916688">
		<tag k="name" v="Hareputten" />
		<tag k="natural" v="water" />
		<tag k="ssr:stedsnr" v="294460" />
	</node>
	<node id="-16187" lat="59.4922194457" lon="11.4331194506">
		<tag k="name" v="Auretjern" />
		<tag k="natural" v="water" />
		<tag k="ssr:stedsnr" v="294454" />
	</node>
	<node id="-16697" lat="59.506319288" lon="11.4409320834">
		<tag k="name" v="Nordre Ertevannet" />
		<tag k="natural" v="water" />
		<tag k="ssr:stedsnr" v="630322" />
		<tag k="water" v="lake" />
	</node>
	<node id="-16696" lat="59.5925083315" lon="11.4918416688">
		<tag k="name" v="Nordre Rokovann" />
		<tag k="natural" v="water" />
		<tag k="ssr:stedsnr" v="630270" />
		<tag k="water" v="lake" />
	</node>
	<node id="-16694" lat="59.5119333343" lon="11.4333638915">
		<tag k="name" v="Svarttjern" />
		<tag k="natural" v="water" />
		<tag k="ssr:stedsnr" v="630008" />
	</node>
	<node id="-16691" lat="59.5221388892" lon="11.2317777781">
		<tag k="name" v="Lekumevja" />
		<tag k="natural" v="bay" />
		<tag k="ssr:stedsnr" v="610761" />
	</node>
	<node id="-16677" lat="59.5971666635" lon="11.480202782">
		<tag k="alt_name" v="Nøklevannet" />
		<tag k="name" v="Nøklevann" />
		<tag k="natural" v="water" />
		<tag k="ssr:stedsnr" v="610495" />
	</node>
	<node id="-16673" lat="59.4850472267" lon="11.5056027762">
		<tag k="name" v="Kjelene" />
		<tag k="natural" v="water" />
		<tag k="ssr:stedsnr" v="605895" />
	</node>
	<node id="-16671" lat="59.4926861095" lon="11.524119441">
		<tag k="name" v="Asketjern" />
		<tag k="natural" v="water" />
		<tag k="ssr:stedsnr" v="596401" />
	</node>
	<node id="-16663" lat="59.5546805592" lon="11.3198805616">
		<tag k="name" v="Spinnerifossen" />
		<tag k="natural" v="waterfall" />
		<tag k="ssr:stedsnr" v="569396" />
	</node>
	<node id="-16659" lat="59.5113499966" lon="11.4478722152">
		<tag k="name" v="Murttjern" />
		<tag k="natural" v="water" />
		<tag k="ssr:stedsnr" v="569346" />
	</node>
	<node id="-16657" lat="59.5072805572" lon="11.4340972178">
		<tag k="name" v="Viutjern" />
		<tag k="natural" v="water" />
		<tag k="ssr:stedsnr" v="569340" />
	</node>
	<node id="-16655" lat="59.5330611095" lon="11.1930833279">
		<tag k="name" v="Valdisholm" />
		<tag k="place" v="islet" />
		<tag k="ssr:stedsnr" v="569003" />
	</node>
	<node id="-16652" lat="59.5315583336" lon="11.3605361073">
		<tag k="name" v="Bølju" />
		<tag k="ssr:stedsnr" v="550735" />
		<tag k="waterway" v="stream" />
	</node>
	<node id="-16393" lat="59.5920166705" lon="11.4617861136">
		<tag k="name" v="Nestetjern" />
		<tag k="natural" v="water" />
		<tag k="ssr:stedsnr" v="84330" />
	</node>
	<node id="-16637" lat="59.5490777784" lon="11.4818277779">
		<tag k="alt_name" v="Lundebyvannet" />
		<tag k="name" v="Lundebytjern" />
		<tag k="natural" v="water" />
		<tag k="ssr:stedsnr" v="549446" />
		<tag k="water" v="lake" />
	</node>
	<node id="-16636" lat="59.5280746084" lon="11.5009753488">
		<tag k="name" v="Hakatjerna" />
		<tag k="natural" v="water" />
		<tag k="ssr:stedsnr" v="549390" />
		<tag k="water" v="lake" />
	</node>
	<node id="-16629" lat="59.4874527743" lon="11.4707888881">
		<tag k="name" v="Bjørndalstjern" />
		<tag k="natural" v="water" />
		<tag k="ssr:stedsnr" v="536377" />
	</node>
	<node id="-16627" lat="59.4959972208" lon="11.5230055493">
		<tag k="name" v="Steinstjern" />
		<tag k="natural" v="water" />
		<tag k="ssr:stedsnr" v="535437" />
	</node>
	<node id="-16621" lat="59.5185972348" lon="11.5025245533">
		<tag k="name" v="Store Murttjern" />
		<tag k="natural" v="water" />
		<tag k="ssr:stedsnr" v="509295" />
		<tag k="water" v="lake" />
	</node>
	<node id="-16618" lat="59.5528361098" lon="11.5128694411">
		<tag k="name" v="Moentjern" />
		<tag k="natural" v="water" />
		<tag k="ssr:stedsnr" v="509280" />
	</node>
	<node id="-16598" lat="59.571324998" lon="11.499758326">
		<tag k="name" v="Hakatjerna" />
		<tag k="natural" v="water" />
		<tag k="ssr:stedsnr" v="489516" />
	</node>
	<node id="-16589" lat="59.5384722243" lon="11.349819447">
		<tag k="name" v="Holmebekken" />
		<tag k="ssr:stedsnr" v="449353" />
		<tag k="waterway" v="stream" />
	</node>
	<node id="-16552" lat="59.4831166697" lon="11.5228555642">
		<tag k="name" v="Røstevannet" />
		<tag k="natural" v="water" />
		<tag k="ssr:stedsnr" v="427595" />
	</node>
	<node id="-16548" lat="59.4985611076" lon="11.4715138842">
		<tag k="name" v="Midtre Bustein" />
		<tag k="natural" v="water" />
		<tag k="ssr:stedsnr" v="415485" />
	</node>
	<node id="-16547" lat="59.5001833361" lon="11.4703777807">
		<tag k="name" v="Nordre Bustein" />
		<tag k="natural" v="water" />
		<tag k="ssr:stedsnr" v="415482" />
	</node>
	<node id="-16546" lat="59.4964888932" lon="11.439822224">
		<tag k="name" v="Furutjern" />
		<tag k="natural" v="water" />
		<tag k="ssr:stedsnr" v="415466" />
	</node>
	<node id="-16545" lat="59.4884277754" lon="11.5353527851">
		<tag k="name" v="Østre Rundtjern" />
		<tag k="natural" v="water" />
		<tag k="ssr:stedsnr" v="415462" />
	</node>
	<node id="-16544" lat="59.5543583375" lon="11.5327166631">
		<tag k="name" v="Korstjern" />
		<tag k="natural" v="water" />
		<tag k="ssr:stedsnr" v="415412" />
	</node>
	<node id="-16541" lat="59.4888527801" lon="11.4727277765">
		<tag k="name" v="Sauetjern" />
		<tag k="natural" v="water" />
		<tag k="ssr:stedsnr" v="414432" />
	</node>
	<node id="-16534" lat="59.4980249957" lon="11.2454027766">
		<tag k="name" v="Lysakermoene" />
		<tag k="natural" v="bay" />
		<tag k="ssr:stedsnr" v="265560" />
	</node>
	<node id="-16529" lat="59.5220995324" lon="11.4216103561">
		<tag k="alt_name" v="Visterbekken" />
		<tag k="name" v="Dugla" />
		<tag k="ssr:stedsnr" v="247481" />
		<tag k="waterway" v="stream" />
	</node>
	<node id="-16520" lat="59.5419777815" lon="11.5362250028">
		<tag k="alt_name" v="Trollbærtjern" />
		<tag k="name" v="Trollebergtjern" />
		<tag k="natural" v="water" />
		<tag k="ssr:stedsnr" v="246433" />
	</node>
	<node id="-16517" lat="59.5168083336" lon="11.5153138877">
		<tag k="alt_name" v="Steinsvann" />
		<tag k="name" v="Steinsvannet" />
		<tag k="natural" v="water" />
		<tag k="ssr:stedsnr" v="246380" />
		<tag k="water" v="lake" />
	</node>
	<node id="-16513" lat="59.4848176824" lon="11.4363147731">
		<tag k="name" v="Langard" />
		<tag k="natural" v="water" />
		<tag k="ssr:stedsnr" v="245059" />
		<tag k="water" v="lake" />
	</node>
	<node id="-16508" lat="59.5183722259" lon="11.5176055617">
		<tag k="name" v="Setervika" />
		<tag k="natural" v="bay" />
		<tag k="ssr:stedsnr" v="233473" />
	</node>
	<node id="-16507" lat="59.5288083311" lon="11.5252111083">
		<tag k="name" v="Nøatjern" />
		<tag k="natural" v="water" />
		<tag k="ssr:stedsnr" v="233471" />
	</node>
	<node id="-16506" lat="59.4930166687" lon="11.4395555546">
		<tag k="name" v="Slottstjerna" />
		<tag k="natural" v="water" />
		<tag k="ssr:stedsnr" v="233464" />
	</node>
	<node id="-16503" lat="59.4864777756" lon="11.4852722175">
		<tag k="name" v="Vesle Basdal" />
		<tag k="natural" v="water" />
		<tag k="ssr:stedsnr" v="233401" />
	</node>
	<node id="-16494" lat="59.5147305533" lon="11.4581694497">
		<tag k="name" v="Asketjern" />
		<tag k="natural" v="water" />
		<tag k="ssr:stedsnr" v="206317" />
	</node>
	<node id="-16797" lat="59.5207527744" lon="11.4881416648">
		<tag k="name" v="Setertjern" />
		<tag k="natural" v="water" />
		<tag k="ssr:stedsnr" v="751341" />
	</node>
	<node id="-16489" lat="59.5082055512" lon="11.4662055577">
		<tag k="name" v="Merratjern" />
		<tag k="natural" v="water" />
		<tag k="ssr:stedsnr" v="206287" />
	</node>
	<node id="-16487" lat="59.5045749972" lon="11.2368916603">
		<tag k="name" v="Djupingen" />
		<tag k="natural" v="bay" />
		<tag k="ssr:stedsnr" v="204501" />
	</node>
	<node id="-16478" lat="59.5003916667" lon="11.4454583364">
		<tag k="alt_name" v="Midtre Ertevann" />
		<tag k="name" v="Midtre Ertevannet" />
		<tag k="natural" v="water" />
		<tag k="ssr:stedsnr" v="186688" />
	</node>
	<node id="-16471" lat="59.5932194436" lon="11.4912361191">
		<tag k="name" v="Rokovann" />
		<tag k="natural" v="water" />
		<tag k="ssr:stedsnr" v="186497" />
	</node>
	<node id="-16470" lat="59.5843472227" lon="11.4972027849">
		<tag k="name" v="Bergvannet" />
		<tag k="natural" v="water" />
		<tag k="ssr:stedsnr" v="186496" />
	</node>
	<node id="-16464" lat="59.4933916656" lon="11.4517194527">
		<tag k="alt_name" v="Søndre Ertevann" />
		<tag k="name" v="Søndre Ertevannet" />
		<tag k="natural" v="water" />
		<tag k="ssr:stedsnr" v="184030" />
	</node>
	<node id="-16460" lat="59.4988805591" lon="11.5141388923">
		<tag k="name" v="Svarttjern" />
		<tag k="natural" v="water" />
		<tag k="ssr:stedsnr" v="172468" />
	</node>
	<node id="-16459" lat="59.5540777776" lon="11.5370666725">
		<tag k="name" v="Lille Korstjern" />
		<tag k="natural" v="water" />
		<tag k="ssr:stedsnr" v="172394" />
	</node>
	<node id="-16457" lat="59.4916916706" lon="11.4175694432">
		<tag k="name" v="Igletjern" />
		<tag k="natural" v="water" />
		<tag k="ssr:stedsnr" v="172448" />
	</node>
	<node id="-16456" lat="59.4800805523" lon="11.5139944494">
		<tag k="name" v="Storetjæra" />
		<tag k="ssr:stedsnr" v="172446" />
		<tag k="waterway" v="river" />
	</node>
	<node id="-16454" lat="59.565513887" lon="11.5254805582">
		<tag k="name" v="Svarttjern" />
		<tag k="natural" v="water" />
		<tag k="ssr:stedsnr" v="172415" />
	</node>
	<node id="-16453" lat="59.483161108" lon="11.428511106">
		<tag k="name" v="Glørudtjern" />
		<tag k="natural" v="water" />
		<tag k="ssr:stedsnr" v="172372" />
	</node>
	<node id="-16443" lat="59.5398527787" lon="11.3196194394">
		<tag k="name" v="Skjørtorpbekken" />
		<tag k="ssr:stedsnr" v="145330" />
		<tag k="waterway" v="stream" />
	</node>
	<node id="-16441" lat="59.5097333372" lon="11.431977785">
		<tag k="name" v="Skimmeltjern" />
		<tag k="natural" v="water" />
		<tag k="ssr:stedsnr" v="145318" />
	</node>
	<node id="-16440" lat="59.5115882523" lon="11.4262004386">
		<tag k="name" v="Askevannet" />
		<tag k="natural" v="water" />
		<tag k="ssr:stedsnr" v="145319" />
		<tag k="water" v="lake" />
	</node>
	<node id="-16438" lat="59.5897694429" lon="11.4413611036">
		<tag k="name" v="Dalselva" />
		<tag k="ssr:stedsnr" v="145295" />
		<tag k="waterway" v="river" />
	</node>
	<node id="-16437" lat="59.5256184698" lon="11.4973654758">
		<tag k="name" v="Rokovannet" />
		<tag k="natural" v="water" />
		<tag k="ssr:stedsnr" v="145288" />
		<tag k="water" v="lake" />
	</node>
	<node id="-16945" lat="59.4952722237" lon="11.4734638945">
		<tag k="name" v="Søndre Bustein" />
		<tag k="natural" v="water" />
		<tag k="ssr:stedsnr" v="961460" />
	</node>
	<node id="-16944" lat="59.5061111125" lon="11.4594805569">
		<tag k="name" v="Skjærtjern" />
		<tag k="natural" v="water" />
		<tag k="ssr:stedsnr" v="961459" />
	</node>
	<node id="-16943" lat="59.5647805538" lon="11.5154583265">
		<tag k="name" v="Borgåstjern" />
		<tag k="natural" v="water" />
		<tag k="ssr:stedsnr" v="961418" />
	</node>
	<node id="-16942" lat="59.4806222205" lon="11.4780777713">
		<tag k="name" v="Bjellekutjern" />
		<tag k="natural" v="water" />
		<tag k="ssr:stedsnr" v="961385" />
	</node>
	<node id="-16940" lat="59.482069441" lon="11.4694583403">
		<tag k="name" v="Vestbykjelen" />
		<tag k="natural" v="water" />
		<tag k="ssr:stedsnr" v="961378" />
	</node>
	<node id="-16939" lat="59.4858138863" lon="11.4543472273">
		<tag k="name" v="Mattjern" />
		<tag k="natural" v="water" />
		<tag k="ssr:stedsnr" v="961376" />
	</node>
	<node id="-16938" lat="59.488958337" lon="11.4293166599">
		<tag k="name" v="Sagduplene" />
		<tag k="natural" v="water" />
		<tag k="ssr:stedsnr" v="961373" />
	</node>
	<node id="-16930" lat="59.5458222205" lon="11.4995472147">
		<tag k="name" v="Slepatjern (Sevtjern)" />
		<tag k="natural" v="water" />
		<tag k="ssr:stedsnr" v="934291" />
	</node>
	<node id="-16929" lat="59.5118899654" lon="11.5027099921">
		<tag k="name" v="Blankevanna" />
		<tag k="natural" v="water" />
		<tag k="ssr:stedsnr" v="934266" />
		<tag k="water" v="lake" />
	</node>
	<node id="-16416" lat="59.4969249981" lon="11.4929138942">
		<tag k="name" v="Jonsvannet" />
		<tag k="natural" v="water" />
		<tag k="ssr:stedsnr" v="123925" />
	</node>
	<node id="-16185" lat="59.474830559" lon="11.3589805594">
		<tag k="name" v="Vesterbybekken" />
		<tag k="ssr:stedsnr" v="294244" />
		<tag k="waterway" v="stream" />
	</node>
	<node id="-16409" lat="59.4824305535" lon="11.543363892">
		<tag k="name" v="Bergstutjern" />
		<tag k="natural" v="water" />
		<tag k="ssr:stedsnr" v="112443" />
	</node>
	<node id="-16407" lat="59.4878277819" lon="11.4945916743">
		<tag k="name" v="Enebærhølet" />
		<tag k="natural" v="water" />
		<tag k="ssr:stedsnr" v="111420" />
	</node>
	<node id="-16405" lat="59.4887249962" lon="11.5319666595">
		<tag k="name" v="Vestre Rundtjern" />
		<tag k="natural" v="water" />
		<tag k="ssr:stedsnr" v="111406" />
	</node>
	<node id="-16404" lat="59.562886115" lon="11.522877785">
		<tag k="name" v="Merratjern" />
		<tag k="natural" v="water" />
		<tag k="ssr:stedsnr" v="111385" />
	</node>
	<node id="-16403" lat="59.4845916699" lon="11.4715694477">
		<tag k="name" v="Bjørndalstjern" />
		<tag k="natural" v="water" />
		<tag k="ssr:stedsnr" v="112395" />
	</node>
	<node id="-16908" lat="59.5028888893" lon="11.5010055573">
		<tag k="name" v="Tvillingtjern" />
		<tag k="natural" v="water" />
		<tag k="ssr:stedsnr" v="901458" />
	</node>
	<node id="-16395" lat="59.5101972228" lon="11.4724833365">
		<tag k="name" v="Sauetjern" />
		<tag k="natural" v="water" />
		<tag k="ssr:stedsnr" v="84358" />
	</node>
	<node id="-16727" lat="59.5346083293" lon="11.4821472298">
		<tag k="alt_name" v="Damtjern, lille;Damtjern, l" />
		<tag k="name" v="Lille Damtjern" />
		<tag k="natural" v="water" />
		<tag k="ssr:stedsnr" v="671391" />
	</node>
	<node id="-16392" lat="59.5075722246" lon="11.4902611095">
		<tag k="name" v="Vesle Hønntjern" />
		<tag k="natural" v="water" />
		<tag k="ssr:stedsnr" v="84316" />
	</node>
	<node id="-16389" lat="59.5944305529" lon="11.4730833326">
		<tag k="name" v="Huldretjern" />
		<tag k="natural" v="water" />
		<tag k="ssr:stedsnr" v="84004" />
	</node>
	<node id="-16900" lat="59.5138222193" lon="11.4458222135">
		<tag k="name" v="Lintjern" />
		<tag k="natural" v="water" />
		<tag k="ssr:stedsnr" v="873358" />
	</node>
	<node id="-16387" lat="59.5134153067" lon="11.4381051208">
		<tag k="fixme" v="multiple name tags, choose one and add the other to alt_name" />
		<tag k="name" v="Grinilangevannet;Langvannet" />
		<tag k="natural" v="water" />
		<tag k="ssr:stedsnr" v="65696" />
	</node>
	<node id="-16897" lat="59.5448222221" lon="11.5044750046">
		<tag k="name" v="Engatjern" />
		<tag k="natural" v="water" />
		<tag k="ssr:stedsnr" v="873331" />
	</node>
</osm>
