<?xml version="1.0" encoding="UTF-8"?>
<osm generator="osmapis" version="0.6">
	<node id="-16256" lat="59.5789166673" lon="11.465800006">
		<tag k="name" v="Sagstuen" />
		<tag k="place" v="locality" />
		<tag k="ssr:stedsnr" v="387346" />
	</node>
	<node id="-16254" lat="59.5893861155" lon="11.4918416608">
		<tag k="name" v="Kølabånn" />
		<tag k="place" v="locality" />
		<tag k="ssr:stedsnr" v="387306" />
	</node>
	<node id="-16379" lat="59.5609694419" lon="11.263213885">
		<tag k="name" v="Tenor kirkeruin" />
		<tag k="place" v="locality" />
		<tag k="ssr:stedsnr" v="84434" />
	</node>
	<node id="-16378" lat="59.5517972216" lon="11.3359583353">
		<tag k="name" v="Heggin" />
		<tag k="place" v="locality" />
		<tag k="ssr:stedsnr" v="84401" />
	</node>
	<node id="-16424" lat="59.5456805542" lon="11.3250777763">
		<tag k="name" v="Flaten" />
		<tag k="place" v="locality" />
		<tag k="ssr:stedsnr" v="145339" />
	</node>
	<node id="-16489" lat="59.5359000024" lon="11.5254944425">
		<tag k="name" v="Skjæla" />
		<tag k="place" v="locality" />
		<tag k="ssr:stedsnr" v="233501" />
	</node>
	<node id="-16744" lat="59.484775004" lon="11.5108805543">
		<tag k="name" v="Kulevannsaga" />
		<tag k="place" v="locality" />
		<tag k="ssr:stedsnr" v="718397" />
	</node>
	<node id="-16870" lat="59.5191750042" lon="11.2569888803">
		<tag k="amenity" v="place_of_worship" />
		<tag k="denomination" v="lutheran" />
		<tag k="name" v="Eidsberg kirke" />
		<tag k="religion" v="christian" />
		<tag k="ssr:stedsnr" v="854723" />
	</node>
	<node id="-16608" lat="59.4668361093" lon="11.3792361044">
		<tag k="name" v="Finnehuset" />
		<tag k="place" v="locality" />
		<tag k="ssr:stedsnr" v="536249" />
	</node>
	<node id="-16731" lat="59.553708335" lon="11.3300500072">
		<tag k="amenity" v="place_of_worship" />
		<tag k="denomination" v="lutheran" />
		<tag k="name" v="Mysen kirke" />
		<tag k="religion" v="christian" />
		<tag k="ssr:stedsnr" v="691408" />
	</node>
	<node id="-16330" lat="59.5282916644" lon="11.2638055577">
		<tag k="name" v="Grøpopp" />
		<tag k="place" v="locality" />
		<tag k="ssr:stedsnr" v="24400" />
	</node>
	<node id="-16710" lat="59.5528166631" lon="11.4042499957">
		<tag k="amenity" v="place_of_worship" />
		<tag k="denomination" v="lutheran" />
		<tag k="name" v="Hærland kirke" />
		<tag k="religion" v="christian" />
		<tag k="ssr:stedsnr" v="671542" />
	</node>
	<node id="-16836" lat="59.5263972239" lon="11.2640916676">
		<tag k="name" v="Morkampen" />
		<tag k="place" v="locality" />
		<tag k="ssr:stedsnr" v="812446" />
	</node>
	<node id="-16693" lat="59.4868916659" lon="11.5269527751">
		<tag k="name" v="Oberstløytnantposten" />
		<tag k="place" v="locality" />
		<tag k="ssr:stedsnr" v="657444" />
	</node>
	<node id="-16435" lat="59.4893249985" lon="11.5182333339">
		<tag k="name" v="Trengselvollen" />
		<tag k="place" v="locality" />
		<tag k="ssr:stedsnr" v="172442" />
	</node>
	<node id="-16561" lat="59.510222224" lon="11.2868638887">
		<tag k="name" v="Harkopp" />
		<tag k="place" v="locality" />
		<tag k="ssr:stedsnr" v="448426" />
	</node>
	<node id="-16303" lat="59.5439999997" lon="11.2200805593">
		<tag k="amenity" v="community_centre" />
		<tag k="name" v="Hoie" />
		<tag k="ssr:stedsnr" v="4549" />
	</node>
	<node id="-16685" lat="59.5135138902" lon="11.2623666605">
		<tag k="name" v="Hurva" />
		<tag k="place" v="locality" />
		<tag k="ssr:stedsnr" v="630439" />
	</node>
	<node id="-16680" lat="59.5483027781" lon="11.3343194482">
		<tag k="name" v="Bjerkelunden" />
		<tag k="place" v="locality" />
		<tag k="ssr:stedsnr" v="630351" />
	</node>
	<node id="-16219" lat="59.4801166687" lon="11.5148277709">
		<tag k="name" v="Tjærbuvollen" />
		<tag k="place" v="locality" />
		<tag k="ssr:stedsnr" v="354437" />
	</node>
	<node id="-16790" lat="59.5266861125" lon="11.2499611171">
		<tag k="name" v="Kantskjærhytta" />
		<tag k="place" v="locality" />
		<tag k="ssr:stedsnr" v="752426" />
	</node>
	<node id="-16912" lat="59.5470777805" lon="11.3392833319">
		<tag k="name" v="Mysenhagen" />
		<tag k="place" v="locality" />
		<tag k="ssr:stedsnr" v="934327" />
	</node>
	<node id="-16781" lat="59.5537638901" lon="11.481533327">
		<tag k="name" v="Moseby" />
		<tag k="place" v="locality" />
		<tag k="ssr:stedsnr" v="752224" />
	</node>
	<node id="-16520" lat="59.5234722233" lon="11.2390444364">
		<tag k="name" v="Dananeset" />
		<tag k="place" v="locality" />
		<tag k="ssr:stedsnr" v="266476" />
	</node>
	<node id="-16390" lat="59.5109805544" lon="11.5105500076">
		<tag k="name" v="Gyrihelleren" />
		<tag k="place" v="locality" />
		<tag k="ssr:stedsnr" v="112459" />
	</node>
	<node id="-16406" lat="59.5059583362" lon="11.3585027728">
		<tag k="amenity" v="place_of_worship" />
		<tag k="denomination" v="lutheran" />
		<tag k="name" v="Trømborg kirke" />
		<tag k="religion" v="christian" />
		<tag k="ssr:stedsnr" v="125672" />
	</node>
</osm>
