<?xml version="1.0" encoding="UTF-8"?>
<osm generator="osmapis" version="0.6">
	<node id="-16758" lat="59.5608138898" lon="11.3614777772">
		<tag k="bridge" v="yes" />
		<tag k="layer" v="1" />
		<tag k="name" v="Rustad" />
		<tag k="ssr:stedsnr" v="713495" />
	</node>
	<node id="-16757" lat="59.5519750022" lon="11.4456333328">
		<tag k="bridge" v="yes" />
		<tag k="layer" v="1" />
		<tag k="name" v="Løken" />
		<tag k="ssr:stedsnr" v="713492" />
	</node>
	<node id="-16500" lat="59.538783331" lon="11.5102277786">
		<tag k="bridge" v="yes" />
		<tag k="layer" v="1" />
		<tag k="loc_name" v="Linto" />
		<tag k="name" v="Lintho" />
		<tag k="ssr:stedsnr" v="227483" />
	</node>
	<node id="-16626" lat="59.4936777786" lon="11.2580888944">
		<tag k="bridge" v="yes" />
		<tag k="layer" v="1" />
		<tag k="name" v="Tveten" />
		<tag k="ssr:stedsnr" v="531513" />
	</node>
	<node id="-16237" lat="59.5297916658" lon="11.2422805531">
		<tag k="bridge" v="yes" />
		<tag k="layer" v="1" />
		<tag k="name" v="Haga" />
		<tag k="ssr:stedsnr" v="348520" />
	</node>
	<node id="-16402" lat="59.5397861109" lon="11.5381083354">
		<tag k="bridge" v="yes" />
		<tag k="layer" v="1" />
		<tag k="name" v="Slesvig" />
		<tag k="ssr:stedsnr" v="107490" />
	</node>
	<node id="-16231" lat="59.5474944431" lon="11.3364805467">
		<tag k="ford" v="yes" />
		<tag k="name" v="Lauvnesvadet" />
		<tag k="place" v="locality" />
		<tag k="ssr:stedsnr" v="327349" />
	</node>
	<node id="-16401" lat="59.5399583345" lon="11.5266194392">
		<tag k="bridge" v="yes" />
		<tag k="layer" v="1" />
		<tag k="name" v="Jorderuddalen" />
		<tag k="ssr:stedsnr" v="106530" />
	</node>
	<node id="-16349" lat="59.5472555559" lon="11.3508499933">
		<tag k="highway" v="path" />
		<tag k="name" v="Kjærlighetsstien" />
		<tag k="ssr:stedsnr" v="24357" />
	</node>
	<node id="-16858" lat="59.545311108" lon="11.3166416635">
		<tag k="bridge" v="yes" />
		<tag k="layer" v="1" />
		<tag k="name" v="Flaten" />
		<tag k="ssr:stedsnr" v="834546" />
	</node>
	<node id="-16591" lat="59.5576027754" lon="11.3727138942">
		<tag k="bridge" v="yes" />
		<tag k="layer" v="1" />
		<tag k="name" v="Ramstad" />
		<tag k="ssr:stedsnr" v="471492" />
	</node>
	<node id="-16425" lat="59.5600000021" lon="11.375094445">
		<tag k="junction" v="yes" />
		<tag k="name" v="Rova" />
		<tag k="place" v="locality" />
		<tag k="ssr:stedsnr" v="125593" />
	</node>
	<node id="-16710" lat="59.5523472185" lon="11.4243833263">
		<tag k="bridge" v="yes" />
		<tag k="layer" v="1" />
		<tag k="name" v="Framgangen" />
		<tag k="ssr:stedsnr" v="652538" />
	</node>
	<node id="-16709" lat="59.5530222244" lon="11.4224527731">
		<tag k="bridge" v="yes" />
		<tag k="layer" v="1" />
		<tag k="name" v="Berger" />
		<tag k="ssr:stedsnr" v="652535" />
	</node>
	<node id="-16708" lat="59.580236115" lon="11.2615833251">
		<tag k="bridge" v="yes" />
		<tag k="layer" v="1" />
		<tag k="name" v="Øyerud" />
		<tag k="ssr:stedsnr" v="652474" />
	</node>
	<node id="-16707" lat="59.540463888" lon="11.2624194468">
		<tag k="bridge" v="yes" />
		<tag k="layer" v="1" />
		<tag k="name" v="Moen" />
		<tag k="ssr:stedsnr" v="652466" />
	</node>
	<node id="-16706" lat="59.5393249996" lon="11.5183666657">
		<tag k="bridge" v="yes" />
		<tag k="layer" v="1" />
		<tag k="name" v="Nordre Svarverud" />
		<tag k="ssr:stedsnr" v="652464" />
	</node>
	<node id="-16449" lat="59.5668305586" lon="11.2596361175">
		<tag k="bridge" v="yes" />
		<tag k="layer" v="1" />
		<tag k="name" v="Slitu" />
		<tag k="ssr:stedsnr" v="167517" />
	</node>
	<node id="-16182" lat="59.5499027751" lon="11.3518194527">
		<tag k="bridge" v="yes" />
		<tag k="layer" v="1" />
		<tag k="name" v="Susebakke" />
		<tag k="ssr:stedsnr" v="289507" />
	</node>
	<node id="-16181" lat="59.5473972202" lon="11.3487444528">
		<tag k="bridge" v="yes" />
		<tag k="layer" v="1" />
		<tag k="name" v="Mysen" />
		<tag k="ssr:stedsnr" v="289502" />
	</node>
	<node id="-16302" lat="59.5537885241" lon="11.3242290468">
		<tag k="name" v="Mysen stasjon" />
		<tag k="railway" v="station" />
		<tag k="ssr:stedsnr" v="990084" />
		<tag k="train" v="yes" />
	</node>
	<node id="-16811" lat="59.5545638887" lon="11.3932111187">
		<tag k="bridge" v="yes" />
		<tag k="layer" v="1" />
		<tag k="name" v="Vister" />
		<tag k="ssr:stedsnr" v="774530" />
	</node>
	<node id="-16937" lat="59.473997218" lon="11.329877774">
		<tag k="alt_name" v="Heia" />
		<tag k="name" v="Heia stasjon" />
		<tag k="railway" v="station" />
		<tag k="ssr:stedsnr" v="961262" />
		<tag k="train" v="yes" />
	</node>
	<node id="-16295" lat="59.5456166651" lon="11.4924750002">
		<tag k="bridge" v="yes" />
		<tag k="layer" v="1" />
		<tag k="name" v="Lundeby" />
		<tag k="ssr:stedsnr" v="896498" />
	</node>
	<node id="-16294" lat="59.5847305529" lon="11.4056638896">
		<tag k="bridge" v="yes" />
		<tag k="layer" v="1" />
		<tag k="name" v="Åsengen" />
		<tag k="ssr:stedsnr" v="896512" />
	</node>
	<node id="-16667" lat="59.5740166697" lon="11.2881277868">
		<tag k="bridge" v="yes" />
		<tag k="layer" v="1" />
		<tag k="name" v="Brennemoen" />
		<tag k="ssr:stedsnr" v="591531" />
	</node>
	<node id="-16670" lat="59.5690277743" lon="11.3170777855">
		<tag k="bridge" v="yes" />
		<tag k="layer" v="1" />
		<tag k="name" v="Mona" />
		<tag k="ssr:stedsnr" v="592518" />
	</node>
	<node id="-16669" lat="59.5389555515" lon="11.5139111133">
		<tag k="bridge" v="yes" />
		<tag k="layer" v="1" />
		<tag k="loc_name" v="Lintoveien" />
		<tag k="name" v="Linthoveien" />
		<tag k="ssr:stedsnr" v="592510" />
	</node>
	<node id="-16668" lat="59.5765333331" lon="11.2814722166">
		<tag k="bridge" v="yes" />
		<tag k="layer" v="1" />
		<tag k="name" v="Brødremoen" />
		<tag k="ssr:stedsnr" v="591530" />
	</node>
	<node id="-16283" lat="59.523030557" lon="11.2485361189">
		<tag k="bridge" v="yes" />
		<tag k="layer" v="1" />
		<tag k="name" v="Lekum" />
		<tag k="ssr:stedsnr" v="409532" />
	</node>
	<node id="-16922" lat="59.5134222255" lon="11.3037499986">
		<tag k="alt_name" v="Eidsberg" />
		<tag k="name" v="Eidsberg stasjon" />
		<tag k="railway" v="station" />
		<tag k="ssr:stedsnr" v="914731" />
		<tag k="train" v="yes" />
	</node>
	<node id="-16452" lat="59.6018055522" lon="11.42095277">
		<tag k="bridge" v="yes" />
		<tag k="layer" v="1" />
		<tag k="name" v="Buer" />
		<tag k="ssr:stedsnr" v="167596" />
	</node>
	<node id="-16786" lat="59.5668714056" lon="11.261809711">
		<tag k="alt_name" v="Slitu" />
		<tag k="name" v="Slitu holdeplass" />
		<tag k="railway" v="halt" />
		<tag k="ssr:stedsnr" v="732622" />
		<tag k="train" v="yes" />
	</node>
	<node id="-16451" lat="59.5392388873" lon="11.5006416641">
		<tag k="bridge" v="yes" />
		<tag k="layer" v="1" />
		<tag k="name" v="Slorebymosen" />
		<tag k="ssr:stedsnr" v="167526" />
	</node>
	<node id="-16450" lat="59.5455999974" lon="11.4651944438">
		<tag k="bridge" v="yes" />
		<tag k="layer" v="1" />
		<tag k="name" v="Tangen" />
		<tag k="ssr:stedsnr" v="167521" />
	</node>
</osm>
