<?xml version="1.0" encoding="UTF-8"?>
<osm generator="osmapis" version="0.6">
	<node id="-16383" lat="59.5575555536" lon="11.3385722262">
		<tag k="name" v="Høgli" />
		<tag k="place" v="isolated_dwelling" />
		<tag k="ssr:stedsnr" v="65532" />
	</node>
	<node id="-16382" lat="59.5556611114" lon="11.2188305577">
		<tag k="name" v="Knarterud" />
		<tag k="old_name" v="Knatterud" />
		<tag k="place" v="farm" />
		<tag k="ssr:stedsnr" v="65529" />
	</node>
	<node id="-16381" lat="59.5596916694" lon="11.4558444517">
		<tag k="name" v="Spaniland" />
		<tag k="place" v="farm" />
		<tag k="ssr:stedsnr" v="65521" />
	</node>
	<node id="-16380" lat="59.5425166632" lon="11.3309611096">
		<tag k="alt_name" v="Volden" />
		<tag k="name" v="Vollen" />
		<tag k="place" v="farm" />
		<tag k="ssr:stedsnr" v="65489" />
	</node>
	<node id="-16378" lat="59.5796527803" lon="11.4726555527">
		<tag k="alt_name" v="Hedemarken øvre;Hedemarken" />
		<tag k="name" v="Øvre Hedemarken" />
		<tag k="place" v="farm" />
		<tag k="ssr:stedsnr" v="65432" />
	</node>
	<node id="-16376" lat="59.5234111106" lon="11.2906527775">
		<tag k="name" v="Mortvet" />
		<tag k="place" v="farm" />
		<tag k="ssr:stedsnr" v="64731" />
	</node>
	<node id="-16375" lat="59.5807249982" lon="11.2405666603">
		<tag k="name" v="Skakstad" />
		<tag k="place" v="farm" />
		<tag k="ssr:stedsnr" v="64595" />
	</node>
	<node id="-16374" lat="59.5948249991" lon="11.3891583391">
		<tag k="alt_name" v="Skavdalen" />
		<tag k="name" v="Skogdalen" />
		<tag k="place" v="farm" />
		<tag k="ssr:stedsnr" v="64581" />
	</node>
	<node id="-16372" lat="59.5732833342" lon="11.267180548">
		<tag k="alt_name" v="Sletner nordre;Sletner" />
		<tag k="name" v="Nordre Sletner" />
		<tag k="place" v="farm" />
		<tag k="ssr:stedsnr" v="64560" />
	</node>
	<node id="-16371" lat="59.5361277817" lon="11.3291055475">
		<tag k="name" v="Berg" />
		<tag k="place" v="farm" />
		<tag k="ssr:stedsnr" v="64523" />
	</node>
	<node id="-16370" lat="59.5358749992" lon="11.3346416615">
		<tag k="name" v="Holt" />
		<tag k="place" v="farm" />
		<tag k="ssr:stedsnr" v="64518" />
	</node>
	<node id="-16369" lat="59.5428750037" lon="11.2331694411">
		<tag k="name" v="Stensrud" />
		<tag k="place" v="farm" />
		<tag k="ssr:stedsnr" v="64512" />
	</node>
	<node id="-16368" lat="59.5412277804" lon="11.4507138854">
		<tag k="name" v="Østby" />
		<tag k="place" v="farm" />
		<tag k="ssr:stedsnr" v="64501" />
	</node>
	<node id="-16367" lat="59.4933944431" lon="11.3049111146">
		<tag k="alt_name" v="Tutteren" />
		<tag k="name" v="Tutturen" />
		<tag k="place" v="farm" />
		<tag k="ssr:stedsnr" v="63098" />
	</node>
	<node id="-16366" lat="59.494727775" lon="11.3882472186">
		<tag k="alt_name" v="Rud nordre" />
		<tag k="name" v="Nordre Rud" />
		<tag k="place" v="farm" />
		<tag k="ssr:stedsnr" v="63093" />
	</node>
	<node id="-16365" lat="59.4841305576" lon="11.4521777842">
		<tag k="alt_name" v="Sørbysæter;Sørbyseter" />
		<tag k="name" v="Sørbysetra" />
		<tag k="place" v="isolated_dwelling" />
		<tag k="ssr:stedsnr" v="63074" />
	</node>
	<node id="-16364" lat="59.4868000032" lon="11.3973861178">
		<tag k="name" v="Borgås" />
		<tag k="place" v="farm" />
		<tag k="ssr:stedsnr" v="63070" />
	</node>
	<node id="-16363" lat="59.4893249959" lon="11.2884388843">
		<tag k="alt_name" v="Torud" />
		<tag k="name" v="Torerud" />
		<tag k="place" v="farm" />
		<tag k="ssr:stedsnr" v="63048" />
	</node>
	<node id="-16362" lat="59.4703055568" lon="11.2613499929">
		<tag k="name" v="Kjeve" />
		<tag k="place" v="farm" />
		<tag k="ssr:stedsnr" v="63042" />
	</node>
	<node id="-16361" lat="59.4647500012" lon="11.3229472164">
		<tag k="name" v="Nygård" />
		<tag k="place" v="farm" />
		<tag k="ssr:stedsnr" v="63025" />
	</node>
	<node id="-16360" lat="59.4744000018" lon="11.248794437">
		<tag k="name" v="Solheim" />
		<tag k="place" v="farm" />
		<tag k="ssr:stedsnr" v="63011" />
	</node>
	<node id="-16359" lat="59.4791500019" lon="11.2421499955">
		<tag k="name" v="Lislerud" />
		<tag k="place" v="farm" />
		<tag k="ssr:stedsnr" v="63010" />
	</node>
	<node id="-16355" lat="59.4829055548" lon="11.4083944378">
		<tag k="name" v="Holtet" />
		<tag k="place" v="farm" />
		<tag k="ssr:stedsnr" v="51409" />
	</node>
	<node id="-16354" lat="59.4847722251" lon="11.352769448">
		<tag k="name" v="Brennemoen" />
		<tag k="place" v="farm" />
		<tag k="ssr:stedsnr" v="51400" />
	</node>
	<node id="-16352" lat="59.5373055579" lon="11.2183305545">
		<tag k="name" v="Åserud" />
		<tag k="place" v="farm" />
		<tag k="ssr:stedsnr" v="24439" />
	</node>
	<node id="-16351" lat="59.5710583354" lon="11.2497888963">
		<tag k="name" v="Bekkevar" />
		<tag k="place" v="farm" />
		<tag k="ssr:stedsnr" v="24408" />
	</node>
	<node id="-16348" lat="59.5411583341" lon="11.4486361129">
		<tag k="name" v="Østby" />
		<tag k="place" v="farm" />
		<tag k="ssr:stedsnr" v="24330" />
	</node>
	<node id="-16347" lat="59.5141944472" lon="11.3854749952">
		<tag k="alt_name" v="Krosby" />
		<tag k="name" v="Krossby" />
		<tag k="place" v="hamlet" />
		<tag k="ssr:stedsnr" v="24301" />
	</node>
	<node id="-16346" lat="59.5421527795" lon="11.4928166735">
		<tag k="name" v="Sloreby" />
		<tag k="place" v="farm" />
		<tag k="ssr:stedsnr" v="24290" />
	</node>
	<node id="-16344" lat="59.5510416651" lon="11.472366673">
		<tag k="name" v="Brunsnes" />
		<tag k="place" v="farm" />
		<tag k="ssr:stedsnr" v="24243" />
	</node>
	<node id="-16342" lat="59.5787416698" lon="11.461955549">
		<tag k="name" v="Nordheim" />
		<tag k="place" v="farm" />
		<tag k="ssr:stedsnr" v="24009" />
	</node>
	<node id="-16341" lat="59.5976861113" lon="11.2659194442">
		<tag k="name" v="Ultvet" />
		<tag k="place" v="farm" />
		<tag k="ssr:stedsnr" v="4911" />
	</node>
	<node id="-16340" lat="59.5998250015" lon="11.4511333401">
		<tag k="name" v="Sandbekk" />
		<tag k="place" v="farm" />
		<tag k="ssr:stedsnr" v="4901" />
	</node>
	<node id="-16339" lat="59.5196416653" lon="11.2458999945">
		<tag k="name" v="Foss" />
		<tag k="place" v="farm" />
		<tag k="ssr:stedsnr" v="4765" />
	</node>
	<node id="-16337" lat="59.5222749969" lon="11.2756361075">
		<tag k="name" v="Skaltorp" />
		<tag k="place" v="farm" />
		<tag k="ssr:stedsnr" v="4758" />
	</node>
	<node id="-16336" lat="59.523966665" lon="11.2650527691">
		<tag k="amenity" v="school" />
		<tag k="name" v="Kirkeby" />
		<tag k="ssr:stedsnr" v="4757" />
	</node>
	<node id="-16335" lat="59.5259861103" lon="11.2811194427">
		<tag k="name" v="Rud" />
		<tag k="place" v="farm" />
		<tag k="ssr:stedsnr" v="4742" />
	</node>
	<node id="-16334" lat="59.5282833371" lon="11.2730166674">
		<tag k="name" v="Kolstad" />
		<tag k="place" v="farm" />
		<tag k="ssr:stedsnr" v="4740" />
	</node>
	<node id="-16333" lat="59.5301999987" lon="11.2485277695">
		<tag k="alt_name" v="Moen, søndre;Moen søndre" />
		<tag k="name" v="Søndre Moen" />
		<tag k="place" v="farm" />
		<tag k="ssr:stedsnr" v="4738" />
	</node>
	<node id="-16332" lat="59.5110499989" lon="11.3319000019">
		<tag k="alt_name" v="Fossummyra" />
		<tag k="name" v="Myra" />
		<tag k="place" v="farm" />
		<tag k="ssr:stedsnr" v="4731" />
	</node>
	<node id="-16331" lat="59.5079472247" lon="11.3967083275">
		<tag k="alt_name" v="Lunde, søndre;Lunde;Lunde søndre" />
		<tag k="name" v="Søndre Lunde" />
		<tag k="place" v="farm" />
		<tag k="ssr:stedsnr" v="4727" />
	</node>
	<node id="-16330" lat="59.5074416704" lon="11.4440611179">
		<tag k="alt_name" v="Pettersæter" />
		<tag k="name" v="Petterseter" />
		<tag k="place" v="isolated_dwelling" />
		<tag k="ssr:stedsnr" v="4725" />
	</node>
	<node id="-16329" lat="59.5088250043" lon="11.2480777774">
		<tag k="name" v="Huseby" />
		<tag k="place" v="farm" />
		<tag k="ssr:stedsnr" v="4688" />
	</node>
	<node id="-16328" lat="59.502805555" lon="11.3887472238">
		<tag k="name" v="Søpler" />
		<tag k="place" v="farm" />
		<tag k="ssr:stedsnr" v="4656" />
	</node>
	<node id="-16327" lat="59.5653749971" lon="11.2695166659">
		<tag k="name" v="Sletner" />
		<tag k="place" v="farm" />
		<tag k="ssr:stedsnr" v="4592" />
	</node>
	<node id="-16326" lat="59.5665694441" lon="11.2365083368">
		<tag k="name" v="Skog" />
		<tag k="place" v="farm" />
		<tag k="ssr:stedsnr" v="4578" />
	</node>
	<node id="-16325" lat="59.5676888919" lon="11.3834111184">
		<tag k="name" v="Homstvet" />
		<tag k="place" v="farm" />
		<tag k="ssr:stedsnr" v="4570" />
	</node>
	<node id="-16322" lat="59.5447027782" lon="11.2123944443">
		<tag k="name" v="Vete" />
		<tag k="place" v="farm" />
		<tag k="ssr:stedsnr" v="4548" />
	</node>
	<node id="-16321" lat="59.5519999956" lon="11.399838892">
		<tag k="name" v="Vister" />
		<tag k="place" v="farm" />
		<tag k="ssr:stedsnr" v="4540" />
	</node>
	<node id="-16320" lat="59.556088888" lon="11.3571749921">
		<tag k="name" v="Bråten" />
		<tag k="place" v="farm" />
		<tag k="ssr:stedsnr" v="4537" />
	</node>
	<node id="-16317" lat="59.5191138905" lon="11.5185583268">
		<tag k="name" v="Steinsborg" />
		<tag k="place" v="isolated_dwelling" />
		<tag k="ssr:stedsnr" v="4375" />
	</node>
	<node id="-16316" lat="59.5343027819" lon="11.3407944429">
		<tag k="name" v="Jaren" />
		<tag k="place" v="farm" />
		<tag k="ssr:stedsnr" v="3470" />
	</node>
	<node id="-16312" lat="59.4972416635" lon="11.2946250065">
		<tag k="name" v="Torget" />
		<tag k="place" v="farm" />
		<tag k="ssr:stedsnr" v="2090" />
	</node>
	<node id="-16311" lat="59.4947749976" lon="11.4043500065">
		<tag k="name" v="Rud" />
		<tag k="place" v="farm" />
		<tag k="ssr:stedsnr" v="2078" />
	</node>
	<node id="-16310" lat="59.4829277744" lon="11.3830500006">
		<tag k="fixme" v="consider place=hamlet" />
		<tag k="name" v="Filtvet" />
		<tag k="place" v="farm" />
		<tag k="ssr:stedsnr" v="2057" />
	</node>
	<node id="-16309" lat="59.4842583332" lon="11.2875277791">
		<tag k="alt_name" v="Knoll nordre" />
		<tag k="name" v="Nordre Knoll" />
		<tag k="place" v="farm" />
		<tag k="ssr:stedsnr" v="2042" />
	</node>
	<node id="-16308" lat="59.4817777758" lon="11.2871138825">
		<tag k="alt_name" v="Knoll søndre" />
		<tag k="name" v="Søndre Knoll" />
		<tag k="place" v="farm" />
		<tag k="ssr:stedsnr" v="2041" />
	</node>
	<node id="-16307" lat="59.4628500023" lon="11.3207750078">
		<tag k="alt_name" v="Stompeslett" />
		<tag k="name" v="Stumpeslett" />
		<tag k="place" v="farm" />
		<tag k="ssr:stedsnr" v="2022" />
	</node>
	<node id="-16306" lat="59.4742249958" lon="11.2553999911">
		<tag k="name" v="Langbråten" />
		<tag k="place" v="farm" />
		<tag k="ssr:stedsnr" v="2015" />
	</node>
	<node id="-16305" lat="59.4765944418" lon="11.3815833283">
		<tag k="name" v="Berg" />
		<tag k="place" v="farm" />
		<tag k="ssr:stedsnr" v="2001" />
	</node>
	<node id="-16304" lat="59.4742666686" lon="11.3762638916">
		<tag k="name" v="Sørby" />
		<tag k="place" v="farm" />
		<tag k="ssr:stedsnr" v="2002" />
	</node>
	<node id="-16288" lat="59.4721305524" lon="11.2875027729">
		<tag k="name" v="Skjeppe" />
		<tag k="place" v="farm" />
		<tag k="ssr:stedsnr" v="476258" />
	</node>
	<node id="-16286" lat="59.4901861156" lon="11.3171444386">
		<tag k="name" v="Siggerud" />
		<tag k="place" v="farm" />
		<tag k="ssr:stedsnr" v="475409" />
	</node>
	<node id="-16282" lat="59.5261333359" lon="11.2145444442">
		<tag k="alt_name" v="Høie vestre" />
		<tag k="name" v="Vestre Høie" />
		<tag k="place" v="farm" />
		<tag k="ssr:stedsnr" v="387512" />
	</node>
	<node id="-16281" lat="59.5430083297" lon="11.2169638941">
		<tag k="name" v="Vete" />
		<tag k="place" v="farm" />
		<tag k="ssr:stedsnr" v="387483" />
	</node>
	<node id="-16280" lat="59.5123000029" lon="11.4047777839">
		<tag k="name" v="Raskerud" />
		<tag k="place" v="isolated_dwelling" />
		<tag k="ssr:stedsnr" v="387372" />
	</node>
	<node id="-16275" lat="59.4745888898" lon="11.2429250058">
		<tag k="name" v="Lislerud" />
		<tag k="place" v="farm" />
		<tag k="ssr:stedsnr" v="386515" />
	</node>
	<node id="-16274" lat="59.5200361132" lon="11.3201611132">
		<tag k="name" v="Dammen" />
		<tag k="place" v="isolated_dwelling" />
		<tag k="ssr:stedsnr" v="368772" />
	</node>
	<node id="-16273" lat="59.5317138933" lon="11.2982249953">
		<tag k="name" v="Hobøl" />
		<tag k="place" v="farm" />
		<tag k="ssr:stedsnr" v="368756" />
	</node>
	<node id="-16272" lat="59.5275499956" lon="11.2903861146">
		<tag k="name" v="Mortvet" />
		<tag k="place" v="farm" />
		<tag k="ssr:stedsnr" v="368751" />
	</node>
	<node id="-16271" lat="59.5060638896" lon="11.3329527853">
		<tag k="alt_name" v="Helldal" />
		<tag k="name" v="Helledal" />
		<tag k="place" v="farm" />
		<tag k="ssr:stedsnr" v="368707" />
	</node>
	<node id="-16270" lat="59.5035777761" lon="11.3094888827">
		<tag k="alt_name" v="Jærud" />
		<tag k="name" v="Jerud" />
		<tag k="place" v="farm" />
		<tag k="ssr:stedsnr" v="368706" />
	</node>
	<node id="-16269" lat="59.5052333311" lon="11.297413883">
		<tag k="name" v="Tokerud" />
		<tag k="place" v="farm" />
		<tag k="ssr:stedsnr" v="368704" />
	</node>
	<node id="-16268" lat="59.5645388882" lon="11.3424000036">
		<tag k="landuse" v="military" />
		<tag k="name" v="Høytorp" />
		<tag k="ssr:stedsnr" v="368628" />
	</node>
	<node id="-16267" lat="59.5594984659" lon="11.4302632164">
		<tag k="alt_name" v="Berger østre" />
		<tag k="fixme" v="multiple name tags, choose one and add the other to alt_name; consider place=hamlet" />
		<tag k="name" v="Berger;Østre Berger" />
		<tag k="place" v="farm" />
		<tag k="ssr:stedsnr" v="368625" />
	</node>
	<node id="-16266" lat="59.5695777783" lon="11.2291499958">
		<tag k="alt_name" v="Sulerud, vesle" />
		<tag k="name" v="Vesle Sulerud" />
		<tag k="place" v="farm" />
		<tag k="ssr:stedsnr" v="368615" />
	</node>
	<node id="-16265" lat="59.5633000039" lon="11.2580666668">
		<tag k="name" v="Slitu" />
		<tag k="place" v="farm" />
		<tag k="ssr:stedsnr" v="368610" />
	</node>
	<node id="-16264" lat="59.5833888931" lon="11.2628166667">
		<tag k="fixme" v="consider place=hamlet" />
		<tag k="name" v="Slitu" />
		<tag k="place" v="village" />
		<tag k="ssr:stedsnr" v="368595" />
	</node>
	<node id="-16263" lat="59.574841663" lon="11.2731638798">
		<tag k="name" v="Brennemoen" />
		<tag k="place" v="farm" />
		<tag k="ssr:stedsnr" v="368593" />
	</node>
	<node id="-16262" lat="59.5445027734" lon="11.2804444394">
		<tag k="alt_name" v="Birkeland" />
		<tag k="name" v="Bjørkelund" />
		<tag k="place" v="farm" />
		<tag k="ssr:stedsnr" v="368590" />
	</node>
	<node id="-16261" lat="59.5484777818" lon="11.2580111177">
		<tag k="name" v="Ås" />
		<tag k="place" v="farm" />
		<tag k="ssr:stedsnr" v="368589" />
	</node>
	<node id="-16260" lat="59.5502138922" lon="11.2479527821">
		<tag k="name" v="Bakker" />
		<tag k="place" v="farm" />
		<tag k="ssr:stedsnr" v="368584" />
	</node>
	<node id="-16259" lat="59.5569916664" lon="11.2845277831">
		<tag k="alt_name" v="Gardsegg nordre;Garseg nordre" />
		<tag k="name" v="Nordre Gardsegg" />
		<tag k="place" v="farm" />
		<tag k="ssr:stedsnr" v="368567" />
	</node>
	<node id="-16258" lat="59.5582249987" lon="11.232524997">
		<tag k="alt_name" v="Belgen" />
		<tag k="name" v="Lunder" />
		<tag k="place" v="farm" />
		<tag k="ssr:stedsnr" v="368563" />
	</node>
	<node id="-16257" lat="59.5466416682" lon="11.3384500028">
		<tag k="alt_name" v="Broberg" />
		<tag k="name" v="Bruberg" />
		<tag k="place" v="farm" />
		<tag k="ssr:stedsnr" v="368533" />
	</node>
	<node id="-16256" lat="59.5468749974" lon="11.3570250083">
		<tag k="name" v="Susebakke" />
		<tag k="place" v="farm" />
		<tag k="ssr:stedsnr" v="368531" />
	</node>
	<node id="-16254" lat="59.5412166633" lon="11.3242555551">
		<tag k="alt_name" v="Skjørtvet" />
		<tag k="name" v="Skjøltvet" />
		<tag k="place" v="farm" />
		<tag k="ssr:stedsnr" v="368035" />
	</node>
	<node id="-16253" lat="59.5797666711" lon="11.4096638892">
		<tag k="name" v="Hallerud" />
		<tag k="place" v="farm" />
		<tag k="ssr:stedsnr" v="367586" />
	</node>
	<node id="-16252" lat="59.5877833375" lon="11.3511749952">
		<tag k="alt_name" v="Torper nordre;Torper" />
		<tag k="name" v="Nordre Torper" />
		<tag k="place" v="farm" />
		<tag k="ssr:stedsnr" v="367568" />
	</node>
	<node id="-16251" lat="59.5902111136" lon="11.3991083247">
		<tag k="building" v="industrial" />
		<tag k="industrial" v="factory" />
		<tag k="name" v="Krokstad bruk" />
		<tag k="ssr:stedsnr" v="367545" />
	</node>
	<node id="-16250" lat="59.5418666652" lon="11.2725361108">
		<tag k="name" v="Elsnes" />
		<tag k="place" v="farm" />
		<tag k="ssr:stedsnr" v="367458" />
	</node>
	<node id="-16249" lat="59.5434277774" lon="11.4106750068">
		<tag k="name" v="Haugland" />
		<tag k="place" v="farm" />
		<tag k="ssr:stedsnr" v="367435" />
	</node>
	<node id="-16248" lat="59.569444447" lon="11.4832222254">
		<tag k="name" v="Haugerud" />
		<tag k="place" v="farm" />
		<tag k="ssr:stedsnr" v="367424" />
	</node>
	<node id="-16247" lat="59.545252776" lon="11.5217527722">
		<tag k="name" v="Jorderud" />
		<tag k="place" v="farm" />
		<tag k="ssr:stedsnr" v="367401" />
	</node>
	<node id="-16244" lat="59.4735916693" lon="11.2897555536">
		<tag k="name" v="Skjeppe" />
		<tag k="place" v="farm" />
		<tag k="ssr:stedsnr" v="366009" />
	</node>
	<node id="-16243" lat="59.476575002" lon="11.2721472137">
		<tag k="name" v="Solberg" />
		<tag k="place" v="farm" />
		<tag k="ssr:stedsnr" v="366007" />
	</node>
	<node id="-16241" lat="59.484777777" lon="11.3987972273">
		<tag k="name" v="Karlstad" />
		<tag k="place" v="farm" />
		<tag k="ssr:stedsnr" v="354386" />
	</node>
	<node id="-16239" lat="59.4870166708" lon="11.3346805471">
		<tag k="name" v="Lille-Rånås" />
		<tag k="place" v="farm" />
		<tag k="ssr:stedsnr" v="354380" />
	</node>
	<node id="-16238" lat="59.4945694415" lon="11.3243722134">
		<tag k="name" v="Bagge Rånås" />
		<tag k="place" v="farm" />
		<tag k="ssr:stedsnr" v="353428" />
	</node>
	<node id="-16236" lat="59.5100972225" lon="11.2696416634">
		<tag k="name" v="Engen" />
		<tag k="place" v="farm" />
		<tag k="ssr:stedsnr" v="327453" />
	</node>
	<node id="-16235" lat="59.541502778" lon="11.2959250025">
		<tag k="alt_name" v="Haga" />
		<tag k="amenity" v="school" />
		<tag k="name" v="Haga jordbruksskole" />
		<tag k="ssr:stedsnr" v="327393" />
	</node>
	<node id="-16234" lat="59.5536888857" lon="11.3515361072">
		<tag k="alt_name" v="Opsalneset" />
		<tag k="name" v="Oppsalneset" />
		<tag k="place" v="farm" />
		<tag k="ssr:stedsnr" v="327390" />
	</node>
	<node id="-16233" lat="59.5512361079" lon="11.3271750067">
		<tag k="name" v="Nordre Mysen" />
		<tag k="place" v="farm" />
		<tag k="ssr:stedsnr" v="327380" />
	</node>
	<node id="-16232" lat="59.5790499997" lon="11.3873861038">
		<tag k="name" v="Høitomt" />
		<tag k="place" v="farm" />
		<tag k="ssr:stedsnr" v="327371" />
	</node>
	<node id="-16230" lat="59.549324996" lon="11.3383527836">
		<tag k="name" v="Søndre Mysen" />
		<tag k="place" v="farm" />
		<tag k="ssr:stedsnr" v="327342" />
	</node>
	<node id="-16229" lat="59.5093666627" lon="11.3781916646">
		<tag k="name" v="Åsmoen" />
		<tag k="place" v="farm" />
		<tag k="ssr:stedsnr" v="327320" />
	</node>
	<node id="-16228" lat="59.5261027765" lon="11.3424527811">
		<tag k="alt_name" v="Smerkerud nordre" />
		<tag k="name" v="Nordre Smerkerud" />
		<tag k="place" v="farm" />
		<tag k="ssr:stedsnr" v="327318" />
	</node>
	<node id="-16227" lat="59.5436361155" lon="11.3984444365">
		<tag k="name" v="Sandbekk" />
		<tag k="place" v="farm" />
		<tag k="ssr:stedsnr" v="327312" />
	</node>
	<node id="-16226" lat="59.5834388869" lon="11.4547833354">
		<tag k="name" v="Søndre Bruserud" />
		<tag k="place" v="farm" />
		<tag k="ssr:stedsnr" v="327298" />
	</node>
	<node id="-16224" lat="59.5315916695" lon="11.4382499973">
		<tag k="name" v="Solberg" />
		<tag k="place" v="farm" />
		<tag k="ssr:stedsnr" v="327014" />
	</node>
	<node id="-16223" lat="59.5018027789" lon="11.2791944521">
		<tag k="name" v="Gammelsrud" />
		<tag k="place" v="farm" />
		<tag k="ssr:stedsnr" v="325542" />
	</node>
	<node id="-16222" lat="59.4746333302" lon="11.2712972145">
		<tag k="alt_name" v="Tilleskjør søndre" />
		<tag k="name" v="Tiljeskjør" />
		<tag k="place" v="farm" />
		<tag k="ssr:stedsnr" v="325531" />
	</node>
	<node id="-16220" lat="59.5223888851" lon="11.4578166649">
		<tag k="name" v="Slora" />
		<tag k="place" v="farm" />
		<tag k="ssr:stedsnr" v="307749" />
	</node>
	<node id="-16219" lat="59.5314055536" lon="11.236830563">
		<tag k="name" v="Brenna" />
		<tag k="place" v="farm" />
		<tag k="ssr:stedsnr" v="307732" />
	</node>
	<node id="-16218" lat="59.5122277794" lon="11.3980916666">
		<tag k="alt_name" v="Lunde nordre;Lunde" />
		<tag k="name" v="Nordre Lunde" />
		<tag k="place" v="farm" />
		<tag k="ssr:stedsnr" v="307722" />
	</node>
	<node id="-16217" lat="59.5104694406" lon="11.4060611138">
		<tag k="alt_name" v="Gylterhytta" />
		<tag k="name" v="Åseby" />
		<tag k="place" v="farm" />
		<tag k="ssr:stedsnr" v="307721" />
	</node>
	<node id="-16216" lat="59.5236666708" lon="11.3541666688">
		<tag k="alt_name" v="Bøli vestre" />
		<tag k="name" v="Vestre Bøli" />
		<tag k="place" v="farm" />
		<tag k="ssr:stedsnr" v="307709" />
	</node>
	<node id="-16214" lat="59.5042277779" lon="11.2552499963">
		<tag k="alt_name" v="Lysaker;Lysåker øvre" />
		<tag k="name" v="Øvre Lysåker" />
		<tag k="place" v="farm" />
		<tag k="ssr:stedsnr" v="307679" />
	</node>
	<node id="-16212" lat="59.5829250019" lon="11.2505249967">
		<tag k="alt_name" v="Næringsrud" />
		<tag k="name" v="Neringsrud" />
		<tag k="place" v="farm" />
		<tag k="ssr:stedsnr" v="307626" />
	</node>
	<node id="-16211" lat="59.5823499955" lon="11.3912666734">
		<tag k="alt_name" v="Høitomt" />
		<tag k="name" v="Haugtomt" />
		<tag k="place" v="farm" />
		<tag k="ssr:stedsnr" v="307625" />
	</node>
	<node id="-16210" lat="59.5887249964" lon="11.3688833397">
		<tag k="name" v="Ulverud" />
		<tag k="place" v="farm" />
		<tag k="ssr:stedsnr" v="307610" />
	</node>
	<node id="-16209" lat="59.5595694426" lon="11.3975999942">
		<tag k="alt_name" v="Hærslet" />
		<tag k="name" v="Hærslett" />
		<tag k="place" v="farm" />
		<tag k="ssr:stedsnr" v="307599" />
	</node>
	<node id="-16208" lat="59.5709416646" lon="11.3476055488">
		<tag k="name" v="Skofterud" />
		<tag k="place" v="farm" />
		<tag k="ssr:stedsnr" v="307586" />
	</node>
	<node id="-16207" lat="59.5727611069" lon="11.3352305543">
		<tag k="name" v="Langebrekke" />
		<tag k="place" v="farm" />
		<tag k="ssr:stedsnr" v="307585" />
	</node>
	<node id="-16206" lat="59.5764611125" lon="11.2641361157">
		<tag k="alt_name" v="Almark" />
		<tag k="name" v="Elmark" />
		<tag k="place" v="farm" />
		<tag k="ssr:stedsnr" v="307573" />
	</node>
	<node id="-16205" lat="59.5473861081" lon="11.277277785">
		<tag k="alt_name" v="Gardsegg søndre;Garsegg søndre" />
		<tag k="name" v="Søndre Gardsegg" />
		<tag k="place" v="farm" />
		<tag k="ssr:stedsnr" v="307571" />
	</node>
	<node id="-16204" lat="59.5475000031" lon="11.2687388846">
		<tag k="name" v="Fjøs" />
		<tag k="place" v="farm" />
		<tag k="ssr:stedsnr" v="307568" />
	</node>
	<node id="-16203" lat="59.5590542443" lon="11.4424022231">
		<tag k="alt_name" v="Løken;Løken vestre" />
		<tag k="fixme" v="consider place=hamlet" />
		<tag k="name" v="Vestre Løken" />
		<tag k="place" v="farm" />
		<tag k="ssr:stedsnr" v="307559" />
	</node>
	<node id="-16202" lat="59.5472416699" lon="11.3036500086">
		<tag k="name" v="Mustorp" />
		<tag k="place" v="farm" />
		<tag k="ssr:stedsnr" v="307522" />
	</node>
	<node id="-16201" lat="59.5703999973" lon="11.473094437">
		<tag k="name" v="Ørken" />
		<tag k="place" v="farm" />
		<tag k="ssr:stedsnr" v="307510" />
	</node>
	<node id="-16200" lat="59.5535611124" lon="11.5200027767">
		<tag k="name" v="Moen" />
		<tag k="place" v="farm" />
		<tag k="ssr:stedsnr" v="307499" />
	</node>
	<node id="-16198" lat="59.4917499991" lon="11.2819250083">
		<tag k="name" v="Pytt" />
		<tag k="place" v="farm" />
		<tag k="ssr:stedsnr" v="307090" />
	</node>
	<node id="-16194" lat="59.4845999959" lon="11.3362444474">
		<tag k="name" v="Rånås" />
		<tag k="place" v="farm" />
		<tag k="ssr:stedsnr" v="306071" />
	</node>
	<node id="-16193" lat="59.4727194415" lon="11.3147305494">
		<tag k="name" v="Hen" />
		<tag k="place" v="farm" />
		<tag k="ssr:stedsnr" v="306009" />
	</node>
	<node id="-16192" lat="59.4917527789" lon="11.350199995">
		<tag k="name" v="Spestad" />
		<tag k="place" v="farm" />
		<tag k="ssr:stedsnr" v="305081" />
	</node>
	<node id="-16190" lat="59.4923555597" lon="11.4244555606">
		<tag k="name" v="Furulund" />
		<tag k="place" v="isolated_dwelling" />
		<tag k="ssr:stedsnr" v="305036" />
	</node>
	<node id="-16189" lat="59.4826000007" lon="11.2713444525">
		<tag k="alt_name" v="Lilleskjør" />
		<tag k="name" v="Lille-Skjør" />
		<tag k="place" v="farm" />
		<tag k="ssr:stedsnr" v="305030" />
	</node>
	<node id="-16186" lat="59.4877166698" lon="11.3442833385">
		<tag k="name" v="Skukkestad" />
		<tag k="place" v="farm" />
		<tag k="ssr:stedsnr" v="294367" />
	</node>
	<node id="-16183" lat="59.5003527818" lon="11.3931527822">
		<tag k="name" v="Skollerudhagen" />
		<tag k="place" v="farm" />
		<tag k="ssr:stedsnr" v="293052" />
	</node>
	<node id="-16180" lat="59.5564528492" lon="11.4167367116">
		<tag k="alt_name" v="Revhaug" />
		<tag k="fixme" v="multiple name tags, choose one and add the other to alt_name" />
		<tag k="name" v="Revhaugplassen;Nordre Revhaug" />
		<tag k="place" v="farm" />
		<tag k="ssr:stedsnr" v="282544" />
	</node>
	<node id="-16935" lat="59.5609194402" lon="11.381475003">
		<tag k="name" v="Korterudneset" />
		<tag k="place" v="farm" />
		<tag k="ssr:stedsnr" v="934360" />
	</node>
	<node id="-16934" lat="59.5733111066" lon="11.3969333364">
		<tag k="name" v="Kviller" />
		<tag k="place" v="farm" />
		<tag k="ssr:stedsnr" v="934354" />
	</node>
	<node id="-16933" lat="59.5580861124" lon="11.3049972305">
		<tag k="name" v="Narvestaddalen" />
		<tag k="place" v="farm" />
		<tag k="ssr:stedsnr" v="934345" />
	</node>
	<node id="-16931" lat="59.5220805534" lon="11.3932611038">
		<tag k="name" v="Tranmo" />
		<tag k="place" v="farm" />
		<tag k="ssr:stedsnr" v="934294" />
	</node>
	<node id="-16928" lat="59.5715666666" lon="11.4588611082">
		<tag k="name" v="Ødegård" />
		<tag k="place" v="farm" />
		<tag k="ssr:stedsnr" v="934252" />
	</node>
	<node id="-16927" lat="59.563441669" lon="11.400911104">
		<tag k="name" v="Korterud" />
		<tag k="place" v="farm" />
		<tag k="ssr:stedsnr" v="934248" />
	</node>
	<node id="-16926" lat="59.5515916633" lon="11.5044361054">
		<tag k="name" v="Vollebekk" />
		<tag k="place" v="farm" />
		<tag k="ssr:stedsnr" v="934241" />
	</node>
	<node id="-16925" lat="59.5281694481" lon="11.4387944418">
		<tag k="name" v="Solberg" />
		<tag k="place" v="farm" />
		<tag k="ssr:stedsnr" v="934008" />
	</node>
	<node id="-16924" lat="59.5295277811" lon="11.3798833249">
		<tag k="name" v="Lund" />
		<tag k="place" v="farm" />
		<tag k="ssr:stedsnr" v="914753" />
	</node>
	<node id="-16923" lat="59.5315138873" lon="11.3178222286">
		<tag k="alt_name" v="Kløntorphytta" />
		<tag k="name" v="Kløntorpplassen" />
		<tag k="place" v="isolated_dwelling" />
		<tag k="ssr:stedsnr" v="914737" />
	</node>
	<node id="-16921" lat="59.515675" lon="11.3622000082">
		<tag k="name" v="Bredegg" />
		<tag k="place" v="farm" />
		<tag k="ssr:stedsnr" v="914717" />
	</node>
	<node id="-16920" lat="59.5177055565" lon="11.3773694384">
		<tag k="alt_name" v="Gressbakke" />
		<tag k="name" v="Grasbakke" />
		<tag k="place" v="farm" />
		<tag k="ssr:stedsnr" v="914713" />
	</node>
	<node id="-16919" lat="59.5667611077" lon="11.2485055601">
		<tag k="name" v="Uleberg" />
		<tag k="place" v="farm" />
		<tag k="ssr:stedsnr" v="914586" />
	</node>
	<node id="-16918" lat="59.5730750004" lon="11.2459361177">
		<tag k="name" v="Bekkevar" />
		<tag k="place" v="farm" />
		<tag k="ssr:stedsnr" v="914576" />
	</node>
	<node id="-16917" lat="59.5562055563" lon="11.2572000037">
		<tag k="alt_name" v="Moen nordre;Nord-Moen" />
		<tag k="name" v="Nordre Moen" />
		<tag k="place" v="farm" />
		<tag k="ssr:stedsnr" v="914558" />
	</node>
	<node id="-16916" lat="59.5614277779" lon="11.2183611167">
		<tag k="name" v="Sulerudmyra" />
		<tag k="place" v="farm" />
		<tag k="ssr:stedsnr" v="914552" />
	</node>
	<node id="-16915" lat="59.534219446" lon="11.3821611182">
		<tag k="name" v="Søtland" />
		<tag k="place" v="farm" />
		<tag k="ssr:stedsnr" v="914544" />
	</node>
	<node id="-16913" lat="59.5488305583" lon="11.5064777715">
		<tag k="alt_name" v="Elgetun" />
		<tag k="name" v="Elgtun" />
		<tag k="place" v="farm" />
		<tag k="ssr:stedsnr" v="914503" />
	</node>
	<node id="-16912" lat="59.5435611108" lon="11.5121944456">
		<tag k="alt_name" v="Engen" />
		<tag k="name" v="Enga" />
		<tag k="place" v="farm" />
		<tag k="ssr:stedsnr" v="914497" />
	</node>
	<node id="-16911" lat="59.5383138875" lon="11.4708833247">
		<tag k="name" v="Østbydalen" />
		<tag k="place" v="farm" />
		<tag k="ssr:stedsnr" v="914404" />
	</node>
	<node id="-16910" lat="59.4780499999" lon="11.2763055613">
		<tag k="alt_name" v="Tilleskjør søndre;Lilleskjør" />
		<tag k="name" v="Tilje-Skjør" />
		<tag k="place" v="farm" />
		<tag k="ssr:stedsnr" v="913007" />
	</node>
	<node id="-16909" lat="59.472022221" lon="11.278808329">
		<tag k="alt_name" v="Dintorp" />
		<tag k="name" v="Dingtorp" />
		<tag k="place" v="farm" />
		<tag k="ssr:stedsnr" v="912019" />
	</node>
	<node id="-16907" lat="59.484944443" lon="11.3813222139">
		<tag k="name" v="Filtvet" />
		<tag k="place" v="farm" />
		<tag k="ssr:stedsnr" v="901374" />
	</node>
	<node id="-16904" lat="59.5461694407" lon="11.2026888866">
		<tag k="name" v="Vete" />
		<tag k="place" v="farm" />
		<tag k="ssr:stedsnr" v="873454" />
	</node>
	<node id="-16903" lat="59.5817666657" lon="11.2540805558">
		<tag k="name" v="Næringsrud" />
		<tag k="place" v="farm" />
		<tag k="ssr:stedsnr" v="873438" />
	</node>
	<node id="-16902" lat="59.5341972252" lon="11.3412055546">
		<tag k="alt_name" v="Jaren nordre" />
		<tag k="name" v="Nordre Jaren" />
		<tag k="place" v="farm" />
		<tag k="ssr:stedsnr" v="873379" />
	</node>
	<node id="-16901" lat="59.5456305542" lon="11.3299749924">
		<tag k="name" v="Lauvnes" />
		<tag k="place" v="farm" />
		<tag k="ssr:stedsnr" v="873373" />
	</node>
	<node id="-16898" lat="59.5433861091" lon="11.5073055601">
		<tag k="name" v="Engen" />
		<tag k="place" v="farm" />
		<tag k="ssr:stedsnr" v="873335" />
	</node>
	<node id="-16896" lat="59.5460333376" lon="11.4772944374">
		<tag k="name" v="Havnås" />
		<tag k="place" v="farm" />
		<tag k="ssr:stedsnr" v="873311" />
	</node>
	<node id="-16895" lat="59.5375222248" lon="11.4692722229">
		<tag k="name" v="Sander" />
		<tag k="place" v="farm" />
		<tag k="ssr:stedsnr" v="873309" />
	</node>
	<node id="-16894" lat="59.552599999" lon="11.409075001">
		<tag k="name" v="Kirkeby" />
		<tag k="place" v="farm" />
		<tag k="ssr:stedsnr" v="873280" />
	</node>
	<node id="-16892" lat="59.472872218" lon="11.2719444527">
		<tag k="name" v="Dingtorp" />
		<tag k="place" v="farm" />
		<tag k="ssr:stedsnr" v="872565" />
	</node>
	<node id="-16891" lat="59.5972333364" lon="11.262399998">
		<tag k="name" v="Sauerud" />
		<tag k="place" v="farm" />
		<tag k="ssr:stedsnr" v="854885" />
	</node>
	<node id="-16889" lat="59.5295944468" lon="11.229158339">
		<tag k="name" v="Hoie" />
		<tag k="place" v="hamlet" />
		<tag k="ssr:stedsnr" v="854705" />
	</node>
	<node id="-16888" lat="59.5115500013" lon="11.2935249982">
		<tag k="name" v="Finnestad" />
		<tag k="place" v="farm" />
		<tag k="ssr:stedsnr" v="854697" />
	</node>
	<node id="-16887" lat="59.5148111121" lon="11.3350416675">
		<tag k="name" v="Berget" />
		<tag k="place" v="farm" />
		<tag k="ssr:stedsnr" v="854694" />
	</node>
	<node id="-16886" lat="59.5145527772" lon="11.340450007">
		<tag k="name" v="Jansberg" />
		<tag k="place" v="farm" />
		<tag k="ssr:stedsnr" v="854693" />
	</node>
	<node id="-16885" lat="59.5025638897" lon="11.3983972212">
		<tag k="alt_name" v="Fjellhytta" />
		<tag k="name" v="Fjellengen" />
		<tag k="place" v="farm" />
		<tag k="ssr:stedsnr" v="854625" />
	</node>
	<node id="-16884" lat="59.5663249973" lon="11.4043500053">
		<tag k="name" v="Kviserud" />
		<tag k="place" v="farm" />
		<tag k="ssr:stedsnr" v="854577" />
	</node>
	<node id="-16883" lat="59.5674444443" lon="11.2295388959">
		<tag k="name" v="Sulerud" />
		<tag k="place" v="farm" />
		<tag k="ssr:stedsnr" v="854566" />
	</node>
	<node id="-16882" lat="59.5477805536" lon="11.2933694374">
		<tag k="name" v="Vollen" />
		<tag k="place" v="farm" />
		<tag k="ssr:stedsnr" v="854536" />
	</node>
	<node id="-16881" lat="59.5438583315" lon="11.3075250077">
		<tag k="name" v="Folkenborg" />
		<tag k="place" v="farm" />
		<tag k="ssr:stedsnr" v="854487" />
	</node>
	<node id="-16880" lat="59.545094443" lon="11.321975007">
		<tag k="name" v="Flaten" />
		<tag k="place" v="farm" />
		<tag k="ssr:stedsnr" v="854485" />
	</node>
	<node id="-16879" lat="59.5887583374" lon="11.2674083259">
		<tag k="name" v="Ulrikstad" />
		<tag k="place" v="farm" />
		<tag k="ssr:stedsnr" v="853590" />
	</node>
	<node id="-16878" lat="59.5818944478" lon="11.3323583375">
		<tag k="name" v="Skarpsno" />
		<tag k="place" v="farm" />
		<tag k="ssr:stedsnr" v="853583" />
	</node>
	<node id="-16877" lat="59.5377416627" lon="11.394069441">
		<tag k="alt_name" v="Fuglli" />
		<tag k="name" v="Faugli" />
		<tag k="place" v="farm" />
		<tag k="ssr:stedsnr" v="853508" />
	</node>
	<node id="-16876" lat="59.5372638863" lon="11.3713749988">
		<tag k="name" v="Åsgård" />
		<tag k="place" v="farm" />
		<tag k="ssr:stedsnr" v="853507" />
	</node>
	<node id="-16875" lat="59.5413361071" lon="11.3452805628">
		<tag k="name" v="Holm" />
		<tag k="place" v="farm" />
		<tag k="ssr:stedsnr" v="853499" />
	</node>
	<node id="-16874" lat="59.5437583348" lon="11.4359666737">
		<tag k="name" v="Nordby" />
		<tag k="place" v="farm" />
		<tag k="ssr:stedsnr" v="853484" />
	</node>
	<node id="-16872" lat="59.5335138908" lon="11.5221666615">
		<tag k="name" v="Svarverud" />
		<tag k="place" v="farm" />
		<tag k="ssr:stedsnr" v="853403" />
	</node>
	<node id="-16871" lat="59.4900611111" lon="11.3267638955">
		<tag k="name" v="Bråtenes" />
		<tag k="place" v="farm" />
		<tag k="ssr:stedsnr" v="852082" />
	</node>
	<node id="-16870" lat="59.4828527775" lon="11.34496944">
		<tag k="alt_name" v="Skukkestad" />
		<tag k="name" v="Skukustad" />
		<tag k="place" v="farm" />
		<tag k="ssr:stedsnr" v="852070" />
	</node>
	<node id="-16869" lat="59.4808027793" lon="11.3138722308">
		<tag k="name" v="Skårer" />
		<tag k="place" v="farm" />
		<tag k="ssr:stedsnr" v="852042" />
	</node>
	<node id="-16868" lat="59.4893555573" lon="11.2594000016">
		<tag k="name" v="Tveiten" />
		<tag k="place" v="farm" />
		<tag k="ssr:stedsnr" v="852038" />
	</node>
	<node id="-16867" lat="59.4761222242" lon="11.2365055564">
		<tag k="name" v="Tappelapp" />
		<tag k="old_name" v="Tappelan" />
		<tag k="place" v="farm" />
		<tag k="ssr:stedsnr" v="852011" />
	</node>
	<node id="-16866" lat="59.5061527796" lon="11.3240722219">
		<tag k="name" v="Snippen" />
		<tag k="place" v="farm" />
		<tag k="ssr:stedsnr" v="840733" />
	</node>
	<node id="-16864" lat="59.4859166698" lon="11.3803138812">
		<tag k="name" v="Filtvet" />
		<tag k="place" v="farm" />
		<tag k="ssr:stedsnr" v="840366" />
	</node>
	<node id="-16862" lat="59.5031416675" lon="11.3761194443">
		<tag k="name" v="Trømborg" />
		<tag k="place" v="farm" />
		<tag k="ssr:stedsnr" v="840042" />
	</node>
	<node id="-16861" lat="59.5016083367" lon="11.3675638834">
		<tag k="name" v="Trømborg" />
		<tag k="place" v="farm" />
		<tag k="ssr:stedsnr" v="840034" />
	</node>
	<node id="-16857" lat="59.5389083372" lon="11.260263891">
		<tag k="alt_name" v="Moen nordre" />
		<tag k="name" v="Nordre Moen" />
		<tag k="place" v="farm" />
		<tag k="ssr:stedsnr" v="812506" />
	</node>
	<node id="-16855" lat="59.5602166708" lon="11.3605361086">
		<tag k="name" v="Rustad" />
		<tag k="place" v="farm" />
		<tag k="ssr:stedsnr" v="812429" />
	</node>
	<node id="-16854" lat="59.5532666641" lon="11.3439249956">
		<tag k="name" v="Symra" />
		<tag k="place" v="farm" />
		<tag k="ssr:stedsnr" v="812427" />
	</node>
	<node id="-16852" lat="59.5176888866" lon="11.3486055494">
		<tag k="name" v="Roås" />
		<tag k="place" v="farm" />
		<tag k="ssr:stedsnr" v="812353" />
	</node>
	<node id="-16851" lat="59.5466916626" lon="11.4230277757">
		<tag k="name" v="Hærland" />
		<tag k="place" v="farm" />
		<tag k="ssr:stedsnr" v="812343" />
	</node>
	<node id="-16850" lat="59.5853305545" lon="11.450613883">
		<tag k="name" v="Bruserud" />
		<tag k="place" v="farm" />
		<tag k="ssr:stedsnr" v="812332" />
	</node>
	<node id="-16848" lat="59.5830583308" lon="11.4793972258">
		<tag k="name" v="Fuglesangen" />
		<tag k="place" v="farm" />
		<tag k="ssr:stedsnr" v="812300" />
	</node>
	<node id="-16847" lat="59.4955638911" lon="11.2545444382">
		<tag k="name" v="Sperrholen" />
		<tag k="place" v="farm" />
		<tag k="ssr:stedsnr" v="811542" />
	</node>
	<node id="-16845" lat="59.5074916658" lon="11.274991664">
		<tag k="name" v="Asken" />
		<tag k="place" v="isolated_dwelling" />
		<tag k="ssr:stedsnr" v="811536" />
	</node>
	<node id="-16844" lat="59.5989166709" lon="11.2747555502">
		<tag k="name" v="Øgården" />
		<tag k="place" v="farm" />
		<tag k="ssr:stedsnr" v="793903" />
	</node>
	<node id="-16843" lat="59.5304194465" lon="11.4469583315">
		<tag k="name" v="Baggetorp" />
		<tag k="place" v="farm" />
		<tag k="ssr:stedsnr" v="793767" />
	</node>
	<node id="-16842" lat="59.5216444429" lon="11.2522194385">
		<tag k="name" v="Lekum" />
		<tag k="place" v="farm" />
		<tag k="ssr:stedsnr" v="793764" />
	</node>
	<node id="-16841" lat="59.5173999999" lon="11.2860638814">
		<tag k="name" v="Vestby" />
		<tag k="place" v="farm" />
		<tag k="ssr:stedsnr" v="793761" />
	</node>
	<node id="-16840" lat="59.5266638901" lon="11.3562861139">
		<tag k="alt_name" v="Bøli nordre" />
		<tag k="name" v="Nordre Bøli" />
		<tag k="place" v="farm" />
		<tag k="ssr:stedsnr" v="793726" />
	</node>
	<node id="-16839" lat="59.5064472181" lon="11.2931305479">
		<tag k="alt_name" v="Skykkelstad" />
		<tag k="name" v="Skikkulstad" />
		<tag k="place" v="farm" />
		<tag k="ssr:stedsnr" v="793693" />
	</node>
	<node id="-16838" lat="59.504769448" lon="11.2405277788">
		<tag k="name" v="Tangen" />
		<tag k="place" v="farm" />
		<tag k="ssr:stedsnr" v="793688" />
	</node>
	<node id="-16837" lat="59.5685055582" lon="11.2933833367">
		<tag k="name" v="Brødremoen" />
		<tag k="place" v="farm" />
		<tag k="ssr:stedsnr" v="793621" />
	</node>
	<node id="-16836" lat="59.5274999986" lon="11.3866888891">
		<tag k="name" v="Øyerud" />
		<tag k="place" v="farm" />
		<tag k="ssr:stedsnr" v="792742" />
	</node>
	<node id="-16834" lat="59.5273777819" lon="11.3032666588">
		<tag k="name" v="Bjørnestad" />
		<tag k="place" v="farm" />
		<tag k="ssr:stedsnr" v="792710" />
	</node>
	<node id="-16833" lat="59.5912444412" lon="11.444238888">
		<tag k="name" v="Dal" />
		<tag k="place" v="farm" />
		<tag k="ssr:stedsnr" v="792579" />
	</node>
	<node id="-16832" lat="59.5744416696" lon="11.364141666">
		<tag k="name" v="Holkerud" />
		<tag k="place" v="farm" />
		<tag k="ssr:stedsnr" v="792543" />
	</node>
	<node id="-16831" lat="59.5708500005" lon="11.2843527714">
		<tag k="alt_name" v="Fjellengen" />
		<tag k="name" v="Fjellenga" />
		<tag k="place" v="farm" />
		<tag k="ssr:stedsnr" v="792537" />
	</node>
	<node id="-16830" lat="59.53658056" lon="11.4290999982">
		<tag k="name" v="Grini" />
		<tag k="place" v="farm" />
		<tag k="ssr:stedsnr" v="792512" />
	</node>
	<node id="-16829" lat="59.5410694469" lon="11.2650166618">
		<tag k="name" v="Norum" />
		<tag k="place" v="farm" />
		<tag k="ssr:stedsnr" v="792510" />
	</node>
	<node id="-16828" lat="59.5353444473" lon="11.3119499924">
		<tag k="name" v="Burås" />
		<tag k="place" v="farm" />
		<tag k="ssr:stedsnr" v="792511" />
	</node>
	<node id="-16827" lat="59.5370277778" lon="11.2300055498">
		<tag k="name" v="Nordhaug" />
		<tag k="place" v="farm" />
		<tag k="ssr:stedsnr" v="792505" />
	</node>
	<node id="-16826" lat="59.5466111073" lon="11.458936104">
		<tag k="name" v="Svenneby" />
		<tag k="place" v="farm" />
		<tag k="ssr:stedsnr" v="792501" />
	</node>
	<node id="-16825" lat="59.5460500026" lon="11.41671945">
		<tag k="name" v="Hærland" />
		<tag k="place" v="farm" />
		<tag k="ssr:stedsnr" v="792497" />
	</node>
	<node id="-16824" lat="59.5486805579" lon="11.420977783">
		<tag k="name" v="Brandsrud" />
		<tag k="place" v="farm" />
		<tag k="ssr:stedsnr" v="792495" />
	</node>
	<node id="-16822" lat="59.5628305582" lon="11.4776361189">
		<tag k="name" v="Skinnerud" />
		<tag k="place" v="farm" />
		<tag k="ssr:stedsnr" v="792478" />
	</node>
	<node id="-16821" lat="59.4962388929" lon="11.5019444364">
		<tag k="name" v="Lundevollen" />
		<tag k="place" v="isolated_dwelling" />
		<tag k="ssr:stedsnr" v="791910" />
	</node>
	<node id="-16820" lat="59.453402781" lon="11.3023777835">
		<tag k="name" v="Glomsrud" />
		<tag k="place" v="farm" />
		<tag k="ssr:stedsnr" v="791223" />
	</node>
	<node id="-16819" lat="59.4905347626" lon="11.2967613632">
		<tag k="fixme" v="multiple name tags, choose one and add the other to alt_name" />
		<tag k="name" v="Hungerholt;Østby" />
		<tag k="place" v="farm" />
		<tag k="ssr:stedsnr" v="791094" />
	</node>
	<node id="-16818" lat="59.4973750009" lon="11.3363222178">
		<tag k="fixme" v="consider place=hamlet" />
		<tag k="name" v="Rånås" />
		<tag k="place" v="farm" />
		<tag k="ssr:stedsnr" v="791085" />
	</node>
	<node id="-16817" lat="59.4954472247" lon="11.385719449">
		<tag k="alt_name" v="Rud nordre" />
		<tag k="name" v="Nordre Rud" />
		<tag k="place" v="farm" />
		<tag k="ssr:stedsnr" v="791084" />
	</node>
	<node id="-16816" lat="59.4875416678" lon="11.3511250035">
		<tag k="name" v="Brennemoen" />
		<tag k="place" v="farm" />
		<tag k="ssr:stedsnr" v="791063" />
	</node>
	<node id="-16815" lat="59.4799194457" lon="11.3721916633">
		<tag k="name" v="Melleby" />
		<tag k="place" v="farm" />
		<tag k="ssr:stedsnr" v="791058" />
	</node>
	<node id="-16814" lat="59.5423527751" lon="11.5109194474">
		<tag k="name" v="Bråten" />
		<tag k="place" v="isolated_dwelling" />
		<tag k="ssr:stedsnr" v="779488" />
	</node>
	<node id="-16809" lat="59.5297749979" lon="11.2297055577">
		<tag k="alt_name" v="Høie mellom" />
		<tag k="name" v="Mellom-Høie" />
		<tag k="place" v="farm" />
		<tag k="ssr:stedsnr" v="752418" />
	</node>
	<node id="-16808" lat="59.5569444476" lon="11.335288888">
		<tag k="name" v="Høytorp" />
		<tag k="place" v="farm" />
		<tag k="ssr:stedsnr" v="752357" />
	</node>
	<node id="-16806" lat="59.5210611069" lon="11.3855916636">
		<tag k="name" v="Fjell" />
		<tag k="place" v="farm" />
		<tag k="ssr:stedsnr" v="752290" />
	</node>
	<node id="-16805" lat="59.5452805588" lon="11.4969194476">
		<tag k="name" v="Lundeby" />
		<tag k="place" v="farm" />
		<tag k="ssr:stedsnr" v="752276" />
	</node>
	<node id="-16804" lat="59.5742611082" lon="11.4023861127">
		<tag k="name" v="Fjerdingen" />
		<tag k="place" v="farm" />
		<tag k="ssr:stedsnr" v="752269" />
	</node>
	<node id="-16799" lat="59.5817638881" lon="11.4545166657">
		<tag k="name" v="Nordli" />
		<tag k="place" v="farm" />
		<tag k="ssr:stedsnr" v="752010" />
	</node>
	<node id="-16798" lat="59.5957861127" lon="11.3796250061">
		<tag k="name" v="Svartebekk" />
		<tag k="place" v="isolated_dwelling" />
		<tag k="ssr:stedsnr" v="751472" />
	</node>
	<node id="-16796" lat="59.4869527775" lon="11.2489805472">
		<tag k="name" v="Skjørshammer" />
		<tag k="place" v="farm" />
		<tag k="ssr:stedsnr" v="750544" />
	</node>
	<node id="-16795" lat="59.49003056" lon="11.2729611098">
		<tag k="name" v="Sannås" />
		<tag k="place" v="farm" />
		<tag k="ssr:stedsnr" v="750542" />
	</node>
	<node id="-16794" lat="59.4740972234" lon="11.3192388919">
		<tag k="name" v="Hen" />
		<tag k="place" v="hamlet" />
		<tag k="ssr:stedsnr" v="737829" />
	</node>
	<node id="-16793" lat="59.5296777754" lon="11.3745361113">
		<tag k="alt_name" v="Krugerud" />
		<tag k="name" v="Krukerud" />
		<tag k="place" v="farm" />
		<tag k="ssr:stedsnr" v="732752" />
	</node>
	<node id="-16792" lat="59.5163194444" lon="11.3037305489">
		<tag k="name" v="Haug" />
		<tag k="place" v="farm" />
		<tag k="ssr:stedsnr" v="732742" />
	</node>
	<node id="-16791" lat="59.5226305523" lon="11.3388527734">
		<tag k="name" v="Enerhaugen" />
		<tag k="place" v="farm" />
		<tag k="ssr:stedsnr" v="732718" />
	</node>
	<node id="-16790" lat="59.5222611113" lon="11.3562250023">
		<tag k="alt_name" v="Bøli nedre;Bøli østre" />
		<tag k="name" v="Nedre Bøli" />
		<tag k="place" v="farm" />
		<tag k="ssr:stedsnr" v="732714" />
	</node>
	<node id="-16789" lat="59.5237638852" lon="11.386813884">
		<tag k="alt_name" v="Fjell nordre" />
		<tag k="name" v="Nordre Fjell" />
		<tag k="place" v="farm" />
		<tag k="ssr:stedsnr" v="732713" />
	</node>
	<node id="-16788" lat="59.5847416697" lon="11.2471250019">
		<tag k="name" v="Kråka" />
		<tag k="place" v="farm" />
		<tag k="ssr:stedsnr" v="732632" />
	</node>
	<node id="-16787" lat="59.5889055552" lon="11.4188250002">
		<tag k="alt_name" v="Krogstad" />
		<tag k="name" v="Krokstad" />
		<tag k="place" v="farm" />
		<tag k="ssr:stedsnr" v="732627" />
	</node>
	<node id="-16785" lat="59.5628333328" lon="11.3232305476">
		<tag k="name" v="Vanndogg" />
		<tag k="place" v="isolated_dwelling" />
		<tag k="ssr:stedsnr" v="732619" />
	</node>
	<node id="-16784" lat="59.5642250029" lon="11.3956638832">
		<tag k="alt_name" v="Karterud" />
		<tag k="name" v="Korterud" />
		<tag k="place" v="farm" />
		<tag k="ssr:stedsnr" v="732617" />
	</node>
	<node id="-16783" lat="59.5712611101" lon="11.4544916663">
		<tag k="name" v="Føringsås" />
		<tag k="place" v="farm" />
		<tag k="ssr:stedsnr" v="732604" />
	</node>
	<node id="-16781" lat="59.5395611105" lon="11.3535416583">
		<tag k="name" v="Randem" />
		<tag k="place" v="farm" />
		<tag k="ssr:stedsnr" v="732563" />
	</node>
	<node id="-16780" lat="59.5389249985" lon="11.2081944377">
		<tag k="alt_name" v="Linddal" />
		<tag k="name" v="Lindal" />
		<tag k="place" v="farm" />
		<tag k="ssr:stedsnr" v="732555" />
	</node>
	<node id="-16779" lat="59.5395749997" lon="11.1948277848">
		<tag k="alt_name" v="Halstvet søndre;Nordeng i Eidsberg" />
		<tag k="name" v="Nordeng" />
		<tag k="place" v="farm" />
		<tag k="ssr:stedsnr" v="732553" />
	</node>
	<node id="-16778" lat="59.5585388846" lon="11.4756249969">
		<tag k="name" v="Rud" />
		<tag k="place" v="farm" />
		<tag k="ssr:stedsnr" v="732519" />
	</node>
	<node id="-16777" lat="59.5533666711" lon="11.5291722246">
		<tag k="name" v="Myrås" />
		<tag k="place" v="farm" />
		<tag k="ssr:stedsnr" v="732511" />
	</node>
	<node id="-16776" lat="59.5419166677" lon="11.4842555566">
		<tag k="name" v="Mona" />
		<tag k="place" v="farm" />
		<tag k="ssr:stedsnr" v="732498" />
	</node>
	<node id="-16775" lat="59.5403444434" lon="11.5168916736">
		<tag k="name" v="Bråten" />
		<tag k="place" v="farm" />
		<tag k="ssr:stedsnr" v="732496" />
	</node>
	<node id="-16772" lat="59.4836666676" lon="11.3611861197">
		<tag k="name" v="Løkke" />
		<tag k="place" v="farm" />
		<tag k="ssr:stedsnr" v="731051" />
	</node>
	<node id="-16771" lat="59.4813055559" lon="11.329058339">
		<tag k="name" v="Trippestad" />
		<tag k="place" v="farm" />
		<tag k="ssr:stedsnr" v="731030" />
	</node>
	<node id="-16769" lat="59.4639749995" lon="11.3813305526">
		<tag k="name" v="Torp" />
		<tag k="place" v="farm" />
		<tag k="ssr:stedsnr" v="730023" />
	</node>
	<node id="-16768" lat="59.5567972228" lon="11.5143666644">
		<tag k="name" v="Kjensby" />
		<tag k="place" v="farm" />
		<tag k="ssr:stedsnr" v="718516" />
	</node>
	<node id="-16766" lat="59.5480861087" lon="11.5220527763">
		<tag k="name" v="Torp" />
		<tag k="place" v="farm" />
		<tag k="ssr:stedsnr" v="718401" />
	</node>
	<node id="-16763" lat="59.4726722204" lon="11.5416055583">
		<tag k="name" v="Rudsetra" />
		<tag k="place" v="locality" />
		<tag k="ssr:stedsnr" v="718394" />
	</node>
	<node id="-16759" lat="59.4786861122" lon="11.3264222176">
		<tag k="name" v="Heia" />
		<tag k="place" v="farm" />
		<tag k="ssr:stedsnr" v="718254" />
	</node>
	<node id="-16753" lat="59.5427972228" lon="11.2036833347">
		<tag k="alt_name" v="Guldberg" />
		<tag k="name" v="Gullberg" />
		<tag k="place" v="farm" />
		<tag k="ssr:stedsnr" v="691445" />
	</node>
	<node id="-16752" lat="59.5532250028" lon="11.3603333263">
		<tag k="name" v="Fiskerud" />
		<tag k="place" v="farm" />
		<tag k="ssr:stedsnr" v="691412" />
	</node>
	<node id="-16750" lat="59.53691111" lon="11.4291527727">
		<tag k="name" v="Nedre Grini" />
		<tag k="place" v="farm" />
		<tag k="ssr:stedsnr" v="691380" />
	</node>
	<node id="-16749" lat="59.5202805512" lon="11.394302774">
		<tag k="name" v="Smådal" />
		<tag k="place" v="farm" />
		<tag k="ssr:stedsnr" v="691367" />
	</node>
	<node id="-16745" lat="59.5538805553" lon="11.5027750044">
		<tag k="name" v="Kvernhusengen" />
		<tag k="place" v="farm" />
		<tag k="ssr:stedsnr" v="691005" />
	</node>
	<node id="-16744" lat="59.6000166663" lon="11.2553194356">
		<tag k="name" v="Elgetun" />
		<tag k="place" v="farm" />
		<tag k="ssr:stedsnr" v="671895" />
	</node>
	<node id="-16743" lat="59.5309499961" lon="11.3513333397">
		<tag k="name" v="Muskau" />
		<tag k="place" v="farm" />
		<tag k="ssr:stedsnr" v="671741" />
	</node>
	<node id="-16742" lat="59.523569446" lon="11.2164027732">
		<tag k="name" v="Søreng" />
		<tag k="place" v="farm" />
		<tag k="ssr:stedsnr" v="671736" />
	</node>
	<node id="-16741" lat="59.5277777785" lon="11.2165749987">
		<tag k="alt_name" v="Høie" />
		<tag k="name" v="Hoie" />
		<tag k="place" v="farm" />
		<tag k="ssr:stedsnr" v="671726" />
	</node>
	<node id="-16740" lat="59.5318111138" lon="11.271663886">
		<tag k="alt_name" v="Udal" />
		<tag k="name" v="Uldal" />
		<tag k="place" v="farm" />
		<tag k="ssr:stedsnr" v="671723" />
	</node>
	<node id="-16739" lat="59.507569447" lon="11.377261113">
		<tag k="alt_name" v="Vollane" />
		<tag k="name" v="Vollene" />
		<tag k="place" v="farm" />
		<tag k="ssr:stedsnr" v="671718" />
	</node>
	<node id="-16738" lat="59.5203666706" lon="11.3856027789">
		<tag k="alt_name" v="Fjell søndre" />
		<tag k="name" v="Søndre Fjell" />
		<tag k="place" v="farm" />
		<tag k="ssr:stedsnr" v="671701" />
	</node>
	<node id="-16737" lat="59.5162449138" lon="11.3952681771">
		<tag k="fixme" v="consider place=hamlet" />
		<tag k="name" v="Dynjan" />
		<tag k="place" v="farm" />
		<tag k="ssr:stedsnr" v="671700" />
	</node>
	<node id="-16736" lat="59.5823138915" lon="11.4641055491">
		<tag k="name" v="Hedemarken" />
		<tag k="place" v="isolated_dwelling" />
		<tag k="ssr:stedsnr" v="671624" />
	</node>
	<node id="-16735" lat="59.5842666628" lon="11.3802250062">
		<tag k="name" v="Østli" />
		<tag k="place" v="farm" />
		<tag k="ssr:stedsnr" v="671614" />
	</node>
	<node id="-16733" lat="59.563061109" lon="11.2410750001">
		<tag k="name" v="Tykerud" />
		<tag k="place" v="farm" />
		<tag k="ssr:stedsnr" v="671567" />
	</node>
	<node id="-16732" lat="59.5790861117" lon="11.259388895">
		<tag k="alt_name" v="Togrind" />
		<tag k="name" v="Tenor" />
		<tag k="place" v="farm" />
		<tag k="ssr:stedsnr" v="671555" />
	</node>
	<node id="-16731" lat="59.5444861068" lon="11.2273333389">
		<tag k="alt_name" v="Løvstad" />
		<tag k="name" v="Løvestad" />
		<tag k="place" v="farm" />
		<tag k="ssr:stedsnr" v="671549" />
	</node>
	<node id="-16729" lat="59.551363893" lon="11.3557500062">
		<tag k="name" v="Neset" />
		<tag k="place" v="farm" />
		<tag k="ssr:stedsnr" v="671538" />
	</node>
	<node id="-16728" lat="59.5334916706" lon="11.2549250011">
		<tag k="alt_name" v="Moen mellom" />
		<tag k="name" v="Mellom-Moen" />
		<tag k="place" v="farm" />
		<tag k="ssr:stedsnr" v="671517" />
	</node>
	<node id="-16724" lat="59.4845666692" lon="11.4082999918">
		<tag k="name" v="Åserud" />
		<tag k="place" v="farm" />
		<tag k="ssr:stedsnr" v="670074" />
	</node>
	<node id="-16723" lat="59.4773027761" lon="11.311158341">
		<tag k="alt_name" v="Krosby" />
		<tag k="fixme" v="consider place=hamlet" />
		<tag k="name" v="Krossby" />
		<tag k="place" v="farm" />
		<tag k="ssr:stedsnr" v="670012" />
	</node>
	<node id="-16722" lat="59.4780750012" lon="11.2622999933">
		<tag k="name" v="Torp" />
		<tag k="place" v="farm" />
		<tag k="ssr:stedsnr" v="670008" />
	</node>
	<node id="-16721" lat="59.4926805544" lon="11.3779111123">
		<tag k="name" v="Sviu" />
		<tag k="place" v="farm" />
		<tag k="ssr:stedsnr" v="669063" />
	</node>
	<node id="-16720" lat="59.4815916678" lon="11.3042666639">
		<tag k="fixme" v="consider place=hamlet" />
		<tag k="name" v="Pengerud" />
		<tag k="place" v="farm" />
		<tag k="ssr:stedsnr" v="669025" />
	</node>
	<node id="-16719" lat="59.550587922" lon="11.437305075">
		<tag k="fixme" v="consider place=hamlet" />
		<tag k="name" v="Søndre Bjørnestad" />
		<tag k="place" v="farm" />
		<tag k="ssr:stedsnr" v="662940" />
	</node>
	<node id="-16711" lat="59.4967361079" lon="11.3368694459">
		<tag k="name" v="Svenke Rånås" />
		<tag k="place" v="farm" />
		<tag k="ssr:stedsnr" v="657436" />
	</node>
	<node id="-16703" lat="59.5706888857" lon="11.3828166712">
		<tag k="name" v="Homstvet" />
		<tag k="place" v="farm" />
		<tag k="ssr:stedsnr" v="630390" />
	</node>
	<node id="-16702" lat="59.5687944424" lon="11.3741972221">
		<tag k="name" v="Homstvet" />
		<tag k="place" v="farm" />
		<tag k="ssr:stedsnr" v="630389" />
	</node>
	<node id="-16701" lat="59.5660388887" lon="11.3813972228">
		<tag k="name" v="Homstvet" />
		<tag k="place" v="farm" />
		<tag k="ssr:stedsnr" v="630388" />
	</node>
	<node id="-16699" lat="59.5375805528" lon="11.3197916711">
		<tag k="name" v="Skjørtvet" />
		<tag k="place" v="farm" />
		<tag k="ssr:stedsnr" v="630334" />
	</node>
	<node id="-16698" lat="59.530652775" lon="11.4042999937">
		<tag k="name" v="Roligheta" />
		<tag k="place" v="farm" />
		<tag k="ssr:stedsnr" v="630324" />
	</node>
	<node id="-16695" lat="59.5185749962" lon="11.3908777773">
		<tag k="name" v="Krosby" />
		<tag k="place" v="farm" />
		<tag k="ssr:stedsnr" v="630012" />
	</node>
	<node id="-16693" lat="59.4720027737" lon="11.2523583329">
		<tag k="name" v="Langbråten" />
		<tag k="place" v="farm" />
		<tag k="ssr:stedsnr" v="629540" />
	</node>
	<node id="-16692" lat="59.4732611111" lon="11.2346861072">
		<tag k="name" v="Køya" />
		<tag k="place" v="farm" />
		<tag k="ssr:stedsnr" v="628528" />
	</node>
	<node id="-16690" lat="59.5325083368" lon="11.2878388906">
		<tag k="name" v="Mortvet" />
		<tag k="place" v="farm" />
		<tag k="ssr:stedsnr" v="610739" />
	</node>
	<node id="-16689" lat="59.5092527815" lon="11.3524361028">
		<tag k="name" v="Kursmose" />
		<tag k="place" v="farm" />
		<tag k="ssr:stedsnr" v="610735" />
	</node>
	<node id="-16687" lat="59.5181361071" lon="11.3644777692">
		<tag k="name" v="Bølibråten" />
		<tag k="place" v="farm" />
		<tag k="ssr:stedsnr" v="610724" />
	</node>
	<node id="-16686" lat="59.5021916693" lon="11.2475666708">
		<tag k="alt_name" v="Lysåker nedre;Lysaker" />
		<tag k="name" v="Nedre Lysåker" />
		<tag k="place" v="farm" />
		<tag k="ssr:stedsnr" v="610687" />
	</node>
	<node id="-16685" lat="59.5803777795" lon="11.3458194378">
		<tag k="name" v="Trara" />
		<tag k="place" v="farm" />
		<tag k="ssr:stedsnr" v="610630" />
	</node>
	<node id="-16684" lat="59.5786555525" lon="11.3300611151">
		<tag k="alt_name" v="Brandsrud nordre;Brandsrud" />
		<tag k="name" v="Nordre Brandsrud" />
		<tag k="place" v="farm" />
		<tag k="ssr:stedsnr" v="610607" />
	</node>
	<node id="-16683" lat="59.5744249986" lon="11.398266672">
		<tag k="name" v="Kviller" />
		<tag k="place" v="farm" />
		<tag k="ssr:stedsnr" v="610604" />
	</node>
	<node id="-16682" lat="59.574358335" lon="11.3732250017">
		<tag k="name" v="Skubberud" />
		<tag k="place" v="farm" />
		<tag k="ssr:stedsnr" v="610605" />
	</node>
	<node id="-16681" lat="59.5391694448" lon="11.4149361196">
		<tag k="name" v="Hol" />
		<tag k="place" v="farm" />
		<tag k="ssr:stedsnr" v="610568" />
	</node>
	<node id="-16680" lat="59.5387861075" lon="11.2924750025">
		<tag k="name" v="Haga" />
		<tag k="place" v="farm" />
		<tag k="ssr:stedsnr" v="610558" />
	</node>
	<node id="-16679" lat="59.5359944478" lon="11.2825750069">
		<tag k="name" v="Elvestad" />
		<tag k="place" v="farm" />
		<tag k="ssr:stedsnr" v="610556" />
	</node>
	<node id="-16678" lat="59.5367305548" lon="11.2220611051">
		<tag k="name" v="Rud" />
		<tag k="place" v="farm" />
		<tag k="ssr:stedsnr" v="610554" />
	</node>
	<node id="-16676" lat="59.5342333313" lon="11.3239000006">
		<tag k="alt_name" v="Skjørtvet" />
		<tag k="name" v="Skjøltvet" />
		<tag k="place" v="farm" />
		<tag k="ssr:stedsnr" v="610051" />
	</node>
	<node id="-16675" lat="59.4864527762" lon="11.371980554">
		<tag k="name" v="Filtvet" />
		<tag k="place" v="farm" />
		<tag k="ssr:stedsnr" v="609057" />
	</node>
	<node id="-16674" lat="59.4832250013" lon="11.2616555644">
		<tag k="name" v="Skjør" />
		<tag k="place" v="farm" />
		<tag k="ssr:stedsnr" v="608030" />
	</node>
	<node id="-16672" lat="59.491508336" lon="11.4065861134">
		<tag k="alt_name" v="Sveitserhytta" />
		<tag k="name" v="Hellebekk" />
		<tag k="place" v="isolated_dwelling" />
		<tag k="ssr:stedsnr" v="597437" />
	</node>
	<node id="-16666" lat="59.5123972207" lon="11.2386833339">
		<tag k="alt_name" v="Krepphaug" />
		<tag k="name" v="Skrepphaug" />
		<tag k="place" v="farm" />
		<tag k="ssr:stedsnr" v="569495" />
	</node>
	<node id="-16665" lat="59.5859388885" lon="11.2746250057">
		<tag k="name" v="Løvmo" />
		<tag k="place" v="farm" />
		<tag k="ssr:stedsnr" v="569432" />
	</node>
	<node id="-16664" lat="59.5541222256" lon="11.3183138818">
		<tag k="name" v="Mustorpdalen" />
		<tag k="place" v="farm" />
		<tag k="ssr:stedsnr" v="569397" />
	</node>
	<node id="-16662" lat="59.5387027771" lon="11.3833027864">
		<tag k="name" v="Langhus" />
		<tag k="place" v="farm" />
		<tag k="ssr:stedsnr" v="569372" />
	</node>
	<node id="-16661" lat="59.5474805518" lon="11.3260833337">
		<tag k="name" v="Mysenbråten" />
		<tag k="place" v="farm" />
		<tag k="ssr:stedsnr" v="569369" />
	</node>
	<node id="-16660" lat="59.5494982821" lon="11.3333138205">
		<tag k="alt_name" v="Eidsberg U-skole" />
		<tag k="amenity" v="school" />
		<tag k="name" v="Eidsberg ungdomsskole" />
		<tag k="ssr:stedsnr" v="569364" />
	</node>
	<node id="-16658" lat="59.5116916704" lon="11.4063888846">
		<tag k="name" v="Frydenlund" />
		<tag k="place" v="isolated_dwelling" />
		<tag k="ssr:stedsnr" v="569342" />
	</node>
	<node id="-16656" lat="59.5741833363" lon="11.4085944389">
		<tag k="name" v="Kvillerhytta" />
		<tag k="place" v="farm" />
		<tag k="ssr:stedsnr" v="569319" />
	</node>
	<node id="-16654" lat="59.541580559" lon="11.1956944389">
		<tag k="alt_name" v="Halstvet mellem" />
		<tag k="name" v="Mellom-Halstvet" />
		<tag k="place" v="farm" />
		<tag k="ssr:stedsnr" v="569002" />
	</node>
	<node id="-16653" lat="59.5298111124" lon="11.4386027784">
		<tag k="name" v="Solberg" />
		<tag k="place" v="farm" />
		<tag k="ssr:stedsnr" v="550736" />
	</node>
	<node id="-16651" lat="59.5304638856" lon="11.306536116">
		<tag k="name" v="Duserud" />
		<tag k="place" v="farm" />
		<tag k="ssr:stedsnr" v="550708" />
	</node>
	<node id="-16650" lat="59.5139361142" lon="11.2833638877">
		<tag k="name" v="Knoll" />
		<tag k="place" v="farm" />
		<tag k="ssr:stedsnr" v="550704" />
	</node>
	<node id="-16649" lat="59.5211888865" lon="11.4537694507">
		<tag k="name" v="Skogen" />
		<tag k="place" v="farm" />
		<tag k="ssr:stedsnr" v="550686" />
	</node>
	<node id="-16648" lat="59.512391671" lon="11.2688750006">
		<tag k="name" v="Lundsrud" />
		<tag k="place" v="farm" />
		<tag k="ssr:stedsnr" v="550668" />
	</node>
	<node id="-16647" lat="59.5004583369" lon="11.3057472287">
		<tag k="name" v="Bjørnerud" />
		<tag k="place" v="farm" />
		<tag k="ssr:stedsnr" v="550643" />
	</node>
	<node id="-16646" lat="59.5726888848" lon="11.2264333255">
		<tag k="name" v="Sulerudhaugen" />
		<tag k="place" v="farm" />
		<tag k="ssr:stedsnr" v="550556" />
	</node>
	<node id="-16645" lat="59.5501000032" lon="11.2852277741">
		<tag k="name" v="Langnes" />
		<tag k="place" v="farm" />
		<tag k="ssr:stedsnr" v="550548" />
	</node>
	<node id="-16644" lat="59.5496000039" lon="11.1991611199">
		<tag k="name" v="Torkelsrud" />
		<tag k="place" v="farm" />
		<tag k="ssr:stedsnr" v="550540" />
	</node>
	<node id="-16643" lat="59.5552388882" lon="11.3748305486">
		<tag k="name" v="Ramstad" />
		<tag k="place" v="farm" />
		<tag k="ssr:stedsnr" v="550528" />
	</node>
	<node id="-16642" lat="59.5556916653" lon="11.3258944412">
		<tag k="name" v="Mysen" />
		<tag k="place" v="town" />
		<tag k="ssr:stedsnr" v="550525" />
	</node>
	<node id="-16641" lat="59.5507749984" lon="11.3067055604">
		<tag k="name" v="Narvestad" />
		<tag k="place" v="farm" />
		<tag k="ssr:stedsnr" v="550488" />
	</node>
	<node id="-16640" lat="59.5362915432" lon="11.3161829117">
		<tag k="name" v="Kløntorp" />
		<tag k="place" v="farm" />
		<tag k="ssr:stedsnr" v="549497" />
	</node>
	<node id="-16639" lat="59.558330559" lon="11.5006527741">
		<tag k="name" v="Myre" />
		<tag k="place" v="farm" />
		<tag k="ssr:stedsnr" v="549455" />
	</node>
	<node id="-16638" lat="59.5487138848" lon="11.495694447">
		<tag k="name" v="Lundeby" />
		<tag k="place" v="farm" />
		<tag k="ssr:stedsnr" v="549449" />
	</node>
	<node id="-16634" lat="59.4979194454" lon="11.2871972217">
		<tag k="name" v="Teig" />
		<tag k="place" v="farm" />
		<tag k="ssr:stedsnr" v="549100" />
	</node>
	<node id="-16633" lat="59.4875416682" lon="11.4096972226">
		<tag k="alt_name" v="Brattfoss" />
		<tag k="name" v="Brattefoss" />
		<tag k="place" v="farm" />
		<tag k="ssr:stedsnr" v="548073" />
	</node>
	<node id="-16631" lat="59.4669055546" lon="11.3714555594">
		<tag k="name" v="Sørby" />
		<tag k="place" v="farm" />
		<tag k="ssr:stedsnr" v="548020" />
	</node>
	<node id="-16630" lat="59.5501555547" lon="11.527958338">
		<tag k="name" v="Sandås" />
		<tag k="place" v="farm" />
		<tag k="ssr:stedsnr" v="536389" />
	</node>
	<node id="-16625" lat="59.5661305559" lon="11.2431138837">
		<tag k="name" v="Trøkkopp" />
		<tag k="place" v="farm" />
		<tag k="ssr:stedsnr" v="509393" />
	</node>
	<node id="-16624" lat="59.566022218" lon="11.2862583412">
		<tag k="name" v="Tønsberg" />
		<tag k="place" v="farm" />
		<tag k="ssr:stedsnr" v="509358" />
	</node>
	<node id="-16622" lat="59.5139222215" lon="11.3514305535">
		<tag k="name" v="Haltorp" />
		<tag k="place" v="farm" />
		<tag k="ssr:stedsnr" v="509317" />
	</node>
	<node id="-16620" lat="59.5478722187" lon="11.4553749926">
		<tag k="name" v="Søndre Løken" />
		<tag k="place" v="farm" />
		<tag k="ssr:stedsnr" v="509291" />
	</node>
	<node id="-16619" lat="59.5392027753" lon="11.464449991">
		<tag k="name" v="Kverner" />
		<tag k="place" v="farm" />
		<tag k="ssr:stedsnr" v="509290" />
	</node>
	<node id="-16617" lat="59.5550888843" lon="11.4647083409">
		<tag k="name" v="Snekkerud" />
		<tag k="place" v="farm" />
		<tag k="ssr:stedsnr" v="509256" />
	</node>
	<node id="-16616" lat="59.5392999967" lon="11.4692222204">
		<tag k="name" v="Veiby" />
		<tag k="place" v="farm" />
		<tag k="ssr:stedsnr" v="509008" />
	</node>
	<node id="-16615" lat="59.6020642821" lon="11.2663711463">
		<tag k="fixme" v="consider place=hamlet" />
		<tag k="name" v="Trollerud" />
		<tag k="place" v="farm" />
		<tag k="ssr:stedsnr" v="489887" />
	</node>
	<node id="-16614" lat="59.5285333347" lon="11.2557972247">
		<tag k="alt_name" v="Haug søndre;Haug" />
		<tag k="name" v="Søndre Haug" />
		<tag k="place" v="farm" />
		<tag k="ssr:stedsnr" v="489747" />
	</node>
	<node id="-16613" lat="59.5176499992" lon="11.3445750066">
		<tag k="name" v="Åsen" />
		<tag k="place" v="farm" />
		<tag k="ssr:stedsnr" v="489730" />
	</node>
	<node id="-16612" lat="59.5107888918" lon="11.279952774">
		<tag k="alt_name" v="Kleven" />
		<tag k="name" v="Kleiva" />
		<tag k="place" v="farm" />
		<tag k="ssr:stedsnr" v="489724" />
	</node>
	<node id="-16611" lat="59.4999083339" lon="11.2831583317">
		<tag k="name" v="Fykerud" />
		<tag k="place" v="farm" />
		<tag k="ssr:stedsnr" v="489700" />
	</node>
	<node id="-16609" lat="59.5830805577" lon="11.4122250028">
		<tag k="name" v="Våler" />
		<tag k="place" v="farm" />
		<tag k="ssr:stedsnr" v="489652" />
	</node>
	<node id="-16608" lat="59.5802750019" lon="11.2664833339">
		<tag k="name" v="Gislingrud" />
		<tag k="place" v="farm" />
		<tag k="ssr:stedsnr" v="489643" />
	</node>
	<node id="-16607" lat="59.5826611144" lon="11.357155547">
		<tag k="alt_name" v="Torper søndre" />
		<tag k="name" v="Søndre Torper" />
		<tag k="place" v="farm" />
		<tag k="ssr:stedsnr" v="489640" />
	</node>
	<node id="-16606" lat="59.5849055544" lon="11.3554916598">
		<tag k="alt_name" v="Torper nedre;Torper" />
		<tag k="name" v="Nedre Torper" />
		<tag k="place" v="farm" />
		<tag k="ssr:stedsnr" v="489639" />
	</node>
	<node id="-16605" lat="59.5969694476" lon="11.289544442">
		<tag k="name" v="Ultvetskogen" />
		<tag k="place" v="farm" />
		<tag k="ssr:stedsnr" v="489628" />
	</node>
	<node id="-16604" lat="59.5780583346" lon="11.2560833364">
		<tag k="name" v="Vegarud" />
		<tag k="place" v="farm" />
		<tag k="ssr:stedsnr" v="489599" />
	</node>
	<node id="-16603" lat="59.5702749981" lon="11.3128555502">
		<tag k="name" v="Mona" />
		<tag k="ssr:stedsnr" v="489593" />
		<tag k="tourism" v="hotel" />
	</node>
	<node id="-16602" lat="59.5457361153" lon="11.2405638875">
		<tag k="name" v="Granberg" />
		<tag k="place" v="farm" />
		<tag k="ssr:stedsnr" v="489587" />
	</node>
	<node id="-16601" lat="59.5553916631" lon="11.2331111072">
		<tag k="name" v="Berg" />
		<tag k="place" v="farm" />
		<tag k="ssr:stedsnr" v="489569" />
	</node>
	<node id="-16600" lat="59.5662749988" lon="11.4523250049">
		<tag k="alt_name" v="Løkka" />
		<tag k="name" v="Lykkja" />
		<tag k="place" v="farm" />
		<tag k="ssr:stedsnr" v="489560" />
	</node>
	<node id="-16599" lat="59.5430444456" lon="11.1923666654">
		<tag k="name" v="Halstvet" />
		<tag k="place" v="farm" />
		<tag k="ssr:stedsnr" v="489529" />
	</node>
	<node id="-16597" lat="59.5961555567" lon="11.2759861051">
		<tag k="name" v="Ultvet" />
		<tag k="place" v="farm" />
		<tag k="ssr:stedsnr" v="489038" />
	</node>
	<node id="-16596" lat="59.5549277821" lon="11.4017111034">
		<tag k="name" v="Vister" />
		<tag k="place" v="farm" />
		<tag k="ssr:stedsnr" v="489036" />
	</node>
	<node id="-16595" lat="59.480688885" lon="11.465524994">
		<tag k="alt_name" v="Vesterbysæter;Vesterbyseter" />
		<tag k="historic" v="shieling" />
		<tag k="name" v="Vesterbysetra" />
		<tag k="place" v="locality" />
		<tag k="ssr:stedsnr" v="488067" />
	</node>
	<node id="-16594" lat="59.4902305589" lon="11.4726694396">
		<tag k="name" v="Fjellstua" />
		<tag k="place" v="isolated_dwelling" />
		<tag k="ssr:stedsnr" v="487617" />
	</node>
	<node id="-16593" lat="59.495072218" lon="11.3156611152">
		<tag k="name" v="Gutu" />
		<tag k="place" v="farm" />
		<tag k="ssr:stedsnr" v="487071" />
	</node>
	<node id="-16592" lat="59.4753777816" lon="11.3689611169">
		<tag k="name" v="Vesterby" />
		<tag k="place" v="farm" />
		<tag k="ssr:stedsnr" v="487002" />
	</node>
	<node id="-16590" lat="59.5781027758" lon="11.2456166601">
		<tag k="name" v="Berg" />
		<tag k="place" v="farm" />
		<tag k="ssr:stedsnr" v="449402" />
	</node>
	<node id="-16588" lat="59.5447222214" lon="11.3204833279">
		<tag k="name" v="Furulund" />
		<tag k="place" v="farm" />
		<tag k="ssr:stedsnr" v="449333" />
	</node>
	<node id="-16587" lat="59.5443361093" lon="11.4084833258">
		<tag k="alt_name" v="Hauer" />
		<tag k="name" v="Hauger" />
		<tag k="place" v="farm" />
		<tag k="ssr:stedsnr" v="449313" />
	</node>
	<node id="-16586" lat="59.5550338871" lon="11.4057547292">
		<tag k="fixme" v="multiple name tags, choose one and add the other to alt_name" />
		<tag k="name" v="Nordre Revhaug;Revhaug" />
		<tag k="place" v="farm" />
		<tag k="ssr:stedsnr" v="449267" />
	</node>
	<node id="-16585" lat="59.558444448" lon="11.4961416647">
		<tag k="name" v="Åsland" />
		<tag k="place" v="farm" />
		<tag k="ssr:stedsnr" v="449259" />
	</node>
	<node id="-16584" lat="59.5470805529" lon="11.2409972183">
		<tag k="name" v="Nordkapp" />
		<tag k="place" v="farm" />
		<tag k="ssr:stedsnr" v="448508" />
	</node>
	<node id="-16583" lat="59.5956388844" lon="11.2578222275">
		<tag k="name" v="Sauerud" />
		<tag k="place" v="farm" />
		<tag k="ssr:stedsnr" v="448485" />
	</node>
	<node id="-16582" lat="59.5380888898" lon="11.2881416582">
		<tag k="name" v="Haga" />
		<tag k="place" v="farm" />
		<tag k="ssr:stedsnr" v="448449" />
	</node>
	<node id="-16580" lat="59.584647222" lon="11.4633416596">
		<tag k="name" v="Tørbråten" />
		<tag k="place" v="farm" />
		<tag k="ssr:stedsnr" v="448355" />
	</node>
	<node id="-16579" lat="59.486227779" lon="11.2620194497">
		<tag k="name" v="Hauger" />
		<tag k="place" v="farm" />
		<tag k="ssr:stedsnr" v="447498" />
	</node>
	<node id="-16578" lat="59.4585750044" lon="11.3096222199">
		<tag k="name" v="Glomsrud" />
		<tag k="place" v="farm" />
		<tag k="ssr:stedsnr" v="434780" />
	</node>
	<node id="-16577" lat="59.5993250028" lon="11.4199611044">
		<tag k="name" v="Buer" />
		<tag k="place" v="farm" />
		<tag k="ssr:stedsnr" v="429889" />
	</node>
	<node id="-16576" lat="59.5211833299" lon="11.3050527853">
		<tag k="name" v="Tangeland" />
		<tag k="place" v="farm" />
		<tag k="ssr:stedsnr" v="429731" />
	</node>
	<node id="-16575" lat="59.5081500024" lon="11.3278499969">
		<tag k="alt_name" v="Skjervingen" />
		<tag k="name" v="Skjervenga" />
		<tag k="place" v="farm" />
		<tag k="ssr:stedsnr" v="429716" />
	</node>
	<node id="-16574" lat="59.506108329" lon="11.3924944382">
		<tag k="name" v="Neple" />
		<tag k="place" v="farm" />
		<tag k="ssr:stedsnr" v="429711" />
	</node>
	<node id="-16573" lat="59.5199694482" lon="11.3480944485">
		<tag k="alt_name" v="Lytomt" />
		<tag k="name" v="Lutomt" />
		<tag k="place" v="farm" />
		<tag k="ssr:stedsnr" v="429698" />
	</node>
	<node id="-16572" lat="59.5114194486" lon="11.3808111131">
		<tag k="alt_name" v="Krossby, søndre;Krosby" />
		<tag k="fixme" v="consider place=hamlet" />
		<tag k="name" v="Søndre Krossby" />
		<tag k="place" v="farm" />
		<tag k="ssr:stedsnr" v="429694" />
	</node>
	<node id="-16571" lat="59.5006499972" lon="11.3737305502">
		<tag k="name" v="Trømborg" />
		<tag k="place" v="farm" />
		<tag k="ssr:stedsnr" v="429639" />
	</node>
	<node id="-16570" lat="59.5650833334" lon="11.3031333323">
		<tag k="name" v="Østereng" />
		<tag k="place" v="farm" />
		<tag k="ssr:stedsnr" v="429580" />
	</node>
	<node id="-16569" lat="59.5693972236" lon="11.3336916595">
		<tag k="alt_name" v="Momarken Travbane" />
		<tag k="leisure" v="pitch" />
		<tag k="name" v="Momarken" />
		<tag k="ssr:stedsnr" v="429575" />
	</node>
	<node id="-16568" lat="59.5641888909" lon="11.3638666709">
		<tag k="name" v="Rustad" />
		<tag k="place" v="farm" />
		<tag k="ssr:stedsnr" v="429571" />
	</node>
	<node id="-16567" lat="59.5670000036" lon="11.4364944368">
		<tag k="name" v="Basdal" />
		<tag k="place" v="farm" />
		<tag k="ssr:stedsnr" v="429570" />
	</node>
	<node id="-16566" lat="59.5745055538" lon="11.3551861049">
		<tag k="name" v="Bråtan" />
		<tag k="place" v="farm" />
		<tag k="ssr:stedsnr" v="429553" />
	</node>
	<node id="-16565" lat="59.5742611087" lon="11.3840527755">
		<tag k="name" v="Homstvet" />
		<tag k="place" v="farm" />
		<tag k="ssr:stedsnr" v="429549" />
	</node>
	<node id="-16564" lat="59.5508611089" lon="11.3721166721">
		<tag k="name" v="Hallingstorp" />
		<tag k="place" v="farm" />
		<tag k="ssr:stedsnr" v="429518" />
	</node>
	<node id="-16563" lat="59.5543000045" lon="11.2466499935">
		<tag k="name" v="Hjelmark" />
		<tag k="place" v="farm" />
		<tag k="ssr:stedsnr" v="429515" />
	</node>
	<node id="-16562" lat="59.5490583352" lon="11.3669111065">
		<tag k="name" v="Bamsrud" />
		<tag k="place" v="farm" />
		<tag k="ssr:stedsnr" v="429476" />
	</node>
	<node id="-16561" lat="59.5960916691" lon="11.4836638948">
		<tag k="alt_name" v="Dalsetra" />
		<tag k="name" v="Dalsætra" />
		<tag k="place" v="isolated_dwelling" />
		<tag k="ssr:stedsnr" v="429439" />
	</node>
	<node id="-16560" lat="59.5767749996" lon="11.4598527744">
		<tag k="name" v="Frogner" />
		<tag k="place" v="farm" />
		<tag k="ssr:stedsnr" v="428581" />
	</node>
	<node id="-16559" lat="59.536888892" lon="11.4366888934">
		<tag k="alt_name" v="Lien" />
		<tag k="name" v="Lia" />
		<tag k="place" v="farm" />
		<tag k="ssr:stedsnr" v="428487" />
	</node>
	<node id="-16558" lat="59.5375194404" lon="11.4567611187">
		<tag k="name" v="Østbybråten" />
		<tag k="place" v="farm" />
		<tag k="ssr:stedsnr" v="428486" />
	</node>
	<node id="-16557" lat="59.5377361093" lon="11.3244750084">
		<tag k="name" v="Skjøltvet" />
		<tag k="place" v="farm" />
		<tag k="ssr:stedsnr" v="428484" />
	</node>
	<node id="-16556" lat="59.5362749955" lon="11.3035194516">
		<tag k="name" v="Hotvet" />
		<tag k="place" v="farm" />
		<tag k="ssr:stedsnr" v="428478" />
	</node>
	<node id="-16555" lat="59.5362805596" lon="11.2269999952">
		<tag k="name" v="Heia" />
		<tag k="place" v="farm" />
		<tag k="ssr:stedsnr" v="428471" />
	</node>
	<node id="-16554" lat="59.5402250032" lon="11.2232444498">
		<tag k="name" v="Leangsrud" />
		<tag k="place" v="farm" />
		<tag k="ssr:stedsnr" v="428469" />
	</node>
	<node id="-16553" lat="59.4937999962" lon="11.2693944368">
		<tag k="alt_name" v="Biltvet" />
		<tag k="name" v="Biltveten" />
		<tag k="place" v="farm" />
		<tag k="ssr:stedsnr" v="428084" />
	</node>
	<node id="-16550" lat="59.4870499969" lon="11.2617527767">
		<tag k="name" v="Hauger" />
		<tag k="place" v="farm" />
		<tag k="ssr:stedsnr" v="427032" />
	</node>
	<node id="-16549" lat="59.4687555578" lon="11.2894638839">
		<tag k="name" v="Ås" />
		<tag k="place" v="farm" />
		<tag k="ssr:stedsnr" v="427018" />
	</node>
	<node id="-16543" lat="59.4815027763" lon="11.3431638962">
		<tag k="name" v="Hake-Rånås" />
		<tag k="place" v="farm" />
		<tag k="ssr:stedsnr" v="415390" />
	</node>
	<node id="-16539" lat="59.5460277802" lon="11.3725027732">
		<tag k="name" v="Snippen" />
		<tag k="place" v="farm" />
		<tag k="ssr:stedsnr" v="266376" />
	</node>
	<node id="-16538" lat="59.5367833345" lon="11.2911083286">
		<tag k="name" v="Salerud" />
		<tag k="place" v="farm" />
		<tag k="ssr:stedsnr" v="266358" />
	</node>
	<node id="-16536" lat="59.5543555592" lon="11.4985583333">
		<tag k="name" v="Opstad (Jammerdal)" />
		<tag k="place" v="farm" />
		<tag k="ssr:stedsnr" v="266283" />
	</node>
	<node id="-16533" lat="59.5949666682" lon="11.4170583404">
		<tag k="name" v="Glansenberg" />
		<tag k="old_name" v="Glonsenberg" />
		<tag k="place" v="farm" />
		<tag k="ssr:stedsnr" v="247872" />
	</node>
	<node id="-16532" lat="59.5229999962" lon="11.3357305579">
		<tag k="alt_name" v="Bergland" />
		<tag k="name" v="Bergsland" />
		<tag k="place" v="farm" />
		<tag k="ssr:stedsnr" v="247732" />
	</node>
	<node id="-16531" lat="59.5137361126" lon="11.2602305483">
		<tag k="alt_name" v="Grønnern" />
		<tag k="name" v="Grønneren" />
		<tag k="place" v="farm" />
		<tag k="ssr:stedsnr" v="247667" />
	</node>
	<node id="-16530" lat="59.5561861081" lon="11.3859388903">
		<tag k="alt_name" v="Kjeserud østre;Kjeserud (prestegård)" />
		<tag k="name" v="Østre Kjeserud" />
		<tag k="place" v="farm" />
		<tag k="ssr:stedsnr" v="247520" />
	</node>
	<node id="-16528" lat="59.5325416627" lon="11.2020499924">
		<tag k="name" v="Lindhol" />
		<tag k="place" v="farm" />
		<tag k="ssr:stedsnr" v="246696" />
	</node>
	<node id="-16527" lat="59.5317583298" lon="11.2570500042">
		<tag k="alt_name" v="Haug nordre" />
		<tag k="name" v="Nordre Haug" />
		<tag k="place" v="farm" />
		<tag k="ssr:stedsnr" v="246690" />
	</node>
	<node id="-16526" lat="59.5864305547" lon="11.2694833331">
		<tag k="fixme" v="consider place=hamlet" />
		<tag k="name" v="Morstong" />
		<tag k="place" v="farm" />
		<tag k="ssr:stedsnr" v="246578" />
	</node>
	<node id="-16525" lat="59.588686108" lon="11.384419453">
		<tag k="alt_name" v="Holene" />
		<tag k="name" v="Holone" />
		<tag k="place" v="farm" />
		<tag k="ssr:stedsnr" v="246555" />
	</node>
	<node id="-16524" lat="59.5754333303" lon="11.3347472161">
		<tag k="alt_name" v="Brandsrud søndre;Brandsrud" />
		<tag k="name" v="Søndre Brandsrud" />
		<tag k="place" v="farm" />
		<tag k="ssr:stedsnr" v="246541" />
	</node>
	<node id="-16523" lat="59.5751499964" lon="11.2375916579">
		<tag k="alt_name" v="Kjeserud vestre;Kjeserud" />
		<tag k="name" v="Vestre Kjeserud" />
		<tag k="place" v="farm" />
		<tag k="ssr:stedsnr" v="246533" />
	</node>
	<node id="-16522" lat="59.5395805535" lon="11.2995361024">
		<tag k="name" v="Hol" />
		<tag k="place" v="farm" />
		<tag k="ssr:stedsnr" v="246486" />
	</node>
	<node id="-16521" lat="59.5458444488" lon="11.4497750053">
		<tag k="name" v="Melleby" />
		<tag k="place" v="farm" />
		<tag k="ssr:stedsnr" v="246481" />
	</node>
	<node id="-16519" lat="59.5460166649" lon="11.4886805631">
		<tag k="alt_name" v="Bjerke" />
		<tag k="name" v="Bjørke" />
		<tag k="place" v="farm" />
		<tag k="ssr:stedsnr" v="246424" />
	</node>
	<node id="-16518" lat="59.537888892" lon="11.5113305521">
		<tag k="name" v="Linto" />
		<tag k="place" v="farm" />
		<tag k="ssr:stedsnr" v="246385" />
	</node>
	<node id="-16516" lat="59.4952166674" lon="11.3653694389">
		<tag k="name" v="Løenga" />
		<tag k="place" v="farm" />
		<tag k="ssr:stedsnr" v="245074" />
	</node>
	<node id="-16515" lat="59.4889111082" lon="11.3667638839">
		<tag k="name" v="Engen" />
		<tag k="place" v="farm" />
		<tag k="ssr:stedsnr" v="245073" />
	</node>
	<node id="-16514" lat="59.4922749957" lon="11.356611104">
		<tag k="name" v="Brå" />
		<tag k="place" v="farm" />
		<tag k="ssr:stedsnr" v="245071" />
	</node>
	<node id="-16512" lat="59.4819000001" lon="11.2508500015">
		<tag k="alt_name" v="Brattåse" />
		<tag k="name" v="Brattås" />
		<tag k="place" v="farm" />
		<tag k="ssr:stedsnr" v="245031" />
	</node>
	<node id="-16511" lat="59.4772694404" lon="11.3317472291">
		<tag k="name" v="Heia" />
		<tag k="place" v="farm" />
		<tag k="ssr:stedsnr" v="245013" />
	</node>
	<node id="-16510" lat="59.4736333299" lon="11.382450002">
		<tag k="name" v="Torp" />
		<tag k="place" v="farm" />
		<tag k="ssr:stedsnr" v="245003" />
	</node>
	<node id="-16505" lat="59.4918916711" lon="11.390061115">
		<tag k="fixme" v="consider place=hamlet" />
		<tag k="name" v="Rud" />
		<tag k="place" v="farm" />
		<tag k="ssr:stedsnr" v="233442" />
	</node>
	<node id="-16504" lat="59.5595805582" lon="11.513513888">
		<tag k="name" v="Borgås" />
		<tag k="place" v="farm" />
		<tag k="ssr:stedsnr" v="233408" />
	</node>
	<node id="-16502" lat="59.4791083344" lon="11.3807166703">
		<tag k="name" v="Berg" />
		<tag k="place" v="farm" />
		<tag k="ssr:stedsnr" v="233283" />
	</node>
	<node id="-16501" lat="59.4999861097" lon="11.3213166596">
		<tag k="name" v="Fundingsrud" />
		<tag k="place" v="farm" />
		<tag k="ssr:stedsnr" v="232023" />
	</node>
	<node id="-16499" lat="59.531099999" lon="11.2306805594">
		<tag k="alt_name" v="Høie nordre" />
		<tag k="name" v="Nordre Høie" />
		<tag k="place" v="farm" />
		<tag k="ssr:stedsnr" v="206417" />
	</node>
	<node id="-16498" lat="59.5730916642" lon="11.2872611099">
		<tag k="amenity" v="hospital" />
		<tag k="name" v="Edwin Ruuds hospital" />
		<tag k="ssr:stedsnr" v="206405" />
	</node>
	<node id="-16497" lat="59.5676138887" lon="11.2692666645">
		<tag k="name" v="Sletner" />
		<tag k="place" v="farm" />
		<tag k="ssr:stedsnr" v="206392" />
	</node>
	<node id="-16496" lat="59.5338166698" lon="11.401269437">
		<tag k="name" v="Fauglidalen" />
		<tag k="place" v="farm" />
		<tag k="ssr:stedsnr" v="206321" />
	</node>
	<node id="-16495" lat="59.5351861134" lon="11.4458027761">
		<tag k="name" v="Bråten" />
		<tag k="place" v="farm" />
		<tag k="ssr:stedsnr" v="206318" />
	</node>
	<node id="-16493" lat="59.5249444433" lon="11.3465305599">
		<tag k="alt_name" v="Smerkerud søndre" />
		<tag k="name" v="Søndre Smerkerud" />
		<tag k="place" v="farm" />
		<tag k="ssr:stedsnr" v="206311" />
	</node>
	<node id="-16491" lat="59.5802305515" lon="11.4057805528">
		<tag k="name" v="Bergsland" />
		<tag k="place" v="farm" />
		<tag k="ssr:stedsnr" v="206303" />
	</node>
	<node id="-16488" lat="59.5148583317" lon="11.3046583248">
		<tag k="name" v="Finnestad" />
		<tag k="place" v="farm" />
		<tag k="ssr:stedsnr" v="206018" />
	</node>
	<node id="-16486" lat="59.5994333332" lon="11.2801611118">
		<tag k="name" v="Ultvet" />
		<tag k="place" v="farm" />
		<tag k="ssr:stedsnr" v="186904" />
	</node>
	<node id="-16485" lat="59.5321583371" lon="11.2141194398">
		<tag k="name" v="Ås" />
		<tag k="place" v="farm" />
		<tag k="ssr:stedsnr" v="186755" />
	</node>
	<node id="-16484" lat="59.5255111155" lon="11.3440750032">
		<tag k="name" v="Smerkerud" />
		<tag k="place" v="farm" />
		<tag k="ssr:stedsnr" v="186748" />
	</node>
	<node id="-16483" lat="59.5157305516" lon="11.3837194399">
		<tag k="alt_name" v="Krossby, nordre;Krosby" />
		<tag k="fixme" v="consider place=hamlet" />
		<tag k="name" v="Nordre Krossby" />
		<tag k="place" v="farm" />
		<tag k="ssr:stedsnr" v="186724" />
	</node>
	<node id="-16482" lat="59.564619448" lon="11.3534694383">
		<tag k="name" v="Enga" />
		<tag k="place" v="farm" />
		<tag k="ssr:stedsnr" v="186644" />
	</node>
	<node id="-16481" lat="59.502016664" lon="11.3482222171">
		<tag k="name" v="Fossum" />
		<tag k="place" v="farm" />
		<tag k="ssr:stedsnr" v="186700" />
	</node>
	<node id="-16480" lat="59.5029833343" lon="11.2855916629">
		<tag k="name" v="Jonsrud" />
		<tag k="place" v="farm" />
		<tag k="ssr:stedsnr" v="186696" />
	</node>
	<node id="-16479" lat="59.5005499965" lon="11.2766638836">
		<tag k="alt_name" v="Klemmetsrud" />
		<tag k="name" v="Klemetsrud" />
		<tag k="place" v="farm" />
		<tag k="ssr:stedsnr" v="186695" />
	</node>
	<node id="-16477" lat="59.5555250025" lon="11.3394888941">
		<tag k="name" v="Oppsal" />
		<tag k="place" v="farm" />
		<tag k="ssr:stedsnr" v="186587" />
	</node>
	<node id="-16476" lat="59.5606916667" lon="11.2933833421">
		<tag k="alt_name" v="Holane" />
		<tag k="name" v="Holene" />
		<tag k="place" v="farm" />
		<tag k="ssr:stedsnr" v="186586" />
	</node>
	<node id="-16475" lat="59.5550527767" lon="11.2201888953">
		<tag k="name" v="Grønlund" />
		<tag k="place" v="farm" />
		<tag k="ssr:stedsnr" v="186582" />
	</node>
	<node id="-16474" lat="59.5328944421" lon="11.3803694408">
		<tag k="name" v="Bøltorp" />
		<tag k="place" v="farm" />
		<tag k="ssr:stedsnr" v="186573" />
	</node>
	<node id="-16473" lat="59.5356166644" lon="11.2421499926">
		<tag k="alt_name" v="Haga vestre" />
		<tag k="name" v="Haga" />
		<tag k="place" v="farm" />
		<tag k="ssr:stedsnr" v="186564" />
	</node>
	<node id="-16472" lat="59.550036114" lon="11.3873111113">
		<tag k="name" v="Skårer" />
		<tag k="place" v="farm" />
		<tag k="ssr:stedsnr" v="186554" />
	</node>
	<node id="-16469" lat="59.5380777799" lon="11.5052583253">
		<tag k="alt_name" v="Tukerud" />
		<tag k="name" v="Tulkerud" />
		<tag k="place" v="farm" />
		<tag k="ssr:stedsnr" v="186435" />
	</node>
	<node id="-16467" lat="59.5511388893" lon="11.4518666652">
		<tag k="alt_name" v="Løken;Løken østre" />
		<tag k="name" v="Østre Løken" />
		<tag k="place" v="farm" />
		<tag k="ssr:stedsnr" v="186027" />
	</node>
	<node id="-16466" lat="59.5580861154" lon="11.4852527701">
		<tag k="name" v="Mosen" />
		<tag k="place" v="farm" />
		<tag k="ssr:stedsnr" v="185444" />
	</node>
	<node id="-16465" lat="59.4799555565" lon="11.4956361132">
		<tag k="name" v="Blyvollen" />
		<tag k="place" v="isolated_dwelling" />
		<tag k="ssr:stedsnr" v="184577" />
	</node>
	<node id="-16463" lat="59.4913361081" lon="11.3904805481">
		<tag k="alt_name" v="Rud søndre" />
		<tag k="name" v="Søndre Rud" />
		<tag k="place" v="farm" />
		<tag k="ssr:stedsnr" v="184058" />
	</node>
	<node id="-16462" lat="59.4926916674" lon="11.4047805634">
		<tag k="name" v="Hellebekk" />
		<tag k="place" v="farm" />
		<tag k="ssr:stedsnr" v="184059" />
	</node>
	<node id="-16461" lat="59.4822500032" lon="11.2417249996">
		<tag k="name" v="Sletta" />
		<tag k="place" v="farm" />
		<tag k="ssr:stedsnr" v="184023" />
	</node>
	<node id="-16448" lat="59.5276916695" lon="11.2322722166">
		<tag k="alt_name" v="Høie søndre" />
		<tag k="name" v="Søndre Høie" />
		<tag k="place" v="farm" />
		<tag k="ssr:stedsnr" v="145453" />
	</node>
	<node id="-16447" lat="59.5545333347" lon="11.3419138853">
		<tag k="name" v="Slettevoll" />
		<tag k="place" v="farm" />
		<tag k="ssr:stedsnr" v="145390" />
	</node>
	<node id="-16442" lat="59.537075002" lon="11.4268416638">
		<tag k="name" v="Øvre Grini" />
		<tag k="place" v="farm" />
		<tag k="ssr:stedsnr" v="145326" />
	</node>
	<node id="-16439" lat="59.5234999969" lon="11.3862222156">
		<tag k="name" v="Nordby" />
		<tag k="place" v="farm" />
		<tag k="ssr:stedsnr" v="145306" />
	</node>
	<node id="-16434" lat="59.559348248" lon="11.4426684778">
		<tag k="alt_name" v="Løken vestre" />
		<tag k="name" v="Vestre Løken" />
		<tag k="place" v="farm" />
		<tag k="ssr:stedsnr" v="145253" />
	</node>
	<node id="-16433" lat="59.5186138847" lon="11.2617944509">
		<tag k="name" v="Eidsberg prestegård" />
		<tag k="place" v="farm" />
		<tag k="ssr:stedsnr" v="145016" />
	</node>
	<node id="-16432" lat="59.4682138921" lon="11.2487888968">
		<tag k="name" v="Grøterud" />
		<tag k="place" v="farm" />
		<tag k="ssr:stedsnr" v="143524" />
	</node>
	<node id="-16431" lat="59.5898499989" lon="11.2636027821">
		<tag k="name" v="Kråkholen" />
		<tag k="place" v="isolated_dwelling" />
		<tag k="ssr:stedsnr" v="125894" />
	</node>
	<node id="-16430" lat="59.5130694479" lon="11.3534999983">
		<tag k="name" v="Bredegghagen" />
		<tag k="place" v="farm" />
		<tag k="ssr:stedsnr" v="125732" />
	</node>
	<node id="-16429" lat="59.5088138866" lon="11.229944437">
		<tag k="name" v="Buskelsrud" />
		<tag k="place" v="farm" />
		<tag k="ssr:stedsnr" v="125708" />
	</node>
	<node id="-16428" lat="59.5071138919" lon="11.2748277727">
		<tag k="name" v="Hornås" />
		<tag k="place" v="isolated_dwelling" />
		<tag k="ssr:stedsnr" v="125688" />
	</node>
	<node id="-16427" lat="59.5031722241" lon="11.3606583409">
		<tag k="name" v="Kolshus" />
		<tag k="place" v="farm" />
		<tag k="ssr:stedsnr" v="125673" />
	</node>
	<node id="-16424" lat="59.561919443" lon="11.3581666596">
		<tag k="name" v="Haugen" />
		<tag k="place" v="farm" />
		<tag k="ssr:stedsnr" v="125591" />
	</node>
	<node id="-16423" lat="59.5171444442" lon="11.2275777846">
		<tag k="name" v="Salmonrud" />
		<tag k="place" v="farm" />
		<tag k="ssr:stedsnr" v="125753" />
	</node>
	<node id="-16422" lat="59.5801666666" lon="11.4210638843">
		<tag k="name" v="Berget" />
		<tag k="place" v="farm" />
		<tag k="ssr:stedsnr" v="125640" />
	</node>
	<node id="-16421" lat="59.5471888917" lon="11.2267472287">
		<tag k="name" v="Skjeggerud" />
		<tag k="place" v="farm" />
		<tag k="ssr:stedsnr" v="125562" />
	</node>
	<node id="-16420" lat="59.5494250004" lon="11.2227027707">
		<tag k="name" v="Kløv" />
		<tag k="place" v="farm" />
		<tag k="ssr:stedsnr" v="125560" />
	</node>
	<node id="-16419" lat="59.5517537203" lon="11.4340057884">
		<tag k="name" v="Bjørnestad" />
		<tag k="place" v="hamlet" />
		<tag k="ssr:stedsnr" v="125554" />
	</node>
	<node id="-16418" lat="59.5426388884" lon="11.3844694465">
		<tag k="alt_name" v="Skallingsberg" />
		<tag k="name" v="Skollingsborg" />
		<tag k="place" v="farm" />
		<tag k="ssr:stedsnr" v="125519" />
	</node>
	<node id="-16417" lat="59.4742027757" lon="11.3014833283">
		<tag k="fixme" v="consider place=hamlet" />
		<tag k="name" v="Svenneby" />
		<tag k="place" v="farm" />
		<tag k="ssr:stedsnr" v="124017" />
	</node>
	<node id="-16415" lat="59.4992583303" lon="11.38411667">
		<tag k="name" v="Skollerud" />
		<tag k="place" v="farm" />
		<tag k="ssr:stedsnr" v="123092" />
	</node>
	<node id="-16414" lat="59.4874500038" lon="11.2442250004">
		<tag k="alt_name" v="Skjørshammer" />
		<tag k="name" v="Skjørshammar" />
		<tag k="place" v="farm" />
		<tag k="ssr:stedsnr" v="123033" />
	</node>
	<node id="-16413" lat="59.4704361136" lon="11.3068250048">
		<tag k="name" v="Melleby" />
		<tag k="place" v="farm" />
		<tag k="ssr:stedsnr" v="123016" />
	</node>
	<node id="-16412" lat="59.5535749989" lon="11.431872225">
		<tag k="name" v="Nordre Bjørnestad" />
		<tag k="place" v="farm" />
		<tag k="ssr:stedsnr" v="116944" />
	</node>
	<node id="-16408" lat="59.4896527798" lon="11.3759305592">
		<tag k="name" v="Filtvet" />
		<tag k="place" v="farm" />
		<tag k="ssr:stedsnr" v="112432" />
	</node>
	<node id="-16400" lat="59.4873111079" lon="11.3055027773">
		<tag k="fixme" v="multiple name tags, choose one and add the other to alt_name" />
		<tag k="name" v="Berger;Vestre Berger" />
		<tag k="place" v="farm" />
		<tag k="ssr:stedsnr" v="99029" />
	</node>
	<node id="-16397" lat="59.5310305566" lon="11.3861944496">
		<tag k="name" v="Lillenga" />
		<tag k="place" v="farm" />
		<tag k="ssr:stedsnr" v="84377" />
	</node>
	<node id="-16396" lat="59.5271638853" lon="11.4389861113">
		<tag k="name" v="Solberg" />
		<tag k="place" v="farm" />
		<tag k="ssr:stedsnr" v="84360" />
	</node>
	<node id="-16394" lat="59.5428083338" lon="11.401947221">
		<tag k="name" v="Lund (Himmerike)" />
		<tag k="place" v="farm" />
		<tag k="ssr:stedsnr" v="84346" />
	</node>
	<node id="-16391" lat="59.5602722215" lon="11.3527722157">
		<tag k="name" v="Vardehytta" />
		<tag k="place" v="farm" />
		<tag k="ssr:stedsnr" v="84024" />
	</node>
	<node id="-16390" lat="59.5435777819" lon="11.4230694381">
		<tag k="name" v="Buskerud" />
		<tag k="place" v="farm" />
		<tag k="ssr:stedsnr" v="84020" />
	</node>
	<node id="-16388" lat="59.5007555544" lon="11.2548416728">
		<tag k="name" v="Oterhytta" />
		<tag k="place" v="isolated_dwelling" />
		<tag k="ssr:stedsnr" v="83525" />
	</node>
	<node id="-16386" lat="59.5037194415" lon="11.3164833321">
		<tag k="name" v="Funderud" />
		<tag k="place" v="farm" />
		<tag k="ssr:stedsnr" v="65656" />
	</node>
	<node id="-16385" lat="59.5035805583" lon="11.2936944417">
		<tag k="name" v="Veiby" />
		<tag k="place" v="farm" />
		<tag k="ssr:stedsnr" v="65653" />
	</node>
</osm>
