<?xml version="1.0" encoding="UTF-8"?>
<osm generator="osmapis" version="0.6">
	<node id="-16384" lat="59.5020166707" lon="11.2713750042">
		<tag k="fixme" v="consider natural=peak for the most distinct mountains in the district" />
		<tag k="name" v="Husebyåsen" />
		<tag k="natural" v="hill" />
		<tag k="place" v="locality" />
		<tag k="ssr:stedsnr" v="65647" />
	</node>
	<node id="-16635" lat="59.5197999981" lon="11.4808416706">
		<tag k="name" v="Hekollen" />
		<tag k="natural" v="hill" />
		<tag k="place" v="locality" />
		<tag k="ssr:stedsnr" v="549383" />
	</node>
	<node id="-16377" lat="59.5294694428" lon="11.3982555571">
		<tag k="alt_name" v="Dalehøgda" />
		<tag k="fixme" v="consider natural=peak for the most distinct mountains in the district" />
		<tag k="name" v="Dalshøgda" />
		<tag k="natural" v="hill" />
		<tag k="place" v="locality" />
		<tag k="ssr:stedsnr" v="64756" />
	</node>
	<node id="-16632" lat="59.4874139579" lon="11.3128008956">
		<tag k="fixme" v="multiple name tags, choose one and add the other to alt_name; consider natural=peak for the most distinct mountains in the district" />
		<tag k="name" v="Bergerås;Vardåsen" />
		<tag k="natural" v="hill" />
		<tag k="place" v="locality" />
		<tag k="ssr:stedsnr" v="548039" />
	</node>
	<node id="-16245" lat="59.4836916638" lon="11.5510194458">
		<tag k="alt_name" v="Nordre Stangevarde;Stange varde" />
		<tag k="fixme" v="consider natural=peak for the most distinct mountains in the district" />
		<tag k="name" v="Nordre Stange varde" />
		<tag k="natural" v="hill" />
		<tag k="place" v="locality" />
		<tag k="ssr:stedsnr" v="366600" />
	</node>
	<node id="-16623" lat="59.5184861099" lon="11.4432888913">
		<tag k="fixme" v="consider natural=peak for the most distinct mountains in the district" />
		<tag k="name" v="Solberghøgda" />
		<tag k="natural" v="hill" />
		<tag k="place" v="locality" />
		<tag k="ssr:stedsnr" v="509323" />
	</node>
	<node id="-16748" lat="59.5273972179" lon="11.5076416723">
		<tag k="fixme" v="consider natural=peak for the most distinct mountains in the district" />
		<tag k="name" v="Hakatjernhøgda" />
		<tag k="natural" v="hill" />
		<tag k="place" v="locality" />
		<tag k="ssr:stedsnr" v="691347" />
	</node>
	<node id="-16490" lat="59.5204861139" lon="11.4953972161">
		<tag k="name" v="Murttjernliene" />
		<tag k="natural" v="slope" />
		<tag k="place" v="locality" />
		<tag k="ssr:stedsnr" v="206292" />
	</node>
	<node id="-16610" lat="59.5779749973" lon="11.4362444466">
		<tag k="alt_name" v="Røysåsen" />
		<tag k="fixme" v="consider natural=peak for the most distinct mountains in the district" />
		<tag k="name" v="Røysås" />
		<tag k="natural" v="hill" />
		<tag k="place" v="locality" />
		<tag k="ssr:stedsnr" v="489654" />
	</node>
	<node id="-16734" lat="59.5812250036" lon="11.3667777813">
		<tag k="fixme" v="consider natural=peak for the most distinct mountains in the district" />
		<tag k="name" v="Torperåsen" />
		<tag k="natural" v="hill" />
		<tag k="place" v="locality" />
		<tag k="ssr:stedsnr" v="671610" />
	</node>
	<node id="-16343" lat="59.5124972207" lon="11.4692500027">
		<tag k="fixme" v="consider natural=peak for the most distinct mountains in the district" />
		<tag k="name" v="Sauetjernhøgda" />
		<tag k="natural" v="hill" />
		<tag k="place" v="locality" />
		<tag k="ssr:stedsnr" v="24011" />
	</node>
	<node id="-16468" lat="59.5029555535" lon="11.4776305498">
		<tag k="alt_name" v="Jonsvasshøgda" />
		<tag k="name" v="Jonsvannshøgda" />
		<tag k="natural" v="hill" />
		<tag k="place" v="locality" />
		<tag k="ssr:stedsnr" v="186398" />
	</node>
	<node id="-16338" lat="59.5159333371" lon="11.3310166642">
		<tag k="alt_name" v="Sameia" />
		<tag k="fixme" v="consider natural=peak for the most distinct mountains in the district" />
		<tag k="name" v="Sameiga" />
		<tag k="natural" v="hill" />
		<tag k="place" v="locality" />
		<tag k="ssr:stedsnr" v="4759" />
	</node>
	<node id="-16718" lat="59.499927775" lon="11.4200499955">
		<tag k="fixme" v="consider natural=peak for the most distinct mountains in the district" />
		<tag k="name" v="Krokvannsåsen" />
		<tag k="natural" v="hill" />
		<tag k="place" v="locality" />
		<tag k="ssr:stedsnr" v="657470" />
	</node>
	<node id="-16458" lat="59.5458258056" lon="11.5411506997">
		<tag k="name" v="Trollberg" />
		<tag k="natural" v="hill" />
		<tag k="place" v="locality" />
		<tag k="ssr:stedsnr" v="172391" />
	</node>
	<node id="-16196" lat="59.4864972221" lon="11.5143833259">
		<tag k="fixme" v="consider natural=peak for the most distinct mountains in the district" />
		<tag k="name" v="Spattåsen" />
		<tag k="natural" v="hill" />
		<tag k="place" v="locality" />
		<tag k="ssr:stedsnr" v="306546" />
	</node>
	<node id="-16835" lat="59.5331083335" lon="11.4659027742">
		<tag k="fixme" v="consider natural=peak for the most distinct mountains in the district" />
		<tag k="name" v="Sanderhøgda" />
		<tag k="natural" v="hill" />
		<tag k="place" v="locality" />
		<tag k="ssr:stedsnr" v="792717" />
	</node>
	<node id="-16319" lat="59.5526694468" lon="11.2098388875">
		<tag k="fixme" v="consider natural=peak for the most distinct mountains in the district" />
		<tag k="name" v="Torkelsrudåsen" />
		<tag k="natural" v="hill" />
		<tag k="place" v="locality" />
		<tag k="ssr:stedsnr" v="4531" />
	</node>
	<node id="-16446" lat="59.5636305547" lon="11.3432472155">
		<tag k="fixme" v="consider natural=peak for the most distinct mountains in the district" />
		<tag k="name" v="Vardeåsen" />
		<tag k="natural" v="hill" />
		<tag k="place" v="locality" />
		<tag k="ssr:stedsnr" v="145375" />
	</node>
	<node id="-16445" lat="59.5443000017" lon="11.3534472257">
		<tag k="fixme" v="consider natural=peak for the most distinct mountains in the district" />
		<tag k="name" v="Kammerudåsen" />
		<tag k="natural" v="hill" />
		<tag k="place" v="locality" />
		<tag k="ssr:stedsnr" v="145353" />
	</node>
	<node id="-16823" lat="59.5649833337" lon="11.5070250041">
		<tag k="fixme" v="consider natural=peak for the most distinct mountains in the district" />
		<tag k="name" v="Borgåsen" />
		<tag k="natural" v="hill" />
		<tag k="place" v="locality" />
		<tag k="ssr:stedsnr" v="792479" />
	</node>
	<node id="-16436" lat="59.5266972256" lon="11.4957138866">
		<tag k="fixme" v="consider natural=peak for the most distinct mountains in the district" />
		<tag k="name" v="Rokovannshøgda" />
		<tag k="natural" v="hill" />
		<tag k="place" v="locality" />
		<tag k="ssr:stedsnr" v="145287" />
	</node>
	<node id="-16688" lat="59.5086000035" lon="11.4569194452">
		<tag k="fixme" v="consider natural=peak for the most distinct mountains in the district" />
		<tag k="name" v="Ivaråsen" />
		<tag k="natural" v="hill" />
		<tag k="place" v="locality" />
		<tag k="ssr:stedsnr" v="610732" />
	</node>
	<node id="-16301" lat="59.5719869075" lon="11.3007720773">
		<tag k="fixme" v="consider natural=peak for the most distinct mountains in the district" />
		<tag k="name" v="Monaryggen" />
		<tag k="natural" v="hill" />
		<tag k="place" v="locality" />
		<tag k="ssr:stedsnr" v="489595" />
	</node>
	<node id="-16300" lat="59.4613968238" lon="11.5047226532">
		<tag k="name" v="Fjella" />
		<tag k="natural" v="wood" />
		<tag k="ssr:stedsnr" v="984407" />
	</node>
	<node id="-16936" lat="59.5023416666" lon="11.40951389">
		<tag k="fixme" v="consider natural=peak for the most distinct mountains in the district" />
		<tag k="name" v="Nepleåsen" />
		<tag k="natural" v="hill" />
		<tag k="place" v="locality" />
		<tag k="ssr:stedsnr" v="961045" />
	</node>
	<node id="-16551" lat="59.4720500948" lon="11.5101382102">
		<tag k="fixme" v="consider natural=peak for the most distinct mountains in the district" />
		<tag k="name" v="Mustjernhøgda" />
		<tag k="natural" v="hill" />
		<tag k="place" v="locality" />
		<tag k="ssr:stedsnr" v="427587" />
	</node>
	<node id="-16802" lat="59.5605527767" lon="11.4112361153">
		<tag k="fixme" v="consider natural=peak for the most distinct mountains in the district" />
		<tag k="name" v="Torahyttåsen" />
		<tag k="natural" v="hill" />
		<tag k="place" v="locality" />
		<tag k="ssr:stedsnr" v="752236" />
	</node>
	<node id="-16542" lat="59.5012583379" lon="11.3001111077">
		<tag k="fixme" v="consider natural=peak for the most distinct mountains in the district" />
		<tag k="name" v="Bjørnerudåsen" />
		<tag k="natural" v="hill" />
		<tag k="place" v="locality" />
		<tag k="ssr:stedsnr" v="415037" />
	</node>
	<node id="-16411" lat="59.5001555535" lon="11.5202249923">
		<tag k="fixme" v="consider natural=peak for the most distinct mountains in the district" />
		<tag k="name" v="Tiuråsen" />
		<tag k="natural" v="hill" />
		<tag k="place" v="locality" />
		<tag k="ssr:stedsnr" v="112462" />
	</node>
	<node id="-16537" lat="59.5176916666" lon="11.4881777729">
		<tag k="name" v="Hønntjerndalen" />
		<tag k="natural" v="valley" />
		<tag k="place" v="locality" />
		<tag k="ssr:stedsnr" v="266300" />
	</node>
	<node id="-16324" lat="59.5685611134" lon="11.4137500067">
		<tag k="fixme" v="consider natural=peak for the most distinct mountains in the district" />
		<tag k="name" v="Kvilleråsen" />
		<tag k="natural" v="hill" />
		<tag k="place" v="locality" />
		<tag k="ssr:stedsnr" v="4569" />
	</node>
	<node id="-16914" lat="59.5406638922" lon="11.4410138932">
		<tag k="fixme" v="consider natural=peak for the most distinct mountains in the district" />
		<tag k="name" v="Lienåsen" />
		<tag k="natural" v="hill" />
		<tag k="place" v="locality" />
		<tag k="ssr:stedsnr" v="914531" />
	</node>
	<node id="-16906" lat="59.4962166685" lon="11.4624527844">
		<tag k="name" v="Bjørdalen" />
		<tag k="natural" v="valley" />
		<tag k="place" v="locality" />
		<tag k="ssr:stedsnr" v="900443" />
	</node>
	<node id="-16492" lat="59.5400277771" lon="11.4220416589">
		<tag k="fixme" v="consider natural=peak for the most distinct mountains in the district" />
		<tag k="name" v="Flaggåsen" />
		<tag k="natural" v="hill" />
		<tag k="place" v="locality" />
		<tag k="ssr:stedsnr" v="206308" />
	</node>
</osm>
