<?xml version="1.0" encoding="UTF-8"?>
<osm generator="osmapis" version="0.6">
	<node id="-16415" lat="59.5181444428" lon="11.4671472167">
		<tag k="name" v="Brumosen" />
		<tag k="natural" v="wetland" />
		<tag k="ssr:stedsnr" v="145283" />
	</node>
	<node id="-16921" lat="59.4828888882" lon="11.4784722295">
		<tag k="historic" v="shieling" />
		<tag k="name" v="Mellebyvollen" />
		<tag k="place" v="locality" />
		<tag k="ssr:stedsnr" v="961383" />
	</node>
	<node id="-16754" lat="59.5063638878" lon="11.5119027794">
		<tag k="fixme" v="multiple name tags, choose one and add the other to alt_name" />
		<tag k="name" v="Jyrihellermosen;Trekantmyra" />
		<tag k="natural" v="wetland" />
		<tag k="ssr:stedsnr" v="732397" />
	</node>
	<node id="-16840" lat="59.4978861086" lon="11.4687250055">
		<tag k="historic" v="shieling" />
		<tag k="name" v="Eikevollen" />
		<tag k="place" v="locality" />
		<tag k="ssr:stedsnr" v="839449" />
	</node>
	<node id="-16879" lat="59.5091972248" lon="11.4638777785">
		<tag k="name" v="Merramosen" />
		<tag k="natural" v="wetland" />
		<tag k="ssr:stedsnr" v="873357" />
	</node>
	<node id="-16232" lat="59.5104138851" lon="11.4801361029">
		<tag k="name" v="Heiamosen" />
		<tag k="natural" v="wetland" />
		<tag k="ssr:stedsnr" v="368408" />
	</node>
	<node id="-16515" lat="59.5579638882" lon="11.467513894">
		<tag k="name" v="Skinnerudmosen" />
		<tag k="natural" v="wetland" />
		<tag k="ssr:stedsnr" v="266281" />
	</node>
	<node id="-16386" lat="59.4911916652" lon="11.4420027859">
		<tag k="name" v="Bliksen" />
		<tag k="natural" v="wetland" />
		<tag k="ssr:stedsnr" v="111416" />
	</node>
</osm>
