<?xml version="1.0" encoding="UTF-8"?>
<osm version="0.6" generator="osmapis">
	<node id="281233684" lat="66.1998916" lon="13.0191454" version="7" timestamp="2022-07-16T12:02:08Z" changeset="123687324" uid="3497659" user="NKA">
		<tag k="name" v="Nesna" />
		<tag k="place" v="village" />
		<tag k="population" v="1253" />
		<tag k="population:date" v="2021-01-01" />
		<tag k="ref:ssb_tettsted" v="7611" />
		<tag k="source:population" v="SSB - befolkning i tettstedet" />
		<tag k="ssr:stedsnr" v="561759" />
	</node>
	<node id="5796915700" lat="66.1769213" lon="13.0429949" version="2" timestamp="2022-07-16T12:02:08Z" changeset="123687324" uid="3497659" user="NKA">
		<tag k="name" v="Sandnes" />
		<tag k="place" v="hamlet" />
		<tag k="ssr:stedsnr" v="258791" />
	</node>
	<node id="5796915725" lat="66.1783472" lon="13.0641222" version="2" timestamp="2022-07-16T12:02:08Z" changeset="123687324" uid="3497659" user="NKA">
		<tag k="name" v="Valbogen" />
		<tag k="place" v="farm" />
		<tag k="ssr:stedsnr" v="561785" />
	</node>
	<node id="6205774428" lat="66.2320648" lon="12.9887855" version="2" timestamp="2022-07-16T12:02:08Z" changeset="123687324" uid="3497659" user="NKA">
		<tag k="name" v="Saura" />
		<tag k="place" v="hamlet" />
		<tag k="ssr:stedsnr" v="197848" />
	</node>
	<node id="6205774496" lat="66.2256711" lon="12.7698007" version="2" timestamp="2022-07-16T12:02:08Z" changeset="123687324" uid="3497659" user="NKA">
		<tag k="name" v="Husby" />
		<tag k="place" v="village" />
		<tag k="ssr:stedsnr" v="561829" />
	</node>
	<node id="9699235325" lat="66.1768565" lon="13.0297474" version="2" timestamp="2022-07-16T12:02:08Z" changeset="123687324" uid="3497659" user="NKA">
		<tag k="name" v="Sommarset" />
		<tag k="place" v="farm" />
		<tag k="ssr:stedsnr" v="136803" />
	</node>
	<node id="9699243946" lat="66.1915773" lon="13.1310849" version="2" timestamp="2022-07-16T12:02:08Z" changeset="123687324" uid="3497659" user="NKA">
		<tag k="name" v="Hammarøya" />
		<tag k="place" v="farm" />
		<tag k="ssr:stedsnr" v="76774" />
	</node>
	<node id="9891441378" lat="66.2676727" lon="12.8796424" version="1" timestamp="2022-07-16T12:02:08Z" changeset="123687324" uid="3497659" user="NKA">
		<tag k="name" v="Moen" />
		<tag k="place" v="farm" />
		<tag k="ssr:stedsnr" v="45914" />
	</node>
	<node id="9891441379" lat="66.172879" lon="12.933627" version="1" timestamp="2022-07-16T12:02:08Z" changeset="123687324" uid="3497659" user="NKA">
		<tag k="name" v="Ytterhus" />
		<tag k="place" v="farm" />
		<tag k="ssr:stedsnr" v="379785" />
	</node>
	<node id="9891441380" lat="66.1897229" lon="12.9459998" version="1" timestamp="2022-07-16T12:02:08Z" changeset="123687324" uid="3497659" user="NKA">
		<tag k="alt_name" v="Skogekra" />
		<tag k="name" v="Skogekkra" />
		<tag k="place" v="farm" />
		<tag k="ssr:stedsnr" v="258777" />
	</node>
	<node id="9891441381" lat="66.1916359" lon="12.9631141" version="1" timestamp="2022-07-16T12:02:08Z" changeset="123687324" uid="3497659" user="NKA">
		<tag k="name" v="Haugland" />
		<tag k="place" v="farm" />
		<tag k="ssr:stedsnr" v="258778" />
	</node>
	<node id="9891441382" lat="66.2122427" lon="12.8112604" version="1" timestamp="2022-07-16T12:02:08Z" changeset="123687324" uid="3497659" user="NKA">
		<tag k="name" v="Tingvollen" />
		<tag k="place" v="isolated_dwelling" />
		<tag k="ssr:stedsnr" v="926859" />
	</node>
	<node id="9891441383" lat="66.1738184" lon="12.8699281" version="1" timestamp="2022-07-16T12:02:08Z" changeset="123687324" uid="3497659" user="NKA">
		<tag k="name" v="Hugla" />
		<tag k="place" v="hamlet" />
		<tag k="ssr:stedsnr" v="743790" />
	</node>
	<node id="9891441384" lat="66.2010417" lon="13.0410437" version="1" timestamp="2022-07-16T12:02:08Z" changeset="123687324" uid="3497659" user="NKA">
		<tag k="name" v="Bergtun" />
		<tag k="place" v="farm" />
		<tag k="ssr:stedsnr" v="532875" />
	</node>
	<node id="9891441385" lat="66.1960311" lon="13.019775" version="1" timestamp="2022-07-16T12:02:08Z" changeset="123687324" uid="3497659" user="NKA">
		<tag k="name" v="Bjerkly" />
		<tag k="place" v="farm" />
		<tag k="ssr:stedsnr" v="411823" />
	</node>
	<node id="9891441386" lat="66.2708778" lon="12.7386472" version="1" timestamp="2022-07-16T12:02:08Z" changeset="123687324" uid="3497659" user="NKA">
		<tag k="name" v="Vestvoll" />
		<tag k="place" v="farm" />
		<tag k="ssr:stedsnr" v="166800" />
	</node>
	<node id="9891441387" lat="66.184307" lon="13.0823996" version="1" timestamp="2022-07-16T12:02:08Z" changeset="123687324" uid="3497659" user="NKA">
		<tag k="alt_name" v="Strand-Nedre" />
		<tag k="name" v="Nedre Strand" />
		<tag k="place" v="farm" />
		<tag k="ssr:stedsnr" v="440770" />
	</node>
	<node id="9891441388" lat="66.247161" lon="12.7575654" version="1" timestamp="2022-07-16T12:02:08Z" changeset="123687324" uid="3497659" user="NKA">
		<tag k="name" v="Nerstua" />
		<tag k="place" v="farm" />
		<tag k="ssr:stedsnr" v="531190" />
	</node>
	<node id="9891441389" lat="66.1917527" lon="13.0099356" version="1" timestamp="2022-07-16T12:02:08Z" changeset="123687324" uid="3497659" user="NKA">
		<tag k="alt_name" v="Revsnes" />
		<tag k="name" v="Refsnes" />
		<tag k="place" v="farm" />
		<tag k="ssr:stedsnr" v="379745" />
	</node>
	<node id="9891441390" lat="66.180703" lon="13.0726233" version="1" timestamp="2022-07-16T12:02:08Z" changeset="123687324" uid="3497659" user="NKA">
		<tag k="alt_name" v="Nedre Strand;Strand-Nedre" />
		<tag k="name" v="Strandheim" />
		<tag k="place" v="farm" />
		<tag k="ssr:stedsnr" v="76778" />
	</node>
	<node id="9891441391" lat="66.2640056" lon="12.7262278" version="1" timestamp="2022-07-16T12:02:08Z" changeset="123687324" uid="3497659" user="NKA">
		<tag k="name" v="Nergården" />
		<tag k="place" v="farm" />
		<tag k="ssr:stedsnr" v="927714" />
	</node>
	<node id="9891441392" lat="66.1898522" lon="13.0997003" version="1" timestamp="2022-07-16T12:02:08Z" changeset="123687324" uid="3497659" user="NKA">
		<tag k="name" v="Mehus" />
		<tag k="place" v="farm" />
		<tag k="ssr:stedsnr" v="15813" />
	</node>
	<node id="9891441393" lat="66.244502" lon="12.8657728" version="1" timestamp="2022-07-16T12:02:08Z" changeset="123687324" uid="3497659" user="NKA">
		<tag k="name" v="Solheim" />
		<tag k="place" v="farm" />
		<tag k="ssr:stedsnr" v="804929" />
	</node>
	<node id="9891441394" lat="66.2717526" lon="12.8910113" version="1" timestamp="2022-07-16T12:02:08Z" changeset="123687324" uid="3497659" user="NKA">
		<tag k="name" v="Forslandsvika" />
		<tag k="place" v="farm" />
		<tag k="ssr:stedsnr" v="744682" />
	</node>
	<node id="9891441395" lat="66.2232149" lon="12.830207" version="1" timestamp="2022-07-16T12:02:08Z" changeset="123687324" uid="3497659" user="NKA">
		<tag k="name" v="Teigen" />
		<tag k="place" v="farm" />
		<tag k="ssr:stedsnr" v="379834" />
	</node>
	<node id="9891441396" lat="66.1802422" lon="13.0693309" version="1" timestamp="2022-07-16T12:02:08Z" changeset="123687324" uid="3497659" user="NKA">
		<tag k="name" v="Ura" />
		<tag k="place" v="farm" />
		<tag k="ssr:stedsnr" v="531123" />
	</node>
	<node id="9891441397" lat="66.1860543" lon="13.0892974" version="1" timestamp="2022-07-16T12:02:08Z" changeset="123687324" uid="3497659" user="NKA">
		<tag k="name" v="Strand" />
		<tag k="place" v="hamlet" />
		<tag k="ssr:stedsnr" v="403309" />
	</node>
	<node id="9891441398" lat="66.2667305" lon="12.7259722" version="1" timestamp="2022-07-16T12:02:08Z" changeset="123687324" uid="3497659" user="NKA">
		<tag k="name" v="Stavika" />
		<tag k="place" v="locality" />
		<tag k="ssr:stedsnr" v="227928" />
	</node>
	<node id="9891441399" lat="66.2364834" lon="13.0092277" version="1" timestamp="2022-07-16T12:02:08Z" changeset="123687324" uid="3497659" user="NKA">
		<tag k="name" v="Indre Seim" />
		<tag k="place" v="farm" />
		<tag k="ssr:stedsnr" v="530206" />
	</node>
	<node id="9891441400" lat="66.2360949" lon="13.007968" version="1" timestamp="2022-07-16T12:02:08Z" changeset="123687324" uid="3497659" user="NKA">
		<tag k="name" v="Ytre Seim" />
		<tag k="place" v="farm" />
		<tag k="ssr:stedsnr" v="651193" />
	</node>
	<node id="9891441401" lat="66.2409222" lon="13.0309362" version="1" timestamp="2022-07-16T12:02:08Z" changeset="123687324" uid="3497659" user="NKA">
		<tag k="name" v="Holtenget" />
		<tag k="place" v="farm" />
		<tag k="ssr:stedsnr" v="773199" />
	</node>
	<node id="9891441402" lat="66.2214059" lon="12.7812086" version="1" timestamp="2022-07-16T12:02:08Z" changeset="123687324" uid="3497659" user="NKA">
		<tag k="name" v="Røyskattmoen" />
		<tag k="place" v="farm" />
		<tag k="ssr:stedsnr" v="651343" />
	</node>
	<node id="9891441403" lat="66.2607917" lon="13.0971416" version="1" timestamp="2022-07-16T12:02:08Z" changeset="123687324" uid="3497659" user="NKA">
		<tag k="name" v="Strandheim" />
		<tag k="place" v="locality" />
		<tag k="ssr:stedsnr" v="773039" />
	</node>
	<node id="9891441404" lat="66.2452367" lon="12.9588227" version="1" timestamp="2022-07-16T12:02:08Z" changeset="123687324" uid="3497659" user="NKA">
		<tag k="name" v="Sør-Valla" />
		<tag k="place" v="farm" />
		<tag k="ssr:stedsnr" v="713147" />
	</node>
	<node id="9891441405" lat="66.2537704" lon="13.0747716" version="1" timestamp="2022-07-16T12:02:08Z" changeset="123687324" uid="3497659" user="NKA">
		<tag k="name" v="Nygård" />
		<tag k="place" v="farm" />
		<tag k="ssr:stedsnr" v="166005" />
	</node>
	<node id="9891441406" lat="66.2257861" lon="13.0916694" version="1" timestamp="2022-07-16T12:02:08Z" changeset="123687324" uid="3497659" user="NKA">
		<tag k="name" v="Lunde" />
		<tag k="place" v="farm" />
		<tag k="ssr:stedsnr" v="440845" />
	</node>
	<node id="9891441407" lat="66.2124306" lon="12.9566168" version="1" timestamp="2022-07-16T12:02:08Z" changeset="123687324" uid="3497659" user="NKA">
		<tag k="alt_name" v="Svalenga" />
		<tag k="name" v="Svaleng" />
		<tag k="place" v="farm" />
		<tag k="ssr:stedsnr" v="136872" />
	</node>
	<node id="9891441408" lat="66.2355372" lon="12.9330725" version="1" timestamp="2022-07-16T12:02:08Z" changeset="123687324" uid="3497659" user="NKA">
		<tag k="name" v="Nakken" />
		<tag k="place" v="farm" />
		<tag k="ssr:stedsnr" v="289119" />
	</node>
	<node id="9891441409" lat="66.2222303" lon="12.8277747" version="1" timestamp="2022-07-16T12:02:08Z" changeset="123687324" uid="3497659" user="NKA">
		<tag k="name" v="Fløta" />
		<tag k="place" v="farm" />
		<tag k="ssr:stedsnr" v="955344" />
	</node>
	<node id="9891441410" lat="66.2287722" lon="12.7817389" version="1" timestamp="2022-07-16T12:02:08Z" changeset="123687324" uid="3497659" user="NKA">
		<tag k="name" v="Dalen" />
		<tag k="place" v="farm" />
		<tag k="ssr:stedsnr" v="379810" />
	</node>
	<node id="9891441411" lat="66.2221406" lon="12.8055977" version="1" timestamp="2022-07-16T12:02:08Z" changeset="123687324" uid="3497659" user="NKA">
		<tag k="alt_name" v="Ossletta" />
		<tag k="name" v="Ossletten" />
		<tag k="place" v="farm" />
		<tag k="ssr:stedsnr" v="319823" />
	</node>
	<node id="9891441412" lat="66.2287668" lon="12.9216358" version="1" timestamp="2022-07-16T12:02:08Z" changeset="123687324" uid="3497659" user="NKA">
		<tag k="name" v="Handnesneset" />
		<tag k="place" v="hamlet" />
		<tag k="ssr:stedsnr" v="107111" />
	</node>
	<node id="9891441413" lat="66.2636617" lon="12.7340668" version="1" timestamp="2022-07-16T12:02:08Z" changeset="123687324" uid="3497659" user="NKA">
		<tag k="name" v="Moen" />
		<tag k="place" v="farm" />
		<tag k="ssr:stedsnr" v="651971" />
	</node>
	<node id="9891441414" lat="66.2642682" lon="12.7282513" version="1" timestamp="2022-07-16T12:02:08Z" changeset="123687324" uid="3497659" user="NKA">
		<tag k="name" v="Tommeidet" />
		<tag k="place" v="hamlet" />
		<tag k="ssr:stedsnr" v="502733" />
	</node>
	<node id="9891441415" lat="66.2627639" lon="13.110639" version="1" timestamp="2022-07-16T12:02:08Z" changeset="123687324" uid="3497659" user="NKA">
		<tag k="alt_name" v="Olderneset" />
		<tag k="name" v="Oldernes" />
		<tag k="place" v="farm" />
		<tag k="ssr:stedsnr" v="440729" />
	</node>
	<node id="9891441416" lat="66.2530667" lon="13.0720914" version="1" timestamp="2022-07-16T12:02:08Z" changeset="123687324" uid="3497659" user="NKA">
		<tag k="name" v="Litleeng" />
		<tag k="place" v="farm" />
		<tag k="ssr:stedsnr" v="470086" />
	</node>
	<node id="9891456417" lat="66.2768452" lon="13.2174014" version="1" timestamp="2022-07-16T12:02:08Z" changeset="123687324" uid="3497659" user="NKA">
		<tag k="alt_name" v="Einmo" />
		<tag k="name" v="Einmoen" />
		<tag k="place" v="farm" />
		<tag k="ssr:stedsnr" v="319775" />
	</node>
	<node id="9891456418" lat="66.2299056" lon="12.9773027" version="1" timestamp="2022-07-16T12:02:08Z" changeset="123687324" uid="3497659" user="NKA">
		<tag k="name" v="Ørnes" />
		<tag k="place" v="farm" />
		<tag k="ssr:stedsnr" v="956195" />
	</node>
	<node id="9891456419" lat="66.2525833" lon="12.9646917" version="1" timestamp="2022-07-16T12:02:08Z" changeset="123687324" uid="3497659" user="NKA">
		<tag k="name" v="Slettmo" />
		<tag k="place" v="farm" />
		<tag k="ssr:stedsnr" v="198622" />
	</node>
	<node id="9891456420" lat="66.2652861" lon="12.8867112" version="1" timestamp="2022-07-16T12:02:08Z" changeset="123687324" uid="3497659" user="NKA">
		<tag k="name" v="Åneset" />
		<tag k="place" v="farm" />
		<tag k="ssr:stedsnr" v="16697" />
	</node>
	<node id="9891456421" lat="66.2291583" lon="12.9331055" version="1" timestamp="2022-07-16T12:02:08Z" changeset="123687324" uid="3497659" user="NKA">
		<tag k="name" v="Nordstrand" />
		<tag k="place" v="farm" />
		<tag k="ssr:stedsnr" v="865837" />
	</node>
	<node id="9891456422" lat="66.2466226" lon="12.884378" version="1" timestamp="2022-07-16T12:02:08Z" changeset="123687324" uid="3497659" user="NKA">
		<tag k="alt_name" v="Skjefstad" />
		<tag k="name" v="Skeivstad" />
		<tag k="place" v="hamlet" />
		<tag k="ssr:stedsnr" v="15932" />
	</node>
	<node id="9891456423" lat="66.20177" lon="13.0439747" version="1" timestamp="2022-07-16T12:02:08Z" changeset="123687324" uid="3497659" user="NKA">
		<tag k="name" v="Utsyn" />
		<tag k="place" v="farm" />
		<tag k="ssr:stedsnr" v="532872" />
	</node>
	<node id="9891456424" lat="66.1936593" lon="13.0173451" version="1" timestamp="2022-07-16T12:02:08Z" changeset="123687324" uid="3497659" user="NKA">
		<tag k="name" v="Nesna" />
		<tag k="place" v="farm" />
		<tag k="ssr:stedsnr" v="1073112" />
	</node>
	<node id="9891456425" lat="66.18227" lon="12.9535858" version="1" timestamp="2022-07-16T12:02:08Z" changeset="123687324" uid="3497659" user="NKA">
		<tag k="name" v="Bryllupsvollen" />
		<tag k="place" v="farm" />
		<tag k="ssr:stedsnr" v="925843" />
	</node>
	<node id="9891456426" lat="66.2397194" lon="12.8558139" version="1" timestamp="2022-07-16T12:02:08Z" changeset="123687324" uid="3497659" user="NKA">
		<tag k="name" v="Vollan" />
		<tag k="place" v="farm" />
		<tag k="ssr:stedsnr" v="440800" />
	</node>
	<node id="9891456427" lat="66.267641" lon="12.8819595" version="1" timestamp="2022-07-16T12:02:08Z" changeset="123687324" uid="3497659" user="NKA">
		<tag k="name" v="Forsland" />
		<tag k="place" v="hamlet" />
		<tag k="ssr:stedsnr" v="320725" />
	</node>
	<node id="9891456428" lat="66.2006172" lon="13.0391304" version="1" timestamp="2022-07-16T12:02:08Z" changeset="123687324" uid="3497659" user="NKA">
		<tag k="name" v="Øvre Nesna" />
		<tag k="place" v="farm" />
		<tag k="ssr:stedsnr" v="1073113" />
	</node>
	<node id="9891456429" lat="66.2182683" lon="12.8249626" version="1" timestamp="2022-07-16T12:02:08Z" changeset="123687324" uid="3497659" user="NKA">
		<tag k="name" v="Sørvollan" />
		<tag k="place" v="farm" />
		<tag k="ssr:stedsnr" v="773370" />
	</node>
	<node id="9891456430" lat="66.2140402" lon="13.0581198" version="1" timestamp="2022-07-16T12:02:08Z" changeset="123687324" uid="3497659" user="NKA">
		<tag k="name" v="Skogheim" />
		<tag k="place" v="farm" />
		<tag k="ssr:stedsnr" v="774410" />
	</node>
	<node id="9891456431" lat="66.1854245" lon="12.9544998" version="1" timestamp="2022-07-16T12:02:08Z" changeset="123687324" uid="3497659" user="NKA">
		<tag k="name" v="Nordbustad" />
		<tag k="place" v="farm" />
		<tag k="ssr:stedsnr" v="1073067" />
	</node>
	<node id="9891456432" lat="66.2482431" lon="13.1440809" version="1" timestamp="2022-07-16T12:02:08Z" changeset="123687324" uid="3497659" user="NKA">
		<tag k="alt_name" v="Oldersletten" />
		<tag k="name" v="Oldersletta" />
		<tag k="place" v="farm" />
		<tag k="ssr:stedsnr" v="440930" />
	</node>
	<node id="9891456433" lat="66.2384261" lon="13.1173593" version="1" timestamp="2022-07-16T12:02:08Z" changeset="123687324" uid="3497659" user="NKA">
		<tag k="name" v="Huske" />
		<tag k="place" v="farm" />
		<tag k="ssr:stedsnr" v="622816" />
	</node>
	<node id="9891456434" lat="66.2917706" lon="12.8364616" version="1" timestamp="2022-07-16T12:02:08Z" changeset="123687324" uid="3497659" user="NKA">
		<tag k="name" v="Skoglund" />
		<tag k="place" v="farm" />
		<tag k="ssr:stedsnr" v="45830" />
	</node>
	<node id="9891456435" lat="66.2710112" lon="12.7429473" version="1" timestamp="2022-07-16T12:02:08Z" changeset="123687324" uid="3497659" user="NKA">
		<tag k="name" v="Strenggjerdet" />
		<tag k="place" v="farm" />
		<tag k="ssr:stedsnr" v="137669" />
	</node>
	<node id="9891456436" lat="66.2955972" lon="12.8183029" version="1" timestamp="2022-07-16T12:02:08Z" changeset="123687324" uid="3497659" user="NKA">
		<tag k="alt_name" v="Valvika" />
		<tag k="name" v="Valvik" />
		<tag k="place" v="farm" />
		<tag k="ssr:stedsnr" v="501664" />
	</node>
	<node id="9891456437" lat="66.2488306" lon="12.8785666" version="1" timestamp="2022-07-16T12:02:08Z" changeset="123687324" uid="3497659" user="NKA">
		<tag k="name" v="Gjerde" />
		<tag k="place" v="farm" />
		<tag k="ssr:stedsnr" v="76922" />
	</node>
	<node id="9891456438" lat="66.1828028" lon="12.9478778" version="1" timestamp="2022-07-16T12:02:08Z" changeset="123687324" uid="3497659" user="NKA">
		<tag k="name" v="Remman" />
		<tag k="place" v="farm" />
		<tag k="ssr:stedsnr" v="318792" />
	</node>
	<node id="9891456439" lat="66.2182834" lon="12.8255027" version="1" timestamp="2022-07-16T12:02:08Z" changeset="123687324" uid="3497659" user="NKA">
		<tag k="name" v="Vollan" />
		<tag k="place" v="farm" />
		<tag k="ssr:stedsnr" v="804847" />
	</node>
	<node id="9891456440" lat="66.1870157" lon="13.0180421" version="1" timestamp="2022-07-16T12:02:08Z" changeset="123687324" uid="3497659" user="NKA">
		<tag k="name" v="Langstrand" />
		<tag k="place" v="farm" />
		<tag k="ssr:stedsnr" v="804779" />
	</node>
	<node id="9891456441" lat="66.2477333" lon="12.7588734" version="1" timestamp="2022-07-16T12:02:08Z" changeset="123687324" uid="3497659" user="NKA">
		<tag k="name" v="Tomsvika" />
		<tag k="place" v="hamlet" />
		<tag k="ssr:stedsnr" v="318934" />
	</node>
	<node id="9891456442" lat="66.24915" lon="12.9541417" version="1" timestamp="2022-07-16T12:02:08Z" changeset="123687324" uid="3497659" user="NKA">
		<tag k="name" v="Skjåberget" />
		<tag k="place" v="farm" />
		<tag k="ssr:stedsnr" v="76920" />
	</node>
	<node id="9891456443" lat="66.2607885" lon="13.1026092" version="1" timestamp="2022-07-16T12:02:08Z" changeset="123687324" uid="3497659" user="NKA">
		<tag k="name" v="Litlsteiro" />
		<tag k="place" v="farm" />
		<tag k="ssr:stedsnr" v="258756" />
	</node>
	<node id="9891456444" lat="66.2234723" lon="12.8270751" version="1" timestamp="2022-07-16T12:02:08Z" changeset="123687324" uid="3497659" user="NKA">
		<tag k="name" v="Gården" />
		<tag k="place" v="farm" />
		<tag k="ssr:stedsnr" v="227345" />
	</node>
	<node id="9891456445" lat="66.22595" lon="12.7751721" version="1" timestamp="2022-07-16T12:02:08Z" changeset="123687324" uid="3497659" user="NKA">
		<tag k="name" v="Borgtun" />
		<tag k="place" v="farm" />
		<tag k="ssr:stedsnr" v="46341" />
	</node>
	<node id="9891456446" lat="66.2318506" lon="12.9715035" version="1" timestamp="2022-07-16T12:02:08Z" changeset="123687324" uid="3497659" user="NKA">
		<tag k="name" v="Dilra" />
		<tag k="place" v="farm" />
		<tag k="ssr:stedsnr" v="561837" />
	</node>
	<node id="9891456447" lat="66.2409222" lon="12.7083833" version="1" timestamp="2022-07-16T12:02:08Z" changeset="123687324" uid="3497659" user="NKA">
		<tag k="name" v="Tomsvika" />
		<tag k="place" v="farm" />
		<tag k="ssr:stedsnr" v="544953" />
	</node>
	<node id="9891456448" lat="66.2615445" lon="13.097425" version="1" timestamp="2022-07-16T12:02:08Z" changeset="123687324" uid="3497659" user="NKA">
		<tag k="name" v="Fjellstad" />
		<tag k="place" v="farm" />
		<tag k="ssr:stedsnr" v="319744" />
	</node>
	<node id="9891456449" lat="66.271009" lon="13.1317859" version="1" timestamp="2022-07-16T12:02:08Z" changeset="123687324" uid="3497659" user="NKA">
		<tag k="name" v="Køvik" />
		<tag k="place" v="farm" />
		<tag k="ssr:stedsnr" v="166774" />
	</node>
	<node id="9891456450" lat="66.2149092" lon="12.8192849" version="1" timestamp="2022-07-16T12:02:08Z" changeset="123687324" uid="3497659" user="NKA">
		<tag k="name" v="Strandheim" />
		<tag k="place" v="farm" />
		<tag k="ssr:stedsnr" v="622842" />
	</node>
	<node id="9891456451" lat="66.2670203" lon="13.1142447" version="1" timestamp="2022-07-16T12:02:08Z" changeset="123687324" uid="3497659" user="NKA">
		<tag k="name" v="Øbø" />
		<tag k="place" v="farm" />
		<tag k="ssr:stedsnr" v="137714" />
	</node>
	<node id="9891456452" lat="66.1795806" lon="12.9573584" version="1" timestamp="2022-07-16T12:02:08Z" changeset="123687324" uid="3497659" user="NKA">
		<tag k="name" v="Rogn" />
		<tag k="place" v="farm" />
		<tag k="ssr:stedsnr" v="622769" />
	</node>
	<node id="9891456453" lat="66.2348555" lon="13.0075305" version="1" timestamp="2022-07-16T12:02:08Z" changeset="123687324" uid="3497659" user="NKA">
		<tag k="name" v="Solheim" />
		<tag k="place" v="farm" />
		<tag k="ssr:stedsnr" v="166184" />
	</node>
	<node id="9891456454" lat="66.2645723" lon="13.1042666" version="1" timestamp="2022-07-16T12:02:08Z" changeset="123687324" uid="3497659" user="NKA">
		<tag k="name" v="Nyrud" />
		<tag k="place" v="farm" />
		<tag k="ssr:stedsnr" v="46011" />
	</node>
	<node id="9891456455" lat="66.1781504" lon="12.9383827" version="1" timestamp="2022-07-16T12:02:08Z" changeset="123687324" uid="3497659" user="NKA">
		<tag k="name" v="Halland" />
		<tag k="place" v="locality" />
		<tag k="ssr:stedsnr" v="561794" />
	</node>
	<node id="9891456456" lat="66.238875" lon="13.0149888" version="1" timestamp="2022-07-16T12:02:08Z" changeset="123687324" uid="3497659" user="NKA">
		<tag k="name" v="Melandplassen" />
		<tag k="place" v="locality" />
		<tag k="ssr:stedsnr" v="773196" />
	</node>
	<node id="9891456457" lat="66.1691582" lon="12.9726171" version="1" timestamp="2022-07-16T12:02:08Z" changeset="123687324" uid="3497659" user="NKA">
		<tag k="name" v="Feøya" />
		<tag k="place" v="farm" />
		<tag k="ssr:stedsnr" v="1073066" />
	</node>
	<node id="9891456458" lat="66.2367473" lon="12.9290195" version="1" timestamp="2022-07-16T12:02:08Z" changeset="123687324" uid="3497659" user="NKA">
		<tag k="alt_name" v="Ramstø" />
		<tag k="name" v="Ranstø" />
		<tag k="place" v="farm" />
		<tag k="ssr:stedsnr" v="804819" />
	</node>
	<node id="9891456459" lat="66.1963861" lon="13.0353112" version="1" timestamp="2022-07-16T12:02:08Z" changeset="123687324" uid="3497659" user="NKA">
		<tag k="name" v="Sørvollen" />
		<tag k="place" v="farm" />
		<tag k="ssr:stedsnr" v="653842" />
	</node>
	<node id="9891456460" lat="66.200056" lon="12.9625624" version="1" timestamp="2022-07-16T12:02:08Z" changeset="123687324" uid="3497659" user="NKA">
		<tag k="name" v="Vik" />
		<tag k="place" v="hamlet" />
		<tag k="ssr:stedsnr" v="440740" />
	</node>
	<node id="9891456461" lat="66.2727377" lon="13.0087213" version="1" timestamp="2022-07-16T12:02:08Z" changeset="123687324" uid="3497659" user="NKA">
		<tag k="name" v="Nyheim" />
		<tag k="place" v="farm" />
		<tag k="ssr:stedsnr" v="652745" />
	</node>
	<node id="9891456462" lat="66.2623584" lon="12.9828168" version="1" timestamp="2022-07-16T12:02:08Z" changeset="123687324" uid="3497659" user="NKA">
		<tag k="name" v="Nymoen" />
		<tag k="place" v="farm" />
		<tag k="ssr:stedsnr" v="319741" />
	</node>
	<node id="9891456463" lat="66.2503" lon="13.1570694" version="1" timestamp="2022-07-16T12:02:08Z" changeset="123687324" uid="3497659" user="NKA">
		<tag k="name" v="Skogshaugen" />
		<tag k="place" v="locality" />
		<tag k="ssr:stedsnr" v="590034" />
	</node>
	<node id="9891456464" lat="66.2321306" lon="12.9953305" version="1" timestamp="2022-07-16T12:02:08Z" changeset="123687324" uid="3497659" user="NKA">
		<tag k="alt_name" v="Vika" />
		<tag k="name" v="Viken" />
		<tag k="place" v="farm" />
		<tag k="ssr:stedsnr" v="258834" />
	</node>
	<node id="9891456465" lat="66.2668722" lon="12.8862" version="1" timestamp="2022-07-16T12:02:08Z" changeset="123687324" uid="3497659" user="NKA">
		<tag k="name" v="Nergården" />
		<tag k="place" v="farm" />
		<tag k="ssr:stedsnr" v="927721" />
	</node>
	<node id="9891456466" lat="66.1787463" lon="12.9437561" version="1" timestamp="2022-07-16T12:02:08Z" changeset="123687324" uid="3497659" user="NKA">
		<tag k="name" v="Gryttingen" />
		<tag k="place" v="farm" />
		<tag k="ssr:stedsnr" v="167897" />
	</node>
	<node id="9891456467" lat="66.2631834" lon="13.1082112" version="1" timestamp="2022-07-16T12:02:08Z" changeset="123687324" uid="3497659" user="NKA">
		<tag k="name" v="Skogstad" />
		<tag k="place" v="farm" />
		<tag k="ssr:stedsnr" v="469048" />
	</node>
	<node id="9891456468" lat="66.2910106" lon="12.8560142" version="1" timestamp="2022-07-16T12:02:08Z" changeset="123687324" uid="3497659" user="NKA">
		<tag k="name" v="Sellåt" />
		<tag k="place" v="hamlet" />
		<tag k="ssr:stedsnr" v="683672" />
	</node>
	<node id="9891456469" lat="66.2618385" lon="12.9805242" version="1" timestamp="2022-07-16T12:02:08Z" changeset="123687324" uid="3497659" user="NKA">
		<tag k="name" v="Bjønndalsmoen" />
		<tag k="place" v="farm" />
		<tag k="ssr:stedsnr" v="228091" />
	</node>
	<node id="9891456470" lat="66.2856424" lon="13.1421942" version="1" timestamp="2022-07-16T12:02:08Z" changeset="123687324" uid="3497659" user="NKA">
		<tag k="name" v="Juvika" />
		<tag k="place" v="locality" />
		<tag k="ssr:stedsnr" v="874784" />
	</node>
	<node id="9891456471" lat="66.2230888" lon="12.8384361" version="1" timestamp="2022-07-16T12:02:08Z" changeset="123687324" uid="3497659" user="NKA">
		<tag k="name" v="Klauva" />
		<tag k="place" v="farm" />
		<tag k="ssr:stedsnr" v="865847" />
	</node>
	<node id="9891456472" lat="66.2489774" lon="12.9607501" version="1" timestamp="2022-07-16T12:02:08Z" changeset="123687324" uid="3497659" user="NKA">
		<tag k="alt_name" v="Metti Valla" />
		<tag k="name" v="Valla" />
		<tag k="place" v="hamlet" />
		<tag k="ssr:stedsnr" v="258923" />
	</node>
	<node id="9891456473" lat="66.2525722" lon="13.12335" version="1" timestamp="2022-07-16T12:02:08Z" changeset="123687324" uid="3497659" user="NKA">
		<tag k="name" v="Skog" />
		<tag k="place" v="hamlet" />
		<tag k="ssr:stedsnr" v="866620" />
	</node>
	<node id="9891456474" lat="66.270175" lon="13.2001584" version="1" timestamp="2022-07-16T12:02:08Z" changeset="123687324" uid="3497659" user="NKA">
		<tag k="name" v="Fagertun" />
		<tag k="place" v="farm" />
		<tag k="ssr:stedsnr" v="713013" />
	</node>
	<node id="9891456475" lat="66.2154612" lon="12.8154056" version="1" timestamp="2022-07-16T12:02:08Z" changeset="123687324" uid="3497659" user="NKA">
		<tag k="name" v="Bakken" />
		<tag k="place" v="farm" />
		<tag k="ssr:stedsnr" v="712336" />
	</node>
	<node id="9891456476" lat="66.2323834" lon="12.9262582" version="1" timestamp="2022-07-16T12:02:08Z" changeset="123687324" uid="3497659" user="NKA">
		<tag k="name" v="Nedre Handnes" />
		<tag k="place" v="farm" />
		<tag k="ssr:stedsnr" v="136844" />
	</node>
	<node id="9891456477" lat="66.2262575" lon="12.8070576" version="1" timestamp="2022-07-16T12:02:08Z" changeset="123687324" uid="3497659" user="NKA">
		<tag k="name" v="Rislero" />
		<tag k="place" v="farm" />
		<tag k="ssr:stedsnr" v="712317" />
	</node>
	<node id="9891456478" lat="66.2708435" lon="12.9955263" version="1" timestamp="2022-07-16T12:02:08Z" changeset="123687324" uid="3497659" user="NKA">
		<tag k="name" v="Handstein" />
		<tag k="place" v="hamlet" />
		<tag k="ssr:stedsnr" v="16706" />
	</node>
	<node id="9891456479" lat="66.2376972" lon="13.0122195" version="1" timestamp="2022-07-16T12:02:08Z" changeset="123687324" uid="3497659" user="NKA">
		<tag k="name" v="Plassan" />
		<tag k="place" v="farm" />
		<tag k="ssr:stedsnr" v="45171" />
	</node>
	<node id="9891456480" lat="66.223837" lon="12.82831" version="1" timestamp="2022-07-16T12:02:08Z" changeset="123687324" uid="3497659" user="NKA">
		<tag k="name" v="Alsøy" />
		<tag k="place" v="farm" />
		<tag k="ssr:stedsnr" v="1073061" />
	</node>
	<node id="9891456481" lat="66.1812611" lon="13.0743307" version="1" timestamp="2022-07-16T12:02:08Z" changeset="123687324" uid="3497659" user="NKA">
		<tag k="name" v="Fredheim" />
		<tag k="place" v="farm" />
		<tag k="ssr:stedsnr" v="925840" />
	</node>
	<node id="9891456482" lat="66.2483389" lon="13.0554051" version="1" timestamp="2022-07-16T12:02:08Z" changeset="123687324" uid="3497659" user="NKA">
		<tag k="name" v="Nesåkeren" />
		<tag k="place" v="farm" />
		<tag k="ssr:stedsnr" v="773201" />
	</node>
	<node id="9891456483" lat="66.221089" lon="13.0872537" version="1" timestamp="2022-07-16T12:02:08Z" changeset="123687324" uid="3497659" user="NKA">
		<tag k="alt_name" v="Handa" />
		<tag k="name" v="Handå" />
		<tag k="place" v="hamlet" />
		<tag k="ssr:stedsnr" v="743864" />
	</node>
	<node id="9891456484" lat="66.2478483" lon="12.7604942" version="1" timestamp="2022-07-16T12:02:08Z" changeset="123687324" uid="3497659" user="NKA">
		<tag k="name" v="Borterstua" />
		<tag k="place" v="farm" />
		<tag k="ssr:stedsnr" v="835198" />
	</node>
	<node id="9891456485" lat="66.2476412" lon="13.1470206" version="1" timestamp="2022-07-16T12:02:08Z" changeset="123687324" uid="3497659" user="NKA">
		<tag k="name" v="Sæter" />
		<tag k="place" v="farm" />
		<tag k="ssr:stedsnr" v="258816" />
	</node>
	<node id="9891456486" lat="66.2418627" lon="13.1360088" version="1" timestamp="2022-07-16T12:02:08Z" changeset="123687324" uid="3497659" user="NKA">
		<tag k="alt_name" v="Remma" />
		<tag k="name" v="Remmå" />
		<tag k="place" v="farm" />
		<tag k="ssr:stedsnr" v="743826" />
	</node>
	<node id="9891456487" lat="66.2184889" lon="13.075825" version="1" timestamp="2022-07-16T12:02:08Z" changeset="123687324" uid="3497659" user="NKA">
		<tag k="name" v="Nyrud" />
		<tag k="place" v="farm" />
		<tag k="ssr:stedsnr" v="45260" />
	</node>
	<node id="9891456488" lat="66.2728056" lon="13.2191889" version="1" timestamp="2022-07-16T12:02:08Z" changeset="123687324" uid="3497659" user="NKA">
		<tag k="name" v="Moskogen" />
		<tag k="place" v="farm" />
		<tag k="ssr:stedsnr" v="805964" />
	</node>
	<node id="9891456489" lat="66.2583111" lon="13.0909445" version="1" timestamp="2022-07-16T12:02:08Z" changeset="123687324" uid="3497659" user="NKA">
		<tag k="name" v="Remman" />
		<tag k="place" v="farm" />
		<tag k="ssr:stedsnr" v="16728" />
	</node>
	<node id="9891456490" lat="66.2507056" lon="12.8829027" version="1" timestamp="2022-07-16T12:02:08Z" changeset="123687324" uid="3497659" user="NKA">
		<tag k="name" v="Nerstaulan" />
		<tag k="place" v="locality" />
		<tag k="ssr:stedsnr" v="956914" />
	</node>
	<node id="9891456491" lat="66.251442" lon="13.0654846" version="1" timestamp="2022-07-16T12:02:08Z" changeset="123687324" uid="3497659" user="NKA">
		<tag k="name" v="Skogheim" />
		<tag k="place" v="farm" />
		<tag k="ssr:stedsnr" v="926628" />
	</node>
	<node id="9891456492" lat="66.2589215" lon="13.1815885" version="1" timestamp="2022-07-16T12:02:08Z" changeset="123687324" uid="3497659" user="NKA">
		<tag k="name" v="Engen" />
		<tag k="place" v="farm" />
		<tag k="ssr:stedsnr" v="16594" />
	</node>
	<node id="9891456493" lat="66.2485" lon="12.8853972" version="1" timestamp="2022-07-16T12:02:08Z" changeset="123687324" uid="3497659" user="NKA">
		<tag k="name" v="Nerskiftet" />
		<tag k="place" v="farm" />
		<tag k="ssr:stedsnr" v="804928" />
	</node>
	<node id="9891456494" lat="66.2753678" lon="13.1450105" version="1" timestamp="2022-07-16T12:02:08Z" changeset="123687324" uid="3497659" user="NKA">
		<tag k="name" v="Skaga" />
		<tag k="place" v="farm" />
		<tag k="ssr:stedsnr" v="16713" />
	</node>
	<node id="9891456495" lat="66.2306806" lon="12.9897694" version="1" timestamp="2022-07-16T12:02:08Z" changeset="123687324" uid="3497659" user="NKA">
		<tag k="name" v="Ørnneset" />
		<tag k="place" v="farm" />
		<tag k="ssr:stedsnr" v="804836" />
	</node>
	<node id="9891456496" lat="66.25725" lon="13.1384305" version="1" timestamp="2022-07-16T12:02:08Z" changeset="123687324" uid="3497659" user="NKA">
		<tag k="name" v="Eide" />
		<tag k="place" v="farm" />
		<tag k="ssr:stedsnr" v="805625" />
	</node>
	<node id="9891456497" lat="66.2478099" lon="12.9593752" version="1" timestamp="2022-07-16T12:02:08Z" changeset="123687324" uid="3497659" user="NKA">
		<tag k="name" v="Ner-Valla" />
		<tag k="place" v="farm" />
		<tag k="ssr:stedsnr" v="713145" />
	</node>
	<node id="9891456498" lat="66.2820055" lon="13.1713529" version="1" timestamp="2022-07-16T12:02:08Z" changeset="123687324" uid="3497659" user="NKA">
		<tag k="name" v="Kalvgarden" />
		<tag k="place" v="farm" />
		<tag k="ssr:stedsnr" v="198704" />
	</node>
	<node id="9891456499" lat="66.2326052" lon="12.9361862" version="1" timestamp="2022-07-16T12:02:08Z" changeset="123687324" uid="3497659" user="NKA">
		<tag k="name" v="Handnes" />
		<tag k="place" v="farm" />
		<tag k="ssr:stedsnr" v="743846" />
	</node>
	<node id="9891456500" lat="66.2498446" lon="13.1622825" version="1" timestamp="2022-07-16T12:02:08Z" changeset="123687324" uid="3497659" user="NKA">
		<tag k="name" v="Skog" />
		<tag k="place" v="hamlet" />
		<tag k="ssr:stedsnr" v="198629" />
	</node>
	<node id="9891456501" lat="66.2082111" lon="13.0497473" version="1" timestamp="2022-07-16T12:02:08Z" changeset="123687324" uid="3497659" user="NKA">
		<tag k="name" v="Frydenlund" />
		<tag k="place" v="farm" />
		<tag k="ssr:stedsnr" v="470332" />
	</node>
	<node id="9891456502" lat="66.2474927" lon="13.0503856" version="1" timestamp="2022-07-16T12:02:08Z" changeset="123687324" uid="3497659" user="NKA">
		<tag k="name" v="Stokka" />
		<tag k="place" v="farm" />
		<tag k="ssr:stedsnr" v="683800" />
	</node>
	<node id="9891456503" lat="66.2563944" lon="13.0853723" version="1" timestamp="2022-07-16T12:02:08Z" changeset="123687324" uid="3497659" user="NKA">
		<tag k="name" v="Steiravollen" />
		<tag k="place" v="farm" />
		<tag k="ssr:stedsnr" v="712034" />
	</node>
	<node id="9891456504" lat="66.2340815" lon="13.1063125" version="1" timestamp="2022-07-16T12:02:08Z" changeset="123687324" uid="3497659" user="NKA">
		<tag k="name" v="Herset" />
		<tag k="place" v="hamlet" />
		<tag k="ssr:stedsnr" v="440830" />
	</node>
	<node id="9891456505" lat="66.2837718" lon="13.2346461" version="1" timestamp="2022-07-16T12:02:08Z" changeset="123687324" uid="3497659" user="NKA">
		<tag k="alt_name" v="Lillevik" />
		<tag k="name" v="Litlvika" />
		<tag k="place" v="hamlet" />
		<tag k="ssr:stedsnr" v="865781" />
	</node>
	<node id="9891456506" lat="66.2700666" lon="12.9993276" version="1" timestamp="2022-07-16T12:02:08Z" changeset="123687324" uid="3497659" user="NKA">
		<tag k="name" v="Handsteinvollen" />
		<tag k="place" v="farm" />
		<tag k="ssr:stedsnr" v="198718" />
	</node>
	<node id="9891456507" lat="66.2589667" lon="13.0929223" version="1" timestamp="2022-07-16T12:02:08Z" changeset="123687324" uid="3497659" user="NKA">
		<tag k="name" v="Høyrem" />
		<tag k="place" v="farm" />
		<tag k="ssr:stedsnr" v="651037" />
	</node>
	<node id="9891456508" lat="66.2913361" lon="12.8579139" version="1" timestamp="2022-07-16T12:02:08Z" changeset="123687324" uid="3497659" user="NKA">
		<tag k="name" v="Skaråkeren" />
		<tag k="place" v="farm" />
		<tag k="ssr:stedsnr" v="834813" />
	</node>
	<node id="9891456509" lat="66.2571333" lon="13.1820806" version="1" timestamp="2022-07-16T12:02:08Z" changeset="123687324" uid="3497659" user="NKA">
		<tag k="name" v="Remhaug" />
		<tag k="place" v="farm" />
		<tag k="ssr:stedsnr" v="894075" />
	</node>
	<node id="9891456510" lat="66.2469472" lon="13.0453694" version="1" timestamp="2022-07-16T12:02:08Z" changeset="123687324" uid="3497659" user="NKA">
		<tag k="name" v="Breiremma" />
		<tag k="place" v="locality" />
		<tag k="ssr:stedsnr" v="409207" />
	</node>
	<node id="9891456511" lat="66.2679306" lon="13.1867389" version="1" timestamp="2022-07-16T12:02:08Z" changeset="123687324" uid="3497659" user="NKA">
		<tag k="name" v="Frostheim" />
		<tag k="place" v="farm" />
		<tag k="ssr:stedsnr" v="834005" />
	</node>
	<node id="9891456512" lat="66.260175" lon="13.0958906" version="1" timestamp="2022-07-16T12:02:08Z" changeset="123687324" uid="3497659" user="NKA">
		<tag k="name" v="Bjerkli" />
		<tag k="place" v="farm" />
		<tag k="ssr:stedsnr" v="894030" />
	</node>
	<node id="9891456513" lat="66.2710581" lon="13.192046" version="1" timestamp="2022-07-16T12:02:08Z" changeset="123687324" uid="3497659" user="NKA">
		<tag k="name" v="Longset" />
		<tag k="place" v="hamlet" />
		<tag k="ssr:stedsnr" v="379710" />
	</node>
	<node id="9891456514" lat="66.2160889" lon="12.8161501" version="1" timestamp="2022-07-16T12:02:08Z" changeset="123687324" uid="3497659" user="NKA">
		<tag k="name" v="Kvila" />
		<tag k="place" v="farm" />
		<tag k="ssr:stedsnr" v="743862" />
	</node>
	<node id="9891456515" lat="66.2856128" lon="13.0767985" version="1" timestamp="2022-07-16T12:02:08Z" changeset="123687324" uid="3497659" user="NKA">
		<tag k="alt_name" v="Handsteinhagen" />
		<tag k="name" v="Hagen" />
		<tag k="place" v="locality" />
		<tag k="ssr:stedsnr" v="530755" />
	</node>
	<node id="9891456516" lat="66.2099944" lon="13.2023417" version="1" timestamp="2022-07-16T12:02:08Z" changeset="123687324" uid="3497659" user="NKA">
		<tag k="name" v="Hinderåga" />
		<tag k="place" v="locality" />
		<tag k="ssr:stedsnr" v="622742" />
	</node>
	<node id="9891456517" lat="66.2527716" lon="13.0707816" version="1" timestamp="2022-07-16T12:02:08Z" changeset="123687324" uid="3497659" user="NKA">
		<tag k="name" v="Lyngås" />
		<tag k="place" v="farm" />
		<tag k="ssr:stedsnr" v="410097" />
	</node>
	<node id="9891456518" lat="66.2227" lon="12.8263972" version="1" timestamp="2022-07-16T12:02:08Z" changeset="123687324" uid="3497659" user="NKA">
		<tag k="name" v="Tinghaugen" />
		<tag k="place" v="farm" />
		<tag k="ssr:stedsnr" v="319834" />
	</node>
	<node id="9891456519" lat="66.260925" lon="12.8855472" version="1" timestamp="2022-07-16T12:02:08Z" changeset="123687324" uid="3497659" user="NKA">
		<tag k="name" v="Storvika" />
		<tag k="place" v="farm" />
		<tag k="ssr:stedsnr" v="379715" />
	</node>
	<node id="9891456520" lat="66.2594417" lon="13.0937194" version="1" timestamp="2022-07-16T12:02:08Z" changeset="123687324" uid="3497659" user="NKA">
		<tag k="name" v="Kvellro" />
		<tag k="place" v="farm" />
		<tag k="ssr:stedsnr" v="348024" />
	</node>
	<node id="9891456521" lat="66.2258547" lon="12.8249026" version="1" timestamp="2022-07-16T12:02:08Z" changeset="123687324" uid="3497659" user="NKA">
		<tag k="name" v="Nordheim" />
		<tag k="place" v="farm" />
		<tag k="ssr:stedsnr" v="651354" />
	</node>
	<node id="9891456522" lat="66.2440278" lon="12.876475" version="1" timestamp="2022-07-16T12:02:08Z" changeset="123687324" uid="3497659" user="NKA">
		<tag k="name" v="Stranda" />
		<tag k="place" v="farm" />
		<tag k="ssr:stedsnr" v="228215" />
	</node>
	<node id="9891456523" lat="66.2697609" lon="13.1916137" version="1" timestamp="2022-07-16T12:02:08Z" changeset="123687324" uid="3497659" user="NKA">
		<tag k="name" v="Låvhaugen" />
		<tag k="place" v="farm" />
		<tag k="ssr:stedsnr" v="348001" />
	</node>
	<node id="9891456524" lat="66.2794" lon="13.1602443" version="1" timestamp="2022-07-16T12:02:08Z" changeset="123687324" uid="3497659" user="NKA">
		<tag k="name" v="Moen" />
		<tag k="place" v="farm" />
		<tag k="ssr:stedsnr" v="45970" />
	</node>
	<node id="9891456525" lat="66.2911944" lon="12.8290444" version="1" timestamp="2022-07-16T12:02:08Z" changeset="123687324" uid="3497659" user="NKA">
		<tag k="name" v="Solheim" />
		<tag k="place" v="farm" />
		<tag k="ssr:stedsnr" v="227839" />
	</node>
	<node id="9891456526" lat="66.2942468" lon="12.807284" version="1" timestamp="2022-07-16T12:02:08Z" changeset="123687324" uid="3497659" user="NKA">
		<tag k="name" v="Haugen" />
		<tag k="place" v="farm" />
		<tag k="ssr:stedsnr" v="106805" />
	</node>
	<node id="9891456527" lat="66.2537333" lon="13.1769029" version="1" timestamp="2022-07-16T12:02:08Z" changeset="123687324" uid="3497659" user="NKA">
		<tag k="name" v="Høgsås" />
		<tag k="place" v="farm" />
		<tag k="ssr:stedsnr" v="44041" />
	</node>
	<node id="9891456528" lat="66.2538966" lon="13.1822562" version="1" timestamp="2022-07-16T12:02:08Z" changeset="123687324" uid="3497659" user="NKA">
		<tag k="name" v="Remmen" />
		<tag k="place" v="farm" />
		<tag k="ssr:stedsnr" v="441641" />
	</node>
	<node id="9891456529" lat="66.2472777" lon="12.7114527" version="1" timestamp="2022-07-16T12:02:08Z" changeset="123687324" uid="3497659" user="NKA">
		<tag k="name" v="Kvervan" />
		<tag k="place" v="isolated_dwelling" />
		<tag k="ssr:stedsnr" v="682782" />
	</node>
	<node id="9891456530" lat="66.2832861" lon="13.167986" version="1" timestamp="2022-07-16T12:02:08Z" changeset="123687324" uid="3497659" user="NKA">
		<tag k="alt_name" v="Vassvika" />
		<tag k="name" v="Vassvik" />
		<tag k="place" v="hamlet" />
		<tag k="ssr:stedsnr" v="380742" />
	</node>
	<node id="9891456531" lat="66.2651973" lon="13.1631722" version="1" timestamp="2022-07-16T12:02:08Z" changeset="123687324" uid="3497659" user="NKA">
		<tag k="name" v="Nyrud" />
		<tag k="place" v="farm" />
		<tag k="ssr:stedsnr" v="319616" />
	</node>
	<node id="9891456532" lat="66.2702765" lon="12.7404735" version="1" timestamp="2022-07-16T12:02:08Z" changeset="123687324" uid="3497659" user="NKA">
		<tag k="name" v="Nordmo" />
		<tag k="place" v="farm" />
		<tag k="ssr:stedsnr" v="409798" />
	</node>
	<node id="9891456533" lat="66.2809005" lon="13.1664507" version="1" timestamp="2022-07-16T12:02:08Z" changeset="123687324" uid="3497659" user="NKA">
		<tag k="name" v="Nyheim" />
		<tag k="place" v="farm" />
		<tag k="ssr:stedsnr" v="288769" />
	</node>
	<node id="9891456534" lat="66.2491302" lon="12.7575584" version="1" timestamp="2022-07-16T12:02:08Z" changeset="123687324" uid="3497659" user="NKA">
		<tag k="name" v="Øverstua" />
		<tag k="place" v="farm" />
		<tag k="ssr:stedsnr" v="106959" />
	</node>
	<node id="9891456535" lat="66.2602052" lon="12.7262976" version="1" timestamp="2022-07-16T12:02:08Z" changeset="123687324" uid="3497659" user="NKA">
		<tag k="alt_name" v="Sandfallet" />
		<tag k="name" v="Nytun" />
		<tag k="place" v="farm" />
		<tag k="ssr:stedsnr" v="259707" />
	</node>
	<node id="9891456536" lat="66.263201" lon="13.1021965" version="1" timestamp="2022-07-16T12:02:08Z" changeset="123687324" uid="3497659" user="NKA">
		<tag k="alt_name" v="Lille-Steira" />
		<tag k="name" v="Litl-Steira" />
		<tag k="place" v="farm" />
		<tag k="ssr:stedsnr" v="590027" />
	</node>
	<node id="9891456537" lat="66.2480055" lon="12.7523638" version="1" timestamp="2022-07-16T12:02:08Z" changeset="123687324" uid="3497659" user="NKA">
		<tag k="name" v="Remmen" />
		<tag k="place" v="farm" />
		<tag k="ssr:stedsnr" v="106961" />
	</node>
	<node id="9891456538" lat="66.2576904" lon="13.0842655" version="1" timestamp="2022-07-16T12:02:08Z" changeset="123687324" uid="3497659" user="NKA">
		<tag k="alt_name" v="Steiro" />
		<tag k="name" v="Steira" />
		<tag k="place" v="hamlet" />
		<tag k="ssr:stedsnr" v="501716" />
	</node>
	<node id="9891456539" lat="66.2300889" lon="12.7801221" version="1" timestamp="2022-07-16T12:02:08Z" changeset="123687324" uid="3497659" user="NKA">
		<tag k="name" v="Solvoll" />
		<tag k="place" v="farm" />
		<tag k="ssr:stedsnr" v="106262" />
	</node>
	<node id="9891456540" lat="66.2726482" lon="13.136281" version="1" timestamp="2022-07-16T12:02:08Z" changeset="123687324" uid="3497659" user="NKA">
		<tag k="name" v="Bergtun" />
		<tag k="place" v="farm" />
		<tag k="ssr:stedsnr" v="744708" />
	</node>
	<node id="9891456541" lat="66.2016065" lon="13.0467688" version="1" timestamp="2022-07-16T12:02:08Z" changeset="123687324" uid="3497659" user="NKA">
		<tag k="name" v="Utheim" />
		<tag k="place" v="farm" />
		<tag k="ssr:stedsnr" v="501754" />
	</node>
	<node id="9891456542" lat="66.2441279" lon="13.0350682" version="1" timestamp="2022-07-16T12:02:08Z" changeset="123687324" uid="3497659" user="NKA">
		<tag k="name" v="Hines" />
		<tag k="place" v="farm" />
		<tag k="ssr:stedsnr" v="440813" />
	</node>
	<node id="9891456543" lat="66.2379426" lon="13.0180691" version="1" timestamp="2022-07-16T12:02:08Z" changeset="123687324" uid="3497659" user="NKA">
		<tag k="name" v="Riksa" />
		<tag k="place" v="hamlet" />
		<tag k="ssr:stedsnr" v="440812" />
	</node>
	<node id="9891456544" lat="66.2538778" lon="13.0783333" version="1" timestamp="2022-07-16T12:02:08Z" changeset="123687324" uid="3497659" user="NKA">
		<tag k="name" v="Seljelund" />
		<tag k="place" v="farm" />
		<tag k="ssr:stedsnr" v="591006" />
	</node>
	<node id="9891456545" lat="66.2415861" lon="13.1265416" version="1" timestamp="2022-07-16T12:02:08Z" changeset="123687324" uid="3497659" user="NKA">
		<tag k="alt_name" v="Huskebakken" />
		<tag k="name" v="Huskebakk" />
		<tag k="place" v="farm" />
		<tag k="ssr:stedsnr" v="743820" />
	</node>
	<node id="9891456546" lat="66.2703444" lon="13.126611" version="1" timestamp="2022-07-16T12:02:08Z" changeset="123687324" uid="3497659" user="NKA">
		<tag k="alt_name" v="Stranda" />
		<tag k="name" v="Stranden" />
		<tag k="place" v="farm" />
		<tag k="ssr:stedsnr" v="441738" />
	</node>
	<node id="9891456547" lat="66.1680528" lon="12.8687083" version="1" timestamp="2022-07-16T12:02:08Z" changeset="123687324" uid="3497659" user="NKA">
		<tag k="name" v="Anggårdan" />
		<tag k="place" v="farm" />
		<tag k="ssr:stedsnr" v="440795" />
	</node>
	<node id="9891456548" lat="66.2142979" lon="13.0685454" version="1" timestamp="2022-07-16T12:02:08Z" changeset="123687324" uid="3497659" user="NKA">
		<tag k="alt_name" v="Slettstranda" />
		<tag k="name" v="Slettstrand" />
		<tag k="place" v="farm" />
		<tag k="ssr:stedsnr" v="319850" />
	</node>
	<node id="9891456549" lat="66.1880435" lon="13.0930954" version="1" timestamp="2022-07-16T12:02:08Z" changeset="123687324" uid="3497659" user="NKA">
		<tag k="alt_name" v="Strand-Øvre" />
		<tag k="name" v="Øvre Strand" />
		<tag k="place" v="farm" />
		<tag k="ssr:stedsnr" v="440769" />
	</node>
	<node id="9891456550" lat="66.2650139" lon="12.7302804" version="1" timestamp="2022-07-16T12:02:08Z" changeset="123687324" uid="3497659" user="NKA">
		<tag k="name" v="Bersvollen" />
		<tag k="place" v="farm" />
		<tag k="ssr:stedsnr" v="166965" />
	</node>
	<node id="9891456551" lat="66.2628999" lon="13.154488" version="1" timestamp="2022-07-16T12:02:08Z" changeset="123687324" uid="3497659" user="NKA">
		<tag k="name" v="Asplund" />
		<tag k="place" v="farm" />
		<tag k="ssr:stedsnr" v="319618" />
	</node>
	<node id="9891456552" lat="66.2683583" lon="13.17995" version="1" timestamp="2022-07-16T12:02:08Z" changeset="123687324" uid="3497659" user="NKA">
		<tag k="name" v="Solheim" />
		<tag k="place" v="farm" />
		<tag k="ssr:stedsnr" v="16718" />
	</node>
	<node id="9891456553" lat="66.2087316" lon="12.9239504" version="1" timestamp="2022-07-16T12:02:08Z" changeset="123687324" uid="3497659" user="NKA">
		<tag k="alt_name" v="Engan" />
		<tag k="name" v="Enga" />
		<tag k="place" v="locality" />
		<tag k="ssr:stedsnr" v="76855" />
	</node>
	<node id="9891456554" lat="66.2041167" lon="13.0370973" version="1" timestamp="2022-07-16T12:02:08Z" changeset="123687324" uid="3497659" user="NKA">
		<tag k="name" v="Nordnes" />
		<tag k="place" v="farm" />
		<tag k="ssr:stedsnr" v="76746" />
	</node>
	<node id="9891456555" lat="66.2831861" lon="13.162775" version="1" timestamp="2022-07-16T12:02:08Z" changeset="123687324" uid="3497659" user="NKA">
		<tag k="name" v="Størkvik" />
		<tag k="place" v="locality" />
		<tag k="ssr:stedsnr" v="409781" />
	</node>
	<node id="9891456556" lat="66.2650857" lon="13.1149463" version="1" timestamp="2022-07-16T12:02:08Z" changeset="123687324" uid="3497659" user="NKA">
		<tag k="name" v="Solvang" />
		<tag k="place" v="farm" />
		<tag k="ssr:stedsnr" v="229020" />
	</node>
	<node id="9891456557" lat="66.2757111" lon="13.1496555" version="1" timestamp="2022-07-16T12:02:08Z" changeset="123687324" uid="3497659" user="NKA">
		<tag k="name" v="Skaganes" />
		<tag k="place" v="farm" />
		<tag k="ssr:stedsnr" v="530777" />
	</node>
	<node id="9891456558" lat="66.2614084" lon="12.7293694" version="1" timestamp="2022-07-16T12:02:08Z" changeset="123687324" uid="3497659" user="NKA">
		<tag k="alt_name" v="Gropen" />
		<tag k="name" v="Stranda" />
		<tag k="place" v="farm" />
		<tag k="ssr:stedsnr" v="562698" />
	</node>
	<node id="9891456559" lat="66.2208167" lon="12.7767056" version="1" timestamp="2022-07-16T12:02:08Z" changeset="123687324" uid="3497659" user="NKA">
		<tag k="name" v="Kleiva" />
		<tag k="place" v="farm" />
		<tag k="ssr:stedsnr" v="926832" />
	</node>
	<node id="9891456560" lat="66.1769333" lon="12.9411527" version="1" timestamp="2022-07-16T12:02:08Z" changeset="123687324" uid="3497659" user="NKA">
		<tag k="name" v="Nordbustad" />
		<tag k="place" v="hamlet" />
		<tag k="ssr:stedsnr" v="561792" />
	</node>
	<node id="9891456561" lat="66.2916714" lon="12.8101391" version="1" timestamp="2022-07-16T12:02:08Z" changeset="123687324" uid="3497659" user="NKA">
		<tag k="alt_name" v="Finnvik" />
		<tag k="name" v="Finnvika" />
		<tag k="place" v="farm" />
		<tag k="ssr:stedsnr" v="562677" />
	</node>
	<node id="9891456562" lat="66.2284418" lon="12.9247655" version="1" timestamp="2022-07-16T12:02:08Z" changeset="123687324" uid="3497659" user="NKA">
		<tag k="name" v="Sørstranda" />
		<tag k="place" v="farm" />
		<tag k="ssr:stedsnr" v="743843" />
	</node>
	<node id="9891456563" lat="66.1881195" lon="12.9551021" version="1" timestamp="2022-07-16T12:02:08Z" changeset="123687324" uid="3497659" user="NKA">
		<tag k="name" v="Haugen" />
		<tag k="place" v="farm" />
		<tag k="ssr:stedsnr" v="561776" />
	</node>
	<node id="9891456564" lat="66.2103334" lon="13.0535971" version="1" timestamp="2022-07-16T12:02:08Z" changeset="123687324" uid="3497659" user="NKA">
		<tag k="name" v="Tunga" />
		<tag k="place" v="farm" />
		<tag k="ssr:stedsnr" v="561758" />
	</node>
	<node id="9891456565" lat="66.1851664" lon="12.9499288" version="1" timestamp="2022-07-16T12:02:08Z" changeset="123687324" uid="3497659" user="NKA">
		<tag k="name" v="Storvoll" />
		<tag k="place" v="farm" />
		<tag k="ssr:stedsnr" v="957395" />
	</node>
	<node id="9891456566" lat="66.1912611" lon="12.9571056" version="1" timestamp="2022-07-16T12:02:08Z" changeset="123687324" uid="3497659" user="NKA">
		<tag k="name" v="Myra" />
		<tag k="place" v="farm" />
		<tag k="ssr:stedsnr" v="318796" />
	</node>
	<node id="9891456567" lat="66.2701" lon="12.8869501" version="1" timestamp="2022-07-16T12:02:08Z" changeset="123687324" uid="3497659" user="NKA">
		<tag k="alt_name" v="Hatten" />
		<tag k="name" v="Minnet" />
		<tag k="place" v="farm" />
		<tag k="ssr:stedsnr" v="259714" />
	</node>
</osm>
