<?xml version="1.0" encoding="UTF-8"?>
<osm generator="osmapis" version="0.6">
	<node id="-238101" lat="59.3883416651" lon="9.24503610458">
		<tag k="name" v="Kråkenabben" />
		<tag k="ssr:date" v="2019-05-31" />
		<tag k="ssr:gruppe" v="veg" />
		<tag k="ssr:hovedgruppe" v="infrastruktur" />
		<tag k="ssr:stedsnr" v="848588" />
		<tag k="ssr:type" v="adressenavn" />
	</node>
	<node id="-236662" lat="59.4630634157" lon="9.44604020598">
		<tag k="name" v="Eiangsvegen" />
		<tag k="ssr:date" v="2019-05-31" />
		<tag k="ssr:gruppe" v="veg" />
		<tag k="ssr:hovedgruppe" v="infrastruktur" />
		<tag k="ssr:stedsnr" v="1053645" />
		<tag k="ssr:type" v="adressenavn" />
	</node>
	<node id="-237424" lat="59.5335027799" lon="9.43450554757">
		<tag k="name" v="Murtetjønnvegen" />
		<tag k="ssr:date" v="2016-05-10" />
		<tag k="ssr:gruppe" v="veg" />
		<tag k="ssr:hovedgruppe" v="infrastruktur" />
		<tag k="ssr:stedsnr" v="468724" />
		<tag k="ssr:type" v="vegstrekning" />
	</node>
	<node id="-236526" lat="59.4487477551" lon="9.33849634985">
		<tag k="name" v="Haugedalsvegen" />
		<tag k="ssr:date" v="2019-05-31" />
		<tag k="ssr:gruppe" v="veg" />
		<tag k="ssr:hovedgruppe" v="infrastruktur" />
		<tag k="ssr:stedsnr" v="1049285" />
		<tag k="ssr:type" v="adressenavn" />
	</node>
	<node id="-236524" lat="59.5497594863" lon="9.44339759467">
		<tag k="name" v="Drevdalsvegen" />
		<tag k="ssr:date" v="2019-05-31" />
		<tag k="ssr:gruppe" v="veg" />
		<tag k="ssr:hovedgruppe" v="infrastruktur" />
		<tag k="ssr:stedsnr" v="1049063" />
		<tag k="ssr:type" v="adressenavn" />
	</node>
	<node id="-237806" lat="59.3964249987" lon="9.24914167074">
		<tag k="name" v="Sauherad kommune" />
		<tag k="ssr:date" v="2016-05-11" />
		<tag k="ssr:gruppe" v="administrativeIndelinger" />
		<tag k="ssr:hovedgruppe" v="offentligAdministrasjon" />
		<tag k="ssr:stedsnr" v="692943" />
		<tag k="ssr:type" v="kommune" />
	</node>
	<node id="-236626" lat="59.5139427665" lon="9.29036795061">
		<tag k="name" v="Søndre Vestsidaveg" />
		<tag k="ssr:date" v="2019-05-31" />
		<tag k="ssr:gruppe" v="veg" />
		<tag k="ssr:hovedgruppe" v="infrastruktur" />
		<tag k="ssr:stedsnr" v="1050344" />
		<tag k="ssr:type" v="adressenavn" />
	</node>
	<node id="-236495" lat="59.3865916677" lon="9.24483056088">
		<tag k="name" v="Eyraberg" />
		<tag k="ssr:date" v="2019-05-31" />
		<tag k="ssr:gruppe" v="veg" />
		<tag k="ssr:hovedgruppe" v="infrastruktur" />
		<tag k="ssr:stedsnr" v="302583" />
		<tag k="ssr:type" v="adressenavn" />
	</node>
	<node id="-237238" lat="59.5208083369" lon="9.42540278097">
		<tag k="name" v="Taklåsvegen" />
		<tag k="ssr:date" v="2016-05-10" />
		<tag k="ssr:gruppe" v="veg" />
		<tag k="ssr:hovedgruppe" v="infrastruktur" />
		<tag k="ssr:stedsnr" v="225404" />
		<tag k="ssr:type" v="vegstrekning" />
	</node>
	<node id="-236725" lat="59.5089416663" lon="9.46444166889">
		<tag k="name" v="Skulsbuvegen" />
		<tag k="ssr:date" v="2016-05-10" />
		<tag k="ssr:gruppe" v="veg" />
		<tag k="ssr:hovedgruppe" v="infrastruktur" />
		<tag k="ssr:stedsnr" v="407749" />
		<tag k="ssr:type" v="vegstrekning" />
	</node>
	<node id="-236844" lat="59.4066630894" lon="9.34030111341">
		<tag k="name" v="Landtjønnvegen" />
		<tag k="ssr:date" v="2019-12-11" />
		<tag k="ssr:gruppe" v="veg" />
		<tag k="ssr:hovedgruppe" v="infrastruktur" />
		<tag k="ssr:stedsnr" v="1074040" />
		<tag k="ssr:type" v="adressenavn" />
	</node>
	<node id="-236843" lat="59.3890425122" lon="9.37241194549">
		<tag k="name" v="Fjellvegen" />
		<tag k="ssr:date" v="2019-12-11" />
		<tag k="ssr:gruppe" v="veg" />
		<tag k="ssr:hovedgruppe" v="infrastruktur" />
		<tag k="ssr:stedsnr" v="1074037" />
		<tag k="ssr:type" v="adressenavn" />
	</node>
	<node id="-236458" lat="59.518333336" lon="9.38963889213">
		<tag k="name" v="Gamle Stulsvegen" />
		<tag k="ssr:date" v="2016-05-10" />
		<tag k="ssr:gruppe" v="veg" />
		<tag k="ssr:hovedgruppe" v="infrastruktur" />
		<tag k="ssr:stedsnr" v="286567" />
		<tag k="ssr:type" v="vegstrekning" />
	</node>
	<node id="-236709" lat="59.5493749994" lon="9.43105555834">
		<tag k="name" v="Breisetvegen" />
		<tag k="ssr:date" v="2016-05-10" />
		<tag k="ssr:gruppe" v="veg" />
		<tag k="ssr:hovedgruppe" v="infrastruktur" />
		<tag k="ssr:stedsnr" v="407686" />
		<tag k="ssr:type" v="vegstrekning" />
	</node>
	<node id="-238238" lat="59.4720942988" lon="9.38513025824">
		<tag k="name" v="Eiangen" />
		<tag k="ssr:date" v="2019-05-31" />
		<tag k="ssr:gruppe" v="veg" />
		<tag k="ssr:hovedgruppe" v="infrastruktur" />
		<tag k="ssr:stedsnr" v="976871" />
		<tag k="ssr:type" v="adressenavn" />
	</node>
	<node id="-238237" lat="59.454379099" lon="9.35582680671">
		<tag k="name" v="Stutebuvegen" />
		<tag k="ssr:date" v="2019-05-31" />
		<tag k="ssr:gruppe" v="veg" />
		<tag k="ssr:hovedgruppe" v="infrastruktur" />
		<tag k="ssr:stedsnr" v="976803" />
		<tag k="ssr:type" v="adressenavn" />
	</node>
	<node id="-238236" lat="59.4204609595" lon="9.32836099776">
		<tag k="name" v="Børtevegen" />
		<tag k="ssr:date" v="2019-05-31" />
		<tag k="ssr:gruppe" v="veg" />
		<tag k="ssr:hovedgruppe" v="infrastruktur" />
		<tag k="ssr:stedsnr" v="976764" />
		<tag k="ssr:type" v="adressenavn" />
	</node>
	<node id="-238235" lat="60.5908609473" lon="9.63819281559">
		<tag k="fixme" v="multiple name tags, choose one and add the other to alt_name" />
		<tag k="name" v="Austlandet;Østlandet" />
		<tag k="ssr:date" v="2018-01-09" />
		<tag k="ssr:gruppe" v="administrativeIndelinger" />
		<tag k="ssr:hovedgruppe" v="offentligAdministrasjon" />
		<tag k="ssr:stedsnr" v="974775" />
		<tag k="ssr:type" v="annenAdministrativInndeling" />
	</node>
	<node id="-238233" lat="59.3887055574" lon="9.24285556115">
		<tag k="name" v="Idungsås" />
		<tag k="ssr:date" v="2019-05-31" />
		<tag k="ssr:gruppe" v="veg" />
		<tag k="ssr:hovedgruppe" v="infrastruktur" />
		<tag k="ssr:stedsnr" v="969593" />
		<tag k="ssr:type" v="adressenavn" />
	</node>
	<node id="-237845" lat="59.4649111105" lon="9.21761667077">
		<tag k="name" v="Nybu-vegen" />
		<tag k="ssr:date" v="2016-05-11" />
		<tag k="ssr:gruppe" v="veg" />
		<tag k="ssr:hovedgruppe" v="infrastruktur" />
		<tag k="ssr:stedsnr" v="711175" />
		<tag k="ssr:type" v="vegstrekning" />
	</node>
	<node id="-237422" lat="59.5374750014" lon="9.41233889118">
		<tag k="name" v="Kollset-vegen" />
		<tag k="ssr:date" v="2016-05-10" />
		<tag k="ssr:gruppe" v="veg" />
		<tag k="ssr:hovedgruppe" v="infrastruktur" />
		<tag k="ssr:stedsnr" v="468655" />
		<tag k="ssr:type" v="vegstrekning" />
	</node>
	<node id="-236941" lat="59.5396555525" lon="9.44088333791">
		<tag k="name" v="Monsvassvegen" />
		<tag k="ssr:date" v="2016-05-10" />
		<tag k="ssr:gruppe" v="veg" />
		<tag k="ssr:hovedgruppe" v="infrastruktur" />
		<tag k="ssr:stedsnr" v="43730" />
		<tag k="ssr:type" v="vegstrekning" />
	</node>
	<node id="-238084" lat="59.4782138913" lon="9.20783055402">
		<tag k="name" v="Roheim-Vidsjå-vegen" />
		<tag k="ssr:date" v="2016-05-11" />
		<tag k="ssr:gruppe" v="veg" />
		<tag k="ssr:hovedgruppe" v="infrastruktur" />
		<tag k="ssr:stedsnr" v="833165" />
		<tag k="ssr:type" v="vegstrekning" />
	</node>
</osm>
