<?xml version="1.0" encoding="UTF-8"?>
<osm version="0.6" generator="osmapis">
	<node lat="68.97797499604182" lon="16.266362738653353" id="-37627">
		<tag k="name" v="Grøtavær" />
		<tag k="ssr:date" v="2020-11-10" />
		<tag k="ssr:gruppe" v="navigasjon" />
		<tag k="ssr:hovedgruppe" v="infrastruktur" />
		<tag k="ssr:stedsnr" v="261691" />
		<tag k="ssr:type" v="fyrlykt" />
	</node>
	<node lat="69.06414379159544" lon="16.492843294241904" id="-37691">
		<tag k="name" v="Tarskjær" />
		<tag k="ssr:date" v="2020-11-10" />
		<tag k="ssr:gruppe" v="navigasjon" />
		<tag k="ssr:hovedgruppe" v="infrastruktur" />
		<tag k="ssr:stedsnr" v="321093" />
		<tag k="ssr:type" v="fyrlykt" />
	</node>
	<node lat="69.00934166283476" lon="16.16274444962365" id="-37842">
		<tag k="name" v="Nordstø" />
		<tag k="ssr:date" v="2019-12-27" />
		<tag k="ssr:gruppe" v="sjøbunn" />
		<tag k="ssr:hovedgruppe" v="sjø" />
		<tag k="ssr:stedsnr" v="398888" />
		<tag k="ssr:type" v="ryggISjø" />
	</node>
	<node lat="68.57211018641186" lon="16.52815628974431" id="-38110">
		<tag k="name" v="Kobbsteingrunnen" />
		<tag k="ssr:date" v="2021-01-05" />
		<tag k="ssr:gruppe" v="navigasjon" />
		<tag k="ssr:hovedgruppe" v="infrastruktur" />
		<tag k="ssr:stedsnr" v="688167" />
		<tag k="ssr:type" v="fyrlykt" />
	</node>
	<node lat="68.5635194412485" lon="16.50883054884206" id="-38127">
		<tag k="name" v="Remma" />
		<tag k="ssr:date" v="2019-12-27" />
		<tag k="ssr:gruppe" v="navigasjon" />
		<tag k="ssr:hovedgruppe" v="infrastruktur" />
		<tag k="ssr:stedsnr" v="697255" />
		<tag k="ssr:type" v="fyrlykt" />
	</node>
	<node lat="68.99989167064993" lon="16.538202771885096" id="-38206">
		<tag k="name" v="Nergårdsvika molo" />
		<tag k="ssr:date" v="2019-12-27" />
		<tag k="ssr:gruppe" v="navigasjon" />
		<tag k="ssr:hovedgruppe" v="infrastruktur" />
		<tag k="ssr:stedsnr" v="705794" />
		<tag k="ssr:type" v="fyrlykt" />
	</node>
	<node lat="68.5528944485489" lon="16.463455553430997" id="-38263">
		<tag k="name" v="Steinstigrunnen lysbøye" />
		<tag k="ssr:date" v="2019-12-27" />
		<tag k="ssr:gruppe" v="navigasjon" />
		<tag k="ssr:hovedgruppe" v="infrastruktur" />
		<tag k="ssr:stedsnr" v="693716" />
		<tag k="ssr:type" v="fyrlykt" />
	</node>
	<node lat="68.9458866776051" lon="16.655290361375673" id="-38329">
		<tag k="alt_name" v="Sandsøy" />
		<tag k="name" v="Sandsøya" />
		<tag k="ssr:date" v="2021-01-05" />
		<tag k="ssr:gruppe" v="navigasjon" />
		<tag k="ssr:hovedgruppe" v="infrastruktur" />
		<tag k="ssr:stedsnr" v="745516" />
		<tag k="ssr:type" v="fyrlykt" />
	</node>
	<node lat="68.8779777750054" lon="16.575572223291495" id="-38670">
		<tag k="name" v="Lundenes molo" />
		<tag k="ssr:date" v="2019-12-27" />
		<tag k="ssr:gruppe" v="navigasjon" />
		<tag k="ssr:hovedgruppe" v="infrastruktur" />
		<tag k="ssr:stedsnr" v="947809" />
		<tag k="ssr:type" v="fyrlykt" />
	</node>
	<node lat="69.00582222435791" lon="16.132416674865752" id="-38779">
		<tag k="name" v="Sørstø" />
		<tag k="ssr:date" v="2019-12-27" />
		<tag k="ssr:gruppe" v="sjøbunn" />
		<tag k="ssr:hovedgruppe" v="sjø" />
		<tag k="ssr:stedsnr" v="34873" />
		<tag k="ssr:type" v="ryggISjø" />
	</node>
	<node lat="68.66972408689227" lon="16.636039963540576" id="-38922">
		<tag k="name" v="Grasholmen" />
		<tag k="ssr:date" v="2021-06-08" />
		<tag k="ssr:gruppe" v="navigasjon" />
		<tag k="ssr:hovedgruppe" v="infrastruktur" />
		<tag k="ssr:stedsnr" v="81091" />
		<tag k="ssr:type" v="fyrlykt" />
	</node>
	<node lat="68.99461389201733" lon="16.249097222120295" id="-38941">
		<tag k="name" v="Jonsbakken" />
		<tag k="ssr:date" v="2019-12-27" />
		<tag k="ssr:gruppe" v="sjøbunn" />
		<tag k="ssr:hovedgruppe" v="sjø" />
		<tag k="ssr:stedsnr" v="95890" />
		<tag k="ssr:type" v="ryggISjø" />
	</node>
	<node lat="68.82233055339718" lon="16.623516673594427" id="-39073">
		<tag k="name" v="Smågrunnen" />
		<tag k="ssr:date" v="2019-12-27" />
		<tag k="ssr:gruppe" v="navigasjon" />
		<tag k="ssr:hovedgruppe" v="infrastruktur" />
		<tag k="ssr:stedsnr" v="150043" />
		<tag k="ssr:type" v="lanterne" />
	</node>
	<node lat="68.79877499935905" lon="16.539266655145315" id="-39352">
		<tag k="alt_name:no" v="Harstad" />
		<tag k="name" v="Harstad kommune - Hársttáid suohkan" />
		<tag k="name:no" v="Harstad kommune" />
		<tag k="name:se" v="Hársttáid suohkan" />
		<tag k="ssr:date" v="2021-06-08" />
		<tag k="ssr:gruppe" v="administrativeIndelinger" />
		<tag k="ssr:hovedgruppe" v="offentligAdministrasjon" />
		<tag k="ssr:stedsnr" v="329043" />
		<tag k="ssr:type" v="kommune" />
	</node>
	<node lat="68.97492293347658" lon="16.591456073193037" id="-39355">
		<tag k="name" v="Kverna" />
		<tag k="ssr:date" v="2020-11-10" />
		<tag k="ssr:gruppe" v="navigasjon" />
		<tag k="ssr:hovedgruppe" v="infrastruktur" />
		<tag k="ssr:stedsnr" v="333468" />
		<tag k="ssr:type" v="fyrlykt" />
	</node>
	<node lat="69.0861277777949" lon="16.466119453934212" id="-39387">
		<tag k="name" v="Lille Bjønnholmen" />
		<tag k="ssr:date" v="2019-12-27" />
		<tag k="ssr:gruppe" v="navigasjon" />
		<tag k="ssr:hovedgruppe" v="infrastruktur" />
		<tag k="ssr:stedsnr" v="359623" />
		<tag k="ssr:type" v="lanterne" />
	</node>
	<node lat="68.95636711874197" lon="16.635607229417317" id="-39609">
		<tag k="name" v="Sandssund" />
		<tag k="old_name" v="Sandssundet" />
		<tag k="ssr:date" v="2020-03-31" />
		<tag k="ssr:gruppe" v="navigasjon" />
		<tag k="ssr:hovedgruppe" v="infrastruktur" />
		<tag k="ssr:stedsnr" v="442518" />
		<tag k="ssr:type" v="fyrlykt" />
	</node>
	<node lat="68.80020277541902" lon="16.621524995588516" id="-39674">
		<tag k="name" v="Harstad" />
		<tag k="ssr:date" v="2019-12-27" />
		<tag k="ssr:gruppe" v="navigasjon" />
		<tag k="ssr:hovedgruppe" v="infrastruktur" />
		<tag k="ssr:stedsnr" v="503466" />
		<tag k="ssr:type" v="fyrlykt" />
	</node>
	<node lat="68.5726806219768" lon="16.53659617020826" id="-39700">
		<tag k="name" v="Storbøen" />
		<tag k="ssr:date" v="2021-01-05" />
		<tag k="ssr:gruppe" v="navigasjon" />
		<tag k="ssr:hovedgruppe" v="infrastruktur" />
		<tag k="ssr:stedsnr" v="505150" />
		<tag k="ssr:type" v="fyrlykt" />
	</node>
	<node lat="68.99014166463488" lon="16.203350005728122" id="-39719">
		<tag k="name" v="Briet" />
		<tag k="ssr:date" v="2019-12-27" />
		<tag k="ssr:gruppe" v="sjøbunn" />
		<tag k="ssr:hovedgruppe" v="sjø" />
		<tag k="ssr:stedsnr" v="519897" />
		<tag k="ssr:type" v="ryggISjø" />
	</node>
	<node lat="68.95934722227094" lon="16.762630562707596" id="-39861">
		<tag k="name" v="Spira" />
		<tag k="ssr:date" v="2019-12-27" />
		<tag k="ssr:gruppe" v="navigasjon" />
		<tag k="ssr:hovedgruppe" v="infrastruktur" />
		<tag k="ssr:stedsnr" v="575252" />
		<tag k="ssr:type" v="fyrlykt" />
	</node>
	<node lat="69.02371103452097" lon="16.47555644915342" id="-39972">
		<tag k="name" v="Bårnøyklubben" />
		<tag k="old_name" v="Bornøyklubben" />
		<tag k="ssr:date" v="2020-09-17" />
		<tag k="ssr:gruppe" v="navigasjon" />
		<tag k="ssr:hovedgruppe" v="infrastruktur" />
		<tag k="ssr:stedsnr" v="624101" />
		<tag k="ssr:type" v="fyrlykt" />
	</node>
	<node lat="68.95339673191839" lon="16.223744338637644" id="-39990">
		<tag k="name" v="Senholmen" />
		<tag k="old_name" v="Sennholmen" />
		<tag k="ssr:date" v="2020-09-17" />
		<tag k="ssr:gruppe" v="navigasjon" />
		<tag k="ssr:hovedgruppe" v="infrastruktur" />
		<tag k="ssr:stedsnr" v="624517" />
		<tag k="ssr:type" v="fyrlykt" />
	</node>
	<node lat="68.86174634709712" lon="16.57635277023367" id="-40190">
		<tag k="name" v="Store Kjeøy" />
		<tag k="old_name" v="Kjeøya, store;Store Kjeøya" />
		<tag k="ssr:date" v="2020-09-10" />
		<tag k="ssr:gruppe" v="navigasjon" />
		<tag k="ssr:hovedgruppe" v="infrastruktur" />
		<tag k="ssr:stedsnr" v="745436" />
		<tag k="ssr:type" v="fyrlykt" />
	</node>
	<node lat="68.79820833343797" lon="16.60260832033493" id="-40210">
		<tag k="name" v="Stangnesodden" />
		<tag k="ssr:date" v="2019-12-27" />
		<tag k="ssr:gruppe" v="navigasjon" />
		<tag k="ssr:hovedgruppe" v="infrastruktur" />
		<tag k="ssr:stedsnr" v="746495" />
		<tag k="ssr:type" v="fyrlykt" />
	</node>
	<node lat="68.82500057031594" lon="16.618624910010976" id="-40463">
		<tag k="name" v="Mågøy" />
		<tag k="old_name" v="Måga;Mågøya" />
		<tag k="ssr:date" v="2020-11-26" />
		<tag k="ssr:gruppe" v="navigasjon" />
		<tag k="ssr:hovedgruppe" v="infrastruktur" />
		<tag k="ssr:stedsnr" v="867403" />
		<tag k="ssr:type" v="fyrlykt" />
	</node>
	<node lat="68.93503611347498" lon="16.650363900343525" id="-40518">
		<tag k="name" v="Fenes" />
		<tag k="ssr:date" v="2019-12-27" />
		<tag k="ssr:gruppe" v="navigasjon" />
		<tag k="ssr:hovedgruppe" v="infrastruktur" />
		<tag k="ssr:stedsnr" v="878765" />
		<tag k="ssr:type" v="fyrlykt" />
	</node>
	<node lat="68.95357222265413" lon="16.636152771107497" id="-40524">
		<tag k="name" v="Store Dyna" />
		<tag k="ssr:date" v="2019-12-27" />
		<tag k="ssr:gruppe" v="navigasjon" />
		<tag k="ssr:hovedgruppe" v="infrastruktur" />
		<tag k="ssr:stedsnr" v="940377" />
		<tag k="ssr:type" v="fyrlykt" />
	</node>
	<node lat="68.80001987367723" lon="16.53561949147249" id="-40607">
		<tag k="name" v="Henrik Torbergsens gate" />
		<tag k="ssr:date" v="2019-12-27" />
		<tag k="ssr:gruppe" v="veg" />
		<tag k="ssr:hovedgruppe" v="infrastruktur" />
		<tag k="ssr:stedsnr" v="1009313" />
		<tag k="ssr:type" v="adressenavn" />
	</node>
	<node lat="68.96481968701616" lon="16.594585407899825" id="-40608">
		<tag k="name" v="Horsevika" />
		<tag k="ssr:date" v="2019-12-27" />
		<tag k="ssr:gruppe" v="veg" />
		<tag k="ssr:hovedgruppe" v="infrastruktur" />
		<tag k="ssr:stedsnr" v="1009586" />
		<tag k="ssr:type" v="adressenavn" />
	</node>
	<node lat="69.04015809004603" lon="16.491271948379147" id="-40609">
		<tag k="name" v="Flatøya" />
		<tag k="ssr:date" v="2019-12-27" />
		<tag k="ssr:gruppe" v="veg" />
		<tag k="ssr:hovedgruppe" v="infrastruktur" />
		<tag k="ssr:stedsnr" v="1009588" />
		<tag k="ssr:type" v="adressenavn" />
	</node>
	<node lat="68.95301012306278" lon="16.571589548600294" id="-40610">
		<tag k="name" v="Dypingen" />
		<tag k="ssr:date" v="2019-12-27" />
		<tag k="ssr:gruppe" v="veg" />
		<tag k="ssr:hovedgruppe" v="infrastruktur" />
		<tag k="ssr:stedsnr" v="1009580" />
		<tag k="ssr:type" v="adressenavn" />
	</node>
	<node lat="68.96418177460298" lon="16.505721753333955" id="-40611">
		<tag k="name" v="Akkarnes" />
		<tag k="ssr:date" v="2019-12-27" />
		<tag k="ssr:gruppe" v="veg" />
		<tag k="ssr:hovedgruppe" v="infrastruktur" />
		<tag k="ssr:stedsnr" v="1009582" />
		<tag k="ssr:type" v="adressenavn" />
	</node>
	<node lat="68.8067387625223" lon="16.545832129441138" id="-40612">
		<tag k="name" v="Holstneset" />
		<tag k="ssr:date" v="2019-12-27" />
		<tag k="ssr:gruppe" v="veg" />
		<tag k="ssr:hovedgruppe" v="infrastruktur" />
		<tag k="ssr:stedsnr" v="1009584" />
		<tag k="ssr:type" v="adressenavn" />
	</node>
	<node lat="69.02673910741684" lon="16.492779068796057" id="-40613">
		<tag k="name" v="Bornøya" />
		<tag k="ssr:date" v="2019-12-27" />
		<tag k="ssr:gruppe" v="veg" />
		<tag k="ssr:hovedgruppe" v="infrastruktur" />
		<tag k="ssr:stedsnr" v="1009592" />
		<tag k="ssr:type" v="adressenavn" />
	</node>
	<node lat="69.03431235813031" lon="16.517950201472516" id="-40614">
		<tag k="name" v="Helløya" />
		<tag k="ssr:date" v="2019-12-27" />
		<tag k="ssr:gruppe" v="veg" />
		<tag k="ssr:hovedgruppe" v="infrastruktur" />
		<tag k="ssr:stedsnr" v="1009594" />
		<tag k="ssr:type" v="adressenavn" />
	</node>
	<node lat="68.78345413345494" lon="16.58143464461534" id="-40615">
		<tag k="name" v="Åkerstien" />
		<tag k="ssr:date" v="2019-12-27" />
		<tag k="ssr:gruppe" v="veg" />
		<tag k="ssr:hovedgruppe" v="infrastruktur" />
		<tag k="ssr:stedsnr" v="1009624" />
		<tag k="ssr:type" v="adressenavn" />
	</node>
	<node lat="68.69217480209481" lon="16.561731712096137" id="-40616">
		<tag k="name" v="Melvikøya" />
		<tag k="ssr:date" v="2019-12-27" />
		<tag k="ssr:gruppe" v="veg" />
		<tag k="ssr:hovedgruppe" v="infrastruktur" />
		<tag k="ssr:stedsnr" v="1009626" />
		<tag k="ssr:type" v="adressenavn" />
	</node>
	<node lat="68.72909815966854" lon="16.633173416040826" id="-40617">
		<tag k="name" v="Rogla" />
		<tag k="ssr:date" v="2019-12-27" />
		<tag k="ssr:gruppe" v="veg" />
		<tag k="ssr:hovedgruppe" v="infrastruktur" />
		<tag k="ssr:stedsnr" v="1010004" />
		<tag k="ssr:type" v="adressenavn" />
	</node>
	<node lat="68.77099787011429" lon="16.499682163926675" id="-40618">
		<tag k="name" v="Pevatnet" />
		<tag k="ssr:date" v="2019-12-27" />
		<tag k="ssr:gruppe" v="veg" />
		<tag k="ssr:hovedgruppe" v="infrastruktur" />
		<tag k="ssr:stedsnr" v="1010005" />
		<tag k="ssr:type" v="adressenavn" />
	</node>
	<node lat="68.82190941678526" lon="16.450821094510438" id="-40619">
		<tag k="name" v="Isveien" />
		<tag k="ssr:date" v="2019-12-27" />
		<tag k="ssr:gruppe" v="veg" />
		<tag k="ssr:hovedgruppe" v="infrastruktur" />
		<tag k="ssr:stedsnr" v="1009961" />
		<tag k="ssr:type" v="adressenavn" />
	</node>
	<node lat="68.7032763527238" lon="16.537755371962948" id="-40620">
		<tag k="name" v="Hinnøyveien" />
		<tag k="ssr:date" v="2019-12-27" />
		<tag k="ssr:gruppe" v="veg" />
		<tag k="ssr:hovedgruppe" v="infrastruktur" />
		<tag k="ssr:stedsnr" v="1009978" />
		<tag k="ssr:type" v="adressenavn" />
	</node>
	<node lat="68.88312541360852" lon="16.685480142344918" id="-40621">
		<tag k="name" v="Åkerøya" />
		<tag k="ssr:date" v="2019-12-27" />
		<tag k="ssr:gruppe" v="veg" />
		<tag k="ssr:hovedgruppe" v="infrastruktur" />
		<tag k="ssr:stedsnr" v="1010058" />
		<tag k="ssr:type" v="adressenavn" />
	</node>
	<node lat="68.77762858363582" lon="16.457674866569437" id="-40622">
		<tag k="name" v="Fjellveien" />
		<tag k="ssr:date" v="2019-12-27" />
		<tag k="ssr:gruppe" v="veg" />
		<tag k="ssr:hovedgruppe" v="infrastruktur" />
		<tag k="ssr:stedsnr" v="1073428" />
		<tag k="ssr:type" v="vegstrekning" />
	</node>
	<node lat="70.08225403199775" lon="29.73028468656217" id="-40626">
		<tag k="fixme" v="multiple name tags, choose one and add the other to alt_name" />
		<tag k="name" v="Troms og Finnmark;Troms og Finnmark fylke - Romssa ja Finnmárkku fylka - Tromssan ja Finmarkun fylkki" />
		<tag k="name:fkv" v="Tromssan ja Finmarkun fylkki" />
		<tag k="name:no" v="Troms og Finnmark;Troms og Finnmark fylke" />
		<tag k="name:se" v="Romssa ja Finnmárkku fylka" />
		<tag k="ssr:date" v="2021-06-08" />
		<tag k="ssr:gruppe" v="administrativeIndelinger" />
		<tag k="ssr:hovedgruppe" v="offentligAdministrasjon" />
		<tag k="ssr:stedsnr" v="1073694" />
		<tag k="ssr:type" v="fylke" />
	</node>
	<node lat="68.79776111001648" lon="16.54431095617758" id="-40660">
		<tag k="name" v="Anna Elisabeths gate" />
		<tag k="ssr:date" v="2021-03-26" />
		<tag k="ssr:gruppe" v="veg" />
		<tag k="ssr:hovedgruppe" v="infrastruktur" />
		<tag k="ssr:stedsnr" v="1080642" />
		<tag k="ssr:type" v="adressenavn" />
	</node>
	<node lat="68.88990409485709" lon="16.252675631180892" id="-40661">
		<tag k="name" v="Inner-Elgsnes" />
		<tag k="ssr:date" v="2021-03-26" />
		<tag k="ssr:gruppe" v="veg" />
		<tag k="ssr:hovedgruppe" v="infrastruktur" />
		<tag k="ssr:stedsnr" v="1080643" />
		<tag k="ssr:type" v="adressenavn" />
	</node>
	<node lat="68.82184897746919" lon="16.485398264012197" id="-40662">
		<tag k="name" v="Nupenveien" />
		<tag k="ssr:date" v="2021-04-06" />
		<tag k="ssr:gruppe" v="veg" />
		<tag k="ssr:hovedgruppe" v="infrastruktur" />
		<tag k="ssr:stedsnr" v="1080722" />
		<tag k="ssr:type" v="adressenavn" />
	</node>
	<node lat="68.67132394758445" lon="16.602714492201383" id="-40663">
		<tag k="name" v="Grasholmveien" />
		<tag k="ssr:date" v="2021-04-06" />
		<tag k="ssr:gruppe" v="veg" />
		<tag k="ssr:hovedgruppe" v="infrastruktur" />
		<tag k="ssr:stedsnr" v="1080723" />
		<tag k="ssr:type" v="adressenavn" />
	</node>
	<node lat="68.64966810242771" lon="16.43713541746564" id="-40664">
		<tag k="name" v="Kommelhågveien" />
		<tag k="ssr:date" v="2021-04-06" />
		<tag k="ssr:gruppe" v="veg" />
		<tag k="ssr:hovedgruppe" v="infrastruktur" />
		<tag k="ssr:stedsnr" v="1080724" />
		<tag k="ssr:type" v="adressenavn" />
	</node>
</osm>
