<?xml version="1.0" encoding="UTF-8"?>
<<<<<<< HEAD
<osm version="0.6" generator="osmapis">
	<node lat="66.00152499659764" lon="12.307094441854323" id="-7074">
=======
<osm generator="osmapis" version="0.6">
	<node id="-130847" lat="66.0015249966" lon="12.3070944419">
		<tag k="landuse" v="harbour" />
		<tag k="name" v="Herøysjyen" />
		<tag k="seamark:type" v="harbour" />
		<tag k="ssr:stedsnr" v="896889" />
	</node>
	<node id="-131491" lat="65.9931333344" lon="12.245891677">
>>>>>>> e1d4bc35ff8a6074a6f2e91616a996b547c36f15
		<tag k="landuse" v="harbour" />
		<tag k="name" v="Herøysjyen" />
		<tag k="seamark:type" v="harbour" />
		<tag k="ssr:stedsnr" v="896889" />
	</node>
<<<<<<< HEAD
	<node lat="66.00019444433362" lon="12.295819436947365" id="-7524">
=======
	<node id="-131345" lat="66.0001944443" lon="12.2958194369">
>>>>>>> e1d4bc35ff8a6074a6f2e91616a996b547c36f15
		<tag k="man_made" v="cairn" />
		<tag k="name" v="Brunsvikvarden" />
		<tag k="place" v="locality" />
		<tag k="ssr:stedsnr" v="410819" />
	</node>
<<<<<<< HEAD
	<node lat="65.99313333437061" lon="12.24589167699224" id="-7722">
		<tag k="landuse" v="harbour" />
		<tag k="name" v="Gangerholmvika" />
		<tag k="seamark:type" v="harbour" />
		<tag k="ssr:stedsnr" v="653850" />
	</node>
=======
>>>>>>> e1d4bc35ff8a6074a6f2e91616a996b547c36f15
</osm>
