<?xml version="1.0" encoding="UTF-8"?>
<<<<<<< HEAD
<osm version="0.6" generator="osmapis">
	<node lat="65.97095000156723" lon="12.25556110307755" id="-6684">
=======
<osm generator="osmapis" version="0.6">
	<node id="-130784" lat="65.9960611092" lon="12.3033694369">
		<tag k="name" v="Stormyro" />
		<tag k="natural" v="wetland" />
		<tag k="ssr:stedsnr" v="714872" />
	</node>
	<node id="-130557" lat="65.9831583312" lon="12.3190888977">
		<tag k="name" v="Salten" />
		<tag k="place" v="locality" />
		<tag k="ssr:stedsnr" v="229808" />
	</node>
	<node id="-130619" lat="65.967344441" lon="12.245711119">
		<tag k="name" v="Mølnhusdammen" />
		<tag k="natural" v="wetland" />
		<tag k="ssr:stedsnr" v="471824" />
	</node>
	<node id="-131546" lat="65.9190194459" lon="12.1826249924">
		<tag k="name" v="Staulen" />
		<tag k="place" v="locality" />
		<tag k="ssr:stedsnr" v="774201" />
	</node>
	<node id="-131353" lat="65.976591671" lon="12.2598805567">
		<tag k="name" v="Emårsmyro" />
		<tag k="natural" v="wetland" />
		<tag k="ssr:stedsnr" v="411815" />
	</node>
	<node id="-131543" lat="66.0033750027" lon="12.3347416562">
		<tag k="name" v="Heimerengan" />
		<tag k="place" v="locality" />
		<tag k="ssr:stedsnr" v="773832" />
	</node>
	<node id="-130836" lat="65.9215111133" lon="12.1783499931">
		<tag k="name" v="Rogjen" />
		<tag k="place" v="locality" />
		<tag k="ssr:stedsnr" v="896192" />
	</node>
	<node id="-131025" lat="66.0064222179" lon="12.3405833367">
		<tag k="name" v="Brannsåsmyro" />
		<tag k="natural" v="wetland" />
		<tag k="ssr:stedsnr" v="44848" />
	</node>
	<node id="-131118" lat="65.9709500016" lon="12.2555611031">
>>>>>>> e1d4bc35ff8a6074a6f2e91616a996b547c36f15
		<tag k="name" v="Kvittvassmyro" />
		<tag k="natural" v="wetland" />
		<tag k="ssr:stedsnr" v="107827" />
	</node>
<<<<<<< HEAD
	<node lat="65.98315833119796" lon="12.319088897667228" id="-6785">
		<tag k="name" v="Salten" />
		<tag k="place" v="locality" />
		<tag k="ssr:stedsnr" v="229808" />
	</node>
	<node lat="65.96734444098185" lon="12.245711118983657" id="-6851">
		<tag k="name" v="Mølnhusdammen" />
		<tag k="natural" v="wetland" />
		<tag k="ssr:stedsnr" v="471824" />
	</node>
	<node lat="65.97659167100608" lon="12.25988055669311" id="-6889">
		<tag k="name" v="Emårsmyro" />
		<tag k="natural" v="wetland" />
		<tag k="ssr:stedsnr" v="411815" />
	</node>
	<node lat="65.95931110858149" lon="12.270250009425963" id="-6923">
=======
	<node id="-131179" lat="66.0013861131" lon="12.3196555548">
		<tag k="name" v="Salmyro" />
		<tag k="natural" v="wetland" />
		<tag k="ssr:stedsnr" v="168847" />
	</node>
	<node id="-130441" lat="65.9194527764" lon="12.1748999911">
		<tag k="name" v="Gjeltmarka" />
		<tag k="place" v="locality" />
		<tag k="ssr:stedsnr" v="107155" />
	</node>
	<node id="-131281" lat="65.9046416701" lon="12.1601222187">
		<tag k="name" v="Merramyro" />
		<tag k="natural" v="wetland" />
		<tag k="ssr:stedsnr" v="349233" />
	</node>
	<node id="-130628" lat="65.9593111086" lon="12.2702500094">
>>>>>>> e1d4bc35ff8a6074a6f2e91616a996b547c36f15
		<tag k="name" v="Steinsvoll" />
		<tag k="place" v="locality" />
		<tag k="ssr:stedsnr" v="472964" />
	</node>
<<<<<<< HEAD
	<node lat="65.92151111334663" lon="12.1783499930894" id="-7062">
		<tag k="name" v="Rogjen" />
		<tag k="place" v="locality" />
		<tag k="ssr:stedsnr" v="896192" />
	</node>
	<node lat="65.97522777563965" lon="12.271111117625956" id="-7124">
=======
	<node id="-131554" lat="65.9752277756" lon="12.2711111176">
>>>>>>> e1d4bc35ff8a6074a6f2e91616a996b547c36f15
		<tag k="name" v="Aspmyro" />
		<tag k="natural" v="wetland" />
		<tag k="ssr:stedsnr" v="775772" />
	</node>
<<<<<<< HEAD
	<node lat="66.00642221786512" lon="12.340583336711104" id="-7288">
		<tag k="name" v="Brannsåsmyro" />
		<tag k="natural" v="wetland" />
		<tag k="ssr:stedsnr" v="44848" />
	</node>
	<node lat="65.91945277641712" lon="12.174899991055394" id="-7337">
		<tag k="name" v="Gjeltmarka" />
		<tag k="place" v="locality" />
		<tag k="ssr:stedsnr" v="107155" />
	</node>
	<node lat="66.00138611306694" lon="12.319655554786296" id="-7385">
		<tag k="name" v="Salmyro" />
		<tag k="natural" v="wetland" />
		<tag k="ssr:stedsnr" v="168847" />
	</node>
	<node lat="65.90464167006937" lon="12.16012221871827" id="-7480">
		<tag k="name" v="Merramyro" />
		<tag k="natural" v="wetland" />
		<tag k="ssr:stedsnr" v="349233" />
	</node>
	<node lat="65.9960611092001" lon="12.303369436948396" id="-7734">
		<tag k="name" v="Stormyro" />
		<tag k="natural" v="wetland" />
		<tag k="ssr:stedsnr" v="714872" />
	</node>
	<node lat="66.0033750027017" lon="12.33474165617911" id="-7771">
		<tag k="name" v="Heimerengan" />
		<tag k="place" v="locality" />
		<tag k="ssr:stedsnr" v="773832" />
	</node>
	<node lat="65.91901944587718" lon="12.182624992380408" id="-7776">
		<tag k="name" v="Staulen" />
		<tag k="place" v="locality" />
		<tag k="ssr:stedsnr" v="774201" />
	</node>
	<node lat="65.94998333078067" lon="12.24595555476792" id="-7780">
		<tag k="name" v="Storgåsmyra" />
		<tag k="natural" v="wetland" />
		<tag k="ssr:stedsnr" v="775044" />
	</node>
=======
	<node id="-131553" lat="65.9499833308" lon="12.2459555548">
		<tag k="name" v="Storgåsmyra" />
		<tag k="natural" v="wetland" />
		<tag k="ssr:stedsnr" v="775044" />
	</node>
>>>>>>> e1d4bc35ff8a6074a6f2e91616a996b547c36f15
</osm>
