<?xml version="1.0" encoding="UTF-8"?>
<osm version="0.6" generator="osmapis">
	<node lat="65.98392222288396" lon="12.308847222095718" id="-13707">
		<tag k="name" v="Vangen" />
		<tag k="place" v="farm" />
		<tag k="ssr:stedsnr" v="15661" />
	</node>
	<node lat="66.01145000170838" lon="12.203300007318875" id="-13717">
		<tag k="name" v="Vestheim" />
		<tag k="place" v="farm" />
		<tag k="ssr:stedsnr" v="47621" />
	</node>
	<node lat="65.99772976711157" lon="12.311941078743859" id="-13729">
		<tag k="alt_name" v="Herøy, nordre;Nord Herø" />
		<tag k="fixme" v="consider place=hamlet" />
		<tag k="loc_name" v="Nord-Herøy" />
		<tag k="name" v="Nordre Herøy" />
		<tag k="place" v="farm" />
		<tag k="ssr:stedsnr" v="76652" />
	</node>
	<node lat="66.03786666418398" lon="12.27848055153689" id="-13742">
		<tag k="alt_name" v="Sandvika" />
		<tag k="name" v="Sandvikja" />
		<tag k="place" v="farm" />
		<tag k="ssr:stedsnr" v="76964" />
	</node>
	<node lat="65.9556055540685" lon="12.252952775804994" id="-13750">
		<tag k="name" v="Vangen" />
		<tag k="place" v="farm" />
		<tag k="ssr:stedsnr" v="107032" />
	</node>
	<node lat="66.02737222435348" lon="12.240900010539082" id="-13754">
		<tag k="name" v="Finnhågjen" />
		<tag k="place" v="isolated_dwelling" />
		<tag k="ssr:stedsnr" v="107674" />
	</node>
	<node lat="65.96390278167044" lon="12.24164167330883" id="-13779">
		<tag k="alt_name" v="Ytternes" />
		<tag k="name" v="Ytterneset" />
		<tag k="place" v="farm" />
		<tag k="ssr:stedsnr" v="137229" />
	</node>
	<node lat="66.00730555194008" lon="12.336377775735079" id="-13782">
		<tag k="name" v="Vikerenget" />
		<tag k="place" v="farm" />
		<tag k="ssr:stedsnr" v="137924" />
	</node>
	<node lat="66.00329444274576" lon="12.219288880796226" id="-13826">
		<tag k="name" v="Vågen" />
		<tag k="place" v="farm" />
		<tag k="ssr:stedsnr" v="168658" />
	</node>
	<node lat="65.97200277487214" lon="12.240316659310244" id="-13830">
		<tag k="name" v="Høgtun" />
		<tag k="place" v="farm" />
		<tag k="ssr:stedsnr" v="168811" />
	</node>
	<node lat="65.98758333358727" lon="12.226408323372043" id="-13908">
		<tag k="name" v="Sørvågen" />
		<tag k="place" v="hamlet" />
		<tag k="ssr:stedsnr" v="469784" />
	</node>
	<node lat="65.99510298034022" lon="12.244174359015025" id="-13926">
		<tag k="alt_name" v="Øksningan gård" />
		<tag k="fixme" v="consider place=hamlet" />
		<tag k="name" v="Øksningan" />
		<tag k="old_name" v="Øsningan gård" />
		<tag k="place" v="farm" />
		<tag k="ssr:stedsnr" v="471844" />
	</node>
	<node lat="65.99766388712587" lon="12.238577785672264" id="-13927">
		<tag k="name" v="Finnbogen" />
		<tag k="place" v="hamlet" />
		<tag k="ssr:stedsnr" v="471851" />
	</node>
	<node lat="65.99310000352597" lon="12.244149999328119" id="-13954">
		<tag k="name" v="Strand" />
		<tag k="place" v="quarter" />
		<tag k="ssr:stedsnr" v="408855" />
	</node>
	<node lat="65.97218333262148" lon="12.277166656212747" id="-13960">
		<tag k="name" v="Kjerkåsen boligfelt" />
		<tag k="place" v="quarter" />
		<tag k="ssr:stedsnr" v="411806" />
	</node>
	<node lat="65.95822499794598" lon="12.242474997775274" id="-13962">
		<tag k="name" v="Vestrem" />
		<tag k="place" v="farm" />
		<tag k="ssr:stedsnr" v="440289" />
	</node>
	<node lat="65.9630611119091" lon="12.269341670560074" id="-13963">
		<tag k="alt_name" v="Ledningsneset" />
		<tag k="name" v="Lendingneset" />
		<tag k="place" v="farm" />
		<tag k="ssr:stedsnr" v="440290" />
	</node>
	<node lat="65.99531110977654" lon="12.33208611674296" id="-14015">
		<tag k="name" v="Hokleppen" />
		<tag k="place" v="farm" />
		<tag k="ssr:stedsnr" v="682699" />
	</node>
	<node lat="66.00241389167161" lon="12.23609167326712" id="-14044">
		<tag k="name" v="Innerøya" />
		<tag k="place" v="hamlet" />
		<tag k="ssr:stedsnr" v="532818" />
	</node>
	<node lat="65.91803055542432" lon="12.176847211659084" id="-14133">
		<tag k="name" v="Hågjen" />
		<tag k="place" v="isolated_dwelling" />
		<tag k="ssr:stedsnr" v="896189" />
	</node>
	<node lat="65.95852222077353" lon="12.271774990701816" id="-14149">
		<tag k="name" v="Solstad" />
		<tag k="place" v="farm" />
		<tag k="ssr:stedsnr" v="896988" />
	</node>
	<node lat="65.99310000427094" lon="12.269477769778623" id="-14154">
		<tag k="name" v="Fagervika" />
		<tag k="place" v="farm" />
		<tag k="ssr:stedsnr" v="712829" />
	</node>
	<node lat="65.99583611523285" lon="12.229469450627118" id="-14195">
		<tag k="name" v="Nordli" />
		<tag k="place" v="farm" />
		<tag k="ssr:stedsnr" v="774716" />
	</node>
	<node lat="65.95943055299745" lon="12.2802138890135" id="-14204">
		<tag k="name" v="Seljeholmen" />
		<tag k="place" v="farm" />
		<tag k="ssr:stedsnr" v="804309" />
	</node>
	<node lat="65.9073833290181" lon="12.156166676171864" id="-14255">
		<tag k="name" v="Prestøygården" />
		<tag k="place" v="farm" />
		<tag k="ssr:stedsnr" v="896212" />
	</node>
	<node lat="65.97428889337807" lon="12.242980555078239" id="-14274">
		<tag k="name" v="Solheim" />
		<tag k="place" v="farm" />
		<tag k="ssr:stedsnr" v="926261" />
	</node>
	<node lat="66.0012333325323" lon="12.291025000587274" id="-14289">
		<tag k="name" v="Brunvikstrand" />
		<tag k="place" v="farm" />
		<tag k="ssr:stedsnr" v="957830" />
	</node>
	<node lat="66.01109166983129" lon="12.375436106952057" id="-14351">
		<tag k="name" v="Engan" />
		<tag k="place" v="farm" />
		<tag k="ssr:stedsnr" v="15934" />
	</node>
	<node lat="65.91603055747608" lon="12.176994447259267" id="-14390">
		<tag k="name" v="Brasøygården" />
		<tag k="place" v="farm" />
		<tag k="ssr:stedsnr" v="46188" />
	</node>
	<node lat="65.95949722325251" lon="12.272994450181633" id="-14394">
		<tag k="name" v="Kroken" />
		<tag k="place" v="farm" />
		<tag k="ssr:stedsnr" v="47965" />
	</node>
	<node lat="65.98294167016489" lon="12.262658341068391" id="-14432">
		<tag k="name" v="Åsvang" />
		<tag k="place" v="farm" />
		<tag k="ssr:stedsnr" v="105764" />
	</node>
	<node lat="65.89893333389719" lon="11.999511106693495" id="-14434">
		<tag k="name" v="Draget" />
		<tag k="place" v="farm" />
		<tag k="ssr:stedsnr" v="107246" />
	</node>
	<node lat="66.01229999692647" lon="12.216908323485544" id="-14441">
		<tag k="name" v="Myrvang" />
		<tag k="place" v="farm" />
		<tag k="ssr:stedsnr" v="107665" />
	</node>
	<node lat="66.00885833783681" lon="12.359038878895749" id="-14461">
		<tag k="name" v="Morskogen" />
		<tag k="place" v="farm" />
		<tag k="ssr:stedsnr" v="136935" />
	</node>
	<node lat="65.98110555843034" lon="12.261538879257339" id="-14476">
		<tag k="leisure" v="pitch" />
		<tag k="name" v="Salto idrettsplass" />
		<tag k="ssr:stedsnr" v="166748" />
	</node>
	<node lat="65.9835666645144" lon="12.26243611738816" id="-14477">
		<tag k="name" v="Åsheim" />
		<tag k="place" v="farm" />
		<tag k="ssr:stedsnr" v="166749" />
	</node>
	<node lat="65.96956666798144" lon="12.282541670707737" id="-14481">
		<tag k="name" v="Flostad" />
		<tag k="place" v="farm" />
		<tag k="ssr:stedsnr" v="168801" />
	</node>
	<node lat="65.98320278100297" lon="12.28856388610412" id="-14534">
		<tag k="fixme" v="consider place=suburb, village or hamlet" />
		<tag k="name" v="Silvalen" />
		<tag k="place" v="quarter" />
		<tag k="ssr:stedsnr" v="282349" />
	</node>
	<node lat="65.98787222465403" lon="12.26473332873331" id="-14545">
		<tag k="name" v="Lauvås" />
		<tag k="place" v="farm" />
		<tag k="ssr:stedsnr" v="318680" />
	</node>
	<node lat="65.9998805587998" lon="12.230766677720991" id="-14587">
		<tag k="name" v="Solhaugen" />
		<tag k="place" v="isolated_dwelling" />
		<tag k="ssr:stedsnr" v="349879" />
	</node>
	<node lat="65.98308333207184" lon="12.297227776492646" id="-14594">
		<tag k="name" v="Nyheim" />
		<tag k="place" v="farm" />
		<tag k="ssr:stedsnr" v="379630" />
	</node>
	<node lat="65.96005555727844" lon="12.245833335833002" id="-14633">
		<tag k="name" v="Nyrud" />
		<tag k="place" v="farm" />
		<tag k="ssr:stedsnr" v="411960" />
	</node>
	<node lat="65.95618610959059" lon="12.266586106641014" id="-14635">
		<tag k="name" v="Nystad" />
		<tag k="place" v="farm" />
		<tag k="ssr:stedsnr" v="411982" />
	</node>
	<node lat="65.98320555708358" lon="12.288500011089138" id="-14750">
		<tag k="name" v="Herøyholmen" />
		<tag k="place" v="village" />
		<tag k="ssr:stedsnr" v="561664" />
	</node>
	<node lat="65.9565194438848" lon="12.248930562710909" id="-14782">
		<tag k="name" v="Stranda" />
		<tag k="place" v="hamlet" />
		<tag k="ssr:stedsnr" v="592032" />
	</node>
	<node lat="66.00933055225953" lon="12.198955553516246" id="-14792">
		<tag k="name" v="Solvika" />
		<tag k="place" v="isolated_dwelling" />
		<tag k="ssr:stedsnr" v="592679" />
	</node>
	<node lat="65.95449167089046" lon="12.26706667787314" id="-14798">
		<tag k="name" v="Gåshuset" />
		<tag k="place" v="isolated_dwelling" />
		<tag k="ssr:stedsnr" v="592989" />
	</node>
	<node lat="65.9592500041792" lon="12.273374997932587" id="-14799">
		<tag k="name" v="Kroken" />
		<tag k="place" v="farm" />
		<tag k="ssr:stedsnr" v="592991" />
	</node>
	<node lat="66.00929999927665" lon="12.225891667546975" id="-14822">
		<tag k="alt_name" v="Ytter-Øksningan;Øksningan ytre" />
		<tag k="name" v="Ytre Øksningan" />
		<tag k="place" v="hamlet" />
		<tag k="ssr:stedsnr" v="653663" />
	</node>
	<node lat="65.98243055993137" lon="12.252638891795298" id="-14825">
		<tag k="name" v="Risvang" />
		<tag k="place" v="farm" />
		<tag k="ssr:stedsnr" v="712754" />
	</node>
	<node lat="66.00281944872724" lon="12.302366665889366" id="-14826">
		<tag k="name" v="Brunsvik" />
		<tag k="place" v="hamlet" />
		<tag k="ssr:stedsnr" v="712857" />
	</node>
	<node lat="65.97217499953092" lon="12.278044442589426" id="-14832">
		<tag k="name" v="Hesthågjen" />
		<tag k="place" v="quarter" />
		<tag k="ssr:stedsnr" v="714775" />
	</node>
	<node lat="65.96072777509853" lon="12.22693054934158" id="-14861">
		<tag k="name" v="Nygård" />
		<tag k="place" v="farm" />
		<tag k="ssr:stedsnr" v="744207" />
	</node>
	<node lat="65.9510638884351" lon="12.285441670648677" id="-14880">
		<tag k="name" v="Øver-og Nergården" />
		<tag k="place" v="farm" />
		<tag k="ssr:stedsnr" v="775041" />
	</node>
	<node lat="65.96417777438657" lon="12.262394451898825" id="-14888">
		<tag k="alt_name" v="Sauværstøa" />
		<tag k="name" v="Sandværstøa" />
		<tag k="place" v="farm" />
		<tag k="ssr:stedsnr" v="804296" />
	</node>
	<node lat="65.95309722252617" lon="12.239063897873491" id="-14904">
		<tag k="name" v="Damman" />
		<tag k="place" v="farm" />
		<tag k="ssr:stedsnr" v="805246" />
	</node>
	<node lat="65.99013888751128" lon="12.26524999385778" id="-14910">
		<tag k="name" v="Alfheim" />
		<tag k="place" v="quarter" />
		<tag k="ssr:stedsnr" v="834835" />
	</node>
	<node lat="65.99293055545031" lon="12.273844433822992" id="-14911">
		<tag k="name" v="Nordhus" />
		<tag k="place" v="farm" />
		<tag k="ssr:stedsnr" v="834852" />
	</node>
	<node lat="65.9896972239028" lon="12.212469454574135" id="-14918">
		<tag k="name" v="Fjellvang" />
		<tag k="place" v="farm" />
		<tag k="ssr:stedsnr" v="835837" />
	</node>
	<node lat="66.00035277443766" lon="12.305747223276965" id="-14925">
		<tag k="name" v="Bakkan" />
		<tag k="place" v="farm" />
		<tag k="ssr:stedsnr" v="836874" />
	</node>
	<node lat="65.98506389057296" lon="12.288158330941823" id="-14958">
		<tag k="name" v="Silvalen" />
		<tag k="place" v="farm" />
		<tag k="ssr:stedsnr" v="865653" />
	</node>
	<node lat="65.95527777691377" lon="12.245113887188868" id="-15014">
		<tag k="name" v="Landsand" />
		<tag k="place" v="farm" />
		<tag k="ssr:stedsnr" v="957043" />
	</node>
	<node lat="65.9982833319049" lon="12.226644444269231" id="-15018">
		<tag k="name" v="Plassen" />
		<tag k="place" v="farm" />
		<tag k="ssr:stedsnr" v="957658" />
	</node>
	<node lat="65.97641944590022" lon="12.275402768420367" id="-15019">
		<tag k="amenity" v="school" />
		<tag k="name" v="Herøy Sentralskole" />
		<tag k="ssr:stedsnr" v="957786" />
	</node>
	<node lat="66.02810864103618" lon="12.23561136735526" id="-15023">
		<tag k="fixme" v="consider place=hamlet" />
		<tag k="name" v="Seløya" />
		<tag k="place" v="farm" />
		<tag k="ssr:stedsnr" v="989877" />
	</node>
	<node lat="66.00940661993234" lon="12.229133039253245" id="-15024">
		<tag k="fixme" v="consider place=hamlet" />
		<tag k="name" v="Ytter-Øksningan" />
		<tag k="place" v="farm" />
		<tag k="ssr:stedsnr" v="989878" />
	</node>
	<node lat="65.99168804920119" lon="12.198240264109973" id="-15025">
		<tag k="name" v="Hjelmsøya" />
		<tag k="place" v="locality" />
		<tag k="ssr:stedsnr" v="989879" />
	</node>
	<node lat="66.01319085824842" lon="12.166952558833113" id="-15026">
		<tag k="name" v="Indre Vardøya" />
		<tag k="place" v="locality" />
		<tag k="ssr:stedsnr" v="989881" />
	</node>
	<node lat="66.01649397689381" lon="12.154296967538356" id="-15027">
		<tag k="name" v="Ytre Vardøya" />
		<tag k="place" v="locality" />
		<tag k="ssr:stedsnr" v="989882" />
	</node>
	<node lat="66.06167556608634" lon="12.217392579347575" id="-15028">
		<tag k="name" v="Sildøya" />
		<tag k="place" v="locality" />
		<tag k="ssr:stedsnr" v="989884" />
	</node>
	<node lat="66.08131763165089" lon="12.184359566507442" id="-15029">
		<tag k="name" v="Måsvær" />
		<tag k="place" v="locality" />
		<tag k="ssr:stedsnr" v="989885" />
	</node>
	<node lat="66.07730490273612" lon="12.057553688865852" id="-15030">
		<tag k="name" v="Innerodden" />
		<tag k="place" v="locality" />
		<tag k="ssr:stedsnr" v="989886" />
	</node>
	<node lat="66.0464847096059" lon="12.008336875181705" id="-15031">
		<tag k="fixme" v="consider place=hamlet" />
		<tag k="name" v="Sørgåsvær" />
		<tag k="place" v="farm" />
		<tag k="ssr:stedsnr" v="989887" />
	</node>
	<node lat="66.05449753543668" lon="12.012877473734054" id="-15032">
		<tag k="fixme" v="consider place=hamlet" />
		<tag k="name" v="Nordgåsvær" />
		<tag k="place" v="farm" />
		<tag k="ssr:stedsnr" v="989888" />
	</node>
	<node lat="66.0583892947802" lon="11.946877673851807" id="-15033">
		<tag k="name" v="Lyngvær" />
		<tag k="place" v="locality" />
		<tag k="ssr:stedsnr" v="989889" />
	</node>
	<node lat="66.02828096651027" lon="11.785954008001406" id="-15034">
		<tag k="name" v="Innerholmen" />
		<tag k="place" v="locality" />
		<tag k="ssr:stedsnr" v="989890" />
	</node>
	<node lat="66.0035433890917" lon="12.408278025032143" id="-15035">
		<tag k="name" v="Hjartøya" />
		<tag k="place" v="locality" />
		<tag k="ssr:stedsnr" v="990374" />
	</node>
	<node lat="65.89156738151078" lon="12.204802399791312" id="-15096">
		<tag k="name" v="Sanderøya" />
		<tag k="place" v="locality" />
		<tag k="ssr:stedsnr" v="1072368" />
	</node>
	<node lat="65.91204555178044" lon="12.157551995045221" id="-15097">
		<tag k="fixme" v="consider place=hamlet" />
		<tag k="name" v="Prestøya" />
		<tag k="place" v="farm" />
		<tag k="ssr:stedsnr" v="1072369" />
	</node>
	<node lat="65.91506380280738" lon="12.177723808400412" id="-15098">
		<tag k="fixme" v="consider place=hamlet" />
		<tag k="name" v="Brasøya" />
		<tag k="place" v="farm" />
		<tag k="ssr:stedsnr" v="1072370" />
	</node>
	<node lat="65.93025648106182" lon="12.154063177230194" id="-15099">
		<tag k="fixme" v="consider place=hamlet" />
		<tag k="name" v="Allmenningen" />
		<tag k="place" v="farm" />
		<tag k="ssr:stedsnr" v="1072371" />
	</node>
	<node lat="65.91409590219712" lon="12.120736143496451" id="-15100">
		<tag k="fixme" v="consider place=hamlet" />
		<tag k="name" v="Husvær" />
		<tag k="place" v="farm" />
		<tag k="ssr:stedsnr" v="1072372" />
	</node>
</osm>
