<?xml version="1.0" encoding="UTF-8"?>
<<<<<<< HEAD
<osm version="0.6" generator="osmapis">
	<node lat="65.95723055947164" lon="12.263291656547255" id="-6630">
		<tag k="name" v="Tømmerbakken" />
		<tag k="natural" v="slope" />
		<tag k="place" v="locality" />
		<tag k="ssr:stedsnr" v="229975" />
	</node>
	<node lat="66.00352778110667" lon="12.223552775032326" id="-6641">
		<tag k="fixme" v="consider natural=peak for the most distinct mountains in the district" />
		<tag k="name" v="Mastertoppen" />
		<tag k="natural" v="hill" />
		<tag k="place" v="locality" />
		<tag k="ssr:stedsnr" v="46724" />
	</node>
	<node lat="65.93443333663426" lon="12.207463879731355" id="-6644">
		<tag k="name" v="Sør-Stauløyhågjen" />
		<tag k="natural" v="hill" />
		<tag k="place" v="locality" />
		<tag k="ssr:stedsnr" v="47076" />
	</node>
	<node lat="65.99569166861386" lon="12.289816669255046" id="-6677">
		<tag k="name" v="Fanghågjen" />
		<tag k="natural" v="hill" />
		<tag k="place" v="locality" />
		<tag k="ssr:stedsnr" v="105872" />
	</node>
	<node lat="66.00658610970234" lon="12.201730545632724" id="-6683">
		<tag k="name" v="Inner Svehågjen" />
		<tag k="natural" v="ridge" />
		<tag k="place" v="locality" />
		<tag k="ssr:stedsnr" v="107696" />
	</node>
	<node lat="66.00391389210124" lon="12.230522224172008" id="-6685">
		<tag k="name" v="Innerøyfjellet" />
		<tag k="natural" v="cliff" />
		<tag k="ssr:stedsnr" v="107829" />
	</node>
	<node lat="65.99981111265586" lon="12.229733326020837" id="-6755">
		<tag k="name" v="Storhågjen" />
		<tag k="natural" v="hill" />
		<tag k="place" v="locality" />
		<tag k="ssr:stedsnr" v="168660" />
	</node>
	<node lat="66.00638055836934" lon="12.197708324026147" id="-6756">
		<tag k="name" v="Svehågjen" />
		<tag k="natural" v="ridge" />
		<tag k="place" v="locality" />
		<tag k="ssr:stedsnr" v="168664" />
	</node>
	<node lat="66.01126111375996" lon="12.371972213840264" id="-6757">
=======
<osm generator="osmapis" version="0.6">
	<node id="-130553" lat="65.9968250028" lon="12.2412583343">
		<tag k="fixme" v="consider natural=peak for the most distinct mountains in the district" />
		<tag k="name" v="Finnboghågjen" />
		<tag k="natural" v="hill" />
		<tag k="place" v="locality" />
		<tag k="ssr:stedsnr" v="228865" />
	</node>
	<node id="-131556" lat="66.0111805512" lon="12.2237833305">
		<tag k="name" v="Båthågjen" />
		<tag k="natural" v="hill" />
		<tag k="place" v="locality" />
		<tag k="ssr:stedsnr" v="775602" />
	</node>
	<node id="-131555" lat="66.0104583295" lon="12.1970388804">
		<tag k="name" v="Enakkvalen" />
		<tag k="place" v="locality" />
		<tag k="ssr:stedsnr" v="775588" />
	</node>
	<node id="-131041" lat="65.9714166675" lon="12.2829361162">
		<tag k="name" v="Langhågjen" />
		<tag k="natural" v="hill" />
		<tag k="place" v="locality" />
		<tag k="ssr:stedsnr" v="47799" />
	</node>
	<node id="-131037" lat="65.9344333366" lon="12.2074638797">
		<tag k="name" v="Sør-Stauløyhågjen" />
		<tag k="natural" v="hill" />
		<tag k="place" v="locality" />
		<tag k="ssr:stedsnr" v="47076" />
	</node>
	<node id="-131547" lat="65.9066055529" lon="12.1615972312">
		<tag k="name" v="Salta" />
		<tag k="natural" v="valley" />
		<tag k="place" v="locality" />
		<tag k="ssr:stedsnr" v="774221" />
	</node>
	<node id="-131033" lat="65.9949972196" lon="12.215319434">
>>>>>>> e1d4bc35ff8a6074a6f2e91616a996b547c36f15
		<tag k="fixme" v="consider natural=peak for the most distinct mountains in the district" />
		<tag k="name" v="Valsåsan" />
		<tag k="natural" v="hill" />
		<tag k="place" v="locality" />
		<tag k="ssr:stedsnr" v="46833" />
	</node>
<<<<<<< HEAD
	<node lat="66.01067777608748" lon="12.35090277368122" id="-6825">
		<tag k="name" v="Brannåsen" />
		<tag k="natural" v="hill" />
		<tag k="place" v="locality" />
		<tag k="ssr:stedsnr" v="318939" />
	</node>
	<node lat="65.99043055405005" lon="12.234786101460301" id="-6837">
		<tag k="name" v="Matmorhågjen" />
		<tag k="natural" v="hill" />
		<tag k="place" v="locality" />
		<tag k="ssr:stedsnr" v="469843" />
	</node>
	<node lat="66.01281110863849" lon="12.371808335464996" id="-6849">
		<tag k="name" v="Laukhalsen" />
		<tag k="natural" v="valley" />
		<tag k="place" v="locality" />
		<tag k="ssr:stedsnr" v="471685" />
	</node>
	<node lat="65.98832500330458" lon="12.229013892926499" id="-6853">
		<tag k="fixme" v="consider natural=peak for the most distinct mountains in the district" />
		<tag k="name" v="Kleppen" />
		<tag k="natural" v="hill" />
		<tag k="place" v="locality" />
		<tag k="ssr:stedsnr" v="471841" />
	</node>
	<node lat="66.01154722346176" lon="12.221147224508249" id="-6862">
		<tag k="name" v="Buskapshågjen" />
=======
	<node id="-131030" lat="66.0035277811" lon="12.223552775">
		<tag k="fixme" v="consider natural=peak for the most distinct mountains in the district" />
		<tag k="name" v="Mastertoppen" />
		<tag k="natural" v="hill" />
		<tag k="place" v="locality" />
		<tag k="ssr:stedsnr" v="46724" />
	</node>
	<node id="-131494" lat="65.9567111102" lon="12.2690277679">
		<tag k="name" v="Hesthågjen" />
		<tag k="natural" v="hill" />
		<tag k="place" v="locality" />
		<tag k="ssr:stedsnr" v="653986" />
	</node>
	<node id="-130469" lat="66.0063805584" lon="12.197708324">
		<tag k="name" v="Svehågjen" />
		<tag k="natural" v="ridge" />
		<tag k="place" v="locality" />
		<tag k="ssr:stedsnr" v="168664" />
	</node>
	<node id="-130468" lat="65.9998111127" lon="12.229733326">
		<tag k="name" v="Storhågjen" />
		<tag k="natural" v="hill" />
		<tag k="place" v="locality" />
		<tag k="ssr:stedsnr" v="168660" />
	</node>
	<node id="-131035" lat="66.0008750006" lon="12.3259055451">
		<tag k="name" v="Salhågjen" />
		<tag k="natural" v="hill" />
		<tag k="place" v="locality" />
		<tag k="ssr:stedsnr" v="46859" />
	</node>
	<node id="-131487" lat="65.9800027797" lon="12.2029694492">
		<tag k="name" v="Gårdsøytangen" />
>>>>>>> e1d4bc35ff8a6074a6f2e91616a996b547c36f15
		<tag k="natural" v="hill" />
		<tag k="place" v="locality" />
		<tag k="ssr:stedsnr" v="651776" />
	</node>
<<<<<<< HEAD
	<node lat="65.97636388927538" lon="12.304802777283129" id="-6863">
		<tag k="name" v="Johågjen" />
		<tag k="natural" v="hill" />
		<tag k="place" v="locality" />
		<tag k="ssr:stedsnr" v="350933" />
	</node>
	<node lat="65.97061666940056" lon="12.273944442797399" id="-6865">
		<tag k="fixme" v="consider natural=peak for the most distinct mountains in the district" />
		<tag k="name" v="Kjerkåsen" />
		<tag k="natural" v="hill" />
		<tag k="place" v="locality" />
		<tag k="ssr:stedsnr" v="350803" />
	</node>
	<node lat="65.99890833710025" lon="12.337802777896568" id="-6884">
		<tag k="name" v="Hoklepphågjen" />
		<tag k="natural" v="hill" />
		<tag k="place" v="locality" />
		<tag k="ssr:stedsnr" v="410850" />
	</node>
	<node lat="66.00779722373501" lon="12.210558333576603" id="-6886">
		<tag k="fixme" v="consider natural=peak for the most distinct mountains in the district" />
		<tag k="name" v="Storsandfjellet" />
		<tag k="natural" v="hill" />
		<tag k="place" v="locality" />
		<tag k="ssr:stedsnr" v="411442" />
	</node>
	<node lat="65.97725555938999" lon="12.296563879855942" id="-6968">
		<tag k="fixme" v="consider natural=peak for the most distinct mountains in the district" />
		<tag k="name" v="Dragnesåsen" />
		<tag k="natural" v="hill" />
		<tag k="place" v="locality" />
		<tag k="ssr:stedsnr" v="532780" />
	</node>
	<node lat="65.97278055649866" lon="12.281566674445902" id="-6969">
		<tag k="name" v="Marikjeldo" />
		<tag k="place" v="locality" />
		<tag k="ssr:stedsnr" v="532782" />
	</node>
	<node lat="65.98506944067361" lon="12.267486116668438" id="-6971">
		<tag k="fixme" v="consider natural=peak for the most distinct mountains in the district" />
		<tag k="name" v="Langåsen" />
		<tag k="natural" v="hill" />
		<tag k="place" v="locality" />
		<tag k="ssr:stedsnr" v="532791" />
	</node>
	<node lat="66.0043388847925" lon="12.23510832184467" id="-6973">
		<tag k="name" v="Skarbergvikja" />
		<tag k="natural" v="valley" />
=======
	<node id="-130439" lat="65.9894555531" lon="12.2748527722">
		<tag k="fixme" v="consider natural=peak for the most distinct mountains in the district" />
		<tag k="name" v="Ørnklubben" />
		<tag k="natural" v="hill" />
		<tag k="place" v="locality" />
		<tag k="ssr:stedsnr" v="105856" />
	</node>
	<node id="-130926" lat="66.0092361099" lon="12.2229777806">
		<tag k="name" v="Kleivan" />
		<tag k="natural" v="slope" />
		<tag k="place" v="locality" />
		<tag k="ssr:stedsnr" v="836621" />
	</node>
	<node id="-131435" lat="66.0379944423" lon="12.3025861073">
		<tag k="name" v="Storhågjen" />
		<tag k="natural" v="hill" />
		<tag k="place" v="locality" />
		<tag k="ssr:stedsnr" v="592784" />
	</node>
	<node id="-130410" lat="65.9572305595" lon="12.2632916565">
		<tag k="name" v="Tømmerbakken" />
		<tag k="natural" v="slope" />
		<tag k="place" v="locality" />
		<tag k="ssr:stedsnr" v="229975" />
	</node>
	<node id="-131432" lat="66.0074749979" lon="12.2207777687">
		<tag k="fixme" v="consider natural=peak for the most distinct mountains in the district" />
		<tag k="name" v="Stortuva" />
		<tag k="natural" v="hill" />
		<tag k="place" v="locality" />
		<tag k="ssr:stedsnr" v="592716" />
	</node>
	<node id="-131419" lat="66.0060083299" lon="12.3548527808">
		<tag k="fixme" v="consider natural=peak for the most distinct mountains in the district" />
		<tag k="name" v="Langstrandåsen" />
		<tag k="natural" v="hill" />
		<tag k="place" v="locality" />
		<tag k="ssr:stedsnr" v="590850" />
	</node>
	<node id="-131663" lat="65.9161833379" lon="12.1572722129">
		<tag k="name" v="Tysberget" />
		<tag k="natural" v="cliff" />
		<tag k="ssr:stedsnr" v="956135" />
	</node>
	<node id="-131373" lat="66.0198972264" lon="12.4593250006">
		<tag k="fixme" v="consider natural=peak for the most distinct mountains in the district" />
		<tag k="name" v="Tranøyklubben" />
		<tag k="natural" v="hill" />
		<tag k="place" v="locality" />
		<tag k="ssr:stedsnr" v="532748" />
	</node>
	<node id="-131295" lat="65.9823472241" lon="12.3108833273">
		<tag k="name" v="Saltåsen" />
		<tag k="natural" v="hill" />
		<tag k="place" v="locality" />
		<tag k="ssr:stedsnr" v="350793" />
	</node>
	<node id="-130781" lat="65.9832916666" lon="12.3249833378">
		<tag k="name" v="Aspøyhågjen" />
		<tag k="natural" v="hill" />
		<tag k="place" v="locality" />
		<tag k="ssr:stedsnr" v="714796" />
	</node>
	<node id="-131372" lat="65.9937833352" lon="12.2272583234">
		<tag k="name" v="Middagshågjen" />
		<tag k="natural" v="hill" />
>>>>>>> e1d4bc35ff8a6074a6f2e91616a996b547c36f15
		<tag k="place" v="locality" />
		<tag k="ssr:stedsnr" v="532668" />
	</node>
<<<<<<< HEAD
	<node lat="66.00747499790113" lon="12.220777768681845" id="-6984">
		<tag k="fixme" v="consider natural=peak for the most distinct mountains in the district" />
		<tag k="name" v="Stortuva" />
		<tag k="natural" v="hill" />
		<tag k="place" v="locality" />
		<tag k="ssr:stedsnr" v="592716" />
	</node>
	<node lat="66.00188333159213" lon="12.30961389064083" id="-6986">
		<tag k="name" v="Svarthågjen" />
		<tag k="natural" v="hill" />
		<tag k="place" v="locality" />
		<tag k="ssr:stedsnr" v="592902" />
	</node>
	<node lat="65.95671111024365" lon="12.269027767850543" id="-7026">
		<tag k="name" v="Hesthågjen" />
		<tag k="natural" v="hill" />
		<tag k="place" v="locality" />
		<tag k="ssr:stedsnr" v="653986" />
	</node>
	<node lat="65.98284444418012" lon="12.210847220727477" id="-7057">
		<tag k="name" v="Storvasshågjen" />
		<tag k="natural" v="hill" />
		<tag k="place" v="locality" />
		<tag k="ssr:stedsnr" v="894781" />
	</node>
	<node lat="65.91791666544323" lon="12.170658342637811" id="-7060">
		<tag k="name" v="Tjønnhågjen" />
		<tag k="natural" v="hill" />
		<tag k="place" v="locality" />
		<tag k="ssr:stedsnr" v="896188" />
	</node>
	<node lat="65.91509444510014" lon="12.115166675160784" id="-7067">
		<tag k="name" v="Ramnøyhågjen" />
		<tag k="natural" v="ridge" />
		<tag k="place" v="locality" />
		<tag k="ssr:stedsnr" v="896239" />
	</node>
	<node lat="65.91218610913799" lon="12.164527769461799" id="-7069">
		<tag k="name" v="Rundhågjen" />
		<tag k="natural" v="hill" />
		<tag k="place" v="locality" />
		<tag k="ssr:stedsnr" v="896300" />
	</node>
	<node lat="65.98610277761331" lon="12.301394433787872" id="-7071">
		<tag k="name" v="Vasshågjen" />
		<tag k="natural" v="hill" />
		<tag k="place" v="locality" />
		<tag k="ssr:stedsnr" v="896834" />
	</node>
	<node lat="65.96966667119088" lon="12.278488883035278" id="-7072">
		<tag k="name" v="Vomhågjen" />
		<tag k="natural" v="hill" />
		<tag k="place" v="locality" />
		<tag k="ssr:stedsnr" v="896844" />
	</node>
	<node lat="65.98878611409731" lon="12.27095833194384" id="-7082">
		<tag k="fixme" v="consider natural=peak for the most distinct mountains in the district" />
		<tag k="name" v="Stein Langåsen" />
		<tag k="natural" v="hill" />
		<tag k="place" v="locality" />
		<tag k="ssr:stedsnr" v="712831" />
	</node>
	<node lat="65.91673888738507" lon="12.174527780613872" id="-7085">
		<tag k="name" v="Remmen" />
		<tag k="natural" v="ridge" />
		<tag k="place" v="locality" />
		<tag k="ssr:stedsnr" v="713184" />
	</node>
	<node lat="65.98329166657548" lon="12.324983337751192" id="-7086">
		<tag k="name" v="Aspøyhågjen" />
		<tag k="natural" v="hill" />
		<tag k="place" v="locality" />
		<tag k="ssr:stedsnr" v="714796" />
	</node>
	<node lat="65.98951389214437" lon="12.217408329555097" id="-7087">
		<tag k="name" v="Storåsfjellet" />
		<tag k="natural" v="cliff" />
		<tag k="ssr:stedsnr" v="714826" />
	</node>
	<node lat="65.99682500276398" lon="12.24125833431742" id="-7111">
		<tag k="fixme" v="consider natural=peak for the most distinct mountains in the district" />
		<tag k="name" v="Finnboghågjen" />
		<tag k="natural" v="hill" />
		<tag k="place" v="locality" />
		<tag k="ssr:stedsnr" v="228865" />
	</node>
	<node lat="65.986358333858" lon="12.208219447273276" id="-7118">
		<tag k="fixme" v="consider natural=peak for the most distinct mountains in the district" />
		<tag k="name" v="Buholmåsen" />
		<tag k="natural" v="hill" />
		<tag k="place" v="locality" />
		<tag k="ssr:stedsnr" v="773753" />
	</node>
	<node lat="65.906605552924" lon="12.16159723120817" id="-7119">
		<tag k="name" v="Salta" />
		<tag k="natural" v="valley" />
		<tag k="place" v="locality" />
		<tag k="ssr:stedsnr" v="774221" />
	</node>
	<node lat="66.0111805511797" lon="12.223783330493227" id="-7123">
		<tag k="name" v="Båthågjen" />
		<tag k="natural" v="hill" />
		<tag k="place" v="locality" />
		<tag k="ssr:stedsnr" v="775602" />
	</node>
	<node lat="65.98980833309528" lon="12.195488885269825" id="-7152">
		<tag k="fixme" v="consider natural=peak for the most distinct mountains in the district" />
		<tag k="name" v="Hjelmsøyfjellet" />
		<tag k="natural" v="hill" />
		<tag k="place" v="locality" />
		<tag k="ssr:stedsnr" v="835835" />
	</node>
	<node lat="66.03009722201489" lon="12.28267221350318" id="-7192">
		<tag k="name" v="Tronåsen" />
		<tag k="natural" v="ridge" />
		<tag k="place" v="locality" />
		<tag k="ssr:stedsnr" v="228728" />
	</node>
	<node lat="66.03353055809364" lon="12.294169436337995" id="-7213">
		<tag k="name" v="Vasskleppen" />
		<tag k="natural" v="hill" />
		<tag k="place" v="locality" />
		<tag k="ssr:stedsnr" v="957741" />
	</node>
	<node lat="66.03550555302047" lon="12.302013881317276" id="-7214">
		<tag k="fixme" v="consider natural=peak for the most distinct mountains in the district" />
		<tag k="name" v="Staulhamran" />
		<tag k="natural" v="hill" />
		<tag k="place" v="locality" />
		<tag k="ssr:stedsnr" v="957744" />
	</node>
	<node lat="66.01124721980693" lon="12.159919449242361" id="-7215">
		<tag k="name" v="Vardøyfjellet" />
		<tag k="natural" v="cliff" />
		<tag k="ssr:stedsnr" v="957634" />
	</node>
	<node lat="65.94027499617505" lon="12.213186111707374" id="-7218">
		<tag k="name" v="Nord-Stauløyhågjen" />
		<tag k="natural" v="hill" />
		<tag k="place" v="locality" />
		<tag k="ssr:stedsnr" v="958107" />
	</node>
	<node lat="65.99499721956079" lon="12.215319434003566" id="-7284">
		<tag k="fixme" v="consider natural=peak for the most distinct mountains in the district" />
		<tag k="name" v="Valsåsan" />
		<tag k="natural" v="hill" />
		<tag k="place" v="locality" />
		<tag k="ssr:stedsnr" v="46833" />
	</node>
	<node lat="66.00087500062158" lon="12.32590554514872" id="-7286">
		<tag k="name" v="Salhågjen" />
		<tag k="natural" v="hill" />
		<tag k="place" v="locality" />
		<tag k="ssr:stedsnr" v="46859" />
	</node>
	<node lat="65.9714166674777" lon="12.28293611620824" id="-7291">
		<tag k="name" v="Langhågjen" />
		<tag k="natural" v="hill" />
		<tag k="place" v="locality" />
		<tag k="ssr:stedsnr" v="47799" />
	</node>
	<node lat="65.98945555309326" lon="12.274852772209256" id="-7330">
		<tag k="fixme" v="consider natural=peak for the most distinct mountains in the district" />
		<tag k="name" v="Ørnklubben" />
		<tag k="natural" v="hill" />
		<tag k="place" v="locality" />
		<tag k="ssr:stedsnr" v="105856" />
	</node>
	<node lat="65.98601388531489" lon="12.218624989811103" id="-7336">
		<tag k="fixme" v="consider natural=peak for the most distinct mountains in the district" />
		<tag k="name" v="Fallkleppen" />
		<tag k="natural" v="hill" />
		<tag k="place" v="locality" />
		<tag k="ssr:stedsnr" v="107841" />
	</node>
	<node lat="65.91297499970676" lon="12.154047223526529" id="-7377">
		<tag k="fixme" v="consider natural=peak for the most distinct mountains in the district" />
		<tag k="name" v="Svartåsen" />
		<tag k="natural" v="hill" />
		<tag k="place" v="locality" />
		<tag k="ssr:stedsnr" v="167130" />
	</node>
	<node lat="65.95415555369351" lon="12.256086117970737" id="-7381">
		<tag k="name" v="Perhågjen" />
		<tag k="natural" v="hill" />
		<tag k="place" v="locality" />
		<tag k="ssr:stedsnr" v="168038" />
	</node>
	<node lat="65.99666388832485" lon="12.296147224907795" id="-7384">
		<tag k="fixme" v="consider natural=peak for the most distinct mountains in the district" />
		<tag k="name" v="Nalsåsen" />
		<tag k="natural" v="hill" />
		<tag k="place" v="locality" />
		<tag k="ssr:stedsnr" v="168837" />
	</node>
	<node lat="66.00915833675738" lon="12.364594443430398" id="-7386">
		<tag k="fixme" v="consider natural=peak for the most distinct mountains in the district" />
		<tag k="name" v="Skiftåsen" />
		<tag k="natural" v="hill" />
		<tag k="place" v="locality" />
		<tag k="ssr:stedsnr" v="168848" />
	</node>
	<node lat="65.89568888527278" lon="11.994205558694862" id="-7476">
		<tag k="name" v="Sørhågjen" />
		<tag k="natural" v="hill" />
		<tag k="place" v="locality" />
		<tag k="ssr:stedsnr" v="349296" />
	</node>
	<node lat="65.91410278089401" lon="12.159927776703151" id="-7478">
		<tag k="name" v="Stibakken" />
		<tag k="natural" v="hill" />
		<tag k="place" v="locality" />
		<tag k="ssr:stedsnr" v="349144" />
	</node>
	<node lat="66.0081972259714" lon="12.21475554628495" id="-7482">
		<tag k="fixme" v="consider natural=peak for the most distinct mountains in the district" />
		<tag k="name" v="Karifjellet" />
		<tag k="natural" v="hill" />
		<tag k="place" v="locality" />
		<tag k="ssr:stedsnr" v="350593" />
	</node>
	<node lat="66.02751944518663" lon="12.271938894458932" id="-7483">
		<tag k="name" v="Båthågjen" />
		<tag k="natural" v="hill" />
		<tag k="place" v="locality" />
		<tag k="ssr:stedsnr" v="349694" />
	</node>
	<node lat="65.99186944129661" lon="12.226475010008349" id="-7484">
		<tag k="name" v="Hjelmsøyskardet" />
		<tag k="natural" v="valley" />
		<tag k="place" v="locality" />
		<tag k="ssr:stedsnr" v="349860" />
	</node>
	<node lat="66.0029527799034" lon="12.211172213502156" id="-7488">
		<tag k="name" v="Djupdalen" />
		<tag k="natural" v="valley" />
		<tag k="place" v="locality" />
		<tag k="ssr:stedsnr" v="350646" />
	</node>
	<node lat="66.01451666747049" lon="12.371972222990987" id="-7489">
		<tag k="fixme" v="consider natural=peak for the most distinct mountains in the district" />
		<tag k="name" v="Laukhalsåsen" />
		<tag k="natural" v="hill" />
		<tag k="place" v="locality" />
		<tag k="ssr:stedsnr" v="350651" />
	</node>
	<node lat="65.98234722413991" lon="12.310883327325264" id="-7491">
		<tag k="name" v="Saltåsen" />
		<tag k="natural" v="hill" />
		<tag k="place" v="locality" />
		<tag k="ssr:stedsnr" v="350793" />
	</node>
	<node lat="65.99951111068621" lon="12.304633323481594" id="-7492">
		<tag k="name" v="Herslevhågjen" />
=======
	<node id="-131371" lat="65.9979694416" lon="12.247599996">
		<tag k="fixme" v="consider natural=peak for the most distinct mountains in the district" />
		<tag k="name" v="Langvardshågjen" />
		<tag k="natural" v="hill" />
		<tag k="place" v="locality" />
		<tag k="ssr:stedsnr" v="532846" />
	</node>
	<node id="-131370" lat="65.9850694407" lon="12.2674861167">
		<tag k="fixme" v="consider natural=peak for the most distinct mountains in the district" />
		<tag k="name" v="Langåsen" />
		<tag k="natural" v="hill" />
		<tag k="place" v="locality" />
		<tag k="ssr:stedsnr" v="532791" />
	</node>
	<node id="-131368" lat="65.9727805565" lon="12.2815666744">
		<tag k="name" v="Marikjeldo" />
		<tag k="place" v="locality" />
		<tag k="ssr:stedsnr" v="532782" />
	</node>
	<node id="-131292" lat="66.0029527799" lon="12.2111722135">
		<tag k="name" v="Djupdalen" />
		<tag k="natural" v="valley" />
		<tag k="place" v="locality" />
		<tag k="ssr:stedsnr" v="350646" />
	</node>
	<node id="-130849" lat="65.9696666712" lon="12.278488883">
		<tag k="name" v="Vomhågjen" />
		<tag k="natural" v="hill" />
		<tag k="place" v="locality" />
		<tag k="ssr:stedsnr" v="896844" />
	</node>
	<node id="-130848" lat="65.9861027776" lon="12.3013944338">
		<tag k="name" v="Vasshågjen" />
		<tag k="natural" v="hill" />
		<tag k="place" v="locality" />
		<tag k="ssr:stedsnr" v="896834" />
	</node>
	<node id="-131359" lat="66.0032277787" lon="12.3251194376">
		<tag k="name" v="Viksalhågjen" />
		<tag k="natural" v="hill" />
		<tag k="place" v="locality" />
		<tag k="ssr:stedsnr" v="530848" />
	</node>
	<node id="-130844" lat="65.9121861091" lon="12.1645277695">
		<tag k="name" v="Rundhågjen" />
		<tag k="natural" v="hill" />
		<tag k="place" v="locality" />
		<tag k="ssr:stedsnr" v="896300" />
	</node>
	<node id="-130842" lat="65.9150944451" lon="12.1151666752">
		<tag k="name" v="Ramnøyhågjen" />
		<tag k="natural" v="ridge" />
		<tag k="place" v="locality" />
		<tag k="ssr:stedsnr" v="896239" />
	</node>
	<node id="-130777" lat="65.9139388889" lon="12.172733336">
		<tag k="name" v="Lomshågjen" />
		<tag k="natural" v="hill" />
		<tag k="place" v="locality" />
		<tag k="ssr:stedsnr" v="713301" />
	</node>
	<node id="-131346" lat="65.9989083371" lon="12.3378027779">
		<tag k="name" v="Hoklepphågjen" />
		<tag k="natural" v="hill" />
		<tag k="place" v="locality" />
		<tag k="ssr:stedsnr" v="410850" />
	</node>
	<node id="-131343" lat="66.0077972237" lon="12.2105583336">
		<tag k="fixme" v="consider natural=peak for the most distinct mountains in the district" />
		<tag k="name" v="Storsandfjellet" />
		<tag k="natural" v="hill" />
		<tag k="place" v="locality" />
		<tag k="ssr:stedsnr" v="411442" />
	</node>
	<node id="-130829" lat="65.9459749994" lon="12.2263694409">
		<tag k="name" v="Husklepphågjen" />
		<tag k="natural" v="hill" />
		<tag k="place" v="locality" />
		<tag k="ssr:stedsnr" v="715954" />
	</node>
	<node id="-130822" lat="65.9828444442" lon="12.2108472207">
		<tag k="name" v="Storvasshågjen" />
		<tag k="natural" v="hill" />
		<tag k="place" v="locality" />
		<tag k="ssr:stedsnr" v="894781" />
	</node>
	<node id="-130774" lat="65.9167305585" lon="12.1206944529">
		<tag k="fixme" v="consider natural=peak for the most distinct mountains in the district" />
		<tag k="name" v="Låvåsen" />
		<tag k="natural" v="hill" />
		<tag k="place" v="locality" />
		<tag k="ssr:stedsnr" v="713142" />
	</node>
	<node id="-131542" lat="65.9863583339" lon="12.2082194473">
		<tag k="fixme" v="consider natural=peak for the most distinct mountains in the district" />
		<tag k="name" v="Buholmåsen" />
		<tag k="natural" v="hill" />
		<tag k="place" v="locality" />
		<tag k="ssr:stedsnr" v="773753" />
	</node>
	<node id="-130773" lat="65.9098999962" lon="12.1569194405">
		<tag k="name" v="Prestøyhågjen" />
		<tag k="natural" v="ridge" />
		<tag k="place" v="locality" />
		<tag k="ssr:stedsnr" v="713135" />
	</node>
	<node id="-131367" lat="65.9772555594" lon="12.2965638799">
		<tag k="fixme" v="consider natural=peak for the most distinct mountains in the district" />
		<tag k="name" v="Dragnesåsen" />
		<tag k="natural" v="hill" />
		<tag k="place" v="locality" />
		<tag k="ssr:stedsnr" v="532780" />
	</node>
	<node id="-130783" lat="66.0374500024" lon="12.2985916719">
		<tag k="name" v="Nonstuva" />
		<tag k="natural" v="hill" />
		<tag k="place" v="locality" />
		<tag k="ssr:stedsnr" v="714714" />
	</node>
	<node id="-130782" lat="65.9895138921" lon="12.2174083296">
		<tag k="name" v="Storåsfjellet" />
		<tag k="natural" v="cliff" />
		<tag k="ssr:stedsnr" v="714826" />
	</node>
	<node id="-131293" lat="66.0145166675" lon="12.371972223">
		<tag k="fixme" v="consider natural=peak for the most distinct mountains in the district" />
		<tag k="name" v="Laukhalsåsen" />
		<tag k="natural" v="hill" />
		<tag k="place" v="locality" />
		<tag k="ssr:stedsnr" v="350651" />
	</node>
	<node id="-130780" lat="65.9826027748" lon="12.2759444435">
		<tag k="name" v="Storhågjen" />
		<tag k="natural" v="ridge" />
		<tag k="place" v="locality" />
		<tag k="ssr:stedsnr" v="714784" />
	</node>
	<node id="-131291" lat="66.0115472235" lon="12.2211472245">
		<tag k="name" v="Buskapshågjen" />
		<tag k="natural" v="hill" />
		<tag k="place" v="locality" />
		<tag k="ssr:stedsnr" v="350611" />
	</node>
	<node id="-131290" lat="66.008197226" lon="12.2147555463">
		<tag k="fixme" v="consider natural=peak for the most distinct mountains in the district" />
		<tag k="name" v="Karifjellet" />
		<tag k="natural" v="hill" />
		<tag k="place" v="locality" />
		<tag k="ssr:stedsnr" v="350593" />
	</node>
	<node id="-131289" lat="65.9995111107" lon="12.3046333235">
		<tag k="name" v="Herslevhågjen" />
		<tag k="natural" v="hill" />
		<tag k="place" v="locality" />
		<tag k="ssr:stedsnr" v="350846" />
	</node>
	<node id="-130776" lat="65.9167388874" lon="12.1745277806">
		<tag k="name" v="Remmen" />
		<tag k="natural" v="ridge" />
		<tag k="place" v="locality" />
		<tag k="ssr:stedsnr" v="713184" />
	</node>
	<node id="-131286" lat="65.9918694413" lon="12.22647501">
		<tag k="name" v="Hjelmsøyskardet" />
		<tag k="natural" v="valley" />
		<tag k="place" v="locality" />
		<tag k="ssr:stedsnr" v="349860" />
	</node>
	<node id="-131285" lat="66.0275194452" lon="12.2719388945">
		<tag k="name" v="Båthågjen" />
		<tag k="natural" v="hill" />
		<tag k="place" v="locality" />
		<tag k="ssr:stedsnr" v="349694" />
	</node>
	<node id="-131283" lat="65.8956888853" lon="11.9942055587">
		<tag k="name" v="Sørhågjen" />
		<tag k="natural" v="hill" />
		<tag k="place" v="locality" />
		<tag k="ssr:stedsnr" v="349296" />
	</node>
	<node id="-130770" lat="65.9887861141" lon="12.2709583319">
		<tag k="fixme" v="consider natural=peak for the most distinct mountains in the district" />
		<tag k="name" v="Stein Langåsen" />
		<tag k="natural" v="hill" />
		<tag k="place" v="locality" />
		<tag k="ssr:stedsnr" v="712831" />
	</node>
	<node id="-131279" lat="65.9141027809" lon="12.1599277767">
		<tag k="name" v="Stibakken" />
		<tag k="natural" v="hill" />
		<tag k="place" v="locality" />
		<tag k="ssr:stedsnr" v="349144" />
	</node>
	<node id="-130740" lat="65.9626694456" lon="12.2243111085">
		<tag k="name" v="Gamhågjen" />
		<tag k="natural" v="hill" />
		<tag k="place" v="locality" />
		<tag k="ssr:stedsnr" v="533956" />
	</node>
	<node id="-130739" lat="66.0043388848" lon="12.2351083218">
		<tag k="name" v="Skarbergvikja" />
		<tag k="natural" v="valley" />
		<tag k="place" v="locality" />
		<tag k="ssr:stedsnr" v="532821" />
	</node>
	<node id="-130737" lat="66.0085694438" lon="12.2182888976">
		<tag k="fixme" v="consider natural=peak for the most distinct mountains in the district" />
		<tag k="name" v="Kveldfjellet" />
		<tag k="natural" v="hill" />
		<tag k="place" v="locality" />
		<tag k="ssr:stedsnr" v="532617" />
	</node>
	<node id="-131245" lat="66.0106777761" lon="12.3509027737">
		<tag k="name" v="Brannåsen" />
		<tag k="natural" v="hill" />
		<tag k="place" v="locality" />
		<tag k="ssr:stedsnr" v="318939" />
	</node>
	<node id="-131438" lat="66.0018833316" lon="12.3096138906">
		<tag k="name" v="Svarthågjen" />
		<tag k="natural" v="hill" />
		<tag k="place" v="locality" />
		<tag k="ssr:stedsnr" v="592902" />
	</node>
	<node id="-130922" lat="65.9959472239" lon="12.2949166623">
		<tag k="fixme" v="consider natural=peak for the most distinct mountains in the district" />
		<tag k="name" v="Valsåsen" />
		<tag k="natural" v="hill" />
		<tag k="place" v="locality" />
		<tag k="ssr:stedsnr" v="834853" />
	</node>
	<node id="-130408" lat="66.030097222" lon="12.2826722135">
		<tag k="name" v="Tronåsen" />
		<tag k="natural" v="ridge" />
		<tag k="place" v="locality" />
		<tag k="ssr:stedsnr" v="228728" />
	</node>
	<node id="-131180" lat="66.0091583368" lon="12.3645944434">
		<tag k="fixme" v="consider natural=peak for the most distinct mountains in the district" />
		<tag k="name" v="Skiftåsen" />
		<tag k="natural" v="hill" />
		<tag k="place" v="locality" />
		<tag k="ssr:stedsnr" v="168848" />
	</node>
	<node id="-130834" lat="65.9179166654" lon="12.1706583426">
		<tag k="name" v="Tjønnhågjen" />
		<tag k="natural" v="hill" />
		<tag k="place" v="locality" />
		<tag k="ssr:stedsnr" v="896188" />
	</node>
	<node id="-131178" lat="65.9966638883" lon="12.2961472249">
		<tag k="fixme" v="consider natural=peak for the most distinct mountains in the district" />
		<tag k="name" v="Nalsåsen" />
		<tag k="natural" v="hill" />
		<tag k="place" v="locality" />
		<tag k="ssr:stedsnr" v="168837" />
	</node>
	<node id="-131174" lat="66.0112611138" lon="12.3719722138">
		<tag k="fixme" v="consider natural=peak for the most distinct mountains in the district" />
		<tag k="name" v="Laåsen" />
>>>>>>> e1d4bc35ff8a6074a6f2e91616a996b547c36f15
		<tag k="natural" v="hill" />
		<tag k="place" v="locality" />
		<tag k="ssr:stedsnr" v="168678" />
	</node>
<<<<<<< HEAD
	<node lat="65.90829999923699" lon="12.112013880037667" id="-7526">
		<tag k="name" v="Blåbærhågjen" />
		<tag k="natural" v="hill" />
		<tag k="place" v="locality" />
		<tag k="ssr:stedsnr" v="410237" />
	</node>
	<node lat="66.00322777871271" lon="12.325119437550374" id="-7610">
		<tag k="name" v="Viksalhågjen" />
		<tag k="natural" v="hill" />
		<tag k="place" v="locality" />
		<tag k="ssr:stedsnr" v="530848" />
	</node>
	<node lat="66.00856944375886" lon="12.218288897552023" id="-7616">
		<tag k="fixme" v="consider natural=peak for the most distinct mountains in the district" />
		<tag k="name" v="Kveldfjellet" />
		<tag k="natural" v="hill" />
		<tag k="place" v="locality" />
		<tag k="ssr:stedsnr" v="532617" />
	</node>
	<node lat="65.99378333517785" lon="12.227258323407158" id="-7618">
		<tag k="name" v="Middagshågjen" />
		<tag k="natural" v="hill" />
		<tag k="place" v="locality" />
		<tag k="ssr:stedsnr" v="532668" />
	</node>
	<node lat="66.01989722635058" lon="12.459325000611067" id="-7619">
		<tag k="fixme" v="consider natural=peak for the most distinct mountains in the district" />
		<tag k="name" v="Tranøyklubben" />
		<tag k="natural" v="hill" />
		<tag k="place" v="locality" />
		<tag k="ssr:stedsnr" v="532748" />
	</node>
	<node lat="65.9979694415793" lon="12.24759999600447" id="-7620">
		<tag k="fixme" v="consider natural=peak for the most distinct mountains in the district" />
		<tag k="name" v="Langvardshågjen" />
		<tag k="natural" v="hill" />
		<tag k="place" v="locality" />
		<tag k="ssr:stedsnr" v="532846" />
	</node>
	<node lat="65.96266944555363" lon="12.224311108489104" id="-7621">
		<tag k="name" v="Gamhågjen" />
		<tag k="natural" v="hill" />
		<tag k="place" v="locality" />
		<tag k="ssr:stedsnr" v="533956" />
	</node>
	<node lat="66.00600832994881" lon="12.354852780806347" id="-7680">
		<tag k="fixme" v="consider natural=peak for the most distinct mountains in the district" />
		<tag k="name" v="Langstrandåsen" />
		<tag k="natural" v="hill" />
		<tag k="place" v="locality" />
		<tag k="ssr:stedsnr" v="590850" />
	</node>
	<node lat="66.0379944423482" lon="12.30258610728389" id="-7695">
		<tag k="name" v="Storhågjen" />
		<tag k="natural" v="hill" />
		<tag k="place" v="locality" />
		<tag k="ssr:stedsnr" v="592784" />
	</node>
	<node lat="65.98000277972639" lon="12.202969449241786" id="-7719">
		<tag k="name" v="Gårdsøytangen" />
		<tag k="natural" v="hill" />
		<tag k="place" v="locality" />
		<tag k="ssr:stedsnr" v="651776" />
	</node>
	<node lat="65.90989999617135" lon="12.156919440457315" id="-7726">
		<tag k="name" v="Prestøyhågjen" />
		<tag k="natural" v="ridge" />
		<tag k="place" v="locality" />
		<tag k="ssr:stedsnr" v="713135" />
	</node>
	<node lat="65.91673055852587" lon="12.120694452942907" id="-7727">
		<tag k="fixme" v="consider natural=peak for the most distinct mountains in the district" />
		<tag k="name" v="Låvåsen" />
		<tag k="natural" v="hill" />
		<tag k="place" v="locality" />
		<tag k="ssr:stedsnr" v="713142" />
	</node>
	<node lat="65.91393888892763" lon="12.17273333603066" id="-7728">
		<tag k="name" v="Lomshågjen" />
		<tag k="natural" v="hill" />
		<tag k="place" v="locality" />
		<tag k="ssr:stedsnr" v="713301" />
	</node>
	<node lat="65.98260277481965" lon="12.275944443450657" id="-7732">
		<tag k="name" v="Storhågjen" />
		<tag k="natural" v="ridge" />
		<tag k="place" v="locality" />
		<tag k="ssr:stedsnr" v="714784" />
	</node>
	<node lat="66.03745000237191" lon="12.298591671931911" id="-7735">
		<tag k="name" v="Nonstuva" />
		<tag k="natural" v="hill" />
		<tag k="place" v="locality" />
		<tag k="ssr:stedsnr" v="714714" />
	</node>
	<node lat="65.9459749994029" lon="12.22636944088995" id="-7737">
		<tag k="name" v="Husklepphågjen" />
		<tag k="natural" v="hill" />
		<tag k="place" v="locality" />
		<tag k="ssr:stedsnr" v="715954" />
	</node>
	<node lat="66.01045832950194" lon="12.197038880426142" id="-7782">
		<tag k="name" v="Enakkvalen" />
		<tag k="place" v="locality" />
		<tag k="ssr:stedsnr" v="775588" />
	</node>
	<node lat="65.98005833468208" lon="12.207413891161059" id="-7808">
		<tag k="name" v="Per-Monsahågjen" />
		<tag k="natural" v="hill" />
		<tag k="place" v="locality" />
		<tag k="ssr:stedsnr" v="834769" />
	</node>
	<node lat="65.99594722394032" lon="12.2949166622865" id="-7811">
		<tag k="fixme" v="consider natural=peak for the most distinct mountains in the district" />
		<tag k="name" v="Valsåsen" />
		<tag k="natural" v="hill" />
		<tag k="place" v="locality" />
		<tag k="ssr:stedsnr" v="834853" />
	</node>
	<node lat="66.00923610986592" lon="12.222977780616878" id="-7823">
		<tag k="name" v="Kleivan" />
		<tag k="natural" v="slope" />
		<tag k="place" v="locality" />
		<tag k="ssr:stedsnr" v="836621" />
	</node>
	<node lat="65.96099166596785" lon="12.248108338332287" id="-7825">
		<tag k="name" v="Storhågjen" />
		<tag k="natural" v="hill" />
		<tag k="place" v="locality" />
		<tag k="ssr:stedsnr" v="836970" />
	</node>
	<node lat="66.01137222459128" lon="12.21220555403681" id="-7898">
		<tag k="name" v="Sandvikhågjen" />
		<tag k="natural" v="hill" />
		<tag k="place" v="locality" />
		<tag k="ssr:stedsnr" v="951777" />
	</node>
	<node lat="65.91618333788453" lon="12.157272212929493" id="-7901">
		<tag k="name" v="Tysberget" />
		<tag k="natural" v="cliff" />
		<tag k="ssr:stedsnr" v="956135" />
	</node>
	<node lat="65.89821388688802" lon="11.997066665804356" id="-7909">
		<tag k="name" v="Nordhågjen" />
		<tag k="natural" v="hill" />
		<tag k="place" v="locality" />
		<tag k="ssr:stedsnr" v="956276" />
	</node>
	<node lat="66.02626666941282" lon="12.235077774340954" id="-7915">
		<tag k="name" v="Storhågjen" />
		<tag k="natural" v="hill" />
		<tag k="place" v="locality" />
		<tag k="ssr:stedsnr" v="957614" />
	</node>
	<node lat="66.02865277460681" lon="12.231147212472276" id="-7916">
		<tag k="name" v="Ytterhågjen" />
		<tag k="natural" v="hill" />
		<tag k="place" v="locality" />
		<tag k="ssr:stedsnr" v="957620" />
=======
	<node id="-131172" lat="65.9541555537" lon="12.256086118">
		<tag k="name" v="Perhågjen" />
		<tag k="natural" v="hill" />
		<tag k="place" v="locality" />
		<tag k="ssr:stedsnr" v="168038" />
	</node>
	<node id="-131171" lat="65.9129749997" lon="12.1540472235">
		<tag k="fixme" v="consider natural=peak for the most distinct mountains in the district" />
		<tag k="name" v="Svartåsen" />
		<tag k="natural" v="hill" />
		<tag k="place" v="locality" />
		<tag k="ssr:stedsnr" v="167130" />
	</node>
	<node id="-131680" lat="66.035505553" lon="12.3020138813">
		<tag k="fixme" v="consider natural=peak for the most distinct mountains in the district" />
		<tag k="name" v="Staulhamran" />
		<tag k="natural" v="hill" />
		<tag k="place" v="locality" />
		<tag k="ssr:stedsnr" v="957744" />
	</node>
	<node id="-131679" lat="66.0335305581" lon="12.2941694363">
		<tag k="name" v="Vasskleppen" />
		<tag k="natural" v="hill" />
		<tag k="place" v="locality" />
		<tag k="ssr:stedsnr" v="957741" />
	</node>
	<node id="-131677" lat="66.0112472198" lon="12.1599194492">
		<tag k="name" v="Vardøyfjellet" />
		<tag k="natural" v="cliff" />
		<tag k="ssr:stedsnr" v="957634" />
	</node>
	<node id="-131676" lat="66.0286527746" lon="12.2311472125">
		<tag k="name" v="Ytterhågjen" />
		<tag k="natural" v="hill" />
		<tag k="place" v="locality" />
		<tag k="ssr:stedsnr" v="957620" />
	</node>
	<node id="-131675" lat="66.0262666694" lon="12.2350777743">
		<tag k="name" v="Storhågjen" />
		<tag k="natural" v="hill" />
		<tag k="place" v="locality" />
		<tag k="ssr:stedsnr" v="957614" />
	</node>
	<node id="-131671" lat="65.8982138869" lon="11.9970666658">
		<tag k="name" v="Nordhågjen" />
		<tag k="natural" v="hill" />
		<tag k="place" v="locality" />
		<tag k="ssr:stedsnr" v="956276" />
	</node>
	<node id="-130639" lat="65.9763638893" lon="12.3048027773">
		<tag k="name" v="Johågjen" />
		<tag k="natural" v="hill" />
		<tag k="place" v="locality" />
		<tag k="ssr:stedsnr" v="350933" />
	</node>
	<node id="-130638" lat="65.9706166694" lon="12.2739444428">
		<tag k="fixme" v="consider natural=peak for the most distinct mountains in the district" />
		<tag k="name" v="Kjerkåsen" />
		<tag k="natural" v="hill" />
		<tag k="place" v="locality" />
		<tag k="ssr:stedsnr" v="350803" />
	</node>
	<node id="-131341" lat="65.9082999992" lon="12.11201388">
		<tag k="name" v="Blåbærhågjen" />
		<tag k="natural" v="hill" />
		<tag k="place" v="locality" />
		<tag k="ssr:stedsnr" v="410237" />
	</node>
	<node id="-131660" lat="66.0113722246" lon="12.212205554">
		<tag k="name" v="Sandvikhågjen" />
		<tag k="natural" v="hill" />
		<tag k="place" v="locality" />
		<tag k="ssr:stedsnr" v="951777" />
	</node>
	<node id="-130620" lat="65.9883250033" lon="12.2290138929">
		<tag k="fixme" v="consider natural=peak for the most distinct mountains in the district" />
		<tag k="name" v="Kleppen" />
		<tag k="natural" v="hill" />
		<tag k="place" v="locality" />
		<tag k="ssr:stedsnr" v="471841" />
	</node>
	<node id="-130618" lat="66.0128111086" lon="12.3718083355">
		<tag k="name" v="Laukhalsen" />
		<tag k="natural" v="valley" />
		<tag k="place" v="locality" />
		<tag k="ssr:stedsnr" v="471685" />
	</node>
	<node id="-131120" lat="65.9860138853" lon="12.2186249898">
		<tag k="fixme" v="consider natural=peak for the most distinct mountains in the district" />
		<tag k="name" v="Fallkleppen" />
		<tag k="natural" v="hill" />
		<tag k="place" v="locality" />
		<tag k="ssr:stedsnr" v="107841" />
	</node>
	<node id="-131119" lat="66.0039138921" lon="12.2305222242">
		<tag k="name" v="Innerøyfjellet" />
		<tag k="natural" v="cliff" />
		<tag k="ssr:stedsnr" v="107829" />
	</node>
	<node id="-130605" lat="65.9904305541" lon="12.2347861015">
		<tag k="name" v="Matmorhågjen" />
		<tag k="natural" v="hill" />
		<tag k="place" v="locality" />
		<tag k="ssr:stedsnr" v="469843" />
	</node>
	<node id="-131116" lat="66.0065861097" lon="12.2017305456">
		<tag k="name" v="Inner Svehågjen" />
		<tag k="natural" v="ridge" />
		<tag k="place" v="locality" />
		<tag k="ssr:stedsnr" v="107696" />
	</node>
	<node id="-131105" lat="65.9956916686" lon="12.2898166693">
		<tag k="name" v="Fanghågjen" />
		<tag k="natural" v="hill" />
		<tag k="place" v="locality" />
		<tag k="ssr:stedsnr" v="105872" />
	</node>
	<node id="-131612" lat="65.960991666" lon="12.2481083383">
		<tag k="name" v="Storhågjen" />
		<tag k="natural" v="hill" />
		<tag k="place" v="locality" />
		<tag k="ssr:stedsnr" v="836970" />
	</node>
	<node id="-131607" lat="65.9898083331" lon="12.1954888853">
		<tag k="fixme" v="consider natural=peak for the most distinct mountains in the district" />
		<tag k="name" v="Hjelmsøyfjellet" />
		<tag k="natural" v="hill" />
		<tag k="place" v="locality" />
		<tag k="ssr:stedsnr" v="835835" />
	</node>
	<node id="-131595" lat="65.9800583347" lon="12.2074138912">
		<tag k="name" v="Per-Monsahågjen" />
		<tag k="natural" v="hill" />
		<tag k="place" v="locality" />
		<tag k="ssr:stedsnr" v="834769" />
	</node>
	<node id="-131686" lat="65.9402749962" lon="12.2131861117">
		<tag k="name" v="Nord-Stauløyhågjen" />
		<tag k="natural" v="hill" />
		<tag k="place" v="locality" />
		<tag k="ssr:stedsnr" v="958107" />
>>>>>>> e1d4bc35ff8a6074a6f2e91616a996b547c36f15
	</node>
</osm>
