<?xml version="1.0" encoding="UTF-8"?>
<<<<<<< HEAD
<osm version="0.6" generator="osmapis">
	<node lat="58.79493611057268" lon="5.598905558707295" id="-109">
		<tag k="alt_name" v="Bore" />
		<tag k="amenity" v="place_of_worship" />
		<tag k="denomination" v="lutheran" />
		<tag k="name" v="Bore kyrkje" />
		<tag k="religion" v="christian" />
		<tag k="ssr:stedsnr" v="327067" />
	</node>
	<node lat="58.78910903568699" lon="5.579402576383691" id="-173">
		<tag k="cemetery" v="grave" />
		<tag k="name" v="Bore gamle kyrkjegard" />
		<tag k="place" v="locality" />
		<tag k="ssr:stedsnr" v="691088" />
	</node>
	<node lat="58.773331853676204" lon="5.624535039370283" id="-269">
=======
<osm generator="osmapis" version="0.6">
	<node id="-21147" lat="58.7733318537" lon="5.62453503937">
>>>>>>> e1d4bc35ff8a6074a6f2e91616a996b547c36f15
		<tag k="alt_name" v="Klepp" />
		<tag k="amenity" v="place_of_worship" />
		<tag k="denomination" v="lutheran" />
		<tag k="name" v="Klepp kyrkje" />
		<tag k="religion" v="christian" />
		<tag k="ssr:stedsnr" v="911822" />
	</node>
<<<<<<< HEAD
	<node lat="58.76166666563223" lon="5.506386103284426" id="-291">
		<tag k="name" v="Ornitologisk stasjon" />
		<tag k="ssr:stedsnr" v="24765" />
		<tag k="tourism" v="attraction" />
	</node>
	<node lat="58.731394448307285" lon="5.529747219655084" id="-347">
		<tag k="alt_name" v="Orre" />
		<tag k="amenity" v="place_of_worship" />
		<tag k="denomination" v="lutheran" />
		<tag k="name" v="Orre" />
		<tag k="religion" v="christian" />
		<tag k="ssr:stedsnr" v="179265" />
	</node>
	<node lat="58.71535000256818" lon="5.563736114508182" id="-441">
		<tag k="alt_name" v="Orre" />
		<tag k="amenity" v="place_of_worship" />
		<tag k="denomination" v="lutheran" />
		<tag k="name" v="Orre kyrkje" />
		<tag k="religion" v="christian" />
		<tag k="ssr:stedsnr" v="546796" />
	</node>
	<node lat="58.711161107368525" lon="5.595094448413468" id="-513">
		<tag k="name" v="Åsrudlå" />
		<tag k="place" v="locality" />
		<tag k="ssr:stedsnr" v="785231" />
	</node>
	<node lat="58.787594442304496" lon="5.720447215880621" id="-565">
=======
	<node id="-21306" lat="58.7949361106" lon="5.59890555871">
		<tag k="alt_name" v="Bore" />
		<tag k="amenity" v="place_of_worship" />
		<tag k="denomination" v="lutheran" />
		<tag k="name" v="Bore kyrkje" />
		<tag k="religion" v="christian" />
		<tag k="ssr:stedsnr" v="327067" />
	</node>
	<node id="-21177" lat="58.7875944423" lon="5.72044721588">
>>>>>>> e1d4bc35ff8a6074a6f2e91616a996b547c36f15
		<tag k="amenity" v="place_of_worship" />
		<tag k="denomination" v="lutheran" />
		<tag k="name" v="Frøyland og Orstad kyrkje" />
		<tag k="religion" v="christian" />
		<tag k="ssr:stedsnr" v="964557" />
	</node>
<<<<<<< HEAD
=======
	<node id="-21197" lat="58.7616666656" lon="5.50638610328">
		<tag k="name" v="Ornitologisk stasjon" />
		<tag k="ssr:stedsnr" v="24765" />
		<tag k="tourism" v="attraction" />
	</node>
	<node id="-20967" lat="58.7313944483" lon="5.52974721966">
		<tag k="alt_name" v="Orre" />
		<tag k="amenity" v="place_of_worship" />
		<tag k="denomination" v="lutheran" />
		<tag k="name" v="Orre" />
		<tag k="religion" v="christian" />
		<tag k="ssr:stedsnr" v="179265" />
	</node>
	<node id="-21349" lat="58.7153500026" lon="5.56373611451">
		<tag k="alt_name" v="Orre" />
		<tag k="amenity" v="place_of_worship" />
		<tag k="denomination" v="lutheran" />
		<tag k="name" v="Orre kyrkje" />
		<tag k="religion" v="christian" />
		<tag k="ssr:stedsnr" v="546796" />
	</node>
	<node id="-21409" lat="58.7111611074" lon="5.59509444841">
		<tag k="name" v="Åsrudlå" />
		<tag k="place" v="locality" />
		<tag k="ssr:stedsnr" v="785231" />
	</node>
>>>>>>> e1d4bc35ff8a6074a6f2e91616a996b547c36f15
</osm>
