<?xml version="1.0" encoding="UTF-8"?>
<osm generator="osmapis" version="0.6">
	<node id="-19454" lat="58.7129583351" lon="5.53073610623">
		<tag k="name" v="Vik" />
		<tag k="place" v="hamlet" />
		<tag k="ssr:stedsnr" v="84551" />
	</node>
	<node id="-19453" lat="58.7725027818" lon="5.67137499527">
		<tag k="name" v="Nybrekkå" />
		<tag k="place" v="farm" />
		<tag k="ssr:stedsnr" v="84444" />
	</node>
	<node id="-19452" lat="58.7514583315" lon="5.6411277768">
		<tag k="name" v="Tulunden" />
		<tag k="place" v="farm" />
		<tag k="ssr:stedsnr" v="84443" />
	</node>
	<node id="-19446" lat="58.8020861085" lon="5.59326388982">
		<tag k="name" v="Solvang" />
		<tag k="place" v="farm" />
		<tag k="ssr:stedsnr" v="62933" />
	</node>
	<node id="-19445" lat="58.7250694457" lon="5.5562083389">
		<tag k="name" v="Erga" />
		<tag k="place" v="farm" />
		<tag k="ssr:stedsnr" v="61859" />
	</node>
	<node id="-19444" lat="58.7769403256" lon="5.64633228373">
		<tag k="fixme" v="consider place=hamlet" />
		<tag k="name" v="Riskjell" />
		<tag k="old_name" v="Risjell" />
		<tag k="place" v="farm" />
		<tag k="ssr:stedsnr" v="61824" />
	</node>
	<node id="-19443" lat="58.7180166658" lon="5.56859165891">
		<tag k="fixme" v="consider place=hamlet" />
		<tag k="name" v="Pollestad" />
		<tag k="place" v="village" />
		<tag k="ssr:stedsnr" v="61819" />
	</node>
	<node id="-19441" lat="58.7607694512" lon="5.62414464974">
		<tag k="name" v="Braut" />
		<tag k="place" v="hamlet" />
		<tag k="ssr:stedsnr" v="61814" />
	</node>
	<node id="-19440" lat="58.7689247515" lon="5.64376893496">
		<tag k="fixme" v="consider place=hamlet" />
		<tag k="name" v="Fjogstad" />
		<tag k="place" v="farm" />
		<tag k="ssr:stedsnr" v="61810" />
	</node>
	<node id="-19439" lat="58.7651242357" lon="5.56726677958">
		<tag k="fixme" v="consider place=hamlet" />
		<tag k="name" v="Nese" />
		<tag k="place" v="farm" />
		<tag k="ssr:stedsnr" v="61808" />
	</node>
	<node id="-19438" lat="58.7059583377" lon="5.59544721673">
		<tag k="name" v="Tørrholen" />
		<tag k="place" v="farm" />
		<tag k="ssr:stedsnr" v="59320" />
	</node>
	<node id="-19436" lat="58.7292861117" lon="5.58879444219">
		<tag k="name" v="Småbakkane" />
		<tag k="place" v="farm" />
		<tag k="ssr:stedsnr" v="57280" />
	</node>
	<node id="-19435" lat="58.7103388895" lon="5.53063332614">
		<tag k="fixme" v="consider place=hamlet" />
		<tag k="name" v="Vik" />
		<tag k="place" v="farm" />
		<tag k="ssr:stedsnr" v="57279" />
	</node>
	<node id="-19430" lat="58.711433336" lon="5.58157499413">
		<tag k="name" v="Midtre Salte" />
		<tag k="place" v="farm" />
		<tag k="ssr:stedsnr" v="57199" />
	</node>
	<node id="-19426" lat="58.7651805531" lon="5.50383889509">
		<tag k="name" v="Blomhaug" />
		<tag k="place" v="locality" />
		<tag k="ssr:stedsnr" v="24740" />
	</node>
	<node id="-19425" lat="58.7564305521" lon="5.66179166586">
		<tag k="name" v="Mosberget" />
		<tag k="place" v="locality" />
		<tag k="ssr:stedsnr" v="24463" />
	</node>
	<node id="-19422" lat="58.7569222202" lon="5.61729444874">
		<tag k="name" v="Svartholen" />
		<tag k="place" v="farm" />
		<tag k="ssr:stedsnr" v="24435" />
	</node>
	<node id="-19417" lat="58.7861718649" lon="5.65084225512">
		<tag k="fixme" v="consider place=hamlet" />
		<tag k="name" v="Storhaug" />
		<tag k="place" v="farm" />
		<tag k="ssr:stedsnr" v="1840" />
	</node>
	<node id="-19415" lat="58.7428333334" lon="5.56895000568">
		<tag k="alt_name" v="Risbakken" />
		<tag k="name" v="Bakken" />
		<tag k="place" v="farm" />
		<tag k="ssr:stedsnr" v="896" />
	</node>
	<node id="-19414" lat="58.7300750027" lon="5.56608611433">
		<tag k="name" v="Erga" />
		<tag k="place" v="farm" />
		<tag k="ssr:stedsnr" v="859" />
	</node>
	<node id="-19413" lat="58.7292250004" lon="5.58858888462">
		<tag k="name" v="Bakkane" />
		<tag k="place" v="farm" />
		<tag k="ssr:stedsnr" v="855" />
	</node>
	<node id="-19411" lat="58.7611888891" lon="5.58388888287">
		<tag k="name" v="Friestad" />
		<tag k="place" v="farm" />
		<tag k="ssr:stedsnr" v="823" />
	</node>
	<node id="-19410" lat="58.7618573427" lon="5.64778645789">
		<tag k="fixme" v="consider place=hamlet" />
		<tag k="name" v="Særheim" />
		<tag k="place" v="farm" />
		<tag k="ssr:stedsnr" v="820" />
	</node>
	<node id="-19409" lat="58.7683951163" lon="5.51494534808">
		<tag k="fixme" v="consider place=hamlet" />
		<tag k="name" v="Reve" />
		<tag k="place" v="farm" />
		<tag k="ssr:stedsnr" v="816" />
	</node>
	<node id="-19405" lat="58.7567277804" lon="5.63325556074">
		<tag k="name" v="Grimshaug" />
		<tag k="place" v="locality" />
		<tag k="ssr:stedsnr" v="934403" />
	</node>
	<node id="-19404" lat="58.7681833357" lon="5.5985138969">
		<tag k="name" v="Vådeland" />
		<tag k="place" v="farm" />
		<tag k="ssr:stedsnr" v="934110" />
	</node>
	<node id="-19401" lat="58.7943611139" lon="5.69320832945">
		<tag k="name" v="Øksnavad" />
		<tag k="place" v="farm" />
		<tag k="ssr:stedsnr" v="873666" />
	</node>
	<node id="-19400" lat="58.7357416691" lon="5.52623055467">
		<tag k="name" v="Noraleitet" />
		<tag k="place" v="farm" />
		<tag k="ssr:stedsnr" v="873128" />
	</node>
	<node id="-19399" lat="58.7458111151" lon="5.61211389097">
		<tag k="name" v="Dildarhaug" />
		<tag k="place" v="locality" />
		<tag k="ssr:stedsnr" v="873428" />
	</node>
	<node id="-19395" lat="58.7904023727" lon="5.5863242783">
		<tag k="alt_name" v="Bore, østre;Østre Bore" />
		<tag k="fixme" v="consider place=hamlet" />
		<tag k="name" v="Austre Bore" />
		<tag k="place" v="farm" />
		<tag k="ssr:stedsnr" v="851917" />
	</node>
	<node id="-19394" lat="58.7895916639" lon="5.59735833626">
		<tag k="name" v="Borekrossen" />
		<tag k="place" v="farm" />
		<tag k="ssr:stedsnr" v="851908" />
	</node>
	<node id="-19393" lat="58.7797722207" lon="5.65333610944">
		<tag k="name" v="Hattaland" />
		<tag k="place" v="farm" />
		<tag k="ssr:stedsnr" v="937342" />
	</node>
	<node id="-19391" lat="58.7758666687" lon="5.63742500546">
		<tag k="fixme" v="consider place=suburb, village or hamlet" />
		<tag k="name" v="Sandholen" />
		<tag k="place" v="quarter" />
		<tag k="ssr:stedsnr" v="935448" />
	</node>
	<node id="-19390" lat="58.7534388899" lon="5.63671944009">
		<tag k="name" v="Lunden" />
		<tag k="place" v="farm" />
		<tag k="ssr:stedsnr" v="934387" />
	</node>
	<node id="-19383" lat="58.7110944481" lon="5.59951944115">
		<tag k="alt_name" v="Salte, øvra" />
		<tag k="name" v="Øvra Salte" />
		<tag k="place" v="farm" />
		<tag k="ssr:stedsnr" v="789828" />
	</node>
	<node id="-19382" lat="58.7051083301" lon="5.57680277164">
		<tag k="name" v="Tvihaug" />
		<tag k="place" v="farm" />
		<tag k="ssr:stedsnr" v="788827" />
	</node>
	<node id="-19379" lat="58.7981999977" lon="5.56172222442">
		<tag k="alt_name" v="Bore, vestre" />
		<tag k="name" v="Vestre Bore" />
		<tag k="place" v="farm" />
		<tag k="ssr:stedsnr" v="911902" />
	</node>
	<node id="-19378" lat="58.7903691259" lon="5.64822288635">
		<tag k="fixme" v="consider place=hamlet" />
		<tag k="name" v="Meland" />
		<tag k="place" v="farm" />
		<tag k="ssr:stedsnr" v="911898" />
	</node>
	<node id="-19375" lat="58.7360024433" lon="5.58725554997">
		<tag k="fixme" v="consider place=hamlet" />
		<tag k="name" v="Rosland" />
		<tag k="place" v="farm" />
		<tag k="ssr:stedsnr" v="910863" />
	</node>
	<node id="-19374" lat="58.7341666658" lon="5.57240555865">
		<tag k="name" v="Holmen" />
		<tag k="place" v="farm" />
		<tag k="ssr:stedsnr" v="910862" />
	</node>
	<node id="-19373" lat="58.7045194439" lon="5.56882777953">
		<tag k="name" v="Bekken" />
		<tag k="place" v="farm" />
		<tag k="ssr:stedsnr" v="910828" />
	</node>
	<node id="-19367" lat="58.7147166688" lon="5.60894999433">
		<tag k="name" v="Kvednaheia" />
		<tag k="place" v="farm" />
		<tag k="ssr:stedsnr" v="907286" />
	</node>
	<node id="-19365" lat="58.7257499962" lon="5.60670000469">
		<tag k="name" v="Bakken" />
		<tag k="place" v="farm" />
		<tag k="ssr:stedsnr" v="907220" />
	</node>
	<node id="-19359" lat="58.7778388918" lon="5.61044721646">
		<tag k="name" v="Vestre Håland" />
		<tag k="place" v="farm" />
		<tag k="ssr:stedsnr" v="692414" />
	</node>
	<node id="-19357" lat="58.8167805576" lon="5.56514166756">
		<tag k="name" v="Sele" />
		<tag k="place" v="farm" />
		<tag k="ssr:stedsnr" v="729876" />
	</node>
	<node id="-19356" lat="58.751497223" lon="5.57249721713">
		<tag k="alt_name" v="Horpestad, øvre" />
		<tag k="name" v="Øvre Horpestad" />
		<tag k="place" v="farm" />
		<tag k="ssr:stedsnr" v="729860" />
	</node>
	<node id="-19355" lat="58.7780206932" lon="5.62095689906">
		<tag k="fixme" v="consider place=hamlet" />
		<tag k="name" v="Kleppe" />
		<tag k="place" v="farm" />
		<tag k="ssr:stedsnr" v="729844" />
	</node>
	<node id="-19354" lat="58.7776055545" lon="5.60983889425">
		<tag k="name" v="Håland" />
		<tag k="place" v="farm" />
		<tag k="ssr:stedsnr" v="729842" />
	</node>
	<node id="-19353" lat="58.7806981967" lon="5.56438646695">
		<tag k="alt_name" v="Borsheim" />
		<tag k="fixme" v="consider place=hamlet" />
		<tag k="name" v="Borsåk" />
		<tag k="place" v="farm" />
		<tag k="ssr:stedsnr" v="729840" />
	</node>
	<node id="-19351" lat="58.7262638864" lon="5.57631388337">
		<tag k="name" v="Erga" />
		<tag k="place" v="farm" />
		<tag k="ssr:stedsnr" v="728858" />
	</node>
	<node id="-19350" lat="58.7333750035" lon="5.51965832539">
		<tag k="name" v="Haugen" />
		<tag k="place" v="farm" />
		<tag k="ssr:stedsnr" v="728839" />
	</node>
	<node id="-19181" lat="58.7884583341" lon="5.61669445092">
		<tag k="name" v="Grudeleitet" />
		<tag k="place" v="farm" />
		<tag k="ssr:stedsnr" v="267222" />
	</node>
	<node id="-19337" lat="58.7706388885" lon="5.58761388491">
		<tag k="alt_name" v="Damsgård" />
		<tag k="name" v="Damsgard" />
		<tag k="place" v="farm" />
		<tag k="ssr:stedsnr" v="607833" />
	</node>
	<node id="-19336" lat="58.7818874607" lon="5.64836343228">
		<tag k="fixme" v="consider place=hamlet" />
		<tag k="name" v="Hattaland" />
		<tag k="place" v="farm" />
		<tag k="ssr:stedsnr" v="607828" />
	</node>
	<node id="-19335" lat="58.7169388897" lon="5.58972221792">
		<tag k="name" v="Veisholen" />
		<tag k="place" v="farm" />
		<tag k="ssr:stedsnr" v="607811" />
	</node>
	<node id="-19334" lat="58.7134333297" lon="5.57987499572">
		<tag k="alt_name" v="Degerheia" />
		<tag k="name" v="Digerheia" />
		<tag k="place" v="farm" />
		<tag k="ssr:stedsnr" v="607807" />
	</node>
	<node id="-19333" lat="58.7050608687" lon="5.54659914082">
		<tag k="alt_name" v="Åse, nedra;Åse nedre" />
		<tag k="fixme" v="consider place=hamlet" />
		<tag k="name" v="Nedra Åse" />
		<tag k="place" v="farm" />
		<tag k="ssr:stedsnr" v="606783" />
	</node>
	<node id="-19332" lat="58.7070231278" lon="5.55492623401">
		<tag k="alt_name" v="Åse, øvra;Åse øvre" />
		<tag k="fixme" v="consider place=hamlet" />
		<tag k="name" v="Øvra Åse" />
		<tag k="place" v="farm" />
		<tag k="ssr:stedsnr" v="606831" />
	</node>
	<node id="-19326" lat="58.7788833361" lon="5.65026943955">
		<tag k="name" v="Hattaland" />
		<tag k="place" v="farm" />
		<tag k="ssr:stedsnr" v="694271" />
	</node>
	<node id="-19323" lat="58.8009305512" lon="5.69479999879">
		<tag k="name" v="Loen" />
		<tag k="place" v="farm" />
		<tag k="ssr:stedsnr" v="692788" />
	</node>
	<node id="-19315" lat="58.7442194422" lon="5.59160277569">
		<tag k="name" v="Veiene" />
		<tag k="place" v="farm" />
		<tag k="ssr:stedsnr" v="691123" />
	</node>
	<node id="-19311" lat="58.7892305575" lon="5.57961389638">
		<tag k="name" v="Bore gamle kyrkjegard" />
		<tag k="place" v="locality" />
		<tag k="ssr:stedsnr" v="691088" />
	</node>
	<node id="-19310" lat="58.7778388918" lon="5.6766944456">
		<tag k="name" v="Engelsvoll" />
		<tag k="place" v="quarter" />
		<tag k="ssr:stedsnr" v="510256" />
	</node>
	<node id="-19309" lat="58.7658111101" lon="5.50953333659">
		<tag k="name" v="Ytre Reve" />
		<tag k="place" v="farm" />
		<tag k="ssr:stedsnr" v="509722" />
	</node>
	<node id="-19304" lat="58.7465555531" lon="5.57768888316">
		<tag k="name" v="Rudlebakken" />
		<tag k="place" v="farm" />
		<tag k="ssr:stedsnr" v="509103" />
	</node>
	<node id="-19301" lat="58.7008888874" lon="5.57588639776">
		<tag k="alt_name" v="Øgard" />
		<tag k="fixme" v="consider place=hamlet" />
		<tag k="name" v="Øydgard" />
		<tag k="place" v="farm" />
		<tag k="ssr:stedsnr" v="485818" />
	</node>
	<node id="-19297" lat="58.788288889" lon="5.62662777183">
		<tag k="alt_name" v="Grude" />
		<tag k="name" v="Gruda" />
		<tag k="place" v="farm" />
		<tag k="ssr:stedsnr" v="668903" />
	</node>
	<node id="-19296" lat="58.7134583317" lon="5.61439166761">
		<tag k="alt_name" v="Brenderholen" />
		<tag k="name" v="Brendarholen" />
		<tag k="old_name" v="Brendaholen" />
		<tag k="place" v="farm" />
		<tag k="ssr:stedsnr" v="668823" />
	</node>
	<node id="-19295" lat="58.7542750037" lon="5.63766111783">
		<tag k="name" v="Krossvoll" />
		<tag k="place" v="farm" />
		<tag k="ssr:stedsnr" v="668822" />
	</node>
	<node id="-19294" lat="58.7459638843" lon="5.60804721706">
		<tag k="alt_name" v="Sørbraut" />
		<tag k="name" v="Sør-Braut" />
		<tag k="place" v="farm" />
		<tag k="ssr:stedsnr" v="667890" />
	</node>
	<node id="-19293" lat="58.748905557" lon="5.60164721358">
		<tag k="name" v="Revholen" />
		<tag k="place" v="farm" />
		<tag k="ssr:stedsnr" v="667888" />
	</node>
	<node id="-19291" lat="58.7482833325" lon="5.58213334069">
		<tag k="alt_name" v="Horpestad, øvra;Horpestad Øvre" />
		<tag k="name" v="Øvra Horpestad" />
		<tag k="place" v="farm" />
		<tag k="ssr:stedsnr" v="667880" />
	</node>
	<node id="-19290" lat="58.7213388851" lon="5.5426027706">
		<tag k="alt_name" v="Vik, øvra" />
		<tag k="name" v="Øvra Vik" />
		<tag k="place" v="farm" />
		<tag k="ssr:stedsnr" v="667846" />
	</node>
	<node id="-19289" lat="58.7193416708" lon="5.58157500789">
		<tag k="name" v="Grødaland" />
		<tag k="old_name" v="Grødeland" />
		<tag k="place" v="farm" />
		<tag k="ssr:stedsnr" v="667844" />
	</node>
	<node id="-19287" lat="58.7025805547" lon="5.61396110699">
		<tag k="name" v="Seriksheia" />
		<tag k="old_name" v="Serikheia" />
		<tag k="place" v="farm" />
		<tag k="ssr:stedsnr" v="667737" />
	</node>
	<node id="-19278" lat="58.7598638894" lon="5.60651666128">
		<tag k="name" v="Læga" />
		<tag k="place" v="farm" />
		<tag k="ssr:stedsnr" v="449105" />
	</node>
	<node id="-19276" lat="58.7933416693" lon="5.67738332629">
		<tag k="name" v="Vaule" />
		<tag k="place" v="farm" />
		<tag k="ssr:stedsnr" v="426923" />
	</node>
	<node id="-19275" lat="58.7975757477" lon="5.65895128384">
		<tag k="name" v="Øksnavad" />
		<tag k="place" v="hamlet" />
		<tag k="ssr:stedsnr" v="426922" />
	</node>
	<node id="-19274" lat="58.7957499414" lon="5.62682677621">
		<tag k="alt_name" v="Grude" />
		<tag k="fixme" v="consider place=hamlet" />
		<tag k="name" v="Gruda" />
		<tag k="place" v="farm" />
		<tag k="ssr:stedsnr" v="426921" />
	</node>
	<node id="-19273" lat="58.7966694406" lon="5.71701388881">
		<tag k="name" v="Orstad" />
		<tag k="place" v="farm" />
		<tag k="ssr:stedsnr" v="426914" />
	</node>
	<node id="-19272" lat="58.7176861066" lon="5.57586110292">
		<tag k="alt_name" v="Austmark" />
		<tag k="name" v="Heia" />
		<tag k="place" v="farm" />
		<tag k="ssr:stedsnr" v="425838" />
	</node>
	<node id="-19265" lat="58.7019209465" lon="5.58771997007">
		<tag k="fixme" v="consider place=hamlet" />
		<tag k="name" v="Salte" />
		<tag k="place" v="village" />
		<tag k="ssr:stedsnr" v="510483" />
	</node>
	<node id="-19261" lat="58.7699027753" lon="5.62289722034">
		<tag k="fixme" v="consider place=suburb, village or hamlet" />
		<tag k="name" v="Haugabakka" />
		<tag k="place" v="quarter" />
		<tag k="ssr:stedsnr" v="509431" />
	</node>
	<node id="-19259" lat="58.7757621669" lon="5.68603627195">
		<tag k="fixme" v="consider place=hamlet" />
		<tag k="name" v="Engelsvoll" />
		<tag k="place" v="farm" />
		<tag k="ssr:stedsnr" v="509426" />
	</node>
	<node id="-19258" lat="58.8240722197" lon="5.62414444535">
		<tag k="name" v="Storevollen" />
		<tag k="place" v="farm" />
		<tag k="ssr:stedsnr" v="509229" />
	</node>
	<node id="-19167" lat="58.7660305524" lon="5.60347778619">
		<tag k="name" v="Øvregård" />
		<tag k="old_name" v="Øvergard" />
		<tag k="place" v="farm" />
		<tag k="ssr:stedsnr" v="266116" />
	</node>
	<node id="-19251" lat="58.802277774" lon="5.59498889028">
		<tag k="name" v="Boreheimen" />
		<tag k="place" v="farm" />
		<tag k="ssr:stedsnr" v="509077" />
	</node>
	<node id="-19249" lat="58.7700638906" lon="5.52131667363">
		<tag k="building" v="civic" />
		<tag k="name" v="Reve Redningsstasjon" />
		<tag k="ssr:stedsnr" v="387761" />
	</node>
	<node id="-19247" lat="58.7500944436" lon="5.57005832953">
		<tag k="name" v="Fjølheia" />
		<tag k="place" v="farm" />
		<tag k="ssr:stedsnr" v="387125" />
	</node>
	<node id="-19165" lat="58.7305361138" lon="5.53999445033">
		<tag k="name" v="Gjerdene" />
		<tag k="place" v="farm" />
		<tag k="ssr:stedsnr" v="118242" />
	</node>
	<node id="-19242" lat="58.7895734529" lon="5.63868370608">
		<tag k="fixme" v="consider place=hamlet" />
		<tag k="name" v="Håland" />
		<tag k="place" v="farm" />
		<tag k="ssr:stedsnr" v="486911" />
	</node>
	<node id="-19240" lat="58.7974861097" lon="5.72313333277">
		<tag k="name" v="Orstad" />
		<tag k="place" v="village" />
		<tag k="ssr:stedsnr" v="486836" />
	</node>
	<node id="-19239" lat="58.7486388909" lon="5.63541943581">
		<tag k="name" v="Tu" />
		<tag k="place" v="farm" />
		<tag k="ssr:stedsnr" v="485900" />
	</node>
	<node id="-19237" lat="58.744044445" lon="5.61915277363">
		<tag k="alt_name" v="Tjøtta" />
		<tag k="name" v="Tjøttamarka" />
		<tag k="place" v="farm" />
		<tag k="ssr:stedsnr" v="485887" />
	</node>
	<node id="-19229" lat="58.7512999967" lon="5.66686944025">
		<tag k="name" v="Austre Tu" />
		<tag k="place" v="farm" />
		<tag k="ssr:stedsnr" v="328414" />
	</node>
	<node id="-19226" lat="58.7752805548" lon="5.65384722343">
		<tag k="name" v="Andaholen" />
		<tag k="place" v="farm" />
		<tag k="ssr:stedsnr" v="327444" />
	</node>
	<node id="-19225" lat="58.7557000028" lon="5.67057777254">
		<tag k="name" v="Ødegård" />
		<tag k="place" v="farm" />
		<tag k="ssr:stedsnr" v="327440" />
	</node>
	<node id="-19224" lat="58.7692861113" lon="5.60813889456">
		<tag k="alt_name" v="Klepp prestegård" />
		<tag k="name" v="Klepp prestegard" />
		<tag k="place" v="farm" />
		<tag k="ssr:stedsnr" v="327120" />
	</node>
	<node id="-19221" lat="58.7998722243" lon="5.68304722473">
		<tag k="name" v="Lonaheia" />
		<tag k="place" v="farm" />
		<tag k="ssr:stedsnr" v="304915" />
	</node>
	<node id="-19220" lat="58.7893136433" lon="5.58289144415">
		<tag k="alt_name" v="Bore, vestre" />
		<tag k="fixme" v="consider place=hamlet" />
		<tag k="name" v="Vestre Bore" />
		<tag k="place" v="farm" />
		<tag k="ssr:stedsnr" v="304911" />
	</node>
	<node id="-19219" lat="58.7115027749" lon="5.52771110605">
		<tag k="alt_name" v="Vik, nedra" />
		<tag k="name" v="Nedra Vik" />
		<tag k="place" v="farm" />
		<tag k="ssr:stedsnr" v="304840" />
	</node>
	<node id="-19211" lat="58.7327361138" lon="5.60371110864">
		<tag k="name" v="Storeneset" />
		<tag k="place" v="farm" />
		<tag k="ssr:stedsnr" v="449088" />
	</node>
	<node id="-19159" lat="58.7640361091" lon="5.65546944616">
		<tag k="name" v="Gunnarshaug" />
		<tag k="place" v="locality" />
		<tag k="ssr:stedsnr" v="84519" />
	</node>
	<node id="-19206" lat="58.7944472267" lon="5.69187499893">
		<tag k="name" v="Øksnavad" />
		<tag k="place" v="farm" />
		<tag k="ssr:stedsnr" v="448737" />
	</node>
	<node id="-19205" lat="58.7936166657" lon="5.6897055599">
		<tag k="name" v="Øksnavad" />
		<tag k="place" v="farm" />
		<tag k="ssr:stedsnr" v="448736" />
	</node>
	<node id="-19204" lat="58.7588766174" lon="5.62865222969">
		<tag k="fixme" v="consider place=hamlet" />
		<tag k="name" v="Sør-Braut" />
		<tag k="place" v="farm" />
		<tag k="ssr:stedsnr" v="243824" />
	</node>
	<node id="-19203" lat="58.7190852769" lon="5.56484199227">
		<tag k="fixme" v="consider place=hamlet" />
		<tag k="name" v="Pollestad" />
		<tag k="place" v="farm" />
		<tag k="ssr:stedsnr" v="243818" />
	</node>
	<node id="-19201" lat="58.7090690188" lon="5.60705330496">
		<tag k="alt_name" v="Salte, stora;Store Salte;Salte store" />
		<tag k="fixme" v="consider place=hamlet" />
		<tag k="name" v="Stora Salte" />
		<tag k="place" v="farm" />
		<tag k="ssr:stedsnr" v="242759" />
	</node>
	<node id="-19195" lat="58.7270305551" lon="5.59829722069">
		<tag k="name" v="Indrebø" />
		<tag k="place" v="farm" />
		<tag k="ssr:stedsnr" v="179259" />
	</node>
	<node id="-19191" lat="58.7556944406" lon="5.58639445251">
		<tag k="fixme" v="consider place=hamlet" />
		<tag k="name" v="Horpestad" />
		<tag k="place" v="village" />
		<tag k="ssr:stedsnr" v="146461" />
	</node>
	<node id="-19190" lat="58.7681027787" lon="5.66350555796">
		<tag k="name" v="Brekkå" />
		<tag k="place" v="farm" />
		<tag k="ssr:stedsnr" v="145455" />
	</node>
	<node id="-19188" lat="58.7487083313" lon="5.63586944929">
		<tag k="name" v="Krossteig" />
		<tag k="place" v="farm" />
		<tag k="ssr:stedsnr" v="145422" />
	</node>
	<node id="-19697" lat="58.7323250005" lon="5.57871111551">
		<tag k="name" v="Haua" />
		<tag k="place" v="farm" />
		<tag k="ssr:stedsnr" v="967278" />
	</node>
	<node id="-19695" lat="58.8061333356" lon="5.64690834088">
		<tag k="name" v="Skarpholen" />
		<tag k="place" v="farm" />
		<tag k="ssr:stedsnr" v="874449" />
	</node>
	<node id="-19693" lat="58.7833722182" lon="5.63326944635">
		<tag k="name" v="Holen" />
		<tag k="place" v="farm" />
		<tag k="ssr:stedsnr" v="874444" />
	</node>
	<node id="-19180" lat="58.7628305556" lon="5.50846943925">
		<tag k="name" v="Revhaug" />
		<tag k="place" v="locality" />
		<tag k="ssr:stedsnr" v="266753" />
	</node>
	<node id="-19690" lat="58.7710694426" lon="5.6051916673">
		<tag k="name" v="Rogaland Stamsedgard" />
		<tag k="place" v="farm" />
		<tag k="ssr:stedsnr" v="873133" />
	</node>
	<node id="-19177" lat="58.7702138866" lon="5.65627500018">
		<tag k="name" v="Kjellebakken" />
		<tag k="place" v="farm" />
		<tag k="ssr:stedsnr" v="266483" />
	</node>
	<node id="-19176" lat="58.7719750024" lon="5.65313611165">
		<tag k="name" v="Grønhaug" />
		<tag k="place" v="locality" />
		<tag k="ssr:stedsnr" v="266482" />
	</node>
	<node id="-19687" lat="58.8059638873" lon="5.60500833263">
		<tag k="name" v="Voll" />
		<tag k="place" v="hamlet" />
		<tag k="ssr:stedsnr" v="851931" />
	</node>
	<node id="-19174" lat="58.7742333295" lon="5.62936388722">
		<tag k="name" v="Kleppe" />
		<tag k="place" v="village" />
		<tag k="ssr:stedsnr" v="266449" />
	</node>
	<node id="-19685" lat="58.8179412047" lon="5.62908608176">
		<tag k="fixme" v="consider place=hamlet" />
		<tag k="name" v="Sveinsvoll" />
		<tag k="place" v="farm" />
		<tag k="ssr:stedsnr" v="850882" />
	</node>
	<node id="-19684" lat="58.8178832001" lon="5.56875545342">
		<tag k="fixme" v="consider place=hamlet" />
		<tag k="name" v="Sele" />
		<tag k="place" v="farm" />
		<tag k="ssr:stedsnr" v="850879" />
	</node>
	<node id="-19683" lat="58.7207750029" lon="5.5577611126">
		<tag k="alt_name" v="Breiholen" />
		<tag k="name" v="Breidholen" />
		<tag k="place" v="farm" />
		<tag k="ssr:stedsnr" v="850868" />
	</node>
	<node id="-19682" lat="58.7291450035" lon="5.52883445897">
		<tag k="fixme" v="consider place=hamlet" />
		<tag k="name" v="Orre" />
		<tag k="place" v="farm" />
		<tag k="ssr:stedsnr" v="850848" />
	</node>
	<node id="-19681" lat="58.7745388851" lon="5.59168055237">
		<tag k="alt_name" v="Skådeheia" />
		<tag k="name" v="Skotaheia" />
		<tag k="old_name" v="Skotahei" />
		<tag k="place" v="farm" />
		<tag k="ssr:stedsnr" v="850844" />
	</node>
	<node id="-19680" lat="58.7727916688" lon="5.64527777454">
		<tag k="alt_name" v="Riskjell;Ris-kjell" />
		<tag k="name" v="Risjell" />
		<tag k="place" v="farm" />
		<tag k="ssr:stedsnr" v="850817" />
	</node>
	<node id="-19679" lat="58.6996499974" lon="5.57929166957">
		<tag k="alt_name" v="Salte, nedra" />
		<tag k="name" v="Nedra Salte" />
		<tag k="place" v="farm" />
		<tag k="ssr:stedsnr" v="850790" />
	</node>
	<node id="-19677" lat="58.7975468458" lon="5.71750706006">
		<tag k="fixme" v="consider place=hamlet" />
		<tag k="name" v="Orstad" />
		<tag k="place" v="farm" />
		<tag k="ssr:stedsnr" v="851833" />
	</node>
	<node id="-19676" lat="58.7889888849" lon="5.66856667117">
		<tag k="name" v="Øksnavadmarkene" />
		<tag k="place" v="farm" />
		<tag k="ssr:stedsnr" v="851832" />
	</node>
	<node id="-19163" lat="58.8077583378" lon="5.64188888791">
		<tag k="name" v="Grønnefeden" />
		<tag k="place" v="farm" />
		<tag k="ssr:stedsnr" v="85357" />
	</node>
	<node id="-19162" lat="58.7942638932" lon="5.68680833578">
		<tag k="name" v="Øksnavad" />
		<tag k="place" v="farm" />
		<tag k="ssr:stedsnr" v="84720" />
	</node>
	<node id="-19161" lat="58.7919055601" lon="5.66691111276">
		<tag k="name" v="Øksnavad" />
		<tag k="place" v="farm" />
		<tag k="ssr:stedsnr" v="84712" />
	</node>
	<node id="-19160" lat="58.7917055559" lon="5.69397778006">
		<tag k="name" v="Øksnavad" />
		<tag k="place" v="farm" />
		<tag k="ssr:stedsnr" v="84711" />
	</node>
	<node id="-19671" lat="58.784958331" lon="5.60993333721">
		<tag k="fixme" v="consider place=suburb, village or hamlet" />
		<tag k="name" v="Verdalen" />
		<tag k="place" v="quarter" />
		<tag k="ssr:stedsnr" v="813857" />
	</node>
	<node id="-19669" lat="58.7705972238" lon="5.6137972138">
		<tag k="name" v="Klepp" />
		<tag k="place" v="farm" />
		<tag k="ssr:stedsnr" v="813414" />
	</node>
	<node id="-19156" lat="58.8065916643" lon="5.55853611755">
		<tag k="name" v="Sele" />
		<tag k="place" v="farm" />
		<tag k="ssr:stedsnr" v="244943" />
	</node>
	<node id="-19155" lat="58.8038272269" lon="5.65633786817">
		<tag k="alt_name" v="Stangaland" />
		<tag k="fixme" v="consider place=hamlet" />
		<tag k="name" v="Stangeland" />
		<tag k="place" v="farm" />
		<tag k="ssr:stedsnr" v="244932" />
	</node>
	<node id="-19154" lat="58.7278944406" lon="5.58490000048">
		<tag k="name" v="Håholen" />
		<tag k="place" v="farm" />
		<tag k="ssr:stedsnr" v="243849" />
	</node>
	<node id="-19665" lat="58.7540333331" lon="5.63677223023">
		<tag k="name" v="Krosshaug" />
		<tag k="place" v="farm" />
		<tag k="ssr:stedsnr" v="813378" />
	</node>
	<node id="-19664" lat="58.7445111156" lon="5.59803611536">
		<tag k="name" v="Langebakken" />
		<tag k="place" v="farm" />
		<tag k="ssr:stedsnr" v="813084" />
	</node>
	<node id="-19153" lat="58.7355472258" lon="5.60060832906">
		<tag k="name" v="Refsnes" />
		<tag k="place" v="farm" />
		<tag k="ssr:stedsnr" v="243847" />
	</node>
	<node id="-19150" lat="58.7408250034" lon="5.6296166579">
		<tag k="alt_name" v="Hesthaug" />
		<tag k="name" v="Hesthaugen" />
		<tag k="place" v="farm" />
		<tag k="ssr:stedsnr" v="243886" />
	</node>
	<node id="-19661" lat="58.7662944407" lon="5.50593611846">
		<tag k="name" v="Veten" />
		<tag k="place" v="locality" />
		<tag k="ssr:stedsnr" v="812783" />
	</node>
	<node id="-19147" lat="58.7045055546" lon="5.55202777411">
		<tag k="alt_name" v="Åse midtre" />
		<tag k="name" v="Midtra Åse" />
		<tag k="place" v="farm" />
		<tag k="ssr:stedsnr" v="239307" />
	</node>
	<node id="-19657" lat="58.7670722212" lon="5.57587500858">
		<tag k="name" v="Torsheim" />
		<tag k="place" v="farm" />
		<tag k="ssr:stedsnr" v="812136" />
	</node>
	<node id="-19178" lat="58.7938000035" lon="5.69739999157">
		<tag k="name" v="Øksnavad" />
		<tag k="place" v="farm" />
		<tag k="ssr:stedsnr" v="266692" />
	</node>
	<node id="-19141" lat="58.7879944489" lon="5.7081972302">
		<tag k="name" v="Øksnevadlia" />
		<tag k="place" v="quarter" />
		<tag k="ssr:stedsnr" v="24245" />
	</node>
	<node id="-19140" lat="58.7907722207" lon="5.68724443817">
		<tag k="name" v="Øksnavad" />
		<tag k="place" v="farm" />
		<tag k="ssr:stedsnr" v="23730" />
	</node>
	<node id="-19651" lat="58.8012055593" lon="5.71048610826">
		<tag k="name" v="Vaglemoen" />
		<tag k="place" v="farm" />
		<tag k="ssr:stedsnr" v="790936" />
	</node>
	<node id="-19649" lat="58.7761562795" lon="5.53898577297">
		<tag k="fixme" v="consider place=hamlet" />
		<tag k="name" v="Hodne" />
		<tag k="place" v="farm" />
		<tag k="ssr:stedsnr" v="790847" />
	</node>
	<node id="-19648" lat="58.8083000021" lon="5.57947499558">
		<tag k="name" v="Gåsa" />
		<tag k="place" v="farm" />
		<tag k="ssr:stedsnr" v="789882" />
	</node>
	<node id="-19647" lat="58.7547802541" lon="5.63023921954">
		<tag k="fixme" v="consider place=hamlet" />
		<tag k="name" v="Hauge" />
		<tag k="place" v="farm" />
		<tag k="ssr:stedsnr" v="789862" />
	</node>
	<node id="-19646" lat="58.7292916688" lon="5.56042499878">
		<tag k="alt_name" v="Volden" />
		<tag k="name" v="Vollen" />
		<tag k="place" v="farm" />
		<tag k="ssr:stedsnr" v="789859" />
	</node>
	<node id="-19645" lat="58.7333888849" lon="5.62301110377">
		<tag k="name" v="Mærbakken" />
		<tag k="place" v="farm" />
		<tag k="ssr:stedsnr" v="789854" />
	</node>
	<node id="-19644" lat="58.7463498305" lon="5.56608906729">
		<tag k="alt_name" v="Horpestad, nedra;Horpestad Nedre" />
		<tag k="fixme" v="consider place=hamlet" />
		<tag k="name" v="Nedra Horpestad" />
		<tag k="place" v="farm" />
		<tag k="ssr:stedsnr" v="788891" />
	</node>
	<node id="-19643" lat="58.7411527737" lon="5.56233055038">
		<tag k="name" v="Marka" />
		<tag k="place" v="farm" />
		<tag k="ssr:stedsnr" v="788879" />
	</node>
	<node id="-19641" lat="58.7047722266" lon="5.60872500659">
		<tag k="name" v="Jodå" />
		<tag k="place" v="farm" />
		<tag k="ssr:stedsnr" v="787327" />
	</node>
	<node id="-19634" lat="58.7700250007" lon="5.64956110718">
		<tag k="name" v="Vallarheia" />
		<tag k="place" v="farm" />
		<tag k="ssr:stedsnr" v="752427" />
	</node>
	<node id="-19152" lat="58.7360666693" lon="5.62648055327">
		<tag k="alt_name" v="Kvernholen" />
		<tag k="name" v="Ekra" />
		<tag k="place" v="farm" />
		<tag k="ssr:stedsnr" v="243846" />
	</node>
	<node id="-19656" lat="58.7660527819" lon="5.5942750011">
		<tag k="name" v="Haugane" />
		<tag k="place" v="farm" />
		<tag k="ssr:stedsnr" v="812123" />
	</node>
	<node id="-19629" lat="58.747186107" lon="5.59556666223">
		<tag k="name" v="Lynghei" />
		<tag k="place" v="farm" />
		<tag k="ssr:stedsnr" v="752085" />
	</node>
	<node id="-19626" lat="58.812119439" lon="5.57718832372">
		<tag k="name" v="Fiskarberget" />
		<tag k="place" v="farm" />
		<tag k="ssr:stedsnr" v="752064" />
	</node>
	<node id="-19620" lat="58.7804805599" lon="5.65322499793">
		<tag k="name" v="Hattaland" />
		<tag k="place" v="farm" />
		<tag k="ssr:stedsnr" v="633327" />
	</node>
	<node id="-19615" lat="58.7628805537" lon="5.57138889698">
		<tag k="alt_name" v="Ægerhaug" />
		<tag k="name" v="Ægrehaug" />
		<tag k="place" v="locality" />
		<tag k="ssr:stedsnr" v="630128" />
	</node>
	<node id="-19611" lat="58.8040277752" lon="5.55647222815">
		<tag k="name" v="Hølen" />
		<tag k="place" v="farm" />
		<tag k="ssr:stedsnr" v="607929" />
	</node>
	<node id="-19610" lat="58.750355335" lon="5.65449732876">
		<tag k="fixme" v="consider place=hamlet" />
		<tag k="name" v="Tu" />
		<tag k="place" v="farm" />
		<tag k="ssr:stedsnr" v="606901" />
	</node>
	<node id="-19609" lat="58.737827782" lon="5.55863055243">
		<tag k="name" v="Nygard" />
		<tag k="place" v="farm" />
		<tag k="ssr:stedsnr" v="606884" />
	</node>
	<node id="-19608" lat="58.730661113" lon="5.5945694369">
		<tag k="name" v="Flatholen" />
		<tag k="place" v="farm" />
		<tag k="ssr:stedsnr" v="603299" />
	</node>
	<node id="-19607" lat="58.7213361098" lon="5.60225556102">
		<tag k="name" v="Nygård" />
		<tag k="place" v="farm" />
		<tag k="ssr:stedsnr" v="603236" />
	</node>
	<node id="-19604" lat="58.8048472238" lon="5.67734999557">
		<tag k="name" v="Øksna bruk" />
		<tag k="place" v="farm" />
		<tag k="ssr:stedsnr" v="570779" />
	</node>
	<node id="-19602" lat="58.7610166709" lon="5.6387222289">
		<tag k="name" v="Holmaholen" />
		<tag k="place" v="farm" />
		<tag k="ssr:stedsnr" v="569501" />
	</node>
	<node id="-19601" lat="58.7649000015" lon="5.66020833876">
		<tag k="name" v="Hellevollen" />
		<tag k="place" v="farm" />
		<tag k="ssr:stedsnr" v="569498" />
	</node>
	<node id="-19599" lat="58.7697966776" lon="5.61732215109">
		<tag k="name" v="Sørbø" />
		<tag k="place" v="hamlet" />
		<tag k="ssr:stedsnr" v="569491" />
	</node>
	<node id="-19597" lat="58.7548833331" lon="5.63921944735">
		<tag k="name" v="Dysjane" />
		<tag k="place" v="locality" />
		<tag k="ssr:stedsnr" v="569455" />
	</node>
	<node id="-19596" lat="58.7708305565" lon="5.67205277872">
		<tag k="name" v="Revholen" />
		<tag k="place" v="farm" />
		<tag k="ssr:stedsnr" v="569424" />
	</node>
	<node id="-19593" lat="58.7550055569" lon="5.58189999184">
		<tag k="name" v="Rinnane" />
		<tag k="place" v="farm" />
		<tag k="ssr:stedsnr" v="569128" />
	</node>
	<node id="-19591" lat="58.743322226" lon="5.56026944627">
		<tag k="name" v="Kringlemyr" />
		<tag k="place" v="farm" />
		<tag k="ssr:stedsnr" v="569114" />
	</node>
	<node id="-19588" lat="58.8115527786" lon="5.60595000019">
		<tag k="name" v="Trånhaug" />
		<tag k="place" v="farm" />
		<tag k="ssr:stedsnr" v="569092" />
	</node>
	<node id="-19587" lat="58.8230666628" lon="5.55480277881">
		<tag k="alt_name" v="Rindå" />
		<tag k="name" v="Rinda" />
		<tag k="old_name" v="Rindi" />
		<tag k="place" v="farm" />
		<tag k="ssr:stedsnr" v="547915" />
	</node>
	<node id="-19585" lat="58.748124997" lon="5.6277027837">
		<tag k="name" v="Hauge" />
		<tag k="place" v="farm" />
		<tag k="ssr:stedsnr" v="546894" />
	</node>
	<node id="-19584" lat="58.7444472194" lon="5.63369722984">
		<tag k="name" v="Kåsen" />
		<tag k="place" v="farm" />
		<tag k="ssr:stedsnr" v="546885" />
	</node>
	<node id="-19582" lat="58.7082335251" lon="5.5382739052">
		<tag k="fixme" v="consider place=hamlet" />
		<tag k="name" v="Skeie" />
		<tag k="place" v="farm" />
		<tag k="ssr:stedsnr" v="546818" />
	</node>
	<node id="-19580" lat="58.765143664" lon="5.62109887097">
		<tag k="fixme" v="consider place=hamlet" />
		<tag k="name" v="Nord-Braut" />
		<tag k="place" v="farm" />
		<tag k="ssr:stedsnr" v="546802" />
	</node>
	<node id="-19578" lat="58.7643777781" lon="5.65384443684">
		<tag k="name" v="Anda" />
		<tag k="place" v="farm" />
		<tag k="ssr:stedsnr" v="546786" />
	</node>
	<node id="-19577" lat="58.7125666673" lon="5.61910832519">
		<tag k="name" v="Neset" />
		<tag k="place" v="farm" />
		<tag k="ssr:stedsnr" v="544478" />
	</node>
	<node id="-19576" lat="58.7249444435" lon="5.53629999567">
		<tag k="name" v="Stålhaug" />
		<tag k="place" v="farm" />
		<tag k="ssr:stedsnr" v="543288" />
	</node>
	<node id="-19574" lat="58.7528305544" lon="5.65184721713">
		<tag k="name" v="Tu" />
		<tag k="place" v="farm" />
		<tag k="ssr:stedsnr" v="426235" />
	</node>
	<node id="-19573" lat="58.7036236139" lon="5.58916348714">
		<tag k="alt_name" v="Salte, midtra;Salte midtre" />
		<tag k="fixme" v="consider place=hamlet" />
		<tag k="name" v="Midtra Salte" />
		<tag k="place" v="farm" />
		<tag k="ssr:stedsnr" v="425797" />
	</node>
	<node id="-19571" lat="58.7235166703" lon="5.56837499713">
		<tag k="name" v="Eigeberget" />
		<tag k="place" v="farm" />
		<tag k="ssr:stedsnr" v="425874" />
	</node>
	<node id="-19570" lat="58.7809472253" lon="5.58507222401">
		<tag k="alt_name" v="Bore, vestre" />
		<tag k="name" v="Vestre Bore" />
		<tag k="place" v="farm" />
		<tag k="ssr:stedsnr" v="425852" />
	</node>
	<node id="-19569" lat="58.6977777736" lon="5.56267500777">
		<tag k="alt_name" v="Åse søndre" />
		<tag k="name" v="Søra Åse" />
		<tag k="place" v="farm" />
		<tag k="ssr:stedsnr" v="423329" />
	</node>
	<node id="-19557" lat="58.7932944421" lon="5.69347777531">
		<tag k="name" v="Øksnavad" />
		<tag k="place" v="farm" />
		<tag k="ssr:stedsnr" v="387695" />
	</node>
	<node id="-19552" lat="58.7992541737" lon="5.59797146653">
		<tag k="fixme" v="consider place=hamlet" />
		<tag k="name" v="Hole" />
		<tag k="place" v="farm" />
		<tag k="ssr:stedsnr" v="365933" />
	</node>
	<node id="-19551" lat="58.7852055522" lon="5.59931111202">
		<tag k="name" v="Verdalen" />
		<tag k="place" v="farm" />
		<tag k="ssr:stedsnr" v="365922" />
	</node>
	<node id="-19550" lat="58.8184034897" lon="5.60813188046">
		<tag k="alt_name" v="Skasheim;Skaseim" />
		<tag k="fixme" v="consider place=hamlet" />
		<tag k="name" v="Skas" />
		<tag k="place" v="farm" />
		<tag k="ssr:stedsnr" v="365903" />
	</node>
	<node id="-19549" lat="58.8166888928" lon="5.58639166152">
		<tag k="name" v="Timpelen" />
		<tag k="place" v="farm" />
		<tag k="ssr:stedsnr" v="365902" />
	</node>
	<node id="-19547" lat="58.7886621205" lon="5.58099190679">
		<tag k="name" v="Bore" />
		<tag k="place" v="hamlet" />
		<tag k="ssr:stedsnr" v="363063" />
	</node>
	<node id="-19546" lat="58.7220000033" lon="5.58997499342">
		<tag k="name" v="Torvholen" />
		<tag k="place" v="farm" />
		<tag k="ssr:stedsnr" v="361289" />
	</node>
	<node id="-19542" lat="58.7013555556" lon="5.61624167142">
		<tag k="name" v="Jonsheia" />
		<tag k="place" v="farm" />
		<tag k="ssr:stedsnr" v="343427" />
	</node>
	<node id="-19539" lat="58.7789694481" lon="5.68533332509">
		<tag k="amenity" v="hospital" />
		<tag k="name" v="Engelsvoll psykiatriske sjukeheim" />
		<tag k="ssr:stedsnr" v="328232" />
	</node>
	<node id="-19537" lat="58.8150611151" lon="5.55776665841">
		<tag k="name" v="Vaulaberget" />
		<tag k="place" v="farm" />
		<tag k="ssr:stedsnr" v="327082" />
	</node>
	<node id="-19534" lat="58.8089666632" lon="5.58899722313">
		<tag k="name" v="Gjesholen" />
		<tag k="place" v="farm" />
		<tag k="ssr:stedsnr" v="304923" />
	</node>
	<node id="-19532" lat="58.7480361076" lon="5.59069999289">
		<tag k="alt_name" v="Storholen" />
		<tag k="name" v="Storeholen" />
		<tag k="place" v="farm" />
		<tag k="ssr:stedsnr" v="304879" />
	</node>
	<node id="-19530" lat="58.7392944438" lon="5.59632778142">
		<tag k="name" v="Arhaug" />
		<tag k="place" v="farm" />
		<tag k="ssr:stedsnr" v="303884" />
	</node>
	<node id="-19526" lat="58.7018611126" lon="5.55534722143">
		<tag k="fixme" v="consider place=hamlet" />
		<tag k="name" v="Åse" />
		<tag k="place" v="village" />
		<tag k="ssr:stedsnr" v="206531" />
	</node>
	<node id="-19525" lat="58.7615611088" lon="5.624119439">
		<tag k="name" v="Lynghaug" />
		<tag k="place" v="locality" />
		<tag k="ssr:stedsnr" v="206432" />
	</node>
	<node id="-19523" lat="58.7526222249" lon="5.65472778364">
		<tag k="name" v="Revhaug" />
		<tag k="place" v="farm" />
		<tag k="ssr:stedsnr" v="206396" />
	</node>
	<node id="-19518" lat="58.7643694419" lon="5.57413056035">
		<tag k="name" v="Østvoll" />
		<tag k="place" v="farm" />
		<tag k="ssr:stedsnr" v="206114" />
	</node>
	<node id="-19517" lat="58.7326972214" lon="5.58989166338">
		<tag k="name" v="Flåten" />
		<tag k="place" v="farm" />
		<tag k="ssr:stedsnr" v="206109" />
	</node>
	<node id="-19515" lat="58.8092250004" lon="5.59550278424">
		<tag k="name" v="Tranemyr" />
		<tag k="place" v="farm" />
		<tag k="ssr:stedsnr" v="206082" />
	</node>
	<node id="-19513" lat="58.8023118192" lon="5.58832725958">
		<tag k="fixme" v="consider place=hamlet" />
		<tag k="name" v="Voll" />
		<tag k="place" v="farm" />
		<tag k="ssr:stedsnr" v="183933" />
	</node>
	<node id="-19511" lat="58.7871638864" lon="5.66719721707">
		<tag k="name" v="Liane" />
		<tag k="place" v="farm" />
		<tag k="ssr:stedsnr" v="183840" />
	</node>
	<node id="-19510" lat="58.751516665" lon="5.64094167004">
		<tag k="name" v="Tu" />
		<tag k="place" v="farm" />
		<tag k="ssr:stedsnr" v="183220" />
	</node>
	<node id="-19509" lat="58.744102774" lon="5.6491249965">
		<tag k="name" v="Tuholen" />
		<tag k="old_name" v="Tu" />
		<tag k="place" v="farm" />
		<tag k="ssr:stedsnr" v="182893" />
	</node>
	<node id="-19508" lat="58.7400402828" lon="5.61398468566">
		<tag k="fixme" v="consider place=hamlet" />
		<tag k="name" v="Tjøtta" />
		<tag k="place" v="farm" />
		<tag k="ssr:stedsnr" v="182892" />
	</node>
	<node id="-19507" lat="58.7243517484" lon="5.5981242812">
		<tag k="fixme" v="consider place=hamlet" />
		<tag k="name" v="Grødaland" />
		<tag k="old_name" v="Grødeland" />
		<tag k="place" v="farm" />
		<tag k="ssr:stedsnr" v="182864" />
	</node>
	<node id="-19506" lat="58.7275543979" lon="5.55117701162">
		<tag k="fixme" v="consider place=hamlet" />
		<tag k="name" v="Erga" />
		<tag k="place" v="farm" />
		<tag k="ssr:stedsnr" v="182830" />
	</node>
	<node id="-19505" lat="58.7753879474" lon="5.66253348456">
		<tag k="fixme" v="consider place=hamlet" />
		<tag k="name" v="Anda" />
		<tag k="place" v="farm" />
		<tag k="ssr:stedsnr" v="182821" />
	</node>
	<node id="-19503" lat="58.7144694471" lon="5.6097833287">
		<tag k="name" v="Kjellsholen" />
		<tag k="old_name" v="Kjelsholen" />
		<tag k="place" v="farm" />
		<tag k="ssr:stedsnr" v="182806" />
	</node>
	<node id="-19502" lat="58.7625904662" lon="5.66553432661">
		<tag k="fixme" v="consider place=hamlet" />
		<tag k="name" v="Laland" />
		<tag k="place" v="farm" />
		<tag k="ssr:stedsnr" v="182804" />
	</node>
	<node id="-19501" lat="58.704677775" lon="5.58695000858">
		<tag k="name" v="Haugen" />
		<tag k="place" v="farm" />
		<tag k="ssr:stedsnr" v="182771" />
	</node>
	<node id="-19496" lat="58.7219666672" lon="5.59408888677">
		<tag k="name" v="Grødeland" />
		<tag k="place" v="farm" />
		<tag k="ssr:stedsnr" v="300269" />
	</node>
	<node id="-19494" lat="58.7690166658" lon="5.5225222147">
		<tag k="name" v="Indre Reve" />
		<tag k="place" v="farm" />
		<tag k="ssr:stedsnr" v="145748" />
	</node>
	<node id="-19490" lat="58.8275583374" lon="5.56279445098">
		<tag k="name" v="Svinavollen" />
		<tag k="place" v="farm" />
		<tag k="ssr:stedsnr" v="145370" />
	</node>
	<node id="-19488" lat="58.7942500033" lon="5.61008889092">
		<tag k="name" v="Åna" />
		<tag k="place" v="farm" />
		<tag k="ssr:stedsnr" v="145249" />
	</node>
	<node id="-19484" lat="58.7404444408" lon="5.55837222583">
		<tag k="name" v="Gjeishaug" />
		<tag k="place" v="farm" />
		<tag k="ssr:stedsnr" v="145105" />
	</node>
	<node id="-19483" lat="58.7409194469" lon="5.59500555349">
		<tag k="name" v="Venneholen" />
		<tag k="place" v="farm" />
		<tag k="ssr:stedsnr" v="145103" />
	</node>
	<node id="-19164" lat="58.7727999963" lon="5.67728332574">
		<tag k="name" v="Klepp" />
		<tag k="place" v="village" />
		<tag k="ssr:stedsnr" v="85862" />
	</node>
	<node id="-19473" lat="58.8076177057" lon="5.61249804735">
		<tag k="fixme" v="consider place=hamlet" />
		<tag k="name" v="Vasshus" />
		<tag k="place" v="farm" />
		<tag k="ssr:stedsnr" v="122905" />
	</node>
	<node id="-19471" lat="58.7741416684" lon="5.60031944395">
		<tag k="alt_name" v="Skjelbred" />
		<tag k="name" v="Skjelbreid" />
		<tag k="place" v="farm" />
		<tag k="ssr:stedsnr" v="122829" />
	</node>
	<node id="-19470" lat="58.7542739129" lon="5.56831628578">
		<tag k="alt_name" v="Katteland" />
		<tag k="fixme" v="consider place=hamlet" />
		<tag k="name" v="Kattaland" />
		<tag k="place" v="farm" />
		<tag k="ssr:stedsnr" v="122819" />
	</node>
	<node id="-19469" lat="58.7671781432" lon="5.59336472477">
		<tag k="fixme" v="consider place=hamlet" />
		<tag k="name" v="Friestad" />
		<tag k="place" v="farm" />
		<tag k="ssr:stedsnr" v="122811" />
	</node>
	<node id="-19467" lat="58.7342333344" lon="5.54953888675">
		<tag k="alt_name" v="Horpestad, nedra;Nedre Horpestad" />
		<tag k="name" v="Nedra Horpestad" />
		<tag k="place" v="farm" />
		<tag k="ssr:stedsnr" v="121842" />
	</node>
	<node id="-19692" lat="58.7607361123" lon="5.62678611246">
		<tag k="name" v="Erabakkhagen" />
		<tag k="place" v="locality" />
		<tag k="ssr:stedsnr" v="873476" />
	</node>
	<node id="-19465" lat="58.7050805559" lon="5.55725278062">
		<tag k="alt_name" v="Oddebakken" />
		<tag k="name" v="Oddabakken" />
		<tag k="place" v="farm" />
		<tag k="ssr:stedsnr" v="121837" />
	</node>
	<node id="-19464" lat="58.6997111136" lon="5.5440361053">
		<tag k="name" v="Skeie" />
		<tag k="place" v="farm" />
		<tag k="ssr:stedsnr" v="121834" />
	</node>
	<node id="-19461" lat="58.6998305531" lon="5.57998611299">
		<tag k="name" v="Slettene" />
		<tag k="place" v="farm" />
		<tag k="ssr:stedsnr" v="118285" />
	</node>
	<node id="-19460" lat="58.8001361141" lon="5.67007778124">
		<tag k="alt_name" v="Rogaland jordbruksskule" />
		<tag k="amenity" v="school" />
		<tag k="name" v="Øksnevad vidaregåande skole" />
		<tag k="ssr:stedsnr" v="105510" />
	</node>
	<node id="-19459" lat="58.7758632827" lon="5.53773349451">
		<tag k="name" v="Kjerringa" />
		<tag k="place" v="farm" />
		<tag k="ssr:stedsnr" v="100839" />
	</node>
	<node id="-19457" lat="58.7676999999" lon="5.50857222282">
		<tag k="name" v="Resedosane" />
		<tag k="place" v="locality" />
		<tag k="ssr:stedsnr" v="84781" />
	</node>
</osm>
