<?xml version="1.0" encoding="UTF-8"?>
<<<<<<< HEAD
<osm version="0.6" generator="osmapis">
	<node lat="58.73254999617283" lon="5.513641665451223" id="-2">
		<tag k="alt_name" v="Skårtangen" />
		<tag k="name" v="Skortangen" />
		<tag k="natural" v="cape" />
		<tag k="ssr:stedsnr" v="845" />
	</node>
	<node lat="58.72677221944304" lon="5.518697227060179" id="-17">
		<tag k="name" v="Orresanden" />
		<tag k="natural" v="beach" />
		<tag k="ssr:stedsnr" v="57203" />
	</node>
	<node lat="58.75579722171413" lon="5.493283332953183" id="-25">
		<tag k="alt_name" v="Rebungen" />
		<tag k="name" v="Revtangen" />
		<tag k="natural" v="cape" />
		<tag k="ssr:stedsnr" v="61816" />
	</node>
	<node lat="58.7671861111452" lon="5.454119446516191" id="-28">
		<tag k="name" v="Klausgrunnen" />
		<tag k="natural" v="shoal" />
		<tag k="place" v="locality" />
		<tag k="ssr:stedsnr" v="65918" />
	</node>
	<node lat="58.706277779178286" lon="5.523041674363041" id="-29">
		<tag k="name" v="Viktangen" />
		<tag k="natural" v="cape" />
		<tag k="ssr:stedsnr" v="242818" />
	</node>
	<node lat="58.69396389070319" lon="5.545436118504976" id="-31">
		<tag k="name" v="Klopsteinen" />
		<tag k="natural" v="cape" />
		<tag k="old_name" v="Kloppsteinen" />
		<tag k="ssr:stedsnr" v="243793" />
	</node>
	<node lat="58.76435277456837" lon="5.501783333300399" id="-57">
		<tag k="name" v="Skarstein" />
		<tag k="natural" v="cape" />
		<tag k="ssr:stedsnr" v="145726" />
	</node>
	<node lat="58.708494442481424" lon="5.519969449249989" id="-59">
		<tag k="alt_name" v="Haugaura" />
		<tag k="name" v="Haugaurda" />
		<tag k="natural" v="beach" />
		<tag k="ssr:stedsnr" v="146908" />
	</node>
	<node lat="58.71094444244531" lon="5.518136112958062" id="-62">
		<tag k="name" v="Haugatangen" />
		<tag k="natural" v="cape" />
		<tag k="ssr:stedsnr" v="182808" />
	</node>
	<node lat="58.70753888719233" lon="5.5228472293018" id="-77">
		<tag k="alt_name" v="Bekkarvik" />
		<tag k="name" v="Bekkjarvika" />
		<tag k="natural" v="bay" />
		<tag k="ssr:stedsnr" v="267926" />
	</node>
	<node lat="58.709424998338136" lon="5.512447216916569" id="-82">
		<tag k="name" v="Tasasteinen" />
		<tag k="place" v="locality" />
		<tag k="seamark:type" v="rock" />
		<tag k="ssr:stedsnr" v="268930" />
	</node>
	<node lat="58.7397777742875" lon="5.554036119256179" id="-89">
		<tag k="name" v="Fænene" />
=======
<osm generator="osmapis" version="0.6">
	<node id="-21375" lat="58.8352694469" lon="5.50163611806">
		<tag k="name" v="Hausen" />
		<tag k="place" v="locality" />
		<tag k="seamark:type" v="rock" />
		<tag k="ssr:stedsnr" v="585834" />
	</node>
	<node id="-21013" lat="58.6930972192" lon="5.54664722019">
		<tag k="name" v="Kleppstemmen" />
		<tag k="natural" v="beach" />
		<tag k="place" v="locality" />
		<tag k="ssr:stedsnr" v="361363" />
	</node>
	<node id="-21115" lat="58.6998861094" lon="5.53335000542">
		<tag k="alt_name" v="Sylterura" />
		<tag k="name" v="Sylterurda" />
		<tag k="natural" v="beach" />
		<tag k="place" v="locality" />
		<tag k="ssr:stedsnr" v="630913" />
	</node>
	<node id="-21242" lat="58.8212333288" lon="5.50304443999">
		<tag k="fixme" v="consider seamark:type=rock or natural=shoal" />
		<tag k="name" v="Skarvaskjeret" />
		<tag k="old_name" v="Skarvaskjer" />
		<tag k="place" v="islet" />
		<tag k="ssr:stedsnr" v="122875" />
	</node>
	<node id="-21119" lat="58.7029527772" lon="5.5318999955">
		<tag k="name" v="Skeievika" />
		<tag k="natural" v="bay" />
		<tag k="ssr:stedsnr" v="728833" />
	</node>
	<node id="-21112" lat="58.8129888924" lon="5.54571388666">
		<tag k="name" v="Buasanden" />
>>>>>>> e1d4bc35ff8a6074a6f2e91616a996b547c36f15
		<tag k="natural" v="beach" />
		<tag k="ssr:stedsnr" v="266109" />
	</node>
<<<<<<< HEAD
	<node lat="58.82963055761217" lon="5.549402779277395" id="-94">
		<tag k="name" v="Båtmannsvika" />
		<tag k="natural" v="bay" />
		<tag k="ssr:stedsnr" v="266392" />
	</node>
	<node lat="58.829671866423894" lon="5.510058785696107" id="-106">
		<tag k="name" v="Steingrunnen" />
=======
	<node id="-21110" lat="58.7774638905" lon="5.5288999918">
		<tag k="name" v="Honstø" />
		<tag k="natural" v="cape" />
		<tag k="ssr:stedsnr" v="630103" />
	</node>
	<node id="-21097" lat="58.8265722207" lon="5.50974166962">
		<tag k="fixme" v="consider seamark:type=rock or natural=shoal" />
		<tag k="name" v="Floskjeret" />
		<tag k="place" v="islet" />
		<tag k="ssr:stedsnr" v="706859" />
	</node>
	<node id="-21108" lat="58.7551004683" lon="5.47382622978">
		<tag k="name" v="Videgrunnen" />
>>>>>>> e1d4bc35ff8a6074a6f2e91616a996b547c36f15
		<tag k="natural" v="shoal" />
		<tag k="place" v="locality" />
		<tag k="ssr:stedsnr" v="464874" />
	</node>
<<<<<<< HEAD
	<node lat="58.69752777805456" lon="5.520925002615251" id="-114">
		<tag k="name" v="Skeiefluna" />
		<tag k="place" v="locality" />
		<tag k="seamark:type" v="rock" />
		<tag k="ssr:stedsnr" v="329922" />
	</node>
	<node lat="58.75973055201684" lon="5.4842222240377305" id="-116">
		<tag k="name" v="Bollen" />
=======
	<node id="-21233" lat="58.6979833375" lon="5.54061388296">
		<tag k="name" v="Skeiestranda" />
		<tag k="natural" v="beach" />
>>>>>>> e1d4bc35ff8a6074a6f2e91616a996b547c36f15
		<tag k="place" v="locality" />
		<tag k="seamark:type" v="rock" />
		<tag k="ssr:stedsnr" v="342828" />
	</node>
<<<<<<< HEAD
	<node lat="58.704786110164754" lon="5.52738611388936" id="-126">
		<tag k="name" v="Vikevik" />
		<tag k="natural" v="bay" />
		<tag k="ssr:stedsnr" v="482324" />
	</node>
	<node lat="58.778472223770315" lon="5.530522221196049" id="-127">
		<tag k="name" v="Moldvika" />
		<tag k="natural" v="bay" />
		<tag k="ssr:stedsnr" v="387103" />
	</node>
	<node lat="58.7159472184628" lon="5.5199861084369175" id="-131">
		<tag k="alt_name" v="Jærtangen" />
		<tag k="name" v="Gjerdstangen" />
		<tag k="natural" v="cape" />
		<tag k="old_name" v="Jærstangen" />
		<tag k="ssr:stedsnr" v="485800" />
	</node>
	<node lat="58.739861112285894" lon="5.512627780422831" id="-132">
		<tag k="name" v="Orresanden" />
		<tag k="natural" v="beach" />
		<tag k="ssr:stedsnr" v="485899" />
	</node>
	<node lat="58.70081667040632" lon="5.531874993252803" id="-168">
=======
	<node id="-21356" lat="58.7450027763" lon="5.50218055091">
		<tag k="name" v="Revesanden" />
		<tag k="natural" v="beach" />
		<tag k="old_name" v="Revestranda" />
		<tag k="place" v="locality" />
		<tag k="ssr:stedsnr" v="547852" />
	</node>
	<node id="-21202" lat="58.7267722194" lon="5.51869722706">
		<tag k="name" v="Orresanden" />
		<tag k="natural" v="beach" />
		<tag k="place" v="locality" />
		<tag k="ssr:stedsnr" v="57203" />
	</node>
	<node id="-21226" lat="58.7605638901" lon="5.51027221389">
		<tag k="name" v="Rindane" />
		<tag k="natural" v="beach" />
		<tag k="place" v="locality" />
		<tag k="ssr:stedsnr" v="84774" />
	</node>
	<node id="-21225" lat="58.7535861128" lon="5.48983334118">
		<tag k="name" v="Nordre Revtangen" />
		<tag k="natural" v="cape" />
		<tag k="ssr:stedsnr" v="84746" />
	</node>
	<node id="-21351" lat="58.7008166704" lon="5.53187499325">
>>>>>>> e1d4bc35ff8a6074a6f2e91616a996b547c36f15
		<tag k="name" v="Åsetangen" />
		<tag k="natural" v="cape" />
		<tag k="ssr:stedsnr" v="546817" />
	</node>
<<<<<<< HEAD
	<node lat="58.83526944688741" lon="5.501636118056393" id="-178">
		<tag k="name" v="Hausen" />
=======
	<node id="-20964" lat="58.77291389" lon="5.51950832923">
		<tag k="name" v="Petrovika" />
		<tag k="natural" v="bay" />
		<tag k="ssr:stedsnr" v="160862" />
	</node>
	<node id="-20963" lat="58.8216000022" lon="5.50102221669">
		<tag k="name" v="Sprette" />
>>>>>>> e1d4bc35ff8a6074a6f2e91616a996b547c36f15
		<tag k="place" v="locality" />
		<tag k="seamark:type" v="rock" />
		<tag k="ssr:stedsnr" v="585834" />
	</node>
<<<<<<< HEAD
	<node lat="58.81889444468696" lon="5.499041663924091" id="-179">
		<tag k="name" v="Løyndagrunnen" />
		<tag k="natural" v="shoal" />
		<tag k="place" v="locality" />
		<tag k="ssr:stedsnr" v="585853" />
	</node>
	<node lat="58.81328055258783" lon="5.494236117023827" id="-180">
		<tag k="name" v="Litlegrunnen" />
		<tag k="natural" v="shoal" />
		<tag k="place" v="locality" />
		<tag k="ssr:stedsnr" v="585855" />
	</node>
	<node lat="58.78205278094561" lon="5.5350555593135065" id="-185">
		<tag k="name" v="Kyrkjesteinstangen" />
		<tag k="natural" v="cape" />
		<tag k="ssr:stedsnr" v="630098" />
	</node>
	<node lat="58.77746389048656" lon="5.528899991800934" id="-186">
		<tag k="name" v="Honstø" />
		<tag k="natural" v="cape" />
		<tag k="ssr:stedsnr" v="630103" />
	</node>
	<node lat="58.702313886054725" lon="5.520397230983154" id="-189">
		<tag k="name" v="Vikbåen" />
=======
	<node id="-20962" lat="58.7084944425" lon="5.51996944925">
		<tag k="alt_name" v="Haugaura" />
		<tag k="name" v="Haugaurda" />
		<tag k="natural" v="beach" />
		<tag k="place" v="locality" />
		<tag k="ssr:stedsnr" v="146908" />
	</node>
	<node id="-21217" lat="58.8026083325" lon="5.54261944657">
		<tag k="alt_name" v="Honsvika" />
		<tag k="name" v="Honnsvika" />
		<tag k="natural" v="bay" />
		<tag k="ssr:stedsnr" v="62941" />
	</node>
	<node id="-21072" lat="58.7159472185" lon="5.51998610844">
		<tag k="alt_name" v="Jærtangen" />
		<tag k="name" v="Gjerdstangen" />
		<tag k="natural" v="cape" />
		<tag k="old_name" v="Jærstangen" />
		<tag k="ssr:stedsnr" v="485800" />
	</node>
	<node id="-20957" lat="58.7094249983" lon="5.51244721692">
		<tag k="name" v="Tasasteinen" />
>>>>>>> e1d4bc35ff8a6074a6f2e91616a996b547c36f15
		<tag k="place" v="locality" />
		<tag k="seamark:type" v="rock" />
		<tag k="ssr:stedsnr" v="632916" />
	</node>
<<<<<<< HEAD
	<node lat="58.820838885174155" lon="5.398322228531852" id="-195">
		<tag k="name" v="Snytegrunnen" />
		<tag k="natural" v="shoal" />
		<tag k="place" v="locality" />
		<tag k="ssr:stedsnr" v="664907" />
	</node>
	<node lat="58.78916944686443" lon="5.536008334748302" id="-205">
=======
	<node id="-21212" lat="58.7557972217" lon="5.49328333295">
		<tag k="alt_name" v="Rebungen" />
		<tag k="name" v="Revtangen" />
		<tag k="natural" v="cape" />
		<tag k="ssr:stedsnr" v="61816" />
	</node>
	<node id="-21083" lat="58.7891694469" lon="5.53600833475">
>>>>>>> e1d4bc35ff8a6074a6f2e91616a996b547c36f15
		<tag k="fixme" v="consider seamark:type=rock or natural=shoal" />
		<tag k="name" v="Fuglingskjeret" />
		<tag k="place" v="islet" />
		<tag k="ssr:stedsnr" v="691116" />
	</node>
<<<<<<< HEAD
	<node lat="58.78964166274229" lon="5.54313055584961" id="-206">
		<tag k="name" v="Hodnesanden" />
		<tag k="natural" v="beach" />
		<tag k="ssr:stedsnr" v="691120" />
	</node>
	<node lat="58.71759444085902" lon="5.520080557479568" id="-219">
		<tag k="alt_name" v="Grønnhaugvika" />
		<tag k="name" v="Grønhaugvika" />
=======
	<node id="-21263" lat="58.7643527746" lon="5.5017833333">
		<tag k="name" v="Skarstein" />
		<tag k="natural" v="cape" />
		<tag k="ssr:stedsnr" v="145726" />
	</node>
	<node id="-21330" lat="58.7521138858" lon="5.48975556315">
		<tag k="name" v="Søre Revtangen" />
		<tag k="natural" v="cape" />
		<tag k="ssr:stedsnr" v="387730" />
	</node>
	<node id="-20956" lat="58.7075388872" lon="5.5228472293">
		<tag k="alt_name" v="Bekkarvik" />
		<tag k="name" v="Bekkjarvika" />
		<tag k="natural" v="bay" />
		<tag k="ssr:stedsnr" v="267926" />
	</node>
	<node id="-21328" lat="58.8246777734" lon="5.54435555585">
		<tag k="name" v="Søre Tangen" />
		<tag k="natural" v="cape" />
		<tag k="ssr:stedsnr" v="387428" />
	</node>
	<node id="-20943" lat="58.8296305576" lon="5.54940277928">
		<tag k="name" v="Båtmannsvika" />
		<tag k="natural" v="bay" />
		<tag k="ssr:stedsnr" v="266392" />
	</node>
	<node id="-21070" lat="58.7047861102" lon="5.52738611389">
		<tag k="name" v="Vikevik" />
		<tag k="natural" v="bay" />
		<tag k="ssr:stedsnr" v="482324" />
	</node>
	<node id="-21154" lat="58.7040416681" lon="5.51580277712">
		<tag k="name" v="Båaskjeret" />
		<tag k="place" v="locality" />
		<tag k="seamark:type" v="rock" />
		<tag k="ssr:stedsnr" v="814927" />
	</node>
	<node id="-20919" lat="58.6939638907" lon="5.5454361185">
		<tag k="name" v="Klopsteinen" />
		<tag k="natural" v="cape" />
		<tag k="old_name" v="Kloppsteinen" />
		<tag k="ssr:stedsnr" v="243793" />
	</node>
	<node id="-20936" lat="58.7397777743" lon="5.55403611926">
		<tag k="name" v="Fænene" />
		<tag k="natural" v="beach" />
		<tag k="place" v="locality" />
		<tag k="ssr:stedsnr" v="266109" />
	</node>
	<node id="-21132" lat="58.7175944409" lon="5.52008055748">
		<tag k="alt_name" v="Grønnhaugvika" />
		<tag k="name" v="Grønhaugvika" />
		<tag k="natural" v="bay" />
		<tag k="ssr:stedsnr" v="692913" />
	</node>
	<node id="-21188" lat="58.7830361112" lon="5.53613055057">
		<tag k="name" v="Tynevika" />
>>>>>>> e1d4bc35ff8a6074a6f2e91616a996b547c36f15
		<tag k="natural" v="bay" />
		<tag k="ssr:stedsnr" v="692913" />
	</node>
<<<<<<< HEAD
	<node lat="58.82657222070607" lon="5.509741669619679" id="-223">
=======
	<node id="-21443" lat="58.8268638855" lon="5.50386944428">
>>>>>>> e1d4bc35ff8a6074a6f2e91616a996b547c36f15
		<tag k="fixme" v="consider seamark:type=rock or natural=shoal" />
		<tag k="name" v="Floskjeret" />
		<tag k="place" v="islet" />
		<tag k="ssr:stedsnr" v="706859" />
	</node>
	<node lat="58.72029999628233" lon="5.520133332169905" id="-240">
		<tag k="name" v="Krossatangen" />
		<tag k="natural" v="cape" />
		<tag k="ssr:stedsnr" v="910885" />
	</node>
<<<<<<< HEAD
	<node lat="58.70665833009255" lon="5.513502784288852" id="-257">
=======
	<node id="-21442" lat="58.7066583301" lon="5.51350278429">
>>>>>>> e1d4bc35ff8a6074a6f2e91616a996b547c36f15
		<tag k="name" v="Tasen" />
		<tag k="place" v="locality" />
		<tag k="seamark:type" v="rock" />
		<tag k="ssr:stedsnr" v="813904" />
	</node>
<<<<<<< HEAD
	<node lat="58.70404166807197" lon="5.515802777115479" id="-258">
		<tag k="name" v="Båaskjeret" />
		<tag k="place" v="locality" />
		<tag k="seamark:type" v="rock" />
		<tag k="ssr:stedsnr" v="814927" />
	</node>
	<node lat="58.78915833358642" lon="5.5416388956816975" id="-263">
		<tag k="fixme" v="consider seamark:type=rock or natural=shoal" />
		<tag k="name" v="Litle Fuglingen" />
		<tag k="place" v="islet" />
		<tag k="ssr:stedsnr" v="934091" />
	</node>
	<node lat="58.75045555376572" lon="5.493444442318538" id="-276">
		<tag k="name" v="Flæet" />
		<tag k="place" v="locality" />
		<tag k="seamark:type" v="rock" />
		<tag k="ssr:stedsnr" v="949841" />
	</node>
	<node lat="58.825505558009354" lon="5.504891673078001" id="-281">
		<tag k="name" v="Feistein" />
		<tag k="place" v="island" />
		<tag k="ssr:stedsnr" v="21427" />
	</node>
	<node lat="58.7663103064883" lon="5.47951732394134" id="-283">
		<tag k="name" v="Mattisboen" />
=======
	<node id="-21056" lat="58.8295833297" lon="5.51040833184">
		<tag k="name" v="Steingrunnen" />
		<tag k="natural" v="shoal" />
		<tag k="place" v="locality" />
		<tag k="ssr:stedsnr" v="464874" />
	</node>
	<node id="-21311" lat="58.759730552" lon="5.48422222404">
		<tag k="name" v="Bollen" />
		<tag k="place" v="locality" />
		<tag k="seamark:type" v="rock" />
		<tag k="ssr:stedsnr" v="342828" />
	</node>
	<node id="-21182" lat="58.7325499962" lon="5.51364166545">
		<tag k="alt_name" v="Skårtangen" />
		<tag k="name" v="Skortangen" />
		<tag k="natural" v="cape" />
		<tag k="ssr:stedsnr" v="845" />
	</node>
	<node id="-21305" lat="58.7624777825" lon="5.47129722963">
		<tag k="name" v="Skardsteinsgrunnen" />
		<tag k="natural" v="shoal" />
		<tag k="place" v="locality" />
		<tag k="ssr:stedsnr" v="307886" />
	</node>
	<node id="-21303" lat="58.8215915167" lon="5.53913819629">
		<tag k="name" v="Lyratangen" />
		<tag k="natural" v="cape" />
		<tag k="ssr:stedsnr" v="304900" />
	</node>
	<node id="-20918" lat="58.7671861111" lon="5.45411944652">
		<tag k="name" v="Klausgrunnen" />
		<tag k="natural" v="shoal" />
		<tag k="place" v="locality" />
		<tag k="ssr:stedsnr" v="65918" />
	</node>
	<node id="-21173" lat="58.7024638916" lon="5.52996666502">
		<tag k="alt_name" v="Marøya" />
		<tag k="name" v="Marøyna" />
>>>>>>> e1d4bc35ff8a6074a6f2e91616a996b547c36f15
		<tag k="place" v="locality" />
		<tag k="seamark:type" v="rock" />
		<tag k="ssr:stedsnr" v="21430" />
	</node>
<<<<<<< HEAD
	<node lat="58.78303611118206" lon="5.536130550573035" id="-284">
		<tag k="name" v="Tynevika" />
=======
	<node id="-21172" lat="58.7712222247" lon="5.51619721382">
		<tag k="name" v="Ragarvika" />
>>>>>>> e1d4bc35ff8a6074a6f2e91616a996b547c36f15
		<tag k="natural" v="bay" />
		<tag k="ssr:stedsnr" v="24078" />
	</node>
<<<<<<< HEAD
	<node lat="58.76221666601943" lon="5.484663886144579" id="-293">
		<tag k="name" v="Rennetåna" />
		<tag k="natural" v="shoal" />
=======
	<node id="-21299" lat="58.7209027814" lon="5.50974444482">
		<tag k="name" v="Krossafluna" />
>>>>>>> e1d4bc35ff8a6074a6f2e91616a996b547c36f15
		<tag k="place" v="locality" />
		<tag k="ssr:stedsnr" v="39852" />
	</node>
<<<<<<< HEAD
	<node lat="58.80260833249407" lon="5.542619446566593" id="-300">
		<tag k="alt_name" v="Honsvika" />
		<tag k="name" v="Honnsvika" />
		<tag k="natural" v="bay" />
		<tag k="ssr:stedsnr" v="62941" />
	</node>
	<node lat="58.75358611281574" lon="5.489833341179632" id="-308">
		<tag k="name" v="Nordre Revtangen" />
		<tag k="natural" v="cape" />
		<tag k="ssr:stedsnr" v="84746" />
	</node>
	<node lat="58.760563890078856" lon="5.5102722138894205" id="-309">
		<tag k="name" v="Rindane" />
		<tag k="natural" v="beach" />
		<tag k="ssr:stedsnr" v="84774" />
	</node>
	<node lat="58.72904722556247" lon="5.516758332857942" id="-315">
		<tag k="name" v="Åtangen" />
=======
	<node id="-20972" lat="58.7062777792" lon="5.52304167436">
		<tag k="name" v="Viktangen" />
		<tag k="natural" v="cape" />
		<tag k="ssr:stedsnr" v="242818" />
	</node>
	<node id="-21424" lat="58.8159805577" lon="5.54188333568">
		<tag k="name" v="Selestranda" />
		<tag k="natural" v="beach" />
		<tag k="place" v="locality" />
		<tag k="ssr:stedsnr" v="812101" />
	</node>
	<node id="-21384" lat="58.7820527809" lon="5.53505555931">
		<tag k="name" v="Kyrkjesteinstangen" />
		<tag k="natural" v="cape" />
		<tag k="ssr:stedsnr" v="630098" />
	</node>
	<node id="-21422" lat="58.7733333372" lon="5.46999999172">
		<tag k="name" v="Pikflua" />
		<tag k="place" v="locality" />
		<tag k="seamark:type" v="rock" />
		<tag k="ssr:stedsnr" v="810392" />
	</node>
	<node id="-20909" lat="58.7663103065" lon="5.47951732394">
		<tag k="name" v="Mattisboen" />
		<tag k="place" v="locality" />
		<tag k="seamark:type" v="rock" />
		<tag k="ssr:stedsnr" v="21430" />
	</node>
	<node id="-21292" lat="58.8274944465" lon="5.5473305545">
		<tag k="name" v="Nordre Tangen" />
>>>>>>> e1d4bc35ff8a6074a6f2e91616a996b547c36f15
		<tag k="natural" v="cape" />
		<tag k="ssr:stedsnr" v="88940" />
	</node>
<<<<<<< HEAD
	<node lat="58.697983337524775" lon="5.540613882957757" id="-322">
		<tag k="name" v="Skeiestranda" />
		<tag k="natural" v="beach" />
		<tag k="ssr:stedsnr" v="121786" />
	</node>
	<node lat="58.82123332883856" lon="5.503044439990072" id="-326">
		<tag k="fixme" v="consider seamark:type=rock or natural=shoal" />
		<tag k="name" v="Skarvaskjeret" />
		<tag k="old_name" v="Skarvaskjer" />
		<tag k="place" v="islet" />
		<tag k="ssr:stedsnr" v="122875" />
	</node>
	<node lat="58.79485277857434" lon="5.54672500787882" id="-334">
		<tag k="name" v="Boresanden" />
		<tag k="natural" v="beach" />
		<tag k="ssr:stedsnr" v="145091" />
	</node>
	<node lat="58.821600002195304" lon="5.501022216687722" id="-342">
		<tag k="name" v="Sprette" />
=======
	<node id="-20907" lat="58.825505558" lon="5.50489167308">
		<tag k="name" v="Feistein" />
		<tag k="place" v="island" />
		<tag k="ssr:stedsnr" v="21427" />
	</node>
	<node id="-20906" lat="58.8165888873" lon="5.49197777108">
		<tag k="name" v="Havbåen" />
		<tag k="place" v="locality" />
		<tag k="seamark:type" v="rock" />
		<tag k="ssr:stedsnr" v="221842" />
	</node>
	<node id="-20905" lat="58.8302666679" lon="5.54006944227">
		<tag k="name" v="Klakken" />
>>>>>>> e1d4bc35ff8a6074a6f2e91616a996b547c36f15
		<tag k="place" v="locality" />
		<tag k="seamark:type" v="rock" />
		<tag k="ssr:stedsnr" v="160854" />
	</node>
<<<<<<< HEAD
	<node lat="58.77291389003869" lon="5.51950832923115" id="-343">
		<tag k="name" v="Petrovika" />
		<tag k="natural" v="bay" />
		<tag k="ssr:stedsnr" v="160862" />
	</node>
	<node lat="58.835777773939725" lon="5.513375004798757" id="-344">
		<tag k="name" v="Kroken" />
		<tag k="place" v="locality" />
		<tag k="seamark:type" v="rock" />
		<tag k="ssr:stedsnr" v="160844" />
	</node>
	<node lat="58.15130833030587" lon="6.29712777180919" id="-348">
		<tag k="name" v="Nordsjøen" />
		<tag k="name:en" v="North Sea" />
		<tag k="name:no" v="Nordsjøen" />
		<tag k="place" v="sea" />
		<tag k="ssr:stedsnr" v="182096" />
	</node>
	<node lat="58.78549444342665" lon="5.535983340517742" id="-353">
=======
	<node id="-21032" lat="58.7525916684" lon="5.48266111821">
		<tag k="fixme" v="multiple name tags, choose one and add the other to alt_name" />
		<tag k="name" v="Jærens rev;Revet" />
		<tag k="natural" v="shoal" />
		<tag k="place" v="locality" />
		<tag k="ssr:stedsnr" v="509697" />
	</node>
	<node id="-21084" lat="58.7896416627" lon="5.54313055585">
		<tag k="name" v="Hodnesanden" />
		<tag k="natural" v="beach" />
		<tag k="place" v="locality" />
		<tag k="ssr:stedsnr" v="691120" />
	</node>
	<node id="-21158" lat="58.7891583336" lon="5.54163889568">
		<tag k="fixme" v="consider seamark:type=rock or natural=shoal" />
		<tag k="name" v="Litle Fuglingen" />
		<tag k="place" v="islet" />
		<tag k="ssr:stedsnr" v="934091" />
	</node>
	<node id="-21282" lat="58.7854944434" lon="5.53598334052">
>>>>>>> e1d4bc35ff8a6074a6f2e91616a996b547c36f15
		<tag k="alt_name" v="Store Fuglingen" />
		<tag k="fixme" v="consider seamark:type=rock or natural=shoal" />
		<tag k="name" v="Fuglingen" />
		<tag k="place" v="islet" />
		<tag k="ssr:stedsnr" v="183917" />
	</node>
<<<<<<< HEAD
	<node lat="58.827494446456264" lon="5.547330554502029" id="-358">
		<tag k="name" v="Nordre Tangen" />
=======
	<node id="-20916" lat="58.762216666" lon="5.48466388614">
		<tag k="name" v="Rennetåna" />
		<tag k="natural" v="shoal" />
		<tag k="place" v="locality" />
		<tag k="ssr:stedsnr" v="39852" />
	</node>
	<node id="-21407" lat="58.773394445" lon="5.52045833744">
		<tag k="name" v="Skiftestangen" />
>>>>>>> e1d4bc35ff8a6074a6f2e91616a996b547c36f15
		<tag k="natural" v="cape" />
		<tag k="ssr:stedsnr" v="206372" />
	</node>
<<<<<<< HEAD
	<node lat="58.72090278142401" lon="5.509744444820949" id="-366">
		<tag k="name" v="Krossafluna" />
		<tag k="place" v="locality" />
		<tag k="seamark:type" v="rock" />
		<tag k="ssr:stedsnr" v="207917" />
	</node>
	<node lat="58.83026666786519" lon="5.540069442268564" id="-367">
		<tag k="name" v="Klakken" />
		<tag k="place" v="locality" />
		<tag k="seamark:type" v="rock" />
		<tag k="ssr:stedsnr" v="221829" />
	</node>
	<node lat="58.816588887329665" lon="5.491977771075487" id="-368">
		<tag k="name" v="Havbåen" />
		<tag k="place" v="locality" />
		<tag k="seamark:type" v="rock" />
		<tag k="ssr:stedsnr" v="221842" />
	</node>
	<node lat="58.69762777594478" lon="5.540569452570783" id="-371">
		<tag k="name" v="Syltertangen" />
=======
	<node id="-21020" lat="58.7948527785" lon="5.43359444848">
		<tag k="name" v="Skotemedgrunnen" />
		<tag k="natural" v="shoal" />
		<tag k="place" v="locality" />
		<tag k="ssr:stedsnr" v="389873" />
	</node>
	<node id="-21146" lat="58.7202999963" lon="5.52013333217">
		<tag k="name" v="Krossatangen" />
		<tag k="natural" v="cape" />
		<tag k="ssr:stedsnr" v="910885" />
	</node>
	<node id="-21274" lat="58.7109444424" lon="5.51813611296">
		<tag k="name" v="Haugatangen" />
		<tag k="natural" v="cape" />
		<tag k="ssr:stedsnr" v="182808" />
	</node>
	<node id="-21401" lat="58.7471527764" lon="5.5006416587">
		<tag k="name" v="Sørenes" />
>>>>>>> e1d4bc35ff8a6074a6f2e91616a996b547c36f15
		<tag k="natural" v="cape" />
		<tag k="ssr:stedsnr" v="300345" />
	</node>
<<<<<<< HEAD
	<node lat="58.82159151665403" lon="5.539138196290989" id="-375">
		<tag k="name" v="Lyratangen" />
		<tag k="natural" v="cape" />
		<tag k="ssr:stedsnr" v="304900" />
	</node>
	<node lat="58.76247778249606" lon="5.471297229627026" id="-376">
		<tag k="name" v="Skardsteinsgrunnen" />
		<tag k="natural" v="shoal" />
		<tag k="place" v="locality" />
		<tag k="ssr:stedsnr" v="307886" />
	</node>
	<node lat="58.6930972191989" lon="5.546647220185713" id="-388">
		<tag k="name" v="Kleppstemmen" />
		<tag k="natural" v="beach" />
		<tag k="ssr:stedsnr" v="361363" />
	</node>
	<node lat="58.82467777341783" lon="5.544355555853628" id="-393">
		<tag k="name" v="Søre Tangen" />
=======
	<node id="-21016" lat="58.7784722238" lon="5.5305222212">
		<tag k="name" v="Moldvika" />
		<tag k="natural" v="bay" />
		<tag k="ssr:stedsnr" v="387103" />
	</node>
	<node id="-21270" lat="58.1513083303" lon="6.29712777181">
		<tag k="name" v="Nordsjøen" />
		<tag k="name:en" v="North Sea" />
		<tag k="name:no" v="Nordsjøen" />
		<tag k="place" v="sea" />
		<tag k="ssr:stedsnr" v="182096" />
	</node>
	<node id="-21269" lat="58.6976277759" lon="5.54056945257">
		<tag k="name" v="Syltertangen" />
>>>>>>> e1d4bc35ff8a6074a6f2e91616a996b547c36f15
		<tag k="natural" v="cape" />
		<tag k="ssr:stedsnr" v="387428" />
	</node>
<<<<<<< HEAD
	<node lat="58.75211388579512" lon="5.489755563152544" id="-404">
		<tag k="name" v="Søre Revtangen" />
		<tag k="natural" v="cape" />
		<tag k="ssr:stedsnr" v="387730" />
	</node>
	<node lat="58.79485277849271" lon="5.433594448479979" id="-405">
		<tag k="name" v="Skotemedgrunnen" />
		<tag k="natural" v="shoal" />
=======
	<node id="-21268" lat="58.8357777739" lon="5.5133750048">
		<tag k="name" v="Kroken" />
>>>>>>> e1d4bc35ff8a6074a6f2e91616a996b547c36f15
		<tag k="place" v="locality" />
		<tag k="ssr:stedsnr" v="389873" />
	</node>
<<<<<<< HEAD
	<node lat="58.752591668404854" lon="5.482661118209879" id="-434">
		<tag k="alt_name" v="Revet" />
		<tag k="name" v="Jærens rev" />
		<tag k="natural" v="shoal" />
		<tag k="place" v="locality" />
		<tag k="ssr:stedsnr" v="509697" />
	</node>
	<node lat="58.745002776259625" lon="5.502180550913218" id="-444">
		<tag k="name" v="Revesanden" />
		<tag k="natural" v="beach" />
		<tag k="old_name" v="Revestranda" />
		<tag k="ssr:stedsnr" v="547852" />
	</node>
	<node lat="58.77603888664743" lon="5.525755548054244" id="-460">
		<tag k="name" v="Banavika" />
		<tag k="natural" v="bay" />
		<tag k="ssr:stedsnr" v="585860" />
	</node>
	<node lat="58.75510046827699" lon="5.4738262297773534" id="-472">
		<tag k="name" v="Videgrunnen" />
		<tag k="natural" v="shoal" />
=======
	<node id="-21251" lat="58.7948527786" lon="5.54672500788">
		<tag k="name" v="Boresanden" />
		<tag k="natural" v="beach" />
		<tag k="place" v="locality" />
		<tag k="ssr:stedsnr" v="145091" />
	</node>
	<node id="-21008" lat="58.7398611123" lon="5.51262778042">
		<tag k="name" v="Orresanden" />
		<tag k="natural" v="beach" />
>>>>>>> e1d4bc35ff8a6074a6f2e91616a996b547c36f15
		<tag k="place" v="locality" />
		<tag k="ssr:stedsnr" v="627424" />
	</node>
	<node lat="58.81298889242629" lon="5.545713886664812" id="-473">
		<tag k="name" v="Buasanden" />
		<tag k="natural" v="beach" />
		<tag k="ssr:stedsnr" v="630115" />
	</node>
	<node lat="58.69988610940515" lon="5.533350005416698" id="-478">
		<tag k="alt_name" v="Sylterura" />
		<tag k="name" v="Sylterurda" />
		<tag k="natural" v="beach" />
		<tag k="ssr:stedsnr" v="630913" />
	</node>
	<node lat="58.70382500264011" lon="5.529088883555273" id="-482">
		<tag k="name" v="Skeietangen" />
		<tag k="natural" v="cape" />
		<tag k="ssr:stedsnr" v="631931" />
	</node>
<<<<<<< HEAD
	<node lat="58.83301111465836" lon="5.533538884512043" id="-483">
=======
	<node id="-21391" lat="58.8330111147" lon="5.53353888451">
>>>>>>> e1d4bc35ff8a6074a6f2e91616a996b547c36f15
		<tag k="name" v="Djupafluna" />
		<tag k="place" v="locality" />
		<tag k="seamark:type" v="rock" />
		<tag k="ssr:stedsnr" v="645840" />
	</node>
<<<<<<< HEAD
	<node lat="58.70295277719442" lon="5.531899995504747" id="-493">
		<tag k="name" v="Skeievika" />
		<tag k="natural" v="bay" />
		<tag k="ssr:stedsnr" v="728833" />
	</node>
	<node lat="58.747152776445006" lon="5.500641658698066" id="-502">
		<tag k="name" v="Sørenes" />
		<tag k="natural" v="cape" />
		<tag k="ssr:stedsnr" v="752096" />
	</node>
	<node lat="58.77339444497153" lon="5.520458337437295" id="-511">
		<tag k="name" v="Skiftestangen" />
		<tag k="natural" v="cape" />
		<tag k="ssr:stedsnr" v="752733" />
	</node>
	<node lat="58.773333337225225" lon="5.469999991723687" id="-522">
		<tag k="name" v="Pikflua" />
=======
	<node id="-21389" lat="58.7023138861" lon="5.52039723098">
		<tag k="name" v="Vikbåen" />
>>>>>>> e1d4bc35ff8a6074a6f2e91616a996b547c36f15
		<tag k="place" v="locality" />
		<tag k="seamark:type" v="rock" />
		<tag k="ssr:stedsnr" v="810392" />
	</node>
<<<<<<< HEAD
	<node lat="58.81598055774954" lon="5.541883335678601" id="-523">
		<tag k="name" v="Selestranda" />
		<tag k="natural" v="beach" />
		<tag k="ssr:stedsnr" v="812101" />
	</node>
	<node lat="58.82686388547364" lon="5.5038694442765514" id="-535">
		<tag k="fixme" v="consider seamark:type=rock or natural=shoal" />
		<tag k="name" v="Steinskjeret" />
		<tag k="place" v="islet" />
		<tag k="ssr:stedsnr" v="828849" />
	</node>
	<node lat="58.77122222472415" lon="5.516197213817524" id="-550">
		<tag k="name" v="Ragarvika" />
		<tag k="natural" v="bay" />
		<tag k="ssr:stedsnr" v="873726" />
	</node>
	<node lat="58.70246389156252" lon="5.5299666650239185" id="-562">
		<tag k="alt_name" v="Marøya" />
		<tag k="name" v="Marøyna" />
		<tag k="place" v="locality" />
		<tag k="seamark:type" v="rock" />
		<tag k="ssr:stedsnr" v="874906" />
=======
	<node id="-21388" lat="58.7038250026" lon="5.52908888356">
		<tag k="name" v="Skeietangen" />
		<tag k="natural" v="cape" />
		<tag k="ssr:stedsnr" v="631931" />
	</node>
	<node id="-21128" lat="58.8208388852" lon="5.39832222853">
		<tag k="name" v="Snytegrunnen" />
		<tag k="natural" v="shoal" />
		<tag k="place" v="locality" />
		<tag k="ssr:stedsnr" v="664907" />
	</node>
	<node id="-21228" lat="58.7290472256" lon="5.51675833286">
		<tag k="name" v="Åtangen" />
		<tag k="natural" v="cape" />
		<tag k="ssr:stedsnr" v="88940" />
	</node>
	<node id="-21098" lat="58.8188944447" lon="5.49904166392">
		<tag k="name" v="Løyndagrunnen" />
		<tag k="natural" v="shoal" />
		<tag k="place" v="locality" />
		<tag k="ssr:stedsnr" v="585853" />
	</node>
	<node id="-21168" lat="58.7504555538" lon="5.49344444232">
		<tag k="name" v="Flæet" />
		<tag k="place" v="locality" />
		<tag k="seamark:type" v="rock" />
		<tag k="ssr:stedsnr" v="949841" />
	</node>
	<node id="-21000" lat="58.6975277781" lon="5.52092500262">
		<tag k="name" v="Skeiefluna" />
		<tag k="place" v="locality" />
		<tag k="seamark:type" v="rock" />
		<tag k="ssr:stedsnr" v="329922" />
	</node>
	<node id="-21100" lat="58.7760388866" lon="5.52575554805">
		<tag k="name" v="Banavika" />
		<tag k="natural" v="bay" />
		<tag k="ssr:stedsnr" v="585860" />
	</node>
	<node id="-21099" lat="58.8132805526" lon="5.49423611702">
		<tag k="name" v="Litlegrunnen" />
		<tag k="natural" v="shoal" />
		<tag k="place" v="locality" />
		<tag k="ssr:stedsnr" v="585855" />
>>>>>>> e1d4bc35ff8a6074a6f2e91616a996b547c36f15
	</node>
</osm>
