<?xml version="1.0" encoding="UTF-8"?>
<<<<<<< HEAD
<osm version="0.6" generator="osmapis">
	<node lat="58.734802782305096" lon="5.6011277783078555" id="-1">
		<tag k="bridge" v="yes" />
		<tag k="layer" v="1" />
		<tag k="name" v="Rosland" />
		<tag k="ssr:stedsnr" v="229755" />
	</node>
	<node lat="58.75470555463534" lon="5.624666672677583" id="-5">
		<tag k="bridge" v="yes" />
		<tag k="layer" v="1" />
		<tag k="name" v="Braut" />
		<tag k="ssr:stedsnr" v="229724" />
	</node>
	<node lat="58.711913892791195" lon="5.617133330322291" id="-46">
		<tag k="junction" v="yes" />
		<tag k="name" v="Saltebakken" />
		<tag k="place" v="locality" />
		<tag k="ssr:stedsnr" v="119307" />
	</node>
	<node lat="58.80825833037867" lon="5.586736115970955" id="-50">
		<tag k="junction" v="yes" />
		<tag k="name" v="Gjesholskrossen" />
		<tag k="place" v="locality" />
		<tag k="ssr:stedsnr" v="145080" />
	</node>
	<node lat="58.77249166247017" lon="5.594494445763331" id="-67">
		<tag k="name" v="Vådelandskanalen" />
		<tag k="ssr:stedsnr" v="266126" />
		<tag k="waterway" v="canal" />
	</node>
	<node lat="58.80200555244737" lon="5.597391671385148" id="-84">
=======
<osm generator="osmapis" version="0.6">
	<node id="-21376" lat="58.7775194486" lon="5.67834721535">
		<tag k="bridge" v="yes" />
		<tag k="layer" v="1" />
		<tag k="name" v="Engelsvoll" />
		<tag k="ssr:stedsnr" v="592775" />
	</node>
	<node id="-21247" lat="58.7843527807" lon="5.55961944642">
		<tag k="name" v="Hodneåna" />
		<tag k="ssr:stedsnr" v="145056" />
		<tag k="waterway" v="canal" />
	</node>
	<node id="-20986" lat="58.7716138905" lon="5.51428333406">
		<tag k="alt_name" v="Revehamna" />
		<tag k="leisure" v="marina" />
		<tag k="name" v="Revehamnen" />
		<tag k="ssr:stedsnr" v="449742" />
	</node>
	<node id="-21111" lat="58.7376833296" lon="5.55355000482">
		<tag k="name" v="Horpestadkanalen" />
		<tag k="ssr:stedsnr" v="630108" />
		<tag k="waterway" v="canal" />
	</node>
	<node id="-20969" lat="58.7348027823" lon="5.60112777831">
		<tag k="bridge" v="yes" />
		<tag k="layer" v="1" />
		<tag k="name" v="Rosland" />
		<tag k="ssr:stedsnr" v="229755" />
	</node>
	<node id="-21362" lat="58.7508444419" lon="5.59660556017">
		<tag k="name" v="Brautkanalen" />
		<tag k="ssr:stedsnr" v="569121" />
		<tag k="waterway" v="canal" />
	</node>
	<node id="-21360" lat="58.8137638861" lon="5.58802778591">
		<tag k="junction" v="yes" />
		<tag k="name" v="Langholskrossen" />
		<tag k="place" v="locality" />
		<tag k="ssr:stedsnr" v="569111" />
	</node>
	<node id="-21101" lat="58.7855555587" lon="5.64238611851">
>>>>>>> e1d4bc35ff8a6074a6f2e91616a996b547c36f15
		<tag k="bridge" v="yes" />
		<tag k="layer" v="1" />
		<tag k="name" v="Holekrossen" />
		<tag k="ssr:stedsnr" v="229731" />
	</node>
<<<<<<< HEAD
	<node lat="58.775538886177024" lon="5.657827773580134" id="-85">
=======
	<node id="-21353" lat="58.7751000009" lon="5.62512500264">
>>>>>>> e1d4bc35ff8a6074a6f2e91616a996b547c36f15
		<tag k="junction" v="yes" />
		<tag k="name" v="Andakrossen" />
		<tag k="place" v="locality" />
		<tag k="ssr:stedsnr" v="449427" />
	</node>
<<<<<<< HEAD
	<node lat="58.77509166741117" lon="5.629547225892255" id="-99">
=======
	<node id="-20968" lat="58.7750916674" lon="5.62954722589">
>>>>>>> e1d4bc35ff8a6074a6f2e91616a996b547c36f15
		<tag k="bridge" v="yes" />
		<tag k="layer" v="1" />
		<tag k="name" v="Kleppekrossen" />
		<tag k="ssr:stedsnr" v="289786" />
	</node>
<<<<<<< HEAD
	<node lat="58.731219447379175" lon="5.527902774399987" id="-115">
		<tag k="bridge" v="yes" />
		<tag k="layer" v="1" />
		<tag k="name" v="Orre" />
		<tag k="ssr:stedsnr" v="471732" />
	</node>
	<node lat="58.77475833521044" lon="5.662075004776929" id="-135">
=======
	<node id="-21259" lat="58.7855694431" lon="5.69266666143">
		<tag k="junction" v="yes" />
		<tag k="name" v="Øksnevadkrossen" />
		<tag k="place" v="locality" />
		<tag k="ssr:stedsnr" v="145254" />
	</node>
	<node id="-21345" lat="58.7147305595" lon="5.53151110523">
		<tag k="junction" v="yes" />
		<tag k="name" v="Vikkrossen" />
		<tag k="place" v="locality" />
		<tag k="ssr:stedsnr" v="543281" />
	</node>
	<node id="-21469" lat="58.786549599" lon="5.7015408428">
		<tag k="name" v="Øksnavadporten haldeplass" />
		<tag k="railway" v="halt" />
		<tag k="ssr:stedsnr" v="990102" />
		<tag k="train" v="yes" />
	</node>
	<node id="-21466" lat="58.8149694443" lon="5.60716389628">
		<tag k="bridge" v="yes" />
		<tag k="layer" v="1" />
		<tag k="name" v="Skadsem" />
		<tag k="ssr:stedsnr" v="957752" />
	</node>
	<node id="-21337" lat="58.7991388851" lon="5.67293334024">
		<tag k="bridge" v="yes" />
		<tag k="layer" v="1" />
		<tag k="name" v="Øksnevad" />
		<tag k="ssr:stedsnr" v="411744" />
	</node>
	<node id="-21336" lat="58.7911611155" lon="5.59740833582">
>>>>>>> e1d4bc35ff8a6074a6f2e91616a996b547c36f15
		<tag k="bridge" v="yes" />
		<tag k="layer" v="1" />
		<tag k="name" v="Anda" />
		<tag k="ssr:stedsnr" v="411704" />
	</node>
<<<<<<< HEAD
	<node lat="58.792208333310576" lon="5.6390666691945635" id="-136">
=======
	<node id="-21335" lat="58.7922083333" lon="5.63906666919">
>>>>>>> e1d4bc35ff8a6074a6f2e91616a996b547c36f15
		<tag k="bridge" v="yes" />
		<tag k="layer" v="1" />
		<tag k="name" v="Grude" />
		<tag k="ssr:stedsnr" v="411709" />
	</node>
<<<<<<< HEAD
	<node lat="58.79116111547028" lon="5.5974083358172075" id="-137">
=======
	<node id="-21334" lat="58.7747583352" lon="5.66207500478">
>>>>>>> e1d4bc35ff8a6074a6f2e91616a996b547c36f15
		<tag k="bridge" v="yes" />
		<tag k="layer" v="1" />
		<tag k="name" v="Leirbekk" />
		<tag k="ssr:stedsnr" v="411713" />
	</node>
<<<<<<< HEAD
	<node lat="58.802391665500494" lon="5.62909166345209" id="-147">
		<tag k="name" v="Stangelandskanalen" />
		<tag k="ssr:stedsnr" v="449407" />
		<tag k="waterway" v="canal" />
	</node>
	<node lat="58.771613890483074" lon="5.51428333406063" id="-148">
		<tag k="alt_name" v="Revehamna" />
		<tag k="leisure" v="marina" />
		<tag k="name" v="Revehamnen" />
		<tag k="ssr:stedsnr" v="449742" />
	</node>
	<node lat="58.696983332696" lon="5.5517888969876035" id="-150">
=======
	<node id="-21329" lat="58.7393166699" lon="5.61397221521">
>>>>>>> e1d4bc35ff8a6074a6f2e91616a996b547c36f15
		<tag k="junction" v="yes" />
		<tag k="name" v="Tegningsleet" />
		<tag k="place" v="locality" />
		<tag k="ssr:stedsnr" v="482320" />
	</node>
<<<<<<< HEAD
	<node lat="58.77576666432374" lon="5.649566669851482" id="-157">
		<tag k="junction" v="yes" />
		<tag k="name" v="Bruholskrossen" />
		<tag k="place" v="locality" />
		<tag k="ssr:stedsnr" v="509415" />
	</node>
	<node lat="58.71473055950138" lon="5.53151110523069" id="-165">
		<tag k="junction" v="yes" />
		<tag k="name" v="Vikkrossen" />
=======
	<node id="-21199" lat="58.7862805593" lon="5.70099166316">
		<tag k="bridge" v="yes" />
		<tag k="layer" v="1" />
		<tag k="name" v="Orstad" />
		<tag k="ssr:stedsnr" v="46763" />
	</node>
	<node id="-21198" lat="58.8197555535" lon="5.53784165981">
		<tag k="fixme" v="verify maritime location" />
		<tag k="mooring" v="yes" />
		<tag k="name" v="Tangarstø" />
>>>>>>> e1d4bc35ff8a6074a6f2e91616a996b547c36f15
		<tag k="place" v="locality" />
		<tag k="ssr:stedsnr" v="543281" />
	</node>
<<<<<<< HEAD
	<node lat="58.81376388614837" lon="5.588027785913963" id="-176">
=======
	<node id="-21069" lat="58.6969833327" lon="5.55178889699">
>>>>>>> e1d4bc35ff8a6074a6f2e91616a996b547c36f15
		<tag k="junction" v="yes" />
		<tag k="name" v="Langholskrossen" />
		<tag k="place" v="locality" />
		<tag k="ssr:stedsnr" v="569111" />
	</node>
<<<<<<< HEAD
	<node lat="58.806133336229024" lon="5.564347228701419" id="-184">
		<tag k="name" v="Rødbekk" />
		<tag k="ssr:stedsnr" v="630092" />
		<tag k="waterway" v="canal" />
	</node>
	<node lat="58.73768332961422" lon="5.553550004818779" id="-187">
		<tag k="name" v="Horpestadkanalen" />
		<tag k="ssr:stedsnr" v="630108" />
		<tag k="waterway" v="canal" />
	</node>
	<node lat="58.73982777482555" lon="5.626047229423918" id="-188">
		<tag k="junction" v="yes" />
		<tag k="name" v="Tjøttakrossen" />
		<tag k="place" v="locality" />
		<tag k="ssr:stedsnr" v="630402" />
	</node>
	<node lat="58.781491664856574" lon="5.616861105821932" id="-191">
		<tag k="bridge" v="yes" />
		<tag k="layer" v="1" />
		<tag k="name" v="Håland" />
		<tag k="ssr:stedsnr" v="653744" />
	</node>
	<node lat="58.70226944028437" lon="5.542369441322138" id="-194">
		<tag k="junction" v="yes" />
		<tag k="name" v="Åsekrossen" />
		<tag k="place" v="locality" />
		<tag k="ssr:stedsnr" v="664294" />
	</node>
	<node lat="58.82249166834785" lon="5.560233326026857" id="-211">
		<tag k="name" v="Selekanalen" />
		<tag k="ssr:stedsnr" v="691401" />
		<tag k="waterway" v="canal" />
	</node>
	<node lat="58.780622226516215" lon="5.628333337059544" id="-215">
		<tag k="name" v="Kleppekanalen" />
		<tag k="ssr:stedsnr" v="692416" />
		<tag k="waterway" v="canal" />
	</node>
	<node lat="58.784147220365334" lon="5.604177776237772" id="-221">
=======
	<node id="-20939" lat="58.7724916625" lon="5.59449444576">
		<tag k="name" v="Vådelandskanalen" />
		<tag k="ssr:stedsnr" v="266126" />
		<tag k="waterway" v="canal" />
	</node>
	<node id="-21232" lat="58.7119138928" lon="5.61713333032">
		<tag k="junction" v="yes" />
		<tag k="name" v="Saltebakken" />
		<tag k="place" v="locality" />
		<tag k="ssr:stedsnr" v="119307" />
	</node>
	<node id="-21089" lat="58.8224916683" lon="5.56023332603">
		<tag k="name" v="Selekanalen" />
		<tag k="ssr:stedsnr" v="691401" />
		<tag k="waterway" v="canal" />
	</node>
	<node id="-21444" lat="58.8141944473" lon="5.55576667444">
>>>>>>> e1d4bc35ff8a6074a6f2e91616a996b547c36f15
		<tag k="bridge" v="yes" />
		<tag k="layer" v="1" />
		<tag k="name" v="Verdalen" />
		<tag k="ssr:stedsnr" v="896787" />
	</node>
<<<<<<< HEAD
	<node lat="58.80460277554196" lon="5.602238883196734" id="-222">
=======
	<node id="-21314" lat="58.7799249981" lon="5.62128889758">
>>>>>>> e1d4bc35ff8a6074a6f2e91616a996b547c36f15
		<tag k="bridge" v="yes" />
		<tag k="layer" v="1" />
		<tag k="name" v="Voll" />
		<tag k="ssr:stedsnr" v="896790" />
	</node>
<<<<<<< HEAD
	<node lat="58.78555555865078" lon="5.642386118505029" id="-224">
		<tag k="bridge" v="yes" />
		<tag k="layer" v="1" />
		<tag k="name" v="Storhaug" />
		<tag k="ssr:stedsnr" v="714735" />
	</node>
	<node lat="58.75464444896826" lon="5.637855556702204" id="-232">
=======
	<node id="-21313" lat="58.7751555517" lon="5.63819722673">
		<tag k="bridge" v="yes" />
		<tag k="layer" v="1" />
		<tag k="name" v="Fjogstad" />
		<tag k="ssr:stedsnr" v="350707" />
	</node>
	<node id="-21420" lat="58.7867719696" lon="5.70495983438">
		<tag k="junction" v="yes" />
		<tag k="name" v="Orstadkrossen" />
		<tag k="place" v="locality" />
		<tag k="ssr:stedsnr" v="790852" />
	</node>
	<node id="-21055" lat="58.7122916656" lon="5.6069388846">
		<tag k="name" v="Saltekanalen" />
		<tag k="ssr:stedsnr" v="666483" />
		<tag k="waterway" v="canal" />
	</node>
	<node id="-21054" lat="58.7018641814" lon="5.58778526727">
>>>>>>> e1d4bc35ff8a6074a6f2e91616a996b547c36f15
		<tag k="junction" v="yes" />
		<tag k="name" v="Krosshaug" />
		<tag k="place" v="locality" />
		<tag k="ssr:stedsnr" v="752412" />
	</node>
<<<<<<< HEAD
	<node lat="58.784083335908285" lon="5.711799992815215" id="-236">
		<tag k="bridge" v="yes" />
		<tag k="layer" v="1" />
		<tag k="name" v="Håbakken" />
		<tag k="ssr:stedsnr" v="775712" />
	</node>
	<node lat="58.78677196960148" lon="5.704959834383463" id="-246">
=======
	<node id="-21052" lat="58.7022694403" lon="5.54236944132">
		<tag k="junction" v="yes" />
		<tag k="name" v="Åsekrossen" />
		<tag k="place" v="locality" />
		<tag k="ssr:stedsnr" v="664294" />
	</node>
	<node id="-21050" lat="58.7755388862" lon="5.65782777358">
>>>>>>> e1d4bc35ff8a6074a6f2e91616a996b547c36f15
		<tag k="junction" v="yes" />
		<tag k="name" v="Orstadkrossen" />
		<tag k="place" v="locality" />
		<tag k="ssr:stedsnr" v="790852" />
	</node>
<<<<<<< HEAD
	<node lat="58.811283333018125" lon="5.5976638868144395" id="-251">
		<tag k="name" v="Skaskanalen" />
		<tag k="ssr:stedsnr" v="812108" />
		<tag k="waterway" v="canal" />
	</node>
	<node lat="58.81975555354281" lon="5.537841659807565" id="-292">
		<tag k="fixme" v="verify maritime location" />
		<tag k="mooring" v="yes" />
		<tag k="name" v="Tangarstø" />
		<tag k="place" v="locality" />
		<tag k="ssr:stedsnr" v="39850" />
	</node>
	<node lat="58.78628055932762" lon="5.700991663160816" id="-294">
=======
	<node id="-21049" lat="58.8023916655" lon="5.62909166345">
		<tag k="name" v="Stangelandskanalen" />
		<tag k="ssr:stedsnr" v="449407" />
		<tag k="waterway" v="canal" />
	</node>
	<node id="-20915" lat="58.8020055524" lon="5.59739167139">
		<tag k="bridge" v="yes" />
		<tag k="layer" v="1" />
		<tag k="name" v="Holekrossen" />
		<tag k="ssr:stedsnr" v="229731" />
	</node>
	<node id="-20914" lat="58.7547055546" lon="5.62466667268">
>>>>>>> e1d4bc35ff8a6074a6f2e91616a996b547c36f15
		<tag k="bridge" v="yes" />
		<tag k="layer" v="1" />
		<tag k="name" v="Orstad" />
		<tag k="ssr:stedsnr" v="46763" />
	</node>
<<<<<<< HEAD
	<node lat="58.784352780730266" lon="5.559619446424874" id="-330">
		<tag k="name" v="Hodneåna" />
		<tag k="ssr:stedsnr" v="145056" />
		<tag k="waterway" v="canal" />
	</node>
	<node lat="58.78556944305567" lon="5.692666661430434" id="-332">
		<tag k="junction" v="yes" />
		<tag k="name" v="Øksnevadkrossen" />
		<tag k="place" v="locality" />
		<tag k="ssr:stedsnr" v="145254" />
	</node>
	<node lat="58.801086109018854" lon="5.6005638874416634" id="-333">
		<tag k="junction" v="yes" />
		<tag k="name" v="Holekrossen" />
=======
	<node id="-21425" lat="58.811283333" lon="5.59766388681">
		<tag k="name" v="Skaskanalen" />
		<tag k="ssr:stedsnr" v="812108" />
		<tag k="waterway" v="canal" />
	</node>
	<node id="-21036" lat="58.7980222188" lon="5.63039166231">
		<tag k="name" v="Kvernebekken" />
		<tag k="ssr:stedsnr" v="510431" />
		<tag k="waterway" v="canal" />
	</node>
	<node id="-21034" lat="58.7858444451" lon="5.64322500439">
		<tag k="junction" v="yes" />
		<tag k="name" v="Storhaugkrossen" />
>>>>>>> e1d4bc35ff8a6074a6f2e91616a996b547c36f15
		<tag k="place" v="locality" />
		<tag k="ssr:stedsnr" v="145085" />
	</node>
<<<<<<< HEAD
	<node lat="58.77499721969563" lon="5.595116674849413" id="-355">
=======
	<node id="-21041" lat="58.7716891289" lon="5.67767685541">
		<tag k="alt_name" v="Klepp" />
		<tag k="name" v="Klepp stasjon" />
		<tag k="railway" v="station" />
		<tag k="ssr:stedsnr" v="425828" />
		<tag k="train" v="yes" />
	</node>
	<node id="-21284" lat="58.7749972197" lon="5.59511667485">
>>>>>>> e1d4bc35ff8a6074a6f2e91616a996b547c36f15
		<tag k="name" v="Verdalskanalen" />
		<tag k="ssr:stedsnr" v="206016" />
		<tag k="waterway" v="canal" />
	</node>
<<<<<<< HEAD
	<node lat="58.77515555168933" lon="5.6381972267280425" id="-384">
		<tag k="bridge" v="yes" />
		<tag k="layer" v="1" />
		<tag k="name" v="Fjogstad" />
		<tag k="ssr:stedsnr" v="350707" />
	</node>
	<node lat="58.779924998075984" lon="5.621288897579139" id="-385">
		<tag k="bridge" v="yes" />
		<tag k="layer" v="1" />
		<tag k="name" v="Stemmen" />
		<tag k="ssr:stedsnr" v="350732" />
	</node>
	<node lat="58.73931666985505" lon="5.613972215211085" id="-394">
=======
	<node id="-21026" lat="58.7757666643" lon="5.64956666985">
>>>>>>> e1d4bc35ff8a6074a6f2e91616a996b547c36f15
		<tag k="junction" v="yes" />
		<tag k="name" v="Pålakrossen" />
		<tag k="place" v="locality" />
		<tag k="ssr:stedsnr" v="387446" />
	</node>
<<<<<<< HEAD
	<node lat="58.79913888511217" lon="5.672933340239359" id="-408">
=======
	<node id="-21151" lat="58.7840833359" lon="5.71179999282">
>>>>>>> e1d4bc35ff8a6074a6f2e91616a996b547c36f15
		<tag k="bridge" v="yes" />
		<tag k="layer" v="1" />
		<tag k="name" v="Øksnevad" />
		<tag k="ssr:stedsnr" v="411744" />
	</node>
	<node lat="58.77168912894104" lon="5.6776768554100325" id="-413">
		<tag k="alt_name" v="Klepp" />
		<tag k="name" v="Klepp stasjon" />
		<tag k="railway" v="station" />
		<tag k="ssr:stedsnr" v="425828" />
		<tag k="train" v="yes" />
	</node>
<<<<<<< HEAD
	<node lat="58.785844445124035" lon="5.643225004389723" id="-437">
=======
	<node id="-21445" lat="58.7102416649" lon="5.60891666513">
		<tag k="bridge" v="yes" />
		<tag k="layer" v="1" />
		<tag k="name" v="Salte" />
		<tag k="ssr:stedsnr" v="836746" />
	</node>
	<node id="-21403" lat="58.754644449" lon="5.6378555567">
>>>>>>> e1d4bc35ff8a6074a6f2e91616a996b547c36f15
		<tag k="junction" v="yes" />
		<tag k="name" v="Storhaugkrossen" />
		<tag k="place" v="locality" />
		<tag k="ssr:stedsnr" v="510250" />
	</node>
<<<<<<< HEAD
	<node lat="58.79802221877717" lon="5.630391662313189" id="-438">
		<tag k="name" v="Kvernebekken" />
		<tag k="ssr:stedsnr" v="510431" />
		<tag k="waterway" v="canal" />
	</node>
	<node lat="58.77510000089909" lon="5.625125002641923" id="-443">
		<tag k="junction" v="yes" />
		<tag k="name" v="Kleppekrossen" />
		<tag k="place" v="locality" />
		<tag k="ssr:stedsnr" v="546829" />
	</node>
	<node lat="58.75084444188301" lon="5.5966055601734706" id="-445">
		<tag k="name" v="Brautkanalen" />
		<tag k="ssr:stedsnr" v="569121" />
		<tag k="waterway" v="canal" />
	</node>
	<node lat="58.7775194486305" lon="5.678347215346119" id="-461">
=======
	<node id="-21131" lat="58.7806222265" lon="5.62833333706">
		<tag k="name" v="Kleppekanalen" />
		<tag k="ssr:stedsnr" v="692416" />
		<tag k="waterway" v="canal" />
	</node>
	<node id="-21394" lat="58.7865055561" lon="5.70596111931">
>>>>>>> e1d4bc35ff8a6074a6f2e91616a996b547c36f15
		<tag k="bridge" v="yes" />
		<tag k="layer" v="1" />
		<tag k="name" v="Engelsvoll" />
		<tag k="ssr:stedsnr" v="592775" />
	</node>
<<<<<<< HEAD
	<node lat="58.74516388830744" lon="5.634558331720188" id="-484">
=======
	<node id="-21393" lat="58.7451638883" lon="5.63455833172">
>>>>>>> e1d4bc35ff8a6074a6f2e91616a996b547c36f15
		<tag k="bridge" v="yes" />
		<tag k="layer" v="1" />
		<tag k="name" v="Tu" />
		<tag k="ssr:stedsnr" v="653765" />
	</node>
<<<<<<< HEAD
	<node lat="58.78650555613335" lon="5.705961119309912" id="-485">
=======
	<node id="-21392" lat="58.7814916649" lon="5.61686110582">
>>>>>>> e1d4bc35ff8a6074a6f2e91616a996b547c36f15
		<tag k="bridge" v="yes" />
		<tag k="layer" v="1" />
		<tag k="name" v="Øksnevad" />
		<tag k="ssr:stedsnr" v="653768" />
	</node>
<<<<<<< HEAD
	<node lat="58.701864181395244" lon="5.587785267270027" id="-486">
		<tag k="junction" v="yes" />
		<tag k="name" v="Saltekrossen" />
		<tag k="place" v="locality" />
		<tag k="ssr:stedsnr" v="665351" />
	</node>
	<node lat="58.71229166556505" lon="5.606938884602458" id="-487">
		<tag k="name" v="Saltekanalen" />
		<tag k="ssr:stedsnr" v="666483" />
		<tag k="waterway" v="canal" />
	</node>
	<node lat="58.8141944472611" lon="5.555766674441316" id="-536">
=======
	<node id="-21134" lat="58.8046027755" lon="5.6022388832">
>>>>>>> e1d4bc35ff8a6074a6f2e91616a996b547c36f15
		<tag k="bridge" v="yes" />
		<tag k="layer" v="1" />
		<tag k="name" v="Sele" />
		<tag k="ssr:stedsnr" v="836744" />
	</node>
<<<<<<< HEAD
	<node lat="58.71024166487096" lon="5.60891666513179" id="-537">
=======
	<node id="-21133" lat="58.7841472204" lon="5.60417777624">
>>>>>>> e1d4bc35ff8a6074a6f2e91616a996b547c36f15
		<tag k="bridge" v="yes" />
		<tag k="layer" v="1" />
		<tag k="name" v="Salte" />
		<tag k="ssr:stedsnr" v="836746" />
	</node>
<<<<<<< HEAD
	<node lat="58.81496944431565" lon="5.607163896283864" id="-564">
		<tag k="bridge" v="yes" />
		<tag k="layer" v="1" />
		<tag k="name" v="Skadsem" />
		<tag k="ssr:stedsnr" v="957752" />
	</node>
	<node lat="58.78654959897621" lon="5.701540842796438" id="-568">
		<tag k="name" v="Øksnavadporten haldeplass" />
		<tag k="railway" v="halt" />
		<tag k="ssr:stedsnr" v="990102" />
		<tag k="train" v="yes" />
=======
	<node id="-21387" lat="58.7398277748" lon="5.62604722942">
		<tag k="junction" v="yes" />
		<tag k="name" v="Tjøttakrossen" />
		<tag k="place" v="locality" />
		<tag k="ssr:stedsnr" v="630402" />
>>>>>>> e1d4bc35ff8a6074a6f2e91616a996b547c36f15
	</node>
	<node id="-20992" lat="58.7312194474" lon="5.5279027744">
		<tag k="bridge" v="yes" />
		<tag k="layer" v="1" />
		<tag k="name" v="Orre" />
		<tag k="ssr:stedsnr" v="471732" />
	</node>
	<node id="-21383" lat="58.8061333362" lon="5.5643472287">
		<tag k="name" v="Rødbekk" />
		<tag k="ssr:stedsnr" v="630092" />
		<tag k="waterway" v="canal" />
	</node>
	<node id="-21250" lat="58.801086109" lon="5.60056388744">
		<tag k="junction" v="yes" />
		<tag k="name" v="Holekrossen" />
		<tag k="place" v="locality" />
		<tag k="ssr:stedsnr" v="145085" />
	</node>
	<node id="-21249" lat="58.8082583304" lon="5.58673611597">
		<tag k="junction" v="yes" />
		<tag k="name" v="Gjesholskrossen" />
		<tag k="place" v="locality" />
		<tag k="ssr:stedsnr" v="145080" />
	</node>
</osm>
