<?xml version="1.0" encoding="UTF-8"?>
<osm generator="osmapis" version="0.6">
	<node id="-403455" lat="58.7442972232" lon="5.52821111033">
		<tag k="name" v="Ljoshaug" />
		<tag k="natural" v="hill" />
		<tag k="old_name" v="Jordhaug" />
		<tag k="place" v="locality" />
		<tag k="ssr:stedsnr" v="667887" />
	</node>
	<node id="-403068" lat="58.7952750041" lon="5.69182223018">
		<tag k="name" v="Haugane" />
		<tag k="natural" v="hill" />
		<tag k="place" v="locality" />
		<tag k="ssr:stedsnr" v="327267" />
	</node>
	<node id="-403498" lat="58.8116722216" lon="5.57769722629">
		<tag k="name" v="Fiskarberget" />
		<tag k="natural" v="mountain_range" />
		<tag k="ssr:stedsnr" v="752064" />
	</node>
	<node id="-403066" lat="58.7656194418" lon="5.56412499835">
		<tag k="name" v="Ørnhaug" />
		<tag k="natural" v="hill" />
		<tag k="place" v="locality" />
		<tag k="ssr:stedsnr" v="327114" />
	</node>
	<node id="-403577" lat="58.7857111134" lon="5.7185583398">
		<tag k="name" v="Orstadbakken" />
		<tag k="natural" v="slope" />
		<tag k="place" v="locality" />
		<tag k="ssr:stedsnr" v="873285" />
	</node>
	<node id="-403440" lat="58.8042164055" lon="5.62190545254">
		<tag k="name" v="Snelleberg" />
		<tag k="natural" v="hill" />
		<tag k="place" v="locality" />
		<tag k="ssr:stedsnr" v="631424" />
	</node>
	<node id="-403054" lat="58.7208805529" lon="5.52925556385">
		<tag k="name" v="Myklaberget" />
		<tag k="natural" v="hill" />
		<tag k="old_name" v="Muglaberget" />
		<tag k="place" v="locality" />
		<tag k="ssr:stedsnr" v="303864" />
	</node>
	<node id="-403303" lat="58.7263305575" lon="5.54666944461">
		<tag k="name" v="Mohaugen" />
		<tag k="natural" v="hill" />
		<tag k="place" v="locality" />
		<tag k="ssr:stedsnr" v="422248" />
	</node>
	<node id="-403296" lat="58.7930916705" lon="5.62797222395">
		<tag k="name" v="Grudevarden" />
		<tag k="natural" v="hill" />
		<tag k="place" v="locality" />
		<tag k="ssr:stedsnr" v="267223" />
	</node>
	<node id="-403294" lat="58.7629194403" lon="5.552638896">
		<tag k="name" v="Øyarbakka" />
		<tag k="natural" v="slope" />
		<tag k="place" v="locality" />
		<tag k="ssr:stedsnr" v="266750" />
	</node>
	<node id="-403287" lat="58.8255944458" lon="5.56842500243">
		<tag k="name" v="Bornholmen" />
		<tag k="natural" v="hill" />
		<tag k="place" v="locality" />
		<tag k="ssr:stedsnr" v="266381" />
	</node>
	<node id="-403414" lat="58.7208472229" lon="5.60759166304">
		<tag k="name" v="Reeheiane" />
		<tag k="natural" v="hill" />
		<tag k="place" v="locality" />
		<tag k="ssr:stedsnr" v="603238" />
	</node>
	<node id="-403285" lat="58.8230694473" lon="5.63403333586">
		<tag k="name" v="Einarberg" />
		<tag k="natural" v="hill" />
		<tag k="place" v="locality" />
		<tag k="ssr:stedsnr" v="266255" />
	</node>
	<node id="-403542" lat="58.7875805562" lon="5.60612777123">
		<tag k="fixme" v="consider natural=peak for the most distinct mountains in the district" />
		<tag k="name" v="Sporafjell" />
		<tag k="natural" v="hill" />
		<tag k="place" v="locality" />
		<tag k="ssr:stedsnr" v="813060" />
	</node>
	<node id="-403406" lat="58.7764138913" lon="5.62113889549">
		<tag k="name" v="Kleppevarden" />
		<tag k="natural" v="hill" />
		<tag k="place" v="locality" />
		<tag k="ssr:stedsnr" v="570378" />
	</node>
	<node id="-403401" lat="58.7664722245" lon="5.68006944085">
		<tag k="name" v="Gunnarsberget" />
		<tag k="natural" v="hill" />
		<tag k="place" v="locality" />
		<tag k="ssr:stedsnr" v="569478" />
	</node>
	<node id="-403397" lat="58.7517888891" lon="5.64486944224">
		<tag k="name" v="Tubakken" />
		<tag k="natural" v="slope" />
		<tag k="place" v="locality" />
		<tag k="ssr:stedsnr" v="569418" />
	</node>
	<node id="-403266" lat="58.7155861085" lon="5.54860000262">
		<tag k="name" v="Lynghaug" />
		<tag k="natural" v="hill" />
		<tag k="place" v="locality" />
		<tag k="ssr:stedsnr" v="239254" />
	</node>
	<node id="-403137" lat="58.7688583297" lon="5.67413611396">
		<tag k="name" v="Tangarhaug" />
		<tag k="natural" v="hill" />
		<tag k="place" v="locality" />
		<tag k="ssr:stedsnr" v="24450" />
	</node>
	<node id="-403392" lat="58.7784000045" lon="5.60467222559">
		<tag k="fixme" v="consider natural=peak for the most distinct mountains in the district" />
		<tag k="name" v="Hålandsfjell" />
		<tag k="natural" v="hill" />
		<tag k="place" v="locality" />
		<tag k="ssr:stedsnr" v="569102" />
	</node>
	<node id="-403135" lat="58.8114250005" lon="5.65313888678">
		<tag k="name" v="Følberget" />
		<tag k="natural" v="mountain_range" />
		<tag k="ssr:stedsnr" v="24424" />
	</node>
	<node id="-403133" lat="58.785502775" lon="5.71367222977">
		<tag k="name" v="Håbakken" />
		<tag k="natural" v="slope" />
		<tag k="place" v="locality" />
		<tag k="ssr:stedsnr" v="24247" />
	</node>
	<node id="-403514" lat="58.8019087423" lon="5.67335918276">
		<tag k="name" v="Øksnavadvarden" />
		<tag k="natural" v="hill" />
		<tag k="place" v="locality" />
		<tag k="ssr:stedsnr" v="752785" />
	</node>
	<node id="-403127" lat="58.8182500034" lon="5.54236110395">
		<tag k="name" v="Tangarhaug" />
		<tag k="natural" v="hill" />
		<tag k="place" v="locality" />
		<tag k="ssr:stedsnr" v="21429" />
	</node>
	<node id="-403509" lat="58.8222388871" lon="5.55082777035">
		<tag k="name" v="Haganes" />
		<tag k="natural" v="hill" />
		<tag k="place" v="locality" />
		<tag k="ssr:stedsnr" v="752363" />
	</node>
	<node id="-403508" lat="58.7898222198" lon="5.71691667409">
		<tag k="name" v="Ormadalen" />
		<tag k="natural" v="valley" />
		<tag k="place" v="locality" />
		<tag k="ssr:stedsnr" v="752239" />
	</node>
	<node id="-403507" lat="58.7821000018" lon="5.69412222495">
		<tag k="name" v="Eikebakken" />
		<tag k="natural" v="hill" />
		<tag k="place" v="locality" />
		<tag k="ssr:stedsnr" v="752237" />
	</node>
	<node id="-403250" lat="58.7924638864" lon="5.70308332774">
		<tag k="name" v="Elisberget" />
		<tag k="natural" v="hill" />
		<tag k="place" v="locality" />
		<tag k="ssr:stedsnr" v="206262" />
	</node>
	<node id="-403379" lat="58.7251555566" lon="5.64536666289">
		<tag k="name" v="Nubben" />
		<tag k="natural" v="slope" />
		<tag k="place" v="locality" />
		<tag k="ssr:stedsnr" v="544475" />
	</node>
	<node id="-403376" lat="58.7994833331" lon="5.71625554925">
		<tag k="name" v="Messingheia" />
		<tag k="natural" v="hill" />
		<tag k="place" v="locality" />
		<tag k="ssr:stedsnr" v="510823" />
	</node>
	<node id="-403374" lat="58.8105694409" lon="5.65697500695">
		<tag k="name" v="Husaberget" />
		<tag k="natural" v="mountain_range" />
		<tag k="ssr:stedsnr" v="510434" />
	</node>
	<node id="-403499" lat="58.7445527801" lon="5.58416666653">
		<tag k="name" v="Akerhaug" />
		<tag k="natural" v="hill" />
		<tag k="place" v="locality" />
		<tag k="ssr:stedsnr" v="752082" />
	</node>
	<node id="-403370" lat="58.7968916693" lon="5.62464444978">
		<tag k="name" v="Kjørberget" />
		<tag k="natural" v="hill" />
		<tag k="place" v="locality" />
		<tag k="ssr:stedsnr" v="510249" />
	</node>
	<node id="-403366" lat="58.7737694491" lon="5.61331945102">
		<tag k="name" v="Kleppelunden" />
		<tag k="natural" v="valley" />
		<tag k="place" v="locality" />
		<tag k="ssr:stedsnr" v="509428" />
	</node>
	<node id="-403104" lat="58.7913083355" lon="5.61606666379">
		<tag k="name" v="Grudhaug" />
		<tag k="natural" v="hill" />
		<tag k="place" v="locality" />
		<tag k="ssr:stedsnr" v="388226" />
	</node>
	<node id="-403487" lat="58.715780554" lon="5.61520278288">
		<tag k="name" v="Kjelsholen" />
		<tag k="natural" v="hill" />
		<tag k="place" v="locality" />
		<tag k="ssr:stedsnr" v="727468" />
	</node>
	<node id="-403356" lat="58.7383638932" lon="5.60620278518">
		<tag k="name" v="Grønhaug" />
		<tag k="natural" v="hill" />
		<tag k="place" v="locality" />
		<tag k="ssr:stedsnr" v="509084" />
	</node>
	<node id="-403351" lat="58.7532777816" lon="5.64185555507">
		<tag k="name" v="Tinghaug" />
		<tag k="natural" v="hill" />
		<tag k="place" v="locality" />
		<tag k="ssr:stedsnr" v="486863" />
	</node>
	<node id="-403094" lat="58.791047219" lon="5.57395832671">
		<tag k="fixme" v="consider natural=peak for the most distinct mountains in the district" />
		<tag k="name" v="Frostberget" />
		<tag k="natural" v="hill" />
		<tag k="place" v="locality" />
		<tag k="ssr:stedsnr" v="387081" />
	</node>
	<node id="-403093" lat="58.7623861105" lon="5.57973888155">
		<tag k="name" v="Revhaug" />
		<tag k="natural" v="hill" />
		<tag k="place" v="locality" />
		<tag k="ssr:stedsnr" v="387134" />
	</node>
	<node id="-403166" lat="58.8175722232" lon="5.55921667041">
		<tag k="name" v="Gardsberget" />
		<tag k="natural" v="mountain_range" />
		<tag k="ssr:stedsnr" v="84122" />
	</node>
	<node id="-403217" lat="58.7985527798" lon="5.62440277968">
		<tag k="name" v="Araberget" />
		<tag k="natural" v="mountain_range" />
		<tag k="ssr:stedsnr" v="145431" />
	</node>
	<node id="-403471" lat="58.7707666648" lon="5.59199722683">
		<tag k="name" v="Langholen" />
		<tag k="natural" v="hill" />
		<tag k="place" v="locality" />
		<tag k="ssr:stedsnr" v="691150" />
	</node>
	<node id="-403470" lat="58.7667333322" lon="5.55915832862">
		<tag k="name" v="Båsbakken" />
		<tag k="natural" v="slope" />
		<tag k="place" v="locality" />
		<tag k="ssr:stedsnr" v="691142" />
	</node>
	<node id="-403138" lat="58.7703305577" lon="5.64744721794">
		<tag k="name" v="Toftehaugane" />
		<tag k="natural" v="hill" />
		<tag k="place" v="locality" />
		<tag k="ssr:stedsnr" v="24462" />
	</node>
	<node id="-403210" lat="58.7675888907" lon="5.58722222411">
		<tag k="name" v="Haugabakken" />
		<tag k="natural" v="slope" />
		<tag k="place" v="locality" />
		<tag k="ssr:stedsnr" v="145118" />
	</node>
	<node id="-403075" lat="58.7981083373" lon="5.71154721452">
		<tag k="name" v="Varden" />
		<tag k="natural" v="hill" />
		<tag k="place" v="locality" />
		<tag k="ssr:stedsnr" v="328788" />
	</node>
	<node id="-403464" lat="58.8055444472" lon="5.66571111924">
		<tag k="name" v="Helleberget" />
		<tag k="natural" v="hill" />
		<tag k="place" v="locality" />
		<tag k="ssr:stedsnr" v="668915" />
	</node>
	<node id="-403203" lat="58.8127972178" lon="5.5721527786">
		<tag k="name" v="Omaberget" />
		<tag k="natural" v="mountain_range" />
		<tag k="ssr:stedsnr" v="145077" />
	</node>
	<node id="-403073" lat="58.8027694458" lon="5.6533416637">
		<tag k="name" v="Krosshaug" />
		<tag k="natural" v="mountain_range" />
		<tag k="ssr:stedsnr" v="328409" />
	</node>
</osm>
