<?xml version="1.0" encoding="UTF-8"?>
<osm generator="osmapis" version="0.6">
	<node id="-403449" lat="58.7275222188" lon="5.59418611584">
		<tag k="name" v="Grødelandskanalen" />
		<tag k="place" v="locality" />
		<tag k="ssr:stedsnr" v="664289" />
	</node>
	<node id="-403439" lat="58.7987277758" lon="5.6375833381">
		<tag k="name" v="Grudetjørna" />
		<tag k="natural" v="water" />
		<tag k="ssr:stedsnr" v="631419" />
	</node>
	<node id="-403438" lat="58.8002722247" lon="5.64491666916">
		<tag k="name" v="Gardhøl" />
		<tag k="place" v="locality" />
		<tag k="ssr:stedsnr" v="631420" />
	</node>
	<node id="-403435" lat="58.7723138921" lon="5.58088055714">
		<tag k="name" v="Friestadvika" />
		<tag k="natural" v="bay" />
		<tag k="ssr:stedsnr" v="630133" />
	</node>
	<node id="-403433" lat="58.7720750039" lon="5.57580278302">
		<tag k="name" v="Flatbaget" />
		<tag k="natural" v="cape" />
		<tag k="ssr:stedsnr" v="630127" />
	</node>
	<node id="-403426" lat="58.7933972245" lon="5.59423332461">
		<tag k="name" v="Fransahølen" />
		<tag k="place" v="locality" />
		<tag k="ssr:stedsnr" v="630071" />
	</node>
	<node id="-403103" lat="58.7967916635" lon="5.64731388229">
		<tag k="name" v="Steinhøl" />
		<tag k="place" v="locality" />
		<tag k="ssr:stedsnr" v="388223" />
	</node>
	<node id="-403364" lat="58.7697666678" lon="5.67764443569">
		<tag k="name" v="Sandholmen" />
		<tag k="place" v="islet" />
		<tag k="ssr:stedsnr" v="509422" />
	</node>
	<node id="-403360" lat="58.773833335" lon="5.57918332738">
		<tag k="name" v="Gabrielsholmen" />
		<tag k="place" v="islet" />
		<tag k="ssr:stedsnr" v="509116" />
	</node>
	<node id="-403359" lat="58.7446666695" lon="5.5392583304">
		<tag k="name" v="Ljosatangen" />
		<tag k="natural" v="cape" />
		<tag k="ssr:stedsnr" v="509110" />
	</node>
	<node id="-403357" lat="58.7357750035" lon="5.56842499264">
		<tag k="name" v="Roslandsholmen" />
		<tag k="place" v="islet" />
		<tag k="ssr:stedsnr" v="509089" />
	</node>
	<node id="-403355" lat="58.775891665" lon="5.58184166881">
		<tag k="name" v="Sandtangen" />
		<tag k="natural" v="cape" />
		<tag k="ssr:stedsnr" v="509081" />
	</node>
	<node id="-403354" lat="58.8000583312" lon="5.58098610825">
		<tag k="name" v="Breiangen" />
		<tag k="place" v="locality" />
		<tag k="ssr:stedsnr" v="509078" />
	</node>
	<node id="-403352" lat="58.7774611142" lon="5.57596945156">
		<tag k="name" v="Butangen" />
		<tag k="natural" v="cape" />
		<tag k="ssr:stedsnr" v="509064" />
	</node>
	<node id="-403345" lat="58.7336611115" lon="5.60235277647">
		<tag k="name" v="Roslandsåna" />
		<tag k="ssr:stedsnr" v="485838" />
		<tag k="waterway" v="river" />
	</node>
	<node id="-403096" lat="58.7988999983" lon="5.57779722914">
		<tag k="name" v="Østhølen" />
		<tag k="place" v="locality" />
		<tag k="ssr:stedsnr" v="387096" />
	</node>
	<node id="-403342" lat="58.7033999978" lon="5.56718055917">
		<tag k="name" v="Åsekanalen" />
		<tag k="place" v="locality" />
		<tag k="ssr:stedsnr" v="483347" />
	</node>
	<node id="-403337" lat="58.7297694456" lon="5.55229165959">
		<tag k="name" v="Brunnvika" />
		<tag k="natural" v="bay" />
		<tag k="ssr:stedsnr" v="482236" />
	</node>
	<node id="-403333" lat="58.8047722217" lon="5.66795277293">
		<tag k="name" v="Hellebergshøl" />
		<tag k="place" v="locality" />
		<tag k="ssr:stedsnr" v="449771" />
	</node>
	<node id="-403329" lat="58.7740805572" lon="5.68652222942">
		<tag k="name" v="Båtatangen" />
		<tag k="natural" v="cape" />
		<tag k="ssr:stedsnr" v="449399" />
	</node>
	<node id="-403327" lat="58.7708777791" lon="5.5624055589">
		<tag k="name" v="Mjånes" />
		<tag k="natural" v="cape" />
		<tag k="ssr:stedsnr" v="449102" />
	</node>
	<node id="-403326" lat="58.7697916708" lon="5.5614499945">
		<tag k="name" v="Mjånesholmen" />
		<tag k="place" v="islet" />
		<tag k="ssr:stedsnr" v="449100" />
	</node>
	<node id="-403325" lat="58.8152000023" lon="5.60750832562">
		<tag k="name" v="Leabekken" />
		<tag k="ssr:stedsnr" v="449095" />
		<tag k="waterway" v="stream" />
	</node>
	<node id="-403323" lat="58.7455472202" lon="5.54818332626">
		<tag k="name" v="Steinholmen" />
		<tag k="place" v="islet" />
		<tag k="ssr:stedsnr" v="449087" />
	</node>
	<node id="-403322" lat="58.7380083348" lon="5.56493055817">
		<tag k="name" v="Knoppatangen" />
		<tag k="natural" v="cape" />
		<tag k="ssr:stedsnr" v="449082" />
	</node>
	<node id="-403321" lat="58.7984638932" lon="5.57230832614">
		<tag k="name" v="Kattapollen" />
		<tag k="place" v="locality" />
		<tag k="ssr:stedsnr" v="449075" />
	</node>
	<node id="-403320" lat="58.7780666698" lon="5.5660972146">
		<tag k="name" v="Sauatangen" />
		<tag k="natural" v="cape" />
		<tag k="ssr:stedsnr" v="449056" />
	</node>
	<node id="-403312" lat="58.7378611079" lon="5.57181111413">
		<tag k="name" v="Horpestadvatnet" />
		<tag k="natural" v="water" />
		<tag k="ssr:stedsnr" v="425893" />
		<tag k="water" v="lake" />
	</node>
	<node id="-403300" lat="58.7994666653" lon="5.65507499965">
		<tag k="name" v="Sandhol" />
		<tag k="place" v="locality" />
		<tag k="ssr:stedsnr" v="267388" />
	</node>
	<node id="-403299" lat="58.801722222" lon="5.66281111879">
		<tag k="name" v="Asperhøl" />
		<tag k="place" v="locality" />
		<tag k="ssr:stedsnr" v="267387" />
	</node>
	<node id="-403290" lat="58.760088886" lon="5.68107221565">
		<tag k="name" v="Lalandsholmen" />
		<tag k="place" v="islet" />
		<tag k="ssr:stedsnr" v="266474" />
	</node>
	<node id="-403283" lat="58.7710805567" lon="5.57421388207">
		<tag k="name" v="Steinholmen" />
		<tag k="natural" v="cape" />
		<tag k="ssr:stedsnr" v="266119" />
	</node>
	<node id="-403259" lat="58.7611749988" lon="5.52254443929">
		<tag k="name" v="Revevika" />
		<tag k="natural" v="bay" />
		<tag k="ssr:stedsnr" v="206754" />
	</node>
	<node id="-403252" lat="58.8267472252" lon="5.56071943576">
		<tag k="name" v="Mosvatnet" />
		<tag k="natural" v="water" />
		<tag k="ssr:stedsnr" v="206365" />
		<tag k="water" v="lake" />
	</node>
	<node id="-403246" lat="58.7738388911" lon="5.58101388636">
		<tag k="name" v="Prestholmen" />
		<tag k="natural" v="cape" />
		<tag k="ssr:stedsnr" v="206121" />
	</node>
	<node id="-403222" lat="58.7994138907" lon="5.70030278489">
		<tag k="name" v="Lonatangen" />
		<tag k="natural" v="cape" />
		<tag k="ssr:stedsnr" v="145798" />
	</node>
	<node id="-403218" lat="58.7634944444" lon="5.68166111044">
		<tag k="name" v="Osholmen" />
		<tag k="place" v="islet" />
		<tag k="ssr:stedsnr" v="145449" />
	</node>
	<node id="-403207" lat="58.7405944446" lon="5.5691750047">
		<tag k="name" v="Lyngtangen" />
		<tag k="natural" v="cape" />
		<tag k="ssr:stedsnr" v="145100" />
	</node>
	<node id="-403201" lat="58.7935277743" lon="5.60637777564">
		<tag k="name" v="Krokhøl" />
		<tag k="place" v="locality" />
		<tag k="ssr:stedsnr" v="145053" />
	</node>
	<node id="-403200" lat="58.7944333297" lon="5.59231945102">
		<tag k="name" v="Blegevika" />
		<tag k="place" v="locality" />
		<tag k="ssr:stedsnr" v="145051" />
	</node>
	<node id="-403199" lat="58.7564500013" lon="5.55825278099">
		<tag k="name" v="Kattelandsvika" />
		<tag k="natural" v="bay" />
		<tag k="ssr:stedsnr" v="145010" />
	</node>
	<node id="-403193" lat="58.734491669" lon="5.53405555138">
		<tag k="alt_name" v="Orreelva" />
		<tag k="name" v="Orreåna" />
		<tag k="ssr:stedsnr" v="121843" />
		<tag k="waterway" v="stream" />
	</node>
	<node id="-403192" lat="58.7311924265" lon="5.55132427553">
		<tag k="name" v="Ergavatnet" />
		<tag k="natural" v="water" />
		<tag k="ssr:stedsnr" v="121841" />
		<tag k="water" v="lake" />
	</node>
	<node id="-403169" lat="58.7707916644" lon="5.57784444386">
		<tag k="name" v="Nesevika" />
		<tag k="natural" v="bay" />
		<tag k="ssr:stedsnr" v="84149" />
	</node>
	<node id="-403168" lat="58.7478694474" lon="5.5562388935">
		<tag k="name" v="Holmavadet" />
		<tag k="natural" v="cape" />
		<tag k="ssr:stedsnr" v="84135" />
	</node>
	<node id="-403167" lat="58.7423583362" lon="5.57596943853">
		<tag k="name" v="Ragabakktangen" />
		<tag k="natural" v="cape" />
		<tag k="ssr:stedsnr" v="84124" />
	</node>
	<node id="-403164" lat="58.7757361092" lon="5.58745556176">
		<tag k="name" v="Skådeheibekken" />
		<tag k="ssr:stedsnr" v="84116" />
		<tag k="waterway" v="stream" />
	</node>
	<node id="-403148" lat="58.7118444418" lon="5.54957500094">
		<tag k="name" v="Skeiekanalen" />
		<tag k="place" v="locality" />
		<tag k="ssr:stedsnr" v="57216" />
	</node>
	<node id="-403146" lat="58.7323249999" lon="5.55138333633">
		<tag k="name" v="Grasholmen" />
		<tag k="place" v="islet" />
		<tag k="ssr:stedsnr" v="57202" />
	</node>
	<node id="-403130" lat="58.7484111147" lon="5.55243333001">
		<tag k="name" v="Stormåkeholmane" />
		<tag k="place" v="islet" />
		<tag k="ssr:stedsnr" v="24084" />
	</node>
	<node id="-403056" lat="58.7564361128" lon="5.5351638876">
		<tag k="name" v="Maleneset" />
		<tag k="natural" v="cape" />
		<tag k="ssr:stedsnr" v="303898" />
	</node>
	<node id="-403099" lat="58.7703361075" lon="5.68036944835">
		<tag k="name" v="Ytreholmen" />
		<tag k="place" v="islet" />
		<tag k="ssr:stedsnr" v="387452" />
	</node>
	<node id="-403608" lat="58.8014944406" lon="5.63773332577">
		<tag k="name" v="Svarthøl" />
		<tag k="place" v="locality" />
		<tag k="ssr:stedsnr" v="935460" />
	</node>
	<node id="-403095" lat="58.8110222226" lon="5.56978888791">
		<tag k="name" v="Alvevatnet" />
		<tag k="natural" v="water" />
		<tag k="ssr:stedsnr" v="387092" />
		<tag k="water" v="lake" />
	</node>
	<node id="-403606" lat="58.7608000001" lon="5.54926666645">
		<tag k="name" v="Øyarholmen" />
		<tag k="natural" v="cape" />
		<tag k="ssr:stedsnr" v="934731" />
	</node>
	<node id="-403603" lat="58.7750555513" lon="5.58181666426">
		<tag k="name" v="Skådeheivika" />
		<tag k="natural" v="bay" />
		<tag k="ssr:stedsnr" v="934112" />
	</node>
	<node id="-403601" lat="58.8108000038" lon="5.54951666867">
		<tag k="name" v="Kvenhus-hølen" />
		<tag k="place" v="locality" />
		<tag k="ssr:stedsnr" v="934097" />
	</node>
	<node id="-403598" lat="58.7967444446" lon="5.5873861065">
		<tag k="name" v="Holmahølen" />
		<tag k="place" v="locality" />
		<tag k="ssr:stedsnr" v="934064" />
	</node>
	<node id="-403597" lat="58.8034151069" lon="5.6981665295">
		<tag k="name" v="Lonavatnet" />
		<tag k="natural" v="water" />
		<tag k="old_name" v="Lonavatn" />
		<tag k="ssr:stedsnr" v="911918" />
	</node>
	<node id="-403081" lat="58.7319472181" lon="5.5533916724">
		<tag k="name" v="Ternholmen" />
		<tag k="place" v="islet" />
		<tag k="ssr:stedsnr" v="361286" />
	</node>
	<node id="-403071" lat="58.7965138919" lon="5.65188610446">
		<tag k="name" v="Krokhøl" />
		<tag k="place" v="locality" />
		<tag k="ssr:stedsnr" v="328226" />
	</node>
	<node id="-403578" lat="58.8224916625" lon="5.57454444505">
		<tag k="name" v="Ølstevatnet" />
		<tag k="natural" v="water" />
		<tag k="ssr:stedsnr" v="873394" />
		<tag k="water" v="lake" />
	</node>
	<node id="-403574" lat="58.7639138903" lon="5.55888333597">
		<tag k="name" v="Sevjegardsvika" />
		<tag k="natural" v="water" />
		<tag k="ssr:stedsnr" v="873123" />
	</node>
	<node id="-403573" lat="58.77665278" lon="5.57881388322">
		<tag k="name" v="Langtangen" />
		<tag k="natural" v="cape" />
		<tag k="ssr:stedsnr" v="873079" />
	</node>
	<node id="-403570" lat="58.8052916988" lon="5.61700782308">
		<tag k="alt_name" v="Vasshusvika" />
		<tag k="name" v="Vasshusvatnet" />
		<tag k="natural" v="water" />
		<tag k="ssr:stedsnr" v="851928" />
	</node>
	<node id="-403569" lat="58.7999979101" lon="5.62136801978">
		<tag k="alt_name" v="Gudevatnet;Grudevatnet" />
		<tag k="name" v="Grudavatnet" />
		<tag k="natural" v="water" />
		<tag k="old_name" v="Grudavatn" />
		<tag k="ssr:stedsnr" v="851925" />
	</node>
	<node id="-403568" lat="58.7968666629" lon="5.58357777596">
		<tag k="name" v="Figgjo" />
		<tag k="ssr:stedsnr" v="851922" />
		<tag k="waterway" v="river" />
	</node>
	<node id="-403052" lat="58.72808611" lon="5.52113889665">
		<tag k="name" v="Orreelva" />
		<tag k="ssr:stedsnr" v="300280" />
		<tag k="waterway" v="river" />
	</node>
	<node id="-403050" lat="58.7303111086" lon="5.54796944025">
		<tag k="name" v="Orretangen" />
		<tag k="natural" v="cape" />
		<tag k="ssr:stedsnr" v="300266" />
	</node>
	<node id="-403549" lat="58.7982750029" lon="5.70176666868">
		<tag k="name" v="Hølen" />
		<tag k="place" v="locality" />
		<tag k="ssr:stedsnr" v="813789" />
	</node>
	<node id="-403547" lat="58.750336113" lon="5.67013610455">
		<tag k="name" v="Jakobskråna" />
		<tag k="natural" v="bay" />
		<tag k="ssr:stedsnr" v="813392" />
	</node>
	<node id="-403541" lat="58.7923472244" lon="5.59417221943">
		<tag k="name" v="Saustenshølen" />
		<tag k="place" v="locality" />
		<tag k="ssr:stedsnr" v="813058" />
	</node>
	<node id="-403539" lat="58.7570666709" lon="5.5505888955">
		<tag k="name" v="Hausskodlen" />
		<tag k="natural" v="cape" />
		<tag k="ssr:stedsnr" v="812779" />
	</node>
	<node id="-403537" lat="58.7549916701" lon="5.67751110541">
		<tag k="name" v="Steintangen" />
		<tag k="natural" v="cape" />
		<tag k="ssr:stedsnr" v="812515" />
	</node>
	<node id="-403532" lat="58.8009027777" lon="5.56770000314">
		<tag k="name" v="Krossane" />
		<tag k="place" v="locality" />
		<tag k="ssr:stedsnr" v="812079" />
	</node>
	<node id="-403506" lat="58.7814194481" lon="5.70801389278">
		<tag k="alt_name" v="Tollvika" />
		<tag k="name" v="Trollvika" />
		<tag k="natural" v="bay" />
		<tag k="ssr:stedsnr" v="752235" />
	</node>
	<node id="-403505" lat="58.7830472181" lon="5.71231388719">
		<tag k="name" v="Osen" />
		<tag k="natural" v="bay" />
		<tag k="ssr:stedsnr" v="752230" />
	</node>
	<node id="-403504" lat="58.7789333292" lon="5.69760554849">
		<tag k="name" v="Butangen" />
		<tag k="natural" v="cape" />
		<tag k="ssr:stedsnr" v="752226" />
	</node>
	<node id="-403502" lat="58.769349999" lon="5.57320278329">
		<tag k="name" v="Torvå" />
		<tag k="natural" v="cape" />
		<tag k="ssr:stedsnr" v="752093" />
	</node>
	<node id="-403500" lat="58.8065333359" lon="5.54836111161">
		<tag k="name" v="Elvenes" />
		<tag k="natural" v="cape" />
		<tag k="ssr:stedsnr" v="752084" />
	</node>
	<node id="-403491" lat="58.7467249961" lon="5.53799166753">
		<tag k="name" v="Orrevatnet" />
		<tag k="natural" v="water" />
		<tag k="ssr:stedsnr" v="728894" />
		<tag k="water" v="lake" />
	</node>
	<node id="-403482" lat="58.7994527774" lon="5.67734165862">
		<tag k="name" v="Øksnavadtjørna" />
		<tag k="natural" v="water" />
		<tag k="ssr:stedsnr" v="692790" />
	</node>
	<node id="-403481" lat="58.7994138859" lon="5.69922500207">
		<tag k="name" v="Osen" />
		<tag k="place" v="locality" />
		<tag k="ssr:stedsnr" v="692789" />
	</node>
	<node id="-403476" lat="58.7767194437" lon="5.69029167003">
		<tag k="name" v="Syllesbukta" />
		<tag k="natural" v="bay" />
		<tag k="ssr:stedsnr" v="692245" />
	</node>
	<node id="-403475" lat="58.7796555515" lon="5.68951110912">
		<tag k="name" v="Engjelsvåg" />
		<tag k="natural" v="water" />
		<tag k="ssr:stedsnr" v="692242" />
		<tag k="water" v="lake" />
	</node>
	<node id="-403472" lat="58.7800527815" lon="5.70797778173">
		<tag k="name" v="Tolleivsholmen" />
		<tag k="place" v="islet" />
		<tag k="ssr:stedsnr" v="691305" />
	</node>
	<node id="-403466" lat="58.8030527756" lon="5.55770833141">
		<tag k="name" v="Buahølen" />
		<tag k="place" v="locality" />
		<tag k="ssr:stedsnr" v="691110" />
	</node>
</osm>
