<?xml version="1.0" encoding="UTF-8"?>
<osm generator="osmapis" version="0.6">
	<node id="-2560" lat="58.8212333291" lon="5.62177500173">
		<tag k="name" v="Kvitemyr" />
		<tag k="natural" v="wetland" />
		<tag k="ssr:stedsnr" v="145231" />
	</node>
	<node id="-2559" lat="58.7443611118" lon="5.51820832644">
		<tag k="name" v="Orremarka" />
		<tag k="place" v="locality" />
		<tag k="ssr:stedsnr" v="145121" />
	</node>
	<node id="-2673" lat="58.764097225" lon="5.61969722702">
		<tag k="loc_name" v="Pighella" />
		<tag k="name" v="Pigghella" />
		<tag k="natural" v="stone" />
		<tag k="ssr:stedsnr" v="569496" />
	</node>
	<node id="-2416" lat="58.7481638926" lon="5.60500832568">
		<tag k="name" v="Brautmarka" />
		<tag k="place" v="locality" />
		<tag k="ssr:stedsnr" v="630122" />
	</node>
	<node id="-2216" lat="58.7464333311" lon="5.61693889266">
		<tag k="name" v="Haugemarkene" />
		<tag k="place" v="locality" />
		<tag k="ssr:stedsnr" v="24409" />
	</node>
	<node id="-2667" lat="58.7482583354" lon="5.65834165782">
		<tag k="name" v="Tumarkene" />
		<tag k="place" v="locality" />
		<tag k="ssr:stedsnr" v="569417" />
	</node>
	<node id="-2740" lat="58.7999611075" lon="5.63229445317">
		<tag k="name" v="Trelende" />
		<tag k="place" v="locality" />
		<tag k="ssr:stedsnr" v="813389" />
	</node>
	<node id="-2256" lat="58.7961972256" lon="5.64430833334">
		<tag k="name" v="Lende" />
		<tag k="place" v="locality" />
		<tag k="ssr:stedsnr" v="267229" />
	</node>
	<node id="-2767" lat="58.7846611119" lon="5.61513332571">
		<tag k="name" v="Kleppemarkene" />
		<tag k="place" v="locality" />
		<tag k="ssr:stedsnr" v="874445" />
	</node>
	<node id="-2510" lat="58.6979888924" lon="5.57191111468">
		<tag k="name" v="Øgardsfitjane" />
		<tag k="natural" v="wetland" />
		<tag k="ssr:stedsnr" v="59307" />
	</node>
	<node id="-2381" lat="58.7868416658" lon="5.67370277219">
		<tag k="name" v="Gullhelle" />
		<tag k="place" v="locality" />
		<tag k="ssr:stedsnr" v="509259" />
	</node>
	<node id="-2636" lat="58.7791638908" lon="5.66789165987">
		<tag k="name" v="Andamarkene" />
		<tag k="place" v="locality" />
		<tag k="ssr:stedsnr" v="388230" />
	</node>
	<node id="-2507" lat="58.7260499958" lon="5.59426111338">
		<tag k="name" v="Grødelandsmyra" />
		<tag k="natural" v="wetland" />
		<tag k="ssr:stedsnr" v="57277" />
	</node>
	<node id="-2761" lat="58.7867361135" lon="5.58268888753">
		<tag k="name" v="Stemmemyra" />
		<tag k="natural" v="wetland" />
		<tag k="ssr:stedsnr" v="873076" />
	</node>
	<node id="-2244" lat="58.7894333294" lon="5.67936389056">
		<tag k="name" v="Heia" />
		<tag k="place" v="locality" />
		<tag k="ssr:stedsnr" v="266290" />
	</node>
	<node id="-2304" lat="58.7215000018" lon="5.57993054843">
		<tag k="name" v="Pollestadmyra" />
		<tag k="natural" v="wetland" />
		<tag k="ssr:stedsnr" v="482233" />
	</node>
	<node id="-2751" lat="58.7874027765" lon="5.70057499649">
		<tag k="name" v="Øksnavadmyrane" />
		<tag k="natural" v="wetland" />
		<tag k="ssr:stedsnr" v="851834" />
	</node>
	<node id="-2493" lat="58.7985888893" lon="5.56337222031">
		<tag k="alt_name" v="Boremarkene" />
		<tag k="name" v="Boremarka" />
		<tag k="place" v="locality" />
		<tag k="ssr:stedsnr" v="24088" />
	</node>
	<node id="-2231" lat="58.78553333" lon="5.54590832869">
		<tag k="name" v="Hodnemarkene" />
		<tag k="place" v="locality" />
		<tag k="ssr:stedsnr" v="84118" />
	</node>
	<node id="-2356" lat="58.7226861085" lon="5.54953888775">
		<tag k="name" v="Ergamyra" />
		<tag k="natural" v="wetland" />
		<tag k="ssr:stedsnr" v="664233" />
	</node>
	<node id="-2739" lat="58.8036111075" lon="5.64330833379">
		<tag k="name" v="Stangelandsmyrane" />
		<tag k="natural" v="wetland" />
		<tag k="ssr:stedsnr" v="813387" />
	</node>
	<node id="-2481" lat="58.7284638891" lon="5.53916389409">
		<tag k="name" v="Vassmyra" />
		<tag k="natural" v="wetland" />
		<tag k="ssr:stedsnr" v="967205" />
	</node>
	<node id="-2732" lat="58.7579972252" lon="5.50802776955">
		<tag k="name" v="Revemarka" />
		<tag k="place" v="locality" />
		<tag k="ssr:stedsnr" v="812759" />
	</node>
	<node id="-2600" lat="58.7522722265" lon="5.48723611692">
		<tag k="name" v="Kobbasteinane" />
		<tag k="natural" v="stone" />
		<tag k="ssr:stedsnr" v="206739" />
	</node>
	<node id="-2342" lat="58.6959444445" lon="5.55120000487">
		<tag k="name" v="Skeieskogen" />
		<tag k="place" v="locality" />
		<tag k="ssr:stedsnr" v="422323" />
	</node>
	<node id="-2597" lat="58.813399996" lon="5.63407222115">
		<tag k="name" v="Sveinsvollsmarkene" />
		<tag k="place" v="locality" />
		<tag k="ssr:stedsnr" v="206402" />
	</node>
	<node id="-2594" lat="58.7967888849" lon="5.69146110347">
		<tag k="name" v="Knappholsmyra" />
		<tag k="natural" v="wetland" />
		<tag k="ssr:stedsnr" v="206264" />
	</node>
	<node id="-2589" lat="58.7840361095" lon="5.53743888354">
		<tag k="name" v="Sandsenden" />
		<tag k="natural" v="beach" />
		<tag k="ssr:stedsnr" v="206098" />
		<tag k="surface" v="sand" />
	</node>
	<node id="-2460" lat="58.8040749966" lon="5.57468888642">
		<tag k="name" v="Selemarka" />
		<tag k="place" v="locality" />
		<tag k="ssr:stedsnr" v="934080" />
	</node>
	<node id="-2713" lat="58.7176916626" lon="5.52300832803">
		<tag k="name" v="Øykamarka" />
		<tag k="place" v="locality" />
		<tag k="ssr:stedsnr" v="785240" />
	</node>
	<node id="-2708" lat="58.7914694428" lon="5.72812499738">
		<tag k="name" v="Orstadmarkene" />
		<tag k="place" v="locality" />
		<tag k="ssr:stedsnr" v="752581" />
	</node>
	<node id="-2698" lat="58.7818166698" lon="5.60075555117">
		<tag k="name" v="Tjømamyra" />
		<tag k="natural" v="wetland" />
		<tag k="ssr:stedsnr" v="752056" />
	</node>
	<node id="-2439" lat="58.7304638919" lon="5.51996944825">
		<tag k="landuse" v="meadow" />
		<tag k="name" v="Skårtangteigane" />
		<tag k="ssr:stedsnr" v="907226" />
	</node>
	<node id="-2307" lat="58.7162361111" lon="5.54366111035">
		<tag k="landuse" v="meadow" />
		<tag k="name" v="Vikmarka" />
		<tag k="ssr:stedsnr" v="482251" />
	</node>
	<node id="-2306" lat="58.7179916689" lon="5.60016389567">
		<tag k="landuse" v="meadow" />
		<tag k="name" v="Saltemarkene" />
		<tag k="ssr:stedsnr" v="482242" />
	</node>
	<node id="-2433" lat="58.7822166667" lon="5.61909722262">
		<tag k="name" v="Kleppemyra" />
		<tag k="natural" v="wetland" />
		<tag k="ssr:stedsnr" v="692415" />
	</node>
</osm>
