<?xml version="1.0" encoding="UTF-8"?>
<<<<<<< HEAD
<osm version="0.6" generator="osmapis">
	<node lat="63.415258334983434" lon="8.174616659236353" id="-6916">
		<tag k="name" v="Kjeøygrunnen" />
		<tag k="ssr:date" v="2016-05-10" />
		<tag k="ssr:gruppe" v="navigasjon" />
		<tag k="ssr:hovedgruppe" v="infrastruktur" />
		<tag k="ssr:stedsnr" v="37018" />
		<tag k="ssr:type" v="fyrlykt" />
	</node>
	<node lat="63.27488581319199" lon="7.99298398658938" id="-7025">
		<tag k="name" v="Ringskjæret" />
		<tag k="old_name" v="Ringskjeret" />
		<tag k="ssr:date" v="2020-09-08" />
		<tag k="ssr:gruppe" v="navigasjon" />
		<tag k="ssr:hovedgruppe" v="infrastruktur" />
		<tag k="ssr:stedsnr" v="254873" />
		<tag k="ssr:type" v="fyrlykt" />
	</node>
	<node lat="63.35769166723449" lon="7.859199990135964" id="-7091">
		<tag k="name" v="Kalvøy" />
		<tag k="ssr:date" v="2016-05-10" />
		<tag k="ssr:gruppe" v="navigasjon" />
		<tag k="ssr:hovedgruppe" v="infrastruktur" />
		<tag k="ssr:stedsnr" v="270342" />
		<tag k="ssr:type" v="fyrlykt" />
	</node>
	<node lat="63.44881488958691" lon="7.818943257558709" id="-7134">
		<tag k="name" v="Frisholmen" />
		<tag k="ssr:date" v="2020-09-08" />
		<tag k="ssr:gruppe" v="navigasjon" />
		<tag k="ssr:hovedgruppe" v="infrastruktur" />
		<tag k="ssr:stedsnr" v="255512" />
		<tag k="ssr:type" v="fyrlykt" />
	</node>
	<node lat="63.4475888910741" lon="8.153011114035008" id="-7142">
		<tag k="name" v="Reiråklakken" />
		<tag k="old_name" v="Reiklakken" />
		<tag k="ssr:date" v="2016-05-10" />
		<tag k="ssr:gruppe" v="navigasjon" />
		<tag k="ssr:hovedgruppe" v="infrastruktur" />
		<tag k="ssr:stedsnr" v="255774" />
		<tag k="ssr:type" v="fyrlykt" />
	</node>
	<node lat="63.43407777864047" lon="8.155574991660115" id="-7150">
		<tag k="name" v="Mareskjærflu" />
		<tag k="ssr:date" v="2016-05-10" />
		<tag k="ssr:gruppe" v="navigasjon" />
		<tag k="ssr:hovedgruppe" v="infrastruktur" />
		<tag k="ssr:stedsnr" v="280017" />
		<tag k="ssr:type" v="fyrlykt" />
	</node>
	<node lat="63.35670555852586" lon="7.847147214557947" id="-7155">
		<tag k="name" v="Klakkavåg" />
		<tag k="ssr:date" v="2016-05-10" />
		<tag k="ssr:gruppe" v="navigasjon" />
		<tag k="ssr:hovedgruppe" v="infrastruktur" />
		<tag k="ssr:stedsnr" v="284913" />
		<tag k="ssr:type" v="fyrlykt" />
	</node>
	<node lat="63.42792778117878" lon="7.8413805486104255" id="-7260">
		<tag k="name" v="Dyrnes" />
		<tag k="ssr:date" v="2021-06-08" />
=======
<osm generator="osmapis" version="0.6">
	<node id="-92159" lat="63.5332478783" lon="7.96266232601">
		<tag k="name" v="Haugjegla fyr" />
		<tag k="ssr:date" v="2019-02-12" />
		<tag k="ssr:gruppe" v="navigasjon" />
		<tag k="ssr:hovedgruppe" v="infrastruktur" />
		<tag k="ssr:stedsnr" v="923215" />
		<tag k="ssr:type" v="fyrstasjon" />
	</node>
	<node id="-92666" lat="63.3102333366" lon="8.22655278336">
		<tag k="name" v="Kyrhaug fyr" />
		<tag k="ssr:date" v="2016-05-10" />
		<tag k="ssr:gruppe" v="navigasjon" />
		<tag k="ssr:hovedgruppe" v="infrastruktur" />
		<tag k="ssr:stedsnr" v="316375" />
		<tag k="ssr:type" v="fyrstasjon" />
	</node>
	<node id="-91619" lat="63.4488277738" lon="7.8189361091">
		<tag k="name" v="Frisholmen" />
		<tag k="ssr:date" v="2016-05-10" />
		<tag k="ssr:gruppe" v="navigasjon" />
		<tag k="ssr:hovedgruppe" v="infrastruktur" />
		<tag k="ssr:stedsnr" v="255512" />
		<tag k="ssr:type" v="fyrlykt" />
	</node>
	<node id="-91387" lat="63.415258335" lon="8.17461665924">
		<tag k="name" v="Kjeøygrunnen" />
		<tag k="ssr:date" v="2016-05-10" />
		<tag k="ssr:gruppe" v="navigasjon" />
		<tag k="ssr:hovedgruppe" v="infrastruktur" />
		<tag k="ssr:stedsnr" v="37018" />
		<tag k="ssr:type" v="fyrlykt" />
	</node>
	<node id="-92128" lat="63.3456361071" lon="7.7750916696">
		<tag k="name" v="Skarholmen" />
		<tag k="ssr:date" v="2016-05-11" />
		<tag k="ssr:gruppe" v="navigasjon" />
		<tag k="ssr:hovedgruppe" v="infrastruktur" />
		<tag k="ssr:stedsnr" v="741854" />
		<tag k="ssr:type" v="fyrlykt" />
	</node>
	<node id="-91615" lat="63.2747027763" lon="7.99235277334">
		<tag k="name" v="Ringskjæret" />
		<tag k="old_name" v="Ringskjeret" />
		<tag k="ssr:date" v="2016-05-10" />
		<tag k="ssr:gruppe" v="navigasjon" />
		<tag k="ssr:hovedgruppe" v="infrastruktur" />
		<tag k="ssr:stedsnr" v="254873" />
		<tag k="ssr:type" v="fyrlykt" />
	</node>
	<node id="-92617" lat="63.3422388933" lon="8.17225278046">
		<tag k="name" v="Gjernesskjæret" />
		<tag k="old_name" v="Gjernesskjeret" />
		<tag k="ssr:date" v="2016-05-10" />
		<tag k="ssr:gruppe" v="navigasjon" />
		<tag k="ssr:hovedgruppe" v="infrastruktur" />
		<tag k="ssr:stedsnr" v="194784" />
		<tag k="ssr:type" v="fyrlykt" />
	</node>
	<node id="-93119" lat="63.4871444488" lon="7.99829165923">
		<tag k="name" v="Haugøya" />
		<tag k="old_name" v="Hauøy" />
		<tag k="ssr:date" v="2016-05-11" />
		<tag k="ssr:gruppe" v="navigasjon" />
		<tag k="ssr:hovedgruppe" v="infrastruktur" />
		<tag k="ssr:stedsnr" v="740574" />
		<tag k="ssr:type" v="fyrlykt" />
	</node>
	<node id="-92606" lat="63.4095277807" lon="7.7694472262">
		<tag k="name" v="Kvaløy" />
		<tag k="ssr:date" v="2016-05-10" />
		<tag k="ssr:gruppe" v="navigasjon" />
		<tag k="ssr:hovedgruppe" v="infrastruktur" />
		<tag k="ssr:stedsnr" v="194662" />
		<tag k="ssr:type" v="fyrlykt" />
	</node>
	<node id="-91554" lat="63.2828666679" lon="7.79361110434">
		<tag k="name" v="Omsundholmen" />
		<tag k="ssr:date" v="2016-05-10" />
		<tag k="ssr:gruppe" v="navigasjon" />
		<tag k="ssr:hovedgruppe" v="infrastruktur" />
		<tag k="ssr:stedsnr" v="194920" />
		<tag k="ssr:type" v="fyrlykt" />
	</node>
	<node id="-91376" lat="63.2207166622" lon="7.76243888919">
		<tag k="name" v="Godtaren" />
		<tag k="ssr:date" v="2019-12-27" />
		<tag k="ssr:gruppe" v="navigasjon" />
		<tag k="ssr:hovedgruppe" v="infrastruktur" />
		<tag k="ssr:stedsnr" v="223532" />
		<tag k="ssr:type" v="lysbøye" />
	</node>
	<node id="-91544" lat="63.3567055585" lon="7.84714721456">
		<tag k="name" v="Klakkavåg" />
		<tag k="ssr:date" v="2016-05-10" />
		<tag k="ssr:gruppe" v="navigasjon" />
		<tag k="ssr:hovedgruppe" v="infrastruktur" />
		<tag k="ssr:stedsnr" v="284913" />
		<tag k="ssr:type" v="fyrlykt" />
	</node>
	<node id="-92397" lat="63.4652138846" lon="8.03136388406">
		<tag k="name" v="Hopaøya" />
		<tag k="old_name" v="Hopøy;Hopøya;Hoapøya" />
		<tag k="ssr:date" v="2016-05-10" />
		<tag k="ssr:gruppe" v="navigasjon" />
		<tag k="ssr:hovedgruppe" v="infrastruktur" />
		<tag k="ssr:stedsnr" v="73565" />
		<tag k="ssr:type" v="fyrlykt" />
	</node>
	<node id="-91532" lat="63.4340777786" lon="8.15557499166">
		<tag k="name" v="Mareskjærflu" />
		<tag k="ssr:date" v="2016-05-10" />
		<tag k="ssr:gruppe" v="navigasjon" />
		<tag k="ssr:hovedgruppe" v="infrastruktur" />
		<tag k="ssr:stedsnr" v="280017" />
		<tag k="ssr:type" v="fyrlykt" />
	</node>
	<node id="-92042" lat="63.3261249972" lon="8.2145861112">
		<tag k="name" v="Nordre Katholmen" />
		<tag k="old_name" v="Katholmen" />
		<tag k="ssr:date" v="2016-05-11" />
		<tag k="ssr:gruppe" v="navigasjon" />
		<tag k="ssr:hovedgruppe" v="infrastruktur" />
		<tag k="ssr:stedsnr" v="679967" />
		<tag k="ssr:type" v="fyrlykt" />
	</node>
	<node id="-92035" lat="63.4514666689" lon="7.86106389606">
		<tag k="name" v="Steinløysa" />
		<tag k="ssr:date" v="2016-05-10" />
>>>>>>> e1d4bc35ff8a6074a6f2e91616a996b547c36f15
		<tag k="ssr:gruppe" v="navigasjon" />
		<tag k="ssr:hovedgruppe" v="infrastruktur" />
		<tag k="ssr:stedsnr" v="418288" />
		<tag k="ssr:type" v="fyrlykt" />
	</node>
<<<<<<< HEAD
	<node lat="63.39710702982813" lon="7.7237320214892" id="-7266">
		<tag k="name" v="Litlflisa" />
		<tag k="ssr:date" v="2021-06-08" />
		<tag k="ssr:gruppe" v="navigasjon" />
		<tag k="ssr:hovedgruppe" v="infrastruktur" />
		<tag k="ssr:stedsnr" v="437654" />
		<tag k="ssr:type" v="fyrlykt" />
	</node>
	<node lat="63.276860690532956" lon="7.765988360243887" id="-7274">
		<tag k="name" v="Lyngvær" />
		<tag k="ssr:date" v="2020-09-08" />
		<tag k="ssr:gruppe" v="navigasjon" />
		<tag k="ssr:hovedgruppe" v="infrastruktur" />
		<tag k="ssr:stedsnr" v="437916" />
		<tag k="ssr:type" v="fyrlykt" />
	</node>
	<node lat="63.27039166483019" lon="7.780299993745943" id="-7508">
		<tag k="name" v="Ivarflu" />
=======
	<node id="-91371" lat="63.3635888903" lon="8.28273888338">
		<tag k="alt_name" v="Remmingsskjær" />
		<tag k="name" v="Remmingskjæret" />
		<tag k="old_name" v="Remmingskjeret" />
		<tag k="ssr:date" v="2016-05-10" />
		<tag k="ssr:gruppe" v="navigasjon" />
		<tag k="ssr:hovedgruppe" v="infrastruktur" />
		<tag k="ssr:stedsnr" v="12237" />
		<tag k="ssr:type" v="fyrlykt" />
	</node>
	<node id="-91520" lat="63.3576916672" lon="7.85919999014">
		<tag k="name" v="Kalvøy" />
		<tag k="ssr:date" v="2016-05-10" />
		<tag k="ssr:gruppe" v="navigasjon" />
		<tag k="ssr:hovedgruppe" v="infrastruktur" />
		<tag k="ssr:stedsnr" v="270342" />
		<tag k="ssr:type" v="fyrlykt" />
	</node>
	<node id="-92018" lat="63.344758337" lon="7.77293333196">
		<tag k="name" v="Skardholman" />
		<tag k="ssr:date" v="2016-05-11" />
		<tag k="ssr:gruppe" v="navigasjon" />
		<tag k="ssr:hovedgruppe" v="infrastruktur" />
		<tag k="ssr:stedsnr" v="726766" />
		<tag k="ssr:type" v="fyrlykt" />
	</node>
	<node id="-92017" lat="63.2897277766" lon="7.79751111568">
		<tag k="name" v="Porkholmen" />
		<tag k="ssr:date" v="2016-05-10" />
		<tag k="ssr:gruppe" v="navigasjon" />
		<tag k="ssr:hovedgruppe" v="infrastruktur" />
		<tag k="ssr:stedsnr" v="619932" />
		<tag k="ssr:type" v="lanterne" />
	</node>
	<node id="-92527" lat="63.3861222254" lon="8.20600554824">
		<tag k="name" v="Hestvikholmen" />
		<tag k="ssr:date" v="2016-05-10" />
		<tag k="ssr:gruppe" v="navigasjon" />
		<tag k="ssr:hovedgruppe" v="infrastruktur" />
		<tag k="ssr:stedsnr" v="134664" />
		<tag k="ssr:type" v="fyrlykt" />
	</node>
	<node id="-92011" lat="63.4748305532" lon="7.84307500879">
		<tag k="name" v="Olaskjær" />
>>>>>>> e1d4bc35ff8a6074a6f2e91616a996b547c36f15
		<tag k="ssr:date" v="2016-05-11" />
		<tag k="ssr:gruppe" v="navigasjon" />
		<tag k="ssr:hovedgruppe" v="infrastruktur" />
		<tag k="ssr:stedsnr" v="705252" />
		<tag k="ssr:type" v="lanterne" />
	</node>
	<node lat="63.32612499720757" lon="8.214586111200656" id="-7538">
		<tag k="name" v="Nordre Katholmen" />
		<tag k="old_name" v="Katholmen" />
		<tag k="ssr:date" v="2016-05-11" />
		<tag k="ssr:gruppe" v="navigasjon" />
		<tag k="ssr:hovedgruppe" v="infrastruktur" />
		<tag k="ssr:stedsnr" v="679967" />
		<tag k="ssr:type" v="fyrlykt" />
	</node>
<<<<<<< HEAD
	<node lat="63.47496268164219" lon="7.843077839118716" id="-7544">
		<tag k="name" v="Brattværet" />
		<tag k="ssr:date" v="2021-06-08" />
		<tag k="ssr:gruppe" v="navigasjon" />
		<tag k="ssr:hovedgruppe" v="infrastruktur" />
		<tag k="ssr:stedsnr" v="680621" />
		<tag k="ssr:type" v="fyrlykt" />
	</node>
	<node lat="63.41774804168748" lon="8.170578064962218" id="-7573">
		<tag k="name" v="Kjeøy V.side" />
		<tag k="ssr:date" v="2019-05-02" />
		<tag k="ssr:gruppe" v="navigasjon" />
		<tag k="ssr:hovedgruppe" v="infrastruktur" />
		<tag k="ssr:stedsnr" v="705021" />
		<tag k="ssr:type" v="lanterne" />
	</node>
	<node lat="63.47215569945504" lon="7.7572053714661395" id="-7679">
		<tag k="alt_name" v="Skalmen" />
		<tag k="name" v="Skalmen fyr" />
		<tag k="old_name" v="Skalmen Fyr" />
		<tag k="ssr:date" v="2019-02-12" />
=======
	<node id="-91480" lat="63.4475888911" lon="8.15301111404">
		<tag k="name" v="Reiråklakken" />
		<tag k="old_name" v="Reiklakken" />
		<tag k="ssr:date" v="2016-05-10" />
		<tag k="ssr:gruppe" v="navigasjon" />
		<tag k="ssr:hovedgruppe" v="infrastruktur" />
		<tag k="ssr:stedsnr" v="255774" />
		<tag k="ssr:type" v="fyrlykt" />
	</node>
	<node id="-91967" lat="63.2703916648" lon="7.78029999375">
		<tag k="name" v="Ivarflu" />
		<tag k="ssr:date" v="2016-05-11" />
		<tag k="ssr:gruppe" v="navigasjon" />
		<tag k="ssr:hovedgruppe" v="infrastruktur" />
		<tag k="ssr:stedsnr" v="705252" />
		<tag k="ssr:type" v="lanterne" />
	</node>
	<node id="-91966" lat="63.4177480417" lon="8.17057806496">
		<tag k="name" v="Kjeøy V.side" />
		<tag k="ssr:date" v="2019-05-02" />
>>>>>>> e1d4bc35ff8a6074a6f2e91616a996b547c36f15
		<tag k="ssr:gruppe" v="navigasjon" />
		<tag k="ssr:hovedgruppe" v="infrastruktur" />
		<tag k="ssr:stedsnr" v="705021" />
		<tag k="ssr:type" v="lanterne" />
	</node>
<<<<<<< HEAD
	<node lat="63.48174950372965" lon="8.022091090890086" id="-7718">
		<tag k="name" v="Vestre Suholmen" />
		<tag k="old_name" v="Suholmen, vestre" />
		<tag k="ssr:date" v="2020-09-08" />
		<tag k="ssr:gruppe" v="navigasjon" />
		<tag k="ssr:hovedgruppe" v="infrastruktur" />
		<tag k="ssr:stedsnr" v="923590" />
		<tag k="ssr:type" v="fyrlykt" />
	</node>
	<node lat="63.53324787833378" lon="7.962662326012735" id="-7795">
		<tag k="name" v="Haugjegla fyr" />
		<tag k="ssr:date" v="2021-06-08" />
		<tag k="ssr:gruppe" v="navigasjon" />
		<tag k="ssr:hovedgruppe" v="infrastruktur" />
		<tag k="ssr:stedsnr" v="923215" />
		<tag k="ssr:type" v="fyrstasjon" />
	</node>
	<node lat="63.4322166656165" lon="8.161122229441908" id="-7818">
		<tag k="name" v="Veitholmflu" />
		<tag k="ssr:date" v="2016-05-11" />
		<tag k="ssr:gruppe" v="navigasjon" />
		<tag k="ssr:hovedgruppe" v="infrastruktur" />
		<tag k="ssr:stedsnr" v="948029" />
		<tag k="ssr:type" v="fyrlykt" />
	</node>
	<node lat="63.24303611499861" lon="7.796508339827337" id="-7819">
		<tag k="name" v="Gjæslingskjæret" />
		<tag k="ssr:date" v="2021-06-08" />
		<tag k="ssr:gruppe" v="navigasjon" />
		<tag k="ssr:hovedgruppe" v="infrastruktur" />
		<tag k="ssr:stedsnr" v="948238" />
		<tag k="ssr:type" v="fyrlykt" />
	</node>
	<node lat="63.29697064496374" lon="7.972942618604268" id="-7835">
		<tag k="name" v="Søndre Svinøya" />
		<tag k="ssr:date" v="2019-05-31" />
		<tag k="ssr:gruppe" v="veg" />
		<tag k="ssr:hovedgruppe" v="infrastruktur" />
		<tag k="ssr:stedsnr" v="976394" />
		<tag k="ssr:type" v="adressenavn" />
	</node>
	<node lat="63.27558512279497" lon="7.981316745522629" id="-7836">
		<tag k="name" v="Arnøya" />
		<tag k="ssr:date" v="2019-05-31" />
		<tag k="ssr:gruppe" v="veg" />
		<tag k="ssr:hovedgruppe" v="infrastruktur" />
		<tag k="ssr:stedsnr" v="976395" />
		<tag k="ssr:type" v="adressenavn" />
	</node>
	<node lat="63.29022739901291" lon="8.021214285723667" id="-7837">
		<tag k="name" v="Ellevsøya" />
=======
	<node id="-93482" lat="69.6388889725" lon="30.5666644427">
		<tag k="fixme" v="multiple name tags, choose one and add the other to alt_name" />
		<tag k="loc_name:se" v="Norgga gonagasriika" />
		<tag k="loc_name:sma" v="Nöörjen gånkarïjhke" />
		<tag k="loc_name:smj" v="Vuona gånågisrijkka" />
		<tag k="name" v="Noreg;Norge" />
		<tag k="name:en" v="Norway" />
		<tag k="name:no" v="Noreg;Norge" />
		<tag k="ssr:date" v="2020-06-04" />
		<tag k="ssr:gruppe" v="administrativeIndelinger" />
		<tag k="ssr:hovedgruppe" v="offentligAdministrasjon" />
		<tag k="ssr:stedsnr" v="26330" />
		<tag k="ssr:type" v="nasjon" />
	</node>
	<node id="-93480" lat="63.2496205215" lon="7.83175657142">
		<tag k="name" v="Solværet" />
>>>>>>> e1d4bc35ff8a6074a6f2e91616a996b547c36f15
		<tag k="ssr:date" v="2019-05-31" />
		<tag k="ssr:gruppe" v="veg" />
		<tag k="ssr:hovedgruppe" v="infrastruktur" />
		<tag k="ssr:stedsnr" v="1060196" />
		<tag k="ssr:type" v="adressenavn" />
	</node>
<<<<<<< HEAD
	<node lat="63.344517120819354" lon="8.224463724596294" id="-7839">
		<tag k="name" v="Glasøya" />
		<tag k="ssr:date" v="2019-05-31" />
		<tag k="ssr:gruppe" v="veg" />
		<tag k="ssr:hovedgruppe" v="infrastruktur" />
		<tag k="ssr:stedsnr" v="976401" />
		<tag k="ssr:type" v="adressenavn" />
	</node>
	<node lat="63.351398422660004" lon="8.25662211174562" id="-7840">
		<tag k="name" v="Remmingen" />
		<tag k="ssr:date" v="2019-05-31" />
		<tag k="ssr:gruppe" v="veg" />
		<tag k="ssr:hovedgruppe" v="infrastruktur" />
		<tag k="ssr:stedsnr" v="976402" />
		<tag k="ssr:type" v="adressenavn" />
	</node>
	<node lat="63.33872585825486" lon="7.807863520537324" id="-7841">
		<tag k="name" v="Karlsholmen" />
		<tag k="ssr:date" v="2019-05-31" />
		<tag k="ssr:gruppe" v="veg" />
		<tag k="ssr:hovedgruppe" v="infrastruktur" />
		<tag k="ssr:stedsnr" v="976705" />
		<tag k="ssr:type" v="adressenavn" />
	</node>
	<node lat="63.32361463240902" lon="7.785149544673098" id="-7842">
		<tag k="name" v="Spilvalen" />
		<tag k="ssr:date" v="2019-05-31" />
=======
	<node id="-93479" lat="63.3220582538" lon="8.2224234219">
		<tag k="name" v="Kattholmen" />
		<tag k="ssr:date" v="2019-05-31" />
		<tag k="ssr:gruppe" v="veg" />
		<tag k="ssr:hovedgruppe" v="infrastruktur" />
		<tag k="ssr:stedsnr" v="1059309" />
		<tag k="ssr:type" v="adressenavn" />
	</node>
	<node id="-92959" lat="63.4088722217" lon="8.19938610902">
		<tag k="name" v="Lyngværpynten" />
		<tag k="ssr:date" v="2016-05-10" />
		<tag k="ssr:gruppe" v="navigasjon" />
		<tag k="ssr:hovedgruppe" v="infrastruktur" />
		<tag k="ssr:stedsnr" v="558682" />
		<tag k="ssr:type" v="fyrlykt" />
	</node>
	<node id="-93454" lat="63.3396345554" lon="8.13729955119">
		<tag k="name" v="Lillenes" />
		<tag k="ssr:date" v="2017-08-22" />
>>>>>>> e1d4bc35ff8a6074a6f2e91616a996b547c36f15
		<tag k="ssr:gruppe" v="veg" />
		<tag k="ssr:hovedgruppe" v="infrastruktur" />
		<tag k="ssr:stedsnr" v="976706" />
		<tag k="ssr:type" v="adressenavn" />
	</node>
<<<<<<< HEAD
	<node lat="63.3237592175734" lon="7.810844529969885" id="-7843">
		<tag k="name" v="Tranøya" />
		<tag k="ssr:date" v="2019-05-31" />
=======
	<node id="-93453" lat="63.5190029162" lon="7.95283286088">
		<tag k="name" v="Veiholmen" />
		<tag k="ssr:date" v="2017-08-30" />
>>>>>>> e1d4bc35ff8a6074a6f2e91616a996b547c36f15
		<tag k="ssr:gruppe" v="veg" />
		<tag k="ssr:hovedgruppe" v="infrastruktur" />
		<tag k="ssr:stedsnr" v="976707" />
		<tag k="ssr:type" v="adressenavn" />
	</node>
<<<<<<< HEAD
	<node lat="63.28211646539811" lon="7.841340184180646" id="-7844">
		<tag k="name" v="Sandværet" />
		<tag k="ssr:date" v="2019-05-31" />
=======
	<node id="-93452" lat="63.3455171876" lon="8.03171989971">
		<tag k="name" v="Elvegard" />
		<tag k="ssr:date" v="2017-06-23" />
>>>>>>> e1d4bc35ff8a6074a6f2e91616a996b547c36f15
		<tag k="ssr:gruppe" v="veg" />
		<tag k="ssr:hovedgruppe" v="infrastruktur" />
		<tag k="ssr:stedsnr" v="976708" />
		<tag k="ssr:type" v="adressenavn" />
	</node>
<<<<<<< HEAD
	<node lat="63.261545965338925" lon="7.857439710838511" id="-7845">
		<tag k="name" v="Rotværet" />
		<tag k="ssr:date" v="2019-05-31" />
=======
	<node id="-93451" lat="63.4342894044" lon="7.94951993116">
		<tag k="name" v="Grundvåg" />
		<tag k="ssr:date" v="2017-06-23" />
>>>>>>> e1d4bc35ff8a6074a6f2e91616a996b547c36f15
		<tag k="ssr:gruppe" v="veg" />
		<tag k="ssr:hovedgruppe" v="infrastruktur" />
		<tag k="ssr:stedsnr" v="976709" />
		<tag k="ssr:type" v="adressenavn" />
	</node>
<<<<<<< HEAD
	<node lat="63.34620236509727" lon="8.007358650591563" id="-7846">
		<tag k="name" v="Skjølberg" />
=======
	<node id="-93450" lat="63.4343741484" lon="7.94797582315">
		<tag k="name" v="Grundvåg" />
>>>>>>> e1d4bc35ff8a6074a6f2e91616a996b547c36f15
		<tag k="ssr:date" v="2017-06-23" />
		<tag k="ssr:gruppe" v="veg" />
		<tag k="ssr:hovedgruppe" v="infrastruktur" />
		<tag k="ssr:stedsnr" v="976710" />
		<tag k="ssr:type" v="adressetilleggsnavn" />
	</node>
<<<<<<< HEAD
	<node lat="63.38565991981434" lon="7.801649251927508" id="-7847">
		<tag k="name" v="Stillingshaugen" />
=======
	<node id="-93449" lat="63.3706487891" lon="7.8159318306">
		<tag k="name" v="Laksberg" />
>>>>>>> e1d4bc35ff8a6074a6f2e91616a996b547c36f15
		<tag k="ssr:date" v="2017-06-23" />
		<tag k="ssr:gruppe" v="veg" />
		<tag k="ssr:hovedgruppe" v="infrastruktur" />
		<tag k="ssr:stedsnr" v="976711" />
		<tag k="ssr:type" v="adressetilleggsnavn" />
	</node>
<<<<<<< HEAD
	<node lat="63.426540506162254" lon="8.062654043249383" id="-7848">
		<tag k="name" v="Klingen" />
=======
	<node id="-93448" lat="63.370762848" lon="7.81494416811">
		<tag k="name" v="Laksberg" />
>>>>>>> e1d4bc35ff8a6074a6f2e91616a996b547c36f15
		<tag k="ssr:date" v="2017-06-23" />
		<tag k="ssr:gruppe" v="veg" />
		<tag k="ssr:hovedgruppe" v="infrastruktur" />
		<tag k="ssr:stedsnr" v="976713" />
		<tag k="ssr:type" v="adressetilleggsnavn" />
	</node>
<<<<<<< HEAD
	<node lat="63.366659183149096" lon="7.86466502019081" id="-7849">
		<tag k="name" v="Skaret" />
=======
	<node id="-93447" lat="63.4673183585" lon="8.10150894837">
		<tag k="name" v="Holberg" />
>>>>>>> e1d4bc35ff8a6074a6f2e91616a996b547c36f15
		<tag k="ssr:date" v="2017-06-23" />
		<tag k="ssr:gruppe" v="veg" />
		<tag k="ssr:hovedgruppe" v="infrastruktur" />
		<tag k="ssr:stedsnr" v="976715" />
		<tag k="ssr:type" v="adressetilleggsnavn" />
	</node>
<<<<<<< HEAD
	<node lat="63.406176474890074" lon="8.052326502134118" id="-7850">
		<tag k="name" v="Moldvatnet" />
		<tag k="ssr:date" v="2017-06-23" />
		<tag k="ssr:gruppe" v="veg" />
=======
	<node id="-92422" lat="63.3757999994" lon="8.22058611675">
		<tag k="name" v="Pintelen" />
		<tag k="ssr:date" v="2016-05-10" />
		<tag k="ssr:gruppe" v="navigasjon" />
>>>>>>> e1d4bc35ff8a6074a6f2e91616a996b547c36f15
		<tag k="ssr:hovedgruppe" v="infrastruktur" />
		<tag k="ssr:stedsnr" v="74182" />
		<tag k="ssr:type" v="fyrlykt" />
	</node>
<<<<<<< HEAD
	<node lat="63.46731835854001" lon="8.101508948373665" id="-7851">
		<tag k="name" v="Holberg" />
=======
	<node id="-93445" lat="63.3666591831" lon="7.86466502019">
		<tag k="name" v="Skaret" />
>>>>>>> e1d4bc35ff8a6074a6f2e91616a996b547c36f15
		<tag k="ssr:date" v="2017-06-23" />
		<tag k="ssr:gruppe" v="veg" />
		<tag k="ssr:hovedgruppe" v="infrastruktur" />
		<tag k="ssr:stedsnr" v="976717" />
		<tag k="ssr:type" v="adressetilleggsnavn" />
	</node>
<<<<<<< HEAD
	<node lat="63.37076284797604" lon="7.814944168109247" id="-7852">
		<tag k="name" v="Laksberg" />
=======
	<node id="-93444" lat="63.4265405062" lon="8.06265404325">
		<tag k="name" v="Klingen" />
>>>>>>> e1d4bc35ff8a6074a6f2e91616a996b547c36f15
		<tag k="ssr:date" v="2017-06-23" />
		<tag k="ssr:gruppe" v="veg" />
		<tag k="ssr:hovedgruppe" v="infrastruktur" />
		<tag k="ssr:stedsnr" v="976737" />
		<tag k="ssr:type" v="adressetilleggsnavn" />
	</node>
<<<<<<< HEAD
	<node lat="63.370648789134385" lon="7.815931830598454" id="-7853">
		<tag k="name" v="Laksberg" />
=======
	<node id="-93443" lat="63.3856599198" lon="7.80164925193">
		<tag k="name" v="Stillingshaugen" />
>>>>>>> e1d4bc35ff8a6074a6f2e91616a996b547c36f15
		<tag k="ssr:date" v="2017-06-23" />
		<tag k="ssr:gruppe" v="veg" />
		<tag k="ssr:hovedgruppe" v="infrastruktur" />
		<tag k="ssr:stedsnr" v="976738" />
		<tag k="ssr:type" v="adressetilleggsnavn" />
	</node>
<<<<<<< HEAD
	<node lat="63.43437414840659" lon="7.947975823154049" id="-7854">
		<tag k="name" v="Grundvåg" />
=======
	<node id="-93442" lat="63.3462023651" lon="8.00735865059">
		<tag k="name" v="Skjølberg" />
>>>>>>> e1d4bc35ff8a6074a6f2e91616a996b547c36f15
		<tag k="ssr:date" v="2017-06-23" />
		<tag k="ssr:gruppe" v="veg" />
		<tag k="ssr:hovedgruppe" v="infrastruktur" />
		<tag k="ssr:stedsnr" v="976739" />
		<tag k="ssr:type" v="adressetilleggsnavn" />
	</node>
<<<<<<< HEAD
	<node lat="63.363588890316315" lon="8.282738883383866" id="-7874">
		<tag k="alt_name" v="Remmingsskjær" />
		<tag k="name" v="Remmingskjæret" />
		<tag k="old_name" v="Remmingskjeret" />
		<tag k="ssr:date" v="2016-05-10" />
		<tag k="ssr:gruppe" v="navigasjon" />
=======
	<node id="-93441" lat="63.2615459653" lon="7.85743971084">
		<tag k="name" v="Rotværet" />
		<tag k="ssr:date" v="2019-05-31" />
		<tag k="ssr:gruppe" v="veg" />
>>>>>>> e1d4bc35ff8a6074a6f2e91616a996b547c36f15
		<tag k="ssr:hovedgruppe" v="infrastruktur" />
		<tag k="ssr:stedsnr" v="12237" />
		<tag k="ssr:type" v="fyrlykt" />
	</node>
<<<<<<< HEAD
	<node lat="63.509984953254396" lon="7.983134116058403" id="-7900">
		<tag k="name" v="Innveien" />
		<tag k="ssr:date" v="2020-09-08" />
		<tag k="ssr:gruppe" v="navigasjon" />
=======
	<node id="-93440" lat="63.2821164654" lon="7.84134018418">
		<tag k="name" v="Sandværet" />
		<tag k="ssr:date" v="2019-05-31" />
		<tag k="ssr:gruppe" v="veg" />
>>>>>>> e1d4bc35ff8a6074a6f2e91616a996b547c36f15
		<tag k="ssr:hovedgruppe" v="infrastruktur" />
		<tag k="ssr:stedsnr" v="13197" />
		<tag k="ssr:type" v="fyrlykt" />
	</node>
<<<<<<< HEAD
	<node lat="63.37579999936385" lon="8.220586116745222" id="-7983">
		<tag k="name" v="Pintelen" />
		<tag k="ssr:date" v="2016-05-10" />
		<tag k="ssr:gruppe" v="navigasjon" />
=======
	<node id="-93439" lat="63.3237592176" lon="7.81084452997">
		<tag k="name" v="Tranøya" />
		<tag k="ssr:date" v="2019-05-31" />
		<tag k="ssr:gruppe" v="veg" />
>>>>>>> e1d4bc35ff8a6074a6f2e91616a996b547c36f15
		<tag k="ssr:hovedgruppe" v="infrastruktur" />
		<tag k="ssr:stedsnr" v="74182" />
		<tag k="ssr:type" v="fyrlykt" />
	</node>
<<<<<<< HEAD
	<node lat="63.386122225440985" lon="8.206005548236499" id="-8065">
		<tag k="name" v="Hestvikholmen" />
		<tag k="ssr:date" v="2016-05-10" />
		<tag k="ssr:gruppe" v="navigasjon" />
		<tag k="ssr:hovedgruppe" v="infrastruktur" />
		<tag k="ssr:stedsnr" v="134664" />
		<tag k="ssr:type" v="fyrlykt" />
	</node>
	<node lat="62.73392710705581" lon="7.14918030614603" id="-8079">
		<tag k="alt_name" v="Møre og Romsdal" />
		<tag k="name" v="Møre og Romsdal fylke" />
		<tag k="ssr:date" v="2021-09-21" />
		<tag k="ssr:gruppe" v="administrativeIndelinger" />
		<tag k="ssr:hovedgruppe" v="offentligAdministrasjon" />
		<tag k="ssr:stedsnr" v="145583" />
		<tag k="ssr:type" v="fylke" />
	</node>
	<node lat="63.409529416980995" lon="7.7694517020102705" id="-8134">
		<tag k="name" v="Kvaløy" />
		<tag k="ssr:date" v="2021-06-08" />
		<tag k="ssr:gruppe" v="navigasjon" />
		<tag k="ssr:hovedgruppe" v="infrastruktur" />
		<tag k="ssr:stedsnr" v="194662" />
		<tag k="ssr:type" v="fyrlykt" />
	</node>
	<node lat="63.34223112581999" lon="8.1722985530897" id="-8144">
		<tag k="name" v="Gjernesskjæret" />
		<tag k="old_name" v="Gjernesskjeret" />
		<tag k="ssr:date" v="2020-09-08" />
		<tag k="ssr:gruppe" v="navigasjon" />
		<tag k="ssr:hovedgruppe" v="infrastruktur" />
		<tag k="ssr:stedsnr" v="194784" />
		<tag k="ssr:type" v="fyrlykt" />
	</node>
	<node lat="63.28286666788581" lon="7.793611104338523" id="-8152">
		<tag k="name" v="Omsundholmen" />
		<tag k="ssr:date" v="2016-05-10" />
		<tag k="ssr:gruppe" v="navigasjon" />
		<tag k="ssr:hovedgruppe" v="infrastruktur" />
		<tag k="ssr:stedsnr" v="194920" />
		<tag k="ssr:type" v="fyrlykt" />
	</node>
	<node lat="63.2207166622448" lon="7.762438889193242" id="-8189">
		<tag k="name" v="Godtaren" />
		<tag k="ssr:date" v="2019-12-27" />
		<tag k="ssr:gruppe" v="navigasjon" />
		<tag k="ssr:hovedgruppe" v="infrastruktur" />
		<tag k="ssr:stedsnr" v="223532" />
		<tag k="ssr:type" v="lysbøye" />
	</node>
	<node lat="63.310281819980275" lon="8.226744432984987" id="-8246">
		<tag k="name" v="Kyrhaug fyr" />
		<tag k="ssr:date" v="2021-06-08" />
		<tag k="ssr:gruppe" v="navigasjon" />
		<tag k="ssr:hovedgruppe" v="infrastruktur" />
		<tag k="ssr:stedsnr" v="316375" />
		<tag k="ssr:type" v="fyrstasjon" />
	</node>
	<node lat="63.45965277970776" lon="8.01151944146708" id="-8280">
		<tag k="alt_name" v="Smøla" />
		<tag k="name" v="Smøla kommune" />
		<tag k="ssr:date" v="2016-05-10" />
		<tag k="ssr:gruppe" v="administrativeIndelinger" />
		<tag k="ssr:hovedgruppe" v="offentligAdministrasjon" />
		<tag k="ssr:stedsnr" v="328890" />
		<tag k="ssr:type" v="kommune" />
	</node>
	<node lat="63.48731944102107" lon="7.886219442317918" id="-8384">
		<tag k="name" v="Veiahølen" />
		<tag k="ssr:date" v="2016-05-10" />
		<tag k="ssr:gruppe" v="sjøbunn" />
		<tag k="ssr:hovedgruppe" v="sjø" />
		<tag k="ssr:stedsnr" v="414770" />
		<tag k="ssr:type" v="havdyp" />
	</node>
	<node lat="63.51679780737329" lon="7.944110398919052" id="-8464">
		<tag k="name" v="Singsundet" />
		<tag k="ssr:date" v="2020-09-08" />
		<tag k="ssr:gruppe" v="navigasjon" />
		<tag k="ssr:hovedgruppe" v="infrastruktur" />
		<tag k="ssr:stedsnr" v="498218" />
		<tag k="ssr:type" v="fyrlykt" />
	</node>
	<node lat="63.40889751869904" lon="8.198861513573567" id="-8551">
		<tag k="name" v="Lyngværpynten" />
		<tag k="ssr:date" v="2020-09-08" />
		<tag k="ssr:gruppe" v="navigasjon" />
		<tag k="ssr:hovedgruppe" v="infrastruktur" />
		<tag k="ssr:stedsnr" v="558682" />
		<tag k="ssr:type" v="fyrlykt" />
	</node>
	<node lat="63.28931700961075" lon="7.797646905891228" id="-8624">
		<tag k="name" v="Porkholmen" />
		<tag k="ssr:date" v="2020-09-01" />
		<tag k="ssr:gruppe" v="navigasjon" />
		<tag k="ssr:hovedgruppe" v="infrastruktur" />
		<tag k="ssr:stedsnr" v="619932" />
		<tag k="ssr:type" v="lanterne" />
	</node>
	<node lat="63.45146666886054" lon="7.861063896062503" id="-8669">
		<tag k="name" v="Steinløysa" />
		<tag k="ssr:date" v="2016-05-10" />
		<tag k="ssr:gruppe" v="navigasjon" />
		<tag k="ssr:hovedgruppe" v="infrastruktur" />
		<tag k="ssr:stedsnr" v="660314" />
		<tag k="ssr:type" v="fyrlykt" />
	</node>
	<node lat="63.47483055323096" lon="7.843075008786745" id="-8688">
		<tag k="name" v="Olaskjær" />
		<tag k="ssr:date" v="2016-05-11" />
		<tag k="ssr:gruppe" v="navigasjon" />
		<tag k="ssr:hovedgruppe" v="infrastruktur" />
		<tag k="ssr:stedsnr" v="721289" />
		<tag k="ssr:type" v="fyrlykt" />
	</node>
	<node lat="63.34559051589594" lon="7.775385320635978" id="-8689">
		<tag k="name" v="Skardholman" />
		<tag k="ssr:date" v="2021-06-08" />
		<tag k="ssr:gruppe" v="navigasjon" />
		<tag k="ssr:hovedgruppe" v="infrastruktur" />
		<tag k="ssr:stedsnr" v="726766" />
		<tag k="ssr:type" v="fyrlykt" />
	</node>
	<node lat="63.48679054471547" lon="7.998240254886079" id="-8710">
		<tag k="name" v="Haugøya" />
		<tag k="old_name" v="Hauøy" />
		<tag k="ssr:date" v="2020-09-08" />
		<tag k="ssr:gruppe" v="navigasjon" />
		<tag k="ssr:hovedgruppe" v="infrastruktur" />
		<tag k="ssr:stedsnr" v="740574" />
		<tag k="ssr:type" v="fyrlykt" />
	</node>
	<node lat="63.34559892907984" lon="7.7753239189775485" id="-8732">
		<tag k="name" v="Skarholmen" />
		<tag k="ssr:date" v="2020-09-08" />
		<tag k="ssr:gruppe" v="navigasjon" />
		<tag k="ssr:hovedgruppe" v="infrastruktur" />
		<tag k="ssr:stedsnr" v="741854" />
		<tag k="ssr:type" v="fyrlykt" />
	</node>
	<node lat="63.430469445465405" lon="8.169269452196309" id="-8823">
		<tag k="name" v="NV.re Føllingsflu" />
		<tag k="ssr:date" v="2016-05-11" />
		<tag k="ssr:gruppe" v="navigasjon" />
		<tag k="ssr:hovedgruppe" v="infrastruktur" />
		<tag k="ssr:stedsnr" v="826027" />
		<tag k="ssr:type" v="lanterne" />
	</node>
	<node lat="63.42904722537088" lon="8.171913897806617" id="-8824">
		<tag k="name" v="Føllingflu" />
		<tag k="ssr:date" v="2016-05-11" />
		<tag k="ssr:gruppe" v="navigasjon" />
		<tag k="ssr:hovedgruppe" v="infrastruktur" />
		<tag k="ssr:stedsnr" v="826028" />
		<tag k="ssr:type" v="fyrlykt" />
	</node>
	<node lat="63.26396666922657" lon="8.05034999982707" id="-8931">
		<tag k="name" v="Kjønrøksflua" />
		<tag k="ssr:date" v="2016-05-11" />
		<tag k="ssr:gruppe" v="navigasjon" />
		<tag k="ssr:hovedgruppe" v="infrastruktur" />
		<tag k="ssr:stedsnr" v="947006" />
		<tag k="ssr:type" v="lanterne" />
	</node>
	<node lat="63.40469358920921" lon="8.174193536653455" id="-8960">
		<tag k="name" v="Bukkholmen" />
=======
	<node id="-93438" lat="63.3236146324" lon="7.78514954467">
		<tag k="name" v="Spilvalen" />
>>>>>>> e1d4bc35ff8a6074a6f2e91616a996b547c36f15
		<tag k="ssr:date" v="2019-05-31" />
		<tag k="ssr:gruppe" v="veg" />
		<tag k="ssr:hovedgruppe" v="infrastruktur" />
		<tag k="ssr:stedsnr" v="976450" />
		<tag k="ssr:type" v="adressenavn" />
	</node>
<<<<<<< HEAD
	<node lat="63.46859140763378" lon="8.116925078443382" id="-8961">
		<tag k="name" v="Steinsøya" />
=======
	<node id="-93437" lat="63.3387258583" lon="7.80786352054">
		<tag k="name" v="Karlsholmen" />
>>>>>>> e1d4bc35ff8a6074a6f2e91616a996b547c36f15
		<tag k="ssr:date" v="2019-05-31" />
		<tag k="ssr:gruppe" v="veg" />
		<tag k="ssr:hovedgruppe" v="infrastruktur" />
		<tag k="ssr:stedsnr" v="976480" />
		<tag k="ssr:type" v="adressenavn" />
	</node>
<<<<<<< HEAD
	<node lat="63.44809787721474" lon="7.898022818902035" id="-8962">
		<tag k="name" v="Monsøya" />
=======
	<node id="-93436" lat="63.3353163295" lon="7.81553378179">
		<tag k="name" v="Ringsøya" />
>>>>>>> e1d4bc35ff8a6074a6f2e91616a996b547c36f15
		<tag k="ssr:date" v="2019-05-31" />
		<tag k="ssr:gruppe" v="veg" />
		<tag k="ssr:hovedgruppe" v="infrastruktur" />
		<tag k="ssr:stedsnr" v="976634" />
		<tag k="ssr:type" v="adressenavn" />
	</node>
<<<<<<< HEAD
	<node lat="63.43428940435375" lon="7.9495199311635405" id="-8963">
		<tag k="name" v="Grundvåg" />
		<tag k="ssr:date" v="2017-06-23" />
=======
	<node id="-93435" lat="63.2888280503" lon="7.7896126461">
		<tag k="name" v="Hallarøya" />
		<tag k="ssr:date" v="2019-05-31" />
>>>>>>> e1d4bc35ff8a6074a6f2e91616a996b547c36f15
		<tag k="ssr:gruppe" v="veg" />
		<tag k="ssr:hovedgruppe" v="infrastruktur" />
		<tag k="ssr:stedsnr" v="976740" />
		<tag k="ssr:type" v="adressetilleggsnavn" />
	</node>
<<<<<<< HEAD
	<node lat="63.345517187588285" lon="8.031719899711753" id="-8964">
		<tag k="name" v="Elvegard" />
		<tag k="ssr:date" v="2017-06-23" />
=======
	<node id="-93434" lat="63.3558020898" lon="7.85713785167">
		<tag k="name" v="Kalvøya" />
		<tag k="ssr:date" v="2019-05-31" />
>>>>>>> e1d4bc35ff8a6074a6f2e91616a996b547c36f15
		<tag k="ssr:gruppe" v="veg" />
		<tag k="ssr:hovedgruppe" v="infrastruktur" />
		<tag k="ssr:stedsnr" v="976741" />
		<tag k="ssr:type" v="adressetilleggsnavn" />
	</node>
<<<<<<< HEAD
	<node lat="63.436154152720626" lon="7.856272259878245" id="-8965">
		<tag k="name" v="Nørdre Hopøya" />
=======
	<node id="-93433" lat="63.3549440156" lon="7.77376190149">
		<tag k="name" v="Urdholmen" />
>>>>>>> e1d4bc35ff8a6074a6f2e91616a996b547c36f15
		<tag k="ssr:date" v="2019-05-31" />
		<tag k="ssr:gruppe" v="veg" />
		<tag k="ssr:hovedgruppe" v="infrastruktur" />
		<tag k="ssr:stedsnr" v="976652" />
		<tag k="ssr:type" v="adressenavn" />
	</node>
<<<<<<< HEAD
	<node lat="63.432935999531544" lon="7.8497043692939386" id="-8966">
		<tag k="name" v="Storkalvøya" />
=======
	<node id="-93432" lat="63.3581998803" lon="7.7721900421">
		<tag k="name" v="Korsholmen" />
>>>>>>> e1d4bc35ff8a6074a6f2e91616a996b547c36f15
		<tag k="ssr:date" v="2019-05-31" />
		<tag k="ssr:gruppe" v="veg" />
		<tag k="ssr:hovedgruppe" v="infrastruktur" />
		<tag k="ssr:stedsnr" v="976666" />
		<tag k="ssr:type" v="adressenavn" />
	</node>
<<<<<<< HEAD
	<node lat="63.42524351700716" lon="7.8245057927141595" id="-8967">
		<tag k="name" v="Råkholman" />
=======
	<node id="-93431" lat="63.3887885893" lon="7.79312033568">
		<tag k="name" v="Lyngøya" />
>>>>>>> e1d4bc35ff8a6074a6f2e91616a996b547c36f15
		<tag k="ssr:date" v="2019-05-31" />
		<tag k="ssr:gruppe" v="veg" />
		<tag k="ssr:hovedgruppe" v="infrastruktur" />
		<tag k="ssr:stedsnr" v="976667" />
		<tag k="ssr:type" v="adressenavn" />
	</node>
<<<<<<< HEAD
	<node lat="63.42713069365413" lon="7.804114362121384" id="-8968">
		<tag k="name" v="Langøya" />
=======
	<node id="-93430" lat="63.3972098664" lon="7.77468946852">
		<tag k="name" v="Oterholmen" />
>>>>>>> e1d4bc35ff8a6074a6f2e91616a996b547c36f15
		<tag k="ssr:date" v="2019-05-31" />
		<tag k="ssr:gruppe" v="veg" />
		<tag k="ssr:hovedgruppe" v="infrastruktur" />
		<tag k="ssr:stedsnr" v="976668" />
		<tag k="ssr:type" v="adressenavn" />
	</node>
<<<<<<< HEAD
	<node lat="63.41788690177286" lon="7.810448622313897" id="-8969">
		<tag k="name" v="Trossøya" />
=======
	<node id="-93429" lat="63.4030603386" lon="7.77916267911">
		<tag k="name" v="Slagsøya" />
>>>>>>> e1d4bc35ff8a6074a6f2e91616a996b547c36f15
		<tag k="ssr:date" v="2019-05-31" />
		<tag k="ssr:gruppe" v="veg" />
		<tag k="ssr:hovedgruppe" v="infrastruktur" />
		<tag k="ssr:stedsnr" v="976669" />
		<tag k="ssr:type" v="adressenavn" />
	</node>
<<<<<<< HEAD
	<node lat="63.45348755390974" lon="7.812478830406185" id="-8970">
		<tag k="name" v="Brattværet" />
=======
	<node id="-93428" lat="63.3953338533" lon="7.78837851087">
		<tag k="name" v="Ytre Møyholmen" />
>>>>>>> e1d4bc35ff8a6074a6f2e91616a996b547c36f15
		<tag k="ssr:date" v="2019-05-31" />
		<tag k="ssr:gruppe" v="veg" />
		<tag k="ssr:hovedgruppe" v="infrastruktur" />
		<tag k="ssr:stedsnr" v="976671" />
		<tag k="ssr:type" v="adressenavn" />
	</node>
<<<<<<< HEAD
	<node lat="63.39244044624318" lon="7.784982887281748" id="-8971">
=======
	<node id="-93427" lat="63.3924404462" lon="7.78498288728">
>>>>>>> e1d4bc35ff8a6074a6f2e91616a996b547c36f15
		<tag k="name" v="Indre Møyholmen" />
		<tag k="ssr:date" v="2019-05-31" />
		<tag k="ssr:gruppe" v="veg" />
		<tag k="ssr:hovedgruppe" v="infrastruktur" />
		<tag k="ssr:stedsnr" v="976680" />
		<tag k="ssr:type" v="adressenavn" />
	</node>
<<<<<<< HEAD
	<node lat="63.39533385328117" lon="7.788378510874745" id="-8972">
		<tag k="name" v="Ytre Møyholmen" />
=======
	<node id="-93426" lat="63.4534875539" lon="7.81247883041">
		<tag k="name" v="Brattværet" />
>>>>>>> e1d4bc35ff8a6074a6f2e91616a996b547c36f15
		<tag k="ssr:date" v="2019-05-31" />
		<tag k="ssr:gruppe" v="veg" />
		<tag k="ssr:hovedgruppe" v="infrastruktur" />
		<tag k="ssr:stedsnr" v="976681" />
		<tag k="ssr:type" v="adressenavn" />
	</node>
<<<<<<< HEAD
	<node lat="63.403060338604384" lon="7.779162679106533" id="-8973">
		<tag k="name" v="Slagsøya" />
=======
	<node id="-93425" lat="63.4178869018" lon="7.81044862231">
		<tag k="name" v="Trossøya" />
>>>>>>> e1d4bc35ff8a6074a6f2e91616a996b547c36f15
		<tag k="ssr:date" v="2019-05-31" />
		<tag k="ssr:gruppe" v="veg" />
		<tag k="ssr:hovedgruppe" v="infrastruktur" />
		<tag k="ssr:stedsnr" v="976683" />
		<tag k="ssr:type" v="adressenavn" />
	</node>
<<<<<<< HEAD
	<node lat="63.39720986640259" lon="7.774689468518698" id="-8974">
		<tag k="name" v="Oterholmen" />
=======
	<node id="-93424" lat="63.4271306937" lon="7.80411436212">
		<tag k="name" v="Langøya" />
>>>>>>> e1d4bc35ff8a6074a6f2e91616a996b547c36f15
		<tag k="ssr:date" v="2019-05-31" />
		<tag k="ssr:gruppe" v="veg" />
		<tag k="ssr:hovedgruppe" v="infrastruktur" />
		<tag k="ssr:stedsnr" v="976684" />
		<tag k="ssr:type" v="adressenavn" />
	</node>
<<<<<<< HEAD
	<node lat="63.388788589338674" lon="7.7931203356782515" id="-8975">
		<tag k="name" v="Lyngøya" />
=======
	<node id="-93423" lat="63.425243517" lon="7.82450579271">
		<tag k="name" v="Råkholman" />
>>>>>>> e1d4bc35ff8a6074a6f2e91616a996b547c36f15
		<tag k="ssr:date" v="2019-05-31" />
		<tag k="ssr:gruppe" v="veg" />
		<tag k="ssr:hovedgruppe" v="infrastruktur" />
		<tag k="ssr:stedsnr" v="976685" />
		<tag k="ssr:type" v="adressenavn" />
	</node>
<<<<<<< HEAD
	<node lat="63.358199880345495" lon="7.77219004209557" id="-8976">
		<tag k="name" v="Korsholmen" />
=======
	<node id="-93422" lat="63.4329359995" lon="7.84970436929">
		<tag k="name" v="Storkalvøya" />
>>>>>>> e1d4bc35ff8a6074a6f2e91616a996b547c36f15
		<tag k="ssr:date" v="2019-05-31" />
		<tag k="ssr:gruppe" v="veg" />
		<tag k="ssr:hovedgruppe" v="infrastruktur" />
		<tag k="ssr:stedsnr" v="976686" />
		<tag k="ssr:type" v="adressenavn" />
	</node>
<<<<<<< HEAD
	<node lat="63.35494401556169" lon="7.7737619014868855" id="-8977">
		<tag k="name" v="Urdholmen" />
=======
	<node id="-93421" lat="63.4361541527" lon="7.85627225988">
		<tag k="name" v="Nørdre Hopøya" />
>>>>>>> e1d4bc35ff8a6074a6f2e91616a996b547c36f15
		<tag k="ssr:date" v="2019-05-31" />
		<tag k="ssr:gruppe" v="veg" />
		<tag k="ssr:hovedgruppe" v="infrastruktur" />
		<tag k="ssr:stedsnr" v="976687" />
		<tag k="ssr:type" v="adressenavn" />
	</node>
<<<<<<< HEAD
	<node lat="63.35580208984139" lon="7.8571378516702435" id="-8978">
		<tag k="name" v="Kalvøya" />
=======
	<node id="-93420" lat="63.4480978772" lon="7.8980228189">
		<tag k="name" v="Monsøya" />
>>>>>>> e1d4bc35ff8a6074a6f2e91616a996b547c36f15
		<tag k="ssr:date" v="2019-05-31" />
		<tag k="ssr:gruppe" v="veg" />
		<tag k="ssr:hovedgruppe" v="infrastruktur" />
		<tag k="ssr:stedsnr" v="976694" />
		<tag k="ssr:type" v="adressenavn" />
	</node>
<<<<<<< HEAD
	<node lat="63.28882805026725" lon="7.789612646095837" id="-8979">
		<tag k="name" v="Hallarøya" />
=======
	<node id="-93419" lat="63.4685914076" lon="8.11692507844">
		<tag k="name" v="Steinsøya" />
>>>>>>> e1d4bc35ff8a6074a6f2e91616a996b547c36f15
		<tag k="ssr:date" v="2019-05-31" />
		<tag k="ssr:gruppe" v="veg" />
		<tag k="ssr:hovedgruppe" v="infrastruktur" />
		<tag k="ssr:stedsnr" v="976702" />
		<tag k="ssr:type" v="adressenavn" />
	</node>
<<<<<<< HEAD
	<node lat="63.335316329517916" lon="7.815533781791154" id="-8980">
		<tag k="name" v="Ringsøya" />
=======
	<node id="-93418" lat="63.4046935892" lon="8.17419353665">
		<tag k="name" v="Bukkholmen" />
>>>>>>> e1d4bc35ff8a6074a6f2e91616a996b547c36f15
		<tag k="ssr:date" v="2019-05-31" />
		<tag k="ssr:gruppe" v="veg" />
		<tag k="ssr:hovedgruppe" v="infrastruktur" />
		<tag k="ssr:stedsnr" v="976704" />
		<tag k="ssr:type" v="adressenavn" />
	</node>
<<<<<<< HEAD
	<node lat="63.51900291624637" lon="7.952832860884595" id="-8981">
		<tag k="name" v="Veiholmen" />
		<tag k="ssr:date" v="2020-10-30" />
		<tag k="ssr:gruppe" v="veg" />
		<tag k="ssr:hovedgruppe" v="infrastruktur" />
		<tag k="ssr:stedsnr" v="976929" />
		<tag k="ssr:type" v="adressetilleggsnavn" />
	</node>
	<node lat="63.33963455542725" lon="8.13729955118962" id="-8982">
		<tag k="name" v="Lillenes" />
		<tag k="ssr:date" v="2017-08-22" />
		<tag k="ssr:gruppe" v="veg" />
		<tag k="ssr:hovedgruppe" v="infrastruktur" />
		<tag k="ssr:stedsnr" v="977653" />
		<tag k="ssr:type" v="adressetilleggsnavn" />
	</node>
	<node lat="63.3220582537824" lon="8.22242342190037" id="-9002">
		<tag k="name" v="Kattholmen" />
		<tag k="ssr:date" v="2019-05-31" />
		<tag k="ssr:gruppe" v="veg" />
		<tag k="ssr:hovedgruppe" v="infrastruktur" />
		<tag k="ssr:stedsnr" v="1059309" />
		<tag k="ssr:type" v="adressenavn" />
	</node>
	<node lat="63.24962052149037" lon="7.831756571416035" id="-9003">
		<tag k="name" v="Solværet" />
		<tag k="ssr:date" v="2019-05-31" />
		<tag k="ssr:gruppe" v="veg" />
		<tag k="ssr:hovedgruppe" v="infrastruktur" />
		<tag k="ssr:stedsnr" v="1060196" />
		<tag k="ssr:type" v="adressenavn" />
	</node>
=======
	<node id="-91869" lat="63.4751500008" lon="7.84293611109">
		<tag k="name" v="Brattværet" />
		<tag k="ssr:date" v="2016-05-11" />
		<tag k="ssr:gruppe" v="navigasjon" />
		<tag k="ssr:hovedgruppe" v="infrastruktur" />
		<tag k="ssr:stedsnr" v="680621" />
		<tag k="ssr:type" v="fyrlykt" />
	</node>
	<node id="-92880" lat="63.2769638908" lon="7.76573054765">
		<tag k="name" v="Lyngvær" />
		<tag k="ssr:date" v="2016-05-10" />
		<tag k="ssr:gruppe" v="navigasjon" />
		<tag k="ssr:hovedgruppe" v="infrastruktur" />
		<tag k="ssr:stedsnr" v="437916" />
		<tag k="ssr:type" v="fyrlykt" />
	</node>
	<node id="-92862" lat="63.3970638856" lon="7.72337778422">
		<tag k="name" v="Litlflisa" />
		<tag k="ssr:date" v="2016-05-10" />
		<tag k="ssr:gruppe" v="navigasjon" />
		<tag k="ssr:hovedgruppe" v="infrastruktur" />
		<tag k="ssr:stedsnr" v="437654" />
		<tag k="ssr:type" v="fyrlykt" />
	</node>
	<node id="-92335" lat="63.5097083373" lon="7.98373889851">
		<tag k="name" v="Innveien" />
		<tag k="ssr:date" v="2016-05-10" />
		<tag k="ssr:gruppe" v="navigasjon" />
		<tag k="ssr:hovedgruppe" v="infrastruktur" />
		<tag k="ssr:stedsnr" v="13197" />
		<tag k="ssr:type" v="fyrlykt" />
	</node>
	<node id="-92843" lat="63.4279277812" lon="7.84138054861">
		<tag k="name" v="Dyrnes" />
		<tag k="ssr:date" v="2016-05-10" />
		<tag k="ssr:gruppe" v="navigasjon" />
		<tag k="ssr:hovedgruppe" v="infrastruktur" />
		<tag k="ssr:stedsnr" v="418288" />
		<tag k="ssr:type" v="fyrlykt" />
	</node>
	<node id="-92291" lat="63.3513984227" lon="8.25662211175">
		<tag k="name" v="Remmingen" />
		<tag k="ssr:date" v="2019-05-31" />
		<tag k="ssr:gruppe" v="veg" />
		<tag k="ssr:hovedgruppe" v="infrastruktur" />
		<tag k="ssr:stedsnr" v="976402" />
		<tag k="ssr:type" v="adressenavn" />
	</node>
	<node id="-92290" lat="63.3445171208" lon="8.2244637246">
		<tag k="name" v="Glasøya" />
		<tag k="ssr:date" v="2019-05-31" />
		<tag k="ssr:gruppe" v="veg" />
		<tag k="ssr:hovedgruppe" v="infrastruktur" />
		<tag k="ssr:stedsnr" v="976401" />
		<tag k="ssr:type" v="adressenavn" />
	</node>
	<node id="-92288" lat="63.290227399" lon="8.02121428572">
		<tag k="name" v="Ellevsøya" />
		<tag k="ssr:date" v="2019-05-31" />
		<tag k="ssr:gruppe" v="veg" />
		<tag k="ssr:hovedgruppe" v="infrastruktur" />
		<tag k="ssr:stedsnr" v="976396" />
		<tag k="ssr:type" v="adressenavn" />
	</node>
	<node id="-92287" lat="63.2755851228" lon="7.98131674552">
		<tag k="name" v="Arnøya" />
		<tag k="ssr:date" v="2019-05-31" />
		<tag k="ssr:gruppe" v="veg" />
		<tag k="ssr:hovedgruppe" v="infrastruktur" />
		<tag k="ssr:stedsnr" v="976395" />
		<tag k="ssr:type" v="adressenavn" />
	</node>
	<node id="-92286" lat="63.296970645" lon="7.9729426186">
		<tag k="name" v="Søndre Svinøya" />
		<tag k="ssr:date" v="2019-05-31" />
		<tag k="ssr:gruppe" v="veg" />
		<tag k="ssr:hovedgruppe" v="infrastruktur" />
		<tag k="ssr:stedsnr" v="976394" />
		<tag k="ssr:type" v="adressenavn" />
	</node>
	<node id="-91760" lat="63.5166472193" lon="7.9443777701">
		<tag k="name" v="Singsundet" />
		<tag k="ssr:date" v="2016-05-10" />
		<tag k="ssr:gruppe" v="navigasjon" />
		<tag k="ssr:hovedgruppe" v="infrastruktur" />
		<tag k="ssr:stedsnr" v="498218" />
		<tag k="ssr:type" v="fyrlykt" />
	</node>
	<node id="-92269" lat="63.2639666692" lon="8.05034999983">
		<tag k="name" v="Kjønrøksflua" />
		<tag k="ssr:date" v="2016-05-11" />
		<tag k="ssr:gruppe" v="navigasjon" />
		<tag k="ssr:hovedgruppe" v="infrastruktur" />
		<tag k="ssr:stedsnr" v="947006" />
		<tag k="ssr:type" v="lanterne" />
	</node>
	<node id="-93279" lat="63.4290472254" lon="8.17191389781">
		<tag k="name" v="Føllingflu" />
		<tag k="ssr:date" v="2016-05-11" />
		<tag k="ssr:gruppe" v="navigasjon" />
		<tag k="ssr:hovedgruppe" v="infrastruktur" />
		<tag k="ssr:stedsnr" v="826028" />
		<tag k="ssr:type" v="fyrlykt" />
	</node>
	<node id="-93278" lat="63.4304694455" lon="8.1692694522">
		<tag k="name" v="NV.re Føllingsflu" />
		<tag k="ssr:date" v="2016-05-11" />
		<tag k="ssr:gruppe" v="navigasjon" />
		<tag k="ssr:hovedgruppe" v="infrastruktur" />
		<tag k="ssr:stedsnr" v="826027" />
		<tag k="ssr:type" v="lanterne" />
	</node>
	<node id="-92236" lat="63.243036115" lon="7.79650833983">
		<tag k="name" v="Gjæslingskjæret" />
		<tag k="ssr:date" v="2016-05-11" />
		<tag k="ssr:gruppe" v="navigasjon" />
		<tag k="ssr:hovedgruppe" v="infrastruktur" />
		<tag k="ssr:stedsnr" v="948238" />
		<tag k="ssr:type" v="fyrlykt" />
	</node>
	<node id="-92235" lat="63.4322166656" lon="8.16112222944">
		<tag k="name" v="Veitholmflu" />
		<tag k="ssr:date" v="2016-05-11" />
		<tag k="ssr:gruppe" v="navigasjon" />
		<tag k="ssr:hovedgruppe" v="infrastruktur" />
		<tag k="ssr:stedsnr" v="948029" />
		<tag k="ssr:type" v="fyrlykt" />
	</node>
	<node id="-92203" lat="63.4721556995" lon="7.75720537147">
		<tag k="alt_name" v="Skalmen" />
		<tag k="name" v="Skalmen fyr" />
		<tag k="old_name" v="Skalmen Fyr" />
		<tag k="ssr:date" v="2019-02-12" />
		<tag k="ssr:gruppe" v="navigasjon" />
		<tag k="ssr:hovedgruppe" v="infrastruktur" />
		<tag k="ssr:stedsnr" v="802620" />
		<tag k="ssr:type" v="fyrstasjon" />
	</node>
	<node id="-93446" lat="63.4061764749" lon="8.05232650213">
		<tag k="name" v="Moldvatnet" />
		<tag k="ssr:date" v="2017-06-23" />
		<tag k="ssr:gruppe" v="veg" />
		<tag k="ssr:hovedgruppe" v="infrastruktur" />
		<tag k="ssr:stedsnr" v="976716" />
		<tag k="ssr:type" v="adressetilleggsnavn" />
	</node>
	<node id="-92701" lat="63.4596527797" lon="8.01151944147">
		<tag k="name" v="Smøla kommune" />
		<tag k="ssr:date" v="2016-05-10" />
		<tag k="ssr:gruppe" v="administrativeIndelinger" />
		<tag k="ssr:hovedgruppe" v="offentligAdministrasjon" />
		<tag k="ssr:stedsnr" v="328890" />
		<tag k="ssr:type" v="kommune" />
	</node>
	<node id="-92163" lat="63.4818916678" lon="8.02220833462">
		<tag k="name" v="Vestre Suholmen" />
		<tag k="old_name" v="Suholmen, vestre" />
		<tag k="ssr:date" v="2016-05-11" />
		<tag k="ssr:gruppe" v="navigasjon" />
		<tag k="ssr:hovedgruppe" v="infrastruktur" />
		<tag k="ssr:stedsnr" v="923590" />
		<tag k="ssr:type" v="fyrlykt" />
	</node>
>>>>>>> e1d4bc35ff8a6074a6f2e91616a996b547c36f15
</osm>
