<?xml version="1.0" encoding="UTF-8"?>
<osm generator="osmapis" version="0.6">
	<node id="-880768" lat="63.3110020588" lon="10.429768339">
		<tag k="name" v="Plogvegen" />
		<tag k="ssr:date" v="2019-06-28" />
		<tag k="ssr:gruppe" v="veg" />
		<tag k="ssr:hovedgruppe" v="infrastruktur" />
		<tag k="ssr:stedsnr" v="1072055" />
		<tag k="ssr:type" v="adressenavn" />
	</node>
	<node id="-880767" lat="63.3055760507" lon="10.4345293496">
		<tag k="name" v="Langmovegen" />
		<tag k="ssr:date" v="2019-06-28" />
		<tag k="ssr:gruppe" v="veg" />
		<tag k="ssr:hovedgruppe" v="infrastruktur" />
		<tag k="ssr:stedsnr" v="1072052" />
		<tag k="ssr:type" v="adressenavn" />
	</node>
	<node id="-881758" lat="63.5169210211" lon="10.4860505232">
		<tag k="name" v="Trøndelag fylke - Trööndelagen fylhke" />
		<tag k="name:no" v="Trøndelag fylke" />
		<tag k="name:sma" v="Trööndelagen fylhke" />
		<tag k="ssr:date" v="2018-06-27" />
		<tag k="ssr:gruppe" v="administrativeIndelinger" />
		<tag k="ssr:hovedgruppe" v="offentligAdministrasjon" />
		<tag k="ssr:stedsnr" v="980645" />
		<tag k="ssr:type" v="fylke" />
	</node>
	<node id="-881469" lat="63.2554944465" lon="10.5767555579">
		<tag k="name" v="Korsvegen" />
		<tag k="ssr:date" v="2018-01-09" />
		<tag k="ssr:gruppe" v="veg" />
		<tag k="ssr:hovedgruppe" v="infrastruktur" />
		<tag k="ssr:stedsnr" v="948836" />
		<tag k="ssr:type" v="vegstrekning" />
	</node>
	<node id="-880764" lat="63.3016762592" lon="10.4897789224">
		<tag k="name" v="Hornet" />
		<tag k="ssr:date" v="2019-06-28" />
		<tag k="ssr:gruppe" v="veg" />
		<tag k="ssr:hovedgruppe" v="infrastruktur" />
		<tag k="ssr:stedsnr" v="1072049" />
		<tag k="ssr:type" v="adressenavn" />
	</node>
	<node id="-880763" lat="63.3015559138" lon="10.4911028551">
		<tag k="name" v="Kristines veg" />
		<tag k="ssr:date" v="2019-06-17" />
		<tag k="ssr:gruppe" v="veg" />
		<tag k="ssr:hovedgruppe" v="infrastruktur" />
		<tag k="ssr:stedsnr" v="1071951" />
		<tag k="ssr:type" v="adressenavn" />
	</node>
	<node id="-881626" lat="63.2987027803" lon="10.4808888935">
		<tag k="name" v="Klæbu kommune" />
		<tag k="ssr:date" v="2018-01-09" />
		<tag k="ssr:gruppe" v="administrativeIndelinger" />
		<tag k="ssr:hovedgruppe" v="offentligAdministrasjon" />
		<tag k="ssr:stedsnr" v="148071" />
		<tag k="ssr:type" v="kommune" />
	</node>
	<node id="-880766" lat="63.3054020563" lon="10.4339041332">
		<tag k="name" v="Jennysvingen" />
		<tag k="ssr:date" v="2019-06-28" />
		<tag k="ssr:gruppe" v="veg" />
		<tag k="ssr:hovedgruppe" v="infrastruktur" />
		<tag k="ssr:stedsnr" v="1072051" />
		<tag k="ssr:type" v="adressenavn" />
	</node>
	<node id="-880765" lat="63.3055186508" lon="10.4328823144">
		<tag k="name" v="Blåmyrvegen" />
		<tag k="ssr:date" v="2019-06-28" />
		<tag k="ssr:gruppe" v="veg" />
		<tag k="ssr:hovedgruppe" v="infrastruktur" />
		<tag k="ssr:stedsnr" v="1072050" />
		<tag k="ssr:type" v="adressenavn" />
	</node>
	<node id="-880771" lat="63.3123721876" lon="10.4898220524">
		<tag k="name" v="Holtmarkvegen" />
		<tag k="ssr:date" v="2019-06-28" />
		<tag k="ssr:gruppe" v="veg" />
		<tag k="ssr:hovedgruppe" v="infrastruktur" />
		<tag k="ssr:stedsnr" v="1072059" />
		<tag k="ssr:type" v="adressenavn" />
	</node>
	<node id="-880770" lat="63.2978139954" lon="10.4683958726">
		<tag k="name" v="Klokkelyngvegen" />
		<tag k="ssr:date" v="2019-06-28" />
		<tag k="ssr:gruppe" v="veg" />
		<tag k="ssr:hovedgruppe" v="infrastruktur" />
		<tag k="ssr:stedsnr" v="1072057" />
		<tag k="ssr:type" v="adressenavn" />
	</node>
	<node id="-880769" lat="63.3103052258" lon="10.4336661451">
		<tag k="name" v="Småullvegen" />
		<tag k="ssr:date" v="2019-06-28" />
		<tag k="ssr:gruppe" v="veg" />
		<tag k="ssr:hovedgruppe" v="infrastruktur" />
		<tag k="ssr:stedsnr" v="1072056" />
		<tag k="ssr:type" v="adressenavn" />
	</node>
</osm>
