<?xml version="1.0" encoding="UTF-8"?>
<osm generator="osmapis" version="0.6">
	<node id="-235136" lat="59.8219027743" lon="10.775713891">
		<tag k="bridge" v="yes" />
		<tag k="layer" v="1" />
		<tag k="name" v="Sagflisbakken" />
		<tag k="ssr:stedsnr" v="167143" />
	</node>
	<node id="-235258" lat="59.7635861145" lon="10.812558339">
		<tag k="bridge" v="yes" />
		<tag k="layer" v="1" />
		<tag k="name" v="Tusse" />
		<tag k="ssr:stedsnr" v="349151" />
	</node>
	<node id="-235385" lat="59.7873777815" lon="10.7612055482">
		<tag k="junction" v="yes" />
		<tag k="name" v="Bekkenstein" />
		<tag k="place" v="locality" />
		<tag k="ssr:stedsnr" v="569126" />
	</node>
	<node id="-235256" lat="59.8019444464" lon="10.7609666614">
		<tag k="bridge" v="yes" />
		<tag k="layer" v="1" />
		<tag k="name" v="Bjørnsrud" />
		<tag k="ssr:stedsnr" v="349147" />
	</node>
	<node id="-235379" lat="59.6510416651" lon="10.8726527835">
		<tag k="junction" v="yes" />
		<tag k="name" v="Myrvoll" />
		<tag k="place" v="locality" />
		<tag k="ssr:stedsnr" v="567511" />
	</node>
	<node id="-234866" lat="59.7742249976" lon="10.8047499972">
		<tag k="bridge" v="yes" />
		<tag k="layer" v="1" />
		<tag k="name" v="Greverudgangen" />
		<tag k="ssr:stedsnr" v="896107" />
	</node>
	<node id="-234865" lat="59.6727055512" lon="10.8864888915">
		<tag k="bridge" v="yes" />
		<tag k="layer" v="1" />
		<tag k="name" v="Elveveien" />
		<tag k="ssr:stedsnr" v="713169" />
	</node>
	<node id="-234863" lat="59.7825194416" lon="10.7639333315">
		<tag k="bridge" v="yes" />
		<tag k="layer" v="1" />
		<tag k="name" v="Dal" />
		<tag k="ssr:stedsnr" v="652106" />
	</node>
	<node id="-234989" lat="59.7727073857" lon="10.8068806503">
		<tag k="alt_name" v="Greverud" />
		<tag k="name" v="Greverud holdeplass" />
		<tag k="railway" v="halt" />
		<tag k="ssr:stedsnr" v="4430" />
		<tag k="train" v="yes" />
	</node>
	<node id="-235372" lat="59.7229277808" lon="10.866930555">
		<tag k="junction" v="yes" />
		<tag k="name" v="Klokkerud" />
		<tag k="place" v="locality" />
		<tag k="ssr:stedsnr" v="567359" />
	</node>
	<node id="-234598" lat="59.7908416679" lon="10.9478499977">
		<tag k="bridge" v="yes" />
		<tag k="layer" v="1" />
		<tag k="name" v="Fjellhagen" />
		<tag k="ssr:stedsnr" v="228164" />
	</node>
	<node id="-234597" lat="59.8095388904" lon="10.7703361133">
		<tag k="bridge" v="yes" />
		<tag k="layer" v="1" />
		<tag k="name" v="Hvitebjørn" />
		<tag k="ssr:stedsnr" v="228125" />
	</node>
	<node id="-234593" lat="59.7820444464" lon="10.8427527797">
		<tag k="bridge" v="yes" />
		<tag k="layer" v="1" />
		<tag k="name" v="Assurdalen" />
		<tag k="ssr:stedsnr" v="289146" />
	</node>
	<node id="-234592" lat="59.7868472179" lon="10.9571638911">
		<tag k="bridge" v="yes" />
		<tag k="layer" v="1" />
		<tag k="name" v="Fjell" />
		<tag k="ssr:stedsnr" v="289145" />
	</node>
	<node id="-235472" lat="59.7820694461" lon="10.9713138846">
		<tag k="bridge" v="yes" />
		<tag k="layer" v="1" />
		<tag k="name" v="Bindingsvann" />
		<tag k="ssr:stedsnr" v="774179" />
	</node>
	<node id="-235343" lat="59.7876305516" lon="10.7996222218">
		<tag k="bridge" v="yes" />
		<tag k="layer" v="1" />
		<tag k="name" v="Tverrveien" />
		<tag k="ssr:stedsnr" v="531120" />
	</node>
	<node id="-235257" lat="59.7932861078" lon="10.7602111126">
		<tag k="bridge" v="yes" />
		<tag k="layer" v="1" />
		<tag k="name" v="Bråthe" />
		<tag k="ssr:stedsnr" v="349149" />
	</node>
	<node id="-234510" lat="59.7874527782" lon="10.7616138885">
		<tag k="bridge" v="yes" />
		<tag k="layer" v="1" />
		<tag k="name" v="Lerskallen" />
		<tag k="ssr:stedsnr" v="228127" />
	</node>
	<node id="-235346" lat="59.7611666689" lon="10.8147861061">
		<tag k="bridge" v="yes" />
		<tag k="layer" v="1" />
		<tag k="name" v="Stenfelt" />
		<tag k="ssr:stedsnr" v="531142" />
	</node>
	<node id="-235089" lat="59.8008512754" lon="10.8044666156">
		<tag k="alt_name" v="Solbråtan" />
		<tag k="name" v="Solbråtan holdeplass" />
		<tag k="railway" v="halt" />
		<tag k="ssr:stedsnr" v="125378" />
		<tag k="train" v="yes" />
	</node>
	<node id="-235344" lat="59.7866083297" lon="10.8039777747">
		<tag k="bridge" v="yes" />
		<tag k="layer" v="1" />
		<tag k="name" v="Østli" />
		<tag k="ssr:stedsnr" v="531125" />
	</node>
	<node id="-235471" lat="59.7898194474" lon="10.7995249991">
		<tag k="bridge" v="yes" />
		<tag k="layer" v="1" />
		<tag k="name" v="Ekornrud" />
		<tag k="ssr:stedsnr" v="774122" />
	</node>
	<node id="-234830" lat="59.7559083337" lon="10.8378944471">
		<tag k="name" v="Vevelstad holdeplass" />
		<tag k="railway" v="halt" />
		<tag k="ssr:stedsnr" v="628454" />
		<tag k="train" v="yes" />
	</node>
	<node id="-234956" lat="59.7859842433" lon="10.8008968531">
		<tag k="name" v="Myrvoll holdeplass" />
		<tag k="railway" v="halt" />
		<tag k="ssr:stedsnr" v="915320" />
		<tag k="train" v="yes" />
	</node>
	<node id="-234899" lat="59.7496498534" lon="10.8369071455">
		<tag k="alt_name" v="Langhus" />
		<tag k="name" v="Langhus stasjon" />
		<tag k="railway" v="station" />
		<tag k="ssr:stedsnr" v="794367" />
		<tag k="train" v="yes" />
	</node>
	<node id="-235575" lat="59.7337110523" lon="10.8429658425">
		<tag k="layer" v="-1" />
		<tag k="name" v="Roåstunnelen" />
		<tag k="ssr:stedsnr" v="975653" />
		<tag k="tunnel" v="yes" />
	</node>
	<node id="-234949" lat="59.7980916659" lon="10.7710750016">
		<tag k="junction" v="yes" />
		<tag k="name" v="Sandvad" />
		<tag k="place" v="locality" />
		<tag k="ssr:stedsnr" v="873121" />
	</node>
	<node id="-235075" lat="59.8236666626" lon="10.7763472251">
		<tag k="bridge" v="yes" />
		<tag k="layer" v="1" />
		<tag k="name" v="Mastemyr" />
		<tag k="ssr:stedsnr" v="107095" />
	</node>
	<node id="-235326" lat="59.7751833337" lon="10.732241659">
		<tag k="alt_name" v="Svartskog brygge" />
		<tag k="man_made" v="quay" />
		<tag k="name" v="Svartskogbrygga" />
		<tag k="old_name" v="Svartskogbrygge" />
		<tag k="place" v="locality" />
		<tag k="ssr:stedsnr" v="429294" />
	</node>
	<node id="-235573" lat="59.7790055552" lon="10.9106277749">
		<tag k="bridge" v="yes" />
		<tag k="layer" v="1" />
		<tag k="name" v="Bru" />
		<tag k="ssr:stedsnr" v="956174" />
	</node>
	<node id="-235450" lat="59.7917694433" lon="10.873350006">
		<tag k="highway" v="path" />
		<tag k="name" v="Fuglestien" />
		<tag k="ssr:stedsnr" v="750262" />
	</node>
	<node id="-235576" lat="59.8160888149" lon="10.830662457">
		<tag k="layer" v="-1" />
		<tag k="name" v="Blixtunnelen" />
		<tag k="ssr:stedsnr" v="975837" />
		<tag k="tunnel" v="yes" />
	</node>
	<node id="-234551" lat="59.7617611125" lon="10.8122527855">
		<tag k="bridge" v="yes" />
		<tag k="layer" v="1" />
		<tag k="name" v="Sætre" />
		<tag k="ssr:stedsnr" v="107109" />
	</node>
	<node id="-234933" lat="59.8109393288" lon="10.8011916033">
		<tag k="alt_name" v="Kolbotn" />
		<tag k="name" v="Kolbotn stasjon" />
		<tag k="railway" v="station" />
		<tag k="ssr:stedsnr" v="855268" />
		<tag k="train" v="yes" />
	</node>
	<node id="-235572" lat="59.7754111078" lon="10.8374805497">
		<tag k="bridge" v="yes" />
		<tag k="layer" v="1" />
		<tag k="name" v="Slåbråten" />
		<tag k="ssr:stedsnr" v="956150" />
	</node>
	<node id="-235345" lat="59.8109222221" lon="10.7725361028">
		<tag k="bridge" v="yes" />
		<tag k="layer" v="1" />
		<tag k="name" v="Nydammen" />
		<tag k="ssr:stedsnr" v="531130" />
	</node>
	<node id="-234674" lat="59.6608138912" lon="10.9444361058">
		<tag k="junction" v="yes" />
		<tag k="name" v="Røys" />
		<tag k="place" v="locality" />
		<tag k="ssr:stedsnr" v="385516" />
	</node>
	<node id="-235315" lat="59.8230305591" lon="10.7830527776">
		<tag k="bridge" v="yes" />
		<tag k="layer" v="1" />
		<tag k="name" v="Lienga" />
		<tag k="ssr:stedsnr" v="410115" />
	</node>
	<node id="-234798" lat="59.8240944459" lon="10.7777833413">
		<tag k="junction" v="yes" />
		<tag k="name" v="Mastemyr" />
		<tag k="place" v="locality" />
		<tag k="ssr:stedsnr" v="691691" />
	</node>
	<node id="-235564" lat="59.662711112" lon="10.9005388957">
		<tag k="highway" v="path" />
		<tag k="name" v="Kongeveien" />
		<tag k="ssr:stedsnr" v="871466" />
	</node>
	<node id="-234631" lat="59.7096944471" lon="10.8724944392">
		<tag k="alt_name" v="Ustvedt" />
		<tag k="bridge" v="yes" />
		<tag k="layer" v="1" />
		<tag k="name" v="Østvet" />
		<tag k="ssr:stedsnr" v="471136" />
	</node>
	<node id="-235023" lat="59.8164916685" lon="10.7889499915">
		<tag k="bridge" v="yes" />
		<tag k="layer" v="1" />
		<tag k="name" v="Sagmesterveien" />
		<tag k="ssr:stedsnr" v="46137" />
	</node>
	<node id="-235551" lat="59.7650873082" lon="10.813352545">
		<tag k="alt_name" v="Oppegård" />
		<tag k="name" v="Oppegård stasjon" />
		<tag k="railway" v="station" />
		<tag k="ssr:stedsnr" v="854382" />
		<tag k="train" v="yes" />
	</node>
	<node id="-234910" lat="59.7215027738" lon="10.8472333398">
		<tag k="junction" v="yes" />
		<tag k="name" v="Sander" />
		<tag k="place" v="locality" />
		<tag k="ssr:stedsnr" v="932379" />
	</node>
	<node id="-235421" lat="59.7851666629" lon="10.7324749944">
		<tag k="alt_name" v="Bålerud brygge" />
		<tag k="man_made" v="quay" />
		<tag k="name" v="Bålerudbrygga" />
		<tag k="old_name" v="Bålerudbrygge" />
		<tag k="place" v="locality" />
		<tag k="ssr:stedsnr" v="611348" />
	</node>
	<node id="-235316" lat="59.7205638883" lon="10.8349444372">
		<tag k="bridge" v="yes" />
		<tag k="layer" v="1" />
		<tag k="name" v="Ski" />
		<tag k="ssr:stedsnr" v="410137" />
	</node>
	<node id="-234547" lat="59.6494305584" lon="10.8760138916">
		<tag k="junction" v="yes" />
		<tag k="name" v="Holt" />
		<tag k="place" v="locality" />
		<tag k="ssr:stedsnr" v="82522" />
	</node>
	<node id="-235029" lat="59.7186033631" lon="10.8352753293">
		<tag k="alt_name" v="Ski" />
		<tag k="name" v="Ski stasjon" />
		<tag k="railway" v="station" />
		<tag k="ssr:stedsnr" v="64559" />
		<tag k="train" v="yes" />
	</node>
	<node id="-234515" lat="59.6835059609" lon="10.8906624239">
		<tag k="alt_name" v="Kråkstad" />
		<tag k="name" v="Kråkstad stasjon" />
		<tag k="railway" v="station" />
		<tag k="ssr:stedsnr" v="64437" />
		<tag k="train" v="yes" />
	</node>
	<node id="-235538" lat="59.6651222246" lon="10.947969439">
		<tag k="alt_name" v="Skotbu" />
		<tag k="name" v="Skotbu holdeplass" />
		<tag k="railway" v="halt" />
		<tag k="ssr:stedsnr" v="852489" />
		<tag k="train" v="yes" />
	</node>
	<node id="-234563" lat="59.7103555561" lon="10.8724361067">
		<tag k="junction" v="yes" />
		<tag k="name" v="Kjeppestad" />
		<tag k="place" v="locality" />
		<tag k="ssr:stedsnr" v="264376" />
	</node>
	<node id="-234512" lat="59.7585500024" lon="10.841899996">
		<tag k="bridge" v="yes" />
		<tag k="layer" v="1" />
		<tag k="name" v="Vevelstadåsen" />
		<tag k="ssr:stedsnr" v="228142" />
	</node>
	<node id="-234511" lat="59.8186111114" lon="10.7871833372">
		<tag k="bridge" v="yes" />
		<tag k="layer" v="1" />
		<tag k="name" v="Trollåsveien" />
		<tag k="ssr:stedsnr" v="228134" />
	</node>
	<node id="-235534" lat="59.8059166682" lon="10.8057611069">
		<tag k="bridge" v="yes" />
		<tag k="layer" v="1" />
		<tag k="name" v="Skiveien" />
		<tag k="ssr:stedsnr" v="835135" />
	</node>
	<node id="-234637" lat="59.7874222196" lon="10.802144452">
		<tag k="bridge" v="yes" />
		<tag k="layer" v="1" />
		<tag k="name" v="Myrvoll" />
		<tag k="ssr:stedsnr" v="349156" />
	</node>
	<node id="-234636" lat="59.7071638873" lon="10.8817555589">
		<tag k="aeroway" v="aerodrome" />
		<tag k="name" v="Ski flyplass" />
		<tag k="ssr:stedsnr" v="484227" />
	</node>
	<node id="-235024" lat="59.7600416671" lon="10.807708328">
		<tag k="bridge" v="yes" />
		<tag k="layer" v="1" />
		<tag k="name" v="Dalsbekken" />
		<tag k="ssr:stedsnr" v="46140" />
	</node>
	<node id="-234633" lat="59.7803749992" lon="10.7534305616">
		<tag k="junction" v="yes" />
		<tag k="name" v="Måkeskjær" />
		<tag k="place" v="locality" />
		<tag k="ssr:stedsnr" v="327112" />
	</node>
	<node id="-234632" lat="59.6488833375" lon="10.8857333369">
		<tag k="bridge" v="yes" />
		<tag k="layer" v="1" />
		<tag k="name" v="Holt" />
		<tag k="ssr:stedsnr" v="471163" />
	</node>
	<node id="-235015" lat="59.6762277789" lon="10.8729055517">
		<tag k="junction" v="yes" />
		<tag k="name" v="Bjastad" />
		<tag k="place" v="locality" />
		<tag k="ssr:stedsnr" v="22486" />
	</node>
	<node id="-234630" lat="59.7623166642" lon="10.8201138812">
		<tag k="bridge" v="yes" />
		<tag k="layer" v="1" />
		<tag k="name" v="Nordlifallet" />
		<tag k="ssr:stedsnr" v="471135" />
	</node>
	<node id="-234628" lat="59.8124444437" lon="10.8001361189">
		<tag k="bridge" v="yes" />
		<tag k="layer" v="1" />
		<tag k="name" v="Kolbotn" />
		<tag k="ssr:stedsnr" v="289106" />
	</node>
	<node id="-235394" lat="59.7553888919" lon="10.8454305508">
		<tag k="bridge" v="yes" />
		<tag k="layer" v="1" />
		<tag k="name" v="Langhus senter" />
		<tag k="ssr:stedsnr" v="592168" />
	</node>
	<node id="-235393" lat="59.8045666656" lon="10.7871555565">
		<tag k="bridge" v="yes" />
		<tag k="layer" v="1" />
		<tag k="loc_name" v="Slalåmgjennomgangen" />
		<tag k="name" v="Slalomgjennomgangen" />
		<tag k="ssr:stedsnr" v="592135" />
	</node>
</osm>
