<?xml version="1.0" encoding="UTF-8"?>
<osm version="0.6" generator="osmapis">
	<node lat="59.75470555225508" lon="10.843169439155552" id="-26696">
		<tag k="alt_name" v="Langhus" />
		<tag k="amenity" v="place_of_worship" />
		<tag k="denomination" v="lutheran" />
		<tag k="name" v="Langhus kirke" />
		<tag k="religion" v="christian" />
		<tag k="ssr:stedsnr" v="204420" />
	</node>
	<node lat="59.72241110949778" lon="10.861436119415538" id="-26840">
		<tag k="amenity" v="place_of_worship" />
		<tag k="denomination" v="lutheran" />
		<tag k="name" v="Ski middelalderkirke" />
		<tag k="religion" v="christian" />
		<tag k="ssr:stedsnr" v="488569" />
	</node>
	<node lat="59.807102780364076" lon="10.806355554396136" id="-26846">
		<tag k="alt_name" v="Kolbotn" />
		<tag k="amenity" v="place_of_worship" />
		<tag k="denomination" v="lutheran" />
		<tag k="name" v="Kolbotn kirke" />
		<tag k="religion" v="christian" />
		<tag k="ssr:stedsnr" v="490249" />
	</node>
	<node lat="59.7831138850484" lon="10.859680547238872" id="-26850">
		<tag k="amenity" v="community_centre" />
		<tag k="name" v="Speiderhytte" />
		<tag k="ssr:stedsnr" v="490305" />
	</node>
	<node lat="59.67656726667299" lon="10.88092625177186" id="-27051">
		<tag k="alt_name" v="Kråkstad" />
		<tag k="amenity" v="place_of_worship" />
		<tag k="denomination" v="lutheran" />
		<tag k="name" v="Kråkstad kirke" />
		<tag k="religion" v="christian" />
		<tag k="ssr:stedsnr" v="914448" />
	</node>
	<node lat="59.803902773451796" lon="10.882813882794276" id="-27300">
		<tag k="amenity" v="community_centre" />
		<tag k="name" v="Sagatun" />
		<tag k="ssr:stedsnr" v="5254" />
	</node>
	<node lat="59.74824721949783" lon="10.97120833490913" id="-27326">
		<tag k="amenity" v="place_of_worship" />
		<tag k="denomination" v="lutheran" />
		<tag k="name" v="Sørmarkskapellet" />
		<tag k="religion" v="christian" />
		<tag k="ssr:stedsnr" v="42350" />
	</node>
	<node lat="59.778766669171304" lon="10.750563885923185" id="-27391">
		<tag k="alt_name" v="Oppegård" />
		<tag k="amenity" v="place_of_worship" />
		<tag k="denomination" v="lutheran" />
		<tag k="name" v="Oppegård kirke" />
		<tag k="religion" v="christian" />
		<tag k="ssr:stedsnr" v="126320" />
	</node>
	<node lat="59.81142777865676" lon="10.797105563416563" id="-27456">
		<tag k="amenity" v="community_centre" />
		<tag k="name" v="Gamle Oppegård rådhus" />
		<tag k="old_name" v="Oppegård rådhus" />
		<tag k="ssr:stedsnr" v="205068" />
	</node>
	<node lat="59.79169722099552" lon="10.887194449510925" id="-27572">
		<tag k="amenity" v="place_of_worship" />
		<tag k="denomination" v="lutheran" />
		<tag k="name" v="Siggerud kirke" />
		<tag k="religion" v="christian" />
		<tag k="ssr:stedsnr" v="429332" />
	</node>
	<node lat="59.7961777800797" lon="10.810541661259155" id="-27701">
		<tag k="alt_name" v="Sofiemyr" />
		<tag k="amenity" v="place_of_worship" />
		<tag k="denomination" v="lutheran" />
		<tag k="name" v="Sofiemyr kirke" />
		<tag k="religion" v="christian" />
		<tag k="ssr:stedsnr" v="628890" />
	</node>
	<node lat="59.786180552029606" lon="10.733947230017398" id="-27704">
		<tag k="name" v="Roald Amundsens hjem" />
		<tag k="ssr:stedsnr" v="630478" />
		<tag k="tourism" v="museum" />
	</node>
	<node lat="59.77508333720085" lon="10.80246944289397" id="-27808">
		<tag k="alt_name" v="Greverud" />
		<tag k="amenity" v="place_of_worship" />
		<tag k="denomination" v="lutheran" />
		<tag k="name" v="Greverud kirke" />
		<tag k="religion" v="christian" />
		<tag k="ssr:stedsnr" v="854419" />
	</node>
	<node lat="59.76860211634159" lon="10.821991080956549" id="-28269">
		<tag k="name" v="Myraparken" />
		<tag k="place" v="locality" />
		<tag k="ssr:stedsnr" v="1076727" />
	</node>
</osm>
