<?xml version="1.0" encoding="UTF-8"?>
<osm version="0.6" generator="osmapis">
	<node lat="59.75121287604564" lon="10.951221683287274" id="-26594">
		<tag k="fixme" v="consider natural=peak for the most distinct mountains in the district" />
		<tag k="name" v="Kollåsen" />
		<tag k="natural" v="hill" />
		<tag k="place" v="locality" />
		<tag k="ssr:stedsnr" v="5466" />
	</node>
	<node lat="59.81843611345708" lon="10.895286118289528" id="-26596">
		<tag k="fixme" v="consider natural=peak for the most distinct mountains in the district" />
		<tag k="name" v="Sagåsen" />
		<tag k="natural" v="hill" />
		<tag k="place" v="locality" />
		<tag k="ssr:stedsnr" v="22234" />
	</node>
	<node lat="59.729938890857206" lon="10.95500833543959" id="-26599">
		<tag k="name" v="Kleiva" />
		<tag k="natural" v="slope" />
		<tag k="place" v="locality" />
		<tag k="ssr:stedsnr" v="22405" />
	</node>
	<node lat="59.74284444062149" lon="10.88341111827178" id="-26600">
		<tag k="fixme" v="consider natural=peak for the most distinct mountains in the district" />
		<tag k="name" v="Nordliåsen" />
		<tag k="natural" v="hill" />
		<tag k="place" v="locality" />
		<tag k="ssr:stedsnr" v="22437" />
	</node>
	<node lat="59.70557778033683" lon="10.909933327370151" id="-26602">
		<tag k="name" v="Steinmølbakken" />
		<tag k="natural" v="slope" />
		<tag k="place" v="locality" />
		<tag k="ssr:stedsnr" v="22605" />
	</node>
	<node lat="59.79899166565221" lon="10.805516660160926" id="-26608">
		<tag k="fixme" v="consider natural=peak for the most distinct mountains in the district" />
		<tag k="name" v="Bjørkås" />
		<tag k="natural" v="hill" />
		<tag k="place" v="locality" />
		<tag k="ssr:stedsnr" v="23754" />
	</node>
	<node lat="59.74479166342906" lon="10.884008337353155" id="-26627">
		<tag k="fixme" v="consider natural=peak for the most distinct mountains in the district" />
		<tag k="name" v="Furukollen" />
		<tag k="natural" v="hill" />
		<tag k="place" v="locality" />
		<tag k="ssr:stedsnr" v="82435" />
	</node>
	<node lat="59.74201666807105" lon="10.962702783702891" id="-26633">
		<tag k="fixme" v="consider natural=peak for the most distinct mountains in the district" />
		<tag k="name" v="Bæråsen" />
		<tag k="natural" v="hill" />
		<tag k="place" v="locality" />
		<tag k="ssr:stedsnr" v="82584" />
	</node>
	<node lat="59.67939166255519" lon="10.885363887423095" id="-26634">
		<tag k="name" v="Sigtunskogen" />
		<tag k="place" v="locality" />
		<tag k="ssr:stedsnr" v="82731" />
	</node>
	<node lat="59.690605556749894" lon="10.960663893727684" id="-26636">
		<tag k="name" v="Viendalen" />
		<tag k="natural" v="valley" />
		<tag k="place" v="locality" />
		<tag k="ssr:stedsnr" v="82834" />
	</node>
	<node lat="59.76003889044087" lon="10.845719447459853" id="-26637">
		<tag k="fixme" v="consider natural=peak for the most distinct mountains in the district" />
		<tag k="name" v="Vevelstadåsen" />
		<tag k="natural" v="hill" />
		<tag k="place" v="locality" />
		<tag k="ssr:stedsnr" v="83390" />
	</node>
	<node lat="59.716205553341624" lon="10.927599996739403" id="-26641">
		<tag k="fixme" v="consider natural=peak for the most distinct mountains in the district" />
		<tag k="name" v="Grøstadåsen" />
		<tag k="natural" v="hill" />
		<tag k="place" v="locality" />
		<tag k="ssr:stedsnr" v="83607" />
	</node>
	<node lat="59.77247221906788" lon="10.790288894435754" id="-26642">
		<tag k="fixme" v="consider natural=peak for the most distinct mountains in the district" />
		<tag k="name" v="Flåtestadåsen" />
		<tag k="natural" v="hill" />
		<tag k="place" v="locality" />
		<tag k="ssr:stedsnr" v="84734" />
	</node>
	<node lat="59.76728610981689" lon="10.756186110292502" id="-26649">
		<tag k="alt_name" v="Grauttorget" />
		<tag k="name" v="Grøtorget" />
		<tag k="place" v="locality" />
		<tag k="ssr:stedsnr" v="125454" />
	</node>
	<node lat="59.742876581335686" lon="10.914463144475066" id="-26655">
		<tag k="fixme" v="consider natural=peak for the most distinct mountains in the district" />
		<tag k="name" v="Stokstadåsen" />
		<tag k="natural" v="hill" />
		<tag k="place" v="locality" />
		<tag k="ssr:stedsnr" v="143434" />
	</node>
	<node lat="59.77685277404822" lon="10.885075002607694" id="-26670">
		<tag k="alt_name" v="Torvet" />
		<tag k="name" v="Torget" />
		<tag k="place" v="locality" />
		<tag k="ssr:stedsnr" v="247292" />
	</node>
	<node lat="59.78131110791397" lon="10.794972215699719" id="-26671">
		<tag k="alt_name" v="Stangåsen" />
		<tag k="fixme" v="consider natural=peak for the most distinct mountains in the district" />
		<tag k="name" v="Stangeåsen" />
		<tag k="natural" v="hill" />
		<tag k="place" v="locality" />
		<tag k="ssr:stedsnr" v="247299" />
	</node>
	<node lat="59.807777773317774" lon="10.958238890740468" id="-26676">
		<tag k="fixme" v="consider natural=peak for the most distinct mountains in the district" />
		<tag k="name" v="Tømmerås" />
		<tag k="natural" v="hill" />
		<tag k="place" v="locality" />
		<tag k="ssr:stedsnr" v="248258" />
	</node>
	<node lat="59.810474996717986" lon="10.845577777013329" id="-26693">
		<tag k="fixme" v="consider natural=peak for the most distinct mountains in the district" />
		<tag k="name" v="Taraldrudåsen" />
		<tag k="natural" v="hill" />
		<tag k="place" v="locality" />
		<tag k="ssr:stedsnr" v="187269" />
	</node>
	<node lat="59.71870126700671" lon="10.97334658034743" id="-26700">
		<tag k="name" v="Helvete" />
		<tag k="natural" v="valley" />
		<tag k="place" v="locality" />
		<tag k="ssr:stedsnr" v="204510" />
	</node>
	<node lat="59.781133335014005" lon="10.788741669116511" id="-26706">
		<tag k="name" v="Søndre Gjersjøli" />
		<tag k="natural" v="slope" />
		<tag k="place" v="locality" />
		<tag k="ssr:stedsnr" v="205747" />
	</node>
	<node lat="59.79484722532917" lon="10.92393888746684" id="-26714">
		<tag k="fixme" v="consider natural=peak for the most distinct mountains in the district" />
		<tag k="name" v="Piggåsen" />
		<tag k="natural" v="hill" />
		<tag k="place" v="locality" />
		<tag k="ssr:stedsnr" v="247333" />
	</node>
	<node lat="59.745286108066" lon="10.841219452480257" id="-26722">
		<tag k="name" v="Ramstadlia" />
		<tag k="natural" v="slope" />
		<tag k="place" v="locality" />
		<tag k="ssr:stedsnr" v="447410" />
	</node>
	<node lat="59.693944448655216" lon="10.964808336240589" id="-26726">
		<tag k="name" v="Tjuvroa" />
		<tag k="place" v="locality" />
		<tag k="ssr:stedsnr" v="447548" />
	</node>
	<node lat="59.738547223623456" lon="10.82875000140322" id="-26727">
		<tag k="name" v="Møllebakken" />
		<tag k="natural" v="slope" />
		<tag k="place" v="locality" />
		<tag k="ssr:stedsnr" v="447577" />
	</node>
	<node lat="59.72750277409777" lon="10.961477778520582" id="-26732">
		<tag k="fixme" v="consider natural=peak for the most distinct mountains in the district" />
		<tag k="name" v="Sagstuåsen" />
		<tag k="natural" v="hill" />
		<tag k="place" v="locality" />
		<tag k="ssr:stedsnr" v="264416" />
	</node>
	<node lat="59.72493333010914" lon="10.845930553510792" id="-26733">
		<tag k="name" v="Haugerbakken" />
		<tag k="natural" v="slope" />
		<tag k="place" v="locality" />
		<tag k="ssr:stedsnr" v="264457" />
	</node>
	<node lat="59.809886110772986" lon="10.85200833759641" id="-26734">
		<tag k="fixme" v="consider natural=peak for the most distinct mountains in the district" />
		<tag k="name" v="Teigenåsen" />
		<tag k="natural" v="hill" />
		<tag k="place" v="locality" />
		<tag k="ssr:stedsnr" v="264303" />
	</node>
	<node lat="59.71178888856286" lon="10.819480551837088" id="-26743">
		<tag k="name" v="Vellingberget" />
		<tag k="natural" v="hill" />
		<tag k="place" v="locality" />
		<tag k="ssr:stedsnr" v="265618" />
	</node>
	<node lat="59.79053888989055" lon="10.7909277787832" id="-26744">
		<tag k="name" v="Eidsdalen" />
		<tag k="natural" v="valley" />
		<tag k="place" v="locality" />
		<tag k="ssr:stedsnr" v="266714" />
	</node>
	<node lat="59.78724722044973" lon="10.834155551286665" id="-26751">
		<tag k="fixme" v="consider natural=peak for the most distinct mountains in the district" />
		<tag k="name" v="Flatåsen" />
		<tag k="natural" v="hill" />
		<tag k="place" v="locality" />
		<tag k="ssr:stedsnr" v="308302" />
	</node>
	<node lat="59.80072499729297" lon="10.904561119841475" id="-26753">
		<tag k="fixme" v="consider natural=peak for the most distinct mountains in the district" />
		<tag k="name" v="Sauåsen" />
		<tag k="natural" v="hill" />
		<tag k="place" v="locality" />
		<tag k="ssr:stedsnr" v="308324" />
	</node>
	<node lat="59.80564999793268" lon="10.869347229161528" id="-26758">
		<tag k="name" v="Borkedalen" />
		<tag k="natural" v="valley" />
		<tag k="place" v="locality" />
		<tag k="ssr:stedsnr" v="325314" />
	</node>
	<node lat="59.75067778214158" lon="10.947430563797187" id="-26759">
		<tag k="fixme" v="consider natural=peak for the most distinct mountains in the district" />
		<tag k="name" v="Vestre Kollåsen" />
		<tag k="natural" v="hill" />
		<tag k="place" v="locality" />
		<tag k="ssr:stedsnr" v="325316" />
	</node>
	<node lat="59.678111115118384" lon="10.908980553976335" id="-26767">
		<tag k="fixme" v="consider natural=peak for the most distinct mountains in the district" />
		<tag k="name" v="Sørumåsen" />
		<tag k="natural" v="hill" />
		<tag k="place" v="locality" />
		<tag k="ssr:stedsnr" v="325486" />
	</node>
	<node lat="59.70835000147042" lon="10.91078333042101" id="-26768">
		<tag k="fixme" v="consider natural=peak for the most distinct mountains in the district" />
		<tag k="name" v="Søråsen" />
		<tag k="natural" v="hill" />
		<tag k="place" v="locality" />
		<tag k="ssr:stedsnr" v="325608" />
	</node>
	<node lat="59.71657500312593" lon="10.849472220157429" id="-26769">
		<tag k="fixme" v="consider natural=peak for the most distinct mountains in the district" />
		<tag k="name" v="Skoroåsen" />
		<tag k="natural" v="hill" />
		<tag k="place" v="locality" />
		<tag k="ssr:stedsnr" v="325396" />
	</node>
	<node lat="59.80217499651416" lon="10.793574991768729" id="-26786">
		<tag k="fixme" v="consider natural=peak for the most distinct mountains in the district" />
		<tag k="name" v="Kantoråsen" />
		<tag k="natural" v="hill" />
		<tag k="place" v="locality" />
		<tag k="ssr:stedsnr" v="368386" />
	</node>
	<node lat="59.73634166417938" lon="10.972652785709391" id="-26791">
		<tag k="name" v="Torebråtabakken" />
		<tag k="natural" v="slope" />
		<tag k="place" v="locality" />
		<tag k="ssr:stedsnr" v="386402" />
	</node>
	<node lat="59.71864721815812" lon="10.922000005735583" id="-26800">
		<tag k="name" v="Kølabonn" />
		<tag k="place" v="locality" />
		<tag k="ssr:stedsnr" v="386615" />
	</node>
	<node lat="59.766997226311226" lon="10.80076944188158" id="-26803">
		<tag k="name" v="Greverudlia" />
		<tag k="natural" v="slope" />
		<tag k="place" v="locality" />
		<tag k="ssr:stedsnr" v="387714" />
	</node>
	<node lat="59.80085555687007" lon="10.750358334237143" id="-26818">
		<tag k="name" v="Revedalen" />
		<tag k="natural" v="valley" />
		<tag k="place" v="locality" />
		<tag k="ssr:stedsnr" v="430257" />
	</node>
	<node lat="59.80984708369547" lon="10.794010521033895" id="-26819">
		<tag k="fixme" v="consider natural=peak for the most distinct mountains in the district" />
		<tag k="name" v="Øståsen" />
		<tag k="natural" v="hill" />
		<tag k="place" v="locality" />
		<tag k="ssr:stedsnr" v="430270" />
	</node>
	<node lat="59.7849666626806" lon="10.941411115598564" id="-26825">
		<tag k="fixme" v="consider natural=peak for the most distinct mountains in the district" />
		<tag k="name" v="Fjellstadåsen" />
		<tag k="natural" v="hill" />
		<tag k="place" v="locality" />
		<tag k="ssr:stedsnr" v="447233" />
	</node>
	<node lat="59.72208610977287" lon="10.920511104761673" id="-26826">
		<tag k="name" v="Ødegården" />
		<tag k="place" v="locality" />
		<tag k="ssr:stedsnr" v="447601" />
	</node>
	<node lat="59.72556110798576" lon="10.953786110119768" id="-26827">
		<tag k="name" v="Moen" />
		<tag k="place" v="locality" />
		<tag k="ssr:stedsnr" v="447393" />
	</node>
	<node lat="59.786919447062175" lon="10.739397219410346" id="-26835">
		<tag k="fixme" v="consider natural=peak for the most distinct mountains in the district" />
		<tag k="name" v="Rødsteinåsen" />
		<tag k="natural" v="hill" />
		<tag k="place" v="locality" />
		<tag k="ssr:stedsnr" v="448739" />
	</node>
	<node lat="59.728202778536" lon="10.806341659306764" id="-26839">
		<tag k="fixme" v="consider natural=peak for the most distinct mountains in the district" />
		<tag k="name" v="Bollerudåsen" />
		<tag k="natural" v="hill" />
		<tag k="place" v="locality" />
		<tag k="ssr:stedsnr" v="488565" />
	</node>
	<node lat="59.77915555186957" lon="10.834341666184784" id="-26847">
		<tag k="alt_name" v="Pinnåsen" />
		<tag k="fixme" v="consider natural=peak for the most distinct mountains in the district" />
		<tag k="name" v="Pinåsen" />
		<tag k="natural" v="hill" />
		<tag k="place" v="locality" />
		<tag k="ssr:stedsnr" v="490301" />
	</node>
	<node lat="59.79786111130976" lon="10.889513894893751" id="-26851">
		<tag k="alt_name" v="Grytebråtåsen" />
		<tag k="fixme" v="consider natural=peak for the most distinct mountains in the district" />
		<tag k="name" v="Sagåsen" />
		<tag k="natural" v="hill" />
		<tag k="place" v="locality" />
		<tag k="ssr:stedsnr" v="490344" />
	</node>
	<node lat="59.79884722639982" lon="10.979783335406072" id="-26865">
		<tag k="fixme" v="consider natural=peak for the most distinct mountains in the district" />
		<tag k="name" v="Damåsen" />
		<tag k="natural" v="hill" />
		<tag k="place" v="locality" />
		<tag k="ssr:stedsnr" v="507331" />
	</node>
	<node lat="59.706622219371916" lon="10.908197230752954" id="-26870">
		<tag k="name" v="Oppsandbråten" />
		<tag k="natural" v="hill" />
		<tag k="place" v="locality" />
		<tag k="ssr:stedsnr" v="507618" />
	</node>
	<node lat="59.82020278123574" lon="10.78508055050057" id="-26875">
		<tag k="name" v="Lienga" />
		<tag k="natural" v="slope" />
		<tag k="place" v="locality" />
		<tag k="ssr:stedsnr" v="672245" />
	</node>
	<node lat="59.78569444697615" lon="10.790941675154974" id="-26880">
		<tag k="name" v="Nordre Gjersjøli" />
		<tag k="natural" v="slope" />
		<tag k="place" v="locality" />
		<tag k="ssr:stedsnr" v="509687" />
	</node>
	<node lat="59.815427781407124" lon="10.76173611575126" id="-26881">
		<tag k="fixme" v="consider natural=peak for the most distinct mountains in the district" />
		<tag k="name" v="Hvitebjørnåsen" />
		<tag k="natural" v="hill" />
		<tag k="place" v="locality" />
		<tag k="ssr:stedsnr" v="672257" />
	</node>
	<node lat="59.82402499740962" lon="10.914452778454235" id="-26882">
		<tag k="alt_name" v="Lille Malmen" />
		<tag k="fixme" v="consider natural=peak for the most distinct mountains in the district" />
		<tag k="name" v="Veståsen" />
		<tag k="natural" v="hill" />
		<tag k="place" v="locality" />
		<tag k="ssr:stedsnr" v="672260" />
	</node>
	<node lat="59.80463888860581" lon="10.855724992485358" id="-26895">
		<tag k="fixme" v="consider natural=peak for the most distinct mountains in the district" />
		<tag k="name" v="Langåsen" />
		<tag k="natural" v="hill" />
		<tag k="place" v="locality" />
		<tag k="ssr:stedsnr" v="551274" />
	</node>
	<node lat="59.68887777465926" lon="10.942330553172633" id="-26903">
		<tag k="fixme" v="consider natural=peak for the most distinct mountains in the district" />
		<tag k="name" v="Tyrigravåsen" />
		<tag k="natural" v="hill" />
		<tag k="place" v="locality" />
		<tag k="ssr:stedsnr" v="567521" />
	</node>
	<node lat="59.809052061830634" lon="10.786345773828529" id="-26911">
		<tag k="fixme" v="consider natural=peak for the most distinct mountains in the district" />
		<tag k="name" v="Vestre Ingieråsen" />
		<tag k="natural" v="hill" />
		<tag k="place" v="locality" />
		<tag k="ssr:stedsnr" v="569683" />
	</node>
	<node lat="59.8228999963195" lon="10.765075004189788" id="-26922">
		<tag k="fixme" v="consider natural=peak for the most distinct mountains in the district" />
		<tag k="name" v="Kruttmølleåsen" />
		<tag k="natural" v="hill" />
		<tag k="place" v="locality" />
		<tag k="ssr:stedsnr" v="611295" />
	</node>
	<node lat="59.78194444121844" lon="10.883650004330846" id="-26934">
		<tag k="fixme" v="consider natural=peak for the most distinct mountains in the district" />
		<tag k="name" v="Delingsåsen" />
		<tag k="natural" v="hill" />
		<tag k="place" v="locality" />
		<tag k="ssr:stedsnr" v="689285" />
	</node>
	<node lat="59.80664444692521" lon="10.97221666885147" id="-26935">
		<tag k="fixme" v="consider natural=peak for the most distinct mountains in the district" />
		<tag k="name" v="Langfuruåsen" />
		<tag k="natural" v="hill" />
		<tag k="place" v="locality" />
		<tag k="ssr:stedsnr" v="689359" />
	</node>
	<node lat="59.65604721904664" lon="10.944616659242985" id="-26936">
		<tag k="fixme" v="consider natural=peak for the most distinct mountains in the district" />
		<tag k="name" v="Hanakropåsen" />
		<tag k="natural" v="hill" />
		<tag k="place" v="locality" />
		<tag k="ssr:stedsnr" v="689501" />
	</node>
	<node lat="59.64592499888787" lon="10.93197777328193" id="-26939">
		<tag k="alt_name" v="Brekkaåsen" />
		<tag k="fixme" v="consider natural=peak for the most distinct mountains in the district" />
		<tag k="name" v="Brekkeåsen" />
		<tag k="natural" v="hill" />
		<tag k="place" v="locality" />
		<tag k="ssr:stedsnr" v="689481" />
	</node>
	<node lat="59.726505558996465" lon="10.935786102791122" id="-26940">
		<tag k="name" v="Trolldalen" />
		<tag k="natural" v="valley" />
		<tag k="place" v="locality" />
		<tag k="ssr:stedsnr" v="628303" />
	</node>
	<node lat="59.81493888720512" lon="10.790666670586743" id="-26949">
		<tag k="name" v="Iskulen" />
		<tag k="natural" v="hill" />
		<tag k="place" v="locality" />
		<tag k="ssr:stedsnr" v="630662" />
	</node>
	<node lat="59.807094449044165" lon="10.90177221524098" id="-26956">
		<tag k="alt_name" v="Syverudåsen" />
		<tag k="fixme" v="consider natural=peak for the most distinct mountains in the district" />
		<tag k="name" v="Syverrudåsen" />
		<tag k="natural" v="hill" />
		<tag k="place" v="locality" />
		<tag k="ssr:stedsnr" v="672232" />
	</node>
	<node lat="59.77575277586457" lon="10.954883325651672" id="-26960">
		<tag k="fixme" v="consider natural=peak for the most distinct mountains in the district" />
		<tag k="loc_name" v="Gjevikåsen" />
		<tag k="name" v="Jevikåsen" />
		<tag k="natural" v="hill" />
		<tag k="place" v="locality" />
		<tag k="ssr:stedsnr" v="672404" />
	</node>
	<node lat="59.797930555607515" lon="10.915738880388867" id="-26963">
		<tag k="fixme" v="consider natural=peak for the most distinct mountains in the district" />
		<tag k="name" v="Snikedalsåsen" />
		<tag k="natural" v="hill" />
		<tag k="place" v="locality" />
		<tag k="ssr:stedsnr" v="672317" />
	</node>
	<node lat="59.75772777904175" lon="10.822249996759647" id="-26964">
		<tag k="fixme" v="consider natural=peak for the most distinct mountains in the district" />
		<tag k="name" v="Fossholtet" />
		<tag k="natural" v="hill" />
		<tag k="place" v="locality" />
		<tag k="ssr:stedsnr" v="672366" />
	</node>
	<node lat="59.75066389213318" lon="10.955061114693017" id="-26969">
		<tag k="fixme" v="consider natural=peak for the most distinct mountains in the district" />
		<tag k="name" v="Østre Kollåsen" />
		<tag k="natural" v="hill" />
		<tag k="place" v="locality" />
		<tag k="ssr:stedsnr" v="689315" />
	</node>
	<node lat="59.78069721966814" lon="10.882930547350796" id="-26972">
		<tag k="name" v="Styggdalen" />
		<tag k="natural" v="valley" />
		<tag k="place" v="locality" />
		<tag k="ssr:stedsnr" v="689288" />
	</node>
	<node lat="59.79856666925832" lon="10.9411777768436" id="-26973">
		<tag k="fixme" v="consider natural=peak for the most distinct mountains in the district" />
		<tag k="name" v="Sagstuåsen" />
		<tag k="natural" v="hill" />
		<tag k="place" v="locality" />
		<tag k="ssr:stedsnr" v="689290" />
	</node>
	<node lat="59.749277778289745" lon="10.82512222208107" id="-26975">
		<tag k="name" v="Dalstubben" />
		<tag k="natural" v="hill" />
		<tag k="place" v="locality" />
		<tag k="ssr:stedsnr" v="689415" />
	</node>
	<node lat="59.735425004073925" lon="10.920891674153975" id="-26976">
		<tag k="fixme" v="consider natural=peak for the most distinct mountains in the district" />
		<tag k="name" v="Pukksteinåsen" />
		<tag k="natural" v="hill" />
		<tag k="place" v="locality" />
		<tag k="ssr:stedsnr" v="689432" />
	</node>
	<node lat="59.78076110695641" lon="10.892366657994797" id="-26991">
		<tag k="alt_name" v="Kullebunnåsen" />
		<tag k="fixme" v="consider natural=peak for the most distinct mountains in the district" />
		<tag k="name" v="Kolabonnåsen" />
		<tag k="natural" v="hill" />
		<tag k="place" v="locality" />
		<tag k="ssr:stedsnr" v="732316" />
	</node>
	<node lat="59.76580833674808" lon="10.77382500820893" id="-26998">
		<tag k="name" v="Tjoredalen" />
		<tag k="natural" v="valley" />
		<tag k="place" v="locality" />
		<tag k="ssr:stedsnr" v="733396" />
	</node>
	<node lat="59.76897499749196" lon="10.799300003089355" id="-27000">
		<tag k="fixme" v="consider natural=peak for the most distinct mountains in the district" />
		<tag k="name" v="Nyjordåsen" />
		<tag k="natural" v="hill" />
		<tag k="place" v="locality" />
		<tag k="ssr:stedsnr" v="733408" />
	</node>
	<node lat="59.692797225750155" lon="10.895069445376274" id="-27008">
		<tag k="name" v="St. Hanshaugen" />
		<tag k="natural" v="hill" />
		<tag k="place" v="locality" />
		<tag k="ssr:stedsnr" v="750519" />
	</node>
	<node lat="59.775280559286784" lon="10.885688891697809" id="-27022">
		<tag k="fixme" v="consider natural=peak for the most distinct mountains in the district" />
		<tag k="name" v="Steinryggen" />
		<tag k="natural" v="hill" />
		<tag k="place" v="locality" />
		<tag k="ssr:stedsnr" v="793328" />
	</node>
	<node lat="59.69246666363379" lon="10.942408327051755" id="-27032">
		<tag k="name" v="Pinadalen" />
		<tag k="natural" v="valley" />
		<tag k="place" v="locality" />
		<tag k="ssr:stedsnr" v="811549" />
	</node>
	<node lat="59.77364722422221" lon="10.828188893513083" id="-27038">
		<tag k="name" v="Laugskollen" />
		<tag k="natural" v="hill" />
		<tag k="place" v="locality" />
		<tag k="ssr:stedsnr" v="812732" />
	</node>
	<node lat="59.699124996826356" lon="10.939130555539009" id="-27049">
		<tag k="alt_name" v="Hølåsen" />
		<tag k="fixme" v="consider natural=peak for the most distinct mountains in the district" />
		<tag k="name" v="Holåsen" />
		<tag k="natural" v="hill" />
		<tag k="place" v="locality" />
		<tag k="ssr:stedsnr" v="914394" />
	</node>
	<node lat="59.8075805573772" lon="10.874355556333551" id="-27054">
		<tag k="fixme" v="consider natural=peak for the most distinct mountains in the district" />
		<tag k="name" v="Bråtenåsen" />
		<tag k="natural" v="hill" />
		<tag k="place" v="locality" />
		<tag k="ssr:stedsnr" v="915230" />
	</node>
	<node lat="59.68523333684931" lon="10.9199388807848" id="-27073">
		<tag k="name" v="Kølabonn" />
		<tag k="place" v="locality" />
		<tag k="ssr:stedsnr" v="871504" />
	</node>
	<node lat="59.70581389019333" lon="10.948124991199984" id="-27076">
		<tag k="fixme" v="consider natural=peak for the most distinct mountains in the district" />
		<tag k="name" v="Fuglåsen" />
		<tag k="natural" v="hill" />
		<tag k="place" v="locality" />
		<tag k="ssr:stedsnr" v="871527" />
	</node>
	<node lat="59.777836113675924" lon="10.767775004779628" id="-27080">
		<tag k="name" v="Rytterkleiva" />
		<tag k="natural" v="valley" />
		<tag k="place" v="locality" />
		<tag k="ssr:stedsnr" v="873679" />
	</node>
	<node lat="59.76356944599557" lon="10.735680559047616" id="-27081">
		<tag k="name" v="Sjødalen" />
		<tag k="natural" v="valley" />
		<tag k="place" v="locality" />
		<tag k="ssr:stedsnr" v="873681" />
	</node>
	<node lat="59.79193611193679" lon="10.79544167254138" id="-27082">
		<tag k="fixme" v="consider natural=peak for the most distinct mountains in the district" />
		<tag k="name" v="Strutåsen" />
		<tag k="natural" v="hill" />
		<tag k="place" v="locality" />
		<tag k="ssr:stedsnr" v="873688" />
	</node>
	<node lat="59.77743611414311" lon="10.839408341186429" id="-27093">
		<tag k="name" v="Assurdalen" />
		<tag k="natural" v="valley" />
		<tag k="place" v="locality" />
		<tag k="ssr:stedsnr" v="915300" />
	</node>
	<node lat="59.77458055914748" lon="10.861836114992494" id="-27094">
		<tag k="fixme" v="consider natural=peak for the most distinct mountains in the district" />
		<tag k="name" v="Fugleåsen" />
		<tag k="natural" v="hill" />
		<tag k="place" v="locality" />
		<tag k="ssr:stedsnr" v="915302" />
	</node>
	<node lat="59.77440555643949" lon="10.959980551083214" id="-27097">
		<tag k="name" v="Grubedalen" />
		<tag k="natural" v="valley" />
		<tag k="place" v="locality" />
		<tag k="ssr:stedsnr" v="932343" />
	</node>
	<node lat="59.73287778192417" lon="10.844519445982014" id="-27101">
		<tag k="name" v="Vabakken" />
		<tag k="natural" v="slope" />
		<tag k="place" v="locality" />
		<tag k="ssr:stedsnr" v="932445" />
	</node>
	<node lat="59.72819866572532" lon="10.846495364432597" id="-27102">
		<tag k="fixme" v="consider natural=peak for the most distinct mountains in the district" />
		<tag k="name" v="Vardåsen" />
		<tag k="natural" v="hill" />
		<tag k="place" v="locality" />
		<tag k="ssr:stedsnr" v="932447" />
	</node>
	<node lat="59.80483610940254" lon="10.748480551341745" id="-27105">
		<tag k="fixme" v="consider natural=peak for the most distinct mountains in the district" />
		<tag k="name" v="Brannfjell" />
		<tag k="natural" v="hill" />
		<tag k="place" v="locality" />
		<tag k="ssr:stedsnr" v="934704" />
	</node>
	<node lat="59.8141444468694" lon="10.781172217407638" id="-27107">
		<tag k="name" v="Trolldalen" />
		<tag k="natural" v="valley" />
		<tag k="place" v="locality" />
		<tag k="ssr:stedsnr" v="934700" />
	</node>
	<node lat="59.76487500084398" lon="10.860552783932185" id="-27297">
		<tag k="alt_name" v="Bølerkollen" />
		<tag k="fixme" v="consider natural=peak for the most distinct mountains in the district" />
		<tag k="name" v="Bøleråsen" />
		<tag k="natural" v="hill" />
		<tag k="place" v="locality" />
		<tag k="ssr:stedsnr" v="4427" />
	</node>
	<node lat="59.74985555118063" lon="10.905197228759905" id="-27304">
		<tag k="name" v="Pettersgrinda" />
		<tag k="natural" v="hill" />
		<tag k="place" v="locality" />
		<tag k="ssr:stedsnr" v="22449" />
	</node>
	<node lat="59.76149721998868" lon="10.86741388123466" id="-27305">
		<tag k="fixme" v="consider natural=peak for the most distinct mountains in the district" />
		<tag k="name" v="Lille Gampehue" />
		<tag k="natural" v="hill" />
		<tag k="place" v="locality" />
		<tag k="ssr:stedsnr" v="22462" />
	</node>
	<node lat="59.754608329603684" lon="10.873449997806055" id="-27306">
		<tag k="fixme" v="consider natural=peak for the most distinct mountains in the district" />
		<tag k="name" v="Rudåsen" />
		<tag k="natural" v="hill" />
		<tag k="place" v="locality" />
		<tag k="ssr:stedsnr" v="22467" />
	</node>
	<node lat="59.72282499689979" lon="10.811905552450146" id="-27310">
		<tag k="name" v="Myrsletta" />
		<tag k="place" v="locality" />
		<tag k="ssr:stedsnr" v="22576" />
	</node>
	<node lat="59.7569250021102" lon="10.958200008270985" id="-27311">
		<tag k="name" v="Østli" />
		<tag k="natural" v="slope" />
		<tag k="place" v="locality" />
		<tag k="ssr:stedsnr" v="22290" />
	</node>
	<node lat="59.79665277697554" lon="10.919541660452046" id="-27314">
		<tag k="name" v="Holeveien" />
		<tag k="natural" v="valley" />
		<tag k="place" v="locality" />
		<tag k="ssr:stedsnr" v="22271" />
	</node>
	<node lat="59.80904166614465" lon="10.897886103215376" id="-27315">
		<tag k="name" v="Lauvdalen" />
		<tag k="natural" v="valley" />
		<tag k="place" v="locality" />
		<tag k="ssr:stedsnr" v="22274" />
	</node>
	<node lat="59.80278611382294" lon="10.833502772978315" id="-27323">
		<tag k="fixme" v="consider natural=peak for the most distinct mountains in the district" />
		<tag k="name" v="Snipeåsen" />
		<tag k="natural" v="hill" />
		<tag k="place" v="locality" />
		<tag k="ssr:stedsnr" v="23757" />
	</node>
	<node lat="59.77320833617815" lon="10.81039721485849" id="-27324">
		<tag k="fixme" v="consider natural=peak for the most distinct mountains in the district" />
		<tag k="name" v="Delerudåsen" />
		<tag k="natural" v="hill" />
		<tag k="place" v="locality" />
		<tag k="ssr:stedsnr" v="23758" />
	</node>
	<node lat="59.76956110989827" lon="10.738997217855117" id="-27339">
		<tag k="name" v="Trolldalen" />
		<tag k="natural" v="valley" />
		<tag k="place" v="locality" />
		<tag k="ssr:stedsnr" v="65421" />
	</node>
	<node lat="59.79432222435233" lon="10.897405554384017" id="-27343">
		<tag k="fixme" v="consider natural=peak for the most distinct mountains in the district" />
		<tag k="name" v="Tangefjellet" />
		<tag k="natural" v="hill" />
		<tag k="place" v="locality" />
		<tag k="ssr:stedsnr" v="65336" />
	</node>
	<node lat="59.75652499952606" lon="10.883813886350676" id="-27344">
		<tag k="fixme" v="consider natural=peak for the most distinct mountains in the district" />
		<tag k="name" v="Mørkåsen" />
		<tag k="natural" v="hill" />
		<tag k="place" v="locality" />
		<tag k="ssr:stedsnr" v="65380" />
	</node>
	<node lat="59.74342499656315" lon="10.937227777421139" id="-27347">
		<tag k="fixme" v="consider natural=peak for the most distinct mountains in the district" />
		<tag k="name" v="Løkketoppen" />
		<tag k="natural" v="hill" />
		<tag k="place" v="locality" />
		<tag k="ssr:stedsnr" v="82447" />
	</node>
	<node lat="59.73664999694971" lon="10.88585278338117" id="-27348">
		<tag k="fixme" v="consider natural=peak for the most distinct mountains in the district" />
		<tag k="name" v="Lunneråsen" />
		<tag k="natural" v="hill" />
		<tag k="place" v="locality" />
		<tag k="ssr:stedsnr" v="82456" />
	</node>
	<node lat="59.767352780946204" lon="10.920544436566724" id="-27351">
		<tag k="name" v="Rumpa" />
		<tag k="natural" v="hill" />
		<tag k="place" v="locality" />
		<tag k="ssr:stedsnr" v="82466" />
	</node>
	<node lat="59.800525003933934" lon="10.919572220299859" id="-27353">
		<tag k="name" v="Delingsdalen" />
		<tag k="natural" v="valley" />
		<tag k="place" v="locality" />
		<tag k="ssr:stedsnr" v="82271" />
	</node>
	<node lat="59.809463885050825" lon="10.893855560857132" id="-27354">
		<tag k="name" v="Kjøredalen" />
		<tag k="natural" v="valley" />
		<tag k="place" v="locality" />
		<tag k="ssr:stedsnr" v="82275" />
	</node>
	<node lat="59.801263890081394" lon="10.949444445802296" id="-27355">
		<tag k="name" v="Søndre Paddetjerndalen" />
		<tag k="natural" v="valley" />
		<tag k="place" v="locality" />
		<tag k="ssr:stedsnr" v="82349" />
	</node>
	<node lat="59.81490000396309" lon="10.926438890436497" id="-27357">
		<tag k="fixme" v="consider natural=peak for the most distinct mountains in the district" />
		<tag k="name" v="Hagåsen" />
		<tag k="natural" v="hill" />
		<tag k="place" v="locality" />
		<tag k="ssr:stedsnr" v="82355" />
	</node>
	<node lat="59.7643999971693" lon="10.8467138816895" id="-27358">
		<tag k="fixme" v="consider natural=peak for the most distinct mountains in the district" />
		<tag k="name" v="Lyngåsen" />
		<tag k="natural" v="hill" />
		<tag k="place" v="locality" />
		<tag k="ssr:stedsnr" v="82365" />
	</node>
	<node lat="59.709744448078965" lon="10.846549995669164" id="-27364">
		<tag k="fixme" v="consider natural=peak for the most distinct mountains in the district" />
		<tag k="name" v="Ellingsrudåsen" />
		<tag k="natural" v="hill" />
		<tag k="place" v="locality" />
		<tag k="ssr:stedsnr" v="83397" />
	</node>
	<node lat="59.7090638924824" lon="10.845500007995291" id="-27365">
		<tag k="name" v="Ellingsrudkleiva" />
		<tag k="natural" v="slope" />
		<tag k="place" v="locality" />
		<tag k="ssr:stedsnr" v="83399" />
	</node>
	<node lat="59.801266667160974" lon="10.75280556337354" id="-27382">
		<tag k="fixme" v="consider natural=peak for the most distinct mountains in the district" />
		<tag k="name" v="Gråbeinåsen" />
		<tag k="natural" v="hill" />
		<tag k="place" v="locality" />
		<tag k="ssr:stedsnr" v="125382" />
	</node>
	<node lat="59.78213888694102" lon="10.875322225410741" id="-27383">
		<tag k="fixme" v="consider natural=peak for the most distinct mountains in the district" />
		<tag k="name" v="Verpåsen" />
		<tag k="natural" v="hill" />
		<tag k="place" v="locality" />
		<tag k="ssr:stedsnr" v="125336" />
	</node>
	<node lat="59.78213611109167" lon="10.95030555300771" id="-27386">
		<tag k="fixme" v="consider natural=peak for the most distinct mountains in the district" />
		<tag k="name" v="Hyttåsen" />
		<tag k="natural" v="hill" />
		<tag k="place" v="locality" />
		<tag k="ssr:stedsnr" v="125443" />
	</node>
	<node lat="59.82107500113417" lon="10.941680547863262" id="-27389">
		<tag k="alt_name" v="Flatåsen" />
		<tag k="fixme" v="consider natural=peak for the most distinct mountains in the district" />
		<tag k="name" v="Flaåsen" />
		<tag k="natural" v="hill" />
		<tag k="place" v="locality" />
		<tag k="ssr:stedsnr" v="126278" />
	</node>
	<node lat="59.80611388471517" lon="10.941475006070071" id="-27390">
		<tag k="fixme" v="consider natural=peak for the most distinct mountains in the district" />
		<tag k="name" v="Svarvestolen" />
		<tag k="natural" v="hill" />
		<tag k="place" v="locality" />
		<tag k="ssr:stedsnr" v="126238" />
	</node>
	<node lat="59.81688888880086" lon="10.776933325744357" id="-27392">
		<tag k="fixme" v="consider natural=peak for the most distinct mountains in the district" />
		<tag k="name" v="Trolldalsåsen" />
		<tag k="natural" v="hill" />
		<tag k="place" v="locality" />
		<tag k="ssr:stedsnr" v="126526" />
	</node>
	<node lat="59.78711666494332" lon="10.883461113469775" id="-27396">
		<tag k="fixme" v="consider natural=peak for the most distinct mountains in the district" />
		<tag k="name" v="Hyttengåsen" />
		<tag k="natural" v="hill" />
		<tag k="place" v="locality" />
		<tag k="ssr:stedsnr" v="143245" />
	</node>
	<node lat="59.79744722354803" lon="10.927599991284975" id="-27398">
		<tag k="name" v="Soldalen" />
		<tag k="natural" v="valley" />
		<tag k="place" v="locality" />
		<tag k="ssr:stedsnr" v="143255" />
	</node>
	<node lat="59.800530555242155" lon="10.933213890484419" id="-27399">
		<tag k="fixme" v="consider natural=peak for the most distinct mountains in the district" />
		<tag k="name" v="Smieåsen" />
		<tag k="natural" v="hill" />
		<tag k="place" v="locality" />
		<tag k="ssr:stedsnr" v="143257" />
	</node>
	<node lat="59.71100000068336" lon="10.932847230816689" id="-27400">
		<tag k="name" v="Strevoppbråten" />
		<tag k="natural" v="slope" />
		<tag k="place" v="locality" />
		<tag k="ssr:stedsnr" v="143612" />
	</node>
	<node lat="59.69831944597992" lon="10.957986108578805" id="-27408">
		<tag k="fixme" v="consider natural=peak for the most distinct mountains in the district" />
		<tag k="name" v="Hveinåsen" />
		<tag k="natural" v="hill" />
		<tag k="place" v="locality" />
		<tag k="ssr:stedsnr" v="143565" />
	</node>
	<node lat="59.73673610952438" lon="10.968247225688922" id="-27411">
		<tag k="name" v="Torebråtan" />
		<tag k="natural" v="slope" />
		<tag k="place" v="locality" />
		<tag k="ssr:stedsnr" v="143411" />
	</node>
	<node lat="59.76294444547125" lon="10.875641667560258" id="-27412">
		<tag k="fixme" v="consider natural=peak for the most distinct mountains in the district" />
		<tag k="name" v="Store Gampehue" />
		<tag k="natural" v="hill" />
		<tag k="place" v="locality" />
		<tag k="ssr:stedsnr" v="143487" />
	</node>
	<node lat="59.680536113679025" lon="10.908569440914302" id="-27413">
		<tag k="fixme" v="consider natural=peak for the most distinct mountains in the district" />
		<tag k="name" v="Missumberget" />
		<tag k="natural" v="hill" />
		<tag k="place" v="locality" />
		<tag k="ssr:stedsnr" v="143495" />
	</node>
	<node lat="59.81085277885935" lon="10.925172229160957" id="-27418">
		<tag k="fixme" v="consider natural=peak for the most distinct mountains in the district" />
		<tag k="name" v="Kuklemåsen" />
		<tag k="natural" v="hill" />
		<tag k="old_name" v="Kuklamåsen;Kuklemåsan" />
		<tag k="place" v="locality" />
		<tag k="ssr:stedsnr" v="162269" />
	</node>
	<node lat="59.770741668255226" lon="10.907738889376878" id="-27427">
		<tag k="fixme" v="consider natural=peak for the most distinct mountains in the district" />
		<tag k="name" v="Haugfjell" />
		<tag k="natural" v="hill" />
		<tag k="old_name" v="Høgfjell" />
		<tag k="place" v="locality" />
		<tag k="ssr:stedsnr" v="186453" />
	</node>
	<node lat="59.81815833140451" lon="10.925474992150276" id="-27432">
		<tag k="alt_name" v="Store Malmen" />
		<tag k="fixme" v="consider natural=peak for the most distinct mountains in the district" />
		<tag k="name" v="Malmen" />
		<tag k="natural" v="hill" />
		<tag k="place" v="locality" />
		<tag k="ssr:stedsnr" v="187282" />
	</node>
	<node lat="59.8075472249466" lon="10.862513884292627" id="-27434">
		<tag k="fixme" v="consider natural=peak for the most distinct mountains in the district" />
		<tag k="name" v="Slettåsen" />
		<tag k="natural" v="hill" />
		<tag k="place" v="locality" />
		<tag k="ssr:stedsnr" v="187237" />
	</node>
	<node lat="59.79970555918661" lon="10.955002771030195" id="-27435">
		<tag k="fixme" v="consider natural=peak for the most distinct mountains in the district" />
		<tag k="name" v="Kadettåsen" />
		<tag k="natural" v="hill" />
		<tag k="place" v="locality" />
		<tag k="ssr:stedsnr" v="187245" />
	</node>
	<node lat="59.69970833180329" lon="10.921569452967551" id="-27441">
		<tag k="name" v="Bakkane" />
		<tag k="natural" v="slope" />
		<tag k="place" v="locality" />
		<tag k="ssr:stedsnr" v="204490" />
	</node>
	<node lat="59.812611111032005" lon="10.913933337465403" id="-27442">
		<tag k="fixme" v="consider natural=peak for the most distinct mountains in the district" />
		<tag k="name" v="Barkeflåingen" />
		<tag k="natural" v="hill" />
		<tag k="place" v="locality" />
		<tag k="ssr:stedsnr" v="204322" />
	</node>
	<node lat="59.761144448196255" lon="10.886452782253627" id="-27444">
		<tag k="name" v="Grauthølet" />
		<tag k="natural" v="valley" />
		<tag k="place" v="locality" />
		<tag k="ssr:stedsnr" v="204431" />
	</node>
	<node lat="59.75862222198756" lon="10.863861109558368" id="-27463">
		<tag k="fixme" v="consider natural=peak for the most distinct mountains in the district" />
		<tag k="name" v="Jonsrudåsene" />
		<tag k="natural" v="hill" />
		<tag k="place" v="locality" />
		<tag k="ssr:stedsnr" v="264485" />
	</node>
	<node lat="59.73343333475114" lon="10.9722583296175" id="-27465">
		<tag k="fixme" v="consider natural=peak for the most distinct mountains in the district" />
		<tag k="name" v="Kollerøysåsen" />
		<tag k="natural" v="hill" />
		<tag k="place" v="locality" />
		<tag k="ssr:stedsnr" v="264424" />
	</node>
	<node lat="59.74159722622543" lon="10.840494440027356" id="-27466">
		<tag k="fixme" v="consider natural=peak for the most distinct mountains in the district" />
		<tag k="name" v="Bjerkås" />
		<tag k="natural" v="hill" />
		<tag k="place" v="locality" />
		<tag k="ssr:stedsnr" v="264434" />
	</node>
	<node lat="59.74127499754872" lon="10.934013891127606" id="-27468">
		<tag k="fixme" v="consider natural=peak for the most distinct mountains in the district" />
		<tag k="name" v="Stubberudåsen" />
		<tag k="natural" v="hill" />
		<tag k="place" v="locality" />
		<tag k="ssr:stedsnr" v="264443" />
	</node>
	<node lat="59.70797777930117" lon="10.976794436115338" id="-27470">
		<tag k="name" v="Sververdalen" />
		<tag k="natural" v="valley" />
		<tag k="place" v="locality" />
		<tag k="ssr:stedsnr" v="264539" />
	</node>
	<node lat="59.62654999987632" lon="10.891347219005004" id="-27471">
		<tag k="name" v="Enden" />
		<tag k="place" v="locality" />
		<tag k="ssr:stedsnr" v="264733" />
	</node>
	<node lat="59.70346944412316" lon="10.921644437652699" id="-27473">
		<tag k="fixme" v="consider natural=peak for the most distinct mountains in the district" />
		<tag k="name" v="Tømtåsen" />
		<tag k="natural" v="hill" />
		<tag k="place" v="locality" />
		<tag k="ssr:stedsnr" v="264591" />
	</node>
	<node lat="59.69255833571816" lon="10.956488893196806" id="-27474">
		<tag k="fixme" v="consider natural=peak for the most distinct mountains in the district" />
		<tag k="name" v="Hjellsåsen" />
		<tag k="natural" v="hill" />
		<tag k="place" v="locality" />
		<tag k="ssr:stedsnr" v="265593" />
	</node>
	<node lat="59.77268333560866" lon="10.889622220258106" id="-27502">
		<tag k="name" v="Delingsdalen" />
		<tag k="natural" v="valley" />
		<tag k="place" v="locality" />
		<tag k="ssr:stedsnr" v="325274" />
	</node>
	<node lat="59.7687277821263" lon="10.957197228383446" id="-27503">
		<tag k="name" v="Merradalen" />
		<tag k="natural" v="valley" />
		<tag k="place" v="locality" />
		<tag k="ssr:stedsnr" v="325356" />
	</node>
	<node lat="59.8101333334677" lon="10.954172229949922" id="-27504">
		<tag k="name" v="Styggdalen" />
		<tag k="natural" v="valley" />
		<tag k="place" v="locality" />
		<tag k="ssr:stedsnr" v="325366" />
	</node>
	<node lat="59.78658611192379" lon="10.851708337888377" id="-27527">
		<tag k="fixme" v="consider natural=peak for the most distinct mountains in the district" />
		<tag k="name" v="Buåsen" />
		<tag k="natural" v="hill" />
		<tag k="place" v="locality" />
		<tag k="ssr:stedsnr" v="368348" />
	</node>
	<node lat="59.784325001578104" lon="10.793177777633524" id="-27528">
		<tag k="fixme" v="consider natural=peak for the most distinct mountains in the district" />
		<tag k="name" v="Byåsen" />
		<tag k="natural" v="hill" />
		<tag k="place" v="locality" />
		<tag k="ssr:stedsnr" v="368352" />
	</node>
	<node lat="59.77136110869987" lon="10.762952780081582" id="-27530">
		<tag k="fixme" v="consider natural=peak for the most distinct mountains in the district" />
		<tag k="name" v="Furuåsen" />
		<tag k="natural" v="hill" />
		<tag k="place" v="locality" />
		<tag k="ssr:stedsnr" v="368456" />
	</node>
	<node lat="59.81106430359024" lon="10.782840342824178" id="-27533">
		<tag k="fixme" v="consider natural=peak for the most distinct mountains in the district" />
		<tag k="name" v="Mellomåsen" />
		<tag k="natural" v="hill" />
		<tag k="place" v="locality" />
		<tag k="ssr:stedsnr" v="369462" />
	</node>
	<node lat="59.785108334002935" lon="10.948924997449843" id="-27546">
		<tag k="fixme" v="consider natural=peak for the most distinct mountains in the district" />
		<tag k="name" v="Sponåsen" />
		<tag k="natural" v="hill" />
		<tag k="place" v="locality" />
		<tag k="ssr:stedsnr" v="386350" />
	</node>
	<node lat="59.78329166802034" lon="10.955680561392992" id="-27547">
		<tag k="name" v="Muskedalen" />
		<tag k="natural" v="valley" />
		<tag k="place" v="locality" />
		<tag k="ssr:stedsnr" v="386351" />
	</node>
	<node lat="59.80301111432497" lon="10.859680557404754" id="-27550">
		<tag k="name" v="Askedalen" />
		<tag k="natural" v="valley" />
		<tag k="place" v="locality" />
		<tag k="ssr:stedsnr" v="386294" />
	</node>
	<node lat="59.69564444403816" lon="10.947063887688472" id="-27553">
		<tag k="name" v="Grasdalen" />
		<tag k="natural" v="valley" />
		<tag k="place" v="locality" />
		<tag k="ssr:stedsnr" v="386562" />
	</node>
	<node lat="59.754122222237406" lon="10.932955558533369" id="-27555">
		<tag k="fixme" v="consider natural=peak for the most distinct mountains in the district" />
		<tag k="name" v="Buåsen" />
		<tag k="natural" v="hill" />
		<tag k="place" v="locality" />
		<tag k="ssr:stedsnr" v="386455" />
	</node>
	<node lat="59.766436108796036" lon="10.782152780779642" id="-27557">
		<tag k="fixme" v="consider natural=peak for the most distinct mountains in the district" />
		<tag k="name" v="Sjeisenåsen" />
		<tag k="natural" v="hill" />
		<tag k="place" v="locality" />
		<tag k="ssr:stedsnr" v="387723" />
	</node>
	<node lat="59.82026666473014" lon="10.794966674745867" id="-27559">
		<tag k="name" v="Likollen" />
		<tag k="natural" v="hill" />
		<tag k="place" v="locality" />
		<tag k="ssr:stedsnr" v="387698" />
	</node>
	<node lat="59.80937515930048" lon="10.91396286029702" id="-27584">
		<tag k="name" v="Syverudkollen" />
		<tag k="natural" v="hill" />
		<tag k="place" v="locality" />
		<tag k="ssr:stedsnr" v="430250" />
	</node>
	<node lat="59.760852780933696" lon="10.918847217207565" id="-27605">
		<tag k="fixme" v="consider natural=peak for the most distinct mountains in the district" />
		<tag k="name" v="Bonndalsåsen" />
		<tag k="natural" v="hill" />
		<tag k="place" v="locality" />
		<tag k="ssr:stedsnr" v="490387" />
	</node>
	<node lat="59.80373610754858" lon="10.879191666726516" id="-27606">
		<tag k="fixme" v="consider natural=peak for the most distinct mountains in the district" />
		<tag k="name" v="Galteryggen" />
		<tag k="natural" v="hill" />
		<tag k="place" v="locality" />
		<tag k="ssr:stedsnr" v="507281" />
	</node>
	<node lat="59.762436111323304" lon="10.846919450584213" id="-27608">
		<tag k="name" v="Skoglia" />
		<tag k="natural" v="slope" />
		<tag k="place" v="locality" />
		<tag k="ssr:stedsnr" v="507363" />
	</node>
	<node lat="59.75819166654005" lon="10.821619440938532" id="-27614">
		<tag k="fixme" v="consider natural=peak for the most distinct mountains in the district" />
		<tag k="name" v="Furusetåsen" />
		<tag k="natural" v="hill" />
		<tag k="place" v="locality" />
		<tag k="ssr:stedsnr" v="507395" />
	</node>
	<node lat="59.78043888492037" lon="10.889891674588114" id="-27616">
		<tag k="fixme" v="consider natural=peak for the most distinct mountains in the district" />
		<tag k="name" v="Mellomåsen" />
		<tag k="natural" v="hill" />
		<tag k="place" v="locality" />
		<tag k="ssr:stedsnr" v="507249" />
	</node>
	<node lat="59.765958330294325" lon="10.905230551034586" id="-27621">
		<tag k="fixme" v="consider natural=peak for the most distinct mountains in the district" />
		<tag k="name" v="Sterkerudåsen" />
		<tag k="natural" v="hill" />
		<tag k="place" v="locality" />
		<tag k="ssr:stedsnr" v="507442" />
	</node>
	<node lat="59.75691111521608" lon="10.858144435776875" id="-27623">
		<tag k="name" v="Sloratoppen" />
		<tag k="natural" v="hill" />
		<tag k="place" v="locality" />
		<tag k="ssr:stedsnr" v="507459" />
	</node>
	<node lat="59.74624512777808" lon="10.917524327972616" id="-27635">
		<tag k="fixme" v="consider natural=peak for the most distinct mountains in the district" />
		<tag k="name" v="Stunneråsen" />
		<tag k="natural" v="hill" />
		<tag k="place" v="locality" />
		<tag k="ssr:stedsnr" v="549476" />
	</node>
	<node lat="59.815647222188886" lon="10.801102776957668" id="-27639">
		<tag k="fixme" v="consider natural=peak for the most distinct mountains in the district" />
		<tag k="name" v="Rikeåsen" />
		<tag k="natural" v="hill" />
		<tag k="place" v="locality" />
		<tag k="ssr:stedsnr" v="550266" />
	</node>
	<node lat="59.7767666656937" lon="10.891677775014495" id="-27641">
		<tag k="alt_name" v="Størthølet" />
		<tag k="name" v="Størtholet" />
		<tag k="natural" v="valley" />
		<tag k="old_name" v="Styrteholet" />
		<tag k="place" v="locality" />
		<tag k="ssr:stedsnr" v="550300" />
	</node>
	<node lat="59.770172218203626" lon="10.873433336185888" id="-27643">
		<tag k="fixme" v="consider natural=peak for the most distinct mountains in the district" />
		<tag k="name" v="Lauvåsen" />
		<tag k="natural" v="hill" />
		<tag k="place" v="locality" />
		<tag k="ssr:stedsnr" v="550399" />
	</node>
	<node lat="59.731211112476515" lon="10.923513895439953" id="-27652">
		<tag k="name" v="Nordli" />
		<tag k="place" v="locality" />
		<tag k="ssr:stedsnr" v="567435" />
	</node>
	<node lat="59.74771389015684" lon="10.932436104136503" id="-27653">
		<tag k="name" v="Bogerkollen" />
		<tag k="natural" v="hill" />
		<tag k="place" v="locality" />
		<tag k="ssr:stedsnr" v="567437" />
	</node>
	<node lat="59.776561113449986" lon="10.775625008966793" id="-27669">
		<tag k="alt_name" v="Kullmileåsen" />
		<tag k="fixme" v="consider natural=peak for the most distinct mountains in the district" />
		<tag k="name" v="Kolmileåsen" />
		<tag k="natural" v="hill" />
		<tag k="place" v="locality" />
		<tag k="ssr:stedsnr" v="611320" />
	</node>
	<node lat="59.78011389305941" lon="10.823913892837812" id="-27670">
		<tag k="fixme" v="consider natural=peak for the most distinct mountains in the district" />
		<tag k="name" v="Gryteåsen" />
		<tag k="natural" v="hill" />
		<tag k="place" v="locality" />
		<tag k="ssr:stedsnr" v="611325" />
	</node>
	<node lat="59.790250003063754" lon="10.939638884682951" id="-27674">
		<tag k="fixme" v="consider natural=peak for the most distinct mountains in the district" />
		<tag k="name" v="Greverudåsen" />
		<tag k="natural" v="hill" />
		<tag k="place" v="locality" />
		<tag k="ssr:stedsnr" v="611340" />
	</node>
	<node lat="59.798997224041855" lon="10.975597229775696" id="-27680">
		<tag k="fixme" v="consider natural=peak for the most distinct mountains in the district" />
		<tag k="name" v="Tømtåsen" />
		<tag k="natural" v="hill" />
		<tag k="place" v="locality" />
		<tag k="ssr:stedsnr" v="628343" />
	</node>
	<node lat="59.76470549948928" lon="10.88209060895144" id="-27683">
		<tag k="fixme" v="consider natural=peak for the most distinct mountains in the district" />
		<tag k="name" v="Nylendeåsen" />
		<tag k="natural" v="hill" />
		<tag k="place" v="locality" />
		<tag k="ssr:stedsnr" v="628484" />
	</node>
	<node lat="59.76803055907301" lon="10.852083327015457" id="-27688">
		<tag k="name" v="Damplassen" />
		<tag k="place" v="locality" />
		<tag k="ssr:stedsnr" v="628261" />
	</node>
	<node lat="59.828988885521156" lon="10.934050006677767" id="-27692">
		<tag k="fixme" v="consider natural=peak for the most distinct mountains in the district" />
		<tag k="name" v="Nygårdskollen" />
		<tag k="natural" v="hill" />
		<tag k="place" v="locality" />
		<tag k="ssr:stedsnr" v="628364" />
	</node>
	<node lat="59.72676111158998" lon="10.927844437882655" id="-27695">
		<tag k="fixme" v="consider natural=peak for the most distinct mountains in the district" />
		<tag k="name" v="Bekkevaråsen" />
		<tag k="natural" v="hill" />
		<tag k="place" v="locality" />
		<tag k="ssr:stedsnr" v="628436" />
	</node>
	<node lat="59.81389999974219" lon="10.752899996000505" id="-27719">
		<tag k="name" v="Delingsdalen" />
		<tag k="natural" v="valley" />
		<tag k="place" v="locality" />
		<tag k="ssr:stedsnr" v="733268" />
	</node>
	<node lat="59.77610000262945" lon="10.923158332276207" id="-27722">
		<tag k="fixme" v="consider natural=peak for the most distinct mountains in the district" />
		<tag k="name" v="Brånaåsen" />
		<tag k="natural" v="hill" />
		<tag k="place" v="locality" />
		<tag k="ssr:stedsnr" v="750232" />
	</node>
	<node lat="59.77421667005655" lon="10.884130557076842" id="-27723">
		<tag k="name" v="Djupdalen" />
		<tag k="natural" v="valley" />
		<tag k="place" v="locality" />
		<tag k="ssr:stedsnr" v="750236" />
	</node>
	<node lat="59.805241671009234" lon="10.94338055575067" id="-27726">
		<tag k="name" v="Nordre Paddetjerndalen" />
		<tag k="natural" v="valley" />
		<tag k="place" v="locality" />
		<tag k="ssr:stedsnr" v="750249" />
	</node>
	<node lat="59.81437777577335" lon="10.938322215911402" id="-27729">
		<tag k="fixme" v="consider natural=peak for the most distinct mountains in the district" />
		<tag k="name" v="Hanseåsen" />
		<tag k="natural" v="hill" />
		<tag k="place" v="locality" />
		<tag k="ssr:stedsnr" v="750332" />
	</node>
	<node lat="59.76528889097745" lon="10.919766667492437" id="-27735">
		<tag k="name" v="Sandvollia" />
		<tag k="natural" v="slope" />
		<tag k="place" v="locality" />
		<tag k="ssr:stedsnr" v="750453" />
	</node>
	<node lat="59.680363887642066" lon="10.949394446552263" id="-27736">
		<tag k="fixme" v="consider natural=peak for the most distinct mountains in the district" />
		<tag k="name" v="Brennekleivåsen" />
		<tag k="natural" v="hill" />
		<tag k="place" v="locality" />
		<tag k="ssr:stedsnr" v="750548" />
	</node>
	<node lat="59.70934166865608" lon="10.93146667398571" id="-27737">
		<tag k="fixme" v="consider natural=peak for the most distinct mountains in the district" />
		<tag k="name" v="Asgjerrudåsen" />
		<tag k="natural" v="hill" />
		<tag k="place" v="locality" />
		<tag k="ssr:stedsnr" v="750606" />
	</node>
	<node lat="59.707852778446615" lon="10.937108334305654" id="-27738">
		<tag k="name" v="Svenskesletta" />
		<tag k="place" v="locality" />
		<tag k="ssr:stedsnr" v="750609" />
	</node>
	<node lat="59.788713891662496" lon="10.747055558219238" id="-27741">
		<tag k="name" v="Oredalen" />
		<tag k="natural" v="valley" />
		<tag k="place" v="locality" />
		<tag k="ssr:stedsnr" v="751746" />
	</node>
	<node lat="59.80721111298202" lon="10.77566944436547" id="-27742">
		<tag k="fixme" v="consider natural=peak for the most distinct mountains in the district" />
		<tag k="name" v="Gjersjøbruåsen" />
		<tag k="natural" v="hill" />
		<tag k="place" v="locality" />
		<tag k="ssr:stedsnr" v="751754" />
	</node>
	<node lat="59.668877774871696" lon="10.94828611804874" id="-27773">
		<tag k="fixme" v="consider natural=peak for the most distinct mountains in the district" />
		<tag k="name" v="Kirkeåsen" />
		<tag k="natural" v="hill" />
		<tag k="place" v="locality" />
		<tag k="ssr:stedsnr" v="810553" />
	</node>
	<node lat="59.74231111159662" lon="10.836905561179433" id="-27779">
		<tag k="fixme" v="consider natural=peak for the most distinct mountains in the district" />
		<tag k="name" v="Norås" />
		<tag k="natural" v="hill" />
		<tag k="place" v="locality" />
		<tag k="ssr:stedsnr" v="811424" />
	</node>
	<node lat="59.79978611545261" lon="10.977011104691178" id="-27782">
		<tag k="name" v="Langfurudalen" />
		<tag k="natural" v="valley" />
		<tag k="place" v="locality" />
		<tag k="ssr:stedsnr" v="811341" />
	</node>
	<node lat="59.757044449037735" lon="10.861258324975623" id="-27789">
		<tag k="name" v="Slorabakken" />
		<tag k="natural" v="slope" />
		<tag k="place" v="locality" />
		<tag k="ssr:stedsnr" v="811468" />
	</node>
	<node lat="59.71360833362673" lon="10.963261103591652" id="-27801">
		<tag k="fixme" v="consider natural=peak for the most distinct mountains in the district" />
		<tag k="name" v="Høgesset" />
		<tag k="natural" v="hill" />
		<tag k="place" v="locality" />
		<tag k="ssr:stedsnr" v="853544" />
	</node>
	<node lat="59.769605559966394" lon="10.951461116859914" id="-27805">
		<tag k="fixme" v="consider natural=peak for the most distinct mountains in the district" />
		<tag k="name" v="Klemmaåsen" />
		<tag k="natural" v="hill" />
		<tag k="place" v="locality" />
		<tag k="ssr:stedsnr" v="854393" />
	</node>
	<node lat="59.770488888765335" lon="10.966872219543312" id="-27813">
		<tag k="alt_name" v="Grubeåsen" />
		<tag k="fixme" v="consider natural=peak for the most distinct mountains in the district" />
		<tag k="name" v="Sotåsen" />
		<tag k="natural" v="hill" />
		<tag k="place" v="locality" />
		<tag k="ssr:stedsnr" v="855523" />
	</node>
	<node lat="59.77338888791279" lon="10.89165556300121" id="-27823">
		<tag k="fixme" v="consider natural=peak for the most distinct mountains in the district" />
		<tag k="name" v="Bruåsen" />
		<tag k="natural" v="hill" />
		<tag k="place" v="locality" />
		<tag k="ssr:stedsnr" v="871246" />
	</node>
	<node lat="59.81559166866713" lon="10.90052777505417" id="-27824">
		<tag k="fixme" v="consider natural=peak for the most distinct mountains in the district" />
		<tag k="name" v="Kalvåsen" />
		<tag k="natural" v="hill" />
		<tag k="place" v="locality" />
		<tag k="ssr:stedsnr" v="871340" />
	</node>
	<node lat="59.796797224657716" lon="10.86236389322084" id="-27826">
		<tag k="fixme" v="consider natural=peak for the most distinct mountains in the district" />
		<tag k="name" v="Paddetjernkollen" />
		<tag k="natural" v="hill" />
		<tag k="place" v="locality" />
		<tag k="ssr:stedsnr" v="871279" />
	</node>
	<node lat="59.77015832953938" lon="10.884911111221337" id="-27832">
		<tag k="fixme" v="consider natural=peak for the most distinct mountains in the district" />
		<tag k="name" v="Brandsrudåsen" />
		<tag k="natural" v="hill" />
		<tag k="place" v="locality" />
		<tag k="ssr:stedsnr" v="932259" />
	</node>
	<node lat="59.792497219049096" lon="10.885588884958537" id="-27834">
		<tag k="fixme" v="consider natural=peak for the most distinct mountains in the district" />
		<tag k="name" v="Kirkekollen" />
		<tag k="natural" v="hill" />
		<tag k="place" v="locality" />
		<tag k="ssr:stedsnr" v="932287" />
	</node>
	<node lat="59.76402499916374" lon="10.739272221607845" id="-27840">
		<tag k="fixme" v="consider natural=peak for the most distinct mountains in the district" />
		<tag k="name" v="Sjødalåsen" />
		<tag k="natural" v="hill" />
		<tag k="place" v="locality" />
		<tag k="ssr:stedsnr" v="934679" />
	</node>
</osm>
