<?xml version="1.0" encoding="UTF-8"?>
<<<<<<< HEAD
<osm version="0.6" generator="osmapis">
	<node lat="59.80298888830482" lon="10.967627775854773" id="-17655">
		<tag k="name" v="Store Fjellfugleleiken" />
		<tag k="place" v="locality" />
		<tag k="ssr:stedsnr" v="22346" />
	</node>
	<node lat="59.63413610786687" lon="10.915791661277673" id="-17663">
		<tag k="name" v="Ambjørnrudmåsan" />
		<tag k="natural" v="wetland" />
		<tag k="ssr:stedsnr" v="22719" />
	</node>
	<node lat="59.67175277760357" lon="10.868538896236695" id="-17669">
		<tag k="name" v="Bjastadskogen" />
		<tag k="place" v="locality" />
		<tag k="ssr:stedsnr" v="82504" />
	</node>
	<node lat="59.67775833385694" lon="10.868280555258028" id="-17673">
		<tag k="name" v="Gunnarsrud" />
		<tag k="place" v="locality" />
		<tag k="ssr:stedsnr" v="82734" />
	</node>
	<node lat="59.718961110657055" lon="10.916369443447438" id="-17680">
		<tag k="landuse" v="meadow" />
		<tag k="name" v="Grøstadhagen" />
		<tag k="ssr:stedsnr" v="83606" />
	</node>
	<node lat="59.73080555587885" lon="10.812050007124336" id="-17683">
		<tag k="name" v="Hebekkmåsan" />
		<tag k="natural" v="wetland" />
		<tag k="ssr:stedsnr" v="83590" />
	</node>
	<node lat="59.784958330807264" lon="10.936300001267615" id="-17713">
		<tag k="name" v="Fugleleiken" />
		<tag k="natural" v="wetland" />
		<tag k="ssr:stedsnr" v="143225" />
	</node>
	<node lat="59.815386114825145" lon="10.962069449111178" id="-17714">
		<tag k="name" v="Vesle Skjelbreimyra" />
		<tag k="natural" v="wetland" />
		<tag k="ssr:stedsnr" v="143311" />
	</node>
	<node lat="59.640077774304466" lon="10.898594442048445" id="-17722">
=======
<osm generator="osmapis" version="0.6">
	<node id="-245247" lat="59.779413888" lon="10.9615333404">
		<tag k="alt_name" v="Slåmyr" />
		<tag k="name" v="Slåmyra" />
		<tag k="natural" v="wetland" />
		<tag k="ssr:stedsnr" v="186474" />
	</node>
	<node id="-245217" lat="59.6400777743" lon="10.898594442">
>>>>>>> e1d4bc35ff8a6074a6f2e91616a996b547c36f15
		<tag k="name" v="Bjerkemåsan" />
		<tag k="natural" v="wetland" />
		<tag k="ssr:stedsnr" v="143512" />
	</node>
<<<<<<< HEAD
	<node lat="59.786716663658865" lon="10.864119444651452" id="-17741">
		<tag k="name" v="Korsmyr" />
=======
	<node id="-244697" lat="59.7360305556" lon="10.9760833273">
		<tag k="name" v="Flaket" />
		<tag k="place" v="locality" />
		<tag k="ssr:stedsnr" v="447395" />
	</node>
	<node id="-245207" lat="59.8153861148" lon="10.9620694491">
		<tag k="name" v="Vesle Skjelbreimyra" />
		<tag k="natural" v="wetland" />
		<tag k="ssr:stedsnr" v="143311" />
	</node>
	<node id="-245206" lat="59.7898194425" lon="10.8733222136">
		<tag k="name" v="Stormyr" />
>>>>>>> e1d4bc35ff8a6074a6f2e91616a996b547c36f15
		<tag k="natural" v="wetland" />
		<tag k="ssr:stedsnr" v="264275" />
	</node>
<<<<<<< HEAD
	<node lat="59.80290277585411" lon="10.878138884770507" id="-17745">
		<tag k="alt_name" v="Sagamyr midtre" />
		<tag k="name" v="Midtre Sagamyr" />
		<tag k="natural" v="wetland" />
		<tag k="ssr:stedsnr" v="264297" />
	</node>
	<node lat="59.82500832968646" lon="10.924627785901396" id="-17750">
		<tag k="name" v="Tømtmyra" />
=======
	<node id="-245205" lat="59.7942472241" lon="10.8798611175">
		<tag k="name" v="Nordgardsmyra" />
		<tag k="natural" v="wetland" />
		<tag k="ssr:stedsnr" v="143265" />
	</node>
	<node id="-244690" lat="59.6782305536" lon="10.8722944516">
		<tag k="name" v="Smedsrud" />
		<tag k="place" v="locality" />
		<tag k="ssr:stedsnr" v="446760" />
	</node>
	<node id="-245200" lat="59.7849583308" lon="10.9363000013">
		<tag k="name" v="Fugleleiken" />
>>>>>>> e1d4bc35ff8a6074a6f2e91616a996b547c36f15
		<tag k="natural" v="wetland" />
		<tag k="ssr:stedsnr" v="264365" />
	</node>
<<<<<<< HEAD
	<node lat="59.819725001678904" lon="10.950247217713025" id="-17765">
=======
	<node id="-244685" lat="59.8197250017" lon="10.9502472177">
>>>>>>> e1d4bc35ff8a6074a6f2e91616a996b547c36f15
		<tag k="name" v="Skjelbreimyra" />
		<tag k="natural" v="wetland" />
		<tag k="ssr:stedsnr" v="204305" />
	</node>
<<<<<<< HEAD
	<node lat="59.73282222270436" lon="10.872147221009946" id="-17766">
		<tag k="name" v="Åråsmåsan" />
=======
	<node id="-245179" lat="59.7996750016" lon="10.8744555526">
		<tag k="name" v="Sauemåsan" />
>>>>>>> e1d4bc35ff8a6074a6f2e91616a996b547c36f15
		<tag k="natural" v="wetland" />
		<tag k="ssr:stedsnr" v="204396" />
	</node>
<<<<<<< HEAD
	<node lat="59.75437500157497" lon="10.847300006522664" id="-17772">
		<tag k="name" v="Arnestadjordet" />
		<tag k="place" v="locality" />
		<tag k="ssr:stedsnr" v="204421" />
	</node>
	<node lat="59.785772217736955" lon="10.810200006967213" id="-17777">
		<tag k="name" v="Ødegård skog" />
		<tag k="place" v="locality" />
		<tag k="ssr:stedsnr" v="205710" />
	</node>
	<node lat="59.768791669632" lon="10.894069437681448" id="-17816">
		<tag k="name" v="Breimåsan" />
=======
	<node id="-244653" lat="59.8250083297" lon="10.9246277859">
		<tag k="name" v="Tømtmyra" />
		<tag k="natural" v="wetland" />
		<tag k="ssr:stedsnr" v="264365" />
	</node>
	<node id="-244650" lat="59.8029027759" lon="10.8781388848">
		<tag k="alt_name" v="Sagamyr midtre" />
		<tag k="name" v="Midtre Sagamyr" />
		<tag k="natural" v="wetland" />
		<tag k="ssr:stedsnr" v="264297" />
	</node>
	<node id="-245160" lat="59.7308055559" lon="10.8120500071">
		<tag k="name" v="Hebekkmåsan" />
>>>>>>> e1d4bc35ff8a6074a6f2e91616a996b547c36f15
		<tag k="natural" v="wetland" />
		<tag k="ssr:stedsnr" v="325283" />
	</node>
<<<<<<< HEAD
	<node lat="59.77265278053195" lon="10.87134166958559" id="-17817">
		<tag k="name" v="Nordre Lauvåsmyra" />
		<tag k="natural" v="wetland" />
		<tag k="ssr:stedsnr" v="325289" />
	</node>
	<node lat="59.75020555205213" lon="10.965233340994311" id="-17819">
		<tag k="name" v="Bekkenstein" />
		<tag k="place" v="locality" />
		<tag k="ssr:stedsnr" v="325320" />
	</node>
	<node lat="59.72978333337116" lon="10.94681110547481" id="-17852">
		<tag k="name" v="Høymyr" />
=======
	<node id="-244646" lat="59.7867166637" lon="10.8641194447">
		<tag k="name" v="Korsmyr" />
		<tag k="natural" v="wetland" />
		<tag k="ssr:stedsnr" v="264275" />
	</node>
	<node id="-245153" lat="59.6777583339" lon="10.8682805553">
		<tag k="name" v="Gunnarsrud" />
		<tag k="place" v="locality" />
		<tag k="ssr:stedsnr" v="82734" />
	</node>
	<node id="-244639" lat="59.7189611107" lon="10.9163694434">
		<tag k="landuse" v="meadow" />
		<tag k="name" v="Grøstadhagen" />
		<tag k="ssr:stedsnr" v="83606" />
	</node>
	<node id="-244635" lat="59.6717527776" lon="10.8685388962">
		<tag k="name" v="Bjastadskogen" />
		<tag k="place" v="locality" />
		<tag k="ssr:stedsnr" v="82504" />
	</node>
	<node id="-244633" lat="59.814241665" lon="10.896761111">
		<tag k="name" v="Hestemyra" />
		<tag k="natural" v="wetland" />
		<tag k="ssr:stedsnr" v="82353" />
	</node>
	<node id="-245654" lat="59.7667249968" lon="10.872241667">
		<tag k="name" v="Store Lauvåsmyra" />
>>>>>>> e1d4bc35ff8a6074a6f2e91616a996b547c36f15
		<tag k="natural" v="wetland" />
		<tag k="ssr:stedsnr" v="386610" />
	</node>
<<<<<<< HEAD
	<node lat="59.715511109138085" lon="10.930511117525551" id="-17854">
		<tag k="name" v="Kattemyr" />
=======
	<node id="-245651" lat="59.7552250023" lon="10.8898750066">
		<tag k="name" v="Mjølmåsan" />
>>>>>>> e1d4bc35ff8a6074a6f2e91616a996b547c36f15
		<tag k="natural" v="wetland" />
		<tag k="ssr:stedsnr" v="386616" />
	</node>
<<<<<<< HEAD
	<node lat="59.736030555556205" lon="10.976083327289668" id="-17901">
		<tag k="name" v="Flaket" />
=======
	<node id="-245136" lat="59.7947777794" lon="10.8556583271">
		<tag k="name" v="Gudebildet" />
>>>>>>> e1d4bc35ff8a6074a6f2e91616a996b547c36f15
		<tag k="place" v="locality" />
		<tag k="ssr:stedsnr" v="447395" />
	</node>
<<<<<<< HEAD
	<node lat="59.71775278146818" lon="10.89343888500207" id="-17903">
		<tag k="name" v="Skisengmåsan" />
=======
	<node id="-245647" lat="59.74391944" lon="10.8935000065">
		<tag k="name" v="Eikjolmåsan" />
>>>>>>> e1d4bc35ff8a6074a6f2e91616a996b547c36f15
		<tag k="natural" v="wetland" />
		<tag k="ssr:stedsnr" v="447604" />
	</node>
<<<<<<< HEAD
	<node lat="59.80940833375602" lon="10.921483341612573" id="-17936">
		<tag k="name" v="Lusetjernmyra" />
=======
	<node id="-245645" lat="59.8089888871" lon="10.832933325">
		<tag k="name" v="Grønlimyra" />
>>>>>>> e1d4bc35ff8a6074a6f2e91616a996b547c36f15
		<tag k="natural" v="wetland" />
		<tag k="ssr:stedsnr" v="507267" />
	</node>
<<<<<<< HEAD
	<node lat="59.67448889103565" lon="10.885480552248849" id="-17941">
		<tag k="name" v="Hanselund" />
		<tag k="place" v="locality" />
		<tag k="ssr:stedsnr" v="507482" />
	</node>
	<node lat="59.775394440957754" lon="10.974388880934285" id="-17958">
		<tag k="name" v="Skrivermyra" />
		<tag k="natural" v="wetland" />
		<tag k="ssr:stedsnr" v="689346" />
	</node>
	<node lat="59.660341668169174" lon="10.846669450028127" id="-17961">
		<tag k="name" v="Vålskogen" />
		<tag k="place" v="locality" />
		<tag k="ssr:stedsnr" v="689472" />
	</node>
	<node lat="59.770102774885096" lon="10.879394444596096" id="-17962">
		<tag k="name" v="Holmenmyra" />
=======
	<node id="-244595" lat="59.6341361079" lon="10.9157916613">
		<tag k="name" v="Ambjørnrudmåsan" />
>>>>>>> e1d4bc35ff8a6074a6f2e91616a996b547c36f15
		<tag k="natural" v="wetland" />
		<tag k="ssr:stedsnr" v="567270" />
	</node>
<<<<<<< HEAD
	<node lat="59.699655552200866" lon="10.942436114064396" id="-17972">
		<tag k="name" v="Høleløkka" />
=======
	<node id="-245618" lat="59.6272888894" lon="10.8819027715">
		<tag k="name" v="Grønstvetskogen" />
>>>>>>> e1d4bc35ff8a6074a6f2e91616a996b547c36f15
		<tag k="place" v="locality" />
		<tag k="ssr:stedsnr" v="567523" />
	</node>
<<<<<<< HEAD
	<node lat="59.822425001920564" lon="10.921397215464289" id="-17988">
		<tag k="name" v="Fugleleiken" />
=======
	<node id="-244589" lat="59.8166694427" lon="10.9470361156">
		<tag k="name" v="Krokholmåsan" />
>>>>>>> e1d4bc35ff8a6074a6f2e91616a996b547c36f15
		<tag k="natural" v="wetland" />
		<tag k="ssr:stedsnr" v="611283" />
	</node>
<<<<<<< HEAD
	<node lat="59.769883336539536" lon="10.865277785936774" id="-18004">
		<tag k="name" v="Marimyr" />
=======
	<node id="-245100" lat="59.7050583305" lon="10.9539111195">
		<tag k="name" v="Langetjernmåsan" />
>>>>>>> e1d4bc35ff8a6074a6f2e91616a996b547c36f15
		<tag k="natural" v="wetland" />
		<tag k="ssr:stedsnr" v="628259" />
	</node>
<<<<<<< HEAD
	<node lat="59.7391833351137" lon="10.883055550092203" id="-18006">
		<tag k="name" v="Midsjøskogen" />
		<tag k="place" v="locality" />
		<tag k="ssr:stedsnr" v="628445" />
	</node>
	<node lat="59.82583055516248" lon="10.938166673730006" id="-18010">
		<tag k="name" v="Benkemyrene" />
=======
	<node id="-245099" lat="59.7049194451" lon="10.966505561">
		<tag k="name" v="Starrmyra" />
		<tag k="natural" v="wetland" />
		<tag k="ssr:stedsnr" v="22552" />
	</node>
	<node id="-245479" lat="59.8059527736" lon="10.8307583319">
		<tag k="name" v="Snipeholen" />
		<tag k="place" v="locality" />
		<tag k="ssr:stedsnr" v="569678" />
	</node>
	<node id="-245095" lat="59.7971083357" lon="10.8571444394">
		<tag k="name" v="Mastemyr" />
>>>>>>> e1d4bc35ff8a6074a6f2e91616a996b547c36f15
		<tag k="natural" v="wetland" />
		<tag k="ssr:stedsnr" v="628351" />
	</node>
<<<<<<< HEAD
	<node lat="59.794599997729925" lon="10.960441663066456" id="-18011">
		<tag k="name" v="Elgmåsan" />
=======
	<node id="-245606" lat="59.7969833326" lon="10.948630563">
		<tag k="name" v="Fjellslåmyra" />
>>>>>>> e1d4bc35ff8a6074a6f2e91616a996b547c36f15
		<tag k="natural" v="wetland" />
		<tag k="ssr:stedsnr" v="628357" />
	</node>
<<<<<<< HEAD
	<node lat="59.71835833749552" lon="10.934438887035876" id="-18016">
		<tag k="name" v="Breimåsan" />
=======
	<node id="-245603" lat="59.7853944412" lon="10.8483749989">
		<tag k="name" v="Rundmyr" />
>>>>>>> e1d4bc35ff8a6074a6f2e91616a996b547c36f15
		<tag k="natural" v="wetland" />
		<tag k="ssr:stedsnr" v="628593" />
	</node>
<<<<<<< HEAD
	<node lat="59.71002777344512" lon="10.903827779615304" id="-18017">
		<tag k="name" v="Myrerhagan" />
		<tag k="place" v="locality" />
		<tag k="ssr:stedsnr" v="628601" />
	</node>
	<node lat="59.63699999962715" lon="10.874911114972331" id="-18018">
		<tag k="name" v="Jaerskogen" />
		<tag k="place" v="locality" />
		<tag k="ssr:stedsnr" v="628713" />
	</node>
	<node lat="59.79877500316507" lon="10.83666388811613" id="-18022">
		<tag k="name" v="Fløysbonnmyra" />
		<tag k="natural" v="wetland" />
		<tag k="ssr:stedsnr" v="630624" />
	</node>
	<node lat="59.681913888225516" lon="10.910988887126667" id="-18050">
		<tag k="name" v="Sandaker" />
=======
	<node id="-245601" lat="59.6775583293" lon="10.8534777855">
		<tag k="name" v="Prestegårdskogen" />
		<tag k="place" v="locality" />
		<tag k="ssr:stedsnr" v="810760" />
	</node>
	<node id="-245082" lat="59.8034388899" lon="10.896408333">
		<tag k="alt_name" v="Nedre Starrmyr" />
		<tag k="name" v="Stormyra" />
		<tag k="natural" v="wetland" />
		<tag k="ssr:stedsnr" v="5255" />
	</node>
	<node id="-245070" lat="59.7803916664" lon="10.859000005">
		<tag k="name" v="Sørmarka" />
>>>>>>> e1d4bc35ff8a6074a6f2e91616a996b547c36f15
		<tag k="place" v="locality" />
		<tag k="ssr:stedsnr" v="689493" />
	</node>
	<node lat="59.81215555870601" lon="10.952208337981462" id="-18074">
		<tag k="name" v="Tømmeråsmåsan" />
		<tag k="natural" v="wetland" />
		<tag k="ssr:stedsnr" v="750312" />
	</node>
<<<<<<< HEAD
	<node lat="59.79972536941612" lon="10.966137007128237" id="-18114">
=======
	<node id="-245050" lat="59.7997253694" lon="10.9661370071">
>>>>>>> e1d4bc35ff8a6074a6f2e91616a996b547c36f15
		<tag k="name" v="Fjellfugleleiken" />
		<tag k="natural" v="wetland" />
		<tag k="ssr:stedsnr" v="915353" />
	</node>
<<<<<<< HEAD
	<node lat="59.7313888921738" lon="10.957133340062423" id="-18120">
		<tag k="historic" v="shieling" />
		<tag k="name" v="Sagstua" />
		<tag k="place" v="locality" />
		<tag k="ssr:stedsnr" v="811412" />
	</node>
	<node lat="59.796983332551065" lon="10.948630563013419" id="-18127">
		<tag k="name" v="Fjellslåmyra" />
		<tag k="natural" v="wetland" />
		<tag k="ssr:stedsnr" v="811354" />
	</node>
	<node lat="59.62728888938403" lon="10.881902771481519" id="-18129">
		<tag k="name" v="Grønstvetskogen" />
		<tag k="place" v="locality" />
		<tag k="ssr:stedsnr" v="811713" />
	</node>
	<node lat="59.71083333185187" lon="10.96724166202892" id="-18153">
=======
	<node id="-245035" lat="59.7108333319" lon="10.967241662">
>>>>>>> e1d4bc35ff8a6074a6f2e91616a996b547c36f15
		<tag k="name" v="Jensebu" />
		<tag k="place" v="locality" />
		<tag k="ssr:stedsnr" v="871526" />
	</node>
<<<<<<< HEAD
	<node lat="59.76672499682858" lon="10.872241666984133" id="-18156">
		<tag k="name" v="Store Lauvåsmyra" />
=======
	<node id="-245545" lat="59.8214777808" lon="10.9319166604">
		<tag k="name" v="Starrmåsan" />
>>>>>>> e1d4bc35ff8a6074a6f2e91616a996b547c36f15
		<tag k="natural" v="wetland" />
		<tag k="ssr:stedsnr" v="871464" />
	</node>
<<<<<<< HEAD
	<node lat="59.72791388527946" lon="10.878558330013698" id="-18162">
		<tag k="name" v="Herustimåsan" />
=======
	<node id="-245542" lat="59.8121555587" lon="10.952208338">
		<tag k="name" v="Tømmeråsmåsan" />
>>>>>>> e1d4bc35ff8a6074a6f2e91616a996b547c36f15
		<tag k="natural" v="wetland" />
		<tag k="ssr:stedsnr" v="932440" />
	</node>
<<<<<<< HEAD
	<node lat="59.787719442289486" lon="10.894699991982677" id="-18165">
		<tag k="landuse" v="meadow" />
		<tag k="name" v="Tangenhagen" />
		<tag k="ssr:stedsnr" v="932262" />
	</node>
	<node lat="59.772441668338054" lon="10.963863882512326" id="-18170">
		<tag k="name" v="Grubemåsan" />
=======
	<node id="-245028" lat="59.7420555556" lon="10.8908944442">
		<tag k="name" v="Lunnermåsan" />
		<tag k="natural" v="wetland" />
		<tag k="ssr:stedsnr" v="871417" />
	</node>
	<node id="-245539" lat="59.7769861148" lon="10.8872388833">
		<tag k="name" v="Bjønnemyra" />
>>>>>>> e1d4bc35ff8a6074a6f2e91616a996b547c36f15
		<tag k="natural" v="wetland" />
		<tag k="ssr:stedsnr" v="932335" />
	</node>
<<<<<<< HEAD
	<node lat="59.74790000046069" lon="10.909741674323882" id="-18175">
		<tag k="name" v="Stokstadmyra" />
=======
	<node id="-245538" lat="59.7736444419" lon="10.8587277806">
		<tag k="name" v="Øvre Fugleåsmyr" />
>>>>>>> e1d4bc35ff8a6074a6f2e91616a996b547c36f15
		<tag k="natural" v="wetland" />
		<tag k="ssr:stedsnr" v="932459" />
	</node>
<<<<<<< HEAD
	<node lat="59.75746944177868" lon="10.858841668499913" id="-18176">
		<tag k="name" v="Jonsrudmyra" />
=======
	<node id="-245533" lat="59.7987750032" lon="10.8366638881">
		<tag k="name" v="Fløysbonnmyra" />
>>>>>>> e1d4bc35ff8a6074a6f2e91616a996b547c36f15
		<tag k="natural" v="wetland" />
		<tag k="ssr:stedsnr" v="932467" />
	</node>
<<<<<<< HEAD
	<node lat="59.70717221806798" lon="10.969763888140669" id="-18183">
		<tag k="name" v="Orremåsan" />
		<tag k="natural" v="wetland" />
		<tag k="ssr:stedsnr" v="914384" />
	</node>
	<node lat="59.78039166637448" lon="10.859000004955067" id="-18203">
		<tag k="name" v="Sørmarka" />
=======
	<node id="-245524" lat="59.6721555593" lon="10.9249722154">
		<tag k="name" v="Langli" />
		<tag k="place" v="locality" />
		<tag k="ssr:stedsnr" v="628488" />
	</node>
	<node id="-245521" lat="59.7100277734" lon="10.9038277796">
		<tag k="name" v="Myrerhagan" />
>>>>>>> e1d4bc35ff8a6074a6f2e91616a996b547c36f15
		<tag k="place" v="locality" />
		<tag k="ssr:stedsnr" v="4327" />
	</node>
<<<<<<< HEAD
	<node lat="59.80343888989203" lon="10.896408332965084" id="-18213">
		<tag k="alt_name" v="Nedre Starrmyr" />
		<tag k="name" v="Stormyra" />
=======
	<node id="-245008" lat="59.7574694418" lon="10.8588416685">
		<tag k="name" v="Jonsrudmyra" />
>>>>>>> e1d4bc35ff8a6074a6f2e91616a996b547c36f15
		<tag k="natural" v="wetland" />
		<tag k="ssr:stedsnr" v="5255" />
	</node>
<<<<<<< HEAD
	<node lat="59.81666944273534" lon="10.94703611558591" id="-18219">
		<tag k="name" v="Krokholmåsan" />
		<tag k="natural" v="wetland" />
		<tag k="ssr:stedsnr" v="22320" />
	</node>
	<node lat="59.7971083356577" lon="10.857144439370627" id="-18224">
		<tag k="name" v="Mastemyr" />
=======
	<node id="-245519" lat="59.7391833351" lon="10.8830555501">
		<tag k="name" v="Midsjøskogen" />
		<tag k="place" v="locality" />
		<tag k="ssr:stedsnr" v="628445" />
	</node>
	<node id="-245518" lat="59.7487111151" lon="10.9313027795">
		<tag k="name" v="Bogermyra" />
>>>>>>> e1d4bc35ff8a6074a6f2e91616a996b547c36f15
		<tag k="natural" v="wetland" />
		<tag k="ssr:stedsnr" v="22282" />
	</node>
<<<<<<< HEAD
	<node lat="59.704919445144846" lon="10.966505560990694" id="-18232">
		<tag k="name" v="Starrmyra" />
=======
	<node id="-245004" lat="59.7279138853" lon="10.87855833">
		<tag k="name" v="Herustimåsan" />
>>>>>>> e1d4bc35ff8a6074a6f2e91616a996b547c36f15
		<tag k="natural" v="wetland" />
		<tag k="ssr:stedsnr" v="22552" />
	</node>
<<<<<<< HEAD
	<node lat="59.705058330527045" lon="10.953911119508561" id="-18233">
		<tag k="name" v="Langetjernmåsan" />
=======
	<node id="-245515" lat="59.8258305552" lon="10.9381666737">
		<tag k="name" v="Benkemyrene" />
>>>>>>> e1d4bc35ff8a6074a6f2e91616a996b547c36f15
		<tag k="natural" v="wetland" />
		<tag k="ssr:stedsnr" v="22554" />
	</node>
<<<<<<< HEAD
	<node lat="59.79477777942309" lon="10.855658327126859" id="-18270">
		<tag k="name" v="Gudebildet" />
=======
	<node id="-244695" lat="59.7615333325" lon="10.8450222275">
		<tag k="name" v="Haugjordet" />
		<tag k="place" v="locality" />
		<tag k="ssr:stedsnr" v="447356" />
	</node>
	<node id="-244999" lat="59.7642166673" lon="10.8516944369">
		<tag k="name" v="Bregnefaret" />
>>>>>>> e1d4bc35ff8a6074a6f2e91616a996b547c36f15
		<tag k="place" v="locality" />
		<tag k="ssr:stedsnr" v="82285" />
	</node>
<<<<<<< HEAD
	<node lat="59.81424166499513" lon="10.896761111007738" id="-18275">
		<tag k="name" v="Hestemyra" />
		<tag k="natural" v="wetland" />
		<tag k="ssr:stedsnr" v="82353" />
	</node>
	<node lat="59.79967500160527" lon="10.874455552574897" id="-18306">
		<tag k="name" v="Sauemåsan" />
=======
	<node id="-244994" lat="59.7724416683" lon="10.9638638825">
		<tag k="name" v="Grubemåsan" />
		<tag k="natural" v="wetland" />
		<tag k="ssr:stedsnr" v="932335" />
	</node>
	<node id="-244993" lat="59.7877194423" lon="10.894699992">
		<tag k="landuse" v="meadow" />
		<tag k="name" v="Tangenhagen" />
		<tag k="ssr:stedsnr" v="932262" />
	</node>
	<node id="-244693" lat="59.7498333331" lon="10.9004500083">
		<tag k="name" v="Snippemyra" />
		<tag k="natural" v="wetland" />
		<tag k="ssr:stedsnr" v="447440" />
	</node>
	<node id="-245500" lat="59.8224250019" lon="10.9213972155">
		<tag k="name" v="Fugleleiken" />
>>>>>>> e1d4bc35ff8a6074a6f2e91616a996b547c36f15
		<tag k="natural" v="wetland" />
		<tag k="ssr:stedsnr" v="125377" />
	</node>
<<<<<<< HEAD
	<node lat="59.79424722410315" lon="10.879861117461568" id="-18325">
		<tag k="name" v="Nordgardsmyra" />
=======
	<node id="-244973" lat="59.7071722181" lon="10.9697638881">
		<tag k="name" v="Orremåsan" />
>>>>>>> e1d4bc35ff8a6074a6f2e91616a996b547c36f15
		<tag k="natural" v="wetland" />
		<tag k="ssr:stedsnr" v="143265" />
	</node>
<<<<<<< HEAD
	<node lat="59.78981944254858" lon="10.87332221362499" id="-18326">
		<tag k="name" v="Stormyr" />
		<tag k="natural" v="wetland" />
		<tag k="ssr:stedsnr" v="143269" />
	</node>
	<node lat="59.779413888013224" lon="10.961533340367668" id="-18351">
		<tag k="alt_name" v="Slåmyr" />
		<tag k="name" v="Slåmyra" />
		<tag k="natural" v="wetland" />
		<tag k="ssr:stedsnr" v="186474" />
	</node>
	<node lat="59.77128333169756" lon="10.857383326850108" id="-18360">
		<tag k="name" v="Nedre Fugleåsmyr" />
=======
	<node id="-244775" lat="59.7611083335" lon="10.8780361072">
		<tag k="name" v="Lille Droplemyr" />
		<tag k="natural" v="wetland" />
		<tag k="ssr:stedsnr" v="386471" />
	</node>
	<node id="-244967" lat="59.6837249987" lon="10.871377782">
		<tag k="name" v="Vangsmyra" />
		<tag k="natural" v="wetland" />
		<tag k="ssr:stedsnr" v="750530" />
	</node>
	<node id="-245030" lat="59.7344972205" lon="10.8980027738">
		<tag k="landuse" v="meadow" />
		<tag k="name" v="Vasshagen" />
		<tag k="ssr:stedsnr" v="871422" />
	</node>
	<node id="-245473" lat="59.6996555522" lon="10.9424361141">
		<tag k="name" v="Høleløkka" />
		<tag k="place" v="locality" />
		<tag k="ssr:stedsnr" v="567523" />
	</node>
	<node id="-245461" lat="59.8161638901" lon="10.9268388856">
		<tag k="name" v="Vesle Hagamyr" />
>>>>>>> e1d4bc35ff8a6074a6f2e91616a996b547c36f15
		<tag k="natural" v="wetland" />
		<tag k="ssr:stedsnr" v="204234" />
	</node>
<<<<<<< HEAD
	<node lat="59.68820277778077" lon="10.926044449064909" id="-18367">
		<tag k="landuse" v="meadow" />
		<tag k="name" v="Steinum" />
		<tag k="ssr:stedsnr" v="204481" />
	</node>
	<node lat="59.68169999583114" lon="10.875752783321108" id="-18369">
		<tag k="name" v="Sigtunmyra" />
=======
	<node id="-245460" lat="59.7701027749" lon="10.8793944446">
		<tag k="name" v="Holmenmyra" />
>>>>>>> e1d4bc35ff8a6074a6f2e91616a996b547c36f15
		<tag k="natural" v="wetland" />
		<tag k="ssr:stedsnr" v="204495" />
	</node>
<<<<<<< HEAD
	<node lat="59.71601111365392" lon="10.942294441081794" id="-18386">
		<tag k="name" v="Dammyra" />
=======
	<node id="-244946" lat="59.8203805513" lon="10.9270611054">
		<tag k="alt_name" v="Store Hagamyr" />
		<tag k="name" v="Stormyr" />
>>>>>>> e1d4bc35ff8a6074a6f2e91616a996b547c36f15
		<tag k="natural" v="wetland" />
		<tag k="ssr:stedsnr" v="306551" />
	</node>
<<<<<<< HEAD
	<node lat="59.760736111346695" lon="10.870252775348364" id="-18395">
		<tag k="alt_name" v="Store Droplemyra" />
		<tag k="name" v="Droplemyra" />
		<tag k="natural" v="wetland" />
		<tag k="ssr:stedsnr" v="308365" />
	</node>
	<node lat="59.80407222140545" lon="10.904788897016108" id="-18399">
		<tag k="name" v="Kransagmyra" />
=======
	<node id="-244924" lat="59.6369999996" lon="10.874911115">
		<tag k="name" v="Jaerskogen" />
		<tag k="place" v="locality" />
		<tag k="ssr:stedsnr" v="628713" />
	</node>
	<node id="-244920" lat="59.7774611123" lon="10.8653638806">
		<tag k="name" v="Langmåsan" />
>>>>>>> e1d4bc35ff8a6074a6f2e91616a996b547c36f15
		<tag k="natural" v="wetland" />
		<tag k="ssr:stedsnr" v="325304" />
	</node>
<<<<<<< HEAD
	<node lat="59.79225555524698" lon="10.863519445271871" id="-18400">
		<tag k="name" v="Korsmyr" />
=======
	<node id="-244918" lat="59.7698833365" lon="10.8652777859">
		<tag k="name" v="Marimyr" />
>>>>>>> e1d4bc35ff8a6074a6f2e91616a996b547c36f15
		<tag k="natural" v="wetland" />
		<tag k="ssr:stedsnr" v="325310" />
	</node>
<<<<<<< HEAD
	<node lat="59.72491111387667" lon="10.890933335120959" id="-18404">
		<tag k="name" v="Midsjømåsan" />
		<tag k="natural" v="wetland" />
		<tag k="ssr:stedsnr" v="325438" />
	</node>
	<node lat="59.735400003139745" lon="10.925397230063057" id="-18426">
		<tag k="alt_name" v="Solbotmåsan" />
		<tag k="name" v="Solbatmosan" />
=======
	<node id="-244915" lat="59.7619583366" lon="10.8385722285">
		<tag k="landuse" v="meadow" />
		<tag k="name" v="Berghagan" />
		<tag k="ssr:stedsnr" v="628374" />
	</node>
	<node id="-244912" lat="59.7945999977" lon="10.9604416631">
		<tag k="name" v="Elgmåsan" />
>>>>>>> e1d4bc35ff8a6074a6f2e91616a996b547c36f15
		<tag k="natural" v="wetland" />
		<tag k="ssr:stedsnr" v="367544" />
	</node>
<<<<<<< HEAD
	<node lat="59.773541663303575" lon="10.84561389211501" id="-18437">
		<tag k="alt_name" v="Breidmåsan" />
		<tag k="name" v="Breimåsan" />
=======
	<node id="-244893" lat="59.8071527746" lon="10.9534750081">
		<tag k="name" v="Gråbeinmåsan" />
>>>>>>> e1d4bc35ff8a6074a6f2e91616a996b547c36f15
		<tag k="natural" v="wetland" />
		<tag k="old_name" v="Breidmosan" />
		<tag k="ssr:stedsnr" v="368460" />
	</node>
<<<<<<< HEAD
	<node lat="59.776222226500934" lon="10.880988886101782" id="-18446">
		<tag k="name" v="Bukkestimyra" />
=======
	<node id="-244892" lat="59.7794083314" lon="10.954138892">
		<tag k="name" v="Muskedalsmåsan" />
>>>>>>> e1d4bc35ff8a6074a6f2e91616a996b547c36f15
		<tag k="natural" v="wetland" />
		<tag k="ssr:stedsnr" v="386269" />
	</node>
<<<<<<< HEAD
	<node lat="59.80383611445258" lon="10.894433334607335" id="-18447">
		<tag k="name" v="Torvet" />
=======
	<node id="-244882" lat="59.6819138882" lon="10.9109888871">
		<tag k="name" v="Sandaker" />
>>>>>>> e1d4bc35ff8a6074a6f2e91616a996b547c36f15
		<tag k="place" v="locality" />
		<tag k="ssr:stedsnr" v="386284" />
	</node>
<<<<<<< HEAD
	<node lat="59.761108333490114" lon="10.878036107203355" id="-18450">
		<tag k="name" v="Lille Droplemyr" />
		<tag k="natural" v="wetland" />
		<tag k="ssr:stedsnr" v="386471" />
	</node>
	<node lat="59.76243888704828" lon="10.951247215527449" id="-18454">
=======
	<node id="-244879" lat="59.6603416682" lon="10.84666945">
		<tag k="name" v="Vålskogen" />
		<tag k="place" v="locality" />
		<tag k="ssr:stedsnr" v="689472" />
	</node>
	<node id="-245389" lat="59.762438887" lon="10.9512472155">
>>>>>>> e1d4bc35ff8a6074a6f2e91616a996b547c36f15
		<tag k="name" v="Kavringen" />
		<tag k="natural" v="stone" />
		<tag k="ssr:stedsnr" v="386299" />
	</node>
<<<<<<< HEAD
	<node lat="59.73701388445552" lon="10.901252786155169" id="-18455">
		<tag k="name" v="Solbergmåsan" />
		<tag k="natural" v="wetland" />
		<tag k="ssr:stedsnr" v="386420" />
	</node>
	<node lat="59.67823055358297" lon="10.872294451571896" id="-18492">
		<tag k="name" v="Smedsrud" />
=======
	<node id="-245387" lat="59.8038361145" lon="10.8944333346">
		<tag k="name" v="Torvet" />
>>>>>>> e1d4bc35ff8a6074a6f2e91616a996b547c36f15
		<tag k="place" v="locality" />
		<tag k="ssr:stedsnr" v="446760" />
	</node>
<<<<<<< HEAD
	<node lat="59.800613886035606" lon="10.896883330171946" id="-18497">
		<tag k="name" v="Øvre Starrmyr" />
=======
	<node id="-245386" lat="59.7762222265" lon="10.8809888861">
		<tag k="name" v="Bukkestimyra" />
>>>>>>> e1d4bc35ff8a6074a6f2e91616a996b547c36f15
		<tag k="natural" v="wetland" />
		<tag k="ssr:stedsnr" v="447252" />
	</node>
<<<<<<< HEAD
	<node lat="59.76153333252767" lon="10.84502222753289" id="-18498">
		<tag k="name" v="Haugjordet" />
		<tag k="place" v="locality" />
		<tag k="ssr:stedsnr" v="447356" />
	</node>
	<node lat="59.74983333306911" lon="10.90045000827503" id="-18499">
		<tag k="name" v="Snippemyra" />
		<tag k="natural" v="wetland" />
		<tag k="ssr:stedsnr" v="447440" />
	</node>
	<node lat="59.80455555679409" lon="10.875758331688584" id="-18507">
		<tag k="alt_name" v="Sagamyr nedre" />
		<tag k="name" v="Nedre Sagamyr" />
=======
	<node id="-244871" lat="59.775394441" lon="10.9743888809">
		<tag k="name" v="Skrivermyra" />
		<tag k="natural" v="wetland" />
		<tag k="ssr:stedsnr" v="689346" />
	</node>
	<node id="-245375" lat="59.7735416633" lon="10.8456138921">
		<tag k="alt_name" v="Breidmåsan" />
		<tag k="name" v="Breimåsan" />
>>>>>>> e1d4bc35ff8a6074a6f2e91616a996b547c36f15
		<tag k="natural" v="wetland" />
		<tag k="ssr:stedsnr" v="507284" />
	</node>
<<<<<<< HEAD
	<node lat="59.76538610741779" lon="10.890083328316367" id="-18511">
		<tag k="name" v="Ormemåsan" />
=======
	<node id="-244859" lat="59.7216833364" lon="10.9592333407">
		<tag k="name" v="Gjetsjømåsan" />
>>>>>>> e1d4bc35ff8a6074a6f2e91616a996b547c36f15
		<tag k="natural" v="wetland" />
		<tag k="ssr:stedsnr" v="507440" />
	</node>
<<<<<<< HEAD
	<node lat="59.68457499633238" lon="10.932591667602283" id="-18514">
=======
	<node id="-244857" lat="59.6845749963" lon="10.9325916676">
>>>>>>> e1d4bc35ff8a6074a6f2e91616a996b547c36f15
		<tag k="name" v="Ødemark" />
		<tag k="place" v="locality" />
		<tag k="ssr:stedsnr" v="507518" />
	</node>
<<<<<<< HEAD
	<node lat="59.72168333644481" lon="10.959233340659406" id="-18516">
		<tag k="name" v="Gjetsjømåsan" />
=======
	<node id="-244852" lat="59.8094083338" lon="10.9214833416">
		<tag k="name" v="Lusetjernmyra" />
>>>>>>> e1d4bc35ff8a6074a6f2e91616a996b547c36f15
		<tag k="natural" v="wetland" />
		<tag k="ssr:stedsnr" v="507541" />
	</node>
<<<<<<< HEAD
	<node lat="59.67551388490425" lon="10.842572227674426" id="-18522">
		<tag k="name" v="Grytelandskogen" />
		<tag k="place" v="locality" />
		<tag k="ssr:stedsnr" v="507754" />
	</node>
	<node lat="59.77940833137171" lon="10.954138891990526" id="-18545">
		<tag k="name" v="Muskedalsmåsan" />
=======
	<node id="-245358" lat="59.7354000031" lon="10.9253972301">
		<tag k="alt_name" v="Solbotmåsan" />
		<tag k="name" v="Solbatmosan" />
>>>>>>> e1d4bc35ff8a6074a6f2e91616a996b547c36f15
		<tag k="natural" v="wetland" />
		<tag k="ssr:stedsnr" v="567339" />
	</node>
<<<<<<< HEAD
	<node lat="59.80715277456045" lon="10.95347500807333" id="-18546">
		<tag k="name" v="Gråbeinmåsan" />
=======
	<node id="-245607" lat="59.7313888922" lon="10.9571333401">
		<tag k="historic" v="shieling" />
		<tag k="name" v="Sagstua" />
		<tag k="place" v="locality" />
		<tag k="ssr:stedsnr" v="811412" />
	</node>
	<node id="-245520" lat="59.7183583375" lon="10.934438887">
		<tag k="name" v="Breimåsan" />
		<tag k="natural" v="wetland" />
		<tag k="ssr:stedsnr" v="628593" />
	</node>
	<node id="-245007" lat="59.7479000005" lon="10.9097416743">
		<tag k="name" v="Stokstadmyra" />
		<tag k="natural" v="wetland" />
		<tag k="ssr:stedsnr" v="932459" />
	</node>
	<node id="-245332" lat="59.7249111139" lon="10.8909333351">
		<tag k="name" v="Midsjømåsan" />
>>>>>>> e1d4bc35ff8a6074a6f2e91616a996b547c36f15
		<tag k="natural" v="wetland" />
		<tag k="ssr:stedsnr" v="567340" />
	</node>
<<<<<<< HEAD
	<node lat="59.816163890098075" lon="10.926838885608111" id="-18548">
		<tag k="name" v="Vesle Hagamyr" />
=======
	<node id="-244816" lat="59.7177527815" lon="10.893438885">
		<tag k="name" v="Skisengmåsan" />
>>>>>>> e1d4bc35ff8a6074a6f2e91616a996b547c36f15
		<tag k="natural" v="wetland" />
		<tag k="ssr:stedsnr" v="567353" />
	</node>
<<<<<<< HEAD
	<node lat="59.80595277358263" lon="10.830758331921656" id="-18556">
		<tag k="name" v="Snipeholen" />
=======
	<node id="-245326" lat="59.7502055521" lon="10.965233341">
		<tag k="name" v="Bekkenstein" />
>>>>>>> e1d4bc35ff8a6074a6f2e91616a996b547c36f15
		<tag k="place" v="locality" />
		<tag k="ssr:stedsnr" v="569678" />
	</node>
<<<<<<< HEAD
	<node lat="59.74871111509232" lon="10.931302779546224" id="-18575">
		<tag k="name" v="Bogermyra" />
=======
	<node id="-244813" lat="59.800613886" lon="10.8968833302">
		<tag k="name" v="Øvre Starrmyr" />
>>>>>>> e1d4bc35ff8a6074a6f2e91616a996b547c36f15
		<tag k="natural" v="wetland" />
		<tag k="ssr:stedsnr" v="628441" />
	</node>
<<<<<<< HEAD
	<node lat="59.77746111233282" lon="10.865363880627534" id="-18576">
		<tag k="name" v="Langmåsan" />
=======
	<node id="-245323" lat="59.7922555552" lon="10.8635194453">
		<tag k="name" v="Korsmyr" />
>>>>>>> e1d4bc35ff8a6074a6f2e91616a996b547c36f15
		<tag k="natural" v="wetland" />
		<tag k="ssr:stedsnr" v="628265" />
	</node>
<<<<<<< HEAD
	<node lat="59.76195833662415" lon="10.838572228465686" id="-18578">
		<tag k="landuse" v="meadow" />
		<tag k="name" v="Berghagan" />
		<tag k="ssr:stedsnr" v="628374" />
	</node>
	<node lat="59.820380551308794" lon="10.927061105413937" id="-18616">
		<tag k="alt_name" v="Store Hagamyr" />
		<tag k="name" v="Stormyr" />
=======
	<node id="-245322" lat="59.8040722214" lon="10.904788897">
		<tag k="name" v="Kransagmyra" />
>>>>>>> e1d4bc35ff8a6074a6f2e91616a996b547c36f15
		<tag k="natural" v="wetland" />
		<tag k="ssr:stedsnr" v="733271" />
	</node>
<<<<<<< HEAD
	<node lat="59.77364444188454" lon="10.858727780586774" id="-18621">
		<tag k="name" v="Øvre Fugleåsmyr" />
=======
	<node id="-245320" lat="59.7726527805" lon="10.8713416696">
		<tag k="name" v="Nordre Lauvåsmyra" />
>>>>>>> e1d4bc35ff8a6074a6f2e91616a996b547c36f15
		<tag k="natural" v="wetland" />
		<tag k="ssr:stedsnr" v="750238" />
	</node>
<<<<<<< HEAD
	<node lat="59.77698611484296" lon="10.88723888327091" id="-18622">
		<tag k="name" v="Bjønnemyra" />
=======
	<node id="-245319" lat="59.7687916696" lon="10.8940694377">
		<tag k="name" v="Breimåsan" />
>>>>>>> e1d4bc35ff8a6074a6f2e91616a996b547c36f15
		<tag k="natural" v="wetland" />
		<tag k="ssr:stedsnr" v="750245" />
	</node>
<<<<<<< HEAD
	<node lat="59.82147778081201" lon="10.931916660402958" id="-18626">
		<tag k="name" v="Starrmåsan" />
=======
	<node id="-245089" lat="59.8029888883" lon="10.9676277759">
		<tag k="name" v="Store Fjellfugleleiken" />
		<tag k="place" v="locality" />
		<tag k="ssr:stedsnr" v="22346" />
	</node>
	<node id="-245313" lat="59.7607361113" lon="10.8702527753">
		<tag k="alt_name" v="Store Droplemyra" />
		<tag k="name" v="Droplemyra" />
>>>>>>> e1d4bc35ff8a6074a6f2e91616a996b547c36f15
		<tag k="natural" v="wetland" />
		<tag k="ssr:stedsnr" v="750335" />
	</node>
<<<<<<< HEAD
	<node lat="59.683724998672155" lon="10.87137778204177" id="-18633">
		<tag k="name" v="Vangsmyra" />
		<tag k="natural" v="wetland" />
		<tag k="ssr:stedsnr" v="750530" />
	</node>
	<node lat="59.677558329296566" lon="10.853477785492622" id="-18668">
		<tag k="name" v="Prestegårdskogen" />
=======
	<node id="-244795" lat="59.6755138849" lon="10.8425722277">
		<tag k="name" v="Grytelandskogen" />
>>>>>>> e1d4bc35ff8a6074a6f2e91616a996b547c36f15
		<tag k="place" v="locality" />
		<tag k="ssr:stedsnr" v="810760" />
	</node>
<<<<<<< HEAD
	<node lat="59.785394441169586" lon="10.848374998924138" id="-18672">
		<tag k="name" v="Rundmyr" />
=======
	<node id="-244791" lat="59.7653861074" lon="10.8900833283">
		<tag k="name" v="Ormemåsan" />
>>>>>>> e1d4bc35ff8a6074a6f2e91616a996b547c36f15
		<tag k="natural" v="wetland" />
		<tag k="ssr:stedsnr" v="811264" />
	</node>
<<<<<<< HEAD
	<node lat="59.80898888707454" lon="10.832933324969874" id="-18699">
		<tag k="name" v="Grønlimyra" />
=======
	<node id="-245298" lat="59.7160111137" lon="10.9422944411">
		<tag k="name" v="Dammyra" />
>>>>>>> e1d4bc35ff8a6074a6f2e91616a996b547c36f15
		<tag k="natural" v="wetland" />
		<tag k="ssr:stedsnr" v="855272" />
	</node>
<<<<<<< HEAD
	<node lat="59.743919440049716" lon="10.893500006544157" id="-18701">
		<tag k="name" v="Eikjolmåsan" />
		<tag k="natural" v="wetland" />
		<tag k="ssr:stedsnr" v="871289" />
	</node>
	<node lat="59.74205555564417" lon="10.890894444191607" id="-18704">
		<tag k="name" v="Lunnermåsan" />
		<tag k="natural" v="wetland" />
		<tag k="ssr:stedsnr" v="871417" />
	</node>
	<node lat="59.7344972204886" lon="10.898002773803455" id="-18706">
		<tag k="landuse" v="meadow" />
		<tag k="name" v="Vasshagen" />
		<tag k="ssr:stedsnr" v="871422" />
	</node>
	<node lat="59.75522500229745" lon="10.889875006553016" id="-18707">
		<tag k="name" v="Mjølmåsan" />
		<tag k="natural" v="wetland" />
		<tag k="ssr:stedsnr" v="871444" />
=======
	<node id="-244783" lat="59.674488891" lon="10.8854805522">
		<tag k="name" v="Hanselund" />
		<tag k="place" v="locality" />
		<tag k="ssr:stedsnr" v="507482" />
>>>>>>> e1d4bc35ff8a6074a6f2e91616a996b547c36f15
	</node>
	<node id="-244781" lat="59.8045555568" lon="10.8757583317">
		<tag k="alt_name" v="Sagamyr nedre" />
		<tag k="name" v="Nedre Sagamyr" />
		<tag k="natural" v="wetland" />
		<tag k="ssr:stedsnr" v="507284" />
	</node>
	<node id="-244778" lat="59.7155111091" lon="10.9305111175">
		<tag k="name" v="Kattemyr" />
		<tag k="natural" v="wetland" />
		<tag k="ssr:stedsnr" v="386616" />
	</node>
	<node id="-244776" lat="59.7297833334" lon="10.9468111055">
		<tag k="name" v="Høymyr" />
		<tag k="natural" v="wetland" />
		<tag k="ssr:stedsnr" v="386610" />
	</node>
	<node id="-245287" lat="59.7857722177" lon="10.810200007">
		<tag k="name" v="Ødegård skog" />
		<tag k="place" v="locality" />
		<tag k="ssr:stedsnr" v="205710" />
	</node>
	<node id="-244770" lat="59.7370138845" lon="10.9012527862">
		<tag k="name" v="Solbergmåsan" />
		<tag k="natural" v="wetland" />
		<tag k="ssr:stedsnr" v="386420" />
	</node>
	<node id="-245278" lat="59.6816999958" lon="10.8757527833">
		<tag k="name" v="Sigtunmyra" />
		<tag k="natural" v="wetland" />
		<tag k="ssr:stedsnr" v="204495" />
	</node>
	<node id="-245275" lat="59.6882027778" lon="10.9260444491">
		<tag k="landuse" v="meadow" />
		<tag k="name" v="Steinum" />
		<tag k="ssr:stedsnr" v="204481" />
	</node>
	<node id="-245271" lat="59.7543750016" lon="10.8473000065">
		<tag k="name" v="Arnestadjordet" />
		<tag k="place" v="locality" />
		<tag k="ssr:stedsnr" v="204421" />
	</node>
	<node id="-245268" lat="59.7328222227" lon="10.872147221">
		<tag k="name" v="Åråsmåsan" />
		<tag k="natural" v="wetland" />
		<tag k="ssr:stedsnr" v="204396" />
	</node>
	<node id="-245264" lat="59.7712833317" lon="10.8573833269">
		<tag k="name" v="Nedre Fugleåsmyr" />
		<tag k="natural" v="wetland" />
		<tag k="ssr:stedsnr" v="204234" />
	</node>
</osm>
