<?xml version="1.0" encoding="UTF-8"?>
<osm generator="osmapis" version="0.6">
	<node id="-245671" lat="59.7659927886" lon="10.8441270854">
		<tag k="amenity" v="school" />
		<tag k="name" v="Follo barne- og ungdomsskole" />
		<tag k="ssr:stedsnr" v="987864" />
	</node>
	<node id="-245670" lat="59.8006289778" lon="10.8040429749">
		<tag k="fixme" v="consider place=suburb, village or hamlet" />
		<tag k="name" v="Solbråtan" />
		<tag k="place" v="quarter" />
		<tag k="ssr:stedsnr" v="987843" />
	</node>
	<node id="-245669" lat="59.6750635836" lon="10.8371562134">
		<tag k="name" v="Gryteland" />
		<tag k="place" v="hamlet" />
		<tag k="ssr:stedsnr" v="976576" />
	</node>
	<node id="-245668" lat="59.7295584214" lon="10.8898687968">
		<tag k="fixme" v="consider place=hamlet" />
		<tag k="name" v="Midsjø" />
		<tag k="place" v="farm" />
		<tag k="ssr:stedsnr" v="976575" />
	</node>
	<node id="-245662" lat="59.7649027763" lon="10.8545222136">
		<tag k="amenity" v="school" />
		<tag k="name" v="Bøleråsen skole" />
		<tag k="ssr:stedsnr" v="951147" />
	</node>
	<node id="-245658" lat="59.6733861086" lon="10.8923611163">
		<tag k="alt_name" v="Skjønhaug vestre" />
		<tag k="name" v="Vestre Skjønhaug" />
		<tag k="place" v="farm" />
		<tag k="ssr:stedsnr" v="871482" />
	</node>
	<node id="-245657" lat="59.6617083341" lon="10.8327999961">
		<tag k="name" v="Haugsten" />
		<tag k="place" v="farm" />
		<tag k="ssr:stedsnr" v="871477" />
	</node>
	<node id="-245656" lat="59.6639083342" lon="10.9385055589">
		<tag k="alt_name" v="Myrer vestre" />
		<tag k="name" v="Vestre Myrer" />
		<tag k="place" v="farm" />
		<tag k="ssr:stedsnr" v="871472" />
	</node>
	<node id="-245653" lat="59.6593194486" lon="10.9626611191">
		<tag k="name" v="Mørksand" />
		<tag k="place" v="farm" />
		<tag k="ssr:stedsnr" v="871538" />
	</node>
	<node id="-245652" lat="59.752205552" lon="10.9322638841">
		<tag k="alt_name" v="Boger nordre" />
		<tag k="name" v="Nordre Boger" />
		<tag k="place" v="farm" />
		<tag k="ssr:stedsnr" v="871449" />
	</node>
	<node id="-245648" lat="59.8109361141" lon="10.8847694486">
		<tag k="name" v="Barlihagen" />
		<tag k="place" v="locality" />
		<tag k="ssr:stedsnr" v="871234" />
	</node>
	<node id="-245644" lat="59.7655999987" lon="10.7802083263">
		<tag k="name" v="Sjeisen" />
		<tag k="place" v="isolated_dwelling" />
		<tag k="ssr:stedsnr" v="854401" />
	</node>
	<node id="-245640" lat="59.8028499964" lon="10.786975001">
		<tag k="name" v="Vassbonn" />
		<tag k="place" v="isolated_dwelling" />
		<tag k="ssr:stedsnr" v="854341" />
	</node>
	<node id="-245639" lat="59.798502777" lon="10.8418055547">
		<tag k="name" v="Taraldrudhytta" />
		<tag k="place" v="farm" />
		<tag k="ssr:stedsnr" v="854339" />
	</node>
	<node id="-245638" lat="59.7928277786" lon="10.8499861128">
		<tag k="name" v="Kloppa" />
		<tag k="place" v="farm" />
		<tag k="ssr:stedsnr" v="854338" />
	</node>
	<node id="-245637" lat="59.8220611146" lon="10.7529861112">
		<tag k="name" v="Sandbukta" />
		<tag k="place" v="isolated_dwelling" />
		<tag k="ssr:stedsnr" v="854278" />
	</node>
	<node id="-245633" lat="59.7377611093" lon="10.8686166705">
		<tag k="fixme" v="consider place=hamlet" />
		<tag k="name" v="Krakastad" />
		<tag k="place" v="farm" />
		<tag k="ssr:stedsnr" v="853599" />
	</node>
	<node id="-245632" lat="59.6703499961" lon="10.9145694385">
		<tag k="alt_name" v="Asperud, østre;Asperud østre" />
		<tag k="name" v="Østre Asperud" />
		<tag k="place" v="farm" />
		<tag k="ssr:stedsnr" v="853444" />
	</node>
	<node id="-245631" lat="59.6370444485" lon="10.8866472244">
		<tag k="name" v="Mellom-Bjerke" />
		<tag k="old_name" v="Bjerke mellem;Bjørke mellem" />
		<tag k="place" v="farm" />
		<tag k="ssr:stedsnr" v="853293" />
	</node>
	<node id="-245630" lat="59.6657544783" lon="10.8780553518">
		<tag k="name" v="Oppsal" />
		<tag k="place" v="farm" />
		<tag k="ssr:stedsnr" v="852494" />
	</node>
	<node id="-245628" lat="59.6456166659" lon="10.9648222176">
		<tag k="name" v="Furu" />
		<tag k="place" v="farm" />
		<tag k="ssr:stedsnr" v="852274" />
	</node>
	<node id="-245627" lat="59.6567305573" lon="10.8912611068">
		<tag k="name" v="Bakker" />
		<tag k="place" v="farm" />
		<tag k="ssr:stedsnr" v="852272" />
	</node>
	<node id="-245626" lat="59.6505222185" lon="10.8965749917">
		<tag k="name" v="Kålstad" />
		<tag k="place" v="farm" />
		<tag k="ssr:stedsnr" v="852269" />
	</node>
	<node id="-245624" lat="59.8133638903" lon="10.822219442">
		<tag k="amenity" v="school" />
		<tag k="name" v="Tårnåsen skole" />
		<tag k="ssr:stedsnr" v="813475" />
	</node>
	<node id="-245621" lat="59.764572225" lon="10.8254999958">
		<tag k="name" v="Fjell" />
		<tag k="place" v="locality" />
		<tag k="ssr:stedsnr" v="812140" />
	</node>
	<node id="-245620" lat="59.8020638912" lon="10.7914305483">
		<tag k="landuse" v="winter_sports" />
		<tag k="name" v="Ingierkollen" />
		<tag k="piste:type" v="downhill" />
		<tag k="ssr:stedsnr" v="812135" />
	</node>
	<node id="-245619" lat="59.7858805583" lon="10.7444194375">
		<tag k="leisure" v="pitch" />
		<tag k="name" v="Vestenga idrettsplass" />
		<tag k="ssr:stedsnr" v="812133" />
	</node>
	<node id="-245617" lat="59.7223472202" lon="10.8885750011">
		<tag k="name" v="Bulte" />
		<tag k="place" v="farm" />
		<tag k="ssr:stedsnr" v="811611" />
	</node>
	<node id="-245616" lat="59.7397083303" lon="10.9782333389">
		<tag k="name" v="Gjersenga" />
		<tag k="place" v="farm" />
		<tag k="ssr:stedsnr" v="811599" />
	</node>
	<node id="-245614" lat="59.6625138865" lon="10.8374861109">
		<tag k="name" v="Stensrud" />
		<tag k="place" v="isolated_dwelling" />
		<tag k="ssr:stedsnr" v="811488" />
	</node>
	<node id="-245610" lat="59.743147222" lon="10.8701805594">
		<tag k="name" v="Myrhytta" />
		<tag k="place" v="isolated_dwelling" />
		<tag k="ssr:stedsnr" v="811437" />
	</node>
	<node id="-245605" lat="59.7919333355" lon="10.9708972248">
		<tag k="name" v="Tømt" />
		<tag k="place" v="locality" />
		<tag k="ssr:stedsnr" v="811343" />
	</node>
	<node id="-245602" lat="59.6762361153" lon="10.8487694502">
		<tag k="name" v="Bernhus" />
		<tag k="place" v="isolated_dwelling" />
		<tag k="ssr:stedsnr" v="810761" />
	</node>
	<node id="-245599" lat="59.6539277821" lon="10.9649833257">
		<tag k="name" v="Kølabonn" />
		<tag k="place" v="isolated_dwelling" />
		<tag k="ssr:stedsnr" v="810547" />
	</node>
	<node id="-245598" lat="59.6900416691" lon="10.9372611113">
		<tag k="name" v="Tyrigrava" />
		<tag k="place" v="isolated_dwelling" />
		<tag k="ssr:stedsnr" v="810536" />
	</node>
	<node id="-245597" lat="59.6561999994" lon="10.8496694391">
		<tag k="name" v="Klingenberg" />
		<tag k="place" v="farm" />
		<tag k="ssr:stedsnr" v="810522" />
	</node>
	<node id="-245594" lat="59.7510694445" lon="10.8910277835">
		<tag k="alt_name" v="Eikjol nordre" />
		<tag k="name" v="Nordre Eikjol" />
		<tag k="old_name" v="Eikjord, nordre" />
		<tag k="place" v="farm" />
		<tag k="ssr:stedsnr" v="794467" />
	</node>
	<node id="-245593" lat="59.8172249959" lon="10.9167555469">
		<tag k="name" v="Roland" />
		<tag k="place" v="isolated_dwelling" />
		<tag k="ssr:stedsnr" v="794246" />
	</node>
	<node id="-245591" lat="59.8025916662" lon="10.8196166674">
		<tag k="alt_name" v="Øgården" />
		<tag k="name" v="Ødegården" />
		<tag k="place" v="isolated_dwelling" />
		<tag k="ssr:stedsnr" v="794240" />
	</node>
	<node id="-245590" lat="59.8090916707" lon="10.742499997">
		<tag k="name" v="Strandkollen" />
		<tag k="place" v="isolated_dwelling" />
		<tag k="ssr:stedsnr" v="794235" />
	</node>
	<node id="-245588" lat="59.7758999972" lon="10.7514805548">
		<tag k="alt_name" v="Oppegård, søndre" />
		<tag k="name" v="Søndre Oppegård" />
		<tag k="place" v="farm" />
		<tag k="ssr:stedsnr" v="793340" />
	</node>
	<node id="-245586" lat="59.8225749987" lon="10.7742222211">
		<tag k="alt_name" v="Mastemyr industriområde" />
		<tag k="name" v="Mastemyr" />
		<tag k="place" v="quarter" />
		<tag k="ssr:stedsnr" v="793319" />
	</node>
	<node id="-245585" lat="59.819269448" lon="10.8973333315">
		<tag k="name" v="Brokkenhus" />
		<tag k="place" v="quarter" />
		<tag k="ssr:stedsnr" v="793304" />
	</node>
	<node id="-245584" lat="59.7716250023" lon="10.8049722138">
		<tag k="alt_name" v="Greverud, vestre" />
		<tag k="name" v="Vestre Greverud" />
		<tag k="place" v="farm" />
		<tag k="ssr:stedsnr" v="793466" />
	</node>
	<node id="-245583" lat="59.6894666657" lon="10.8922222167">
		<tag k="name" v="Haga" />
		<tag k="place" v="farm" />
		<tag k="ssr:stedsnr" v="793461" />
	</node>
	<node id="-245582" lat="59.6865042048" lon="10.8843627348">
		<tag k="fixme" v="consider place=hamlet" />
		<tag k="name" v="Sigtun" />
		<tag k="old_name" v="Østre Sigton" />
		<tag k="place" v="farm" />
		<tag k="ssr:stedsnr" v="793459" />
	</node>
	<node id="-245581" lat="59.7675500025" lon="10.7898027756">
		<tag k="name" v="Flåtestad" />
		<tag k="place" v="farm" />
		<tag k="ssr:stedsnr" v="793457" />
	</node>
	<node id="-245580" lat="59.7695749975" lon="10.778833326">
		<tag k="name" v="Kurud" />
		<tag k="place" v="farm" />
		<tag k="ssr:stedsnr" v="793455" />
	</node>
	<node id="-245579" lat="59.6894000042" lon="10.8691083333">
		<tag k="alt_name" v="Frogner, østre;Frogner østre" />
		<tag k="name" v="Østre Frogner" />
		<tag k="place" v="farm" />
		<tag k="ssr:stedsnr" v="793454" />
	</node>
	<node id="-245577" lat="59.7693611119" lon="10.8808138958">
		<tag k="name" v="Holmen" />
		<tag k="place" v="farm" />
		<tag k="ssr:stedsnr" v="793432" />
	</node>
	<node id="-245576" lat="59.7578222198" lon="10.9030972211">
		<tag k="name" v="Karlsrud" />
		<tag k="place" v="farm" />
		<tag k="ssr:stedsnr" v="793422" />
	</node>
	<node id="-245575" lat="59.7292916709" lon="10.8376499977">
		<tag k="name" v="Ense" />
		<tag k="place" v="farm" />
		<tag k="ssr:stedsnr" v="792546" />
	</node>
	<node id="-245574" lat="59.7552166675" lon="10.8461861075">
		<tag k="name" v="Langhus" />
		<tag k="place" v="village" />
		<tag k="ssr:stedsnr" v="792492" />
	</node>
	<node id="-245573" lat="59.6718972198" lon="10.9316805556">
		<tag k="name" v="Langli" />
		<tag k="place" v="farm" />
		<tag k="ssr:stedsnr" v="792473" />
	</node>
	<node id="-245572" lat="59.6762333369" lon="10.8359277782">
		<tag k="name" v="Store Gryteland" />
		<tag k="place" v="farm" />
		<tag k="ssr:stedsnr" v="792424" />
	</node>
	<node id="-245571" lat="59.7476472198" lon="10.9721638839">
		<tag k="name" v="Slora" />
		<tag k="place" v="farm" />
		<tag k="ssr:stedsnr" v="792587" />
	</node>
	<node id="-245570" lat="59.7062333341" lon="10.8320944436">
		<tag k="alt_name" v="Halstad;Halstad nordre" />
		<tag k="name" v="Nordre Halstad" />
		<tag k="place" v="farm" />
		<tag k="ssr:stedsnr" v="792372" />
	</node>
	<node id="-245569" lat="59.7009166658" lon="10.9083638904">
		<tag k="alt_name" v="Tømt nedre" />
		<tag k="name" v="Tømt" />
		<tag k="place" v="farm" />
		<tag k="ssr:stedsnr" v="792023" />
	</node>
	<node id="-245567" lat="59.6634749987" lon="10.9706444529">
		<tag k="name" v="Østereng" />
		<tag k="place" v="farm" />
		<tag k="ssr:stedsnr" v="791473" />
	</node>
	<node id="-245566" lat="59.670602776" lon="10.9413888963">
		<tag k="name" v="Skotbu" />
		<tag k="place" v="farm" />
		<tag k="ssr:stedsnr" v="791460" />
	</node>
	<node id="-245560" lat="59.7944666635" lon="10.8128361141">
		<tag k="alt_name" v="Oppegård v.g. skole" />
		<tag k="amenity" v="school" />
		<tag k="name" v="Oppegård videregående skole" />
		<tag k="ssr:stedsnr" v="752488" />
	</node>
	<node id="-245557" lat="59.8074916667" lon="10.7977638903">
		<tag k="name" v="Båtsleppa" />
		<tag k="place" v="hamlet" />
		<tag k="ssr:stedsnr" v="751723" />
	</node>
	<node id="-245556" lat="59.769680556" lon="10.8255972211">
		<tag k="name" v="Ryberg" />
		<tag k="place" v="hamlet" />
		<tag k="ssr:stedsnr" v="751714" />
	</node>
	<node id="-245549" lat="59.6541500034" lon="10.924313892">
		<tag k="name" v="Nordre Reitvet" />
		<tag k="place" v="farm" />
		<tag k="ssr:stedsnr" v="750494" />
	</node>
	<node id="-245548" lat="59.7213333357" lon="10.8454416579">
		<tag k="amenity" v="school" />
		<tag k="name" v="Ski skole" />
		<tag k="ssr:stedsnr" v="750394" />
	</node>
	<node id="-245546" lat="59.8185027799" lon="10.8993138963">
		<tag k="name" v="Sønsteby" />
		<tag k="place" v="farm" />
		<tag k="ssr:stedsnr" v="750342" />
	</node>
	<node id="-245543" lat="59.8148833368" lon="10.9427638927">
		<tag k="name" v="Tretjernskoia" />
		<tag k="place" v="isolated_dwelling" />
		<tag k="ssr:stedsnr" v="750329" />
	</node>
	<node id="-245531" lat="59.786180552" lon="10.73394723">
		<tag k="name" v="Roald Amundsens hjem" />
		<tag k="place" v="isolated_dwelling" />
		<tag k="ssr:stedsnr" v="630478" />
	</node>
	<node id="-245530" lat="59.7017138931" lon="10.8474694446">
		<tag k="name" v="Tandbergløkka" />
		<tag k="place" v="hamlet" />
		<tag k="ssr:stedsnr" v="629092" />
	</node>
	<node id="-245527" lat="59.6901999998" lon="10.859633326">
		<tag k="alt_name" v="Frogner vestre" />
		<tag k="name" v="Vestre Frogner" />
		<tag k="place" v="farm" />
		<tag k="ssr:stedsnr" v="628532" />
	</node>
	<node id="-245526" lat="59.6873083348" lon="10.8779277714">
		<tag k="name" v="Veslevang" />
		<tag k="place" v="farm" />
		<tag k="ssr:stedsnr" v="628530" />
	</node>
	<node id="-245525" lat="59.6937916665" lon="10.9157444377">
		<tag k="name" v="Østro" />
		<tag k="place" v="isolated_dwelling" />
		<tag k="ssr:stedsnr" v="628518" />
	</node>
	<node id="-245510" lat="59.7907388874" lon="10.8962999962">
		<tag k="name" v="Siggerudtangen" />
		<tag k="place" v="isolated_dwelling" />
		<tag k="ssr:stedsnr" v="611342" />
	</node>
	<node id="-245507" lat="59.784211113" lon="10.7518805613">
		<tag k="alt_name" v="Oppegård, vestre" />
		<tag k="name" v="Vestre Oppegård" />
		<tag k="place" v="farm" />
		<tag k="ssr:stedsnr" v="611327" />
	</node>
	<node id="-245503" lat="59.779883335" lon="10.9034611187">
		<tag k="name" v="Nordløkka" />
		<tag k="place" v="isolated_dwelling" />
		<tag k="ssr:stedsnr" v="611306" />
	</node>
	<node id="-245499" lat="59.7194833297" lon="10.8357527709">
		<tag k="name" v="Ski" />
		<tag k="place" v="town" />
		<tag k="ssr:stedsnr" v="610596" />
	</node>
	<node id="-245498" lat="59.6735638876" lon="10.8609916641">
		<tag k="name" v="Nordli" />
		<tag k="place" v="farm" />
		<tag k="ssr:stedsnr" v="610500" />
	</node>
	<node id="-245497" lat="59.6722472263" lon="10.9049999917">
		<tag k="alt_name" v="Asperud, vestre;Asperud vestre" />
		<tag k="name" v="Vestre Asperud" />
		<tag k="place" v="farm" />
		<tag k="ssr:stedsnr" v="610494" />
	</node>
	<node id="-245496" lat="59.6821000031" lon="10.9371527715">
		<tag k="alt_name" v="Telterud" />
		<tag k="name" v="Teltrud" />
		<tag k="place" v="farm" />
		<tag k="ssr:stedsnr" v="610481" />
	</node>
	<node id="-245495" lat="59.6926527757" lon="10.8745833415">
		<tag k="alt_name" v="Løken, søndre;Løken søndre" />
		<tag k="name" v="Søndre Løken" />
		<tag k="old_name" v="Løken S" />
		<tag k="place" v="farm" />
		<tag k="ssr:stedsnr" v="610421" />
	</node>
	<node id="-245494" lat="59.7082250014" lon="10.8905583298">
		<tag k="name" v="Vaslestad" />
		<tag k="place" v="farm" />
		<tag k="ssr:stedsnr" v="610403" />
	</node>
	<node id="-245493" lat="59.7481222216" lon="10.8762972138">
		<tag k="name" v="Rud" />
		<tag k="place" v="farm" />
		<tag k="ssr:stedsnr" v="609478" />
	</node>
	<node id="-245492" lat="59.732080552" lon="10.8694249993">
		<tag k="name" v="Årås" />
		<tag k="place" v="farm" />
		<tag k="ssr:stedsnr" v="609584" />
	</node>
	<node id="-245491" lat="59.6211194488" lon="10.882883329">
		<tag k="fixme" v="consider place=hamlet" />
		<tag k="name" v="Bjertsrud" />
		<tag k="old_name" v="Bergsrud" />
		<tag k="place" v="farm" />
		<tag k="ssr:stedsnr" v="609339" />
	</node>
	<node id="-245490" lat="59.6298000042" lon="10.9031083405">
		<tag k="alt_name" v="Rustad, nedre;Rustad nedre" />
		<tag k="name" v="Nedre Rustad" />
		<tag k="place" v="farm" />
		<tag k="ssr:stedsnr" v="609335" />
	</node>
	<node id="-245489" lat="59.637649999" lon="10.9040972225">
		<tag k="name" v="Hallingen" />
		<tag k="place" v="isolated_dwelling" />
		<tag k="ssr:stedsnr" v="609298" />
	</node>
	<node id="-245488" lat="59.642509625" lon="10.9209407926">
		<tag k="fixme" v="consider place=hamlet" />
		<tag k="name" v="Berger" />
		<tag k="place" v="farm" />
		<tag k="ssr:stedsnr" v="609272" />
	</node>
	<node id="-245487" lat="59.6509083326" lon="10.9428305479">
		<tag k="fixme" v="consider place=hamlet" />
		<tag k="name" v="Karlsmyr" />
		<tag k="place" v="farm" />
		<tag k="ssr:stedsnr" v="609251" />
	</node>
	<node id="-245486" lat="59.6705888877" lon="10.9495749915">
		<tag k="alt_name" v="Hakkenebba" />
		<tag k="name" v="Hakenebba" />
		<tag k="place" v="farm" />
		<tag k="ssr:stedsnr" v="609457" />
	</node>
	<node id="-245482" lat="59.6979761685" lon="10.8864096807">
		<tag k="fixme" v="consider place=hamlet" />
		<tag k="name" v="Vestre Rodum" />
		<tag k="place" v="farm" />
		<tag k="ssr:stedsnr" v="587412" />
	</node>
	<node id="-245478" lat="59.7814499957" lon="10.7490527747">
		<tag k="name" v="Solheim" />
		<tag k="place" v="farm" />
		<tag k="ssr:stedsnr" v="569535" />
	</node>
	<node id="-245475" lat="59.6672546321" lon="10.8808141802">
		<tag k="name" v="Vestre Harastad" />
		<tag k="place" v="farm" />
		<tag k="ssr:stedsnr" v="567721" />
	</node>
	<node id="-245474" lat="59.7345583301" lon="10.8090916689">
		<tag k="name" v="Hauglandsbråten" />
		<tag k="place" v="locality" />
		<tag k="ssr:stedsnr" v="567569" />
	</node>
	<node id="-245471" lat="59.6495155916" lon="10.8724929172">
		<tag k="name" v="Myrvoll" />
		<tag k="place" v="farm" />
		<tag k="ssr:stedsnr" v="567513" />
	</node>
	<node id="-245469" lat="59.6641638913" lon="10.8920055538">
		<tag k="alt_name" v="Frestad nordre" />
		<tag k="name" v="Nordre Frestad" />
		<tag k="place" v="farm" />
		<tag k="ssr:stedsnr" v="567482" />
	</node>
	<node id="-245468" lat="59.7229166662" lon="10.86076388">
		<tag k="name" v="Kontra" />
		<tag k="place" v="locality" />
		<tag k="ssr:stedsnr" v="567383" />
	</node>
	<node id="-245467" lat="59.720891664" lon="10.8494333331">
		<tag k="alt_name" v="Sander østre" />
		<tag k="name" v="Østre Sander" />
		<tag k="place" v="farm" />
		<tag k="ssr:stedsnr" v="567378" />
	</node>
	<node id="-245465" lat="59.758155559" lon="10.8469027774">
		<tag k="name" v="Vevelstad" />
		<tag k="place" v="quarter" />
		<tag k="ssr:stedsnr" v="567368" />
	</node>
	<node id="-245464" lat="59.7213805579" lon="10.8867027852">
		<tag k="name" v="Måsahytta" />
		<tag k="place" v="isolated_dwelling" />
		<tag k="ssr:stedsnr" v="567362" />
	</node>
	<node id="-245462" lat="59.7221361104" lon="10.8694861084">
		<tag k="name" v="Rullestadbråten" />
		<tag k="place" v="farm" />
		<tag k="ssr:stedsnr" v="567358" />
	</node>
	<node id="-245458" lat="59.7794861122" lon="10.9197305542">
		<tag k="alt_name" v="Greverud, nordre;Greverud nordre" />
		<tag k="name" v="Nordre Greverud" />
		<tag k="place" v="farm" />
		<tag k="ssr:stedsnr" v="550418" />
	</node>
	<node id="-245455" lat="59.7616416647" lon="10.950613884">
		<tag k="alt_name" v="Bogerbråten" />
		<tag k="name" v="Bogebråtan" />
		<tag k="place" v="farm" />
		<tag k="ssr:stedsnr" v="550389" />
	</node>
	<node id="-245454" lat="59.7994861149" lon="10.934597225">
		<tag k="name" v="Sagstua" />
		<tag k="place" v="farm" />
		<tag k="ssr:stedsnr" v="550337" />
	</node>
	<node id="-245453" lat="59.7842361096" lon="10.7545916658">
		<tag k="alt_name" v="Oppegård, østre" />
		<tag k="name" v="Østre Oppegård" />
		<tag k="place" v="farm" />
		<tag k="ssr:stedsnr" v="550310" />
	</node>
	<node id="-245452" lat="59.7822333302" lon="10.8076388909">
		<tag k="alt_name" v="Østli (nedl.)" />
		<tag k="name" v="Østli" />
		<tag k="place" v="isolated_dwelling" />
		<tag k="ssr:stedsnr" v="550307" />
	</node>
	<node id="-245451" lat="59.7822222225" lon="10.8701527743">
		<tag k="name" v="Oksrud" />
		<tag k="place" v="farm" />
		<tag k="ssr:stedsnr" v="550304" />
	</node>
	<node id="-245449" lat="59.8156666654" lon="10.7475916603">
		<tag k="alt_name" v="Jonstrand" />
		<tag k="name" v="Jonstranda" />
		<tag k="place" v="isolated_dwelling" />
		<tag k="ssr:stedsnr" v="550274" />
	</node>
	<node id="-245447" lat="59.7261250018" lon="10.875916672">
		<tag k="name" v="Herusti" />
		<tag k="place" v="farm" />
		<tag k="ssr:stedsnr" v="549552" />
	</node>
	<node id="-245446" lat="59.7217999994" lon="10.9049472288">
		<tag k="name" v="Nes" />
		<tag k="place" v="farm" />
		<tag k="ssr:stedsnr" v="549551" />
	</node>
	<node id="-245445" lat="59.7171861144" lon="10.916847222">
		<tag k="name" v="Helgestad" />
		<tag k="place" v="farm" />
		<tag k="ssr:stedsnr" v="549539" />
	</node>
	<node id="-245444" lat="59.7422068316" lon="10.8668624452">
		<tag k="name" v="Bråten" />
		<tag k="place" v="isolated_dwelling" />
		<tag k="ssr:stedsnr" v="549481" />
	</node>
	<node id="-245443" lat="59.749380559" lon="10.9160583356">
		<tag k="name" v="Sørli" />
		<tag k="place" v="farm" />
		<tag k="ssr:stedsnr" v="549477" />
	</node>
	<node id="-245441" lat="59.6797916643" lon="10.9419916665">
		<tag k="name" v="Myrvoll" />
		<tag k="place" v="farm" />
		<tag k="ssr:stedsnr" v="549422" />
	</node>
	<node id="-245440" lat="59.7076888898" lon="10.9161083366">
		<tag k="name" v="Enga" />
		<tag k="place" v="farm" />
		<tag k="ssr:stedsnr" v="549374" />
	</node>
	<node id="-245439" lat="59.6403083302" lon="10.9087527786">
		<tag k="name" v="Hagen" />
		<tag k="place" v="farm" />
		<tag k="ssr:stedsnr" v="549288" />
	</node>
	<node id="-245438" lat="59.6663055587" lon="10.8999722184">
		<tag k="name" v="Slottet" />
		<tag k="place" v="farm" />
		<tag k="ssr:stedsnr" v="548504" />
	</node>
	<node id="-245433" lat="59.7537555577" lon="10.8365750025">
		<tag k="name" v="Foss" />
		<tag k="place" v="isolated_dwelling" />
		<tag k="ssr:stedsnr" v="430374" />
	</node>
	<node id="-245432" lat="59.8230444408" lon="10.8979916732">
		<tag k="amenity" v="school" />
		<tag k="name" v="Frambu" />
		<tag k="ssr:stedsnr" v="430286" />
	</node>
	<node id="-245431" lat="59.8171499982" lon="10.897488884">
		<tag k="name" v="Holtet" />
		<tag k="place" v="farm" />
		<tag k="ssr:stedsnr" v="430275" />
	</node>
	<node id="-245428" lat="59.8034833366" lon="10.7567333293">
		<tag k="name" v="Bjørnsrud" />
		<tag k="place" v="farm" />
		<tag k="ssr:stedsnr" v="430255" />
	</node>
	<node id="-245427" lat="59.8027805511" lon="10.9273888915">
		<tag k="name" v="Krokhol" />
		<tag k="place" v="farm" />
		<tag k="ssr:stedsnr" v="430251" />
	</node>
	<node id="-245425" lat="59.6924666654" lon="10.8618694432">
		<tag k="alt_name" v="Frogner, nordre;Frogner nordre" />
		<tag k="name" v="Nordre Frogner" />
		<tag k="place" v="farm" />
		<tag k="ssr:stedsnr" v="429400" />
	</node>
	<node id="-245424" lat="59.7655749983" lon="10.9393500065">
		<tag k="name" v="Mjøvik" />
		<tag k="place" v="farm" />
		<tag k="ssr:stedsnr" v="429399" />
	</node>
	<node id="-245422" lat="59.7956805531" lon="10.7344583329">
		<tag k="name" v="Prosted" />
		<tag k="place" v="isolated_dwelling" />
		<tag k="ssr:stedsnr" v="429346" />
	</node>
	<node id="-245420" lat="59.7963111107" lon="10.7942305636">
		<tag k="name" v="Åsen" />
		<tag k="place" v="isolated_dwelling" />
		<tag k="ssr:stedsnr" v="429339" />
	</node>
	<node id="-245418" lat="59.6913555557" lon="10.9128527696">
		<tag k="name" v="Hjell" />
		<tag k="place" v="farm" />
		<tag k="ssr:stedsnr" v="429425" />
	</node>
	<node id="-245416" lat="59.8206333313" lon="10.7878361039">
		<tag k="name" v="Li" />
		<tag k="place" v="farm" />
		<tag k="ssr:stedsnr" v="429287" />
	</node>
	<node id="-245415" lat="59.6950027781" lon="10.9289972164">
		<tag k="name" v="Lier" />
		<tag k="place" v="farm" />
		<tag k="ssr:stedsnr" v="428354" />
	</node>
	<node id="-245414" lat="59.6317000009" lon="10.9261611084">
		<tag k="fixme" v="consider place=hamlet" />
		<tag k="name" v="Ambjørnrud" />
		<tag k="place" v="farm" />
		<tag k="ssr:stedsnr" v="428285" />
	</node>
	<node id="-245413" lat="59.6342722249" lon="10.8771916633">
		<tag k="name" v="Dammen" />
		<tag k="place" v="locality" />
		<tag k="ssr:stedsnr" v="428282" />
	</node>
	<node id="-245412" lat="59.7399611146" lon="10.8223694368">
		<tag k="name" v="Haugland" />
		<tag k="place" v="farm" />
		<tag k="ssr:stedsnr" v="428456" />
	</node>
	<node id="-245411" lat="59.6614472177" lon="10.9505611183">
		<tag k="alt_name" v="Mørk, vestre;Mørk vestre" />
		<tag k="name" v="Vestre Mørk" />
		<tag k="place" v="farm" />
		<tag k="ssr:stedsnr" v="427505" />
	</node>
	<node id="-245410" lat="59.658216663" lon="10.9749388892">
		<tag k="alt_name" v="Rustad, østre;Rustad østre" />
		<tag k="name" v="Østre Rustad" />
		<tag k="place" v="farm" />
		<tag k="ssr:stedsnr" v="427497" />
	</node>
	<node id="-245409" lat="59.6614472243" lon="10.9665305578">
		<tag k="name" v="Fjerdingen" />
		<tag k="place" v="farm" />
		<tag k="ssr:stedsnr" v="427496" />
	</node>
	<node id="-245408" lat="59.7427190733" lon="10.9233607596">
		<tag k="name" v="Vestre Stunner" />
		<tag k="place" v="farm" />
		<tag k="ssr:stedsnr" v="421269" />
	</node>
	<node id="-245405" lat="59.6589861109" lon="10.9474694486">
		<tag k="fixme" v="consider place=suburb, village or hamlet" />
		<tag k="name" v="Skotbu" />
		<tag k="place" v="quarter" />
		<tag k="ssr:stedsnr" v="388691" />
	</node>
	<node id="-245404" lat="59.7665083314" lon="10.7388388807">
		<tag k="name" v="Trolldalshytta" />
		<tag k="place" v="isolated_dwelling" />
		<tag k="ssr:stedsnr" v="388492" />
	</node>
	<node id="-245400" lat="59.8043472206" lon="10.8218944483">
		<tag k="name" v="Nordre Ødegården" />
		<tag k="place" v="hamlet" />
		<tag k="ssr:stedsnr" v="387686" />
	</node>
	<node id="-245399" lat="59.8253861099" lon="10.7600361188">
		<tag k="name" v="Sandbuktfeltet" />
		<tag k="place" v="isolated_dwelling" />
		<tag k="ssr:stedsnr" v="387675" />
	</node>
	<node id="-245392" lat="59.7345333352" lon="10.8818055534">
		<tag k="name" v="Bjerknes" />
		<tag k="place" v="isolated_dwelling" />
		<tag k="ssr:stedsnr" v="386430" />
	</node>
	<node id="-245391" lat="59.7204138908" lon="10.8426805497">
		<tag k="amenity" v="school" />
		<tag k="name" v="Ski ungdomsskole" />
		<tag k="ssr:stedsnr" v="386394" />
	</node>
	<node id="-245390" lat="59.7219305551" lon="10.8583833365">
		<tag k="amenity" v="school" />
		<tag k="name" v="Drømtorp videregående skole" />
		<tag k="old_name" v="Kontra v.g. skole;Kontra" />
		<tag k="ssr:stedsnr" v="386383" />
	</node>
	<node id="-245385" lat="59.7770055545" lon="10.925300005">
		<tag k="name" v="Borgå" />
		<tag k="place" v="isolated_dwelling" />
		<tag k="ssr:stedsnr" v="386259" />
	</node>
	<node id="-245384" lat="59.6898361144" lon="10.9173861123">
		<tag k="alt_name" v="Jørenrud søndre" />
		<tag k="name" v="Søndre Jørenrud" />
		<tag k="place" v="farm" />
		<tag k="ssr:stedsnr" v="385542" />
	</node>
	<node id="-245383" lat="59.6813138883" lon="10.8836305511">
		<tag k="name" v="Sigtun" />
		<tag k="place" v="quarter" />
		<tag k="ssr:stedsnr" v="385541" />
	</node>
	<node id="-245381" lat="59.6743222267" lon="10.9167499918">
		<tag k="name" v="Langli" />
		<tag k="place" v="farm" />
		<tag k="ssr:stedsnr" v="385496" />
	</node>
	<node id="-245380" lat="59.6692305535" lon="10.9299944377">
		<tag k="name" v="Ødegården" />
		<tag k="place" v="isolated_dwelling" />
		<tag k="ssr:stedsnr" v="385493" />
	</node>
	<node id="-245378" lat="59.7597333299" lon="10.8291666591">
		<tag k="name" v="Smedsrud" />
		<tag k="place" v="farm" />
		<tag k="ssr:stedsnr" v="369356" />
	</node>
	<node id="-245376" lat="59.8066583376" lon="10.8841888833">
		<tag k="alt_name" v="Siggerudbråten" />
		<tag k="name" v="Siggerudbråtan" />
		<tag k="place" v="farm" />
		<tag k="ssr:stedsnr" v="369236" />
	</node>
	<node id="-245374" lat="59.7711972184" lon="10.8256249911">
		<tag k="name" v="Slåbråtan" />
		<tag k="old_name" v="Slåbråten" />
		<tag k="place" v="isolated_dwelling" />
		<tag k="ssr:stedsnr" v="368458" />
	</node>
	<node id="-245372" lat="59.761411111" lon="10.7359361195">
		<tag k="name" v="Sjødalenga" />
		<tag k="place" v="isolated_dwelling" />
		<tag k="ssr:stedsnr" v="368444" />
	</node>
	<node id="-245370" lat="59.7011278659" lon="10.8941923742">
		<tag k="fixme" v="consider place=hamlet" />
		<tag k="name" v="Nordby" />
		<tag k="place" v="farm" />
		<tag k="ssr:stedsnr" v="368419" />
	</node>
	<node id="-245369" lat="59.6985138881" lon="10.8932805474">
		<tag k="name" v="Mellegård" />
		<tag k="place" v="farm" />
		<tag k="ssr:stedsnr" v="368417" />
	</node>
	<node id="-245367" lat="59.7952888876" lon="10.7635999953">
		<tag k="alt_name" v="Bråte" />
		<tag k="name" v="Bråtan" />
		<tag k="old_name" v="Bråten" />
		<tag k="place" v="farm" />
		<tag k="ssr:stedsnr" v="368390" />
	</node>
	<node id="-245365" lat="59.7913999975" lon="10.7331666593">
		<tag k="alt_name" v="Bekkensten" />
		<tag k="name" v="Bekkenstein" />
		<tag k="place" v="isolated_dwelling" />
		<tag k="ssr:stedsnr" v="368369" />
	</node>
	<node id="-245362" lat="59.7880861133" lon="10.9101305579">
		<tag k="name" v="Holen" />
		<tag k="place" v="isolated_dwelling" />
		<tag k="ssr:stedsnr" v="368345" />
	</node>
	<node id="-245361" lat="59.7301583357" lon="10.8523055541">
		<tag k="name" v="Kverne" />
		<tag k="place" v="farm" />
		<tag k="ssr:stedsnr" v="367592" />
	</node>
	<node id="-245360" lat="59.7313527747" lon="10.9191166688">
		<tag k="alt_name" v="Bjerkeholmen" />
		<tag k="name" v="Holmen" />
		<tag k="place" v="farm" />
		<tag k="ssr:stedsnr" v="367548" />
	</node>
	<node id="-245356" lat="59.7413500009" lon="10.8459861124">
		<tag k="name" v="Ramstad" />
		<tag k="place" v="farm" />
		<tag k="ssr:stedsnr" v="367443" />
	</node>
	<node id="-245355" lat="59.749402775" lon="10.8874750019">
		<tag k="alt_name" v="Haugen, vestre;Haugen;Haugen vestre" />
		<tag k="name" v="Vestre Haugen" />
		<tag k="place" v="farm" />
		<tag k="ssr:stedsnr" v="367442" />
	</node>
	<node id="-245354" lat="59.6682638914" lon="10.8586249922">
		<tag k="name" v="Glenne" />
		<tag k="place" v="farm" />
		<tag k="ssr:stedsnr" v="367388" />
	</node>
	<node id="-245353" lat="59.6713805593" lon="10.8806527776">
		<tag k="name" v="Tomter" />
		<tag k="place" v="farm" />
		<tag k="ssr:stedsnr" v="367386" />
	</node>
	<node id="-245352" lat="59.6572916636" lon="10.9040027864">
		<tag k="name" v="Li" />
		<tag k="place" v="farm" />
		<tag k="ssr:stedsnr" v="367216" />
	</node>
	<node id="-245351" lat="59.666044442" lon="10.9548583263">
		<tag k="alt_name" v="Løvstad, vestre;Løvstad vestre" />
		<tag k="name" v="Vestre Løvstad" />
		<tag k="place" v="farm" />
		<tag k="ssr:stedsnr" v="366496" />
	</node>
	<node id="-245346" lat="59.6943361085" lon="10.9043694481">
		<tag k="alt_name" v="Østby østre" />
		<tag k="name" v="Østre Østby" />
		<tag k="place" v="farm" />
		<tag k="ssr:stedsnr" v="341182" />
	</node>
	<node id="-245342" lat="59.637758331" lon="10.9597583349">
		<tag k="alt_name" v="Gusrud søndre" />
		<tag k="name" v="Søndre Gusrud" />
		<tag k="place" v="farm" />
		<tag k="ssr:stedsnr" v="326594" />
	</node>
	<node id="-245340" lat="59.6579500044" lon="10.8566166667">
		<tag k="name" v="Nordre Stønerud" />
		<tag k="place" v="farm" />
		<tag k="ssr:stedsnr" v="325515" />
	</node>
	<node id="-245339" lat="59.6587527821" lon="10.9142666687">
		<tag k="name" v="Fjellheim" />
		<tag k="place" v="isolated_dwelling" />
		<tag k="ssr:stedsnr" v="325503" />
	</node>
	<node id="-245337" lat="59.6723111131" lon="10.8925888926">
		<tag k="alt_name" v="Skjønhaug østre" />
		<tag k="name" v="Østre Skjønhaug" />
		<tag k="place" v="farm" />
		<tag k="ssr:stedsnr" v="325485" />
	</node>
	<node id="-245336" lat="59.7503555578" lon="10.891861109">
		<tag k="alt_name" v="Eikjol midtre" />
		<tag k="name" v="Midtre Eikjol" />
		<tag k="place" v="farm" />
		<tag k="ssr:stedsnr" v="325464" />
	</node>
	<node id="-245335" lat="59.7253500003" lon="10.8326722286">
		<tag k="amenity" v="school" />
		<tag k="name" v="Hebekk skole" />
		<tag k="ssr:stedsnr" v="325456" />
	</node>
	<node id="-245333" lat="59.7454638871" lon="10.9358361189">
		<tag k="name" v="Stubberud" />
		<tag k="place" v="farm" />
		<tag k="ssr:stedsnr" v="325446" />
	</node>
	<node id="-245331" lat="59.7405027759" lon="10.8405250086">
		<tag k="name" v="Linås" />
		<tag k="place" v="isolated_dwelling" />
		<tag k="ssr:stedsnr" v="325437" />
	</node>
	<node id="-245329" lat="59.8208916693" lon="10.9044250043">
		<tag k="name" v="Langgård" />
		<tag k="place" v="farm" />
		<tag k="ssr:stedsnr" v="325371" />
	</node>
	<node id="-245317" lat="59.7669611105" lon="10.8340249995">
		<tag k="name" v="Dalen" />
		<tag k="place" v="farm" />
		<tag k="ssr:stedsnr" v="308391" />
	</node>
	<node id="-245316" lat="59.7776583372" lon="10.9182722269">
		<tag k="alt_name" v="Greverud, søndre;Greverud søndre" />
		<tag k="name" v="Søndre Greverud" />
		<tag k="place" v="farm" />
		<tag k="ssr:stedsnr" v="308387" />
	</node>
	<node id="-245315" lat="59.7632805548" lon="10.7456000057">
		<tag k="name" v="Sjødal" />
		<tag k="place" v="farm" />
		<tag k="ssr:stedsnr" v="308383" />
	</node>
	<node id="-245314" lat="59.7703083339" lon="10.914091663">
		<tag k="alt_name" v="Brubråten" />
		<tag k="name" v="Brubråtan" />
		<tag k="place" v="farm" />
		<tag k="ssr:stedsnr" v="308369" />
	</node>
	<node id="-245311" lat="59.7899555523" lon="10.8813750021">
		<tag k="name" v="Hyttenga" />
		<tag k="place" v="farm" />
		<tag k="ssr:stedsnr" v="308304" />
	</node>
	<node id="-245309" lat="59.7885277778" lon="10.9673750014">
		<tag k="name" v="Fjellsætra" />
		<tag k="place" v="farm" />
		<tag k="ssr:stedsnr" v="308296" />
	</node>
	<node id="-245308" lat="59.7799138898" lon="10.7469833327">
		<tag k="name" v="Bålerud" />
		<tag k="place" v="farm" />
		<tag k="ssr:stedsnr" v="308286" />
	</node>
	<node id="-245307" lat="59.7785194461" lon="10.8202527775">
		<tag k="alt_name" v="Nylendet (nedl.)" />
		<tag k="name" v="Nylenda" />
		<tag k="place" v="isolated_dwelling" />
		<tag k="ssr:stedsnr" v="308285" />
	</node>
	<node id="-245306" lat="59.7203611108" lon="10.8949250018">
		<tag k="name" v="Nære" />
		<tag k="place" v="farm" />
		<tag k="ssr:stedsnr" v="307576" />
	</node>
	<node id="-245305" lat="59.6813305563" lon="10.883594452">
		<tag k="name" v="Kråkstad" />
		<tag k="place" v="village" />
		<tag k="ssr:stedsnr" v="307451" />
	</node>
	<node id="-245304" lat="59.6989666653" lon="10.9083305596">
		<tag k="alt_name" v="Biltvet" />
		<tag k="name" v="Beltvet" />
		<tag k="place" v="farm" />
		<tag k="ssr:stedsnr" v="307398" />
	</node>
	<node id="-245303" lat="59.6943277794" lon="10.8974388902">
		<tag k="alt_name" v="Østby vestre" />
		<tag k="name" v="Vestre Østby" />
		<tag k="place" v="farm" />
		<tag k="ssr:stedsnr" v="307397" />
	</node>
	<node id="-245302" lat="59.7338083351" lon="10.8589499973">
		<tag k="name" v="Steganstad" />
		<tag k="place" v="farm" />
		<tag k="ssr:stedsnr" v="306576" />
	</node>
	<node id="-245301" lat="59.7289324282" lon="10.9709014072">
		<tag k="name" v="Langbråtan" />
		<tag k="place" v="farm" />
		<tag k="ssr:stedsnr" v="306562" />
	</node>
	<node id="-245300" lat="59.7314500016" lon="10.8907194473">
		<tag k="name" v="Nordre Midsjø" />
		<tag k="place" v="farm" />
		<tag k="ssr:stedsnr" v="306556" />
	</node>
	<node id="-245299" lat="59.7214250031" lon="10.8712444443">
		<tag k="alt_name" v="Ski, nordre" />
		<tag k="name" v="Nordre Ski" />
		<tag k="place" v="farm" />
		<tag k="ssr:stedsnr" v="306552" />
	</node>
	<node id="-245297" lat="59.7446302103" lon="10.92804678">
		<tag k="name" v="Skeidarkollen" />
		<tag k="place" v="isolated_dwelling" />
		<tag k="ssr:stedsnr" v="306481" />
	</node>
	<node id="-245295" lat="59.6488250043" lon="10.8793583379">
		<tag k="alt_name" v="Holt, store;Holt store" />
		<tag k="name" v="Store Holt" />
		<tag k="place" v="farm" />
		<tag k="ssr:stedsnr" v="306258" />
	</node>
	<node id="-245294" lat="59.6475555597" lon="10.9558166608">
		<tag k="name" v="Grønlund" />
		<tag k="place" v="farm" />
		<tag k="ssr:stedsnr" v="306246" />
	</node>
	<node id="-245293" lat="59.7752749996" lon="10.8013888805">
		<tag k="fixme" v="consider place=suburb, village or hamlet" />
		<tag k="name" v="Greverud" />
		<tag k="place" v="quarter" />
		<tag k="ssr:stedsnr" v="207655" />
	</node>
	<node id="-245292" lat="59.7853638902" lon="10.8001722262">
		<tag k="fixme" v="consider place=suburb, village or hamlet" />
		<tag k="name" v="Myrvoll" />
		<tag k="place" v="quarter" />
		<tag k="ssr:stedsnr" v="207555" />
	</node>
	<node id="-245291" lat="59.7900666689" lon="10.8007972216">
		<tag k="building" v="commercial" />
		<tag k="name" v="Kolbotn trelast" />
		<tag k="ssr:stedsnr" v="206499" />
	</node>
	<node id="-245288" lat="59.7929777819" lon="10.7360694519">
		<tag k="name" v="Bekkenstenfeltet" />
		<tag k="place" v="isolated_dwelling" />
		<tag k="ssr:stedsnr" v="205713" />
	</node>
	<node id="-245285" lat="59.769569442" lon="10.7872083408">
		<tag k="fixme" v="consider natural=beach + surface=sand" />
		<tag k="leisure" v="swimming_area" />
		<tag k="name" v="Julekvelden" />
		<tag k="place" v="locality" />
		<tag k="ssr:stedsnr" v="205131" />
	</node>
	<node id="-245284" lat="59.8114277787" lon="10.7971055634">
		<tag k="amenity" v="townhall" />
		<tag k="name" v="Oppegård rådhus" />
		<tag k="ssr:stedsnr" v="205068" />
	</node>
	<node id="-245283" lat="59.7203805543" lon="10.9229944431">
		<tag k="name" v="Smerta" />
		<tag k="place" v="farm" />
		<tag k="ssr:stedsnr" v="204583" />
	</node>
	<node id="-245282" lat="59.7364194486" lon="10.8285277855">
		<tag k="name" v="Tallaksrudødegården" />
		<tag k="place" v="farm" />
		<tag k="ssr:stedsnr" v="204555" />
	</node>
	<node id="-245280" lat="59.6383972215" lon="10.9591222245">
		<tag k="alt_name" v="Gusrud mellom" />
		<tag k="name" v="Mellom-Gusrud" />
		<tag k="place" v="farm" />
		<tag k="ssr:stedsnr" v="204505" />
	</node>
	<node id="-245279" lat="59.6460777808" lon="10.957816667">
		<tag k="name" v="Slemmestad" />
		<tag k="place" v="farm" />
		<tag k="ssr:stedsnr" v="204502" />
	</node>
	<node id="-245277" lat="59.7017249987" lon="10.885063894">
		<tag k="name" v="Østli" />
		<tag k="place" v="farm" />
		<tag k="ssr:stedsnr" v="204493" />
	</node>
	<node id="-245274" lat="59.6621750039" lon="10.8708222313">
		<tag k="name" v="Tronsrud" />
		<tag k="place" v="farm" />
		<tag k="ssr:stedsnr" v="204447" />
	</node>
	<node id="-245273" lat="59.6674666661" lon="10.9275000054">
		<tag k="name" v="Skoglund" />
		<tag k="place" v="isolated_dwelling" />
		<tag k="ssr:stedsnr" v="204435" />
	</node>
	<node id="-245267" lat="59.737427779" lon="10.9371888894">
		<tag k="name" v="Granheim" />
		<tag k="place" v="farm" />
		<tag k="ssr:stedsnr" v="204386" />
	</node>
	<node id="-245262" lat="59.8150000003" lon="10.8212444486">
		<tag k="name" v="Tårnåsen" />
		<tag k="place" v="isolated_dwelling" />
		<tag k="ssr:stedsnr" v="187502" />
	</node>
	<node id="-245261" lat="59.7552888884" lon="10.8660749967">
		<tag k="alt_name" v="Bråten" />
		<tag k="name" v="Bråtan" />
		<tag k="place" v="farm" />
		<tag k="ssr:stedsnr" v="187457" />
	</node>
	<node id="-245260" lat="59.7521425586" lon="10.9337939963">
		<tag k="fixme" v="consider place=hamlet" />
		<tag k="name" v="Boger" />
		<tag k="place" v="farm" />
		<tag k="ssr:stedsnr" v="187455" />
	</node>
	<node id="-245259" lat="59.7657583348" lon="10.733299996">
		<tag k="name" v="Sjødalstrand" />
		<tag k="place" v="farm" />
		<tag k="ssr:stedsnr" v="187383" />
	</node>
	<node id="-245258" lat="59.7559805522" lon="10.9226527705">
		<tag k="name" v="Pungen" />
		<tag k="old_name" v="Pongen" />
		<tag k="place" v="farm" />
		<tag k="ssr:stedsnr" v="187372" />
	</node>
	<node id="-245256" lat="59.7584499995" lon="10.8319750068">
		<tag k="name" v="Sagstua" />
		<tag k="place" v="farm" />
		<tag k="ssr:stedsnr" v="187362" />
	</node>
	<node id="-245255" lat="59.7871749989" lon="10.9023277821">
		<tag k="name" v="Brusaga" />
		<tag k="place" v="isolated_dwelling" />
		<tag k="ssr:stedsnr" v="187317" />
	</node>
	<node id="-245254" lat="59.7816138857" lon="10.7410750048">
		<tag k="fixme" v="consider place=hamlet" />
		<tag k="name" v="Svartskog" />
		<tag k="place" v="village" />
		<tag k="ssr:stedsnr" v="187313" />
	</node>
	<node id="-245249" lat="59.6909722201" lon="10.9289777829">
		<tag k="name" v="Nyborg" />
		<tag k="place" v="farm" />
		<tag k="ssr:stedsnr" v="186480" />
	</node>
	<node id="-245248" lat="59.6896000006" lon="10.9175305636">
		<tag k="name" v="Jørenrud" />
		<tag k="place" v="farm" />
		<tag k="ssr:stedsnr" v="186479" />
	</node>
	<node id="-245246" lat="59.7717654026" lon="10.9343526775">
		<tag k="alt_name" v="Halvardbu" />
		<tag k="name" v="Halvardsbu" />
		<tag k="place" v="isolated_dwelling" />
		<tag k="ssr:stedsnr" v="186459" />
	</node>
	<node id="-245245" lat="59.689563893" lon="10.867166671">
		<tag k="alt_name" v="Frogner, søndre;Frogner søndre" />
		<tag k="name" v="Søndre Frogner" />
		<tag k="place" v="farm" />
		<tag k="ssr:stedsnr" v="186458" />
	</node>
	<node id="-245243" lat="59.8024249992" lon="10.7365027732">
		<tag k="name" v="Strandskogen" />
		<tag k="place" v="isolated_dwelling" />
		<tag k="ssr:stedsnr" v="186381" />
	</node>
	<node id="-245241" lat="59.7896138892" lon="10.8188361037">
		<tag k="name" v="Sønsterud" />
		<tag k="place" v="farm" />
		<tag k="ssr:stedsnr" v="186348" />
	</node>
	<node id="-245240" lat="59.7845972265" lon="10.7667333397">
		<tag k="name" v="Dal" />
		<tag k="place" v="farm" />
		<tag k="ssr:stedsnr" v="186335" />
	</node>
	<node id="-245239" lat="59.7478000011" lon="10.8276416597">
		<tag k="alt_name" v="Dal;Dal nordre" />
		<tag k="name" v="Nordre Dal" />
		<tag k="place" v="farm" />
		<tag k="ssr:stedsnr" v="186023" />
	</node>
	<node id="-245238" lat="59.7024083354" lon="10.832561111">
		<tag k="alt_name" v="Halstad;Halstad søndre" />
		<tag k="name" v="Søndre Halstad" />
		<tag k="place" v="farm" />
		<tag k="ssr:stedsnr" v="186016" />
	</node>
	<node id="-245237" lat="59.7394472259" lon="10.970702774">
		<tag k="name" v="Høybråten" />
		<tag k="place" v="farm" />
		<tag k="ssr:stedsnr" v="185552" />
	</node>
	<node id="-245236" lat="59.7364750014" lon="10.874263888">
		<tag k="name" v="Holm" />
		<tag k="place" v="farm" />
		<tag k="ssr:stedsnr" v="185537" />
	</node>
	<node id="-245235" lat="59.7279416677" lon="10.887994437">
		<tag k="name" v="Søndre Midsjø" />
		<tag k="place" v="farm" />
		<tag k="ssr:stedsnr" v="185534" />
	</node>
	<node id="-245234" lat="59.7129944413" lon="10.8760416639">
		<tag k="alt_name" v="Ski, søndre" />
		<tag k="name" v="Søndre Ski" />
		<tag k="place" v="farm" />
		<tag k="ssr:stedsnr" v="185513" />
	</node>
	<node id="-245233" lat="59.7146250019" lon="10.8594000062">
		<tag k="name" v="Drømtorp" />
		<tag k="place" v="farm" />
		<tag k="ssr:stedsnr" v="185504" />
	</node>
	<node id="-245232" lat="59.7434222207" lon="10.8582722245">
		<tag k="name" v="Steganstadhagen" />
		<tag k="place" v="farm" />
		<tag k="ssr:stedsnr" v="185468" />
	</node>
	<node id="-245231" lat="59.747766671" lon="10.9422749991">
		<tag k="fixme" v="multiple name tags, choose one and add the other to alt_name" />
		<tag k="name" v="Bergsenga;Boger" />
		<tag k="place" v="farm" />
		<tag k="ssr:stedsnr" v="185463" />
	</node>
	<node id="-245230" lat="59.6609499999" lon="10.9091972309">
		<tag k="name" v="Myrvoll" />
		<tag k="place" v="farm" />
		<tag k="ssr:stedsnr" v="185450" />
	</node>
	<node id="-245229" lat="59.6552694439" lon="10.9720861081">
		<tag k="alt_name" v="Rustad, vestre;Rustad vestre" />
		<tag k="name" v="Vestre Rustad" />
		<tag k="place" v="farm" />
		<tag k="ssr:stedsnr" v="185446" />
	</node>
	<node id="-245228" lat="59.6434750014" lon="10.9025111081">
		<tag k="fixme" v="consider place=hamlet" />
		<tag k="name" v="Alvum" />
		<tag k="place" v="farm" />
		<tag k="ssr:stedsnr" v="185268" />
	</node>
	<node id="-245226" lat="59.7919972193" lon="10.8142166645">
		<tag k="name" v="Sofiemyråsen" />
		<tag k="place" v="quarter" />
		<tag k="ssr:stedsnr" v="144703" />
	</node>
	<node id="-245225" lat="59.8162083313" lon="10.7947916629">
		<tag k="name" v="Solkollen" />
		<tag k="place" v="quarter" />
		<tag k="ssr:stedsnr" v="144702" />
	</node>
	<node id="-245224" lat="59.7912611127" lon="10.763938887">
		<tag k="name" v="Åsen" />
		<tag k="place" v="farm" />
		<tag k="ssr:stedsnr" v="144555" />
	</node>
	<node id="-245223" lat="59.7269527739" lon="10.8232138976">
		<tag k="amenity" v="nursing_home" />
		<tag k="name" v="Dagbo" />
		<tag k="ssr:stedsnr" v="143623" />
	</node>
	<node id="-245220" lat="59.6579444458" lon="10.9816138923">
		<tag k="name" v="Nordenga" />
		<tag k="place" v="farm" />
		<tag k="ssr:stedsnr" v="143551" />
	</node>
	<node id="-245219" lat="59.6587527739" lon="10.948627778">
		<tag k="amenity" v="school" />
		<tag k="name" v="Skotbu skole og barnehage" />
		<tag k="old_name" v="Mørk skole" />
		<tag k="ssr:stedsnr" v="143550" />
	</node>
	<node id="-245218" lat="59.7012722244" lon="10.8653277709">
		<tag k="name" v="Engsødegården" />
		<tag k="place" v="farm" />
		<tag k="ssr:stedsnr" v="143529" />
	</node>
	<node id="-245216" lat="59.6671250021" lon="10.8550833329">
		<tag k="alt_name" v="Glenne søndre" />
		<tag k="name" v="Søndre Glenne" />
		<tag k="place" v="farm" />
		<tag k="ssr:stedsnr" v="143501" />
	</node>
	<node id="-245213" lat="59.7294861126" lon="10.8448083254">
		<tag k="name" v="Speiderhuset" />
		<tag k="place" v="isolated_dwelling" />
		<tag k="ssr:stedsnr" v="143458" />
	</node>
	<node id="-245212" lat="59.7437277746" lon="10.8812277798">
		<tag k="name" v="Nordli" />
		<tag k="place" v="farm" />
		<tag k="ssr:stedsnr" v="143451" />
	</node>
	<node id="-245209" lat="59.7564055593" lon="10.8168416756">
		<tag k="alt_name" v="Busterud" />
		<tag k="name" v="Karlsro" />
		<tag k="place" v="isolated_dwelling" />
		<tag k="ssr:stedsnr" v="143402" />
	</node>
	<node id="-245208" lat="59.7078250042" lon="10.8416027796">
		<tag k="alt_name" v="Finstadtun" />
		<tag k="amenity" v="nursing_home" />
		<tag k="name" v="Finstadtunet" />
		<tag k="ssr:stedsnr" v="143371" />
	</node>
	<node id="-245202" lat="59.7975111139" lon="10.9391027753">
		<tag k="name" v="Høgda" />
		<tag k="place" v="isolated_dwelling" />
		<tag k="ssr:stedsnr" v="143252" />
	</node>
	<node id="-245196" lat="59.7697888931" lon="10.9226833417">
		<tag k="alt_name" v="Karlsrud, lille" />
		<tag k="name" v="Lille Karlsrud" />
		<tag k="place" v="farm" />
		<tag k="ssr:stedsnr" v="126401" />
	</node>
	<node id="-245195" lat="59.7592833305" lon="10.9289777703">
		<tag k="name" v="Kile" />
		<tag k="place" v="farm" />
		<tag k="ssr:stedsnr" v="126396" />
	</node>
	<node id="-245194" lat="59.761099998" lon="10.8309249911">
		<tag k="name" v="Møllerenga" />
		<tag k="place" v="farm" />
		<tag k="ssr:stedsnr" v="126387" />
	</node>
	<node id="-245184" lat="59.6964944454" lon="10.9090333419">
		<tag k="name" v="Rud" />
		<tag k="place" v="farm" />
		<tag k="ssr:stedsnr" v="125414" />
	</node>
	<node id="-245183" lat="59.7109861088" lon="10.910199995">
		<tag k="name" v="Asgjerrud" />
		<tag k="place" v="farm" />
		<tag k="ssr:stedsnr" v="125394" />
	</node>
	<node id="-245178" lat="59.7782527776" lon="10.9075638873">
		<tag k="alt_name" v="Bru, store;Bru" />
		<tag k="name" v="Store Bru" />
		<tag k="place" v="farm" />
		<tag k="ssr:stedsnr" v="125338" />
	</node>
	<node id="-245176" lat="59.7268361149" lon="10.8935249943">
		<tag k="name" v="Lunder" />
		<tag k="place" v="farm" />
		<tag k="ssr:stedsnr" v="124519" />
	</node>
	<node id="-245174" lat="59.7418666669" lon="10.8979249927">
		<tag k="name" v="Solberg" />
		<tag k="place" v="farm" />
		<tag k="ssr:stedsnr" v="124452" />
	</node>
	<node id="-245173" lat="59.7414055539" lon="10.9477027768">
		<tag k="alt_name" v="Skjeggstad" />
		<tag k="name" v="Skjegstad" />
		<tag k="place" v="farm" />
		<tag k="ssr:stedsnr" v="124448" />
	</node>
	<node id="-245172" lat="59.6707528033" lon="10.8362650477">
		<tag k="fixme" v="multiple name tags, choose one and add the other to alt_name" />
		<tag k="name" v="Søndre Gryteland;Store Gryteland" />
		<tag k="place" v="farm" />
		<tag k="ssr:stedsnr" v="124394" />
	</node>
	<node id="-245171" lat="59.6729749971" lon="10.8728388928">
		<tag k="name" v="Bjastad" />
		<tag k="place" v="farm" />
		<tag k="ssr:stedsnr" v="124390" />
	</node>
	<node id="-245170" lat="59.6419444442" lon="10.9153638845">
		<tag k="alt_name" v="Nøkleby, nordre;Nøkleby" />
		<tag k="name" v="Nordre Nøkleby" />
		<tag k="place" v="farm" />
		<tag k="ssr:stedsnr" v="124236" />
	</node>
	<node id="-245169" lat="59.647438887" lon="10.9150194426">
		<tag k="fixme" v="consider place=hamlet" />
		<tag k="name" v="Kvillese" />
		<tag k="place" v="farm" />
		<tag k="ssr:stedsnr" v="124235" />
	</node>
	<node id="-245168" lat="59.6404472224" lon="10.881191675">
		<tag k="fixme" v="consider place=hamlet" />
		<tag k="name" v="Jaer" />
		<tag k="place" v="farm" />
		<tag k="ssr:stedsnr" v="124233" />
	</node>
	<node id="-245167" lat="59.6449638885" lon="10.8742833283">
		<tag k="alt_name" v="Holt, søndre;Holt søndre" />
		<tag k="name" v="Søndre Holt" />
		<tag k="place" v="farm" />
		<tag k="ssr:stedsnr" v="124228" />
	</node>
	<node id="-245165" lat="59.8105611076" lon="10.8038916656">
		<tag k="name" v="Kolbotn" />
		<tag k="place" v="village" />
		<tag k="ssr:stedsnr" v="85582" />
	</node>
	<node id="-245164" lat="59.7659583311" lon="10.7388138955">
		<tag k="name" v="Guristuen" />
		<tag k="place" v="isolated_dwelling" />
		<tag k="ssr:stedsnr" v="85445" />
	</node>
	<node id="-245159" lat="59.7287222262" lon="10.8233500038">
		<tag k="name" v="Kringsjå" />
		<tag k="place" v="locality" />
		<tag k="ssr:stedsnr" v="83589" />
	</node>
	<node id="-245151" lat="59.7098388851" lon="10.9459500002">
		<tag k="name" v="Bordhytta" />
		<tag k="place" v="isolated_dwelling" />
		<tag k="ssr:stedsnr" v="82543" />
	</node>
	<node id="-245149" lat="59.6665410096" lon="10.9329650721">
		<tag k="name" v="Kråkås" />
		<tag k="place" v="isolated_dwelling" />
		<tag k="ssr:stedsnr" v="82500" />
	</node>
	<node id="-245146" lat="59.7288361135" lon="10.8662611041">
		<tag k="name" v="Furumo" />
		<tag k="place" v="farm" />
		<tag k="ssr:stedsnr" v="82458" />
	</node>
	<node id="-245144" lat="59.7204166695" lon="10.8388583283">
		<tag k="amenity" v="townhall" />
		<tag k="name" v="Ski rådhus" />
		<tag k="ssr:stedsnr" v="82392" />
	</node>
	<node id="-245143" lat="59.7163052326" lon="10.8436460571">
		<tag k="fixme" v="consider place=hamlet" />
		<tag k="name" v="Skoro" />
		<tag k="place" v="farm" />
		<tag k="ssr:stedsnr" v="82388" />
	</node>
	<node id="-245141" lat="59.6908638909" lon="10.9179305516">
		<tag k="alt_name" v="Jørenrud nordre" />
		<tag k="name" v="Nordre Jørenrud" />
		<tag k="place" v="farm" />
		<tag k="ssr:stedsnr" v="82532" />
	</node>
	<node id="-245135" lat="59.7505916695" lon="10.8647472146">
		<tag k="alt_name" v="Bøler;Bøler nordre" />
		<tag k="name" v="Nordre Bøler" />
		<tag k="place" v="farm" />
		<tag k="ssr:stedsnr" v="66458" />
	</node>
	<node id="-245134" lat="59.8100638919" lon="10.7896222197">
		<tag k="fixme" v="consider place=suburb, village or hamlet" />
		<tag k="name" v="Ingieråsen" />
		<tag k="place" v="quarter" />
		<tag k="ssr:stedsnr" v="66245" />
	</node>
	<node id="-245133" lat="59.8001277806" lon="10.8853861083">
		<tag k="name" v="Siggerudsaga" />
		<tag k="place" v="isolated_dwelling" />
		<tag k="ssr:stedsnr" v="66238" />
	</node>
	<node id="-245132" lat="59.6881111078" lon="10.9357222203">
		<tag k="alt_name" v="Klemetsrud" />
		<tag k="name" v="Klemmetsrud" />
		<tag k="place" v="farm" />
		<tag k="ssr:stedsnr" v="65424" />
	</node>
	<node id="-245131" lat="59.6845527764" lon="10.9437611168">
		<tag k="name" v="Englund" />
		<tag k="place" v="farm" />
		<tag k="ssr:stedsnr" v="65423" />
	</node>
	<node id="-245129" lat="59.6860722233" lon="10.9005972272">
		<tag k="alt_name" v="Missum, nordre;Missum nordre" />
		<tag k="name" v="Nordre Missum" />
		<tag k="place" v="farm" />
		<tag k="ssr:stedsnr" v="65420" />
	</node>
	<node id="-245128" lat="59.6906499959" lon="10.86574722">
		<tag k="alt_name" v="Frogner, midtre;Frogner" />
		<tag k="name" v="Midtre Frogner" />
		<tag k="place" v="farm" />
		<tag k="ssr:stedsnr" v="65398" />
	</node>
	<node id="-245125" lat="59.8139555549" lon="10.7648666613">
		<tag k="name" v="Hvitebjørn" />
		<tag k="place" v="farm" />
		<tag k="ssr:stedsnr" v="65266" />
	</node>
	<node id="-245124" lat="59.8159472198" lon="10.9041361123">
		<tag k="name" v="Østby" />
		<tag k="place" v="farm" />
		<tag k="ssr:stedsnr" v="65256" />
	</node>
	<node id="-245122" lat="59.7301861132" lon="10.9161000083">
		<tag k="name" v="Neshøgda" />
		<tag k="place" v="farm" />
		<tag k="ssr:stedsnr" v="64586" />
	</node>
	<node id="-245119" lat="59.6975117526" lon="10.8583473929">
		<tag k="fixme" v="consider place=hamlet" />
		<tag k="name" v="Eng" />
		<tag k="place" v="farm" />
		<tag k="ssr:stedsnr" v="64387" />
	</node>
	<node id="-245118" lat="59.6974525654" lon="10.890004884">
		<tag k="name" v="Rodum" />
		<tag k="old_name" v="Rodim;Rodheim" />
		<tag k="place" v="hamlet" />
		<tag k="ssr:stedsnr" v="64384" />
	</node>
	<node id="-245117" lat="59.6397805519" lon="10.9122249918">
		<tag k="alt_name" v="Nøkleby, søndre;Nøkleby søndre" />
		<tag k="name" v="Søndre Nøkleby" />
		<tag k="place" v="farm" />
		<tag k="ssr:stedsnr" v="63308" />
	</node>
	<node id="-245116" lat="59.6513388909" lon="10.9088111145">
		<tag k="name" v="Audenbøl" />
		<tag k="place" v="farm" />
		<tag k="ssr:stedsnr" v="63283" />
	</node>
	<node id="-245108" lat="59.7265888912" lon="10.8304722193">
		<tag k="fixme" v="consider place=hamlet" />
		<tag k="name" v="Hebekk" />
		<tag k="old_name" v="Hebæk" />
		<tag k="place" v="farm" />
		<tag k="ssr:stedsnr" v="22619" />
	</node>
	<node id="-245103" lat="59.7098274342" lon="10.8771777293">
		<tag k="fixme" v="consider place=hamlet" />
		<tag k="name" v="Kjeppestad" />
		<tag k="place" v="farm" />
		<tag k="ssr:stedsnr" v="22368" />
	</node>
	<node id="-245102" lat="59.724288886" lon="10.8694249992">
		<tag k="name" v="Klokkerud" />
		<tag k="place" v="farm" />
		<tag k="ssr:stedsnr" v="22364" />
	</node>
	<node id="-245101" lat="59.7084305589" lon="10.8846861074">
		<tag k="alt_name" v="Kjeppestad østre" />
		<tag k="name" v="Østre Kjeppestad" />
		<tag k="place" v="farm" />
		<tag k="ssr:stedsnr" v="22359" />
	</node>
	<node id="-245098" lat="59.6466750008" lon="10.9611527768">
		<tag k="name" v="Hjemmen" />
		<tag k="place" v="farm" />
		<tag k="ssr:stedsnr" v="22550" />
	</node>
	<node id="-245097" lat="59.7005222246" lon="10.8932583391">
		<tag k="alt_name" v="Nordby søndre" />
		<tag k="name" v="Søndre Nordby" />
		<tag k="place" v="farm" />
		<tag k="ssr:stedsnr" v="22537" />
	</node>
	<node id="-245091" lat="59.7790888909" lon="10.9112666679">
		<tag k="name" v="Bru" />
		<tag k="place" v="hamlet" />
		<tag k="ssr:stedsnr" v="22246" />
	</node>
	<node id="-245088" lat="59.7537083333" lon="10.9127666687">
		<tag k="alt_name" v="Solberg, østre" />
		<tag k="name" v="Østre Solberg" />
		<tag k="place" v="farm" />
		<tag k="ssr:stedsnr" v="5467" />
	</node>
	<node id="-245086" lat="59.7570333333" lon="10.9322166699">
		<tag k="alt_name" v="Moseby" />
		<tag k="name" v="Måsaby" />
		<tag k="place" v="farm" />
		<tag k="ssr:stedsnr" v="5387" />
	</node>
	<node id="-245085" lat="59.7628583346" lon="10.9149916663">
		<tag k="name" v="Sandvoll" />
		<tag k="place" v="farm" />
		<tag k="ssr:stedsnr" v="5383" />
	</node>
	<node id="-245084" lat="59.7597305545" lon="10.8415416667">
		<tag k="name" v="Vevelstad" />
		<tag k="place" v="isolated_dwelling" />
		<tag k="ssr:stedsnr" v="5379" />
	</node>
	<node id="-245083" lat="59.8272138898" lon="10.9181138869">
		<tag k="name" v="Tømmerhol" />
		<tag k="place" v="isolated_dwelling" />
		<tag k="ssr:stedsnr" v="5288" />
	</node>
	<node id="-245079" lat="59.6870277817" lon="10.9355888883">
		<tag k="alt_name" v="Torvet" />
		<tag k="name" v="Torget" />
		<tag k="place" v="farm" />
		<tag k="ssr:stedsnr" v="4429" />
	</node>
	<node id="-245077" lat="59.6923138933" lon="10.8796222189">
		<tag k="name" v="Vang" />
		<tag k="place" v="farm" />
		<tag k="ssr:stedsnr" v="4422" />
	</node>
	<node id="-245076" lat="59.6848749978" lon="10.8624166661">
		<tag k="name" v="Bråte" />
		<tag k="place" v="farm" />
		<tag k="ssr:stedsnr" v="4421" />
	</node>
	<node id="-245074" lat="59.6931861145" lon="10.9351277691">
		<tag k="name" v="Granerud" />
		<tag k="place" v="farm" />
		<tag k="ssr:stedsnr" v="4385" />
	</node>
	<node id="-245073" lat="59.7609928986" lon="10.8087673846">
		<tag k="alt_name" v="Haugbro" />
		<tag k="fixme" v="consider place=hamlet" />
		<tag k="name" v="Haugbru" />
		<tag k="place" v="farm" />
		<tag k="ssr:stedsnr" v="4384" />
	</node>
	<node id="-245072" lat="59.7007416623" lon="10.853577786">
		<tag k="name" v="Engsholmen" />
		<tag k="place" v="farm" />
		<tag k="ssr:stedsnr" v="4383" />
	</node>
	<node id="-245071" lat="59.7943555601" lon="10.7986888813">
		<tag k="alt_name" v="Ekornrud" />
		<tag k="name" v="Nedre Ekornrud" />
		<tag k="place" v="isolated_dwelling" />
		<tag k="ssr:stedsnr" v="4329" />
	</node>
	<node id="-245069" lat="59.7780722211" lon="10.803886111">
		<tag k="name" v="Frydenberg" />
		<tag k="place" v="farm" />
		<tag k="ssr:stedsnr" v="4316" />
	</node>
	<node id="-245066" lat="59.7173916626" lon="10.8846749987">
		<tag k="name" v="Skiseng" />
		<tag k="place" v="farm" />
		<tag k="ssr:stedsnr" v="3524" />
	</node>
	<node id="-245065" lat="59.7393833366" lon="10.8622833377">
		<tag k="name" v="Fossebekk" />
		<tag k="place" v="farm" />
		<tag k="ssr:stedsnr" v="3461" />
	</node>
	<node id="-245064" lat="59.6627759176" lon="10.8927807873">
		<tag k="fixme" v="consider place=hamlet" />
		<tag k="name" v="Frestad" />
		<tag k="place" v="farm" />
		<tag k="ssr:stedsnr" v="3448" />
	</node>
	<node id="-245063" lat="59.6686000014" lon="10.9658138963">
		<tag k="name" v="Myrås" />
		<tag k="place" v="farm" />
		<tag k="ssr:stedsnr" v="3432" />
	</node>
	<node id="-245062" lat="59.6835388864" lon="10.8581166629">
		<tag k="name" v="Auerud" />
		<tag k="place" v="farm" />
		<tag k="ssr:stedsnr" v="3399" />
	</node>
	<node id="-245061" lat="59.7122249998" lon="10.8325250032">
		<tag k="alt_name" v="Finstad, søndre" />
		<tag k="name" v="Søndre Finstad" />
		<tag k="place" v="isolated_dwelling" />
		<tag k="ssr:stedsnr" v="3343" />
	</node>
	<node id="-245060" lat="59.7099333304" lon="10.8589805491">
		<tag k="alt_name" v="Østvet, vestre;Ustvet vestre;Østvet vestre" />
		<tag k="name" v="Vestre Østvet" />
		<tag k="place" v="farm" />
		<tag k="ssr:stedsnr" v="3334" />
	</node>
	<node id="-245059" lat="59.6557861073" lon="10.9199111043">
		<tag k="name" v="Nedre Reitvet" />
		<tag k="place" v="farm" />
		<tag k="ssr:stedsnr" v="3232" />
	</node>
	<node id="-245057" lat="59.7097832528" lon="10.8632027337">
		<tag k="fixme" v="consider place=hamlet" />
		<tag k="name" v="Østvet" />
		<tag k="place" v="farm" />
		<tag k="ssr:stedsnr" v="972801" />
	</node>
	<node id="-245055" lat="59.6776583347" lon="10.8782555508">
		<tag k="name" v="Kråkstad prestegård" />
		<tag k="place" v="farm" />
		<tag k="ssr:stedsnr" v="932705" />
	</node>
	<node id="-245054" lat="59.7684388888" lon="10.8198749981">
		<tag k="fixme" v="consider place=suburb, village or hamlet" />
		<tag k="name" v="Sætreskogen" />
		<tag k="place" v="quarter" />
		<tag k="ssr:stedsnr" v="915411" />
	</node>
	<node id="-245053" lat="59.7625000028" lon="10.8093138976">
		<tag k="name" v="Sætre" />
		<tag k="place" v="isolated_dwelling" />
		<tag k="ssr:stedsnr" v="915373" />
	</node>
	<node id="-245052" lat="59.750755558" lon="10.8423722243">
		<tag k="name" v="Østreng" />
		<tag k="place" v="farm" />
		<tag k="ssr:stedsnr" v="915370" />
	</node>
	<node id="-245051" lat="59.7553583355" lon="10.8214777743">
		<tag k="name" v="Furuset" />
		<tag k="place" v="isolated_dwelling" />
		<tag k="ssr:stedsnr" v="915368" />
	</node>
	<node id="-245049" lat="59.7916972267" lon="10.7746305564">
		<tag k="name" v="Tyrigrava" />
		<tag k="place" v="isolated_dwelling" />
		<tag k="ssr:stedsnr" v="915325" />
	</node>
	<node id="-245048" lat="59.7892750025" lon="10.7731472214">
		<tag k="alt_name" v="Villa Sandvigen" />
		<tag k="name" v="Sandvika" />
		<tag k="place" v="isolated_dwelling" />
		<tag k="ssr:stedsnr" v="915323" />
	</node>
	<node id="-245046" lat="59.8185555553" lon="10.8162249937">
		<tag k="name" v="Tårnåsen" />
		<tag k="place" v="isolated_dwelling" />
		<tag k="ssr:stedsnr" v="915265" />
	</node>
	<node id="-245043" lat="59.6650194431" lon="10.9639583394">
		<tag k="alt_name" v="Løvstad, østre;Løvstad østre" />
		<tag k="name" v="Østre Løvstad" />
		<tag k="place" v="farm" />
		<tag k="ssr:stedsnr" v="913456" />
	</node>
	<node id="-245042" lat="59.7643583365" lon="10.8440388903">
		<tag k="amenity" v="school" />
		<tag k="name" v="Haugjordet ungdomsskole" />
		<tag k="ssr:stedsnr" v="886161" />
	</node>
	<node id="-245038" lat="59.7384416669" lon="10.8130305632">
		<tag k="name" v="Havneberget" />
		<tag k="place" v="isolated_dwelling" />
		<tag k="ssr:stedsnr" v="871566" />
	</node>
	<node id="-245034" lat="59.6979916692" lon="10.8572527701">
		<tag k="alt_name" v="Eng nordre" />
		<tag k="name" v="Nordre Eng" />
		<tag k="place" v="farm" />
		<tag k="ssr:stedsnr" v="871518" />
	</node>
	<node id="-245032" lat="59.6830583343" lon="10.9217444427">
		<tag k="name" v="Gravbråten" />
		<tag k="place" v="isolated_dwelling" />
		<tag k="ssr:stedsnr" v="871503" />
	</node>
	<node id="-245031" lat="59.7175888877" lon="10.8492361093">
		<tag k="amenity" v="school" />
		<tag k="name" v="Ski videregående skole" />
		<tag k="ssr:stedsnr" v="871368" />
	</node>
	<node id="-245027" lat="59.7248861131" lon="10.8651777813">
		<tag k="amenity" v="nursing_home" />
		<tag k="name" v="Solborg" />
		<tag k="ssr:stedsnr" v="871413" />
	</node>
	<node id="-245025" lat="59.8068638886" lon="10.8199361047">
		<tag k="fixme" v="consider place=suburb, village or hamlet" />
		<tag k="name" v="Hellerasten" />
		<tag k="place" v="quarter" />
		<tag k="ssr:stedsnr" v="855270" />
	</node>
	<node id="-245019" lat="59.6916944434" lon="10.9485111039">
		<tag k="name" v="Hjellsbråten" />
		<tag k="place" v="isolated_dwelling" />
		<tag k="ssr:stedsnr" v="854427" />
	</node>
	<node id="-245018" lat="59.6931111141" lon="10.8996111097">
		<tag k="fixme" v="consider place=hamlet" />
		<tag k="name" v="Trånås" />
		<tag k="old_name" v="Traanås;Tronaas" />
		<tag k="place" v="farm" />
		<tag k="ssr:stedsnr" v="854424" />
	</node>
	<node id="-245016" lat="59.8252749998" lon="10.9055888853">
		<tag k="name" v="Haugen" />
		<tag k="place" v="farm" />
		<tag k="ssr:stedsnr" v="854257" />
	</node>
	<node id="-245014" lat="59.7213499977" lon="10.9119111067">
		<tag k="name" v="Grøstad" />
		<tag k="place" v="farm" />
		<tag k="ssr:stedsnr" v="853554" />
	</node>
	<node id="-245010" lat="59.8237166625" lon="10.8111805551">
		<tag k="name" v="Øvre Ormerud" />
		<tag k="place" v="quarter" />
		<tag k="ssr:stedsnr" v="934651" />
	</node>
	<node id="-245009" lat="59.6426416668" lon="10.9168944518">
		<tag k="alt_name" v="Nøkleby østre" />
		<tag k="name" v="Østre Nøkleby" />
		<tag k="place" v="farm" />
		<tag k="ssr:stedsnr" v="932495" />
	</node>
	<node id="-245003" lat="59.7299388881" lon="10.8649222223">
		<tag k="name" v="Hokholt" />
		<tag k="place" v="isolated_dwelling" />
		<tag k="ssr:stedsnr" v="932438" />
	</node>
	<node id="-245002" lat="59.7226111096" lon="10.8420111079">
		<tag k="name" v="Kapellsander" />
		<tag k="place" v="farm" />
		<tag k="ssr:stedsnr" v="932395" />
	</node>
	<node id="-245000" lat="59.7484250042" lon="10.8336361073">
		<tag k="name" v="Langhus" />
		<tag k="place" v="farm" />
		<tag k="ssr:stedsnr" v="932373" />
	</node>
	<node id="-244998" lat="59.7168972252" lon="10.8363222284">
		<tag k="building" v="commercial" />
		<tag k="name" v="Ski storsenter" />
		<tag k="ssr:stedsnr" v="825116" />
	</node>
	<node id="-244991" lat="59.763280556" lon="10.9527750052">
		<tag k="name" v="Klemma" />
		<tag k="place" v="farm" />
		<tag k="ssr:stedsnr" v="794379" />
	</node>
	<node id="-244988" lat="59.7355916657" lon="10.8512916605">
		<tag k="fixme" v="consider place=hamlet" />
		<tag k="name" v="Kvakastad" />
		<tag k="place" v="farm" />
		<tag k="ssr:stedsnr" v="792604" />
	</node>
	<node id="-244987" lat="59.7351722209" lon="10.9646499966">
		<tag k="name" v="Trøytve" />
		<tag k="place" v="farm" />
		<tag k="ssr:stedsnr" v="792573" />
	</node>
	<node id="-244986" lat="59.7355777739" lon="10.9085583271">
		<tag k="name" v="Stokstad" />
		<tag k="place" v="farm" />
		<tag k="ssr:stedsnr" v="792568" />
	</node>
	<node id="-244985" lat="59.7245055514" lon="10.9169277734">
		<tag k="name" v="Bekkevar" />
		<tag k="place" v="farm" />
		<tag k="ssr:stedsnr" v="792554" />
	</node>
	<node id="-244981" lat="59.7956833308" lon="10.9409805585">
		<tag k="alt_name" v="Fjellshagen" />
		<tag k="name" v="Fjellshagan" />
		<tag k="place" v="isolated_dwelling" />
		<tag k="ssr:stedsnr" v="915331" />
	</node>
	<node id="-244980" lat="59.667290123" lon="10.8794735655">
		<tag k="fixme" v="consider place=hamlet" />
		<tag k="name" v="Harastad" />
		<tag k="place" v="farm" />
		<tag k="ssr:stedsnr" v="914473" />
	</node>
	<node id="-244978" lat="59.679763893" lon="10.9020500068">
		<tag k="alt_name" v="Sørum;Sørum vestre" />
		<tag k="name" v="Vestre Sørum" />
		<tag k="place" v="farm" />
		<tag k="ssr:stedsnr" v="914445" />
	</node>
	<node id="-244975" lat="59.6957694485" lon="10.8751194445">
		<tag k="alt_name" v="Løken, nordre;Løken nordre" />
		<tag k="name" v="Nordre Løken" />
		<tag k="place" v="farm" />
		<tag k="ssr:stedsnr" v="914391" />
	</node>
	<node id="-244974" lat="59.7021972188" lon="10.8521638934">
		<tag k="name" v="Haugteigen" />
		<tag k="place" v="farm" />
		<tag k="ssr:stedsnr" v="914389" />
	</node>
	<node id="-244972" lat="59.7041027742" lon="10.9251111196">
		<tag k="name" v="Myrbråten" />
		<tag k="place" v="farm" />
		<tag k="ssr:stedsnr" v="914383" />
	</node>
	<node id="-244970" lat="59.6223083292" lon="10.9007472246">
		<tag k="name" v="Solberg" />
		<tag k="place" v="farm" />
		<tag k="ssr:stedsnr" v="913328" />
	</node>
	<node id="-244969" lat="59.6416222256" lon="10.9590777857">
		<tag k="alt_name" v="Gusrud;Gusrud nordre" />
		<tag k="name" v="Nordre Gusrud" />
		<tag k="place" v="farm" />
		<tag k="ssr:stedsnr" v="913251" />
	</node>
	<node id="-244968" lat="59.723327779" lon="10.9523833413">
		<tag k="name" v="Dammyrhytta" />
		<tag k="place" v="isolated_dwelling" />
		<tag k="ssr:stedsnr" v="750533" />
	</node>
	<node id="-244965" lat="59.6858416695" lon="10.9148111127">
		<tag k="name" v="Nordli" />
		<tag k="place" v="isolated_dwelling" />
		<tag k="ssr:stedsnr" v="750515" />
	</node>
	<node id="-244964" lat="59.6429944432" lon="10.9203722201">
		<tag k="alt_name" v="Berger øvre" />
		<tag k="name" v="Øvre Berger" />
		<tag k="place" v="farm" />
		<tag k="ssr:stedsnr" v="750511" />
	</node>
	<node id="-244960" lat="59.8058500004" lon="10.8401222167">
		<tag k="name" v="Taraldrud" />
		<tag k="place" v="farm" />
		<tag k="ssr:stedsnr" v="733250" />
	</node>
	<node id="-244958" lat="59.6837250011" lon="10.9347249962">
		<tag k="alt_name" v="Sandvolden" />
		<tag k="name" v="Sandvoll" />
		<tag k="place" v="farm" />
		<tag k="ssr:stedsnr" v="731413" />
	</node>
	<node id="-244955" lat="59.7506638896" lon="10.8836805568">
		<tag k="name" v="Mørk" />
		<tag k="place" v="farm" />
		<tag k="ssr:stedsnr" v="672453" />
	</node>
	<node id="-244953" lat="59.6943912889" lon="10.9002030138">
		<tag k="fixme" v="consider place=hamlet" />
		<tag k="name" v="Østby" />
		<tag k="place" v="farm" />
		<tag k="ssr:stedsnr" v="649272" />
	</node>
	<node id="-244950" lat="59.7554249979" lon="10.8572972132">
		<tag k="name" v="Slora" />
		<tag k="place" v="farm" />
		<tag k="ssr:stedsnr" v="733449" />
	</node>
	<node id="-244948" lat="59.7632249976" lon="10.7519833349">
		<tag k="alt_name" v="Rødkilden" />
		<tag k="name" v="Rødkjelda" />
		<tag k="place" v="farm" />
		<tag k="ssr:stedsnr" v="733398" />
	</node>
	<node id="-244944" lat="59.7752277783" lon="10.9376111122">
		<tag k="fixme" v="consider place=hamlet" />
		<tag k="loc_name" v="Gjevik" />
		<tag k="name" v="Jevik" />
		<tag k="place" v="farm" />
		<tag k="ssr:stedsnr" v="732439" />
	</node>
	<node id="-244943" lat="59.7798000037" lon="10.9401388882">
		<tag k="name" v="Nordli" />
		<tag k="place" v="isolated_dwelling" />
		<tag k="ssr:stedsnr" v="732438" />
	</node>
	<node id="-244942" lat="59.6887999961" lon="10.8562833395">
		<tag k="alt_name" v="Frogner, lille;Frogner lille" />
		<tag k="name" v="Lille Frogner" />
		<tag k="place" v="locality" />
		<tag k="ssr:stedsnr" v="732433" />
	</node>
	<node id="-244941" lat="59.6993944471" lon="10.901688894">
		<tag k="alt_name" v="Tømt;Tømt øvre" />
		<tag k="name" v="Øvre Tømt" />
		<tag k="place" v="farm" />
		<tag k="ssr:stedsnr" v="732414" />
	</node>
	<node id="-244940" lat="59.695841666" lon="10.9341472307">
		<tag k="name" v="Ås" />
		<tag k="place" v="farm" />
		<tag k="ssr:stedsnr" v="732413" />
	</node>
	<node id="-244939" lat="59.7094222211" lon="10.9414222305">
		<tag k="historic" v="shieling" />
		<tag k="name" v="Bjerkebekk" />
		<tag k="place" v="locality" />
		<tag k="ssr:stedsnr" v="732379" />
	</node>
	<node id="-244938" lat="59.7992249978" lon="10.826561109">
		<tag k="name" v="Fløysbonn" />
		<tag k="place" v="farm" />
		<tag k="ssr:stedsnr" v="732363" />
	</node>
	<node id="-244937" lat="59.7767388895" lon="10.8147055467">
		<tag k="alt_name" v="Greverud, østre" />
		<tag k="name" v="Østre Greverud" />
		<tag k="place" v="farm" />
		<tag k="ssr:stedsnr" v="732322" />
	</node>
	<node id="-244935" lat="59.7395472204" lon="10.9513499945">
		<tag k="name" v="Gjetsjø" />
		<tag k="place" v="farm" />
		<tag k="ssr:stedsnr" v="731559" />
	</node>
	<node id="-244934" lat="59.740777777" lon="10.9662777718">
		<tag k="name" v="Tjernsli" />
		<tag k="place" v="farm" />
		<tag k="ssr:stedsnr" v="731558" />
	</node>
	<node id="-244932" lat="59.7147000001" lon="10.9019999915">
		<tag k="name" v="Oppsand" />
		<tag k="place" v="farm" />
		<tag k="ssr:stedsnr" v="731526" />
	</node>
	<node id="-244931" lat="59.6454888889" lon="10.8818499985">
		<tag k="alt_name" v="Holt, nedre" />
		<tag k="name" v="Nedre Holt" />
		<tag k="place" v="farm" />
		<tag k="ssr:stedsnr" v="731228" />
	</node>
	<node id="-244930" lat="59.7423971207" lon="10.9239727749">
		<tag k="fixme" v="consider place=hamlet" />
		<tag k="name" v="Stunner" />
		<tag k="place" v="farm" />
		<tag k="ssr:stedsnr" v="731472" />
	</node>
	<node id="-244929" lat="59.7438694444" lon="10.8254694446">
		<tag k="alt_name" v="Dal;Dal vestre" />
		<tag k="name" v="Vestre Dal" />
		<tag k="place" v="farm" />
		<tag k="ssr:stedsnr" v="731462" />
	</node>
	<node id="-244928" lat="59.660627778" lon="10.8394750049">
		<tag k="name" v="Grønlia" />
		<tag k="place" v="farm" />
		<tag k="ssr:stedsnr" v="731455" />
	</node>
	<node id="-244927" lat="59.6603888876" lon="10.9571555528">
		<tag k="alt_name" v="Mørk, østre;Mørk østre" />
		<tag k="name" v="Østre Mørk" />
		<tag k="place" v="farm" />
		<tag k="ssr:stedsnr" v="731449" />
	</node>
	<node id="-244923" lat="59.7558472261" lon="10.8633861064">
		<tag k="name" v="Jonsrud" />
		<tag k="place" v="farm" />
		<tag k="ssr:stedsnr" v="628477" />
	</node>
	<node id="-244922" lat="59.7473861103" lon="10.8527888877">
		<tag k="name" v="Skau" />
		<tag k="place" v="isolated_dwelling" />
		<tag k="ssr:stedsnr" v="628474" />
	</node>
	<node id="-244917" lat="59.6509444451" lon="10.8635722242">
		<tag k="name" v="Moseby" />
		<tag k="place" v="farm" />
		<tag k="ssr:stedsnr" v="628505" />
	</node>
	<node id="-244916" lat="59.7080527788" lon="10.8427055621">
		<tag k="name" v="Delerud" />
		<tag k="place" v="isolated_dwelling" />
		<tag k="ssr:stedsnr" v="628378" />
	</node>
	<node id="-244911" lat="59.7396138932" lon="10.9455083407">
		<tag k="amenity" v="school" />
		<tag k="name" v="Gjedsjø skole" />
		<tag k="ssr:stedsnr" v="628304" />
	</node>
	<node id="-244909" lat="59.7953388883" lon="10.7524027865">
		<tag k="alt_name" v="Torbjørnrud" />
		<tag k="name" v="Torbjørnsrud" />
		<tag k="place" v="farm" />
		<tag k="ssr:stedsnr" v="611379" />
	</node>
	<node id="-244908" lat="59.7967222251" lon="10.8135638879">
		<tag k="fixme" v="consider place=suburb, village or hamlet" />
		<tag k="name" v="Sofiemyr" />
		<tag k="place" v="quarter" />
		<tag k="ssr:stedsnr" v="611369" />
	</node>
	<node id="-244907" lat="59.7905250016" lon="10.9562999953">
		<tag k="name" v="Fjell" />
		<tag k="place" v="farm" />
		<tag k="ssr:stedsnr" v="611358" />
	</node>
	<node id="-244904" lat="59.7626638929" lon="10.8843555474">
		<tag k="name" v="Almenningen" />
		<tag k="place" v="farm" />
		<tag k="ssr:stedsnr" v="611414" />
	</node>
	<node id="-244903" lat="59.7649722206" lon="10.8415361023">
		<tag k="name" v="Berget" />
		<tag k="place" v="farm" />
		<tag k="ssr:stedsnr" v="611411" />
	</node>
	<node id="-244902" lat="59.7649999996" lon="10.7972861067">
		<tag k="name" v="Holen" />
		<tag k="place" v="isolated_dwelling" />
		<tag k="ssr:stedsnr" v="611405" />
	</node>
	<node id="-244901" lat="59.7517555517" lon="10.8466000051">
		<tag k="name" v="Øgården" />
		<tag k="old_name" v="Ødegård" />
		<tag k="place" v="farm" />
		<tag k="ssr:stedsnr" v="611402" />
	</node>
	<node id="-244900" lat="59.6517333297" lon="10.9240499924">
		<tag k="name" v="Søndre Reitvet" />
		<tag k="place" v="farm" />
		<tag k="ssr:stedsnr" v="610022" />
	</node>
	<node id="-244899" lat="59.6975388879" lon="10.8865138838">
		<tag k="name" v="Søndre Rodum" />
		<tag k="place" v="farm" />
		<tag k="ssr:stedsnr" v="709388" />
	</node>
	<node id="-244898" lat="59.8130694464" lon="10.8036194499">
		<tag k="amenity" v="school" />
		<tag k="name" v="Kolbotn skole" />
		<tag k="ssr:stedsnr" v="570466" />
	</node>
	<node id="-244897" lat="59.7158972238" lon="10.8219972273">
		<tag k="amenity" v="school" />
		<tag k="name" v="Finstad skole" />
		<tag k="ssr:stedsnr" v="568572" />
	</node>
	<node id="-244891" lat="59.6374005925" lon="10.9590136963">
		<tag k="fixme" v="consider place=hamlet" />
		<tag k="name" v="Gusrud" />
		<tag k="place" v="farm" />
		<tag k="ssr:stedsnr" v="549033" />
	</node>
	<node id="-244888" lat="59.7970222262" lon="10.8203555556">
		<tag k="name" v="Fløysbonn industriområde" />
		<tag k="place" v="quarter" />
		<tag k="ssr:stedsnr" v="691684" />
	</node>
	<node id="-244886" lat="59.7808472221" lon="10.8213333334">
		<tag k="name" v="Grytebråtan" />
		<tag k="place" v="locality" />
		<tag k="ssr:stedsnr" v="691146" />
	</node>
	<node id="-244885" lat="59.7274555515" lon="10.8246083361">
		<tag k="name" v="Fjellklang" />
		<tag k="place" v="isolated_dwelling" />
		<tag k="ssr:stedsnr" v="689579" />
	</node>
	<node id="-244884" lat="59.6971805566" lon="10.8933194384">
		<tag k="fixme" v="consider place=hamlet" />
		<tag k="name" v="Østre Rodum" />
		<tag k="place" v="farm" />
		<tag k="ssr:stedsnr" v="689503" />
	</node>
	<node id="-244881" lat="59.692883334" lon="10.9231444369">
		<tag k="name" v="Østbyhagen" />
		<tag k="place" v="farm" />
		<tag k="ssr:stedsnr" v="689491" />
	</node>
	<node id="-244878" lat="59.666519448" lon="10.9299611177">
		<tag k="name" v="Frydenlund" />
		<tag k="place" v="isolated_dwelling" />
		<tag k="ssr:stedsnr" v="689468" />
	</node>
	<node id="-244877" lat="59.7431194436" lon="10.8796972151">
		<tag k="name" v="Bjørnebo" />
		<tag k="place" v="farm" />
		<tag k="ssr:stedsnr" v="689440" />
	</node>
	<node id="-244873" lat="59.7609527772" lon="10.8138055636">
		<tag k="name" v="Stenfelt" />
		<tag k="place" v="locality" />
		<tag k="ssr:stedsnr" v="689409" />
	</node>
	<node id="-244870" lat="59.7409999958" lon="10.9425305521">
		<tag k="name" v="Jørgenrud" />
		<tag k="place" v="farm" />
		<tag k="ssr:stedsnr" v="689323" />
	</node>
	<node id="-244868" lat="59.7420527765" lon="10.8986111087">
		<tag k="alt_name" v="Solberg nordre" />
		<tag k="name" v="Nordre Solberg" />
		<tag k="place" v="farm" />
		<tag k="ssr:stedsnr" v="689312" />
	</node>
	<node id="-244862" lat="59.8126222244" lon="10.800152769">
		<tag k="name" v="Rasten" />
		<tag k="place" v="hamlet" />
		<tag k="ssr:stedsnr" v="509672" />
	</node>
	<node id="-244860" lat="59.761138886" lon="10.7426611116">
		<tag k="name" v="Bergstuløkka" />
		<tag k="place" v="locality" />
		<tag k="ssr:stedsnr" v="509111" />
	</node>
	<node id="-244858" lat="59.6970833295" lon="10.8608888916">
		<tag k="alt_name" v="Eng søndre" />
		<tag k="name" v="Søndre Eng" />
		<tag k="place" v="farm" />
		<tag k="ssr:stedsnr" v="507521" />
	</node>
	<node id="-244856" lat="59.6547555553" lon="10.8571694523">
		<tag k="name" v="Søndre Stønerud" />
		<tag k="place" v="farm" />
		<tag k="ssr:stedsnr" v="507508" />
	</node>
	<node id="-244855" lat="59.7497527777" lon="10.8669416626">
		<tag k="alt_name" v="Bøler midtre" />
		<tag k="name" v="Midtre Bøler" />
		<tag k="place" v="isolated_dwelling" />
		<tag k="ssr:stedsnr" v="507466" />
	</node>
	<node id="-244848" lat="59.7658685682" lon="10.8844454842">
		<tag k="name" v="Nylenda" />
		<tag k="place" v="farm" />
		<tag k="ssr:stedsnr" v="672385" />
	</node>
	<node id="-244847" lat="59.7666472196" lon="10.9033333336">
		<tag k="fixme" v="consider tourism=alpine_hut or tourism=chalet" />
		<tag k="name" v="Sterkerud" />
		<tag k="ssr:stedsnr" v="672383" />
		<tag k="tourism" v="wilderness_hut" />
	</node>
	<node id="-244843" lat="59.7885472245" lon="10.7590666695">
		<tag k="name" v="Leirskallen" />
		<tag k="place" v="isolated_dwelling" />
		<tag k="ssr:stedsnr" v="672306" />
	</node>
	<node id="-244841" lat="59.7788416626" lon="10.7529166736">
		<tag k="name" v="Grønmo" />
		<tag k="place" v="farm" />
		<tag k="ssr:stedsnr" v="672294" />
	</node>
	<node id="-244839" lat="59.8209777787" lon="10.8137499919">
		<tag k="name" v="Høyås" />
		<tag k="place" v="isolated_dwelling" />
		<tag k="ssr:stedsnr" v="672277" />
	</node>
	<node id="-244836" lat="59.8202027812" lon="10.7850805505">
		<tag k="name" v="Lienga" />
		<tag k="place" v="isolated_dwelling" />
		<tag k="ssr:stedsnr" v="672245" />
	</node>
	<node id="-244834" lat="59.7257583335" lon="10.9725000045">
		<tag k="name" v="Snekkerstua" />
		<tag k="place" v="farm" />
		<tag k="ssr:stedsnr" v="671581" />
	</node>
	<node id="-244833" lat="59.6731465034" lon="10.8937173526">
		<tag k="name" v="Sjønhaug" />
		<tag k="place" v="farm" />
		<tag k="ssr:stedsnr" v="671452" />
	</node>
	<node id="-244832" lat="59.6760972229" lon="10.9149777743">
		<tag k="name" v="Karlsrud" />
		<tag k="place" v="farm" />
		<tag k="ssr:stedsnr" v="671431" />
	</node>
	<node id="-244831" lat="59.6852805596" lon="10.8926999951">
		<tag k="alt_name" v="Missum, vestre;Missum vestre" />
		<tag k="name" v="Vestre Missum" />
		<tag k="place" v="farm" />
		<tag k="ssr:stedsnr" v="671418" />
	</node>
	<node id="-244830" lat="59.7053472217" lon="10.839024996">
		<tag k="name" v="Eikeli" />
		<tag k="place" v="farm" />
		<tag k="ssr:stedsnr" v="671381" />
	</node>
	<node id="-244829" lat="59.7362111076" lon="10.8381972166">
		<tag k="fixme" v="consider place=hamlet" />
		<tag k="name" v="Roås" />
		<tag k="place" v="farm" />
		<tag k="ssr:stedsnr" v="670597" />
	</node>
	<node id="-244828" lat="59.7328555548" lon="10.9372999964">
		<tag k="name" v="Skremma" />
		<tag k="place" v="farm" />
		<tag k="ssr:stedsnr" v="670572" />
	</node>
	<node id="-244827" lat="59.7326500045" lon="10.9082194419">
		<tag k="fixme" v="consider place=hamlet" />
		<tag k="name" v="Bjerke" />
		<tag k="place" v="farm" />
		<tag k="ssr:stedsnr" v="670571" />
	</node>
	<node id="-244826" lat="59.725158333" lon="10.8533277826">
		<tag k="name" v="Rullestad" />
		<tag k="place" v="farm" />
		<tag k="ssr:stedsnr" v="670548" />
	</node>
	<node id="-244825" lat="59.6634222201" lon="10.8566833319">
		<tag k="name" v="Vål" />
		<tag k="place" v="farm" />
		<tag k="ssr:stedsnr" v="670462" />
	</node>
	<node id="-244824" lat="59.6616638913" lon="10.9299222296">
		<tag k="name" v="Myrvoll" />
		<tag k="place" v="farm" />
		<tag k="ssr:stedsnr" v="670460" />
	</node>
	<node id="-244823" lat="59.6287638931" lon="10.9075361128">
		<tag k="alt_name" v="Rustad, øvre;Rustad øvre" />
		<tag k="name" v="Øvre Rustad" />
		<tag k="place" v="farm" />
		<tag k="ssr:stedsnr" v="670337" />
	</node>
	<node id="-244822" lat="59.633917167" lon="10.8872340961">
		<tag k="name" v="Sør-Bjerke" />
		<tag k="place" v="farm" />
		<tag k="ssr:stedsnr" v="670300" />
	</node>
	<node id="-244821" lat="59.6418055599" lon="10.8876972261">
		<tag k="name" v="Nord-Bjerke" />
		<tag k="place" v="farm" />
		<tag k="ssr:stedsnr" v="670273" />
	</node>
	<node id="-244820" lat="59.6509305594" lon="10.8822999985">
		<tag k="alt_name" v="Holt, lille;Holt lille" />
		<tag k="name" v="Lille Holt" />
		<tag k="place" v="farm" />
		<tag k="ssr:stedsnr" v="670251" />
	</node>
	<node id="-244819" lat="59.653949998" lon="10.8827277771">
		<tag k="name" v="Rød" />
		<tag k="place" v="farm" />
		<tag k="ssr:stedsnr" v="670250" />
	</node>
	<node id="-244815" lat="59.7325666706" lon="10.9121472245">
		<tag k="name" v="Østre Bjerke" />
		<tag k="place" v="farm" />
		<tag k="ssr:stedsnr" v="447419" />
	</node>
	<node id="-244811" lat="59.6664777805" lon="10.881786117">
		<tag k="name" v="Østre Harastad" />
		<tag k="place" v="farm" />
		<tag k="ssr:stedsnr" v="446507" />
	</node>
	<node id="-244810" lat="59.7953583374" lon="10.9164805545">
		<tag k="name" v="Åli" />
		<tag k="place" v="isolated_dwelling" />
		<tag k="ssr:stedsnr" v="429327" />
	</node>
	<node id="-244809" lat="59.7836750029" lon="10.9225805506">
		<tag k="name" v="Myrvoll" />
		<tag k="place" v="isolated_dwelling" />
		<tag k="ssr:stedsnr" v="429303" />
	</node>
	<node id="-244808" lat="59.6683027803" lon="10.901491671">
		<tag k="alt_name" v="Asper, østre;Asper øvre" />
		<tag k="name" v="Øvre Asper" />
		<tag k="place" v="farm" />
		<tag k="ssr:stedsnr" v="428418" />
	</node>
	<node id="-244807" lat="59.670311113" lon="10.8911805572">
		<tag k="alt_name" v="Asper, vestre;Asper nedre;Asper" />
		<tag k="name" v="Nedre Asper" />
		<tag k="place" v="farm" />
		<tag k="ssr:stedsnr" v="428417" />
	</node>
	<node id="-244806" lat="59.6812083343" lon="10.8641499915">
		<tag k="name" v="Håpet" />
		<tag k="place" v="farm" />
		<tag k="ssr:stedsnr" v="428409" />
	</node>
	<node id="-244805" lat="59.6798027803" lon="10.9187083304">
		<tag k="name" v="Gimle" />
		<tag k="place" v="farm" />
		<tag k="ssr:stedsnr" v="428405" />
	</node>
	<node id="-244804" lat="59.7242777817" lon="10.878516661">
		<tag k="name" v="Herusti" />
		<tag k="place" v="farm" />
		<tag k="ssr:stedsnr" v="428021" />
	</node>
	<node id="-244803" lat="59.7424527752" lon="10.8291305548">
		<tag k="alt_name" v="Dal;Dal søndre" />
		<tag k="name" v="Søndre Dal" />
		<tag k="place" v="farm" />
		<tag k="ssr:stedsnr" v="428020" />
	</node>
	<node id="-244802" lat="59.6699055544" lon="10.8679694475">
		<tag k="alt_name" v="Glenne;Glenne østre" />
		<tag k="name" v="Østre Glenne" />
		<tag k="place" v="farm" />
		<tag k="ssr:stedsnr" v="428015" />
	</node>
	<node id="-244800" lat="59.796144442" lon="10.8141444375">
		<tag k="amenity" v="school" />
		<tag k="name" v="Fløysbonn ungdomsskole" />
		<tag k="ssr:stedsnr" v="509484" />
	</node>
	<node id="-244797" lat="59.6600555563" lon="10.9768055472">
		<tag k="name" v="Nordenga" />
		<tag k="place" v="farm" />
		<tag k="ssr:stedsnr" v="507552" />
	</node>
	<node id="-244796" lat="59.6786194423" lon="10.9518305496">
		<tag k="name" v="Sandbekken" />
		<tag k="place" v="locality" />
		<tag k="ssr:stedsnr" v="507549" />
	</node>
	<node id="-244794" lat="59.6774361082" lon="10.860772217">
		<tag k="alt_name" v="Haugen søndre" />
		<tag k="name" v="Søndre Haugen" />
		<tag k="place" v="farm" />
		<tag k="ssr:stedsnr" v="507750" />
	</node>
	<node id="-244793" lat="59.6680277814" lon="10.859147226">
		<tag k="alt_name" v="Glenne nordre" />
		<tag k="name" v="Nordre Glenne" />
		<tag k="place" v="farm" />
		<tag k="ssr:stedsnr" v="507747" />
	</node>
	<node id="-244790" lat="59.7264166647" lon="10.8435694407">
		<tag k="amenity" v="hospital" />
		<tag k="name" v="Ski sykehus" />
		<tag k="ssr:stedsnr" v="507437" />
	</node>
	<node id="-244789" lat="59.7359944476" lon="10.9125194469">
		<tag k="name" v="Nygård" />
		<tag k="place" v="isolated_dwelling" />
		<tag k="ssr:stedsnr" v="507424" />
	</node>
	<node id="-244784" lat="59.6526083356" lon="10.9225027827">
		<tag k="name" v="Vestre Reitvet" />
		<tag k="place" v="farm" />
		<tag k="ssr:stedsnr" v="507499" />
	</node>
	<node id="-244779" lat="59.77433056" lon="10.7329638839">
		<tag k="name" v="Linnekastet" />
		<tag k="place" v="isolated_dwelling" />
		<tag k="ssr:stedsnr" v="389210" />
	</node>
	<node id="-244774" lat="59.7572444461" lon="10.8483611026">
		<tag k="amenity" v="school" />
		<tag k="name" v="Vevelstadåsen skole" />
		<tag k="ssr:stedsnr" v="386466" />
	</node>
	<node id="-244768" lat="59.7472694449" lon="10.8399833341">
		<tag k="amenity" v="school" />
		<tag k="name" v="Langhus skole" />
		<tag k="ssr:stedsnr" v="386368" />
	</node>
	<node id="-244767" lat="59.645430557" lon="10.8817944413">
		<tag k="alt_name" v="Holt søndre" />
		<tag k="name" v="Søndre Holt" />
		<tag k="place" v="farm" />
		<tag k="ssr:stedsnr" v="385525" />
	</node>
	<node id="-244766" lat="59.6606972231" lon="10.9383861072">
		<tag k="name" v="Norøm" />
		<tag k="place" v="isolated_dwelling" />
		<tag k="ssr:stedsnr" v="385517" />
	</node>
	<node id="-244764" lat="59.6576083347" lon="10.916594453">
		<tag k="name" v="Reitvet" />
		<tag k="place" v="farm" />
		<tag k="ssr:stedsnr" v="385513" />
	</node>
	<node id="-244763" lat="59.6482777819" lon="10.8723555555">
		<tag k="alt_name" v="Holt, vestre;Holt" />
		<tag k="name" v="Vestre Holt" />
		<tag k="place" v="farm" />
		<tag k="ssr:stedsnr" v="367206" />
	</node>
	<node id="-244762" lat="59.7802750032" lon="10.9357000086">
		<tag k="name" v="Fjellstad" />
		<tag k="place" v="farm" />
		<tag k="ssr:stedsnr" v="490408" />
	</node>
	<node id="-244761" lat="59.7743638894" lon="10.9173999926">
		<tag k="name" v="Koppen" />
		<tag k="place" v="isolated_dwelling" />
		<tag k="ssr:stedsnr" v="490407" />
	</node>
	<node id="-244759" lat="59.7663388924" lon="10.8275472257">
		<tag k="name" v="Tusse" />
		<tag k="place" v="isolated_dwelling" />
		<tag k="ssr:stedsnr" v="490377" />
	</node>
	<node id="-244757" lat="59.7553055517" lon="10.829680558">
		<tag k="name" v="Ringen" />
		<tag k="place" v="locality" />
		<tag k="ssr:stedsnr" v="490372" />
	</node>
	<node id="-244755" lat="59.7863888932" lon="10.8970611147">
		<tag k="alt_name" v="Kullebunn" />
		<tag k="name" v="Kolabonn" />
		<tag k="place" v="farm" />
		<tag k="ssr:stedsnr" v="490320" />
	</node>
	<node id="-244754" lat="59.7827527771" lon="10.9100472206">
		<tag k="alt_name" v="Bru, lille" />
		<tag k="name" v="Lille Bru" />
		<tag k="place" v="farm" />
		<tag k="ssr:stedsnr" v="490316" />
	</node>
	<node id="-244748" lat="59.8062250035" lon="10.9090638873">
		<tag k="name" v="Sørmarka" />
		<tag k="old_name" v="Sørmarka skole" />
		<tag k="ssr:stedsnr" v="490241" />
		<tag k="tourism" v="hotel" />
	</node>
	<node id="-244747" lat="59.6792416685" lon="10.9151472307">
		<tag k="alt_name" v="Sørum;Sørum østre" />
		<tag k="name" v="Østre Sørum" />
		<tag k="place" v="farm" />
		<tag k="ssr:stedsnr" v="489463" />
	</node>
	<node id="-244746" lat="59.6823472182" lon="10.897294439">
		<tag k="alt_name" v="Missum, søndre;Missum søndre" />
		<tag k="name" v="Søndre Missum" />
		<tag k="place" v="farm" />
		<tag k="ssr:stedsnr" v="489453" />
	</node>
	<node id="-244745" lat="59.7136944438" lon="10.8315972174">
		<tag k="alt_name" v="Finstad, nordre;Finstad nordre" />
		<tag k="name" v="Nordre Finstad" />
		<tag k="place" v="farm" />
		<tag k="ssr:stedsnr" v="489398" />
	</node>
	<node id="-244744" lat="59.7090420409" lon="10.8683194869">
		<tag k="name" v="Østre Ustvedt" />
		<tag k="place" v="farm" />
		<tag k="ssr:stedsnr" v="489397" />
	</node>
	<node id="-244743" lat="59.7034805522" lon="10.8612638959">
		<tag k="name" v="Sinnerud" />
		<tag k="place" v="farm" />
		<tag k="ssr:stedsnr" v="489396" />
	</node>
	<node id="-244742" lat="59.709958332" lon="10.8994027837">
		<tag k="name" v="Myrer" />
		<tag k="place" v="farm" />
		<tag k="ssr:stedsnr" v="489386" />
	</node>
	<node id="-244741" lat="59.7980770422" lon="10.8831581112">
		<tag k="name" v="Grønslett" />
		<tag k="place" v="isolated_dwelling" />
		<tag k="ssr:stedsnr" v="489365" />
	</node>
	<node id="-244740" lat="59.7344916675" lon="10.9877750024">
		<tag k="name" v="Kollerøys" />
		<tag k="place" v="farm" />
		<tag k="ssr:stedsnr" v="488584" />
	</node>
	<node id="-244739" lat="59.7361000028" lon="10.8915277821">
		<tag k="name" v="Sørli" />
		<tag k="place" v="farm" />
		<tag k="ssr:stedsnr" v="488578" />
	</node>
	<node id="-244736" lat="59.7474611074" lon="10.8927444459">
		<tag k="alt_name" v="Eikjol, søndre;Eikjol søndre" />
		<tag k="name" v="Søndre Eikjol" />
		<tag k="place" v="farm" />
		<tag k="ssr:stedsnr" v="488483" />
	</node>
	<node id="-244735" lat="59.742736115" lon="10.9410750032">
		<tag k="name" v="Jørgenrud" />
		<tag k="place" v="farm" />
		<tag k="ssr:stedsnr" v="488477" />
	</node>
	<node id="-244733" lat="59.7469027743" lon="10.8646472202">
		<tag k="alt_name" v="Bøler, søndre;Bøler søndre" />
		<tag k="name" v="Søndre Bøler" />
		<tag k="place" v="farm" />
		<tag k="ssr:stedsnr" v="488469" />
	</node>
	<node id="-244732" lat="59.6767111118" lon="10.8620000066">
		<tag k="name" v="Vallebekk" />
		<tag k="place" v="farm" />
		<tag k="ssr:stedsnr" v="488421" />
	</node>
	<node id="-244731" lat="59.6418250017" lon="10.9316361128">
		<tag k="alt_name" v="Brekka" />
		<tag k="name" v="Brekke" />
		<tag k="place" v="farm" />
		<tag k="ssr:stedsnr" v="488251" />
	</node>
	<node id="-244730" lat="59.6527055567" lon="10.8895083412">
		<tag k="name" v="Nes" />
		<tag k="place" v="farm" />
		<tag k="ssr:stedsnr" v="488230" />
	</node>
	<node id="-244729" lat="59.6539111129" lon="10.9340944512">
		<tag k="fixme" v="consider place=hamlet" />
		<tag k="name" v="Hanakrop" />
		<tag k="place" v="farm" />
		<tag k="ssr:stedsnr" v="488228" />
	</node>
	<node id="-244726" lat="59.7680222234" lon="10.8087944456">
		<tag k="amenity" v="school" />
		<tag k="name" v="Greverud skole" />
		<tag k="ssr:stedsnr" v="327529" />
	</node>
	<node id="-244725" lat="59.8113694428" lon="10.799327783">
		<tag k="building" v="commercial" />
		<tag k="name" v="Solgården" />
		<tag k="ssr:stedsnr" v="327515" />
	</node>
	<node id="-244720" lat="59.6687999998" lon="10.9643750076">
		<tag k="name" v="Løvstadmyra" />
		<tag k="place" v="farm" />
		<tag k="ssr:stedsnr" v="306446" />
	</node>
	<node id="-244717" lat="59.8190222196" lon="10.8150944441">
		<tag k="building" v="commercial" />
		<tag k="name" v="Tårnåsen senter" />
		<tag k="ssr:stedsnr" v="267476" />
	</node>
	<node id="-244716" lat="59.8134694418" lon="10.814713892">
		<tag k="amenity" v="school" />
		<tag k="name" v="Hellerasten skole" />
		<tag k="ssr:stedsnr" v="267468" />
	</node>
	<node id="-244715" lat="59.6779472251" lon="10.8853583376">
		<tag k="amenity" v="school" />
		<tag k="name" v="Kråkstad skole" />
		<tag k="ssr:stedsnr" v="264741" />
	</node>
	<node id="-244713" lat="59.7820222215" lon="10.8184055468">
		<tag k="name" v="Dammen" />
		<tag k="place" v="isolated_dwelling" />
		<tag k="ssr:stedsnr" v="449497" />
	</node>
	<node id="-244712" lat="59.783711108" lon="10.8164305509">
		<tag k="name" v="Korsveien" />
		<tag k="place" v="isolated_dwelling" />
		<tag k="ssr:stedsnr" v="247303" />
	</node>
	<node id="-244709" lat="59.8136500002" lon="10.8864138849">
		<tag k="name" v="Barli" />
		<tag k="place" v="farm" />
		<tag k="ssr:stedsnr" v="247255" />
	</node>
	<node id="-244707" lat="59.8111388916" lon="10.805324993">
		<tag k="name" v="Kullebund" />
		<tag k="place" v="quarter" />
		<tag k="ssr:stedsnr" v="448725" />
	</node>
	<node id="-244705" lat="59.8183055576" lon="10.7483416653">
		<tag k="fixme" v="consider natural=beach + surface=sand" />
		<tag k="leisure" v="swimming_area" />
		<tag k="name" v="Ingierstrand bad" />
		<tag k="place" v="locality" />
		<tag k="ssr:stedsnr" v="448130" />
	</node>
	<node id="-244704" lat="59.6633083338" lon="10.9115694492">
		<tag k="name" v="Østre" />
		<tag k="place" v="farm" />
		<tag k="ssr:stedsnr" v="245471" />
	</node>
	<node id="-244701" lat="59.641938886" lon="10.9224249914">
		<tag k="alt_name" v="Berger nedre" />
		<tag k="name" v="Nedre Berger" />
		<tag k="place" v="farm" />
		<tag k="ssr:stedsnr" v="447492" />
	</node>
	<node id="-244700" lat="59.6627972211" lon="10.9393999987">
		<tag k="alt_name" v="Myrer østre" />
		<tag k="name" v="Østre Myrer" />
		<tag k="place" v="farm" />
		<tag k="ssr:stedsnr" v="447486" />
	</node>
	<node id="-244699" lat="59.6612722227" lon="10.9101111067">
		<tag k="name" v="Nygård" />
		<tag k="place" v="farm" />
		<tag k="ssr:stedsnr" v="447467" />
	</node>
	<node id="-244692" lat="59.7415444425" lon="10.8754388839">
		<tag k="name" v="Holmshytta" />
		<tag k="place" v="isolated_dwelling" />
		<tag k="ssr:stedsnr" v="447428" />
	</node>
	<node id="-244691" lat="59.7513083369" lon="10.9332805592">
		<tag k="alt_name" v="Boger søndre" />
		<tag k="name" v="Søndre Boger" />
		<tag k="place" v="farm" />
		<tag k="ssr:stedsnr" v="447276" />
	</node>
	<node id="-244687" lat="59.7223000005" lon="10.8836861136">
		<tag k="name" v="Kula" />
		<tag k="place" v="farm" />
		<tag k="ssr:stedsnr" v="204331" />
	</node>
	<node id="-244681" lat="59.7669750045" lon="10.812858325">
		<tag k="name" v="Oppegård" />
		<tag k="place" v="village" />
		<tag k="ssr:stedsnr" v="145666" />
	</node>
	<node id="-244678" lat="59.8199972215" lon="10.7915861072">
		<tag k="leisure" v="park" />
		<tag k="name" v="Kolbotn gravlund" />
		<tag k="ssr:stedsnr" v="266676" />
	</node>
	<node id="-244677" lat="59.7931111127" lon="10.826875008">
		<tag k="name" v="Fløysbonn" />
		<tag k="place" v="locality" />
		<tag k="ssr:stedsnr" v="266674" />
	</node>
	<node id="-244676" lat="59.7755416631" lon="10.7513027715">
		<tag k="fixme" v="consider place=hamlet" />
		<tag k="name" v="Søndre Oppegård" />
		<tag k="place" v="village" />
		<tag k="ssr:stedsnr" v="266671" />
	</node>
	<node id="-244671" lat="59.6536805591" lon="10.8613499931">
		<tag k="fixme" v="multiple name tags, choose one and add the other to alt_name" />
		<tag k="name" v="Fjerdingen;Stenerudfjerdingen" />
		<tag k="place" v="farm" />
		<tag k="ssr:stedsnr" v="264522" />
	</node>
	<node id="-244670" lat="59.6548499997" lon="10.9188027709">
		<tag k="fixme" v="consider place=hamlet" />
		<tag k="name" v="Reitvet" />
		<tag k="place" v="farm" />
		<tag k="ssr:stedsnr" v="264518" />
	</node>
	<node id="-244669" lat="59.6629083371" lon="10.8356972219">
		<tag k="name" v="Granli" />
		<tag k="place" v="farm" />
		<tag k="ssr:stedsnr" v="264508" />
	</node>
	<node id="-244668" lat="59.6702138932" lon="10.9334722143">
		<tag k="name" v="Ringnes" />
		<tag k="place" v="quarter" />
		<tag k="ssr:stedsnr" v="264504" />
	</node>
	<node id="-244666" lat="59.7669277815" lon="10.8842916628">
		<tag k="name" v="Brandsrud" />
		<tag k="place" v="farm" />
		<tag k="ssr:stedsnr" v="264490" />
	</node>
	<node id="-244664" lat="59.7533944422" lon="10.850144441">
		<tag k="name" v="Brantenborg" />
		<tag k="place" v="farm" />
		<tag k="ssr:stedsnr" v="264479" />
	</node>
	<node id="-244663" lat="59.7573583335" lon="10.9181722248">
		<tag k="name" v="Eikjolhytta" />
		<tag k="place" v="isolated_dwelling" />
		<tag k="ssr:stedsnr" v="264477" />
	</node>
	<node id="-244661" lat="59.725255552" lon="10.8731083335">
		<tag k="loc_name" v="Li" />
		<tag k="name" v="Lie" />
		<tag k="place" v="farm" />
		<tag k="ssr:stedsnr" v="264452" />
	</node>
	<node id="-244658" lat="59.7405722244" lon="10.8995999998">
		<tag k="alt_name" v="Solberg søndre" />
		<tag k="name" v="Søndre Solberg" />
		<tag k="place" v="farm" />
		<tag k="ssr:stedsnr" v="264438" />
	</node>
	<node id="-244652" lat="59.7322388882" lon="10.9081277707">
		<tag k="name" v="Vestre Bjerke" />
		<tag k="place" v="farm" />
		<tag k="ssr:stedsnr" v="264304" />
	</node>
	<node id="-244649" lat="59.7909500033" lon="10.881736103">
		<tag k="name" v="Siggerud" />
		<tag k="place" v="village" />
		<tag k="ssr:stedsnr" v="264294" />
	</node>
	<node id="-244648" lat="59.8071444466" lon="10.9175611142">
		<tag k="name" v="Ragnhildtun" />
		<tag k="place" v="locality" />
		<tag k="ssr:stedsnr" v="264281" />
	</node>
	<node id="-244643" lat="59.6301611126" lon="10.8832583271">
		<tag k="name" v="Grønstvet" />
		<tag k="place" v="farm" />
		<tag k="ssr:stedsnr" v="124272" />
	</node>
	<node id="-244641" lat="59.6801777816" lon="10.8371555531">
		<tag k="fixme" v="multiple name tags, choose one and add the other to alt_name" />
		<tag k="name" v="Lille Gryteland;Nordre Gryteland" />
		<tag k="place" v="farm" />
		<tag k="ssr:stedsnr" v="102532" />
	</node>
	<node id="-244640" lat="59.8288500022" lon="10.7651972199">
		<tag k="name" v="Ljansbruket" />
		<tag k="place" v="quarter" />
		<tag k="ssr:stedsnr" v="84706" />
	</node>
	<node id="-244637" lat="59.6621888885" lon="10.8926222215">
		<tag k="alt_name" v="Frestad søndre" />
		<tag k="name" v="Søndre Frestad" />
		<tag k="place" v="farm" />
		<tag k="ssr:stedsnr" v="82521" />
	</node>
	<node id="-244636" lat="59.6390583359" lon="10.9313500018">
		<tag k="name" v="Brekke" />
		<tag k="place" v="locality" />
		<tag k="ssr:stedsnr" v="82519" />
	</node>
	<node id="-244630" lat="59.7870166686" lon="10.8753222154">
		<tag k="landuse" v="winter_sports" />
		<tag k="name" v="Trolldalen skisenter" />
		<tag k="piste:type" v="downhill" />
		<tag k="ssr:stedsnr" v="82264" />
	</node>
	<node id="-244628" lat="59.76195278" lon="10.8917972184">
		<tag k="alt_name" v="Damgård" />
		<tag k="name" v="Dammen" />
		<tag k="place" v="farm" />
		<tag k="ssr:stedsnr" v="247384" />
	</node>
	<node id="-244626" lat="59.791908336" lon="10.9079250053">
		<tag k="name" v="Snikedal" />
		<tag k="place" v="locality" />
		<tag k="ssr:stedsnr" v="247340" />
	</node>
	<node id="-244623" lat="59.7849027737" lon="10.7393638974">
		<tag k="name" v="Rødstein" />
		<tag k="place" v="isolated_dwelling" />
		<tag k="ssr:stedsnr" v="247323" />
	</node>
	<node id="-244622" lat="59.7862222178" lon="10.8571388936">
		<tag k="name" v="Stallerud" />
		<tag k="place" v="farm" />
		<tag k="ssr:stedsnr" v="247313" />
	</node>
	<node id="-244621" lat="59.733008334" lon="10.828277774">
		<tag k="name" v="Tallaksrud" />
		<tag k="place" v="farm" />
		<tag k="ssr:stedsnr" v="246586" />
	</node>
	<node id="-244620" lat="59.7122555535" lon="10.9217388867">
		<tag k="name" v="Strevopp" />
		<tag k="place" v="farm" />
		<tag k="ssr:stedsnr" v="246534" />
	</node>
	<node id="-244619" lat="59.7388500027" lon="10.9344388938">
		<tag k="name" v="Bjørnebråten" />
		<tag k="place" v="farm" />
		<tag k="ssr:stedsnr" v="246478" />
	</node>
	<node id="-244618" lat="59.6690249978" lon="10.934747226">
		<tag k="name" v="Nordheim" />
		<tag k="place" v="farm" />
		<tag k="ssr:stedsnr" v="246448" />
	</node>
	<node id="-244617" lat="59.7051305581" lon="10.9274083321">
		<tag k="name" v="Myrvoll" />
		<tag k="place" v="farm" />
		<tag k="ssr:stedsnr" v="246373" />
	</node>
	<node id="-244616" lat="59.7087996103" lon="10.8777449697">
		<tag k="loc_name" v="Bekkevold" />
		<tag k="name" v="Bekkevoll" />
		<tag k="place" v="farm" />
		<tag k="ssr:stedsnr" v="246367" />
	</node>
	<node id="-244615" lat="59.6611277751" lon="10.8645277835">
		<tag k="name" v="Dyrerud" />
		<tag k="place" v="farm" />
		<tag k="ssr:stedsnr" v="245477" />
	</node>
	<node id="-244614" lat="59.6582388867" lon="10.8667805485">
		<tag k="name" v="Sandbakken" />
		<tag k="place" v="farm" />
		<tag k="ssr:stedsnr" v="245476" />
	</node>
	<node id="-244613" lat="59.655347218" lon="10.8566805531">
		<tag k="fixme" v="consider place=hamlet" />
		<tag k="name" v="Stønerud" />
		<tag k="old_name" v="Stenerud" />
		<tag k="place" v="farm" />
		<tag k="ssr:stedsnr" v="245239" />
	</node>
	<node id="-244612" lat="59.7497944445" lon="10.9238111126">
		<tag k="alt_name" v="Stunner;Stunner nordre;Østre og vestre Stunner" />
		<tag k="name" v="Nordre Stunner" />
		<tag k="place" v="farm" />
		<tag k="ssr:stedsnr" v="66454" />
	</node>
	<node id="-244609" lat="59.7847500004" lon="10.8225805514">
		<tag k="alt_name" v="Sagstuen" />
		<tag k="name" v="Sagstua" />
		<tag k="place" v="farm" />
		<tag k="ssr:stedsnr" v="65324" />
	</node>
	<node id="-244608" lat="59.7905999958" lon="10.8066472279">
		<tag k="alt_name" v="Tømtehytta" />
		<tag k="name" v="Øvre Ekornrud" />
		<tag k="place" v="farm" />
		<tag k="ssr:stedsnr" v="65322" />
	</node>
	<node id="-244607" lat="59.6798555538" lon="10.8682027846">
		<tag k="name" v="Sion" />
		<tag k="place" v="farm" />
		<tag k="ssr:stedsnr" v="64439" />
	</node>
	<node id="-244605" lat="59.6632126607" lon="10.9388919673">
		<tag k="fixme" v="consider place=hamlet" />
		<tag k="name" v="Myrer" />
		<tag k="place" v="farm" />
		<tag k="ssr:stedsnr" v="63522" />
	</node>
	<node id="-244604" lat="59.6609833343" lon="10.9365388915">
		<tag k="name" v="Høyås" />
		<tag k="place" v="farm" />
		<tag k="ssr:stedsnr" v="63521" />
	</node>
	<node id="-244594" lat="59.7018583375" lon="10.8940277781">
		<tag k="alt_name" v="Nordby nordre" />
		<tag k="name" v="Nordre Nordby" />
		<tag k="place" v="farm" />
		<tag k="ssr:stedsnr" v="22531" />
	</node>
	<node id="-244593" lat="59.6857111071" lon="10.9171">
		<tag k="name" v="Hestehagen" />
		<tag k="place" v="isolated_dwelling" />
		<tag k="ssr:stedsnr" v="22529" />
	</node>
</osm>
