<?xml version="1.0" encoding="UTF-8"?>
<<<<<<< HEAD
<osm version="0.6" generator="osmapis">
	<node lat="59.82819444672439" lon="10.733513897596236" id="-17781">
		<tag k="name" v="Husanberget" />
		<tag k="natural" v="shoal" />
		<tag k="place" v="locality" />
		<tag k="ssr:stedsnr" v="268370" />
	</node>
	<node lat="59.81745000259708" lon="10.747899991892366" id="-17841">
		<tag k="name" v="Ingierstrand" />
		<tag k="natural" v="beach" />
		<tag k="ssr:stedsnr" v="369271" />
	</node>
	<node lat="59.74463333364277" lon="10.722119444469184" id="-17865">
		<tag k="bay" v="fjord" />
		<tag k="name" v="Bunnefjorden" />
		<tag k="natural" v="bay" />
		<tag k="ssr:stedsnr" v="488471" />
	</node>
	<node lat="59.828524998749764" lon="10.761124996924801" id="-17944">
		<tag k="name" v="Kattøyodden" />
		<tag k="natural" v="cape" />
		<tag k="ssr:stedsnr" v="509664" />
	</node>
	<node lat="59.827055556787116" lon="10.759191663722978" id="-17990">
		<tag k="name" v="Bestemorstranda" />
		<tag k="natural" v="beach" />
		<tag k="ssr:stedsnr" v="611297" />
	</node>
	<node lat="59.81094444347717" lon="10.739358328683428" id="-18084">
		<tag k="name" v="Spirebuktgrunnen" />
		<tag k="natural" v="shoal" />
		<tag k="place" v="locality" />
		<tag k="ssr:stedsnr" v="753275" />
	</node>
	<node lat="59.823763885035405" lon="10.752738896789953" id="-18100">
		<tag k="alt_name" v="Bjørnehodet" />
		<tag k="name" v="Bjørnehue" />
		<tag k="natural" v="cape" />
		<tag k="ssr:stedsnr" v="794511" />
	</node>
	<node lat="59.80445277541299" lon="10.737791666418783" id="-18177">
		<tag k="name" v="Tangen" />
		<tag k="natural" v="cape" />
		<tag k="ssr:stedsnr" v="935191" />
	</node>
	<node lat="59.7764472266314" lon="10.732486119321722" id="-18180">
		<tag k="name" v="Djupholet" />
		<tag k="natural" v="bay" />
		<tag k="ssr:stedsnr" v="906753" />
	</node>
	<node lat="59.79606944135318" lon="10.733944450561317" id="-18240">
		<tag k="alt_name" v="Prostedskjæret" />
		<tag k="fixme" v="consider seamark:type=rock or natural=shoal" />
		<tag k="name" v="Prosted" />
		<tag k="place" v="islet" />
		<tag k="ssr:stedsnr" v="23724" />
	</node>
	<node lat="59.775536106802456" lon="10.7327055570505" id="-18417">
		<tag k="name" v="Odden" />
		<tag k="natural" v="cape" />
		<tag k="ssr:stedsnr" v="328198" />
	</node>
	<node lat="59.77193611074313" lon="10.733249996225984" id="-18423">
		<tag k="name" v="Bålerudstranda" />
		<tag k="natural" v="beach" />
		<tag k="ssr:stedsnr" v="359748" />
	</node>
	<node lat="59.83500555990909" lon="10.751641659043608" id="-18526">
		<tag k="name" v="Hvitebjørnflua" />
		<tag k="natural" v="shoal" />
		<tag k="place" v="locality" />
		<tag k="ssr:stedsnr" v="510285" />
	</node>
	<node lat="59.808744442030005" lon="10.7414555465312" id="-18528">
=======
<osm generator="osmapis" version="0.6">
	<node id="-244864" lat="59.8350055599" lon="10.751641659">
		<tag k="name" v="Hvitebjørnflua" />
		<tag k="natural" v="shoal" />
		<tag k="place" v="locality" />
		<tag k="ssr:stedsnr" v="510285" />
	</node>
	<node id="-245502" lat="59.8270555568" lon="10.7591916637">
		<tag k="name" v="Bestemorstranda" />
		<tag k="natural" v="beach" />
		<tag k="place" v="locality" />
		<tag k="ssr:stedsnr" v="611297" />
	</node>
	<node id="-245661" lat="59.8009777765" lon="10.732369449">
		<tag k="name" v="Kalvatngrunnen" />
		<tag k="natural" v="shoal" />
		<tag k="place" v="locality" />
		<tag k="ssr:stedsnr" v="875226" />
	</node>
	<node id="-245595" lat="59.823763885" lon="10.7527388968">
		<tag k="alt_name" v="Bjørnehodet" />
		<tag k="name" v="Bjørnehue" />
		<tag k="natural" v="cape" />
		<tag k="ssr:stedsnr" v="794511" />
	</node>
	<node id="-244890" lat="59.808744442" lon="10.7414555465">
>>>>>>> e1d4bc35ff8a6074a6f2e91616a996b547c36f15
		<tag k="name" v="Sandbukta" />
		<tag k="natural" v="bay" />
		<tag k="ssr:stedsnr" v="543335" />
	</node>
<<<<<<< HEAD
	<node lat="59.82123055609015" lon="10.751283338899153" id="-18677">
=======
	<node id="-245561" lat="59.8109444435" lon="10.7393583287">
		<tag k="name" v="Spirebuktgrunnen" />
		<tag k="natural" v="shoal" />
		<tag k="place" v="locality" />
		<tag k="ssr:stedsnr" v="753275" />
	</node>
	<node id="-244599" lat="59.7960694414" lon="10.7339444506">
		<tag k="alt_name" v="Prostedskjæret" />
		<tag k="fixme" v="consider seamark:type=rock or natural=shoal" />
		<tag k="name" v="Prosted" />
		<tag k="place" v="islet" />
		<tag k="ssr:stedsnr" v="23724" />
	</node>
	<node id="-245622" lat="59.8212305561" lon="10.7512833389">
>>>>>>> e1d4bc35ff8a6074a6f2e91616a996b547c36f15
		<tag k="name" v="Sandbukta" />
		<tag k="natural" v="bay" />
		<tag k="ssr:stedsnr" v="812720" />
	</node>
<<<<<<< HEAD
	<node lat="59.81085000343214" lon="10.743661114279627" id="-18695">
		<tag k="name" v="Linnebukta" />
		<tag k="natural" v="bay" />
		<tag k="ssr:stedsnr" v="855265" />
	</node>
	<node lat="59.80563889098627" lon="10.73855833918597" id="-18700">
		<tag k="name" v="Mjølsekken" />
=======
	<node id="-245013" lat="59.8044527754" lon="10.7377916664">
		<tag k="name" v="Tangen" />
>>>>>>> e1d4bc35ff8a6074a6f2e91616a996b547c36f15
		<tag k="natural" v="cape" />
		<tag k="ssr:stedsnr" v="855284" />
	</node>
<<<<<<< HEAD
	<node lat="59.800977776537266" lon="10.732369449037819" id="-18716">
		<tag k="name" v="Kalvatngrunnen" />
		<tag k="natural" v="shoal" />
		<tag k="place" v="locality" />
		<tag k="ssr:stedsnr" v="875226" />
=======
	<node id="-245022" lat="59.8108500034" lon="10.7436611143">
		<tag k="name" v="Linnebukta" />
		<tag k="natural" v="bay" />
		<tag k="ssr:stedsnr" v="855265" />
	</node>
	<node id="-245646" lat="59.805638891" lon="10.7385583392">
		<tag k="name" v="Mjølsekken" />
		<tag k="natural" v="cape" />
		<tag k="ssr:stedsnr" v="855284" />
	</node>
	<node id="-244861" lat="59.8285249987" lon="10.7611249969">
		<tag k="name" v="Kattøyodden" />
		<tag k="natural" v="cape" />
		<tag k="ssr:stedsnr" v="509664" />
	</node>
	<node id="-244734" lat="59.7446333336" lon="10.7221194445">
		<tag k="bay" v="fjord" />
		<tag k="name" v="Bunnefjorden" />
		<tag k="natural" v="bay" />
		<tag k="ssr:stedsnr" v="488471" />
	</node>
	<node id="-245350" lat="59.7719361107" lon="10.7332499962">
		<tag k="name" v="Bålerudstranda" />
		<tag k="natural" v="beach" />
		<tag k="place" v="locality" />
		<tag k="ssr:stedsnr" v="359748" />
	</node>
	<node id="-245345" lat="59.7755361068" lon="10.7327055571">
		<tag k="name" v="Odden" />
		<tag k="natural" v="cape" />
		<tag k="ssr:stedsnr" v="328198" />
	</node>
	<node id="-244718" lat="59.8281944467" lon="10.7335138976">
		<tag k="name" v="Husanberget" />
		<tag k="natural" v="shoal" />
		<tag k="place" v="locality" />
		<tag k="ssr:stedsnr" v="268370" />
	</node>
	<node id="-244926" lat="59.8246138896" lon="10.7243027794">
		<tag k="name" v="Kirkevikbanken" />
		<tag k="place" v="locality" />
		<tag k="ssr:stedsnr" v="631355" />
	</node>
	<node id="-244962" lat="59.7764472266" lon="10.7324861193">
		<tag k="name" v="Djupholet" />
		<tag k="natural" v="bay" />
		<tag k="ssr:stedsnr" v="906753" />
	</node>
	<node id="-245377" lat="59.8174500026" lon="10.7478999919">
		<tag k="name" v="Ingierstrand" />
		<tag k="natural" v="beach" />
		<tag k="place" v="locality" />
		<tag k="ssr:stedsnr" v="369271" />
>>>>>>> e1d4bc35ff8a6074a6f2e91616a996b547c36f15
	</node>
</osm>
