<?xml version="1.0" encoding="UTF-8"?>
<osm version="0.6" generator="osmapis">
	<node id="310403889" lat="59.7850036" lon="10.3237162" version="6" timestamp="2022-04-14T17:24:37Z" changeset="119722501" uid="3497659" user="NKA">
		<tag k="historic" v="shieling" />
		<tag k="historic:operator" v="Reistad" />
		<tag k="name" v="Lille Reistadvollen" />
		<tag k="place" v="locality" />
		<tag k="ssr:stedsnr" v="689577" />
	</node>
	<node id="339000875" lat="59.8215803" lon="10.3263756" version="6" timestamp="2022-04-14T17:24:37Z" changeset="119722501" uid="3497659" user="NKA">
		<tag k="name" v="Heia" />
		<tag k="place" v="quarter" />
		<tag k="ssr:stedsnr" v="307241" />
	</node>
	<node id="340971774" lat="59.810446" lon="10.2610586" version="11" timestamp="2022-04-14T17:24:37Z" changeset="119722501" uid="3497659" user="NKA">
		<tag k="name" v="Tranby" />
		<tag k="place" v="village" />
		<tag k="population" v="5289" />
		<tag k="population:date" v="2021-01-01" />
		<tag k="ref:ssb_tettsted" v="2144" />
		<tag k="source:population" v="SSB - befolkning i tettstedet" />
		<tag k="ssr:stedsnr" v="810684" />
	</node>
	<node id="340972969" lat="59.7865771" lon="10.2432921" version="4" timestamp="2022-04-14T17:24:37Z" changeset="119722501" uid="3497659" user="NKA">
		<tag k="alt_name" v="Lier" />
		<tag k="name" v="Lierbyen" />
		<tag k="place" v="village" />
		<tag k="ssr:stedsnr" v="65140" />
		<tag k="wikidata" v="Q2072812" />
	</node>
	<node id="342073226" lat="59.8095683" lon="10.3109423" version="2" timestamp="2022-04-14T17:24:37Z" changeset="119722501" uid="3497659" user="NKA">
		<tag k="name" v="Kjenner" />
		<tag k="place" v="farm" />
		<tag k="ssr:stedsnr" v="829165" />
	</node>
	<node id="353983057" lat="59.8372028" lon="10.3165251" version="2" timestamp="2022-04-14T17:24:37Z" changeset="119722501" uid="3497659" user="NKA">
		<tag k="name" v="Slåttebråtan" />
		<tag k="place" v="farm" />
		<tag k="ssr:stedsnr" v="4286" />
	</node>
	<node id="353983063" lat="59.8378894" lon="10.3214969" version="3" timestamp="2022-04-14T17:24:37Z" changeset="119722501" uid="3497659" user="NKA">
		<tag k="name" v="Bøhagan" />
		<tag k="place" v="farm" />
		<tag k="ssr:stedsnr" v="247262" />
	</node>
	<node id="392761395" lat="59.8898333" lon="10.3124362" version="3" timestamp="2022-04-14T17:24:37Z" changeset="119722501" uid="3497659" user="NKA">
		<tag k="alt_name" v="Bakkerud" />
		<tag k="name" v="Øvre Bakkerud" />
		<tag k="place" v="farm" />
		<tag k="ssr:stedsnr" v="21958" />
	</node>
	<node id="401653315" lat="59.8588805" lon="10.2969499" version="3" timestamp="2022-04-14T17:24:37Z" changeset="119722501" uid="3497659" user="NKA">
		<tag k="abandoned" v="yes" />
		<tag k="name" v="Moldkastet" />
		<tag k="place" v="isolated_dwelling" />
		<tag k="ssr:stedsnr" v="428242" />
	</node>
	<node id="401653538" lat="59.8556002" lon="10.3244811" version="3" timestamp="2022-04-14T17:24:37Z" changeset="119722501" uid="3497659" user="NKA">
		<tag k="abandoned" v="yes" />
		<tag k="name" v="Heiahytta" />
		<tag k="place" v="isolated_dwelling" />
		<tag k="ssr:stedsnr" v="689965" />
	</node>
	<node id="409206280" lat="59.8765055" lon="10.1133361" version="3" timestamp="2022-04-14T17:24:37Z" changeset="119722501" uid="3497659" user="NKA">
		<tag k="name" v="Saga" />
		<tag k="place" v="isolated_dwelling" />
		<tag k="ssr:stedsnr" v="550340" />
	</node>
	<node id="410414564" lat="59.8304955" lon="10.2815767" version="3" timestamp="2022-04-14T17:24:37Z" changeset="119722501" uid="3497659" user="NKA">
		<tag k="name" v="Kraft" />
		<tag k="place" v="farm" />
		<tag k="ssr:stedsnr" v="247187" />
	</node>
	<node id="428231227" lat="59.8401072" lon="10.3077025" version="2" timestamp="2022-04-14T17:24:37Z" changeset="119722501" uid="3497659" user="NKA">
		<tag k="name" v="Gulliksrud" />
		<tag k="place" v="farm" />
		<tag k="ssr:stedsnr" v="671290" />
	</node>
	<node id="560787606" lat="59.8777251" lon="10.297348" version="2" timestamp="2022-04-14T17:24:37Z" changeset="119722501" uid="3497659" user="NKA">
		<tag k="name" v="Asdøl" />
		<tag k="place" v="hamlet" />
		<tag k="ssr:stedsnr" v="186354" />
	</node>
	<node id="629179996" lat="59.8310051" lon="10.2758384" version="2" timestamp="2022-04-14T17:24:37Z" changeset="119722501" uid="3497659" user="NKA">
		<tag k="name" v="Nordenga" />
		<tag k="place" v="farm" />
		<tag k="ssr:stedsnr" v="749040" />
	</node>
	<node id="1296051465" lat="59.8944404" lon="10.2841004" version="5" timestamp="2022-04-14T17:24:37Z" changeset="119722501" uid="3497659" user="NKA">
		<tag k="name" v="Sylling" />
		<tag k="place" v="village" />
		<tag k="population" v="736" />
		<tag k="population:date" v="2021-01-01" />
		<tag k="ref:ssb_tettsted" v="2143" />
		<tag k="source:population" v="SSB - befolkning i tettstedet" />
		<tag k="ssr:stedsnr" v="611311" />
	</node>
	<node id="1356884025" lat="59.7431804" lon="10.3101014" version="2" timestamp="2022-04-14T17:24:37Z" changeset="119722501" uid="3497659" user="NKA">
		<tag k="name" v="Kovestad" />
		<tag k="place" v="farm" />
		<tag k="ssr:stedsnr" v="931649" />
	</node>
	<node id="1388496049" lat="59.7273497" lon="10.3140204" version="2" timestamp="2022-04-14T17:24:37Z" changeset="119722501" uid="3497659" user="NKA">
		<tag k="name" v="Lahell" />
		<tag k="place" v="quarter" />
		<tag k="ssr:stedsnr" v="306253" />
	</node>
	<node id="1388704003" lat="59.736258" lon="10.316299" version="7" timestamp="2022-04-14T17:24:37Z" changeset="119722501" uid="3497659" user="NKA">
		<tag k="name" v="Hval" />
		<tag k="place" v="farm" />
		<tag k="ssr:stedsnr" v="731317" />
	</node>
	<node id="1406852479" lat="59.7365112" lon="10.3123797" version="3" timestamp="2022-04-14T17:24:37Z" changeset="119722501" uid="3497659" user="NKA">
		<tag k="alt_name" v="Mellom Mørk" />
		<tag k="name" v="Mørk" />
		<tag k="place" v="farm" />
		<tag k="ssr:stedsnr" v="428243" />
	</node>
	<node id="2058757861" lat="59.8146652" lon="10.2149026" version="5" timestamp="2022-04-14T17:24:37Z" changeset="119722501" uid="3497659" user="NKA">
		<tag k="name" v="Egge" />
		<tag k="place" v="quarter" />
		<tag k="population" v="529" />
		<tag k="population:date" v="2021-01-01" />
		<tag k="ref:ssb_tettsted" v="2148" />
		<tag k="source:population" v="SSB - befolkning i tettstedet" />
		<tag k="ssr:stedsnr" v="145835" />
	</node>
	<node id="2121734033" lat="59.7592968" lon="10.287939" version="2" timestamp="2022-04-14T17:24:37Z" changeset="119722501" uid="3497659" user="NKA">
		<tag k="name" v="Tuverud" />
		<tag k="place" v="farm" />
		<tag k="ssr:stedsnr" v="246066" />
	</node>
	<node id="2121734034" lat="59.7532203" lon="10.2889203" version="2" timestamp="2022-04-14T17:24:37Z" changeset="119722501" uid="3497659" user="NKA">
		<tag k="alt_name" v="Søndre Linnes" />
		<tag k="name" v="Linnes" />
		<tag k="place" v="farm" />
		<tag k="ssr:stedsnr" v="792100" />
	</node>
	<node id="2304198792" lat="59.7490728" lon="10.2909461" version="3" timestamp="2022-04-14T17:24:37Z" changeset="119722501" uid="3497659" user="NKA">
		<tag k="name" v="Gullaug" />
		<tag k="place" v="quarter" />
		<tag k="ssr:stedsnr" v="203633" />
	</node>
	<node id="2304200359" lat="59.7462135" lon="10.2906631" version="2" timestamp="2022-04-14T17:24:37Z" changeset="119722501" uid="3497659" user="NKA">
		<tag k="name" v="Nordre Gullaug" />
		<tag k="place" v="farm" />
		<tag k="ssr:stedsnr" v="21878" />
	</node>
	<node id="2354963702" lat="59.8548633" lon="10.2651007" version="4" timestamp="2022-04-14T17:24:37Z" changeset="119722501" uid="3497659" user="NKA">
		<tag k="name" v="Opsal" />
		<tag k="place" v="farm" />
		<tag k="ssr:stedsnr" v="932887" />
	</node>
	<node id="2354963912" lat="59.862814" lon="10.265239" version="2" timestamp="2018-05-02T17:04:11Z" changeset="58620907" uid="3497659" user="NKA">
		<tag k="name" v="Haugen" />
		<tag k="natural" v="peak" />
		<tag k="source" v="Kartverket" />
		<tag k="ssr:stedsnr" v="264908" />
	</node>
	<node id="2370356989" lat="59.747528" lon="10.266122" version="2" timestamp="2018-05-02T17:05:22Z" changeset="58620907" uid="3497659" user="NKA">
		<tag k="name" v="Gilhusodden" />
		<tag k="natural" v="cape" />
		<tag k="source:name" v="Kartverket" />
		<tag k="ssr:stedsnr" v="185330" />
	</node>
	<node id="2370358216" lat="59.746872" lon="10.312783" version="3" timestamp="2022-04-14T17:24:37Z" changeset="119722501" uid="3497659" user="NKA">
		<tag k="name" v="Tronerud" />
		<tag k="place" v="farm" />
		<tag k="ssr:stedsnr" v="913339" />
	</node>
	<node id="2370366641" lat="59.744903" lon="10.315542" version="3" timestamp="2022-04-14T17:24:37Z" changeset="119722501" uid="3497659" user="NKA">
		<tag k="name" v="Enga" />
		<tag k="place" v="farm" />
		<tag k="ssr:stedsnr" v="549362" />
	</node>
	<node id="2400055665" lat="59.7716111" lon="10.2908278" version="2" timestamp="2022-04-14T17:24:37Z" changeset="119722501" uid="3497659" user="NKA">
		<tag k="alt_name" v="Sørum" />
		<tag k="name" v="Østre Sørum" />
		<tag k="place" v="locality" />
		<tag k="ssr:stedsnr" v="871564" />
	</node>
	<node id="2981669648" lat="59.7762834" lon="10.314125" version="4" timestamp="2022-04-14T17:24:37Z" changeset="119722501" uid="3497659" user="NKA">
		<tag k="fixme" v="position" />
		<tag k="historic" v="shieling" />
		<tag k="name" v="Sørumvollen" />
		<tag k="place" v="locality" />
		<tag k="ssr:stedsnr" v="628586" />
	</node>
	<node id="2982911876" lat="59.8962083" lon="10.3375917" version="5" timestamp="2022-04-14T17:24:37Z" changeset="119722501" uid="3497659" user="NKA">
		<tag k="historic" v="shieling" />
		<tag k="historic:operator" v="Østre Enger;Tveiten;Skjæret" />
		<tag k="name" v="Engersetra" />
		<tag k="place" v="isolated_dwelling" />
		<tag k="source" v="Jan Martin Larsen (Asker og Bærum Historielag)" />
		<tag k="ssr:stedsnr" v="550303" />
	</node>
	<node id="2982911880" lat="59.8381306" lon="10.2899389" version="7" timestamp="2022-04-14T17:24:37Z" changeset="119722501" uid="3497659" user="NKA">
		<tag k="alt_name" v="Søsetra" />
		<tag k="historic" v="shieling" />
		<tag k="historic:operator" v="Sørsdal" />
		<tag k="name" v="Sørsetra" />
		<tag k="place" v="locality" />
		<tag k="ssr:stedsnr" v="385131" />
	</node>
	<node id="2982911881" lat="59.9170175" lon="10.3500859" version="5" timestamp="2022-04-14T17:24:37Z" changeset="119722501" uid="3497659" user="NKA">
		<tag k="alt_name" v="Toverud sæter" />
		<tag k="historic" v="shieling" />
		<tag k="historic:operator" v="Toverud;Sylling;Hørte;Kirkerud" />
		<tag k="name" v="Toverudsetra" />
		<tag k="place" v="isolated_dwelling" />
		<tag k="ssr:stedsnr" v="429937" />
	</node>
	<node id="2982911883" lat="59.8816904" lon="10.3205535" version="5" timestamp="2022-04-14T17:24:37Z" changeset="119722501" uid="3497659" user="NKA">
		<tag k="alt_name" v="Tveitasetra" />
		<tag k="historic" v="shieling" />
		<tag k="historic:operator" v="Tveiten" />
		<tag k="name" v="Tveitsetra" />
		<tag k="place" v="isolated_dwelling" />
		<tag k="ssr:stedsnr" v="611377" />
	</node>
	<node id="3131493352" lat="59.7614035" lon="10.2576005" version="4" timestamp="2022-04-14T17:24:37Z" changeset="119722501" uid="3497659" user="NKA">
		<tag k="name" v="Huseby" />
		<tag k="place" v="farm" />
		<tag k="ssr:stedsnr" v="689870" />
	</node>
	<node id="3282715982" lat="59.8522382" lon="10.3010655" version="5" timestamp="2022-04-14T17:24:37Z" changeset="119722501" uid="3497659" user="NKA">
		<tag k="alt_name" v="Opsalsetra;Nordre Oppsalsetra" />
		<tag k="historic" v="shieling" />
		<tag k="name" v="Oppsalsetra" />
		<tag k="place" v="isolated_dwelling" />
		<tag k="ssr:stedsnr" v="247282" />
	</node>
	<node id="3684476342" lat="59.8242564" lon="10.2677726" version="2" timestamp="2022-04-14T17:24:37Z" changeset="119722501" uid="3497659" user="NKA">
		<tag k="loc_name" v="Hennumstorget" />
		<tag k="name" v="Hennumtorget" />
		<tag k="place" v="locality" />
		<tag k="ssr:stedsnr" v="507041" />
	</node>
	<node id="4335539268" lat="59.9195952" lon="10.3399714" version="2" timestamp="2022-04-14T17:24:37Z" changeset="119722501" uid="3497659" user="NKA">
		<tag k="name" v="Toverud" />
		<tag k="place" v="hamlet" />
		<tag k="ssr:stedsnr" v="793431" />
	</node>
	<node id="4335539269" lat="59.891626" lon="10.3047242" version="2" timestamp="2022-04-14T17:24:37Z" changeset="119722501" uid="3497659" user="NKA">
		<tag k="name" v="Østre Enger" />
		<tag k="place" v="farm" />
		<tag k="ssr:stedsnr" v="385988" />
	</node>
	<node id="4335539271" lat="59.8883575" lon="10.3104955" version="2" timestamp="2022-04-14T17:24:37Z" changeset="119722501" uid="3497659" user="NKA">
		<tag k="name" v="Sjåhit" />
		<tag k="place" v="farm" />
		<tag k="ssr:stedsnr" v="871870" />
	</node>
	<node id="4335539272" lat="59.8871806" lon="10.3073691" version="2" timestamp="2022-04-14T17:24:37Z" changeset="119722501" uid="3497659" user="NKA">
		<tag k="name" v="Lappen" />
		<tag k="place" v="farm" />
		<tag k="ssr:stedsnr" v="749973" />
	</node>
	<node id="4335539288" lat="59.8811106" lon="10.3033039" version="2" timestamp="2022-04-14T17:24:37Z" changeset="119722501" uid="3497659" user="NKA">
		<tag k="name" v="Kornerud" />
		<tag k="place" v="farm" />
		<tag k="ssr:stedsnr" v="65338" />
	</node>
	<node id="4400910520" lat="59.7497783" lon="10.2309858" version="4" timestamp="2022-04-14T17:24:37Z" changeset="119722501" uid="3497659" user="NKA">
		<tag k="name" v="Nøste" />
		<tag k="place" v="suburb" />
		<tag k="ssr:stedsnr" v="1072688" />
	</node>
	<node id="4788277882" lat="59.9620866" lon="10.3270374" version="2" timestamp="2022-04-14T17:24:37Z" changeset="119722501" uid="3497659" user="NKA">
		<tag k="name" v="Vefsrud" />
		<tag k="place" v="farm" />
		<tag k="ssr:stedsnr" v="489504" />
	</node>
	<node id="6230982396" lat="59.8197554" lon="10.3309457" version="2" timestamp="2022-04-14T17:24:37Z" changeset="119722501" uid="3497659" user="NKA">
		<tag k="name" v="Lierskogen" />
		<tag k="place" v="village" />
		<tag k="ssr:stedsnr" v="671211" />
	</node>
	<node id="6230982397" lat="59.7765358" lon="10.2880728" version="2" timestamp="2022-04-14T17:24:37Z" changeset="119722501" uid="3497659" user="NKA">
		<tag k="name" v="Reistad" />
		<tag k="place" v="quarter" />
		<tag k="ssr:stedsnr" v="914174" />
	</node>
	<node id="6800313564" lat="59.7957473" lon="10.1812306" version="2" timestamp="2022-04-14T17:24:37Z" changeset="119722501" uid="3497659" user="NKA">
		<tag k="fixme" v="position" />
		<tag k="historic" v="shieling" />
		<tag k="name" v="Knutesetra" />
		<tag k="place" v="locality" />
		<tag k="ssr:stedsnr" v="748728" />
	</node>
	<node id="6800500701" lat="59.8210667" lon="10.111676" version="6" timestamp="2022-04-14T17:24:37Z" changeset="119722501" uid="3497659" user="NKA">
		<tag k="fixme" v="position" />
		<tag k="historic" v="shieling" />
		<tag k="historic:operator" v="Eik søndre" />
		<tag k="name" v="Eiksetra" />
		<tag k="place" v="isolated_dwelling" />
		<tag k="ssr:stedsnr" v="628447" />
	</node>
	<node id="6800525468" lat="59.9492922" lon="10.2366497" version="2" timestamp="2022-04-14T17:24:37Z" changeset="119722501" uid="3497659" user="NKA">
		<tag k="historic" v="shieling" />
		<tag k="name" v="Breviksetra" />
		<tag k="place" v="isolated_dwelling" />
		<tag k="ssr:stedsnr" v="246384" />
	</node>
	<node id="6800525469" lat="59.9589875" lon="10.2453475" version="2" timestamp="2022-04-14T17:24:37Z" changeset="119722501" uid="3497659" user="NKA">
		<tag k="historic" v="shieling" />
		<tag k="name" v="Hornsetra" />
		<tag k="place" v="isolated_dwelling" />
		<tag k="ssr:stedsnr" v="489408" />
	</node>
	<node id="6800525470" lat="59.8580773" lon="10.1393037" version="2" timestamp="2022-04-14T17:24:37Z" changeset="119722501" uid="3497659" user="NKA">
		<tag k="historic" v="shieling" />
		<tag k="name" v="Veslesetra" />
		<tag k="place" v="isolated_dwelling" />
		<tag k="ssr:stedsnr" v="246259" />
	</node>
	<node id="6800525511" lat="59.8419184" lon="10.1933866" version="4" timestamp="2022-04-14T17:24:37Z" changeset="119722501" uid="3497659" user="NKA">
		<tag k="alt_name" v="Syljuseter;Stensrud" />
		<tag k="fixme" v="position" />
		<tag k="historic" v="shieling" />
		<tag k="name" v="Siljuseter" />
		<tag k="place" v="farm" />
		<tag k="ssr:stedsnr" v="368309" />
	</node>
	<node id="6800525512" lat="59.8327223" lon="10.1809389" version="4" timestamp="2022-04-14T17:24:37Z" changeset="119722501" uid="3497659" user="NKA">
		<tag k="alt_name" v="Øksnesetra" />
		<tag k="historic" v="shieling" />
		<tag k="name" v="Sørsetra" />
		<tag k="place" v="farm" />
		<tag k="ssr:stedsnr" v="914198" />
	</node>
	<node id="6800525518" lat="59.7765194" lon="10.1809361" version="2" timestamp="2022-04-14T17:24:37Z" changeset="119722501" uid="3497659" user="NKA">
		<tag k="historic" v="shieling" />
		<tag k="name" v="Hvalsvollen" />
		<tag k="place" v="isolated_dwelling" />
		<tag k="ssr:stedsnr" v="489181" />
	</node>
	<node id="6800525519" lat="59.7827546" lon="10.1700272" version="4" timestamp="2022-04-14T17:24:37Z" changeset="119722501" uid="3497659" user="NKA">
		<tag k="historic" v="shieling" />
		<tag k="name" v="Sauesetra" />
		<tag k="place" v="isolated_dwelling" />
		<tag k="ssr:stedsnr" v="368155" />
	</node>
	<node id="6942986674" lat="59.7786592" lon="10.2307809" version="2" timestamp="2022-01-31T06:42:31Z" changeset="116807300" uid="3497659" user="NKA">
		<tag k="junction" v="yes" />
		<tag k="name" v="Gluggen" />
		<tag k="ssr:stedsnr" v="748344" />
	</node>
	<node id="7149692638" lat="59.9041192" lon="10.262428" version="4" timestamp="2022-04-14T17:24:37Z" changeset="119722501" uid="3497659" user="NKA">
		<tag k="name" v="Fagerliåsen" />
		<tag k="place" v="quarter" />
		<tag k="population" v="367" />
		<tag k="population:date" v="2021-01-01" />
		<tag k="ref:ssb_tettsted" v="2146" />
		<tag k="source:population" v="SSB - befolkning i tettstedet" />
		<tag k="ssr:stedsnr" v="748161" />
	</node>
	<node id="7406218069" lat="59.8077297" lon="10.1479661" version="2" timestamp="2022-04-14T17:24:37Z" changeset="119722501" uid="3497659" user="NKA">
		<tag k="fixme" v="position" />
		<tag k="historic" v="shieling" />
		<tag k="name" v="Setervang" />
		<tag k="place" v="isolated_dwelling" />
		<tag k="ssr:stedsnr" v="870697" />
	</node>
	<node id="8332078796" lat="59.8195839" lon="10.1276528" version="4" timestamp="2022-04-14T17:24:37Z" changeset="119722501" uid="3497659" user="NKA">
		<tag k="alt_name" v="Gamle Eiksetra" />
		<tag k="fixme" v="position" />
		<tag k="historic" v="shieling" />
		<tag k="historic:operator" v="Eik søndre" />
		<tag k="name" v="Gamlevollen" />
		<tag k="place" v="locality" />
		<tag k="ssr:stedsnr" v="1077913" />
	</node>
	<node id="8372211528" lat="59.8273066" lon="10.1295819" version="3" timestamp="2022-04-14T17:24:37Z" changeset="119722501" uid="3497659" user="NKA">
		<tag k="historic" v="shieling" />
		<tag k="name" v="Vallevollen" />
		<tag k="note:no" v="Var dette en setervoll?" />
		<tag k="place" v="isolated_dwelling" />
		<tag k="ssr:stedsnr" v="264451" />
	</node>
	<node id="9462243261" lat="59.8898055" lon="10.298875" version="1" timestamp="2022-01-31T06:42:31Z" changeset="116807300" uid="3497659" user="NKA">
		<tag k="name" v="Engerkrysset" />
		<tag k="place" v="locality" />
		<tag k="ssr:stedsnr" v="22687" />
	</node>
	<node id="9666409666" lat="59.7487152" lon="10.3151661" version="1" timestamp="2022-04-14T17:24:37Z" changeset="119722501" uid="3497659" user="NKA">
		<tag k="loc_name" v="Steinberg" />
		<tag k="name" v="Stenberg" />
		<tag k="place" v="farm" />
		<tag k="ssr:stedsnr" v="325836" />
	</node>
	<node id="9666409667" lat="59.8484476" lon="10.2063404" version="1" timestamp="2022-04-14T17:24:37Z" changeset="119722501" uid="3497659" user="NKA">
		<tag k="alt_name" v="Sørbråten" />
		<tag k="loc_name" v="Sørbråtan" />
		<tag k="name" v="Søbråtan" />
		<tag k="place" v="farm" />
		<tag k="ssr:stedsnr" v="871370" />
	</node>
	<node id="9666409668" lat="59.8322127" lon="10.2652495" version="1" timestamp="2022-04-14T17:24:37Z" changeset="119722501" uid="3497659" user="NKA">
		<tag k="name" v="Kleiva" />
		<tag k="place" v="farm" />
		<tag k="ssr:stedsnr" v="507090" />
	</node>
	<node id="9666409669" lat="59.824875" lon="10.2861973" version="1" timestamp="2022-04-14T17:24:37Z" changeset="119722501" uid="3497659" user="NKA">
		<tag k="name" v="Hennummarka" />
		<tag k="place" v="neighbourhood" />
		<tag k="ssr:stedsnr" v="505193" />
	</node>
	<node id="9666409670" lat="59.7845722" lon="10.2608965" version="1" timestamp="2022-04-14T17:24:37Z" changeset="119722501" uid="3497659" user="NKA">
		<tag k="name" v="Nordre Brastad" />
		<tag k="place" v="farm" />
		<tag k="ssr:stedsnr" v="202743" />
	</node>
	<node id="9666409671" lat="59.8759494" lon="10.2815146" version="1" timestamp="2022-04-14T17:24:37Z" changeset="119722501" uid="3497659" user="NKA">
		<tag k="name" v="Kopperud" />
		<tag k="place" v="farm" />
		<tag k="ssr:stedsnr" v="854316" />
	</node>
	<node id="9666409672" lat="59.7776175" lon="10.283373" version="1" timestamp="2022-04-14T17:24:37Z" changeset="119722501" uid="3497659" user="NKA">
		<tag k="name" v="Store Reistad" />
		<tag k="place" v="hamlet" />
		<tag k="ssr:stedsnr" v="810596" />
	</node>
	<node id="9666409673" lat="59.8681478" lon="10.2401728" version="1" timestamp="2022-04-14T17:24:37Z" changeset="119722501" uid="3497659" user="NKA">
		<tag k="name" v="Nordhagan" />
		<tag k="place" v="farm" />
		<tag k="ssr:stedsnr" v="932141" />
	</node>
	<node id="9666409674" lat="59.7592333" lon="10.261336" version="1" timestamp="2022-04-14T17:24:37Z" changeset="119722501" uid="3497659" user="NKA">
		<tag k="name" v="Bærø" />
		<tag k="place" v="farm" />
		<tag k="ssr:stedsnr" v="428070" />
	</node>
	<node id="9666409675" lat="59.7939926" lon="10.2129656" version="1" timestamp="2022-04-14T17:24:37Z" changeset="119722501" uid="3497659" user="NKA">
		<tag k="name" v="Nordby" />
		<tag k="place" v="farm" />
		<tag k="ssr:stedsnr" v="247122" />
	</node>
	<node id="9666409676" lat="59.8821625" lon="10.2432099" version="1" timestamp="2022-04-14T17:24:37Z" changeset="119722501" uid="3497659" user="NKA">
		<tag k="name" v="Tronstad" />
		<tag k="place" v="quarter" />
		<tag k="ssr:stedsnr" v="732367" />
	</node>
	<node id="9666409677" lat="59.8258361" lon="10.3459906" version="1" timestamp="2022-04-14T17:24:37Z" changeset="119722501" uid="3497659" user="NKA">
		<tag k="alt_name" v="Øvre Stabekk" />
		<tag k="name" v="Stabekk" />
		<tag k="place" v="hamlet" />
		<tag k="ssr:stedsnr" v="308711" />
	</node>
	<node id="9666409678" lat="59.9013148" lon="10.2621681" version="1" timestamp="2022-04-14T17:24:37Z" changeset="119722501" uid="3497659" user="NKA">
		<tag k="name" v="Østre Solberg" />
		<tag k="place" v="farm" />
		<tag k="ssr:stedsnr" v="21577" />
	</node>
	<node id="9666409679" lat="59.8566277" lon="10.2277083" version="1" timestamp="2022-04-14T17:24:37Z" changeset="119722501" uid="3497659" user="NKA">
		<tag k="name" v="Nærstad" />
		<tag k="place" v="farm" />
		<tag k="ssr:stedsnr" v="368288" />
	</node>
	<node id="9666409680" lat="59.8136241" lon="10.2154715" version="1" timestamp="2022-04-14T17:24:37Z" changeset="119722501" uid="3497659" user="NKA">
		<tag k="name" v="Øvre Egge" />
		<tag k="place" v="farm" />
		<tag k="ssr:stedsnr" v="871365" />
	</node>
	<node id="9666409681" lat="59.8083418" lon="10.2019556" version="1" timestamp="2022-04-14T17:24:37Z" changeset="119722501" uid="3497659" user="NKA">
		<tag k="name" v="Søndre Ask" />
		<tag k="place" v="farm" />
		<tag k="ssr:stedsnr" v="932665" />
	</node>
	<node id="9666409682" lat="59.7842" lon="10.2469778" version="1" timestamp="2022-04-14T17:24:37Z" changeset="119722501" uid="3497659" user="NKA">
		<tag k="name" v="Holmen" />
		<tag k="place" v="farm" />
		<tag k="ssr:stedsnr" v="307155" />
	</node>
	<node id="9666409683" lat="59.8635896" lon="10.2212575" version="1" timestamp="2022-04-14T17:24:37Z" changeset="119722501" uid="3497659" user="NKA">
		<tag k="name" v="Alfstad" />
		<tag k="place" v="farm" />
		<tag k="ssr:stedsnr" v="628106" />
	</node>
	<node id="9666409684" lat="59.8346518" lon="10.3235254" version="1" timestamp="2022-04-14T17:24:37Z" changeset="119722501" uid="3497659" user="NKA">
		<tag k="name" v="Ekeberg" />
		<tag k="place" v="farm" />
		<tag k="ssr:stedsnr" v="793212" />
	</node>
	<node id="9666409685" lat="59.7490671" lon="10.3173329" version="1" timestamp="2022-04-14T17:24:37Z" changeset="119722501" uid="3497659" user="NKA">
		<tag k="name" v="Askerud" />
		<tag k="place" v="farm" />
		<tag k="ssr:stedsnr" v="750836" />
	</node>
	<node id="9666409686" lat="59.7594226" lon="10.234994" version="1" timestamp="2022-04-14T17:24:37Z" changeset="119722501" uid="3497659" user="NKA">
		<tag k="alt_name" v="Stoppen" />
		<tag k="name" v="Nordre Stoppen" />
		<tag k="place" v="farm" />
		<tag k="ssr:stedsnr" v="829935" />
	</node>
	<node id="9666409687" lat="59.8895574" lon="10.3063534" version="1" timestamp="2022-04-14T17:24:37Z" changeset="119722501" uid="3497659" user="NKA">
		<tag k="name" v="Bakkerud" />
		<tag k="place" v="farm" />
		<tag k="ssr:stedsnr" v="672331" />
	</node>
	<node id="9666409688" lat="59.8177076" lon="10.3110312" version="1" timestamp="2022-04-14T17:24:37Z" changeset="119722501" uid="3497659" user="NKA">
		<tag k="name" v="Østre Grøstad" />
		<tag k="place" v="farm" />
		<tag k="ssr:stedsnr" v="21059" />
	</node>
	<node id="9666409689" lat="59.7902614" lon="10.2689186" version="1" timestamp="2022-04-14T17:24:37Z" changeset="119722501" uid="3497659" user="NKA">
		<tag k="name" v="Fosshaugen" />
		<tag k="place" v="isolated_dwelling" />
		<tag k="ssr:stedsnr" v="749702" />
	</node>
	<node id="9666409690" lat="59.9319" lon="10.2252351" version="1" timestamp="2022-04-14T17:24:37Z" changeset="119722501" uid="3497659" user="NKA">
		<tag k="name" v="Øverbyhytta" />
		<tag k="place" v="isolated_dwelling" />
		<tag k="ssr:stedsnr" v="932516" />
	</node>
	<node id="9666409691" lat="59.7894" lon="10.1979917" version="1" timestamp="2022-04-14T17:24:37Z" changeset="119722501" uid="3497659" user="NKA">
		<tag k="name" v="Plassløkka" />
		<tag k="place" v="locality" />
		<tag k="ssr:stedsnr" v="871679" />
	</node>
	<node id="9666409692" lat="59.8761138" lon="10.2691087" version="1" timestamp="2022-04-14T17:24:37Z" changeset="119722501" uid="3497659" user="NKA">
		<tag k="name" v="Holtsmark" />
		<tag k="place" v="farm" />
		<tag k="ssr:stedsnr" v="186363" />
	</node>
	<node id="9666409693" lat="59.9067805" lon="10.2004251" version="1" timestamp="2022-04-14T17:24:37Z" changeset="119722501" uid="3497659" user="NKA">
		<tag k="name" v="Damstua" />
		<tag k="place" v="isolated_dwelling" />
		<tag k="ssr:stedsnr" v="508944" />
	</node>
	<node id="9666409694" lat="59.8920927" lon="10.2964347" version="1" timestamp="2022-04-14T17:24:37Z" changeset="119722501" uid="3497659" user="NKA">
		<tag k="name" v="Vestre Enger" />
		<tag k="place" v="farm" />
		<tag k="ssr:stedsnr" v="507994" />
	</node>
	<node id="9666409695" lat="59.8103111" lon="10.2226028" version="1" timestamp="2022-04-14T17:24:37Z" changeset="119722501" uid="3497659" user="NKA">
		<tag k="alt_name" v="Solhaug" />
		<tag k="name" v="Solum" />
		<tag k="place" v="farm" />
		<tag k="ssr:stedsnr" v="446418" />
	</node>
	<node id="9666409696" lat="59.814852" lon="10.3003895" version="1" timestamp="2022-04-14T17:24:37Z" changeset="119722501" uid="3497659" user="NKA">
		<tag k="name" v="Gjellebekk" />
		<tag k="place" v="farm" />
		<tag k="ssr:stedsnr" v="246226" />
	</node>
	<node id="9666409697" lat="59.8515385" lon="10.2665707" version="1" timestamp="2022-04-14T17:24:37Z" changeset="119722501" uid="3497659" user="NKA">
		<tag k="name" v="Libråtan" />
		<tag k="old_name" v="Nedre Oppsal;Nedre Opsal" />
		<tag k="place" v="farm" />
		<tag k="ssr:stedsnr" v="264101" />
	</node>
	<node id="9666409698" lat="59.7757155" lon="10.2667913" version="1" timestamp="2022-04-14T17:24:37Z" changeset="119722501" uid="3497659" user="NKA">
		<tag k="name" v="Stokkeholmen" />
		<tag k="place" v="farm" />
		<tag k="ssr:stedsnr" v="749624" />
	</node>
	<node id="9666409699" lat="59.8683381" lon="10.2213823" version="1" timestamp="2022-04-14T17:24:37Z" changeset="119722501" uid="3497659" user="NKA">
		<tag k="name" v="Bråtenåsen" />
		<tag k="place" v="farm" />
		<tag k="ssr:stedsnr" v="932775" />
	</node>
	<node id="9666409700" lat="59.8321937" lon="10.2101095" version="1" timestamp="2022-04-14T17:24:37Z" changeset="119722501" uid="3497659" user="NKA">
		<tag k="alt_name" v="Øksne" />
		<tag k="name" v="Mellom-Øksne" />
		<tag k="place" v="farm" />
		<tag k="ssr:stedsnr" v="264369" />
	</node>
	<node id="9666409701" lat="59.8526169" lon="10.2226344" version="1" timestamp="2022-04-14T17:24:37Z" changeset="119722501" uid="3497659" user="NKA">
		<tag k="name" v="Øvre Rød" />
		<tag k="place" v="farm" />
		<tag k="ssr:stedsnr" v="567363" />
	</node>
	<node id="9666409702" lat="59.8264788" lon="10.2308248" version="1" timestamp="2022-04-14T17:24:37Z" changeset="119722501" uid="3497659" user="NKA">
		<tag k="loc_name" v="Buttedalsand" />
		<tag k="name" v="Lamyra" />
		<tag k="place" v="farm" />
		<tag k="ssr:stedsnr" v="142143" />
	</node>
	<node id="9666409703" lat="59.855944" lon="10.2319081" version="1" timestamp="2022-04-14T17:24:37Z" changeset="119722501" uid="3497659" user="NKA">
		<tag k="name" v="Øvre Mørk" />
		<tag k="place" v="farm" />
		<tag k="ssr:stedsnr" v="21174" />
	</node>
	<node id="9666409704" lat="59.9017855" lon="10.2635349" version="1" timestamp="2022-04-14T17:24:37Z" changeset="119722501" uid="3497659" user="NKA">
		<tag k="name" v="Kyllerud" />
		<tag k="place" v="farm" />
		<tag k="ssr:stedsnr" v="1072726" />
	</node>
	<node id="9666409705" lat="59.8295559" lon="10.2841644" version="1" timestamp="2022-04-14T17:24:37Z" changeset="119722501" uid="3497659" user="NKA">
		<tag k="name" v="Hagan" />
		<tag k="place" v="farm" />
		<tag k="ssr:stedsnr" v="628014" />
	</node>
	<node id="9666409706" lat="59.8128828" lon="10.2496602" version="1" timestamp="2022-04-14T17:24:37Z" changeset="119722501" uid="3497659" user="NKA">
		<tag k="name" v="Hårberg" />
		<tag k="place" v="farm" />
		<tag k="ssr:stedsnr" v="792219" />
	</node>
	<node id="9666409707" lat="59.8841472" lon="10.2914666" version="1" timestamp="2022-04-14T17:24:37Z" changeset="119722501" uid="3497659" user="NKA">
		<tag k="alt_name" v="Labråtan" />
		<tag k="name" v="Labråten" />
		<tag k="place" v="farm" />
		<tag k="ssr:stedsnr" v="4341" />
	</node>
	<node id="9666409708" lat="59.7861087" lon="10.2180859" version="1" timestamp="2022-04-14T17:24:37Z" changeset="119722501" uid="3497659" user="NKA">
		<tag k="name" v="Haugerud" />
		<tag k="place" v="farm" />
		<tag k="ssr:stedsnr" v="793150" />
	</node>
	<node id="9666409709" lat="59.8588703" lon="10.2550145" version="1" timestamp="2022-04-14T17:24:37Z" changeset="119722501" uid="3497659" user="NKA">
		<tag k="name" v="Korsrud" />
		<tag k="place" v="farm" />
		<tag k="ssr:stedsnr" v="610297" />
	</node>
	<node id="9666409710" lat="59.8079834" lon="10.2289639" version="1" timestamp="2022-04-14T17:24:37Z" changeset="119722501" uid="3497659" user="NKA">
		<tag k="name" v="Snarum" />
		<tag k="place" v="farm" />
		<tag k="ssr:stedsnr" v="610285" />
	</node>
	<node id="9666409711" lat="59.894367" lon="10.2622827" version="1" timestamp="2022-04-14T17:24:37Z" changeset="119722501" uid="3497659" user="NKA">
		<tag k="alt_name" v="Stokkerinen" />
		<tag k="name" v="Stokkerinden" />
		<tag k="place" v="farm" />
		<tag k="ssr:stedsnr" v="550296" />
	</node>
	<node id="9666409712" lat="59.9459" lon="10.2856389" version="1" timestamp="2022-04-14T17:24:37Z" changeset="119722501" uid="3497659" user="NKA">
		<tag k="name" v="Nordre Brevik" />
		<tag k="place" v="farm" />
		<tag k="ssr:stedsnr" v="567496" />
	</node>
	<node id="9666409713" lat="59.8919778" lon="10.3014638" version="1" timestamp="2022-04-14T17:24:37Z" changeset="119722501" uid="3497659" user="NKA">
		<tag k="alt_name" v="Midtre Enger" />
		<tag k="name" v="Enger" />
		<tag k="place" v="hamlet" />
		<tag k="ssr:stedsnr" v="732325" />
	</node>
	<node id="9666409714" lat="59.8426177" lon="10.2222253" version="1" timestamp="2022-04-14T17:24:37Z" changeset="119722501" uid="3497659" user="NKA">
		<tag k="name" v="Vestgård" />
		<tag k="place" v="farm" />
		<tag k="ssr:stedsnr" v="749427" />
	</node>
	<node id="9666409715" lat="59.847475" lon="10.2718806" version="1" timestamp="2022-04-14T17:24:37Z" changeset="119722501" uid="3497659" user="NKA">
		<tag k="name" v="Linløkka" />
		<tag k="place" v="farm" />
		<tag k="ssr:stedsnr" v="446147" />
	</node>
	<node id="9666409716" lat="59.9173261" lon="10.2635266" version="1" timestamp="2022-04-14T17:24:37Z" changeset="119722501" uid="3497659" user="NKA">
		<tag k="name" v="Svarteberg" />
		<tag k="place" v="farm" />
		<tag k="ssr:stedsnr" v="793435" />
	</node>
	<node id="9666441917" lat="59.8491534" lon="10.2108756" version="1" timestamp="2022-04-14T17:24:37Z" changeset="119722501" uid="3497659" user="NKA">
		<tag k="name" v="Nordlia" />
		<tag k="place" v="farm" />
		<tag k="ssr:stedsnr" v="932384" />
	</node>
	<node id="9666441918" lat="59.8181362" lon="10.2095615" version="1" timestamp="2022-04-14T17:24:37Z" changeset="119722501" uid="3497659" user="NKA">
		<tag k="name" v="Vestre Egge" />
		<tag k="place" v="farm" />
		<tag k="ssr:stedsnr" v="21416" />
	</node>
	<node id="9666441919" lat="59.95055" lon="10.2648" version="1" timestamp="2022-04-14T17:24:37Z" changeset="119722501" uid="3497659" user="NKA">
		<tag k="name" v="Elvehytta" />
		<tag k="place" v="isolated_dwelling" />
		<tag k="ssr:stedsnr" v="204570" />
	</node>
	<node id="9666441920" lat="59.9314804" lon="10.3597068" version="1" timestamp="2022-04-14T17:24:37Z" changeset="119722501" uid="3497659" user="NKA">
		<tag k="name" v="Lindeberget" />
		<tag k="place" v="isolated_dwelling" />
		<tag k="ssr:stedsnr" v="732945" />
	</node>
	<node id="9666441921" lat="59.796625" lon="10.320811" version="1" timestamp="2022-04-14T17:24:37Z" changeset="119722501" uid="3497659" user="NKA">
		<tag k="name" v="Heggsjøbakken" />
		<tag k="place" v="isolated_dwelling" />
		<tag k="ssr:stedsnr" v="65129" />
	</node>
	<node id="9666441922" lat="59.9447583" lon="10.1873028" version="1" timestamp="2022-04-14T17:24:37Z" changeset="119722501" uid="3497659" user="NKA">
		<tag k="name" v="Dragshytta" />
		<tag k="place" v="isolated_dwelling" />
		<tag k="ssr:stedsnr" v="689646" />
	</node>
	<node id="9666441923" lat="59.8034186" lon="10.2562058" version="1" timestamp="2022-04-14T17:24:37Z" changeset="119722501" uid="3497659" user="NKA">
		<tag k="alt_name" v="Overn" />
		<tag k="name" v="Overen" />
		<tag k="place" v="farm" />
		<tag k="ssr:stedsnr" v="489278" />
	</node>
	<node id="9666441924" lat="59.8470083" lon="10.2424666" version="1" timestamp="2022-04-14T17:24:37Z" changeset="119722501" uid="3497659" user="NKA">
		<tag k="name" v="Rønningen" />
		<tag k="place" v="farm" />
		<tag k="ssr:stedsnr" v="732314" />
	</node>
	<node id="9666441925" lat="59.852861" lon="10.2115771" version="1" timestamp="2022-04-14T17:24:37Z" changeset="119722501" uid="3497659" user="NKA">
		<tag k="loc_name" v="Skjåstad" />
		<tag k="name" v="Sjåstad" />
		<tag k="old_name" v="Skjaastad;Sjaastad" />
		<tag k="place" v="farm" />
		<tag k="ssr:stedsnr" v="549313" />
	</node>
	<node id="9666441927" lat="59.7942639" lon="10.2776056" version="1" timestamp="2022-04-14T17:24:37Z" changeset="119722501" uid="3497659" user="NKA">
		<tag k="name" v="Bråtan" />
		<tag k="place" v="hamlet" />
		<tag k="ssr:stedsnr" v="914131" />
	</node>
	<node id="9666441928" lat="59.8185658" lon="10.3087093" version="1" timestamp="2022-04-14T17:24:37Z" changeset="119722501" uid="3497659" user="NKA">
		<tag k="name" v="Jordet" />
		<tag k="place" v="farm" />
		<tag k="ssr:stedsnr" v="203062" />
	</node>
	<node id="9666441929" lat="59.767075" lon="10.2166667" version="1" timestamp="2022-04-14T17:24:37Z" changeset="119722501" uid="3497659" user="NKA">
		<tag k="alt_name" v="Nordre Lian;Øgarden;Ødegården" />
		<tag k="name" v="Øgården" />
		<tag k="place" v="farm" />
		<tag k="ssr:stedsnr" v="185152" />
	</node>
	<node id="9666441930" lat="59.7557954" lon="10.2624908" version="1" timestamp="2022-04-14T17:24:37Z" changeset="119722501" uid="3497659" user="NKA">
		<tag k="name" v="Huseby" />
		<tag k="place" v="farm" />
		<tag k="ssr:stedsnr" v="725295" />
	</node>
	<node id="9666441931" lat="59.9157111" lon="10.284086" version="1" timestamp="2022-04-14T17:24:37Z" changeset="119722501" uid="3497659" user="NKA">
		<tag k="alt_name" v="Nordre Hørtebråtan" />
		<tag k="name" v="Svingen" />
		<tag k="place" v="farm" />
		<tag k="ssr:stedsnr" v="793438" />
	</node>
	<node id="9666441932" lat="59.8102727" lon="10.2028741" version="1" timestamp="2022-04-14T17:24:37Z" changeset="119722501" uid="3497659" user="NKA">
		<tag k="name" v="Nordre Ask" />
		<tag k="place" v="farm" />
		<tag k="ssr:stedsnr" v="203404" />
	</node>
	<node id="9666441933" lat="59.814625" lon="10.2389695" version="1" timestamp="2022-04-14T17:24:37Z" changeset="119722501" uid="3497659" user="NKA">
		<tag k="name" v="Sand" />
		<tag k="place" v="farm" />
		<tag k="ssr:stedsnr" v="732236" />
	</node>
	<node id="9666441934" lat="59.8454769" lon="10.2168272" version="1" timestamp="2022-04-14T17:24:37Z" changeset="119722501" uid="3497659" user="NKA">
		<tag k="name" v="Åsen" />
		<tag k="place" v="farm" />
		<tag k="ssr:stedsnr" v="125332" />
	</node>
	<node id="9666441935" lat="59.7781164" lon="10.2331299" version="1" timestamp="2022-04-14T17:24:37Z" changeset="119722501" uid="3497659" user="NKA">
		<tag k="name" v="Solbakken" />
		<tag k="place" v="isolated_dwelling" />
		<tag k="ssr:stedsnr" v="870369" />
	</node>
	<node id="9666441936" lat="59.9030267" lon="10.2662126" version="1" timestamp="2022-04-14T17:24:37Z" changeset="119722501" uid="3497659" user="NKA">
		<tag k="name" v="Kirketeigen" />
		<tag k="place" v="farm" />
		<tag k="ssr:stedsnr" v="124282" />
	</node>
	<node id="9666441937" lat="59.8254376" lon="10.3236809" version="1" timestamp="2022-04-14T17:24:37Z" changeset="119722501" uid="3497659" user="NKA">
		<tag k="name" v="Ovenstad" />
		<tag k="place" v="farm" />
		<tag k="ssr:stedsnr" v="82094" />
	</node>
	<node id="9666441938" lat="59.7524987" lon="10.2425698" version="1" timestamp="2022-04-14T17:24:37Z" changeset="119722501" uid="3497659" user="NKA">
		<tag k="name" v="Høvik" />
		<tag k="place" v="hamlet" />
		<tag k="ssr:stedsnr" v="3080" />
	</node>
	<node id="9666441939" lat="59.8045751" lon="10.2610612" version="1" timestamp="2022-04-14T17:24:37Z" changeset="119722501" uid="3497659" user="NKA">
		<tag k="name" v="Båhus" />
		<tag k="place" v="farm" />
		<tag k="ssr:stedsnr" v="263750" />
	</node>
	<node id="9666441940" lat="59.7589528" lon="10.230925" version="1" timestamp="2022-04-14T17:24:37Z" changeset="119722501" uid="3497659" user="NKA">
		<tag k="name" v="Risenga" />
		<tag k="place" v="farm" />
		<tag k="ssr:stedsnr" v="914081" />
	</node>
	<node id="9666441941" lat="59.8685101" lon="10.2255215" version="1" timestamp="2022-04-14T17:24:37Z" changeset="119722501" uid="3497659" user="NKA">
		<tag k="name" v="Svere" />
		<tag k="place" v="farm" />
		<tag k="ssr:stedsnr" v="65251" />
	</node>
	<node id="9666441942" lat="59.8000107" lon="10.1727882" version="1" timestamp="2022-04-14T17:24:37Z" changeset="119722501" uid="3497659" user="NKA">
		<tag k="name" v="Skogly" />
		<tag k="place" v="isolated_dwelling" />
		<tag k="ssr:stedsnr" v="688713" />
	</node>
	<node id="9666441943" lat="59.76122" lon="10.2315916" version="1" timestamp="2022-04-14T17:24:37Z" changeset="119722501" uid="3497659" user="NKA">
		<tag k="name" v="Søndre Lian" />
		<tag k="place" v="farm" />
		<tag k="ssr:stedsnr" v="931927" />
	</node>
	<node id="9666441944" lat="59.8290689" lon="10.3381519" version="1" timestamp="2022-04-14T17:24:37Z" changeset="119722501" uid="3497659" user="NKA">
		<tag k="name" v="Rype" />
		<tag k="place" v="farm" />
		<tag k="ssr:stedsnr" v="793213" />
	</node>
	<node id="9666441945" lat="59.9073666" lon="10.2928028" version="1" timestamp="2022-04-14T17:24:37Z" changeset="119722501" uid="3497659" user="NKA">
		<tag k="alt_name" v="Sanden" />
		<tag k="name" v="Sand" />
		<tag k="place" v="farm" />
		<tag k="ssr:stedsnr" v="307333" />
	</node>
	<node id="9666441946" lat="59.8499556" lon="10.2564639" version="1" timestamp="2022-04-14T17:24:37Z" changeset="119722501" uid="3497659" user="NKA">
		<tag k="name" v="Nerenga" />
		<tag k="place" v="isolated_dwelling" />
		<tag k="ssr:stedsnr" v="610344" />
	</node>
	<node id="9666441947" lat="59.8722167" lon="10.2443111" version="1" timestamp="2022-04-14T17:24:37Z" changeset="119722501" uid="3497659" user="NKA">
		<tag k="name" v="Rønningen" />
		<tag k="place" v="farm" />
		<tag k="ssr:stedsnr" v="489367" />
	</node>
	<node id="9666441948" lat="59.8683717" lon="10.2341008" version="1" timestamp="2022-04-14T17:24:37Z" changeset="119722501" uid="3497659" user="NKA">
		<tag k="name" v="Brurberg" />
		<tag k="place" v="farm" />
		<tag k="ssr:stedsnr" v="307303" />
	</node>
	<node id="9666441949" lat="59.7508889" lon="10.2958306" version="1" timestamp="2022-04-14T17:24:37Z" changeset="119722501" uid="3497659" user="NKA">
		<tag k="name" v="Linneslia" />
		<tag k="place" v="neighbourhood" />
		<tag k="ssr:stedsnr" v="671068" />
	</node>
	<node id="9666441950" lat="59.8609149" lon="10.21369" version="1" timestamp="2022-04-14T17:24:37Z" changeset="119722501" uid="3497659" user="NKA">
		<tag k="name" v="Justad" />
		<tag k="place" v="hamlet" />
		<tag k="ssr:stedsnr" v="489296" />
	</node>
	<node id="9666441951" lat="59.8724863" lon="10.2987132" version="1" timestamp="2022-04-14T17:24:37Z" changeset="119722501" uid="3497659" user="NKA">
		<tag k="name" v="Haukelia" />
		<tag k="place" v="locality" />
		<tag k="ssr:stedsnr" v="489351" />
	</node>
	<node id="9666441952" lat="59.8465891" lon="10.1944902" version="1" timestamp="2022-04-14T17:24:37Z" changeset="119722501" uid="3497659" user="NKA">
		<tag k="name" v="Syversløkka" />
		<tag k="place" v="farm" />
		<tag k="ssr:stedsnr" v="264425" />
	</node>
	<node id="9666441953" lat="59.8751418" lon="10.2596038" version="1" timestamp="2022-04-14T17:24:37Z" changeset="119722501" uid="3497659" user="NKA">
		<tag k="name" v="Bråten" />
		<tag k="place" v="isolated_dwelling" />
		<tag k="ssr:stedsnr" v="749171" />
	</node>
	<node id="9666441954" lat="59.9406945" lon="10.2745805" version="1" timestamp="2022-04-14T17:24:37Z" changeset="119722501" uid="3497659" user="NKA">
		<tag k="name" v="Lybråtan" />
		<tag k="place" v="farm" />
		<tag k="ssr:stedsnr" v="4373" />
	</node>
	<node id="9666441955" lat="59.8184464" lon="10.3037677" version="1" timestamp="2022-04-14T17:24:37Z" changeset="119722501" uid="3497659" user="NKA">
		<tag k="name" v="Storjordet" />
		<tag k="place" v="farm" />
		<tag k="ssr:stedsnr" v="628043" />
	</node>
	<node id="9666441956" lat="59.8685387" lon="10.2182319" version="1" timestamp="2022-04-14T17:24:37Z" changeset="119722501" uid="3497659" user="NKA">
		<tag k="alt_name" v="Svarthavna" />
		<tag k="name" v="Svarthamna" />
		<tag k="place" v="farm" />
		<tag k="ssr:stedsnr" v="671277" />
	</node>
	<node id="9666441957" lat="59.7810417" lon="10.1957862" version="1" timestamp="2022-04-14T17:24:37Z" changeset="119722501" uid="3497659" user="NKA">
		<tag k="name" v="Finnebråtan" />
		<tag k="place" v="farm" />
		<tag k="ssr:stedsnr" v="627676" />
	</node>
	<node id="9666441958" lat="59.8806436" lon="10.2352924" version="1" timestamp="2022-04-14T17:24:37Z" changeset="119722501" uid="3497659" user="NKA">
		<tag k="name" v="Rinen" />
		<tag k="place" v="farm" />
		<tag k="ssr:stedsnr" v="21223" />
	</node>
	<node id="9666441959" lat="59.8610402" lon="10.2339357" version="1" timestamp="2022-04-14T17:24:37Z" changeset="119722501" uid="3497659" user="NKA">
		<tag k="name" v="Fagernes" />
		<tag k="place" v="farm" />
		<tag k="ssr:stedsnr" v="203182" />
	</node>
	<node id="9666441960" lat="59.8248521" lon="10.251394" version="1" timestamp="2022-04-14T17:24:37Z" changeset="119722501" uid="3497659" user="NKA">
		<tag k="name" v="Funnesdal" />
		<tag k="place" v="farm" />
		<tag k="ssr:stedsnr" v="64201" />
	</node>
	<node id="9666441961" lat="59.7341204" lon="10.3116646" version="1" timestamp="2022-04-14T17:24:37Z" changeset="119722501" uid="3497659" user="NKA">
		<tag k="name" v="Ytre Mørk" />
		<tag k="place" v="farm" />
		<tag k="ssr:stedsnr" v="689834" />
	</node>
	<node id="9666441962" lat="59.8615778" lon="10.1872112" version="1" timestamp="2022-04-14T17:24:37Z" changeset="119722501" uid="3497659" user="NKA">
		<tag k="name" v="Vestbråtan" />
		<tag k="place" v="farm" />
		<tag k="ssr:stedsnr" v="671267" />
	</node>
	<node id="9666441963" lat="59.9410883" lon="10.2971736" version="1" timestamp="2022-04-14T17:24:37Z" changeset="119722501" uid="3497659" user="NKA">
		<tag k="name" v="Holmen" />
		<tag k="place" v="farm" />
		<tag k="ssr:stedsnr" v="793453" />
	</node>
	<node id="9666441964" lat="59.8303056" lon="10.2746275" version="1" timestamp="2022-04-14T17:24:37Z" changeset="119722501" uid="3497659" user="NKA">
		<tag k="name" v="Enga" />
		<tag k="place" v="farm" />
		<tag k="ssr:stedsnr" v="325034" />
	</node>
	<node id="9666441965" lat="59.8253594" lon="10.2631038" version="1" timestamp="2022-04-14T17:24:37Z" changeset="119722501" uid="3497659" user="NKA">
		<tag k="name" v="Nedre Hennum" />
		<tag k="place" v="farm" />
		<tag k="ssr:stedsnr" v="810066" />
	</node>
	<node id="9666441966" lat="59.8393138" lon="10.2575972" version="1" timestamp="2022-04-14T17:24:37Z" changeset="119722501" uid="3497659" user="NKA">
		<tag k="alt_name" v="Øvre Søre Sørsdal" />
		<tag k="name" v="Øvre Søndre Sørsdal" />
		<tag k="place" v="farm" />
		<tag k="ssr:stedsnr" v="689373" />
	</node>
	<node id="9666441967" lat="59.8439361" lon="10.1479667" version="1" timestamp="2022-04-14T17:24:37Z" changeset="119722501" uid="3497659" user="NKA">
		<tag k="name" v="Hestemyr" />
		<tag k="place" v="farm" />
		<tag k="ssr:stedsnr" v="125311" />
	</node>
	<node id="9666441968" lat="59.7864694" lon="10.1904639" version="1" timestamp="2022-04-14T17:24:37Z" changeset="119722501" uid="3497659" user="NKA">
		<tag k="name" v="Steinsbråtan" />
		<tag k="place" v="farm" />
		<tag k="ssr:stedsnr" v="627677" />
	</node>
	<node id="9666441969" lat="59.7923645" lon="10.2491313" version="1" timestamp="2022-04-14T17:24:37Z" changeset="119722501" uid="3497659" user="NKA">
		<tag k="name" v="Søndre Haskoll" />
		<tag k="place" v="farm" />
		<tag k="ssr:stedsnr" v="263752" />
	</node>
	<node id="9666441970" lat="59.7556115" lon="10.2262571" version="1" timestamp="2022-04-14T17:24:37Z" changeset="119722501" uid="3497659" user="NKA">
		<tag k="name" v="Stoppen" />
		<tag k="place" v="farm" />
		<tag k="ssr:stedsnr" v="64061" />
	</node>
	<node id="9666441971" lat="59.9158667" lon="10.3371056" version="1" timestamp="2022-04-14T17:24:37Z" changeset="119722501" uid="3497659" user="NKA">
		<tag k="alt_name" v="Ødegården" />
		<tag k="name" v="Øgarden" />
		<tag k="place" v="locality" />
		<tag k="ssr:stedsnr" v="732337" />
	</node>
	<node id="9666441972" lat="59.7246015" lon="10.3065916" version="1" timestamp="2022-04-14T17:24:37Z" changeset="119722501" uid="3497659" user="NKA">
		<tag k="name" v="Wilhelmsborg" />
		<tag k="place" v="farm" />
		<tag k="ssr:stedsnr" v="446860" />
	</node>
	<node id="9666441973" lat="59.8468055" lon="10.2137429" version="1" timestamp="2022-04-14T17:24:37Z" changeset="119722501" uid="3497659" user="NKA">
		<tag k="name" v="Sjemmedal" />
		<tag k="place" v="farm" />
		<tag k="ssr:stedsnr" v="689369" />
	</node>
	<node id="9666441974" lat="59.8268047" lon="10.3335551" version="1" timestamp="2022-04-14T17:24:37Z" changeset="119722501" uid="3497659" user="NKA">
		<tag k="name" v="Rypebråtan" />
		<tag k="place" v="farm" />
		<tag k="ssr:stedsnr" v="325051" />
	</node>
	<node id="9666441975" lat="59.8967748" lon="10.2912249" version="1" timestamp="2022-04-14T17:24:37Z" changeset="119722501" uid="3497659" user="NKA">
		<tag k="name" v="Svang" />
		<tag k="place" v="farm" />
		<tag k="ssr:stedsnr" v="732321" />
	</node>
	<node id="9666441976" lat="59.8484573" lon="10.2158224" version="1" timestamp="2022-04-14T17:24:37Z" changeset="119722501" uid="3497659" user="NKA">
		<tag k="name" v="Østre Lia" />
		<tag k="place" v="farm" />
		<tag k="ssr:stedsnr" v="203398" />
	</node>
	<node id="9666441977" lat="59.8308638" lon="10.3100222" version="1" timestamp="2022-04-14T17:24:37Z" changeset="119722501" uid="3497659" user="NKA">
		<tag k="name" v="Langeland" />
		<tag k="place" v="farm" />
		<tag k="ssr:stedsnr" v="4196" />
	</node>
	<node id="9666441978" lat="59.9416103" lon="10.2841293" version="1" timestamp="2022-04-14T17:24:37Z" changeset="119722501" uid="3497659" user="NKA">
		<tag k="name" v="Nygård" />
		<tag k="place" v="farm" />
		<tag k="ssr:stedsnr" v="628502" />
	</node>
	<node id="9666441979" lat="59.9382925" lon="10.2830375" version="1" timestamp="2022-04-14T17:24:37Z" changeset="119722501" uid="3497659" user="NKA">
		<tag k="name" v="Myrbråtan" />
		<tag k="place" v="farm" />
		<tag k="ssr:stedsnr" v="671375" />
	</node>
	<node id="9666441980" lat="59.92655" lon="10.1233471" version="1" timestamp="2022-04-14T17:24:37Z" changeset="119722501" uid="3497659" user="NKA">
		<tag k="name" v="Nykjua" />
		<tag k="place" v="isolated_dwelling" />
		<tag k="ssr:stedsnr" v="20161" />
	</node>
	<node id="9666441981" lat="59.8220501" lon="10.2028898" version="1" timestamp="2022-04-14T17:24:37Z" changeset="119722501" uid="3497659" user="NKA">
		<tag k="name" v="Torstad" />
		<tag k="place" v="farm" />
		<tag k="ssr:stedsnr" v="203402" />
	</node>
	<node id="9666441982" lat="59.8120177" lon="10.3140179" version="1" timestamp="2022-04-14T17:24:37Z" changeset="119722501" uid="3497659" user="NKA">
		<tag k="name" v="Kjenner" />
		<tag k="place" v="neighbourhood" />
		<tag k="ssr:stedsnr" v="264660" />
	</node>
	<node id="9666441983" lat="59.7806827" lon="10.2770964" version="1" timestamp="2022-04-14T17:24:37Z" changeset="119722501" uid="3497659" user="NKA">
		<tag k="name" v="Solstad" />
		<tag k="place" v="farm" />
		<tag k="ssr:stedsnr" v="307183" />
	</node>
	<node id="9666441984" lat="59.874339" lon="10.2946817" version="1" timestamp="2022-04-14T17:24:37Z" changeset="119722501" uid="3497659" user="NKA">
		<tag k="name" v="Salerud" />
		<tag k="place" v="farm" />
		<tag k="ssr:stedsnr" v="689906" />
	</node>
	<node id="9666441985" lat="59.8364888" lon="10.3293329" version="1" timestamp="2022-04-14T17:24:37Z" changeset="119722501" uid="3497659" user="NKA">
		<tag k="alt_name" v="Bø øvre" />
		<tag k="name" v="Øvre Bø" />
		<tag k="place" v="farm" />
		<tag k="ssr:stedsnr" v="732294" />
	</node>
	<node id="9666441986" lat="59.8399699" lon="10.2551663" version="1" timestamp="2022-04-14T17:24:37Z" changeset="119722501" uid="3497659" user="NKA">
		<tag k="name" v="Nordre Nedre Sørsdal" />
		<tag k="place" v="farm" />
		<tag k="ssr:stedsnr" v="203410" />
	</node>
	<node id="9666441987" lat="59.8243585" lon="10.3283807" version="1" timestamp="2022-04-14T17:24:37Z" changeset="119722501" uid="3497659" user="NKA">
		<tag k="name" v="Ekeberg" />
		<tag k="place" v="farm" />
		<tag k="ssr:stedsnr" v="203088" />
	</node>
	<node id="9666441988" lat="59.827971" lon="10.2078828" version="1" timestamp="2022-04-14T17:24:37Z" changeset="119722501" uid="3497659" user="NKA">
		<tag k="name" v="Åserud" />
		<tag k="place" v="farm" />
		<tag k="ssr:stedsnr" v="914200" />
	</node>
	<node id="9666441989" lat="59.8922645" lon="10.2351949" version="1" timestamp="2022-04-14T17:24:37Z" changeset="119722501" uid="3497659" user="NKA">
		<tag k="name" v="Damli" />
		<tag k="place" v="farm" />
		<tag k="ssr:stedsnr" v="21191" />
	</node>
	<node id="9666441990" lat="59.8970611" lon="10.3179639" version="1" timestamp="2022-04-14T17:24:37Z" changeset="119722501" uid="3497659" user="NKA">
		<tag k="name" v="Setrang" />
		<tag k="place" v="isolated_dwelling" />
		<tag k="ssr:stedsnr" v="81159" />
	</node>
	<node id="9666441991" lat="59.8350882" lon="10.1500502" version="1" timestamp="2022-04-14T17:24:37Z" changeset="119722501" uid="3497659" user="NKA">
		<tag k="alt_name" v="Avdal" />
		<tag k="name" v="Avdalen" />
		<tag k="old_name" v="Søndre Meren" />
		<tag k="place" v="farm" />
		<tag k="ssr:stedsnr" v="429255" />
	</node>
	<node id="9666441992" lat="59.7812459" lon="10.271378" version="1" timestamp="2022-04-14T17:24:37Z" changeset="119722501" uid="3497659" user="NKA">
		<tag k="alt_name" v="Øvre Brastad" />
		<tag k="name" v="Brastad" />
		<tag k="place" v="hamlet" />
		<tag k="ssr:stedsnr" v="368163" />
	</node>
	<node id="9666441993" lat="59.8132923" lon="10.2891975" version="1" timestamp="2022-04-14T17:24:37Z" changeset="119722501" uid="3497659" user="NKA">
		<tag k="name" v="Griserud" />
		<tag k="place" v="farm" />
		<tag k="ssr:stedsnr" v="853199" />
	</node>
	<node id="9666441994" lat="59.7660761" lon="10.2757333" version="1" timestamp="2022-04-14T17:24:37Z" changeset="119722501" uid="3497659" user="NKA">
		<tag k="name" v="Stavsenga" />
		<tag k="place" v="farm" />
		<tag k="ssr:stedsnr" v="931894" />
	</node>
	<node id="9666441995" lat="59.9342528" lon="10.3002778" version="1" timestamp="2022-04-14T17:24:37Z" changeset="119722501" uid="3497659" user="NKA">
		<tag k="alt_name" v="Nordre Drag" />
		<tag k="name" v="Drag" />
		<tag k="place" v="farm" />
		<tag k="ssr:stedsnr" v="65415" />
	</node>
	<node id="9666441996" lat="59.7854361" lon="10.1845417" version="1" timestamp="2022-04-14T17:24:37Z" changeset="119722501" uid="3497659" user="NKA">
		<tag k="name" v="Pantegutten" />
		<tag k="place" v="isolated_dwelling" />
		<tag k="ssr:stedsnr" v="203683" />
	</node>
	<node id="9666441997" lat="59.7553247" lon="10.2331408" version="1" timestamp="2022-04-14T17:24:37Z" changeset="119722501" uid="3497659" user="NKA">
		<tag k="alt_name" v="Stoppen" />
		<tag k="name" v="Nedre Stoppen" />
		<tag k="place" v="farm" />
		<tag k="ssr:stedsnr" v="324918" />
	</node>
	<node id="9666441998" lat="59.8187651" lon="10.3212922" version="1" timestamp="2022-04-14T17:24:37Z" changeset="119722501" uid="3497659" user="NKA">
		<tag k="name" v="Gravdal" />
		<tag k="place" v="farm" />
		<tag k="ssr:stedsnr" v="871063" />
	</node>
	<node id="9666441999" lat="59.8459185" lon="10.2714086" version="1" timestamp="2022-04-14T17:24:37Z" changeset="119722501" uid="3497659" user="NKA">
		<tag k="name" v="Bråten" />
		<tag k="place" v="farm" />
		<tag k="ssr:stedsnr" v="507110" />
	</node>
	<node id="9666442000" lat="59.8574888" lon="10.235785" version="1" timestamp="2022-04-14T17:24:37Z" changeset="119722501" uid="3497659" user="NKA">
		<tag k="name" v="Årvoll" />
		<tag k="place" v="farm" />
		<tag k="ssr:stedsnr" v="142167" />
	</node>
	<node id="9666442001" lat="59.7799275" lon="10.2678398" version="1" timestamp="2022-04-14T17:24:37Z" changeset="119722501" uid="3497659" user="NKA">
		<tag k="name" v="Enga" />
		<tag k="place" v="farm" />
		<tag k="ssr:stedsnr" v="732181" />
	</node>
	<node id="9666442002" lat="59.8180638" lon="10.2909556" version="1" timestamp="2022-04-14T17:24:37Z" changeset="119722501" uid="3497659" user="NKA">
		<tag k="name" v="Svenskerud" />
		<tag k="place" v="farm" />
		<tag k="ssr:stedsnr" v="64208" />
	</node>
	<node id="9666442003" lat="59.8474165" lon="10.2644485" version="1" timestamp="2022-04-14T17:24:37Z" changeset="119722501" uid="3497659" user="NKA">
		<tag k="alt_name" v="Nedre Opsal" />
		<tag k="name" v="Nedre Oppsal" />
		<tag k="place" v="farm" />
		<tag k="ssr:stedsnr" v="446148" />
	</node>
	<node id="9666442004" lat="59.8349028" lon="10.2772667" version="1" timestamp="2022-04-14T17:24:37Z" changeset="119722501" uid="3497659" user="NKA">
		<tag k="name" v="Fjell" />
		<tag k="place" v="farm" />
		<tag k="ssr:stedsnr" v="914302" />
	</node>
	<node id="9666442005" lat="59.9333195" lon="10.2579334" version="1" timestamp="2022-04-14T17:24:37Z" changeset="119722501" uid="3497659" user="NKA">
		<tag k="name" v="Øverskogen" />
		<tag k="place" v="hamlet" />
		<tag k="ssr:stedsnr" v="186409" />
	</node>
	<node id="9666442006" lat="59.8228055" lon="10.3229499" version="1" timestamp="2022-04-14T17:24:37Z" changeset="119722501" uid="3497659" user="NKA">
		<tag k="name" v="Ovenstadlia" />
		<tag k="place" v="neighbourhood" />
		<tag k="ssr:stedsnr" v="507876" />
	</node>
	<node id="9666442007" lat="59.8172583" lon="10.2134444" version="1" timestamp="2022-04-14T17:24:37Z" changeset="119722501" uid="3497659" user="NKA">
		<tag k="name" v="Østre Grøstad" />
		<tag k="place" v="farm" />
		<tag k="ssr:stedsnr" v="871036" />
	</node>
	<node id="9666442008" lat="59.8601315" lon="10.3070721" version="1" timestamp="2022-04-14T17:24:37Z" changeset="119722501" uid="3497659" user="NKA">
		<tag k="name" v="Haukelisetra" />
		<tag k="place" v="locality" />
		<tag k="ssr:stedsnr" v="628869" />
	</node>
	<node id="9666442009" lat="59.7932837" lon="10.2205006" version="1" timestamp="2022-04-14T17:24:37Z" changeset="119722501" uid="3497659" user="NKA">
		<tag k="name" v="Helgerud" />
		<tag k="place" v="hamlet" />
		<tag k="ssr:stedsnr" v="247125" />
	</node>
	<node id="9666442010" lat="59.7962622" lon="10.2355151" version="1" timestamp="2022-04-14T17:24:37Z" changeset="119722501" uid="3497659" user="NKA">
		<tag k="name" v="Renskog" />
		<tag k="place" v="farm" />
		<tag k="ssr:stedsnr" v="1072702" />
	</node>
	<node id="9666442011" lat="59.7556058" lon="10.2262459" version="1" timestamp="2022-04-14T17:24:37Z" changeset="119722501" uid="3497659" user="NKA">
		<tag k="alt_name" v="Stoppen" />
		<tag k="name" v="Øvre Stoppen" />
		<tag k="place" v="farm" />
		<tag k="ssr:stedsnr" v="280644" />
	</node>
	<node id="9666442012" lat="59.7826045" lon="10.2174213" version="1" timestamp="2022-04-14T17:24:37Z" changeset="119722501" uid="3497659" user="NKA">
		<tag k="alt_name" v="Nordre Eik" />
		<tag k="name" v="Eik" />
		<tag k="place" v="hamlet" />
		<tag k="ssr:stedsnr" v="489182" />
	</node>
	<node id="9666442013" lat="59.8050811" lon="10.3533849" version="1" timestamp="2022-04-14T17:24:37Z" changeset="119722501" uid="3497659" user="NKA">
		<tag k="name" v="Ulvegløtt" />
		<tag k="place" v="isolated_dwelling" />
		<tag k="ssr:stedsnr" v="749575" />
	</node>
	<node id="9666442014" lat="59.8938389" lon="10.2389805" version="1" timestamp="2022-04-14T17:24:37Z" changeset="119722501" uid="3497659" user="NKA">
		<tag k="name" v="Trolldalen" />
		<tag k="place" v="neighbourhood" />
		<tag k="ssr:stedsnr" v="325151" />
	</node>
	<node id="9666442015" lat="59.9322472" lon="10.2851916" version="1" timestamp="2022-04-14T17:24:37Z" changeset="119722501" uid="3497659" user="NKA">
		<tag k="name" v="Langeland" />
		<tag k="place" v="farm" />
		<tag k="ssr:stedsnr" v="732455" />
	</node>
	<node id="9666442016" lat="59.8923867" lon="10.3070044" version="1" timestamp="2022-04-14T17:24:37Z" changeset="119722501" uid="3497659" user="NKA">
		<tag k="alt_name" v="St. Hallvards kloster" />
		<tag k="name" v="Klosteret" />
		<tag k="place" v="isolated_dwelling" />
		<tag k="ssr:stedsnr" v="20164" />
	</node>
	<node id="9666442017" lat="59.7532028" lon="10.3160666" version="1" timestamp="2022-04-14T17:24:37Z" changeset="119722501" uid="3497659" user="NKA">
		<tag k="name" v="Myrvoll" />
		<tag k="place" v="farm" />
		<tag k="ssr:stedsnr" v="549105" />
	</node>
	<node id="9666442018" lat="59.7623081" lon="10.2445486" version="1" timestamp="2022-04-14T17:24:37Z" changeset="119722501" uid="3497659" user="NKA">
		<tag k="name" v="Kjellbo" />
		<tag k="place" v="farm" />
		<tag k="ssr:stedsnr" v="931925" />
	</node>
	<node id="9666442019" lat="59.804949" lon="10.2545328" version="1" timestamp="2022-04-14T17:24:37Z" changeset="119722501" uid="3497659" user="NKA">
		<tag k="name" v="Haverstad" />
		<tag k="place" v="farm" />
		<tag k="ssr:stedsnr" v="368270" />
	</node>
	<node id="9666442020" lat="59.8620894" lon="10.2803836" version="1" timestamp="2022-04-14T17:24:37Z" changeset="119722501" uid="3497659" user="NKA">
		<tag k="name" v="Bjørnsrud" />
		<tag k="place" v="farm" />
		<tag k="ssr:stedsnr" v="21891" />
	</node>
	<node id="9666442021" lat="59.8667372" lon="10.2225681" version="1" timestamp="2022-04-14T17:24:37Z" changeset="119722501" uid="3497659" user="NKA">
		<tag k="name" v="Gifstad" />
		<tag k="place" v="hamlet" />
		<tag k="ssr:stedsnr" v="368296" />
	</node>
	<node id="9666442022" lat="59.7909661" lon="10.2598215" version="1" timestamp="2022-04-14T17:24:37Z" changeset="119722501" uid="3497659" user="NKA">
		<tag k="name" v="Foss" />
		<tag k="place" v="farm" />
		<tag k="ssr:stedsnr" v="566755" />
	</node>
	<node id="9666442023" lat="59.7954439" lon="10.2038424" version="1" timestamp="2022-04-14T17:24:37Z" changeset="119722501" uid="3497659" user="NKA">
		<tag k="name" v="Åsen" />
		<tag k="place" v="farm" />
		<tag k="ssr:stedsnr" v="385719" />
	</node>
	<node id="9666442024" lat="59.7682487" lon="10.2244852" version="1" timestamp="2022-04-14T17:24:37Z" changeset="119722501" uid="3497659" user="NKA">
		<tag k="name" v="Haug" />
		<tag k="place" v="farm" />
		<tag k="ssr:stedsnr" v="731140" />
	</node>
	<node id="9666442025" lat="59.7620662" lon="10.2774407" version="1" timestamp="2022-04-14T17:24:37Z" changeset="119722501" uid="3497659" user="NKA">
		<tag k="name" v="Øgården" />
		<tag k="place" v="farm" />
		<tag k="ssr:stedsnr" v="853055" />
	</node>
	<node id="9666442026" lat="59.8242972" lon="10.2689473" version="1" timestamp="2022-04-14T17:24:37Z" changeset="119722501" uid="3497659" user="NKA">
		<tag k="alt_name" v="Hennumtorget" />
		<tag k="name" v="Hennumskroken" />
		<tag k="place" v="hamlet" />
		<tag k="ssr:stedsnr" v="446069" />
	</node>
	<node id="9666442027" lat="59.9277493" lon="10.2987856" version="1" timestamp="2022-04-14T17:24:37Z" changeset="119722501" uid="3497659" user="NKA">
		<tag k="alt_name" v="Søndre Drag" />
		<tag k="name" v="Drag" />
		<tag k="place" v="hamlet" />
		<tag k="ssr:stedsnr" v="732451" />
	</node>
	<node id="9666442028" lat="59.8084196" lon="10.3287509" version="1" timestamp="2022-04-14T17:24:37Z" changeset="119722501" uid="3497659" user="NKA">
		<tag k="name" v="Kjenner" />
		<tag k="place" v="farm" />
		<tag k="ssr:stedsnr" v="307286" />
	</node>
	<node id="9666442029" lat="59.8440389" lon="10.2095001" version="1" timestamp="2022-04-14T17:24:37Z" changeset="119722501" uid="3497659" user="NKA">
		<tag k="name" v="Hansebråtan" />
		<tag k="place" v="farm" />
		<tag k="ssr:stedsnr" v="247271" />
	</node>
	<node id="9666442030" lat="59.7857129" lon="10.2276709" version="1" timestamp="2022-04-14T17:24:37Z" changeset="119722501" uid="3497659" user="NKA">
		<tag k="name" v="Saue" />
		<tag k="place" v="hamlet" />
		<tag k="ssr:stedsnr" v="4145" />
	</node>
	<node id="9666442031" lat="59.7900083" lon="10.2350194" version="1" timestamp="2022-04-14T17:24:37Z" changeset="119722501" uid="3497659" user="NKA">
		<tag k="name" v="Eikenga" />
		<tag k="place" v="quarter" />
		<tag k="ssr:stedsnr" v="568855" />
	</node>
	<node id="9666442032" lat="59.8084929" lon="10.350212" version="1" timestamp="2022-04-14T17:24:37Z" changeset="119722501" uid="3497659" user="NKA">
		<tag k="name" v="Ulven" />
		<tag k="place" v="farm" />
		<tag k="ssr:stedsnr" v="187726" />
	</node>
	<node id="9666442033" lat="59.7750067" lon="10.2013333" version="1" timestamp="2022-04-14T17:24:37Z" changeset="119722501" uid="3497659" user="NKA">
		<tag k="name" v="Steinli" />
		<tag k="place" v="farm" />
		<tag k="ssr:stedsnr" v="965395" />
	</node>
	<node id="9666442034" lat="59.83415" lon="10.3029334" version="1" timestamp="2022-04-14T17:24:37Z" changeset="119722501" uid="3497659" user="NKA">
		<tag k="name" v="Rotuløkkene" />
		<tag k="place" v="locality" />
		<tag k="ssr:stedsnr" v="446123" />
	</node>
	<node id="9666442035" lat="59.8932722" lon="10.2459584" version="1" timestamp="2022-04-14T17:24:37Z" changeset="119722501" uid="3497659" user="NKA">
		<tag k="name" v="Bekkom" />
		<tag k="place" v="isolated_dwelling" />
		<tag k="ssr:stedsnr" v="628158" />
	</node>
	<node id="9666442036" lat="59.869154" lon="10.2541261" version="1" timestamp="2022-04-14T17:24:37Z" changeset="119722501" uid="3497659" user="NKA">
		<tag k="name" v="Granli" />
		<tag k="place" v="farm" />
		<tag k="ssr:stedsnr" v="446274" />
	</node>
	<node id="9666442037" lat="59.8216916" lon="10.2727028" version="1" timestamp="2022-04-14T17:24:37Z" changeset="119722501" uid="3497659" user="NKA">
		<tag k="name" v="Søndre Hennum" />
		<tag k="place" v="farm" />
		<tag k="ssr:stedsnr" v="810069" />
	</node>
	<node id="9666442038" lat="59.7806194" lon="10.2430444" version="1" timestamp="2022-04-14T17:24:37Z" changeset="119722501" uid="3497659" user="NKA">
		<tag k="name" v="Heggtoppen" />
		<tag k="old_name" v="Hegg" />
		<tag k="place" v="quarter" />
		<tag k="ssr:stedsnr" v="141697" />
	</node>
	<node id="9666442039" lat="59.8943444" lon="10.2498888" version="1" timestamp="2022-04-14T17:24:37Z" changeset="119722501" uid="3497659" user="NKA">
		<tag k="name" v="Østre Solberg" />
		<tag k="place" v="farm" />
		<tag k="ssr:stedsnr" v="21205" />
	</node>
	<node id="9666442040" lat="59.81547" lon="10.1966194" version="1" timestamp="2022-04-14T17:24:37Z" changeset="119722501" uid="3497659" user="NKA">
		<tag k="name" v="Solspillet" />
		<tag k="place" v="farm" />
		<tag k="ssr:stedsnr" v="810375" />
	</node>
	<node id="9666442041" lat="59.8610024" lon="10.3007816" version="1" timestamp="2022-04-14T17:24:37Z" changeset="119722501" uid="3497659" user="NKA">
		<tag k="name" v="Haukeliskogen" />
		<tag k="place" v="farm" />
		<tag k="ssr:stedsnr" v="1078680" />
	</node>
	<node id="9666442042" lat="59.8228325" lon="10.1371249" version="1" timestamp="2022-04-14T17:24:37Z" changeset="119722501" uid="3497659" user="NKA">
		<tag k="name" v="Myrvang" />
		<tag k="place" v="farm" />
		<tag k="ssr:stedsnr" v="567445" />
	</node>
	<node id="9666442043" lat="59.8067356" lon="10.2354163" version="1" timestamp="2022-04-14T17:24:37Z" changeset="119722501" uid="3497659" user="NKA">
		<tag k="name" v="Haslenes" />
		<tag k="place" v="farm" />
		<tag k="ssr:stedsnr" v="368266" />
	</node>
	<node id="9666442044" lat="59.9245813" lon="10.2659344" version="1" timestamp="2022-04-14T17:24:37Z" changeset="119722501" uid="3497659" user="NKA">
		<tag k="name" v="Skustadenga" />
		<tag k="place" v="farm" />
		<tag k="ssr:stedsnr" v="914410" />
	</node>
	<node id="9666442045" lat="59.8174297" lon="10.3228708" version="1" timestamp="2022-04-14T17:24:37Z" changeset="119722501" uid="3497659" user="NKA">
		<tag k="name" v="Solvang" />
		<tag k="place" v="farm" />
		<tag k="ssr:stedsnr" v="21082" />
	</node>
	<node id="9666442046" lat="59.8090447" lon="10.3242186" version="1" timestamp="2022-04-14T17:24:37Z" changeset="119722501" uid="3497659" user="NKA">
		<tag k="name" v="Skogli" />
		<tag k="place" v="farm" />
		<tag k="ssr:stedsnr" v="870574" />
	</node>
	<node id="9666442047" lat="59.8103573" lon="10.2748062" version="1" timestamp="2022-04-14T17:24:37Z" changeset="119722501" uid="3497659" user="NKA">
		<tag k="name" v="Høgda" />
		<tag k="place" v="farm" />
		<tag k="ssr:stedsnr" v="914249" />
	</node>
	<node id="9666442048" lat="59.8712252" lon="10.2280317" version="1" timestamp="2022-04-14T17:24:37Z" changeset="119722501" uid="3497659" user="NKA">
		<tag k="name" v="Vefferstad" />
		<tag k="place" v="farm" />
		<tag k="ssr:stedsnr" v="82820" />
	</node>
	<node id="9666442049" lat="59.8491244" lon="10.2183063" version="1" timestamp="2022-04-14T17:24:37Z" changeset="119722501" uid="3497659" user="NKA">
		<tag k="alt_name" v="Hakavoll" />
		<tag k="name" v="Hakaval" />
		<tag k="place" v="farm" />
		<tag k="ssr:stedsnr" v="932360" />
	</node>
	<node id="9666442050" lat="59.8799548" lon="10.2506864" version="1" timestamp="2022-04-14T17:24:37Z" changeset="119722501" uid="3497659" user="NKA">
		<tag k="name" v="Hvam" />
		<tag k="place" v="farm" />
		<tag k="ssr:stedsnr" v="793373" />
	</node>
	<node id="9666442051" lat="59.8596514" lon="10.1407339" version="1" timestamp="2022-04-14T17:24:37Z" changeset="119722501" uid="3497659" user="NKA">
		<tag k="name" v="Vesleløkka" />
		<tag k="old_name" v="Vesleløkken" />
		<tag k="place" v="farm" />
		<tag k="ssr:stedsnr" v="446007" />
	</node>
	<node id="9666442052" lat="59.8185013" lon="10.3461889" version="1" timestamp="2022-04-14T17:24:37Z" changeset="119722501" uid="3497659" user="NKA">
		<tag k="name" v="Nedre Stabekk" />
		<tag k="place" v="farm" />
		<tag k="ssr:stedsnr" v="871064" />
	</node>
	<node id="9666442053" lat="59.9054472" lon="10.2669583" version="1" timestamp="2022-04-14T17:24:37Z" changeset="119722501" uid="3497659" user="NKA">
		<tag k="name" v="Poverudbyen" />
		<tag k="place" v="neighbourhood" />
		<tag k="ssr:stedsnr" v="628546" />
	</node>
	<node id="9666442054" lat="59.9484363" lon="10.2929899" version="1" timestamp="2022-04-14T17:24:37Z" changeset="119722501" uid="3497659" user="NKA">
		<tag k="name" v="Tangen" />
		<tag k="place" v="isolated_dwelling" />
		<tag k="ssr:stedsnr" v="628504" />
	</node>
	<node id="9666442055" lat="59.8017" lon="10.1723501" version="1" timestamp="2022-04-14T17:24:37Z" changeset="119722501" uid="3497659" user="NKA">
		<tag k="name" v="Fjellstup" />
		<tag k="place" v="isolated_dwelling" />
		<tag k="ssr:stedsnr" v="265096" />
	</node>
	<node id="9666442056" lat="59.8485247" lon="10.2091184" version="1" timestamp="2022-04-14T17:24:37Z" changeset="119722501" uid="3497659" user="NKA">
		<tag k="name" v="Fisker" />
		<tag k="place" v="farm" />
		<tag k="ssr:stedsnr" v="507359" />
	</node>
	<node id="9666442057" lat="59.8426545" lon="10.2295344" version="1" timestamp="2022-04-14T17:24:37Z" changeset="119722501" uid="3497659" user="NKA">
		<tag k="alt_name" v="Nordre Meren" />
		<tag k="name" v="Meren" />
		<tag k="place" v="hamlet" />
		<tag k="ssr:stedsnr" v="489317" />
	</node>
	<node id="9666442058" lat="59.9254835" lon="10.1787892" version="1" timestamp="2022-04-14T17:24:37Z" changeset="119722501" uid="3497659" user="NKA">
		<tag k="alt_name" v="Rustan;Rudstaden" />
		<tag k="name" v="Rustaden" />
		<tag k="place" v="farm" />
		<tag k="ssr:stedsnr" v="793436" />
	</node>
	<node id="9666442059" lat="59.9063917" lon="10.2670472" version="1" timestamp="2022-04-14T17:24:37Z" changeset="119722501" uid="3497659" user="NKA">
		<tag k="name" v="Rundsvoll" />
		<tag k="place" v="farm" />
		<tag k="ssr:stedsnr" v="246329" />
	</node>
	<node id="9666442060" lat="59.8169735" lon="10.3033117" version="1" timestamp="2022-04-14T17:24:37Z" changeset="119722501" uid="3497659" user="NKA">
		<tag k="name" v="Vestre Grøstad" />
		<tag k="place" v="farm" />
		<tag k="ssr:stedsnr" v="507034" />
	</node>
	<node id="9666442061" lat="59.7852875" lon="10.2231248" version="1" timestamp="2022-04-14T17:24:37Z" changeset="119722501" uid="3497659" user="NKA">
		<tag k="alt_name" v="Vestre Haugerud" />
		<tag k="loc_name" v="Lund" />
		<tag k="name" v="Haugen" />
		<tag k="place" v="farm" />
		<tag k="ssr:stedsnr" v="506375" />
	</node>
	<node id="9666442062" lat="59.9336315" lon="10.2843268" version="1" timestamp="2022-04-14T17:24:37Z" changeset="119722501" uid="3497659" user="NKA">
		<tag k="name" v="Slutten" />
		<tag k="place" v="farm" />
		<tag k="ssr:stedsnr" v="368463" />
	</node>
	<node id="9666442063" lat="59.8068028" lon="10.2464805" version="1" timestamp="2022-04-14T17:24:37Z" changeset="119722501" uid="3497659" user="NKA">
		<tag k="alt_name" v="Tranby-Utengen" />
		<tag k="name" v="Tranby-utenga" />
		<tag k="place" v="farm" />
		<tag k="ssr:stedsnr" v="263748" />
	</node>
	<node id="9666442064" lat="59.8711567" lon="10.2836581" version="1" timestamp="2022-04-14T17:24:37Z" changeset="119722501" uid="3497659" user="NKA">
		<tag k="name" v="Østenga" />
		<tag k="place" v="farm" />
		<tag k="ssr:stedsnr" v="247320" />
	</node>
	<node id="9666442065" lat="59.9580281" lon="10.2809229" version="1" timestamp="2022-04-14T17:24:37Z" changeset="119722501" uid="3497659" user="NKA">
		<tag k="name" v="Horn" />
		<tag k="place" v="hamlet" />
		<tag k="ssr:stedsnr" v="186424" />
	</node>
	<node id="9666442066" lat="59.7831417" lon="10.2070917" version="1" timestamp="2022-04-14T17:24:37Z" changeset="119722501" uid="3497659" user="NKA">
		<tag k="name" v="Eikhagan" />
		<tag k="place" v="farm" />
		<tag k="ssr:stedsnr" v="307159" />
	</node>
	<node id="9666442067" lat="59.8151211" lon="10.2048124" version="1" timestamp="2022-04-14T17:24:37Z" changeset="119722501" uid="3497659" user="NKA">
		<tag k="loc_name" v="Justad" />
		<tag k="name" v="Ytre Justad" />
		<tag k="place" v="farm" />
		<tag k="ssr:stedsnr" v="507378" />
	</node>
	<node id="9666442068" lat="59.9317446" lon="10.2685697" version="1" timestamp="2022-04-14T17:24:37Z" changeset="119722501" uid="3497659" user="NKA">
		<tag k="name" v="Nordset" />
		<tag k="place" v="farm" />
		<tag k="ssr:stedsnr" v="810507" />
	</node>
	<node id="9666442069" lat="59.7788322" lon="10.26969" version="1" timestamp="2022-04-14T17:24:37Z" changeset="119722501" uid="3497659" user="NKA">
		<tag k="name" v="Søndre Stokke" />
		<tag k="place" v="farm" />
		<tag k="ssr:stedsnr" v="21629" />
	</node>
	<node id="9666442070" lat="59.8110854" lon="10.1509716" version="1" timestamp="2022-04-14T17:24:37Z" changeset="119722501" uid="3497659" user="NKA">
		<tag k="name" v="Jarenhytta" />
		<tag k="place" v="isolated_dwelling" />
		<tag k="ssr:stedsnr" v="507398" />
	</node>
	<node id="9666442071" lat="59.8908981" lon="10.2576558" version="1" timestamp="2022-04-14T17:24:37Z" changeset="119722501" uid="3497659" user="NKA">
		<tag k="alt_name" v="Østvoll Rinen" />
		<tag k="name" v="Østvoll" />
		<tag k="place" v="farm" />
		<tag k="ssr:stedsnr" v="732320" />
	</node>
	<node id="9666442072" lat="59.8005556" lon="10.2888584" version="1" timestamp="2022-04-14T17:24:37Z" changeset="119722501" uid="3497659" user="NKA">
		<tag k="name" v="Leirdalen" />
		<tag k="place" v="isolated_dwelling" />
		<tag k="ssr:stedsnr" v="264653" />
	</node>
	<node id="9666442073" lat="59.9047393" lon="10.2730282" version="1" timestamp="2022-04-14T17:24:37Z" changeset="119722501" uid="3497659" user="NKA">
		<tag k="name" v="Enga" />
		<tag k="place" v="farm" />
		<tag k="ssr:stedsnr" v="792322" />
	</node>
	<node id="9666442074" lat="59.8158041" lon="10.2274804" version="1" timestamp="2022-04-14T17:24:37Z" changeset="119722501" uid="3497659" user="NKA">
		<tag k="name" v="Grøtte" />
		<tag k="place" v="farm" />
		<tag k="ssr:stedsnr" v="428196" />
	</node>
	<node id="9666442075" lat="59.8610585" lon="10.2782332" version="1" timestamp="2022-04-14T17:24:37Z" changeset="119722501" uid="3497659" user="NKA">
		<tag k="alt_name" v="Skonnarud" />
		<tag k="name" v="Skonarud" />
		<tag k="place" v="farm" />
		<tag k="ssr:stedsnr" v="610299" />
	</node>
	<node id="9666442076" lat="59.8290792" lon="10.2396901" version="1" timestamp="2022-04-14T17:24:37Z" changeset="119722501" uid="3497659" user="NKA">
		<tag k="alt_name" v="Ytre Fuglerud" />
		<tag k="name" v="Fuglerud" />
		<tag k="place" v="farm" />
		<tag k="ssr:stedsnr" v="368217" />
	</node>
	<node id="9666442077" lat="59.920327" lon="10.2881951" version="1" timestamp="2022-04-14T17:24:37Z" changeset="119722501" uid="3497659" user="NKA">
		<tag k="name" v="Granum" />
		<tag k="place" v="farm" />
		<tag k="ssr:stedsnr" v="385490" />
	</node>
	<node id="9666442078" lat="59.870124" lon="10.2255298" version="1" timestamp="2022-04-14T17:24:37Z" changeset="119722501" uid="3497659" user="NKA">
		<tag k="name" v="Vestenga" />
		<tag k="place" v="farm" />
		<tag k="ssr:stedsnr" v="203824" />
	</node>
	<node id="9666442079" lat="59.7609556" lon="10.2410446" version="1" timestamp="2022-04-14T17:24:37Z" changeset="119722501" uid="3497659" user="NKA">
		<tag k="loc_name" v="Kjellstadhagan" />
		<tag k="name" v="Kjellstadhagen" />
		<tag k="place" v="farm" />
		<tag k="ssr:stedsnr" v="810899" />
	</node>
	<node id="9666442080" lat="59.9344413" lon="10.2609318" version="1" timestamp="2022-04-14T17:24:37Z" changeset="119722501" uid="3497659" user="NKA">
		<tag k="name" v="Åsegård" />
		<tag k="place" v="farm" />
		<tag k="ssr:stedsnr" v="385505" />
	</node>
	<node id="9666442081" lat="59.8921195" lon="10.2279833" version="1" timestamp="2022-04-14T17:24:37Z" changeset="119722501" uid="3497659" user="NKA">
		<tag k="alt_name" v="Nordhagen" />
		<tag k="name" v="Søndre Nordhagen" />
		<tag k="place" v="farm" />
		<tag k="ssr:stedsnr" v="526168" />
	</node>
	<node id="9666442082" lat="59.7726668" lon="10.2518936" version="1" timestamp="2022-04-14T17:24:37Z" changeset="119722501" uid="3497659" user="NKA">
		<tag k="name" v="Lille Valle" />
		<tag k="place" v="farm" />
		<tag k="ssr:stedsnr" v="931768" />
	</node>
	<node id="9666442083" lat="59.8989108" lon="10.2833449" version="1" timestamp="2022-04-14T17:24:37Z" changeset="119722501" uid="3497659" user="NKA">
		<tag k="name" v="Kirkerud" />
		<tag k="place" v="farm" />
		<tag k="ssr:stedsnr" v="549343" />
	</node>
	<node id="9666442084" lat="59.8451515" lon="10.1935223" version="1" timestamp="2022-04-14T17:24:37Z" changeset="119722501" uid="3497659" user="NKA">
		<tag k="alt_name" v="Øvre Kokopp" />
		<tag k="name" v="Kokopp" />
		<tag k="place" v="farm" />
		<tag k="ssr:stedsnr" v="64244" />
	</node>
	<node id="9666442085" lat="59.8306046" lon="10.314227" version="1" timestamp="2022-04-14T17:24:37Z" changeset="119722501" uid="3497659" user="NKA">
		<tag k="name" v="Tømte" />
		<tag k="place" v="farm" />
		<tag k="ssr:stedsnr" v="1072712" />
	</node>
	<node id="9666442086" lat="59.8180785" lon="10.2650654" version="1" timestamp="2022-04-14T17:24:37Z" changeset="119722501" uid="3497659" user="NKA">
		<tag k="alt_name" v="Stustad" />
		<tag k="name" v="Søndre Hennum" />
		<tag k="place" v="farm" />
		<tag k="ssr:stedsnr" v="567051" />
	</node>
	<node id="9666442087" lat="59.8840582" lon="10.3083501" version="1" timestamp="2022-04-14T17:24:37Z" changeset="119722501" uid="3497659" user="NKA">
		<tag k="name" v="Tveiten" />
		<tag k="place" v="farm" />
		<tag k="ssr:stedsnr" v="429345" />
	</node>
	<node id="9666442088" lat="59.8013972" lon="10.2373806" version="1" timestamp="2022-04-14T17:24:37Z" changeset="119722501" uid="3497659" user="NKA">
		<tag k="name" v="Kikut" />
		<tag k="place" v="farm" />
		<tag k="ssr:stedsnr" v="748752" />
	</node>
	<node id="9666442089" lat="59.8427056" lon="10.2156611" version="1" timestamp="2022-04-14T17:24:37Z" changeset="119722501" uid="3497659" user="NKA">
		<tag k="name" v="Skrovle" />
		<tag k="place" v="isolated_dwelling" />
		<tag k="ssr:stedsnr" v="247275" />
	</node>
	<node id="9666442090" lat="59.7873642" lon="10.1982809" version="1" timestamp="2022-04-14T17:24:37Z" changeset="119722501" uid="3497659" user="NKA">
		<tag k="name" v="Grinda" />
		<tag k="place" v="farm" />
		<tag k="ssr:stedsnr" v="489163" />
	</node>
	<node id="9666442091" lat="59.8696437" lon="10.2161065" version="1" timestamp="2022-04-14T17:24:37Z" changeset="119722501" uid="3497659" user="NKA">
		<tag k="name" v="Bergan" />
		<tag k="place" v="isolated_dwelling" />
		<tag k="ssr:stedsnr" v="628782" />
	</node>
	<node id="9666442092" lat="59.826268" lon="10.3243304" version="1" timestamp="2022-04-14T17:24:37Z" changeset="119722501" uid="3497659" user="NKA">
		<tag k="name" v="Fredheim" />
		<tag k="place" v="isolated_dwelling" />
		<tag k="ssr:stedsnr" v="689097" />
	</node>
	<node id="9666442093" lat="59.747537" lon="10.3044971" version="1" timestamp="2022-04-14T17:24:37Z" changeset="119722501" uid="3497659" user="NKA">
		<tag k="name" v="Fagerhaug" />
		<tag k="place" v="farm" />
		<tag k="ssr:stedsnr" v="932835" />
	</node>
	<node id="9666442094" lat="59.8593166" lon="10.3284861" version="1" timestamp="2022-04-14T17:24:37Z" changeset="119722501" uid="3497659" user="NKA">
		<tag k="name" v="Kipen" />
		<tag k="place" v="isolated_dwelling" />
		<tag k="ssr:stedsnr" v="567972" />
	</node>
	<node id="9666442095" lat="59.8424885" lon="10.2154484" version="1" timestamp="2022-04-14T17:24:37Z" changeset="119722501" uid="3497659" user="NKA">
		<tag k="name" v="Bakke" />
		<tag k="place" v="farm" />
		<tag k="ssr:stedsnr" v="325123" />
	</node>
	<node id="9666442096" lat="59.9064792" lon="10.2727903" version="1" timestamp="2022-04-14T17:24:37Z" changeset="119722501" uid="3497659" user="NKA">
		<tag k="alt_name" v="Stendike" />
		<tag k="name" v="Åsli" />
		<tag k="place" v="farm" />
		<tag k="ssr:stedsnr" v="671331" />
	</node>
	<node id="9666442097" lat="59.8008784" lon="10.2306309" version="1" timestamp="2022-04-14T17:24:37Z" changeset="119722501" uid="3497659" user="NKA">
		<tag k="alt_name" v="Nordre Renskaug" />
		<tag k="name" v="Nordre Renskog" />
		<tag k="place" v="farm" />
		<tag k="ssr:stedsnr" v="429124" />
	</node>
	<node id="9666442098" lat="59.8482209" lon="10.2495868" version="1" timestamp="2022-04-14T17:24:37Z" changeset="119722501" uid="3497659" user="NKA">
		<tag k="alt_name" v="Opsal;Nedre Opsal" />
		<tag k="name" v="Nedre Oppsal" />
		<tag k="place" v="farm" />
		<tag k="ssr:stedsnr" v="21409" />
	</node>
	<node id="9666442099" lat="59.8063917" lon="10.2239278" version="1" timestamp="2022-04-14T17:24:37Z" changeset="119722501" uid="3497659" user="NKA">
		<tag k="name" v="Landfallenga" />
		<tag k="place" v="farm" />
		<tag k="ssr:stedsnr" v="20354" />
	</node>
	<node id="9666442100" lat="59.8705889" lon="10.245675" version="1" timestamp="2022-04-14T17:24:37Z" changeset="119722501" uid="3497659" user="NKA">
		<tag k="name" v="Roaldsrud" />
		<tag k="place" v="locality" />
		<tag k="ssr:stedsnr" v="82151" />
	</node>
	<node id="9666442101" lat="59.8518785" lon="10.2079092" version="1" timestamp="2022-04-14T17:24:37Z" changeset="119722501" uid="3497659" user="NKA">
		<tag k="name" v="Kokstad" />
		<tag k="place" v="farm" />
		<tag k="ssr:stedsnr" v="871109" />
	</node>
	<node id="9666442102" lat="59.7514703" lon="10.2520975" version="1" timestamp="2022-04-14T17:24:37Z" changeset="119722501" uid="3497659" user="NKA">
		<tag k="name" v="Høvik" />
		<tag k="place" v="neighbourhood" />
		<tag k="ssr:stedsnr" v="422307" />
	</node>
	<node id="9666442103" lat="59.747575" lon="10.2351084" version="1" timestamp="2022-04-14T17:24:37Z" changeset="119722501" uid="3497659" user="NKA">
		<tag k="name" v="Østre Nøste" />
		<tag k="place" v="isolated_dwelling" />
		<tag k="ssr:stedsnr" v="647924" />
	</node>
	<node id="9666442104" lat="59.7886364" lon="10.2741769" version="1" timestamp="2022-04-14T17:24:37Z" changeset="119722501" uid="3497659" user="NKA">
		<tag k="name" v="Nordre Stokke" />
		<tag k="place" v="farm" />
		<tag k="ssr:stedsnr" v="931714" />
	</node>
	<node id="9666442105" lat="59.7667856" lon="10.2541932" version="1" timestamp="2022-04-14T17:24:37Z" changeset="119722501" uid="3497659" user="NKA">
		<tag k="name" v="Åby" />
		<tag k="place" v="farm" />
		<tag k="ssr:stedsnr" v="307193" />
	</node>
	<node id="9666442106" lat="59.8577694" lon="10.2715087" version="1" timestamp="2022-04-14T17:24:37Z" changeset="119722501" uid="3497659" user="NKA">
		<tag k="name" v="Torsrud" />
		<tag k="place" v="farm" />
		<tag k="ssr:stedsnr" v="246255" />
	</node>
	<node id="9666442107" lat="59.8117825" lon="10.210853" version="1" timestamp="2022-04-14T17:24:37Z" changeset="119722501" uid="3497659" user="NKA">
		<tag k="name" v="Ytre Justad" />
		<tag k="place" v="farm" />
		<tag k="ssr:stedsnr" v="810381" />
	</node>
	<node id="9666442108" lat="59.8977635" lon="10.3061893" version="1" timestamp="2022-04-14T17:24:37Z" changeset="119722501" uid="3497659" user="NKA">
		<tag k="name" v="Skjæret" />
		<tag k="place" v="farm" />
		<tag k="ssr:stedsnr" v="672284" />
	</node>
	<node id="9666442109" lat="59.795213" lon="10.2368481" version="1" timestamp="2022-04-14T17:24:37Z" changeset="119722501" uid="3497659" user="NKA">
		<tag k="alt_name" v="Søndre Renskaug" />
		<tag k="name" v="Søndre Renskog" />
		<tag k="place" v="farm" />
		<tag k="ssr:stedsnr" v="854112" />
	</node>
	<node id="9666442110" lat="59.8167333" lon="10.2534139" version="1" timestamp="2022-04-14T17:24:37Z" changeset="119722501" uid="3497659" user="NKA">
		<tag k="name" v="Tallaksrud" />
		<tag k="place" v="farm" />
		<tag k="ssr:stedsnr" v="185208" />
	</node>
	<node id="9666442111" lat="59.8426945" lon="10.133325" version="1" timestamp="2022-04-14T17:24:37Z" changeset="119722501" uid="3497659" user="NKA">
		<tag k="name" v="Kasta" />
		<tag k="place" v="isolated_dwelling" />
		<tag k="ssr:stedsnr" v="368315" />
	</node>
	<node id="9666442112" lat="59.760875" lon="10.2557805" version="1" timestamp="2022-04-14T17:24:37Z" changeset="119722501" uid="3497659" user="NKA">
		<tag k="name" v="Haga" />
		<tag k="place" v="farm" />
		<tag k="ssr:stedsnr" v="792079" />
	</node>
	<node id="9666442113" lat="59.8300217" lon="10.2352277" version="1" timestamp="2022-04-14T17:24:37Z" changeset="119722501" uid="3497659" user="NKA">
		<tag k="name" v="Follestad" />
		<tag k="place" v="farm" />
		<tag k="ssr:stedsnr" v="446132" />
	</node>
	<node id="9666442114" lat="59.8650112" lon="10.314089" version="1" timestamp="2022-04-14T17:24:37Z" changeset="119722501" uid="3497659" user="NKA">
		<tag k="name" v="Klunken" />
		<tag k="place" v="isolated_dwelling" />
		<tag k="ssr:stedsnr" v="810900" />
	</node>
	<node id="9666442115" lat="59.8015248" lon="10.2131528" version="1" timestamp="2022-04-14T17:24:37Z" changeset="119722501" uid="3497659" user="NKA">
		<tag k="name" v="Langbråten" />
		<tag k="place" v="farm" />
		<tag k="ssr:stedsnr" v="870746" />
	</node>
	<node id="9666442116" lat="59.90472" lon="10.3239082" version="1" timestamp="2022-04-14T17:24:37Z" changeset="119722501" uid="3497659" user="NKA">
		<tag k="name" v="Kvisla" />
		<tag k="place" v="farm" />
		<tag k="ssr:stedsnr" v="428310" />
	</node>
	<node id="9666442117" lat="59.9042833" lon="10.2687573" version="1" timestamp="2022-04-14T17:24:37Z" changeset="119722501" uid="3497659" user="NKA">
		<tag k="name" v="Hørte" />
		<tag k="place" v="farm" />
		<tag k="ssr:stedsnr" v="628548" />
	</node>
	<node id="9666442118" lat="59.9651695" lon="10.2755972" version="1" timestamp="2022-04-14T17:24:37Z" changeset="119722501" uid="3497659" user="NKA">
		<tag k="name" v="Pålsrud" />
		<tag k="place" v="farm" />
		<tag k="ssr:stedsnr" v="64459" />
	</node>
	<node id="9666442119" lat="59.8100704" lon="10.3185967" version="1" timestamp="2022-04-14T17:24:37Z" changeset="119722501" uid="3497659" user="NKA">
		<tag k="name" v="Myra" />
		<tag k="place" v="farm" />
		<tag k="ssr:stedsnr" v="367180" />
	</node>
	<node id="9666442120" lat="59.7698966" lon="10.2399085" version="1" timestamp="2022-04-14T17:24:37Z" changeset="119722501" uid="3497659" user="NKA">
		<tag k="alt_name" v="Østre Sandaker" />
		<tag k="name" v="Sandaker" />
		<tag k="place" v="hamlet" />
		<tag k="ssr:stedsnr" v="671171" />
	</node>
	<node id="9666442121" lat="59.8016549" lon="10.2478391" version="1" timestamp="2022-04-14T17:24:37Z" changeset="119722501" uid="3497659" user="NKA">
		<tag k="name" v="Utenga" />
		<tag k="place" v="farm" />
		<tag k="ssr:stedsnr" v="202745" />
	</node>
	<node id="9666442122" lat="59.8615621" lon="10.2273016" version="1" timestamp="2022-04-14T17:24:37Z" changeset="119722501" uid="3497659" user="NKA">
		<tag k="name" v="Fagerheim" />
		<tag k="place" v="farm" />
		<tag k="ssr:stedsnr" v="689137" />
	</node>
	<node id="9666442123" lat="59.9301694" lon="10.2826066" version="1" timestamp="2022-04-14T17:24:37Z" changeset="119722501" uid="3497659" user="NKA">
		<tag k="alt_name" v="Nedre Skustad" />
		<tag k="name" v="Nerskustad" />
		<tag k="place" v="farm" />
		<tag k="ssr:stedsnr" v="914427" />
	</node>
	<node id="9666442124" lat="59.830462" lon="10.3202217" version="1" timestamp="2022-04-14T17:24:37Z" changeset="119722501" uid="3497659" user="NKA">
		<tag k="name" v="Ovenstadhagan" />
		<tag k="place" v="farm" />
		<tag k="ssr:stedsnr" v="507074" />
	</node>
	<node id="9666442125" lat="59.767509" lon="10.2406866" version="1" timestamp="2022-04-14T17:24:37Z" changeset="119722501" uid="3497659" user="NKA">
		<tag k="name" v="Steinset" />
		<tag k="place" v="farm" />
		<tag k="ssr:stedsnr" v="748741" />
	</node>
	<node id="9666442126" lat="59.9325" lon="10.2776584" version="1" timestamp="2022-04-14T17:24:37Z" changeset="119722501" uid="3497659" user="NKA">
		<tag k="name" v="Nedre Skustad" />
		<tag k="place" v="farm" />
		<tag k="ssr:stedsnr" v="21538" />
	</node>
	<node id="9666442127" lat="59.8471361" lon="10.2218556" version="1" timestamp="2022-04-14T17:24:37Z" changeset="119722501" uid="3497659" user="NKA">
		<tag k="name" v="Steinberg" />
		<tag k="place" v="farm" />
		<tag k="ssr:stedsnr" v="125329" />
	</node>
	<node id="9666442128" lat="59.7622295" lon="10.2241532" version="1" timestamp="2022-04-14T17:24:37Z" changeset="119722501" uid="3497659" user="NKA">
		<tag k="name" v="Lian" />
		<tag k="place" v="quarter" />
		<tag k="ssr:stedsnr" v="1072700" />
	</node>
	<node id="9666442129" lat="59.8239217" lon="10.2575563" version="1" timestamp="2022-04-14T17:24:37Z" changeset="119722501" uid="3497659" user="NKA">
		<tag k="name" v="Dalenga" />
		<tag k="place" v="farm" />
		<tag k="ssr:stedsnr" v="385145" />
	</node>
	<node id="9666442130" lat="59.7565726" lon="10.2933135" version="1" timestamp="2022-04-14T17:24:37Z" changeset="119722501" uid="3497659" user="NKA">
		<tag k="name" v="Kunterud" />
		<tag k="place" v="isolated_dwelling" />
		<tag k="ssr:stedsnr" v="585435" />
	</node>
	<node id="9666442131" lat="59.930871" lon="10.2593971" version="1" timestamp="2022-04-14T17:24:37Z" changeset="119722501" uid="3497659" user="NKA">
		<tag k="name" v="Øvre Skustad" />
		<tag k="place" v="farm" />
		<tag k="ssr:stedsnr" v="385552" />
	</node>
	<node id="9666442132" lat="59.85678" lon="10.2389181" version="1" timestamp="2022-04-14T17:24:37Z" changeset="119722501" uid="3497659" user="NKA">
		<tag k="alt_name" v="Øvre Mørk" />
		<tag k="name" v="Mørk" />
		<tag k="place" v="hamlet" />
		<tag k="ssr:stedsnr" v="732274" />
	</node>
	<node id="9666442133" lat="59.7727056" lon="10.2834973" version="1" timestamp="2022-04-14T17:24:37Z" changeset="119722501" uid="3497659" user="NKA">
		<tag k="name" v="Sommerro" />
		<tag k="place" v="farm" />
		<tag k="ssr:stedsnr" v="82592" />
	</node>
	<node id="9666442134" lat="59.7830833" lon="10.2505111" version="1" timestamp="2022-04-14T17:24:37Z" changeset="119722501" uid="3497659" user="NKA">
		<tag k="name" v="Elvebakken" />
		<tag k="place" v="farm" />
		<tag k="ssr:stedsnr" v="931754" />
	</node>
	<node id="9666442135" lat="59.8221056" lon="10.3470305" version="1" timestamp="2022-04-14T17:24:37Z" changeset="119722501" uid="3497659" user="NKA">
		<tag k="name" v="Nedre Stabekk" />
		<tag k="place" v="farm" />
		<tag k="ssr:stedsnr" v="871076" />
	</node>
	<node id="9666442136" lat="59.7521814" lon="10.2692765" version="1" timestamp="2022-04-14T17:24:37Z" changeset="119722501" uid="3497659" user="NKA">
		<tag k="name" v="Gilhus" />
		<tag k="place" v="neighbourhood" />
		<tag k="ssr:stedsnr" v="567887" />
	</node>
	<node id="9666442137" lat="59.7747222" lon="10.2703445" version="1" timestamp="2022-04-14T17:24:37Z" changeset="119722501" uid="3497659" user="NKA">
		<tag k="name" v="Reistadholmen" />
		<tag k="place" v="farm" />
		<tag k="ssr:stedsnr" v="446615" />
	</node>
	<node id="9666442138" lat="59.771953" lon="10.2289658" version="1" timestamp="2022-04-14T17:24:37Z" changeset="119722501" uid="3497659" user="NKA">
		<tag k="alt_name" v="Vivelstad" />
		<tag k="name" v="Viulstad" />
		<tag k="place" v="farm" />
		<tag k="ssr:stedsnr" v="610212" />
	</node>
	<node id="9666442139" lat="59.8531902" lon="10.2233566" version="1" timestamp="2022-04-14T17:24:37Z" changeset="119722501" uid="3497659" user="NKA">
		<tag k="alt_name" v="Øvre Rød" />
		<tag k="name" v="Rød" />
		<tag k="place" v="hamlet" />
		<tag k="ssr:stedsnr" v="489326" />
	</node>
	<node id="9666442140" lat="59.8314872" lon="10.341153" version="1" timestamp="2022-04-14T17:24:37Z" changeset="119722501" uid="3497659" user="NKA">
		<tag k="name" v="Rypeløkka" />
		<tag k="place" v="farm" />
		<tag k="ssr:stedsnr" v="385084" />
	</node>
	<node id="9666442141" lat="59.8695692" lon="10.2292068" version="1" timestamp="2022-04-14T17:24:37Z" changeset="119722501" uid="3497659" user="NKA">
		<tag k="name" v="Askelund" />
		<tag k="place" v="farm" />
		<tag k="ssr:stedsnr" v="325781" />
	</node>
	<node id="9666442142" lat="59.8273293" lon="10.3211755" version="1" timestamp="2022-04-14T17:24:37Z" changeset="119722501" uid="3497659" user="NKA">
		<tag k="alt_name" v="Ovenstad" />
		<tag k="name" v="Onstad" />
		<tag k="place" v="farm" />
		<tag k="ssr:stedsnr" v="732229" />
	</node>
	<node id="9666442143" lat="59.7238727" lon="10.3113402" version="1" timestamp="2022-04-14T17:24:37Z" changeset="119722501" uid="3497659" user="NKA">
		<tag k="name" v="Søndre Lahell" />
		<tag k="place" v="farm" />
		<tag k="ssr:stedsnr" v="464734" />
	</node>
	<node id="9666442144" lat="59.9256948" lon="10.2746475" version="1" timestamp="2022-04-14T17:24:37Z" changeset="119722501" uid="3497659" user="NKA">
		<tag k="name" v="Sørbråtan" />
		<tag k="place" v="farm" />
		<tag k="ssr:stedsnr" v="550421" />
	</node>
	<node id="9666442145" lat="59.8464151" lon="10.2283358" version="1" timestamp="2022-04-14T17:24:37Z" changeset="119722501" uid="3497659" user="NKA">
		<tag k="name" v="Bakkemeren" />
		<tag k="place" v="farm" />
		<tag k="ssr:stedsnr" v="385399" />
	</node>
	<node id="9666442146" lat="59.7701453" lon="10.2567905" version="1" timestamp="2022-04-14T17:24:37Z" changeset="119722501" uid="3497659" user="NKA">
		<tag k="name" v="Kors-Valle" />
		<tag k="place" v="farm" />
		<tag k="ssr:stedsnr" v="688378" />
	</node>
	<node id="9666442147" lat="59.960225" lon="10.2747639" version="1" timestamp="2022-04-14T17:24:37Z" changeset="119722501" uid="3497659" user="NKA">
		<tag k="alt_name" v="Løvlia" />
		<tag k="name" v="Lauvlia" />
		<tag k="place" v="farm" />
		<tag k="ssr:stedsnr" v="792378" />
	</node>
	<node id="9666442148" lat="59.8511083" lon="10.2428667" version="1" timestamp="2022-04-14T17:24:37Z" changeset="119722501" uid="3497659" user="NKA">
		<tag k="alt_name" v="Kåtarud" />
		<tag k="name" v="Kåterud" />
		<tag k="place" v="farm" />
		<tag k="ssr:stedsnr" v="4304" />
	</node>
	<node id="9666442149" lat="59.8353646" lon="10.2117121" version="1" timestamp="2022-04-14T17:24:37Z" changeset="119722501" uid="3497659" user="NKA">
		<tag k="name" v="Ødegården" />
		<tag k="place" v="farm" />
		<tag k="ssr:stedsnr" v="610230" />
	</node>
	<node id="9666442150" lat="59.7617968" lon="10.2184265" version="1" timestamp="2022-04-14T17:24:37Z" changeset="119722501" uid="3497659" user="NKA">
		<tag k="name" v="Flåtan" />
		<tag k="place" v="farm" />
		<tag k="ssr:stedsnr" v="203895" />
	</node>
	<node id="9666442151" lat="59.9287946" lon="10.356823" version="1" timestamp="2022-04-14T17:24:37Z" changeset="119722501" uid="3497659" user="NKA">
		<tag k="name" v="Rolighet" />
		<tag k="place" v="isolated_dwelling" />
		<tag k="ssr:stedsnr" v="690603" />
	</node>
	<node id="9666442152" lat="59.8538297" lon="10.2292951" version="1" timestamp="2022-04-14T17:24:37Z" changeset="119722501" uid="3497659" user="NKA">
		<tag k="name" v="Søhagan" />
		<tag k="place" v="farm" />
		<tag k="ssr:stedsnr" v="4259" />
	</node>
	<node id="9666442153" lat="59.9363848" lon="10.2971726" version="1" timestamp="2022-04-14T17:24:37Z" changeset="119722501" uid="3497659" user="NKA">
		<tag k="name" v="Eik" />
		<tag k="place" v="farm" />
		<tag k="ssr:stedsnr" v="1072727" />
	</node>
	<node id="9666442154" lat="59.8248124" lon="10.3377963" version="1" timestamp="2022-04-14T17:24:37Z" changeset="119722501" uid="3497659" user="NKA">
		<tag k="name" v="Skogli" />
		<tag k="place" v="farm" />
		<tag k="ssr:stedsnr" v="567090" />
	</node>
	<node id="9666442155" lat="59.7978584" lon="10.2514037" version="1" timestamp="2022-04-14T17:24:37Z" changeset="119722501" uid="3497659" user="NKA">
		<tag k="name" v="Gommerud" />
		<tag k="place" v="farm" />
		<tag k="ssr:stedsnr" v="610149" />
	</node>
	<node id="9666442156" lat="59.8410879" lon="10.2184528" version="1" timestamp="2022-04-14T17:24:37Z" changeset="119722501" uid="3497659" user="NKA">
		<tag k="name" v="Olstad" />
		<tag k="place" v="farm" />
		<tag k="ssr:stedsnr" v="914303" />
	</node>
	<node id="9666442157" lat="59.8478444" lon="10.2772862" version="1" timestamp="2022-04-14T17:24:37Z" changeset="119722501" uid="3497659" user="NKA">
		<tag k="alt_name" v="Opsalåsen" />
		<tag k="historic" v="shieling" />
		<tag k="name" v="Oppsalåsen" />
		<tag k="place" v="isolated_dwelling" />
		<tag k="ssr:stedsnr" v="793321" />
	</node>
	<node id="9666442158" lat="59.8479053" lon="10.2670546" version="1" timestamp="2022-04-14T17:24:37Z" changeset="119722501" uid="3497659" user="NKA">
		<tag k="name" v="Oppsal" />
		<tag k="place" v="hamlet" />
		<tag k="ssr:stedsnr" v="671307" />
	</node>
	<node id="9666442159" lat="59.8216184" lon="10.2285954" version="1" timestamp="2022-04-14T17:24:37Z" changeset="119722501" uid="3497659" user="NKA">
		<tag k="alt_name" v="Elverhøi" />
		<tag k="name" v="Elvehøy" />
		<tag k="place" v="farm" />
		<tag k="ssr:stedsnr" v="853181" />
	</node>
	<node id="9666442160" lat="59.962875" lon="10.2174611" version="1" timestamp="2022-04-14T17:24:37Z" changeset="119722501" uid="3497659" user="NKA">
		<tag k="name" v="Maidalshytta" />
		<tag k="place" v="isolated_dwelling" />
		<tag k="ssr:stedsnr" v="82727" />
	</node>
	<node id="9666442161" lat="59.8626492" lon="10.2236958" version="1" timestamp="2022-04-14T17:24:37Z" changeset="119722501" uid="3497659" user="NKA">
		<tag k="name" v="Østenga" />
		<tag k="place" v="farm" />
		<tag k="ssr:stedsnr" v="325126" />
	</node>
	<node id="9666442162" lat="59.8328774" lon="10.2304128" version="1" timestamp="2022-04-14T17:24:37Z" changeset="119722501" uid="3497659" user="NKA">
		<tag k="name" v="Nordalholmen" />
		<tag k="place" v="farm" />
		<tag k="ssr:stedsnr" v="265934" />
	</node>
	<node id="9666442163" lat="59.7923028" lon="10.2647527" version="1" timestamp="2022-04-14T17:24:37Z" changeset="119722501" uid="3497659" user="NKA">
		<tag k="name" v="Lier" />
		<tag k="place" v="quarter" />
		<tag k="ssr:stedsnr" v="610144" />
	</node>
	<node id="9666442164" lat="59.8119802" lon="10.328633" version="1" timestamp="2022-04-14T17:24:37Z" changeset="119722501" uid="3497659" user="NKA">
		<tag k="name" v="Nordli" />
		<tag k="place" v="farm" />
		<tag k="ssr:stedsnr" v="446084" />
	</node>
	<node id="9666442165" lat="59.8727998" lon="10.2309938" version="1" timestamp="2022-04-14T17:24:37Z" changeset="119722501" uid="3497659" user="NKA">
		<tag k="name" v="Bergli" />
		<tag k="place" v="isolated_dwelling" />
		<tag k="ssr:stedsnr" v="749138" />
	</node>
	<node id="9666442166" lat="59.8143626" lon="10.3144559" version="1" timestamp="2022-04-14T17:24:37Z" changeset="119722501" uid="3497659" user="NKA">
		<tag k="alt_name" v="Ytre Tveten" />
		<tag k="name" v="Ytre Tveiten" />
		<tag k="place" v="farm" />
		<tag k="ssr:stedsnr" v="446052" />
	</node>
	<node id="9666442167" lat="59.8087253" lon="10.3261714" version="1" timestamp="2022-04-14T17:24:37Z" changeset="119722501" uid="3497659" user="NKA">
		<tag k="name" v="Fjellheim" />
		<tag k="place" v="farm" />
		<tag k="ssr:stedsnr" v="749577" />
	</node>
	<node id="9666442168" lat="59.8568019" lon="10.2085131" version="1" timestamp="2022-04-14T17:24:37Z" changeset="119722501" uid="3497659" user="NKA">
		<tag k="name" v="Kjåkadalen" />
		<tag k="place" v="farm" />
		<tag k="ssr:stedsnr" v="385152" />
	</node>
	<node id="9666442169" lat="59.800377" lon="10.2635879" version="1" timestamp="2022-04-14T17:24:37Z" changeset="119722501" uid="3497659" user="NKA">
		<tag k="name" v="Auvi" />
		<tag k="place" v="farm" />
		<tag k="ssr:stedsnr" v="186125" />
	</node>
	<node id="9666442170" lat="59.8963495" lon="10.256397" version="1" timestamp="2022-04-14T17:24:37Z" changeset="119722501" uid="3497659" user="NKA">
		<tag k="alt_name" v="Rinen" />
		<tag k="name" v="Rinden" />
		<tag k="place" v="farm" />
		<tag k="ssr:stedsnr" v="611309" />
	</node>
	<node id="9666442171" lat="59.9501277" lon="10.291456" version="1" timestamp="2022-04-14T17:24:37Z" changeset="119722501" uid="3497659" user="NKA">
		<tag k="name" v="Saga" />
		<tag k="place" v="farm" />
		<tag k="ssr:stedsnr" v="325507" />
	</node>
	<node id="9666442172" lat="59.8230037" lon="10.3463365" version="1" timestamp="2022-04-14T17:24:37Z" changeset="119722501" uid="3497659" user="NKA">
		<tag k="name" v="Solbekk" />
		<tag k="old_name" v="Solbakk" />
		<tag k="place" v="farm" />
		<tag k="ssr:stedsnr" v="689094" />
	</node>
	<node id="9666442173" lat="59.784382" lon="10.2747203" version="1" timestamp="2022-04-14T17:24:37Z" changeset="119722501" uid="3497659" user="NKA">
		<tag k="alt_name" v="Søndre Stokke" />
		<tag k="name" v="Stokke" />
		<tag k="place" v="hamlet" />
		<tag k="ssr:stedsnr" v="65135" />
	</node>
	<node id="9666442174" lat="59.868925" lon="10.1956889" version="1" timestamp="2022-04-14T17:24:37Z" changeset="119722501" uid="3497659" user="NKA">
		<tag k="name" v="Gifstadhytta" />
		<tag k="place" v="isolated_dwelling" />
		<tag k="ssr:stedsnr" v="203279" />
	</node>
	<node id="9666442175" lat="59.8017589" lon="10.2669778" version="1" timestamp="2022-04-14T17:24:37Z" changeset="119722501" uid="3497659" user="NKA">
		<tag k="name" v="Skjeggerud" />
		<tag k="place" v="farm" />
		<tag k="ssr:stedsnr" v="671248" />
	</node>
	<node id="9666442176" lat="59.7883479" lon="10.2510706" version="1" timestamp="2022-04-14T17:24:37Z" changeset="119722501" uid="3497659" user="NKA">
		<tag k="name" v="Ila" />
		<tag k="place" v="farm" />
		<tag k="ssr:stedsnr" v="489158" />
	</node>
	<node id="9666442177" lat="59.8737076" lon="10.2533634" version="1" timestamp="2022-04-14T17:24:37Z" changeset="119722501" uid="3497659" user="NKA">
		<tag k="name" v="Guransrud" />
		<tag k="place" v="farm" />
		<tag k="ssr:stedsnr" v="732356" />
	</node>
	<node id="9666442178" lat="59.8914944" lon="10.282687" version="1" timestamp="2022-04-14T17:24:37Z" changeset="119722501" uid="3497659" user="NKA">
		<tag k="name" v="Valstad" />
		<tag k="place" v="farm" />
		<tag k="ssr:stedsnr" v="854291" />
	</node>
	<node id="9666442179" lat="59.8334429" lon="10.3289343" version="1" timestamp="2022-04-14T17:24:37Z" changeset="119722501" uid="3497659" user="NKA">
		<tag k="name" v="Nedre Bø" />
		<tag k="place" v="farm" />
		<tag k="ssr:stedsnr" v="914293" />
	</node>
	<node id="9666442180" lat="59.7819778" lon="10.2590172" version="1" timestamp="2022-04-14T17:24:37Z" changeset="119722501" uid="3497659" user="NKA">
		<tag k="alt_name" v="Ila" />
		<tag k="loc_name" v="Ilabråtan" />
		<tag k="name" v="Ilabråten" />
		<tag k="place" v="farm" />
		<tag k="ssr:stedsnr" v="20749" />
	</node>
	<node id="9666442181" lat="59.7501765" lon="10.3183527" version="1" timestamp="2022-04-14T17:24:37Z" changeset="119722501" uid="3497659" user="NKA">
		<tag k="name" v="Dauerud" />
		<tag k="place" v="farm" />
		<tag k="ssr:stedsnr" v="549102" />
	</node>
	<node id="9666442182" lat="59.9622929" lon="10.2796838" version="1" timestamp="2022-04-14T17:24:37Z" changeset="119722501" uid="3497659" user="NKA">
		<tag k="alt_name" v="Horn" />
		<tag k="name" v="Nordre Horn" />
		<tag k="place" v="farm" />
		<tag k="ssr:stedsnr" v="731440" />
	</node>
	<node id="9666442183" lat="59.8382883" lon="10.2208369" version="1" timestamp="2022-04-14T17:24:37Z" changeset="119722501" uid="3497659" user="NKA">
		<tag k="name" v="Øksnevoll" />
		<tag k="place" v="farm" />
		<tag k="ssr:stedsnr" v="429268" />
	</node>
	<node id="9666442184" lat="59.8736955" lon="10.2302134" version="1" timestamp="2022-04-14T17:24:37Z" changeset="119722501" uid="3497659" user="NKA">
		<tag k="name" v="Bråtan" />
		<tag k="place" v="isolated_dwelling" />
		<tag k="ssr:stedsnr" v="21161" />
	</node>
	<node id="9666442185" lat="59.7818463" lon="10.2156911" version="1" timestamp="2022-04-14T17:24:37Z" changeset="119722501" uid="3497659" user="NKA">
		<tag k="name" v="Søndre Eik" />
		<tag k="place" v="farm" />
		<tag k="ssr:stedsnr" v="141693" />
	</node>
	<node id="9666442186" lat="59.8240768" lon="10.2388893" version="1" timestamp="2022-04-14T17:24:37Z" changeset="119722501" uid="3497659" user="NKA">
		<tag k="name" v="Rundtom" />
		<tag k="place" v="farm" />
		<tag k="ssr:stedsnr" v="3182" />
	</node>
	<node id="9666442187" lat="59.7757957" lon="10.2650814" version="1" timestamp="2022-04-14T17:24:37Z" changeset="119722501" uid="3497659" user="NKA">
		<tag k="name" v="Stillesholmen" />
		<tag k="place" v="farm" />
		<tag k="ssr:stedsnr" v="65155" />
	</node>
	<node id="9666442188" lat="59.8418121" lon="10.2295363" version="1" timestamp="2022-04-14T17:24:37Z" changeset="119722501" uid="3497659" user="NKA">
		<tag k="name" v="Søndre Meren" />
		<tag k="old_name" v="Søndre Mære" />
		<tag k="place" v="farm" />
		<tag k="ssr:stedsnr" v="82383" />
	</node>
	<node id="9666442189" lat="59.7748851" lon="10.2125316" version="1" timestamp="2022-04-14T17:24:37Z" changeset="119722501" uid="3497659" user="NKA">
		<tag k="name" v="Hvalsdalen" />
		<tag k="place" v="farm" />
		<tag k="ssr:stedsnr" v="748352" />
	</node>
	<node id="9666442190" lat="59.759311" lon="10.254252" version="1" timestamp="2022-04-14T17:24:37Z" changeset="119722501" uid="3497659" user="NKA">
		<tag k="name" v="Solli" />
		<tag k="place" v="farm" />
		<tag k="ssr:stedsnr" v="732089" />
	</node>
	<node id="9666442191" lat="59.8612774" lon="10.2216581" version="1" timestamp="2022-04-14T17:24:37Z" changeset="119722501" uid="3497659" user="NKA">
		<tag k="name" v="Vestby" />
		<tag k="place" v="farm" />
		<tag k="ssr:stedsnr" v="264138" />
	</node>
	<node id="9666442192" lat="59.8543889" lon="10.1898972" version="1" timestamp="2022-04-14T17:24:37Z" changeset="119722501" uid="3497659" user="NKA">
		<tag k="name" v="Lund" />
		<tag k="place" v="locality" />
		<tag k="ssr:stedsnr" v="810248" />
	</node>
	<node id="9666442193" lat="59.8520055" lon="10.2055973" version="1" timestamp="2022-04-14T17:24:37Z" changeset="119722501" uid="3497659" user="NKA">
		<tag k="name" v="Murerstua" />
		<tag k="place" v="isolated_dwelling" />
		<tag k="ssr:stedsnr" v="871110" />
	</node>
	<node id="9666442194" lat="59.9337259" lon="10.2671766" version="1" timestamp="2022-04-14T17:24:37Z" changeset="119722501" uid="3497659" user="NKA">
		<tag k="name" v="Roa" />
		<tag k="place" v="farm" />
		<tag k="ssr:stedsnr" v="1072165" />
	</node>
	<node id="9666442195" lat="59.7675528" lon="10.2584639" version="1" timestamp="2022-04-14T17:24:37Z" changeset="119722501" uid="3497659" user="NKA">
		<tag k="name" v="Vestre Linnes" />
		<tag k="place" v="farm" />
		<tag k="ssr:stedsnr" v="809736" />
	</node>
	<node id="9666442196" lat="59.7716612" lon="10.1903917" version="1" timestamp="2022-04-14T17:24:37Z" changeset="119722501" uid="3497659" user="NKA">
		<tag k="name" v="Arka" />
		<tag k="place" v="isolated_dwelling" />
		<tag k="ssr:stedsnr" v="385668" />
	</node>
	<node id="9666442197" lat="59.7383778" lon="10.3031723" version="1" timestamp="2022-04-14T17:24:37Z" changeset="119722501" uid="3497659" user="NKA">
		<tag k="name" v="Huser" />
		<tag k="place" v="locality" />
		<tag k="ssr:stedsnr" v="161686" />
	</node>
	<node id="9666442198" lat="59.86795" lon="10.2432305" version="1" timestamp="2022-04-14T17:24:37Z" changeset="119722501" uid="3497659" user="NKA">
		<tag k="name" v="Linløkka" />
		<tag k="place" v="farm" />
		<tag k="ssr:stedsnr" v="914284" />
	</node>
	<node id="9666442199" lat="59.8832243" lon="10.2341393" version="1" timestamp="2022-04-14T17:24:37Z" changeset="119722501" uid="3497659" user="NKA">
		<tag k="name" v="Delekant" />
		<tag k="place" v="farm" />
		<tag k="ssr:stedsnr" v="368385" />
	</node>
	<node id="9666442200" lat="59.7645113" lon="10.2778809" version="1" timestamp="2022-04-14T17:24:37Z" changeset="119722501" uid="3497659" user="NKA">
		<tag k="alt_name" v="Homleskauen" />
		<tag k="name" v="Humleskauen" />
		<tag k="place" v="farm" />
		<tag k="ssr:stedsnr" v="506883" />
	</node>
	<node id="9666442201" lat="59.9294666" lon="10.266606" version="1" timestamp="2022-04-14T17:24:37Z" changeset="119722501" uid="3497659" user="NKA">
		<tag k="name" v="Skustad" />
		<tag k="place" v="hamlet" />
		<tag k="ssr:stedsnr" v="793469" />
	</node>
	<node id="9666442202" lat="59.8219139" lon="10.2769778" version="1" timestamp="2022-04-14T17:24:37Z" changeset="119722501" uid="3497659" user="NKA">
		<tag k="name" v="Vennerød" />
		<tag k="place" v="farm" />
		<tag k="ssr:stedsnr" v="264022" />
	</node>
	<node id="9666442203" lat="59.8071858" lon="10.2216578" version="1" timestamp="2022-04-14T17:24:37Z" changeset="119722501" uid="3497659" user="NKA">
		<tag k="name" v="Landfall" />
		<tag k="place" v="hamlet" />
		<tag k="ssr:stedsnr" v="81381" />
	</node>
	<node id="9666442204" lat="59.7707716" lon="10.2161078" version="1" timestamp="2022-04-14T17:24:37Z" changeset="119722501" uid="3497659" user="NKA">
		<tag k="alt_name" v="Dambråten" />
		<tag k="name" v="Dambråtan" />
		<tag k="place" v="farm" />
		<tag k="ssr:stedsnr" v="914188" />
	</node>
	<node id="9666442205" lat="59.7758639" lon="10.2120833" version="1" timestamp="2022-04-14T17:24:37Z" changeset="119722501" uid="3497659" user="NKA">
		<tag k="name" v="Bjørndalen" />
		<tag k="place" v="farm" />
		<tag k="ssr:stedsnr" v="368190" />
	</node>
	<node id="9666442206" lat="59.8225" lon="10.2088723" version="1" timestamp="2022-04-14T17:24:37Z" changeset="119722501" uid="3497659" user="NKA">
		<tag k="name" v="Myra" />
		<tag k="place" v="farm" />
		<tag k="ssr:stedsnr" v="792202" />
	</node>
	<node id="9666442207" lat="59.8768688" lon="10.2568851" version="1" timestamp="2022-04-14T17:24:37Z" changeset="119722501" uid="3497659" user="NKA">
		<tag k="name" v="Nylendet" />
		<tag k="place" v="farm" />
		<tag k="ssr:stedsnr" v="368377" />
	</node>
	<node id="9666442208" lat="59.8522361" lon="10.2646888" version="1" timestamp="2022-04-14T17:24:37Z" changeset="119722501" uid="3497659" user="NKA">
		<tag k="alt_name" v="Opsalhaugen;Øvre Oppsal;Øvre Opsal" />
		<tag k="name" v="Oppsalhaugen" />
		<tag k="place" v="farm" />
		<tag k="ssr:stedsnr" v="203124" />
	</node>
	<node id="9666442209" lat="59.8189908" lon="10.3410622" version="1" timestamp="2022-04-14T17:24:37Z" changeset="119722501" uid="3497659" user="NKA">
		<tag k="name" v="Heia" />
		<tag k="place" v="farm" />
		<tag k="ssr:stedsnr" v="82066" />
	</node>
	<node id="9666442210" lat="59.7850167" lon="10.2830778" version="1" timestamp="2022-04-14T17:24:37Z" changeset="119722501" uid="3497659" user="NKA">
		<tag k="name" v="Solstadhagan" />
		<tag k="place" v="locality" />
		<tag k="ssr:stedsnr" v="749605" />
	</node>
	<node id="9666442211" lat="59.8411333" lon="10.1644569" version="1" timestamp="2022-04-14T17:24:37Z" changeset="119722501" uid="3497659" user="NKA">
		<tag k="name" v="Kvistås" />
		<tag k="place" v="farm" />
		<tag k="ssr:stedsnr" v="489319" />
	</node>
	<node id="9666442212" lat="59.7635793" lon="10.2512511" version="1" timestamp="2022-04-14T17:24:37Z" changeset="119722501" uid="3497659" user="NKA">
		<tag k="name" v="Moserud" />
		<tag k="place" v="farm" />
		<tag k="ssr:stedsnr" v="307078" />
	</node>
	<node id="9666442213" lat="59.868575" lon="10.0948111" version="1" timestamp="2022-04-14T17:24:37Z" changeset="119722501" uid="3497659" user="NKA">
		<tag k="name" v="Dammen" />
		<tag k="place" v="isolated_dwelling" />
		<tag k="ssr:stedsnr" v="186276" />
	</node>
	<node id="9666442214" lat="59.8190723" lon="10.2783167" version="1" timestamp="2022-04-14T17:24:37Z" changeset="119722501" uid="3497659" user="NKA">
		<tag k="alt_name" v="Hansebråten" />
		<tag k="name" v="Hansebråtan" />
		<tag k="place" v="isolated_dwelling" />
		<tag k="ssr:stedsnr" v="689060" />
	</node>
	<node id="9666442215" lat="59.7743478" lon="10.2525761" version="1" timestamp="2022-04-14T17:24:37Z" changeset="119722501" uid="3497659" user="NKA">
		<tag k="alt_name" v="Store Valle" />
		<tag k="name" v="Valle" />
		<tag k="place" v="neighbourhood" />
		<tag k="ssr:stedsnr" v="125167" />
	</node>
	<node id="9666442216" lat="59.8231803" lon="10.268531" version="1" timestamp="2022-04-14T17:24:37Z" changeset="119722501" uid="3497659" user="NKA">
		<tag k="name" v="Hennum" />
		<tag k="place" v="farm" />
		<tag k="ssr:stedsnr" v="549209" />
	</node>
	<node id="9666442217" lat="59.9362077" lon="10.2678655" version="1" timestamp="2022-04-14T17:24:37Z" changeset="119722501" uid="3497659" user="NKA">
		<tag k="alt_name" v="Midt-Røine;Midtre Røyne" />
		<tag k="name" v="Midt-Røyne" />
		<tag k="old_name" v="Midtrøine;Midtre Røine" />
		<tag k="place" v="farm" />
		<tag k="ssr:stedsnr" v="38527" />
	</node>
	<node id="9666442218" lat="59.8014327" lon="10.2173845" version="1" timestamp="2022-04-14T17:24:37Z" changeset="119722501" uid="3497659" user="NKA">
		<tag k="name" v="Jordbru" />
		<tag k="place" v="farm" />
		<tag k="ssr:stedsnr" v="914265" />
	</node>
	<node id="9666442219" lat="59.7903477" lon="10.218965" version="1" timestamp="2022-04-14T17:24:37Z" changeset="119722501" uid="3497659" user="NKA">
		<tag k="name" v="Jaren" />
		<tag k="place" v="farm" />
		<tag k="ssr:stedsnr" v="307158" />
	</node>
	<node id="9666442220" lat="59.8615203" lon="10.2294365" version="1" timestamp="2022-04-14T17:24:37Z" changeset="119722501" uid="3497659" user="NKA">
		<tag k="name" v="Østby" />
		<tag k="place" v="farm" />
		<tag k="ssr:stedsnr" v="749135" />
	</node>
	<node id="9666442221" lat="59.8439121" lon="10.2675196" version="1" timestamp="2022-04-14T17:24:37Z" changeset="119722501" uid="3497659" user="NKA">
		<tag k="name" v="Liverud" />
		<tag k="place" v="farm" />
		<tag k="ssr:stedsnr" v="385143" />
	</node>
	<node id="9666442222" lat="59.8677018" lon="10.2253272" version="1" timestamp="2022-04-14T17:24:37Z" changeset="119722501" uid="3497659" user="NKA">
		<tag k="name" v="Øvre Svere" />
		<tag k="place" v="farm" />
		<tag k="ssr:stedsnr" v="749840" />
	</node>
	<node id="9666442223" lat="59.770879" lon="10.2670063" version="1" timestamp="2022-04-14T17:24:37Z" changeset="119722501" uid="3497659" user="NKA">
		<tag k="name" v="Vikerholmen" />
		<tag k="place" v="farm" />
		<tag k="ssr:stedsnr" v="549180" />
	</node>
	<node id="9666442224" lat="59.8398233" lon="10.2579676" version="1" timestamp="2022-04-14T17:24:37Z" changeset="119722501" uid="3497659" user="NKA">
		<tag k="alt_name" v="Øvre nordre Sørsdal" />
		<tag k="name" v="Sørsdal" />
		<tag k="place" v="hamlet" />
		<tag k="ssr:stedsnr" v="914299" />
	</node>
	<node id="9666442225" lat="59.8466647" lon="10.1954917" version="1" timestamp="2022-04-14T17:24:37Z" changeset="119722501" uid="3497659" user="NKA">
		<tag k="name" v="Nedre Kokopp" />
		<tag k="place" v="farm" />
		<tag k="ssr:stedsnr" v="871400" />
	</node>
	<node id="9666442226" lat="59.8520111" lon="10.256575" version="1" timestamp="2022-04-14T17:24:37Z" changeset="119722501" uid="3497659" user="NKA">
		<tag k="name" v="Tamburhaugen" />
		<tag k="place" v="farm" />
		<tag k="ssr:stedsnr" v="247285" />
	</node>
	<node id="9666442227" lat="59.8634648" lon="10.2819647" version="1" timestamp="2022-04-14T17:24:37Z" changeset="119722501" uid="3497659" user="NKA">
		<tag k="alt_name" v="Kittilsrud;Skogen;Kittelsrud" />
		<tag k="name" v="Skaugen" />
		<tag k="place" v="farm" />
		<tag k="ssr:stedsnr" v="963296" />
	</node>
	<node id="9666442228" lat="59.7261204" lon="10.3046428" version="1" timestamp="2022-04-14T17:24:37Z" changeset="119722501" uid="3497659" user="NKA">
		<tag k="name" v="Engersand" />
		<tag k="place" v="farm" />
		<tag k="ssr:stedsnr" v="731210" />
	</node>
	<node id="9666442229" lat="59.8108313" lon="10.3147045" version="1" timestamp="2022-04-14T17:24:37Z" changeset="119722501" uid="3497659" user="NKA">
		<tag k="name" v="Haugen" />
		<tag k="place" v="farm" />
		<tag k="ssr:stedsnr" v="428204" />
	</node>
	<node id="9666442230" lat="59.7761528" lon="10.1943753" version="1" timestamp="2022-04-14T17:24:37Z" changeset="119722501" uid="3497659" user="NKA">
		<tag k="name" v="Årkvisla" />
		<tag k="place" v="farm" />
		<tag k="ssr:stedsnr" v="567662" />
	</node>
	<node id="9666442231" lat="59.8976528" lon="10.2712584" version="1" timestamp="2022-04-14T17:24:37Z" changeset="119722501" uid="3497659" user="NKA">
		<tag k="name" v="Vestre Sylling" />
		<tag k="place" v="farm" />
		<tag k="ssr:stedsnr" v="550298" />
	</node>
	<node id="9666442232" lat="59.8328765" lon="10.2558529" version="1" timestamp="2022-04-14T17:24:37Z" changeset="119722501" uid="3497659" user="NKA">
		<tag k="name" v="Rød" />
		<tag k="place" v="hamlet" />
		<tag k="ssr:stedsnr" v="489218" />
	</node>
	<node id="9666442233" lat="59.8102853" lon="10.24586" version="1" timestamp="2022-04-14T17:24:37Z" changeset="119722501" uid="3497659" user="NKA">
		<tag k="name" v="Hellum" />
		<tag k="place" v="farm" />
		<tag k="ssr:stedsnr" v="3195" />
	</node>
	<node id="9666442234" lat="59.8683388" lon="10.2960014" version="1" timestamp="2022-04-14T17:24:37Z" changeset="119722501" uid="3497659" user="NKA">
		<tag k="name" v="Kubbeløkka" />
		<tag k="place" v="isolated_dwelling" />
		<tag k="ssr:stedsnr" v="628896" />
	</node>
	<node id="9666442235" lat="59.8735862" lon="10.082575" version="1" timestamp="2022-04-14T17:24:37Z" changeset="119722501" uid="3497659" user="NKA">
		<tag k="alt_name" v="Damhagen" />
		<tag k="name" v="Damhagan" />
		<tag k="place" v="isolated_dwelling" />
		<tag k="ssr:stedsnr" v="4270" />
	</node>
	<node id="9666442236" lat="59.8096994" lon="10.307534" version="1" timestamp="2022-04-14T17:24:37Z" changeset="119722501" uid="3497659" user="NKA">
		<tag k="alt_name" v="Kjenner" />
		<tag k="name" v="Vestre Kjenner" />
		<tag k="place" v="farm" />
		<tag k="ssr:stedsnr" v="203695" />
	</node>
	<node id="9666442237" lat="59.7537214" lon="10.2583168" version="1" timestamp="2022-04-14T17:24:37Z" changeset="119722501" uid="3497659" user="NKA">
		<tag k="name" v="Frydenlund" />
		<tag k="place" v="farm" />
		<tag k="ssr:stedsnr" v="125099" />
	</node>
	<node id="9666442238" lat="59.8529751" lon="10.2502865" version="1" timestamp="2022-04-14T17:24:37Z" changeset="119722501" uid="3497659" user="NKA">
		<tag k="name" v="Åmot" />
		<tag k="place" v="farm" />
		<tag k="ssr:stedsnr" v="914312" />
	</node>
	<node id="9666442239" lat="59.9082556" lon="10.2845951" version="1" timestamp="2022-04-14T17:24:37Z" changeset="119722501" uid="3497659" user="NKA">
		<tag k="name" v="Hørte" />
		<tag k="place" v="hamlet" />
		<tag k="ssr:stedsnr" v="793352" />
	</node>
	<node id="9666442240" lat="59.81332" lon="10.1940389" version="1" timestamp="2022-04-14T17:24:37Z" changeset="119722501" uid="3497659" user="NKA">
		<tag k="name" v="Fjellberg" />
		<tag k="place" v="farm" />
		<tag k="ssr:stedsnr" v="203406" />
	</node>
	<node id="9666442241" lat="59.8368877" lon="10.2134592" version="1" timestamp="2022-04-14T17:24:37Z" changeset="119722501" uid="3497659" user="NKA">
		<tag k="name" v="Treffen" />
		<tag k="place" v="farm" />
		<tag k="ssr:stedsnr" v="732300" />
	</node>
	<node id="9666442242" lat="59.7670897" lon="10.2259505" version="1" timestamp="2022-04-14T17:24:37Z" changeset="119722501" uid="3497659" user="NKA">
		<tag k="name" v="Nordre Lian" />
		<tag k="place" v="farm" />
		<tag k="ssr:stedsnr" v="20750" />
	</node>
	<node id="9666442243" lat="59.8233648" lon="10.2485314" version="1" timestamp="2022-04-14T17:24:37Z" changeset="119722501" uid="3497659" user="NKA">
		<tag k="name" v="Klemmetsdal" />
		<tag k="place" v="farm" />
		<tag k="ssr:stedsnr" v="549210" />
	</node>
	<node id="9666442244" lat="59.7442556" lon="10.2907333" version="1" timestamp="2022-04-14T17:24:37Z" changeset="119722501" uid="3497659" user="NKA">
		<tag k="alt_name" v="Gullaug;Mellom Gullaug" />
		<tag k="name" v="Mellom-Gullaug" />
		<tag k="old_name" v="Gullaug mellem" />
		<tag k="place" v="farm" />
		<tag k="ssr:stedsnr" v="627650" />
	</node>
	<node id="9666442245" lat="59.8200647" lon="10.3367626" version="1" timestamp="2022-04-14T17:24:37Z" changeset="119722501" uid="3497659" user="NKA">
		<tag k="name" v="Solvang" />
		<tag k="old_name" v="Østre Solvang" />
		<tag k="place" v="farm" />
		<tag k="ssr:stedsnr" v="385083" />
	</node>
	<node id="9666442246" lat="59.7764374" lon="10.2658521" version="1" timestamp="2022-04-14T17:24:37Z" changeset="119722501" uid="3497659" user="NKA">
		<tag k="name" v="Bikkjeholmen" />
		<tag k="place" v="farm" />
		<tag k="ssr:stedsnr" v="627634" />
	</node>
	<node id="9666442247" lat="59.8342372" lon="10.3290752" version="1" timestamp="2022-04-14T17:24:37Z" changeset="119722501" uid="3497659" user="NKA">
		<tag k="name" v="Bø" />
		<tag k="place" v="hamlet" />
		<tag k="ssr:stedsnr" v="1072714" />
	</node>
	<node id="9666442248" lat="59.7742851" lon="10.2989924" version="1" timestamp="2022-04-14T17:24:37Z" changeset="119722501" uid="3497659" user="NKA">
		<tag k="name" v="Åsen" />
		<tag k="place" v="farm" />
		<tag k="ssr:stedsnr" v="854164" />
	</node>
	<node id="9666442249" lat="59.7662445" lon="10.2691222" version="1" timestamp="2022-04-14T17:24:37Z" changeset="119722501" uid="3497659" user="NKA">
		<tag k="name" v="Børreshaugen" />
		<tag k="place" v="farm" />
		<tag k="ssr:stedsnr" v="307200" />
	</node>
	<node id="9666442250" lat="59.8666761" lon="10.2100025" version="1" timestamp="2022-04-14T17:24:37Z" changeset="119722501" uid="3497659" user="NKA">
		<tag k="name" v="Løkka" />
		<tag k="place" v="farm" />
		<tag k="ssr:stedsnr" v="610314" />
	</node>
	<node id="9666442251" lat="59.9098284" lon="10.2941982" version="1" timestamp="2022-04-14T17:24:37Z" changeset="119722501" uid="3497659" user="NKA">
		<tag k="name" v="Røykås" />
		<tag k="place" v="farm" />
		<tag k="ssr:stedsnr" v="65317" />
	</node>
	<node id="9666442252" lat="59.7896061" lon="10.2061033" version="1" timestamp="2022-04-14T17:24:37Z" changeset="119722501" uid="3497659" user="NKA">
		<tag k="name" v="Rød" />
		<tag k="place" v="farm" />
		<tag k="ssr:stedsnr" v="914151" />
	</node>
	<node id="9666442253" lat="59.8346412" lon="10.2692655" version="1" timestamp="2022-04-14T17:24:37Z" changeset="119722501" uid="3497659" user="NKA">
		<tag k="alt_name" v="Sørsdalsbråten" />
		<tag k="name" v="Knipen" />
		<tag k="place" v="farm" />
		<tag k="ssr:stedsnr" v="932099" />
	</node>
	<node id="9666442254" lat="59.8276597" lon="10.2551658" version="1" timestamp="2022-04-14T17:24:37Z" changeset="119722501" uid="3497659" user="NKA">
		<tag k="alt_name" v="Nordal" />
		<tag k="name" v="Norddal" />
		<tag k="place" v="farm" />
		<tag k="ssr:stedsnr" v="793203" />
	</node>
	<node id="9666442255" lat="59.8930811" lon="10.2735336" version="1" timestamp="2022-04-14T17:24:37Z" changeset="119722501" uid="3497659" user="NKA">
		<tag k="name" v="Grønlund" />
		<tag k="place" v="farm" />
		<tag k="ssr:stedsnr" v="567987" />
	</node>
	<node id="9666442256" lat="59.9391084" lon="10.2979199" version="1" timestamp="2022-04-14T17:24:37Z" changeset="119722501" uid="3497659" user="NKA">
		<tag k="name" v="Nedre Eik" />
		<tag k="place" v="farm" />
		<tag k="ssr:stedsnr" v="671413" />
	</node>
	<node id="9666442257" lat="59.8653722" lon="10.2986389" version="1" timestamp="2022-04-14T17:24:37Z" changeset="119722501" uid="3497659" user="NKA">
		<tag k="name" v="Tyrigløtt" />
		<tag k="place" v="isolated_dwelling" />
		<tag k="ssr:stedsnr" v="749936" />
	</node>
	<node id="9666442258" lat="59.8833167" lon="10.3451612" version="1" timestamp="2022-04-14T17:24:37Z" changeset="119722501" uid="3497659" user="NKA">
		<tag k="name" v="Engerhytta" />
		<tag k="place" v="isolated_dwelling" />
		<tag k="ssr:stedsnr" v="247830" />
	</node>
	<node id="9666442259" lat="59.7810826" lon="10.2471202" version="1" timestamp="2022-04-14T17:24:37Z" changeset="119722501" uid="3497659" user="NKA">
		<tag k="name" v="Hegg" />
		<tag k="place" v="locality" />
		<tag k="ssr:stedsnr" v="489177" />
	</node>
	<node id="9666442260" lat="59.8539359" lon="10.2657079" version="1" timestamp="2022-04-14T17:24:37Z" changeset="119722501" uid="3497659" user="NKA">
		<tag k="alt_name" v="Nedre Oppsal;Opsal" />
		<tag k="name" v="Nordhagen" />
		<tag k="place" v="farm" />
		<tag k="ssr:stedsnr" v="932887" />
	</node>
	<node id="9666442261" lat="59.867974" lon="10.2278593" version="1" timestamp="2022-04-14T17:24:37Z" changeset="119722501" uid="3497659" user="NKA">
		<tag k="name" v="Nedre Svere" />
		<tag k="place" v="farm" />
		<tag k="ssr:stedsnr" v="344717" />
	</node>
	<node id="9666442262" lat="59.7632179" lon="10.2930606" version="1" timestamp="2022-04-14T17:24:37Z" changeset="119722501" uid="3497659" user="NKA">
		<tag k="name" v="Sørumlia" />
		<tag k="place" v="neighbourhood" />
		<tag k="ssr:stedsnr" v="81191" />
	</node>
	<node id="9666442263" lat="59.8460954" lon="10.2102309" version="1" timestamp="2022-04-14T17:24:37Z" changeset="119722501" uid="3497659" user="NKA">
		<tag k="alt_name" v="Pettersbråtan" />
		<tag k="name" v="Petersrud" />
		<tag k="place" v="farm" />
		<tag k="ssr:stedsnr" v="428234" />
	</node>
	<node id="9666442264" lat="59.8513246" lon="10.2392683" version="1" timestamp="2022-04-14T17:24:37Z" changeset="119722501" uid="3497659" user="NKA">
		<tag k="name" v="Helgerud" />
		<tag k="place" v="farm" />
		<tag k="ssr:stedsnr" v="307328" />
	</node>
	<node id="9666442265" lat="59.840613" lon="10.2373884" version="1" timestamp="2022-04-14T17:24:37Z" changeset="119722501" uid="3497659" user="NKA">
		<tag k="name" v="Årdal" />
		<tag k="place" v="farm" />
		<tag k="ssr:stedsnr" v="264395" />
	</node>
	<node id="9666442266" lat="59.7722323" lon="10.2784437" version="1" timestamp="2022-04-14T17:24:37Z" changeset="119722501" uid="3497659" user="NKA">
		<tag k="name" v="Viker" />
		<tag k="place" v="farm" />
		<tag k="ssr:stedsnr" v="307198" />
	</node>
	<node id="9666442267" lat="59.9659834" lon="10.2434472" version="1" timestamp="2022-04-14T17:24:37Z" changeset="119722501" uid="3497659" user="NKA">
		<tag k="name" v="Christensenhytta" />
		<tag k="place" v="isolated_dwelling" />
		<tag k="ssr:stedsnr" v="628715" />
	</node>
	<node id="9666442268" lat="59.754147" lon="10.2485995" version="1" timestamp="2022-04-14T17:24:37Z" changeset="119722501" uid="3497659" user="NKA">
		<tag k="alt_name" v="Høvik" />
		<tag k="name" v="Jensvoll" />
		<tag k="place" v="farm" />
		<tag k="ssr:stedsnr" v="203905" />
	</node>
	<node id="9666442269" lat="59.8142278" lon="10.1964028" version="1" timestamp="2022-04-14T17:24:37Z" changeset="119722501" uid="3497659" user="NKA">
		<tag k="loc_name" v="Engebråtan" />
		<tag k="name" v="Engebråten" />
		<tag k="place" v="farm" />
		<tag k="ssr:stedsnr" v="264377" />
	</node>
	<node id="9666442270" lat="59.807158" lon="10.2450013" version="1" timestamp="2022-04-14T17:24:37Z" changeset="119722501" uid="3497659" user="NKA">
		<tag k="name" v="Hellumbråtan" />
		<tag k="place" v="farm" />
		<tag k="ssr:stedsnr" v="809753" />
	</node>
	<node id="9666442271" lat="59.9396659" lon="10.2630415" version="1" timestamp="2022-04-14T17:24:37Z" changeset="119722501" uid="3497659" user="NKA">
		<tag k="alt_name" v="Røyne, vestre;Nordre Røyne;Nordre Røine" />
		<tag k="name" v="Vestre Røyne" />
		<tag k="place" v="farm" />
		<tag k="ssr:stedsnr" v="307385" />
	</node>
	<node id="9666442272" lat="59.8975399" lon="10.2748518" version="1" timestamp="2022-04-14T17:24:37Z" changeset="119722501" uid="3497659" user="NKA">
		<tag k="name" v="Sylling" />
		<tag k="place" v="farm" />
		<tag k="ssr:stedsnr" v="1072725" />
	</node>
	<node id="9666442273" lat="59.8124302" lon="10.2564715" version="1" timestamp="2022-04-14T17:24:37Z" changeset="119722501" uid="3497659" user="NKA">
		<tag k="alt_name" v="Kimmerud" />
		<tag k="name" v="Kimerud" />
		<tag k="place" v="farm" />
		<tag k="ssr:stedsnr" v="21134" />
	</node>
	<node id="9666442274" lat="59.7631655" lon="10.2316062" version="1" timestamp="2022-04-14T17:24:37Z" changeset="119722501" uid="3497659" user="NKA">
		<tag k="alt_name" v="Mellom Lian" />
		<tag k="name" v="Mellom-Lian" />
		<tag k="place" v="farm" />
		<tag k="ssr:stedsnr" v="264910" />
	</node>
	<node id="9666442275" lat="59.7879836" lon="10.1846343" version="1" timestamp="2022-04-14T17:24:37Z" changeset="119722501" uid="3497659" user="NKA">
		<tag k="loc_name" v="Eikbråtan" />
		<tag k="name" v="Purkebråten" />
		<tag k="place" v="farm" />
		<tag k="ssr:stedsnr" v="732148" />
	</node>
	<node id="9666442276" lat="59.936847" lon="10.2661262" version="1" timestamp="2022-04-14T17:24:37Z" changeset="119722501" uid="3497659" user="NKA">
		<tag k="name" v="Røyne" />
		<tag k="place" v="hamlet" />
		<tag k="ssr:stedsnr" v="793398" />
	</node>
	<node id="9666442277" lat="59.7861625" lon="10.1990966" version="1" timestamp="2022-04-14T17:24:37Z" changeset="119722501" uid="3497659" user="NKA">
		<tag k="name" v="Undersrud" />
		<tag k="place" v="farm" />
		<tag k="ssr:stedsnr" v="368172" />
	</node>
	<node id="9666442278" lat="59.818779" lon="10.3147004" version="1" timestamp="2022-04-14T17:24:37Z" changeset="119722501" uid="3497659" user="NKA">
		<tag k="name" v="Gravdal" />
		<tag k="place" v="farm" />
		<tag k="ssr:stedsnr" v="792211" />
	</node>
	<node id="9666442279" lat="59.7719861" lon="10.2216277" version="1" timestamp="2022-04-14T17:24:37Z" changeset="119722501" uid="3497659" user="NKA">
		<tag k="alt_name" v="Vivelstad;Nordre Viulstad;Viulstad" />
		<tag k="name" v="Nordre Vivelstad" />
		<tag k="place" v="farm" />
		<tag k="ssr:stedsnr" v="20339" />
	</node>
	<node id="9666442280" lat="59.815595" lon="10.2697936" version="1" timestamp="2022-04-14T17:24:37Z" changeset="119722501" uid="3497659" user="NKA">
		<tag k="name" v="Haugerudbråtan" />
		<tag k="place" v="isolated_dwelling" />
		<tag k="ssr:stedsnr" v="567050" />
	</node>
	<node id="9666442281" lat="59.7684361" lon="10.2518473" version="1" timestamp="2022-04-14T17:24:37Z" changeset="119722501" uid="3497659" user="NKA">
		<tag k="name" v="Linnesvollen" />
		<tag k="place" v="farm" />
		<tag k="ssr:stedsnr" v="246177" />
	</node>
	<node id="9666442282" lat="59.7796958" lon="10.2228134" version="1" timestamp="2022-04-14T17:24:37Z" changeset="119722501" uid="3497659" user="NKA">
		<tag k="name" v="Frogner prestegård" />
		<tag k="place" v="farm" />
		<tag k="ssr:stedsnr" v="81376" />
	</node>
	<node id="9666442283" lat="59.8571917" lon="10.1950611" version="1" timestamp="2022-04-14T17:24:37Z" changeset="119722501" uid="3497659" user="NKA">
		<tag k="name" v="Grønfoss" />
		<tag k="place" v="isolated_dwelling" />
		<tag k="ssr:stedsnr" v="732281" />
	</node>
	<node id="9666442284" lat="59.9048389" lon="10.2658281" version="1" timestamp="2022-04-14T17:24:37Z" changeset="119722501" uid="3497659" user="NKA">
		<tag k="alt_name" v="Skogli" />
		<tag k="name" v="Myrabråten" />
		<tag k="place" v="farm" />
		<tag k="ssr:stedsnr" v="731286" />
	</node>
	<node id="9666442285" lat="59.9216535" lon="10.2897913" version="1" timestamp="2022-04-14T17:24:37Z" changeset="119722501" uid="3497659" user="NKA">
		<tag k="name" v="Steglehaugen" />
		<tag k="place" v="farm" />
		<tag k="ssr:stedsnr" v="368438" />
	</node>
	<node id="9666442286" lat="59.8196936" lon="10.2521824" version="1" timestamp="2022-04-14T17:24:37Z" changeset="119722501" uid="3497659" user="NKA">
		<tag k="name" v="Buttedal" />
		<tag k="place" v="farm" />
		<tag k="ssr:stedsnr" v="932107" />
	</node>
	<node id="9666442287" lat="59.8930177" lon="10.2292313" version="1" timestamp="2022-04-14T17:24:37Z" changeset="119722501" uid="3497659" user="NKA">
		<tag k="name" v="Nordhagen" />
		<tag k="place" v="farm" />
		<tag k="ssr:stedsnr" v="102730" />
	</node>
	<node id="9666442288" lat="59.8768395" lon="10.2390347" version="1" timestamp="2022-04-14T17:24:37Z" changeset="119722501" uid="3497659" user="NKA">
		<tag k="alt_name" v="Ellevog" />
		<tag k="name" v="Ellevåg" />
		<tag k="place" v="farm" />
		<tag k="ssr:stedsnr" v="429331" />
	</node>
	<node id="9666442289" lat="59.7867849" lon="10.2766336" version="1" timestamp="2022-04-14T17:24:37Z" changeset="119722501" uid="3497659" user="NKA">
		<tag k="alt_name" v="Nordre Brastad" />
		<tag k="name" v="Brastad" />
		<tag k="place" v="farm" />
		<tag k="ssr:stedsnr" v="793146" />
	</node>
	<node id="9666442290" lat="59.825582" lon="10.3491661" version="1" timestamp="2022-04-14T17:24:37Z" changeset="119722501" uid="3497659" user="NKA">
		<tag k="name" v="Vestli" />
		<tag k="place" v="farm" />
		<tag k="ssr:stedsnr" v="142116" />
	</node>
	<node id="9666442291" lat="59.8122306" lon="10.2025722" version="1" timestamp="2022-04-14T17:24:37Z" changeset="119722501" uid="3497659" user="NKA">
		<tag k="name" v="Askgrenda" />
		<tag k="place" v="hamlet" />
		<tag k="ssr:stedsnr" v="21408" />
	</node>
	<node id="9666442292" lat="59.7953851" lon="10.2359002" version="1" timestamp="2022-04-14T17:24:37Z" changeset="119722501" uid="3497659" user="NKA">
		<tag k="alt_name" v="Mellom Renskaug" />
		<tag k="name" v="Mellom-Renskaug" />
		<tag k="place" v="farm" />
		<tag k="ssr:stedsnr" v="506744" />
	</node>
	<node id="9666442293" lat="59.808032" lon="10.2214004" version="1" timestamp="2022-04-14T17:24:37Z" changeset="119722501" uid="3497659" user="NKA">
		<tag k="name" v="Enga" />
		<tag k="place" v="farm" />
		<tag k="ssr:stedsnr" v="931780" />
	</node>
	<node id="9666442294" lat="59.8891686" lon="10.2639669" version="1" timestamp="2022-04-14T17:24:37Z" changeset="119722501" uid="3497659" user="NKA">
		<tag k="name" v="Sørli" />
		<tag k="place" v="farm" />
		<tag k="ssr:stedsnr" v="550349" />
	</node>
	<node id="9666442295" lat="59.9481015" lon="10.3491467" version="1" timestamp="2022-04-14T17:24:37Z" changeset="119722501" uid="3497659" user="NKA">
		<tag k="name" v="Dovrehytta" />
		<tag k="place" v="isolated_dwelling" />
		<tag k="ssr:stedsnr" v="811576" />
	</node>
	<node id="9666442296" lat="59.7721023" lon="10.2023281" version="1" timestamp="2022-04-14T17:24:37Z" changeset="119722501" uid="3497659" user="NKA">
		<tag k="name" v="Tormodsrud" />
		<tag k="place" v="farm" />
		<tag k="ssr:stedsnr" v="307202" />
	</node>
	<node id="9666442297" lat="59.8426944" lon="10.264214" version="1" timestamp="2022-04-14T17:24:37Z" changeset="119722501" uid="3497659" user="NKA">
		<tag k="name" v="Storenga" />
		<tag k="place" v="farm" />
		<tag k="ssr:stedsnr" v="810141" />
	</node>
	<node id="9666442298" lat="59.8930241" lon="10.2392021" version="1" timestamp="2022-04-14T17:24:37Z" changeset="119722501" uid="3497659" user="NKA">
		<tag k="alt_name" v="Vestre Solberg" />
		<tag k="name" v="Solberg" />
		<tag k="place" v="hamlet" />
		<tag k="ssr:stedsnr" v="732317" />
	</node>
	<node id="9666442299" lat="59.8422667" lon="10.3145889" version="1" timestamp="2022-04-14T17:24:37Z" changeset="119722501" uid="3497659" user="NKA">
		<tag k="name" v="Brenna" />
		<tag k="place" v="farm" />
		<tag k="ssr:stedsnr" v="125305" />
	</node>
	<node id="9666442300" lat="59.8665611" lon="10.2414834" version="1" timestamp="2022-04-14T17:24:37Z" changeset="119722501" uid="3497659" user="NKA">
		<tag k="name" v="Muggerud" />
		<tag k="place" v="farm" />
		<tag k="ssr:stedsnr" v="4269" />
	</node>
	<node id="9666442301" lat="59.8011291" lon="10.2241525" version="1" timestamp="2022-04-14T17:24:37Z" changeset="119722501" uid="3497659" user="NKA">
		<tag k="name" v="Vestre Renskaug" />
		<tag k="place" v="farm" />
		<tag k="ssr:stedsnr" v="20352" />
	</node>
	<node id="9666442302" lat="59.878025" lon="10.2830362" version="1" timestamp="2022-04-14T17:24:37Z" changeset="119722501" uid="3497659" user="NKA">
		<tag k="name" v="Kopperudstua" />
		<tag k="place" v="locality" />
		<tag k="ssr:stedsnr" v="264982" />
	</node>
	<node id="9666442303" lat="59.8338914" lon="10.143906" version="1" timestamp="2022-04-14T17:24:37Z" changeset="119722501" uid="3497659" user="NKA">
		<tag k="name" v="Myra" />
		<tag k="place" v="locality" />
		<tag k="ssr:stedsnr" v="307314" />
	</node>
	<node id="9666442304" lat="59.8379131" lon="10.2637466" version="1" timestamp="2022-04-14T17:24:37Z" changeset="119722501" uid="3497659" user="NKA">
		<tag k="name" v="Bakkeløkka" />
		<tag k="place" v="isolated_dwelling" />
		<tag k="ssr:stedsnr" v="82114" />
	</node>
	<node id="9666442305" lat="59.767925" lon="10.2480306" version="1" timestamp="2022-04-14T17:24:37Z" changeset="119722501" uid="3497659" user="NKA">
		<tag k="name" v="Kjellstad" />
		<tag k="place" v="quarter" />
		<tag k="ssr:stedsnr" v="3155" />
	</node>
	<node id="9666442306" lat="59.8370055" lon="10.2397889" version="1" timestamp="2022-04-14T17:24:37Z" changeset="119722501" uid="3497659" user="NKA">
		<tag k="name" v="Kortnes" />
		<tag k="place" v="farm" />
		<tag k="ssr:stedsnr" v="793301" />
	</node>
	<node id="9666442307" lat="59.8846058" lon="10.2937657" version="1" timestamp="2022-04-14T17:24:37Z" changeset="119722501" uid="3497659" user="NKA">
		<tag k="name" v="Storbråtan" />
		<tag k="place" v="farm" />
		<tag k="ssr:stedsnr" v="203989" />
	</node>
	<node id="9666442308" lat="59.8602371" lon="10.2847284" version="1" timestamp="2022-04-14T17:24:37Z" changeset="119722501" uid="3497659" user="NKA">
		<tag k="name" v="Rundtomåsen" />
		<tag k="place" v="farm" />
		<tag k="ssr:stedsnr" v="64254" />
	</node>
	<node id="9666442309" lat="59.874131" lon="10.1919888" version="1" timestamp="2022-04-14T17:24:37Z" changeset="119722501" uid="3497659" user="NKA">
		<tag k="name" v="Høgli" />
		<tag k="place" v="isolated_dwelling" />
		<tag k="ssr:stedsnr" v="932658" />
	</node>
	<node id="9666442310" lat="59.8482747" lon="10.1917861" version="1" timestamp="2022-04-14T17:24:37Z" changeset="119722501" uid="3497659" user="NKA">
		<tag k="name" v="Flåret" />
		<tag k="place" v="farm" />
		<tag k="ssr:stedsnr" v="307292" />
	</node>
	<node id="9666442311" lat="59.9378495" lon="10.2678777" version="1" timestamp="2022-04-14T17:24:37Z" changeset="119722501" uid="3497659" user="NKA">
		<tag k="alt_name" v="Nordre Røine" />
		<tag k="name" v="Nordre Røyne" />
		<tag k="place" v="farm" />
		<tag k="ssr:stedsnr" v="341820" />
	</node>
	<node id="9666442312" lat="59.9460083" lon="10.2774778" version="1" timestamp="2022-04-14T17:24:37Z" changeset="119722501" uid="3497659" user="NKA">
		<tag k="name" v="Kleivbråtan" />
		<tag k="place" v="isolated_dwelling" />
		<tag k="ssr:stedsnr" v="567500" />
	</node>
	<node id="9666442313" lat="59.7647948" lon="10.2353512" version="1" timestamp="2022-04-14T17:24:37Z" changeset="119722501" uid="3497659" user="NKA">
		<tag k="name" v="Sandaker" />
		<tag k="place" v="farm" />
		<tag k="ssr:stedsnr" v="324914" />
	</node>
	<node id="9666442314" lat="59.8240223" lon="10.2541513" version="1" timestamp="2022-04-14T17:24:37Z" changeset="119722501" uid="3497659" user="NKA">
		<tag k="name" v="Skjønhaug" />
		<tag k="place" v="farm" />
		<tag k="ssr:stedsnr" v="446153" />
	</node>
	<node id="9666442315" lat="59.8350389" lon="10.1926804" version="1" timestamp="2022-04-14T17:24:37Z" changeset="119722501" uid="3497659" user="NKA">
		<tag k="name" v="Dambekk" />
		<tag k="place" v="farm" />
		<tag k="ssr:stedsnr" v="793201" />
	</node>
	<node id="9666442316" lat="59.7688139" lon="10.2129055" version="1" timestamp="2022-04-14T17:24:37Z" changeset="119722501" uid="3497659" user="NKA">
		<tag k="name" v="Reksla" />
		<tag k="place" v="isolated_dwelling" />
		<tag k="ssr:stedsnr" v="81377" />
	</node>
	<node id="9666442317" lat="59.8635308" lon="10.2157794" version="1" timestamp="2022-04-14T17:24:37Z" changeset="119722501" uid="3497659" user="NKA">
		<tag k="loc_name" v="Gifstadbråtan" />
		<tag k="name" v="Gifstadbråten" />
		<tag k="place" v="farm" />
		<tag k="ssr:stedsnr" v="385818" />
	</node>
	<node id="9666442318" lat="59.7796213" lon="10.20401" version="1" timestamp="2022-04-14T17:24:37Z" changeset="119722501" uid="3497659" user="NKA">
		<tag k="name" v="Stein" />
		<tag k="place" v="hamlet" />
		<tag k="ssr:stedsnr" v="163270" />
	</node>
	<node id="9666442319" lat="59.7733039" lon="10.2664471" version="1" timestamp="2022-04-14T17:24:37Z" changeset="119722501" uid="3497659" user="NKA">
		<tag k="name" v="Vinbekk" />
		<tag k="place" v="farm" />
		<tag k="ssr:stedsnr" v="854154" />
	</node>
	<node id="9666442320" lat="59.9434259" lon="10.2789368" version="1" timestamp="2022-04-14T17:24:37Z" changeset="119722501" uid="3497659" user="NKA">
		<tag k="name" v="Fuglerud" />
		<tag k="place" v="farm" />
		<tag k="ssr:stedsnr" v="732422" />
	</node>
	<node id="9666442321" lat="59.8173186" lon="10.2183783" version="1" timestamp="2022-04-14T17:24:37Z" changeset="119722501" uid="3497659" user="NKA">
		<tag k="alt_name" v="Mellom Egge" />
		<tag k="name" v="Mellom-Egge" />
		<tag k="place" v="farm" />
		<tag k="ssr:stedsnr" v="689125" />
	</node>
	<node id="9666442322" lat="59.8151087" lon="10.20266" version="1" timestamp="2022-04-14T17:24:37Z" changeset="119722501" uid="3497659" user="NKA">
		<tag k="name" v="Justad" />
		<tag k="place" v="farm" />
		<tag k="ssr:stedsnr" v="185202" />
	</node>
	<node id="9666442323" lat="59.82095" lon="10.2500388" version="1" timestamp="2022-04-14T17:24:37Z" changeset="119722501" uid="3497659" user="NKA">
		<tag k="name" v="Bråten" />
		<tag k="place" v="farm" />
		<tag k="ssr:stedsnr" v="507099" />
	</node>
	<node id="9666442324" lat="59.8879951" lon="10.3079753" version="1" timestamp="2022-04-14T17:24:37Z" changeset="119722501" uid="3497659" user="NKA">
		<tag k="name" v="Søndre Bakkerud" />
		<tag k="place" v="farm" />
		<tag k="ssr:stedsnr" v="325948" />
	</node>
	<node id="9666442325" lat="59.9092925" lon="10.2577595" version="1" timestamp="2022-04-14T17:24:37Z" changeset="119722501" uid="3497659" user="NKA">
		<tag k="name" v="Kirketeigen" />
		<tag k="place" v="farm" />
		<tag k="ssr:stedsnr" v="1078081" />
	</node>
	<node id="9666442326" lat="59.800077" lon="10.2469084" version="1" timestamp="2022-04-14T17:24:37Z" changeset="119722501" uid="3497659" user="NKA">
		<tag k="alt_name" v="Overn-Utenga" />
		<tag k="name" v="Overnutenga" />
		<tag k="place" v="farm" />
		<tag k="ssr:stedsnr" v="64237" />
	</node>
	<node id="9666442327" lat="59.7576778" lon="10.2527638" version="1" timestamp="2022-04-14T17:24:37Z" changeset="119722501" uid="3497659" user="NKA">
		<tag k="name" v="Vitbank" />
		<tag k="place" v="farm" />
		<tag k="ssr:stedsnr" v="567904" />
	</node>
	<node id="9666442328" lat="59.7752632" lon="10.237862" version="1" timestamp="2022-04-14T17:24:37Z" changeset="119722501" uid="3497659" user="NKA">
		<tag k="name" v="Grette" />
		<tag k="place" v="farm" />
		<tag k="ssr:stedsnr" v="914161" />
	</node>
	<node id="9666442329" lat="59.9002169" lon="10.3118011" version="1" timestamp="2022-04-14T17:24:37Z" changeset="119722501" uid="3497659" user="NKA">
		<tag k="name" v="Tangen" />
		<tag k="place" v="isolated_dwelling" />
		<tag k="ssr:stedsnr" v="810545" />
	</node>
	<node id="9666442330" lat="59.8159949" lon="10.250733" version="1" timestamp="2022-04-14T17:24:37Z" changeset="119722501" uid="3497659" user="NKA">
		<tag k="name" v="Lyngås" />
		<tag k="place" v="farm" />
		<tag k="ssr:stedsnr" v="367176" />
	</node>
	<node id="9666442331" lat="59.8276894" lon="10.2170864" version="1" timestamp="2022-04-14T17:24:37Z" changeset="119722501" uid="3497659" user="NKA">
		<tag k="name" v="Elvestad" />
		<tag k="place" v="farm" />
		<tag k="ssr:stedsnr" v="854176" />
	</node>
	<node id="9666442332" lat="59.823989" lon="10.2064228" version="1" timestamp="2022-04-14T17:24:37Z" changeset="119722501" uid="3497659" user="NKA">
		<tag k="name" v="Ringstad" />
		<tag k="place" v="farm" />
		<tag k="ssr:stedsnr" v="1072703" />
	</node>
	<node id="9666442333" lat="59.8175818" lon="10.3070487" version="1" timestamp="2022-04-14T17:24:37Z" changeset="119722501" uid="3497659" user="NKA">
		<tag k="alt_name" v="Vestre Grøstad" />
		<tag k="name" v="Grøstad" />
		<tag k="place" v="hamlet" />
		<tag k="ssr:stedsnr" v="914232" />
	</node>
	<node id="9666442334" lat="59.9350152" lon="10.26914" version="1" timestamp="2022-04-14T17:24:37Z" changeset="119722501" uid="3497659" user="NKA">
		<tag k="alt_name" v="Søndre Røine" />
		<tag k="name" v="Søndre Røyne" />
		<tag k="place" v="farm" />
		<tag k="ssr:stedsnr" v="307443" />
	</node>
	<node id="9666442335" lat="59.7715732" lon="10.2286803" version="1" timestamp="2022-04-14T17:24:37Z" changeset="119722501" uid="3497659" user="NKA">
		<tag k="alt_name" v="Nordre Vivelstad" />
		<tag k="name" v="Nordre Viulstad" />
		<tag k="place" v="farm" />
		<tag k="ssr:stedsnr" v="587717" />
	</node>
	<node id="9666442336" lat="59.8307778" lon="10.3320611" version="1" timestamp="2022-04-14T17:24:37Z" changeset="119722501" uid="3497659" user="NKA">
		<tag k="name" v="Vestenga" />
		<tag k="place" v="farm" />
		<tag k="ssr:stedsnr" v="125219" />
	</node>
	<node id="9666442337" lat="59.789932" lon="10.2751914" version="1" timestamp="2022-04-14T17:24:37Z" changeset="119722501" uid="3497659" user="NKA">
		<tag k="alt_name" v="Utsikten" />
		<tag k="name" v="Lierutsikten" />
		<tag k="place" v="farm" />
		<tag k="ssr:stedsnr" v="446691" />
	</node>
	<node id="9666442338" lat="59.8194062" lon="10.2681118" version="1" timestamp="2022-04-14T17:24:37Z" changeset="119722501" uid="3497659" user="NKA">
		<tag k="name" v="Haugerud" />
		<tag k="place" v="farm" />
		<tag k="ssr:stedsnr" v="307233" />
	</node>
	<node id="9666442339" lat="59.8531396" lon="10.2011235" version="1" timestamp="2022-04-14T17:24:37Z" changeset="119722501" uid="3497659" user="NKA">
		<tag k="name" v="Nordbråtan" />
		<tag k="place" v="farm" />
		<tag k="ssr:stedsnr" v="732267" />
	</node>
	<node id="9666442340" lat="59.7309028" lon="10.3032555" version="1" timestamp="2022-04-14T17:24:37Z" changeset="119722501" uid="3497659" user="NKA">
		<tag k="name" v="Engersand havn" />
		<tag k="place" v="neighbourhood" />
		<tag k="ssr:stedsnr" v="404591" />
	</node>
	<node id="9666442341" lat="59.8818759" lon="10.2551957" version="1" timestamp="2022-04-14T17:24:37Z" changeset="119722501" uid="3497659" user="NKA">
		<tag k="name" v="Skjeggerud" />
		<tag k="place" v="farm" />
		<tag k="ssr:stedsnr" v="611368" />
	</node>
	<node id="9666442342" lat="59.814765" lon="10.3145898" version="1" timestamp="2022-04-14T17:24:37Z" changeset="119722501" uid="3497659" user="NKA">
		<tag k="name" v="Tveiten" />
		<tag k="place" v="farm" />
		<tag k="ssr:stedsnr" v="1072715" />
	</node>
	<node id="9666442343" lat="59.8885722" lon="10.2300612" version="1" timestamp="2022-04-14T17:24:37Z" changeset="119722501" uid="3497659" user="NKA">
		<tag k="name" v="Kanada" />
		<tag k="place" v="hamlet" />
		<tag k="ssr:stedsnr" v="125388" />
	</node>
	<node id="9666442344" lat="59.8897831" lon="10.2288692" version="1" timestamp="2022-04-14T17:24:37Z" changeset="119722501" uid="3497659" user="NKA">
		<tag k="name" v="Tomas" />
		<tag k="place" v="farm" />
		<tag k="ssr:stedsnr" v="429289" />
	</node>
	<node id="9666442345" lat="59.7559556" lon="10.2848306" version="1" timestamp="2022-04-14T17:24:37Z" changeset="119722501" uid="3497659" user="NKA">
		<tag k="name" v="Hestebråtan" />
		<tag k="place" v="locality" />
		<tag k="ssr:stedsnr" v="82892" />
	</node>
	<node id="9666442346" lat="59.8402486" lon="10.2537414" version="1" timestamp="2022-04-14T17:24:37Z" changeset="119722501" uid="3497659" user="NKA">
		<tag k="alt_name" v="Søre Nedre Sørsdal" />
		<tag k="name" v="Søndre Nedre Sørsdal" />
		<tag k="place" v="farm" />
		<tag k="ssr:stedsnr" v="446405" />
	</node>
	<node id="9666442347" lat="59.7815944" lon="10.2262112" version="1" timestamp="2022-04-14T17:24:37Z" changeset="119722501" uid="3497659" user="NKA">
		<tag k="name" v="Frognerlia" />
		<tag k="place" v="neighbourhood" />
		<tag k="ssr:stedsnr" v="384369" />
	</node>
	<node id="9666442348" lat="59.8876724" lon="10.2389503" version="1" timestamp="2022-04-14T17:24:37Z" changeset="119722501" uid="3497659" user="NKA">
		<tag k="name" v="Ringen" />
		<tag k="place" v="isolated_dwelling" />
		<tag k="ssr:stedsnr" v="628153" />
	</node>
	<node id="9666442349" lat="59.7387805" lon="10.2885916" version="1" timestamp="2022-04-14T17:24:37Z" changeset="119722501" uid="3497659" user="NKA">
		<tag k="alt_name" v="Gullaug søndre" />
		<tag k="name" v="Søndre Gullaug" />
		<tag k="place" v="farm" />
		<tag k="ssr:stedsnr" v="783257" />
	</node>
	<node id="9666442350" lat="59.831305" lon="10.2909632" version="1" timestamp="2022-04-14T17:24:37Z" changeset="119722501" uid="3497659" user="NKA">
		<tag k="name" v="Snekkerstua" />
		<tag k="place" v="farm" />
		<tag k="ssr:stedsnr" v="854178" />
	</node>
	<node id="9666442351" lat="59.9203323" lon="10.2952786" version="1" timestamp="2022-04-14T17:24:37Z" changeset="119722501" uid="3497659" user="NKA">
		<tag k="name" v="Gampedalen" />
		<tag k="place" v="farm" />
		<tag k="ssr:stedsnr" v="550398" />
	</node>
	<node id="9666442352" lat="59.7890432" lon="10.2689646" version="1" timestamp="2022-04-14T17:24:37Z" changeset="119722501" uid="3497659" user="NKA">
		<tag k="name" v="Nedre Stokke" />
		<tag k="place" v="farm" />
		<tag k="ssr:stedsnr" v="264657" />
	</node>
	<node id="9666442353" lat="59.90325" lon="10.257589" version="1" timestamp="2022-04-14T17:24:37Z" changeset="119722501" uid="3497659" user="NKA">
		<tag k="name" v="Flittig" />
		<tag k="place" v="isolated_dwelling" />
		<tag k="ssr:stedsnr" v="671328" />
	</node>
	<node id="9666442354" lat="59.7807286" lon="10.2479544" version="1" timestamp="2022-04-14T17:24:37Z" changeset="119722501" uid="3497659" user="NKA">
		<tag k="name" v="Nedre Hegg" />
		<tag k="place" v="farm" />
		<tag k="ssr:stedsnr" v="222669" />
	</node>
	<node id="9666442355" lat="59.8504301" lon="10.2366734" version="1" timestamp="2022-04-14T17:24:37Z" changeset="119722501" uid="3497659" user="NKA">
		<tag k="name" v="Roaldsrud" />
		<tag k="place" v="farm" />
		<tag k="ssr:stedsnr" v="21425" />
	</node>
	<node id="9666442356" lat="59.7576232" lon="10.2457036" version="1" timestamp="2022-04-14T17:24:37Z" changeset="119722501" uid="3497659" user="NKA">
		<tag k="name" v="Jensvoll" />
		<tag k="place" v="quarter" />
		<tag k="ssr:stedsnr" v="627931" />
	</node>
	<node id="9666442357" lat="59.8355222" lon="10.1638389" version="1" timestamp="2022-04-14T17:24:37Z" changeset="119722501" uid="3497659" user="NKA">
		<tag k="name" v="Lamyr" />
		<tag k="place" v="farm" />
		<tag k="ssr:stedsnr" v="368210" />
	</node>
	<node id="9666442358" lat="59.7795884" lon="10.2373268" version="1" timestamp="2022-04-14T17:24:37Z" changeset="119722501" uid="3497659" user="NKA">
		<tag k="alt_name" v="Nedre Frogner" />
		<tag k="name" v="Frogner" />
		<tag k="place" v="farm" />
		<tag k="ssr:stedsnr" v="186152" />
	</node>
	<node id="9666442359" lat="59.7547278" lon="10.2201722" version="1" timestamp="2022-04-14T17:24:37Z" changeset="119722501" uid="3497659" user="NKA">
		<tag k="name" v="Fagerhøy" />
		<tag k="place" v="farm" />
		<tag k="ssr:stedsnr" v="848790" />
	</node>
	<node id="9666442360" lat="59.8062282" lon="10.2380787" version="1" timestamp="2022-04-14T17:24:37Z" changeset="119722501" uid="3497659" user="NKA">
		<tag k="name" v="Hellumsand" />
		<tag k="place" v="farm" />
		<tag k="ssr:stedsnr" v="688746" />
	</node>
	<node id="9666442361" lat="59.765844" lon="10.2780596" version="1" timestamp="2022-04-14T17:24:37Z" changeset="119722501" uid="3497659" user="NKA">
		<tag k="name" v="Hvalsenga" />
		<tag k="place" v="farm" />
		<tag k="ssr:stedsnr" v="385887" />
	</node>
	<node id="9666442362" lat="59.8523938" lon="10.2699768" version="1" timestamp="2022-04-14T17:24:37Z" changeset="119722501" uid="3497659" user="NKA">
		<tag k="alt_name" v="Øvre Oppsal" />
		<tag k="name" v="Sørli" />
		<tag k="place" v="locality" />
		<tag k="ssr:stedsnr" v="264099" />
	</node>
	<node id="9666442363" lat="59.8471792" lon="10.1615744" version="1" timestamp="2022-04-14T17:24:37Z" changeset="119722501" uid="3497659" user="NKA">
		<tag k="name" v="Sjåstadhytta" />
		<tag k="place" v="isolated_dwelling" />
		<tag k="ssr:stedsnr" v="932416" />
	</node>
	<node id="9666442364" lat="59.8802222" lon="10.3064166" version="1" timestamp="2022-04-14T17:24:37Z" changeset="119722501" uid="3497659" user="NKA">
		<tag k="alt_name" v="Kornerudbråten" />
		<tag k="name" v="Kornerudbråtan" />
		<tag k="place" v="isolated_dwelling" />
		<tag k="ssr:stedsnr" v="689954" />
	</node>
	<node id="9666442365" lat="59.8091398" lon="10.2178779" version="1" timestamp="2022-04-14T17:24:37Z" changeset="119722501" uid="3497659" user="NKA">
		<tag k="name" v="Landfall" />
		<tag k="place" v="farm" />
		<tag k="ssr:stedsnr" v="125252" />
	</node>
	<node id="9666442366" lat="59.8301688" lon="10.2282021" version="1" timestamp="2022-04-14T17:24:37Z" changeset="119722501" uid="3497659" user="NKA">
		<tag k="name" v="Søndre Meren" />
		<tag k="old_name" v="Søndre Mære" />
		<tag k="place" v="farm" />
		<tag k="ssr:stedsnr" v="871374" />
	</node>
	<node id="9666442367" lat="59.8269533" lon="10.2672547" version="1" timestamp="2022-04-14T17:24:37Z" changeset="119722501" uid="3497659" user="NKA">
		<tag k="name" v="Øvre Hennum" />
		<tag k="place" v="farm" />
		<tag k="ssr:stedsnr" v="567049" />
	</node>
	<node id="9666442368" lat="59.9485388" lon="10.2914073" version="1" timestamp="2022-04-14T17:24:37Z" changeset="119722501" uid="3497659" user="NKA">
		<tag k="name" v="Solvang" />
		<tag k="place" v="farm" />
		<tag k="ssr:stedsnr" v="21542" />
	</node>
	<node id="9666442369" lat="59.7934372" lon="10.24889" version="1" timestamp="2022-04-14T17:24:37Z" changeset="119722501" uid="3497659" user="NKA">
		<tag k="alt_name" v="Nordre Haskoll" />
		<tag k="name" v="Haskoll" />
		<tag k="place" v="neighbourhood" />
		<tag k="ssr:stedsnr" v="489136" />
	</node>
	<node id="9666442370" lat="59.8554209" lon="10.2300431" version="1" timestamp="2022-04-14T17:24:37Z" changeset="119722501" uid="3497659" user="NKA">
		<tag k="name" v="Solhaug" />
		<tag k="place" v="farm" />
		<tag k="ssr:stedsnr" v="810164" />
	</node>
	<node id="9666442371" lat="59.7663924" lon="10.2887719" version="1" timestamp="2022-04-14T17:24:37Z" changeset="119722501" uid="3497659" user="NKA">
		<tag k="name" v="Sørum" />
		<tag k="place" v="hamlet" />
		<tag k="ssr:stedsnr" v="489207" />
	</node>
	<node id="9666442372" lat="59.7866698" lon="10.2094131" version="1" timestamp="2022-04-14T17:24:37Z" changeset="119722501" uid="3497659" user="NKA">
		<tag k="name" v="Gåserud" />
		<tag k="place" v="farm" />
		<tag k="ssr:stedsnr" v="65141" />
	</node>
	<node id="9666442373" lat="59.8477194" lon="10.2091995" version="1" timestamp="2022-04-14T17:24:37Z" changeset="119722501" uid="3497659" user="NKA">
		<tag k="name" v="Lia" />
		<tag k="place" v="farm" />
		<tag k="ssr:stedsnr" v="428236" />
	</node>
	<node id="9666442374" lat="59.8147698" lon="10.2630265" version="1" timestamp="2022-04-14T17:24:37Z" changeset="119722501" uid="3497659" user="NKA">
		<tag k="name" v="Hallingstad" />
		<tag k="place" v="farm" />
		<tag k="ssr:stedsnr" v="853198" />
	</node>
	<node id="9666442375" lat="59.9448473" lon="10.2874554" version="1" timestamp="2022-04-14T17:24:37Z" changeset="119722501" uid="3497659" user="NKA">
		<tag k="name" v="Brevik" />
		<tag k="place" v="farm" />
		<tag k="ssr:stedsnr" v="914378" />
	</node>
	<node id="9666442376" lat="59.8198077" lon="10.1319777" version="1" timestamp="2022-04-14T17:24:37Z" changeset="119722501" uid="3497659" user="NKA">
		<tag k="name" v="Garsjøbråtan" />
		<tag k="place" v="isolated_dwelling" />
		<tag k="ssr:stedsnr" v="810464" />
	</node>
	<node id="9666442377" lat="59.8425262" lon="10.2200327" version="1" timestamp="2022-04-14T17:24:37Z" changeset="119722501" uid="3497659" user="NKA">
		<tag k="name" v="Vestre Meren" />
		<tag k="old_name" v="Bygningen" />
		<tag k="place" v="farm" />
		<tag k="ssr:stedsnr" v="385402" />
	</node>
	<node id="9666442378" lat="59.8276261" lon="10.2529925" version="1" timestamp="2022-04-14T17:24:37Z" changeset="119722501" uid="3497659" user="NKA">
		<tag k="alt_name" v="Ånnerud" />
		<tag k="name" v="Ånerud" />
		<tag k="place" v="farm" />
		<tag k="ssr:stedsnr" v="671197" />
	</node>
	<node id="9666442379" lat="59.8092397" lon="10.2554973" version="1" timestamp="2022-04-14T17:24:37Z" changeset="119722501" uid="3497659" user="NKA">
		<tag k="name" v="Tranby" />
		<tag k="place" v="farm" />
		<tag k="ssr:stedsnr" v="3196" />
	</node>
	<node id="9666442381" lat="59.8225195" lon="10.2353972" version="1" timestamp="2022-04-14T17:24:37Z" changeset="119722501" uid="3497659" user="NKA">
		<tag k="name" v="Linnesvollen" />
		<tag k="place" v="locality" />
		<tag k="ssr:stedsnr" v="21139" />
	</node>
	<node id="9666442382" lat="59.7639941" lon="10.2243141" version="1" timestamp="2022-04-14T17:24:37Z" changeset="119722501" uid="3497659" user="NKA">
		<tag k="name" v="Nordre Lian" />
		<tag k="place" v="farm" />
		<tag k="ssr:stedsnr" v="367059" />
	</node>
	<node id="9666442383" lat="59.8987264" lon="10.2573128" version="1" timestamp="2022-04-14T17:24:37Z" changeset="119722501" uid="3497659" user="NKA">
		<tag k="name" v="Rydningen" />
		<tag k="place" v="farm" />
		<tag k="ssr:stedsnr" v="810532" />
	</node>
	<node id="9666442384" lat="59.8280159" lon="10.2601022" version="1" timestamp="2022-04-14T17:24:37Z" changeset="119722501" uid="3497659" user="NKA">
		<tag k="alt_name" v="Klinkenberghagen" />
		<tag k="name" v="Nedre Hennum" />
		<tag k="old_name" v="Rødenga" />
		<tag k="place" v="farm" />
		<tag k="ssr:stedsnr" v="325114" />
	</node>
	<node id="9666442385" lat="59.9113777" lon="10.2492214" version="1" timestamp="2022-04-14T17:24:37Z" changeset="119722501" uid="3497659" user="NKA">
		<tag k="name" v="Fagerlihytta" />
		<tag k="place" v="isolated_dwelling" />
		<tag k="ssr:stedsnr" v="21560" />
	</node>
	<node id="9666442386" lat="59.7936159" lon="10.2254841" version="1" timestamp="2022-04-14T17:24:37Z" changeset="119722501" uid="3497659" user="NKA">
		<tag k="name" v="Østdal" />
		<tag k="place" v="farm" />
		<tag k="ssr:stedsnr" v="20774" />
	</node>
	<node id="9666442387" lat="59.8677086" lon="10.2826384" version="1" timestamp="2022-04-14T17:24:37Z" changeset="119722501" uid="3497659" user="NKA">
		<tag k="alt_name" v="Nuen;Kittilsrud" />
		<tag k="name" v="Nuven" />
		<tag k="place" v="farm" />
		<tag k="ssr:stedsnr" v="599243" />
	</node>
	<node id="9666442388" lat="59.7761749" lon="10.2297311" version="1" timestamp="2022-04-14T17:24:37Z" changeset="119722501" uid="3497659" user="NKA">
		<tag k="name" v="Hval" />
		<tag k="place" v="farm" />
		<tag k="ssr:stedsnr" v="307179" />
	</node>
	<node id="9666442389" lat="59.8240569" lon="10.2223981" version="1" timestamp="2022-04-14T17:24:37Z" changeset="119722501" uid="3497659" user="NKA">
		<tag k="alt_name" v="Utenga" />
		<tag k="name" v="Øvre Egge" />
		<tag k="place" v="farm" />
		<tag k="ssr:stedsnr" v="853175" />
	</node>
	<node id="9666442390" lat="59.8216062" lon="10.2632993" version="1" timestamp="2022-04-14T17:24:37Z" changeset="119722501" uid="3497659" user="NKA">
		<tag k="name" v="Vestre Hennum" />
		<tag k="place" v="farm" />
		<tag k="ssr:stedsnr" v="385064" />
	</node>
	<node id="9666442391" lat="59.8635188" lon="10.2486274" version="1" timestamp="2022-04-14T17:24:37Z" changeset="119722501" uid="3497659" user="NKA">
		<tag k="name" v="Kulberg" />
		<tag k="place" v="hamlet" />
		<tag k="ssr:stedsnr" v="368298" />
	</node>
	<node id="9666442392" lat="59.8889056" lon="10.3058195" version="1" timestamp="2022-04-14T17:24:37Z" changeset="119722501" uid="3497659" user="NKA">
		<tag k="name" v="Solli" />
		<tag k="place" v="locality" />
		<tag k="ssr:stedsnr" v="507958" />
	</node>
	<node id="9666442393" lat="59.8162055" lon="10.2965333" version="1" timestamp="2022-04-14T17:24:37Z" changeset="119722501" uid="3497659" user="NKA">
		<tag k="name" v="Lierskogen pukkverk" />
		<tag k="place" v="neighbourhood" />
		<tag k="ssr:stedsnr" v="264044" />
	</node>
	<node id="9666442394" lat="59.8026683" lon="10.2016028" version="1" timestamp="2022-04-14T17:24:37Z" changeset="119722501" uid="3497659" user="NKA">
		<tag k="name" v="Eriksrud" />
		<tag k="place" v="farm" />
		<tag k="ssr:stedsnr" v="368261" />
	</node>
	<node id="9666442395" lat="59.7498167" lon="10.2334833" version="1" timestamp="2022-04-14T17:24:37Z" changeset="119722501" uid="3497659" user="NKA">
		<tag k="name" v="Vestre Nøste" />
		<tag k="place" v="isolated_dwelling" />
		<tag k="ssr:stedsnr" v="951912" />
	</node>
	<node id="9666442396" lat="59.8216606" lon="10.3400241" version="1" timestamp="2022-04-14T17:24:37Z" changeset="119722501" uid="3497659" user="NKA">
		<tag k="alt_name" v="Øgarden" />
		<tag k="name" v="Øgården" />
		<tag k="place" v="farm" />
		<tag k="ssr:stedsnr" v="203098" />
	</node>
	<node id="9666442397" lat="59.8750987" lon="10.2436146" version="1" timestamp="2022-04-14T17:24:37Z" changeset="119722501" uid="3497659" user="NKA">
		<tag k="alt_name" v="Broengen" />
		<tag k="name" v="Bruenga" />
		<tag k="place" v="farm" />
		<tag k="ssr:stedsnr" v="125376" />
	</node>
	<node id="9666442398" lat="59.8174686" lon="10.332926" version="1" timestamp="2022-04-14T17:24:37Z" changeset="119722501" uid="3497659" user="NKA">
		<tag k="name" v="Sagvollen" />
		<tag k="place" v="farm" />
		<tag k="ssr:stedsnr" v="64227" />
	</node>
	<node id="9666442399" lat="59.8328827" lon="10.2235833" version="1" timestamp="2022-04-14T17:24:37Z" changeset="119722501" uid="3497659" user="NKA">
		<tag k="name" v="Utenga" />
		<tag k="place" v="farm" />
		<tag k="ssr:stedsnr" v="247185" />
	</node>
	<node id="9666442400" lat="59.8326444" lon="10.2421166" version="1" timestamp="2022-04-14T17:24:37Z" changeset="119722501" uid="3497659" user="NKA">
		<tag k="name" v="Trollerud" />
		<tag k="place" v="farm" />
		<tag k="ssr:stedsnr" v="489216" />
	</node>
	<node id="9666442401" lat="59.7828362" lon="10.1700944" version="1" timestamp="2022-04-14T17:24:37Z" changeset="119722501" uid="3497659" user="NKA">
		<tag k="name" v="Saueseterhytta" />
		<tag k="place" v="isolated_dwelling" />
		<tag k="ssr:stedsnr" v="59248" />
	</node>
	<node id="9666442402" lat="59.8498599" lon="10.2721575" version="1" timestamp="2022-04-14T17:24:37Z" changeset="119722501" uid="3497659" user="NKA">
		<tag k="name" v="Fagerbakken" />
		<tag k="place" v="isolated_dwelling" />
		<tag k="ssr:stedsnr" v="628088" />
	</node>
	<node id="9666442403" lat="59.7689192" lon="10.2808227" version="1" timestamp="2022-04-14T17:24:37Z" changeset="119722501" uid="3497659" user="NKA">
		<tag k="name" v="Sommerrosletta" />
		<tag k="place" v="farm" />
		<tag k="ssr:stedsnr" v="689573" />
	</node>
	<node id="9666442404" lat="59.7445028" lon="10.2904917" version="1" timestamp="2022-04-14T17:24:37Z" changeset="119722501" uid="3497659" user="NKA">
		<tag k="name" v="Ytre Mørk" />
		<tag k="place" v="farm" />
		<tag k="ssr:stedsnr" v="446862" />
	</node>
	<node id="9666442405" lat="59.8972215" lon="10.2780061" version="1" timestamp="2022-04-14T17:24:37Z" changeset="119722501" uid="3497659" user="NKA">
		<tag k="name" v="Østre Sylling" />
		<tag k="place" v="farm" />
		<tag k="ssr:stedsnr" v="567534" />
	</node>
	<node id="9666442406" lat="59.8483751" lon="10.2679697" version="1" timestamp="2022-04-14T17:24:37Z" changeset="119722501" uid="3497659" user="NKA">
		<tag k="alt_name" v="Øvre Opsal" />
		<tag k="name" v="Øvre Oppsal" />
		<tag k="place" v="farm" />
		<tag k="ssr:stedsnr" v="709656" />
	</node>
	<node id="9666442407" lat="59.8899167" lon="10.2717084" version="1" timestamp="2022-04-14T17:24:37Z" changeset="119722501" uid="3497659" user="NKA">
		<tag k="name" v="Gjerstad" />
		<tag k="place" v="farm" />
		<tag k="ssr:stedsnr" v="4309" />
	</node>
	<node id="9666442408" lat="59.9357506" lon="10.2955143" version="1" timestamp="2022-04-14T17:24:37Z" changeset="119722501" uid="3497659" user="NKA">
		<tag k="name" v="Øvre Eik" />
		<tag k="place" v="farm" />
		<tag k="ssr:stedsnr" v="4420" />
	</node>
	<node id="9666442409" lat="59.885689" lon="10.2642208" version="1" timestamp="2022-04-14T17:24:37Z" changeset="119722501" uid="3497659" user="NKA">
		<tag k="name" v="Gunnerud" />
		<tag k="place" v="farm" />
		<tag k="ssr:stedsnr" v="4345" />
	</node>
	<node id="9666442410" lat="59.9007435" lon="10.2590468" version="1" timestamp="2022-04-14T17:24:37Z" changeset="119722501" uid="3497659" user="NKA">
		<tag k="name" v="Fagerli" />
		<tag k="place" v="farm" />
		<tag k="ssr:stedsnr" v="3295" />
	</node>
	<node id="9666442411" lat="59.7987655" lon="10.2065779" version="1" timestamp="2022-04-14T17:24:37Z" changeset="119722501" uid="3497659" user="NKA">
		<tag k="name" v="Berfløtt" />
		<tag k="place" v="hamlet" />
		<tag k="ssr:stedsnr" v="671132" />
	</node>
	<node id="9666442412" lat="59.8864509" lon="10.2292795" version="1" timestamp="2022-04-14T17:24:37Z" changeset="119722501" uid="3497659" user="NKA">
		<tag k="name" v="Fjellheim" />
		<tag k="place" v="farm" />
		<tag k="ssr:stedsnr" v="21225" />
	</node>
	<node id="9666442413" lat="59.8337435" lon="10.2121853" version="1" timestamp="2022-04-14T17:24:37Z" changeset="119722501" uid="3497659" user="NKA">
		<tag k="name" v="Øksne" />
		<tag k="place" v="hamlet" />
		<tag k="ssr:stedsnr" v="914194" />
	</node>
	<node id="9666442414" lat="59.7874865" lon="10.2591056" version="1" timestamp="2022-04-14T17:24:37Z" changeset="119722501" uid="3497659" user="NKA">
		<tag k="name" v="Haslum" />
		<tag k="place" v="farm" />
		<tag k="ssr:stedsnr" v="809746" />
	</node>
	<node id="9666442415" lat="59.9475206" lon="10.2803585" version="1" timestamp="2022-04-14T17:24:37Z" changeset="119722501" uid="3497659" user="NKA">
		<tag k="name" v="Øverby" />
		<tag k="place" v="farm" />
		<tag k="ssr:stedsnr" v="186404" />
	</node>
	<node id="9666442416" lat="59.8949482" lon="10.2929863" version="1" timestamp="2022-04-14T17:24:37Z" changeset="119722501" uid="3497659" user="NKA">
		<tag k="name" v="Østbråtan" />
		<tag k="place" v="farm" />
		<tag k="ssr:stedsnr" v="689989" />
	</node>
	<node id="9666442417" lat="59.9397888" lon="10.2837275" version="1" timestamp="2022-04-14T17:24:37Z" changeset="119722501" uid="3497659" user="NKA">
		<tag k="name" v="Skjeggerud" />
		<tag k="place" v="isolated_dwelling" />
		<tag k="ssr:stedsnr" v="671378" />
	</node>
	<node id="9666442418" lat="59.855226" lon="10.2737308" version="1" timestamp="2022-04-14T17:24:37Z" changeset="119722501" uid="3497659" user="NKA">
		<tag k="alt_name" v="Nordhagen" />
		<tag k="name" v="Nordhagan" />
		<tag k="place" v="farm" />
		<tag k="ssr:stedsnr" v="325875" />
	</node>
	<node id="9666442419" lat="59.7680887" lon="10.2918605" version="1" timestamp="2022-04-14T17:24:37Z" changeset="119722501" uid="3497659" user="NKA">
		<tag k="name" v="Nordvestre Sørum" />
		<tag k="place" v="farm" />
		<tag k="ssr:stedsnr" v="446595" />
	</node>
	<node id="9666442420" lat="59.8084422" lon="10.208849" version="1" timestamp="2022-04-14T17:24:37Z" changeset="119722501" uid="3497659" user="NKA">
		<tag k="alt_name" v="Askvang" />
		<tag k="name" v="Ask" />
		<tag k="place" v="farm" />
		<tag k="ssr:stedsnr" v="64233" />
	</node>
	<node id="9666442421" lat="59.8507855" lon="10.2244718" version="1" timestamp="2022-04-14T17:24:37Z" changeset="119722501" uid="3497659" user="NKA">
		<tag k="name" v="Sole" />
		<tag k="place" v="farm" />
		<tag k="ssr:stedsnr" v="446399" />
	</node>
	<node id="9666442422" lat="59.8886316" lon="10.2332444" version="1" timestamp="2022-04-14T17:24:37Z" changeset="119722501" uid="3497659" user="NKA">
		<tag k="name" v="Runterud" />
		<tag k="place" v="farm" />
		<tag k="ssr:stedsnr" v="264169" />
	</node>
	<node id="9666442424" lat="59.9678888" lon="10.2791527" version="1" timestamp="2022-04-14T17:24:37Z" changeset="119722501" uid="3497659" user="NKA">
		<tag k="name" v="Hornstua" />
		<tag k="place" v="locality" />
		<tag k="ssr:stedsnr" v="185429" />
	</node>
	<node id="9666442425" lat="59.9265695" lon="10.2729639" version="1" timestamp="2022-04-14T17:24:37Z" changeset="119722501" uid="3497659" user="NKA">
		<tag k="name" v="Søndre Skustad" />
		<tag k="place" v="farm" />
		<tag k="ssr:stedsnr" v="749553" />
	</node>
	<node id="6373764983" lat="59.7290671" lon="10.3191597" version="1" timestamp="2019-03-31T11:56:21Z" changeset="68722269" uid="3190120" user="LarsChristianGamborg" />
	<node id="6373788537" lat="59.7322093" lon="10.3199076" version="1" timestamp="2019-03-31T12:20:42Z" changeset="68722821" uid="3190120" user="LarsChristianGamborg" />
	<node id="6373788538" lat="59.7317713" lon="10.3196394" version="1" timestamp="2019-03-31T12:20:42Z" changeset="68722821" uid="3190120" user="LarsChristianGamborg" />
	<node id="6373788539" lat="59.7315333" lon="10.3197145" version="1" timestamp="2019-03-31T12:20:42Z" changeset="68722821" uid="3190120" user="LarsChristianGamborg" />
	<node id="6373788540" lat="59.7308736" lon="10.3195536" version="1" timestamp="2019-03-31T12:20:42Z" changeset="68722821" uid="3190120" user="LarsChristianGamborg" />
	<node id="6373788541" lat="59.7304842" lon="10.3192424" version="1" timestamp="2019-03-31T12:20:42Z" changeset="68722821" uid="3190120" user="LarsChristianGamborg" />
	<node id="6373788542" lat="59.7300461" lon="10.319221" version="1" timestamp="2019-03-31T12:20:42Z" changeset="68722821" uid="3190120" user="LarsChristianGamborg" />
	<node id="6373788543" lat="59.7297433" lon="10.3188669" version="1" timestamp="2019-03-31T12:20:42Z" changeset="68722821" uid="3190120" user="LarsChristianGamborg" />
	<node id="2370366755" lat="59.7383791" lon="10.3200118" version="3" timestamp="2019-03-31T12:20:44Z" changeset="68722821" uid="3190120" user="LarsChristianGamborg" />
	<node id="2370366762" lat="59.7336533" lon="10.3202264" version="3" timestamp="2019-03-31T12:20:44Z" changeset="68722821" uid="3190120" user="LarsChristianGamborg" />
	<node id="2370367198" lat="59.7365218" lon="10.3207414" version="2" timestamp="2019-03-31T12:20:44Z" changeset="68722821" uid="3190120" user="LarsChristianGamborg" />
	<node id="6373788560" lat="59.7387291" lon="10.320428" version="1" timestamp="2019-03-31T12:20:42Z" changeset="68722821" uid="3190120" user="LarsChristianGamborg" />
	<node id="6373788561" lat="59.7388373" lon="10.3206908" version="1" timestamp="2019-03-31T12:20:42Z" changeset="68722821" uid="3190120" user="LarsChristianGamborg" />
	<node id="6373788562" lat="59.7390427" lon="10.3206264" version="1" timestamp="2019-03-31T12:20:42Z" changeset="68722821" uid="3190120" user="LarsChristianGamborg" />
	<node id="6373788563" lat="59.7391589" lon="10.3209966" version="1" timestamp="2019-03-31T12:20:42Z" changeset="68722821" uid="3190120" user="LarsChristianGamborg" />
	<node id="6373788620" lat="59.7367668" lon="10.3208209" version="1" timestamp="2019-03-31T12:20:43Z" changeset="68722821" uid="3190120" user="LarsChristianGamborg" />
	<node id="6373788621" lat="59.7370531" lon="10.3209255" version="1" timestamp="2019-03-31T12:20:43Z" changeset="68722821" uid="3190120" user="LarsChristianGamborg" />
	<node id="6373788622" lat="59.7375485" lon="10.3204285" version="1" timestamp="2019-03-31T12:20:43Z" changeset="68722821" uid="3190120" user="LarsChristianGamborg" />
	<node id="6373788623" lat="59.738612" lon="10.3202887" version="1" timestamp="2019-03-31T12:20:43Z" changeset="68722821" uid="3190120" user="LarsChristianGamborg" />
	<node id="6373788564" lat="59.7394482" lon="10.3213345" version="1" timestamp="2019-03-31T12:20:42Z" changeset="68722821" uid="3190120" user="LarsChristianGamborg" />
	<node id="6373788565" lat="59.7397375" lon="10.3212487" version="1" timestamp="2019-03-31T12:20:42Z" changeset="68722821" uid="3190120" user="LarsChristianGamborg" />
	<node id="6373788566" lat="59.7398672" lon="10.3209108" version="1" timestamp="2019-03-31T12:20:42Z" changeset="68722821" uid="3190120" user="LarsChristianGamborg" />
	<node id="6373788567" lat="59.7401348" lon="10.3210127" version="1" timestamp="2019-03-31T12:20:42Z" changeset="68722821" uid="3190120" user="LarsChristianGamborg" />
	<node id="6373788568" lat="59.7402754" lon="10.3207123" version="1" timestamp="2019-03-31T12:20:42Z" changeset="68722821" uid="3190120" user="LarsChristianGamborg" />
	<node id="6373788569" lat="59.7405079" lon="10.3207874" version="1" timestamp="2019-03-31T12:20:42Z" changeset="68722821" uid="3190120" user="LarsChristianGamborg" />
	<node id="6373788570" lat="59.7406133" lon="10.3209644" version="1" timestamp="2019-03-31T12:20:42Z" changeset="68722821" uid="3190120" user="LarsChristianGamborg" />
	<node id="6373788571" lat="59.7408188" lon="10.3207284" version="1" timestamp="2019-03-31T12:20:42Z" changeset="68722821" uid="3190120" user="LarsChristianGamborg" />
	<node id="6373788572" lat="59.7411837" lon="10.3206533" version="1" timestamp="2019-03-31T12:20:43Z" changeset="68722821" uid="3190120" user="LarsChristianGamborg" />
	<node id="6373788573" lat="59.7413161" lon="10.3210127" version="1" timestamp="2019-03-31T12:20:43Z" changeset="68722821" uid="3190120" user="LarsChristianGamborg" />
	<node id="6373788574" lat="59.7414026" lon="10.3209644" version="1" timestamp="2019-03-31T12:20:43Z" changeset="68722821" uid="3190120" user="LarsChristianGamborg" />
	<node id="6373788575" lat="59.7415378" lon="10.320605" version="1" timestamp="2019-03-31T12:20:43Z" changeset="68722821" uid="3190120" user="LarsChristianGamborg" />
	<node id="6373788576" lat="59.741754" lon="10.3202402" version="1" timestamp="2019-03-31T12:20:43Z" changeset="68722821" uid="3190120" user="LarsChristianGamborg" />
	<node id="6373788577" lat="59.7419595" lon="10.3198164" version="1" timestamp="2019-03-31T12:20:43Z" changeset="68722821" uid="3190120" user="LarsChristianGamborg" />
	<node id="6373788578" lat="59.7422271" lon="10.3200578" version="1" timestamp="2019-03-31T12:20:43Z" changeset="68722821" uid="3190120" user="LarsChristianGamborg" />
	<node id="6373788579" lat="59.7427245" lon="10.3194624" version="1" timestamp="2019-03-31T12:20:43Z" changeset="68722821" uid="3190120" user="LarsChristianGamborg" />
	<node id="6373788580" lat="59.7431596" lon="10.3194838" version="1" timestamp="2019-03-31T12:20:43Z" changeset="68722821" uid="3190120" user="LarsChristianGamborg" />
	<node id="6373788581" lat="59.7433732" lon="10.3196394" version="1" timestamp="2019-03-31T12:20:43Z" changeset="68722821" uid="3190120" user="LarsChristianGamborg" />
	<node id="6373788582" lat="59.743511" lon="10.3196769" version="1" timestamp="2019-03-31T12:20:43Z" changeset="68722821" uid="3190120" user="LarsChristianGamborg" />
	<node id="6373788583" lat="59.7440192" lon="10.3197413" version="1" timestamp="2019-03-31T12:20:43Z" changeset="68722821" uid="3190120" user="LarsChristianGamborg" />
	<node id="6373788584" lat="59.74423" lon="10.3195428" version="1" timestamp="2019-03-31T12:20:43Z" changeset="68722821" uid="3190120" user="LarsChristianGamborg" />
	<node id="6373788585" lat="59.74433" lon="10.3195482" version="1" timestamp="2019-03-31T12:20:43Z" changeset="68722821" uid="3190120" user="LarsChristianGamborg" />
	<node id="6373788586" lat="59.7443598" lon="10.3199559" version="1" timestamp="2019-03-31T12:20:43Z" changeset="68722821" uid="3190120" user="LarsChristianGamborg" />
	<node id="6942984869" lat="59.8160818" lon="10.2478434" version="1" timestamp="2019-11-03T14:20:25Z" changeset="76552628" uid="3497659" user="NKA" />
	<node id="6943031078" lat="59.8159464" lon="10.2480538" version="1" timestamp="2019-11-03T14:20:37Z" changeset="76552636" uid="3497659" user="NKA" />
	<node id="6943031079" lat="59.8159577" lon="10.2480915" version="1" timestamp="2019-11-03T14:20:37Z" changeset="76552636" uid="3497659" user="NKA" />
	<node id="6943031080" lat="59.8159819" lon="10.2481399" version="1" timestamp="2019-11-03T14:20:37Z" changeset="76552636" uid="3497659" user="NKA" />
	<node id="6943031081" lat="59.8160033" lon="10.24816" version="1" timestamp="2019-11-03T14:20:37Z" changeset="76552636" uid="3497659" user="NKA" />
	<node id="6943031082" lat="59.8160252" lon="10.2481676" version="1" timestamp="2019-11-03T14:20:37Z" changeset="76552636" uid="3497659" user="NKA" />
	<node id="6943031083" lat="59.8160476" lon="10.2481644" version="1" timestamp="2019-11-03T14:20:37Z" changeset="76552636" uid="3497659" user="NKA" />
	<node id="6943031084" lat="59.8160791" lon="10.2481403" version="1" timestamp="2019-11-03T14:20:37Z" changeset="76552636" uid="3497659" user="NKA" />
	<node id="6943031085" lat="59.8160969" lon="10.2481109" version="1" timestamp="2019-11-03T14:20:37Z" changeset="76552636" uid="3497659" user="NKA" />
	<node id="6943031086" lat="59.8161147" lon="10.2480548" version="1" timestamp="2019-11-03T14:20:37Z" changeset="76552636" uid="3497659" user="NKA" />
	<node id="6943031087" lat="59.816121" lon="10.247987" version="1" timestamp="2019-11-03T14:20:37Z" changeset="76552636" uid="3497659" user="NKA" />
	<node id="6943031088" lat="59.816119" lon="10.2479506" version="1" timestamp="2019-11-03T14:20:37Z" changeset="76552636" uid="3497659" user="NKA" />
	<node id="6943031089" lat="59.816105" lon="10.2478883" version="1" timestamp="2019-11-03T14:20:37Z" changeset="76552636" uid="3497659" user="NKA" />
	<node id="6943031090" lat="59.8160502" lon="10.247814" version="1" timestamp="2019-11-03T14:20:37Z" changeset="76552636" uid="3497659" user="NKA" />
	<node id="6943031091" lat="59.816016" lon="10.2478135" version="1" timestamp="2019-11-03T14:20:37Z" changeset="76552636" uid="3497659" user="NKA" />
	<node id="6943031092" lat="59.8159948" lon="10.2478255" version="1" timestamp="2019-11-03T14:20:37Z" changeset="76552636" uid="3497659" user="NKA" />
	<node id="6943031093" lat="59.8159666" lon="10.2478652" version="1" timestamp="2019-11-03T14:20:37Z" changeset="76552636" uid="3497659" user="NKA" />
	<node id="6943031094" lat="59.81596" lon="10.2478822" version="1" timestamp="2019-11-03T14:20:37Z" changeset="76552636" uid="3497659" user="NKA" />
	<node id="6943031095" lat="59.8159479" lon="10.2479215" version="1" timestamp="2019-11-03T14:20:37Z" changeset="76552636" uid="3497659" user="NKA" />
	<node id="6943031096" lat="59.8159423" lon="10.2479633" version="1" timestamp="2019-11-03T14:20:37Z" changeset="76552636" uid="3497659" user="NKA" />
	<node id="6943031097" lat="59.8159421" lon="10.2480098" version="1" timestamp="2019-11-03T14:20:37Z" changeset="76552636" uid="3497659" user="NKA" />
	<way id="5741501" version="13" timestamp="2022-01-31T06:42:31Z" changeset="116807300" uid="3497659" user="NKA">
		<tag k="highway" v="primary" />
		<tag k="junction" v="roundabout" />
		<tag k="maxspeed" v="60" />
		<tag k="name" v="Lyngåskrysset" />
		<tag k="old_ref" v="282" />
		<tag k="oneway" v="yes" />
		<tag k="ref" v="285" />
		<tag k="ssr:stedsnr" v="447894" />
		<tag k="surface" v="asphalt" />
		<nd ref="6943031093" />
		<nd ref="6943031094" />
		<nd ref="6943031095" />
		<nd ref="6943031096" />
		<nd ref="6943031097" />
		<nd ref="6943031078" />
		<nd ref="6943031079" />
		<nd ref="6943031080" />
		<nd ref="6943031081" />
		<nd ref="6943031082" />
		<nd ref="6943031083" />
		<nd ref="6943031084" />
		<nd ref="6943031085" />
		<nd ref="6943031086" />
		<nd ref="6943031087" />
		<nd ref="6943031088" />
		<nd ref="6943031089" />
		<nd ref="6942984869" />
		<nd ref="6943031090" />
		<nd ref="6943031091" />
		<nd ref="6943031092" />
		<nd ref="6943031093" />
	</way>
	<way id="228359851" version="4" timestamp="2019-03-31T12:20:44Z" changeset="68722821" uid="3190120" user="LarsChristianGamborg">
		<tag k="name" v="Dauerudbekken" />
		<tag k="source:name" v="Kartverket" />
		<tag k="ssr:stedsnr" v="306351" />
		<tag k="waterway" v="stream" />
		<nd ref="6373788586" />
		<nd ref="6373788585" />
		<nd ref="6373788584" />
		<nd ref="6373788583" />
		<nd ref="6373788582" />
		<nd ref="6373788581" />
		<nd ref="6373788580" />
		<nd ref="6373788579" />
		<nd ref="6373788578" />
		<nd ref="6373788577" />
		<nd ref="6373788576" />
		<nd ref="6373788575" />
		<nd ref="6373788574" />
		<nd ref="6373788573" />
		<nd ref="6373788572" />
		<nd ref="6373788571" />
		<nd ref="6373788570" />
		<nd ref="6373788569" />
		<nd ref="6373788568" />
		<nd ref="6373788567" />
		<nd ref="6373788566" />
		<nd ref="6373788565" />
		<nd ref="6373788564" />
		<nd ref="6373788563" />
		<nd ref="6373788562" />
		<nd ref="6373788561" />
		<nd ref="6373788560" />
		<nd ref="6373788623" />
	</way>
	<way id="680692180" version="1" timestamp="2019-03-31T12:20:43Z" changeset="68722821" uid="3190120" user="LarsChristianGamborg">
		<tag k="layer" v="-1" />
		<tag k="name" v="Dauerudbekken" />
		<tag k="source:name" v="Kartverket" />
		<tag k="ssr:stedsnr" v="306351" />
		<tag k="tunnel" v="culvert" />
		<tag k="waterway" v="stream" />
		<nd ref="6373788543" />
		<nd ref="6373764983" />
	</way>
	<way id="680692188" version="1" timestamp="2019-03-31T12:20:44Z" changeset="68722821" uid="3190120" user="LarsChristianGamborg">
		<tag k="name" v="Dauerudbekken" />
		<tag k="source:name" v="Kartverket" />
		<tag k="ssr:stedsnr" v="306351" />
		<tag k="waterway" v="stream" />
		<nd ref="6373788622" />
		<nd ref="6373788621" />
		<nd ref="6373788620" />
		<nd ref="2370367198" />
		<nd ref="2370366762" />
		<nd ref="6373788537" />
		<nd ref="6373788538" />
		<nd ref="6373788539" />
		<nd ref="6373788540" />
		<nd ref="6373788541" />
		<nd ref="6373788542" />
		<nd ref="6373788543" />
	</way>
	<way id="680692189" version="1" timestamp="2019-03-31T12:20:44Z" changeset="68722821" uid="3190120" user="LarsChristianGamborg">
		<tag k="layer" v="-1" />
		<tag k="name" v="Dauerudbekken" />
		<tag k="source:name" v="Kartverket" />
		<tag k="ssr:stedsnr" v="306351" />
		<tag k="tunnel" v="culvert" />
		<tag k="waterway" v="stream" />
		<nd ref="6373788623" />
		<nd ref="2370366755" />
		<nd ref="6373788622" />
	</way>
</osm>
