<?xml version="1.0" encoding="UTF-8"?>
<osm generator="osmapis" version="0.6">
	<node id="-454656" lat="60.4004694423" lon="6.62194166175">
		<tag k="name" v="Myrane" />
		<tag k="natural" v="wetland" />
		<tag k="ssr:stedsnr" v="38077" />
	</node>
	<node id="-455164" lat="60.4261681915" lon="6.60872411795">
		<tag k="name" v="Sletthagen" />
		<tag k="place" v="locality" />
		<tag k="ssr:stedsnr" v="221099" />
	</node>
	<node id="-455160" lat="60.3986055589" lon="6.65594444776">
		<tag k="name" v="Esjehagen" />
		<tag k="place" v="locality" />
		<tag k="ssr:stedsnr" v="221009" />
	</node>
	<node id="-455671" lat="60.3955944435" lon="6.62410555267">
		<tag k="name" v="Utnesmyr" />
		<tag k="natural" v="wetland" />
		<tag k="ssr:stedsnr" v="584086" />
	</node>
	<node id="-455667" lat="60.428127777" lon="6.57814723055">
		<tag k="name" v="Skrubbamyri" />
		<tag k="natural" v="wetland" />
		<tag k="ssr:stedsnr" v="584057" />
	</node>
	<node id="-455148" lat="60.4210694422" lon="6.75324166499">
		<tag k="name" v="Gråur" />
		<tag k="natural" v="scree" />
		<tag k="ssr:stedsnr" v="220789" />
	</node>
	<node id="-456171" lat="60.2060388926" lon="6.63438611269">
		<tag k="name" v="Klovsteinane" />
		<tag k="natural" v="stone" />
		<tag k="ssr:stedsnr" v="767465" />
	</node>
	<node id="-456169" lat="60.2315000001" lon="6.63512499958">
		<tag k="name" v="Klovsteinane" />
		<tag k="natural" v="stone" />
		<tag k="ssr:stedsnr" v="767456" />
	</node>
	<node id="-454117" lat="60.2913527781" lon="6.58136667229">
		<tag k="name" v="Svorteskred" />
		<tag k="place" v="locality" />
		<tag k="ssr:stedsnr" v="281945" />
	</node>
	<node id="-454627" lat="60.4255500038" lon="6.54455554744">
		<tag k="name" v="Skarpeleira" />
		<tag k="place" v="locality" />
		<tag k="ssr:stedsnr" v="6145" />
	</node>
	<node id="-454619" lat="60.2716888851" lon="7.1520861064">
		<tag k="name" v="Hallaskarmyrane" />
		<tag k="natural" v="wetland" />
		<tag k="ssr:stedsnr" v="5598" />
	</node>
	<node id="-456148" lat="60.4600944442" lon="6.82499722716">
		<tag k="name" v="Storhaugmyri" />
		<tag k="natural" v="wetland" />
		<tag k="ssr:stedsnr" v="766725" />
	</node>
	<node id="-455122" lat="60.2868194412" lon="6.96372221525">
		<tag k="name" v="Hanastein" />
		<tag k="natural" v="stone" />
		<tag k="ssr:stedsnr" v="204161" />
	</node>
	<node id="-455119" lat="60.4274222212" lon="6.61442500197">
		<tag k="name" v="Ytrehagen" />
		<tag k="place" v="locality" />
		<tag k="ssr:stedsnr" v="204155" />
	</node>
	<node id="-455118" lat="60.3783277812" lon="6.78838056293">
		<tag k="name" v="Kviteskred" />
		<tag k="natural" v="scree" />
		<tag k="ssr:stedsnr" v="204152" />
	</node>
	<node id="-455116" lat="60.1060388934" lon="7.0981388875">
		<tag k="name" v="Stormstein" />
		<tag k="natural" v="stone" />
		<tag k="ssr:stedsnr" v="203994" />
	</node>
	<node id="-454091" lat="60.4530194466" lon="6.73651943923">
		<tag k="name" v="Bjørnesteinen" />
		<tag k="natural" v="stone" />
		<tag k="ssr:stedsnr" v="281699" />
	</node>
	<node id="-454863" lat="60.3643777799" lon="6.68581389018">
		<tag k="name" v="Gullurstein" />
		<tag k="natural" v="stone" />
		<tag k="ssr:stedsnr" v="99628" />
	</node>
	<node id="-454082" lat="60.3743735567" lon="6.69727475527">
		<tag k="name" v="Tordivlane" />
		<tag k="natural" v="stone" />
		<tag k="ssr:stedsnr" v="281589" />
	</node>
	<node id="-456128" lat="60.2314916652" lon="6.62687777248">
		<tag k="name" v="Sprelkeldeur" />
		<tag k="natural" v="scree" />
		<tag k="ssr:stedsnr" v="766455" />
	</node>
	<node id="-456125" lat="60.2807388875" lon="6.56325278175">
		<tag k="historic" v="shieling" />
		<tag k="name" v="Fitjasete" />
		<tag k="place" v="locality" />
		<tag k="ssr:stedsnr" v="766210" />
	</node>
	<node id="-454076" lat="60.3219592761" lon="6.65124225967">
		<tag k="name" v="Øyri" />
		<tag k="place" v="locality" />
		<tag k="ssr:stedsnr" v="281530" />
	</node>
	<node id="-454986" lat="60.4405333326" lon="6.83043888834">
		<tag k="name" v="Løstein" />
		<tag k="natural" v="stone" />
		<tag k="ssr:stedsnr" v="159705" />
	</node>
	<node id="-455094" lat="60.2073888909" lon="6.67977500185">
		<tag k="name" v="Brundaresteinen" />
		<tag k="natural" v="stone" />
		<tag k="ssr:stedsnr" v="187450" />
	</node>
	<node id="-454065" lat="60.2768805549" lon="6.56814166095">
		<tag k="name" v="Slåttena" />
		<tag k="place" v="locality" />
		<tag k="ssr:stedsnr" v="281223" />
	</node>
	<node id="-454063" lat="60.2537770217" lon="6.56764542596">
		<tag k="landuse" v="meadow" />
		<tag k="name" v="Tjukkateig" />
		<tag k="ssr:stedsnr" v="281203" />
	</node>
	<node id="-454568" lat="60.0208749982" lon="6.30709165878">
		<tag k="name" v="Folgefonna" />
		<tag k="natural" v="glacier" />
		<tag k="ssr:stedsnr" v="307423" />
	</node>
	<node id="-455590" lat="60.1423146194" lon="6.92220121248">
		<tag k="name" v="Selhæfonn" />
		<tag k="place" v="locality" />
		<tag k="ssr:stedsnr" v="550400" />
	</node>
	<node id="-455068" lat="60.1053583343" lon="7.42866110594">
		<tag k="name" v="Storemyr" />
		<tag k="natural" v="wetland" />
		<tag k="ssr:stedsnr" v="186754" />
	</node>
	<node id="-455571" lat="60.2220722225" lon="6.5535194355">
		<tag k="historic" v="shieling" />
		<tag k="name" v="Øvstestølen" />
		<tag k="place" v="locality" />
		<tag k="ssr:stedsnr" v="524943" />
	</node>
	<node id="-455570" lat="60.2865777798" lon="6.58227778232">
		<tag k="name" v="Rogdaurane" />
		<tag k="natural" v="scree" />
		<tag k="ssr:stedsnr" v="524919" />
	</node>
	<node id="-455569" lat="60.2801694481" lon="6.5850138821">
		<tag k="name" v="Rygg" />
		<tag k="natural" v="stone" />
		<tag k="ssr:stedsnr" v="524918" />
	</node>
	<node id="-456073" lat="60.3193500033" lon="7.08322777562">
		<tag k="name" v="Austmannamyri" />
		<tag k="natural" v="wetland" />
		<tag k="ssr:stedsnr" v="733478" />
	</node>
	<node id="-455560" lat="60.3044000027" lon="6.60835555613">
		<tag k="name" v="Myrane" />
		<tag k="natural" v="wetland" />
		<tag k="ssr:stedsnr" v="524805" />
	</node>
	<node id="-455557" lat="60.3734388903" lon="6.75106110333">
		<tag k="historic" v="shieling" />
		<tag k="name" v="Mjølkestaden" />
		<tag k="place" v="locality" />
		<tag k="ssr:stedsnr" v="524737" />
	</node>
	<node id="-454532" lat="60.3453805537" lon="6.46587500543">
		<tag k="historic" v="shieling" />
		<tag k="name" v="Vatnasete" />
		<tag k="place" v="locality" />
		<tag k="ssr:stedsnr" v="159100" />
	</node>
	<node id="-454294" lat="60.3853111082" lon="6.50712499554">
		<tag k="name" v="Kalhagen" />
		<tag k="place" v="locality" />
		<tag k="ssr:stedsnr" v="342974" />
	</node>
	<node id="-454521" lat="60.2138333376" lon="6.56520555159">
		<tag k="historic" v="shieling" />
		<tag k="name" v="Seten" />
		<tag k="place" v="locality" />
		<tag k="ssr:stedsnr" v="888969" />
	</node>
	<node id="-455032" lat="60.2759166678" lon="6.57565556118">
		<tag k="name" v="Urane" />
		<tag k="natural" v="scree" />
		<tag k="ssr:stedsnr" v="160839" />
	</node>
	<node id="-455031" lat="60.4137250004" lon="6.63814722704">
		<tag k="name" v="Reisetehagen" />
		<tag k="place" v="locality" />
		<tag k="ssr:stedsnr" v="160829" />
	</node>
	<node id="-455030" lat="60.2883472202" lon="6.5823083363">
		<tag k="name" v="Rogdamyri" />
		<tag k="natural" v="wetland" />
		<tag k="ssr:stedsnr" v="160812" />
	</node>
	<node id="-454517" lat="60.2028472188" lon="6.55057499733">
		<tag k="name" v="Geitnaskarv" />
		<tag k="place" v="locality" />
		<tag k="ssr:stedsnr" v="888947" />
	</node>
	<node id="-456052" lat="60.1933861109" lon="6.84865000801">
		<tag k="name" v="Steinen" />
		<tag k="natural" v="stone" />
		<tag k="ssr:stedsnr" v="732537" />
	</node>
	<node id="-455536" lat="60.3704138868" lon="6.68631110258">
		<tag k="name" v="Flatastein" />
		<tag k="natural" v="stone" />
		<tag k="ssr:stedsnr" v="524521" />
	</node>
	<node id="-456559" lat="60.291430557" lon="6.59101111041">
		<tag k="name" v="Lessingestein" />
		<tag k="natural" v="stone" />
		<tag k="ssr:stedsnr" v="949796" />
	</node>
	<node id="-455020" lat="60.3740241907" lon="6.71898938943">
		<tag k="name" v="Krossåkeren" />
		<tag k="place" v="locality" />
		<tag k="ssr:stedsnr" v="160521" />
	</node>
	<node id="-455015" lat="60.3182583322" lon="6.67460833484">
		<tag k="name" v="Bråstein" />
		<tag k="natural" v="stone" />
		<tag k="ssr:stedsnr" v="160482" />
	</node>
	<node id="-456038" lat="60.213347223" lon="6.54326388011">
		<tag k="historic" v="shieling" />
		<tag k="name" v="Lindvikstølen" />
		<tag k="place" v="locality" />
		<tag k="ssr:stedsnr" v="706962" />
	</node>
	<node id="-456034" lat="60.3620132108" lon="6.40582991404">
		<tag k="name" v="Langemyr" />
		<tag k="natural" v="wetland" />
		<tag k="ssr:stedsnr" v="706931" />
	</node>
	<node id="-455516" lat="60.379085466" lon="6.62052372422">
		<tag k="name" v="Slåtten" />
		<tag k="place" v="locality" />
		<tag k="ssr:stedsnr" v="524064" />
	</node>
	<node id="-455515" lat="60.3834166668" lon="6.74824722543">
		<tag k="name" v="Gråur" />
		<tag k="natural" v="scree" />
		<tag k="ssr:stedsnr" v="523837" />
	</node>
	<node id="-456538" lat="60.2889805534" lon="6.64319166808">
		<tag k="name" v="Markastein" />
		<tag k="natural" v="stone" />
		<tag k="ssr:stedsnr" v="949427" />
	</node>
	<node id="-456025" lat="60.4641611117" lon="6.66382777972">
		<tag k="name" v="Hamreskredane" />
		<tag k="natural" v="scree" />
		<tag k="ssr:stedsnr" v="706746" />
	</node>
	<node id="-455000" lat="60.409086115" lon="6.6298916711">
		<tag k="name" v="Litlehagen" />
		<tag k="place" v="locality" />
		<tag k="ssr:stedsnr" v="160116" />
	</node>
	<node id="-454486" lat="60.365963887" lon="6.72661943569">
		<tag k="name" v="Erreflaten" />
		<tag k="place" v="locality" />
		<tag k="ssr:stedsnr" v="888559" />
	</node>
	<node id="-454485" lat="60.37145833" lon="6.72278055176">
		<tag k="name" v="Hjallane" />
		<tag k="place" v="locality" />
		<tag k="ssr:stedsnr" v="888553" />
	</node>
	<node id="-455507" lat="60.4063555561" lon="6.53682223122">
		<tag k="historic" v="shieling" />
		<tag k="name" v="Forsete" />
		<tag k="place" v="locality" />
		<tag k="ssr:stedsnr" v="523139" />
	</node>
	<node id="-454774" lat="60.3724861095" lon="6.95750555905">
		<tag k="name" v="Dyrafonn" />
		<tag k="natural" v="glacier" />
		<tag k="ssr:stedsnr" v="66251" />
	</node>
	<node id="-455505" lat="60.3934552868" lon="6.62887032991">
		<tag k="historic" v="shieling" />
		<tag k="name" v="Langasetemånene" />
		<tag k="place" v="locality" />
		<tag k="ssr:stedsnr" v="523103" />
	</node>
	<node id="-454990" lat="60.4414388918" lon="6.85794166783">
		<tag k="name" v="Kvannuri" />
		<tag k="natural" v="scree" />
		<tag k="ssr:stedsnr" v="159779" />
	</node>
	<node id="-456524" lat="60.3726583325" lon="6.62282777049">
		<tag k="name" v="Olauri" />
		<tag k="natural" v="scree" />
		<tag k="ssr:stedsnr" v="949068" />
	</node>
	<node id="-456010" lat="60.4440777782" lon="6.81495277581">
		<tag k="name" v="Skjerastein" />
		<tag k="natural" v="stone" />
		<tag k="ssr:stedsnr" v="706610" />
	</node>
	<node id="-456521" lat="60.4133527761" lon="6.63003888504">
		<tag k="name" v="Storemyr" />
		<tag k="natural" v="wetland" />
		<tag k="ssr:stedsnr" v="949023" />
	</node>
	<node id="-455493" lat="60.2812277739" lon="6.5118388897">
		<tag k="name" v="Brottefonn" />
		<tag k="natural" v="glacier" />
		<tag k="ssr:stedsnr" v="491527" />
	</node>
	<node id="-456516" lat="60.4277499992" lon="6.7513499916">
		<tag k="name" v="Errefloten" />
		<tag k="place" v="locality" />
		<tag k="ssr:stedsnr" v="948806" />
	</node>
	<node id="-456001" lat="60.363119444" lon="6.72962221897">
		<tag k="name" v="Sagflatane" />
		<tag k="place" v="locality" />
		<tag k="ssr:stedsnr" v="706568" />
	</node>
	<node id="-456000" lat="60.3659194447" lon="6.74222221993">
		<tag k="name" v="Tjukkaskog" />
		<tag k="place" v="locality" />
		<tag k="ssr:stedsnr" v="706556" />
	</node>
	<node id="-454460" lat="60.3756000012" lon="6.56143333072">
		<tag k="name" v="Fossdalbeitet" />
		<tag k="place" v="locality" />
		<tag k="ssr:stedsnr" v="888146" />
	</node>
	<node id="-455995" lat="60.3717067559" lon="6.69866817804">
		<tag k="name" v="Daurmålstein" />
		<tag k="natural" v="stone" />
		<tag k="ssr:stedsnr" v="706520" />
	</node>
	<node id="-454458" lat="60.3957638848" lon="6.56419166833">
		<tag k="name" v="Kollesteinen" />
		<tag k="natural" v="stone" />
		<tag k="ssr:stedsnr" v="888099" />
	</node>
	<node id="-454457" lat="60.4260750037" lon="6.60145278612">
		<tag k="name" v="Øyjordi" />
		<tag k="place" v="locality" />
		<tag k="ssr:stedsnr" v="888078" />
	</node>
	<node id="-454963" lat="60.2513249975" lon="6.76713611494">
		<tag k="name" v="Stykmorfennene" />
		<tag k="place" v="locality" />
		<tag k="ssr:stedsnr" v="143168" />
	</node>
	<node id="-454450" lat="60.4584194449" lon="6.83390000634">
		<tag k="name" v="Ospeskogen" />
		<tag k="place" v="locality" />
		<tag k="ssr:stedsnr" v="887725" />
	</node>
	<node id="-455472" lat="60.2284416639" lon="6.52917499433">
		<tag k="name" v="Nonssteinen" />
		<tag k="natural" v="stone" />
		<tag k="ssr:stedsnr" v="490819" />
	</node>
	<node id="-454959" lat="60.3322138855" lon="7.08081944144">
		<tag k="historic" v="shieling" />
		<tag k="name" v="Gamlestøl" />
		<tag k="place" v="locality" />
		<tag k="ssr:stedsnr" v="142588" />
	</node>
	<node id="-454446" lat="60.3474388915" lon="6.62426943557">
		<tag k="name" v="Kalvhagen" />
		<tag k="place" v="locality" />
		<tag k="ssr:stedsnr" v="887149" />
	</node>
	<node id="-454955" lat="60.2841805515" lon="6.90745000778">
		<tag k="name" v="Kyrmyssene" />
		<tag k="natural" v="wetland" />
		<tag k="ssr:stedsnr" v="127715" />
	</node>
	<node id="-455975" lat="60.4203444419" lon="6.58183611932">
		<tag k="name" v="Nonstein" />
		<tag k="natural" v="stone" />
		<tag k="ssr:stedsnr" v="706085" />
	</node>
	<node id="-454950" lat="60.2456611148" lon="6.54011111768">
		<tag k="name" v="Skrelet" />
		<tag k="natural" v="scree" />
		<tag k="ssr:stedsnr" v="126778" />
	</node>
	<node id="-456496" lat="60.0312250012" lon="7.38155555109">
		<tag k="name" v="Reinsmyr" />
		<tag k="natural" v="wetland" />
		<tag k="ssr:stedsnr" v="932930" />
	</node>
	<node id="-454940" lat="60.1942000038" lon="6.7304305566">
		<tag k="name" v="Henrikssteinen" />
		<tag k="natural" v="stone" />
		<tag k="ssr:stedsnr" v="126498" />
	</node>
	<node id="-454420" lat="60.4154361093" lon="6.62084166396">
		<tag k="historic" v="shieling" />
		<tag k="name" v="Mjøstølen" />
		<tag k="place" v="locality" />
		<tag k="ssr:stedsnr" v="403029" />
	</node>
	<node id="-454414" lat="60.2358416695" lon="6.55570000761">
		<tag k="landuse" v="quarry" />
		<tag k="name" v="Liabrot" />
		<tag k="ssr:stedsnr" v="402983" />
	</node>
	<node id="-454411" lat="60.4353611075" lon="6.57858610463">
		<tag k="name" v="Tjukkapas" />
		<tag k="place" v="locality" />
		<tag k="ssr:stedsnr" v="402942" />
	</node>
	<node id="-455939" lat="60.3279805591" lon="6.60429721316">
		<tag k="name" v="Svinaskreda" />
		<tag k="natural" v="scree" />
		<tag k="place" v="locality" />
		<tag k="ssr:stedsnr" v="689208" />
	</node>
	<node id="-454443" lat="60.461836107" lon="6.63212499419">
		<tag k="name" v="Matur" />
		<tag k="natural" v="scree" />
		<tag k="old_name" v="Maturd" />
		<tag k="ssr:stedsnr" v="408240" />
	</node>
	<node id="-454399" lat="60.4717222249" lon="6.73856666684">
		<tag k="name" v="Jordbærsteinane" />
		<tag k="natural" v="stone" />
		<tag k="ssr:stedsnr" v="402731" />
	</node>
	<node id="-455934" lat="60.3226166705" lon="6.60559444068">
		<tag k="name" v="Lindeskreda" />
		<tag k="natural" v="scree" />
		<tag k="ssr:stedsnr" v="689188" />
	</node>
	<node id="-455419" lat="60.2076750019" lon="6.54435556008">
		<tag k="historic" v="shieling" />
		<tag k="name" v="Seten" />
		<tag k="place" v="locality" />
		<tag k="ssr:stedsnr" v="463955" />
	</node>
	<node id="-455418" lat="60.3832805537" lon="6.74670277152">
		<tag k="name" v="Gråur" />
		<tag k="natural" v="scree" />
		<tag k="ssr:stedsnr" v="463887" />
	</node>
	<node id="-455417" lat="60.4169944451" lon="6.63795278414">
		<tag k="name" v="Almeteigen" />
		<tag k="place" v="locality" />
		<tag k="ssr:stedsnr" v="463847" />
	</node>
	<node id="-455416" lat="60.3743777821" lon="6.64592500328">
		<tag k="name" v="Sanden" />
		<tag k="natural" v="beach" />
		<tag k="ssr:stedsnr" v="463844" />
		<tag k="surface" v="sand" />
	</node>
	<node id="-455124" lat="60.2804833345" lon="6.98401388435">
		<tag k="name" v="Likstein" />
		<tag k="natural" v="stone" />
		<tag k="ssr:stedsnr" v="204576" />
	</node>
	<node id="-456432" lat="60.371241671" lon="6.79430277485">
		<tag k="name" v="Kviteskred" />
		<tag k="natural" v="scree" />
		<tag k="ssr:stedsnr" v="872205" />
	</node>
	<node id="-456429" lat="60.2816027767" lon="6.97490000791">
		<tag k="historic" v="shieling" />
		<tag k="name" v="Gunnhildestøl" />
		<tag k="place" v="locality" />
		<tag k="ssr:stedsnr" v="871579" />
	</node>
	<node id="-454891" lat="60.3500305514" lon="6.49029721415">
		<tag k="name" v="Lauvamyr" />
		<tag k="natural" v="wetland" />
		<tag k="ssr:stedsnr" v="99920" />
	</node>
	<node id="-454887" lat="60.3769750045" lon="6.72115277968">
		<tag k="name" v="Grandane" />
		<tag k="natural" v="beach" />
		<tag k="ssr:stedsnr" v="99879" />
		<tag k="surface" v="sand" />
	</node>
	<node id="-456420" lat="60.2547527786" lon="7.05908333781">
		<tag k="name" v="Karihella" />
		<tag k="natural" v="stone" />
		<tag k="ssr:stedsnr" v="855628" />
	</node>
	<node id="-454883" lat="60.3014361128" lon="6.58407499103">
		<tag k="name" v="Resesuri" />
		<tag k="natural" v="scree" />
		<tag k="ssr:stedsnr" v="99856" />
	</node>
	<node id="-454370" lat="60.4314722258" lon="6.571808326">
		<tag k="name" v="Skrottamyri" />
		<tag k="natural" v="wetland" />
		<tag k="ssr:stedsnr" v="402093" />
	</node>
	<node id="-454361" lat="60.3693070859" lon="6.63142214365">
		<tag k="name" v="Håhaugsteinen" />
		<tag k="natural" v="stone" />
		<tag k="ssr:stedsnr" v="386196" />
	</node>
	<node id="-454869" lat="60.465722223" lon="6.72011667055">
		<tag k="name" v="Moltemyrane" />
		<tag k="natural" v="wetland" />
		<tag k="ssr:stedsnr" v="99705" />
	</node>
	<node id="-456056" lat="60.4107027745" lon="6.55464445094">
		<tag k="name" v="Hellesteinen" />
		<tag k="natural" v="stone" />
		<tag k="ssr:stedsnr" v="733176" />
	</node>
	<node id="-455883" lat="60.2308999997" lon="6.80674722296">
		<tag k="name" v="Træsfonn" />
		<tag k="place" v="locality" />
		<tag k="ssr:stedsnr" v="672002" />
	</node>
	<node id="-455707" lat="60.4683416705" lon="6.72722221644">
		<tag k="name" v="Storsteinsmyri" />
		<tag k="natural" v="wetland" />
		<tag k="ssr:stedsnr" v="584696" />
	</node>
	<node id="-455363" lat="60.4114583301" lon="6.6119388937">
		<tag k="name" v="Mosur" />
		<tag k="natural" v="scree" />
		<tag k="ssr:stedsnr" v="463135" />
	</node>
	<node id="-454859" lat="60.3842444449" lon="6.68665000388">
		<tag k="name" v="Slåtta" />
		<tag k="place" v="locality" />
		<tag k="ssr:stedsnr" v="99596" />
	</node>
	<node id="-455872" lat="60.1955166622" lon="6.54786666095">
		<tag k="name" v="Breiaskarv" />
		<tag k="place" v="locality" />
		<tag k="ssr:stedsnr" v="645987" />
	</node>
	<node id="-455359" lat="60.4277555528" lon="6.58630277747">
		<tag k="historic" v="shieling" />
		<tag k="name" v="Mjøstølen" />
		<tag k="place" v="locality" />
		<tag k="ssr:stedsnr" v="463084" />
	</node>
	<node id="-455870" lat="60.3742194445" lon="6.46405556282">
		<tag k="historic" v="shieling" />
		<tag k="name" v="Mjøstølen" />
		<tag k="place" v="locality" />
		<tag k="ssr:stedsnr" v="645888" />
	</node>
	<node id="-455357" lat="60.3955499995" lon="6.61886944022">
		<tag k="name" v="Langaskarv" />
		<tag k="place" v="locality" />
		<tag k="ssr:stedsnr" v="463062" />
	</node>
	<node id="-455354" lat="60.4093326795" lon="6.66392392902">
		<tag k="historic" v="shieling" />
		<tag k="name" v="Nesmjøstølen" />
		<tag k="place" v="locality" />
		<tag k="ssr:stedsnr" v="463006" />
	</node>
	<node id="-454841" lat="60.2121083351" lon="6.60671666777">
		<tag k="name" v="Kolastein" />
		<tag k="natural" v="stone" />
		<tag k="ssr:stedsnr" v="99446" />
	</node>
	<node id="-454839" lat="60.323866667" lon="6.60492500665">
		<tag k="name" v="Bersastein" />
		<tag k="natural" v="stone" />
		<tag k="ssr:stedsnr" v="99212" />
	</node>
	<node id="-454838" lat="60.3893916684" lon="6.54748889672">
		<tag k="name" v="Viersmyr" />
		<tag k="natural" v="wetland" />
		<tag k="ssr:stedsnr" v="99181" />
	</node>
	<node id="-454837" lat="60.409011114" lon="6.61488056199">
		<tag k="name" v="Herborgslåtta" />
		<tag k="place" v="locality" />
		<tag k="ssr:stedsnr" v="99171" />
	</node>
	<node id="-454324" lat="60.3993638887" lon="6.54327499465">
		<tag k="alt_name" v="Settehaugsmyri" />
		<tag k="name" v="Slettemyri" />
		<tag k="natural" v="wetland" />
		<tag k="ssr:stedsnr" v="369153" />
	</node>
	<node id="-454686" lat="60.3848472199" lon="6.6866250018">
		<tag k="name" v="Nyeteigen" />
		<tag k="place" v="locality" />
		<tag k="ssr:stedsnr" v="38593" />
	</node>
	<node id="-455858" lat="60.4376138903" lon="6.6937888806">
		<tag k="name" v="Klovsteinen" />
		<tag k="natural" v="stone" />
		<tag k="ssr:stedsnr" v="645633" />
	</node>
	<node id="-454828" lat="60.3901290128" lon="6.61288288365">
		<tag k="fixme" v="multiple name tags, choose one and add the other to alt_name" />
		<tag k="historic" v="shieling" />
		<tag k="name" v="Hausastølen;Sjusete" />
		<tag k="place" v="locality" />
		<tag k="ssr:stedsnr" v="99069" />
	</node>
	<node id="-455848" lat="60.3747694409" lon="6.71015833746">
		<tag k="name" v="Gullur" />
		<tag k="natural" v="scree" />
		<tag k="ssr:stedsnr" v="645535" />
	</node>
	<node id="-454817" lat="60.2096916701" lon="7.1237194407">
		<tag k="name" v="Austmannafonni" />
		<tag k="place" v="locality" />
		<tag k="ssr:stedsnr" v="82954" />
	</node>
	<node id="-456351" lat="60.3424694435" lon="6.47720000452">
		<tag k="name" v="Samdalsskarvet" />
		<tag k="place" v="locality" />
		<tag k="ssr:stedsnr" v="828875" />
	</node>
	<node id="-454813" lat="60.377461111" lon="6.81746667129">
		<tag k="name" v="Storemyr" />
		<tag k="natural" v="wetland" />
		<tag k="ssr:stedsnr" v="83175" />
	</node>
	<node id="-455322" lat="60.4720527802" lon="6.83713610375">
		<tag k="name" v="Kalvhagen" />
		<tag k="place" v="locality" />
		<tag k="ssr:stedsnr" v="430411" />
	</node>
	<node id="-455535" lat="60.3697250002" lon="6.68397778304">
		<tag k="historic" v="shieling" />
		<tag k="name" v="Mjølkeflot" />
		<tag k="place" v="locality" />
		<tag k="ssr:stedsnr" v="524518" />
	</node>
	<node id="-456344" lat="60.2940909653" lon="6.59577506278">
		<tag k="name" v="Kringla" />
		<tag k="place" v="locality" />
		<tag k="ssr:stedsnr" v="828794" />
	</node>
	<node id="-454295" lat="60.384919442" lon="6.50323054868">
		<tag k="name" v="Kalvahagen" />
		<tag k="place" v="locality" />
		<tag k="ssr:stedsnr" v="342979" />
	</node>
	<node id="-455830" lat="60.4366694474" lon="6.57118610357">
		<tag k="name" v="Valtersva" />
		<tag k="place" v="locality" />
		<tag k="ssr:stedsnr" v="645053" />
	</node>
	<node id="-454292" lat="60.3758194442" lon="6.49560556354">
		<tag k="historic" v="shieling" />
		<tag k="name" v="Øystøl" />
		<tag k="place" v="locality" />
		<tag k="ssr:stedsnr" v="342856" />
	</node>
	<node id="-456339" lat="60.4016333348" lon="6.74028889228">
		<tag k="historic" v="shieling" />
		<tag k="name" v="Stølen" />
		<tag k="place" v="locality" />
		<tag k="ssr:stedsnr" v="828568" />
	</node>
	<node id="-456338" lat="60.366391671" lon="6.73578055124">
		<tag k="name" v="Brunnateigen" />
		<tag k="place" v="locality" />
		<tag k="ssr:stedsnr" v="828553" />
	</node>
	<node id="-455812" lat="60.3294777739" lon="6.60278334184">
		<tag k="historic" v="shieling" />
		<tag k="name" v="Mjøstølen" />
		<tag k="place" v="locality" />
		<tag k="ssr:stedsnr" v="644133" />
	</node>
	<node id="-454270" lat="60.3761777741" lon="6.68016666385">
		<tag k="name" v="Pundsteigen" />
		<tag k="place" v="locality" />
		<tag k="ssr:stedsnr" v="342505" />
	</node>
	<node id="-455805" lat="60.4703888915" lon="6.83765832973">
		<tag k="name" v="Storemyr" />
		<tag k="natural" v="wetland" />
		<tag k="ssr:stedsnr" v="643694" />
	</node>
	<node id="-456316" lat="60.4204194473" lon="6.57771943768">
		<tag k="historic" v="shieling" />
		<tag k="name" v="Svartveitstølen" />
		<tag k="place" v="locality" />
		<tag k="ssr:stedsnr" v="828092" />
	</node>
	<node id="-454776" lat="60.3453630423" lon="6.66058087606">
		<tag k="fixme" v="multiple name tags, choose one and add the other to alt_name" />
		<tag k="name" v="Hellelandshagen;Hagen" />
		<tag k="place" v="locality" />
		<tag k="ssr:stedsnr" v="66278" />
	</node>
	<node id="-456310" lat="60.2232361153" lon="6.55799167186">
		<tag k="historic" v="shieling" />
		<tag k="name" v="Liastølen" />
		<tag k="place" v="locality" />
		<tag k="ssr:stedsnr" v="827966" />
	</node>
	<node id="-455794" lat="60.3252916668" lon="6.60449444604">
		<tag k="name" v="Kveldflotskreda" />
		<tag k="natural" v="scree" />
		<tag k="ssr:stedsnr" v="628180" />
	</node>
	<node id="-456303" lat="60.4634944402" lon="6.74019167175">
		<tag k="name" v="Arnfinnsmyri" />
		<tag k="natural" v="wetland" />
		<tag k="ssr:stedsnr" v="827731" />
	</node>
	<node id="-454077" lat="60.3606694476" lon="6.68416388382">
		<tag k="name" v="Tveiti" />
		<tag k="place" v="locality" />
		<tag k="ssr:stedsnr" v="281536" />
	</node>
	<node id="-456299" lat="60.457525004" lon="6.66054166605">
		<tag k="name" v="Krokur" />
		<tag k="natural" v="scree" />
		<tag k="ssr:stedsnr" v="827716" />
	</node>
	<node id="-454249" lat="60.4184499981" lon="6.59474443609">
		<tag k="historic" v="shieling" />
		<tag k="name" v="Skorasete" />
		<tag k="place" v="locality" />
		<tag k="ssr:stedsnr" v="342084" />
	</node>
	<node id="-454248" lat="60.3881527784" lon="6.62358889452">
		<tag k="name" v="Gullur" />
		<tag k="natural" v="scree" />
		<tag k="ssr:stedsnr" v="342060" />
	</node>
	<node id="-454247" lat="60.4152611139" lon="6.62514167196">
		<tag k="name" v="Rosshagen" />
		<tag k="place" v="locality" />
		<tag k="ssr:stedsnr" v="342023" />
	</node>
	<node id="-454234" lat="60.4581888868" lon="6.72770277445">
		<tag k="name" v="Strykkedalsmyri" />
		<tag k="natural" v="wetland" />
		<tag k="ssr:stedsnr" v="341745" />
	</node>
	<node id="-456276" lat="60.2911250017" lon="6.56895833768">
		<tag k="name" v="Slåtta" />
		<tag k="place" v="locality" />
		<tag k="ssr:stedsnr" v="826217" />
	</node>
	<node id="-454227" lat="60.2719722185" lon="6.56013333164">
		<tag k="name" v="Langeteigen" />
		<tag k="place" v="locality" />
		<tag k="ssr:stedsnr" v="341222" />
	</node>
	<node id="-454222" lat="60.4124999995" lon="6.61534444143">
		<tag k="name" v="Jørundslåtta" />
		<tag k="place" v="locality" />
		<tag k="ssr:stedsnr" v="341155" />
	</node>
	<node id="-454217" lat="60.466650003" lon="6.83360555611">
		<tag k="name" v="Storerøys" />
		<tag k="natural" v="stone" />
		<tag k="ssr:stedsnr" v="340706" />
	</node>
	<node id="-454448" lat="60.3558694425" lon="6.61600277776">
		<tag k="loc_name" v="Askjellstveit" />
		<tag k="name" v="Askilstveit" />
		<tag k="place" v="locality" />
		<tag k="ssr:stedsnr" v="887221" />
	</node>
	<node id="-454727" lat="60.4485972228" lon="6.64963611347">
		<tag k="name" v="Hagen" />
		<tag k="place" v="locality" />
		<tag k="ssr:stedsnr" v="39703" />
	</node>
	<node id="-454725" lat="60.443072223" lon="6.71002500518">
		<tag k="name" v="Øyjordi" />
		<tag k="place" v="locality" />
		<tag k="ssr:stedsnr" v="39695" />
	</node>
	<node id="-454212" lat="60.2865861104" lon="6.56864444675">
		<tag k="name" v="Ravnabergurane" />
		<tag k="natural" v="scree" />
		<tag k="ssr:stedsnr" v="340229" />
	</node>
	<node id="-454666" lat="60.4032666657" lon="6.61483610985">
		<tag k="name" v="Skjerurslåtta" />
		<tag k="place" v="locality" />
		<tag k="ssr:stedsnr" v="38167" />
	</node>
	<node id="-454713" lat="60.4172555568" lon="6.64225833928">
		<tag k="name" v="Hagastykket" />
		<tag k="place" v="locality" />
		<tag k="ssr:stedsnr" v="38877" />
	</node>
	<node id="-454707" lat="60.1700888849" lon="6.60078889091">
		<tag k="name" v="Myrane" />
		<tag k="natural" v="wetland" />
		<tag k="ssr:stedsnr" v="38833" />
	</node>
	<node id="-455727" lat="60.2197472227" lon="6.56380833898">
		<tag k="historic" v="shieling" />
		<tag k="name" v="Mjøstølen" />
		<tag k="place" v="locality" />
		<tag k="ssr:stedsnr" v="584975" />
	</node>
	<node id="-454518" lat="60.2007166696" lon="6.55429444531">
		<tag k="historic" v="shieling" />
		<tag k="name" v="Mjøsstølen" />
		<tag k="place" v="locality" />
		<tag k="ssr:stedsnr" v="888952" />
	</node>
	<node id="-456540" lat="60.3605055571" lon="6.66935834051">
		<tag k="name" v="Duldi" />
		<tag k="place" v="locality" />
		<tag k="ssr:stedsnr" v="949445" />
	</node>
	<node id="-454694" lat="60.4353222233" lon="6.79847777021">
		<tag k="name" v="Kvanngro" />
		<tag k="natural" v="stone" />
		<tag k="ssr:stedsnr" v="38648" />
	</node>
	<node id="-455716" lat="60.3432499995" lon="6.68183611066">
		<tag k="name" v="Skredena" />
		<tag k="natural" v="scree" />
		<tag k="ssr:stedsnr" v="584790" />
	</node>
	<node id="-455198" lat="60.2846361104" lon="6.58977500759">
		<tag k="name" v="Rogdaberghagen" />
		<tag k="place" v="locality" />
		<tag k="ssr:stedsnr" v="221897" />
	</node>
	<node id="-455197" lat="60.2813833336" lon="6.58199723002">
		<tag k="name" v="Klovningen" />
		<tag k="natural" v="stone" />
		<tag k="ssr:stedsnr" v="221896" />
	</node>
	<node id="-455514" lat="60.3531055514" lon="6.77733056077">
		<tag k="name" v="Kloppurane" />
		<tag k="natural" v="scree" />
		<tag k="ssr:stedsnr" v="523838" />
	</node>
	<node id="-454228" lat="60.2766694439" lon="6.55429167054">
		<tag k="historic" v="shieling" />
		<tag k="name" v="Stølen" />
		<tag k="place" v="locality" />
		<tag k="ssr:stedsnr" v="341224" />
	</node>
	<node id="-455185" lat="60.3462277751" lon="6.6781083345">
		<tag k="name" v="Myrane" />
		<tag k="natural" v="wetland" />
		<tag k="ssr:stedsnr" v="221562" />
	</node>
	<node id="-454488" lat="60.3957694454" lon="6.72148333607">
		<tag k="historic" v="shieling" />
		<tag k="name" v="Hermansstøl" />
		<tag k="place" v="locality" />
		<tag k="ssr:stedsnr" v="888579" />
	</node>
	<node id="-455691" lat="60.3136365571" lon="6.68529040402">
		<tag k="name" v="Tellmyrane" />
		<tag k="natural" v="wetland" />
		<tag k="ssr:stedsnr" v="584561" />
	</node>
	<node id="-455690" lat="60.2800534287" lon="6.65244389659">
		<tag k="name" v="Stegastein" />
		<tag k="natural" v="stone" />
		<tag k="ssr:stedsnr" v="584557" />
	</node>
	<node id="-454664" lat="60.3383472212" lon="6.6125166747">
		<tag k="name" v="Velureslåttena" />
		<tag k="place" v="locality" />
		<tag k="ssr:stedsnr" v="38154" />
	</node>
</osm>
