<?xml version="1.0" encoding="UTF-8"?>
<osm generator="osmapis" version="0.6">
	<node id="-454566" lat="60.3875412877" lon="6.50520733969">
		<tag k="fixme" v="consider boundary=protected_area and relevant protect_class if not nature reserve" />
		<tag k="leisure" v="nature_reserve" />
		<tag k="name" v="Alsåker naturreservat" />
		<tag k="ssr:stedsnr" v="988997" />
	</node>
	<node id="-456581" lat="60.3107282095" lon="6.66543529259">
		<tag k="fixme" v="consider boundary=protected_area and relevant protect_class if not nature reserve" />
		<tag k="leisure" v="nature_reserve" />
		<tag k="name" v="Ullensvang naturreservat" />
		<tag k="ssr:stedsnr" v="975676" />
	</node>
	<node id="-456580" lat="60.4488759343" lon="6.71502776362">
		<tag k="fixme" v="consider boundary=protected_area and relevant protect_class if not nature reserve" />
		<tag k="leisure" v="nature_reserve" />
		<tag k="name" v="Åkre og Vikane naturreservat" />
		<tag k="ssr:stedsnr" v="975675" />
	</node>
	<node id="-454569" lat="60.0208749982" lon="6.30709165878">
		<tag k="fixme" v="consider boundary=protected_area and relevant protect_class if not nature reserve" />
		<tag k="leisure" v="nature_reserve" />
		<tag k="name" v="Folgefonna nasjonalpark" />
		<tag k="ssr:stedsnr" v="524270" />
	</node>
</osm>
