<?xml version="1.0" encoding="UTF-8"?>
<osm generator="osmapis" version="0.6">
	<node id="-455678" lat="60.4264083333" lon="6.74696389102">
		<tag k="name" v="Dirraviki" />
		<tag k="natural" v="bay" />
		<tag k="ssr:stedsnr" v="827720" />
	</node>
	<node id="-453628" lat="60.1783694452" lon="6.55151389391">
		<tag k="name" v="Hetlevikane" />
		<tag k="natural" v="bay" />
		<tag k="ssr:stedsnr" v="341975" />
	</node>
	<node id="-455675" lat="60.4338416701" lon="6.70355555756">
		<tag k="name" v="Porsviki" />
		<tag k="natural" v="bay" />
		<tag k="ssr:stedsnr" v="827711" />
	</node>
	<node id="-455162" lat="60.4293083376" lon="6.68234167413">
		<tag k="name" v="Eikenes" />
		<tag k="natural" v="cape" />
		<tag k="ssr:stedsnr" v="612379" />
	</node>
	<node id="-455160" lat="60.429100002" lon="6.74971667191">
		<tag k="alt_name" v="Ulsnesneset" />
		<tag k="name" v="Ulsnes" />
		<tag k="natural" v="cape" />
		<tag k="ssr:stedsnr" v="612374" />
	</node>
	<node id="-455158" lat="60.4586709301" lon="6.75456274684">
		<tag k="name" v="Djønnaneset" />
		<tag k="natural" v="cape" />
		<tag k="ssr:stedsnr" v="612361" />
	</node>
	<node id="-454142" lat="60.3689111125" lon="6.41483888839">
		<tag k="name" v="Rabbaneset" />
		<tag k="natural" v="cape" />
		<tag k="ssr:stedsnr" v="66070" />
	</node>
	<node id="-453800" lat="60.391041795" lon="6.64990719502">
		<tag k="name" v="Holmen" />
		<tag k="natural" v="cape" />
		<tag k="ssr:stedsnr" v="403008" />
	</node>
	<node id="-453613" lat="60.4353305512" lon="6.77205278028">
		<tag k="name" v="Fiskurstrandi" />
		<tag k="natural" v="beach" />
		<tag k="place" v="locality" />
		<tag k="ssr:stedsnr" v="341707" />
	</node>
	<node id="-455147" lat="60.4171691496" lon="6.53056661793">
		<tag k="name" v="Raudtangen" />
		<tag k="natural" v="cape" />
		<tag k="ssr:stedsnr" v="612152" />
	</node>
	<node id="-455144" lat="60.3685864076" lon="6.39171076877">
		<tag k="alt_name" v="Steganeset" />
		<tag k="name" v="Stiganeset" />
		<tag k="natural" v="cape" />
		<tag k="ssr:stedsnr" v="612106" />
	</node>
	<node id="-454111" lat="60.289396793" lon="6.62822274741">
		<tag k="alt_name" v="Indre Djupevik" />
		<tag k="name" v="Insta Djupevik" />
		<tag k="natural" v="bay" />
		<tag k="ssr:stedsnr" v="44758" />
	</node>
	<node id="-454622" lat="60.429777779" lon="6.63494999913">
		<tag k="bay" v="fjord" />
		<tag k="name" v="Utnefjorden" />
		<tag k="natural" v="bay" />
		<tag k="ssr:stedsnr" v="248317" />
	</node>
	<node id="-454109" lat="60.451530556" lon="6.73156110798">
		<tag k="name" v="Røviki" />
		<tag k="natural" v="bay" />
		<tag k="old_name" v="Røvika" />
		<tag k="ssr:stedsnr" v="44263" />
	</node>
	<node id="-454108" lat="60.4529166635" lon="6.62843889663">
		<tag k="name" v="Lindehola" />
		<tag k="natural" v="bay" />
		<tag k="ssr:stedsnr" v="39763" />
	</node>
	<node id="-455126" lat="60.3954555528" lon="6.71033055651">
		<tag k="alt_name" v="Kyrkjeneset" />
		<tag k="name" v="Kyrkjenes" />
		<tag k="natural" v="cape" />
		<tag k="ssr:stedsnr" v="611387" />
	</node>
	<node id="-453589" lat="60.465102777" lon="6.81796944046">
		<tag k="alt_name" v="Bunes" />
		<tag k="name" v="Busnes" />
		<tag k="natural" v="cape" />
		<tag k="ssr:stedsnr" v="126318" />
	</node>
	<node id="-454478" lat="60.4267250026" lon="6.54567778118">
		<tag k="name" v="Tarmane" />
		<tag k="natural" v="cape" />
		<tag k="ssr:stedsnr" v="188163" />
	</node>
	<node id="-454610" lat="60.4354805594" lon="6.58537500811">
		<tag k="name" v="Skomakarstolen" />
		<tag k="natural" v="cape" />
		<tag k="old_name" v="Skoma" />
		<tag k="ssr:stedsnr" v="248152" />
	</node>
	<node id="-453583" lat="60.4346805594" lon="6.66914443825">
		<tag k="name" v="Tjoflotneset" />
		<tag k="natural" v="cape" />
		<tag k="ssr:stedsnr" v="325229" />
	</node>
	<node id="-453582" lat="60.4284749296" lon="6.6054562977">
		<tag k="name" v="Høyviki" />
		<tag k="natural" v="bay" />
		<tag k="ssr:stedsnr" v="325213" />
	</node>
	<node id="-453965" lat="60.194420468" lon="6.59197326986">
		<tag k="name" v="Djupevik" />
		<tag k="natural" v="bay" />
		<tag k="ssr:stedsnr" v="4886" />
	</node>
	<node id="-455625" lat="60.4745250027" lon="6.84215832994">
		<tag k="name" v="Buneset" />
		<tag k="natural" v="cape" />
		<tag k="ssr:stedsnr" v="794411" />
	</node>
	<node id="-453574" lat="60.4267216201" lon="6.61788750077">
		<tag k="name" v="Tingviki" />
		<tag k="natural" v="bay" />
		<tag k="ssr:stedsnr" v="309388" />
	</node>
	<node id="-455108" lat="60.4271516116" lon="6.6181210725">
		<tag k="name" v="Jaktastodbukti" />
		<tag k="natural" v="bay" />
		<tag k="ssr:stedsnr" v="600801" />
	</node>
	<node id="-453567" lat="60.3010888882" lon="6.64008333306">
		<tag k="name" v="Kvernarauga" />
		<tag k="natural" v="cape" />
		<tag k="ssr:stedsnr" v="309340" />
	</node>
	<node id="-454078" lat="60.458313029" lon="6.75545026696">
		<tag k="name" v="Persviki" />
		<tag k="natural" v="bay" />
		<tag k="ssr:stedsnr" v="38723" />
	</node>
	<node id="-454587" lat="60.1777" lon="6.57657500773">
		<tag k="alt_name" v="Moshamar" />
		<tag k="name" v="Moshammarneset" />
		<tag k="natural" v="cape" />
		<tag k="ssr:stedsnr" v="247219" />
	</node>
	<node id="-454073" lat="60.4199055541" lon="6.74426666329">
		<tag k="fixme" v="consider seamark:type=rock or natural=shoal" />
		<tag k="name" v="Knosaskjer" />
		<tag k="place" v="islet" />
		<tag k="ssr:stedsnr" v="38680" />
	</node>
	<node id="-454072" lat="60.4384861147" lon="6.77473888952">
		<tag k="name" v="Bønes" />
		<tag k="natural" v="cape" />
		<tag k="ssr:stedsnr" v="38665" />
	</node>
	<node id="-454069" lat="60.3269164634" lon="6.6567050266">
		<tag k="name" v="Ringolvsnes" />
		<tag k="natural" v="cape" />
		<tag k="ssr:stedsnr" v="38642" />
	</node>
	<node id="-454571" lat="60.2753166637" lon="6.59102777497">
		<tag k="fixme" v="multiple name tags, choose one and add the other to alt_name" />
		<tag k="name" v="Kråkevikneset;Åkreneset" />
		<tag k="natural" v="cape" />
		<tag k="ssr:stedsnr" v="221840" />
	</node>
	<node id="-454560" lat="60.3770916638" lon="6.71595278532">
		<tag k="name" v="Skallen" />
		<tag k="natural" v="shoal" />
		<tag k="place" v="locality" />
		<tag k="ssr:stedsnr" v="221556" />
	</node>
	<node id="-454895" lat="60.4262305547" lon="6.61942221593">
		<tag k="name" v="Tingnes" />
		<tag k="natural" v="cape" />
		<tag k="ssr:stedsnr" v="524088" />
	</node>
	<node id="-454551" lat="60.2908677217" lon="6.63264512729">
		<tag k="name" v="Ytsta Djupevik" />
		<tag k="natural" v="bay" />
		<tag k="ssr:stedsnr" v="221483" />
	</node>
	<node id="-455570" lat="60.2668861067" lon="6.5782972139">
		<tag k="name" v="Grindanes" />
		<tag k="natural" v="cape" />
		<tag k="ssr:stedsnr" v="767870" />
	</node>
	<node id="-454543" lat="60.1819916655" lon="6.5852722158">
		<tag k="name" v="Glyttet" />
		<tag k="natural" v="cape" />
		<tag k="ssr:stedsnr" v="221413" />
	</node>
	<node id="-454027" lat="60.3547055517" lon="6.6261333356">
		<tag k="name" v="Solstrand" />
		<tag k="natural" v="beach" />
		<tag k="place" v="locality" />
		<tag k="ssr:stedsnr" v="37226" />
	</node>
	<node id="-454024" lat="60.3449111092" lon="6.62842221852">
		<tag k="name" v="Krossen" />
		<tag k="natural" v="cape" />
		<tag k="ssr:stedsnr" v="37170" />
	</node>
	<node id="-455559" lat="60.4575062072" lon="6.75527066876">
		<tag k="name" v="Ytsta Djønnaneset" />
		<tag k="natural" v="cape" />
		<tag k="ssr:stedsnr" v="767732" />
	</node>
	<node id="-454022" lat="60.1838722255" lon="6.57114444768">
		<tag k="bay" v="fjord" />
		<tag k="name" v="Sørfjorden" />
		<tag k="natural" v="bay" />
		<tag k="ssr:stedsnr" v="24295" />
	</node>
	<node id="-455556" lat="60.3207555577" lon="6.65082222186">
		<tag k="name" v="Osen" />
		<tag k="natural" v="cape" />
		<tag k="ssr:stedsnr" v="767545" />
	</node>
	<node id="-455035" lat="60.4740666642" lon="6.83629166769">
		<tag k="alt_name" v="Gangsto" />
		<tag k="name" v="Gangstod" />
		<tag k="natural" v="cape" />
		<tag k="ssr:stedsnr" v="583699" />
	</node>
	<node id="-455544" lat="60.195254541" lon="6.59227988652">
		<tag k="alt_name" v="Djupevikneset indre" />
		<tag k="name" v="Insta Djupevikneset" />
		<tag k="natural" v="cape" />
		<tag k="ssr:stedsnr" v="767439" />
	</node>
	<node id="-454518" lat="60.4204138857" lon="6.74500277268">
		<tag k="name" v="Djupeviki" />
		<tag k="natural" v="bay" />
		<tag k="ssr:stedsnr" v="220729" />
	</node>
	<node id="-454001" lat="60.207171721" lon="6.56555449367">
		<tag k="name" v="Himlesviki" />
		<tag k="natural" v="bay" />
		<tag k="ssr:stedsnr" v="5815" />
	</node>
	<node id="-454511" lat="60.1980186397" lon="6.56324032618">
		<tag k="name" v="Holmen" />
		<tag k="place" v="islet" />
		<tag k="ssr:stedsnr" v="220256" />
	</node>
	<node id="-455534" lat="60.3751835693" lon="6.45628653871">
		<tag k="alt_name" v="Hamnaneset" />
		<tag k="name" v="Havnaneset" />
		<tag k="natural" v="cape" />
		<tag k="ssr:stedsnr" v="766886" />
	</node>
	<node id="-454507" lat="60.462563892" lon="6.81409444191">
		<tag k="name" v="Storenakken" />
		<tag k="natural" v="cape" />
		<tag k="ssr:stedsnr" v="219730" />
	</node>
	<node id="-454506" lat="60.4693805512" lon="6.82876111011">
		<tag k="name" v="Låtanes" />
		<tag k="natural" v="cape" />
		<tag k="ssr:stedsnr" v="219721" />
	</node>
	<node id="-455016" lat="60.3174174099" lon="6.65151604458">
		<tag k="name" v="Haugasundsviki" />
		<tag k="natural" v="bay" />
		<tag k="ssr:stedsnr" v="567143" />
	</node>
	<node id="-453479" lat="60.4722433382" lon="6.77017396837">
		<tag k="name" v="Kvernasanden" />
		<tag k="natural" v="bay" />
		<tag k="ssr:stedsnr" v="281731" />
	</node>
	<node id="-453478" lat="60.4686527258" lon="6.75645420977">
		<tag k="loc_name" v="Russviki" />
		<tag k="name" v="Rusviki" />
		<tag k="natural" v="bay" />
		<tag k="old_name" v="Rossviki;Rusvik" />
		<tag k="ssr:stedsnr" v="281728" />
	</node>
	<node id="-455523" lat="60.4733395106" lon="6.78655832927">
		<tag k="name" v="Vassviki" />
		<tag k="natural" v="bay" />
		<tag k="ssr:stedsnr" v="766722" />
	</node>
	<node id="-455009" lat="60.2737277789" lon="6.61826667372">
		<tag k="name" v="Bønes" />
		<tag k="natural" v="cape" />
		<tag k="ssr:stedsnr" v="551675" />
	</node>
	<node id="-453981" lat="60.4470333296" lon="6.72420555239">
		<tag k="name" v="Askeviki" />
		<tag k="natural" v="bay" />
		<tag k="ssr:stedsnr" v="5316" />
	</node>
	<node id="-453464" lat="60.3749222266" lon="6.71369722649">
		<tag k="name" v="Sandvikbukti" />
		<tag k="natural" v="bay" />
		<tag k="ssr:stedsnr" v="281583" />
	</node>
	<node id="-455511" lat="60.3617023642" lon="6.66915313009">
		<tag k="name" v="Tveitneset" />
		<tag k="natural" v="cape" />
		<tag k="ssr:stedsnr" v="766619" />
	</node>
	<node id="-454485" lat="60.3056444427" lon="6.611002774">
		<tag k="name" v="Fjørdingen" />
		<tag k="natural" v="cape" />
		<tag k="ssr:stedsnr" v="203214" />
	</node>
	<node id="-453970" lat="60.4367359431" lon="6.5678321176">
		<tag k="name" v="Træneset" />
		<tag k="natural" v="cape" />
		<tag k="ssr:stedsnr" v="5148" />
	</node>
	<node id="-453455" lat="60.282094061" lon="6.62073489636">
		<tag k="name" v="Ossvik" />
		<tag k="natural" v="bay" />
		<tag k="ssr:stedsnr" v="281461" />
	</node>
	<node id="-453454" lat="60.2028780385" lon="6.59705398524">
		<tag k="name" v="Skjelnes" />
		<tag k="natural" v="cape" />
		<tag k="ssr:stedsnr" v="281460" />
	</node>
	<node id="-454477" lat="60.2370500006" lon="6.56405832728">
		<tag k="alt_name" v="Skiparviki" />
		<tag k="name" v="Skiparvik" />
		<tag k="natural" v="bay" />
		<tag k="ssr:stedsnr" v="187798" />
	</node>
	<node id="-455492" lat="60.3294861091" lon="6.60752500841">
		<tag k="alt_name" v="Vilurebukti" />
		<tag k="name" v="Velurebukti" />
		<tag k="natural" v="bay" />
		<tag k="ssr:stedsnr" v="766133" />
	</node>
	<node id="-453441" lat="60.4305888857" lon="6.55201666584">
		<tag k="name" v="Kalviki" />
		<tag k="natural" v="bay" />
		<tag k="ssr:stedsnr" v="281093" />
	</node>
	<node id="-454464" lat="60.4449705975" lon="6.65992430603">
		<tag k="name" v="Kalvviki" />
		<tag k="natural" v="bay" />
		<tag k="ssr:stedsnr" v="187314" />
	</node>
	<node id="-455486" lat="60.2900874221" lon="6.62946378087">
		<tag k="alt_name" v="Ytre Djupevik" />
		<tag k="name" v="Djupevik" />
		<tag k="natural" v="bay" />
		<tag k="ssr:stedsnr" v="765707" />
	</node>
	<node id="-453437" lat="60.429247219" lon="6.60105555178">
		<tag k="name" v="Djupestø" />
		<tag k="natural" v="bay" />
		<tag k="ssr:stedsnr" v="281051" />
	</node>
	<node id="-453948" lat="60.4592099871" lon="6.75523146169">
		<tag k="name" v="Insta Djønnaneset" />
		<tag k="natural" v="cape" />
		<tag k="ssr:stedsnr" v="990829" />
	</node>
	<node id="-453431" lat="60.4178694489" lon="6.74389722705">
		<tag k="name" v="Strondi" />
		<tag k="natural" v="beach" />
		<tag k="place" v="locality" />
		<tag k="ssr:stedsnr" v="280435" />
	</node>
	<node id="-454452" lat="60.4648694428" lon="6.6305444519">
		<tag k="name" v="Byre" />
		<tag k="natural" v="cape" />
		<tag k="ssr:stedsnr" v="187309" />
	</node>
	<node id="-455474" lat="60.3805361147" lon="6.70132222491">
		<tag k="name" v="Salthella" />
		<tag k="natural" v="cape" />
		<tag k="ssr:stedsnr" v="749141" />
	</node>
	<node id="-453425" lat="60.430863885" lon="6.70029722405">
		<tag k="name" v="Slåttenes" />
		<tag k="natural" v="cape" />
		<tag k="ssr:stedsnr" v="271821" />
	</node>
	<node id="-454448" lat="60.4359361136" lon="6.55975000058">
		<tag k="alt_name" v="Steinkorsen" />
		<tag k="name" v="Steinkrossen" />
		<tag k="natural" v="cape" />
		<tag k="ssr:stedsnr" v="187155" />
	</node>
	<node id="-454447" lat="60.4362500001" lon="6.57776944568">
		<tag k="name" v="Streitet" />
		<tag k="natural" v="beach" />
		<tag k="place" v="locality" />
		<tag k="ssr:stedsnr" v="187153" />
	</node>
	<node id="-454446" lat="60.1937305598" lon="6.59067499959">
		<tag k="name" v="Rodaneset" />
		<tag k="natural" v="cape" />
		<tag k="ssr:stedsnr" v="186868" />
	</node>
	<node id="-455469" lat="60.4668938287" lon="6.76012583885">
		<tag k="name" v="Djønnabukti" />
		<tag k="natural" v="bay" />
		<tag k="ssr:stedsnr" v="734365" />
	</node>
	<node id="-454210" lat="60.4253861083" lon="6.54318333444">
		<tag k="name" v="Torve" />
		<tag k="natural" v="cape" />
		<tag k="ssr:stedsnr" v="99120" />
	</node>
	<node id="-454952" lat="60.2696000012" lon="6.58046943806">
		<tag k="name" v="Kråkevik" />
		<tag k="natural" v="bay" />
		<tag k="ssr:stedsnr" v="529779" />
	</node>
	<node id="-454364" lat="60.4729555577" lon="6.78397499185">
		<tag k="fixme" v="consider seamark:type=rock or natural=shoal" />
		<tag k="name" v="Svaleskjer" />
		<tag k="place" v="islet" />
		<tag k="ssr:stedsnr" v="159754" />
	</node>
	<node id="-454435" lat="60.2222405031" lon="6.60147989382">
		<tag k="name" v="Kvalen" />
		<tag k="natural" v="cape" />
		<tag k="ssr:stedsnr" v="186524" />
	</node>
	<node id="-453916" lat="60.367403595" lon="6.3973208651">
		<tag k="name" v="Ådnaviki" />
		<tag k="natural" v="bay" />
		<tag k="ssr:stedsnr" v="948682" />
	</node>
	<node id="-454423" lat="60.4438555544" lon="6.71451666061">
		<tag k="name" v="Vikabukti" />
		<tag k="natural" v="bay" />
		<tag k="old_name" v="Vikabukt" />
		<tag k="ssr:stedsnr" v="165253" />
	</node>
	<node id="-454421" lat="60.4007388866" lon="6.50395832927">
		<tag k="fixme" v="consider seamark:type=rock or natural=shoal" />
		<tag k="name" v="Trongskjeret" />
		<tag k="place" v="islet" />
		<tag k="ssr:stedsnr" v="164113" />
	</node>
	<node id="-455444" lat="60.3898555546" lon="6.40533611248">
		<tag k="alt_name" v="Indre Samlen" />
		<tag k="bay" v="fjord" />
		<tag k="name" v="Indre Samlafjorden" />
		<tag k="natural" v="bay" />
		<tag k="ssr:stedsnr" v="733393" />
	</node>
	<node id="-453907" lat="60.4518916709" lon="6.80409166257">
		<tag k="name" v="Bjotveitviki" />
		<tag k="natural" v="bay" />
		<tag k="old_name" v="Bjotveitv." />
		<tag k="ssr:stedsnr" v="893332" />
	</node>
	<node id="-453906" lat="60.4113938452" lon="6.51381652628">
		<tag k="name" v="Vinesneset" />
		<tag k="natural" v="cape" />
		<tag k="ssr:stedsnr" v="893122" />
	</node>
	<node id="-454415" lat="60.4136722239" lon="6.65270277357">
		<tag k="name" v="Lifjør" />
		<tag k="natural" v="bay" />
		<tag k="ssr:stedsnr" v="160928" />
	</node>
	<node id="-455948" lat="60.3031416708" lon="6.61019444847">
		<tag k="name" v="Aganeset" />
		<tag k="natural" v="cape" />
		<tag k="ssr:stedsnr" v="954777" />
	</node>
	<node id="-455947" lat="60.2207333328" lon="6.57166944779">
		<tag k="name" v="Lindvikneset" />
		<tag k="natural" v="cape" />
		<tag k="ssr:stedsnr" v="953762" />
	</node>
	<node id="-455430" lat="60.1959388893" lon="6.56391666605">
		<tag k="fixme" v="consider seamark:type=rock or natural=shoal" />
		<tag k="name" v="Utsteinane" />
		<tag k="place" v="islet" />
		<tag k="ssr:stedsnr" v="732858" />
	</node>
	<node id="-455941" lat="60.3714946607" lon="6.64314062591">
		<tag k="name" v="Tausaskarvet" />
		<tag k="natural" v="cape" />
		<tag k="ssr:stedsnr" v="949923" />
	</node>
	<node id="-455940" lat="60.3684133013" lon="6.40109540141">
		<tag k="name" v="Ådnavikneset" />
		<tag k="natural" v="cape" />
		<tag k="ssr:stedsnr" v="949918" />
	</node>
	<node id="-454614" lat="60.3787166645" lon="6.71278889559">
		<tag k="name" v="Kinsarvikbukti" />
		<tag k="natural" v="bay" />
		<tag k="ssr:stedsnr" v="248248" />
	</node>
	<node id="-454910" lat="60.38182778" lon="6.7004555557">
		<tag k="name" v="Salthella" />
		<tag k="natural" v="cape" />
		<tag k="ssr:stedsnr" v="524513" />
	</node>
	<node id="-455419" lat="60.1710138869" lon="6.57150000525">
		<tag k="name" v="Ternenes" />
		<tag k="natural" v="cape" />
		<tag k="ssr:stedsnr" v="732244" />
	</node>
	<node id="-455416" lat="60.3737194462" lon="6.64433055026">
		<tag k="name" v="Hausaneset" />
		<tag k="natural" v="cape" />
		<tag k="ssr:stedsnr" v="711297" />
	</node>
	<node id="-455927" lat="60.3781611122" lon="6.71954443617">
		<tag k="name" v="Flusko" />
		<tag k="natural" v="cape" />
		<tag k="ssr:stedsnr" v="949533" />
	</node>
	<node id="-455845" lat="60.2021448657" lon="6.5658861173">
		<tag k="alt_name" v="Utståviki" />
		<tag k="name" v="Utstodviki" />
		<tag k="natural" v="bay" />
		<tag k="old_name" v="Utstod;Utstodvik" />
		<tag k="ssr:stedsnr" v="915851" />
	</node>
	<node id="-454901" lat="60.3112916623" lon="6.61168333895">
		<tag k="name" v="Lauvviki" />
		<tag k="natural" v="bay" />
		<tag k="ssr:stedsnr" v="524198" />
	</node>
	<node id="-455409" lat="60.4334583307" lon="6.70333055601">
		<tag k="name" v="Porsviki" />
		<tag k="natural" v="bay" />
		<tag k="ssr:stedsnr" v="706880" />
	</node>
	<node id="-455407" lat="60.418715893" lon="6.64170797344">
		<tag k="alt_name" v="Rånes" />
		<tag k="name" v="Råanes" />
		<tag k="natural" v="cape" />
		<tag k="ssr:stedsnr" v="706847" />
	</node>
	<node id="-454893" lat="60.4163452313" lon="6.52882691539">
		<tag k="name" v="Ytrabøholmen" />
		<tag k="natural" v="cape" />
		<tag k="ssr:stedsnr" v="524070" />
	</node>
	<node id="-454889" lat="60.2881861154" lon="6.62358055204">
		<tag k="alt_name" v="Ytre Rosstadneset" />
		<tag k="name" v="Rosten" />
		<tag k="natural" v="cape" />
		<tag k="ssr:stedsnr" v="523773" />
	</node>
	<node id="-454888" lat="60.4702305562" lon="6.82629167471">
		<tag k="name" v="Kvernabekksviki" />
		<tag k="natural" v="bay" />
		<tag k="ssr:stedsnr" v="523770" />
	</node>
	<node id="-453756" lat="60.3330833343" lon="6.61548055274">
		<tag k="name" v="Naustnes" />
		<tag k="natural" v="cape" />
		<tag k="ssr:stedsnr" v="402138" />
	</node>
	<node id="-453499" lat="60.369721065" lon="6.42478457465">
		<tag k="name" v="Austeneset" />
		<tag k="natural" v="cape" />
		<tag k="ssr:stedsnr" v="281941" />
	</node>
	<node id="-453854" lat="60.1978467261" lon="6.59286225126">
		<tag k="alt_name" v="Djupevikneset ytre" />
		<tag k="name" v="Ytsta Djupevikneset" />
		<tag k="natural" v="cape" />
		<tag k="ssr:stedsnr" v="888401" />
	</node>
	<node id="-455900" lat="60.4279888902" lon="6.61138610987">
		<tag k="name" v="Espeviki" />
		<tag k="natural" v="bay" />
		<tag k="ssr:stedsnr" v="949058" />
	</node>
	<node id="-455387" lat="60.4420638869" lon="6.77688888895">
		<tag k="name" v="Ørestein" />
		<tag k="natural" v="cape" />
		<tag k="ssr:stedsnr" v="706612" />
	</node>
	<node id="-453561" lat="60.4289527746" lon="6.55096388674">
		<tag k="alt_name" v="Hellnes" />
		<tag k="name" v="Hellneset" />
		<tag k="natural" v="cape" />
		<tag k="ssr:stedsnr" v="309151" />
	</node>
	<node id="-454866" lat="60.2812861088" lon="6.61929443967">
		<tag k="alt_name" v="Børveneset" />
		<tag k="name" v="Ossvikneset" />
		<tag k="natural" v="cape" />
		<tag k="ssr:stedsnr" v="491677" />
	</node>
	<node id="-454860" lat="60.4372944399" lon="6.7020194395">
		<tag k="name" v="Vikabukti" />
		<tag k="natural" v="bay" />
		<tag k="ssr:stedsnr" v="491361" />
	</node>
	<node id="-454859" lat="60.452047219" lon="6.63026111633">
		<tag k="alt_name" v="Furenes" />
		<tag k="name" v="Fureneset" />
		<tag k="natural" v="cape" />
		<tag k="ssr:stedsnr" v="491343" />
	</node>
	<node id="-454346" lat="60.2840138888" lon="6.62124999181">
		<tag k="name" v="Selsvik" />
		<tag k="natural" v="bay" />
		<tag k="ssr:stedsnr" v="158716" />
	</node>
	<node id="-454849" lat="60.2245000043" lon="6.5718749939">
		<tag k="name" v="Aksnes" />
		<tag k="natural" v="cape" />
		<tag k="ssr:stedsnr" v="490824" />
	</node>
	<node id="-454328" lat="60.4475750016" lon="6.79141945026">
		<tag k="alt_name" v="Åsnes" />
		<tag k="name" v="Årsnes" />
		<tag k="natural" v="cape" />
		<tag k="ssr:stedsnr" v="127369" />
	</node>
	<node id="-455858" lat="60.4345333372" lon="6.75761389259">
		<tag k="name" v="Sengjanes" />
		<tag k="natural" v="cape" />
		<tag k="ssr:stedsnr" v="916367" />
	</node>
	<node id="-455851" lat="60.4248555547" lon="6.54070000417">
		<tag k="alt_name" v="Lotestangen" />
		<tag k="name" v="Tangen" />
		<tag k="natural" v="cape" />
		<tag k="ssr:stedsnr" v="916147" />
	</node>
	<node id="-455337" lat="60.30735833" lon="6.61175277298">
		<tag k="name" v="Fantaviki" />
		<tag k="natural" v="bay" />
		<tag k="ssr:stedsnr" v="705276" />
	</node>
	<node id="-455848" lat="60.3707020979" lon="6.43238300473">
		<tag k="name" v="Bjotveitneset" />
		<tag k="natural" v="cape" />
		<tag k="ssr:stedsnr" v="916075" />
	</node>
	<node id="-455334" lat="60.3053910321" lon="6.61162946516">
		<tag k="name" v="Klokkesteinviki" />
		<tag k="natural" v="bay" />
		<tag k="ssr:stedsnr" v="705236" />
	</node>
	<node id="-454513" lat="60.3985111112" lon="6.71185277056">
		<tag k="name" v="Lausto" />
		<tag k="natural" v="cape" />
		<tag k="ssr:stedsnr" v="220633" />
	</node>
	<node id="-453796" lat="60.1984232172" lon="6.56393950163">
		<tag k="name" v="Peterstangen" />
		<tag k="natural" v="cape" />
		<tag k="ssr:stedsnr" v="402964" />
	</node>
	<node id="-453795" lat="60.2009666667" lon="6.56685277616">
		<tag k="name" v="Mågemagen" />
		<tag k="place" v="islet" />
		<tag k="ssr:stedsnr" v="402963" />
	</node>
	<node id="-454304" lat="60.2158055525" lon="6.60303056311">
		<tag k="name" v="Buanes" />
		<tag k="natural" v="cape" />
		<tag k="ssr:stedsnr" v="126474" />
	</node>
	<node id="-454170" lat="60.4762979992" lon="6.79561730225">
		<tag k="name" v="Djupaviki" />
		<tag k="natural" v="bay" />
		<tag k="ssr:stedsnr" v="66401" />
	</node>
	<node id="-453785" lat="60.4670027767" lon="6.75548056299">
		<tag k="fixme" v="consider seamark:type=rock or natural=shoal" />
		<tag k="name" v="Tangskjer" />
		<tag k="place" v="islet" />
		<tag k="ssr:stedsnr" v="402744" />
	</node>
	<node id="-453784" lat="60.47364927" lon="6.79063743732">
		<tag k="name" v="Stigagjelsneset" />
		<tag k="natural" v="cape" />
		<tag k="ssr:stedsnr" v="402742" />
	</node>
	<node id="-453780" lat="60.4487561674" lon="6.72902661161">
		<tag k="name" v="Åkreneset" />
		<tag k="natural" v="cape" />
		<tag k="ssr:stedsnr" v="402705" />
	</node>
	<node id="-453777" lat="60.4349055535" lon="6.76414444315">
		<tag k="name" v="Tretteviki" />
		<tag k="natural" v="bay" />
		<tag k="ssr:stedsnr" v="402674" />
	</node>
	<node id="-455302" lat="60.4724126217" lon="6.76784746575">
		<tag k="name" v="Titleviki" />
		<tag k="natural" v="bay" />
		<tag k="ssr:stedsnr" v="673441" />
	</node>
	<node id="-453825" lat="60.4035527754" lon="6.50737222322">
		<tag k="name" v="Holmaviki" />
		<tag k="natural" v="bay" />
		<tag k="ssr:stedsnr" v="407130" />
	</node>
	<node id="-455299" lat="60.4530833359" lon="6.74458332697">
		<tag k="name" v="Stolpaneset" />
		<tag k="natural" v="cape" />
		<tag k="ssr:stedsnr" v="673357" />
	</node>
	<node id="-454274" lat="60.3835638888" lon="6.49638055037">
		<tag k="alt_name" v="Alsåkerbukti" />
		<tag k="name" v="Alsviki" />
		<tag k="natural" v="bay" />
		<tag k="old_name" v="Alsåkerbukt" />
		<tag k="ssr:stedsnr" v="99990" />
	</node>
	<node id="-455297" lat="60.4699138928" lon="6.75877499836">
		<tag k="name" v="Angersnes" />
		<tag k="natural" v="cape" />
		<tag k="ssr:stedsnr" v="673342" />
	</node>
	<node id="-454165" lat="60.4058166705" lon="6.6692166594">
		<tag k="alt_name" v="Troneset" />
		<tag k="name" v="Trones" />
		<tag k="natural" v="cape" />
		<tag k="ssr:stedsnr" v="66343" />
	</node>
	<node id="-454780" lat="60.430377777" lon="6.75138889337">
		<tag k="name" v="Havni" />
		<tag k="natural" v="bay" />
		<tag k="ssr:stedsnr" v="463756" />
	</node>
	<node id="-455286" lat="60.1949194433" lon="6.5573888846">
		<tag k="name" v="Lauvnes" />
		<tag k="natural" v="cape" />
		<tag k="ssr:stedsnr" v="672869" />
	</node>
	<node id="-454771" lat="60.4155111098" lon="6.74003610274">
		<tag k="fixme" v="consider seamark:type=rock or natural=shoal" />
		<tag k="name" v="Tangskjer" />
		<tag k="place" v="islet" />
		<tag k="ssr:stedsnr" v="463644" />
	</node>
	<node id="-454770" lat="60.4471425105" lon="6.65422621185">
		<tag k="name" v="Tjoflotviki" />
		<tag k="natural" v="bay" />
		<tag k="ssr:stedsnr" v="463640" />
	</node>
	<node id="-454766" lat="60.4369388899" lon="6.77012777331">
		<tag k="name" v="Ringøyviki" />
		<tag k="natural" v="bay" />
		<tag k="ssr:stedsnr" v="463617" />
	</node>
	<node id="-453733" lat="60.2517888868" lon="6.61449444874">
		<tag k="name" v="Skutenes" />
		<tag k="natural" v="cape" />
		<tag k="ssr:stedsnr" v="369611" />
	</node>
	<node id="-454243" lat="60.4479611099" lon="6.79478611696">
		<tag k="fixme" v="consider seamark:type=rock or natural=shoal" />
		<tag k="name" v="Gabrielskjeret" />
		<tag k="place" v="islet" />
		<tag k="ssr:stedsnr" v="99679" />
	</node>
	<node id="-455778" lat="60.3237239549" lon="6.65672468469">
		<tag k="name" v="Havni" />
		<tag k="natural" v="bay" />
		<tag k="ssr:stedsnr" v="855295" />
	</node>
	<node id="-454751" lat="60.2406138902" lon="6.61768333336">
		<tag k="name" v="Buanes" />
		<tag k="natural" v="cape" />
		<tag k="ssr:stedsnr" v="463471" />
	</node>
	<node id="-455695" lat="60.4276416668" lon="6.54583054952">
		<tag k="name" v="Kjeringaholmen" />
		<tag k="place" v="islet" />
		<tag k="ssr:stedsnr" v="828112" />
	</node>
	<node id="-455767" lat="60.4301138899" lon="6.55449444656">
		<tag k="name" v="Kalvvikebukti" />
		<tag k="natural" v="bay" />
		<tag k="old_name" v="Kalvviki;Kalvvikebukt" />
		<tag k="ssr:stedsnr" v="855149" />
	</node>
	<node id="-455766" lat="60.4211416669" lon="6.53614445303">
		<tag k="alt_name" v="Tranes" />
		<tag k="name" v="Tråneset" />
		<tag k="natural" v="cape" />
		<tag k="ssr:stedsnr" v="855144" />
	</node>
	<node id="-453717" lat="60.2904201846" lon="6.63127544824">
		<tag k="name" v="Espenes" />
		<tag k="natural" v="cape" />
		<tag k="ssr:stedsnr" v="369296" />
	</node>
	<node id="-455694" lat="60.4265222201" lon="6.54758332758">
		<tag k="name" v="Sjøstrandi" />
		<tag k="natural" v="beach" />
		<tag k="place" v="locality" />
		<tag k="ssr:stedsnr" v="828110" />
	</node>
	<node id="-455250" lat="60.3802222219" lon="6.47733056266">
		<tag k="name" v="Mikkelsneset" />
		<tag k="natural" v="cape" />
		<tag k="ssr:stedsnr" v="651097" />
	</node>
	<node id="-453560" lat="60.4201277736" lon="6.53516944296">
		<tag k="name" v="Tråviki" />
		<tag k="natural" v="bay" />
		<tag k="ssr:stedsnr" v="309144" />
	</node>
	<node id="-453705" lat="60.4123748031" lon="6.52102896369">
		<tag k="alt_name" v="Furaviki;Foreviki" />
		<tag k="name" v="Foraviki" />
		<tag k="natural" v="bay" />
		<tag k="ssr:stedsnr" v="369123" />
	</node>
	<node id="-454722" lat="60.4447999957" lon="6.71932499724">
		<tag k="name" v="Vikaneset" />
		<tag k="natural" v="cape" />
		<tag k="ssr:stedsnr" v="447190" />
	</node>
	<node id="-455233" lat="60.4396277812" lon="6.70418054846">
		<tag k="name" v="Sandviki" />
		<tag k="natural" v="bay" />
		<tag k="ssr:stedsnr" v="645629" />
	</node>
	<node id="-455230" lat="60.4454027747" lon="6.78684445292">
		<tag k="name" v="Litlekleivneset" />
		<tag k="natural" v="cape" />
		<tag k="ssr:stedsnr" v="645612" />
	</node>
	<node id="-455229" lat="60.4442638867" lon="6.78485833596">
		<tag k="name" v="Mjøstølviki" />
		<tag k="natural" v="bay" />
		<tag k="old_name" v="Mjøstølsviki;Mjøstølvik" />
		<tag k="ssr:stedsnr" v="645607" />
	</node>
	<node id="-455227" lat="60.435513893" lon="6.77142221472">
		<tag k="name" v="Gråten" />
		<tag k="natural" v="cape" />
		<tag k="ssr:stedsnr" v="645597" />
	</node>
	<node id="-454198" lat="60.4364916692" lon="6.57684166385">
		<tag k="name" v="Streitet" />
		<tag k="natural" v="cape" />
		<tag k="ssr:stedsnr" v="98421" />
	</node>
	<node id="-453679" lat="60.3775249997" lon="6.46538056076">
		<tag k="fixme" v="consider seamark:type=rock or natural=shoal" />
		<tag k="name" v="Kvalvikskjeret" />
		<tag k="place" v="islet" />
		<tag k="ssr:stedsnr" v="347078" />
	</node>
	<node id="-453676" lat="60.3678202908" lon="6.40582271754">
		<tag k="name" v="Otraholet" />
		<tag k="natural" v="bay" />
		<tag k="ssr:stedsnr" v="342885" />
	</node>
	<node id="-453673" lat="60.2810805597" lon="6.59489722374">
		<tag k="name" v="Koren" />
		<tag k="natural" v="bay" />
		<tag k="ssr:stedsnr" v="342818" />
	</node>
	<node id="-454695" lat="60.3867583344" lon="6.68799999978">
		<tag k="name" v="Krossanes" />
		<tag k="natural" v="cape" />
		<tag k="ssr:stedsnr" v="430355" />
	</node>
	<node id="-453669" lat="60.295962958" lon="6.60307699168">
		<tag k="name" v="Melesviki" />
		<tag k="natural" v="bay" />
		<tag k="ssr:stedsnr" v="342787" />
	</node>
	<node id="-455196" lat="60.4676583337" lon="6.75560554894">
		<tag k="fixme" v="consider seamark:type=rock or natural=shoal" />
		<tag k="name" v="Kvitaskjer" />
		<tag k="place" v="islet" />
		<tag k="ssr:stedsnr" v="644733" />
	</node>
	<node id="-455194" lat="60.3064395847" lon="6.6119336238">
		<tag k="name" v="Krakaviki" />
		<tag k="natural" v="bay" />
		<tag k="ssr:stedsnr" v="644256" />
	</node>
	<node id="-455191" lat="60.3222638914" lon="6.60732777141">
		<tag k="alt_name" v="Lindevik" />
		<tag k="name" v="Lindesviki" />
		<tag k="natural" v="bay" />
		<tag k="ssr:stedsnr" v="644202" />
	</node>
	<node id="-454677" lat="60.432474998" lon="6.55542500155">
		<tag k="alt_name" v="Burvikneset;Børvikaneset" />
		<tag k="name" v="Bjørvikaneset" />
		<tag k="natural" v="cape" />
		<tag k="ssr:stedsnr" v="430138" />
	</node>
	<node id="-454676" lat="60.4149451269" lon="6.52490719084">
		<tag k="name" v="Storaneset" />
		<tag k="natural" v="cape" />
		<tag k="ssr:stedsnr" v="430119" />
	</node>
	<node id="-455697" lat="60.2016772469" lon="6.59679431471">
		<tag k="name" v="Otrahola" />
		<tag k="natural" v="bay" />
		<tag k="ssr:stedsnr" v="828411" />
	</node>
	<node id="-454671" lat="60.1971019101" lon="6.55952975223">
		<tag k="name" v="Mågeviki" />
		<tag k="natural" v="bay" />
		<tag k="ssr:stedsnr" v="429859" />
	</node>
	<node id="-455182" lat="60.4746916664" lon="6.84328888703">
		<tag k="name" v="Buhamrane" />
		<tag k="natural" v="cape" />
		<tag k="ssr:stedsnr" v="643705" />
	</node>
	<node id="-454666" lat="60.2545944422" lon="6.91667500673">
		<tag k="name" v="Langaneset" />
		<tag k="natural" v="cape" />
		<tag k="ssr:stedsnr" v="430639" />
	</node>
	<node id="-453640" lat="60.2322249963" lon="6.61039444723">
		<tag k="name" v="Vansvik" />
		<tag k="natural" v="bay" />
		<tag k="ssr:stedsnr" v="342393" />
	</node>
	<node id="-455685" lat="60.1711251631" lon="6.5719853318">
		<tag k="name" v="Fantakroken" />
		<tag k="natural" v="bay" />
		<tag k="ssr:stedsnr" v="827830" />
	</node>
</osm>
