<?xml version="1.0" encoding="UTF-8"?>
<osm generator="osmapis" version="0.6">
	<node id="-454655" lat="60.4146361137" lon="6.53189166419">
		<tag k="name" v="Skredbekken" />
		<tag k="ssr:stedsnr" v="38024" />
		<tag k="waterway" v="stream" />
	</node>
	<node id="-454644" lat="60.3660969983" lon="6.5975187433">
		<tag k="name" v="Stora Hausanutvatnet" />
		<tag k="natural" v="water" />
		<tag k="ssr:stedsnr" v="22194" />
		<tag k="water" v="lake" />
	</node>
	<node id="-454643" lat="60.2754888913" lon="6.9599055583">
		<tag k="name" v="Fossane" />
		<tag k="natural" v="waterfall" />
		<tag k="ssr:stedsnr" v="22189" />
	</node>
	<node id="-454640" lat="60.2363638896" lon="7.11081389167">
		<tag k="name" v="Samkomehylen" />
		<tag k="place" v="locality" />
		<tag k="ssr:stedsnr" v="21959" />
	</node>
	<node id="-454635" lat="60.2889745562" lon="6.84856025556">
		<tag k="name" v="Buhylen" />
		<tag k="natural" v="water" />
		<tag k="ssr:stedsnr" v="6689" />
	</node>
	<node id="-454633" lat="60.2704666623" lon="6.54833888568">
		<tag k="alt_name" v="Grindaelvi, insta" />
		<tag k="name" v="Insta Grindaelvi" />
		<tag k="ssr:stedsnr" v="6418" />
		<tag k="waterway" v="stream" />
	</node>
	<node id="-454628" lat="60.299166664" lon="6.71098888179">
		<tag k="name" v="Skriksetevatnet" />
		<tag k="natural" v="water" />
		<tag k="ssr:stedsnr" v="6330" />
		<tag k="water" v="lake" />
	</node>
	<node id="-454624" lat="60.2399999987" lon="6.53665000672">
		<tag k="alt_name" v="Strutelvi" />
		<tag k="name" v="Strutåna" />
		<tag k="ssr:stedsnr" v="5777" />
		<tag k="waterway" v="stream" />
	</node>
	<node id="-454623" lat="60.2574083311" lon="6.95607777148">
		<tag k="name" v="Båtadalstjørni" />
		<tag k="natural" v="water" />
		<tag k="ssr:stedsnr" v="5649" />
	</node>
	<node id="-454622" lat="60.2675527735" lon="6.88411667458">
		<tag k="name" v="Kinso" />
		<tag k="ssr:stedsnr" v="5643" />
		<tag k="waterway" v="stream" />
	</node>
	<node id="-454620" lat="60.2534490822" lon="6.83173088386">
		<tag k="name" v="Langeløk" />
		<tag k="natural" v="water" />
		<tag k="ssr:stedsnr" v="5624" />
	</node>
	<node id="-454616" lat="60.2841536151" lon="7.07728416093">
		<tag k="name" v="Vatnalivatnet" />
		<tag k="natural" v="water" />
		<tag k="ssr:stedsnr" v="5476" />
		<tag k="water" v="lake" />
	</node>
	<node id="-454612" lat="60.2894111084" lon="6.57535277037">
		<tag k="name" v="Fossane" />
		<tag k="ssr:stedsnr" v="5440" />
		<tag k="waterway" v="stream" />
	</node>
	<node id="-454609" lat="60.4686178979" lon="6.71006386985">
		<tag k="name" v="Oksatjørni" />
		<tag k="natural" v="water" />
		<tag k="ssr:stedsnr" v="5404" />
	</node>
	<node id="-454598" lat="60.3743999996" lon="6.60273888852">
		<tag k="alt_name" v="Ormsvatn" />
		<tag k="name" v="Ormsvatnet" />
		<tag k="natural" v="water" />
		<tag k="ssr:stedsnr" v="5256" />
	</node>
	<node id="-454597" lat="60.413409272" lon="6.57000480798">
		<tag k="alt_name" v="Flaskevatnet" />
		<tag k="name" v="Flasketjørni" />
		<tag k="natural" v="water" />
		<tag k="ssr:stedsnr" v="5187" />
	</node>
	<node id="-454304" lat="60.1142249986" lon="7.26744443934">
		<tag k="loc_name" v="Grjoto" />
		<tag k="name" v="Groto" />
		<tag k="ssr:stedsnr" v="368303" />
		<tag k="waterway" v="river" />
	</node>
	<node id="-454588" lat="60.0368134751" lon="7.36246216423">
		<tag k="name" v="Nedsta Bjørnavatnet" />
		<tag k="natural" v="water" />
		<tag k="ssr:stedsnr" v="4632" />
		<tag k="water" v="lake" />
	</node>
	<node id="-454585" lat="60.1703887015" lon="6.86219217428">
		<tag k="name" v="Tyssevatnet" />
		<tag k="natural" v="water" />
		<tag k="ssr:stedsnr" v="4440" />
		<tag k="water" v="lake" />
	</node>
	<node id="-454583" lat="60.2413957501" lon="7.0500836291">
		<tag k="name" v="Bersavikvatnet" />
		<tag k="natural" v="water" />
		<tag k="ssr:stedsnr" v="4356" />
		<tag k="water" v="lake" />
	</node>
	<node id="-454581" lat="60.1142157322" lon="7.19004912032">
		<tag k="name" v="Ambjørgsvatnet" />
		<tag k="natural" v="water" />
		<tag k="ssr:stedsnr" v="4274" />
		<tag k="water" v="lake" />
	</node>
	<node id="-454576" lat="60.2313814147" lon="6.44650930816">
		<tag k="name" v="Jukladalstjørni" />
		<tag k="natural" v="water" />
		<tag k="ssr:stedsnr" v="611830" />
	</node>
	<node id="-454575" lat="60.3444792821" lon="6.4526096562">
		<tag k="alt_name" v="Vatnasetevatnet" />
		<tag k="name" v="Vatnasetvatnet" />
		<tag k="natural" v="water" />
		<tag k="ssr:stedsnr" v="430097" />
		<tag k="water" v="lake" />
	</node>
	<node id="-454574" lat="60.3423138434" lon="6.4415635979">
		<tag k="alt_name" v="Grimevatn" />
		<tag k="name" v="Grimevatnet" />
		<tag k="natural" v="water" />
		<tag k="ssr:stedsnr" v="188130" />
	</node>
	<node id="-454545" lat="60.2490091146" lon="6.42528035954">
		<tag k="name" v="Dravladalsvatnet hovuddam" />
		<tag k="ssr:stedsnr" v="983733" />
		<tag k="waterway" v="dam" />
	</node>
	<node id="-454544" lat="60.2465022917" lon="6.43454772506">
		<tag k="name" v="Dravladalsvatnet" />
		<tag k="natural" v="water" />
		<tag k="ssr:stedsnr" v="550791" />
		<tag k="water" v="lake" />
	</node>
	<node id="-454543" lat="60.1527596289" lon="6.80232769574">
		<tag k="name" v="Holmavatn" />
		<tag k="natural" v="water" />
		<tag k="ssr:stedsnr" v="611463" />
		<tag k="water" v="lake" />
	</node>
	<node id="-454539" lat="60.1093719041" lon="6.97058503255">
		<tag k="name" v="Øvra Håvardsvatnet" />
		<tag k="natural" v="water" />
		<tag k="ssr:stedsnr" v="854363" />
		<tag k="water" v="lake" />
	</node>
	<node id="-454538" lat="60.0709102056" lon="7.08394032097">
		<tag k="name" v="Vassdalsvatni" />
		<tag k="natural" v="water" />
		<tag k="ssr:stedsnr" v="490286" />
		<tag k="water" v="lake" />
	</node>
	<node id="-454537" lat="60.010346338" lon="7.18086695991">
		<tag k="name" v="Tangasjøen" />
		<tag k="natural" v="water" />
		<tag k="ssr:stedsnr" v="308245" />
		<tag k="water" v="lake" />
	</node>
	<node id="-454531" lat="60.3679194432" lon="6.40584722994">
		<tag k="name" v="Otraholet" />
		<tag k="place" v="locality" />
		<tag k="ssr:stedsnr" v="584083" />
	</node>
	<node id="-454500" lat="60.3273638908" lon="6.69090833338">
		<tag k="name" v="Fegenskjelda" />
		<tag k="natural" v="spring" />
		<tag k="ssr:stedsnr" v="888760" />
	</node>
	<node id="-456520" lat="60.4012194466" lon="6.65777222035">
		<tag k="name" v="Nesbekken" />
		<tag k="ssr:stedsnr" v="949009" />
		<tag k="waterway" v="stream" />
	</node>
	<node id="-456500" lat="60.1816000046" lon="6.59362778215">
		<tag k="alt_name" v="Giljebekken" />
		<tag k="name" v="Giljabekken" />
		<tag k="ssr:stedsnr" v="935576" />
		<tag k="waterway" v="stream" />
	</node>
	<node id="-454447" lat="60.3629268919" lon="6.5993871161">
		<tag k="name" v="Heimatjørn" />
		<tag k="natural" v="water" />
		<tag k="ssr:stedsnr" v="887217" />
	</node>
	<node id="-456494" lat="60.3635161111" lon="6.59621744611">
		<tag k="name" v="Vetla Hausanutvatnet" />
		<tag k="natural" v="water" />
		<tag k="ssr:stedsnr" v="932213" />
		<tag k="water" v="lake" />
	</node>
	<node id="-456493" lat="60.3637111109" lon="6.61799444917">
		<tag k="name" v="Brandstveitelvi" />
		<tag k="ssr:stedsnr" v="932210" />
		<tag k="waterway" v="river" />
	</node>
	<node id="-456489" lat="60.2758708148" lon="6.6813455331">
		<tag k="name" v="Botnavatnet" />
		<tag k="natural" v="water" />
		<tag k="ssr:stedsnr" v="916719" />
	</node>
	<node id="-456488" lat="60.2824583348" lon="6.65240277793">
		<tag k="name" v="Naustelvi" />
		<tag k="ssr:stedsnr" v="916700" />
		<tag k="waterway" v="river" />
	</node>
	<node id="-456485" lat="60.2856266028" lon="6.58065802042">
		<tag k="name" v="Ljosetjørn" />
		<tag k="natural" v="water" />
		<tag k="ssr:stedsnr" v="916525" />
	</node>
	<node id="-456484" lat="60.2793549766" lon="6.57813565715">
		<tag k="fixme" v="multiple name tags, choose one and add the other to alt_name" />
		<tag k="name" v="Longetjørn;Rogdatjørn" />
		<tag k="natural" v="water" />
		<tag k="ssr:stedsnr" v="916522" />
	</node>
	<node id="-456475" lat="60.3519666663" lon="6.75678334206">
		<tag k="name" v="Kinso" />
		<tag k="ssr:stedsnr" v="916295" />
		<tag k="waterway" v="river" />
	</node>
	<node id="-456470" lat="60.3708027788" lon="6.47201388039">
		<tag k="name" v="Kvalvikelvi" />
		<tag k="ssr:stedsnr" v="916066" />
		<tag k="waterway" v="stream" />
	</node>
	<node id="-454418" lat="60.3935888877" lon="6.64185555812">
		<tag k="name" v="Gravabekken" />
		<tag k="ssr:stedsnr" v="403011" />
		<tag k="waterway" v="stream" />
	</node>
	<node id="-456465" lat="60.2378444403" lon="6.54398332939">
		<tag k="name" v="Skiparvikelvi" />
		<tag k="ssr:stedsnr" v="915811" />
		<tag k="waterway" v="stream" />
	</node>
	<node id="-456463" lat="60.0796666623" lon="7.41507777728">
		<tag k="name" v="Hansbuhylen" />
		<tag k="place" v="locality" />
		<tag k="ssr:stedsnr" v="915622" />
	</node>
	<node id="-456462" lat="60.3205196332" lon="7.06583692707">
		<tag k="name" v="Vasslivatnet" />
		<tag k="natural" v="water" />
		<tag k="ssr:stedsnr" v="915497" />
		<tag k="water" v="lake" />
	</node>
	<node id="-454410" lat="60.3831555566" lon="6.63462778153">
		<tag k="name" v="Storebekken" />
		<tag k="ssr:stedsnr" v="402881" />
		<tag k="waterway" v="stream" />
	</node>
	<node id="-456457" lat="60.1492411133" lon="6.93083630658">
		<tag k="name" v="Selsløken" />
		<tag k="natural" v="water" />
		<tag k="ssr:stedsnr" v="915448" />
		<tag k="water" v="lake" />
	</node>
	<node id="-456451" lat="60.2189972187" lon="7.05278055043">
		<tag k="loc_name" v="Nedsta Solvatnet" />
		<tag k="name" v="Nedsta Soltjørni" />
		<tag k="natural" v="water" />
		<tag k="ssr:stedsnr" v="915341" />
	</node>
	<node id="-456450" lat="60.2038499996" lon="7.15394999737">
		<tag k="name" v="Nasatjørnane" />
		<tag k="natural" v="water" />
		<tag k="ssr:stedsnr" v="915297" />
	</node>
	<node id="-456443" lat="60.0548250029" lon="7.1998055604">
		<tag k="name" v="Raudåna" />
		<tag k="ssr:stedsnr" v="915242" />
		<tag k="waterway" v="stream" />
	</node>
	<node id="-456441" lat="60.3806677203" lon="6.56417633916">
		<tag k="alt_name" v="Øvre Komlevatnet;Kumlevatnet, øvre" />
		<tag k="name" v="Øvre Kumlevatnet" />
		<tag k="natural" v="water" />
		<tag k="ssr:stedsnr" v="915074" />
	</node>
	<node id="-456439" lat="60.2391388868" lon="6.6434750072">
		<tag k="name" v="Glåmo" />
		<tag k="ssr:stedsnr" v="915008" />
		<tag k="waterway" v="stream" />
	</node>
	<node id="-456436" lat="60.4111904334" lon="6.56604380218">
		<tag k="name" v="Botnatjørnane" />
		<tag k="natural" v="water" />
		<tag k="ssr:stedsnr" v="915162" />
		<tag k="water" v="lake" />
	</node>
	<node id="-456434" lat="60.2929555536" lon="6.59374722178">
		<tag k="name" v="Syro" />
		<tag k="ssr:stedsnr" v="909018" />
		<tag k="waterway" v="river" />
	</node>
	<node id="-456431" lat="60.0737500022" lon="7.33454166574">
		<tag k="name" v="Midtra Krokavatnet" />
		<tag k="natural" v="water" />
		<tag k="ssr:stedsnr" v="871977" />
		<tag k="water" v="lake" />
	</node>
	<node id="-454381" lat="60.323752774" lon="6.60078055813">
		<tag k="name" v="Kluftafoss" />
		<tag k="natural" v="waterfall" />
		<tag k="ssr:stedsnr" v="402216" />
	</node>
	<node id="-456428" lat="60.359833335" lon="6.81048889249">
		<tag k="name" v="Nykkjesøytjørni" />
		<tag k="natural" v="water" />
		<tag k="ssr:stedsnr" v="871164" />
	</node>
	<node id="-454376" lat="60.388997225" lon="6.54540833722">
		<tag k="name" v="Fossen" />
		<tag k="natural" v="waterfall" />
		<tag k="ssr:stedsnr" v="402181" />
	</node>
	<node id="-456416" lat="60.2908732153" lon="6.46924839122">
		<tag k="name" v="Skarvabottvatnet" />
		<tag k="natural" v="water" />
		<tag k="ssr:stedsnr" v="855443" />
	</node>
	<node id="-456415" lat="60.2926160352" lon="6.43552270577">
		<tag k="name" v="Bottsvatnet" />
		<tag k="natural" v="water" />
		<tag k="ssr:stedsnr" v="855441" />
	</node>
	<node id="-454365" lat="60.389483278" lon="6.59477037112">
		<tag k="name" v="Grimsvatnet" />
		<tag k="natural" v="water" />
		<tag k="ssr:stedsnr" v="386221" />
		<tag k="water" v="lake" />
	</node>
	<node id="-456411" lat="60.2725250011" lon="6.55031666686">
		<tag k="alt_name" v="Grindaelvi, ytsta;Grindaneselvi" />
		<tag k="name" v="Ytsta Grindaelvi" />
		<tag k="ssr:stedsnr" v="855384" />
		<tag k="waterway" v="stream" />
	</node>
	<node id="-454362" lat="60.4159277746" lon="6.62453056223">
		<tag k="name" v="Utneelvi" />
		<tag k="ssr:stedsnr" v="386201" />
		<tag k="waterway" v="river" />
	</node>
	<node id="-456407" lat="60.3894583353" lon="6.79083889765">
		<tag k="name" v="Vassdalsvatnet" />
		<tag k="natural" v="water" />
		<tag k="ssr:stedsnr" v="855365" />
		<tag k="water" v="lake" />
	</node>
	<node id="-454357" lat="60.3572138929" lon="6.89587777778">
		<tag k="name" v="Insta Tjørni" />
		<tag k="natural" v="water" />
		<tag k="ssr:stedsnr" v="385203" />
	</node>
	<node id="-456404" lat="60.2987611136" lon="6.85868054671">
		<tag k="name" v="Fodnastølsvatnet" />
		<tag k="natural" v="water" />
		<tag k="ssr:stedsnr" v="855305" />
		<tag k="water" v="lake" />
	</node>
	<node id="-454355" lat="60.207263888" lon="6.55208332441">
		<tag k="name" v="Kinnarbekk" />
		<tag k="ssr:stedsnr" v="369832" />
		<tag k="waterway" v="stream" />
	</node>
	<node id="-454351" lat="60.2896204505" lon="6.88585132528">
		<tag k="name" v="Langavatnet" />
		<tag k="natural" v="water" />
		<tag k="ssr:stedsnr" v="369632" />
		<tag k="water" v="lake" />
	</node>
	<node id="-454348" lat="60.3268030831" lon="7.04984467244">
		<tag k="loc_name" v="Reinånevatnet" />
		<tag k="name" v="Reinavotni" />
		<tag k="natural" v="water" />
		<tag k="ssr:stedsnr" v="369460" />
		<tag k="water" v="lake" />
	</node>
	<node id="-456395" lat="60.3697611142" lon="6.75769444449">
		<tag k="name" v="Vivippo" />
		<tag k="ssr:stedsnr" v="855276" />
		<tag k="waterway" v="stream" />
	</node>
	<node id="-456392" lat="60.3865677195" lon="6.57997548366">
		<tag k="name" v="Svartavatnet" />
		<tag k="natural" v="water" />
		<tag k="ssr:stedsnr" v="855158" />
	</node>
	<node id="-456391" lat="60.3849312403" lon="6.55389022676">
		<tag k="alt_name" v="Komlevatnet;Kumlevatnet, nedre" />
		<tag k="name" v="Nedre Kumlevatnet" />
		<tag k="natural" v="water" />
		<tag k="ssr:stedsnr" v="855157" />
		<tag k="water" v="lake" />
	</node>
	<node id="-454341" lat="60.2360500008" lon="7.15343889718">
		<tag k="name" v="Kyrkjesteinsbekken" />
		<tag k="ssr:stedsnr" v="369342" />
		<tag k="waterway" v="stream" />
	</node>
	<node id="-456387" lat="60.3795666703" lon="6.5142666645">
		<tag k="name" v="Tverrbekken" />
		<tag k="ssr:stedsnr" v="855077" />
		<tag k="waterway" v="stream" />
	</node>
	<node id="-456386" lat="60.3817653384" lon="6.58615292015">
		<tag k="alt_name" v="Svartavatnet, s" />
		<tag k="name" v="Søra Svartavatnet" />
		<tag k="natural" v="water" />
		<tag k="ssr:stedsnr" v="855073" />
	</node>
	<node id="-454337" lat="60.2212638894" lon="7.08118889372">
		<tag k="name" v="Sandhaugo" />
		<tag k="ssr:stedsnr" v="369333" />
		<tag k="waterway" v="river" />
	</node>
	<node id="-456384" lat="60.3690176188" lon="6.57178669625">
		<tag k="alt_name" v="Vassdalsvatnet, nedre" />
		<tag k="name" v="Nedre Vassdalsvatnet" />
		<tag k="natural" v="water" />
		<tag k="ssr:stedsnr" v="855068" />
	</node>
	<node id="-454332" lat="60.3050749971" lon="6.74782777347">
		<tag k="name" v="Kjølo" />
		<tag k="ssr:stedsnr" v="369284" />
		<tag k="waterway" v="stream" />
	</node>
	<node id="-456379" lat="60.1034890067" lon="7.35378745531">
		<tag k="name" v="Valgardstjørnane" />
		<tag k="natural" v="water" />
		<tag k="ssr:stedsnr" v="854714" />
		<tag k="water" v="lake" />
	</node>
	<node id="-454328" lat="60.3750884109" lon="6.79642813064">
		<tag k="name" v="Grytingsvatnet" />
		<tag k="natural" v="water" />
		<tag k="ssr:stedsnr" v="369246" />
		<tag k="water" v="lake" />
	</node>
	<node id="-454327" lat="60.4148666625" lon="6.56275834088">
		<tag k="name" v="Gjerdselvi" />
		<tag k="ssr:stedsnr" v="369168" />
		<tag k="waterway" v="stream" />
	</node>
	<node id="-454326" lat="60.4147749961" lon="6.54738056097">
		<tag k="alt_name" v="Sessbekken" />
		<tag k="name" v="Sessabekken" />
		<tag k="ssr:stedsnr" v="369166" />
		<tag k="waterway" v="stream" />
	</node>
	<node id="-454321" lat="60.3504342243" lon="6.5121240202">
		<tag k="alt_name" v="Gråfjellstjørn" />
		<tag k="name" v="Gråfjelltjørni" />
		<tag k="natural" v="water" />
		<tag k="ssr:stedsnr" v="369114" />
	</node>
	<node id="-454315" lat="60.3678861109" lon="6.5451388844">
		<tag k="name" v="Bjørngjelelvi" />
		<tag k="ssr:stedsnr" v="369045" />
		<tag k="waterway" v="stream" />
	</node>
	<node id="-454314" lat="60.245305554" lon="6.5249944356">
		<tag k="alt_name" v="Bleieelvi" />
		<tag k="name" v="Bleielvi" />
		<tag k="ssr:stedsnr" v="368838" />
		<tag k="waterway" v="stream" />
	</node>
	<node id="-456361" lat="60.1121194474" lon="7.06870555805">
		<tag k="name" v="Sledalselvi" />
		<tag k="ssr:stedsnr" v="854250" />
		<tag k="waterway" v="river" />
	</node>
	<node id="-454312" lat="60.0790416665" lon="7.42669999268">
		<tag k="name" v="Skrubbahylen" />
		<tag k="place" v="locality" />
		<tag k="ssr:stedsnr" v="368685" />
	</node>
	<node id="-456359" lat="60.0570777793" lon="7.3048250001">
		<tag k="name" v="Sigridskarvatnet" />
		<tag k="natural" v="water" />
		<tag k="ssr:stedsnr" v="854234" />
		<tag k="water" v="lake" />
	</node>
	<node id="-456358" lat="60.0322611114" lon="7.32873056136">
		<tag k="name" v="Bjørno" />
		<tag k="ssr:stedsnr" v="854231" />
		<tag k="waterway" v="river" />
	</node>
	<node id="-456352" lat="60.3592805575" lon="6.44610555635">
		<tag k="name" v="Dammane" />
		<tag k="ssr:stedsnr" v="828899" />
		<tag k="waterway" v="dam" />
	</node>
	<node id="-454301" lat="60.042047221" lon="7.14846943646">
		<tag k="name" v="Vetla Kvenno" />
		<tag k="ssr:stedsnr" v="368278" />
		<tag k="waterway" v="river" />
	</node>
	<node id="-456340" lat="60.3275444423" lon="6.66028610605">
		<tag k="name" v="Ringolvsbekk" />
		<tag k="ssr:stedsnr" v="828578" />
		<tag k="waterway" v="stream" />
	</node>
	<node id="-454284" lat="60.3773888931" lon="6.83352222442">
		<tag k="name" v="Grytingselvi" />
		<tag k="ssr:stedsnr" v="342762" />
		<tag k="waterway" v="river" />
	</node>
	<node id="-454272" lat="60.4535527778" lon="6.65739445201">
		<tag k="name" v="Homansbekken" />
		<tag k="ssr:stedsnr" v="342509" />
		<tag k="waterway" v="stream" />
	</node>
	<node id="-454265" lat="60.3164770622" lon="6.71264902839">
		<tag k="name" v="Saltpytt" />
		<tag k="natural" v="water" />
		<tag k="ssr:stedsnr" v="342445" />
	</node>
	<node id="-454260" lat="60.2468138881" lon="6.62654722333">
		<tag k="name" v="Skrebekken" />
		<tag k="ssr:stedsnr" v="342415" />
		<tag k="waterway" v="stream" />
	</node>
	<node id="-454251" lat="60.4236694436" lon="6.61582222745">
		<tag k="name" v="Kvernelvi" />
		<tag k="ssr:stedsnr" v="342098" />
		<tag k="waterway" v="river" />
	</node>
	<node id="-456288" lat="60.2414111116" lon="6.54588888876">
		<tag k="name" v="Kviturbekken" />
		<tag k="ssr:stedsnr" v="827219" />
		<tag k="waterway" v="stream" />
	</node>
	<node id="-456286" lat="60.3358861096" lon="6.5986416741">
		<tag k="name" v="Velurebekken" />
		<tag k="ssr:stedsnr" v="827146" />
		<tag k="waterway" v="stream" />
	</node>
	<node id="-456280" lat="60.2924166703" lon="6.64949166085">
		<tag k="name" v="Nutabekken" />
		<tag k="ssr:stedsnr" v="826453" />
		<tag k="waterway" v="stream" />
	</node>
	<node id="-456278" lat="60.3755722187" lon="6.81732778364">
		<tag k="name" v="Gata" />
		<tag k="place" v="islet" />
		<tag k="ssr:stedsnr" v="826442" />
	</node>
	<node id="-456274" lat="60.3503666681" lon="6.61714167146">
		<tag k="name" v="Ytre Jåstadbekken" />
		<tag k="ssr:stedsnr" v="826166" />
		<tag k="waterway" v="stream" />
	</node>
	<node id="-456273" lat="60.3463499965" lon="6.60086666861">
		<tag k="name" v="Fossane" />
		<tag k="natural" v="waterfall" />
		<tag k="ssr:stedsnr" v="826161" />
	</node>
	<node id="-456271" lat="60.3460520856" lon="6.60937795254">
		<tag k="name" v="Indre Jåstad-elvi" />
		<tag k="ssr:stedsnr" v="811201" />
		<tag k="waterway" v="river" />
	</node>
	<node id="-456270" lat="60.2871516129" lon="6.95363654596">
		<tag k="name" v="Heimsta Hanasteinsvatnet" />
		<tag k="natural" v="water" />
		<tag k="ssr:stedsnr" v="811195" />
		<tag k="water" v="lake" />
	</node>
	<node id="-454219" lat="60.3370222203" lon="6.80143611605">
		<tag k="name" v="Vierdalsbekken" />
		<tag k="ssr:stedsnr" v="340802" />
		<tag k="waterway" v="stream" />
	</node>
	<node id="-456265" lat="60.2949500003" lon="6.87563610571">
		<tag k="name" v="Breiåna" />
		<tag k="ssr:stedsnr" v="794685" />
		<tag k="waterway" v="river" />
	</node>
	<node id="-454216" lat="60.4613416686" lon="6.75019721372">
		<tag k="name" v="Utitunbekken" />
		<tag k="ssr:stedsnr" v="340431" />
		<tag k="waterway" v="stream" />
	</node>
	<node id="-454214" lat="60.1847305582" lon="6.59825555052">
		<tag k="name" v="Salebekken" />
		<tag k="ssr:stedsnr" v="340419" />
		<tag k="waterway" v="stream" />
	</node>
	<node id="-456261" lat="60.2568499982" lon="6.77760555505">
		<tag k="name" v="Nappo" />
		<tag k="ssr:stedsnr" v="794676" />
		<tag k="waterway" v="stream" />
	</node>
	<node id="-456259" lat="60.2732031447" lon="6.94257254098">
		<tag k="name" v="Holmavatnet" />
		<tag k="natural" v="water" />
		<tag k="ssr:stedsnr" v="794667" />
		<tag k="water" v="lake" />
	</node>
	<node id="-456258" lat="60.2741388932" lon="6.87747500307">
		<tag k="name" v="Nasavatnet" />
		<tag k="natural" v="water" />
		<tag k="ssr:stedsnr" v="794666" />
		<tag k="water" v="lake" />
	</node>
	<node id="-456255" lat="60.2782381054" lon="6.9873404621">
		<tag k="name" v="Trisnyttevatnet" />
		<tag k="natural" v="water" />
		<tag k="ssr:stedsnr" v="794486" />
		<tag k="water" v="lake" />
	</node>
	<node id="-454202" lat="60.1933748596" lon="6.70806416139">
		<tag k="name" v="Andetjørn" />
		<tag k="natural" v="water" />
		<tag k="ssr:stedsnr" v="325843" />
	</node>
	<node id="-456242" lat="60.4498777813" lon="6.66674999213">
		<tag k="name" v="Kalvvikelvi" />
		<tag k="ssr:stedsnr" v="794298" />
		<tag k="waterway" v="river" />
	</node>
	<node id="-456240" lat="60.1926333379" lon="7.14691389583">
		<tag k="name" v="Langgrøvatnet" />
		<tag k="natural" v="water" />
		<tag k="ssr:stedsnr" v="794293" />
	</node>
	<node id="-454190" lat="60.4663861114" lon="6.64780554773">
		<tag k="name" v="Teigabekken" />
		<tag k="ssr:stedsnr" v="309363" />
		<tag k="waterway" v="stream" />
	</node>
	<node id="-456236" lat="60.2953522303" lon="6.74710790545">
		<tag k="name" v="Opesjovatnet" />
		<tag k="natural" v="water" />
		<tag k="ssr:stedsnr" v="794284" />
		<tag k="water" v="lake" />
	</node>
	<node id="-454185" lat="60.2997944409" lon="6.83050555894">
		<tag k="name" v="Gruvleløken" />
		<tag k="ssr:stedsnr" v="309345" />
		<tag k="waterway" v="stream" />
	</node>
	<node id="-456232" lat="60.3775555523" lon="6.7703277788">
		<tag k="name" v="Tverrelvi" />
		<tag k="ssr:stedsnr" v="794239" />
		<tag k="waterway" v="stream" />
	</node>
	<node id="-456231" lat="60.3943708382" lon="6.52336172934">
		<tag k="alt_name" v="Akslatjørn" />
		<tag k="name" v="Akslatjørni" />
		<tag k="natural" v="water" />
		<tag k="ssr:stedsnr" v="794154" />
	</node>
	<node id="-454182" lat="60.3185305537" lon="6.90830832995">
		<tag k="name" v="Tverrelvi" />
		<tag k="ssr:stedsnr" v="309332" />
		<tag k="waterway" v="river" />
	</node>
	<node id="-454181" lat="60.3311777796" lon="6.85262499772">
		<tag k="name" v="Grøno" />
		<tag k="ssr:stedsnr" v="309330" />
		<tag k="waterway" v="stream" />
	</node>
	<node id="-454180" lat="60.3274629518" lon="6.74322367618">
		<tag k="name" v="Kjølevotni" />
		<tag k="natural" v="water" />
		<tag k="ssr:stedsnr" v="309327" />
		<tag k="water" v="lake" />
	</node>
	<node id="-456224" lat="60.235805557" lon="6.45158610716">
		<tag k="name" v="Rundehaugstjørni" />
		<tag k="natural" v="water" />
		<tag k="ssr:stedsnr" v="793825" />
	</node>
	<node id="-456221" lat="60.2434361115" lon="7.00903611103">
		<tag k="name" v="Fagradalsvatnet" />
		<tag k="natural" v="water" />
		<tag k="ssr:stedsnr" v="793386" />
	</node>
	<node id="-456219" lat="60.1711111069" lon="7.20748888493">
		<tag k="name" v="Brako" />
		<tag k="ssr:stedsnr" v="793356" />
		<tag k="waterway" v="river" />
	</node>
	<node id="-454170" lat="60.1871333342" lon="6.51449445137">
		<tag k="alt_name" v="Raundalsvatnet" />
		<tag k="name" v="Raunsdalsvatnet" />
		<tag k="natural" v="water" />
		<tag k="ssr:stedsnr" v="308862" />
	</node>
	<node id="-456217" lat="60.0966818619" lon="7.10456505575">
		<tag k="name" v="Kollsvatnet" />
		<tag k="natural" v="water" />
		<tag k="ssr:stedsnr" v="793323" />
		<tag k="water" v="lake" />
	</node>
	<node id="-454167" lat="60.2458361068" lon="6.44063333245">
		<tag k="name" v="Øykjaneset" />
		<tag k="natural" v="cape" />
		<tag k="ssr:stedsnr" v="308791" />
	</node>
	<node id="-456213" lat="60.1181805511" lon="7.08532499162">
		<tag k="name" v="Krokavatnet" />
		<tag k="natural" v="water" />
		<tag k="ssr:stedsnr" v="793294" />
		<tag k="water" v="lake" />
	</node>
	<node id="-454161" lat="60.2725250043" lon="6.92007499785">
		<tag k="name" v="Såtetjørni" />
		<tag k="natural" v="water" />
		<tag k="ssr:stedsnr" v="308629" />
	</node>
	<node id="-454160" lat="60.2549166682" lon="6.94596666653">
		<tag k="name" v="Båtadalsbekken" />
		<tag k="ssr:stedsnr" v="308617" />
		<tag k="waterway" v="stream" />
	</node>
	<node id="-456205" lat="60.1782264513" lon="6.87551033364">
		<tag k="name" v="Vetla Tyssevatnet" />
		<tag k="natural" v="water" />
		<tag k="ssr:stedsnr" v="793478" />
		<tag k="water" v="lake" />
	</node>
	<node id="-454155" lat="60.2006000019" lon="6.62066943768">
		<tag k="name" v="Espeelvi" />
		<tag k="ssr:stedsnr" v="308450" />
		<tag k="waterway" v="stream" />
	</node>
	<node id="-456202" lat="60.1319977617" lon="6.9588134965">
		<tag k="name" v="Nonsskorvatnet" />
		<tag k="natural" v="water" />
		<tag k="ssr:stedsnr" v="793439" />
		<tag k="water" v="lake" />
	</node>
	<node id="-454153" lat="60.4775805539" lon="6.76954721582">
		<tag k="name" v="Kvernabekken" />
		<tag k="ssr:stedsnr" v="308389" />
		<tag k="waterway" v="stream" />
	</node>
	<node id="-454150" lat="60.403949999" lon="6.86361111338">
		<tag k="name" v="Birgesdalsvatnet" />
		<tag k="natural" v="water" />
		<tag k="ssr:stedsnr" v="308328" />
		<tag k="water" v="lake" />
	</node>
	<node id="-454147" lat="60.2423152544" lon="6.95847300259">
		<tag k="name" v="Sperredalsvatnet" />
		<tag k="natural" v="water" />
		<tag k="ssr:stedsnr" v="308003" />
		<tag k="water" v="lake" />
	</node>
	<node id="-456193" lat="60.2702861084" lon="6.5723222314">
		<tag k="name" v="Skrybbebekken" />
		<tag k="ssr:stedsnr" v="767860" />
		<tag k="waterway" v="stream" />
	</node>
	<node id="-454144" lat="60.1632826779" lon="6.83685662582">
		<tag k="name" v="Nedsta Tyssevatnet" />
		<tag k="natural" v="water" />
		<tag k="ssr:stedsnr" v="307469" />
		<tag k="water" v="lake" />
	</node>
	<node id="-454140" lat="60.1179" lon="7.01451666109">
		<tag k="name" v="Buatjørn" />
		<tag k="natural" v="water" />
		<tag k="ssr:stedsnr" v="308257" />
	</node>
	<node id="-454139" lat="60.3501749998" lon="6.75990833999">
		<tag k="name" v="Tveitafossen" />
		<tag k="natural" v="waterfall" />
		<tag k="ssr:stedsnr" v="308247" />
	</node>
	<node id="-454130" lat="60.1599317207" lon="7.0913217496">
		<tag k="name" v="Grytevatnet" />
		<tag k="natural" v="water" />
		<tag k="ssr:stedsnr" v="307341" />
		<tag k="water" v="lake" />
	</node>
	<node id="-454129" lat="60.2838109082" lon="6.57713545034">
		<tag k="name" v="Svortetjørn" />
		<tag k="natural" v="water" />
		<tag k="ssr:stedsnr" v="302023" />
	</node>
	<node id="-454125" lat="60.1200638892" lon="7.17709722126">
		<tag k="name" v="Perapytten" />
		<tag k="natural" v="water" />
		<tag k="ssr:stedsnr" v="283170" />
		<tag k="water" v="lake" />
	</node>
	<node id="-454226" lat="60.2719611091" lon="6.5523027757">
		<tag k="name" v="Kambafossen" />
		<tag k="ssr:stedsnr" v="341223" />
		<tag k="waterway" v="rapids" />
	</node>
	<node id="-454115" lat="60.343588885" lon="6.45550832662">
		<tag k="name" v="Bikkja" />
		<tag k="natural" v="cape" />
		<tag k="ssr:stedsnr" v="281930" />
	</node>
	<node id="-454113" lat="60.3608916686" lon="6.67690278145">
		<tag k="name" v="Kvernabekken" />
		<tag k="ssr:stedsnr" v="281909" />
		<tag k="waterway" v="stream" />
	</node>
	<node id="-454112" lat="60.3653527802" lon="6.68039445018">
		<tag k="name" v="Dalebekken" />
		<tag k="ssr:stedsnr" v="281910" />
		<tag k="waterway" v="stream" />
	</node>
	<node id="-456157" lat="60.3034750034" lon="6.59508333558">
		<tag k="name" v="Drivfoss" />
		<tag k="natural" v="waterfall" />
		<tag k="ssr:stedsnr" v="766831" />
	</node>
	<node id="-454223" lat="60.3224666653" lon="6.59471389073">
		<tag k="name" v="Fossane" />
		<tag k="natural" v="waterfall" />
		<tag k="ssr:stedsnr" v="341208" />
	</node>
	<node id="-456149" lat="60.4369611073" lon="6.84279445142">
		<tag k="name" v="Fossane" />
		<tag k="natural" v="waterfall" />
		<tag k="ssr:stedsnr" v="766750" />
	</node>
	<node id="-454087" lat="60.4423722265" lon="6.79119166265">
		<tag k="name" v="Mjøstølsbekken" />
		<tag k="ssr:stedsnr" v="281658" />
		<tag k="waterway" v="stream" />
	</node>
	<node id="-456127" lat="60.3178388891" lon="6.60991666867">
		<tag k="name" v="Kiparhola" />
		<tag k="place" v="locality" />
		<tag k="ssr:stedsnr" v="766236" />
	</node>
	<node id="-456123" lat="60.2572250012" lon="6.55755834176">
		<tag k="name" v="Kaldåna" />
		<tag k="ssr:stedsnr" v="766187" />
		<tag k="waterway" v="stream" />
	</node>
	<node id="-456122" lat="60.4112166639" lon="6.59572222068">
		<tag k="alt_name" v="Ytstaelvi" />
		<tag k="name" v="Fossdalselvi" />
		<tag k="ssr:stedsnr" v="766175" />
		<tag k="waterway" v="river" />
	</node>
	<node id="-454073" lat="60.198102776" lon="6.62805277097">
		<tag k="loc_name" v="Vetlåna" />
		<tag k="name" v="Vesleelvi" />
		<tag k="ssr:stedsnr" v="281481" />
		<tag k="waterway" v="stream" />
	</node>
	<node id="-456114" lat="60.4013666683" lon="6.52014166459">
		<tag k="name" v="Lauvholebekken" />
		<tag k="ssr:stedsnr" v="766105" />
		<tag k="waterway" v="stream" />
	</node>
	<node id="-454059" lat="60.432069444" lon="6.56444722812">
		<tag k="name" v="Sagbekken" />
		<tag k="ssr:stedsnr" v="281095" />
		<tag k="waterway" v="stream" />
	</node>
	<node id="-456100" lat="60.3623249975" lon="6.94994722282">
		<tag k="name" v="Stryken" />
		<tag k="natural" v="waterfall" />
		<tag k="ssr:stedsnr" v="749201" />
	</node>
	<node id="-456096" lat="60.284013889" lon="6.72775277824">
		<tag k="fixme" v="multiple name tags, choose one and add the other to alt_name" />
		<tag k="name" v="Vedåna;Ysjo" />
		<tag k="ssr:stedsnr" v="734695" />
		<tag k="waterway" v="river" />
	</node>
	<node id="-454047" lat="60.3305805556" lon="6.65958055153">
		<tag k="name" v="Lofthusbekken" />
		<tag k="ssr:stedsnr" v="280430" />
		<tag k="waterway" v="stream" />
	</node>
	<node id="-454045" lat="60.3540833348" lon="6.61908610383">
		<tag k="name" v="Skredbekken" />
		<tag k="ssr:stedsnr" v="280171" />
		<tag k="waterway" v="stream" />
	</node>
	<node id="-454044" lat="60.3535444435" lon="6.62184722866">
		<tag k="name" v="Kvernhusbekken" />
		<tag k="ssr:stedsnr" v="280168" />
		<tag k="waterway" v="stream" />
	</node>
	<node id="-456089" lat="60.3132609732" lon="6.68597087887">
		<tag k="name" v="Opo" />
		<tag k="ssr:stedsnr" v="734341" />
		<tag k="waterway" v="river" />
	</node>
	<node id="-456088" lat="60.3258489622" lon="6.83440538536">
		<tag k="name" v="Grøndalsvatnet" />
		<tag k="natural" v="water" />
		<tag k="ssr:stedsnr" v="734338" />
		<tag k="water" v="lake" />
	</node>
	<node id="-456072" lat="60.2796166659" lon="7.09958610284">
		<tag k="name" v="Kjeldehyl" />
		<tag k="place" v="locality" />
		<tag k="ssr:stedsnr" v="733465" />
	</node>
	<node id="-456062" lat="60.0745483386" lon="7.38457652065">
		<tag k="name" v="Nedsta Krokavatnet" />
		<tag k="natural" v="water" />
		<tag k="ssr:stedsnr" v="733279" />
		<tag k="water" v="lake" />
	</node>
	<node id="-456057" lat="60.3832138902" lon="6.84887500749">
		<tag k="name" v="Birgesdalselvi" />
		<tag k="ssr:stedsnr" v="733241" />
		<tag k="waterway" v="stream" />
	</node>
	<node id="-456053" lat="60.1079551952" lon="7.40951657564">
		<tag k="name" v="Simletjørni" />
		<tag k="natural" v="water" />
		<tag k="ssr:stedsnr" v="732739" />
	</node>
	<node id="-456048" lat="60.1534250008" lon="6.97461388734">
		<tag k="name" v="Skålsvatnet" />
		<tag k="natural" v="water" />
		<tag k="ssr:stedsnr" v="732335" />
		<tag k="water" v="lake" />
	</node>
	<node id="-456047" lat="60.0737055515" lon="7.19669166905">
		<tag k="name" v="Veavikane" />
		<tag k="natural" v="bay" />
		<tag k="ssr:stedsnr" v="732302" />
	</node>
	<node id="-456039" lat="60.189724996" lon="6.51697222805">
		<tag k="name" v="Sleipåna" />
		<tag k="ssr:stedsnr" v="706999" />
		<tag k="waterway" v="stream" />
	</node>
	<node id="-456032" lat="60.3023138883" lon="6.64203888959">
		<tag k="name" v="Frøynesbekken" />
		<tag k="ssr:stedsnr" v="706866" />
		<tag k="waterway" v="stream" />
	</node>
	<node id="-456014" lat="60.4637083343" lon="6.65238610563">
		<tag k="name" v="Fossane" />
		<tag k="natural" v="waterfall" />
		<tag k="ssr:stedsnr" v="706629" />
	</node>
	<node id="-455985" lat="60.2228750042" lon="6.61595555745">
		<tag k="name" v="Kvalnesbekken" />
		<tag k="ssr:stedsnr" v="706411" />
		<tag k="waterway" v="stream" />
	</node>
	<node id="-454194" lat="60.3869749963" lon="7.0198611162">
		<tag k="name" v="Bytesbekk" />
		<tag k="ssr:stedsnr" v="309707" />
		<tag k="waterway" v="stream" />
	</node>
	<node id="-455972" lat="60.3778750477" lon="6.59992778813">
		<tag k="name" v="Blomkolltjørn" />
		<tag k="natural" v="water" />
		<tag k="ssr:stedsnr" v="706060" />
	</node>
	<node id="-455968" lat="60.3765748685" lon="6.79771839365">
		<tag k="name" v="Aureneset" />
		<tag k="natural" v="cape" />
		<tag k="ssr:stedsnr" v="705844" />
	</node>
	<node id="-455962" lat="60.381152776" lon="6.82099444731">
		<tag k="name" v="Gråtarbekken" />
		<tag k="ssr:stedsnr" v="705479" />
		<tag k="waterway" v="stream" />
	</node>
	<node id="-455949" lat="60.4125416645" lon="6.96221943752">
		<tag k="name" v="Storelvi" />
		<tag k="ssr:stedsnr" v="690930" />
		<tag k="waterway" v="river" />
	</node>
	<node id="-455942" lat="60.3480610467" lon="7.11510895161">
		<tag k="name" v="Langatjørni" />
		<tag k="natural" v="water" />
		<tag k="ssr:stedsnr" v="689531" />
	</node>
	<node id="-455941" lat="60.407265188" lon="7.02466426413">
		<tag k="name" v="Hesttjørn" />
		<tag k="natural" v="water" />
		<tag k="ssr:stedsnr" v="689532" />
	</node>
	<node id="-455938" lat="60.3548266796" lon="6.84670711759">
		<tag k="name" v="Fagradalsvatnet" />
		<tag k="natural" v="water" />
		<tag k="ssr:stedsnr" v="689199" />
	</node>
	<node id="-455933" lat="60.3097361131" lon="6.9586750017">
		<tag k="name" v="Palatjørn" />
		<tag k="natural" v="water" />
		<tag k="ssr:stedsnr" v="689173" />
	</node>
	<node id="-455931" lat="60.2734972247" lon="7.12639444185">
		<tag k="name" v="Gortjørn" />
		<tag k="natural" v="water" />
		<tag k="ssr:stedsnr" v="673636" />
	</node>
	<node id="-455930" lat="60.2796638902" lon="7.11101665937">
		<tag k="name" v="Olbogo" />
		<tag k="ssr:stedsnr" v="673521" />
		<tag k="waterway" v="river" />
	</node>
	<node id="-455929" lat="60.2809181848" lon="7.01706719897">
		<tag k="name" v="Sinnhovdavatnet" />
		<tag k="natural" v="water" />
		<tag k="ssr:stedsnr" v="673519" />
		<tag k="water" v="lake" />
	</node>
	<node id="-455924" lat="60.2697416677" lon="6.54723611253">
		<tag k="alt_name" v="Bruhaugselvi" />
		<tag k="name" v="Bruhaugelvi" />
		<tag k="ssr:stedsnr" v="673397" />
		<tag k="waterway" v="stream" />
	</node>
	<node id="-454157" lat="60.2066479704" lon="6.86910749712">
		<tag k="name" v="Illakleivløkene" />
		<tag k="natural" v="water" />
		<tag k="ssr:stedsnr" v="308456" />
		<tag k="water" v="lake" />
	</node>
	<node id="-455920" lat="60.2908111073" lon="6.76431666997">
		<tag k="name" v="Bleio" />
		<tag k="ssr:stedsnr" v="673336" />
		<tag k="waterway" v="stream" />
	</node>
	<node id="-455919" lat="60.3028000036" lon="6.84109443531">
		<tag k="name" v="Kinsevatnet" />
		<tag k="natural" v="water" />
		<tag k="ssr:stedsnr" v="673332" />
		<tag k="water" v="lake" />
	</node>
	<node id="-455918" lat="60.3043027809" lon="6.78450277907">
		<tag k="name" v="Grubbeskarvotni" />
		<tag k="natural" v="water" />
		<tag k="ssr:stedsnr" v="673333" />
		<tag k="water" v="lake" />
	</node>
	<node id="-455914" lat="60.425844447" lon="6.56030277473">
		<tag k="name" v="Merkesbekken" />
		<tag k="ssr:stedsnr" v="673147" />
		<tag k="waterway" v="stream" />
	</node>
	<node id="-455912" lat="60.35974658" lon="6.42000705816">
		<tag k="name" v="Svartavatnet" />
		<tag k="natural" v="water" />
		<tag k="ssr:stedsnr" v="673085" />
		<tag k="water" v="lake" />
	</node>
	<node id="-455902" lat="60.0693750027" lon="7.45332499627">
		<tag k="name" v="Skyttarfossen" />
		<tag k="natural" v="waterfall" />
		<tag k="ssr:stedsnr" v="672626" />
	</node>
	<node id="-456229" lat="60.3802527789" lon="6.4971749992">
		<tag k="alt_name" v="Ytståneelvi" />
		<tag k="name" v="Ytstånelvi" />
		<tag k="ssr:stedsnr" v="794079" />
		<tag k="waterway" v="stream" />
	</node>
	<node id="-455896" lat="60.2147876315" lon="6.678286842">
		<tag k="name" v="Vetla Vendevatnet" />
		<tag k="natural" v="water" />
		<tag k="ssr:stedsnr" v="672439" />
		<tag k="water" v="lake" />
	</node>
	<node id="-455892" lat="60.2082900785" lon="7.03244692965">
		<tag k="loc_name" v="Øvsta Solvatnet" />
		<tag k="name" v="Øvsta Soltjørni" />
		<tag k="natural" v="water" />
		<tag k="ssr:stedsnr" v="672289" />
	</node>
	<node id="-455890" lat="60.0971888934" lon="7.30715000445">
		<tag k="name" v="Valgardsbekken" />
		<tag k="ssr:stedsnr" v="672271" />
		<tag k="waterway" v="stream" />
	</node>
	<node id="-455889" lat="60.0809055522" lon="7.25984722655">
		<tag k="name" v="Kvenno" />
		<tag k="ssr:stedsnr" v="672268" />
		<tag k="waterway" v="river" />
	</node>
	<node id="-455887" lat="60.375669443" lon="6.62791944317">
		<tag k="name" v="Hauselvi" />
		<tag k="ssr:stedsnr" v="672234" />
		<tag k="waterway" v="river" />
	</node>
	<node id="-455885" lat="60.4166833354" lon="6.55297777484">
		<tag k="name" v="Heiabekken" />
		<tag k="ssr:stedsnr" v="672168" />
		<tag k="waterway" v="stream" />
	</node>
	<node id="-455884" lat="60.2481472227" lon="6.85019167474">
		<tag k="name" v="Kjølo" />
		<tag k="ssr:stedsnr" v="672010" />
		<tag k="waterway" v="river" />
	</node>
	<node id="-455878" lat="60.193863892" lon="7.21506666393">
		<tag k="name" v="Samkomehølen" />
		<tag k="place" v="locality" />
		<tag k="ssr:stedsnr" v="671314" />
	</node>
	<node id="-455873" lat="60.1878772966" lon="6.63807421733">
		<tag k="name" v="Buatjørni" />
		<tag k="natural" v="water" />
		<tag k="ssr:stedsnr" v="646572" />
	</node>
	<node id="-455871" lat="60.1930916665" lon="6.55028333272">
		<tag k="name" v="Rysskjellsbekken" />
		<tag k="ssr:stedsnr" v="645985" />
		<tag k="waterway" v="stream" />
	</node>
	<node id="-455868" lat="60.4401250023" lon="6.78510833031">
		<tag k="name" v="Svåbekken" />
		<tag k="ssr:stedsnr" v="645862" />
		<tag k="waterway" v="stream" />
	</node>
	<node id="-455867" lat="60.3588138935" lon="6.71324445206">
		<tag k="name" v="Kviteskredbekken" />
		<tag k="ssr:stedsnr" v="645854" />
		<tag k="waterway" v="stream" />
	</node>
	<node id="-454171" lat="60.3090717948" lon="6.48710015252">
		<tag k="name" v="Kvanngrøvatnet" />
		<tag k="natural" v="water" />
		<tag k="ssr:stedsnr" v="309038" />
		<tag k="water" v="lake" />
	</node>
	<node id="-455814" lat="60.378427776" lon="6.51929166345">
		<tag k="name" v="Koldebekk" />
		<tag k="ssr:stedsnr" v="644175" />
		<tag k="waterway" v="stream" />
	</node>
	<node id="-454165" lat="60.0095861094" lon="7.35242222068">
		<tag k="name" v="Vetla Uravatnet" />
		<tag k="natural" v="water" />
		<tag k="ssr:stedsnr" v="308656" />
		<tag k="water" v="lake" />
	</node>
	<node id="-455804" lat="60.2667166708" lon="6.64026387985">
		<tag k="name" v="Nyastølsbekken" />
		<tag k="ssr:stedsnr" v="643415" />
		<tag k="waterway" v="stream" />
	</node>
	<node id="-455799" lat="60.2360888904" lon="7.05447499929">
		<tag k="name" v="Bersavikane" />
		<tag k="natural" v="bay" />
		<tag k="ssr:stedsnr" v="628962" />
	</node>
	<node id="-455798" lat="60.1936569278" lon="7.11874243912">
		<tag k="name" v="Viersdalstjørni" />
		<tag k="natural" v="water" />
		<tag k="ssr:stedsnr" v="628942" />
	</node>
	<node id="-455797" lat="60.4460277778" lon="6.70196666908">
		<tag k="name" v="Vikaelvi" />
		<tag k="ssr:stedsnr" v="628213" />
		<tag k="waterway" v="river" />
	</node>
	<node id="-455791" lat="60.284118751" lon="6.78140635293">
		<tag k="name" v="Øvra Opesjovatnet" />
		<tag k="natural" v="water" />
		<tag k="ssr:stedsnr" v="612681" />
		<tag k="water" v="lake" />
	</node>
	<node id="-455776" lat="60.3815163228" lon="6.89654794243">
		<tag k="name" v="Tryglafossen" />
		<tag k="natural" v="waterfall" />
		<tag k="ssr:stedsnr" v="612275" />
	</node>
	<node id="-455774" lat="60.3910004948" lon="6.58022887982">
		<tag k="alt_name" v="Øvre Grimsvatn;Grimsvatnet, øvre;Øvre Grimsvatnet" />
		<tag k="name" v="Øvsta Grimsvatnet" />
		<tag k="natural" v="water" />
		<tag k="ssr:stedsnr" v="612181" />
	</node>
	<node id="-455767" lat="60.379950004" lon="6.5140555532">
		<tag k="name" v="Alsåkerelvi" />
		<tag k="ssr:stedsnr" v="612102" />
		<tag k="waterway" v="river" />
	</node>
	<node id="-455766" lat="60.3301833373" lon="6.58829999189">
		<tag k="name" v="Kvannskorfossen" />
		<tag k="natural" v="waterfall" />
		<tag k="ssr:stedsnr" v="612011" />
	</node>
	<node id="-455763" lat="60.2531555557" lon="6.67163889488">
		<tag k="name" v="Vatnasetevatnet" />
		<tag k="natural" v="water" />
		<tag k="ssr:stedsnr" v="611681" />
		<tag k="water" v="lake" />
	</node>
	<node id="-455762" lat="60.080055555" lon="7.4651694501">
		<tag k="name" v="Blånutbekken" />
		<tag k="ssr:stedsnr" v="611668" />
		<tag k="waterway" v="stream" />
	</node>
	<node id="-455758" lat="60.1963132603" lon="6.6623640045">
		<tag k="name" v="Mostjørn" />
		<tag k="natural" v="water" />
		<tag k="ssr:stedsnr" v="611491" />
		<tag k="water" v="lake" />
	</node>
	<node id="-455757" lat="60.2113388861" lon="6.66023610685">
		<tag k="name" v="Vendehylen" />
		<tag k="place" v="locality" />
		<tag k="ssr:stedsnr" v="611479" />
	</node>
	<node id="-455754" lat="60.1413944405" lon="6.86746666812">
		<tag k="name" v="Øvra Veidedalsvatn" />
		<tag k="natural" v="water" />
		<tag k="ssr:stedsnr" v="611426" />
		<tag k="water" v="lake" />
	</node>
	<node id="-455749" lat="60.2311194407" lon="6.97378888225">
		<tag k="name" v="Kinso" />
		<tag k="ssr:stedsnr" v="611385" />
		<tag k="waterway" v="river" />
	</node>
	<node id="-455746" lat="60.1604158388" lon="7.00999573736">
		<tag k="name" v="Skålsløkene" />
		<tag k="natural" v="water" />
		<tag k="ssr:stedsnr" v="611334" />
	</node>
	<node id="-455745" lat="60.2023037908" lon="6.95680045371">
		<tag k="alt_name" v="Nedsta Onkjelsvatnet" />
		<tag k="name" v="Austdalsvatnet" />
		<tag k="natural" v="water" />
		<tag k="ssr:stedsnr" v="611330" />
		<tag k="water" v="lake" />
	</node>
	<node id="-455742" lat="60.0735277745" lon="7.16999444223">
		<tag k="name" v="Fiskos" />
		<tag k="natural" v="bay" />
		<tag k="ssr:stedsnr" v="611290" />
	</node>
	<node id="-455738" lat="60.049107596" lon="7.17005140299">
		<tag k="name" v="Klerkatjørn" />
		<tag k="natural" v="water" />
		<tag k="ssr:stedsnr" v="611252" />
	</node>
	<node id="-455734" lat="60.2495299707" lon="6.923000233">
		<tag k="name" v="Veivatnet" />
		<tag k="natural" v="water" />
		<tag k="ssr:stedsnr" v="611007" />
		<tag k="water" v="lake" />
	</node>
	<node id="-455722" lat="60.3787722234" lon="6.6372888973">
		<tag k="name" v="Kvernhusbekken" />
		<tag k="ssr:stedsnr" v="584855" />
		<tag k="waterway" v="stream" />
	</node>
	<node id="-455721" lat="60.3746527768" lon="6.63614999923">
		<tag k="name" v="Matbekken" />
		<tag k="ssr:stedsnr" v="584852" />
		<tag k="waterway" v="stream" />
	</node>
	<node id="-455709" lat="60.4369463202" lon="6.85450964055">
		<tag k="name" v="Tormodstjørn" />
		<tag k="natural" v="water" />
		<tag k="ssr:stedsnr" v="584741" />
	</node>
	<node id="-455703" lat="60.4403138849" lon="6.69810832568">
		<tag k="name" v="Bytesbekken" />
		<tag k="ssr:stedsnr" v="584690" />
		<tag k="waterway" v="stream" />
	</node>
	<node id="-455698" lat="60.4424333322" lon="6.7879777831">
		<tag k="name" v="Kvernabekken" />
		<tag k="ssr:stedsnr" v="584649" />
		<tag k="waterway" v="stream" />
	</node>
	<node id="-455697" lat="60.4011111131" lon="6.72153610791">
		<tag k="name" v="Skjella" />
		<tag k="ssr:stedsnr" v="584635" />
		<tag k="waterway" v="stream" />
	</node>
	<node id="-455686" lat="60.2482750009" lon="6.62682500175">
		<tag k="name" v="Storebekk" />
		<tag k="ssr:stedsnr" v="584500" />
		<tag k="waterway" v="stream" />
	</node>
	<node id="-455662" lat="60.3820250006" lon="6.75044721907">
		<tag k="alt_name" v="Gjelabekken" />
		<tag k="name" v="Giljabekken" />
		<tag k="old_name" v="Gjeldbekken" />
		<tag k="ssr:stedsnr" v="583814" />
		<tag k="waterway" v="stream" />
	</node>
	<node id="-455658" lat="60.4702499981" lon="6.82918332797">
		<tag k="name" v="Kvernabekken" />
		<tag k="ssr:stedsnr" v="583450" />
		<tag k="waterway" v="stream" />
	</node>
	<node id="-455657" lat="60.4639250026" lon="6.75205278194">
		<tag k="name" v="Midtunsbekken" />
		<tag k="ssr:stedsnr" v="583448" />
		<tag k="waterway" v="stream" />
	</node>
	<node id="-455643" lat="60.3086447137" lon="6.73843154564">
		<tag k="name" v="Henrikstjørn" />
		<tag k="natural" v="water" />
		<tag k="ssr:stedsnr" v="567169" />
	</node>
	<node id="-455642" lat="60.3045416698" lon="6.72730000093">
		<tag k="name" v="Høganes" />
		<tag k="natural" v="cape" />
		<tag k="ssr:stedsnr" v="567157" />
	</node>
	<node id="-455638" lat="60.2126333337" lon="6.55051110414">
		<tag k="name" v="Byro" />
		<tag k="ssr:stedsnr" v="551855" />
		<tag k="waterway" v="stream" />
	</node>
	<node id="-455634" lat="60.2868249984" lon="6.89792778353">
		<tag k="name" v="Rekadalselvi" />
		<tag k="ssr:stedsnr" v="551680" />
		<tag k="waterway" v="river" />
	</node>
	<node id="-455628" lat="60.2584583305" lon="6.64094445098">
		<tag k="name" v="Storelvi" />
		<tag k="ssr:stedsnr" v="551659" />
		<tag k="waterway" v="river" />
	</node>
	<node id="-455626" lat="60.3443877355" lon="6.98763170566">
		<tag k="name" v="Vassdalsvotni" />
		<tag k="natural" v="water" />
		<tag k="ssr:stedsnr" v="551536" />
		<tag k="water" v="lake" />
	</node>
	<node id="-455622" lat="60.2214999958" lon="6.64304445298">
		<tag k="name" v="Vendo" />
		<tag k="ssr:stedsnr" v="551461" />
		<tag k="waterway" v="stream" />
	</node>
	<node id="-455620" lat="60.2539976486" lon="6.49835486442">
		<tag k="name" v="Revavatnet" />
		<tag k="natural" v="water" />
		<tag k="ssr:stedsnr" v="551382" />
		<tag k="water" v="lake" />
	</node>
	<node id="-455617" lat="60.3991305578" lon="6.8159083418">
		<tag k="name" v="Istjørn" />
		<tag k="natural" v="water" />
		<tag k="ssr:stedsnr" v="551346" />
	</node>
	<node id="-455615" lat="60.4455805567" lon="6.66749444514">
		<tag k="name" v="Fiskastobekken" />
		<tag k="ssr:stedsnr" v="551323" />
		<tag k="waterway" v="stream" />
	</node>
	<node id="-455605" lat="60.359339059" lon="6.45674462084">
		<tag k="name" v="Lommatjørni" />
		<tag k="natural" v="water" />
		<tag k="ssr:stedsnr" v="551122" />
	</node>
	<node id="-455601" lat="60.2038305574" lon="6.55780833579">
		<tag k="alt_name" v="Mågeelvi" />
		<tag k="name" v="Mågelvi" />
		<tag k="ssr:stedsnr" v="550852" />
		<tag k="waterway" v="stream" />
	</node>
	<node id="-455600" lat="60.2327805576" lon="6.54731111234">
		<tag k="name" v="Søyelsfoss" />
		<tag k="natural" v="waterfall" />
		<tag k="ssr:stedsnr" v="550820" />
	</node>
	<node id="-455597" lat="60.1171185334" lon="7.37723870049">
		<tag k="name" v="Gulleikstjørnane" />
		<tag k="natural" v="water" />
		<tag k="ssr:stedsnr" v="550719" />
	</node>
	<node id="-455595" lat="60.0482331775" lon="7.4170581678">
		<tag k="name" v="Jakobsbuvatnet" />
		<tag k="natural" v="water" />
		<tag k="ssr:stedsnr" v="550615" />
	</node>
	<node id="-455591" lat="60.1908527795" lon="6.86099165862">
		<tag k="name" v="Tyssespranget" />
		<tag k="natural" v="water" />
		<tag k="ssr:stedsnr" v="550427" />
	</node>
	<node id="-455589" lat="60.1724198151" lon="7.05475584095">
		<tag k="name" v="Sandvatnet" />
		<tag k="natural" v="water" />
		<tag k="ssr:stedsnr" v="550324" />
		<tag k="water" v="lake" />
	</node>
	<node id="-455587" lat="60.0920361147" lon="7.17698888326">
		<tag k="name" v="Holkatjørn" />
		<tag k="natural" v="water" />
		<tag k="ssr:stedsnr" v="550288" />
	</node>
	<node id="-455586" lat="60.0843166624" lon="7.1423361174">
		<tag k="name" v="Litlosvatnet" />
		<tag k="natural" v="water" />
		<tag k="ssr:stedsnr" v="550286" />
		<tag k="water" v="lake" />
	</node>
	<node id="-455582" lat="60.2350423489" lon="6.86761249035">
		<tag k="name" v="Uravatnet" />
		<tag k="natural" v="water" />
		<tag k="ssr:stedsnr" v="550002" />
		<tag k="water" v="lake" />
	</node>
	<node id="-455562" lat="60.356344444" lon="6.67390000523">
		<tag k="name" v="Skreddalsbekken" />
		<tag k="ssr:stedsnr" v="524840" />
		<tag k="waterway" v="stream" />
	</node>
	<node id="-455523" lat="60.3194339424" lon="6.60087109284">
		<tag k="name" v="Tjørni" />
		<tag k="natural" v="water" />
		<tag k="ssr:stedsnr" v="524190" />
	</node>
	<node id="-455498" lat="60.3430505222" lon="6.82507493383">
		<tag k="name" v="Vierdalsvatnet" />
		<tag k="natural" v="water" />
		<tag k="ssr:stedsnr" v="507198" />
		<tag k="water" v="lake" />
	</node>
	<node id="-455497" lat="60.3222423589" lon="6.84724547391">
		<tag k="name" v="Stavalivatnet" />
		<tag k="natural" v="water" />
		<tag k="ssr:stedsnr" v="507193" />
		<tag k="water" v="lake" />
	</node>
	<node id="-455489" lat="60.2800117502" lon="6.67809420061">
		<tag k="name" v="Røvilsvatnet" />
		<tag k="natural" v="water" />
		<tag k="ssr:stedsnr" v="491675" />
		<tag k="water" v="lake" />
	</node>
	<node id="-455486" lat="60.4297666668" lon="6.86037499718">
		<tag k="name" v="Vatnasetevatnet" />
		<tag k="natural" v="water" />
		<tag k="ssr:stedsnr" v="491367" />
		<tag k="water" v="lake" />
	</node>
	<node id="-455477" lat="60.3622771071" lon="6.57093923862">
		<tag k="alt_name" v="Vassdalsvatnet, øvre" />
		<tag k="name" v="Øvre Vassdalsvatnet" />
		<tag k="natural" v="water" />
		<tag k="ssr:stedsnr" v="491117" />
		<tag k="water" v="lake" />
	</node>
	<node id="-455462" lat="60.3911416672" lon="6.61118056066">
		<tag k="name" v="Grimelvi" />
		<tag k="ssr:stedsnr" v="490362" />
		<tag k="waterway" v="river" />
	</node>
	<node id="-455459" lat="60.2457027779" lon="7.09175556152">
		<tag k="name" v="Tverrelvi" />
		<tag k="ssr:stedsnr" v="490353" />
		<tag k="waterway" v="stream" />
	</node>
	<node id="-455455" lat="60.2043503808" lon="7.00154093909">
		<tag k="name" v="Djupavatnet" />
		<tag k="natural" v="water" />
		<tag k="ssr:stedsnr" v="490314" />
	</node>
	<node id="-455452" lat="60.1151179567" lon="7.14502038666">
		<tag k="name" v="Skadvatn" />
		<tag k="natural" v="water" />
		<tag k="ssr:stedsnr" v="490270" />
		<tag k="water" v="lake" />
	</node>
	<node id="-455451" lat="60.1044472268" lon="7.13804167401">
		<tag k="name" v="Skadvassbekken" />
		<tag k="ssr:stedsnr" v="490265" />
		<tag k="waterway" v="stream" />
	</node>
	<node id="-455450" lat="60.0646305512" lon="7.28038055561">
		<tag k="name" v="Tuebekken" />
		<tag k="ssr:stedsnr" v="490250" />
		<tag k="waterway" v="stream" />
	</node>
	<node id="-455449" lat="60.0652138933" lon="7.31145000421">
		<tag k="name" v="Sigridskarbekken" />
		<tag k="ssr:stedsnr" v="490251" />
		<tag k="waterway" v="stream" />
	</node>
	<node id="-455447" lat="60.0557671878" lon="7.25566504512">
		<tag k="name" v="Tuevotni" />
		<tag k="natural" v="water" />
		<tag k="ssr:stedsnr" v="490243" />
		<tag k="water" v="lake" />
	</node>
	<node id="-455442" lat="60.414494445" lon="6.5434611137">
		<tag k="name" v="Tungebekken" />
		<tag k="ssr:stedsnr" v="490135" />
		<tag k="waterway" v="stream" />
	</node>
	<node id="-455433" lat="60.2225083316" lon="6.72240556043">
		<tag k="name" v="Håholmen" />
		<tag k="place" v="islet" />
		<tag k="ssr:stedsnr" v="490457" />
	</node>
	<node id="-455429" lat="60.2984372161" lon="6.50259493597">
		<tag k="name" v="Instavatnet" />
		<tag k="natural" v="water" />
		<tag k="ssr:stedsnr" v="490418" />
		<tag k="water" v="lake" />
	</node>
	<node id="-455424" lat="60.1314763942" lon="7.11661415966">
		<tag k="name" v="Ingvaldspytten" />
		<tag k="natural" v="water" />
		<tag k="ssr:stedsnr" v="465194" />
	</node>
	<node id="-455415" lat="60.2983833333" lon="6.58565555598">
		<tag k="name" v="Oppkomefossen" />
		<tag k="natural" v="waterfall" />
		<tag k="ssr:stedsnr" v="463841" />
	</node>
	<node id="-455391" lat="60.4427833334" lon="6.82150000318">
		<tag k="name" v="Tverrbekken" />
		<tag k="ssr:stedsnr" v="463623" />
		<tag k="waterway" v="stream" />
	</node>
	<node id="-455388" lat="60.4378166661" lon="6.78189722638">
		<tag k="name" v="Smidjebekken" />
		<tag k="ssr:stedsnr" v="463613" />
		<tag k="waterway" v="stream" />
	</node>
	<node id="-455387" lat="60.4359666709" lon="6.78372777988">
		<tag k="name" v="Kyrsjuklebekken" />
		<tag k="ssr:stedsnr" v="463611" />
		<tag k="waterway" v="stream" />
	</node>
	<node id="-455377" lat="60.3005750023" lon="6.688741674">
		<tag k="name" v="Storbekk" />
		<tag k="ssr:stedsnr" v="463501" />
		<tag k="waterway" v="stream" />
	</node>
	<node id="-454207" lat="60.4536055527" lon="6.72248888221">
		<tag k="name" v="Åkreelvi" />
		<tag k="ssr:stedsnr" v="126332" />
		<tag k="waterway" v="stream" />
	</node>
	<node id="-455373" lat="60.2793690715" lon="6.66658698581">
		<tag k="name" v="Klyvjahaugsvatn" />
		<tag k="natural" v="water" />
		<tag k="ssr:stedsnr" v="463453" />
	</node>
	<node id="-455372" lat="60.1994194454" lon="6.63140277735">
		<tag k="name" v="Stølsbekken" />
		<tag k="ssr:stedsnr" v="463440" />
		<tag k="waterway" v="stream" />
	</node>
	<node id="-455364" lat="60.3752444482" lon="6.55459167388">
		<tag k="name" v="Fossdalselvi" />
		<tag k="ssr:stedsnr" v="463158" />
		<tag k="waterway" v="river" />
	</node>
	<node id="-455349" lat="60.3472916655" lon="6.609400002">
		<tag k="name" v="Ytsta Indre Jåstadelvi" />
		<tag k="ssr:stedsnr" v="462123" />
		<tag k="waterway" v="river" />
	</node>
	<node id="-455340" lat="60.3560666667" lon="6.74637777555">
		<tag k="name" v="Hylen" />
		<tag k="place" v="locality" />
		<tag k="ssr:stedsnr" v="446226" />
	</node>
	<node id="-455337" lat="60.4076750022" lon="6.99445278194">
		<tag k="name" v="Geitelvi" />
		<tag k="ssr:stedsnr" v="431614" />
		<tag k="waterway" v="stream" />
	</node>
	<node id="-455335" lat="60.4449999971" lon="6.8520999912">
		<tag k="name" v="Tjørnavotni" />
		<tag k="natural" v="water" />
		<tag k="ssr:stedsnr" v="431378" />
		<tag k="water" v="lake" />
	</node>
	<node id="-455327" lat="60.3050641469" lon="6.99908964614">
		<tag k="name" v="Langavatnet" />
		<tag k="natural" v="water" />
		<tag k="ssr:stedsnr" v="430504" />
		<tag k="water" v="lake" />
	</node>
	<node id="-455326" lat="60.2938222236" lon="7.03883611779">
		<tag k="name" v="Bytesbekk" />
		<tag k="ssr:stedsnr" v="430495" />
		<tag k="waterway" v="stream" />
	</node>
	<node id="-455325" lat="60.2820667825" lon="6.46619405366">
		<tag k="name" v="Klypestjørni" />
		<tag k="natural" v="water" />
		<tag k="ssr:stedsnr" v="430477" />
	</node>
	<node id="-455320" lat="60.2374493864" lon="7.10483951322">
		<tag k="name" v="Holmavatnet" />
		<tag k="natural" v="water" />
		<tag k="ssr:stedsnr" v="430362" />
	</node>
	<node id="-455314" lat="60.2931027758" lon="6.65343055216">
		<tag k="name" v="Deildo" />
		<tag k="ssr:stedsnr" v="430308" />
		<tag k="waterway" v="stream" />
	</node>
	<node id="-455291" lat="60.2513594519" lon="6.66228623768">
		<tag k="name" v="Svortetjørn" />
		<tag k="natural" v="water" />
		<tag k="ssr:stedsnr" v="430659" />
		<tag k="water" v="lake" />
	</node>
	<node id="-454079" lat="60.2747194407" lon="6.63659444684">
		<tag k="name" v="Børveelvi" />
		<tag k="ssr:stedsnr" v="281560" />
		<tag k="waterway" v="river" />
	</node>
	<node id="-455285" lat="60.1190180723" lon="6.98124516455">
		<tag k="name" v="Nedsta Nonsskorvatnet" />
		<tag k="natural" v="water" />
		<tag k="ssr:stedsnr" v="429263" />
		<tag k="water" v="lake" />
	</node>
	<node id="-455284" lat="60.1131305555" lon="7.01206945286">
		<tag k="name" v="Oddvyrevatnet" />
		<tag k="natural" v="water" />
		<tag k="ssr:stedsnr" v="429258" />
		<tag k="water" v="lake" />
	</node>
	<node id="-455283" lat="60.1114507829" lon="7.31832920679">
		<tag k="name" v="Valgardsvotni" />
		<tag k="natural" v="water" />
		<tag k="ssr:stedsnr" v="429256" />
		<tag k="water" v="lake" />
	</node>
	<node id="-455281" lat="60.1833841151" lon="6.94316154733">
		<tag k="name" v="Onkjelsvatnet" />
		<tag k="natural" v="water" />
		<tag k="ssr:stedsnr" v="429435" />
		<tag k="water" v="lake" />
	</node>
	<node id="-455274" lat="60.1866805589" lon="6.5451555607">
		<tag k="alt_name" v="Raudsteinsbekken" />
		<tag k="name" v="Raudskredbekken" />
		<tag k="ssr:stedsnr" v="429231" />
		<tag k="waterway" v="stream" />
	</node>
	<node id="-455272" lat="60.4567388867" lon="6.64646667196">
		<tag k="name" v="Kvernabekken" />
		<tag k="ssr:stedsnr" v="265233" />
		<tag k="waterway" v="stream" />
	</node>
	<node id="-455268" lat="60.3124361094" lon="6.55949443845">
		<tag k="name" v="Søtetjørna" />
		<tag k="natural" v="water" />
		<tag k="ssr:stedsnr" v="263304" />
	</node>
	<node id="-455265" lat="60.218380559" lon="6.5635694424">
		<tag k="name" v="Skredbekken" />
		<tag k="ssr:stedsnr" v="248849" />
		<tag k="waterway" v="stream" />
	</node>
	<node id="-455262" lat="60.2776055528" lon="6.85290278231">
		<tag k="name" v="Gravdalsvatnet" />
		<tag k="natural" v="water" />
		<tag k="ssr:stedsnr" v="248693" />
		<tag k="water" v="lake" />
	</node>
	<node id="-455261" lat="60.2852749973" lon="6.93185278016">
		<tag k="name" v="Austmannavatnet" />
		<tag k="natural" v="water" />
		<tag k="ssr:stedsnr" v="248688" />
		<tag k="water" v="lake" />
	</node>
	<node id="-455250" lat="60.4062694477" lon="6.7408527787">
		<tag k="alt_name" v="Maurelvi" />
		<tag k="name" v="Mauro" />
		<tag k="ssr:stedsnr" v="248343" />
		<tag k="waterway" v="stream" />
	</node>
	<node id="-455248" lat="60.4042848058" lon="6.82305495098">
		<tag k="name" v="Steintjørnane" />
		<tag k="natural" v="water" />
		<tag k="ssr:stedsnr" v="248338" />
		<tag k="water" v="lake" />
	</node>
	<node id="-455245" lat="60.3080379611" lon="6.91588144115">
		<tag k="name" v="Lonavatnet" />
		<tag k="natural" v="water" />
		<tag k="ssr:stedsnr" v="248292" />
		<tag k="water" v="lake" />
	</node>
	<node id="-455237" lat="60.408855557" lon="6.51405000566">
		<tag k="name" v="Vinesbekken" />
		<tag k="ssr:stedsnr" v="248166" />
		<tag k="waterway" v="stream" />
	</node>
	<node id="-455232" lat="60.3624944431" lon="6.5030388833">
		<tag k="name" v="Ytståna" />
		<tag k="ssr:stedsnr" v="248113" />
		<tag k="waterway" v="stream" />
	</node>
	<node id="-455231" lat="60.3430914069" lon="6.4653104148">
		<tag k="alt_name" v="Tautaretjørn" />
		<tag k="name" v="Tautartjørni" />
		<tag k="natural" v="water" />
		<tag k="ssr:stedsnr" v="248104" />
	</node>
	<node id="-455226" lat="60.2091027799" lon="6.61996389127">
		<tag k="alt_name" v="Skreda" />
		<tag k="name" v="Skredo" />
		<tag k="ssr:stedsnr" v="247453" />
		<tag k="waterway" v="stream" />
	</node>
	<node id="-455223" lat="60.1832333317" lon="6.95934166301">
		<tag k="name" v="Vetla Kinso" />
		<tag k="ssr:stedsnr" v="247422" />
		<tag k="waterway" v="river" />
	</node>
	<node id="-455222" lat="60.1753180548" lon="6.70758470532">
		<tag k="name" v="Øvra Bersavatnet" />
		<tag k="natural" v="water" />
		<tag k="ssr:stedsnr" v="247416" />
		<tag k="water" v="lake" />
	</node>
	<node id="-455221" lat="60.1852222193" lon="6.74291667041">
		<tag k="name" v="Kjetilshyl" />
		<tag k="place" v="locality" />
		<tag k="ssr:stedsnr" v="247410" />
	</node>
	<node id="-455220" lat="60.2377055531" lon="6.97159445013">
		<tag k="name" v="Kinsevatnet" />
		<tag k="natural" v="water" />
		<tag k="ssr:stedsnr" v="247327" />
		<tag k="water" v="lake" />
	</node>
	<node id="-455216" lat="60.184452777" lon="6.98197222015">
		<tag k="name" v="Stora Kinso" />
		<tag k="ssr:stedsnr" v="247295" />
		<tag k="waterway" v="river" />
	</node>
	<node id="-455215" lat="60.0953638898" lon="7.0795777714">
		<tag k="name" v="Bergvio" />
		<tag k="ssr:stedsnr" v="247286" />
		<tag k="waterway" v="river" />
	</node>
	<node id="-455214" lat="60.1276234067" lon="7.27077306628">
		<tag k="loc_name" v="Grjottjørnane" />
		<tag k="name" v="Grottjørnane" />
		<tag k="natural" v="water" />
		<tag k="ssr:stedsnr" v="247265" />
		<tag k="water" v="lake" />
	</node>
	<node id="-455205" lat="60.4037916706" lon="6.58096665767">
		<tag k="alt_name" v="Demmane" />
		<tag k="name" v="Demmena" />
		<tag k="natural" v="water" />
		<tag k="ssr:stedsnr" v="237169" />
	</node>
	<node id="-455200" lat="60.1912555551" lon="6.54736665874">
		<tag k="name" v="Spunsoppbekken" />
		<tag k="ssr:stedsnr" v="221985" />
		<tag k="waterway" v="stream" />
	</node>
	<node id="-455192" lat="60.2717611148" lon="6.57364444174">
		<tag k="name" v="Fosseteigbekken" />
		<tag k="ssr:stedsnr" v="221826" />
		<tag k="waterway" v="stream" />
	</node>
	<node id="-455186" lat="60.3605111088" lon="6.73980555482">
		<tag k="name" v="Furenes" />
		<tag k="natural" v="cape" />
		<tag k="ssr:stedsnr" v="221566" />
	</node>
	<node id="-455129" lat="60.4422499999" lon="6.84375833413">
		<tag k="name" v="Tverrelvi" />
		<tag k="ssr:stedsnr" v="219403" />
		<tag k="waterway" v="river" />
	</node>
	<node id="-455115" lat="60.2469745789" lon="7.15753000628">
		<tag k="name" v="Svartepytt" />
		<tag k="natural" v="water" />
		<tag k="ssr:stedsnr" v="203984" />
	</node>
	<node id="-455114" lat="60.2372611081" lon="7.04266388057">
		<tag k="name" v="Bersavikløken" />
		<tag k="ssr:stedsnr" v="203975" />
		<tag k="waterway" v="stream" />
	</node>
	<node id="-455113" lat="60.2010888867" lon="7.11879722273">
		<tag k="name" v="Viersdølo" />
		<tag k="ssr:stedsnr" v="203964" />
		<tag k="waterway" v="river" />
	</node>
	<node id="-455111" lat="60.3417055578" lon="6.85555833186">
		<tag k="name" v="Tryulsbekk" />
		<tag k="ssr:stedsnr" v="203224" />
		<tag k="waterway" v="stream" />
	</node>
	<node id="-455105" lat="60.3491118123" lon="6.46160936916">
		<tag k="alt_name" v="Fuglavatn" />
		<tag k="name" v="Fuglavatnet" />
		<tag k="natural" v="water" />
		<tag k="ssr:stedsnr" v="188141" />
	</node>
	<node id="-455100" lat="60.2263083345" lon="6.56188332862">
		<tag k="name" v="Fossåna" />
		<tag k="ssr:stedsnr" v="187807" />
		<tag k="waterway" v="stream" />
	</node>
	<node id="-455098" lat="60.2708294144" lon="6.72533256372">
		<tag k="name" v="Ysjebotnvatnet" />
		<tag k="natural" v="water" />
		<tag k="ssr:stedsnr" v="187621" />
		<tag k="water" v="lake" />
	</node>
	<node id="-456095" lat="60.3139444445" lon="6.83445555724">
		<tag k="name" v="Kinso" />
		<tag k="ssr:stedsnr" v="734632" />
		<tag k="waterway" v="river" />
	</node>
	<node id="-455096" lat="60.328786112" lon="7.03391110801">
		<tag k="name" v="Reinåna" />
		<tag k="ssr:stedsnr" v="187498" />
		<tag k="waterway" v="river" />
	</node>
	<node id="-455087" lat="60.2062593075" lon="6.64407913189">
		<tag k="alt_name" v="Trettetjørna" />
		<tag k="name" v="Trettetjørn" />
		<tag k="natural" v="water" />
		<tag k="ssr:stedsnr" v="187448" />
	</node>
	<node id="-455084" lat="60.3426027762" lon="6.79009443739">
		<tag k="name" v="Nykkjesøyfossen" />
		<tag k="natural" v="waterfall" />
		<tag k="ssr:stedsnr" v="187274" />
	</node>
	<node id="-455083" lat="60.0184486806" lon="7.204412352">
		<tag k="name" v="Sigridtjørni" />
		<tag k="natural" v="water" />
		<tag k="ssr:stedsnr" v="187272" />
	</node>
	<node id="-455082" lat="60.3486416687" lon="6.77792499511">
		<tag k="name" v="Nyastølfossen" />
		<tag k="natural" v="waterfall" />
		<tag k="ssr:stedsnr" v="187268" />
	</node>
	<node id="-455077" lat="60.0278453204" lon="7.29514191618">
		<tag k="name" v="Øvsta Bjørnavatnet" />
		<tag k="natural" v="water" />
		<tag k="ssr:stedsnr" v="187240" />
		<tag k="water" v="lake" />
	</node>
	<node id="-455066" lat="60.1755861067" lon="6.78566388787">
		<tag k="name" v="Vattagilsløkene" />
		<tag k="natural" v="water" />
		<tag k="ssr:stedsnr" v="186493" />
		<tag k="water" v="lake" />
	</node>
	<node id="-455065" lat="60.0750166638" lon="7.12362777205">
		<tag k="name" v="Fotkjølo" />
		<tag k="ssr:stedsnr" v="186300" />
		<tag k="waterway" v="stream" />
	</node>
	<node id="-455064" lat="60.1397416641" lon="7.12693334037">
		<tag k="name" v="Grøndalsvotni" />
		<tag k="natural" v="water" />
		<tag k="ssr:stedsnr" v="186294" />
		<tag k="water" v="lake" />
	</node>
	<node id="-455063" lat="60.1203666655" lon="7.04075555635">
		<tag k="name" v="Sledalsvatnet" />
		<tag k="natural" v="water" />
		<tag k="ssr:stedsnr" v="186284" />
		<tag k="water" v="lake" />
	</node>
	<node id="-454041" lat="60.0800146202" lon="7.30490023777">
		<tag k="name" v="Øvsta Krokavatnet" />
		<tag k="natural" v="water" />
		<tag k="ssr:stedsnr" v="270923" />
		<tag k="water" v="lake" />
	</node>
	<node id="-455052" lat="60.2520303704" lon="6.70239785186">
		<tag k="name" v="Ysjevatnet" />
		<tag k="natural" v="water" />
		<tag k="ssr:stedsnr" v="186012" />
		<tag k="water" v="lake" />
	</node>
	<node id="-455049" lat="60.2536416709" lon="6.54249721671">
		<tag k="name" v="Isklar-kjeldene" />
		<tag k="natural" v="spring" />
		<tag k="ssr:stedsnr" v="181973" />
	</node>
	<node id="-455044" lat="60.4101277758" lon="6.74142499706">
		<tag k="name" v="Giljaelvi" />
		<tag k="ssr:stedsnr" v="161065" />
		<tag k="waterway" v="river" />
	</node>
	<node id="-455033" lat="60.1687388929" lon="6.60395555698">
		<tag k="name" v="Sloka" />
		<tag k="natural" v="cape" />
		<tag k="ssr:stedsnr" v="160875" />
	</node>
	<node id="-455024" lat="60.3562111107" lon="6.72395554967">
		<tag k="name" v="Nonsnutebekken" />
		<tag k="ssr:stedsnr" v="160549" />
		<tag k="waterway" v="stream" />
	</node>
	<node id="-454995" lat="60.3211833295" lon="6.69752222153">
		<tag k="name" v="Nasakjelda" />
		<tag k="natural" v="water" />
		<tag k="ssr:stedsnr" v="159825" />
		<tag k="water" v="pond" />
	</node>
	<node id="-454980" lat="60.3523916639" lon="6.61965832571">
		<tag k="name" v="Kalvatræbekken" />
		<tag k="ssr:stedsnr" v="159254" />
		<tag k="waterway" v="stream" />
	</node>
	<node id="-454976" lat="60.4369499964" lon="6.77822778299">
		<tag k="name" v="Saltingsbekken" />
		<tag k="ssr:stedsnr" v="159690" />
		<tag k="waterway" v="stream" />
	</node>
	<node id="-454974" lat="60.3871388908" lon="6.55672221439">
		<tag k="name" v="Koldo" />
		<tag k="ssr:stedsnr" v="159178" />
		<tag k="waterway" v="stream" />
	</node>
	<node id="-454367" lat="60.3620583341" lon="6.61297500739">
		<tag k="name" v="Heimabekken" />
		<tag k="ssr:stedsnr" v="401229" />
		<tag k="waterway" v="stream" />
	</node>
	<node id="-454965" lat="60.3528144181" lon="6.85858944351">
		<tag k="name" v="Kvannadalsvatnet" />
		<tag k="natural" v="water" />
		<tag k="ssr:stedsnr" v="143180" />
		<tag k="water" v="lake" />
	</node>
	<node id="-454954" lat="60.4201194474" lon="6.75785832413">
		<tag k="name" v="Tveismeelvi" />
		<tag k="ssr:stedsnr" v="127381" />
		<tag k="waterway" v="stream" />
	</node>
	<node id="-454953" lat="60.2693249959" lon="6.54158888588">
		<tag k="name" v="Drivfoss" />
		<tag k="natural" v="waterfall" />
		<tag k="ssr:stedsnr" v="127408" />
	</node>
	<node id="-454951" lat="60.4453638916" lon="6.81662499295">
		<tag k="name" v="Bjotveitelvi" />
		<tag k="ssr:stedsnr" v="127366" />
		<tag k="waterway" v="stream" />
	</node>
	<node id="-454948" lat="60.2563777757" lon="6.63742777998">
		<tag k="name" v="Vetlelvi" />
		<tag k="ssr:stedsnr" v="126650" />
		<tag k="waterway" v="river" />
	</node>
	<node id="-454946" lat="60.0231249975" lon="7.4189666651">
		<tag k="name" v="Svervo" />
		<tag k="ssr:stedsnr" v="126659" />
		<tag k="waterway" v="river" />
	</node>
	<node id="-454945" lat="60.30483333" lon="7.0332888918">
		<tag k="name" v="Skuggabjørgselvi" />
		<tag k="ssr:stedsnr" v="126521" />
		<tag k="waterway" v="stream" />
	</node>
	<node id="-454944" lat="60.3234625509" lon="7.10242226004">
		<tag k="name" v="Vivetjørnane" />
		<tag k="natural" v="water" />
		<tag k="ssr:stedsnr" v="126520" />
		<tag k="water" v="lake" />
	</node>
	<node id="-454939" lat="60.2572010314" lon="6.70404539058">
		<tag k="name" v="Raudkleivvatnet" />
		<tag k="natural" v="water" />
		<tag k="ssr:stedsnr" v="126647" />
		<tag k="water" v="lake" />
	</node>
	<node id="-454938" lat="60.262836128" lon="6.6257502959">
		<tag k="name" v="Matbekken" />
		<tag k="ssr:stedsnr" v="126640" />
		<tag k="waterway" v="stream" />
	</node>
	<node id="-454930" lat="60.0646944419" lon="7.19256666242">
		<tag k="name" v="Kvennsjøen" />
		<tag k="natural" v="water" />
		<tag k="ssr:stedsnr" v="126243" />
		<tag k="water" v="lake" />
	</node>
	<node id="-454918" lat="60.4199749965" lon="6.5555111103">
		<tag k="name" v="Skarpelvi" />
		<tag k="ssr:stedsnr" v="126168" />
		<tag k="waterway" v="stream" />
	</node>
	<node id="-454916" lat="60.3947798448" lon="6.54211312477">
		<tag k="name" v="Nykkevatnet" />
		<tag k="natural" v="water" />
		<tag k="ssr:stedsnr" v="126154" />
	</node>
	<node id="-454908" lat="60.1993227684" lon="6.93377383767">
		<tag k="name" v="Monsola-tjørni" />
		<tag k="natural" v="water" />
		<tag k="ssr:stedsnr" v="125512" />
	</node>
	<node id="-454907" lat="60.106064315" lon="6.92859518854">
		<tag k="name" v="Nedsta Håvardsvatnet" />
		<tag k="natural" v="water" />
		<tag k="ssr:stedsnr" v="125451" />
		<tag k="water" v="lake" />
	</node>
	<node id="-454356" lat="60.3520309514" lon="6.8829532197">
		<tag k="name" v="Heimsta Tjørni" />
		<tag k="natural" v="water" />
		<tag k="ssr:stedsnr" v="385204" />
	</node>
	<node id="-454899" lat="60.1967972256" lon="6.54503333054">
		<tag k="name" v="Kvinet" />
		<tag k="ssr:stedsnr" v="99993" />
		<tag k="waterway" v="stream" />
	</node>
	<node id="-454897" lat="60.2374666703" lon="6.55463333691">
		<tag k="name" v="Millomå" />
		<tag k="ssr:stedsnr" v="99982" />
		<tag k="waterway" v="stream" />
	</node>
	<node id="-454896" lat="60.1735944424" lon="6.54975832516">
		<tag k="name" v="Osen" />
		<tag k="natural" v="bay" />
		<tag k="ssr:stedsnr" v="99980" />
	</node>
	<node id="-454889" lat="60.3734444485" lon="6.45610833194">
		<tag k="name" v="Teigelvi" />
		<tag k="ssr:stedsnr" v="99899" />
		<tag k="waterway" v="river" />
	</node>
	<node id="-454885" lat="60.3667500022" lon="6.63173334001">
		<tag k="name" v="Haustveitelvi" />
		<tag k="ssr:stedsnr" v="99873" />
		<tag k="waterway" v="river" />
	</node>
	<node id="-454827" lat="60.4307138861" lon="6.59109167443">
		<tag k="name" v="Likstobekken" />
		<tag k="ssr:stedsnr" v="99058" />
		<tag k="waterway" v="stream" />
	</node>
	<node id="-454825" lat="60.3954944422" lon="6.64532500505">
		<tag k="name" v="Skotabekken" />
		<tag k="ssr:stedsnr" v="99003" />
		<tag k="waterway" v="stream" />
	</node>
	<node id="-454820" lat="60.0761250015" lon="7.30925832714">
		<tag k="name" v="Krokavotni" />
		<tag k="natural" v="water" />
		<tag k="ssr:stedsnr" v="82999" />
		<tag k="water" v="lake" />
	</node>
	<node id="-454812" lat="60.2535173943" lon="7.0628470989">
		<tag k="name" v="Stevatnet" />
		<tag k="natural" v="water" />
		<tag k="ssr:stedsnr" v="82598" />
		<tag k="water" v="lake" />
	</node>
	<node id="-454808" lat="60.3063892259" lon="6.72611319328">
		<tag k="loc_name" v="Solbjørgvotni" />
		<tag k="name" v="Solbjørgvatnet" />
		<tag k="natural" v="water" />
		<tag k="ssr:stedsnr" v="82159" />
		<tag k="water" v="lake" />
	</node>
	<node id="-454799" lat="60.1752166667" lon="7.19599445228">
		<tag k="name" v="Grøno" />
		<tag k="ssr:stedsnr" v="66586" />
		<tag k="waterway" v="river" />
	</node>
	<node id="-454797" lat="60.2822422603" lon="6.96863320979">
		<tag k="name" v="Hanasteinsvatnet" />
		<tag k="natural" v="water" />
		<tag k="ssr:stedsnr" v="66485" />
		<tag k="water" v="lake" />
	</node>
	<node id="-454796" lat="60.2811820004" lon="7.05036774926">
		<tag k="name" v="Atlakstjørni" />
		<tag k="natural" v="water" />
		<tag k="ssr:stedsnr" v="66472" />
	</node>
	<node id="-454795" lat="60.2811999974" lon="6.56160833471">
		<tag k="name" v="Tjørnarbekken" />
		<tag k="ssr:stedsnr" v="66462" />
		<tag k="waterway" v="stream" />
	</node>
	<node id="-454787" lat="60.4576694479" lon="6.82583888837">
		<tag k="name" v="Svobekken" />
		<tag k="ssr:stedsnr" v="66330" />
		<tag k="waterway" v="stream" />
	</node>
	<node id="-454785" lat="60.3038055592" lon="6.69272499075">
		<tag k="name" v="Skrikjo" />
		<tag k="ssr:stedsnr" v="66306" />
		<tag k="waterway" v="stream" />
	</node>
	<node id="-454783" lat="60.3234946051" lon="6.81274568042">
		<tag k="name" v="Rjuvavatnet" />
		<tag k="natural" v="water" />
		<tag k="ssr:stedsnr" v="66297" />
		<tag k="water" v="lake" />
	</node>
	<node id="-454781" lat="60.3280073485" lon="6.91556590189">
		<tag k="name" v="Trollavatnet" />
		<tag k="natural" v="water" />
		<tag k="ssr:stedsnr" v="66295" />
		<tag k="water" v="lake" />
	</node>
	<node id="-454780" lat="60.3223611087" lon="6.86680555171">
		<tag k="name" v="Stavalielvi" />
		<tag k="ssr:stedsnr" v="66294" />
		<tag k="waterway" v="river" />
	</node>
	<node id="-454779" lat="60.3310111136" lon="6.80180278476">
		<tag k="name" v="Søtefossen" />
		<tag k="natural" v="waterfall" />
		<tag k="ssr:stedsnr" v="66292" />
	</node>
	<node id="-454767" lat="60.3760750009" lon="6.475325003">
		<tag k="name" v="Bekken" />
		<tag k="ssr:stedsnr" v="66086" />
		<tag k="waterway" v="stream" />
	</node>
	<node id="-454764" lat="60.3243699517" lon="6.52655738088">
		<tag k="alt_name" v="Samladalsvatnet, in" />
		<tag k="name" v="Samladalsvatnet" />
		<tag k="natural" v="water" />
		<tag k="ssr:stedsnr" v="66008" />
		<tag k="water" v="lake" />
	</node>
	<node id="-454763" lat="60.1958583334" lon="6.50650832663">
		<tag k="fixme" v="multiple name tags, choose one and add the other to alt_name" />
		<tag k="name" v="Luravatnet;Vetlavatnet" />
		<tag k="natural" v="water" />
		<tag k="ssr:stedsnr" v="65860" />
	</node>
	<node id="-454758" lat="60.2186022262" lon="6.71011277132">
		<tag k="name" v="Vendevatnet" />
		<tag k="natural" v="water" />
		<tag k="ssr:stedsnr" v="65462" />
		<tag k="water" v="lake" />
	</node>
	<node id="-454756" lat="60.1493345419" lon="6.83704499825">
		<tag k="name" v="Nedra Veidedalsvatn" />
		<tag k="natural" v="water" />
		<tag k="ssr:stedsnr" v="65451" />
		<tag k="water" v="lake" />
	</node>
	<node id="-454755" lat="60.1577305574" lon="6.87010277577">
		<tag k="name" v="Tysseviki" />
		<tag k="natural" v="bay" />
		<tag k="ssr:stedsnr" v="65447" />
	</node>
	<node id="-454752" lat="60.181652775" lon="6.73832777967">
		<tag k="name" v="Kjetilsåna" />
		<tag k="ssr:stedsnr" v="65426" />
		<tag k="waterway" v="river" />
	</node>
	<node id="-454750" lat="60.2446666649" lon="7.11272222234">
		<tag k="name" v="Olbogo" />
		<tag k="ssr:stedsnr" v="65352" />
		<tag k="waterway" v="river" />
	</node>
	<node id="-454748" lat="60.232563885" lon="6.85205834135">
		<tag k="name" v="Reppo" />
		<tag k="ssr:stedsnr" v="65008" />
		<tag k="waterway" v="river" />
	</node>
	<node id="-454745" lat="60.1758232895" lon="7.11065854137">
		<tag k="name" v="Meinsvatnet" />
		<tag k="natural" v="water" />
		<tag k="ssr:stedsnr" v="65321" />
	</node>
	<node id="-454741" lat="60.1321666656" lon="7.17194167009">
		<tag k="name" v="Grønekroken" />
		<tag k="place" v="locality" />
		<tag k="ssr:stedsnr" v="65269" />
	</node>
	<node id="-454721" lat="60.4198227332" lon="6.54112363806">
		<tag k="name" v="Loteselvi" />
		<tag k="ssr:stedsnr" v="39094" />
		<tag k="waterway" v="river" />
	</node>
	<node id="-454720" lat="60.4365277811" lon="6.5683333399">
		<tag k="name" v="Træbekken" />
		<tag k="ssr:stedsnr" v="39049" />
		<tag k="waterway" v="stream" />
	</node>
	<node id="-454709" lat="60.3760813332" lon="6.80419268141">
		<tag k="name" v="Holmane" />
		<tag k="place" v="islet" />
		<tag k="ssr:stedsnr" v="38843" />
	</node>
	<node id="-454692" lat="60.4038194487" lon="6.74263889277">
		<tag k="name" v="Rateigselvi" />
		<tag k="ssr:stedsnr" v="38635" />
		<tag k="waterway" v="river" />
	</node>
	<node id="-454691" lat="60.4024416635" lon="6.73874443921">
		<tag k="name" v="Bergaelvi" />
		<tag k="ssr:stedsnr" v="38633" />
		<tag k="waterway" v="river" />
	</node>
	<node id="-454675" lat="60.3166333321" lon="6.67662222337">
		<tag k="name" v="Holmane" />
		<tag k="place" v="islet" />
		<tag k="ssr:stedsnr" v="38524" />
	</node>
	<node id="-454658" lat="60.4197750001" lon="6.61628055751">
		<tag k="name" v="Vetlebekken" />
		<tag k="ssr:stedsnr" v="38107" />
		<tag k="waterway" v="stream" />
	</node>
</osm>
