<?xml version="1.0" encoding="UTF-8"?>
<osm generator="osmapis" version="0.6">
	<node id="-454648" lat="60.374576814" lon="6.72752333883">
		<tag k="fixme" v="consider place=hamlet" />
		<tag k="name" v="Bråvoll" />
		<tag k="place" v="farm" />
		<tag k="ssr:stedsnr" v="24935" />
	</node>
	<node id="-454646" lat="60.4226777769" lon="6.62446110841">
		<tag k="fixme" v="consider place=hamlet" />
		<tag k="name" v="Utne" />
		<tag k="place" v="village" />
		<tag k="ssr:stedsnr" v="24272" />
	</node>
	<node id="-454634" lat="60.2828527764" lon="6.86851666039">
		<tag k="historic" v="shieling" />
		<tag k="name" v="Nasene" />
		<tag k="place" v="locality" />
		<tag k="ssr:stedsnr" v="6687" />
	</node>
	<node id="-454632" lat="60.2696050418" lon="6.5765544843">
		<tag k="fixme" v="consider place=hamlet" />
		<tag k="name" v="Kråkevik" />
		<tag k="place" v="farm" />
		<tag k="ssr:stedsnr" v="6407" />
	</node>
	<node id="-454631" lat="60.4228138894" lon="6.6187055641">
		<tag k="name" v="Bakken" />
		<tag k="place" v="farm" />
		<tag k="ssr:stedsnr" v="6381" />
	</node>
	<node id="-454629" lat="60.4411500021" lon="6.78096945139">
		<tag k="fixme" v="consider place=hamlet" />
		<tag k="name" v="Ringøy" />
		<tag k="place" v="village" />
		<tag k="ssr:stedsnr" v="6372" />
	</node>
	<node id="-454615" lat="60.1899691469" lon="6.61229808824">
		<tag k="alt_name" v="Fresvikestølen" />
		<tag k="historic" v="shieling" />
		<tag k="name" v="Oppsåta" />
		<tag k="place" v="locality" />
		<tag k="ssr:stedsnr" v="5470" />
	</node>
	<node id="-454607" lat="60.4008625421" lon="6.66119867292">
		<tag k="fixme" v="consider place=hamlet" />
		<tag k="name" v="Nes" />
		<tag k="place" v="farm" />
		<tag k="ssr:stedsnr" v="5347" />
	</node>
	<node id="-454603" lat="60.4617638899" lon="6.75003889775">
		<tag k="name" v="Utitun" />
		<tag k="place" v="farm" />
		<tag k="ssr:stedsnr" v="5303" />
	</node>
	<node id="-454602" lat="60.3345444454" lon="6.85681111442">
		<tag k="historic" v="shieling" />
		<tag k="name" v="Grøndal" />
		<tag k="place" v="locality" />
		<tag k="ssr:stedsnr" v="5284" />
	</node>
	<node id="-454599" lat="60.3759166703" lon="6.6431361139">
		<tag k="fixme" v="consider place=hamlet" />
		<tag k="name" v="Hauso" />
		<tag k="place" v="farm" />
		<tag k="ssr:stedsnr" v="5257" />
	</node>
	<node id="-454596" lat="60.3749677528" lon="6.4604692682">
		<tag k="alt_name" v="Kvalvikane, indre;Kvalvikane;Kvalvik indre;Indre Kvalvikane" />
		<tag k="fixme" v="consider place=hamlet" />
		<tag k="name" v="Indre Kvalvik" />
		<tag k="place" v="farm" />
		<tag k="ssr:stedsnr" v="5165" />
	</node>
	<node id="-454593" lat="60.369116667" lon="6.43459722917">
		<tag k="fixme" v="consider place=hamlet" />
		<tag k="name" v="Bjotveit" />
		<tag k="place" v="farm" />
		<tag k="ssr:stedsnr" v="5054" />
	</node>
	<node id="-454589" lat="60.2042194455" lon="6.56568888604">
		<tag k="name" v="Nordnes" />
		<tag k="place" v="quarter" />
		<tag k="ssr:stedsnr" v="4867" />
	</node>
	<node id="-454587" lat="60.2365111122" lon="6.95382499981">
		<tag k="name" v="Oalsåkrane" />
		<tag k="place" v="locality" />
		<tag k="ssr:stedsnr" v="4465" />
	</node>
	<node id="-454578" lat="60.2275694411" lon="6.6077527755">
		<tag k="name" v="Segelgjerd" />
		<tag k="place" v="farm" />
		<tag k="ssr:stedsnr" v="4003" />
	</node>
	<node id="-454572" lat="60.2459787284" lon="6.56622674858">
		<tag k="name" v="Bleie" />
		<tag k="place" v="hamlet" />
		<tag k="ssr:stedsnr" v="990822" />
	</node>
	<node id="-454300" lat="60.1833750011" lon="6.58905277524">
		<tag k="name" v="Brakavik" />
		<tag k="place" v="farm" />
		<tag k="ssr:stedsnr" v="368268" />
	</node>
	<node id="-454565" lat="60.366514149" lon="6.41592277189">
		<tag k="name" v="Ås" />
		<tag k="place" v="hamlet" />
		<tag k="ssr:stedsnr" v="988929" />
	</node>
	<node id="-454563" lat="60.3393667843" lon="7.12060296128">
		<tag k="historic" v="shieling" />
		<tag k="name" v="Torbjørnsstølen" />
		<tag k="place" v="locality" />
		<tag k="ssr:stedsnr" v="987853" />
	</node>
	<node id="-454561" lat="60.1744333373" lon="6.54756388217">
		<tag k="fixme" v="consider place=hamlet" />
		<tag k="name" v="Kvitno" />
		<tag k="place" v="farm" />
		<tag k="ssr:stedsnr" v="368241" />
	</node>
	<node id="-454551" lat="60.2663179655" lon="6.73607752689">
		<tag k="historic" v="shieling" />
		<tag k="name" v="Ysjebotnen" />
		<tag k="place" v="locality" />
		<tag k="ssr:stedsnr" v="986289" />
	</node>
	<node id="-454043" lat="60.3056944418" lon="6.60765833032">
		<tag k="fixme" v="consider place=hamlet" />
		<tag k="name" v="Aga" />
		<tag k="place" v="farm" />
		<tag k="ssr:stedsnr" v="280159" />
	</node>
	<node id="-454535" lat="60.264505483" lon="6.57412851871">
		<tag k="name" v="Ytste Åkre" />
		<tag k="place" v="farm" />
		<tag k="ssr:stedsnr" v="1072161" />
	</node>
	<node id="-456578" lat="60.3486283923" lon="6.62394862946">
		<tag k="name" v="Jåstad" />
		<tag k="place" v="hamlet" />
		<tag k="ssr:stedsnr" v="974497" />
	</node>
	<node id="-456577" lat="60.3738537344" lon="6.45759220945">
		<tag k="name" v="Kvalvik" />
		<tag k="place" v="hamlet" />
		<tag k="ssr:stedsnr" v="974496" />
	</node>
	<node id="-456576" lat="60.2774976434" lon="6.62386143723">
		<tag k="name" v="Børve" />
		<tag k="place" v="hamlet" />
		<tag k="ssr:stedsnr" v="974470" />
	</node>
	<node id="-456575" lat="60.2525753135" lon="6.62106588751">
		<tag k="fixme" v="consider place=hamlet" />
		<tag k="name" v="Midt-Sekse" />
		<tag k="place" v="farm" />
		<tag k="ssr:stedsnr" v="969858" />
	</node>
	<node id="-454525" lat="60.33320278" lon="6.61299722989">
		<tag k="name" v="Gloppe" />
		<tag k="place" v="farm" />
		<tag k="ssr:stedsnr" v="893768" />
	</node>
	<node id="-454522" lat="60.1765749959" lon="6.5481194469">
		<tag k="name" v="Sundi" />
		<tag k="place" v="farm" />
		<tag k="ssr:stedsnr" v="888981" />
	</node>
	<node id="-456567" lat="60.2071499975" lon="6.56028056332">
		<tag k="name" v="Kalhagen" />
		<tag k="place" v="farm" />
		<tag k="ssr:stedsnr" v="949940" />
	</node>
	<node id="-454515" lat="60.3687577136" lon="6.42791667588">
		<tag k="name" v="Heiane" />
		<tag k="place" v="farm" />
		<tag k="ssr:stedsnr" v="888919" />
	</node>
	<node id="-454509" lat="60.2213499962" lon="6.60245555244">
		<tag k="name" v="Espevoll" />
		<tag k="place" v="farm" />
		<tag k="ssr:stedsnr" v="888864" />
	</node>
	<node id="-454507" lat="60.4673138886" lon="6.84716388817">
		<tag k="name" v="Humlagarden" />
		<tag k="place" v="farm" />
		<tag k="ssr:stedsnr" v="888840" />
	</node>
	<node id="-454506" lat="60.4131027808" lon="6.63866666313">
		<tag k="historic" v="shieling" />
		<tag k="name" v="Mjøstølen" />
		<tag k="place" v="locality" />
		<tag k="ssr:stedsnr" v="888833" />
	</node>
	<node id="-456553" lat="60.4481972214" lon="6.79750000436">
		<tag k="name" v="Kalvhagen" />
		<tag k="place" v="farm" />
		<tag k="ssr:stedsnr" v="949580" />
	</node>
	<node id="-454501" lat="60.3378000043" lon="6.66866111977">
		<tag k="historic" v="shieling" />
		<tag k="name" v="Høyskor" />
		<tag k="place" v="locality" />
		<tag k="ssr:stedsnr" v="888761" />
	</node>
	<node id="-456547" lat="60.3251388908" lon="6.66592499896">
		<tag k="name" v="Midttun" />
		<tag k="place" v="farm" />
		<tag k="ssr:stedsnr" v="949499" />
	</node>
	<node id="-456542" lat="60.2678222258" lon="6.64563054909">
		<tag k="historic" v="shieling" />
		<tag k="name" v="Nyastøl" />
		<tag k="place" v="locality" />
		<tag k="ssr:stedsnr" v="949474" />
	</node>
	<node id="-454490" lat="60.448394449" lon="6.80393611472">
		<tag k="alt_name" v="Bjotveit Ytre" />
		<tag k="fixme" v="consider place=hamlet" />
		<tag k="name" v="Ytre Bjotveit" />
		<tag k="place" v="farm" />
		<tag k="ssr:stedsnr" v="888603" />
	</node>
	<node id="-456534" lat="60.199747225" lon="6.61740000014">
		<tag k="name" v="Løtræet" />
		<tag k="place" v="farm" />
		<tag k="ssr:stedsnr" v="949368" />
	</node>
	<node id="-456533" lat="60.269863887" lon="6.6284861039">
		<tag k="name" v="Innetun" />
		<tag k="place" v="farm" />
		<tag k="ssr:stedsnr" v="949366" />
	</node>
	<node id="-456531" lat="60.2030694401" lon="6.6193305538">
		<tag k="name" v="Tveiti" />
		<tag k="place" v="farm" />
		<tag k="ssr:stedsnr" v="949361" />
	</node>
	<node id="-454482" lat="60.279094442" lon="6.64802221924">
		<tag k="historic" v="shieling" />
		<tag k="name" v="Bjørnstøl" />
		<tag k="place" v="locality" />
		<tag k="ssr:stedsnr" v="888509" />
	</node>
	<node id="-454479" lat="60.3630160248" lon="6.67607354501">
		<tag k="fixme" v="consider place=hamlet" />
		<tag k="name" v="Tveit" />
		<tag k="place" v="farm" />
		<tag k="ssr:stedsnr" v="888479" />
	</node>
	<node id="-454285" lat="60.2909277573" lon="6.59442667366">
		<tag k="leisure" v="pitch" />
		<tag k="name" v="Skotamyri" />
		<tag k="ssr:stedsnr" v="342782" />
	</node>
	<node id="-454474" lat="60.2545153888" lon="6.62056211032">
		<tag k="fixme" v="consider place=hamlet" />
		<tag k="name" v="Nedsta Sekse" />
		<tag k="place" v="farm" />
		<tag k="ssr:stedsnr" v="888458" />
	</node>
	<node id="-456515" lat="60.4650611071" lon="6.82765834033">
		<tag k="historic" v="shieling" />
		<tag k="name" v="Stølstræet" />
		<tag k="place" v="locality" />
		<tag k="ssr:stedsnr" v="948780" />
	</node>
	<node id="-456512" lat="60.4650499994" lon="6.75149444267">
		<tag k="name" v="Djønno" />
		<tag k="place" v="hamlet" />
		<tag k="ssr:stedsnr" v="948769" />
	</node>
	<node id="-454461" lat="60.3836861096" lon="6.53218610763">
		<tag k="alt_name" v="Aldalstølen" />
		<tag k="historic" v="shieling" />
		<tag k="name" v="Aldal" />
		<tag k="place" v="locality" />
		<tag k="ssr:stedsnr" v="888156" />
	</node>
	<node id="-454453" lat="60.3943277744" lon="6.65465556034">
		<tag k="name" v="Fredenbø" />
		<tag k="place" v="farm" />
		<tag k="ssr:stedsnr" v="888010" />
	</node>
	<node id="-456499" lat="60.3750967778" lon="6.72880436978">
		<tag k="building" v="apartments" />
		<tag k="name" v="Bròto" />
		<tag k="ssr:stedsnr" v="934936" />
	</node>
	<node id="-456498" lat="60.4286472242" lon="6.75131111722">
		<tag k="fixme" v="consider place=hamlet" />
		<tag k="name" v="Ulsnes" />
		<tag k="place" v="farm" />
		<tag k="ssr:stedsnr" v="934275" />
	</node>
	<node id="-454449" lat="60.342001422" lon="6.65960995649">
		<tag k="alt_name" v="Kjeken" />
		<tag k="name" v="Kiken" />
		<tag k="place" v="farm" />
		<tag k="ssr:stedsnr" v="887421" />
	</node>
	<node id="-456492" lat="60.3068666711" lon="6.60403334045">
		<tag k="historic" v="shieling" />
		<tag k="name" v="Nordtveiti" />
		<tag k="place" v="locality" />
		<tag k="ssr:stedsnr" v="932176" />
	</node>
	<node id="-454438" lat="60.1640000019" lon="6.57759999296">
		<tag k="name" v="Nedre Skjeldås" />
		<tag k="place" v="farm" />
		<tag k="ssr:stedsnr" v="403785" />
	</node>
	<node id="-454436" lat="60.3498055559" lon="6.66341388758">
		<tag k="name" v="Skredhaugen" />
		<tag k="place" v="farm" />
		<tag k="ssr:stedsnr" v="403760" />
	</node>
	<node id="-456477" lat="60.3183916694" lon="6.89445000048">
		<tag k="fixme" v="consider tourism=alpine_hut or tourism=chalet" />
		<tag k="name" v="Stavali" />
		<tag k="ssr:stedsnr" v="916315" />
		<tag k="tourism" v="wilderness_hut" />
	</node>
	<node id="-456476" lat="60.3283638898" lon="6.67970554753">
		<tag k="historic" v="shieling" />
		<tag k="name" v="Skådnasete" />
		<tag k="place" v="locality" />
		<tag k="ssr:stedsnr" v="916302" />
	</node>
	<node id="-454422" lat="60.1862749984" lon="6.59588611103">
		<tag k="historic" v="shieling" />
		<tag k="name" v="Mjøstølen" />
		<tag k="place" v="locality" />
		<tag k="ssr:stedsnr" v="403383" />
	</node>
	<node id="-454421" lat="60.4194638858" lon="6.62130000228">
		<tag k="name" v="Rabben" />
		<tag k="place" v="farm" />
		<tag k="ssr:stedsnr" v="403112" />
	</node>
	<node id="-454419" lat="60.399211115" lon="6.64592499673">
		<tag k="name" v="Tveiti" />
		<tag k="place" v="farm" />
		<tag k="ssr:stedsnr" v="403018" />
	</node>
	<node id="-456466" lat="60.23574564" lon="6.56496823906">
		<tag k="alt_name" v="Strond" />
		<tag k="name" v="Strondi" />
		<tag k="place" v="farm" />
		<tag k="ssr:stedsnr" v="915819" />
	</node>
	<node id="-456456" lat="60.4735343942" lon="6.77532728199">
		<tag k="name" v="Kaland" />
		<tag k="place" v="farm" />
		<tag k="ssr:stedsnr" v="915407" />
	</node>
	<node id="-456455" lat="60.4695333363" lon="6.74899166358">
		<tag k="alt_name" v="Kalhagen" />
		<tag k="name" v="Kalvhagen" />
		<tag k="place" v="farm" />
		<tag k="ssr:stedsnr" v="915406" />
	</node>
	<node id="-456454" lat="60.2642861128" lon="6.56932500674">
		<tag k="fixme" v="consider place=hamlet" />
		<tag k="name" v="Skåltveit" />
		<tag k="place" v="farm" />
		<tag k="ssr:stedsnr" v="915384" />
	</node>
	<node id="-456452" lat="60.4036535683" lon="6.65489974167">
		<tag k="fixme" v="consider place=hamlet" />
		<tag k="name" v="Trones" />
		<tag k="place" v="farm" />
		<tag k="ssr:stedsnr" v="915340" />
	</node>
	<node id="-454400" lat="60.4655611147" lon="6.75174166811">
		<tag k="name" v="Solhaug" />
		<tag k="place" v="farm" />
		<tag k="ssr:stedsnr" v="402739" />
	</node>
	<node id="-456446" lat="60.3663111107" lon="6.6764444485">
		<tag k="name" v="Dale" />
		<tag k="place" v="farm" />
		<tag k="ssr:stedsnr" v="915252" />
	</node>
	<node id="-456444" lat="60.0544194441" lon="7.11094999793">
		<tag k="name" v="Drykkjestein" />
		<tag k="place" v="isolated_dwelling" />
		<tag k="ssr:stedsnr" v="915250" />
	</node>
	<node id="-456435" lat="60.3766166625" lon="6.46557500822">
		<tag k="name" v="Kjosane" />
		<tag k="place" v="farm" />
		<tag k="ssr:stedsnr" v="915157" />
	</node>
	<node id="-456433" lat="60.2723000018" lon="6.63007500703">
		<tag k="alt_name" v="Børve, øvre" />
		<tag k="fixme" v="consider place=hamlet" />
		<tag k="name" v="Øvre Børve" />
		<tag k="old_name" v="Børve, østre" />
		<tag k="place" v="farm" />
		<tag k="ssr:stedsnr" v="904662" />
	</node>
	<node id="-455293" lat="60.08206667" lon="7.42516945056">
		<tag k="historic" v="shieling" />
		<tag k="name" v="Hansbu" />
		<tag k="place" v="locality" />
		<tag k="ssr:stedsnr" v="429625" />
	</node>
	<node id="-454380" lat="60.2506777801" lon="6.56739165884">
		<tag k="name" v="Kalvhagen" />
		<tag k="place" v="farm" />
		<tag k="ssr:stedsnr" v="402206" />
	</node>
	<node id="-454379" lat="60.2590555537" lon="6.56523610543">
		<tag k="name" v="Haugen" />
		<tag k="place" v="farm" />
		<tag k="ssr:stedsnr" v="402197" />
	</node>
	<node id="-456422" lat="60.2670333331" lon="6.63712500407">
		<tag k="name" v="Tveiti" />
		<tag k="place" v="locality" />
		<tag k="ssr:stedsnr" v="855678" />
	</node>
	<node id="-456414" lat="60.2583361154" lon="6.5641416618">
		<tag k="fixme" v="consider place=hamlet" />
		<tag k="name" v="Kvestad" />
		<tag k="place" v="farm" />
		<tag k="ssr:stedsnr" v="855404" />
	</node>
	<node id="-456413" lat="60.2646805558" lon="6.55972778246">
		<tag k="historic" v="shieling" />
		<tag k="name" v="Åkrestølen" />
		<tag k="place" v="locality" />
		<tag k="ssr:stedsnr" v="855396" />
	</node>
	<node id="-454364" lat="60.355651319" lon="6.59836226436">
		<tag k="historic" v="shieling" />
		<tag k="name" v="Josete" />
		<tag k="place" v="locality" />
		<tag k="ssr:stedsnr" v="386212" />
	</node>
	<node id="-456410" lat="60.2725805547" lon="6.56749443992">
		<tag k="alt_name" v="Rogda" />
		<tag k="fixme" v="consider place=hamlet" />
		<tag k="name" v="Rogdo" />
		<tag k="place" v="farm" />
		<tag k="ssr:stedsnr" v="855383" />
	</node>
	<node id="-456409" lat="60.2751013751" lon="6.58014623315">
		<tag k="name" v="Hatt" />
		<tag k="place" v="farm" />
		<tag k="ssr:stedsnr" v="855370" />
	</node>
	<node id="-456406" lat="60.3950305518" lon="6.9616305644">
		<tag k="historic" v="shieling" />
		<tag k="name" v="Dalamot" />
		<tag k="place" v="locality" />
		<tag k="ssr:stedsnr" v="855361" />
	</node>
	<node id="-456403" lat="60.2919388895" lon="6.59947221983">
		<tag k="name" v="Syreflot" />
		<tag k="place" v="locality" />
		<tag k="ssr:stedsnr" v="855300" />
	</node>
	<node id="-454354" lat="60.2486694449" lon="6.56255000727">
		<tag k="name" v="Surberg" />
		<tag k="place" v="farm" />
		<tag k="ssr:stedsnr" v="369781" />
	</node>
	<node id="-456399" lat="60.3462166677" lon="6.78979999365">
		<tag k="historic" v="shieling" />
		<tag k="name" v="Nykkjesøy" />
		<tag k="place" v="locality" />
		<tag k="ssr:stedsnr" v="855289" />
	</node>
	<node id="-456398" lat="60.3495027741" lon="6.67642500244">
		<tag k="name" v="Gjertveit" />
		<tag k="place" v="locality" />
		<tag k="ssr:stedsnr" v="855288" />
	</node>
	<node id="-456397" lat="60.351417139" lon="6.66330792319">
		<tag k="fixme" v="consider place=hamlet" />
		<tag k="name" v="Ernes" />
		<tag k="place" v="farm" />
		<tag k="ssr:stedsnr" v="855281" />
	</node>
	<node id="-456396" lat="60.3510527813" lon="6.62403888144">
		<tag k="alt_name" v="Jåstad, yt" />
		<tag k="fixme" v="consider place=hamlet" />
		<tag k="name" v="Ytre Jåstad" />
		<tag k="place" v="farm" />
		<tag k="ssr:stedsnr" v="855279" />
	</node>
	<node id="-456394" lat="60.3603222228" lon="6.62925000035">
		<tag k="fixme" v="consider place=hamlet" />
		<tag k="name" v="Brandstveit" />
		<tag k="place" v="farm" />
		<tag k="ssr:stedsnr" v="855274" />
	</node>
	<node id="-456393" lat="60.3789472198" lon="6.68464722452">
		<tag k="fixme" v="consider place=hamlet" />
		<tag k="name" v="Auganes" />
		<tag k="place" v="farm" />
		<tag k="ssr:stedsnr" v="855259" />
	</node>
	<node id="-454342" lat="60.2541666634" lon="6.56180278462">
		<tag k="alt_name" v="Måkestad" />
		<tag k="fixme" v="consider place=hamlet" />
		<tag k="name" v="Måkastad" />
		<tag k="place" v="farm" />
		<tag k="ssr:stedsnr" v="369357" />
	</node>
	<node id="-454336" lat="60.4132227491" lon="6.64300717114">
		<tag k="fixme" v="consider place=hamlet" />
		<tag k="name" v="Reisete" />
		<tag k="place" v="farm" />
		<tag k="ssr:stedsnr" v="369331" />
	</node>
	<node id="-454333" lat="60.2959638851" lon="6.76195554924">
		<tag k="historic" v="shieling" />
		<tag k="name" v="Opesjo" />
		<tag k="place" v="locality" />
		<tag k="ssr:stedsnr" v="369295" />
	</node>
	<node id="-454330" lat="60.325086645" lon="6.66263623495">
		<tag k="fixme" v="consider place=hamlet" />
		<tag k="name" v="Opedal" />
		<tag k="place" v="farm" />
		<tag k="ssr:stedsnr" v="369269" />
	</node>
	<node id="-454329" lat="60.3572722238" lon="6.66816666814">
		<tag k="fixme" v="consider place=hamlet" />
		<tag k="name" v="Lutro" />
		<tag k="place" v="farm" />
		<tag k="ssr:stedsnr" v="369254" />
	</node>
	<node id="-456376" lat="60.0464972192" lon="7.35532499149">
		<tag k="historic" v="shieling" />
		<tag k="name" v="Hovlandsstølen" />
		<tag k="place" v="locality" />
		<tag k="ssr:stedsnr" v="854607" />
	</node>
	<node id="-454325" lat="60.3943750028" lon="6.55073055209">
		<tag k="historic" v="shieling" />
		<tag k="name" v="Håsete" />
		<tag k="place" v="locality" />
		<tag k="ssr:stedsnr" v="369155" />
	</node>
	<node id="-456370" lat="60.2148638907" lon="6.6075416745">
		<tag k="name" v="Tveiti" />
		<tag k="place" v="farm" />
		<tag k="ssr:stedsnr" v="854462" />
	</node>
	<node id="-454320" lat="60.3455749521" lon="6.46534439663">
		<tag k="historic" v="shieling" />
		<tag k="name" v="Vatnasete" />
		<tag k="place" v="locality" />
		<tag k="ssr:stedsnr" v="369101" />
	</node>
	<node id="-454319" lat="60.377687859" lon="6.47100082247">
		<tag k="name" v="Bekken" />
		<tag k="place" v="farm" />
		<tag k="ssr:stedsnr" v="369073" />
	</node>
	<node id="-456365" lat="60.1871249965" lon="7.20063055265">
		<tag k="historic" v="shieling" />
		<tag k="name" v="Åremot" />
		<tag k="place" v="locality" />
		<tag k="ssr:stedsnr" v="854304" />
	</node>
	<node id="-454316" lat="60.3733750007" lon="6.45776111183">
		<tag k="alt_name" v="Nylendena" />
		<tag k="name" v="Nylendene" />
		<tag k="place" v="farm" />
		<tag k="ssr:stedsnr" v="369049" />
	</node>
	<node id="-456363" lat="60.0942083323" lon="7.26703889382">
		<tag k="loc_name" v="Grjotstølen" />
		<tag k="name" v="Grotstølen" />
		<tag k="place" v="locality" />
		<tag k="ssr:stedsnr" v="854277" />
	</node>
	<node id="-454311" lat="60.1864722247" lon="6.59440278524">
		<tag k="name" v="Liastølen" />
		<tag k="place" v="farm" />
		<tag k="ssr:stedsnr" v="368530" />
	</node>
	<node id="-456356" lat="60.4352750039" lon="6.56685277449">
		<tag k="name" v="Hesthamar" />
		<tag k="place" v="farm" />
		<tag k="ssr:stedsnr" v="845114" />
	</node>
	<node id="-456355" lat="60.4320972251" lon="6.55905556295">
		<tag k="name" v="Hesthamar" />
		<tag k="place" v="farm" />
		<tag k="ssr:stedsnr" v="845112" />
	</node>
	<node id="-456348" lat="60.3695500046" lon="6.73173611837">
		<tag k="name" v="Mjøstølen" />
		<tag k="place" v="farm" />
		<tag k="ssr:stedsnr" v="828847" />
	</node>
	<node id="-456347" lat="60.3813611153" lon="6.64418610833">
		<tag k="name" v="Utgjerdslena" />
		<tag k="place" v="farm" />
		<tag k="ssr:stedsnr" v="828822" />
	</node>
	<node id="-456342" lat="60.3283901601" lon="6.65699670578">
		<tag k="alt_name" v="Ullensvang hotell" />
		<tag k="name" v="Hotel Ullensvang" />
		<tag k="ssr:stedsnr" v="828579" />
		<tag k="tourism" v="hotel" />
	</node>
	<node id="-454291" lat="60.3797111115" lon="6.47931111456">
		<tag k="name" v="Strondi" />
		<tag k="place" v="farm" />
		<tag k="ssr:stedsnr" v="342851" />
	</node>
	<node id="-456337" lat="60.3642972222" lon="6.72968332722">
		<tag k="name" v="Gamlasagi" />
		<tag k="place" v="locality" />
		<tag k="ssr:stedsnr" v="828550" />
	</node>
	<node id="-456333" lat="60.3179333368" lon="6.65542222453">
		<tag k="name" v="Haugasund" />
		<tag k="place" v="farm" />
		<tag k="ssr:stedsnr" v="828524" />
	</node>
	<node id="-454280" lat="60.3294138929" lon="6.69054999764">
		<tag k="historic" v="shieling" />
		<tag k="name" v="Nyastøl" />
		<tag k="place" v="locality" />
		<tag k="ssr:stedsnr" v="342539" />
	</node>
	<node id="-456326" lat="60.2506194422" lon="6.62056388145">
		<tag k="fixme" v="consider place=hamlet" />
		<tag k="name" v="Trappetun" />
		<tag k="place" v="farm" />
		<tag k="ssr:stedsnr" v="828458" />
	</node>
	<node id="-454276" lat="60.3374611153" lon="6.66208055352">
		<tag k="historic" v="shieling" />
		<tag k="name" v="Halldorstøl" />
		<tag k="place" v="locality" />
		<tag k="ssr:stedsnr" v="342527" />
	</node>
	<node id="-454269" lat="60.3226334377" lon="6.66047338153">
		<tag k="name" v="Alvavoll" />
		<tag k="place" v="farm" />
		<tag k="ssr:stedsnr" v="342487" />
	</node>
	<node id="-454268" lat="60.325674997" lon="6.66464999881">
		<tag k="name" v="Munkegard" />
		<tag k="place" v="farm" />
		<tag k="ssr:stedsnr" v="342485" />
	</node>
	<node id="-454266" lat="60.2434722216" lon="6.63519166534">
		<tag k="historic" v="shieling" />
		<tag k="name" v="Struten" />
		<tag k="place" v="locality" />
		<tag k="ssr:stedsnr" v="342464" />
	</node>
	<node id="-454252" lat="60.4248611117" lon="6.5457333264">
		<tag k="name" v="Skarpen" />
		<tag k="place" v="farm" />
		<tag k="ssr:stedsnr" v="342107" />
	</node>
	<node id="-454246" lat="60.3994657543" lon="6.6590063884">
		<tag k="name" v="Aldevik" />
		<tag k="place" v="farm" />
		<tag k="ssr:stedsnr" v="342008" />
	</node>
	<node id="-456293" lat="60.4520611129" lon="6.64977222439">
		<tag k="name" v="Kalvhagen" />
		<tag k="place" v="farm" />
		<tag k="ssr:stedsnr" v="827632" />
	</node>
	<node id="-456272" lat="60.3750655204" lon="6.73089913952">
		<tag k="name" v="Kalvhagen" />
		<tag k="place" v="farm" />
		<tag k="ssr:stedsnr" v="813935" />
	</node>
	<node id="-456266" lat="60.2774186297" lon="6.64258415293">
		<tag k="historic" v="shieling" />
		<tag k="name" v="Løyning" />
		<tag k="place" v="locality" />
		<tag k="ssr:stedsnr" v="794695" />
	</node>
	<node id="-456264" lat="60.2509250011" lon="6.67598888674">
		<tag k="historic" v="shieling" />
		<tag k="name" v="Vatnasete" />
		<tag k="place" v="locality" />
		<tag k="ssr:stedsnr" v="794681" />
	</node>
	<node id="-454215" lat="60.4207944482" lon="6.74955000621">
		<tag k="name" v="Tveiti" />
		<tag k="place" v="farm" />
		<tag k="ssr:stedsnr" v="340427" />
	</node>
	<node id="-454210" lat="60.3495722242" lon="6.62113055774">
		<tag k="name" v="Myre" />
		<tag k="place" v="farm" />
		<tag k="ssr:stedsnr" v="340150" />
	</node>
	<node id="-456256" lat="60.2858611116" lon="6.99739722228">
		<tag k="historic" v="shieling" />
		<tag k="name" v="Peisabotnen" />
		<tag k="place" v="locality" />
		<tag k="ssr:stedsnr" v="794499" />
	</node>
	<node id="-456254" lat="60.2891055513" lon="7.06940278455">
		<tag k="historic" v="shieling" />
		<tag k="name" v="Vatnali" />
		<tag k="place" v="locality" />
		<tag k="ssr:stedsnr" v="794482" />
	</node>
	<node id="-456253" lat="60.2072888899" lon="6.6080194494">
		<tag k="alt_name" v="Mæland" />
		<tag k="name" v="Meland" />
		<tag k="place" v="hamlet" />
		<tag k="ssr:stedsnr" v="794464" />
	</node>
	<node id="-456252" lat="60.2067055551" lon="6.62944999323">
		<tag k="historic" v="shieling" />
		<tag k="name" v="Våga" />
		<tag k="place" v="locality" />
		<tag k="ssr:stedsnr" v="794463" />
	</node>
	<node id="-456248" lat="60.255652778" lon="6.57245832448">
		<tag k="name" v="Nå" />
		<tag k="place" v="farm" />
		<tag k="ssr:stedsnr" v="794401" />
	</node>
	<node id="-456247" lat="60.2570249975" lon="6.44545277088">
		<tag k="historic" v="shieling" />
		<tag k="name" v="Dravladalen" />
		<tag k="place" v="locality" />
		<tag k="ssr:stedsnr" v="794369" />
	</node>
	<node id="-454197" lat="60.3014173828" lon="6.88334191552">
		<tag k="historic" v="shieling" />
		<tag k="name" v="Fodnastøl" />
		<tag k="place" v="locality" />
		<tag k="ssr:stedsnr" v="309684" />
	</node>
	<node id="-456243" lat="60.4494305554" lon="6.72721944498">
		<tag k="name" v="Åkre" />
		<tag k="place" v="farm" />
		<tag k="ssr:stedsnr" v="794304" />
	</node>
	<node id="-456241" lat="60.4501500004" lon="6.6322694382">
		<tag k="name" v="Langeskor" />
		<tag k="place" v="farm" />
		<tag k="ssr:stedsnr" v="794295" />
	</node>
	<node id="-456238" lat="60.4638753931" lon="6.75107717301">
		<tag k="name" v="Midttun" />
		<tag k="place" v="farm" />
		<tag k="ssr:stedsnr" v="794288" />
	</node>
	<node id="-454188" lat="60.4652361109" lon="6.75043610409">
		<tag k="fixme" v="consider place=hamlet" />
		<tag k="name" v="Djønno" />
		<tag k="place" v="village" />
		<tag k="ssr:stedsnr" v="309358" />
	</node>
	<node id="-454187" lat="60.4656083289" lon="6.74744444319">
		<tag k="name" v="Solbakken" />
		<tag k="place" v="farm" />
		<tag k="ssr:stedsnr" v="309355" />
	</node>
	<node id="-456234" lat="60.3434138907" lon="6.71511944959">
		<tag k="historic" v="shieling" />
		<tag k="name" v="Stora Kvanndal" />
		<tag k="place" v="locality" />
		<tag k="ssr:stedsnr" v="794256" />
	</node>
	<node id="-454183" lat="60.308666671" lon="6.65459445273">
		<tag k="name" v="Kolgrevene" />
		<tag k="place" v="farm" />
		<tag k="ssr:stedsnr" v="309339" />
	</node>
	<node id="-456230" lat="60.3858777758" lon="6.55677778254">
		<tag k="alt_name" v="Komle;Kumlestølane" />
		<tag k="historic" v="shieling" />
		<tag k="name" v="Kumle" />
		<tag k="place" v="locality" />
		<tag k="ssr:stedsnr" v="794147" />
	</node>
	<node id="-456228" lat="60.3665648252" lon="6.41981857049">
		<tag k="alt_name" v="Storåsen;Store Ås" />
		<tag k="fixme" v="consider place=hamlet" />
		<tag k="name" v="Storås" />
		<tag k="place" v="farm" />
		<tag k="ssr:stedsnr" v="794059" />
	</node>
	<node id="-456223" lat="60.0513527755" lon="7.41763333717">
		<tag k="historic" v="shieling" />
		<tag k="name" v="Jakobsbu" />
		<tag k="place" v="locality" />
		<tag k="ssr:stedsnr" v="793652" />
	</node>
	<node id="-456222" lat="60.2227305515" lon="6.60243333952">
		<tag k="fixme" v="consider place=hamlet" />
		<tag k="name" v="Kvalnes" />
		<tag k="place" v="farm" />
		<tag k="ssr:stedsnr" v="793510" />
	</node>
	<node id="-454172" lat="60.3663488074" lon="6.41127020964">
		<tag k="fixme" v="consider place=hamlet" />
		<tag k="name" v="Vetlås" />
		<tag k="place" v="farm" />
		<tag k="ssr:stedsnr" v="309066" />
	</node>
	<node id="-454169" lat="60.2210111124" lon="6.5660444493">
		<tag k="fixme" v="consider place=hamlet" />
		<tag k="name" v="Gjertveit" />
		<tag k="place" v="farm" />
		<tag k="ssr:stedsnr" v="308831" />
	</node>
	<node id="-456216" lat="60.0829527756" lon="7.23390278116">
		<tag k="historic" v="shieling" />
		<tag k="name" v="Ysteinsbu" />
		<tag k="place" v="locality" />
		<tag k="ssr:stedsnr" v="793318" />
	</node>
	<node id="-454162" lat="60.2735749958" lon="6.86014999384">
		<tag k="historic" v="shieling" />
		<tag k="name" v="Gravdal" />
		<tag k="place" v="locality" />
		<tag k="ssr:stedsnr" v="308632" />
	</node>
	<node id="-456207" lat="60.4732194475" lon="6.77896388752">
		<tag k="name" v="Nedre Kaland" />
		<tag k="place" v="farm" />
		<tag k="ssr:stedsnr" v="787994" />
	</node>
	<node id="-454152" lat="60.231977776" lon="7.09644167291">
		<tag k="historic" v="shieling" />
		<tag k="name" v="Fljåna" />
		<tag k="place" v="locality" />
		<tag k="ssr:stedsnr" v="308345" />
	</node>
	<node id="-454151" lat="60.4004888899" lon="6.65385554982">
		<tag k="alt_name" v="Mæland" />
		<tag k="fixme" v="consider place=hamlet" />
		<tag k="name" v="Meland" />
		<tag k="place" v="farm" />
		<tag k="ssr:stedsnr" v="308335" />
	</node>
	<node id="-454141" lat="60.1347222203" lon="6.96567777237">
		<tag k="historic" v="shieling" />
		<tag k="name" v="Nonsskorbu" />
		<tag k="place" v="locality" />
		<tag k="ssr:stedsnr" v="307421" />
	</node>
	<node id="-454138" lat="60.3459138877" lon="6.62441944451">
		<tag k="alt_name" v="Jåstad, in;Jåstad" />
		<tag k="fixme" v="consider place=hamlet" />
		<tag k="name" v="Indre Jåstad" />
		<tag k="place" v="farm" />
		<tag k="ssr:stedsnr" v="308244" />
	</node>
	<node id="-454137" lat="60.0610444418" lon="7.16201111731">
		<tag k="historic" v="shieling" />
		<tag k="name" v="Nordre Belebotnen" />
		<tag k="place" v="locality" />
		<tag k="ssr:stedsnr" v="308235" />
	</node>
	<node id="-454134" lat="60.1698138917" lon="6.58011110941">
		<tag k="historic" v="shieling" />
		<tag k="name" v="Skjeldåstrædet" />
		<tag k="place" v="locality" />
		<tag k="ssr:stedsnr" v="308209" />
	</node>
	<node id="-456177" lat="60.3118138925" lon="6.68984721597">
		<tag k="historic" v="shieling" />
		<tag k="name" v="Gunnhildstøl" />
		<tag k="place" v="locality" />
		<tag k="ssr:stedsnr" v="767498" />
	</node>
	<node id="-454128" lat="60.3183416626" lon="6.65877777928">
		<tag k="amenity" v="school" />
		<tag k="name" v="Hordatun Folkehøgskule" />
		<tag k="ssr:stedsnr" v="287783" />
	</node>
	<node id="-454126" lat="60.3890027754" lon="6.5022249941">
		<tag k="name" v="Glån" />
		<tag k="place" v="farm" />
		<tag k="ssr:stedsnr" v="286136" />
	</node>
	<node id="-456172" lat="60.246038888" lon="6.61894999879">
		<tag k="name" v="Rosshagane" />
		<tag k="place" v="farm" />
		<tag k="ssr:stedsnr" v="767469" />
	</node>
	<node id="-454108" lat="60.2986527745" lon="6.60317499736">
		<tag k="name" v="Dalsåkeren" />
		<tag k="place" v="farm" />
		<tag k="ssr:stedsnr" v="281868" />
	</node>
	<node id="-454105" lat="60.3728916673" lon="6.79279444266">
		<tag k="name" v="Masshytta" />
		<tag k="place" v="isolated_dwelling" />
		<tag k="ssr:stedsnr" v="281848" />
	</node>
	<node id="-456142" lat="60.4401055531" lon="6.78053055035">
		<tag k="fixme" v="consider place=hamlet" />
		<tag k="name" v="Ringøy" />
		<tag k="place" v="farm" />
		<tag k="ssr:stedsnr" v="766653" />
	</node>
	<node id="-456138" lat="60.3363500025" lon="6.65968889353">
		<tag k="name" v="Leikvoll" />
		<tag k="place" v="farm" />
		<tag k="ssr:stedsnr" v="766639" />
	</node>
	<node id="-456136" lat="60.3638222197" lon="6.6718138961">
		<tag k="name" v="Skori" />
		<tag k="old_name" v="Skar" />
		<tag k="place" v="farm" />
		<tag k="ssr:stedsnr" v="766620" />
	</node>
	<node id="-456133" lat="60.4517999998" lon="6.64633333378">
		<tag k="historic" v="shieling" />
		<tag k="name" v="Mjøstølen" />
		<tag k="place" v="locality" />
		<tag k="ssr:stedsnr" v="766591" />
	</node>
	<node id="-454074" lat="60.2469386873" lon="6.62241983045">
		<tag k="fixme" v="consider place=hamlet" />
		<tag k="name" v="Øvsta Sekse" />
		<tag k="place" v="farm" />
		<tag k="ssr:stedsnr" v="281495" />
	</node>
	<node id="-454069" lat="60.1879305528" lon="6.60148054688">
		<tag k="historic" v="shieling" />
		<tag k="name" v="Liastølen" />
		<tag k="place" v="locality" />
		<tag k="ssr:stedsnr" v="281437" />
	</node>
	<node id="-456105" lat="60.2645888889" lon="6.70223054659">
		<tag k="historic" v="shieling" />
		<tag k="name" v="Raudkleiv" />
		<tag k="place" v="locality" />
		<tag k="ssr:stedsnr" v="750164" />
	</node>
	<node id="-456102" lat="60.2177277742" lon="7.08896111895">
		<tag k="name" v="Soleimedalen" />
		<tag k="place" v="locality" />
		<tag k="ssr:stedsnr" v="749979" />
	</node>
	<node id="-456097" lat="60.2876194479" lon="6.91142500059">
		<tag k="historic" v="shieling" />
		<tag k="name" v="Helnaberg" />
		<tag k="place" v="locality" />
		<tag k="ssr:stedsnr" v="734698" />
	</node>
	<node id="-456092" lat="60.4506611094" lon="6.64005833962">
		<tag k="fixme" v="consider place=hamlet" />
		<tag k="name" v="Tjoflot" />
		<tag k="place" v="farm" />
		<tag k="ssr:stedsnr" v="734360" />
	</node>
	<node id="-456091" lat="60.4673611114" lon="6.74803333112">
		<tag k="name" v="Bøen" />
		<tag k="place" v="farm" />
		<tag k="ssr:stedsnr" v="734350" />
	</node>
	<node id="-456090" lat="60.3040750043" lon="6.64766110435">
		<tag k="fixme" v="consider place=hamlet" />
		<tag k="name" v="Frøynes" />
		<tag k="place" v="farm" />
		<tag k="ssr:stedsnr" v="734343" />
	</node>
	<node id="-456087" lat="60.33212222" lon="6.66274999737">
		<tag k="fixme" v="consider place=hamlet" />
		<tag k="name" v="Lofthus" />
		<tag k="place" v="farm" />
		<tag k="ssr:stedsnr" v="734328" />
	</node>
	<node id="-456086" lat="60.435050002" lon="6.56695555419">
		<tag k="alt_name" v="Træena" />
		<tag k="name" v="Træene" />
		<tag k="place" v="farm" />
		<tag k="ssr:stedsnr" v="734163" />
	</node>
	<node id="-456080" lat="60.2606578461" lon="6.57429925953">
		<tag k="fixme" v="consider place=hamlet" />
		<tag k="name" v="Vikebygd" />
		<tag k="place" v="village" />
		<tag k="ssr:stedsnr" v="733783" />
	</node>
	<node id="-456078" lat="60.2670055556" lon="6.62279444202">
		<tag k="fixme" v="consider place=suburb, village or hamlet" />
		<tag k="name" v="Stor" />
		<tag k="place" v="quarter" />
		<tag k="ssr:stedsnr" v="733630" />
	</node>
	<node id="-456071" lat="60.2002241771" lon="6.63124548544">
		<tag k="historic" v="shieling" />
		<tag k="name" v="Fitjasete" />
		<tag k="place" v="locality" />
		<tag k="ssr:stedsnr" v="733448" />
	</node>
	<node id="-456070" lat="60.211763886" lon="6.60301945161">
		<tag k="alt_name" v="Tunstå" />
		<tag k="name" v="Tunstod" />
		<tag k="place" v="farm" />
		<tag k="ssr:stedsnr" v="733439" />
	</node>
	<node id="-456066" lat="60.2637714388" lon="6.57464175446">
		<tag k="fixme" v="consider place=hamlet" />
		<tag k="name" v="Åkre" />
		<tag k="place" v="farm" />
		<tag k="ssr:stedsnr" v="733377" />
	</node>
	<node id="-456065" lat="60.3859472265" lon="6.64510555116">
		<tag k="fixme" v="consider place=hamlet" />
		<tag k="name" v="Grimo" />
		<tag k="place" v="village" />
		<tag k="ssr:stedsnr" v="733350" />
	</node>
	<node id="-456063" lat="60.0832805513" lon="7.35696388848">
		<tag k="historic" v="shieling" />
		<tag k="name" v="Nedsta Krokavasshallet" />
		<tag k="place" v="locality" />
		<tag k="ssr:stedsnr" v="733281" />
	</node>
	<node id="-456058" lat="60.053033335" lon="7.15753334102">
		<tag k="historic" v="shieling" />
		<tag k="name" v="Søre Belebotnen" />
		<tag k="place" v="locality" />
		<tag k="ssr:stedsnr" v="733245" />
	</node>
	<node id="-456055" lat="60.3817055543" lon="6.50234444198">
		<tag k="name" v="Myri" />
		<tag k="place" v="farm" />
		<tag k="ssr:stedsnr" v="733091" />
	</node>
	<node id="-456049" lat="60.1127583294" lon="6.9302166615">
		<tag k="historic" v="shieling" />
		<tag k="name" v="Håvardsbu" />
		<tag k="place" v="locality" />
		<tag k="ssr:stedsnr" v="732450" />
	</node>
	<node id="-456044" lat="60.118575002" lon="7.02464444053">
		<tag k="name" v="Oddvyrevarden" />
		<tag k="place" v="locality" />
		<tag k="ssr:stedsnr" v="732293" />
	</node>
	<node id="-456042" lat="60.4341999985" lon="6.56115277467">
		<tag k="name" v="Hesthamar" />
		<tag k="place" v="farm" />
		<tag k="ssr:stedsnr" v="724090" />
	</node>
	<node id="-456041" lat="60.3679416656" lon="6.41319444124">
		<tag k="name" v="Rabben" />
		<tag k="place" v="farm" />
		<tag k="ssr:stedsnr" v="712094" />
	</node>
	<node id="-456030" lat="60.2903277776" lon="6.57839999534">
		<tag k="historic" v="shieling" />
		<tag k="name" v="Åsstølen" />
		<tag k="place" v="locality" />
		<tag k="ssr:stedsnr" v="706827" />
	</node>
	<node id="-456009" lat="60.4438138897" lon="6.78820832628">
		<tag k="historic" v="shieling" />
		<tag k="name" v="Mjøstølen" />
		<tag k="place" v="locality" />
		<tag k="ssr:stedsnr" v="706601" />
	</node>
	<node id="-456004" lat="60.3281435449" lon="6.65931862643">
		<tag k="name" v="Kvitavoll" />
		<tag k="place" v="farm" />
		<tag k="ssr:stedsnr" v="706582" />
	</node>
	<node id="-456003" lat="60.3435534747" lon="6.65866302774">
		<tag k="name" v="Ulvasand" />
		<tag k="place" v="locality" />
		<tag k="ssr:stedsnr" v="706577" />
	</node>
	<node id="-455996" lat="60.3792277749" lon="6.69411389763">
		<tag k="name" v="Midnesflot" />
		<tag k="place" v="farm" />
		<tag k="ssr:stedsnr" v="706522" />
	</node>
	<node id="-455994" lat="60.2720999972" lon="6.63250000442">
		<tag k="name" v="Rishovden" />
		<tag k="place" v="farm" />
		<tag k="ssr:stedsnr" v="706498" />
	</node>
	<node id="-455993" lat="60.2672305524" lon="6.63140278093">
		<tag k="name" v="Hagen" />
		<tag k="place" v="farm" />
		<tag k="ssr:stedsnr" v="706492" />
	</node>
	<node id="-455987" lat="60.2814555526" lon="6.62313888265">
		<tag k="name" v="Sponabal" />
		<tag k="place" v="farm" />
		<tag k="ssr:stedsnr" v="706449" />
	</node>
	<node id="-454195" lat="60.2663972188" lon="7.09979166824">
		<tag k="historic" v="shieling" />
		<tag k="name" v="Fogerli" />
		<tag k="place" v="locality" />
		<tag k="ssr:stedsnr" v="309640" />
	</node>
	<node id="-455984" lat="60.2734222187" lon="6.62782500032">
		<tag k="name" v="Utetun" />
		<tag k="place" v="farm" />
		<tag k="ssr:stedsnr" v="706401" />
	</node>
	<node id="-455979" lat="60.4275555591" lon="6.55502778451">
		<tag k="name" v="Liland" />
		<tag k="place" v="farm" />
		<tag k="ssr:stedsnr" v="706106" />
	</node>
	<node id="-455978" lat="60.4239638906" lon="6.54447222336">
		<tag k="name" v="Seljehaugen" />
		<tag k="place" v="farm" />
		<tag k="ssr:stedsnr" v="706103" />
	</node>
	<node id="-455976" lat="60.4227277782" lon="6.54581666259">
		<tag k="name" v="Brekke" />
		<tag k="place" v="farm" />
		<tag k="ssr:stedsnr" v="706086" />
	</node>
	<node id="-455970" lat="60.3958027746" lon="6.65644444976">
		<tag k="name" v="Alme" />
		<tag k="place" v="farm" />
		<tag k="ssr:stedsnr" v="706001" />
	</node>
	<node id="-455965" lat="60.4653972201" lon="6.83459445025">
		<tag k="name" v="Bakken" />
		<tag k="place" v="farm" />
		<tag k="ssr:stedsnr" v="705763" />
	</node>
	<node id="-455964" lat="60.2350249981" lon="6.6190333275">
		<tag k="name" v="Garden" />
		<tag k="place" v="farm" />
		<tag k="ssr:stedsnr" v="705546" />
	</node>
	<node id="-455963" lat="60.2026844586" lon="6.60178463949">
		<tag k="name" v="Sandgota" />
		<tag k="place" v="locality" />
		<tag k="ssr:stedsnr" v="705541" />
	</node>
	<node id="-455960" lat="60.3551593397" lon="6.6218416455">
		<tag k="name" v="Veneflot" />
		<tag k="place" v="farm" />
		<tag k="ssr:stedsnr" v="705258" />
	</node>
	<node id="-455925" lat="60.2737000045" lon="6.57377778649">
		<tag k="name" v="Teigen" />
		<tag k="place" v="farm" />
		<tag k="ssr:stedsnr" v="673400" />
	</node>
	<node id="-455922" lat="60.4584380164" lon="6.64041692633">
		<tag k="historic" v="shieling" />
		<tag k="name" v="Vindhovden" />
		<tag k="place" v="locality" />
		<tag k="ssr:stedsnr" v="673346" />
	</node>
	<node id="-455916" lat="60.3343083297" lon="6.61519444074">
		<tag k="name" v="Presthagen" />
		<tag k="place" v="farm" />
		<tag k="ssr:stedsnr" v="673300" />
	</node>
	<node id="-455915" lat="60.4344764791" lon="6.56172379026">
		<tag k="fixme" v="consider place=hamlet" />
		<tag k="name" v="Hesthamar" />
		<tag k="place" v="farm" />
		<tag k="ssr:stedsnr" v="673168" />
	</node>
	<node id="-455909" lat="60.2152694448" lon="6.56939444695">
		<tag k="alt_name" v="Lindviki" />
		<tag k="fixme" v="consider place=hamlet" />
		<tag k="name" v="Lindvik" />
		<tag k="place" v="farm" />
		<tag k="ssr:stedsnr" v="672844" />
	</node>
	<node id="-455904" lat="60.2471027821" lon="6.56736110694">
		<tag k="alt_name" v="Bleie, yt" />
		<tag k="fixme" v="consider place=hamlet" />
		<tag k="name" v="Ytre Bleie" />
		<tag k="place" v="farm" />
		<tag k="ssr:stedsnr" v="672804" />
	</node>
	<node id="-455903" lat="60.257094445" lon="6.62587499381">
		<tag k="name" v="Markastå" />
		<tag k="place" v="farm" />
		<tag k="ssr:stedsnr" v="672636" />
	</node>
	<node id="-455900" lat="60.3313444485" lon="7.07076389351">
		<tag k="historic" v="shieling" />
		<tag k="name" v="Vivheller" />
		<tag k="place" v="locality" />
		<tag k="ssr:stedsnr" v="672499" />
	</node>
	<node id="-455895" lat="60.2514388904" lon="6.5687138857">
		<tag k="alt_name" v="Kambestad" />
		<tag k="fixme" v="consider place=hamlet" />
		<tag k="name" v="Kambastad" />
		<tag k="place" v="farm" />
		<tag k="ssr:stedsnr" v="672400" />
	</node>
	<node id="-455846" lat="60.2660249984" lon="6.63223055743">
		<tag k="name" v="Kråkeflot" />
		<tag k="place" v="farm" />
		<tag k="ssr:stedsnr" v="645505" />
	</node>
	<node id="-455845" lat="60.3603166651" lon="6.67497222904">
		<tag k="name" v="Bakken" />
		<tag k="place" v="farm" />
		<tag k="ssr:stedsnr" v="645489" />
	</node>
	<node id="-455841" lat="60.2725305557" lon="6.62423055041">
		<tag k="name" v="Fyrehjallen" />
		<tag k="place" v="farm" />
		<tag k="ssr:stedsnr" v="645448" />
	</node>
	<node id="-455832" lat="60.4178541405" lon="6.53969672524">
		<tag k="name" v="Ekrene" />
		<tag k="place" v="locality" />
		<tag k="ssr:stedsnr" v="645082" />
	</node>
	<node id="-455827" lat="60.3921550776" lon="6.65026115916">
		<tag k="name" v="Gravena" />
		<tag k="place" v="farm" />
		<tag k="ssr:stedsnr" v="645003" />
	</node>
	<node id="-454168" lat="60.2445416679" lon="6.56452221731">
		<tag k="alt_name" v="Bleie, in" />
		<tag k="fixme" v="consider place=hamlet" />
		<tag k="name" v="Indre Bleie" />
		<tag k="place" v="farm" />
		<tag k="ssr:stedsnr" v="308798" />
	</node>
	<node id="-455813" lat="60.403941664" lon="6.62199722259">
		<tag k="name" v="Dalset" />
		<tag k="place" v="farm" />
		<tag k="ssr:stedsnr" v="644153" />
	</node>
	<node id="-455809" lat="60.4109567128" lon="6.51614971188">
		<tag k="fixme" v="consider place=hamlet" />
		<tag k="name" v="Vines" />
		<tag k="place" v="farm" />
		<tag k="ssr:stedsnr" v="644115" />
	</node>
	<node id="-455807" lat="60.4286640428" lon="6.55474628367">
		<tag k="name" v="Bøen" />
		<tag k="place" v="farm" />
		<tag k="ssr:stedsnr" v="644100" />
	</node>
	<node id="-455802" lat="60.4212613495" lon="6.62442893452">
		<tag k="name" v="Holmen" />
		<tag k="place" v="farm" />
		<tag k="ssr:stedsnr" v="645110" />
	</node>
	<node id="-454505" lat="60.2971420805" lon="6.60261242037">
		<tag k="alt_name" v="Nestebøen" />
		<tag k="name" v="Nedstebøen" />
		<tag k="place" v="locality" />
		<tag k="ssr:stedsnr" v="888813" />
	</node>
	<node id="-455789" lat="60.2794759839" lon="6.64481388058">
		<tag k="historic" v="shieling" />
		<tag k="name" v="Orrasete" />
		<tag k="place" v="locality" />
		<tag k="ssr:stedsnr" v="612672" />
	</node>
	<node id="-455785" lat="60.4250861075" lon="6.74946389148">
		<tag k="fixme" v="consider place=hamlet" />
		<tag k="name" v="Tveisme" />
		<tag k="place" v="farm" />
		<tag k="ssr:stedsnr" v="612376" />
	</node>
	<node id="-455783" lat="60.4334722199" lon="6.68780555235">
		<tag k="fixme" v="consider place=hamlet" />
		<tag k="name" v="Ulgenes" />
		<tag k="place" v="farm" />
		<tag k="ssr:stedsnr" v="612363" />
	</node>
	<node id="-455781" lat="60.4559944441" lon="6.70275833385">
		<tag k="historic" v="shieling" />
		<tag k="name" v="Mosamyri" />
		<tag k="place" v="locality" />
		<tag k="ssr:stedsnr" v="612344" />
	</node>
	<node id="-455779" lat="60.3005833352" lon="6.60261110539">
		<tag k="name" v="Agatunet" />
		<tag k="place" v="hamlet" />
		<tag k="ssr:stedsnr" v="612317" />
	</node>
	<node id="-455778" lat="60.3329912807" lon="6.66049308472">
		<tag k="fixme" v="consider place=hamlet" />
		<tag k="name" v="Eidnes" />
		<tag k="place" v="farm" />
		<tag k="ssr:stedsnr" v="612298" />
	</node>
	<node id="-455775" lat="60.3734332782" lon="6.71664887288">
		<tag k="fixme" v="consider place=hamlet" />
		<tag k="name" v="Sandvik" />
		<tag k="place" v="farm" />
		<tag k="ssr:stedsnr" v="612269" />
	</node>
	<node id="-455772" lat="60.4266555551" lon="6.55117499708">
		<tag k="alt_name" v="Skallen" />
		<tag k="name" v="Skarpen" />
		<tag k="place" v="farm" />
		<tag k="ssr:stedsnr" v="612154" />
	</node>
	<node id="-455764" lat="60.2401805536" lon="6.52953611276">
		<tag k="alt_name" v="Håvedal" />
		<tag k="historic" v="shieling" />
		<tag k="name" v="Håedal" />
		<tag k="place" v="locality" />
		<tag k="ssr:stedsnr" v="611836" />
	</node>
	<node id="-455751" lat="60.2337372682" lon="6.9856526349">
		<tag k="name" v="Kinsekvelv" />
		<tag k="place" v="isolated_dwelling" />
		<tag k="ssr:stedsnr" v="611389" />
	</node>
	<node id="-455748" lat="60.4056416704" lon="6.73644999987">
		<tag k="fixme" v="consider place=hamlet" />
		<tag k="name" v="Rateig" />
		<tag k="place" v="farm" />
		<tag k="ssr:stedsnr" v="611367" />
	</node>
	<node id="-455736" lat="60.1647222204" lon="6.5810805537">
		<tag k="fixme" v="consider place=hamlet" />
		<tag k="name" v="Skjeldås" />
		<tag k="place" v="farm" />
		<tag k="ssr:stedsnr" v="611207" />
	</node>
	<node id="-455735" lat="60.2353308503" lon="6.61994407426">
		<tag k="fixme" v="consider place=hamlet" />
		<tag k="name" v="Hovland" />
		<tag k="place" v="farm" />
		<tag k="ssr:stedsnr" v="611011" />
	</node>
	<node id="-454494" lat="60.4322666669" lon="6.69731389116">
		<tag k="name" v="Flætene" />
		<tag k="place" v="farm" />
		<tag k="ssr:stedsnr" v="888636" />
	</node>
	<node id="-455719" lat="60.2983257498" lon="6.60050447929">
		<tag k="name" v="Øvstebøen" />
		<tag k="place" v="farm" />
		<tag k="ssr:stedsnr" v="584832" />
	</node>
	<node id="-455701" lat="60.4442750015" lon="6.83537778011">
		<tag k="historic" v="shieling" />
		<tag k="name" v="Øvstestølen" />
		<tag k="place" v="locality" />
		<tag k="ssr:stedsnr" v="584670" />
	</node>
	<node id="-455689" lat="60.3489665918" lon="6.66270148946">
		<tag k="name" v="Erneshagen" />
		<tag k="place" v="farm" />
		<tag k="ssr:stedsnr" v="584534" />
	</node>
	<node id="-455681" lat="60.2395000005" lon="6.62024721839">
		<tag k="name" v="Kalvahagen" />
		<tag k="place" v="farm" />
		<tag k="ssr:stedsnr" v="584462" />
	</node>
	<node id="-455679" lat="60.2647065669" lon="6.62875691798">
		<tag k="name" v="Horpegrov" />
		<tag k="place" v="locality" />
		<tag k="ssr:stedsnr" v="584448" />
	</node>
	<node id="-455674" lat="60.2524755646" lon="6.56523757364">
		<tag k="name" v="Hålund" />
		<tag k="place" v="locality" />
		<tag k="ssr:stedsnr" v="584200" />
	</node>
	<node id="-455669" lat="60.3765972187" lon="6.61399166799">
		<tag k="historic" v="shieling" />
		<tag k="name" v="Skori" />
		<tag k="place" v="locality" />
		<tag k="ssr:stedsnr" v="584073" />
	</node>
	<node id="-455665" lat="60.4022422088" lon="6.66353490117">
		<tag k="name" v="Solstø" />
		<tag k="place" v="farm" />
		<tag k="ssr:stedsnr" v="584012" />
	</node>
	<node id="-455664" lat="60.397709044" lon="6.6579810056">
		<tag k="name" v="Midtbø" />
		<tag k="place" v="farm" />
		<tag k="ssr:stedsnr" v="584008" />
	</node>
	<node id="-455653" lat="60.4510638915" lon="6.7074277835">
		<tag k="historic" v="shieling" />
		<tag k="name" v="Vikastølen" />
		<tag k="place" v="locality" />
		<tag k="ssr:stedsnr" v="568226" />
	</node>
	<node id="-455644" lat="60.3203166703" lon="7.10288610423">
		<tag k="historic" v="shieling" />
		<tag k="name" v="Liastølen" />
		<tag k="place" v="locality" />
		<tag k="ssr:stedsnr" v="567584" />
	</node>
	<node id="-455635" lat="60.2785000007" lon="6.67289444767">
		<tag k="historic" v="shieling" />
		<tag k="name" v="Røvil" />
		<tag k="place" v="locality" />
		<tag k="ssr:stedsnr" v="551685" />
	</node>
	<node id="-455625" lat="60.3131583364" lon="7.03843333514">
		<tag k="historic" v="shieling" />
		<tag k="name" v="Skuggabjørg" />
		<tag k="place" v="locality" />
		<tag k="ssr:stedsnr" v="551517" />
	</node>
	<node id="-455618" lat="60.3912065865" lon="6.64689441087">
		<tag k="fixme" v="consider place=hamlet" />
		<tag k="name" v="Ytre Langasete" />
		<tag k="place" v="farm" />
		<tag k="ssr:stedsnr" v="551352" />
	</node>
	<node id="-455613" lat="60.3379716211" lon="6.61912847974">
		<tag k="name" v="Hetleflot" />
		<tag k="place" v="farm" />
		<tag k="ssr:stedsnr" v="551293" />
	</node>
	<node id="-455612" lat="60.3752555545" lon="6.68123055556">
		<tag k="fixme" v="consider place=hamlet" />
		<tag k="name" v="Instanes" />
		<tag k="place" v="farm" />
		<tag k="ssr:stedsnr" v="551266" />
	</node>
	<node id="-455611" lat="60.3773638853" lon="6.68363889252">
		<tag k="fixme" v="consider place=hamlet" />
		<tag k="name" v="Midnes" />
		<tag k="place" v="farm" />
		<tag k="ssr:stedsnr" v="551267" />
	</node>
	<node id="-455606" lat="60.3615999987" lon="6.46703055527">
		<tag k="historic" v="shieling" />
		<tag k="name" v="Trosasete" />
		<tag k="place" v="locality" />
		<tag k="ssr:stedsnr" v="551124" />
	</node>
	<node id="-455604" lat="60.3810500031" lon="6.49981667365">
		<tag k="name" v="Gravene" />
		<tag k="place" v="farm" />
		<tag k="ssr:stedsnr" v="551082" />
	</node>
	<node id="-455603" lat="60.383441663" lon="6.52119166347">
		<tag k="historic" v="shieling" />
		<tag k="name" v="Meldestveit" />
		<tag k="place" v="locality" />
		<tag k="ssr:stedsnr" v="551078" />
	</node>
	<node id="-455602" lat="60.3659833368" lon="6.40650833028">
		<tag k="name" v="Åslii" />
		<tag k="place" v="farm" />
		<tag k="ssr:stedsnr" v="551063" />
	</node>
	<node id="-455599" lat="60.2464638882" lon="6.56488056083">
		<tag k="alt_name" v="Bleie, midtre;Bleie" />
		<tag k="fixme" v="consider place=hamlet" />
		<tag k="name" v="Midtre Bleie" />
		<tag k="place" v="farm" />
		<tag k="ssr:stedsnr" v="550799" />
	</node>
	<node id="-455583" lat="60.1846888924" lon="6.53367499275">
		<tag k="historic" v="shieling" />
		<tag k="name" v="Nosi" />
		<tag k="place" v="locality" />
		<tag k="ssr:stedsnr" v="550242" />
	</node>
	<node id="-455581" lat="60.2782651019" lon="6.62379084235">
		<tag k="alt_name" v="Børve, nedre;Børve" />
		<tag k="fixme" v="consider place=hamlet" />
		<tag k="name" v="Nedre Børve" />
		<tag k="old_name" v="Børve, nordre" />
		<tag k="place" v="farm" />
		<tag k="ssr:stedsnr" v="539673" />
	</node>
	<node id="-455577" lat="60.3203916633" lon="6.65518889486">
		<tag k="fixme" v="consider place=hamlet" />
		<tag k="name" v="Ullensvang" />
		<tag k="place" v="farm" />
		<tag k="ssr:stedsnr" v="531011" />
	</node>
	<node id="-455574" lat="60.1924055578" lon="6.55253056432">
		<tag k="name" v="Litlateig" />
		<tag k="place" v="farm" />
		<tag k="ssr:stedsnr" v="524988" />
	</node>
	<node id="-455568" lat="60.3669999995" lon="6.39747221926">
		<tag k="name" v="Ådnaviki" />
		<tag k="place" v="farm" />
		<tag k="ssr:stedsnr" v="524903" />
	</node>
	<node id="-455567" lat="60.2836055593" lon="6.59614166975">
		<tag k="name" v="Strondi" />
		<tag k="place" v="farm" />
		<tag k="ssr:stedsnr" v="524904" />
	</node>
	<node id="-455564" lat="60.2530861115" lon="6.61615555725">
		<tag k="name" v="Skorvane" />
		<tag k="place" v="farm" />
		<tag k="ssr:stedsnr" v="524850" />
	</node>
	<node id="-455553" lat="60.425725" lon="6.75239722161">
		<tag k="name" v="Ringvoll" />
		<tag k="place" v="farm" />
		<tag k="ssr:stedsnr" v="524681" />
	</node>
	<node id="-455544" lat="60.3363305597" lon="6.65820278163">
		<tag k="name" v="Skutul" />
		<tag k="place" v="farm" />
		<tag k="ssr:stedsnr" v="524569" />
	</node>
	<node id="-455541" lat="60.3686999992" lon="6.68051388578">
		<tag k="name" v="Urheim" />
		<tag k="place" v="farm" />
		<tag k="ssr:stedsnr" v="524548" />
	</node>
	<node id="-455539" lat="60.3540027791" lon="6.66414443634">
		<tag k="name" v="Gråten" />
		<tag k="place" v="farm" />
		<tag k="ssr:stedsnr" v="524545" />
	</node>
	<node id="-455524" lat="60.3190361103" lon="6.60797222353">
		<tag k="name" v="Linde" />
		<tag k="place" v="farm" />
		<tag k="ssr:stedsnr" v="524193" />
	</node>
	<node id="-455520" lat="60.4234944471" lon="6.62395277465">
		<tag k="fixme" v="consider place=hamlet" />
		<tag k="name" v="Utne" />
		<tag k="place" v="farm" />
		<tag k="ssr:stedsnr" v="524090" />
	</node>
	<node id="-455508" lat="60.3368972219" lon="6.62318055907">
		<tag k="name" v="Grønsnes" />
		<tag k="place" v="farm" />
		<tag k="ssr:stedsnr" v="523161" />
	</node>
	<node id="-455501" lat="60.2182805575" lon="6.62314166722">
		<tag k="historic" v="shieling" />
		<tag k="name" v="Kvalnesstølen" />
		<tag k="place" v="locality" />
		<tag k="ssr:stedsnr" v="507859" />
	</node>
	<node id="-455494" lat="60.3449166698" lon="6.79390833308">
		<tag k="historic" v="shieling" />
		<tag k="name" v="Kleivane" />
		<tag k="place" v="locality" />
		<tag k="ssr:stedsnr" v="507171" />
	</node>
	<node id="-455492" lat="60.2825309857" lon="6.59172686182">
		<tag k="fixme" v="consider place=hamlet" />
		<tag k="name" v="Rogdaberg" />
		<tag k="place" v="farm" />
		<tag k="ssr:stedsnr" v="491525" />
	</node>
	<node id="-455488" lat="60.4185350205" lon="6.6399177299">
		<tag k="alt_name" v="Råe" />
		<tag k="fixme" v="consider place=hamlet" />
		<tag k="name" v="Ytre Råe" />
		<tag k="place" v="farm" />
		<tag k="ssr:stedsnr" v="491381" />
	</node>
	<node id="-455485" lat="60.4421000034" lon="6.70708055338">
		<tag k="fixme" v="consider place=hamlet" />
		<tag k="name" v="Vikane" />
		<tag k="place" v="farm" />
		<tag k="ssr:stedsnr" v="491362" />
	</node>
	<node id="-455481" lat="60.3246403359" lon="6.65829224481">
		<tag k="fixme" v="consider place=hamlet" />
		<tag k="name" v="Lofthus" />
		<tag k="place" v="village" />
		<tag k="ssr:stedsnr" v="491305" />
	</node>
	<node id="-455480" lat="60.3311361139" lon="6.60817778134">
		<tag k="alt_name" v="Viluro" />
		<tag k="fixme" v="consider place=hamlet" />
		<tag k="name" v="Velure" />
		<tag k="place" v="farm" />
		<tag k="ssr:stedsnr" v="491306" />
	</node>
	<node id="-455478" lat="60.4235631214" lon="6.54527346152">
		<tag k="fixme" v="consider place=hamlet" />
		<tag k="name" v="Lote" />
		<tag k="place" v="farm" />
		<tag k="ssr:stedsnr" v="491144" />
	</node>
	<node id="-454483" lat="60.323552728" lon="6.67499704512">
		<tag k="name" v="Steinsgjerd" />
		<tag k="place" v="locality" />
		<tag k="ssr:stedsnr" v="888513" />
	</node>
	<node id="-455463" lat="60.2536555592" lon="6.54547499133">
		<tag k="alt_name" v="Herseter" />
		<tag k="historic" v="shieling" />
		<tag k="name" v="Hersete" />
		<tag k="place" v="locality" />
		<tag k="ssr:stedsnr" v="490381" />
	</node>
	<node id="-455461" lat="60.3841694414" lon="6.63748334176">
		<tag k="fixme" v="consider place=hamlet" />
		<tag k="name" v="Årekol" />
		<tag k="place" v="farm" />
		<tag k="ssr:stedsnr" v="490360" />
	</node>
	<node id="-455456" lat="60.226036108" lon="7.11288611322">
		<tag k="historic" v="shieling" />
		<tag k="name" v="Viersdalen" />
		<tag k="place" v="locality" />
		<tag k="ssr:stedsnr" v="490350" />
	</node>
	<node id="-455448" lat="60.3791916636" lon="6.83912221407">
		<tag k="historic" v="shieling" />
		<tag k="name" v="Gryting" />
		<tag k="place" v="locality" />
		<tag k="ssr:stedsnr" v="490248" />
	</node>
	<node id="-455446" lat="60.0354055585" lon="7.30004444051">
		<tag k="historic" v="shieling" />
		<tag k="name" v="Kortmark" />
		<tag k="place" v="locality" />
		<tag k="ssr:stedsnr" v="490240" />
	</node>
	<node id="-455445" lat="60.379316665" lon="6.69108056389">
		<tag k="fixme" v="consider place=hamlet" />
		<tag k="name" v="Røte" />
		<tag k="place" v="farm" />
		<tag k="ssr:stedsnr" v="490237" />
	</node>
	<node id="-455434" lat="60.2049795804" lon="6.60243132012">
		<tag k="fixme" v="consider place=hamlet" />
		<tag k="name" v="Espe" />
		<tag k="place" v="farm" />
		<tag k="ssr:stedsnr" v="490465" />
	</node>
	<node id="-455431" lat="60.295075" lon="6.58904167521">
		<tag k="name" v="Nytveit" />
		<tag k="place" v="locality" />
		<tag k="ssr:stedsnr" v="490435" />
	</node>
	<node id="-455428" lat="60.298305553" lon="6.59088610606">
		<tag k="name" v="Stuvatveiti" />
		<tag k="place" v="locality" />
		<tag k="ssr:stedsnr" v="490420" />
	</node>
	<node id="-455427" lat="60.1717111081" lon="6.82441389266">
		<tag k="name" v="Steinane" />
		<tag k="place" v="locality" />
		<tag k="ssr:stedsnr" v="489474" />
	</node>
	<node id="-455426" lat="60.3899990319" lon="6.64505932199">
		<tag k="name" v="Langasete" />
		<tag k="place" v="hamlet" />
		<tag k="ssr:stedsnr" v="485451" />
	</node>
	<node id="-455393" lat="60.4466416624" lon="6.8091277854">
		<tag k="historic" v="shieling" />
		<tag k="name" v="Mjøstølen" />
		<tag k="place" v="locality" />
		<tag k="ssr:stedsnr" v="463630" />
	</node>
	<node id="-455384" lat="60.3294722191" lon="6.66461111789">
		<tag k="name" v="Hallvardstveit" />
		<tag k="place" v="farm" />
		<tag k="ssr:stedsnr" v="463577" />
	</node>
	<node id="-455383" lat="60.3792768901" lon="6.72625418574">
		<tag k="name" v="Husenausti" />
		<tag k="place" v="locality" />
		<tag k="ssr:stedsnr" v="463569" />
	</node>
	<node id="-455369" lat="60.1854527769" lon="6.59269999631">
		<tag k="name" v="Haugen" />
		<tag k="place" v="farm" />
		<tag k="ssr:stedsnr" v="463388" />
	</node>
	<node id="-455368" lat="60.1842194434" lon="6.59592223005">
		<tag k="name" v="Tveite" />
		<tag k="place" v="farm" />
		<tag k="ssr:stedsnr" v="463386" />
	</node>
	<node id="-455367" lat="60.1865278242" lon="6.59272647129">
		<tag k="name" v="Torvo" />
		<tag k="place" v="farm" />
		<tag k="ssr:stedsnr" v="463385" />
	</node>
	<node id="-455365" lat="60.2605277783" lon="6.56947777248">
		<tag k="name" v="Brautveit" />
		<tag k="place" v="farm" />
		<tag k="ssr:stedsnr" v="463163" />
	</node>
	<node id="-455362" lat="60.3360834231" lon="6.61938454637">
		<tag k="name" v="Prestteigen" />
		<tag k="place" v="farm" />
		<tag k="ssr:stedsnr" v="463125" />
	</node>
	<node id="-455347" lat="60.4695277772" lon="6.71031111946">
		<tag k="historic" v="shieling" />
		<tag k="name" v="Larsbu" />
		<tag k="place" v="locality" />
		<tag k="ssr:stedsnr" v="447192" />
	</node>
	<node id="-455342" lat="60.1899583291" lon="6.60679166944">
		<tag k="historic" v="shieling" />
		<tag k="name" v="Fletene" />
		<tag k="place" v="locality" />
		<tag k="ssr:stedsnr" v="446857" />
	</node>
	<node id="-455341" lat="60.2823888958" lon="7.02682249231">
		<tag k="historic" v="shieling" />
		<tag k="name" v="Sinnhovda" />
		<tag k="place" v="locality" />
		<tag k="ssr:stedsnr" v="446613" />
	</node>
	<node id="-455336" lat="60.4210851891" lon="6.62825741608">
		<tag k="name" v="Bøen" />
		<tag k="place" v="farm" />
		<tag k="ssr:stedsnr" v="431390" />
	</node>
	<node id="-455316" lat="60.4663277757" lon="6.83719444777">
		<tag k="alt_name" v="Bu, yt;Ytra Bu" />
		<tag k="fixme" v="consider place=hamlet" />
		<tag k="name" v="Ytre Bu" />
		<tag k="place" v="farm" />
		<tag k="ssr:stedsnr" v="430323" />
	</node>
	<node id="-455311" lat="60.3131388899" lon="6.72342499983">
		<tag k="historic" v="shieling" />
		<tag k="name" v="Solbjørg" />
		<tag k="place" v="locality" />
		<tag k="ssr:stedsnr" v="430299" />
	</node>
	<node id="-455308" lat="60.3457861107" lon="6.67391666281">
		<tag k="name" v="Myrsete" />
		<tag k="place" v="locality" />
		<tag k="ssr:stedsnr" v="430271" />
	</node>
	<node id="-455304" lat="60.3857250007" lon="6.49960277408">
		<tag k="alt_name" v="Alsåker, yt" />
		<tag k="fixme" v="consider place=hamlet" />
		<tag k="name" v="Ytre Alsåker" />
		<tag k="place" v="farm" />
		<tag k="ssr:stedsnr" v="430163" />
	</node>
	<node id="-455294" lat="60.1992472258" lon="6.56069443628">
		<tag k="fixme" v="consider place=hamlet" />
		<tag k="name" v="Måge" />
		<tag k="place" v="farm" />
		<tag k="ssr:stedsnr" v="429855" />
	</node>
	<node id="-456469" lat="60.3670000044" lon="6.47671388403">
		<tag k="historic" v="shieling" />
		<tag k="name" v="Bjørkesete" />
		<tag k="place" v="locality" />
		<tag k="ssr:stedsnr" v="916067" />
	</node>
	<node id="-455279" lat="60.2414416704" lon="6.87615833449">
		<tag k="historic" v="shieling" />
		<tag k="name" v="Reppane" />
		<tag k="place" v="locality" />
		<tag k="ssr:stedsnr" v="429005" />
	</node>
	<node id="-455277" lat="60.3369083309" lon="6.65815277483">
		<tag k="fixme" v="consider place=hamlet" />
		<tag k="name" v="Helleland" />
		<tag k="place" v="farm" />
		<tag k="ssr:stedsnr" v="418256" />
	</node>
	<node id="-455275" lat="60.1867319535" lon="6.59088651765">
		<tag k="alt_name" v="Frisvik" />
		<tag k="fixme" v="consider place=hamlet" />
		<tag k="name" v="Fresvik" />
		<tag k="place" v="farm" />
		<tag k="ssr:stedsnr" v="429232" />
	</node>
	<node id="-455273" lat="60.1561749973" lon="6.84177778695">
		<tag k="fixme" v="consider tourism=alpine_hut or tourism=chalet" />
		<tag k="name" v="Tyssevassbu" />
		<tag k="ssr:stedsnr" v="267354" />
		<tag k="tourism" v="wilderness_hut" />
	</node>
	<node id="-455267" lat="60.3192833366" lon="6.67138888087">
		<tag k="amenity" v="kindergarten" />
		<tag k="name" v="Veisane barnehage" />
		<tag k="ssr:stedsnr" v="263277" />
	</node>
	<node id="-455260" lat="60.25181445" lon="6.62103341161">
		<tag k="name" v="Sekse" />
		<tag k="place" v="hamlet" />
		<tag k="ssr:stedsnr" v="248679" />
	</node>
	<node id="-455254" lat="60.2871027812" lon="7.03985278241">
		<tag k="historic" v="shieling" />
		<tag k="name" v="Fagradal" />
		<tag k="place" v="locality" />
		<tag k="ssr:stedsnr" v="248514" />
	</node>
	<node id="-455252" lat="60.4783333332" lon="6.74971389715">
		<tag k="historic" v="shieling" />
		<tag k="name" v="Stokkrå" />
		<tag k="place" v="locality" />
		<tag k="ssr:stedsnr" v="248413" />
	</node>
	<node id="-455251" lat="60.3885851273" lon="6.64387402207">
		<tag k="fixme" v="consider place=hamlet" />
		<tag k="name" v="Indre Langasete" />
		<tag k="place" v="farm" />
		<tag k="ssr:stedsnr" v="248348" />
	</node>
	<node id="-455244" lat="60.2973805529" lon="6.70034166356">
		<tag k="historic" v="shieling" />
		<tag k="name" v="Skriksete" />
		<tag k="place" v="locality" />
		<tag k="ssr:stedsnr" v="248289" />
	</node>
	<node id="-455242" lat="60.3215415007" lon="6.65382812196">
		<tag k="fixme" v="consider place=hamlet" />
		<tag k="name" v="Århus" />
		<tag k="place" v="farm" />
		<tag k="ssr:stedsnr" v="248279" />
	</node>
	<node id="-455240" lat="60.3532083375" lon="6.71949444601">
		<tag k="historic" v="shieling" />
		<tag k="name" v="Vetla Kvanndal" />
		<tag k="place" v="locality" />
		<tag k="ssr:stedsnr" v="248262" />
	</node>
	<node id="-455236" lat="60.3974527821" lon="6.50324167132">
		<tag k="alt_name" v="Alsåker, in" />
		<tag k="fixme" v="consider place=hamlet" />
		<tag k="name" v="Indre Alsåker" />
		<tag k="place" v="farm" />
		<tag k="ssr:stedsnr" v="248157" />
	</node>
	<node id="-455235" lat="60.3880861108" lon="6.5120916601">
		<tag k="alt_name" v="Skinastølane" />
		<tag k="historic" v="shieling" />
		<tag k="loc_name" v="Skjenasete" />
		<tag k="name" v="Skjenaseter" />
		<tag k="place" v="locality" />
		<tag k="ssr:stedsnr" v="248154" />
	</node>
	<node id="-455233" lat="60.421525003" lon="6.54216666841">
		<tag k="name" v="Midtun" />
		<tag k="place" v="farm" />
		<tag k="ssr:stedsnr" v="248130" />
	</node>
	<node id="-455230" lat="60.2490348071" lon="6.5520704876">
		<tag k="fixme" v="consider place=hamlet" />
		<tag k="name" v="Reisete" />
		<tag k="place" v="farm" />
		<tag k="ssr:stedsnr" v="247795" />
	</node>
	<node id="-455227" lat="60.2056527754" lon="6.60685833614">
		<tag k="fixme" v="consider place=hamlet" />
		<tag k="name" v="Brattespe" />
		<tag k="place" v="farm" />
		<tag k="ssr:stedsnr" v="247460" />
	</node>
	<node id="-455224" lat="60.2364194473" lon="6.92801667103">
		<tag k="historic" v="shieling" />
		<tag k="name" v="Langhellefiti" />
		<tag k="place" v="locality" />
		<tag k="ssr:stedsnr" v="247446" />
	</node>
	<node id="-455218" lat="60.211414711" lon="7.03508054158">
		<tag k="fixme" v="consider tourism=alpine_hut or tourism=chalet" />
		<tag k="name" v="Torehytten" />
		<tag k="old_name" v="Torehytta" />
		<tag k="ssr:stedsnr" v="247306" />
		<tag k="tourism" v="wilderness_hut" />
	</node>
	<node id="-455212" lat="60.1828611122" lon="6.55182778412">
		<tag k="name" v="Eikhamrane" />
		<tag k="place" v="farm" />
		<tag k="ssr:stedsnr" v="247231" />
	</node>
	<node id="-455207" lat="60.4344416659" lon="6.56260554685">
		<tag k="name" v="Hesthamar" />
		<tag k="place" v="farm" />
		<tag k="ssr:stedsnr" v="238098" />
	</node>
	<node id="-455202" lat="60.4503048011" lon="6.65138248672">
		<tag k="name" v="Spikord" />
		<tag k="place" v="locality" />
		<tag k="ssr:stedsnr" v="226255" />
	</node>
	<node id="-455193" lat="60.4123777818" lon="6.7413000042">
		<tag k="fixme" v="consider place=hamlet" />
		<tag k="name" v="Gjelet" />
		<tag k="place" v="farm" />
		<tag k="ssr:stedsnr" v="221836" />
	</node>
	<node id="-455191" lat="60.4153357719" lon="6.63866542006">
		<tag k="fixme" v="multiple name tags, choose one and add the other to alt_name" />
		<tag k="name" v="Fjørdingen;Reisete" />
		<tag k="place" v="farm" />
		<tag k="ssr:stedsnr" v="221823" />
	</node>
	<node id="-455190" lat="60.3796055534" lon="6.63726110828">
		<tag k="name" v="Haugen" />
		<tag k="place" v="farm" />
		<tag k="ssr:stedsnr" v="221818" />
	</node>
	<node id="-455183" lat="60.4505249995" lon="6.63802499762">
		<tag k="name" v="Ytrebøen" />
		<tag k="place" v="farm" />
		<tag k="ssr:stedsnr" v="221545" />
	</node>
	<node id="-455182" lat="60.3095749957" lon="6.65222777114">
		<tag k="name" v="Brurastol" />
		<tag k="place" v="farm" />
		<tag k="ssr:stedsnr" v="221522" />
	</node>
	<node id="-455176" lat="60.3021988753" lon="6.64287566204">
		<tag k="name" v="Holmane" />
		<tag k="place" v="farm" />
		<tag k="ssr:stedsnr" v="221491" />
	</node>
	<node id="-455171" lat="60.2759611082" lon="6.62376666161">
		<tag k="name" v="Gamlatunet" />
		<tag k="place" v="farm" />
		<tag k="ssr:stedsnr" v="221442" />
	</node>
	<node id="-455153" lat="60.3305888891" lon="6.66341945231">
		<tag k="name" v="Bakken" />
		<tag k="place" v="farm" />
		<tag k="ssr:stedsnr" v="220833" />
	</node>
	<node id="-455152" lat="60.3281479489" lon="6.65686353038">
		<tag k="name" v="Mønsgarden" />
		<tag k="place" v="farm" />
		<tag k="ssr:stedsnr" v="220832" />
	</node>
	<node id="-455128" lat="60.079855556" lon="7.33887222903">
		<tag k="historic" v="shieling" />
		<tag k="name" v="Midtra Krokavasshallet" />
		<tag k="place" v="locality" />
		<tag k="ssr:stedsnr" v="209890" />
	</node>
	<node id="-455108" lat="60.4056361153" lon="6.73187499753">
		<tag k="fixme" v="consider place=hamlet" />
		<tag k="name" v="Berget" />
		<tag k="place" v="farm" />
		<tag k="ssr:stedsnr" v="188391" />
	</node>
	<node id="-455107" lat="60.450302781" lon="6.80661665939">
		<tag k="alt_name" v="Bjotveit;Bjotveit Indre" />
		<tag k="fixme" v="consider place=hamlet" />
		<tag k="name" v="Indre Bjotveit" />
		<tag k="place" v="farm" />
		<tag k="ssr:stedsnr" v="188373" />
	</node>
	<node id="-455103" lat="60.4298972184" lon="6.58893056263">
		<tag k="fixme" v="consider place=hamlet" />
		<tag k="name" v="Svartveit" />
		<tag k="place" v="farm" />
		<tag k="ssr:stedsnr" v="188168" />
	</node>
	<node id="-455097" lat="60.2612111119" lon="6.62561388771">
		<tag k="alt_name" v="Sandsto;Sandstod" />
		<tag k="fixme" v="consider place=hamlet" />
		<tag k="name" v="Sandstå" />
		<tag k="place" v="farm" />
		<tag k="ssr:stedsnr" v="187612" />
	</node>
	<node id="-455093" lat="60.4040916629" lon="6.99447499325">
		<tag k="historic" v="shieling" />
		<tag k="name" v="Nosi" />
		<tag k="place" v="locality" />
		<tag k="ssr:stedsnr" v="187671" />
	</node>
	<node id="-455092" lat="60.03246944" lon="7.36639443726">
		<tag k="historic" v="shieling" />
		<tag k="name" v="Bjørnabu" />
		<tag k="place" v="locality" />
		<tag k="ssr:stedsnr" v="187589" />
	</node>
	<node id="-455089" lat="60.4578194468" lon="6.71142776875">
		<tag k="historic" v="shieling" />
		<tag k="name" v="Oksastølen" />
		<tag k="place" v="locality" />
		<tag k="ssr:stedsnr" v="187316" />
	</node>
	<node id="-455085" lat="60.2599694462" lon="6.5600611098">
		<tag k="historic" v="shieling" />
		<tag k="name" v="Kvestadstølen" />
		<tag k="place" v="locality" />
		<tag k="ssr:stedsnr" v="187371" />
	</node>
	<node id="-455080" lat="60.3519250016" lon="6.6896500067">
		<tag k="historic" v="shieling" />
		<tag k="name" v="Glygging" />
		<tag k="place" v="locality" />
		<tag k="ssr:stedsnr" v="187263" />
	</node>
	<node id="-455074" lat="60.4054472245" lon="6.51069722498">
		<tag k="name" v="Holmane" />
		<tag k="place" v="farm" />
		<tag k="ssr:stedsnr" v="187184" />
	</node>
	<node id="-455073" lat="60.3729500022" lon="6.45075278416">
		<tag k="alt_name" v="Kvalvikane, ytre;Kvalvikane;Ytre Kvalvikane" />
		<tag k="fixme" v="consider place=hamlet" />
		<tag k="name" v="Ytre Kvalvik" />
		<tag k="place" v="farm" />
		<tag k="ssr:stedsnr" v="187173" />
	</node>
	<node id="-455069" lat="60.3234000034" lon="6.53663332665">
		<tag k="alt_name" v="Samladalsstølen" />
		<tag k="historic" v="shieling" />
		<tag k="name" v="Samladal" />
		<tag k="place" v="locality" />
		<tag k="ssr:stedsnr" v="187007" />
	</node>
	<node id="-455055" lat="60.0904277821" lon="7.29455278201">
		<tag k="historic" v="shieling" />
		<tag k="name" v="Øvsta Krokavasshallet" />
		<tag k="place" v="locality" />
		<tag k="ssr:stedsnr" v="186308" />
	</node>
	<node id="-456427" lat="60.3128861085" lon="6.66461389392">
		<tag k="historic" v="shieling" />
		<tag k="name" v="Stuvasete" />
		<tag k="place" v="locality" />
		<tag k="ssr:stedsnr" v="871136" />
	</node>
	<node id="-455025" lat="60.344447218" lon="6.65974722457">
		<tag k="name" v="Tussen" />
		<tag k="place" v="farm" />
		<tag k="ssr:stedsnr" v="160557" />
	</node>
	<node id="-455013" lat="60.2422055519" lon="6.6359999949">
		<tag k="historic" v="shieling" />
		<tag k="name" v="Stølen" />
		<tag k="place" v="locality" />
		<tag k="ssr:stedsnr" v="160458" />
	</node>
	<node id="-455008" lat="60.3510999994" lon="6.67673611359">
		<tag k="historic" v="shieling" />
		<tag k="name" v="Gjertveit" />
		<tag k="place" v="locality" />
		<tag k="ssr:stedsnr" v="160742" />
	</node>
	<node id="-455004" lat="60.2244944457" lon="6.60668888224">
		<tag k="name" v="Fjellheim" />
		<tag k="place" v="farm" />
		<tag k="ssr:stedsnr" v="160395" />
	</node>
	<node id="-455001" lat="60.1870305531" lon="6.59157221631">
		<tag k="name" v="Florhaugen" />
		<tag k="place" v="farm" />
		<tag k="ssr:stedsnr" v="160355" />
	</node>
	<node id="-454998" lat="60.4149393454" lon="6.52689186638">
		<tag k="name" v="Viteigen" />
		<tag k="place" v="farm" />
		<tag k="ssr:stedsnr" v="160073" />
	</node>
	<node id="-456501" lat="60.3756722226" lon="6.7194833355">
		<tag k="name" v="Kinsarvik" />
		<tag k="place" v="village" />
		<tag k="ssr:stedsnr" v="938780" />
	</node>
	<node id="-454983" lat="60.2037333325" lon="6.60897500697">
		<tag k="name" v="Enden" />
		<tag k="place" v="farm" />
		<tag k="ssr:stedsnr" v="159487" />
	</node>
	<node id="-454979" lat="60.3553972209" lon="6.62358888004">
		<tag k="name" v="Bakken" />
		<tag k="place" v="farm" />
		<tag k="ssr:stedsnr" v="159251" />
	</node>
	<node id="-454969" lat="60.4650972229" lon="6.84298333854">
		<tag k="historic" v="shieling" />
		<tag k="name" v="Mjøstølstræet" />
		<tag k="place" v="locality" />
		<tag k="ssr:stedsnr" v="158706" />
	</node>
	<node id="-454960" lat="60.2257472181" lon="6.63885555615">
		<tag k="historic" v="shieling" />
		<tag k="name" v="Hovlandsstølen" />
		<tag k="place" v="locality" />
		<tag k="ssr:stedsnr" v="142849" />
	</node>
	<node id="-454943" lat="60.3000055535" lon="7.0604361071">
		<tag k="historic" v="shieling" />
		<tag k="name" v="Finnabu" />
		<tag k="place" v="locality" />
		<tag k="ssr:stedsnr" v="126513" />
	</node>
	<node id="-454942" lat="60.285963892" lon="7.11208056397">
		<tag k="historic" v="shieling" />
		<tag k="name" v="Langedalen" />
		<tag k="place" v="locality" />
		<tag k="ssr:stedsnr" v="126507" />
	</node>
	<node id="-454935" lat="60.0457500018" lon="7.3812361087">
		<tag k="name" v="Mågehallet" />
		<tag k="place" v="isolated_dwelling" />
		<tag k="ssr:stedsnr" v="126615" />
	</node>
	<node id="-454931" lat="60.3656027744" lon="6.63394445094">
		<tag k="fixme" v="consider place=hamlet" />
		<tag k="name" v="Haustveit" />
		<tag k="place" v="farm" />
		<tag k="ssr:stedsnr" v="126244" />
	</node>
	<node id="-454929" lat="60.3724166672" lon="6.73795556223">
		<tag k="fixme" v="consider place=hamlet" />
		<tag k="name" v="Hus" />
		<tag k="place" v="farm" />
		<tag k="ssr:stedsnr" v="126239" />
	</node>
	<node id="-454925" lat="60.2548249998" lon="6.56198055255">
		<tag k="name" v="Botnen" />
		<tag k="place" v="farm" />
		<tag k="ssr:stedsnr" v="126392" />
	</node>
	<node id="-455041" lat="60.2319361139" lon="6.56679166514">
		<tag k="name" v="Salthella" />
		<tag k="place" v="farm" />
		<tag k="ssr:stedsnr" v="160982" />
	</node>
	<node id="-454914" lat="60.372391664" lon="6.44338889717">
		<tag k="name" v="Strondi" />
		<tag k="place" v="farm" />
		<tag k="ssr:stedsnr" v="126066" />
	</node>
	<node id="-454901" lat="60.3912277791" lon="6.50207221651">
		<tag k="name" v="Alsåker" />
		<tag k="place" v="hamlet" />
		<tag k="ssr:stedsnr" v="104113" />
	</node>
	<node id="-454888" lat="60.3142416631" lon="6.65568610617">
		<tag k="name" v="Prestahagen" />
		<tag k="place" v="farm" />
		<tag k="ssr:stedsnr" v="99891" />
	</node>
	<node id="-454880" lat="60.3293545573" lon="6.65977828938">
		<tag k="name" v="Solbakken" />
		<tag k="place" v="farm" />
		<tag k="ssr:stedsnr" v="99813" />
	</node>
	<node id="-454872" lat="60.4691995212" lon="6.7535710991">
		<tag k="name" v="Oppsåta" />
		<tag k="place" v="farm" />
		<tag k="ssr:stedsnr" v="99726" />
	</node>
	<node id="-454865" lat="60.3322527777" lon="6.6547249952">
		<tag k="name" v="Skrivargarden" />
		<tag k="place" v="farm" />
		<tag k="ssr:stedsnr" v="99647" />
	</node>
	<node id="-454349" lat="60.2651749998" lon="7.17517778254">
		<tag k="historic" v="shieling" />
		<tag k="name" v="Heimsta Hallaskar" />
		<tag k="place" v="locality" />
		<tag k="ssr:stedsnr" v="369563" />
	</node>
	<node id="-454844" lat="60.2660361119" lon="6.64979166517">
		<tag k="historic" v="shieling" />
		<tag k="name" v="Gunnhildstøl" />
		<tag k="place" v="locality" />
		<tag k="ssr:stedsnr" v="99474" />
	</node>
	<node id="-454840" lat="60.20654722" lon="6.60371945152">
		<tag k="name" v="Bjårløa" />
		<tag k="place" v="farm" />
		<tag k="ssr:stedsnr" v="99437" />
	</node>
	<node id="-454345" lat="60.2950516449" lon="6.4378560593">
		<tag k="historic" v="shieling" />
		<tag k="name" v="Botnen" />
		<tag k="place" v="locality" />
		<tag k="ssr:stedsnr" v="369400" />
	</node>
	<node id="-454835" lat="60.3411611076" lon="6.62433611027">
		<tag k="name" v="Ulskjer" />
		<tag k="place" v="farm" />
		<tag k="ssr:stedsnr" v="99150" />
	</node>
	<node id="-454832" lat="60.4228027806" lon="6.54285554977">
		<tag k="name" v="Midttun" />
		<tag k="place" v="farm" />
		<tag k="ssr:stedsnr" v="99102" />
	</node>
	<node id="-454830" lat="60.4197138887" lon="6.53687221872">
		<tag k="name" v="Tråena" />
		<tag k="place" v="farm" />
		<tag k="ssr:stedsnr" v="99099" />
	</node>
	<node id="-454824" lat="60.3973056219" lon="6.64583786409">
		<tag k="historic" v="shieling" />
		<tag k="name" v="Nuten" />
		<tag k="place" v="locality" />
		<tag k="ssr:stedsnr" v="99004" />
	</node>
	<node id="-454802" lat="60.2570111096" lon="6.81289445147">
		<tag k="name" v="Primstein" />
		<tag k="place" v="locality" />
		<tag k="ssr:stedsnr" v="66655" />
	</node>
	<node id="-454793" lat="60.2775055568" lon="6.57389445215">
		<tag k="historic" v="shieling" />
		<tag k="name" v="Mjøstølen" />
		<tag k="place" v="locality" />
		<tag k="ssr:stedsnr" v="66370" />
	</node>
	<node id="-454791" lat="60.3806611095" lon="6.68618054708">
		<tag k="fixme" v="consider place=hamlet" />
		<tag k="name" v="Ystanes" />
		<tag k="place" v="farm" />
		<tag k="ssr:stedsnr" v="66356" />
	</node>
	<node id="-454786" lat="60.4470194405" lon="6.64176943671">
		<tag k="fixme" v="consider place=hamlet" />
		<tag k="name" v="Naustflot" />
		<tag k="place" v="farm" />
		<tag k="ssr:stedsnr" v="66325" />
	</node>
	<node id="-454784" lat="60.2995305576" lon="6.60248889553">
		<tag k="fixme" v="consider place=hamlet" />
		<tag k="name" v="Aga" />
		<tag k="place" v="village" />
		<tag k="ssr:stedsnr" v="66299" />
	</node>
	<node id="-454782" lat="60.3103011134" lon="6.59978945592">
		<tag k="fixme" v="multiple name tags, choose one and add the other to alt_name" />
		<tag k="historic" v="shieling" />
		<tag k="name" v="Hudnasete;Stølen" />
		<tag k="place" v="locality" />
		<tag k="ssr:stedsnr" v="66296" />
	</node>
	<node id="-454775" lat="60.3623976767" lon="6.70921513943">
		<tag k="historic" v="shieling" />
		<tag k="name" v="Heng" />
		<tag k="place" v="locality" />
		<tag k="ssr:stedsnr" v="66256" />
	</node>
	<node id="-454773" lat="60.372555555" lon="6.68216666393">
		<tag k="alt_name" v="Urdheim" />
		<tag k="name" v="Urheim" />
		<tag k="place" v="farm" />
		<tag k="ssr:stedsnr" v="66243" />
	</node>
	<node id="-454769" lat="60.3670194485" lon="6.40062499472">
		<tag k="name" v="Arneneset" />
		<tag k="place" v="farm" />
		<tag k="ssr:stedsnr" v="66090" />
	</node>
	<node id="-454768" lat="60.3633027734" lon="6.4012805498">
		<tag k="name" v="Bakken" />
		<tag k="place" v="locality" />
		<tag k="ssr:stedsnr" v="66089" />
	</node>
	<node id="-454757" lat="60.2368805543" lon="6.91756666577">
		<tag k="historic" v="shieling" />
		<tag k="name" v="Munkabu" />
		<tag k="place" v="locality" />
		<tag k="ssr:stedsnr" v="65461" />
	</node>
	<node id="-454746" lat="60.3847777783" lon="6.64400832577">
		<tag k="alt_name" v="Indre Råen" />
		<tag k="fixme" v="consider place=hamlet" />
		<tag k="name" v="Indre Råe" />
		<tag k="place" v="farm" />
		<tag k="ssr:stedsnr" v="59863" />
	</node>
	<node id="-454743" lat="60.0938010627" lon="7.13724400588">
		<tag k="fixme" v="consider tourism=alpine_hut or tourism=chalet" />
		<tag k="name" v="Litlos" />
		<tag k="ssr:stedsnr" v="65295" />
		<tag k="tourism" v="wilderness_hut" />
	</node>
	<node id="-454739" lat="60.0272611068" lon="7.27803056294">
		<tag k="name" v="Persbu" />
		<tag k="place" v="isolated_dwelling" />
		<tag k="ssr:stedsnr" v="65255" />
	</node>
	<node id="-454728" lat="60.3748444453" lon="6.78701944699">
		<tag k="historic" v="shieling" />
		<tag k="name" v="Smørstein" />
		<tag k="place" v="locality" />
		<tag k="ssr:stedsnr" v="39710" />
	</node>
	<node id="-454716" lat="60.2629304636" lon="6.57418528736">
		<tag k="name" v="Inste Åkre" />
		<tag k="place" v="farm" />
		<tag k="ssr:stedsnr" v="38947" />
	</node>
	<node id="-454710" lat="60.2967555591" lon="6.59272500145">
		<tag k="name" v="Nyeslåtten" />
		<tag k="place" v="farm" />
		<tag k="ssr:stedsnr" v="38858" />
	</node>
	<node id="-454698" lat="60.4622000033" lon="6.7280055606">
		<tag k="historic" v="shieling" />
		<tag k="name" v="Fonnastøl" />
		<tag k="place" v="locality" />
		<tag k="ssr:stedsnr" v="38697" />
	</node>
	<node id="-454690" lat="60.3314194438" lon="6.67034999469">
		<tag k="name" v="Rosshagen" />
		<tag k="place" v="farm" />
		<tag k="ssr:stedsnr" v="38619" />
	</node>
	<node id="-454682" lat="60.3186416642" lon="6.65977777473">
		<tag k="name" v="Hordatun" />
		<tag k="place" v="farm" />
		<tag k="ssr:stedsnr" v="38567" />
	</node>
	<node id="-454671" lat="60.2061305517" lon="6.608688882">
		<tag k="name" v="Haugsete" />
		<tag k="place" v="farm" />
		<tag k="ssr:stedsnr" v="38447" />
	</node>
	<node id="-454317" lat="60.3677083333" lon="6.44972499418">
		<tag k="name" v="Karlatræet" />
		<tag k="place" v="farm" />
		<tag k="ssr:stedsnr" v="369052" />
	</node>
	<node id="-454662" lat="60.3322527764" lon="6.61117499952">
		<tag k="name" v="Sanden" />
		<tag k="place" v="farm" />
		<tag k="ssr:stedsnr" v="38147" />
	</node>
	<node id="-454661" lat="60.3977416654" lon="6.5164694448">
		<tag k="name" v="Vågarden" />
		<tag k="place" v="farm" />
		<tag k="ssr:stedsnr" v="38139" />
	</node>
	<node id="-454659" lat="60.4247055546" lon="6.54226666873">
		<tag k="name" v="Øyri" />
		<tag k="place" v="farm" />
		<tag k="ssr:stedsnr" v="38114" />
	</node>
</osm>
