<?xml version="1.0" encoding="UTF-8"?>
<osm generator="osmapis" version="0.6">
	<node id="-454271" lat="60.2186833331" lon="6.56414445339">
		<tag k="highway" v="path" />
		<tag k="name" v="Raudstig" />
		<tag k="ssr:stedsnr" v="99967" />
	</node>
	<node id="-455934" lat="60.4679083341" lon="6.63518332441">
		<tag k="alt_name" v="Kjerringstø" />
		<tag k="fixme" v="verify maritime location" />
		<tag k="mooring" v="yes" />
		<tag k="name" v="Kjerringstod" />
		<tag k="place" v="locality" />
		<tag k="ssr:stedsnr" v="949722" />
	</node>
	<node id="-453909" lat="60.3757027778" lon="6.7232027793">
		<tag k="bridge" v="yes" />
		<tag k="layer" v="1" />
		<tag k="name" v="Kinso" />
		<tag k="ssr:stedsnr" v="896794" />
	</node>
	<node id="-454042" lat="60.4041472264" lon="6.61329722981">
		<tag k="highway" v="path" />
		<tag k="name" v="Bersvollstigen" />
		<tag k="ssr:stedsnr" v="38176" />
	</node>
	<node id="-455668" lat="60.3077611091" lon="6.59516666002">
		<tag k="highway" v="path" />
		<tag k="name" v="Espeskorstegane" />
		<tag k="ssr:stedsnr" v="827281" />
	</node>
	<node id="-454014" lat="60.1983638931" lon="6.71660833022">
		<tag k="highway" v="path" />
		<tag k="name" v="Vegaskil" />
		<tag k="ssr:stedsnr" v="21856" />
	</node>
	<node id="-455026" lat="60.3722978407" lon="6.70046211056">
		<tag k="highway" v="path" />
		<tag k="name" v="Kongsbergvegen" />
		<tag k="ssr:stedsnr" v="568202" />
	</node>
	<node id="-455024" lat="60.1238055529" lon="6.99360833323">
		<tag k="highway" v="path" />
		<tag k="name" v="Hardingslepa" />
		<tag k="ssr:stedsnr" v="567993" />
	</node>
	<node id="-453615" lat="60.4409194451" lon="6.79055832846">
		<tag k="ford" v="yes" />
		<tag k="name" v="Sleipavad" />
		<tag k="place" v="locality" />
		<tag k="ssr:stedsnr" v="341710" />
	</node>
	<node id="-454254" lat="60.3776805593" lon="6.8017694494">
		<tag k="highway" v="path" />
		<tag k="name" v="Flatakvilet" />
		<tag k="ssr:stedsnr" v="99807" />
	</node>
	<node id="-455021" lat="60.2785333361" lon="7.07049444319">
		<tag k="highway" v="path" />
		<tag k="name" v="Søra Nordmannsslepa" />
		<tag k="ssr:stedsnr" v="567585" />
	</node>
	<node id="-454123" lat="60.4240500023" lon="6.62178055121">
		<tag k="amenity" v="ferry_terminal" />
		<tag k="name" v="Utne ferjekai" />
		<tag k="ssr:stedsnr" v="60122" />
	</node>
	<node id="-454761" lat="60.3649472188" lon="6.73230556334">
		<tag k="fixme" v="consider highway=path" />
		<tag k="highway" v="track" />
		<tag k="name" v="Sagvegen" />
		<tag k="ssr:stedsnr" v="463588" />
	</node>
	<node id="-455653" lat="60.1782083342" lon="6.57969722227">
		<tag k="highway" v="path" />
		<tag k="name" v="Hundstien" />
		<tag k="ssr:stedsnr" v="826426" />
	</node>
	<node id="-455107" lat="60.4227666643" lon="6.6247166666">
		<tag k="bridge" v="yes" />
		<tag k="layer" v="1" />
		<tag k="name" v="Utneselvi" />
		<tag k="ssr:stedsnr" v="592817" />
	</node>
	<node id="-454114" lat="60.2056194471" lon="6.56348333083">
		<tag k="bridge" v="yes" />
		<tag k="layer" v="1" />
		<tag k="name" v="Måge" />
		<tag k="ssr:stedsnr" v="46789" />
	</node>
	<node id="-454113" lat="60.2403999995" lon="6.61981389663">
		<tag k="bridge" v="yes" />
		<tag k="layer" v="1" />
		<tag k="name" v="Glåmo" />
		<tag k="ssr:stedsnr" v="46787" />
	</node>
	<node id="-455904" lat="60.4230249974" lon="6.59481389362">
		<tag k="highway" v="path" />
		<tag k="name" v="Nevrastigen" />
		<tag k="ssr:stedsnr" v="949093" />
	</node>
	<node id="-454110" lat="60.1641500019" lon="6.5767277834">
		<tag k="alt_name" v="Fresvik" />
		<tag k="layer" v="-1" />
		<tag k="name" v="Fresviktunnelen" />
		<tag k="ssr:stedsnr" v="44421" />
		<tag k="tunnel" v="yes" />
	</node>
	<node id="-454757" lat="60.3733598032" lon="6.68919080473">
		<tag k="loc_name" v="Legehaugane" />
		<tag k="name" v="Laugehaugane" />
		<tag k="place" v="locality" />
		<tag k="ssr:stedsnr" v="463553" />
	</node>
	<node id="-455644" lat="60.2690277735" lon="7.16009999282">
		<tag k="ford" v="yes" />
		<tag k="name" v="Kongsbergvadet" />
		<tag k="place" v="locality" />
		<tag k="ssr:stedsnr" v="810606" />
	</node>
	<node id="-455258" lat="60.1652222257" lon="6.85900000523">
		<tag k="ford" v="yes" />
		<tag k="name" v="Tyssevadet" />
		<tag k="place" v="locality" />
		<tag k="ssr:stedsnr" v="671453" />
	</node>
	<node id="-455255" lat="60.1647638912" lon="7.00752778594">
		<tag k="highway" v="path" />
		<tag k="name" v="Skålsspranget" />
		<tag k="ssr:stedsnr" v="671327" />
	</node>
	<node id="-455252" lat="60.2967666654" lon="6.63935834049">
		<tag k="bridge" v="yes" />
		<tag k="layer" v="1" />
		<tag k="name" v="Deildo" />
		<tag k="ssr:stedsnr" v="653781" />
	</node>
	<node id="-453839" lat="60.4182472243" lon="6.61086111194">
		<tag k="highway" v="path" />
		<tag k="name" v="Stigen" />
		<tag k="ssr:stedsnr" v="888066" />
	</node>
	<node id="-454797" lat="60.1999444437" lon="6.54147777329">
		<tag k="highway" v="path" />
		<tag k="name" v="Brattastig" />
		<tag k="ssr:stedsnr" v="463962" />
	</node>
	<node id="-453451" lat="60.3122027796" lon="6.60486666316">
		<tag k="highway" v="path" />
		<tag k="name" v="Bakkastigen" />
		<tag k="ssr:stedsnr" v="281266" />
	</node>
	<node id="-454253" lat="60.4192305563" lon="6.7798666617">
		<tag k="man_made" v="cairn" />
		<tag k="name" v="Varden" />
		<tag k="place" v="locality" />
		<tag k="ssr:stedsnr" v="99787" />
	</node>
	<node id="-453959" lat="60.1824333325" lon="6.66234721968">
		<tag k="highway" v="path" />
		<tag k="name" v="Bjørnaslepet" />
		<tag k="ssr:stedsnr" v="4433" />
	</node>
	<node id="-453828" lat="60.4214972265" lon="6.54061111685">
		<tag k="bridge" v="yes" />
		<tag k="layer" v="1" />
		<tag k="loc_name" v="Loteselvbrui" />
		<tag k="name" v="Lote" />
		<tag k="ssr:stedsnr" v="410758" />
	</node>
	<node id="-453827" lat="60.3216111102" lon="6.60734722677">
		<tag k="layer" v="-1" />
		<tag k="loc_name" v="Velureskredene" />
		<tag k="name" v="Kveldsfesteskredo Velure o" />
		<tag k="ssr:stedsnr" v="408303" />
		<tag k="tunnel" v="yes" />
	</node>
	<node id="-455106" lat="60.3409972254" lon="6.65581389219">
		<tag k="bridge" v="yes" />
		<tag k="layer" v="1" />
		<tag k="name" v="Hellelandshagebrui" />
		<tag k="ssr:stedsnr" v="592804" />
	</node>
	<node id="-454721" lat="60.2566222212" lon="6.81558055121">
		<tag k="highway" v="path" />
		<tag k="name" v="Kjerringekleiv" />
		<tag k="ssr:stedsnr" v="447177" />
	</node>
	<node id="-453791" lat="60.3730638906" lon="6.77927777715">
		<tag k="highway" v="path" />
		<tag k="name" v="Klyvet" />
		<tag k="ssr:stedsnr" v="402840" />
	</node>
	<node id="-455743" lat="60.170008336" lon="7.13922777569">
		<tag k="ford" v="yes" />
		<tag k="name" v="Nekkjaspranget" />
		<tag k="place" v="locality" />
		<tag k="ssr:stedsnr" v="854306" />
	</node>
	<node id="-454332" lat="60.2727749968" lon="6.80956388045">
		<tag k="highway" v="path" />
		<tag k="name" v="Skarvavegen" />
		<tag k="ssr:stedsnr" v="127717" />
	</node>
	<node id="-453912" lat="60.3003805563" lon="6.60344444004">
		<tag k="bridge" v="yes" />
		<tag k="layer" v="1" />
		<tag k="name" v="Storebekk" />
		<tag k="ssr:stedsnr" v="896806" />
	</node>
	<node id="-454969" lat="60.1495249987" lon="6.88596388295">
		<tag k="man_made" v="cairn" />
		<tag k="name" v="Skjeldåsvarden" />
		<tag k="place" v="locality" />
		<tag k="ssr:stedsnr" v="550451" />
	</node>
	<node id="-454840" lat="60.1409222205" lon="6.9438444535">
		<tag k="ford" v="yes" />
		<tag k="name" v="Bykset" />
		<tag k="place" v="locality" />
		<tag k="ssr:stedsnr" v="490393" />
	</node>
	<node id="-454426" lat="60.2437305513" lon="6.70246388693">
		<tag k="fixme" v="multiple name tags, choose one and add the other to alt_name" />
		<tag k="highway" v="path" />
		<tag k="name" v="Sneisagavlskroken;Ysjekroken" />
		<tag k="ssr:stedsnr" v="186011" />
	</node>
	<node id="-454580" lat="60.2117000039" lon="6.56693611825">
		<tag k="bridge" v="yes" />
		<tag k="layer" v="1" />
		<tag k="name" v="Idlegjel" />
		<tag k="ssr:stedsnr" v="229762" />
	</node>
	<node id="-454579" lat="60.2351583311" lon="6.61763889488">
		<tag k="layer" v="-1" />
		<tag k="name" v="Stana" />
		<tag k="ssr:stedsnr" v="226760" />
		<tag k="tunnel" v="yes" />
	</node>
	<node id="-453682" lat="60.3848611145" lon="6.49896667516">
		<tag k="bridge" v="yes" />
		<tag k="layer" v="1" />
		<tag k="loc_name" v="Alsåkerbrui" />
		<tag k="name" v="Alsåkerelva" />
		<tag k="ssr:stedsnr" v="350758" />
	</node>
	<node id="-455731" lat="60.3911583324" lon="6.64970000601">
		<tag k="bridge" v="yes" />
		<tag k="layer" v="1" />
		<tag k="name" v="Langasete" />
		<tag k="ssr:stedsnr" v="835773" />
	</node>
	<node id="-453680" lat="60.234069442" lon="6.61668610889">
		<tag k="bridge" v="yes" />
		<tag k="layer" v="1" />
		<tag k="name" v="Hovland" />
		<tag k="ssr:stedsnr" v="350743" />
	</node>
	<node id="-454956" lat="60.3688083373" lon="6.43248333878">
		<tag k="bridge" v="yes" />
		<tag k="layer" v="1" />
		<tag k="loc_name" v="Bjotveitbrui" />
		<tag k="name" v="Bjotveit" />
		<tag k="ssr:stedsnr" v="532761" />
	</node>
	<node id="-454955" lat="60.3467305544" lon="6.6274305537">
		<tag k="bridge" v="yes" />
		<tag k="layer" v="1" />
		<tag k="name" v="Jaastad" />
		<tag k="ssr:stedsnr" v="532754" />
	</node>
	<node id="-454954" lat="60.2393000008" lon="6.62240277177">
		<tag k="bridge" v="yes" />
		<tag k="layer" v="1" />
		<tag k="name" v="Trappetun" />
		<tag k="ssr:stedsnr" v="531784" />
	</node>
	<node id="-454112" lat="60.2457939869" lon="6.5672438395">
		<tag k="bridge" v="yes" />
		<tag k="layer" v="1" />
		<tag k="name" v="Bleie" />
		<tag k="ssr:stedsnr" v="46786" />
	</node>
	<node id="-454312" lat="60.2500277758" lon="6.84691111768">
		<tag k="name" v="Moldkleiv" />
		<tag k="place" v="locality" />
		<tag k="ssr:stedsnr" v="126623" />
	</node>
	<node id="-453681" lat="60.3233861093" lon="6.60701666782">
		<tag k="bridge" v="yes" />
		<tag k="layer" v="1" />
		<tag k="name" v="Bersåsskreda" />
		<tag k="ssr:stedsnr" v="350746" />
	</node>
	<node id="-453510" lat="60.1888361132" lon="6.58903333525">
		<tag k="layer" v="-1" />
		<tag k="name" v="Vindhammer" />
		<tag k="ssr:stedsnr" v="287691" />
		<tag k="tunnel" v="yes" />
	</node>
	<node id="-454064" lat="60.3304722252" lon="6.67887778279">
		<tag k="ford" v="yes" />
		<tag k="name" v="Kaldavad" />
		<tag k="place" v="locality" />
		<tag k="ssr:stedsnr" v="38610" />
	</node>
	<node id="-455838" lat="60.2903027771" lon="7.06221111955">
		<tag k="ford" v="yes" />
		<tag k="name" v="Nautavad" />
		<tag k="place" v="locality" />
		<tag k="ssr:stedsnr" v="915495" />
	</node>
	<node id="-454427" lat="60.2475500021" lon="6.72026943997">
		<tag k="man_made" v="cairn" />
		<tag k="name" v="Vigleiksvarden" />
		<tag k="place" v="locality" />
		<tag k="ssr:stedsnr" v="186010" />
	</node>
	<node id="-455962" lat="60.2776776746" lon="6.61930505634">
		<tag k="man_made" v="quay" />
		<tag k="name" v="Nausto" />
		<tag k="place" v="locality" />
		<tag k="ssr:stedsnr" v="978429" />
	</node>
	<node id="-455577" lat="60.4645222204" lon="6.82172499501">
		<tag k="layer" v="-1" />
		<tag k="name" v="Butunnelen" />
		<tag k="ssr:stedsnr" v="778886" />
		<tag k="tunnel" v="yes" />
	</node>
	<node id="-455576" lat="60.4493916666" lon="6.8045611176">
		<tag k="bridge" v="yes" />
		<tag k="layer" v="1" />
		<tag k="name" v="Bjotveit" />
		<tag k="ssr:stedsnr" v="775752" />
	</node>
	<node id="-455575" lat="60.2913110203" lon="6.59844009841">
		<tag k="bridge" v="yes" />
		<tag k="layer" v="1" />
		<tag k="name" v="Syreflotbrui" />
		<tag k="ssr:stedsnr" v="774788" />
	</node>
	<node id="-455574" lat="60.2502416647" lon="6.56999999161">
		<tag k="bridge" v="yes" />
		<tag k="layer" v="1" />
		<tag k="name" v="Naust" />
		<tag k="ssr:stedsnr" v="774785" />
	</node>
	<node id="-455573" lat="60.4061027781" lon="6.73293054716">
		<tag k="bridge" v="yes" />
		<tag k="layer" v="1" />
		<tag k="name" v="Koldegjel" />
		<tag k="ssr:stedsnr" v="774775" />
	</node>
	<node id="-454801" lat="60.3829694475" lon="6.49477499856">
		<tag k="bridge" v="yes" />
		<tag k="layer" v="1" />
		<tag k="loc_name" v="Alsvikbrui" />
		<tag k="name" v="Alsviken" />
		<tag k="ssr:stedsnr" v="471784" />
	</node>
	<node id="-454168" lat="60.2704666691" lon="6.48290832992">
		<tag k="loc_name" v="Klokkaren" />
		<tag k="man_made" v="cairn" />
		<tag k="name" v="Klokkarane" />
		<tag k="place" v="locality" />
		<tag k="ssr:stedsnr" v="66368" />
	</node>
	<node id="-455950" lat="60.385994442" lon="6.64497222">
		<tag k="bridge" v="yes" />
		<tag k="layer" v="1" />
		<tag k="name" v="Grimo" />
		<tag k="ssr:stedsnr" v="957761" />
	</node>
	<node id="-455949" lat="60.2373777811" lon="6.56297778347">
		<tag k="bridge" v="yes" />
		<tag k="layer" v="1" />
		<tag k="name" v="Skipervik" />
		<tag k="ssr:stedsnr" v="956778" />
	</node>
	<node id="-455042" lat="60.4285999994" lon="6.56690000653">
		<tag k="highway" v="path" />
		<tag k="name" v="Tveitestigen" />
		<tag k="ssr:stedsnr" v="584019" />
	</node>
	<node id="-454424" lat="60.3760361077" lon="6.71911388719">
		<tag k="amenity" v="ferry_terminal" />
		<tag k="name" v="Kinsarvik ferjekai" />
		<tag k="ssr:stedsnr" v="181113" />
	</node>
	<node id="-453911" lat="60.3262472227" lon="6.60554722406">
		<tag k="bridge" v="yes" />
		<tag k="layer" v="1" />
		<tag k="name" v="Velure" />
		<tag k="ssr:stedsnr" v="896803" />
	</node>
	<node id="-454280" lat="60.1931000002" lon="7.06918333897">
		<tag k="man_made" v="cairn" />
		<tag k="name" v="Hårteigen" />
		<tag k="place" v="locality" />
		<tag k="ssr:stedsnr" v="111314" />
	</node>
	<node id="-454279" lat="60.4221777764" lon="6.62579999996">
		<tag k="bridge" v="yes" />
		<tag k="layer" v="1" />
		<tag k="name" v="Utneselvi" />
		<tag k="ssr:stedsnr" v="107790" />
	</node>
	<node id="-454278" lat="60.4567111108" lon="6.81158611396">
		<tag k="layer" v="-1" />
		<tag k="name" v="Blakhammar" />
		<tag k="ssr:stedsnr" v="105143" />
		<tag k="tunnel" v="yes" />
	</node>
	<node id="-453910" lat="60.206599999" lon="6.60144999167">
		<tag k="bridge" v="yes" />
		<tag k="layer" v="1" />
		<tag k="name" v="Espe" />
		<tag k="ssr:stedsnr" v="896801" />
	</node>
	<node id="-455475" lat="60.32576389" lon="6.73940832664">
		<tag k="man_made" v="cairn" />
		<tag k="name" v="Heradsvarden" />
		<tag k="place" v="locality" />
		<tag k="ssr:stedsnr" v="749188" />
	</node>
	<node id="-453505" lat="60.3793638909" lon="6.51192500086">
		<tag k="bridge" v="yes" />
		<tag k="layer" v="1" />
		<tag k="name" v="Geitabruna" />
		<tag k="ssr:stedsnr" v="281989" />
	</node>
</osm>
